{"version": 0.6, "generator": "Overpass API 0.7.61.5 4133829e", "osm3s": {"timestamp_osm_base": "2024-03-06T11:18:45Z", "copyright": "The data included in this document is from www.openstreetmap.org. The data is made available under ODbL."}, "elements": [{"type": "node", "id": 1438521475, "lat": 34.1835571, "lon": 42.3730162, "tags": {"int_name": "Abu Tugharah", "place": "village", "source": "NIMA"}}, {"type": "node", "id": 2488415547, "lat": 34.1973671, "lon": 42.3745572, "tags": {"alt_name": "\u0623\u0628\u0648 \u0637\u063a\u0631\u0629", "int_name": "Abu Tughara, Ab\u016b \u0162ugh\u0101rah, Ab\u016b \u0162ughrah, Abu Tughara, Abu Tugharah, Abu Tughrah", "name": "\u0623\u0628\u0648 \u0637\u063a\u0631\u0629", "name:ar": "\u0623\u0628\u0648 \u0637\u063a\u0631\u0629", "name:ar1": "\u0623\u0628\u0648 \u0637\u063a\u0631\u0629", "name:de": "Abu Tughara", "name:en": "Abu Tughara", "name:fr": "Abu Tughara", "place": "village"}}, {"type": "node", "id": 2488415576, "lat": 34.094716, "lon": 42.365502, "tags": {"alt_name": "\u0627\u0644\u062d\u0642\u0644\u0627\u0646\u064a\u0629 \u0627\u0644\u063a\u0631\u0628\u064a\u0629", "int_name": "Al \u1e28aql\u0101n\u012byah al Gharb\u012byah, \u0627\u0644\u062d\u0642\u0644\u0627\u0646\u064a\u0629 \u0627\u0644\u063a\u0631\u0628\u064a\u0629, Al Haqlaniyah al Gharbiyah, \u0627\u0644\u062d\u0642\u0644\u0627\u0646\u064a\u0629 \u0627\u0644\u063a\u0631\u0628\u064a\u0629", "name": "\u0627\u0644\u062d\u0642\u0644\u0627\u0646\u064a\u0629 \u0627\u0644\u063a\u0631\u0628\u064a\u0629", "name:ar": "\u0627\u0644\u062d\u0642\u0644\u0627\u0646\u064a\u0629 \u0627\u0644\u063a\u0631\u0628\u064a\u0629", "name:ar1": "\u0627\u0644\u062d\u0642\u0644\u0627\u0646\u064a\u0629 \u0627\u0644\u063a\u0631\u0628\u064a\u0629", "name:de": "Al Haqlaniyah al Gharbiyah", "name:en": "Al Haqlaniyah al Gharbiyah", "name:fr": "Al Haqlaniyah al Gharbiyah", "place": "village"}}, {"type": "node", "id": 2488415590, "lat": 34.083784, "lon": 42.3605358, "tags": {"alt_name": "\u0627\u0644\u062d\u0642\u0644\u0627\u0646\u064a\u0629", "capital": "7", "int_name": "Al Haqlaniyah - \u0627\u0644\u062d\u0642\u0644\u0627\u0646\u064a\u0629", "name": "\u0627\u0644\u062d\u0642\u0644\u0627\u0646\u064a\u0629", "name:ar": "\u0627\u0644\u062d\u0642\u0644\u0627\u0646\u064a\u0629", "name:de": "Haqlaniyah", "name:en": "Haqlaniyah", "name:fr": "Haqlaniyah", "place": "town", "population": "17947", "population:date": "2010", "source:population": "https://ru.wikipedia.org/wiki/%D0%AD%D0%BB%D1%8C-%D0%A5%D0%B0%D0%BA%D0%BB%D0%B0%D0%BD%D0%B8%D1%8F", "wikidata": "Q5653413", "wikipedia": "en:Haqlaniyah"}}, {"type": "node", "id": 2488415643, "lat": 34.109554, "lon": 42.400462, "tags": {"alt_name": "\u0642\u0631\u064a\u0629 \u0627\u0644\u0639\u0644\u064a\u0627", "int_name": "Al Ulyah, Qaryat al Uly\u0101, \u0642\u0631\u064a\u0629 \u0627\u0644\u0639\u0644\u064a\u0627, Al Ulyah, Qaryat al Ulya, \u0642\u0631\u064a\u0629 \u0627\u0644\u0639\u0644\u064a\u0627", "name": "\u0642\u0631\u064a\u0629 \u0627\u0644\u0639\u0644\u064a\u0627", "name:ar": "\u0642\u0631\u064a\u0629 \u0627\u0644\u0639\u0644\u064a\u0627", "name:ar1": "\u0642\u0631\u064a\u0629 \u0627\u0644\u0639\u0644\u064a\u0627", "name:de": "Al Ulyah", "name:en": "Al Ulyah", "name:fr": "Al Ulyah", "place": "village"}}, {"type": "node", "id": 2488415658, "lat": 34.1919159, "lon": 42.3879206, "tags": {"alt_name": "\u0639\u0644\u064a \u0628\u0648\u0642\u0627\u0646", "int_name": "Al\u012b B\u016bq\u0101n, \u0639\u0644\u064a \u0628\u0648\u0642\u0627\u0646, Ali Buqan, \u0639\u0644\u064a \u0628\u0648\u0642\u0627\u0646", "name": "\u0639\u0644\u064a \u0628\u0648\u0642\u0627\u0646", "name:ar": "\u0639\u0644\u064a \u0628\u0648\u0642\u0627\u0646", "name:ar1": "\u0639\u0644\u064a \u0628\u0648\u0642\u0627\u0646", "name:de": "Ali Buqan", "name:en": "Ali Buqan", "name:fr": "Ali Buqan", "place": "village"}}, {"type": "node", "id": 2488415703, "lat": 34.0195259, "lon": 42.4110023, "tags": {"alt_name": "\u0642\u0631\u064a\u0629 \u0622\u0644\u0648\u0633", "int_name": "\u0100l\u016bs, Qaryat Al Wass, Qaryat \u0100l\u016bs, \u0642\u0631\u064a\u0629 \u0627\u0644\u0648\u0633, Alus, Qaryat Al Wass, Qaryat Alus, \u0642\u0631\u064a\u0629 \u0627\u0644\u0648\u0633", "name": "\u0642\u0631\u064a\u0629 \u0622\u0644\u0648\u0633", "name:ar": "\u0642\u0631\u064a\u0629 \u0622\u0644\u0648\u0633", "name:ar1": "\u0642\u0631\u064a\u0629 \u0622\u0644\u0648\u0633", "name:de": "Alus", "name:en": "Alus", "name:fr": "Alus", "place": "village"}}, {"type": "node", "id": 2488415712, "lat": 34.180044, "lon": 42.395173, "tags": {"alt_name": "\u0639\u0631\u0628 \u0641\u0644\u064a\u062d \u062d\u0633\u0646", "int_name": "Arab Fulay\u1e29 \u1e28asan, \u0639\u0631\u0628 \u0641\u0644\u064a\u062d \u062d\u0633\u0646, Arab Fulayh Hasan, \u0639\u0631\u0628 \u0641\u0644\u064a\u062d \u062d\u0633\u0646", "name": "\u0639\u0631\u0628 \u0641\u0644\u064a\u062d \u062d\u0633\u0646", "name:ar": "\u0639\u0631\u0628 \u0641\u0644\u064a\u062d \u062d\u0633\u0646", "name:ar1": "\u0639\u0631\u0628 \u0641\u0644\u064a\u062d \u062d\u0633\u0646", "name:de": "Arab Fulayh Hasan", "name:en": "Arab Fulayh Hasan", "name:fr": "Arab Fulayh Hasan", "place": "hamlet"}}, {"type": "node", "id": 2488415731, "lat": 34.1510488, "lon": 42.3783871, "tags": {"alt_name": "\u0627\u0644\u0633\u0644\u064a\u0645\u0627\u0646\u064a\u0629", "int_name": "As Sulaym\u0101n\u012byah, As Sulaymaniyah", "name": "\u0627\u0644\u0633\u0644\u064a\u0645\u0627\u0646\u064a\u0629", "name:ar": "\u0627\u0644\u0633\u0644\u064a\u0645\u0627\u0646\u064a\u0629", "name:ar1": "\u0627\u0644\u0633\u0644\u064a\u0645\u0627\u0646\u064a\u0629", "name:de": "As Sulaymaniyah", "name:en": "As Sulaymaniyah", "name:fr": "As Sulaymaniyah", "place": "village"}}, {"type": "node", "id": 2488415798, "lat": 34.095793, "lon": 42.388824, "tags": {"alt_name": "Barwana, Barw\u0101nah, N\u0101\u1e29iyat Barw\u0101nah, \u0646\u0627\u062d\u064a\u0629 \u0628\u0631\u0648\u0627\u0646\u0629, Barwana, Barwanah, Nahiyat Barwanah, \u0646\u0627\u062d\u064a\u0629 \u0628\u0631\u0648\u0627\u0646\u0629", "capital": "7", "int_name": "Barwana, \u0628\u0631\u0648\u0627\u0646\u0629", "name": "\u0628\u0631\u0648\u0627\u0646\u0629", "name:ar": "\u0628\u0631\u0648\u0627\u0646\u0629", "name:de": "Barwana", "name:en": "Barwana", "name:fr": "Barwana", "place": "town"}}, {"type": "node", "id": 2488415815, "lat": 34.0061479, "lon": 42.4386722, "tags": {"alt_name": "\u062f\u0631\u062f\u0627\u0633\u0629", "int_name": "Dardasa, Dard\u0101sah, Dardasa, Dardasah", "name": "\u062f\u0631\u062f\u0627\u0633\u0629", "name:ar": "\u062f\u0631\u062f\u0627\u0633\u0629", "name:ar1": "\u062f\u0631\u062f\u0627\u0633\u0629", "name:de": "Dardasa", "name:en": "Dardasa", "name:fr": "Dardasa", "place": "village"}}, {"type": "node", "id": 2488415849, "lat": 34.1352594, "lon": 42.3778367, "tags": {"alt_name:ko": "\ud558\ub514\uc0ac", "capital": "6", "int_name": "Haditha - \u062d\u062f\u064a\u062b\u0629", "name": "\u062d\u062f\u064a\u062b\u0629", "name:ar": "\u062d\u062f\u064a\u062b\u0629", "name:ar1": "\u0642\u0636\u0627\u0621 \u062d\u062f\u064a\u062b\u0629", "name:ckb": "\u062d\u06d5\u062f\u06cc\u0633\u06d5", "name:de": "Haditha", "name:en": "Haditha", "name:fr": "Haditha", "name:he": "\u05d7\u05d3\u05d9\u05d8\u05d4", "name:hi": "\u0939\u0926\u0940\u0925\u093e", "name:ko": "\ud558\ub514\ud0c0", "name:ku": "Hed\u00eese", "name:ml": "\u0d39\u0d26\u0d40\u0d24\u0d4d\u0d24", "name:ru": "\u042d\u043b\u044c-\u0425\u0430\u0434\u0438\u0442\u0430", "place": "city", "wikidata": "Q944368"}}, {"type": "node", "id": 2488415861, "lat": 34.083333, "lon": 42.366667, "tags": {"alt_name": "\u062d\u0648\u064a\u062c\u0629 \u0623\u0631\u0628\u0627\u0646", "int_name": "Haw\u012bja Arban, Hawijan Arban, \u1e28aw\u012bjat Arb\u0101n, Hawija Arban, Hawijan Arban, Hawijat Arban", "name": "\u062d\u0648\u064a\u062c\u0629 \u0623\u0631\u0628\u0627\u0646", "name:ar": "\u062d\u0648\u064a\u062c\u0629 \u0623\u0631\u0628\u0627\u0646", "name:ar1": "\u062d\u0648\u064a\u062c\u0629 \u0623\u0631\u0628\u0627\u0646", "name:de": "Hawija Arban", "name:en": "Hawija Arban", "name:fr": "Hawija Arban", "place": "village"}}, {"type": "node", "id": 2488415873, "lat": 34.0498856, "lon": 42.4195528, "tags": {"alt_name": "\u0647\u0648\u064a\u062c\u0629 \u0633\u0644\u064a\u0645\u0627\u0646\u064a\u0629", "int_name": "Haw\u012bja Sulaiman\u012bya, Hawija Sulaimaniya", "name": "\u0647\u0648\u064a\u062c\u0629 \u0633\u0644\u064a\u0645\u0627\u0646\u064a\u0629", "name:ar": "\u0647\u0648\u064a\u062c\u0629 \u0633\u0644\u064a\u0645\u0627\u0646\u064a\u0629", "name:ar1": "\u0647\u0648\u064a\u062c\u0629 \u0633\u0644\u064a\u0645\u0627\u0646\u064a\u0629", "name:de": "Hawija Sulaimaniya", "name:en": "Hawija Sulaimaniya", "name:fr": "Hawija Sulaimaniya", "place": "village"}}, {"type": "node", "id": 2488415880, "lat": 34.0494058, "lon": 42.4200945, "tags": {"alt_name": "\u062d\u0648\u064a\u062c\u0629 \u0633\u0644\u064a\u0645\u0627\u0646\u064a\u0629", "int_name": "\u1e28aw\u012bjah Sulaym\u0101n\u012byah, \u1e28aw\u012bjat Sulaym\u0101n\u012byah, Hawijah Sulaymaniyah, Hawijat Sulaymaniyah", "name": "\u062d\u0648\u064a\u062c\u0629 \u0633\u0644\u064a\u0645\u0627\u0646\u064a\u0629", "name:ar": "\u062d\u0648\u064a\u062c\u0629 \u0633\u0644\u064a\u0645\u0627\u0646\u064a\u0629", "name:ar1": "\u062d\u0648\u064a\u062c\u0629 \u0633\u0644\u064a\u0645\u0627\u0646\u064a\u0629", "name:de": "Hawijah Sulaymaniyah", "name:en": "Hawijah Sulaymaniyah", "name:fr": "Hawijah Sulaymaniyah", "place": "village"}}, {"type": "node", "id": 2488415887, "lat": 34.107839, "lon": 42.381218, "tags": {"alt_name": "\u062d\u064a \u0628\u0646\u064a \u062f\u0627\u0647\u0631", "int_name": "\u1e28ayy Ban\u012b D\u0101hir, \u062d\u064a \u0628\u0646\u064a \u062f\u0627\u0647\u0631, Hayy Bani Dahir, \u062d\u064a \u0628\u0646\u064a \u062f\u0627\u0647\u0631", "name": "\u062d\u064a \u0628\u0646\u064a \u062f\u0627\u0647\u0631", "name:ar": "\u062d\u064a \u0628\u0646\u064a \u062f\u0627\u0647\u0631", "name:ar1": "\u062d\u064a \u0628\u0646\u064a \u062f\u0627\u0647\u0631", "name:de": "Hayy Bani Dahir", "name:en": "Hayy Bani Dahir", "name:fr": "Hayy Bani Dahir", "place": "hamlet"}}, {"type": "node", "id": 2488415893, "lat": 34.092457, "lon": 42.38305, "tags": {"alt_name": "\u062d\u064a \u0627\u0644\u0648\u0643\u0644\u0627\u062a", "int_name": "\u1e28ayy al Wakal\u0101t, \u062d\u064a \u0627\u0644\u0648\u0643\u0644\u0627\u062a, Hayy al Wakalat, \u062d\u064a \u0627\u0644\u0648\u0643\u0644\u0627\u062a", "name": "\u062d\u064a \u0627\u0644\u0648\u0643\u0644\u0627\u062a", "name:ar": "\u062d\u064a \u0627\u0644\u0648\u0643\u0644\u0627\u062a", "name:ar1": "\u062d\u064a \u0627\u0644\u0648\u0643\u0644\u0627\u062a", "name:de": "Hayy al Wakalat", "name:en": "Hayy al Wakalat", "name:fr": "Hayy al Wakalat", "place": "hamlet"}}, {"type": "node", "id": 2488415899, "lat": 34.1489502, "lon": 42.379583, "tags": {"alt_name": "\u0625\u0645\u0627\u0645 \u0646\u0648\u0631 \u0627\u0644\u062f\u064a\u0646", "int_name": "Im\u0101m N\u016br ad D\u012bn, Im\u0101m N\u016br ud din, Imam Nur ad Din, Imam Nur ud din", "name": "\u0625\u0645\u0627\u0645 \u0646\u0648\u0631 \u0627\u0644\u062f\u064a\u0646", "name:ar": "\u0625\u0645\u0627\u0645 \u0646\u0648\u0631 \u0627\u0644\u062f\u064a\u0646", "name:ar1": "\u0625\u0645\u0627\u0645 \u0646\u0648\u0631 \u0627\u0644\u062f\u064a\u0646", "name:de": "Imam Nur ad Din", "name:en": "Imam Nur ad Din", "name:fr": "Imam Nur ad Din", "place": "village"}}, {"type": "node", "id": 2488415923, "lat": 34.1839831, "lon": 42.3738316, "tags": {"alt_name": "\u0645\u062d\u0645\u0648\u062f \u0627\u0644\u062d\u0645\u062f", "int_name": "Ma\u1e29m\u016bd al \u1e28amad, \u0645\u062d\u0645\u0648\u062f \u0627\u0644\u062d\u0645\u062f, Mahmud al Hamad, \u0645\u062d\u0645\u0648\u062f \u0627\u0644\u062d\u0645\u062f", "name": "\u0645\u062d\u0645\u0648\u062f \u0627\u0644\u062d\u0645\u062f", "name:ar": "\u0645\u062d\u0645\u0648\u062f \u0627\u0644\u062d\u0645\u062f", "name:ar1": "\u0645\u062d\u0645\u0648\u062f \u0627\u0644\u062d\u0645\u062f", "name:de": "Mahmud al Hamad", "name:en": "Mahmud al Hamad", "name:fr": "Mahmud al Hamad", "place": "village"}}, {"type": "node", "id": 2488415955, "lat": 34.100556, "lon": 42.385278, "tags": {"alt_name": "\u0645\u0631\u0643\u0644\u0627\u0646", "int_name": "Margalan, Markal\u0101n, Mirjal\u0101n, Margalan, Markalan, Mirjalan", "name": "\u0645\u0631\u0643\u0644\u0627\u0646", "name:ar": "\u0645\u0631\u0643\u0644\u0627\u0646", "name:ar1": "\u0645\u0631\u0643\u0644\u0627\u0646", "name:de": "Margalan", "name:en": "Margalan", "name:fr": "Margalan", "place": "village"}}, {"type": "node", "id": 2488415978, "lat": 34.1223399, "lon": 42.3967883, "tags": {"alt_name": "\u0645\u062a\u0645\u0627\u0634", "int_name": "Matm\u0101sh, Matmash", "name": "\u0645\u062a\u0645\u0627\u0634", "name:ar": "\u0645\u062a\u0645\u0627\u0634", "name:ar1": "\u0645\u062a\u0645\u0627\u0634", "name:de": "Matmash", "name:en": "Matmash", "name:fr": "Matmash", "place": "village"}}, {"type": "node", "id": 2488416011, "lat": 34.1974987, "lon": 42.3745221, "tags": {"alt_name": "\u0642\u0631\u064a\u0629 \u0623\u0628\u0648 \u0637\u0646\u062c\u0631\u0629", "int_name": "Qaryat Ab\u016b \u0162anjarah, \u0642\u0631\u064a\u0629 \u0627\u0628\u0648 \u0637\u0646\u062c\u0631\u0629, Qaryat Abu Tanjarah, \u0642\u0631\u064a\u0629 \u0627\u0628\u0648 \u0637\u0646\u062c\u0631\u0629", "name": "\u0642\u0631\u064a\u0629 \u0623\u0628\u0648 \u0637\u0646\u062c\u0631\u0629", "name:ar": "\u0642\u0631\u064a\u0629 \u0623\u0628\u0648 \u0637\u0646\u062c\u0631\u0629", "name:ar1": "\u0642\u0631\u064a\u0629 \u0623\u0628\u0648 \u0637\u0646\u062c\u0631\u0629", "name:de": "Qaryat Abu Tanjarah", "name:en": "Qaryat Abu Tanjarah", "name:fr": "Qaryat Abu Tanjarah", "place": "village"}}, {"type": "node", "id": 2488416022, "lat": 34.0061026, "lon": 42.4219912, "tags": {"alt_name": "\u0642\u0631\u064a\u0629 \u0622\u0644 \u0628\u0648 \u062d\u064a\u0627\u062a", "int_name": "Qaryat \u0100lb\u016b \u1e28ayy\u0101t, \u0642\u0631\u064a\u0629 \u0627\u0644\u0628\u0648 \u062d\u064a\u0627\u062a, Qaryat Albu Hayyat, \u0642\u0631\u064a\u0629 \u0627\u0644\u0628\u0648 \u062d\u064a\u0627\u062a", "name": "\u0642\u0631\u064a\u0629 \u0622\u0644 \u0628\u0648 \u062d\u064a\u0627\u062a", "name:ar": "\u0642\u0631\u064a\u0629 \u0622\u0644 \u0628\u0648 \u062d\u064a\u0627\u062a", "name:ar1": "\u0642\u0631\u064a\u0629 \u0622\u0644 \u0628\u0648 \u062d\u064a\u0627\u062a", "name:de": "Qaryat Albu Hayyat", "name:en": "Qaryat Albu Hayyat", "name:fr": "Qaryat Albu Hayyat", "place": "village"}}, {"type": "node", "id": 2488416033, "lat": 34.059772, "lon": 42.412652, "tags": {"alt_name": "\u0642\u0631\u064a\u0629 \u0639\u0644\u064a \u0635\u0627\u0644\u062d", "int_name": "Qaryat Al\u012b \u015e\u0101li\u1e29, \u0642\u0631\u064a\u0629 \u0639\u0644\u064a \u0635\u0627\u0644\u062d, Qaryat Ali Salih, \u0642\u0631\u064a\u0629 \u0639\u0644\u064a \u0635\u0627\u0644\u062d", "name": "\u0642\u0631\u064a\u0629 \u0639\u0644\u064a \u0635\u0627\u0644\u062d", "name:ar": "\u0642\u0631\u064a\u0629 \u0639\u0644\u064a \u0635\u0627\u0644\u062d", "name:ar1": "\u0642\u0631\u064a\u0629 \u0639\u0644\u064a \u0635\u0627\u0644\u062d", "name:de": "Qaryat Ali Salih", "name:en": "Qaryat Ali Salih", "name:fr": "Qaryat Ali Salih", "place": "village"}}, {"type": "node", "id": 2488416064, "lat": 34.151365, "lon": 42.379192, "tags": {"alt_name": "\u0642\u0631\u064a\u0629 \u0628\u0646\u064a \u062d\u0627\u0631\u062b", "int_name": "Qaryat Ban\u012b \u1e28\u0101rith, \u0642\u0631\u064a\u0629 \u0628\u0646\u064a \u062d\u0627\u0631\u062b, Qaryat Bani Harith, \u0642\u0631\u064a\u0629 \u0628\u0646\u064a \u062d\u0627\u0631\u062b", "name": "\u0642\u0631\u064a\u0629 \u0628\u0646\u064a \u062d\u0627\u0631\u062b", "name:ar": "\u0642\u0631\u064a\u0629 \u0628\u0646\u064a \u062d\u0627\u0631\u062b", "name:ar1": "\u0642\u0631\u064a\u0629 \u0628\u0646\u064a \u062d\u0627\u0631\u062b", "name:de": "Qaryat Bani Harith", "name:en": "Qaryat Bani Harith", "name:fr": "Qaryat Bani Harith", "place": "village"}}, {"type": "node", "id": 2488416075, "lat": 34.0870283, "lon": 42.3964393, "tags": {"alt_name": "\u0642\u0631\u064a\u0629 \u0628\u0646\u064a \u0631\u062c\u0629", "int_name": "Qaryat Ban\u012b Rajjah, \u0642\u0631\u064a\u0629 \u0628\u0646\u064a \u0631\u062c\u0629, Qaryat Bani Rajjah, \u0642\u0631\u064a\u0629 \u0628\u0646\u064a \u0631\u062c\u0629", "name": "\u0642\u0631\u064a\u0629 \u0628\u0646\u064a \u0631\u062c\u0629", "name:ar": "\u0642\u0631\u064a\u0629 \u0628\u0646\u064a \u0631\u062c\u0629", "name:ar1": "\u0642\u0631\u064a\u0629 \u0628\u0646\u064a \u0631\u062c\u0629", "name:de": "Qaryat Bani Rajjah", "name:en": "Qaryat Bani Rajjah", "name:fr": "Qaryat Bani Rajjah", "place": "village"}}, {"type": "node", "id": 2488416085, "lat": 34.110694, "lon": 42.40181, "tags": {"alt_name": "\u0642\u0631\u064a\u0629 \u062f\u0645\u0627\u0645\u0629", "int_name": "Qaryat Dam\u0101mah, \u0642\u0631\u064a\u0629 \u062f\u0645\u0627\u0645\u0629, Qaryat Damamah, \u0642\u0631\u064a\u0629 \u062f\u0645\u0627\u0645\u0629", "name": "\u0642\u0631\u064a\u0629 \u062f\u0645\u0627\u0645\u0629", "name:ar": "\u0642\u0631\u064a\u0629 \u062f\u0645\u0627\u0645\u0629", "name:ar1": "\u0642\u0631\u064a\u0629 \u062f\u0645\u0627\u0645\u0629", "name:de": "Qaryat Damamah", "name:en": "Qaryat Damamah", "name:fr": "Qaryat Damamah", "place": "village"}}, {"type": "node", "id": 2488416119, "lat": 34.0654767, "lon": 42.4078602, "tags": {"alt_name": "\u0642\u0631\u064a\u0629 \u0647\u0631\u064a\u0645\u0632", "int_name": "Qaryat Huraymiz, \u0642\u0631\u064a\u0629 \u0647\u0631\u064a\u0645\u0632, Qaryat Huraymiz, \u0642\u0631\u064a\u0629 \u0647\u0631\u064a\u0645\u0632", "name": "\u0642\u0631\u064a\u0629 \u0647\u0631\u064a\u0645\u0632", "name:ar": "\u0642\u0631\u064a\u0629 \u0647\u0631\u064a\u0645\u0632", "name:ar1": "\u0642\u0631\u064a\u0629 \u0647\u0631\u064a\u0645\u0632", "name:de": "Qaryat Huraymiz", "name:en": "Qaryat Huraymiz", "name:fr": "Qaryat Huraymiz", "place": "village"}}, {"type": "node", "id": 2488416141, "lat": 34.041435, "lon": 42.412036, "tags": {"alt_name": "\u0642\u0631\u064a\u0629 \u0635\u062f\u0631 \u0632\u063a\u062f\u0627\u0646", "int_name": "Qaryat \u015eadr Zaghd\u0101n, \u0642\u0631\u064a\u0629 \u0635\u062f\u0631 \u0632\u063a\u062f\u0627\u0646, Qaryat Sadr Zaghdan, \u0642\u0631\u064a\u0629 \u0635\u062f\u0631 \u0632\u063a\u062f\u0627\u0646", "name": "\u0642\u0631\u064a\u0629 \u0635\u062f\u0631 \u0632\u063a\u062f\u0627\u0646", "name:ar": "\u0642\u0631\u064a\u0629 \u0635\u062f\u0631 \u0632\u063a\u062f\u0627\u0646", "name:ar1": "\u0642\u0631\u064a\u0629 \u0635\u062f\u0631 \u0632\u063a\u062f\u0627\u0646", "name:de": "Qaryat Sadr Zaghdan", "name:en": "Qaryat Sadr Zaghdan", "name:fr": "Qaryat Sadr Zaghdan", "place": "village"}}, {"type": "node", "id": 2488416142, "lat": 34.0573073, "lon": 42.4156712, "tags": {"alt_name": "\u0642\u0631\u064a\u0629 \u0635\u062f\u0631\u0643\u0629", "int_name": "Qaryat \u015eadrakah, \u0642\u0631\u064a\u0629 \u0635\u062f\u0631\u0643\u0629, Qaryat Sadrakah, \u0642\u0631\u064a\u0629 \u0635\u062f\u0631\u0643\u0629", "name": "\u0642\u0631\u064a\u0629 \u0635\u062f\u0631\u0643\u0629", "name:ar": "\u0642\u0631\u064a\u0629 \u0635\u062f\u0631\u0643\u0629", "name:ar1": "\u0642\u0631\u064a\u0629 \u0635\u062f\u0631\u0643\u0629", "name:de": "Qaryat Sadrakah", "name:en": "Qaryat Sadrakah", "name:fr": "Qaryat Sadrakah", "place": "village"}}, {"type": "node", "id": 2488416144, "lat": 34.103343, "lon": 42.374343, "tags": {"alt_name": "\u0642\u0631\u064a\u0629 \u0635\u0631\u0648\u064a\u0646\u0629", "int_name": "Qaryat \u015earw\u012bnah, \u0642\u0631\u064a\u0629 \u0635\u0631\u0648\u064a\u0646\u0629, Qaryat Sarwinah, \u0642\u0631\u064a\u0629 \u0635\u0631\u0648\u064a\u0646\u0629", "name": "\u0642\u0631\u064a\u0629 \u0635\u0631\u0648\u064a\u0646\u0629", "name:ar": "\u0642\u0631\u064a\u0629 \u0635\u0631\u0648\u064a\u0646\u0629", "name:ar1": "\u0642\u0631\u064a\u0629 \u0635\u0631\u0648\u064a\u0646\u0629", "name:de": "Qaryat Sarwinah", "name:en": "Qaryat Sarwinah", "name:fr": "Qaryat Sarwinah", "place": "village"}}, {"type": "node", "id": 2488416149, "lat": 34.072112, "lon": 42.398904, "tags": {"alt_name": "\u0642\u0631\u064a\u0629 \u0627\u0644\u0628\u062c\u0627\u0631\u064a\u0629", "int_name": "Qaryat al Bij\u0101r\u012byah, \u0642\u0631\u064a\u0629 \u0627\u0644\u0628\u062c\u0627\u0631\u064a\u0629, Qaryat al Bijariyah, \u0642\u0631\u064a\u0629 \u0627\u0644\u0628\u062c\u0627\u0631\u064a\u0629", "name": "\u0642\u0631\u064a\u0629 \u0627\u0644\u0628\u062c\u0627\u0631\u064a\u0629", "name:ar": "\u0642\u0631\u064a\u0629 \u0627\u0644\u0628\u062c\u0627\u0631\u064a\u0629", "name:ar1": "\u0642\u0631\u064a\u0629 \u0627\u0644\u0628\u062c\u0627\u0631\u064a\u0629", "name:de": "Qaryat al Bijariyah", "name:en": "Qaryat al Bijariyah", "name:fr": "Qaryat al Bijariyah", "place": "village"}}, {"type": "node", "id": 2488416169, "lat": 34.13083, "lon": 42.393585, "tags": {"alt_name": "\u0642\u0631\u064a\u0629 \u0627\u0644\u062d\u0648\u064a\u062c\u0629", "int_name": "Qaryat al \u1e28uwayjah, \u0642\u0631\u064a\u0629 \u0627\u0644\u062d\u0648\u064a\u062c\u0629, Qaryat al Huwayjah, \u0642\u0631\u064a\u0629 \u0627\u0644\u062d\u0648\u064a\u062c\u0629", "name": "\u0642\u0631\u064a\u0629 \u0627\u0644\u062d\u0648\u064a\u062c\u0629", "name:ar": "\u0642\u0631\u064a\u0629 \u0627\u0644\u062d\u0648\u064a\u062c\u0629", "name:ar1": "\u0642\u0631\u064a\u0629 \u0627\u0644\u062d\u0648\u064a\u062c\u0629", "name:de": "Qaryat al Huwayjah", "name:en": "Qaryat al Huwayjah", "name:fr": "Qaryat al Huwayjah", "place": "village"}}, {"type": "node", "id": 2488416184, "lat": 34.1630028, "lon": 42.377098, "tags": {"alt_name": "\u0642\u0631\u064a\u0629 \u0627\u0644\u062c\u0633\u0631", "int_name": "Qaryat al Jisr, \u0642\u0631\u064a\u0629 \u0627\u0644\u062c\u0633\u0631, Qaryat al Jisr, \u0642\u0631\u064a\u0629 \u0627\u0644\u062c\u0633\u0631", "name": "\u0642\u0631\u064a\u0629 \u0627\u0644\u062c\u0633\u0631", "name:ar": "\u0642\u0631\u064a\u0629 \u0627\u0644\u062c\u0633\u0631", "name:ar1": "\u0642\u0631\u064a\u0629 \u0627\u0644\u062c\u0633\u0631", "name:de": "Qaryat al Jisr", "name:en": "Qaryat al Jisr", "name:fr": "Qaryat al Jisr", "place": "village"}}, {"type": "node", "id": 2488416189, "lat": 34.0593294, "lon": 42.3798915, "tags": {"alt_name": "\u0642\u0631\u064a\u0629 \u0627\u0644\u062e\u0641\u0627\u062c\u064a\u0629 \u0627\u0644\u062c\u0648\u0627\u0646\u064a\u0629", "int_name": "Qaryat al Khaff\u0101j\u012byah al Juww\u0101n\u012byah, \u0642\u0631\u064a\u0629 \u0627\u0644\u062e\u0641\u0627\u062c\u064a\u0629 \u0627\u0644\u062c\u0648\u0627\u0646\u064a\u0629, Qaryat al Khaffajiyah al Juwwaniyah, \u0642\u0631\u064a\u0629 \u0627\u0644\u062e\u0641\u0627\u062c\u064a\u0629 \u0627\u0644\u062c\u0648\u0627\u0646\u064a\u0629", "name": "\u0642\u0631\u064a\u0629 \u0627\u0644\u062e\u0641\u0627\u062c\u064a\u0629 \u0627\u0644\u062c\u0648\u0627\u0646\u064a\u0629", "name:ar": "\u0642\u0631\u064a\u0629 \u0627\u0644\u062e\u0641\u0627\u062c\u064a\u0629 \u0627\u0644\u062c\u0648\u0627\u0646\u064a\u0629", "name:ar1": "\u0642\u0631\u064a\u0629 \u0627\u0644\u062e\u0641\u0627\u062c\u064a\u0629 \u0627\u0644\u062c\u0648\u0627\u0646\u064a\u0629", "name:de": "Qaryat al Khaffajiyah al Juwwaniyah", "name:en": "Qaryat al Khaffajiyah al Juwwaniyah", "name:fr": "Qaryat al Khaffajiyah al Juwwaniyah", "place": "village"}}, {"type": "node", "id": 2488416199, "lat": 34.1451814, "lon": 42.3696115, "tags": {"alt_name": "\u0642\u0631\u064a\u0629 \u0627\u0644\u062e\u0633\u0641\u0629", "int_name": "Qaryat al Khasfah, \u0642\u0631\u064a\u0629 \u0627\u0644\u062e\u0633\u0641\u0629, Qaryat al Khasfah, \u0642\u0631\u064a\u0629 \u0627\u0644\u062e\u0633\u0641\u0629", "name": "\u0642\u0631\u064a\u0629 \u0627\u0644\u062e\u0633\u0641\u0629", "name:ar": "\u0642\u0631\u064a\u0629 \u0627\u0644\u062e\u0633\u0641\u0629", "name:ar1": "\u0642\u0631\u064a\u0629 \u0627\u0644\u062e\u0633\u0641\u0629", "name:de": "Qaryat al Khasfah", "name:en": "Qaryat al Khasfah", "name:fr": "Qaryat al Khasfah", "place": "village"}}, {"type": "node", "id": 2488416220, "lat": 34.1176541, "lon": 42.3992727, "tags": {"alt_name": "\u0642\u0631\u064a\u0629 \u0627\u0644\u0634\u0627\u0639\u064a", "int_name": "Qaryat ash Sh\u0101\u012b, \u0642\u0631\u064a\u0629 \u0627\u0644\u0634\u0627\u0639\u064a, Qaryat ash Shai, \u0642\u0631\u064a\u0629 \u0627\u0644\u0634\u0627\u0639\u064a", "name": "\u0642\u0631\u064a\u0629 \u0627\u0644\u0634\u0627\u0639\u064a", "name:ar": "\u0642\u0631\u064a\u0629 \u0627\u0644\u0634\u0627\u0639\u064a", "name:ar1": "\u0642\u0631\u064a\u0629 \u0627\u0644\u0634\u0627\u0639\u064a", "name:de": "Qaryat ash Shai", "name:en": "Qaryat ash Shai", "name:fr": "Qaryat ash Shai", "place": "village"}}, {"type": "node", "id": 2488416230, "lat": 34.167208, "lon": 42.37566, "tags": {"alt_name": "\u0642\u0631\u064a\u0629 \u0627\u0644\u0634\u064a\u062e \u062c\u062f\u064a\u062f", "int_name": "Qaryat ash Shaykh Jad\u012bd, \u0642\u0631\u064a\u0629 \u0627\u0644\u0634\u064a\u062e \u062c\u062f\u064a\u062f, Qaryat ash Shaykh Jadid, \u0642\u0631\u064a\u0629 \u0627\u0644\u0634\u064a\u062e \u062c\u062f\u064a\u062f", "name": "\u0642\u0631\u064a\u0629 \u0627\u0644\u0634\u064a\u062e \u062c\u062f\u064a\u062f", "name:ar": "\u0642\u0631\u064a\u0629 \u0627\u0644\u0634\u064a\u062e \u062c\u062f\u064a\u062f", "name:ar1": "\u0642\u0631\u064a\u0629 \u0627\u0644\u0634\u064a\u062e \u062c\u062f\u064a\u062f", "name:de": "Qaryat ash Shaykh Jadid", "name:en": "Qaryat ash Shaykh Jadid", "name:fr": "Qaryat ash Shaykh Jadid", "place": "village"}}, {"type": "node", "id": 2488416236, "lat": 34.1502625, "lon": 42.3790919, "tags": {"alt_name": "\u0642\u0631\u064a\u0629 \u0627\u0644\u062b\u0645\u0627\u0646\u064a\u0629", "int_name": "Qaryat ath Tham\u0101niyah, \u0642\u0631\u064a\u0629 \u0627\u0644\u062b\u0645\u0627\u0646\u064a\u0629, Qaryat ath Thamaniyah, \u0642\u0631\u064a\u0629 \u0627\u0644\u062b\u0645\u0627\u0646\u064a\u0629", "name": "\u0642\u0631\u064a\u0629 \u0627\u0644\u062b\u0645\u0627\u0646\u064a\u0629", "name:ar": "\u0642\u0631\u064a\u0629 \u0627\u0644\u062b\u0645\u0627\u0646\u064a\u0629", "name:ar1": "\u0642\u0631\u064a\u0629 \u0627\u0644\u062b\u0645\u0627\u0646\u064a\u0629", "name:de": "Qaryat ath Thamaniyah", "name:en": "Qaryat ath Thamaniyah", "name:fr": "Qaryat ath Thamaniyah", "place": "village"}}, {"type": "node", "id": 2488416273, "lat": 34.126667, "lon": 42.380278, "tags": {"alt_name": "\u0635\u0628\u062d\u0627\u0646\u064a\u0629", "int_name": "\u015eub\u1e29\u0101n\u012byah, Subhaniyah", "name": "\u0635\u0628\u062d\u0627\u0646\u064a\u0629", "name:ar": "\u0635\u0628\u062d\u0627\u0646\u064a\u0629", "name:ar1": "\u0635\u0628\u062d\u0627\u0646\u064a\u0629", "name:de": "Subhaniyah", "name:en": "Subhaniyah", "name:fr": "Subhaniyah", "place": "village"}}, {"type": "node", "id": 2488416275, "lat": 34.1495717, "lon": 42.3793899, "tags": {"alt_name": "\u0633\u0644\u064a\u0645\u0627\u0646\u064a\u0629", "int_name": "Sulaim\u0101n\u012bya, Sulaym\u0101n\u012byah, Sulaimaniya, Sulaymaniyah", "name": "\u0633\u0644\u064a\u0645\u0627\u0646\u064a\u0629", "name:ar": "\u0633\u0644\u064a\u0645\u0627\u0646\u064a\u0629", "name:ar1": "\u0633\u0644\u064a\u0645\u0627\u0646\u064a\u0629", "name:de": "Sulaimaniya", "name:en": "Sulaimaniya", "name:fr": "Sulaimaniya", "place": "village"}}, {"type": "node", "id": 2488416642, "lat": 34.160833, "lon": 42.376389, "tags": {"alt_name": "\u0648\u0633\u0637\u0629", "int_name": "Wasi\u0163ah, Wasta, Wastah, Wasitah, Wasta, Wastah", "name": "\u0648\u0633\u0637\u0629", "name:ar": "\u0648\u0633\u0637\u0629", "name:ar1": "\u0648\u0633\u0637\u0629", "name:de": "Wasitah", "name:en": "Wasitah", "name:fr": "Wasitah", "place": "village"}}, {"type": "node", "id": 2488431564, "lat": 34.249722, "lon": 42.3475, "tags": {"alt_name": "\u0625\u0633\u0644\u0627\u0645\u064a\u0629", "int_name": "Aghr\u012bv al Isl\u0101m\u012byah, Islam\u012bya, Isl\u0101m\u012byah, Aghriv al Islamiyah, Islamiya, Islamiyah", "name": "\u0625\u0633\u0644\u0627\u0645\u064a\u0629", "name:ar": "\u0625\u0633\u0644\u0627\u0645\u064a\u0629", "name:ar1": "\u0625\u0633\u0644\u0627\u0645\u064a\u0629", "name:de": "Aghriv al Islamiyah", "name:en": "Aghriv al Islamiyah", "name:fr": "Aghriv al Islamiyah", "place": "village"}}, {"type": "node", "id": 2488431577, "lat": 34.238056, "lon": 42.308611, "tags": {"alt_name": "\u0627\u0644\u062c\u062f\u064a\u062f\u0629", "int_name": "Al Judaydah, Jadida, Jad\u012bdah, Al Judaydah, Jadida, Jadidah", "is_in": "Iraq , \u062c\u0645\u0647\u0648\u0631\u064a\u0629 \u0627\u0644\u0639\u0631\u0627\u0642", "name": "\u0627\u0644\u062c\u062f\u064a\u062f\u0629", "name:ar": "\u0627\u0644\u062c\u062f\u064a\u062f\u0629", "name:ar1": "\u0627\u0644\u062c\u062f\u064a\u062f\u0629", "name:de": "Al Judaydah", "name:en": "Al Judaydah", "name:fr": "Al Judaydah", "place": "village"}}, {"type": "node", "id": 2488431644, "lat": 34.273889, "lon": 42.271389, "tags": {"alt_name": "\u062d\u0636\u0631\u062a\u0629", "int_name": "\u1e28a\u1e11artah, Hadharta, \u1e28a\u1e11ratah, Haz\u0101rtah, Hadartah, Hadharta, Hadratah, Hazartah", "is_in": "Iraq , \u062c\u0645\u0647\u0648\u0631\u064a\u0629 \u0627\u0644\u0639\u0631\u0627\u0642", "name": "\u062d\u0636\u0631\u062a\u0629", "name:ar": "\u062d\u0636\u0631\u062a\u0629", "name:ar1": "\u062d\u0636\u0631\u062a\u0629", "name:de": "Hadartah", "name:en": "Hadartah", "name:fr": "Hadartah", "place": "village"}}, {"type": "node", "id": 2488431655, "lat": 34.222778, "lon": 42.331667, "tags": {"alt_name": "\u062d\u0631\u0643\u0629", "int_name": "\u1e28arakah, Harakah", "name": "\u062d\u0631\u0643\u0629", "name:ar": "\u062d\u0631\u0643\u0629", "name:ar1": "\u062d\u0631\u0643\u0629", "name:de": "Harakah", "name:en": "Harakah", "name:fr": "Harakah", "place": "village"}}, {"type": "node", "id": 2488431701, "lat": 34.262778, "lon": 42.321944, "tags": {"alt_name": "\u062c\u0632\u064a\u0631\u0629 \u0633\u0648\u0633\u0629", "int_name": "Jaz\u012bra S\u016bsa, Jaz\u012brat S\u016bsah, Jazrat S\u016bsah, Jazira Susa, Jazirat Susah, Jazrat Susah", "name": "\u062c\u0632\u064a\u0631\u0629 \u0633\u0648\u0633\u0629", "name:ar": "\u062c\u0632\u064a\u0631\u0629 \u0633\u0648\u0633\u0629", "name:ar1": "\u062c\u0632\u064a\u0631\u0629 \u0633\u0648\u0633\u0629", "name:de": "Jazira Susa", "name:en": "Jazira Susa", "name:fr": "Jazira Susa", "place": "village"}}, {"type": "node", "id": 2488431714, "lat": 34.1375202, "lon": 42.2785545, "tags": {"alt_name": "\u062e\u0633\u0641\u0629 \u0633\u0644\u0645\u0627\u0646", "int_name": "Khasfat Salm\u0101n, \u062e\u0633\u0641\u0629 \u0633\u0644\u0645\u0627\u0646, Khasfat Salman, \u062e\u0633\u0641\u0629 \u0633\u0644\u0645\u0627\u0646", "is_in": "Iraq , \u062c\u0645\u0647\u0648\u0631\u064a\u0629 \u0627\u0644\u0639\u0631\u0627\u0642", "name": "\u062e\u0633\u0641\u0629 \u0633\u0644\u0645\u0627\u0646", "name:ar": "\u062e\u0633\u0641\u0629 \u0633\u0644\u0645\u0627\u0646", "name:ar1": "\u062e\u0633\u0641\u0629 \u0633\u0644\u0645\u0627\u0646", "name:de": "Khasfat Salman", "name:en": "Khasfat Salman", "name:fr": "Khasfat Salman", "place": "village"}}, {"type": "node", "id": 2488431726, "lat": 34.1374923, "lon": 42.2795641, "tags": {"alt_name": "\u0631\u0648\u0632\u0629", "int_name": "Rawzah, \u0631\u0648\u0632\u0647, Rawzah, \u0631\u0648\u0632\u0647", "is_in": "Iraq , \u062c\u0645\u0647\u0648\u0631\u064a\u0629 \u0627\u0644\u0639\u0631\u0627\u0642", "name": "\u0631\u0648\u0632\u0629", "name:ar": "\u0631\u0648\u0632\u0629", "name:ar1": "\u0631\u0648\u0632\u0629", "name:de": "Rawzah", "name:en": "Rawzah", "name:fr": "Rawzah", "place": "village"}}, {"type": "node", "id": 2488431793, "lat": 34.2590056, "lon": 42.3035232, "tags": {"alt_name": "\u0633\u0648\u064a\u0646\u0627\u062e", "int_name": "Suwayn\u0101kh, Suw\u012bnakh, Suwaynakh, Suwinakh", "is_in": "Iraq , \u062c\u0645\u0647\u0648\u0631\u064a\u0629 \u0627\u0644\u0639\u0631\u0627\u0642", "name": "\u0633\u0648\u064a\u0646\u0627\u062e", "name:ar": "\u0633\u0648\u064a\u0646\u0627\u062e", "name:ar1": "\u0633\u0648\u064a\u0646\u0627\u062e", "name:de": "Suwaynakh", "name:en": "Suwaynakh", "name:fr": "Suwaynakh", "place": "village"}}, {"type": "node", "id": 2488431805, "lat": 34.2642071, "lon": 42.3045722, "tags": {"alt_name": "\u0633\u0648\u064a\u0646\u0629", "int_name": "Suw\u012bnah, Suwinah", "is_in": "Iraq , \u062c\u0645\u0647\u0648\u0631\u064a\u0629 \u0627\u0644\u0639\u0631\u0627\u0642", "name": "\u0633\u0648\u064a\u0646\u0629", "name:ar": "\u0633\u0648\u064a\u0646\u0629", "name:ar1": "\u0633\u0648\u064a\u0646\u0629", "name:de": "Suwinah", "name:en": "Suwinah", "name:fr": "Suwinah", "place": "village"}}, {"type": "node", "id": 2489267970, "lat": 34.285833, "lon": 42.245833, "tags": {"alt_name": "\u0627\u0644\u0641\u062a\u062d\u0629", "int_name": "Al Fat\u1e29ah, Al Fathah", "is_in": "Iraq , \u062c\u0645\u0647\u0648\u0631\u064a\u0629 \u0627\u0644\u0639\u0631\u0627\u0642", "name": "\u0627\u0644\u0641\u062a\u062d\u0629", "name:ar": "\u0627\u0644\u0641\u062a\u062d\u0629", "name:ar1": "\u0627\u0644\u0641\u062a\u062d\u0629", "name:de": "Al Fathah", "name:en": "Al Fathah", "name:fr": "Al Fathah", "place": "village"}}, {"type": "node", "id": 2489267971, "lat": 34.274722, "lon": 42.158056, "tags": {"alt_name": "\u0627\u0644\u0641\u062d\u064a\u0645\u064a", "int_name": "Al Fu\u1e29aym\u012b, Fahami, Al Fuhaymi, Fahami", "is_in": "Iraq , \u062c\u0645\u0647\u0648\u0631\u064a\u0629 \u0627\u0644\u0639\u0631\u0627\u0642", "name": "\u0627\u0644\u0641\u062d\u064a\u0645\u064a", "name:ar": "\u0627\u0644\u0641\u062d\u064a\u0645\u064a", "name:ar1": "\u0627\u0644\u0641\u062d\u064a\u0645\u064a", "name:de": "Al Fuhaymi", "name:en": "Al Fuhaymi", "name:fr": "Al Fuhaymi", "name:ru": "\u0424\u0443\u0445\u0430\u0439\u043c\u0438", "place": "village"}}, {"type": "node", "id": 2489267974, "lat": 34.05, "lon": 42.2, "tags": {"alt_name": "\u0627\u0644\u0637\u0631\u064a\u0634\u0629", "int_name": "A\u0163 \u0162urayshah, At Turayshah", "is_in": "Iraq , \u062c\u0645\u0647\u0648\u0631\u064a\u0629 \u0627\u0644\u0639\u0631\u0627\u0642", "name": "\u0627\u0644\u0637\u0631\u064a\u0634\u0629", "name:ar": "\u0627\u0644\u0637\u0631\u064a\u0634\u0629", "name:ar1": "\u0627\u0644\u0637\u0631\u064a\u0634\u0629", "name:de": "At Turayshah", "name:en": "At Turayshah", "name:fr": "At Turayshah", "place": "village"}}, {"type": "node", "id": 2489267975, "lat": 33.870885, "lon": 42.366613, "tags": {"alt_name": "\u0639\u064a\u0646 \u0632\u0643\u0637\u0629", "int_name": "Ayn Zag\u0163ah, \u0639\u064a\u0646 \u0632\u06af\u0637\u0629, Ayn Zagtah, \u0639\u064a\u0646 \u0632\u06af\u0637\u0629", "name": "\u0639\u064a\u0646 \u0632\u0643\u0637\u0629", "name:ar": "\u0639\u064a\u0646 \u0632\u0643\u0637\u0629", "name:ar1": "\u0639\u064a\u0646 \u0632\u0643\u0637\u0629", "name:de": "Ayn Zagtah", "name:en": "Ayn Zagtah", "name:fr": "Ayn Zagtah", "place": "village"}}, {"type": "node", "id": 2489267977, "lat": 34.078828, "lon": 42.348214, "tags": {"alt_name": "\u0628\u0627\u0646\u0633\u0632 \u064a\u062e\u0627\u0646\u0629", "int_name": "B\u0101nsiz Yakh\u0101nah, \u0628\u0627\u0646\u0633\u0632 \u064a\u062e\u0627\u0646\u0629, Bansiz Yakhanah, \u0628\u0627\u0646\u0633\u0632 \u064a\u062e\u0627\u0646\u0629", "name": "\u0628\u0627\u0646\u0633\u0632 \u064a\u062e\u0627\u0646\u0629", "name:ar": "\u0628\u0627\u0646\u0633\u0632 \u064a\u062e\u0627\u0646\u0629", "name:ar1": "\u0628\u0627\u0646\u0633\u0632 \u064a\u062e\u0627\u0646\u0629", "name:de": "Bansiz Yakhanah", "name:en": "Bansiz Yakhanah", "name:fr": "Bansiz Yakhanah", "place": "village"}}, {"type": "node", "id": 2489267980, "lat": 34.2668202, "lon": 42.1666582, "tags": {"alt_name": "\u0641\u062d\u064a\u0645\u064a", "int_name": "Fuhaimi, Fu\u1e29aym\u012b, Fuhaimi, Fuhaymi", "is_in": "Iraq , \u062c\u0645\u0647\u0648\u0631\u064a\u0629 \u0627\u0644\u0639\u0631\u0627\u0642", "name": "\u0641\u062d\u064a\u0645\u064a", "name:ar": "\u0641\u062d\u064a\u0645\u064a", "name:ar1": "\u0641\u062d\u064a\u0645\u064a", "name:de": "Fuhaimi", "name:en": "Fuhaimi", "name:fr": "Fuhaimi", "place": "village"}}, {"type": "node", "id": 2489267986, "lat": 34.295, "lon": 42.2025, "tags": {"alt_name": "\u062c\u0631\u0628", "int_name": "Jarab, Jarb, Jurn, Jarab, Jarb, Jurn", "is_in": "Iraq , \u062c\u0645\u0647\u0648\u0631\u064a\u0629 \u0627\u0644\u0639\u0631\u0627\u0642", "name": "\u062c\u0631\u0628", "name:ar": "\u062c\u0631\u0628", "name:ar1": "\u062c\u0631\u0628", "name:de": "Jarab", "name:en": "Jarab", "name:fr": "Jarab", "place": "village"}}, {"type": "node", "id": 2489267989, "lat": 34.2664481, "lon": 42.1666052, "tags": {"alt_name": "\u062e\u0627\u0646 \u0641\u0647\u064a\u0645\u0629", "int_name": "Kh\u0101n Fuhaima, Khan Fuhaima", "is_in": "Iraq , \u062c\u0645\u0647\u0648\u0631\u064a\u0629 \u0627\u0644\u0639\u0631\u0627\u0642", "name": "\u062e\u0627\u0646 \u0641\u0647\u064a\u0645\u0629", "name:ar": "\u062e\u0627\u0646 \u0641\u0647\u064a\u0645\u0629", "name:ar1": "\u062e\u0627\u0646 \u0641\u0647\u064a\u0645\u0629", "name:de": "Khan Fuhaima", "name:en": "Khan Fuhaima", "name:fr": "Khan Fuhaima", "place": "village"}}, {"type": "node", "id": 3685299487, "lat": 34.0692519, "lon": 42.3842113, "tags": {"fixme": "name", "place": "village", "source": "bing"}}, {"type": "node", "id": 4472651661, "lat": 34.17909, "lon": 42.2517939, "tags": {"name": "\u0642\u0631\u064a\u0629 \u0627\u0644\u062e\u0633\u0641\u0629", "place": "village"}}, {"type": "node", "id": 4472652108, "lat": 34.2570662, "lon": 42.2041673, "tags": {"place": "village"}}, {"type": "node", "id": 6028560958, "lat": 34.0373508, "lon": 42.4212229, "tags": {"fixme": "name", "place": "hamlet"}}]}