{"version": 0.6, "generator": "Overpass API 0.7.61.5 4133829e", "osm3s": {"timestamp_osm_base": "2024-02-29T13:47:24Z", "copyright": "The data included in this document is from www.openstreetmap.org. The data is made available under ODbL."}, "elements": [{"type": "node", "id": 7171664414, "lat": 7.7120778, "lon": -1.5587801, "tags": {"amenity": "school", "name": "Dromankese SDA School"}}, {"type": "node", "id": 7183624486, "lat": 8.0256073, "lon": -1.2693857, "tags": {"amenity": "school", "name": "Krobo DA Basic"}}, {"type": "node", "id": 7183624886, "lat": 8.0589219, "lon": -1.272017, "tags": {"amenity": "school", "name": "Kamapa DA Basic"}}, {"type": "node", "id": 7183816886, "lat": 8.0745909, "lon": -1.2949761, "tags": {"amenity": "school", "name": "Chirembo DA Basic"}}, {"type": "node", "id": 7183821586, "lat": 8.0746754, "lon": -1.3857882, "tags": {"amenity": "school", "name": "Buronikrom DA Basic"}}, {"type": "node", "id": 7183821687, "lat": 8.0021366, "lon": -1.4695909, "tags": {"amenity": "school", "name": "Benim DA Basic"}}, {"type": "node", "id": 7183821785, "lat": 7.9932473, "lon": -1.4136618, "tags": {"amenity": "school", "name": "Yaw Adaprase", "name:en": "Yaw Adaprase RC. Basic"}}, {"type": "node", "id": 7183821786, "lat": 8.0040713, "lon": -1.4854768, "tags": {"amenity": "school", "name": "Nyamerekyere DA Basic"}}, {"type": "node", "id": 7189965985, "lat": 7.7816573, "lon": -1.2296976, "tags": {"amenity": "school", "name": "Kumfia MA Basic"}}, {"type": "node", "id": 7190023585, "lat": 7.7763705, "lon": -1.27043, "tags": {"amenity": "school", "name": "Addaikoro MA Basic"}}, {"type": "node", "id": 7190143085, "lat": 7.7769815, "lon": -1.3366501, "tags": {"amenity": "school", "name": "Fakwasi Presbyterian Basic"}}, {"type": "node", "id": 7194996285, "lat": 7.7605677, "lon": -1.5027615, "tags": {"amenity": "school", "name": "Betoda DA Basic"}}, {"type": "node", "id": 7195051285, "lat": 7.7100261, "lon": -1.5558109, "tags": {"alt_name": "Dromank", "amenity": "school", "name": "Dromankesse Anglican Basic School"}}, {"type": "node", "id": 7200604687, "lat": 8.0090839, "lon": -1.5721124}, {"type": "node", "id": 7200605490, "lat": 7.984766, "lon": -1.5927778, "tags": {"amenity": "school", "name": "Royal foundation Academy (Attakrom)"}}, {"type": "node", "id": 7541289154, "lat": 7.9739004, "lon": -1.5949273, "tags": {"amenity": "school", "name": "Attakrom D/A Basic"}}, {"type": "node", "id": 7541289155, "lat": 7.9881165, "lon": -1.3851866, "tags": {"amenity": "school", "name": "Zanbrama NK JHS"}}, {"type": "node", "id": 7840505686, "lat": 8.0017694, "lon": -1.5499853, "tags": {"amenity": "school", "name": "Apesika DA Basic School"}}, {"type": "node", "id": 8359857461, "lat": 8.0091928, "lon": -1.5713158}, {"type": "node", "id": 8359857462, "lat": 8.0083854, "lon": -1.5709645}, {"type": "node", "id": 8359857463, "lat": 8.0074611, "lon": -1.5709001}, {"type": "node", "id": 8359857464, "lat": 8.007307, "lon": -1.5719622}, {"type": "node", "id": 8359857465, "lat": 8.0080055, "lon": -1.57215}, {"type": "node", "id": 8359857466, "lat": 8.0081198, "lon": -1.571914}, {"type": "way", "id": 899758215, "nodes": [7200604687, 8359857466, 8359857465, 8359857464, 8359857463, 8359857462, 8359857461, 7200604687], "tags": {"amenity": "school", "name": "Akora MA Basic School"}}]}