{"version": 0.6, "generator": "Overpass API 0.7.61.5 4133829e", "osm3s": {"timestamp_osm_base": "2024-03-06T11:18:45Z", "copyright": "The data included in this document is from www.openstreetmap.org. The data is made available under ODbL."}, "elements": [{"type": "node", "id": 434368197, "lat": 35.0803403, "lon": 40.5909632, "tags": {"is_in": "Syria, Deir ez-Zor \u0633\u0648\u0631\u064a\u0627 \u062f\u064a\u0631 \u0627\u0644\u0632\u0648\u0631", "name": "Omar", "name:ar": "\u062d\u0642\u0644 \u0627\u0644\u0639\u0645\u0631 \u0627\u0644\u0645\u064a\u0627\u062f\u064a\u0646", "place": "village"}}, {"type": "node", "id": 515660729, "lat": 35.0497946, "lon": 40.5581243, "tags": {"is_in": "Syria, Deir ez-Zor \u0633\u0648\u0631\u064a\u0627 \u062f\u064a\u0631 \u0627\u0644\u0632\u0648\u0631", "name": "Green Village", "place": "village"}}, {"type": "node", "id": 573457435, "lat": 34.8827778, "lon": 40.6091667, "tags": {"alt_name": "\u0627\u0644\u062c\u0631\u062f\u064a \u0627\u0644\u063a\u0631\u0628\u064a", "int_name": "Al Jurdi Gharbi, Al Jurd\u012b Gharb\u012b, Jarazi, Jaraz\u012b, Jerdi, Jerzi, Jirdhi, Jirdh\u012b, Jirzi, Jirz\u012b, Al Jurd\u012b al Gharb\u012b", "is_in": "Syria, \u0627\u0644\u062c\u0645\u0647\u0648\u0631\u064a\u0629 \u0627\u0644\u0639\u0631\u0628\u064a\u0629 \u0627\u0644\u0633\u0648\u0631\u064a\u0629 \u060c \u0633\u0648\u0631\u064a\u0627", "name": "\u0627\u0644\u064a\u0645\u0627\u0645\u0647", "name:ar": "\u0627\u0644\u062c\u0631\u062f\u064a \u0627\u0644\u063a\u0631\u0628\u064a", "name:ar1": "\u0627\u0644\u062c\u0631\u062f\u064a \u0627\u0644\u063a\u0631\u0628\u064a", "name:de": "Al Jurdi al Gharbi", "name:en": "Al-Yamama", "name:fr": "Al Jurdi al Gharbi", "name:ru": "\u042d\u043b\u044c-\u0414\u0436\u0443\u0440\u0434\u0430-\u0413\u0430\u0440\u0431\u0438", "place": "village"}}, {"type": "node", "id": 573457440, "lat": 34.7986111, "lon": 40.6719444, "tags": {"alt_name": "\u062c\u064a\u0634\u064a\u0629", "is_in": "Syria, \u0627\u0644\u062c\u0645\u0647\u0648\u0631\u064a\u0629 \u0627\u0644\u0639\u0631\u0628\u064a\u0629 \u0627\u0644\u0633\u0648\u0631\u064a\u0629 \u060c \u0633\u0648\u0631\u064a\u0627", "name": "\u062c\u0634\u062c\u064a\u0629", "name:alt": "J\u012bsh\u012byah", "name:ar": "\u0627\u0644\u0643\u0634\u0643\u064a\u0647", "name:ar1": "\u062c\u064a\u0634\u064a\u0629", "name:de": "Jishiyah", "name:en": "Ke\u015fkea", "name:fr": "Jishiyah", "name:ru": "\u0414\u0436\u0438\u0448\u0438\u044f", "place": "village"}}, {"type": "node", "id": 573457450, "lat": 34.7705556, "lon": 40.6522222, "tags": {"alt_name": "\u0627\u0644\u062f\u0648\u064a\u0631", "int_name": "Douair, Do\u00fba\u00efr, Duwayr, Ad Duwayr", "is_in": "Syria, \u0627\u0644\u062c\u0645\u0647\u0648\u0631\u064a\u0629 \u0627\u0644\u0639\u0631\u0628\u064a\u0629 \u0627\u0644\u0633\u0648\u0631\u064a\u0629 \u060c \u0633\u0648\u0631\u064a\u0627", "name": "\u0627\u0644\u062f\u0648\u064a\u0631", "name:ar": "\u0627\u0644\u062f\u0648\u064a\u0631", "name:ar1": "\u0627\u0644\u062f\u0648\u064a\u0631", "name:de": "Ad Duwayr", "name:en": "Ad Duwayr", "name:fr": "Ad Duwayr", "name:ru": "\u042d\u0434-\u0414\u0443\u0432\u0435\u0439\u0440", "place": "village"}}, {"type": "node", "id": 573457454, "lat": 34.7022222, "lon": 40.7922222, "tags": {"alt_name": "\u0627\u0644\u062e\u0631\u064a\u0637\u0629", "int_name": "Khraita, Khra\u00efta, Khuraytah, Khuray\u0163ah, Al Khuray\u0163ah", "is_in": "Syria, \u0627\u0644\u062c\u0645\u0647\u0648\u0631\u064a\u0629 \u0627\u0644\u0639\u0631\u0628\u064a\u0629 \u0627\u0644\u0633\u0648\u0631\u064a\u0629 \u060c \u0633\u0648\u0631\u064a\u0627", "name": "\u0627\u0644\u0635\u0627\u0644\u062d\u064a\u0647", "name:ar": "\u0645\u062f\u062e\u0644 \u0635\u0627\u0644\u062d\u064a\u0647", "name:ar1": "\u0627\u0644\u062e\u0631\u064a\u0637\u0629", "name:de": "Al Khuraytah", "name:en": "Salhiye", "name:fr": "Al Khuraytah", "name:ru": "\u042d\u043b\u044c-\u0425\u0440\u0435\u0439\u0442\u0430", "place": "village"}}, {"type": "node", "id": 573457475, "lat": 34.7420804, "lon": 40.7446901, "tags": {"alt_name": "\u0635\u0641\u0635\u0627\u0641\u0629", "is_in": "Syria, \u0627\u0644\u062c\u0645\u0647\u0648\u0631\u064a\u0629 \u0627\u0644\u0639\u0631\u0628\u064a\u0629 \u0627\u0644\u0633\u0648\u0631\u064a\u0629 \u060c \u0633\u0648\u0631\u064a\u0627", "name": "\u0635\u0641\u0635\u0627\u0641\u0629", "name:alt": "\u015eaf\u015f\u0101fah", "name:ar": "\u0635\u0641\u0635\u0627\u0641\u0629", "name:ar1": "\u0635\u0641\u0635\u0627\u0641\u0629", "name:de": "Safsafah", "name:en": "Safsafah", "name:fr": "Safsafah", "name:ru": "\u0421\u0430\u0444\u0441\u0430\u0444\u0430", "place": "village"}}, {"type": "node", "id": 573457476, "lat": 34.8686913, "lon": 40.6312519, "tags": {"alt_name": "\u0623\u0639\u0648\u062c \u0627\u0644\u0641\u0644\u062c", "int_name": "Aauoaj el Falaj, A`waj al Falaj", "is_in": "\u062f\u064a\u0631 \u0627\u0644\u0632\u0648\u0631 Deir Ez Zor", "name": "\u0623\u0639\u0648\u062c \u0627\u0644\u0641\u0644\u062c", "name:ar": "\u0623\u0639\u0648\u062c \u0627\u0644\u0641\u0644\u062c", "name:ar1": "\u0623\u0639\u0648\u062c \u0627\u0644\u0641\u0644\u062c", "name:de": "A`waj al Falaj", "name:en": "A`waj al Falaj", "name:fr": "A`waj al Falaj", "place": "village"}}, {"type": "node", "id": 573457487, "lat": 34.8023144, "lon": 40.5966264, "tags": {"alt_name": "\u0627\u0644\u0643\u0634\u0645\u0629", "int_name": "Kashma, Kashmah, Kashm\u0101, Kechma, Kechme, Kechm\u00e9, Rechma, Al Kishmah", "is_in": "Syria, \u0627\u0644\u062c\u0645\u0647\u0648\u0631\u064a\u0629 \u0627\u0644\u0639\u0631\u0628\u064a\u0629 \u0627\u0644\u0633\u0648\u0631\u064a\u0629 \u060c \u0633\u0648\u0631\u064a\u0627", "name": "\u0627\u0644\u0643\u0634\u0645\u0629", "name:ar": "\u0627\u0644\u0643\u0634\u0645\u0629", "name:ar1": "\u0627\u0644\u0643\u0634\u0645\u0629", "name:de": "Al Kishmah", "name:en": "Al Kishmah", "name:fr": "Al Kishmah", "name:ru": "\u042d\u043b\u044c-\u041a\u0438\u0448\u043c\u0430", "place": "village"}}, {"type": "node", "id": 573457541, "lat": 34.8072222, "lon": 40.65, "tags": {"alt_name": "\u0623\u0628\u0648 \u062d\u0645\u0627\u0645", "int_name": "Abou Hamam, Abou Hammam, Abou Ham\u00e2m, Ab\u016b \u1e28amm\u0101m", "is_in": "Syria, \u0627\u0644\u062c\u0645\u0647\u0648\u0631\u064a\u0629 \u0627\u0644\u0639\u0631\u0628\u064a\u0629 \u0627\u0644\u0633\u0648\u0631\u064a\u0629 \u060c \u0633\u0648\u0631\u064a\u0627", "name": "\u0623\u0628\u0648 \u062d\u0645\u0627\u0645", "name:ar": "\u0623\u0628\u0648 \u062d\u0645\u0627\u0645", "name:ar1": "\u0623\u0628\u0648 \u062d\u0645\u0627\u0645", "name:de": "Abu Hammam", "name:en": "Abu Hammam", "name:fr": "Abu Hammam", "name:ru": "\u0410\u0431\u0443-\u0425\u0430\u043c\u043c\u0430\u043c", "place": "town", "population": "21947"}}, {"type": "node", "id": 573457544, "lat": 34.7230556, "lon": 40.7847222, "tags": {"alt_name": "\u0627\u0644\u0628\u062d\u0631\u0629", "int_name": "El Bahra, Al Ba\u1e29rah", "is_in": "Syria, \u0627\u0644\u062c\u0645\u0647\u0648\u0631\u064a\u0629 \u0627\u0644\u0639\u0631\u0628\u064a\u0629 \u0627\u0644\u0633\u0648\u0631\u064a\u0629 \u060c \u0633\u0648\u0631\u064a\u0627", "name": "\u0627\u0644\u0628\u062d\u0631\u0629", "name:ar": "\u0627\u0644\u0628\u062d\u0631\u0629", "name:ar1": "\u0627\u0644\u0628\u062d\u0631\u0629", "name:de": "Al Bahrah", "name:en": "Al Bahrah", "name:fr": "Al Bahrah", "name:ru": "\u042d\u043b\u044c-\u0411\u0430\u0445\u0440\u0430", "place": "village"}}, {"type": "node", "id": 573457546, "lat": 34.8791093, "lon": 40.5605452, "tags": {"alt_name": "\u062f\u0628\u064a\u0627\u0646", "int_name": "Dablanah, Dablane, Dabl\u00e2ne, Dabl\u0101nah, Deblane, Diblane, Dibl\u00e2ne, Daby\u0101n", "is_in": "Syria, \u0627\u0644\u062c\u0645\u0647\u0648\u0631\u064a\u0629 \u0627\u0644\u0639\u0631\u0628\u064a\u0629 \u0627\u0644\u0633\u0648\u0631\u064a\u0629 \u060c \u0633\u0648\u0631\u064a\u0627", "name": "\u062f\u0628\u064a\u0627\u0646", "name:ar": "\u062f\u0628\u064a\u0627\u0646", "name:ar1": "\u062f\u0628\u064a\u0627\u0646", "name:de": "Dabyan", "name:en": "Dabyan", "name:fr": "Dabyan", "place": "village"}}, {"type": "node", "id": 573457553, "lat": 34.7752778, "lon": 40.7272222, "tags": {"is_in": "Syria, \u0627\u0644\u062c\u0645\u0647\u0648\u0631\u064a\u0629 \u0627\u0644\u0639\u0631\u0628\u064a\u0629 \u0627\u0644\u0633\u0648\u0631\u064a\u0629 \u060c \u0633\u0648\u0631\u064a\u0627", "name": "\u063a\u0631\u0627\u0646\u064a\u062c", "name:alt": "Khar\u0101'ij", "name:ar": "\u063a\u0631\u0627\u0646\u064a\u062c", "name:de": "Khara'ij", "name:en": "Khara'ij", "name:fr": "Khara'ij", "name:ml": "\u0d16\u0d31\u0d3e\u0d2f\u0d4d\u0d1c\u0d4d", "name:ru": "\u0425\u0430\u0440\u0430\u0435\u0434\u0436", "place": "town", "population": "23009", "wikidata": "Q12229487"}}, {"type": "node", "id": 573457556, "lat": 34.7188889, "lon": 40.7591667, "tags": {"alt_name": "\u0627\u0644\u0635\u0627\u0644\u062d\u064a\u0629", "int_name": "Es Salhiye, Es S\u00e2lh\u00eey\u00e9, Qaraqol, Salhiye, Salihiyah, S\u00e2lh\u00eey\u00e9, \u015e\u0101li\u1e29\u012byah, A\u015f \u015e\u0101li\u1e29\u012byah", "is_in": "Syria, \u0627\u0644\u062c\u0645\u0647\u0648\u0631\u064a\u0629 \u0627\u0644\u0639\u0631\u0628\u064a\u0629 \u0627\u0644\u0633\u0648\u0631\u064a\u0629 \u060c \u0633\u0648\u0631\u064a\u0627", "name": "\u0627\u0644\u0635\u0627\u0644\u062d\u064a\u0629", "name:ar": "\u0627\u0644\u0635\u0627\u0644\u062d\u064a\u0629", "name:ar1": "\u0627\u0644\u0635\u0627\u0644\u062d\u064a\u0629", "name:de": "As Salihiyah", "name:en": "As Salihiyah", "name:fr": "As Salihiyah", "name:ru": "\u0421\u0430\u043b\u0438\u0445\u0438\u044f", "place": "village"}}, {"type": "node", "id": 573457557, "lat": 34.7719444, "lon": 40.6913889, "tags": {"alt_name": "\u0627\u0644\u062c\u062f\u0644\u0629", "is_in": "Syria, \u0627\u0644\u062c\u0645\u0647\u0648\u0631\u064a\u0629 \u0627\u0644\u0639\u0631\u0628\u064a\u0629 \u0627\u0644\u0633\u0648\u0631\u064a\u0629 \u060c \u0633\u0648\u0631\u064a\u0627", "name": "\u0627\u0644\u062c\u062f\u0644\u0629", "name:alt": "Al Jadlah", "name:ar": "\u0627\u0644\u062c\u062f\u0644\u0629", "name:ar1": "\u0627\u0644\u062c\u062f\u0644\u0629", "name:de": "Al Jadlah", "name:en": "Al Jadlah", "name:fr": "Al Jadlah", "name:ru": "\u042d\u043b\u044c-\u0414\u0436\u0430\u0434\u043b\u0430", "place": "village"}}, {"type": "node", "id": 573457558, "lat": 34.8116667, "lon": 40.6947222, "tags": {"alt_name": "\u062c\u064a\u0634\u064a\u0629", "is_in": "Syria, \u0627\u0644\u062c\u0645\u0647\u0648\u0631\u064a\u0629 \u0627\u0644\u0639\u0631\u0628\u064a\u0629 \u0627\u0644\u0633\u0648\u0631\u064a\u0629 \u060c \u0633\u0648\u0631\u064a\u0627", "name": "\u0627\u0644\u0643\u0634\u0643\u064a\u0647.", "name:alt": "J\u012bsh\u012byah", "name:ar": "\u0627\u0644\u0643\u0634\u0643\u064a\u0647 \u0641\u0648\u0642\u0627\u0646\u064a", "name:ar1": "\u062c\u064a\u0634\u064a\u0629", "name:de": "Jishiyah", "name:en": "AlKe\u015fke ye", "name:fr": "Jishiyah", "name:ru": "\u0414\u0436\u0438\u0448\u0438\u044f", "place": "village"}}, {"type": "node", "id": 573457561, "lat": 34.8736111, "lon": 40.5616667, "tags": {"alt_name": "\u063a\u0631\u064a\u0628\u0629", "int_name": "Quraybi, Qurayb\u012b, Rhreiba, Rhre\u00efba, Ghuraybah", "is_in": "Syria, \u0627\u0644\u062c\u0645\u0647\u0648\u0631\u064a\u0629 \u0627\u0644\u0639\u0631\u0628\u064a\u0629 \u0627\u0644\u0633\u0648\u0631\u064a\u0629 \u060c \u0633\u0648\u0631\u064a\u0627", "name": "\u063a\u0631\u064a\u0628\u0629", "name:ar": "\u063a\u0631\u064a\u0628\u0629", "name:ar1": "\u063a\u0631\u064a\u0628\u0629", "name:de": "Ghuraybah", "name:en": "Ghuraybah", "name:fr": "Ghuraybah", "name:ru": "\u041a\u0440\u0435\u0431\u0438", "place": "village"}}, {"type": "node", "id": 573457569, "lat": 34.8547222, "lon": 40.6297222, "tags": {"alt_name": "\u0623\u0628\u0648 \u062d\u0631\u062f\u0648\u0628", "int_name": "Abou Hardoub, Abou Hardo\u00fbb, Ab\u016b \u1e28ard\u016bb", "is_in": "Syria, \u0627\u0644\u062c\u0645\u0647\u0648\u0631\u064a\u0629 \u0627\u0644\u0639\u0631\u0628\u064a\u0629 \u0627\u0644\u0633\u0648\u0631\u064a\u0629 \u060c \u0633\u0648\u0631\u064a\u0627", "name": "\u0623\u0628\u0648 \u062d\u0631\u062f\u0648\u0628", "name:ar": "\u0623\u0628\u0648 \u062d\u0631\u062f\u0648\u0628", "name:ar1": "\u0623\u0628\u0648 \u062d\u0631\u062f\u0648\u0628", "name:de": "Abu Hardub", "name:en": "Abu Hardub", "name:fr": "Abu Hardub", "name:ru": "\u0410\u0431\u0443-\u0425\u0430\u0440\u0434\u0443\u0431", "place": "village"}}, {"type": "node", "id": 573457571, "lat": 34.868793, "lon": 40.6480229, "tags": {"alt_name": "\u0627\u0644\u062c\u0631\u062f\u064a \u0627\u0644\u0634\u0631\u0642\u064a", "int_name": "Al Jurdi Sharqi, Al Jurd\u012b Sharq\u012b, Al Jurd\u012b ash Sharq\u012b", "is_in": "Syria, \u0627\u0644\u062c\u0645\u0647\u0648\u0631\u064a\u0629 \u0627\u0644\u0639\u0631\u0628\u064a\u0629 \u0627\u0644\u0633\u0648\u0631\u064a\u0629 \u060c \u0633\u0648\u0631\u064a\u0627", "name": "\u0627\u0644\u064a\u0645\u0627\u0645\u0647", "name:ar": "\u0627\u0644\u062c\u0631\u062f\u064a \u0627\u0644\u0634\u0631\u0642\u064a", "name:ar1": "\u0627\u0644\u062c\u0631\u062f\u064a \u0627\u0644\u0634\u0631\u0642\u064a", "name:de": "Al Jurdi ash Sharqi", "name:en": "Al-Yamama", "name:fr": "Al Jurdi ash Sharqi", "place": "village"}}, {"type": "node", "id": 573457572, "lat": 34.8606229, "lon": 40.6014432, "tags": {"alt_name": "\u0633\u0628\u064a\u062e\u0627\u0646", "int_name": "Sabikhan, Soubeikhane, Soube\u00efkh\u00e2ne, Subaykh\u0101n", "is_in": "Syria, \u0627\u0644\u062c\u0645\u0647\u0648\u0631\u064a\u0629 \u0627\u0644\u0639\u0631\u0628\u064a\u0629 \u0627\u0644\u0633\u0648\u0631\u064a\u0629 \u060c \u0633\u0648\u0631\u064a\u0627", "name": "\u0633\u0628\u064a\u062e\u0627\u0646", "name:ar": "\u0635\u0628\u064a\u062e\u0627\u0646", "name:ar1": "\u0633\u0628\u064a\u062e\u0627\u0646", "name:de": "Subaykhan", "name:en": "Subaykhan", "name:fr": "Subaykhan", "name:ru": "\u0421\u0431\u0435\u0445\u0430\u043d", "place": "village", "population": "23867"}}, {"type": "node", "id": 573457576, "lat": 34.7588889, "lon": 40.7611111, "tags": {"alt_name": "\u062e\u0631\u0627\u064a\u062c", "int_name": "Khara'ij, Khar\u0101'ij, Khar\u0101yij", "is_in": "Syria, \u0627\u0644\u062c\u0645\u0647\u0648\u0631\u064a\u0629 \u0627\u0644\u0639\u0631\u0628\u064a\u0629 \u0627\u0644\u0633\u0648\u0631\u064a\u0629 \u060c \u0633\u0648\u0631\u064a\u0627", "name": "\u063a\u0631\u0627\u0646\u064a\u062c", "name:ar": "\u062e\u0631\u0627\u064a\u062c", "name:ar1": "\u062e\u0631\u0627\u064a\u062c", "name:de": "Kharanij", "name:en": "Karaneg", "name:fr": "Kharanij", "place": "village"}}, {"type": "node", "id": 573457645, "lat": 35.0528105, "lon": 40.4941326, "tags": {"alt_name": "\u062d\u0648\u0627\u0626\u062c", "int_name": "Haouaej, Haou\u00e2ej, \u1e28aw\u0101'ij", "is_in": "Syria, \u0627\u0644\u062c\u0645\u0647\u0648\u0631\u064a\u0629 \u0627\u0644\u0639\u0631\u0628\u064a\u0629 \u0627\u0644\u0633\u0648\u0631\u064a\u0629 \u060c \u0633\u0648\u0631\u064a\u0627", "name": "\u062d\u0648\u0627\u0626\u062c", "name:ar": "\u062d\u0648\u0627\u0626\u062c", "name:ar1": "\u062d\u0648\u0627\u0626\u062c", "name:de": "Hawa'ij", "name:en": "Hawa'ij", "name:fr": "Hawa'ij", "name:ru": "\u042d\u043b\u044c-\u0425\u0430\u0432\u0430\u0439\u0435\u0434\u0436", "place": "village"}}, {"type": "node", "id": 573457656, "lat": 34.9108333, "lon": 40.5602778, "tags": {"alt_name": "\u0633\u0648\u064a\u062f\u0627\u0646 \u0634\u0627\u0645\u064a\u0629", "is_in": "Syria, \u0627\u0644\u062c\u0645\u0647\u0648\u0631\u064a\u0629 \u0627\u0644\u0639\u0631\u0628\u064a\u0629 \u0627\u0644\u0633\u0648\u0631\u064a\u0629 \u060c \u0633\u0648\u0631\u064a\u0627", "name": "\u0633\u0648\u064a\u062f\u0627\u0646 \u0634\u0627\u0645\u064a\u0629", "name:alt": "Suwayd\u0101n Sh\u0101m\u012byah", "name:ar": "\u0633\u0648\u064a\u062f\u0627\u0646 \u0634\u0627\u0645\u064a\u0629", "name:ar1": "\u0633\u0648\u064a\u062f\u0627\u0646 \u0634\u0627\u0645\u064a\u0629", "name:de": "Suwaydan Shamiyah", "name:en": "Suwaydan Shamiyah", "name:fr": "Suwaydan Shamiyah", "name:ru": "\u0421\u0443\u0432\u0435\u0439\u0434\u0430\u043d-\u0428\u0430\u043c\u0438\u044f", "place": "village"}}, {"type": "node", "id": 573457661, "lat": 34.9627778, "lon": 40.5480556, "tags": {"alt_name": "\u0627\u0644\u0642\u0631\u064a\u0627", "int_name": "Al Qurayyah, Al Quriyah, Al Q\u016br\u012byah, El Qouriye, El Qo\u00fbr\u00eey\u00e9, El Qraiye, El Qra\u00efy\u00e9, Al Qurayy\u0101", "is_in": "Syria, \u0627\u0644\u062c\u0645\u0647\u0648\u0631\u064a\u0629 \u0627\u0644\u0639\u0631\u0628\u064a\u0629 \u0627\u0644\u0633\u0648\u0631\u064a\u0629 \u060c \u0633\u0648\u0631\u064a\u0627", "name": "\u0627\u0644\u0642\u0631\u064a\u0627", "name:ar": "\u0627\u0644\u0642\u0631\u064a\u0627", "name:ar1": "\u0627\u0644\u0642\u0631\u064a\u0627", "name:de": "Al Qurayya", "name:en": "Al Qurayya", "name:fr": "Al Qurayya", "name:ru": "\u042d\u043b\u044c-\u041a\u0440\u0430\u0439\u044f", "place": "town", "population": "28172"}}, {"type": "node", "id": 573457690, "lat": 34.9244444, "lon": 40.5791667, "tags": {"alt_name": "\u062f\u0631\u0646\u062c", "int_name": "Dernej, Darnaj", "is_in": "Syria, \u0627\u0644\u062c\u0645\u0647\u0648\u0631\u064a\u0629 \u0627\u0644\u0639\u0631\u0628\u064a\u0629 \u0627\u0644\u0633\u0648\u0631\u064a\u0629 \u060c \u0633\u0648\u0631\u064a\u0627", "name": "\u062f\u0631\u0646\u062c", "name:ar": "\u062f\u0631\u0646\u062c", "name:ar1": "\u062f\u0631\u0646\u062c", "name:de": "Darnaj", "name:en": "Darnaj", "name:fr": "Darnaj", "name:ru": "\u0414\u0430\u0440\u043d\u0430\u0434\u0436", "place": "village"}}, {"type": "node", "id": 573457697, "lat": 34.9827778, "lon": 40.5375, "tags": {"alt_name": "\u0637\u064a\u0627\u0646\u064a", "int_name": "Taiyane, Tayyanah, Tayy\u0101nah, Ta\u00efy\u00e2n\u00e9, \u0162ayy\u0101n\u012b", "is_in": "Syria, \u0627\u0644\u062c\u0645\u0647\u0648\u0631\u064a\u0629 \u0627\u0644\u0639\u0631\u0628\u064a\u0629 \u0627\u0644\u0633\u0648\u0631\u064a\u0629 \u060c \u0633\u0648\u0631\u064a\u0627", "name": "\u0627\u0644\u0637\u064a\u0627\u0646\u0647", "name:ar": "\u0637\u064a\u0627\u0646\u064a", "name:ar1": "\u0637\u064a\u0627\u0646\u064a", "name:de": "Tayyani", "name:en": "Al Tayyani", "name:fr": "Tayyani", "name:ru": "\u0422\u0430\u0439\u044f\u043d\u0438", "place": "village"}}, {"type": "node", "id": 573457777, "lat": 35.0833333, "lon": 40.45, "tags": {"alt_name": "\u0634\u062d\u064a\u0644", "int_name": "Ch'hail, Ch'hil, Chehil, Ch\u00e9h\u00eel, Sha\u1e29\u012bl", "is_in": "Syria, \u0627\u0644\u062c\u0645\u0647\u0648\u0631\u064a\u0629 \u0627\u0644\u0639\u0631\u0628\u064a\u0629 \u0627\u0644\u0633\u0648\u0631\u064a\u0629 \u060c \u0633\u0648\u0631\u064a\u0627", "name": "\u0634\u062d\u064a\u0644", "name:ar": "\u0634\u062d\u064a\u0644", "name:ar1": "\u0634\u062d\u064a\u0644", "name:de": "Shahil", "name:en": "Shahil", "name:fr": "Shahil", "name:ru": "\u0428\u0445\u0438\u043b\u044c", "place": "town", "population": "14005"}}, {"type": "node", "id": 573457790, "lat": 35.0573579, "lon": 40.4155234, "tags": {"alt_name": "\u0628\u0642\u0631\u0633", "int_name": "Bouqros, Bouqross, Buqrus", "is_in": "Syria, \u0627\u0644\u062c\u0645\u0647\u0648\u0631\u064a\u0629 \u0627\u0644\u0639\u0631\u0628\u064a\u0629 \u0627\u0644\u0633\u0648\u0631\u064a\u0629 \u060c \u0633\u0648\u0631\u064a\u0627", "name": "\u0628\u0642\u0631\u0633", "name:ar": "\u0628\u0642\u0631\u0635", "name:ar1": "\u0628\u0642\u0631\u0633", "name:de": "Buqrus", "name:en": "Buqrus", "name:fr": "Buqrus", "place": "village"}}, {"type": "node", "id": 573457792, "lat": 34.9833333, "lon": 40.4666667, "tags": {"alt_name": "\u0641\u0627\u0637\u0633\u0629", "int_name": "Fatsa, Fatse, F\u00e2ts\u00e9, F\u0101\u0163isah", "is_in": "Syria, \u0627\u0644\u062c\u0645\u0647\u0648\u0631\u064a\u0629 \u0627\u0644\u0639\u0631\u0628\u064a\u0629 \u0627\u0644\u0633\u0648\u0631\u064a\u0629 \u060c \u0633\u0648\u0631\u064a\u0627", "name": "\u0641\u0627\u0637\u0633\u0629", "name:ar": "\u0641\u0627\u0637\u0633\u0629", "name:ar1": "\u0641\u0627\u0637\u0633\u0629", "name:de": "Fatisah", "name:en": "Fatisah", "name:fr": "Fatisah", "name:ru": "\u0424\u0430\u0446\u0430", "place": "village"}}, {"type": "node", "id": 573457820, "lat": 34.9013889, "lon": 40.5897222, "tags": {"alt_name": "\u0633\u0648\u064a\u062f\u0627\u0646 \u062c\u0632\u064a\u0631\u0629", "int_name": "Soueidanet ej Jezire, Soue\u00efd\u00e2net ej Jez\u00eer\u00e9, Suwaydanat al Jazirah, Suwayd\u0101nat al Jaz\u012brah, Suwayd\u0101n Jaz\u012brah", "is_in": "Syria, \u0627\u0644\u062c\u0645\u0647\u0648\u0631\u064a\u0629 \u0627\u0644\u0639\u0631\u0628\u064a\u0629 \u0627\u0644\u0633\u0648\u0631\u064a\u0629 \u060c \u0633\u0648\u0631\u064a\u0627", "name": "\u0633\u0648\u064a\u062f\u0627\u0646 \u062c\u0632\u064a\u0631\u0629", "name:ar": "\u0633\u0648\u064a\u062f\u0627\u0646 \u062c\u0632\u064a\u0631\u0629", "name:ar1": "\u0633\u0648\u064a\u062f\u0627\u0646 \u062c\u0632\u064a\u0631\u0629", "name:de": "Suwaydan Jazirah", "name:en": "Suwaydan Jazirah", "name:fr": "Suwaydan Jazirah", "name:ru": "\u0421\u0443\u0432\u0435\u0439\u0434\u0430\u043d-\u0414\u0436\u0430\u0437\u0438\u0440\u0435", "place": "village"}}, {"type": "node", "id": 573457825, "lat": 35.0162094, "lon": 40.5101418, "tags": {"alt_name": "\u062f\u064a\u0628\u0627\u0646", "is_in": "Syria, \u0627\u0644\u062c\u0645\u0647\u0648\u0631\u064a\u0629 \u0627\u0644\u0639\u0631\u0628\u064a\u0629 \u0627\u0644\u0633\u0648\u0631\u064a\u0629 \u060c \u0633\u0648\u0631\u064a\u0627", "name": "\u062f\u064a\u0628\u0627\u0646", "name:alt": "D\u012bb\u0101n", "name:ar": "\u062f\u064a\u0628\u0627\u0646", "name:ar1": "\u062f\u064a\u0628\u0627\u0646", "name:de": "Diban", "name:en": "Diban", "name:fr": "Diban", "name:ru": "\u0414\u0438\u0431\u0430\u043d", "place": "village", "population": "9000"}}, {"type": "node", "id": 573457843, "lat": 35.0382879, "lon": 40.4647784, "tags": {"alt_name": "\u0631\u0642\u064a\u0628", "int_name": "Rourheib, Rourhe\u00efb, Ruqayb", "is_in": "Syria, \u0627\u0644\u062c\u0645\u0647\u0648\u0631\u064a\u0629 \u0627\u0644\u0639\u0631\u0628\u064a\u0629 \u0627\u0644\u0633\u0648\u0631\u064a\u0629 \u060c \u0633\u0648\u0631\u064a\u0627", "name": "\u0631\u0642\u064a\u0628", "name:ar": "\u0627\u0644\u0631\u063a\u064a\u0628 \u0631\u063a\u064a\u0628 \u0627\u0644\u062f\u064a\u0631", "name:ar1": "\u0631\u0642\u064a\u0628", "name:de": "Ruqayb", "name:en": "Ruqayb", "name:fr": "Ruqayb", "name:ru": "\u0420\u043a\u0435\u0431", "place": "village"}}, {"type": "node", "id": 573457856, "lat": 35.0343524, "lon": 40.4266385, "tags": {"alt_name": "\u0627\u0644\u0628\u0627\u0639\u0648\u0645", "int_name": "Al Bul`um, Al B\u0101`\u016bm", "is_in": "Syria, \u0627\u0644\u062c\u0645\u0647\u0648\u0631\u064a\u0629 \u0627\u0644\u0639\u0631\u0628\u064a\u0629 \u0627\u0644\u0633\u0648\u0631\u064a\u0629 \u060c \u0633\u0648\u0631\u064a\u0627", "name": "\u0627\u0644\u0628\u0627\u0639\u0648\u0645", "name:ar": "\u0627\u0644\u0628\u0644\u0639\u0648\u0645 \u0627\u0644\u0645\u064a\u0627\u062f\u064a\u0646", "name:ar1": "\u0627\u0644\u0628\u0627\u0639\u0648\u0645", "name:de": "Al Ba`um", "name:en": "Al Ba`um", "name:fr": "Al Ba`um", "place": "village"}}, {"type": "node", "id": 573457876, "lat": 34.9952778, "lon": 40.5119444, "tags": {"alt_name": "\u062f\u064a\u0628\u0627\u0646", "int_name": "Dabyan, Dibane, D\u00eeb\u00e2ne, D\u012bb\u0101n", "is_in": "Syria, \u0627\u0644\u062c\u0645\u0647\u0648\u0631\u064a\u0629 \u0627\u0644\u0639\u0631\u0628\u064a\u0629 \u0627\u0644\u0633\u0648\u0631\u064a\u0629 \u060c \u0633\u0648\u0631\u064a\u0627", "name": "\u062f\u064a\u0628\u0627\u0646", "name:ar": "\u062f\u064a\u0628\u0627\u0646", "name:ar1": "\u062f\u064a\u0628\u0627\u0646", "name:de": "Diban", "name:en": "Diban", "name:fr": "Diban", "name:ru": "\u0414\u0438\u0431\u0430\u043d", "place": "village"}}, {"type": "node", "id": 573457886, "lat": 34.9227778, "lon": 40.5616667, "tags": {"alt_name": "\u0627\u0644\u0623\u0634\u0627\u0631\u0629", "int_name": "Acharat, Charra, El Aachara, El Aach\u00e2ra, El Achara, El Ach\u00e2ra, Qasr el `Ashara, Sharra, Tirya, Al Ash\u0101rah", "is_in": "Syria, \u0627\u0644\u062c\u0645\u0647\u0648\u0631\u064a\u0629 \u0627\u0644\u0639\u0631\u0628\u064a\u0629 \u0627\u0644\u0633\u0648\u0631\u064a\u0629 \u060c \u0633\u0648\u0631\u064a\u0627", "name": "\u0627\u0644\u0623\u0634\u0627\u0631\u0629", "name:ar": "\u0627\u0644\u0623\u0634\u0627\u0631\u0629", "name:ar1": "\u0627\u0644\u0623\u0634\u0627\u0631\u0629", "name:de": "Al Asharah", "name:en": "Al Asharah", "name:fr": "Al Asharah", "name:ru": "\u042d\u043b\u044c-\u0418\u0448\u0430\u0440\u0430", "place": "town", "population": "17537"}}, {"type": "node", "id": 573457888, "lat": 34.9806133, "lon": 40.5029526, "tags": {"alt_name": "\u0645\u062d\u0643\u0627\u0646", "int_name": "Maadane, Mahgane, Mahqan, Mahqane, Mahq\u00e2ne, Ma\u1e29q\u0101n, Mihqan, Mi\u1e29qan, Ma\u1e29k\u0101n", "is_in": "Syria, \u0627\u0644\u062c\u0645\u0647\u0648\u0631\u064a\u0629 \u0627\u0644\u0639\u0631\u0628\u064a\u0629 \u0627\u0644\u0633\u0648\u0631\u064a\u0629 \u060c \u0633\u0648\u0631\u064a\u0627", "name": "\u0645\u062d\u0643\u0627\u0646", "name:ar": "\u0645\u062d\u0643\u0627\u0646", "name:ar1": "\u0645\u062d\u0643\u0627\u0646", "name:de": "Mahkan", "name:en": "Mahkan", "name:fr": "Mahkan", "name:ru": "\u041c\u0430\u0445\u043a\u0430\u043d", "place": "village"}}, {"type": "node", "id": 573457895, "lat": 35.0166667, "lon": 40.45, "tags": {"alt_name": "\u0627\u0644\u0645\u064a\u0627\u062f\u064a\u0646", "int_name": "Al-Mayadeen, Audattha, Mayadin, Mayadine, May\u0101d\u012bn, Meyadin, Meyadine, Meyedine, Mey\u0101d\u012bn, Al May\u0101d\u012bn", "name": "\u0627\u0644\u0645\u064a\u0627\u062f\u064a\u0646", "name:ar": "\u0627\u0644\u0645\u064a\u0627\u062f\u064a\u0646", "name:ar1": "\u0627\u0644\u0645\u064a\u0627\u062f\u064a\u0646", "name:cs": "Majad\u00edn", "name:de": "Al Mayadin", "name:en": "Al Mayadin", "name:fr": "Al Mayadin", "name:ml": "\u0d05\u0d7d-\u0d2e\u0d46\u0d2f\u0d3e\u0d26\u0d40\u0d7b", "name:ru": "\u041c\u0435\u044f\u0434\u0438\u043d", "place": "town", "population": "44028", "wikidata": "Q310895", "wikipedia": "en:Mayadin"}}, {"type": "node", "id": 573457909, "lat": 35.0424692, "lon": 40.4320458, "tags": {"alt_name": "\u0628\u0644\u0628\u0644", "is_in": "Syria, \u0627\u0644\u062c\u0645\u0647\u0648\u0631\u064a\u0629 \u0627\u0644\u0639\u0631\u0628\u064a\u0629 \u0627\u0644\u0633\u0648\u0631\u064a\u0629 \u060c \u0633\u0648\u0631\u064a\u0627", "name": "\u0628\u0644\u0628\u0644", "name:alt": "Bulbul", "name:ar": "\u0628\u0644\u0628\u0644", "name:ar1": "\u0628\u0644\u0628\u0644", "name:de": "Bulbul", "name:en": "Bulbul", "name:fr": "Bulbul", "place": "village"}}]}