{"version": 0.6, "generator": "Overpass API 0.7.61.5 4133829e", "osm3s": {"timestamp_osm_base": "2024-03-05T15:10:00Z", "copyright": "The data included in this document is from www.openstreetmap.org. The data is made available under ODbL."}, "elements": [{"type": "node", "id": 492709360, "lat": 68.2826341, "lon": 23.0863658, "tags": {"name": "Palojoensuu", "name:fi": "Palojoensuu", "name:se": "B\u00e1lojohnj\u00e1lbmi", "place": "village", "wikidata": "Q997775", "wikipedia": "en:Palojoensuu"}}, {"type": "node", "id": 492722205, "lat": 68.1389821, "lon": 23.1452141, "tags": {"name": "Saivomuotka", "place": "hamlet"}}, {"type": "node", "id": 492732219, "lat": 68.1579718, "lon": 23.3017444, "tags": {"name": "Sonkamuotka", "name:se": "So\u014bgemuotki", "place": "hamlet"}}, {"type": "node", "id": 493715394, "lat": 68.1091218, "lon": 23.3489838, "tags": {"name": "K\u00e4tk\u00e4suvanto", "place": "hamlet", "wikidata": "Q11874170", "wikipedia": "fi:K\u00e4tk\u00e4suvanto"}}, {"type": "node", "id": 493924056, "lat": 68.2028019, "lon": 23.2012153, "tags": {"name": "\u00c4ij\u00e4joki", "place": "hamlet"}}, {"type": "node", "id": 2209057323, "lat": 68.160659, "lon": 23.2806315, "tags": {"name": "Sonkamuotka", "name:se": "Soa\u014bgemuotki", "place": "hamlet"}}, {"type": "node", "id": 2254661692, "lat": 68.3364595, "lon": 22.972926, "tags": {"name": "V\u00e4h\u00e4niva", "place": "hamlet"}}, {"type": "node", "id": 2365511092, "lat": 68.1125374, "lon": 23.3267041, "tags": {"name": "K\u00e4tkesuando", "name:fit": "K\u00e4tk\u00e4suanto", "name:sv": "K\u00e4tkesuando", "place": "hamlet"}}, {"type": "node", "id": 2365511093, "lat": 68.2440102, "lon": 22.8798547, "tags": {"name": "Paittasj\u00e4rvi", "name:fit": "Paittasj\u00e4rvi", "name:se": "B\u00e1ittasj\u00e1vri", "place": "hamlet"}}]}