{"version": 0.6, "generator": "Overpass API 0.7.61.5 4133829e", "osm3s": {"timestamp_osm_base": "2024-03-05T15:10:00Z", "copyright": "The data included in this document is from www.openstreetmap.org. The data is made available under ODbL."}, "elements": [{"type": "node", "id": 249423791, "lat": 60.102423, "lon": 19.94126, "tags": {"alt_name": "Maarianhamina", "name": "Mariehamn", "name:et": "Maarianhamina", "name:fi": "Maarianhamina", "name:is": "Mar\u00eduh\u00f6fn", "name:la": "Portus Mariae", "name:lt": "Marianhamina", "name:mk": "\u041c\u0430\u0440\u0438\u0435\u0445\u0430\u043c\u043d", "name:ru": "\u041c\u0430\u0440\u0438\u0435\u0445\u0430\u043c\u043d", "name:sv": "Mariehamn", "name:zh": "\u746a\u9e97\u6e2f", "place": "city", "population": "11817", "population:date": "2023-12-31", "source:population": "wikipedia", "website": "https://www.mariehamn.ax/", "wikidata": "Q48329", "wikipedia": "en:Mariehamn"}}, {"type": "node", "id": 249436426, "lat": 60.221273, "lon": 19.552652, "tags": {"name": "Storby", "name:mk": "\u0421\u0442\u0443\u0440\u0431\u0438", "place": "village", "population": "527", "wikipedia": "sv:Storby"}}, {"type": "node", "id": 249436888, "lat": 60.2299139, "lon": 19.9880591, "tags": {"loc_name": "\u00c5lands Centrum", "name": "Finstr\u00f6m", "name:fi": "Finstr\u00f6m", "name:ru": "\u0424\u0438\u043d\u0441\u0442\u0440\u0451\u043c", "name:sv": "Finstr\u00f6m", "place": "town", "population": "2609", "population:date": "2023-12-31", "source:population": "wikipedia", "wikidata": "Q51914", "wikipedia": "en:Finstr\u00f6m"}}, {"type": "node", "id": 277418044, "lat": 60.2196758, "lon": 19.7378481, "tags": {"name": "Hammarland", "name:fi": "Hammarland", "name:mk": "\u0425\u0430\u043c\u0430\u0440\u043b\u0430\u043d\u0434", "name:ru": "\u0425\u0430\u043c\u043c\u0430\u0440\u043b\u0430\u043d\u0434", "name:sv": "Hammarland", "place": "town", "population": "1645", "population:date": "2023-12-31", "source:population": "wikipedia", "website": "https://www.hammarland.ax/", "wikidata": "Q134685", "wikipedia": "en:Hammarland"}}, {"type": "node", "id": 736923128, "lat": 60.2160488, "lon": 19.7387163, "tags": {"name": "Kattby", "place": "village", "wikidata": "Q26254540"}}, {"type": "node", "id": 845938040, "lat": 60.3088354, "lon": 19.9689854, "tags": {"name": "Kroklund", "place": "hamlet"}}, {"type": "node", "id": 846599651, "lat": 60.2673065, "lon": 19.9306639, "tags": {"name": "P\u00e5lsb\u00f6le", "place": "hamlet"}}, {"type": "node", "id": 1804271280, "lat": 60.1304124, "lon": 19.8232778, "tags": {"name": "Gottby", "name:ru": "\u0413\u043e\u0442\u0442\u0431\u044e", "name:sv": "Gottby", "place": "village"}}, {"type": "node", "id": 1804271281, "lat": 60.1037237, "lon": 19.8313459, "tags": {"name": "Kungs\u00f6", "place": "village", "wikidata": "Q10550408"}}, {"type": "node", "id": 1847342432, "lat": 60.1050483, "lon": 19.8998998, "tags": {"addr:postcode": "22120", "name": "M\u00f6ckel\u00f6", "place": "village", "wikidata": "Q21976923"}}, {"type": "node", "id": 2272890019, "lat": 60.1256072, "lon": 19.9736602, "tags": {"name": "Vesterkalmare", "place": "village", "wikidata": "Q10714662"}}, {"type": "node", "id": 2392152172, "lat": 60.1865656, "lon": 19.5902521, "tags": {"name": "Torp", "name:mk": "\u0422\u043e\u0440\u043f", "place": "village", "wikidata": "Q65655964"}}, {"type": "node", "id": 3003496047, "lat": 60.2142016, "lon": 19.6490041, "tags": {"name": "\u00d6verby", "place": "hamlet"}}, {"type": "node", "id": 3003496048, "lat": 60.2031993, "lon": 19.6689168, "tags": {"name": "Marby", "place": "hamlet"}}, {"type": "node", "id": 3003496049, "lat": 60.2267345, "lon": 19.5936433, "tags": {"name": "B\u00f6le", "place": "hamlet"}}, {"type": "node", "id": 3003496050, "lat": 60.2193573, "lon": 19.7118011, "tags": {"name": "Frebbenby", "place": "hamlet"}}, {"type": "node", "id": 3003496051, "lat": 60.2222164, "lon": 19.6788946, "tags": {"name": "\u00d6ra", "place": "hamlet"}}, {"type": "node", "id": 3003496052, "lat": 60.2332975, "lon": 19.7259084, "tags": {"name": "M\u00f6rby", "place": "hamlet"}}, {"type": "node", "id": 3003496053, "lat": 60.2251101, "lon": 19.5384682, "tags": {"name": "Berghamn", "place": "hamlet", "wikipedia": "sv:Berghamn, Ecker\u00f6"}}, {"type": "node", "id": 3003496054, "lat": 60.2144148, "lon": 19.6153584, "tags": {"name": "Kyrkoby", "place": "hamlet"}}, {"type": "node", "id": 3003499866, "lat": 60.1538999, "lon": 19.7652188, "tags": {"name": "Torp", "place": "hamlet"}}, {"type": "node", "id": 3003499867, "lat": 60.2046921, "lon": 19.7353497, "tags": {"name": "Hellesby", "place": "hamlet"}}, {"type": "node", "id": 3003499868, "lat": 60.169402, "lon": 19.7425595, "tags": {"name": "Samuelstorp", "place": "hamlet"}}, {"type": "node", "id": 5270203960, "lat": 60.2003863, "lon": 19.7733615, "tags": {"name": "N\u00e4fsby", "place": "village"}}, {"type": "node", "id": 5270320905, "lat": 60.2110448, "lon": 19.8792041, "tags": {"name": "Emkarby", "place": "village"}}, {"type": "node", "id": 5270320906, "lat": 60.2117376, "lon": 19.8581299, "tags": {"name": "Bj\u00e4rstr\u00f6m", "place": "village"}}, {"type": "node", "id": 5548915346, "lat": 60.1742796, "lon": 19.5231449, "tags": {"name": "Skeppsvik", "note": "del av byn Torp", "place": "hamlet"}}, {"type": "node", "id": 7837266362, "lat": 60.2336436, "lon": 19.8556701, "tags": {"name": "Bamb\u00f6le", "place": "hamlet"}}, {"type": "node", "id": 10184823520, "lat": 60.1417913, "lon": 19.9395692, "tags": {"name": "Dalkarby", "place": "village"}}, {"type": "node", "id": 10996665279, "lat": 60.153929, "lon": 19.9452693, "tags": {"name": "Jomala", "name:en": "Jomala", "name:fi": "Jomala", "name:sv": "Jomala", "place": "town", "population": "5698", "population:date": "2023-12-31", "source:population": "wikipedia", "wikidata": "Q176178", "wikipedia": "en:Jomala"}}, {"type": "node", "id": 11157777180, "lat": 60.1796244, "lon": 19.8574461, "tags": {"name": "Vargsunda", "place": "hamlet"}}, {"type": "node", "id": 11157803810, "lat": 60.1691109, "lon": 19.8822079, "tags": {"name": "Norrsunda", "place": "hamlet"}}, {"type": "node", "id": 11560044314, "lat": 60.2238625, "lon": 19.5588707, "tags": {"name": "Ecker\u00f6", "name:en": "Ecker\u00f6", "name:fi": "Ecker\u00f6", "name:sv": "Ecker\u00f6", "place": "town", "population": "941", "population:date": "2023-12-31", "source:population": "wikipedia", "wikidata": "Q51909", "wikipedia": "en:Ecker\u00f6"}}]}