{"version": 0.6, "generator": "Overpass API 0.7.61.5 4133829e", "osm3s": {"timestamp_osm_base": "2024-03-05T13:39:48Z", "copyright": "The data included in this document is from www.openstreetmap.org. The data is made available under ODbL."}, "elements": [{"type": "node", "id": 3470964387, "lat": 35.9567816, "lon": 66.428255, "tags": {"alt_name": "\u062a\u0648\u06a9\u0632\u0627\u0631;Tuksar;Sangcharak;Tokzar;Takzar;Sangcarak;Qal`eh Sangcharek;Qala Sangcharak;Kala Sangcharak", "fixme": "population", "is_in:iso_3166_2": "AF-SAR", "name": "\u062a\u06a9\u0632\u0627\u0631", "name:en": "Tukzar", "name:ja": "\u30c8\u30af\u30b6\u30fc\u30eb", "name:ps": "\u062a\u06a9\u0632\u0627\u0631", "place": "town", "source:name": "GNS", "wikidata": "Q7851883", "wikipedia": "en:Tukzar"}}, {"type": "node", "id": 4393012430, "lat": 35.967466, "lon": 66.722811, "tags": {"alt_name": "Mirza'i;Mirzai", "name": "\u0645\u06cc\u0631\u0632\u06cc", "name:en": "Mirzay", "name:ps": "\u0645\u06cc\u0631\u0632\u06cc", "place": "village", "source:name": "GNS"}}, {"type": "node", "id": 4397437978, "lat": 35.9427695, "lon": 66.5177936, "tags": {"name": "\u06af\u0648\u0633\u0641\u0646\u062f\u06cc", "name:en": "Gosfandi", "place": "town"}}, {"type": "node", "id": 4397437980, "lat": 35.935465, "lon": 66.523123, "tags": {"name": "\u0642\u0637\u0646\u0645\u0633\u062a", "name:en": "Qotanmast;Qutanmast", "name:ps": "\u0642\u0637\u0646\u0645\u0633\u062a", "place": "village", "source:name": "GNS"}}, {"type": "node", "id": 4397437982, "lat": 35.937356, "lon": 66.50868, "tags": {"name": "\u0634\u06cc\u062e\u0627\u0646", "name:en": "Sekhan;Sheykhan;Shaykhan", "name:ps": "\u0634\u06cc\u062e\u0627\u0646", "place": "village", "source:name": "GNS"}}, {"type": "node", "id": 4397437983, "lat": 35.94809, "lon": 66.524319, "tags": {"name": "\u062a\u0627\u062a\u0627\u0631", "name:en": "Tatar", "name:ps": "\u062a\u0627\u062a\u0627\u0631", "place": "village", "source:name": "GNS"}}, {"type": "node", "id": 4397437984, "lat": 35.930553, "lon": 66.524746, "tags": {"name": "\u062a\u0627\u0632\u06cc\u0627\u0646", "name:en": "Tazian;Tazyan", "name:ps": "\u062a\u0627\u0632\u06cc\u0627\u0646", "place": "village", "source:name": "GNS"}}, {"type": "node", "id": 4397440649, "lat": 36.099165, "lon": 66.208226, "tags": {"alt_name": "Sozmah Qal`ah;Saozma Kala;Sowzmeh Qal`eh;Saozma Qala", "name": "\u0633\u0648\u0632\u0645\u0647 \u0642\u0644\u0639\u0647", "name:en": "Sozma Qala", "name:ps": "\u0633\u0648\u0632\u0645\u0647 \u0642\u0644\u0639\u0647", "place": "town", "source:name": "GNS"}}, {"type": "node", "id": 7627440975, "lat": 36.2041436, "lon": 66.3508175, "tags": {"place": "hamlet"}}, {"type": "node", "id": 7627440976, "lat": 36.2076757, "lon": 66.3349389, "tags": {"place": "hamlet"}}]}