{"version": 0.6, "generator": "Overpass API 0.7.61.5 4133829e", "osm3s": {"timestamp_osm_base": "2024-03-06T11:11:30Z", "copyright": "The data included in this document is from www.openstreetmap.org. The data is made available under ODbL."}, "elements": [{"type": "node", "id": 4157555937, "lat": 36.5657863, "lon": 44.6956756, "tags": {"amenity": "hospital", "name": "Dargala Hospital"}}, {"type": "node", "id": 5012844180, "lat": 36.63721, "lon": 44.5580929}, {"type": "node", "id": 5012844181, "lat": 36.6376918, "lon": 44.5591088}, {"type": "node", "id": 5012844182, "lat": 36.6367356, "lon": 44.559751}, {"type": "node", "id": 5012844183, "lat": 36.6361876, "lon": 44.5587265}, {"type": "node", "id": 5141604422, "lat": 36.660322, "lon": 44.5487909, "tags": {"amenity": "hospital", "healthcare": "hospital", "name": "\u0628\u0646\u06a9\u06d5\u06cc \u062a\u06d5\u0646\u062f\u0631\u0648\u0633\u062a\u06cc \u0632\u06c6\u0632\u06a9", "name:ar": "\u0632\u0648\u0632\u06a9 \u0645\u0631\u06a9\u0632 \u0635\u062d\u0647", "name:en": "Zozk Health Center"}}, {"type": "node", "id": 5148310822, "lat": 36.6647094, "lon": 44.5435918, "tags": {"amenity": "hospital", "name": "\u0628\u0646\u06a9\u06d5\u06cc \u062a\u06d5\u0646\u062f\u0631\u0648\u0633\u062a\u06cc \u062f\u06cc\u0627\u0646\u0627", "name:en": "Dyana Health Center"}}, {"type": "node", "id": 5150733555, "lat": 36.6370894, "lon": 44.5591729, "tags": {"amenity": "hospital", "healthcare": "hospital", "name": "\u0646\u06d5\u062e\u06c6\u0634\u062e\u0627\u0646\u06d5\u06cc \u0644\u06d5\u062f\u0627\u06cc\u06a9 \u0628\u0648\u0648\u0646 \u0648 \u0645\u0646\u062f\u0627\u06b5\u0627\u0646", "name:ckb": "\u0646\u06d5\u062e\u06c6\u0634\u062e\u0627\u0646\u06d5\u06cc \u0644\u06d5\u062f\u0627\u06cc\u06a9 \u0628\u0648\u0648\u0646 \u0648 \u0645\u0646\u062f\u0627\u06b5\u0627\u0646", "name:en": "Naxoshxanai la Daik bun"}}, {"type": "node", "id": 5152067008, "lat": 36.6362956, "lon": 44.5586596}, {"type": "node", "id": 5152111775, "lat": 36.6531897, "lon": 44.5406332, "tags": {"amenity": "hospital", "name": "\u0646\u06d5\u062e\u06c6\u0634\u062e\u0627\u0646\u06d5\u06cc \u0647\u06d5\u0646\u062f\u0631\u06ce\u0646", "name:ckb": "\u0646\u06d5\u062e\u06c6\u0634\u062e\u0627\u0646\u06d5\u06cc \u0647\u06d5\u0646\u062f\u0631\u06ce\u0646", "name:en": "Naxoshxanai Handren"}}, {"type": "node", "id": 5412586321, "lat": 36.6742427, "lon": 45.0461217, "tags": {"amenity": "hospital", "name:en": "Haji Omaran Hospital"}}, {"type": "node", "id": 5641755392, "lat": 36.6518798, "lon": 44.5494937, "tags": {"amenity": "hospital", "healthcare": "hospital", "name": "\u0646\u06d5\u062e\u06c6\u0634\u062e\u0627\u0646\u06d5\u06cc \u0647\u06d5\u0631\u06ce\u0645/\u0645\u0633\u062a\u0634\u0641\u06cc \u0647\u0631\u06cc\u0645/Harem Hospital", "name:en": "Nazoshxanai Harem", "operator": "\u0645\u0633\u062a\u0634\u062a\u0641\u06cc"}}, {"type": "node", "id": 6252003985, "lat": 36.5586, "lon": 44.8282965, "tags": {"addr:city": "\u0686\u06c6\u0645\u0627\u0646", "alt_name": "\u062e\u06d5\u0633\u062a\u06d5\u062e\u0627\u0646\u06d5\u06cc \u0642\u06d5\u0633\u0631\u06ce", "amenity": "hospital", "healthcare": "hospital", "internet_access": "wlan", "name": "\u0646\u06d5\u062e\u06c6\u0634\u062e\u0627\u0646\u06d5\u06cc \u0642\u06d5\u0633\u0631\u06ce", "name:ar": "\u0645\u0633\u062a\u0634\u0641\u0649 \u0642\u0633\u0631\u064a", "name:ckb": "\u0646\u06d5\u062e\u06c6\u0634\u062e\u0627\u0646\u06d5\u06cc \u0642\u06d5\u0633\u0631\u06ce", "name:en": "Qasre Hospital", "name:ku": "Nexwe\u015fxaneya Qesr\u00ea"}}, {"type": "node", "id": 6313145087, "lat": 36.8027584, "lon": 44.6651311, "tags": {"amenity": "hospital", "name": "\u0628\u0646\u06a9\u0629\u06cc \u062a\u0629\u0646\u062f\u0631\u0648\u0633\u062a\u06cc \u0633\u06cc\u062f\u06d5\u06a9\u0627\u0646", "name:en": "\u0628\u0646\u06a9\u0629\u06cc \u062a\u0629\u0646\u062f\u0631\u0648\u0633\u062a\u06cc \u0633\u06cc\u062f\u06d5\u06a9\u0627\u0646"}}, {"type": "node", "id": 6313145090, "lat": 36.8006266, "lon": 44.6287355, "tags": {"amenity": "hospital", "name:en": "Mjesar Health Center"}}, {"type": "node", "id": 6313145092, "lat": 36.7910576, "lon": 44.6021973, "tags": {"amenity": "hospital", "healthcare": "hospital", "name:en": "Shiwan Health Center"}}, {"type": "node", "id": 6870859185, "lat": 36.6074784, "lon": 44.7572316, "tags": {"amenity": "hospital", "healthcare": "hospital", "name:en": "Dar u Salam Health Center"}}, {"type": "node", "id": 7594955486, "lat": 36.762546, "lon": 44.6393922, "tags": {"amenity": "hospital", "healthcare": "hospital", "name:en": "Kazhak Healthcare"}}, {"type": "node", "id": 8313971123, "lat": 36.6363301, "lon": 44.8873181, "tags": {"addr:city": "\u0686\u06c6\u0645\u0627\u0646", "amenity": "hospital", "healthcare": "hospital", "name": "\u0646\u06d5\u062e\u06c6\u0634\u062e\u0627\u0646\u06d5\u06cc \u0686\u06c6\u0645\u0627\u0646", "name:en": "Choman Hospital"}}, {"type": "node", "id": 9242564217, "lat": 36.6290425, "lon": 44.5752837, "tags": {"amenity": "hospital", "name": "\u0628\u0646\u06a9\u06d5\u06cc \u062a\u06d5\u0646\u062f\u0631\u0648\u0633\u062a\u06cc \u062c\u0648\u0646\u062f\u06cc\u0627\u0646"}}, {"type": "node", "id": 9308529851, "lat": 36.637991, "lon": 44.5583165, "tags": {"amenity": "hospital", "name": "\u0628\u0646\u06a9\u06d5\u06cc \u062a\u06d5\u0646\u062f\u0631\u0648\u0633\u062a\u06cc \u0632\u06d5\u06cc\u062a\u0648\u0646\u06d5"}}, {"type": "node", "id": 9308529852, "lat": 36.6289531, "lon": 44.5764286, "tags": {"amenity": "hospital", "name": "\u0628\u0646\u06a9\u06d5\u06cc \u062a\u06d5\u0646\u062f\u0631\u0648\u0633\u062a\u06cc \u062c\u0648\u0646\u062f\u06cc\u0627\u0646"}}, {"type": "node", "id": 11494605791, "lat": 36.8068486, "lon": 44.6550708}, {"type": "node", "id": 11494605792, "lat": 36.8067112, "lon": 44.6558905}, {"type": "node", "id": 11494605793, "lat": 36.8062473, "lon": 44.6563712}, {"type": "node", "id": 11494605794, "lat": 36.8058384, "lon": 44.6561781}, {"type": "node", "id": 11494605795, "lat": 36.8057422, "lon": 44.6562682}, {"type": "node", "id": 11494605796, "lat": 36.8058487, "lon": 44.6561351}, {"type": "node", "id": 11494605797, "lat": 36.8059862, "lon": 44.6554142}, {"type": "node", "id": 11494605798, "lat": 36.8060343, "lon": 44.6549936}, {"type": "node", "id": 11494605799, "lat": 36.8063539, "lon": 44.6549678}, {"type": "node", "id": 11494605800, "lat": 36.80656, "lon": 44.6550236}, {"type": "node", "id": 11494605801, "lat": 36.8067353, "lon": 44.6549163}, {"type": "node", "id": 11522986944, "lat": 36.8971368, "lon": 44.6329853, "tags": {"amenity": "hospital", "healthcare": "hospital", "name": "\u0628\u0646\u06a9\u06d5\u06cc \u062a\u06d5\u0646\u062f\u0631\u0648\u0633\u062a\u06cc \u0633\u06d5\u0695\u0648\u0648"}}, {"type": "way", "id": 512671346, "nodes": [5012844180, 5012844181, 5012844182, 5012844183, 5152067008, 5012844180], "tags": {"amenity": "hospital", "name": "\u0646\u06d5\u062e\u06c6\u0634\u062e\u0627\u0646\u06d5\u06cc \u0644\u06d5\u062f\u0627\u06cc\u06a9\u0628\u0648\u0648\u0646", "name:en": "Obstetrics & Gynaecology Hospital"}}, {"type": "way", "id": 1237545631, "nodes": [11494605791, 11494605792, 11494605793, 11494605794, 11494605795, 11494605796, 11494605797, 11494605798, 11494605799, 11494605800, 11494605801, 11494605791], "tags": {"addr:city": "Sidakan", "addr:place": "Sidakan", "addr:postcode": "40001", "amenity": "hospital", "building:levels": "4", "healthcare": "hospital", "name": "\u0646\u06d5\u062e\u06c6\u0634\u062e\u0627\u0646\u06d5\u06cc \u0633\u06cc\u062f\u06d5\u06a9\u0627\u0646", "roof:colour": "#08b6d9"}}]}