{"version": 0.6, "generator": "Overpass API 0.7.61.5 4133829e", "osm3s": {"timestamp_osm_base": "2024-03-06T11:34:00Z", "copyright": "The data included in this document is from www.openstreetmap.org. The data is made available under ODbL."}, "elements": [{"type": "node", "id": 5799253833, "lat": 3.7407508, "lon": 34.8134342}, {"type": "node", "id": 6561319285, "lat": 3.705483, "lon": 34.8843637}, {"type": "node", "id": 6561319286, "lat": 3.7054567, "lon": 34.8844371}, {"type": "node", "id": 6561319287, "lat": 3.7054251, "lon": 34.8844257}, {"type": "node", "id": 6561319288, "lat": 3.705409, "lon": 34.8844705}, {"type": "node", "id": 6561319289, "lat": 3.7054596, "lon": 34.8844888}, {"type": "node", "id": 6561319290, "lat": 3.7054344, "lon": 34.8845589}, {"type": "node", "id": 6561319291, "lat": 3.7051351, "lon": 34.8844509}, {"type": "node", "id": 6587191155, "lat": 3.7085446, "lon": 34.8620959}, {"type": "node", "id": 6587191156, "lat": 3.7085278, "lon": 34.8621293}, {"type": "node", "id": 6587191157, "lat": 3.7085446, "lon": 34.8621378}, {"type": "node", "id": 6587191207, "lat": 3.709034, "lon": 34.8618135}, {"type": "node", "id": 6587191208, "lat": 3.7089729, "lon": 34.8617899}, {"type": "node", "id": 6587191239, "lat": 3.7089691, "lon": 34.8616863}, {"type": "node", "id": 6587191240, "lat": 3.7090857, "lon": 34.8618774}, {"type": "node", "id": 6587191241, "lat": 3.7091697, "lon": 34.8619098}, {"type": "node", "id": 6587325931, "lat": 3.7097955, "lon": 34.8617365}, {"type": "node", "id": 6587325932, "lat": 3.7097648, "lon": 34.8618733}, {"type": "node", "id": 6587325933, "lat": 3.7097126, "lon": 34.8618231}, {"type": "node", "id": 6587325934, "lat": 3.7098477, "lon": 34.8617868}, {"type": "node", "id": 6602511782, "lat": 3.7095356, "lon": 34.8622}, {"type": "node", "id": 6602511783, "lat": 3.7094751, "lon": 34.8621448}, {"type": "node", "id": 6602511784, "lat": 3.7093721, "lon": 34.8622697}, {"type": "node", "id": 6602530485, "lat": 3.7094888, "lon": 34.8622434}, {"type": "node", "id": 6666118546, "lat": 3.7080024, "lon": 34.8633315}, {"type": "node", "id": 6666118548, "lat": 3.7082664, "lon": 34.8634043}, {"type": "node", "id": 6666118549, "lat": 3.7080557, "lon": 34.8632556}, {"type": "node", "id": 7463101801, "lat": 3.7404451, "lon": 34.8145654}, {"type": "node", "id": 7463101802, "lat": 3.7380256, "lon": 34.8133839}, {"type": "node", "id": 7463101803, "lat": 3.7385475, "lon": 34.8123245}, {"type": "node", "id": 10864747435, "lat": 3.747611, "lon": 34.8194534, "tags": {"amenity": "pharmacy", "noname": "yes", "operator:type": "private"}}, {"type": "node", "id": 10864747437, "lat": 3.735405, "lon": 34.8397987, "tags": {"amenity": "hospital", "name": "Kaapoka Health Centre"}}, {"type": "node", "id": 10864747438, "lat": 3.7204859, "lon": 34.851527, "tags": {"amenity": "clinic", "name": "Locherangamor Health Center", "operator": "Doris Aluda", "operator:type": "ngo", "phone": "+254712836854"}}, {"type": "node", "id": 10864747439, "lat": 3.7483622, "lon": 34.8126101, "tags": {"amenity": "clinic", "noname": "yes", "operator:type": "private"}}, {"type": "node", "id": 10864747443, "lat": 3.7501952, "lon": 34.8095716, "tags": {"amenity": "pharmacy", "noname": "yes", "operator:type": "private"}}, {"type": "node", "id": 10864747446, "lat": 3.7052028, "lon": 34.8842626}, {"type": "node", "id": 10864747447, "lat": 3.6987591, "lon": 34.8799465}, {"type": "node", "id": 10864747448, "lat": 3.7086577, "lon": 34.8650925, "tags": {"amenity": "clinic", "name": "Bliss Medical Centre", "operator:type": "private"}}, {"type": "node", "id": 10864747449, "lat": 3.7083822, "lon": 34.863702, "tags": {"amenity": "clinic", "name": "Gateway", "operator": "AbdiFAtah Ahmed Boruka", "operator:type": "private", "phone": "+25472305553"}}, {"type": "node", "id": 10864747450, "lat": 3.7342991, "lon": 34.8501429, "tags": {"amenity": "clinic", "name": "Natir Dispensery", "operator": "Turkana County Govt", "operator:type": "public"}}, {"type": "node", "id": 10864747452, "lat": 3.709423, "lon": 34.8621988}, {"type": "node", "id": 10864747455, "lat": 3.7092186, "lon": 34.8617827}, {"type": "node", "id": 10864747456, "lat": 3.7106344, "lon": 34.8556837, "tags": {"addr:city": "Kakuma", "addr:street": "Lodwar-Lokichogio Road", "amenity": "pharmacy", "healthcare": "pharmacy", "name": "Goodlife Pharmacy Health Beauty.", "operator:type": "private"}}, {"type": "node", "id": 10864747457, "lat": 3.7106229, "lon": 34.8555924, "tags": {"addr:city": "Kakuma", "addr:street": "Lodwar-Lokichogio Road", "amenity": "hospital", "healthcare": "hospital", "name": "Shepherds Hospital", "operator:type": "private"}}, {"type": "node", "id": 10864747459, "lat": 3.7318324, "lon": 34.8160068, "tags": {"amenity": "clinic", "name": "Jesus Is King Clinic", "operator": "Emile", "operator:type": "private", "phone": "+254768380544"}}, {"type": "node", "id": 10864747460, "lat": 3.7333983, "lon": 34.8166817, "tags": {"amenity": "pharmacy", "name": "J Redemption Small Pharmacy", "operator": "Jibril Seif", "operator:type": "private", "phone": "745652718"}}, {"type": "node", "id": 10864747461, "lat": 3.7357674, "lon": 34.8174782, "tags": {"amenity": "pharmacy", "name": "Pride Hope and Health Pharmacy", "phone": "+254701807417"}}, {"type": "node", "id": 10864747463, "lat": 3.7494518, "lon": 34.8151481, "tags": {"amenity": "clinic", "noname": "yes", "operator:type": "private"}}, {"type": "node", "id": 10864747464, "lat": 3.747714, "lon": 34.8134522, "tags": {"amenity": "pharmacy", "name": "Nsibamana", "operator:type": "private"}}, {"type": "node", "id": 10864747466, "lat": 3.7474341, "lon": 34.8404639, "tags": {"amenity": "clinic", "name": "Hong Kong Health Dispensary", "operator": "IRC", "operator:type": "ngo", "phone": "+254701629346"}}, {"type": "node", "id": 10864747467, "lat": 3.737927, "lon": 34.8126849, "tags": {"amenity": "pharmacy", "name": "Arthur Pharmacy", "operator": "Arthur", "phone": "70352623"}}, {"type": "node", "id": 10864747468, "lat": 3.738671, "lon": 34.8121541, "tags": {"amenity": "pharmacy", "name": "Spring Pharmacy", "operator": "Ndayizeye Libert", "operator:type": "private", "phone": "113540227"}}, {"type": "node", "id": 10864747469, "lat": 3.7388998, "lon": 34.8116174, "tags": {"amenity": "pharmacy", "name": "Paradise Medical Group", "operator": "Ashetu", "operator:type": "private", "phone": "+254718580032"}}, {"type": "node", "id": 10991771254, "lat": 3.7068004, "lon": 34.8645443, "tags": {"amenity": "pharmacy", "name": "Tulel Chemist"}}, {"type": "node", "id": 10991771256, "lat": 3.7085614, "lon": 34.8621044}, {"type": "node", "id": 10991861228, "lat": 3.7092601, "lon": 34.8616743, "tags": {"amenity": "pharmacy", "name": "Oropoi Medical"}}, {"type": "node", "id": 10991861234, "lat": 3.7079594, "lon": 34.8638598, "tags": {"amenity": "pharmacy", "name": "Premier Medical Services"}}, {"type": "node", "id": 10992253098, "lat": 3.7080543, "lon": 34.8636959, "tags": {"amenity": "pharmacy", "name": "The Guardian Medical Clinic"}}, {"type": "node", "id": 10992271254, "lat": 3.7082131, "lon": 34.8634802}, {"type": "node", "id": 10992271258, "lat": 3.7084932, "lon": 34.8632192, "tags": {"amenity": "pharmacy", "name": "Itopride Chemist"}}, {"type": "node", "id": 10994632362, "lat": 3.7092901, "lon": 34.8624283, "tags": {"amenity": "pharmacy", "name": "Winners Phamarcy", "shop": "chemist"}}, {"type": "node", "id": 11001805089, "lat": 3.7068301, "lon": 34.864525, "tags": {"amenity": "pharmacy", "name": "Tulel Pharmaceutical"}}, {"type": "node", "id": 11236707692, "lat": 3.7089805, "lon": 34.8617702}, {"type": "node", "id": 11236707693, "lat": 3.7090447, "lon": 34.8617857}, {"type": "node", "id": 11236707694, "lat": 3.7089425, "lon": 34.8617555}, {"type": "node", "id": 11236707695, "lat": 3.7091111, "lon": 34.8618113}, {"type": "node", "id": 11236743542, "lat": 3.7094323, "lon": 34.8623121}, {"type": "node", "id": 11256343152, "lat": 3.6987734, "lon": 34.8798846}, {"type": "node", "id": 11256343153, "lat": 3.6987933, "lon": 34.8798002}, {"type": "node", "id": 11256343154, "lat": 3.6987187, "lon": 34.8797825}, {"type": "node", "id": 11256343155, "lat": 3.6987163, "lon": 34.8797927}, {"type": "node", "id": 11256343156, "lat": 3.6986889, "lon": 34.8797862}, {"type": "node", "id": 11256343157, "lat": 3.6986788, "lon": 34.8798291}, {"type": "node", "id": 11256343158, "lat": 3.698686, "lon": 34.8798308}, {"type": "node", "id": 11256343159, "lat": 3.6986645, "lon": 34.8799221}, {"type": "node", "id": 11256343160, "lat": 3.6986572, "lon": 34.8799204}, {"type": "node", "id": 11256343161, "lat": 3.698643, "lon": 34.879981}, {"type": "node", "id": 11256343162, "lat": 3.698677, "lon": 34.879989}, {"type": "node", "id": 11256343163, "lat": 3.6986756, "lon": 34.8799948}, {"type": "node", "id": 11256343164, "lat": 3.6987502, "lon": 34.8800124}, {"type": "node", "id": 11256343165, "lat": 3.6987654, "lon": 34.8799479}, {"type": "node", "id": 11256343166, "lat": 3.6987628, "lon": 34.879931}, {"type": "node", "id": 11256343167, "lat": 3.6987899, "lon": 34.8799375}, {"type": "node", "id": 11256343168, "lat": 3.6988008, "lon": 34.8798911}, {"type": "way", "id": 698726375, "nodes": [6561319285, 6561319286, 6561319287, 6561319288, 6561319289, 6561319290, 6561319291, 10864747446, 6561319285], "tags": {"amenity": "hospital", "name": "Kakuma Sub County", "operator": "Turkana County Govt", "operator:type": "public", "phone": "70207905"}}, {"type": "way", "id": 701390373, "nodes": [10991771256, 6587191157, 6587191156, 6587191155, 10991771256], "tags": {"amenity": "pharmacy", "building": "yes", "name": "Rhood"}}, {"type": "way", "id": 701390385, "nodes": [10864747455, 6587191241, 6587191240, 11236707695, 11236707693, 6587191207, 6587191208, 11236707692, 11236707694, 6587191239, 10864747455], "tags": {"addr:city": "Kakuma", "addr:postcode": "30501", "addr:street": "Lodwar-Lokichogio Road", "amenity": "clinic", "building": "yes", "name": "Turkland Medical Care", "operator:type": "private", "roof:material": "metal_sheet"}}, {"type": "way", "id": 701404756, "nodes": [6587325931, 6587325934, 6587325932, 6587325933, 6587325931], "tags": {"amenity": "clinic", "building": "yes", "name": "P4 Light Medical Centre", "operator": "Jacqueline Naiyoma", "operator:type": "private", "roof:material": "metal_sheet"}}, {"type": "way", "id": 703060901, "nodes": [6602511782, 6602511783, 10864747452, 6602511784, 11236743542, 6602530485, 6602511782], "tags": {"amenity": "clinic", "building": "yes", "name": "Kakuma Medical Ckinic", "operator": "Francis ledakan", "operator:type": "private", "phone": "+25471193099", "roof:material": "metal_sheet"}}, {"type": "way", "id": 709268910, "nodes": [6666118549, 6666118548, 10992271254, 6666118546, 6666118549], "tags": {"amenity": "pharmacy", "building": "yes", "name": "The Guardian Pharmaceutical And Nursing Homes", "roof:material": "metal_sheet"}}, {"type": "way", "id": 797924040, "nodes": [5799253833, 7463101801, 7463101802, 7463101803, 5799253833], "tags": {"amenity": "hospital", "healthcare": "hospital", "name": "General hospital"}}, {"type": "way", "id": 1214920331, "nodes": [11256343168, 11256343167, 11256343166, 10864747447, 11256343165, 11256343164, 11256343163, 11256343162, 11256343161, 11256343160, 11256343159, 11256343158, 11256343157, 11256343156, 11256343155, 11256343154, 11256343153, 11256343152, 11256343168], "tags": {"amenity": "hospital", "building": "yes", "name": "Equity Afia Medical Centre", "operator": "Jane Rose", "operator:type": "private", "roof:material": "metal_sheet"}}]}