{"version": 0.6, "generator": "Overpass API 0.7.61.5 4133829e", "osm3s": {"timestamp_osm_base": "2024-03-05T14:14:40Z", "copyright": "The data included in this document is from www.openstreetmap.org. The data is made available under ODbL."}, "elements": [{"type": "node", "id": 5523632026, "lat": 37.2311933, "lon": 67.2760199, "tags": {"amenity": "atm", "brand": "NBU", "opening_hours": "24/7", "operator": "Milliy bank"}}, {"type": "node", "id": 6872883877, "lat": 37.2385618, "lon": 67.279843, "tags": {"amenity": "atm", "brand": "Hamkorbank", "opening_hours": "24/7", "operator": "Hamkorbank"}}, {"type": "node", "id": 6872892085, "lat": 37.2255701, "lon": 67.2755219, "tags": {"amenity": "atm", "brand": "Turon bank", "opening_hours": "24/7", "operator": "Turon bank"}}, {"type": "node", "id": 6876141521, "lat": 37.2390948, "lon": 67.2801444, "tags": {"amenity": "atm", "atm": "yes", "brand": "Mikrokredit bank", "opening_hours": "24/7", "operator": "Mikrokredit bank"}}, {"type": "node", "id": 7038013715, "lat": 37.233178, "lon": 67.2887449, "tags": {"amenity": "atm", "brand": "UZCARD", "opening_hours": "24/7", "operator": "Xalq banki"}}, {"type": "node", "id": 7312283211, "lat": 37.2448768, "lon": 67.2870862, "tags": {"amenity": "atm", "atm": "yes", "brand": "UZCARD", "opening_hours": "24/7", "operator": "Transbank"}}, {"type": "node", "id": 7343362350, "lat": 37.2419713, "lon": 67.2821892, "tags": {"amenity": "atm", "opening_hours": "24/7", "operator": "Aloqa bank"}}, {"type": "node", "id": 7343362351, "lat": 37.24488, "lon": 67.2870772, "tags": {"amenity": "atm", "atm": "yes", "brand": "HUMO", "opening_hours": "24/7", "operator": "Transbank"}}, {"type": "node", "id": 7343362352, "lat": 37.2454544, "lon": 67.3068058, "tags": {"amenity": "atm", "opening_hours": "24/7"}}, {"type": "node", "id": 7343362353, "lat": 37.2474604, "lon": 67.3094572, "tags": {"amenity": "atm", "brand": "UZCARD", "opening_hours": "24/7", "operator": "Hamkor bank"}}, {"type": "node", "id": 7343362354, "lat": 37.2367456, "lon": 67.2905825, "tags": {"amenity": "atm", "brand": "Sanoat qurilish bank", "opening_hours": "24/7", "operator": "Sanoat qurilish bank"}}, {"type": "node", "id": 7343362355, "lat": 37.2362726, "lon": 67.2897752, "tags": {"amenity": "atm", "brand": "Asaka bank", "opening_hours": "24/7", "operator": "Asaka bank"}}, {"type": "node", "id": 7343362356, "lat": 37.2278617, "lon": 67.2733936, "tags": {"amenity": "atm", "opening_hours": "24/7", "operator": "Ipotekabank"}}, {"type": "node", "id": 7343362357, "lat": 37.2124705, "lon": 67.2735679, "tags": {"amenity": "atm", "opening_hours": "24/7", "operator": "Turon bank"}}, {"type": "node", "id": 7365236748, "lat": 37.23317, "lon": 67.2887475, "tags": {"amenity": "atm", "brand": "HUMO", "opening_hours": "24/7", "operator": "Xalq banki"}}, {"type": "node", "id": 10003012008, "lat": 37.2117935, "lon": 67.2740833, "tags": {"amenity": "atm"}}, {"type": "node", "id": 11187958808, "lat": 37.2346121, "lon": 67.2846883, "tags": {"amenity": "atm", "brand": "SQB", "contact:phone": "+998 71 200 43 43;1180", "contact:website": "https://sqb.uz", "opening_hours": "24/7", "operator": "\u0421\u0443\u0440\u0445\u0430\u043d\u0434\u0430\u0440\u044c\u0438\u043d\u0441\u043a\u0438\u0439 \u0440\u0435\u0433\u0438\u043e\u043d\u0430\u043b\u044c\u043d\u044b\u0439 \u043e\u0444\u0438\u0441 \u0431\u0430\u043d\u043a\u043e\u0432\u0441\u043a\u0438\u0445 \u0443\u0441\u043b\u0443\u0433"}}, {"type": "node", "id": 11187958810, "lat": 37.2420565, "lon": 67.2911042, "tags": {"amenity": "atm", "brand": "SQB", "contact:phone": "+998 71 200 43 43;1180", "contact:website": "https://sqb.uz", "opening_hours": "24/7", "operator": "\u0421\u0443\u0440\u0445\u0430\u043d\u0434\u0430\u0440\u044c\u0438\u043d\u0441\u043a\u0438\u0439 \u0440\u0435\u0433\u0438\u043e\u043d\u0430\u043b\u044c\u043d\u044b\u0439 \u043e\u0444\u0438\u0441 \u0431\u0430\u043d\u043a\u043e\u0432\u0441\u043a\u0438\u0445 \u0443\u0441\u043b\u0443\u0433"}}]}