{"version": 0.6, "generator": "Overpass API 0.7.61.5 4133829e", "osm3s": {"timestamp_osm_base": "2024-03-06T11:18:45Z", "copyright": "The data included in this document is from www.openstreetmap.org. The data is made available under ODbL."}, "elements": [{"type": "node", "id": 2488326839, "lat": 34.486392, "lon": 41.533696, "tags": {"alt_name": "\u0623\u0628\u0648 \u062d\u064a\u0627\u0629", "int_name": "Ab\u016b \u1e28ay\u0101h, Al B\u016b \u1e28ayy\u0101t, \u0627\u0628\u0648 \u062d\u064a\u0627\u0629, Abu Hayah, Al Bu Hayyat, \u0627\u0628\u0648 \u062d\u064a\u0627\u0629", "is_in": "Iraq , \u062c\u0645\u0647\u0648\u0631\u064a\u0629 \u0627\u0644\u0639\u0631\u0627\u0642", "name": "\u0623\u0628\u0648 \u062d\u064a\u0627\u0629", "name:ar": "\u0623\u0628\u0648 \u062d\u064a\u0627\u0629", "name:ar1": "\u0623\u0628\u0648 \u062d\u064a\u0627\u0629", "name:de": "Abu Hayah", "name:en": "Abu Hayah", "name:fr": "Abu Hayah", "place": "village"}}, {"type": "node", "id": 2488326878, "lat": 34.4797337, "lon": 41.4357799, "tags": {"alt_name": "\u0627\u0644\u062f\u064a\u0631", "int_name": "Ad Dayr, \u0627\u0644\u062f\u064a\u0631, Ad Dayr, \u0627\u0644\u062f\u064a\u0631", "is_in": "Iraq , \u062c\u0645\u0647\u0648\u0631\u064a\u0629 \u0627\u0644\u0639\u0631\u0627\u0642", "name": "\u0627\u0644\u062f\u064a\u0631", "name:ar": "\u0627\u0644\u062f\u064a\u0631", "name:ar1": "\u0627\u0644\u062f\u064a\u0631", "name:de": "Ad Dayr", "name:en": "Ad Dayr", "name:fr": "Ad Dayr", "place": "village"}}, {"type": "node", "id": 2488326890, "lat": 34.460826, "lon": 41.589828, "tags": {"alt_name": "\u0627\u0644\u062f\u064a\u0646\u064a\u0629", "int_name": "Ad D\u012bn\u012byah, \u0627\u0644\u062f\u064a\u0646\u064a\u0647, Ad Diniyah, \u0627\u0644\u062f\u064a\u0646\u064a\u0647", "is_in": "Iraq , \u062c\u0645\u0647\u0648\u0631\u064a\u0629 \u0627\u0644\u0639\u0631\u0627\u0642", "name": "\u0627\u0644\u062f\u064a\u0646\u064a\u0629", "name:ar": "\u0627\u0644\u062f\u064a\u0646\u064a\u0629", "name:ar1": "\u0627\u0644\u062f\u064a\u0646\u064a\u0629", "name:de": "Ad Diniyah", "name:en": "Ad Diniyah", "name:fr": "Ad Diniyah", "place": "village"}}, {"type": "node", "id": 2488326904, "lat": 34.48717, "lon": 41.617363, "tags": {"alt_name": "\u0627\u0644\u0639\u062c\u0627\u0645\u064a\u0629", "int_name": "Aj\u0101m\u012byah, Al Ajjam\u012byah, \u0627\u0644\u0639\u062c\u0627\u0645\u064a\u0629, Ajamiyah, Al Ajjamiyah, \u0627\u0644\u0639\u062c\u0627\u0645\u064a\u0629", "is_in": "Iraq , \u062c\u0645\u0647\u0648\u0631\u064a\u0629 \u0627\u0644\u0639\u0631\u0627\u0642", "name": "\u0627\u0644\u0639\u062c\u0627\u0645\u064a\u0629", "name:ar": "\u0627\u0644\u0639\u062c\u0627\u0645\u064a\u0629", "name:ar1": "\u0627\u0644\u0639\u062c\u0627\u0645\u064a\u0629", "name:de": "Ajamiyah", "name:en": "Ajamiyah", "name:fr": "Ajamiyah", "place": "village"}}, {"type": "node", "id": 2488326916, "lat": 34.468489, "lon": 41.437806, "tags": {"alt_name": "\u0627\u0644\u0639\u0645\u0627\u0631\u064a", "int_name": "Al Amm\u0101r\u012b, \u0627\u0644\u0639\u0645\u0627\u0631\u064a, Al Ammari, \u0627\u0644\u0639\u0645\u0627\u0631\u064a", "is_in": "Iraq , \u062c\u0645\u0647\u0648\u0631\u064a\u0629 \u0627\u0644\u0639\u0631\u0627\u0642", "name": "\u0627\u0644\u0639\u0645\u0627\u0631\u064a", "name:ar": "\u0627\u0644\u0639\u0645\u0627\u0631\u064a", "name:ar1": "\u0627\u0644\u0639\u0645\u0627\u0631\u064a", "name:de": "Al Ammari", "name:en": "Al Ammari", "name:fr": "Al Ammari", "place": "village"}}, {"type": "node", "id": 2488326942, "lat": 34.4353143, "lon": 41.4532435, "tags": {"alt_name": "\u0627\u0644\u0623\u0634\u0639\u064a\u062b\u064a", "int_name": "Al Ash\u012bth\u012b, Al Ashithi", "is_in": "Iraq , \u062c\u0645\u0647\u0648\u0631\u064a\u0629 \u0627\u0644\u0639\u0631\u0627\u0642", "name": "\u0627\u0644\u0623\u0634\u0639\u064a\u062b\u064a", "name:ar": "\u0627\u0644\u0623\u0634\u0639\u064a\u062b\u064a", "name:ar1": "\u0627\u0644\u0623\u0634\u0639\u064a\u062b\u064a", "name:de": "Al Ashithi", "name:en": "Al Ashithi", "name:fr": "Al Ashithi", "place": "village"}}, {"type": "node", "id": 2488326954, "lat": 34.464002, "lon": 41.731694, "tags": {"alt_name": "\u0627\u0644\u0639\u0648\u0627\u0641\u064a \u0627\u0644\u063a\u0631\u0628\u064a\u0629", "int_name": "Al Aw\u0101f\u012b al Gharb\u012byah, \u0627\u0644\u0639\u0648\u0627\u0641\u064a \u0627\u0644\u063a\u0631\u0628\u064a\u0629, Al Awafi al Gharbiyah, \u0627\u0644\u0639\u0648\u0627\u0641\u064a \u0627\u0644\u063a\u0631\u0628\u064a\u0629", "is_in": "Iraq , \u062c\u0645\u0647\u0648\u0631\u064a\u0629 \u0627\u0644\u0639\u0631\u0627\u0642", "name": "\u0627\u0644\u0639\u0648\u0627\u0641\u064a \u0627\u0644\u063a\u0631\u0628\u064a\u0629", "name:ar": "\u0627\u0644\u0639\u0648\u0627\u0646\u064a \u0627\u0644\u063a\u0631\u0628\u064a\u0629", "name:ar1": "\u0627\u0644\u0639\u0648\u0627\u0641\u064a \u0627\u0644\u063a\u0631\u0628\u064a\u0629", "name:de": "Al Awafi al Gharbiyah", "name:en": "Al Awani al Gharbiyah", "name:fr": "Al Awafi al Gharbiyah", "place": "village"}}, {"type": "node", "id": 2488326966, "lat": 34.470519, "lon": 41.740839, "tags": {"alt_name": "\u0627\u0644\u0639\u0648\u0627\u0641\u064a \u0627\u0644\u0634\u0631\u0642\u064a\u0629", "int_name": "Al Aw\u0101f\u012b ash Sharq\u012byah, \u0627\u0644\u0639\u0648\u0627\u0641\u064a \u0627\u0644\u0634\u0631\u0642\u064a\u0629, Al Awafi ash Sharqiyah, \u0627\u0644\u0639\u0648\u0627\u0641\u064a \u0627\u0644\u0634\u0631\u0642\u064a\u0629", "is_in": "Iraq , \u062c\u0645\u0647\u0648\u0631\u064a\u0629 \u0627\u0644\u0639\u0631\u0627\u0642", "name": "\u0627\u0644\u0639\u0648\u0627\u0641\u064a \u0627\u0644\u0634\u0631\u0642\u064a\u0629", "name:ar": "\u0627\u0644\u0639\u0648\u0627\u0646\u064a \u0627\u0644\u0634\u0631\u0642\u064a\u0629", "name:ar1": "\u0627\u0644\u0639\u0648\u0627\u0641\u064a \u0627\u0644\u0634\u0631\u0642\u064a\u0629", "name:de": "Al Awafi ash Sharqiyah", "name:en": "Al Awafi ash Sharqiyah", "name:fr": "Al Awafi ash Sharqiyah", "place": "village"}}, {"type": "node", "id": 2488326973, "lat": 34.4770303, "lon": 41.641636, "tags": {"alt_name": "\u0627\u0644\u0628\u0631\u064a\u062f\u064a\u0629", "int_name": "Al Bar\u012bd\u012byah, \u0627\u0644\u0628\u0631\u064a\u062f\u064a\u0629, Al Baridiyah, \u0627\u0644\u0628\u0631\u064a\u062f\u064a\u0629", "is_in": "Iraq , \u062c\u0645\u0647\u0648\u0631\u064a\u0629 \u0627\u0644\u0639\u0631\u0627\u0642", "name": "\u0627\u0644\u0628\u0631\u064a\u062f\u064a\u0629", "name:ar": "\u0627\u0644\u0628\u0631\u0648\u062f\u064a\u0629", "name:ar1": "\u0627\u0644\u0628\u0631\u064a\u062f\u064a\u0629", "name:de": "Al Baridiyah", "name:en": "Al Baridiyah", "name:fr": "Al Baridiyah", "place": "village"}}, {"type": "node", "id": 2488326974, "lat": 34.458324, "lon": 41.663967, "tags": {"alt_name": "\u0627\u0644\u0628\u0631\u0648\u062e\u064a\u0629", "int_name": "Al Barkh\u012byah, Al Barukh\u012byah, \u0627\u0644\u0628\u0631\u0648\u062e\u064a\u0629, Al Barkhiyah, Al Barukhiyah, \u0627\u0644\u0628\u0631\u0648\u062e\u064a\u0629", "is_in": "Iraq , \u062c\u0645\u0647\u0648\u0631\u064a\u0629 \u0627\u0644\u0639\u0631\u0627\u0642", "name": "\u0627\u0644\u0628\u0631\u0648\u062e\u064a\u0629", "name:ar": "\u0627\u0644\u0628\u0631\u0648\u062e\u064a\u0629", "name:ar1": "\u0627\u0644\u0628\u0631\u0648\u062e\u064a\u0629", "name:de": "Al Barkhiyah", "name:en": "Al Barkhiyah", "name:fr": "Al Barkhiyah", "place": "village"}}, {"type": "node", "id": 2488326979, "lat": 34.453956, "lon": 41.596373, "tags": {"alt_name": "\u0627\u0644\u0641\u0642\u0631\u0627\u0646\u064a\u0629", "int_name": "Al Fuqr\u0101n\u012byah, \u0627\u0644\u0641\u0642\u0631\u0627\u0646\u064a\u0629, Al Fuqraniyah, \u0627\u0644\u0641\u0642\u0631\u0627\u0646\u064a\u0629", "is_in": "Iraq , \u062c\u0645\u0647\u0648\u0631\u064a\u0629 \u0627\u0644\u0639\u0631\u0627\u0642", "name": "\u0627\u0644\u0641\u0642\u0631\u0627\u0646\u064a\u0629", "name:ar": "\u0627\u0644\u0641\u0642\u0631\u0627\u0646\u064a\u0629", "name:ar1": "\u0627\u0644\u0641\u0642\u0631\u0627\u0646\u064a\u0629", "name:de": "Al Fuqraniyah", "name:en": "Al Fuqraniyah", "name:fr": "Al Fuqraniyah", "place": "village"}}, {"type": "node", "id": 2488326980, "lat": 34.485099, "lon": 41.836411, "tags": {"alt_name": "\u0627\u0644\u0643\u0631\u0627\u062a\u064a\u0629", "int_name": "Al Gr\u0101t\u012byah, \u0627\u0644\u06af\u0631\u0627\u062a\u064a\u0629, Al Gratiyah, \u0627\u0644\u06af\u0631\u0627\u062a\u064a\u0629", "is_in": "Iraq , \u062c\u0645\u0647\u0648\u0631\u064a\u0629 \u0627\u0644\u0639\u0631\u0627\u0642", "name": "\u0627\u0644\u0643\u0631\u0627\u062a\u064a\u0629", "name:ar": "\u0627\u0644\u0643\u0631\u0627\u0637\u064a\u0629", "name:ar1": "\u0627\u0644\u0643\u0631\u0627\u062a\u064a\u0629", "name:de": "Al Gratiyah", "name:en": "Al Gratiyah", "name:fr": "Al Gratiyah", "place": "village"}}, {"type": "node", "id": 2488326981, "lat": 34.4690563, "lon": 41.6652684, "tags": {"alt_name": "\u0627\u0644\u062d\u0645\u0631\u064a\u0629", "int_name": "Al \u1e28amr\u012byah, \u0627\u0644\u062d\u0645\u0631\u064a\u0629, Al Hamriyah, \u0627\u0644\u062d\u0645\u0631\u064a\u0629", "is_in": "Iraq , \u062c\u0645\u0647\u0648\u0631\u064a\u0629 \u0627\u0644\u0639\u0631\u0627\u0642", "name": "\u0627\u0644\u062d\u0645\u0631\u064a\u0629", "name:ar": "\u0627\u0644\u062d\u0645\u0631\u064a\u0629", "name:ar1": "\u0627\u0644\u062d\u0645\u0631\u064a\u0629", "name:de": "Al Hamriyah", "name:en": "Al Hamriyah", "name:fr": "Al Hamriyah", "place": "village"}}, {"type": "node", "id": 2488326985, "lat": 34.4743816, "lon": 41.596043, "tags": {"alt_name": "\u0627\u0644\u0625\u0628\u0631\u0627\u0647\u064a\u0645\u064a\u0629", "int_name": "Al Ibr\u0101h\u012bm\u012byah, Al Ibrahimiyah", "is_in": "Iraq , \u062c\u0645\u0647\u0648\u0631\u064a\u0629 \u0627\u0644\u0639\u0631\u0627\u0642", "name": "\u0627\u0644\u0625\u0628\u0631\u0627\u0647\u064a\u0645\u064a\u0629", "name:ar": "\u0627\u0644\u0625\u0628\u0631\u0627\u0647\u064a\u0645\u064a\u0629", "name:ar1": "\u0627\u0644\u0625\u0628\u0631\u0627\u0647\u064a\u0645\u064a\u0629", "name:de": "Al Ibrahimiyah", "name:en": "Al Ibrahimiyah", "name:fr": "Al Ibrahimiyah", "place": "village"}}, {"type": "node", "id": 2488327000, "lat": 34.445066, "lon": 41.589309, "tags": {"alt_name": "\u0627\u0644\u062c\u0635\u064a\u0628\u0629", "int_name": "Al Ja\u015f\u012bbah, \u0627\u0644\u062c\u0635\u064a\u0628\u0629, Al Jasibah, \u0627\u0644\u062c\u0635\u064a\u0628\u0629", "is_in": "Iraq , \u062c\u0645\u0647\u0648\u0631\u064a\u0629 \u0627\u0644\u0639\u0631\u0627\u0642", "name": "\u0627\u0644\u062c\u0635\u064a\u0628\u0629", "name:ar": "\u0627\u0644\u062c\u0633\u064a\u0629", "name:ar1": "\u0627\u0644\u062c\u0635\u064a\u0628\u0629", "name:de": "Al Jasibah", "name:en": "Al Jasibah", "name:fr": "Al Jasibah", "place": "village"}}, {"type": "node", "id": 2488327004, "lat": 34.455798, "lon": 41.579594, "tags": {"alt_name": "\u0627\u0644\u062c\u0632\u0627\u0646\u064a\u0629", "int_name": "Al Jaz\u0101n\u012byah, Al Jazz\u0101n\u012byah, \u0627\u0644\u062c\u0632\u0627\u0646\u064a\u0629, Al Jazaniyah, Al Jazzaniyah, \u0627\u0644\u062c\u0632\u0627\u0646\u064a\u0629", "is_in": "Iraq , \u062c\u0645\u0647\u0648\u0631\u064a\u0629 \u0627\u0644\u0639\u0631\u0627\u0642", "name": "\u0627\u0644\u062c\u0632\u0627\u0646\u064a\u0629", "name:ar": "\u0627\u0644\u062c\u0632\u0627\u0646\u064a\u0629", "name:ar1": "\u0627\u0644\u062c\u0632\u0627\u0646\u064a\u0629", "name:de": "Al Jazaniyah", "name:en": "Al Jazaniyah", "name:fr": "Al Jazaniyah", "place": "village"}}, {"type": "node", "id": 2488327016, "lat": 34.4676754, "lon": 41.8300339, "tags": {"alt_name": "\u0627\u0644\u0643\u0648\u0632\u064a\u0629", "int_name": "Al K\u016bz\u012byah, Al Kuziyah", "is_in": "Iraq , \u062c\u0645\u0647\u0648\u0631\u064a\u0629 \u0627\u0644\u0639\u0631\u0627\u0642", "name": "\u0627\u0644\u0643\u0648\u0632\u064a\u0629", "name:ar": "\u0627\u0644\u0643\u0648\u0632\u064a\u0629", "name:ar1": "\u0627\u0644\u0643\u0648\u0632\u064a\u0629", "name:de": "Al Kuziyah", "name:en": "Al Kuziyah", "name:fr": "Al Kuziyah", "place": "village"}}, {"type": "node", "id": 2488327020, "lat": 34.469414, "lon": 41.587912, "tags": {"alt_name": "\u0627\u0644\u0645\u0647\u062f\u064a\u0629", "int_name": "Al Mahd\u012byah, \u0627\u0644\u0645\u0647\u062f\u064a\u0629, Al Mahdiyah, \u0627\u0644\u0645\u0647\u062f\u064a\u0629", "is_in": "Iraq , \u062c\u0645\u0647\u0648\u0631\u064a\u0629 \u0627\u0644\u0639\u0631\u0627\u0642", "name": "\u0627\u0644\u0645\u0647\u062f\u064a\u0629", "name:ar": "\u0627\u0644\u0645\u0647\u062f\u064a\u0629", "name:ar1": "\u0627\u0644\u0645\u0647\u062f\u064a\u0629", "name:de": "Al Mahdiyah", "name:en": "Al Mahdiyah", "name:fr": "Al Mahdiyah", "place": "village"}}, {"type": "node", "id": 2488327037, "lat": 34.465605, "lon": 41.643455, "tags": {"alt_name": "\u0627\u0644\u0637\u0648\u0632\u0644\u064a\u0629 \u0627\u0644\u063a\u0631\u0628\u064a\u0629", "int_name": "Al Tuzl\u012byah, A\u0163 \u0162uzl\u012byah al Gharb\u012byah, \u0627\u0644\u0637\u0648\u0632\u0644\u064a\u0629 \u0627\u0644\u063a\u0631\u0628\u064a\u0629, Al Tuzliyah, At Tuzliyah al Gharbiyah, \u0627\u0644\u0637\u0648\u0632\u0644\u064a\u0629 \u0627\u0644\u063a\u0631\u0628\u064a\u0629", "is_in": "Iraq , \u062c\u0645\u0647\u0648\u0631\u064a\u0629 \u0627\u0644\u0639\u0631\u0627\u0642", "name": "\u0627\u0644\u0637\u0648\u0632\u0644\u064a\u0629 \u0627\u0644\u063a\u0631\u0628\u064a\u0629", "name:ar": "\u0627\u0644\u0637\u0648\u0632\u0644\u064a\u0629 \u0627\u0644\u063a\u0631\u0628\u064a\u0629", "name:ar1": "\u0627\u0644\u0637\u0648\u0632\u0644\u064a\u0629 \u0627\u0644\u063a\u0631\u0628\u064a\u0629", "name:de": "Al Tuzliyah", "name:en": "Al Tuzliyah", "name:fr": "Al Tuzliyah", "place": "village"}}, {"type": "node", "id": 2488327045, "lat": 34.4546701, "lon": 41.4185846, "tags": {"alt_name": "\u0627\u0644\u0648\u0636\u0627\u062d\u064a\u0629", "int_name": "Al Wa\u1e11\u1e11\u0101\u1e29\u012byah, \u0627\u0644\u0648\u0636\u0627\u062d\u064a\u0629, Al Waddahiyah, \u0627\u0644\u0648\u0636\u0627\u062d\u064a\u0629", "is_in": "Iraq , \u062c\u0645\u0647\u0648\u0631\u064a\u0629 \u0627\u0644\u0639\u0631\u0627\u0642", "name": "\u0627\u0644\u0648\u0636\u0627\u062d\u064a\u0629", "name:ar": "\u0627\u0644\u0648\u0636\u0627\u062d\u064a\u0629", "name:ar1": "\u0627\u0644\u0648\u0636\u0627\u062d\u064a\u0629", "name:de": "Al Waddahiyah", "name:en": "Al Waddahiyah", "name:fr": "Al Waddahiyah", "place": "village"}}, {"type": "node", "id": 2488327047, "lat": 34.449943, "lon": 41.584948, "tags": {"alt_name": "\u0627\u0644\u064a\u0647\u0648\u062f\u064a\u0629", "int_name": "Al Yah\u016bd\u012byah, \u0627\u0644\u064a\u0647\u0648\u062f\u064a\u0629, Al Yahudiyah, \u0627\u0644\u064a\u0647\u0648\u062f\u064a\u0629", "is_in": "Iraq , \u062c\u0645\u0647\u0648\u0631\u064a\u0629 \u0627\u0644\u0639\u0631\u0627\u0642", "name": "\u0627\u0644\u064a\u0647\u0648\u062f\u064a\u0629", "name:ar": "\u0627\u0644\u064a\u0647\u0648\u062f\u064a\u0629", "name:ar1": "\u0627\u0644\u064a\u0647\u0648\u062f\u064a\u0629", "name:de": "Al Yahudiyah", "name:en": "Al Yahudiyah", "name:fr": "Al Yahudiyah", "place": "village"}}, {"type": "node", "id": 2488327057, "lat": 34.43339, "lon": 41.563988, "tags": {"alt_name": "\u0627\u0644\u0646\u0627\u062d\u064a\u0629", "int_name": "An N\u0101h\u012bya, An N\u0101\u1e29iyah, An N\u0101\u1e29\u012byah, An Nahyah, \u0627\u0644\u0646\u0627\u062d\u064a\u0629, An Nahiya, An Nahiyah, An Nahiyah, An Nahyah, \u0627\u0644\u0646\u0627\u062d\u064a\u0629", "is_in": "Iraq , \u062c\u0645\u0647\u0648\u0631\u064a\u0629 \u0627\u0644\u0639\u0631\u0627\u0642", "name": "\u0627\u0644\u0646\u0627\u062d\u064a\u0629", "name:ar": "\u0627\u0644\u0646\u0627\u062d\u064a\u0629", "name:ar1": "\u0627\u0644\u0646\u0627\u062d\u064a\u0629", "name:de": "An Nahiya", "name:en": "An Nahiya", "name:fr": "An Nahiya", "place": "village"}}, {"type": "node", "id": 2488327063, "lat": 34.4422965, "lon": 41.4097201, "tags": {"alt_name": "\u0623\u0631\u0637\u0627\u062c\u0629", "int_name": "Ar\u0163\u0101jah, \u0627\u0631\u0637\u0627\u062c\u0629, Artajah, \u0627\u0631\u0637\u0627\u062c\u0629", "is_in": "Iraq , \u062c\u0645\u0647\u0648\u0631\u064a\u0629 \u0627\u0644\u0639\u0631\u0627\u0642", "name": "\u0623\u0631\u0637\u0627\u062c\u0629", "name:ar": "\u0623\u0631\u0637\u0627\u062c\u0629", "name:ar1": "\u0623\u0631\u0637\u0627\u062c\u0629", "name:de": "Artajah", "name:en": "Artajah", "name:fr": "Artajah", "place": "village"}}, {"type": "node", "id": 2488327064, "lat": 34.419449, "lon": 41.48838, "tags": {"alt_name": "\u0627\u0644\u0633\u0639\u062f\u064a\u0629", "int_name": "As Sad\u012byah, \u0627\u0644\u0633\u0639\u062f\u064a\u0629, As Sadiyah, \u0627\u0644\u0633\u0639\u062f\u064a\u0629", "is_in": "Iraq , \u062c\u0645\u0647\u0648\u0631\u064a\u0629 \u0627\u0644\u0639\u0631\u0627\u0642", "name": "\u0627\u0644\u0633\u0639\u062f\u064a\u0629", "name:ar": "\u0627\u0644\u0633\u0639\u062f\u064a\u0629", "name:ar1": "\u0627\u0644\u0633\u0639\u062f\u064a\u0629", "name:de": "As Sadiyah", "name:en": "As Sadiyah", "name:fr": "As Sadiyah", "place": "village"}}, {"type": "node", "id": 2488327065, "lat": 34.441178, "lon": 41.390073, "tags": {"alt_name": "\u0627\u0644\u0633\u0641\u0631\u0629", "int_name": "As Safrah, \u0627\u0644\u0633\u0641\u0631\u0629, As Safrah, \u0627\u0644\u0633\u0641\u0631\u0629", "is_in": "Iraq , \u062c\u0645\u0647\u0648\u0631\u064a\u0629 \u0627\u0644\u0639\u0631\u0627\u0642", "name": "\u0627\u0644\u0635\u0641\u0631\u0629", "name:ar": "\u0627\u0644\u0633\u0641\u0631\u0629", "name:ar1": "\u0627\u0644\u0633\u0641\u0631\u0629", "name:de": "As Safrah", "name:en": "As Safrah", "name:fr": "As Safrah", "place": "village"}}, {"type": "node", "id": 2488327066, "lat": 34.4295999, "lon": 41.4756385, "tags": {"alt_name": "\u0627\u0644\u0633\u0639\u064a\u062f\u064a\u0629", "int_name": "As Sa\u012bd\u012byah, \u0627\u0644\u0633\u0639\u064a\u062f\u064a\u0629, As Saidiyah, \u0627\u0644\u0633\u0639\u064a\u062f\u064a\u0629", "is_in": "Iraq , \u062c\u0645\u0647\u0648\u0631\u064a\u0629 \u0627\u0644\u0639\u0631\u0627\u0642", "name": "\u0627\u0644\u0633\u0639\u064a\u062f\u064a\u0629", "name:ar": "\u0627\u0644\u0633\u0639\u064a\u062f\u064a\u0629", "name:ar1": "\u0627\u0644\u0633\u0639\u064a\u062f\u064a\u0629", "name:de": "As Saidiyah", "name:en": "As Saidiyah", "name:fr": "As Saidiyah", "place": "village"}}, {"type": "node", "id": 2488327067, "lat": 34.507004, "lon": 41.769522, "tags": {"alt_name": "\u0627\u0644\u0633\u0645\u0633\u064a\u0629", "int_name": "As Sams\u012byah, \u0627\u0644\u0633\u0645\u0633\u064a\u0629, As Samsiyah, \u0627\u0644\u0633\u0645\u0633\u064a\u0629", "is_in": "Iraq , \u062c\u0645\u0647\u0648\u0631\u064a\u0629 \u0627\u0644\u0639\u0631\u0627\u0642", "name": "\u0627\u0644\u0633\u0645\u0633\u064a\u0629", "name:ar": "\u0627\u0644\u0633\u0645\u0633\u064a\u0629", "name:ar1": "\u0627\u0644\u0633\u0645\u0633\u064a\u0629", "name:de": "As Samsiyah", "name:en": "As Samsiyah", "name:fr": "As Samsiyah", "place": "village"}}, {"type": "node", "id": 2488327069, "lat": 34.4706074, "lon": 41.7549828, "tags": {"alt_name": "\u0627\u0644\u0633\u064a\u0646\u064a\u0629", "int_name": "As S\u012bn\u012byah, \u0627\u0644\u0633\u064a\u0646\u064a\u0629, As Siniyah, \u0627\u0644\u0633\u064a\u0646\u064a\u0629", "is_in": "Iraq , \u062c\u0645\u0647\u0648\u0631\u064a\u0629 \u0627\u0644\u0639\u0631\u0627\u0642", "name": "\u0627\u0644\u0633\u064a\u0646\u064a\u0629", "name:ar": "\u0627\u0644\u0633\u064a\u0646\u064a\u0629", "name:ar1": "\u0627\u0644\u0633\u064a\u0646\u064a\u0629", "name:de": "As Siniyah", "name:en": "As Siniyah", "name:fr": "As Siniyah", "place": "village"}}, {"type": "node", "id": 2488327070, "lat": 34.489894, "lon": 41.788112, "tags": {"alt_name": "\u0627\u0644\u0634\u0631\u0648\u0627\u0646\u064a\u0629", "int_name": "Ash Shirw\u0101n\u012byah, \u0627\u0644\u0634\u0631\u0648\u0627\u0646\u064a\u0647, Ash Shirwaniyah, \u0627\u0644\u0634\u0631\u0648\u0627\u0646\u064a\u0647", "is_in": "Iraq , \u062c\u0645\u0647\u0648\u0631\u064a\u0629 \u0627\u0644\u0639\u0631\u0627\u0642", "name": "\u0627\u0644\u0634\u0631\u0648\u0627\u0646\u064a\u0629", "name:ar": "\u0627\u0644\u0634\u0631\u0648\u0627\u0646\u064a\u0629", "name:ar1": "\u0627\u0644\u0634\u0631\u0648\u0627\u0646\u064a\u0629", "name:de": "Ash Shirwaniyah", "name:en": "Ash Shirwaniyah", "name:fr": "Ash Shirwaniyah", "place": "village"}}, {"type": "node", "id": 2488327072, "lat": 34.4578481, "lon": 41.4292491, "tags": {"alt_name": "\u0627\u0644\u0632\u0639\u0641\u0631\u0627\u0646\u064a\u0629", "int_name": "Az Zafar\u0101n\u012byah, \u0627\u0644\u0632\u0639\u0641\u0631\u0627\u0646\u064a\u0629, Az Zafaraniyah, \u0627\u0644\u0632\u0639\u0641\u0631\u0627\u0646\u064a\u0629", "is_in": "Iraq , \u062c\u0645\u0647\u0648\u0631\u064a\u0629 \u0627\u0644\u0639\u0631\u0627\u0642", "name": "\u0627\u0644\u0632\u0639\u0641\u0631\u0627\u0646\u064a\u0629", "name:ar": "\u0627\u0644\u0632\u0639\u0641\u0631\u0627\u0646\u064a\u0647", "name:ar1": "\u0627\u0644\u0632\u0639\u0641\u0631\u0627\u0646\u064a\u0629", "name:de": "Az Zafaraniyah", "name:en": "Az Zafaraniyah", "name:fr": "Az Zafaraniyah", "name:ku": "\u0634\u0627\u0631\u0639 \u0627\u0644\u0645\u0639\u0647\u062f", "place": "village"}}, {"type": "node", "id": 2488327073, "lat": 34.421172, "lon": 41.45575, "tags": {"alt_name": "\u0627\u0644\u0632\u0644\u0629", "int_name": "Az Zallah, \u0627\u0644\u0632\u0644\u0629, Az Zallah, \u0627\u0644\u0632\u0644\u0629", "is_in": "Iraq , \u062c\u0645\u0647\u0648\u0631\u064a\u0629 \u0627\u0644\u0639\u0631\u0627\u0642", "name": "\u0627\u0644\u0632\u0644\u0629", "name:ar": "\u0627\u0644\u0632\u0644\u0629", "name:ar1": "\u0627\u0644\u0632\u0644\u0629", "name:de": "Az Zallah", "name:en": "Az Zallah", "name:fr": "Az Zallah", "place": "village"}}, {"type": "node", "id": 2488327074, "lat": 34.431198, "lon": 41.514607, "tags": {"alt_name": "\u0627\u0644\u0632\u064a\u062f\u064a\u0629", "int_name": "Az Zayd\u012byah, \u0627\u0644\u0632\u064a\u062f\u064a\u0629, Az Zaydiyah, \u0627\u0644\u0632\u064a\u062f\u064a\u0629", "is_in": "Iraq , \u062c\u0645\u0647\u0648\u0631\u064a\u0629 \u0627\u0644\u0639\u0631\u0627\u0642", "name": "\u0627\u0644\u0632\u064a\u062f\u064a\u0629", "name:ar": "\u0627\u0644\u0632\u064a\u062f\u064a\u0629", "name:ar1": "\u0627\u0644\u0632\u064a\u062f\u064a\u0629", "name:de": "Az Zaydiyah", "name:en": "Az Zaydiyah", "name:fr": "Az Zaydiyah", "place": "village"}}, {"type": "node", "id": 2488327079, "lat": 34.4393784, "lon": 41.5397002, "tags": {"alt_name": "\u0628\u0644\u0627\u0644\u064a\u0629", "int_name": "Bil\u0101l\u012byah, Bilaliyah", "is_in": "Iraq , \u062c\u0645\u0647\u0648\u0631\u064a\u0629 \u0627\u0644\u0639\u0631\u0627\u0642", "name": "\u0628\u0644\u0627\u0644\u064a\u0629", "name:ar": "\u0628\u0644\u0627\u0644\u064a\u0629", "name:ar1": "\u0628\u0644\u0627\u0644\u064a\u0629", "name:de": "Bilaliyah", "name:en": "Bilaliyah", "name:fr": "Bilaliyah", "place": "village"}}, {"type": "node", "id": 2488327119, "lat": 34.407419, "lon": 41.657581, "tags": {"alt_name": "\u0641\u0631\u064a\u062c\u0629", "int_name": "Furayjah, \u0641\u0631\u064a\u062c\u0647, Furayjah, \u0641\u0631\u064a\u062c\u0647", "is_in": "Iraq , \u062c\u0645\u0647\u0648\u0631\u064a\u0629 \u0627\u0644\u0639\u0631\u0627\u0642", "name": "\u0641\u0631\u064a\u062c\u0629", "name:ar": "\u0641\u0631\u064a\u062c\u0629", "name:ar1": "\u0641\u0631\u064a\u062c\u0629", "name:de": "Furayjah", "name:en": "Furayjah", "name:fr": "Furayjah", "place": "village"}}, {"type": "node", "id": 2488327123, "lat": 34.4429555, "lon": 41.4106566, "tags": {"alt_name": "\u062d\u0627\u0648\u064a \u0623\u0631\u0637\u0627\u062c\u0629", "int_name": "\u1e28\u0101w\u012b Ar\u0163\u0101jah, \u062d\u0627\u0648\u064a \u0627\u0631\u0637\u0627\u062c\u0629, Hawi Artajah, \u062d\u0627\u0648\u064a \u0627\u0631\u0637\u0627\u062c\u0629", "is_in": "Iraq , \u062c\u0645\u0647\u0648\u0631\u064a\u0629 \u0627\u0644\u0639\u0631\u0627\u0642", "name": "\u062d\u0627\u0648\u064a \u0623\u0631\u0637\u0627\u062c\u0629", "name:ar": "\u062d\u0627\u0648\u064a \u0623\u0631\u0637\u0627\u062c\u0629", "name:ar1": "\u062d\u0627\u0648\u064a \u0623\u0631\u0637\u0627\u062c\u0629", "name:de": "Hawi Artajah", "name:en": "Hawi Artajah", "name:fr": "Hawi Artajah", "place": "village"}}, {"type": "node", "id": 2488327124, "lat": 34.471581, "lon": 41.893594, "tags": {"alt_name": "\u062d\u0648\u064a\u062c\u0629 \u0643\u0631\u0627\u0628\u0644\u0629", "int_name": "\u1e28aw\u012bjah Kar\u0101blah, \u062d\u0648\u064a\u062c\u0629 \u06a9\u0631\u0627\u0628\u0644\u0647, Hawijah Karablah, \u062d\u0648\u064a\u062c\u0629 \u06a9\u0631\u0627\u0628\u0644\u0647", "is_in": "Iraq , \u062c\u0645\u0647\u0648\u0631\u064a\u0629 \u0627\u0644\u0639\u0631\u0627\u0642", "name": "\u062d\u0648\u064a\u062c\u0629 \u0643\u0631\u0627\u0628\u0644\u0629", "name:ar": "\u062d\u0648\u064a\u062c\u0629 \u0627\u0644\u0643\u0631\u0627\u0628\u0644\u0629", "name:ar1": "\u062d\u0648\u064a\u062c\u0629 \u0643\u0631\u0627\u0628\u0644\u0629", "name:de": "Hawijah Karablah", "name:en": "Hawijah Karablah", "name:fr": "Hawijah Karablah", "place": "village"}}, {"type": "node", "id": 2488327126, "lat": 34.4304725, "lon": 41.5066114, "tags": {"alt_name": "\u062d\u0648\u062c\u0629 \u0627\u0644\u0632\u064a\u062f\u064a\u0629", "int_name": "\u1e28awijat az Zayd\u012byah, Hawijat az Zaydiyah", "is_in": "Iraq , \u062c\u0645\u0647\u0648\u0631\u064a\u0629 \u0627\u0644\u0639\u0631\u0627\u0642", "name": "\u062d\u0648\u062c\u0629 \u0627\u0644\u0632\u064a\u062f\u064a\u0629", "name:ar": "\u062d\u0648\u062c\u0629 \u0627\u0644\u0632\u064a\u062f\u064a\u0629", "name:ar1": "\u062d\u0648\u062c\u0629 \u0627\u0644\u0632\u064a\u062f\u064a\u0629", "name:de": "Hawijat az Zaydiyah", "name:en": "Hawijat az Zaydiyah", "name:fr": "Hawijat az Zaydiyah", "place": "village"}}, {"type": "node", "id": 2488327129, "lat": 34.4391331, "lon": 41.5411823, "tags": {"alt_name": "\u062d\u0648\u064a\u062c\u0629 \u0627\u0644\u0628\u0644\u0627\u0644\u064a\u0629", "int_name": "\u1e28uwayjah al Bil\u0101l\u012byah, \u062d\u0648\u064a\u062c\u0629 \u0627\u0644\u0628\u0644\u0627\u0644\u064a\u0647, Huwayjah al Bilaliyah, \u062d\u0648\u064a\u062c\u0629 \u0627\u0644\u0628\u0644\u0627\u0644\u064a\u0647", "is_in": "Iraq , \u062c\u0645\u0647\u0648\u0631\u064a\u0629 \u0627\u0644\u0639\u0631\u0627\u0642", "name": "\u062d\u0648\u064a\u062c\u0629 \u0627\u0644\u0628\u0644\u0627\u0644\u064a\u0629", "name:ar": "\u062d\u0648\u064a\u062c\u0629 \u0627\u0644\u0628\u0644\u0627\u0644\u064a\u0629", "name:ar1": "\u062d\u0648\u064a\u062c\u0629 \u0627\u0644\u0628\u0644\u0627\u0644\u064a\u0629", "name:de": "Huwayjah al Bilaliyah", "name:en": "Huwayjah al Bilaliyah", "name:fr": "Huwayjah al Bilaliyah", "place": "village"}}, {"type": "node", "id": 2488327131, "lat": 34.436768, "lon": 41.375025, "tags": {"alt_name": "\u062c\u0631\u0646 \u0627\u0644\u062c\u0632\u0631\u064a", "int_name": "Jarin al Jazr\u012b, \u062c\u0631\u0646 \u0627\u0644\u062c\u0632\u0631\u064a, Jarin al Jazri, \u062c\u0631\u0646 \u0627\u0644\u062c\u0632\u0631\u064a", "is_in": "Iraq , \u062c\u0645\u0647\u0648\u0631\u064a\u0629 \u0627\u0644\u0639\u0631\u0627\u0642", "name": "\u062c\u0631\u0646 \u0627\u0644\u062c\u0632\u0631\u064a", "name:ar": "\u062c\u0631\u0646 \u0627\u0644\u062c\u0632\u0631\u064a", "name:ar1": "\u062c\u0631\u0646 \u0627\u0644\u062c\u0632\u0631\u064a", "name:de": "Jarin al Jazri", "name:en": "Jarin al Jazri", "name:fr": "Jarin al Jazri", "place": "village"}}, {"type": "node", "id": 2488327138, "lat": 34.4698336, "lon": 41.8677184, "tags": {"alt_name": "\u0645\u0634\u0647\u062f", "int_name": "Mashhad, Mashhad", "is_in": "Iraq , \u062c\u0645\u0647\u0648\u0631\u064a\u0629 \u0627\u0644\u0639\u0631\u0627\u0642", "name": "\u0645\u0634\u0647\u062f", "name:ar": "\u0627\u0644\u0645\u0634\u0647\u062f", "name:ar1": "\u0645\u0634\u0647\u062f", "name:de": "Mashhad", "name:en": "Mashhad", "name:fr": "Mashhad", "place": "village"}}, {"type": "node", "id": 2488327141, "lat": 34.529764, "lon": 41.751471, "tags": {"alt_name": "\u0645\u0631\u064a\u062c\u0627\u062a \u0627\u0644\u0635\u0631\u064a\u0635\u064a\u0631", "int_name": "Murayj\u0101t a\u015f \u015euray\u015f\u012br, \u0645\u0631\u064a\u062c\u0627\u062a \u0627\u0644\u0635\u0631\u064a\u0635\u064a\u0631, Murayjat as Suraysir, \u0645\u0631\u064a\u062c\u0627\u062a \u0627\u0644\u0635\u0631\u064a\u0635\u064a\u0631", "is_in": "Iraq , \u062c\u0645\u0647\u0648\u0631\u064a\u0629 \u0627\u0644\u0639\u0631\u0627\u0642", "name": "\u0645\u0631\u064a\u062c\u0627\u062a \u0627\u0644\u0635\u0631\u064a\u0635\u064a\u0631", "name:ar": "\u0645\u0631\u064a\u062c\u0627\u062a \u0627\u0644\u0635\u0631\u064a\u0635\u064a\u0631", "name:ar1": "\u0645\u0631\u064a\u062c\u0627\u062a \u0627\u0644\u0635\u0631\u064a\u0635\u064a\u0631", "name:de": "Murayjat as Suraysir", "name:en": "Murayjat as Suraysir", "name:fr": "Murayjat as Suraysir", "place": "village"}}, {"type": "node", "id": 2488327143, "lat": 34.427814, "lon": 41.522136, "tags": {"alt_name": "\u0646\u0632\u0648\u0629", "int_name": "Nazwah, \u0646\u0632\u0648\u0647, Nazwah, \u0646\u0632\u0648\u0647", "is_in": "Iraq , \u062c\u0645\u0647\u0648\u0631\u064a\u0629 \u0627\u0644\u0639\u0631\u0627\u0642", "name": "\u0646\u0632\u0648\u0629", "name:ar": "\u0646\u0632\u0648\u0629", "name:ar1": "\u0646\u0632\u0648\u0629", "name:de": "Nazwah", "name:en": "Nazwah", "name:fr": "Nazwah", "place": "village"}}, {"type": "node", "id": 2488327149, "lat": 34.506319, "lon": 41.827797, "tags": {"alt_name": "\u0634\u0628\u0627\u0644\u0629", "int_name": "Shab\u0101lah, \u0634\u0628\u0627\u0644\u0629, Shabalah, \u0634\u0628\u0627\u0644\u0629", "is_in": "Iraq , \u062c\u0645\u0647\u0648\u0631\u064a\u0629 \u0627\u0644\u0639\u0631\u0627\u0642", "name": "\u0634\u0628\u0627\u0644\u0629", "name:ar": "\u062c\u0628\u0627\u0644\u0629", "name:ar1": "\u0634\u0628\u0627\u0644\u0629", "name:de": "Shabalah", "name:en": "Shabalah", "name:fr": "Shabalah", "place": "village"}}, {"type": "node", "id": 2488327159, "lat": 34.432331, "lon": 41.668252, "tags": {"alt_name": "\u062a\u0644 \u0627\u0644\u0648\u0639\u0631", "int_name": "Tall al War, \u062a\u0644 \u0627\u0644\u0648\u0639\u0631, Tall al War, \u062a\u0644 \u0627\u0644\u0648\u0639\u0631", "is_in": "Iraq , \u062c\u0645\u0647\u0648\u0631\u064a\u0629 \u0627\u0644\u0639\u0631\u0627\u0642", "name": "\u062a\u0644 \u0627\u0644\u0648\u0639\u0631", "name:ar": "\u062a\u0644 \u0627\u0644\u0648\u0639\u0631", "name:ar1": "\u062a\u0644 \u0627\u0644\u0648\u0639\u0631", "name:de": "Tall al War", "name:en": "Tall al War", "name:fr": "Tall al War", "place": "village"}}, {"type": "node", "id": 2488327884, "lat": 34.671463, "lon": 41.519811, "tags": {"alt_name": "\u0644\u0643\u0637\u0629", "int_name": "Lak\u0163ah, \u0644\u0643\u0637\u0629, Laktah, \u0644\u0643\u0637\u0629", "is_in": "Iraq , \u062c\u0645\u0647\u0648\u0631\u064a\u0629 \u0627\u0644\u0639\u0631\u0627\u0642", "name": "\u0644\u0643\u0637\u0629", "name:ar": "\u0644\u0643\u0637\u0629", "name:ar1": "\u0644\u0643\u0637\u0629", "name:de": "Laktah", "name:en": "Laktah", "name:fr": "Laktah", "place": "village"}}, {"type": "node", "id": 2489267670, "lat": 34.3198825, "lon": 41.5784522, "tags": {"alt_name": "\u0627\u0644\u062c\u0628\u0627\u0628", "int_name": "Al Jib\u0101b, Chib\u0101b, \u0686\u0628\u0627\u0628, Al Jibab, Chibab, \u0686\u0628\u0627\u0628", "is_in": "Iraq , \u062c\u0645\u0647\u0648\u0631\u064a\u0629 \u0627\u0644\u0639\u0631\u0627\u0642", "name": "\u0627\u0644\u062c\u0628\u0627\u0628", "name:ar": "\u0627\u0644\u062c\u0628\u0627\u0628", "name:ar1": "\u0627\u0644\u062c\u0628\u0627\u0628", "name:de": "Al Jibab", "name:en": "Al Jibab", "name:fr": "Al Jibab", "place": "village"}}]}