{"version": 0.6, "generator": "Overpass API 0.7.61.5 4133829e", "osm3s": {"timestamp_osm_base": "2024-03-06T11:04:23Z", "copyright": "The data included in this document is from www.openstreetmap.org. The data is made available under ODbL."}, "elements": [{"type": "node", "id": 3999127011, "lat": 1.8132968, "lon": 34.0941649, "tags": {"addr:city": "Akisim", "addr:county": "Usuk", "addr:district": "Katakwi", "addr:parish": "Bisina", "addr:subcounty": "Ngariam", "amenity": "school", "isced:level": "1", "name": "Akisim Primary School", "source": "www.ubos.org", "source:date": "2010..2014", "wikidata": "Q22808289"}}, {"type": "node", "id": 3999127013, "lat": 1.8321796, "lon": 33.9458215, "tags": {"addr:city": "Alukucok", "addr:county": "Usuk", "addr:district": "Katakwi", "addr:parish": "Alukucok", "addr:subcounty": "Katakwi", "amenity": "school", "isced:level": "1", "name": "Alukucok Primary School", "source": "www.ubos.org", "source:date": "2010..2014", "wikidata": "Q22808867"}}, {"type": "node", "id": 3999127015, "lat": 1.7988964, "lon": 34.0204539, "tags": {"addr:city": "Adokar", "addr:county": "Usuk", "addr:district": "Katakwi", "addr:parish": "Amusia", "addr:subcounty": "Omodoi", "amenity": "school", "isced:level": "1", "name": "Amusia Primary School", "source": "www.ubos.org", "source:date": "2010..2014", "wikidata": "Q22808869"}}, {"type": "node", "id": 3999127016, "lat": 1.9182371, "lon": 34.0037168, "tags": {"addr:city": "Angobo", "addr:county": "Usuk", "addr:district": "Katakwi", "addr:parish": "Katakwi", "addr:subcounty": "Katakwi", "amenity": "school", "isced:level": "1", "name": "Angobo Primary", "source": "www.ubos.org", "source:date": "2010..2014", "wikidata": "Q22808868"}}, {"type": "node", "id": 3999127018, "lat": 1.8167366, "lon": 33.9678072, "tags": {"addr:city": "Aparisia B", "addr:county": "Usuk", "addr:district": "Katakwi", "addr:parish": "Aparisia", "addr:subcounty": "Omodoi", "amenity": "school", "isced:level": "1", "name": "Aparisia Primary School", "source": "www.ubos.org", "source:date": "2010..2014", "wikidata": "Q22808862"}}, {"type": "node", "id": 3999127019, "lat": 1.9036282, "lon": 33.9594643, "tags": {"addr:city": "Angopet", "addr:county": "Usuk", "addr:district": "Katakwi", "addr:parish": "Southern Ward", "addr:subcounty": "Katakwi Town Council", "amenity": "school", "isced:level": "1", "name": "Apeleun Primary School", "source": "www.ubos.org", "source:date": "2010..2014", "wikidata": "Q22808865"}}, {"type": "node", "id": 3999127020, "lat": 1.9147775, "lon": 33.9585977, "tags": {"addr:city": "Central Cell", "addr:county": "Usuk", "addr:district": "Katakwi", "addr:parish": "Northern Ward", "addr:subcounty": "Katakwi Town Council", "amenity": "school", "isced:level": "1", "name": "Apuuton Primary School", "source": "www.ubos.org", "source:date": "2010..2014", "wikidata": "Q22808864"}}, {"type": "node", "id": 3999127021, "lat": 1.8435696, "lon": 33.9852847, "tags": {"addr:city": "Aterai", "addr:county": "Usuk", "addr:district": "Katakwi", "addr:parish": "Dadas", "addr:subcounty": "Katakwi", "amenity": "school", "isced:level": "1", "name": "Aterai Primary School", "source": "www.ubos.org", "source:date": "2010..2014", "wikidata": "Q22667867"}}, {"type": "node", "id": 3999127022, "lat": 1.9328201, "lon": 33.9666806, "tags": {"addr:city": "Aujongaba", "addr:county": "Usuk", "addr:district": "Katakwi", "addr:parish": "Katakwi", "addr:subcounty": "Katakwi", "amenity": "school", "isced:level": "2;3;4", "name": "Katakwi High School", "source": "www.ubos.org", "source:date": "2010..2014", "wikidata": "Q22808859"}}, {"type": "node", "id": 3999127023, "lat": 1.9165955, "lon": 33.9634951, "tags": {"addr:city": "Central Cell", "addr:county": "Usuk", "addr:district": "Katakwi", "addr:parish": "Northern Ward", "addr:subcounty": "Katakwi Town Council", "amenity": "school", "isced:level": "1", "name": "Katakwi Primary School", "source": "www.ubos.org", "source:date": "2010..2014", "wikidata": "Q22808861"}}, {"type": "node", "id": 3999127024, "lat": 1.920911, "lon": 33.956652, "tags": {"addr:city": "Central Cell", "addr:county": "Usuk", "addr:district": "Katakwi", "addr:parish": "Northern Ward", "addr:subcounty": "Katakwi Town Council", "amenity": "school", "isced:level": "2;3;4", "name": "Katakwi Stardard Secondary School", "source": "www.ubos.org", "source:date": "2010..2014", "wikidata": "Q22808860"}}, {"type": "node", "id": 3999127026, "lat": 1.9167993, "lon": 33.9522794, "tags": {"addr:city": "Dokomer", "addr:county": "Usuk", "addr:district": "Katakwi", "addr:parish": "Northern Ward", "addr:subcounty": "Katakwi Town Council", "amenity": "school", "isced:level": "1", "name": "Katakwi Township Primary School", "source": "www.ubos.org", "source:date": "2010..2014", "wikidata": "Q22808855"}}, {"type": "node", "id": 3999127027, "lat": 1.8627564, "lon": 34.0087087, "tags": {"addr:city": "Lalei", "addr:county": "Usuk", "addr:district": "Katakwi", "addr:parish": "Aleles", "addr:subcounty": "Katakwi", "amenity": "school", "isced:level": "1", "name": "Lalei Primary School", "source": "www.ubos.org", "source:date": "2010..2014", "wikidata": "Q22808858"}}, {"type": "node", "id": 3999127028, "lat": 1.9123571, "lon": 34.0398319, "tags": {"addr:city": "Akwaradada", "addr:county": "Usuk", "addr:district": "Katakwi", "addr:parish": "Odoot", "addr:subcounty": "Ngariam", "amenity": "school", "isced:level": "1", "name": "Odoot Primary School", "source": "www.ubos.org", "source:date": "2010..2014", "wikidata": "Q22808856"}}, {"type": "node", "id": 3999127029, "lat": 1.849164, "lon": 34.0684658, "tags": {"addr:city": "Olupe", "addr:county": "Usuk", "addr:district": "Katakwi", "addr:parish": "Bisina", "addr:subcounty": "Ngariam", "amenity": "school", "isced:level": "1", "name": "Olupe Primary School", "source": "www.ubos.org", "source:date": "2010..2014", "wikidata": "Q22677963"}}, {"type": "node", "id": 3999127030, "lat": 1.7893002, "lon": 34.0897386, "tags": {"addr:city": "Adurukoi", "addr:county": "Usuk", "addr:district": "Katakwi", "addr:parish": "Omasia", "addr:subcounty": "Magoro", "amenity": "school", "isced:level": "1", "name": "Omasia Primary School", "source": "www.ubos.org", "source:date": "2010..2014", "wikidata": "Q22808852"}}, {"type": "node", "id": 3999127031, "lat": 1.8174968, "lon": 33.9944691, "tags": {"addr:city": "Napakol", "addr:county": "Usuk", "addr:district": "Katakwi", "addr:parish": "Omodoi", "addr:subcounty": "Omodoi", "amenity": "school", "isced:level": "1", "name": "Omodoi Primary School", "source": "www.ubos.org", "source:date": "2010..2014", "wikidata": "Q22808854"}}, {"type": "node", "id": 3999127032, "lat": 1.9186529, "lon": 34.0015548, "tags": {"addr:city": "Angobo", "addr:county": "Usuk", "addr:district": "Katakwi", "addr:parish": "Katakwi", "addr:subcounty": "Katakwi", "amenity": "school", "isced:level": "2;3;4", "name": "Prisilla Comprehensive Girls Secondary School", "source": "www.ubos.org", "source:date": "2010..2014", "wikidata": "Q22808853"}}, {"type": "node", "id": 3999127033, "lat": 1.8482887, "lon": 34.0097076, "tags": {"addr:city": "Dadas", "addr:county": "Usuk", "addr:district": "Katakwi", "addr:parish": "Dadas", "addr:subcounty": "Katakwi", "amenity": "school", "isced:level": "1", "name": "Saint Joseph Dadas Primary School", "source": "www.ubos.org", "source:date": "2010..2014", "wikidata": "Q22808849"}}, {"type": "node", "id": 3999127034, "lat": 1.8755181, "lon": 34.0438716, "tags": {"addr:city": "Okwamomwar", "addr:county": "Usuk", "addr:district": "Katakwi", "addr:parish": "Odoot", "addr:subcounty": "Ngariam", "amenity": "school", "isced:level": "1", "name": "Saint Mary's Okwamomwar Primary School", "source": "www.ubos.org", "source:date": "2010..2014", "wikidata": "Q22808848"}}, {"type": "node", "id": 3999127035, "lat": 1.9076215, "lon": 33.9592219, "tags": {"addr:city": "Angopet", "addr:county": "Usuk", "addr:district": "Katakwi", "addr:parish": "Southern Ward", "addr:subcounty": "Katakwi Town Council", "amenity": "school", "isced:level": "1", "name": "Saint Paul Primary School", "source": "www.ubos.org", "source:date": "2010..2014", "wikidata": "Q22808851"}}, {"type": "node", "id": 3999127036, "lat": 1.9161614, "lon": 33.9677544, "tags": {"addr:city": "Central Cell", "addr:county": "Usuk", "addr:district": "Katakwi", "addr:parish": "Northern Ward", "addr:subcounty": "Katakwi Town Council", "amenity": "school", "isced:level": "2;3;4", "name": "Saint Paul Comprehensive Secondary School", "source": "www.ubos.org", "source:date": "2010..2014", "wikidata": "Q22808850"}}, {"type": "node", "id": 3999127037, "lat": 1.9173693, "lon": 33.9562421, "tags": {"addr:city": "Katanga", "addr:county": "Usuk", "addr:district": "Katakwi", "addr:parish": "Northern Ward", "addr:subcounty": "Katakwi Town Council", "amenity": "school", "isced:level": "2;3;4", "name": "St.Stephen Secondary School", "source": "www.ubos.org", "source:date": "2010..2014", "wikidata": "Q22808845"}}, {"type": "node", "id": 3999127038, "lat": 1.780075, "lon": 33.9685105, "tags": {"addr:city": "Moru Complex", "addr:county": "Usuk", "addr:district": "Katakwi", "addr:parish": "Asuret", "addr:subcounty": "Omodoi", "amenity": "school", "isced:level": "1", "name": "Toroma Boys Primary School", "source": "www.ubos.org", "source:date": "2010..2014", "wikidata": "Q22808844"}}, {"type": "node", "id": 3999127039, "lat": 1.7810217, "lon": 33.9666869, "tags": {"addr:city": "Moru Complex", "addr:county": "Usuk", "addr:district": "Katakwi", "addr:parish": "Asuret", "addr:subcounty": "Omodoi", "amenity": "school", "isced:level": "1", "name": "Toroma Girls' Primary School", "source": "www.ubos.org", "source:date": "2010..2014", "wikidata": "Q22808847"}}, {"type": "node", "id": 3999127040, "lat": 1.7807666, "lon": 33.9688813, "tags": {"addr:city": "Moru Complex", "addr:county": "Usuk", "addr:district": "Katakwi", "addr:parish": "Asuret", "addr:subcounty": "Omodoi", "amenity": "school", "isced:level": "2;3;4", "name": "Toroma Senior Secondary School", "source": "www.ubos.org", "source:date": "2010..2014", "wikidata": "Q22808846"}}, {"type": "node", "id": 4008932239, "lat": 1.81416, "lon": 34.0929405, "tags": {"addr:city": "Akisim", "addr:county": "Usuk", "addr:district": "Katakwi", "addr:parish": "Bisina", "addr:subcounty": "Ngariam", "amenity": "school", "fixme": "Please, check the position of the node", "isced:level": "1", "name": "Akisim Primary School", "source": "www.ubos.org", "source:date": "2010..2014", "wikidata": "Q22808289"}}, {"type": "node", "id": 4008932240, "lat": 1.8582337, "lon": 33.9526557, "tags": {"addr:city": "Akoboi", "addr:county": "Usuk", "addr:district": "Katakwi", "addr:parish": "Alukucok", "addr:subcounty": "Katakwi", "amenity": "school", "isced:level": "1", "name": "Akoboi Primary School", "source": "www.ubos.org", "source:date": "2010..2014", "wikidata": "Q22808870"}}, {"type": "node", "id": 4008958381, "lat": 1.852743, "lon": 34.1335396, "tags": {"addr:city": "Apuuton", "addr:county": "Usuk", "addr:district": "Katakwi", "addr:parish": "Kaikamosing", "addr:subcounty": "Ngariam", "amenity": "school", "isced:level": "1", "name": "Acinga Primary School", "source": "www.ubos.org", "source:date": "2010..2014", "wikidata": "Q22811799"}}, {"type": "node", "id": 4008958382, "lat": 1.9006751, "lon": 34.1052501, "tags": {"addr:city": "Apuuton", "addr:county": "Usuk", "addr:district": "Katakwi", "addr:parish": "Ngariam", "addr:subcounty": "Ngariam", "amenity": "school", "isced:level": "1", "name": "Alengo Primary School", "source": "www.ubos.org", "source:date": "2010..2014", "wikidata": "Q22811798"}}, {"type": "node", "id": 4008958383, "lat": 1.8849781, "lon": 34.1332352, "tags": {"addr:city": "Kaikamosing", "addr:county": "Usuk", "addr:district": "Katakwi", "addr:parish": "Kaikamosing", "addr:subcounty": "Ngariam", "amenity": "school", "isced:level": "2;3;4", "name": "Ngariam Seed Secondary School", "source": "www.ubos.org", "source:date": "2010..2014", "wikidata": "Q22811797"}}, {"type": "node", "id": 4008958384, "lat": 1.9152116, "lon": 34.1306262, "tags": {"addr:city": "Orukurukio", "addr:county": "Usuk", "addr:district": "Katakwi", "addr:parish": "Acanga", "addr:subcounty": "Ngariam", "amenity": "school", "isced:level": "1", "name": "Obul Ajet Primary School", "source": "www.ubos.org", "source:date": "2010..2014", "wikidata": "Q22811796"}}, {"type": "node", "id": 4008958385, "lat": 1.7860771, "lon": 34.1239046, "tags": {"addr:city": "Kelim", "addr:county": "Usuk", "addr:district": "Katakwi", "addr:parish": "Pakwi", "addr:subcounty": "Ngariam", "amenity": "school", "isced:level": "1", "name": "Ocwiin Primary School", "source": "www.ubos.org", "source:date": "2010..2014", "wikidata": "Q22811795"}}, {"type": "node", "id": 4008958387, "lat": 1.8137211, "lon": 34.1135198, "tags": {"addr:city": "Okibui", "addr:county": "Usuk", "addr:district": "Katakwi", "addr:parish": "Pakwi", "addr:subcounty": "Ngariam", "amenity": "school", "isced:level": "1", "name": "Opeuru Aodot Primary School", "source": "www.ubos.org", "source:date": "2010..2014", "wikidata": "Q22811793"}}, {"type": "node", "id": 4010811130, "lat": 1.994061, "lon": 34.3019817, "tags": {"addr:city": "Naturobinya", "addr:county": "Bokora", "addr:district": "Napak", "addr:parish": "Nabwal", "addr:subcounty": "Iriiri", "amenity": "school", "isced:level": "1", "name": "Nabwal Primary School", "source": "www.ubos.org", "source:date": "2010..2014", "wikidata": "Q22811664"}}, {"type": "node", "id": 4015445247, "lat": 2.0197493, "lon": 34.2562636, "tags": {"addr:city": "Kodike", "addr:county": "Bokora", "addr:district": "Napak", "addr:parish": "Nabwal", "addr:subcounty": "Iriiri", "amenity": "school", "isced:level": "1", "name": "Kodike Primary School", "operator:type": "public", "source": "www.ubos.org", "source:date": "2010..2014", "wikidata": "Q22680484"}}, {"type": "node", "id": 4015445249, "lat": 1.9419914, "lon": 34.1295474, "tags": {"addr:city": "Oliangoi", "addr:county": "Usuk", "addr:district": "Katakwi", "addr:parish": "Acanga", "addr:subcounty": "Ngariam", "amenity": "school", "fixme": "Please, check the position of the node", "isced:level": "1", "name": "Ounyai Primary School", "source": "www.ubos.org", "source:date": "2010..2014", "wikidata": "Q22941883"}}, {"type": "node", "id": 4015445250, "lat": 1.9698976, "lon": 34.1531405, "tags": {"addr:city": "Palam", "addr:county": "Usuk", "addr:district": "Katakwi", "addr:parish": "Olilim", "addr:subcounty": "Ngariam", "amenity": "school", "isced:level": "1", "name": "Palam Primary School", "operator:type": "public", "source": "www.ubos.org", "source:date": "2010..2014", "wikidata": "Q22941884"}}, {"type": "node", "id": 4016881632, "lat": 1.9932911, "lon": 34.0853915, "tags": {"addr:city": "Amukurat", "addr:county": "Usuk", "addr:district": "Katakwi", "addr:parish": "Aakum", "addr:subcounty": "Usuk", "amenity": "school", "isced:level": "1", "name": "Aakum Primary School", "source": "www.ubos.org", "source:date": "2010..2014", "wikidata": "Q22941938"}}, {"type": "node", "id": 4016881638, "lat": 1.9460121, "lon": 34.0844315, "tags": {"addr:city": "Amorwongora", "addr:county": "Usuk", "addr:district": "Katakwi", "addr:parish": "Ngariam", "addr:subcounty": "Ngariam", "amenity": "school", "isced:level": "1", "name": "Amrwongora Primary School", "operator:type": "public", "source": "www.ubos.org", "source:date": "2010..2014", "wikidata": "Q22941930"}}, {"type": "node", "id": 4016881640, "lat": 1.9721713, "lon": 34.0168948, "tags": {"addr:city": "Osudio", "addr:county": "Usuk", "addr:district": "Katakwi", "addr:parish": "Cheleuko", "addr:subcounty": "Usuk", "amenity": "school", "isced:level": "1", "name": "Aparisa Primary School", "source": "www.ubos.org", "source:date": "2010..2014", "wikidata": "Q22941933"}}, {"type": "node", "id": 4016881641, "lat": 1.9448449, "lon": 34.0051725, "tags": {"addr:city": "Apolin", "addr:county": "Usuk", "addr:district": "Katakwi", "addr:parish": "Katakwi", "addr:subcounty": "Katakwi", "amenity": "school", "isced:level": "1", "name": "Apolin Primary School", "source": "www.ubos.org", "source:date": "2010..2014", "wikidata": "Q22941925"}}, {"type": "node", "id": 4016881642, "lat": 1.9989967, "lon": 34.04976, "tags": {"addr:city": "Achanga", "addr:county": "Usuk", "addr:district": "Katakwi", "addr:parish": "Aakum", "addr:subcounty": "Usuk", "amenity": "school", "isced:level": "1", "name": "Nazareth Primary School", "source": "www.ubos.org", "source:date": "2010..2014", "wikidata": "Q22941926"}}, {"type": "node", "id": 4016881643, "lat": 1.9540507, "lon": 34.0978108, "tags": {"addr:city": "Ngariam", "addr:county": "Usuk", "addr:district": "Katakwi", "addr:parish": "Ngariam", "addr:subcounty": "Ngariam", "amenity": "school", "isced:level": "1", "name": "Ngariam Primary School", "source": "www.ubos.org", "source:date": "2010..2014", "wikidata": "Q22941927"}}, {"type": "node", "id": 4016881644, "lat": 1.9507735, "lon": 34.0972897, "tags": {"addr:city": "Ngariam", "addr:county": "Usuk", "addr:district": "Katakwi", "addr:parish": "Ngariam", "addr:subcounty": "Ngariam", "amenity": "school", "name": "Ngariam Technical School", "source": "www.ubos.org", "source:date": "2010..2014", "wikidata": "Q22941928"}}, {"type": "node", "id": 4016881647, "lat": 2.0152069, "lon": 33.9625214, "tags": {"addr:city": "Ameca", "addr:county": "Usuk", "addr:district": "Katakwi", "addr:parish": "Usuk", "addr:subcounty": "Usuk", "amenity": "school", "isced:level": "1", "name": "Okolimo Primary School", "source": "www.ubos.org", "source:date": "2010..2014", "wikidata": "Q22941923"}}, {"type": "node", "id": 4016881649, "lat": 1.9714385, "lon": 33.969524, "tags": {"addr:city": "Olela", "addr:county": "Usuk", "addr:district": "Katakwi", "addr:parish": "Katakwi", "addr:subcounty": "Katakwi", "amenity": "school", "isced:level": "1", "name": "Olela Primary School", "source": "www.ubos.org", "source:date": "2010..2014", "wikidata": "Q22941940"}}, {"type": "node", "id": 4016881650, "lat": 1.9668419, "lon": 34.0484722, "tags": {"addr:city": "Toibong", "addr:county": "Usuk", "addr:district": "Katakwi", "addr:parish": "Aakum", "addr:subcounty": "Usuk", "amenity": "school", "isced:level": "1", "name": "Toibong Primary School", "source": "www.ubos.org", "source:date": "2010..2014", "wikidata": "Q22941941"}}, {"type": "node", "id": 4016881651, "lat": 2.0004954, "lon": 33.9643042, "tags": {"addr:city": "Usuk Trading Centre West", "addr:county": "Usuk", "addr:district": "Katakwi", "addr:parish": "Usuk", "addr:subcounty": "Usuk", "amenity": "school", "isced:level": "1", "name": "Usuk Boys Primary School", "source:date": "20.10.2014", "wikidata": "Q22941942"}}, {"type": "node", "id": 4016881652, "lat": 2.0047339, "lon": 33.9636834, "tags": {"addr:city": "Usuk Trading Centre West", "addr:county": "Usuk", "addr:district": "Katakwi", "addr:parish": "Usuk", "addr:subcounty": "Usuk", "amenity": "school", "isced:level": "1", "name": "Usuk Girls Primary School", "source": "www.ubos.org", "source:date": "2010..2014", "wikidata": "Q22941943"}}, {"type": "node", "id": 4016881653, "lat": 2.0007084, "lon": 33.9662607, "tags": {"addr:city": "Usuk Trading Centre East", "addr:county": "Usuk", "addr:district": "Katakwi", "addr:parish": "Usuk", "addr:subcounty": "Usuk", "amenity": "school", "isced:level": "2;3;4", "name": "Usuk Senior Secondary School", "source": "www.ubos.org", "source:date": "2010..2014", "wikidata": "Q22941939"}}, {"type": "node", "id": 4017094741, "lat": 1.7178306, "lon": 34.104408, "tags": {"addr:city": "Apeero", "addr:county": "Usuk", "addr:district": "Katakwi", "addr:parish": "Magoro", "addr:subcounty": "Magoro", "amenity": "school", "isced:level": "1", "name": "Apeero Primary School", "source": "www.ubos.org", "source:date": "2010..2014", "wikidata": "Q22941799"}}, {"type": "node", "id": 4017094742, "lat": 1.6826132, "lon": 34.1093588, "tags": {"addr:city": "Kide", "addr:county": "Usuk", "addr:district": "Katakwi", "addr:parish": "Opeta", "addr:subcounty": "Magoro", "amenity": "school", "isced:level": "1", "name": "Opeta Lake View Primary School", "source": "www.ubos.org", "source:date": "2010..2014", "wikidata": "Q22941800"}}, {"type": "node", "id": 4017113584, "lat": 1.7543473, "lon": 34.0359024, "tags": {"addr:city": "Okile", "addr:county": "Usuk", "addr:district": "Katakwi", "addr:parish": "Amusia", "addr:subcounty": "Omodoi", "amenity": "school", "isced:level": "1", "name": "Adere Primary School", "source": "www.ubos.org", "source:date": "2010..2014", "wikidata": "Q22941821"}}, {"type": "node", "id": 4017113587, "lat": 1.6787824, "lon": 33.9453188, "tags": {"addr:city": "Akurao", "addr:county": "Usuk", "addr:district": "Katakwi", "addr:parish": "Akurao", "addr:subcounty": "Toroma", "amenity": "school", "isced:level": "1", "name": "Akurao Primary School", "source": "www.ubos.org", "source:date": "2010..2014", "wikidata": "Q22941812"}}, {"type": "node", "id": 4017113588, "lat": 1.7240738, "lon": 34.0081757, "tags": {"addr:city": "Olet", "addr:county": "Usuk", "addr:district": "Katakwi", "addr:parish": "Apuuton", "addr:subcounty": "Toroma", "amenity": "school", "isced:level": "1", "name": "Apuuton Primary School", "source": "www.ubos.org", "source:date": "2010..2014", "wikidata": "Q22941815"}}, {"type": "node", "id": 4017114989, "lat": 1.6881512, "lon": 34.0737924, "tags": {"addr:city": "Apeleun", "addr:county": "Usuk", "addr:district": "Katakwi", "addr:parish": "Kamenu", "addr:subcounty": "Magoro", "amenity": "school", "isced:level": "1", "name": "Kamenu Primary School", "source": "www.ubos.org", "source:date": "2010..2014", "wikidata": "Q22941817"}}, {"type": "node", "id": 4017114990, "lat": 1.7296099, "lon": 34.1010618, "tags": {"addr:city": "Magoro Trc", "addr:county": "Usuk", "addr:district": "Katakwi", "addr:parish": "Magoro", "addr:subcounty": "Magoro", "amenity": "school", "isced:level": "2;3;4", "name": "Magoro Comprehensive Secondary School", "source": "www.ubos.org", "source:date": "2010..2014", "wikidata": "Q22941818"}}, {"type": "node", "id": 4017114991, "lat": 1.7272651, "lon": 34.1003983, "tags": {"addr:city": "Magoro Trc", "addr:county": "Usuk", "addr:district": "Katakwi", "addr:parish": "Magoro", "addr:subcounty": "Magoro", "amenity": "school", "isced:level": "1", "name": "Magoro Primary School", "source": "www.ubos.org", "source:date": "2010..2014", "wikidata": "Q22941819"}}, {"type": "node", "id": 4017114993, "lat": 1.706823, "lon": 33.9693092, "tags": {"addr:city": "Ongatunyo-agule", "addr:county": "Usuk", "addr:district": "Katakwi", "addr:parish": "Ominya", "addr:subcounty": "Toroma", "amenity": "school", "isced:level": "1", "name": "Ongatunyo Primary School", "source": "www.ubos.org", "source:date": "2010..2014", "wikidata": "Q22941806"}}, {"type": "node", "id": 4017114994, "lat": 1.7471831, "lon": 34.0815652, "tags": {"addr:city": "Oriau A", "addr:county": "Usuk", "addr:district": "Katakwi", "addr:parish": "Omasia", "addr:subcounty": "Magoro", "amenity": "school", "isced:level": "1", "name": "Oriau Primary School", "source": "www.ubos.org", "source:date": "2010..2014", "wikidata": "Q22941808"}}, {"type": "node", "id": 4017114995, "lat": 1.7197472, "lon": 34.0747538, "tags": {"addr:city": "Aleles", "addr:county": "Usuk", "addr:district": "Katakwi", "addr:parish": "Kamenu", "addr:subcounty": "Magoro", "amenity": "school", "isced:level": "1", "name": "Osudia Primary School", "source": "www.ubos.org", "source:date": "2010..2014", "wikidata": "Q22941811"}}, {"type": "node", "id": 4017114996, "lat": 1.75588, "lon": 33.9618922, "tags": {"addr:city": "Toroma Trading Centre", "addr:county": "Usuk", "addr:district": "Katakwi", "addr:parish": "Toroma", "addr:subcounty": "Toroma", "amenity": "school", "isced:level": "2;3;4", "name": "Toroma High School", "source": "www.ubos.org", "source:date": "2010..2014", "wikidata": "Q22941813"}}, {"type": "node", "id": 4017114997, "lat": 1.751829, "lon": 33.9559439, "tags": {"addr:city": "Toroma Trading Centre", "addr:county": "Usuk", "addr:district": "Katakwi", "addr:parish": "Toroma", "addr:subcounty": "Toroma", "amenity": "school", "isced:level": "1", "name": "Toroma Primary School", "source": "www.ubos.org", "source:date": "2010..2014", "wikidata": "Q22941816"}}]}