{"version": 0.6, "generator": "Overpass API 0.7.61.5 4133829e", "osm3s": {"timestamp_osm_base": "2024-03-05T18:56:41Z", "copyright": "The data included in this document is from www.openstreetmap.org. The data is made available under ODbL."}, "elements": [{"type": "node", "id": 20946305, "lat": 55.8076871, "lon": 12.4685342, "tags": {"light_rail": "yes", "name": "Holte", "operator": "DSB", "public_transport": "station", "railway": "station", "railway:ref": "Hot", "station": "light_rail", "wikidata": "Q4289870"}}, {"type": "node", "id": 24954656, "lat": 55.6648012, "lon": 12.4591846, "tags": {"light_rail": "yes", "name": "R\u00f8dovre", "public_transport": "station", "railway": "halt", "railway:ref": "Rdo", "station": "light_rail", "wikidata": "Q1909224", "wikimedia_commons": "File:R\u00f8dovre Station og R\u00f8dovre Port.jpg"}}, {"type": "node", "id": 25872951, "lat": 55.7961547, "lon": 12.4729758, "tags": {"light_rail": "yes", "name": "Virum", "public_transport": "station", "railway": "halt", "railway:ref": "Vir", "station": "light_rail", "wikidata": "Q1826306"}}, {"type": "node", "id": 30334762, "lat": 55.9872318, "lon": 12.3022266, "tags": {"name": "Gribs\u00f8 Trinbr\u00e6t", "public_transport": "station", "railway": "halt", "railway:ref": "G\u00f8g", "wikidata": "Q12314353"}}, {"type": "node", "id": 279575818, "lat": 55.9770346, "lon": 12.4069464, "tags": {"name": "Fredensborg", "public_transport": "station", "railway": "station", "railway:ref": "Fd", "wikidata": "Q12312492"}}, {"type": "node", "id": 279575829, "lat": 55.9812303, "lon": 12.4515485, "tags": {"name": "Langer\u00f8d", "public_transport": "station", "railway": "halt", "railway:ref": "Lrt", "wikidata": "Q12323735"}}, {"type": "node", "id": 286886106, "lat": 55.6294229, "lon": 12.483656, "tags": {"light_rail": "yes", "name": "Friheden", "public_transport": "station", "railway": "halt", "railway:ref": "Frh", "station": "light_rail", "wheelchair": "yes", "wikidata": "Q2287496"}}, {"type": "node", "id": 349187308, "lat": 55.8403845, "lon": 12.4235029, "tags": {"light_rail": "yes", "name": "Birker\u00f8d", "public_transport": "station", "railway": "station", "railway:ref": "Bi", "station": "light_rail", "wikidata": "Q3260911"}}, {"type": "node", "id": 494382792, "lat": 55.7188384, "lon": 12.4435483, "tags": {"light_rail": "yes", "name": "Herlev", "public_transport": "station", "railway": "station", "railway:ref": "Her", "station": "light_rail", "wheelchair": "yes", "wikidata": "Q2368951"}}, {"type": "node", "id": 496383856, "lat": 55.8649715, "lon": 12.3828421, "tags": {"name": "Blovstr\u00f8d Hallen", "public_transport": "station", "railway": "station"}}, {"type": "node", "id": 496386014, "lat": 55.8583852, "lon": 12.3754988, "tags": {"name": "Oskar Jensens Bro", "public_transport": "station", "railway": "halt"}}, {"type": "node", "id": 586436631, "lat": 55.6988768, "lon": 12.469386, "tags": {"light_rail": "yes", "name": "Islev", "public_transport": "station", "railway": "halt", "railway:ref": "Ist", "station": "light_rail", "wikidata": "Q12342400"}}, {"type": "node", "id": 586436651, "lat": 55.6903652, "lon": 12.4779237, "tags": {"light_rail": "yes", "name": "Jyllingevej", "public_transport": "station", "railway": "halt", "railway:ref": "Jyt", "station": "light_rail", "wheelchair": "limited", "wikidata": "Q6319355"}}, {"type": "node", "id": 597426641, "lat": 55.7615864, "lon": 12.4545574, "tags": {"light_rail": "yes", "name": "Bagsv\u00e6rd", "public_transport": "station", "railway": "halt", "railway:ref": "Bav", "station": "light_rail", "wikidata": "Q1900098"}}, {"type": "node", "id": 597426666, "lat": 55.7567178, "lon": 12.4731006, "tags": {"light_rail": "yes", "name": "Steng\u00e5rden", "public_transport": "station", "railway": "halt", "railway:ref": "Sgt", "station": "light_rail", "wheelchair": "yes", "wikidata": "Q2289298"}}, {"type": "node", "id": 597771450, "lat": 55.7652202, "lon": 12.4079689, "tags": {"light_rail": "yes", "name": "Hareskov", "public_transport": "station", "railway": "station", "railway:ref": "Har", "station": "light_rail", "wikidata": "Q2724161"}}, {"type": "node", "id": 597771469, "lat": 55.7651626, "lon": 12.4337301, "tags": {"light_rail": "yes", "name": "Skovbrynet", "public_transport": "station", "railway": "halt", "railway:ref": "Skt", "station": "light_rail", "wikidata": "Q2768443"}}, {"type": "node", "id": 597771482, "lat": 55.8121053, "lon": 12.3737085, "tags": {"light_rail": "yes", "name": "Farum", "public_transport": "station", "railway": "station", "railway:ref": "Fm", "station": "light_rail", "wheelchair": "yes", "wheelchair:description": "Hele forpladsen til stationsomr\u00e5det er belagt med sm\u00e5 brosten. Det g\u00f8r det meget sv\u00e6rt at komme til og fra stationen.", "wikidata": "Q2494694"}}, {"type": "node", "id": 981472227, "lat": 55.9425356, "lon": 12.3111932, "tags": {"name": "Slotspavillonen", "public_transport": "station", "railway": "station", "railway:ref": "Spg", "wheelchair": "limited", "wikidata": "Q12336094"}}, {"type": "node", "id": 982170796, "lat": 55.9531826, "lon": 12.3694427, "tags": {"name": "Gr\u00f8nholt", "public_transport": "station", "railway": "halt", "railway:ref": "Grt"}}, {"type": "node", "id": 996617445, "lat": 55.9664199, "lon": 12.392047, "tags": {"name": "Kratbjerg", "public_transport": "station", "railway": "halt", "railway:ref": "Krb", "wikidata": "Q12322817"}}, {"type": "node", "id": 1036553605, "lat": 55.6644909, "lon": 12.4750154, "tags": {"alt_name": "Hvidovre N\u00e6r", "light_rail": "yes", "name": "Hvidovre", "public_transport": "station", "railway": "halt", "railway:ref": "Hit", "station": "light_rail", "wikidata": "Q2395511"}}, {"type": "node", "id": 1266157164, "lat": 55.8078501, "lon": 12.4692679, "tags": {"amenity": "bus_station", "bus": "yes", "name": "Holte St.", "public_transport": "station"}}, {"type": "node", "id": 1733449578, "lat": 55.9270287, "lon": 12.311414, "tags": {"light_rail": "yes", "name": "Hiller\u00f8d", "operator": "DSB S-tog", "public_transport": "station", "railway": "station", "railway:ref": "Hi", "station": "light_rail", "wheelchair": "yes", "wikidata": "Q2347051"}}, {"type": "node", "id": 1735290089, "lat": 55.8710098, "lon": 12.3563603, "tags": {"amenity": "bus_station", "bus": "yes", "name": "Aller\u00f8d st.", "public_transport": "station"}}, {"type": "node", "id": 1797765147, "lat": 55.9276718, "lon": 12.3113945, "tags": {"name": "Hiller\u00f8d", "operator": "Nordsj\u00e6llands Lokalbaner", "public_transport": "station", "railway": "station", "railway:ref": "Hi", "train": "yes", "wheelchair": "yes"}}, {"type": "node", "id": 1973511931, "lat": 55.8151085, "lon": 12.4330573, "tags": {"amenity": "ferry_terminal", "cargo": "passengers", "ferry": "yes", "name": "Birker\u00f8d", "operator": "B\u00e5dfarten", "public_transport": "station", "source": "survey"}}, {"type": "node", "id": 2278925187, "lat": 55.8089216, "lon": 12.4415498, "tags": {"amenity": "ferry_terminal", "cargo": "passengers", "ferry": "yes", "name": "J\u00e6gerhuset", "operator": "B\u00e5dfarten", "public_transport": "station", "source": "survey"}}, {"type": "node", "id": 2300044860, "lat": 55.7665781, "lon": 12.459389, "tags": {"amenity": "ferry_terminal", "cargo": "passengers", "ferry": "yes", "name": "Bagsv\u00e6rdvej", "public_transport": "station"}}, {"type": "node", "id": 2339130449, "lat": 55.8100405, "lon": 12.4682462, "tags": {"amenity": "ferry_terminal", "cargo": "passengers", "ferry": "yes", "name": "Holte Havn", "operator": "B\u00e5dfarten", "public_transport": "station", "source": "Survey"}}, {"type": "node", "id": 2890576043, "lat": 55.8081675, "lon": 12.4676394, "tags": {"amenity": "ferry_terminal", "cargo": "passengers", "ferry": "yes", "name": "Holte Station", "operator": "B\u00e5dfarten", "public_transport": "station", "source": "survey"}}, {"type": "node", "id": 4669914725, "lat": 55.784795, "lon": 12.4090266, "tags": {"amenity": "ferry_terminal", "cargo": "passengers", "ferry": "yes", "name": "Kolle Kolle", "operator": "B\u00e5dfarten", "public_transport": "station", "source": "survey"}}, {"type": "node", "id": 4999568739, "lat": 55.8509769, "lon": 12.3883601, "tags": {"light_rail": "yes", "name": "H\u00f8velte", "public_transport": "station", "railway": "halt", "railway:ref": "H\u00f8v", "station": "light_rail", "wikidata": "Q2158111"}}, {"type": "node", "id": 5126423536, "lat": 55.710287, "lon": 12.4631515, "tags": {"light_rail": "yes", "name": "Husum", "public_transport": "station", "railway": "halt", "railway:ref": "Hut", "station": "light_rail", "wheelchair": "limited"}}, {"type": "node", "id": 5163379132, "lat": 55.8033845, "lon": 12.387554, "tags": {"amenity": "ferry_terminal", "cargo": "passengers", "ferry": "yes", "name": "Fures\u00f8bad", "operator": "B\u00e5dfarten", "public_transport": "station", "source": "survey"}}, {"type": "node", "id": 5672905559, "lat": 55.8582756, "lon": 12.3771815, "tags": {"name": "Teglv\u00e6rket", "public_transport": "station", "railway": "station"}}, {"type": "node", "id": 5696961214, "lat": 55.8710875, "lon": 12.3569533, "tags": {"light_rail": "yes", "name": "Aller\u00f8d", "old_name": "Liller\u00f8d", "operator": "DSB", "public_transport": "station", "railway": "station", "railway:ref": "Li", "station": "light_rail", "wheelchair": "yes", "wikidata": "Q4596270"}}, {"type": "node", "id": 5697181536, "lat": 55.8614974, "lon": 12.379674, "tags": {"name": "Storkevad", "public_transport": "station", "railway": "halt"}}, {"type": "node", "id": 11406695903, "lat": 55.9106725, "lon": 12.3149094, "tags": {"light_rail": "yes", "name": "Favrholm", "public_transport": "station", "railway": "halt", "start_date": "2023-12-10", "station": "light_rail", "wikidata": "Q37930744"}}, {"type": "node", "id": 11406695904, "lat": 55.9108055, "lon": 12.3142883, "tags": {"name": "Favrholm", "public_transport": "station", "railway": "station", "start_date": "2023-12-10", "wikidata": "Q37930744"}}]}