{"version": 0.6, "generator": "Overpass API 0.7.61.5 4133829e", "osm3s": {"timestamp_osm_base": "2024-03-05T14:58:45Z", "copyright": "The data included in this document is from www.openstreetmap.org. The data is made available under ODbL."}, "elements": [{"type": "node", "id": 1303523806, "lat": 60.6175673, "lon": 11.2676191, "tags": {"amenity": "doctors", "healthcare:service": "fastlege", "healthcare:speciality": "general", "name": "Tangen legesenter", "phone": "+47 62 58 22 00", "ref:nhn": "973670328", "url": "http://www.tangenlegesenter.no/"}}, {"type": "node", "id": 5921083804, "lat": 60.6740323, "lon": 11.8322664, "tags": {"amenity": "doctors", "healthcare:service": "fastlege", "healthcare:speciality": "general", "name": "V\u00e5ler legesenter", "ref:nhn": "976640268"}}, {"type": "node", "id": 5921083818, "lat": 60.7374439, "lon": 11.2918273, "tags": {"amenity": "doctors", "healthcare:service": "fastlege", "healthcare:speciality": "general", "name": "Romedal legesenter", "ref:nhn": "913139593"}}, {"type": "node", "id": 5921083826, "lat": 60.6146601, "lon": 12.012601, "tags": {"amenity": "doctors", "healthcare:service": "fastlege", "healthcare:speciality": "general", "name": "R\u00e5dhusgata legekontor", "ref:nhn": "990627371"}}, {"type": "node", "id": 5921083827, "lat": 60.6088886, "lon": 12.0122602, "tags": {"amenity": "doctors", "healthcare:service": "fastlege", "healthcare:speciality": "general", "name": "Flisa legekontor", "ref:nhn": "973675729"}}, {"type": "node", "id": 5921083828, "lat": 60.6112177, "lon": 12.0102493, "tags": {"amenity": "doctors", "healthcare:service": "fastlege", "healthcare:speciality": "general", "name": "\u00c5snes legesenter", "ref:nhn": "983501567"}}, {"type": "node", "id": 5921083829, "lat": 60.4584162, "lon": 12.0591703, "tags": {"amenity": "doctors", "healthcare:service": "fastlege", "healthcare:speciality": "general", "name": "Dr. Lerner og dr. Schjelderup-H\u00f8ye", "ref:nhn": "987987766"}}, {"type": "node", "id": 5921083830, "lat": 60.4517573, "lon": 12.0760853, "tags": {"amenity": "doctors", "healthcare:service": "fastlege", "healthcare:speciality": "general", "name": "Furubo legesenter", "ref:nhn": "992160497"}}, {"type": "node", "id": 5921083843, "lat": 60.3932968, "lon": 11.5444218, "tags": {"amenity": "doctors", "healthcare:service": "fastlege", "healthcare:speciality": "general", "name": "Nord-Odal legesenter", "ref:nhn": "884666422"}}, {"type": "node", "id": 6331571398, "lat": 60.674303, "lon": 11.832238, "tags": {"amenity": "pharmacy", "branch": "V\u00e5ler", "brand": "Boots", "email": "valer.apotek@boots.no", "name": "Boots V\u00e5ler", "opening_hours": "Mo-Fr 09:00-16:00", "phone": "+47 62 42 95 50", "ref:boots": "1956513"}}, {"type": "node", "id": 6331571442, "lat": 60.611358, "lon": 12.010228, "tags": {"amenity": "pharmacy", "branch": "Flisa", "brand": "Boots", "email": "flisa.apotek@boots.no", "name": "Boots Flisa", "opening_hours": "Mo-Fr 09:00-17:00, Sa 10:00-16:00", "phone": "+47 62 95 30 30", "ref:boots": "1956512"}}, {"type": "node", "id": 6336087470, "lat": 60.457443, "lon": 12.059887, "tags": {"amenity": "pharmacy", "branch": "Kirken\u00e6r", "brand": "Apotek 1", "email": "grue@apotek1.no", "name": "Apotek 1 Kirken\u00e6r", "opening_hours": "Mo-Fr 09:00-17:00, Sa 09:00-15:00", "phone": "+47 62 94 58 00", "ref:apotek1": "477"}}, {"type": "node", "id": 6336087785, "lat": 60.3914007, "lon": 11.5435516, "tags": {"amenity": "pharmacy", "branch": "Sagstua", "brand": "Apotek 1", "email": "sagstua@apotek1.no", "name": "Apotek 1 Sagstua", "opening_hours": "Mo-Fr 09:00-17:00, Sa 09:00-14:00", "phone": "+47 62 97 89 00", "ref:apotek1": "1745"}}]}