{"version": 0.6, "generator": "Overpass API 0.7.61.5 4133829e", "osm3s": {"timestamp_osm_base": "2024-03-06T11:04:23Z", "copyright": "The data included in this document is from www.openstreetmap.org. The data is made available under ODbL."}, "elements": [{"type": "node", "id": 3999015980, "lat": 2.1181593, "lon": 34.1738536, "tags": {"addr:city": "Osemwa", "addr:county": "Usuk", "addr:district": "Katakwi", "addr:parish": "Olilim", "addr:subcounty": "Ngariam", "amenity": "school", "isced:level": "1", "name": "Amaratoit Primary School", "source": "www.ubos.org", "source:date": "2010..2014", "wikidata": "Q22677750"}}, {"type": "node", "id": 3999015981, "lat": 2.1155066, "lon": 34.2315918, "tags": {"addr:city": "Go Down", "addr:county": "Bokora", "addr:district": "Napak", "addr:parish": "Iriiri", "addr:subcounty": "Iriiri", "amenity": "school", "isced:level": "1", "name": "Kapuat Primary School", "source": "www.ubos.org", "source:date": "2010..2014", "wikidata": "Q22677746"}}, {"type": "node", "id": 3999015982, "lat": 2.1690498, "lon": 34.2193733, "tags": {"addr:city": "Kaurikiakine", "addr:county": "Bokora", "addr:district": "Napak", "addr:parish": "Iriiri", "addr:subcounty": "Iriiri", "amenity": "school", "isced:level": "1", "name": "Kaurikekaine Primary School", "source": "www.ubos.org", "source:date": "2010..2014", "wikidata": "Q22677747"}}, {"type": "node", "id": 3999015983, "lat": 2.2615077, "lon": 34.2555814, "tags": {"addr:city": "Lobok", "addr:county": "Bokora", "addr:district": "Napak", "addr:parish": "Kokipurat", "addr:subcounty": "Lorengecora", "amenity": "school", "isced:level": "1", "name": "Lobok Primary School", "source": "www.ubos.org", "source:date": "2010..2014", "wikidata": "Q22677748"}}, {"type": "node", "id": 3999015984, "lat": 2.1295593, "lon": 34.2107374, "tags": {"addr:city": "Lomaratoit", "addr:county": "Bokora", "addr:district": "Napak", "addr:parish": "Iriiri", "addr:subcounty": "Iriiri", "amenity": "school", "fixme": "Please, check the position of the node", "isced:level": "1", "name": "Lomaratoit Primary School", "source": "www.ubos.org", "source:date": "2010..2014", "wikidata": "Q22677749"}}, {"type": "node", "id": 3999015985, "lat": 2.2208109, "lon": 34.2555995, "tags": {"addr:city": "Nakumae", "addr:county": "Bokora", "addr:district": "Napak", "addr:parish": "Lolet", "addr:subcounty": "Lorengecora", "amenity": "school", "isced:level": "1", "name": "Lorengechora Primary School", "operator": "public", "source": "www.ubos.org", "source:date": "2010..2014", "wikidata": "Q22677752"}}, {"type": "node", "id": 4008914344, "lat": 2.171067, "lon": 34.2899869, "tags": {"addr:city": "Cholichol", "addr:county": "Bokora", "addr:district": "Napak", "addr:parish": "Cholichol", "addr:subcounty": "Lorengecora", "amenity": "school", "isced:level": "1", "name": "Cholicholi Primary School", "source": "www.ubos.org", "source:date": "2010..2014", "wikidata": "Q22808825"}}, {"type": "node", "id": 4010839590, "lat": 2.1095363, "lon": 34.0093339, "tags": {"addr:city": "Obulengorok", "addr:county": "Usuk", "addr:district": "Katakwi", "addr:parish": "Omukuny", "addr:subcounty": "Ongongoja", "amenity": "school", "isced:level": "1", "name": "Obulengorok Primary School", "source": "www.ubos.org", "source:date": "2010..2014", "wikidata": "Q22811690"}}, {"type": "node", "id": 4010839591, "lat": 2.1241824, "lon": 34.0498536, "tags": {"addr:city": "Okocho", "addr:county": "Usuk", "addr:district": "Katakwi", "addr:parish": "Okocho", "addr:subcounty": "Ongongoja", "amenity": "school", "isced:level": "1", "name": "Okocho Primary School", "source": "www.ubos.org", "source:date": "2010..2014", "wikidata": "Q22811691"}}, {"type": "node", "id": 4010839592, "lat": 2.2003689, "lon": 33.9733438, "tags": {"addr:city": "Ongongoja", "addr:county": "Usuk", "addr:district": "Katakwi", "addr:parish": "Ongongoja", "addr:subcounty": "Ongongoja", "amenity": "school", "isced:level": "1", "name": "Ongongoja Primary School", "source": "www.ubos.org", "source:date": "2010..2014", "wikidata": "Q22811692"}}, {"type": "node", "id": 4010839593, "lat": 2.111623, "lon": 33.9755778, "tags": {"addr:city": "Okuda", "addr:county": "Usuk", "addr:district": "Katakwi", "addr:parish": "Okuda", "addr:subcounty": "Ongongoja", "amenity": "school", "isced:level": "2;3;4", "name": "Ongongoja Secondary School", "operator:type": "public", "source": "www.ubos.org", "source:date": "2010..2014", "wikidata": "Q22811693"}}, {"type": "node", "id": 4015445244, "lat": 2.0905994, "lon": 34.2257576, "tags": {"addr:city": "Alekilek", "addr:county": "Bokora", "addr:district": "Napak", "addr:parish": "Iriiri", "addr:subcounty": "Iriiri", "amenity": "school", "fixme": "Please, check the position of the node", "isced:level": "1", "name": "Alekilek Primary School", "source": "www.ubos.org", "source:date": "2010..2014", "wikidata": "Q22941891"}}, {"type": "node", "id": 4015445245, "lat": 2.0965724, "lon": 34.1982975, "tags": {"addr:city": "Osemwa", "addr:county": "Usuk", "addr:district": "Katakwi", "addr:parish": "Olilim", "addr:subcounty": "Ngariam", "amenity": "school", "isced:level": "1", "name": "Alekilek Primary School", "source": "www.ubos.org", "source:date": "2010..2014", "wikidata": "Q22941886"}}, {"type": "node", "id": 4015445246, "lat": 2.0601719, "lon": 34.2366155, "tags": {"addr:city": "Apiananya", "addr:county": "Bokora", "addr:district": "Napak", "addr:parish": "Nabwal", "addr:subcounty": "Iriiri", "amenity": "school", "isced:level": "1", "name": "Amedek Primary School", "source": "www.ubos.org", "source:date": "2010..2014", "wikidata": "Q22941889"}}, {"type": "node", "id": 4015445248, "lat": 2.0253266, "lon": 34.1188143, "tags": {"addr:city": "Aiiti", "addr:county": "Usuk", "addr:district": "Katakwi", "addr:parish": "Olilim", "addr:subcounty": "Ngariam", "amenity": "school", "isced:level": "1", "name": "Olilim Primary School", "source": "www.ubos.org", "source:date": "2010..2014", "wikidata": "Q22941885"}}, {"type": "node", "id": 4015445251, "lat": 2.1049662, "lon": 34.2657906, "tags": {"addr:city": "Losikait", "addr:county": "Bokora", "addr:district": "Napak", "addr:parish": "Tepeth", "addr:subcounty": "Iriiri", "amenity": "school", "isced:level": "1", "name": "Pilas Primary School", "source": "www.ubos.org", "source:date": "2010..2014", "wikidata": "Q22941882"}}, {"type": "node", "id": 4016881634, "lat": 2.0762739, "lon": 34.0446822, "tags": {"addr:city": "Adacar", "addr:county": "Usuk", "addr:district": "Katakwi", "addr:parish": "Adacar", "addr:subcounty": "Usuk", "amenity": "school", "isced:level": "1", "name": "Adacar Primary School", "source": "www.ubos.org", "source:date": "2010..2014", "wikidata": "Q22941935"}}, {"type": "node", "id": 4016881639, "lat": 2.0577909, "lon": 33.9800248, "tags": {"addr:city": "Aojabule East", "addr:county": "Usuk", "addr:district": "Katakwi", "addr:parish": "Koritok", "addr:subcounty": "Usuk", "amenity": "school", "isced:level": "1", "name": "Aojabule Primary School", "source": "www.ubos.org", "source:date": "2010..2014", "wikidata": "Q22941931"}}, {"type": "node", "id": 4016881645, "lat": 2.05396, "lon": 34.0140581, "tags": {"addr:city": "Okibui", "addr:county": "Usuk", "addr:district": "Katakwi", "addr:parish": "Adacar", "addr:subcounty": "Usuk", "amenity": "school", "isced:level": "1", "name": "Okibui Primary School", "source": "www.ubos.org", "source:date": "2010..2014", "wikidata": "Q22941920"}}, {"type": "node", "id": 4016881646, "lat": 2.0772536, "lon": 34.0449652, "tags": {"addr:city": "Acuuru", "addr:county": "Usuk", "addr:district": "Katakwi", "addr:parish": "Okocho", "addr:subcounty": "Ongongoja", "amenity": "school", "isced:level": "0", "name": "Okocho Nursery School", "source": "www.ubos.org", "source:date": "2010..2014", "wikidata": "Q22941921"}}, {"type": "node", "id": 4016881648, "lat": 2.0867555, "lon": 33.9760281, "tags": {"addr:city": "Apuuton", "addr:county": "Usuk", "addr:district": "Katakwi", "addr:parish": "Okuda", "addr:subcounty": "Ongongoja", "amenity": "school", "isced:level": "1", "name": "Okuda Primary School", "source": "www.ubos.org", "source:date": "2010..2014", "wikidata": "Q22941924"}}]}