{"version": 0.6, "generator": "Overpass API 0.7.61.5 4133829e", "osm3s": {"timestamp_osm_base": "2024-03-06T11:09:29Z", "copyright": "The data included in this document is from www.openstreetmap.org. The data is made available under ODbL."}, "elements": [{"type": "node", "id": 560542966, "lat": 1.0757175, "lon": 34.1755407}, {"type": "node", "id": 560551842, "lat": 1.0681748, "lon": 34.1736923}, {"type": "node", "id": 562642516, "lat": 1.1565133, "lon": 34.2211703, "tags": {"addr:city": "Elgon Utc", "addr:county": "Bungokho", "addr:district": "Mbale", "addr:parish": "Aisa", "addr:subcounty": "Namanyonyi", "alt_name": "Mount Elgon Labor Based Training Centre", "amenity": "college", "isced:level": "2;3;4", "name": "Mount Elgon Labour-Based College", "source": "www.ubos.org", "source:date": "2010..2014", "wikidata": "Q23134727"}}, {"type": "node", "id": 562642567, "lat": 1.1531454, "lon": 34.2178154, "tags": {"amenity": "college", "isced:level": "2;3;4", "name": "Uganda Technical College Elgon", "wikidata": "Q23133870"}}, {"type": "node", "id": 563091310, "lat": 1.0077191, "lon": 34.189273, "tags": {"amenity": "college", "building": "public", "name": "Countryside Vocational Institute", "wikidata": "Q22807620"}}, {"type": "node", "id": 1085357008, "lat": 1.1408588, "lon": 34.1225231, "tags": {"addr:city": "Kabwangasi", "amenity": "college", "name": "Kabwangasi Primary Teachers College"}}, {"type": "node", "id": 1085436226, "lat": 1.1373404, "lon": 34.1494517, "tags": {"amenity": "college", "name": "Salem School of Nursing", "wikidata": "Q23715128"}}, {"type": "node", "id": 1087969312, "lat": 1.0353959, "lon": 34.1769528}, {"type": "node", "id": 1087969313, "lat": 1.034134, "lon": 34.1752219}, {"type": "node", "id": 1087969315, "lat": 1.0351255, "lon": 34.1729644}, {"type": "node", "id": 1087969317, "lat": 1.0337554, "lon": 34.1757916}, {"type": "node", "id": 1087969322, "lat": 1.0357132, "lon": 34.1754671}, {"type": "node", "id": 1087969329, "lat": 1.0354248, "lon": 34.1767617}, {"type": "node", "id": 1087969331, "lat": 1.0344621, "lon": 34.17414}, {"type": "node", "id": 1087969333, "lat": 1.0357926, "lon": 34.1749478}, {"type": "node", "id": 1087969335, "lat": 1.0346171, "lon": 34.176823}, {"type": "node", "id": 1087969337, "lat": 1.035313, "lon": 34.1764479}, {"type": "node", "id": 1087969340, "lat": 1.0343287, "lon": 34.1771079}, {"type": "node", "id": 1087969341, "lat": 1.035295, "lon": 34.1754635}, {"type": "node", "id": 1087969343, "lat": 1.0352517, "lon": 34.1769708}, {"type": "node", "id": 1087969349, "lat": 1.0337049, "lon": 34.1763073}, {"type": "node", "id": 1087969350, "lat": 1.0346496, "lon": 34.1730077}, {"type": "node", "id": 1087969352, "lat": 1.0356772, "lon": 34.1772954}, {"type": "node", "id": 1087969355, "lat": 1.0346929, "lon": 34.1749802}, {"type": "node", "id": 1087969357, "lat": 1.0358755, "lon": 34.174104}, {"type": "node", "id": 1087969359, "lat": 1.0352085, "lon": 34.1740427}, {"type": "node", "id": 1087969368, "lat": 1.0355438, "lon": 34.1766066}, {"type": "node", "id": 1087969370, "lat": 1.0342169, "lon": 34.1741653}, {"type": "node", "id": 1087969373, "lat": 1.0353455, "lon": 34.1749189}, {"type": "node", "id": 1087969376, "lat": 1.0343864, "lon": 34.1768086}, {"type": "node", "id": 1087969378, "lat": 1.0351796, "lon": 34.1772449}, {"type": "node", "id": 1087969381, "lat": 1.0349128, "lon": 34.1762171}, {"type": "node", "id": 1087969385, "lat": 1.0353238, "lon": 34.1759647}, {"type": "node", "id": 1087969386, "lat": 1.0337086, "lon": 34.1769925}, {"type": "node", "id": 1087969397, "lat": 1.034116, "lon": 34.173069}, {"type": "node", "id": 1097812155, "lat": 1.0759037, "lon": 34.1826482, "tags": {"name": "St.mary's senior secondary school"}}, {"type": "node", "id": 1420813324, "lat": 0.9113159, "lon": 34.272845, "tags": {"addr:city": "Khabutoola", "amenity": "college", "building": "public", "isced:level": "2;3;4", "name": "Bugobero Hillside College", "wikidata": "Q22807693"}}, {"type": "node", "id": 1497281876, "lat": 1.1014788, "lon": 34.1743801}, {"type": "node", "id": 1504093891, "lat": 0.9862205, "lon": 34.2258367, "tags": {"addr:city": "Nyondo PTC", "addr:county": "Bungokho", "addr:district": "Mbale", "addr:parish": "Bufukhula", "addr:subcounty": "Nyondo", "amenity": "college", "building": "public", "description": "Teacher's college", "isced:level": "1", "name": "Saint John Bosco Primary Teachers College Nyondo", "opening_hours": "Mo-Sa 08:00-18:00", "source": "www.ubos.org", "source:date": "2010..2014", "wikidata": "Q22807659"}}, {"type": "node", "id": 1716416773, "lat": 0.9842933, "lon": 34.2107338, "tags": {"amenity": "college", "isced:level": "5", "name": "Nabumali High School", "wikidata": "Q15260736", "wikipedia": "en:Nabumali High School"}}, {"type": "node", "id": 1806120117, "lat": 1.0348882, "lon": 34.1765533}, {"type": "node", "id": 1909888060, "lat": 1.0805735, "lon": 34.171743}, {"type": "node", "id": 1909888061, "lat": 1.0806039, "lon": 34.1716619}, {"type": "node", "id": 1909888062, "lat": 1.0806824, "lon": 34.1714036}, {"type": "node", "id": 1909888063, "lat": 1.0807176, "lon": 34.1713095}, {"type": "node", "id": 1909888064, "lat": 1.0808906, "lon": 34.1717692}, {"type": "node", "id": 1909888065, "lat": 1.0809373, "lon": 34.1718793}, {"type": "node", "id": 1909888066, "lat": 1.080985, "lon": 34.171517}, {"type": "node", "id": 1909888067, "lat": 1.0810315, "lon": 34.1716277, "tags": {"barrier": "entrance"}}, {"type": "node", "id": 1909888068, "lat": 1.0810974, "lon": 34.1714517}, {"type": "node", "id": 1909899812, "lat": 1.075732, "lon": 34.1755911}, {"type": "node", "id": 1909908929, "lat": 1.0749127, "lon": 34.1752859}, {"type": "node", "id": 1909913135, "lat": 1.0769599, "lon": 34.1749614}, {"type": "node", "id": 1909913161, "lat": 1.0770167, "lon": 34.1748817}, {"type": "node", "id": 1909913232, "lat": 1.0772159, "lon": 34.1751488}, {"type": "node", "id": 1909913260, "lat": 1.077272, "lon": 34.1750721}, {"type": "node", "id": 1909925637, "lat": 1.0762369, "lon": 34.1748551}, {"type": "node", "id": 2360198465, "lat": 1.0717212, "lon": 34.1818621}, {"type": "node", "id": 2360198467, "lat": 1.0718591, "lon": 34.1819564}, {"type": "node", "id": 2360198469, "lat": 1.0718715, "lon": 34.1819648}, {"type": "node", "id": 2360198471, "lat": 1.0719228, "lon": 34.1818883}, {"type": "node", "id": 2360198473, "lat": 1.0718935, "lon": 34.1818686}, {"type": "node", "id": 2360198475, "lat": 1.0719556, "lon": 34.1817761}, {"type": "node", "id": 2360198477, "lat": 1.0718904, "lon": 34.1817323}, {"type": "node", "id": 2360198479, "lat": 1.0718834, "lon": 34.1817426}, {"type": "node", "id": 2360198481, "lat": 1.0718372, "lon": 34.1817116}, {"type": "node", "id": 2360198483, "lat": 1.0718442, "lon": 34.1817012}, {"type": "node", "id": 2360198485, "lat": 1.0718069, "lon": 34.1816762}, {"type": "node", "id": 2360198487, "lat": 1.0716943, "lon": 34.181844}, {"type": "node", "id": 2360286781, "lat": 1.0761329, "lon": 34.1844776}, {"type": "node", "id": 2368316261, "lat": 1.0692906, "lon": 34.1735826}, {"type": "node", "id": 2368316262, "lat": 1.0674033, "lon": 34.1737682}, {"type": "node", "id": 2368316263, "lat": 1.0674599, "lon": 34.1742283}, {"type": "node", "id": 2368316264, "lat": 1.0676333, "lon": 34.1744053}, {"type": "node", "id": 2368316265, "lat": 1.0678314, "lon": 34.1746849}, {"type": "node", "id": 2368316266, "lat": 1.0686064, "lon": 34.1752795}, {"type": "node", "id": 2368316267, "lat": 1.0689213, "lon": 34.1748583}, {"type": "node", "id": 2368316268, "lat": 1.0687161, "lon": 34.1747132}, {"type": "node", "id": 2368316269, "lat": 1.0686241, "lon": 34.1742708}, {"type": "node", "id": 2368316270, "lat": 1.0694096, "lon": 34.1740266}, {"type": "node", "id": 2368316298, "lat": 1.070081, "lon": 34.1752166}, {"type": "node", "id": 2368316299, "lat": 1.0705072, "lon": 34.1746103}, {"type": "node", "id": 2368316300, "lat": 1.0708658, "lon": 34.1748702}, {"type": "node", "id": 2368316301, "lat": 1.0708781, "lon": 34.1749995}, {"type": "node", "id": 2368316302, "lat": 1.0701312, "lon": 34.1752974}, {"type": "node", "id": 2368316303, "lat": 1.070751, "lon": 34.1747894, "tags": {"access": "designated", "barrier": "gate"}}, {"type": "node", "id": 3058168521, "lat": 1.0850809, "lon": 34.1806053}, {"type": "node", "id": 3302459080, "lat": 0.7777719, "lon": 34.0163632}, {"type": "node", "id": 3302459081, "lat": 0.7777781, "lon": 34.0163056}, {"type": "node", "id": 3302459085, "lat": 0.7778082, "lon": 34.0164084}, {"type": "node", "id": 3302459086, "lat": 0.7778232, "lon": 34.0162692}, {"type": "node", "id": 3302459090, "lat": 0.7778659, "lon": 34.0164146}, {"type": "node", "id": 3302459092, "lat": 0.7778808, "lon": 34.0162754}, {"type": "node", "id": 3302459094, "lat": 0.777911, "lon": 34.0163782}, {"type": "node", "id": 3302459095, "lat": 0.7779172, "lon": 34.0163206}, {"type": "node", "id": 3803766284, "lat": 1.0981819, "lon": 34.1751409}, {"type": "node", "id": 3922365689, "lat": 0.7557177, "lon": 34.0442778}, {"type": "node", "id": 3922365693, "lat": 1.0759121, "lon": 34.1826566}, {"type": "node", "id": 3922365695, "lat": 1.0677831, "lon": 34.1837837}, {"type": "node", "id": 3943914408, "lat": 1.0686589, "lon": 34.1731453, "tags": {"addr:city": "Mbale", "addr:street": "Maluku Drive", "amenity": "college", "description": "Post Graduate Institution", "name": "Uganda Management Institute", "opening_hours": "Sa-Su 08:00-18:00"}}, {"type": "node", "id": 3943934082, "lat": 1.0690128, "lon": 34.1732311, "tags": {"addr:city": "Mbale", "addr:street": "Maluku Drive", "amenity": "college", "description": "Post Graduate Institute", "name": "Uganda Management Institute", "opening_hours": "Sa-Su 08:00-18:00"}}, {"type": "node", "id": 3944010738, "lat": 1.0902274, "lon": 34.1790882, "tags": {"addr:city": "Mbale", "addr:street": "Namakwekwe Road", "amenity": "college", "name": "Stanmore Vocational and Business Institute", "opening_hours": "Mo-Sa 08:00-18:00", "wikidata": "Q23721141"}}, {"type": "node", "id": 3946026142, "lat": 1.0110483, "lon": 34.1862325}, {"type": "node", "id": 3947989763, "lat": 0.9714257, "lon": 34.1625667, "tags": {"addr:city": "Mbale", "addr:street": "Mbale Tororo Road", "amenity": "college", "name": "Mbale School Of The Deaf", "opening_hours": "24/7", "social_facility:for": "deaf", "wikidata": "Q22807687"}}, {"type": "node", "id": 3955045770, "lat": 1.0663199, "lon": 34.183184, "tags": {"addr:city": "Mbale", "addr:street": "Aswani Street", "amenity": "college", "description": "Post Graduate Institute", "name": "Umcat Mbale Campus", "opening_hours": "Mo-Su 09:00-21:00"}}, {"type": "node", "id": 3955077846, "lat": 1.0784311, "lon": 34.1734672, "tags": {"addr:city": "Mbale", "addr:street": "Soroti Kumi Road", "amenity": "college", "description": "A Nursing School", "name": "Mbale School Of Nursing And Midwifery", "opening_hours": "24/7"}}, {"type": "node", "id": 3955077857, "lat": 1.0811879, "lon": 34.1715145, "tags": {"addr:city": "Mbale", "addr:street": "Kangulu Road", "amenity": "university", "name": "UCU Mbale Branch", "opening_hours": "Mo-Sa 09:00-18:00;Mo-Fr 08:00-18:00; Sa-Su 08:00-15:00"}}, {"type": "node", "id": 3955077858, "lat": 1.08144, "lon": 34.1759039, "tags": {"addr:city": "Mbale", "addr:street": "kumi", "amenity": "university", "name": "Uganda Christian University", "opening_hours": "Mo-Sa 08:00-18:00", "wikidata": "Q22969465"}}, {"type": "node", "id": 3966661090, "lat": 1.1390999, "lon": 34.1207512, "tags": {"addr:city": "Kabwangasi", "addr:street": "Kabwangasi Road", "amenity": "college", "name": "Kabwangasi Teachers College", "opening_hours": "Mo-Sa 08:00-18:00"}}, {"type": "node", "id": 3990383960, "lat": 0.7444157, "lon": 34.1879028, "tags": {"addr:city": "Mukuju", "amenity": "college", "name": "Mukuju Core PTC", "opening_hours": "Mo-Fr 09:00-17:00", "wikidata": "Q22981259"}}, {"type": "node", "id": 3995681820, "lat": 0.8458694, "lon": 33.9297057, "tags": {"addr:city": "Bugamwenge", "addr:county": "Bunyole", "addr:district": "Butaleja", "addr:parish": "Busolwe", "addr:street": "Busaba Busoko", "addr:subcounty": "Busolwe Town Council", "amenity": "college", "name": "the Equatorial College", "opening_hours": "Mo-Sa 08:00-18:00", "operator:type": "private", "source": "www.ubos.org", "source:date": "2010..2014", "wikidata": "Q23722673"}}, {"type": "node", "id": 4078111507, "lat": 1.137182, "lon": 34.1492919, "tags": {"addr:city": "Kolonyi Salem A", "addr:county": "Bungokho", "addr:district": "Mbale", "addr:parish": "Kolonyi Salem", "addr:subcounty": "Nakaloke", "amenity": "college", "name": "Comprehensive Nursing School", "source": "www.ubos.org", "source:date": "2010..2014", "wikidata": "Q23715047"}}, {"type": "node", "id": 4080650450, "lat": 1.0054573, "lon": 33.9535556, "tags": {"addr:city": "Nanyago", "addr:county": "Budaka", "addr:district": "Budaka", "addr:parish": "Namengo Ward", "addr:subcounty": "Budaka Town Council", "amenity": "college", "name": "Saint Anthony Technical College", "source": "www.ubos.org", "source:date": "2010..2014", "wikidata": "Q23722394"}}, {"type": "node", "id": 4081977000, "lat": 1.0794077, "lon": 34.1798696, "tags": {"addr:city": "North Road Cell", "addr:county": "Mbale Municipality", "addr:district": "Mbale", "addr:parish": "North Central", "addr:subcounty": "Northern Division", "amenity": "college", "name": "CCP Vocational Training Institute", "source": "www.ubos.org", "source:date": "2010..2014"}}, {"type": "node", "id": 4475589512, "lat": 1.0764847, "lon": 34.1840783}, {"type": "node", "id": 6183172370, "lat": 1.1011279, "lon": 34.1721594}, {"type": "node", "id": 6189210837, "lat": 1.098234, "lon": 34.1747423}, {"type": "node", "id": 6189210838, "lat": 1.0987703, "lon": 34.1734421}, {"type": "node", "id": 6189210839, "lat": 1.0991491, "lon": 34.1728467}, {"type": "node", "id": 6189210840, "lat": 1.0993147, "lon": 34.1726911}, {"type": "node", "id": 7467324338, "lat": 1.0755786, "lon": 34.1757431}, {"type": "node", "id": 7467324339, "lat": 1.0755377, "lon": 34.1743752}, {"type": "node", "id": 7479767511, "lat": 0.755726, "lon": 34.0443196}, {"type": "node", "id": 7479767512, "lat": 0.7562737, "lon": 34.0445962}, {"type": "node", "id": 7479767513, "lat": 0.7564343, "lon": 34.0442781}, {"type": "node", "id": 7479767514, "lat": 0.7558631, "lon": 34.0439897}, {"type": "node", "id": 7479820430, "lat": 1.075864, "lon": 34.1826085}, {"type": "node", "id": 7479820431, "lat": 1.0750662, "lon": 34.1837555}, {"type": "node", "id": 7479820432, "lat": 1.0762637, "lon": 34.1845431}, {"type": "node", "id": 7479820433, "lat": 1.0768609, "lon": 34.1832841}, {"type": "node", "id": 7479848328, "lat": 1.0687345, "lon": 34.1823327}, {"type": "node", "id": 7479848329, "lat": 1.06715, "lon": 34.1812936}, {"type": "node", "id": 7479848330, "lat": 1.0661987, "lon": 34.1827444}, {"type": "node", "id": 7479912267, "lat": 1.0107598, "lon": 34.1862022}, {"type": "node", "id": 7479912268, "lat": 1.0107325, "lon": 34.1864117}, {"type": "node", "id": 7479912269, "lat": 1.0107264, "lon": 34.1864846}, {"type": "node", "id": 7479912270, "lat": 1.0104774, "lon": 34.1864877}, {"type": "node", "id": 7479912271, "lat": 1.0105078, "lon": 34.1871133}, {"type": "node", "id": 7479912272, "lat": 1.0109086, "lon": 34.1870222}, {"type": "node", "id": 7479912273, "lat": 1.0111944, "lon": 34.1862467}, {"type": "node", "id": 7760855540, "lat": 1.084904, "lon": 34.1799293}, {"type": "node", "id": 7760855541, "lat": 1.0841255, "lon": 34.1801275}, {"type": "node", "id": 7760855542, "lat": 1.0842104, "lon": 34.1804778}, {"type": "node", "id": 7760855543, "lat": 1.0844864, "lon": 34.1805026}, {"type": "node", "id": 7760855544, "lat": 1.084681, "lon": 34.1805628}, {"type": "node", "id": 7760855545, "lat": 1.0848898, "lon": 34.1806406}, {"type": "node", "id": 8670979226, "lat": 1.0997481, "lon": 34.172519}, {"type": "node", "id": 8670981903, "lat": 1.1011815, "lon": 34.1723084}, {"type": "node", "id": 8670981904, "lat": 1.1012123, "lon": 34.172401}, {"type": "node", "id": 8670981905, "lat": 1.1012412, "lon": 34.1726927}, {"type": "node", "id": 8670981906, "lat": 1.1012948, "lon": 34.1731909}, {"type": "node", "id": 8670981907, "lat": 1.1002563, "lon": 34.1723996}, {"type": "node", "id": 9911209868, "lat": 1.0758383, "lon": 34.1741056, "tags": {"amenity": "college", "name": "Agape Grounds"}}, {"type": "way", "id": 93691865, "nodes": [1087969352, 1087969322, 1087969341, 1087969373, 1087969333, 1087969357, 1087969359, 1087969315, 1087969350, 1087969397, 1087969370, 1087969331, 1087969355, 1087969313, 1087969317, 1087969349, 1087969386, 1087969340, 1087969376, 1087969335, 1806120117, 1087969381, 1087969385, 1087969337, 1087969368, 1087969329, 1087969312, 1087969343, 1087969378, 1087969352], "tags": {"addr:city": "Mbale", "addr:street": "Tororo Road", "amenity": "college", "name": "Bungokho Rural Development Centre", "opening_hours": "Mo-Sa 08:00-18:00"}}, {"type": "way", "id": 180564346, "nodes": [1909888063, 1909888068, 1909888067, 1909888065, 1909888060, 1909888061, 1909888064, 1909888066, 1909888062, 1909888063], "tags": {"addr:city": "MBALE", "addr:housenumber": "189", "addr:postcode": "189", "addr:street": "Sebie Avenue", "amenity": "university", "level": "0,1,2,3", "name": "UCU Mbale Canon Mungati Building", "operator": "UCU Mbale University College"}}, {"type": "way", "id": 180566215, "nodes": [1909913260, 1909913232, 1909913135, 1909913161, 1909913260], "tags": {"amenity": "college", "name": "College of Nursing and Midwifery"}}, {"type": "way", "id": 227318637, "nodes": [2360198465, 2360198487, 2360198485, 2360198483, 2360198481, 2360198479, 2360198477, 2360198475, 2360198473, 2360198471, 2360198469, 2360198467, 2360198465], "tags": {"addr:city": "Mbale", "addr:country": "UG", "addr:street": "Republic street", "amenity": "university", "atm": "yes", "branch": "Mbale Branch", "building": "yes", "name": "makerere university's", "opening_hours": "Mo-Sa 08:00-18:00", "operator": "Crane Bank", "website": "http://www.cranebanklimited.com"}}, {"type": "way", "id": 228198099, "nodes": [2368316261, 560551842, 2368316262, 2368316263, 2368316264, 2368316265, 2368316266, 2368316267, 2368316268, 2368316269, 2368316270, 2368316261], "tags": {"addr:district": "Mbale", "amenity": "college", "name": "Hamdan Girls High School", "source": "www.ubos.org", "source:date": "2010..2014", "wikidata": "Q23721184"}}, {"type": "way", "id": 228198103, "nodes": [2368316298, 2368316299, 2368316303, 2368316300, 2368316301, 2368316302, 2368316298], "tags": {"amenity": "university", "name": "Bugema university"}}, {"type": "way", "id": 323454445, "nodes": [3302459095, 3302459092, 3302459086, 3302459081, 3302459080, 3302459085, 3302459090, 3302459094, 3302459095], "tags": {"amenity": "university", "name": "busitema campus sign post"}}, {"type": "way", "id": 364307413, "nodes": [1497281876, 8670981906, 8670981905, 8670981904, 8670981903, 6183172370, 8670981907, 8670979226, 6189210840, 6189210839, 6189210838, 6189210837, 3803766284, 1497281876], "tags": {"addr:postcode": "2555", "addr:street": "Kumi Road", "amenity": "university", "layer": "1", "name": "Islamic University in Uganda, Main Campus;Islamic University of Uganda", "opening_hours": "Mo-Su 09:00-21:00", "short_name": "IUIU", "wikidata": "Q5158982", "wikipedia": "en:Islamic University in Uganda"}}, {"type": "way", "id": 798386565, "nodes": [1909925637, 1909899812, 560542966, 7467324338, 1909908929, 7467324339, 1909925637], "tags": {"amenity": "university", "name": "Uganda Christian University Mbale"}}, {"type": "way", "id": 799769811, "nodes": [3922365689, 7479767511, 7479767512, 7479767513, 7479767514, 3922365689], "tags": {"addr:city": "Nagongera", "addr:county": "West Budama", "addr:district": "Tororo", "addr:parish": "Namwaya", "addr:street": "Tororo-Nagongera Road", "addr:subcounty": "Nagongera", "amenity": "university", "name": "Busitema University Nagongera Canpus", "opening_hours": "Mo-Su 09:00-21:00", "source": "www.ubos.org", "source:date": "2010..2014"}}, {"type": "way", "id": 799773307, "nodes": [3922365693, 1097812155, 7479820430, 7479820431, 2360286781, 7479820432, 4475589512, 7479820433, 3922365693], "tags": {"addr:city": "Nkokokonjeru Cell", "addr:county": "Mbale Municipality", "addr:district": "Mbale", "addr:parish": "North Central", "addr:subcounty": "Northern Division", "amenity": "university", "name": "Uganda Christian University Nkokonjeru Branch", "source": "www.ubos.org", "source:date": "2010..2014"}}, {"type": "way", "id": 799775282, "nodes": [3922365695, 7479848328, 7479848329, 7479848330, 3922365695], "tags": {"addr:city": "Mbale", "addr:county": "Mbale Municipality", "addr:district": "Mbale", "addr:parish": "Boma", "addr:street": "Aswani Street", "addr:subcounty": "Wanale Division", "amenity": "university", "description": "Post Graduate And Under Graduate", "name": "Uganda Martyrs' University", "opening_hours": "Mo-Sa 09:00-18:00", "source": "www.ubos.org", "source:date": "2010..2014"}}, {"type": "way", "id": 799781093, "nodes": [3946026142, 7479912267, 7479912268, 7479912269, 7479912270, 7479912271, 7479912272, 7479912273, 3946026142], "tags": {"addr:city": "Mbale", "amenity": "university", "name": "Saint Lawrence University Mbale", "wikidata": "Q22807696"}}, {"type": "way", "id": 831180293, "nodes": [3058168521, 7760855540, 7760855541, 7760855542, 7760855543, 7760855544, 7760855545, 3058168521], "tags": {"addr:city": "Nabijo Cell", "addr:county": "Mbale Municipality", "addr:district": "Mbale", "addr:parish": "Namakwekwe", "addr:street": "Kumi road", "addr:subcounty": "Northern Division", "amenity": "university", "name": "Livingston International University", "opening_hours": "24/7", "source": "www.ubos.org", "source:date": "2010..2014", "wikidata": "Q17067633", "wikipedia": "en:LivingStone International University"}}]}