{"version": 0.6, "generator": "Overpass API 0.7.61.5 4133829e", "osm3s": {"timestamp_osm_base": "2024-03-06T13:33:00Z", "copyright": "The data included in this document is from www.openstreetmap.org. The data is made available under ODbL."}, "elements": [{"type": "node", "id": 964767963, "lat": -0.283451, "lon": 36.0775405, "tags": {"name": "Nakuru", "public_transport": "station", "railway": "station"}}, {"type": "node", "id": 1539995264, "lat": -0.3030535, "lon": 35.8094262, "tags": {"name": "Elburgon", "public_transport": "station", "railway": "station"}}, {"type": "node", "id": 2601979244, "lat": -0.2045957, "lon": 35.9659668, "tags": {"name": "Menengai", "public_transport": "station", "railway": "station"}}, {"type": "node", "id": 4504394390, "lat": -0.2837729, "lon": 36.07579, "tags": {"addr:city": "Nakuru", "addr:street": "Station Road", "amenity": "bus_station", "bus": "yes", "name": "Nakuru Bus Terminus", "name:en": "Matatu Station", "public_transport": "station"}}, {"type": "node", "id": 4860921649, "lat": -0.2849301, "lon": 36.0755816, "tags": {"addr:city": "Nakuru", "addr:street": "Station Road", "amenity": "bus_station", "bus": "yes", "name": "Nakuru Bus Terminus", "public_transport": "station"}}, {"type": "node", "id": 5950688785, "lat": -0.2832861, "lon": 36.0701739, "tags": {"amenity": "bus_station", "bus": "yes", "name": "Modern Coast Express Nakuru branch", "public_transport": "station"}}, {"type": "node", "id": 9909405428, "lat": -0.2814558, "lon": 36.0774661, "tags": {"amenity": "bus_station", "bus": "yes", "name": "Mololine shuttle bus", "public_transport": "station"}}, {"type": "node", "id": 9909405429, "lat": -0.2816265, "lon": 36.0764376, "tags": {"amenity": "bus_station", "bus": "yes", "name": "Matatu stand", "public_transport": "station"}}]}