{"version": 0.6, "generator": "Overpass API 0.7.61.5 4133829e", "osm3s": {"timestamp_osm_base": "2024-02-29T13:47:24Z", "copyright": "The data included in this document is from www.openstreetmap.org. The data is made available under ODbL."}, "elements": [{"type": "node", "id": 2515536109, "lat": 9.8905054, "lon": -0.7222124, "tags": {"amenity": "school", "operator": "Bagurugu Upper Primary School"}}, {"type": "node", "id": 2515536692, "lat": 9.8908224, "lon": -0.7219281, "tags": {"amenity": "school", "operator": "Bagurugu Junior High School"}}, {"type": "node", "id": 2515537304, "lat": 9.8910074, "lon": -0.7222956, "tags": {"amenity": "school", "operator": "Bagurugu Lower Primary School"}}, {"type": "node", "id": 2515581081, "lat": 9.9377869, "lon": -0.5435279, "tags": {"amenity": "school", "name": "Sung School"}}, {"type": "node", "id": 2543526015, "lat": 9.8946858, "lon": -0.7195225, "tags": {"amenity": "school", "name": "Arabic School"}}, {"type": "node", "id": 4389724713, "lat": 9.9687372, "lon": -0.6448944}, {"type": "node", "id": 4389724714, "lat": 9.9684307, "lon": -0.6449628}, {"type": "node", "id": 4389724715, "lat": 9.968366, "lon": -0.6446182}, {"type": "node", "id": 4389724716, "lat": 9.968683, "lon": -0.6445592}, {"type": "node", "id": 4389724717, "lat": 9.9685047, "lon": -0.644594}, {"type": "node", "id": 9350121191, "lat": 9.9545231, "lon": -0.4416561}, {"type": "node", "id": 9350121192, "lat": 9.9565638, "lon": -0.441732}, {"type": "node", "id": 9350121193, "lat": 9.9566065, "lon": -0.4366119}, {"type": "node", "id": 9350121194, "lat": 9.9528403, "lon": -0.4365956}, {"type": "node", "id": 9350121195, "lat": 9.9526934, "lon": -0.4412384}, {"type": "way", "id": 441205771, "nodes": [4389724713, 4389724714, 4389724715, 4389724717, 4389724716, 4389724713], "tags": {"amenity": "school", "name": "Jacob's Private School"}}, {"type": "way", "id": 1013449981, "nodes": [9350121195, 9350121194, 9350121193, 9350121192, 9350121191, 9350121195], "tags": {"addr:country": "GH", "addr:district": "Karaga", "addr:place": "Karaga", "addr:region": "Northern", "amenity": "school", "description": "The school is located in the north east part of Karaga, the district capital in the northern region. Karaga is about 94km from tamale, the regional office.", "email": "karagashs@ges.gov.gh", "isced:level": "3", "name": "Karaga Senior High School", "operator": "Ghana Education Service", "operator:short": "GES", "operator:type": "public", "operator:wikidata": "Q30263788", "phone": "+233 24 662 1888;+233 24 288 6019", "start_date": "2006"}}]}