{"version": 0.6, "generator": "Overpass API 0.7.61.5 4133829e", "osm3s": {"timestamp_osm_base": "2024-03-05T14:46:30Z", "copyright": "The data included in this document is from www.openstreetmap.org. The data is made available under ODbL."}, "elements": [{"type": "node", "id": 801948608, "lat": 58.0615838, "lon": 11.7522663, "tags": {"amenity": "bank", "atm": "yes", "name": "Tj\u00f6rns sparbank", "operator": "Swedbank"}}, {"type": "node", "id": 821819023, "lat": 57.7973027, "lon": 12.0496077, "tags": {"amenity": "bank", "brand": "Nordea", "brand:wikidata": "Q1123823", "brand:wikipedia": "sv:Nordea", "name": "Nordea", "operator": "Nordea"}}, {"type": "node", "id": 1478230388, "lat": 57.9581208, "lon": 12.1227133}, {"type": "node", "id": 1478230397, "lat": 57.9582907, "lon": 12.1231898, "tags": {"amenity": "atm"}}, {"type": "node", "id": 1799615804, "lat": 57.7968825, "lon": 12.0506657, "tags": {"amenity": "bank", "brand": "Swedbank", "brand:wikidata": "Q1145493", "brand:wikipedia": "sv:Swedbank", "name": "Swedbank", "operator": "Swedbank"}}, {"type": "node", "id": 1987057112, "lat": 58.1426808, "lon": 11.8196694, "tags": {"amenity": "bank", "atm": "yes", "name": "Orust Sparbank", "opening_hours": "Mo-We,Fr 10:00-15:00; Th 10:00-18:00"}}, {"type": "node", "id": 2466637612, "lat": 57.8740953, "lon": 11.9742621, "tags": {"amenity": "bank", "atm": "yes", "brand": "SEB", "brand:wikidata": "Q975655", "brand:wikipedia": "sv:Skandinaviska Enskilda Banken", "check_date": "2023-06-05", "name": "SEB"}}, {"type": "node", "id": 2934361884, "lat": 58.125753, "lon": 11.71565, "tags": {"addr:city": "Varekil", "addr:country": "SE", "addr:housenumber": "1", "addr:postcode": "472 95", "addr:street": "Hedstr\u00f6ms v\u00e4g", "amenity": "bank", "atm": "yes", "name": "Orust Sparbank", "opening_hours": "Mo-Fr 09:30-15:00; Th 15:00-18:00", "website": "https://www.orustsparbank.se/"}}, {"type": "node", "id": 5052405325, "lat": 57.9864951, "lon": 11.5492071, "tags": {"amenity": "bank", "atm": "yes", "brand": "SEB", "brand:wikidata": "Q975655", "brand:wikipedia": "sv:Skandinaviska Enskilda Banken", "contact:website": "https://seb.se/kundservice/hitta-bankkontor/seb-i-skarhamn", "name": "SEB"}}, {"type": "node", "id": 5454330341, "lat": 57.9580752, "lon": 12.1231811}, {"type": "node", "id": 5454330342, "lat": 57.9581444, "lon": 12.1233751}, {"type": "node", "id": 5454330343, "lat": 57.9580229, "lon": 12.1228374}, {"type": "node", "id": 5454330344, "lat": 57.9581236, "lon": 12.1231198}, {"type": "node", "id": 8772259356, "lat": 57.8744325, "lon": 11.9668814, "tags": {"amenity": "bank", "branch": "Kung\u00e4lv", "brand": "Handelsbanken", "brand:wikidata": "Q1421630", "brand:wikipedia": "sv:Handelsbanken", "level": "3", "name": "Handelsbanken", "opening_hours": "Mo-Fr 10:00-15:00"}}, {"type": "node", "id": 10837906008, "lat": 57.8741759, "lon": 11.9670309, "tags": {"amenity": "bank", "brand": "Swedbank", "brand:wikidata": "Q1145493", "level": "3", "name": "Swedbank"}}, {"type": "node", "id": 10957476547, "lat": 57.8737288, "lon": 11.9777622, "tags": {"amenity": "bank", "check_date": "2023-06-05", "name": "Nordea"}}, {"type": "way", "id": 134459312, "nodes": [1478230388, 1478230397, 5454330342, 5454330341, 5454330344, 5454330343, 1478230388], "tags": {"addr:country": "SE", "addr:housenumber": "99B", "addr:street": "G\u00f6teborgsv\u00e4gen", "amenity": "bank", "atm": "yes", "brand": "Swedbank", "brand:wikidata": "Q1145493", "brand:wikipedia": "sv:Swedbank", "building": "yes", "name": "Swedbank"}}]}