{"version": 0.6, "generator": "Overpass API 0.7.61.5 4133829e", "osm3s": {"timestamp_osm_base": "2024-03-06T11:17:45Z", "copyright": "The data included in this document is from www.openstreetmap.org. The data is made available under ODbL."}, "elements": [{"type": "node", "id": 2480262803, "lat": 34.468278, "lon": 44.27638, "tags": {"alt_name": "\u0639\u0628\u062f \u0627\u0644\u0644\u0647 \u0627\u0644\u062d\u0645\u0627\u0631", "int_name": "Abd All\u0101h al \u1e28amm\u0101r, \u0639\u0628\u062f \u0627\u0644\u0644\u0647 \u0627\u0644\u062d\u0645\u0627\u0631, Abd Allah al Hammar, \u0639\u0628\u062f \u0627\u0644\u0644\u0647 \u0627\u0644\u062d\u0645\u0627\u0631", "name": "\u0639\u0628\u062f \u0627\u0644\u0644\u0647 \u0627\u0644\u062d\u0645\u0627\u0631", "name:ar": "\u062c\u062f\u064a\u062f\u0629", "name:ar1": "\u0639\u0628\u062f \u0627\u0644\u0644\u0647 \u0627\u0644\u062d\u0645\u0627\u0631", "name:de": "Abd Allah al Hammar", "name:en": "Jdidg", "name:fr": "Abd Allah al Hammar", "place": "village"}}, {"type": "node", "id": 2488443093, "lat": 34.626011, "lon": 44.14718, "tags": {"alt_name": "\u0639\u0631\u0628 \u0636\u0648\u064a\u062d\u064a \u0627\u0644\u0639\u0628\u0648", "int_name": "Arab \u1e10uway\u1e29\u012b al Ab\u016b, \u0639\u0631\u0628 \u0636\u0648\u064a\u062d\u064a \u0627\u0644\u0639\u0628\u0648, Arab Duwayhi al Abu, \u0639\u0631\u0628 \u0636\u0648\u064a\u062d\u064a \u0627\u0644\u0639\u0628\u0648", "name": "\u0639\u0631\u0628 \u0636\u0648\u064a\u062d\u064a \u0627\u0644\u0639\u0628\u0648", "name:ar": "\u0639\u0631\u0628 \u0636\u0648\u064a\u062d\u064a \u0627\u0644\u0639\u0628\u0648", "name:ar1": "\u0639\u0631\u0628 \u0636\u0648\u064a\u062d\u064a \u0627\u0644\u0639\u0628\u0648", "name:de": "Arab Duwayhi al Abu", "name:en": "Arab Duwayhi al Abu", "name:fr": "Arab Duwayhi al Abu", "place": "hamlet"}}, {"type": "node", "id": 2488443100, "lat": 34.584669, "lon": 44.168263, "tags": {"alt_name": "\u0639\u0631\u0628 \u0641\u062a\u0634 \u062e\u0644\u0641", "int_name": "Arab Fatash Khalaf, \u0639\u0631\u0628 \u0641\u062a\u0634 \u062e\u0644\u0641, Arab Fatash Khalaf, \u0639\u0631\u0628 \u0641\u062a\u0634 \u062e\u0644\u0641", "name": "\u0639\u0631\u0628 \u0641\u062a\u0634 \u062e\u0644\u0641", "name:ar": "\u0639\u0631\u0628 \u0641\u062a\u0634 \u062e\u0644\u0641", "name:ar1": "\u0639\u0631\u0628 \u0641\u062a\u0634 \u062e\u0644\u0641", "name:de": "Arab Fatash Khalaf", "name:en": "Arab Fatash Khalaf", "name:fr": "Arab Fatash Khalaf", "place": "hamlet"}}, {"type": "node", "id": 2488443110, "lat": 34.608116, "lon": 44.164944, "tags": {"alt_name": "\u0639\u0631\u0628 \u063a\u0632\u0627\u0644 \u0643\u0637\u0627\u0634", "int_name": "Arab Ghaz\u0101l Ka\u0163\u0101sh, \u0639\u0631\u0628 \u063a\u0632\u0627\u0644 \u06a9\u0637\u0627\u0634, Arab Ghazal Katash, \u0639\u0631\u0628 \u063a\u0632\u0627\u0644 \u06a9\u0637\u0627\u0634", "name": "\u0639\u0631\u0628 \u063a\u0632\u0627\u0644 \u0643\u0637\u0627\u0634", "name:ar": "\u0639\u0631\u0628 \u063a\u0632\u0627\u0644 \u0643\u0637\u0627\u0634", "name:ar1": "\u0639\u0631\u0628 \u063a\u0632\u0627\u0644 \u0643\u0637\u0627\u0634", "name:de": "Arab Ghazal Katash", "name:en": "Arab Ghazal Katash", "name:fr": "Arab Ghazal Katash", "place": "hamlet"}}, {"type": "node", "id": 2488443121, "lat": 34.610315, "lon": 44.107224, "tags": {"alt_name": "\u0639\u0631\u0628 \u0634\u0641\u0643 \u064a\u0648\u0646\u0633", "int_name": "Arab Shafak Y\u016bnis, \u0639\u0631\u0628 \u0634\u0641\u06a9 \u064a\u0648\u0646\u0633, Arab Shafak Yunis, \u0639\u0631\u0628 \u0634\u0641\u06a9 \u064a\u0648\u0646\u0633", "name": "\u0639\u0631\u0628 \u0634\u0641\u0643 \u064a\u0648\u0646\u0633", "name:ar": "\u0639\u0631\u0628 \u0634\u0641\u0643 \u064a\u0648\u0646\u0633", "name:ar1": "\u0639\u0631\u0628 \u0634\u0641\u0643 \u064a\u0648\u0646\u0633", "name:de": "Arab Shafak Yunis", "name:en": "Arab Shafak Yunis", "name:fr": "Arab Shafak Yunis", "place": "hamlet"}}, {"type": "node", "id": 2488443132, "lat": 34.588964, "lon": 44.016103, "tags": {"alt_name": "\u0639\u0637\u0627 \u062e\u0627\u0628\u0648\u0631", "int_name": "A\u0163\u0101 Kh\u0101b\u016br, \u0639\u0637\u0627 \u062e\u0627\u0628\u0648\u0631, Ata Khabur, \u0639\u0637\u0627 \u062e\u0627\u0628\u0648\u0631", "name": "\u0639\u0637\u0627 \u062e\u0627\u0628\u0648\u0631", "name:ar": "\u0639\u0637\u0627 \u062e\u0627\u0628\u0648\u0631", "name:ar1": "\u0639\u0637\u0627 \u062e\u0627\u0628\u0648\u0631", "name:de": "Ata Khabur", "name:en": "Ata Khabur", "name:fr": "Ata Khabur", "place": "village"}}, {"type": "node", "id": 2488443143, "lat": 34.599261, "lon": 44.16643, "tags": {"alt_name": "\u0639\u0648\u064a\u062f \u0645\u0633\u0644\u0637", "int_name": "Aw\u012bd Masla\u0163, \u0639\u0648\u064a\u062f \u0645\u0633\u0644\u0637, Awid Maslat, \u0639\u0648\u064a\u062f \u0645\u0633\u0644\u0637", "name": "\u0639\u0648\u064a\u062f \u0645\u0633\u0644\u0637", "name:ar": "\u0639\u0648\u064a\u062f \u0645\u0633\u0644\u0637", "name:ar1": "\u0639\u0648\u064a\u062f \u0645\u0633\u0644\u0637", "name:de": "Awid Maslat", "name:en": "Awid Maslat", "name:fr": "Awid Maslat", "place": "village"}}, {"type": "node", "id": 2488443151, "lat": 34.598343, "lon": 44.041876, "tags": {"alt_name": "\u0647\u0644\u064a\u0644 \u062c\u062f\u0639\u0627\u0646", "int_name": "Hal\u012bl Jad\u0101n, \u0647\u0644\u064a\u0644 \u062c\u062f\u0639\u0627\u0646, Halil Jadan, \u0647\u0644\u064a\u0644 \u062c\u062f\u0639\u0627\u0646", "name": "\u0647\u0644\u064a\u0644 \u062c\u062f\u0639\u0627\u0646", "name:ar": "\u0647\u0644\u064a\u0644 \u062c\u062f\u0639\u0627\u0646", "name:ar1": "\u0647\u0644\u064a\u0644 \u062c\u062f\u0639\u0627\u0646", "name:de": "Halil Jadan", "name:en": "Halil Jadan", "name:fr": "Halil Jadan", "place": "village"}}, {"type": "node", "id": 2488443163, "lat": 34.591521, "lon": 44.100617, "tags": {"alt_name": "\u0625\u0628\u0631\u0627\u0647\u064a\u0645 \u0639\u0628\u064a\u062f", "int_name": "Ibr\u0101h\u012bm Ubayd, \u0627\u0628\u0631\u0627\u0647\u064a\u0645 \u0639\u0628\u064a\u062f, Ibrahim Ubayd, \u0627\u0628\u0631\u0627\u0647\u064a\u0645 \u0639\u0628\u064a\u062f", "name": "\u0625\u0628\u0631\u0627\u0647\u064a\u0645 \u0639\u0628\u064a\u062f", "name:ar": "\u0625\u0628\u0631\u0627\u0647\u064a\u0645 \u0639\u0628\u064a\u062f", "name:ar1": "\u0625\u0628\u0631\u0627\u0647\u064a\u0645 \u0639\u0628\u064a\u062f", "name:de": "Ibrahim Ubayd", "name:en": "Ibrahim Ubayd", "name:fr": "Ibrahim Ubayd", "place": "village"}}, {"type": "node", "id": 2488443173, "lat": 34.608696, "lon": 44.17432, "tags": {"alt_name": "\u0643\u0631\u064a\u0645 \u0646\u062f\u0627", "int_name": "Kar\u012bm Nad\u0101, \u06a9\u0631\u064a\u0645 \u0646\u062f\u0627, Karim Nada, \u06a9\u0631\u064a\u0645 \u0646\u062f\u0627", "name": "\u0643\u0631\u064a\u0645 \u0646\u062f\u0627", "name:ar": "\u0643\u0631\u064a\u0645 \u0646\u062f\u0627", "name:ar1": "\u0643\u0631\u064a\u0645 \u0646\u062f\u0627", "name:de": "Karim Nada", "name:en": "Karim Nada", "name:fr": "Karim Nada", "place": "village"}}, {"type": "node", "id": 2488443182, "lat": 34.605629, "lon": 44.028758, "tags": {"alt_name": "\u062e\u0644\u064a\u0641 \u0645\u062c\u0645\u064a", "int_name": "Khal\u012bf Majam\u012b, \u062e\u0644\u064a\u0641 \u0645\u062c\u0645\u064a, Khalif Majami, \u062e\u0644\u064a\u0641 \u0645\u062c\u0645\u064a", "name": "\u062e\u0644\u064a\u0641 \u0645\u062c\u0645\u064a", "name:ar": "\u062e\u0644\u064a\u0641 \u0645\u062c\u0645\u064a", "name:ar1": "\u062e\u0644\u064a\u0641 \u0645\u062c\u0645\u064a", "name:de": "Khalif Majami", "name:en": "Khalif Majami", "name:fr": "Khalif Majami", "place": "village"}}, {"type": "node", "id": 2488443192, "lat": 34.614389, "lon": 44.058442, "tags": {"alt_name": "\u0635\u062e\u0648\u064a \u062c\u062f\u0648", "int_name": "\u015eakhw\u012b Jad\u016b, \u0635\u062e\u0648\u064a \u062c\u062f\u0648, Sakhwi Jadu, \u0635\u062e\u0648\u064a \u062c\u062f\u0648", "name": "\u0635\u062e\u0648\u064a \u062c\u062f\u0648", "name:ar": "\u0635\u062e\u0648\u064a \u062c\u062f\u0648", "name:ar1": "\u0635\u062e\u0648\u064a \u062c\u062f\u0648", "name:de": "Sakhwi Jadu", "name:en": "Sakhwi Jadu", "name:fr": "Sakhwi Jadu", "place": "village"}}, {"type": "node", "id": 2488443203, "lat": 34.598342, "lon": 44.051511, "tags": {"alt_name": "\u0637\u0639\u064a\u0633 \u0639\u0627\u064a\u062f", "int_name": "\u0162a\u012bs \u0100yad, \u0637\u0639\u064a\u0633 \u0639\u0627\u064a\u062f, Tais Ayad, \u0637\u0639\u064a\u0633 \u0639\u0627\u064a\u062f", "name": "\u0637\u0639\u064a\u0633 \u0639\u0627\u064a\u062f", "name:ar": "\u0637\u0639\u064a\u0633 \u0639\u0627\u064a\u062f", "name:ar1": "\u0637\u0639\u064a\u0633 \u0639\u0627\u064a\u062f", "name:de": "Tais Ayad", "name:en": "Tais Ayad", "name:fr": "Tais Ayad", "place": "village"}}, {"type": "node", "id": 2488444072, "lat": 34.581522, "lon": 44.372175, "tags": {"alt_name": "\u0639\u0631\u0628 \u0645\u0646\u064a\u0641 \u0634\u064a\u062e", "int_name": "Arab Munayf Shaykh, \u0639\u0631\u0628 \u0645\u0646\u064a\u0641 \u0634\u064a\u062e, Arab Munayf Shaykh, \u0639\u0631\u0628 \u0645\u0646\u064a\u0641 \u0634\u064a\u062e", "name": "\u0639\u0631\u0628 \u0645\u0646\u064a\u0641 \u0634\u064a\u062e", "name:ar": "\u0639\u0631\u0628 \u0645\u0646\u064a\u0641 \u0634\u064a\u062e", "name:ar1": "\u0639\u0631\u0628 \u0645\u0646\u064a\u0641 \u0634\u064a\u062e", "name:de": "Arab Munayf Shaykh", "name:en": "Arab Munayf Shaykh", "name:fr": "Arab Munayf Shaykh", "place": "hamlet"}}, {"type": "node", "id": 2488444078, "lat": 34.619553, "lon": 44.193965, "tags": {"alt_name": "\u0641\u0631\u062d\u0627\u0646 \u0639\u0627\u064a\u062f", "int_name": "Fir\u1e29\u0101n \u0100yad, \u0641\u0631\u062d\u0627\u0646 \u0639\u0627\u064a\u062f, Firhan Ayad, \u0641\u0631\u062d\u0627\u0646 \u0639\u0627\u064a\u062f", "name": "\u0641\u0631\u062d\u0627\u0646 \u0639\u0627\u064a\u062f", "name:ar": "\u0641\u0631\u062d\u0627\u0646 \u0639\u0627\u064a\u062f", "name:ar1": "\u0641\u0631\u062d\u0627\u0646 \u0639\u0627\u064a\u062f", "name:de": "Firhan Ayad", "name:en": "Firhan Ayad", "name:fr": "Firhan Ayad", "place": "village"}}, {"type": "node", "id": 2488444083, "lat": 34.515812, "lon": 44.205184, "tags": {"alt_name": "\u062d\u0645\u0627\u062f \u0645\u0637\u0647\u0631", "int_name": "\u1e28am\u0101d Mu\u0163ahr, \u062d\u0645\u0627\u062f \u0645\u0637\u0647\u0631, Hamad Mutahr, \u062d\u0645\u0627\u062f \u0645\u0637\u0647\u0631", "name": "\u062d\u0645\u0627\u062f \u0645\u0637\u0647\u0631", "name:ar": "\u062d\u0645\u0627\u062f \u0645\u0637\u0647\u0631", "name:ar1": "\u062d\u0645\u0627\u062f \u0645\u0637\u0647\u0631", "name:de": "Hamad Mutahr", "name:en": "Hamad Mutahr", "name:fr": "Hamad Mutahr", "place": "village"}}, {"type": "node", "id": 2488444089, "lat": 34.543162, "lon": 44.379441, "tags": {"alt_name": "\u0625\u0628\u0631\u0627\u0647\u064a\u0645 \u062d\u0633\u0646", "int_name": "Ibr\u0101h\u012bm \u1e28asan, \u0627\u0628\u0631\u0627\u0647\u064a\u0645 \u062d\u0633\u0646, Ibrahim Hasan, \u0627\u0628\u0631\u0627\u0647\u064a\u0645 \u062d\u0633\u0646", "name": "\u0625\u0628\u0631\u0627\u0647\u064a\u0645 \u062d\u0633\u0646", "name:ar": "\u0625\u0628\u0631\u0627\u0647\u064a\u0645 \u062d\u0633\u0646", "name:ar1": "\u0625\u0628\u0631\u0627\u0647\u064a\u0645 \u062d\u0633\u0646", "name:de": "Ibrahim Hasan", "name:en": "Ibrahim Hasan", "name:fr": "Ibrahim Hasan", "place": "village"}}, {"type": "node", "id": 2488444095, "lat": 34.544005, "lon": 44.368999, "tags": {"alt_name": "\u0646\u0627\u062d\u064a\u0629 \u062d\u0645\u0631\u064a\u0646", "int_name": "N\u0101\u1e29iyah \u1e28amr\u012bn, \u0646\u0627\u062d\u064a\u0629 \u062d\u0645\u0631\u064a\u0646, Nahiyah Hamrin, \u0646\u0627\u062d\u064a\u0629 \u062d\u0645\u0631\u064a\u0646", "name": "\u0646\u0627\u062d\u064a\u0629 \u062d\u0645\u0631\u064a\u0646", "name:ar": "\u0646\u0627\u062d\u064a\u0629 \u062d\u0645\u0631\u064a\u0646", "name:ar1": "\u0646\u0627\u062d\u064a\u0629 \u062d\u0645\u0631\u064a\u0646", "name:de": "Nahiyah Hamrin", "name:en": "Nahiyah Hamrin", "name:fr": "Nahiyah Hamrin", "place": "village"}}, {"type": "node", "id": 2488444102, "lat": 34.5425, "lon": 44.37, "tags": {"alt_name": "\u0642\u0631\u064a\u0629 \u0623\u062d\u0645\u062f \u0627\u0644\u0633\u0645\u064a\u0631", "int_name": "Qaryat A\u1e29mad as Sam\u012br, Qaryat Ahmad as Samir", "name": "\u0642\u0631\u064a\u0629 \u0623\u062d\u0645\u062f \u0627\u0644\u0633\u0645\u064a\u0631", "name:ar": "\u0642\u0631\u064a\u0629 \u0623\u062d\u0645\u062f \u0627\u0644\u0633\u0645\u064a\u0631", "name:ar1": "\u0642\u0631\u064a\u0629 \u0623\u062d\u0645\u062f \u0627\u0644\u0633\u0645\u064a\u0631", "name:de": "Qaryat Ahmad as Samir", "name:en": "Qaryat Ahmad as Samir", "name:fr": "Qaryat Ahmad as Samir", "place": "village"}}, {"type": "node", "id": 2488444108, "lat": 34.563039, "lon": 44.361462, "tags": {"alt_name": "\u0642\u0631\u064a\u0629 \u0639\u0643\u0644\u0629", "int_name": "Qaryat Aklah, \u0642\u0631\u064a\u0629 \u0639\u06a9\u0644\u0629, Qaryat Aklah, \u0642\u0631\u064a\u0629 \u0639\u06a9\u0644\u0629", "name": "\u0642\u0631\u064a\u0629 \u0639\u0643\u0644\u0629", "name:ar": "\u0642\u0631\u064a\u0629 \u0639\u0643\u0644\u0629", "name:ar1": "\u0642\u0631\u064a\u0629 \u0639\u0643\u0644\u0629", "name:de": "Qaryat Aklah", "name:en": "Qaryat Aklah", "name:fr": "Qaryat Aklah", "place": "village"}}, {"type": "node", "id": 2488444114, "lat": 34.476423, "lon": 44.364369, "tags": {"alt_name": "\u0642\u0631\u064a\u0629 \u0622\u0644 \u0628\u0648 \u0637\u0631\u0645\u064a\u0634", "int_name": "Qaryat Alb\u016b \u0162arm\u012bsh, \u0642\u0631\u064a\u0629 \u0627\u0644\u0628\u0648 \u0637\u0631\u0645\u064a\u0634, Qaryat Albu Tarmish, \u0642\u0631\u064a\u0629 \u0627\u0644\u0628\u0648 \u0637\u0631\u0645\u064a\u0634", "name": "\u0642\u0631\u064a\u0629 \u0622\u0644 \u0628\u0648 \u0637\u0631\u0645\u064a\u0634", "name:ar": "\u0642\u0631\u064a\u0629 \u0622\u0644 \u0628\u0648 \u0637\u0631\u0645\u064a\u0634", "name:ar1": "\u0642\u0631\u064a\u0629 \u0622\u0644 \u0628\u0648 \u0637\u0631\u0645\u064a\u0634", "name:de": "Qaryat Albu Tarmish", "name:en": "Qaryat Albu Tarmish", "name:fr": "Qaryat Albu Tarmish", "place": "village"}}, {"type": "node", "id": 2488444120, "lat": 34.563136, "lon": 44.38262, "tags": {"alt_name": "\u0642\u0631\u064a\u0629 \u0622\u0644 \u0628\u0648 \u0637\u0631\u064a\u0634", "int_name": "Qaryat \u0100lb\u016b \u0162uraysh, \u0642\u0631\u064a\u0629 \u0627\u0644\u0628\u0648 \u0637\u0631\u064a\u0634, Qaryat Albu Turaysh, \u0642\u0631\u064a\u0629 \u0627\u0644\u0628\u0648 \u0637\u0631\u064a\u0634", "name": "\u0642\u0631\u064a\u0629 \u0622\u0644 \u0628\u0648 \u0637\u0631\u064a\u0634", "name:ar": "\u0642\u0631\u064a\u0629 \u0622\u0644 \u0628\u0648 \u0637\u0631\u064a\u0634", "name:ar1": "\u0642\u0631\u064a\u0629 \u0622\u0644 \u0628\u0648 \u0637\u0631\u064a\u0634", "name:de": "Qaryat Albu Turaysh", "name:en": "Qaryat Albu Turaysh", "name:fr": "Qaryat Albu Turaysh", "place": "village"}}, {"type": "node", "id": 2488444125, "lat": 34.582673, "lon": 44.353451, "tags": {"alt_name": "\u0642\u0631\u064a\u0629 \u062c\u062f\u064a\u062f\u0629", "int_name": "Qaryat Jad\u012bdah, \u0642\u0631\u064a\u0629 \u062c\u062f\u064a\u062f\u0629, Qaryat Jadidah, \u0642\u0631\u064a\u0629 \u062c\u062f\u064a\u062f\u0629", "name": "\u0642\u0631\u064a\u0629 \u062c\u062f\u064a\u062f\u0629", "name:ar": "\u0642\u0631\u064a\u0629 \u062c\u062f\u064a\u062f\u0629", "name:ar1": "\u0642\u0631\u064a\u0629 \u062c\u062f\u064a\u062f\u0629", "name:de": "Qaryat Jadidah", "name:en": "Qaryat Jadidah", "name:fr": "Qaryat Jadidah", "place": "village"}}, {"type": "node", "id": 2488444131, "lat": 34.565296, "lon": 44.372875, "tags": {"alt_name": "\u0642\u0631\u064a\u0629 \u0627\u0644\u0637\u0631\u064a\u0634\u0629", "int_name": "Qaryat a\u0163 \u0162urayshah, \u0642\u0631\u064a\u0629 \u0627\u0644\u0637\u0631\u064a\u0634\u0629, Qaryat at Turayshah, \u0642\u0631\u064a\u0629 \u0627\u0644\u0637\u0631\u064a\u0634\u0629", "name": "\u0642\u0631\u064a\u0629 \u0627\u0644\u0637\u0631\u064a\u0634\u0629", "name:ar": "\u0642\u0631\u064a\u0629 \u0627\u0644\u0637\u0631\u064a\u0634\u0629", "name:ar1": "\u0642\u0631\u064a\u0629 \u0627\u0644\u0637\u0631\u064a\u0634\u0629", "name:de": "Qaryat at Turayshah", "name:en": "Qaryat at Turayshah", "name:fr": "Qaryat at Turayshah", "place": "village"}}, {"type": "node", "id": 2488444137, "lat": 34.583877, "lon": 44.364653, "tags": {"alt_name": "\u0633\u0644\u064a\u0645\u0627\u0646 \u0641\u0627\u0636\u0644", "int_name": "Sulaym\u0101n F\u0101\u1e11il, \u0633\u0644\u064a\u0645\u0627\u0646 \u0641\u0627\u0636\u0644, Sulayman Fadil, \u0633\u0644\u064a\u0645\u0627\u0646 \u0641\u0627\u0636\u0644", "name": "\u0633\u0644\u064a\u0645\u0627\u0646 \u0641\u0627\u0636\u0644", "name:ar": "\u0633\u0644\u064a\u0645\u0627\u0646 \u0641\u0627\u0636\u0644", "name:ar1": "\u0633\u0644\u064a\u0645\u0627\u0646 \u0641\u0627\u0636\u0644", "name:de": "Sulayman Fadil", "name:en": "Sulayman Fadil", "name:fr": "Sulayman Fadil", "place": "village"}}, {"type": "node", "id": 2488450055, "lat": 34.5418619, "lon": 44.4945708, "tags": {"alt_name": "\u0622\u0644 \u0628\u0648 \u0637\u0644\u062d\u0629", "int_name": "Alb\u016b \u0162al\u1e29ah, Albu Talhah", "name": "\u0622\u0644 \u0628\u0648 \u0637\u0644\u062d\u0629", "name:ar": "\u0622\u0644 \u0628\u0648 \u0637\u0644\u062d\u0629", "name:ar1": "\u0622\u0644 \u0628\u0648 \u0637\u0644\u062d\u0629", "name:de": "Albu Talhah", "name:en": "Albu Talhah", "name:fr": "Albu Talhah", "place": "village"}}, {"type": "node", "id": 2488450099, "lat": 34.541632, "lon": 44.4948499, "tags": {"alt_name": "\u0642\u0631\u064a\u0629 \u0622\u0644 \u0628\u0648 \u0637\u0644\u062d\u0629", "int_name": "Qaryat \u0100lb\u016b \u0162al\u1e29ah, \u0642\u0631\u064a\u0629 \u0627\u0644\u0628\u0648 \u0637\u0644\u062d\u0629, Qaryat Albu Talhah, \u0642\u0631\u064a\u0629 \u0627\u0644\u0628\u0648 \u0637\u0644\u062d\u0629", "name": "\u0642\u0631\u064a\u0629 \u0622\u0644 \u0628\u0648 \u0637\u0644\u062d\u0629", "name:ar": "\u0642\u0631\u064a\u0629 \u0622\u0644 \u0628\u0648 \u0637\u0644\u062d\u0629", "name:ar1": "\u0642\u0631\u064a\u0629 \u0622\u0644 \u0628\u0648 \u0637\u0644\u062d\u0629", "name:de": "Qaryat Albu Talhah", "name:en": "Qaryat Albu Talhah", "name:fr": "Qaryat Albu Talhah", "place": "village"}}, {"type": "node", "id": 2488450104, "lat": 34.5421502, "lon": 44.4946594, "tags": {"alt_name": "\u0642\u0631\u064a\u0629 \u0622\u0644 \u0628\u0648 \u0637\u0627\u0644\u062d\u0629", "int_name": "Qaryat Alb\u016b \u0162\u0101l\u1e29ah, Qaryat Albu Talhah", "name": "\u0642\u0631\u064a\u0629 \u0622\u0644 \u0628\u0648 \u0637\u0627\u0644\u062d\u0629", "name:ar": "\u0642\u0631\u064a\u0629 \u0622\u0644 \u0628\u0648 \u0637\u0627\u0644\u062d\u0629", "name:ar1": "\u0642\u0631\u064a\u0629 \u0622\u0644 \u0628\u0648 \u0637\u0627\u0644\u062d\u0629", "name:de": "Qaryat Albu Talhah", "name:en": "Qaryat Albu Talhah", "name:fr": "Qaryat Albu Talhah", "place": "village"}}, {"type": "node", "id": 2488450114, "lat": 34.535906, "lon": 44.491142, "tags": {"alt_name": "\u0642\u0631\u064a\u0629 \u0627\u0644\u0643\u0632\u0627\u0643\u0632\u0629", "int_name": "Qaryat al Kaz\u0101kazah, \u0642\u0631\u064a\u0629 \u0627\u0644\u06a9\u0632\u0627\u06a9\u0632\u0647, Qaryat al Kazakazah, \u0642\u0631\u064a\u0629 \u0627\u0644\u06a9\u0632\u0627\u06a9\u0632\u0647", "name": "\u0642\u0631\u064a\u0629 \u0627\u0644\u0643\u0632\u0627\u0643\u0632\u0629", "name:ar": "\u0642\u0631\u064a\u0629 \u0627\u0644\u0643\u0632\u0627\u0643\u0632\u0629", "name:ar1": "\u0642\u0631\u064a\u0629 \u0627\u0644\u0643\u0632\u0627\u0643\u0632\u0629", "name:de": "Qaryat al Kazakazah", "name:en": "Qaryat al Kazakazah", "name:fr": "Qaryat al Kazakazah", "place": "village"}}, {"type": "node", "id": 2488452141, "lat": 34.563766, "lon": 44.45331, "tags": {"alt_name": "\u0639\u0631\u0628 \u0639\u0628\u062f \u0627\u0644\u063a\u0641\u0648\u0631 \u062e\u0644\u0641", "int_name": "Arab Abd al Ghaf\u016br Khalaf, \u0639\u0631\u0628 \u0639\u0628\u062f \u0627\u0644\u063a\u0641\u0648\u0631 \u062e\u0644\u0641, Arab Abd al Ghafur Khalaf, \u0639\u0631\u0628 \u0639\u0628\u062f \u0627\u0644\u063a\u0641\u0648\u0631 \u062e\u0644\u0641", "name": "\u0639\u0631\u0628 \u0639\u0628\u062f \u0627\u0644\u063a\u0641\u0648\u0631 \u062e\u0644\u0641", "name:ar": "\u0639\u0631\u0628 \u0639\u0628\u062f \u0627\u0644\u063a\u0641\u0648\u0631 \u062e\u0644\u0641", "name:ar1": "\u0639\u0631\u0628 \u0639\u0628\u062f \u0627\u0644\u063a\u0641\u0648\u0631 \u062e\u0644\u0641", "name:de": "Arab Abd al Ghafur Khalaf", "name:en": "Arab Abd al Ghafur Khalaf", "name:fr": "Arab Abd al Ghafur Khalaf", "place": "hamlet"}}, {"type": "node", "id": 2488455211, "lat": 34.431549, "lon": 44.513558, "tags": {"alt_name": "\u0623\u0628\u0648 \u0628\u0643\u0631", "int_name": "Ab\u016b Bakr, \u0627\u0628\u0648 \u0628\u06a9\u0631, Abu Bakr, \u0627\u0628\u0648 \u0628\u06a9\u0631", "name": "\u0623\u0628\u0648 \u0628\u0643\u0631", "name:ar": "\u0623\u0628\u0648 \u0628\u0643\u0631", "name:ar1": "\u0623\u0628\u0648 \u0628\u0643\u0631", "name:de": "Abu Bakr", "name:en": "Abu Bakr", "name:fr": "Abu Bakr", "place": "village"}}, {"type": "node", "id": 2488455222, "lat": 34.390853, "lon": 44.511409, "tags": {"alt_name": "\u0627\u0644\u0623\u062d\u0645\u0648\u062f\u064a\u0629", "int_name": "Al A\u1e29m\u016bd\u012byah, \u0627\u0644\u0623\u062d\u0645\u0648\u062f\u064a\u0629, Al Ahmudiyah, \u0627\u0644\u0623\u062d\u0645\u0648\u062f\u064a\u0629", "name": "\u0627\u0644\u0623\u062d\u0645\u0648\u062f\u064a\u0629", "name:ar": "\u0627\u0644\u0623\u062d\u0645\u0648\u062f\u064a\u0629", "name:ar1": "\u0627\u0644\u0623\u062d\u0645\u0648\u062f\u064a\u0629", "name:de": "Al Ahmudiyah", "name:en": "Al Ahmudiyah", "name:fr": "Al Ahmudiyah", "place": "village"}}, {"type": "node", "id": 2488455227, "lat": 34.45514, "lon": 44.388517, "tags": {"alt_name": "\u0639\u0631\u0628 \u0623\u062d\u0645\u062f \u0627\u0644\u062d\u0627\u0648\u064a", "int_name": "Arab A\u1e29mad al \u1e28\u0101w\u012b, \u0639\u0631\u0628 \u0627\u062d\u0645\u062f \u0627\u0644\u062d\u0627\u0648\u064a, Arab Ahmad al Hawi, \u0639\u0631\u0628 \u0627\u062d\u0645\u062f \u0627\u0644\u062d\u0627\u0648\u064a", "name": "\u0639\u0631\u0628 \u0623\u062d\u0645\u062f \u0627\u0644\u062d\u0627\u0648\u064a", "name:ar": "\u0639\u0631\u0628 \u0623\u062d\u0645\u062f \u0627\u0644\u062d\u0627\u0648\u064a", "name:ar1": "\u0639\u0631\u0628 \u0623\u062d\u0645\u062f \u0627\u0644\u062d\u0627\u0648\u064a", "name:de": "Arab Ahmad al Hawi", "name:en": "Arab Ahmad al Hawi", "name:fr": "Arab Ahmad al Hawi", "place": "village"}}, {"type": "node", "id": 2488455232, "lat": 34.351066, "lon": 44.415331, "tags": {"alt_name": "\u0639\u0631\u0628 \u062d\u0645\u064a\u062f \u0627\u0644\u0623\u062d\u0645\u062f", "int_name": "Arab \u1e28am\u012bd al A\u1e29mad, \u0639\u0631\u0628 \u062d\u0645\u064a\u062f \u0627\u0644\u0627\u062d\u0645\u062f, Arab Hamid al Ahmad, \u0639\u0631\u0628 \u062d\u0645\u064a\u062f \u0627\u0644\u0627\u062d\u0645\u062f", "name": "\u0639\u0631\u0628 \u062d\u0645\u064a\u062f \u0627\u0644\u0623\u062d\u0645\u062f", "name:ar": "\u0639\u0631\u0628 \u062d\u0645\u064a\u062f \u0627\u0644\u0623\u062d\u0645\u062f", "name:ar1": "\u0639\u0631\u0628 \u062d\u0645\u064a\u062f \u0627\u0644\u0623\u062d\u0645\u062f", "name:de": "Arab Hamid al Ahmad", "name:en": "Arab Hamid al Ahmad", "name:fr": "Arab Hamid al Ahmad", "place": "village"}}, {"type": "node", "id": 2488455248, "lat": 34.456118, "lon": 44.433132, "tags": {"alt_name": "\u0639\u0631\u0628 \u062e\u0644\u0641 \u0646\u0633\u0646\u064a\u0633", "int_name": "Arab Khalaf Nasn\u012bs, \u0639\u0631\u0628 \u062e\u0644\u0641 \u0646\u0633\u0646\u064a\u0633, Arab Khalaf Nasnis, \u0639\u0631\u0628 \u062e\u0644\u0641 \u0646\u0633\u0646\u064a\u0633", "name": "\u0639\u0631\u0628 \u062e\u0644\u0641 \u0646\u0633\u0646\u064a\u0633", "name:ar": "\u0639\u0631\u0628 \u062e\u0644\u0641 \u0646\u0633\u0646\u064a\u0633", "name:ar1": "\u0639\u0631\u0628 \u062e\u0644\u0641 \u0646\u0633\u0646\u064a\u0633", "name:de": "Arab Khalaf Nasnis", "name:en": "Arab Khalaf Nasnis", "name:fr": "Arab Khalaf Nasnis", "place": "village"}}, {"type": "node", "id": 2488455251, "lat": 34.4422503, "lon": 44.443706, "tags": {"alt_name": "\u0639\u0631\u0628 \u062e\u0644\u0641 \u0627\u0644\u0623\u0633\u0648\u062f", "int_name": "Arab Khalaf al Aswad, Arab Khalaf al Aswad", "name": "\u0639\u0631\u0628 \u062e\u0644\u0641 \u0627\u0644\u0623\u0633\u0648\u062f", "name:ar": "\u0639\u0631\u0628 \u062e\u0644\u0641 \u0627\u0644\u0623\u0633\u0648\u062f", "name:ar1": "\u0639\u0631\u0628 \u062e\u0644\u0641 \u0627\u0644\u0623\u0633\u0648\u062f", "name:de": "Arab Khalaf al Aswad", "name:en": "Arab Khalaf al Aswad", "name:fr": "Arab Khalaf al Aswad", "place": "village"}}, {"type": "node", "id": 2488455252, "lat": 34.443057, "lon": 44.357925, "tags": {"alt_name": "\u0639\u0631\u0628 \u0645\u062d\u0645\u062f \u0627\u0644\u062d\u0633\u0627\u0646", "int_name": "Arab Mu\u1e29ammad al \u1e28ass\u0101n, \u0639\u0631\u0628 \u0645\u062d\u0645\u062f \u0627\u0644\u062d\u0633\u0627\u0646, Arab Muhammad al Hassan, \u0639\u0631\u0628 \u0645\u062d\u0645\u062f \u0627\u0644\u062d\u0633\u0627\u0646", "name": "\u0639\u0631\u0628 \u0645\u062d\u0645\u062f \u0627\u0644\u062d\u0633\u0627\u0646", "name:ar": "\u0639\u0631\u0628 \u0645\u062d\u0645\u062f \u0627\u0644\u062d\u0633\u0627\u0646", "name:ar1": "\u0639\u0631\u0628 \u0645\u062d\u0645\u062f \u0627\u0644\u062d\u0633\u0627\u0646", "name:de": "Arab Muhammad al Hassan", "name:en": "Arab Muhammad al Hassan", "name:fr": "Arab Muhammad al Hassan", "place": "village"}}, {"type": "node", "id": 2488455253, "lat": 34.432802, "lon": 44.413188, "tags": {"alt_name": "\u0639\u0631\u0628 \u0645\u0635\u0644\u062d \u0627\u0644\u062d\u0648\u0633\u0627\u0646", "int_name": "Arab Mu\u015fli\u1e29 al \u1e28aws\u0101n, \u0639\u0631\u0628 \u0645\u0635\u0644\u062d \u0627\u0644\u062d\u0648\u0633\u0627\u0646, Arab Muslih al Hawsan, \u0639\u0631\u0628 \u0645\u0635\u0644\u062d \u0627\u0644\u062d\u0648\u0633\u0627\u0646", "name": "\u0639\u0631\u0628 \u0645\u0635\u0644\u062d \u0627\u0644\u062d\u0648\u0633\u0627\u0646", "name:ar": "\u0639\u0631\u0628 \u0645\u0635\u0644\u062d \u0627\u0644\u062d\u0648\u0633\u0627\u0646", "name:ar1": "\u0639\u0631\u0628 \u0645\u0635\u0644\u062d \u0627\u0644\u062d\u0648\u0633\u0627\u0646", "name:de": "Arab Muslih al Hawsan", "name:en": "Arab Muslih al Hawsan", "name:fr": "Arab Muslih al Hawsan", "place": "village"}}, {"type": "node", "id": 2488455255, "lat": 34.453653, "lon": 44.412535, "tags": {"alt_name": "\u0639\u0631\u0628 \u062a\u0648\u064a\u0631\u0627\u0646 \u0645\u062f\u0646", "int_name": "Arab Tuwayr\u0101n Madan, \u0639\u0631\u0628 \u062a\u0648\u064a\u0631\u0627\u0646 \u0645\u062f\u0646, Arab Tuwayran Madan, \u0639\u0631\u0628 \u062a\u0648\u064a\u0631\u0627\u0646 \u0645\u062f\u0646", "name": "\u0639\u0631\u0628 \u062a\u0648\u064a\u0631\u0627\u0646 \u0645\u062f\u0646", "name:ar": "\u0639\u0631\u0628 \u062a\u0648\u064a\u0631\u0627\u0646 \u0645\u062f\u0646", "name:ar1": "\u0639\u0631\u0628 \u062a\u0648\u064a\u0631\u0627\u0646 \u0645\u062f\u0646", "name:de": "Arab Tuwayran Madan", "name:en": "Arab Tuwayran Madan", "name:fr": "Arab Tuwayran Madan", "place": "village"}}, {"type": "node", "id": 2488455256, "lat": 34.469003, "lon": 44.504192, "tags": {"alt_name": "\u0628\u062f\u0648\u064a \u0627\u0644\u0639\u0644\u064a", "int_name": "Badw\u012b al Al\u012b, \u0628\u062f\u0648\u064a \u0627\u0644\u0639\u0644\u064a, Badwi al Ali, \u0628\u062f\u0648\u064a \u0627\u0644\u0639\u0644\u064a", "name": "\u0628\u062f\u0648\u064a \u0627\u0644\u0639\u0644\u064a", "name:ar": "\u0628\u062f\u0648\u064a \u0627\u0644\u0639\u0644\u064a", "name:ar1": "\u0628\u062f\u0648\u064a \u0627\u0644\u0639\u0644\u064a", "name:de": "Badwi al Ali", "name:en": "Badwi al Ali", "name:fr": "Badwi al Ali", "place": "village"}}, {"type": "node", "id": 2488455257, "lat": 34.383333, "lon": 44.5, "tags": {"alt_name": "\u062f\u0647\u0644\u0648\u062c", "int_name": "Dahl\u016bj, Dahluj", "name": "\u062f\u0647\u0644\u0648\u062c", "name:ar": "\u062f\u0647\u0644\u0648\u062c", "name:ar1": "\u062f\u0647\u0644\u0648\u062c", "name:de": "Dahluj", "name:en": "Dahluj", "name:fr": "Dahluj", "place": "village"}}, {"type": "node", "id": 2488455258, "lat": 34.408239, "lon": 44.508826, "tags": {"alt_name": "\u062c\u0627\u0633\u0645 \u0627\u0644\u062d\u0645\u064a\u062f", "int_name": "J\u0101sim al \u1e28umayd, \u062c\u0627\u0633\u0645 \u0627\u0644\u062d\u0645\u064a\u062f, Jasim al Humayd, \u062c\u0627\u0633\u0645 \u0627\u0644\u062d\u0645\u064a\u062f", "name": "\u062c\u0627\u0633\u0645 \u0627\u0644\u062d\u0645\u064a\u062f", "name:ar": "\u062c\u0627\u0633\u0645 \u0627\u0644\u062d\u0645\u064a\u062f", "name:ar1": "\u062c\u0627\u0633\u0645 \u0627\u0644\u062d\u0645\u064a\u062f", "name:de": "Jasim al Humayd", "name:en": "Jasim al Humayd", "name:fr": "Jasim al Humayd", "place": "village"}}, {"type": "node", "id": 2488455267, "lat": 34.416868, "lon": 44.442836, "tags": {"alt_name": "\u0642\u0631\u064a\u0629 \u0645\u0628\u0627\u0631\u0643 \u0627\u0644\u062d\u0645\u062f", "int_name": "Qaryat Mub\u0101rak al \u1e28amad, \u0642\u0631\u064a\u0629 \u0645\u0628\u0627\u0631\u0643 \u0627\u0644\u062d\u0645\u062f, Qaryat Mubarak al Hamad, \u0642\u0631\u064a\u0629 \u0645\u0628\u0627\u0631\u0643 \u0627\u0644\u062d\u0645\u062f", "name": "\u0642\u0631\u064a\u0629 \u0645\u0628\u0627\u0631\u0643 \u0627\u0644\u062d\u0645\u062f", "name:ar": "\u0642\u0631\u064a\u0629 \u0645\u0628\u0627\u0631\u0643 \u0627\u0644\u062d\u0645\u062f", "name:ar1": "\u0642\u0631\u064a\u0629 \u0645\u0628\u0627\u0631\u0643 \u0627\u0644\u062d\u0645\u062f", "name:de": "Qaryat Mubarak al Hamad", "name:en": "Qaryat Mubarak al Hamad", "name:fr": "Qaryat Mubarak al Hamad", "place": "village"}}, {"type": "node", "id": 2488455273, "lat": 34.465639, "lon": 44.48104, "tags": {"alt_name": "\u0642\u0631\u064a\u0629 \u0642\u0644\u0639\u0629 \u0627\u0644\u0639\u0638\u064a\u0645", "int_name": "Qaryat Qalat al Az\u0327\u012bm, \u0642\u0631\u064a\u0629 \u0642\u0644\u0639\u0629 \u0627\u0644\u0639\u0638\u064a\u0645, Qaryat Qalat al Azim, \u0642\u0631\u064a\u0629 \u0642\u0644\u0639\u0629 \u0627\u0644\u0639\u0638\u064a\u0645", "name": "\u0642\u0631\u064a\u0629 \u0642\u0644\u0639\u0629 \u0627\u0644\u0639\u0638\u064a\u0645", "name:ar": "\u0642\u0631\u064a\u0629 \u0642\u0644\u0639\u0629 \u0627\u0644\u0639\u0638\u064a\u0645", "name:ar1": "\u0642\u0631\u064a\u0629 \u0642\u0644\u0639\u0629 \u0627\u0644\u0639\u0638\u064a\u0645", "name:de": "Qaryat Qalat al Azim", "name:en": "Qaryat Qalat al Azim", "name:fr": "Qaryat Qalat al Azim", "place": "village"}}, {"type": "node", "id": 2488455278, "lat": 34.372007, "lon": 44.484555, "tags": {"alt_name": "\u0642\u0631\u064a\u0629 \u0637\u0627\u0644\u0639\u0629 \u0627\u0644\u062d\u0645\u0648\u062f", "int_name": "Qaryat \u0162\u0101liah al \u1e28amm\u016bd, \u0642\u0631\u064a\u0629 \u0637\u0627\u0644\u0639\u0647 \u062d\u0645\u0648\u062f, Qaryat Taliah al Hammud, \u0642\u0631\u064a\u0629 \u0637\u0627\u0644\u0639\u0647 \u062d\u0645\u0648\u062f", "name": "\u0642\u0631\u064a\u0629 \u0637\u0627\u0644\u0639\u0629 \u0627\u0644\u062d\u0645\u0648\u062f", "name:ar": "\u0642\u0631\u064a\u0629 \u0637\u0627\u0644\u0639\u0629 \u0627\u0644\u062d\u0645\u0648\u062f", "name:ar1": "\u0642\u0631\u064a\u0629 \u0637\u0627\u0644\u0639\u0629 \u0627\u0644\u062d\u0645\u0648\u062f", "name:de": "Qaryat Taliah al Hammud", "name:en": "Qaryat Taliah al Hammud", "name:fr": "Qaryat Taliah al Hammud", "place": "village"}}, {"type": "node", "id": 2488455284, "lat": 34.358053, "lon": 44.410131, "tags": {"alt_name": "\u0642\u0631\u064a\u0629 \u0623\u0645 \u062a\u0644\u064a\u0644", "int_name": "Qaryat Umm Tal\u012bl, \u0642\u0631\u064a\u0629 \u0627\u0645 \u062a\u0644\u064a\u0644, Qaryat Umm Talil, \u0642\u0631\u064a\u0629 \u0627\u0645 \u062a\u0644\u064a\u0644", "name": "\u0642\u0631\u064a\u0629 \u0623\u0645 \u062a\u0644\u064a\u0644", "name:ar": "\u0642\u0631\u064a\u0629 \u0623\u0645 \u062a\u0644\u064a\u0644", "name:ar1": "\u0642\u0631\u064a\u0629 \u0623\u0645 \u062a\u0644\u064a\u0644", "name:de": "Qaryat Umm Talil", "name:en": "Qaryat Umm Talil", "name:fr": "Qaryat Umm Talil", "place": "village"}}, {"type": "node", "id": 2488455290, "lat": 34.448655, "lon": 44.433812, "tags": {"alt_name": "\u0642\u0631\u064a\u0629 \u0639\u0634\u064a\u0629 \u0627\u0644\u0625\u0645\u0627\u0645", "int_name": "Qaryat Ush\u012byat al Im\u0101m, \u0642\u0631\u064a\u0629 \u0639\u0634\u064a\u0629 \u0627\u0644\u0627\u0645\u0627\u0645, Qaryat Ushiyat al Imam, \u0642\u0631\u064a\u0629 \u0639\u0634\u064a\u0629 \u0627\u0644\u0627\u0645\u0627\u0645", "name": "\u0642\u0631\u064a\u0629 \u0639\u0634\u064a\u0629 \u0627\u0644\u0625\u0645\u0627\u0645", "name:ar": "\u0642\u0631\u064a\u0629 \u0639\u0634\u064a\u0629 \u0627\u0644\u0625\u0645\u0627\u0645", "name:ar1": "\u0642\u0631\u064a\u0629 \u0639\u0634\u064a\u0629 \u0627\u0644\u0625\u0645\u0627\u0645", "name:de": "Qaryat Ushiyat al Imam", "name:en": "Qaryat Ushiyat al Imam", "name:fr": "Qaryat Ushiyat al Imam", "place": "village"}}, {"type": "node", "id": 2488455296, "lat": 34.469522, "lon": 44.494272, "tags": {"alt_name": "\u0642\u0631\u064a\u0629 \u0627\u0644\u0628\u0637\u0627\u0637\u0634\u0629", "int_name": "Qaryat al Ba\u0163\u0101\u0163ishah, \u0642\u0631\u064a\u0629 \u0627\u0644\u0628\u0637\u0627\u0637\u0634\u0647, Qaryat al Batatishah, \u0642\u0631\u064a\u0629 \u0627\u0644\u0628\u0637\u0627\u0637\u0634\u0647", "name": "\u0642\u0631\u064a\u0629 \u0627\u0644\u0628\u0637\u0627\u0637\u0634\u0629", "name:ar": "\u0642\u0631\u064a\u0629 \u0627\u0644\u0628\u0637\u0627\u0637\u0634\u0629", "name:ar1": "\u0642\u0631\u064a\u0629 \u0627\u0644\u0628\u0637\u0627\u0637\u0634\u0629", "name:de": "Qaryat al Batatishah", "name:en": "Qaryat al Batatishah", "name:fr": "Qaryat al Batatishah", "place": "village"}}, {"type": "node", "id": 2488455301, "lat": 34.333946, "lon": 44.440548, "tags": {"alt_name": "\u0642\u0631\u064a\u0629 \u0627\u0644\u062e\u064a\u0637", "int_name": "Qaryat al Khay\u0163, \u0642\u0631\u064a\u0629 \u0627\u0644\u062e\u064a\u0637, Qaryat al Khayt, \u0642\u0631\u064a\u0629 \u0627\u0644\u062e\u064a\u0637", "name": "\u0642\u0631\u064a\u0629 \u0627\u0644\u062e\u064a\u0637", "name:ar": "\u0642\u0631\u064a\u0629 \u0627\u0644\u062e\u064a\u0637", "name:ar1": "\u0642\u0631\u064a\u0629 \u0627\u0644\u062e\u064a\u0637", "name:de": "Qaryat al Khayt", "name:en": "Qaryat al Khayt", "name:fr": "Qaryat al Khayt", "place": "village"}}, {"type": "node", "id": 2488455305, "lat": 34.438075, "lon": 44.422797, "tags": {"alt_name": "\u0642\u0631\u064a\u0629 \u0627\u0644\u0645\u0648\u064a\u0644\u062d\u0627\u062a", "int_name": "Qaryat al Muwayli\u1e29\u0101t, \u0642\u0631\u064a\u0629 \u0627\u0644\u0645\u0648\u064a\u0644\u062d\u0627\u062a, Qaryat al Muwaylihat, \u0642\u0631\u064a\u0629 \u0627\u0644\u0645\u0648\u064a\u0644\u062d\u0627\u062a", "name": "\u0642\u0631\u064a\u0629 \u0627\u0644\u0645\u0648\u064a\u0644\u062d\u0627\u062a", "name:ar": "\u0642\u0631\u064a\u0629 \u0627\u0644\u0645\u0648\u064a\u0644\u062d\u0627\u062a", "name:ar1": "\u0642\u0631\u064a\u0629 \u0627\u0644\u0645\u0648\u064a\u0644\u062d\u0627\u062a", "name:de": "Qaryat al Muwaylihat", "name:en": "Qaryat al Muwaylihat", "name:fr": "Qaryat al Muwaylihat", "place": "village"}}, {"type": "node", "id": 2488455310, "lat": 34.453205, "lon": 44.481818, "tags": {"alt_name": "\u0642\u0631\u064a\u0629 \u0627\u0644\u0642\u0644\u0639\u0629", "int_name": "Qaryat al Qalah, \u0642\u0631\u064a\u0629 \u0627\u0644\u0642\u0644\u0639\u0647, Qaryat al Qalah, \u0642\u0631\u064a\u0629 \u0627\u0644\u0642\u0644\u0639\u0647", "name": "\u0642\u0631\u064a\u0629 \u0627\u0644\u0642\u0644\u0639\u0629", "name:ar": "\u0642\u0631\u064a\u0629 \u0627\u0644\u0642\u0644\u0639\u0629", "name:ar1": "\u0642\u0631\u064a\u0629 \u0627\u0644\u0642\u0644\u0639\u0629", "name:de": "Qaryat al Qalah", "name:en": "Qaryat al Qalah", "name:fr": "Qaryat al Qalah", "place": "village"}}, {"type": "node", "id": 2488455315, "lat": 34.345037, "lon": 44.46786, "tags": {"alt_name": "\u0642\u0631\u064a\u0629 \u0627\u0644\u0631\u0645\u0644", "int_name": "Qaryat ar Raml, \u0642\u0631\u064a\u0629 \u0627\u0644\u0631\u0645\u0644, Qaryat ar Raml, \u0642\u0631\u064a\u0629 \u0627\u0644\u0631\u0645\u0644", "name": "\u0642\u0631\u064a\u0629 \u0627\u0644\u0631\u0645\u0644", "name:ar": "\u0642\u0631\u064a\u0629 \u0627\u0644\u0631\u0645\u0644", "name:ar1": "\u0642\u0631\u064a\u0629 \u0627\u0644\u0631\u0645\u0644", "name:de": "Qaryat ar Raml", "name:en": "Qaryat ar Raml", "name:fr": "Qaryat ar Raml", "place": "village"}}, {"type": "node", "id": 2488455321, "lat": 34.410945, "lon": 44.505802, "tags": {"alt_name": "\u0642\u0631\u064a\u0634", "int_name": "Quraish, Quraysh, \u0642\u0631\u064a\u0634, Quraish, Quraysh, \u0642\u0631\u064a\u0634", "name": "\u0642\u0631\u064a\u0634", "name:ar": "\u0642\u0631\u064a\u0634", "name:ar1": "\u0642\u0631\u064a\u0634", "name:de": "Quraish", "name:en": "Quraish", "name:fr": "Quraish", "place": "village"}}, {"type": "node", "id": 2488455331, "lat": 34.398555, "lon": 44.509382, "tags": {"alt_name": "\u0635\u0627\u0644\u062d \u0627\u0644\u0639\u0632\u0627\u0648\u064a", "int_name": "\u015e\u0101la\u1e29 al Azz\u0101w\u012b, \u0635\u0627\u0644\u062d \u0627\u0644\u0639\u0632\u0627\u0648\u064a, Salah al Azzawi, \u0635\u0627\u0644\u062d \u0627\u0644\u0639\u0632\u0627\u0648\u064a", "name": "\u0635\u0627\u0644\u062d \u0627\u0644\u0639\u0632\u0627\u0648\u064a", "name:ar": "\u0635\u0627\u0644\u062d \u0627\u0644\u0639\u0632\u0627\u0648\u064a", "name:ar1": "\u0635\u0627\u0644\u062d \u0627\u0644\u0639\u0632\u0627\u0648\u064a", "name:de": "Salah al Azzawi", "name:en": "Salah al Azzawi", "name:fr": "Salah al Azzawi", "place": "village"}}, {"type": "node", "id": 2488455335, "lat": 34.336435, "lon": 44.509669, "tags": {"alt_name": "\u0633\u0644\u0645\u0627\u0646 \u0627\u0644\u0623\u062d\u0645\u062f", "int_name": "Salm\u0101n al A\u1e29mad, \u0633\u0644\u0645\u0627\u0646 \u0627\u0644\u0623\u062d\u0645\u062f, Salman al Ahmad, \u0633\u0644\u0645\u0627\u0646 \u0627\u0644\u0623\u062d\u0645\u062f", "name": "\u0633\u0644\u0645\u0627\u0646 \u0627\u0644\u0623\u062d\u0645\u062f", "name:ar": "\u0633\u0644\u0645\u0627\u0646 \u0627\u0644\u0623\u062d\u0645\u062f", "name:ar1": "\u0633\u0644\u0645\u0627\u0646 \u0627\u0644\u0623\u062d\u0645\u062f", "name:de": "Salman al Ahmad", "name:en": "Salman al Ahmad", "name:fr": "Salman al Ahmad", "place": "village"}}, {"type": "node", "id": 2488455348, "lat": 34.358584, "lon": 44.494022, "tags": {"alt_name": "\u0637\u0627\u0644\u0639\u0629 \u0627\u0644\u062d\u0645\u0648\u062f\u064a\u0629", "int_name": "\u0162\u0101liah al \u1e28amm\u016bd\u012byah, \u0637\u0627\u0644\u0639\u0647 \u0627\u0644\u062d\u0645\u0648\u062f\u064a\u0647, Taliah al Hammudiyah, \u0637\u0627\u0644\u0639\u0647 \u0627\u0644\u062d\u0645\u0648\u062f\u064a\u0647", "name": "\u0637\u0627\u0644\u0639\u0629 \u0627\u0644\u062d\u0645\u0648\u062f\u064a\u0629", "name:ar": "\u0637\u0627\u0644\u0639\u0629 \u0627\u0644\u062d\u0645\u0648\u062f\u064a\u0629", "name:ar1": "\u0637\u0627\u0644\u0639\u0629 \u0627\u0644\u062d\u0645\u0648\u062f\u064a\u0629", "name:de": "Taliah al Hammudiyah", "name:en": "Taliah al Hammudiyah", "name:fr": "Taliah al Hammudiyah", "place": "village"}}, {"type": "node", "id": 2488455419, "lat": 34.4431114, "lon": 44.4423698, "tags": {"alt_name": "\u0639\u0631\u0628 \u062e\u0644\u0641 \u0627\u0644\u0627\u0633\u0648\u062f", "int_name": "\u0639\u0631\u0628 \u062e\u0644\u0641 \u0627\u0644\u0627\u0633\u0648\u062f, \u0639\u0631\u0628 \u062e\u0644\u0641 \u0627\u0644\u0627\u0633\u0648\u062f", "name": "\u0639\u0631\u0628 \u062e\u0644\u0641 \u0627\u0644\u0627\u0633\u0648\u062f", "name:ar": "\u0639\u0631\u0628 \u062e\u0644\u0641 \u0627\u0644\u0627\u0633\u0648\u062f", "name:ar1": "\u0639\u0631\u0628 \u062e\u0644\u0641 \u0627\u0644\u0627\u0633\u0648\u062f", "name:de": "\u0639\u0631\u0628 \u062e\u0644\u0641 \u0627\u0644\u0627\u0633\u0648\u062f", "name:en": "\u0639\u0631\u0628 \u062e\u0644\u0641 \u0627\u0644\u0627\u0633\u0648\u062f", "name:fr": "\u0639\u0631\u0628 \u062e\u0644\u0641 \u0627\u0644\u0627\u0633\u0648\u062f", "place": "village"}}, {"type": "node", "id": 2488470039, "lat": 34.7417, "lon": 44.041398, "tags": {"alt_name": "\u0623\u062f\u0639\u062c\u0644 \u0634\u0647\u0627\u0628", "int_name": "Adajal Shi\u1e29\u0101b, \u0627\u062f\u0639\u062c\u0644 \u0634\u0647\u0627\u0628, Adajal Shihab, \u0627\u062f\u0639\u062c\u0644 \u0634\u0647\u0627\u0628", "name": "\u0623\u062f\u0639\u062c\u0644 \u0634\u0647\u0627\u0628", "name:ar": "\u0623\u062f\u0639\u062c\u0644 \u0634\u0647\u0627\u0628", "name:ar1": "\u0623\u062f\u0639\u062c\u0644 \u0634\u0647\u0627\u0628", "name:de": "Adajal Shihab", "name:en": "Adajal Shihab", "name:fr": "Adajal Shihab", "place": "village"}}, {"type": "node", "id": 2488470050, "lat": 34.717638, "lon": 44.069702, "tags": {"alt_name": "\u0639\u0631\u0628 \u0633\u0641\u0627\u062d \u0645\u0636\u062d\u064a", "int_name": "Arab Sif\u0101\u1e29 Ma\u1e11\u1e29\u012b, \u0639\u0631\u0628 \u0633\u0641\u0627\u062d \u0645\u0636\u062d\u064a, Arab Sifah Madhi, \u0639\u0631\u0628 \u0633\u0641\u0627\u062d \u0645\u0636\u062d\u064a", "name": "\u0639\u0631\u0628 \u0633\u0641\u0627\u062d \u0645\u0636\u062d\u064a", "name:ar": "\u0639\u0631\u0628 \u0633\u0641\u0627\u062d \u0645\u0636\u062d\u064a", "name:ar1": "\u0639\u0631\u0628 \u0633\u0641\u0627\u062d \u0645\u0636\u062d\u064a", "name:de": "Arab Sifah Madhi", "name:en": "Arab Sifah Madhi", "name:fr": "Arab Sifah Madhi", "place": "hamlet"}}, {"type": "node", "id": 2488470051, "lat": 34.670984, "lon": 44.112095, "tags": {"alt_name": "\u0639\u0637\u064a\u0629 \u0635\u0644\u0641\u062c", "int_name": "A\u0163\u012byat \u015ealfaj, \u0639\u0637\u064a\u0629 \u0635\u0644\u0641\u062c, Atiyat Salfaj, \u0639\u0637\u064a\u0629 \u0635\u0644\u0641\u062c", "name": "\u0639\u0637\u064a\u0629 \u0635\u0644\u0641\u062c", "name:ar": "\u0639\u0637\u064a\u0629 \u0635\u0644\u0641\u062c", "name:ar1": "\u0639\u0637\u064a\u0629 \u0635\u0644\u0641\u062c", "name:de": "Atiyat Salfaj", "name:en": "Atiyat Salfaj", "name:fr": "Atiyat Salfaj", "place": "village"}}, {"type": "node", "id": 2488470052, "lat": 34.712076, "lon": 44.075927, "tags": {"alt_name": "\u0641\u0646\u0634 \u0647\u0628\u0647\u0627\u0628", "int_name": "Fanash Hibh\u0101b, \u0641\u0646\u0634 \u0647\u0628\u0647\u0627\u0628, Fanash Hibhab, \u0641\u0646\u0634 \u0647\u0628\u0647\u0627\u0628", "name": "\u0641\u0646\u0634 \u0647\u0628\u0647\u0627\u0628", "name:ar": "\u0641\u0646\u0634 \u0647\u0628\u0647\u0627\u0628", "name:ar1": "\u0641\u0646\u0634 \u0647\u0628\u0647\u0627\u0628", "name:de": "Fanash Hibhab", "name:en": "Fanash Hibhab", "name:fr": "Fanash Hibhab", "place": "village"}}, {"type": "node", "id": 2488470058, "lat": 34.658193, "lon": 44.114933, "tags": {"alt_name": "\u0645\u062d\u0645\u062f \u0627\u0644\u0633\u0631\u0627\u064a", "int_name": "Mu\u1e29ammad as Sar\u0101\u012b, \u0645\u062d\u0645\u062f \u0627\u0644\u0633\u0631\u0627\u064a, Muhammad as Sarai, \u0645\u062d\u0645\u062f \u0627\u0644\u0633\u0631\u0627\u064a", "name": "\u0645\u062d\u0645\u062f \u0627\u0644\u0633\u0631\u0627\u064a", "name:ar": "\u0645\u062d\u0645\u062f \u0627\u0644\u0633\u0631\u0627\u064a", "name:ar1": "\u0645\u062d\u0645\u062f \u0627\u0644\u0633\u0631\u0627\u064a", "name:de": "Muhammad as Sarai", "name:en": "Muhammad as Sarai", "name:fr": "Muhammad as Sarai", "place": "village"}}, {"type": "node", "id": 2488470059, "lat": 34.6990977, "lon": 44.0333369, "tags": {"alt_name": "\u0646\u0645\u0634\u0627\u0644 \u0643\u0648\u0648\u064a\u0628", "int_name": "Namsh\u0101l K\u016bwayb, Namshal Kuwayb", "name": "\u0646\u0645\u0634\u0627\u0644 \u0643\u0648\u0648\u064a\u0628", "name:ar": "\u0646\u0645\u0634\u0627\u0646 \u0643\u0648\u0648\u064a\u062f", "name:ar1": "\u0646\u0645\u0634\u0627\u0644 \u0643\u0648\u0648\u064a\u0628", "name:de": "Namshal Kuwayb", "name:en": "Namshal Kuwayb", "name:fr": "Namshal Kuwayb", "place": "village"}}, {"type": "node", "id": 2488470062, "lat": 34.680963, "lon": 44.098042, "tags": {"alt_name": "\u0642\u0631\u064a\u0629 \u0623\u0628\u0648 \u0645\u0634\u0627\u0639\u0644 \u0627\u0644\u063a\u0631\u0628\u064a\u0629", "int_name": "Qaryat Ab\u016b Mash\u0101il al Gharb\u012byah, \u0642\u0631\u064a\u0629 \u0627\u0628\u0648 \u0645\u0634\u0627\u0639\u0644 \u0627\u0644\u063a\u0631\u0628\u064a\u0629, Qaryat Abu Mashail al Gharbiyah, \u0642\u0631\u064a\u0629 \u0627\u0628\u0648 \u0645\u0634\u0627\u0639\u0644 \u0627\u0644\u063a\u0631\u0628\u064a\u0629", "name": "\u0642\u0631\u064a\u0629 \u0623\u0628\u0648 \u0645\u0634\u0627\u0639\u0644 \u0627\u0644\u063a\u0631\u0628\u064a\u0629", "name:ar": "\u0642\u0631\u064a\u0629 \u0623\u0628\u0648 \u0645\u0634\u0627\u0639\u0644 \u0627\u0644\u063a\u0631\u0628\u064a\u0629", "name:ar1": "\u0642\u0631\u064a\u0629 \u0623\u0628\u0648 \u0645\u0634\u0627\u0639\u0644 \u0627\u0644\u063a\u0631\u0628\u064a\u0629", "name:de": "Qaryat Abu Mashail al Gharbiyah", "name:en": "Qaryat Abu Mashail al Gharbiyah", "name:fr": "Qaryat Abu Mashail al Gharbiyah", "place": "village"}}, {"type": "node", "id": 2488470063, "lat": 34.669825, "lon": 44.07867, "tags": {"alt_name": "\u0642\u0631\u064a\u0629 \u0623\u0628\u0648 \u0645\u0634\u0627\u0639\u0644 \u0627\u0644\u0634\u0631\u0642\u064a\u0629", "int_name": "Qaryat Ab\u016b Mash\u0101il ash Sharq\u012byah, \u0642\u0631\u064a\u0629 \u0627\u0628\u0648 \u0645\u0634\u0627\u0639\u0644 \u0627\u0644\u0634\u0631\u0642\u064a\u0629, Qaryat Abu Mashail ash Sharqiyah, \u0642\u0631\u064a\u0629 \u0627\u0628\u0648 \u0645\u0634\u0627\u0639\u0644 \u0627\u0644\u0634\u0631\u0642\u064a\u0629", "name": "\u0642\u0631\u064a\u0629 \u0623\u0628\u0648 \u0645\u0634\u0627\u0639\u0644 \u0627\u0644\u0634\u0631\u0642\u064a\u0629", "name:ar": "\u0642\u0631\u064a\u0629 \u0623\u0628\u0648 \u0645\u0634\u0627\u0639\u0644 \u0627\u0644\u0634\u0631\u0642\u064a\u0629", "name:ar1": "\u0642\u0631\u064a\u0629 \u0623\u0628\u0648 \u0645\u0634\u0627\u0639\u0644 \u0627\u0644\u0634\u0631\u0642\u064a\u0629", "name:de": "Qaryat Abu Mashail ash Sharqiyah", "name:en": "Qaryat Abu Mashail ash Sharqiyah", "name:fr": "Qaryat Abu Mashail ash Sharqiyah", "place": "village"}}, {"type": "node", "id": 2488470064, "lat": 34.708599, "lon": 44.117938, "tags": {"alt_name": "\u0642\u0631\u064a\u0629 \u0633\u0628\u062d\u0629 \u0639\u062c\u0644", "int_name": "Qaryat Siba\u1e29ah Ajal, \u0642\u0631\u064a\u0629 \u0633\u0628\u062d\u0629 \u0639\u062c\u0644, Qaryat Sibahah Ajal, \u0642\u0631\u064a\u0629 \u0633\u0628\u062d\u0629 \u0639\u062c\u0644", "name": "\u0642\u0631\u064a\u0629 \u0633\u0628\u062d\u0629 \u0639\u062c\u0644", "name:ar": "\u0642\u0631\u064a\u0629 \u0633\u0628\u062d\u0629 \u0639\u062c\u0644", "name:ar1": "\u0642\u0631\u064a\u0629 \u0633\u0628\u062d\u0629 \u0639\u062c\u0644", "name:de": "Qaryat Sibahah Ajal", "name:en": "Qaryat Sibahah Ajal", "name:fr": "Qaryat Sibahah Ajal", "place": "village"}}, {"type": "node", "id": 2488470065, "lat": 34.693816, "lon": 44.067001, "tags": {"alt_name": "\u0642\u0631\u064a\u0629 \u062a\u0644 \u0643\u0635\u064a\u0628\u0629", "int_name": "Qaryat Tall Ku\u015faybah, \u0642\u0631\u064a\u0629 \u062a\u0644 \u06a9\u0635\u064a\u0628\u0629, Qaryat Tall Kusaybah, \u0642\u0631\u064a\u0629 \u062a\u0644 \u06a9\u0635\u064a\u0628\u0629", "name": "\u0642\u0631\u064a\u0629 \u062a\u0644 \u0643\u0635\u064a\u0628\u0629", "name:ar": "\u0642\u0631\u064a\u0629 \u062a\u0644 \u0643\u0635\u064a\u0628\u0629", "name:ar1": "\u0642\u0631\u064a\u0629 \u062a\u0644 \u0643\u0635\u064a\u0628\u0629", "name:de": "Qaryat Tall Kusaybah", "name:en": "Qaryat Tall Kusaybah", "name:fr": "Qaryat Tall Kusaybah", "place": "village"}}, {"type": "node", "id": 2488470066, "lat": 34.627931, "lon": 44.122383, "tags": {"alt_name": "\u0633\u0631\u0646\u0627\u0633 \u0623\u0646\u062d\u064a\u0637\u0644", "int_name": "Sarn\u0101s An\u1e29ay\u0163al, \u0633\u0631\u0646\u0627\u0633 \u0627\u0646\u062d\u064a\u0637\u0644, Sarnas Anhaytal, \u0633\u0631\u0646\u0627\u0633 \u0627\u0646\u062d\u064a\u0637\u0644", "name": "\u0633\u0631\u0646\u0627\u0633 \u0623\u0646\u062d\u064a\u0637\u0644", "name:ar": "\u0633\u0631\u0646\u0627\u0633 \u0623\u0646\u062d\u064a\u0637\u0644", "name:ar1": "\u0633\u0631\u0646\u0627\u0633 \u0623\u0646\u062d\u064a\u0637\u0644", "name:de": "Sarnas Anhaytal", "name:en": "Sarnas Anhaytal", "name:fr": "Sarnas Anhaytal", "place": "village"}}, {"type": "node", "id": 2488470068, "lat": 34.653815, "lon": 44.142572, "tags": {"alt_name": "\u0634\u0627\u0645\u0627\u0646 \u0623\u0633\u0648\u062f", "int_name": "Sh\u0101m\u0101n Aswad, \u0634\u0627\u0645\u0627\u0646 \u0627\u0633\u0648\u062f, Shaman Aswad, \u0634\u0627\u0645\u0627\u0646 \u0627\u0633\u0648\u062f", "name": "\u0634\u0627\u0645\u0627\u0646 \u0623\u0633\u0648\u062f", "name:ar": "\u0634\u0627\u0645\u0627\u0646 \u0623\u0633\u0648\u062f", "name:ar1": "\u0634\u0627\u0645\u0627\u0646 \u0623\u0633\u0648\u062f", "name:de": "Shaman Aswad", "name:en": "Shaman Aswad", "name:fr": "Shaman Aswad", "place": "village"}}, {"type": "node", "id": 2488470069, "lat": 34.672262, "lon": 44.063173, "tags": {"alt_name": "\u0633\u0644\u0637\u0627\u0646 \u0628\u0646\u064a\u0629", "int_name": "Sul\u0163\u0101n Bun\u012byah, \u0633\u0644\u0637\u0627\u0646 \u0628\u0646\u064a\u0629, Sultan Buniyah, \u0633\u0644\u0637\u0627\u0646 \u0628\u0646\u064a\u0629", "name": "\u0633\u0644\u0637\u0627\u0646 \u0628\u0646\u064a\u0629", "name:ar": "\u0633\u0644\u0637\u0627\u0646 \u0628\u0646\u064a\u0629", "name:ar1": "\u0633\u0644\u0637\u0627\u0646 \u0628\u0646\u064a\u0629", "name:de": "Sultan Buniyah", "name:en": "Sultan Buniyah", "name:fr": "Sultan Buniyah", "place": "village"}}, {"type": "node", "id": 2488470074, "lat": 34.6987004, "lon": 44.03334, "tags": {"alt_name": "\u0646\u0645\u0634\u0627\u0644 \u0643\u0648\u064a\u0628", "int_name": "\u0646\u0645\u0634\u0627\u0644 \u06a9\u0648\u064a\u0628, \u0646\u0645\u0634\u0627\u0644 \u06a9\u0648\u064a\u0628", "name": "\u0646\u0645\u0634\u0627\u0644 \u0643\u0648\u064a\u0628", "name:ar": "\u0646\u0645\u0634\u0627\u0644 \u0643\u0648\u064a\u0628", "name:ar1": "\u0646\u0645\u0634\u0627\u0644 \u0643\u0648\u064a\u0628", "name:de": "\u0646\u0645\u0634\u0627\u0644 \u06a9\u0648\u064a\u0628", "name:en": "\u0646\u0645\u0634\u0627\u0644 \u06a9\u0648\u064a\u0628", "name:fr": "\u0646\u0645\u0634\u0627\u0644 \u06a9\u0648\u064a\u0628", "place": "village"}}, {"type": "node", "id": 2488470879, "lat": 34.394961, "lon": 44.02581, "tags": {"alt_name": "\u0622\u0644 \u0628\u0648 \u062d\u0645\u0627\u0634", "int_name": "Alb\u016b \u1e28am\u0101sh, \u0627\u0644\u0628\u0648 \u062d\u0645\u0627\u0634, Albu Hamash, \u0627\u0644\u0628\u0648 \u062d\u0645\u0627\u0634", "name": "\u0622\u0644 \u0628\u0648 \u062d\u0645\u0627\u0634", "name:ar": "\u0622\u0644 \u0628\u0648 \u062d\u0645\u0627\u0634", "name:ar1": "\u0622\u0644 \u0628\u0648 \u062d\u0645\u0627\u0634", "name:de": "Albu Hamash", "name:en": "Albu Hamash", "name:fr": "Albu Hamash", "place": "village"}}, {"type": "node", "id": 2488470880, "lat": 34.378351, "lon": 44.07607, "tags": {"alt_name": "\u0622\u0644 \u0628\u0648 \u0633\u0628\u062a\u064a", "int_name": "Alb\u016b Sabt\u012b, \u0627\u0644\u0628\u0648 \u0633\u0628\u062a\u064a, Albu Sabti, \u0627\u0644\u0628\u0648 \u0633\u0628\u062a\u064a", "name": "\u0622\u0644 \u0628\u0648 \u0633\u0628\u062a\u064a", "name:ar": "\u0622\u0644 \u0628\u0648 \u0633\u0628\u062a\u064a", "name:ar1": "\u0622\u0644 \u0628\u0648 \u0633\u0628\u062a\u064a", "name:de": "Albu Sabti", "name:en": "Albu Sabti", "name:fr": "Albu Sabti", "place": "village"}}, {"type": "node", "id": 2488470882, "lat": 34.407222, "lon": 44.04261, "tags": {"alt_name": "\u0639\u0644\u064a \u0627\u0644\u062d\u0645\u062f\u0648\u0634", "int_name": "Al\u012b al \u1e28amd\u016bsh, \u0639\u0644\u064a \u0627\u0644\u062d\u0645\u062f\u0648\u0634, Ali al Hamdush, \u0639\u0644\u064a \u0627\u0644\u062d\u0645\u062f\u0648\u0634", "name": "\u0639\u0644\u064a \u0627\u0644\u062d\u0645\u062f\u0648\u0634", "name:ar": "\u0639\u0644\u064a \u0627\u0644\u062d\u0645\u062f\u0648\u0634", "name:ar1": "\u0639\u0644\u064a \u0627\u0644\u062d\u0645\u062f\u0648\u0634", "name:de": "Ali al Hamdush", "name:en": "Ali al Hamdush", "name:fr": "Ali al Hamdush", "place": "village"}}, {"type": "node", "id": 2488470884, "lat": 34.387145, "lon": 44.035167, "tags": {"alt_name": "\u0639\u0631\u0628 \u0622\u0644 \u0628\u0648 \u062d\u0627\u0645\u062f", "int_name": "Arab Alb\u016b \u1e28\u0101mid, \u0639\u0631\u0628 \u0627\u0644\u0628\u0648 \u062d\u0627\u0645\u062f, Arab Albu Hamid, \u0639\u0631\u0628 \u0627\u0644\u0628\u0648 \u062d\u0627\u0645\u062f", "name": "\u0639\u0631\u0628 \u0622\u0644 \u0628\u0648 \u062d\u0627\u0645\u062f", "name:ar": "\u0639\u0631\u0628 \u0622\u0644 \u0628\u0648 \u062d\u0627\u0645\u062f", "name:ar1": "\u0639\u0631\u0628 \u0622\u0644 \u0628\u0648 \u062d\u0627\u0645\u062f", "name:de": "Arab Albu Hamid", "name:en": "Arab Albu Hamid", "name:fr": "Arab Albu Hamid", "place": "village"}}, {"type": "node", "id": 2488470885, "lat": 34.377402, "lon": 44.033719, "tags": {"alt_name": "\u0639\u0631\u0628 \u0622\u0644 \u0628\u0648 \u062e\u062f\u0648", "int_name": "Arab Alb\u016b Khad\u016b, \u0639\u0631\u0628 \u0627\u0644\u0628\u0648 \u062e\u062f\u0648, Arab Albu Khadu, \u0639\u0631\u0628 \u0627\u0644\u0628\u0648 \u062e\u062f\u0648", "name": "\u0639\u0631\u0628 \u0622\u0644 \u0628\u0648 \u062e\u062f\u0648", "name:ar": "\u0639\u0631\u0628 \u0622\u0644 \u0628\u0648 \u062e\u062f\u0648", "name:ar1": "\u0639\u0631\u0628 \u0622\u0644 \u0628\u0648 \u062e\u062f\u0648", "name:de": "Arab Albu Khadu", "name:en": "Arab Albu Khadu", "name:fr": "Arab Albu Khadu", "place": "village"}}, {"type": "node", "id": 2488470886, "lat": 34.393765, "lon": 44.0332, "tags": {"alt_name": "\u0639\u0631\u0628 \u0622\u0644 \u0628\u0648 \u062e\u062f\u0648", "int_name": "Arab Alb\u016b Khad\u016b, \u0639\u0631\u0628 \u0627\u0644\u0628\u0648 \u062e\u062f\u0648, Arab Albu Khadu, \u0639\u0631\u0628 \u0627\u0644\u0628\u0648 \u062e\u062f\u0648", "name": "\u0639\u0631\u0628 \u0622\u0644 \u0628\u0648 \u062e\u062f\u0648", "name:ar": "\u0639\u0631\u0628 \u0622\u0644 \u0628\u0648 \u062e\u062f\u0648", "name:ar1": "\u0639\u0631\u0628 \u0622\u0644 \u0628\u0648 \u062e\u062f\u0648", "name:de": "Arab Albu Khadu", "name:en": "Arab Albu Khadu", "name:fr": "Arab Albu Khadu", "place": "village"}}, {"type": "node", "id": 2488470888, "lat": 34.369753, "lon": 44.046436, "tags": {"alt_name": "\u0639\u0631\u0628 \u062d\u0633\u064a\u0646 \u0627\u0644\u0628\u062e\u064a\u062a", "int_name": "Arab \u1e28usayn al Bakh\u012bt, \u0639\u0631\u0628 \u062d\u0633\u064a\u0646 \u0627\u0644\u0628\u062e\u064a\u062a, Arab Husayn al Bakhit, \u0639\u0631\u0628 \u062d\u0633\u064a\u0646 \u0627\u0644\u0628\u062e\u064a\u062a", "name": "\u0639\u0631\u0628 \u062d\u0633\u064a\u0646 \u0627\u0644\u0628\u062e\u064a\u062a", "name:ar": "\u0639\u0631\u0628 \u062d\u0633\u064a\u0646 \u0627\u0644\u0628\u062e\u064a\u062a", "name:ar1": "\u0639\u0631\u0628 \u062d\u0633\u064a\u0646 \u0627\u0644\u0628\u062e\u064a\u062a", "name:de": "Arab Husayn al Bakhit", "name:en": "Arab Husayn al Bakhit", "name:fr": "Arab Husayn al Bakhit", "place": "village"}}, {"type": "node", "id": 2488470889, "lat": 34.3805, "lon": 44.049143, "tags": {"alt_name": "\u0639\u0627\u064a\u062f \u0627\u0644\u062d\u0633\u0646", "int_name": "\u0100yid al \u1e28asan, \u0639\u0627\u064a\u062f \u0627\u0644\u062d\u0633\u0646, Ayid al Hasan, \u0639\u0627\u064a\u062f \u0627\u0644\u062d\u0633\u0646", "name": "\u0639\u0627\u064a\u062f \u0627\u0644\u062d\u0633\u0646", "name:ar": "\u0639\u0627\u064a\u062f \u0627\u0644\u062d\u0633\u0646", "name:ar1": "\u0639\u0627\u064a\u062f \u0627\u0644\u062d\u0633\u0646", "name:de": "Ayid al Hasan", "name:en": "Ayid al Hasan", "name:fr": "Ayid al Hasan", "place": "village"}}, {"type": "node", "id": 2489307860, "lat": 34.521902, "lon": 44.508841, "tags": {"alt_name": "\u0622\u0644 \u0628\u0648 \u0637\u0644\u062d\u0629", "int_name": "\u0100lb\u016b \u0162al\u1e29ah, \u0627\u0644\u0628\u0648 \u0637\u0644\u062d\u0629, Albu Talhah, \u0627\u0644\u0628\u0648 \u0637\u0644\u062d\u0629", "name": "\u0622\u0644 \u0628\u0648 \u0637\u0644\u062d\u0629", "name:ar": "\u0622\u0644 \u0628\u0648 \u0637\u0644\u062d\u0629", "name:ar1": "\u0622\u0644 \u0628\u0648 \u0637\u0644\u062d\u0629", "name:de": "Albu Talhah", "name:en": "Albu Talhah", "name:fr": "Albu Talhah", "place": "village"}}, {"type": "node", "id": 2489307892, "lat": 34.503471, "lon": 44.493766, "tags": {"alt_name": "\u0639\u0631\u0628 \u062d\u0645\u064a\u062f \u0627\u0644\u0645\u0631\u0647\u0648\u0646", "int_name": "Arab \u1e28am\u012bd al Marh\u016bn, \u0639\u0631\u0628 \u062d\u0645\u064a\u062f \u0627\u0644\u0645\u0631\u0647\u0648\u0646, Arab Hamid al Marhun, \u0639\u0631\u0628 \u062d\u0645\u064a\u062f \u0627\u0644\u0645\u0631\u0647\u0648\u0646", "name": "\u0639\u0631\u0628 \u062d\u0645\u064a\u062f \u0627\u0644\u0645\u0631\u0647\u0648\u0646", "name:ar": "\u0639\u0631\u0628 \u062d\u0645\u064a\u062f \u0627\u0644\u0645\u0631\u0647\u0648\u0646", "name:ar1": "\u0639\u0631\u0628 \u062d\u0645\u064a\u062f \u0627\u0644\u0645\u0631\u0647\u0648\u0646", "name:de": "Arab Hamid al Marhun", "name:en": "Arab Hamid al Marhun", "name:fr": "Arab Hamid al Marhun", "place": "hamlet"}}, {"type": "node", "id": 2489308246, "lat": 34.494469, "lon": 44.492942, "tags": {"alt_name": "\u0642\u0631\u064a\u0629 \u0623\u0645 \u0627\u0644\u062f\u0647\u0646", "int_name": "Qaryat Umm ad Dahan, \u0642\u0631\u064a\u0629 \u0627\u0645 \u0627\u0644\u062f\u0647\u0646, Qaryat Umm ad Dahan, \u0642\u0631\u064a\u0629 \u0627\u0645 \u0627\u0644\u062f\u0647\u0646", "name": "\u0642\u0631\u064a\u0629 \u0623\u0645 \u0627\u0644\u062f\u0647\u0646", "name:ar": "\u0642\u0631\u064a\u0629 \u0623\u0645 \u0627\u0644\u062f\u0647\u0646", "name:ar1": "\u0642\u0631\u064a\u0629 \u0623\u0645 \u0627\u0644\u062f\u0647\u0646", "name:de": "Qaryat Umm ad Dahan", "name:en": "Qaryat Umm ad Dahan", "name:fr": "Qaryat Umm ad Dahan", "place": "village"}}, {"type": "node", "id": 2489308277, "lat": 34.73971, "lon": 44.512668, "tags": {"alt_name": "\u0633\u064a\u062f", "int_name": "Saiyid, Sayyid, \u0633\u064a\u062f, Saiyid, Sayyid, \u0633\u064a\u062f", "name": "\u0633\u064a\u062f", "name:ar": "\u0633\u064a\u062f", "name:ar1": "\u0633\u064a\u062f", "name:de": "Saiyid", "name:en": "Saiyid", "name:fr": "Saiyid", "place": "village"}}, {"type": "node", "id": 2489319483, "lat": 34.330635, "lon": 44.267939, "tags": {"alt_name": "\u0639\u0631\u0628 \u0645\u0631\u062f\u0627\u0633 \u0639\u0644\u064a", "int_name": "Arab Mard\u0101s Al\u012b, \u0639\u0631\u0628 \u0645\u0631\u062f\u0627\u0633 \u0639\u0644\u064a, Arab Mardas Ali, \u0639\u0631\u0628 \u0645\u0631\u062f\u0627\u0633 \u0639\u0644\u064a", "name": "\u0639\u0631\u0628 \u0645\u0631\u062f\u0627\u0633 \u0639\u0644\u064a", "name:ar": "\u0639\u0631\u0628 \u0645\u0631\u062f\u0627\u0633 \u0639\u0644\u064a", "name:ar1": "\u0639\u0631\u0628 \u0645\u0631\u062f\u0627\u0633 \u0639\u0644\u064a", "name:de": "Arab Mardas Ali", "name:en": "Arab Mardas Ali", "name:fr": "Arab Mardas Ali", "place": "village"}}, {"type": "node", "id": 2489321107, "lat": 34.636085, "lon": 44.207509, "tags": {"alt_name": "\u0639\u0631\u0628 \u0639\u0643\u0627\u0628 \u062d\u0648\u0627\u0633", "int_name": "Arab Ak\u0101b \u1e28aww\u0101s, \u0639\u0631\u0628 \u0639\u06a9\u0627\u0628 \u062d\u0648\u0627\u0633, Arab Akab Hawwas, \u0639\u0631\u0628 \u0639\u06a9\u0627\u0628 \u062d\u0648\u0627\u0633", "name": "\u0639\u0631\u0628 \u0639\u0643\u0627\u0628 \u062d\u0648\u0627\u0633", "name:ar": "\u0639\u0631\u0628 \u0639\u0643\u0627\u0628 \u062d\u0648\u0627\u0633", "name:ar1": "\u0639\u0631\u0628 \u0639\u0643\u0627\u0628 \u062d\u0648\u0627\u0633", "name:de": "Arab Akab Hawwas", "name:en": "Arab Akab Hawwas", "name:fr": "Arab Akab Hawwas", "place": "hamlet"}}, {"type": "node", "id": 2489321128, "lat": 34.515473, "lon": 44.441815, "tags": {"alt_name": "\u0639\u0631\u0628 \u0623\u0643\u0631\u0637 \u062e\u0644\u0641", "int_name": "Arab Akra\u0163 Khalaf, \u0639\u0631\u0628 \u0627\u06a9\u0631\u0637 \u062e\u0644\u0641, Arab Akrat Khalaf, \u0639\u0631\u0628 \u0627\u06a9\u0631\u0637 \u062e\u0644\u0641", "name": "\u0639\u0631\u0628 \u0623\u0643\u0631\u0637 \u062e\u0644\u0641", "name:ar": "\u0639\u0631\u0628 \u0623\u0643\u0631\u0637 \u062e\u0644\u0641", "name:ar1": "\u0639\u0631\u0628 \u0623\u0643\u0631\u0637 \u062e\u0644\u0641", "name:de": "Arab Akrat Khalaf", "name:en": "Arab Akrat Khalaf", "name:fr": "Arab Akrat Khalaf", "place": "hamlet"}}, {"type": "node", "id": 2489321136, "lat": 34.338338, "lon": 44.210938, "tags": {"alt_name": "\u0639\u0631\u0628 \u0639\u0644\u0648\u0627\u0646 \u0644\u0637\u064a\u0641", "int_name": "Arab Alw\u0101n La\u0163\u012bf, \u0639\u0631\u0628 \u0639\u0644\u0648\u0627\u0646 \u0644\u0637\u064a\u0641, Arab Alwan Latif, \u0639\u0631\u0628 \u0639\u0644\u0648\u0627\u0646 \u0644\u0637\u064a\u0641", "name": "\u0639\u0631\u0628 \u0639\u0644\u0648\u0627\u0646 \u0644\u0637\u064a\u0641", "name:ar": "\u0639\u0631\u0628 \u0639\u0644\u0648\u0627\u0646 \u0644\u0637\u064a\u0641", "name:ar1": "\u0639\u0631\u0628 \u0639\u0644\u0648\u0627\u0646 \u0644\u0637\u064a\u0641", "name:de": "Arab Alwan Latif", "name:en": "Arab Alwan Latif", "name:fr": "Arab Alwan Latif", "place": "village"}}, {"type": "node", "id": 2489321152, "lat": 34.521695, "lon": 44.446707, "tags": {"alt_name": "\u0639\u0631\u0628 \u062f\u0627\u0646\u0629 \u0639\u0628\u062f", "int_name": "Arab D\u0101nat Abd, \u0639\u0631\u0628 \u062f\u0627\u0646\u0629 \u0639\u0628\u062f, Arab Danat Abd, \u0639\u0631\u0628 \u062f\u0627\u0646\u0629 \u0639\u0628\u062f", "name": "\u0639\u0631\u0628 \u062f\u0627\u0646\u0629 \u0639\u0628\u062f", "name:ar": "\u0639\u0631\u0628 \u062f\u0627\u0646\u0629 \u0639\u0628\u062f", "name:ar1": "\u0639\u0631\u0628 \u062f\u0627\u0646\u0629 \u0639\u0628\u062f", "name:de": "Arab Danat Abd", "name:en": "Arab Danat Abd", "name:fr": "Arab Danat Abd", "place": "hamlet"}}, {"type": "node", "id": 2489321160, "lat": 34.647145, "lon": 44.194902, "tags": {"alt_name": "\u0639\u0631\u0628 \u062f\u0647\u0627\u0645 \u0647\u062c\u064a\u062c", "int_name": "Arab Duh\u0101m Haj\u012bj, \u0639\u0631\u0628 \u062f\u0647\u0627\u0645 \u0647\u062c\u064a\u062c, Arab Duham Hajij, \u0639\u0631\u0628 \u062f\u0647\u0627\u0645 \u0647\u062c\u064a\u062c", "name": "\u0639\u0631\u0628 \u062f\u0647\u0627\u0645 \u0647\u062c\u064a\u062c", "name:ar": "\u0639\u0631\u0628 \u062f\u0647\u0627\u0645 \u0647\u062c\u064a\u062c", "name:ar1": "\u0639\u0631\u0628 \u062f\u0647\u0627\u0645 \u0647\u062c\u064a\u062c", "name:de": "Arab Duham Hajij", "name:en": "Arab Duham Hajij", "name:fr": "Arab Duham Hajij", "place": "hamlet"}}, {"type": "node", "id": 2489321168, "lat": 34.547036, "lon": 44.117804, "tags": {"alt_name": "\u0639\u0631\u0628 \u063a\u0632\u0627\u0644 \u0643\u0637\u0627\u0634", "int_name": "Arab Ghaz\u0101l Ka\u0163\u0101sh, \u0639\u0631\u0628 \u063a\u0632\u0627\u0644 \u06a9\u0637\u0627\u0634, Arab Ghazal Katash, \u0639\u0631\u0628 \u063a\u0632\u0627\u0644 \u06a9\u0637\u0627\u0634", "name": "\u0639\u0631\u0628 \u063a\u0632\u0627\u0644 \u0643\u0637\u0627\u0634", "name:ar": "\u0639\u0631\u0628 \u063a\u0632\u0627\u0644 \u0643\u0637\u0627\u0634", "name:ar1": "\u0639\u0631\u0628 \u063a\u0632\u0627\u0644 \u0643\u0637\u0627\u0634", "name:de": "Arab Ghazal Katash", "name:en": "Arab Ghazal Katash", "name:fr": "Arab Ghazal Katash", "place": "hamlet"}}, {"type": "node", "id": 2489321185, "lat": 34.335857, "lon": 44.340935, "tags": {"alt_name": "\u0639\u0631\u0628 \u062d\u0645\u0627\u062f \u0627\u0644\u0637\u0627\u0647\u0631", "int_name": "Arab \u1e28amm\u0101d a\u0163 \u0162\u0101hir, \u0639\u0631\u0628 \u062d\u0645\u0627\u062f \u0627\u0644\u0637\u0627\u0647\u0631, Arab Hammad at Tahir, \u0639\u0631\u0628 \u062d\u0645\u0627\u062f \u0627\u0644\u0637\u0627\u0647\u0631", "name": "\u0639\u0631\u0628 \u062d\u0645\u0627\u062f \u0627\u0644\u0637\u0627\u0647\u0631", "name:ar": "\u0639\u0631\u0628 \u062d\u0645\u0627\u062f \u0627\u0644\u0637\u0627\u0647\u0631", "name:ar1": "\u0639\u0631\u0628 \u062d\u0645\u0627\u062f \u0627\u0644\u0637\u0627\u0647\u0631", "name:de": "Arab Hammad at Tahir", "name:en": "Arab Hammad at Tahir", "name:fr": "Arab Hammad at Tahir", "place": "village"}}, {"type": "node", "id": 2489321193, "lat": 34.529394, "lon": 44.107941, "tags": {"alt_name": "\u0639\u0631\u0628 \u062e\u0644\u0641 \u0634\u0648\u064a\u0637\u062d", "int_name": "Arab Khalaf Shuway\u0163a\u1e29, \u0639\u0631\u0628 \u062e\u0644\u0641 \u0634\u0648\u064a\u0637\u062d, Arab Khalaf Shuwaytah, \u0639\u0631\u0628 \u062e\u0644\u0641 \u0634\u0648\u064a\u0637\u062d", "name": "\u0639\u0631\u0628 \u062e\u0644\u0641 \u0634\u0648\u064a\u0637\u062d", "name:ar": "\u0639\u0631\u0628 \u062e\u0644\u0641 \u0634\u0648\u064a\u0637\u062d", "name:ar1": "\u0639\u0631\u0628 \u062e\u0644\u0641 \u0634\u0648\u064a\u0637\u062d", "name:de": "Arab Khalaf Shuwaytah", "name:en": "Arab Khalaf Shuwaytah", "name:fr": "Arab Khalaf Shuwaytah", "place": "hamlet"}}, {"type": "node", "id": 2489321209, "lat": 34.480752, "lon": 44.414559, "tags": {"alt_name": "\u0639\u0631\u0628 \u062e\u0644\u064a\u0644 \u0627\u0644\u062d\u0633\u0648\u0646", "int_name": "Arab Khal\u012bl al \u1e28ass\u016bn, \u0639\u0631\u0628 \u062e\u0644\u064a\u0644 \u0627\u0644\u062d\u0633\u0648\u0646, Arab Khalil al Hassun, \u0639\u0631\u0628 \u062e\u0644\u064a\u0644 \u0627\u0644\u062d\u0633\u0648\u0646", "name": "\u0639\u0631\u0628 \u062e\u0644\u064a\u0644 \u0627\u0644\u062d\u0633\u0648\u0646", "name:ar": "\u0639\u0631\u0628 \u062e\u0644\u064a\u0644 \u0627\u0644\u062d\u0633\u0648\u0646", "name:ar1": "\u0639\u0631\u0628 \u062e\u0644\u064a\u0644 \u0627\u0644\u062d\u0633\u0648\u0646", "name:de": "Arab Khalil al Hassun", "name:en": "Arab Khalil al Hassun", "name:fr": "Arab Khalil al Hassun", "place": "village"}}, {"type": "node", "id": 2489321216, "lat": 34.4841027, "lon": 44.4681187, "tags": {"alt_name": "\u0639\u0631\u0628 \u0644\u0641\u062a\u0629 \u0645\u062e\u0644\u0641", "int_name": "Arab Laftah Mukhlif, Arab Laftah Mukhlif", "name": "\u0639\u0631\u0628 \u0644\u0641\u062a\u0629 \u0645\u062e\u0644\u0641", "name:ar": "\u0639\u0631\u0628 \u0644\u0641\u062a\u0629 \u0645\u062e\u0644\u0641", "name:ar1": "\u0639\u0631\u0628 \u0644\u0641\u062a\u0629 \u0645\u062e\u0644\u0641", "name:de": "Arab Laftah Mukhlif", "name:en": "Arab Laftah Mukhlif", "name:fr": "Arab Laftah Mukhlif", "place": "village"}}, {"type": "node", "id": 2489321231, "lat": 34.686511, "lon": 44.143567, "tags": {"alt_name": "\u0639\u0631\u0628 \u0645\u062d\u0633\u0646 \u062d\u0633\u064a\u0646", "int_name": "Arab Mu\u1e29assan \u1e28usayn, \u0639\u0631\u0628 \u0645\u062d\u0633\u0646 \u062d\u0633\u064a\u0646, Arab Muhassan Husayn, \u0639\u0631\u0628 \u0645\u062d\u0633\u0646 \u062d\u0633\u064a\u0646", "name": "\u0639\u0631\u0628 \u0645\u062d\u0633\u0646 \u062d\u0633\u064a\u0646", "name:ar": "\u0639\u0631\u0628 \u0645\u062d\u0633\u0646 \u062d\u0633\u064a\u0646", "name:ar1": "\u0639\u0631\u0628 \u0645\u062d\u0633\u0646 \u062d\u0633\u064a\u0646", "name:de": "Arab Muhassan Husayn", "name:en": "Arab Muhassan Husayn", "name:fr": "Arab Muhassan Husayn", "place": "hamlet"}}, {"type": "node", "id": 2489321239, "lat": 34.64258, "lon": 44.148848, "tags": {"alt_name": "\u0639\u0631\u0628 \u0635\u0648\u064a\u0627\u0646 \u063a\u0636\u0628\u0627\u0646", "int_name": "Arab \u015e\u016by\u0101n Gha\u1e11b\u0101n, \u0639\u0631\u0628 \u0635\u0648\u064a\u0627\u0646 \u063a\u0636\u0628\u0627\u0646, Arab Suyan Ghadban, \u0639\u0631\u0628 \u0635\u0648\u064a\u0627\u0646 \u063a\u0636\u0628\u0627\u0646", "name": "\u0639\u0631\u0628 \u0635\u0648\u064a\u0627\u0646 \u063a\u0636\u0628\u0627\u0646", "name:ar": "\u0639\u0631\u0628 \u0635\u0648\u064a\u0627\u0646 \u063a\u0636\u0628\u0627\u0646", "name:ar1": "\u0639\u0631\u0628 \u0635\u0648\u064a\u0627\u0646 \u063a\u0636\u0628\u0627\u0646", "name:de": "Arab Suyan Ghadban", "name:en": "Arab Suyan Ghadban", "name:fr": "Arab Suyan Ghadban", "place": "hamlet"}}, {"type": "node", "id": 2489321246, "lat": 34.491745, "lon": 44.432178, "tags": {"alt_name": "\u0639\u0631\u0628 \u0637\u0648\u0627\u0628", "int_name": "Arab \u0162aww\u0101b, \u0639\u0631\u0628 \u0637\u0648\u0627\u0628, Arab Tawwab, \u0639\u0631\u0628 \u0637\u0648\u0627\u0628", "name": "\u0639\u0631\u0628 \u0637\u0648\u0627\u0628", "name:ar": "\u0639\u0631\u0628 \u0637\u0648\u0627\u0628", "name:ar1": "\u0639\u0631\u0628 \u0637\u0648\u0627\u0628", "name:de": "Arab Tawwab", "name:en": "Arab Tawwab", "name:fr": "Arab Tawwab", "place": "village"}}, {"type": "node", "id": 2489321295, "lat": 34.505417, "lon": 44.411045, "tags": {"alt_name": "\u0641\u0627\u0636\u0644 \u062d\u0644\u0641 \u0627\u0644\u0639\u062f\u0648\u0627\u0646", "int_name": "F\u0101\u1e11il Halaf al Adw\u0101n, \u0641\u0627\u0636\u0644 \u062d\u0644\u0641 \u0627\u0644\u0639\u062f\u0648\u0627\u0646, Fadil Halaf al Adwan, \u0641\u0627\u0636\u0644 \u062d\u0644\u0641 \u0627\u0644\u0639\u062f\u0648\u0627\u0646", "name": "\u0641\u0627\u0636\u0644 \u062d\u0644\u0641 \u0627\u0644\u0639\u062f\u0648\u0627\u0646", "name:ar": "\u0641\u0627\u0636\u0644 \u062d\u0644\u0641 \u0627\u0644\u0639\u062f\u0648\u0627\u0646", "name:ar1": "\u0641\u0627\u0636\u0644 \u062d\u0644\u0641 \u0627\u0644\u0639\u062f\u0648\u0627\u0646", "name:de": "Fadil Halaf al Adwan", "name:en": "Fadil Halaf al Adwan", "name:fr": "Fadil Halaf al Adwan", "place": "village"}}, {"type": "node", "id": 2489321306, "lat": 34.738893, "lon": 44.440342, "tags": {"alt_name": "\u0642\u0631\u064a\u0629 \u0627\u0644\u0632\u0646\u062c\u064a\u0644\u0629", "int_name": "Zanj\u0101l\u012b, Zanjal\u012b, \u0632\u0646\u06af\u064a\u0644\u0649, Janjali, Zanjila,, Zanjali, Zanjali, \u0632\u0646\u06af\u064a\u0644\u064a", "name": "\u0642\u0631\u064a\u0629 \u0627\u0644\u0632\u0646\u062c\u064a\u0644\u0629", "name:ar": "\u0632\u0646\u06af\u064a\u0644\u064a", "name:ar1": "\u0642\u0631\u064a\u0629 \u0627\u0644\u0632\u0646\u062c\u064a\u0644\u0629", "name:de": "Janjali", "name:en": "Janjali", "name:fr": "Janjali", "name:ku": "\u0632\u0646\u06af\u064a\u0644\u0649", "place": "village"}}, {"type": "node", "id": 2489321310, "lat": 34.527452, "lon": 44.171955, "tags": {"alt_name": "\u062e\u0644\u0641 \u0639\u0628\u0627\u0632", "int_name": "Khalaf Ab\u0101z, \u062e\u0644\u0641 \u0639\u0628\u0627\u0632, Khalaf Abaz, \u062e\u0644\u0641 \u0639\u0628\u0627\u0632", "name": "\u062e\u0644\u0641 \u0639\u0628\u0627\u0632", "name:ar": "\u062e\u0644\u0641 \u0639\u0628\u0627\u0632", "name:ar1": "\u062e\u0644\u0641 \u0639\u0628\u0627\u0632", "name:de": "Khalaf Abaz", "name:en": "Khalaf Abaz", "name:fr": "Khalaf Abaz", "place": "village"}}, {"type": "node", "id": 2489321313, "lat": 34.407404, "lon": 44.223084, "tags": {"alt_name": "\u062e\u0644\u0641 \u0631\u0643\u064a\u062f\u064a", "int_name": "Khalaf Rak\u012bd\u012b, \u062e\u0644\u0641 \u0631\u0643\u064a\u062f\u064a, Khalaf Rakidi, \u062e\u0644\u0641 \u0631\u0643\u064a\u062f\u064a", "name": "\u062e\u0644\u0641 \u0631\u0643\u064a\u062f\u064a", "name:ar": "\u062e\u0644\u0641 \u0631\u0643\u064a\u062f\u064a", "name:ar1": "\u062e\u0644\u0641 \u0631\u0643\u064a\u062f\u064a", "name:de": "Khalaf Rakidi", "name:en": "Khalaf Rakidi", "name:fr": "Khalaf Rakidi", "place": "village"}}, {"type": "node", "id": 2489321315, "lat": 34.53548, "lon": 44.447926, "tags": {"alt_name": "\u062e\u0636\u064a\u0631 \u0635\u0627\u0644\u062d", "int_name": "Khu\u1e11ayr \u015e\u0101la\u1e29, \u062e\u0636\u064a\u0631 \u0635\u0627\u0644\u062d, Khudayr Salah, \u062e\u0636\u064a\u0631 \u0635\u0627\u0644\u062d", "name": "\u062e\u0636\u064a\u0631 \u0635\u0627\u0644\u062d", "name:ar": "\u062e\u0636\u064a\u0631 \u0635\u0627\u0644\u062d", "name:ar1": "\u062e\u0636\u064a\u0631 \u0635\u0627\u0644\u062d", "name:de": "Khudayr Salah", "name:en": "Khudayr Salah", "name:fr": "Khudayr Salah", "place": "village"}}, {"type": "node", "id": 2489321319, "lat": 34.5177204, "lon": 44.1808076, "tags": {"alt_name": "\u0645\u0637\u0627\u0631 \u0639\u0648\u064a\u062f", "int_name": "Ma\u0163ar Aw\u012bd, Matar Awid", "name": "\u0645\u0637\u0627\u0631 \u0639\u0648\u064a\u062f", "name:ar": "\u0645\u0637\u0627\u0631 \u0639\u0648\u064a\u062f", "name:ar1": "\u0645\u0637\u0627\u0631 \u0639\u0648\u064a\u062f", "name:de": "Matar Awid", "name:en": "Matar Awid", "name:fr": "Matar Awid", "place": "village"}}, {"type": "node", "id": 2489321327, "lat": 34.348558, "lon": 44.265606, "tags": {"alt_name": "\u0645\u062e\u0644\u0641 \u0627\u0644\u0643\u0648\u0627\u0645\u064a", "int_name": "Mukhlaf al Kaww\u0101m\u012b, \u0645\u062e\u0644\u0641 \u0627\u0644\u0643\u0648\u0627\u0645\u064a, Mukhlaf al Kawwami, \u0645\u062e\u0644\u0641 \u0627\u0644\u0643\u0648\u0627\u0645\u064a", "name": "\u0645\u062e\u0644\u0641 \u0627\u0644\u0643\u0648\u0627\u0645\u064a", "name:ar": "\u0645\u062e\u0644\u0641 \u0627\u0644\u0643\u0648\u0627\u0645\u064a", "name:ar1": "\u0645\u062e\u0644\u0641 \u0627\u0644\u0643\u0648\u0627\u0645\u064a", "name:de": "Mukhlaf al Kawwami", "name:en": "Mukhlaf al Kawwami", "name:fr": "Mukhlaf al Kawwami", "place": "village"}}, {"type": "node", "id": 2489321331, "lat": 34.583071, "lon": 44.433033, "tags": {"alt_name": "\u0642\u0631\u064a\u0629 \u0622\u0644 \u0628\u0648 \u0631\u064a\u0627\u0634", "int_name": "Qaryat \u0100lb\u016b Riy\u0101sh, \u0642\u0631\u064a\u0629 \u0627\u0644\u0628\u0648 \u0631\u064a\u0627\u0634, Qaryat Albu Riyash, \u0642\u0631\u064a\u0629 \u0627\u0644\u0628\u0648 \u0631\u064a\u0627\u0634", "name": "\u0642\u0631\u064a\u0629 \u0622\u0644 \u0628\u0648 \u0631\u064a\u0627\u0634", "name:ar": "\u0622\u0644 \u0628\u0648 \u0631\u064a\u0627\u0634", "name:ar1": "\u0642\u0631\u064a\u0629 \u0622\u0644 \u0628\u0648 \u0631\u064a\u0627\u0634", "name:de": "Albu Riyash", "name:en": "Albu Riyash", "name:fr": "Albu Riyash", "place": "village"}}, {"type": "node", "id": 2489321347, "lat": 34.762394, "lon": 44.2787502, "tags": {"alt_name": "\u0642\u0631\u064a\u0629 \u0643\u0633\u0648\u0646 \u0643\u0646\u0639\u0627\u0646", "int_name": "Qaryat Kas\u016bn Kan\u0101n, \u0642\u0631\u064a\u0629 \u06a9\u0633\u0648\u0646 \u06a9\u0646\u0639\u0627\u0646, Qaryat Kasun Kanan, \u0642\u0631\u064a\u0629 \u06a9\u0633\u0648\u0646 \u06a9\u0646\u0639\u0627\u0646", "name": "\u0643\u0633\u0648\u0646 \u0643\u0646\u0639\u0627\u0646", "name:ar1": "\u0642\u0631\u064a\u0629 \u0643\u0633\u0648\u0646 \u0643\u0646\u0639\u0627\u0646", "name:ckb": "\u06a9\u06d5\u0633\u0648\u0646 \u06a9\u06d5\u0646\u0639\u0627\u0646", "name:de": "Kasun Kanan", "name:en": "Kasun Kanan", "name:fr": "Kasun Kanan", "place": "village"}}, {"type": "node", "id": 2489321349, "lat": 34.333504, "lon": 44.301074, "tags": {"alt_name": "\u0642\u0631\u064a\u0629 \u062e\u0644\u0641 \u0623\u062c\u0644\u064a\u0644", "int_name": "Qaryat Khalaf Ajl\u012bl, \u0642\u0631\u064a\u0629 \u062e\u0644\u0641 \u0627\u062c\u0644\u064a\u0644, Qaryat Khalaf Ajlil, \u0642\u0631\u064a\u0629 \u062e\u0644\u0641 \u0627\u062c\u0644\u064a\u0644", "name": "\u0642\u0631\u064a\u0629 \u062e\u0644\u0641 \u0623\u062c\u0644\u064a\u0644", "name:ar": "\u0642\u0631\u064a\u0629 \u062e\u0644\u0641 \u0623\u062c\u0644\u064a\u0644", "name:ar1": "\u0642\u0631\u064a\u0629 \u062e\u0644\u0641 \u0623\u062c\u0644\u064a\u0644", "name:de": "Qaryat Khalaf Ajlil", "name:en": "Qaryat Khalaf Ajlil", "name:fr": "Qaryat Khalaf Ajlil", "place": "village"}}, {"type": "node", "id": 2489321356, "lat": 34.648511, "lon": 44.15586, "tags": {"alt_name": "\u0642\u0631\u064a\u0629 \u0645\u0635\u064a\u0631\u062d", "int_name": "Qaryat Mu\u015fayra\u1e29, \u0642\u0631\u064a\u0629 \u0645\u0635\u064a\u0631\u062d, Qaryat Musayrah, \u0642\u0631\u064a\u0629 \u0645\u0635\u064a\u0631\u062d", "name": "\u0642\u0631\u064a\u0629 \u0645\u0635\u064a\u0631\u062d", "name:ar": "\u0642\u0631\u064a\u0629 \u0645\u0635\u064a\u0631\u062d", "name:ar1": "\u0642\u0631\u064a\u0629 \u0645\u0635\u064a\u0631\u062d", "name:de": "Qaryat Musayrah", "name:en": "Qaryat Musayrah", "name:fr": "Qaryat Musayrah", "place": "village"}}, {"type": "node", "id": 2489321358, "lat": 34.349574, "lon": 44.329611, "tags": {"alt_name": "\u0642\u0631\u064a\u0629 \u0635\u0639\u0628 \u0627\u0644\u0639\u0645\u064a\u0634", "int_name": "Qaryat \u015eab al Am\u012bsh, \u0642\u0631\u064a\u0629 \u0635\u0639\u0628 \u0627\u0644\u0639\u0645\u064a\u0634, Qaryat Sab al Amish, \u0642\u0631\u064a\u0629 \u0635\u0639\u0628 \u0627\u0644\u0639\u0645\u064a\u0634", "name": "\u0642\u0631\u064a\u0629 \u0635\u0639\u0628 \u0627\u0644\u0639\u0645\u064a\u0634", "name:ar": "\u0642\u0631\u064a\u0629 \u0635\u0639\u0628 \u0627\u0644\u0639\u0645\u064a\u0634", "name:ar1": "\u0642\u0631\u064a\u0629 \u0635\u0639\u0628 \u0627\u0644\u0639\u0645\u064a\u0634", "name:de": "Qaryat Sab al Amish", "name:en": "Qaryat Sab al Amish", "name:fr": "Qaryat Sab al Amish", "place": "village"}}, {"type": "node", "id": 2489321364, "lat": 34.650171, "lon": 44.176168, "tags": {"alt_name": "\u0642\u0631\u064a\u0629 \u0627\u0644\u062d\u062f\u0627\u062f\u064a\u0629", "int_name": "Qaryat al \u1e28ad\u0101d\u012byah, \u0642\u0631\u064a\u0629 \u0627\u0644\u062d\u062f\u0627\u062f\u064a\u0629, Qaryat al Hadadiyah, \u0642\u0631\u064a\u0629 \u0627\u0644\u062d\u062f\u0627\u062f\u064a\u0629", "name": "\u0642\u0631\u064a\u0629 \u0627\u0644\u062d\u062f\u0627\u062f\u064a\u0629", "name:ar": "\u0642\u0631\u064a\u0629 \u0627\u0644\u062d\u062f\u0627\u062f\u064a\u0629", "name:ar1": "\u0642\u0631\u064a\u0629 \u0627\u0644\u062d\u062f\u0627\u062f\u064a\u0629", "name:de": "Qaryat al Hadadiyah", "name:en": "Qaryat al Hadadiyah", "name:fr": "Qaryat al Hadadiyah", "place": "village"}}, {"type": "node", "id": 2489321368, "lat": 34.388938, "lon": 44.299753, "tags": {"alt_name": "\u0642\u0631\u064a\u0629 \u0627\u0644\u062e\u0627\u062a\u0648\u0646\u064a\u0629", "int_name": "Qaryat al Kh\u0101t\u016bn\u012byah, \u0642\u0631\u064a\u0629 \u0627\u0644\u062e\u0627\u062a\u0648\u0646\u064a\u0647, Qaryat al Khatuniyah, \u0642\u0631\u064a\u0629 \u0627\u0644\u062e\u0627\u062a\u0648\u0646\u064a\u0647", "name": "\u0642\u0631\u064a\u0629 \u0627\u0644\u062e\u0627\u062a\u0648\u0646\u064a\u0629", "name:ar": "\u0642\u0631\u064a\u0629 \u0627\u0644\u062e\u0627\u062a\u0648\u0646\u064a\u0629", "name:ar1": "\u0642\u0631\u064a\u0629 \u0627\u0644\u062e\u0627\u062a\u0648\u0646\u064a\u0629", "name:de": "Qaryat al Khatuniyah", "name:en": "Qaryat al Khatuniyah", "name:fr": "Qaryat al Khatuniyah", "place": "village"}}, {"type": "node", "id": 2489321370, "lat": 34.336592, "lon": 44.347203, "tags": {"alt_name": "\u0642\u0631\u064a\u0629 \u0627\u0644\u0645\u0646\u0627\u0647\u0644\u0629", "int_name": "Qaryat al Man\u0101hilah, \u0642\u0631\u064a\u0629 \u0627\u0644\u0645\u0646\u0627\u0647\u0644\u0647, Qaryat al Manahilah, \u0642\u0631\u064a\u0629 \u0627\u0644\u0645\u0646\u0627\u0647\u0644\u0647", "name": "\u0642\u0631\u064a\u0629 \u0627\u0644\u0645\u0646\u0627\u0647\u0644\u0629", "name:ar": "\u0642\u0631\u064a\u0629 \u0627\u0644\u0645\u0646\u0627\u0647\u0644\u0629", "name:ar1": "\u0642\u0631\u064a\u0629 \u0627\u0644\u0645\u0646\u0627\u0647\u0644\u0629", "name:de": "Qaryat al Manahilah", "name:en": "Qaryat al Manahilah", "name:fr": "Qaryat al Manahilah", "place": "village"}}, {"type": "node", "id": 2489321372, "lat": 34.503607, "lon": 44.454393, "tags": {"alt_name": "\u0642\u0631\u064a\u0629 \u0627\u0644\u0642\u0644\u0639\u0629", "int_name": "Qaryat al Qalah, \u0642\u0631\u064a\u0629 \u0627\u0644\u0642\u0644\u0639\u0629, Qaryat al Qalah, \u0642\u0631\u064a\u0629 \u0627\u0644\u0642\u0644\u0639\u0629", "name": "\u0642\u0631\u064a\u0629 \u0627\u0644\u0642\u0644\u0639\u0629", "name:ar": "\u0642\u0631\u064a\u0629 \u0627\u0644\u0642\u0644\u0639\u0629", "name:ar1": "\u0642\u0631\u064a\u0629 \u0627\u0644\u0642\u0644\u0639\u0629", "name:de": "Qaryat al Qalah", "name:en": "Qaryat al Qalah", "name:fr": "Qaryat al Qalah", "place": "village"}}, {"type": "node", "id": 2489321381, "lat": 34.515515, "lon": 44.461696, "tags": {"alt_name": "\u0635\u0627\u0644\u062d \u0627\u0644\u062d\u0633\u064a\u0646", "int_name": "\u015e\u0101la\u1e29 al \u1e28ussayn, \u0635\u0627\u0644\u062d \u0627\u0644\u062d\u0633\u064a\u0646, Salah al Hussayn, \u0635\u0627\u0644\u062d \u0627\u0644\u062d\u0633\u064a\u0646", "name": "\u0635\u0627\u0644\u062d \u0627\u0644\u062d\u0633\u064a\u0646", "name:ar": "\u0635\u0627\u0644\u062d \u0627\u0644\u062d\u0633\u064a\u0646", "name:ar1": "\u0635\u0627\u0644\u062d \u0627\u0644\u062d\u0633\u064a\u0646", "name:de": "Salah al Hussayn", "name:en": "Salah al Hussayn", "name:fr": "Salah al Hussayn", "place": "village"}}, {"type": "node", "id": 2489321383, "lat": 34.338386, "lon": 44.253803, "tags": {"alt_name": "\u0634\u0644\u0627\u0644 \u062e\u0632\u0639\u0644", "int_name": "Shall\u0101l Khazal, \u0634\u0644\u0627\u0644 \u062e\u0632\u0639\u0644, Shallal Khazal, \u0634\u0644\u0627\u0644 \u062e\u0632\u0639\u0644", "name": "\u0634\u0644\u0627\u0644 \u062e\u0632\u0639\u0644", "name:ar": "\u0634\u0644\u0627\u0644 \u062e\u0632\u0639\u0644", "name:ar1": "\u0634\u0644\u0627\u0644 \u062e\u0632\u0639\u0644", "name:de": "Shallal Khazal", "name:en": "Shallal Khazal", "name:fr": "Shallal Khazal", "place": "village"}}, {"type": "node", "id": 2489321419, "lat": 34.4861023, "lon": 44.4684552, "tags": {"alt_name": "\u0639\u0631\u0628 \u0644\u0641\u062a\u0647 \u0645\u062e\u0644\u0641", "int_name": "\u0639\u0631\u0628 \u0644\u0641\u062a\u0647 \u0645\u062e\u0644\u0641, \u0639\u0631\u0628 \u0644\u0641\u062a\u0647 \u0645\u062e\u0644\u0641", "name": "\u0639\u0631\u0628 \u0644\u0641\u062a\u0647 \u0645\u062e\u0644\u0641", "name:ar": "\u0639\u0631\u0628 \u0644\u0641\u062a\u0647 \u0645\u062e\u0644\u0641", "name:ar1": "\u0639\u0631\u0628 \u0644\u0641\u062a\u0647 \u0645\u062e\u0644\u0641", "name:de": "Arab Lefteh Mokhalaf", "name:en": "Arab Lefteh Mokhalaf", "name:fr": "Arab Lefteh Mokhalaf", "place": "village"}}]}