{"version": 0.6, "generator": "Overpass API 0.7.61.5 4133829e", "osm3s": {"timestamp_osm_base": "2024-03-06T11:16:45Z", "copyright": "The data included in this document is from www.openstreetmap.org. The data is made available under ODbL."}, "elements": [{"type": "node", "id": 2483745828, "lat": 31.59812, "lon": 45.037463, "tags": {"alt_name": "\u0628\u0646\u064a \u0639\u0627\u0632\u0636", "int_name": "Ban\u012b \u0100za\u1e11, \u0628\u0646\u064a \u0639\u0627\u0632\u0636, Bani Azad, \u0628\u0646\u064a \u0639\u0627\u0632\u0636", "is_in": "Iraq , \u062c\u0645\u0647\u0648\u0631\u064a\u0629 \u0627\u0644\u0639\u0631\u0627\u0642", "name": "\u0628\u0646\u064a \u0639\u0627\u0632\u0636", "name:ar": "\u0628\u0646\u064a \u0639\u0627\u0631\u0636", "name:ar1": "\u0628\u0646\u064a \u0639\u0627\u0632\u0636", "name:de": "Bani Azad", "name:en": "Bani Azad", "name:fr": "Bani Azad", "place": "village"}}, {"type": "node", "id": 2485416439, "lat": 31.67195, "lon": 44.650473, "tags": {"alt_name": "\u0639\u0644\u064a\u0648\u064a \u0622\u0644 \u0641\u0631\u064a\u0645", "int_name": "Ulayw\u012b \u0100l Furaym, Ulaywi Al Furaym", "is_in": "Iraq , \u062c\u0645\u0647\u0648\u0631\u064a\u0629 \u0627\u0644\u0639\u0631\u0627\u0642", "name": "\u0639\u0644\u064a\u0648\u064a \u0622\u0644 \u0641\u0631\u064a\u0645", "name:ar": "\u0639\u0644\u064a\u0648\u064a \u0622\u0644 \u0641\u0631\u064a\u0645", "name:ar1": "\u0639\u0644\u064a\u0648\u064a \u0622\u0644 \u0641\u0631\u064a\u0645", "name:de": "Ulaywi Al Furaym", "name:en": "Ulaywi Al Furaym", "name:fr": "Ulaywi Al Furaym", "place": "village"}}, {"type": "node", "id": 2486545339, "lat": 31.568008, "lon": 44.605085, "tags": {"alt_name": "\u0628\u0646\u064a \u0639\u0627\u0631\u0641", "int_name": "Ban\u012b \u0100rif, \u0628\u0646\u064a \u0639\u0627\u0631\u0641, Bani Arif, \u0628\u0646\u064a \u0639\u0627\u0631\u0641", "is_in": "Iraq , \u062c\u0645\u0647\u0648\u0631\u064a\u0629 \u0627\u0644\u0639\u0631\u0627\u0642", "name": "\u0628\u0646\u064a \u0639\u0627\u0631\u0641", "name:ar": "\u0628\u0646\u064a \u0639\u0627\u0631\u0636", "name:ar1": "\u0628\u0646\u064a \u0639\u0627\u0631\u0641", "name:de": "Bani Arif", "name:en": "Bani Arith", "name:fr": "Bani Arif", "place": "village"}}, {"type": "node", "id": 2486559430, "lat": 31.5820011, "lon": 44.6489193, "tags": {"alt_name": "Ash Shin\u0101f\u012byah, Chinafiyah, N\u0101\u1e29iyat ash Shin\u0101f\u012byah, Shannafiuah, Shen\u0101fiya, Shinafie, Shin\u0101fiya, Shinafiyeh", "capital": "7", "int_name": "Ash Shinafiyah - \u0627\u0644\u0634\u0646\u0627\u0641\u064a\u0629", "name": "\u0627\u0644\u0634\u0646\u0627\u0641\u064a\u0629", "name:ar": "\u0627\u0644\u0634\u0646\u0627\u0641\u064a\u0629", "name:en": "Ash-Shinafiyah", "name:fr": "alShinafiyah", "name:ru": "\u042d\u0448-\u0428\u0438\u043d\u0430\u0444\u0438\u044f", "place": "town", "population": "8824", "population:date": "2012", "source:population": "https://ru.wikipedia.org/wiki/%D0%AD%D1%88-%D0%A8%D0%B8%D0%BD%D0%B0%D1%84%D0%B8%D1%8F", "wikidata": "Q4533372"}}, {"type": "node", "id": 2486559487, "lat": 31.6073514, "lon": 44.6594046, "tags": {"alt_name": "\u0627\u0644 \u062d\u0648\u064a\u062c\u0645", "int_name": "\u0627\u0644 \u062d\u0648\u064a\u062c\u0645, \u0627\u0644 \u062d\u0648\u064a\u062c\u0645", "is_in": "Iraq , \u062c\u0645\u0647\u0648\u0631\u064a\u0629 \u0627\u0644\u0639\u0631\u0627\u0642", "name": "\u0627\u0644 \u062d\u0648\u064a\u062c\u0645", "name:ar": "\u0627\u0644 \u062d\u0648\u064a\u062c\u0645", "name:ar1": "\u0627\u0644 \u062d\u0648\u064a\u062c\u0645", "name:de": "\u0627\u0644 \u062d\u0648\u064a\u062c\u0645", "name:en": "The Hawijm", "name:fr": "\u0627\u0644 \u062d\u0648\u064a\u062c\u0645", "place": "village"}}, {"type": "node", "id": 2486567582, "lat": 31.4210154, "lon": 44.9439018, "tags": {"alt_name": "\u0628\u0627\u0626\u062c \u0622\u0644 \u0645\u0647\u062f\u064a", "int_name": "B\u0101ij \u0100l Mahd\u012b, Baij Al Mahdi", "is_in": "Iraq , \u062c\u0645\u0647\u0648\u0631\u064a\u0629 \u0627\u0644\u0639\u0631\u0627\u0642", "name": "\u062e\u0627\u0646 \u0627\u0644\u0631\u062d\u0628\u0629", "name:ar": "\u062e\u0627\u0646 \u0627\u0644\u0631\u062d\u0628\u0629", "name:ar1": "\u0628\u0627\u0626\u062c \u0622\u0644 \u0645\u0647\u062f\u064a", "name:de": "Khan ar Rahbah", "name:en": "Khan ar Rahbah", "name:fr": "Khan ar Rahbah", "name:ru": "\u0425\u0430\u043d-\u0420\u0443\u0445\u0430\u0431\u0430", "place": "village"}}, {"type": "node", "id": 2486568636, "lat": 31.465053, "lon": 44.863915, "tags": {"alt_name": "\u0639\u0637\u064a\u0629 \u0627\u0644\u0635\u0643\u0631", "int_name": "A\u0163\u012byah a\u015f \u015eagar, \u0639\u0637\u064a\u0629 \u0627\u0644\u0635\u06af\u0631, Atiyah as Sagar, \u0639\u0637\u064a\u0629 \u0627\u0644\u0635\u06af\u0631", "is_in": "Iraq , \u062c\u0645\u0647\u0648\u0631\u064a\u0629 \u0627\u0644\u0639\u0631\u0627\u0642", "name": "\u0639\u0637\u064a\u0629 \u0627\u0644\u0635\u0643\u0631", "name:ar": "\u0627\u0644\u062e\u0632\u0627\u0639\u0644", "name:ar1": "\u0639\u0637\u064a\u0629 \u0627\u0644\u0635\u0643\u0631", "name:de": "Atiyah as Sagar", "name:en": "Atiyah as Sagar", "name:fr": "Atiyah as Sagar", "name:ku-Arab": "\u0627\u0644\u0628\u0648\u0635\u0643\u0631", "place": "village"}}, {"type": "node", "id": 2486569274, "lat": 31.4824971, "lon": 44.8158242, "tags": {"alt_name": "\u0627\u0644\u0623\u0633\u0648\u062f", "int_name": "Al Aswad, \u0627\u0644\u0627\u0633\u0648\u062f, Al Aswad, \u0627\u0644\u0627\u0633\u0648\u062f", "is_in": "Iraq , \u062c\u0645\u0647\u0648\u0631\u064a\u0629 \u0627\u0644\u0639\u0631\u0627\u0642", "name": "\u0627\u0644\u0623\u0633\u0648\u062f", "name:ar": "\u0627\u0644\u0623\u0633\u0648\u062f", "name:ar1": "\u0627\u0644\u0623\u0633\u0648\u062f", "name:de": "Al Aswad", "name:en": "Al Aswad", "name:fr": "Al Aswad", "place": "village"}}, {"type": "node", "id": 2486571026, "lat": 31.4799471, "lon": 44.7666104, "tags": {"alt_name": "\u0639\u0628\u0627\u0633 \u0646\u0639\u0645\u0627\u0646", "int_name": "Abb\u0101s Num\u0101n, \u0639\u0628\u0627\u0633 \u0646\u0639\u0645\u0627\u0646, Abbas Numan, \u0639\u0628\u0627\u0633 \u0646\u0639\u0645\u0627\u0646", "is_in": "Iraq , \u062c\u0645\u0647\u0648\u0631\u064a\u0629 \u0627\u0644\u0639\u0631\u0627\u0642", "name": "\u0639\u0628\u0627\u0633 \u0646\u0639\u0645\u0627\u0646", "name:ar": "\u0639\u0628\u0627\u0633 \u0646\u0648\u0645\u0627\u0646 \u0627\u0644\u062e\u0641\u0627\u062c\u064a", "name:ar1": "\u0639\u0628\u0627\u0633 \u0646\u0639\u0645\u0627\u0646", "name:de": "Abbas Numan", "name:en": "Abbas Numan", "name:fr": "Abbas Numan", "place": "village"}}, {"type": "node", "id": 2486571265, "lat": 31.478764, "lon": 44.761263, "tags": {"alt_name": "\u0633\u064a\u062f \u0646\u0648\u0631", "int_name": "Saiyid N\u016br, Sayyid N\u016br, \u0633\u064a\u062f \u0646\u0648\u0631, Saiyid Nur, Sayyid Nur, \u0633\u064a\u062f \u0646\u0648\u0631", "is_in": "Iraq , \u062c\u0645\u0647\u0648\u0631\u064a\u0629 \u0627\u0644\u0639\u0631\u0627\u0642", "name": "\u0642\u0644\u0639\u0629 \u0623\u0645 \u0635\u062e\u0631\u0629", "name:ar": "\u0642\u0644\u0639\u0629 \u0623\u0645 \u0635\u062e\u0631\u0629", "name:ar1": "\u0633\u064a\u062f \u0646\u0648\u0631", "name:de": "Qalat Umm Sakhrah", "name:en": "Qalat Umm Sakhrah", "name:fr": "Qalat Umm Sakhrah", "name:ru": "\u0423\u043c\u043c-\u0421\u0430\u0445\u0440\u0430", "place": "village"}}, {"type": "node", "id": 2486571339, "lat": 31.485824, "lon": 44.757561, "tags": {"alt_name": "\u0634\u0628\u0648\u0637 \u0627\u0644\u0628\u0644\u0628\u0644", "int_name": "Shab\u016b\u0163 al Bulbul, \u0634\u0628\u0648\u0637 \u0627\u0644\u0628\u0644\u0628\u0644, Shabut al Bulbul, \u0634\u0628\u0648\u0637 \u0627\u0644\u0628\u0644\u0628\u0644", "is_in": "Iraq , \u062c\u0645\u0647\u0648\u0631\u064a\u0629 \u0627\u0644\u0639\u0631\u0627\u0642", "name": "\u0634\u0628\u0648\u0637 \u0627\u0644\u0628\u0644\u0628\u0644", "name:ar": "\u0634\u0627\u0647\u0648\u062f \u0628\u0644\u0628\u0648\u0644 \u0627\u0644\u062e\u0641\u0627\u062c\u064a", "name:ar1": "\u0634\u0628\u0648\u0637 \u0627\u0644\u0628\u0644\u0628\u0644", "name:de": "Shabut al Bulbul", "name:en": "Shabut al Bulbul", "name:fr": "Shabut al Bulbul", "place": "village"}}, {"type": "node", "id": 2486571453, "lat": 31.471902, "lon": 44.744732, "tags": {"alt_name": "\u0623\u0645 \u062f\u062e\u064a\u0644", "int_name": "Umm Dakh\u012bl, \u0623\u0645 \u062f\u062e\u064a\u0644, Umm Dakhil, \u0623\u0645 \u062f\u062e\u064a\u0644", "is_in": "Iraq , \u062c\u0645\u0647\u0648\u0631\u064a\u0629 \u0627\u0644\u0639\u0631\u0627\u0642", "name": "\u0623\u0645 \u062f\u062e\u064a\u0644", "name:ar": "\u0623\u0645 \u062f\u062d\u064a\u0644\u0629", "name:ar1": "\u0623\u0645 \u062f\u062e\u064a\u0644", "name:de": "Umm Dakhil", "name:en": "Umm Dakhil", "name:fr": "Umm Dakhil", "place": "village"}}, {"type": "node", "id": 2486573334, "lat": 31.2637503, "lon": 45.0669108, "tags": {"alt_name": "\u0634\u0645\u0634\u0645", "int_name": "Chamcham, Shamsham, Chamcham, Shamsham", "is_in": "Iraq , \u062c\u0645\u0647\u0648\u0631\u064a\u0629 \u0627\u0644\u0639\u0631\u0627\u0642", "name": "\u0634\u0645\u0634\u0645", "name:ar": "\u0627\u0644\u0645\u0645\u0644\u062d\u0629", "name:ar1": "\u0634\u0645\u0634\u0645", "name:de": "Chamcham", "name:en": "Chamcham", "name:fr": "Chamcham", "place": "village"}}, {"type": "node", "id": 2486573345, "lat": 31.2631595, "lon": 45.0670587, "tags": {"alt_name": "\u0643\u0645\u0643\u0645", "int_name": "Kamkam, Kamkam", "is_in": "Iraq , \u062c\u0645\u0647\u0648\u0631\u064a\u0629 \u0627\u0644\u0639\u0631\u0627\u0642", "name": "\u0643\u0645\u0643\u0645", "name:ar": "Mamlahah", "name:ar1": "\u0643\u0645\u0643\u0645", "name:de": "Kamkam", "name:en": "Kamkam", "name:fr": "Kamkam", "name:ku": "\u05d7\u05e0\u05d9\u05db\u05d4 \u05e2\u05d9", "place": "village"}}, {"type": "node", "id": 2486573350, "lat": 31.266195, "lon": 45.072538, "tags": {"alt_name": "\u0642\u0631\u064a\u0629 \u0627\u0644\u0645\u0645\u0644\u062d\u0629", "int_name": "Qaryat al Mamla\u1e29ah, \u0642\u0631\u064a\u0629 \u0627\u0644\u0645\u0645\u0644\u062d\u0629, Qaryat al Mamlahah, \u0642\u0631\u064a\u0629 \u0627\u0644\u0645\u0645\u0644\u062d\u0629", "name": "\u0642\u0631\u064a\u0629 \u0627\u0644\u0645\u0645\u0644\u062d\u0629", "name:ar": "mamlha", "name:ar1": "\u0642\u0631\u064a\u0629 \u0627\u0644\u0645\u0645\u0644\u062d\u0629", "name:de": "Qaryat al Mamlahah", "name:en": "Qaryat al Mamlahah", "name:fr": "Qaryat al Mamlahah", "place": "village"}}, {"type": "node", "id": 2487769335, "lat": 31.609395, "lon": 44.993744, "tags": {"alt_name": "\u0628\u0646\u064a \u0639\u0627\u0631\u0641", "int_name": "Ban\u012b \u0100rif, \u0628\u0646\u064a \u0639\u0627\u0631\u0641, Bani Arif, \u0628\u0646\u064a \u0639\u0627\u0631\u0641", "is_in": "Iraq , \u062c\u0645\u0647\u0648\u0631\u064a\u0629 \u0627\u0644\u0639\u0631\u0627\u0642", "name": "\u0628\u0646\u064a \u0639\u0627\u0631\u0641", "name:ar": "\u0628\u0646\u064a \u0639\u0627\u0631\u0636", "name:ar1": "\u0628\u0646\u064a \u0639\u0627\u0631\u0641", "name:de": "Bani Arif", "name:en": "Bani Ariz", "name:fr": "Bani Arif", "place": "village"}}, {"type": "node", "id": 2487769426, "lat": 31.647252, "lon": 44.971504, "tags": {"alt_name": "\u0648\u0627\u062d\u062f \u062d\u0632\u064a\u0631\u0627\u0646", "int_name": "\u0661\u062d\u0632\u064a\u0631\u0627\u0646, Al Hurayr\u0101n, W\u0101\u1e29id \u1e28uzayr\u0101n, \u0661\u062d\u0632\u064a\u0631\u0627\u0646, Al Hurayran, Wahid Huzayran", "name": "\u0648\u0627\u062d\u062f \u062d\u0632\u064a\u0631\u0627\u0646", "name:ar": "\u0628\u0646\u064a \u0639\u0627\u0631\u0636 \u062d\u0633\u064a\u0646 \u0627\u0644\u0645\u062c\u0647\u0648\u0644", "name:ar1": "\u0648\u0627\u062d\u062f \u062d\u0632\u064a\u0631\u0627\u0646", "name:de": "\u0661\u062d\u0632\u064a\u0631\u0627\u0646", "name:en": "Hussen al mghol", "name:fr": "\u0661\u062d\u0632\u064a\u0631\u0627\u0646", "place": "village"}}, {"type": "node", "id": 2487770529, "lat": 31.471448, "lon": 44.72292, "tags": {"alt_name": "\u0623\u0647\u0631 \u0627\u0644\u0639\u0648\u062f\u0629", "int_name": "Ahar al Awdah, \u0627\u0647\u0631 \u0627\u0644\u0639\u0648\u062f\u0647, Ahar al Awdah, \u0627\u0647\u0631 \u0627\u0644\u0639\u0648\u062f\u0647", "is_in": "Iraq , \u062c\u0645\u0647\u0648\u0631\u064a\u0629 \u0627\u0644\u0639\u0631\u0627\u0642", "name": "\u0623\u0647\u0631 \u0627\u0644\u0639\u0648\u062f\u0629", "name:ar": "\u0633\u0639\u0627\u0631 \u0627\u0644\u0639\u0648\u062f\u0629", "name:ar1": "\u0623\u0647\u0631 \u0627\u0644\u0639\u0648\u062f\u0629", "name:de": "Ahar al Awdah", "name:en": "Ahar al Awdah", "name:fr": "Ahar al Awdah", "place": "village"}}, {"type": "node", "id": 2487770819, "lat": 31.549754, "lon": 44.803351, "tags": {"alt_name": "\u0631\u0648\u0643 \u0639\u0644\u0648\u0627\u0646", "int_name": "R\u016bk Alw\u0101n, \u0631\u0648\u0643 \u0639\u0644\u0648\u0627\u0646, Ruk Alwan, \u0631\u0648\u0643 \u0639\u0644\u0648\u0627\u0646", "is_in": "Iraq , \u062c\u0645\u0647\u0648\u0631\u064a\u0629 \u0627\u0644\u0639\u0631\u0627\u0642", "name": "\u0631\u0648\u0643 \u0639\u0644\u0648\u0627\u0646", "name:ar": "\u0631\u0648\u0627\u0643 \u0639\u0644\u0648\u0627\u0646 \u0646\u0648\u0646\u064a", "name:ar1": "\u0631\u0648\u0643 \u0639\u0644\u0648\u0627\u0646", "name:de": "Ruk Alwan", "name:en": "Ruk Alwan", "name:fr": "Ruk Alwan", "place": "village"}}, {"type": "node", "id": 2487770827, "lat": 31.559763, "lon": 44.784211, "tags": {"alt_name": "\u0633\u062a\u0627\u0631 \u0639\u0644\u0648\u0627\u0646", "int_name": "Sat\u0101r Alw\u0101n, \u0633\u062a\u0627\u0631 \u0639\u0644\u0648\u0627\u0646, Satar Alwan, \u0633\u062a\u0627\u0631 \u0639\u0644\u0648\u0627\u0646", "is_in": "Iraq , \u062c\u0645\u0647\u0648\u0631\u064a\u0629 \u0627\u0644\u0639\u0631\u0627\u0642", "name": "\u0633\u062a\u0627\u0631 \u0639\u0644\u0648\u0627\u0646", "name:ar": "\u0633\u062a\u0627\u0631 \u0639\u0644\u0648\u0627\u0646 \u0627\u0644\u0639\u064a\u0627\u0634\u064a", "name:ar1": "\u0633\u062a\u0627\u0631 \u0639\u0644\u0648\u0627\u0646", "name:de": "Satar Alwan", "name:en": "Satar Alwan", "name:fr": "Satar Alwan", "place": "village"}}, {"type": "node", "id": 2487770834, "lat": 31.583724, "lon": 44.687555, "tags": {"alt_name": "\u0633\u064a\u062f \u0636\u0627\u062d\u064a", "int_name": "Sayyid \u1e10\u0101\u1e29\u012b, \u0633\u064a\u062f \u0636\u0627\u062d\u064a, Sayyid Dahi, \u0633\u064a\u062f \u0636\u0627\u062d\u064a", "name": "\u0642\u0631\u064a\u0629 \u0633\u064a\u062f \u0636\u0627\u062d\u064a", "name:ar": "\u0633\u064a\u062f \u0636\u0627\u062d\u064a", "name:ar1": "\u0633\u064a\u062f \u0636\u0627\u062d\u064a", "name:de": "Sayyid Dahi", "name:en": "Sayyid Dahi", "name:fr": "Sayyid Dahi", "place": "village"}}, {"type": "node", "id": 2487770985, "lat": 31.6055125, "lon": 44.5765473, "tags": {"alt_name": "\u062c\u0639\u0628 \u0627\u0644 \u0639\u0628\u062f", "int_name": "\u062c\u0639\u0628 \u0627\u0644 \u0639\u0628\u062f, \u062c\u0639\u0628 \u0627\u0644 \u0639\u0628\u062f", "is_in": "Iraq , \u062c\u0645\u0647\u0648\u0631\u064a\u0629 \u0627\u0644\u0639\u0631\u0627\u0642", "name": "\u062c\u0639\u0628 \u0627\u0644 \u0639\u0628\u062f", "name:ar": "\u062c\u0639\u0628 \u0627\u0644 \u0639\u0628\u062f", "name:ar1": "\u062c\u0639\u0628 \u0627\u0644 \u0639\u0628\u062f", "name:de": "\u062c\u0639\u0628 \u0627\u0644 \u0639\u0628\u062f", "name:fr": "\u062c\u0639\u0628 \u0627\u0644 \u0639\u0628\u062f", "place": "village"}}, {"type": "node", "id": 2487771001, "lat": 31.6897055, "lon": 44.7470156, "tags": {"alt_name": "\u0645\u064a\u0631\u064a \u0627\u0644 \u0639\u0637\u064a\u0629", "int_name": "\u0645\u064a\u0631\u064a \u0627\u0644 \u0639\u0637\u064a\u0629, \u0645\u064a\u0631\u064a \u0627\u0644 \u0639\u0637\u064a\u0629", "is_in": "Iraq , \u062c\u0645\u0647\u0648\u0631\u064a\u0629 \u0627\u0644\u0639\u0631\u0627\u0642", "name": "\u0645\u064a\u0631\u064a \u0627\u0644 \u0639\u0637\u064a\u0629", "name:ar": "\u0645\u064a\u0631\u064a \u0627\u0644 \u0639\u0637\u064a\u0629", "name:ar1": "\u0645\u064a\u0631\u064a \u0627\u0644 \u0639\u0637\u064a\u0629", "name:de": "\u0645\u064a\u0631\u064a \u0627\u0644 \u0639\u0637\u064a\u0629", "name:fr": "\u0645\u064a\u0631\u064a \u0627\u0644 \u0639\u0637\u064a\u0629", "place": "village"}}, {"type": "node", "id": 4515330994, "lat": 31.5750915, "lon": 44.6505919}, {"type": "node", "id": 4515330995, "lat": 31.5752743, "lon": 44.6524587}, {"type": "node", "id": 4515330996, "lat": 31.5735741, "lon": 44.6540251}, {"type": "node", "id": 4515330997, "lat": 31.572788, "lon": 44.6508708}, {"type": "node", "id": 4548167481, "lat": 31.5740103, "lon": 44.6514636, "tags": {"name": "\u0642\u0631\u064a\u0629 \u0633\u064a\u062f \u0637\u0627\u0644\u0628", "place": "village"}}, {"type": "node", "id": 4548168759, "lat": 31.5699351, "lon": 44.6446108, "tags": {"name": "\u0642\u0631\u064a\u0629 \u0633\u064a\u062f \u064a\u0648\u0646\u0633", "place": "village"}}, {"type": "node", "id": 4550632979, "lat": 31.5757788, "lon": 44.6429965}, {"type": "node", "id": 4550632980, "lat": 31.575513, "lon": 44.644186}, {"type": "node", "id": 4550632981, "lat": 31.5735693, "lon": 44.6439325}, {"type": "node", "id": 4550632982, "lat": 31.573968, "lon": 44.6411831}, {"type": "node", "id": 4550632983, "lat": 31.5751973, "lon": 44.6419436}, {"type": "node", "id": 4550646874, "lat": 31.6168122, "lon": 44.6217126}, {"type": "node", "id": 4550646875, "lat": 31.6165381, "lon": 44.62403}, {"type": "node", "id": 4550646876, "lat": 31.6158985, "lon": 44.6243948}, {"type": "node", "id": 4550646877, "lat": 31.6147839, "lon": 44.6237725}, {"type": "node", "id": 4550646878, "lat": 31.6128104, "lon": 44.6228713}, {"type": "node", "id": 4550646879, "lat": 31.6105261, "lon": 44.6233433}, {"type": "node", "id": 4550646880, "lat": 31.60932, "lon": 44.6219057}, {"type": "node", "id": 4550646881, "lat": 31.6096124, "lon": 44.6205538}, {"type": "node", "id": 4550646882, "lat": 31.6109647, "lon": 44.6205538}, {"type": "node", "id": 4550646883, "lat": 31.6118601, "lon": 44.6184939}, {"type": "way", "id": 455082460, "nodes": [4515330994, 4515330995, 4515330996, 4515330997, 4515330994], "tags": {"name": "\u0642\u0631\u064a\u0629 \u0633\u064a\u062f \u0637\u0627\u0644\u0628", "place": "village"}}, {"type": "way", "id": 459151790, "nodes": [4550632979, 4550632980, 4550632981, 4550632982, 4550632983, 4550632979], "tags": {"name": "\u0627\u0644 \u0645\u0643\u0648\u0637\u0631", "place": "village"}}, {"type": "way", "id": 459153038, "nodes": [4550646874, 4550646875, 4550646876, 4550646877, 4550646878, 4550646879, 4550646880, 4550646881, 4550646882, 4550646883, 4550646874], "tags": {"name": "\u0627\u0644\u0628\u0648\u0634\u062a\u064a\u0648\u064a", "place": "village"}}]}