{"version": 0.6, "generator": "Overpass API 0.7.61.5 4133829e", "osm3s": {"timestamp_osm_base": "2024-03-05T11:05:12Z", "copyright": "The data included in this document is from www.openstreetmap.org. The data is made available under ODbL."}, "elements": [{"type": "node", "id": 1293965179, "lat": 6.3415279, "lon": -0.9977206, "tags": {"addr:country": "GH", "addr:region": "Eastern", "addr:street": "Nkawkaw Road", "addr:town": "New Abirem", "alt_name": "Ecobank - New Abirem Branch", "amenity": "bank", "atm": "yes", "branch": "New Abirem", "brand": "Ecobank", "brand:wikidata": "Q930225", "brand:wikipedia": "en:Ecobank", "contact:facebook": "EcobankGhanaPLC", "contact:instagram": "ecobankghanaplc", "contact:linkedin": "ecobankghanaplc", "contact:twitter": "EcobankGhanaPLC", "contact:youtube": "ecobanktv", "email": "ecobankenquiries@ecobank.com", "name": "Ecobank", "opening_hours": "Mo-Fr 08:30-16:00; Sa 09:00-14:00; PH off", "operator": "Ecobank Ghana PLC", "operator:type": "public", "operator:wikidata": "Q5333155", "operator:wikipedia": "en:Ecobank Ghana", "phone": "+233 26 3016719", "website": "https://ecobank.com/gh/"}}, {"type": "node", "id": 3731304729, "lat": 6.3438555, "lon": -0.9978187, "tags": {"amenity": "bank", "atm": "yes", "brand": "Absa", "brand:wikidata": "Q58641733", "brand:wikipedia": "en:Absa Group Limited", "name": "Absa", "old_name": "Barclays", "operator": "Absa Group Limited"}}, {"type": "node", "id": 3731304732, "lat": 6.3439317, "lon": -0.9978291, "tags": {"amenity": "bank", "atm": "yes", "name": "Kwahu Rural Bank"}}, {"type": "node", "id": 10276735493, "lat": 6.4674577, "lon": -0.8908851}, {"type": "node", "id": 10276735494, "lat": 6.467395, "lon": -0.8908945}, {"type": "node", "id": 10276735495, "lat": 6.4674008, "lon": -0.8909333}, {"type": "node", "id": 10276735496, "lat": 6.4674634, "lon": -0.8909239}, {"type": "node", "id": 10276735497, "lat": 6.4673523, "lon": -0.8910087}, {"type": "node", "id": 10276735498, "lat": 6.4673283, "lon": -0.8908451}, {"type": "node", "id": 10276735499, "lat": 6.4675021, "lon": -0.8908193}, {"type": "node", "id": 10276735500, "lat": 6.467526, "lon": -0.8909829}, {"type": "node", "id": 11214084513, "lat": 6.3574665, "lon": -0.9979615, "tags": {"addr:country": "GH", "addr:region": "Eastern", "addr:street": "Nkawkaw Road", "addr:town": "New Abirem", "alt_name": "Absa - New Abirem Agency", "amenity": "bank", "branch": "New Abirem Agency", "brand": "Absa", "brand:wikidata": "Q58641733", "brand:wikipedia": "en:Absa Group Limited", "contact:instagram": "absaghana", "contact:linkedin": "absa-ghana", "contact:twitter": "AbsaGhana", "contact:whatsapp": "+233 50 164 4644", "contact:youtube": "https://www.youtube.com/channel/UCKpKPyfJ69tf7lnxudpzKJQ", "email": "service.excellence.GH@absa.africa", "facebook": "AbsaGhana", "name": "Absa", "opening_hours": "Mo-Fr 08:30-16:30; PH off", "operator": "Absa Bank Ghana Limited", "operator:type": "public", "operator:wikidata": "Q96371413", "operator:wikipedia": "en:Absa Bank Ghana", "phone": "+233 34 229 0743", "website": "https://www.absa.com.gh"}}, {"type": "way", "id": 1123740538, "nodes": [10276735496, 10276735493, 10276735494, 10276735495, 10276735496]}, {"type": "way", "id": 1123740539, "nodes": [10276735500, 10276735499, 10276735498, 10276735497, 10276735500]}, {"type": "relation", "id": 15035715, "members": [{"type": "way", "ref": 1123740538, "role": "inner"}, {"type": "way", "ref": 1123740539, "role": "outer"}], "tags": {"amenity": "bank", "atm": "yes", "name": "Dumpong Rural Bank", "type": "multipolygon", "wheelchair": "limited"}}]}