{"version": 0.6, "generator": "Overpass API 0.7.61.5 4133829e", "osm3s": {"timestamp_osm_base": "2024-03-06T11:35:00Z", "copyright": "The data included in this document is from www.openstreetmap.org. The data is made available under ODbL."}, "elements": [{"type": "node", "id": 44930630, "lat": 0.632706, "lon": 34.269398, "tags": {"amenity": "hospital", "healthcare": "hospital", "is_in": "Busia,Kenya", "name": "Malaba", "wikidata": "Q6740728"}}, {"type": "node", "id": 1425313719, "lat": 0.6594152, "lon": 34.1896933}, {"type": "node", "id": 1427060682, "lat": 0.6943234, "lon": 34.2007622}, {"type": "node", "id": 1428957285, "lat": 0.6847592, "lon": 34.1801146}, {"type": "node", "id": 1428957293, "lat": 0.6842755, "lon": 34.1795654}, {"type": "node", "id": 1436201730, "lat": 0.7043378, "lon": 34.1971247}, {"type": "node", "id": 1898989176, "lat": 0.6082056, "lon": 33.9850671}, {"type": "node", "id": 1898989182, "lat": 0.6082199, "lon": 33.9849683}, {"type": "node", "id": 1898989212, "lat": 0.6083761, "lon": 33.9850919}, {"type": "node", "id": 1898989214, "lat": 0.6083905, "lon": 33.9849931}, {"type": "node", "id": 3193627271, "lat": 0.6939825, "lon": 34.1814453, "tags": {"amenity": "pharmacy", "name": "Zeyne Pharmacy"}}, {"type": "node", "id": 3357202983, "lat": 0.6812269, "lon": 34.1807124}, {"type": "node", "id": 3357202995, "lat": 0.6816045, "lon": 34.1783129}, {"type": "node", "id": 3357202997, "lat": 0.6822339, "lon": 34.180861}, {"type": "node", "id": 3357202998, "lat": 0.6824476, "lon": 34.1811086}, {"type": "node", "id": 3357203000, "lat": 0.6828138, "lon": 34.1815136}, {"type": "node", "id": 3357203005, "lat": 0.6844136, "lon": 34.1790128}, {"type": "node", "id": 3357617063, "lat": 0.6929398, "lon": 34.1877264}, {"type": "node", "id": 3357617087, "lat": 0.693678, "lon": 34.1858422}, {"type": "node", "id": 3357617199, "lat": 0.6952592, "lon": 34.1884951}, {"type": "node", "id": 3357617260, "lat": 0.6959318, "lon": 34.1868408}, {"type": "node", "id": 3357874952, "lat": 0.6774764, "lon": 34.2021095}, {"type": "node", "id": 3357874953, "lat": 0.6775036, "lon": 34.201759}, {"type": "node", "id": 3357874974, "lat": 0.6777256, "lon": 34.2021694}, {"type": "node", "id": 3357874988, "lat": 0.6778181, "lon": 34.2019702}, {"type": "node", "id": 3357874992, "lat": 0.6778584, "lon": 34.2016915}, {"type": "node", "id": 3986151809, "lat": 0.6923686, "lon": 34.1804499, "tags": {"addr:city": "Western Division", "addr:street": "Nagongera Road", "amenity": "doctors", "bed_count": "8", "name": "Destiny Medical Centre"}}, {"type": "node", "id": 3986151811, "lat": 0.6922057, "lon": 34.1779271, "tags": {"addr:city": "Western Division", "addr:housenumber": "Plot: 13", "addr:street": "Rock Crescent Road", "amenity": "hospital", "bed_count": "13", "name": "Geel Hospital"}}, {"type": "node", "id": 3986158990, "lat": 0.6912417, "lon": 34.1811299, "tags": {"addr:city": "Tororo", "addr:street": "School Street", "amenity": "clinic", "bed_count": "20", "name": "Dembe Medical Centre and Laboratory", "wikidata": "Q22981166"}}, {"type": "node", "id": 3986161876, "lat": 0.6930795, "lon": 34.1816576, "tags": {"addr:city": "Tororo", "addr:street": "Bazaar Street", "amenity": "clinic", "name": "Hope Medical Clinic"}}, {"type": "node", "id": 3986161877, "lat": 0.6926919, "lon": 34.1827761, "tags": {"addr:city": "Tororo", "addr:street": "Bazaar Street", "amenity": "doctors", "bed_count": "4", "name": "St.Valentine Medical Centre"}}, {"type": "node", "id": 3986163608, "lat": 0.6923639, "lon": 34.1805591, "tags": {"addr:city": "tororo", "amenity": "doctors", "name": "Destiny Medical Centre"}}, {"type": "node", "id": 3986168665, "lat": 0.6923603, "lon": 34.1820045, "tags": {"addr:city": "Western Division", "addr:street": "Uhuru drive", "amenity": "clinic", "name": "Carhariet Medical Clinic"}}, {"type": "node", "id": 3987508660, "lat": 0.6949673, "lon": 34.179039, "tags": {"addr:city": "tororo", "amenity": "pharmacy", "name": "Samulon Pharmacy"}}, {"type": "node", "id": 3990269112, "lat": 0.6958152, "lon": 34.178943, "tags": {"addr:city": "Western Division", "addr:street": "Mvule street", "amenity": "doctors", "bed_count": "4", "building": "hospital", "name": "Clinic Chemistry"}}, {"type": "node", "id": 3990269128, "lat": 0.6914751, "lon": 34.1837312, "tags": {"addr:city": "Western Division", "addr:street": "Uhuru Drive", "amenity": "doctors", "bed_count": "5", "name": "St. Adrian Medical Center"}}, {"type": "node", "id": 3990269137, "lat": 0.6946962, "lon": 34.1776265, "tags": {"addr:city": "Western Division", "addr:street": "Nagongera", "amenity": "clinic", "name": "Tororo General Clinic"}}, {"type": "node", "id": 3990269138, "lat": 0.7022246, "lon": 34.1774736, "tags": {"addr:city": "Western Division", "amenity": "doctors", "bed_count": "4", "building": "hospital", "healthcare": "doctor", "name": "Tororo Health Center III"}}, {"type": "node", "id": 3990323932, "lat": 0.6423768, "lon": 34.2606555, "tags": {"addr:city": "Malaba Town Council", "amenity": "doctors", "bed_count": "6", "building": "hospital", "building:levels": "1", "name": "Malaba Town Council Health Center"}}, {"type": "node", "id": 3990467016, "lat": 0.6919622, "lon": 34.1845098, "tags": {"addr:city": "Western Division", "amenity": "clinic", "name": "Reproductive Health Uganda"}}, {"type": "node", "id": 3990606466, "lat": 0.6914991, "lon": 33.9823301, "tags": {"addr:city": "Nabuyoga", "addr:street": "Nabuyoga Road", "amenity": "clinic", "bed_count": "2", "name": "Life Care Medical Centre"}}, {"type": "node", "id": 3990606473, "lat": 0.6925428, "lon": 34.0154048, "tags": {"addr:city": "Mulanda", "addr:street": "Mulanda Road", "amenity": "hospital", "bed_count": "44", "building": "hospital", "building:levels": "1", "building:material": "brick", "name": "Mulanda Health Centre IV"}}, {"type": "node", "id": 3990606480, "lat": 0.7045528, "lon": 33.9516431, "tags": {"addr:city": "Nabuyoga", "addr:street": "Tororo Buwesa Road", "amenity": "pharmacy", "building:levels": "0", "building:material": "brick", "name": "Om Drug Shop"}}, {"type": "node", "id": 3990606490, "lat": 0.6944334, "lon": 33.9765581, "tags": {"addr:city": "Nabuyoga", "addr:street": "Nabuyoga Road", "amenity": "clinic", "bed_count": "1"}}, {"type": "node", "id": 3990873072, "lat": 0.7227265, "lon": 34.0648323}, {"type": "node", "id": 3990903346, "lat": 0.608401, "lon": 33.9851225}, {"type": "node", "id": 3990903355, "lat": 0.6246561, "lon": 34.0973698, "tags": {"addr:city": "Magola", "amenity": "clinic", "name": "Ocen Drugshop"}}, {"type": "node", "id": 3990909862, "lat": 0.6553839, "lon": 34.090168, "tags": {"addr:city": "Magola subcounty", "amenity": "clinic", "bed_count": "20", "name": "Papoli Community Health Center"}}, {"type": "node", "id": 3990909865, "lat": 0.620055, "lon": 34.0820382, "tags": {"addr:city": "Magola", "amenity": "hospital", "name": "Poyameri health centre Three"}}, {"type": "node", "id": 3994268154, "lat": 0.6987023, "lon": 34.182661, "tags": {"addr:city": "Tororo", "addr:housenumber": "29", "addr:street": "Mbale Tororo Road", "amenity": "clinic", "bed_count": "3", "name": "Mukwano Joint Clinic"}}, {"type": "node", "id": 3995426869, "lat": 0.6265072, "lon": 34.1218101, "tags": {"addr:city": "Osukuru", "amenity": "doctors", "name": "Kayoro Health Centre II"}}, {"type": "node", "id": 3995426871, "lat": 0.6595478, "lon": 34.1483864, "tags": {"addr:city": "Osukuru", "addr:street": "Kampala Road", "amenity": "doctors", "name": "Living Hope Medical Clinic"}}, {"type": "node", "id": 3995426874, "lat": 0.7050535, "lon": 34.2236136, "tags": {"addr:city": "Osukuru", "addr:street": "Morukatipe Road", "amenity": "clinic", "bed_count": "12", "name": "Morukatipe Health Centre III"}}, {"type": "node", "id": 3995426882, "lat": 0.6472546, "lon": 34.171604, "tags": {"addr:city": "Osukuru", "addr:street": "Busia Road", "amenity": "doctors", "name": "Osukuru Health Centre III"}}, {"type": "node", "id": 3995426888, "lat": 0.7017954, "lon": 34.2366754, "tags": {"addr:city": "Osukuru", "amenity": "doctors", "bed_count": "5", "name": "Tororo Prison Clinic"}}, {"type": "node", "id": 3995426891, "lat": 0.665292, "lon": 34.1473146}, {"type": "node", "id": 3996068285, "lat": 0.5351573, "lon": 33.9303088, "tags": {"addr:city": "Buluguyi", "amenity": "clinic", "bed_count": "2", "name": "Cure Medical Clinic"}}, {"type": "node", "id": 3996068318, "lat": 0.5339685, "lon": 33.9303498, "tags": {"addr:city": "Buluguyi", "amenity": "pharmacy", "name": "People's Drug Shop Muwayo"}}, {"type": "node", "id": 3996068322, "lat": 0.5519256, "lon": 33.9278044, "tags": {"addr:city": "Buluguyi", "amenity": "hospital", "name": "Village Of Eden Medical Centre"}}, {"type": "node", "id": 3997644166, "lat": 0.6900342, "lon": 34.1865411, "tags": {"addr:city": "Eastern Division", "addr:street": "Uhuru Road", "amenity": "doctors", "bed_count": "4", "name": "Adrian Medical Center"}}, {"type": "node", "id": 3997644168, "lat": 0.6920433, "lon": 34.1829638, "tags": {"addr:city": "Tororo", "addr:street": "Uhuru Road", "amenity": "doctors", "bed_count": "12", "name": "Car Harriet Medical clinic"}}, {"type": "node", "id": 3997879781, "lat": 0.4714377, "lon": 34.044413, "tags": {"addr:city": "Busia", "addr:street": "Busia Road", "amenity": "clinic", "bed_count": "17", "name": "Bronze Medical Centre"}}, {"type": "node", "id": 3997879799, "lat": 0.433255, "lon": 34.0486588, "tags": {"addr:city": "Busia", "addr:street": "Dabani Road", "amenity": "hospital", "bed_count": "100", "name": "Dabani Hospital"}}, {"type": "node", "id": 3997879801, "lat": 0.4655562, "lon": 34.0882021, "tags": {"addr:city": "Busia", "amenity": "clinic", "name": "Dental Clinic"}}, {"type": "node", "id": 3997879810, "lat": 0.4652731, "lon": 34.0879135, "tags": {"addr:city": "Busia", "amenity": "doctors", "name": "Fukanga Herbal"}}, {"type": "node", "id": 3997879811, "lat": 0.5115845, "lon": 34.0772128, "tags": {"addr:city": "Busia", "amenity": "doctors", "bed_count": "2", "name": "Health side Medical laboratory"}}, {"type": "node", "id": 3997879829, "lat": 0.463843, "lon": 34.0623908, "tags": {"addr:city": "Busia", "amenity": "clinic", "bed_count": "12", "name": "Ms International Medical Centre"}}, {"type": "node", "id": 3997879842, "lat": 0.4996147, "lon": 34.0598098, "tags": {"addr:city": "Busia", "amenity": "hospital", "bed_count": "22", "name": "Sikuda Health Centre 11"}}, {"type": "node", "id": 3997936758, "lat": 0.3498952, "lon": 33.9776305, "tags": {"addr:city": "Masaba", "amenity": "pharmacy"}}, {"type": "node", "id": 3997958539, "lat": 0.492232, "lon": 33.9908389, "tags": {"addr:city": "Bulumbi", "addr:street": "Busia Road", "amenity": "doctors", "bed_count": "12", "name": "Bulumbi Health Centre 3"}}, {"type": "node", "id": 3997958547, "lat": 0.4634995, "lon": 33.9769783, "tags": {"addr:city": "Buyanga", "addr:street": "Buwembe Road", "amenity": "doctors", "bed_count": "2", "name": "Buwembe Health Centre 2"}}, {"type": "node", "id": 3997958671, "lat": 0.4684404, "lon": 33.9958219, "tags": {"addr:city": "Buyanga", "addr:street": "Buwembe Road", "amenity": "doctors", "bed_count": "0", "name": "Family Care Dispensary"}}, {"type": "node", "id": 3999040346, "lat": 0.4709408, "lon": 34.0748663, "tags": {"addr:city": "Dabani", "addr:housenumber": "Plot 13-18", "addr:street": "Adam Road", "amenity": "doctors", "name": "Nabulola Community Medical Centre"}}, {"type": "node", "id": 3999151554, "lat": 0.5657096, "lon": 34.0780444, "tags": {"addr:city": "Buteba", "amenity": "doctors", "name": "Amonikakinei Health Centre 11"}}, {"type": "node", "id": 3999155357, "lat": 0.5460744, "lon": 34.0209361, "tags": {"addr:city": "Busitema", "amenity": "clinic", "name": "Busitema Clinic", "opening_hours:signed": "no"}}, {"type": "node", "id": 3999155359, "lat": 0.5529509, "lon": 34.0405828, "tags": {"addr:city": "Busitema", "addr:street": "Tira Road", "amenity": "clinic", "name": "Busitema Health Centre III"}}, {"type": "node", "id": 3999155364, "lat": 0.5369968, "lon": 34.1244835}, {"type": "node", "id": 3999155369, "lat": 0.5602795, "lon": 34.0272496, "tags": {"addr:city": "Busitema", "addr:street": "Tororo Road", "amenity": "doctors", "bed_count": "2", "name": "Cure Health Centre"}}, {"type": "node", "id": 3999155390, "lat": 0.5361389, "lon": 34.1257065, "tags": {"addr:city": "Buteba", "amenity": "clinic", "name": "St Louice Medical Clinic and Laboratory Services"}}, {"type": "node", "id": 3999951562, "lat": 0.3451515, "lon": 34.0469439}, {"type": "node", "id": 3999951567, "lat": 0.3517099, "lon": 34.0714715, "tags": {"amenity": "clinic", "name": "Sibona Medical Centre"}}, {"type": "node", "id": 4380542643, "lat": 0.5464357, "lon": 34.0247799}, {"type": "node", "id": 7164152711, "lat": 0.6721242, "lon": 33.9411274}, {"type": "node", "id": 7164152712, "lat": 0.6721154, "lon": 33.9412477}, {"type": "node", "id": 7164152713, "lat": 0.6720251, "lon": 33.9412636}, {"type": "node", "id": 7164152714, "lat": 0.6720145, "lon": 33.9411221}, {"type": "node", "id": 7164152715, "lat": 0.6720694, "lon": 33.9411203}, {"type": "node", "id": 7324738886, "lat": 0.5415675, "lon": 34.0260905, "tags": {"addr:full": "Busitema University", "amenity": "clinic", "healthcare": "clinic", "name": "Shaule Gods Marcy Drags shop", "opening_hours": "Mo-Su 08:00-23:00"}}, {"type": "node", "id": 7470188582, "lat": 0.6596163, "lon": 34.1897443}, {"type": "node", "id": 7470188583, "lat": 0.6596002, "lon": 34.1901654}, {"type": "node", "id": 7470188584, "lat": 0.6589485, "lon": 34.1902163}, {"type": "node", "id": 7470223285, "lat": 0.6589941, "lon": 34.1896772}, {"type": "node", "id": 7470223286, "lat": 0.6591228, "lon": 34.1896075}, {"type": "node", "id": 7470238829, "lat": 0.6942188, "lon": 34.201351}, {"type": "node", "id": 7470238830, "lat": 0.6941396, "lon": 34.2013912}, {"type": "node", "id": 7470238831, "lat": 0.6939237, "lon": 34.2009285}, {"type": "node", "id": 7470238835, "lat": 0.7042144, "lon": 34.197071}, {"type": "node", "id": 7470238836, "lat": 0.703257, "lon": 34.1965373}, {"type": "node", "id": 7470238837, "lat": 0.7032945, "lon": 34.196438}, {"type": "node", "id": 7470238838, "lat": 0.7033186, "lon": 34.1963602}, {"type": "node", "id": 7470238839, "lat": 0.70356, "lon": 34.1956226}, {"type": "node", "id": 7470238840, "lat": 0.7039436, "lon": 34.1957514}, {"type": "node", "id": 7470238841, "lat": 0.7043459, "lon": 34.1958935}, {"type": "node", "id": 7470238842, "lat": 0.7047133, "lon": 34.1960223}, {"type": "node", "id": 7470238843, "lat": 0.7049439, "lon": 34.1961027}, {"type": "node", "id": 7470238844, "lat": 0.7048206, "lon": 34.1963656}, {"type": "node", "id": 7470238845, "lat": 0.7045148, "lon": 34.1968913}, {"type": "node", "id": 7470238846, "lat": 0.7044102, "lon": 34.1970737}, {"type": "node", "id": 7470238847, "lat": 0.7043727, "lon": 34.1971112}, {"type": "node", "id": 7497268146, "lat": 0.6084761, "lon": 33.9848596}, {"type": "node", "id": 7497268147, "lat": 0.6082026, "lon": 33.9847523}, {"type": "node", "id": 7497268148, "lat": 0.608224, "lon": 33.9849213}, {"type": "node", "id": 7497268149, "lat": 0.608173, "lon": 33.9850822}, {"type": "node", "id": 7497268688, "lat": 0.7227801, "lon": 34.0646848}, {"type": "node", "id": 7497268689, "lat": 0.7227828, "lon": 34.0645132}, {"type": "node", "id": 7497268690, "lat": 0.7227694, "lon": 34.0643254}, {"type": "node", "id": 7497268691, "lat": 0.7226809, "lon": 34.0643147}, {"type": "node", "id": 7497268692, "lat": 0.7226246, "lon": 34.0643066}, {"type": "node", "id": 7497268693, "lat": 0.7225253, "lon": 34.0643469}, {"type": "node", "id": 7497268694, "lat": 0.7224771, "lon": 34.0643603}, {"type": "node", "id": 7497268695, "lat": 0.7224583, "lon": 34.0644515}, {"type": "node", "id": 7497268696, "lat": 0.7224529, "lon": 34.0646124}, {"type": "node", "id": 7497268697, "lat": 0.7224315, "lon": 34.0648404}, {"type": "node", "id": 7497268698, "lat": 0.7224261, "lon": 34.0648753}, {"type": "node", "id": 7497272839, "lat": 0.6650673, "lon": 34.147244}, {"type": "node", "id": 7497272840, "lat": 0.6649909, "lon": 34.1473146}, {"type": "node", "id": 7497272841, "lat": 0.6650644, "lon": 34.1474687}, {"type": "node", "id": 7497272842, "lat": 0.6651854, "lon": 34.1474226}, {"type": "node", "id": 7497272843, "lat": 0.6651739, "lon": 34.1473592}, {"type": "node", "id": 7497272844, "lat": 0.6652646, "lon": 34.1473808}, {"type": "node", "id": 7497483846, "lat": 0.5369055, "lon": 34.1243268}, {"type": "node", "id": 7497483847, "lat": 0.5367032, "lon": 34.124428}, {"type": "node", "id": 7497483848, "lat": 0.5367684, "lon": 34.1246042}, {"type": "node", "id": 7497531109, "lat": 0.3448136, "lon": 34.0461902}, {"type": "node", "id": 7497531110, "lat": 0.3441296, "lon": 34.0465067}, {"type": "node", "id": 7497531111, "lat": 0.3444756, "lon": 34.0472256}, {"type": "node", "id": 7498188148, "lat": 0.5465508, "lon": 34.0249419}, {"type": "node", "id": 7498188149, "lat": 0.5466596, "lon": 34.0248647}, {"type": "node", "id": 7498188150, "lat": 0.546591, "lon": 34.0247681}, {"type": "node", "id": 7498188151, "lat": 0.5465668, "lon": 34.0247853}, {"type": "node", "id": 7498188152, "lat": 0.5465203, "lon": 34.0247198}, {"type": "node", "id": 7773159185, "lat": 0.4644888, "lon": 34.0925829, "tags": {"addr:postcode": "256", "addr:street": "Kyamu street", "amenity": "clinic", "name": "Marie Stopes Uganda"}}, {"type": "node", "id": 8420794919, "lat": 0.5413686, "lon": 34.0261537, "tags": {"addr:street": "Tiira Road", "amenity": "pharmacy", "name": "Charity's Clinic"}}, {"type": "node", "id": 8864666470, "lat": 0.499332, "lon": 34.1041312}, {"type": "node", "id": 8864666471, "lat": 0.4993128, "lon": 34.1042308}, {"type": "node", "id": 8864666472, "lat": 0.4992803, "lon": 34.1043242}, {"type": "node", "id": 8864666473, "lat": 0.4992256, "lon": 34.1044176}, {"type": "node", "id": 8864666507, "lat": 0.4991345, "lon": 34.1045999}, {"type": "node", "id": 8864666508, "lat": 0.4992233, "lon": 34.1045566}, {"type": "node", "id": 8864666509, "lat": 0.4994181, "lon": 34.1045236}, {"type": "node", "id": 8864666510, "lat": 0.4995787, "lon": 34.1045014}, {"type": "node", "id": 8864666511, "lat": 0.4997108, "lon": 34.1044809}, {"type": "node", "id": 8864666516, "lat": 0.4993925, "lon": 34.1041739}, {"type": "node", "id": 8864666517, "lat": 0.4994699, "lon": 34.1041967}, {"type": "node", "id": 8864666518, "lat": 0.4995206, "lon": 34.1042069}, {"type": "node", "id": 8864666519, "lat": 0.4995696, "lon": 34.1042086}, {"type": "node", "id": 8864666524, "lat": 0.4996556, "lon": 34.1041876}, {"type": "node", "id": 8864666525, "lat": 0.4996681, "lon": 34.1041773}, {"type": "node", "id": 11056438788, "lat": 0.2992876, "lon": 33.9842757, "tags": {"amenity": "clinic", "grade": "HC II", "name": "BUHENYE"}}, {"type": "node", "id": 11056438793, "lat": 0.6952289, "lon": 34.1871713, "tags": {"amenity": "clinic", "name": "TORORO DISTRICT HOSPITAL"}}, {"type": "node", "id": 11056451815, "lat": 0.7052054, "lon": 34.2238794, "tags": {"amenity": "clinic", "description": "NEW BUILDING UNDER CONSTRUCCTION", "name": "MORUKATIPE HEALTHCENTRE II"}}, {"type": "node", "id": 11056451817, "lat": 0.6553632, "lon": 34.0380357, "tags": {"amenity": "clinic", "grade": "HC II", "name": "LWALA"}}, {"type": "node", "id": 11056451856, "lat": 0.4131702, "lon": 34.0346612, "tags": {"amenity": "hospital", "name": "MASAFU HOSPITAL"}}, {"type": "node", "id": 11056451866, "lat": 0.706463, "lon": 34.1157833, "tags": {"amenity": "hospital", "name": "PANYANGASI HEALTHCENTRE III"}}, {"type": "node", "id": 11056451874, "lat": 0.5657205, "lon": 34.0782023, "tags": {"amenity": "clinic", "name": "ANGOROM HEALTH CENTRE II"}}, {"type": "node", "id": 11056451875, "lat": 0.710305, "lon": 34.08809, "tags": {"amenity": "clinic", "description": "FUNCTION", "name": "HEALTH CENTRE"}}, {"type": "node", "id": 11056451889, "lat": 0.7036386, "lon": 34.1965633, "tags": {"amenity": "clinic", "name": "BENEDICTINE EYE HOSPITAL"}}, {"type": "node", "id": 11056451895, "lat": 0.6161357, "lon": 34.1481829, "tags": {"amenity": "clinic", "grade": "HC II", "name": "OSUKURU"}}, {"type": "node", "id": 11056451914, "lat": 0.3126633, "lon": 34.0185657, "tags": {"amenity": "clinic", "name": "HEALTH CENTRE"}}, {"type": "node", "id": 11056451921, "lat": 0.7117596, "lon": 34.0573497, "tags": {"amenity": "clinic", "name": "MWELLO HC II"}}, {"type": "node", "id": 11056451930, "lat": 0.6194596, "lon": 34.0856709, "tags": {"amenity": "hospital", "grade": "HC III", "name": "POYAMERI"}}, {"type": "node", "id": 11056451931, "lat": 0.7094319, "lon": 34.2813146, "tags": {"amenity": "clinic", "name": "HEALTH CENTRE"}}, {"type": "node", "id": 11056451934, "lat": 0.4126003, "lon": 34.0345802, "tags": {"amenity": "hospital", "grade": "HC IV", "name": "MASAFU"}}, {"type": "node", "id": 11056451935, "lat": 0.3129527, "lon": 34.0186286, "tags": {"amenity": "clinic", "grade": "HC II", "name": "HASYULE"}}, {"type": "node", "id": 11056451953, "lat": 0.7156915, "lon": 33.9905753, "tags": {"amenity": "clinic", "description": "RENTED PREMISES", "name": "HEALTH CENTRE II"}}, {"type": "node", "id": 11056451958, "lat": 0.4926346, "lon": 34.0561211, "tags": {"amenity": "clinic", "name": "SIKUDA HEALTH CENTRE"}}, {"type": "node", "id": 11056451960, "lat": 0.3306033, "lon": 33.9988083, "tags": {"amenity": "clinic", "grade": "HC II", "name": "LUMINO"}}, {"type": "node", "id": 11056451977, "lat": 0.5382494, "lon": 34.1233585, "tags": {"amenity": "clinic", "grade": "HC III", "name": "BUTEBA"}}, {"type": "node", "id": 11056451993, "lat": 0.6644568, "lon": 34.1479151, "tags": {"amenity": "clinic", "name": "TRUE VIVE MEDICAL CENTRE"}}, {"type": "node", "id": 11056452021, "lat": 0.502551, "lon": 33.9853515, "tags": {"amenity": "clinic", "grade": "HC III", "name": "BULUMBI"}}, {"type": "node", "id": 11056452024, "lat": 0.3239466, "lon": 33.9881508, "tags": {"amenity": "clinic", "description": "GOVERNMENT AIDED AND CO-OPERATES", "name": "LUMINO HEALTH CENTRE III"}}, {"type": "node", "id": 11056452032, "lat": 0.7014905, "lon": 34.1785738, "tags": {"amenity": "hospital", "healthcare": "hospital", "name": "BISON HEALTH CENTRE III"}}, {"type": "node", "id": 11056452038, "lat": 0.7016111, "lon": 34.2363682, "tags": {"amenity": "clinic", "grade": "HC II", "name": "MORUKATIPE"}}, {"type": "node", "id": 11056452048, "lat": 0.6583789, "lon": 34.1448946, "tags": {"amenity": "clinic", "name": "TORORO CEMENT HEALTH CENTRE II"}}, {"type": "node", "id": 11056452083, "lat": 0.6927136, "lon": 34.1813178, "tags": {"amenity": "clinic", "grade": "HC II", "name": "ST FRANCIS"}}, {"type": "node", "id": 11056452085, "lat": 0.3948468, "lon": 34.0779058, "tags": {"amenity": "clinic", "name": "BUMOJI HEALTH CENTRE 11"}}, {"type": "node", "id": 11056452098, "lat": 0.6528754, "lon": 33.9483549, "tags": {"amenity": "clinic", "description": "NGO AIDED", "name": "SIRONGO H/CENTRE"}}, {"type": "node", "id": 11056452102, "lat": 0.6241967, "lon": 34.0557404, "tags": {"amenity": "clinic", "name": "MAGOLA HEALTH CENTRE 11"}}, {"type": "node", "id": 11056452120, "lat": 0.6473462, "lon": 34.1718575, "tags": {"amenity": "clinic", "name": "OSUKURU HEALTH CENTRE 111"}}, {"type": "node", "id": 11056452132, "lat": 0.4370759, "lon": 34.0525546, "tags": {"amenity": "clinic", "grade": "HC III", "name": "DABANI"}}, {"type": "node", "id": 11056452134, "lat": 0.4999908, "lon": 33.9860879, "tags": {"amenity": "hospital", "name": "HEALTH CENTRE III"}}, {"type": "node", "id": 11056452144, "lat": 0.7039491, "lon": 33.9507821, "tags": {"amenity": "clinic", "name": "LIFE CARE CENTRE CLINIC"}}, {"type": "node", "id": 11056452146, "lat": 0.7119495, "lon": 34.0574036, "tags": {"amenity": "clinic", "grade": "HC II", "name": "MWELO"}}, {"type": "node", "id": 11056452159, "lat": 0.553151, "lon": 34.0042926, "tags": {"amenity": "clinic", "grade": "HC II", "name": "HABULEKE"}}, {"type": "node", "id": 11056452168, "lat": 0.6512329, "lon": 34.2214308, "tags": {"amenity": "clinic", "name": "NYALAKOT HEALTH CENTRE 11"}}, {"type": "node", "id": 11056452172, "lat": 0.703505, "lon": 34.1532349, "tags": {"amenity": "hospital", "grade": "Hospital", "name": "RUBONGI BARRACKS"}}, {"type": "node", "id": 11056452184, "lat": 0.4367231, "lon": 34.0523299, "tags": {"amenity": "clinic", "description": "FUNDED BY THE CATHOLIC MISSION", "name": "DABAN HOSPITAL TORORO CATHOLIC DIOCESE"}}, {"type": "node", "id": 11056452194, "lat": 0.6923293, "lon": 34.015938, "tags": {"amenity": "hospital", "name": "MULANDA HEALTH CENTRE IV"}}, {"type": "node", "id": 11056452198, "lat": 0.6575969, "lon": 34.0411632, "tags": {"amenity": "clinic", "name": "AMORI GEE HEALTH CENTRE II"}}, {"type": "node", "id": 11056452205, "lat": 0.6942996, "lon": 34.1774937, "tags": {"amenity": "clinic", "name": "IMMACULATE HEALTH CENTRE NURSING HOME"}}, {"type": "node", "id": 11056452211, "lat": 0.4709468, "lon": 34.0885644, "tags": {"amenity": "hospital", "grade": "HC IV", "name": "BUSIA"}}, {"type": "node", "id": 11056452225, "lat": 0.6804007, "lon": 34.1615769, "tags": {"amenity": "clinic", "name": "HEALTH CENTRE II"}}, {"type": "node", "id": 11056452229, "lat": 0.4824084, "lon": 34.0265659, "tags": {"amenity": "clinic", "name": "NAMUGODI HEALTH CENTRE 11"}}, {"type": "node", "id": 11056452235, "lat": 0.7019005, "lon": 34.2362874, "tags": {"amenity": "clinic", "name": "MORUKATIPE HEALTH CENTRE 11"}}, {"type": "node", "id": 11056452241, "lat": 0.5380412, "lon": 34.1243109, "tags": {"amenity": "hospital", "name": "BUTEBA HEALTH CENTRE III"}}, {"type": "node", "id": 11056452242, "lat": 0.6523951, "lon": 33.952722, "tags": {"amenity": "clinic", "name": "CHAWOLO HC II"}}, {"type": "node", "id": 11056452257, "lat": 0.6900562, "lon": 34.1819674, "tags": {"amenity": "clinic", "name": "MARIE STOPES CLINIC"}}, {"type": "node", "id": 11056452262, "lat": 0.6191973, "lon": 34.0854731, "tags": {"amenity": "clinic", "description": "GOVERNMENT", "name": "HEALTH CENTRE 11"}}, {"type": "node", "id": 11056452266, "lat": 0.4072722, "lon": 33.9637997, "tags": {"amenity": "hospital", "name": "MBEHEHYI HEALTH CENTRE III"}}, {"type": "node", "id": 11056452276, "lat": 0.6836616, "lon": 34.1799082, "tags": {"amenity": "hospital", "grade": "Hospital", "name": "ST ANTHONY"}}, {"type": "node", "id": 11056452281, "lat": 0.6460504, "lon": 34.1021562, "tags": {"amenity": "clinic", "name": "HEALTH CENTRE"}}, {"type": "node", "id": 11056452288, "lat": 0.3257549, "lon": 33.9972264, "tags": {"amenity": "clinic", "name": "HEALTH CENTRE III (FOC-REV MINISTRIES)"}}, {"type": "node", "id": 11056452298, "lat": 0.6829444, "lon": 34.0767436, "tags": {"amenity": "clinic", "description": "NOT FUNCTIONING-FORMER DISPENSARY", "name": "BIRA HEALTH CENTRE"}}, {"type": "node", "id": 11056452302, "lat": 0.660384, "lon": 34.1577174, "tags": {"amenity": "clinic", "grade": "HC II", "name": "TCI"}}, {"type": "node", "id": 11056452313, "lat": 0.6839692, "lon": 34.1798094, "tags": {"amenity": "hospital", "name": "ST ANTHONY'S HOSPITAL"}}, {"type": "node", "id": 11056452328, "lat": 0.4998522, "lon": 33.944798, "tags": {"amenity": "clinic", "name": "HEALTH CENTRE 11"}}, {"type": "node", "id": 11056452347, "lat": 0.3448455, "lon": 34.0466665, "tags": {"amenity": "clinic", "description": "FUNCTIONING", "name": "BUHEHE HEALTH CENTRE 111"}}, {"type": "node", "id": 11056452348, "lat": 0.6975789, "lon": 34.2628108, "tags": {"amenity": "clinic", "name": "HEALTH CENTRE"}}, {"type": "node", "id": 11056452352, "lat": 0.3241818, "lon": 33.9882766, "tags": {"amenity": "hospital", "grade": "HC IV", "name": "LUMINO"}}, {"type": "node", "id": 11056452361, "lat": 0.6776862, "lon": 34.2018043, "tags": {"amenity": "clinic", "name": "SERIANA HEALTH CENTRE II"}}, {"type": "node", "id": 11056452374, "lat": 0.4135707, "lon": 34.0831288, "tags": {"amenity": "clinic", "grade": "HC II", "name": "BUYENGO"}}, {"type": "node", "id": 11056452390, "lat": 0.689098, "lon": 34.179622, "tags": {"amenity": "clinic", "name": "DIVINE MERCY HOSPITAL COVECO"}}, {"type": "node", "id": 11056452428, "lat": 0.6952649, "lon": 34.1878363, "tags": {"amenity": "hospital", "grade": "Hospital", "name": "TORORO"}}, {"type": "node", "id": 11056452442, "lat": 0.4561027, "lon": 34.0287366, "tags": {"amenity": "clinic", "description": "FUNCTIONING", "name": "BUWUMBA HEALTH CENTRE II"}}, {"type": "way", "id": 129531795, "nodes": [3357203005, 1428957293, 1428957285, 3357203000, 3357202998, 3357202997, 3357202983, 3357202995, 3357203005], "tags": {"amenity": "hospital", "name": "St. Anthony's Hospital"}}, {"type": "way", "id": 179529160, "nodes": [1898989214, 1898989212, 1898989176, 1898989182, 1898989214], "tags": {"amenity": "hospital", "building": "yes", "name": "Health Centre"}}, {"type": "way", "id": 328940561, "nodes": [3357617087, 3357617063, 3357617199, 3357617260, 3357617087], "tags": {"addr:city": "Eastern Division", "addr:street": "Station Road", "amenity": "hospital", "name": "Tororo Hospital"}}, {"type": "way", "id": 328968710, "nodes": [3357874992, 3357874953, 3357874952, 3357874974, 3357874988, 3357874992], "tags": {"amenity": "clinic", "name": "Health Centre"}}, {"type": "way", "id": 767281627, "nodes": [7164152711, 7164152712, 7164152713, 7164152714, 7164152715, 7164152711], "tags": {"amenity": "hospital", "healthcare": "hospital", "healthcare:speciality": "general", "name": "Ligingi Health Centre II", "operator": "GOU", "operator:type": "government"}}, {"type": "way", "id": 798743921, "nodes": [1425313719, 7470188582, 7470188583, 7470188584, 7470223285, 7470223286, 1425313719], "tags": {"amenity": "hospital", "healthcare": "hospital", "name": "Health Centre"}}, {"type": "way", "id": 798746410, "nodes": [1427060682, 7470238829, 7470238830, 7470238831, 1427060682], "tags": {"amenity": "hospital", "healthcare": "hospital", "name": "Health Centre"}}, {"type": "way", "id": 798746412, "nodes": [1436201730, 7470238835, 7470238836, 7470238837, 7470238838, 7470238839, 7470238840, 7470238841, 7470238842, 7470238843, 7470238844, 7470238845, 7470238846, 7470238847, 1436201730], "tags": {"amenity": "hospital", "healthcare": "hospital", "name": "St. Benedictine Eye Hospital"}}, {"type": "way", "id": 801566255, "nodes": [3990873072, 7497268688, 7497268689, 7497268690, 7497268691, 7497268692, 7497268693, 7497268694, 7497268695, 7497268696, 7497268697, 7497268698, 3990873072], "tags": {"addr:city": "Nagongera", "amenity": "hospital", "bed_count": "15", "healthcare": "hospital", "name": "Namwaya Health Center III"}}, {"type": "way", "id": 801566667, "nodes": [3990903346, 7497268146, 7497268147, 7497268148, 7497268149, 3990903346], "tags": {"addr:city": "Iyolwa", "amenity": "hospital", "healthcare": "hospital", "name": "Iyolwa Health Centre Two"}}, {"type": "way", "id": 801567467, "nodes": [3995426891, 7497272839, 7497272840, 7497272841, 7497272842, 7497272843, 7497272844, 3995426891], "tags": {"addr:city": "Osukuru", "amenity": "hospital", "bed_count": "21", "healthcare": "hospital", "name": "True Vine Clinic"}}, {"type": "way", "id": 801597321, "nodes": [3999155364, 7497483846, 7497483847, 7497483848, 3999155364], "tags": {"addr:city": "Buteba", "amenity": "hospital", "healthcare": "hospital", "name": "Buteba Health Centre 111"}}, {"type": "way", "id": 801597730, "nodes": [3999951562, 7497531109, 7497531110, 7497531111, 3999951562], "tags": {"addr:city": "Buhehe", "amenity": "hospital", "healthcare": "hospital", "name": "Buhehe Health Centre III"}}, {"type": "way", "id": 801657245, "nodes": [4380542643, 7498188148, 7498188149, 7498188150, 7498188151, 7498188152, 4380542643], "tags": {"addr:city": "Busitema", "addr:street": "Kira Road", "amenity": "hospital", "healthcare": "hospital", "name": "Busitema University Clinic"}}, {"type": "way", "id": 958057571, "nodes": [8864666525, 8864666511, 8864666510, 8864666509, 8864666508, 8864666507, 8864666473, 8864666472, 8864666471, 8864666470, 8864666516, 8864666517, 8864666518, 8864666519, 8864666524, 8864666525], "tags": {"addr:city": "Buteba", "addr:street": "Tororo Road", "amenity": "clinic", "healthcare": "doctor", "name": "Mawero Health Center II"}}]}