{"version": 0.6, "generator": "Overpass API 0.7.61.5 4133829e", "osm3s": {"timestamp_osm_base": "2024-03-05T13:43:59Z", "copyright": "The data included in this document is from www.openstreetmap.org. The data is made available under ODbL."}, "elements": [{"type": "node", "id": 312452077, "lat": 33.5448968, "lon": 68.4132108, "tags": {"alt_name": "\u063a\u0632\u0646\u06cc\u0646", "ele": "2219", "name": "\u063a\u0632\u0646\u06cc", "name:ar": "\u063a\u0632\u0646\u064a", "name:ast": "Gazni", "name:bn": "\u0997\u099c\u09a8\u09c0", "name:cs": "Ghazn\u00ed", "name:da": "Ghazni", "name:el": "\u0393\u03ba\u03b1\u03b6\u03bd\u03af", "name:en": "Ghazni", "name:et": "Ghazn\u012b", "name:fa": "\u063a\u0632\u0646\u06cc (\u011eazn\u012b)", "name:fr": "Ghazni", "name:hi": "\u0917\u093c\u091c\u093c\u0928\u0940", "name:ja": "\u30ac\u30ba\u30cb\u30fc", "name:ko": "\uac00\uc988\ub2c8", "name:ml": "\u0d17\u0d38\u0d4d\u0d28\u0d3f", "name:ru": "\u0413\u0430\u0437\u043d\u0438", "name:tr": "Gazne", "name:uk": "\u0490\u0430\u0437\u043d\u0456", "name:zh": "\u52a0\u8332\u5c3c", "name:zh-Hans": "\u52a0\u5179\u5c3c", "name:zh-Hant": "\u52a0\u5179\u5c3c", "old_name": "Ghazna;Ghazn\u012bn", "place": "city", "population": "141000", "source": "wikipedia", "wikidata": "Q173731", "wikipedia": "en:Ghazni"}}, {"type": "node", "id": 4414357474, "lat": 33.47472, "lon": 68.653328, "tags": {"alt_name": "Qaryeh-ye Dehak;Dehak", "name": "\u062f\u0647\u06a9", "name:en": "Dehyak", "name:ps": "\u062f\u0647\u06a9", "name:ru": "Dekhak", "place": "town", "source:name": "GNS"}}, {"type": "node", "id": 4414357475, "lat": 33.482304, "lon": 68.685516, "tags": {"alt_name": "Payluc", "name": "\u067e\u0627\u06cc \u0644\u0686", "name:en": "Pay Luch", "name:ps": "\u067e\u0627\u06cc \u0644\u0686", "name:ru": "Payluch", "place": "village", "source:name": "GNS"}}, {"type": "node", "id": 4414433270, "lat": 33.668176, "lon": 68.600825, "tags": {"name": "\u062f\u0627\u062f\u0648", "name:en": "Dado", "name:ps": "\u062f\u0627\u062f\u0648", "name:ru": "Dadu", "place": "town", "source:name": "GNS"}}, {"type": "node", "id": 4414433271, "lat": 33.675805, "lon": 68.605043, "tags": {"name": "\u0641\u0642\u064a\u0631 \u06a9\u0644\u0627", "name:en": "Faqir Kala", "name:ps": "\u0641\u0642\u064a\u0631 \u06a9\u0644\u0627", "name:ru": "Fakirkala", "place": "village", "source:name": "GNS"}}, {"type": "node", "id": 4414433272, "lat": 33.675572, "lon": 68.585721, "tags": {"alt_name": "Gowgar", "name": "\u06af\u0648\u06af\u0631", "name:en": "Gogar", "name:ps": "\u06af\u0648\u06af\u0631", "name:ru": "Gogar", "place": "village", "source:name": "GNS"}}, {"type": "node", "id": 4414433273, "lat": 33.66877, "lon": 68.611849, "tags": {"alt_name": "Hasan Khel Kala;Hasan Kheyl;Hasan Khel;Hasan Qal'ah", "name": "\u062d\u0633\u0646 \u062e\u06d0\u0644", "name:en": "Hasankhel", "name:ps": "\u062d\u0633\u0646 \u062e\u06d0\u0644", "name:ru": "Khasankheyl'", "place": "village", "source:name": "GNS"}}, {"type": "node", "id": 4414433274, "lat": 33.67354, "lon": 68.613048, "tags": {"alt_name": "Mamus", "name": "\u0645\u0627\u0645\u0648\u0634", "name:en": "Mamush", "name:ps": "\u0645\u0627\u0645\u0648\u0634", "name:ru": "Mamush", "place": "village", "source:name": "GNS"}}, {"type": "node", "id": 4414433276, "lat": 33.658897, "lon": 68.58815, "tags": {"name": "\u0632\u0631\u06a9", "name:en": "Zarak", "name:ps": "\u0632\u0631\u06a9", "place": "village", "source:name": "GNS"}}, {"type": "node", "id": 6075832284, "lat": 33.4918947, "lon": 68.3722768, "tags": {"name": "\u0632\u0631\u06af\u0631\u06cc", "name:ru": "\u0417\u0430\u0440\u0433\u0430\u0440\u0438", "place": "village", "wikidata": "Q8066747", "wikipedia": "en:Zargari, Afghanistan"}}, {"type": "node", "id": 7726135789, "lat": 33.4732795, "lon": 68.3881557, "tags": {"name": "\u062c\u0628\u0631", "name:en": "Jabar", "place": "hamlet"}}, {"type": "node", "id": 7726152998, "lat": 33.4638707, "lon": 68.3734979, "tags": {"name": "\u0646\u064a\u0627\u0632\u06cc", "name:en": "Ny\u0101zi", "name:ru": "\u041d\u0438\u0439\u044f\u0437\u0438", "place": "hamlet"}}, {"type": "node", "id": 7726152999, "lat": 33.4636656, "lon": 68.3664162, "tags": {"name": "\u0645\u0648\u0634\u0643\u0647", "name:en": "Mushaka", "name:ru": "\u041c\u0443\u0448\u0430\u043a\u0430", "place": "hamlet"}}, {"type": "node", "id": 7726153106, "lat": 33.4470513, "lon": 68.3654566, "tags": {"name": "\u0644\u064a\u0648\u0627\u0646", "name:en": "Levan", "name:ru": "\u041b\u0435\u0432\u0430\u043d", "place": "hamlet"}}, {"type": "node", "id": 7850270901, "lat": 33.5179351, "lon": 68.8371107, "tags": {"place": "village"}}, {"type": "node", "id": 7850271896, "lat": 33.4925881, "lon": 68.754618, "tags": {"place": "village"}}, {"type": "node", "id": 7850320829, "lat": 33.4644169, "lon": 68.5374805, "tags": {"place": "village"}}, {"type": "node", "id": 8154461622, "lat": 33.5567486, "lon": 68.5516266, "tags": {"place": "village"}}, {"type": "node", "id": 8154462038, "lat": 33.6164487, "lon": 68.4577368, "tags": {"place": "hamlet"}}, {"type": "node", "id": 8154462088, "lat": 33.6542697, "lon": 68.5496646, "tags": {"place": "hamlet"}}, {"type": "node", "id": 8154501005, "lat": 33.6370803, "lon": 68.7211263, "tags": {"place": "hamlet"}}, {"type": "node", "id": 8154501069, "lat": 33.6431216, "lon": 68.7170512, "tags": {"place": "hamlet"}}, {"type": "node", "id": 8154501307, "lat": 33.6355594, "lon": 68.7434594, "tags": {"place": "hamlet"}}, {"type": "node", "id": 8154519028, "lat": 33.6436393, "lon": 68.7517374, "tags": {"place": "hamlet"}}, {"type": "node", "id": 8154519398, "lat": 33.6604574, "lon": 68.7546834, "tags": {"place": "hamlet"}}, {"type": "node", "id": 8154519413, "lat": 33.659948, "lon": 68.7654897, "tags": {"place": "hamlet"}}, {"type": "node", "id": 8154519971, "lat": 33.6817601, "lon": 68.8158828, "tags": {"place": "village"}}, {"type": "node", "id": 8154669349, "lat": 33.6911725, "lon": 68.8430744, "tags": {"place": "hamlet"}}, {"type": "node", "id": 8154669358, "lat": 33.6962561, "lon": 68.8423715, "tags": {"place": "hamlet"}}, {"type": "node", "id": 8154669369, "lat": 33.6962957, "lon": 68.8365329, "tags": {"place": "hamlet"}}, {"type": "node", "id": 8154669396, "lat": 33.7011942, "lon": 68.8437531, "tags": {"place": "hamlet"}}, {"type": "node", "id": 8154669657, "lat": 33.6941028, "lon": 68.8640024, "tags": {"place": "hamlet"}}, {"type": "node", "id": 8154967307, "lat": 33.7264791, "lon": 68.8643597, "tags": {"place": "village"}}, {"type": "node", "id": 9421606369, "lat": 33.3661125, "lon": 68.5716334, "tags": {"description": "This Village is named after the ancestor of this Village \"Mullah Jani Baba\" Mostly to 21st century his 8th descends including me as his 7th descendant live in this village.", "name": "Jani Qala", "place": "village", "population": "1000+"}}]}