{"version": 0.6, "generator": "Overpass API 0.7.61.5 4133829e", "osm3s": {"timestamp_osm_base": "2024-03-06T11:00:15Z", "copyright": "The data included in this document is from www.openstreetmap.org. The data is made available under ODbL."}, "elements": [{"type": "node", "id": 11286235073, "lat": -3.166889, "lon": 39.6409073, "tags": {"amenity": "school", "capacity": "250", "evacuation_center": "no", "flood_prone": "no", "isced:level": "1", "name": "Solelil Green Hill Academy", "operator:type": "private", "phone": "+254 725 701 631", "source": "KRCS2023", "storage_area": "yes"}}, {"type": "node", "id": 11286235107, "lat": -3.0976061, "lon": 39.5616612, "tags": {"amenity": "school", "capacity": "880", "evacuation_center": "no", "flood_prone": "no", "isced:level": "1", "name": "HaweWanje primary", "operator:type": "public", "phone": "+254 714 219 340", "source": "KRCS2023", "storage_area": "yes"}}, {"type": "node", "id": 11286235140, "lat": -3.1216162, "lon": 39.625412, "tags": {"amenity": "school", "capacity": "480", "evacuation_center": "no", "flood_prone": "no", "isced:level": "3", "name": "Chakama Secondary school", "operator:type": "public", "phone": "+254 726 340 095", "source": "KRCS2023", "storage_area": "yes"}}, {"type": "node", "id": 11286235141, "lat": -3.0834796, "lon": 39.5231515, "tags": {"amenity": "school", "capacity": "500", "evacuation_center": "no", "flood_prone": "no", "isced:level": "1", "name": "Mwanza primary School", "operator:type": "public", "phone": "+254 724 781 620", "source": "KRCS2023", "storage_area": "yes"}}, {"type": "node", "id": 11286235153, "lat": -3.1206613, "lon": 39.5319457, "tags": {"amenity": "school", "capacity": "100", "evacuation_center": "no", "flood_prone": "no", "isced:level": "1", "name": "Sandra Majengo primary", "operator:type": "ngo", "phone": "+254 714 237 304", "source": "KRCS2023", "storage_area": "no"}}, {"type": "node", "id": 11286237680, "lat": -3.0778924, "lon": 39.4802874, "tags": {"amenity": "school", "capacity": "640", "evacuation_center": "yes", "flood_prone": "no", "isced:level": "1", "name": "PCEA Bombi Primary School", "operator:type": "public", "phone": "+254 725 592 316", "source": "KRCS2023", "storage_area": "yes"}}, {"type": "node", "id": 11286237690, "lat": -3.1130459, "lon": 39.5513218, "tags": {"amenity": "school", "capacity": "650", "evacuation_center": "yes", "flood_prone": "no", "isced:level": "1", "name": "Shakahola Primary", "operator:type": "public", "phone": "+254 797 881 236", "source": "KRCS2023", "storage_area": "yes"}}, {"type": "node", "id": 11286237691, "lat": -3.1250145, "lon": 39.5853085, "tags": {"amenity": "school", "capacity": "300", "evacuation_center": "no", "flood_prone": "no", "isced:level": "1", "name": "Kwamwagandi pry School", "operator:type": "public", "phone": "+254 711 700 329", "source": "KRCS2023", "storage_area": "yes"}}, {"type": "node", "id": 11286237722, "lat": -3.1220687, "lon": 39.6324121, "tags": {"amenity": "school", "capacity": "540", "evacuation_center": "yes", "flood_prone": "yes", "isced:level": "1", "name": "Chakama primary School", "operator:type": "public", "phone": "+254 727 497 417", "source": "KRCS2023", "storage_area": "yes"}}, {"type": "node", "id": 11286237728, "lat": -3.1653039, "lon": 39.6069964, "tags": {"amenity": "school", "capacity": "250", "evacuation_center": "no", "flood_prone": "no", "isced:level": "0", "name": "Zowerani Preprimary School", "operator:type": "public", "phone": "+254 726 709 767", "source": "KRCS2023", "storage_area": "yes"}}, {"type": "node", "id": 11286237760, "lat": -3.100964, "lon": 39.5236141, "tags": {"amenity": "school", "capacity": "400", "evacuation_center": "no", "flood_prone": "no", "isced:level": "1", "name": "Paola Katsuhanza primary School", "operator:type": "public", "phone": "+254 720 717 278", "source": "KRCS2023", "storage_area": "no"}}]}