{"version": 0.6, "generator": "Overpass API 0.7.61.5 4133829e", "osm3s": {"timestamp_osm_base": "2024-03-06T11:12:35Z", "copyright": "The data included in this document is from www.openstreetmap.org. The data is made available under ODbL."}, "elements": [{"type": "node", "id": 3057210849, "lat": 36.1952748, "lon": 44.0038833}, {"type": "node", "id": 3057210851, "lat": 36.1950663, "lon": 44.0041897}, {"type": "node", "id": 3057210854, "lat": 36.1951269, "lon": 44.0038678}, {"type": "node", "id": 3057210861, "lat": 36.194984, "lon": 44.0039161}, {"type": "node", "id": 3057210862, "lat": 36.1952317, "lon": 44.0041233}, {"type": "node", "id": 3353768274, "lat": 36.2210846, "lon": 44.0059079}, {"type": "node", "id": 3353768275, "lat": 36.2213724, "lon": 44.0055431}, {"type": "node", "id": 3353768276, "lat": 36.221446, "lon": 44.0056141}, {"type": "node", "id": 3353768277, "lat": 36.2214903, "lon": 44.0056557}, {"type": "node", "id": 3353768278, "lat": 36.2224911, "lon": 44.0066401}, {"type": "node", "id": 3368090884, "lat": 36.1944524, "lon": 44.044492, "tags": {"addr:city": "\u0623\u0631\u0628\u064a\u0644", "addr:country": "IQ", "addr:district": "\u0642\u0636\u0627\u0621 \u0623\u0631\u0628\u064a\u0644", "addr:postcode": "44001", "addr:state": "\u0645\u062d\u0627\u0641\u0638\u0629 \u0623\u0631\u0628\u064a\u0644", "addr:street": "\u0634\u06d5\u0642\u0627\u0645\u06cc \u06a9\u06c6\u06cc\u06d5", "amenity": "hospital", "email": "infi@zheen-hospital.com", "emergency": "yes", "healthcare": "hospital", "name": "\u0646\u06d5\u062e\u06c6\u0634\u062e\u0627\u0646\u06d5\u06cc \u0646\u06ce\u0648\u062f\u06d5\u0648\u06b5\u06d5\u062a\u06cc \u0698\u06cc\u0646", "name:ckb": "\u0646\u06d5\u062e\u06c6\u0634\u062e\u0627\u0646\u06d5\u06cc \u0646\u06ce\u0648\u062f\u06d5\u0648\u06b5\u06d5\u062a\u06cc \u0698\u06cc\u0646", "name:en": "Zheen International Hospital", "phone": "+964 750 446 0096", "website": "https://www.zheen-hospital.com/"}}, {"type": "node", "id": 3504361184, "lat": 36.1924747, "lon": 44.0410913}, {"type": "node", "id": 3718469554, "lat": 36.1998583, "lon": 43.9965645}, {"type": "node", "id": 3718469555, "lat": 36.1992226, "lon": 43.9974144}, {"type": "node", "id": 3718469556, "lat": 36.1997567, "lon": 43.9981789}, {"type": "node", "id": 3718469557, "lat": 36.2008503, "lon": 43.9976826}, {"type": "node", "id": 3718530934, "lat": 36.2228285, "lon": 44.0070655}, {"type": "node", "id": 3718530935, "lat": 36.2231132, "lon": 44.0075559}, {"type": "node", "id": 3718530936, "lat": 36.2232971, "lon": 44.0079527}, {"type": "node", "id": 3718530937, "lat": 36.222734, "lon": 44.0085148}, {"type": "node", "id": 3834517760, "lat": 36.2170654, "lon": 44.0348218, "tags": {"amenity": "hospital", "name": "Helena Hospital", "note": "Helena Hospital is for treatment of Children with special needs  "}}, {"type": "node", "id": 3834519475, "lat": 36.2188658, "lon": 44.0355138, "tags": {"amenity": "hospital", "emergency": "yes", "healthcare": "hospital", "name": "Raparin Teaching Hospital For Children", "name:ar": "\u0646\u06d5\u062e\u06c6\u0634\u062e\u0627\u0646\u06d5\u06cc \u0631\u0627\u067e\u06d5\u0695\u06cc\u0646 \u0647\u0629\u0648\u0644\u064a\u0631", "name:en": "Raparin Hospital-Hawler", "opening_hours": "24/7"}}, {"type": "node", "id": 3834535503, "lat": 36.1961977, "lon": 44.0170763, "tags": {"addr:city": "\u0623\u0631\u0628\u064a\u0644", "addr:country": "IQ", "addr:district": "\u0642\u0636\u0627\u0621 \u0623\u0631\u0628\u064a\u0644", "addr:postcode": "44001", "addr:state": "\u0645\u062d\u0627\u0641\u0638\u0629 \u0623\u0631\u0628\u064a\u0644", "amenity": "hospital", "emergency": "yes", "healthcare": "hospital", "name": "Khanzad teaching Center for Oral and Dental Health", "name:ckb": "\u0646\u06c6\u0695\u06cc\u0646\u06af\u06d5\u06cc \u062f\u062f\u0627\u0646\u06cc\u06cc \u062e\u0627\u0646\u0632\u0627\u062f"}}, {"type": "node", "id": 3834595863, "lat": 36.2187868, "lon": 44.0359697}, {"type": "node", "id": 3834595864, "lat": 36.2193797, "lon": 44.0351275}, {"type": "node", "id": 3834595865, "lat": 36.2187089, "lon": 44.0343014}, {"type": "node", "id": 3834595866, "lat": 36.2180857, "lon": 44.0350953}, {"type": "node", "id": 4126727389, "lat": 36.2183095, "lon": 44.0362169, "tags": {"amenity": "hospital", "healthcare": "hospital", "name": "\u06a9\u06c6\u0646\u062a\u0631\u06c6\u0644 \u06a9\u0648\u0627\u0644\u06cc\u062a\u06cc \u062f\u06d5\u0631\u0645\u0627\u0646", "name:ar": "\u0647\u064a\u0626\u0629 \u0627\u0644\u0633\u064a\u0637\u0631\u0629 \u0627\u0644\u0646\u0648\u0639\u064a\u0629 \u0644\u0644\u0627\u062f\u0648\u064a\u0629 \u0648\u0627\u0644\u0645\u0633\u062a\u0644\u0632\u0645\u0627\u062a \u0627\u0644\u0637\u0628\u064a\u0629", "name:en": "Kurdistan Medical Control Agency", "name:ku": "KMCA"}}, {"type": "node", "id": 4209872852, "lat": 36.1919129, "lon": 44.0414001}, {"type": "node", "id": 4209872855, "lat": 36.1920193, "lon": 44.0412916}, {"type": "node", "id": 4209872858, "lat": 36.1922116, "lon": 44.0411672}, {"type": "node", "id": 4209872865, "lat": 36.1926154, "lon": 44.0410519}, {"type": "node", "id": 4209872873, "lat": 36.1929345, "lon": 44.0404089}, {"type": "node", "id": 4328978489, "lat": 36.182789, "lon": 44.0260114}, {"type": "node", "id": 4363429389, "lat": 36.197428, "lon": 44.0405645, "tags": {"addr:city": "\u0623\u0631\u0628\u064a\u0644", "addr:country": "IQ", "addr:district": "\u0642\u0636\u0627\u0621 \u0623\u0631\u0628\u064a\u0644", "addr:postcode": "44001", "addr:state": "\u0645\u062d\u0627\u0641\u0638\u0629 \u0623\u0631\u0628\u064a\u0644", "addr:street": "\u0634\u06d5\u0642\u0627\u0645\u06cc \u0647\u06c6\u0644\u06cc \u0632\u06d5\u0631\u062f", "amenity": "hospital", "healthcare": "hospital", "name": "\u0646\u06d5\u062e\u06c6\u0634\u062e\u0627\u0646\u06d5\u06cc \u0646\u06d5\u062f\u0648\u06d5\u06cc \u062e\u06ce\u0631\u062e\u0648\u0627\u0632\u06cc", "name:ar": "\u0645\u0633\u062a\u0634\u0641\u0649 \u0627\u0644\u0646\u062f\u0648\u0629 \u0627\u0644\u062e\u064a\u0631\u064a\u0629", "name:ckb": "\u0646\u06d5\u062e\u06c6\u0634\u062e\u0627\u0646\u06d5\u06cc \u0646\u06d5\u062f\u0648\u06d5\u06cc \u062e\u06ce\u0631\u062e\u0648\u0627\u0632\u06cc", "name:en": "Nadwa Charity Hospital"}}, {"type": "node", "id": 4371647190, "lat": 36.2032224, "lon": 44.005171, "tags": {"addr:city": "\u0623\u0631\u0628\u064a\u0644", "addr:country": "IQ", "addr:district": "\u0642\u0636\u0627\u0621 \u0623\u0631\u0628\u064a\u0644", "addr:postcode": "44001", "addr:state": "\u0645\u062d\u0627\u0641\u0638\u0629 \u0623\u0631\u0628\u064a\u0644", "addr:street": "\u0634\u06d5\u0642\u0627\u0645\u06cc \u06a9\u0648\u0631\u062f\u0633\u062a\u0627\u0646", "amenity": "hospital", "healthcare": "hospital", "internet_access": "wlan", "name": "\u0646\u06d5\u062e\u06c6\u0634\u062e\u0627\u0646\u06d5\u06cc \u0633\u06c6\u0631\u0627\u0646", "name:ar": "\u0645\u0633\u062a\u0634\u0641\u06cc \u0633\u0648\u0631\u0627\u0646", "name:ckb": "\u0646\u06d5\u062e\u06c6\u0634\u062e\u0627\u0646\u06d5\u06cc \u0633\u06c6\u0631\u0627\u0646", "name:en": "Soran Hospital", "opening_hours": "24/7"}}, {"type": "node", "id": 4375497689, "lat": 36.1917592, "lon": 44.0379796, "tags": {"addr:city": "\u0623\u0631\u0628\u064a\u0644", "addr:country": "IQ", "addr:district": "\u0642\u0636\u0627\u0621 \u0623\u0631\u0628\u064a\u0644", "addr:postcode": "44001", "addr:state": "\u0645\u062d\u0627\u0641\u0638\u0629 \u0623\u0631\u0628\u064a\u0644", "addr:street": "\u0634\u06d5\u0642\u0627\u0645\u06cc \u06a9\u06c6\u06cc\u06d5", "amenity": "hospital", "emergency": "yes", "healthcare": "hospital", "healthcare:speciality": "general", "name": "\u0646\u06d5\u062e\u06c6\u0634\u062e\u0627\u0646\u06d5\u06cc \u0695\u0632\u06af\u0627\u0631\u06cc", "name:ar": "\u0627\u0644\u0645\u0633\u062a\u0634\u0641\u0649 \u0631\u0632\u0643\u0627\u0631\u064a", "name:ckb": "\u0646\u06d5\u062e\u06c6\u0634\u062e\u0627\u0646\u06d5\u06cc \u0695\u0632\u06af\u0627\u0631\u06cc", "name:en": "Rizgary Hospital"}}, {"type": "node", "id": 4398471791, "lat": 36.1549674, "lon": 44.120072, "tags": {"addr:city": "\u0623\u0631\u0628\u064a\u0644", "addr:country": "IQ", "addr:state": "\u0645\u062d\u0627\u0641\u0638\u0629 \u0623\u0631\u0628\u064a\u0644", "amenity": "hospital", "name": "\u0628\u0646\u0643\u06d5\u06cc \u062a\u06d5\u0646\u062f\u0631\u0648\u0633\u062a\u06cc \u0628\u0646\u06d5\u0633\u06b5\u0627\u0648\u06d5", "name:ar": "\u0645\u0631\u0643\u0632 \u0635\u062d\u064a \u0628\u0646\u0635\u0644\u0627\u0648\u0629", "name:en": "Binaslawa Health center (The old hospital)", "name:ku": "\u0628\u0646\u0643\u06d5\u06cc \u062a\u06d5\u0646\u062f\u0631\u0648\u0633\u062a\u06cc \u0628\u0646\u06d5\u0633\u06b5\u0627\u0648\u06d5 (\u0646\u06d5\u062e\u06c6\u0634\u062e\u0627\u0646\u06d5 \u06a9\u06c6\u0646\u06d5\u06a9\u06d5)"}}, {"type": "node", "id": 4398476691, "lat": 36.1521297, "lon": 44.1111308, "tags": {"addr:city": "\u0623\u0631\u0628\u064a\u0644", "addr:country": "IQ", "addr:state": "\u0645\u062d\u0627\u0641\u0638\u0629 \u0623\u0631\u0628\u064a\u0644", "amenity": "hospital", "name": "\u0628\u0646\u06a9\u06d5\u06cc \u062a\u06d5\u0646\u062f\u0631\u0648\u0633\u062a\u06cc \u0695\u0627\u0698\u0627\u0646", "name:ar": "\u0645\u0631\u06a9\u0632 \u0635\u062d\u064a \u0631\u0627\u0632\u0627\u0646", "name:ckb": "\u0628\u0646\u06a9\u06d5\u06cc \u062a\u06d5\u0646\u062f\u0631\u0648\u0633\u062a\u06cc \u0695\u0627\u0698\u0627\u0646", "name:en": "Razhan Health center (The new hospital)", "name:ku": "\u0628\u0646\u06a9\u06d5\u06cc \u062a\u06d5\u0646\u062f\u0631\u0648\u0633\u062a\u06cc \u0695\u0627\u0698\u0627\u0646"}}, {"type": "node", "id": 4407260699, "lat": 36.1267267, "lon": 44.0430525, "tags": {"addr:city": "\u0623\u0631\u0628\u064a\u0644", "addr:country": "IQ", "addr:state": "\u0645\u062d\u0627\u0641\u0638\u0629 \u0623\u0631\u0628\u064a\u0644", "addr:street": "\u062c\u0648\u0648\u062a \u0633\u0627\u06cc\u062f\u06cc \u062f\u0627\u0631\u06d5\u062a\u0648\u0648", "amenity": "hospital", "emergency": "no", "healthcare": "hospital", "healthcare:speciality": "general", "name": "\u0646\u06d5\u062e\u06c6\u0634\u062e\u0627\u0646\u06d5\u06cc \u062e\u0648\u0627\u06a9\u0648\u0695\u06a9", "name:ckb": "\u0646\u06d5\u062e\u06c6\u0634\u062e\u0627\u0646\u06d5\u06cc \u062e\u0648\u0627\u06a9\u0648\u0695\u06a9", "name:en": "Khwakurk"}}, {"type": "node", "id": 4415719389, "lat": 36.1943717, "lon": 44.0526174, "tags": {"addr:city": "\u0623\u0631\u0628\u064a\u0644", "addr:country": "IQ", "addr:district": "\u0642\u0636\u0627\u0621 \u0623\u0631\u0628\u064a\u0644", "addr:postcode": "44001", "addr:state": "\u0645\u062d\u0627\u0641\u0638\u0629 \u0623\u0631\u0628\u064a\u0644", "amenity": "hospital", "healthcare": "hospital", "internet_access": "wlan", "name": "\u0646\u06d5\u062e\u06c6\u0634\u062e\u0627\u0646\u06d5\u06cc \u0695\u06d5\u0633\u0648\u0644\u06cc \u062a\u0627\u06cc\u0628\u06d5\u062a", "name:ckb": "\u0646\u06d5\u062e\u06c6\u0634\u062e\u0627\u0646\u06d5\u06cc \u0695\u06d5\u0633\u0648\u0644\u06cc \u062a\u0627\u06cc\u0628\u06d5\u062a", "name:en": "Rasul Private Hospital", "name:ku": "\u0645\u0633\u062a\u0634\u0641\u0649 \u0627\u0644\u0631\u0633\u0648\u0644 \u0627\u0644\u062e\u0627\u0635", "opening_hours": "24/7"}}, {"type": "node", "id": 4421967491, "lat": 36.1994483, "lon": 44.0807439}, {"type": "node", "id": 4440120690, "lat": 36.1940368, "lon": 44.0497383, "tags": {"addr:city": "\u0623\u0631\u0628\u064a\u0644", "addr:country": "IQ", "addr:district": "\u0642\u0636\u0627\u0621 \u0623\u0631\u0628\u064a\u0644", "addr:postcode": "44001", "addr:state": "\u0645\u062d\u0627\u0641\u0638\u0629 \u0623\u0631\u0628\u064a\u0644", "amenity": "hospital", "healthcare": "hospital"}}, {"type": "node", "id": 4440153989, "lat": 36.1914884, "lon": 44.0290179, "tags": {"amenity": "hospital", "healthcare": "hospital", "name": "\u0645\u0633\u062a\u0634\u0641\u0649 \u062f\u0627\u064a\u0643", "name:ar": "\u0645\u0633\u062a\u0634\u0641\u0649 \u062f\u0627\u064a\u0643", "name:en": "Daik Hospital"}}, {"type": "node", "id": 4446432889, "lat": 36.1762825, "lon": 44.0398548, "tags": {"addr:city": "\u0623\u0631\u0628\u064a\u0644", "addr:country": "IQ", "addr:district": "\u0642\u0636\u0627\u0621 \u0623\u0631\u0628\u064a\u0644", "addr:postcode": "44001", "addr:state": "\u0645\u062d\u0627\u0641\u0638\u0629 \u0623\u0631\u0628\u064a\u0644", "amenity": "hospital", "healthcare": "hospital", "name": "Mala Fandi Health Center", "name:ar": "\u0645\u0631\u0643\u0632 \u0635\u062d\u064a \u0645\u0644\u0627 \u0627\u0641\u0646\u062f\u064a", "name:en": "Mala afandi health center", "name:ku": "\u0645\u06d5\u0631\u06a9\u06d5\u0632\u06cc \u062a\u06d5\u0646\u062f\u0631\u0648\u0633\u062a\u06cc \u0645\u06d5\u0644\u0627 \u0626\u06d5\u0641\u06d5\u0646\u062f\u06cc"}}, {"type": "node", "id": 4453499292, "lat": 36.246614, "lon": 44.0212875, "tags": {"amenity": "hospital", "name": "atconz", "name:ar": "atconz"}}, {"type": "node", "id": 4470495790, "lat": 36.217862, "lon": 44.026274, "tags": {"addr:city": "\u0623\u0631\u0628\u064a\u0644", "addr:country": "IQ", "addr:district": "\u0642\u0636\u0627\u0621 \u0623\u0631\u0628\u064a\u0644", "addr:postcode": "44001", "addr:state": "\u0645\u062d\u0627\u0641\u0638\u0629 \u0623\u0631\u0628\u064a\u0644", "addr:street": "\u0634\u06d5\u0642\u0627\u0645\u06cc \u06af\u0648\u06b5\u0627\u0646", "amenity": "hospital", "healthcare": "hospital", "name": "\u0628\u0646\u06a9\u06d5\u06cc \u062a\u06d5\u0646\u062f\u0631\u0648\u0648\u0633\u062a\u06cc \u0628\u0627\u0645\u06d5\u0695\u0646\u06ce", "name:en": "Nazdar bamarni Healthcare"}}, {"type": "node", "id": 4484290392, "lat": 36.1946495, "lon": 44.0051685, "tags": {"addr:city": "\u0623\u0631\u0628\u064a\u0644", "addr:country": "IQ", "addr:district": "\u0642\u0636\u0627\u0621 \u0623\u0631\u0628\u064a\u0644", "addr:postcode": "44001", "addr:state": "\u0645\u062d\u0627\u0641\u0638\u0629 \u0623\u0631\u0628\u064a\u0644", "amenity": "hospital", "healthcare": "hospital", "name": "\u06a9\u0644\u06cc\u0646\u06cc\u06a9 \u062f\u06a9\u062a\u06c6\u0631 \u0626\u06d5\u06cc\u0627\u062f \u0641\u06d5\u0631\u06d5\u062c", "name:ar": "\u0639\u064a\u0627\u062f\u0629 \u062f \u0627\u064a\u0627\u062f \u0641\u0631\u062c", "name:en": "Clinic dr Ayad Faraj"}}, {"type": "node", "id": 4488812389, "lat": 36.118341, "lon": 44.0652298, "tags": {"addr:city": "\u0623\u0631\u0628\u064a\u0644", "addr:country": "IQ", "addr:state": "\u0645\u062d\u0627\u0641\u0638\u0629 \u0623\u0631\u0628\u064a\u0644", "amenity": "hospital", "healthcare": "hospital", "name": "\u0628\u0646\u06a9\u06d5\u06cc \u062a\u06d5\u0646\u062f\u0631\u0648\u0633\u062a\u06cc \u062f\u0627\u0631\u06d5\u062a\u0648\u0648", "name:ar": "\u0645\u0631\u0643\u0632 \u0635\u062d\u064a \u062f\u0627\u0631\u062a\u0648\u0648", "name:ckb": "\u0628\u0646\u06a9\u06d5\u06cc \u062a\u06d5\u0646\u062f\u0631\u0648\u0633\u062a\u06cc \u062f\u0627\u0631\u06d5\u062a\u0648\u0648", "name:en": "health daratu", "name:ku": "\u0628\u0646\u06a9\u06d5\u06cc \u062a\u06d5\u0646\u062f\u0631\u0648\u0633\u062a\u06cc \u062f\u0627\u0631\u06d5\u062a\u0648\u0648"}}, {"type": "node", "id": 4548807995, "lat": 36.1835398, "lon": 44.0305578, "tags": {"amenity": "hospital", "healthcare": "hospital", "name": "\u0646\u06d5\u062e\u06c6\u0634\u062e\u0627\u0646\u06d5\u06cc \u0626\u06d5\u0645\u06d5\u0644", "name:ar": "\u0645\u0633\u062a\u0634\u0641\u0649 \u0627\u0645\u0644", "name:en": "Amal Hospital"}}, {"type": "node", "id": 4562996990, "lat": 36.1669371, "lon": 44.1356139, "tags": {"amenity": "hospital", "healthcare": "hospital", "name": "\u0628\u0646\u06a9\u06d5\u06cc \u062a\u06d5\u0646\u062f\u0631\u0648\u0633\u062a\u06cc \u0642\u06d5\u06b5\u0627\u06cc \u0646\u0648\u06ce", "name:ar": "\u0645\u0631\u06a9\u0632 \u0635\u062d\u064a \u0642\u0644\u0627\u06cc \u0646\u0648\u064a", "name:en": "Qalay nwe Health center", "name:ku": "\u0628\u0646\u06a9\u06d5\u06cc \u062a\u06d5\u0646\u062f\u0631\u0648\u0633\u062a\u06cc \u0642\u06d5\u06b5\u0627\u06cc \u0646\u0648\u06ce"}}, {"type": "node", "id": 4563051993, "lat": 36.4062097, "lon": 44.3139648, "tags": {"amenity": "hospital", "healthcare": "hospital", "name": "\u0646\u06d5\u062e\u06c6\u0634\u062e\u0627\u0646\u06d5\u06cc \u0634\u06d5\u0642\u06b5\u0627\u0648\u06d5", "name:ar": "\u0627\u0644\u0645\u0633\u062a\u0634\u0641\u06cc \u0634\u0642\u0644\u0627\u0648\u06d5", "name:en": "Shaqlawa hospital", "name:ku-Arab": "\u0646\u06d5\u062e\u06c6\u0634\u062e\u0627\u0646\u06d5\u06cc \u0634\u06d5\u0642\u06b5\u0627\u0648\u06d5"}}, {"type": "node", "id": 4575486098, "lat": 36.2277706, "lon": 44.0121971, "tags": {"addr:street": "100 M Road", "amenity": "hospital", "healthcare": "hospital", "name": "\u0645\u0633\u062a\u0634\u0641\u0649 \u0646\u0648\u0631\u0648\u0632 \u0627\u0644\u0623\u0647\u0644\u064a", "name:ar": "\u0645\u0633\u062a\u0634\u0641\u0649 \u0646\u0648\u0631\u0648\u0632 \u0627\u0644\u0623\u0647\u0644\u064a", "name:en": "Nawroz Private Hospital", "name:ku": "\u0646\u06d5\u062e\u06c6\u0634\u062e\u0627\u0646\u06d5\u06cc \u0646\u06d5\u0648\u0631\u06c6\u0632\u06cc \u062a\u0627\u06cc\u0628\u06d5\u062a"}}, {"type": "node", "id": 4593931091, "lat": 36.1953404, "lon": 44.0076502, "tags": {"addr:city": "\u0623\u0631\u0628\u064a\u0644", "addr:country": "IQ", "addr:district": "\u0642\u0636\u0627\u0621 \u0623\u0631\u0628\u064a\u0644", "addr:postcode": "44001", "addr:state": "\u0645\u062d\u0627\u0641\u0638\u0629 \u0623\u0631\u0628\u064a\u0644", "amenity": "hospital", "healthcare": "hospital", "name": "\u062f\u0643\u062a\u0648\u0631 \u0627\u0628\u0631\u0627\u0647\u064a\u0645 \u062a\u0647 \u064a\u0631\u0627\u0648\u0647 \u064a\u0649", "name:ar": "\u062f\u0643\u062a\u0648\u0631 \u0627\u0628\u0631\u0627\u0647\u064a\u0645 \u062a\u064a\u0631\u0627\u0648\u064a\u0649"}}, {"type": "node", "id": 4649283389, "lat": 36.2086883, "lon": 44.1434673, "tags": {"addr:street": "Hawler-Koya road", "amenity": "hospital", "healthcare": "hospital", "name": "\u06a9\u06c6\u0645\u06d5\u0644\u06af\u06d5\u06cc \u0698\u06cc\u0627\u0646\u06cc \u067e\u0632\u06cc\u0634\u06a9\u06cc", "name:en": "Medical group zhyan", "name:ku": "\u06a9\u06c6\u0645\u06d5\u0644\u06af\u06d5\u06cc \u0698\u06cc\u0627\u0646\u06cc \u067e\u0632\u06cc\u0634\u06a9\u06cc", "phone": "07503264699"}}, {"type": "node", "id": 4669779798, "lat": 36.1966591, "lon": 44.1369107, "tags": {"amenity": "hospital", "healthcare": "hospital", "name": "\u0628\u0646\u06a9\u06d5\u06cc \u062a\u06d5\u0646\u062f\u0631\u0648\u0633\u062a\u06cc \u062a\u0627\u0631\u06cc\u0646", "name:en": "Tarin Health Center", "name:ku": "\u0628\u0646\u06a9\u06d5\u06cc \u062a\u06d5\u0646\u062f\u0631\u0648\u0633\u062a\u06cc \u062a\u0627\u0631\u06cc\u0646"}}, {"type": "node", "id": 4669779799, "lat": 36.2079818, "lon": 44.145457, "tags": {"amenity": "hospital", "healthcare": "hospital", "name": "\u0628\u0646\u06a9\u06d5\u06cc\u06cc \u062a\u06d5\u0646\u062f\u0631\u0648\u0633\u062a\u06cc \u06a9\u06d5\u0633\u0646\u06d5\u0632\u0627\u0646", "name:ar": "\u0645\u0631\u0643\u0632 \u0635\u062d\u064a \u0643\u0633\u0646\u0632\u0627\u0646", "name:en": "Kasnazan Health center", "name:ku": "\u0628\u0646\u06a9\u06d5\u06cc \u062a\u06d5\u0646\u062f\u0631\u0648\u0633\u062a\u06cc \u06a9\u06d5\u0633\u0646\u06d5\u0632\u0627\u0646"}}, {"type": "node", "id": 4721855189, "lat": 36.2006955, "lon": 44.0016562, "tags": {"addr:city": "\u0623\u0631\u0628\u064a\u0644", "addr:country": "IQ", "addr:district": "\u0642\u0636\u0627\u0621 \u0623\u0631\u0628\u064a\u0644", "addr:postcode": "44001", "addr:state": "\u0645\u062d\u0627\u0641\u0638\u0629 \u0623\u0631\u0628\u064a\u0644", "addr:street": "60 Meter road", "amenity": "hospital", "healthcare": "hospital", "name": "\u0627\u0644\u0645\u0631\u0643\u0632 \u0627\u0644\u0627\u0631\u062f\u0646\u064a \u0644\u0644\u0639\u064a\u0648\u0646", "name:ar": "\u0627\u0644\u0645\u0631\u0643\u0632 \u0627\u0644\u0627\u0631\u062f\u0646\u064a \u0644\u0644\u0639\u064a\u0648\u0646", "name:en": "Jordan Eye Center", "name:ku": "\u0633\u06d5\u0646\u062a\u06d5\u0631\u06cc \u0626\u0648\u0631\u062f\u0646\u06cc \u0628\u06c6 \u0686\u0627\u0648"}}, {"type": "node", "id": 4725370791, "lat": 36.2037875, "lon": 44.1314338, "tags": {"amenity": "hospital", "healthcare": "hospital", "name": "\u0628\u0646\u06a9\u06d5\u06cc \u062a\u06d5\u0646\u062f\u0631\u0648\u0648\u0633\u062a\u06cc \u062d\u0627\u062c\u06cc \u0633\u06d5\u0639\u062f\u06cc\u06cc\u06d5", "name:ar": "\u0645\u0631\u0643\u0632 \u0635\u062d\u0629 \u0639\u0627\u062c\u06cc \u0633\u0639\u062f\u06cc\u06d5", "name:en": "Haji Sahdya Health Center", "name:ku": "Binkeya saxelm\u00ee ya Hac\u00ee Se'D\u00eeye"}}, {"type": "node", "id": 4727524894, "lat": 36.1931208, "lon": 44.060418, "tags": {"addr:city": "\u0623\u0631\u0628\u064a\u0644", "addr:country": "IQ", "addr:district": "\u0642\u0636\u0627\u0621 \u0623\u0631\u0628\u064a\u0644", "addr:postcode": "44001", "addr:state": "\u0645\u062d\u0627\u0641\u0638\u0629 \u0623\u0631\u0628\u064a\u0644", "amenity": "hospital", "healthcare": "hospital", "name": "\u0628\u0646\u06a9\u06d5\u06cc \u062a\u06d5\u0646\u062f\u0631\u0648\u0648\u0633\u062a\u06cc \u0633\u06d5\u0631\u0648\u06d5\u0631\u0627\u0646", "name:ckb": "\u0628\u0646\u06a9\u06d5\u06cc \u062a\u06d5\u0646\u062f\u0631\u0648\u0648\u0633\u062a\u06cc \u0633\u06d5\u0631\u0648\u06d5\u0631\u0627\u0646", "name:en": "Sarwaran Health Center"}}, {"type": "node", "id": 4738400423, "lat": 36.1926381, "lon": 44.0394417, "tags": {"addr:city": "\u0623\u0631\u0628\u064a\u0644", "addr:country": "IQ", "addr:district": "\u0642\u0636\u0627\u0621 \u0623\u0631\u0628\u064a\u0644", "addr:postcode": "44001", "addr:state": "\u0645\u062d\u0627\u0641\u0638\u0629 \u0623\u0631\u0628\u064a\u0644", "addr:street": "\u0634\u06d5\u0642\u0627\u0645\u06cc \u06a9\u06c6\u06cc\u06d5", "amenity": "hospital", "emergency": "yes", "healthcare": "hospital", "healthcare:speciality": "general", "name": "\u0646\u06d5\u062e\u06c6\u0634\u062e\u0627\u0646\u06d5\u06cc \u0641\u0631\u06cc\u0627\u06a9\u06d5\u0648\u062a\u0646\u06cc \u0695\u06c6\u0698\u0647\u06d5\u06b5\u0627\u062a", "name:ar": "\u0645\u0633\u062a\u0634\u0641\u0649 \u0634\u0631\u0642", "name:ckb": "\u0646\u06d5\u062e\u06c6\u0634\u062e\u0627\u0646\u06d5\u06cc \u0641\u0631\u06cc\u0627\u06a9\u06d5\u0648\u062a\u0646\u06cc \u0695\u06c6\u0698\u0647\u06d5\u06b5\u0627\u062a", "name:en": "East Emergency Hospital", "name:ku": "\u0646\u06d5\u062e\u06c6\u0634\u062e\u0627\u0646\u06d5\u06cc \u0641\u0631\u06cc\u0627\u0643\u06d5\u0648\u062a\u0646\u06cc \u0695\u06c6\u0698\u0647\u06d5\u06b5\u0627\u062a", "opening_hours": "24/7"}}, {"type": "node", "id": 4738426921, "lat": 36.1886167, "lon": 44.0382288, "tags": {"addr:city": "\u0623\u0631\u0628\u064a\u0644", "addr:country": "IQ", "addr:district": "\u0642\u0636\u0627\u0621 \u0623\u0631\u0628\u064a\u0644", "addr:postcode": "44001", "addr:state": "\u0645\u062d\u0627\u0641\u0638\u0629 \u0623\u0631\u0628\u064a\u0644", "amenity": "hospital", "healthcare": "hospital", "internet_access": "wlan", "name": "\u0641\u0631\u06cc\u0627\u06a9\u06d5\u0648\u062a\u0646\u06cc \u062e\u06ce\u0631\u0627 122", "name:ar": "\u0645\u0631\u0643\u0632\u0627\u0644\u0627\u0633\u0639\u0627\u0641 \u0627\u0644\u0641\u0648\u0631\u064a122", "name:ckb": "\u0646\u0627\u0648\u06d5\u0646\u062f\u06cc \u0641\u0631\u06cc\u0627\u06a9\u06d5\u0648\u062a\u0646\u06cc \u062e\u06ce\u0631\u0627 \u0661\u0662\u0662", "name:en": "Emergency center 122", "name:ku": "\u0641\u0631\u06cc\u0627\u06a9\u06d5\u0648\u062a\u0646\u06cc \u062e\u06ce\u0631\u0627 122", "opening_hours": "24/7", "phone": "07503802007"}}, {"type": "node", "id": 4741522824, "lat": 36.1976942, "lon": 44.0198677, "tags": {"amenity": "hospital", "healthcare": "hospital", "name": "\u06af\u0648\u0631\u0686\u06cc\u0644\u0647\u200c\u06cc \u062f\u0647\u200c\u0633\u062a\u0643\u0631\u062f", "name:ar": "\u0643\u0644\u064a\u0629 \u0635\u0646\u0627\u0639\u064a\u0629", "name:en": "Artificial kidney (dialysis department)", "name:ku": "\u06af\u0648\u0631\u0686\u06cc\u0644\u0647\u200c\u06cc \u062f\u0647\u200c\u0633\u062a\u0643\u0631\u062f"}}, {"type": "node", "id": 4789970623, "lat": 36.1977671, "lon": 44.0192081, "tags": {"addr:city": "\u0623\u0631\u0628\u064a\u0644", "addr:country": "IQ", "addr:district": "\u0642\u0636\u0627\u0621 \u0623\u0631\u0628\u064a\u0644", "addr:postcode": "44001", "addr:state": "\u0645\u062d\u0627\u0641\u0638\u0629 \u0623\u0631\u0628\u064a\u0644", "amenity": "hospital", "healthcare": "hospital", "name": "\u06a9\u06c6\u06af\u0627\u06cc \u062f\u06d5\u0631\u0645\u0627\u0646 \u0648 \u067e\u06ce\u062f\u0627\u0648\u06cc\u0633\u062a\u06cc \u067e\u0632\u06cc\u0634\u06a9\u06cc", "name:en": "Warehouse of medicines and medical supplies", "name:ku": "\u06a9\u06c6\u06af\u0627\u06cc \u062f\u06d5\u0631\u0645\u0627\u0646 \u0648 \u067e\u06ce\u062f\u0627\u0648\u06cc\u0633\u062a\u06cc \u067e\u0632\u06cc\u0634\u06a9\u06cc"}}, {"type": "node", "id": 4822586822, "lat": 36.2016837, "lon": 44.0100286, "tags": {"addr:city": "\u0623\u0631\u0628\u064a\u0644", "addr:country": "IQ", "addr:district": "\u0642\u0636\u0627\u0621 \u0623\u0631\u0628\u064a\u0644", "addr:postcode": "44001", "addr:state": "\u0645\u062d\u0627\u0641\u0638\u0629 \u0623\u0631\u0628\u064a\u0644", "amenity": "hospital", "healthcare": "hospital", "name": "\u0646\u06d5\u062e\u06c6\u0634\u062e\u0627\u0646\u06d5\u06cc \u062a\u0627\u06cc\u0628\u06d5\u062a\u06cc \u0695\u06d5\u062d\u0645\u06d5", "name:ar": "\u0645\u0633\u062a\u0634\u0641\u0649 \u0627\u0644\u0631\u062d\u0645\u0629 \u0627\u0644\u0623\u0647\u0644\u064a\u0629", "name:en": "Rahma Private Hospital"}}, {"type": "node", "id": 4829457121, "lat": 36.245266, "lon": 44.531125, "tags": {"amenity": "hospital", "name": "\u0628\u0646\u06a9\u06d5\u06cc \u062a\u06d5\u0646\u062f\u0631\u0648\u0633\u062a\u06cc \u0646\u0627\u0632\u06d5\u0646\u06cc\u0646", "name:ar": "\u0645\u0631\u0643\u0632 \u0635\u062d\u064a \u0646\u0627\u0632\u0646\u064a\u0646", "name:en": "nazanen health", "name:ku": "\u0628\u0646\u06a9\u06d5\u06cc \u062a\u06d5\u0646\u062f\u0631\u0648\u0633\u062a\u06cc \u0646\u0627\u0632\u06d5\u0646\u06cc\u0646"}}, {"type": "node", "id": 4831172821, "lat": 36.1574205, "lon": 44.022683, "tags": {"addr:city": "\u0623\u0631\u0628\u064a\u0644", "addr:country": "IQ", "addr:district": "\u0642\u0636\u0627\u0621 \u0623\u0631\u0628\u064a\u0644", "addr:postcode": "44001", "addr:state": "\u0645\u062d\u0627\u0641\u0638\u0629 \u0623\u0631\u0628\u064a\u0644", "addr:street": "\u0634\u06d5\u0642\u0627\u0645\u06cc \u067e\u06ce\u0634\u06d5\u0648\u0627 \u0642\u0627\u0632\u06cc \u0661\u0660\u0660\u0645", "amenity": "hospital", "healthcare": "hospital", "name": "\u0646\u06d5\u062e\u06c6\u0634\u062e\u0627\u0646\u06d5\u06cc \u0634\u06cc\u0641\u0627", "name:ar": "\u0645\u0634\u0641\u0649 \u0627\u0644\u0634\u0641\u0627\u0621", "name:en": "Shifaa Hospital", "name:ku": "\u015e\u00eefa"}}, {"type": "node", "id": 4845969852, "lat": 36.4050509, "lon": 44.3146792}, {"type": "node", "id": 4845969858, "lat": 36.4058812, "lon": 44.3124885}, {"type": "node", "id": 4845969860, "lat": 36.4060684, "lon": 44.3152413}, {"type": "node", "id": 4880607623, "lat": 36.213193, "lon": 44.0124852, "tags": {"addr:city": "\u0623\u0631\u0628\u064a\u0644", "addr:country": "IQ", "addr:district": "\u0642\u0636\u0627\u0621 \u0623\u0631\u0628\u064a\u0644", "addr:postcode": "44001", "addr:state": "\u0645\u062d\u0627\u0641\u0638\u0629 \u0623\u0631\u0628\u064a\u0644", "amenity": "hospital", "healthcare": "hospital"}}, {"type": "node", "id": 4880607624, "lat": 36.1740666, "lon": 44.0063541, "tags": {"addr:city": "\u0623\u0631\u0628\u064a\u0644", "addr:country": "IQ", "addr:district": "\u0642\u0636\u0627\u0621 \u0623\u0631\u0628\u064a\u0644", "addr:postcode": "44001", "addr:state": "\u0645\u062d\u0627\u0641\u0638\u0629 \u0623\u0631\u0628\u064a\u0644", "addr:street": "\u0634\u06d5\u0642\u0627\u0645\u06cc \u06a9\u0648\u0631\u062f\u0633\u062a\u0627\u0646", "amenity": "hospital", "emergency": "no", "healthcare": "hospital", "name": "\u0646\u06d5\u062e\u06c6\u0634\u062e\u0627\u0646\u06d5\u06cc \u0632\u0627\u0646\u06cc\u0627\u0631\u06cc", "name:ar": "\u0645\u0633\u062a\u0634\u0641\u0649 \u0632\u0627\u0646\u06cc\u0627\u0631\u06cc", "name:ckb": "\u0646\u06d5\u062e\u06c6\u0634\u062e\u0627\u0646\u06d5\u06cc \u0632\u0627\u0646\u06cc\u0627\u0631\u06cc", "name:en": "Zanyari Hospital"}}, {"type": "node", "id": 4965533037, "lat": 36.4909355, "lon": 44.3950029, "tags": {"amenity": "hospital", "healthcare": "hospital", "name": "Sisawa Health Center", "name:ckb": "\u0628\u0646\u06a9\u06d5\u06cc \u062a\u06d5\u0646\u062f\u0631\u0648\u0633\u062a\u06cc \u0633\u06cc\u0633\u0627\u0648\u06d5"}}, {"type": "node", "id": 5000160826, "lat": 36.37607, "lon": 44.20227, "tags": {"addr:street": "Erbil - Pirmam Road", "amenity": "hospital", "healthcare": "hospital", "name": "\u0646\u06d5\u062e\u06c6\u0634\u062e\u0627\u0646\u06d5\u06cc \u0645\u0644\u0627\u0632\u0645 \u06a9\u0631\u06cc\u0645", "name:ar": "\u0645\u0633\u062a\u0634\u0641\u0649 \u0645\u0644\u0627\u0632\u0645 \u0643\u0631\u064a\u0645", "name:en": "Mlazm Karim Hospital", "name:ku": "\u0646\u06d5\u062e\u06c6\u0634\u062e\u0627\u0646\u06d5\u06cc \u0645\u0644\u0627\u0632\u0645 \u06a9\u0631\u06cc\u0645"}}, {"type": "node", "id": 5040019510, "lat": 36.3814957, "lon": 44.2022611, "tags": {"addr:street": "\u0695\u06ce\u06af\u0627\u06cc \u067e\u06cc\u0631\u0645\u0627\u0645", "amenity": "hospital", "healthcare": "hospital", "name": "Dr. Lezgin Chali's Clinic", "name:ku": "Masif", "operator": "Private", "phone": "009647502448742"}}, {"type": "node", "id": 5071914136, "lat": 36.2229093, "lon": 44.0072007}, {"type": "node", "id": 5071914137, "lat": 36.2229976, "lon": 44.0073387}, {"type": "node", "id": 5071914141, "lat": 36.2227003, "lon": 44.006898}, {"type": "node", "id": 5071914142, "lat": 36.2225451, "lon": 44.0067081}, {"type": "node", "id": 5071914169, "lat": 36.2219584, "lon": 44.0073025}, {"type": "node", "id": 5071914170, "lat": 36.2218757, "lon": 44.0071732}, {"type": "node", "id": 5115935421, "lat": 36.33537, "lon": 44.15974, "tags": {"amenity": "hospital", "healthcare": "hospital", "name": "\u0646\u06d5\u062e\u06c6\u0634\u062e\u0627\u0646\u06d5\u06cc \u0628\u06d5\u0633\u062a\u06c6\u0631\u06d5", "name:en": "Bastora Hospital"}}, {"type": "node", "id": 5244427321, "lat": 36.4495008, "lon": 44.3816402, "tags": {"amenity": "hospital", "healthcare": "hospital", "name": "Mama Jalka Health Center", "name:ckb": "\u0628\u0646\u06a9\u06d5\u06cc \u062a\u06d5\u0646\u062f\u0631\u0648\u0633\u062a\u06cc \u0645\u0627\u0645\u06d5 \u062c\u06d5\u0644\u06a9\u06d5"}}, {"type": "node", "id": 5247881752, "lat": 36.1927761, "lon": 44.0407857}, {"type": "node", "id": 5247881753, "lat": 36.1930507, "lon": 44.0402174}, {"type": "node", "id": 5247881754, "lat": 36.1931172, "lon": 44.0397333}, {"type": "node", "id": 5247881755, "lat": 36.1930507, "lon": 44.0387989}, {"type": "node", "id": 5247881758, "lat": 36.189172, "lon": 44.0363255}, {"type": "node", "id": 5422114921, "lat": 36.1922899, "lon": 44.0341218, "tags": {"amenity": "hospital", "healthcare": "hospital"}}, {"type": "node", "id": 5466285130, "lat": 36.2157027, "lon": 44.0333128, "tags": {"amenity": "hospital", "healthcare": "hospital", "name": "\u0645\u0633\u062a\u0634\u0641\u0649 \u0627\u0644\u0627\u0645", "name:ar": "\u0648\u0644\u0627\u062f\u0629", "name:en": "maternity child born hospital", "name:ku": "\u0646\u0647\u200c\u062e\u06c6\u0634\u062e\u0627\u0646\u0647\u200c\u06cc \u0644\u0647\u200c\u062f\u0627\u06cc\u06a9 \u0628\u0648\u0648\u0646"}}, {"type": "node", "id": 5470516521, "lat": 36.197534, "lon": 44.1404566, "tags": {"addr:street": "kasnazan-bnaslawa", "amenity": "hospital", "email": "hemnm23@gmail.com", "healthcare": "hospital", "internet_access": "wlan", "name": "\u06a9\u06c6\u0645\u06d5\u0644\u06af\u0627\u06cc \u067e\u0632\u06cc\u0634\u06a9\u06cc \u0698\u06cc\u0646\u0627", "name:en": "Medical group zhyna", "opening_hours": "Sa-Th 13:00-21:00", "phone": "07503264699"}}, {"type": "node", "id": 5508891823, "lat": 36.2160658, "lon": 44.0325413, "tags": {"addr:street": "Shaqlawa Street", "amenity": "hospital", "healthcare": "hospital", "name": "\u0646\u06d5\u062e\u06c6\u0634\u062e\u0627\u0646\u06d5\u06cc \u0644\u06d5\u062f\u0627\u06cc\u06a9\u0628\u0648\u0648\u0646\u06cc \u0647\u06d5\u0648\u0644\u06ce\u0631", "name:ar": "\u0645\u0633\u062a\u0634\u0641\u06cc \u0627\u0644\u0648\u0644\u0627\u062f\u0629", "name:en": "maternity (child born) hospital", "name:ku": "\u062e\u06d5\u0633\u062a\u06d5\u062e\u0627\u0646\u06d5\u06cc \u0645\u0646\u0627\u06b5\u0628\u0648\u0648\u0646"}}, {"type": "node", "id": 5545889721, "lat": 36.2200161, "lon": 44.0082805, "tags": {"addr:city": "\u0623\u0631\u0628\u064a\u0644", "addr:country": "IQ", "addr:district": "\u0642\u0636\u0627\u0621 \u0623\u0631\u0628\u064a\u0644", "addr:postcode": "44001", "addr:state": "\u0645\u062d\u0627\u0641\u0638\u0629 \u0623\u0631\u0628\u064a\u0644", "addr:street": "220-67", "amenity": "hospital", "healthcare": "hospital", "name": "\u0646\u06d5\u062e\u06c6\u0634\u062e\u0627\u0646\u06d5\u06cc \u0628\u06d5\u0644\u0633\u06d5\u0645", "name:ckb": "\u0646\u06d5\u062e\u06c6\u0634\u062e\u0627\u0646\u06d5\u06cc \u0628\u06d5\u0644\u0633\u06d5\u0645", "name:en": "Balsam Hospital", "name:ku": "Nexo\u015fxaney Belsem"}}, {"type": "node", "id": 5594305324, "lat": 36.138483, "lon": 44.015852, "tags": {"addr:city": "\u0623\u0631\u0628\u064a\u0644", "addr:country": "IQ", "addr:district": "\u0642\u0636\u0627\u0621 \u0623\u0631\u0628\u064a\u0644", "addr:postcode": "44001", "addr:state": "\u0645\u062d\u0627\u0641\u0638\u0629 \u0623\u0631\u0628\u064a\u0644", "addr:street": "\u0634\u06d5\u0642\u0627\u0645\u06cc \u067e\u06cc\u0631\u0628\u0627\u06b5 \u0645\u06d5\u062d\u0645\u0648\u062f", "amenity": "hospital", "emergency": "no", "healthcare": "hospital", "name": "\u0628\u0646\u06a9\u06d5\u06cc \u062a\u06d5\u0646\u062f\u0631\u0648\u0633\u062a\u06cc \u0695\u0627\u0633\u062a\u06cc", "name:ar": "\u0645\u0631\u0643\u0632 \u0635\u062d\u064a \u0631\u0627\u0633\u062a\u064a (\u0639\u062f\u0627\u0644\u0629)", "name:en": "Rasti Health Center", "name:ku": "Bingeha Saxlem\u00eeya Rast\u00ee", "opening_hours": "Sa-Th 08:30-14:30"}}, {"type": "node", "id": 5607380718, "lat": 36.1926809, "lon": 44.0365565}, {"type": "node", "id": 5607380743, "lat": 36.1928981, "lon": 44.0378735}, {"type": "node", "id": 5654003521, "lat": 36.3960105, "lon": 44.2251944, "tags": {"amenity": "hospital", "healthcare": "hospital"}}, {"type": "node", "id": 5669310021, "lat": 36.2027799, "lon": 44.0169449, "tags": {"addr:city": "\u0623\u0631\u0628\u064a\u0644", "addr:country": "IQ", "addr:district": "\u0642\u0636\u0627\u0621 \u0623\u0631\u0628\u064a\u0644", "addr:postcode": "44001", "addr:state": "\u0645\u062d\u0627\u0641\u0638\u0629 \u0623\u0631\u0628\u064a\u0644", "addr:street": "\u0634\u06d5\u0642\u0627\u0645\u06cc \u0666\u0660 \u0645\u06d5\u062a\u0631\u06cc", "amenity": "hospital", "healthcare": "hospital", "name": "\u0646\u06d5\u062e\u06c6\u0634\u062e\u0627\u0646\u06d5\u06cc \u0633\u06d5\u0644\u0627\u0645\u06d5\u062a\u06cc \u06a9\u0648\u0631\u062f\u0633\u062a\u0627\u0646", "name:en": "Salamati Hospital", "name:ku": "\u0646\u06d5\u062e\u06c6\u0634\u062e\u0627\u0646\u06d5\u06cc \u0633\u06d5\u0644\u0627\u0645\u06d5\u062a\u06cc \u06a9\u0648\u0631\u062f\u0633\u062a\u0627\u0646"}}, {"type": "node", "id": 5701810060, "lat": 36.4059101, "lon": 44.312506}, {"type": "node", "id": 5710632909, "lat": 36.1711396, "lon": 44.0229084}, {"type": "node", "id": 5710632910, "lat": 36.1706611, "lon": 44.021985}, {"type": "node", "id": 5714821912, "lat": 36.1715649, "lon": 44.022531}, {"type": "node", "id": 5714821913, "lat": 36.1711419, "lon": 44.0216154}, {"type": "node", "id": 5725328724, "lat": 36.1856368, "lon": 44.0723524, "tags": {"addr:postcode": "44001", "addr:street": "\u0634\u06d5\u0642\u0627\u0645\u06cc \u06af\u0648\u0646\u062f\u06cc \u062d\u0635\u0627\u0631\u06c6\u06a9", "amenity": "hospital", "name": "\u0645\u0631\u0643\u0632 \u0635\u062d\u064a \u062d\u0635\u0627\u0631\u06c6\u0643", "name:en": "Hasarok Health Center", "name:ku": "\u0628\u0646\u06a9\u06d5\u06cc \u062a\u06d5\u0646\u062f\u0631\u0648\u0633\u062a\u06cc \u062d\u06d5\u0633\u0627\u0631\u06c6\u06a9", "opening_hours": "Sa-Th 08:00-13:00"}}, {"type": "node", "id": 5760163224, "lat": 36.1522214, "lon": 44.039876}, {"type": "node", "id": 5760163225, "lat": 36.1523691, "lon": 44.0401303}, {"type": "node", "id": 5771523540, "lat": 36.1926231, "lon": 44.0363342}, {"type": "node", "id": 5808359157, "lat": 36.2775526, "lon": 44.1018644, "tags": {"addr:city": "\u0647\u06d5\u0648\u0644\u06ce\u0631", "amenity": "hospital", "healthcare": "hospital", "name": "\u0646\u06d5\u062e\u06c6\u0634\u062e\u0627\u0646\u06d5\u06cc \u0645\u0627\u062c\u062f\u06cc \u062a\u0627\u06cc\u0628\u06d5\u062a", "name:en": "Majidi Private Hospital"}}, {"type": "node", "id": 5823183453, "lat": 36.2123772, "lon": 44.010899, "tags": {"addr:city": "\u0623\u0631\u0628\u064a\u0644", "addr:country": "IQ", "addr:district": "\u0642\u0636\u0627\u0621 \u0623\u0631\u0628\u064a\u0644", "addr:housenumber": "128", "addr:postcode": "44001", "addr:state": "\u0645\u062d\u0627\u0641\u0638\u0629 \u0623\u0631\u0628\u064a\u0644", "addr:street": "\u0634\u06d5\u0642\u0627\u0645\u06cc \u06a9\u06c6\u0646\u06cc \u0628\u06d5\u062d\u0631\u06a9\u06d5", "amenity": "hospital", "emergency": "yes", "healthcare": "hospital", "healthcare:speciality": "general", "name": "\u0646\u06d5\u062e\u06c6\u0634\u062e\u0627\u0646\u06d5\u06cc \u0645\u06ce\u062f\u06cc\u06a9\u0627\u0646\u06c6", "name:ar": "\u0645\u0633\u062a\u0634\u0641\u0649 \u0645\u064a\u062f\u064a\u0643\u0627\u0646\u0648 \u0627\u0644\u062e\u0627\u0635", "name:ckb": "\u0646\u06d5\u062e\u06c6\u0634\u062e\u0627\u0646\u06d5\u06cc \u0645\u06ce\u062f\u06cc\u06a9\u0627\u0646\u06c6", "name:en": "Medicano private hospital", "name:ku": "Nexo\u015fxaneya M\u00ead\u00eekano", "opening_hours": "24/7"}}, {"type": "node", "id": 5839117208, "lat": 36.1905441, "lon": 44.0362814}, {"type": "node", "id": 5839548844, "lat": 36.1884542, "lon": 44.0364283}, {"type": "node", "id": 5839548845, "lat": 36.1883506, "lon": 44.0402561}, {"type": "node", "id": 5895035785, "lat": 36.2148559, "lon": 44.073935, "tags": {"addr:city": "\u0623\u0631\u0628\u064a\u0644", "addr:country": "IQ", "addr:district": "\u0642\u0636\u0627\u0621 \u0623\u0631\u0628\u064a\u0644", "addr:postcode": "44001", "addr:state": "\u0645\u062d\u0627\u0641\u0638\u0629 \u0623\u0631\u0628\u064a\u0644", "amenity": "hospital", "name": "\u0628\u0646\u06a9\u06d5\u06cc \u062a\u06d5\u0646\u062f\u0631\u0648\u0633\u062a\u06cc \u06be\u06d5\u0648\u0644\u06ce\u0631\u06cc \u0646\u0648\u06ce", "name:en": "Hawleri nw\u0117 Medical Centre"}}, {"type": "node", "id": 5909417085, "lat": 36.1651928, "lon": 44.0286739, "tags": {"amenity": "hospital", "healthcare": "hospital", "name:en": "Mufti Health Center"}}, {"type": "node", "id": 5933493985, "lat": 36.1541949, "lon": 44.0917888, "tags": {"addr:city": "\u0647\u06d5\u0648\u0644\u06ce\u0631", "amenity": "hospital", "name": "\u0628\u0646\u06a9\u06d5\u06cc \u062a\u06d5\u0646\u062f\u0631\u0648\u0633\u062a\u06cc \u0626\u0627\u0644\u062a\u0648\u0646 \u0633\u062a\u06cc", "name:en": "Altun City Health Center"}}, {"type": "node", "id": 5964767385, "lat": 36.19731, "lon": 44.0138, "tags": {"addr:city": "\u0623\u0631\u0628\u064a\u0644", "addr:country": "IQ", "addr:district": "\u0642\u0636\u0627\u0621 \u0623\u0631\u0628\u064a\u0644", "addr:postcode": "44001", "addr:state": "\u0645\u062d\u0627\u0641\u0638\u0629 \u0623\u0631\u0628\u064a\u0644", "addr:street": "\u0634\u06d5\u0642\u0627\u0645\u06cc \u0628\u0627\u0631\u0632\u0627\u0646\u06cc \u0646\u06d5\u0645\u0631", "amenity": "hospital", "healthcare": "hospital", "name": "\u0646\u06d5\u062e\u06c6\u0634\u062e\u0627\u0646\u06d5\u06cc \u062a\u0627\u06cc\u0628\u06d5\u062a\u06cc \u0647\u06d5\u0648\u0644\u06ce\u0631", "name:en": "Hawler Private Hospital"}}, {"type": "node", "id": 5981675888, "lat": 36.19689, "lon": 44.00422, "tags": {"addr:city": "\u0623\u0631\u0628\u064a\u0644", "addr:country": "IQ", "addr:district": "\u0642\u0636\u0627\u0621 \u0623\u0631\u0628\u064a\u0644", "addr:postcode": "44001", "addr:state": "\u0645\u062d\u0627\u0641\u0638\u0629 \u0623\u0631\u0628\u064a\u0644", "amenity": "hospital", "healthcare": "hospital", "name": "\u0646\u06d5\u062e\u06c6\u0634\u062e\u0627\u0646\u06d5\u06cc \u062a\u0627\u06cc\u0628\u06d5\u062a\u06cc \u0633\u06cc\u0645\u0627", "name:en": "Sima Private Hospital", "name:ku": "Xestexaneya Taybet\u00eeya S\u00eema", "name:sdh": "\u0646\u06d5\u062e\u06c6\u0634\u062e\u0627\u0646\u06d5\u06cc \u062a\u0627\u06cc\u0628\u06d5\u062a\u06cc \u0633\u06cc\u0645\u0627"}}, {"type": "node", "id": 6009170487, "lat": 36.163777, "lon": 43.9996371, "tags": {"amenity": "hospital", "healthcare": "hospital", "name:en": "Mnara Hospital"}}, {"type": "node", "id": 6013546298, "lat": 36.1953546, "lon": 44.0045187, "tags": {"addr:city": "\u0623\u0631\u0628\u064a\u0644", "addr:country": "IQ", "addr:district": "\u0642\u0636\u0627\u0621 \u0623\u0631\u0628\u064a\u0644", "addr:postcode": "44001", "addr:state": "\u0645\u062d\u0627\u0641\u0638\u0629 \u0623\u0631\u0628\u064a\u0644", "amenity": "hospital", "healthcare": "hospital", "name": "\u0646\u06d5\u062e\u06c6\u0634\u062e\u0627\u0646\u06d5\u06cc \u0648\u06ce\u0633\u062a \u0626\u0627\u06cc\u06cc", "name:en": "Westeye Hospital"}}, {"type": "node", "id": 6013558593, "lat": 36.19569, "lon": 44.01691, "tags": {"addr:city": "\u0623\u0631\u0628\u064a\u0644", "addr:country": "IQ", "addr:district": "\u0642\u0636\u0627\u0621 \u0623\u0631\u0628\u064a\u0644", "addr:postcode": "44001", "addr:state": "\u0645\u062d\u0627\u0641\u0638\u0629 \u0623\u0631\u0628\u064a\u0644", "amenity": "hospital", "healthcare": "hospital", "name": "\u0646\u06d5\u062e\u06c6\u0634\u062e\u0627\u0646\u06d5\u06cc \u062f\u062f\u0627\u0646\u06cc\u06cc \u062e\u0627\u0646\u0632\u0627\u062f", "name:ckb": "\u0646\u06d5\u062e\u06c6\u0634\u062e\u0627\u0646\u06d5\u06cc \u062f\u062f\u0627\u0646\u06cc\u06cc \u062e\u0627\u0646\u0632\u0627\u062f"}}, {"type": "node", "id": 6013571285, "lat": 36.19311, "lon": 44.00806, "tags": {"amenity": "hospital", "healthcare": "hospital", "name:en": "Sultan Muzafar Health Center"}}, {"type": "node", "id": 6015803555, "lat": 36.1547449, "lon": 44.0481914}, {"type": "node", "id": 6015803556, "lat": 36.1551087, "lon": 44.0477166}, {"type": "node", "id": 6015803557, "lat": 36.1546994, "lon": 44.047148}, {"type": "node", "id": 6015803558, "lat": 36.1542078, "lon": 44.0476361}, {"type": "node", "id": 6022423185, "lat": 36.2023209, "lon": 44.0745423, "tags": {"addr:city": "\u0623\u0631\u0628\u064a\u0644", "addr:country": "IQ", "addr:district": "\u0642\u0636\u0627\u0621 \u0623\u0631\u0628\u064a\u0644", "addr:postcode": "44001", "addr:state": "\u0645\u062d\u0627\u0641\u0638\u0629 \u0623\u0631\u0628\u064a\u0644", "amenity": "hospital", "healthcare": "hospital", "name": "\u0628\u0646\u06a9\u06d5\u06cc \u062a\u06d5\u0646\u062f\u0631\u0648\u0648\u0633\u062a\u06cc \u0628\u06ce\u062a\u0648\u0627\u062a\u06d5", "name:ckb": "\u0628\u0646\u06a9\u06d5\u06cc \u062a\u06d5\u0646\u062f\u0631\u0648\u0648\u0633\u062a\u06cc \u0628\u06ce\u062a\u0648\u0627\u062a\u06d5", "name:en": "betwata new health center", "name:ku": "Binkey tendir\u00fbst\u00ee B\u00eatwate"}}, {"type": "node", "id": 6128331390, "lat": 36.1784261, "lon": 44.0225857, "tags": {"addr:city": "\u0623\u0631\u0628\u064a\u0644", "addr:country": "IQ", "addr:district": "\u0642\u0636\u0627\u0621 \u0623\u0631\u0628\u064a\u0644", "addr:postcode": "44001", "addr:state": "\u0645\u062d\u0627\u0641\u0638\u0629 \u0623\u0631\u0628\u064a\u0644", "amenity": "hospital", "healthcare": "hospital", "name": "\u0645\u0633\u062a\u0634\u0641\u0649 \u0643\u0648\u0631\u062f\u0633\u062a\u0627\u0646 \u0644\u0644\u0639\u064a\u0648\u0646 \u0648\u0639\u0645\u0644\u064a\u0627\u062a \u062c\u0631\u0627\u062d\u064a\u0629 \u0646\u0627\u0638\u0648\u0631", "name:ar": "\u0645\u0631\u0643\u0632 \u0643\u0648\u0631\u062f\u0633\u062a\u0627\u0646 \u0627\u0644\u062a\u062e\u0635\u0635\u064a \u0644\u0644\u0639\u064a\u0648\u0646 \u0648\u0639\u0645\u0644\u064a\u0627\u062a \u0628\u0627\u0644\u0646\u0638\u0648\u0631", "name:en": "Kurdistan Eye Center and Operations in Endscope", "name:ku": "\u0633\u06d5\u0646\u062a\u06d5\u0631\u06cc \u06a9\u0648\u0631\u062f\u0633\u062a\u0627\u0646 \u0628\u06c6 \u0686\u0627\u0648"}}, {"type": "node", "id": 6364315177, "lat": 36.1182695, "lon": 44.0655017}, {"type": "node", "id": 6401500437, "lat": 36.2281762, "lon": 44.0120715}, {"type": "node", "id": 6401500438, "lat": 36.2282193, "lon": 44.0131937}, {"type": "node", "id": 6401500439, "lat": 36.2273859, "lon": 44.0127128}, {"type": "node", "id": 6401500440, "lat": 36.22735, "lon": 44.0128375}, {"type": "node", "id": 6401500441, "lat": 36.2269908, "lon": 44.0126237}, {"type": "node", "id": 6401500442, "lat": 36.2267968, "lon": 44.0126148}, {"type": "node", "id": 6401500443, "lat": 36.2266675, "lon": 44.0127306}, {"type": "node", "id": 6401500444, "lat": 36.2263729, "lon": 44.0127751}, {"type": "node", "id": 6401500445, "lat": 36.2263226, "lon": 44.0118489}, {"type": "node", "id": 6401500446, "lat": 36.228169, "lon": 44.0120003}, {"type": "node", "id": 6409401088, "lat": 36.4142101, "lon": 44.5130135, "tags": {"amenity": "hospital", "name:en": "Tutma Health Center"}}, {"type": "node", "id": 6475352286, "lat": 36.3196463, "lon": 44.0773719, "tags": {"addr:street": "\u0695\u06ce\u06af\u0627\u06cc \u0628\u06d5\u062d\u0631\u06a9\u06d5- \u062c\u0627\u062f\u06d5\u06cc \u0628\u06d5\u06cc\u0646\u06cc \u06a9\u0648\u0631\u062f\u0633\u062a\u0627\u0646 \u0633\u062a\u06cc \u0648 \u06af\u0648\u0646\u062f\u06cc \u06a9\u06c6\u0631\u06cc \u0633\u06d5\u0631 \u0634\u06d5\u0642\u0627\u0645\u06cc \u0661\u0665\u0660 \u06cc \u0647\u06d5\u0648\u0644\u06ce\u0631", "amenity": "hospital", "healthcare": "hospital", "internet_access": "wlan", "name": "\u0645\u0633\u062a\u0634\u0641\u0649 \u067e\u06ce\u0634\u0645\u06d5\u0631\u06af\u06d5", "name:ar": "\u0645\u0633\u062a\u0634\u0641\u0649 \u0628\u064a\u0634\u0645\u064e\u0631\u06af\u0629", "name:en": "peshmarga hospital", "name:ku": "\u0646\u06d5\u062e\u06c6\u0634\u062e\u0627\u0646\u06d5\u06cc \u067e\u06ce\u0634\u0645\u06d5\u0631\u06af\u06d5", "opening_hours": "Mo-Su 08:30-14:30", "phone": "+9647512236696"}}, {"type": "node", "id": 6533338285, "lat": 36.2476394, "lon": 44.0775569, "tags": {"addr:city": "\u0647\u06d5\u0648\u0644\u06ce\u0631", "amenity": "hospital", "name:en": "Ashti Health Center", "phone": "+9647507463022", "website": "http://www.facebook.com/shaways1435"}}, {"type": "node", "id": 6584282085, "lat": 36.2906782, "lon": 44.0211506, "tags": {"addr:street": "\u0634\u06d5\u0642\u0627\u0645\u06cc \u0628\u06d5\u062d\u0631\u06a9\u06d5", "amenity": "hospital", "healthcare": "hospital", "name": "\u0646\u0647\u200c\u062e\u06c6\u0634\u062e\u0627\u0646\u0647\u200c\u06cc \u0647\u0648\u0643\u0645\u06cc", "name:en": "Naxos xana hunker", "opening_hours": "Sa-Th 08:30-14:00"}}, {"type": "node", "id": 6592330989, "lat": 36.1895951, "lon": 44.0360647, "tags": {"amenity": "hospital", "healthcare": "hospital", "name": "top mad"}}, {"type": "node", "id": 6633213787, "lat": 36.1969497, "lon": 44.0018136, "tags": {"addr:city": "\u0623\u0631\u0628\u064a\u0644", "addr:country": "IQ", "addr:district": "\u0642\u0636\u0627\u0621 \u0623\u0631\u0628\u064a\u0644", "addr:postcode": "44001", "addr:state": "\u0645\u062d\u0627\u0641\u0638\u0629 \u0623\u0631\u0628\u064a\u0644", "amenity": "hospital", "healthcare": "hospital", "name:en": "Bahchachi"}}, {"type": "node", "id": 6743788188, "lat": 36.1925939, "lon": 44.0321399, "tags": {"amenity": "hospital", "healthcare": "hospital", "name": "\u0633\u06d5\u0646\u062a\u06d5\u0631\u06cc \u062c\u06cc\u0647\u0627\u0646\u06cc \u0628\u06c6 \u062a\u06c6\u0631\u06cc \u0686\u0627\u0648", "name:ar": "\u0627\u0644\u0645\u0631\u0643\u0632 \u0627\u0644\u0639\u0627\u0644\u0645\u064a \u0644\u0644\u0639\u064a\u0648\u0646 \u0648\u0627\u0644\u0634\u0628\u0643\u064a\u0647", "name:en": "Global eye and retina center", "name:ku": "\u0633\u06d5\u0646\u062a\u06d5\u0631\u06cc \u062c\u06cc\u0647\u0627\u0646\u06cc \u0628\u06c6 \u062a\u06c6\u0631\u06cc \u0686\u0627\u0648", "phone": "07505882299"}}, {"type": "node", "id": 6841771745, "lat": 36.1998033, "lon": 43.9975016, "tags": {"addr:city": "\u0623\u0631\u0628\u064a\u0644", "addr:country": "IQ", "addr:district": "\u0642\u0636\u0627\u0621 \u0623\u0631\u0628\u064a\u0644", "addr:postcode": "44001", "addr:state": "\u0645\u062d\u0627\u0641\u0638\u0629 \u0623\u0631\u0628\u064a\u0644", "amenity": "hospital", "healthcare": "hospital", "name": "Emergency Erbil Hospital"}}, {"type": "node", "id": 6982654485, "lat": 36.1996119, "lon": 44.0218896, "tags": {"addr:city": "\u0623\u0631\u0628\u064a\u0644", "addr:country": "IQ", "addr:district": "\u0642\u0636\u0627\u0621 \u0623\u0631\u0628\u064a\u0644", "addr:postcode": "44001", "addr:state": "\u0645\u062d\u0627\u0641\u0638\u0629 \u0623\u0631\u0628\u064a\u0644", "addr:street": "\u0634\u06d5\u0642\u0627\u0645\u06cc \u06a9\u0648\u0631\u062f\u0633\u062a\u0627\u0646 \u0666\u0660\u0645", "amenity": "hospital", "healthcare": "hospital", "name": "\u0645\u0633\u062a\u0634\u0641\u0649 \u0627\u0644\u0646\u0641\u0633\u064a\u0629", "name:en": "Psychiatric Hospital"}}, {"type": "node", "id": 7040845876, "lat": 36.118388, "lon": 44.0650905}, {"type": "node", "id": 7040845877, "lat": 36.1189084, "lon": 44.0653203}, {"type": "node", "id": 7041879886, "lat": 36.3903849, "lon": 44.1897634, "tags": {"addr:street": "Pirmam Road", "amenity": "hospital", "email": "pirmam_central_lab@hotmail.com", "healthcare": "hospital", "internet_access": "wlan", "name": "\u0645\u062e\u062a\u0628\u0631 \u067e\u06cc\u0631\u0645\u0627\u0645", "name:en": "Pirmam Medical Lab", "name:ku": "\u062a\u0627\u0642\u06cc\u06af\u06d5\u06cc \u067e\u0632\u06cc\u0634\u06a9\u06cc", "opening_hours": "Sa-Th 12:00-23:00", "phone": "009647510041163"}}, {"type": "node", "id": 7056164023, "lat": 36.1594618, "lon": 44.0291094}, {"type": "node", "id": 7056164024, "lat": 36.159328, "lon": 44.028718}, {"type": "node", "id": 7056164025, "lat": 36.1590528, "lon": 44.0288699}, {"type": "node", "id": 7056164026, "lat": 36.1591644, "lon": 44.029266}, {"type": "node", "id": 7056164028, "lat": 36.1589265, "lon": 44.0288744}, {"type": "node", "id": 7056164029, "lat": 36.1587438, "lon": 44.0289639}, {"type": "node", "id": 7148655085, "lat": 36.1704553, "lon": 44.0150513, "tags": {"addr:street": "\u0634\u06d5\u0642\u0627\u0645\u06cc \u06a9\u06d5\u0631\u06a9\u0648\u0648\u06a9", "amenity": "hospital", "healthcare": "hospital", "name": "\u062e\u0633\u062a\u062e\u0627\u0646\u0629 \u0645\u0623\u0645\u0648\u0646 \u062f\u0628\u0627\u063a- \u0644\u0644\u0632\u0648\u0627\u062c", "name:en": "Mamoon Dabagh -Marriage", "name:ku": "\u0646\u06d5\u062e\u06c6\u0634\u062e\u0627\u0646\u06d5\u06cc \u0645\u0627\u0645\u0648\u0648\u0646 \u062f\u06d5\u0628\u0627\u063a-\u06be\u0627\u0648\u0633\u06d5\u0631\u06af\u06cc\u0631\u06cc"}}, {"type": "node", "id": 7158120600, "lat": 36.1532137, "lon": 44.0396918}, {"type": "node", "id": 7158120601, "lat": 36.1530001, "lon": 44.0391875}, {"type": "node", "id": 7158120603, "lat": 36.152509, "lon": 44.0403497}, {"type": "node", "id": 7158130796, "lat": 36.1596823, "lon": 44.029129}, {"type": "node", "id": 7158130797, "lat": 36.1593905, "lon": 44.0286471}, {"type": "node", "id": 7158130798, "lat": 36.158667, "lon": 44.0290015}, {"type": "node", "id": 7158130799, "lat": 36.1587299, "lon": 44.0296656}, {"type": "node", "id": 7199729385, "lat": 36.1935022, "lon": 44.0294592, "tags": {"amenity": "hospital", "name": "\u0627\u0644\u0644\u062c\u0646\u0629 \u0627\u0644\u062f\u0648\u0644\u064a\u0629 \u0644\u0644\u0635\u0644\u064a\u0628 \u0627\u0644\u0623\u062d\u0645\u0631 \u0623\u0631\u0628\u064a\u0644", "name:en": "The International Community of the Red Cross Erbil"}}, {"type": "node", "id": 7201150448, "lat": 36.1896009, "lon": 44.0204781}, {"type": "node", "id": 7201150449, "lat": 36.1892069, "lon": 44.0205746}, {"type": "node", "id": 7201150450, "lat": 36.1890857, "lon": 44.0197109}, {"type": "node", "id": 7201150451, "lat": 36.189458, "lon": 44.0196385}, {"type": "node", "id": 7201386685, "lat": 36.1898658, "lon": 44.134856, "tags": {"amenity": "hospital", "healthcare": "hospital", "name": "\u0633\u06d5\u0646\u062a\u06d5\u0631\u06cc \u0633\u06cc\u0644", "name:en": "Tuberculosis Center"}}, {"type": "node", "id": 7293123189, "lat": 36.1960875, "lon": 44.0013971}, {"type": "node", "id": 7293123190, "lat": 36.1961893, "lon": 44.0015309}, {"type": "node", "id": 7293123193, "lat": 36.196255, "lon": 44.0011959}, {"type": "node", "id": 7293123194, "lat": 36.1963744, "lon": 44.0013196}, {"type": "node", "id": 7330293606, "lat": 36.1821817, "lon": 44.0262618}, {"type": "node", "id": 7330293609, "lat": 36.182213, "lon": 44.0261533}, {"type": "node", "id": 7330293610, "lat": 36.1824713, "lon": 44.0259762}, {"type": "node", "id": 7330293611, "lat": 36.182294, "lon": 44.0258976}, {"type": "node", "id": 7330293612, "lat": 36.1822562, "lon": 44.0260293}, {"type": "node", "id": 7406322751, "lat": 36.4063204, "lon": 44.31351}, {"type": "node", "id": 7406322752, "lat": 36.4065603, "lon": 44.3129008}, {"type": "node", "id": 7442991565, "lat": 36.2131276, "lon": 44.0128103}, {"type": "node", "id": 7442991566, "lat": 36.2131292, "lon": 44.0126449}, {"type": "node", "id": 7442991567, "lat": 36.2129702, "lon": 44.0126426}, {"type": "node", "id": 7442991568, "lat": 36.2129687, "lon": 44.012808}, {"type": "node", "id": 7442991569, "lat": 36.2132871, "lon": 44.012758}, {"type": "node", "id": 7442991570, "lat": 36.2131502, "lon": 44.0127554}, {"type": "node", "id": 7442991571, "lat": 36.2131514, "lon": 44.0126569}, {"type": "node", "id": 7442991572, "lat": 36.2132883, "lon": 44.0126595}, {"type": "node", "id": 7442991573, "lat": 36.213309, "lon": 44.0126297}, {"type": "node", "id": 7442991574, "lat": 36.2132026, "lon": 44.0126294}, {"type": "node", "id": 7442991575, "lat": 36.2132031, "lon": 44.0123664}, {"type": "node", "id": 7442991576, "lat": 36.2133096, "lon": 44.0123667}, {"type": "node", "id": 7442991577, "lat": 36.2132949, "lon": 44.0123568}, {"type": "node", "id": 7442991578, "lat": 36.2131679, "lon": 44.0123579}, {"type": "node", "id": 7442991579, "lat": 36.2131672, "lon": 44.0122289}, {"type": "node", "id": 7442991580, "lat": 36.2132941, "lon": 44.0122278}, {"type": "node", "id": 7469303951, "lat": 36.4066381, "lon": 44.3137095}, {"type": "node", "id": 7477785785, "lat": 36.2180914, "lon": 44.03541, "tags": {"amenity": "hospital", "name": "\u0686\u0627\u0648\u062f\u06ce\u0631\u06cc \u0686\u0695\u06cc \u0645\u0646\u062f\u0627\u06b5\u0627\u0646", "name:en": "NICU-PICU"}}, {"type": "node", "id": 7529721185, "lat": 36.1773048, "lon": 44.0791269, "tags": {"amenity": "hospital", "name": "\u062f\u06d5\u0631\u0648\u0627\u0632\u06d5\u06cc \u062d\u0633\u0627\u0631\u06c6\u06a9", "phone": "07504300115"}}, {"type": "node", "id": 7730086685, "lat": 36.2352621, "lon": 44.0613816, "tags": {"addr:city": "\u0623\u0631\u0628\u064a\u0644", "addr:country": "IQ", "addr:district": "\u0642\u0636\u0627\u0621 \u0623\u0631\u0628\u064a\u0644", "addr:postcode": "44001", "addr:state": "\u0645\u062d\u0627\u0641\u0638\u0629 \u0623\u0631\u0628\u064a\u0644", "addr:street": "\u0634\u06d5\u0642\u0627\u0645\u06cc \u067e\u06cc\u0631\u0645\u0627\u0645", "amenity": "hospital", "healthcare": "hospital", "name": "Sun life International Hospital", "name:en": "Sun life International Hospital"}}, {"type": "node", "id": 7873867885, "lat": 36.1889015, "lon": 44.0359235, "tags": {"amenity": "hospital", "internet_access": "wlan", "name": "\u0633\u06d5\u0646\u062a\u06d5\u0631\u06cc \u067e\u0632\u06cc\u0634\u06a9\u06cc \u062a\u06c6\u067e \u0645\u06ce\u062f", "name:en": "Top med medical compound"}}, {"type": "node", "id": 7948766486, "lat": 36.2242894, "lon": 44.0225514, "tags": {"amenity": "hospital"}}, {"type": "node", "id": 8222088150, "lat": 36.3915619, "lon": 44.1908266}, {"type": "node", "id": 8222088151, "lat": 36.3923172, "lon": 44.1896574}, {"type": "node", "id": 8222088154, "lat": 36.3907674, "lon": 44.1898549, "tags": {"barrier": "entrance"}}, {"type": "node", "id": 8222088155, "lat": 36.3915721, "lon": 44.1887994}, {"type": "node", "id": 8222088156, "lat": 36.3906515, "lon": 44.1912443}, {"type": "node", "id": 8222088157, "lat": 36.3922315, "lon": 44.1904804}, {"type": "node", "id": 8222088158, "lat": 36.3902253, "lon": 44.190566}, {"type": "node", "id": 8287599817, "lat": 36.1512675, "lon": 44.051848, "tags": {"addr:city": "\u0623\u0631\u0628\u064a\u0644", "addr:country": "IQ", "addr:district": "\u0642\u0636\u0627\u0621 \u0623\u0631\u0628\u064a\u0644", "addr:postcode": "44001", "addr:state": "\u0645\u062d\u0627\u0641\u0638\u0629 \u0623\u0631\u0628\u064a\u0644", "addr:street": "\u0634\u06d5\u0642\u0627\u0645\u06cc \u0661\u0662\u0660 \u0645\u06d5\u062a\u0631\u06cc", "amenity": "hospital", "healthcare": "hospital", "name": "\u0645\u0633\u062a\u0634\u0641\u0649 \u0641\u0627\u0644\u064a\u0627", "name:en": "Valia Hospital", "name:ku": "\u0646\u06d5\u062e\u06c6\u0634\u062e\u0627\u0646\u06d5\u06cc \u06a4\u0627\u0644\u06cc\u0627", "phone": "07514747432"}}, {"type": "node", "id": 8303506417, "lat": 36.2202471, "lon": 44.0599685, "tags": {"addr:city": "\u0623\u0631\u0628\u064a\u0644", "addr:country": "IQ", "addr:district": "\u0642\u0636\u0627\u0621 \u0623\u0631\u0628\u064a\u0644", "addr:postcode": "44001", "addr:state": "\u0645\u062d\u0627\u0641\u0638\u0629 \u0623\u0631\u0628\u064a\u0644", "amenity": "hospital", "healthcare": "hospital", "name": "\u0646\u0627\u0648\u06d5\u0646\u062f\u06d5\u06cc \u0626\u0627\u0648\u0627\u062a \u0628\u06c6 \u0686\u0627\u0631\u06d5\u0633\u06d5\u0631\u06cc \u062a\u06cc\u0634\u06a9\u06cc\u06cc", "name:en": "Awat Radiation Oncology Center", "name:ku": "\u0646\u0627\u0648\u06d5\u0646\u062f\u06d5\u06cc \u0626\u0627\u0648\u0627\u062a \u0628\u06c6 \u0686\u0627\u0631\u06d5\u0633\u06d5\u0631\u06cc \u062a\u06cc\u0634\u06a9\u06cc\u06cc", "opening_hours": "Su-Th 08:30-16:00"}}, {"type": "node", "id": 8334929217, "lat": 36.2135134, "lon": 44.0356601, "tags": {"amenity": "hospital", "name": "\u0645\u0631\u0643\u0632 \u0627\u0644\u0634\u0631\u0642 \u0627\u0644\u062a\u062e\u0635\u0635\u064a \u0644\u0644\u0639\u064a\u0648\u0646", "name:en": "Al-Sharq  Hospital"}}, {"type": "node", "id": 8464117717, "lat": 36.1822348, "lon": 44.0244731, "tags": {"addr:city": "\u0623\u0631\u0628\u064a\u0644", "addr:country": "IQ", "addr:district": "\u0642\u0636\u0627\u0621 \u0623\u0631\u0628\u064a\u0644", "addr:postcode": "44001", "addr:state": "\u0645\u062d\u0627\u0641\u0638\u0629 \u0623\u0631\u0628\u064a\u0644", "amenity": "hospital", "healthcare": "hospital", "name": "\u0628\u0646\u06a9\u06d5\u06cc \u062a\u06d5\u0646\u062f\u0631\u0648\u0633\u062a\u06cc \u0634\u06d5\u0647\u06cc\u062f\u0627\u0646", "name:en": "Shahidan Health Center"}}, {"type": "node", "id": 8487112519, "lat": 36.3909825, "lon": 44.1888789, "tags": {"addr:postcode": "00441", "amenity": "hospital", "email": "labpirmam@gmail.com", "healthcare": "hospital", "internet_access": "wlan", "name": "\u062a\u0627\u0642\u06cc\u06af\u06d5\u06cc \u067e\u0632\u06cc\u0634\u06a9\u06cc \u067e\u06cc\u0631\u0645\u0627\u0645", "name:ar": "\u0645\u062e\u062a\u0628\u0631 \u0637\u0628\u064a \u0628\u064a\u0631\u0645\u0627\u0645", "name:en": "Pirmam Medical Lab.", "name:ku": "\u062a\u0627\u0642\u06cc\u06af\u06d5\u06cc \u067e\u0632\u06cc\u0634\u06a9\u06cc \u067e\u06cc\u0631\u0645\u0627\u0645", "opening_hours": "Sa-Th 12:00-10:00", "phone": "+964 751 004 1163"}}, {"type": "node", "id": 8567983517, "lat": 36.2120803, "lon": 44.0422462, "tags": {"addr:city": "\u0623\u0631\u0628\u064a\u0644", "addr:country": "IQ", "addr:district": "\u0642\u0636\u0627\u0621 \u0623\u0631\u0628\u064a\u0644", "addr:postcode": "44001", "addr:state": "\u0645\u062d\u0627\u0641\u0638\u0629 \u0623\u0631\u0628\u064a\u0644", "addr:street": "\u0634\u06d5\u0642\u0627\u0645\u06cc \u067e\u06ce\u0634\u06d5\u0648\u0627 \u0642\u0627\u0632\u06cc", "amenity": "hospital", "healthcare": "hospital", "internet_access": "wlan", "name": "\u0646\u06d5\u062e\u06c6\u0634\u062e\u0627\u0646\u06d5\u06cc \u0626\u0627\u0631\u0698\u06cc\u0646", "name:ar": "\u0645\u0633\u062a\u0634\u0641\u06cc \u0627\u0631\u0632\u06cc\u0646", "name:ckb": "\u0646\u06d5\u062e\u06c6\u0634\u062e\u0627\u0646\u06d5\u06cc \u0626\u0627\u0631\u0698\u06cc\u0646", "name:en": "arzhin hospital", "opening_hours": "24/7", "phone": "+964 750 104 4646"}}, {"type": "node", "id": 8608312718, "lat": 36.4409129, "lon": 44.5142071, "tags": {"amenity": "hospital", "name:en": "Khate Health Center"}}, {"type": "node", "id": 8835274117, "lat": 36.2221224, "lon": 44.047529, "tags": {"addr:city": "\u0623\u0631\u0628\u064a\u0644", "addr:country": "IQ", "addr:district": "\u0642\u0636\u0627\u0621 \u0623\u0631\u0628\u064a\u0644", "addr:postcode": "44001", "addr:state": "\u0645\u062d\u0627\u0641\u0638\u0629 \u0623\u0631\u0628\u064a\u0644", "amenity": "hospital", "healthcare": "hospital", "name": "\u0645\u0631\u0643\u0632 \u0635\u062d\u064a \u0643\u0627\u0648\u0629", "name:en": "Health center kawa", "name:ku": "\u0628\u0646\u06a9\u06d5\u06cc \u062a\u0646\u062f\u0631\u0648\u0648\u0633\u062a\u06cc \u06a9\u0627\u0648\u06d5"}}, {"type": "node", "id": 8842940017, "lat": 36.1515882, "lon": 44.018722, "tags": {"addr:city": "\u0623\u0631\u0628\u064a\u0644", "addr:country": "IQ", "addr:district": "\u0642\u0636\u0627\u0621 \u0623\u0631\u0628\u064a\u0644", "addr:postcode": "44001", "addr:state": "\u0645\u062d\u0627\u0641\u0638\u0629 \u0623\u0631\u0628\u064a\u0644", "amenity": "hospital", "healthcare": "hospital", "healthcare:speciality": "pcr_test;covid19", "name": "\u0646\u06d5\u062e\u06c6\u0634\u062e\u0627\u0646\u06d5\u06cc \u0632\u0627\u0646\u06a9\u06c6", "name:en": "Zanko hospital"}}, {"type": "node", "id": 8919536377, "lat": 36.1834785, "lon": 44.0167102, "tags": {"addr:city": "\u0623\u0631\u0628\u064a\u0644", "addr:country": "IQ", "addr:district": "\u0642\u0636\u0627\u0621 \u0623\u0631\u0628\u064a\u0644", "addr:postcode": "44001", "addr:state": "\u0645\u062d\u0627\u0641\u0638\u0629 \u0623\u0631\u0628\u064a\u0644", "amenity": "hospital", "healthcare": "hospital", "name:en": "IRBIL HOSPITAL REPUBLIC"}}, {"type": "node", "id": 8929566117, "lat": 36.2821364, "lon": 44.0193273, "tags": {"addr:city": "\u0623\u0631\u0628\u064a\u0644", "addr:country": "IQ", "addr:state": "\u0645\u062d\u0627\u0641\u0638\u0629 \u0623\u0631\u0628\u064a\u0644", "amenity": "hospital", "name": "\u0645\u0633\u062a\u0634\u0641\u06cc \u062d\u062c\u064a \u0642\u0627\u0633\u0645", "name:en": "haji qasm hospital", "name:ku": "\u0646\u06d5\u062e\u06c6\u0634\u062e\u0627\u0646\u06d5\u06cc \u062d\u0627\u062c\u06cc \u0642\u0627\u0633\u0645"}}, {"type": "node", "id": 9062195275, "lat": 36.233369, "lon": 43.9973116, "tags": {"addr:city": "\u0623\u0631\u0628\u064a\u0644", "addr:country": "IQ", "addr:district": "\u0642\u0636\u0627\u0621 \u0623\u0631\u0628\u064a\u0644", "addr:postcode": "44003", "addr:state": "\u0645\u062d\u0627\u0641\u0638\u0629 \u0623\u0631\u0628\u064a\u0644", "addr:street": "Shlama Street", "addr:subdistrict": "\u0646\u0627\u062d\u064a\u0629 \u0639\u0646\u0643\u0627\u0648\u0627", "addr:town": "\u0639\u0646\u0643\u0627\u0648\u0627", "amenity": "hospital", "emergency": "no", "healthcare": "hospital", "mobile_phone:repair": "+9647504460149", "name": "Lausanne Medical and Beauty Center"}}, {"type": "node", "id": 9062207382, "lat": 36.2333682, "lon": 43.9973205, "tags": {"addr:city": "\u0623\u0631\u0628\u064a\u0644", "addr:country": "IQ", "addr:district": "\u0642\u0636\u0627\u0621 \u0623\u0631\u0628\u064a\u0644", "addr:neighbourhood": "Ankawa", "addr:postcode": "44003", "addr:state": "\u0645\u062d\u0627\u0641\u0638\u0629 \u0623\u0631\u0628\u064a\u0644", "addr:street": "Shlama Street", "addr:subdistrict": "\u0646\u0627\u062d\u064a\u0629 \u0639\u0646\u0643\u0627\u0648\u0627", "addr:town": "\u0639\u0646\u0643\u0627\u0648\u0627", "amenity": "hospital", "healthcare": "hospital", "name": "Lausanne Medical and Beauty Center", "phone": "+9647504460149", "website": "https://www.facebook.com/lausanne.center.medical.erbil/"}}, {"type": "node", "id": 9091340918, "lat": 36.2778307, "lon": 44.4947151, "tags": {"amenity": "hospital", "name": "\u0628\u0646\u06a9\u06d5\u06cc \u062a\u06d5\u0646\u062f\u0631\u0648\u0633\u062a\u06cc \u0647\u06cc\u0631\u0627\u0646"}}, {"type": "node", "id": 9164315925, "lat": 36.200681, "lon": 44.0814064}, {"type": "node", "id": 9164315926, "lat": 36.1994343, "lon": 44.0816572}, {"type": "node", "id": 9164315927, "lat": 36.199312, "lon": 44.0807654}, {"type": "node", "id": 9164315928, "lat": 36.1999916, "lon": 44.0806648}, {"type": "node", "id": 9164315929, "lat": 36.1999364, "lon": 44.0802585}, {"type": "node", "id": 9164315930, "lat": 36.2003888, "lon": 44.0801699}, {"type": "node", "id": 9164315931, "lat": 36.2004158, "lon": 44.0801458}, {"type": "node", "id": 9164315932, "lat": 36.2005695, "lon": 44.0801217}, {"type": "node", "id": 9164407851, "lat": 36.2006525, "lon": 44.0810776}, {"type": "node", "id": 9166664806, "lat": 36.1825243, "lon": 44.0259967}, {"type": "node", "id": 9166664807, "lat": 36.182554, "lon": 44.0259089}, {"type": "node", "id": 9166664808, "lat": 36.1837101, "lon": 44.0264131}, {"type": "node", "id": 9166664809, "lat": 36.1834731, "lon": 44.0272272}, {"type": "node", "id": 9166664810, "lat": 36.1825443, "lon": 44.0268275}, {"type": "node", "id": 9166664811, "lat": 36.1825725, "lon": 44.0267202}, {"type": "node", "id": 9166664812, "lat": 36.182304, "lon": 44.0265995}, {"type": "node", "id": 9166664813, "lat": 36.1822834, "lon": 44.0266572}, {"type": "node", "id": 9166664814, "lat": 36.1820886, "lon": 44.02657}, {"type": "node", "id": 9272748133, "lat": 36.1835506, "lon": 44.0396915, "tags": {"addr:city": "\u0623\u0631\u0628\u064a\u0644", "addr:country": "IQ", "addr:district": "\u0642\u0636\u0627\u0621 \u0623\u0631\u0628\u064a\u0644", "addr:postcode": "44001", "addr:state": "\u0645\u062d\u0627\u0641\u0638\u0629 \u0623\u0631\u0628\u064a\u0644", "amenity": "hospital", "healthcare": "hospital", "internet_access": "wlan", "name": "\u0645\u0633\u062a\u0634\u0641\u06cc \u062a\u0627\u0631\u0627\u0646 \u0627\u0644", "name:ar": "\u0645\u0633\u062a\u0634\u0641\u06cc \u062a\u0627\u0631\u0627\u0646 \u0627\u0644\u0622\u0647\u0644\u064a", "name:en": "taran hospital", "name:ku": "\u0646\u06d5\u062e\u06c6\u0634\u062e\u0627\u0646\u06d5\u06cc \u062a\u0627\u0631\u0627\u0646\u06cc \u062a\u0627\u06cc\u0628\u06d5\u062a", "opening_hours": "24/7"}}, {"type": "node", "id": 9310028117, "lat": 36.1645466, "lon": 44.011027, "tags": {"addr:city": "\u0623\u0631\u0628\u064a\u0644", "addr:country": "IQ", "addr:district": "\u0642\u0636\u0627\u0621 \u0623\u0631\u0628\u064a\u0644", "addr:postcode": "44001", "addr:state": "\u0645\u062d\u0627\u0641\u0638\u0629 \u0623\u0631\u0628\u064a\u0644", "addr:street": "\u0634\u06d5\u0642\u0627\u0645\u06cc \u062e\u06d5\u0628\u0627\u062a", "amenity": "hospital", "healthcare": "hospital", "name": "\u0646\u06d5\u062e\u06c6\u0634\u062e\u0627\u0646\u06d5\u06cc \u0646\u0627\u0646\u06d5\u06a9\u06d5\u0644\u06cc", "name:ckb": "\u0646\u06d5\u062e\u06c6\u0634\u062e\u0627\u0646\u06d5\u06cc \u0646\u0627\u0646\u06d5\u06a9\u06d5\u0644\u06cc", "name:en": "Nanakaly Hospital", "name:ku": "Nexwe\u015fxaneya Nanekel\u00ee"}}, {"type": "node", "id": 9452064617, "lat": 36.4960887, "lon": 44.3503663, "tags": {"amenity": "hospital", "healthcare": "hospital", "name": "\u0628\u0646\u06a9\u06d5\u06cc \u062a\u06d5\u0646\u062f\u0631\u0648\u0633\u062a\u06cc \u0628\u0627\u0633\u0631\u0645\u06d5", "name:en": "Basrma Health Center"}}, {"type": "node", "id": 9453485217, "lat": 36.2071764, "lon": 44.0250779, "tags": {"addr:city": "\u0623\u0631\u0628\u064a\u0644", "addr:country": "IQ", "addr:district": "\u0642\u0636\u0627\u0621 \u0623\u0631\u0628\u064a\u0644", "addr:postcode": "44001", "addr:state": "\u0645\u062d\u0627\u0641\u0638\u0629 \u0623\u0631\u0628\u064a\u0644", "addr:street": "\u0634\u06d5\u0642\u0627\u0645\u06cc \u067e\u06cc\u0631\u0645\u0627\u0645", "amenity": "hospital", "email": "medicalhelphospital@gmail.com", "emergency": "yes", "healthcare": "hospital", "name": "\u0646\u06d5\u062e\u06c6\u0634\u062e\u0627\u0646\u06d5\u06cc \u0645\u06ce\u062f\u06cc\u06a9\u0627\u06b5 \u0647\u06ce\u06b5\u067e", "name:ckb": "\u0646\u06d5\u062e\u06c6\u0634\u062e\u0627\u0646\u06d5\u06cc \u0645\u06ce\u062f\u06cc\u06a9\u0627\u06b5 \u0647\u06ce\u06b5\u067e", "name:en": "Medical Help Hospitwl", "name:ku": "Nexo\u015fxaneya M\u00ead\u00eekall H\u00eallp", "opening_hours": "24/7", "phone": "+964 750 481 3200", "website": "http://www.medicalhelphospital.net"}}, {"type": "node", "id": 9455531919, "lat": 36.2562713, "lon": 44.0906525, "tags": {"amenity": "hospital", "name": "\u0628\u0646\u06a9\u06d5\u06cc \u062a\u06d5\u0646\u062f\u0631\u0648\u0633\u062a\u06cc \u06a9\u06d5\u0644\u06d5\u06a9\u06cc\u0646"}}, {"type": "node", "id": 9500635130, "lat": 36.1187869, "lon": 44.0656664}, {"type": "node", "id": 9761932138, "lat": 36.1923973, "lon": 44.0359391, "tags": {"addr:city": "\u0623\u0631\u0628\u064a\u0644", "addr:country": "IQ", "addr:district": "\u0642\u0636\u0627\u0621 \u0623\u0631\u0628\u064a\u0644", "addr:housenumber": "0096 4750 605 0010", "addr:postcode": "44001", "addr:state": "\u0645\u062d\u0627\u0641\u0638\u0629 \u0623\u0631\u0628\u064a\u0644", "addr:street": "\u0634\u06d5\u0642\u0627\u0645\u06cc \u062c\u06d5\u0645\u0627\u0644 \u062d\u06d5\u06cc\u062f\u06d5\u0631\u06cc", "amenity": "hospital", "healthcare": "hospital", "healthcare:speciality": "dentist", "name": "SHINY SMILE CENTER"}}, {"type": "node", "id": 9791404217, "lat": 36.3196277, "lon": 44.0773848, "tags": {"addr:housenumber": "H80", "addr:postcode": "44001", "addr:street": "\u0634\u06d5\u0642\u0627\u0645\u06cc \u0661\u0665\u0660 \u0645 \u060c \u062c\u0627\u062f\u06d5\u06cc \u0646\u06ce\u0648\u0627\u0646(\u06a9\u06c6\u062a\u0627\u06cc \u06af\u0648\u0646\u062f\u06cc \u06a9\u06c6\u0631\u06cc) \u0648 ( \u0633\u06d5\u0631\u06d5\u062a\u0627\u06cc \u06a9\u0648\u0631\u062f\u0633\u062a\u0627\u0646 \u0633\u062a\u06cc)", "amenity": "hospital", "email": "hewermohammed84@gmail.com", "internet_access": "wlan", "name": "\u0645\u0633\u062a\u0634\u0641\u0649 \u067e\u06cc\u0634\u0645\u06d5\u0631\u06af\u06d5", "name:en": "peshmarga hospital", "name:ku": "\u0686\u0627\u0631\u06d5\u062e\u0627\u0646\u06d5\u06cc \u067e\u06ce\u0634\u0645\u06d5\u0631\u06af\u06d5", "opening_hours": "Su-Th 08:30-13:00", "phone": "+9647507938185", "website": "http://peshmargahospital.com"}}, {"type": "node", "id": 10058493017, "lat": 36.1878263, "lon": 43.9992324, "tags": {"addr:city": "\u0623\u0631\u0628\u064a\u0644", "addr:country": "IQ", "addr:district": "\u0642\u0636\u0627\u0621 \u0623\u0631\u0628\u064a\u0644", "addr:postcode": "44001", "addr:state": "\u0645\u062d\u0627\u0641\u0638\u0629 \u0623\u0631\u0628\u064a\u0644", "amenity": "hospital", "healthcare": "hospital", "name": "\u0646\u06c6\u0631\u06cc\u0646\u06af\u06d5\u06cc \u0633\u06d5\u0641\u0627 \u0639\u06cc\u0632\u06d5\u062f\u06cc\u0646"}}, {"type": "node", "id": 10066901117, "lat": 36.194527, "lon": 44.0446344, "tags": {"amenity": "hospital", "name": "\u0645\u0633\u062a\u0634\u0641\u0649 \u0698\u064a\u0646 \u0627\u0644\u0627\u0647\u0644\u064a"}}, {"type": "node", "id": 10095694928, "lat": 36.1543214, "lon": 44.0174607}, {"type": "node", "id": 10095694929, "lat": 36.1530181, "lon": 44.0177128}, {"type": "node", "id": 10095694930, "lat": 36.1529969, "lon": 44.0176924}, {"type": "node", "id": 10095694931, "lat": 36.1528742, "lon": 44.0168229}, {"type": "node", "id": 10095694932, "lat": 36.1531616, "lon": 44.0167683}, {"type": "node", "id": 10095694933, "lat": 36.1541943, "lon": 44.0165781}, {"type": "node", "id": 10163885273, "lat": 36.1188059, "lon": 44.065676}, {"type": "node", "id": 10163885274, "lat": 36.1187685, "lon": 44.065722}, {"type": "node", "id": 10197423263, "lat": 36.2488473, "lon": 44.1018942, "tags": {"amenity": "hospital", "healthcare": "hospital", "name": "Sana City Health Center"}}, {"type": "node", "id": 10554937809, "lat": 36.2022403, "lon": 44.0358766, "tags": {"amenity": "hospital", "name": "\u0645\u062e\u062a\u0628\u0631 \u0647\u064a\u0645\u0646(\u062a\u0627\u0642\u06cc\u06af\u0647 \u06cc \u0647\u06cc\u0645\u0646)", "opening_hours": "Fr-We 00:00-24:00", "phone": "009647504611863"}}, {"type": "node", "id": 10571570409, "lat": 36.2109103, "lon": 44.0693494, "tags": {"amenity": "hospital", "name": "\u0635\u064a\u062f\u064a\u0644\u06cc\u0629 \u0628\u0627\u063a\u06cc \u0633\u06d5\u0631\u0648\u06d5\u0631\u0627\u0646", "name:en": "baghi sarwaran"}}, {"type": "node", "id": 10781116806, "lat": 36.1950622, "lon": 44.0148016, "tags": {"amenity": "hospital", "name": "\u0648\u0632\u0627\u0631\u0629 \u0627\u0644\u0635\u062d\u0629", "name:en": "MOH"}}, {"type": "node", "id": 10990031705, "lat": 36.3909553, "lon": 44.1889854, "tags": {"addr:housenumber": "1", "addr:postcode": "44002", "addr:street": "\u0631\u0627\u067e\u06d5\u0631\u06cc\u0646/ \u0628\u06d5\u0631\u0627\u0645\u0628\u06d5\u0631 \u0646\u06d5\u062e\u06c6\u0634\u062e\u0627\u0646\u06d5\u06cc \u06af\u0634\u062a\u06cc \u067e\u06cc\u0631\u0645\u0627\u0645", "amenity": "hospital", "email": "labpirmam@gmail.com", "healthcare": "hospital", "internet_access": "wlan", "name": "\u062a\u0627\u0642\u06cc\u06af\u06d5\u06cc \u067e\u0632\u06cc\u0634\u06a9\u06cc \u067e\u06cc\u0631\u0645\u0627\u0645", "opening_hours": "Mo-Fr 08:00-22:00", "phone": "+964 751 004 1163", "website": "http://labpirmam@gmail.com"}}, {"type": "node", "id": 11007674606, "lat": 36.194541, "lon": 44.0359926, "tags": {"amenity": "hospital", "name:en": "D.Mohammed Ibrahim"}}, {"type": "node", "id": 11020088105, "lat": 36.1921616, "lon": 44.0327318, "tags": {"addr:street": "\u0634\u06d5\u0642\u0627\u0645\u06cc \u06a9\u06c6\u06cc\u06d5", "amenity": "hospital", "name:en": "Nazi Mndalan Hospital \u0646\u06d5\u062e\u06c6\u0634\u062e\u0627\u0646\u06d5\u06cc \u0646\u0627\u0632\u06cc \u0645\u0646\u062f\u0627\u06b5\u0627\u0646"}}, {"type": "node", "id": 11103306565, "lat": 36.1527297, "lon": 44.0394266}, {"type": "node", "id": 11103306566, "lat": 36.1529785, "lon": 44.0392066}, {"type": "node", "id": 11103306567, "lat": 36.1530142, "lon": 44.0391803}, {"type": "node", "id": 11103306568, "lat": 36.1530294, "lon": 44.0391808}, {"type": "node", "id": 11158695005, "lat": 36.2123709, "lon": 44.0105922, "tags": {"amenity": "hospital", "name": "\u062f\u0643\u062a\u0648\u0631 \u0639\u0627\u0645\u0631 \u0645\u0641\u0627\u0635\u0644/\u0645\u0633\u062a\u0634\u0641\u0649 \u0645\u062f\u064a\u0643\u0627\u0646\u0648\u0627"}}, {"type": "node", "id": 11198795670, "lat": 36.1587054, "lon": 44.0296363}, {"type": "node", "id": 11198795671, "lat": 36.1587213, "lon": 44.0296678}, {"type": "node", "id": 11198795672, "lat": 36.1587072, "lon": 44.0296507}, {"type": "node", "id": 11198795673, "lat": 36.1587126, "lon": 44.0296626}, {"type": "node", "id": 11238444138, "lat": 36.1995229, "lon": 44.0362844, "tags": {"amenity": "hospital", "name:en": "Istanbul Health Compoundq"}}, {"type": "node", "id": 11276154284, "lat": 36.1405337, "lon": 44.038966}, {"type": "node", "id": 11276154285, "lat": 36.1399895, "lon": 44.03806}, {"type": "node", "id": 11276154286, "lat": 36.1404516, "lon": 44.0376451}, {"type": "node", "id": 11276154287, "lat": 36.1397569, "lon": 44.0363366}, {"type": "node", "id": 11276154288, "lat": 36.1397418, "lon": 44.0363053}, {"type": "node", "id": 11276154289, "lat": 36.1397223, "lon": 44.0362764}, {"type": "node", "id": 11276154290, "lat": 36.1396995, "lon": 44.0362571}, {"type": "node", "id": 11276154291, "lat": 36.1396713, "lon": 44.0362444}, {"type": "node", "id": 11276154292, "lat": 36.1396396, "lon": 44.0362451}, {"type": "node", "id": 11276154293, "lat": 36.1396187, "lon": 44.0362535}, {"type": "node", "id": 11276154294, "lat": 36.1395959, "lon": 44.0362679}, {"type": "node", "id": 11276154295, "lat": 36.1395716, "lon": 44.0363169}, {"type": "node", "id": 11276154296, "lat": 36.1391736, "lon": 44.0376203}, {"type": "node", "id": 11276154297, "lat": 36.1390775, "lon": 44.0380077}, {"type": "node", "id": 11276154298, "lat": 36.139062, "lon": 44.038199}, {"type": "node", "id": 11276154299, "lat": 36.1390698, "lon": 44.0382641}, {"type": "node", "id": 11276154300, "lat": 36.1391067, "lon": 44.038435}, {"type": "node", "id": 11276154301, "lat": 36.1391577, "lon": 44.0386688}, {"type": "node", "id": 11276154302, "lat": 36.139278, "lon": 44.0390736}, {"type": "node", "id": 11276154303, "lat": 36.1393362, "lon": 44.0392578}, {"type": "node", "id": 11276154304, "lat": 36.139385, "lon": 44.0394184}, {"type": "node", "id": 11276154305, "lat": 36.1394235, "lon": 44.0395122}, {"type": "node", "id": 11276154306, "lat": 36.1394466, "lon": 44.0395741}, {"type": "node", "id": 11276154307, "lat": 36.1395403, "lon": 44.039714}, {"type": "node", "id": 11276154308, "lat": 36.1396199, "lon": 44.0398014}, {"type": "node", "id": 11324919969, "lat": 36.1993874, "lon": 44.0358395, "tags": {"amenity": "hospital"}}, {"type": "node", "id": 11331025769, "lat": 36.192814, "lon": 44.039523, "tags": {"amenity": "hospital", "name": "\u0646\u06d5\u062e\u06c6\u0634\u062e\u0627\u0646\u06d5\u06cc \u0631\u0632\u06af\u0627\u0631\u06cc\u06cc \u0628\u06d5\u0634\u06cc \u0641\u0631\u06cc\u0627\u06a9\u06d5\u0648\u062a\u0646", "name:en": "Rizgary hospital", "opening_hours": "24/7"}}, {"type": "node", "id": 11405261669, "lat": 36.208906, "lon": 44.0352171, "tags": {"addr:street": "\u0645\u0631\u0643\u0632\u0632\u0631\u0627\u0639\u0629 \u0627\u0644\u0634\u0639\u0631 new hair center", "amenity": "hospital"}}, {"type": "way", "id": 301642285, "nodes": [3057210849, 3057210862, 3057210851, 3057210861, 3057210854, 3057210849], "tags": {"addr:city": "\u0623\u0631\u0628\u064a\u0644", "addr:country": "IQ", "addr:district": "\u0642\u0636\u0627\u0621 \u0623\u0631\u0628\u064a\u0644", "addr:postcode": "44001", "addr:state": "\u0645\u062d\u0627\u0641\u0638\u0629 \u0623\u0631\u0628\u064a\u0644", "amenity": "hospital", "healthcare": "hospital", "name": "\u06a9\u06c6\u0645\u06d5\u06b5\u06af\u0627\u06cc \u0633\u06c6\u0631\u0627\u0646\u06cc \u067e\u0632\u06cc\u0634\u06a9\u06cc", "name:ar": "\u0645\u062c\u0645\u0639 \u0633\u0648\u0631\u0627\u0646 \u0627\u0644\u0637\u0628\u064a", "name:en": "Soran Polyclinic"}}, {"type": "way", "id": 367981123, "nodes": [3718469554, 3718469555, 3718469556, 3718469557, 3718469554], "tags": {"addr:postcode": "44001", "addr:street": "60m-Bakhtiyari Qr. next to Khrabadraw Mosque", "amenity": "hospital", "healthcare": "hospital", "name": "Emergency Management Centre", "name:ar": "\u0645\u0633\u062a\u0634\u0641\u06cc \u0626\u06cc\u0645\u0631\u062c\u0646\u0633\u06cc", "name:en": "Emergency Hospital", "name:ku": "\u0646\u06d5\u062e\u06c6\u0634\u062e\u0627\u0646\u06d5\u06cc \u0626\u06cc\u0645\u0631\u062c\u0646\u0633\u06cc", "opening_hours": "24/7", "phone": "0662573380", "website": "https://emc-hospitals.org/"}}, {"type": "way", "id": 367992204, "nodes": [3353768274, 3353768275, 3353768276, 3353768277, 3353768278, 5071914142, 5071914141, 3718530934, 5071914136, 5071914137, 3718530935, 3718530936, 3718530937, 5071914169, 5071914170, 3353768274], "tags": {"addr:city": "\u0623\u0631\u0628\u064a\u0644", "addr:country": "IQ", "addr:district": "\u0642\u0636\u0627\u0621 \u0623\u0631\u0628\u064a\u0644", "addr:postcode": "44001", "addr:state": "\u0645\u062d\u0627\u0641\u0638\u0629 \u0623\u0631\u0628\u064a\u0644", "addr:street": "Enkawa Cross", "amenity": "hospital", "emergency": "yes", "healthcare": "hospital", "name": "\u0646\u06d5\u062e\u06c6\u0634\u062e\u0627\u0646\u06d5\u06cc \u0633\u0648\u06cc\u062f\u06cc\u06cc \u062a\u0627\u06cc\u0628\u06d5\u062a", "name:ar": "\u0645\u0633\u062a\u0634\u0641\u0649 \u0627\u0644\u0633\u0648\u064a\u062f\u064a \u0627\u0644\u062a\u062e\u0635\u0635\u064a", "name:ckb": "\u0646\u06d5\u062e\u06c6\u0634\u062e\u0627\u0646\u06d5\u06cc \u0633\u0648\u06cc\u062f\u06cc\u06cc \u062a\u0627\u06cc\u0628\u06d5\u062a", "name:en": "Swedish Specialist Hospital", "phone": "0750 869 14 14", "website": "http://www.swedish-hospital.com/"}}, {"type": "way", "id": 380111406, "nodes": [3834595863, 3834595864, 3834595865, 3834595866, 3834595863], "tags": {"amenity": "hospital", "emergency": "yes", "healthcare": "hospital", "name": "Raparin Teaching Hospital For Children", "operator": "General Directorate of Health - Erbil"}}, {"type": "way", "id": 542836295, "nodes": [5839548844, 5839548845, 4209872852, 4209872855, 4209872858, 3504361184, 4209872865, 5247881752, 4209872873, 5247881753, 5247881754, 5247881755, 5607380743, 5607380718, 5771523540, 5839117208, 5247881758, 5839548844], "tags": {"addr:city": "\u0623\u0631\u0628\u064a\u0644", "addr:country": "IQ", "addr:district": "\u0642\u0636\u0627\u0621 \u0623\u0631\u0628\u064a\u0644", "addr:postcode": "44001", "addr:state": "\u0645\u062d\u0627\u0641\u0638\u0629 \u0623\u0631\u0628\u064a\u0644", "addr:street": "\u0634\u06d5\u0642\u0627\u0645\u06cc \u067e\u06ce\u0634\u06d5\u0648\u0627 \u0642\u0627\u0632\u06cc", "amenity": "hospital", "emergency": "yes", "healthcare": "hospital", "healthcare:speciality": "general;surgery;emergency", "name": "\u0646\u06d5\u062e\u06c6\u0634\u062e\u0627\u0646\u06d5\u06cc \u0695\u0632\u06af\u0627\u0631\u06cc", "name:ar": "\u0645\u0635\u0631\u0641 \u0627\u0644\u062f\u0645 \u0627\u0631\u0628\u064a\u0644", "name:ckb": "\u0646\u06d5\u062e\u06c6\u0634\u062e\u0627\u0646\u06d5\u06cc \u0695\u0632\u06af\u0627\u0631\u06cc", "name:en": "Rizgary Hospital"}}, {"type": "way", "id": 601241535, "nodes": [5714821912, 5714821913, 5710632910, 5710632909, 5714821912], "tags": {"addr:city": "\u0623\u0631\u0628\u064a\u0644", "addr:country": "IQ", "addr:district": "\u0642\u0636\u0627\u0621 \u0623\u0631\u0628\u064a\u0644", "addr:postcode": "44001", "addr:state": "\u0645\u062d\u0627\u0641\u0638\u0629 \u0623\u0631\u0628\u064a\u0644", "addr:street": "\u0634\u06d5\u0642\u0627\u0645\u06cc \u0695\u0648\u0648\u0646\u0627\u06a9\u06cc", "amenity": "hospital", "emergency": "no", "healthcare": "hospital", "healthcare:speciality": "general", "name": "\u0628\u0646\u06a9\u06d5\u06cc \u062a\u06d5\u0646\u062f\u0631\u0648\u0648\u0633\u062a\u06cc \u0644\u06d5\u06cc\u0644\u0627 \u0642\u0627\u0633\u0645", "name:ar": "\u0645\u0631\u0643\u0632 \u0644\u064a\u0644\u0649 \u0642\u0627\u0633\u0645 \u0627\u0644\u0635\u062d\u064a", "name:en": "Layla Qasim Health Center"}}, {"type": "way", "id": 638281910, "nodes": [6015803555, 6015803556, 6015803557, 6015803558, 6015803555], "tags": {"addr:city": "\u0623\u0631\u0628\u064a\u0644", "addr:country": "IQ", "addr:district": "\u0642\u0636\u0627\u0621 \u0623\u0631\u0628\u064a\u0644", "addr:postcode": "44001", "addr:state": "\u0645\u062d\u0627\u0641\u0638\u0629 \u0623\u0631\u0628\u064a\u0644", "amenity": "hospital", "healthcare": "hospital", "name": "\u0646\u06d5\u062e\u06c6\u0634\u062e\u0627\u0646\u06d5\u06cc \u0686\u0627\u0648", "name:ckb": "\u0646\u06d5\u062e\u06c6\u0634\u062e\u0627\u0646\u06d5\u06cc \u0686\u0627\u0648", "name:en": "Eye Hospital"}}, {"type": "way", "id": 679670611, "nodes": [10163885274, 6364315177, 7040845876, 7040845877, 10163885273, 9500635130, 10163885274], "tags": {"addr:city": "\u0647\u06d5\u0648\u0644\u06ce\u0631", "amenity": "hospital", "emergency": "no", "healthcare": "hospital", "name": "\u0628\u0646\u06a9\u06d5\u06cc \u062a\u06d5\u0646\u062f\u0631\u0648\u0633\u062a\u06cc \u062f\u0627\u0631\u06d5\u062a\u0648\u0648", "name:ar": "\u0645\u0631\u0643\u0632 \u0635\u062d\u064a \u062f\u0627\u0631\u062a\u0648\u0648", "name:ckb": "\u0628\u0646\u06a9\u06d5\u06cc \u062a\u06d5\u0646\u062f\u0631\u0648\u0633\u062a\u06cc \u062f\u0627\u0631\u06d5\u062a\u0648\u0648", "name:en": "Health Daratu"}}, {"type": "way", "id": 683450629, "nodes": [6401500437, 6401500438, 6401500439, 6401500440, 6401500441, 6401500442, 6401500443, 6401500444, 6401500445, 6401500446, 6401500437], "tags": {"addr:city": "\u0623\u0631\u0628\u064a\u0644", "addr:country": "IQ", "addr:district": "\u0642\u0636\u0627\u0621 \u0623\u0631\u0628\u064a\u0644", "addr:postcode": "44001", "addr:state": "\u0645\u062d\u0627\u0641\u0638\u0629 \u0623\u0631\u0628\u064a\u0644", "addr:subdistrict": "\u0646\u0627\u062d\u064a\u0629 \u0639\u0646\u0643\u0627\u0648\u0627", "addr:town": "\u0639\u0646\u0643\u0627\u0648\u0627", "amenity": "hospital", "emergency": "yes", "healthcare": "hospital", "name": "\u0646\u06d5\u062e\u06c6\u0634\u062e\u0627\u0646\u06d5\u06cc \u0646\u06d5\u0648\u0631\u06c6\u0632"}}, {"type": "way", "id": 755394365, "nodes": [7056164023, 7056164024, 7056164025, 7056164026, 7056164023], "tags": {"amenity": "hospital", "healthcare": "hospital"}}, {"type": "way", "id": 766427479, "nodes": [7158130796, 7158130797, 7056164028, 7056164029, 7158130798, 11198795670, 11198795672, 11198795673, 11198795671, 7158130799, 7158130796], "tags": {"addr:city": "\u0623\u0631\u0628\u064a\u0644", "addr:country": "IQ", "addr:district": "\u0642\u0636\u0627\u0621 \u0623\u0631\u0628\u064a\u0644", "addr:postcode": "44001", "addr:state": "\u0645\u062d\u0627\u0641\u0638\u0629 \u0623\u0631\u0628\u064a\u0644", "amenity": "hospital", "healthcare": "hospital", "name": "\u0646\u06d5\u062e\u06c6\u0634\u062e\u0627\u0646\u06d5\u06cc \u0647\u06d5\u0648\u0627\u0631", "name:ckb": "\u0646\u06d5\u062e\u06c6\u0634\u062e\u0627\u0646\u06d5\u06cc \u0647\u06d5\u0648\u0627\u0631", "name:en": "Howar Private Hospital", "name:ku": "Xestexana Hewar", "name:sdh": "\u0646\u06d5\u062e\u06c6\u0634\u062e\u0627\u0646\u06d5\u06cc \u0647\u06d5\u0648\u0627\u0631"}}, {"type": "way", "id": 766428185, "nodes": [7158120600, 11103306568, 11103306567, 7158120601, 11103306566, 11103306565, 5760163224, 5760163225, 7158120603, 7158120600], "tags": {"addr:city": "\u0623\u0631\u0628\u064a\u0644", "addr:country": "IQ", "addr:district": "\u0642\u0636\u0627\u0621 \u0623\u0631\u0628\u064a\u0644", "addr:postcode": "44001", "addr:state": "\u0645\u062d\u0627\u0641\u0638\u0629 \u0623\u0631\u0628\u064a\u0644", "addr:street": "\u0634\u06d5\u0642\u0627\u0645\u06cc \u0646\u06d5\u0645\u0627\u0645\u06af\u06d5", "amenity": "hospital", "emergency": "yes", "healthcare": "hospital", "healthcare:speciality": "general;radiology;surgery;blood_check;urology;otolaryngology", "internet_access": "wlan", "mobile": "+964 750 146 8484", "name": "\u0646\u06d5\u062e\u06c6\u0634\u062e\u0627\u0646\u06d5\u06cc \u062a\u0627\u06cc\u0628\u06d5\u062a\u06cc \u0632\u0627\u0646\u06a9\u06c6", "name:ar": "\u0645\u0633\u062a\u0634\u0641\u0649 \u0632\u0627\u0646\u0643\u0648 \u0627\u0644\u0627\u0647\u0644\u064a", "name:en": "Zanko Private hospital", "name:ku": "Nexo\u015fxana Taybetya Zanko", "opening_hours": "24/7", "wheelchair": "yes"}}, {"type": "way", "id": 771382383, "nodes": [7201150448, 7201150449, 7201150450, 7201150451, 7201150448], "tags": {"addr:city": "\u0623\u0631\u0628\u064a\u0644", "addr:country": "IQ", "addr:district": "\u0642\u0636\u0627\u0621 \u0623\u0631\u0628\u064a\u0644", "addr:postcode": "44001", "addr:state": "\u0645\u062d\u0627\u0641\u0638\u0629 \u0623\u0631\u0628\u064a\u0644", "amenity": "hospital", "healthcare": "hospital", "name": "\u0646\u0627\u0648\u06d5\u0646\u062f\u06cc \u067e\u0632\u06cc\u0634\u06a9\u06cc \u067e\u0633\u067e\u06c6\u0695\u06cc \u062f\u06d5\u0645 \u0648 \u062f\u062f\u0627\u0646\u06cc \u0647\u06d5\u0648\u0644\u06ce\u0631"}}, {"type": "way", "id": 781112660, "nodes": [7293123194, 7293123190, 7293123189, 7293123193, 7293123194], "tags": {"addr:city": "\u0623\u0631\u0628\u064a\u0644", "addr:country": "IQ", "addr:district": "\u0642\u0636\u0627\u0621 \u0623\u0631\u0628\u064a\u0644", "addr:postcode": "44001", "addr:state": "\u0645\u062d\u0627\u0641\u0638\u0629 \u0623\u0631\u0628\u064a\u0644", "addr:street": "\u0634\u06d5\u0642\u0627\u0645\u06cc \u0628\u0627\u0631\u0632\u0627\u0646\u06cc \u0646\u06d5\u0645\u0631", "amenity": "hospital", "building:levels": "4", "email": "swerehcen@gmail.com", "healthcare": "hospital", "healthcare:speciality": "physiotherapy;neurology;general;chiropractic;orthopaedics;radiology;physiatry", "height": "30", "image": "https://scontent.febl3-1.fna.fbcdn.net/v/t1.6435-9/198695204_107854608191411_3140641384343848330_n.jpg?_nc_cat=106&ccb=1-5&_nc_sid=e3f864&_nc_ohc=DjL6a_k-uiwAX9k1s0U&_nc_ht=scontent.febl3-1.fna&oh=d0f9b8865345b5636790cae5b812f211&oe=616E7B60", "name": "Swedish Rehab Center - Pink Line", "operator": "Pink Line", "operator:type": "private", "phone": "+964 750 880 3432", "website": "https://swerehcen.business.site/"}}, {"type": "way", "id": 795753580, "nodes": [7442991565, 7442991566, 7442991567, 7442991568, 7442991565], "tags": {"addr:city": "\u0623\u0631\u0628\u064a\u0644", "addr:country": "IQ", "addr:district": "\u0642\u0636\u0627\u0621 \u0623\u0631\u0628\u064a\u0644", "addr:postcode": "44001", "addr:state": "\u0645\u062d\u0627\u0641\u0638\u0629 \u0623\u0631\u0628\u064a\u0644", "amenity": "hospital", "healthcare": "hospital"}}, {"type": "way", "id": 795753581, "nodes": [7442991569, 7442991570, 7442991571, 7442991572, 7442991569], "tags": {"addr:city": "\u0623\u0631\u0628\u064a\u0644", "addr:country": "IQ", "addr:district": "\u0642\u0636\u0627\u0621 \u0623\u0631\u0628\u064a\u0644", "addr:postcode": "44001", "addr:state": "\u0645\u062d\u0627\u0641\u0638\u0629 \u0623\u0631\u0628\u064a\u0644", "amenity": "hospital", "healthcare": "hospital"}}, {"type": "way", "id": 795753582, "nodes": [7442991573, 7442991574, 7442991575, 7442991576, 7442991573], "tags": {"addr:city": "\u0623\u0631\u0628\u064a\u0644", "addr:country": "IQ", "addr:district": "\u0642\u0636\u0627\u0621 \u0623\u0631\u0628\u064a\u0644", "addr:postcode": "44001", "addr:state": "\u0645\u062d\u0627\u0641\u0638\u0629 \u0623\u0631\u0628\u064a\u0644", "amenity": "hospital", "healthcare": "hospital"}}, {"type": "way", "id": 795753583, "nodes": [7442991577, 7442991578, 7442991579, 7442991580, 7442991577], "tags": {"addr:city": "\u0623\u0631\u0628\u064a\u0644", "addr:country": "IQ", "addr:district": "\u0642\u0636\u0627\u0621 \u0623\u0631\u0628\u064a\u0644", "addr:postcode": "44001", "addr:state": "\u0645\u062d\u0627\u0641\u0638\u0629 \u0623\u0631\u0628\u064a\u0644", "amenity": "hospital", "healthcare": "hospital"}}, {"type": "way", "id": 798611147, "nodes": [4845969860, 7469303951, 7406322751, 7406322752, 5701810060, 4845969858, 4845969852, 4845969860], "tags": {"addr:city": "\u0634\u0642\u0644\u0627\u0648\u0629", "addr:country": "IQ", "addr:postcode": "44005", "addr:state": "\u0645\u062d\u0627\u0641\u0638\u0629 \u0623\u0631\u0628\u064a\u0644", "addr:street": "Sarmaydan Street", "amenity": "hospital", "emergency": "yes", "healthcare": "hospital", "healthcare:speciality": "general"}}, {"type": "way", "id": 884102033, "nodes": [8222088158, 8222088156, 8222088150, 8222088157, 8222088151, 8222088155, 8222088154, 8222088158], "tags": {"amenity": "hospital", "healthcare": "hospital", "name": "\u0646\u06d5\u062e\u06c6\u0634\u062e\u0627\u0646\u06d5\u06cc \u06af\u0634\u062a\u06cc \u067e\u06cc\u0631\u0645\u0627\u0645", "name:ckb": "\u0646\u06d5\u062e\u06c6\u0634\u062e\u0627\u0646\u06d5\u06cc \u06af\u0634\u062a\u06cc \u067e\u06cc\u0631\u0645\u0627\u0645", "name:en": "Pirmam General Hospital", "name:ku": "Nexwe\u015fxaneya Gi\u015ft\u00ee P\u00eermam", "name:ku-Arab": "\u0646\u06d5\u062e\u06c6\u0634\u062e\u0627\u0646\u06d5\u06cc \u06af\u0634\u062a\u06cc \u067e\u06cc\u0631\u0645\u0627\u0645"}}, {"type": "way", "id": 991883258, "nodes": [9164315925, 9164407851, 9164315932, 9164315931, 9164315930, 9164315929, 9164315928, 4421967491, 9164315927, 9164315926, 9164315925], "tags": {"addr:city": "\u0623\u0631\u0628\u064a\u0644", "addr:country": "IQ", "addr:district": "\u0642\u0636\u0627\u0621 \u0623\u0631\u0628\u064a\u0644", "addr:postcode": "44001", "addr:state": "\u0645\u062d\u0627\u0641\u0638\u0629 \u0623\u0631\u0628\u064a\u0644", "addr:street": "\u0634\u06d5\u0642\u0627\u0645\u06cc \u06a9\u06c6\u06cc\u06d5", "amenity": "hospital", "email": "info@cmcph.net", "emergency": "yes", "healthcare": "hospital", "healthcare:speciality": "general;emergency;surgery;radiology;general_surgery;open_heart_surgery;orthopedic_surgery;ophthalmology_surgery;plastic_surgery;pediatric_surgery;urology_surgery;bariatric_surgery;thoracic_surgery;neuro_surgery;lithotripsy_surgery;ent_surgery;laparoscopic", "internet_access": "wlan", "loc_name": "\u062e\u06d5\u0633\u062a\u06d5\u062e\u0627\u0646\u06d5\u06cc CMC", "name": "\u0646\u06d5\u062e\u06c6\u0634\u062e\u0627\u0646\u06d5\u06cc CMC", "name:ar": "\u0646\u06d5\u062e\u06c6\u0634\u062e\u0627\u0646\u06d5\u06cc CMC", "name:ckb": "\u0646\u06d5\u062e\u06c6\u0634\u062e\u0627\u0646\u06d5\u06cc CMC", "name:en": "CMC Hospital", "name:ku": "Nexo\u015fxaney CMC", "phone": "+964 750 184 0005", "website": "https://www.cmcph.net/", "wheelchair": "yes"}}, {"type": "way", "id": 992138675, "nodes": [7330293610, 7330293611, 7330293612, 7330293609, 7330293606, 9166664814, 9166664813, 9166664812, 9166664811, 9166664810, 9166664809, 9166664808, 4328978489, 9166664807, 9166664806, 7330293610], "tags": {"addr:city": "\u0623\u0631\u0628\u064a\u0644", "addr:country": "IQ", "addr:district": "\u0642\u0636\u0627\u0621 \u0623\u0631\u0628\u064a\u0644", "addr:postcode": "44001", "addr:state": "\u0645\u062d\u0627\u0641\u0638\u0629 \u0623\u0631\u0628\u064a\u0644", "addr:street": "\u0634\u06d5\u0642\u0627\u0645\u06cc \u06a9\u0648\u0631\u062f\u0633\u062a\u0627\u0646", "amenity": "hospital", "emergency": "yes", "healthcare": "hospital", "healthcare:speciality": "general;surgery;clinic", "name": "\u0646\u06d5\u062e\u06c6\u0634\u062e\u0627\u0646\u06d5\u06cc \u067e\u0627\u0631", "name:ckb": "\u0646\u06d5\u062e\u06c6\u0634\u062e\u0627\u0646\u06d5\u06cc \u067e\u0627\u0631", "name:en": "PAR hospital", "name:ku": "\u0646\u06d5\u062e\u06c6\u0634\u062e\u0627\u0646\u06d5\u06cc \u067e\u0627\u0631"}}, {"type": "way", "id": 1103229290, "nodes": [10095694928, 10095694929, 10095694930, 10095694931, 10095694932, 10095694933, 10095694928], "tags": {"addr:city": "\u0623\u0631\u0628\u064a\u0644", "addr:country": "IQ", "addr:district": "\u0642\u0636\u0627\u0621 \u0623\u0631\u0628\u064a\u0644", "addr:housenumber": "108", "addr:postcode": "44001", "addr:state": "\u0645\u062d\u0627\u0641\u0638\u0629 \u0623\u0631\u0628\u064a\u0644", "addr:street": "\u0634\u06d5\u0642\u0627\u0645\u06cc \u06a9\u06d5\u0631\u06a9\u0648\u0648\u06a9", "alt_name": "\u0646\u06d5\u062e\u06c6\u0634\u062e\u0627\u0646\u06d5\u06cc \u0646\u0627\u0648\u06d5\u0646\u062f\u06cc\u06cc \u062f\u06b5", "alt_name:en": "Surgical specialty hospital", "amenity": "hospital", "email": "info@erbilcardiaccenter.org", "emergency": "yes", "healthcare": "hospital", "healthcare:speciality": "cardiology", "loc_name": "\u062e\u06d5\u0633\u062a\u06d5\u062e\u0627\u0646\u06d5\u06cc \u062f\u0631\u06cc", "mobile": "+964 751 075 5848", "name": "\u0646\u06d5\u062e\u06c6\u0634\u062e\u0627\u0646\u06d5\u06cc \u0633\u06d5\u0646\u062a\u06d5\u0631\u06cc \u062f\u06b5-\u0647\u06d5\u0648\u0644\u06ce\u0631", "name:ar": "\u0645\u0631\u0643\u0632 \u0627\u0644\u0642\u0644\u0628 - \u0627\u0631\u0628\u064a\u0644", "name:ckb": "\u0646\u06d5\u062e\u06c6\u0634\u062e\u0627\u0646\u06d5\u06cc \u0633\u06d5\u0646\u062a\u06d5\u0631\u06cc \u062f\u06b5-\u0647\u06d5\u0648\u0644\u06ce\u0631", "name:en": "Erbil cardiac center", "official_name": "\u0646\u06d5\u062e\u06c6\u0634\u062e\u0627\u0646\u06d5\u06cc \u067e\u0633\u067e\u06c6\u0695\u06cc \u0646\u06d5\u0634\u062a\u06d5\u0631\u06af\u06d5\u0631\u06cc-\u0633\u06d5\u0646\u062a\u06d5\u0631\u06cc \u062f\u06b5", "opening_hours": "24/7", "phone": "+964 66 229 5807", "start_date": "2007-12", "website": "https://erbilcardiaccenter.org/"}}, {"type": "way", "id": 1216942333, "nodes": [11276154284, 11276154285, 11276154286, 11276154287, 11276154288, 11276154289, 11276154290, 11276154291, 11276154292, 11276154293, 11276154294, 11276154295, 11276154296, 11276154297, 11276154298, 11276154299, 11276154300, 11276154301, 11276154302, 11276154303, 11276154304, 11276154305, 11276154306, 11276154307, 11276154308, 11276154284], "tags": {"addr:city": "\u0623\u0631\u0628\u064a\u0644", "addr:country": "IQ", "addr:district": "\u0642\u0636\u0627\u0621 \u0623\u0631\u0628\u064a\u0644", "addr:postcode": "44001", "addr:state": "\u0645\u062d\u0627\u0641\u0638\u0629 \u0623\u0631\u0628\u064a\u0644", "amenity": "hospital", "construction": "yes", "healthcare": "hospital"}}]}