{"version": 0.6, "generator": "Overpass API 0.7.61.5 4133829e", "osm3s": {"timestamp_osm_base": "2024-03-06T11:03:20Z", "copyright": "The data included in this document is from www.openstreetmap.org. The data is made available under ODbL."}, "elements": [{"type": "node", "id": 974984279, "lat": 33.2993427, "lon": 44.3872367, "tags": {"amenity": "atm"}}, {"type": "node", "id": 975022058, "lat": 33.3234875, "lon": 44.4499487, "tags": {"amenity": "atm", "description": "Dar Al Salam Investment Bank: Al Rubaie St, Zayona, Sec. 714, Building 7, Street No. 55"}}, {"type": "node", "id": 4220894390, "lat": 33.3074339, "lon": 44.3405831, "tags": {"amenity": "atm", "opening_hours": "24/7", "operator": "Baghdad Bank"}}, {"type": "node", "id": 4222099205, "lat": 33.3077168, "lon": 44.3404927, "tags": {"amenity": "atm", "opening_hours": "24/7", "operator": "\u0645\u0635\u0631\u0641 \u0628\u063a\u062f\u0627\u062f"}}, {"type": "node", "id": 4451727899, "lat": 33.3166144, "lon": 44.4234426, "tags": {"amenity": "atm", "operator": "\u0627\u0644\u0647\u064a\u0626\u0629 \u0627\u0644\u0639\u0631\u0627\u0642\u064a\u0629 \u0627\u0644\u0645\u0635\u0627\u062f\u0631 \u0627\u0644\u0645\u0634\u0639\u0629"}}, {"type": "node", "id": 4560173091, "lat": 33.393783, "lon": 44.3101964, "tags": {"amenity": "atm"}}, {"type": "node", "id": 4578281706, "lat": 33.3516654, "lon": 44.2726925, "tags": {"amenity": "atm"}}, {"type": "node", "id": 4672158990, "lat": 33.3109962, "lon": 44.4809113, "tags": {"amenity": "atm", "operator": "\u0636\u064a\u0627\u0621"}}, {"type": "node", "id": 4722746990, "lat": 33.3202976, "lon": 44.3531765, "tags": {"amenity": "atm", "opening_hours": "Mo-Su 10:00-23:00", "operator": "\u0635\u0631\u0627\u0641 \u0627\u0644\u0645\u0635\u0631\u0641 \u0627\u0644\u0639\u0631\u0627\u0642\u064a \u0644\u0644\u062a\u062c\u0627\u0631\u0629 TBI"}}, {"type": "node", "id": 4722759889, "lat": 33.3058, "lon": 44.4308, "tags": {"amenity": "atm", "opening_hours": "24/7", "operator": "ATM Cihan Bank"}}, {"type": "node", "id": 4724769489, "lat": 33.2699239, "lon": 44.5530467, "tags": {"amenity": "atm", "operator": "\u0633\u0644\u0648\u0645 \u0627\u0644\u062d\u062f\u0627\u062f"}}, {"type": "node", "id": 4727304595, "lat": 33.311004, "lon": 44.3242046, "tags": {"amenity": "atm", "opening_hours": "Su-Th 08:00-14:00"}}, {"type": "node", "id": 4749129924, "lat": 33.3065294, "lon": 44.3662119, "tags": {"amenity": "atm", "operator": "The North Bank ATM"}}, {"type": "node", "id": 4752553922, "lat": 33.3160417, "lon": 44.3530443, "tags": {"amenity": "atm"}}, {"type": "node", "id": 4911180222, "lat": 33.3005142, "lon": 44.4403878, "tags": {"amenity": "atm"}}, {"type": "node", "id": 4929424423, "lat": 33.3987682, "lon": 44.4849477, "tags": {"amenity": "atm", "operator": "\u0645\u062f\u062e\u0644 110\u0634\u064a\u0634\u0627\u0646"}}, {"type": "node", "id": 4977745238, "lat": 33.3478416, "lon": 44.3146024, "tags": {"amenity": "atm", "operator": "\u0645\u0643\u0627\u0646 \u062d\u0645\u0648\u062f\u064a"}}, {"type": "node", "id": 5134748825, "lat": 33.3732979, "lon": 44.3702458, "tags": {"amenity": "atm"}}, {"type": "node", "id": 5273396421, "lat": 33.4132348, "lon": 44.4117303, "tags": {"amenity": "atm", "operator": "\u0645\u0644\u0639\u0628 \u0643\u0631\u0629 \u0642\u062f\u0645 \u062d\u064a \u0622\u0648\u0631"}}, {"type": "node", "id": 5346038523, "lat": 33.3331958, "lon": 44.4121574, "tags": {"amenity": "atm", "opening_hours": "Mo-Su 09:00-18:00", "operator": "\u0633\u064a\u0627\u0631\u0627\u062a \u0631\u0639\u062f"}}, {"type": "node", "id": 5462550221, "lat": 33.3075703, "lon": 44.4425215, "tags": {"amenity": "atm", "operator": "\u062f\u0627\u0631 \u0627\u0633\u062a\u0631\u0627\u062d\u0629 \u0646\u0641\u0637"}}, {"type": "node", "id": 5799612854, "lat": 33.2594498, "lon": 44.4003778, "tags": {"amenity": "atm", "operator": "\u0628\u064a\u062a \u0639\u062f\u064a"}}, {"type": "node", "id": 6031716685, "lat": 33.3028316, "lon": 44.3502378, "tags": {"amenity": "atm"}}, {"type": "node", "id": 6071494952, "lat": 33.2819397, "lon": 44.2958028, "tags": {"amenity": "atm", "operator": "\u064a\u0633\u0631 \u0627\u0644\u062d\u0633\u064a\u0646 \u0643\u064a \u0643\u0627\u0631\u062f \u0648 \u0645\u0627\u0633\u062a\u0631 \u0643\u0627\u0631\u062f"}}, {"type": "node", "id": 6084671793, "lat": 33.2819379, "lon": 44.2957881, "tags": {"amenity": "atm", "opening_hours": "Mo-Su 15:00-22:00", "operator": "\u0645\u0646\u0641\u0630 \u064a\u0633\u0631 \u0627\u0644\u062d\u0633\u064a\u0646 \u0643\u064a \u0643\u0627\u0631\u062f \u0648 \u0645\u0627\u0633\u062a\u0631 \u0643\u0627\u0631\u062f"}}, {"type": "node", "id": 6216210185, "lat": 33.2987569, "lon": 44.4474992, "tags": {"amenity": "atm", "operator": "\u0639\u0644\u064a \u062f\u0647\u0646 \u0643\u064a\u0631"}}, {"type": "node", "id": 6349624285, "lat": 33.3136977, "lon": 44.4272775, "tags": {"amenity": "atm", "check_date": "2022-07-03", "operator": "\u0635\u064a\u0631\u0641\u0629"}}, {"type": "node", "id": 6353800385, "lat": 33.2808665, "lon": 44.3892118, "tags": {"amenity": "atm"}}, {"type": "node", "id": 6399307485, "lat": 33.2819392, "lon": 44.2958156, "tags": {"amenity": "atm", "opening_hours": "Mo-Su 10:00-22:00", "operator": "\u0645\u0646\u0641\u0630 \u064a\u0633\u0631 \u0627\u0644\u062d\u0633\u064a\u0646 \u0635\u0631\u0641 \u0631\u0648\u0627\u062a\u0628"}}, {"type": "node", "id": 6499860088, "lat": 33.3041696, "lon": 44.3451744, "tags": {"addr:street": "\u0627\u0644\u0645\u0646\u0635\u0648\u0631", "amenity": "atm", "name": "\u0634\u0631\u0643\u0629 \u062c\u0648\u0647\u0631\u0629 \u0643\u0631\u0628\u0644\u0627\u0621", "office": "company", "operator": "\u062c\u0648\u0647\u0631\u0629 \u0627\u0633\u064a\u0627"}}, {"type": "node", "id": 6569266485, "lat": 33.4002307, "lon": 44.4035993, "tags": {"amenity": "atm", "operator": "\u0645\u0646\u0641\u0630 \u0627\u062d\u0645\u062f \u0627\u0644\u0633\u0648\u062f\u0627\u0646\u064a \u0627\u0644\u0628\u0637\u0627\u0642\u0629 \u0627\u0644\u0630\u0643\u064a\u0629"}}, {"type": "node", "id": 6584313285, "lat": 33.3169975, "lon": 44.503101, "tags": {"amenity": "atm", "opening_hours": "Mo-Su 09:00-18:00", "operator": "\u0631\u0643\u0646 \u0627\u0644\u0633\u0639\u0627\u062f\u0629"}}, {"type": "node", "id": 6865700323, "lat": 33.3465925, "lon": 44.3767014, "tags": {"amenity": "atm"}}, {"type": "node", "id": 7160320085, "lat": 33.2943699, "lon": 44.4289553, "tags": {"amenity": "atm", "operator": "\u0645\u0635\u0631\u0641 \u0628\u063a\u062f\u0627\u062fATM"}}, {"type": "node", "id": 7173896985, "lat": 33.3908898, "lon": 44.3798519, "tags": {"amenity": "atm", "opening_hours": "Mo-Su 09:00-18:00"}}, {"type": "node", "id": 7272802285, "lat": 33.294373, "lon": 44.4289731, "tags": {"amenity": "atm"}}, {"type": "node", "id": 7274764787, "lat": 33.2934112, "lon": 44.4030752, "tags": {"amenity": "atm", "operator": "\u0645\u0646\u0641\u0630 \u0627\u0642\u062a\u0635\u0627\u062f \u0627\u0644\u0643\u0631\u0627\u062f\u0629"}}, {"type": "node", "id": 7681310786, "lat": 33.3065615, "lon": 44.3219918, "tags": {"amenity": "atm"}}, {"type": "node", "id": 7761473985, "lat": 33.3637256, "lon": 44.5109289, "tags": {"amenity": "atm", "opening_hours": "Mo-Su 09:00-23:00", "operator": "\u0645\u0646\u0641\u0630 \u0627\u0646\u0648\u0627\u0631 \u0627\u0644\u0633\u0644\u0637\u0627\u0646 \u0644\u0644\u0643\u064a \u0643\u0627\u0631\u062f"}}, {"type": "node", "id": 7942813813, "lat": 33.3683368, "lon": 44.3849137, "tags": {"amenity": "atm", "check_date": "2023-10-16", "name": "TBI ATM", "operator": "Trade Bank of Iraq"}}, {"type": "node", "id": 7942813814, "lat": 33.3683281, "lon": 44.3849135, "tags": {"amenity": "atm", "check_date": "2023-10-16", "name": "Bank of Baghdad ATM", "operator": "Bank of Baghdad"}}, {"type": "node", "id": 7978736919, "lat": 33.3119379, "lon": 44.364498, "tags": {"amenity": "atm", "layer": "-1"}}, {"type": "node", "id": 8203376017, "lat": 33.3394328, "lon": 44.500799, "tags": {"amenity": "atm", "opening_hours": "Mo-Su 08:00-21:00", "operator": "\u0645\u0646\u0641\u0630 \u0627\u0644\u0645\u0631\u064a\u0627\u0646\u064a \u0644\u0644\u0628\u0637\u0627\u0642\u0629 \u0627\u0644\u0630\u0643\u064a\u0629"}}, {"type": "node", "id": 8233972217, "lat": 33.3388329, "lon": 44.275231, "tags": {"amenity": "atm", "opening_hours": "Mo-Su 10:00-14:00, 15:00-18:00"}}, {"type": "node", "id": 8292934217, "lat": 33.3807779, "lon": 44.3807762, "tags": {"amenity": "atm"}}, {"type": "node", "id": 8296078717, "lat": 33.3698205, "lon": 44.3568981, "tags": {"amenity": "atm"}}, {"type": "node", "id": 8401799017, "lat": 33.2412025, "lon": 44.4032336, "tags": {"amenity": "atm", "operator": "\u0633\u0641\u064a\u0627\u0646"}}, {"type": "node", "id": 8409156617, "lat": 33.320474, "lon": 44.3240859, "tags": {"amenity": "atm"}}, {"type": "node", "id": 8607003817, "lat": 33.2478483, "lon": 44.3123528, "tags": {"amenity": "atm"}}, {"type": "node", "id": 9384284157, "lat": 33.3035182, "lon": 44.4271999, "tags": {"addr:full": "ATM-BAGHDAD-Property Claims", "amenity": "atm", "atm": "yes", "cash_out": "yes", "currency:IQD": "yes", "language:ar": "yes", "language:en": "yes", "name": "\u0635\u0631\u0627\u0641 \u0622\u0644\u064a - \u0627\u0644\u0645\u0635\u0631\u0641 \u0627\u0644\u0639\u0631\u0627\u0642\u064a \u0644\u0644\u062a\u062c\u0627\u0631\u0629", "name:en": "TBI ATM", "operator": "Trade Bank of Iraq", "website": "https://tbi.com.iq/"}}, {"type": "node", "id": 9384284161, "lat": 33.3030147, "lon": 44.3979862, "tags": {"addr:full": "ATM-Baghdad-NIC 2 R", "amenity": "atm", "atm": "yes", "cash_out": "yes", "currency:IQD": "yes", "language:ar": "yes", "language:en": "yes", "name": "\u0635\u0631\u0627\u0641 \u0622\u0644\u064a - \u0627\u0644\u0645\u0635\u0631\u0641 \u0627\u0644\u0639\u0631\u0627\u0642\u064a \u0644\u0644\u062a\u062c\u0627\u0631\u0629", "name:en": "TBI ATM", "operator": "Trade Bank of Iraq", "website": "https://tbi.com.iq/"}}, {"type": "node", "id": 9384284163, "lat": 33.3024115, "lon": 44.3671861, "tags": {"addr:full": "ATM-BAGHDAD-HARTHYA BRANCH W", "amenity": "atm", "atm": "yes", "cash_out": "yes", "currency:IQD": "yes", "language:ar": "yes", "language:en": "yes", "name": "\u0635\u0631\u0627\u0641 \u0622\u0644\u064a - \u0627\u0644\u0645\u0635\u0631\u0641 \u0627\u0644\u0639\u0631\u0627\u0642\u064a \u0644\u0644\u062a\u062c\u0627\u0631\u0629", "name:en": "TBI ATM", "operator": "Trade Bank of Iraq", "website": "https://tbi.com.iq/"}}, {"type": "node", "id": 9384284169, "lat": 33.3202242, "lon": 44.4673494, "tags": {"addr:full": "ATM-BAGHDAD-Macintosh Market", "amenity": "atm", "atm": "yes", "cash_out": "yes", "currency:IQD": "yes", "language:ar": "yes", "language:en": "yes", "name": "\u0635\u0631\u0627\u0641 \u0622\u0644\u064a - \u0627\u0644\u0645\u0635\u0631\u0641 \u0627\u0644\u0639\u0631\u0627\u0642\u064a \u0644\u0644\u062a\u062c\u0627\u0631\u0629", "name:en": "TBI ATM", "operator": "Trade Bank of Iraq", "website": "https://tbi.com.iq/"}}, {"type": "node", "id": 9384284172, "lat": 33.4024219, "lon": 44.4039869, "tags": {"addr:full": "ATM-BAGHDAD-ZAMAN AL-TYEYEB MARKET", "amenity": "atm", "atm": "yes", "cash_out": "yes", "currency:IQD": "yes", "language:ar": "yes", "language:en": "yes", "name": "\u0635\u0631\u0627\u0641 \u0622\u0644\u064a - \u0627\u0644\u0645\u0635\u0631\u0641 \u0627\u0644\u0639\u0631\u0627\u0642\u064a \u0644\u0644\u062a\u062c\u0627\u0631\u0629", "name:en": "TBI ATM", "operator": "Trade Bank of Iraq", "website": "https://tbi.com.iq/"}}, {"type": "node", "id": 9384284179, "lat": 33.2942615, "lon": 44.2919187, "tags": {"addr:full": "ATM - Baghdad -\u00a0AL-AELAA MARKET", "amenity": "atm", "atm": "yes", "cash_out": "yes", "currency:IQD": "yes", "language:ar": "yes", "language:en": "yes", "name": "\u0635\u0631\u0627\u0641 \u0622\u0644\u064a - \u0627\u0644\u0645\u0635\u0631\u0641 \u0627\u0644\u0639\u0631\u0627\u0642\u064a \u0644\u0644\u062a\u062c\u0627\u0631\u0629", "name:en": "TBI ATM", "operator": "Trade Bank of Iraq", "website": "https://tbi.com.iq/"}}, {"type": "node", "id": 9384284180, "lat": 33.2512114, "lon": 44.3526462, "tags": {"addr:full": "ATM - Baghdad - SAHAARA MALL", "amenity": "atm", "atm": "yes", "cash_out": "yes", "currency:IQD": "yes", "language:ar": "yes", "language:en": "yes", "name": "\u0635\u0631\u0627\u0641 \u0622\u0644\u064a - \u0627\u0644\u0645\u0635\u0631\u0641 \u0627\u0644\u0639\u0631\u0627\u0642\u064a \u0644\u0644\u062a\u062c\u0627\u0631\u0629", "name:en": "TBI ATM", "operator": "Trade Bank of Iraq", "website": "https://tbi.com.iq/"}}, {"type": "node", "id": 9384284183, "lat": 33.2851087, "lon": 44.4131516, "tags": {"addr:full": "ATM - Baghdad - OYOON BAGHDAD RST.", "amenity": "atm", "atm": "yes", "cash_out": "yes", "currency:IQD": "yes", "language:ar": "yes", "language:en": "yes", "name": "\u0635\u0631\u0627\u0641 \u0622\u0644\u064a - \u0627\u0644\u0645\u0635\u0631\u0641 \u0627\u0644\u0639\u0631\u0627\u0642\u064a \u0644\u0644\u062a\u062c\u0627\u0631\u0629", "name:en": "TBI ATM", "operator": "Trade Bank of Iraq", "website": "https://tbi.com.iq/"}}, {"type": "node", "id": 9384284189, "lat": 33.3685602, "lon": 44.3439565, "tags": {"addr:full": "ATM - BAGHDAD - SAVEWAY", "amenity": "atm", "atm": "yes", "cash_out": "yes", "currency:IQD": "yes", "language:ar": "yes", "language:en": "yes", "name": "\u0635\u0631\u0627\u0641 \u0622\u0644\u064a - \u0627\u0644\u0645\u0635\u0631\u0641 \u0627\u0644\u0639\u0631\u0627\u0642\u064a \u0644\u0644\u062a\u062c\u0627\u0631\u0629", "name:en": "TBI ATM", "operator": "Trade Bank of Iraq", "website": "https://tbi.com.iq/"}}, {"type": "node", "id": 9384284192, "lat": 33.3177534, "lon": 44.3245901, "tags": {"addr:full": "ATM - Baghdad - T.Town Market", "amenity": "atm", "atm": "yes", "cash_out": "yes", "currency:IQD": "yes", "language:ar": "yes", "language:en": "yes", "name": "\u0635\u0631\u0627\u0641 \u0622\u0644\u064a - \u0627\u0644\u0645\u0635\u0631\u0641 \u0627\u0644\u0639\u0631\u0627\u0642\u064a \u0644\u0644\u062a\u062c\u0627\u0631\u0629", "name:en": "TBI ATM", "operator": "Trade Bank of Iraq", "website": "https://tbi.com.iq/"}}, {"type": "node", "id": 9384284194, "lat": 33.3388459, "lon": 44.2829814, "tags": {"addr:full": "ATM - Baghdad - M1 MARKET", "amenity": "atm", "atm": "yes", "cash_out": "yes", "currency:IQD": "yes", "language:ar": "yes", "language:en": "yes", "name": "\u0635\u0631\u0627\u0641 \u0622\u0644\u064a - \u0627\u0644\u0645\u0635\u0631\u0641 \u0627\u0644\u0639\u0631\u0627\u0642\u064a \u0644\u0644\u062a\u062c\u0627\u0631\u0629", "name:en": "TBI ATM", "operator": "Trade Bank of Iraq", "website": "https://tbi.com.iq/"}}, {"type": "node", "id": 9384284195, "lat": 33.2916915, "lon": 44.4149656, "tags": {"addr:full": "ATM - Baghdad - Warda Market", "amenity": "atm", "atm": "yes", "cash_out": "yes", "currency:IQD": "yes", "language:ar": "yes", "language:en": "yes", "name": "\u0635\u0631\u0627\u0641 \u0622\u0644\u064a - \u0627\u0644\u0645\u0635\u0631\u0641 \u0627\u0644\u0639\u0631\u0627\u0642\u064a \u0644\u0644\u062a\u062c\u0627\u0631\u0629", "name:en": "TBI ATM", "operator": "Trade Bank of Iraq", "website": "https://tbi.com.iq/"}}, {"type": "node", "id": 9384316640, "lat": 33.3933093, "lon": 44.3937187, "tags": {"addr:full": "ATM-Baghdad-IRAQI PAR. COMMITTEE", "amenity": "atm", "atm": "yes", "cash_out": "yes", "currency:IQD": "yes", "language:ar": "yes", "language:en": "yes", "name": "\u0635\u0631\u0627\u0641 \u0622\u0644\u064a - \u0627\u0644\u0645\u0635\u0631\u0641 \u0627\u0644\u0639\u0631\u0627\u0642\u064a \u0644\u0644\u062a\u062c\u0627\u0631\u0629", "name:en": "TBI ATM", "operator": "Trade Bank of Iraq", "website": "https://tbi.com.iq/"}}, {"type": "node", "id": 9384316642, "lat": 33.3032001, "lon": 44.1148899, "tags": {"addr:full": "ATM-BAGHDAD-SNCAJ 1R", "amenity": "atm", "atm": "yes", "cash_out": "yes", "currency:IQD": "yes", "language:ar": "yes", "language:en": "yes", "name": "\u0635\u0631\u0627\u0641 \u0622\u0644\u064a - \u0627\u0644\u0645\u0635\u0631\u0641 \u0627\u0644\u0639\u0631\u0627\u0642\u064a \u0644\u0644\u062a\u062c\u0627\u0631\u0629", "name:en": "TBI ATM", "operator": "Trade Bank of Iraq", "website": "https://tbi.com.iq/"}}, {"type": "node", "id": 9384316644, "lat": 33.3426997, "lon": 44.4168417, "tags": {"addr:full": "ATM-BAGHDAD-Housing \u2013 Directorate R", "amenity": "atm", "atm": "yes", "cash_out": "yes", "currency:IQD": "yes", "language:ar": "yes", "language:en": "yes", "name": "\u0635\u0631\u0627\u0641 \u0622\u0644\u064a - \u0627\u0644\u0645\u0635\u0631\u0641 \u0627\u0644\u0639\u0631\u0627\u0642\u064a \u0644\u0644\u062a\u062c\u0627\u0631\u0629", "name:en": "TBI ATM", "operator": "Trade Bank of Iraq", "website": "https://tbi.com.iq/"}}, {"type": "node", "id": 9384316645, "lat": 33.3267624, "lon": 44.3944269, "tags": {"addr:full": "ATM-BAGHDAD-SNCAJ 2 R", "amenity": "atm", "atm": "yes", "cash_out": "yes", "currency:IQD": "yes", "language:ar": "yes", "language:en": "yes", "name": "\u0635\u0631\u0627\u0641 \u0622\u0644\u064a - \u0627\u0644\u0645\u0635\u0631\u0641 \u0627\u0644\u0639\u0631\u0627\u0642\u064a \u0644\u0644\u062a\u062c\u0627\u0631\u0629", "name:en": "TBI ATM", "operator": "Trade Bank of Iraq", "website": "https://tbi.com.iq/"}}, {"type": "node", "id": 9384316646, "lat": 33.2781126, "lon": 44.3975943, "tags": {"addr:full": "ATM-Baghdad-Presidency of the Republic W", "amenity": "atm", "atm": "yes", "cash_out": "yes", "currency:IQD": "yes", "language:ar": "yes", "language:en": "yes", "name": "\u0635\u0631\u0627\u0641 \u0622\u0644\u064a - \u0627\u0644\u0645\u0635\u0631\u0641 \u0627\u0644\u0639\u0631\u0627\u0642\u064a \u0644\u0644\u062a\u062c\u0627\u0631\u0629", "name:en": "TBI ATM", "operator": "Trade Bank of Iraq", "website": "https://tbi.com.iq/"}}, {"type": "node", "id": 9384316651, "lat": 33.3132123, "lon": 44.4202875, "tags": {"addr:full": "ATM- Baghdad - ALWIYAH CLUB", "amenity": "atm", "atm": "yes", "cash_out": "yes", "currency:IQD": "yes", "language:ar": "yes", "language:en": "yes", "name": "\u0635\u0631\u0627\u0641 \u0622\u0644\u064a - \u0627\u0644\u0645\u0635\u0631\u0641 \u0627\u0644\u0639\u0631\u0627\u0642\u064a \u0644\u0644\u062a\u062c\u0627\u0631\u0629", "name:en": "TBI ATM", "operator": "Trade Bank of Iraq", "website": "https://tbi.com.iq/"}}, {"type": "node", "id": 9384316652, "lat": 33.3163795, "lon": 44.3593409, "tags": {"addr:full": "ATM - Baghdad - Iraqi Red Crescent Society2", "amenity": "atm", "atm": "yes", "cash_out": "yes", "currency:IQD": "yes", "language:ar": "yes", "language:en": "yes", "name": "\u0635\u0631\u0627\u0641 \u0622\u0644\u064a - \u0627\u0644\u0645\u0635\u0631\u0641 \u0627\u0644\u0639\u0631\u0627\u0642\u064a \u0644\u0644\u062a\u062c\u0627\u0631\u0629", "name:en": "TBI ATM", "operator": "Trade Bank of Iraq", "website": "https://tbi.com.iq/"}}, {"type": "node", "id": 9384316659, "lat": 33.3279557, "lon": 44.3919146, "tags": {"addr:full": "ATM - Baghdad - IQ MEDIA NETWORK", "amenity": "atm", "atm": "yes", "cash_out": "yes", "currency:IQD": "yes", "language:ar": "yes", "language:en": "yes", "name": "\u0635\u0631\u0627\u0641 \u0622\u0644\u064a - \u0627\u0644\u0645\u0635\u0631\u0641 \u0627\u0644\u0639\u0631\u0627\u0642\u064a \u0644\u0644\u062a\u062c\u0627\u0631\u0629", "name:en": "TBI ATM", "operator": "Trade Bank of Iraq", "website": "https://tbi.com.iq/"}}, {"type": "node", "id": 9384316660, "lat": 33.4369449, "lon": 44.2650372, "tags": {"addr:full": "ATM - Baghdad - Gas Filling Co.", "amenity": "atm", "atm": "yes", "cash_out": "yes", "currency:IQD": "yes", "language:ar": "yes", "language:en": "yes", "name": "\u0635\u0631\u0627\u0641 \u0622\u0644\u064a - \u0627\u0644\u0645\u0635\u0631\u0641 \u0627\u0644\u0639\u0631\u0627\u0642\u064a \u0644\u0644\u062a\u062c\u0627\u0631\u0629", "name:en": "TBI ATM", "operator": "Trade Bank of Iraq", "website": "https://tbi.com.iq/"}}, {"type": "node", "id": 9384316661, "lat": 33.4277051, "lon": 44.3474337, "tags": {"addr:full": "ATM - Baghdad - S.A ALQANAT 2", "amenity": "atm", "atm": "yes", "cash_out": "yes", "currency:IQD": "yes", "language:ar": "yes", "language:en": "yes", "name": "\u0635\u0631\u0627\u0641 \u0622\u0644\u064a - \u0627\u0644\u0645\u0635\u0631\u0641 \u0627\u0644\u0639\u0631\u0627\u0642\u064a \u0644\u0644\u062a\u062c\u0627\u0631\u0629", "name:en": "TBI ATM", "operator": "Trade Bank of Iraq", "website": "https://tbi.com.iq/"}}, {"type": "node", "id": 9384316663, "lat": 33.4276827, "lon": 44.3474283, "tags": {"addr:full": "ATM - Baghdad - S.A ALQANAT", "amenity": "atm", "atm": "yes", "cash_out": "yes", "currency:IQD": "yes", "language:ar": "yes", "language:en": "yes", "name": "\u0635\u0631\u0627\u0641 \u0622\u0644\u064a - \u0627\u0644\u0645\u0635\u0631\u0641 \u0627\u0644\u0639\u0631\u0627\u0642\u064a \u0644\u0644\u062a\u062c\u0627\u0631\u0629", "name:en": "TBI ATM", "operator": "Trade Bank of Iraq", "website": "https://tbi.com.iq/"}}, {"type": "node", "id": 9384316665, "lat": 33.3646671, "lon": 44.359615, "tags": {"addr:full": "ATM - Baghdad -Security Advisory Adhamia", "amenity": "atm", "atm": "yes", "cash_out": "yes", "currency:IQD": "yes", "language:ar": "yes", "language:en": "yes", "name": "\u0635\u0631\u0627\u0641 \u0622\u0644\u064a - \u0627\u0644\u0645\u0635\u0631\u0641 \u0627\u0644\u0639\u0631\u0627\u0642\u064a \u0644\u0644\u062a\u062c\u0627\u0631\u0629", "name:en": "TBI ATM", "operator": "Trade Bank of Iraq", "website": "https://tbi.com.iq/"}}, {"type": "node", "id": 9384316666, "lat": 33.3306812, "lon": 44.3853512, "tags": {"addr:full": "ATM - Baghdad - Council", "amenity": "atm", "atm": "yes", "cash_out": "yes", "currency:IQD": "yes", "language:ar": "yes", "language:en": "yes", "name": "\u0635\u0631\u0627\u0641 \u0622\u0644\u064a - \u0627\u0644\u0645\u0635\u0631\u0641 \u0627\u0644\u0639\u0631\u0627\u0642\u064a \u0644\u0644\u062a\u062c\u0627\u0631\u0629", "name:en": "TBI ATM", "operator": "Trade Bank of Iraq", "website": "https://tbi.com.iq/"}}, {"type": "node", "id": 9384316670, "lat": 33.3202031, "lon": 44.4277955, "tags": {"addr:full": "ATM - BAGHDAD - GEOLOGICAL SERVEY", "amenity": "atm", "atm": "yes", "cash_out": "yes", "currency:IQD": "yes", "language:ar": "yes", "language:en": "yes", "name": "\u0635\u0631\u0627\u0641 \u0622\u0644\u064a - \u0627\u0644\u0645\u0635\u0631\u0641 \u0627\u0644\u0639\u0631\u0627\u0642\u064a \u0644\u0644\u062a\u062c\u0627\u0631\u0629", "name:en": "TBI ATM", "operator": "Trade Bank of Iraq", "website": "https://tbi.com.iq/"}}, {"type": "node", "id": 9384316672, "lat": 33.3136453, "lon": 44.3911206, "tags": {"addr:full": "ATM - Baghdad - IRAQI PARLIMANT", "amenity": "atm", "atm": "yes", "cash_out": "yes", "currency:IQD": "yes", "language:ar": "yes", "language:en": "yes", "name": "\u0635\u0631\u0627\u0641 \u0622\u0644\u064a - \u0627\u0644\u0645\u0635\u0631\u0641 \u0627\u0644\u0639\u0631\u0627\u0642\u064a \u0644\u0644\u062a\u062c\u0627\u0631\u0629", "name:en": "TBI ATM", "operator": "Trade Bank of Iraq", "website": "https://tbi.com.iq/"}}, {"type": "node", "id": 9384316678, "lat": 33.3854235, "lon": 44.3738, "tags": {"addr:full": "ATM - BAGHDAD - SECURITY ADVISORY ADHAMIA", "amenity": "atm", "atm": "yes", "cash_out": "yes", "currency:IQD": "yes", "language:ar": "yes", "language:en": "yes", "name": "\u0635\u0631\u0627\u0641 \u0622\u0644\u064a - \u0627\u0644\u0645\u0635\u0631\u0641 \u0627\u0644\u0639\u0631\u0627\u0642\u064a \u0644\u0644\u062a\u062c\u0627\u0631\u0629", "name:en": "TBI ATM", "operator": "Trade Bank of Iraq", "website": "https://tbi.com.iq/"}}, {"type": "node", "id": 9384316686, "lat": 33.4264764, "lon": 44.3249125, "tags": {"addr:full": "ATM - Baghdad -\u00a0FAW COMPANY", "amenity": "atm", "atm": "yes", "cash_out": "yes", "currency:IQD": "yes", "language:ar": "yes", "language:en": "yes", "name": "\u0635\u0631\u0627\u0641 \u0622\u0644\u064a - \u0627\u0644\u0645\u0635\u0631\u0641 \u0627\u0644\u0639\u0631\u0627\u0642\u064a \u0644\u0644\u062a\u062c\u0627\u0631\u0629", "name:en": "TBI ATM", "operator": "Trade Bank of Iraq", "website": "https://tbi.com.iq/"}}, {"type": "node", "id": 9384316697, "lat": 33.3490075, "lon": 44.3816417, "tags": {"addr:full": "ATM - BAGHDAD - KIMADIA", "amenity": "atm", "atm": "yes", "cash_out": "yes", "currency:IQD": "yes", "language:ar": "yes", "language:en": "yes", "name": "\u0635\u0631\u0627\u0641 \u0622\u0644\u064a - \u0627\u0644\u0645\u0635\u0631\u0641 \u0627\u0644\u0639\u0631\u0627\u0642\u064a \u0644\u0644\u062a\u062c\u0627\u0631\u0629", "name:en": "TBI ATM", "operator": "Trade Bank of Iraq", "website": "https://tbi.com.iq/"}}, {"type": "node", "id": 9384316698, "lat": 33.3287635, "lon": 44.4170183, "tags": {"addr:full": "ATM - Baghdad - Ministry of Industry & Minerals 2", "amenity": "atm", "atm": "yes", "cash_out": "yes", "currency:IQD": "yes", "language:ar": "yes", "language:en": "yes", "name": "\u0635\u0631\u0627\u0641 \u0622\u0644\u064a - \u0627\u0644\u0645\u0635\u0631\u0641 \u0627\u0644\u0639\u0631\u0627\u0642\u064a \u0644\u0644\u062a\u062c\u0627\u0631\u0629", "name:en": "TBI ATM", "operator": "Trade Bank of Iraq", "website": "https://tbi.com.iq/"}}, {"type": "node", "id": 9384316702, "lat": 33.3146564, "lon": 44.4023181, "tags": {"addr:full": "ATM - BAGHDAD - ZAQURA PALACE", "amenity": "atm", "atm": "yes", "cash_out": "yes", "currency:IQD": "yes", "language:ar": "yes", "language:en": "yes", "name": "\u0635\u0631\u0627\u0641 \u0622\u0644\u064a - \u0627\u0644\u0645\u0635\u0631\u0641 \u0627\u0644\u0639\u0631\u0627\u0642\u064a \u0644\u0644\u062a\u062c\u0627\u0631\u0629", "name:en": "TBI ATM", "operator": "Trade Bank of Iraq", "website": "https://tbi.com.iq/"}}, {"type": "node", "id": 9384316703, "lat": 33.3208458, "lon": 44.3845842, "tags": {"addr:full": "ATM - Baghdad - COUNCIL OF STATE2", "amenity": "atm", "atm": "yes", "cash_out": "yes", "currency:IQD": "yes", "language:ar": "yes", "language:en": "yes", "name": "\u0635\u0631\u0627\u0641 \u0622\u0644\u064a - \u0627\u0644\u0645\u0635\u0631\u0641 \u0627\u0644\u0639\u0631\u0627\u0642\u064a \u0644\u0644\u062a\u062c\u0627\u0631\u0629", "name:en": "TBI ATM", "operator": "Trade Bank of Iraq", "website": "https://tbi.com.iq/"}}, {"type": "node", "id": 9384316705, "lat": 33.3211811, "lon": 44.4271772, "tags": {"addr:full": "ATM - Baghdad - Commission of Integrity - Karrada", "amenity": "atm", "atm": "yes", "cash_out": "yes", "currency:IQD": "yes", "language:ar": "yes", "language:en": "yes", "name": "\u0635\u0631\u0627\u0641 \u0622\u0644\u064a - \u0627\u0644\u0645\u0635\u0631\u0641 \u0627\u0644\u0639\u0631\u0627\u0642\u064a \u0644\u0644\u062a\u062c\u0627\u0631\u0629", "name:en": "TBI ATM", "operator": "Trade Bank of Iraq", "website": "https://tbi.com.iq/"}}, {"type": "node", "id": 9384316707, "lat": 33.3070733, "lon": 44.400805, "tags": {"addr:full": "ATM - Baghdad - Commission of Integrity 2", "amenity": "atm", "atm": "yes", "cash_out": "yes", "currency:IQD": "yes", "language:ar": "yes", "language:en": "yes", "name": "\u0635\u0631\u0627\u0641 \u0622\u0644\u064a - \u0627\u0644\u0645\u0635\u0631\u0641 \u0627\u0644\u0639\u0631\u0627\u0642\u064a \u0644\u0644\u062a\u062c\u0627\u0631\u0629", "name:en": "TBI ATM", "operator": "Trade Bank of Iraq", "website": "https://tbi.com.iq/"}}, {"type": "node", "id": 9384316713, "lat": 33.3427672, "lon": 44.4173878, "tags": {"addr:full": "ATM - Baghdad -\u00a0TBI / AL-Rasheed Com", "amenity": "atm", "atm": "yes", "cash_out": "yes", "currency:IQD": "yes", "language:ar": "yes", "language:en": "yes", "name": "\u0635\u0631\u0627\u0641 \u0622\u0644\u064a - \u0627\u0644\u0645\u0635\u0631\u0641 \u0627\u0644\u0639\u0631\u0627\u0642\u064a \u0644\u0644\u062a\u062c\u0627\u0631\u0629", "name:en": "TBI ATM", "operator": "Trade Bank of Iraq", "website": "https://tbi.com.iq/"}}, {"type": "node", "id": 9384316714, "lat": 33.347608, "lon": 44.4438238, "tags": {"addr:full": "ATM - Baghdad - Ministry of Transport", "amenity": "atm", "atm": "yes", "cash_out": "yes", "currency:IQD": "yes", "language:ar": "yes", "language:en": "yes", "name": "\u0635\u0631\u0627\u0641 \u0622\u0644\u064a - \u0627\u0644\u0645\u0635\u0631\u0641 \u0627\u0644\u0639\u0631\u0627\u0642\u064a \u0644\u0644\u062a\u062c\u0627\u0631\u0629", "name:en": "TBI ATM", "operator": "Trade Bank of Iraq", "website": "https://tbi.com.iq/"}}, {"type": "node", "id": 9384316715, "lat": 33.347459, "lon": 44.3813371, "tags": {"addr:full": "ATM - Baghdad - Ministry of Health2", "amenity": "atm", "atm": "yes", "cash_out": "yes", "currency:IQD": "yes", "language:ar": "yes", "language:en": "yes", "name": "\u0635\u0631\u0627\u0641 \u0622\u0644\u064a - \u0627\u0644\u0645\u0635\u0631\u0641 \u0627\u0644\u0639\u0631\u0627\u0642\u064a \u0644\u0644\u062a\u062c\u0627\u0631\u0629", "name:en": "TBI ATM", "operator": "Trade Bank of Iraq", "website": "https://tbi.com.iq/"}}, {"type": "node", "id": 9384316716, "lat": 33.3475172, "lon": 44.3814712, "tags": {"addr:full": "ATM - Baghdad - Ministry of Health1", "amenity": "atm", "atm": "yes", "cash_out": "yes", "currency:IQD": "yes", "language:ar": "yes", "language:en": "yes", "name": "\u0635\u0631\u0627\u0641 \u0622\u0644\u064a - \u0627\u0644\u0645\u0635\u0631\u0641 \u0627\u0644\u0639\u0631\u0627\u0642\u064a \u0644\u0644\u062a\u062c\u0627\u0631\u0629", "name:en": "TBI ATM", "operator": "Trade Bank of Iraq", "website": "https://tbi.com.iq/"}}, {"type": "node", "id": 9384316717, "lat": 33.31157, "lon": 44.3918379, "tags": {"addr:full": "ATM - BAGHDAD -\u00a0National Security Advisory 4", "amenity": "atm", "atm": "yes", "cash_out": "yes", "currency:IQD": "yes", "language:ar": "yes", "language:en": "yes", "name": "\u0635\u0631\u0627\u0641 \u0622\u0644\u064a - \u0627\u0644\u0645\u0635\u0631\u0641 \u0627\u0644\u0639\u0631\u0627\u0642\u064a \u0644\u0644\u062a\u062c\u0627\u0631\u0629", "name:en": "TBI ATM", "operator": "Trade Bank of Iraq", "website": "https://tbi.com.iq/"}}, {"type": "node", "id": 9384316718, "lat": 33.3115403, "lon": 44.3919111, "tags": {"addr:full": "ATM - Baghdad -\u00a0National Security Advisory1", "amenity": "atm", "atm": "yes", "cash_out": "yes", "currency:IQD": "yes", "language:ar": "yes", "language:en": "yes", "name": "\u0635\u0631\u0627\u0641 \u0622\u0644\u064a - \u0627\u0644\u0645\u0635\u0631\u0641 \u0627\u0644\u0639\u0631\u0627\u0642\u064a \u0644\u0644\u062a\u062c\u0627\u0631\u0629", "name:en": "TBI ATM", "operator": "Trade Bank of Iraq", "website": "https://tbi.com.iq/"}}, {"type": "node", "id": 9384316719, "lat": 33.3468368, "lon": 44.4412207, "tags": {"addr:full": "ATM - Baghdad - National Center for Human Rights 2", "amenity": "atm", "atm": "yes", "cash_out": "yes", "currency:IQD": "yes", "language:ar": "yes", "language:en": "yes", "name": "\u0635\u0631\u0627\u0641 \u0622\u0644\u064a - \u0627\u0644\u0645\u0635\u0631\u0641 \u0627\u0644\u0639\u0631\u0627\u0642\u064a \u0644\u0644\u062a\u062c\u0627\u0631\u0629", "name:en": "TBI ATM", "operator": "Trade Bank of Iraq", "website": "https://tbi.com.iq/"}}, {"type": "node", "id": 9384316722, "lat": 33.342808, "lon": 44.4173933, "tags": {"addr:full": "ATM - BAGHDAD - ALRASHEED COMPANY", "amenity": "atm", "atm": "yes", "cash_out": "yes", "currency:IQD": "yes", "language:ar": "yes", "language:en": "yes", "name": "\u0635\u0631\u0627\u0641 \u0622\u0644\u064a - \u0627\u0644\u0645\u0635\u0631\u0641 \u0627\u0644\u0639\u0631\u0627\u0642\u064a \u0644\u0644\u062a\u062c\u0627\u0631\u0629", "name:en": "TBI ATM", "operator": "Trade Bank of Iraq", "website": "https://tbi.com.iq/"}}, {"type": "node", "id": 9384316726, "lat": 33.3413301, "lon": 44.433231, "tags": {"addr:full": "ATM - Baghdad - Ministry of Oil2", "amenity": "atm", "atm": "yes", "cash_out": "yes", "currency:IQD": "yes", "language:ar": "yes", "language:en": "yes", "name": "\u0635\u0631\u0627\u0641 \u0622\u0644\u064a - \u0627\u0644\u0645\u0635\u0631\u0641 \u0627\u0644\u0639\u0631\u0627\u0642\u064a \u0644\u0644\u062a\u062c\u0627\u0631\u0629", "name:en": "TBI ATM", "operator": "Trade Bank of Iraq", "website": "https://tbi.com.iq/"}}, {"type": "node", "id": 9384316727, "lat": 33.3411545, "lon": 44.4333243, "tags": {"addr:full": "ATM - Baghdad - Ministry of Oil", "amenity": "atm", "atm": "yes", "cash_out": "yes", "currency:IQD": "yes", "language:ar": "yes", "language:en": "yes", "name": "\u0635\u0631\u0627\u0641 \u0622\u0644\u064a - \u0627\u0644\u0645\u0635\u0631\u0641 \u0627\u0644\u0639\u0631\u0627\u0642\u064a \u0644\u0644\u062a\u062c\u0627\u0631\u0629", "name:en": "TBI ATM", "operator": "Trade Bank of Iraq", "website": "https://tbi.com.iq/"}}, {"type": "node", "id": 9384316728, "lat": 33.3380847, "lon": 44.4239044, "tags": {"addr:full": "ATM - Baghdad - Housing Funds", "amenity": "atm", "atm": "yes", "cash_out": "yes", "currency:IQD": "yes", "language:ar": "yes", "language:en": "yes", "name": "\u0635\u0631\u0627\u0641 \u0622\u0644\u064a - \u0627\u0644\u0645\u0635\u0631\u0641 \u0627\u0644\u0639\u0631\u0627\u0642\u064a \u0644\u0644\u062a\u062c\u0627\u0631\u0629", "name:en": "TBI ATM", "operator": "Trade Bank of Iraq", "website": "https://tbi.com.iq/"}}, {"type": "node", "id": 9384316737, "lat": 33.3732429, "lon": 44.3981847, "tags": {"addr:full": "ATM - Baghdad - Ministry of Labour and Social Affairs", "amenity": "atm", "atm": "yes", "cash_out": "yes", "currency:IQD": "yes", "language:ar": "yes", "language:en": "yes", "name": "\u0635\u0631\u0627\u0641 \u0622\u0644\u064a - \u0627\u0644\u0645\u0635\u0631\u0641 \u0627\u0644\u0639\u0631\u0627\u0642\u064a \u0644\u0644\u062a\u062c\u0627\u0631\u0629", "name:en": "TBI ATM", "operator": "Trade Bank of Iraq", "website": "https://tbi.com.iq/"}}, {"type": "node", "id": 9384316739, "lat": 33.339958, "lon": 44.3397045, "tags": {"addr:full": "ATM - Baghdad - General Directorate AlKarkh Electricity Distribution - Ministry of Electricity", "amenity": "atm", "atm": "yes", "cash_out": "yes", "currency:IQD": "yes", "language:ar": "yes", "language:en": "yes", "name": "\u0635\u0631\u0627\u0641 \u0622\u0644\u064a - \u0627\u0644\u0645\u0635\u0631\u0641 \u0627\u0644\u0639\u0631\u0627\u0642\u064a \u0644\u0644\u062a\u062c\u0627\u0631\u0629", "name:en": "TBI ATM", "operator": "Trade Bank of Iraq", "website": "https://tbi.com.iq/"}}, {"type": "node", "id": 9384316740, "lat": 33.3261962, "lon": 44.3851465, "tags": {"addr:full": "ATM - Baghdad -\u00a0National Center for Engineering Consultancy - MOCH", "amenity": "atm", "atm": "yes", "cash_out": "yes", "currency:IQD": "yes", "language:ar": "yes", "language:en": "yes", "name": "\u0635\u0631\u0627\u0641 \u0622\u0644\u064a - \u0627\u0644\u0645\u0635\u0631\u0641 \u0627\u0644\u0639\u0631\u0627\u0642\u064a \u0644\u0644\u062a\u062c\u0627\u0631\u0629", "name:en": "TBI ATM", "operator": "Trade Bank of Iraq", "website": "https://tbi.com.iq/"}}, {"type": "node", "id": 9384316741, "lat": 33.3709482, "lon": 44.4001917, "tags": {"addr:full": "ATM - BAGHDAD -\u00a0Directorate-General for the transfer of electric energy projects", "amenity": "atm", "atm": "yes", "cash_out": "yes", "currency:IQD": "yes", "language:ar": "yes", "language:en": "yes", "name": "\u0635\u0631\u0627\u0641 \u0622\u0644\u064a - \u0627\u0644\u0645\u0635\u0631\u0641 \u0627\u0644\u0639\u0631\u0627\u0642\u064a \u0644\u0644\u062a\u062c\u0627\u0631\u0629", "name:en": "TBI ATM", "operator": "Trade Bank of Iraq", "website": "https://tbi.com.iq/"}}, {"type": "node", "id": 9384316742, "lat": 33.3098501, "lon": 44.431141, "tags": {"addr:full": "ATM - Baghdad - Mesopotamia State Company for Seeds", "amenity": "atm", "atm": "yes", "cash_out": "yes", "currency:IQD": "yes", "language:ar": "yes", "language:en": "yes", "name": "\u0635\u0631\u0627\u0641 \u0622\u0644\u064a - \u0627\u0644\u0645\u0635\u0631\u0641 \u0627\u0644\u0639\u0631\u0627\u0642\u064a \u0644\u0644\u062a\u062c\u0627\u0631\u0629", "name:en": "TBI ATM", "operator": "Trade Bank of Iraq", "website": "https://tbi.com.iq/"}}, {"type": "node", "id": 9384316743, "lat": 33.3203803, "lon": 44.3688548, "tags": {"addr:full": "ATM - Baghdad - Ministry of Electricity 1", "amenity": "atm", "atm": "yes", "cash_out": "yes", "currency:IQD": "yes", "language:ar": "yes", "language:en": "yes", "name": "\u0635\u0631\u0627\u0641 \u0622\u0644\u064a - \u0627\u0644\u0645\u0635\u0631\u0641 \u0627\u0644\u0639\u0631\u0627\u0642\u064a \u0644\u0644\u062a\u062c\u0627\u0631\u0629", "name:en": "TBI ATM", "operator": "Trade Bank of Iraq", "website": "https://tbi.com.iq/"}}, {"type": "node", "id": 9384316744, "lat": 33.3203063, "lon": 44.3688038, "tags": {"addr:full": "ATM - Baghdad - Ministry of Electricity 2", "amenity": "atm", "atm": "yes", "cash_out": "yes", "currency:IQD": "yes", "language:ar": "yes", "language:en": "yes", "name": "\u0635\u0631\u0627\u0641 \u0622\u0644\u064a - \u0627\u0644\u0645\u0635\u0631\u0641 \u0627\u0644\u0639\u0631\u0627\u0642\u064a \u0644\u0644\u062a\u062c\u0627\u0631\u0629", "name:en": "TBI ATM", "operator": "Trade Bank of Iraq", "website": "https://tbi.com.iq/"}}, {"type": "node", "id": 9384316745, "lat": 33.3683777, "lon": 44.3849722, "tags": {"addr:full": "ATM - Baghdad - AL-Ghazal Supermarket", "amenity": "atm", "atm": "yes", "cash_out": "yes", "currency:IQD": "yes", "language:ar": "yes", "language:en": "yes", "name": "\u0635\u0631\u0627\u0641 \u0622\u0644\u064a - \u0627\u0644\u0645\u0635\u0631\u0641 \u0627\u0644\u0639\u0631\u0627\u0642\u064a \u0644\u0644\u062a\u062c\u0627\u0631\u0629", "name:en": "TBI ATM", "operator": "Trade Bank of Iraq", "website": "https://tbi.com.iq/"}}, {"type": "node", "id": 9384316746, "lat": 33.3314179, "lon": 44.4062582, "tags": {"addr:full": "ATM - Baghdad - General Commission for Taxes1", "amenity": "atm", "atm": "yes", "cash_out": "yes", "currency:IQD": "yes", "language:ar": "yes", "language:en": "yes", "name": "\u0635\u0631\u0627\u0641 \u0622\u0644\u064a - \u0627\u0644\u0645\u0635\u0631\u0641 \u0627\u0644\u0639\u0631\u0627\u0642\u064a \u0644\u0644\u062a\u062c\u0627\u0631\u0629", "name:en": "TBI ATM", "operator": "Trade Bank of Iraq", "website": "https://tbi.com.iq/"}}, {"type": "node", "id": 9384316747, "lat": 33.3313552, "lon": 44.4064674, "tags": {"addr:full": "ATM - Baghdad - General Commission for Taxes2", "amenity": "atm", "atm": "yes", "cash_out": "yes", "currency:IQD": "yes", "language:ar": "yes", "language:en": "yes", "name": "\u0635\u0631\u0627\u0641 \u0622\u0644\u064a - \u0627\u0644\u0645\u0635\u0631\u0641 \u0627\u0644\u0639\u0631\u0627\u0642\u064a \u0644\u0644\u062a\u062c\u0627\u0631\u0629", "name:en": "TBI ATM", "operator": "Trade Bank of Iraq", "website": "https://tbi.com.iq/"}}, {"type": "node", "id": 9384316748, "lat": 33.312049, "lon": 44.3914363, "tags": {"addr:full": "ATM - Baghdad - General Secretariat of the Council of Ministers 5", "amenity": "atm", "atm": "yes", "cash_out": "yes", "currency:IQD": "yes", "language:ar": "yes", "language:en": "yes", "name": "\u0635\u0631\u0627\u0641 \u0622\u0644\u064a - \u0627\u0644\u0645\u0635\u0631\u0641 \u0627\u0644\u0639\u0631\u0627\u0642\u064a \u0644\u0644\u062a\u062c\u0627\u0631\u0629", "name:en": "TBI ATM", "operator": "Trade Bank of Iraq", "website": "https://tbi.com.iq/"}}, {"type": "node", "id": 9384316749, "lat": 33.3121073, "lon": 44.3914631, "tags": {"addr:full": "ATM - Baghdad - General Secretariat of the Council of Ministers 3", "amenity": "atm", "atm": "yes", "cash_out": "yes", "currency:IQD": "yes", "language:ar": "yes", "language:en": "yes", "name": "\u0635\u0631\u0627\u0641 \u0622\u0644\u064a - \u0627\u0644\u0645\u0635\u0631\u0641 \u0627\u0644\u0639\u0631\u0627\u0642\u064a \u0644\u0644\u062a\u062c\u0627\u0631\u0629", "name:en": "TBI ATM", "operator": "Trade Bank of Iraq", "website": "https://tbi.com.iq/"}}, {"type": "node", "id": 9384316750, "lat": 33.3120714, "lon": 44.391321, "tags": {"addr:full": "ATM - Baghdad - General Secretariat of the Council of Ministers 2", "amenity": "atm", "atm": "yes", "cash_out": "yes", "currency:IQD": "yes", "language:ar": "yes", "language:en": "yes", "name": "\u0635\u0631\u0627\u0641 \u0622\u0644\u064a - \u0627\u0644\u0645\u0635\u0631\u0641 \u0627\u0644\u0639\u0631\u0627\u0642\u064a \u0644\u0644\u062a\u062c\u0627\u0631\u0629", "name:en": "TBI ATM", "operator": "Trade Bank of Iraq", "website": "https://tbi.com.iq/"}}, {"type": "node", "id": 9384316751, "lat": 33.3120737, "lon": 44.3913826, "tags": {"addr:full": "ATM - Baghdad - General Secretariat of the Council of Ministers 1", "amenity": "atm", "atm": "yes", "cash_out": "yes", "currency:IQD": "yes", "language:ar": "yes", "language:en": "yes", "name": "\u0635\u0631\u0627\u0641 \u0622\u0644\u064a - \u0627\u0644\u0645\u0635\u0631\u0641 \u0627\u0644\u0639\u0631\u0627\u0642\u064a \u0644\u0644\u062a\u062c\u0627\u0631\u0629", "name:en": "TBI ATM", "operator": "Trade Bank of Iraq", "website": "https://tbi.com.iq/"}}, {"type": "node", "id": 9384316753, "lat": 33.3234052, "lon": 44.387976, "tags": {"addr:full": "ATM - Baghdad- Federal Board of Supreme Audit 2", "amenity": "atm", "atm": "yes", "cash_out": "yes", "currency:IQD": "yes", "language:ar": "yes", "language:en": "yes", "name": "\u0635\u0631\u0627\u0641 \u0622\u0644\u064a - \u0627\u0644\u0645\u0635\u0631\u0641 \u0627\u0644\u0639\u0631\u0627\u0642\u064a \u0644\u0644\u062a\u062c\u0627\u0631\u0629", "name:en": "TBI ATM", "operator": "Trade Bank of Iraq", "website": "https://tbi.com.iq/"}}, {"type": "node", "id": 9384316755, "lat": 33.3126542, "lon": 44.3917555, "tags": {"addr:full": "ATM - Baghdad - Prime Minister Advisor Commission", "amenity": "atm", "atm": "yes", "cash_out": "yes", "currency:IQD": "yes", "language:ar": "yes", "language:en": "yes", "name": "\u0635\u0631\u0627\u0641 \u0622\u0644\u064a - \u0627\u0644\u0645\u0635\u0631\u0641 \u0627\u0644\u0639\u0631\u0627\u0642\u064a \u0644\u0644\u062a\u062c\u0627\u0631\u0629", "name:en": "TBI ATM", "operator": "Trade Bank of Iraq", "website": "https://tbi.com.iq/"}}, {"type": "node", "id": 9384316757, "lat": 33.3126498, "lon": 44.3921765, "tags": {"addr:full": "ATM - Baghdad - Prime Minister Office4", "amenity": "atm", "atm": "yes", "cash_out": "yes", "currency:IQD": "yes", "language:ar": "yes", "language:en": "yes", "name": "\u0635\u0631\u0627\u0641 \u0622\u0644\u064a - \u0627\u0644\u0645\u0635\u0631\u0641 \u0627\u0644\u0639\u0631\u0627\u0642\u064a \u0644\u0644\u062a\u062c\u0627\u0631\u0629", "name:en": "TBI ATM", "operator": "Trade Bank of Iraq", "website": "https://tbi.com.iq/"}}, {"type": "node", "id": 9384316758, "lat": 33.3125086, "lon": 44.3921953, "tags": {"addr:full": "ATM - Baghdad - Prime Minister Office3", "amenity": "atm", "atm": "yes", "cash_out": "yes", "currency:IQD": "yes", "language:ar": "yes", "language:en": "yes", "name": "\u0635\u0631\u0627\u0641 \u0622\u0644\u064a - \u0627\u0644\u0645\u0635\u0631\u0641 \u0627\u0644\u0639\u0631\u0627\u0642\u064a \u0644\u0644\u062a\u062c\u0627\u0631\u0629", "name:en": "TBI ATM", "operator": "Trade Bank of Iraq", "website": "https://tbi.com.iq/"}}, {"type": "node", "id": 9384316759, "lat": 33.3125556, "lon": 44.3920961, "tags": {"addr:full": "ATM - Baghdad - Prime Minister Office2", "amenity": "atm", "atm": "yes", "cash_out": "yes", "currency:IQD": "yes", "language:ar": "yes", "language:en": "yes", "name": "\u0635\u0631\u0627\u0641 \u0622\u0644\u064a - \u0627\u0644\u0645\u0635\u0631\u0641 \u0627\u0644\u0639\u0631\u0627\u0642\u064a \u0644\u0644\u062a\u062c\u0627\u0631\u0629", "name:en": "TBI ATM", "operator": "Trade Bank of Iraq", "website": "https://tbi.com.iq/"}}, {"type": "node", "id": 9384316760, "lat": 33.3050329, "lon": 44.3342234, "tags": {"addr:full": "ATM - Baghdad - Terminal G4", "amenity": "atm", "atm": "yes", "cash_out": "yes", "currency:IQD": "yes", "language:ar": "yes", "language:en": "yes", "name": "\u0635\u0631\u0627\u0641 \u0622\u0644\u064a - \u0627\u0644\u0645\u0635\u0631\u0641 \u0627\u0644\u0639\u0631\u0627\u0642\u064a \u0644\u0644\u062a\u062c\u0627\u0631\u0629", "name:en": "TBI ATM", "operator": "Trade Bank of Iraq", "website": "https://tbi.com.iq/"}}, {"type": "node", "id": 9384316761, "lat": 33.3113161, "lon": 44.3931985, "tags": {"addr:full": "ATM - Baghdad -\u00a0The Independent High Electoral Commission1", "amenity": "atm", "atm": "yes", "cash_out": "yes", "currency:IQD": "yes", "language:ar": "yes", "language:en": "yes", "name": "\u0635\u0631\u0627\u0641 \u0622\u0644\u064a - \u0627\u0644\u0645\u0635\u0631\u0641 \u0627\u0644\u0639\u0631\u0627\u0642\u064a \u0644\u0644\u062a\u062c\u0627\u0631\u0629", "name:en": "TBI ATM", "operator": "Trade Bank of Iraq", "website": "https://tbi.com.iq/"}}, {"type": "node", "id": 9384316762, "lat": 33.3374684, "lon": 44.3935311, "tags": {"addr:full": "ATM - Baghdad - Central Bank of Iraq", "amenity": "atm", "atm": "yes", "cash_out": "yes", "currency:IQD": "yes", "language:ar": "yes", "language:en": "yes", "name": "\u0635\u0631\u0627\u0641 \u0622\u0644\u064a - \u0627\u0644\u0645\u0635\u0631\u0641 \u0627\u0644\u0639\u0631\u0627\u0642\u064a \u0644\u0644\u062a\u062c\u0627\u0631\u0629", "name:en": "TBI ATM", "operator": "Trade Bank of Iraq", "website": "https://tbi.com.iq/"}}, {"type": "node", "id": 9384316763, "lat": 33.3398762, "lon": 44.4536504, "tags": {"addr:full": "ATM - Baghdad - SOMO Oil Marketing Company 2", "amenity": "atm", "atm": "yes", "cash_out": "yes", "currency:IQD": "yes", "language:ar": "yes", "language:en": "yes", "name": "\u0635\u0631\u0627\u0641 \u0622\u0644\u064a - \u0627\u0644\u0645\u0635\u0631\u0641 \u0627\u0644\u0639\u0631\u0627\u0642\u064a \u0644\u0644\u062a\u062c\u0627\u0631\u0629", "name:en": "TBI ATM", "operator": "Trade Bank of Iraq", "website": "https://tbi.com.iq/"}}, {"type": "node", "id": 9384316764, "lat": 33.3399468, "lon": 44.453693, "tags": {"addr:full": "ATM - Baghdad - SOMO Oil Marketing Company", "amenity": "atm", "atm": "yes", "cash_out": "yes", "currency:IQD": "yes", "language:ar": "yes", "language:en": "yes", "name": "\u0635\u0631\u0627\u0641 \u0622\u0644\u064a - \u0627\u0644\u0645\u0635\u0631\u0641 \u0627\u0644\u0639\u0631\u0627\u0642\u064a \u0644\u0644\u062a\u062c\u0627\u0631\u0629", "name:en": "TBI ATM", "operator": "Trade Bank of Iraq", "website": "https://tbi.com.iq/"}}, {"type": "node", "id": 9384316765, "lat": 33.3083729, "lon": 44.4397616, "tags": {"addr:full": "ATM - Baghdad - TERMINAL G2", "amenity": "atm", "atm": "yes", "cash_out": "yes", "currency:IQD": "yes", "language:ar": "yes", "language:en": "yes", "name": "\u0635\u0631\u0627\u0641 \u0622\u0644\u064a - \u0627\u0644\u0645\u0635\u0631\u0641 \u0627\u0644\u0639\u0631\u0627\u0642\u064a \u0644\u0644\u062a\u062c\u0627\u0631\u0629", "name:en": "TBI ATM", "operator": "Trade Bank of Iraq", "website": "https://tbi.com.iq/"}}, {"type": "node", "id": 9384316766, "lat": 33.3265481, "lon": 44.3849856, "tags": {"addr:full": "ATM - Baghdad - Al-Mansour State Company For Constructional Contracts", "amenity": "atm", "atm": "yes", "cash_out": "yes", "currency:IQD": "yes", "language:ar": "yes", "language:en": "yes", "name": "\u0635\u0631\u0627\u0641 \u0622\u0644\u064a - \u0627\u0644\u0645\u0635\u0631\u0641 \u0627\u0644\u0639\u0631\u0627\u0642\u064a \u0644\u0644\u062a\u062c\u0627\u0631\u0629", "name:en": "TBI ATM", "operator": "Trade Bank of Iraq", "website": "https://tbi.com.iq/"}}, {"type": "node", "id": 9384316767, "lat": 33.292431, "lon": 44.439311, "tags": {"addr:full": "ATM - Baghdad - Communication & Media Commission 1", "amenity": "atm", "atm": "yes", "cash_out": "yes", "currency:IQD": "yes", "language:ar": "yes", "language:en": "yes", "name": "\u0635\u0631\u0627\u0641 \u0622\u0644\u064a - \u0627\u0644\u0645\u0635\u0631\u0641 \u0627\u0644\u0639\u0631\u0627\u0642\u064a \u0644\u0644\u062a\u062c\u0627\u0631\u0629", "name:en": "TBI ATM", "operator": "Trade Bank of Iraq", "website": "https://tbi.com.iq/"}}, {"type": "node", "id": 9384316768, "lat": 33.292429, "lon": 44.439434, "tags": {"addr:full": "ATM - Baghdad - Communication & Media Commission 2", "amenity": "atm", "atm": "yes", "cash_out": "yes", "currency:IQD": "yes", "language:ar": "yes", "language:en": "yes", "name": "\u0635\u0631\u0627\u0641 \u0622\u0644\u064a - \u0627\u0644\u0645\u0635\u0631\u0641 \u0627\u0644\u0639\u0631\u0627\u0642\u064a \u0644\u0644\u062a\u062c\u0627\u0631\u0629", "name:en": "TBI ATM", "operator": "Trade Bank of Iraq", "website": "https://tbi.com.iq/"}}, {"type": "node", "id": 9384316769, "lat": 33.304609, "lon": 44.3341405, "tags": {"addr:full": "ATM - Baghdad - Iraqi Securities Commission", "amenity": "atm", "atm": "yes", "cash_out": "yes", "currency:IQD": "yes", "language:ar": "yes", "language:en": "yes", "name": "\u0635\u0631\u0627\u0641 \u0622\u0644\u064a - \u0627\u0644\u0645\u0635\u0631\u0641 \u0627\u0644\u0639\u0631\u0627\u0642\u064a \u0644\u0644\u062a\u062c\u0627\u0631\u0629", "name:en": "TBI ATM", "operator": "Trade Bank of Iraq", "website": "https://tbi.com.iq/"}}, {"type": "node", "id": 9384316771, "lat": 33.312231, "lon": 44.405891, "tags": {"addr:full": "ATM - Baghdad - National Investment Commission1", "amenity": "atm", "atm": "yes", "cash_out": "yes", "currency:IQD": "yes", "language:ar": "yes", "language:en": "yes", "name": "\u0635\u0631\u0627\u0641 \u0622\u0644\u064a - \u0627\u0644\u0645\u0635\u0631\u0641 \u0627\u0644\u0639\u0631\u0627\u0642\u064a \u0644\u0644\u062a\u062c\u0627\u0631\u0629", "name:en": "TBI ATM", "operator": "Trade Bank of Iraq", "website": "https://tbi.com.iq/"}}, {"type": "node", "id": 9384316772, "lat": 33.3163728, "lon": 44.3594026, "tags": {"addr:full": "ATM - Baghdad - Iraqi Red Crescent Society1", "amenity": "atm", "atm": "yes", "cash_out": "yes", "currency:IQD": "yes", "language:ar": "yes", "language:en": "yes", "name": "\u0635\u0631\u0627\u0641 \u0622\u0644\u064a - \u0627\u0644\u0645\u0635\u0631\u0641 \u0627\u0644\u0639\u0631\u0627\u0642\u064a \u0644\u0644\u062a\u062c\u0627\u0631\u0629", "name:en": "TBI ATM", "operator": "Trade Bank of Iraq", "website": "https://tbi.com.iq/"}}, {"type": "node", "id": 9384316773, "lat": 33.3413065, "lon": 44.4333709, "tags": {"addr:full": "ATM - Baghdad - Ministry of Oil1", "amenity": "atm", "atm": "yes", "cash_out": "yes", "currency:IQD": "yes", "language:ar": "yes", "language:en": "yes", "name": "\u0635\u0631\u0627\u0641 \u0622\u0644\u064a - \u0627\u0644\u0645\u0635\u0631\u0641 \u0627\u0644\u0639\u0631\u0627\u0642\u064a \u0644\u0644\u062a\u062c\u0627\u0631\u0629", "name:en": "TBI ATM", "operator": "Trade Bank of Iraq", "website": "https://tbi.com.iq/"}}, {"type": "node", "id": 9384316778, "lat": 33.3034656, "lon": 44.353332, "tags": {"addr:full": "ATM - Baghdad - Al Ma'amoon Tower", "amenity": "atm", "atm": "yes", "cash_out": "yes", "currency:IQD": "yes", "language:ar": "yes", "language:en": "yes", "name": "\u0635\u0631\u0627\u0641 \u0622\u0644\u064a - \u0627\u0644\u0645\u0635\u0631\u0641 \u0627\u0644\u0639\u0631\u0627\u0642\u064a \u0644\u0644\u062a\u062c\u0627\u0631\u0629", "name:en": "TBI ATM", "operator": "Trade Bank of Iraq", "website": "https://tbi.com.iq/"}}, {"type": "node", "id": 9384316799, "lat": 33.3441806, "lon": 44.4346547, "tags": {"addr:full": "ATM - Baghdad - Al Nakheel Mall", "amenity": "atm", "atm": "yes", "cash_out": "yes", "currency:IQD": "yes", "language:ar": "yes", "language:en": "yes", "name": "\u0635\u0631\u0627\u0641 \u0622\u0644\u064a - \u0627\u0644\u0645\u0635\u0631\u0641 \u0627\u0644\u0639\u0631\u0627\u0642\u064a \u0644\u0644\u062a\u062c\u0627\u0631\u0629", "name:en": "TBI ATM", "operator": "Trade Bank of Iraq", "website": "https://tbi.com.iq/"}}, {"type": "node", "id": 9384316800, "lat": 33.244738, "lon": 44.2431848, "tags": {"addr:full": "ATM - Baghdad International Airport - Duty Free", "amenity": "atm", "atm": "yes", "cash_out": "yes", "currency:IQD": "yes", "language:ar": "yes", "language:en": "yes", "name": "\u0635\u0631\u0627\u0641 \u0622\u0644\u064a - \u0627\u0644\u0645\u0635\u0631\u0641 \u0627\u0644\u0639\u0631\u0627\u0642\u064a \u0644\u0644\u062a\u062c\u0627\u0631\u0629", "name:en": "TBI ATM", "operator": "Trade Bank of Iraq", "website": "https://tbi.com.iq/"}}, {"type": "node", "id": 9384316802, "lat": 33.2664461, "lon": 44.2291437, "tags": {"addr:full": "ATM - Baghdad International Airport - Arrival 1", "amenity": "atm", "atm": "yes", "cash_out": "yes", "currency:IQD": "yes", "language:ar": "yes", "language:en": "yes", "name": "\u0635\u0631\u0627\u0641 \u0622\u0644\u064a - \u0627\u0644\u0645\u0635\u0631\u0641 \u0627\u0644\u0639\u0631\u0627\u0642\u064a \u0644\u0644\u062a\u062c\u0627\u0631\u0629", "name:en": "TBI ATM", "operator": "Trade Bank of Iraq", "website": "https://tbi.com.iq/"}}, {"type": "node", "id": 9384316803, "lat": 33.3162171, "lon": 44.3893131, "tags": {"addr:full": "ATM - Baghdad - Al Rasheed Hotel", "amenity": "atm", "atm": "yes", "cash_out": "yes", "currency:IQD": "yes", "language:ar": "yes", "language:en": "yes", "name": "\u0635\u0631\u0627\u0641 \u0622\u0644\u064a - \u0627\u0644\u0645\u0635\u0631\u0641 \u0627\u0644\u0639\u0631\u0627\u0642\u064a \u0644\u0644\u062a\u062c\u0627\u0631\u0629", "name:en": "TBI ATM", "operator": "Trade Bank of Iraq", "website": "https://tbi.com.iq/"}}, {"type": "node", "id": 9384316804, "lat": 33.282766, "lon": 44.394008, "tags": {"addr:full": "ATM - Baghdad - Coral Boutique Hotel", "amenity": "atm", "atm": "yes", "cash_out": "yes", "currency:IQD": "yes", "language:ar": "yes", "language:en": "yes", "name": "\u0635\u0631\u0627\u0641 \u0622\u0644\u064a - \u0627\u0644\u0645\u0635\u0631\u0641 \u0627\u0644\u0639\u0631\u0627\u0642\u064a \u0644\u0644\u062a\u062c\u0627\u0631\u0629", "name:en": "TBI ATM", "operator": "Trade Bank of Iraq", "website": "https://tbi.com.iq/"}}, {"type": "node", "id": 9445469720, "lat": 33.4071896, "lon": 44.2985383, "tags": {"amenity": "atm"}}, {"type": "node", "id": 9493151617, "lat": 33.2853067, "lon": 44.4013585, "tags": {"amenity": "atm", "opening_hours": "24/7", "operator": "\u0634\u0631\u0643\u0629 \u0628\u0648\u0627\u0628\u0629 \u0639\u0634\u062a\u0627\u0631 \u0644\u062f\u0641\u0639 \u0627\u0644\u0627\u0643\u062a\u0631\u0648\u0646\u064a"}}, {"type": "node", "id": 9896658617, "lat": 33.3735888, "lon": 44.3669828, "tags": {"amenity": "atm"}}, {"type": "node", "id": 10106012817, "lat": 33.2958866, "lon": 44.4248444, "tags": {"amenity": "atm", "opening_hours": "Su-Th 09:00-02:00; Sa 00:00-24:00"}}, {"type": "node", "id": 10159757920, "lat": 33.299024, "lon": 44.4937264, "tags": {"amenity": "atm", "name": "\u0635 \u0627\u0634\u0631\u0641 \u0639\u0628\u062f \u0627\u0644\u0642\u0627\u062f\u0631"}}, {"type": "node", "id": 10159788717, "lat": 33.3179385, "lon": 44.5139246, "tags": {"amenity": "atm", "name": "\u0635 \u0627\u0644\u0642\u0644\u0639\u0647 \u0627\u0644\u062f\u0648\u0627\u0626\u064a\u0647"}}, {"type": "node", "id": 10284730310, "lat": 33.3811231, "lon": 44.3692803, "tags": {"amenity": "atm"}}, {"type": "node", "id": 10287404109, "lat": 33.3616214, "lon": 44.4249339, "tags": {"amenity": "atm"}}, {"type": "node", "id": 10556930109, "lat": 33.2881612, "lon": 44.4186777, "tags": {"amenity": "atm", "name": "\u0627\u0644\u0645\u0639\u0645\u0648\u0631\u0647", "name:en": "ATM", "office": "company"}}, {"type": "node", "id": 10566665809, "lat": 33.2762957, "lon": 44.3472438, "tags": {"amenity": "atm"}}, {"type": "node", "id": 10587214005, "lat": 33.2516324, "lon": 44.3420694, "tags": {"amenity": "atm"}}, {"type": "node", "id": 10590045505, "lat": 33.4015402, "lon": 44.4308249, "tags": {"amenity": "atm"}}, {"type": "node", "id": 10590045506, "lat": 33.4015092, "lon": 44.430733, "tags": {"amenity": "atm", "opening_hours": "24/7"}}, {"type": "node", "id": 10592299905, "lat": 33.3162119, "lon": 44.3893201, "tags": {"addr:street": "\u0634\u0627\u0631\u0639 14 \u062a\u0645\u0648\u0632", "amenity": "atm", "atm": "yes", "name": "ATM \u0641\u0646\u062f\u0642 \u0627\u0644\u0631\u0634\u064a\u062f"}}, {"type": "node", "id": 10673044913, "lat": 33.2108624, "lon": 44.3858681, "tags": {"amenity": "atm", "operator": "hbh"}}, {"type": "node", "id": 10712319506, "lat": 33.3012903, "lon": 44.3747818, "tags": {"addr:street": "\u0634\u0627\u0631\u0639 \u0627\u0644\u0643\u0646\u062f\u064a", "amenity": "atm"}}, {"type": "node", "id": 10730993606, "lat": 33.2735753, "lon": 44.3210011, "tags": {"amenity": "atm"}}, {"type": "node", "id": 11199925338, "lat": 33.3367263, "lon": 44.2843178, "tags": {"amenity": "atm", "opening_hours": "24/7"}}, {"type": "node", "id": 11199925537, "lat": 33.3370913, "lon": 44.2849509, "tags": {"amenity": "atm", "operator": "\u0645\u062d\u0637\u0629 \u0627\u0644\u062c\u0627\u0645\u0639\u0629"}}, {"type": "node", "id": 11298747550, "lat": 33.3737312, "lon": 44.39116, "tags": {"amenity": "atm"}}, {"type": "node", "id": 11686395379, "lat": 33.3149823, "lon": 44.4278018, "tags": {"amenity": "atm", "opening_hours": "Su-Sa 19:00-06:00"}}, {"type": "node", "id": 11686395380, "lat": 33.3150229, "lon": 44.4283189, "tags": {"amenity": "atm", "opening_hours": "Su-Sa 19:00-06:00"}}]}