{"version": 0.6, "generator": "Overpass API 0.7.61.5 4133829e", "osm3s": {"timestamp_osm_base": "2024-03-05T13:51:03Z", "copyright": "The data included in this document is from www.openstreetmap.org. The data is made available under ODbL."}, "elements": [{"type": "node", "id": 313319448, "lat": 34.9883794, "lon": 63.1337263, "tags": {"alt_name:cs": "Nov\u00e1 Tvrz", "ele": "1320", "is_in:country": "Afghanistan", "is_in:country_code": "AF", "name": "\u0642\u0644\u0639\u0647 \u0646\u0648", "name:ar": "\u0642\u0644\u0639\u0647 \u0646\u0648", "name:cs": "Qale-je nou", "name:de": "Qala-i-Naw", "name:el": "\u039a\u03b1\u03bb\u03ac\u03b9 \u039d\u03ac\u03bf\u03c5", "name:en": "Qala i Naw", "name:es": "Qala-e-naw", "name:et": "Kal\u0101-i Now", "name:fr": "Qala-I-Naw", "name:hi": "\u0915\u093e\u0932\u093e \u090f \u0928\u094c\u0935", "name:ja": "\u30ab\u30e9\u30a8\u30ca\u30a6", "name:ru": "\u041a\u0430\u043b\u0430\u0439\u0438-\u041d\u0430\u0443", "name:uk": "\u041a\u0430\u043b\u0430\u0457 \u041d\u0430\u0443", "name:zh": "\u7459\u5821", "name:zh-Hans": "\u7459\u5821", "name:zh-Hant": "\u7459\u5821", "place": "city", "population": "58900", "wikidata": "Q26396", "wikipedia": "en:Qala i Naw"}}, {"type": "node", "id": 3698642872, "lat": 35.0915764, "lon": 63.0811475}, {"type": "node", "id": 3698642873, "lat": 35.0872132, "lon": 63.0845163}, {"type": "node", "id": 3698642874, "lat": 35.0855276, "lon": 63.0868981}, {"type": "node", "id": 3698642875, "lat": 35.0843512, "lon": 63.0898485}, {"type": "node", "id": 3698642876, "lat": 35.0865021, "lon": 63.0931316}, {"type": "node", "id": 3698642877, "lat": 35.0916817, "lon": 63.0834112}, {"type": "node", "id": 3698642878, "lat": 35.0921645, "lon": 63.0813728}, {"type": "node", "id": 3727202410, "lat": 35.0891435, "lon": 63.0719528}, {"type": "node", "id": 3727202411, "lat": 35.0904603, "lon": 63.0702577}, {"type": "node", "id": 3727202412, "lat": 35.0882047, "lon": 63.0653625}, {"type": "node", "id": 3727202413, "lat": 35.086064, "lon": 63.0621099}, {"type": "node", "id": 3727202414, "lat": 35.0843936, "lon": 63.0661842}, {"type": "node", "id": 3727210967, "lat": 35.1311213, "lon": 63.0626681}, {"type": "node", "id": 3727210968, "lat": 35.1304808, "lon": 63.0637732}, {"type": "node", "id": 3727210969, "lat": 35.1313846, "lon": 63.066037}, {"type": "node", "id": 3727210970, "lat": 35.1304369, "lon": 63.0675498}, {"type": "node", "id": 3727210971, "lat": 35.129033, "lon": 63.0676249}, {"type": "node", "id": 3727210972, "lat": 35.1269709, "lon": 63.0657795}, {"type": "node", "id": 3727210973, "lat": 35.1250317, "lon": 63.0661657}, {"type": "node", "id": 3727210974, "lat": 35.1246192, "lon": 63.0652323}, {"type": "node", "id": 3727210975, "lat": 35.1260934, "lon": 63.0635372}, {"type": "node", "id": 3727210976, "lat": 35.1288751, "lon": 63.0634084}, {"type": "node", "id": 3727216755, "lat": 35.049172, "lon": 63.0454893}, {"type": "node", "id": 3727216756, "lat": 35.0491061, "lon": 63.0462939}, {"type": "node", "id": 3727216757, "lat": 35.0491983, "lon": 63.0464012}, {"type": "node", "id": 3727216758, "lat": 35.0490841, "lon": 63.047061}, {"type": "node", "id": 3727216759, "lat": 35.0474416, "lon": 63.0463422}, {"type": "node", "id": 3727216760, "lat": 35.047569, "lon": 63.0445237}, {"type": "node", "id": 3727216761, "lat": 35.0487416, "lon": 63.0449206}, {"type": "node", "id": 3727216762, "lat": 35.0487679, "lon": 63.0452103}, {"type": "node", "id": 3727221287, "lat": 35.0539838, "lon": 63.044987}, {"type": "node", "id": 3727221288, "lat": 35.0533515, "lon": 63.0489674}, {"type": "node", "id": 3727221289, "lat": 35.0501281, "lon": 63.0487958}, {"type": "node", "id": 3727221290, "lat": 35.0505848, "lon": 63.0467787}, {"type": "node", "id": 3727221291, "lat": 35.0500315, "lon": 63.0455878}, {"type": "node", "id": 3727221292, "lat": 35.0505497, "lon": 63.0446437}, {"type": "node", "id": 3727221293, "lat": 35.0530704, "lon": 63.0444828}, {"type": "node", "id": 4384827563, "lat": 35.087955, "lon": 63.067796, "tags": {"alt_name": "Ab-i-Kamari", "name": "\u0622\u0628 \u06a9\u0645\u0631\u06cc", "name:ar": "\u0622\u0628 \u0643\u0645\u0631\u064a", "name:en": "Ab-e Kamari", "name:ps": "\u0622\u0628 \u06a9\u0645\u0631\u06cc", "place": "town", "source:name": "GNS"}}, {"type": "node", "id": 4384827564, "lat": 35.051449, "lon": 63.296646, "tags": {"alt_name": "Ablah-e Miranza'i;Abla-i- Miranza'i", "name": "\u0627\u0628\u0644\u06c0 \u0645\u06cc\u0631\u0627\u0646 \u0632\u06cc", "name:en": "Ablah-ye Miranzai", "name:ps": "\u0627\u0628\u0644\u06c0 \u0645\u06cc\u0631\u0627\u0646 \u0632\u06cc", "place": "village", "source:name": "GNS"}}, {"type": "node", "id": 4384827565, "lat": 35.08245, "lon": 63.062774, "tags": {"name": "\u0627\u0646\u062c\u06cc\u0631", "name:en": "Anjir", "name:ps": "\u0627\u0646\u062c\u06cc\u0631", "place": "village", "source:name": "GNS"}}, {"type": "node", "id": 4384827566, "lat": 35.087629, "lon": 63.087907, "tags": {"alt_name": "Casma-i-Dozakh;Cheshmeh-ye Duzakh;Casmae Dozakh;Chashmah-ye Duzakh;Chashma-i-Dozakh", "name": "\u0686\u0634\u0645\u06c0 \u062f\u0632\u062e", "name:en": "Chashmah-e Duzak", "name:ps": "\u0686\u0634\u0645\u06c0 \u062f\u0632\u062e", "place": "village", "source:name": "GNS", "wikidata": "Q5093010"}}, {"type": "node", "id": 4384827567, "lat": 35.098632, "lon": 63.22614, "tags": {"alt_name": "Haji Zari Afghan Mohammad Za'i;Haji Zari Afghan Muhammad Za'i", "name": "\u062d\u0627\u062c\u06cc \u0632\u0631\u06cc \u0627\u0641\u063a\u0627\u0646 \u0645\u062d\u0645\u062f \u0632\u0627\u0639\u06cc", "name:en": "Hajji Zari Afghan Mohammad Za'i", "name:ps": "\u062d\u0627\u062c\u06cc \u0632\u0631\u06cc \u0627\u0641\u063a\u0627\u0646 \u0645\u062d\u0645\u062f \u0632\u0627\u0639\u06cc", "place": "village", "source:name": "GNS"}}, {"type": "node", "id": 4384827568, "lat": 35.067211, "lon": 63.111183, "tags": {"alt_name": "Khamab-i-Sini", "name": "\u062e\u0645 \u0622\u0628 \u0633\u0646\u06cc", "name:en": "Kham Ab-e Sini", "name:ps": "\u062e\u0645 \u0622\u0628 \u0633\u0646\u06cc", "place": "village", "source:name": "GNS"}}, {"type": "node", "id": 4384827569, "lat": 35.078522, "lon": 63.268753, "tags": {"alt_name": "Kishlak Khwajah;Kishlak Khvajeh", "name:en": "Kishlak Khwaja", "name:ps": "Kishlak Khwaja;Kishlak Khwajah;Kishlak Khvajeh", "place": "village", "source:name": "GNS"}}, {"type": "node", "id": 4384827571, "lat": 35.058651, "lon": 63.114066, "tags": {"alt_name": "Mamakow", "name": "\u0645\u0645\u0627\u06a9\u0648", "name:en": "Mamakaw", "name:ps": "\u0645\u0645\u0627\u06a9\u0648", "place": "village", "source:name": "GNS"}}, {"type": "node", "id": 4384827572, "lat": 35.066597, "lon": 63.282819, "tags": {"alt_name": "Mulla Tuti Feroz Za'i;Mulla Tuti-ye Firoz Zai", "name": "\u0645\u0644\u0627 \u0637\u0648\u0637\u06cc \u0641\u06cc\u0631\u0648\u0632 \u0632\u06cc", "name:en": "Molla Tuti Firuz Za'i", "name:ps": "\u0645\u0644\u0627 \u0637\u0648\u0637\u06cc \u0641\u06cc\u0631\u0648\u0632 \u0632\u06cc", "place": "village", "source:name": "GNS"}}, {"type": "node", "id": 4384827573, "lat": 35.059646, "lon": 63.290838, "tags": {"alt_name": "Mulla Tuti Feroz Za'i;Molla Tuti Firuzah'i;Molla Tuti Firuzzay", "name": "\u0645\u0644\u0627 \u0637\u0648\u0637\u06cc \u0641\u06cc\u0631\u0648\u0632 \u0632\u06cc", "name:en": "Mulla Tuti-ye Fayroz-e Zai", "name:ps": "\u0645\u0644\u0627 \u0637\u0648\u0637\u06cc \u0641\u06cc\u0631\u0648\u0632 \u0632\u06cc", "place": "village", "source:name": "GNS"}}, {"type": "node", "id": 4384827574, "lat": 35.039871, "lon": 63.292641, "tags": {"alt_name": "Maghar;Moghor;Maghor;Moqor", "name": "\u0645\u0642\u0631", "name:ar": "\u0645\u0642\u0631", "name:en": "Muqur", "name:ps": "\u0645\u0642\u0631", "place": "town", "source:name": "GNS"}}, {"type": "node", "id": 4384827576, "lat": 35.023606, "lon": 63.289799, "tags": {"name": "\u0645\u0642\u0631 \u0627\u0644\u0644\u0647 \u062f\u0627\u062f \u062e\u0627\u0646", "name:en": "Muqur-e Allahdad Khan", "name:ps": "\u0645\u0642\u0631 \u0627\u0644\u0644\u0647 \u062f\u0627\u062f \u062e\u0627\u0646", "place": "village", "source:name": "GNS"}}, {"type": "node", "id": 4384827577, "lat": 35.024128, "lon": 63.283516, "tags": {"alt_name": "Moqor-e Allahdad Khan;Muqur-i-Allahdad Khan", "name": "\u0645\u0642\u0631 \u0627\u0644\u0644\u0647 \u062f\u0627\u062f \u062e\u0627\u0646", "name:en": "Muqur-e Allahdad Khan", "name:ps": "\u0645\u0642\u0631 \u0627\u0644\u0644\u0647 \u062f\u0627\u062f \u062e\u0627\u0646", "place": "village", "source:name": "GNS"}}, {"type": "node", "id": 4384827578, "lat": 35.0702896, "lon": 63.2740912, "tags": {"alt_name": "Muqur Arbab 'Aziz;Moqor Arbab `Aziz", "name": "\u0645\u0642\u0631 \u0627\u0631\u0628\u0627\u0628 \u0639\u0632\u06cc\u0632", "name:en": "Muqur-e Arbab `Aziz", "name:ps": "\u0645\u0642\u0631 \u0627\u0631\u0628\u0627\u0628 \u0639\u0632\u06cc\u0632", "place": "village", "source:name": "GNS"}}, {"type": "node", "id": 4384827579, "lat": 35.055038, "lon": 63.288559, "tags": {"name": "\u0645\u0642\u0631", "name:en": "Muqur;Moqor", "name:ps": "\u0645\u0642\u0631", "place": "village", "source:name": "GNS"}}, {"type": "node", "id": 4384827580, "lat": 35.082561, "lon": 63.05684, "tags": {"name": "\u067e\u0627\u067e\u0644", "name:en": "Papal", "name:ps": "\u067e\u0627\u067e\u0644", "place": "village", "source:name": "GNS"}}, {"type": "node", "id": 4384827581, "lat": 35.10309, "lon": 63.236072, "tags": {"alt_name": "Tajik", "name": "\u062a\u0627\u062c\u06a9", "name:en": "Tajek", "name:ps": "\u062a\u0627\u062c\u06a9", "place": "village", "source:name": "GNS"}}, {"type": "node", "id": 4384827582, "lat": 35.092171, "lon": 63.253899, "tags": {"name": "\u062a\u0631\u06a9\u06cc", "name:en": "Taraki", "name:ps": "\u062a\u0631\u06a9\u06cc", "place": "village", "source:name": "GNS"}}, {"type": "node", "id": 4384827583, "lat": 35.087589, "lon": 63.258904, "tags": {"alt_name": "`Abd ol Karim Taraki;Abdul Karim Taraki", "name": "\u0639\u0628\u062f \u0627\u0644\u06a9\u0631\u06cc\u0645 \u062a\u0631\u06a9\u06cc", "name:en": "`Abd ul Karim Taraki", "name:ps": "\u0639\u0628\u062f \u0627\u0644\u06a9\u0631\u06cc\u0645 \u062a\u0631\u06a9\u06cc", "place": "village", "source:name": "GNS"}}, {"type": "node", "id": 4384827584, "lat": 35.083736, "lon": 63.171617, "tags": {"alt_name": "Abdul Ahad Bay Kamari;`Abd ol Ahad Beyg Kamari;Abdol Ahd Bay Kamari", "name": "\u0639\u0628\u062f\u0644 \u0627\u062d\u062f \u0628\u0627\u06cc \u06a9\u0645\u0631\u06cc", "name:en": "`Abdul Ahad Bay Kamari", "name:ps": "\u0639\u0628\u062f\u0644 \u0627\u062d\u062f \u0628\u0627\u06cc \u06a9\u0645\u0631\u06cc", "place": "village", "source:name": "GNS"}}, {"type": "node", "id": 4384893595, "lat": 35.128252, "lon": 63.065401, "tags": {"name": "\u06a9\u0644\u0627\u0646 \u0632\u0627\u0639\u06cc", "name:en": "Kalan Za'i", "name:ps": "\u06a9\u0644\u0627\u0646 \u0632\u0627\u0639\u06cc", "place": "village", "source:name": "GNS"}}, {"type": "node", "id": 4385592163, "lat": 34.978879, "lon": 63.151677, "tags": {"alt_name": "Dahan-i-Gharghaitu;Dahan-e Gharghaitow;Dahan-e Gharghaitu", "name": "\u062f\u0647\u0627\u0646 \u063a\u0631\u063a\u06cc\u062a\u0648", "name:en": "Dahan-e Gharghaytu", "name:ps": "\u062f\u0647\u0627\u0646 \u063a\u0631\u063a\u06cc\u062a\u0648", "name:ru": "Dakhani-Gargaytu", "place": "village", "source:name": "GNS"}}, {"type": "node", "id": 4385592165, "lat": 34.97434, "lon": 63.1573963, "tags": {"alt_name": "Gharghaitow", "name": "\u063a\u0631\u063a\u06cc\u062a\u0648", "name:en": "Gharghaitu", "name:ps": "\u063a\u0631\u063a\u06cc\u062a\u0648", "name:ru": "Gargaytu", "place": "village", "source:name": "GNS"}}, {"type": "node", "id": 4385592166, "lat": 34.948408, "lon": 63.207901, "tags": {"alt_name": "Kharistan", "name": "\u062e\u0627\u0631\u0633\u062a\u0627\u0646", "name:en": "Kharestan", "name:ps": "\u062e\u0627\u0631\u0633\u062a\u0627\u0646", "name:ru": "Kharistan", "place": "village", "source:name": "GNS"}}, {"type": "node", "id": 4385592167, "lat": 34.942844, "lon": 63.217154, "tags": {"alt_name": "Khwajah;Khvajeh", "name": "\u062e\u0648\u0627\u062c\u0647", "name:en": "Khwaja", "name:ps": "\u062e\u0648\u0627\u062c\u0647", "name:ru": "Khodzha", "place": "village", "source:name": "GNS"}}, {"type": "node", "id": 4385592168, "lat": 34.969485, "lon": 63.191166, "tags": {"alt_name": "Kundi", "name": "\u06a9\u0646\u062f\u06cc", "name:en": "Kondi", "name:ps": "\u06a9\u0646\u062f\u06cc", "name:ru": "Kundi", "place": "village", "source:name": "GNS"}}, {"type": "node", "id": 4385592172, "lat": 34.9851043, "lon": 63.1445109, "tags": {"alt_name": "Senjetak;Sinjitak", "name": "\u0633\u0646\u062c\u062a\u06a9", "name:en": "Sanjitak", "name:ps": "\u0633\u0646\u062c\u062a\u06a9", "name:ru": "Sindzhitak", "place": "village", "source:name": "GNS", "wikidata": "Q3478560"}}, {"type": "node", "id": 4385898162, "lat": 35.295576, "lon": 63.463492, "tags": {"name": "\u0632\u0645\u0627\u0646", "name:en": "Zaman", "name:ps": "\u0632\u0645\u0627\u0646", "place": "village", "source:name": "GNS"}}, {"type": "node", "id": 5914709375, "lat": 35.1482265, "lon": 63.0553643}, {"type": "node", "id": 5914709376, "lat": 35.1474643, "lon": 63.0629992}, {"type": "node", "id": 5914709377, "lat": 35.1553401, "lon": 63.0625405}, {"type": "node", "id": 5914709378, "lat": 35.1578079, "lon": 63.059966}, {"type": "node", "id": 5914709379, "lat": 35.1570579, "lon": 63.0589598}, {"type": "node", "id": 5914709380, "lat": 35.153344, "lon": 63.0568439}, {"type": "node", "id": 8904345888, "lat": 35.0207618, "lon": 63.224683, "tags": {"place": "village"}}, {"type": "way", "id": 365863948, "nodes": [3698642872, 3698642873, 3698642874, 3698642875, 3698642876, 3698642877, 3698642878, 3698642872], "tags": {"alt_name": "Chashmah-e Duzak", "name": "\u0645\u0642\u0631", "name:en": "Moghor", "name:ps": "\u0686\u0634\u0645\u06c0 \u062f\u0632\u062e", "place": "town"}}, {"type": "way", "id": 368883148, "nodes": [3727202410, 3727202411, 3727202412, 3727202413, 3727202414, 3727202410], "tags": {"landuse": "residential", "place": "town"}}, {"type": "way", "id": 368883460, "nodes": [3727210967, 3727210968, 3727210969, 3727210970, 3727210971, 3727210972, 3727210973, 3727210974, 3727210975, 3727210976, 3727210967], "tags": {"place": "village"}}, {"type": "way", "id": 368884868, "nodes": [3727221287, 3727221288, 3727221289, 3727221290, 3727221291, 3727221292, 3727221293, 3727221287], "tags": {"place": "village"}}, {"type": "way", "id": 368885041, "nodes": [3727216755, 3727216756, 3727216757, 3727216758, 3727216759, 3727216760, 3727216761, 3727216762, 3727216755], "tags": {"place": "village"}}, {"type": "way", "id": 626510582, "nodes": [5914709375, 5914709376, 5914709377, 5914709378, 5914709379, 5914709380, 5914709375], "tags": {"place": "town"}}]}