{"version": 0.6, "generator": "Overpass API 0.7.61.5 4133829e", "osm3s": {"timestamp_osm_base": "2024-03-05T13:37:45Z", "copyright": "The data included in this document is from www.openstreetmap.org. The data is made available under ODbL."}, "elements": [{"type": "node", "id": 310089712, "lat": 32.6195402, "lon": 65.459751, "tags": {"alt_name": "\u062f\u0647 \u0631\u0627\u0648\u062a;Dehrawut;Deh Ravod;Deh Rawut;Deh Rawod;Deh-e Rawut", "name": "\u062f\u0647 \u0631\u0627\u0648\u062f", "name:en": "Deh Rawud", "name:ps": "\u062f\u0647 \u0631\u0627\u0648\u062f", "name:ru": "\u0414\u0435\u0445\u0440\u0430\u0432\u0443\u0434", "place": "town", "source:name": "GNS"}}, {"type": "node", "id": 4403040834, "lat": 32.450996, "lon": 65.619429, "tags": {"alt_name": "\u062f\u0648\u0634\u064a\u0646\u0647;Dusina;Dushineh", "name": "\u062f\u0648 \u0634\u06cc\u0646\u06cc\u0647", "name:en": "Du Shinah", "name:ps": "\u062f\u0648 \u0634\u06cc\u0646\u06cc\u0647", "name:ru": "Dushina", "place": "village", "source:name": "GNS"}}, {"type": "node", "id": 4403040839, "lat": 32.438211, "lon": 65.660502, "tags": {"alt_name": "\u0646\u0648 \u0643\u0627\u0631\u064a\u0632;Now Kariz;Naw Karez", "name": "\u0646\u0648 \u06a9\u0627\u0631\u06d0\u0632", "name:en": "Now Karez", "name:ps": "\u0646\u0648 \u06a9\u0627\u0631\u06d0\u0632", "name:ru": "Nau-Karez", "place": "village", "source:name": "GNS"}}, {"type": "node", "id": 4403040841, "lat": 32.442421, "lon": 65.630871, "tags": {"alt_name": "\u0642\u0631\u064a\u06c0 \u064a\u062e \u0686\u064a\u0646\u0647;Qaryeh-ye Yakh Chinah;Qaryah-ye Yakh Chinah", "name": "\u0642\u0631\u06cc\u0647 \u06cc\u062e \u0686\u06cc\u0646\u0647", "name:en": "Qarya-i- Yakh Cina", "name:ps": "\u0642\u0631\u06cc\u0647 \u06cc\u062e \u0686\u06cc\u0646\u0647", "name:ru": "Kar'yayi-Yakhchina", "place": "village", "source:name": "GNS"}}, {"type": "node", "id": 4407681973, "lat": 32.620629, "lon": 65.441859, "tags": {"alt_name": "Lundyanah;Lundiyanah", "name": "\u0644\u0646\u062f\u06cc\u0627\u0646\u0647", "name:en": "Lundyana", "name:ps": "\u0644\u0646\u062f\u06cc\u0627\u0646\u0647", "name:ru": "Lund'yana", "place": "village", "source:name": "GNS"}}, {"type": "node", "id": 6287593605, "lat": 32.7996004, "lon": 65.3167477, "tags": {"place": "hamlet"}}]}