{"version": 0.6, "generator": "Overpass API 0.7.61.5 4133829e", "osm3s": {"timestamp_osm_base": "2024-03-05T13:52:05Z", "copyright": "The data included in this document is from www.openstreetmap.org. The data is made available under ODbL."}, "elements": [{"type": "node", "id": 4405946288, "lat": 32.6327291, "lon": 62.4374102, "tags": {"alt_name": "Chemozay;Chemowzay;Cemozay", "name": "\u0686\u0645\u0648\u0632\u06cc", "name:en": "Chimozay", "name:ps": "\u0686\u0645\u0648\u0632\u06cc", "name:ru": "Chimozay", "place": "village", "source:name": "GNS"}}, {"type": "node", "id": 4405946590, "lat": 32.636963, "lon": 62.447704, "tags": {"alt_name": "Khvajehan", "name": "\u062e\u0648\u0627\u062c\u0647\u0627\u0646", "name:en": "Khwajahan", "name:ps": "\u062e\u0648\u0627\u062c\u0647\u0627\u0646", "name:ru": "Khodzhakhan", "place": "village", "source:name": "GNS"}}, {"type": "node", "id": 6398412840, "lat": 32.3704031, "lon": 62.6231619, "tags": {"place": "hamlet"}}, {"type": "node", "id": 6398412841, "lat": 32.3304767, "lon": 62.5810379, "tags": {"place": "hamlet"}}, {"type": "node", "id": 6398412842, "lat": 32.3355533, "lon": 62.5777911, "tags": {"place": "hamlet"}}, {"type": "node", "id": 8950630180, "lat": 32.6297791, "lon": 62.4906058, "tags": {"name": "\u0634\u06d0\u0648\u0627\u0646", "name:ar": "\u0634\u064a\u0648\u0627\u0646", "name:es": "Shewan", "name:ps": "\u0634\u06d0\u0648\u0627\u0646", "place": "village", "wikidata": "Q2889960"}}]}