{"version": 0.6, "generator": "Overpass API 0.7.61.5 4133829e", "osm3s": {"timestamp_osm_base": "2024-03-06T11:17:45Z", "copyright": "The data included in this document is from www.openstreetmap.org. The data is made available under ODbL."}, "elements": [{"type": "node", "id": 599170262, "lat": 34.891501, "lon": 44.6282661, "tags": {"alt_name:en": "Tuz Khurmatu", "capital": "6", "int_name": "Tuz Khormato", "name": "\u0637\u0648\u0632 \u062e\u0648\u0631\u0645\u0627\u062a\u0648", "name:ar": "\u0637\u0648\u0632 \u062e\u0648\u0631\u0645\u0627\u062a\u0648", "name:ckb": "\u062f\u0648\u0648\u0632 \u062e\u0648\u0631\u0645\u0627\u062a\u0648\u0648", "name:en": "Tuz Khormato", "name:fr": "Tuz Khormato", "name:ku": "Xurmat\u00fb", "name:ru": "\u0422\u0443\u0437-\u0425\u0443\u0440\u043c\u0430\u0442\u0443", "name:tr": "Tuzhurmatu", "place": "town", "wikidata": "Q1023334", "wikipedia": "ar:\u0637\u0648\u0632 \u062e\u0648\u0631\u0645\u0627\u062a\u0648"}}, {"type": "node", "id": 2160538174, "lat": 35.1969722, "lon": 44.8917028, "tags": {"alt_name": "Qaddir Karam", "name": "\u0642\u0627\u062f\u0631\u06a9\u06d5\u0631\u06d5\u0645", "name:ar": "\u0642\u0627\u062f\u0631\u0643\u0631\u0645", "name:ckb": "\u0642\u0627\u062f\u0631\u06a9\u06d5\u0631\u06d5\u0645", "name:en": "Qadirkaram", "name:ku": "Qadirkerem", "name:ru": "\u041a\u0430\u0434\u0438\u0440\u043a\u0430\u0440\u0430\u043c", "place": "town", "wikidata": "Q65403629", "wikipedia": "ckb:\u0642\u0627\u062f\u0631\u06a9\u06d5\u0631\u06d5\u0645"}}, {"type": "node", "id": 2488467340, "lat": 34.935172, "lon": 44.554699, "tags": {"name": "\u0622\u0644 \u0628\u0648 \u0635\u0628\u0627\u062d", "name:en": "Al Bu Sabbah", "place": "village"}}, {"type": "node", "id": 2488467380, "lat": 34.9121839, "lon": 44.5589554, "tags": {"name": "\u0634\u0627 \u0633\u06d5\u06cc\u0648\u0627\u0646", "name:ar": "\u0634\u0627\u0647 \u0635\u064a\u0648\u0627\u0646", "place": "village"}}, {"type": "node", "id": 2488469595, "lat": 34.856382, "lon": 44.568377, "tags": {"name": "\u064a\u0646\u0643\u062c\u0629", "name:ar": "\u064a\u0646\u0643\u062c\u0629", "name:en": "Buyuk Yeniga", "name:tr": "Yengice", "place": "village"}}, {"type": "node", "id": 2489302583, "lat": 34.790814, "lon": 44.590751, "tags": {"alt_name": "\u0622\u0644 \u0628\u0648 \u062d\u0633\u0646", "int_name": "Alb\u016b \u1e28asan, \u0627\u0644\u0628\u0648 \u062d\u0633\u0646, Albu Hasan, \u0627\u0644\u0628\u0648 \u062d\u0633\u0646", "name": "\u0622\u0644 \u0628\u0648 \u062d\u0633\u0646", "name:ar": "\u0643\u0648\u062c\u0648\u0643 \u0627\u0644\u0628\u0648\u062d\u0633\u0646", "name:ar1": "\u0622\u0644 \u0628\u0648 \u062d\u0633\u0646", "name:de": "Albu Hasan", "name:en": "Albu Hasan", "name:fr": "Albu Hasan", "name:tr": "K\u00fc\u00e7\u00fck Albuhessen", "place": "village"}}, {"type": "node", "id": 2489302663, "lat": 35.0783363, "lon": 44.8528533, "tags": {"alt_name": "\u0634\u06ce\u062e \u062d\u06d5\u0645\u06cc\u062f", "name": "\u0628\u06d5\u0647\u0631\u0627\u0645 \u0628\u06d5\u06af\u06cc \u0634\u06ce\u062e \u062d\u06d5\u0645\u06cc\u062f", "name:ar": "\u0628\u0627\u0631\u0627\u0645 \u0628\u064a\u0643 \u0634\u06cc\u062e \u062d\u0645\u06cc\u062f", "name:de": "Bahram Bag", "name:en": "Bahram Bag", "name:fr": "Bahram Bag", "place": "village", "wikidata": "Q65403504", "wikipedia": "ckb:\u0628\u06d5\u06be\u0631\u0627\u0645 \u0628\u06d5\u06af\u06cc \u0634\u06ce\u062e \u062d\u06d5\u0645\u06cc\u062f"}}, {"type": "node", "id": 2489302691, "lat": 34.7953226, "lon": 44.8844392, "tags": {"name": "\u0628\u06d5\u0644\u06d5\u06a9\u06d5\u06cc \u06af\u06d5\u0648\u0631\u06d5", "name:ar": "\u0628\u0644\u06a9\u0629 \u06a9\u0628\u06cc\u0631", "name:en": "Great Balaka", "place": "village", "wikidata": "Q61391682", "wikipedia": "ckb:\u0628\u06d5\u0644\u06d5\u06a9\u06d5\u06cc \u06af\u06d5\u0648\u0631\u06d5"}}, {"type": "node", "id": 2489302707, "lat": 34.8258093, "lon": 44.7291073, "tags": {"name": "\u067e\u06d5\u06b5\u06a9\u0627\u0646\u06d5\u06cc \u0633\u06d5\u06cc\u062f", "place": "village"}}, {"type": "node", "id": 2489302740, "lat": 34.796411, "lon": 44.584963, "tags": {"alt_name": "\u0628\u064a\u0631\u0627\u0648\u062c\u0644\u064a", "int_name": "Bar\u0101wajal\u012b, Bar\u0101wjal\u012b, B\u0101r\u014dch\u0101l\u012b, Birawjali, Birawchli, \u0628\u0631\u0627\u0648\u062c\u0644\u064a", "name": "\u0628\u064a\u0631\u0627\u0648\u062c\u0644\u064a", "name:ar": "\u0628\u064a\u0631\u0627\u0648\u062c\u0644\u064a", "name:ar1": "\u0628\u064a\u0631\u0627\u0648\u062c\u0644\u064a", "name:de": "Birawchali", "name:en": "Birawchli", "name:fr": "Birawjali", "name:tr": "Birav\u00e7li", "place": "village"}}, {"type": "node", "id": 2489302899, "lat": 35.2030509, "lon": 44.8797151, "tags": {"name": "\u0686\u06d5\u0645 \u0633\u0648\u0631\u062e\u0627\u0648", "name:ar": "\u062c\u0645 \u0633\u0648\u0631\u062e\u0627\u0648", "name:ar1": "\u062c\u0627\u0645 \u0633\u0648\u0631\u062e\u0627", "name:de": "Cham Surkhaw", "name:en": "Cham Surkhaw", "name:fr": "Cham Surkhaw", "name:ku": "\u0686\u06d5\u0645 \u0633\u0648\u0648\u0631\u062e\u0627\u0648", "place": "village", "wikidata": "Q65403703", "wikipedia": "ckb:\u0686\u06d5\u0645 \u0633\u0648\u0631\u062e\u0627\u0648"}}, {"type": "node", "id": 2489302938, "lat": 34.7835652, "lon": 44.6615343, "tags": {"int_name": "Chamm\u0101s obasi, Ghamm\u0101s obasi, \u063a\u0645\u0627\u0633 \u0627\u0648\u0628\u0627\u0633\u064a, Ghammas obasi, \u063a\u0645\u0627\u0633 \u0627\u0648\u0628\u0627\u0633\u064a", "name": "\u063a\u0645\u0627\u0633", "name:ar": "\u063a\u0645\u0627\u0632", "name:de": "Chammas", "name:en": "Chammas", "name:fr": "Chammas", "name:tr": "\u011eammas", "place": "village"}}, {"type": "node", "id": 2489302973, "lat": 35.1753063, "lon": 44.6982815, "tags": {"name": "\u062f\u0627\u0631\u0628\u06d5\u0633\u06d5\u0631\u06d5", "name:ar": "\u062f\u0627\u0631\u0628\u0633\u0631\u0629", "name:en": "Darbasara", "place": "village", "wikidata": "Q65403564", "wikipedia": "ckb:\u062f\u0627\u0631\u0628\u06d5\u0633\u06d5\u0631\u06d5"}}, {"type": "node", "id": 2489303116, "lat": 34.820106, "lon": 44.643925, "tags": {"alt_name": "\u062e\u0633\u0629 \u062f\u0627\u0648\u0644\u064a", "int_name": "Khasa D\u0101rli, Khasah D\u0101dl\u012b, Khasat D\u0101wl\u012b, \u062e\u0633\u0629 \u062f\u0627\u0648\u0644\u064a, Khasa Darli, Khasah Dadli, Khasat Dawli, \u062e\u0633\u0629 \u062f\u0627\u0648\u0644\u064a", "name": "\u062e\u0627\u0633\u06d5\u062f\u0627\u0631\u0644\u06cc", "name:ar": "\u062e\u0635\u062f\u0627\u0631\u0644\u064a \u0627\u0648\u0628\u0627\u0633\u064a", "name:ar1": "\u062e\u0633\u0629 \u062f\u0627\u0648\u0644\u064a", "name:de": "Khasa Darli", "name:en": "Khasa Darli", "name:fr": "Khasa Darli", "place": "village"}}, {"type": "node", "id": 2489303185, "lat": 34.839401, "lon": 44.633178, "tags": {"name": "\u0643\u06c6\u06a9\u0632", "name:ar": "\u0643\u0648\u0643\u0648\u0632 \u0627\u0648\u0628\u0627\u0633\u064a", "name:ar1": "\u0643\u064a\u0648\u0643\u0633", "name:de": "Kiyukas", "name:en": "Kiyukas", "name:fr": "Kiyukas", "name:tr": "Kukuz k\u00f6y\u00fc", "place": "village"}}, {"type": "node", "id": 2489303252, "lat": 35.1791904, "lon": 44.7035444, "tags": {"name": "\u0646\u06d5\u0648\u0631\u06c6\u0632", "name:ar": "\u0646\u0648\u0631\u0648\u0632", "name:en": "Newroz", "place": "village", "wikidata": "Q65404397", "wikipedia": "ckb:\u0646\u06d5\u0648\u0631\u06c6\u0632\u060c \u0642\u0627\u062f\u0631\u06a9\u06d5\u0631\u06d5\u0645"}}, {"type": "node", "id": 2489303728, "lat": 35.0400607, "lon": 44.8289205, "tags": {"name": "\u062a\u06d5\u062e\u062a\u06d5 \u0645\u06cc\u0646\u06d5\u06cc \u0633\u06d5\u0631\u0648\u0648", "name:ar": "\u062a\u062e\u062a\u0629 \u0645\u064a\u0646\u0629 \u0627\u0644\u062c\u062f\u064a\u062f\u0629", "name:ar1": "\u062a\u062e\u062a\u0629 \u0645\u064a\u0646\u0629 \u0627\u0644\u062c\u062f\u064a\u062f\u0629", "name:de": "Takhta Mina", "name:en": "Takhta Mina", "name:fr": "Takhta Mina", "place": "village", "wikidata": "Q65403525", "wikipedia": "ckb:\u062a\u06d5\u062e\u062a\u06d5\u0645\u06cc\u0646\u06d5\u06cc \u0633\u06d5\u0631\u0648\u0648"}}, {"type": "node", "id": 2489303742, "lat": 35.0374441, "lon": 44.8208007, "tags": {"int_name": "Takhta M\u012bna, Takhtah M\u012bnat al Qad\u012bmah, \u062a\u062e\u062a\u0629 \u0645\u064a\u0646\u0629, \u062a\u062e\u062a\u0647 \u0645\u064a\u0646\u0629 \u0627\u0644\u0642\u062f\u064a\u0645\u0629, Takhtah Minah, Takhtah Minat al Qadimah, \u062a\u062e\u062a\u0629 \u0645\u064a\u0646\u0629, \u062a\u062e\u062a\u0647 \u0645\u064a\u0646\u0629 \u0627\u0644\u0642\u062f\u064a\u0645\u0629", "name": "\u062a\u06d5\u062e\u062a\u06d5\u0645\u06cc\u0646\u06d5", "name:ar": "\u062a\u062e\u062a\u0647 \u0645\u064a\u0646\u0629 \u0627\u0644\u0642\u062f\u064a\u0645\u0629", "name:en": "Takhta  Mina", "place": "village", "wikidata": "Q65403517", "wikipedia": "ckb:\u062a\u06d5\u062e\u062a\u06d5\u0645\u06cc\u0646\u06d5"}}, {"type": "node", "id": 2489307839, "lat": 34.780932, "lon": 44.579441, "tags": {"alt_name": "\u0622\u0644 \u0628\u0648 \u062d\u0633\u0646 \u0628\u0633\u0627\u0633", "int_name": "Alb\u016b \u1e28asan Bas\u0101s, \u0627\u0644\u0628\u0648 \u062d\u0633\u0646 \u0628\u0633\u0627\u0633, Albu Hasan Basas, \u0627\u0644\u0628\u0648 \u062d\u0633\u0646 \u0628\u0633\u0627\u0633", "name": "\u0622\u0644 \u0628\u0648 \u062d\u0633\u0646 \u0628\u0633\u0627\u0633", "name:ar": "\u0628\u0648\u064a\u0648\u0643 \u0627\u0644\u0628\u0648\u062d\u0633\u0646", "name:ar1": "\u0622\u0644 \u0628\u0648 \u062d\u0633\u0646 \u0628\u0633\u0627\u0633", "name:de": "Albu Hasan Basas", "name:en": "Albu Hasan Basas", "name:fr": "Albu Hasan Basas", "name:tr": "B\u00fcy\u00fck Albuhessen", "place": "village"}}, {"type": "node", "id": 2489307845, "lat": 34.778054, "lon": 44.574828, "tags": {"alt_name": "\u0622\u0644 \u0628\u0648 \u062d\u0633\u0646 \u0634\u0643\u0631", "int_name": "Alb\u016b \u1e28asan Shukr, \u0627\u0644\u0628\u0648 \u062d\u0633\u0646 \u0634\u0643\u0631, Albu Hasan Shukr, \u0627\u0644\u0628\u0648 \u062d\u0633\u0646 \u0634\u0643\u0631", "name": "\u0622\u0644 \u0628\u0648 \u062d\u0633\u0646 \u0634\u0643\u0631", "name:ar": "\u0628\u0648\u064a\u0648\u0643 \u062f\u0648\u0646\u0628\u0644\u0627\u0646 \u062f\u0631\u0647", "name:ar1": "\u0622\u0644 \u0628\u0648 \u062d\u0633\u0646 \u0634\u0643\u0631", "name:de": "Albu Hasan Shukr", "name:en": "Albu Hasan Shukr", "name:fr": "Albu Hasan Shukr", "place": "village"}}, {"type": "node", "id": 2489308018, "lat": 34.8189832, "lon": 44.5575001, "tags": {"alt_name": "\u062c\u0631\u062f\u0627\u063a\u0644\u0648", "int_name": "Ch\u0101rd\u0101ghl\u016b, Jard\u0101ghl\u016b, \u062c\u0631\u062f\u0627\u063a\u0644\u0648, Chardaghlu, Jardaghlu, \u062c\u0631\u062f\u0627\u063a\u0644\u0648, ( \u00c7arda\u011fli K\u00f6y) \u0686\u0631\u062f\u0627\u063a\u0644\u064a", "name": "\u0686\u0627\u0631\u062f\u0627\u063a\u0644\u06cc", "name:ar": "\u062c\u0631\u062f\u0627\u063a\u0644\u0648", "name:ar1": "\u062c\u0631\u062f\u0627\u063a\u0644\u0648", "name:ckb": "\u0686\u0627\u0631\u062f\u0627\u063a\u0644\u06cc", "name:de": "Chardaghli", "name:en": "Chardaghli", "name:fr": "Chardaghli", "name:tr": "\u00c7arda\u011fli", "place": "village"}}, {"type": "node", "id": 2489322496, "lat": 34.9472453, "lon": 44.9879266, "tags": {"name": "\u062f\u06d5\u0631\u06a9\u06d5", "name:ar": "\u062f\u0631\u06a9\u0629", "place": "village"}}, {"type": "node", "id": 2489322497, "lat": 34.8633125, "lon": 44.9244548, "tags": {"name": "\u062f\u0631\u06c6\u0632\u0646\u06d5 \u062c\u0648\u0627\u0645\u06ce\u0631", "place": "village"}}, {"type": "node", "id": 2489357238, "lat": 34.7707581, "lon": 45.0276413, "tags": {"alt_name": "\u0628\u0643\u0631\u0629 \u0634\u0627\u0647", "int_name": "Bakra Shal, Bakrah Sh\u0101, Bakrah Sh\u0101h, \u0628\u0643\u0631\u0647 \u0634\u0627, \u0628\u0643\u0631\u0647 \u0634\u0627\u0647, Bakra Shal, Bakrah Sha, Bakrah Shah, \u0628\u0643\u0631\u0647 \u0634\u0627, \u0628\u0643\u0631\u0647 \u0634\u0627\u0647", "name": "\u0628\u06d5\u06a9\u0631\u06d5\u0634\u06d5\u0644", "name:ar": "\u0628\u0643\u0631\u0629 \u0634\u0644", "name:ar1": "\u0628\u0643\u0631\u0629 \u0634\u0627\u0647", "name:de": "Bakra Shal", "name:en": "Bakra Shal", "name:fr": "Bakra Shal", "place": "village", "wikidata": "Q61391673", "wikipedia": "ckb:\u0628\u06d5\u06a9\u0631\u06d5\u0634\u06d5\u0644"}}, {"type": "node", "id": 2489357241, "lat": 34.7780985, "lon": 45.042294, "tags": {"alt_name": "\u0641\u062a\u0627\u062d \u0639\u0645\u0631", "int_name": "Fatah Homar, Fat\u0101h Um\u0101r, Fatt\u0101\u1e29 Umar, \u0641\u062a\u0627\u062d \u0639\u0645\u0631, Fatah Homar, Fatah Umar, Fattah Umar, \u0641\u062a\u0627\u062d \u0639\u0645\u0631", "name": "\u0641\u06d5\u062a\u0627\u062d \u0647\u06c6\u0645\u06d5\u0631", "name:ar": "\u0641\u062a\u0627\u062d \u0639\u0645\u0631", "name:ar1": "\u0641\u062a\u0627\u062d \u0639\u0645\u0631", "name:de": "Fatah Homar", "name:en": "Fatah Homar", "name:fr": "Fatah Homar", "name:ru": "\u0424\u0430\u0442\u0442\u0430\u0445-\u041e\u043c\u0430\u0440", "place": "village", "wikidata": "Q61391742", "wikipedia": "ckb:\u0641\u06d5\u062a\u0627\u062d \u06be\u06c6\u0645\u06d5\u0631"}}, {"type": "node", "id": 2489367812, "lat": 34.8851761, "lon": 45.0149681, "tags": {"name": "\u0639\u06d5\u0632\u06cc\u0632 \u0642\u0627\u062f\u0631", "name:ar": "\u0639\u0632\u064a\u0632 \u0642\u0627\u062f\u0631", "name:ar1": "\u0639\u0632\u064a\u0632 \u0642\u0627\u062f\u0631", "name:de": "Aziz Qadir", "name:en": "Aziz Qadir", "name:fr": "Aziz Qadir", "name:ku-Arab": "\u0639\u06d5\u0632\u06cc\u0632 \u0642\u0627\u062f\u0631", "place": "village", "wikidata": "Q61391734", "wikipedia": "ckb:\u0639\u06d5\u0632\u06cc\u0632\u0642\u0627\u062f\u0631"}}, {"type": "node", "id": 2489368054, "lat": 34.8377452, "lon": 45.0526761, "tags": {"name": "\u0633\u06ce\u062e\u0695\u0627\u0646", "name:ar": "\u0633\u06cc\u062e\u0631\u0627\u0646", "name:en": "Sekhran", "place": "village", "wikidata": "Q61391410", "wikipedia": "ckb:\u0633\u06ce\u062e\u0695\u0627\u0646"}}, {"type": "node", "id": 2489371443, "lat": 35.0887722, "lon": 44.9933607, "tags": {"name": "\u0632\u06c6\u0631\u0627\u0628 \u0628\u06d5\u06af\u0632\u0627\u062f\u06d5", "name:ar": "\u0628\u0643\u0632\u0627\u062f\u0629", "name:ar1": "\u0628\u0643\u0632\u0627\u062f\u0629", "name:de": "Bagzadah", "name:en": "Bagzadah", "name:fr": "Bagzadah", "place": "village", "wikidata": "Q61391625", "wikipedia": "ckb:\u0632\u06c6\u0631\u0627\u0628 \u0628\u06d5\u06af\u0632\u0627\u062f\u06d5"}}, {"type": "node", "id": 2489371897, "lat": 35.0693376, "lon": 45.0406407, "tags": {"name": "\u0647\u06d5\u0631\u0645\u06c6\u06b5\u06d5", "name:ar": "\u0647\u0631\u0645\u0644\u0629", "name:ar1": "\u0647\u0631\u0645\u0644\u0629", "name:de": "Harmalah", "name:en": "Harmalah", "name:fr": "Harmalah", "place": "village", "wikidata": "Q61391539", "wikipedia": "ckb:\u06be\u06d5\u0631\u0645\u06c6\u06b5\u06d5"}}, {"type": "node", "id": 2489372242, "lat": 34.9688486, "lon": 44.9972935, "tags": {"name": "\u0644\u06d5\u06a9\u06cc \u0642\u0627\u062f\u0631\u0633\u06d5\u0631\u0647\u06d5\u0646\u06af", "name:ar": "\u0644\u06a9 \u0642\u0627\u062f\u0631 \u0633\u0631\u0647\u0646\u06a9", "name:en": "Laki Qadrsarhang", "place": "village", "wikidata": "Q61391548", "wikipedia": "ckb:\u0644\u06d5\u06a9\u06cc \u0642\u0627\u062f\u0631\u0633\u06d5\u0631\u06be\u06d5\u0646\u06af"}}, {"type": "node", "id": 2489372336, "lat": 35.192438, "lon": 45.0593339, "tags": {"name": "\u0645\u0634\u06a9\u06cc\u0628\u0627\u0646", "name:ar": "\u0645\u0634\u06a9\u06cc\u0628\u0627\u0646", "name:en": "Mushkiban", "place": "village", "wikidata": "Q65404382", "wikipedia": "ckb:\u0645\u0634\u06a9\u06cc\u0628\u0627\u0646"}}, {"type": "node", "id": 2489372500, "lat": 35.0173324, "lon": 45.0413423, "tags": {"name": "\u0695\u06d5\u0645\u06d5\u0632\u0627\u0646 \u0634\u06d5\u0634\u06d5", "name:ar": "\u0631\u0645\u0636\u0627\u0646 \u0634\u0634\u0629", "name:en": "Ramazan Shasha", "place": "village", "wikidata": "Q61391622", "wikipedia": "ckb:\u0695\u06d5\u0645\u06d5\u0632\u0627\u0646 \u0634\u06d5\u0634\u06d5"}}, {"type": "node", "id": 3355652238, "lat": 34.7792505, "lon": 45.0428438}, {"type": "node", "id": 3355652239, "lat": 34.7792329, "lon": 45.0424093}, {"type": "node", "id": 3355652240, "lat": 34.7793469, "lon": 45.0419272}, {"type": "node", "id": 3355652241, "lat": 34.778735, "lon": 45.04161}, {"type": "node", "id": 3355652242, "lat": 34.7784045, "lon": 45.0414383}, {"type": "node", "id": 3355652243, "lat": 34.7780036, "lon": 45.0413203}, {"type": "node", "id": 3355652244, "lat": 34.7775806, "lon": 45.0410092}, {"type": "node", "id": 3355652245, "lat": 34.7772413, "lon": 45.041272}, {"type": "node", "id": 3355652246, "lat": 34.7769769, "lon": 45.0417494}, {"type": "node", "id": 3355652247, "lat": 34.776761, "lon": 45.0429511}, {"type": "node", "id": 3355652248, "lat": 34.7771884, "lon": 45.0430691}, {"type": "node", "id": 3355652249, "lat": 34.7775013, "lon": 45.0428545}, {"type": "node", "id": 3355652250, "lat": 34.7777084, "lon": 45.0431925}, {"type": "node", "id": 3355652251, "lat": 34.7778802, "lon": 45.043568}, {"type": "node", "id": 3355652252, "lat": 34.7782151, "lon": 45.0437343}, {"type": "node", "id": 3355652253, "lat": 34.7783164, "lon": 45.0433695}, {"type": "node", "id": 3355652254, "lat": 34.7783737, "lon": 45.0431817}, {"type": "node", "id": 3355652255, "lat": 34.778616, "lon": 45.0431925}, {"type": "node", "id": 3355652256, "lat": 34.7789553, "lon": 45.0433641}, {"type": "node", "id": 3355652257, "lat": 34.7792329, "lon": 45.0431871}, {"type": "node", "id": 3356465657, "lat": 34.8020833, "lon": 44.9142214}, {"type": "node", "id": 3356465658, "lat": 34.8070707, "lon": 44.9121284}, {"type": "node", "id": 3356465659, "lat": 34.8095841, "lon": 44.9165146}, {"type": "node", "id": 3356465660, "lat": 34.8080087, "lon": 44.9171449}, {"type": "node", "id": 3356997309, "lat": 34.8237408, "lon": 45.0766135}, {"type": "node", "id": 3356997310, "lat": 34.8234872, "lon": 45.0775323}, {"type": "node", "id": 3356997311, "lat": 34.8227797, "lon": 45.0785568}, {"type": "node", "id": 3356997312, "lat": 34.8222056, "lon": 45.078939}, {"type": "node", "id": 3356997314, "lat": 34.8206304, "lon": 45.0792886}, {"type": "node", "id": 3356997316, "lat": 34.8179142, "lon": 45.0790099}, {"type": "node", "id": 3356997317, "lat": 34.8172009, "lon": 45.0778688}, {"type": "node", "id": 3356997319, "lat": 34.8175491, "lon": 45.0752276}, {"type": "node", "id": 3356997320, "lat": 34.817886, "lon": 45.0745182}, {"type": "node", "id": 3356997322, "lat": 34.8207958, "lon": 45.0732066}, {"type": "node", "id": 3356997323, "lat": 34.8219051, "lon": 45.0733632}, {"type": "node", "id": 3356997325, "lat": 34.8236753, "lon": 45.075853}, {"type": "node", "id": 3372035736, "lat": 34.7783301, "lon": 45.0433248}, {"type": "node", "id": 3820661686, "lat": 34.868226, "lon": 45.0213332}, {"type": "node", "id": 3820661687, "lat": 34.865777, "lon": 45.017247}, {"type": "node", "id": 3820661688, "lat": 34.8665883, "lon": 45.0241385}, {"type": "node", "id": 3865934139, "lat": 35.005468, "lon": 45.0570402}, {"type": "node", "id": 3865934141, "lat": 35.0064068, "lon": 45.057468}, {"type": "node", "id": 3865934142, "lat": 35.0075995, "lon": 45.0558302}, {"type": "node", "id": 3865934143, "lat": 35.0076889, "lon": 45.0555089}, {"type": "node", "id": 3865934145, "lat": 35.0069279, "lon": 45.0544839}, {"type": "node", "id": 3865934147, "lat": 35.0060981, "lon": 45.0547426}, {"type": "node", "id": 3865934148, "lat": 35.0052511, "lon": 45.0567516}, {"type": "node", "id": 5004569222, "lat": 34.9227139, "lon": 44.8486368, "tags": {"name": "\u0648\u0627\u0631\u0627\u0646\u06cc \u0628\u0627\u0646 \u063a\u0627\u0632", "name:ar": "\u0648\u0627\u0631\u0627\u0646 \u0628\u0627\u0646 \u063a\u0627\u0632", "name:en": "Rain Ban Gas", "place": "village", "wikidata": "Q61391889", "wikipedia": "ckb:\u0648\u0627\u0631\u0627\u0646\u06cc \u0628\u0627\u0646 \u063a\u0627\u0632"}}, {"type": "node", "id": 5921136887, "lat": 34.7844154, "lon": 44.569914, "tags": {"name": "\u0642\u0631\u0647 \u0646\u0627\u0632", "name:en": "karanaz", "name:tr": "Karanaz", "place": "village"}}, {"type": "node", "id": 6215491492, "lat": 34.8330895, "lon": 44.9992097, "tags": {"name": "\u0686\u0648\u0627\u0631\u0634\u0627\u062e\u06cc \u062e\u0648\u0627\u0631\u0648\u0648", "name:ar": "\u062c\u0648\u0627\u0631\u0634\u0627\u062e\u064a \u0633\u0641\u0644\u06cc", "name:en": "Lower Chwarshakh", "place": "village", "wikidata": "Q61391696", "wikipedia": "ckb:\u0686\u0648\u0627\u0631\u0634\u0627\u062e\u06cc \u062e\u0648\u0627\u0631\u0648\u0648"}}, {"type": "node", "id": 6813566061, "lat": 35.1933269, "lon": 44.8346813}, {"type": "node", "id": 6813566062, "lat": 35.1930804, "lon": 44.8298138}, {"type": "node", "id": 6813566063, "lat": 35.1915301, "lon": 44.8294882}, {"type": "node", "id": 6813566064, "lat": 35.1899798, "lon": 44.8302102}, {"type": "node", "id": 6872911832, "lat": 35.0917014, "lon": 44.8410058}, {"type": "node", "id": 6872911833, "lat": 35.0916083, "lon": 44.8393471}, {"type": "node", "id": 6872911834, "lat": 35.0914619, "lon": 44.8388267}, {"type": "node", "id": 6872911835, "lat": 35.0910494, "lon": 44.8383876}, {"type": "node", "id": 6872911836, "lat": 35.090597, "lon": 44.8383388}, {"type": "node", "id": 6872911837, "lat": 35.0880289, "lon": 44.8393633}, {"type": "node", "id": 6872911838, "lat": 35.0879224, "lon": 44.8397536}, {"type": "node", "id": 6872911839, "lat": 35.0885744, "lon": 44.8416562}, {"type": "node", "id": 6872911840, "lat": 35.089772, "lon": 44.842762}, {"type": "node", "id": 6872911841, "lat": 35.0901978, "lon": 44.8428434}, {"type": "node", "id": 6872911842, "lat": 35.091555, "lon": 44.8415749}, {"type": "node", "id": 6874316724, "lat": 35.0159787, "lon": 44.9401142}, {"type": "node", "id": 6874316725, "lat": 35.0144546, "lon": 44.9416794}, {"type": "node", "id": 6874316726, "lat": 35.0139095, "lon": 44.9418519}, {"type": "node", "id": 6874316727, "lat": 35.0129305, "lon": 44.9415068}, {"type": "node", "id": 6874316728, "lat": 35.0127387, "lon": 44.9410262}, {"type": "node", "id": 6874316729, "lat": 35.0127387, "lon": 44.9361212}, {"type": "node", "id": 6874316730, "lat": 35.0134553, "lon": 44.9354557}, {"type": "node", "id": 6874316731, "lat": 35.015575, "lon": 44.9361458}, {"type": "node", "id": 6874316732, "lat": 35.0166247, "lon": 44.9392022}, {"type": "node", "id": 6874316733, "lat": 35.0166531, "lon": 44.9383348}, {"type": "node", "id": 6874316734, "lat": 35.0162547, "lon": 44.9369041}, {"type": "node", "id": 6910536817, "lat": 35.1935337, "lon": 44.8304839}, {"type": "node", "id": 6910536818, "lat": 35.1936952, "lon": 44.8344242}, {"type": "node", "id": 6910536819, "lat": 35.1898338, "lon": 44.8308406}, {"type": "node", "id": 6993107125, "lat": 34.820056, "lon": 45.0733444}, {"type": "node", "id": 7071676223, "lat": 35.0736471, "lon": 44.7641676}, {"type": "node", "id": 7071676224, "lat": 35.0718974, "lon": 44.7621739}, {"type": "node", "id": 7071676225, "lat": 35.0733591, "lon": 44.7602588}, {"type": "node", "id": 7071676226, "lat": 35.0751087, "lon": 44.7622521}, {"type": "node", "id": 7351401050, "lat": 34.9707468, "lon": 45.0358265}, {"type": "node", "id": 7351401051, "lat": 34.9704585, "lon": 45.0339117}, {"type": "node", "id": 7351401052, "lat": 34.9699928, "lon": 45.0340161}, {"type": "node", "id": 7351401053, "lat": 34.9702808, "lon": 45.0359309}, {"type": "node", "id": 7351401174, "lat": 34.9700973, "lon": 45.0251284}, {"type": "node", "id": 7351401175, "lat": 34.9702122, "lon": 45.0248298}, {"type": "node", "id": 7351401176, "lat": 34.9702412, "lon": 45.0245018}, {"type": "node", "id": 7351401177, "lat": 34.9688313, "lon": 45.0238702}, {"type": "node", "id": 7351401178, "lat": 34.9686801, "lon": 45.0241416}, {"type": "node", "id": 7351401179, "lat": 34.968609, "lon": 45.0244581}, {"type": "node", "id": 7351401180, "lat": 34.9701811, "lon": 45.0241803}, {"type": "node", "id": 7351401181, "lat": 34.9700385, "lon": 45.0239001}, {"type": "node", "id": 7351401182, "lat": 34.9698289, "lon": 45.0236918}, {"type": "node", "id": 7351401183, "lat": 34.9695751, "lon": 45.0235781}, {"type": "node", "id": 7351401184, "lat": 34.9693049, "lon": 45.0235714}, {"type": "node", "id": 7351504885, "lat": 34.9690476, "lon": 45.0236725}, {"type": "node", "id": 7351504886, "lat": 34.9686259, "lon": 45.0247856}, {"type": "node", "id": 7351504887, "lat": 34.9687287, "lon": 45.0250888}, {"type": "node", "id": 7351504888, "lat": 34.9689066, "lon": 45.025335}, {"type": "node", "id": 7351504889, "lat": 34.9691401, "lon": 45.0254977}, {"type": "node", "id": 7351504890, "lat": 34.9694043, "lon": 45.0255592}, {"type": "node", "id": 7351504891, "lat": 34.9696705, "lon": 45.025513}, {"type": "node", "id": 7351504892, "lat": 34.9699102, "lon": 45.025364}, {"type": "node", "id": 7351905858, "lat": 34.9613667, "lon": 44.989059}, {"type": "node", "id": 7351905859, "lat": 34.9606897, "lon": 44.9870957}, {"type": "node", "id": 7351905860, "lat": 34.9593971, "lon": 44.9880613}, {"type": "node", "id": 7351905861, "lat": 34.9578144, "lon": 44.9875999}, {"type": "node", "id": 7351905862, "lat": 34.9562185, "lon": 44.986997}, {"type": "node", "id": 7351905863, "lat": 34.9560577, "lon": 44.9876134}, {"type": "node", "id": 7351905864, "lat": 34.9583159, "lon": 44.9896122}, {"type": "node", "id": 7351905865, "lat": 34.9581169, "lon": 44.9901165}, {"type": "node", "id": 7351905866, "lat": 34.9585226, "lon": 44.9905648}, {"type": "node", "id": 7351905867, "lat": 34.9590737, "lon": 44.9904061}, {"type": "node", "id": 7351905868, "lat": 34.9594564, "lon": 44.991312}, {"type": "node", "id": 7351905869, "lat": 34.9598392, "lon": 44.991667}, {"type": "node", "id": 7351934831, "lat": 34.9385004, "lon": 45.0007356}, {"type": "node", "id": 7351934832, "lat": 34.9353437, "lon": 44.9977768}, {"type": "node", "id": 7351934833, "lat": 34.9361444, "lon": 44.9962196}, {"type": "node", "id": 7351934834, "lat": 34.9376996, "lon": 44.9950162}, {"type": "node", "id": 7351934835, "lat": 34.9392315, "lon": 44.9980458}, {"type": "node", "id": 7351934836, "lat": 34.9389414, "lon": 45.0001127}, {"type": "node", "id": 7352460459, "lat": 34.8095937, "lon": 44.9149889}, {"type": "node", "id": 7352460460, "lat": 34.802314, "lon": 44.9135747}, {"type": "node", "id": 7352460461, "lat": 34.8074417, "lon": 44.9171371}, {"type": "node", "id": 7352462269, "lat": 34.8626636, "lon": 45.0231145}, {"type": "node", "id": 7352462270, "lat": 34.8631701, "lon": 45.024194}, {"type": "node", "id": 7352462271, "lat": 34.8648117, "lon": 45.0175476}, {"type": "node", "id": 7352462272, "lat": 34.868267, "lon": 45.0225172}, {"type": "node", "id": 7352462273, "lat": 34.8651623, "lon": 45.0233036}, {"type": "node", "id": 7352509334, "lat": 34.8829468, "lon": 44.851835}, {"type": "node", "id": 7352509335, "lat": 34.8822113, "lon": 44.8564863}, {"type": "node", "id": 7352509336, "lat": 34.879928, "lon": 44.8622958}, {"type": "node", "id": 7352509337, "lat": 34.8769244, "lon": 44.8603717}, {"type": "node", "id": 7352509338, "lat": 34.8742732, "lon": 44.8534228}, {"type": "node", "id": 7352509339, "lat": 34.87412, "lon": 44.8521712}, {"type": "node", "id": 7352509340, "lat": 34.8789839, "lon": 44.847939}, {"type": "node", "id": 7352509341, "lat": 34.8804538, "lon": 44.8481751}, {"type": "node", "id": 7352509342, "lat": 34.8824341, "lon": 44.8476708}, {"type": "node", "id": 7352588449, "lat": 34.869465, "lon": 44.7669129, "tags": {"name": "\u062a\u0627\u0648\u06d5\u062f\u06ce", "name:ar": "\u062a\u0627\u0648\u062f\u064a", "name:en": "Tawade", "place": "village", "wikidata": "Q61391780", "wikipedia": "ckb:\u062a\u0627\u0648\u06d5\u062f\u06ce"}}, {"type": "node", "id": 7352606434, "lat": 34.9137408, "lon": 44.8275255}, {"type": "node", "id": 7352606435, "lat": 34.9120575, "lon": 44.8294509}, {"type": "node", "id": 7352606436, "lat": 34.9092249, "lon": 44.8239014}, {"type": "node", "id": 7352606437, "lat": 34.9089833, "lon": 44.8209998}, {"type": "node", "id": 7352606438, "lat": 34.9098289, "lon": 44.8204351}, {"type": "node", "id": 7352606439, "lat": 34.9117673, "lon": 44.8215231}, {"type": "node", "id": 7352606440, "lat": 34.9126626, "lon": 44.8222977}, {"type": "node", "id": 7352607034, "lat": 34.8964023, "lon": 44.8220415}, {"type": "node", "id": 7352607035, "lat": 34.8958303, "lon": 44.8234363}, {"type": "node", "id": 7352607036, "lat": 34.8963055, "lon": 44.8249812}, {"type": "node", "id": 7352607037, "lat": 34.8975111, "lon": 44.827009}, {"type": "node", "id": 7352607038, "lat": 34.8981182, "lon": 44.8286827}, {"type": "node", "id": 7352607039, "lat": 34.8978102, "lon": 44.8294874}, {"type": "node", "id": 7352607040, "lat": 34.8971855, "lon": 44.8290582}, {"type": "node", "id": 7352607041, "lat": 34.8960327, "lon": 44.8281248}, {"type": "node", "id": 7352607042, "lat": 34.8943432, "lon": 44.8273523}, {"type": "node", "id": 7352607043, "lat": 34.8940792, "lon": 44.8262687}, {"type": "node", "id": 7352607044, "lat": 34.8939032, "lon": 44.8248418}, {"type": "node", "id": 7352607045, "lat": 34.8940528, "lon": 44.8232217}, {"type": "node", "id": 7352607046, "lat": 34.8948448, "lon": 44.8220952}, {"type": "node", "id": 7352607047, "lat": 34.8959975, "lon": 44.8213549}, {"type": "node", "id": 7352636508, "lat": 34.9127362, "lon": 44.7929227}, {"type": "node", "id": 7352636509, "lat": 34.9121951, "lon": 44.7921073}, {"type": "node", "id": 7352636510, "lat": 34.9148961, "lon": 44.7894358}, {"type": "node", "id": 7352636511, "lat": 34.9150984, "lon": 44.7897899}, {"type": "node", "id": 7352636512, "lat": 34.9148873, "lon": 44.7916352}, {"type": "node", "id": 7352679949, "lat": 34.9188033, "lon": 44.7676351}, {"type": "node", "id": 7352679950, "lat": 34.9200217, "lon": 44.7638483}, {"type": "node", "id": 7352679951, "lat": 34.9184207, "lon": 44.7630818}, {"type": "node", "id": 7352679952, "lat": 34.9172016, "lon": 44.7668683}, {"type": "node", "id": 7352697286, "lat": 34.9155823, "lon": 44.7378086}, {"type": "node", "id": 7352697287, "lat": 34.912884, "lon": 44.7433545}, {"type": "node", "id": 7352697288, "lat": 34.9108729, "lon": 44.7450922}, {"type": "node", "id": 7352697289, "lat": 34.9097915, "lon": 44.7437242}, {"type": "node", "id": 7352697290, "lat": 34.909458, "lon": 44.7426767}, {"type": "node", "id": 7352697291, "lat": 34.9098117, "lon": 44.740828}, {"type": "node", "id": 7352697292, "lat": 34.9103372, "lon": 44.7384495}, {"type": "node", "id": 7352697293, "lat": 34.9119745, "lon": 44.7377963}, {"type": "node", "id": 7352697294, "lat": 34.9151073, "lon": 44.737291}, {"type": "node", "id": 7352719988, "lat": 34.9165274, "lon": 44.7780073}, {"type": "node", "id": 7352719989, "lat": 34.9169974, "lon": 44.775869}, {"type": "node", "id": 7352719990, "lat": 34.9155775, "lon": 44.7751912}, {"type": "node", "id": 7352719991, "lat": 34.9149105, "lon": 44.7773233}, {"type": "node", "id": 7352720446, "lat": 34.9133872, "lon": 44.7895109}, {"type": "node", "id": 7352722908, "lat": 34.9149921, "lon": 44.7836741}, {"type": "node", "id": 7352722909, "lat": 34.915083, "lon": 44.7822814}, {"type": "node", "id": 7352722910, "lat": 34.9138299, "lon": 44.7822198}, {"type": "node", "id": 7352722911, "lat": 34.913749, "lon": 44.7836494}, {"type": "node", "id": 7352736765, "lat": 34.924392, "lon": 44.8483124}, {"type": "node", "id": 7352736766, "lat": 34.9222977, "lon": 44.8512681}, {"type": "node", "id": 7352736767, "lat": 34.921672, "lon": 44.8458975}, {"type": "node", "id": 7352736768, "lat": 34.9224856, "lon": 44.8456528}, {"type": "node", "id": 7352741788, "lat": 34.9152975, "lon": 44.8493463}, {"type": "node", "id": 7352741789, "lat": 34.9140342, "lon": 44.850628}, {"type": "node", "id": 7352741790, "lat": 34.9131853, "lon": 44.8500488}, {"type": "node", "id": 7352741791, "lat": 34.9117907, "lon": 44.8481878}, {"type": "node", "id": 7352741792, "lat": 34.9115481, "lon": 44.8468075}, {"type": "node", "id": 7352741793, "lat": 34.9123667, "lon": 44.8460434}, {"type": "node", "id": 7352741794, "lat": 34.9136805, "lon": 44.847547}, {"type": "node", "id": 7352741795, "lat": 34.9146305, "lon": 44.8483604}, {"type": "node", "id": 7352743923, "lat": 34.9222697, "lon": 44.8542252}, {"type": "node", "id": 7352743924, "lat": 34.9221957, "lon": 44.8538169}, {"type": "node", "id": 7352743925, "lat": 34.9219583, "lon": 44.8530884}, {"type": "node", "id": 7352743926, "lat": 34.9216668, "lon": 44.8528036}, {"type": "node", "id": 7352743927, "lat": 34.9213102, "lon": 44.853202}, {"type": "node", "id": 7352743928, "lat": 34.9215968, "lon": 44.8538728}, {"type": "node", "id": 7352743929, "lat": 34.9220269, "lon": 44.8543972}, {"type": "node", "id": 7352747788, "lat": 34.9229003, "lon": 44.8523413}, {"type": "node", "id": 7352747789, "lat": 34.9236865, "lon": 44.8518674}, {"type": "node", "id": 7352747790, "lat": 34.9237891, "lon": 44.8467876}, {"type": "node", "id": 7352747791, "lat": 34.922108, "lon": 44.8492909}, {"type": "node", "id": 7352747792, "lat": 34.9233531, "lon": 44.8500363}, {"type": "node", "id": 7394336240, "lat": 34.8155825, "lon": 44.7084952}, {"type": "node", "id": 7394336241, "lat": 34.8156901, "lon": 44.7076954}, {"type": "node", "id": 7394336242, "lat": 34.8152077, "lon": 44.7075963}, {"type": "node", "id": 7394336243, "lat": 34.8149985, "lon": 44.7081661}, {"type": "node", "id": 7394360713, "lat": 34.7770468, "lon": 44.7651754}, {"type": "node", "id": 7394360714, "lat": 34.7766398, "lon": 44.7651436}, {"type": "node", "id": 7394360715, "lat": 34.7764654, "lon": 44.7648392}, {"type": "node", "id": 7394360716, "lat": 34.7768113, "lon": 44.7639721}, {"type": "node", "id": 7394360717, "lat": 34.7770526, "lon": 44.7637916}, {"type": "node", "id": 7394360718, "lat": 34.7773462, "lon": 44.7640322}, {"type": "node", "id": 7394360719, "lat": 34.7775235, "lon": 44.7645808}, {"type": "node", "id": 7394360736, "lat": 34.7808456, "lon": 44.7591541}, {"type": "node", "id": 7394360737, "lat": 34.7801245, "lon": 44.7595931}, {"type": "node", "id": 7394360738, "lat": 34.7795108, "lon": 44.7590887}, {"type": "node", "id": 7394360739, "lat": 34.7800171, "lon": 44.7577811}, {"type": "node", "id": 7394360740, "lat": 34.7807228, "lon": 44.7570526}, {"type": "node", "id": 7394360741, "lat": 34.7814286, "lon": 44.757146}, {"type": "node", "id": 7394360742, "lat": 34.7819886, "lon": 44.7578932}, {"type": "node", "id": 7394360743, "lat": 34.7824237, "lon": 44.7563921}, {"type": "node", "id": 7394360744, "lat": 34.7826655, "lon": 44.7565894}, {"type": "node", "id": 7395521839, "lat": 35.0362613, "lon": 44.9025969}, {"type": "node", "id": 7395521840, "lat": 35.0351443, "lon": 44.903094}, {"type": "node", "id": 7395521841, "lat": 35.0348928, "lon": 44.900756}, {"type": "node", "id": 7395521842, "lat": 35.0353448, "lon": 44.8997438}, {"type": "node", "id": 7395521843, "lat": 35.0361968, "lon": 44.8990572}, {"type": "node", "id": 7395521844, "lat": 35.0366315, "lon": 44.8997721}, {"type": "node", "id": 7395532690, "lat": 35.0434131, "lon": 44.8856097}, {"type": "node", "id": 7395532691, "lat": 35.0427068, "lon": 44.886152}, {"type": "node", "id": 7395532692, "lat": 35.0417987, "lon": 44.8853139}, {"type": "node", "id": 7395532693, "lat": 35.0399421, "lon": 44.8827135}, {"type": "node", "id": 7395532694, "lat": 35.0401741, "lon": 44.8814811}, {"type": "node", "id": 7395532695, "lat": 35.0407897, "lon": 44.8808033}, {"type": "node", "id": 7395532696, "lat": 35.0418088, "lon": 44.8821343}, {"type": "node", "id": 7395532697, "lat": 35.0427472, "lon": 44.8821343}, {"type": "node", "id": 7395532698, "lat": 35.043736, "lon": 44.8849935}, {"type": "node", "id": 7395532699, "lat": 35.0293539, "lon": 44.8979837}, {"type": "node", "id": 7395532700, "lat": 35.0290288, "lon": 44.8973615}, {"type": "node", "id": 7395532701, "lat": 35.0255585, "lon": 44.8964817}, {"type": "node", "id": 7395532702, "lat": 35.0255233, "lon": 44.8974258}, {"type": "node", "id": 7395532703, "lat": 35.0273771, "lon": 44.8987669}, {"type": "node", "id": 7395532704, "lat": 35.029143, "lon": 44.8984451}, {"type": "node", "id": 7395532705, "lat": 35.0263718, "lon": 44.8965139}, {"type": "node", "id": 7395586224, "lat": 35.0682505, "lon": 44.9211961}, {"type": "node", "id": 7395586225, "lat": 35.0689309, "lon": 44.9206217}, {"type": "node", "id": 7395586226, "lat": 35.0686939, "lon": 44.9202154}, {"type": "node", "id": 7395586227, "lat": 35.0680097, "lon": 44.9207431}, {"type": "node", "id": 7395683098, "lat": 35.0305431, "lon": 44.9330231}, {"type": "node", "id": 7395683099, "lat": 35.0293882, "lon": 44.934639}, {"type": "node", "id": 7395683100, "lat": 35.0283787, "lon": 44.9335742}, {"type": "node", "id": 7395683101, "lat": 35.0301989, "lon": 44.931865}, {"type": "node", "id": 7395827567, "lat": 34.9862846, "lon": 45.043588}, {"type": "node", "id": 7395827568, "lat": 34.9871529, "lon": 45.040889}, {"type": "node", "id": 7395827569, "lat": 34.986537, "lon": 45.0405069}, {"type": "node", "id": 7395827570, "lat": 34.9847094, "lon": 45.0420228}, {"type": "node", "id": 7395827571, "lat": 34.9850931, "lon": 45.0426637}, {"type": "node", "id": 7395827572, "lat": 34.9855172, "lon": 45.0431197}, {"type": "node", "id": 7396905624, "lat": 34.8787388, "lon": 44.8542569, "tags": {"name": "\u0632\u0646\u062f\u0627\u0646\u06d5\u06cc \u06af\u06d5\u0648\u0631\u06d5", "name:ar": "\u0632\u0646\u0627\u0646\u0629 \u0627\u0644\u06a9\u0628\u0631\u06cc", "name:en": "Zinana Big", "place": "town", "wikidata": "Q61391747", "wikipedia": "ckb:\u0632\u06cc\u0646\u0627\u0646\u06d5\u06cc \u06af\u06d5\u0648\u0631\u06d5"}}, {"type": "node", "id": 7416385653, "lat": 34.931692, "lon": 44.8729096}, {"type": "node", "id": 7416385654, "lat": 34.9314502, "lon": 44.8733319}, {"type": "node", "id": 7416385655, "lat": 34.9307694, "lon": 44.8727768}, {"type": "node", "id": 7416385656, "lat": 34.9309934, "lon": 44.8723456}, {"type": "node", "id": 7423530352, "lat": 34.9529627, "lon": 44.9355547}, {"type": "node", "id": 7423530353, "lat": 34.9522814, "lon": 44.9360451}, {"type": "node", "id": 7423530354, "lat": 34.9521933, "lon": 44.9355267}, {"type": "node", "id": 7423530355, "lat": 34.9526756, "lon": 44.9351485}, {"type": "node", "id": 7423530356, "lat": 34.952176, "lon": 44.9359843}, {"type": "node", "id": 7486912041, "lat": 35.1094677, "lon": 44.6616087, "tags": {"name": "\u0642\u06d5\u06b5\u063a\u0627\u0646\u0644\u0648\u06cc \u06af\u06d5\u0648\u0631\u06d5", "name:ar": "\u0642\u0644\u063a\u0627\u0646\u0644\u0648 \u0627\u0644\u06a9\u0628\u06cc\u0631", "name:en": "Great Qalghanlu", "place": "village", "wikidata": "Q61391850", "wikipedia": "ckb:\u0642\u06d5\u06b5\u063a\u0627\u0646\u0644\u0648\u06cc \u06af\u06d5\u0648\u0631\u06d5"}}, {"type": "node", "id": 7486912042, "lat": 35.0839718, "lon": 44.6931551, "tags": {"name": "\u0642\u06d5\u06b5\u063a\u0627\u0646\u0644\u0648\u06cc \u0628\u0686\u0648\u06a9", "name:ar": "\u0642\u0644\u063a\u0627\u0646\u0644\u0648 \u0627\u0644\u0635\u063a\u06cc\u0631", "name:en": "Littel Qalghanlu", "place": "village", "wikidata": "Q61391848", "wikipedia": "ckb:\u0642\u06d5\u06b5\u063a\u0627\u0646\u0644\u0648\u06cc \u0628\u0686\u0648\u06a9"}}, {"type": "node", "id": 7515454031, "lat": 35.0917949, "lon": 44.7664201}, {"type": "node", "id": 7515454032, "lat": 35.0914679, "lon": 44.766286}, {"type": "node", "id": 7515454033, "lat": 35.0912814, "lon": 44.766565}, {"type": "node", "id": 7515454034, "lat": 35.0912594, "lon": 44.766624}, {"type": "node", "id": 7515454035, "lat": 35.091277, "lon": 44.7666776}, {"type": "node", "id": 7515454036, "lat": 35.0913033, "lon": 44.7666991}, {"type": "node", "id": 7515454037, "lat": 35.0913428, "lon": 44.7666696}, {"type": "node", "id": 7515454038, "lat": 35.0913955, "lon": 44.7666642}, {"type": "node", "id": 7515454039, "lat": 35.0916194, "lon": 44.7667098}, {"type": "node", "id": 7515454040, "lat": 35.0917071, "lon": 44.7667232}, {"type": "node", "id": 7515588138, "lat": 35.0444096, "lon": 44.6002745, "tags": {"name": "\u0626\u0627\u063a\u0632\u06d5\u0645\u06d5\u0631\u0634\u0646", "name:ar": "\u0623\u063a\u0632\u0627\u0645\u0631\u0634\u0646", "name:en": "Aghzamershan", "place": "village", "wikidata": "Q61391749", "wikipedia": "ckb:\u0626\u0627\u063a\u0632\u06d5\u0645\u06d5\u0631\u0634\u0646"}}, {"type": "node", "id": 7560238635, "lat": 34.9184629, "lon": 44.7653259, "tags": {"name": "\u0633\u06d5\u0641\u06d5\u0631\u0628\u06d5\u06cc\u0627\u062a", "name:ar": "\u0633\u0641\u0631\u0628\u0627\u064a\u0627\u062a", "name:en": "Safarbayat", "place": "village", "wikidata": "Q61391825", "wikipedia": "ckb:\u0633\u06d5\u0641\u06d5\u0631\u0628\u06d5\u06cc\u0627\u062a"}}, {"type": "node", "id": 7560238636, "lat": 34.9228285, "lon": 44.758641, "tags": {"name": "\u0628\u0627\u0634\u062a\u06d5\u067e\u06d5\u06cc \u0628\u0686\u0648\u0648\u06a9", "name:ar": "\u0628\u0627\u0634\u062a\u0628\u0629 \u0627\u0644\u0635\u063a\u064a\u0631\u0629", "name:en": "Little Bashtapa", "place": "village", "wikidata": "Q61391764", "wikipedia": "ckb:\u0628\u0627\u0634\u062a\u06d5\u067e\u06d5\u06cc \u0628\u0686\u0648\u0648\u06a9"}}, {"type": "node", "id": 7560371807, "lat": 34.8919124, "lon": 44.9006319, "tags": {"name": "\u0632\u06cc\u0646\u0627\u0646\u06d5\u06cc \u0628\u0686\u0648\u0648\u06a9", "name:ar": "\u0632\u06cc\u0646\u0627\u0646\u0629 \u0635\u063a\u06cc\u0631", "name:en": "Little Zinana", "place": "village", "wikidata": "Q61391809", "wikipedia": "ckb:\u0632\u06cc\u0646\u0627\u0646\u06d5\u06cc \u0628\u0686\u0648\u06a9"}}, {"type": "node", "id": 7591613184, "lat": 34.9792372, "lon": 44.7650254, "tags": {"name": "\u0646\u06d5\u0648\u062c\u0648\u0644", "name:ar": "\u0646\u0648\u062c\u0648\u0644", "name:en": "Nawjul", "place": "village", "wikidata": "Q61391885", "wikipedia": "ckb:\u0646\u06d5\u0648\u062c\u0648\u0644"}}, {"type": "node", "id": 7643769261, "lat": 35.1207801, "lon": 44.8659165, "tags": {"name": "\u0645\u0627\u0645 \u06cc\u0648\u0633\u06a9", "name:ar": "\u0645\u0627\u0645\u06cc\u0633\u06a9", "name:en": "Mamisk", "place": "village", "wikidata": "Q65404370", "wikipedia": "ckb:\u0645\u0627\u0645\u06cc\u0633\u06a9"}}, {"type": "node", "id": 7649536221, "lat": 35.1781872, "lon": 44.7391782, "tags": {"name": "\u067e\u0627\u0631\u06cc\u0627\u0648\u06b5\u06d5", "place": "village"}}, {"type": "node", "id": 8038748906, "lat": 35.015571, "lon": 44.938298, "tags": {"name": "\u0626\u0627\u0648\u0628\u0627\u0631\u06cc\u06a9", "name:ar": "\u0622\u0648\u0628\u0627\u0631\u06cc\u06a9", "name:en": "Awbarik", "place": "village", "wikidata": "Q65403486", "wikipedia": "ckb:\u0626\u0627\u0648\u0628\u0627\u0631\u06cc\u06a9\u060c \u0642\u0627\u062f\u0631\u06a9\u06d5\u0631\u06d5\u0645"}}, {"type": "node", "id": 8491829184, "lat": 34.7865572, "lon": 45.0202499}, {"type": "node", "id": 8491829185, "lat": 34.7862021, "lon": 45.0179356}, {"type": "node", "id": 8491829186, "lat": 34.7849751, "lon": 45.0165632}, {"type": "node", "id": 8491829187, "lat": 34.7845493, "lon": 45.0170612}, {"type": "node", "id": 8491829188, "lat": 34.7835809, "lon": 45.0173545}, {"type": "node", "id": 8491829189, "lat": 34.78309, "lon": 45.0192038}, {"type": "node", "id": 8491829190, "lat": 34.7847929, "lon": 45.0200818}, {"type": "node", "id": 8491829191, "lat": 34.7858822, "lon": 45.0210158}, {"type": "node", "id": 8491829192, "lat": 34.7857501, "lon": 45.0168109}, {"type": "node", "id": 8579773138, "lat": 35.0672225, "lon": 44.7176301, "tags": {"name": "\u0645\u06cc\u0644 \u0646\u0627\u0633\u0631", "name:ar": "\u0645\u06cc\u0644 \u0646\u0627\u0635\u0631", "name:en": "Mil Nasser", "place": "village", "wikidata": "Q61391881", "wikipedia": "ckb:\u0645\u06cc\u0644 \u0646\u0627\u0633\u0631"}}, {"type": "node", "id": 8829502693, "lat": 34.8653247, "lon": 45.0212142, "tags": {"name": "\u062a\u0648\u06a9\u0646", "name:ar": "\u062a\u0648\u06a9\u0646", "name:en": "Tukn", "place": "village", "wikidata": "Q61391687", "wikipedia": "ckb:\u062a\u0648\u06a9\u0646"}}, {"type": "node", "id": 9199630591, "lat": 34.866172, "lon": 44.5930283, "tags": {"name": "\u0642\u0631\u064a\u0629 \u0627\u0644\u0633\u0644\u0627\u0645", "place": "village"}}, {"type": "node", "id": 9362493703, "lat": 34.8211934, "lon": 44.7284792, "tags": {"name": "\u0633\u06d5\u0631\u0686\u0646\u0627\u0631", "name:ar": "\u0633\u0631\u062c\u0646\u0627\u0631", "name:en": "Sarchnar", "place": "village", "wikidata": "Q61391818", "wikipedia": "ckb:\u0633\u06d5\u0631\u0686\u0646\u0627\u0631\u060c \u0646\u06d5\u0648\u062c\u0648\u0644"}}, {"type": "node", "id": 9362501985, "lat": 34.9117381, "lon": 44.7409125, "tags": {"name": "\u0642\u06d5\u06b5\u0627", "name:ar": "\u0642\u0644\u0627", "name:en": "Qala", "place": "village", "wikidata": "Q61391843", "wikipedia": "ckb:\u0642\u06d5\u06b5\u0627\u060c \u0646\u06d5\u0648\u062c\u0648\u0644"}}, {"type": "node", "id": 9362514135, "lat": 34.9257972, "lon": 44.867327, "tags": {"name": "\u06af\u06d5\u0631\u0645\u06a9", "name:ar": "\u06a9\u0631\u0645\u06a9", "name:en": "Garmk", "place": "village", "wikidata": "Q61391865", "wikipedia": "ckb:\u06af\u06d5\u0631\u0645\u06a9\u060c \u0646\u06d5\u0648\u062c\u0648\u0644"}}, {"type": "node", "id": 9362523661, "lat": 34.9446285, "lon": 44.9025995, "tags": {"name": "\u062e\u06c6\u0631\u0646\u06d5\u0648\u0627\u0632\u0627\u0646", "name:ar": "\u062e\u0648\u0631\u0646\u0648\u0627\u0632\u0627\u0646", "name:en": "Khornawazan", "place": "village", "wikidata": "Q61391804", "wikipedia": "ckb:\u062e\u06c6\u0631\u0646\u06d5\u0648\u0627\u0632\u0627\u0646"}}, {"type": "node", "id": 9362569908, "lat": 34.8389949, "lon": 44.7401318, "tags": {"name": "\u067e\u06d5\u06b5\u06a9\u0627\u0646\u06d5\u06cc \u0633\u0627\u062f\u06d5", "name:ar": "\u0628\u0644\u06a9\u0627\u0646\u0629 \u0633\u0627\u062f\u0629", "name:en": "Palkana Sada", "place": "village", "wikidata": "Q61391773", "wikipedia": "ckb:\u067e\u06d5\u06b5\u06a9\u0627\u0646\u06d5\u06cc \u0633\u0627\u062f\u06d5"}}, {"type": "node", "id": 9369459868, "lat": 35.108082, "lon": 44.8185309, "tags": {"name": "\u0626\u0627\u0648\u0627\u06cc\u06cc \u062c\u06d5\u0644\u0627\u0644", "name:ar": "\u0622\u0648\u0627\u064a \u062c\u0644\u0627\u0644", "name:en": "Awayi Jalal", "place": "village", "wikidata": "Q65403474", "wikipedia": "ckb:\u0626\u0627\u0648\u0627\u06cc\u06cc \u062c\u06d5\u0644\u0627\u0644"}}, {"type": "node", "id": 9369463509, "lat": 35.0686572, "lon": 44.8126331, "tags": {"name": "\u0639\u06d5\u0632\u06cc\u0632 \u0628\u06d5\u06af", "name:en": "Azizbag", "place": "village", "wikidata": "Q65403477", "wikipedia": "ckb:\u0626\u0627\u0648\u0627\u06cc\u06cc \u0639\u06d5\u0632\u06cc\u0632\u0628\u06d5\u06af"}}, {"type": "node", "id": 9369474234, "lat": 35.0897861, "lon": 44.8404569, "tags": {"name": "\u062a\u0627\u0632\u06d5\u0634\u0627\u0631", "name:ar": "\u062a\u0627\u0632\u0629\u0634\u0627\u0631", "name:en": "Tazashar", "place": "village", "wikidata": "Q65403508", "wikipedia": "ckb:\u062a\u0627\u0632\u06d5\u0634\u0627\u0631\u060c \u0642\u0627\u062f\u0631\u06a9\u06d5\u0631\u06d5\u0645"}}, {"type": "node", "id": 9369481712, "lat": 35.0034354, "lon": 44.6741305, "tags": {"name": "\u0642\u0648\u0634\u0644\u0627\u0646", "place": "village"}}, {"type": "node", "id": 9369481965, "lat": 35.0156532, "lon": 44.7261725, "tags": {"name": "\u06af\u06c6\u0645\u06d5\u06cc\u06cc", "place": "village"}}, {"type": "node", "id": 9369516806, "lat": 35.0733963, "lon": 44.7621468, "tags": {"name": "\u0686\u0627\u06b5\u06d5\u0648\u062f\u0648\u0627\u0646\u06d5", "name:ar": "\u062c\u0627\u0644\u0629\u0648\u062f\u0648\u0627\u0646\u0629", "name:en": "Chalawdwana", "place": "village", "wikidata": "Q65403696", "wikipedia": "ckb:\u0686\u0627\u06b5\u06d5\u0648\u062f\u0648\u0627\u0646\u06d5"}}, {"type": "node", "id": 9369634185, "lat": 34.9790709, "lon": 44.5632297, "tags": {"name": "\u062e\u062f\u0631\u0648\u06d5\u0644\u06cc", "name:ar": "\u062e\u0636\u0631\u0648\u0627\u0644\u064a", "name:en": "Khadrwali", "place": "village", "wikidata": "Q61391802", "wikipedia": "ckb:\u062e\u062f\u0631\u0648\u06d5\u0644\u06cc"}}, {"type": "node", "id": 9369788952, "lat": 35.0209705, "lon": 44.7656668, "tags": {"name": "\u062a\u0627\u06b5\u0627\u0648", "name:ar": "\u062a\u0627\u0644\u0627\u0648", "name:en": "Talaw", "place": "village", "wikidata": "Q61391775", "wikipedia": "ckb:\u062a\u0627\u06b5\u0627\u0648"}}, {"type": "node", "id": 9369879178, "lat": 34.9859992, "lon": 44.7355098, "tags": {"name": "\u0642\u06c6\u0645\u0628\u06d5\u0644\u06d5\u06a9", "name:ar": "\u0642\u0648\u0645\u0628\u0644\u06a9", "name:en": "Qumbalak", "place": "village", "wikidata": "Q61391855", "wikipedia": "ckb:\u0642\u06c6\u0645\u0628\u06d5\u0644\u06d5\u06a9"}}, {"type": "node", "id": 9369918568, "lat": 34.949367, "lon": 44.7153835, "tags": {"name": "\u0634\u06ce\u062e \u062d\u06d5\u0648\u06ce\u0632\u06cc", "name:ar": "\u0627\u0644\u0634\u064a\u062e \u0627\u0644\u062d\u0648\u064a\u0632\u064a", "name:en": "Sheikh Hawezi", "place": "village", "wikidata": "Q61391834", "wikipedia": "ckb:\u0634\u06ce\u062e \u062d\u06d5\u0648\u06ce\u0632\u06cc"}}, {"type": "node", "id": 9369925216, "lat": 34.9694938, "lon": 44.8238945, "tags": {"name": "\u0639\u0648\u0645\u06d5\u0631\u0633\u06c6\u0641\u06cc", "name:ar": "\u0639\u0645\u0631\u0635\u0648\u0641\u064a", "name:en": "Omar Sofi", "place": "village", "wikidata": "Q61391840", "wikipedia": "ckb:\u0639\u0648\u0645\u06d5\u0631\u0633\u06c6\u0641\u06cc"}}, {"type": "node", "id": 9369925294, "lat": 34.9698549, "lon": 45.0243003, "tags": {"name": "\u0628\u0627\u0646\u0632\u06cc\u062e\u0686\u0627\u06b5", "place": "village"}}, {"type": "node", "id": 9369949067, "lat": 34.9276316, "lon": 44.9959126, "tags": {"name": "\u0642\u06d5\u06b5\u0627 \u0686\u06d5\u0631\u0645\u06d5\u06b5\u06d5", "name:ar": "\u0642\u0644\u0627\u062c\u0631\u0645\u0644\u0629", "name:en": "Qala Charmala", "place": "village", "wikidata": "Q61391569", "wikipedia": "ckb:\u0642\u06d5\u06b5\u0627\u0686\u06d5\u0695\u0645\u06d5\u06b5\u06d5"}}, {"type": "node", "id": 9369949135, "lat": 34.959041, "lon": 44.9889527, "tags": {"name": "\u0642\u06d5\u0648\u0627\u06b5\u06cc", "name:ar": "\u0642\u0648\u0627\u0644\u06cc", "name:en": "Qawalli", "place": "village", "wikidata": "Q61391568", "wikipedia": "ckb:\u0642\u06d5\u0648\u0627\u06b5\u06cc"}}, {"type": "node", "id": 9369954766, "lat": 34.9111305, "lon": 44.8245069, "tags": {"name": "\u06a9\u06c6\u0634\u06a9\u06cc \u0628\u06d5\u0631\u06d5\u0648\u0645\u0646\u0627\u0631\u06d5", "name:ar": "\u06a9\u0648\u0634\u06a9\u064a \u0628\u0631\u0648\u0645\u0646\u0627\u0631\u0629", "name:en": "Koshki Baraw Mnara", "place": "village", "wikidata": "Q61391858", "wikipedia": "ckb:\u06a9\u06c6\u0634\u06a9\u06cc \u0628\u06d5\u0631\u06d5\u0648\u0645\u0646\u0627\u0631\u06d5"}}, {"type": "node", "id": 9369964529, "lat": 34.921762, "lon": 44.8535262, "tags": {"name": "\u0648\u0627\u0631\u0627\u0646\u06cc \u0633\u06d5\u0631\u0648\u0648", "name:ar": "\u0648\u0631\u0627\u0646 \u0627\u0644\u0639\u0644\u064a\u0627", "name:en": "Upper Waran", "place": "village", "wikidata": "Q61391894", "wikipedia": "ckb:\u0648\u0627\u0631\u0627\u0646\u06cc \u0633\u06d5\u0631\u0648\u0648"}}, {"type": "node", "id": 9369966089, "lat": 34.9374381, "lon": 44.9977642, "tags": {"name": "\u067e\u06cc\u0631\u0645\u06c6\u0646\u06cc", "name:ar": "\u0628\u06cc\u0631\u0645\u0648\u0646\u06cc", "name:en": "Pirmony", "place": "village", "wikidata": "Q61391591", "wikipedia": "ckb:\u067e\u06cc\u0631\u0645\u06c6\u0646\u06cc"}}, {"type": "node", "id": 9369981002, "lat": 34.9136498, "lon": 44.790953, "tags": {"name": "\u0686\u0646\u0627\u0631\u06d5", "name:ar": "\u062c\u0646\u0627\u0631\u0629", "name:en": "Chenara", "place": "village", "wikidata": "Q61391789", "wikipedia": "ckb:\u0686\u0646\u0627\u0631\u06d5\u060c \u0646\u06d5\u0648\u062c\u0648\u0644"}}, {"type": "node", "id": 9370049684, "lat": 34.8071356, "lon": 44.9147488, "tags": {"name": "\u0628\u06d5\u0644\u06d5\u06a9\u06d5\u06cc \u0628\u0686\u0648\u06a9", "name:ar": "\u0628\u0644\u06a9\u0629 \u0635\u063a\u06cc\u0631", "name:en": "Little Balaka", "place": "village", "wikidata": "Q61391681", "wikipedia": "ckb:\u0628\u06d5\u0644\u06d5\u06a9\u06d5\u06cc \u0628\u0686\u0648\u06a9"}}, {"type": "node", "id": 9370081888, "lat": 34.7880139, "lon": 44.9939408, "tags": {"name": "\u0626\u06c6\u0645\u06d5\u0631\u0645\u0644", "place": "village"}}, {"type": "node", "id": 9370139256, "lat": 35.1754023, "lon": 44.6559672, "tags": {"name": "\u062a\u06d5\u067e\u06d5 \u0633\u06d5\u0648\u0632", "name:ckb": "\u062a\u06d5\u067e\u06d5 \u0633\u06d5\u0648\u0632", "name:en": "Tapa Sawz", "name:ku": "Tepe Sewiz", "place": "village"}}, {"type": "node", "id": 9370141503, "lat": 35.1960005, "lon": 44.7927047, "tags": {"name": "\u0639\u06d5\u0644\u06cc \u0645\u0633\u062a\u06d5\u0641\u0627", "name:ar": "\u0639\u0644\u064a \u0645\u0635\u0637\u0641\u0649", "name:en": "Ali Mustafa", "place": "village", "wikidata": "Q65403482", "wikipedia": "ckb:\u0626\u0627\u0648\u0627\u06cc\u06cc \u0639\u06d5\u0644\u06cc \u0645\u0633\u062a\u06d5\u0641\u0627"}}, {"type": "node", "id": 9372804958, "lat": 34.8983729, "lon": 45.0712583, "tags": {"name": "\u06be\u06d5\u0632\u0627\u0631\u06a9\u0627\u0646\u06cc", "name:ar": "\u0647\u0632\u0627\u0631\u06a9\u0627\u0646\u064a", "name:en": "Hazarkani", "place": "village", "wikidata": "Q61391346", "wikipedia": "ckb:\u06be\u06d5\u0632\u0627\u0631\u06a9\u0627\u0646\u06cc\u060c \u0695\u0632\u06af\u0627\u0631\u06cc"}}, {"type": "node", "id": 9372823554, "lat": 34.8205665, "lon": 44.8255888, "tags": {"name": "\u062f\u0648\u0695\u0627\u062c\u06cc", "name:ar": "\u062f\u0648\u0631\u0627\u062c\u064a", "name:en": "Duraji", "place": "village", "wikidata": "Q61391803", "wikipedia": "ckb:\u062f\u0648\u0695\u0627\u062c\u06cc"}}, {"type": "node", "id": 9372825089, "lat": 34.9688146, "lon": 44.9957259}, {"type": "node", "id": 9372825090, "lat": 34.968987, "lon": 44.9961418}, {"type": "node", "id": 9372825091, "lat": 34.9689747, "lon": 44.9966678}, {"type": "node", "id": 9372825092, "lat": 34.9691102, "lon": 44.9969985}, {"type": "node", "id": 9372825093, "lat": 34.9693811, "lon": 44.9971188}, {"type": "node", "id": 9372825094, "lat": 34.9695618, "lon": 44.9973893}, {"type": "node", "id": 9372825095, "lat": 34.9694345, "lon": 44.9979605}, {"type": "node", "id": 9372825096, "lat": 34.9691553, "lon": 44.9983663}, {"type": "node", "id": 9372825097, "lat": 34.9689295, "lon": 44.9984164}, {"type": "node", "id": 9372825098, "lat": 34.9687735, "lon": 44.9982411}, {"type": "node", "id": 9372825099, "lat": 34.9686462, "lon": 44.9981158}, {"type": "node", "id": 9372825100, "lat": 34.9686298, "lon": 44.99771}, {"type": "node", "id": 9372825101, "lat": 34.9685518, "lon": 44.9976649}, {"type": "node", "id": 9372825102, "lat": 34.9685682, "lon": 44.9975146}, {"type": "node", "id": 9372825103, "lat": 34.9682398, "lon": 44.9973042}, {"type": "node", "id": 9372825104, "lat": 34.9683096, "lon": 44.9970386}, {"type": "node", "id": 9372825105, "lat": 34.9683711, "lon": 44.9966478}, {"type": "node", "id": 9372825106, "lat": 34.9684943, "lon": 44.9961919}, {"type": "node", "id": 9372825107, "lat": 34.9686052, "lon": 44.9958913}, {"type": "node", "id": 9372825108, "lat": 34.9686709, "lon": 44.995761}, {"type": "node", "id": 9388085923, "lat": 34.9143474, "lon": 44.7829473, "tags": {"name": "\u06af\u06c6\u0645\u06d5\u062a\u06d5\u067e\u0648\u0631", "name:ar": "\u06a9\u0648\u0645\u062a\u0629\u0628\u0648\u0631", "name:en": "Gometapur", "place": "village", "wikidata": "Q61391866", "wikipedia": "ckb:\u06af\u06c6\u0645\u06d5\u062a\u06d5\u067e\u0648\u0631"}}, {"type": "node", "id": 9388127247, "lat": 34.8990924, "lon": 44.8026672, "tags": {"name": "\u0633\u0627\u06b5\u06d5\u06cc\u06cc", "name:ar": "\u0633\u0627\u0644\u0629\u064a", "name:en": "Salayi", "place": "village", "wikidata": "Q61391811", "wikipedia": "ckb:\u0633\u0627\u06b5\u06d5\u06cc\u06cc"}}, {"type": "node", "id": 9388135192, "lat": 34.929197, "lon": 44.7391958, "tags": {"name": "\u0626\u06cc\u0645\u0627\u0645 \u0645\u062d\u06d5\u0645\u06d5\u062f", "name:ar": "\u0627\u0645\u0627\u0645 \u0645\u062d\u0645\u062f", "name:en": "Imam Mohammed", "place": "village", "wikidata": "Q61391761", "wikipedia": "ckb:\u0626\u06cc\u0645\u0627\u0645 \u0645\u062d\u06d5\u0645\u06d5\u062f \u0695\u06d5\u0634\u06cc\u062f \u0626\u0627\u063a\u0627"}}, {"type": "node", "id": 9388138223, "lat": 34.8965766, "lon": 44.8270065, "tags": {"name": "\u0686\u06d5\u0648\u0631\u06cc", "place": "village"}}, {"type": "node", "id": 9388143622, "lat": 34.902416, "lon": 44.7782674, "tags": {"name": "\u062a\u06d5\u067e\u06d5\u0686\u06d5\u0631\u0645\u0648\u06a9", "name:ar": "\u062a\u0628\u0629 \u062c\u0631\u0645\u0648\u06a9", "name:en": "Tepacharmuk", "place": "village", "wikidata": "Q61391786", "wikipedia": "ckb:\u062a\u06d5\u067e\u06d5\u0686\u06d5\u0631\u0645\u0648\u06a9"}}, {"type": "node", "id": 9388156751, "lat": 34.8799666, "lon": 44.7005818, "tags": {"name": "\u0634\u06c6\u0631\u0627\u0648", "place": "village"}}, {"type": "node", "id": 9388161014, "lat": 34.9097585, "lon": 44.8026925, "tags": {"name": "\u0639\u06d5\u0631\u06d5\u0628 \u0626\u0627\u063a\u0627", "name:ar": "\u0639\u0631\u0628 \u0622\u063a\u0627", "name:en": "Arab Agha", "place": "village", "wikidata": "Q61391837", "wikipedia": "ckb:\u0639\u06d5\u0631\u06d5\u0628 \u0626\u0627\u063a\u0627"}}, {"type": "node", "id": 9388174977, "lat": 34.92015, "lon": 44.754537, "tags": {"name": "\u0626\u0627\u0648\u0627\u06cc\u06cc \u0646\u0627\u0645\u06cc\u0642", "name:ar": "\u0642\u0631\u064a\u0629 \u0646\u0627\u0645\u0642", "name:en": "Namiq village", "place": "village", "wikidata": "Q61391762", "wikipedia": "ckb:\u0626\u0627\u0648\u0627\u06cc\u06cc \u0646\u0627\u0645\u06cc\u0642"}}, {"type": "node", "id": 9388184165, "lat": 34.8749189, "lon": 44.7613303, "tags": {"name": "\u0645\u06d5\u062d\u0645\u0648\u062f\u0628\u06d5\u06af", "name:ar": "\u0645\u062d\u0645\u0648\u062f \u0628\u064a\u06a9", "name:en": "Mahmud Beg", "place": "village", "wikidata": "Q61391882", "wikipedia": "ckb:\u0645\u06d5\u062d\u0645\u0648\u062f\u0628\u06d5\u06af"}}, {"type": "node", "id": 9388216544, "lat": 34.8544078, "lon": 44.7708396, "tags": {"name": "\u067e\u06d5\u06b5\u06a9\u0627\u0646\u06d5\u06cc \u0633\u0627\u0644\u0645", "name:ar": "\u0628\u0644\u06a9\u0627\u0646\u0629 \u0633\u0627\u0644\u0645", "name:en": "Palkana Salm", "place": "village", "wikidata": "Q61391777", "wikipedia": "ckb:\u067e\u06d5\u06b5\u06a9\u0627\u0646\u06d5\u06cc \u0633\u0627\u0644\u0645"}}, {"type": "node", "id": 9388219381, "lat": 34.8457014, "lon": 44.8413893, "tags": {"name": "\u0686\u0648\u0627\u0631\u0695\u0648\u0648", "name:ar": "\u062c\u0648\u0627\u0631 \u0631\u0648", "name:en": "Chwar Roo", "place": "village", "wikidata": "Q61391795", "wikipedia": "ckb:\u0686\u0648\u0627\u0631\u0695\u0648\u0648\u060c \u0646\u06d5\u0648\u062c\u0648\u0644"}}, {"type": "node", "id": 9388223726, "lat": 34.9085838, "lon": 44.8076022, "tags": {"name": "\u0644\u0648\u062a\u0641\u06cc \u0626\u0627\u063a\u0627", "name:ar": "\u0644\u0637\u0641\u064a \u0622\u063a\u0627", "name:en": "Lutfi Agha", "place": "village", "wikidata": "Q61391880", "wikipedia": "ckb:\u0644\u0648\u062a\u0641\u06cc \u0626\u0627\u063a\u0627"}}, {"type": "node", "id": 9424460212, "lat": 35.1919754, "lon": 44.8315531, "tags": {"name": "\u0642\u06d5\u0631\u06d5\u0686\u06ce\u0648\u0627\u0631", "name:ar": "\u0642\u0631\u0629\u062c\u06cc\u0648\u0627\u0631", "name:en": "Qarachewar", "place": "village", "wikidata": "Q65403651", "wikipedia": "ckb:\u0642\u06d5\u0631\u06d5\u0686\u06ce\u0648\u0627\u0631"}}, {"type": "node", "id": 9662831899, "lat": 34.7951162, "lon": 44.6667158, "tags": {"alt_name": "Silem\u0101n Bag, \u0633\u0644\u06cc\u0645\u0627\u0646 \u0628\u06a9, Sileman Beg, \u0633\u0644\u06ce\u0645\u0627\u0646 \u0628\u06d5\u06af", "int_name": "Sulaiman Beg", "name": "\u0633\u0644\u064a\u0645\u0627\u0646 \u0628\u064a\u0643", "name:ar": "\u0633\u0644\u06cc\u0645\u0627\u0646 \u0628\u064a\u0643", "name:ckb": "\u0633\u0644\u06ce\u0645\u0627\u0646 \u0628\u06d5\u06af", "name:de": "Sulaiman Bek", "name:en": "Sulaiman Bek", "name:fr": "Sulaiman Bek", "name:ku": "Sil\u00eaman Beg", "name:ru": "\u0421\u0443\u043b\u0435\u0439\u043c\u0430\u043d-\u0411\u0435\u0433", "name:tr": "S\u00fcleyman Beg", "place": "town", "wikidata": "Q12216705", "wikipedia": "ar:\u0633\u0644\u064a\u0645\u0627\u0646 \u0628\u064a\u0643"}}, {"type": "node", "id": 11054340357, "lat": 34.9158707, "lon": 44.7766372, "tags": {"name": "\u0628\u0627\u0634\u062a\u06d5\u067e\u06d5\u06cc \u06af\u06d5\u0648\u0631\u06d5", "name:ar": "\u0628\u0627\u0634\u062a\u0628\u0629 \u0627\u0644\u0639\u0638\u064a\u0645\u0629", "name:en": "Great Bashtapa", "place": "village", "wikidata": "Q61391772", "wikipedia": "ckb:\u0628\u0627\u0634\u062a\u06d5\u067e\u06d5\u06cc \u06af\u06d5\u0648\u0631\u06d5"}}, {"type": "node", "id": 11174570219, "lat": 35.1474228, "lon": 44.7590724, "tags": {"name": "\u0698\u0627\u0698", "name:ar": "\u0632\u0627\u0632", "name:ckb": "\u0698\u0627\u0698", "name:en": "Zhazh", "name:ku": "Jaj", "place": "village", "wikidata": "Q65403711", "wikipedia": "ckb:\u0698\u0627\u0698"}}, {"type": "node", "id": 11174575169, "lat": 35.1258821, "lon": 44.7890584, "tags": {"name": "\u06a9\u06c6\u0631\u0645\u06c6\u0631\u06cc \u06af\u06d5\u0648\u0631\u06d5", "name:ar": "\u06a9\u0648\u0631\u0645\u0648\u0631 \u06a9\u0628\u0631\u06cc", "name:en": "Big Kormor", "place": "village", "wikidata": "Q65403742", "wikipedia": "ckb:\u06a9\u06c6\u0631\u0645\u06c6\u0631\u06cc \u06af\u06d5\u0648\u0631\u06d5"}}, {"type": "node", "id": 11174617653, "lat": 35.1182412, "lon": 44.8001402, "tags": {"name": "\u06a9\u06c6\u0631\u0645\u06c6\u0631\u06cc \u0628\u0686\u0648\u0648\u06a9", "name:ar": "\u06a9\u0648\u0631\u0645\u0648\u0631 \u0635\u063a\u06cc\u0631", "name:en": "Small Kormor", "place": "village", "wikidata": "Q65403738", "wikipedia": "ckb:\u06a9\u06c6\u0631\u0645\u06c6\u0631\u06cc \u0628\u0686\u0648\u0648\u06a9"}}, {"type": "node", "id": 11174630405, "lat": 34.9946943, "lon": 44.9539903, "tags": {"name": "\u06a9\u06c6\u0634\u06a9\u06cc \u0646\u0627\u0648\u06d5\u0695\u0627\u0633\u062a", "name:ar": "\u06a9\u0648\u0634\u06a9 \u0648\u0633\u0637\u06cc", "name:en": "Middle Koshk", "place": "village", "wikidata": "Q65404463", "wikipedia": "ckb:\u06a9\u06c6\u0634\u06a9\u06cc \u0646\u0627\u0648\u06d5\u0695\u0627\u0633\u062a"}}, {"type": "node", "id": 11174634344, "lat": 35.0804304, "lon": 44.8494232}, {"type": "node", "id": 11174634345, "lat": 35.0812206, "lon": 44.8498952}, {"type": "node", "id": 11174634346, "lat": 35.0804655, "lon": 44.8515046}, {"type": "node", "id": 11174634347, "lat": 35.0800265, "lon": 44.8525131}, {"type": "node", "id": 11174634348, "lat": 35.0805006, "lon": 44.8535001}, {"type": "node", "id": 11174634349, "lat": 35.0797807, "lon": 44.8544872}, {"type": "node", "id": 11174634350, "lat": 35.0799738, "lon": 44.8563326}, {"type": "node", "id": 11174634351, "lat": 35.0794822, "lon": 44.8572123}, {"type": "node", "id": 11174634352, "lat": 35.0792714, "lon": 44.8583496}, {"type": "node", "id": 11174634353, "lat": 35.0783759, "lon": 44.8588431}, {"type": "node", "id": 11174634354, "lat": 35.0779193, "lon": 44.8585641}, {"type": "node", "id": 11174634355, "lat": 35.0785515, "lon": 44.8557103}, {"type": "node", "id": 11174634356, "lat": 35.0780949, "lon": 44.8559249}, {"type": "node", "id": 11174634357, "lat": 35.0770588, "lon": 44.8534572}, {"type": "node", "id": 11174634358, "lat": 35.0770062, "lon": 44.8527706}, {"type": "node", "id": 11174634359, "lat": 35.0762335, "lon": 44.8525775}, {"type": "node", "id": 11174634360, "lat": 35.0763213, "lon": 44.8515046}, {"type": "node", "id": 11174634361, "lat": 35.0768481, "lon": 44.8506034}, {"type": "node", "id": 11174634362, "lat": 35.0765496, "lon": 44.8498952}, {"type": "node", "id": 11174634363, "lat": 35.0769359, "lon": 44.8494446}, {"type": "node", "id": 11174634364, "lat": 35.0774452, "lon": 44.850024}, {"type": "node", "id": 11174634365, "lat": 35.0786042, "lon": 44.8503673}, {"type": "node", "id": 11174634366, "lat": 35.079447, "lon": 44.8493374}, {"type": "node", "id": 11174639396, "lat": 35.03588, "lon": 44.9010151, "tags": {"name": "\u06a9\u0627\u0646\u06cc \u0642\u0627\u062f\u0631\u06cc \u0645\u06d5\u062c\u06cc\u062f", "name:ar": "\u06a9\u0627\u0646\u064a \u0642\u0627\u062f\u0631 \u0645\u062c\u06cc\u062f", "name:en": "Kani Qadr Majid", "place": "village", "wikidata": "Q65403725", "wikipedia": "ckb:\u06a9\u0627\u0646\u06cc \u0642\u0627\u062f\u0631\u06cc \u0645\u06d5\u062c\u06cc\u062f"}}, {"type": "node", "id": 11174642311, "lat": 35.0017125, "lon": 44.9465215, "tags": {"name": "\u062f\u0627\u0631\u06d5\u062a\u0648\u0648", "name:ar": "\u062f\u0627\u0631\u062a\u0648", "name:en": "Daratu", "place": "village", "wikidata": "Q65403568", "wikipedia": "ckb:\u062f\u0627\u0631\u06d5\u062a\u0648\u0648\u060c \u0642\u0627\u062f\u0631\u06a9\u06d5\u0631\u06d5\u0645"}}, {"type": "node", "id": 11174645925, "lat": 35.0290683, "lon": 44.8995072}, {"type": "node", "id": 11174645926, "lat": 35.0282403, "lon": 44.9000598}, {"type": "node", "id": 11174645927, "lat": 35.0275979, "lon": 44.8997996}, {"type": "node", "id": 11174645928, "lat": 35.027753, "lon": 44.8962725}, {"type": "node", "id": 11174645929, "lat": 35.0276747, "lon": 44.8978608, "tags": {"name": "\u06a9\u0627\u0646\u06cc \u0642\u0627\u062f\u0631\u06cc \u0633\u06d5\u0639\u062f\u0648\u0648\u0646", "name:ar": "\u06a9\u0627\u0646\u064a \u0642\u0627\u062f\u0631 \u0633\u0639\u062f\u0648\u0646", "name:en": "Kani Qadr Saadun", "place": "village", "wikidata": "Q65403719", "wikipedia": "ckb:\u06a9\u0627\u0646\u06cc \u0642\u0627\u062f\u0631\u06cc \u0633\u06d5\u0639\u062f\u0648\u0646"}}, {"type": "node", "id": 11174646903, "lat": 35.0419963, "lon": 44.8833948, "tags": {"name": "\u06a9\u0627\u0646\u06cc \u0642\u0627\u062f\u0631\u06cc \u0634\u06ce\u062e \u0645\u0648\u062d\u06d5\u0645\u06d5\u062f", "name:ar": "\u06a9\u0627\u0646\u064a \u0642\u0627\u062f\u0631 \u0634\u06cc\u062e \u0645\u062d\u0645\u062f", "name:en": "Kani Qadr Shekh Muhammad", "place": "village", "wikidata": "Q65403722", "wikipedia": "ckb:\u06a9\u0627\u0646\u06cc \u0642\u0627\u062f\u0631\u06cc \u0634\u06ce\u062e \u0645\u062d\u06d5\u0645\u06d5\u062f \u0641\u0627\u0632\u0644"}}, {"type": "node", "id": 11174647162, "lat": 35.0296736, "lon": 44.9332114, "tags": {"name": "\u0633\u06c6\u0641\u06cc \u0695\u06d5\u0632\u0627", "name:ar": "\u0635\u0648\u0641\u064a \u0631\u0636\u0627", "name:en": "Sofi Raza", "place": "village", "wikidata": "Q65403605", "wikipedia": "ckb:\u0633\u06c6\u0641\u06cc \u0695\u06d5\u0632\u0627"}}, {"type": "node", "id": 11174682176, "lat": 34.9911501, "lon": 44.9552263, "tags": {"name": "\u06a9\u06c6\u0634\u06a9\u06cc \u062e\u0648\u0627\u0631\u0648\u0648", "name:ar": "\u06a9\u0648\u0634\u06a9 \u0633\u0641\u0644\u06cc", "name:en": "Koshk Lower", "place": "village", "wikidata": "Q65403746", "wikipedia": "ckb:\u06a9\u06c6\u0634\u06a9\u06cc \u062e\u0648\u0627\u0631\u0648"}}, {"type": "node", "id": 11174698320, "lat": 34.9959044, "lon": 44.95292, "tags": {"name": "\u06a9\u06c6\u0634\u06a9\u06cc \u0633\u06d5\u0631\u0648\u0648", "name:ar": "\u06a9\u0648\u0634\u06a9 \u0639\u0644\u06cc\u0627", "name:en": "Koshk Upper", "place": "village", "wikidata": "Q65404459", "wikipedia": "ckb:\u06a9\u06c6\u0634\u06a9\u06cc \u0633\u06d5\u0631\u0648"}}, {"type": "node", "id": 11174701564, "lat": 35.0270269, "lon": 44.8076485, "tags": {"name": "\u062a\u06d5\u062e\u062a\u06d5\u0645\u06cc\u0646\u06d5\u06cc \u062e\u0648\u0627\u0631\u0648\u0648", "name:ar": "\u062a\u062e\u062a\u0629\u0645\u06cc\u0646\u0629 \u0633\u0641\u0644\u06cc", "name:en": "Takhtamina Lower", "place": "village", "wikidata": "Q65403521", "wikipedia": "ckb:\u062a\u06d5\u062e\u062a\u06d5\u0645\u06cc\u0646\u06d5\u06cc \u062e\u0648\u0627\u0631\u0648\u0648"}}, {"type": "node", "id": 11178339928, "lat": 35.1478143, "lon": 45.0637932, "tags": {"name": "\u062a\u06cc\u0644\u06d5\u06a9\u06c6\u06cc \u0626\u06d5\u062d\u0645\u06d5\u062f \u0626\u0627\u063a\u0627", "name:ar": "\u062a\u06cc\u0644\u0629\u06a9\u0648\u06cc \u0627\u062d\u0645\u062f\u0627\u063a\u0627", "name:en": "Tilakoy Ahmadagha", "place": "village", "wikidata": "Q61391609", "wikipedia": "ckb:\u062a\u06cc\u0644\u06d5\u06a9\u06c6\u06cc \u0626\u06d5\u062d\u0645\u06d5\u062f \u0626\u0627\u063a\u0627"}}, {"type": "node", "id": 11178349557, "lat": 35.0486642, "lon": 45.0665684, "tags": {"name": "\u0628\u06d5\u06a9\u0631\u06d5\u06af\u06d5\u0695\u06d5", "name:ar": "\u0628\u06a9\u0631\u06a9\u0629\u0631\u0629", "name:en": "Bakra Gara", "place": "village", "wikidata": "Q61391585", "wikipedia": "ckb:\u0628\u06d5\u06a9\u0631\u06d5\u06af\u06d5\u0695\u06d5"}}, {"type": "node", "id": 11178350209, "lat": 35.072177, "lon": 45.0713957, "tags": {"name": "\u0633\u067e\u06cc \u0633\u06d5\u0631", "name:ar": "\u0633\u0628\u06cc \u0633\u0631", "name:en": "Spi Sar", "place": "village", "wikidata": "Q61391630", "wikipedia": "ckb:\u0633\u067e\u06cc \u0633\u06d5\u0631"}}, {"type": "node", "id": 11178362253, "lat": 35.0697585, "lon": 45.0364194, "tags": {"name": "\u062d\u06d5\u0633\u06d5\u0646 \u067e\u0631\u0686\u0646", "name:ar": "\u062d\u0633\u0646 \u0628\u0631\u062c\u0646", "name:en": "Hasan Prchn", "place": "village", "wikidata": "Q61391610", "wikipedia": "ckb:\u062d\u06d5\u0633\u06d5\u0646 \u067e\u0631\u0686\u0646"}}, {"type": "node", "id": 11178362500, "lat": 35.0900534, "lon": 44.9898095}, {"type": "node", "id": 11178362501, "lat": 35.089549, "lon": 44.9895107}, {"type": "node", "id": 11178362502, "lat": 35.0893503, "lon": 44.9899029}, {"type": "node", "id": 11178362503, "lat": 35.0891821, "lon": 44.9908556}, {"type": "node", "id": 11178362504, "lat": 35.0887542, "lon": 44.991827}, {"type": "node", "id": 11178362505, "lat": 35.0884179, "lon": 44.9925742}, {"type": "node", "id": 11178362506, "lat": 35.0883415, "lon": 44.9931159}, {"type": "node", "id": 11178362507, "lat": 35.0885707, "lon": 44.9936389}, {"type": "node", "id": 11178362508, "lat": 35.0883873, "lon": 44.993695}, {"type": "node", "id": 11178362509, "lat": 35.0878982, "lon": 44.9933961}, {"type": "node", "id": 11178362510, "lat": 35.0874702, "lon": 44.9942927}, {"type": "node", "id": 11178362511, "lat": 35.0872715, "lon": 44.9948158}, {"type": "node", "id": 11178362512, "lat": 35.0880052, "lon": 44.9957124}, {"type": "node", "id": 11178362513, "lat": 35.0871645, "lon": 44.9960673}, {"type": "node", "id": 11178362514, "lat": 35.0871186, "lon": 44.9969079}, {"type": "node", "id": 11178362515, "lat": 35.0873173, "lon": 44.9973936}, {"type": "node", "id": 11178362516, "lat": 35.0882497, "lon": 44.9977672}, {"type": "node", "id": 11178362517, "lat": 35.0886166, "lon": 44.9971321}, {"type": "node", "id": 11178362518, "lat": 35.0882956, "lon": 44.9960673}, {"type": "node", "id": 11178362519, "lat": 35.088907, "lon": 44.9944235}, {"type": "node", "id": 11178362520, "lat": 35.0893503, "lon": 44.9932467}, {"type": "node", "id": 11178362521, "lat": 35.089763, "lon": 44.9933587}, {"type": "node", "id": 11178362522, "lat": 35.089977, "lon": 44.9924621}, {"type": "node", "id": 11178362523, "lat": 35.0902674, "lon": 44.9916962}, {"type": "node", "id": 11178362524, "lat": 35.0905272, "lon": 44.9918083}, {"type": "node", "id": 11178362525, "lat": 35.0908788, "lon": 44.9912853}, {"type": "node", "id": 11178362526, "lat": 35.0908176, "lon": 44.9906315}, {"type": "node", "id": 11178362527, "lat": 35.0903896, "lon": 44.9907062}, {"type": "node", "id": 11178362528, "lat": 35.0902674, "lon": 44.9903513}, {"type": "node", "id": 11178362529, "lat": 35.0904814, "lon": 44.9899403}, {"type": "node", "id": 11178362530, "lat": 35.0902674, "lon": 44.9897161}, {"type": "node", "id": 11178369962, "lat": 35.0537094, "lon": 44.9738798, "tags": {"name": "\u062a\u06d5\u0644\u06d5\u0628\u06cc", "name:ar": "\u062a\u0644\u0628\u06cc", "name:en": "Talaby", "place": "village", "wikidata": "Q61391600", "wikipedia": "ckb:\u062a\u06d5\u0644\u06d5\u0628\u06cc"}}, {"type": "node", "id": 11178372173, "lat": 35.0568716, "lon": 45.0045466, "tags": {"name": "\u0695\u06d5\u0645\u06d5\u06a9\u0627\u0646", "name:ar": "\u0631\u0645\u06a9\u0627\u0646", "name:en": "Ramakan", "place": "village", "wikidata": "Q61391621", "wikipedia": "ckb:\u0695\u06d5\u0645\u06d5\u06a9\u0627\u0646"}}, {"type": "node", "id": 11178380318, "lat": 35.0136426, "lon": 44.9832053, "tags": {"name": "\u06a9\u06d5\u0631\u06cc\u0645 \u0628\u0627\u0633\u0627\u0645", "name:ar": "\u06a9\u0631\u06cc\u0645 \u0628\u0627\u0633\u0627\u0645", "name:en": "Karim Basam", "place": "village", "wikidata": "Q61391552", "wikipedia": "ckb:\u06a9\u06d5\u0631\u06cc\u0645 \u0628\u0627\u0633\u0627\u0645"}}, {"type": "node", "id": 11178383397, "lat": 35.0765985, "lon": 44.9559936, "tags": {"name": "\u0639\u06d5\u0628\u062f\u0648\u06b5\u0627\u06be\u06c6\u0631\u06cc", "name:ar": "\u0639\u0628\u062f\u0627\u0644\u0644\u0647 \u0647\u0648\u0631\u06cc", "name:en": "Abdulla Hory", "place": "village", "source": "https://krso.gov.krd/content/upload/1/root/a212.pdf", "wikidata": "Q61391635", "wikipedia": "ckb:\u0639\u06d5\u0628\u062f\u0648\u06b5\u0627\u06be\u06c6\u0631\u06cc"}}, {"type": "node", "id": 11178385950, "lat": 35.0863675, "lon": 45.0013383}, {"type": "node", "id": 11178385951, "lat": 35.0859331, "lon": 45.0014728}, {"type": "node", "id": 11178385952, "lat": 35.0860142, "lon": 45.002124}, {"type": "node", "id": 11178385953, "lat": 35.0860721, "lon": 45.0026407}, {"type": "node", "id": 11178385954, "lat": 35.0863327, "lon": 45.0027964}, {"type": "node", "id": 11178385955, "lat": 35.0863501, "lon": 45.0029946}, {"type": "node", "id": 11178385956, "lat": 35.0863791, "lon": 45.0031928}, {"type": "node", "id": 11178385957, "lat": 35.0864486, "lon": 45.0033769}, {"type": "node", "id": 11178385958, "lat": 35.0865702, "lon": 45.0036175}, {"type": "node", "id": 11178385959, "lat": 35.0866397, "lon": 45.0037166}, {"type": "node", "id": 11178385960, "lat": 35.086547, "lon": 45.0039219}, {"type": "node", "id": 11178385961, "lat": 35.0866397, "lon": 45.0039856}, {"type": "node", "id": 11178385962, "lat": 35.0868135, "lon": 45.0036529}, {"type": "node", "id": 11178385963, "lat": 35.0867961, "lon": 45.0033839}, {"type": "node", "id": 11178385964, "lat": 35.086744, "lon": 45.0031928}, {"type": "node", "id": 11178385965, "lat": 35.0868482, "lon": 45.0029805}, {"type": "node", "id": 11178385966, "lat": 35.0867671, "lon": 45.002754}, {"type": "node", "id": 11178385967, "lat": 35.0867845, "lon": 45.0024071}, {"type": "node", "id": 11178385968, "lat": 35.0867498, "lon": 45.0021311}, {"type": "node", "id": 11178385969, "lat": 35.0864833, "lon": 45.0023151}, {"type": "node", "id": 11178385970, "lat": 35.0863907, "lon": 45.0025275, "tags": {"name": "\u062a\u06d5\u06a9\u06ce \u06a9\u06c6\u0646", "name:ar": "\u062a\u06a9\u06cc \u06a9\u0648\u0646", "name:en": "Take Kon", "place": "village", "wikidata": "Q61391598", "wikipedia": "ckb:\u062a\u06d5\u06a9\u06ce \u06a9\u06c6\u0646"}}, {"type": "node", "id": 11178399579, "lat": 34.9860096, "lon": 45.0419341, "tags": {"name": "\u0628\u0627\u0648\u06d5\u06a9\u0695", "name:ar": "\u0628\u0627\u0648\u0629\u06a9\u0631", "name:en": "Bawakr", "place": "village", "wikidata": "Q61391580", "wikipedia": "ckb:\u0628\u0627\u0648\u06d5\u06a9\u0695"}}, {"type": "node", "id": 11178464389, "lat": 34.9139577, "lon": 45.0742697, "tags": {"name": "\u0639\u06d5\u0644\u06cc\u0627\u0646\u06cc \u0628\u0686\u0648\u0648\u06a9", "name:ar": "\u0639\u0644\u06cc\u0627\u0646 \u0635\u063a\u0631\u06cc", "name:en": "Small Alian", "place": "village"}}, {"type": "node", "id": 11178489574, "lat": 34.9306417, "lon": 45.0481507, "tags": {"name": "\u062e\u06d5\u067e\u06d5\u06a9\u0648\u06ce\u0631", "name:ar": "\u062e\u0628\u0629\u06a9\u0648\u06cc\u0631", "name:en": "Khapa Kwer", "place": "village", "wikidata": "Q61391614", "wikipedia": "ckb:\u062e\u06d5\u067e\u06d5\u06a9\u0648\u06ce\u0631"}}, {"type": "node", "id": 11237717186, "lat": 35.1655023, "lon": 45.0050159, "tags": {"name": "\u0628\u0646\u06d5\u06a9\u06d5", "name:ar": "\u0628\u0646\u06a9\u0629", "name:en": "Bnaka", "place": "village", "wikidata": "Q65403497", "wikipedia": "ckb:\u0628\u0646\u06d5\u06a9\u06d5"}}, {"type": "node", "id": 11237719923, "lat": 35.1305669, "lon": 44.9148737, "tags": {"name": "\u0626\u06cc\u0628\u0631\u0627\u06be\u06cc\u0645 \u063a\u0648\u06b5\u0627\u0645", "name:ar": "\u0627\u0628\u0631\u0627\u0647\u06cc\u0645 \u063a\u0644\u0627\u0645", "name:en": "Ibrahim Ghulam", "place": "village", "wikidata": "Q61391536", "wikipedia": "ckb:\u0626\u06cc\u0628\u0631\u0627\u06be\u06cc\u0645 \u063a\u0648\u06b5\u0627\u0645"}}, {"type": "node", "id": 11260276359, "lat": 35.1155973, "lon": 44.9517085}, {"type": "node", "id": 11260276360, "lat": 35.1156236, "lon": 44.951397}, {"type": "node", "id": 11260276361, "lat": 35.1142884, "lon": 44.9509035}, {"type": "node", "id": 11260276362, "lat": 35.114175, "lon": 44.9511592}, {"type": "node", "id": 11260276363, "lat": 35.1141332, "lon": 44.9514456}, {"type": "node", "id": 11260276364, "lat": 35.1155621, "lon": 44.9510931}, {"type": "node", "id": 11260276365, "lat": 35.1154202, "lon": 44.9508324}, {"type": "node", "id": 11260276366, "lat": 35.1152146, "lon": 44.9506458}, {"type": "node", "id": 11260276367, "lat": 35.1149694, "lon": 44.9505552}, {"type": "node", "id": 11260276368, "lat": 35.1147136, "lon": 44.9505712}, {"type": "node", "id": 11260276369, "lat": 35.1144774, "lon": 44.9506921}, {"type": "node", "id": 11260276370, "lat": 35.1141673, "lon": 44.9517336}, {"type": "node", "id": 11260276371, "lat": 35.1142738, "lon": 44.9519937}, {"type": "node", "id": 11260276372, "lat": 35.1144419, "lon": 44.9521997}, {"type": "node", "id": 11260276373, "lat": 35.1146545, "lon": 44.9523304}, {"type": "node", "id": 11260276374, "lat": 35.1148899, "lon": 44.9523727}, {"type": "node", "id": 11260276375, "lat": 35.1151243, "lon": 44.9523222}, {"type": "node", "id": 11260276376, "lat": 35.1153337, "lon": 44.952184}, {"type": "node", "id": 11260276377, "lat": 35.1154969, "lon": 44.9519723}, {"type": "node", "id": 11268906472, "lat": 34.8367001, "lon": 45.0526445}, {"type": "node", "id": 11268906473, "lat": 34.8368366, "lon": 45.052965}, {"type": "node", "id": 11268906474, "lat": 34.8368366, "lon": 45.0531868}, {"type": "node", "id": 11268906475, "lat": 34.8369378, "lon": 45.0534456}, {"type": "node", "id": 11268906476, "lat": 34.8371148, "lon": 45.0535011}, {"type": "node", "id": 11268906477, "lat": 34.8375347, "lon": 45.0533655}, {"type": "node", "id": 11268906482, "lat": 34.8386575, "lon": 45.0522748}, {"type": "node", "id": 11268906483, "lat": 34.8383388, "lon": 45.0521578}, {"type": "node", "id": 11268906484, "lat": 34.8382629, "lon": 45.051862}, {"type": "node", "id": 11268906485, "lat": 34.8379696, "lon": 45.051899}, {"type": "node", "id": 11268906486, "lat": 34.8376358, "lon": 45.0516524}, {"type": "node", "id": 11268906487, "lat": 34.8369429, "lon": 45.0521085}, {"type": "node", "id": 11270252504, "lat": 34.7772857, "lon": 45.0044239, "tags": {"name": "\u06be\u06c6\u0645\u06d5\u0631\u0628\u06d5\u0644\u06cc \u0628\u0686\u0648\u06a9", "name:ar": "\u0647\u0648\u0645\u064a\u0631\u0628\u064a\u0644 \u0627\u0644\u0635\u063a\u064a\u0631", "name:en": "Little Homerbel", "place": "village", "wikidata": "Q61391657", "wikipedia": "ckb:\u06be\u06c6\u0645\u06d5\u0631\u0628\u06d5\u0644\u06cc \u0628\u0686\u0648\u06a9"}}, {"type": "node", "id": 11270385419, "lat": 34.7856644, "lon": 44.9923369, "tags": {"name": "\u06be\u06c6\u0645\u06d5\u0631\u0628\u06d5\u0644\u06cc \u06af\u06d5\u0648\u0631\u06d5", "name:ar": "\u0647\u0648\u0645\u064a\u0631\u0628\u064a\u0644 \u0627\u0644\u0639\u0638\u064a\u0645", "name:en": "Great Homerbel", "place": "village", "wikidata": "Q61391655", "wikipedia": "ckb:\u06be\u06c6\u0645\u06d5\u0631\u0628\u06d5\u0644\u06cc \u06af\u06d5\u0648\u0631\u06d5"}}, {"type": "node", "id": 11281013496, "lat": 34.8433534, "lon": 45.0034715}, {"type": "node", "id": 11281013497, "lat": 34.8432742, "lon": 45.00448}, {"type": "node", "id": 11281013498, "lat": 34.8437937, "lon": 45.0045122}, {"type": "node", "id": 11281013499, "lat": 34.8440226, "lon": 45.0044371}, {"type": "node", "id": 11281013500, "lat": 34.8443044, "lon": 45.0040294}, {"type": "node", "id": 11281013501, "lat": 34.8439522, "lon": 45.0037076}, {"type": "node", "id": 11281013502, "lat": 34.8435207, "lon": 45.0032999}, {"type": "node", "id": 11281013503, "lat": 34.8432125, "lon": 45.0029244}, {"type": "node", "id": 11281013504, "lat": 34.8429572, "lon": 45.0025703}, {"type": "node", "id": 11281013505, "lat": 34.8427282, "lon": 45.002345}, {"type": "node", "id": 11281013506, "lat": 34.8428427, "lon": 45.0019588}, {"type": "node", "id": 11281013507, "lat": 34.8425521, "lon": 45.0013687}, {"type": "node", "id": 11281013508, "lat": 34.8426049, "lon": 45.0011005}, {"type": "node", "id": 11281013509, "lat": 34.8430276, "lon": 45.000843}, {"type": "node", "id": 11281013510, "lat": 34.8429748, "lon": 45.0005426}, {"type": "node", "id": 11281013511, "lat": 34.8425433, "lon": 45.0004567}, {"type": "node", "id": 11281013512, "lat": 34.8421206, "lon": 45.0003602}, {"type": "node", "id": 11281013513, "lat": 34.8417244, "lon": 45.0003387}, {"type": "node", "id": 11281013514, "lat": 34.8412401, "lon": 45.0001885}, {"type": "node", "id": 11281013515, "lat": 34.8410376, "lon": 45.0003387}, {"type": "node", "id": 11281013516, "lat": 34.8408615, "lon": 45.0008108}, {"type": "node", "id": 11281013517, "lat": 34.8409671, "lon": 45.0011756}, {"type": "node", "id": 11281013518, "lat": 34.8412225, "lon": 45.0015082}, {"type": "node", "id": 11281013519, "lat": 34.8411961, "lon": 45.0020446}, {"type": "node", "id": 11281013520, "lat": 34.8416451, "lon": 45.002345}, {"type": "node", "id": 11281013521, "lat": 34.8418477, "lon": 45.0018515}, {"type": "node", "id": 11281013522, "lat": 34.8420942, "lon": 45.0017335}, {"type": "node", "id": 11281013523, "lat": 34.8422527, "lon": 45.0013794}, {"type": "node", "id": 11281013524, "lat": 34.8422968, "lon": 45.0017335}, {"type": "node", "id": 11281013525, "lat": 34.8425697, "lon": 45.0020768}, {"type": "node", "id": 11281013526, "lat": 34.8425609, "lon": 45.0025703}, {"type": "node", "id": 11281013527, "lat": 34.8429836, "lon": 45.0027634}, {"type": "node", "id": 11281013528, "lat": 34.8431509, "lon": 45.0032784}, {"type": "node", "id": 11281013529, "lat": 34.8422087, "lon": 45.0017335, "tags": {"name": "\u0686\u0648\u0627\u0631\u0634\u0627\u062e\u06cc \u0633\u06d5\u0631\u0648\u0648", "name:ar": "\u062c\u0648\u0627\u0631\u0634\u0627\u062e\u064a \u0639\u0644\u06cc\u0627", "name:en": "Upper Chwarshakh", "place": "village", "wikidata": "Q61391698", "wikipedia": "ckb:\u0686\u0648\u0627\u0631\u0634\u0627\u062e\u06cc \u0633\u06d5\u0631\u0648\u0648"}}, {"type": "node", "id": 11281026867, "lat": 34.8318917, "lon": 44.9976478}, {"type": "node", "id": 11281026868, "lat": 34.8316135, "lon": 44.997962}, {"type": "node", "id": 11281029769, "lat": 34.8317248, "lon": 44.9982948}, {"type": "node", "id": 11281029770, "lat": 34.8318917, "lon": 44.9985598}, {"type": "node", "id": 11281029771, "lat": 34.8320081, "lon": 44.9992992}, {"type": "node", "id": 11281029772, "lat": 34.8317805, "lon": 44.9992561}, {"type": "node", "id": 11281029773, "lat": 34.8316439, "lon": 45.0000264}, {"type": "node", "id": 11281029774, "lat": 34.8316995, "lon": 45.0005563}, {"type": "node", "id": 11281029775, "lat": 34.8315225, "lon": 45.0007042}, {"type": "node", "id": 11281029776, "lat": 34.8316034, "lon": 45.0010185}, {"type": "node", "id": 11281029777, "lat": 34.8318159, "lon": 45.0011848}, {"type": "node", "id": 11281029778, "lat": 34.8320435, "lon": 45.0013943}, {"type": "node", "id": 11281029779, "lat": 34.8323116, "lon": 45.0011663}, {"type": "node", "id": 11281029780, "lat": 34.8322913, "lon": 45.0007227}, {"type": "node", "id": 11281029781, "lat": 34.8325695, "lon": 45.0007905}, {"type": "node", "id": 11281029782, "lat": 34.8326403, "lon": 45.000926}, {"type": "node", "id": 11281029783, "lat": 34.8330298, "lon": 45.000698}, {"type": "node", "id": 11281029784, "lat": 34.8330146, "lon": 45.000242}, {"type": "node", "id": 11281029785, "lat": 34.8331562, "lon": 44.9998908}, {"type": "node", "id": 11281029786, "lat": 34.833571, "lon": 45.0003036}, {"type": "node", "id": 11281029787, "lat": 34.8336165, "lon": 45.0006118}, {"type": "node", "id": 11281029788, "lat": 34.8338239, "lon": 45.0006241}, {"type": "node", "id": 11281029789, "lat": 34.8341678, "lon": 45.0003961}, {"type": "node", "id": 11281029790, "lat": 34.8349113, "lon": 44.9997552}, {"type": "node", "id": 11281029791, "lat": 34.8352755, "lon": 44.9994594}, {"type": "node", "id": 11281029792, "lat": 34.835321, "lon": 44.9992314}, {"type": "node", "id": 11281029793, "lat": 34.8349164, "lon": 44.999176}, {"type": "node", "id": 11281029794, "lat": 34.8345826, "lon": 44.9991452}, {"type": "node", "id": 11281029795, "lat": 34.8343904, "lon": 44.999632}, {"type": "node", "id": 11281029796, "lat": 34.8341172, "lon": 44.9997614}, {"type": "node", "id": 11281029797, "lat": 34.8337531, "lon": 45.0000633}, {"type": "node", "id": 11281029798, "lat": 34.8336165, "lon": 45.0000818}, {"type": "node", "id": 11281029799, "lat": 34.8334648, "lon": 44.9999216}, {"type": "node", "id": 11281029800, "lat": 34.8336216, "lon": 44.9995149}, {"type": "node", "id": 11281029801, "lat": 34.8338239, "lon": 44.9993978}, {"type": "node", "id": 11281029802, "lat": 34.8341223, "lon": 44.9994101}, {"type": "node", "id": 11281029803, "lat": 34.8341172, "lon": 44.9990774}, {"type": "node", "id": 11281029804, "lat": 34.8342235, "lon": 44.9987878}, {"type": "node", "id": 11281029805, "lat": 34.8342993, "lon": 44.9986091}, {"type": "node", "id": 11281029806, "lat": 34.8340717, "lon": 44.9983811}, {"type": "node", "id": 11281029807, "lat": 34.8343651, "lon": 44.9974937}, {"type": "node", "id": 11281029808, "lat": 34.8346938, "lon": 44.9970747}, {"type": "node", "id": 11281029809, "lat": 34.8348759, "lon": 44.9969391}, {"type": "node", "id": 11281029810, "lat": 34.8351592, "lon": 44.9970685}, {"type": "node", "id": 11281029811, "lat": 34.8353008, "lon": 44.9970501}, {"type": "node", "id": 11281029812, "lat": 34.8353868, "lon": 44.9967543}, {"type": "node", "id": 11281029813, "lat": 34.8351238, "lon": 44.9965633}, {"type": "node", "id": 11281029814, "lat": 34.8348355, "lon": 44.9968344}, {"type": "node", "id": 11281029815, "lat": 34.8345876, "lon": 44.996933}, {"type": "node", "id": 11281029816, "lat": 34.8343853, "lon": 44.9970254}, {"type": "node", "id": 11281029817, "lat": 34.8339554, "lon": 44.9971178}, {"type": "node", "id": 11281029818, "lat": 34.8337025, "lon": 44.9970994}, {"type": "node", "id": 11281029819, "lat": 34.8335609, "lon": 44.9977341}, {"type": "node", "id": 11281029820, "lat": 34.8333484, "lon": 44.9980113}, {"type": "node", "id": 11281029821, "lat": 34.8333333, "lon": 44.9983626}, {"type": "node", "id": 11281029822, "lat": 34.8330298, "lon": 44.9986152}, {"type": "node", "id": 11281029823, "lat": 34.8329236, "lon": 44.9984242}, {"type": "node", "id": 11281029824, "lat": 34.8327718, "lon": 44.9985351}, {"type": "node", "id": 11281029825, "lat": 34.8326403, "lon": 44.9983996}, {"type": "node", "id": 11281029826, "lat": 34.832175, "lon": 44.9988124}, {"type": "node", "id": 11281029827, "lat": 34.8319929, "lon": 44.9988617}, {"type": "node", "id": 11281029828, "lat": 34.8319423, "lon": 44.9985228}, {"type": "node", "id": 11281029829, "lat": 34.8320536, "lon": 44.9980668}, {"type": "node", "id": 11281029830, "lat": 34.832089, "lon": 44.9979744}, {"type": "node", "id": 11281063471, "lat": 34.8201634, "lon": 45.0762691, "tags": {"name": "\u06a9\u0627\u0646\u06cc \u0645\u0627\u0631\u0627\u0646", "name:ar": "\u0643\u0627\u0646\u064a \u0645\u0627\u0631\u0627\u0646", "name:en": "Kani Maran", "place": "village", "wikidata": "Q61391702", "wikipedia": "ckb:\u06a9\u0627\u0646\u06cc \u0645\u0627\u0631\u0627\u0646\u060c \u0633\u06d5\u0631\u0642\u06d5\u06b5\u0627"}}, {"type": "node", "id": 11281112633, "lat": 34.8389457, "lon": 45.0533932}, {"type": "node", "id": 11281112634, "lat": 34.8388825, "lon": 45.0525136}, {"type": "node", "id": 11284699097, "lat": 34.8956078, "lon": 44.8255045, "tags": {"name": "\u0686\u06d5\u0648\u0631\u06cc", "name:ar": "\u062c\u0648\u0631\u064a", "name:en": "Chawry", "place": "village", "wikidata": "Q61391788", "wikipedia": "ckb:\u0686\u06d5\u0648\u0631\u06cc\u060c \u0646\u06d5\u0648\u062c\u0648\u0644"}}, {"type": "node", "id": 11285489690, "lat": 34.9980509, "lon": 44.8587612}, {"type": "node", "id": 11285489691, "lat": 34.9982354, "lon": 44.8585358}, {"type": "node", "id": 11285489692, "lat": 34.9984947, "lon": 44.8585949}, {"type": "node", "id": 11285489693, "lat": 34.998609, "lon": 44.8590455}, {"type": "node", "id": 11285489694, "lat": 34.9987672, "lon": 44.859598}, {"type": "node", "id": 11285489695, "lat": 34.999167, "lon": 44.8602256}, {"type": "node", "id": 11285489696, "lat": 34.9996153, "lon": 44.8602525}, {"type": "node", "id": 11285489697, "lat": 34.9997954, "lon": 44.8602095}, {"type": "node", "id": 11285489698, "lat": 34.9999097, "lon": 44.8602256}, {"type": "node", "id": 11285489699, "lat": 35.000459, "lon": 44.8607943}, {"type": "node", "id": 11285489700, "lat": 35.000705, "lon": 44.8607728}, {"type": "node", "id": 11285489701, "lat": 35.0007006, "lon": 44.8609606}, {"type": "node", "id": 11285489702, "lat": 35.0003623, "lon": 44.8611483}, {"type": "node", "id": 11285489703, "lat": 35.000705, "lon": 44.8614755}, {"type": "node", "id": 11285489704, "lat": 35.0008852, "lon": 44.8621246}, {"type": "node", "id": 11285489705, "lat": 35.0016806, "lon": 44.8616579}, {"type": "node", "id": 11285489706, "lat": 35.0020277, "lon": 44.8620603}, {"type": "node", "id": 11285489707, "lat": 35.0019969, "lon": 44.8625538}, {"type": "node", "id": 11285489708, "lat": 35.0023792, "lon": 44.8627898}, {"type": "node", "id": 11285489709, "lat": 35.002678, "lon": 44.862527}, {"type": "node", "id": 11285489710, "lat": 35.0027, "lon": 44.861953}, {"type": "node", "id": 11285489711, "lat": 35.0029065, "lon": 44.8618135}, {"type": "node", "id": 11285489712, "lat": 35.0032317, "lon": 44.8618135}, {"type": "node", "id": 11285489713, "lat": 35.0032844, "lon": 44.8622373}, {"type": "node", "id": 11285489714, "lat": 35.0028758, "lon": 44.8623875}, {"type": "node", "id": 11285489715, "lat": 35.0026868, "lon": 44.8629722}, {"type": "node", "id": 11285489716, "lat": 35.0031658, "lon": 44.8629829}, {"type": "node", "id": 11285489717, "lat": 35.0034909, "lon": 44.8633692}, {"type": "node", "id": 11285489718, "lat": 35.0038688, "lon": 44.8636857}, {"type": "node", "id": 11285489719, "lat": 35.004049, "lon": 44.8640129}, {"type": "node", "id": 11285489720, "lat": 35.0038249, "lon": 44.864485}, {"type": "node", "id": 11285489721, "lat": 35.0045455, "lon": 44.8649463}, {"type": "node", "id": 11285489722, "lat": 35.0042907, "lon": 44.8654238}, {"type": "node", "id": 11285489723, "lat": 35.0044137, "lon": 44.8655632}, {"type": "node", "id": 11285489724, "lat": 35.0042204, "lon": 44.8658046}, {"type": "node", "id": 11285489725, "lat": 35.0038249, "lon": 44.8653218}, {"type": "node", "id": 11285489726, "lat": 35.0032932, "lon": 44.8658636}, {"type": "node", "id": 11285489727, "lat": 35.0023924, "lon": 44.864941}, {"type": "node", "id": 11285489728, "lat": 35.002098, "lon": 44.8648659}, {"type": "node", "id": 11285489729, "lat": 35.0019574, "lon": 44.8643509}, {"type": "node", "id": 11285489730, "lat": 35.0017596, "lon": 44.8643509}, {"type": "node", "id": 11285489731, "lat": 35.0016806, "lon": 44.8645923}, {"type": "node", "id": 11285489732, "lat": 35.0013774, "lon": 44.8644635}, {"type": "node", "id": 11285489733, "lat": 35.0013554, "lon": 44.8639003}, {"type": "node", "id": 11285489734, "lat": 35.001307, "lon": 44.8634443}, {"type": "node", "id": 11285489735, "lat": 35.0009423, "lon": 44.8634282}, {"type": "node", "id": 11285489736, "lat": 35.0008281, "lon": 44.8625538}, {"type": "node", "id": 11285489737, "lat": 35.0005512, "lon": 44.8621193}, {"type": "node", "id": 11285489738, "lat": 35.0002524, "lon": 44.8619208}, {"type": "node", "id": 11285489739, "lat": 35.0001074, "lon": 44.861438}, {"type": "node", "id": 11285489740, "lat": 34.999936, "lon": 44.8611966}, {"type": "node", "id": 11285489741, "lat": 34.9996109, "lon": 44.8607674}, {"type": "node", "id": 11285489742, "lat": 34.9995889, "lon": 44.8607353}, {"type": "node", "id": 11285489743, "lat": 34.9993384, "lon": 44.8606065}, {"type": "node", "id": 11285489744, "lat": 35.0019616, "lon": 44.8631929, "tags": {"name": "\u062d\u06d5\u06cc\u062f\u06d5\u0631\u06d5\u0633\u0648\u0648\u0631\u06d5", "name:ar": "\u062d\u06cc\u062f\u0631\u0629 \u0633\u0648\u0631\u0629", "name:en": "Haidarasoora", "place": "village", "wikidata": "Q61391794", "wikipedia": "ckb:\u062d\u06d5\u06cc\u062f\u06d5\u0631\u06d5\u0633\u0648\u0648\u0631\u06d5"}}, {"type": "node", "id": 11285511304, "lat": 34.9130341, "lon": 44.8484093, "tags": {"name": "\u0648\u0627\u0631\u0627\u0646\u06cc \u062e\u0648\u0627\u0631\u0648\u0648", "name:ar": "\u0648\u0631\u0627\u0646 \u0627\u0644\u0633\u0641\u0644\u0649", "name:en": "Lower Waran", "place": "village", "wikidata": "Q61391896", "wikipedia": "ckb:\u0648\u0627\u0631\u0627\u0646\u06cc \u062e\u0648\u0627\u0631\u0648\u0648"}}, {"type": "node", "id": 11285517821, "lat": 35.0137409, "lon": 44.7243651, "tags": {"name": "\u06af\u06c6\u0645\u06d5\u06cc\u06cc", "name:ar": "\u06a9\u0648\u0645\u064a\u064a", "name:en": "Gomayi", "place": "village", "wikidata": "Q61391871", "wikipedia": "ckb:\u06af\u06c6\u0645\u06d5\u06cc\u06cc\u060c \u0646\u06d5\u0648\u062c\u0648\u0644"}}, {"type": "node", "id": 11285517945, "lat": 34.9429324, "lon": 44.9006394}, {"type": "node", "id": 11285517946, "lat": 34.9430833, "lon": 44.9005969}, {"type": "node", "id": 11285517947, "lat": 34.9432748, "lon": 44.9013118}, {"type": "node", "id": 11285517948, "lat": 34.9435765, "lon": 44.9012481}, {"type": "node", "id": 11285517949, "lat": 34.9438202, "lon": 44.9012481}, {"type": "node", "id": 11285517950, "lat": 34.9436693, "lon": 44.9005119}, {"type": "node", "id": 11285517951, "lat": 34.9441045, "lon": 44.9004482}, {"type": "node", "id": 11285517952, "lat": 34.9443134, "lon": 44.9013047}, {"type": "node", "id": 11285517953, "lat": 34.9444468, "lon": 44.9017223}, {"type": "node", "id": 11285517954, "lat": 34.9447601, "lon": 44.9014675}, {"type": "node", "id": 11285517955, "lat": 34.9448994, "lon": 44.9018144}, {"type": "node", "id": 11285517956, "lat": 34.9452881, "lon": 44.9014109}, {"type": "node", "id": 11285517957, "lat": 34.9455841, "lon": 44.9014463}, {"type": "node", "id": 11285517958, "lat": 34.9459148, "lon": 44.90214}, {"type": "node", "id": 11285517959, "lat": 34.9466806, "lon": 44.9026638}, {"type": "node", "id": 11285517960, "lat": 34.9465994, "lon": 44.9029044}, {"type": "node", "id": 11285517961, "lat": 34.9467909, "lon": 44.9030035}, {"type": "node", "id": 11285517962, "lat": 34.9467155, "lon": 44.9033362}, {"type": "node", "id": 11285517963, "lat": 34.9462397, "lon": 44.9035203}, {"type": "node", "id": 11285517964, "lat": 34.9460134, "lon": 44.9037114}, {"type": "node", "id": 11285517965, "lat": 34.9458451, "lon": 44.9038883}, {"type": "node", "id": 11285517966, "lat": 34.9452765, "lon": 44.9039662}, {"type": "node", "id": 11285517967, "lat": 34.9449748, "lon": 44.9040865}, {"type": "node", "id": 11285517968, "lat": 34.9445861, "lon": 44.9039167}, {"type": "node", "id": 11285521162, "lat": 34.9252935, "lon": 44.8643237}, {"type": "node", "id": 11285521163, "lat": 34.9247268, "lon": 44.8646164}, {"type": "node", "id": 11285521164, "lat": 34.9251468, "lon": 44.8658849}, {"type": "node", "id": 11285521165, "lat": 34.9252868, "lon": 44.8664784}, {"type": "node", "id": 11285521166, "lat": 34.9253868, "lon": 44.8668199}, {"type": "node", "id": 11285521167, "lat": 34.9249935, "lon": 44.8671289}, {"type": "node", "id": 11285521168, "lat": 34.9249335, "lon": 44.8681209}, {"type": "node", "id": 11285555269, "lat": 34.9251268, "lon": 44.8683892}, {"type": "node", "id": 11285555270, "lat": 34.9251202, "lon": 44.8686819}, {"type": "node", "id": 11285555271, "lat": 34.9256068, "lon": 44.8688608}, {"type": "node", "id": 11285555272, "lat": 34.9270401, "lon": 44.8706252}, {"type": "node", "id": 11285555273, "lat": 34.9271068, "lon": 44.8705764}, {"type": "node", "id": 11285555274, "lat": 34.9270268, "lon": 44.8696251}, {"type": "node", "id": 11285555275, "lat": 34.9268268, "lon": 44.8683485}, {"type": "node", "id": 11285555276, "lat": 34.9267001, "lon": 44.8677794}, {"type": "node", "id": 11285555277, "lat": 34.9264068, "lon": 44.8661369}, {"type": "node", "id": 11285555278, "lat": 34.9263001, "lon": 44.8651368}, {"type": "node", "id": 11285555279, "lat": 34.9260668, "lon": 44.8651368}, {"type": "node", "id": 11285555280, "lat": 34.9259668, "lon": 44.8647465}, {"type": "node", "id": 11285555281, "lat": 34.9255935, "lon": 44.864901}, {"type": "node", "id": 11285556769, "lat": 34.9442321, "lon": 44.9037326}, {"type": "node", "id": 11285556770, "lat": 34.9438782, "lon": 44.9033858}, {"type": "node", "id": 11285556771, "lat": 34.9434953, "lon": 44.9026213}, {"type": "node", "id": 11285556772, "lat": 34.9432342, "lon": 44.9020409}, {"type": "node", "id": 11285564971, "lat": 34.9660899, "lon": 44.821148}, {"type": "node", "id": 11285564972, "lat": 34.9657667, "lon": 44.8212898}, {"type": "node", "id": 11285564973, "lat": 34.9657263, "lon": 44.8215732}, {"type": "node", "id": 11285564974, "lat": 34.9659182, "lon": 44.8219614}, {"type": "node", "id": 11285564975, "lat": 34.9660798, "lon": 44.822325}, {"type": "node", "id": 11285564976, "lat": 34.9663929, "lon": 44.8224236}, {"type": "node", "id": 11285564977, "lat": 34.966605, "lon": 44.8228611}, {"type": "node", "id": 11285564978, "lat": 34.9663929, "lon": 44.8231322}, {"type": "node", "id": 11285564979, "lat": 34.9663778, "lon": 44.8233109}, {"type": "node", "id": 11285564980, "lat": 34.9664283, "lon": 44.8234588}, {"type": "node", "id": 11285564981, "lat": 34.9667767, "lon": 44.8233602}, {"type": "node", "id": 11285564982, "lat": 34.9670898, "lon": 44.8231692}, {"type": "node", "id": 11285564983, "lat": 34.967514, "lon": 44.8230583}, {"type": "node", "id": 11285564984, "lat": 34.9677765, "lon": 44.8233602}, {"type": "node", "id": 11285564985, "lat": 34.9677967, "lon": 44.8237115}, {"type": "node", "id": 11285564986, "lat": 34.9681452, "lon": 44.8238594}, {"type": "node", "id": 11285564987, "lat": 34.9685996, "lon": 44.8239764}, {"type": "node", "id": 11285564988, "lat": 34.9687814, "lon": 44.8242476}, {"type": "node", "id": 11285564989, "lat": 34.9688168, "lon": 44.8246173}, {"type": "node", "id": 11285564990, "lat": 34.9688218, "lon": 44.8247221}, {"type": "node", "id": 11285564991, "lat": 34.9692611, "lon": 44.8249069}, {"type": "node", "id": 11285564992, "lat": 34.9695288, "lon": 44.8249685}, {"type": "node", "id": 11285564993, "lat": 34.9695692, "lon": 44.8252951}, {"type": "node", "id": 11285564994, "lat": 34.9698115, "lon": 44.8254985}, {"type": "node", "id": 11285564995, "lat": 34.9699479, "lon": 44.8258436}, {"type": "node", "id": 11285564996, "lat": 34.9702862, "lon": 44.8266939}, {"type": "node", "id": 11285564997, "lat": 34.9704629, "lon": 44.8266015}, {"type": "node", "id": 11285564998, "lat": 34.9706901, "lon": 44.8261085}, {"type": "node", "id": 11285564999, "lat": 34.9708315, "lon": 44.8260839}, {"type": "node", "id": 11285565000, "lat": 34.9710537, "lon": 44.8265399}, {"type": "node", "id": 11285565001, "lat": 34.9713466, "lon": 44.8267864}, {"type": "node", "id": 11285565002, "lat": 34.9715334, "lon": 44.8268357}, {"type": "node", "id": 11285565003, "lat": 34.9719828, "lon": 44.8264228}, {"type": "node", "id": 11285565004, "lat": 34.9721595, "lon": 44.8260839}, {"type": "node", "id": 11285565005, "lat": 34.9722858, "lon": 44.8263119}, {"type": "node", "id": 11285565006, "lat": 34.972619, "lon": 44.8261886}, {"type": "node", "id": 11285565007, "lat": 34.9727352, "lon": 44.8259237}, {"type": "node", "id": 11285565008, "lat": 34.9725281, "lon": 44.8248453}, {"type": "node", "id": 11285565009, "lat": 34.9726594, "lon": 44.8244694}, {"type": "node", "id": 11285565010, "lat": 34.9722454, "lon": 44.8242414}, {"type": "node", "id": 11285565011, "lat": 34.9720636, "lon": 44.8241059}, {"type": "node", "id": 11285565012, "lat": 34.971998, "lon": 44.8238902}, {"type": "node", "id": 11285565013, "lat": 34.9717657, "lon": 44.8238779}, {"type": "node", "id": 11285565014, "lat": 34.9715031, "lon": 44.8237423}, {"type": "node", "id": 11285565015, "lat": 34.9711749, "lon": 44.8236683}, {"type": "node", "id": 11285565016, "lat": 34.9708618, "lon": 44.823693}, {"type": "node", "id": 11285565017, "lat": 34.9706548, "lon": 44.8234773}, {"type": "node", "id": 11285565018, "lat": 34.9708265, "lon": 44.8231877}, {"type": "node", "id": 11285565019, "lat": 34.9705639, "lon": 44.8228796}, {"type": "node", "id": 11285565020, "lat": 34.9703114, "lon": 44.823009}, {"type": "node", "id": 11285565021, "lat": 34.9700236, "lon": 44.8228426}, {"type": "node", "id": 11285565022, "lat": 34.9701246, "lon": 44.8226208}, {"type": "node", "id": 11285565023, "lat": 34.9700236, "lon": 44.8225592}, {"type": "node", "id": 11285565024, "lat": 34.9701044, "lon": 44.8223373}, {"type": "node", "id": 11285565025, "lat": 34.9697055, "lon": 44.8220539}, {"type": "node", "id": 11285565026, "lat": 34.9698014, "lon": 44.8212836}, {"type": "node", "id": 11285565027, "lat": 34.9695035, "lon": 44.821185}, {"type": "node", "id": 11285565028, "lat": 34.9694934, "lon": 44.8215424}, {"type": "node", "id": 11285565029, "lat": 34.969352, "lon": 44.8223866}, {"type": "node", "id": 11285565030, "lat": 34.969044, "lon": 44.8222572}, {"type": "node", "id": 11285565031, "lat": 34.968433, "lon": 44.8218813}, {"type": "node", "id": 11285565032, "lat": 34.9682411, "lon": 44.8215178}, {"type": "node", "id": 11285565033, "lat": 34.968231, "lon": 44.8211296}, {"type": "node", "id": 11285565034, "lat": 34.9677664, "lon": 44.8210248}, {"type": "node", "id": 11285565035, "lat": 34.9676503, "lon": 44.8214746}, {"type": "node", "id": 11285565036, "lat": 34.9676957, "lon": 44.8218259}, {"type": "node", "id": 11285565037, "lat": 34.9671352, "lon": 44.8215239}, {"type": "node", "id": 11285565038, "lat": 34.9669181, "lon": 44.8214007}, {"type": "node", "id": 11285565039, "lat": 34.9664687, "lon": 44.8222141}, {"type": "node", "id": 11285589240, "lat": 35.1341747, "lon": 44.63271, "tags": {"name": "\u06af\u0648\u06b5\u06d5\u06a9\u0627\u0646\u06cc", "name:ar": "\u06a9\u0648\u0644\u0629 \u06a9\u0627\u0646\u064a", "name:en": "Gula Kani", "place": "village", "wikidata": "Q61391867", "wikipedia": "ckb:\u06af\u0648\u06b5\u06d5\u06a9\u0627\u0646\u06cc"}}, {"type": "node", "id": 11285646979, "lat": 34.8790051, "lon": 44.7015413, "tags": {"name": "\u0634\u06c6\u0631\u0627\u0648", "name:ar": "\u0634\u0648\u0631\u0627\u0648", "name:en": "Shoraw", "place": "village", "wikidata": "Q61391826", "wikipedia": "ckb:\u0634\u06c6\u0631\u0627\u0648"}}, {"type": "node", "id": 11285654648, "lat": 35.035954, "lon": 44.6335862, "tags": {"name": "\u0633\u06d5\u0631\u0686\u06d5\u0645\u06cc \u062f\u0627\u0648\u062f\u06cc", "name:ar": "\u0633\u0631\u062c\u0645", "name:en": "Sarcham Dawdi", "place": "village", "wikidata": "Q61391820", "wikipedia": "ckb:\u0633\u06d5\u0631\u0686\u06d5\u0645\u06cc \u062f\u0627\u0648\u062f\u06cc"}}, {"type": "node", "id": 11285700341, "lat": 34.922287, "lon": 44.7569451}, {"type": "node", "id": 11285700342, "lat": 34.9219175, "lon": 44.7576532}, {"type": "node", "id": 11285700343, "lat": 34.9218207, "lon": 44.7580502}, {"type": "node", "id": 11285700344, "lat": 34.9216888, "lon": 44.7581575}, {"type": "node", "id": 11285700345, "lat": 34.9218119, "lon": 44.7586403}, {"type": "node", "id": 11285700346, "lat": 34.9221022, "lon": 44.759284}, {"type": "node", "id": 11285700347, "lat": 34.9224013, "lon": 44.7594127}, {"type": "node", "id": 11285700348, "lat": 34.9228588, "lon": 44.7595415}, {"type": "node", "id": 11285700349, "lat": 34.9230699, "lon": 44.7600028}, {"type": "node", "id": 11285700350, "lat": 34.9234921, "lon": 44.7600672}, {"type": "node", "id": 11285700351, "lat": 34.9238176, "lon": 44.7601316}, {"type": "node", "id": 11285700352, "lat": 34.9241519, "lon": 44.75952}, {"type": "node", "id": 11285700353, "lat": 34.924231, "lon": 44.7586725}, {"type": "node", "id": 11285700354, "lat": 34.9242047, "lon": 44.7583077}, {"type": "node", "id": 11285700355, "lat": 34.9236857, "lon": 44.7580716}, {"type": "node", "id": 11285700356, "lat": 34.9229907, "lon": 44.7576961}, {"type": "node", "id": 11285700357, "lat": 34.9229291, "lon": 44.7573099}, {"type": "node", "id": 11285705354, "lat": 34.988949, "lon": 44.6780394, "tags": {"name": "\u0644\u06d5\u06a9", "name:ar": "\u0644\u06a9", "name:en": "Lak", "place": "village", "wikidata": "Q61391875", "wikipedia": "ckb:\u0644\u06d5\u06a9\u060c \u0646\u06d5\u0648\u062c\u0648\u0644"}}, {"type": "node", "id": 11285716003, "lat": 35.0006503, "lon": 44.6759477, "tags": {"name": "\u0642\u06c6\u0634\u0644\u0627\u0646", "name:ar": "\u0642\u0648\u0634\u0644\u0627\u0646", "name:en": "Qoshlan", "place": "village", "wikidata": "Q61391851", "wikipedia": "ckb:\u0642\u06c6\u0634\u0644\u0627\u0646"}}, {"type": "node", "id": 11285730959, "lat": 34.9125077, "lon": 44.738747}, {"type": "node", "id": 11285730960, "lat": 34.9129485, "lon": 44.7385569}, {"type": "node", "id": 11285730961, "lat": 34.9136448, "lon": 44.7392547}, {"type": "node", "id": 11285741304, "lat": 34.9189211, "lon": 44.7601206}, {"type": "node", "id": 11285741305, "lat": 34.9187644, "lon": 44.7604745}, {"type": "node", "id": 11285741306, "lat": 34.9188804, "lon": 44.7608142}, {"type": "node", "id": 11285741307, "lat": 34.919751, "lon": 44.7601347}, {"type": "node", "id": 11285741308, "lat": 34.9200006, "lon": 44.7599719}, {"type": "node", "id": 11285741309, "lat": 34.9203605, "lon": 44.7593632}, {"type": "node", "id": 11285741310, "lat": 34.9202154, "lon": 44.7591437}, {"type": "node", "id": 11285741311, "lat": 34.9198671, "lon": 44.7588535}, {"type": "node", "id": 11285741312, "lat": 34.9195247, "lon": 44.7586978}, {"type": "node", "id": 11285741313, "lat": 34.9192403, "lon": 44.7587757}, {"type": "node", "id": 11285741314, "lat": 34.9191648, "lon": 44.7593419}, {"type": "node", "id": 11285741315, "lat": 34.9190313, "lon": 44.759795}, {"type": "node", "id": 11285741316, "lat": 34.9194608, "lon": 44.7596817, "tags": {"name": "\u0626\u0627\u0648\u0627\u06cc\u06cc \u0639\u06d5\u0644\u06cc", "name:ar": "\u0642\u0631\u064a\u0629 \u0639\u0644\u064a", "name:en": "Ali's village", "place": "village", "wikidata": "Q61391757", "wikipedia": "ckb:\u0626\u0627\u0648\u0627\u06cc\u06cc \u0639\u06d5\u0644\u06cc"}}, {"type": "node", "id": 11285744124, "lat": 34.9294518, "lon": 44.7378846}, {"type": "node", "id": 11285744125, "lat": 34.9297734, "lon": 44.7376884}, {"type": "node", "id": 11285744126, "lat": 34.9303324, "lon": 44.7382955}, {"type": "node", "id": 11285744127, "lat": 34.9301409, "lon": 44.7389213}, {"type": "node", "id": 11285744128, "lat": 34.9299954, "lon": 44.7394163}, {"type": "node", "id": 11285744129, "lat": 34.929536, "lon": 44.7400982}, {"type": "node", "id": 11285744130, "lat": 34.9290076, "lon": 44.7406119}, {"type": "node", "id": 11285744131, "lat": 34.9285099, "lon": 44.7410322}, {"type": "node", "id": 11285744132, "lat": 34.9284486, "lon": 44.7409201}, {"type": "node", "id": 11285744133, "lat": 34.9285865, "lon": 44.7405091}, {"type": "node", "id": 11285744134, "lat": 34.928663, "lon": 44.7392856}, {"type": "node", "id": 11285744135, "lat": 34.9290076, "lon": 44.7384076}, {"type": "node", "id": 11285753175, "lat": 34.9193968, "lon": 44.7549992}, {"type": "node", "id": 11285753176, "lat": 34.9199022, "lon": 44.7555502}, {"type": "node", "id": 11285753177, "lat": 34.9201856, "lon": 44.7556156}, {"type": "node", "id": 11285753178, "lat": 34.9207217, "lon": 44.7546816}, {"type": "node", "id": 11285753179, "lat": 34.9208212, "lon": 44.7544575}, {"type": "node", "id": 11285753180, "lat": 34.9208059, "lon": 44.7538223}, {"type": "node", "id": 11285753181, "lat": 34.9206374, "lon": 44.7535141}, {"type": "node", "id": 11285753182, "lat": 34.9207064, "lon": 44.7532619}, {"type": "node", "id": 11285753183, "lat": 34.9209591, "lon": 44.7529817}, {"type": "node", "id": 11285753184, "lat": 34.9208672, "lon": 44.7528416}, {"type": "node", "id": 11285753185, "lat": 34.9206834, "lon": 44.7530378}, {"type": "node", "id": 11285753186, "lat": 34.9204077, "lon": 44.7532433}, {"type": "node", "id": 11285753187, "lat": 34.920132, "lon": 44.7536075}, {"type": "node", "id": 11285753188, "lat": 34.9198027, "lon": 44.754308}, {"type": "node", "id": 11285757945, "lat": 34.9180289, "lon": 44.7687949}, {"type": "node", "id": 11285757946, "lat": 34.9179498, "lon": 44.7689827}, {"type": "node", "id": 11285757947, "lat": 34.9182665, "lon": 44.7692187}, {"type": "node", "id": 11285757948, "lat": 34.9184072, "lon": 44.7691007}, {"type": "node", "id": 11285757949, "lat": 34.9186184, "lon": 44.7693314}, {"type": "node", "id": 11285757950, "lat": 34.9189307, "lon": 44.7688861}, {"type": "node", "id": 11285757951, "lat": 34.9188735, "lon": 44.7685053}, {"type": "node", "id": 11285757952, "lat": 34.9187503, "lon": 44.7683872}, {"type": "node", "id": 11285757953, "lat": 34.9186843, "lon": 44.7685589}, {"type": "node", "id": 11285757954, "lat": 34.9187547, "lon": 44.7687842}, {"type": "node", "id": 11285757955, "lat": 34.9185788, "lon": 44.769149}, {"type": "node", "id": 11285757956, "lat": 34.9181857, "lon": 44.7690043, "tags": {"name": "\u0626\u0627\u0648\u0627\u06cc\u06cc \u0695\u06d5\u0632\u0627", "name:ar": "\u0642\u0631\u064a\u0629 \u0631\u0636\u0627", "name:en": "Reza Village", "place": "village", "wikidata": "Q61391758", "wikipedia": "ckb:\u0626\u0627\u0648\u0627\u06cc\u06cc \u0695\u06d5\u0632\u0627"}}, {"type": "node", "id": 11285783939, "lat": 34.9124575, "lon": 44.8215345}, {"type": "node", "id": 11285783940, "lat": 34.9125448, "lon": 44.8235559}, {"type": "node", "id": 11285783941, "lat": 34.9128093, "lon": 44.8263541}, {"type": "node", "id": 11285783942, "lat": 34.9124648, "lon": 44.8249057}, {"type": "node", "id": 11285783943, "lat": 34.9128181, "lon": 44.8241939}, {"type": "node", "id": 11285783944, "lat": 34.9128941, "lon": 44.8244758}, {"type": "node", "id": 11285783945, "lat": 34.9089222, "lon": 44.8234119}, {"type": "node", "id": 11285783946, "lat": 34.9099129, "lon": 44.8230685}, {"type": "node", "id": 11285783947, "lat": 34.9096704, "lon": 44.8220342}, {"type": "node", "id": 11285783948, "lat": 34.9095593, "lon": 44.8213691}, {"type": "node", "id": 11285783949, "lat": 34.9105151, "lon": 44.8207819}, {"type": "node", "id": 11285783950, "lat": 34.9106157, "lon": 44.8216578}, {"type": "node", "id": 11285792033, "lat": 34.8977227, "lon": 44.8068205}, {"type": "node", "id": 11285792034, "lat": 34.8976298, "lon": 44.8074717}, {"type": "node", "id": 11285792035, "lat": 34.8970957, "lon": 44.8086609}, {"type": "node", "id": 11285792036, "lat": 34.8963293, "lon": 44.8084485}, {"type": "node", "id": 11285792037, "lat": 34.8964338, "lon": 44.8074434}, {"type": "node", "id": 11285792038, "lat": 34.8968983, "lon": 44.8061126}, {"type": "node", "id": 11285792039, "lat": 34.8972234, "lon": 44.8053482}, {"type": "node", "id": 11285792040, "lat": 34.8980246, "lon": 44.8047253}, {"type": "node", "id": 11285792041, "lat": 34.8985006, "lon": 44.8040174}, {"type": "node", "id": 11285792042, "lat": 34.8988025, "lon": 44.8018515}, {"type": "node", "id": 11285792043, "lat": 34.8985006, "lon": 44.8016533}, {"type": "node", "id": 11285792044, "lat": 34.898698, "lon": 44.8010445}, {"type": "node", "id": 11285792045, "lat": 34.8979433, "lon": 44.8002659}, {"type": "node", "id": 11285792046, "lat": 34.8983729, "lon": 44.7993032}, {"type": "node", "id": 11285792047, "lat": 34.9000681, "lon": 44.7998554}, {"type": "node", "id": 11285792048, "lat": 34.9005209, "lon": 44.7999969}, {"type": "node", "id": 11285792049, "lat": 34.9006254, "lon": 44.7993599}, {"type": "node", "id": 11285792050, "lat": 34.9013917, "lon": 44.7995439}, {"type": "node", "id": 11285792051, "lat": 34.9014962, "lon": 44.7990626}, {"type": "node", "id": 11285792052, "lat": 34.9021928, "lon": 44.7992749}, {"type": "node", "id": 11285792053, "lat": 34.9020651, "lon": 44.7999544}, {"type": "node", "id": 11285792054, "lat": 34.9019954, "lon": 44.8007331}, {"type": "node", "id": 11285792055, "lat": 34.9021115, "lon": 44.80154}, {"type": "node", "id": 11285792056, "lat": 34.902425, "lon": 44.8023753}, {"type": "node", "id": 11285792057, "lat": 34.9016703, "lon": 44.8024885}, {"type": "node", "id": 11285792058, "lat": 34.9009156, "lon": 44.8027575}, {"type": "node", "id": 11285792059, "lat": 34.9003699, "lon": 44.803253}, {"type": "node", "id": 11285792060, "lat": 34.8999403, "lon": 44.8040174}, {"type": "node", "id": 11285792061, "lat": 34.8996733, "lon": 44.8033379}, {"type": "node", "id": 11285792062, "lat": 34.8994295, "lon": 44.8031539}, {"type": "node", "id": 11285792063, "lat": 34.8986283, "lon": 44.8041449}, {"type": "node", "id": 11285792064, "lat": 34.8981174, "lon": 44.8049235}, {"type": "node", "id": 11285792065, "lat": 34.8974905, "lon": 44.8054898}, {"type": "node", "id": 11285792066, "lat": 34.8970028, "lon": 44.8063958}, {"type": "node", "id": 11285832876, "lat": 34.9043332, "lon": 44.7769863}, {"type": "node", "id": 11285832877, "lat": 34.9043565, "lon": 44.7780056}, {"type": "node", "id": 11285832878, "lat": 34.9046467, "lon": 44.7786426}, {"type": "node", "id": 11285832879, "lat": 34.9046003, "lon": 44.7788833}, {"type": "node", "id": 11285832880, "lat": 34.9043681, "lon": 44.7793221}, {"type": "node", "id": 11285832881, "lat": 34.9044958, "lon": 44.7796053}, {"type": "node", "id": 11285832882, "lat": 34.9041475, "lon": 44.7804264}, {"type": "node", "id": 11285832883, "lat": 34.9035554, "lon": 44.7805113}, {"type": "node", "id": 11285832884, "lat": 34.9031374, "lon": 44.7807945}, {"type": "node", "id": 11285832885, "lat": 34.9032303, "lon": 44.7819695}, {"type": "node", "id": 11285832886, "lat": 34.9028587, "lon": 44.7820402}, {"type": "node", "id": 11285832887, "lat": 34.9018486, "lon": 44.7815589}, {"type": "node", "id": 11285832888, "lat": 34.9021621, "lon": 44.7811342}, {"type": "node", "id": 11285832889, "lat": 34.9023827, "lon": 44.7809502}, {"type": "node", "id": 11285832890, "lat": 34.9028239, "lon": 44.7811201}, {"type": "node", "id": 11285832891, "lat": 34.9026846, "lon": 44.7806812}, {"type": "node", "id": 11285832892, "lat": 34.9019183, "lon": 44.7802423}, {"type": "node", "id": 11285832893, "lat": 34.9018022, "lon": 44.7804405}, {"type": "node", "id": 11285832894, "lat": 34.9015235, "lon": 44.7802565}, {"type": "node", "id": 11285832895, "lat": 34.9017906, "lon": 44.7797893}, {"type": "node", "id": 11285832896, "lat": 34.90157, "lon": 44.7792089}, {"type": "node", "id": 11285832897, "lat": 34.9018486, "lon": 44.7787559}, {"type": "node", "id": 11285832898, "lat": 34.9017325, "lon": 44.7777932}, {"type": "node", "id": 11285832899, "lat": 34.9013726, "lon": 44.7765191}, {"type": "node", "id": 11285832900, "lat": 34.9011868, "lon": 44.7762643}, {"type": "node", "id": 11285832901, "lat": 34.8999329, "lon": 44.775967}, {"type": "node", "id": 11285832902, "lat": 34.9004089, "lon": 44.7751317}, {"type": "node", "id": 11285832903, "lat": 34.9008037, "lon": 44.7747495}, {"type": "node", "id": 11285832904, "lat": 34.9013958, "lon": 44.7748486}, {"type": "node", "id": 11285832905, "lat": 34.9021621, "lon": 44.7756555}, {"type": "node", "id": 11285832906, "lat": 34.9026962, "lon": 44.7758962}, {"type": "node", "id": 11285832907, "lat": 34.9031026, "lon": 44.7757122}, {"type": "node", "id": 11285832908, "lat": 34.9031258, "lon": 44.7767315}, {"type": "node", "id": 11285832909, "lat": 34.9035205, "lon": 44.7770854}, {"type": "node", "id": 11285832910, "lat": 34.9039501, "lon": 44.7769155}, {"type": "node", "id": 11370479393, "lat": 35.1643317, "lon": 44.5980269, "tags": {"name": "\u062a\u06c6\u067e\u062e\u0627\u0646\u06d5", "name:ar": "\u062a\u0648\u0628\u062e\u0627\u0646\u0629", "name:en": "Topkhana", "place": "village"}}, {"type": "node", "id": 11405488328, "lat": 35.1402759, "lon": 44.567863, "tags": {"name": "\u0686\u06d5\u0645\u0628\u06c6\u0631", "name:ar": "\u062c\u0645\u0628\u0648\u0631", "name:en": "Chambor", "place": "village"}}, {"type": "way", "id": 328736882, "nodes": [3355652238, 3355652239, 3355652240, 3355652241, 3355652242, 3355652243, 3355652244, 3355652245, 3355652246, 3355652247, 3355652248, 3355652249, 3355652250, 3355652251, 3355652252, 3355652253, 3372035736, 3355652254, 3355652255, 3355652256, 3355652257, 3355652238], "tags": {"name": "\u0641\u06d5\u062a\u0627\u062d \u0647\u06c6\u0645\u06d5\u0631", "place": "village", "residential": "rural", "wikidata": "Q61391742", "wikipedia": "ckb:\u0641\u06d5\u062a\u0627\u062d \u06be\u06c6\u0645\u06d5\u0631"}}, {"type": "way", "id": 328820041, "nodes": [3356465657, 7352460460, 3356465658, 7352460459, 3356465659, 3356465660, 7352460461, 3356465657], "tags": {"name": "\u0628\u06d5\u0644\u06d5\u06a9\u06d5\u06cc \u0628\u0686\u0648\u06a9", "place": "village", "residential": "rural", "wikidata": "Q61391681", "wikipedia": "ckb:\u0628\u06d5\u0644\u06d5\u06a9\u06d5\u06cc \u0628\u0686\u0648\u06a9"}}, {"type": "way", "id": 328878042, "nodes": [3356997309, 3356997310, 3356997311, 3356997312, 3356997314, 3356997316, 3356997317, 3356997319, 3356997320, 6993107125, 3356997322, 3356997323, 3356997325, 3356997309], "tags": {"name": "\u06a9\u0627\u0646\u06cc \u0645\u0627\u0631\u0627\u0646", "place": "village", "residential": "rural", "wikidata": "Q61391702", "wikipedia": "ckb:\u06a9\u0627\u0646\u06cc \u0645\u0627\u0631\u0627\u0646\u060c \u0633\u06d5\u0631\u0642\u06d5\u06b5\u0627"}}, {"type": "way", "id": 378651703, "nodes": [3820661686, 3820661687, 7352462271, 7352462269, 7352462270, 7352462273, 3820661688, 7352462272, 3820661686], "tags": {"name": "\u062a\u0648\u0648\u06a9\u0646", "place": "village", "residential": "rural", "wikidata": "Q61391687", "wikipedia": "ckb:\u062a\u0648\u06a9\u0646"}}, {"type": "way", "id": 383346893, "nodes": [3865934139, 3865934141, 3865934142, 3865934143, 3865934145, 3865934147, 3865934148, 3865934139], "tags": {"place": "village"}}, {"type": "way", "id": 727026708, "nodes": [6813566061, 6910536818, 6910536817, 6813566062, 6813566063, 6813566064, 6910536819, 6813566061], "tags": {"name": "\u0642\u06d5\u0631\u06d5\u0686\u06ce\u0648\u0627\u0631", "place": "village", "residential": "rural", "wikidata": "Q65403651", "wikipedia": "ckb:\u0642\u06d5\u0631\u06d5\u0686\u06ce\u0648\u0627\u0631"}}, {"type": "way", "id": 733840634, "nodes": [6872911832, 6872911833, 6872911834, 6872911835, 6872911836, 6872911837, 6872911838, 6872911839, 6872911840, 6872911841, 6872911842, 6872911832], "tags": {"name": "\u062a\u0627\u0632\u06d5\u0634\u0627\u0631", "place": "village", "residential": "rural"}}, {"type": "way", "id": 734001087, "nodes": [6874316724, 6874316725, 6874316726, 6874316727, 6874316728, 6874316729, 6874316730, 6874316731, 6874316734, 6874316733, 6874316732, 6874316724], "tags": {"name": "\u0626\u0627\u0648\u0628\u0627\u0631\u06cc\u06a9", "place": "village", "residential": "rural"}}, {"type": "way", "id": 757249855, "nodes": [7071676223, 7071676224, 7071676225, 7071676226, 7071676223], "tags": {"name": "\u0686\u0627\u06b5\u06d5\u0648 \u062f\u0648\u0627\u0646\u06d5", "place": "village", "residential": "rural", "wikidata": "Q65403696", "wikipedia": "ckb:\u0686\u0627\u06b5\u06d5\u0648\u062f\u0648\u0627\u0646\u06d5"}}, {"type": "way", "id": 786262415, "nodes": [7351401050, 7351401051, 7351401052, 7351401053, 7351401050], "tags": {"name": "\u0628\u0646\u06a9\u06d5\u06cc \u0634\u0627\u0646\u06d5\u0632\u06d5\u0631", "place": "village"}}, {"type": "way", "id": 786263608, "nodes": [7351504886, 7351504887, 7351504888, 7351504889, 7351504890, 7351504891, 7351504892, 7351401174, 7351401175, 7351401176, 7351401180, 7351401181, 7351401182, 7351401183, 7351401184, 7351504885, 7351401177, 7351401178, 7351401179, 7351504886], "tags": {"name": "\u0628\u0627\u0646\u0632\u06cc\u0646\u062e\u0627\u06b5", "place": "village"}}, {"type": "way", "id": 786295547, "nodes": [7351905858, 7351905859, 7351905860, 7351905861, 7351905862, 7351905863, 7351905864, 7351905865, 7351905866, 7351905867, 7351905868, 7351905869, 7351905858], "tags": {"name": "\u0642\u06d5\u0648\u0627\u06b5\u06cc", "place": "village", "residential": "rural", "wikidata": "Q61391568", "wikipedia": "ckb:\u0642\u06d5\u0648\u0627\u06b5\u06cc"}}, {"type": "way", "id": 786297359, "nodes": [7351934831, 7351934832, 7351934833, 7351934834, 7351934835, 7351934836, 7351934831], "tags": {"name": "\u067e\u06cc\u0631\u0645\u06d5\u0648\u06d5\u0646\u06cc", "place": "village", "residential": "rural", "wikidata": "Q61391591", "wikipedia": "ckb:\u067e\u06cc\u0631\u0645\u06c6\u0646\u06cc"}}, {"type": "way", "id": 786363544, "nodes": [7352509334, 7352509335, 7352509336, 7352509337, 7352509338, 7352509339, 7352509340, 7352509341, 7352509342, 7352509334], "tags": {"name": "\u0632\u0646\u062f\u0627\u0646\u06d5\u06cc \u06af\u06d5\u0648\u0631\u06d5", "place": "village", "residential": "rural", "wikidata": "Q61391747", "wikipedia": "ckb:\u0632\u06cc\u0646\u0627\u0646\u06d5\u06cc \u06af\u06d5\u0648\u0631\u06d5"}}, {"type": "way", "id": 786366528, "nodes": [7352607034, 7352607035, 7352607036, 7352607037, 7352607038, 7352607039, 7352607040, 7352607041, 7352607042, 7352607043, 7352607044, 7352607045, 7352607046, 7352607047, 7352607034], "tags": {"name": "\u0686\u06d5\u0648\u0631\u06cc", "place": "village", "residential": "rural", "wikidata": "Q61391788", "wikipedia": "ckb:\u0686\u06d5\u0648\u0631\u06cc\u060c \u0646\u06d5\u0648\u062c\u0648\u0644"}}, {"type": "way", "id": 786366665, "nodes": [7352636508, 7352636509, 7352720446, 7352636510, 7352636511, 7352636512, 7352636508], "tags": {"name": "\u0686\u0646\u0627\u0631\u06d5", "place": "village", "residential": "rural", "wikidata": "Q61391789", "wikipedia": "ckb:\u0686\u0646\u0627\u0631\u06d5\u060c \u0646\u06d5\u0648\u062c\u0648\u0644"}}, {"type": "way", "id": 786369089, "nodes": [7352606434, 7352606435, 7352606436, 11285783945, 11285783946, 11285783947, 11285783948, 7352606437, 7352606438, 11285783949, 11285783950, 7352606439, 11285783939, 7352606440, 11285783940, 11285783943, 11285783944, 11285783942, 11285783941, 7352606434], "tags": {"name": "\u06a9\u06c6\u0634\u06a9\u06cc \u0628\u06d5\u0631\u06d5\u0648\u0645\u0646\u0627\u0631\u06d5", "place": "village", "residential": "rural", "wikidata": "Q61391858", "wikipedia": "ckb:\u06a9\u06c6\u0634\u06a9\u06cc \u0628\u06d5\u0631\u06d5\u0648\u0645\u0646\u0627\u0631\u06d5"}}, {"type": "way", "id": 786370737, "nodes": [7352679949, 7352679950, 7352679951, 7352679952, 7352679949], "tags": {"name": "\u0633\u06d5\u0641\u06d5\u0631\u0628\u06d5\u06cc\u0627\u062a", "place": "village", "residential": "rural", "wikidata": "Q61391825", "wikipedia": "ckb:\u0633\u06d5\u0641\u06d5\u0631\u0628\u06d5\u06cc\u0627\u062a"}}, {"type": "way", "id": 786372173, "nodes": [7352697286, 7352697287, 7352697288, 7352697289, 7352697290, 7352697291, 7352697292, 7352697293, 11285730959, 11285730960, 11285730961, 7352697294, 7352697286], "tags": {"name": "\u0642\u06d5\u06b5\u0627", "place": "village", "residential": "rural", "wikidata": "Q61391843", "wikipedia": "ckb:\u0642\u06d5\u06b5\u0627\u060c \u0646\u06d5\u0648\u062c\u0648\u0644"}}, {"type": "way", "id": 786374406, "nodes": [7352719988, 7352719989, 7352719990, 7352719991, 7352719988], "tags": {"name": "\u0628\u0627\u0634\u062a\u06d5\u067e\u06d5\u06cc \u06af\u06d5\u0648\u0631\u06d5", "place": "village", "residential": "rural", "wikidata": "Q61391772", "wikipedia": "ckb:\u0628\u0627\u0634\u062a\u06d5\u067e\u06d5\u06cc \u06af\u06d5\u0648\u0631\u06d5"}}, {"type": "way", "id": 786374713, "nodes": [7352722908, 7352722909, 7352722910, 7352722911, 7352722908], "tags": {"name": "\u06af\u06c6\u0645\u06d5\u062a\u06d5\u067e\u0648\u0631", "place": "village", "residential": "rural", "wikidata": "Q61391866", "wikipedia": "ckb:\u06af\u06c6\u0645\u06d5\u062a\u06d5\u067e\u0648\u0631"}}, {"type": "way", "id": 786377413, "nodes": [7352736765, 7352747792, 7352747789, 7352747788, 7352736766, 7352747791, 7352736767, 7352736768, 7352747790, 7352736765], "tags": {"name": "\u0648\u0627\u0631\u0627\u0646\u06cc \u0628\u0627\u0646 \u063a\u0627\u0632", "place": "village", "residential": "rural", "wikidata": "Q61391889", "wikipedia": "ckb:\u0648\u0627\u0631\u0627\u0646\u06cc \u0628\u0627\u0646 \u063a\u0627\u0632"}}, {"type": "way", "id": 786377417, "nodes": [7352741788, 7352741789, 7352741790, 7352741791, 7352741792, 7352741793, 7352741794, 7352741795, 7352741788], "tags": {"name": "\u0648\u0627\u0631\u0627\u0646\u06cc \u062e\u0648\u0627\u0631\u0648\u0648", "place": "village", "residential": "rural", "wikidata": "Q61391896", "wikipedia": "ckb:\u0648\u0627\u0631\u0627\u0646\u06cc \u062e\u0648\u0627\u0631\u0648\u0648"}}, {"type": "way", "id": 786377430, "nodes": [7352743923, 7352743924, 7352743925, 7352743926, 7352743927, 7352743928, 7352743929, 7352743923], "tags": {"name": "\u0648\u0627\u0631\u0627\u0646\u06cc \u0633\u06d5\u0631\u0648\u0648", "place": "village", "residential": "rural", "wikidata": "Q61391894", "wikipedia": "ckb:\u0648\u0627\u0631\u0627\u0646\u06cc \u0633\u06d5\u0631\u0648\u0648"}}, {"type": "way", "id": 790970268, "nodes": [7394336240, 7394336241, 7394336242, 7394336243, 7394336240], "tags": {"place": "village"}}, {"type": "way", "id": 790974274, "nodes": [7394360713, 7394360714, 7394360715, 7394360716, 7394360717, 7394360718, 7394360719, 7394360713], "tags": {"place": "village"}}, {"type": "way", "id": 790974276, "nodes": [7394360736, 7394360737, 7394360738, 7394360739, 7394360740, 7394360741, 7394360743, 7394360744, 7394360742, 7394360736], "tags": {"place": "village"}}, {"type": "way", "id": 791091747, "nodes": [7395532690, 7395532691, 7395532692, 7395532693, 7395532694, 7395532695, 7395532696, 7395532697, 7395532698, 7395532690], "tags": {"name": "\u06a9\u0627\u0646\u06cc \u0642\u0627\u062f\u0631\u06cc \u0634\u06ce\u062e \u0645\u062d\u06d5\u0645\u06d5\u062f", "place": "village", "residential": "rural"}}, {"type": "way", "id": 791091748, "nodes": [7395532699, 7395532700, 11174645928, 7395532705, 7395532701, 7395532702, 7395532703, 11174645927, 11174645926, 11174645925, 7395532704, 7395532699], "tags": {"name": "\u06a9\u0627\u0646\u06cc \u0642\u0627\u062f\u0631\u06cc \u0633\u06d5\u0639\u062f\u0648\u0648\u0646", "place": "village", "residential": "rural"}}, {"type": "way", "id": 791091956, "nodes": [7395521839, 7395521840, 7395521841, 7395521842, 7395521843, 7395521844, 7395521839], "tags": {"name": "\u06a9\u0627\u0646\u06cc \u0642\u0627\u062f\u0631\u06cc \u0645\u06d5\u062c\u06cc\u062f", "place": "village", "residential": "rural"}}, {"type": "way", "id": 791095733, "nodes": [7395586224, 7395586225, 7395586226, 7395586227, 7395586224], "tags": {"place": "village"}}, {"type": "way", "id": 791105500, "nodes": [7395683098, 7395683099, 7395683100, 7395683101, 7395683098], "tags": {"name": "\u0633\u06c6\u0641\u06cc \u0695\u06d5\u0632\u0627", "place": "village", "residential": "rural"}}, {"type": "way", "id": 791123003, "nodes": [7395827567, 7395827568, 7395827569, 7395827570, 7395827571, 7395827572, 7395827567], "tags": {"alt_name": "\u0628\u0627\u0628\u06d5\u06a9\u0631", "name": "\u0628\u0627\u0648\u06d5\u06a9\u0631", "place": "village", "residential": "rural", "wikidata": "Q61391580", "wikipedia": "ckb:\u0628\u0627\u0648\u06d5\u06a9\u0695"}}, {"type": "way", "id": 793129100, "nodes": [7416385653, 7416385654, 7416385655, 7416385656, 7416385653], "tags": {"place": "village"}}, {"type": "way", "id": 793625672, "nodes": [7423530352, 7423530353, 7423530356, 7423530354, 7423530355, 7423530352], "tags": {"place": "village"}}, {"type": "way", "id": 803434552, "nodes": [7515454031, 7515454032, 7515454033, 7515454034, 7515454035, 7515454036, 7515454037, 7515454038, 7515454039, 7515454040, 7515454031], "tags": {"place": "village"}}, {"type": "way", "id": 914181804, "nodes": [8491829184, 8491829185, 8491829192, 8491829186, 8491829187, 8491829188, 8491829189, 8491829190, 8491829191, 8491829184], "tags": {"place": "village"}}, {"type": "way", "id": 1016167453, "nodes": [9372825089, 9372825090, 9372825091, 9372825092, 9372825093, 9372825094, 9372825095, 9372825096, 9372825097, 9372825098, 9372825099, 9372825100, 9372825101, 9372825102, 9372825103, 9372825104, 9372825105, 9372825106, 9372825107, 9372825108, 9372825089], "tags": {"name": "\u0644\u06d5\u06a9\u06cc \u0642\u0627\u062f\u0631\u0633\u06d5\u0631\u0647\u06d5\u0646\u06af", "place": "village", "residential": "rural", "wikidata": "Q61391548", "wikipedia": "ckb:\u0644\u06d5\u06a9\u06cc \u0642\u0627\u062f\u0631\u0633\u06d5\u0631\u06be\u06d5\u0646\u06af"}}, {"type": "way", "id": 1205881937, "nodes": [11174634344, 11174634345, 11174634346, 11174634347, 11174634348, 11174634349, 11174634350, 11174634351, 11174634352, 11174634353, 11174634354, 11174634355, 11174634356, 11174634357, 11174634358, 11174634359, 11174634360, 11174634361, 11174634362, 11174634363, 11174634364, 11174634365, 11174634366, 11174634344], "tags": {"name": "\u0628\u06d5\u0647\u0631\u0627\u0645 \u0628\u06d5\u06af\u06cc \u0634\u06ce\u062e \u062d\u0627\u0645\u06cc\u062f", "place": "village", "residential": "rural"}}, {"type": "way", "id": 1206332106, "nodes": [11178362500, 11178362501, 11178362502, 11178362503, 11178362504, 11178362505, 11178362506, 11178362507, 11178362508, 11178362509, 11178362510, 11178362511, 11178362512, 11178362513, 11178362514, 11178362515, 11178362516, 11178362517, 11178362518, 11178362519, 11178362520, 11178362521, 11178362522, 11178362523, 11178362524, 11178362525, 11178362526, 11178362527, 11178362528, 11178362529, 11178362530, 11178362500], "tags": {"name": "\u0632\u06c6\u0631\u0627\u0628 \u0628\u06d5\u06af\u0632\u0627\u062f\u06d5", "place": "village", "residential": "rural", "wikidata": "Q61391625", "wikipedia": "ckb:\u0632\u06c6\u0631\u0627\u0628 \u0628\u06d5\u06af\u0632\u0627\u062f\u06d5"}}, {"type": "way", "id": 1206334140, "nodes": [11178385950, 11178385951, 11178385952, 11178385953, 11178385954, 11178385955, 11178385956, 11178385957, 11178385958, 11178385959, 11178385960, 11178385961, 11178385962, 11178385963, 11178385964, 11178385965, 11178385966, 11178385967, 11178385968, 11178385969, 11178385950], "tags": {"name": "\u062a\u06d5\u06a9\u06ce \u06a9\u06c6\u0646", "place": "village", "residential": "rural", "wikidata": "Q61391598", "wikipedia": "ckb:\u062a\u06d5\u06a9\u06ce \u06a9\u06c6\u0646"}}, {"type": "way", "id": 1215383626, "nodes": [11260276370, 11260276371, 11260276372, 11260276373, 11260276374, 11260276375, 11260276376, 11260276377, 11260276359, 11260276360, 11260276364, 11260276365, 11260276366, 11260276367, 11260276368, 11260276369, 11260276361, 11260276362, 11260276363, 11260276370], "tags": {"name": "\u062f\u06ce", "place": "village"}}, {"type": "way", "id": 1216211346, "nodes": [11268906472, 11268906473, 11268906474, 11268906475, 11268906476, 11268906477, 11281112633, 11281112634, 11268906482, 11268906483, 11268906484, 11268906485, 11268906486, 11268906487, 11268906472], "tags": {"name": "\u0633\u06ce\u062e\u0695\u0627\u0646", "place": "village", "residential": "rural", "wikidata": "Q61391410", "wikipedia": "ckb:\u0633\u06ce\u062e\u0695\u0627\u0646"}}, {"type": "way", "id": 1217495151, "nodes": [11281013496, 11281013497, 11281013498, 11281013499, 11281013500, 11281013501, 11281013502, 11281013503, 11281013504, 11281013505, 11281013506, 11281013507, 11281013508, 11281013509, 11281013510, 11281013511, 11281013512, 11281013513, 11281013514, 11281013515, 11281013516, 11281013517, 11281013518, 11281013519, 11281013520, 11281013521, 11281013522, 11281013523, 11281013524, 11281013525, 11281013526, 11281013527, 11281013528, 11281013496], "tags": {"name": "\u0686\u0648\u0627\u0631\u0634\u0627\u062e\u06cc \u0633\u06d5\u0631\u0648\u0648", "place": "village", "residential": "rural", "wikidata": "Q61391698", "wikipedia": "ckb:\u0686\u0648\u0627\u0631\u0634\u0627\u062e\u06cc \u0633\u06d5\u0631\u0648\u0648"}}, {"type": "way", "id": 1217496775, "nodes": [11281026867, 11281026868, 11281029769, 11281029770, 11281029771, 11281029772, 11281029773, 11281029774, 11281029775, 11281029776, 11281029777, 11281029778, 11281029779, 11281029780, 11281029781, 11281029782, 11281029783, 11281029784, 11281029785, 11281029786, 11281029787, 11281029788, 11281029789, 11281029790, 11281029791, 11281029792, 11281029793, 11281029794, 11281029795, 11281029796, 11281029797, 11281029798, 11281029799, 11281029800, 11281029801, 11281029802, 11281029803, 11281029804, 11281029805, 11281029806, 11281029807, 11281029808, 11281029809, 11281029810, 11281029811, 11281029812, 11281029813, 11281029814, 11281029815, 11281029816, 11281029817, 11281029818, 11281029819, 11281029820, 11281029821, 11281029822, 11281029823, 11281029824, 11281029825, 11281029826, 11281029827, 11281029828, 11281029829, 11281029830, 11281026867], "tags": {"name": "\u0686\u0648\u0627\u0631\u0634\u0627\u062e\u06cc \u062e\u0648\u0627\u0631\u0648\u0648", "place": "village", "residential": "rural", "wikidata": "Q61391696", "wikipedia": "ckb:\u0686\u0648\u0627\u0631\u0634\u0627\u062e\u06cc \u062e\u0648\u0627\u0631\u0648\u0648"}}, {"type": "way", "id": 1217951125, "nodes": [11285521162, 11285521163, 11285521164, 11285521165, 11285521166, 11285521167, 11285521168, 11285555269, 11285555270, 11285555271, 11285555272, 11285555273, 11285555274, 11285555275, 11285555276, 11285555277, 11285555278, 11285555279, 11285555280, 11285555281, 11285521162], "tags": {"name": "\u06af\u06d5\u0631\u0645\u06a9", "place": "village", "residential": "rural", "wikidata": "Q61391865", "wikipedia": "ckb:\u06af\u06d5\u0631\u0645\u06a9\u060c \u0646\u06d5\u0648\u062c\u0648\u0644"}}, {"type": "way", "id": 1217951293, "nodes": [11285517945, 11285517946, 11285517947, 11285517948, 11285517949, 11285517950, 11285517951, 11285517952, 11285517953, 11285517954, 11285517955, 11285517956, 11285517957, 11285517958, 11285517959, 11285517960, 11285517961, 11285517962, 11285517963, 11285517964, 11285517965, 11285517966, 11285517967, 11285517968, 11285556769, 11285556770, 11285556771, 11285556772, 11285517945], "tags": {"name": "\u062e\u06c6\u0631\u0646\u06d5\u0648\u0627\u0632\u0627\u0646", "place": "village", "residential": "rural", "wikidata": "Q61391804", "wikipedia": "ckb:\u062e\u06c6\u0631\u0646\u06d5\u0648\u0627\u0632\u0627\u0646"}}, {"type": "way", "id": 1217953065, "nodes": [11285564971, 11285564972, 11285564973, 11285564974, 11285564975, 11285564976, 11285564977, 11285564978, 11285564979, 11285564980, 11285564981, 11285564982, 11285564983, 11285564984, 11285564985, 11285564986, 11285564987, 11285564988, 11285564989, 11285564990, 11285564991, 11285564992, 11285564993, 11285564994, 11285564995, 11285564996, 11285564997, 11285564998, 11285564999, 11285565000, 11285565001, 11285565002, 11285565003, 11285565004, 11285565005, 11285565006, 11285565007, 11285565008, 11285565009, 11285565010, 11285565011, 11285565012, 11285565013, 11285565014, 11285565015, 11285565016, 11285565017, 11285565018, 11285565019, 11285565020, 11285565021, 11285565022, 11285565023, 11285565024, 11285565025, 11285565026, 11285565027, 11285565028, 11285565029, 11285565030, 11285565031, 11285565032, 11285565033, 11285565034, 11285565035, 11285565036, 11285565037, 11285565038, 11285565039, 11285564971], "tags": {"name": "\u0639\u0648\u0645\u06d5\u0631\u0633\u06c6\u0641\u06cc", "place": "village", "residential": "rural", "wikidata": "Q61391840", "wikipedia": "ckb:\u0639\u0648\u0645\u06d5\u0631\u0633\u06c6\u0641\u06cc"}}, {"type": "way", "id": 1217953400, "nodes": [11285489690, 11285489691, 11285489692, 11285489693, 11285489694, 11285489695, 11285489696, 11285489697, 11285489698, 11285489699, 11285489700, 11285489701, 11285489702, 11285489703, 11285489704, 11285489705, 11285489706, 11285489707, 11285489708, 11285489709, 11285489710, 11285489711, 11285489712, 11285489713, 11285489714, 11285489715, 11285489716, 11285489717, 11285489718, 11285489719, 11285489720, 11285489721, 11285489722, 11285489723, 11285489724, 11285489725, 11285489726, 11285489727, 11285489728, 11285489729, 11285489730, 11285489731, 11285489732, 11285489733, 11285489734, 11285489735, 11285489736, 11285489737, 11285489738, 11285489739, 11285489740, 11285489741, 11285489742, 11285489743, 11285489690], "tags": {"name": "\u062d\u06d5\u06cc\u062f\u06d5\u0631\u06d5\u0633\u0648\u0648\u0631\u06d5", "place": "village", "residential": "rural", "wikidata": "Q61391794", "wikipedia": "ckb:\u062d\u06d5\u06cc\u062f\u06d5\u0631\u06d5\u0633\u0648\u0648\u0631\u06d5"}}, {"type": "way", "id": 1217973675, "nodes": [11285744124, 11285744125, 11285744126, 11285744127, 11285744128, 11285744129, 11285744130, 11285744131, 11285744132, 11285744133, 11285744134, 11285744135, 11285744124], "tags": {"name": "\u0626\u06cc\u0645\u0627\u0645 \u0645\u062d\u06d5\u0645\u06d5\u062f", "place": "village", "residential": "rural", "wikidata": "Q61391761", "wikipedia": "ckb:\u0626\u06cc\u0645\u0627\u0645 \u0645\u062d\u06d5\u0645\u06d5\u062f \u0695\u06d5\u0634\u06cc\u062f \u0626\u0627\u063a\u0627"}}, {"type": "way", "id": 1217974729, "nodes": [11285700341, 11285700342, 11285700343, 11285700344, 11285700345, 11285700346, 11285700347, 11285700348, 11285700349, 11285700350, 11285700351, 11285700352, 11285700353, 11285700354, 11285700355, 11285700356, 11285700357, 11285700341], "tags": {"name": "\u0628\u0627\u0634\u062a\u06d5\u067e\u06d5\u06cc \u0628\u0686\u0648\u0648\u06a9", "place": "village", "residential": "rural", "wikidata": "Q61391764", "wikipedia": "ckb:\u0628\u0627\u0634\u062a\u06d5\u067e\u06d5\u06cc \u0628\u0686\u0648\u0648\u06a9"}}, {"type": "way", "id": 1217975168, "nodes": [11285753175, 11285753176, 11285753177, 11285753178, 11285753179, 11285753180, 11285753181, 11285753182, 11285753183, 11285753184, 11285753185, 11285753186, 11285753187, 11285753188, 11285753175], "tags": {"name": "\u0626\u0627\u0648\u0627\u06cc\u06cc \u0646\u0627\u0645\u06cc\u0642", "place": "village", "residential": "rural", "wikidata": "Q61391762", "wikipedia": "ckb:\u0626\u0627\u0648\u0627\u06cc\u06cc \u0646\u0627\u0645\u06cc\u0642"}}, {"type": "way", "id": 1217975363, "nodes": [11285741304, 11285741305, 11285741306, 11285741307, 11285741308, 11285741309, 11285741310, 11285741311, 11285741312, 11285741313, 11285741314, 11285741315, 11285741304], "tags": {"name": "\u0626\u0627\u0648\u0627\u06cc\u06cc \u0639\u06d5\u0644\u06cc", "place": "village", "residential": "rural", "wikidata": "Q61391757", "wikipedia": "ckb:\u0626\u0627\u0648\u0627\u06cc\u06cc \u0639\u06d5\u0644\u06cc"}}, {"type": "way", "id": 1217976803, "nodes": [11285757945, 11285757946, 11285757947, 11285757948, 11285757949, 11285757950, 11285757951, 11285757952, 11285757953, 11285757954, 11285757955, 11285757945], "tags": {"name": "\u0626\u0627\u0648\u0627\u06cc\u06cc \u0695\u06d5\u0632\u0627", "place": "village", "residential": "rural", "wikidata": "Q61391758", "wikipedia": "ckb:\u0626\u0627\u0648\u0627\u06cc\u06cc \u0695\u06d5\u0632\u0627"}}, {"type": "way", "id": 1217980996, "nodes": [11285792033, 11285792034, 11285792035, 11285792036, 11285792037, 11285792038, 11285792039, 11285792040, 11285792041, 11285792042, 11285792043, 11285792044, 11285792045, 11285792046, 11285792047, 11285792048, 11285792049, 11285792050, 11285792051, 11285792052, 11285792053, 11285792054, 11285792055, 11285792056, 11285792057, 11285792058, 11285792059, 11285792060, 11285792061, 11285792062, 11285792063, 11285792064, 11285792065, 11285792066, 11285792033], "tags": {"place": "village"}}, {"type": "way", "id": 1217981711, "nodes": [11285832876, 11285832877, 11285832878, 11285832879, 11285832880, 11285832881, 11285832882, 11285832883, 11285832884, 11285832885, 11285832886, 11285832887, 11285832888, 11285832889, 11285832890, 11285832891, 11285832892, 11285832893, 11285832894, 11285832895, 11285832896, 11285832897, 11285832898, 11285832899, 11285832900, 11285832901, 11285832902, 11285832903, 11285832904, 11285832905, 11285832906, 11285832907, 11285832908, 11285832909, 11285832910, 11285832876], "tags": {"name": "\u062a\u06d5\u067e\u06d5\u0686\u06d5\u0631\u0645\u0648\u06a9", "place": "village", "residential": "rural", "wikidata": "Q61391786", "wikipedia": "ckb:\u062a\u06d5\u067e\u06d5\u0686\u06d5\u0631\u0645\u0648\u06a9"}}]}