{"version": 0.6, "generator": "Overpass API 0.7.61.5 4133829e", "osm3s": {"timestamp_osm_base": "2024-03-05T14:47:30Z", "copyright": "The data included in this document is from www.openstreetmap.org. The data is made available under ODbL."}, "elements": [{"type": "node", "id": 1935680245, "lat": 60.0762364, "lon": 11.1374805, "tags": {"amenity": "bank", "branch": "Kl\u00f8fta", "brand": "Odal Sparebank", "name": "Odal Sparebank Kl\u00f8fta", "ref:bankorg": "991927719"}}, {"type": "node", "id": 2252804568, "lat": 60.1404266, "lon": 11.1744633, "tags": {"amenity": "bank", "branch": "Jessheim", "brand": "DNB", "name": "DNB Jessheim", "ref:dnb": "26"}}, {"type": "node", "id": 6693513060, "lat": 59.9581329, "lon": 11.0490706, "tags": {"amenity": "bank", "branch": "Lillestr\u00f8m", "brand": "Handelbanken", "check_date": "2024-01-21", "email": "lillestrom@handelsbanken.no", "name": "Handelsbanken Lillestr\u00f8m", "opening_hours": "Mo-Fr 09:00-15:00", "operator": "Handelsbanken", "phone": "+47 63 89 05 30", "ref:handelsbanken": "9049"}}, {"type": "node", "id": 6864709217, "lat": 59.9559895, "lon": 11.0461689, "tags": {"amenity": "bank", "atm": "yes", "branch": "Lillestr\u00f8m", "brand": "Sparebank 1 \u00d8stlandet", "check_date": "2024-01-24", "drive_through": "no", "name": "Sparebank 1 \u00d8stlandet Lillestr\u00f8m", "opening_hours": "Mo-Fr 09:00-16:00; Sa 09:00-15:00", "ref:bankorg": "973126083"}}, {"type": "node", "id": 7017998783, "lat": 60.14108, "lon": 11.1759858, "tags": {"amenity": "bank", "branch": "Jessheim", "brand": "Nordea", "name": "Nordea Jessheim", "ref:nordea": "213040"}}, {"type": "node", "id": 7017998784, "lat": 59.9556045, "lon": 11.0525758, "tags": {"amenity": "bank", "branch": "Lillestr\u00f8m", "brand": "Nordea", "check_date": "2024-01-29", "level": "2", "name": "Nordea Lillestr\u00f8m", "ref:nordea": "213010"}}, {"type": "node", "id": 7078343258, "lat": 59.9513432, "lon": 11.0465833, "tags": {"amenity": "bank", "atm": "yes", "branch": "Lillestr\u00f8m", "brand": "DNB", "check_date": "2024-01-29", "name": "DNB Lillestr\u00f8m", "ref:dnb": "135"}}, {"type": "node", "id": 9172539488, "lat": 59.9561339, "lon": 11.049742, "tags": {"amenity": "bank", "brand": "Romerike Sparebank", "check_date": "2023-08-31", "name": "Romerike Sparebank", "ref:bankorg": "974091054", "website": "http://www.lillestrombanken.no"}}, {"type": "node", "id": 9253807098, "lat": 59.946191, "lon": 11.0082528, "tags": {"amenity": "bank", "branch": "Str\u00f8mmen", "brand": "Sparebanken \u00d8st", "name": "Sparebanken \u00d8st Str\u00f8mmen", "ref:bankorg": "990477698"}}, {"type": "node", "id": 9253807106, "lat": 60.141927, "lon": 11.1747207, "tags": {"amenity": "bank", "branch": "Jessheim", "brand": "Sparebanken \u00d8st", "name": "Sparebanken \u00d8st Jessheim", "ref:bankorg": "883400682"}}, {"type": "node", "id": 9254443955, "lat": 59.9870819, "lon": 11.2467884, "tags": {"amenity": "bank", "branch": "S\u00f8rumsand", "brand": "Blaker Sparebank", "name": "Blaker Sparebank S\u00f8rumsand", "ref:bankorg": "974289512"}}, {"type": "node", "id": 9254443961, "lat": 60.1431685, "lon": 11.1698906, "tags": {"amenity": "bank", "branch": "Jessheim", "brand": "Aurskog Sparebank", "name": "Aurskog Sparebank Jessheim", "ref:bankorg": "990907420", "website": "http://www.aurskog-sparebank.no"}}, {"type": "node", "id": 9254443962, "lat": 59.9866706, "lon": 11.2468323, "tags": {"amenity": "bank", "branch": "S\u00f8rumsand", "brand": "Aurskog Sparebank", "name": "Aurskog Sparebank S\u00f8rumsand", "ref:bankorg": "925402672"}}, {"type": "node", "id": 9254443984, "lat": 59.9278327, "lon": 11.1611892, "tags": {"amenity": "bank", "branch": "Fetsund", "brand": "Tr\u00f8gstad Sparebank", "name": "Tr\u00f8gstad Sparebank Fetsund", "ref:bankorg": "914478189"}}, {"type": "node", "id": 9254443987, "lat": 60.2863487, "lon": 11.1688711, "tags": {"amenity": "bank", "branch": "R\u00e5holt", "brand": "Totens Sparebank", "name": "Totens Sparebank R\u00e5holt", "ref:bankorg": "993147605"}}, {"type": "node", "id": 9254443995, "lat": 59.9486291, "lon": 11.009837, "tags": {"amenity": "bank", "brand": "Str\u00f8mmen Sparebank", "name": "Str\u00f8mmen Sparebank", "ref:bankorg": "973084143"}}, {"type": "node", "id": 9258384857, "lat": 60.1426024, "lon": 11.1711255, "tags": {"amenity": "bank", "branch": "Jessheim", "brand": "Sparebank 1 \u00d8stlandet", "name": "Sparebank 1 \u00d8stlandet Jessheim", "ref:bankorg": "992203307"}}, {"type": "node", "id": 9258384859, "lat": 59.927402, "lon": 10.9589507, "tags": {"amenity": "bank", "branch": "L\u00f8renskog", "brand": "Sparebank 1 \u00d8stlandet", "name": "Sparebank 1 \u00d8stlandet L\u00f8renskog", "ref:bankorg": "987629908"}}, {"type": "node", "id": 9258384861, "lat": 60.2810019, "lon": 11.1739086, "tags": {"amenity": "bank", "branch": "Eidsvoll", "brand": "Sparebank 1 \u00d8stlandet", "name": "Sparebank 1 \u00d8stlandet Eidsvoll", "ref:bankorg": "911914190"}}, {"type": "node", "id": 9262830574, "lat": 60.1943017, "lon": 11.0997096, "tags": {"amenity": "bank", "branch": "Oslo Lufthavn - Avgang", "brand": "DNB", "name": "DNB Oslo Lufthavn - Avgang", "ref:dnb": "122"}}, {"type": "node", "id": 9264453761, "lat": 60.1421341, "lon": 11.1727166, "tags": {"amenity": "bank", "atm": "yes", "branch": "Jessheim", "brand": "Handelbanken", "email": "jessheim@handelsbanken.no", "name": "Handelsbanken Jessheim", "opening_hours": "Mo-Fr 09:00-15:00", "phone": "+47 63 94 10 20", "ref:handelsbanken": "9054"}}]}