{"version": 0.6, "generator": "Overpass API 0.7.61.5 4133829e", "osm3s": {"timestamp_osm_base": "2024-03-06T11:08:30Z", "copyright": "The data included in this document is from www.openstreetmap.org. The data is made available under ODbL."}, "elements": [{"type": "node", "id": 2487770798, "lat": 31.630252, "lon": 44.680566, "tags": {"alt_name": "\u0645\u0633\u062a\u0648\u0635\u0641 \u0627\u0644\u0647\u0631\u062f", "amenity": "hospital", "int_name": "Mustaw\u015faf al Hurd, \u0645\u0633\u062a\u0648\u0635\u0641 \u0627\u0644\u0647\u0631\u062f, Mustawsaf al Hurd, \u0645\u0633\u062a\u0648\u0635\u0641 \u0627\u0644\u0647\u0631\u062f", "is_in": "Iraq , \u062c\u0645\u0647\u0648\u0631\u064a\u0629 \u0627\u0644\u0639\u0631\u0627\u0642", "name": "\u0645\u0633\u062a\u0648\u0635\u0641 \u0627\u0644\u0647\u0631\u062f", "name:ar": "\u0645\u0633\u062a\u0648\u0635\u0641 \u0627\u0644\u0647\u0631\u062f", "name:ar1": "\u0645\u0633\u062a\u0648\u0635\u0641 \u0627\u0644\u0647\u0631\u062f", "name:de": "Mustawsaf al Hurd", "name:en": "Mustawsaf al Hurd", "name:fr": "Mustawsaf al Hurd"}}, {"type": "node", "id": 4514785835, "lat": 31.5748379, "lon": 44.6404258, "tags": {"addr:street": "\u0634\u0646\u0627\u0641\u064a\u0629 - \u0639\u0628\u062f \u0627\u0644\u0644\u0647 \u0628\u0646 \u0627\u0644\u062d\u0633\u0646", "amenity": "hospital", "name": "\u0627\u0644\u0645\u0631\u0643\u0632 \u0627\u0644\u0635\u062d\u064a", "name:ar": "\u0645\u0631\u0643\u0632 \u0627\u0644\u0635\u062d\u064a \u0627\u0644\u0646\u0645\u0648\u0630\u062c\u064a \u0644\u0644\u0634\u0646\u0627\u0641\u064a\u0629"}}, {"type": "node", "id": 4514789421, "lat": 31.5800181, "lon": 44.6485663, "tags": {"amenity": "hospital", "name": "\u0627\u0644\u0645\u0631\u0643\u0632 \u0627\u0644\u0635\u062d\u064a \u0627\u0644\u0633\u0631\u0627\u064a"}}, {"type": "node", "id": 4535542588, "lat": 31.5806315, "lon": 44.6473787}, {"type": "node", "id": 4535542789, "lat": 31.5803344, "lon": 44.6470997}, {"type": "node", "id": 4535542790, "lat": 31.5799506, "lon": 44.6476094}, {"type": "node", "id": 4535542791, "lat": 31.5795575, "lon": 44.6483067}, {"type": "node", "id": 4535542792, "lat": 31.5800511, "lon": 44.6487091}, {"type": "node", "id": 4535542793, "lat": 31.5802248, "lon": 44.6488539}, {"type": "node", "id": 4742720226, "lat": 31.5804628, "lon": 44.6479908}, {"type": "node", "id": 5140345027, "lat": 31.5828995, "lon": 44.6479473, "tags": {"addr:street": "\u062c\u0633\u0631 \u0627\u0644\u0634\u0646\u0627\u0641\u064a\u0629", "amenity": "doctors", "name": "\u0645\u062d\u0645\u062f \u0634\u0627\u0643\u0631", "name:ar": "\u0645\u062d\u0645\u062f \u0634\u0627\u0643\u0631", "phone": "07807228424"}}, {"type": "node", "id": 5469838321, "lat": 31.5807401, "lon": 44.647057, "tags": {"addr:street": "\u0627\u0644\u0643\u0648\u0631\u0646\u064a\u0634", "amenity": "doctors", "name": "\u0637\u0648\u0627\u0631\u0626 \u0627\u0644\u0634\u0646\u0640\u0627\u0641\u064a\u0629"}}, {"type": "node", "id": 5471369524, "lat": 31.5819509, "lon": 44.6466663, "tags": {"addr:street": "\u0634\u0627\u0631\u0639 \u062d\u0646\u0648\u0646", "amenity": "pharmacy", "name": "\u0635\u064a\u0640\u062f\u0644\u064a\u0629 \u0627\u0644\u0648\u0641\u0627\u0621"}}, {"type": "node", "id": 5743441021, "lat": 31.5823812, "lon": 44.6470292, "tags": {"amenity": "pharmacy", "name": "\u0635\u064a\u062f\u0644\u064a\u0629 \u0627\u0644\u0648\u0644\u0627\u064a\u0629"}}, {"type": "node", "id": 7920776685, "lat": 31.5749406, "lon": 44.6406843, "tags": {"amenity": "clinic", "name": "\u0645\u0631\u0643\u0632 \u0627\u0644\u0634\u0647\u064a\u062f \u062c\u0639\u0641\u0631 \u0627\u0644\u0634\u0648\u0643\u0629 \u0627\u0644\u0635\u062d\u064a \u0627\u0644\u0646\u0648\u0630\u062c\u064a"}}, {"type": "node", "id": 8620302817, "lat": 31.5828647, "lon": 44.6470778, "tags": {"addr:street": "\u0634\u0627\u0631\u0639 \u062d\u0646\u0648\u0646", "amenity": "pharmacy", "name": "\u0635\u064a\u062f\u0644\u064a\u0629 \u0627\u062d\u0645\u062f \u0627\u0644\u0634\u064a\u0628\u0627\u0646\u064a", "opening_hours": "Mo-Su 07:00-12:00"}}, {"type": "node", "id": 8842146139, "lat": 31.5832859, "lon": 44.6500254, "tags": {"amenity": "hospital", "name:en": "ASH SHINAFIYAH HOSPITAL CIVILIAN"}}, {"type": "way", "id": 457401622, "nodes": [4535542588, 4535542789, 4535542790, 4535542791, 4535542792, 4535542793, 4742720226, 4535542588], "tags": {"amenity": "hospital"}}]}