{"version": 0.6, "generator": "Overpass API 0.7.61.5 4133829e", "osm3s": {"timestamp_osm_base": "2024-03-05T11:11:34Z", "copyright": "The data included in this document is from www.openstreetmap.org. The data is made available under ODbL."}, "elements": [{"type": "node", "id": 1874472267, "lat": 6.0970341, "lon": -0.8399657, "tags": {"amenity": "bank", "name": "Agricultural development bank"}}, {"type": "node", "id": 1874472268, "lat": 6.0964713, "lon": -0.8401496, "tags": {"amenity": "bank", "brand": "GCB Bank", "brand:wikidata": "Q1521346", "brand:wikipedia": "en:GCB Bank", "name": "GCB Bank", "name:it": "GCB", "operator": "GCB Bank"}}, {"type": "node", "id": 11213740905, "lat": 5.9239041, "lon": -0.9884959, "tags": {"addr:country": "GH", "addr:region": "Eastern", "addr:street": "R62", "addr:town": "Akim Oda", "alt_name": "Absa - Oda Branch", "amenity": "bank", "branch": "Oda", "brand": "Absa", "brand:wikidata": "Q58641733", "brand:wikipedia": "en:Absa Group Limited", "contact:instagram": "absaghana", "contact:linkedin": "absa-ghana", "contact:twitter": "AbsaGhana", "contact:whatsapp": "+233 50 164 4644", "contact:youtube": "https://www.youtube.com/channel/UCKpKPyfJ69tf7lnxudpzKJQ", "email": "service.excellence.GH@absa.africa", "facebook": "AbsaGhana", "name": "Absa", "opening_hours": "Mo-Fr 08:30-16:30; PH off", "operator": "Absa Bank Ghana Limited", "operator:type": "public", "operator:wikidata": "Q96371413", "operator:wikipedia": "en:Absa Bank Ghana", "phone": "+233 34 292 2070", "website": "https://www.absa.com.gh"}}]}