{"version": 0.6, "generator": "Overpass API 0.7.61.5 4133829e", "osm3s": {"timestamp_osm_base": "2024-02-29T13:48:25Z", "copyright": "The data included in this document is from www.openstreetmap.org. The data is made available under ODbL."}, "elements": [{"type": "node", "id": 3965809028, "lat": 5.2903252, "lon": -2.7898817, "tags": {"amenity": "school", "projet:eboci": "yes"}}, {"type": "node", "id": 7072314438, "lat": 5.0716567, "lon": -2.5350021, "tags": {"amenity": "school"}}, {"type": "node", "id": 7581511130, "lat": 5.0410349, "lon": -2.4588311, "tags": {"amenity": "school", "name": "Hasania JHS"}}, {"type": "node", "id": 7581511132, "lat": 5.0365637, "lon": -2.4607789, "tags": {"addr:city": "Aiyinase", "amenity": "school", "name": "Methodist School"}}, {"type": "node", "id": 7581511134, "lat": 5.034558, "lon": -2.4568689, "tags": {"amenity": "school", "name": "Rainbow School"}}, {"type": "node", "id": 7581511135, "lat": 5.0312249, "lon": -2.4577657, "tags": {"amenity": "school", "name": "St. Theresah's Vocational Institute"}}, {"type": "node", "id": 7581519436, "lat": 5.0420205, "lon": -2.4675576, "tags": {"amenity": "school", "name": "Anglican School"}}, {"type": "node", "id": 7600049642, "lat": 5.046501, "lon": -2.471759, "tags": {"addr:city": "Aiyinase", "amenity": "school", "name": "Holy Child Preparatory School"}}, {"type": "node", "id": 7600226979, "lat": 5.0663874, "lon": -2.7748378, "tags": {"amenity": "school", "name": "New Kabenla-Suazo M/A Basic School"}}, {"type": "node", "id": 7600226984, "lat": 5.0610813, "lon": -2.7775497, "tags": {"amenity": "school", "name": "Christ's Preparatory School"}}, {"type": "node", "id": 7746284985, "lat": 5.0717439, "lon": -2.5329571, "tags": {"amenity": "school", "name": "G. P. S. Talent and Creative Art School"}}, {"type": "node", "id": 7747245688, "lat": 5.0363578, "lon": -2.4461424}, {"type": "node", "id": 9679926879, "lat": 4.9983141, "lon": -2.6361428}, {"type": "node", "id": 9679926880, "lat": 4.9984812, "lon": -2.6370291}, {"type": "node", "id": 9679926881, "lat": 4.9989396, "lon": -2.636942}, {"type": "node", "id": 9679926882, "lat": 4.9987725, "lon": -2.6360557}, {"type": "node", "id": 9679926883, "lat": 4.9975182, "lon": -2.6360324}, {"type": "node", "id": 9679926884, "lat": 4.9977334, "lon": -2.6370496}, {"type": "node", "id": 9679926885, "lat": 4.9982805, "lon": -2.636933}, {"type": "node", "id": 9679926886, "lat": 4.9980654, "lon": -2.6359158}, {"type": "node", "id": 9679926979, "lat": 4.9859571, "lon": -2.5864967}, {"type": "node", "id": 9679926980, "lat": 4.9857084, "lon": -2.585596}, {"type": "node", "id": 9679926981, "lat": 4.9868168, "lon": -2.5852877}, {"type": "node", "id": 9679926982, "lat": 4.9870654, "lon": -2.5861885}, {"type": "node", "id": 9854097919, "lat": 5.024492, "lon": -2.7189553}, {"type": "node", "id": 9854097920, "lat": 5.0207727, "lon": -2.7194595}, {"type": "node", "id": 9854097921, "lat": 5.0205697, "lon": -2.7190465}, {"type": "node", "id": 9854097922, "lat": 5.0203987, "lon": -2.7178234}, {"type": "node", "id": 9854097923, "lat": 5.0204013, "lon": -2.7164689}, {"type": "node", "id": 9854097924, "lat": 5.0224079, "lon": -2.7171099}, {"type": "node", "id": 9854097925, "lat": 5.0229236, "lon": -2.717236}, {"type": "node", "id": 9854097926, "lat": 5.0243397, "lon": -2.7174425}, {"type": "node", "id": 9854097927, "lat": 5.0247913, "lon": -2.7175927}, {"type": "node", "id": 9861378555, "lat": 5.0384419, "lon": -2.4481407}, {"type": "node", "id": 9861378556, "lat": 5.0391766, "lon": -2.4479395}, {"type": "node", "id": 9861378557, "lat": 5.0396362, "lon": -2.4476847}, {"type": "node", "id": 9861378558, "lat": 5.0400851, "lon": -2.4471295}, {"type": "node", "id": 9861378559, "lat": 5.0407851, "lon": -2.4467433}, {"type": "node", "id": 9861378560, "lat": 5.0380652, "lon": -2.4414754}, {"type": "node", "id": 9861378561, "lat": 5.0351395, "lon": -2.443125}, {"type": "node", "id": 9861378562, "lat": 5.0373104, "lon": -2.4484424}, {"type": "way", "id": 1053310885, "nodes": [9679926882, 9679926881, 9679926880, 9679926879, 9679926882], "tags": {"amenity": "school", "name": "Kengen Junior High School"}}, {"type": "way", "id": 1053310886, "nodes": [9679926886, 9679926885, 9679926884, 9679926883, 9679926886], "tags": {"amenity": "school", "name": "Kengen Elementary School"}}, {"type": "way", "id": 1053310901, "nodes": [9679926982, 9679926981, 9679926980, 9679926979, 9679926982], "tags": {"amenity": "school"}}, {"type": "way", "id": 1074312923, "nodes": [9854097927, 9854097926, 9854097925, 9854097924, 9854097923, 9854097922, 9854097921, 9854097920, 9854097919, 9854097927], "tags": {"addr:country": "GH", "addr:district": "Jomoro", "addr:place": "Ezinlibo", "addr:region": "Western", "amenity": "school", "description": "Annor Adjaye SHS was established in 1991 and is a government assisted co-educational institution located at Ezinlibo in the Jomoro District, in Western Region.", "email": "annoradjayeshs@ges.gov.gh", "isced:level": "3", "name": "Annor Adjaye Senior High School", "operator": "Ghana Education Service", "operator:short": "GES", "operator:type": "public", "operator:wikidata": "Q30263788", "phone": "+233 24 352 3249", "start_date": "1991"}}, {"type": "way", "id": 1075220585, "nodes": [9861378562, 7747245688, 9861378561, 9861378560, 9861378559, 9861378558, 9861378557, 9861378556, 9861378555, 9861378562], "tags": {"addr:country": "GH", "addr:district": "Ellembelle", "addr:place": "Awiebo", "addr:region": "Western", "amenity": "school", "description": "The school was established in 1993 as a community co-educational institution at Awiebo in the Ellembelle district of the Western Region.", "email": "bonzokakushs@ges.gov.gh", "isced:level": "3", "name": "Bonzo Kaku Senior High School", "operator": "Ghana Education Service", "operator:short": "GES", "operator:type": "public", "operator:wikidata": "Q30263788", "phone": "+233 20 819 5630", "start_date": "1993"}}]}