{"version": 0.6, "generator": "Overpass API 0.7.61.5 4133829e", "osm3s": {"timestamp_osm_base": "2024-03-05T14:58:45Z", "copyright": "The data included in this document is from www.openstreetmap.org. The data is made available under ODbL."}, "elements": [{"type": "node", "id": 251708683, "lat": 60.12272, "lon": 11.469124, "tags": {"amenity": "pharmacy", "branch": "\u00c5rnes", "brand": "Vitusapotek", "brand:wikidata": "Q17047215", "email": "aarnes@vitusapotek.no", "healthcare": "pharmacy", "name": "Vitusapotek \u00c5rnes", "opening_hours": "Mo-Fr 10:00-20:00, Sa 10:00-18:00", "phone": "+47 63908950", "ref:nmd": "1204"}}, {"type": "node", "id": 257487959, "lat": 60.1195581, "lon": 11.4769662, "tags": {"amenity": "doctors", "description": "Emergency medical facility", "emergency": "yes", "healthcare": "doctor", "name": "Nes legevakt", "phone": "+47 63 901133", "wheelchair": "limited"}}, {"type": "node", "id": 410168168, "lat": 60.194935, "lon": 11.994325, "tags": {"alt_name": "Kongsvinger sykehus", "amenity": "hospital", "email": "postmottak@ahus.no", "emergency": "yes", "fax": "+47 62333450", "name": "Akershus universitetssykehus Kongsvinger", "name:en": "Innlandet Hospital Trust Kongsvinger", "phone": "+47 91506200", "toilets:wheelchair": "yes", "wheelchair": "yes"}}, {"type": "node", "id": 939714464, "lat": 60.1909558, "lon": 11.9957299, "tags": {"amenity": "pharmacy", "branch": "Kongssenteret", "brand": "Apotek 1", "email": "apotek1.kongssenteret@apotek1.no", "name": "Apotek 1 Kongssenteret", "opening_hours": "Mo-Fr 09:00-20:00, Sa 09:00-18:00", "phone": "+47 62 88 28 60", "ref:apotek1": "505", "wheelchair": "yes"}}, {"type": "node", "id": 939719098, "lat": 60.194621, "lon": 11.995025, "tags": {"amenity": "pharmacy", "dispensing": "yes", "email": "kongsvinger@sykehusapotekene.no", "fax": "+47 62887122", "name": "Sykehusapoteket Kongsvinger", "opening_hours": "Mo-Fr 09:00-16:30; Sa 10:00-13:00", "phone": "+47 62887120", "website": "https://sykehusapotekene.no/omoss/avdelinger/kongsvinger/Sider/enhet.aspx"}}, {"type": "node", "id": 939729277, "lat": 60.1867101, "lon": 12.0027037, "tags": {"amenity": "pharmacy"}}, {"type": "node", "id": 3111556391, "lat": 60.1939908, "lon": 11.9941054}, {"type": "node", "id": 3652646786, "lat": 59.985309, "lon": 12.12303, "tags": {"amenity": "pharmacy", "name": "Vitus apotek"}}, {"type": "node", "id": 3658048625, "lat": 60.123232, "lon": 11.4660211, "tags": {"amenity": "pharmacy", "branch": "\u00c5rnes", "brand": "Apotek 1", "brand:wikidata": "Q4581428", "dispensing": "yes", "email": "apotek1.arnes@apotek1.no", "healthcare": "pharmacy", "name": "Apotek 1 \u00c5rnes", "opening_hours": "Mo-Fr 09:00-17:00, Sa 10:00-15:00", "phone": "+47 63 90 30 80", "ref:apotek1": "852", "wheelchair": "yes"}}, {"type": "node", "id": 4795954000, "lat": 60.119746, "lon": 11.4771025, "tags": {"amenity": "doctors", "healthcare": "doctor", "healthcare:service": "fastlege", "healthcare:speciality": "general", "name": "Nes legesenter", "phone": "+47 63 90 90 60", "ref:nhn": "959409587", "website": "https://www.neslegesenter.no/"}}, {"type": "node", "id": 5921083831, "lat": 59.9891299, "lon": 12.1205888, "tags": {"amenity": "doctors", "healthcare:service": "fastlege", "healthcare:speciality": "general", "name": "Eidskog kommunale legesenter", "ref:nhn": "976640055"}}, {"type": "node", "id": 5921083832, "lat": 60.1951663, "lon": 11.9959331, "tags": {"amenity": "doctors", "healthcare:service": "fastlege", "healthcare:speciality": "general", "name": "Parkvegen legekontor", "ref:nhn": "987997893"}}, {"type": "node", "id": 5921083833, "lat": 60.1942375, "lon": 12.0032386, "tags": {"amenity": "doctors", "healthcare:service": "fastlege", "healthcare:speciality": "general", "name": "Doktorg\u00e5rden legekontor", "ref:nhn": "981718755"}}, {"type": "node", "id": 5921083834, "lat": 60.1930942, "lon": 12.0013456, "tags": {"amenity": "doctors", "healthcare:service": "fastlege", "healthcare:speciality": "general", "name": "Byparken legesenter", "ref:nhn": "912647390"}}, {"type": "node", "id": 5921083835, "lat": 60.1922752, "lon": 11.9965073, "tags": {"amenity": "doctors", "healthcare:service": "fastlege", "healthcare:speciality": "general", "name": "Fjellgata legekontor", "ref:nhn": "981509463"}}, {"type": "node", "id": 5921083836, "lat": 60.1908131, "lon": 11.9974966, "tags": {"amenity": "doctors", "healthcare:service": "fastlege", "healthcare:speciality": "general", "name": "Brugata legekontor", "ref:nhn": "998570301"}}, {"type": "node", "id": 5921083837, "lat": 60.191913, "lon": 11.9962984, "tags": {"amenity": "doctors", "healthcare:service": "fastlege", "healthcare:speciality": "general", "name": "Midtbyen legesenter Kongsvinger", "ref:nhn": "994919806"}}, {"type": "node", "id": 5921083838, "lat": 60.1869895, "lon": 12.0020377, "tags": {"amenity": "doctors", "healthcare:service": "fastlege", "healthcare:speciality": "general", "name": "Doktor Amiri", "ref:nhn": "997864972"}}, {"type": "node", "id": 5921083839, "lat": 60.1869535, "lon": 12.0034186, "tags": {"amenity": "doctors", "healthcare:service": "fastlege", "healthcare:speciality": "general", "name": "Dr. Magdalena D. Herud", "ref:nhn": "981887549"}}, {"type": "node", "id": 5921083840, "lat": 60.15164, "lon": 11.4113851, "tags": {"amenity": "doctors", "healthcare:service": "fastlege", "healthcare:speciality": "general", "name": "Vormsund legekontor", "ref:nhn": "994480715"}}, {"type": "node", "id": 5921083841, "lat": 60.1247562, "lon": 11.4680857, "tags": {"amenity": "doctors", "healthcare": "doctor", "healthcare:service": "fastlege", "healthcare:speciality": "general", "name": "\u00c5rnes legesenter", "ref:nhn": "912155315"}}, {"type": "node", "id": 5921083842, "lat": 60.1240175, "lon": 11.4667068, "tags": {"amenity": "doctors", "healthcare": "doctor", "healthcare:service": "fastlege", "healthcare:speciality": "general", "name": "Apotekg\u00e5rden legesenter", "ref:nhn": "990623414"}}, {"type": "node", "id": 5921083844, "lat": 60.2563646, "lon": 11.6678674, "tags": {"amenity": "doctors", "healthcare": "doctor", "healthcare:service": "fastlege", "healthcare:speciality": "general", "name": "Skarnes legesenter", "ref:nhn": "981094107"}}, {"type": "node", "id": 5921083845, "lat": 60.2536263, "lon": 11.6789203, "tags": {"amenity": "doctors", "healthcare": "doctor", "healthcare:service": "fastlege", "healthcare:speciality": "general", "name": "Parken legesenter", "ref:nhn": "881853302"}}, {"type": "node", "id": 5921083846, "lat": 60.2543653, "lon": 11.6807908, "tags": {"amenity": "doctors", "healthcare": "doctor", "healthcare:service": "fastlege", "healthcare:speciality": "general", "name": "Sentrum legekontor", "ref:nhn": "981737997"}}, {"type": "node", "id": 5921083848, "lat": 60.3278388, "lon": 11.2741464, "tags": {"amenity": "doctors", "healthcare:service": "fastlege", "healthcare:speciality": "general", "name": "Vilberg legesenter", "ref:nhn": "895336092"}}, {"type": "node", "id": 5921084005, "lat": 59.9277173, "lon": 11.4455207, "tags": {"amenity": "doctors", "healthcare:service": "fastlege", "healthcare:speciality": "general", "name": "Aurskog legekontor", "ref:nhn": "987419776"}}, {"type": "node", "id": 5921084007, "lat": 60.0341025, "lon": 11.3509833, "tags": {"amenity": "doctors", "healthcare:service": "fastlege", "healthcare:speciality": "general", "name": "Auli legekontor", "ref:nhn": "997548248"}}, {"type": "node", "id": 5921084009, "lat": 59.999179, "lon": 11.3119475, "tags": {"amenity": "doctors", "healthcare:service": "fastlege", "healthcare:speciality": "general", "name": "Dr. Harfats legekontor", "ref:nhn": "998489806"}}, {"type": "node", "id": 6336087480, "lat": 60.18709, "lon": 12.0075635, "tags": {"amenity": "pharmacy", "branch": "Kongsvinger", "brand": "Apotek 1", "email": "kongsvinger@apotek1.no", "name": "Apotek 1 Kongsvinger", "opening_hours": "Mo-Fr 09:00-17:00, Sa 10:00-15:00", "phone": "+47 62 88 24 40", "ref:apotek1": "85"}}, {"type": "node", "id": 6336087789, "lat": 60.2537102, "lon": 11.6790555, "tags": {"amenity": "pharmacy", "branch": "Skarnes", "brand": "Apotek 1", "email": "skarnes@apotek1.no", "name": "Apotek 1 Skarnes", "opening_hours": "Mo-Fr 09:00-17:00, Sa 09:00-14:00", "phone": "+47 62 96 30 90", "ref:apotek1": "1744"}}, {"type": "node", "id": 6820682125, "lat": 60.201882, "lon": 11.97595, "tags": {"amenity": "pharmacy", "branch": "Langeland Kongsvinger", "brand": "Vitusapotek", "email": "langeland.kongsvinger@vitusapotek.no", "name": "Vitusapotek Langeland Kongsvinger", "opening_hours": "Mo-Fr 09:00-17:00, Sa 10:00-15:00", "phone": "+47 62829100", "ref:nmd": "2053"}}, {"type": "node", "id": 6820682126, "lat": 60.255369, "lon": 11.680469, "tags": {"amenity": "pharmacy", "branch": "Skarnes", "brand": "Vitusapotek", "email": "skarnes@vitusapotek.no", "name": "Vitusapotek Skarnes", "opening_hours": "Mo-Fr 09:00-17:00, Sa 10:00-15:00", "phone": "+47 62962510", "ref:nmd": "2035"}}, {"type": "node", "id": 6820682130, "lat": 59.9280116, "lon": 11.4455858, "tags": {"amenity": "pharmacy", "branch": "Aurskog apotek", "brand": "Ditt Apotek", "email": "aurskog@dittapotek.no", "name": "Aurskog apotek", "opening_hours": "Mo-Fr 09:00-18:00, Sa 10:00-15:00", "phone": "+47 63850050", "ref:nmd": "1534"}}, {"type": "node", "id": 6821148235, "lat": 60.1926633, "lon": 12.0007338, "tags": {"amenity": "pharmacy", "branch": "Kongsvinger", "brand": "Vitusapotek", "email": "kongsvinger@vitusapotek.no", "name": "Vitusapotek Kongsvinger", "opening_hours": "Mo-Fr 09:00-17:00, Sa 10:00-15:00", "phone": "+47 62818110", "ref:nmd": "1821"}}, {"type": "node", "id": 6821148237, "lat": 59.985259, "lon": 12.122826, "tags": {"amenity": "pharmacy", "branch": "Eidskog", "brand": "Vitusapotek", "email": "eidskog@vitusapotek.no", "name": "Vitusapotek Eidskog", "opening_hours": "Mo-Fr 09:00-17:00, Sa 10:00-15:00", "phone": "+47 62835433", "ref:nmd": "1067"}}, {"type": "node", "id": 6821148239, "lat": 60.15193, "lon": 11.412054, "tags": {"amenity": "pharmacy", "branch": "Vormsund", "brand": "Vitusapotek", "email": "vormsund@vitusapotek.no", "name": "Vitusapotek Vormsund", "opening_hours": "Mo-Fr 10:00-20:00, Sa 10:00-18:00", "phone": "+47 63911800", "ref:nmd": "1551"}}, {"type": "node", "id": 7141308183, "lat": 60.3279895, "lon": 11.2602214, "tags": {"amenity": "pharmacy", "branch": "Eidsvoll", "brand": "Apotek 1", "email": "apotek1.eidsvoll@apotek1.no", "name": "Apotek 1 Eidsvoll", "opening_hours": "Mo-Fr 09:00-18:00, Sa 10:00-16:00", "phone": "+47 63 96 33 00", "ref:apotek1": "1389"}}, {"type": "node", "id": 8890805129, "lat": 60.034027, "lon": 11.350668, "tags": {"amenity": "pharmacy", "branch": "Auli", "brand": "Apotek 1", "email": "apotek1.auli@apotek1.no", "name": "Apotek 1 Auli", "opening_hours": "Mo-Fr 09:00-18:00, Sa 10:00-16:00", "phone": "+47 63 88 59 85", "ref:apotek1": "1486"}}, {"type": "node", "id": 8890840225, "lat": 60.123535, "lon": 11.468658, "tags": {"amenity": "pharmacy", "branch": "Raumnes", "brand": "Vitusapotek", "brand:wikidata": "Q17047215", "email": "raumnes@vitusapotek.no", "healthcare": "pharmacy", "name": "Vitusapotek Raumnes", "opening_hours": "Mo-Fr 09:00-17:00, Sa 09:00-14:00", "phone": "+47 67495350", "ref:nmd": "1804"}}, {"type": "node", "id": 9123732308, "lat": 60.115145, "lon": 11.496574}, {"type": "node", "id": 9123732309, "lat": 60.115199, "lon": 11.4963718}, {"type": "node", "id": 9123732310, "lat": 60.115244, "lon": 11.4964202}, {"type": "node", "id": 9123732311, "lat": 60.1152631, "lon": 11.4963488}, {"type": "node", "id": 9123732312, "lat": 60.115219, "lon": 11.4963014}, {"type": "node", "id": 9123732313, "lat": 60.115273, "lon": 11.4960996}, {"type": "node", "id": 9123732314, "lat": 60.11544, "lon": 11.4962794}, {"type": "node", "id": 9123732315, "lat": 60.1153129, "lon": 11.4967549}, {"type": "node", "id": 9477099754, "lat": 60.194481, "lon": 11.9926783}, {"type": "node", "id": 9477099755, "lat": 60.1943134, "lon": 11.9931477}, {"type": "node", "id": 9477099756, "lat": 60.1940927, "lon": 11.9939289}, {"type": "node", "id": 9477099757, "lat": 60.1939423, "lon": 11.9941935}, {"type": "node", "id": 9477099758, "lat": 60.1940363, "lon": 11.9948299}, {"type": "node", "id": 9477099759, "lat": 60.1945499, "lon": 11.9953559}, {"type": "node", "id": 9477099760, "lat": 60.1947362, "lon": 11.9953118}, {"type": "node", "id": 9477099761, "lat": 60.1949366, "lon": 11.9951701}, {"type": "node", "id": 9477099762, "lat": 60.1950494, "lon": 11.9949433}, {"type": "node", "id": 9477099763, "lat": 60.195195, "lon": 11.9942565}, {"type": "node", "id": 9477099764, "lat": 60.1950509, "lon": 11.9940707}, {"type": "node", "id": 9477099765, "lat": 60.1951323, "lon": 11.993636}, {"type": "node", "id": 9477099766, "lat": 60.1950869, "lon": 11.9933965}, {"type": "node", "id": 9477099767, "lat": 60.1945937, "lon": 11.9928075}, {"type": "way", "id": 987072856, "nodes": [9123732315, 9123732314, 9123732313, 9123732312, 9123732311, 9123732310, 9123732309, 9123732308, 9123732315], "tags": {"amenity": "hospital", "healthcare": "hospital", "name": "Villa Solsiden", "operator": "Furukollen Psykiatriske Senter", "operator:type": "private", "ref:bygningsnr": "300523006"}}, {"type": "way", "id": 1028188709, "nodes": [9477099754, 9477099755, 9477099756, 3111556391, 9477099757, 9477099758, 9477099759, 9477099760, 9477099761, 9477099762, 9477099763, 9477099764, 9477099765, 9477099766, 9477099767, 9477099754], "tags": {"amenity": "hospital", "healthcare": "hospital", "name": "Akershus universitetssykehus Kongsvinger", "operator": "AHUS", "operator:type": "public"}}]}