{"version": 0.6, "generator": "Overpass API 0.7.61.5 4133829e", "osm3s": {"timestamp_osm_base": "2024-03-06T10:45:02Z", "copyright": "The data included in this document is from www.openstreetmap.org. The data is made available under ODbL."}, "elements": [{"type": "node", "id": 2483960817, "lat": 33.552319, "lon": 45.113933, "tags": {"alt_name": "\u0645\u062f\u0631\u0633\u0629 \u0627\u0644\u0641\u0627\u0637\u0645\u064a\u0629", "amenity": "school", "int_name": "Madrasat al F\u0101\u0163im\u012byah, \u0645\u062f\u0631\u0633\u0629 \u0627\u0644\u0641\u0627\u0637\u0645\u064a\u0629, Madrasat al Fatimiyah, \u0645\u062f\u0631\u0633\u0629 \u0627\u0644\u0641\u0627\u0637\u0645\u064a\u0629", "is_in": "Iraq , \u062c\u0645\u0647\u0648\u0631\u064a\u0629 \u0627\u0644\u0639\u0631\u0627\u0642", "name": "\u0645\u062f\u0631\u0633\u0629 \u0627\u0644\u0641\u0627\u0637\u0645\u064a\u0629", "name:ar": "\u0645\u062f\u0631\u0633\u0629 \u0627\u0644\u0641\u0627\u0637\u0645\u064a\u0629", "name:ar1": "\u0645\u062f\u0631\u0633\u0629 \u0627\u0644\u0641\u0627\u0637\u0645\u064a\u0629", "name:de": "Madrasat al Fatimiyah", "name:en": "Madrasat al Fatimiyah", "name:fr": "Madrasat al Fatimiyah"}}, {"type": "node", "id": 2485249771, "lat": 33.784791, "lon": 45.083401, "tags": {"alt_name": "\u0645\u062f\u0631\u0633\u0629 \u0627\u0644\u062c\u062f\u0627\u0648\u0644", "amenity": "school", "int_name": "Madrasat al Jad\u0101wil, \u0645\u062f\u0631\u0633\u0629 \u0627\u0644\u062c\u062f\u0627\u0648\u0644, Madrasat al Jadawil, \u0645\u062f\u0631\u0633\u0629 \u0627\u0644\u062c\u062f\u0627\u0648\u0644", "is_in": "Iraq , \u062c\u0645\u0647\u0648\u0631\u064a\u0629 \u0627\u0644\u0639\u0631\u0627\u0642", "name": "\u0645\u062f\u0631\u0633\u0629 \u0627\u0644\u062c\u062f\u0627\u0648\u0644", "name:ar": "\u0645\u062f\u0631\u0633\u0629 \u0627\u0644\u062c\u062f\u0627\u0648\u0644", "name:ar1": "\u0645\u062f\u0631\u0633\u0629 \u0627\u0644\u062c\u062f\u0627\u0648\u0644", "name:de": "Madrasat al Jadawil", "name:en": "Madrasat al Jadawil", "name:fr": "Madrasat al Jadawil"}}, {"type": "node", "id": 2485249799, "lat": 33.801563, "lon": 45.086492, "tags": {"alt_name": "\u0645\u062f\u0631\u0633\u0629 \u0627\u0644\u0645\u0628\u0631\u062f", "amenity": "school", "int_name": "Madrasat al Mabrad, \u0645\u062f\u0631\u0633\u0629 \u0627\u0644\u0645\u0628\u0631\u062f, Madrasat al Mabrad, \u0645\u062f\u0631\u0633\u0629 \u0627\u0644\u0645\u0628\u0631\u062f", "is_in": "Iraq , \u062c\u0645\u0647\u0648\u0631\u064a\u0629 \u0627\u0644\u0639\u0631\u0627\u0642", "name": "\u0645\u062f\u0631\u0633\u0629 \u0627\u0644\u0645\u0628\u0631\u062f", "name:ar": "\u0645\u062f\u0631\u0633\u0629 \u0627\u0644\u0645\u0628\u0631\u062f", "name:ar1": "\u0645\u062f\u0631\u0633\u0629 \u0627\u0644\u0645\u0628\u0631\u062f", "name:de": "Madrasat al Mabrad", "name:en": "Madrasat al Mabrad", "name:fr": "Madrasat al Mabrad"}}, {"type": "node", "id": 2485249944, "lat": 33.880825, "lon": 45.081641, "tags": {"alt_name": "\u0645\u062f\u0631\u0633\u0629 \u0627\u0644\u062b\u0627\u0626\u0631 \u0627\u0644\u0639\u0631\u0628\u064a", "amenity": "school", "int_name": "Madrasat ath Th\u0101ir al Arab\u012b, \u0645\u062f\u0631\u0633\u0629 \u0627\u0644\u062b\u0627\u0626\u0631 \u0627\u0644\u0639\u0631\u0628\u064a, Madrasat ath Thair al Arabi, \u0645\u062f\u0631\u0633\u0629 \u0627\u0644\u062b\u0627\u0626\u0631 \u0627\u0644\u0639\u0631\u0628\u064a", "is_in": "Iraq , \u062c\u0645\u0647\u0648\u0631\u064a\u0629 \u0627\u0644\u0639\u0631\u0627\u0642", "name": "\u0645\u062f\u0631\u0633\u0629 \u0627\u0644\u062b\u0627\u0626\u0631 \u0627\u0644\u0639\u0631\u0628\u064a", "name:ar": "\u0645\u062f\u0631\u0633\u0629 \u0627\u0644\u062b\u0627\u0626\u0631 \u0627\u0644\u0639\u0631\u0628\u064a", "name:ar1": "\u0645\u062f\u0631\u0633\u0629 \u0627\u0644\u062b\u0627\u0626\u0631 \u0627\u0644\u0639\u0631\u0628\u064a", "name:de": "Madrasat ath Thair al Arabi", "name:en": "Madrasat ath Thair al Arabi", "name:fr": "Madrasat ath Thair al Arabi"}}, {"type": "node", "id": 6918588285, "lat": 33.7209661, "lon": 45.5855002, "tags": {"addr:street": "\u0634\u0627\u0631\u0639 \u0627\u0644\u0645\u062f\u0631\u0633\u0629", "amenity": "school", "name": "\u0645\u062f\u0631\u0633\u0629 \u0627\u0644\u0632\u0647\u064a\u0631\u064a\u0629 \u0627\u0644\u0623\u0628\u062a\u062f\u0627\u0626\u064a\u0629", "name:en": "Al - Zuhairiyah Elementary School", "name:ku": "Dibistana Seretay\u00ee ya Al - Zuhairiyah"}}]}