{"version": 0.6, "generator": "Overpass API 0.7.61.5 4133829e", "osm3s": {"timestamp_osm_base": "2024-03-06T10:58:15Z", "copyright": "The data included in this document is from www.openstreetmap.org. The data is made available under ODbL."}, "elements": [{"type": "node", "id": 3282643658, "lat": 35.5215236, "lon": 46.180259, "tags": {"amenity": "bank", "brand": "\u0628\u0627\u0646\u06a9 \u0645\u0644\u06cc", "brand:en": "Bank Melli Iran", "brand:wikidata": "Q806640", "brand:wikipedia": "en:Bank Melli Iran", "name": "\u0628\u0627\u0646\u06a9 \u0645\u0644\u06cc", "name:en": "Bank Melli Iran"}}, {"type": "node", "id": 3282643659, "lat": 35.5215954, "lon": 46.1800425, "tags": {"amenity": "bank", "brand": "\u0628\u0627\u0646\u06a9 \u0633\u067e\u0647", "brand:en": "Bank Sepah", "brand:wikidata": "Q2882624", "brand:wikipedia": "en:Bank Sepah", "name": "\u0628\u0627\u0646\u06a9 \u0633\u067e\u0647", "name:en": "Bank Sepah"}}, {"type": "node", "id": 3282643881, "lat": 35.525235, "lon": 46.1754689, "tags": {"amenity": "bank", "brand": "\u0628\u0627\u0646\u06a9 \u0627\u0646\u0635\u0627\u0631", "brand:en": "Ansar Bank", "brand:fa": "\u0628\u0627\u0646\u06a9 \u0627\u0646\u0635\u0627\u0631", "brand:wikidata": "Q5862675", "brand:wikipedia": "fa:\u0628\u0627\u0646\u06a9 \u0627\u0646\u0635\u0627\u0631", "name": "\u0628\u0627\u0646\u06a9 \u0627\u0646\u0635\u0627\u0631", "name:en": "Ansar Bank", "name:fa": "\u0628\u0627\u0646\u06a9 \u0627\u0646\u0635\u0627\u0631"}}, {"type": "node", "id": 3282643888, "lat": 35.5250965, "lon": 46.1747902}, {"type": "node", "id": 3282643889, "lat": 35.5248641, "lon": 46.1747504}, {"type": "node", "id": 3282643892, "lat": 35.5256972, "lon": 46.1709265, "tags": {"amenity": "bank", "brand": "\u0628\u0627\u0646\u06a9 \u0635\u0627\u062f\u0631\u0627\u062a", "brand:en": "Bank Saderat Iran", "brand:fa": "\u0628\u0627\u0646\u06a9 \u0635\u0627\u062f\u0631\u0627\u062a", "brand:wikidata": "Q2882608", "brand:wikipedia": "en:Bank Saderat Iran", "name": "\u0628\u0627\u0646\u06a9 \u0635\u0627\u062f\u0631\u0627\u062a", "name:en": "Bank Saderat Iran", "name:fa": "\u0628\u0627\u0646\u06a9 \u0635\u0627\u062f\u0631\u0627\u062a"}}, {"type": "node", "id": 3282643902, "lat": 35.5239263, "lon": 46.1762108}, {"type": "node", "id": 3282643903, "lat": 35.5239578, "lon": 46.1759375}, {"type": "node", "id": 3282643905, "lat": 35.5236151, "lon": 46.1761196, "tags": {"amenity": "bank", "brand": "\u0628\u0627\u0646\u06a9 \u0645\u0644\u062a", "brand:en": "Bank Mellat", "brand:wikidata": "Q4855944", "brand:wikipedia": "en:Bank Mellat", "name": "\u0628\u0627\u0646\u06a9 \u0645\u0644\u062a", "name:en": "Bank Mellat"}}, {"type": "node", "id": 3282643930, "lat": 35.5231885, "lon": 46.1782137, "tags": {"amenity": "bank", "brand": "\u0628\u0627\u0646\u06a9 \u062a\u062c\u0627\u0631\u062a", "brand:wikidata": "Q7695198", "brand:wikipedia": "en:Tejarat Bank", "name": "\u0628\u0627\u0646\u06a9 \u062a\u062c\u0627\u0631\u062a"}}, {"type": "node", "id": 3282734289, "lat": 35.5253697, "lon": 46.1711993, "tags": {"amenity": "bank"}}, {"type": "node", "id": 3282734290, "lat": 35.5253435, "lon": 46.1730339, "tags": {"amenity": "bank", "brand": "\u0628\u0627\u0646\u06a9 \u0645\u0644\u062a", "brand:en": "Bank Mellat", "brand:wikidata": "Q4855944", "brand:wikipedia": "en:Bank Mellat", "name": "\u0628\u0627\u0646\u06a9 \u0645\u0644\u062a", "name:en": "Bank Mellat"}}, {"type": "node", "id": 3282734291, "lat": 35.5246908, "lon": 46.1729025, "tags": {"amenity": "bank"}}, {"type": "node", "id": 3282734292, "lat": 35.5245074, "lon": 46.1728917, "tags": {"amenity": "bank"}}, {"type": "node", "id": 3282734293, "lat": 35.5244681, "lon": 46.1725645, "tags": {"amenity": "bank", "branch": "\u0628\u0627\u0632\u0627\u0631", "brand": "\u0628\u0627\u0646\u06a9 \u0645\u0644\u06cc", "brand:en": "Bank Melli Iran", "brand:wikidata": "Q806640", "name": "\u0628\u0627\u0646\u06a9 \u0645\u0644\u06cc", "name:en": "Bank Melli Iran"}}, {"type": "node", "id": 3776453613, "lat": 35.5242667, "lon": 46.1768325, "tags": {"amenity": "bank", "brand": "\u0628\u0627\u0646\u06a9 \u0645\u0647\u0631 \u0627\u0642\u062a\u0635\u0627\u062f", "brand:wikidata": "Q5942921", "name": "\u0628\u0627\u0646\u06a9 \u0645\u0647\u0631 \u0627\u0642\u062a\u0635\u0627\u062f", "name:en": "Mehr Eqtesad Bank"}}, {"type": "node", "id": 4307256192, "lat": 35.5132411, "lon": 46.1955005, "tags": {"amenity": "bank"}}, {"type": "node", "id": 4307290489, "lat": 35.5132365, "lon": 46.1953668, "tags": {"amenity": "bank"}}, {"type": "node", "id": 5236953541, "lat": 35.5241333, "lon": 46.175968}, {"type": "node", "id": 5236953542, "lat": 35.5240964, "lon": 46.1762891}, {"type": "node", "id": 5237116329, "lat": 35.5239576, "lon": 46.176265}, {"type": "node", "id": 5239388154, "lat": 35.5248879, "lon": 46.174555}, {"type": "node", "id": 5239388155, "lat": 35.5251167, "lon": 46.1746003}, {"type": "node", "id": 5994942431, "lat": 35.3078498, "lon": 46.3706435, "tags": {"amenity": "bank", "atm": "yes", "name": "\u0628\u0627\u0646\u06a9 \u0645\u0633\u06a9\u0646"}}, {"type": "way", "id": 321509033, "nodes": [3282643888, 3282643889, 5239388154, 5239388155, 3282643888], "tags": {"amenity": "bank", "brand": "\u0628\u0627\u0646\u06a9 \u0645\u0644\u06cc", "brand:en": "Bank Melli Iran", "brand:wikidata": "Q806640", "brand:wikipedia": "en:Bank Melli Iran", "building": "yes", "name": "\u0628\u0627\u0646\u06a9 \u0645\u0644\u06cc", "name:en": "Bank Melli Iran"}}, {"type": "way", "id": 321509036, "nodes": [5236953542, 5237116329, 3282643902, 3282643903, 5236953541, 5236953542], "tags": {"amenity": "bank", "building": "yes", "name": "\u0628\u0627\u0646\u06a9 \u06a9\u0634\u0627\u0648\u0631\u0632\u06cc"}}]}