{"version": 0.6, "generator": "Overpass API 0.7.61.5 4133829e", "osm3s": {"timestamp_osm_base": "2024-03-06T10:49:05Z", "copyright": "The data included in this document is from www.openstreetmap.org. The data is made available under ODbL."}, "elements": [{"type": "node", "id": 5801242759, "lat": 33.3226392, "lon": 43.8236656, "tags": {"amenity": "college", "name": "\u062c\u0627\u0645\u0639\u0629 \u0627\u0644\u0641\u0644\u0648\u062c\u0629"}}, {"type": "node", "id": 5855998585, "lat": 33.3565158, "lon": 43.7936693, "tags": {"amenity": "college", "name": "\u062c\u0627\u0645\u0639\u0629 \u0627\u0644\u0641\u0644\u0648\u062c\u0629 \u0643\u0644\u064a\u0629 \u0637\u0628/\u062a\u0635\u0627\u0631\u064a\u062d"}}, {"type": "node", "id": 5855998685, "lat": 33.3716619, "lon": 43.7476435, "tags": {"amenity": "college", "name": "\u062c\u0627\u0645\u0639\u0629 \u0627\u0644\u0641\u0644\u0648\u062c\u0629/ \u0643\u0644\u064a\u0629 \u0627\u0644\u0642\u0627\u0646\u0648\u0646"}}, {"type": "node", "id": 5912630385, "lat": 33.3565525, "lon": 43.7930515, "tags": {"amenity": "college", "name": "\u0643\u0644\u064a\u0629 \u0627\u0644\u0637\u0628 - \u062c\u0627\u0645\u0639\u0629 \u0627\u0644\u0641\u0644\u0648\u062c\u0629"}}, {"type": "node", "id": 6010767287, "lat": 33.3152823, "lon": 43.8216055, "tags": {"amenity": "college", "name": "\u062c\u0627\u0645\u0639\u0629 \u0627\u0644\u0641\u0644\u0648\u062c\u0629 - \u0627\u0644\u0645\u0648\u0642\u0639 \u0627\u0644\u062c\u062f\u064a\u062f", "name:en": "University Of Fallujah"}}, {"type": "node", "id": 6010767288, "lat": 33.3237439, "lon": 43.8203853, "tags": {"amenity": "college", "email": "anasyem@gmail.com", "name": "\u062c\u0627\u0645\u0639\u0629 \u0627\u0644\u0641\u0644\u0648\u062c\u0629 - \u0627\u0644\u0645\u0648\u0642\u0639 \u0627\u0644\u062c\u062f\u064a\u062f", "name:en": "University Of Fallujah", "website": "http://UOFALLUJAH.EDU.IQ"}}, {"type": "node", "id": 6010772487, "lat": 33.3161793, "lon": 43.8226077, "tags": {"amenity": "college", "email": "anasyem@gmail.com", "name": "\u062c\u0627\u0645\u0639\u0629 \u0627\u0644\u0641\u0644\u0648\u062c\u0629", "name:en": "University of Fallujah", "operator": "\u0648\u0632\u0627\u0631\u0629 \u0627\u0644\u062a\u0639\u0644\u064a\u0645 \u0627\u0644\u0639\u0627\u0644\u064a \u0648\u0627\u0644\u0628\u062d\u062b \u0627\u0644\u0639\u0644\u0645\u064a", "website": "http://WWW.UOFALLUJAH.EDU.IQ"}}, {"type": "node", "id": 7749789985, "lat": 33.3537263, "lon": 43.7841574, "tags": {"amenity": "college", "name": "\u0643\u0644\u064a\u0647 \u0627\u0644\u062a\u0631\u0628\u064a\u0647 \u0627\u0644\u0645\u0641\u062a\u0648\u062d\u0647 \u0642\u0633\u0645 \u0627\u0644\u0641\u0644\u0648\u062c\u0647"}}, {"type": "node", "id": 7752721486, "lat": 33.3639383, "lon": 43.805641, "tags": {"amenity": "college", "name": "\u0643\u0644\u064a\u0629 \u0627\u0644\u0639\u0644\u0648\u0645 \u0627\u0644\u062a\u0637\u0628\u064a\u0642\u064a\u0629"}}, {"type": "node", "id": 8324165720, "lat": 33.3646502, "lon": 43.8061056, "tags": {"amenity": "college", "name": "\u0643\u0644\u064a\u0629 \u0627\u0644\u0639\u0644\u0648\u0645 \u0627\u0644\u062a\u0637\u0628\u064a\u0642\u064a\u0629"}}, {"type": "node", "id": 10982204056, "lat": 33.3564127, "lon": 43.7927485, "tags": {"amenity": "college", "name": "Faculty of Medicine, University of Fallujah"}}]}