{"version": 0.6, "generator": "Overpass API 0.7.61.5 4133829e", "osm3s": {"timestamp_osm_base": "2024-03-06T11:04:23Z", "copyright": "The data included in this document is from www.openstreetmap.org. The data is made available under ODbL."}, "elements": [{"type": "node", "id": 5366148279, "lat": 30.6486693, "lon": 48.6658619, "tags": {"amenity": "bank", "atm": "yes", "brand": "\u0628\u0627\u0646\u06a9 \u0645\u0633\u06a9\u0646", "brand:en": "Bank Maskan", "brand:wikidata": "Q4855942", "brand:wikipedia": "en:Bank Maskan", "name": "\u0628\u0627\u0646\u06a9 \u0645\u0633\u06a9\u0646", "name:en": "Bank Maskan"}}, {"type": "node", "id": 5980013596, "lat": 30.653279, "lon": 48.6614458, "tags": {"amenity": "bank", "atm": "yes", "brand": "\u0628\u0627\u0646\u06a9 \u0645\u0644\u06cc", "brand:en": "Bank Melli Iran", "brand:wikidata": "Q806640", "brand:wikipedia": "en:Bank Melli Iran", "name": "\u0628\u0627\u0646\u06a9 \u0645\u0644\u06cc", "name:en": "Bank Melli Iran"}}, {"type": "node", "id": 5980013614, "lat": 30.6489386, "lon": 48.6658948, "tags": {"amenity": "bank", "atm": "yes", "brand": "\u0628\u0627\u0646\u06a9 \u0627\u0646\u0635\u0627\u0631", "brand:wikidata": "Q5862675", "brand:wikipedia": "fa:\u0628\u0627\u0646\u06a9 \u0627\u0646\u0635\u0627\u0631", "name": "\u0628\u0627\u0646\u06a9 \u0627\u0646\u0635\u0627\u0631"}}, {"type": "node", "id": 5980013624, "lat": 30.6482082, "lon": 48.665523, "tags": {"amenity": "bank", "atm": "yes", "brand": "\u0628\u0627\u0646\u06a9 \u0635\u0627\u062f\u0631\u0627\u062a", "brand:en": "Bank Saderat Iran", "brand:wikidata": "Q2882608", "brand:wikipedia": "en:Bank Saderat Iran", "name": "\u0628\u0627\u0646\u06a9 \u0635\u0627\u062f\u0631\u0627\u062a", "name:en": "Bank Saderat Iran"}}, {"type": "node", "id": 5980013637, "lat": 30.6523188, "lon": 48.6634362, "tags": {"amenity": "bank", "atm": "yes", "brand": "\u0628\u0627\u0646\u06a9 \u0642\u0648\u0627\u0645\u06cc\u0646", "brand:en": "Ghavamin Bank", "brand:wikidata": "Q10860253", "brand:wikipedia": "en:Ghavamin Bank", "name": "\u0628\u0627\u0646\u06a9 \u0642\u0648\u0627\u0645\u06cc\u0646", "name:en": "Ghavamin Bank"}}, {"type": "node", "id": 5980013666, "lat": 30.6487288, "lon": 48.6652716, "tags": {"amenity": "bank", "atm": "yes", "brand": "\u0628\u0627\u0646\u06a9 \u0631\u0641\u0627\u0647", "brand:en": "Refah Bank", "brand:wikidata": "Q7307083", "brand:wikipedia": "en:Refah Bank", "name": "\u0628\u0627\u0646\u06a9 \u0631\u0641\u0627\u0647", "name:en": "Refah Bank"}}, {"type": "node", "id": 5980013710, "lat": 30.6519961, "lon": 48.6642494, "tags": {"amenity": "bank", "atm": "yes", "brand": "\u0628\u0627\u0646\u06a9 \u0635\u0627\u062f\u0631\u0627\u062a", "brand:en": "Bank Saderat Iran", "brand:wikidata": "Q2882608", "brand:wikipedia": "en:Bank Saderat Iran", "name": "\u0628\u0627\u0646\u06a9 \u0635\u0627\u062f\u0631\u0627\u062a", "name:en": "Bank Saderat Iran"}}, {"type": "node", "id": 5980013716, "lat": 30.6535425, "lon": 48.6932055, "tags": {"amenity": "bank", "atm": "yes", "brand": "\u067e\u0633\u062a \u0628\u0627\u0646\u06a9", "brand:en": "Post Bank of Iran", "brand:wikidata": "Q7233625", "brand:wikipedia": "en:Post Bank of Iran", "name": "\u067e\u0633\u062a \u0628\u0627\u0646\u06a9", "name:en": "Post Bank of Iran"}}, {"type": "node", "id": 8791958745, "lat": 30.648025, "lon": 48.6640534, "tags": {"amenity": "bank", "brand": "\u0628\u0627\u0646\u06a9 \u06a9\u0634\u0627\u0648\u0631\u0632\u06cc", "brand:en": "Bank Keshavarzi Iran", "brand:wikidata": "Q6395007", "name": "\u0628\u0627\u0646\u06a9 \u06a9\u0634\u0627\u0648\u0631\u0632\u06cc", "name:en": "Bank Keshavarzi Iran"}}]}