{"version": 0.6, "generator": "Overpass API 0.7.61.5 4133829e", "osm3s": {"timestamp_osm_base": "2024-03-06T11:21:41Z", "copyright": "The data included in this document is from www.openstreetmap.org. The data is made available under ODbL."}, "elements": [{"type": "node", "id": 6076125266, "lat": -2.6925299, "lon": 38.1651715, "tags": {"addr:city": "Mtito Andei", "addr:street": "Mombasa Road", "amenity": "bank", "name": "PesaPoint POS Oil Libya Mascot Service Station"}}, {"type": "node", "id": 6076125268, "lat": -2.6917527, "lon": 38.1644825, "tags": {"addr:city": "Mtito Andei", "addr:street": "Mombasa Road", "amenity": "bank", "atm": "yes", "name": "Kenya Commercial Bank - KCB"}}, {"type": "node", "id": 6232806603, "lat": -2.4136735, "lon": 37.9656111, "tags": {"addr:city": "Kibwezi", "addr:street": "Kibwezi - Kitui Road", "amenity": "bank", "name": "Sidian Bank"}}, {"type": "node", "id": 6232806606, "lat": -2.4114912, "lon": 37.9632218, "tags": {"addr:city": "Kibwezi", "addr:street": "Kibwezi - Kitui Road", "amenity": "bank", "atm": "yes", "name": "Kenya Commercial Bank"}}, {"type": "node", "id": 6232985665, "lat": -2.4112028, "lon": 37.9649451, "tags": {"addr:city": "Kibwezi", "amenity": "bank", "name": "Postbank Kibwezi Branch"}}, {"type": "node", "id": 6232985667, "lat": -2.4091375, "lon": 37.9683337, "tags": {"addr:city": "Kibwezi", "addr:street": "Kibwezi - Kitui Road", "amenity": "bank", "name": "KCB ATM"}}]}