{"version": 0.6, "generator": "Overpass API 0.7.61.5 4133829e", "osm3s": {"timestamp_osm_base": "2024-03-06T11:04:23Z", "copyright": "The data included in this document is from www.openstreetmap.org. The data is made available under ODbL."}, "elements": [{"type": "node", "id": 3965143341, "lat": 2.9385192, "lon": 34.1597366, "tags": {"addr:city": "Lomokori", "addr:county": "Jie", "addr:district": "Kotido", "addr:parish": "Rikitae", "addr:subcounty": "Panyangara", "amenity": "school", "isced:level": "1", "name": "Lomokori Primary School", "source": "www.ubos.org", "source:date": "2010..2014", "wikidata": "Q22371789"}}, {"type": "node", "id": 3965143342, "lat": 2.9241819, "lon": 34.1215861, "tags": {"addr:city": "Nakongmutu North", "addr:county": "Jie", "addr:district": "Kotido", "addr:parish": "Loposa", "addr:subcounty": "Panyangara", "amenity": "school", "isced:level": "1", "name": "Nakongmutu Primary School", "source": "www.ubos.org", "source:date": "2010..2014", "wikidata": "Q22371738"}}, {"type": "node", "id": 3965143343, "lat": 2.9609679, "lon": 34.1417276, "tags": {"addr:city": "Kapadakook", "addr:county": "Jie", "addr:district": "Kotido", "addr:parish": "Loletio", "addr:subcounty": "Panyangara", "amenity": "school", "isced:level": "1", "name": "Panyangara Primary School", "source": "www.ubos.org", "source:date": "2010..2014", "wikidata": "Q22371685"}}, {"type": "node", "id": 3965143535, "lat": 2.9674485, "lon": 34.08259, "tags": {"addr:city": "Meriwala", "addr:county": "Jie", "addr:district": "Kotido", "addr:parish": "Rom-rom", "addr:subcounty": "Kotido", "amenity": "school", "isced:level": "1", "name": "Meriwala Primary School", "source": "www.ubos.org", "source:date": "2010..2014", "wikidata": "Q22352899"}}, {"type": "node", "id": 3965149284, "lat": 2.9916069, "lon": 34.1540028, "tags": {"addr:city": "Kadokin West", "addr:county": "Jie", "addr:district": "Kotido", "addr:parish": "Loletio", "addr:subcounty": "Panyangara", "amenity": "school", "isced:level": "1", "name": "Kadokin Primary School", "source": "www.ubos.org", "source:date": "2010..2014", "wikidata": "Q22639306"}}, {"type": "node", "id": 3965149285, "lat": 2.9908022, "lon": 34.1931984, "tags": {"addr:city": "Kalekori", "addr:county": "Jie", "addr:district": "Kotido", "addr:parish": "Potongor", "addr:subcounty": "Nakaperimoru", "amenity": "school", "isced:level": "1", "name": "Kanair Primary School", "source": "www.ubos.org", "source:date": "2010..2014", "wikidata": "Q22639305"}}, {"type": "node", "id": 3965149286, "lat": 3.0005631, "lon": 34.1047227, "tags": {"addr:city": "Karamoja Seeds Scheme", "addr:county": "Jie", "addr:district": "Kotido", "addr:parish": "Kotido West Ward", "addr:subcounty": "Kotido Town Council", "amenity": "school", "isced:level": "2;3;4", "name": "Kotido Advanced School", "source": "www.ubos.org", "source:date": "2010..2014", "wikidata": "Q22639304"}}, {"type": "node", "id": 3965149287, "lat": 3.0138193, "lon": 34.1117132, "tags": {"addr:city": "Kotido", "addr:county": "Jie", "addr:district": "Kotido", "addr:parish": "Narikapet Ward", "addr:subcounty": "Kotido Town Council", "amenity": "school", "isced:level": "1", "name": "Kotido Army Primary School", "source": "www.ubos.org", "source:date": "2010..2014", "wikidata": "Q22639303"}}, {"type": "node", "id": 3965149288, "lat": 3.0563203, "lon": 34.136251, "tags": {"addr:city": "Kotido", "addr:county": "Jie", "addr:district": "Kotido", "addr:parish": "Losilang", "addr:subcounty": "Kotido", "amenity": "school", "isced:level": "1", "name": "Kotido Girls Primary School", "source": "www.ubos.org", "source:date": "2010..2014", "wikidata": "Q22639302"}}, {"type": "node", "id": 3965149289, "lat": 3.0040116, "lon": 34.1075705, "tags": {"addr:city": "Kotido", "addr:county": "Jie", "addr:district": "Kotido", "addr:parish": "Kotido West Ward", "addr:subcounty": "Kotido Town Council", "amenity": "school", "isced:level": "1", "name": "Kotido Primary School", "source": "www.ubos.org", "source:date": "2010..2014", "wikidata": "Q22639313"}}, {"type": "node", "id": 3965149290, "lat": 3.039045, "lon": 34.1283822, "tags": {"addr:city": "Kalolet", "addr:county": "Jie", "addr:district": "Kotido", "addr:parish": "Losilang", "addr:subcounty": "Kotido", "amenity": "school", "isced:level": "1", "name": "Kotido Primary Teachers College", "source": "www.ubos.org", "source:date": "2010..2014", "wikidata": "Q22639312"}}, {"type": "node", "id": 3965149291, "lat": 3.0558568, "lon": 34.1364677, "tags": {"addr:county": "Jie", "addr:district": "Kotido", "addr:parish": "Losilang", "addr:subcounty": "Kotido", "amenity": "school", "isced:level": "1", "name": "Kotido Primary Teachers College", "source": "www.ubos.org", "source:date": "2010..2014", "wikidata": "Q22639312"}}, {"type": "node", "id": 3965149292, "lat": 3.0091686, "lon": 34.1204879, "tags": {"addr:city": "Lomukura", "addr:county": "Jie", "addr:district": "Kotido", "addr:parish": "Kotido North Ward", "addr:subcounty": "Kotido Town Council", "amenity": "school", "isced:level": "1", "name": "Lomukura Primary School", "source": "www.ubos.org", "source:date": "2010..2014", "wikidata": "Q22639311"}}, {"type": "node", "id": 3965149293, "lat": 3.0225977, "lon": 34.175424, "tags": {"addr:city": "Nyakwae", "addr:county": "Jie", "addr:district": "Kotido", "addr:parish": "Lookorok", "addr:subcounty": "Nakaperimoru", "amenity": "school", "isced:level": "1", "name": "Lookorok Primary School", "source": "www.ubos.org", "source:date": "2010..2014", "wikidata": "Q22639310"}}, {"type": "node", "id": 3965149294, "lat": 3.008062, "lon": 34.1977602, "tags": {"addr:city": "Lokore", "addr:county": "Jie", "addr:district": "Kotido", "addr:parish": "Watakau", "addr:subcounty": "Nakaperimoru", "amenity": "school", "isced:level": "1", "name": "Nakapelimoru Primary School", "source": "www.ubos.org", "source:date": "2010..2014", "wikidata": "Q22639309"}}, {"type": "node", "id": 3965149295, "lat": 3.0702951, "lon": 34.1056473, "tags": {"addr:city": "Lokadeli", "addr:county": "Jie", "addr:district": "Kotido", "addr:parish": "Lokadeli", "addr:subcounty": "Rengen", "amenity": "school", "isced:level": "1", "name": "Rengen Primary School", "source": "www.ubos.org", "source:date": "2010..2014", "wikidata": "Q22639308"}}, {"type": "node", "id": 3967309202, "lat": 3.0334476, "lon": 33.9698911, "tags": {"addr:city": "Kanalobae", "addr:county": "Jie", "addr:district": "Kotido", "addr:parish": "Nakwakwa", "addr:subcounty": "Rengen", "amenity": "school", "isced:level": "2;3;4", "name": "Kanalobae Community School", "source": "www.ubos.org", "source:date": "2010..2014", "wikidata": "Q22639268"}}, {"type": "node", "id": 3967309203, "lat": 3.0007107, "lon": 34.0861835, "tags": {"addr:city": "Um Um", "addr:county": "Jie", "addr:district": "Kotido", "addr:parish": "Kanawat", "addr:subcounty": "Kotido", "amenity": "school", "isced:level": "2;3;4", "name": "Kotido Secondary School", "source": "www.ubos.org", "source:date": "2010..2014", "wikidata": "Q22639270"}}, {"type": "node", "id": 3967309204, "lat": 2.9913604, "lon": 33.9959982, "tags": {"addr:city": "Naapong", "addr:county": "Jie", "addr:district": "Kotido", "addr:parish": "Lokitalaebu", "addr:subcounty": "Kotido", "amenity": "school", "isced:level": "1", "name": "Lokitelaebu Primary School", "source": "www.ubos.org", "source:date": "2010..2014", "wikidata": "Q22639277"}}, {"type": "node", "id": 3967309205, "lat": 3.0727991, "lon": 34.053553, "tags": {"addr:city": "Nakwalet", "addr:county": "Jie", "addr:district": "Kotido", "addr:parish": "Lopuyo", "addr:subcounty": "Rengen", "amenity": "school", "isced:level": "1", "name": "Lopuyo Primary School", "source": "www.ubos.org", "source:date": "2010..2014", "wikidata": "Q22639278"}}, {"type": "node", "id": 3967309207, "lat": 3.0279177, "lon": 34.0163934, "tags": {"addr:city": "Nakoreto", "addr:county": "Jie", "addr:district": "Kotido", "addr:parish": "Nakwakwa", "addr:subcounty": "Rengen", "amenity": "school", "isced:level": "1", "name": "Nakoreto Primary School", "source": "www.ubos.org", "source:date": "2010..2014", "wikidata": "Q22639280"}}, {"type": "node", "id": 3982955257, "lat": 2.9232972, "lon": 34.1212577}, {"type": "node", "id": 3982955258, "lat": 2.923653, "lon": 34.122308}, {"type": "node", "id": 3982955269, "lat": 2.9241257, "lon": 34.1209647, "tags": {"barrier": "gate"}}, {"type": "node", "id": 3982955282, "lat": 2.9248163, "lon": 34.1207205}, {"type": "node", "id": 3982955289, "lat": 2.9250208, "lon": 34.1212784, "tags": {"barrier": "gate"}}, {"type": "node", "id": 3982955290, "lat": 2.92522, "lon": 34.1220168}, {"type": "node", "id": 3982955291, "lat": 2.9252581, "lon": 34.1219857}, {"type": "node", "id": 3982955292, "lat": 2.9252624, "lon": 34.1219376}, {"type": "node", "id": 3982955293, "lat": 2.9376361, "lon": 34.1592794}, {"type": "node", "id": 3982955294, "lat": 2.9377868, "lon": 34.1597732}, {"type": "node", "id": 3982955296, "lat": 2.9380404, "lon": 34.1607082}, {"type": "node", "id": 3982955303, "lat": 2.938243, "lon": 34.1591023, "tags": {"barrier": "gate"}}, {"type": "node", "id": 3982955323, "lat": 2.9389308, "lon": 34.1589016}, {"type": "node", "id": 3982955330, "lat": 2.9392469, "lon": 34.1594841, "tags": {"barrier": "gate"}}, {"type": "node", "id": 3982955331, "lat": 2.9397217, "lon": 34.160359}, {"type": "node", "id": 3982955332, "lat": 2.9601651, "lon": 34.1414617}, {"type": "node", "id": 3982955333, "lat": 2.9602963, "lon": 34.1422077}, {"type": "node", "id": 3982955334, "lat": 2.9603154, "lon": 34.1422409}, {"type": "node", "id": 3982955335, "lat": 2.9603429, "lon": 34.1422572}, {"type": "node", "id": 3982955385, "lat": 2.9616006, "lon": 34.1412298}, {"type": "node", "id": 3982955386, "lat": 2.9616922, "lon": 34.1417879, "tags": {"barrier": "gate"}}, {"type": "node", "id": 3982955387, "lat": 2.9617403, "lon": 34.1419834}, {"type": "node", "id": 8807517533, "lat": 3.033046, "lon": 33.9701115}, {"type": "node", "id": 8807517534, "lat": 3.033141, "lon": 33.9705044}, {"type": "node", "id": 8807517535, "lat": 3.0338776, "lon": 33.9701731}, {"type": "node", "id": 8807517536, "lat": 3.0337357, "lon": 33.969803}, {"type": "node", "id": 8807759041, "lat": 3.0557161, "lon": 34.1365439}, {"type": "node", "id": 8807759042, "lat": 3.0556224, "lon": 34.1368282}, {"type": "node", "id": 8807759043, "lat": 3.0551912, "lon": 34.1368926}, {"type": "node", "id": 8807759044, "lat": 3.0552769, "lon": 34.1375095}, {"type": "node", "id": 8807759045, "lat": 3.055617, "lon": 34.1374719}, {"type": "node", "id": 8807759046, "lat": 3.05615, "lon": 34.1373137}, {"type": "node", "id": 8807759047, "lat": 3.0561688, "lon": 34.1367209}, {"type": "node", "id": 8807759048, "lat": 3.0560643, "lon": 34.1365251}, {"type": "node", "id": 8807759052, "lat": 3.0579151, "lon": 34.1365841}, {"type": "node", "id": 8807759053, "lat": 3.0565277, "lon": 34.1368443}, {"type": "node", "id": 8807759054, "lat": 3.0561527, "lon": 34.1353986}, {"type": "node", "id": 8807759055, "lat": 3.0576499, "lon": 34.1352698}, {"type": "node", "id": 11503935950, "lat": 3.0048597, "lon": 34.1045628, "tags": {"amenity": "school"}}, {"type": "way", "id": 395433505, "nodes": [3982955323, 3982955303, 3982955293, 3982955294, 3982955296, 3982955331, 3982955330, 3982955323], "tags": {"amenity": "school", "wikidata": "Q22371789"}}, {"type": "way", "id": 395433507, "nodes": [3982955385, 3982955386, 3982955387, 3982955335, 3982955334, 3982955333, 3982955332, 3982955385], "tags": {"amenity": "school", "wikidata": "Q22371685"}}, {"type": "way", "id": 395433509, "nodes": [3982955282, 3982955289, 3982955292, 3982955291, 3982955290, 3982955258, 3982955257, 3982955269, 3982955282], "tags": {"amenity": "school", "wikidata": "Q22371738"}}, {"type": "way", "id": 951538144, "nodes": [8807517536, 8807517535, 8807517534, 8807517533, 8807517536], "tags": {"amenity": "school", "landuse": "education", "name": "Kanalobae Community School"}}, {"type": "way", "id": 951569970, "nodes": [8807759048, 8807759047, 8807759046, 8807759045, 8807759044, 8807759043, 8807759042, 8807759041, 8807759048], "tags": {"amenity": "school", "landuse": "education", "name": "Kotido Primary Teachers College"}}, {"type": "way", "id": 951569972, "nodes": [8807759055, 8807759054, 8807759053, 8807759052, 8807759055], "tags": {"amenity": "school", "landuse": "education", "name": "Kotido Girls Primary School"}}]}