{"version": 0.6, "generator": "Overpass API 0.7.61.5 4133829e", "osm3s": {"timestamp_osm_base": "2024-03-06T13:33:00Z", "copyright": "The data included in this document is from www.openstreetmap.org. The data is made available under ODbL."}, "elements": [{"type": "node", "id": 415582753, "lat": -0.7189421, "lon": 36.4343459, "tags": {"addr:city": "Naivasha", "addr:street": "Kenyatta Avenue", "amenity": "bus_station", "bus": "yes", "name": "Maai Mahiu", "public_transport": "station"}}, {"type": "node", "id": 985072811, "lat": -0.5972762, "lon": 36.3709751, "tags": {"name": "Ilkek", "public_transport": "station", "railway": "station"}}, {"type": "node", "id": 1734478391, "lat": -0.8317946, "lon": 36.4559869, "tags": {"name": "Suswa", "public_transport": "station", "railway": "station"}}, {"type": "node", "id": 1995196399, "lat": -0.7895253, "lon": 36.4484202, "tags": {"name": "Munyu", "public_transport": "station", "railway": "station"}}, {"type": "node", "id": 1995196455, "lat": -0.7167558, "lon": 36.43075, "tags": {"addr:city": "Naivasha", "addr:street": "Moi Avenue", "name": "Naivasha Railway Station", "public_transport": "station", "railway": "station"}}, {"type": "node", "id": 2036915230, "lat": -0.6710875, "lon": 36.3863902, "tags": {"name": "Morendat", "public_transport": "station", "railway": "station"}}, {"type": "node", "id": 6057983945, "lat": -0.7147873, "lon": 36.4331651}, {"type": "node", "id": 6057983946, "lat": -0.7154312, "lon": 36.4334794}, {"type": "node", "id": 6057983947, "lat": -0.7158841, "lon": 36.432669}, {"type": "node", "id": 6057983948, "lat": -0.7152279, "lon": 36.4323055}, {"type": "node", "id": 6058057972, "lat": -0.7177451, "lon": 36.4348154}, {"type": "node", "id": 6058057973, "lat": -0.7186933, "lon": 36.4347609}, {"type": "node", "id": 6058057974, "lat": -0.7187251, "lon": 36.4353133}, {"type": "node", "id": 6058057975, "lat": -0.7177769, "lon": 36.4353678}, {"type": "node", "id": 9303679790, "lat": -0.6710164, "lon": 36.3864557, "tags": {"name": "Morendat", "public_transport": "station", "railway": "station"}}, {"type": "way", "id": 643848747, "nodes": [6057983945, 6057983946, 6057983947, 6057983948, 6057983945], "tags": {"addr:city": "Naivasha", "addr:street": "Mbaria Kaniu", "amenity": "bus_station", "bus": "yes", "name": "Naivasha Matatu Stage", "public_transport": "station"}}, {"type": "way", "id": 643861436, "nodes": [6058057972, 6058057973, 6058057974, 6058057975, 6058057972], "tags": {"addr:city": "Naivasha", "addr:street": "Kenyatta Avenue", "amenity": "bus_station", "bus": "yes", "name": "Naivasha-Nairobi", "public_transport": "station"}}]}