{"version": 0.6, "generator": "Overpass API 0.7.61.5 4133829e", "osm3s": {"timestamp_osm_base": "2024-03-06T11:03:20Z", "copyright": "The data included in this document is from www.openstreetmap.org. The data is made available under ODbL."}, "elements": [{"type": "node", "id": 10837136435, "lat": -2.5086499, "lon": 36.4944155, "tags": {"addr:city": "Arusha", "addr:district": "Longido District Council", "addr:subward": "Ngoswak", "addr:ward": "Engarenaibor", "amenity": "school", "isced:level": "1", "name": "Shule ya Msingi Ngoswak", "name:en": "Ngoswak Primary School", "name:sw": "Shule ya Msingi Ngoswak", "operator:type": "government", "source": "WFP Primary Schools Feeding Program Survey, 2023 by OMDTZ"}}, {"type": "node", "id": 10837136440, "lat": -2.626551, "lon": 36.4431541, "tags": {"addr:city": "Arusha", "addr:district": "Longido District Council", "addr:subward": "Mundarara", "addr:ward": "Mundarara", "amenity": "school", "isced:level": "1", "name": "Shule ya Msingi Mundarara", "name:en": "Mundarara Primary School", "name:sw": "Shule ya Msingi Mundarara", "operator:type": "government", "source": "WFP Primary Schools Feeding Program Survey, 2023 by OMDTZ"}}, {"type": "node", "id": 10837136441, "lat": -2.439501, "lon": 36.4157484, "tags": {"addr:city": "Arusha", "addr:district": "Longido District Council", "addr:subward": "Matale A", "addr:ward": "Matale_A", "amenity": "school", "isced:level": "1", "name": "Shule ya Msingi Matale", "name:en": "Matale Primary School", "name:sw": "Shule ya Msingi Matale", "operator:type": "government", "source": "WFP Primary Schools Feeding Program Survey, 2023 by OMDTZ"}}, {"type": "node", "id": 10837136448, "lat": -2.6383042, "lon": 36.5614164, "tags": {"addr:city": "Arusha", "addr:district": "Longido District Council", "addr:subward": "Lesingita", "addr:ward": "Mundarara", "amenity": "school", "isced:level": "1", "name": "Shule ya Msingi Lesing'ita", "name:en": "Lesing'ita Primary School", "name:sw": "Shule ya Msingi Lesing'ita", "operator:type": "government", "source": "WFP Primary Schools Feeding Program Survey, 2023 by OMDTZ"}}, {"type": "node", "id": 10837136451, "lat": -2.6227935, "lon": 36.4646279, "tags": {"addr:city": "Arusha", "addr:district": "Longido District Council", "addr:subward": "Mundarara", "addr:ward": "Mundarara", "amenity": "school", "isced:level": "1", "name": "Shule ya Msingi Kitarini", "name:en": "Kitarini Primary School", "name:sw": "Shule ya Msingi Kitarini", "operator:type": "government", "source": "WFP Primary Schools Feeding Program Survey, 2023 by OMDTZ"}}, {"type": "node", "id": 10837136453, "lat": -2.4269546, "lon": 36.5406714, "tags": {"addr:city": "Arusha", "addr:district": "Longido District Council", "addr:subward": "Kimwati", "addr:ward": "Engarenaibor", "amenity": "school", "isced:level": "1", "name": "Shule ya Msingi Kimwati", "name:en": "Kimwati Primary School", "name:sw": "Shule ya Msingi Kimwati", "operator:type": "government", "source": "WFP Primary Schools Feeding Program Survey, 2023 by OMDTZ"}}, {"type": "node", "id": 10837136459, "lat": -2.3916455, "lon": 36.4848154, "tags": {"addr:city": "Arusha", "addr:district": "Longido District Council", "addr:subward": "Matale A", "addr:ward": "Matale_A", "amenity": "school", "isced:level": "1", "name": "Shule ya Msingi Irn'gon'gwen", "name:en": "Irn'gon'gwen Primary School", "name:sw": "Shule ya Msingi Irn'gon'gwen", "operator:type": "government", "source": "WFP Primary Schools Feeding Program Survey, 2023 by OMDTZ"}}, {"type": "node", "id": 10837136462, "lat": -2.5719042, "lon": 36.20742, "tags": {"addr:city": "Arusha", "addr:district": "Longido District Council", "addr:subward": "Ilchang'Tsapukin", "addr:ward": "Gelai_Lumbwa", "amenity": "school", "isced:level": "1", "name": "Shule ya Msingi Ilchang'tsapukin", "name:en": "Ilchang'tsapukin Primary School", "name:sw": "Shule ya Msingi Ilchang'tsapukin", "operator:type": "government", "source": "WFP Primary Schools Feeding Program Survey, 2023 by OMDTZ"}}, {"type": "node", "id": 10837136468, "lat": -2.5265478, "lon": 36.4833878, "tags": {"addr:city": "Arusha", "addr:district": "Longido District Council", "addr:subward": "Engarenaibor", "addr:ward": "Engarenaibor", "amenity": "school", "isced:level": "1", "name": "Shule ya Msingi Engarenaibor", "name:en": "Engarenaibor Primary School", "name:sw": "Shule ya Msingi Engarenaibor", "operator:type": "government", "source": "WFP Primary Schools Feeding Program Survey, 2023 by OMDTZ"}}, {"type": "node", "id": 10837136470, "lat": -2.3595539, "lon": 36.377466, "tags": {"addr:city": "Arusha", "addr:district": "Longido District Council", "addr:subward": "Emurtoto", "addr:ward": "Tingatinga", "amenity": "school", "isced:level": "1", "name": "Shule ya Msingi Emurtoto", "name:en": "Emurtoto Primary School", "name:sw": "Shule ya Msingi Emurtoto", "operator:type": "government", "source": "WFP Primary Schools Feeding Program Survey, 2023 by OMDTZ"}}]}