{"version": 0.6, "generator": "Overpass API 0.7.61.5 4133829e", "osm3s": {"timestamp_osm_base": "2024-03-05T14:53:32Z", "copyright": "The data included in this document is from www.openstreetmap.org. The data is made available under ODbL."}, "elements": [{"type": "node", "id": 2428960389, "lat": 59.7156722, "lon": 12.1619862, "tags": {"amenity": "bank", "name": "Westra Wermlands Sparbank"}}, {"type": "node", "id": 2985011089, "lat": 59.5083805, "lon": 11.8386849, "tags": {"amenity": "bank", "name": "Westra Wermlands Sparbank"}}, {"type": "node", "id": 9254443964, "lat": 59.8841447, "lon": 11.5724009, "tags": {"amenity": "bank", "branch": "Bj\u00f8rkelangen", "brand": "Aurskog Sparebank", "name": "Aurskog Sparebank Bj\u00f8rkelangen", "ref:bankorg": "980676412", "website": "http://www.aurskog-sparebank.no"}}, {"type": "node", "id": 9254444334, "lat": 59.7495618, "lon": 11.8111919, "tags": {"amenity": "bank", "branch": "R\u00f8mskog", "brand": "Marker Sparebank", "name": "Marker Sparebank R\u00f8mskog", "ref:bankorg": "980676382"}}, {"type": "node", "id": 9254444358, "lat": 59.8842035, "lon": 11.5696304, "tags": {"amenity": "bank", "branch": "Hovedkontor", "brand": "H\u00f8land og Setskog Sparebank", "name": "H\u00f8land og Setskog Sparebank Hovedkontor", "ref:bankorg": "973082701"}}, {"type": "node", "id": 9254444359, "lat": 59.7954733, "lon": 11.4643607, "tags": {"amenity": "bank", "branch": "L\u00f8ken i H\u00f8land", "brand": "H\u00f8land og Setskog Sparebank", "name": "H\u00f8land og Setskog Sparebank L\u00f8ken i H\u00f8land", "ref:bankorg": "873082682"}}, {"type": "node", "id": 9254444360, "lat": 59.8300182, "lon": 11.7197695, "tags": {"amenity": "bank", "branch": "Setskog", "brand": "H\u00f8land og Setskog Sparebank", "name": "H\u00f8land og Setskog Sparebank Setskog", "ref:bankorg": "971765070", "website": "http://www.setskog-sparebank.no"}}, {"type": "node", "id": 9254444362, "lat": 59.7222943, "lon": 11.4557443, "tags": {"amenity": "bank", "branch": "Hemnes", "brand": "H\u00f8land og Setskog Sparebank", "name": "H\u00f8land og Setskog Sparebank Hemnes", "ref:bankorg": "973082698"}}]}