{"version": 0.6, "generator": "Overpass API 0.7.61.5 4133829e", "osm3s": {"timestamp_osm_base": "2024-03-05T15:07:00Z", "copyright": "The data included in this document is from www.openstreetmap.org. The data is made available under ODbL."}, "elements": [{"type": "node", "id": 31174921, "lat": 65.0633839, "lon": 14.8016979, "tags": {"name": "Klimpfj\u00e4ll", "name:sma": "Klimhpe", "name:sv": "Klimpfj\u00e4ll", "place": "village", "ref:se:pts:postort": "KLIMPFJ\u00c4LL"}}, {"type": "node", "id": 872011833, "lat": 64.9705465, "lon": 15.3515919, "tags": {"name": "Saxn\u00e4s", "name:sma": "Saadteskenjuana", "name:sv": "Saxn\u00e4s", "place": "village"}}, {"type": "node", "id": 879573210, "lat": 64.8377292, "lon": 15.0891242, "tags": {"name": "Borgafj\u00e4ll", "name:sma": "Buarkantjahke", "name:sv": "Borgafj\u00e4ll", "place": "village", "ref:se:pts:postort": "BORGAFJ\u00c4LL"}}, {"type": "node", "id": 1338579575, "lat": 65.0480459, "lon": 15.0954074, "tags": {"name": "Storn\u00e4s", "name:sma": "Naassjoe", "name:sv": "Storn\u00e4s", "place": "hamlet"}}, {"type": "node", "id": 2959586440, "lat": 64.8344981, "lon": 15.0205616, "tags": {"name": "Borga", "place": "hamlet"}}, {"type": "node", "id": 3441216865, "lat": 65.0439752, "lon": 15.7411574, "tags": {"name": "Blaikliden", "name:sma": "Plaajhkije", "name:sv": "Blaikliden", "place": "hamlet"}}, {"type": "node", "id": 6470188831, "lat": 65.0138701, "lon": 15.5428385, "tags": {"name": "Grytsj\u00f6", "name:sma": "Krovhtejaevrie", "place": "hamlet"}}, {"type": "node", "id": 6475696154, "lat": 65.0296006, "lon": 15.370084, "tags": {"name": "Marsliden", "name:sma": "Rovpe", "place": "hamlet"}}, {"type": "node", "id": 6475696155, "lat": 65.0376999, "lon": 15.4200777, "tags": {"name": "Vallen", "place": "hamlet"}}, {"type": "node", "id": 6478162292, "lat": 64.9336154, "lon": 15.4906107, "tags": {"name": "Bielite", "place": "hamlet"}}, {"type": "node", "id": 6478183191, "lat": 64.9324152, "lon": 15.6535185, "tags": {"name": "H\u00e4llfors", "place": "hamlet"}}, {"type": "node", "id": 6478183205, "lat": 64.9239861, "lon": 15.6339903, "tags": {"name": "B\u00e5ngn\u00e4s", "place": "hamlet"}}]}