{"version": 0.6, "generator": "Overpass API 0.7.61.5 4133829e", "osm3s": {"timestamp_osm_base": "2024-03-06T10:58:15Z", "copyright": "The data included in this document is from www.openstreetmap.org. The data is made available under ODbL."}, "elements": [{"type": "node", "id": 4289818589, "lat": 33.116763, "lon": 46.166223, "tags": {"addr:city": "\u0645\u0647\u0631\u0627\u0646", "addr:unit": "\u0625\u06cc\u0644\u0627\u0645", "amenity": "bank", "atm": "yes", "brand": "\u0628\u0627\u0646\u06a9 \u062a\u062c\u0627\u0631\u062a", "brand:wikidata": "Q7695198", "brand:wikipedia": "en:Tejarat Bank", "name": "\u0628\u0627\u0646\u06a9 \u062a\u062c\u0627\u0631\u062a"}}, {"type": "node", "id": 4289827090, "lat": 33.117926, "lon": 46.165461, "tags": {"amenity": "bank", "atm": "yes", "brand": "\u0628\u0627\u0646\u06a9 \u0642\u0631\u0636 \u0627\u0644\u062d\u0633\u0646\u0647 \u0645\u0647\u0631 \u0627\u06cc\u0631\u0627\u0646", "brand:en": "Qarz Al-Hasaneh Mehr Iran Bank", "brand:fa": "\u0628\u0627\u0646\u06a9 \u0642\u0631\u0636 \u0627\u0644\u062d\u0633\u0646\u0647 \u0645\u0647\u0631 \u0627\u06cc\u0631\u0627\u0646", "brand:wikidata": "Q18327813", "name": "\u0628\u0627\u0646\u06a9 \u0642\u0631\u0636 \u0627\u0644\u062d\u0633\u0646\u0647 \u0645\u0647\u0631 \u0627\u06cc\u0631\u0627\u0646", "name:en": "Qarz Al-Hasaneh Mehr Iran Bank", "name:fa": "\u0628\u0627\u0646\u06a9 \u0642\u0631\u0636 \u0627\u0644\u062d\u0633\u0646\u0647 \u0645\u0647\u0631 \u0627\u06cc\u0631\u0627\u0646", "short_name": "QMB"}}, {"type": "node", "id": 4523671213, "lat": 33.1171101, "lon": 46.1649302, "tags": {"amenity": "bank", "brand": "\u0628\u0627\u0646\u06a9 \u0645\u0644\u06cc", "brand:en": "Bank Melli Iran", "brand:wikidata": "Q806640", "brand:wikipedia": "en:Bank Melli Iran", "name": "\u0628\u0627\u0646\u06a9 \u0645\u0644\u06cc", "name:en": "Bank Melli Iran"}}, {"type": "node", "id": 5207938126, "lat": 33.1204445, "lon": 46.1640963, "tags": {"addr:street": "\u0645\u06cc\u062f\u0627\u0646 \u0627\u0645\u0627\u0645 \u062e\u0645\u06cc\u0646\u06cc", "amenity": "bank", "brand": "\u0628\u0627\u0646\u06a9 \u06a9\u0634\u0627\u0648\u0631\u0632\u06cc", "brand:en": "Bank Keshavarzi Iran", "brand:wikidata": "Q6395007", "brand:wikipedia": "en:Bank Keshavarzi Iran", "name": "\u0628\u0627\u0646\u06a9 \u06a9\u0634\u0627\u0648\u0631\u0632\u06cc", "name:en": "Bank Keshavarzi Iran"}}, {"type": "node", "id": 5207955921, "lat": 33.1184369, "lon": 46.1628145, "tags": {"addr:street": "\u0645\u06cc\u062f\u0627\u0646 \u0627\u0645\u0627\u0645 \u062e\u0645\u06cc\u0646\u06cc", "amenity": "bank", "brand": "\u0628\u0627\u0646\u06a9 \u0635\u0627\u062f\u0631\u0627\u062a", "brand:en": "Bank Saderat Iran", "brand:wikidata": "Q2882608", "brand:wikipedia": "en:Bank Saderat Iran", "name": "\u0628\u0627\u0646\u06a9 \u0635\u0627\u062f\u0631\u0627\u062a", "name:en": "Bank Saderat Iran"}}, {"type": "node", "id": 5207955922, "lat": 33.1181472, "lon": 46.1632402, "tags": {"amenity": "bank", "brand": "\u0628\u0627\u0646\u06a9 \u0633\u067e\u0647", "brand:en": "Bank Sepah", "brand:wikidata": "Q2882624", "brand:wikipedia": "en:Bank Sepah", "name": "\u0628\u0627\u0646\u06a9 \u0633\u067e\u0647", "name:en": "Bank Sepah"}}, {"type": "node", "id": 5207955923, "lat": 33.1180073, "lon": 46.1635282, "tags": {"amenity": "bank", "brand": "\u0628\u0627\u0646\u06a9 \u062a\u0648\u0633\u0639\u0647 \u062a\u0639\u0627\u0648\u0646", "brand:wikidata": "Q5684450", "brand:wikipedia": "fa:\u0628\u0627\u0646\u06a9 \u062a\u0648\u0633\u0639\u0647 \u062a\u0639\u0627\u0648\u0646", "name": "\u0628\u0627\u0646\u06a9 \u062a\u0648\u0633\u0639\u0647 \u062a\u0639\u0627\u0648\u0646"}}]}