{"version": 0.6, "generator": "Overpass API 0.7.61.5 4133829e", "osm3s": {"timestamp_osm_base": "2024-03-05T14:33:06Z", "copyright": "The data included in this document is from www.openstreetmap.org. The data is made available under ODbL."}, "elements": [{"type": "node", "id": 5530966, "lat": 59.6598741, "lon": 18.9320938, "tags": {"amenity": "ferry_terminal", "ferry": "yes", "name": "K\u00f6pmanholm", "public_transport": "stop_position"}}, {"type": "node", "id": 5530979, "lat": 59.663078, "lon": 18.9254691, "tags": {"amenity": "ferry_terminal", "name": "Furusund"}}, {"type": "node", "id": 358492743, "lat": 59.5418138, "lon": 18.5914459, "tags": {"amenity": "ferry_terminal", "waterway:sign": "ferry"}}, {"type": "node", "id": 417719513, "lat": 59.6518804, "lon": 18.9324636, "tags": {"amenity": "ferry_terminal", "name": "Larshamn"}}, {"type": "node", "id": 417721705, "lat": 59.6487416, "lon": 18.9389313, "tags": {"amenity": "ferry_terminal", "ferry": "yes", "name": "Norrsund", "public_transport": "stop_position"}}, {"type": "node", "id": 426921988, "lat": 59.6580533, "lon": 18.9166169, "tags": {"amenity": "ferry_terminal", "ferry": "yes", "name": "Furusund (Tullbryggan)", "public_transport": "stop_position"}}, {"type": "node", "id": 476805559, "lat": 59.6425984, "lon": 19.0206519, "tags": {"amenity": "ferry_terminal", "ferry": "yes", "name": "Norr\u00f6ra (Saltkr\u00e5kan)", "public_transport": "stop_position"}}, {"type": "node", "id": 799289010, "lat": 59.4962013, "lon": 18.5234271, "tags": {"amenity": "ferry_terminal", "ferry": "yes", "name": "Laggarsvik", "public_transport": "stop_position"}}, {"type": "node", "id": 897584302, "lat": 59.4991428, "lon": 18.5512454, "tags": {"amenity": "ferry_terminal", "ferry": "yes", "name": "V\u00e4sbystrand", "public_transport": "stop_position"}}, {"type": "node", "id": 897584327, "lat": 59.4818989, "lon": 18.5099231, "tags": {"amenity": "ferry_terminal", "ferry": "yes", "name": "\u00d6ran", "public_transport": "stop_position"}}, {"type": "node", "id": 897584340, "lat": 59.4965539, "lon": 18.5377927, "tags": {"amenity": "ferry_terminal", "ferry": "yes", "name": "Skuggan", "public_transport": "stop_position"}}, {"type": "node", "id": 900631306, "lat": 59.684723, "lon": 19.0170381, "tags": {"amenity": "ferry_terminal", "ferry": "yes", "name": "Gr\u00e4sk\u00f6", "public_transport": "stop_position"}}, {"type": "node", "id": 900631377, "lat": 59.566086, "lon": 18.7841556, "tags": {"amenity": "ferry_terminal", "ferry": "yes", "name": "Sj\u00e4lbottna", "public_transport": "stop_position"}}, {"type": "node", "id": 900631407, "lat": 59.6213829, "lon": 18.8905503, "tags": {"amenity": "ferry_terminal", "ferry": "yes", "name": "Almvik", "public_transport": "stop_position"}}, {"type": "node", "id": 900631477, "lat": 59.5631917, "lon": 18.7078689, "tags": {"amenity": "ferry_terminal", "ferry": "yes", "name": "Vetters\u00f6", "public_transport": "stop_position"}}, {"type": "node", "id": 900631512, "lat": 59.5996503, "lon": 18.851054, "tags": {"amenity": "ferry_terminal", "ferry": "yes", "name": "Alsvik (Yxlan)", "public_transport": "stop_position"}}, {"type": "node", "id": 900631536, "lat": 59.6344643, "lon": 18.8999943, "tags": {"amenity": "ferry_terminal", "ferry": "yes", "name": "Kolsvik", "public_transport": "stop_position"}}, {"type": "node", "id": 900631774, "lat": 59.6155319, "lon": 18.8707515, "tags": {"amenity": "ferry_terminal", "ferry": "yes", "name": "Yxl\u00f6vik", "public_transport": "stop_position"}}, {"type": "node", "id": 900631988, "lat": 59.6364399, "lon": 18.9208529, "tags": {"amenity": "ferry_terminal", "ferry": "yes", "name": "St\u00e4mmarsund", "public_transport": "stop_position"}}, {"type": "node", "id": 900632078, "lat": 59.5884708, "lon": 18.8324009, "tags": {"amenity": "ferry_terminal", "ferry": "yes", "name": "Brokholmen", "public_transport": "stop_position"}}, {"type": "node", "id": 900632085, "lat": 59.5755281, "lon": 18.784586, "tags": {"amenity": "ferry_terminal", "ferry": "yes", "name": "Vagnsunda", "public_transport": "stop_position"}}, {"type": "node", "id": 900632512, "lat": 59.60447, "lon": 18.8685368, "tags": {"amenity": "ferry_terminal", "ferry": "yes", "name": "Bruket", "public_transport": "stop_position"}}, {"type": "node", "id": 1359847921, "lat": 59.4926185, "lon": 18.4496391, "tags": {"amenity": "ferry_terminal", "name": "Skeppsdals Brygga", "source": "survey"}}, {"type": "node", "id": 1697658900, "lat": 59.6462119, "lon": 18.8174078, "tags": {"amenity": "ferry_terminal", "ferry": "yes", "name": "H\u00f6gmars\u00f6", "public_transport": "stop_position"}}, {"type": "node", "id": 1729302539, "lat": 59.7578705, "lon": 18.7149885, "tags": {"amenity": "ferry_terminal", "ferry": "yes", "name": "Norrt\u00e4lje hamn", "public_transport": "stop_position"}}, {"type": "node", "id": 1768791965, "lat": 59.5483827, "lon": 18.5756948, "tags": {"amenity": "ferry_terminal", "ferry": "yes", "name": "\u00d6stan\u00e5 f\u00e4rjel\u00e4ge", "public_transport": "stop_position"}}, {"type": "node", "id": 2259894415, "lat": 59.6742191, "lon": 18.7649749, "tags": {"amenity": "ferry_terminal", "ferry": "yes", "name": "Sol\u00f6", "public_transport": "stop_position"}}, {"type": "node", "id": 2259894631, "lat": 59.6419855, "lon": 18.7906966, "tags": {"amenity": "ferry_terminal", "ferry": "yes", "name": "S\u00f6der\u00e4ng", "public_transport": "stop_position"}}, {"type": "node", "id": 2259894795, "lat": 59.6495364, "lon": 18.7944649, "tags": {"amenity": "ferry_terminal", "ferry": "yes", "name": "Hemmar\u00f6", "public_transport": "stop_position"}}, {"type": "node", "id": 2259895201, "lat": 59.6430931, "lon": 18.8178402, "tags": {"amenity": "ferry_terminal", "ferry": "yes", "name": "F\u00e5rg\u00e5ngs\u00f6", "public_transport": "stop_position"}}, {"type": "node", "id": 2260289870, "lat": 59.5557466, "lon": 18.622891, "tags": {"amenity": "ferry_terminal", "ferry": "yes", "name": "Siar\u00f6fortet", "public_transport": "stop_position"}}, {"type": "node", "id": 2277633545, "lat": 59.6616449, "lon": 18.8601344, "tags": {"amenity": "ferry_terminal"}}, {"type": "node", "id": 2282269750, "lat": 59.6162691, "lon": 18.7617798, "tags": {"amenity": "ferry_terminal", "ferry": "yes", "name": "Nationalparken \u00c4ngs\u00f6", "public_transport": "stop_position"}}, {"type": "node", "id": 2380214581, "lat": 59.683791, "lon": 18.7835364, "tags": {"amenity": "ferry_terminal", "description": "\u00c5ngb\u00e5tsbryggan", "name": "Marholmen", "source": "survey"}}, {"type": "node", "id": 2387745823, "lat": 59.6548463, "lon": 18.854259, "tags": {"amenity": "ferry_terminal"}}, {"type": "node", "id": 2391628406, "lat": 59.7678862, "lon": 19.032149, "tags": {"amenity": "ferry_terminal", "ferry": "yes", "name": "Gr\u00e4dd\u00f6", "public_transport": "stop_position"}}, {"type": "node", "id": 2927541101, "lat": 59.4828101, "lon": 18.8266881, "tags": {"amenity": "ferry_terminal", "ferry": "yes", "name": "Finnhamn", "public_transport": "stop_position"}}, {"type": "node", "id": 3163857062, "lat": 59.5170017, "lon": 18.5445486, "tags": {"amenity": "ferry_terminal", "ferry": "yes", "name": "\u00c5l\u00f6n", "public_transport": "stop_position"}}, {"type": "node", "id": 3750338996, "lat": 59.5914891, "lon": 18.855011, "tags": {"amenity": "ferry_terminal", "ferry": "yes", "name": "Glyxn\u00e4s", "public_transport": "stop_position"}}, {"type": "node", "id": 4330714597, "lat": 59.4968409, "lon": 18.4845694, "tags": {"amenity": "ferry_terminal", "name": "Stora Timrar\u00f6n, V\u00e4stra"}}, {"type": "node", "id": 4330714598, "lat": 59.4970903, "lon": 18.5004818, "tags": {"amenity": "ferry_terminal", "ferry": "yes", "name": "Stora Timrar\u00f6 \u00f6stra", "public_transport": "stop_position"}}, {"type": "node", "id": 4429505185, "lat": 59.7799742, "lon": 18.9516142, "tags": {"amenity": "ferry_terminal", "ferry": "yes", "name": "H\u00e5kn\u00e4s", "public_transport": "stop_position"}}, {"type": "node", "id": 5729728784, "lat": 59.548144, "lon": 18.5755085, "tags": {"amenity": "ferry_terminal", "ferry": "yes", "name": "\u00d6stan\u00e5", "public_transport": "stop_position", "source:alt_name": "ferry timetable"}}, {"type": "node", "id": 5729827888, "lat": 59.632186, "lon": 18.8638664, "tags": {"amenity": "ferry_terminal", "ferry": "yes", "name": "Yxl\u00f6", "public_transport": "stop_position"}}, {"type": "node", "id": 5729955136, "lat": 59.6272504, "lon": 19.0116846, "tags": {"amenity": "ferry_terminal", "ferry": "yes", "name": "S\u00f6der\u00f6ra", "public_transport": "stop_position"}}, {"type": "node", "id": 7660925721, "lat": 59.4830474, "lon": 18.467512, "tags": {"amenity": "ferry_terminal", "ferry": "yes", "name": "Seglar\u00f6", "public_transport": "stop_position"}}, {"type": "node", "id": 7683934977, "lat": 59.4944918, "lon": 18.8067511, "tags": {"amenity": "ferry_terminal", "ferry": "yes", "name": "Norra Eksk\u00e4ret", "public_transport": "stop_position"}}, {"type": "node", "id": 7683934978, "lat": 59.4771085, "lon": 18.7490058, "tags": {"amenity": "ferry_terminal", "ferry": "yes", "name": "Norra Ingmars\u00f6", "public_transport": "stop_position"}}, {"type": "node", "id": 7683934980, "lat": 59.4854404, "lon": 18.7252226, "tags": {"amenity": "ferry_terminal", "ferry": "yes", "name": "\u00c4pplar\u00f6", "public_transport": "stop_position"}}, {"type": "node", "id": 7816225160, "lat": 59.5019725, "lon": 18.8442537, "tags": {"amenity": "ferry_terminal", "ferry": "yes", "name": "Husar\u00f6", "public_transport": "stop_position"}}, {"type": "node", "id": 9966741815, "lat": 59.6276642, "lon": 18.8935386, "tags": {"amenity": "ferry_terminal", "ferry": "yes", "name": "Duvn\u00e4s", "public_transport": "stop_position"}}]}