{"version": 0.6, "generator": "Overpass API 0.7.61.5 4133829e", "osm3s": {"timestamp_osm_base": "2024-03-05T13:43:59Z", "copyright": "The data included in this document is from www.openstreetmap.org. The data is made available under ODbL."}, "elements": [{"type": "node", "id": 271642244, "lat": 38.0954432, "lon": 69.3321224, "tags": {"ele": "666", "int_name": "Danghara", "is_in": "Tajikistan", "name": "\u0414\u0430\u043d\u0493\u0430\u0440\u0430", "name:en": "Danghara", "name:fa": "\u062f\u0646\u063a\u0631\u0647", "name:ru": "\u0414\u0430\u043d\u0433\u0430\u0440\u0430", "name:tg": "\u0414\u0430\u043d\u0493\u0430\u0440\u0430", "place": "town", "population": "25000", "postal_code": "735", "wikidata": "Q3815320", "wikipedia": "tg:\u0414\u0430\u043d\u0493\u0430\u0440\u0430"}}, {"type": "node", "id": 3469159374, "lat": 38.1559821, "lon": 69.2970379, "tags": {"name": "\u041e\u043a\u0441\u0443", "name:ru": "\u041e\u043a\u0441\u0443", "place": "village"}}, {"type": "node", "id": 3469169722, "lat": 38.150871, "lon": 69.2352749, "tags": {"name": "\u0413\u0443\u043c\u0441\u0443", "name:en": "Gumsu", "name:ru": "\u0413\u0443\u043c\u0441\u0443", "place": "village"}}, {"type": "node", "id": 3469170013, "lat": 38.1845979, "lon": 69.2359145, "tags": {"name": "Sharshar", "name:en": "Sharshar", "name:ru": "\u0428\u0430\u0440\u0448\u0430\u0440", "place": "hamlet"}}, {"type": "node", "id": 3469206030, "lat": 38.2000789, "lon": 69.245559, "tags": {"name": "\u0413\u0438\u0448\u0431\u0443\u043b\u043e\u043a", "name:en": "Gishbulok", "name:ru": "\u0413\u0438\u0448\u0431\u0443\u043b\u0430\u043a", "place": "hamlet"}}, {"type": "node", "id": 3481121425, "lat": 38.1701138, "lon": 69.3954899, "tags": {"name": "Alidzhan", "name:en": "Alidzhan", "name:ru": "\u0410\u043b\u0438\u0434\u0436\u0430\u043d", "place": "hamlet"}}, {"type": "node", "id": 3481121427, "lat": 38.1706495, "lon": 69.3748144, "tags": {"name": "\u0413\u0438\u0447\u043e\u0432\u0430\u043a", "name:en": "Gidzhovak", "name:ru": "\u0413\u0438\u0434\u0436\u043e\u0432\u0430\u043a", "place": "hamlet"}}, {"type": "node", "id": 3481121428, "lat": 38.1782446, "lon": 69.3525781, "tags": {"name": "\u041f\u0430\u0440\u043a\u0430\u043c\u0447\u0438", "name:en": "Parkamchi", "name:ru": "\u041f\u0430\u0440\u043a\u0430\u043c\u0447\u0438", "place": "hamlet"}}, {"type": "node", "id": 3481137498, "lat": 38.1616965, "lon": 69.4218401, "tags": {"name": "\u0414\u0435\u0432\u0447\u0430\u0448\u043c\u0430", "name:en": "Devchashma", "name:ru": "\u0414\u0435\u0432\u0447\u0430\u0448\u043c\u0430", "place": "hamlet"}}, {"type": "node", "id": 3481137499, "lat": 38.1773564, "lon": 69.4165493, "tags": {"name": "\u041b\u0430\u0432\u0430\u043a", "name:en": "Lavak", "name:ru": "\u041b\u0430\u0432\u0430\u043a", "place": "hamlet"}}, {"type": "node", "id": 3580215433, "lat": 38.1773819, "lon": 69.1837439, "tags": {"name": "\u0425\u0430\u043c\u0438\u043a\u0430\u0440\u0430", "name:ru": "\u0425\u0430\u043c\u0438\u043a\u0430\u0440\u0430", "place": "hamlet"}}, {"type": "node", "id": 7028188672, "lat": 38.1357417, "lon": 68.8907422, "tags": {"name": "\u0425\u0430\u0451\u0442\u0438\u043d\u0430\u0432", "place": "village"}}, {"type": "node", "id": 7499499559, "lat": 38.1298391, "lon": 69.3282151, "tags": {"name": "Korez", "name:de": "Kores", "place": "village", "wikidata": "Q6394027"}}, {"type": "node", "id": 7873986205, "lat": 38.0828918, "lon": 69.0300845, "tags": {"name": "\u0421\u0430\u043d\u0433\u0430\u0440\u0434\u0430\u043a", "name:en": "Sangardak", "place": "hamlet"}}, {"type": "node", "id": 7873986206, "lat": 38.0800394, "lon": 69.0281596, "tags": {"name": "\u0427\u0438\u043b\u044f\u043a", "name:en": "Chilak", "place": "hamlet"}}, {"type": "node", "id": 8252621595, "lat": 38.1288395, "lon": 69.0569309, "tags": {"name": "Gazikuk (Abandoned)", "place": "hamlet"}}, {"type": "node", "id": 8252831710, "lat": 38.1637317, "lon": 69.0786835, "tags": {"name": "Kukkutal", "place": "hamlet"}}, {"type": "node", "id": 8252862946, "lat": 38.1588564, "lon": 69.0027477, "tags": {"name": "Kalfi Sabad", "place": "village"}}, {"type": "node", "id": 8252862947, "lat": 38.1444317, "lon": 68.9752966, "tags": {"name": "Zafarobod", "place": "village"}}, {"type": "node", "id": 8252862948, "lat": 38.1281824, "lon": 68.9600479, "tags": {"name": "Rudaki", "place": "village"}}, {"type": "node", "id": 8252890128, "lat": 38.1231343, "lon": 69.0480522, "tags": {"name": "Koshbuloq", "place": "hamlet"}}, {"type": "node", "id": 8551703502, "lat": 38.0990319, "lon": 69.0288026, "tags": {"name": "Zarangbuloq", "place": "hamlet"}}, {"type": "node", "id": 11340993942, "lat": 38.0981384, "lon": 68.9369646, "tags": {"name": "\u0424\u0443\u0440\u043a\u0430\u0442", "place": "village"}}]}