{"version": 0.6, "generator": "Overpass API 0.7.61.5 4133829e", "osm3s": {"timestamp_osm_base": "2024-03-05T14:34:07Z", "copyright": "The data included in this document is from www.openstreetmap.org. The data is made available under ODbL."}, "elements": [{"type": "node", "id": 491519338, "lat": 55.6741811, "lon": 12.5870225, "tags": {"amenity": "ferry_terminal", "ferry": "yes", "line": "991, 992", "name": "Knippelsbro", "public_transport": "station", "wheelchair": "yes"}}, {"type": "node", "id": 491519345, "lat": 55.6722332, "lon": 12.5807101, "tags": {"amenity": "ferry_terminal", "ferry": "yes", "line": "991, 992", "name": "Det Kongelige Bibliotek", "public_transport": "station", "wheelchair": "yes"}}, {"type": "node", "id": 540156178, "lat": 55.6791344, "lon": 12.5943156, "tags": {"amenity": "ferry_terminal", "bench": "no", "bin": "yes", "cargo": "passengers", "ferry": "yes", "line": "991, 992", "name": "Nyhavn", "operator": "Havnebus", "public_transport": "station", "shelter": "no", "wheelchair": "yes"}}, {"type": "node", "id": 540156305, "lat": 55.6815115, "lon": 12.5990623, "tags": {"amenity": "ferry_terminal", "bench": "yes", "bin": "yes", "ferry": "yes", "line": "991, 992", "name": "Operaen", "public_transport": "platform", "shelter": "no", "tactile_paving": "no"}}, {"type": "node", "id": 559072752, "lat": 55.8653464, "lon": 12.8257169, "tags": {"amenity": "ferry_terminal", "ferry": "yes", "public_transport": "stop_position"}}, {"type": "node", "id": 840936177, "lat": 55.6881724, "lon": 12.5996322, "tags": {"amenity": "ferry_terminal", "ferry": "yes", "line": "991, 992", "name": "Nordre Toldbod", "network": "movia", "public_transport": "station", "shelter": "no"}}, {"type": "node", "id": 1331198469, "lat": 55.7032085, "lon": 12.7297442, "tags": {"amenity": "ferry_terminal", "ferry": "yes", "public_transport": "station"}}, {"type": "node", "id": 1608112353, "lat": 55.7015161, "lon": 12.5950114, "tags": {"amenity": "ferry_terminal", "ferry": "yes", "public_transport": "station"}}, {"type": "node", "id": 1618928560, "lat": 55.6792899, "lon": 12.5930525, "tags": {"amenity": "ferry_terminal", "ferry": "yes", "public_transport": "station"}}, {"type": "node", "id": 1773192481, "lat": 55.6270172, "lon": 12.9905738, "tags": {"amenity": "ferry_terminal", "ferry": "yes", "public_transport": "station", "ref": "703"}}, {"type": "node", "id": 1773192497, "lat": 55.6272989, "lon": 12.9900069, "tags": {"amenity": "ferry_terminal", "ferry": "yes", "public_transport": "station", "ref": "702"}}, {"type": "node", "id": 1985052461, "lat": 55.661928, "lon": 12.568893, "tags": {"amenity": "ferry_terminal", "ferry": "yes", "line": "991, 992", "name": "Bryggebroen", "operator": "Havnebus", "public_transport": "station", "wheelchair": "yes"}}, {"type": "node", "id": 1986025925, "lat": 55.6909228, "lon": 12.6071292, "tags": {"amenity": "ferry_terminal", "ferry": "yes", "line": "991, 992", "name": "Refshale\u00f8en", "public_transport": "station", "wheelchair": "yes"}}, {"type": "node", "id": 2293430217, "lat": 55.6773313, "lon": 12.591278, "tags": {"amenity": "ferry_terminal", "ferry": "yes"}}, {"type": "node", "id": 2391743199, "lat": 55.9031392, "lon": 12.7230246, "tags": {"amenity": "ferry_terminal", "ferry": "yes", "public_transport": "stop_position"}}, {"type": "node", "id": 2391743232, "lat": 55.9036313, "lon": 12.7219816, "tags": {"amenity": "ferry_terminal", "ferry": "yes", "name": "B\u00e4ckviken", "public_transport": "stop_position"}}, {"type": "node", "id": 2391743246, "lat": 55.9038587, "lon": 12.7223142, "tags": {"amenity": "ferry_terminal", "ferry": "yes", "name": "B\u00e4ckviken", "public_transport": "stop_position"}}, {"type": "node", "id": 2991082949, "lat": 55.7197889, "lon": 12.6660605, "tags": {"amenity": "ferry_terminal", "cargo": "passengers", "ferry": "yes", "name": "Middelgrundsfortet", "public_transport": "station"}}, {"type": "node", "id": 2998355135, "lat": 55.9924707, "lon": 12.7436759, "tags": {"amenity": "ferry_terminal", "cargo": "passengers", "ferry": "yes", "name": "Venb\u00e5tarna", "public_transport": "stop_position"}}, {"type": "node", "id": 3345744537, "lat": 55.7723473, "lon": 12.4963528, "tags": {"amenity": "ferry_terminal", "cargo": "passengers", "name": "Baadfarten", "website": "https://baadfarten.dk/"}}, {"type": "node", "id": 4150772586, "lat": 55.7011424, "lon": 12.5953987, "tags": {"amenity": "ferry_terminal", "ferry": "yes", "name": "DFDS ferry terminal Copenhagen", "operator": "DFDS", "public_transport": "station"}}, {"type": "node", "id": 4952355020, "lat": 55.6479201, "lon": 12.5513229, "tags": {"amenity": "ferry_terminal", "ferry": "yes", "name": "Teglholmen", "public_transport": "station", "ref": "991;992", "shelter": "no", "tactile_paving": "no"}}, {"type": "node", "id": 8892052671, "lat": 55.9035448, "lon": 12.7223024, "tags": {"amenity": "ferry_terminal", "ferry": "yes", "name": "Helsingborg - Ven", "operator": "Hartford Rederi AB", "public_transport": "station"}}, {"type": "node", "id": 9603838780, "lat": 55.6560292, "lon": 12.5638989, "tags": {"amenity": "ferry_terminal", "ferry": "yes", "name": "Islands Brygge", "public_transport": "station", "ref": "991;992"}}, {"type": "node", "id": 9673757951, "lat": 55.7116699, "lon": 12.5960834, "tags": {"amenity": "ferry_terminal", "ferry": "yes", "name": "Orientkaj", "operator": "Movia", "public_transport": "station", "wheelchair": "yes"}}, {"type": "node", "id": 9810546197, "lat": 55.6583592, "lon": 12.5880129, "tags": {"amenity": "ferry_terminal"}}, {"type": "node", "id": 9810546205, "lat": 55.6582482, "lon": 12.5882382, "tags": {"amenity": "ferry_terminal"}}, {"type": "node", "id": 9868625881, "lat": 55.6550057, "lon": 12.5608437, "tags": {"amenity": "ferry_terminal", "ferry": "yes", "name": "Enghave Brygge", "public_transport": "station", "ref": "991;992"}}, {"type": "node", "id": 10208022337, "lat": 55.6265262, "lon": 12.9916657, "tags": {"amenity": "ferry_terminal", "ferry": "yes", "public_transport": "station", "ref": "704"}}, {"type": "node", "id": 11171009141, "lat": 55.6273013, "lon": 12.9900106, "tags": {"amenity": "ferry_terminal", "ferry": "yes", "public_transport": "station", "ref": "702"}}]}