{"version": 0.6, "generator": "Overpass API 0.7.61.5 4133829e", "osm3s": {"timestamp_osm_base": "2024-02-29T13:48:25Z", "copyright": "The data included in this document is from www.openstreetmap.org. The data is made available under ODbL."}, "elements": [{"type": "node", "id": 2203622696, "lat": 7.7296736, "lon": 0.508641}, {"type": "node", "id": 2203622717, "lat": 7.7342215, "lon": 0.5101079}, {"type": "node", "id": 6547859878, "lat": 7.6598093, "lon": 0.519124, "tags": {"amenity": "school"}}, {"type": "node", "id": 6548930493, "lat": 7.9320181, "lon": 0.5366954, "tags": {"amenity": "school"}}, {"type": "node", "id": 6548974060, "lat": 7.9980174, "lon": 0.5596507, "tags": {"amenity": "school"}}, {"type": "node", "id": 6548985930, "lat": 7.9457902, "lon": 0.554417, "tags": {"amenity": "school"}}, {"type": "node", "id": 8340143414, "lat": 7.6350604, "lon": 0.5180325, "tags": {"amenity": "school"}}, {"type": "node", "id": 8645212238, "lat": 7.7268709, "lon": 0.5452346, "tags": {"amenity": "school"}}, {"type": "node", "id": 8645212882, "lat": 7.7662541, "lon": 0.5601097, "tags": {"amenity": "school"}}, {"type": "node", "id": 8645224488, "lat": 7.7097236, "lon": 0.5544255, "tags": {"amenity": "school", "name": "Yadzo Primary/JHS"}}, {"type": "node", "id": 8645224725, "lat": 7.6520703, "lon": 0.5196994, "tags": {"amenity": "school", "name": "Poase L/A Primary School"}}, {"type": "node", "id": 8653749000, "lat": 7.7427959, "lon": 0.5294173, "tags": {"amenity": "school"}}, {"type": "node", "id": 9496476140, "lat": 7.7353166, "lon": 0.5486673}, {"type": "node", "id": 9496476141, "lat": 7.7342534, "lon": 0.5486941}, {"type": "node", "id": 9496476142, "lat": 7.732789, "lon": 0.5489141}, {"type": "node", "id": 9496476143, "lat": 7.7327465, "lon": 0.5506092}, {"type": "node", "id": 9496476144, "lat": 7.7354176, "lon": 0.5506468}, {"type": "node", "id": 9501120013, "lat": 7.7345618, "lon": 0.5072808}, {"type": "node", "id": 9501120014, "lat": 7.7339239, "lon": 0.5066693}, {"type": "node", "id": 9501120015, "lat": 7.7298308, "lon": 0.5062079}, {"type": "node", "id": 9501120016, "lat": 7.7295385, "lon": 0.5067739}, {"type": "node", "id": 9501120018, "lat": 7.729791, "lon": 0.5097672}, {"type": "node", "id": 9501120019, "lat": 7.7309617, "lon": 0.5097847}, {"type": "node", "id": 9501120020, "lat": 7.7309498, "lon": 0.5099979}, {"type": "node", "id": 9501120021, "lat": 7.7319385, "lon": 0.5100489}, {"type": "node", "id": 9501120022, "lat": 7.7320793, "lon": 0.5099094}, {"type": "node", "id": 9501120023, "lat": 7.732882, "lon": 0.5099389}, {"type": "node", "id": 9514157996, "lat": 8.0051769, "lon": 0.5469882}, {"type": "node", "id": 9514157997, "lat": 8.0055593, "lon": 0.5442953}, {"type": "node", "id": 9514157998, "lat": 7.9998009, "lon": 0.544188}, {"type": "node", "id": 9514157999, "lat": 7.9989722, "lon": 0.5525243}, {"type": "node", "id": 9514158000, "lat": 8.0043535, "lon": 0.5527711}, {"type": "way", "id": 1030179362, "nodes": [9496476144, 9496476143, 9496476142, 9496476141, 9496476140, 9496476144], "tags": {"addr:country": "GH", "addr:district": "Kadjebi", "addr:place": "Ahamansu", "addr:region": "Oti", "amenity": "school", "description": "Ahamansu Islamic SHS was established to provide secular education for both Moslems and non-Muslim youth of Ahamansu and the communities nearby.", "email": "ahamansuislamicshs@ges.gov.gh", "isced:level": "3", "name": "Ahamansu Islamic Senior High School", "operator": "Ghana Education Service", "operator:short": "GES", "operator:type": "public", "operator:wikidata": "Q30263788", "phone": "+233 57 161 5912", "religion": "muslim", "start_date": "2012"}}, {"type": "way", "id": 1030740610, "nodes": [2203622717, 9501120023, 9501120022, 9501120021, 9501120020, 9501120019, 9501120018, 2203622696, 9501120016, 9501120015, 9501120014, 9501120013, 2203622717], "tags": {"addr:country": "GH", "addr:district": "Kadjebi", "addr:place": "Dodi-Papase", "addr:region": "Oti", "amenity": "school", "description": "The school is established to be a centre for the provision of high quality pre-tertiary education to its students to enable to enable them pursue further studies in tertiary institutions.", "email": "dodipapaseshst@ges.gov.gh", "isced:level": "3", "name": "Dodi-Papase Senior High/Technical School", "operator": "Ghana Education Service", "operator:short": "GES", "operator:type": "public", "operator:wikidata": "Q30263788", "phone": "+233 24 968 8273;+233 27 465 379", "start_date": "1983"}}, {"type": "way", "id": 1032609546, "nodes": [9514158000, 9514157999, 9514157998, 9514157997, 9514157996, 9514158000], "tags": {"addr:country": "GH", "addr:district": "Nkwanta South", "addr:place": "Breweniase", "addr:region": "Oti", "amenity": "school", "description": "The mission of the school is to provide quality Secondary, Agricultural and Vocational Education to students that gain admission into the school of develop them holistically.", "email": "ntrubomanshs@ges.gov.gh", "isced:level": "3", "name": "Ntruboman Senior High School", "operator": "Ghana Education Service", "operator:short": "GES", "operator:type": "public", "operator:wikidata": "Q30263788", "phone": "+233 24 473 1974;+233 20 521 2063", "start_date": "1991"}}]}