{"version": 0.6, "generator": "Overpass API 0.7.61.5 4133829e", "osm3s": {"timestamp_osm_base": "2024-03-05T15:08:58Z", "copyright": "The data included in this document is from www.openstreetmap.org. The data is made available under ODbL."}, "elements": [{"type": "node", "id": 488550469, "lat": 68.6736434, "lon": 21.5809117, "tags": {"name": "Ropinsalmi", "name:fi": "Ropinsalmi", "name:se": "Roabi\u010doalbmi", "place": "hamlet"}}, {"type": "node", "id": 2221900744, "lat": 68.8063105, "lon": 21.2545733, "tags": {"alt_name:se": "S\u00e1reguoika", "name": "Saarikoski", "name:fi": "Saarikoski", "name:se": "Vi\u0161\u0161\u00e1t", "place": "hamlet", "source": "MML 2012;survey"}}, {"type": "node", "id": 2225165211, "lat": 68.7322232, "lon": 21.4151904, "tags": {"name": "Iitto", "name:fi": "Iitto", "name:se": "Iitu", "place": "hamlet"}}, {"type": "node", "id": 2314521993, "lat": 68.6942715, "lon": 21.5922017, "tags": {"name": "Ropij\u00e4rvenper\u00e4", "name:fi": "Ropij\u00e4rvenper\u00e4", "name:se": "Roabej\u00e1vregeahci", "place": "hamlet"}}]}