{"version": 0.6, "generator": "Overpass API 0.7.61.5 4133829e", "osm3s": {"timestamp_osm_base": "2024-02-29T13:48:25Z", "copyright": "The data included in this document is from www.openstreetmap.org. The data is made available under ODbL."}, "elements": [{"type": "node", "id": 2319479418, "lat": 7.1540745, "lon": 0.471707, "tags": {"amenity": "school", "name": "St. Joseph's JHS School Complex"}}, {"type": "node", "id": 2319479996, "lat": 7.1522967, "lon": 0.472222, "tags": {"amenity": "school", "name": "St. joseph's Primary School Complex"}}, {"type": "node", "id": 2319482816, "lat": 7.1551525, "lon": 0.4700335, "tags": {"amenity": "school", "name": "Holy Rosary Primary And Junior High School Complex"}}, {"type": "node", "id": 2319511745, "lat": 7.156065, "lon": 0.4744725, "tags": {"amenity": "school", "name": "E.P. Junior High School"}}, {"type": "node", "id": 2319518099, "lat": 7.1564376, "lon": 0.4761782, "tags": {"amenity": "school", "name": "E.P. Primary School (A)"}}, {"type": "node", "id": 2319518770, "lat": 7.1571487, "lon": 0.4760124, "tags": {"amenity": "school", "name": "E.P. Primary School (B)"}}, {"type": "node", "id": 2319562072, "lat": 7.1544579, "lon": 0.4812989, "tags": {"amenity": "school", "name": "Gbi Primary And JHS(Boys School)"}}, {"type": "node", "id": 2319566155, "lat": 7.1571832, "lon": 0.48864, "tags": {"amenity": "school", "name": "St. Francis Demonstration"}}, {"type": "node", "id": 2319569232, "lat": 7.1706202, "lon": 0.4657504}, {"type": "node", "id": 2319571112, "lat": 7.1468065, "lon": 0.4775088, "tags": {"amenity": "school", "name": "Musama School"}}, {"type": "node", "id": 2319589305, "lat": 7.1491405, "lon": 0.4700871, "tags": {"amenity": "school", "name": "M/A Experimental schools(Primary And JHS)"}}, {"type": "node", "id": 2319595221, "lat": 7.1478018, "lon": 0.4660021, "tags": {"amenity": "school", "name": "St. Agatha's Commercial School"}}, {"type": "node", "id": 2319599188, "lat": 7.1570476, "lon": 0.4668819, "tags": {"amenity": "school", "name": "A.M.E. Zion Basic Schools"}}, {"type": "node", "id": 2407614116, "lat": 7.0162546, "lon": 0.6993426, "tags": {"amenity": "school", "name": "Ecole Primaire Publique de Lavi\u00e9-agoviefe", "operator:type": "government", "school:HT": "kindergarten;primaire", "source": "Bing;survey"}}, {"type": "node", "id": 2407918549, "lat": 7.0132889, "lon": 0.6756882, "tags": {"amenity": "school", "name": "Ecole Evengelique", "school:HT": "primaire", "source": "survey"}}, {"type": "node", "id": 2407924322, "lat": 7.0109601, "lon": 0.6779591, "tags": {"amenity": "school", "name": "Lyc\u00e9e de Lavi\u00e9", "operator:type": "public", "school:HT": "secondaire", "source": "survey"}}, {"type": "node", "id": 2407925760, "lat": 7.0113224, "lon": 0.677447, "tags": {"amenity": "school", "name": "Ecole Primaire Publique Centrale", "operator:type": "public", "school:HT": "primaire", "source": "survey"}}, {"type": "node", "id": 2407948830, "lat": 6.9053068, "lon": 0.6318628, "tags": {"addr:postcode": "98", "amenity": "school", "name": "Internat des Soeurs de Notre Dame de l'Eglise", "phone": "+2284410136", "school:HT": "primaire;secondaire", "source": "survey"}}, {"type": "node", "id": 2414416548, "lat": 7.0106726, "lon": 0.6715819, "tags": {"amenity": "school", "contact:phone": "+22823356201", "name": "Ecole Primaire Catholique Mater Caritatis", "operator:type": "public", "source": "bing;survey"}}, {"type": "node", "id": 2420196712, "lat": 7.0077263, "lon": 0.6733174, "tags": {"amenity": "school", "name": "ECole GUNTER KOSSI HERRMAN - LAVIE", "note": "EPP Groupe D", "operator:type": "public"}}, {"type": "node", "id": 2735220210, "lat": 6.9614009, "lon": 0.5771382}, {"type": "node", "id": 2735220211, "lat": 6.9614374, "lon": 0.5768586}, {"type": "node", "id": 3028471357, "lat": 6.918674, "lon": 0.6280843}, {"type": "node", "id": 3028471358, "lat": 6.9192637, "lon": 0.6275961}, {"type": "node", "id": 3028471359, "lat": 6.9195459, "lon": 0.629111}, {"type": "node", "id": 3028471360, "lat": 6.9201348, "lon": 0.6287141}, {"type": "node", "id": 3028600576, "lat": 6.9191875, "lon": 0.6286827}, {"type": "node", "id": 3120400660, "lat": 6.9095354, "lon": 0.6311316, "tags": {"amenity": "school", "name": "Ecole Primaire Evangelique Centrale", "short_name": "EPT"}}, {"type": "node", "id": 3120496439, "lat": 6.9235619, "lon": 0.6156294, "tags": {"amenity": "school", "name": "Ecole Primaire Catholique ST JOSEPH (IEPP KLOTO OUEST)", "school:HT": "primaire", "source": "survey"}}, {"type": "node", "id": 3123272284, "lat": 6.9195986, "lon": 0.621794}, {"type": "node", "id": 3123272285, "lat": 6.9201429, "lon": 0.6211049}, {"type": "node", "id": 3123272286, "lat": 6.9191463, "lon": 0.6203337}, {"type": "node", "id": 3123272287, "lat": 6.9181288, "lon": 0.6216337}, {"type": "node", "id": 3123281182, "lat": 6.9184564, "lon": 0.6220095}, {"type": "node", "id": 3123281183, "lat": 6.9184819, "lon": 0.6220388}, {"type": "node", "id": 3123540244, "lat": 6.9185015, "lon": 0.622395}, {"type": "node", "id": 3123540245, "lat": 6.9188915, "lon": 0.6226892}, {"type": "node", "id": 3123540246, "lat": 6.9186299, "lon": 0.6222086}, {"type": "node", "id": 3123625721, "lat": 6.9185035, "lon": 0.6220636}, {"type": "node", "id": 3124785549, "lat": 6.8934784, "lon": 0.6402396, "tags": {"amenity": "school", "name": "CEG Kpeta- Ecole 30 Aout", "note": "Ecole Mixte Secondaire et Primaire", "school:HT": "secondaire", "source": "survey"}}, {"type": "node", "id": 3124785552, "lat": 6.8961128, "lon": 0.6397088, "tags": {"amenity": "school", "name": "Complexe Scolaire Science- Conscience", "postal_code": "639 Kpalime Togo", "source": "survey"}}, {"type": "node", "id": 3124785553, "lat": 6.8950324, "lon": 0.6389409, "tags": {"amenity": "school", "name": "Ecole Islamique AN-NSR", "note": "Enseignement Franco-Arabe", "operator:type": "private", "school:HT": "primaire", "source": "survey"}}, {"type": "node", "id": 3124785556, "lat": 6.8918411, "lon": 0.6411928, "tags": {"amenity": "school", "name": "Institut Technique et Professionnel", "operator:type": "private", "phone": "+22891311220", "school:HT": "secondaire", "source": "survey"}}, {"type": "node", "id": 3128537644, "lat": 6.9184724, "lon": 0.6220279}, {"type": "node", "id": 3128878809, "lat": 6.970615, "lon": 0.6529466, "tags": {"amenity": "school", "name": "CEG de Kpim\u00e9- Tom\u00e9gb\u00e9"}}, {"type": "node", "id": 3143939538, "lat": 6.9250663, "lon": 0.6348989, "tags": {"amenity": "school", "name": "Lyc\u00e9e de Kpodzi"}}, {"type": "node", "id": 3143947376, "lat": 6.9282465, "lon": 0.6344578, "tags": {"amenity": "school", "name": "EPP de Kpodzi"}}, {"type": "node", "id": 3144564578, "lat": 6.9280071, "lon": 0.6339245}, {"type": "node", "id": 3144564579, "lat": 6.9280817, "lon": 0.6346957}, {"type": "node", "id": 3144564580, "lat": 6.9286112, "lon": 0.6346658}, {"type": "node", "id": 3144564581, "lat": 6.9285543, "lon": 0.6341038}, {"type": "node", "id": 3160228367, "lat": 6.9712332, "lon": 0.651696}, {"type": "node", "id": 3160228368, "lat": 6.9704175, "lon": 0.6516381}, {"type": "node", "id": 3160228369, "lat": 6.9703135, "lon": 0.6534636}, {"type": "node", "id": 3160228370, "lat": 6.9712195, "lon": 0.6534967}, {"type": "node", "id": 3160228371, "lat": 6.9699084, "lon": 0.6523027}, {"type": "node", "id": 3160228372, "lat": 6.9695744, "lon": 0.6527273}, {"type": "node", "id": 3166180153, "lat": 6.9083154, "lon": 0.6340253}, {"type": "node", "id": 3166180154, "lat": 6.9071529, "lon": 0.6341225}, {"type": "node", "id": 3166180155, "lat": 6.9071184, "lon": 0.6336538}, {"type": "node", "id": 3166180159, "lat": 6.9079083, "lon": 0.6335091}, {"type": "node", "id": 3166192261, "lat": 6.9082626, "lon": 0.6333708}, {"type": "node", "id": 3188739919, "lat": 6.9195872, "lon": 0.6218084}, {"type": "node", "id": 3500174721, "lat": 7.1566231, "lon": 0.4712751, "tags": {"amenity": "school", "name": "Christ Shalom Preparatory School"}}, {"type": "node", "id": 3629289073, "lat": 6.8750435, "lon": 0.6590049}, {"type": "node", "id": 3629289090, "lat": 6.8751402, "lon": 0.6602497}, {"type": "node", "id": 3629289189, "lat": 6.8764771, "lon": 0.6588631}, {"type": "node", "id": 3629289198, "lat": 6.8768136, "lon": 0.660214}, {"type": "node", "id": 3629289199, "lat": 6.876844, "lon": 0.6588058}, {"type": "node", "id": 3629289217, "lat": 6.8772806, "lon": 0.6588115}, {"type": "node", "id": 3629289218, "lat": 6.8773034, "lon": 0.6594547}, {"type": "node", "id": 3629289219, "lat": 6.8773702, "lon": 0.6590264}, {"type": "node", "id": 3649834714, "lat": 6.9195934, "lon": 0.6280193}, {"type": "node", "id": 3649846606, "lat": 6.9193837, "lon": 0.6259108}, {"type": "node", "id": 3649846607, "lat": 6.9193816, "lon": 0.6258274}, {"type": "node", "id": 3649846608, "lat": 6.9222088, "lon": 0.6235061}, {"type": "node", "id": 3649846609, "lat": 6.9254979, "lon": 0.6270207}, {"type": "node", "id": 3649846610, "lat": 6.9226646, "lon": 0.629426}, {"type": "node", "id": 3649846611, "lat": 6.9224467, "lon": 0.6292088}, {"type": "node", "id": 3649846612, "lat": 6.9222967, "lon": 0.629215}, {"type": "node", "id": 3649846613, "lat": 6.9222197, "lon": 0.6291362}, {"type": "node", "id": 3649846614, "lat": 6.9221979, "lon": 0.6289851}, {"type": "node", "id": 3649859677, "lat": 6.9185063, "lon": 0.6220668}, {"type": "node", "id": 3802641881, "lat": 6.9636443, "lon": 0.4586446, "tags": {"amenity": "school", "name": "Ve Gbodome Primary School"}}, {"type": "node", "id": 3835184919, "lat": 7.1777072, "lon": 0.6999777}, {"type": "node", "id": 3835184925, "lat": 7.1777487, "lon": 0.6999358}, {"type": "node", "id": 3835184926, "lat": 7.1777677, "lon": 0.7000387}, {"type": "node", "id": 3835184932, "lat": 7.1778093, "lon": 0.6999968}, {"type": "node", "id": 3860647234, "lat": 6.905554, "lon": 0.6321826}, {"type": "node", "id": 3860647235, "lat": 6.9048696, "lon": 0.6328537}, {"type": "node", "id": 3860647236, "lat": 6.9045132, "lon": 0.632792}, {"type": "node", "id": 3860647237, "lat": 6.9047283, "lon": 0.6318921}, {"type": "node", "id": 3860647238, "lat": 6.9052967, "lon": 0.632909}, {"type": "node", "id": 4059496222, "lat": 6.9614489, "lon": 0.5768157}, {"type": "node", "id": 4059496223, "lat": 6.9617625, "lon": 0.5769036}, {"type": "node", "id": 4059496224, "lat": 6.9619985, "lon": 0.5769264}, {"type": "node", "id": 4059496225, "lat": 6.9623185, "lon": 0.5770632}, {"type": "node", "id": 4059496226, "lat": 6.9624123, "lon": 0.5772944}, {"type": "node", "id": 4059496227, "lat": 6.9621278, "lon": 0.577581}, {"type": "node", "id": 4059496228, "lat": 6.9620179, "lon": 0.5776331}, {"type": "node", "id": 4059496229, "lat": 6.961937, "lon": 0.5775485}, {"type": "node", "id": 4059496230, "lat": 6.9619274, "lon": 0.5773335}, {"type": "node", "id": 4059496231, "lat": 6.9617011, "lon": 0.5772391}, {"type": "node", "id": 4059496232, "lat": 6.961478, "lon": 0.5772}, {"type": "node", "id": 4182850464, "lat": 6.9347933, "lon": 0.4890548, "tags": {"amenity": "school"}}, {"type": "node", "id": 4345710736, "lat": 7.1269841, "lon": 0.7440263}, {"type": "node", "id": 4345710738, "lat": 7.1270187, "lon": 0.7442516}, {"type": "node", "id": 4345710740, "lat": 7.1270639, "lon": 0.743683}, {"type": "node", "id": 4345710741, "lat": 7.1270676, "lon": 0.744046}, {"type": "node", "id": 4345710743, "lat": 7.1271274, "lon": 0.7437887}, {"type": "node", "id": 4345710744, "lat": 7.1271474, "lon": 0.7437027}, {"type": "node", "id": 4345710745, "lat": 7.1272475, "lon": 0.7442999}, {"type": "node", "id": 4345710747, "lat": 7.1273513, "lon": 0.7438332}, {"type": "node", "id": 4384694189, "lat": 6.9296791, "lon": 0.6063721, "tags": {"amenity": "school", "name": "Village la Lumi\u00e8re", "name:en": "Village of Light", "name:fr": "Village Lumiere"}}, {"type": "node", "id": 4516053190, "lat": 7.1407936, "lon": 0.6780104, "tags": {"amenity": "school", "name": "Ecole Primaire Catholique Sainte-Th\u00e9r\u00e8se"}}, {"type": "node", "id": 4563535584, "lat": 6.8746458, "lon": 0.6631847, "tags": {"amenity": "school"}}, {"type": "node", "id": 4563542066, "lat": 6.8411653, "lon": 0.7461294, "tags": {"amenity": "school"}}, {"type": "node", "id": 4563542068, "lat": 6.7938391, "lon": 0.7967207, "tags": {"amenity": "school"}}, {"type": "node", "id": 4563543923, "lat": 6.9942983, "lon": 0.6562697, "tags": {"amenity": "school"}}, {"type": "node", "id": 4563544174, "lat": 6.8752156, "lon": 0.6515757, "tags": {"amenity": "school"}}, {"type": "node", "id": 4582705589, "lat": 6.8903914, "lon": 0.624796, "tags": {"amenity": "school", "name": "Lyc\u00e9e de Zomayi", "name:fr": "Lyc\u00e9e de Zomayi"}}, {"type": "node", "id": 4587623590, "lat": 6.8377994, "lon": 0.7141511, "tags": {"amenity": "school", "name": "CEG Agou Gare", "name:fr": "CEG Agou Gare"}}, {"type": "node", "id": 4596779593, "lat": 6.8379506, "lon": 0.7131367, "tags": {"amenity": "school", "name": "Terrain de Foot", "name:de": "Sportplatz", "name:fr": "Terrain de Foot"}}, {"type": "node", "id": 4598746789, "lat": 6.8426305, "lon": 0.7133092, "tags": {"amenity": "school", "name": "Ecole Primaire Centrale", "name:fr": "Ecole Primaire"}}, {"type": "node", "id": 4598746790, "lat": 6.8274916, "lon": 0.7697185, "tags": {"amenity": "school", "name": "CEG Gadjagan", "name:fr": "CEG Gadjagan"}}, {"type": "node", "id": 5126938522, "lat": 6.9262982, "lon": 0.6273973, "tags": {"amenity": "school", "email": "aklalabatik.togo@gmail.com", "name": "Centre de formation \"Aklala Batik\"", "name:de": "Ausbildungszentrum \"Aklala Batik\" f\u00fcr benachteiligte junge Frauen", "name:en": "Education center \"Aklala Batik\" for disadvantaged girls", "opening_hours": "Mo-Fr 09:00-16:00", "operator": "Chantal Donvide", "phone": "+22891741885", "website": "http://www.aklalabatiktogo.wordpress.com"}}, {"type": "node", "id": 5228452145, "lat": 6.9244843, "lon": 0.6177715}, {"type": "node", "id": 5228452146, "lat": 6.9234645, "lon": 0.6169991}, {"type": "node", "id": 5228452147, "lat": 6.9228228, "lon": 0.6178547}, {"type": "node", "id": 5228452148, "lat": 6.9238187, "lon": 0.618603}, {"type": "node", "id": 5231548989, "lat": 7.0855024, "lon": 0.5582429}, {"type": "node", "id": 5231548990, "lat": 7.0847683, "lon": 0.5585056}, {"type": "node", "id": 5231548991, "lat": 7.0851117, "lon": 0.5594798}, {"type": "node", "id": 5231548992, "lat": 7.0858458, "lon": 0.559217}, {"type": "node", "id": 5231718164, "lat": 7.0855226, "lon": 0.5593327}, {"type": "node", "id": 5475959001, "lat": 6.9079231, "lon": 0.6337324, "tags": {"amenity": "school", "name": "Ecole Primaire Publique la Gare"}}, {"type": "node", "id": 5701677823, "lat": 6.8305365, "lon": 0.6786761, "tags": {"amenity": "school", "name": "Agou klonou"}}, {"type": "node", "id": 5953729387, "lat": 6.9068961, "lon": 0.6073702, "tags": {"amenity": "school", "name": "Jardin d'enfant hanyiga duga"}}, {"type": "node", "id": 5969128380, "lat": 6.9190897, "lon": 0.6265421, "tags": {"amenity": "school", "name": "Institut Polytechnique Dalloz"}}, {"type": "node", "id": 5969225724, "lat": 6.9242632, "lon": 0.6330666, "tags": {"amenity": "school", "name": "Institut Martin Luther King"}}, {"type": "node", "id": 5971516958, "lat": 6.9287382, "lon": 0.6336825, "tags": {"amenity": "school", "name": "Jardin d'enfant publique"}}, {"type": "node", "id": 5972243774, "lat": 6.9038433, "lon": 0.6395569, "tags": {"amenity": "school", "name": "INSTITUT DE LA CULTURE ISLAMIQUE"}}, {"type": "node", "id": 5972243779, "lat": 6.9015709, "lon": 0.6443126, "tags": {"amenity": "school", "name": "COMPLEXE EDUCATION ELLE ISLAMIQUE"}}, {"type": "node", "id": 5978889214, "lat": 6.9038801, "lon": 0.6463159, "tags": {"amenity": "school", "name": "EPP KPALIME ZONGO"}}, {"type": "node", "id": 5978957295, "lat": 6.9022539, "lon": 0.6383849, "tags": {"amenity": "school", "name": "COMPLEXE SCOLAIRE BEAU SOLEIL"}}, {"type": "node", "id": 5978957296, "lat": 6.9007604, "lon": 0.6402447, "tags": {"amenity": "school", "name": "EPP AGOEKONDZI"}}, {"type": "node", "id": 5979059718, "lat": 6.8985637, "lon": 0.6423274, "tags": {"amenity": "school", "name": "EPL LE MONDE"}}, {"type": "node", "id": 5979120899, "lat": 6.9065557, "lon": 0.6421433, "tags": {"amenity": "school", "name": "EPC TSHINU"}}, {"type": "node", "id": 5981561314, "lat": 6.9289948, "lon": 0.6404396, "tags": {"amenity": "school", "name": "Ecole Primaire Publique TSIVE"}}, {"type": "node", "id": 5988813292, "lat": 6.9104422, "lon": 0.6380221, "tags": {"amenity": "school", "name": "Ecole islamique"}}, {"type": "node", "id": 5988813293, "lat": 6.9100551, "lon": 0.6368363, "tags": {"amenity": "school", "name": "EPPL La vie utile"}}, {"type": "node", "id": 5988992469, "lat": 6.9124145, "lon": 0.6428569, "tags": {"amenity": "school", "name": "Institut la sorbonne"}}, {"type": "node", "id": 5993895346, "lat": 6.9082486, "lon": 0.623179, "tags": {"amenity": "school", "name": "EPP Kliguekondzi"}}, {"type": "node", "id": 5993895364, "lat": 6.9058098, "lon": 0.6191263, "tags": {"amenity": "school", "name": "epp kliguekondzi 2"}}, {"type": "node", "id": 5993968672, "lat": 6.907242, "lon": 0.6296216, "tags": {"amenity": "school", "denomination": "roman_catholic", "name": "ecole primaire catholique saint esprit", "religion": "christian"}}, {"type": "node", "id": 5994008608, "lat": 6.91057, "lon": 0.6573212, "tags": {"amenity": "school", "name": "epp novissi - madjatom"}}, {"type": "node", "id": 5994032458, "lat": 6.9011113, "lon": 0.6580619, "tags": {"amenity": "school", "name": "CEG 30 ao\u00fbt"}}, {"type": "node", "id": 5994085641, "lat": 6.9284134, "lon": 0.6532836, "tags": {"amenity": "school", "name": "complexe scolaire le savoir"}}, {"type": "node", "id": 5994085642, "lat": 6.9281152, "lon": 0.6540484, "tags": {"amenity": "school", "name": "epc mere carolina"}}, {"type": "node", "id": 5994085646, "lat": 6.9277028, "lon": 0.655309, "tags": {"amenity": "school", "name": "ecole mere c. beltrami"}}, {"type": "node", "id": 5994085652, "lat": 6.9239797, "lon": 0.6538265, "tags": {"amenity": "school", "name": "epp danyiniu"}}, {"type": "node", "id": 5994085658, "lat": 6.9241569, "lon": 0.6499536, "tags": {"amenity": "school", "name": "ecole change nation academic"}}, {"type": "node", "id": 5994224266, "lat": 6.9059855, "lon": 0.6457567, "tags": {"amenity": "school", "name": "centre lumiere de l'islam pour le developpement de la femme musulmane"}}, {"type": "node", "id": 5994224277, "lat": 6.9079287, "lon": 0.6451419, "tags": {"amenity": "school", "name": "Institut Dar Es-Salam franco arabe"}}, {"type": "node", "id": 5994262642, "lat": 6.914672, "lon": 0.6430648, "tags": {"amenity": "school", "name": "EPP gare c"}}, {"type": "node", "id": 5994276092, "lat": 6.9181625, "lon": 0.6342431, "tags": {"amenity": "school", "name": "complexe scolaire Dr Gustav Nachtigal"}}, {"type": "node", "id": 5994315529, "lat": 6.8932416, "lon": 0.6327777, "tags": {"amenity": "school", "denomination": "roman_catholic", "name": "ecole primaire catholique sacre coeur de dzouzekodzi", "religion": "christian"}}, {"type": "node", "id": 5994315556, "lat": 6.88289, "lon": 0.6452636, "tags": {"amenity": "school", "name": "INFA DE TOVE"}}, {"type": "node", "id": 5994325419, "lat": 6.8674256, "lon": 0.601777, "tags": {"amenity": "school", "name": "epp kloto centre"}}, {"type": "node", "id": 5994325425, "lat": 6.8451004, "lon": 0.5798625, "tags": {"amenity": "school", "name": "lycee de wome"}}, {"type": "node", "id": 5994325427, "lat": 6.8479859, "lon": 0.5755649, "tags": {"amenity": "school", "name": "EPP WOME"}}, {"type": "node", "id": 5994343025, "lat": 6.9029287, "lon": 0.6461647, "tags": {"amenity": "school", "name": "epp alhamdou zongo 2"}}, {"type": "node", "id": 5994363016, "lat": 6.8860439, "lon": 0.6296879, "tags": {"amenity": "school", "name": "epp agogome kloto ouest"}}, {"type": "node", "id": 6014989936, "lat": 7.1222057, "lon": 0.7323732, "tags": {"amenity": "school", "name": "CEG Adeta 1"}}, {"type": "node", "id": 6079831586, "lat": 7.1260873, "lon": 0.7238251, "tags": {"amenity": "school", "name": "\u00c9cole Baptiste Biblique de la Lumi\u00e8re", "name:en": "Bible Baptist School of The Light"}}, {"type": "node", "id": 6123265444, "lat": 6.897823, "lon": 0.6270596}, {"type": "node", "id": 6123265445, "lat": 6.8976652, "lon": 0.6280465}, {"type": "node", "id": 6123265446, "lat": 6.8966984, "lon": 0.627856}, {"type": "node", "id": 6123265447, "lat": 6.8967635, "lon": 0.6269039}, {"type": "node", "id": 6123265448, "lat": 6.8967126, "lon": 0.6272382}, {"type": "node", "id": 6123265449, "lat": 6.896785, "lon": 0.6272483}, {"type": "node", "id": 6123572956, "lat": 6.9046533, "lon": 0.6322058}, {"type": "node", "id": 6502418455, "lat": 6.9270866, "lon": 0.625796, "tags": {"amenity": "school", "name": "CEG Nyiv\u00e9m\u00e9"}}, {"type": "node", "id": 6553304230, "lat": 6.7657774, "lon": 0.4795922, "tags": {"amenity": "school", "name": "St. Anthony Catholic Primary"}}, {"type": "node", "id": 6553307055, "lat": 6.7720895, "lon": 0.4784834, "tags": {"amenity": "school", "name": "E.P Primary and Kindergarten"}}, {"type": "node", "id": 6554658584, "lat": 6.9158703, "lon": 0.4570652, "tags": {"amenity": "school"}}, {"type": "node", "id": 6554705977, "lat": 7.1246398, "lon": 0.4603326, "tags": {"amenity": "school", "name": "EP Basic School"}}, {"type": "node", "id": 6554716576, "lat": 6.9448722, "lon": 0.4608548, "tags": {"amenity": "school"}}, {"type": "node", "id": 6554737786, "lat": 6.9644009, "lon": 0.4585641, "tags": {"amenity": "school"}}, {"type": "node", "id": 6554744953, "lat": 6.9378605, "lon": 0.4636863, "tags": {"amenity": "school"}}, {"type": "node", "id": 6562714115, "lat": 6.7743979, "lon": 0.4763271, "tags": {"amenity": "school"}}, {"type": "node", "id": 6647591359, "lat": 6.9278255, "lon": 0.6339285}, {"type": "node", "id": 6647591360, "lat": 6.9283171, "lon": 0.6385868}, {"type": "node", "id": 6647591361, "lat": 6.9246441, "lon": 0.6386204}, {"type": "node", "id": 6647591362, "lat": 6.9243078, "lon": 0.634275}, {"type": "node", "id": 6918043786, "lat": 6.8428033, "lon": 0.8230045, "tags": {"addr:street": "Agou-Gare", "amenity": "school", "email": "stotionavetonou@yahoo.fr", "name": "ITRA", "name:fr": "ITRA - CRAF Centre de Recherche Agronomique zone Foresti\u00e8re", "operator": "BP:27"}}, {"type": "node", "id": 7050163979, "lat": 6.8019431, "lon": 0.7989072}, {"type": "node", "id": 7050209997, "lat": 6.8048297, "lon": 0.7980991}, {"type": "node", "id": 7050210002, "lat": 6.8041741, "lon": 0.7973579}, {"type": "node", "id": 7050210003, "lat": 6.8035841, "lon": 0.799989}, {"type": "node", "id": 7050210004, "lat": 6.8028702, "lon": 0.7976574}, {"type": "node", "id": 7050210005, "lat": 6.8033115, "lon": 0.7980269}, {"type": "node", "id": 7053630338, "lat": 6.906233, "lon": 0.6290343, "tags": {"amenity": "school", "name": "\u00c9cole Polyvalente Saint Esprit de Kpalim\u00e9", "operator": "private"}}, {"type": "node", "id": 7055667173, "lat": 6.9196746, "lon": 0.6298778, "tags": {"amenity": "school", "name": "\u00c9cole maternelle primaire priv\u00e9e la\u00efque"}}, {"type": "node", "id": 7055670581, "lat": 6.9070093, "lon": 0.6299991, "tags": {"amenity": "school", "description": "primaire", "name": "Institut M\u00e9dico Psycho- p\u00e9dagogique l'Envol"}}, {"type": "node", "id": 7056557095, "lat": 6.9074286, "lon": 0.642963, "tags": {"amenity": "school", "name": "La Sorbonne"}}, {"type": "node", "id": 7056564844, "lat": 6.9098535, "lon": 0.6443595, "tags": {"amenity": "school", "name": "Ecole Primaire \u00c9vang\u00e9lique La Restauration"}}, {"type": "node", "id": 7056565261, "lat": 6.8777563, "lon": 0.6487897, "tags": {"amenity": "school", "name": "Ecole priv\u00e9e Catholique Tov\u00e9-Ahoundjo"}}, {"type": "node", "id": 7056568816, "lat": 6.8778884, "lon": 0.6495176, "tags": {"amenity": "school", "name": "Ecole Primaire \u00c9vang\u00e9lique De Tove"}}, {"type": "node", "id": 7056573016, "lat": 6.893342, "lon": 0.627169, "tags": {"amenity": "school", "name": "Complexe scolaire la bonne semence"}}, {"type": "node", "id": 7056585347, "lat": 6.8793278, "lon": 0.6478404, "tags": {"amenity": "school", "name": "EPP Tov\u00e9 B"}}, {"type": "node", "id": 7056663887, "lat": 6.8969523, "lon": 0.6290799, "tags": {"amenity": "school", "name": "Ecole Primaire Baptiste J\u00e9sus Sauve"}}, {"type": "node", "id": 7057416784, "lat": 6.9159247, "lon": 0.6220029, "tags": {"amenity": "school", "name": "EPP Kp\u00e9golonou"}}, {"type": "node", "id": 7057456985, "lat": 6.9006399, "lon": 0.6509198, "tags": {"amenity": "school", "name": "Ecole Lumi\u00e8re de la Nation"}}, {"type": "node", "id": 7057456992, "lat": 6.9143197, "lon": 0.6468952, "tags": {"amenity": "school", "name": "Ecole primaire catolique de Nogo"}}, {"type": "node", "id": 7057475787, "lat": 6.9076909, "lon": 0.6524178, "tags": {"amenity": "school", "name": "\u00c9cole Coranique"}}, {"type": "node", "id": 7057793117, "lat": 6.9113726, "lon": 0.6415358, "tags": {"amenity": "school", "name": "Ecole Primaire Evangelique Presbyterienne de Numetukodzi"}}, {"type": "node", "id": 7057862081, "lat": 6.8930512, "lon": 0.6326194, "tags": {"amenity": "school", "name": "College St Fran\u00e7ois de Sales"}}, {"type": "node", "id": 7057919601, "lat": 6.9191671, "lon": 0.6269972, "tags": {"amenity": "school", "name": "Complexe Scolaire Epanoui"}}, {"type": "node", "id": 7087901217, "lat": 6.9201691, "lon": 0.6369819, "tags": {"amenity": "school", "name": "Complexe Scolaire La Promotion"}}, {"type": "node", "id": 7087913298, "lat": 6.9194853, "lon": 0.6393622, "tags": {"amenity": "school", "name": "EPP Lom-Nava"}}, {"type": "node", "id": 7087913704, "lat": 6.9159231, "lon": 0.6366912, "tags": {"amenity": "school", "name": "EPP ATAKPAMEKODZI"}}, {"type": "node", "id": 7087939300, "lat": 6.9167081, "lon": 0.6374323, "tags": {"amenity": "school", "name": "Ecole Primaire Catholique d'Atakpam\u00e9kodzi"}}, {"type": "node", "id": 7211449182, "lat": 6.8971009, "lon": 0.6309368}, {"type": "node", "id": 7211449183, "lat": 6.8966284, "lon": 0.6312727}, {"type": "node", "id": 7211449184, "lat": 6.8971973, "lon": 0.632009}, {"type": "node", "id": 7211543785, "lat": 6.8973839, "lon": 0.631664}, {"type": "node", "id": 7211543786, "lat": 6.8974282, "lon": 0.6316255}, {"type": "node", "id": 7211543787, "lat": 6.8975001, "lon": 0.6315715}, {"type": "node", "id": 7211555132, "lat": 6.900619, "lon": 0.649235}, {"type": "node", "id": 7211555133, "lat": 6.8997039, "lon": 0.648919}, {"type": "node", "id": 7211555134, "lat": 6.8994932, "lon": 0.6494344}, {"type": "node", "id": 7211555135, "lat": 6.900487, "lon": 0.6496992}, {"type": "node", "id": 7211555136, "lat": 6.9025194, "lon": 0.6527104}, {"type": "node", "id": 7211555137, "lat": 6.9019711, "lon": 0.6526089}, {"type": "node", "id": 7211555138, "lat": 6.9018675, "lon": 0.6530517}, {"type": "node", "id": 7211555139, "lat": 6.9024334, "lon": 0.6531342}, {"type": "node", "id": 7218143590, "lat": 6.9111759, "lon": 0.6293926}, {"type": "node", "id": 7218143591, "lat": 6.9108994, "lon": 0.6291141}, {"type": "node", "id": 7218143592, "lat": 6.9106128, "lon": 0.6293722}, {"type": "node", "id": 7218143593, "lat": 6.9108752, "lon": 0.6296568}, {"type": "node", "id": 7476550634, "lat": 6.9114758, "lon": 0.6415497}, {"type": "node", "id": 7476550635, "lat": 6.911436, "lon": 0.6416056}, {"type": "node", "id": 7476550636, "lat": 6.9113483, "lon": 0.6415424}, {"type": "node", "id": 7476550637, "lat": 6.9113651, "lon": 0.6415188}, {"type": "node", "id": 7476550638, "lat": 6.9113536, "lon": 0.6415105}, {"type": "node", "id": 7476550639, "lat": 6.9113766, "lon": 0.6414781}, {"type": "node", "id": 7476550676, "lat": 6.9143629, "lon": 0.6468175}, {"type": "node", "id": 7476550677, "lat": 6.9143075, "lon": 0.6467839}, {"type": "node", "id": 7476550678, "lat": 6.9142648, "lon": 0.6468552}, {"type": "node", "id": 7476550679, "lat": 6.9143202, "lon": 0.6468888}, {"type": "node", "id": 7694958534, "lat": 6.8369965, "lon": 0.5003795}, {"type": "node", "id": 7694958535, "lat": 6.838621, "lon": 0.5029544}, {"type": "node", "id": 7694958536, "lat": 6.8375824, "lon": 0.5043357}, {"type": "node", "id": 7694958537, "lat": 6.8363148, "lon": 0.5056152}, {"type": "node", "id": 7694958538, "lat": 6.8341842, "lon": 0.5056983}, {"type": "node", "id": 7694958539, "lat": 6.8315105, "lon": 0.5015623}, {"type": "node", "id": 7694958540, "lat": 6.833388, "lon": 0.5006075}, {"type": "node", "id": 7694958541, "lat": 6.8359393, "lon": 0.4990331}, {"type": "node", "id": 7694958570, "lat": 6.8437102, "lon": 0.4924938, "tags": {"amenity": "school", "name": "Presby School"}}, {"type": "node", "id": 7694958649, "lat": 6.845135, "lon": 0.4972547, "tags": {"amenity": "school", "name": "St. Anthony Catholic School - JHS"}}, {"type": "node", "id": 7694958661, "lat": 6.8442429, "lon": 0.4977804, "tags": {"amenity": "school", "name": "St. Anthony Catholic School - Primary B"}}, {"type": "node", "id": 7694958662, "lat": 6.8434652, "lon": 0.4984108, "tags": {"amenity": "school", "name": "St. Anthony Catholic School - Primary A"}}, {"type": "node", "id": 7832225500, "lat": 6.921298, "lon": 0.6242539}, {"type": "node", "id": 7947923060, "lat": 6.9008167, "lon": 0.7361516, "tags": {"amenity": "school", "name": "CEG Agou-Nyogbon"}}, {"type": "node", "id": 7952182812, "lat": 6.7948472, "lon": 0.7043717, "tags": {"amenity": "school", "name": "EPP Adjahoun-Fiagb\u00e9"}}, {"type": "node", "id": 7956424217, "lat": 6.8198669, "lon": 0.7069368, "tags": {"amenity": "school", "name": "EPP Atigb\u00e9-Abay\u00e9m\u00e9"}}, {"type": "node", "id": 7956476261, "lat": 6.8041394, "lon": 0.7066128, "tags": {"amenity": "school", "name": "CEG Assahoun-Fiagb\u00e9"}}, {"type": "node", "id": 7975618526, "lat": 6.7556689, "lon": 0.480523, "tags": {"amenity": "school"}}, {"type": "node", "id": 8150106818, "lat": 6.8253907, "lon": 0.4738652, "tags": {"amenity": "school"}}, {"type": "node", "id": 8198731537, "lat": 6.9307075, "lon": 0.6171536}, {"type": "node", "id": 8198731538, "lat": 6.9307275, "lon": 0.6171741}, {"type": "node", "id": 8198731539, "lat": 6.9307192, "lon": 0.6171824}, {"type": "node", "id": 8198731540, "lat": 6.9306991, "lon": 0.6171619}, {"type": "node", "id": 8198731541, "lat": 6.9307478, "lon": 0.6171491}, {"type": "node", "id": 8198731542, "lat": 6.93074, "lon": 0.617157}, {"type": "node", "id": 8198731543, "lat": 6.9307221, "lon": 0.6171389}, {"type": "node", "id": 8198731544, "lat": 6.9307299, "lon": 0.6171311}, {"type": "node", "id": 8198731545, "lat": 6.9307781, "lon": 0.617133}, {"type": "node", "id": 8198731546, "lat": 6.9307663, "lon": 0.6171421}, {"type": "node", "id": 8198731547, "lat": 6.9307451, "lon": 0.6171142}, {"type": "node", "id": 8198731548, "lat": 6.9307569, "lon": 0.6171051}, {"type": "node", "id": 8427564199, "lat": 6.8487714, "lon": 0.5692506, "tags": {"amenity": "school", "name": "Ecole primaire catholique de Wom\u00e9"}}, {"type": "node", "id": 8427564200, "lat": 6.8480391, "lon": 0.5702101, "tags": {"amenity": "school", "name": "Jardin d'enfant catholique de Wom\u00e9"}}, {"type": "node", "id": 8427564210, "lat": 6.847601, "lon": 0.5748349, "tags": {"amenity": "school", "name": "Ecole Primaire Catholique de Wom\u00e9"}}, {"type": "node", "id": 8427574817, "lat": 6.8420085, "lon": 0.5921727, "tags": {"amenity": "school", "name": "EPP et Jardin de Kpadap\u00e9"}}, {"type": "node", "id": 8427574837, "lat": 6.8634753, "lon": 0.6001282, "tags": {"amenity": "school", "name": "Ecole Catholique"}}, {"type": "node", "id": 8427574841, "lat": 6.8674445, "lon": 0.6023946, "tags": {"amenity": "school", "name": "Centre Diocesain de Formation Professionnelle"}}, {"type": "node", "id": 8427574850, "lat": 6.8812797, "lon": 0.6189452, "tags": {"amenity": "school", "name": "EPP VOLOVE"}}, {"type": "node", "id": 8564382256, "lat": 6.7862157, "lon": 0.5232545, "tags": {"amenity": "school", "name": "Hoe M/A JHS"}}, {"type": "node", "id": 8564393294, "lat": 6.7593708, "lon": 0.5789196, "tags": {"amenity": "school"}}, {"type": "node", "id": 8564403469, "lat": 6.7694431, "lon": 0.5397376, "tags": {"amenity": "school", "name": "Avee Basic Schools"}}, {"type": "node", "id": 8564405862, "lat": 6.7538128, "lon": 0.5771776, "tags": {"amenity": "school"}}, {"type": "node", "id": 8567008707, "lat": 6.9353319, "lon": 0.659814, "tags": {"amenity": "school", "name": "EPP YOKELE"}}, {"type": "node", "id": 8567008712, "lat": 6.9319724, "lon": 0.6582858, "tags": {"amenity": "school", "name": "Lyc\u00e9e Yokol\u00e9"}}, {"type": "node", "id": 8567008713, "lat": 6.931567, "lon": 0.6580927, "tags": {"amenity": "school", "name": "CEG Yokele"}}, {"type": "node", "id": 8575005465, "lat": 6.8463296, "lon": 0.5182091, "tags": {"amenity": "school", "name": "Holata Basic School"}}, {"type": "node", "id": 8583247672, "lat": 6.793144, "lon": 0.4900687, "tags": {"amenity": "school"}}, {"type": "node", "id": 8583247685, "lat": 6.80593, "lon": 0.5053786, "tags": {"amenity": "school", "name": "Dodome Teleafenu Evangelical Presbyterian Kindergarten and Primary School"}}, {"type": "node", "id": 8583247807, "lat": 6.774494, "lon": 0.4826716}, {"type": "node", "id": 8583247810, "lat": 6.911395, "lon": 0.5417367, "tags": {"amenity": "school", "name": "Kpoeta Ashianti Roman Catholic Junior High School"}}, {"type": "node", "id": 8583278165, "lat": 6.8779822, "lon": 0.5271151, "tags": {"amenity": "school"}}, {"type": "node", "id": 8583301022, "lat": 6.9093631, "lon": 0.5449358, "tags": {"amenity": "school", "name": "Kpoeta Kpedzi Evangelical Presbyterian Schools"}}, {"type": "node", "id": 8583304717, "lat": 6.9115304, "lon": 0.542313, "tags": {"amenity": "school", "name": "Kpoeta Ashianti Roman Catholic Primary School"}}, {"type": "node", "id": 8631441823, "lat": 6.8650185, "lon": 0.7794285, "tags": {"amenity": "school", "name": "EPP Agou Av\u00e9dz\u00e9"}}, {"type": "node", "id": 8631441827, "lat": 6.8657149, "lon": 0.7837951, "tags": {"amenity": "school", "name": "CEG Agou Av\u00e9dz\u00e9"}}, {"type": "node", "id": 8631441837, "lat": 6.8789494, "lon": 0.8148378, "tags": {"amenity": "school", "name": "Epp Agou Ananivikondji"}}, {"type": "node", "id": 8631441841, "lat": 6.8788885, "lon": 0.8268941, "tags": {"amenity": "school", "name": "EPP Zionou"}}, {"type": "node", "id": 8631441843, "lat": 6.8840718, "lon": 0.8389789, "tags": {"amenity": "school", "name": "EPC St Rapha\u00ebl"}}, {"type": "node", "id": 8631441844, "lat": 6.8842069, "lon": 0.8391284, "tags": {"amenity": "school", "name": "EPC St Thomas"}}, {"type": "node", "id": 8631441852, "lat": 6.8907316, "lon": 0.8503193, "tags": {"amenity": "school", "name": "Epp Centrale de Kati"}}, {"type": "node", "id": 8631441853, "lat": 6.8911456, "lon": 0.8517395, "tags": {"amenity": "school", "name": "EPP Evangelique"}}, {"type": "node", "id": 8631441868, "lat": 6.8902882, "lon": 0.8556381, "tags": {"amenity": "school", "name": "Lyc\u00e9e de Kati"}}, {"type": "node", "id": 8654069323, "lat": 6.8521029, "lon": 0.7498746, "tags": {"amenity": "school", "name": "CEG Kebo To\u00e9"}}, {"type": "node", "id": 8654069328, "lat": 6.8516768, "lon": 0.7531355, "tags": {"amenity": "school", "name": "EPP Kebo Dalave"}}, {"type": "node", "id": 8654069334, "lat": 6.8684817, "lon": 0.7497874, "tags": {"amenity": "school", "name": "EPP Dzigb\u00e9"}}, {"type": "node", "id": 8654100462, "lat": 6.8548625, "lon": 0.7472034, "tags": {"amenity": "school", "name": "EPP Kebo To\u00e9"}}, {"type": "node", "id": 8654492280, "lat": 6.8701021, "lon": 0.7336204, "tags": {"amenity": "school", "name": "Ecole primaire Evangelique"}}, {"type": "node", "id": 8654492283, "lat": 6.8675657, "lon": 0.7372849, "tags": {"amenity": "school", "name": "Ecole Primaire Catholique sainte Anne d'Agou"}}, {"type": "node", "id": 8828063080, "lat": 6.8994595, "lon": 0.5659115, "tags": {"amenity": "school"}}, {"type": "node", "id": 8828063081, "lat": 6.9020743, "lon": 0.5665445, "tags": {"amenity": "school", "name": "CEG HANYIGBA TODZI"}}, {"type": "node", "id": 8855298739, "lat": 6.8479259, "lon": 0.6477615, "tags": {"amenity": "school", "name": "Jardin d'enfants Atchave"}}, {"type": "node", "id": 8855298740, "lat": 6.8469193, "lon": 0.6424427, "tags": {"amenity": "school", "name": "Champ Ecole Paysan de Banu"}}, {"type": "node", "id": 8855298741, "lat": 6.8362748, "lon": 0.6450632, "tags": {"amenity": "school", "name": "EPP Atchave"}}, {"type": "node", "id": 8855298742, "lat": 6.8334386, "lon": 0.6445321, "tags": {"amenity": "school", "name": "CEG Atchave"}}, {"type": "node", "id": 8855298745, "lat": 6.8126122, "lon": 0.6621623, "tags": {"amenity": "school", "name": "CEG d'initiative Local"}}, {"type": "node", "id": 8855298750, "lat": 6.811973, "lon": 0.6641847, "tags": {"amenity": "school", "name": "EPP Tome"}}, {"type": "node", "id": 8855298753, "lat": 6.8079262, "lon": 0.632662, "tags": {"amenity": "school", "name": "EPP Agrippa Todzi"}}, {"type": "node", "id": 8855298755, "lat": 6.8016128, "lon": 0.6366062, "tags": {"amenity": "school", "name": "CEG Agrippa Kodzi"}}, {"type": "node", "id": 8855298757, "lat": 6.8758075, "lon": 0.6594479, "tags": {"amenity": "school", "name": "Lyc\u00e9e Tove Rail"}}, {"type": "node", "id": 8855298762, "lat": 6.8724948, "lon": 0.6531541, "tags": {"amenity": "school", "name": "Eglise Catholique Christ Roi"}}, {"type": "node", "id": 8855298765, "lat": 6.9053942, "lon": 0.6127694, "tags": {"amenity": "school", "name": "CEG Hanyigban Duga"}}, {"type": "node", "id": 8855298766, "lat": 6.9061425, "lon": 0.6096178, "tags": {"amenity": "school", "name": "EPP Hanyigba Duga groupe B"}}, {"type": "node", "id": 8917491170, "lat": 7.0709386, "lon": 0.5164285, "tags": {"amenity": "school", "name": "Fodome Woe/Agbetsido Municipal Assembly Basic School"}}, {"type": "node", "id": 8917491171, "lat": 7.0723665, "lon": 0.5074898, "tags": {"amenity": "school", "name": "Fodome Helu Roman Catholic Schools"}}, {"type": "node", "id": 8946677794, "lat": 7.1649799, "lon": 0.4742439, "tags": {"amenity": "school", "name": "Hohoe Adabraka English/Arabic"}}, {"type": "node", "id": 8946848866, "lat": 7.0098404, "lon": 0.5124595, "tags": {"amenity": "school"}}, {"type": "node", "id": 8946856578, "lat": 7.0731678, "lon": 0.5251702, "tags": {"amenity": "school", "name": "Evangelical Presbyterian Basic School"}}, {"type": "node", "id": 8952049510, "lat": 6.9691529, "lon": 0.5004487, "tags": {"amenity": "school", "name": "Leklebi Dafor D/A Basic Schools"}}, {"type": "node", "id": 8952074820, "lat": 7.0299893, "lon": 0.5124777, "tags": {"amenity": "school", "name": "Liate Dafonu M/A Primary"}}, {"type": "node", "id": 8952083198, "lat": 7.0195705, "lon": 0.5131118, "tags": {"amenity": "school"}}, {"type": "node", "id": 8952083219, "lat": 7.1515919, "lon": 0.5196399, "tags": {"amenity": "school", "name": "Gbi Kodzofe M/A Primary"}}, {"type": "node", "id": 8955322034, "lat": 6.9495225, "lon": 0.4589051, "tags": {"amenity": "school"}}, {"type": "node", "id": 9053455695, "lat": 6.9000048, "lon": 0.7364112, "tags": {"amenity": "school", "name": "CEG Agou Gnogbo"}}, {"type": "node", "id": 9053455696, "lat": 6.8971476, "lon": 0.732986, "tags": {"amenity": "school", "name": "Ecole priv\u00e9e La\u00efc"}}, {"type": "node", "id": 9053455697, "lat": 6.8954581, "lon": 0.7311594, "tags": {"amenity": "school", "name": "EPP Centrale Nyigbogan"}}, {"type": "node", "id": 9053455699, "lat": 6.8907875, "lon": 0.7274875, "tags": {"amenity": "school", "name": "Ecole Primaire Evangelique"}}, {"type": "node", "id": 9053455700, "lat": 6.8888902, "lon": 0.7277463, "tags": {"amenity": "school", "name": "Epp Agou Gnogbo nord"}}, {"type": "node", "id": 9053455706, "lat": 6.879923, "lon": 0.7248697, "tags": {"amenity": "school", "name": "Ecole Primaire Evangelique"}}, {"type": "node", "id": 9053455708, "lat": 6.8818283, "lon": 0.7183117, "tags": {"amenity": "school", "name": "Lyc\u00e9e Agou Gnogbo"}}, {"type": "node", "id": 9053455710, "lat": 6.879471, "lon": 0.7245015, "tags": {"amenity": "school", "name": "EPP Agou GBNO"}}, {"type": "node", "id": 9053455712, "lat": 6.8746318, "lon": 0.7224396, "tags": {"amenity": "school", "name": "Ecole Catholique GNOGBO"}}, {"type": "node", "id": 9053455716, "lat": 6.8498273, "lon": 0.7132664, "tags": {"amenity": "school", "name": "EPP CHINE Togo"}}, {"type": "node", "id": 9053465021, "lat": 6.8410711, "lon": 0.7052708, "tags": {"amenity": "school", "name": "Lyc\u00e9e Gadj\u00e9p\u00e9"}}, {"type": "node", "id": 9053465022, "lat": 6.8351004, "lon": 0.6886089, "tags": {"amenity": "school", "name": "CEG Kouloumou"}}, {"type": "node", "id": 9053465024, "lat": 6.8354945, "lon": 0.6799293, "tags": {"amenity": "school", "name": "Ecole Primaire Evangelique"}}, {"type": "node", "id": 9053465031, "lat": 6.8336236, "lon": 0.6774556, "tags": {"amenity": "school", "name": "Ecole primaire Catholique"}}, {"type": "node", "id": 9053482634, "lat": 6.8225887, "lon": 0.7680713, "tags": {"amenity": "school", "name": "Epp Gadjagan"}}, {"type": "node", "id": 9053482635, "lat": 6.8236886, "lon": 0.7673545, "tags": {"amenity": "school", "name": "Ecole Primaire Evangelique"}}, {"type": "node", "id": 9053482638, "lat": 6.8286422, "lon": 0.7648869, "tags": {"amenity": "school", "name": "EPP"}}, {"type": "node", "id": 9053482640, "lat": 6.825979, "lon": 0.7513243, "tags": {"amenity": "school", "name": "EPP Gagja Wukpe"}}, {"type": "node", "id": 9053482642, "lat": 6.8764665, "lon": 0.7878198, "tags": {"amenity": "school", "name": "EPP"}}, {"type": "node", "id": 9053482644, "lat": 6.8901963, "lon": 0.7780123, "tags": {"amenity": "school", "name": "CEG Agou Akpolo"}}, {"type": "node", "id": 9053482646, "lat": 6.888572, "lon": 0.7693675, "tags": {"amenity": "school", "name": "Ecole Primaire Evangelique Agglu Kpolo"}}, {"type": "node", "id": 9053482650, "lat": 6.8898062, "lon": 0.7712612, "tags": {"amenity": "school", "name": "Ecole Primaire Evangelique Agglu Kpolo"}}, {"type": "node", "id": 9053536608, "lat": 6.8383201, "lon": 0.7119159, "tags": {"amenity": "school", "name": "Ecole catholique"}}, {"type": "node", "id": 9053536613, "lat": 6.8050458, "lon": 0.7060486, "tags": {"amenity": "school", "name": "CEG"}}, {"type": "node", "id": 9053559728, "lat": 6.7506685, "lon": 0.7590759, "tags": {"amenity": "school", "name": "EPP Agbave"}}, {"type": "node", "id": 9053559729, "lat": 6.7704082, "lon": 0.7656822, "tags": {"amenity": "school", "name": "EPP Sofie"}}, {"type": "node", "id": 9053559731, "lat": 6.7716101, "lon": 0.7675517, "tags": {"amenity": "school", "name": "Ecole Primaire Evangelique"}}, {"type": "node", "id": 9053559732, "lat": 6.7849001, "lon": 0.7782818, "tags": {"amenity": "school", "name": "Epp Afankop\u00e9"}}, {"type": "node", "id": 9053559735, "lat": 6.7931407, "lon": 0.7967066, "tags": {"amenity": "school", "name": "Ecole Primaire Evangelique Av\u00e9tonou"}}, {"type": "node", "id": 9053603053, "lat": 6.8238657, "lon": 0.7229921, "tags": {"amenity": "school", "name": "Epp"}}, {"type": "node", "id": 9275917827, "lat": 6.9778235, "lon": 0.5613434, "tags": {"amenity": "school", "name": "Lyc\u00e9e de Kouma-Ap\u00e9y\u00e9m\u00e9", "operator": "public"}}, {"type": "node", "id": 9465232043, "lat": 7.1646927, "lon": 0.5911462, "tags": {"amenity": "school"}}, {"type": "node", "id": 9465297024, "lat": 7.1753033, "lon": 0.6034702, "tags": {"amenity": "school"}}, {"type": "node", "id": 9687843484, "lat": 7.0365671, "lon": 0.5592084}, {"type": "node", "id": 9687843485, "lat": 7.0377091, "lon": 0.5573872}, {"type": "node", "id": 9687843486, "lat": 7.036631, "lon": 0.5563062}, {"type": "node", "id": 9687843487, "lat": 7.035465, "lon": 0.5560648}, {"type": "node", "id": 9687843488, "lat": 7.0343443, "lon": 0.5582964}, {"type": "node", "id": 9687843489, "lat": 7.0347516, "lon": 0.5587766}, {"type": "node", "id": 9687843490, "lat": 7.0359987, "lon": 0.5600868}, {"type": "node", "id": 9699104471, "lat": 6.8148201, "lon": 0.4670209}, {"type": "node", "id": 9699104472, "lat": 6.8150198, "lon": 0.4671389}, {"type": "node", "id": 9699104473, "lat": 6.8161916, "lon": 0.4677719}, {"type": "node", "id": 9699104474, "lat": 6.8158241, "lon": 0.4689842}, {"type": "node", "id": 9699104475, "lat": 6.8145884, "lon": 0.4701376}, {"type": "node", "id": 9699104476, "lat": 6.8141995, "lon": 0.4699016}, {"type": "node", "id": 9699104477, "lat": 6.8135231, "lon": 0.4702905}, {"type": "node", "id": 9699104478, "lat": 6.8131795, "lon": 0.4700705}, {"type": "node", "id": 9699104479, "lat": 6.8125962, "lon": 0.4697621}, {"type": "node", "id": 9699104480, "lat": 6.8118212, "lon": 0.4687616}, {"type": "node", "id": 9699104481, "lat": 6.8123725, "lon": 0.467627}, {"type": "node", "id": 9699104482, "lat": 6.8125776, "lon": 0.4675573}, {"type": "node", "id": 9699104483, "lat": 6.8129238, "lon": 0.4674983}, {"type": "node", "id": 9699104484, "lat": 6.813342, "lon": 0.4677987}, {"type": "node", "id": 9699104485, "lat": 6.8135896, "lon": 0.467509}, {"type": "node", "id": 9699104486, "lat": 6.8140078, "lon": 0.4667419}, {"type": "node", "id": 9699104487, "lat": 6.8140957, "lon": 0.4667902}, {"type": "node", "id": 9699104488, "lat": 6.8143167, "lon": 0.4664066}, {"type": "node", "id": 9699104489, "lat": 6.8149612, "lon": 0.4667902}, {"type": "node", "id": 9765609447, "lat": 6.7776369, "lon": 0.4843748}, {"type": "node", "id": 9765609448, "lat": 6.7756925, "lon": 0.4834682}, {"type": "node", "id": 9765609449, "lat": 6.7751439, "lon": 0.4809657}, {"type": "node", "id": 9765609450, "lat": 6.7753197, "lon": 0.4805097}, {"type": "node", "id": 9765609451, "lat": 6.778609, "lon": 0.4819044}, {"type": "node", "id": 9766254028, "lat": 7.1656866, "lon": 0.4698602}, {"type": "node", "id": 9766254029, "lat": 7.1672294, "lon": 0.470385}, {"type": "node", "id": 9766254030, "lat": 7.1723728, "lon": 0.4707888}, {"type": "node", "id": 9766254031, "lat": 7.1727272, "lon": 0.4668946}, {"type": "node", "id": 9766254032, "lat": 7.1683251, "lon": 0.4645911}, {"type": "node", "id": 9796833064, "lat": 6.8381177, "lon": 0.503684}, {"type": "node", "id": 9796833065, "lat": 6.8366476, "lon": 0.4999235}, {"type": "node", "id": 9796833066, "lat": 6.8360697, "lon": 0.4992422}, {"type": "node", "id": 9800311807, "lat": 6.9574482, "lon": 0.4940602}, {"type": "node", "id": 9800311808, "lat": 6.9568172, "lon": 0.4931724}, {"type": "node", "id": 9800311809, "lat": 6.9574136, "lon": 0.4924563}, {"type": "node", "id": 9800311810, "lat": 6.9569982, "lon": 0.491944}, {"type": "node", "id": 9800311811, "lat": 6.959879, "lon": 0.4892886}, {"type": "node", "id": 9800311812, "lat": 6.9625308, "lon": 0.4924321}, {"type": "node", "id": 9800311813, "lat": 6.9587022, "lon": 0.4960263}, {"type": "node", "id": 9800311814, "lat": 6.9581511, "lon": 0.4957581}, {"type": "node", "id": 9800311815, "lat": 6.9569396, "lon": 0.4946195}, {"type": "node", "id": 9800351549, "lat": 7.183042, "lon": 0.6085154}, {"type": "node", "id": 9800351550, "lat": 7.1832815, "lon": 0.6089553}, {"type": "node", "id": 9800351551, "lat": 7.1834545, "lon": 0.609194}, {"type": "node", "id": 9800351552, "lat": 7.1834678, "lon": 0.6095159}, {"type": "node", "id": 9800351553, "lat": 7.1835397, "lon": 0.6098297}, {"type": "node", "id": 9800351554, "lat": 7.1833907, "lon": 0.6100523}, {"type": "node", "id": 9800351555, "lat": 7.1820548, "lon": 0.611667}, {"type": "node", "id": 9800351556, "lat": 7.1805272, "lon": 0.6110877}, {"type": "node", "id": 9800351557, "lat": 7.1814187, "lon": 0.609017}, {"type": "node", "id": 9800351558, "lat": 7.1809903, "lon": 0.6088239}, {"type": "node", "id": 9800351559, "lat": 7.1814028, "lon": 0.6077912}, {"type": "node", "id": 9800351560, "lat": 7.1819057, "lon": 0.6079093}, {"type": "node", "id": 9800351561, "lat": 7.1820707, "lon": 0.607861}, {"type": "node", "id": 9800351562, "lat": 7.1826189, "lon": 0.6080595}, {"type": "node", "id": 9800351563, "lat": 7.182736, "lon": 0.6078395}, {"type": "node", "id": 9800351564, "lat": 7.1833561, "lon": 0.6081627}, {"type": "node", "id": 9807411591, "lat": 6.7956416, "lon": 0.5614293}, {"type": "node", "id": 9807411592, "lat": 6.7970478, "lon": 0.5626443}, {"type": "node", "id": 9807411593, "lat": 6.7963181, "lon": 0.5635402}, {"type": "node", "id": 9807411594, "lat": 6.795543, "lon": 0.5626979}, {"type": "node", "id": 9807411595, "lat": 6.7954698, "lon": 0.5627677}, {"type": "node", "id": 9807411596, "lat": 6.7948932, "lon": 0.5622755}, {"type": "node", "id": 9820923275, "lat": 6.9817904, "lon": 0.4912412}, {"type": "node", "id": 9820923276, "lat": 6.9819714, "lon": 0.4911366}, {"type": "node", "id": 9820923277, "lat": 6.9820407, "lon": 0.490914}, {"type": "node", "id": 9820923278, "lat": 6.9820513, "lon": 0.4904124}, {"type": "node", "id": 9820923279, "lat": 6.9821152, "lon": 0.4900905}, {"type": "node", "id": 9820923280, "lat": 6.9820007, "lon": 0.48931}, {"type": "node", "id": 9820923281, "lat": 6.9820833, "lon": 0.4892027}, {"type": "node", "id": 9820923282, "lat": 6.9818969, "lon": 0.4880601}, {"type": "node", "id": 9820923283, "lat": 6.9813325, "lon": 0.4880601}, {"type": "node", "id": 9820923284, "lat": 6.9809544, "lon": 0.488677}, {"type": "node", "id": 9820923285, "lat": 6.9809118, "lon": 0.4904365}, {"type": "node", "id": 9820923286, "lat": 6.9811142, "lon": 0.4917455}, {"type": "node", "id": 9820923287, "lat": 6.9818436, "lon": 0.4916167}, {"type": "node", "id": 10196892342, "lat": 6.7441911, "lon": 0.8267868, "tags": {"amenity": "school", "name": "EPP AGOE AKODESSEWA"}}, {"type": "node", "id": 10196893236, "lat": 6.7428418, "lon": 0.8241859, "tags": {"amenity": "school", "name": "COLLEGE PROTESTANT DE AGOE AKODESSEWA"}}, {"type": "node", "id": 10196896226, "lat": 6.8194306, "lon": 0.8505291, "tags": {"amenity": "school", "name": "CEG ZOZOKODZI"}}, {"type": "node", "id": 10196896230, "lat": 6.7704421, "lon": 0.7654426, "tags": {"amenity": "school", "name": "EPP SOFI\u00c9"}}, {"type": "node", "id": 10196896231, "lat": 6.7628387, "lon": 0.6975863, "tags": {"amenity": "school", "name": "EPP NYANESSI"}}, {"type": "node", "id": 10196899517, "lat": 6.7641352, "lon": 0.8114923, "tags": {"amenity": "school", "name": "EPP LAKPONOU"}}, {"type": "node", "id": 10248618209, "lat": 6.762216, "lon": 0.7108801, "tags": {"amenity": "school", "name": "EPP NYIDOVE"}}, {"type": "node", "id": 10554496000, "lat": 6.8276645, "lon": 0.6128903, "tags": {"amenity": "school"}}, {"type": "node", "id": 10554666605, "lat": 6.8014272, "lon": 0.5820057, "tags": {"amenity": "school", "name": "EPP Sevenokop\u00e9"}}, {"type": "node", "id": 10559653814, "lat": 6.9889059, "lon": 0.5645708, "tags": {"amenity": "school", "name": "EPP Kuma-bala"}}, {"type": "node", "id": 10719955412, "lat": 6.8159306, "lon": 0.5510199}, {"type": "node", "id": 10719955413, "lat": 6.815861, "lon": 0.5509581}, {"type": "node", "id": 10719955414, "lat": 6.816004, "lon": 0.5507947}, {"type": "node", "id": 10719955415, "lat": 6.8159181, "lon": 0.5507184}, {"type": "node", "id": 10719955416, "lat": 6.8157701, "lon": 0.5508876}, {"type": "node", "id": 10719955417, "lat": 6.8157096, "lon": 0.5508339}, {"type": "node", "id": 10719955418, "lat": 6.8158729, "lon": 0.5506475}, {"type": "node", "id": 10719955419, "lat": 6.8159189, "lon": 0.5506883}, {"type": "node", "id": 10719955420, "lat": 6.8159557, "lon": 0.5506462}, {"type": "node", "id": 10719955421, "lat": 6.8160948, "lon": 0.5507697}, {"type": "node", "id": 10719955422, "lat": 6.8160788, "lon": 0.550788}, {"type": "node", "id": 10719955423, "lat": 6.8161097, "lon": 0.5508154}, {"type": "node", "id": 10727892605, "lat": 6.9694197, "lon": 0.575498, "tags": {"amenity": "school", "name": "Ecole primaire publique (EPP) Kuma-Tokpli", "name:en": "Primary public school Kuma-Tokpli"}}, {"type": "node", "id": 10857064989, "lat": 7.1490149, "lon": 0.6891519, "tags": {"amenity": "school", "name": "CEG Atigba-N'Digbe"}}, {"type": "node", "id": 10911770707, "lat": 6.9442284, "lon": 0.7025991, "tags": {"amenity": "school", "name": "EPC Govu"}}, {"type": "node", "id": 10914060705, "lat": 7.1778034, "lon": 0.7005559, "tags": {"amenity": "school", "name": "EPC MEDEWUNUI"}}, {"type": "node", "id": 11020715205, "lat": 7.0900825, "lon": 0.6401632, "tags": {"amenity": "school", "name": "EPP TSADOME"}}, {"type": "node", "id": 11020715305, "lat": 7.0985152, "lon": 0.6623113, "tags": {"amenity": "school", "name": "EPP NYAMEGBE"}}, {"type": "node", "id": 11020715405, "lat": 7.104993, "lon": 0.66122, "tags": {"amenity": "school", "name": "EPP AMEGAPE"}}, {"type": "node", "id": 11399148991, "lat": 6.8421783, "lon": 0.4932777}, {"type": "node", "id": 11399148992, "lat": 6.8416144, "lon": 0.4936981}, {"type": "node", "id": 11399148993, "lat": 6.8417515, "lon": 0.4944371}, {"type": "node", "id": 11399148994, "lat": 6.8423414, "lon": 0.4934728}, {"type": "way", "id": 298881380, "nodes": [3028471358, 3028471357, 3028600576, 3028471359, 3028471360, 3649834714, 3028471358], "tags": {"amenity": "school", "name": "EPP Nyiv\u00e9m\u00e9", "source": "bing;survey"}}, {"type": "way", "id": 309139159, "nodes": [3144564578, 3144564579, 3144564580, 3144564581, 3144564578], "tags": {"amenity": "school"}}, {"type": "way", "id": 310580215, "nodes": [3160228367, 3160228368, 3160228371, 3160228372, 3160228369, 3160228370, 3160228367], "tags": {"amenity": "school", "name": "CEG Kpim\u00e9 Tom\u00e9gb\u00e9"}}, {"type": "way", "id": 311072054, "nodes": [3166180153, 3166180154, 3166180155, 3166180159, 3166192261, 3166180153], "tags": {"amenity": "school", "name": "Ecole Primaire Publique la Gare"}}, {"type": "way", "id": 357806327, "nodes": [3629289090, 3629289073, 3629289189, 3629289199, 3629289217, 3629289219, 3629289218, 3629289198, 3629289090], "tags": {"amenity": "school", "source": "bing2012;survey"}}, {"type": "way", "id": 360437697, "nodes": [3649846606, 3649846607, 7832225500, 3649846608, 3649846609, 3649846610, 3649846611, 3649846612, 3649846613, 3649846614, 3649846606], "tags": {"amenity": "school", "name": "Centre R\u00e9gional d'Enseignement Technique et de Formation Professionelle"}}, {"type": "way", "id": 360438243, "nodes": [3123272285, 3123272286, 3123272287, 3123281182, 3128537644, 3123281183, 3123625721, 3649859677, 3123540246, 3123540244, 3123540245, 3188739919, 3123272284, 3123272285], "tags": {"amenity": "school", "name": "Coll\u00e8ge Protestant d'Agom\u00e9 Kpalim\u00e9"}}, {"type": "way", "id": 380178874, "nodes": [3835184919, 3835184925, 3835184932, 3835184926, 3835184919], "tags": {"amenity": "school", "building": "yes", "name": "EPC M\u00e9d\u00e9vunui"}}, {"type": "way", "id": 382853735, "nodes": [3860647234, 3860647238, 3860647235, 3860647236, 6123572956, 3860647237, 3860647234], "tags": {"amenity": "school", "name": "Ecole primaire Centrale", "operator": "Publique"}}, {"type": "way", "id": 403601939, "nodes": [4059496222, 4059496223, 4059496224, 4059496225, 4059496226, 4059496227, 4059496228, 4059496229, 4059496230, 4059496231, 4059496232, 2735220210, 2735220211, 4059496222], "tags": {"amenity": "school", "name": "Lyc\u00e9e de Kouma", "school:HT": "secondaire"}}, {"type": "way", "id": 436693218, "nodes": [4345710736, 4345710741, 4345710738, 4345710745, 4345710747, 4345710743, 4345710744, 4345710740, 4345710736], "tags": {"amenity": "school", "fixme": "confirm"}}, {"type": "way", "id": 540440163, "nodes": [5228452145, 5228452146, 5228452147, 5228452148, 5228452145], "tags": {"amenity": "school", "name": "Centre Artisanal"}}, {"type": "way", "id": 540867648, "nodes": [5231548989, 5231548990, 5231548991, 5231718164, 5231548992, 5231548989], "tags": {"amenity": "school"}}, {"type": "way", "id": 653360420, "nodes": [6123265444, 6123265445, 6123265446, 6123265449, 6123265448, 6123265447, 6123265444], "tags": {"amenity": "school", "name": "Ecole Primaire Publique ZOMAYI"}}, {"type": "way", "id": 707395576, "nodes": [6647591359, 6647591360, 6647591361, 6647591362, 6647591359], "tags": {"amenity": "school", "name": "Lyc\u00e9e de Kpodzi"}}, {"type": "way", "id": 754671266, "nodes": [7050210002, 7050209997, 7050210003, 7050163979, 7050210004, 7050210005, 7050210002], "tags": {"amenity": "school", "name": "Lyce\u00e9 d'Av\u00e9tonou"}}, {"type": "way", "id": 772409907, "nodes": [7211449182, 7211449183, 7211449184, 7211543785, 7211543786, 7211543787, 7211449182], "tags": {"amenity": "school", "name": "EPP Dzodzekodzi"}}, {"type": "way", "id": 772413888, "nodes": [7211555132, 7211555133, 7211555134, 7211555135, 7211555132], "tags": {"amenity": "school", "name": "EPP KPOGANDZI"}}, {"type": "way", "id": 772413889, "nodes": [7211555136, 7211555137, 7211555138, 7211555139, 7211555136], "tags": {"amenity": "school", "name": "Ecole Primaire Catholique Kpogandzi"}}, {"type": "way", "id": 773089106, "nodes": [7218143590, 7218143591, 7218143592, 7218143593, 7218143590], "tags": {"amenity": "school", "name": "Ecole Primaire Evangelique TEMPLE"}}, {"type": "way", "id": 799423052, "nodes": [7476550634, 7476550635, 7476550636, 7476550637, 7476550638, 7476550639, 7476550634], "tags": {"amenity": "school"}}, {"type": "way", "id": 799423062, "nodes": [7476550676, 7476550677, 7476550678, 7476550679, 7476550676], "tags": {"amenity": "school"}}, {"type": "way", "id": 824155034, "nodes": [7694958541, 7694958540, 7694958539, 7694958538, 7694958537, 7694958536, 9796833064, 7694958535, 7694958534, 9796833065, 9796833066, 7694958541], "tags": {"addr:city": "Ho", "addr:country": "GH", "addr:district": "Ho West", "addr:place": "Kpedze", "addr:region": "Volta", "alt_name": "KPESCO", "amenity": "school", "description": "The school is located in Kpedze in the Ho-West District of the Volta Region, along the Kpedze-Dodome road. The school stands on a 198-acre land endowed with a lot of greenery which creates a cool and refreshing atmosphere.", "email": "kpedzesehs@ges.gov.gh", "isced:level": "3", "name": "Kpedze Senior High School", "operator": "Ghana Education Service", "operator:short": "GES", "operator:type": "public", "operator:wikidata": "Q30263788", "start_date": "1962"}}, {"type": "way", "id": 881582649, "nodes": [8198731537, 8198731538, 8198731539, 8198731540, 8198731537], "tags": {"amenity": "school"}}, {"type": "way", "id": 881582650, "nodes": [8198731541, 8198731542, 8198731543, 8198731544, 8198731541], "tags": {"amenity": "school"}}, {"type": "way", "id": 881582651, "nodes": [8198731545, 8198731546, 8198731547, 8198731548, 8198731545], "tags": {"amenity": "school"}}, {"type": "way", "id": 1054200068, "nodes": [9687843490, 9687843489, 9687843488, 9687843487, 9687843486, 9687843485, 9687843484, 9687843490], "tags": {"addr:country": "GH", "addr:district": "Hohoe Municipal", "addr:place": "Gbledi-Gbogame", "addr:region": "Volta", "amenity": "school", "description": "The school is a Government assisted school funded in 1987. It is located on a leveled ground 30 metres from the foot of the highest peak in Ghana called Mt. Afadja in the Volta Region.", "email": "afadjatoshst@ges.gov.gh", "isced:level": "3", "name": "Afadjato Senior High/Technical School", "operator": "Ghana Education Service", "operator:short": "GES", "operator:type": "public", "operator:wikidata": "Q30263788", "phone": "+233 24 485 6247", "start_date": "1987"}}, {"type": "way", "id": 1055533417, "nodes": [9699104489, 9699104488, 9699104487, 9699104486, 9699104485, 9699104484, 9699104483, 9699104482, 9699104481, 9699104480, 9699104479, 9699104478, 9699104477, 9699104476, 9699104475, 9699104474, 9699104473, 9699104472, 9699104471, 9699104489], "tags": {"addr:city": "Ho", "addr:country": "GH", "addr:district": "Ho West", "addr:place": "Akome Gbogame", "addr:region": "Volta", "amenity": "school", "description": "The Experimental Junior Secondary School was converted into Akome Secondary Technical School in 1991. The school was officially opened on 28th January 1991.", "email": "akomeshst@ges.gov.gh", "isced:level": "3", "name": "Akome Senior High/Technical School", "operator": "Ghana Education Service", "operator:short": "GES", "operator:type": "public", "operator:wikidata": "Q30263788", "start_date": "1991-01-28"}}, {"type": "way", "id": 1063067238, "nodes": [9765609451, 9765609450, 9765609449, 8583247807, 9765609448, 9765609447, 9765609451], "tags": {"addr:city": "Ho", "addr:country": "GH", "addr:district": "Ho West", "addr:place": "Dzolo", "addr:region": "Volta", "amenity": "school", "description": "The school is located at Dzolo Gbogame, off the Kpedze-Dodome road in the Ho-West District of the Volta Region.", "email": "dzoloshs@ges.gov.gh", "isced:level": "3", "name": "Dzolo Senior High School", "operator": "Ghana Education Service", "operator:short": "GES", "operator:type": "public", "operator:wikidata": "Q30263788", "phone": "+233 24 429 1932;+233 20 174 235", "start_date": "1989"}}, {"type": "way", "id": 1063156694, "nodes": [9766254032, 2319569232, 9766254031, 9766254030, 9766254029, 9766254028, 9766254032], "tags": {"addr:city": "Hohoe", "addr:country": "GH", "addr:district": "Hohoe Municipal", "addr:region": "Volta", "amenity": "school", "denomination": "evangelical_presbyterian", "description": "HEPSHS is located along the Hohoe-Jasikan road. It has a total land surface of 225.337 acres. Though the school was located 2 kilometers away from town, it is now surrounded by settlements.", "email": "epshs@ges.gov.gh", "isced:level": "3", "name": "Hohoe E.P. Senior High School", "operator": "Ghana Education Service", "operator:short": "GES", "operator:type": "public", "operator:wikidata": "Q30263788", "phone": "+233 24 346 7774", "religion": "christian", "short_name": "HEPSHS", "start_date": "1961"}}, {"type": "way", "id": 1067404359, "nodes": [9800311815, 9800311814, 9800311813, 9800311812, 9800311811, 9800311810, 9800311809, 9800311808, 9800311807, 9800311815], "tags": {"addr:country": "GH", "addr:district": "Afadzato-South", "addr:place": "Leklebi", "addr:region": "Volta", "amenity": "school", "description": "Leklebi Senior High School was founded in October 1967 as a community Secondary School at the behest of Professor A.C Kumah a renowned Lawyer. The school can be located in the Afadzato South District of the Volta Region.", "email": "leklebishs@ges.gov.gh", "isced:level": "3", "name": "Leklebi Senior High School", "operator": "Ghana Education Service", "operator:short": "GES", "operator:type": "public", "operator:wikidata": "Q30263788", "phone": "+233 24 488 9791", "start_date": "1967-10"}}, {"type": "way", "id": 1067410437, "nodes": [9800351564, 9800351563, 9800351562, 9800351561, 9800351560, 9800351559, 9800351558, 9800351557, 9800351556, 9800351555, 9800351554, 9800351553, 9800351552, 9800351551, 9800351550, 9800351549, 9800351564], "tags": {"addr:city": "Hohoe", "addr:country": "GH", "addr:district": "Hohoe Municipal", "addr:place": "Likpe-Mate", "addr:region": "Volta", "amenity": "school", "description": "It is situated at the serene mountain side at Likpe- Mate. It is less than a kilometre from the main road from Hohoe to Likpe-Bala. The administration block is at the foot of the mountain while other facilities are up the mountain.", "email": "likpeshs@ges.gov.gh", "isced:level": "3", "name": "Likpe Senior High School", "operator": "Ghana Education Service", "operator:short": "GES", "operator:type": "public", "operator:wikidata": "Q30263788", "phone": "+233 54 386 6428;+233 24 383 3319", "start_date": "1958"}}, {"type": "way", "id": 1068343620, "nodes": [9807411596, 9807411595, 9807411594, 9807411593, 9807411592, 9807411591, 9807411596], "tags": {"addr:city": "Ho", "addr:country": "GH", "addr:district": "Ho Municipal", "addr:place": "Shia", "addr:region": "Volta", "amenity": "school", "description": "The school, initially a private one, was absorbed by the Government in September 2010. The total population of the school currently is about 400. It is still facing serious infrastructure problems.", "email": "shiashst@ges.gov.gh", "isced:level": "3", "name": "Shia Senior High/Technical School", "operator": "Ghana Education Service", "operator:short": "GES", "operator:type": "public", "operator:wikidata": "Q30263788", "phone": "+233 24 411 6594;+233 20 937 499", "start_date": "1998"}}, {"type": "way", "id": 1070041508, "nodes": [9820923287, 9820923286, 9820923285, 9820923284, 9820923283, 9820923282, 9820923281, 9820923280, 9820923279, 9820923278, 9820923277, 9820923276, 9820923275, 9820923287], "tags": {"addr:country": "GH", "addr:district": "Afadzato South", "addr:place": "Liati-Agbonyra", "addr:region": "Volta", "amenity": "school", "denomination": "roman_catholic", "description": "Located in Liati, about 4km east of Ve-Golokuati in the Afadzato South District, Volta Region, the school is about 600 m, west of the St. Joseph Catholic Church, Liati, from Liati-Leklebi road.", "email": "stdanielcombonitechvocinst@ges.gov.gh", "isced:level": "3", "name": "St. Daniel Comboni Technical/Vocational Institute", "operator": "Ghana Education Service", "operator:short": "GES", "operator:type": "public", "operator:wikidata": "Q30263788", "phone": "+233 24 412 5707", "religion": "christian", "start_date": "1981"}}, {"type": "way", "id": 1152533832, "nodes": [10719955412, 10719955413, 10719955414, 10719955415, 10719955416, 10719955417, 10719955418, 10719955419, 10719955420, 10719955421, 10719955422, 10719955423, 10719955412], "tags": {"amenity": "school", "building": "yes"}}, {"type": "way", "id": 1229176210, "nodes": [11399148994, 11399148993, 11399148992, 11399148991, 11399148994], "tags": {"amenity": "school", "name": "Kpedze Sreme DA Basic School"}}]}