{"version": 0.6, "generator": "Overpass API 0.7.61.5 4133829e", "osm3s": {"timestamp_osm_base": "2024-03-05T13:39:48Z", "copyright": "The data included in this document is from www.openstreetmap.org. The data is made available under ODbL."}, "elements": [{"type": "node", "id": 1260508616, "lat": 37.3841705, "lon": 67.0972787, "tags": {"alt_name": "\u041d\u0430\u0443\u0448\u0430\u0445\u0430\u0440", "alt_name:en": "Naushakhar", "esr": "734906", "esr:user": "734906", "gns:dsg": "RSTN: railroad station", "gns:ufi": "9111196", "name": "Noushaxar", "name:en": "Noushaxar", "name:ru": "\u041d\u0430\u0443\u0448\u0430\u0445\u0430\u0440", "public_transport": "station", "railway": "station", "source": "NGA GNS", "uic_ref": "2900253"}}, {"type": "node", "id": 1584542552, "lat": 37.3194047, "lon": 67.2110017, "tags": {"alt_name": "\u0423\u0447-\u041a\u0438\u0437\u044b\u043b;\u0421\u0442\u0430\u043d\u0446\u0438\u044f \u0423\u0447\u043a\u044b\u0437\u044b\u043b;\u0421\u0442\u0430\u043d\u0446\u0438\u044f \u0423\u0447-\u041a\u0438\u0437\u0438\u043b", "alt_name:en": "Uch-Kizyl;Stantsiya Uchkyzyl;Stantsiya Uch-Kizil", "esr:user": "735006", "gns:dsg": "RSTN: railroad station", "gns:ufi": "-2579509", "name": "\u0423\u0447\u043a\u044b\u0437\u044b\u043b", "name:de": "Uchqizil", "name:en": "Uchqizil", "name:eo": "Uchqizil", "name:fr": "Uchqizil", "name:ru": "\u0423\u0447\u043a\u044b\u0437\u044b\u043b", "public_transport": "station", "railway": "station", "source": "NGA GNS", "uic_ref": "2900254"}}, {"type": "node", "id": 1584542553, "lat": 37.4160918, "lon": 66.9928422, "tags": {"esr": "734802", "esr:user": "734802", "name": "\u0428\u0435\u0440\u0430\u0431\u0430\u0434", "name:ru": "\u0428\u0435\u0440\u0430\u0431\u0430\u0434", "public_transport": "station", "railway": "station", "uic_ref": "2900252"}}, {"type": "node", "id": 1584542556, "lat": 37.4015573, "lon": 66.7306738, "tags": {"esr": "739401", "esr:user": "739401", "name": "Boldir", "name:ru": "\u0411\u043e\u043b\u0434\u044b\u0440", "public_transport": "station", "railway": "station", "uic_ref": "2900251"}}]}