{"version": 0.6, "generator": "Overpass API 0.7.61.5 4133829e", "osm3s": {"timestamp_osm_base": "2024-03-06T11:17:45Z", "copyright": "The data included in this document is from www.openstreetmap.org. The data is made available under ODbL."}, "elements": [{"type": "node", "id": 599167827, "lat": 35.1379231, "lon": 44.4463821, "tags": {"capital": "6", "int_name": "D\u0101q\u016bq, Tauk, Tauq, \u0162\u0101w\u016bd, \u0162\u0101w\u016bq, \u062f\u0627\u0642\u0648\u0642, Daquq, Tauk, Tauq, Tawud, Tawuq, \u062f\u0627\u0642\u0648\u0642", "name": "\u062f\u0627\u0642\u0648\u0642", "name:ar": "\u062f\u0627\u0642\u0648\u0642", "name:ckb": "\u062f\u0627\u0642\u0648\u0648\u0642", "name:de": "Daquq", "name:en": "Daquq", "name:fr": "Dakouk", "name:ku": "Daq\u00fbq", "place": "town", "wikidata": "Q2625867", "wikipedia": "en:Daquq"}}, {"type": "node", "id": 2488469553, "lat": 34.993582, "lon": 44.41453, "tags": {"int_name": "\u0100lb\u016b Najm, \u0627\u0644\u0628\u0648 \u0646\u062c\u0645", "name": "\u0627\u0644\u0628\u0648 \u0646\u062c\u0645", "name:de": "Albu Najm", "name:en": "Albu Najm", "name:fr": "Albu Najm", "place": "village"}}, {"type": "node", "id": 2488469560, "lat": 34.9732877, "lon": 44.3652648, "tags": {"alt_name": "\u0627\u0644\u0633\u062d\u0627\u0642\u064a\u0629 \u0627\u0644\u0633\u0641\u0644\u0649", "int_name": "As Sa\u1e29\u0101q\u012byah as Sufl\u00e1, \u0627\u0644\u0633\u062d\u0627\u0642\u064a\u0629 \u0627\u0644\u0633\u0641\u0644\u0649, As Sahaqiyah as Sufla, \u0627\u0644\u0633\u062d\u0627\u0642\u064a\u0629 \u0627\u0644\u0633\u0641\u0644\u0649", "name": "\u0633\u0645\u0627\u0642\u0629 \u0627\u0644\u0633\u0641\u0644\u0649", "name:ar1": "\u0627\u0644\u0633\u062d\u0627\u0642\u064a\u0629 \u0627\u0644\u0633\u0641\u0644\u0649", "name:ckb": "\u0633\u0645\u0627\u0642\u06d5\u06cc \u062e\u0648\u0627\u0631\u0648\u0648", "name:de": "Lower Smaqa", "name:en": "Lower Smaqa", "name:fr": "Lower Smaqa", "place": "village"}}, {"type": "node", "id": 2488469580, "lat": 34.9623436, "lon": 44.4643041, "tags": {"name": "\u067e\u0627\u0631\u06d5 \u067e\u0627\u0631\u06d5", "name:ar": "\u067e\u0627\u0631\u06d5 \u067e\u0627\u0631\u06d5", "name:en": "ParaPara", "place": "village"}}, {"type": "node", "id": 2488469603, "lat": 34.9691276, "lon": 44.4544342, "tags": {"int_name": "Jinglawa, \u062c\u06d5\u0646\u06af\u06d5\u0644\u0627\u0648\u06d5", "name": "\u062c\u06d5\u0646\u06af\u06b5\u0627\u0648\u06d5", "name:ar": "\u062c\u06af\u0644\u0627\u0648\u06d5", "name:en": "Changalawa", "place": "village"}}, {"type": "node", "id": 2488469610, "lat": 34.881822, "lon": 44.477014, "tags": {"alt_name": "\u0642\u0631\u064a\u0629 \u062d\u0644\u064a\u0648\u0629 \u0627\u0644\u0635\u063a\u064a\u0631\u0629", "int_name": "Chotta Halaiwa, Ch\u016btah \u1e28ulaywah, Hilaywah Sagh\u012brah, \u1e28ulaywah a\u015f \u015eagh\u012brah, \u1e28ulaywah \u015eagh\u012br, Qaryat \u1e28ulaywat a\u015f \u015eagh\u012brah, Sagh\u012br Hilaiwa", "name": "\u0642\u0631\u064a\u0629 \u062d\u0644\u064a\u0648\u0629 \u0627\u0644\u0635\u063a\u064a\u0631\u0629", "name:ar": "\u0642\u0631\u064a\u0629 \u062d\u0644\u064a\u0648\u0629 \u0627\u0644\u0635\u063a\u064a\u0631\u0629", "name:ar1": "\u0642\u0631\u064a\u0629 \u062d\u0644\u064a\u0648\u0629 \u0627\u0644\u0635\u063a\u064a\u0631\u0629", "name:de": "Chotta Halaiwa", "name:en": "Hlewa Little", "name:fr": "Chotta Halaiwa", "place": "village"}}, {"type": "node", "id": 2488469616, "lat": 34.8925598, "lon": 44.4016768, "tags": {"name": "\u062f\u06d5\u0628\u062c", "name:ar": "\u062f\u0628\u062c", "name:de": "Dibbaj", "name:en": "Dibbaj", "place": "village"}}, {"type": "node", "id": 2488469623, "lat": 34.9931938, "lon": 44.4730214, "tags": {"name": "\u06af\u0648\u06b5\u06cc \u062a\u06d5\u067e\u06d5", "name:ar": "\u06a9\u0648\u0644\u064a \u062a\u0628\u0629", "name:en": "Guli Tapa", "place": "village"}}, {"type": "node", "id": 2488469630, "lat": 34.901375, "lon": 44.486794, "tags": {"name": "\u062d\u0644\u064a\u0648\u0629 \u0627\u0644\u0643\u0628\u064a\u0631\u0629", "name:en": "Hlewa", "place": "village"}}, {"type": "node", "id": 2488469675, "lat": 34.9253362, "lon": 44.4344284, "tags": {"name": "\u0632\u06d5\u0646\u06af\u06d5\u0648\u0627\u062a", "name:ar": "\u0632\u0646\u06a9\u0629\u0648\u0627\u062a", "name:en": "Zangawat", "place": "village"}}, {"type": "node", "id": 2488469692, "lat": 34.858425, "lon": 44.473697, "tags": {"alt_name": "\u0642\u0631\u064a\u0629 \u062e\u0634\u0627\u0645\u0644\u0629", "int_name": "Qaryat Khash\u0101milah, \u0642\u0631\u064a\u0629 \u062e\u0634\u0627\u0645\u0644\u0629, Qaryat Khashamilah, \u0642\u0631\u064a\u0629 \u062e\u0634\u0627\u0645\u0644\u0629", "name": "\u0642\u0631\u064a\u0629 \u062e\u0634\u0627\u0645\u0644\u0629", "name:ar": "\u0642\u0631\u064a\u0629 \u062e\u0634\u0627\u0645\u0644\u0629", "name:ar1": "\u0642\u0631\u064a\u0629 \u062e\u0634\u0627\u0645\u0644\u0629", "name:de": "Qaryat Khashamilah", "name:en": "Qaryat Khashamilah", "name:fr": "Qaryat Khashamilah", "place": "village"}}, {"type": "node", "id": 2488469728, "lat": 34.9699023, "lon": 44.3984818, "tags": {"name": "\u062a\u0644 \u0627\u0644\u0628\u0635\u0644", "name:ar1": "\u0642\u0631\u064a\u0629 \u062a\u0644 \u0627\u0644\u0628\u0635\u0644", "name:ckb": "\u062a\u06d5\u0644 \u0628\u06d5\u0633\u06b5", "name:de": "Tall al Busl", "name:en": "Tall al Busl", "name:fr": "Tall al Busl", "place": "village"}}, {"type": "node", "id": 2488469742, "lat": 34.9019988, "lon": 44.391811, "tags": {"alt_name": "\u0642\u0631\u064a\u0629 \u062a\u0627\u0645\u0648\u0631", "int_name": "Qaryat T\u0101m\u016br, \u0642\u0631\u064a\u0629 \u062a\u0627\u0645\u0648\u0631, Qaryat Tamur, \u0642\u0631\u064a\u0629 \u062a\u0627\u0645\u0648\u0631", "name": "\u062a\u0627\u0645\u0648\u0631", "name:ar1": "\u0642\u0631\u064a\u0629 \u062a\u0627\u0645\u0648\u0631", "name:ckb": "\u062a\u0627\u0645\u0648\u0631", "name:de": "Tamur", "name:en": "Tamur", "name:fr": "Tamur", "place": "village"}}, {"type": "node", "id": 2488469807, "lat": 34.9361936, "lon": 44.3777884, "tags": {"alt_name": "\u0642\u0631\u064a\u0629 \u0627\u0644\u0633\u0645\u0627\u0642\u0629 \u0639\u0644\u064a\u0627", "int_name": "Qaryat as Sim\u0101qah Ulay\u0101, \u0642\u0631\u064a\u0629 \u0627\u0644\u0633\u0645\u0627\u0642\u0629 \u0639\u0644\u064a\u0627, Qaryat as Simaqah Ulaya, \u0642\u0631\u064a\u0629 \u0627\u0644\u0633\u0645\u0627\u0642\u0629 \u0639\u0644\u064a\u0627", "name": "\u0633\u0645\u0627\u0642\u0629 \u0627\u0644\u0639\u0644\u064a\u0627", "name:ar1": "\u0642\u0631\u064a\u0629 \u0627\u0644\u0633\u0645\u0627\u0642\u0629 \u0639\u0644\u064a\u0627", "name:ckb": "\u0633\u0645\u0627\u0642\u06d5\u06cc \u0633\u06d5\u0631\u0648\u0648", "name:de": "Simaqah Ulaya", "name:en": "Simaqah Ulaya", "name:fr": "Simaqah Ulaya", "place": "village"}}, {"type": "node", "id": 2488469828, "lat": 34.972753, "lon": 44.4849912, "tags": {"name": "\u062a\u06d5\u067e\u06d5 \u0633\u06d5\u0648\u0632", "name:ar": "\u062a\u0628\u0629 \u0633\u0648\u0633", "name:en": "Tappa Sawz", "place": "village"}}, {"type": "node", "id": 2488469835, "lat": 34.9304311, "lon": 44.4203773, "tags": {"int_name": "Zagilb\u0101na, Zagilb\u0101nah, Zagilbana, Zagilbanah", "name": "\u0634\u06d5\u0644\u0627\u062e\u06d5", "name:ar": "\u0632\u0646\u06af\u06d5\u0648\u0627\u062a", "name:en": "Shalakha", "place": "village"}}, {"type": "node", "id": 2488470042, "lat": 34.7991757, "lon": 44.0364573, "tags": {"alt_name": "\u0642\u0631\u064a\u0629 \u0627\u0644\u0645\u0628\u062f\u062f", "int_name": "Alam Baddah, Qaryat al Mabadad, \u0642\u0631\u064a\u0629 \u0627\u0644\u0645\u0628\u062f\u062f, Alam Baddah, Qaryat al Mabadad, \u0642\u0631\u064a\u0629 \u0627\u0644\u0645\u0628\u062f\u062f", "name": "\u0642\u0631\u064a\u0629 \u0627\u0644\u0645\u0628\u062f\u062f", "name:ar": "\u0642\u0631\u064a\u0629 \u0627\u0644\u0645\u0628\u062f\u062f", "name:ar1": "\u0642\u0631\u064a\u0629 \u0627\u0644\u0645\u0628\u062f\u062f", "name:de": "Alam Baddah", "name:en": "Alam Baddah", "name:fr": "Alam Baddah", "place": "village"}}, {"type": "node", "id": 2488470056, "lat": 34.7990467, "lon": 44.0356121, "tags": {"alt_name": "\u0645\u062d\u0645\u062f \u0639\u0628\u062f \u0627\u0644\u0639\u0632\u064a\u0632", "int_name": "Mu\u1e29ammad Abd al Az\u012bz, \u0645\u062d\u0645\u062f \u0639\u0628\u062f \u0627\u0644\u0639\u0632\u064a\u0632, Muhammad Abd al Aziz, \u0645\u062d\u0645\u062f \u0639\u0628\u062f \u0627\u0644\u0639\u0632\u064a\u0632", "name": "\u0645\u062d\u0645\u062f \u0639\u0628\u062f \u0627\u0644\u0639\u0632\u064a\u0632", "name:ar": "\u0645\u062d\u0645\u062f \u0639\u0628\u062f \u0627\u0644\u0639\u0632\u064a\u0632", "name:ar1": "\u0645\u062d\u0645\u062f \u0639\u0628\u062f \u0627\u0644\u0639\u0632\u064a\u0632", "name:de": "Muhammad Abd al Aziz", "name:en": "Muhammad Abd al Aziz", "name:fr": "Muhammad Abd al Aziz", "place": "village"}}, {"type": "node", "id": 2489280028, "lat": 34.9690306, "lon": 44.1666821, "tags": {"alt_name": "\u0639\u0628\u0648\u062f", "int_name": "Abb\u016bd, Abbud", "name": "\u0639\u0628\u0648\u062f", "name:ar": "\u0639\u0628\u0648\u062f", "name:ar1": "\u0639\u0628\u0648\u062f", "name:ckb": "\u0639\u06d5\u0628\u0648\u062f", "name:de": "Abbud", "name:en": "Abbud", "name:fr": "Abbud", "place": "village"}}, {"type": "node", "id": 2489280115, "lat": 35.0391021, "lon": 44.0752823, "tags": {"alt_name": "\u062f\u0648\u0643\u0645\u0627\u062a", "int_name": "D\u016bgm\u0101t, D\u016bkm\u0101t, \u062f\u0648\u0643\u0645\u0627\u062a, \u062f\u0648\u06af\u0645\u0627\u062a, Dugmat, Dukmat, \u062f\u0648\u0643\u0645\u0627\u062a, \u062f\u0648\u06af\u0645\u0627\u062a", "name": "\u062f\u06a9\u0645\u0627\u062a \u0627\u0644\u0633\u0641\u0644\u06cc", "name:ar": "\u062f\u06a9\u0645\u0627\u062a \u0627\u0644\u0633\u0641\u0644\u06cc", "name:ar1": "\u062f\u0648\u0643\u0645\u0627\u062a", "name:ckb": "\u062f\u0648\u06af\u0645\u0627\u062a\u06cc \u062e\u0648\u0627\u0631\u0648\u0648", "name:de": "Lower Dugmat", "name:en": "Lower Dugmat", "name:fr": "Lower Dugmat", "place": "village"}}, {"type": "node", "id": 2489280119, "lat": 35.070952, "lon": 44.057898, "tags": {"alt_name": "\u062f\u0648\u0643\u0645\u0627\u062a", "int_name": "D\u016bgm\u0101t, D\u016bkm\u0101t, \u062f\u0648\u0643\u0645\u0627\u062a, \u062f\u0648\u06af\u0645\u0627\u062a, Dugmat, Dukmat, \u062f\u0648\u0643\u0645\u0627\u062a, \u062f\u0648\u06af\u0645\u0627\u062a", "name": "\u062f\u0648\u0643\u0645\u0627\u062a \u0627\u0644\u0639\u0644\u06cc\u0627", "name:ar": "\u062f\u0648\u0643\u0645\u0627\u062a \u0627\u0644\u0639\u0644\u06cc\u0627", "name:ar1": "\u062f\u0648\u0643\u0645\u0627\u062a", "name:ckb": "\u062f\u0648\u06af\u0645\u0627\u062a\u06cc \u0633\u06d5\u0631\u0648\u0648", "name:de": "Upper Dugmat", "name:en": "Upper Dugmat", "name:fr": "Upper Dugmat", "place": "village"}}, {"type": "node", "id": 2489280121, "lat": 35.0914306, "lon": 44.0584296, "tags": {"name": "\u062f\u0648\u0643\u0645\u0627\u062a \u0627\u0644\u0643\u0628\u064a\u0631\u0629", "name:ar": "\u062f\u0648\u0643\u0645\u0627\u062a \u0627\u0644\u0643\u0628\u064a\u0631\u0629", "name:ckb": "\u062f\u0648\u06af\u0645\u0627\u062a\u06cc \u06af\u06d5\u0648\u0631\u06d5", "name:en": "Great Dugmat", "place": "village"}}, {"type": "node", "id": 2489280122, "lat": 35.1019917, "lon": 44.0706108, "tags": {"name": "\u062f\u0648\u0643\u0645\u0627\u062a \u0627\u0644\u0635\u063a\u064a\u0631\u0629", "name:ar": "\u062f\u0648\u0643\u0645\u0627\u062a \u0627\u0644\u0635\u063a\u064a\u0631\u0629", "name:ckb": "\u062f\u0648\u06af\u0645\u0627\u062a\u06cc \u0628\u0686\u0648\u0648\u06a9", "name:en": "Little Dugmat", "place": "village"}}, {"type": "node", "id": 2489280124, "lat": 35.203544, "lon": 44.0622339, "tags": {"alt_name": "\u0634\u0641\u0644\u062d", "int_name": "Gh\u0101z\u0101n Gar\u1e29ah, Gh\u0101z\u0101n Kar\u1e29ah, \u063a\u0627\u0632\u0627\u0646 \u0643\u0631\u062d\u0629, \u063a\u0627\u0632\u0627\u0646 \u06af\u0631\u062d\u0629, Ghazan Garhah, Ghazan Karhah, \u063a\u0627\u0632\u0627\u0646 \u0643\u0631\u062d\u0629, \u063a\u0627\u0632\u0627\u0646 \u06af\u0631\u062d\u0629", "name": "\u0634\u0627\u0644\u062e", "name:ar": "\u0634\u0627\u0644\u062e", "name:ar1": "\u0643\u0631\u062d\u0629 \u063a\u0632\u0627\u0646 \u0627\u0644\u0633\u0627\u062f\u0629", "name:ckb": "\u0634\u0627\u0644\u062e", "name:de": "Shalikh", "name:en": "Shalikh", "name:fr": "Shalikh", "place": "village"}}, {"type": "node", "id": 2489280161, "lat": 35.0079625, "lon": 44.064304, "tags": {"alt_name": "\u062e\u0627\u062f\u064a\u0629", "int_name": "Kh\u0101d\u012byah, \u062e\u0627\u062f\u064a\u0629, Khadiyah, \u062e\u0627\u062f\u064a\u0629", "name": "\u062e\u0627\u062f\u064a\u0629", "name:ar": "\u062e\u0627\u062f\u064a\u0629", "name:ar1": "\u062e\u0627\u062f\u064a\u0629", "name:ckb": "\u062e\u0627\u062f\u06cc\u06d5", "name:de": "Khadiyah", "name:en": "Khadiyah", "name:fr": "Khadiyah", "place": "village"}}, {"type": "node", "id": 2489280166, "lat": 35.1540051, "lon": 44.0545307, "tags": {"int_name": "Khw\u0101\u012bshijah, Khwaishijah", "name": "\u062e\u0648\u0634\u064a\u062c\u0647", "name:ar": "\u062e\u0648\u0634\u064a\u062c\u0647", "name:ckb": "\u062e\u0648\u0634\u06cc\u062c\u06d5", "name:de": "Khwaishijah", "name:en": "Khwaishijah", "name:fr": "Khwaishijah", "place": "village"}}, {"type": "node", "id": 2489280180, "lat": 35.0647097, "lon": 44.0267272, "tags": {"alt_name": "\u0645\u0644\u0627 \u0635\u0627\u0644\u062d", "int_name": "Mull\u0101 \u015e\u0101li\u1e29, \u0645\u0644\u0627 \u0635\u0627\u0644\u062d, Mulla Salih, \u0645\u0644\u0627 \u0635\u0627\u0644\u062d", "name": "\u0645\u0644\u0627 \u0635\u0627\u0644\u062d", "name:ar": "\u0645\u0644\u0627 \u0635\u0627\u0644\u062d", "name:ar1": "\u0645\u0644\u0627 \u0635\u0627\u0644\u062d", "name:ckb": "\u0645\u06d5\u0644\u0627 \u0633\u0627\u06b5\u06d5\u062d", "name:de": "Mulla Salih", "name:en": "Mulla Salih", "name:fr": "Mulla Salih", "place": "village"}}, {"type": "node", "id": 2489280182, "lat": 34.9391116, "lon": 44.0680652, "tags": {"alt_name": "\u0642\u0631\u064a\u0629 \u0644\u0633\u0627\u0646", "int_name": "Qaryat Lis\u0101n, \u0642\u0631\u064a\u0629 \u0644\u0633\u0627\u0646, Qaryat Lisan, \u0642\u0631\u064a\u0629 \u0644\u0633\u0627\u0646", "name": "\u0644\u0633\u0627\u0646", "name:ar": "\u0644\u0633\u0627\u0646", "name:ar1": "\u0642\u0631\u064a\u0629 \u0644\u0633\u0627\u0646", "name:ckb": "\u0644\u06cc\u0633\u0627\u0646", "name:de": "Lisan", "name:en": "Lisan", "name:fr": "Lisan", "place": "village"}}, {"type": "node", "id": 2489280183, "lat": 34.974915, "lon": 44.0811065, "tags": {"alt_name": "\u0642\u0631\u064a\u0629 \u0645\u0644\u0627 \u0646\u0627\u0635\u0631", "int_name": "Qaryat Mull\u0101 N\u0101\u015fr, \u0642\u0631\u064a\u0629 \u0645\u0644\u0627 \u0646\u0627\u0635\u0631, Qaryat Mulla Nasr, \u0642\u0631\u064a\u0629 \u0645\u0644\u0627 \u0646\u0627\u0635\u0631", "name": "\u0645\u0644\u0627 \u0646\u0627\u0635\u0631", "name:ar": "\u0645\u0644\u0627 \u0646\u0627\u0635\u0631", "name:ar1": "\u0642\u0631\u064a\u0629 \u0645\u0644\u0627 \u0646\u0627\u0635\u0631", "name:ckb": "\u0645\u06d5\u0644\u0627 \u0646\u0627\u0633\u0695", "name:de": "Mulla Nasr", "name:en": "Mulla Nasr", "name:fr": "Mulla Nasr", "place": "village"}}, {"type": "node", "id": 2489280184, "lat": 34.9791854, "lon": 44.0923706, "tags": {"alt_name": "\u0642\u0631\u064a\u0629 \u0637\u0627\u0631 \u0627\u0644\u062d\u0645\u0631", "int_name": "Qaryat \u0162\u0101r al \u1e28amr, \u0642\u0631\u064a\u0629 \u0637\u0627\u0631 \u0627\u0644\u062d\u0645\u0631, Qaryat Tar al Hamr, \u0642\u0631\u064a\u0629 \u0637\u0627\u0631 \u0627\u0644\u062d\u0645\u0631", "name": "\u0637\u0627\u0631 \u0627\u0644\u062d\u0645\u0631", "name:ar": "\u0637\u0627\u0631 \u0627\u0644\u062d\u0645\u0631", "name:ar1": "\u0642\u0631\u064a\u0629 \u0637\u0627\u0631 \u0627\u0644\u062d\u0645\u0631", "name:de": "Tar al Hamr", "name:en": "Tar al Hamr", "name:fr": "Tar al Hamr", "place": "village"}}, {"type": "node", "id": 2489280186, "lat": 35.1735535, "lon": 44.1324336, "tags": {"name": "\u0631\u0628\u064a\u0636\u0629 \u0627\u0644\u0635\u063a\u064a\u0631\u0629", "name:ar": "\u0631\u0628\u064a\u0636\u0629 \u0627\u0644\u0635\u063a\u064a\u0631\u0629", "name:ckb": "\u0695\u0648\u0628\u06d5\u06cc\u0632\u06d5\u06cc \u0628\u0686\u0648\u0648\u06a9", "name:en": "Rubayda Small", "place": "village"}}, {"type": "node", "id": 2489280187, "lat": 35.1880297, "lon": 44.1422067, "tags": {"name": "\u0631\u0628\u064a\u0636\u0629 \u0627\u0644\u0643\u0628\u064a\u0631\u0629", "name:ar": "\u0631\u0628\u064a\u0636\u0629 \u0627\u0644\u0643\u0628\u064a\u0631\u0629", "name:ckb": "\u0695\u0648\u0628\u06d5\u06cc\u0632\u06d5\u06cc \u06af\u06d5\u0648\u0631\u06d5", "name:en": "Rubayda Big", "place": "village"}}, {"type": "node", "id": 2489280193, "lat": 35.001824, "lon": 44.2194135, "tags": {"name": "\u0634\u0641\u0644\u062d", "name:ckb": "\u0634\u06d5\u0641\u0644\u06d5\u062d", "name:en": "Shaflah", "place": "village"}}, {"type": "node", "id": 2489280194, "lat": 35.0625067, "lon": 44.1863318, "tags": {"int_name": "St\u0101ih, \u0633\u0637\u064a\u062d \u0627\u0644\u0627\u0633\u0641\u0644", "name": "\u0633\u0637\u06cc\u0629 \u0627\u0644\u0633\u0641\u0644\u06cc", "name:ckb": "\u0633\u0648\u0637\u06cc\u06d5", "name:en": "Lower Sutiah", "place": "village"}}, {"type": "node", "id": 2489307966, "lat": 34.8051309, "lon": 44.483544, "tags": {"alt_name": "\u0628\u0626\u0631 \u0623\u062d\u0645\u062f", "int_name": "Bir A\u1e29mad, Bir Ahmad", "name": "\u0628\u0626\u0631 \u0623\u062d\u0645\u062f", "name:ar": "\u0628\u0626\u0631 \u0623\u062d\u0645\u062f", "name:ar1": "\u0628\u0626\u0631 \u0623\u062d\u0645\u062f", "name:de": "Bir Ahmad", "name:en": "Bir Ahmad", "name:fr": "Bir Ahmad", "place": "village"}}, {"type": "node", "id": 2489307972, "lat": 34.80909, "lon": 44.502858, "tags": {"name": "\u067e\u06cc\u0631 \u0626\u06d5\u062d\u0645\u06d5\u062f", "name:ar": "\u0628\u0626\u0631 \u0623\u062d\u0645\u062f", "name:ar1": "\u0628\u0626\u0631 \u0623\u062d\u0645\u062f", "name:de": "Bir Ahmad", "name:en": "Bir Ahmad", "name:fr": "Bir Ahmad", "place": "village"}}, {"type": "node", "id": 2489307978, "lat": 34.803458, "lon": 44.528593, "tags": {"alt_name": "\u0628\u0627\u0633\u0637\u0627\u0645\u0644\u064a", "int_name": "Bost\u0101mli, Bust\u0101ml\u012b, \u0628\u0633\u062a\u0627\u0645\u0644\u064a, Bostamli, Bustamli, \u0628\u0627\u0633\u0637\u0627\u0645\u0644\u064a", "name": "\u0628\u0627\u0633\u0637\u0627\u0645\u0644\u064a", "name:ar": "\u0628\u0627\u0633\u0637\u0627\u0645\u0644\u064a", "name:ar1": "\u0628\u0627\u0633\u0637\u0627\u0645\u0644\u064a", "name:de": "Bastamli", "name:en": "Bastamli", "name:fr": "Bastamli", "name:tr": "Bastamli", "place": "village"}}, {"type": "node", "id": 2489308040, "lat": 35.1499816, "lon": 44.4874789, "tags": {"alt_name": "\u062c\u064a\u0648\u0631\u0643\u0629", "int_name": "Chay\u016brkah, \u0686\u064a\u0648\u0631\u0643\u0629, Chayurkah, \u0686\u064a\u0648\u0631\u0643\u0629", "name": "\u0686\u06d5\u0648\u0631\u06a9\u06d5\u06cc \u06a9\u06c6\u0646", "name:ar": "\u062c\u0648\u0631\u06a9\u0629 \u0627\u0644\u0642\u062f\u06cc\u0645", "name:en": "Old Chawrka", "place": "village"}}, {"type": "node", "id": 2489308234, "lat": 34.804006, "lon": 44.4863092, "tags": {"name": "\u067e\u06cc\u0631 \u0626\u06d5\u062d\u0645\u06d5\u062f \u062d\u06d5\u0633\u06d5\u0646", "name:ar": "\u0628\u064a\u0631 \u0627\u062d\u0645\u062f", "name:ar1": "\u0642\u0631\u064a\u0629 \u0628\u0626\u0631 \u0623\u062d\u0645\u062f \u062d\u0633\u0646", "name:de": "Bir Ahmad", "name:en": "Bir Ahmad", "name:fr": "Bir Ahmad", "name:tr": "Bir ahmed", "place": "village"}}, {"type": "node", "id": 2489321096, "lat": 34.777809, "lon": 44.451474, "tags": {"alt_name": "\u0642\u0631\u064a\u0629 \u0639\u0628\u0648\u062f", "int_name": "Abb\u016bd, Qaryat Abb\u016bd, \u0642\u0631\u064a\u0629 \u0639\u0628\u0648\u062f, Abbud, Qaryat Abbud, \u0642\u0631\u064a\u0629 \u0639\u0628\u0648\u062f", "name": "\u0639\u0628\u0648\u062f", "name:de": "Abbud", "name:en": "Abbud", "name:fr": "Abbud", "place": "village"}}, {"type": "node", "id": 2489321098, "lat": 34.8526738, "lon": 44.3378555, "tags": {"alt_name": "\u0623\u0628\u0648 \u0641\u0634\u062c\u0629", "int_name": "Ab\u016b Fashjah, \u0627\u0628\u0648 \u0641\u0634\u062c\u0647, Abu Fashjah, \u0627\u0628\u0648 \u0641\u0634\u062c\u0647", "name": "\u0623\u0628\u0648 \u0641\u0634\u062c\u0629", "name:ar1": "\u0623\u0628\u0648 \u0641\u0634\u062c\u0629", "name:ckb": "\u0626\u06d5\u0628\u0648 \u0641\u0634\u062c\u06d5", "name:de": "Abu Fashjah", "name:en": "Abu Fashjah", "name:fr": "Abu Fashjah", "place": "village"}}, {"type": "node", "id": 2489321333, "lat": 34.8195838, "lon": 44.3647872, "tags": {"alt_name": "\u0642\u0631\u064a\u0629 \u0622\u0644 \u0628\u0648 \u0632\u0631\u0643\u0629", "int_name": "Qaryat \u0100lb\u016b Zarkah, \u0642\u0631\u064a\u0629 \u0627\u0644\u0628\u0648 \u0632\u0631\u06a9\u0629, Qaryat Albu Zarkah, \u0642\u0631\u064a\u0629 \u0627\u0644\u0628\u0648 \u0632\u0631\u06a9\u0629", "name": "\u0632\u0631\u06a9\u06d5", "name:ar1": "\u0642\u0631\u064a\u0629 \u0622\u0644 \u0628\u0648 \u0632\u0631\u0643\u0629", "name:ckb": "\u0632\u06d5\u0631\u06af\u06d5", "name:de": "Zarga", "name:en": "Zarga", "name:fr": "Zarga", "name:ku": "\u0632\u06d5\u0631\u06af\u0647", "place": "village"}}, {"type": "node", "id": 2489321340, "lat": 34.7897975, "lon": 44.453298, "tags": {"name": "\u0642\u0631\u064a\u0629 \u0628\u0626\u0631 \u0623\u062d\u0645\u062f \u0645\u062d\u0645\u0648\u062f", "place": "village"}}, {"type": "node", "id": 2489321342, "lat": 34.819764, "lon": 44.401544, "tags": {"alt_name": "\u0642\u0631\u064a\u0629 \u062c\u062f\u0648\u0639", "int_name": "Qaryat Jadwa, \u0642\u0631\u064a\u0629 \u062c\u062f\u0648\u0639, Qaryat Jadwa, \u0642\u0631\u064a\u0629 \u062c\u062f\u0648\u0639", "name": "\u0642\u0631\u064a\u0629 \u062c\u062f\u0648\u0639", "name:ar": "\u0642\u0631\u064a\u0629 \u062c\u062f\u0648\u0639", "name:ar1": "\u0642\u0631\u064a\u0629 \u062c\u062f\u0648\u0639", "name:de": "Qaryat Jadwa", "name:en": "Qaryat Jadwa", "name:fr": "Qaryat Jadwa", "place": "village"}}, {"type": "node", "id": 2489321343, "lat": 34.8553574, "lon": 44.1982499, "tags": {"alt_name": "\u0642\u0631\u064a\u0629 \u062c\u0641\u0627\u0631 \u0639\u0648\u0646", "int_name": "Qaryat Jaff\u0101r Awn, \u0642\u0631\u064a\u0629 \u062c\u0641\u0627\u0631 \u0639\u0648\u0646, Qaryat Jaffar Awn, \u0642\u0631\u064a\u0629 \u062c\u0641\u0627\u0631 \u0639\u0648\u0646", "name": "\u0627\u0628\u0648 \u0631\u06a9\u0628\u0629", "name:ar1": "\u0642\u0631\u064a\u0629 \u062c\u0641\u0627\u0631 \u0639\u0648\u0646", "name:ckb": "\u0626\u06d5\u0628\u0648 \u0695\u06d5\u06a9\u0628\u06d5", "name:de": "Abu Rakbah", "name:en": "Abu Rakbah", "name:fr": "Abu Rakbah", "place": "village"}}, {"type": "node", "id": 2489321354, "lat": 34.8048786, "lon": 44.284539, "tags": {"alt_name": "\u0642\u0631\u064a\u0629 \u0645\u064a\u062f\u0627\u0646", "int_name": "Qaryat Mayd\u0101n, \u0642\u0631\u064a\u0629 \u0645\u064a\u062f\u0627\u0646, Qaryat Maydan, \u0642\u0631\u064a\u0629 \u0645\u064a\u062f\u0627\u0646", "name": "\u0645\u064a\u062f\u0627\u0646", "name:ar1": "\u0642\u0631\u064a\u0629 \u0645\u064a\u062f\u0627\u0646", "name:ckb": "\u0645\u06d5\u06cc\u062f\u0627\u0646", "name:de": "Maydan", "name:en": "Maydan", "name:fr": "Maydan", "place": "village"}}, {"type": "node", "id": 2489321360, "lat": 34.8615327, "lon": 44.2083316, "tags": {"alt_name": "\u0642\u0631\u064a\u0629 \u0637\u0627\u0644\u0639\u0629 \u0627\u0644\u062f\u0647\u0646", "int_name": "Qaryat \u0162\u0101lah ad Dahan, \u0642\u0631\u064a\u0629 \u0637\u0627\u0644\u0639\u0629 \u0627\u0644\u062f\u0647\u0646, Qaryat Talah ad Dahan, \u0642\u0631\u064a\u0629 \u0637\u0627\u0644\u0639\u0629 \u0627\u0644\u062f\u0647\u0646", "name": "\u0637\u0627\u0644\u0639\u0629 \u0627\u0644\u062f\u0647\u0646", "name:ar1": "\u0642\u0631\u064a\u0629 \u0637\u0627\u0644\u0639\u0629 \u0627\u0644\u062f\u0647\u0646", "name:ckb": "\u062a\u0627\u0644\u06cc\u0639\u06d5 \u062f\u06d5\u0647\u0646", "name:de": "Talah ad Dahan", "name:en": "Talah ad Dahan", "name:fr": "Talah ad Dahan", "place": "village"}}, {"type": "node", "id": 2489321362, "lat": 34.8574967, "lon": 44.3204894, "tags": {"alt_name": "\u0642\u0631\u064a\u0629 \u062a\u0644 \u0627\u0644\u0639\u064a\u062f\u0629", "int_name": "Qaryat Tall al A\u012bdah, Talail Ahda, Tall al Ahda, Tall al A\u012bdah, Tel al Ahda, Tulayl Adhah, \u0642\u0631\u064a\u0629 \u062a\u0644 \u0627\u0644\u0639\u064a\u062f\u0629, Qaryat Tall al Aidah, Talail Ahda, Tall al Ahda, Tall al Aidah, Tel al Ahda, Tulayl Adhah, \u0642\u0631\u064a\u0629 \u062a\u0644 \u0627\u0644\u0639\u064a\u062f\u0629", "name": "\u062a\u0644 \u0627\u0644\u0639\u064a\u062f\u0629", "name:ar1": "\u0642\u0631\u064a\u0629 \u062a\u0644 \u0627\u0644\u0639\u064a\u062f\u0629", "name:ckb": "\u062a\u06d5\u0644 \u0639\u06cc\u062f\u06d5", "name:de": "Tall al Aidah", "name:en": "Tall al Aidah", "name:fr": "Tall al Aidah", "place": "village"}}, {"type": "node", "id": 2489321366, "lat": 34.8112933, "lon": 44.2541845, "tags": {"name": "\u062d\u0645\u064a\u0636\u0629", "name:ckb": "\u062d\u06d5\u0645\u06cc\u0632\u06d5", "name:en": "Hamiza", "place": "village"}}, {"type": "node", "id": 2489321424, "lat": 34.8659479, "lon": 44.1545467, "tags": {"alt_name": "\u0642\u0631\u064a\u0629 \u0623\u0628\u0648 \u0623\u0631\u0643\u0628\u0629", "int_name": "\u0642\u0631\u064a\u0629 \u0627\u0628\u0648 .\u0623\u0631\u06a9\u0628\u0629, \u0642\u0631\u064a\u0629 \u0627\u0628\u0648 .\u0623\u0631\u06a9\u0628\u0629", "name": "\u0623\u0628\u0648 \u0623\u0631\u0643\u0628\u0629", "name:ar": "\u0623\u0628\u0648 \u0623\u0631\u0643\u0628\u0629", "name:ar1": "\u0642\u0631\u064a\u0629 \u0623\u0628\u0648 \u0623\u0631\u0643\u0628\u0629", "name:ckb": "\u0626\u06d5\u0628\u0648 \u0626\u06d5\u0631\u06a9\u06d5\u0628\u06d5", "name:de": "Abu Arkaba", "name:en": "Abu Arkaba", "name:fr": "Abu Arkaba", "place": "village"}}, {"type": "node", "id": 2489321528, "lat": 34.928333, "lon": 44.230278, "tags": {"alt_name": "\u0639\u0628\u062f \u0627\u0644\u0639\u0632\u064a\u0632", "int_name": "Abd al Az\u012bz, Abdul Az\u012bz, Abd al Aziz, Abdul Aziz", "name": "\u0639\u0628\u062f \u0627\u0644\u0639\u0632\u064a\u0632", "name:ar": "\u0639\u0628\u062f \u0627\u0644\u0639\u0632\u064a\u0632", "name:ar1": "\u0639\u0628\u062f \u0627\u0644\u0639\u0632\u064a\u0632", "name:ckb": "\u0639\u06d5\u0628\u062f\u0648\u0644\u0639\u06d5\u0632\u06cc\u0632", "name:de": "Abd al Aziz", "name:en": "Abd al Aziz", "name:fr": "Abd al Aziz", "place": "village"}}, {"type": "node", "id": 2489321536, "lat": 34.8941013, "lon": 44.3129543, "tags": {"alt_name": "\u0642\u0631\u064a\u0629 \u0622\u0644 \u0628\u0648 \u0635\u0628\u0627\u062d", "int_name": "Albu Saba, \u0100lb\u016b \u015eab\u0101\u1e29, Qaryat \u0100lb\u016b \u015eib\u0101\u1e29, \u0642\u0631\u064a\u0629 \u0627\u0644\u0628\u0648 \u0635\u0628\u0627\u062d, Albu Saba, Albu Sabah, Qaryat Albu Sibah, \u0642\u0631\u064a\u0629 \u0627\u0644\u0628\u0648 \u0635\u0628\u0627\u062d", "name": "\u0627\u0644\u0628\u0648 \u0635\u0628\u0627\u062d", "name:ar1": "\u0642\u0631\u064a\u0629 \u0622\u0644 \u0628\u0648 \u0635\u0628\u0627\u062d", "name:ckb": "\u0626\u06d5\u0628\u0648 \u0633\u06d5\u0628\u0627\u062d", "name:de": "Albu Saba", "name:en": "Albu Saba", "name:fr": "Albu Saba", "place": "village"}}, {"type": "node", "id": 2489321537, "lat": 35.0094035, "lon": 44.421414, "tags": {"name": "\u0626\u0627\u0648\u0627\u06cc\u06cc \u0641\u06d5\u0631\u06cc\u0642", "name:ar": "\u0627\u0644\u0628\u0648 \u0641\u0631\u064a\u0642", "name:en": "Awayi Fariq", "place": "village"}}, {"type": "node", "id": 2489321538, "lat": 35.0435027, "lon": 44.457861, "tags": {"name": "\u062d\u06d5\u0641\u062a\u06d5\u063a\u0627\u0631\u06cc \u0639\u06d5\u0644\u06cc \u0626\u0627\u063a\u0627", "name:ar": "\u062d\u0641\u062a\u0629\u063a\u0627\u0631 \u0639\u0644\u064a \u0622\u063a\u0627", "name:en": "Haftaghar  Ali  Agha", "place": "village"}}, {"type": "node", "id": 2489321544, "lat": 35.1792664, "lon": 44.2237871, "tags": {"alt_name": "\u0627\u0644\u0633\u0627\u062f\u0629", "int_name": "As S\u0101dah, \u0627\u0644\u0633\u0627\u062f\u0629, As Sadah, \u0627\u0644\u0633\u0627\u062f\u0629", "name": "\u0627\u0644\u0633\u0627\u062f\u0629", "name:ar": "\u0627\u0644\u0633\u0627\u062f\u0629", "name:ar1": "\u0627\u0644\u0633\u0627\u062f\u0629", "name:de": "As Sadah", "name:en": "As Sadah", "name:fr": "As Sadah", "place": "village"}}, {"type": "node", "id": 2489321565, "lat": 35.0515071, "lon": 44.308341, "tags": {"name": "\u0645\u0648\u0631\u0627\u0639\u06cc\u06d5", "name:ar": "\u0645\u0631\u0627\u0639\u06cc\u0629", "name:en": "Muraaia", "note:en": "kakki dellis, Kekeyi Dellis", "place": "village"}}, {"type": "node", "id": 2489321613, "lat": 35.068909, "lon": 44.2241535, "tags": {"int_name": "Fakhra, \u0641\u0627\u062e\u0631\u0629", "name": "\u0641\u0627\u062e\u0631\u0629", "name:ckb": "\u0641\u0627\u062e\u0631\u06d5", "name:en": "Fakhra", "place": "village"}}, {"type": "node", "id": 2489321620, "lat": 34.9708545, "lon": 44.2903264, "tags": {"alt_name": "\u0642\u0631\u064a\u0629 \u063a\u064a\u062f\u0629", "int_name": "Gaida, Gaydah, Ghaydah, Qaryat Ghaydah, \u0642\u0631\u064a\u0629 \u063a\u064a\u062f\u0629, Gaida, Gaydah, Ghaydah, Qaryat Ghaydah, \u0642\u0631\u064a\u0629 \u063a\u064a\u062f\u0629", "name": "\u063a\u064a\u062f\u0629", "name:ar1": "\u0642\u0631\u064a\u0629 \u063a\u064a\u062f\u0629", "name:ckb": "\u063a\u06d5\u06cc\u062f\u06d5", "name:de": "Ghaida", "name:en": "Ghaida", "name:fr": "Ghaida", "place": "village"}}, {"type": "node", "id": 2489321641, "lat": 35.1268089, "lon": 44.0163009, "tags": {"name": "\u0643\u0631\u062d\u0629 \u0631\u0641\u0639\u064a\u0629", "name:ar": "\u0643\u0631\u062d\u0629 \u0631\u0641\u0639\u064a\u0629", "name:en": "Garha Raf\u00e0iya", "place": "village"}}, {"type": "node", "id": 2489321661, "lat": 35.0583335, "lon": 44.4543465, "tags": {"name": "\u062d\u06d5\u0641\u062a\u06d5\u063a\u0627\u0631\u06cc \u062f\u0627\u0631\u0627 \u0628\u06d5\u06af", "name:ar": "\u062d\u0641\u062a\u0629\u063a\u0627\u0631 \u062f\u0627\u0631\u0627\u0628\u06a9", "name:en": "Haftaghar Darabag", "place": "village"}}, {"type": "node", "id": 2489321666, "lat": 34.8938039, "lon": 44.2583676, "tags": {"alt_name": "\u062d\u0645\u064a\u062f \u0639\u064a\u062f\u0629", "int_name": "\u1e28am\u012bd A\u012bdah, \u062d\u0645\u064a\u062f \u0639\u064a\u062f\u0629, Hamid Aidah, \u062d\u0645\u064a\u062f \u0639\u064a\u062f\u0629", "name": "\u062d\u0645\u064a\u062f \u0639\u064a\u062f\u0629", "name:ar": "\u062d\u0645\u064a\u062f \u0639\u064a\u062f\u0629", "name:ar1": "\u062d\u0645\u064a\u062f \u0639\u064a\u062f\u0629", "name:de": "Hamid Aidah", "name:en": "Hamid Aidah", "name:fr": "Hamid Aidah", "place": "village"}}, {"type": "node", "id": 2489321667, "lat": 34.9977728, "lon": 44.2608784, "tags": {"name": "\u062d\u06d5\u0645\u06cc\u062f \u0645\u0627\u0645 \u0632\u06c6\u0631\u0627\u0648", "name:ar": "\u062d\u0645\u064a\u062f \u0632\u0648\u0631\u0627\u0648", "name:en": "Hemid Zoraw", "place": "village"}}, {"type": "node", "id": 2489321668, "lat": 35.134214, "lon": 44.3398578, "tags": {"int_name": "Zabaa, \u0632\u06d5\u0628\u06d5\u0639", "name": "\u0632\u06d5\u0628\u06d5\u0639", "name:ar": "\u0636\u0628\u0639", "name:en": "Zabaa", "place": "village"}}, {"type": "node", "id": 2489321671, "lat": 35.0234724, "lon": 44.3000591, "tags": {"int_name": "\u1e28ash\u012bshah, \u1e28ash\u012bshah, \u062d\u0634\u064a\u0634\u0647", "name": "\u062d\u0634\u064a\u0634\u0647", "name:en": "Hashisha", "place": "village"}}, {"type": "node", "id": 2489321672, "lat": 35.0131495, "lon": 44.3520767, "tags": {"name": "\u0633\u0645\u0648\u0648\u062f", "name:ar": "\u0635\u0645\u0648\u062f", "name:en": "Somood", "place": "village"}}, {"type": "node", "id": 2489321673, "lat": 35.0774726, "lon": 44.3462937, "tags": {"name": "\u0633\u06d5\u06cc \u0648\u06d5\u06b5\u06d5", "name:ar": "\u0633\u064a\u062f \u0648\u0644\u062f", "name:en": "Say Walla", "old_name": "\u0639\u0644\u0648\u0629 \u0628\u0627\u0634\u0627", "place": "village"}}, {"type": "node", "id": 2489321686, "lat": 35.0884108, "lon": 44.3218696, "tags": {"name": "\u0632\u06d5\u0646\u0642\u0695", "name:ar": "\u0632\u0646\u0642\u0631", "name:ckb": "\u0632\u06d5\u0646\u0642\u0695", "name:en": "Zanqirr", "place": "village"}}, {"type": "node", "id": 2489321690, "lat": 35.0157983, "lon": 44.274246, "tags": {"alt_name": "\u0643\u0645\u0627\u0644\u064a\u0629", "int_name": "Kam\u0101l\u012byah, \u0643\u0645\u0627\u0644\u064a\u0629, Kamaliyah, \u0643\u0645\u0627\u0644\u064a\u0629", "name": "\u0643\u0645\u0627\u0644\u064a\u0629", "name:ar": "\u0643\u0645\u0627\u0644\u064a\u0629", "name:ar1": "\u0643\u0645\u0627\u0644\u064a\u0629", "name:de": "Kamaliyah", "name:en": "Kamaliyah", "name:fr": "Kamaliyah", "place": "village"}}, {"type": "node", "id": 2489321692, "lat": 35.0767909, "lon": 44.249903, "tags": {"name": "\u06a9\u0645\u0628\u0633", "name:ar": "\u06a9\u0645\u0628\u0633", "name:en": "Kmbs", "place": "village"}}, {"type": "node", "id": 2489321731, "lat": 35.159575, "lon": 44.443671, "tags": {"name": "\u06a9\u0644\u06cc\u0633\u06d5", "place": "village"}}, {"type": "node", "id": 2489321762, "lat": 35.1855992, "lon": 44.3134927, "tags": {"alt_name": "\u0645\u0648\u0633\u0649 \u0643\u0648\u064a\u064a", "int_name": "M\u016bs\u00e1 K\u016by\u012b, \u0645\u0648\u0633\u0649 \u0643\u0648\u064a\u064a, Musa Kuyi, \u0645\u0648\u0633\u0649 \u0643\u0648\u064a\u064a", "name": "\u0645\u0648\u0633\u0627 \u06a9\u06c6\u06cc", "name:ar": "\u0645\u0648\u0633\u06cc \u06a9\u0648\u064a", "name:ar1": "\u0645\u0648\u0633\u0649 \u0643\u0648\u064a\u064a", "name:de": "Musa Koyi", "name:en": "Musa Koyi", "name:fr": "Musa Koyi", "place": "village"}}, {"type": "node", "id": 2489321851, "lat": 34.9364388, "lon": 44.3049853, "tags": {"name": "\u0642\u0647\u0627\u0631\u0629", "name:ckb": "\u0642\u06d5\u0647\u0627\u0631\u06d5", "name:en": "Qahara", "place": "village"}}, {"type": "node", "id": 2489321854, "lat": 34.9230521, "lon": 44.0546914, "tags": {"alt_name": "\u0642\u0631\u064a\u0629 \u0631\u0641\u064a\u0639", "int_name": "Qaryat Raf\u012ba, \u0642\u0631\u064a\u0629 \u0631\u0641\u064a\u0639, Qaryat Rafia, \u0642\u0631\u064a\u0629 \u0631\u0641\u064a\u0639", "name": "\u0631\u0641\u064a\u0639", "name:ar": "\u0631\u0641\u064a\u0639", "name:ar1": "\u0642\u0631\u064a\u0629 \u0631\u0641\u064a\u0639", "name:ckb": "\u0695\u06d5\u0641\u06cc\u0639", "name:de": "Rafia", "name:en": "Rafia", "name:fr": "Rafia", "place": "village"}}, {"type": "node", "id": 2489321856, "lat": 34.9767877, "lon": 44.3428443, "tags": {"alt_name": "\u0642\u0631\u064a\u0629 \u0631\u0628\u064a\u0636\u064a\u0629", "int_name": "Qaryat Rubay\u1e11\u012byah, \u0642\u0631\u064a\u0629 \u0631\u0628\u064a\u0636\u064a\u0629, Qaryat Rubaydiyah, \u0642\u0631\u064a\u0629 \u0631\u0628\u064a\u0636\u064a\u0629", "name": "\u0631\u0628\u064a\u0636\u064a\u0629", "name:ar1": "\u0642\u0631\u064a\u0629 \u0631\u0628\u064a\u0636\u064a\u0629", "name:ckb": "\u0695\u0648\u0628\u06d5\u06cc\u0632\u06d5", "name:de": "Rubaydiyah", "name:en": "Rubaydiyah", "name:fr": "Rubaydiyah", "place": "village"}}, {"type": "node", "id": 2489321859, "lat": 34.9103602, "lon": 44.3348098, "tags": {"alt_name": "\u0642\u0631\u064a\u0629 \u0633\u0647\u064a\u0644", "int_name": "Qaryat Sah\u012bl, \u0642\u0631\u064a\u0629 \u0633\u0647\u064a\u0644, Qaryat Sahil, \u0642\u0631\u064a\u0629 \u0633\u0647\u064a\u0644", "name": "\u0633\u0647\u064a\u0644", "name:ar1": "\u0642\u0631\u064a\u0629 \u0633\u0647\u064a\u0644", "name:ckb": "\u0633\u06d5\u0647\u06cc\u0644", "name:de": "Sahil", "name:en": "Sahil", "name:fr": "Sahil", "place": "village"}}, {"type": "node", "id": 2489321876, "lat": 34.905347, "lon": 44.2386283, "tags": {"alt_name": "\u0642\u0631\u064a\u0629 \u0627\u0644\u0639\u0648\u0627\u0634\u0631\u0629", "int_name": "Qaryat al Aw\u0101sharah, \u0642\u0631\u064a\u0629 \u0627\u0644\u0639\u0648\u0627\u0634\u0631\u0629, Qaryat al Awasharah, \u0642\u0631\u064a\u0629 \u0627\u0644\u0639\u0648\u0627\u0634\u0631\u0629", "name": "\u0639\u0648\u0627\u0634\u0631\u0629", "name:ar1": "\u0642\u0631\u064a\u0629 \u0627\u0644\u0639\u0648\u0627\u0634\u0631\u0629", "name:ckb": "\u0639\u06d5\u0648\u0627\u0634\u0631\u06d5", "name:de": "Awasharah", "name:en": "Awasharah", "name:fr": "Awasharah", "place": "village"}}, {"type": "node", "id": 2489321911, "lat": 34.9740572, "lon": 44.2158581, "tags": {"alt_name": "\u0642\u0631\u064a\u0629 \u0627\u0644\u0633\u0639\u064a\u062f\u064a", "int_name": "Qaryat as Sa\u012bd\u012b, \u0642\u0631\u064a\u0629 \u0627\u0644\u0633\u0639\u064a\u062f\u064a, Qaryat as Saidi, \u0642\u0631\u064a\u0629 \u0627\u0644\u0633\u0639\u064a\u062f\u064a", "name": "\u0633\u0639\u06cc\u062f\u064a", "name:ar1": "\u0642\u0631\u064a\u0629 \u0627\u0644\u0633\u0639\u064a\u062f\u064a", "name:ckb": "\u0633\u06d5\u0639\u06cc\u062f\u06cc", "name:de": "Saidi", "name:en": "Saidi", "name:fr": "Saidi", "place": "village"}}, {"type": "node", "id": 2489321926, "lat": 34.9968357, "lon": 44.2471236, "tags": {"name": "\u0632\u06d5\u06a9\u06d5", "name:ar": "\u0632\u06a9\u0629", "name:en": "Zakah", "place": "village"}}, {"type": "node", "id": 2489321958, "lat": 35.1163912, "lon": 44.3742976, "tags": {"name": "\u0633\u06d5\u06cc\u062f \u0645\u0648\u062d\u06d5\u0645\u0645\u06d5\u062f", "name:ar": "\u0633\u06cc\u062f \u0645\u062d\u0645\u062f", "name:en": "Sayyid Mohammed", "place": "village"}}, {"type": "node", "id": 2489321975, "lat": 35.0396835, "lon": 44.0229004, "tags": {"alt_name": "\u0633\u064a\u062f \u0645\u0647\u062f\u064a", "int_name": "Sayyid Mahd\u012b, \u0633\u064a\u062f \u0645\u0647\u062f\u064a, Sayyid Mahdi, \u0633\u064a\u062f \u0645\u0647\u062f\u064a", "name": "\u0633\u064a\u062f \u0645\u0647\u062f\u064a", "name:ar": "\u0633\u064a\u062f \u0645\u0647\u062f\u064a", "name:ar1": "\u0633\u064a\u062f \u0645\u0647\u062f\u064a", "name:ckb": "\u0633\u06d5\u06cc\u062f \u0645\u06d5\u0647\u062f\u06cc", "name:de": "Sayyid Mahdi", "name:en": "Sayyid Mahdi", "name:fr": "Sayyid Mahdi", "place": "village"}}, {"type": "node", "id": 2489321991, "lat": 35.0801007, "lon": 44.2277069, "tags": {"int_name": "Su\u0163\u012byah al Uly\u0101, \u0633\u0637\u064a\u062d \u0627\u0644\u0627\u0639\u0644\u0649", "name": "\u0633\u0637\u06cc\u0629 \u0627\u0644\u0639\u0644\u06cc\u0627", "name:ckb": "\u0633\u0648\u0637\u06cc\u06d5\u06cc \u0633\u06d5\u0631\u0648\u0648", "name:en": "Upper Sutiah", "place": "village"}}, {"type": "node", "id": 2489321998, "lat": 35.018775, "lon": 44.3966897, "tags": {"int_name": "Tall \u1e28am\u0101, Tel Hama, \u062a\u0644 \u062d\u0645\u0647", "name": "\u062a\u06d5\u0644 \u062d\u06d5\u0645\u06d5", "name:ar": "\u062a\u0644 \u062d\u0645\u0629", "name:en": "Tall Hama", "place": "village"}}, {"type": "node", "id": 2489322006, "lat": 35.2004979, "lon": 44.326621, "tags": {"name": "\u062a\u06d5\u0644 \u0645\u06d5\u063a\u0627\u0631", "name:ar": "\u062a\u0644 \u0645\u063a\u0627\u0631", "name:en": "Tall Maghar", "place": "village"}}, {"type": "node", "id": 2489322023, "lat": 35.0807346, "lon": 44.3018983, "tags": {"int_name": "Tall Rabah, \u062a\u0644 \u0631\u0628\u0639\u0629, Tall Rabah, \u062a\u0644 \u0631\u0628\u0639\u0629", "name": "\u062a\u06d5\u0644 \u0695\u0648\u0628\u0639\u06d5", "name:ar": "\u062a\u0644 \u0631\u0628\u0639\u0629", "name:en": "Tull Rabha", "place": "village"}}, {"type": "node", "id": 2489322039, "lat": 35.1608751, "lon": 44.306784, "tags": {"name": "\u062a\u06d5\u067e\u06d5 \u0628\u06c6\u0634", "name:ar": "\u062a\u0628\u0629 \u0628\u0648\u0634", "name:en": "Tappa Bosh", "place": "village"}}, {"type": "node", "id": 2489322058, "lat": 35.0377101, "lon": 44.4426184, "tags": {"name": "\u0645\u06d5\u0646\u0633\u0648\u0648\u0631 \u0626\u0627\u063a\u0627", "name:ar": "\u0645\u0646\u0635\u0648\u0631 \u0622\u063a\u0627", "name:en": "Mansur Agha", "place": "village"}}, {"type": "node", "id": 2489322159, "lat": 35.1364616, "lon": 44.2428741, "tags": {"name": "\u06cc\u06d5\u0631\u06d5\u063a\u0648\u0646\u06cc \u06af\u06d5\u0648\u0631\u06d5", "name:ar": "\u06cc\u0631\u063a\u0648\u0646 \u0627\u0644\u06a9\u0628\u06cc\u0631", "name:en": "Great Yorghun", "place": "village"}}, {"type": "node", "id": 2489322160, "lat": 35.149419, "lon": 44.2431225, "tags": {"name": "\u06cc\u06d5\u0631\u06d5\u063a\u0648\u0646\u06cc \u0628\u0686\u0648\u0648\u06a9", "name:ar": "\u06cc\u0631\u063a\u0648\u0646 \u0627\u0644\u0635\u063a\u06cc\u0631", "name:en": "Little Yorghun", "place": "village"}}, {"type": "node", "id": 2489322163, "lat": 35.0251139, "lon": 44.3711985, "tags": {"name": "\u0632\u06d5\u06af\u06b5\u0627\u0648\u06d5", "name:ar": "\u0632\u06a9\u0644\u0627\u0648\u0629", "name:ar1": "\u0632\u06af\u0644\u0627\u0648\u06d5", "name:en": "Zaglawa", "place": "village"}}, {"type": "node", "id": 4116210390, "lat": 35.1942558, "lon": 44.1970013, "tags": {"name": "\u062a\u0644 \u0628\u0648\u0644\u062f\u0627\u063a", "name:ar": "\u062a\u0644 \u0628\u0648\u0644\u062f\u0627\u063a", "name:ckb": "\u062a\u06d5\u0644 \u0628\u0648\u06b5\u062f\u0627\u063a", "name:en": "Tal Buldagh", "place": "village"}}, {"type": "node", "id": 4407405470, "lat": 35.1344379, "lon": 44.0870747, "tags": {"alt_name": "\u0646\u0627\u062d\u064a\u0629 \u0627\u0644\u0631\u0634\u0627\u062f", "alt_name_1": "Nahyat Al-Rashad", "capital": "7", "name": "\u0627\u0644\u0631\u0634\u0627\u062f", "name:ar": "\u0627\u0644\u0631\u0634\u0627\u062f", "name:ckb": "\u0695\u06d5\u0634\u0627\u062f", "name:en": "Rashad", "name:ku": "Re\u015fad", "place": "town", "wikidata": "Q54900476"}}, {"type": "node", "id": 4876311221, "lat": 35.1573545, "lon": 44.4398408, "tags": {"name": "\u0626\u06c6\u062e\u06d5\u06cc", "place": "village"}}, {"type": "node", "id": 5277727761, "lat": 35.0818895, "lon": 44.356999}, {"type": "node", "id": 5277727762, "lat": 35.0836861, "lon": 44.3563079}, {"type": "node", "id": 5277727763, "lat": 35.0830606, "lon": 44.3543402}, {"type": "node", "id": 5277727764, "lat": 35.0818762, "lon": 44.352088}, {"type": "node", "id": 5277727765, "lat": 35.0804724, "lon": 44.3528279}, {"type": "node", "id": 6315300419, "lat": 35.0656043, "lon": 44.3877053, "tags": {"name": "\u06a9\u06c6\u0628\u0627\u0646\u06cc", "name:ar": "\u0639\u0631\u0628 \u0643\u0648\u064a", "old_name": "\u0639\u06d5\u0631\u06d5\u0628\u06a9\u06c6\u06cc\u06cc", "place": "village"}}, {"type": "node", "id": 6736163847, "lat": 35.1348759, "lon": 44.4099074, "tags": {"name": "\u0633\u0646\u0648\u0648\u0631", "name:ar": "\u0633\u0646\u0648\u0631", "name:en": "Snur", "place": "village"}}, {"type": "node", "id": 7533621917, "lat": 35.1298971, "lon": 44.3125721, "tags": {"int_name": "Daym karimat, \u062f\u06d5\u06cc\u0645 \u06a9\u06d5\u0631\u06cc\u0645\u0627\u062a", "name": "\u06a9\u06d5\u0631\u06cc\u0645\u06cc", "name:ar": "\u06a9\u0631\u06cc\u0645\u064a", "name:en": "Karimi", "place": "village"}}, {"type": "node", "id": 7534064418, "lat": 35.0735824, "lon": 44.4018847, "tags": {"name": "\u0634\u0627\u0644\u06cc\u0627\u0631", "place": "village"}}, {"type": "node", "id": 7536255797, "lat": 35.0489579, "lon": 44.3724791, "tags": {"name": "\u0626\u06d5\u0628\u0648 \u0645\u062d\u06d5\u0645\u0645\u06d5\u062f", "name:ar": "\u0627\u0644\u0628\u0648 \u0645\u062d\u0645\u062f", "name:en": "Abu Muhammad", "place": "village"}}, {"type": "node", "id": 7536290085, "lat": 35.037137, "lon": 44.3066245, "tags": {"name": "\u062f\u06d5\u0644\u0633\u06cc \u06af\u06d5\u0648\u0631\u06d5", "name:ar": "\u062f\u0644\u0633 \u0627\u0644\u06a9\u0628\u06cc\u0631", "name:en": "Great Dals", "note:en": "kakeyi dellis", "place": "village"}}, {"type": "node", "id": 7538771679, "lat": 35.1025704, "lon": 44.3733363, "tags": {"name": "\u062a\u06c6\u0628\u0632\u0627\u0648\u06d5", "name:ar": "\u0637\u0648\u0628\u0632\u0627\u0648\u0647", "name:en": "Tobzawa", "place": "village"}}, {"type": "node", "id": 7543532886, "lat": 35.1019035, "lon": 44.3481853, "tags": {"name": "\u0639\u06d5\u0644\u06cc \u0633\u06d5\u0631\u0627\u06cc", "name:ar": "\u0639\u0644\u064a \u0633\u0631\u0627\u064a", "name:en": "Ali Saray", "place": "village"}}, {"type": "node", "id": 7600414020, "lat": 35.0094641, "lon": 44.5411553, "tags": {"name": "\u0633\u0646\u06a9\u0648\u0631", "name:ar": "\u0633\u0646\u0643\u0648\u0631", "name:en": "Sinkur", "place": "village", "wikidata": "Q61391817", "wikipedia": "ckb:\u0633\u0646\u06a9\u0648\u0631"}}, {"type": "node", "id": 7645262281, "lat": 35.0732388, "lon": 44.5030901, "tags": {"name": "\u0634\u06c6\u0631\u0627\u0648\u06cc \u062d\u06d5\u0645\u06d5 \u063a\u06d5\u0631\u06cc\u0628", "name:ar": "\u0634\u0648\u0631\u0627\u0648 \u062d\u0645\u0629 \u063a\u0631\u06cc\u0628", "name:en": "Shorawi Hama Gharib", "place": "village", "wikidata": "Q61391833", "wikipedia": "ckb:\u0634\u06c6\u0631\u0627\u0648\u06cc \u062d\u06d5\u0645\u06d5 \u063a\u06d5\u0631\u06cc\u0628"}}, {"type": "node", "id": 7717209810, "lat": 35.0479095, "lon": 44.2729417, "tags": {"name": "\u062d\u0633\u0646 \u0634\u0644\u0627\u0644", "name:ckb": "\u062d\u06d5\u0633\u06d5\u0646 \u0634\u06d5\u0644\u0627\u0644", "name:en": "Hassan Shalal", "place": "village"}}, {"type": "node", "id": 8274280424, "lat": 35.1239663, "lon": 44.445124, "tags": {"name": "\u0695\u0632\u06af\u0627\u0631\u06cc", "place": "village"}}, {"type": "node", "id": 8514858006, "lat": 35.1503123, "lon": 44.4676786, "tags": {"name:ar": "\u0642\u0631\u064a\u0629 \u0627\u0644\u0627\u0645\u0627\u0645 \u0632\u064a\u0646 \u0627\u0644\u0639\u0627\u0628\u062f\u064a\u0646", "place": "village"}}, {"type": "node", "id": 9247551745, "lat": 35.0857824, "lon": 44.2840766, "tags": {"name": "\u0633\u06ce \u06a9\u0627\u0646\u06cc", "name:ar": "\u0633\u064a \u06a9\u0627\u0646\u064a", "name:en": "Sekani", "place": "village"}}, {"type": "node", "id": 9247573231, "lat": 35.1140391, "lon": 44.308019, "tags": {"name": "\u0628\u0627\u0646\u0634\u0627\u062e\u06cc \u06af\u06d5\u0648\u0631\u06d5", "name:ar": "\u0628\u0627\u0646\u0634\u0627\u062e \u0627\u0644\u06a9\u0628\u0631\u06cc", "name:en": "Great Banshakh", "place": "village"}}, {"type": "node", "id": 9247782847, "lat": 35.1069982, "lon": 44.4749658, "tags": {"name": "\u0686\u06d5\u0648\u0631\u06a9\u06d5\u06cc \u062a\u0627\u0632\u06d5", "name:ar": "\u062c\u0648\u0631\u06a9\u0629 \u0627\u0644\u062c\u062f\u06cc\u062f\u0629", "name:en": "New Chawrka", "place": "village"}}, {"type": "node", "id": 9388999991, "lat": 35.1660524, "lon": 44.264041, "tags": {"name": "\u0628\u0648\u0631\u063a\u0648\u0646", "name:ar": "\u0628\u0648\u0631\u063a\u0648\u0646", "name:en": "Burghun", "place": "village"}}, {"type": "node", "id": 9482742508, "lat": 35.1336582, "lon": 44.3640761, "tags": {"name": "\u0639\u06d5\u0646\u0627\u0646\u06d5", "name:ar": "\u0639\u0646\u0627\u0646\u0629", "name:en": "Anana", "place": "village"}}, {"type": "node", "id": 9482745759, "lat": 35.1098835, "lon": 44.2963378, "tags": {"name": "\u0628\u0627\u0646\u0634\u0627\u062e\u06cc \u0628\u0686\u0648\u0648\u06a9", "name:ar": "\u0628\u0627\u0646\u0634\u0627\u062e \u0627\u0644\u0635\u063a\u0631\u06cc", "name:en": "Little Banshakh", "place": "village"}}, {"type": "node", "id": 9669062893, "lat": 35.1553463, "lon": 44.1024165, "tags": {"name": "\u062c\u0648\u0627\u0644\u0629", "name:ar": "\u062c\u0648\u0627\u0644\u0629", "name:ckb": "\u062c\u06d5\u0648\u0627\u0644\u06d5", "name:en": "Jawala", "place": "village"}}, {"type": "node", "id": 9669119429, "lat": 35.086204, "lon": 44.1479612, "tags": {"name": "\u0641\u0634\u0643\u0629", "name:ar": "\u0641\u0634\u0643\u0629", "name:ckb": "\u0641\u0648\u0634\u06a9\u06d5", "name:en": "Fushka", "place": "village"}}, {"type": "node", "id": 9669119430, "lat": 35.0958654, "lon": 44.1204836, "tags": {"name": "\u0627\u0628\u0648 \u0639\u0643\u0627\u0631\u0628", "name:ar": "\u0627\u0628\u0648 \u0639\u0643\u0627\u0631\u0628", "name:ckb": "\u0626\u06d5\u0628\u0648\u0639\u06d5\u06a9\u0627\u0631\u0628", "name:en": "Abu Akarb", "place": "village"}}, {"type": "node", "id": 11029954567, "lat": 34.9625207, "lon": 44.2210639, "tags": {"name": "\u0634\u0628\u06cc\u062c\u0629", "name:ckb": "\u0634\u0628\u06cc\u0686\u06d5", "name:en": "Shbicha", "place": "village"}}, {"type": "node", "id": 11188126497, "lat": 35.0023203, "lon": 44.5270546, "tags": {"name": "\u062a\u0627\u0632\u06d5\u062f\u06ce", "name:ar": "\u062a\u0627\u0632\u0629\u062f\u064a", "name:ckb": "\u062a\u0627\u0632\u06d5\u062f\u06ce", "name:en": "Taza De", "place": "village"}}, {"type": "node", "id": 11391417093, "lat": 35.2046753, "lon": 44.3623978, "tags": {"name": "\u062e\u0627\u0644\u062f", "name:ckb": "\u062e\u0627\u0644\u06cc\u062f", "name:en": "Khalid", "place": "village"}}, {"type": "node", "id": 11391420313, "lat": 35.1448566, "lon": 44.3066819, "tags": {"name": "\u06a9\u0648\u0631\u06d5\u06cc\u062c\u06cc\u06d5", "name:ar": "\u06a9\u0631\u06cc\u062c\u06cc\u0629", "name:en": "Kurayj\u012byah", "place": "village"}}, {"type": "node", "id": 11391434503, "lat": 35.2007478, "lon": 44.3550163, "tags": {"name": "\u0633\u0639\u062f", "name:ckb": "\u0633\u06d5\u0639\u062f", "name:en": "Saad", "place": "village"}}, {"type": "node", "id": 11391466555, "lat": 35.0590473, "lon": 44.283177, "tags": {"name": "\u062e\u06c6\u0632\u0627\u06a4\u06cc", "name:ar": "\u062e\u0648\u0632\u0627\u0641\u064a", "name:en": "Khozavi", "place": "village"}}, {"type": "node", "id": 11391519185, "lat": 35.0441918, "lon": 44.3374057, "tags": {"name": "\u062f\u06d5\u0644\u0633\u06cc \u0628\u0686\u0648\u0648\u06a9", "name:ar": "\u062f\u0644\u0633 \u0627\u0644\u0635\u063a\u06cc\u0631", "name:en": "Little Das", "place": "village"}}, {"type": "node", "id": 11391542093, "lat": 34.9130294, "lon": 44.3631284, "tags": {"name": "\u0632\u0627\u062c\u064a", "name:ckb": "\u0632\u0627\u062c\u06cc", "name:en": "Zaji", "place": "village"}}, {"type": "node", "id": 11391543368, "lat": 34.9397802, "lon": 44.3335076, "tags": {"name": "\u0633\u0648\u0647\u06cc\u0644", "name:ckb": "\u0633\u0648\u0647\u06d5\u06cc\u0644", "name:en": "Suhail", "place": "village"}}, {"type": "node", "id": 11391560026, "lat": 34.8996966, "lon": 44.3720263, "tags": {"name": "\u0623\u0628\u0648 \u0634\u0647\u0627\u0628", "name:ckb": "\u0626\u06d5\u0628\u0648\u0634\u06d5\u0647\u0627\u0628", "name:en": "Abu Shahab", "place": "village"}}, {"type": "node", "id": 11391577329, "lat": 34.8868561, "lon": 44.3425308, "tags": {"name": "\u062d\u0627\u0632\u0645\u064a", "name:ckb": "\u062d\u0627\u0632\u0645\u06cc", "name:en": "Hazmi", "place": "village"}}, {"type": "node", "id": 11391879270, "lat": 35.0214505, "lon": 44.521813, "tags": {"name": "\u06af\u0648\u06b5\u06cc \u062a\u06d5\u067e\u06d5\u06cc \u062a\u0627\u0632\u06d5", "name:ar": "\u06a9\u0648\u0644\u064a \u062a\u0628\u0629 \u062a\u0627\u0632\u0629", "name:en": "New Guli Tapa", "place": "village"}}, {"type": "node", "id": 11392674672, "lat": 35.018489, "lon": 44.4200083, "tags": {"name": "\u0626\u06d5\u0628\u0648 \u0633\u06d5\u0631\u0627\u062c", "name:ar": "\u0623\u0628\u0648 \u0633\u0631\u0627\u062c", "name:en": "Abu Saraj", "place": "village"}}, {"type": "node", "id": 11392708779, "lat": 35.0753821, "lon": 44.4870395, "tags": {"name": "\u062e\u06d5\u0628\u0627\u062a", "name:ar": "\u062e\u0628\u0627\u062a", "name:en": "Khabat", "place": "village", "source": "https://reliefweb.int/attachments/8cb9b0cf-3d2e-3a11-b5a3-2d4059360abb/daquq.pdf"}}, {"type": "node", "id": 11393323741, "lat": 35.1466301, "lon": 44.3913736, "tags": {"name": "\u0639\u0628\u062f\u0648\u06b5\u06b5\u0627 \u063a\u0627\u0646\u0645\u06cc \u06af\u06d5\u0648\u0631\u06d5", "name:ar": "\u0639\u0628\u062f\u0627\u0644\u0644\u0647 \u063a\u0627\u0646\u0645 \u0627\u0644\u06a9\u0628\u06cc\u0631", "name:en": "Great Abdullah Ghanm", "place": "village"}}, {"type": "node", "id": 11393389405, "lat": 35.1538242, "lon": 44.3595113, "tags": {"name": "\u0639\u06d5\u0628\u062f\u0648\u06b5\u06b5\u0627 \u063a\u0627\u0646\u0645\u06cc \u0628\u0686\u0648\u0648\u06a9", "name:ar": "\u0639\u0628\u062f\u0627\u0644\u0644\u0647 \u063a\u0627\u0646\u0645 \u0627\u0644\u0635\u063a\u06cc\u0631", "name:en": "Little Abdullah Ghanm", "place": "village"}}, {"type": "node", "id": 11393403779, "lat": 35.1132776, "lon": 44.4237459, "tags": {"name": "\u0645\u06d5\u062a\u06cc\u0642", "name:ar": "\u0645\u062a\u06cc\u0642", "name:en": "Matiq", "place": "village"}}, {"type": "node", "id": 11393404581, "lat": 35.1012121, "lon": 44.4712896, "tags": {"name": "\u06a9\u06c6\u0645\u06d5\u06b5\u06af\u06d5\u06cc \u06af\u06d5\u0631\u0645\u06cc\u0627\u0646", "name:ar": "\u0645\u062c\u0645\u0639 \u06a9\u0631\u0645\u06cc\u0627\u0646", "name:en": "Garmyan Collective", "place": "village"}}, {"type": "node", "id": 11393406477, "lat": 35.1532965, "lon": 44.410531, "tags": {"name": "\u0626\u06ce\u0646\u06a9\u06cc\u062c\u06d5", "name:ar": "\u0626\u06cc\u0646\u06a9\u062c\u0629", "name:en": "Enkija", "place": "village"}}, {"type": "node", "id": 11393426400, "lat": 35.1156138, "lon": 44.3621978, "tags": {"name": "\u0645\u06d5\u0641\u0631\u06d5\u062c", "name:ar": "\u0645\u0641\u0631\u062c", "name:en": "Mafraj", "place": "village"}}, {"type": "node", "id": 11405656968, "lat": 35.0973118, "lon": 44.2071969, "tags": {"name": "\u0633\u0637\u06cc\u062d", "name:ckb": "\u0633\u06d5\u062a\u06cc\u062d", "name:en": "Satih", "place": "village"}}, {"type": "node", "id": 11405702238, "lat": 35.0092137, "lon": 44.1772069, "tags": {"name": "\u0635\u062e\u0648\u0644", "name:ckb": "\u0635\u0648\u062e\u0648\u0644", "name:en": "Sukhul", "place": "village"}}, {"type": "node", "id": 11405976167, "lat": 34.8150157, "lon": 44.2419985, "tags": {"name": "\u0647\u062c\u0648\u0644 \u0641\u064a\u0636", "name:ckb": "\u0647\u062c\u0648\u0644 \u0641\u06d5\u06cc\u0632", "name:en": "Hjul Faiz", "place": "village"}}, {"type": "node", "id": 11406047678, "lat": 34.8254005, "lon": 44.2325564, "tags": {"name": "\u062c\u0641\u0627\u0631 \u0639\u0648\u0646", "name:ckb": "\u062c\u06d5\u0641\u0627\u0631 \u0639\u06d5\u0648\u0646", "name:en": "Jafar Awn", "place": "village"}}, {"type": "node", "id": 11425893037, "lat": 35.1435482, "lon": 44.1501776, "tags": {"name": "\u0636\u06cc\u0627\u0639\u0629", "name:ar": "\u0636\u06cc\u0627\u0639\u0629", "name:ckb": "\u0632\u06cc\u0627\u0639\u06d5", "name:en": "Zia\u00e0h", "place": "village"}}, {"type": "node", "id": 11425961262, "lat": 35.1834498, "lon": 44.1857237, "tags": {"name": "\u0639\u0635\u0631\u064a\u0629", "name:ar": "\u0639\u0635\u0631\u064a\u0629", "name:ckb": "\u0639\u06d5\u0633\u0631\u06cc\u06d5", "name:en": "Asriyah", "place": "village"}}, {"type": "node", "id": 11425969891, "lat": 35.1672901, "lon": 44.1773831, "tags": {"name": "\u062f\u0648\u0628\u0629", "name:ar": "\u062f\u0648\u0628\u0629", "name:ckb": "\u062f\u0648\u0628\u0628\u06d5", "name:en": "Dubba", "place": "village"}}, {"type": "node", "id": 11425979700, "lat": 35.1626505, "lon": 44.1898862, "tags": {"name": "\u0637\u0644\u06cc\u0639\u0629", "name:ar": "\u0637\u0644\u06cc\u0639\u0629", "name:ckb": "\u062a\u06d5\u0644\u06cc\u0639\u06d5", "name:en": "Tali\u00e0a", "place": "village"}}, {"type": "node", "id": 11426086039, "lat": 35.01481, "lon": 44.1227481, "tags": {"name": "\u062c\u0645\u0644", "name:ar": "\u062c\u0645\u0644", "name:ckb": "\u062c\u06d5\u0645\u06d5\u0644", "name:en": "Jamal", "place": "village"}}, {"type": "node", "id": 11426645016, "lat": 34.9518767, "lon": 44.1460377, "tags": {"name": "\u0633\u06cc\u062f \u062d\u0633\u0648\u0646", "name:ar": "\u0633\u06cc\u062f \u062d\u0633\u0648\u0646", "name:ckb": "\u0633\u06d5\u06cc\u062f \u062d\u06d5\u0633\u0648\u0646", "name:en": "Sayed Hassoun", "place": "village"}}, {"type": "way", "id": 546122246, "nodes": [5277727761, 5277727762, 5277727763, 5277727764, 5277727765, 5277727761], "tags": {"name": "\u0633\u06d5\u06cc \u0648\u06d5\u06b5\u06d5 | \u0639\u06d5\u0644\u0648\u06d5\u062a \u067e\u0627\u0634\u0627", "place": "village"}}]}