{"version": 0.6, "generator": "Overpass API 0.7.61.5 4133829e", "osm3s": {"timestamp_osm_base": "2024-03-05T13:37:45Z", "copyright": "The data included in this document is from www.openstreetmap.org. The data is made available under ODbL."}, "elements": [{"type": "node", "id": 4403040829, "lat": 32.408677, "lon": 65.653468, "tags": {"alt_name": "Baregah;Bariga", "name": "\u0628\u0627\u0631\u06af\u0647", "name:en": "Barigah", "name:ps": "\u0628\u0627\u0631\u06af\u0647", "name:ru": "Bariga", "place": "village", "source:name": "GNS"}}, {"type": "node", "id": 4403040830, "lat": 32.413694, "lon": 65.655858, "tags": {"alt_name": "\u0628\u0631\u0643\u0646\u062f\u06cc", "name": "\u0628\u0631\u06a9\u0646\u062f\u06cc", "name:en": "Barkanday", "name:ps": "\u0628\u0631\u06a9\u0646\u062f\u06cc", "place": "village", "source:name": "GNS"}}, {"type": "node", "id": 4403040831, "lat": 32.414923, "lon": 65.652032, "tags": {"alt_name": "\u0686\u0647\u0627\u0631 \u06af\u0646\u0628\u062f;Cahar Gumbad;Chahar Gonbad", "name": "\u0686\u0647\u0627\u0631 \u06af\u0645\u0628\u062f", "name:en": "Chahar Gumbad", "name:ps": "\u0686\u0647\u0627\u0631 \u06af\u0645\u0628\u062f", "name:ru": "Chakhargumbad", "place": "village", "source:name": "GNS"}}, {"type": "node", "id": 4403040832, "lat": 32.425921, "lon": 65.671088, "tags": {"alt_name": "Chupani;Copani", "name": "\u0686\u0648\u067e\u0627\u0646\u06cc", "name:en": "Chopani", "name:ps": "\u0686\u0648\u067e\u0627\u0646\u06cc", "name:ru": "Chopani", "place": "village", "source:name": "GNS"}}, {"type": "node", "id": 4403040833, "lat": 32.432052, "lon": 65.634838, "tags": {"alt_name": "\u062f \u0646\u0627\u0631 \u062e\u064a\u0644 \u0643\u0644\u06cc;\u062f\u064a\u0646\u0627\u0631\u062e\u064a\u0644;De Narkhel Kelay;De Narkheyl Kalay;Dinarkhil", "name": "\u062f \u0646\u0627\u0631\u062e\u06d0\u0644 \u06a9\u0644\u06cc", "name:en": "De Narkhel Kalay", "name:ps": "\u062f \u0646\u0627\u0631\u062e\u06d0\u0644 \u06a9\u0644\u06cc", "name:ru": "Narkheyl'kalay", "place": "village", "source:name": "GNS"}}, {"type": "node", "id": 4403040835, "lat": 32.421302, "lon": 65.656392, "tags": {"alt_name": "\u063a\u0648\u064a\u0645\u062a\u0627\u0646;Ghoymatan", "name": "\u063a\u0648\u06cc\u0645\u062a\u0627\u0646", "name:en": "Ghowymatan", "name:ps": "\u063a\u0648\u06cc\u0645\u062a\u0627\u0646", "name:ru": "Goymatan", "place": "village", "source:name": "GNS"}}, {"type": "node", "id": 4403040836, "lat": 32.416164, "lon": 65.645033, "tags": {"name": "\u063a\u0631\u062f\u0646\u06af", "name:en": "Ghurdang", "name:ps": "\u063a\u0631\u062f\u0646\u06af", "name:ru": "Gurdana", "place": "village", "source:name": "GNS"}}, {"type": "node", "id": 4403040837, "lat": 32.414515, "lon": 65.66281, "tags": {"alt_name": "\u0643\u0627\u0631\u064a\u0632 \u062e\u0631\u062f", "name": "\u06a9\u0627\u0631\u06d0\u0632 \u062e\u0631\u062f", "name:en": "Kariz Khord;Karez Khurd;Karez-e Khurd", "name:ps": "\u06a9\u0627\u0631\u06d0\u0632 \u062e\u0631\u062f", "name:ru": "Karezi-Khurd", "place": "village", "source:name": "GNS"}}, {"type": "node", "id": 4403040840, "lat": 32.430748, "lon": 65.673498, "tags": {"alt_name": "\u067e\u062a\u0627\u0648 \u0643\u0627\u0631\u064a\u0632;Petaw Karez;Petaw Kariz", "name": "\u067e\u062a\u0627\u0648 \u06a9\u0627\u0631\u06d0\u0632", "name:en": "Pitaw Karez", "name:ps": "\u067e\u062a\u0627\u0648 \u06a9\u0627\u0631\u06d0\u0632", "name:ru": "Pitaukarez", "place": "village", "source:name": "GNS"}}, {"type": "node", "id": 4403040842, "lat": 32.419011, "lon": 65.673843, "tags": {"alt_name": "\u0642\u0631\u064a\u06c0 \u062e\u0631\u062f\u0632\u0627\u0626\u06cc;Qarya-i- Khurdza'i;Qaryeh-ye Khordza'i", "name": "\u0642\u0631\u06cc\u0647 \u062e\u0631\u062f\u0632\u06cc", "name:en": "Qaryah-ye Khurdzai", "name:ps": "\u0642\u0631\u06cc\u0647 \u062e\u0631\u062f\u0632\u06cc", "name:ru": "Kar'yayi-Khurdzai", "place": "village", "source:name": "GNS"}}, {"type": "node", "id": 4403040843, "lat": 32.416613, "lon": 65.639098, "tags": {"name": "\u0633\u0631\u062f\u0627\u063a", "name:en": "Sardagh", "name:ps": "\u0633\u0631\u062f\u0627\u063a", "name:ru": "Sardag", "place": "village", "source:name": "GNS"}}, {"type": "node", "id": 4403040844, "lat": 32.434521, "lon": 65.653371, "tags": {"alt_name": "\u0633\u0631\u067e\u0648\u0634\u0627\u0646;Sar Poshan;Sarposan", "name": "\u0633\u0631 \u067e\u0648\u0634\u0627\u0646", "name:en": "Sarpushan", "name:ps": "\u0633\u0631 \u067e\u0648\u0634\u0627\u0646", "name:ru": "Sarposhan", "place": "village", "source:name": "GNS"}}, {"type": "node", "id": 4403040845, "lat": 32.407123, "lon": 65.647877, "tags": {"alt_name": "\u0633\u064a\u062f \u0643\u0627\u0631\u064a\u0632;Sayd Karez;Sayyid Karez", "name": "\u0633\u06cc\u062f \u06a9\u0627\u0631\u06d0\u0632", "name:en": "Seyyed Kariz", "name:ps": "\u0633\u06cc\u062f \u06a9\u0627\u0631\u06d0\u0632", "name:ru": "Seydkarez", "place": "village", "source:name": "GNS"}}, {"type": "node", "id": 4403040846, "lat": 32.425843, "lon": 65.663714, "tags": {"alt_name": "\u062a\u0631\u0643\u0645\u0646 \u0643\u0644\u06cc;Turkman Kalay;Torkaman Kalay", "name": "\u062a\u0631\u06a9\u0645\u0646 \u06a9\u0644\u06cc", "name:en": "Turkman Kelay", "name:ps": "\u062a\u0631\u06a9\u0645\u0646 \u06a9\u0644\u06cc", "name:ru": "Turkmankalay", "place": "village", "source:name": "GNS"}}, {"type": "node", "id": 4403040847, "lat": 32.428812, "lon": 65.650048, "tags": {"name": "\u0648\u0631\u062c\u0627\u0646\u06cc", "name:en": "Wurjani", "name:ps": "\u0648\u0631\u062c\u0627\u0646\u06cc", "name:ru": "Vurdzhani", "place": "village", "source:name": "GNS"}}, {"type": "node", "id": 4403040848, "lat": 32.426877, "lon": 65.637068, "tags": {"alt_name": "Naish;Naysh;`Alaqadari Nes;Nes;\u0646\u064a\u0634", "name": "\u0639\u0644\u0627\u0642\u0647 \u062f\u0627\u0631\u06cc \u0646\u06cc\u0634", "name:en": "`Alaqahdari Naysh", "name:ps": "\u0639\u0644\u0627\u0642\u0647 \u062f\u0627\u0631\u06cc \u0646\u06cc\u0634", "place": "town", "source:name": "GNS"}}, {"type": "node", "id": 6272455160, "lat": 32.1100118, "lon": 65.402368}, {"type": "node", "id": 6272455161, "lat": 32.1095926, "lon": 65.4020196}, {"type": "node", "id": 6272455162, "lat": 32.1087249, "lon": 65.4022705}, {"type": "node", "id": 6272455163, "lat": 32.1085242, "lon": 65.4024586}, {"type": "node", "id": 6272455164, "lat": 32.1086304, "lon": 65.4028838}, {"type": "node", "id": 6272455165, "lat": 32.1094096, "lon": 65.4029883}, {"type": "node", "id": 6272455166, "lat": 32.1099409, "lon": 65.4028907}, {"type": "node", "id": 6272455167, "lat": 32.1113518, "lon": 65.41593}, {"type": "node", "id": 6272455168, "lat": 32.1117768, "lon": 65.4157}, {"type": "node", "id": 6272455169, "lat": 32.1121427, "lon": 65.4152052}, {"type": "node", "id": 6272455170, "lat": 32.1117886, "lon": 65.4136859}, {"type": "node", "id": 6272455171, "lat": 32.1109563, "lon": 65.4135257}, {"type": "node", "id": 6272455172, "lat": 32.1110861, "lon": 65.4160485}, {"type": "node", "id": 6272455173, "lat": 32.1077863, "lon": 65.4307534}, {"type": "node", "id": 6272455174, "lat": 32.1080401, "lon": 65.4318615}, {"type": "node", "id": 6272455175, "lat": 32.1087308, "lon": 65.43175}, {"type": "node", "id": 6272455176, "lat": 32.1091912, "lon": 65.430161}, {"type": "node", "id": 6272455177, "lat": 32.1098465, "lon": 65.4288229}, {"type": "node", "id": 6272455178, "lat": 32.1097993, "lon": 65.4281539}, {"type": "node", "id": 6272455179, "lat": 32.1089197, "lon": 65.4287463}, {"type": "node", "id": 6272455730, "lat": 32.1209587, "lon": 65.3860798}, {"type": "node", "id": 6272455731, "lat": 32.1210522, "lon": 65.3842866}, {"type": "node", "id": 6272455732, "lat": 32.1204914, "lon": 65.3842682}, {"type": "node", "id": 6272455733, "lat": 32.1199462, "lon": 65.3864017}, {"type": "node", "id": 6272455734, "lat": 32.1197749, "lon": 65.3872385}, {"type": "node", "id": 6272455735, "lat": 32.1200085, "lon": 65.3875879}, {"type": "node", "id": 6272455736, "lat": 32.1205927, "lon": 65.3870362}, {"type": "node", "id": 6272455737, "lat": 32.1209276, "lon": 65.3866499}, {"type": "node", "id": 6272455738, "lat": 32.1210522, "lon": 65.3861626}, {"type": "node", "id": 8302780904, "lat": 32.1481804, "lon": 65.4478714, "tags": {"place": "hamlet"}}, {"type": "node", "id": 8311675500, "lat": 32.1574314, "lon": 65.4070163, "tags": {"place": "hamlet"}}, {"type": "way", "id": 669782105, "nodes": [6272455160, 6272455161, 6272455162, 6272455163, 6272455164, 6272455165, 6272455166, 6272455160], "tags": {"place": "hamlet"}}, {"type": "way", "id": 669782106, "nodes": [6272455167, 6272455168, 6272455169, 6272455170, 6272455171, 6272455172, 6272455167], "tags": {"place": "hamlet"}}, {"type": "way", "id": 669782107, "nodes": [6272455173, 6272455174, 6272455175, 6272455176, 6272455177, 6272455178, 6272455179, 6272455173], "tags": {"place": "hamlet"}}, {"type": "way", "id": 669782111, "nodes": [6272455730, 6272455731, 6272455732, 6272455733, 6272455734, 6272455735, 6272455736, 6272455737, 6272455738, 6272455730], "tags": {"place": "hamlet"}}]}