{"version": 0.6, "generator": "Overpass API 0.7.61.5 4133829e", "osm3s": {"timestamp_osm_base": "2024-03-06T11:16:45Z", "copyright": "The data included in this document is from www.openstreetmap.org. The data is made available under ODbL."}, "elements": [{"type": "node", "id": 2482534743, "lat": 33.5341783, "lon": 45.5257816, "tags": {"alt_name": "\u0639\u0631\u0628 \u0631\u062d\u0645\u0627\u0646 \u0627\u0644\u0645\u0647\u062f\u064a", "int_name": "Arab Ra\u1e29man al Mahd\u012b, Arab Rahman al Mahdi", "is_in": "Iraq , \u062c\u0645\u0647\u0648\u0631\u064a\u0629 \u0627\u0644\u0639\u0631\u0627\u0642", "name": "\u0639\u0631\u0628 \u0631\u062d\u0645\u0627\u0646 \u0627\u0644\u0645\u0647\u062f\u064a", "name:ar": "\u062c\u062f\u064a\u062f\u0629", "name:ar1": "\u0639\u0631\u0628 \u0631\u062d\u0645\u0627\u0646 \u0627\u0644\u0645\u0647\u062f\u064a", "name:de": "Arab Rahman al Mahdi", "name:en": "Judida", "name:fr": "Arab Rahman al Mahdi", "place": "village"}}, {"type": "node", "id": 2482534745, "lat": 33.5520146, "lon": 45.5163169, "tags": {"alt_name": "\u0639\u0648\u0627\u0636 \u0627\u0644\u0633\u0648\u064a\u0644\u0645", "int_name": "Aw\u0101\u1e11 as Suwaylim, Awad as Suwaylim", "is_in": "Iraq , \u062c\u0645\u0647\u0648\u0631\u064a\u0629 \u0627\u0644\u0639\u0631\u0627\u0642", "name": "\u0639\u0648\u0627\u0636 \u0627\u0644\u0633\u0648\u064a\u0644\u0645", "name:ar": "\u0639\u0648\u0627\u0636 \u0627\u0644\u0633\u0648\u064a\u0644\u0645", "name:ar1": "\u0639\u0648\u0627\u0636 \u0627\u0644\u0633\u0648\u064a\u0644\u0645", "name:de": "Awad as Suwaylim", "name:en": "Awad as Suwaylim", "name:fr": "Awad as Suwaylim", "place": "village"}}, {"type": "node", "id": 2482534748, "lat": 33.5344188, "lon": 45.5260762, "tags": {"alt_name": "\u0639\u0631\u0628 \u0631\u062d\u0645\u0646 \u0627\u0644\u0645\u0647\u062f\u064a", "int_name": "\u0639\u0631\u0628 \u0631\u062d\u0645\u0646 \u0627\u0644\u0645\u0647\u062f\u064a, \u0639\u0631\u0628 \u0631\u062d\u0645\u0646 \u0627\u0644\u0645\u0647\u062f\u064a", "is_in": "Iraq , \u062c\u0645\u0647\u0648\u0631\u064a\u0629 \u0627\u0644\u0639\u0631\u0627\u0642", "name": "\u0639\u0631\u0628 \u0631\u062d\u0645\u0646 \u0627\u0644\u0645\u0647\u062f\u064a", "name:ar": "\u0639\u0631\u0628 \u0631\u062d\u0645\u0646 \u0627\u0644\u0645\u0647\u062f\u064a", "name:ar1": "\u0639\u0631\u0628 \u0631\u062d\u0645\u0646 \u0627\u0644\u0645\u0647\u062f\u064a", "place": "village"}}, {"type": "node", "id": 2482534902, "lat": 33.5043594, "lon": 45.4956184, "tags": {"alt_name": "\u0628\u0646\u064a\u0627\u0646", "int_name": "Biny\u0101n, \u0628\u0646\u064a\u0627\u0646, Binyan, \u0628\u0646\u064a\u0627\u0646", "is_in": "Iraq , \u062c\u0645\u0647\u0648\u0631\u064a\u0629 \u0627\u0644\u0639\u0631\u0627\u0642", "name": "\u0628\u0646\u064a\u0627\u0646", "name:ar": "\u0628\u0646\u064a\u0627\u0646", "name:ar1": "\u0628\u0646\u064a\u0627\u0646", "name:de": "Binyan", "name:en": "Binyan", "name:fr": "Binyan", "place": "village"}}, {"type": "node", "id": 2482534903, "lat": 33.5150266, "lon": 45.484269, "tags": {"alt_name": "\u062d\u0633\u0648\u0646", "int_name": "\u1e28ass\u016bn, \u062d\u0633\u0648\u0646, Hassun, \u062d\u0633\u0648\u0646", "is_in": "Iraq , \u062c\u0645\u0647\u0648\u0631\u064a\u0629 \u0627\u0644\u0639\u0631\u0627\u0642", "name": "\u062d\u0633\u0648\u0646", "name:ar": "\u062d\u0633\u0648\u0646", "name:ar1": "\u062d\u0633\u0648\u0646", "name:de": "Hassun", "name:en": "Hassun", "name:fr": "Hassun", "place": "village"}}, {"type": "node", "id": 2482534907, "lat": 33.5177003, "lon": 45.5006849, "tags": {"alt_name": "\u0645\u0647\u0631 \u0639\u0644\u064a", "int_name": "Mahar Al\u012b, Mahar Ali", "is_in": "Iraq , \u062c\u0645\u0647\u0648\u0631\u064a\u0629 \u0627\u0644\u0639\u0631\u0627\u0642", "name": "\u0645\u0647\u0631 \u0639\u0644\u064a", "name:ar": "\u0645\u0647\u0631 \u0639\u0644\u064a", "name:ar1": "\u0645\u0647\u0631 \u0639\u0644\u064a", "name:de": "Mahar Ali", "name:en": "Mahar Ali", "name:fr": "Mahar Ali", "place": "village"}}, {"type": "node", "id": 2482534915, "lat": 33.5641935, "lon": 45.515384, "tags": {"alt_name": "\u0631\u0634\u064a\u062f \u0627\u0644\u062e\u0645\u064a\u0633", "int_name": "Rash\u012bd al Kham\u012bs, \u0631\u0634\u064a\u062f \u0627\u0644\u062e\u0645\u064a\u0633, Rashid al Khamis, \u0631\u0634\u064a\u062f \u0627\u0644\u062e\u0645\u064a\u0633", "is_in": "Iraq , \u062c\u0645\u0647\u0648\u0631\u064a\u0629 \u0627\u0644\u0639\u0631\u0627\u0642", "name": "\u0631\u0634\u064a\u062f \u0627\u0644\u062e\u0645\u064a\u0633", "name:ar": "\u0631\u0634\u064a\u062f \u0627\u0644\u062e\u0645\u064a\u0633", "name:ar1": "\u0631\u0634\u064a\u062f \u0627\u0644\u062e\u0645\u064a\u0633", "name:de": "Rashid al Khamis", "name:en": "Rashid al Khamis", "name:fr": "Rashid al Khamis", "place": "village"}}, {"type": "node", "id": 2482534921, "lat": 33.561464, "lon": 45.5038981, "tags": {"alt_name": "\u0635\u0627\u062f\u064a \u0627\u0644\u062d\u0645\u064a\u0646\u064a", "int_name": "\u015e\u0101d\u012b al \u1e28am\u012bn\u012b, \u0635\u0627\u062f\u064a \u0627\u0644\u062d\u0645\u064a\u0646\u064a, Sadi al Hamini, \u0635\u0627\u062f\u064a \u0627\u0644\u062d\u0645\u064a\u0646\u064a", "is_in": "Iraq , \u062c\u0645\u0647\u0648\u0631\u064a\u0629 \u0627\u0644\u0639\u0631\u0627\u0642", "name": "\u0635\u0627\u062f\u064a \u0627\u0644\u062d\u0645\u064a\u0646\u064a", "name:ar": "\u0635\u0627\u062f\u064a \u0627\u0644\u062d\u0645\u064a\u0646\u064a", "name:ar1": "\u0635\u0627\u062f\u064a \u0627\u0644\u062d\u0645\u064a\u0646\u064a", "name:de": "Sadi al Hamini", "name:en": "Sadi al Hamini", "name:fr": "Sadi al Hamini", "place": "village"}}, {"type": "node", "id": 2482549346, "lat": 33.5651392, "lon": 45.5156046, "tags": {"alt_name": "\u062d\u0633\u0646", "int_name": "\u1e28asan, Hasan", "is_in": "Iraq , \u062c\u0645\u0647\u0648\u0631\u064a\u0629 \u0627\u0644\u0639\u0631\u0627\u0642", "name": "\u062d\u0633\u0646", "name:ar": "\u062d\u0633\u0646", "name:ar1": "\u062d\u0633\u0646", "name:de": "Hasan", "name:en": "Hasan", "name:fr": "Hasan", "place": "village"}}, {"type": "node", "id": 2483960801, "lat": 33.5638365, "lon": 45.0896282, "tags": {"alt_name": "\u0625\u0645\u0627\u0645 \u0635\u0627\u0644\u062d", "int_name": "Im\u0101m Salah, Im\u0101m S\u0101leh, Im\u0101m \u015e\u0101li\u1e29, \u0627\u0645\u0627\u0645 \u0635\u0627\u0644\u062d, Imam Salah, Imam Saleh, Imam Salih, \u0627\u0645\u0627\u0645 \u0635\u0627\u0644\u062d", "is_in": "Iraq , \u062c\u0645\u0647\u0648\u0631\u064a\u0629 \u0627\u0644\u0639\u0631\u0627\u0642", "name": "\u0625\u0645\u0627\u0645 \u0635\u0627\u0644\u062d", "name:ar": "\u0625\u0645\u0627\u0645 \u0635\u0627\u0644\u062d", "name:ar1": "\u0625\u0645\u0627\u0645 \u0635\u0627\u0644\u062d", "name:de": "Imam Salah", "name:en": "Imam Salah", "name:fr": "Imam Salah", "place": "village"}}, {"type": "node", "id": 2483960856, "lat": 33.569211, "lon": 45.1360549, "tags": {"alt_name": "\u0645\u062d\u0645\u062f \u0634\u0644\u0627\u0644", "int_name": "Mu\u1e29ammad Shal\u0101l, \u0645\u062d\u0645\u062f \u0634\u0644\u0627\u0644, Muhammad Shalal, \u0645\u062d\u0645\u062f \u0634\u0644\u0627\u0644", "is_in": "Iraq , \u062c\u0645\u0647\u0648\u0631\u064a\u0629 \u0627\u0644\u0639\u0631\u0627\u0642", "name": "\u0645\u062d\u0645\u062f \u0634\u0644\u0627\u0644", "name:ar": "\u0645\u062d\u0645\u062f \u0634\u0644\u0627\u0644", "name:ar1": "\u0645\u062d\u0645\u062f \u0634\u0644\u0627\u0644", "name:de": "Muhammad Shalal", "name:en": "Muhammad Shalal", "name:fr": "Muhammad Shalal", "place": "village"}}, {"type": "node", "id": 2483960878, "lat": 33.5631849, "lon": 45.0896526, "tags": {"alt_name": "\u0635\u0627\u0644\u062d", "int_name": "\u015e\u0101li\u1e29, Salih", "is_in": "Iraq , \u062c\u0645\u0647\u0648\u0631\u064a\u0629 \u0627\u0644\u0639\u0631\u0627\u0642", "name": "\u0635\u0627\u0644\u062d", "name:ar": "\u0635\u0627\u0644\u062d", "name:ar1": "\u0635\u0627\u0644\u062d", "name:de": "Salih", "name:en": "Salih", "name:fr": "Salih", "place": "village"}}, {"type": "node", "id": 2483960890, "lat": 33.5202206, "lon": 45.1892577, "tags": {"alt_name": "\u0642\u0631\u064a\u0629 \u0639\u064a\u062f \u0637\u0627\u0647\u0631 \u0633\u064a\u062f", "int_name": "\u0642\u0631\u064a\u0629 \u0639\u064a\u062f \u0637\u0627\u0647\u0631 \u0633\u064a\u062f, \u0642\u0631\u064a\u0629 \u0639\u064a\u062f \u0637\u0627\u0647\u0631 \u0633\u064a\u062f", "is_in": "Iraq , \u062c\u0645\u0647\u0648\u0631\u064a\u0629 \u0627\u0644\u0639\u0631\u0627\u0642", "name": "\u0642\u0631\u064a\u0629 \u0639\u064a\u062f \u0637\u0627\u0647\u0631 \u0633\u064a\u062f", "name:ar": "\u0642\u0631\u064a\u0629 \u0639\u064a\u062f \u0637\u0627\u0647\u0631 \u0633\u064a\u062f", "name:ar1": "\u0642\u0631\u064a\u0629 \u0639\u064a\u062f \u0637\u0627\u0647\u0631 \u0633\u064a\u062f", "place": "village"}}, {"type": "node", "id": 2486347603, "lat": 33.6422267, "lon": 45.1072182, "tags": {"alt_name": "\u0645\u062d\u0645\u062f \u0627\u0644\u062d\u0633\u0648\u0646", "int_name": "Mu\u1e29ammad al \u1e28ass\u016bn, Muhammad al Hassun", "is_in": "Iraq , \u062c\u0645\u0647\u0648\u0631\u064a\u0629 \u0627\u0644\u0639\u0631\u0627\u0642", "name": "\u0645\u062d\u0645\u062f \u0627\u0644\u062d\u0633\u0648\u0646", "name:ar": "\u0645\u062d\u0645\u062f \u0627\u0644\u062d\u0633\u0648\u0646", "name:ar1": "\u0645\u062d\u0645\u062f \u0627\u0644\u062d\u0633\u0648\u0646", "name:de": "Muhammad al Hassun", "name:en": "Muhammad al Hassun", "name:fr": "Muhammad al Hassun", "place": "village"}}, {"type": "node", "id": 2486347604, "lat": 33.6419496, "lon": 45.1066924, "tags": {"alt_name": "\u0639\u064a\u0633\u0649 \u0627\u0644\u0627\u0631\u062d\u064a\u0645", "int_name": "\u0639\u064a\u0633\u0649 \u0627\u0644\u0627\u0631\u062d\u064a\u0645, \u0639\u064a\u0633\u0649 \u0627\u0644\u0627\u0631\u062d\u064a\u0645", "is_in": "Iraq , \u062c\u0645\u0647\u0648\u0631\u064a\u0629 \u0627\u0644\u0639\u0631\u0627\u0642", "name": "\u0639\u064a\u0633\u0649 \u0627\u0644\u0627\u0631\u062d\u064a\u0645", "name:ar": "\u0639\u064a\u0633\u0649 \u0627\u0644\u0627\u0631\u062d\u064a\u0645", "name:ar1": "\u0639\u064a\u0633\u0649 \u0627\u0644\u0627\u0631\u062d\u064a\u0645", "name:de": "\u0639\u064a\u0633\u0649 \u0627\u0644\u0627\u0631\u062d\u064a\u0645", "name:fr": "\u0639\u064a\u0633\u0649 \u0627\u0644\u0627\u0631\u062d\u064a\u0645", "place": "village"}}, {"type": "node", "id": 2486347717, "lat": 33.6540813, "lon": 45.0830107, "tags": {"alt_name": "\u0642\u0631\u064a\u0629 \u0627\u0644\u0645\u0639\u062f\u0627\u062a", "int_name": "Qaryat al Muidd\u0101t, \u0642\u0631\u064a\u0629 \u0627\u0644\u0645\u0639\u062f\u0627\u062a, Qaryat al Muiddat, \u0642\u0631\u064a\u0629 \u0627\u0644\u0645\u0639\u062f\u0627\u062a", "is_in": "Iraq , \u062c\u0645\u0647\u0648\u0631\u064a\u0629 \u0627\u0644\u0639\u0631\u0627\u0642", "name": "\u0642\u0631\u064a\u0629 \u0627\u0644\u0645\u0639\u062f\u0627\u062a", "name:ar": "\u0642\u0631\u064a\u0629 \u0627\u0644\u0645\u0639\u062f\u0627\u0646", "name:ar1": "\u0642\u0631\u064a\u0629 \u0627\u0644\u0645\u0639\u062f\u0627\u062a", "name:de": "Qaryat al Muiddat", "name:en": "Qaryat al Muiddan", "name:fr": "Qaryat al Muiddat", "place": "village"}}, {"type": "node", "id": 2486348012, "lat": 33.6983459, "lon": 45.0924825, "tags": {"alt_name": "\u0645\u064a\u0631 \u0625\u0633\u0645\u0627\u0639\u064a\u0644", "int_name": "M\u012br Ism\u0101\u012bl, \u0645\u064a\u0631 \u0627\u0633\u0645\u0627\u0639\u064a\u0644, Mir Ismail, \u0645\u064a\u0631 \u0627\u0633\u0645\u0627\u0639\u064a\u0644", "is_in": "Iraq , \u062c\u0645\u0647\u0648\u0631\u064a\u0629 \u0627\u0644\u0639\u0631\u0627\u0642", "name": "\u0645\u064a\u0631 \u0625\u0633\u0645\u0627\u0639\u064a\u0644", "name:ar": "\u0645\u064a\u0631 \u0625\u0633\u0645\u0627\u0639\u064a\u0644", "name:ar1": "\u0645\u064a\u0631 \u0625\u0633\u0645\u0627\u0639\u064a\u0644", "name:de": "Mir Ismail", "name:en": "Mir Ismail", "name:fr": "Mir Ismail", "place": "village"}}, {"type": "node", "id": 2486348295, "lat": 33.779819, "lon": 45.079438, "tags": {"alt_name": "\u0642\u0631\u064a\u0629 \u0625\u0645\u0627\u0645 \u0639\u0633\u0643\u0631", "int_name": "Askar, Im\u0101m Askar, Imam Askr, Qaryat Im\u0101m Askar, \u0627\u0645\u0627\u0645 \u0639\u0633\u0643\u0631, Askar, Imam Askar, Imam Askr, Qaryat Imam Askar, \u0627\u0645\u0627\u0645 \u0639\u0633\u0643\u0631", "is_in": "Iraq , \u062c\u0645\u0647\u0648\u0631\u064a\u0629 \u0627\u0644\u0639\u0631\u0627\u0642", "name": "\u0642\u0631\u064a\u0629 \u0625\u0645\u0627\u0645 \u0639\u0633\u0643\u0631", "name:ar": "\u0642\u0631\u064a\u0629 \u0625\u0645\u0627\u0645 \u0639\u0633\u0643\u0631", "name:ar1": "\u0642\u0631\u064a\u0629 \u0625\u0645\u0627\u0645 \u0639\u0633\u0643\u0631", "name:de": "Askar", "name:en": "Askar", "name:fr": "Askar", "name:ru": "\u0418\u043c\u0430\u043c-\u0410\u0441\u043a\u0430\u0440", "place": "village"}}, {"type": "node", "id": 2488515541, "lat": 33.88573, "lon": 45.084113, "tags": {"alt_name": "\u0639\u0628\u0627\u0633 \u0627\u0644\u0645\u0632\u064a\u062f", "int_name": "Abb\u0101s al Muz\u012bd, \u0639\u0628\u0627\u0633 \u0627\u0644\u0645\u0632\u064a\u062f, Abbas al Muzid, \u0639\u0628\u0627\u0633 \u0627\u0644\u0645\u0632\u064a\u062f", "is_in": "Iraq , \u062c\u0645\u0647\u0648\u0631\u064a\u0629 \u0627\u0644\u0639\u0631\u0627\u0642", "name": "\u0639\u0628\u0627\u0633 \u0627\u0644\u0645\u0632\u064a\u062f", "name:ar": "\u0639\u0628\u0627\u0633 \u0627\u0644\u0645\u0632\u064a\u062f", "name:ar1": "\u0639\u0628\u0627\u0633 \u0627\u0644\u0645\u0632\u064a\u062f", "name:de": "Abbas al Muzid", "name:en": "Abbas al Muzid", "name:fr": "Abbas al Muzid", "place": "village"}}, {"type": "node", "id": 2488515546, "lat": 33.880012, "lon": 45.085685, "tags": {"alt_name": "\u0627\u0644\u0647\u0627\u0631\u0648\u0646\u064a\u0629", "int_name": "Al H\u0101r\u016bn\u012byah, \u0627\u0644\u0647\u0627\u0631\u0648\u0646\u064a\u0629, Al Haruniyah, \u0627\u0644\u0647\u0627\u0631\u0648\u0646\u064a\u0629", "is_in": "Iraq , \u062c\u0645\u0647\u0648\u0631\u064a\u0629 \u0627\u0644\u0639\u0631\u0627\u0642", "name": "\u0627\u0644\u0647\u0627\u0631\u0648\u0646\u064a\u0629", "name:ar": "\u0627\u0644\u0647\u0627\u0631\u0648\u0646\u064a\u0629", "name:ar1": "\u0627\u0644\u0647\u0627\u0631\u0648\u0646\u064a\u0629", "name:de": "Al Haruniyah", "name:en": "Al Haruniyah", "name:fr": "Al Haruniyah", "place": "village"}}, {"type": "node", "id": 2488515569, "lat": 33.871509, "lon": 45.081663, "tags": {"alt_name": "\u0639\u0631\u0628 \u0641\u0631\u062d\u0627\u0646", "int_name": "Arab Far\u1e29\u0101n, \u0639\u0631\u0628 \u0641\u0631\u062d\u0627\u0646, Arab Farhan, \u0639\u0631\u0628 \u0641\u0631\u062d\u0627\u0646", "is_in": "Iraq , \u062c\u0645\u0647\u0648\u0631\u064a\u0629 \u0627\u0644\u0639\u0631\u0627\u0642", "name": "\u0639\u0631\u0628 \u0641\u0631\u062d\u0627\u0646", "name:ar": "\u0639\u0631\u0628 \u0641\u0631\u062d\u0627\u0646", "name:ar1": "\u0639\u0631\u0628 \u0641\u0631\u062d\u0627\u0646", "name:de": "Arab Farhan", "name:en": "Arab Farhan", "name:fr": "Arab Farhan", "place": "village"}}, {"type": "node", "id": 2488515592, "lat": 33.888243, "lon": 45.080484, "tags": {"alt_name": "\u0642\u0631\u064a\u0629 \u062e\u0644\u064a\u0641\u0629 \u0639\u0628\u062f \u0627\u0644\u0633\u0648\u0627\u062f\u064a", "int_name": "Qaryat Khal\u012bfat Abd as Saw\u0101d\u012b, \u0642\u0631\u064a\u0629 \u062e\u0644\u064a\u0641\u0629 \u0639\u0628\u062f \u0627\u0644\u0633\u0648\u0627\u062f\u064a, Qaryat Khalifat Abd as Sawadi, \u0642\u0631\u064a\u0629 \u062e\u0644\u064a\u0641\u0629 \u0639\u0628\u062f \u0627\u0644\u0633\u0648\u0627\u062f\u064a", "is_in": "Iraq , \u062c\u0645\u0647\u0648\u0631\u064a\u0629 \u0627\u0644\u0639\u0631\u0627\u0642", "name": "\u0642\u0631\u064a\u0629 \u062e\u0644\u064a\u0641\u0629 \u0639\u0628\u062f \u0627\u0644\u0633\u0648\u0627\u062f\u064a", "name:ar": "\u0642\u0631\u064a\u0629 \u062e\u0644\u064a\u0641\u0629 \u0639\u0628\u062f \u0627\u0644\u0633\u0648\u0627\u062f\u064a", "name:ar1": "\u0642\u0631\u064a\u0629 \u062e\u0644\u064a\u0641\u0629 \u0639\u0628\u062f \u0627\u0644\u0633\u0648\u0627\u062f\u064a", "name:de": "Qaryat Khalifat Abd as Sawadi", "name:en": "Qaryat Khalifat Abd as Sawadi", "name:fr": "Qaryat Khalifat Abd as Sawadi", "place": "village"}}, {"type": "node", "id": 2488515938, "lat": 33.7801492, "lon": 45.5049036, "tags": {"alt_name": "\u0623\u0628\u0627\u062f\u064a \u062f\u0627\u0648\u0648\u062f \u0633\u0644\u064a\u0645", "int_name": "Ab\u0101d\u012b D\u0101wud Sal\u012bm, Abadi Dawud Salim", "is_in": "Iraq , \u062c\u0645\u0647\u0648\u0631\u064a\u0629 \u0627\u0644\u0639\u0631\u0627\u0642", "name": "\u0623\u0628\u0627\u062f\u064a \u062f\u0627\u0648\u0648\u062f \u0633\u0644\u064a\u0645", "name:ar": "\u0623\u0628\u0627\u062f\u064a \u062f\u0627\u0648\u0648\u062f \u0633\u0644\u064a\u0645", "name:ar1": "\u0623\u0628\u0627\u062f\u064a \u062f\u0627\u0648\u0648\u062f \u0633\u0644\u064a\u0645", "name:de": "Abadi Dawud Salim", "name:en": "Abadi Dawud Salim", "name:fr": "Abadi Dawud Salim", "place": "village"}}, {"type": "node", "id": 2488515939, "lat": 33.8039068, "lon": 45.5281457, "tags": {"alt_name": "\u0622\u0628\u0627\u062f\u064a \u0645\u0644\u0627 \u062d\u0633\u0646", "int_name": "\u0100b\u0101d\u012b Mull\u0101 \u1e28asan, \u0622\u0628\u0627\u062f\u064a \u0645\u0644\u0627 \u062d\u0633\u0646, Abadi Mulla Hasan, \u0622\u0628\u0627\u062f\u064a \u0645\u0644\u0627 \u062d\u0633\u0646", "is_in": "Iraq , \u062c\u0645\u0647\u0648\u0631\u064a\u0629 \u0627\u0644\u0639\u0631\u0627\u0642", "name": "\u0622\u0628\u0627\u062f\u064a \u0645\u0644\u0627 \u062d\u0633\u0646", "name:ar": "\u0637\u0627\u0631\u0642 \u062c\u0647\u0627\u0646 \u0628\u062e\u0634", "name:ar1": "\u0622\u0628\u0627\u062f\u064a \u0645\u0644\u0627 \u062d\u0633\u0646", "name:de": "Tarek Jahan Bakhsh", "name:en": "Tarek Jahan Bakhsh", "name:fr": "Tarek Jahan Bakhsh", "name:ku": "Tarek Jahan Bakhsh", "place": "village"}}, {"type": "node", "id": 2488515940, "lat": 33.8034836, "lon": 45.5282202, "tags": {"alt_name": "\u0623\u0628\u0627\u062f\u064a \u0645\u0644\u0627\u0647 \u062d\u0633\u0646", "int_name": "Tarek Jahan Bakhsh", "is_in": "Iraq , \u062c\u0645\u0647\u0648\u0631\u064a\u0629 \u0627\u0644\u0639\u0631\u0627\u0642", "name": "\u0623\u0628\u0627\u062f\u064a \u0645\u0644\u0627\u0647 \u062d\u0633\u0646", "name:ar": "\u0637\u0627\u0631\u0642 \u062c\u0647\u0627\u0646 \u0628\u062e\u0634", "name:ar1": "\u0623\u0628\u0627\u062f\u064a \u0645\u0644\u0627\u0647 \u062d\u0633\u0646", "name:de": "Tarek Jahan Bakhsh", "name:en": "Tarek Jahan Bakhsh", "name:fr": "Tarek Jahan Bakhsh", "place": "village"}}, {"type": "node", "id": 2488515941, "lat": 33.808333, "lon": 45.513056, "tags": {"alt_name": "\u0639\u0644\u064a \u0622\u063a\u0627", "int_name": "Al\u012b Aghah, Ali Aghah", "is_in": "Iraq , \u062c\u0645\u0647\u0648\u0631\u064a\u0629 \u0627\u0644\u0639\u0631\u0627\u0642", "name": "\u0639\u0644\u064a \u0622\u063a\u0627", "name:ar": "\u0639\u0644\u064a \u0622\u063a\u0627", "name:ar1": "\u0639\u0644\u064a \u0622\u063a\u0627", "name:de": "Ali Aghah", "name:en": "Ali Aghah", "name:fr": "Ali Aghah", "place": "village"}}, {"type": "node", "id": 2488515942, "lat": 33.806851, "lon": 45.515057, "tags": {"alt_name": "\u0639\u0644\u064a \u0622\u0642\u0627 \u0645\u064a\u062a\u0648\u0631", "int_name": "Al\u012b \u0100q\u0101 Mayt\u016br, \u0639\u0644\u064a \u0622\u0642\u0627 \u0645\u064a\u062a\u0648\u0631, Ali Aqa Maytur, \u0639\u0644\u064a \u0622\u0642\u0627 \u0645\u064a\u062a\u0648\u0631", "is_in": "Iraq , \u062c\u0645\u0647\u0648\u0631\u064a\u0629 \u0627\u0644\u0639\u0631\u0627\u0642", "name": "\u0639\u0644\u064a \u0622\u0642\u0627 \u0645\u064a\u062a\u0648\u0631", "name:ar": "\u0639\u0644\u064a \u0622\u0642\u0627 \u0645\u064a\u062a\u0648\u0631", "name:ar1": "\u0639\u0644\u064a \u0622\u0642\u0627 \u0645\u064a\u062a\u0648\u0631", "name:de": "Ali Aqa Maytur", "name:en": "Ali Aqa Maytur", "name:fr": "Ali Aqa Maytur", "place": "village"}}, {"type": "node", "id": 2488515943, "lat": 33.782314, "lon": 45.539892, "tags": {"alt_name": "\u0639\u0644\u064a \u0646\u0627\u064a\u0631", "int_name": "Al\u012b N\u0101yir, \u0639\u0644\u064a \u0646\u0627\u064a\u0631, Ali Nayir, \u0639\u0644\u064a \u0646\u0627\u064a\u0631", "is_in": "Iraq , \u062c\u0645\u0647\u0648\u0631\u064a\u0629 \u0627\u0644\u0639\u0631\u0627\u0642", "name": "\u0639\u0644\u064a \u0646\u0627\u064a\u0631", "name:ar": "\u0639\u0644\u064a \u0646\u0627\u064a\u0631", "name:ar1": "\u0639\u0644\u064a \u0646\u0627\u064a\u0631", "name:de": "Ali Nayir", "name:en": "Ali Nayir", "name:fr": "Ali Nayir", "place": "village"}}, {"type": "node", "id": 2488515951, "lat": 33.769243, "lon": 45.526403, "tags": {"alt_name": "\u0628\u0627\u0631\u064a", "int_name": "Sheikh Azad Hamid Shafi", "is_in": "Iraq , \u062c\u0645\u0647\u0648\u0631\u064a\u0629 \u0627\u0644\u0639\u0631\u0627\u0642", "name": "\u0628\u0627\u0631\u064a", "name:ar": "\u0627\u0644\u0634\u064a\u062e \u0627\u0632\u0627\u062f \u062d\u0645\u064a\u062f \u0634\u0641\u064a", "name:ar1": "\u0628\u0627\u0631\u064a", "name:de": "Sheikh Azad Hamid Shafi", "name:en": "Sheikh Azad Hamid Shafi", "name:fr": "Sheikh Azad Hamid Shafi", "name:ku": "\u0634\u0628\u062e \u0626\u0627\u0632\u0627\u062f \u062d\u0645\u064a\u062f \u0634\u0641\u064a", "place": "village"}}, {"type": "node", "id": 2488515961, "lat": 33.810062, "lon": 45.491015, "tags": {"alt_name": "\u062c\u0648 \u0645\u0634\u064a\u0631", "int_name": "Cham Ch\u012br, Jaww Mush\u012br, \u062c\u0648 \u0645\u0634\u064a\u0631, Cham Chir, Jaww Mushir, \u062c\u0648 \u0645\u0634\u064a\u0631", "is_in": "Iraq , \u062c\u0645\u0647\u0648\u0631\u064a\u0629 \u0627\u0644\u0639\u0631\u0627\u0642", "name": "\u062c\u0648 \u0645\u0634\u064a\u0631", "name:ar": "\u0633\u064a\u0641 \u0627\u0644\u0644\u0647", "name:ar1": "\u062c\u0648 \u0645\u0634\u064a\u0631", "name:de": "\u0633\u064a\u0641 \u0627\u0644\u0644\u0647", "name:en": "\u0633\u064a\u0641 \u0627\u0644\u0644\u0647", "name:fr": "\u0633\u0628\u0641 \u0627\u0644\u0644\u0647", "place": "village"}}, {"type": "node", "id": 2488515966, "lat": 33.777598, "lon": 45.519997, "tags": {"alt_name": "\u062f\u0627\u0631\u064a \u0625\u0633\u0645\u0627\u0639\u064a\u0644", "int_name": "D\u0101r\u012b Ism\u0101\u012bl, \u062f\u0627\u0631\u064a \u0627\u0633\u0645\u0627\u0639\u064a\u0644, Dari Ismail, \u062f\u0627\u0631\u064a \u0627\u0633\u0645\u0627\u0639\u064a\u0644", "is_in": "Iraq , \u062c\u0645\u0647\u0648\u0631\u064a\u0629 \u0627\u0644\u0639\u0631\u0627\u0642", "name": "\u062f\u0627\u0631\u064a \u0625\u0633\u0645\u0627\u0639\u064a\u0644", "name:ar": "\u062f\u0627\u0631\u064a \u0625\u0633\u0645\u0627\u0639\u064a\u0644", "name:ar1": "\u062f\u0627\u0631\u064a \u0625\u0633\u0645\u0627\u0639\u064a\u0644", "name:de": "Dari Ismail", "name:en": "Dari Ismail", "name:fr": "Dari Ismail", "place": "village"}}, {"type": "node", "id": 2488515973, "lat": 33.7996141, "lon": 45.534784, "tags": {"alt_name": "\u0641\u0631\u062d\u0627\u0646", "int_name": "Far\u1e29\u0101n, \u0641\u0631\u062d\u0627\u0646, Farhan, \u0641\u0631\u062d\u0627\u0646", "is_in": "Iraq , \u062c\u0645\u0647\u0648\u0631\u064a\u0629 \u0627\u0644\u0639\u0631\u0627\u0642", "name": "\u0641\u0631\u062d\u0627\u0646", "name:ar": "\u0641\u0631\u062d\u0627\u0646", "name:ar1": "\u0641\u0631\u062d\u0627\u0646", "name:de": "Farhan", "name:en": "Farhan", "name:fr": "Farhan", "place": "village"}}, {"type": "node", "id": 2488515975, "lat": 33.786889, "lon": 45.516605, "tags": {"alt_name": "\u062d\u0627\u0643\u0648\u0631", "int_name": "\u1e28\u0101k\u016br, \u062d\u0627\u0643\u0648\u0631, Hakur, \u062d\u0627\u0643\u0648\u0631", "is_in": "Iraq , \u062c\u0645\u0647\u0648\u0631\u064a\u0629 \u0627\u0644\u0639\u0631\u0627\u0642", "name": "\u062d\u0627\u0643\u0648\u0631", "name:ar": "\u062d\u0627\u0643\u0648\u0631", "name:ar1": "\u062d\u0627\u0643\u0648\u0631", "name:de": "Hakur", "name:en": "Hakur", "name:fr": "Hakur", "place": "village"}}, {"type": "node", "id": 2488515976, "lat": 33.782967, "lon": 45.430944, "tags": {"alt_name": "\u062d\u0633\u064a\u0646 \u0627\u0644\u0639\u0628\u0627\u0633", "int_name": "\u1e28usayn al Abb\u0101s, \u062d\u0633\u064a\u0646 \u0627\u0644\u0639\u0628\u0627\u0633, Husayn al Abbas, \u062d\u0633\u064a\u0646 \u0627\u0644\u0639\u0628\u0627\u0633", "is_in": "Iraq , \u062c\u0645\u0647\u0648\u0631\u064a\u0629 \u0627\u0644\u0639\u0631\u0627\u0642", "name": "\u062d\u0633\u064a\u0646 \u0627\u0644\u0639\u0628\u0627\u0633", "name:ar": "\u062d\u0633\u064a\u0646 \u0627\u0644\u0639\u0628\u0627\u0633", "name:ar1": "\u062d\u0633\u064a\u0646 \u0627\u0644\u0639\u0628\u0627\u0633", "name:de": "Husayn al Abbas", "name:en": "Husayn al Abbas", "name:fr": "Husayn al Abbas", "place": "village"}}, {"type": "node", "id": 2488515979, "lat": 33.781059, "lon": 45.527639, "tags": {"alt_name": "\u062c\u0645\u0639\u0629 \u062d\u0633\u064a\u0646", "int_name": "Jamat \u1e28usayn, \u062c\u0645\u0639\u0629 \u062d\u0633\u064a\u0646, Jamat Husayn, \u062c\u0645\u0639\u0629 \u062d\u0633\u064a\u0646", "is_in": "Iraq , \u062c\u0645\u0647\u0648\u0631\u064a\u0629 \u0627\u0644\u0639\u0631\u0627\u0642", "name": "\u062c\u0645\u0639\u0629 \u062d\u0633\u064a\u0646", "name:ar": "\u062c\u0645\u0639\u0629 \u062d\u0633\u064a\u0646", "name:ar1": "\u062c\u0645\u0639\u0629 \u062d\u0633\u064a\u0646", "name:de": "Jamat Husayn", "name:en": "Jamat Husayn", "name:fr": "Jamat Husayn", "place": "village"}}, {"type": "node", "id": 2488515980, "lat": 33.812675, "lon": 45.4955912, "tags": {"alt_name": "\u062c\u0645 \u0634\u064a\u0631", "int_name": "Jamm Sh\u012br, \u062c\u0645 \u0634\u064a\u0631, Jamm Shir, \u062c\u0645 \u0634\u064a\u0631", "is_in": "Iraq , \u062c\u0645\u0647\u0648\u0631\u064a\u0629 \u0627\u0644\u0639\u0631\u0627\u0642", "name": "\u062c\u0645 \u0634\u064a\u0631", "name:ar": "\u0641\u0631\u0643\u0629", "name:ar1": "\u062c\u0645 \u0634\u064a\u0631", "name:de": "\u062e\u0644 \u0633\u0645\u0627\u064a\u0644", "name:en": "\u062e\u0644 \u0633\u0645\u0627\u064a\u0644", "name:fr": "\u062e\u0644 \u0633\u0645\u0627\u064a\u0644", "place": "village"}}, {"type": "node", "id": 2488515981, "lat": 33.795517, "lon": 45.527415, "tags": {"alt_name": "\u062e\u0644\u0641 \u062d\u0633\u0646", "int_name": "Khalaf \u1e28asan, \u062e\u0644\u0641 \u062d\u0633\u0646, Khalaf Hasan, \u062e\u0644\u0641 \u062d\u0633\u0646", "is_in": "Iraq , \u062c\u0645\u0647\u0648\u0631\u064a\u0629 \u0627\u0644\u0639\u0631\u0627\u0642", "name": "\u062e\u0644\u0641 \u062d\u0633\u0646", "name:ar": "\u062e\u0644\u0641 \u062d\u0633\u0646", "name:ar1": "\u062e\u0644\u0641 \u062d\u0633\u0646", "name:de": "Khalaf Hasan", "name:en": "Khalaf Hasan", "name:fr": "Khalaf Hasan", "place": "village"}}, {"type": "node", "id": 2488515982, "lat": 33.794301, "lon": 45.539199, "tags": {"alt_name": "\u062e\u0644\u0641", "int_name": "Khalaf, \u062e\u0644\u0641, Khalaf, \u062e\u0644\u0641", "is_in": "Iraq , \u062c\u0645\u0647\u0648\u0631\u064a\u0629 \u0627\u0644\u0639\u0631\u0627\u0642", "name": "\u062e\u0644\u0641", "name:ar": "\u062e\u0644\u0641", "name:ar1": "\u062e\u0644\u0641", "name:de": "Khalaf", "name:en": "Khalaf", "name:fr": "Khalaf", "place": "village"}}, {"type": "node", "id": 2488515983, "lat": 33.75957, "lon": 45.459022, "tags": {"alt_name": "\u0645\u062c\u0645\u0639 \u0639\u064a\u0646 \u0627\u0644\u0633\u0628\u0639", "int_name": "Majma Ayn as Sab, \u0645\u062c\u0645\u0639 \u0639\u064a\u0646 \u0627\u0644\u0633\u0628\u0639, Majma Ayn as Sab, \u0645\u062c\u0645\u0639 \u0639\u064a\u0646 \u0627\u0644\u0633\u0628\u0639", "is_in": "Iraq , \u062c\u0645\u0647\u0648\u0631\u064a\u0629 \u0627\u0644\u0639\u0631\u0627\u0642", "name": "\u0645\u062c\u0645\u0639 \u0639\u064a\u0646 \u0627\u0644\u0633\u0628\u0639", "name:ar": "\u0645\u062c\u0645\u0639 \u0639\u064a\u0646 \u0627\u0644\u0633\u0628\u0639", "name:ar1": "\u0645\u062c\u0645\u0639 \u0639\u064a\u0646 \u0627\u0644\u0633\u0628\u0639", "name:de": "Majma Ayn as Sab", "name:en": "Majma Ayn as Sab", "name:fr": "Majma Ayn as Sab", "place": "village"}}, {"type": "node", "id": 2488515984, "lat": 33.809531, "lon": 45.514103, "tags": {"alt_name": "\u0645\u0631\u0627\u062f \u062e\u0627\u0646", "int_name": "Mar\u0101d Kh\u0101n, \u0645\u0631\u0627\u062f \u062e\u0627\u0646, Marad Khan, \u0645\u0631\u0627\u062f \u062e\u0627\u0646", "is_in": "Iraq , \u062c\u0645\u0647\u0648\u0631\u064a\u0629 \u0627\u0644\u0639\u0631\u0627\u0642", "name": "\u0645\u0631\u0627\u062f \u062e\u0627\u0646", "name:ar": "\u0645\u0631\u0627\u062f \u062e\u0627\u0646", "name:ar1": "\u0645\u0631\u0627\u062f \u062e\u0627\u0646", "name:de": "Marad Khan", "name:en": "Marad Khan", "name:fr": "Marad Khan", "place": "village"}}, {"type": "node", "id": 2488515985, "lat": 33.82066, "lon": 45.475206, "tags": {"alt_name": "\u0645\u064a\u0631\u0629", "int_name": "M\u012brah, \u0645\u064a\u0631\u0629, Mirah, \u0645\u064a\u0631\u0629", "is_in": "Iraq , \u062c\u0645\u0647\u0648\u0631\u064a\u0629 \u0627\u0644\u0639\u0631\u0627\u0642", "name": "\u0645\u064a\u0631\u0629", "name:ar": "\u0643\u062c\u064a\u0646\u0647", "name:ar1": "\u0645\u064a\u0631\u0629", "name:de": "\u062e\u0644 \u0633\u0645\u0627\u064a\u0644", "name:en": "\u062e\u0644 \u0633\u0645\u0627\u064a\u0644", "name:fr": "\u062e\u0644 \u0633\u0645\u0627\u064a\u0644", "name:ku": "\u0645\u0631\u0627\u0648\u064a\u0633", "place": "village"}}, {"type": "node", "id": 2488515986, "lat": 33.817068, "lon": 45.480858, "tags": {"alt_name": "\u0645\u062d\u0645\u062f \u062d\u0633\u064a\u0646", "int_name": "Mu\u1e29ammad \u1e28usayn, \u0645\u062d\u0645\u062f \u062d\u0633\u064a\u0646, Muhammad Husayn, \u0645\u062d\u0645\u062f \u062d\u0633\u064a\u0646", "is_in": "Iraq , \u062c\u0645\u0647\u0648\u0631\u064a\u0629 \u0627\u0644\u0639\u0631\u0627\u0642", "name": "\u0645\u062d\u0645\u062f \u062d\u0633\u064a\u0646", "name:ar": "\u062e\u0644 \u0633\u0645\u0627\u064a\u0644", "name:ar1": "\u0645\u062d\u0645\u062f \u062d\u0633\u064a\u0646", "name:de": "\u062e\u0644 \u0633\u0645\u0627\u064a\u0644", "name:en": "\u062e\u0644 \u0633\u0645\u0627\u064a\u0644", "name:fr": "\u062e\u0644 \u0633\u0645\u0627\u064a\u0644", "name:ku": "\u062e\u0644 \u0633\u0645\u0627\u064a\u0644", "place": "village"}}, {"type": "node", "id": 2488515987, "lat": 33.832173, "lon": 45.443149, "tags": {"alt_name": "\u0645\u0635\u0637\u0641\u0649 \u0628\u064a\u0643", "int_name": "Mu\u015f\u0163af\u00e1, Mu\u015f\u0163af\u00e1 B\u012bk, Mustafah Beg, \u0645\u0635\u0637\u0641\u0649 \u0628\u064a\u0643, Mustafa, Mustafa Bik, Mustafah Beg, \u0645\u0635\u0637\u0641\u0649 \u0628\u064a\u0643", "is_in": "Iraq , \u062c\u0645\u0647\u0648\u0631\u064a\u0629 \u0627\u0644\u0639\u0631\u0627\u0642", "name": "\u0645\u0635\u0637\u0641\u0649 \u0628\u064a\u0643", "name:ar": "\u0645\u0635\u0637\u0641\u0649 \u0628\u064a\u0643", "name:ar1": "\u0645\u0635\u0637\u0641\u0649 \u0628\u064a\u0643", "name:de": "Mustafa", "name:en": "Mustafa", "name:fr": "Mustafa", "place": "village"}}, {"type": "node", "id": 2488515988, "lat": 33.785847, "lon": 45.49799, "tags": {"alt_name": "\u0642\u0645\u0631", "int_name": "Qamar, \u0642\u0645\u0631, Qamar, \u0642\u0645\u0631", "is_in": "Iraq , \u062c\u0645\u0647\u0648\u0631\u064a\u0629 \u0627\u0644\u0639\u0631\u0627\u0642", "name": "\u0642\u0645\u0631", "name:ar": "\u0642\u0645\u0631", "name:ar1": "\u0642\u0645\u0631", "name:de": "Qamar", "name:en": "Qamar", "name:fr": "Qamar", "place": "village"}}, {"type": "node", "id": 2488515989, "lat": 33.815025, "lon": 45.423819, "tags": {"alt_name": "\u0642\u0631\u064a\u0629 \u0628\u0637\u0627\u062d", "int_name": "Qaryat Ba\u0163\u0163\u0101\u1e29, \u0642\u0631\u064a\u0629 \u0628\u0637\u0627\u062d, Qaryat Battah, \u0642\u0631\u064a\u0629 \u0628\u0637\u0627\u062d", "is_in": "Iraq , \u062c\u0645\u0647\u0648\u0631\u064a\u0629 \u0627\u0644\u0639\u0631\u0627\u0642", "name": "\u0642\u0631\u064a\u0629 \u0628\u0637\u0627\u062d", "name:ar": "\u0642\u0631\u064a\u0629 \u0628\u0637\u0627\u062d", "name:ar1": "\u0642\u0631\u064a\u0629 \u0628\u0637\u0627\u062d", "name:de": "Qaryat Battah", "name:en": "Qaryat Battah", "name:fr": "Qaryat Battah", "place": "village"}}, {"type": "node", "id": 2488515990, "lat": 33.7607039, "lon": 45.4572169, "tags": {"alt_name": "\u0642\u0631\u064a\u0629 \u062d\u064a\u0646\u0648\u0627\u0632\u0629", "int_name": "Qaryat \u1e28aynuw\u0101zah, \u0642\u0631\u064a\u0629 \u062d\u064a\u0646\u0648\u0627\u0632\u0629, Qaryat Haynuwazah, \u0642\u0631\u064a\u0629 \u062d\u064a\u0646\u0648\u0627\u0632\u0629", "is_in": "Iraq , \u062c\u0645\u0647\u0648\u0631\u064a\u0629 \u0627\u0644\u0639\u0631\u0627\u0642", "name": "\u0642\u0631\u064a\u0629 \u062d\u064a\u0646\u0648\u0627\u0632\u0629", "name:ar": "\u0642\u0631\u064a\u0629 \u062d\u064a\u0646\u0648\u0627\u0632\u0629", "name:ar1": "\u0642\u0631\u064a\u0629 \u062d\u064a\u0646\u0648\u0627\u0632\u0629", "name:de": "Qaryat Haynuwazah", "name:en": "Qaryat Haynuwazah", "name:fr": "Qaryat Haynuwazah", "place": "village"}}, {"type": "node", "id": 2488515991, "lat": 33.7604768, "lon": 45.4572417, "tags": {"alt_name": "\u0642\u0631\u064a\u0629 \u062d\u062a\u064a\u0648\u0627\u0632\u0629", "int_name": "Qaryat \u1e28utayw\u0101zah, \u0642\u0631\u064a\u0629 \u062d\u062a\u064a\u0648\u0627\u0632\u0629, Qaryat Hutaywazah, \u0642\u0631\u064a\u0629 \u062d\u062a\u064a\u0648\u0627\u0632\u0629", "is_in": "Iraq , \u062c\u0645\u0647\u0648\u0631\u064a\u0629 \u0627\u0644\u0639\u0631\u0627\u0642", "name": "\u0642\u0631\u064a\u0629 \u062d\u062a\u064a\u0648\u0627\u0632\u0629", "name:ar": "\u0642\u0631\u064a\u0629 \u062d\u062a\u064a\u0648\u0627\u0632\u0629", "name:ar1": "\u0642\u0631\u064a\u0629 \u062d\u062a\u064a\u0648\u0627\u0632\u0629", "name:de": "Qaryat Hutaywazah", "name:en": "Qaryat Hutaywazah", "name:fr": "Qaryat Hutaywazah", "place": "village"}}, {"type": "node", "id": 2488515992, "lat": 33.817809, "lon": 45.464517, "tags": {"alt_name": "\u0631\u0634\u064a\u062f \u0623\u0632\u0643\u0629", "int_name": "Rash\u012bd Azgah, Rash\u012bd Azkah, \u0631\u0634\u064a\u062f \u0627\u0632\u0643\u0629, \u0631\u0634\u064a\u062f \u0627\u0632\u06af\u0629, Rashid Azgah, Rashid Azkah, \u0631\u0634\u064a\u062f \u0627\u0632\u0643\u0629, \u0631\u0634\u064a\u062f \u0627\u0632\u06af\u0629", "is_in": "Iraq , \u062c\u0645\u0647\u0648\u0631\u064a\u0629 \u0627\u0644\u0639\u0631\u0627\u0642", "name": "\u0631\u0634\u064a\u062f \u0623\u0632\u0643\u0629", "name:ar": "\u0631\u0634\u064a\u062f \u0623\u0632\u0643\u0629", "name:ar1": "\u0631\u0634\u064a\u062f \u0623\u0632\u0643\u0629", "name:de": "Rashid Azgah", "name:en": "Rashid Azgah", "name:fr": "Rashid Azgah", "place": "village"}}, {"type": "node", "id": 2488515993, "lat": 33.747925, "lon": 45.473682, "tags": {"alt_name": "\u0631\u0627\u0634\u062f \u0627\u0644\u064a\u0648\u0633\u0641", "int_name": "R\u0101shid al Y\u016bsuf, \u0631\u0627\u0634\u062f \u0627\u0644\u064a\u0648\u0633\u0641, Rashid al Yusuf, \u0631\u0627\u0634\u062f \u0627\u0644\u064a\u0648\u0633\u0641", "is_in": "Iraq , \u062c\u0645\u0647\u0648\u0631\u064a\u0629 \u0627\u0644\u0639\u0631\u0627\u0642", "name": "\u0631\u0627\u0634\u062f \u0627\u0644\u064a\u0648\u0633\u0641", "name:ar": "\u0631\u0627\u0634\u062f \u0627\u0644\u064a\u0648\u0633\u0641", "name:ar1": "\u0631\u0627\u0634\u062f \u0627\u0644\u064a\u0648\u0633\u0641", "name:de": "Rashid al Yusuf", "name:en": "Rashid al Yusuf", "name:fr": "Rashid al Yusuf", "place": "village"}}, {"type": "node", "id": 2488515995, "lat": 33.822374, "lon": 45.458435, "tags": {"alt_name": "\u0634\u0627\u0645\u0627\u0631 \u0627\u0644\u062c\u0646\u0648\u0628\u064a", "int_name": "Sh\u0101m\u0101r al Jan\u016bb\u012b, \u0634\u0627\u0645\u0627\u0631 \u0627\u0644\u062c\u0646\u0648\u0628\u064a, Shamar al Janubi, \u0634\u0627\u0645\u0627\u0631 \u0627\u0644\u062c\u0646\u0648\u0628\u064a", "is_in": "Iraq , \u062c\u0645\u0647\u0648\u0631\u064a\u0629 \u0627\u0644\u0639\u0631\u0627\u0642", "name": "\u0634\u0627\u0645\u0627\u0631 \u0627\u0644\u062c\u0646\u0648\u0628\u064a", "name:ar": "\u0634\u0627\u0645\u0627\u0631 \u0627\u0644\u062c\u0646\u0648\u0628\u064a", "name:ar1": "\u0634\u0627\u0645\u0627\u0631 \u0627\u0644\u062c\u0646\u0648\u0628\u064a", "name:de": "Shamar al Janubi", "name:en": "Shamar al Janubi", "name:fr": "Shamar al Janubi", "place": "village"}}, {"type": "node", "id": 2488515996, "lat": 33.838369, "lon": 45.438221, "tags": {"alt_name": "\u0634\u0627\u0645\u0627\u0631 \u0627\u0644\u0648\u0633\u0637\u0649", "int_name": "Sh\u0101m\u0101r al Wus\u0163\u00e1, \u0634\u0627\u0645\u0627\u0631 \u0627\u0644\u0648\u0633\u0637\u0649, Shamar al Wusta, \u0634\u0627\u0645\u0627\u0631 \u0627\u0644\u0648\u0633\u0637\u0649", "is_in": "Iraq , \u062c\u0645\u0647\u0648\u0631\u064a\u0629 \u0627\u0644\u0639\u0631\u0627\u0642", "name": "\u0634\u0627\u0645\u0627\u0631 \u0627\u0644\u0648\u0633\u0637\u0649", "name:ar": "\u0634\u0627\u0645\u0627\u0631 \u0627\u0644\u0648\u0633\u0637\u0649", "name:ar1": "\u0634\u0627\u0645\u0627\u0631 \u0627\u0644\u0648\u0633\u0637\u0649", "name:de": "Shamar al Wusta", "name:en": "Shamar al Wusta", "name:fr": "Shamar al Wusta", "place": "village"}}, {"type": "node", "id": 2488515999, "lat": 33.766667, "lon": 45.466667, "tags": {"alt_name": "\u0633\u0646\u0643\u0631", "int_name": "Sungar, Sungar", "is_in": "Iraq , \u062c\u0645\u0647\u0648\u0631\u064a\u0629 \u0627\u0644\u0639\u0631\u0627\u0642", "name": "\u0633\u0646\u0643\u0631", "name:ar": "\u0633\u0646\u0643\u0631", "name:ar1": "\u0633\u0646\u0643\u0631", "name:de": "Sungar", "name:en": "Sungar", "name:fr": "Sungar", "place": "village"}}, {"type": "node", "id": 2488516001, "lat": 33.7797312, "lon": 45.5047391, "tags": {"alt_name": "\u0627\u0628\u0627\u062f\u064a \u062f\u0627\u0648\u062f \u0633\u0644\u064a\u0645", "int_name": "\u0627\u0628\u0627\u062f\u064a \u062f\u0627\u0648\u062f \u0633\u0644\u064a\u0645, \u0627\u0628\u0627\u062f\u064a \u062f\u0627\u0648\u062f \u0633\u0644\u064a\u0645", "is_in": "Iraq , \u062c\u0645\u0647\u0648\u0631\u064a\u0629 \u0627\u0644\u0639\u0631\u0627\u0642", "name": "\u0627\u0628\u0627\u062f\u064a \u062f\u0627\u0648\u062f \u0633\u0644\u064a\u0645", "name:ar": "\u0627\u0628\u0627\u062f\u064a \u062f\u0627\u0648\u062f \u0633\u0644\u064a\u0645", "name:ar1": "\u0627\u0628\u0627\u062f\u064a \u062f\u0627\u0648\u062f \u0633\u0644\u064a\u0645", "name:de": "\u0627\u0628\u0627\u062f\u064a \u062f\u0627\u0648\u062f \u0633\u0644\u064a\u0645", "name:en": "\u0627\u0628\u0627\u062f\u064a \u062f\u0627\u0648\u062f \u0633\u0644\u064a\u0645", "name:fr": "\u0627\u0628\u0627\u062f\u064a \u062f\u0627\u0648\u062f \u0633\u0644\u064a\u0645", "place": "village"}}, {"type": "node", "id": 2488516654, "lat": 33.7188332, "lon": 45.4976688, "tags": {"alt_name": "\u0639\u064a\u0646 \u0646\u062f\u0627\u0631", "int_name": "Ayn Nadd\u0101r, Ayn Naddar", "is_in": "Iraq , \u062c\u0645\u0647\u0648\u0631\u064a\u0629 \u0627\u0644\u0639\u0631\u0627\u0642", "name": "\u0639\u064a\u0646 \u0646\u062f\u0627\u0631", "name:ar": "\u0639\u064a\u0646 \u0646\u062f\u0627\u0631", "name:ar1": "\u0639\u064a\u0646 \u0646\u062f\u0627\u0631", "name:de": "Ayn Naddar", "name:en": "Ayn Naddar", "name:fr": "Ayn Naddar", "place": "village"}}, {"type": "node", "id": 2488516671, "lat": 33.7734904, "lon": 45.5686152, "tags": {"alt_name": "\u062f\u0627\u0648\u0648\u062f \u0628\u0627\u0642\u0631", "int_name": "D\u0101wud B\u0101qir, Dawud Baqir", "is_in": "Iraq , \u062c\u0645\u0647\u0648\u0631\u064a\u0629 \u0627\u0644\u0639\u0631\u0627\u0642", "name": "\u062f\u0627\u0648\u0648\u062f \u0628\u0627\u0642\u0631", "name:ar": "\u062f\u0627\u0648\u0648\u062f \u0628\u0627\u0642\u0631", "name:ar1": "\u062f\u0627\u0648\u0648\u062f \u0628\u0627\u0642\u0631", "name:de": "Dawud Baqir", "name:en": "Dawud Baqir", "name:fr": "Dawud Baqir", "place": "village"}}, {"type": "node", "id": 2488516677, "lat": 33.7247617, "lon": 45.5943404, "tags": {"alt_name": "\u062d\u0648\u0627\u0633\u064a", "int_name": "\u1e28aw\u0101s\u012b, \u062d\u0648\u0627\u0633\u064a, Hawasi, \u062d\u0648\u0627\u0633\u064a", "is_in": "Iraq , \u062c\u0645\u0647\u0648\u0631\u064a\u0629 \u0627\u0644\u0639\u0631\u0627\u0642", "name": "\u062d\u0648\u0627\u0633\u064a", "name:ar": "\u0647\u0648\u0627\u0633\u064a\u0629", "name:ar1": "\u062d\u0648\u0627\u0633\u064a", "name:de": "Hawasi", "name:en": "Hawasia", "name:fr": "Hawasi", "place": "village"}}, {"type": "node", "id": 2488516688, "lat": 33.708646, "lon": 45.498934, "tags": {"alt_name": "\u0625\u0645\u0627\u0645 \u0639\u0628\u0627\u0633", "int_name": "Im\u0101m Abb\u0101s, \u0627\u0645\u0627\u0645 \u0639\u0628\u0627\u0633, Imam Abbas, \u0627\u0645\u0627\u0645 \u0639\u0628\u0627\u0633", "is_in": "Iraq , \u062c\u0645\u0647\u0648\u0631\u064a\u0629 \u0627\u0644\u0639\u0631\u0627\u0642", "name": "\u0625\u0645\u0627\u0645 \u0639\u0628\u0627\u0633", "name:ar": "\u0625\u0645\u0627\u0645 \u0639\u0628\u0627\u0633", "name:ar1": "\u0625\u0645\u0627\u0645 \u0639\u0628\u0627\u0633", "name:de": "Imam Abbas", "name:en": "Imam Abbas", "name:fr": "Imam Abbas", "place": "village"}}, {"type": "node", "id": 2488516701, "lat": 33.719006, "lon": 45.454816, "tags": {"alt_name": "\u062c\u0627\u0631\u064a", "int_name": "J\u0101r\u012b, \u062c\u0627\u0631\u064a, Jari, \u062c\u0627\u0631\u064a", "is_in": "Iraq , \u062c\u0645\u0647\u0648\u0631\u064a\u0629 \u0627\u0644\u0639\u0631\u0627\u0642", "name": "\u062c\u0627\u0631\u064a", "name:ar": "\u062c\u0627\u0631\u064a", "name:ar1": "\u062c\u0627\u0631\u064a", "name:de": "Jari", "name:en": "Jari", "name:fr": "Jari", "place": "village"}}, {"type": "node", "id": 2488516712, "lat": 33.716667, "lon": 45.416667, "tags": {"alt_name": "\u0645\u062d\u0645\u0648\u062f", "int_name": "Ma\u1e29m\u016bd, Mahmud", "is_in": "Iraq , \u062c\u0645\u0647\u0648\u0631\u064a\u0629 \u0627\u0644\u0639\u0631\u0627\u0642", "name": "\u0645\u062d\u0645\u0648\u062f", "name:ar": "\u0645\u062d\u0645\u0648\u062f", "name:ar1": "\u0645\u062d\u0645\u0648\u062f", "name:de": "Mahmud", "name:en": "Mahmud", "name:fr": "Mahmud", "place": "village"}}, {"type": "node", "id": 2488516716, "lat": 33.7464993, "lon": 45.5522421, "tags": {"alt_name:ckb": "\u062f\u0648\u0648\u0634\u06ce\u062e", "capital": "7", "ele": "104", "int_name": "Mandal\u012b, Mendali, Mend\u00e9li, \u0645\u0646\u062f\u0644\u064a, Mandali, Mendali, Mendeli, \u0645\u0646\u062f\u0644\u064a", "is_in": "Iraq , \u062c\u0645\u0647\u0648\u0631\u064a\u0629 \u0627\u0644\u0639\u0631\u0627\u0642", "name": "\u0645\u0646\u062f\u0644\u064a", "name:ar": "\u0645\u0646\u062f\u0644\u064a", "name:arz": "\u0645\u0646\u062f\u0644\u0649", "name:ceb": "Mandal\u012b", "name:ckb": "\u0645\u06d5\u0646\u062f\u06d5\u0644\u06cc", "name:de": "Mandali", "name:en": "Mandali", "name:fr": "Mandali", "name:ku": "Mendel\u00ee", "name:nn": "Mandali", "name:no": "Mandali", "name:pt": "Mandali", "name:ru": "\u041c\u0430\u043d\u0434\u0430\u043b\u0438", "name:sv": "Mandali", "name:uk": "\u041c\u0430\u043d\u0434\u0430\u043b\u0456", "place": "town", "wikidata": "Q1382440", "wikipedia": "ar:\u0645\u0646\u062f\u0644\u064a (\u0645\u062f\u064a\u0646\u0629)"}}, {"type": "node", "id": 2488516717, "lat": 33.709729, "lon": 45.556764, "tags": {"alt_name": "\u0645\u064a\u062f\u0627\u0646 \u0645\u062d\u0628\u0633", "int_name": "Mayd\u0101n Ma\u1e29bas, Mid\u0101n, \u0645\u064a\u062f\u0627\u0646 \u0645\u062d\u0628\u0633, Maydan Mahbas, Midan, \u0645\u064a\u062f\u0627\u0646 \u0645\u062d\u0628\u0633", "is_in": "Iraq , \u062c\u0645\u0647\u0648\u0631\u064a\u0629 \u0627\u0644\u0639\u0631\u0627\u0642", "name": "\u0645\u064a\u062f\u0627\u0646 \u0645\u062d\u0628\u0633", "name:ar": "\u0645\u064a\u062f\u0627\u0646 \u0645\u062d\u0628\u0633", "name:ar1": "\u0645\u064a\u062f\u0627\u0646 \u0645\u062d\u0628\u0633", "name:de": "Maydan Mahbas", "name:en": "Maydan Mahbas", "name:fr": "Maydan Mahbas", "place": "village"}}, {"type": "node", "id": 2488516718, "lat": 33.7430771, "lon": 45.5753397, "tags": {"alt_name": "\u0645\u064a\u0631\u0632\u0627", "int_name": "M\u012brz\u0101, \u0645\u064a\u0631\u0632\u0627, Mirza, \u0645\u064a\u0631\u0632\u0627", "is_in": "Iraq , \u062c\u0645\u0647\u0648\u0631\u064a\u0629 \u0627\u0644\u0639\u0631\u0627\u0642", "name": "\u0645\u064a\u0631\u0632\u0627", "name:ar": "\u0645\u064a\u0631\u0632\u0627", "name:ar1": "\u0645\u064a\u0631\u0632\u0627", "name:de": "Mirza", "name:en": "Mirza", "name:fr": "Mirza", "place": "village"}}, {"type": "node", "id": 2488516720, "lat": 33.708611, "lon": 45.498611, "tags": {"alt_name": "\u0646\u062f\u0628", "int_name": "Nadib, Nadib", "is_in": "Iraq , \u062c\u0645\u0647\u0648\u0631\u064a\u0629 \u0627\u0644\u0639\u0631\u0627\u0642", "name": "\u0646\u062f\u0628", "name:ar": "\u0646\u062f\u0628", "name:ar1": "\u0646\u062f\u0628", "name:de": "Nadib", "name:en": "Nadib", "name:fr": "Nadib", "place": "village"}}, {"type": "node", "id": 2488516721, "lat": 33.736667, "lon": 45.494167, "tags": {"alt_name": "\u0646\u0628\u064a \u062a\u0647\u0631\u0629", "int_name": "Nub\u012b Tahrah, Nubi Tahrah", "is_in": "Iraq , \u062c\u0645\u0647\u0648\u0631\u064a\u0629 \u0627\u0644\u0639\u0631\u0627\u0642", "name": "\u0646\u0628\u064a \u062a\u0647\u0631\u0629", "name:ar": "\u0646\u0628\u064a \u062a\u0627\u0631\u0627\u0646", "name:ar1": "\u0646\u0628\u064a \u062a\u0647\u0631\u0629", "name:de": "Nubi Tahrah", "name:en": "Nubi Tahrah", "name:fr": "Nubi Tahrah", "place": "village"}}, {"type": "node", "id": 2488516723, "lat": 33.766382, "lon": 45.563168, "tags": {"alt_name": "\u0634\u0645\u062f\u0627\u0644\u0629", "int_name": "Shamd\u0101lah, \u0634\u0645\u062f\u0627\u0644\u0629, Shamdalah, \u0634\u0645\u062f\u0627\u0644\u0629", "is_in": "Iraq , \u062c\u0645\u0647\u0648\u0631\u064a\u0629 \u0627\u0644\u0639\u0631\u0627\u0642", "name": "\u0634\u0645\u062f\u0627\u0644\u0629", "name:ar": "\u0634\u0645\u062f\u0627\u0644\u0629", "name:ar1": "\u0634\u0645\u062f\u0627\u0644\u0629", "name:de": "Shamdalah", "name:en": "Shamdalah", "name:fr": "Shamdalah", "place": "village"}}, {"type": "node", "id": 2488516724, "lat": 33.7382665, "lon": 45.5660365, "tags": {"alt_name": "\u062a\u0644 \u0645\u0646\u062f\u0644\u064a", "int_name": "Tall Mandal\u012b, \u062a\u0644 \u0645\u0646\u062f\u0644\u064a, Tall Mandali, \u062a\u0644 \u0645\u0646\u062f\u0644\u064a", "is_in": "Iraq , \u062c\u0645\u0647\u0648\u0631\u064a\u0629 \u0627\u0644\u0639\u0631\u0627\u0642", "name": "\u062a\u0644 \u0645\u0646\u062f\u0644\u064a", "name:ar": "\u062a\u0644 \u0645\u0646\u062f\u0644\u064a", "name:ar1": "\u062a\u0644 \u0645\u0646\u062f\u0644\u064a", "name:de": "Tall Mandali", "name:en": "Tall Mandali", "name:fr": "Tall Mandali", "place": "village"}}, {"type": "node", "id": 2488516726, "lat": 33.7233175, "lon": 45.583349, "tags": {"alt_name": "\u0648\u0633\u0645\u064a \u0627\u0644\u0631\u062e\u064a\u0633", "int_name": "Wasm\u012b ar Rakh\u012bs, \u0648\u0633\u0645\u064a \u0627\u0644\u0631\u062e\u064a\u0633, Wasmi ar Rakhis, \u0648\u0633\u0645\u064a \u0627\u0644\u0631\u062e\u064a\u0633", "is_in": "Iraq , \u062c\u0645\u0647\u0648\u0631\u064a\u0629 \u0627\u0644\u0639\u0631\u0627\u0642", "name": "\u0648\u0633\u0645\u064a \u0627\u0644\u0631\u062e\u064a\u0633", "name:ar": "\u0648\u0633\u0645\u064a \u0627\u0644\u0631\u062e\u064a\u0633", "name:ar1": "\u0648\u0633\u0645\u064a \u0627\u0644\u0631\u062e\u064a\u0633", "name:de": "Wasmi ar Rakhis", "name:en": "Wasmi ar Rakhis", "name:fr": "Wasmi ar Rakhis", "place": "village"}}, {"type": "node", "id": 2488516729, "lat": 33.7731188, "lon": 45.5683793, "tags": {"alt_name": "\u062f\u0627\u0648\u062f \u0628\u0627\u0642\u0631", "int_name": "\u062f\u0627\u0648\u062f \u0628\u0627\u0642\u0631, \u062f\u0627\u0648\u062f \u0628\u0627\u0642\u0631", "is_in": "Iraq , \u062c\u0645\u0647\u0648\u0631\u064a\u0629 \u0627\u0644\u0639\u0631\u0627\u0642", "name": "\u062f\u0627\u0648\u062f \u0628\u0627\u0642\u0631", "name:ar": "\u062f\u0627\u0648\u062f \u0628\u0627\u0642\u0631", "name:ar1": "\u062f\u0627\u0648\u062f \u0628\u0627\u0642\u0631", "name:de": "\u062f\u0627\u0648\u062f \u0628\u0627\u0642\u0631", "name:en": "\u062f\u0627\u0648\u062f \u0628\u0627\u0642\u0631", "name:fr": "\u062f\u0627\u0648\u062f \u0628\u0627\u0642\u0631", "place": "village"}}, {"type": "node", "id": 2488517974, "lat": 33.6903006, "lon": 45.5774477, "tags": {"alt_name": "\u0639\u0628\u062f \u0627\u0644\u0643\u0631\u064a\u0645", "int_name": "Abd al Kar\u012bm, \u0639\u0628\u062f \u0627\u0644\u0643\u0631\u064a\u0645, Abd al Karim, \u0639\u0628\u062f \u0627\u0644\u0643\u0631\u064a\u0645", "is_in": "Iraq , \u062c\u0645\u0647\u0648\u0631\u064a\u0629 \u0627\u0644\u0639\u0631\u0627\u0642", "name": "\u0639\u0628\u062f \u0627\u0644\u0643\u0631\u064a\u0645", "name:ar": "\u0639\u0628\u062f \u0627\u0644\u0643\u0631\u064a\u0645", "name:ar1": "\u0639\u0628\u062f \u0627\u0644\u0643\u0631\u064a\u0645", "name:de": "Abd al Karim", "name:en": "Abd al Karim", "name:fr": "Abd al Karim", "place": "village"}}, {"type": "node", "id": 2488517979, "lat": 33.6722586, "lon": 45.6003159, "tags": {"alt_name": "\u0639\u0631\u0628 \u0633\u0631\u062d\u0627\u0646", "int_name": "Arab Sir\u1e29\u0101n, \u0639\u0631\u0628 \u0633\u0631\u062d\u0627\u0646, Arab Sirhan, \u0639\u0631\u0628 \u0633\u0631\u062d\u0627\u0646", "is_in": "Iraq , \u062c\u0645\u0647\u0648\u0631\u064a\u0629 \u0627\u0644\u0639\u0631\u0627\u0642", "name": "\u0639\u0631\u0628 \u0633\u0631\u062d\u0627\u0646", "name:ar": "\u0639\u0631\u0628 \u0633\u0631\u062d\u0627\u0646", "name:ar1": "\u0639\u0631\u0628 \u0633\u0631\u062d\u0627\u0646", "name:de": "Arab Sirhan", "name:en": "Arab Sirhan", "name:fr": "Arab Sirhan", "place": "village"}}, {"type": "node", "id": 2488517981, "lat": 33.5770894, "lon": 45.5284501, "tags": {"alt_name": "\u0625\u0645\u0627\u0645 \u0632\u0627\u062f\u0629 \u0643\u0631\u0632 \u0627\u0644\u062f\u064a\u0646", "int_name": "Baba Gurz ad Din, B\u0101ba Gurzudd\u012bn, B\u0101b\u0101 Kurz ad D\u012bn, Im\u0101m Kurz ad D\u012bn, Im\u0101m Z\u0101dat Kurz ad D\u012bn, Kurz ad D\u012bn, \u0627\u0645\u0627\u0645 \u0632\u0627\u062f\u0629 \u0643\u0631\u0632 \u0627\u0644\u062f\u064a\u0646, Baba Gurz ad Din, Baba Gurzuddin, Baba Kurz ad Din, Imam Kurz ad Din, Imam Zadat Kurz ad Din, Kurz ad Din, \u0627\u0645\u0627\u0645 \u0632\u0627\u062f\u0629 \u0643\u0631\u0632 \u0627\u0644\u062f\u064a\u0646", "is_in": "Iraq , \u062c\u0645\u0647\u0648\u0631\u064a\u0629 \u0627\u0644\u0639\u0631\u0627\u0642", "name": "\u0628\u0627\u0648\u06d5\u06af\u0648\u0631\u0632\u06cc\u0646", "name:ar": "\u0625\u0645\u0627\u0645 \u0632\u0627\u062f\u0629 \u0643\u0631\u0632 \u0627\u0644\u062f\u064a\u0646", "name:ar1": "\u0625\u0645\u0627\u0645 \u0632\u0627\u062f\u0629 \u0643\u0631\u0632 \u0627\u0644\u062f\u064a\u0646", "name:de": "Baba Gurz ad Din", "name:en": "Baba Gurz ad Din", "name:fr": "Baba Gurz ad Din", "place": "village"}}, {"type": "node", "id": 2488517985, "lat": 33.6593662, "lon": 45.5557252, "tags": {"alt_name": "\u062f\u0648\u0634\u064a\u062d", "int_name": "D\u016bsh\u012b\u1e29, \u062f\u0648\u0634\u064a\u062d, Dushih, \u062f\u0648\u0634\u064a\u062d", "is_in": "Iraq , \u062c\u0645\u0647\u0648\u0631\u064a\u0629 \u0627\u0644\u0639\u0631\u0627\u0642", "name": "\u062f\u0648\u0648\u0634\u06ce\u062e", "name:ar": "\u062f\u0648\u0634\u064a\u062e", "name:ar1": "\u062f\u0648\u0634\u064a\u062d", "name:de": "Dushih", "name:en": "Dushih", "name:fr": "Dushih", "name:ru": "\u0414\u0443-\u0428\u0430\u0439\u0445", "place": "village"}}, {"type": "node", "id": 2488518160, "lat": 33.659634, "lon": 45.550529, "tags": {"alt_name": "\u0642\u0632\u0627\u0646\u064a\u0629 \u0627\u0644\u062c\u062f\u064a\u062f\u0629", "alt_name:ar": "\u0642\u0632\u0627\u0646\u064a\u0629", "alt_name:en": "Qazaniyat", "capital": "7", "int_name": "Qaz\u0101n\u012byat al Jad\u012bdah, \u0642\u0632\u0627\u0646\u064a\u0629 \u0627\u0644\u062c\u062f\u064a\u062f\u0647, Qazaniyat al Jadidah, \u0642\u0632\u0627\u0646\u064a\u0629 \u0627\u0644\u062c\u062f\u064a\u062f\u0647", "is_in": "Iraq , \u062c\u0645\u0647\u0648\u0631\u064a\u0629 \u0627\u0644\u0639\u0631\u0627\u0642", "name": "\u0642\u0632\u0627\u0646\u064a\u0629 \u0627\u0644\u062c\u062f\u064a\u062f\u0629", "name:ar": "\u0642\u0632\u0627\u0646\u064a\u0629 \u0627\u0644\u062c\u062f\u064a\u062f\u0629", "name:de": "Qazaniyat al Jadidah", "name:en": "Qazaniyat al Jadidah", "name:fr": "Qazaniyat al Jadidah", "place": "town"}}, {"type": "node", "id": 2488521038, "lat": 33.665667, "lon": 45.352979, "tags": {"alt_name": "\u0639\u0644\u064a \u0627\u0644\u0645\u0637\u0644\u0643", "int_name": "Al\u012b al Mu\u0163lag, \u0639\u0644\u064a \u0627\u0644\u0645\u0637\u0644\u06af, Ali al Mutlag, \u0639\u0644\u064a \u0627\u0644\u0645\u0637\u0644\u06af", "is_in": "Iraq , \u062c\u0645\u0647\u0648\u0631\u064a\u0629 \u0627\u0644\u0639\u0631\u0627\u0642", "name": "\u0639\u0644\u064a \u0627\u0644\u0645\u0637\u0644\u0643", "name:ar": "\u0639\u0644\u064a \u0627\u0644\u0645\u0637\u0644\u0643", "name:ar1": "\u0639\u0644\u064a \u0627\u0644\u0645\u0637\u0644\u0643", "name:de": "Ali al Mutlag", "name:en": "Ali al Mutlag", "name:fr": "Ali al Mutlag", "place": "village"}}, {"type": "node", "id": 2488521050, "lat": 33.611257, "lon": 45.328648, "tags": {"alt_name": "\u0639\u0631\u0628 \u0643\u0627\u0638\u0645 \u0627\u0644\u062d\u0627\u062c", "int_name": "Arab K\u0101z\u0327im al \u1e28\u0101jj, \u0639\u0631\u0628 \u0643\u0627\u0638\u0645 \u0627\u0644\u062d\u0627\u062c, Arab Kazim al Hajj, \u0639\u0631\u0628 \u0643\u0627\u0638\u0645 \u0627\u0644\u062d\u0627\u062c", "is_in": "Iraq , \u062c\u0645\u0647\u0648\u0631\u064a\u0629 \u0627\u0644\u0639\u0631\u0627\u0642", "name": "\u0639\u0631\u0628 \u0643\u0627\u0638\u0645 \u0627\u0644\u062d\u0627\u062c", "name:ar": "\u0639\u0631\u0628 \u0643\u0627\u0638\u0645 \u0627\u0644\u062d\u0627\u062c", "name:ar1": "\u0639\u0631\u0628 \u0643\u0627\u0638\u0645 \u0627\u0644\u062d\u0627\u062c", "name:de": "Arab Kazim al Hajj", "name:en": "Arab Kazim al Hajj", "name:fr": "Arab Kazim al Hajj", "place": "village"}}, {"type": "node", "id": 2488521052, "lat": 33.613614, "lon": 45.34883, "tags": {"alt_name": "\u0639\u0631\u0628 \u062e\u0641\u064a\u0641 \u0627\u0644\u0634\u0628\u064a\u0628", "int_name": "Arab Khaf\u012bf ash Shab\u012bb, Khaf\u012bf, \u0639\u0631\u0628 \u062e\u0641\u064a\u0641 \u0627\u0644\u0634\u0628\u064a\u0628, Arab Khafif ash Shabib, Khafif, \u0639\u0631\u0628 \u062e\u0641\u064a\u0641 \u0627\u0644\u0634\u0628\u064a\u0628", "is_in": "Iraq , \u062c\u0645\u0647\u0648\u0631\u064a\u0629 \u0627\u0644\u0639\u0631\u0627\u0642", "name": "\u0639\u0631\u0628 \u062e\u0641\u064a\u0641 \u0627\u0644\u0634\u0628\u064a\u0628", "name:ar": "\u0639\u0631\u0628 \u062e\u0641\u064a\u0641 \u0627\u0644\u0634\u0628\u064a\u0628", "name:ar1": "\u0639\u0631\u0628 \u062e\u0641\u064a\u0641 \u0627\u0644\u0634\u0628\u064a\u0628", "name:de": "Arab Khafif ash Shabib", "name:en": "Arab Khafif ash Shabib", "name:fr": "Arab Khafif ash Shabib", "place": "village"}}, {"type": "node", "id": 2488521054, "lat": 33.5911565, "lon": 45.337689, "tags": {"alt_name": "\u062f\u0627\u0648\u0648\u062f \u0627\u0644\u0634\u0637\u0628", "int_name": "D\u0101wud ash Sha\u0163b, Dawud ash Shatb", "is_in": "Iraq , \u062c\u0645\u0647\u0648\u0631\u064a\u0629 \u0627\u0644\u0639\u0631\u0627\u0642", "name": "\u062f\u0627\u0648\u0648\u062f \u0627\u0644\u0634\u0637\u0628", "name:ar": "\u062f\u0627\u0648\u0648\u062f \u0627\u0644\u0634\u0637\u0628", "name:ar1": "\u062f\u0627\u0648\u0648\u062f \u0627\u0644\u0634\u0637\u0628", "name:de": "Dawud ash Shatb", "name:en": "Dawud ash Shatb", "name:fr": "Dawud ash Shatb", "place": "village"}}, {"type": "node", "id": 2488521055, "lat": 33.5912236, "lon": 45.3372801, "tags": {"alt_name": "\u062f\u0627\u0648\u0648\u062f", "int_name": "D\u0101w\u016bd, Dawud", "is_in": "Iraq , \u062c\u0645\u0647\u0648\u0631\u064a\u0629 \u0627\u0644\u0639\u0631\u0627\u0642", "name": "\u062f\u0627\u0648\u0648\u062f", "name:ar": "\u062f\u0627\u0648\u0648\u062f", "name:ar1": "\u062f\u0627\u0648\u0648\u062f", "name:de": "Dawud", "name:en": "Dawud", "name:fr": "Dawud", "place": "village"}}, {"type": "node", "id": 2488521057, "lat": 33.664161, "lon": 45.376499, "tags": {"alt_name": "\u0647\u0627\u062f\u064a \u0627\u0644\u0639\u062c\u0645", "int_name": "H\u0101d\u012b al Ajam, \u0647\u0627\u062f\u064a \u0627\u0644\u0639\u062c\u0645, Hadi al Ajam, \u0647\u0627\u062f\u064a \u0627\u0644\u0639\u062c\u0645", "is_in": "Iraq , \u062c\u0645\u0647\u0648\u0631\u064a\u0629 \u0627\u0644\u0639\u0631\u0627\u0642", "name": "\u0647\u0627\u062f\u064a \u0627\u0644\u0639\u062c\u0645", "name:ar": "\u0647\u0627\u062f\u064a \u0627\u0644\u0639\u062c\u0645", "name:ar1": "\u0647\u0627\u062f\u064a \u0627\u0644\u0639\u062c\u0645", "name:de": "Hadi al Ajam", "name:en": "Hadi al Ajam", "name:fr": "Hadi al Ajam", "place": "village"}}, {"type": "node", "id": 2488521059, "lat": 33.6, "lon": 45.333333, "tags": {"alt_name": "\u0647\u0627\u062f\u064a \u0627\u0644\u0634\u064a\u0631", "int_name": "Hadi as Sh\u012br, H\u0101d\u012b ash Sh\u012br, Hadi as Shir, Hadi ash Shir", "is_in": "Iraq , \u062c\u0645\u0647\u0648\u0631\u064a\u0629 \u0627\u0644\u0639\u0631\u0627\u0642", "name": "\u0647\u0627\u062f\u064a \u0627\u0644\u0634\u064a\u0631", "name:ar": "\u0647\u0627\u062f\u064a \u0627\u0644\u0634\u064a\u0631", "name:ar1": "\u0647\u0627\u062f\u064a \u0627\u0644\u0634\u064a\u0631", "name:de": "Hadi as Shir", "name:en": "Hadi as Shir", "name:fr": "Hadi as Shir", "place": "village"}}, {"type": "node", "id": 2488521076, "lat": 33.679745, "lon": 45.409064, "tags": {"alt_name": "\u0639\u064a\u0633\u0649 \u0627\u0644\u0645\u0637\u0644\u0642", "int_name": "\u012as\u00e1 al Mu\u0163lag, \u012as\u00e1 al Mu\u0163laq, \u0639\u064a\u0633\u0649 \u0627\u0644\u0645\u0637\u0644\u06af, Isa al Mutlag, Isa al Mutlaq, \u0639\u064a\u0633\u0649 \u0627\u0644\u0645\u0637\u0644\u06af", "is_in": "Iraq , \u062c\u0645\u0647\u0648\u0631\u064a\u0629 \u0627\u0644\u0639\u0631\u0627\u0642", "name": "\u0639\u064a\u0633\u0649 \u0627\u0644\u0645\u0637\u0644\u0642", "name:ar": "\u0639\u064a\u0633\u0649 \u0627\u0644\u0645\u0637\u0644\u0642", "name:ar1": "\u0639\u064a\u0633\u0649 \u0627\u0644\u0645\u0637\u0644\u0642", "name:de": "Isa al Mutlag", "name:en": "Isa al Mutlag", "name:fr": "Isa al Mutlag", "place": "village"}}, {"type": "node", "id": 2488521099, "lat": 33.661263, "lon": 45.344341, "tags": {"alt_name": "\u062e\u0644\u0641 \u0627\u0644\u062f\u0627\u0648\u0648\u062f", "int_name": "Khalaf ad D\u0101wud, Khalaf ad Dawud", "is_in": "Iraq , \u062c\u0645\u0647\u0648\u0631\u064a\u0629 \u0627\u0644\u0639\u0631\u0627\u0642", "name": "\u062e\u0644\u0641 \u0627\u0644\u062f\u0627\u0648\u0648\u062f", "name:ar": "\u062e\u0644\u0641 \u0627\u0644\u062f\u0627\u0648\u0648\u062f", "name:ar1": "\u062e\u0644\u0641 \u0627\u0644\u062f\u0627\u0648\u0648\u062f", "name:de": "Khalaf ad Dawud", "name:en": "Khalaf ad Dawud", "name:fr": "Khalaf ad Dawud", "place": "village"}}, {"type": "node", "id": 2488521110, "lat": 33.609722, "lon": 45.340556, "tags": {"alt_name": "\u0643\u062a\u0627\u0646", "int_name": "Kit\u0101n, Kitan", "is_in": "Iraq , \u062c\u0645\u0647\u0648\u0631\u064a\u0629 \u0627\u0644\u0639\u0631\u0627\u0642", "name": "\u0643\u062a\u0627\u0646", "name:ar": "\u0643\u062a\u0627\u0646", "name:ar1": "\u0643\u062a\u0627\u0646", "name:de": "Kitan", "name:en": "Kitan", "name:fr": "Kitan", "place": "village"}}, {"type": "node", "id": 2488521131, "lat": 33.628463, "lon": 45.362398, "tags": {"alt_name": "\u0645\u062d\u0645\u0648\u062f \u0627\u0644\u0628\u0646\u062f\u0631", "int_name": "Ma\u1e29m\u016bd al Bandar, \u0645\u062d\u0645\u0648\u062f \u0627\u0644\u0628\u0646\u062f\u0631, Mahmud al Bandar, \u0645\u062d\u0645\u0648\u062f \u0627\u0644\u0628\u0646\u062f\u0631", "is_in": "Iraq , \u062c\u0645\u0647\u0648\u0631\u064a\u0629 \u0627\u0644\u0639\u0631\u0627\u0642", "name": "\u0645\u062d\u0645\u0648\u062f \u0627\u0644\u0628\u0646\u062f\u0631", "name:ar": "\u0645\u062d\u0645\u0648\u062f \u0627\u0644\u0628\u0646\u062f\u0631", "name:ar1": "\u0645\u062d\u0645\u0648\u062f \u0627\u0644\u0628\u0646\u062f\u0631", "name:de": "Mahmud al Bandar", "name:en": "Mahmud al Bandar", "name:fr": "Mahmud al Bandar", "place": "village"}}, {"type": "node", "id": 2488521132, "lat": 33.590108, "lon": 45.316992, "tags": {"alt_name": "\u0645\u0646\u0647\u0644 \u0627\u0644\u0639\u0628\u062f \u0627\u0644\u0639\u0632\u064a\u0632", "int_name": "Manhal al Abd al Az\u012bz, Minhal Az\u012bz, \u0645\u0646\u0647\u0644 \u0627\u0644\u0639\u0628\u062f \u0627\u0644\u0639\u0632\u064a\u0632, Manhal al Abd al Aziz, Minhal Aziz, \u0645\u0646\u0647\u0644 \u0627\u0644\u0639\u0628\u062f \u0627\u0644\u0639\u0632\u064a\u0632", "is_in": "Iraq , \u062c\u0645\u0647\u0648\u0631\u064a\u0629 \u0627\u0644\u0639\u0631\u0627\u0642", "name": "\u0645\u0646\u0647\u0644 \u0627\u0644\u0639\u0628\u062f \u0627\u0644\u0639\u0632\u064a\u0632", "name:ar": "\u0645\u0646\u0647\u0644 \u0627\u0644\u0639\u0628\u062f \u0627\u0644\u0639\u0632\u064a\u0632", "name:ar1": "\u0645\u0646\u0647\u0644 \u0627\u0644\u0639\u0628\u062f \u0627\u0644\u0639\u0632\u064a\u0632", "name:de": "Manhal al Abd al Aziz", "name:en": "Manhal al Abd al Aziz", "name:fr": "Manhal al Abd al Aziz", "place": "village"}}, {"type": "node", "id": 2488521133, "lat": 33.65, "lon": 45.316667, "tags": {"alt_name": "\u0645\u0646 \u0647\u0644", "int_name": "Min Hal, Min Hal", "is_in": "Iraq , \u062c\u0645\u0647\u0648\u0631\u064a\u0629 \u0627\u0644\u0639\u0631\u0627\u0642", "name": "\u0645\u0646 \u0647\u0644", "name:ar": "\u0645\u0646 \u0647\u0644", "name:ar1": "\u0645\u0646 \u0647\u0644", "name:de": "Min Hal", "name:en": "Min Hal", "name:fr": "Min Hal", "place": "village"}}, {"type": "node", "id": 2488521149, "lat": 33.584051, "lon": 45.322313, "tags": {"alt_name": "\u0645\u062d\u0633\u0646 \u0627\u0644\u0639\u0628\u062f \u0627\u0644\u0639\u0632\u064a\u0632", "int_name": "Mu\u1e29sin al Abd al Az\u012bz, \u0645\u062d\u0633\u0646 \u0627\u0644\u0639\u0628\u062f \u0627\u0644\u0639\u0632\u064a\u0632, Muhsin al Abd al Aziz, \u0645\u062d\u0633\u0646 \u0627\u0644\u0639\u0628\u062f \u0627\u0644\u0639\u0632\u064a\u0632", "is_in": "Iraq , \u062c\u0645\u0647\u0648\u0631\u064a\u0629 \u0627\u0644\u0639\u0631\u0627\u0642", "name": "\u0645\u062d\u0633\u0646 \u0627\u0644\u0639\u0628\u062f \u0627\u0644\u0639\u0632\u064a\u0632", "name:ar": "\u0645\u062d\u0633\u0646 \u0627\u0644\u0639\u0628\u062f \u0627\u0644\u0639\u0632\u064a\u0632", "name:ar1": "\u0645\u062d\u0633\u0646 \u0627\u0644\u0639\u0628\u062f \u0627\u0644\u0639\u0632\u064a\u0632", "name:de": "Muhsin al Abd al Aziz", "name:en": "Muhsin al Abd al Aziz", "name:fr": "Muhsin al Abd al Aziz", "place": "village"}}, {"type": "node", "id": 2488521168, "lat": 33.615553, "lon": 45.328995, "tags": {"alt_name": "\u0646\u0627\u0638\u0645 \u0627\u0644\u062d\u0627\u0648\u064a", "int_name": "N\u0101z\u0327im al \u1e28\u0101w\u012b, \u0646\u0627\u0638\u0645 \u0627\u0644\u062d\u0627\u0648\u064a, Nazim al Hawi, \u0646\u0627\u0638\u0645 \u0627\u0644\u062d\u0627\u0648\u064a", "is_in": "Iraq , \u062c\u0645\u0647\u0648\u0631\u064a\u0629 \u0627\u0644\u0639\u0631\u0627\u0642", "name": "\u0646\u0627\u0638\u0645 \u0627\u0644\u062d\u0627\u0648\u064a", "name:ar": "\u0646\u0627\u0638\u0645 \u0627\u0644\u062d\u0627\u0648\u064a", "name:ar1": "\u0646\u0627\u0638\u0645 \u0627\u0644\u062d\u0627\u0648\u064a", "name:de": "Nazim al Hawi", "name:en": "Nazim al Hawi", "name:fr": "Nazim al Hawi", "place": "village"}}, {"type": "node", "id": 2488521174, "lat": 33.658478, "lon": 45.370133, "tags": {"alt_name": "\u0642\u0631\u064a\u0629 \u0623\u0628\u0648 \u0631\u0639\u064a\u062f", "int_name": "Qaryat Ab\u016b Ruayd, \u0642\u0631\u064a\u0629 \u0627\u0628\u0648 \u0631\u0639\u064a\u062f, Qaryat Abu Ruayd, \u0642\u0631\u064a\u0629 \u0627\u0628\u0648 \u0631\u0639\u064a\u062f", "is_in": "Iraq , \u062c\u0645\u0647\u0648\u0631\u064a\u0629 \u0627\u0644\u0639\u0631\u0627\u0642", "name": "\u0642\u0631\u064a\u0629 \u0623\u0628\u0648 \u0631\u0639\u064a\u062f", "name:ar": "\u0642\u0631\u064a\u0629 \u0623\u0628\u0648 \u0631\u0639\u064a\u062f", "name:ar1": "\u0642\u0631\u064a\u0629 \u0623\u0628\u0648 \u0631\u0639\u064a\u062f", "name:de": "Qaryat Abu Ruayd", "name:en": "Qaryat Abu Ruayd", "name:fr": "Qaryat Abu Ruayd", "place": "village"}}, {"type": "node", "id": 2488521180, "lat": 33.674447, "lon": 45.376654, "tags": {"alt_name": "\u0642\u0631\u064a\u0629 \u0627\u0644\u062f\u064a\u0645\u0629", "int_name": "Qaryat ad D\u012bmah, \u0642\u0631\u064a\u0629 \u0627\u0644\u062f\u064a\u0645\u0629, Qaryat ad Dimah, \u0642\u0631\u064a\u0629 \u0627\u0644\u062f\u064a\u0645\u0629", "is_in": "Iraq , \u062c\u0645\u0647\u0648\u0631\u064a\u0629 \u0627\u0644\u0639\u0631\u0627\u0642", "name": "\u0642\u0631\u064a\u0629 \u0627\u0644\u062f\u064a\u0645\u0629", "name:ar": "\u0642\u0631\u064a\u0629 \u0627\u0644\u062f\u064a\u0645\u0629", "name:ar1": "\u0642\u0631\u064a\u0629 \u0627\u0644\u062f\u064a\u0645\u0629", "name:de": "Qaryat ad Dimah", "name:en": "Qaryat ad Dimah", "name:fr": "Qaryat ad Dimah", "place": "village"}}, {"type": "node", "id": 2488521196, "lat": 33.604887, "lon": 45.351081, "tags": {"alt_name": "\u0633\u0644\u0637\u0627\u0646 \u0627\u0644\u0634\u0637\u0628", "int_name": "Sul\u0163\u0101n, Sul\u0163\u0101n ash Sha\u0163b, \u0633\u0644\u0637\u0627\u0646 \u0627\u0644\u0634\u0637\u0628, Sultan, Sultan ash Shatb, \u0633\u0644\u0637\u0627\u0646 \u0627\u0644\u0634\u0637\u0628", "is_in": "Iraq , \u062c\u0645\u0647\u0648\u0631\u064a\u0629 \u0627\u0644\u0639\u0631\u0627\u0642", "name": "\u0633\u0644\u0637\u0627\u0646 \u0627\u0644\u0634\u0637\u0628", "name:ar": "\u0633\u0644\u0637\u0627\u0646 \u0627\u0644\u0634\u0637\u0628", "name:ar1": "\u0633\u0644\u0637\u0627\u0646 \u0627\u0644\u0634\u0637\u0628", "name:de": "Sultan", "name:en": "Sultan", "name:fr": "Sultan", "place": "village"}}, {"type": "node", "id": 2488521207, "lat": 33.646148, "lon": 45.373846, "tags": {"alt_name": "\u0637\u0644\u0627\u0643", "int_name": "\u0162al\u0101g, Tal\u0101k, \u0637\u0644\u0627\u06af, Talag, Talak, \u0637\u0644\u0627\u06af", "is_in": "Iraq , \u062c\u0645\u0647\u0648\u0631\u064a\u0629 \u0627\u0644\u0639\u0631\u0627\u0642", "name": "\u0637\u0644\u0627\u0643", "name:ar": "\u0637\u0644\u0627\u0643", "name:ar1": "\u0637\u0644\u0627\u0643", "name:de": "Talag", "name:en": "Talag", "name:fr": "Talag", "place": "village"}}, {"type": "node", "id": 2488521213, "lat": 33.628333, "lon": 45.363056, "tags": {"alt_name": "\u0637\u0644\u0627\u0644\u0629", "int_name": "\u0162al\u0101lah, Talalah", "is_in": "Iraq , \u062c\u0645\u0647\u0648\u0631\u064a\u0629 \u0627\u0644\u0639\u0631\u0627\u0642", "name": "\u0637\u0644\u0627\u0644\u0629", "name:ar": "\u0637\u0644\u0627\u0644\u0629", "name:ar1": "\u0637\u0644\u0627\u0644\u0629", "name:de": "Talalah", "name:en": "Talalah", "name:fr": "Talalah", "place": "village"}}, {"type": "node", "id": 2488521231, "lat": 33.6618906, "lon": 45.3442358, "tags": {"alt_name": "\u062e\u0644\u0641 \u0627\u0644\u062f\u0627\u0648\u062f", "int_name": "\u062e\u0644\u0641 \u0627\u0644\u062f\u0627\u0648\u062f, \u062e\u0644\u0641 \u0627\u0644\u062f\u0627\u0648\u062f", "is_in": "Iraq , \u062c\u0645\u0647\u0648\u0631\u064a\u0629 \u0627\u0644\u0639\u0631\u0627\u0642", "name": "\u062e\u0644\u0641 \u0627\u0644\u062f\u0627\u0648\u062f", "name:ar": "\u062e\u0644\u0641 \u0627\u0644\u062f\u0627\u0648\u062f", "name:ar1": "\u062e\u0644\u0641 \u0627\u0644\u062f\u0627\u0648\u062f", "name:de": "\u062e\u0644\u0641 \u0627\u0644\u062f\u0627\u0648\u062f", "name:fr": "\u062e\u0644\u0641 \u0627\u0644\u062f\u0627\u0648\u062f", "place": "village"}}, {"type": "node", "id": 2488521237, "lat": 33.591497, "lon": 45.3374102, "tags": {"alt_name": "\u062f\u0627\u0648\u062f \u0627\u0644\u0634\u0637\u0628", "int_name": "\u062f\u0627\u0648\u062f \u0627\u0644\u0634\u0637\u0628, \u062f\u0627\u0648\u062f \u0627\u0644\u0634\u0637\u0628", "is_in": "Iraq , \u062c\u0645\u0647\u0648\u0631\u064a\u0629 \u0627\u0644\u0639\u0631\u0627\u0642", "name": "\u062f\u0627\u0648\u062f \u0627\u0644\u0634\u0637\u0628", "name:ar": "\u062f\u0627\u0648\u062f \u0627\u0644\u0634\u0637\u0628", "name:ar1": "\u062f\u0627\u0648\u062f \u0627\u0644\u0634\u0637\u0628", "name:de": "\u062f\u0627\u0648\u062f \u0627\u0644\u0634\u0637\u0628", "name:en": "David the write off", "name:fr": "\u062f\u0627\u0648\u062f \u0627\u0644\u0634\u0637\u0628", "place": "village"}}, {"type": "node", "id": 2488521652, "lat": 33.594658, "lon": 45.484904, "tags": {"alt_name": "\u0623\u062d\u0645\u062f \u0627\u0644\u062c\u0644\u0648\u0628", "int_name": "A\u1e29mad al Jul\u016bb, \u0627\u062d\u0645\u062f \u0627\u0644\u062c\u0644\u0648\u0628, Ahmad al Julub, \u0627\u062d\u0645\u062f \u0627\u0644\u062c\u0644\u0648\u0628", "is_in": "Iraq , \u062c\u0645\u0647\u0648\u0631\u064a\u0629 \u0627\u0644\u0639\u0631\u0627\u0642", "name": "\u0623\u062d\u0645\u062f \u0627\u0644\u062c\u0644\u0648\u0628", "name:ar": "\u0623\u062d\u0645\u062f \u0627\u0644\u062c\u0644\u0648\u0628", "name:ar1": "\u0623\u062d\u0645\u062f \u0627\u0644\u062c\u0644\u0648\u0628", "name:de": "Ahmad al Julub", "name:en": "Ahmad al Julub", "name:fr": "Ahmad al Julub", "place": "village"}}, {"type": "node", "id": 2488521653, "lat": 33.644907, "lon": 45.487426, "tags": {"alt_name": "\u0627\u0644\u0623\u0645\u0647\u064a\u062f\u064a", "int_name": "Al Amh\u012bd\u012b, \u0627\u0644\u0627\u0645\u0647\u064a\u062f\u064a, Al Amhidi, \u0627\u0644\u0627\u0645\u0647\u064a\u062f\u064a", "is_in": "Iraq , \u062c\u0645\u0647\u0648\u0631\u064a\u0629 \u0627\u0644\u0639\u0631\u0627\u0642", "name": "\u0627\u0644\u0623\u0645\u0647\u064a\u062f\u064a", "name:ar": "\u0627\u0644\u0623\u0645\u0647\u064a\u062f\u064a", "name:ar1": "\u0627\u0644\u0623\u0645\u0647\u064a\u062f\u064a", "name:de": "Al Amhidi", "name:en": "Al Amhidi", "name:fr": "Al Amhidi", "place": "village"}}, {"type": "node", "id": 2488521654, "lat": 33.628295, "lon": 45.496127, "tags": {"alt_name": "\u0627\u0644\u0645\u0647\u064a\u062f\u064a", "int_name": "Al Muhayd\u012b, \u0627\u0644\u0645\u0647\u064a\u062f\u064a, Al Muhaydi, \u0627\u0644\u0645\u0647\u064a\u062f\u064a", "is_in": "Iraq , \u062c\u0645\u0647\u0648\u0631\u064a\u0629 \u0627\u0644\u0639\u0631\u0627\u0642", "name": "\u0627\u0644\u0645\u0647\u064a\u062f\u064a", "name:ar": "\u0627\u0644\u0645\u0647\u064a\u062f\u064a", "name:ar1": "\u0627\u0644\u0645\u0647\u064a\u062f\u064a", "name:de": "Al Muhaydi", "name:en": "Al Muhaydi", "name:fr": "Al Muhaydi", "place": "village"}}, {"type": "node", "id": 2488521655, "lat": 33.576907, "lon": 45.466981, "tags": {"alt_name": "\u0639\u0631\u0628 \u0623\u0645\u0627\u0631\u064a", "int_name": "Arab Am\u0101r\u012b, \u0639\u0631\u0628 \u0627\u0645\u0627\u0631\u064a, Arab Amari, \u0639\u0631\u0628 \u0627\u0645\u0627\u0631\u064a", "is_in": "Iraq , \u062c\u0645\u0647\u0648\u0631\u064a\u0629 \u0627\u0644\u0639\u0631\u0627\u0642", "name": "\u0639\u0631\u0628 \u0623\u0645\u0627\u0631\u064a", "name:ar": "\u0639\u0631\u0628 \u0623\u0645\u0627\u0631\u064a", "name:ar1": "\u0639\u0631\u0628 \u0623\u0645\u0627\u0631\u064a", "name:de": "Arab Amari", "name:en": "Arab Amari", "name:fr": "Arab Amari", "place": "village"}}, {"type": "node", "id": 2488521673, "lat": 33.615673, "lon": 45.485102, "tags": {"alt_name": "\u0639\u0631\u0628 \u0631\u0634\u064a\u062f", "int_name": "Arab Rash\u012bd, \u0639\u0631\u0628 \u0631\u0634\u064a\u062f, Arab Rashid, \u0639\u0631\u0628 \u0631\u0634\u064a\u062f", "is_in": "Iraq , \u062c\u0645\u0647\u0648\u0631\u064a\u0629 \u0627\u0644\u0639\u0631\u0627\u0642", "name": "\u0639\u0631\u0628 \u0631\u0634\u064a\u062f", "name:ar": "\u0639\u0631\u0628 \u0631\u0634\u064a\u062f", "name:ar1": "\u0639\u0631\u0628 \u0631\u0634\u064a\u062f", "name:de": "Arab Rashid", "name:en": "Arab Rashid", "name:fr": "Arab Rashid", "place": "hamlet"}}, {"type": "node", "id": 2488521709, "lat": 33.695828, "lon": 45.456733, "tags": {"alt_name": "\u0628\u0633\u062a\u0627\u0646 \u062c\u0627\u0633\u0645 \u0627\u0644\u0645\u062d\u0645\u062f", "int_name": "Bust\u0101n J\u0101sim al Mu\u1e29ammad, \u0628\u0633\u062a\u0627\u0646 \u062c\u0627\u0633\u0645 \u0627\u0644\u0645\u062d\u0645\u062f, Bustan Jasim al Muhammad, \u0628\u0633\u062a\u0627\u0646 \u062c\u0627\u0633\u0645 \u0627\u0644\u0645\u062d\u0645\u062f", "is_in": "Iraq , \u062c\u0645\u0647\u0648\u0631\u064a\u0629 \u0627\u0644\u0639\u0631\u0627\u0642", "name": "\u0628\u0633\u062a\u0627\u0646 \u062c\u0627\u0633\u0645 \u0627\u0644\u0645\u062d\u0645\u062f", "name:ar": "\u0628\u0633\u062a\u0627\u0646 \u062c\u0627\u0633\u0645 \u0627\u0644\u0645\u062d\u0645\u062f", "name:ar1": "\u0628\u0633\u062a\u0627\u0646 \u062c\u0627\u0633\u0645 \u0627\u0644\u0645\u062d\u0645\u062f", "name:de": "Bustan Jasim al Muhammad", "name:en": "Bustan Jasim al Muhammad", "name:fr": "Bustan Jasim al Muhammad", "place": "village"}}, {"type": "node", "id": 2488521754, "lat": 33.584699, "lon": 45.472625, "tags": {"alt_name": "\u0631\u0634\u064a\u062f \u062e\u0645\u064a\u0633", "int_name": "Rash\u012bd Kham\u012bs, \u0631\u0634\u064a\u062f \u062e\u0645\u064a\u0633, Rashid Khamis, \u0631\u0634\u064a\u062f \u062e\u0645\u064a\u0633", "is_in": "Iraq , \u062c\u0645\u0647\u0648\u0631\u064a\u0629 \u0627\u0644\u0639\u0631\u0627\u0642", "name": "\u0631\u0634\u064a\u062f \u062e\u0645\u064a\u0633", "name:ar": "\u0631\u0634\u064a\u062f \u062e\u0645\u064a\u0633", "name:ar1": "\u0631\u0634\u064a\u062f \u062e\u0645\u064a\u0633", "name:de": "Rashid Khamis", "name:en": "Rashid Khamis", "name:fr": "Rashid Khamis", "place": "village"}}, {"type": "node", "id": 2488527809, "lat": 33.732022, "lon": 45.390122, "tags": {"alt_name": "\u0627\u0644\u0637\u0627\u0644\u0639\u0629", "int_name": "Al Talal, A\u0163 \u0162\u0101liah, \u0627\u0644\u0637\u0627\u0644\u0639\u0629, Al Talal, At Taliah, \u0627\u0644\u0637\u0627\u0644\u0639\u0629", "is_in": "Iraq , \u062c\u0645\u0647\u0648\u0631\u064a\u0629 \u0627\u0644\u0639\u0631\u0627\u0642", "name": "\u0627\u0644\u0637\u0627\u0644\u0639\u0629", "name:ar": "\u0627\u0644\u0637\u0627\u0644\u0639\u0629", "name:ar1": "\u0627\u0644\u0637\u0627\u0644\u0639\u0629", "name:de": "Al Talal", "name:en": "Al Talal", "name:fr": "Al Talal", "place": "village"}}, {"type": "node", "id": 2488527814, "lat": 33.7806, "lon": 45.38082, "tags": {"alt_name": "\u0639\u0644\u064a \u0627\u0644\u0646\u062f\u0629", "int_name": "Al\u012b an Nadah, \u0639\u0644\u064a \u0627\u0644\u0646\u062f\u0629, Ali an Nadah, \u0639\u0644\u064a \u0627\u0644\u0646\u062f\u0629", "is_in": "Iraq , \u062c\u0645\u0647\u0648\u0631\u064a\u0629 \u0627\u0644\u0639\u0631\u0627\u0642", "name": "\u0639\u0644\u064a \u0627\u0644\u0646\u062f\u0629", "name:ar": "\u0639\u0644\u064a \u0627\u0644\u0646\u062f\u0629", "name:ar1": "\u0639\u0644\u064a \u0627\u0644\u0646\u062f\u0629", "name:de": "Ali an Nadah", "name:en": "Ali an Nadah", "name:fr": "Ali an Nadah", "place": "village"}}, {"type": "node", "id": 2488527820, "lat": 33.69527, "lon": 45.355943, "tags": {"alt_name": "\u0647\u0627\u062f\u064a \u0628\u0622\u0647\u0627\u0646", "int_name": "H\u0101d\u012b Ba\u0163h\u0101n, \u0647\u0627\u062f\u064a \u0628\u0622\u0647\u0627\u0646, Hadi Bathan, \u0647\u0627\u062f\u064a \u0628\u0622\u0647\u0627\u0646", "is_in": "Iraq , \u062c\u0645\u0647\u0648\u0631\u064a\u0629 \u0627\u0644\u0639\u0631\u0627\u0642", "name": "\u0647\u0627\u062f\u064a \u0628\u0622\u0647\u0627\u0646", "name:ar": "\u0647\u0627\u062f\u064a \u0628\u0622\u0647\u0627\u0646", "name:ar1": "\u0647\u0627\u062f\u064a \u0628\u0622\u0647\u0627\u0646", "name:de": "Hadi Bathan", "name:en": "Hadi Bathan", "name:fr": "Hadi Bathan", "place": "village"}}, {"type": "node", "id": 2488527825, "lat": 33.787671, "lon": 45.357431, "tags": {"alt_name": "\u062d\u0646\u062c\u0631 \u062d\u0633\u064a\u0646", "int_name": "\u1e28anjar \u1e28usayn, \u062d\u0646\u062c\u0631 \u062d\u0633\u064a\u0646, Hanjar Husayn, \u062d\u0646\u062c\u0631 \u062d\u0633\u064a\u0646", "is_in": "Iraq , \u062c\u0645\u0647\u0648\u0631\u064a\u0629 \u0627\u0644\u0639\u0631\u0627\u0642", "name": "\u062d\u0646\u062c\u0631 \u062d\u0633\u064a\u0646", "name:ar": "\u062d\u0646\u062c\u0631 \u062d\u0633\u064a\u0646", "name:ar1": "\u062d\u0646\u062c\u0631 \u062d\u0633\u064a\u0646", "name:de": "Hanjar Husayn", "name:en": "Hanjar Husayn", "name:fr": "Hanjar Husayn", "place": "village"}}, {"type": "node", "id": 2488527830, "lat": 33.748889, "lon": 45.381667, "tags": {"alt_name": "\u062c\u0633\u0631 \u0646\u0641\u0637", "int_name": "Jisar Naft, Jisr Naf\u0163, Jisar Naft, Jisr Naft", "is_in": "Iraq , \u062c\u0645\u0647\u0648\u0631\u064a\u0629 \u0627\u0644\u0639\u0631\u0627\u0642", "name": "\u062c\u0633\u0631 \u0646\u0641\u0637", "name:ar": "\u062c\u0633\u0631 \u0646\u0641\u0637", "name:ar1": "\u062c\u0633\u0631 \u0646\u0641\u0637", "name:de": "Jisar Naft", "name:en": "Jisar Naft", "name:fr": "Jisar Naft", "place": "village"}}, {"type": "node", "id": 2488527841, "lat": 33.70226, "lon": 45.4064284, "tags": {"alt_name": "\u062e\u0627\u0644\u062f \u0623\u0645\u064a\u0646", "int_name": "Kh\u0101lid Am\u012bn, Khalid Amin", "is_in": "Iraq , \u062c\u0645\u0647\u0648\u0631\u064a\u0629 \u0627\u0644\u0639\u0631\u0627\u0642", "name": "\u062e\u0627\u0644\u062f \u0623\u0645\u064a\u0646", "name:ar": "\u062e\u0627\u0644\u062f \u0623\u0645\u064a\u0646", "name:ar1": "\u062e\u0627\u0644\u062f \u0623\u0645\u064a\u0646", "name:de": "Khalid Amin", "name:en": "Khalid Amin", "name:fr": "Khalid Amin", "place": "village"}}, {"type": "node", "id": 2488527846, "lat": 33.713871, "lon": 45.411735, "tags": {"alt_name": "\u0645\u0627\u062d\u0648\u0631", "int_name": "M\u0101\u1e29\u016br, \u0645\u0627\u062d\u0648\u0631, Mahur, \u0645\u0627\u062d\u0648\u0631", "is_in": "Iraq , \u062c\u0645\u0647\u0648\u0631\u064a\u0629 \u0627\u0644\u0639\u0631\u0627\u0642", "name": "\u0645\u0627\u062d\u0648\u0631", "name:ar": "\u0645\u0627\u062d\u0648\u0631", "name:ar1": "\u0645\u0627\u062d\u0648\u0631", "name:de": "Mahur", "name:en": "Mahur", "name:fr": "Mahur", "place": "village"}}, {"type": "node", "id": 2488527861, "lat": 33.775023, "lon": 45.34348, "tags": {"alt_name": "\u0642\u0644\u0639\u0629 \u0633\u064a\u062f \u0641\u0631\u064a\u062d", "int_name": "Qalat Sayyid Furay\u1e29, \u0642\u0644\u0639\u0629 \u0633\u064a\u062f \u0641\u0631\u064a\u062d, Qalat Sayyid Furayh, \u0642\u0644\u0639\u0629 \u0633\u064a\u062f \u0641\u0631\u064a\u062d", "is_in": "Iraq , \u062c\u0645\u0647\u0648\u0631\u064a\u0629 \u0627\u0644\u0639\u0631\u0627\u0642", "name": "\u0642\u0644\u0639\u0629 \u0633\u064a\u062f \u0641\u0631\u064a\u062d", "name:ar": "\u0642\u0644\u0639\u0629 \u0633\u064a\u062f \u0641\u0631\u064a\u062d", "name:ar1": "\u0642\u0644\u0639\u0629 \u0633\u064a\u062f \u0641\u0631\u064a\u062d", "name:de": "Qalat Sayyid Furayh", "name:en": "Qalat Sayyid Furayh", "name:fr": "Qalat Sayyid Furayh", "place": "village"}}, {"type": "node", "id": 2488527866, "lat": 33.7800121, "lon": 45.3916268, "tags": {"alt_name": "\u0642\u0631\u064a\u0629 \u0623\u0632\u0631\u0643 \u0627\u0644\u0639\u062c\u064a\u0628", "int_name": "Qaryat Azrak al Aj\u012bb, Qaryat Azrak al Ajib", "is_in": "Iraq , \u062c\u0645\u0647\u0648\u0631\u064a\u0629 \u0627\u0644\u0639\u0631\u0627\u0642", "name": "\u0642\u0631\u064a\u0629 \u0623\u0632\u0631\u0643 \u0627\u0644\u0639\u062c\u064a\u0628", "name:ar": "\u0642\u0631\u064a\u0629 \u0623\u0632\u0631\u0643 \u0627\u0644\u0639\u062c\u064a\u0628", "name:ar1": "\u0642\u0631\u064a\u0629 \u0623\u0632\u0631\u0643 \u0627\u0644\u0639\u062c\u064a\u0628", "name:de": "Qaryat Azrak al Ajib", "name:en": "Qaryat Azrak al Ajib", "name:fr": "Qaryat Azrak al Ajib", "place": "village"}}, {"type": "node", "id": 2488527871, "lat": 33.76566, "lon": 45.377672, "tags": {"alt_name": "\u0642\u0631\u064a\u0629 \u062d\u0648\u0645 \u0627\u0644\u0639\u0644\u064a\u0648\u064a", "int_name": "Qaryat \u1e28awm al Alyaw\u012b, \u0642\u0631\u064a\u0629 \u062d\u0648\u0645 \u0627\u0644\u0639\u0644\u064a\u0648\u064a, Qaryat Hawm al Alyawi, \u0642\u0631\u064a\u0629 \u062d\u0648\u0645 \u0627\u0644\u0639\u0644\u064a\u0648\u064a", "is_in": "Iraq , \u062c\u0645\u0647\u0648\u0631\u064a\u0629 \u0627\u0644\u0639\u0631\u0627\u0642", "name": "\u0642\u0631\u064a\u0629 \u062d\u0648\u0645 \u0627\u0644\u0639\u0644\u064a\u0648\u064a", "name:ar": "\u0642\u0631\u064a\u0629 \u062d\u0648\u0645 \u0627\u0644\u0639\u0644\u064a\u0648\u064a", "name:ar1": "\u0642\u0631\u064a\u0629 \u062d\u0648\u0645 \u0627\u0644\u0639\u0644\u064a\u0648\u064a", "name:de": "Qaryat Hawm al Alyawi", "name:en": "Qaryat Hawm al Alyawi", "name:fr": "Qaryat Hawm al Alyawi", "place": "village"}}, {"type": "node", "id": 2488527876, "lat": 33.758034, "lon": 45.408722, "tags": {"alt_name": "\u0642\u0631\u064a\u0629 \u0645\u0639\u0645\u0644 \u0627\u0644\u0637\u0627\u0628\u0648\u0642", "int_name": "Qaryat Mamal a\u0163 \u0162\u0101b\u016bq, \u0642\u0631\u064a\u0629 \u0645\u0639\u0645\u0644 \u0627\u0644\u0637\u0627\u0628\u0648\u0642, Qaryat Mamal at Tabuq, \u0642\u0631\u064a\u0629 \u0645\u0639\u0645\u0644 \u0627\u0644\u0637\u0627\u0628\u0648\u0642", "is_in": "Iraq , \u062c\u0645\u0647\u0648\u0631\u064a\u0629 \u0627\u0644\u0639\u0631\u0627\u0642", "name": "\u0642\u0631\u064a\u0629 \u0645\u0639\u0645\u0644 \u0627\u0644\u0637\u0627\u0628\u0648\u0642", "name:ar": "\u0642\u0631\u064a\u0629 \u0645\u0639\u0645\u0644 \u0627\u0644\u0637\u0627\u0628\u0648\u0642", "name:ar1": "\u0642\u0631\u064a\u0629 \u0645\u0639\u0645\u0644 \u0627\u0644\u0637\u0627\u0628\u0648\u0642", "name:de": "Qaryat Mamal at Tabuq", "name:en": "Qaryat Mamal at Tabuq", "name:fr": "Qaryat Mamal at Tabuq", "place": "village"}}, {"type": "node", "id": 2488527881, "lat": 33.783211, "lon": 45.380651, "tags": {"alt_name": "\u0642\u0631\u064a\u0629 \u0645\u062d\u0633\u0646", "int_name": "Qaryat Mu\u1e29sin, \u0642\u0631\u064a\u0629 \u0645\u062d\u0633\u0646, Qaryat Muhsin, \u0642\u0631\u064a\u0629 \u0645\u062d\u0633\u0646", "is_in": "Iraq , \u062c\u0645\u0647\u0648\u0631\u064a\u0629 \u0627\u0644\u0639\u0631\u0627\u0642", "name": "\u0642\u0631\u064a\u0629 \u0645\u062d\u0633\u0646", "name:ar": "\u0642\u0631\u064a\u0629 \u0645\u062d\u0633\u0646", "name:ar1": "\u0642\u0631\u064a\u0629 \u0645\u062d\u0633\u0646", "name:de": "Qaryat Muhsin", "name:en": "Qaryat Muhsin", "name:fr": "Qaryat Muhsin", "place": "village"}}, {"type": "node", "id": 2488527897, "lat": 33.7015302, "lon": 45.4065688, "tags": {"alt_name": "\u062e\u0627\u0644\u062f\u0623\u0645\u064a\u0646", "int_name": "\u062e\u0627\u0644\u062f\u0623\u0645\u064a\u0646, \u062e\u0627\u0644\u062f\u0623\u0645\u064a\u0646", "is_in": "Iraq , \u062c\u0645\u0647\u0648\u0631\u064a\u0629 \u0627\u0644\u0639\u0631\u0627\u0642", "name": "\u062e\u0627\u0644\u062f\u0623\u0645\u064a\u0646", "name:ar": "\u062e\u0627\u0644\u062f\u0623\u0645\u064a\u0646", "name:ar1": "\u062e\u0627\u0644\u062f\u0623\u0645\u064a\u0646", "name:de": "Khaled Amin", "name:en": "Khaled Amin", "name:fr": "Khaled Amin", "place": "village"}}, {"type": "node", "id": 2488527902, "lat": 33.7802521, "lon": 45.3916268, "tags": {"alt_name": "\u0642\u0631\u064a\u0629 \u0627\u0632\u0631\u0643 \u0627\u0644\u0639\u062c\u064a\u0628", "int_name": "\u0642\u0631\u064a\u0629 \u0627\u0632\u0631\u0643 \u0627\u0644\u0639\u062c\u064a\u0628, \u0642\u0631\u064a\u0629 \u0627\u0632\u0631\u0643 \u0627\u0644\u0639\u062c\u064a\u0628", "is_in": "Iraq , \u062c\u0645\u0647\u0648\u0631\u064a\u0629 \u0627\u0644\u0639\u0631\u0627\u0642", "name": "\u0642\u0631\u064a\u0629 \u0627\u0632\u0631\u0643 \u0627\u0644\u0639\u062c\u064a\u0628", "name:ar": "\u0642\u0631\u064a\u0629 \u0627\u0632\u0631\u0643 \u0627\u0644\u0639\u062c\u064a\u0628", "name:ar1": "\u0642\u0631\u064a\u0629 \u0627\u0632\u0631\u0643 \u0627\u0644\u0639\u062c\u064a\u0628", "name:de": "\u0642\u0631\u064a\u0629 \u0627\u0632\u0631\u0643 \u0627\u0644\u0639\u062c\u064a\u0628", "name:fr": "\u0642\u0631\u064a\u0629 \u0627\u0632\u0631\u0643 \u0627\u0644\u0639\u062c\u064a\u0628", "place": "village"}}, {"type": "node", "id": 2488528713, "lat": 33.862497, "lon": 45.287396, "tags": {"alt_name": "\u0627\u0644\u0646\u062f\u0649", "int_name": "An Nad\u00e1, Nidah, \u0627\u0644\u0646\u062f\u0649, An Nada, Nidah, \u0627\u0644\u0646\u062f\u0649", "is_in": "Iraq , \u062c\u0645\u0647\u0648\u0631\u064a\u0629 \u0627\u0644\u0639\u0631\u0627\u0642", "name": "\u0627\u0644\u0646\u062f\u0649", "name:ar": "\u0627\u0644\u0646\u062f\u0649", "name:ar1": "\u0627\u0644\u0646\u062f\u0649", "name:de": "An Nada", "name:en": "An Nada", "name:fr": "An Nada", "place": "village"}}, {"type": "node", "id": 2488528720, "lat": 33.853167, "lon": 45.248277, "tags": {"alt_name": "\u0639\u0631\u0628 \u0625\u0628\u0631\u0627\u0647\u064a\u0645 \u0627\u0644\u062e\u0644\u064a\u0644", "int_name": "Arab Ibr\u0101h\u012bm al Khal\u012bl, \u0639\u0631\u0628 \u0627\u0628\u0631\u0627\u0647\u064a\u0645 \u0627\u0644\u062e\u0644\u064a\u0644, Arab Ibrahim al Khalil, \u0639\u0631\u0628 \u0627\u0628\u0631\u0627\u0647\u064a\u0645 \u0627\u0644\u062e\u0644\u064a\u0644", "is_in": "Iraq , \u062c\u0645\u0647\u0648\u0631\u064a\u0629 \u0627\u0644\u0639\u0631\u0627\u0642", "name": "\u0639\u0631\u0628 \u0625\u0628\u0631\u0627\u0647\u064a\u0645 \u0627\u0644\u062e\u0644\u064a\u0644", "name:ar": "\u0642\u0631\u064a\u0629 \u0627\u0644 \u062d\u0645\u064a\u0631", "name:ar1": "\u0639\u0631\u0628 \u0625\u0628\u0631\u0627\u0647\u064a\u0645 \u0627\u0644\u062e\u0644\u064a\u0644", "name:de": "Arab Ibrahim al Khalil", "name:en": "Humayrat village", "name:fr": "Arab Ibrahim al Khalil", "place": "village"}}, {"type": "node", "id": 2488528726, "lat": 33.809813, "lon": 45.290264, "tags": {"alt_name": "\u0639\u0631\u0628 \u062c\u062f\u0639\u0627\u0646", "int_name": "Arab Jad\u0101n, \u0639\u0631\u0628 \u062c\u062f\u0639\u0627\u0646, Arab Jadan, \u0639\u0631\u0628 \u062c\u062f\u0639\u0627\u0646", "is_in": "Iraq , \u062c\u0645\u0647\u0648\u0631\u064a\u0629 \u0627\u0644\u0639\u0631\u0627\u0642", "name": "\u0639\u0631\u0628 \u062c\u062f\u0639\u0627\u0646", "name:ar": "\u0639\u0631\u0628 \u062c\u062f\u0639\u0627\u0646", "name:ar1": "\u0639\u0631\u0628 \u062c\u062f\u0639\u0627\u0646", "name:de": "Arab Jadan", "name:en": "Arab Jadan", "name:fr": "Arab Jadan", "place": "village"}}, {"type": "node", "id": 2488528732, "lat": 33.790124, "lon": 45.2934, "tags": {"alt_name": "\u0639\u0631\u0628 \u0645\u062d\u0645\u062f \u0627\u0644\u0641\u0647\u062f", "int_name": "Arab Mu\u1e29ammad al Fahd, \u0639\u0631\u0628 \u0645\u062d\u0645\u062f \u0627\u0644\u0641\u0647\u062f, Arab Muhammad al Fahd, \u0639\u0631\u0628 \u0645\u062d\u0645\u062f \u0627\u0644\u0641\u0647\u062f", "is_in": "Iraq , \u062c\u0645\u0647\u0648\u0631\u064a\u0629 \u0627\u0644\u0639\u0631\u0627\u0642", "name": "\u0639\u0631\u0628 \u0645\u062d\u0645\u062f \u0627\u0644\u0641\u0647\u062f", "name:ar": "\u0639\u0631\u0628 \u0645\u062d\u0645\u062f \u0627\u0644\u0641\u0647\u062f", "name:ar1": "\u0639\u0631\u0628 \u0645\u062d\u0645\u062f \u0627\u0644\u0641\u0647\u062f", "name:de": "Arab Muhammad al Fahd", "name:en": "Arab Muhammad al Fahd", "name:fr": "Arab Muhammad al Fahd", "place": "village"}}, {"type": "node", "id": 2488528738, "lat": 33.784276, "lon": 45.296937, "tags": {"alt_name": "\u0639\u0631\u0628 \u0627\u0644\u0641\u062d\u0627\u0645", "int_name": "Arab al Fa\u1e29\u1e29\u0101m, \u0639\u0631\u0628 \u0627\u0644\u0641\u062d\u0627\u0645, Arab al Fahham, \u0639\u0631\u0628 \u0627\u0644\u0641\u062d\u0627\u0645", "is_in": "Iraq , \u062c\u0645\u0647\u0648\u0631\u064a\u0629 \u0627\u0644\u0639\u0631\u0627\u0642", "name": "\u0639\u0631\u0628 \u0627\u0644\u0641\u062d\u0627\u0645", "name:ar": "\u0639\u0631\u0628 \u0627\u0644\u0641\u062d\u0627\u0645", "name:ar1": "\u0639\u0631\u0628 \u0627\u0644\u0641\u062d\u0627\u0645", "name:de": "Arab al Fahham", "name:en": "Arab al Fahham", "name:fr": "Arab al Fahham", "place": "village"}}, {"type": "node", "id": 2488528744, "lat": 33.884913, "lon": 45.214044, "tags": {"alt_name": "\u062d\u0633\u064a\u0646 \u0641\u064a\u0636\u064a", "int_name": "\u1e28usayn Fay\u1e11\u012b, \u1e28usayn Fayz\u012b, \u062d\u0633\u064a\u0646 \u0641\u064a\u0636\u064a, Husayn Faydi, Husayn Fayzi, \u062d\u0633\u064a\u0646 \u0641\u064a\u0636\u064a", "is_in": "Iraq , \u062c\u0645\u0647\u0648\u0631\u064a\u0629 \u0627\u0644\u0639\u0631\u0627\u0642", "name": "\u062d\u0633\u064a\u0646 \u0641\u064a\u0636\u064a", "name:ar": "\u062d\u0633\u064a\u0646 \u0641\u064a\u0636\u064a", "name:ar1": "\u062d\u0633\u064a\u0646 \u0641\u064a\u0636\u064a", "name:de": "Husayn Faydi", "name:en": "Husayn Faydi", "name:fr": "Husayn Faydi", "place": "village"}}, {"type": "node", "id": 2488528769, "lat": 33.7196045, "lon": 45.2897631, "tags": {"alt_name": "\u0643\u0631 \u0643\u0634", "int_name": "Kir Kush, Kir Kush", "is_in": "Iraq , \u062c\u0645\u0647\u0648\u0631\u064a\u0629 \u0627\u0644\u0639\u0631\u0627\u0642", "name": "\u0643\u0631 \u0643\u0634", "name:ar": "\u0643\u0631 \u0643\u0634", "name:ar1": "\u0643\u0631 \u0643\u0634", "name:de": "Kir Kush", "name:en": "Kir Kush", "name:fr": "Kir Kush", "place": "village"}}, {"type": "node", "id": 2488528775, "lat": 33.7189915, "lon": 45.2902193, "tags": {"alt_name": "\u0643\u0631\u062e\u0648\u0634", "int_name": "Kirkh\u016bsh, Kirkhush", "is_in": "Iraq , \u062c\u0645\u0647\u0648\u0631\u064a\u0629 \u0627\u0644\u0639\u0631\u0627\u0642", "name": "\u0643\u0631\u062e\u0648\u0634", "name:ar": "\u0643\u0631\u062e\u0648\u0634", "name:ar1": "\u0643\u0631\u062e\u0648\u0634", "name:de": "Kirkhush", "name:en": "Kirkhush", "name:fr": "Kirkhush", "name:ru": "\u041a\u0438\u0440\u043a\u0443\u0448", "place": "village"}}, {"type": "node", "id": 2488528779, "lat": 33.886995, "lon": 45.287631, "tags": {"alt_name": "\u0645\u062c\u064a\u062f \u0627\u0644\u0645\u0648\u0633\u0649", "int_name": "Maj\u012bd al M\u016bs\u00e1, \u0645\u062c\u064a\u062f \u0627\u0644\u0645\u0648\u0633\u0649, Majid al Musa, \u0645\u062c\u064a\u062f \u0627\u0644\u0645\u0648\u0633\u0649", "is_in": "Iraq , \u062c\u0645\u0647\u0648\u0631\u064a\u0629 \u0627\u0644\u0639\u0631\u0627\u0642", "name": "\u0645\u062c\u064a\u062f \u0627\u0644\u0645\u0648\u0633\u0649", "name:ar": "\u0645\u062c\u064a\u062f \u0627\u0644\u0645\u0648\u0633\u0649", "name:ar1": "\u0645\u062c\u064a\u062f \u0627\u0644\u0645\u0648\u0633\u0649", "name:de": "Majid al Musa", "name:en": "Majid al Musa", "name:fr": "Majid al Musa", "place": "village"}}, {"type": "node", "id": 2488528787, "lat": 33.869421, "lon": 45.228194, "tags": {"alt_name": "\u0642\u0631\u064a\u0629 \u062d\u0633\u0646 \u062c\u062d\u064a\u0644", "int_name": "Qaryat \u1e28asan Ju\u1e29ayl, \u0642\u0631\u064a\u0629 \u062d\u0633\u0646 \u062c\u062d\u064a\u0644, Qaryat Hasan Juhayl, \u0642\u0631\u064a\u0629 \u062d\u0633\u0646 \u062c\u062d\u064a\u0644", "is_in": "Iraq , \u062c\u0645\u0647\u0648\u0631\u064a\u0629 \u0627\u0644\u0639\u0631\u0627\u0642", "name": "\u0642\u0631\u064a\u0629 \u062d\u0633\u0646 \u062c\u062d\u064a\u0644", "name:ar": "\u0642\u0631\u064a\u0629 \u062d\u0633\u0646 \u062c\u062d\u064a\u0644", "name:ar1": "\u0642\u0631\u064a\u0629 \u062d\u0633\u0646 \u062c\u062d\u064a\u0644", "name:de": "Qaryat Hasan Juhayl", "name:en": "Qaryat Hasan Juhayl", "name:fr": "Qaryat Hasan Juhayl", "place": "village"}}, {"type": "node", "id": 2488528792, "lat": 33.859435, "lon": 45.260801, "tags": {"alt_name": "\u0642\u0631\u064a\u0629 \u0633\u0644\u0643\u0627\u0645 \u0633\u0644\u0648\u062c\u064a", "int_name": "Qaryat Salk\u0101m Sal\u016bj\u012b, \u0642\u0631\u064a\u0629 \u0633\u0644\u0643\u0627\u0645 \u0633\u0644\u0648\u062c\u064a, Qaryat Salkam Saluji, \u0642\u0631\u064a\u0629 \u0633\u0644\u0643\u0627\u0645 \u0633\u0644\u0648\u062c\u064a", "is_in": "Iraq , \u062c\u0645\u0647\u0648\u0631\u064a\u0629 \u0627\u0644\u0639\u0631\u0627\u0642", "name": "\u0642\u0631\u064a\u0629 \u0633\u0644\u0643\u0627\u0645 \u0633\u0644\u0648\u062c\u064a", "name:ar": "\u0642\u0631\u064a\u0629 \u0634\u0644\u0643\u0627\u0645 \u0633\u0644\u0648\u0645\u064a", "name:ar1": "\u0642\u0631\u064a\u0629 \u0633\u0644\u0643\u0627\u0645 \u0633\u0644\u0648\u062c\u064a", "name:de": "Qaryat Salkam Saluji", "name:en": "Qaryat Shalkam Salumi", "name:fr": "Qaryat Salkam Saluji", "place": "village"}}, {"type": "node", "id": 2488528797, "lat": 33.826377, "lon": 45.245778, "tags": {"alt_name": "\u0642\u0631\u064a\u0629 \u0648\u0633\u0645\u064a \u0627\u0644\u0628\u0631\u063a\u0648\u062b", "int_name": "Qaryat Wasm\u012b al Bargh\u016bth, \u0642\u0631\u064a\u0629 \u0648\u0633\u0645\u064a \u0627\u0644\u0628\u0631\u063a\u0648\u062b, Qaryat Wasmi al Barghuth, \u0642\u0631\u064a\u0629 \u0648\u0633\u0645\u064a \u0627\u0644\u0628\u0631\u063a\u0648\u062b", "is_in": "Iraq , \u062c\u0645\u0647\u0648\u0631\u064a\u0629 \u0627\u0644\u0639\u0631\u0627\u0642", "name": "\u0642\u0631\u064a\u0629 \u0648\u0633\u0645\u064a \u0627\u0644\u0628\u0631\u063a\u0648\u062b", "name:ar": "\u0642\u0631\u064a\u0629 \u0648\u0633\u0645\u064a \u0627\u0644\u0628\u0631\u063a\u0648\u062b", "name:ar1": "\u0642\u0631\u064a\u0629 \u0648\u0633\u0645\u064a \u0627\u0644\u0628\u0631\u063a\u0648\u062b", "name:de": "Qaryat Wasmi al Barghuth", "name:en": "Qaryat Wasmi al Barghuth", "name:fr": "Qaryat Wasmi al Barghuth", "place": "village"}}, {"type": "node", "id": 2488528802, "lat": 33.878441, "lon": 45.288947, "tags": {"alt_name": "\u0642\u0631\u064a\u0629 \u0627\u0644\u0643\u0641\u0627\u062d", "int_name": "Qaryat al Kif\u0101\u1e29, \u0642\u0631\u064a\u0629 \u0627\u0644\u0643\u0641\u0627\u062d, Qaryat al Kifah, \u0642\u0631\u064a\u0629 \u0627\u0644\u0643\u0641\u0627\u062d", "is_in": "Iraq , \u062c\u0645\u0647\u0648\u0631\u064a\u0629 \u0627\u0644\u0639\u0631\u0627\u0642", "name": "\u0642\u0631\u064a\u0629 \u0627\u0644\u0643\u0641\u0627\u062d", "name:ar": "\u0642\u0631\u064a\u0629 \u0627\u0644\u0643\u0641\u0627\u062d", "name:ar1": "\u0642\u0631\u064a\u0629 \u0627\u0644\u0643\u0641\u0627\u062d", "name:de": "Qaryat al Kifah", "name:en": "Qaryat al Kifah", "name:fr": "Qaryat al Kifah", "place": "village"}}, {"type": "node", "id": 2488528813, "lat": 33.880338, "lon": 45.248915, "tags": {"alt_name": "\u0633\u064a\u062f \u0645\u0631\u0627\u062f", "int_name": "Sayyid Mur\u0101d, \u0633\u064a\u062f \u0645\u0631\u0627\u062f, Sayyid Murad, \u0633\u064a\u062f \u0645\u0631\u0627\u062f", "is_in": "Iraq , \u062c\u0645\u0647\u0648\u0631\u064a\u0629 \u0627\u0644\u0639\u0631\u0627\u0642", "name": "\u0633\u064a\u062f \u0645\u0631\u0627\u062f", "name:ar": "\u0633\u064a\u062f \u0645\u0631\u0627\u062f", "name:ar1": "\u0633\u064a\u062f \u0645\u0631\u0627\u062f", "name:de": "Sayyid Murad", "name:en": "Sayyid Murad", "name:fr": "Sayyid Murad", "place": "village"}}, {"type": "node", "id": 2488529403, "lat": 33.8486234, "lon": 45.3221191, "tags": {"alt_name": "\u0639\u0631\u0628 \u062f\u0627\u0648\u0648\u062f \u0627\u0644\u0634\u0637\u0628", "int_name": "Arab D\u0101w\u016bd ash Sha\u0163b, Arab Dawud ash Shatb", "is_in": "Iraq , \u062c\u0645\u0647\u0648\u0631\u064a\u0629 \u0627\u0644\u0639\u0631\u0627\u0642", "name": "\u0639\u0631\u0628 \u062f\u0627\u0648\u0648\u062f \u0627\u0644\u0634\u0637\u0628", "name:ar": "\u0639\u0631\u0628 \u062f\u0627\u0648\u0648\u062f \u0627\u0644\u0634\u0637\u0628", "name:ar1": "\u0639\u0631\u0628 \u062f\u0627\u0648\u0648\u062f \u0627\u0644\u0634\u0637\u0628", "name:de": "Arab Dawud ash Shatb", "name:en": "Arab Dawud ash Shatb", "name:fr": "Arab Dawud ash Shatb", "place": "village"}}, {"type": "node", "id": 2488529443, "lat": 33.8443766, "lon": 45.3356855, "tags": {"alt_name": "\u062d\u0628\u064a\u0628 \u0627\u0644\u062e\u0644\u0637", "int_name": "\u1e28ab\u012bb al Khala\u0163, \u062d\u0628\u064a\u0628 \u0627\u0644\u062e\u0644\u0637, Habib al Khalat, \u062d\u0628\u064a\u0628 \u0627\u0644\u062e\u0644\u0637", "is_in": "Iraq , \u062c\u0645\u0647\u0648\u0631\u064a\u0629 \u0627\u0644\u0639\u0631\u0627\u0642", "name": "\u062d\u0628\u064a\u0628 \u0627\u0644\u062e\u0644\u0637", "name:ar": "\u062d\u0628\u064a\u0628 \u0627\u0644\u062e\u0644\u0637", "name:ar1": "\u062d\u0628\u064a\u0628 \u0627\u0644\u062e\u0644\u0637", "name:de": "Habib al Khalat", "name:en": "Habib al Khalat", "name:fr": "Habib al Khalat", "place": "village"}}, {"type": "node", "id": 2488529527, "lat": 33.867199, "lon": 45.314983, "tags": {"alt_name": "\u0642\u0631\u064a\u0629 \u0634\u062c\u0627\u0639 \u0627\u0644\u0645\u0646\u0627\u064a\u0641", "int_name": "Qaryat Shuj\u0101 al Man\u0101yif, \u0642\u0631\u064a\u0629 \u0634\u062c\u0627\u0639 \u0627\u0644\u0645\u0646\u0627\u064a\u0641, Qaryat Shuja al Manayif, \u0642\u0631\u064a\u0629 \u0634\u062c\u0627\u0639 \u0627\u0644\u0645\u0646\u0627\u064a\u0641", "is_in": "Iraq , \u062c\u0645\u0647\u0648\u0631\u064a\u0629 \u0627\u0644\u0639\u0631\u0627\u0642", "name": "\u0642\u0631\u064a\u0629 \u0634\u062c\u0627\u0639 \u0627\u0644\u0645\u0646\u0627\u064a\u0641", "name:ar": "\u0642\u0631\u064a\u0629 \u0634\u062c\u0627\u0639 \u0627\u0644\u0646\u0627\u064a\u0641", "name:ar1": "\u0642\u0631\u064a\u0629 \u0634\u062c\u0627\u0639 \u0627\u0644\u0645\u0646\u0627\u064a\u0641", "name:de": "Qaryat Shuja al Manayif", "name:en": "Qaryat Shuja al Nayif", "name:fr": "Qaryat Shuja al Manayif", "place": "village"}}, {"type": "node", "id": 2488529597, "lat": 33.8480274, "lon": 45.3222061, "tags": {"alt_name": "\u0639\u0631\u0628 \u062f\u0627\u0648\u062f \u0627\u0644\u0634\u0637\u0628", "int_name": "\u0639\u0631\u0628 \u062f\u0627\u0648\u062f \u0627\u0644\u0634\u0637\u0628, \u0639\u0631\u0628 \u062f\u0627\u0648\u062f \u0627\u0644\u0634\u0637\u0628", "is_in": "Iraq , \u062c\u0645\u0647\u0648\u0631\u064a\u0629 \u0627\u0644\u0639\u0631\u0627\u0642", "name": "\u0639\u0631\u0628 \u062f\u0627\u0648\u062f \u0627\u0644\u0634\u0637\u0628", "name:ar": "\u0639\u0631\u0628 \u062f\u0627\u0648\u062f \u0627\u0644\u0634\u0637\u0628", "name:ar1": "\u0639\u0631\u0628 \u062f\u0627\u0648\u062f \u0627\u0644\u0634\u0637\u0628", "name:de": "\u0639\u0631\u0628 \u062f\u0627\u0648\u062f \u0627\u0644\u0634\u0637\u0628", "name:fr": "\u0639\u0631\u0628 \u062f\u0627\u0648\u062f \u0627\u0644\u0634\u0637\u0628", "place": "village"}}, {"type": "node", "id": 2488596440, "lat": 33.8691, "lon": 45.3914, "tags": {"alt_name": "\u0639\u0631\u0628 \u062e\u0644\u064a\u0641\u0629 \u0627\u0644\u064a\u0648\u0633\u0641", "int_name": "Arab Khal\u012bfat al Y\u016bsuf, \u0639\u0631\u0628 \u062e\u0644\u064a\u0641\u0629 \u0627\u0644\u064a\u0648\u0633\u0641, Arab Khalifat al Yusuf, \u0639\u0631\u0628 \u062e\u0644\u064a\u0641\u0629 \u0627\u0644\u064a\u0648\u0633\u0641", "is_in": "Iraq , \u062c\u0645\u0647\u0648\u0631\u064a\u0629 \u0627\u0644\u0639\u0631\u0627\u0642", "name": "\u0639\u0631\u0628 \u062e\u0644\u064a\u0641\u0629 \u0627\u0644\u064a\u0648\u0633\u0641", "name:ar": "\u0639\u0631\u0628 \u062e\u0644\u064a\u0641\u0629 \u0627\u0644\u064a\u0648\u0633\u0641", "name:ar1": "\u0639\u0631\u0628 \u062e\u0644\u064a\u0641\u0629 \u0627\u0644\u064a\u0648\u0633\u0641", "name:de": "Arab Khalifat al Yusuf", "name:en": "Arab Khalifat al Yusuf", "name:fr": "Arab Khalifat al Yusuf", "place": "village"}}, {"type": "node", "id": 2488596443, "lat": 33.85905, "lon": 45.38797, "tags": {"alt_name": "\u0639\u0631\u0628 \u0645\u062a\u0639\u0628", "int_name": "Arab Mutib, \u0639\u0631\u0628 \u0645\u062a\u0639\u0628, Arab Mutib, \u0639\u0631\u0628 \u0645\u062a\u0639\u0628", "is_in": "Iraq , \u062c\u0645\u0647\u0648\u0631\u064a\u0629 \u0627\u0644\u0639\u0631\u0627\u0642", "name": "\u0639\u0631\u0628 \u0645\u062a\u0639\u0628", "name:ar": "\u0639\u0631\u0628 \u0645\u062a\u0639\u0628", "name:ar1": "\u0639\u0631\u0628 \u0645\u062a\u0639\u0628", "name:de": "Arab Mutib", "name:en": "Arab Mutib", "name:fr": "Arab Mutib", "place": "village"}}, {"type": "node", "id": 2488596444, "lat": 33.8233323, "lon": 45.3395166, "tags": {"alt_name": "\u0639\u0631\u0628 \u0646\u0627\u0635\u0631 \u062d\u0633\u064a\u0646", "int_name": "Arab N\u0101\u015fir \u1e28usayn, \u0639\u0631\u0628 \u0646\u0627\u0635\u0631 \u062d\u0633\u064a\u0646, Arab Nasir Husayn, \u0639\u0631\u0628 \u0646\u0627\u0635\u0631 \u062d\u0633\u064a\u0646", "is_in": "Iraq , \u062c\u0645\u0647\u0648\u0631\u064a\u0629 \u0627\u0644\u0639\u0631\u0627\u0642", "name": "\u0639\u0631\u0628 \u0646\u0627\u0635\u0631 \u062d\u0633\u064a\u0646", "name:ar": "\u0639\u0631\u0628 \u0646\u0627\u0635\u0631 \u062d\u0633\u064a\u0646", "name:ar1": "\u0639\u0631\u0628 \u0646\u0627\u0635\u0631 \u062d\u0633\u064a\u0646", "name:de": "Arab Nasir Husayn", "name:en": "Arab Nasir Husayn", "name:fr": "Arab Nasir Husayn", "place": "village"}}, {"type": "node", "id": 2488596446, "lat": 33.851944, "lon": 45.367778, "tags": {"alt_name": "\u0628\u0628\u0627 \u0643\u064a", "int_name": "Bab\u0101 Guyi, Baba Guyi", "is_in": "Iraq , \u062c\u0645\u0647\u0648\u0631\u064a\u0629 \u0627\u0644\u0639\u0631\u0627\u0642", "name": "\u0628\u0628\u0627 \u0643\u064a", "name:ar": "\u0628\u0628\u0627 \u0643\u064a", "name:ar1": "\u0628\u0628\u0627 \u0643\u064a", "name:de": "Baba Guyi", "name:en": "Baba Guyi", "name:fr": "Baba Guyi", "place": "village"}}, {"type": "node", "id": 2488596448, "lat": 33.822049, "lon": 45.365958, "tags": {"alt_name": "\u0628\u064a\u062a \u0639\u0646\u0643\u0648\u0634", "int_name": "Bayt Anh\u016bsn, Bayt Ank\u016bsh, \u0628\u064a\u062a \u0639\u0646\u0643\u0648\u0634, Bayt Anhusn, Bayt Ankush, \u0628\u064a\u062a \u0639\u0646\u0643\u0648\u0634", "name": "\u0628\u064a\u062a \u0639\u0646\u0643\u0648\u0634", "name:ar": "\u0628\u064a\u062a \u0639\u0646\u0643\u0648\u0634", "name:ar1": "\u0628\u064a\u062a \u0639\u0646\u0643\u0648\u0634", "name:de": "Bayt Anhusn", "name:en": "Bayt Anhusn", "name:fr": "Bayt Anhusn", "place": "village"}}, {"type": "node", "id": 2488596449, "lat": 33.8363018, "lon": 45.3726849, "tags": {"alt_name": "\u062f\u0627\u0648\u0648\u062f \u0627\u0644\u0634\u0637\u0628", "int_name": "D\u0101w\u016bd ash Sha\u0163b, Dawud ash Shatb", "is_in": "Iraq , \u062c\u0645\u0647\u0648\u0631\u064a\u0629 \u0627\u0644\u0639\u0631\u0627\u0642", "name": "\u062f\u0627\u0648\u0648\u062f \u0627\u0644\u0634\u0637\u0628", "name:ar": "\u062f\u0627\u0648\u0648\u062f \u0627\u0644\u0634\u0637\u0628", "name:ar1": "\u062f\u0627\u0648\u0648\u062f \u0627\u0644\u0634\u0637\u0628", "name:de": "Dawud ash Shatb", "name:en": "Dawud ash Shatb", "name:fr": "Dawud ash Shatb", "place": "village"}}, {"type": "node", "id": 2488596450, "lat": 33.8636201, "lon": 45.4023892, "tags": {"alt_name": "\u062c\u0644\u0648\u0628 \u0627\u0644\u0635\u064a\u0627\u062d", "int_name": "Jal\u016bb a\u015f \u015eayy\u0101\u1e29, \u062c\u0644\u0648\u0628 \u0627\u0644\u0635\u064a\u0627\u062d, Jalub as Sayyah, \u062c\u0644\u0648\u0628 \u0627\u0644\u0635\u064a\u0627\u062d", "is_in": "Iraq , \u062c\u0645\u0647\u0648\u0631\u064a\u0629 \u0627\u0644\u0639\u0631\u0627\u0642", "name": "\u062c\u0644\u0648\u0628 \u0627\u0644\u0635\u064a\u0627\u062d", "name:ar": "\u062c\u0644\u0648\u0628 \u0627\u0644\u0635\u064a\u0627\u062d", "name:ar1": "\u062c\u0644\u0648\u0628 \u0627\u0644\u0635\u064a\u0627\u062d", "name:de": "Jalub as Sayyah", "name:en": "Jalub as Sayyah", "name:fr": "Jalub as Sayyah", "place": "village"}}, {"type": "node", "id": 2488596451, "lat": 33.8640617, "lon": 45.4025122, "tags": {"alt_name": "\u062c\u0627\u0631\u0628 \u0627\u0644\u0635\u064a\u0627\u062d", "int_name": "J\u0101rib a\u015f \u015eayy\u0101\u1e29, \u062c\u0627\u0631\u0628 \u0627\u0644\u0635\u064a\u0627\u062d, Jarib as Sayyah, \u062c\u0627\u0631\u0628 \u0627\u0644\u0635\u064a\u0627\u062d", "is_in": "Iraq , \u062c\u0645\u0647\u0648\u0631\u064a\u0629 \u0627\u0644\u0639\u0631\u0627\u0642", "name": "\u062c\u0627\u0631\u0628 \u0627\u0644\u0635\u064a\u0627\u062d", "name:ar": "\u062c\u0627\u0631\u0628 \u0627\u0644\u0635\u064a\u0627\u062d", "name:ar1": "\u062c\u0627\u0631\u0628 \u0627\u0644\u0635\u064a\u0627\u062d", "name:de": "Jarib as Sayyah", "name:en": "Jarib as Sayyah", "name:fr": "Jarib as Sayyah", "place": "village"}}, {"type": "node", "id": 2488596453, "lat": 33.826717, "lon": 45.356564, "tags": {"alt_name": "\u0645\u062c\u064a\u062f \u063a\u0634\u064a\u0645", "int_name": "Maj\u012bd Ghash\u012bm, \u0645\u062c\u064a\u062f \u063a\u0634\u064a\u0645, Majid Ghashim, \u0645\u062c\u064a\u062f \u063a\u0634\u064a\u0645", "is_in": "Iraq , \u062c\u0645\u0647\u0648\u0631\u064a\u0629 \u0627\u0644\u0639\u0631\u0627\u0642", "name": "\u0645\u062c\u064a\u062f \u063a\u0634\u064a\u0645", "name:ar": "\u0645\u062c\u064a\u062f \u063a\u0634\u064a\u0645", "name:ar1": "\u0645\u062c\u064a\u062f \u063a\u0634\u064a\u0645", "name:de": "Majid Ghashim", "name:en": "Majid Ghashim", "name:fr": "Majid Ghashim", "place": "village"}}, {"type": "node", "id": 2488596454, "lat": 33.873889, "lon": 45.455278, "tags": {"alt_name": "\u0645\u0643\u0627\u062a\u0648", "int_name": "Mak\u0101t\u016b, Makatu", "is_in": "Iraq , \u062c\u0645\u0647\u0648\u0631\u064a\u0629 \u0627\u0644\u0639\u0631\u0627\u0642", "name": "\u0645\u0643\u0627\u062a\u0648", "name:ar": "\u0645\u0643\u0627\u062a\u0648", "name:ar1": "\u0645\u0643\u0627\u062a\u0648", "name:de": "Makatu", "name:en": "Makatu", "name:fr": "Makatu", "name:ru": "\u041c\u0430\u043a\u0430\u0442\u0443", "place": "village"}}, {"type": "node", "id": 2488596460, "lat": 33.875524, "lon": 45.403692, "tags": {"alt_name": "\u0645\u0644\u0627 \u062c\u0644\u0648\u0628 \u0627\u0644\u0633\u0628\u0639", "int_name": "Mull\u0101 Chal\u016bb as Sab, \u0645\u0644\u0627 \u0686\u0644\u0648\u0628 \u0627\u0644\u0633\u0628\u0639, Mulla Chalub as Sab, \u0645\u0644\u0627 \u0686\u0644\u0648\u0628 \u0627\u0644\u0633\u0628\u0639", "is_in": "Iraq , \u062c\u0645\u0647\u0648\u0631\u064a\u0629 \u0627\u0644\u0639\u0631\u0627\u0642", "name": "\u0645\u0644\u0627 \u062c\u0644\u0648\u0628 \u0627\u0644\u0633\u0628\u0639", "name:ar": "\u0645\u0644\u0627 \u062c\u0644\u0648\u0628 \u0627\u0644\u0633\u0628\u0639", "name:ar1": "\u0645\u0644\u0627 \u062c\u0644\u0648\u0628 \u0627\u0644\u0633\u0628\u0639", "name:de": "Mulla Chalub as Sab", "name:en": "Mulla Chalub as Sab", "name:fr": "Mulla Chalub as Sab", "place": "village"}}, {"type": "node", "id": 2488596462, "lat": 33.8237735, "lon": 45.3395508, "tags": {"alt_name": "\u0646\u0627\u0635\u0631 \u062d\u0633\u064a\u0646", "int_name": "N\u0101\u015fir \u1e28usayn, \u0646\u0627\u0635\u0631 \u062d\u0633\u064a\u0646, Nasir Husayn, \u0646\u0627\u0635\u0631 \u062d\u0633\u064a\u0646", "is_in": "Iraq , \u062c\u0645\u0647\u0648\u0631\u064a\u0629 \u0627\u0644\u0639\u0631\u0627\u0642", "name": "\u0646\u0627\u0635\u0631 \u062d\u0633\u064a\u0646", "name:ar": "\u0646\u0627\u0635\u0631 \u062d\u0633\u064a\u0646", "name:ar1": "\u0646\u0627\u0635\u0631 \u062d\u0633\u064a\u0646", "name:de": "Nasir Husayn", "name:en": "Nasir Husayn", "name:fr": "Nasir Husayn", "place": "village"}}, {"type": "node", "id": 2488596468, "lat": 33.83955, "lon": 45.340253, "tags": {"alt_name": "\u0642\u0631\u064a\u0629 \u0628\u064a\u062a \u0631\u0648\u0636\u0627\u0646", "int_name": "Qaryat Bayt Raw\u1e11\u0101n, \u0642\u0631\u064a\u0629 \u0628\u064a\u062a \u0631\u0648\u0636\u0627\u0646, Qaryat Bayt Rawdan, \u0642\u0631\u064a\u0629 \u0628\u064a\u062a \u0631\u0648\u0636\u0627\u0646", "name": "\u0642\u0631\u064a\u0629 \u0628\u064a\u062a \u0631\u0648\u0636\u0627\u0646", "name:ar": "\u0642\u0631\u064a\u0629 \u0628\u064a\u062a \u0631\u0648\u0636\u0627\u0646", "name:ar1": "\u0642\u0631\u064a\u0629 \u0628\u064a\u062a \u0631\u0648\u0636\u0627\u0646", "name:de": "Qaryat Bayt Rawdan", "name:en": "Qaryat Bayt Rawdan", "name:fr": "Qaryat Bayt Rawdan", "place": "village"}}, {"type": "node", "id": 2488596482, "lat": 33.806155, "lon": 45.344343, "tags": {"alt_name": "\u0642\u0631\u064a\u0629 \u0627\u0644\u0639\u0645\u0627\u064a\u0644 \u0627\u0644\u0623\u0648\u0644\u0649", "int_name": "Qaryat al Am\u0101yil al \u016al\u00e1, \u0642\u0631\u064a\u0629 \u0627\u0644\u0639\u0645\u0627\u064a\u0644 \u0627\u0644\u0627\u0648\u0644\u0649, Qaryat al Amayil al Ula, \u0642\u0631\u064a\u0629 \u0627\u0644\u0639\u0645\u0627\u064a\u0644 \u0627\u0644\u0627\u0648\u0644\u0649", "is_in": "Iraq , \u062c\u0645\u0647\u0648\u0631\u064a\u0629 \u0627\u0644\u0639\u0631\u0627\u0642", "name": "\u0642\u0631\u064a\u0629 \u0627\u0644\u0639\u0645\u0627\u064a\u0644 \u0627\u0644\u0623\u0648\u0644\u0649", "name:ar": "\u0642\u0631\u064a\u0629 \u0627\u0644\u0639\u0645\u0627\u064a\u0644 \u0627\u0644\u0623\u0648\u0644\u0649", "name:ar1": "\u0642\u0631\u064a\u0629 \u0627\u0644\u0639\u0645\u0627\u064a\u0644 \u0627\u0644\u0623\u0648\u0644\u0649", "name:de": "Qaryat al Amayil al Ula", "name:en": "Qaryat al Amayil al Ula", "name:fr": "Qaryat al Amayil al Ula", "place": "hamlet"}}, {"type": "node", "id": 2488596490, "lat": 33.821151, "lon": 45.362197, "tags": {"alt_name": "\u0642\u0631\u064a\u0629 \u0627\u0644\u0639\u0645\u0627\u064a\u0644 \u0627\u0644\u062b\u0627\u0646\u064a\u0629", "int_name": "Qaryat al Am\u0101yil ath Th\u0101niyah, \u0642\u0631\u064a\u0629 \u0627\u0644\u0639\u0645\u0627\u064a\u0644 \u0627\u0644\u062b\u0627\u0646\u064a\u0629, Qaryat al Amayil ath Thaniyah, \u0642\u0631\u064a\u0629 \u0627\u0644\u0639\u0645\u0627\u064a\u0644 \u0627\u0644\u062b\u0627\u0646\u064a\u0629", "is_in": "Iraq , \u062c\u0645\u0647\u0648\u0631\u064a\u0629 \u0627\u0644\u0639\u0631\u0627\u0642", "name": "\u0642\u0631\u064a\u0629 \u0627\u0644\u0639\u0645\u0627\u064a\u0644 \u0627\u0644\u062b\u0627\u0646\u064a\u0629", "name:ar": "\u0642\u0631\u064a\u0629 \u0627\u0644\u0639\u0645\u0627\u064a\u0644 \u0627\u0644\u062b\u0627\u0646\u064a\u0629", "name:ar1": "\u0642\u0631\u064a\u0629 \u0627\u0644\u0639\u0645\u0627\u064a\u0644 \u0627\u0644\u062b\u0627\u0646\u064a\u0629", "name:de": "Qaryat al Amayil ath Thaniyah", "name:en": "Qaryat al Amayil ath Thaniyah", "name:fr": "Qaryat al Amayil ath Thaniyah", "place": "village"}}, {"type": "node", "id": 2488596498, "lat": 33.853858, "lon": 45.389345, "tags": {"alt_name": "\u0642\u0631\u064a\u0629 \u0627\u0644\u0639\u0627\u0635\u0645\u0629", "int_name": "Qaryat al \u0100\u015fimah, \u0642\u0631\u064a\u0629 \u0627\u0644\u0639\u0627\u0635\u0645\u0629, Qaryat al Asimah, \u0642\u0631\u064a\u0629 \u0627\u0644\u0639\u0627\u0635\u0645\u0629", "is_in": "Iraq , \u062c\u0645\u0647\u0648\u0631\u064a\u0629 \u0627\u0644\u0639\u0631\u0627\u0642", "name": "\u0642\u0631\u064a\u0629 \u0627\u0644\u0639\u0627\u0635\u0645\u0629", "name:ar": "\u0642\u0631\u064a\u0629 \u0627\u0644\u0639\u0627\u0635\u0645\u0629", "name:ar1": "\u0642\u0631\u064a\u0629 \u0627\u0644\u0639\u0627\u0635\u0645\u0629", "name:de": "Qaryat al Asimah", "name:en": "Qaryat al Asimah", "name:fr": "Qaryat al Asimah", "place": "village"}}, {"type": "node", "id": 2488596506, "lat": 33.888282, "lon": 45.383618, "tags": {"alt_name": "\u0642\u0631\u064a\u0629 \u0627\u0644\u0646\u062f\u0629", "int_name": "Qaryat an Nadah, \u0642\u0631\u064a\u0629 \u0627\u0644\u0646\u062f\u0629, Qaryat an Nadah, \u0642\u0631\u064a\u0629 \u0627\u0644\u0646\u062f\u0629", "is_in": "Iraq , \u062c\u0645\u0647\u0648\u0631\u064a\u0629 \u0627\u0644\u0639\u0631\u0627\u0642", "name": "\u0642\u0631\u064a\u0629 \u0627\u0644\u0646\u062f\u0629", "name:ar": "\u0642\u0631\u064a\u0629 \u0627\u0644\u0646\u062f\u0629", "name:ar1": "\u0642\u0631\u064a\u0629 \u0627\u0644\u0646\u062f\u0629", "name:de": "Qaryat an Nadah", "name:en": "Qaryat an Nadah", "name:fr": "Qaryat an Nadah", "place": "village"}}, {"type": "node", "id": 2488596520, "lat": 33.8367834, "lon": 45.3727156, "tags": {"alt_name": "\u062f\u0627\u0648\u062f \u0627\u0644\u0634\u0637\u0628", "int_name": "\u062f\u0627\u0648\u062f \u0627\u0644\u0634\u0637\u0628, \u062f\u0627\u0648\u062f \u0627\u0644\u0634\u0637\u0628", "is_in": "Iraq , \u062c\u0645\u0647\u0648\u0631\u064a\u0629 \u0627\u0644\u0639\u0631\u0627\u0642", "name": "\u062f\u0627\u0648\u062f \u0627\u0644\u0634\u0637\u0628", "name:ar": "\u062f\u0627\u0648\u062f \u0627\u0644\u0634\u0637\u0628", "name:ar1": "\u062f\u0627\u0648\u062f \u0627\u0644\u0634\u0637\u0628", "name:de": "\u062f\u0627\u0648\u062f \u0627\u0644\u0634\u0637\u0628", "name:fr": "\u062f\u0627\u0648\u062f \u0627\u0644\u0634\u0637\u0628", "place": "village"}}, {"type": "node", "id": 9722009417, "lat": 33.8167873, "lon": 45.4802297, "tags": {"name": "\u0642\u0631\u064a\u0629 \u0645\u0631\u0627\u0648\u064a\u0633", "place": "village"}}]}