{"version": 0.6, "generator": "Overpass API 0.7.61.5 4133829e", "osm3s": {"timestamp_osm_base": "2024-03-06T11:17:45Z", "copyright": "The data included in this document is from www.openstreetmap.org. The data is made available under ODbL."}, "elements": [{"type": "node", "id": 303136427, "lat": 37.2451912, "lon": 44.3142528, "tags": {"name": "Akt\u00fct\u00fcn", "name:ku": "B\u00eazel\u00ea", "place": "hamlet"}}, {"type": "node", "id": 1108652930, "lat": 37.0812795, "lon": 44.3119308, "tags": {"alt_name": "Ban\u015f", "name": "Derecik", "name:ce": "\u0414\u0435\u0440\u0435\u0434\u0436\u0438\u043a", "name:ckb": "\u0695\u0648\u0648\u0628\u0627\u0631\u06c6\u06a9", "name:ku": "R\u00fbbarok", "name:tt": "\u0414\u0435\u0440\u0435\u0497\u0438\u043a", "place": "town", "population": "9288", "wikidata": "Q1199986", "wikipedia": "tr:Derecik, Hakk\u00e2ri"}}, {"type": "node", "id": 1108708276, "lat": 37.1694946, "lon": 44.4097835, "tags": {"name": "Ortaklar", "name:ku": "B\u00easosin", "place": "village", "population": "2401", "wikidata": "Q6582440", "wikipedia": "tr:Ortaklar, Derecik"}}, {"type": "node", "id": 1108708325, "lat": 37.1755317, "lon": 44.440425, "tags": {"description": "Derecik, Ortaklar K\u00f6y\u00fc, \u00d6rencik mezras\u0131", "is_in": "Turkey, Hakkari, \u015eemdinli", "name": "\u00d6rencik", "name:ku": "B\u00eanavoke", "place": "hamlet", "source_name:ku": "http://www.yuksekovahaber.com/haber/canan-derecik-bolgesinde-52465.htm"}}, {"type": "node", "id": 1108710800, "lat": 37.1125147, "lon": 44.3806434, "tags": {"name": "Uslu", "name:ku": "Hordin", "place": "village", "population": "1100", "wikidata": "Q98522551", "wikipedia": "tr:Uslu, Derecik"}}, {"type": "node", "id": 1108739362, "lat": 37.2395328, "lon": 44.4465326, "tags": {"name": "Yaylap\u0131nar", "name:ku": "Salaran", "place": "village", "wikidata": "Q984694", "wikipedia": "tr:Yaylap\u0131nar, \u015eemdinli"}}, {"type": "node", "id": 1482241038, "lat": 37.2719292, "lon": 44.239435, "tags": {"name": "Ayranl\u0131", "name:hy": "\u0532\u0565\u0564\u0565\u057e\u0561", "name:ku": "B\u00eadew", "place": "village", "source": "HGK", "wikidata": "Q6898786", "wikipedia": "tr:Ayranl\u0131, \u015eemdinli"}}, {"type": "node", "id": 1482241053, "lat": 37.11787, "lon": 44.425003, "tags": {"name": "Geli\u015fen", "name:ku": "\u015eepeta Gerd\u00ee", "place": "village", "population": "3988", "wikidata": "Q3678198", "wikipedia": "tr:Geli\u015fen, Derecik"}}, {"type": "node", "id": 1482241081, "lat": 37.2458961, "lon": 44.2659293, "tags": {"name": "Me\u015felik", "name:ku": "Herk\u00ee", "place": "village", "source": "HGK", "wikidata": "Q6071518", "wikipedia": "tr:Me\u015felik, \u015eemdinli"}}, {"type": "node", "id": 1482241100, "lat": 37.216518, "lon": 44.507362, "tags": {"name": "T\u00fct\u00fcnl\u00fc", "name:ku": "Ewliyan", "place": "village", "source": "HGK", "wikidata": "Q3668064", "wikipedia": "tr:T\u00fct\u00fcnl\u00fc, \u015eemdinli"}}, {"type": "node", "id": 1482241101, "lat": 37.254753, "lon": 44.361496, "tags": {"alt_name:ku": "B\u00eadkar;B\u00eatkar;B\u00eadkarok", "name": "U\u011fura\u00e7an", "name:ku": "B\u00eadkare", "place": "village", "source": "HGK", "wikidata": "Q987306", "wikipedia": "tr:U\u011fura\u00e7an, \u015eemdinli"}}, {"type": "node", "id": 2307245926, "lat": 37.2604715, "lon": 44.3423241, "tags": {"alt_name:ku": "Nixayla", "name": "Konur", "name:ku": "Nixayila", "place": "village", "source_name:ku": "http://www.yuksekovahaber.com/haber/semdinlide-secimi-kazanan-muhtar-yayla-senligi-duzenledi-128922.htm", "wikidata": "Q985951", "wikipedia": "tr:Konur, \u015eemdinli"}}, {"type": "node", "id": 2480237924, "lat": 37.135221, "lon": 44.071006, "tags": {"int_name": "Bargli, Barkal\u0113, Barkl\u012b, \u0628\u0631\u0643\u0644\u064a, Bargli, Barkale, Barkli, \u0628\u0631\u0643\u0644\u064a", "name": "\u0628\u06d5\u0631\u06a9\u06d5\u0644\u06ce", "name:ar": "\u0628\u0631\u0643\u0644\u064a", "name:ckb": "\u0628\u06d5\u0631\u06a9\u06d5\u0644\u06ce", "name:de": "Barkale", "name:en": "Barkale", "name:fr": "Barkale", "name:ku": "Berkel\u00ea", "place": "village", "wikipedia": "ckb: \u0628\u06d5\u0631\u06a9\u06d5\u0644\u06ce"}}, {"type": "node", "id": 2480237927, "lat": 37.125074, "lon": 44.089309, "tags": {"alt_name": "\u0628\u064a\u0632\u064a\u0627\u0646", "int_name": "B\u012bzhiy\u0101n, Bizian, B\u012bziy\u0101n, \u0628\u064a\u0632\u064a\u0627\u0646, Bizhiyan, Bizian, Biziyan, \u0628\u064a\u0632\u064a\u0627\u0646", "name": "\u0628\u0698\u06cc\u0627\u0646", "name:ar": "\u0628\u0632\u064a\u0627\u0646", "name:ckb": "\u0628\u0698\u06cc\u0627\u0646", "name:de": "Bzhyan", "name:en": "Bzhyan", "name:fr": "Bzhyan", "name:ku": "Bijyan", "place": "village", "wikipedia": "\u0628\u0698\u06cc\u0627\u0646\u060c \u0642\u06d5\u0632\u0627\u06cc \u0645\u06ce\u0631\u06af\u06d5\u0633\u06c6\u0631"}}, {"type": "node", "id": 2480237929, "lat": 37.118828, "lon": 44.093931, "tags": {"int_name": "B\u016bs\u0113, B\u016bs\u012b, \u0628\u0648\u0633\u064a, Buse, Busi, \u0628\u0648\u0633\u064a", "name": "\u0628\u0648\u0633\u06ce", "name:ar": "\u0628\u0648\u0633\u064a", "name:ckb": "\u0628\u0648\u0633\u06ce", "name:de": "Buse", "name:en": "Buse", "name:fr": "Buse", "name:ku": "Bus\u00ea", "place": "village", "wikipedia": "ckb: \u0628\u0648\u0633\u06ce"}}, {"type": "node", "id": 2480237941, "lat": 37.173626, "lon": 44.028287, "tags": {"alt_name": "\u0628\u064a\u0627\u0631\u0649", "int_name": "\u0628\u064a\u0627\u0631\u0649", "is_in": "Iraq , \u062c\u0645\u0647\u0648\u0631\u064a\u0629 \u0627\u0644\u0639\u0631\u0627\u0642", "name": "\u0628\u06cc\u0627\u0631\u06ce", "name:ar": "\u0628\u064a\u0627\u0631\u0649", "name:ar1": "\u0628\u064a\u0627\u0631\u0649", "name:en": "Biyare", "name:ku": "\u0628\u06cc\u0627\u0631\u06ce", "place": "village"}}, {"type": "node", "id": 2480237988, "lat": 37.272756, "lon": 44.102431, "tags": {"alt_name": "\u06a9\u06cc \u0633\u06d5\u0631\u0648\u0648", "alt_name:ku": "K\u00ee Ser\u00fb", "int_name": "Key, K\u012b Jawr, Ki Jor, K\u012b Zh\u012br\u012b, Kiy\u0113 Zh\u014dr\u012b, \u0643\u064a \u062c\u0648\u0631, Key, Ki Jawr, Ki Jor, Ki Zhiri, Kiye Zhori, \u0643\u064a \u062c\u0648\u0631", "name": "\u06a9\u06cc \u0698\u06c6\u0631\u06cc", "name:ar": "\u0643\u064a \u0632\u0648\u0631\u064a", "name:ckb": "\u06a9\u06cc \u0698\u06c6\u0631\u06cc", "name:de": "Ki Zhori", "name:en": "Ki Zhori", "name:fr": "Ki Zhori", "name:ku": "K\u00ee Jor\u00ee", "place": "village", "wikipedia": "ckb: \u06a9\u06cc \u0698\u06c6\u0631\u06cc"}}, {"type": "node", "id": 2480237991, "lat": 37.257496, "lon": 44.004617, "tags": {"alt_name": "\u0643\u0644\u0627\u0634\u0643", "int_name": "Kil\u0101shik, \u0643\u0644\u0627\u0634\u0643, Kilashik, \u0643\u0644\u0627\u0634\u0643 , KELA\u015eK\u00ca", "is_in": "Iraq , \u062c\u0645\u0647\u0648\u0631\u064a\u0629 \u0627\u0644\u0639\u0631\u0627\u0642", "name": "\u0643\u0644\u0627\u0634\u0643", "name:ar": "\u06a9\u0644\u0627\u0634\u06a9\u06cc", "name:ar1": "\u0643\u0644\u0627\u0634\u0643", "name:de": "Kilashik", "name:en": "Kilashik", "name:fr": "Kilashik", "name:ku": "KELA\u015eK\u00ca", "place": "village"}}, {"type": "node", "id": 2480237998, "lat": 37.1228143, "lon": 44.0642036, "tags": {"alt_name": "\u0645\u064a\u0631\u0648\u0632", "int_name": "Meroz, Meroz, Meroz, \u0645\u06ce\u0631\u06c6\u0632, Meroz, Meroz, Meroz, \u0645\u064a\u0631\u0648\u0632", "name": "\u0645\u06ce\u0631\u0648\u0632", "name:ckb": "\u0645\u06ce\u0631\u0648\u0632", "name:de": "Meruz", "name:en": "Meruz", "name:fr": "Meruz", "name:ku": "M\u00earuz", "place": "village", "population": "2000", "wikipedia": "ckb: \u0645\u06ce\u0631\u0648\u0632"}}, {"type": "node", "id": 2480238008, "lat": 37.1648415, "lon": 44.0912017, "tags": {"alt_name": "\u0695\u06d5\u06a4\u06cc\u0646", "alt_name:ku": "Rev\u00een", "int_name": "Ravina, Rav\u012bnah, \u0631\u06a4\u064a\u0646\u0629, Ravina, Ravinah, \u0631\u06a4\u064a\u0646\u0629;Raw\u012by\u0101n, Rawiyan", "name": "\u0695\u06d5\u0648\u06cc\u0646", "name:ar": "\u0631\u0648\u06cc\u0646", "name:ckb": "\u0695\u06d5\u0648\u06cc\u0646", "name:de": "Rawin", "name:en": "Rawin", "name:fr": "Rawin", "name:ku": "Rew\u00een", "place": "village", "wikipedia": "ckb: \u0631\u06d5\u0648\u06cc\u0646"}}, {"type": "node", "id": 2480238012, "lat": 37.3151195, "lon": 44.0055717, "tags": {"alt_name": "\u0634\u064a\u062e \u0645\u0648\u0645\u0631", "int_name": "Shaikh M\u014dmar, Shaikh Momar", "is_in": "Iraq , \u062c\u0645\u0647\u0648\u0631\u064a\u0629 \u0627\u0644\u0639\u0631\u0627\u0642", "name": "\u015eeh Mema", "name:ar": "\u0634\u064a\u062e \u0645\u0648\u0645\u0631", "name:ar1": "\u0634\u064a\u062e \u0645\u0648\u0645\u0631", "name:de": "Shaikh Momar", "name:en": "Shaikh Momar", "name:fr": "Shaikh Momar", "place": "village", "wikidata": "Q37461753"}}, {"type": "node", "id": 2480238036, "lat": 37.133072, "lon": 44.11017, "tags": {"alt_name": "\u0634\u064a\u0648\u064a", "int_name": "Sh\u012bv\u0101, Sh\u012bvah, Shive, Sh\u012bv\u0113, Sh\u012bw\u012b, \u0634\u064a\u06a4\u0629, Shiva, Shivah, Shive, Shive, Shiwi, \u0634\u064a\u06a4\u0629", "name": "\u0634\u06cc\u06a4\u06ce", "name:ar": "\u0634\u064a\u0641\u064a", "name:ckb": "\u0634\u06cc\u06a4\u06ce", "name:de": "Shive", "name:en": "Shive", "name:fr": "Shive", "name:ku": "\u015e\u00eev\u00ea", "place": "village", "wikipedia": "ckb: \u0634\u06cc\u06a4\u06ce"}}, {"type": "node", "id": 2480238037, "lat": 37.156483, "lon": 44.10171, "tags": {"alt_name": "\u0633\u0644\u0648\u0648\u0631", "alt_name:ku": "Sil\u00fbr", "int_name": "Siloza, S\u012bl\u016br, \u0633\u064a\u0644\u0648\u0631, Siloza, Silur, \u0633\u064a\u0644\u0648\u0631", "name": "\u0633\u0644\u0648\u0631", "name:ar": "\u0633\u0644\u0648\u0631", "name:ckb": "\u0633\u0644\u0648\u0631", "name:de": "Slur", "name:en": "Slur", "name:fr": "Slur", "name:ku": "Silur", "place": "village", "wikipedia": "ckb: \u0633\u0644\u0648\u0631"}}, {"type": "node", "id": 2480238038, "lat": 37.130915, "lon": 44.031645, "tags": {"alt_name": "\u0633\u064a\u0646\u06d5", "int_name": "Sina, S\u012bn\u0101, \u0633\u064a\u0646\u0647, Sina, Sina, \u0633\u064a\u0646\u0647", "name": "\u0633\u06cc\u0646\u0627", "name:ar": "\u0633\u064a\u0646\u0627", "name:ckb": "\u0633\u06cc\u0646\u0627", "name:de": "Sina", "name:en": "Sina", "name:fr": "Sina", "name:ku": "S\u00eena", "place": "village", "wikipedia": "ckb: \u0633\u06cc\u0646\u0627"}}, {"type": "node", "id": 2480238039, "lat": 37.141222, "lon": 44.077214, "tags": {"int_name": "S\u016bmah, S\u016bm\u0113, Sumi, S\u016bm\u012b, \u0633\u0648\u0645\u064a, Sumah, Sume, Sumi, Sumi, \u0633\u0648\u0645\u064a", "name": "\u0633\u0648\u0645\u06ce", "name:ar": "\u0633\u0648\u0645\u064a", "name:ckb": "\u0633\u0648\u0645\u06ce", "name:de": "Sume", "name:en": "Sume", "name:fr": "Sume", "name:ku": "Sum\u00ea", "place": "village", "wikipedia": "ckb: \u0633\u0648\u0645\u06ce"}}, {"type": "node", "id": 2480238041, "lat": 37.182176, "lon": 44.088875, "tags": {"alt_name": "\u062a\u06cc\u06ce", "alt_name:ku": "Tiy\u00ea", "int_name": "Tupy, Tuw\u012b, T\u016by\u0113, \u062a\u0648\u064a, Tupy, Tuwi, Tuye, \u062a\u0648\u064a", "name": "\u062a\u0648\u06cc\u06ce", "name:ar": "\u062a\u0648\u064a\u064a", "name:ckb": "\u062a\u0648\u06cc\u06ce", "name:de": "Tuye", "name:en": "Tuye", "name:fr": "Tuye", "name:ku": "Tuy\u00ea", "place": "village", "wikipedia": "ckb: \u062a\u0648\u06cc\u06ce"}}, {"type": "node", "id": 2480238055, "lat": 37.164876, "lon": 44.202608, "tags": {"alt_name": "\u0623\u0648\u062a\u0643\u0629", "int_name": "Ak\u012bka, Awitkah, Awtka, \u0623\u0648\u062a\u0643\u0647, Akika, Awitkah, Awtka, \u0623\u0648\u062a\u0643\u0647", "name": "\u0626\u0627\u06a9\u06cc\u06a9\u0627", "name:ar": "\u0622\u0643\u064a\u0643\u0627", "name:ckb": "\u0626\u0627\u06a9\u06cc\u06a9\u0627", "name:de": "Akika", "name:en": "Akika", "name:fr": "Akika", "name:ku": "Ak\u00eeka", "place": "village", "wikipedia": "ckb: \u0626\u0627\u06a9\u06cc\u06a9\u0627"}}, {"type": "node", "id": 2480238056, "lat": 37.223507, "lon": 44.238664, "tags": {"alt_name": "\u0626\u06d5\u0631\u062f\u06d5\u0648\u06ce\u0644\u06ce", "alt_name:ku": "Erdew\u00eal\u00ea", "int_name": "Ardab\u012bl, Ardaw\u0113l, Awdila, \u0100wdilah, \u0627\u0648\u062f\u0644\u0647, Ardabil, Ardawel, Awdila, Awdilah, \u0627\u0648\u062f\u0644\u0647", "name": "\u0626\u06d5\u0631\u062f\u06d5\u0648\u06ce\u0644", "name:ar": "\u0623\u0631\u062f\u0648\u064a\u0644", "name:ckb": "\u0626\u06d5\u0631\u062f\u06d5\u0648\u06ce\u0644", "name:de": "Ardawel", "name:en": "Ardawel", "name:fr": "Ardawel", "name:ku": "Erdew\u00eal", "place": "village", "wikipedia": "ckb: \u0626\u06d5\u0631\u062f\u06d5\u0648\u06ce\u0644\u06ce"}}, {"type": "node", "id": 2480238057, "lat": 37.13997, "lon": 44.183422, "tags": {"alt_name": "\u06be\u06d5\u0631\u06af\u0648\u0634", "alt_name:ku": "Hergu\u015f", "int_name": "Arg\u014dsh, Argush, Arg\u016bsh, Ark\u016bsh, Arq\u016bsh, \u0627\u0631\u06af\u0648\u0634, Argosh, Argush, Argush, Arkush, Arqush, \u0627\u0631\u06af\u0648\u0634", "name": "\u0626\u06d5\u0631\u06af\u0648\u0634", "name:ar": "\u0623\u0631\u0643\u0648\u0634", "name:ckb": "\u0626\u06d5\u0631\u06af\u0648\u0634", "name:de": "Argush", "name:en": "Argush", "name:fr": "Argush", "name:ku": "Ergu\u015f", "place": "village", "wikipedia": "ckb:\u0626\u06d5\u0631\u06af\u0648\u0634"}}, {"type": "node", "id": 2480238060, "lat": 37.118316, "lon": 44.156781, "tags": {"alt_name": "\u0628\u0646\u0627\u0646", "int_name": "Ban\u0101n, Binan, Bin\u0101n, \u0628\u0646\u0627\u0646, Banan, Binan, Binan, \u0628\u0646\u0627\u0646", "name": "\u0628\u06d5\u0646\u0627\u0646", "name:ar": "\u0628\u0646\u0627\u0646", "name:ckb": "\u0628\u06d5\u0646\u0627\u0646", "name:de": "Banan", "name:en": "Banan", "name:fr": "Banan", "name:ku": "Benan", "place": "village", "wikipedia": "ckb:\u0628\u06d5\u0646\u0627\u0646"}}, {"type": "node", "id": 2480238068, "lat": 37.269167, "lon": 44.239722, "tags": {"alt_name": "\u0628\u06ce\u062f\u0627\u0648\u06ce", "alt_name:ku": "B\u00eadaw\u00ea", "int_name": "B\u0113d\u0101r, Bedar", "name": "\u0628\u06ce\u062f\u0627\u0648", "name:ar": "\u0628\u064a\u062f\u0627\u0648", "name:ckb": "\u0628\u06ce\u062f\u0627\u0648", "name:de": "Bedaw", "name:en": "Bedaw", "name:fr": "Bedaw", "name:ku": "B\u00eadaw", "place": "village", "wikipedia": "ckb: \u0628\u06ce\u062f\u0627\u0648"}}, {"type": "node", "id": 2480238070, "lat": 37.171483, "lon": 44.172716, "tags": {"alt_name": "\u0628\u0631\u0646\u0629", "int_name": "Birna, Birnah, Biz\u012bnah, Bizna, \u0628\u0631\u0646\u0647, Birna, Birnah, Bizinah, Bizna, \u0628\u0631\u0646\u0647", "name": "\u0628\u0632\u06cc\u0646\u0627", "name:ar": "\u0628\u0632\u064a\u0646\u0627", "name:ckb": "\u0628\u0632\u06cc\u0646\u0627", "name:de": "Bzina", "name:en": "Bzina", "name:fr": "Bzina", "name:ku": "Biz\u00eena", "place": "village", "wikipedia": "ckb: \u0628\u0632\u06cc\u0646\u0627"}}, {"type": "node", "id": 2480238081, "lat": 37.222033, "lon": 44.161268, "tags": {"alt_name": "\u062f\u0631\u0651\u064a", "int_name": "Dir\u0113, Dirr\u012b, Dry, \u062f\u0631\u0651\u064a, Dire, Dirri, Dry, \u062f\u0631\u064a", "name": "\u062f\u0631\u06ce", "name:ar": "\u062f\u0631\u064a", "name:ckb": "\u062f\u0631\u06ce", "name:de": "Dre", "name:en": "Dre", "name:fr": "Dre", "name:ku": "Dir\u00ea", "place": "village", "wikipedia": "ckb: \u062f\u0631\u06ce"}}, {"type": "node", "id": 2480238100, "lat": 37.158867, "lon": 44.200787, "tags": {"alt_name": "\u0645\u0648\u0627\u062a\u0629", "int_name": "M\u0101wata, Maw\u0101tah, M\u0101watah, Mawbna, \u0645\u0627\u0648\u062a\u0647, Mawata, Mawatah, Mawatah, Mawbna, \u0645\u0627\u0648\u062a\u0647", "name": "\u0645\u0627\u0648\u06d5\u062a\u0627", "name:ar": "\u0645\u0627\u0648\u062a\u0627", "name:ckb": "\u0645\u0627\u0648\u06d5\u062a\u0627", "name:de": "Mawata", "name:en": "Mawata", "name:fr": "Mawata", "name:ku": "Maweta", "name:ru": "\u041c\u0430\u0432\u0430\u0442\u0430", "place": "village", "wikipedia": "ckb: \u0645\u0627\u0648\u06d5\u062a\u0627"}}, {"type": "node", "id": 2480238103, "lat": 37.191065, "lon": 44.2320172, "tags": {"alt_name": "\u0628\u064a\u0631 \u062c\u0627\u0645\u0627", "int_name": "Pir \u0101 Ch\u0101m\u0101, Pir a Chama", "is_in": "Iraq , \u062c\u0645\u0647\u0648\u0631\u064a\u0629 \u0627\u0644\u0639\u0631\u0627\u0642", "name": "\u0628\u064a\u0631 \u062c\u0627\u0645\u0627", "name:ar": "\u0628\u064a\u0631 \u062c\u0627\u0645\u0627", "name:ar1": "\u0628\u064a\u0631 \u062c\u0627\u0645\u0627", "name:de": "Pir a Chama", "name:en": "Pir a Chama", "name:fr": "Pir a Chama", "place": "village"}}, {"type": "node", "id": 2480238106, "lat": 37.201285, "lon": 44.180674, "tags": {"alt_name": "\u062a\u0648\u0644\u062e\u0629", "int_name": "Qulkha, T\u014dl\u0101kha, T\u016blakhah, \u062a\u0648\u0644\u062e\u0647, Qulkha, Tolakha, Tulakhah, \u062a\u0648\u0644\u062e\u0647", "name": "\u062a\u06c6\u0644\u0627\u062e", "name:ar": "\u062a\u0648\u0644\u0627\u062e", "name:ckb": "\u062a\u06c6\u0644\u0627\u062e", "name:de": "Tolakh", "name:en": "Tolakh", "name:fr": "Tolakh", "name:ku": "Tolax", "place": "village", "wikipedia": "ckb: \u062a\u06c6\u0644\u0627\u062e"}}, {"type": "node", "id": 2480238110, "lat": 37.26191, "lon": 44.16005, "tags": {"alt_name": "\u0633\u062a\u0648\u0648\u0646\u06ce", "alt_name:ku": "Sit\u00fbn\u00ea", "int_name": "Sinoony, Sin\u016bn\u012b, Sn\u016bni, St\u016bn\u012b, Sut\u016bn\u012b, \u0633\u0646\u0648\u0646\u064a, Sinoony, Sinuni, Snuni, Stuni, Sutuni, \u0633\u0646\u0648\u0646\u064a", "name": "\u0633\u062a\u0648\u0646\u06ce", "name:ar": "\u0633\u062a\u0648\u0646\u064a", "name:ckb": "\u0633\u062a\u0648\u0646\u06ce", "name:de": "Stune", "name:en": "Stune", "name:fr": "Stune", "name:ku": "Situn\u00ea", "place": "village", "wikipedia": "ckb: \u0633\u062a\u0648\u0646\u06ce"}}, {"type": "node", "id": 2480238113, "lat": 37.174824, "lon": 44.209727, "tags": {"alt_name": "\u0632\u064a\u0644\u0627\u0646", "int_name": "Zilan, Z\u012bl\u0101n, \u0632\u064a\u0644\u0627\u0646, Zilan, Zilan, \u0632\u064a\u0644\u0627\u0646", "name": "\u0632\u064a\u0644\u0627\u0646", "name:ar": "\u0632\u064a\u0644\u0627\u0646", "name:ckb": "\u0632\u06cc\u0644\u0627\u0646", "name:de": "Zilan", "name:en": "Zilan", "name:fr": "Zilan", "name:ku": "Z\u00eelan", "place": "village", "wikipedia": "ckb: \u0632\u06cc\u0644\u0627\u0646\u060c \u0642\u06d5\u0632\u0627\u06cc \u0645\u06ce\u0631\u06af\u06d5\u0633\u06c6\u0631"}}, {"type": "node", "id": 2482506149, "lat": 37.0238297, "lon": 43.9900165, "tags": {"int_name": "B\u0113k\u014dl, Biak\u016bl, Bekol, Biakul", "name": "\u067e\u06ce\u06a9\u0648\u0644", "name:ar": "\u0628\u064a\u0643\u0648\u0644", "name:ckb": "\u067e\u06ce\u06a9\u0648\u0644", "name:de": "Pekul", "name:en": "Pekul", "name:fr": "Pekul", "name:ku": "P\u00eakul", "place": "village", "wikipedia": "ckb: \u067e\u06ce\u06a9\u0648\u0644"}}, {"type": "node", "id": 2482506180, "lat": 37.0437041, "lon": 44.0886045, "tags": {"int_name": "Sailki, Saylk\u012b, S\u0113lk\u012b, S\u012blk\u0101, S\u012blk\u012b, Silky, \u0633\u064a\u0644\u0643\u064a, Sailki, Saylki, Selki, Silka, Silki, Silky, \u0633\u064a\u0644\u0643\u064a", "name": "\u0633\u06ce\u0644\u06a9\u06ce", "name:ar": "\u0633\u064a\u0644\u0643\u064a", "name:ckb": "\u0633\u06ce\u0644\u06a9\u06ce", "name:de": "Selke", "name:en": "Selke", "name:fr": "Selke", "name:ku": "S\u00ealk\u00ea", "place": "village", "wikipedia": "ckb: \u0633\u06ce\u0644\u06a9\u06ce"}}, {"type": "node", "id": 2482506576, "lat": 36.989232, "lon": 44.448591, "tags": {"alt_name": "\u0634\u0646\u0627\u0631\u0629", "int_name": "Chin\u0101ra, Chin\u0101rah, \u0686\u0646\u0627\u0631\u0647, Chinara, Chinarah, \u0686\u0646\u0627\u0631\u0647", "is_in": "Iraq , \u062c\u0645\u0647\u0648\u0631\u064a\u0629 \u0627\u0644\u0639\u0631\u0627\u0642", "name": "\u0686\u0646\u0627\u0631\u06ce", "name:ar": "\u0686\u0646\u0627\u0631\u06ce", "name:ar1": "\u0634\u0646\u0627\u0631\u0629", "name:de": "Chinara", "name:en": "Chinara", "name:fr": "Chinara", "place": "village"}}, {"type": "node", "id": 2482506579, "lat": 36.9658445, "lon": 44.409002, "tags": {"alt_name": "\u0647\u0627\u0631\u0648\u0646\u0629", "int_name": "H\u0101r\u016bnah, \u0647\u0627\u0631\u0648\u0646\u0629, Harunah, \u0647\u0627\u0631\u0648\u0646\u0629", "name": "\u06be\u0627\u0631\u0648\u0646\u06ce", "name:ar": "\u0647\u0627\u0631\u0648\u0646\u064a", "name:ckb": "\u06be\u0627\u0631\u0648\u0646\u06ce", "name:de": "Harune", "name:en": "Harune", "name:fr": "Harune", "name:ku": "Harun\u00ea", "place": "village", "wikipedia": "ckb: \u06be\u0627\u0631\u0648\u0646\u06ce"}}, {"type": "node", "id": 2482506580, "lat": 36.972953, "lon": 44.459089, "tags": {"alt_name": "\u0647\u064a\u0627\u062a", "int_name": "Hay\u0101t, \u0647\u064a\u0627\u062a, Hayat, \u0647\u064a\u0627\u062a", "is_in": "Iraq , \u062c\u0645\u0647\u0648\u0631\u064a\u0629 \u0627\u0644\u0639\u0631\u0627\u0642", "name": "\u0647\u06d5\u06cc\u0627\u062a", "name:ar": "\u0647\u0629\u064a\u0627\u062a", "name:ar1": "\u0647\u064a\u0627\u062a", "name:de": "Hayat", "name:en": "Hayat", "name:fr": "Hayat", "place": "village"}}, {"type": "node", "id": 2482506584, "lat": 36.997255, "lon": 44.4236896, "tags": {"alt_name": "\u0642\u0644\u0627 \u0646\u0648\u0627\u0648\u0629", "int_name": "Qal\u0101 Nuw\u0101wah, \u0642\u0644\u0627 \u0646\u0648\u0627\u0648\u0647, Qala Nuwawah, \u0642\u0644\u0627 \u0646\u0648\u0627\u0648\u0647", "is_in": "Iraq , \u062c\u0645\u0647\u0648\u0631\u064a\u0629 \u0627\u0644\u0639\u0631\u0627\u0642", "name": "\u0628\u06d5\u0631\u0645\u06cc\u0632\u06d5", "name:ar": "\u0628\u06d5\u0631\u0645\u06cc\u0632\u06d5", "name:ar1": "\u0642\u0644\u0627 \u0646\u0648\u0627\u0648\u0629", "name:de": "Qala Nuwawah", "name:en": "Barmiza", "name:fr": "Qala Nuwawah", "place": "village"}}, {"type": "node", "id": 2482507356, "lat": 37.0610719, "lon": 44.1081974, "tags": {"alt_name": "\u067e\u06ce\u0646\u062f\u0631\u0648\u0648", "alt_name:ku": "P\u00eandir\u00fb", "int_name": "Bind\u0101r\u016b, Bndaro, P\u0113ndr\u014d, \u0628\u0646\u062f\u0627\u0631\u0648, Bindaru, Bndaro, Pendro, \u0628\u0646\u062f\u0627\u0631\u0648", "name": "\u067e\u06ce\u0646\u062f\u0631\u06c6", "name:ar": "\u0628\u0646\u062f\u0631\u0648", "name:ckb": "\u067e\u06ce\u0646\u062f\u0631\u06c6", "name:de": "Pendro", "name:en": "Pendro", "name:fr": "Pendro", "name:ku": "P\u00eandiro", "place": "village", "wikipedia": "ckb: \u067e\u06ce\u0646\u062f\u0631\u06c6"}}, {"type": "node", "id": 2482507358, "lat": 37.077557, "lon": 44.102339, "tags": {"alt_name": "\u062f\u0632\u0648", "int_name": "D\u0113z\u014d, Diz\u016b, \u062f\u0632\u0648, Dezo, Dizu, \u062f\u0632\u0648", "name": "\u062f\u06ce\u0632\u0648", "name:ar": "\u062f\u064a\u0632\u0648", "name:ckb": "\u062f\u06ce\u0632\u0648", "name:de": "Dezu", "name:en": "Dezu", "name:fr": "Dezu", "name:ku": "D\u00eazu", "place": "village", "wikipedia": "ckb: \u062f\u06ce\u0632\u0648"}}, {"type": "node", "id": 2482507361, "lat": 37.0586246, "lon": 44.3831118, "tags": {"alt_name": "\u0643\u0631\u0628\u062c", "int_name": "Karapich, Karapich", "is_in": "Iraq , \u062c\u0645\u0647\u0648\u0631\u064a\u0629 \u0627\u0644\u0639\u0631\u0627\u0642", "name": "\u0643\u0631\u0628\u062c", "name:ar": "\u06af\u06d5\u0695\u06d5\u067e\u06ce\u0686", "name:ar1": "\u0643\u0631\u0628\u062c", "name:de": "Karapich", "name:en": "Karapich", "name:fr": "Karapich", "name:tr": "Gerevi\u00e7", "place": "village"}}, {"type": "node", "id": 2482507362, "lat": 37.0843638, "lon": 44.067157, "tags": {"int_name": "M\u014dk\u0101, Muka, Moka, Muka", "name": "\u0645\u0648\u0643\u0627", "name:ar": "\u0645\u0648\u0643\u0627", "name:de": "Moka", "name:en": "Moka", "name:fr": "Moka", "name:ku": "Moka", "place": "village"}}, {"type": "node", "id": 2482507363, "lat": 37.0876973, "lon": 44.063651, "tags": {"int_name": "M\u016bkah, \u0645\u0648\u0643\u0647, Mukah, \u0645\u0648\u0643\u0647", "name": "\u0645\u0648\u0643\u0629", "name:ar": "\u0645\u0648\u0643\u0629", "name:de": "Mukah", "name:en": "Mukah", "name:fr": "Mukah", "name:ku": "Moka", "place": "village"}}, {"type": "node", "id": 2482507609, "lat": 37.092909, "lon": 44.521994, "tags": {"alt_name": "\u0622\u0631\u064a", "int_name": "\u0100r\u012b, Ary, \u0622\u0631\u064a, Ari, Ary, \u0622\u0631\u064a", "is_in": "Iraq , \u062c\u0645\u0647\u0648\u0631\u064a\u0629 \u0627\u0644\u0639\u0631\u0627\u0642", "name": "\u0626\u0627\u0631\u06ce", "name:ar": "\u0626\u0627\u0631\u06ce", "name:ar1": "\u0622\u0631\u064a", "name:de": "Ari", "name:en": "Ari", "name:fr": "Ari", "place": "village"}}, {"type": "node", "id": 2482507611, "lat": 36.988362, "lon": 44.495526, "tags": {"alt_name": "\u0623\u0634\u0645\u064a", "int_name": "Ashm\u012b, H\u0113shim, \u0627\u0634\u0645\u064a, Ashmi, Heshim, \u0627\u0634\u0645\u064a", "is_in": "Iraq , \u062c\u0645\u0647\u0648\u0631\u064a\u0629 \u0627\u0644\u0639\u0631\u0627\u0642", "name": "\u0623\u0634\u0645\u064a", "name:ar": "\u0626\u06ce\u0634\u0645\u06ce", "name:ar1": "\u0623\u0634\u0645\u064a", "name:de": "Ashmi", "name:en": "Ashmi", "name:fr": "Ashmi", "place": "village"}}, {"type": "node", "id": 2482507612, "lat": 37.010827, "lon": 44.456365, "tags": {"alt_name": "\u0622\u0648\u0628\u0627\u0631\u0647", "int_name": "Avbara, Awbara, \u0100wbara, \u0100wb\u0101rah, \u0622\u0648\u0628\u0627\u0631\u0647, Avbara, Awbara, Awbara, Awbarah, \u0622\u0648\u0628\u0627\u0631\u0647", "is_in": "Iraq , \u062c\u0645\u0647\u0648\u0631\u064a\u0629 \u0627\u0644\u0639\u0631\u0627\u0642", "name": "\u0626\u0627\u0648\u0628\u0627\u0631\u06d5", "name:ar": "\u0626\u0627\u0648\u0628\u0695\u0627", "name:ar1": "\u0622\u0648\u0628\u0627\u0631\u0647", "name:de": "Avbara", "name:en": "Awbra", "name:fr": "Avbara", "place": "village"}}, {"type": "node", "id": 2482507663, "lat": 37.01817, "lon": 44.446513, "tags": {"alt_name": "\u0643\u0627\u0646\u064a \u0631\u0634", "int_name": "Kani Rash, K\u0101n\u012b Rash, \u0643\u0627\u0646\u064a \u0631\u0634, Kani Rash, Kani Rash, \u0643\u0627\u0646\u064a \u0631\u0634", "is_in": "Iraq , \u062c\u0645\u0647\u0648\u0631\u064a\u0629 \u0627\u0644\u0639\u0631\u0627\u0642", "name": "\u06a9\u0627\u0646\u06cc \u0695\u06d5\u0634", "name:ar": "\u06a9\u0627\u0646\u06cc\u0629\u0631\u06d5\u0634", "name:ar1": "\u0643\u0627\u0646\u064a \u0631\u0634", "name:de": "Kani Rash", "name:en": "Kani Rash", "name:fr": "Kani Rash", "name:ru": "\u041a\u0430\u043d\u0438-\u0420\u0430\u0448", "place": "village"}}, {"type": "node", "id": 2482510618, "lat": 36.9755723, "lon": 44.217216, "tags": {"alt_name": "\u062f\u0648\u062f\u0629 \u0645\u0631\u0629", "int_name": "D\u016bdah Marah, D\u016bdamara, \u062f\u0648\u062f\u0647 \u0645\u0631\u0647, Dudah Marah, Dudamara, \u062f\u0648\u062f\u0647 \u0645\u0631\u0647", "name": "\u062f\u0648\u062f\u06d5\u0645\u06d5\u0695\u0627", "name:ar": "\u062f\u0648\u062f\u0645\u0631\u0627", "name:ckb": "\u062f\u0648\u062f\u06d5\u0645\u06d5\u0695\u0627", "name:de": "Dudamara", "name:en": "Dudamara", "name:fr": "Dudamara", "name:ku": "Dudemera", "place": "village", "wikipedia": "ckb: \u062f\u0648\u062f\u06d5\u0645\u06d5\u0695\u0627"}}, {"type": "node", "id": 2482510633, "lat": 37.020424, "lon": 44.196771, "tags": {"alt_name": "\u06be\u06cc\u067e\u06d5", "alt_name:ku": "H\u00eepe", "int_name": "Hoba, H\u016bpah, H\u016bp\u0113, \u0647\u0648\u067e\u0647, Hoba, Hupah, Hupe, \u0647\u0648\u067e\u0647", "name": "\u06be\u06c6\u067e\u06d5", "name:ar": "\u0647\u0648\u0628\u0629", "name:ckb": "\u06be\u06c6\u067e\u06d5", "name:de": "Hopa", "name:en": "Hopa", "name:fr": "Hopa", "name:ku": "Hope", "place": "village", "wikipedia": "ckb: \u06be\u06c6\u067e\u06d5"}}, {"type": "node", "id": 2482510664, "lat": 37.0079915, "lon": 44.1651962, "tags": {"alt_name": "\u0644\u06ce\u0631\u06ce", "alt_name:ku": "L\u00ear\u00ea", "int_name": "Layrah, L\u0113r\u0113, L\u012brah, Liry, \u0644\u064a\u0631\u0647, Layrah, Lere, Lirah, Liry, \u0644\u064a\u0631\u0647", "name": "\u0644\u06ce\u0631\u0627", "name:ar": "\u0644\u064a\u0631\u0627", "name:ckb": "\u0644\u06ce\u0631\u0627", "name:de": "Lera", "name:en": "Lera", "name:fr": "Lera", "name:ku": "L\u00earra", "place": "village", "wikipedia": "ckb: \u0644\u06ce\u0631\u0627"}}, {"type": "node", "id": 2482510692, "lat": 36.9740015, "lon": 44.2110784, "tags": {"alt_name": "\u0633\u06d5\u0631\u06a9\u06ce\u0631\u06cc\u0627", "alt_name:ku": "Serk\u00eariya", "int_name": "Sark\u012br\u012b, \u0633\u0631\u0643\u064a\u0631\u064a, Sarkiri, \u0633\u0631\u0643\u064a\u0631\u064a", "name": "\u0633\u06d5\u0631\u06a9\u06ce\u0631\u06ce", "name:ar": "\u0633\u0631\u0643\u064a\u0631\u064a", "name:ckb": "\u0633\u06d5\u0631\u06a9\u06ce\u0631\u06ce", "name:de": "Sarkere", "name:en": "Sarkere", "name:fr": "Sarkere", "name:ku": "Serk\u00ear\u00ea", "place": "village", "wikipedia": "ckb: \u0633\u06d5\u0631\u06a9\u06ce\u0631\u06ce"}}, {"type": "node", "id": 2482510693, "lat": 36.9871549, "lon": 44.2065561, "tags": {"alt_name": "\u0634\u06ce\u0631\u0648\u0627\u0646 \u0645\u06d5\u0632\u0646", "capital": "7", "int_name": "Shirw\u0101n M\u0101zin, Shirwan Mazin", "is_in": "Kurdistan-Iraq \u06a9\u0648\u0631\u062f\u0633\u062a\u0627\u0646", "name": "\u0634\u06ce\u0631\u0648\u0627\u0646 \u0645\u06d5\u0632\u0646", "name:ar": "\u0634\u06ce\u0631\u0648\u0627\u0646 \u0645\u06d5\u0632\u0646", "name:ckb": "\u0634\u06ce\u0631\u0648\u0627\u0646 \u0645\u06d5\u0632\u0646\u06cc", "name:de": "Shirwan Mazin", "name:en": "Shirwan Mazin", "name:fr": "Shirwan Mazin", "name:ru": "\u0428\u0438\u0440\u0432\u0430\u043d-\u041c\u0430\u0437\u0438\u043d", "place": "village", "wikidata": "Q65406455"}}, {"type": "node", "id": 2482510694, "lat": 36.975762, "lon": 44.176503, "tags": {"alt_name": "\u062a\u0627\u0646\u0643\u064a", "int_name": "T\u0101nk\u012b, Tatk\u012b, \u062a\u0627\u0646\u0643\u064a, Tanki, Tatki, \u062a\u0627\u0646\u0643\u064a", "name": "\u062a\u0627\u062a\u06a9\u06ce", "name:ar": "\u062a\u0627\u062a\u0643\u064a", "name:ckb": "\u062a\u0627\u062a\u06a9\u06ce", "name:de": "Tatke", "name:en": "Tatke", "name:fr": "Tatke", "name:ku": "Tatk\u00ea", "place": "village", "wikipedia": "ckb: \u062a\u0627\u062a\u06a9\u06ce"}}, {"type": "node", "id": 2488259196, "lat": 37.041488, "lon": 44.163715, "tags": {"alt_name": "\u0623\u064a\u062f\u0644\u0628\u064a", "int_name": "Aydalb\u012b, Drly, \u0112dilb\u012b, Idibi, \u0627\u064a\u062f\u0644\u0628\u064a, Aydalbi, Drly, Edilbi, Idibi, \u0627\u064a\u062f\u0644\u0628\u064a", "name": "\u0626\u06ce\u062f\u0644\u0628\u06ce", "name:ar": "\u0623\u064a\u062f\u0644\u0628\u064a", "name:ckb": "\u0626\u06ce\u062f\u0644\u0628\u06ce", "name:de": "Edlbe", "name:en": "Edlbe", "name:fr": "Edlbe", "name:ku": "\u00cadilb\u00ea", "place": "village", "wikipedia": "ckb: \u0626\u06ce\u062f\u0644\u0628\u06ce"}}, {"type": "node", "id": 2488259340, "lat": 36.989589, "lon": 44.338776, "tags": {"alt_name": "\u0628\u064a\u0634\u0648", "int_name": "B\u0113sh\u016bn, B\u012bch\u0101n, B\u012bsh\u016b, \u0628\u064a\u0686\u0627\u0646, \u0628\u064a\u0634\u0648, Beshun, Bichan, Bishu, \u0628\u064a\u0686\u0627\u0646, \u0628\u064a\u0634\u0648", "name": "\u0628\u06ce\u0634\u0648\u0646", "name:ar": "\u0628\u064a\u0634\u0648\u0646", "name:ckb": "\u0628\u06ce\u0634\u0648\u0646", "name:de": "Beshun", "name:en": "Beshun", "name:fr": "Beshun", "name:ku": "B\u00ea\u015fun", "place": "village", "wikipedia": "ckb: \u0628\u06ce\u0634\u0648\u0646"}}, {"type": "node", "id": 2488259368, "lat": 36.9617809, "lon": 44.1561213, "tags": {"alt_name": "\u0628\u064a", "int_name": "Biy, Biy\u0113, \u0628\u064a, Biy, Biye, \u0628\u064a", "name": "\u0628\u06cc\u06ce", "name:ar": "\u0628\u064a\u064a", "name:ckb": "\u0628\u06cc\u06ce", "name:de": "Biye", "name:en": "Biye", "name:fr": "Biye", "name:ku": "Biy\u00ea", "place": "village", "wikipedia": "ckb: \u0628\u06cc\u06ce"}}, {"type": "node", "id": 2488259437, "lat": 37.0504748, "lon": 44.4063514, "tags": {"alt_name": "\u062c\u0645\u0629 \u0644\u0648\u0629", "int_name": "Cham a Luya, Chama Liwa, Chamah Liw\u0101, Chamah Liwah, Chamalow\u0101n, Gund i Saiyid, \u0686\u0645\u0647 \u0644\u0648\u0647, Cham a Luya, Chama Liwa, Chamah Liwa, Chamah Liwah, Chamalowan, Gund i Saiyid, \u0686\u0645\u0647 \u0644\u0648\u0647", "is_in": "Iraq , \u062c\u0645\u0647\u0648\u0631\u064a\u0629 \u0627\u0644\u0639\u0631\u0627\u0642", "name": "\u062c\u0645\u0629 \u0644\u0648\u0629", "name:ar": "\u0686\u0629\u0645\u0629\u0644\u0648\u0627", "name:ar1": "\u062c\u0645\u0629 \u0644\u0648\u0629", "name:de": "Cham a Luya", "name:en": "Cham a Luya", "name:fr": "Cham a Luya", "name:ku": "\u0686\u06d5\u0645\u06d5\u0644\u0648\u0627", "place": "village"}}, {"type": "node", "id": 2488259476, "lat": 36.9635763, "lon": 44.2278156, "tags": {"alt_name": "\u062c\u0627\u0645\u0627", "int_name": "Chama, Ch\u0101mah, J\u0101m\u0101, \u062c\u0627\u0645\u0627, \u0686\u0627\u0645\u0647, Chama, Chamah, Jama, \u062c\u0627\u0645\u0627, \u0686\u0627\u0645\u0647", "is_in": "Iraq , \u062c\u0645\u0647\u0648\u0631\u064a\u0629 \u0627\u0644\u0639\u0631\u0627\u0642", "name": "\u0686\u0627\u0645\u06d5", "name:ar": "\u062c\u0627\u0645\u0627", "name:ar1": "\u062c\u0627\u0645\u0627", "name:de": "Chama", "name:en": "Chama", "name:fr": "Chama", "place": "village"}}, {"type": "node", "id": 2488259503, "lat": 37.039722, "lon": 44.352778, "tags": {"alt_name": "\u062f\u0631\u064a\u0633\u0648\u0631", "int_name": "Daryas\u016br, Daryasur", "is_in": "Iraq , \u062c\u0645\u0647\u0648\u0631\u064a\u0629 \u0627\u0644\u0639\u0631\u0627\u0642", "name": "\u062f\u0631\u064a\u0633\u0648\u0631", "name:ar": "\u062f\u0631\u064a\u0633\u0648\u0631", "name:ar1": "\u062f\u0631\u064a\u0633\u0648\u0631", "name:de": "Daryasur", "name:en": "Daryasur", "name:fr": "Daryasur", "name:tr": "Karaku\u015f", "place": "village"}}, {"type": "node", "id": 2488259875, "lat": 36.9639312, "lon": 44.3296377, "tags": {"alt_name": "\u0643\u064a\u0644\u0643\u0629", "int_name": "Kakla, Kaklah, K\u012blkah, \u0643\u064a\u0644\u0643\u0647, Kakla, Kaklah, Kilkah, \u0643\u064a\u0644\u0643\u0647", "name": "\u06a9\u06d5\u06a9\u0644\u06d5", "name:ar": "\u06a9\u06d5\u06a9\u0644\u06d5", "name:ckb": "\u06a9\u06d5\u06a9\u0644\u06d5", "name:de": "Kakla", "name:en": "Kakla", "name:fr": "Kakla", "name:ku": "Kekle", "place": "village", "wikipedia": "ckb: \u06a9\u06d5\u06a9\u0644\u06d5"}}, {"type": "node", "id": 2488259916, "lat": 36.9630039, "lon": 44.1445804, "tags": {"alt_name": "\u0643\u0627\u0646\u064a \u0628\u0648\u062a", "int_name": "K\u0101n\u012b B\u014dt, K\u0101n\u012b B\u016bt, \u0643\u0627\u0646\u064a \u0628\u0648\u062a, Kani Bot, Kani But, \u0643\u0627\u0646\u064a \u0628\u0648\u062a", "name": "\u06a9\u0627\u0646\u06cc \u0628\u06c6\u062a", "name:ar": "\u0643\u0627\u0646\u064a \u0628\u0648\u062a", "name:ckb": "\u06a9\u0627\u0646\u06cc \u0628\u06c6\u062a", "name:de": "Kani Bot", "name:en": "Kani Bot", "name:fr": "Kani Bot", "name:ku": "Kan\u00ee Bot", "name:ku-Arab": "\u0643\u0627\u0646\u06cc \u0628\u06c6\u062a", "place": "village", "wikipedia": "ckb: \u06a9\u0627\u0646\u06cc \u0628\u06c6\u062a"}}, {"type": "node", "id": 2488259917, "lat": 37.046947, "lon": 44.16608, "tags": {"alt_name": "\u0643\u0627\u0646\u064a \u0628\u0648\u062a\u0643", "int_name": "K\u0101n\u012b B\u014dtik, K\u0101n\u012b B\u016btik, \u0643\u0627\u0646\u064a \u0628\u0648\u062a\u0643, Kani Botik, Kani Butik, \u0643\u0627\u0646\u064a \u0628\u0648\u062a\u0643", "is_in": "Iraq , \u062c\u0645\u0647\u0648\u0631\u064a\u0629 \u0627\u0644\u0639\u0631\u0627\u0642", "name": "\u0643\u0627\u0646\u064a \u0628\u0648\u062a\u0643", "name:ar": "\u0643\u0627\u0646\u064a \u0628\u0648\u062a\u0643", "name:ar1": "\u0643\u0627\u0646\u064a \u0628\u0648\u062a\u0643", "name:de": "Kani Botik", "name:en": "Kani Botik", "name:fr": "Kani Botik", "name:ku": "Kan\u00ee Butik", "place": "village"}}, {"type": "node", "id": 2488259963, "lat": 36.9715991, "lon": 44.2383938, "tags": {"alt_name": "\u062e\u0627\u0644\u0648\u062a\u0629", "int_name": "Kh\u0101l\u016btah, Khalutah", "name": "\u062e\u0627\u06b5\u0648\u0646\u06d5", "name:ar": "\u062e\u0627\u0644\u0648\u0646\u0629", "name:ckb": "\u062e\u0627\u06b5\u0648\u0646\u06d5", "name:de": "Khaluna", "name:en": "Khaluna", "name:fr": "Khaluna", "name:ku": "Xallune", "place": "village", "wikipedia": "ckb: \u062e\u0627\u06b5\u0648\u0646\u06d5"}}, {"type": "node", "id": 2488260569, "lat": 37.048361, "lon": 44.215701, "tags": {"alt_name": "\u0632\u064a\u062a\u0629", "int_name": "Zaytah, Z\u0113t\u0113, Zita, Z\u012btah, \u0632\u064a\u062a\u0647, Zaytah, Zete, Zita, Zitah, \u0632\u064a\u062a\u0647", "name": "\u0632\u06ce\u062a", "name:ar": "\u0632\u064a\u062a", "name:ckb": "\u0632\u06ce\u062a", "name:de": "Zet", "name:en": "Zet", "name:fr": "Zet", "name:ku": "Z\u00eat", "place": "village", "wikipedia": "ckb: \u0632\u06ce\u062a"}}, {"type": "node", "id": 2696861179, "lat": 37.0927637, "lon": 44.487439, "tags": {"alt_name:ku": "D\u00eark\u00ea", "name": "Morda\u011f", "name:ku": "D\u00earik", "place": "hamlet"}}, {"type": "node", "id": 2696861182, "lat": 37.0846986, "lon": 44.4488063, "tags": {"name": "Su\u00e7\u0131kt\u0131", "name:ku": "Bel\u00fbtya", "place": "hamlet", "source_name:ku": "ANF"}}, {"type": "node", "id": 2696861185, "lat": 37.0659181, "lon": 44.4243445, "tags": {"description": "Derecik, Geli\u015fen K\u00f6y\u00fc Kory\u00fcrek Mezras\u0131", "name": "Kory\u00fcrek", "name:ku": "B\u00eagijn\u00ea", "place": "hamlet"}}, {"type": "node", "id": 2790184408, "lat": 37.1131149, "lon": 44.4780519, "tags": {"name": "Karako\u00e7", "name:ku": "Gimana (?)", "place": "hamlet", "source_name:ku": "ANF"}}, {"type": "node", "id": 2790184416, "lat": 37.1161607, "lon": 44.4615081, "tags": {"name": "K\u00fct\u00fckl\u00fc", "place": "hamlet"}}, {"type": "node", "id": 2790184446, "lat": 37.0197378, "lon": 44.2868616, "tags": {"name": "B\u00f6lek", "name:ku": "Serekan\u00ee", "place": "hamlet", "source": "D\u0130HA"}}, {"type": "node", "id": 2790190344, "lat": 37.1948629, "lon": 44.4478074, "tags": {"name": "G\u00fcle\u00e7", "name:ku": "Ruya", "place": "hamlet", "source_name:ku": "http://www.yuksekovahaber.com/haber/canan-derecik-bolgesinde-52465.htm"}}, {"type": "node", "id": 2790193885, "lat": 37.2483872, "lon": 44.3344465, "tags": {"alt_name:ku": "G\u00fblkan", "name": "Dereyan\u0131", "place": "hamlet", "source_name:ku": "http://www.yuksekovahaber.com/haber/semdinlide-secimi-kazanan-muhtar-yayla-senligi-duzenledi-128922.htm"}}, {"type": "node", "id": 3668020011, "lat": 37.127094, "lon": 44.0613431}, {"type": "node", "id": 3668020012, "lat": 37.125318, "lon": 44.0606917}, {"type": "node", "id": 3668020013, "lat": 37.1246013, "lon": 44.0605875}, {"type": "node", "id": 3668020014, "lat": 37.1239382, "lon": 44.0608548}, {"type": "node", "id": 3668020015, "lat": 37.123655, "lon": 44.0612955}, {"type": "node", "id": 3668020016, "lat": 37.1233387, "lon": 44.0624294}, {"type": "node", "id": 3668020017, "lat": 37.1218799, "lon": 44.0615906}, {"type": "node", "id": 3668020018, "lat": 37.1213502, "lon": 44.0623722}, {"type": "node", "id": 3668020019, "lat": 37.1210074, "lon": 44.0630496}, {"type": "node", "id": 3668020020, "lat": 37.1211217, "lon": 44.0640918}, {"type": "node", "id": 3668020021, "lat": 37.1216306, "lon": 44.0658243}, {"type": "node", "id": 3668020022, "lat": 37.122337, "lon": 44.0667623}, {"type": "node", "id": 3668020023, "lat": 37.1228667, "lon": 44.0669316}, {"type": "node", "id": 3668020024, "lat": 37.1232406, "lon": 44.0666711}, {"type": "node", "id": 3668029625, "lat": 37.1238119, "lon": 44.065668}, {"type": "node", "id": 3668029626, "lat": 37.124674, "lon": 44.0639354}, {"type": "node", "id": 3668029627, "lat": 37.125519, "lon": 44.0630433}, {"type": "node", "id": 3668029629, "lat": 37.1258512, "lon": 44.0626081}, {"type": "node", "id": 3668029630, "lat": 37.1259308, "lon": 44.0623462}, {"type": "node", "id": 3668029631, "lat": 37.1269175, "lon": 44.0626197}, {"type": "node", "id": 4384163700, "lat": 37.0067789, "lon": 44.301211, "tags": {"alt_name": "B\u00earok", "name": "Anada\u011f", "name:ku": "B\u00earux", "old_name": "Beruh", "place": "village", "wikidata": "Q483630", "wikipedia": "tr:Anada\u011f, Derecik"}}, {"type": "node", "id": 4384211176, "lat": 37.0033556, "lon": 44.2972134, "tags": {"description": "Derecik, Anada\u011f K\u00f6y\u00fc, Be\u015fika\u011fa\u00e7 Mezras\u0131", "name": "Be\u015fika\u011fa\u00e7", "name:ku": "Nahawe", "place": "hamlet", "source": "D\u0130HA"}}, {"type": "node", "id": 4384211177, "lat": 37.00434, "lon": 44.3097636, "tags": {"alt_name:ku": "Navberoja", "description": "Derecik, Anada\u011f K\u00f6y\u00fc, Ye\u015filova Mezras\u0131", "name": "Ye\u015filova", "name:ku": "Navberojan", "place": "hamlet", "source": "D\u0130HA"}}, {"type": "node", "id": 4430093937, "lat": 37.1356786, "lon": 44.4235556, "tags": {"name": "Ula\u015fan", "name:ku": "Zer\u00een", "place": "village"}}, {"type": "node", "id": 4430644180, "lat": 37.0712181, "lon": 44.2391336, "tags": {"description": "Derecik, Balkaya Mahallesi, Umurlu K\u00fcmeevleri", "is_in": "Turkey, Hakkari, \u015eemdinli", "name": "Umurlu", "name:ku": "Gran\u00ea", "place": "hamlet", "source_name:ku": "diclehaber.com"}}, {"type": "node", "id": 4430644181, "lat": 37.080672, "lon": 44.2609027, "tags": {"description": "Derecik, Balkaya Mahallesi, Akdemir K\u00fcmeevleri", "is_in": "Turkey, Hakkari, \u015eemdinli", "name": "Akdemir", "name:ku": "Keletok", "place": "hamlet"}}, {"type": "node", "id": 4430644184, "lat": 37.1122057, "lon": 44.3259532, "tags": {"is_in": "Turkey, Hakkari, \u015eemdinli", "name": "K\u0131rca", "name:ku": "B\u00eagor", "place": "hamlet"}}, {"type": "node", "id": 4430644185, "lat": 37.0859579, "lon": 44.349677, "tags": {"is_in": "Turkey, Hakkari, \u015eemdinli", "name": "Yukar\u0131 Ayd\u0131nl\u0131k", "place": "hamlet"}}, {"type": "node", "id": 4434391033, "lat": 37.0489301, "lon": 44.2868481, "tags": {"description": "Derecik, G\u00fcney Mahallesi, \u00d6ntepe K\u00fcmeevleri", "is_in": "Turkey, Hakkari, \u015eemdinli", "name": "\u00d6ntepe", "place": "hamlet"}}, {"type": "node", "id": 4434391034, "lat": 37.0496158, "lon": 44.2711039, "tags": {"description": "Derecik, G\u00fcney Mahallesi, A\u011fa\u00e7l\u0131 K\u00fcmeevleri", "is_in": "Turkey, Hakkari, \u015eemdinli", "name": "A\u011fa\u00e7l\u0131", "place": "hamlet"}}, {"type": "node", "id": 4434391035, "lat": 37.0493257, "lon": 44.2429476, "tags": {"description": "Derecik, Rize Mahallesi, Yolgeldi K\u00fcmeevleri", "is_in": "Turkey, Hakkari, \u015eemdinli", "name": "Yolgeldi", "name:ku": "R\u00eazey", "place": "hamlet"}}, {"type": "node", "id": 4434470737, "lat": 37.0687258, "lon": 44.2896487, "tags": {"description": "Derecik, G\u00fcney Mahallesi, Oylum K\u00fcmeevleri", "name": "Oylum", "name:ku": "Herki\u015fk", "place": "hamlet"}}, {"type": "node", "id": 4434470738, "lat": 37.0610652, "lon": 44.3346945, "tags": {"is_in": "Turkey, Hakkari, \u015eemdinli", "name": "Ba\u015fak", "name:ku": "Heran", "place": "hamlet"}}, {"type": "node", "id": 4434528085, "lat": 36.9611746, "lon": 44.3100861, "tags": {"name": "\u06be\u06d5\u0632\u06ce\u0631", "name:ckb": "\u06be\u06d5\u0632\u06ce\u0631", "name:en": "Hazer", "name:ku": "Hez\u00ear", "place": "village", "wikipedia": "ckb: \u06be\u06d5\u0632\u06ce\u0631"}}, {"type": "node", "id": 4597100104, "lat": 37.2537055, "lon": 44.0755175}, {"type": "node", "id": 4597100106, "lat": 37.2526893, "lon": 44.0756892}, {"type": "node", "id": 4597100107, "lat": 37.252954, "lon": 44.0749167}, {"type": "node", "id": 4597100108, "lat": 37.2523391, "lon": 44.0753566}, {"type": "node", "id": 4597100109, "lat": 37.251784, "lon": 44.0756784}, {"type": "node", "id": 4597100110, "lat": 37.2539438, "lon": 44.0760555}, {"type": "node", "id": 4597100111, "lat": 37.2534579, "lon": 44.0748094}, {"type": "node", "id": 4597100112, "lat": 37.2540983, "lon": 44.0763329}, {"type": "node", "id": 4994579808, "lat": 37.1242196, "lon": 44.0607}, {"type": "node", "id": 4994580373, "lat": 37.124172, "lon": 44.0496397}, {"type": "node", "id": 4994580374, "lat": 37.1256777, "lon": 44.051015}, {"type": "node", "id": 4994580375, "lat": 37.1249854, "lon": 44.0521156}, {"type": "node", "id": 4994580376, "lat": 37.1240295, "lon": 44.0511486}, {"type": "node", "id": 4995255974, "lat": 36.9670577, "lon": 44.2386724}, {"type": "node", "id": 4995255975, "lat": 36.9670096, "lon": 44.2389874}, {"type": "node", "id": 4995255976, "lat": 36.9669474, "lon": 44.2393908}, {"type": "node", "id": 4995255977, "lat": 36.9669418, "lon": 44.2396881}, {"type": "node", "id": 4995255978, "lat": 36.9669559, "lon": 44.2401376}, {"type": "node", "id": 4995255979, "lat": 36.9669813, "lon": 44.2404445}, {"type": "node", "id": 4995255980, "lat": 36.9670556, "lon": 44.2407838}, {"type": "node", "id": 4995255981, "lat": 36.9671426, "lon": 44.2409289}, {"type": "node", "id": 4995255982, "lat": 36.9672623, "lon": 44.2410577}, {"type": "node", "id": 4995256870, "lat": 36.9670621, "lon": 44.2385967}, {"type": "node", "id": 4995256871, "lat": 36.9668683, "lon": 44.2387537}, {"type": "node", "id": 4995256872, "lat": 36.9666629, "lon": 44.2388904}, {"type": "node", "id": 4995256873, "lat": 36.9664361, "lon": 44.2390741}, {"type": "node", "id": 4995256874, "lat": 36.9662909, "lon": 44.2392197}, {"type": "node", "id": 4995256875, "lat": 36.9662239, "lon": 44.2393322}, {"type": "node", "id": 4995256884, "lat": 36.9660387, "lon": 44.2407709}, {"type": "node", "id": 4995256885, "lat": 36.9661431, "lon": 44.2409801}, {"type": "node", "id": 4995256886, "lat": 36.9661913, "lon": 44.2412072}, {"type": "node", "id": 4995256888, "lat": 36.9663556, "lon": 44.2415202}, {"type": "node", "id": 4995256889, "lat": 36.9676675, "lon": 44.2413626}, {"type": "node", "id": 4995256890, "lat": 36.9676659, "lon": 44.2415264}, {"type": "node", "id": 4995256891, "lat": 36.9676343, "lon": 44.241658}, {"type": "node", "id": 4995256892, "lat": 36.9675944, "lon": 44.2417272}, {"type": "node", "id": 4995256894, "lat": 36.9675045, "lon": 44.2418864}, {"type": "node", "id": 4995256896, "lat": 36.9674254, "lon": 44.2420064}, {"type": "node", "id": 4995256897, "lat": 36.9673788, "lon": 44.2420869}, {"type": "node", "id": 4995256898, "lat": 36.9673444, "lon": 44.2421681}, {"type": "node", "id": 4995256901, "lat": 36.9671222, "lon": 44.2422179}, {"type": "node", "id": 4995256902, "lat": 36.9670143, "lon": 44.2421723}, {"type": "node", "id": 4995256903, "lat": 36.9669376, "lon": 44.2421222}, {"type": "node", "id": 4995256905, "lat": 36.9667553, "lon": 44.2418836}, {"type": "node", "id": 4995472759, "lat": 36.9662609, "lon": 44.2276881}, {"type": "node", "id": 4995472761, "lat": 36.9661736, "lon": 44.2289305}, {"type": "node", "id": 4995472767, "lat": 36.9665807, "lon": 44.230548}, {"type": "node", "id": 4995472768, "lat": 36.9662886, "lon": 44.2308237}, {"type": "node", "id": 4995472769, "lat": 36.9666813, "lon": 44.2309795}, {"type": "node", "id": 4995472770, "lat": 36.9668489, "lon": 44.2310035}, {"type": "node", "id": 4995472771, "lat": 36.96671, "lon": 44.2316628}, {"type": "node", "id": 4995472772, "lat": 36.9664514, "lon": 44.2316688}, {"type": "node", "id": 4995472773, "lat": 36.9661689, "lon": 44.2315369}, {"type": "node", "id": 4995472774, "lat": 36.9659486, "lon": 44.2315669}, {"type": "node", "id": 4995472775, "lat": 36.9656038, "lon": 44.2318486}, {"type": "node", "id": 4995472776, "lat": 36.9653452, "lon": 44.2319325}, {"type": "node", "id": 4995472777, "lat": 36.9650771, "lon": 44.2318784}, {"type": "node", "id": 4995472778, "lat": 36.9648185, "lon": 44.231503}, {"type": "node", "id": 4995472779, "lat": 36.9649883, "lon": 44.2313075}, {"type": "node", "id": 4995472780, "lat": 36.9645913, "lon": 44.2305733}, {"type": "node", "id": 4995472781, "lat": 36.9644123, "lon": 44.2303411}, {"type": "node", "id": 4995472783, "lat": 36.9645661, "lon": 44.2301991}, {"type": "node", "id": 4995472785, "lat": 36.9643645, "lon": 44.2296596}, {"type": "node", "id": 4995472786, "lat": 36.9641815, "lon": 44.2297568}, {"type": "node", "id": 4995472787, "lat": 36.9639803, "lon": 44.2296549}, {"type": "node", "id": 4995472788, "lat": 36.9637983, "lon": 44.2292713}, {"type": "node", "id": 4995472789, "lat": 36.9636738, "lon": 44.2293912}, {"type": "node", "id": 4995472790, "lat": 36.9634775, "lon": 44.2293672}, {"type": "node", "id": 4995472791, "lat": 36.9632476, "lon": 44.2292594}, {"type": "node", "id": 4995472792, "lat": 36.9630656, "lon": 44.2291035}, {"type": "node", "id": 4995472793, "lat": 36.962989, "lon": 44.2289777}, {"type": "node", "id": 4995472794, "lat": 36.9628453, "lon": 44.2282824}, {"type": "node", "id": 4995472795, "lat": 36.9625149, "lon": 44.2283064}, {"type": "node", "id": 4995472796, "lat": 36.9622706, "lon": 44.2272875}, {"type": "node", "id": 4995472797, "lat": 36.9621988, "lon": 44.226772}, {"type": "node", "id": 4995472798, "lat": 36.962103, "lon": 44.2259329}, {"type": "node", "id": 4995472799, "lat": 36.9621318, "lon": 44.2253695}, {"type": "node", "id": 4995472800, "lat": 36.9621509, "lon": 44.2251777}, {"type": "node", "id": 4995472801, "lat": 36.9616624, "lon": 44.2241408}, {"type": "node", "id": 4995472802, "lat": 36.9614086, "lon": 44.2236074}, {"type": "node", "id": 4995472803, "lat": 36.9612697, "lon": 44.2228702}, {"type": "node", "id": 4995472804, "lat": 36.9615044, "lon": 44.2227323}, {"type": "node", "id": 4995472805, "lat": 36.961675, "lon": 44.2233438}, {"type": "node", "id": 4995472806, "lat": 36.9619288, "lon": 44.2232259}, {"type": "node", "id": 4995472807, "lat": 36.9618905, "lon": 44.2231155}, {"type": "node", "id": 4995472808, "lat": 36.9621078, "lon": 44.223032}, {"type": "node", "id": 4995472809, "lat": 36.9625436, "lon": 44.2229121}, {"type": "node", "id": 4995472810, "lat": 36.9628884, "lon": 44.223002}, {"type": "node", "id": 4995472811, "lat": 36.96308, "lon": 44.2231699}, {"type": "node", "id": 4995472812, "lat": 36.9630561, "lon": 44.2233856}, {"type": "node", "id": 4995472813, "lat": 36.9628693, "lon": 44.2235535}, {"type": "node", "id": 4995472814, "lat": 36.9624095, "lon": 44.2238112}, {"type": "node", "id": 4995472815, "lat": 36.962309, "lon": 44.2242068}, {"type": "node", "id": 4995472816, "lat": 36.9623856, "lon": 44.2244105}, {"type": "node", "id": 4995472817, "lat": 36.9625436, "lon": 44.2245004}, {"type": "node", "id": 4995472818, "lat": 36.9629794, "lon": 44.2244345}, {"type": "node", "id": 4995472819, "lat": 36.9629986, "lon": 44.2240869}, {"type": "node", "id": 4995472820, "lat": 36.9635302, "lon": 44.2238112}, {"type": "node", "id": 4995472821, "lat": 36.963966, "lon": 44.2235594}, {"type": "node", "id": 4995472822, "lat": 36.9640809, "lon": 44.2237572}, {"type": "node", "id": 4995472823, "lat": 36.9647849, "lon": 44.2233796}, {"type": "node", "id": 4995472824, "lat": 36.9650052, "lon": 44.2233736}, {"type": "node", "id": 4995472825, "lat": 36.9652254, "lon": 44.2236913}, {"type": "node", "id": 4995472826, "lat": 36.9648328, "lon": 44.2242367}, {"type": "node", "id": 4995472827, "lat": 36.9645215, "lon": 44.224896}, {"type": "node", "id": 4995472828, "lat": 36.9647274, "lon": 44.2253335}, {"type": "node", "id": 4995472829, "lat": 36.9646987, "lon": 44.2256332}, {"type": "node", "id": 4995472830, "lat": 36.9644736, "lon": 44.2260768}, {"type": "node", "id": 4995472831, "lat": 36.964124, "lon": 44.2263704}, {"type": "node", "id": 4995472832, "lat": 36.9639372, "lon": 44.2264783}, {"type": "node", "id": 4995472833, "lat": 36.9640665, "lon": 44.2270357}, {"type": "node", "id": 4995472834, "lat": 36.964488, "lon": 44.2269338}, {"type": "node", "id": 4995472835, "lat": 36.9646843, "lon": 44.2276291}, {"type": "node", "id": 5534804736, "lat": 37.2647308, "lon": 44.0805803, "tags": {"designation": "Pira Baz\u00ea", "name": "Pira Baz\u00ea", "name:ar": "\u0628\u06cc\u0631\u0627 \u0628\u0627\u0632\u06cc", "name:tr": "Bazi K\u00f6pr\u00fc", "place": "village", "population": "140", "source": "Pira Baz\u00ea", "wikidata": "Q34869932"}}, {"type": "node", "id": 5534804769, "lat": 37.2634543, "lon": 44.0777962, "tags": {"designation": "Qutas\u00ea", "name": "Qutas\u00ea", "name:ar": "\u0642\u0648\u0637\u0627\u0633\u06cc", "name:ckb": "\u0642\u0648\u062a\u0627\u0633\u06ce", "name:tr": "Qutase", "place": "village", "population": "100", "source": "Qutas\u00ea;local knowledge;survey;aerial imagery;gps;streetlevel imagery", "wikidata": "Q34869932"}}, {"type": "node", "id": 5534806728, "lat": 37.2531816, "lon": 44.0758006, "tags": {"designation": "Dern\u00easa", "name": "\u062f\u06d5\u0631\u0646\u06ce\u0633\u0627", "name:ar": "\u062f\u0631\u0646\u06cc\u0633\u0627", "name:ckb": "\u062f\u06d5\u0631\u0646\u06ce\u0633\u0627", "name:tr": "DERNESE", "place": "village", "source": "Dern\u00easa", "wikidata": "Q6957896"}}, {"type": "node", "id": 5535747635, "lat": 37.2654985, "lon": 44.0600863}, {"type": "node", "id": 5535747636, "lat": 37.2648496, "lon": 44.0618244}, {"type": "node", "id": 5535747637, "lat": 37.2645764, "lon": 44.0586162}, {"type": "node", "id": 5535747638, "lat": 37.2637311, "lon": 44.0605155}, {"type": "node", "id": 6208900990, "lat": 37.0116454, "lon": 44.3035669, "tags": {"description": "Derecik, Anada\u011f K\u00f6y\u00fc, G\u00f6k\u00e7eta\u015f Mezras\u0131", "name": "G\u00f6k\u00e7eta\u015f", "place": "hamlet"}}, {"type": "node", "id": 6805637597, "lat": 37.0984329, "lon": 44.4377403, "tags": {"name": "Aral\u0131k", "name:ku": "St\u00fbn\u00ea", "place": "hamlet", "wikidata": "Q7058371"}}, {"type": "node", "id": 7680918579, "lat": 37.2640499, "lon": 44.0594462}, {"type": "node", "id": 7845289868, "lat": 37.0987633, "lon": 44.3941963, "tags": {"name": "Be\u011fendik", "place": "hamlet"}}, {"type": "node", "id": 7880778406, "lat": 37.1251492, "lon": 44.0624032}, {"type": "node", "id": 7881251352, "lat": 36.9672988, "lon": 44.2422451}, {"type": "node", "id": 7881251353, "lat": 36.9666407, "lon": 44.2419747}, {"type": "node", "id": 7881251355, "lat": 36.9651864, "lon": 44.2406928}, {"type": "node", "id": 7881251356, "lat": 36.9656272, "lon": 44.2390893}, {"type": "node", "id": 7881251359, "lat": 36.9740236, "lon": 44.2353631}, {"type": "node", "id": 7881251360, "lat": 36.9744645, "lon": 44.2386651}, {"type": "node", "id": 7881251361, "lat": 36.9708842, "lon": 44.2403964}, {"type": "node", "id": 7881251362, "lat": 36.9706236, "lon": 44.2404972}, {"type": "node", "id": 7881251363, "lat": 36.9698053, "lon": 44.2386996}, {"type": "node", "id": 7881251364, "lat": 36.9717388, "lon": 44.2360974}, {"type": "node", "id": 8043940577, "lat": 36.9793362, "lon": 44.3492212}, {"type": "node", "id": 8043940578, "lat": 36.978337, "lon": 44.3490707}, {"type": "node", "id": 8043940579, "lat": 36.9782168, "lon": 44.3515411}, {"type": "node", "id": 8043940580, "lat": 36.9779058, "lon": 44.3513283}, {"type": "node", "id": 8043940581, "lat": 36.9777027, "lon": 44.3506485}, {"type": "node", "id": 8043940582, "lat": 36.9770351, "lon": 44.350991}, {"type": "node", "id": 8043940583, "lat": 36.9772922, "lon": 44.3522729}, {"type": "node", "id": 8043940584, "lat": 36.9770393, "lon": 44.3542606}, {"type": "node", "id": 8043940585, "lat": 36.9780177, "lon": 44.3546758}, {"type": "node", "id": 8043940586, "lat": 36.9784448, "lon": 44.3555165}, {"type": "node", "id": 8043940587, "lat": 36.9796886, "lon": 44.3550027}, {"type": "node", "id": 8043940588, "lat": 36.9805487, "lon": 44.3534216}, {"type": "node", "id": 8043940589, "lat": 36.9792917, "lon": 44.3501452}, {"type": "node", "id": 8043940590, "lat": 36.9801062, "lon": 44.3502796}, {"type": "node", "id": 8043940591, "lat": 36.9798316, "lon": 44.355716}, {"type": "node", "id": 8043940592, "lat": 36.9804984, "lon": 44.3561259}, {"type": "node", "id": 8043940593, "lat": 36.979272, "lon": 44.357102}, {"type": "node", "id": 8043940594, "lat": 36.9797629, "lon": 44.3574024}, {"type": "node", "id": 8043940595, "lat": 37.0234317, "lon": 44.3679001}, {"type": "node", "id": 8043940596, "lat": 37.0229048, "lon": 44.3677947}, {"type": "node", "id": 8043940597, "lat": 37.0226413, "lon": 44.3701368}, {"type": "node", "id": 8043940598, "lat": 37.022301, "lon": 44.3701414}, {"type": "node", "id": 8043940599, "lat": 37.0221656, "lon": 44.3708106}, {"type": "node", "id": 8043940600, "lat": 37.0221217, "lon": 44.3711772}, {"type": "node", "id": 8043940601, "lat": 37.0222424, "lon": 44.3715485}, {"type": "node", "id": 8043940602, "lat": 37.0222022, "lon": 44.3723002}, {"type": "node", "id": 8043940603, "lat": 37.0227474, "lon": 44.3722543}, {"type": "node", "id": 8043940604, "lat": 37.0227291, "lon": 44.3714018}, {"type": "node", "id": 8043940605, "lat": 37.0232671, "lon": 44.3714293}, {"type": "node", "id": 8043940606, "lat": 37.0231902, "lon": 44.3696693}, {"type": "node", "id": 8043940607, "lat": 37.0234354, "lon": 44.3689131}, {"type": "node", "id": 8076834204, "lat": 37.1213929, "lon": 44.0650152}, {"type": "node", "id": 8083355404, "lat": 36.9717595, "lon": 44.2414753}, {"type": "node", "id": 8083355405, "lat": 36.9725942, "lon": 44.2404551}, {"type": "node", "id": 8083355406, "lat": 36.9749147, "lon": 44.2382837}, {"type": "node", "id": 8152280555, "lat": 37.0819292, "lon": 44.4388484, "tags": {"name": "Toklu", "place": "hamlet"}}, {"type": "node", "id": 8152280556, "lat": 37.0781363, "lon": 44.3687205, "tags": {"name": "A\u015fa\u011f\u0131 Ayd\u0131nl\u0131k", "place": "hamlet"}}, {"type": "node", "id": 8167654351, "lat": 37.2480362, "lon": 44.2576039, "tags": {"alt_name": "\u0645\u062d\u0644\u0629 \u062f\u0647\u062f\u0647\u0644\u0631", "int_name": "Mu\u1e29lat Dahdahlar, \u0645\u062d\u0644\u0629 \u062f\u0647 \u062f\u0647 \u0644\u0631, Muhlat Dahdahlar, \u0645\u062d\u0644\u0629 \u062f\u0647 \u062f\u0647 \u0644\u0631", "is_in": "Iraq , \u062c\u0645\u0647\u0648\u0631\u064a\u0629 \u0627\u0644\u0639\u0631\u0627\u0642", "name": "\u0645\u062d\u0644\u0629 \u062f\u0647\u062f\u0647\u0644\u0631", "name:ar": "\u0645\u062d\u0644\u0629 \u062f\u0647\u062f\u0647\u0644\u0631", "name:ar1": "\u0645\u062d\u0644\u0629 \u062f\u0647\u062f\u0647\u0644\u0631", "name:de": "Muhlat Dahdahlar", "name:en": "Muhlat Dahdahlar", "name:fr": "Muhlat Dahdahlar", "place": "village"}}, {"type": "node", "id": 8415188921, "lat": 37.0594516, "lon": 44.3751421, "tags": {"description": "Derecik, Hac\u0131bey Mahallesi, Samanl\u0131 K\u00fcmeevleri", "is_in": "Turkey, Hakkari, \u015eemdinli", "name": "Samanl\u0131", "name:ku": "Mavan", "place": "hamlet"}}, {"type": "node", "id": 8568223273, "lat": 36.9700416, "lon": 44.3988687}, {"type": "node", "id": 8568223274, "lat": 36.9703367, "lon": 44.3994744}, {"type": "node", "id": 8568223275, "lat": 36.9684088, "lon": 44.4009518}, {"type": "node", "id": 8568223276, "lat": 36.9695695, "lon": 44.4016511}, {"type": "node", "id": 8568223277, "lat": 36.9692232, "lon": 44.4023799}, {"type": "node", "id": 8568223278, "lat": 36.9678287, "lon": 44.4015531}, {"type": "node", "id": 8568223279, "lat": 36.9669825, "lon": 44.4005076}, {"type": "node", "id": 8568223280, "lat": 36.9671536, "lon": 44.3999324}, {"type": "node", "id": 8568223281, "lat": 36.9674369, "lon": 44.4001343}, {"type": "node", "id": 8568223282, "lat": 36.9675392, "lon": 44.3998881}, {"type": "node", "id": 8568223283, "lat": 36.9683615, "lon": 44.3997847}, {"type": "node", "id": 8643468887, "lat": 37.262331, "lon": 44.0406677, "tags": {"alt_name:ar": "\u063a\u0648\u0646\u062f\u064a \u0634\u064a;\u062c\u064a", "description": "B\u00f6lgenin en kalabal\u0131k k\u00f6y\u00fc Bug\u00fcn bu k\u00f6y\u00fcn halk\u0131 \u0130ran, T\u00fcrkiye ve Irak'a yay\u0131lm\u0131\u015ft\u0131r Ve bu k\u00f6y neredeyse 40 y\u0131ld\u0131r yok edildi", "ele": "1590", "image": "[[File:GUND\u00ca \u00c7\u00ca \u06af\u0648\u0646\u062f\u0626 \u0686\u0626.jpg|thumb|Che Village]]", "name": "Che", "name:ar": "\u062c\u064a", "name:ckb": "\u0686\u06ce", "name:ku": "\u00c7\u00eay", "name:ku-Arab": "\u0686\u06ce", "name:tr": "\u00c7ey", "place": "village", "source": "aerial imagery;gps;survey;local knowledge;streetlevel imagery;osm notes", "wikidata": "Q6957896", "wikimedia_commons": "File:GUND\u00ca \u00c7\u00ca \u06af\u0648\u0646\u062f\u0626 \u0686\u0626.jpg"}}, {"type": "node", "id": 8643580504, "lat": 37.2383105, "lon": 44.0040742, "tags": {"name": "\u0627\u0631\u06cc\u0631", "name:tr": "Er\u00fcr", "place": "village", "wikidata": "Q34869932"}}, {"type": "node", "id": 8643580509, "lat": 37.3188678, "lon": 44.0621848, "tags": {"name": "\u062e\u06cc\u0627\u0631\u062a\u0629", "name:en": "Xiyarte", "place": "village", "wikidata": "Q34869932"}}, {"type": "node", "id": 8657216534, "lat": 37.2743507, "lon": 44.0058937, "tags": {"name": "\u0631\u0646\u062f\u06ce\u0644\u0627", "name:ar": "\u0631\u06cc\u0646\u062f\u06cc\u0644\u0627", "name:tr": "Rindela", "place": "village", "population": "65", "wikidata": "Q4518490", "wikipedia": "en:Che (surname)"}}, {"type": "node", "id": 8708083310, "lat": 37.2537678, "lon": 44.0765248}, {"type": "node", "id": 8708083311, "lat": 37.2525868, "lon": 44.076129}, {"type": "node", "id": 8708083312, "lat": 37.2521608, "lon": 44.0761135}, {"type": "node", "id": 8768368304, "lat": 37.0867936, "lon": 44.3963473, "tags": {"name": "Ak\u00f6ren", "place": "hamlet"}}, {"type": "node", "id": 8836565267, "lat": 37.1247237, "lon": 44.0494157}, {"type": "node", "id": 8836565268, "lat": 37.1243657, "lon": 44.0519212}, {"type": "node", "id": 8836565269, "lat": 37.1256296, "lon": 44.0498402}, {"type": "node", "id": 8836565270, "lat": 37.1255065, "lon": 44.0518414}, {"type": "node", "id": 8836565271, "lat": 37.1245698, "lon": 44.0520679}, {"type": "node", "id": 8836565272, "lat": 37.1240862, "lon": 44.0515419}, {"type": "node", "id": 8836565273, "lat": 37.123937, "lon": 44.0503942}, {"type": "node", "id": 8836565274, "lat": 37.1251992, "lon": 44.0494156}, {"type": "node", "id": 8836565275, "lat": 37.125727, "lon": 44.0504347}, {"type": "node", "id": 8836590694, "lat": 37.1249342, "lon": 44.0509258, "tags": {"int_name": "Salya", "name": "\u0633\u0627\u0644\u06cc\u0627", "name:ckb": "\u0633\u0627\u0644\u06cc\u0627", "name:de": "Salya", "name:en": "Salya", "name:fr": "Salya", "name:ku": "Salya", "place": "village", "population": "2000"}}, {"type": "node", "id": 8841047197, "lat": 37.2596098, "lon": 44.0792609, "tags": {"name": "Mi\u015fya", "name:ku": "M\u00ee\u015fya", "name:tr": "Mi\u015fya", "place": "village", "source": "local knowledge;gps;streetlevel imagery;aerial imagery;survey", "wikidata": "Q34869932"}}, {"type": "node", "id": 8868909041, "lat": 37.2874607, "lon": 44.0295045, "tags": {"name": "\u06af\u0648\u0646\u062f\u06ce \u0628\u06cc\u0631\u06ce", "name:ckb": "Gund\u00ea B\u00eer\u00ea", "name:tr": "Bire K\u00f6y\u00fc", "place": "village", "source": "survey;local knowledge;gps;aerial imagery;streetlevel imagery", "wikidata": "Q34869932"}}, {"type": "node", "id": 9120067521, "lat": 36.9706482, "lon": 44.2372766}, {"type": "node", "id": 9120931306, "lat": 36.9724608, "lon": 44.235574}, {"type": "node", "id": 9120965933, "lat": 36.9743868, "lon": 44.237264}, {"type": "node", "id": 9120965934, "lat": 36.9732473, "lon": 44.2398248}, {"type": "node", "id": 9120965935, "lat": 36.9727279, "lon": 44.2370333}, {"type": "node", "id": 9120965936, "lat": 36.9733098, "lon": 44.2365642}, {"type": "node", "id": 9120965937, "lat": 36.9707709, "lon": 44.237693}, {"type": "node", "id": 9120965993, "lat": 36.9660917, "lon": 44.2408488}, {"type": "node", "id": 9120966007, "lat": 36.9671013, "lon": 44.2408722}, {"type": "node", "id": 9120966012, "lat": 36.9672181, "lon": 44.2422407}, {"type": "node", "id": 9153602445, "lat": 36.9670154, "lon": 44.2406536}, {"type": "node", "id": 9196238951, "lat": 36.9651642, "lon": 44.2275763}, {"type": "node", "id": 9196239082, "lat": 36.964521, "lon": 44.230616}, {"type": "node", "id": 9301316024, "lat": 36.9656323, "lon": 44.2408547}, {"type": "node", "id": 9301316025, "lat": 36.9657212, "lon": 44.240628}, {"type": "node", "id": 9301316026, "lat": 36.9668597, "lon": 44.2420339}, {"type": "node", "id": 9519362584, "lat": 37.0752991, "lon": 44.0922736}, {"type": "node", "id": 9519362585, "lat": 37.0753402, "lon": 44.111843}, {"type": "node", "id": 9519362586, "lat": 37.0838585, "lon": 44.1078604}, {"type": "node", "id": 9519362587, "lat": 37.0843652, "lon": 44.0921191}, {"type": "node", "id": 9519362588, "lat": 37.0722037, "lon": 44.1026419}, {"type": "node", "id": 10050692074, "lat": 37.3184561, "lon": 44.0221779, "tags": {"name": "\u00c7emto", "name:fa": "\u0686\u06d5\u0645\u062a\u0648", "name:tr": "\u00c7emti", "place": "village", "wikidata": "Q34869932"}}, {"type": "node", "id": 10973677689, "lat": 37.1267812, "lon": 44.1086328, "tags": {"int_name": "Hlara, hlara, hlary, hlara, \u0647\u0644\u0627\u0631\u0627\u060c \u0647\u0644\u0627\u0631\u06cc", "name": "\u0647\u0644\u0627\u0631\u0627", "name:ar": "\u0647\u0644\u0627\u0631\u0627", "name:en": "\u200cHlara", "name:fr": "Hlara", "name:ku": "\u0647\u0644\u0627\u0631\u0627", "place": "village"}}, {"type": "node", "id": 10973677690, "lat": 37.1289452, "lon": 44.1065978}, {"type": "node", "id": 10973677691, "lat": 37.1232105, "lon": 44.1068896}, {"type": "node", "id": 10973677692, "lat": 37.1249214, "lon": 44.110958}, {"type": "node", "id": 10973677693, "lat": 37.1292429, "lon": 44.1109572}, {"type": "node", "id": 10973677694, "lat": 37.1298075, "lon": 44.1092585}, {"type": "node", "id": 10973677695, "lat": 37.1298759, "lon": 44.1081771}, {"type": "node", "id": 11067264991, "lat": 37.0757919, "lon": 44.0922652}, {"type": "node", "id": 11254896235, "lat": 37.0685405, "lon": 44.0813653, "tags": {"name": "\u0645\u06d5\u0645\u06cc\u062f\u0627\u0646", "name:ar": "\u0645\u0645\u064a\u062f\u0627\u0646", "name:ckb": "\u0645\u06d5\u0645\u06cc\u062f\u0627\u0646", "name:en": "Mamidan", "name:ku": "Mem\u00eedan", "place": "village", "wikipedia": "ckb:\u0645\u06d5\u0645\u06cc\u062f\u0627\u0646"}}, {"type": "node", "id": 11366947128, "lat": 37.178399, "lon": 44.0251794, "tags": {"name": "\u0647\u0646\u06ce\u0634", "name:ar": "\u0647\u0646\u064a\u0634", "name:en": "Hinesh", "place": "village"}}, {"type": "node", "id": 11367036665, "lat": 37.182881, "lon": 44.0143637, "tags": {"name": "\u0643\u0631\u064a\u0627\u062f\u064a\u0631\u064a", "name:ar": "\u0643\u0631\u064a\u0627\u062f\u064a\u0631\u064a", "name:en": "Keryadere", "name:ku": "\u0643\u0631\u064a\u0627\u062f\u06ce\u0631\u06ce", "place": "village"}}, {"type": "node", "id": 11374883150, "lat": 37.0823115, "lon": 44.0799922, "tags": {"name": "\u0645\u06d5\u0645\u06cc\u062f\u0627\u0646", "name:ar": "\u0645\u0645\u064a\u062f\u0627\u0646", "name:ckb": "\u0645\u06d5\u0645\u06cc\u062f\u0627\u0646", "name:en": "Mamidan", "name:ku": "Mem\u00eedan", "place": "village", "wikipedia": "ckb:\u0645\u06d5\u0645\u06cc\u062f\u0627\u0646"}}, {"type": "node", "id": 11552981635, "lat": 37.2644911, "lon": 44.0597154, "tags": {"name": "Ketunke", "place": "village", "wikidata": "Q4518490", "wikipedia": "en:Che (surname)"}}, {"type": "node", "id": 11552992613, "lat": 37.3040824, "lon": 44.0613878, "tags": {"name": "\u015eetunis", "name:ar": "\u0634\u062a\u0648\u0646", "name:tr": "\u015eetunis", "place": "village", "wikidata": "Q15222582", "wikipedia": "fa:\u0641\u0631\u0648\u062f\u06af\u0627\u0647 \u0635\u0644\u0627\u062d\u200c\u0627\u0644\u062f\u06cc\u0646 \u0627\u06cc\u0648\u0628\u06cc \u062d\u06a9\u0627\u0631\u06cc\u2013\u06cc\u0648\u06a9\u0633\u06a9\u0648\u0627"}}, {"type": "way", "id": 362508980, "nodes": [3668020011, 3668020012, 3668020013, 4994579808, 3668020014, 3668020015, 3668020016, 3668020017, 3668020018, 3668020019, 3668020020, 8076834204, 3668020021, 3668020022, 3668020023, 3668020024, 3668029625, 3668029626, 3668029627, 7880778406, 3668029629, 3668029630, 3668029631, 3668020011], "tags": {"landuse": "residential", "name": "Meroz", "name:de": "Meroz", "place": "city", "population": "2000"}}, {"type": "way", "id": 464616789, "nodes": [8708083311, 8708083312, 4597100109, 4597100108, 4597100106, 4597100107, 4597100111, 4597100104, 4597100110, 4597100112, 8708083310, 8708083311], "tags": {"place": "village"}}, {"type": "way", "id": 510453108, "nodes": [4994580373, 8836565267, 8836565274, 8836565269, 8836565275, 4994580374, 8836565270, 4994580375, 8836565271, 8836565268, 8836565272, 4994580376, 8836565273, 4994580373], "tags": {"landuse": "residential", "name": "\u0633\u0627\u0644\u06cc\u0627", "name:de": "Salya", "name:en": "Salya", "place": "village", "population": "2000"}}, {"type": "way", "id": 510552758, "nodes": [4995472759, 4995472761, 4995472767, 4995472768, 4995472769, 4995472770, 4995472771, 4995472772, 4995472773, 4995472774, 4995472775, 4995472776, 4995472777, 4995472778, 4995472779, 4995472780, 9196239082, 4995472781, 4995472783, 4995472785, 4995472786, 4995472787, 4995472788, 4995472789, 4995472790, 4995472791, 4995472792, 4995472793, 4995472794, 4995472795, 4995472796, 4995472797, 4995472798, 4995472799, 4995472800, 4995472801, 4995472802, 4995472803, 4995472804, 4995472805, 4995472806, 4995472807, 4995472808, 4995472809, 4995472810, 4995472811, 4995472812, 4995472813, 4995472814, 4995472815, 4995472816, 4995472817, 4995472818, 4995472819, 4995472820, 4995472821, 4995472822, 4995472823, 4995472824, 4995472825, 4995472826, 4995472827, 4995472828, 4995472829, 4995472830, 4995472831, 4995472832, 4995472833, 4995472834, 4995472835, 9196238951, 4995472759], "tags": {"landuse": "residential", "place": "village"}}, {"type": "way", "id": 577453436, "nodes": [5535747635, 5535747636, 5535747638, 7680918579, 5535747637, 5535747635], "tags": {"designation": "K\u00eat\u00eenk\u00ea", "name": "K\u00eat\u00eenk\u00ea", "place": "village", "source": "K\u00eat\u00eenk\u00ea;aerial imagery;survey;local knowledge;gps", "wikidata": "Q4518490", "wikipedia": "en:Che (surname)"}}, {"type": "way", "id": 844773378, "nodes": [4995256870, 4995255974, 4995255975, 4995255976, 4995255977, 4995255978, 4995255979, 9153602445, 4995255980, 9120966007, 4995255981, 4995255982, 4995256889, 4995256890, 4995256891, 4995256892, 4995256894, 4995256896, 4995256897, 4995256898, 7881251352, 9120966012, 4995256901, 4995256902, 4995256903, 9301316026, 4995256905, 7881251353, 4995256888, 4995256886, 4995256885, 9120965993, 4995256884, 9301316025, 9301316024, 7881251355, 7881251356, 4995256875, 4995256874, 4995256873, 4995256872, 4995256871, 4995256870], "tags": {"landuse": "residential", "place": "village"}}, {"type": "way", "id": 844773379, "nodes": [7881251359, 9120965933, 8083355406, 7881251360, 9120965936, 9120965935, 9120965934, 8083355405, 8083355404, 7881251361, 7881251362, 7881251363, 9120965937, 9120067521, 7881251364, 9120931306, 7881251359], "tags": {"landuse": "residential", "place": "village"}}, {"type": "way", "id": 863498930, "nodes": [8043940577, 8043940578, 8043940579, 8043940580, 8043940581, 8043940582, 8043940583, 8043940584, 8043940585, 8043940586, 8043940587, 8043940591, 8043940593, 8043940594, 8043940592, 8043940588, 8043940590, 8043940589, 8043940577], "tags": {"landuse": "residential", "name": "Beshun", "place": "village"}}, {"type": "way", "id": 863498931, "nodes": [8043940595, 8043940596, 8043940597, 8043940598, 8043940599, 8043940600, 8043940601, 8043940602, 8043940603, 8043940604, 8043940605, 8043940606, 8043940607, 8043940595], "tags": {"landuse": "residential", "place": "village"}}, {"type": "way", "id": 923003175, "nodes": [8568223273, 8568223274, 8568223275, 8568223276, 8568223277, 8568223278, 8568223279, 8568223280, 8568223281, 8568223282, 8568223283, 8568223273], "tags": {"int_name": "Kh\u016bm\u0101r\u012b, \u062e\u0648\u0645\u0627\u0631\u064a, Khumari, \u062e\u0648\u0645\u0627\u0631\u064a", "is_in": "Iraq , \u062c\u0645\u0647\u0648\u0631\u064a\u0629 \u0627\u0644\u0639\u0631\u0627\u0642", "landuse": "residential", "name": "\u062e\u0648\u0645\u0627\u0631\u064a", "name:ar": "\u062e\u0648\u0645\u0627\u0631\u064a", "name:de": "Khumari", "name:en": "Khumari", "name:fr": "Khumari", "place": "village"}}, {"type": "way", "id": 1033233487, "nodes": [9519362584, 9519362588, 9519362585, 9519362586, 9519362587, 11067264991, 9519362584], "tags": {"name": "DEZO_\u062f\u06ce\u0632\u0648", "place": "village"}}, {"type": "way", "id": 1181750935, "nodes": [10973677690, 10973677691, 10973677692, 10973677693, 10973677694, 10973677695, 10973677690], "tags": {"int_name": "Hlara, hlara, hlary, hlara, \u0647\u0644\u0627\u0631\u0627\u060c \u0647\u0644\u0627\u0631\u06cc", "name": "\u0647\u0644\u0627\u0631\u0627", "name:ar": "\u0647\u0644\u0627\u0631\u0627", "name:en": "Hlara", "name:ku": "hlara", "note": "\u06af\u06c6\u0646\u062f\u06ce \u0647\u0644\u0627\u0631\u0627", "place": "village"}}]}