{"version": 0.6, "generator": "Overpass API 0.7.61.5 4133829e", "osm3s": {"timestamp_osm_base": "2024-03-06T11:03:20Z", "copyright": "The data included in this document is from www.openstreetmap.org. The data is made available under ODbL."}, "elements": [{"type": "node", "id": 4955493821, "lat": 36.4018599, "lon": 43.1156105, "tags": {"amenity": "atm"}}, {"type": "node", "id": 4960234842, "lat": 36.3463927, "lon": 43.1163303, "tags": {"amenity": "atm", "operator": "\u0628\u0637\u0627\u0642\u0629 \u0630\u0643\u064a\u0629"}}, {"type": "node", "id": 4973192036, "lat": 36.3664431, "lon": 43.0875313, "tags": {"amenity": "atm", "operator": "\u0630\u0643\u064a\u0629"}}, {"type": "node", "id": 4973192425, "lat": 36.3392598, "lon": 43.1174316, "tags": {"amenity": "atm", "operator": "\u0630\u0643\u064a\u0629"}}, {"type": "node", "id": 4973195921, "lat": 36.3671676, "lon": 43.0860901, "tags": {"amenity": "atm", "operator": "\u062a\u0645\u0648\u0632 \u0628\u0637\u0627\u0642\u0629 \u0630\u0643\u064a\u0629"}}, {"type": "node", "id": 5017139322, "lat": 36.3760331, "lon": 43.1795876, "tags": {"amenity": "atm", "operator": "\u0628\u0637\u0627\u0642\u0629 \u0630\u0643\u064a\u0629"}}, {"type": "node", "id": 5022360729, "lat": 36.36793, "lon": 43.2047967, "tags": {"amenity": "atm", "operator": "\u0628\u0637\u0627\u0642\u0629 \u0630\u0643\u064a\u0629"}}, {"type": "node", "id": 5226527923, "lat": 36.3555015, "lon": 43.0886714, "tags": {"amenity": "atm", "operator": "nrs water"}}, {"type": "node", "id": 5226554423, "lat": 36.3562427, "lon": 43.0896028, "tags": {"amenity": "atm", "operator": "nrc"}}, {"type": "node", "id": 5287017521, "lat": 36.3465822, "lon": 43.127388, "tags": {"amenity": "atm"}}, {"type": "node", "id": 5437391425, "lat": 36.3456807, "lon": 43.1506687, "tags": {"amenity": "atm"}}, {"type": "node", "id": 5541974622, "lat": 36.2651472, "lon": 43.3670447, "tags": {"amenity": "atm"}}, {"type": "node", "id": 5545740622, "lat": 36.3833491, "lon": 43.1922104, "tags": {"amenity": "atm"}}, {"type": "node", "id": 5836859985, "lat": 36.3724017, "lon": 43.1742568, "tags": {"amenity": "atm", "operator": "\u0627\u0644\u0645\u062f\u064a\u0646\u0629 \u0627\u0644\u0645\u0646\u0648\u0631\u0629"}}, {"type": "node", "id": 5991340186, "lat": 36.3497288, "lon": 43.1597355, "tags": {"amenity": "atm"}}, {"type": "node", "id": 6368817987, "lat": 36.3681389, "lon": 43.0845734, "tags": {"amenity": "atm", "operator": "\u0645\u0646\u0641\u0630 \u062d\u0645\u0648\u062f\u064a"}}, {"type": "node", "id": 7629478585, "lat": 36.3985056, "lon": 43.2261963, "tags": {"amenity": "atm"}}, {"type": "node", "id": 7660323087, "lat": 36.3854351, "lon": 43.1769198, "tags": {"amenity": "atm"}}, {"type": "node", "id": 8241530377, "lat": 36.3860015, "lon": 43.1644772, "tags": {"amenity": "atm", "name": "\u0645\u0646\u0641\u0630 ok \u0644\u0635\u0631\u0641 \u0645\u0633\u062a\u062d\u0642\u0627\u062a \u0627\u0644\u0645\u0627\u062a\u0631 \u0643\u0627\u0631\u062f \u0648\u0627\u0644\u0643\u064a \u0643\u0627\u0631\u062f"}}, {"type": "node", "id": 8848862318, "lat": 36.3774712, "lon": 43.1806935, "tags": {"amenity": "atm"}}, {"type": "node", "id": 8848877817, "lat": 36.3725573, "lon": 43.1799085, "tags": {"amenity": "atm"}}, {"type": "node", "id": 9365590217, "lat": 36.4171305, "lon": 43.1402641, "tags": {"amenity": "atm", "operator": "\u0645\u062d\u0645\u062f \u0641\u0627\u0626\u0632"}}, {"type": "node", "id": 9508041517, "lat": 36.3612497, "lon": 43.1208209, "tags": {"amenity": "atm"}}, {"type": "node", "id": 10013473817, "lat": 36.3751114, "lon": 43.1384015, "tags": {"amenity": "atm", "operator": "\u0641\u064a\u062a\u0631"}}, {"type": "node", "id": 10013473917, "lat": 36.3638426, "lon": 43.2035753, "tags": {"amenity": "atm"}}, {"type": "node", "id": 10054471918, "lat": 36.4072478, "lon": 43.1034831, "tags": {"amenity": "atm", "opening_hours": "24/7", "operator": "\u0645\u0646\u0641\u0630 \u0631\u0632\u0627\u0646 \u0627\u0644\u0641\u0627\u0631\u0633"}}, {"type": "node", "id": 10054484517, "lat": 36.4072262, "lon": 43.1034168, "tags": {"amenity": "atm", "opening_hours": "24/7", "operator": "\u0645\u0646\u0641\u0630 \u0631\u0632\u0627\u0646 \u0627\u0644\u0641\u0627\u0631\u0633 \u0644\u0635\u0631\u0641 \u0645\u0633\u062a\u062d\u0642\u0627\u062a \u0643\u064a \u0648\u0645\u0627\u0633\u062a\u0631 \u0648\u0627\u0644\u0646\u062e\u064a\u0644"}}, {"type": "node", "id": 10279671109, "lat": 36.4053906, "lon": 43.1152507, "tags": {"amenity": "atm"}}, {"type": "node", "id": 10280919409, "lat": 36.4019605, "lon": 43.1199641, "tags": {"amenity": "atm"}}, {"type": "node", "id": 10281027109, "lat": 36.4032224, "lon": 43.1201668, "tags": {"amenity": "atm"}}]}