{"version": 0.6, "generator": "Overpass API 0.7.61.5 4133829e", "osm3s": {"timestamp_osm_base": "2024-03-06T11:02:15Z", "copyright": "The data included in this document is from www.openstreetmap.org. The data is made available under ODbL."}, "elements": [{"type": "node", "id": 1480228909, "lat": -4.4767322, "lon": 39.1679629, "tags": {"amenity": "school", "contact:email": "kiranzeprimary@yahoo.com", "contact:phone": "0717024461", "education:data_collection": "plan", "education:dropout_ignorance": "yes", "education:dropout_peer_pressure": "yes", "education:dropout_poverty": "yes", "education:dropout_school_fees": "yes", "education:fees": "P.T.A Funds", "education:female_student_pupil_dropout_2008_2009": "4", "education:female_student_pupil_dropout_2009_2010": "13", "education:female_student_pupil_dropout_2010_2011": "10", "education:female_student_pupil_returnees_2010_2011": "3", "education:funders": "Government", "education:male_student_pupil_dropout_2008_2009": "0", "education:male_student_pupil_dropout_2009_2010": "14", "education:male_student_pupil_dropout_2010_2011": "12", "education:male_student_pupil_returnees_2010_2011": "2", "education:program_feeding": "yes", "education:program_orphans": "yes", "education:program_scouting": "yes", "education:program_sports": "yes", "education:staff_female": "0", "education:staff_male": "1", "education:student_age_range": "5-16 years", "education:student_pupil_dropout_2008_2009": "4", "education:student_pupil_dropout_2009_2010": "27", "education:student_pupil_dropout_2010_2011": "22", "education:student_pupil_returnees_2010_2011": "5", "education:students": "311", "education:students_female": "141", "education:students_male": "170", "education:teachers": "6", "education:teachers_female": "1", "education:teachers_male": "5", "education:teachers_trained": "6", "education:teachers_tsc": "6", "education:teachers_untrained": "0", "education:type": "nursery, primaryand adult", "name": "Kiranze Primary School", "opening_hours": "07:30-17:00", "operational_status": "operational", "operator:type": "government", "watsan:female_toilets_per_location": "1", "watsan:male_toilets_per_location": "1", "watsan:toilets_per_location": "2", "watsan:type": "pit_latrine", "watsan:water_availability": "yes"}}, {"type": "node", "id": 1480228912, "lat": -4.4722768, "lon": 39.1926922, "tags": {"addr:city": "Kwale", "addr:street": "Lungalunga-Ramisi road", "amenity": "school", "contact:phone": "0727176529", "education:data_collection": "Plan", "education:dropout_early_marriage": "yes", "education:dropout_peer_pressure": "yes", "education:dropout_pregnancy": "yes", "education:fees": "no", "education:female_student_pupil_dropout_2008_2009": "3", "education:female_student_pupil_dropout_2009_2010": "2", "education:female_student_pupil_dropout_2010_2011": "2", "education:funders": "Gorvanment", "education:male_student_pupil_dropout_2008_2009": "13", "education:male_student_pupil_dropout_2009_2010": "6", "education:male_student_pupil_dropout_2010_2011": "2", "education:program_counseling": "yes", "education:program_feeding": "yes", "education:program_orphans": "yes", "education:program_other": "yes", "education:program_scouting": "yes", "education:program_sports": "yes", "education:staff_female": "0", "education:staff_male": "2", "education:student_age_range": "4-18yrs", "education:student_pupil_dropout_2008_2009": "16", "education:student_pupil_dropout_2009_2010": "8", "education:student_pupil_dropout_2010_2011": "4", "education:students": "1497", "education:students_female": "689", "education:students_male": "808", "education:teachers": "23", "education:teachers_female": "12", "education:teachers_male": "11", "education:teachers_trained": "16", "education:teachers_tsc": "14", "education:teachers_untrained": "7", "education:type": "Nursary and primary", "name": "Menzamwenye Primary", "opening_hours": "07:00-17:30", "operational_status": "operational", "operational_status:electricity": "never", "operator:type": "government"}}, {"type": "node", "id": 1480228913, "lat": -4.4748105, "lon": 39.1923163, "tags": {"amenity": "school", "contact:phone": "0716636659", "education:data_collection": "plan", "education:fees": "14,000", "education:funders": "gorvernment", "education:program_counseling": "yes", "education:program_feeding": "yes", "education:program_sports": "yes", "education:staff_female": "2", "education:staff_male": "2", "education:student_age_range": "14- 18yrs", "education:students": "90", "education:students_female": "30", "education:students_male": "60", "education:teachers": "6", "education:teachers_female": "2", "education:teachers_male": "4", "education:teachers_trained": "0", "education:teachers_tsc": "0", "education:teachers_untrained": "6", "education:type": "secondary", "name": "Menzamwenye secondary", "opening_hours": "Mo-Fr 08:30-20:00", "operational_status": "operational", "operational_status:electricity": "never", "operator:type": "government", "watsan:female_toilets_per_location": "9", "watsan:male_toilets_per_location": "9", "watsan:toilets_per_location": "18", "watsan:type": "pit_latrine", "watsan:water_availability": "yes"}}, {"type": "node", "id": 1494035775, "lat": -4.4906601, "lon": 39.221437, "tags": {"amenity": "school", "contact:phone": "0719178095", "education:data_collection": "plan", "education:dropout_early_marriage": "yes", "education:fees": "yes", "education:female_student_pupil_dropout_2010_2011": "1", "education:funders": "community", "education:program_counseling": "yes", "education:program_feeding": "yes", "education:program_scouting": "yes", "education:program_sports": "yes", "education:staff_female": "1", "education:staff_male": "2", "education:student_age_range": "5-15yrs", "education:student_pupil_dropout_2010_2011": "1", "education:students": "202", "education:students_female": "85", "education:students_male": "117", "education:teachers": "11", "education:teachers_female": "6", "education:teachers_male": "5", "education:teachers_trained": "11", "education:teachers_tsc": "0", "education:teachers_untrained": "0", "education:type": "kindergarten, nursery, primary", "name": "Mary Mother Primary", "opening_hours": "06:00-17:00", "operational_status": "operational", "operational_status:electricity": "never", "operator:type": "private, religious Institution", "watsan:female_toilets_per_location": "3", "watsan:male_toilets_per_location": "3", "watsan:toilets_per_location": "6", "watsan:type": "pit_latrine", "watsan:water_availability": "no"}}, {"type": "node", "id": 1494035782, "lat": -4.483237, "lon": 39.2103113, "tags": {"amenity": "school", "contact:phone": "0723889124", "education:data_collection": "plan", "education:dropout_peer_pressure": "yes", "education:dropout_poverty": "yes", "education:dropout_pregnancy": "yes", "education:fees": "no", "education:female_student_pupil_dropout_2010_2011": "50", "education:funders": "government", "education:male_student_pupil_dropout_2010_2011": "52", "education:pregnant_girls_at_school": "1", "education:program_description": "taikondoo", "education:program_other": "yes", "education:program_scouting": "yes", "education:program_sports": "yes", "education:staff_male": "1", "education:student_age_range": "3-18yrs", "education:student_pupil_dropout_2010_2011": "102", "education:students": "801", "education:students_female": "414", "education:students_male": "387", "education:teachers": "14", "education:teachers_female": "7", "education:teachers_male": "7", "education:teachers_trained": "9", "education:teachers_tsc": "9", "education:teachers_untrained": "5", "education:type": "nursery, primary", "name": "Vinzangalaweni Primary", "opening_hours": "07:00-17:30", "operational_status": "operational", "operational_status:electricity": "never", "operator:type": "government", "watsan:female_toilets_per_location": "3", "watsan:male_toilets_per_location": "3", "watsan:toilets_per_location": "6", "watsan:type": "pit_latrine", "watsan:water_availability": "yes"}}, {"type": "node", "id": 3603465867, "lat": -4.4832595, "lon": 39.1326846, "tags": {"amenity": "school", "name": "Mwena Primary School"}}, {"type": "node", "id": 4156559704, "lat": -4.5386707, "lon": 38.9067577}, {"type": "node", "id": 4156559705, "lat": -4.5385236, "lon": 38.9084928}, {"type": "node", "id": 4156559713, "lat": -4.5375107, "lon": 38.9078797}, {"type": "node", "id": 4156559714, "lat": -4.5369693, "lon": 38.9063203}, {"type": "node", "id": 6054978091, "lat": -4.553437, "lon": 39.123574, "tags": {"addr:city": "Lunga-lunga", "addr:street": "Lungalunga-Ramisi Road", "amenity": "school", "name": "Lungalunga Primary School"}}, {"type": "node", "id": 9362718500, "lat": -4.5368831, "lon": 38.9066166}, {"type": "node", "id": 9362718501, "lat": -4.5375596, "lon": 38.9075875}, {"type": "node", "id": 9362718510, "lat": -4.5388149, "lon": 38.9080046}, {"type": "node", "id": 9362718511, "lat": -4.538573, "lon": 38.9078718}, {"type": "node", "id": 10827362867, "lat": -4.6046451, "lon": 39.0415118, "tags": {"addr:city": "Tanga", "addr:district": "Mkinga District Council", "addr:subward": "Perani", "addr:ward": "Mwakijembe", "amenity": "school", "isced:level": "1", "name": "Shule ya Msingi Perani", "name:en": "Perani Primary School", "name:sw": "Shule ya Msingi Perani", "operator:type": "government", "source": "WFP Primary Schools Feeding Program Survey, 2023 by OMDTZ"}}, {"type": "node", "id": 10827362873, "lat": -4.6794341, "lon": 39.1374612, "tags": {"addr:city": "Tanga", "addr:district": "Mkinga District Council", "addr:subward": "Mwakikoya", "addr:ward": "Duga", "amenity": "school", "isced:level": "1", "name": "Shule ya Msingi Mwakikoya", "name:en": "Mwakikoya Primary School", "name:sw": "Shule ya Msingi Mwakikoya", "operator:type": "government", "source": "WFP Primary Schools Feeding Program Survey, 2023 by OMDTZ"}}, {"type": "node", "id": 10827362875, "lat": -4.5306068, "lon": 38.9095108, "tags": {"addr:city": "Tanga", "addr:district": "Mkinga District Council", "addr:subward": "Mwakijembe", "addr:ward": "Mwakijembe", "amenity": "school", "isced:level": "1", "name": "Shule ya Msingi Mwakijembe", "name:en": "Mwakijembe Primary School", "name:sw": "Shule ya Msingi Mwakijembe", "operator:type": "government", "source": "WFP Primary Schools Feeding Program Survey, 2023 by OMDTZ"}}, {"type": "node", "id": 10827362890, "lat": -4.5681824, "lon": 38.9751836, "tags": {"addr:city": "Tanga", "addr:district": "Mkinga District Council", "addr:subward": "Mbuta", "addr:ward": "Mwakijembe", "amenity": "school", "isced:level": "1", "name": "Shule ya Msingi Mbuta", "name:en": "Mbuta Primary School", "name:sw": "Shule ya Msingi Mbuta", "operator:type": "government", "source": "WFP Primary Schools Feeding Program Survey, 2023 by OMDTZ"}}, {"type": "node", "id": 10827362901, "lat": -4.7041693, "lon": 39.1712789, "tags": {"addr:city": "Tanga", "addr:district": "Mkinga District Council", "addr:subward": "Mahandakini", "addr:ward": "Mayomboni", "amenity": "school", "isced:level": "1", "name": "Shule ya Msingi Mahandakini", "name:en": "Mahandakini Primary School", "name:sw": "Shule ya Msingi Mahandakini", "operator:type": "government", "source": "WFP Primary Schools Feeding Program Survey, 2023 by OMDTZ"}}, {"type": "node", "id": 10827362926, "lat": -4.6786661, "lon": 39.1852688, "tags": {"addr:city": "Tanga", "addr:district": "Mkinga District Council", "addr:subward": "Mahandakini", "addr:ward": "Mayomboni", "amenity": "school", "isced:level": "1", "name": "Shule ya Msingi Jasini", "name:en": "Jasini Primary School", "name:sw": "Shule ya Msingi Jasini", "operator:type": "government", "source": "WFP Primary Schools Feeding Program Survey, 2023 by OMDTZ"}}, {"type": "node", "id": 10827362927, "lat": -4.6242507, "lon": 39.100075, "tags": {"addr:city": "Tanga", "addr:district": "Mkinga District Council", "addr:subward": "Horohoro Kijijini", "addr:ward": "Duga", "amenity": "school", "isced:level": "1", "name": "Shule ya Msingi Horohoro", "name:en": "Horohoro Primary School", "name:sw": "Shule ya Msingi Horohoro", "operator:type": "government", "source": "WFP Primary Schools Feeding Program Survey, 2023 by OMDTZ"}}, {"type": "way", "id": 414520661, "nodes": [4156559704, 9362718511, 9362718510, 4156559705, 4156559713, 9362718501, 9362718500, 4156559714, 4156559704], "tags": {"amenity": "school", "name": "Mwakijembe Secondary School"}}]}