{"version": 0.6, "generator": "Overpass API 0.7.61.5 4133829e", "osm3s": {"timestamp_osm_base": "2024-03-05T14:35:12Z", "copyright": "The data included in this document is from www.openstreetmap.org. The data is made available under ODbL."}, "elements": [{"type": "node", "id": 84680687, "lat": 59.2061191, "lon": 10.9519602, "tags": {"amenity": "ferry_terminal", "ferry": "yes", "name": "Cicignon", "public_transport": "station", "wheelchair": "yes"}}, {"type": "node", "id": 84680779, "lat": 59.2053035, "lon": 10.9536786, "tags": {"amenity": "ferry_terminal", "name": "Gamlebyen", "wheelchair": "yes"}}, {"type": "node", "id": 367678568, "lat": 59.2045686, "lon": 10.9411399, "tags": {"amenity": "ferry_terminal", "name": "Smertu"}}, {"type": "node", "id": 369564050, "lat": 59.2130004, "lon": 10.9343102, "tags": {"amenity": "ferry_terminal", "ferry": "yes", "name": "Sentrum", "public_transport": "station"}}, {"type": "node", "id": 369564108, "lat": 59.2147099, "lon": 10.9111716, "tags": {"amenity": "ferry_terminal", "ferry": "yes", "name": "Gressvik", "public_transport": "station"}}, {"type": "node", "id": 475597352, "lat": 59.0446295, "lon": 11.1116266, "tags": {"amenity": "ferry_terminal", "name": "Mak\u00f8"}}, {"type": "node", "id": 616443846, "lat": 59.2151687, "lon": 10.7896062, "tags": {"amenity": "ferry_terminal", "name": "Vikane"}}, {"type": "node", "id": 616443847, "lat": 59.2126374, "lon": 10.7828651, "tags": {"amenity": "ferry_terminal", "name": "Hank\u00f8 Seilerkro"}}, {"type": "node", "id": 1231616460, "lat": 59.2527131, "lon": 10.7358241, "tags": {"amenity": "ferry_terminal", "ferry": "yes", "name": "Engelsviken", "operator": "Flyb\u00e5ten", "public_transport": "station"}}, {"type": "node", "id": 1871092439, "lat": 59.2059042, "lon": 10.9514191, "tags": {"amenity": "ferry_terminal", "ferry": "yes", "name": "Tollbodkaia", "public_transport": "station"}}, {"type": "node", "id": 2308920200, "lat": 59.2303342, "lon": 10.9895859, "tags": {"amenity": "ferry_terminal", "ferry": "yes", "name": "Sellebakk", "public_transport": "station"}}, {"type": "node", "id": 2308920202, "lat": 59.2311787, "lon": 10.9876731, "tags": {"amenity": "ferry_terminal", "ferry": "yes", "name": "Lisleby", "public_transport": "station"}}, {"type": "node", "id": 2339077830, "lat": 59.205084, "lon": 10.9533211, "tags": {"amenity": "ferry_terminal", "name": "Gamlebyen", "wheelchair": "yes"}}, {"type": "node", "id": 5019797124, "lat": 59.2039085, "lon": 10.9457342, "tags": {"amenity": "ferry_terminal", "ferry": "yes", "name": "Isegran", "public_transport": "station", "source": "Norsk Stoppestedsregister;\u00d8stfold kollektivtrafikk"}}, {"type": "node", "id": 5019797133, "lat": 59.2141137, "lon": 10.9299877, "tags": {"amenity": "ferry_terminal", "ferry": "yes", "name": "V\u00e6rste", "public_transport": "station", "wheelchair": "yes"}}, {"type": "node", "id": 5697268515, "lat": 59.2115767, "lon": 10.7868268, "tags": {"amenity": "ferry_terminal", "name": "Hank\u00f8 Yacht Club"}}, {"type": "node", "id": 6935346593, "lat": 59.2072003, "lon": 10.8947386, "tags": {"amenity": "ferry_terminal", "name": "\u00c5lekilene"}}]}