{"version": 0.6, "generator": "Overpass API 0.7.61.5 4133829e", "osm3s": {"timestamp_osm_base": "2024-03-05T13:52:05Z", "copyright": "The data included in this document is from www.openstreetmap.org. The data is made available under ODbL."}, "elements": [{"type": "node", "id": 3455102086, "lat": 32.7555633, "lon": 62.590947, "tags": {"name": "\u0641\u0631\u0627\u0647 \u0631\u0648\u062f", "name:ar": "\u0641\u0631\u0627\u0647 \u0631\u0648\u062f", "name:de": "Farah Rud", "name:en": "Farah Rud", "name:es": "Farah Rud", "name:fa": "\u0641\u0631\u0627\u0647 \u0631\u0648\u062f", "name:ps": "\u0641\u0631\u0627\u0647 \u0631\u0648\u062f", "name:ru": "\u0424\u0430\u0440\u0430\u0445\u0440\u0443\u0434", "place": "town"}}, {"type": "node", "id": 4406975545, "lat": 32.867203, "lon": 62.221279, "tags": {"alt_name": "Kariz-e Sadeq;Kareze Sadeq", "name": "\u06a9\u0627\u0631\u06d0\u0632 \u0635\u0627\u062f\u0642", "name:en": "Karez-e Sadiq", "name:ps": "\u06a9\u0627\u0631\u06d0\u0632 \u0635\u0627\u062f\u0642", "name:ru": "Karezi-Sadik", "place": "village", "source:name": "GNS"}}, {"type": "node", "id": 4406975547, "lat": 32.855515, "lon": 62.240128, "tags": {"alt_name": "Ghaws;Qaryeh-ye Mohammad;Qarya-i-Mohammad Ghaws;Qaryah-ye Muhammad Ghow", "name": "\u0642\u0631\u06cc\u06c0 \u0645\u062d\u0645\u062f \u063a\u0648\u062b", "name:en": "Qaryeh-ye Mohammad Ghaws", "name:ps": "\u0642\u0631\u06cc\u06c0 \u0645\u062d\u0645\u062f \u063a\u0648\u062b", "name:ru": "Kar'yayi-Mukhammedgaush", "place": "village", "source:name": "GNS"}}, {"type": "node", "id": 4406975548, "lat": 32.864483, "lon": 62.231052, "tags": {"alt_name": "Qarya-i-Mulla `Abdullah;Qaryah-ye Mulla `Abdullah;Qaryeh-ye Molla `Abdollah", "name": "\u0642\u0631\u06cc\u06c0 \u0645\u0644\u0627 \u0639\u0628\u062f\u0627\u0644\u0644\u0647", "name:en": "Qaryeh-ye Mulla Abdullah", "name:ps": "\u0642\u0631\u06cc\u06c0 \u0645\u0644\u0627 \u0639\u0628\u062f\u0627\u0644\u0644\u0647", "name:ru": "Kar'yayi-Mulla-Abdulla", "place": "village", "source:name": "GNS"}}, {"type": "node", "id": 6402071878, "lat": 32.7939199, "lon": 62.6765413, "tags": {"place": "hamlet"}}, {"type": "node", "id": 6402071895, "lat": 32.7910374, "lon": 62.6671411, "tags": {"place": "hamlet"}}, {"type": "node", "id": 6402071927, "lat": 32.7914722, "lon": 62.6608004, "tags": {"place": "hamlet"}}, {"type": "node", "id": 6402151398, "lat": 32.8666964, "lon": 62.4469696, "tags": {"place": "hamlet"}}]}