{"version": 0.6, "generator": "Overpass API 0.7.61.5 4133829e", "osm3s": {"timestamp_osm_base": "2024-02-29T14:04:45Z", "copyright": "The data included in this document is from www.openstreetmap.org. The data is made available under ODbL."}, "elements": [{"type": "node", "id": 3077161955, "lat": 5.2956119, "lon": -2.0040869}, {"type": "node", "id": 3077161956, "lat": 5.2969135, "lon": -2.0042852}, {"type": "node", "id": 3077161957, "lat": 5.2972691, "lon": -2.0001572}, {"type": "node", "id": 3077161958, "lat": 5.2978051, "lon": -1.9998044}, {"type": "node", "id": 3077161959, "lat": 5.2983459, "lon": -1.9995212}, {"type": "node", "id": 3077161960, "lat": 5.2983713, "lon": -2.0045323}, {"type": "node", "id": 3077161961, "lat": 5.2996937, "lon": -2.0040814}, {"type": "node", "id": 3077161962, "lat": 5.2999168, "lon": -1.9993886}, {"type": "node", "id": 3077161963, "lat": 5.3001668, "lon": -1.9995773}, {"type": "node", "id": 3077161964, "lat": 5.3002473, "lon": -1.9998375}, {"type": "node", "id": 3077161965, "lat": 5.3002716, "lon": -2.0015441}, {"type": "node", "id": 3077161966, "lat": 5.3006196, "lon": -2.0030813}, {"type": "node", "id": 3211562928, "lat": 5.3002787, "lon": -2.0024606}, {"type": "node", "id": 3211562929, "lat": 5.3004086, "lon": -2.0035665}, {"type": "node", "id": 3211562930, "lat": 5.3006198, "lon": -2.0028619}, {"type": "node", "id": 3476798962, "lat": 5.2962227, "lon": -2.0008871}, {"type": "node", "id": 3476798963, "lat": 5.2967703, "lon": -2.0005597}, {"type": "node", "id": 4199818289, "lat": 5.3189764, "lon": -1.9865844, "tags": {"amenity": "college", "name": "Redeemer College of Health", "source": "survey"}}, {"type": "node", "id": 4477394347, "lat": 5.2941008, "lon": -2.002322}, {"type": "node", "id": 4511194089, "lat": 5.2977482, "lon": -2.0004251, "tags": {"amenity": "college", "email": "pe@umat.edu.gh", "name": "UMaT Petroleum Engineering Department", "name:en": "Petroleum Engineering Department", "opening_hours": "Mo-Fr 08:00-05:00", "operator": "University of Mines and Technology, Tarkwa", "phone": "+233 312320324", "website": "https://www.umat.edu.gh/"}}, {"type": "node", "id": 4789534654, "lat": 5.298232, "lon": -2.0004149, "tags": {"amenity": "college", "name": "Computer Science and Engineering Department"}}, {"type": "node", "id": 4790255180, "lat": 5.2977385, "lon": -2.0001977, "tags": {"amenity": "college", "name": "Geological Engineering Department", "name:en": "Geological Engineering Department", "opening_hours": "Mo-Fr 08:00-17:00", "operator": "University of Mines and Technology, Tarkwa"}}, {"type": "node", "id": 5520522404, "lat": 5.2863971, "lon": -2.0004355, "tags": {"amenity": "college", "name": "Emerald Health Institute"}}, {"type": "way", "id": 303362063, "nodes": [3077161960, 3077161956, 3077161955, 4477394347, 3476798962, 3476798963, 3077161957, 3077161958, 3077161959, 3077161962, 3077161963, 3077161964, 3077161965, 3211562928, 3211562930, 3077161966, 3211562929, 3077161961, 3077161960], "tags": {"addr:full": "North Tarkwa Highway, Tarkwa, Ghana", "addr:street": "North Tarkwa Highway", "alt_name": "George Grant University of Mines and Technology", "amenity": "university", "name": "University of Mines and Technology", "old_name": "School of Mines", "short_name": "UMaT", "wikidata": "Q2495871", "wikipedia": "en:George Grant University of Mines and Technology"}}]}