{"version": 0.6, "generator": "Overpass API 0.7.61.5 4133829e", "osm3s": {"timestamp_osm_base": "2024-03-05T14:58:45Z", "copyright": "The data included in this document is from www.openstreetmap.org. The data is made available under ODbL."}, "elements": [{"type": "node", "id": 436356542, "lat": 59.0519654, "lon": 12.7036828, "tags": {"amenity": "pharmacy", "brand": "Apoteket", "contact:phone": "+46771450450", "healthcare": "pharmacy", "name": "Apoteket Lejonet", "operator": "Apoteket AB (publ)", "wheelchair": "yes"}}, {"type": "node", "id": 746713223, "lat": 58.6998604, "lon": 12.453601, "tags": {"addr:city": "Mellerud", "addr:country": "SE", "addr:housenumber": "1", "addr:postcode": "46430", "addr:street": "Norra Kungsgatan", "amenity": "pharmacy"}}, {"type": "node", "id": 4896162410, "lat": 59.0491057, "lon": 12.7036589, "tags": {"addr:city": "\u00c5m\u00e5l", "addr:country": "SE", "addr:housenumber": "12", "addr:postcode": "662 30", "addr:street": "S\u00f6dra L\u00e5nggatan", "addr:unit": "1 tr", "alt_name": "Medpro Clinic \u00c5m\u00e5l", "amenity": "clinic", "contact:phone": "+46 532 709 400", "contact:website": "https://medpro.se/hem/amal-vardcentral/", "healthcare": "clinic", "name": "\u00c5m\u00e5l V\u00e5rdcentral", "network": "V\u00e4stra G\u00f6talandsregionen", "operator": "Medpro Clinic Group AB", "start_date": "2019-04-12"}}, {"type": "node", "id": 5154265769, "lat": 58.8068729, "lon": 12.4187632, "tags": {"amenity": "clinic", "branch": "\u00c5sensbruk", "contact:phone": "+46 530-301 11", "contact:website": "http://www.vgregion.se/", "name": "Distriktssk\u00f6terskemottagning", "operator": "V\u00e4stra G\u00f6talandsregionen"}}, {"type": "node", "id": 5154284204, "lat": 58.9216124, "lon": 12.314845, "tags": {"addr:city": "Dals L\u00e5nged", "addr:country": "SE", "addr:housenumber": "10B", "addr:postcode": "666 95", "addr:street": "\u00c4ngb\u00e4cksv\u00e4gen", "amenity": "clinic", "contact:phone": "+46 10-441 63 10", "healthcare": "clinic", "name": "N\u00e4rh\u00e4lsan Bengtsfors v\u00e5rdcentral - Dals L\u00e5nged", "network": "V\u00e4stra G\u00f6talandsregionen", "operator": "V\u00e4stra G\u00f6talandsregionen", "website": "https://www.narhalsan.se/hitta-mottagning/bengtfors/narhalsan-bengtsfors-vardcentral---dals-langed/"}}, {"type": "node", "id": 6432851546, "lat": 59.0480193, "lon": 12.704334, "tags": {"addr:city": "\u00c5m\u00e5l", "addr:country": "SE", "addr:housenumber": "17", "addr:postcode": "662 30", "addr:street": "Nybrogatan", "amenity": "clinic", "contact:phone": "+46 10 441 67 10", "healthcare": "midwife", "name": "N\u00e4rh\u00e4lsan \u00c5m\u00e5l barnmorskemottagning", "network": "V\u00e4stra G\u00f6talandsregionen", "operator": "V\u00e4stra G\u00f6talandsregionen"}}, {"type": "node", "id": 6432860402, "lat": 59.0493512, "lon": 12.7057046, "tags": {"addr:city": "\u00c5m\u00e5l", "addr:country": "SE", "addr:housenumber": "3B", "addr:postcode": "662 30", "addr:street": "S\u00f6dra L\u00e5nggatan", "amenity": "clinic", "contact:phone": "+46 10 441 52 30", "healthcare": "rehabilitation", "name": "N\u00e4rh\u00e4lsan \u00c5m\u00e5l rehabmottagning", "network": "V\u00e4stra G\u00f6talandsregionen", "operator": "V\u00e4stra G\u00f6talandsregionen"}}, {"type": "node", "id": 6432860403, "lat": 59.0491277, "lon": 12.7048101, "tags": {"addr:city": "\u00c5m\u00e5l", "addr:country": "SE", "addr:housenumber": "3B", "addr:postcode": "662 30", "addr:street": "S\u00f6dra L\u00e5nggatan", "amenity": "clinic", "contact:phone": "+46 10 441 69 25", "healthcare": "counselling", "name": "N\u00e4rh\u00e4lsan \u00c5m\u00e5l ungdomsmottagning", "network": "V\u00e4stra G\u00f6talandsregionen", "operator": "V\u00e4stra G\u00f6talandsregionen"}}, {"type": "node", "id": 7116238909, "lat": 58.7032083, "lon": 12.4509496, "tags": {"amenity": "pharmacy", "name": "Apoteket"}}, {"type": "node", "id": 9008387067, "lat": 58.7002648, "lon": 12.4541536, "tags": {"addr:city": "Mellerud", "addr:country": "SE", "addr:housenumber": "3", "addr:postcode": "464 30", "addr:street": "Norra Kungsgatan", "amenity": "clinic", "name": "N\u00e4rh\u00e4lsan Mellerud v\u00e5rdcentral", "operator": "V\u00e4stra G\u00f6talandsregionen", "phone": "+46 10 441 60 50", "website": "https://www.narhalsan.se/hitta-mottagning/mellerud/narhalsan-mellerud-vardcentral/"}}, {"type": "node", "id": 9027047294, "lat": 58.7002441, "lon": 12.4541543, "tags": {"addr:city": "Mellerud", "addr:country": "SE", "addr:housenumber": "3", "addr:postcode": "464 30", "addr:street": "Norra Kungsgatan", "amenity": "clinic", "name": "N\u00e4rh\u00e4lsan Mellerud barnav\u00e5rdscentral", "operator": "V\u00e4stra G\u00f6talandsregionen", "phone": "+46 10 441 60 45", "website": "https://www.narhalsan.se/hitta-mottagning/mellerud/narhalsan-mellerud-barnavardscentral/"}}, {"type": "node", "id": 9027057987, "lat": 58.7002262, "lon": 12.4541526, "tags": {"addr:city": "Mellerud", "addr:country": "SE", "addr:housenumber": "3", "addr:postcode": "464 30", "addr:street": "Norra Kungsgatan", "amenity": "clinic", "name": "N\u00e4rh\u00e4lsan Mellerud rehabmottagning", "operator": "V\u00e4stra G\u00f6talandsregionen", "phone": "+46 10 441 61 45", "website": "https://www.narhalsan.se/hitta-mottagning/mellerud/narhalsan-mellerud-rehabmottagning/"}}]}