{"version": 0.6, "generator": "Overpass API 0.7.61.5 4133829e", "osm3s": {"timestamp_osm_base": "2024-03-06T11:16:45Z", "copyright": "The data included in this document is from www.openstreetmap.org. The data is made available under ODbL."}, "elements": [{"type": "node", "id": 2483967182, "lat": 33.443784, "lon": 45.781445, "tags": {"alt_name": "\u0646\u0642\u0637\u0629 \u062a\u0631\u0633\u0627\u0642", "int_name": "Nuq\u0163at T\u016brs\u0101k, Nuq\u0163at Tursaq, Ters\u0101n, Tursak, Turs\u0101q, Nuqtat Tursak, Nuqtat Tursaq, Tersan, Tursak, Tursaq", "is_in": "Iraq , \u062c\u0645\u0647\u0648\u0631\u064a\u0629 \u0627\u0644\u0639\u0631\u0627\u0642", "name": "\u0646\u0642\u0637\u0629 \u062a\u0631\u0633\u0627\u0642", "name:ar": "\u0646\u0642\u0637\u0629 \u062a\u0631\u0633\u0627\u0642", "name:ar1": "\u0646\u0642\u0637\u0629 \u062a\u0631\u0633\u0627\u0642", "name:de": "Nuqtat Tursak", "name:en": "Nuqtat Tursak", "name:fr": "Nuqtat Tursak", "name:ru": "\u0422\u0443\u0440\u0441\u0430\u043a", "place": "village"}}, {"type": "node", "id": 2483984441, "lat": 33.123611, "lon": 45.978889, "tags": {"alt_name": "\u0639\u0644\u064a \u062d\u0633\u0646", "int_name": "Al\u012b \u1e28asan, Ali Hasan", "is_in": "Iraq , \u062c\u0645\u0647\u0648\u0631\u064a\u0629 \u0627\u0644\u0639\u0631\u0627\u0642", "name": "\u0639\u0644\u064a \u062d\u0633\u0646", "name:ar": "\u0642\u0644\u0645\u0627\u062a", "name:ar1": "\u0639\u0644\u064a \u062d\u0633\u0646", "name:de": "Ali Hasan", "name:en": "Ali Hasan", "name:fr": "Ali Hasan", "place": "village"}}, {"type": "node", "id": 2483984442, "lat": 33.118269, "lon": 46.097569, "tags": {"alt_name": "\u0642\u0631\u06cc\u0629 \u0627\u0644\u0637\u0639\u0627\u0646", "int_name": "A\u0163 \u0162a\u0101n, Qaryat a\u0163 \u0162a\u0101n, Ta\u0101n, At Taan, Qaryat at Taan, Taan", "is_in": "Iraq , \u062c\u0645\u0647\u0648\u0631\u06cc\u0629 \u0627\u0644\u0639\u0631\u0627\u0642", "is_in:country": "Iran", "name": "\u0642\u0631\u06cc\u0629 \u0627\u0644\u0637\u0639\u0627\u0646", "name:ar": "\u0642\u0631\u06cc\u0629 \u0627\u0644\u0637\u0639\u0627\u0646", "name:ar1": "\u0642\u0631\u06cc\u0629 \u0627\u0644\u0637\u0639\u0627\u0646", "name:de": "At Taan", "name:en": "At Taan", "name:fr": "At Taan", "place": "village"}}, {"type": "node", "id": 2483984445, "lat": 33.1146199, "lon": 45.932346, "tags": {"alt_name": "Badra, Badrah, Badrai, Bedrah, Bedrai, \u0628\u062f\u0631\u0629, Badra, Badrah, Badrai, Bedrah, Bedrai, \u0628\u062f\u0631\u0629", "capital": "6", "int_name": "Badra - \u0628\u062f\u0631\u0629", "is_in": "Iraq , \u062c\u0645\u0647\u0648\u0631\u064a\u0629 \u0627\u0644\u0639\u0631\u0627\u0642", "name": "\u0628\u062f\u0631\u0629", "name:ar": "\u0628\u062f\u0631\u0629", "name:ckb": "\u0628\u06d5\u062f\u0631\u06d5", "name:de": "Badra", "name:en": "Badra", "name:fr": "Badra", "name:ja": "\u30d0\u30c9\u30e9", "name:ku": "Bedre", "name:ru": "\u0411\u0430\u0434\u0440\u0430", "place": "town", "wikidata": "Q2349675", "wikipedia": "en:Badra, Iraq"}}, {"type": "node", "id": 2483984521, "lat": 33.0955964, "lon": 45.930283, "tags": {"alt_name": "\u0631\u0627\u062d\u0629", "int_name": "R\u0101\u1e29ah, Rahah", "is_in": "Iraq , \u062c\u0645\u0647\u0648\u0631\u064a\u0629 \u0627\u0644\u0639\u0631\u0627\u0642", "name": "\u0631\u0627\u062d\u0629", "name:ar": "\u0631\u0627\u062d\u0629", "name:ar1": "\u0631\u0627\u062d\u0629", "name:de": "Rahah", "name:en": "Rahah", "name:fr": "Rahah", "place": "village"}}, {"type": "node", "id": 2483984523, "lat": 33.1263165, "lon": 46.1091052, "tags": {"alt_name": "\u0631\u0633\u062a\u0645\u0622\u0628\u0627\u062f", "int_name": "Rostam\u0101b\u0101d, Rostamabad", "is_in": "Iraq , \u062c\u0645\u0647\u0648\u0631\u064a\u0629 \u0627\u0644\u0639\u0631\u0627\u0642", "name": "\u0631\u0633\u062a\u0645\u200c\u0622\u0628\u0627\u062f", "name:ar": "\u0631\u0633\u062a\u0645\u200c\u0622\u0628\u0627\u062f", "name:ar1": "\u0631\u0633\u062a\u0645\u0622\u0628\u0627\u062f", "name:de": "Rostamabad", "name:en": "Rostamabad", "name:fr": "Rostamabad", "place": "village"}}, {"type": "node", "id": 2483984526, "lat": 33.0929589, "lon": 45.9580713, "tags": {"alt_name": "\u0633\u0627\u064a\u0647\u0629", "int_name": "S\u0101\u012bhah, Saihah", "is_in": "Iraq , \u062c\u0645\u0647\u0648\u0631\u064a\u0629 \u0627\u0644\u0639\u0631\u0627\u0642", "name": "\u0633\u0627\u064a\u0647\u0629", "name:ar": "\u0633\u064a\u062f \u0635\u0641\u0631", "name:ar1": "\u0633\u0627\u064a\u0647\u0629", "name:de": "Saihah", "name:en": "Saihah", "name:fr": "Saihah", "place": "village"}}, {"type": "node", "id": 2483984527, "lat": 33.0927857, "lon": 45.9584569, "tags": {"alt_name": "\u0633\u064a\u0647\u0629", "int_name": "Sayhah, Sayhah", "is_in": "Iraq , \u062c\u0645\u0647\u0648\u0631\u064a\u0629 \u0627\u0644\u0639\u0631\u0627\u0642", "name": "\u0633\u064a\u0647\u0629", "name:ar": "\u0633\u064a\u0647\u0629", "name:ar1": "\u0633\u064a\u0647\u0629", "name:de": "Sayhah", "name:en": "Sayhah", "name:fr": "Sayhah", "place": "village"}}, {"type": "node", "id": 2483984542, "lat": 33.0827434, "lon": 45.8235387, "tags": {"alt_name": "\u0632\u0646\u0627\u062c\u0631\u0627\u062f", "int_name": "Zin\u0101gr\u0101d, Zinagrad", "is_in": "Iraq , \u062c\u0645\u0647\u0648\u0631\u064a\u0629 \u0627\u0644\u0639\u0631\u0627\u0642", "name": "\u0632\u0646\u0627\u062c\u0631\u0627\u062f", "name:ar": "\u0632\u0646\u0627\u062c\u0631\u0627\u062f", "name:ar1": "\u0632\u0646\u0627\u062c\u0631\u0627\u062f", "name:de": "Zinagrad", "name:en": "Zinagrad", "name:fr": "Zinagrad", "place": "village"}}, {"type": "node", "id": 2483984543, "lat": 33.1593296, "lon": 46.0388927, "tags": {"alt_name": "Zorb\u0101t\u012bya, Zurbatiya, Zurb\u0101\u0163\u012byah, Zurb\u0101tiyeh, \u0632\u0631\u0628\u0627\u0637\u064a\u0629, Zorbatiya, Zurbatiya, Zurbatiyah, Zurbatiyeh, \u0632\u0631\u0628\u0627\u0637\u064a\u0629", "alt_name:ar-Latn": "Al Dhahab", "capital": "7", "int_name": "Zorbatiya - \u0632\u0631\u0628\u0627\u0637\u064a\u0629", "is_in": "Iraq , \u062c\u0645\u0647\u0648\u0631\u064a\u0629 \u0627\u0644\u0639\u0631\u0627\u0642", "name": "\u0632\u0631\u0628\u0627\u0637\u064a\u0629", "name:ar": "\u0632\u0631\u0628\u0627\u0637\u064a\u0629", "name:ckb": "\u0632\u0648\u0695\u0628\u0627\u062a\u06cc\u06d5", "name:en": "Zurbatya", "old_name": "\u0632\u0631\u0628\u0627\u0637\u064a\u0629", "old_name:ar": "\u0632\u0631\u0628\u0627\u0637\u064a\u0629", "old_name:de": "Zorbatiya", "old_name:en": "Zorbatiya", "old_name:fr": "Zorbatiya", "old_name:ru": "\u0417\u0443\u0440\u0431\u0430\u0442\u0438\u044f", "place": "town"}}, {"type": "node", "id": 2483986911, "lat": 33.0729558, "lon": 45.9592182, "tags": {"alt_name": "\u0645\u0639\u062f\u0646", "int_name": "Ma ad\u0101n, Ma adan", "is_in": "Iraq , \u062c\u0645\u0647\u0648\u0631\u064a\u0629 \u0627\u0644\u0639\u0631\u0627\u0642", "name": "\u0645\u0639\u062f\u0646", "name:ar": "\u0645\u0639\u062f\u0646", "name:ar1": "\u0645\u0639\u062f\u0646", "name:de": "Ma adan", "name:en": "Ma adan", "name:fr": "Ma adan", "place": "village"}}, {"type": "node", "id": 2483988839, "lat": 33.0229336, "lon": 45.8623443, "tags": {"alt_name": "\u0625\u0645\u0627\u0645 \u0639\u0644\u064a \u064a\u062b\u0631\u064a", "int_name": "Im\u0101m Al\u012b Yithr\u012b, Imam Ali Yithri", "is_in": "Iraq , \u062c\u0645\u0647\u0648\u0631\u064a\u0629 \u0627\u0644\u0639\u0631\u0627\u0642", "name": "\u0625\u0645\u0627\u0645 \u0639\u0644\u064a \u064a\u062b\u0631\u064a", "name:ar": "\u0625\u0645\u0627\u0645 \u0639\u0644\u064a \u064a\u062b\u0631\u064a", "name:ar1": "\u0625\u0645\u0627\u0645 \u0639\u0644\u064a \u064a\u062b\u0631\u064a", "name:de": "Imam Ali Yithri", "name:en": "Imam Ali Yithri", "name:fr": "Imam Ali Yithri", "place": "village"}}, {"type": "node", "id": 2483988842, "lat": 33.0233226, "lon": 45.8626306, "tags": {"alt_name": "\u0625\u0645\u0627\u0645 \u0634\u0627\u064a\u062e \u0639\u0644\u064a \u0627\u0644\u064a\u062b\u0631\u0628\u064a", "int_name": "Im\u0101m Sh\u0101\u012bkh Ali l Yathribi, Imam Shaikh Ali l Yathribi", "is_in": "Iraq , \u062c\u0645\u0647\u0648\u0631\u064a\u0629 \u0627\u0644\u0639\u0631\u0627\u0642", "name": "\u0625\u0645\u0627\u0645 \u0634\u0627\u064a\u062e \u0639\u0644\u064a \u0627\u0644\u064a\u062b\u0631\u0628\u064a", "name:ar": "\u0625\u0645\u0627\u0645 \u0634\u0627\u064a\u062e \u0639\u0644\u064a \u0627\u0644\u064a\u062b\u0631\u0628\u064a", "name:ar1": "\u0625\u0645\u0627\u0645 \u0634\u0627\u064a\u062e \u0639\u0644\u064a \u0627\u0644\u064a\u062b\u0631\u0628\u064a", "name:de": "Imam Shaikh Ali l Yathribi", "name:en": "Imam Shaikh Ali l Yathribi", "name:fr": "Imam Shaikh Ali l Yathribi", "place": "village"}}, {"type": "node", "id": 2483988850, "lat": 33.0170968, "lon": 45.8651074, "tags": {"alt_name": "\u062c\u0646\u0643\u0629", "int_name": "Jangah, Jangah", "is_in": "Iraq , \u062c\u0645\u0647\u0648\u0631\u064a\u0629 \u0627\u0644\u0639\u0631\u0627\u0642", "name": "\u062c\u0646\u0643\u0629", "name:ar": "\u062c\u0646\u0643\u0629", "name:ar1": "\u062c\u0646\u0643\u0629", "name:de": "Jangah", "name:en": "Jangah", "name:fr": "Jangah", "place": "village"}}, {"type": "node", "id": 2483988853, "lat": 33.0345004, "lon": 45.9250382, "tags": {"alt_name": "\u062c\u0628\u0648\u0631 \u0634\u0631\u0627\u062f", "int_name": "Jub\u016br Sharr\u0101d, Jubur Sharrad", "is_in": "Iraq , \u062c\u0645\u0647\u0648\u0631\u064a\u0629 \u0627\u0644\u0639\u0631\u0627\u0642", "name": "\u062c\u0628\u0648\u0631 \u0634\u0631\u0627\u062f", "name:ar": "\u062c\u0628\u0648\u0631 \u0634\u0631\u0627\u062f", "name:ar1": "\u062c\u0628\u0648\u0631 \u0634\u0631\u0627\u062f", "name:de": "Jubur Sharrad", "name:en": "Jubur Sharrad", "name:fr": "Jubur Sharrad", "place": "village"}}, {"type": "node", "id": 2483988927, "lat": 33.0247669, "lon": 45.8734675, "tags": {"alt_name": "\u062a\u0644 \u0625\u0631\u062c\u0627\u064a\u0628\u0627\u062a", "int_name": "Tel Erj\u0101\u012bb\u0101t, Tel Erjaibat", "is_in": "Iraq , \u062c\u0645\u0647\u0648\u0631\u064a\u0629 \u0627\u0644\u0639\u0631\u0627\u0642", "name": "\u062a\u0644 \u0625\u0631\u062c\u0627\u064a\u0628\u0627\u062a", "name:ar": "\u062a\u0644 \u0625\u0631\u062c\u0627\u064a\u0628\u0627\u062a", "name:ar1": "\u062a\u0644 \u0625\u0631\u062c\u0627\u064a\u0628\u0627\u062a", "name:de": "Tel Erjaibat", "name:en": "Tel Erjaibat", "name:fr": "Tel Erjaibat", "place": "village"}}, {"type": "node", "id": 9172471735, "lat": 33.12221, "lon": 45.9339529, "tags": {"name": "\u0642\u0631\u064a\u0629 \u0627\u0644\u0639\u0642\u0631 \u0627\u0644\u0627\u062b\u0631\u064a\u0629", "place": "village"}}]}