{"version": 0.6, "generator": "Overpass API 0.7.61.5 4133829e", "osm3s": {"timestamp_osm_base": "2024-03-06T11:08:30Z", "copyright": "The data included in this document is from www.openstreetmap.org. The data is made available under ODbL."}, "elements": [{"type": "node", "id": 4127914089, "lat": 34.8839553, "lon": 44.6355928, "tags": {"amenity": "hospital", "emergency": "yes", "healthcare": "hospital", "healthcare:speciality": "general", "name": "\u0645\u0633\u062a\u0634\u0641\u0649 \u0637\u0648\u0632 \u0627\u0644\u0639\u0627\u0645", "name:ar": "\u0645\u0633\u062a\u0634\u0641\u0649 \u0637\u0648\u0632 \u0627\u0644\u0639\u0627\u0645", "name:en": "Tuz General Hospital", "name:tk": "Tuz Hasthanasi", "office": "government", "operator": "\u0648\u0632\u0627\u0631\u0629 \u0627\u0644\u0635\u062d\u0629 \u0627\u0644\u0639\u0631\u0627\u0642\u064a\u0629", "operator:type": "government"}}, {"type": "node", "id": 4394769033, "lat": 34.883498, "lon": 44.6305762, "tags": {"amenity": "hospital", "emergency": "yes", "healthcare": "hospital", "healthcare:speciality": "general", "name": "\u0627\u0644\u0645\u0631\u0643\u0632 \u0627\u0644\u0635\u062d\u064a", "name:ar": "\u0645\u0631\u0643\u0632 \u0635\u062d\u064a", "operator": "\u0648\u0632\u0627\u0631\u0629 \u0627\u0644\u0635\u062d\u0629 \u0627\u0644\u0639\u0631\u0627\u0642\u064a\u0629", "operator:type": "government"}}, {"type": "node", "id": 4592251489, "lat": 34.8852131, "lon": 44.6387317, "tags": {"amenity": "hospital", "name": "\u0646\u06d5\u062e\u06c6\u0634\u062e\u0627\u0646\u06d5\u06cc \u06af\u0634\u062a\u06cc", "name:ku": "\u0646\u0629\u062e\u0648\u0634\u062e\u0627\u0646\u0629\u064a \u0643\u0634\u062a\u064a"}}, {"type": "node", "id": 4592251789, "lat": 34.9011095, "lon": 44.627753, "tags": {"amenity": "hospital", "healthcare": "hospital", "name": "\u0627\u0644\u0645\u0631\u0643\u0632 \u0627\u0644\u0635\u062d\u064a \u0641\u064a \u0627\u0644\u062c\u0645\u0647\u0648\u0631\u064a\u0629", "name:ar": "\u0627\u0644\u0645\u0631\u0643\u0632 \u0627\u0644\u0635\u062d\u064a \u0641\u064a \u0627\u0644\u062c\u0645\u0647\u0648\u0631\u064a\u0629", "name:ckb": "\u0646\u06d5\u062e\u06c6\u0634\u062e\u0627\u0646\u06d5\u06cc \u06a9\u06c6\u0645\u0627\u0631\u06cc"}}, {"type": "node", "id": 5282020623, "lat": 34.7916131, "lon": 44.6687897, "tags": {"amenity": "clinic", "name": "\u0645\u0633\u062a\u0634\u0641\u0649 \u0633\u0644\u064a\u0645\u0627\u0646 \u0628\u064a\u0643", "name:en": "sulymanbeek hospital"}}, {"type": "node", "id": 6417602085, "lat": 34.9762822, "lon": 44.7634235, "tags": {"amenity": "clinic", "name": "\u0645\u0631\u0643\u0632 \u0635\u062d\u064a \u0627\u0644\u0646\u0648\u062c\u0648\u0644", "name:en": "Naojol Health Center", "name:ku": "\u0628\u0646\u06a9\u06d5\u06cc \u062a\u06d5\u0646\u062f\u0631\u0648\u0633\u062a\u06cc \u0646\u06d5\u0648\u062c\u0648\u0644"}}, {"type": "node", "id": 6703299487, "lat": 34.8926642, "lon": 44.6266287, "tags": {"amenity": "pharmacy", "name": "\u0635\u064a\u062f\u0644\u064a\u0629 \u0645\u062e\u062a\u0627\u0631 \u0641\u064a \u0637\u0648\u0632", "name:ar": "\u0635\u064a\u062f\u0644\u064a\u0629 \u0627\u0644\u0645\u062e\u062a\u0627\u0631", "name:en": "Mokhtar pharmacy", "name:ku": "\u062f\u06d5\u0631\u0645\u0627\u0646\u062e\u0627\u0646\u06d5\u06cc \u0645\u062e\u062a\u0627\u0631"}}, {"type": "node", "id": 7271676185, "lat": 34.8985425, "lon": 44.6234431, "tags": {"amenity": "clinic", "name": "\u0634\u0627\u0631\u0639 \u0627\u0644\u0627\u0637\u0628\u0627\u0621 \u0633\u0648\u0642 \u0627\u0643\u0631\u0627\u062f /\u0634\u0629\u0642\u0627\u0645\u064a \u067e\u0632\u064a\u0634\u0643\u0627\u0646 \u0643\u0648\u0631\u062f"}}, {"type": "node", "id": 7272598385, "lat": 34.8996773, "lon": 44.6222613, "tags": {"amenity": "doctors", "name": "\u0634\u0627\u0631\u0639 \u0627\u0637\u0628\u0627\u0621 \u062d\u064a \u0627\u0644\u0627\u0643\u0631\u0627\u062f"}}, {"type": "node", "id": 7958745685, "lat": 34.9140974, "lon": 44.6076851, "tags": {"amenity": "pharmacy", "name": "\u0645\u0633\u0634\u0641\u0649 \u0627\u0644\u062f\u0648\u0632 \u0627\u0644\u062a\u0631\u0643\u064a"}}, {"type": "node", "id": 7981250186, "lat": 34.8837115, "lon": 44.6095277, "tags": {"amenity": "hospital", "name": "\u0645\u0633\u062a\u0634\u0641\u0649 \u0627\u0644\u0642\u0637\u0627\u0639 \u0637\u0648\u0632", "name:ar": "\u0645\u0633\u062a\u0634\u0641\u0649 \u0627\u0644\u062d\u064a \u0627\u0644\u0639\u0633\u0643\u0631\u064a"}}, {"type": "node", "id": 8812142817, "lat": 34.893373, "lon": 44.6262822, "tags": {"amenity": "doctors", "name": "\u0645\u0633\u062a\u0634\u0641\u0649 \u062f\u0627\u0631 \u0627\u0644\u062d\u0643\u0645\u0629", "name:ar": "\u0645\u062c\u0645\u0639 \u0637\u0628\u064a \u062f\u0627\u0631 \u0627\u0644\u062d\u0643\u0645\u0629", "name:en": "Dar al hikma"}}, {"type": "node", "id": 8961370117, "lat": 34.883808, "lon": 44.6301451, "tags": {"amenity": "hospital", "name": "\u0645\u062c\u0645\u0639 \u0645\u062d\u0645\u062f \u0643\u0645\u0627\u0644 \u0627\u0644\u0637\u0628\u064a"}}, {"type": "node", "id": 9235981418, "lat": 34.8838867, "lon": 44.6301929, "tags": {"addr:street": "\u0634\u0627\u0631\u0639 \u0627\u0644\u0627\u0637\u0628\u0627\u0621", "amenity": "clinic", "internet_access": "wlan", "name": "\u0645\u062c\u0645\u0639 \u0645\u062d\u0645\u062f \u0643\u0645\u0627\u0644 \u0627\u0644\u0637\u0628\u064a", "name:en": "Mohamed Kamal Medical Complex", "name:ku": "Mohamed Kamal T\u0131p Kompleksi", "name:tr": "Mohamed Kamal T\u0131p Kompleksi", "opening_hours": "Mo-Su 13:00-23:00", "phone": "07725544344"}}, {"type": "node", "id": 9653364019, "lat": 34.883341, "lon": 44.6303815, "tags": {"amenity": "doctors", "name": "\u062f\u0643\u062a\u0648\u0631 \u063a\u0627\u0632\u064a \u0644\u0644\u0627\u0637\u0641\u0627\u0644"}}, {"type": "node", "id": 9653364117, "lat": 34.8834155, "lon": 44.6303741, "tags": {"amenity": "clinic", "name": "\u0645\u062c\u0645\u0639 \u0637\u0628\u064a"}}, {"type": "node", "id": 10772246705, "lat": 34.8891817, "lon": 44.6395637, "tags": {"amenity": "hospital", "name": "\u0645\u0631\u0643\u0632 \u0635\u062d\u064a \u0631\u0632\u06af\u0627\u0631\u064a", "name:ar": "\u0645\u0631\u0643\u0632 \u0635\u062d\u064a \u0631\u0632\u06af\u0627\u0631\u0649", "name:en": "Razgary hospital", "name:ku": "\u0628\u0646\u0643\u0647\u200c\u06cc \u062a\u0647\u200c\u0646\u062f\u0631\u0648\u0648\u0633\u062a\u06cc \u0695\u0632\u06af\u0627\u0631\u06cc"}}]}