{"version": 0.6, "generator": "Overpass API 0.7.61.5 4133829e", "osm3s": {"timestamp_osm_base": "2024-03-06T11:18:45Z", "copyright": "The data included in this document is from www.openstreetmap.org. The data is made available under ODbL."}, "elements": [{"type": "node", "id": 2489246708, "lat": 34.864132, "lon": 42.928364, "tags": {"alt_name": "\u0628\u064a\u0648\u062a \u062e\u0644\u064a\u0641\u0629 \u062c\u0648\u0629", "int_name": "Buy\u016bt Khal\u012bfah Juwah, \u0628\u064a\u0648\u062a \u062e\u0644\u064a\u0641\u0647 \u062c\u0648\u0647, Buyut Khalifah Juwah, \u0628\u064a\u0648\u062a \u062e\u0644\u064a\u0641\u0647 \u062c\u0648\u0647", "name": "\u0628\u064a\u0648\u062a \u062e\u0644\u064a\u0641\u0629 \u062c\u0648\u0629", "name:ar": "\u0628\u064a\u0648\u062a \u062e\u0644\u064a\u0641\u0629 \u062c\u0648\u0629", "name:ar1": "\u0628\u064a\u0648\u062a \u062e\u0644\u064a\u0641\u0629 \u062c\u0648\u0629", "name:de": "Buyut Khalifah Juwah", "name:en": "Buyut Khalifah Juwah", "name:fr": "Buyut Khalifah Juwah", "place": "village"}}, {"type": "node", "id": 2489246829, "lat": 35.031111, "lon": 42.789789, "tags": {"alt_name": "\u0623\u0628\u0648 \u0632\u0648\u064a\u0631", "int_name": "Ab\u016b Zuwayr, \u0627\u0628\u0648 \u0632\u0648\u064a\u0631, Abu Zuwayr, \u0627\u0628\u0648 \u0632\u0648\u064a\u0631", "name": "\u0623\u0628\u0648 \u0632\u0648\u064a\u0631", "name:ar": "\u0623\u0628\u0648 \u0632\u0648\u064a\u0631", "name:ar1": "\u0623\u0628\u0648 \u0632\u0648\u064a\u0631", "name:de": "Abu Zuwayr", "name:en": "Abu Zuwayr", "name:fr": "Abu Zuwayr", "place": "village"}}, {"type": "node", "id": 2489246846, "lat": 34.924607, "lon": 42.786733, "tags": {"alt_name": "\u0628\u062c\u0629", "int_name": "Bajjah, \u0628\u062c\u0651\u0647, Bajjah, \u0628\u062c\u0647", "name": "\u0628\u062c\u0629", "name:ar": "\u0628\u062c\u0629", "name:ar1": "\u0628\u062c\u0629", "name:de": "Bajjah", "name:en": "Bajjah", "name:fr": "Bajjah", "place": "village"}}, {"type": "node", "id": 2489257333, "lat": 35.152035, "lon": 42.453025, "tags": {"alt_name": "\u0639\u064a\u0646 \u0627\u0644\u0637\u0631\u0641\u0627\u0648\u064a", "int_name": "Ayn a\u0163 \u0162arf\u0101w\u012b, Ayn \u0162arf\u0101w\u012b, Ain Tarfawi, \u0639\u064a\u0646 \u0627\u0644\u0637\u0631\u0641\u0627\u0648\u064a, \u0639\u064a\u0646 \u0637\u0631\u0641\u0627\u0648\u064a, Ayn at Tarfawi, Ayn Tarfawi, Ain Tarfawi, \u0639\u064a\u0646 \u0627\u0644\u0637\u0631\u0641\u0627\u0648\u064a, \u0639\u064a\u0646 \u0637\u0631\u0641\u0627\u0648\u064a", "name": "\u0639\u064a\u0646 \u0627\u0644\u0637\u0631\u0641\u0627\u0648\u064a", "name:ar": "\u0639\u064a\u0646 \u0627\u0644\u0637\u0631\u0641\u0627\u0648\u064a", "name:ar1": "\u0639\u064a\u0646 \u0627\u0644\u0637\u0631\u0641\u0627\u0648\u064a", "name:de": "Ayn at Tarfawi", "name:en": "Ayn at Tarfawi", "name:fr": "Ayn at Tarfawi", "place": "village"}}, {"type": "node", "id": 2489257620, "lat": 34.794725, "lon": 42.713221, "tags": {"alt_name": "\u0627\u0644\u062f\u064a\u0643\u0627\u0646\u064a", "int_name": "Ad Daigani, Ad Dayk\u0101n\u012b, \u0627\u0644\u062f\u064a\u0643\u0627\u0646\u064a, Ad Daigani, Ad Daykani, \u0627\u0644\u062f\u064a\u0643\u0627\u0646\u064a", "name": "\u0627\u0644\u062f\u064a\u0643\u0627\u0646\u064a", "name:ar": "\u0627\u0644\u062f\u064a\u0643\u0627\u0646\u064a", "name:ar1": "\u0627\u0644\u062f\u064a\u0643\u0627\u0646\u064a", "name:de": "Ad Daigani", "name:en": "Ad Daigani", "name:fr": "Ad Daigani", "place": "village"}}, {"type": "node", "id": 2489257697, "lat": 34.837594, "lon": 42.756915, "tags": {"alt_name": "\u0645\u0633\u062a\u0641\u064a\u062c", "int_name": "Mastaf\u012bj, \u0645\u0633\u062a\u0641\u064a\u062c, Mastafij, \u0645\u0633\u062a\u0641\u064a\u062c", "name": "\u0645\u0633\u062a\u0641\u064a\u062c", "name:ar": "\u0645\u0633\u062a\u0641\u064a\u062c", "name:ar1": "\u0645\u0633\u062a\u0641\u064a\u062c", "name:de": "Mastafij", "name:en": "Mastafij", "name:fr": "Mastafij", "place": "village"}}, {"type": "node", "id": 2489257701, "lat": 34.850047, "lon": 42.761937, "tags": {"alt_name": "\u0645\u0633\u062a\u0641\u064a\u062c", "int_name": "Mastaf\u012bj, \u0645\u0633\u062a\u0641\u064a\u062c, Mastafij, \u0645\u0633\u062a\u0641\u064a\u062c", "name": "\u0645\u0633\u062a\u0641\u064a\u062c", "name:ar": "\u0627\u0644\u0645\u0635\u0637\u0641\u062c\u0627\u062a", "name:ar1": "\u0645\u0633\u062a\u0641\u064a\u062c", "name:de": "Mastafij", "name:en": "Mastafij", "name:fr": "Mastafij", "place": "village"}}, {"type": "node", "id": 2489257741, "lat": 35.181676, "lon": 42.919964, "tags": {"alt_name": "\u062a\u0644 \u0623\u0628\u0648 \u0639\u0631\u0628\u064a\u062f", "int_name": "Tall Ab\u016b Arb\u012bd, \u062a\u0644 \u0627\u0628\u0648 \u0639\u0631\u0628\u064a\u062f, Tall Abu Arbid, \u062a\u0644 \u0627\u0628\u0648 \u0639\u0631\u0628\u064a\u062f", "name": "\u062a\u0644 \u0623\u0628\u0648 \u0639\u0631\u0628\u064a\u062f", "name:ar": "\u062a\u0644 \u0623\u0628\u0648 \u0639\u0631\u0628\u064a\u062f", "name:ar1": "\u062a\u0644 \u0623\u0628\u0648 \u0639\u0631\u0628\u064a\u062f", "name:de": "Tall Abu Arbid", "name:en": "Tall Abu Arbid", "name:fr": "Tall Abu Arbid", "place": "village"}}, {"type": "node", "id": 2489257762, "lat": 34.7927627, "lon": 42.7132752, "tags": {"alt_name": "\u0623\u0645 \u0627\u0644\u0641\u0637\u0648\u0631", "int_name": "Umm al Fu\u0163\u016br, Umm al Futur", "name": "\u0623\u0645 \u0627\u0644\u0641\u0637\u0648\u0631", "name:ar": "\u0623\u0645 \u0627\u0644\u0637\u0648\u0633", "name:ar1": "\u0623\u0645 \u0627\u0644\u0641\u0637\u0648\u0631", "name:de": "Umm al Futur", "name:en": "Umm al tutus", "name:fr": "Umm al Futur", "place": "village"}}, {"type": "node", "id": 2489257766, "lat": 34.7642733, "lon": 42.4674571, "tags": {"alt_name": "\u0623\u0645 \u0627\u0644\u0648\u062d\u0648\u0634", "int_name": "Umm al Wa\u1e29\u016bsh, Umm al Wahush", "name": "\u0623\u0645 \u0627\u0644\u0648\u062d\u0648\u0634", "name:ar": "\u0623\u0645 \u0627\u0644\u0648\u062d\u0648\u0634", "name:ar1": "\u0623\u0645 \u0627\u0644\u0648\u062d\u0648\u0634", "name:de": "Umm al Wahush", "name:en": "Umm al Wahush", "name:fr": "Umm al Wahush", "place": "village"}}, {"type": "node", "id": 2489257771, "lat": 34.792365, "lon": 42.7130886, "tags": {"alt_name": "\u0623\u0645 \u0627\u0644\u062a\u0648\u0632", "int_name": "Umm at T\u016bz, Umm at Tuz", "name": "\u0623\u0645 \u0627\u0644\u062a\u0648\u0632", "name:ar": "\u0623\u0645 \u0627\u0644\u062a\u0648\u0632", "name:ar1": "\u0623\u0645 \u0627\u0644\u062a\u0648\u0632", "name:de": "Umm at Tuz", "name:en": "Umm at Tuz", "name:fr": "Umm at Tuz", "place": "village"}}, {"type": "node", "id": 2489257783, "lat": 34.7656161, "lon": 42.4681322, "tags": {"alt_name": "\u0627\u0645 \u0627\u0644\u0648\u062d\u0648\u0634", "int_name": "\u0627\u0645 \u0627\u0644\u0648\u062d\u0648\u0634, \u0627\u0645 \u0627\u0644\u0648\u062d\u0648\u0634", "name": "\u0627\u0645 \u0627\u0644\u0648\u062d\u0648\u0634", "name:ar": "\u0627\u0645 \u0627\u0644\u0648\u062d\u0648\u0634", "name:ar1": "\u0627\u0645 \u0627\u0644\u0648\u062d\u0648\u0634", "name:de": "\u0627\u0645 \u0627\u0644\u0648\u062d\u0648\u0634", "name:fr": "\u0627\u0645 \u0627\u0644\u0648\u062d\u0648\u0634", "place": "village"}}, {"type": "node", "id": 2489268143, "lat": 35.074129, "lon": 42.929463, "tags": {"alt_name": "\u0645\u062f\u062d\u062a \u0636\u0627\u062d\u064a", "int_name": "Mad\u1e29at \u1e10\u0101\u1e29\u012b, \u0645\u062f\u062d\u062a \u0636\u0627\u062d\u064a, Madhat Dahi, \u0645\u062f\u062d\u062a \u0636\u0627\u062d\u064a", "name": "\u0645\u062f\u062d\u062a \u0636\u0627\u062d\u064a", "name:ar": "\u0645\u062f\u062d\u062a \u0636\u0627\u062d\u064a", "name:ar1": "\u0645\u062f\u062d\u062a \u0636\u0627\u062d\u064a", "name:de": "Madhat Dahi", "name:en": "Madhat Dahi", "name:fr": "Madhat Dahi", "place": "village"}}, {"type": "node", "id": 5061000992, "lat": 34.7744728, "lon": 42.643218, "tags": {"place": "village"}}]}