{"version": 0.6, "generator": "Overpass API 0.7.61.5 4133829e", "osm3s": {"timestamp_osm_base": "2024-03-05T14:34:07Z", "copyright": "The data included in this document is from www.openstreetmap.org. The data is made available under ODbL."}, "elements": [{"type": "node", "id": 476818758, "lat": 59.7180434, "lon": 19.0708668, "tags": {"amenity": "ferry_terminal", "ferry": "yes", "name": "Kapellsk\u00e4r", "public_transport": "stop_position"}}, {"type": "node", "id": 856940233, "lat": 59.7219603, "lon": 19.0664079, "tags": {"amenity": "ferry_terminal", "name": "Kapellsk\u00e4r"}}, {"type": "node", "id": 900632087, "lat": 59.5801618, "lon": 19.0669383, "tags": {"amenity": "ferry_terminal", "ferry": "yes", "name": "Svartl\u00f6ga", "public_transport": "stop_position"}}, {"type": "node", "id": 900632509, "lat": 59.5941903, "lon": 19.1723218, "tags": {"amenity": "ferry_terminal", "ferry": "yes", "name": "R\u00f6dl\u00f6ga", "public_transport": "stop_position"}}, {"type": "node", "id": 1611299356, "lat": 59.8512417, "lon": 19.1075235, "tags": {"amenity": "ferry_terminal", "ferry": "yes", "name": "Arholma", "public_transport": "stop_position"}}, {"type": "node", "id": 1611299455, "lat": 59.8696419, "lon": 19.0773493, "tags": {"amenity": "ferry_terminal", "ferry": "yes", "name": "Simpn\u00e4s", "public_transport": "stop_position"}}, {"type": "node", "id": 1823005981, "lat": 59.7699537, "lon": 19.0790147, "tags": {"amenity": "ferry_terminal", "ferry": "yes", "name": "Lid\u00f6", "public_transport": "stop_position"}}, {"type": "node", "id": 1838142843, "lat": 59.7220288, "lon": 19.06441}, {"type": "node", "id": 1838142857, "lat": 59.7220442, "lon": 19.0640417}, {"type": "node", "id": 1873987861, "lat": 59.7522228, "lon": 19.0806961, "tags": {"amenity": "ferry_terminal", "ferry": "yes", "name": "R\u00e4fsn\u00e4s", "public_transport": "stop_position"}}, {"type": "node", "id": 1873987885, "lat": 59.7458041, "lon": 19.1118855, "tags": {"amenity": "ferry_terminal", "ferry": "yes", "name": "Tjock\u00f6 \u00c5ngb\u00e5tsbryggan", "public_transport": "stop_position"}}, {"type": "node", "id": 2220521802, "lat": 59.7214546, "lon": 19.064095}, {"type": "node", "id": 4900413558, "lat": 59.7203038, "lon": 19.0660962, "tags": {"amenity": "ferry_terminal", "name": "Kapellsk\u00e4r"}}, {"type": "node", "id": 5731939075, "lat": 59.7455712, "lon": 19.1633035, "tags": {"amenity": "ferry_terminal", "ferry": "yes", "name": "Fejan", "public_transport": "stop_position"}}, {"type": "node", "id": 5731964614, "lat": 59.7994858, "lon": 19.1151407, "tags": {"amenity": "ferry_terminal", "ferry": "yes", "name": "Id\u00f6", "public_transport": "stop_position"}}, {"type": "node", "id": 5731967897, "lat": 59.8337044, "lon": 19.077759, "tags": {"amenity": "ferry_terminal", "ferry": "yes", "name": "\u00d6stersj\u00f6", "public_transport": "stop_position"}}, {"type": "node", "id": 5833865537, "lat": 59.7232011, "lon": 19.0666917, "tags": {"amenity": "ferry_terminal", "name": "Kapellsk\u00e4r"}}, {"type": "node", "id": 8903830881, "lat": 59.7214606, "lon": 19.0644352}, {"type": "node", "id": 8903830882, "lat": 59.7214586, "lon": 19.0643175}, {"type": "node", "id": 8903830883, "lat": 59.721456, "lon": 19.0641706}, {"type": "node", "id": 8903830884, "lat": 59.7214609, "lon": 19.0644496}, {"type": "node", "id": 8903830885, "lat": 59.7220507, "lon": 19.0644085}, {"type": "node", "id": 8903830886, "lat": 59.7220407, "lon": 19.0638425}, {"type": "node", "id": 8903830887, "lat": 59.7216277, "lon": 19.0638713}, {"type": "node", "id": 8903830888, "lat": 59.7216282, "lon": 19.0639038}, {"type": "node", "id": 8903830889, "lat": 59.7214514, "lon": 19.0639161}, {"type": "node", "id": 11019518988, "lat": 59.7719845, "lon": 19.1248249, "tags": {"amenity": "ferry_terminal", "name": "Tyv\u00f6"}}, {"type": "node", "id": 11019538285, "lat": 59.745796, "lon": 19.1118812, "tags": {"amenity": "ferry_terminal", "name": "Tjock\u00f6 \u00e5ngb\u00e5tsbrygga", "public_transport": "yes"}}, {"type": "way", "id": 172983549, "nodes": [2220521802, 8903830889, 8903830888, 8903830887, 8903830886, 1838142857, 8903830885, 1838142843, 8903830884, 8903830881, 8903830882, 8903830883, 2220521802], "tags": {"addr:city": "Gr\u00e4dd\u00f6", "addr:country": "SE", "addr:housenumber": "1", "addr:postcode": "76015", "addr:street": "Kapellsk\u00e4r", "amenity": "ferry_terminal", "building": "yes", "ferry": "yes", "name": "Kapellsk\u00e4r", "public_transport": "station"}}]}