{"version": 0.6, "generator": "Overpass API 0.7.61.5 4133829e", "osm3s": {"timestamp_osm_base": "2024-03-05T13:40:56Z", "copyright": "The data included in this document is from www.openstreetmap.org. The data is made available under ODbL."}, "elements": [{"type": "node", "id": 312726837, "lat": 36.7581256, "lon": 66.8980826, "tags": {"alt_name": "Koh e Alburz", "int_name": "Balkh", "is_in:country": "Afghanistan", "name": "\u0628\u0644\u062e", "name:ar": "\u0628\u0644\u062e", "name:ckb": "\u0628\u0627\u0644\u062e", "name:cs": "Balch", "name:de": "Balch", "name:en": "Balkh", "name:es": "Balj", "name:fa": "\u0628\u0644\u062e", "name:ja": "\u30d0\u30eb\u30d5", "name:ku": "Balx", "name:ru": "\u0411\u0430\u043b\u0445", "name:tr": "Belh", "name:uz": "Balx", "place": "town", "population": "11000", "wikidata": "Q182159", "wikipedia": "es:Balj (ciudad)"}}, {"type": "node", "id": 2396275966, "lat": 36.7099311, "lon": 67.1092145, "tags": {"name": "\u0645\u0632\u0627\u0631 \u0634\u0631\u064a\u0641", "name:ar": "\u0645\u0632\u0627\u0631 \u0634\u0631\u064a\u0641", "name:az-Arab": "\u0645\u0632\u0627\u0631 \u0634\u0631\u06cc\u0641", "name:azb": "\u0645\u0632\u0627\u0631 \u0634\u0631\u06cc\u0641", "name:ba": "\u041c\u0430\u0437\u0430\u0440\u0438-\u0428\u04d9\u0440\u0438\u0444", "name:be": "\u041c\u0430\u0437\u0430\u0440\u044b-\u0428\u0430\u0440\u044b\u0444", "name:be-tarask": "\u041c\u0430\u0437\u0430\u0440\u044b-\u0428\u0430\u0440\u044b\u0444", "name:bg": "\u041c\u0430\u0437\u0430\u0440\u0438 \u0428\u0430\u0440\u0438\u0444", "name:bn": "\u09ae\u09be\u099c\u09be\u09b0-\u0987-\u09b6\u09b0\u09c0\u09ab", "name:cs": "Maz\u00e1r-e \u0160ar\u00edf", "name:cv": "\u041c\u0430\u0437\u0430\u0440\u0438-\u0428\u0430\u0440\u0438\u0444", "name:de": "Masar-e Scharif", "name:el": "\u039c\u03b1\u03b6\u03ac\u03c1\u03b9 \u03a3\u03b1\u03c1\u03af\u03c6", "name:en": "Mazar i sharif", "name:es": "Mazari Sharif", "name:et": "Maz\u0101r-e Shar\u012bf", "name:eu": "Mazar-i-Xarif", "name:fa": "\u200f\u0645\u0632\u0627\u0631 \u0634\u0631\u064a\u0641", "name:fr": "Maz\u00e2r-e Shar\u00eef", "name:hi": "\u092e\u091c\u093c\u093e\u0930-\u090f-\u0936\u0930\u0940\u092b\u093c", "name:hu": "Mazari Sharif", "name:hy": "\u0544\u0561\u0566\u0561\u0580\u056b \u0547\u0561\u0580\u056b\u0586", "name:hyw": "\u0544\u0561\u0566\u0561\u0580\u056b \u0547\u0561\u0580\u056b\u0586", "name:ja": "\u30de\u30b6\u30fc\u30ea\u30b7\u30e3\u30ea\u30fc\u30d5", "name:kk": "\u041c\u0430\u0437\u0430\u0440\u0438-\u0428\u0430\u0440\u0438\u0444", "name:kk-Arab": "\u0645\u0627\u0632\u0627\u0631\u0649\u064a-\u0634\u0627\u0631\u0649\u064a\u0641", "name:ko": "\ub9c8\uc790\ub974\uc774\uc0e4\ub9ac\ud504", "name:ks": "\u0645\u0632\u0627\u0631 \u0634\u0631\u06cc\u0641", "name:lt": "Mazari \u0160arifas", "name:ml": "\u0d2e\u0d38\u0d3e\u0d7c-\u0d07-\u0d37\u0d30\u0d40\u0d2b\u0d4d", "name:os": "\u041c\u0430\u0437\u0430\u0440\u0438-\u0428\u0430\u0440\u0438\u0444", "name:pa": "\u0a2e\u0a1c\u0a3c\u0a3e\u0a30-\u0a0f-\u0a38\u0a3c\u0a30\u0a40\u0a2b\u0a3c", "name:pnb": "\u0645\u0632\u0627\u0631 \u0634\u0631\u06cc\u0641", "name:ps": "\u0645\u0632\u0627\u0631 \u0634\u0631\u064a\u0641", "name:ru": "\u041c\u0430\u0437\u0430\u0440\u0438-\u0428\u0430\u0440\u0438\u0444", "name:sr": "\u041c\u0430\u0437\u0430\u0440\u0438 \u0428\u0430\u0440\u0438\u0444", "name:tg": "\u041c\u0430\u0437\u043e\u0440\u0438 \u0428\u0430\u0440\u0438\u0444", "name:tr": "Mezar-\u0131 \u015eerif", "name:tt": "\u041c\u0430\u0437\u0430\u0440\u044b-\u0428\u04d9\u0440\u0438\u0444", "name:uk": "\u041c\u0430\u0437\u0430\u0440\u0456-\u0428\u0430\u0440\u0456\u0444", "name:ur": "\u0645\u0632\u0627\u0631 \u0634\u0631\u06cc\u0641", "name:zh": "\u9a6c\u624e\u91cc\u6c99\u91cc\u592b/\u99ac\u624e\u91cc\u6c99\u91cc\u592b", "name:zh-Hans": "\u9a6c\u624e\u91cc\u6c99\u91cc\u592b", "name:zh-Hant": "\u99ac\u624e\u91cc\u6c99\u91cc\u592b", "place": "city", "population": "300600", "wikidata": "Q130469", "wikipedia": "ps:\u0645\u0632\u0627\u0631 \u0634\u0631\u064a\u0641", "wikipedia:ar": "\u0645\u0632\u0627\u0631 \u0634\u0631\u064a\u0641", "wikipedia:pa": "\u0a2e\u0a1c\u0a3c\u0a3e\u0a30-\u0a0f-\u0a38\u0a3c\u0a30\u0a40\u0a2b\u0a3c", "wikipedia:ur": "\u0645\u0632\u0627\u0631 \u0634\u0631\u06cc\u0641"}}, {"type": "node", "id": 2462516063, "lat": 36.6617396, "lon": 67.0040699}, {"type": "node", "id": 2462516064, "lat": 36.6749579, "lon": 67.011623}, {"type": "node", "id": 2462516065, "lat": 36.6647002, "lon": 67.0226093}, {"type": "node", "id": 2462516066, "lat": 36.6680737, "lon": 67.0221802}, {"type": "node", "id": 2462516067, "lat": 36.6748891, "lon": 67.0051857}, {"type": "node", "id": 2462516068, "lat": 36.6599013, "lon": 66.9708062}, {"type": "node", "id": 2462516069, "lat": 36.667936, "lon": 67.0109363}, {"type": "node", "id": 2462516070, "lat": 36.6684385, "lon": 67.0034219}, {"type": "node", "id": 2462516071, "lat": 36.6568717, "lon": 66.9882298}, {"type": "node", "id": 2462516072, "lat": 36.6554739, "lon": 66.9714585}, {"type": "node", "id": 2462516073, "lat": 36.6596052, "lon": 67.0037266}, {"type": "node", "id": 2462516074, "lat": 36.6523959, "lon": 66.9846249}, {"type": "node", "id": 2484932893, "lat": 36.687988, "lon": 66.8441476, "tags": {"name": "Samar Qandian", "place": "village"}}, {"type": "node", "id": 2484968267, "lat": 36.6704215, "lon": 66.926387, "tags": {"name": "Khasapaz", "place": "village"}}, {"type": "node", "id": 2484968268, "lat": 36.6787442, "lon": 66.8008081, "tags": {"alt_name": "\u0686\u0645\u062a\u0644;Ahan Qal`eh;Chimtal;Cemtal", "name": "\u0686\u0645\u062a\u0627\u0644", "name:ar": "\u062c\u0645\u062a\u0627\u0644", "name:en": "Chemtal", "name:ps": "\u0686\u0645\u062a\u0627\u0644", "name:ru": "\u0427\u0438\u043c\u0442\u0430\u043b\u044c", "place": "town", "source:name": "GNS"}}, {"type": "node", "id": 2489029123, "lat": 36.6431473, "lon": 66.9123236, "tags": {"alt_name": "Mir-Kasim;Mir Qasem;Mir Kasim", "name": "\u0645\u06cc\u0631 \u0642\u0627\u0633\u0645", "name:en": "Mir Qasim", "name:ps": "\u0645\u06cc\u0631 \u0642\u0627\u0633\u0645", "name:ru": "\u041c\u0438\u0440-\u041a\u0430\u0441\u0438\u043c", "place": "village", "source:name": "GNS"}}, {"type": "node", "id": 2489040064, "lat": 36.6460764, "lon": 66.8764654, "tags": {"name": "Sar-e Asia", "place": "village"}}, {"type": "node", "id": 3815195834, "lat": 36.5187127, "lon": 66.9665785, "tags": {"name": "Qaflan Darah", "place": "village", "source:name": "GeoNames"}}, {"type": "node", "id": 3815195835, "lat": 36.5975258, "lon": 66.9460602, "tags": {"name": "Rub\u0101\u0163-e B\u0101l\u0101", "place": "village"}}, {"type": "node", "id": 4391839110, "lat": 36.712324, "lon": 66.754981, "tags": {"alt_name": "\u0410\u0441\u0438\u0430\u0439\u0438-\u0414\u0436\u0430\u043d\u0433\u0430\u043b\u044c", "name": "\u0622\u0633\u06cc\u0627\u06cc \u062c\u0646\u06af\u0644", "name:en": "Asia-ye Jangal;Asya-ye Jangal;Asiayi-Dzhangal';Asyay-i-Jangal", "name:ps": "\u0622\u0633\u06cc\u0627\u06cc \u062c\u0646\u06af\u0644", "place": "village", "source:name": "GNS"}}, {"type": "node", "id": 4391839111, "lat": 36.7558933, "lon": 66.7208878, "tags": {"alt_name": "\u0686\u0627\u0631 \u0628\u0648\u0644\u06a9;Chahar Bulaq;Charbulak;Char Bulaq;Char Bolagh;Chahar Bulak", "name": "\u0686\u0647\u0627\u0631 \u0628\u0648\u0644\u0627\u0642", "name:ar": "\u0645\u0642\u0627\u0637\u0639\u0629 \u062c\u0647\u0627\u0631\u0628\u0648\u0644\u0627\u0642", "name:en": "Char Bulak", "name:ps": "\u0686\u0647\u0627\u0631 \u0628\u0648\u0644\u0627\u0642", "name:ru": "\u0427\u0430\u0440\u0431\u0443\u043b\u0430\u043a", "place": "town", "source:name": "GNS"}}, {"type": "node", "id": 4391839115, "lat": 36.745459, "lon": 66.728928, "tags": {"alt_name": "\u0646\u0648 \u0648\u0627\u0631\u062f;Now Warid;Dzhamguray;Jamghuray;Nauwarid", "name": "\u062c\u0645\u063a\u0648\u0631\u06cc", "name:en": "Jamghurai", "name:ps": "\u062c\u0645\u063a\u0648\u0631\u06cc", "name:ru": "\u0414\u0436\u0430\u043c\u0433\u0443\u0440\u0430\u0439", "place": "village", "source:name": "GNS"}}, {"type": "node", "id": 4391839117, "lat": 36.743231, "lon": 66.751866, "tags": {"alt_name": "\u062e\u0627\u0646 \u0622\u0628\u0627\u062f;\u062c\u0645\u063a\u0631\u06cc;Jamghurai;Jamghuray;Dzhamguray", "name": "\u062c\u0645\u063a\u0648\u0631\u06cc", "name:en": "Khanabad", "name:ps": "\u062c\u0645\u063a\u0648\u0631\u06cc", "name:ru": "\u0414\u0436\u0430\u043c\u0433\u0443\u0440\u0430\u0439", "place": "village", "source:name": "GNS"}}, {"type": "node", "id": 4391968261, "lat": 36.750799, "lon": 66.913364, "tags": {"alt_name": "Hajji Kut;Haji Kot;Khadzhikut;\u0647\u0627\u062c\u06cc \u0643\u0648\u062a;\u062d\u0627\u062c\u06cc \u06a9\u062a", "name": "\u062d\u0627\u062c\u06cc \u0643\u0648\u067c", "name:en": "Haji Kut", "name:ps": "\u062d\u0627\u062c\u06cc \u0643\u0648\u067c", "name:ru": "\u0425\u0430\u0434\u0436\u0438\u043a\u0443\u0442", "place": "village", "source:name": "GNS"}}, {"type": "node", "id": 4391968262, "lat": 36.767036, "lon": 66.913337, "tags": {"alt_name": "Khvajeh Khaleq Monjay;Khwaja Khaliq Munjai;Khodzha-Khalikmundzhay", "name": "\u062e\u0648\u0627\u062c\u0647 \u062e\u0627\u0644\u0642 \u0645\u0646\u062c\u06cc", "name:en": "Khwajah Khaliq Munjai", "name:ps": "\u062e\u0648\u0627\u062c\u0647 \u062e\u0627\u0644\u0642 \u0645\u0646\u062c\u06cc", "name:ru": "\u0425\u043e\u0434\u0436\u0430-\u0425\u0430\u043b\u0438\u043a\u043c\u0443\u043d\u0434\u0436\u0430\u0439", "place": "village", "source:name": "GNS"}}, {"type": "node", "id": 4393070275, "lat": 36.36884, "lon": 66.919335, "tags": {"alt_name": "Khwaja Iskandar (1);Khvajeh Eskandar;Khwajah Iskandar", "name": "\u062e\u0648\u0627\u062c\u0647 \u0627\u0633\u06a9\u0646\u062f\u0631", "name:en": "Khwaja Iskandar", "name:ps": "\u062e\u0648\u0627\u062c\u0647 \u0627\u0633\u06a9\u0646\u062f\u0631", "place": "village", "source:name": "GNS"}}, {"type": "node", "id": 4393070276, "lat": 36.400398, "lon": 66.925314, "tags": {"alt_name": "Posht-e Bagh;Pusht-e Bagh", "name": "\u067e\u0634\u062a \u0628\u0627\u063a", "name:en": "Pusht-i-Bagh", "name:ps": "\u067e\u0634\u062a \u0628\u0627\u063a", "place": "village", "source:name": "GNS"}}, {"type": "node", "id": 4393070277, "lat": 36.400927, "lon": 66.885078, "tags": {"alt_name": "Qarya-i-Khuday Rahm Khan;Qaryeh-e Khoda Rahm Khan;Qaryah-ye Khuday Rahm Khan", "name": "\u0642\u0631\u06cc\u06c0 \u062e\u062f\u0627\u06cc \u0631\u062d\u0645 \u062e\u0627\u0646", "name:en": "Qaryeh-ye Khoday Rahm Khan", "name:ps": "\u0642\u0631\u06cc\u06c0 \u062e\u062f\u0627\u06cc \u0631\u062d\u0645 \u062e\u0627\u0646", "place": "village", "source:name": "GNS"}}, {"type": "node", "id": 4393070278, "lat": 36.390582, "lon": 66.881133, "tags": {"alt_name": "Qurbaqqa Khana;Qurbaqah Khanah", "name": "\u0642\u0648\u0631\u0628\u0642\u0647 \u062e\u0627\u0646\u0647", "name:en": "Qurbagheh Khaneh", "name:ps": "\u0642\u0648\u0631\u0628\u0642\u0647 \u062e\u0627\u0646\u0647", "place": "village", "source:name": "GNS"}}, {"type": "node", "id": 4393070280, "lat": 36.388894, "lon": 66.921712, "tags": {"alt_name": "Siyah Au;Siyah Aw;Siah Aw", "name": "\u0633\u06cc\u0627\u0647 \u0622\u0648", "name:en": "Siah Ab", "name:ps": "\u0633\u06cc\u0627\u0647 \u0622\u0648", "place": "village", "source:name": "GNS"}}, {"type": "node", "id": 4393204210, "lat": 36.6624813, "lon": 66.9942288, "tags": {"alt_name": "\u0686\u0647\u0627\u0631 \u0633\u0631\u06a9\u0647 \u062f\u0647\u062f\u0627\u062f\u06cc;Chahar Sarakah-ye Dehdadi;Dehdadi", "name": "\u062f\u0647\u062f\u0627\u062f\u06cc", "name:ar": "\u062f\u0647\u062f\u0627\u062f\u064a", "name:en": "Dehdadi", "name:ps": "\u062f\u0647\u062f\u0627\u062f\u06cc", "name:ru": "\u0414\u0435\u0445\u0434\u0430\u0434\u0438", "place": "town", "source:name": "GNS"}}, {"type": "node", "id": 5580038947, "lat": 36.3730082, "lon": 67.1906765, "tags": {"name": "Buria Baf", "place": "village"}}, {"type": "node", "id": 6695280015, "lat": 36.7341123, "lon": 67.2196791, "tags": {"name": "\u0642\u0644\u0639\u06c0 \u06af\u0644 \u0645\u062d\u0645\u062f", "name:en": "Qal\u2018ah-ye Gul Mu\u1e29ammad", "name:ru": "\u041a\u0430\u043b\u0430\u0439\u0438-\u0413\u0443\u043b\u044c\u043c\u0443\u0445\u0430\u043c\u043c\u0435\u0434", "place": "hamlet"}}, {"type": "node", "id": 6698790178, "lat": 36.7441577, "lon": 66.9843184, "tags": {"name": "\u062f\u0647 \u0633\u0648\u0627\u0631", "name:en": "Deh Sw\u0101r", "name:ru": "\u0414\u0435\u0445\u0441\u0443\u0430\u0440", "place": "village"}}, {"type": "node", "id": 6698826743, "lat": 36.7412232, "lon": 67.0101619, "tags": {"name": "\u0628\u0627\u0628\u0627 \u0642\u0648\u0634\u0642\u0631", "name:en": "Babakushkar", "name:ru": "\u0411\u0430\u0431\u0430\u043a\u0443\u0448\u043a\u0430\u0440", "place": "village"}}, {"type": "node", "id": 6698826744, "lat": 36.7451223, "lon": 67.0238839, "tags": {"name": "\u0644\u0646\u06af\u0631 \u062e\u0627\u0646\u0647 \u062e\u0631\u062f", "name:en": "Langar Kh\u0101nah-ye Kh\u014drd", "name:ru": "\u041b\u0430\u0440\u0433\u0430\u043d\u0445\u0430\u043d\u0430-\u0425\u0443\u0440\u0434", "place": "village"}}, {"type": "node", "id": 6698826745, "lat": 36.764299, "lon": 67.0276778, "tags": {"name": "\u0644\u0646\u06af\u0631 \u062e\u0627\u0646\u06c0 \u0643\u0644\u0627\u0646", "name:en": "Langarkhana-Kalan", "name:ru": "\u041b\u0430\u043d\u0433\u0430\u0440\u0445\u0430\u043d\u0430-\u041a\u0430\u043b\u0430\u043d", "place": "village"}}, {"type": "node", "id": 6702759658, "lat": 36.6392275, "lon": 66.9158112, "tags": {"name": "\u067e\u0644 \u0627\u0645\u0627\u0645 \u0628\u06a9\u0631\u06cc", "name:en": "Pul-e Im\u0101m Bukr\u012b", "name:ru": "\u041f\u0443\u043b\u0438-\u0418\u043c\u0430\u043c\u0431\u0443\u043a\u0440\u0438", "place": "village"}}, {"type": "node", "id": 6702844096, "lat": 36.6809899, "lon": 66.7564716, "tags": {"name": "\u0622\u064a\u064a\u0646\u0647 \u0642\u0644\u0639\u0647", "name:en": "\u0100yneh Qal\u2018eh", "name:ru": "\u0410\u0439\u043d\u0430\u043a\u0430\u043b\u0430", "place": "village"}}, {"type": "node", "id": 6702844131, "lat": 36.6668284, "lon": 66.7462331, "tags": {"name": "\u0627\u0631\u0632\u06af\u0627\u0646\u06cc", "name:en": "Uruzgani", "name:ru": "\u0423\u0440\u0437\u0433\u0430\u043d\u0438", "place": "village"}}, {"type": "node", "id": 6702844132, "lat": 36.6614019, "lon": 66.7622133, "tags": {"name": "\u0622\u0633\u064a\u0627\u06cc \u0634\u0631\u0641", "name:en": "\u0100sy\u0101-ye Sharaf", "name:ru": "\u0410\u0441\u0438\u0430\u0439\u0438-\u0428\u0430\u0440\u0430\u0444", "place": "village"}}, {"type": "way", "id": 238407559, "nodes": [2462516065, 2462516063, 2462516073, 2462516071, 2462516074, 2462516072, 2462516068, 2462516070, 2462516067, 2462516064, 2462516069, 2462516066, 2462516065], "tags": {"landuse": "residential", "name": "\u062f\u0647\u062f\u0627\u062f\u06cc", "name:en": "Dehdadi", "place": "town"}}]}