{"version": 0.6, "generator": "Overpass API 0.7.61.5 4133829e", "osm3s": {"timestamp_osm_base": "2024-03-06T11:16:45Z", "copyright": "The data included in this document is from www.openstreetmap.org. The data is made available under ODbL."}, "elements": [{"type": "node", "id": 599486131, "lat": 34.6294973, "lon": 45.3158789, "tags": {"int_name": "Kalar", "name": "\u06a9\u06d5\u0644\u0627\u0631", "name:ar": "\u0643\u0644\u0627\u0631", "name:ckb": "\u06a9\u06d5\u0644\u0627\u0631", "name:en": "Kalar", "name:hi": "\u0915\u0932\u093e\u0930", "name:ku": "Kelar", "name:ml": "\u0d15\u0d32\u0d3e\u0d7c", "place": "town", "population": "250000", "source": "geonames.org", "wikidata": "Q2625872", "wikipedia": "ckb:\u06a9\u06d5\u0644\u0627\u0631"}}, {"type": "node", "id": 819610833, "lat": 34.515594, "lon": 45.5800155, "tags": {"is_in": "Kermanshah,Iran", "is_in:country": "Iran", "is_in:state": "Kermanshah", "name": "\u0642\u0635\u0631 \u0634\u06cc\u0631\u06cc\u0646", "name:ckb": "\u0642\u06d5\u0633\u0631\u06cc \u0634\u06cc\u0631\u06cc\u0646", "name:en": "Qasr-e Shirin", "name:fa": "\u0642\u0635\u0631 \u0634\u06cc\u0631\u06cc\u0646", "name:fr": "Qasr-e Chirin", "name:ku": "Qesra \u015e\u00eer\u00een", "name:ml": "\u0d16\u0d38\u0d7c-\u0d07-\u0d37\u0d3f\u0d31\u0d3f\u0d7b", "name:ru": "\u041a\u0430\u0441\u0440\u0435-\u0428\u0438\u0440\u0438\u043d", "place": "town", "population": "18473", "population:date": "2016", "source:population": "amar.org.ir", "wikidata": "Q8139321"}}, {"type": "node", "id": 831507652, "lat": 34.3893639, "lon": 45.4728744, "tags": {"name": "\u062e\u0633\u0631\u0648\u06cc", "name:ar": "\u062e\u0633\u0631\u0648\u064a", "name:en": "Khosravi", "name:fr": "Khosravi", "place": "village", "wikidata": "Q5858099", "wikipedia": "fa:\u062e\u0633\u0631\u0648\u06cc (\u0642\u0635\u0631 \u0634\u06cc\u0631\u06cc\u0646)"}}, {"type": "node", "id": 1671541862, "lat": 34.6606075, "lon": 45.2372391, "tags": {"alt_name:ckb-Latn": "Sumud", "capital": "7", "int_name": "Rizgary", "name": "\u0695\u0632\u06af\u0627\u0631\u06cc", "name:ar": "\u0631\u0632\u0643\u0627\u0631\u0649", "name:ckb": "\u0695\u0632\u06af\u0627\u0631\u0649", "name:en": "Rizgari", "name:fr": "Rizgari", "name:ku": "Rizgar\u00ee", "old_name": "\u0633\u0645\u0648\u0648\u062f", "place": "town", "wikidata": "Q61391301", "wikipedia": "ckb:\u0695\u0632\u06af\u0627\u0631\u06cc"}}, {"type": "node", "id": 2480139824, "lat": 34.3564979, "lon": 45.243375, "tags": {"alt_name": "\u0641\u0631\u062d\u0646", "int_name": "Far\u1e29an, Far\u1e29\u0101n, \u0641\u0631\u062d\u0646, Farhan, Farhan, \u0641\u0631\u062d\u0646", "name": "\u0641\u0631\u062d\u0646", "name:ar": "\u0641\u0631\u062d\u0646", "name:ar1": "\u0641\u0631\u062d\u0646", "name:de": "Farhan", "name:en": "Farhan", "name:fr": "Farhan", "place": "village"}}, {"type": "node", "id": 2480139869, "lat": 34.364896, "lon": 45.2385428, "tags": {"alt_name": "\u0634\u064a\u062e \u062c\u0627\u0633\u0645", "int_name": "Shaikh J\u0101sim, Shaykh J\u0101sim, \u0634\u064a\u062e \u062c\u0627\u0633\u0645, Shaikh Jasim, Shaykh Jasim, \u0634\u064a\u062e \u062c\u0627\u0633\u0645", "name": "\u0634\u064a\u062e \u062c\u0627\u0633\u0645", "name:ar": "\u0634\u064a\u062e \u062c\u0627\u0633\u0645", "name:ar1": "\u0634\u064a\u062e \u062c\u0627\u0633\u0645", "name:de": "Shaikh Jasim", "name:en": "Shaikh Jasim", "name:fr": "Shaikh Jasim", "place": "village"}}, {"type": "node", "id": 2488545931, "lat": 34.3682461, "lon": 45.2778816, "tags": {"alt_name": "\u0639\u0628\u062f \u0627\u0644\u062e\u0644\u0641", "int_name": "Abd al Khalaf, \u0639\u0628\u062f \u0627\u0644\u062e\u0644\u0641, Abd al Khalaf, \u0639\u0628\u062f \u0627\u0644\u062e\u0644\u0641", "name": "\u0639\u0628\u062f \u0627\u0644\u062e\u0644\u0641", "name:ar": "\u0639\u0628\u062f \u0627\u0644\u062e\u0644\u0641", "name:ar1": "\u0639\u0628\u062f \u0627\u0644\u062e\u0644\u0641", "name:de": "Abd al Khalaf", "name:en": "Abd al Khalaf", "name:fr": "Abd al Khalaf", "place": "village"}}, {"type": "node", "id": 2488545933, "lat": 34.3442357, "lon": 45.3311447, "tags": {"alt_name": "\u0623\u062d\u0645\u062f \u0628\u064a\u0643", "int_name": "A\u1e29mad Bayk, Ahmad Beg, Ahmad Bayk, Ahmad Beg", "name": "\u0623\u062d\u0645\u062f \u0628\u064a\u0643", "name:ar": "\u0623\u062d\u0645\u062f \u0628\u064a\u0643", "name:ar1": "\u0623\u062d\u0645\u062f \u0628\u064a\u0643", "name:de": "Ahmad Bayk", "name:en": "Ahmad Bayk", "name:fr": "Ahmad Bayk", "place": "village"}}, {"type": "node", "id": 2488545936, "lat": 34.3591857, "lon": 45.3381622, "tags": {"alt_name": "\u0623\u062d\u0645\u062f \u0647\u0644\u0627\u0644", "int_name": "A\u1e29mad Hil\u0101l, \u0627\u062d\u0645\u062f \u0647\u0644\u0627\u0644, Ahmad Hilal, \u0627\u062d\u0645\u062f \u0647\u0644\u0627\u0644", "name": "\u0623\u062d\u0645\u062f \u0647\u0644\u0627\u0644", "name:ar": "\u0623\u062d\u0645\u062f \u0647\u0644\u0627\u0644", "name:ar1": "\u0623\u062d\u0645\u062f \u0647\u0644\u0627\u0644", "name:de": "Ahmad Hilal", "name:en": "Ahmad Hilal", "name:fr": "Ahmad Hilal", "place": "village"}}, {"type": "node", "id": 2488545946, "lat": 34.384014, "lon": 45.363141, "tags": {"name": "\u0626\u0627\u0648\u0627\u06cc\u06cc \u062f\u0627\u0631\u0627", "name:ar": "\u0627\u0644\u062c\u0645\u0627\u0647\u064a\u0631 \u0648 \u062f\u0627\u0631\u0627 \u0645\u062d\u0645\u062f \u0639\u0644\u064a", "name:ar1": "\u0627\u0644\u062c\u0645\u0627\u0647\u064a\u0631 \u0648 \u062f\u0627\u0631\u0627 \u0645\u062d\u0645\u062f \u0639\u0644\u064a", "name:de": "Al Jamahir wa Dara Muhammad Ali", "name:en": "Al Jamahir wa Dara Muhammad Ali", "name:fr": "Al Jamahir wa Dara Muhammad Ali", "place": "village"}}, {"type": "node", "id": 2488545948, "lat": 34.3778879, "lon": 45.4576706, "tags": {"alt_name": "\u0627\u0644\u0645\u0646\u0630\u0631\u064a\u0629", "int_name": "Al Mandhar\u012byah, Munthriya, \u0627\u0644\u0645\u0646\u0630\u0631\u064a\u0629, Al Mandhariyah, Munthriya, \u0627\u0644\u0645\u0646\u0630\u0631\u064a\u0629", "is_in": "Iraq , \u062c\u0645\u0647\u0648\u0631\u064a\u0629 \u0627\u0644\u0639\u0631\u0627\u0642", "name": "\u0627\u0644\u0645\u0646\u0630\u0631\u064a\u0629", "name:ar": "\u0627\u0644\u0645\u0646\u0630\u0631\u064a\u0629", "name:ar1": "\u0627\u0644\u0645\u0646\u0630\u0631\u064a\u0629", "name:de": "Al Mandhariyah", "name:en": "Al Mandhariyah", "name:fr": "Al Mandhariyah", "place": "village"}}, {"type": "node", "id": 2488545952, "lat": 34.3883252, "lon": 45.2992082, "tags": {"alt_name": "\u0639\u0644\u064a \u0627\u0644\u0633\u0639\u062f\u0648\u0646", "int_name": "Al\u012b as Sad\u016bn, \u0639\u0644\u064a \u0627\u0644\u0633\u0639\u062f\u0648\u0646, Ali as Sadun, \u0639\u0644\u064a \u0627\u0644\u0633\u0639\u062f\u0648\u0646", "name": "\u0639\u0644\u064a \u0627\u0644\u0633\u0639\u062f\u0648\u0646", "name:ar": "\u0639\u0644\u064a \u0627\u0644\u0633\u0639\u062f\u0648\u0646", "name:ar1": "\u0639\u0644\u064a \u0627\u0644\u0633\u0639\u062f\u0648\u0646", "name:de": "Ali as Sadun", "name:en": "Ali as Sadun", "name:fr": "Ali as Sadun", "place": "village"}}, {"type": "node", "id": 2488545959, "lat": 34.351256, "lon": 45.348497, "tags": {"alt_name": "\u0639\u0644\u064a\u0627\u0648\u0629 \u0634\u0627\u0643\u0631", "int_name": "Aly\u0101wah Sh\u0101kir, \u0639\u0644\u064a\u0627\u0648\u0647 \u0634\u0627\u0643\u0631, Alyawah Shakir, \u0639\u0644\u064a\u0627\u0648\u0647 \u0634\u0627\u0643\u0631", "name": "\u0626\u0627\u0644\u06cc\u0627\u0648\u06d5 \u0634\u0627\u06a9\u0631", "name:ar": "\u0639\u0644\u064a\u0627\u0648\u0629 \u0634\u0627\u0643\u0631", "name:ar1": "\u0639\u0644\u064a\u0627\u0648\u0629 \u0634\u0627\u0643\u0631", "name:de": "Alyawah Shakir", "name:en": "Alyawah Shakir", "name:fr": "Alyawah Shakir", "place": "village"}}, {"type": "node", "id": 2488545962, "lat": 34.3944315, "lon": 45.4111876, "tags": {"int_name": "Am\u012bn B\u0101p\u012br, Amin Bapeeir", "is_in": "Iraq , \u062c\u0645\u0647\u0648\u0631\u064a\u0629 \u0627\u0644\u0639\u0631\u0627\u0642", "name": "\u0626\u06d5\u0645\u06cc\u0646 \u0628\u0627\u067e\u06cc\u0631", "name:ar": "\u0623\u0645\u064a\u0646 \u0628\u0627\u0628\u064a\u0631", "name:de": "Amin Babir", "name:en": "Amin Bapeer", "name:fr": "Amin Bapeer", "place": "village"}}, {"type": "node", "id": 2488545972, "lat": 34.331637, "lon": 45.343375, "tags": {"alt_name": "\u0627\u0644\u062a\u0641\u0631\u0642\u0629", "int_name": "At Tafriqah, \u0627\u0644\u062a\u0641\u0631\u0642\u0629, At Tafriqah, \u0627\u0644\u062a\u0641\u0631\u0642\u0629", "name": "\u0627\u0644\u062a\u0641\u0631\u0642\u0629", "name:ar": "\u0627\u0644\u062a\u0641\u0631\u0642\u0629", "name:ar1": "\u0627\u0644\u062a\u0641\u0631\u0642\u0629", "name:de": "At Tafriqah", "name:en": "At Tafriqah", "name:fr": "At Tafriqah", "place": "village"}}, {"type": "node", "id": 2488545977, "lat": 34.3725541, "lon": 45.3650212, "tags": {"alt_name": "\u0627\u0644\u0637\u0644\u064a\u0639\u0629", "int_name": "A\u0163 \u0162al\u012bah, At Taliah", "name": "\u0627\u0644\u0637\u0644\u064a\u0639\u0629", "name:ar": "\u0627\u0644\u0637\u0644\u064a\u0639\u0629", "name:ar1": "\u0627\u0644\u0637\u0644\u064a\u0639\u0629", "name:de": "At Taliah", "name:en": "At Taliah", "name:fr": "At Taliah", "place": "village"}}, {"type": "node", "id": 2488545985, "lat": 34.3476053, "lon": 45.289543, "tags": {"name": "\u0628\u06ce\u062a\u0627\u0648\u06cc", "name:ar": "\u0628\u064a\u062a\u0627\u0648\u064a", "name:en": "Betawi", "place": "village"}}, {"type": "node", "id": 2488545992, "lat": 34.363613, "lon": 45.377635, "tags": {"name": "\u0628\u0627\u06b5\u0627\u062c\u06c6", "name:ar": "\u0639\u0644\u064a \u0645\u0631\u0627\u062f", "name:ar1": "\u0628\u0644\u0627\u062c\u0648", "name:de": "Balaju", "name:en": "Balaju", "name:fr": "Balaju", "place": "village"}}, {"type": "node", "id": 2488545997, "lat": 34.4, "lon": 45.333333, "tags": {"alt_name": "\u0628\u0642\u0629", "int_name": "Baqa, Baqa", "name": "\u0628\u0642\u0629", "name:ar": "\u0628\u0642\u0629", "name:ar1": "\u0628\u0642\u0629", "name:de": "Baqa", "name:en": "Baqa", "name:fr": "Baqa", "place": "village"}}, {"type": "node", "id": 2488546000, "lat": 34.4118619, "lon": 45.4120654, "tags": {"alt_name": "\u0628\u0627\u0648\u0627 \u0625\u0633\u0645\u0627\u0639\u064a\u0644", "int_name": "B\u0101w\u0101 Ism\u0101\u012bl, \u0628\u0627\u0648\u0627 \u0627\u0633\u0645\u0627\u0639\u064a\u0644, Bawa Ismail, \u0628\u0627\u0648\u0627 \u0627\u0633\u0645\u0627\u0639\u064a\u0644", "is_in": "Iraq , \u062c\u0645\u0647\u0648\u0631\u064a\u0629 \u0627\u0644\u0639\u0631\u0627\u0642", "name": "\u0628\u0627\u0648\u06d5 \u0633\u0645\u0627\u06cc\u0644", "name:ar": "\u0628\u0627\u0648\u0627 \u0625\u0633\u0645\u0627\u0639\u064a\u0644", "name:ar1": "\u0628\u0627\u0648\u0627 \u0625\u0633\u0645\u0627\u0639\u064a\u0644", "name:de": "Bawa Ismail", "name:en": "Bawa Ismail", "name:fr": "Bawa Ismail", "place": "village"}}, {"type": "node", "id": 2488546008, "lat": 34.39665, "lon": 45.309301, "tags": {"alt_name": "\u062f\u0631\u0648\u064a\u0634 \u0645\u062d\u0645\u062f \u0639\u0644\u064a", "int_name": "Darw\u012bsh Mu\u1e29ammad Al\u012b, \u062f\u0631\u0648\u064a\u0634 \u0645\u062d\u0645\u062f \u0639\u0644\u064a, Darwish Muhammad Ali, \u062f\u0631\u0648\u064a\u0634 \u0645\u062d\u0645\u062f \u0639\u0644\u064a", "name": "\u062f\u0631\u0648\u064a\u0634 \u0645\u062d\u0645\u062f \u0639\u0644\u064a", "name:ar": "\u062f\u0631\u0648\u064a\u0634 \u0645\u062d\u0645\u062f \u0639\u0644\u064a", "name:ar1": "\u062f\u0631\u0648\u064a\u0634 \u0645\u062d\u0645\u062f \u0639\u0644\u064a", "name:de": "Darwish Muhammad Ali", "name:en": "Darwish Muhammad Ali", "name:fr": "Darwish Muhammad Ali", "place": "village"}}, {"type": "node", "id": 2488546013, "lat": 34.401466, "lon": 45.376696, "tags": {"alt_name": "\u0639\u0627\u062f\u0648", "int_name": "\u0101d\u016b, \u0639\u0627\u062f\u0648, adu, \u0639\u0627\u062f\u0648", "name": "\u0639\u0627\u062f\u0648", "name:ar": "\u0639\u0627\u062f\u0648", "name:ar1": "\u0639\u0627\u062f\u0648", "name:de": "adu", "name:en": "adu", "name:fr": "adu", "place": "village"}}, {"type": "node", "id": 2488546018, "lat": 34.3594477, "lon": 45.3379981, "tags": {"alt_name": "\u062d\u0645\u064a\u062f \u062d\u0627\u062c \u0633\u0627\u0644\u0645", "int_name": "\u1e28am\u012bd \u1e28\u0101jj S\u0101l\u012bm, \u062d\u0645\u064a\u062f \u062d\u0627\u062c \u0633\u0627\u0644\u0645, Hamid Hajj Salim, \u062d\u0645\u064a\u062f \u062d\u0627\u062c \u0633\u0627\u0644\u0645", "name": "\u062d\u0645\u064a\u062f \u062d\u0627\u062c \u0633\u0627\u0644\u0645", "name:ar": "\u062d\u0645\u064a\u062f \u062d\u0627\u062c \u0633\u0627\u0644\u0645", "name:ar1": "\u062d\u0645\u064a\u062f \u062d\u0627\u062c \u0633\u0627\u0644\u0645", "name:de": "Hamid Hajj Salim", "name:en": "Hamid Hajj Salim", "name:fr": "Hamid Hajj Salim", "place": "village"}}, {"type": "node", "id": 2488546021, "lat": 34.3438645, "lon": 45.3015238, "tags": {"name": "\u062d\u0648\u0633\u06ce\u0646 \u0628\u06d5\u06af", "name:ar": "\u062d\u0633\u064a\u0646 \u0628\u064a\u0643", "name:en": "Husayn Bagg", "place": "village"}}, {"type": "node", "id": 2488546042, "lat": 34.333722, "lon": 45.320685, "tags": {"alt_name": "\u0625\u0645\u0627\u0645 \u0633\u0644\u0637\u0627\u0646", "int_name": "Im\u0101m Sul\u0163\u0101n, \u0627\u0645\u0627\u0645 \u0633\u0644\u0637\u0627\u0646, Imam Sultan, \u0627\u0645\u0627\u0645 \u0633\u0644\u0637\u0627\u0646", "name": "\u0625\u0645\u0627\u0645 \u0633\u0644\u0637\u0627\u0646", "name:ar": "\u0625\u0645\u0627\u0645 \u0633\u0644\u0637\u0627\u0646", "name:ar1": "\u0625\u0645\u0627\u0645 \u0633\u0644\u0637\u0627\u0646", "name:de": "Imam Sultan", "name:en": "Imam Sultan", "name:fr": "Imam Sultan", "place": "village"}}, {"type": "node", "id": 2488546043, "lat": 34.382244, "lon": 45.25595, "tags": {"alt_name": "\u0625\u0633\u0645\u0627\u0639\u064a\u0644 \u062d\u0633\u0646", "int_name": "Ism\u0101\u012bl \u1e28asan, \u0627\u0633\u0645\u0627\u0639\u064a\u0644 \u062d\u0633\u0646, Ismail Hasan, \u0627\u0633\u0645\u0627\u0639\u064a\u0644 \u062d\u0633\u0646", "name": "\u0625\u0633\u0645\u0627\u0639\u064a\u0644 \u062d\u0633\u0646", "name:ar": "\u0625\u0633\u0645\u0627\u0639\u064a\u0644 \u062d\u0633\u0646", "name:ar1": "\u0625\u0633\u0645\u0627\u0639\u064a\u0644 \u062d\u0633\u0646", "name:de": "Ismail Hasan", "name:en": "Ismail Hasan", "name:fr": "Ismail Hasan", "place": "village"}}, {"type": "node", "id": 2488546044, "lat": 34.393056, "lon": 45.272359, "tags": {"alt_name": "\u0625\u0633\u0645\u0627\u0639\u064a\u0644 \u062d\u0633\u0646", "int_name": "Ism\u0101\u012bl \u1e28asan, \u0627\u0633\u0645\u0627\u0639\u064a\u0644 \u062d\u0633\u0646, Ismail Hasan, \u0627\u0633\u0645\u0627\u0639\u064a\u0644 \u062d\u0633\u0646", "name": "\u0625\u0633\u0645\u0627\u0639\u064a\u0644 \u062d\u0633\u0646", "name:ar": "\u0625\u0633\u0645\u0627\u0639\u064a\u0644 \u062d\u0633\u0646", "name:ar1": "\u0625\u0633\u0645\u0627\u0639\u064a\u0644 \u062d\u0633\u0646", "name:de": "Ismail Hasan", "name:en": "Ismail Hasan", "name:fr": "Ismail Hasan", "place": "village"}}, {"type": "node", "id": 2488546050, "lat": 34.344092, "lon": 45.3308745, "tags": {"alt_name": "\u0628\u064a\u062a\u0627\u0648\u064a", "int_name": "Jigarl\u016b, Jigarlu", "name": "\u0628\u064a\u062a\u0627\u0648\u064a", "name:ar": "\u0628\u064a\u062a\u0627\u0648\u064a", "name:ar1": "\u0628\u064a\u062a\u0627\u0648\u064a", "name:de": "Jigarlu", "name:en": "Jigarlu", "name:fr": "Jigarlu", "place": "village"}}, {"type": "node", "id": 2488546063, "lat": 34.3326512, "lon": 45.3804601, "tags": {"alt_name": "\u0643\u0647\u0631\u064a\u0632 \u0627\u0644\u0639\u0644\u064a\u0627", "int_name": "Kahr\u012bz al Uly\u0101, \u0643\u0647\u0631\u064a\u0632 \u0627\u0644\u0639\u0644\u064a\u0627, Kahriz al Ulya, \u0643\u0647\u0631\u064a\u0632 \u0627\u0644\u0639\u0644\u064a\u0627", "name": "\u06a9\u0627\u0631\u06ce\u0632 \u062e\u0648\u0627\u0631", "name:ar": "\u0643\u0647\u0631\u064a\u0632  \u0633\u0641\u0644\u0649", "name:ar1": "\u0643\u0647\u0631\u064a\u0632 \u0627\u0644\u0639\u0644\u064a\u0627", "name:de": "Kahriz al Ulya", "name:en": "Kahriz al Ulya", "name:fr": "Kahriz al Ulya", "place": "village"}}, {"type": "node", "id": 2488546069, "lat": 34.3475129, "lon": 45.3919154, "tags": {"capital": "6", "int_name": "Kanaqin, Khanaqeen, Kh\u0101naq\u012bn, Khanikin, Khaniqin, \u062e\u0627\u0646\u0642\u064a\u0646, Khanaqeen, Khanaqin, Khanikin, \u062e\u0627\u0646\u06d5\u0642\u06cc\u0646", "name": "\u062e\u0627\u0646\u0642\u064a\u0646", "name:ar": "\u062e\u0627\u0646\u0642\u064a\u0646", "name:ckb": "\u062e\u0627\u0646\u06d5\u0642\u06cc\u0646", "name:de": "Kanaqin", "name:en": "Kanaqin", "name:fr": "Kanaqin", "name:ku": "Xaneq\u00een", "name:ml": "\u0d15\u0d28\u0d3e\u0d16\u0d3f\u0d7b", "name:pl": "Chanakin", "name:ru": "\u0425\u0430\u043d\u0430\u043a\u0438\u043d", "name:tr": "Hanekin", "place": "town", "wikidata": "Q1004283", "wikipedia": "ar:\u062e\u0627\u0646\u0642\u064a\u0646"}}, {"type": "node", "id": 2488546071, "lat": 34.384789, "lon": 45.290174, "tags": {"alt_name": "\u0643\u0631\u064a\u0645 \u0633\u062f\u0627\u062f", "int_name": "Kar\u012bm Sad\u0101d, \u0643\u0631\u064a\u0645 \u0633\u062f\u0627\u062f, Karim Sadad, \u0643\u0631\u064a\u0645 \u0633\u062f\u0627\u062f", "name": "\u0643\u0631\u064a\u0645 \u0633\u062f\u0627\u062f", "name:ar": "\u0643\u0631\u064a\u0645 \u0633\u062f\u0627\u062f", "name:ar1": "\u0643\u0631\u064a\u0645 \u0633\u062f\u0627\u062f", "name:de": "Karim Sadad", "name:en": "Karim Sadad", "name:fr": "Karim Sadad", "place": "village"}}, {"type": "node", "id": 2488546074, "lat": 34.3624003, "lon": 45.3486708, "tags": {"alt_name": "\u062e\u0644\u064a\u0644 \u0639\u064a\u0646\u0629", "int_name": "Khal\u012bl Aina, Khal\u012bl Aynah, Khalil Aina, Khalil Aynah", "name": "\u062e\u0644\u064a\u0644 \u0639\u064a\u0646\u0629", "name:ar": "\u062e\u0644\u064a\u0644 \u0639\u064a\u0646\u0629", "name:ar1": "\u062e\u0644\u064a\u0644 \u0639\u064a\u0646\u0629", "name:de": "Khalil Aina", "name:en": "Khalil Aina", "name:fr": "Khalil Aina", "place": "village"}}, {"type": "node", "id": 2488546091, "lat": 34.3334313, "lon": 45.4978657, "tags": {"alt_name": "\u06a9\u0644\u06cc \u06cc\u0647\u0648\u062f\u06cc", "int_name": "Kull\u012b Yah\u016bd\u012b, \u0643\u0644\u064a \u064a\u0647\u0648\u062f\u064a, Kulli Yahudi, \u0643\u0644\u064a \u064a\u0647\u0648\u062f\u064a", "is_in": "Iraq , \u062c\u0645\u0647\u0648\u0631\u064a\u0629 \u0627\u0644\u0639\u0631\u0627\u0642", "name": "\u06a9\u06d5\u0644\u06cc \u06cc\u06d5\u0647\u0648\u0648\u062f\u06cc", "name:ar": "\u0643\u0644\u064a \u064a\u0647\u0648\u062f\u064a", "name:ar1": "\u0643\u0644\u064a \u064a\u0647\u0648\u062f\u064a", "name:de": "Kulli Yahudi", "name:en": "Kulli Yahudi", "name:fr": "Kulli Yahudi", "place": "village"}}, {"type": "node", "id": 2488546105, "lat": 34.399866, "lon": 45.348376, "tags": {"alt_name": "\u0645\u064a\u062e\u0627\u0633 \u0639\u0644\u064a \u062e\u0627\u0646", "int_name": "Maikhas, Maykh\u0101s, Maykh\u0101s Al\u012b Kh\u0101n, M\u0113khas, \u0645\u064a\u062e\u0627\u0633 \u0639\u0644\u064a \u062e\u0627\u0646, Maikhas, Maykhas, Maykhas Ali Khan, Mekhas, \u0645\u064a\u062e\u0627\u0633 \u0639\u0644\u064a \u062e\u0627\u0646", "name": "\u0626\u0627\u0644\u06cc \u062e\u0627\u0646", "name:ar": "\u0645\u064a\u062e\u0627\u0633 \u0639\u0644\u064a \u062e\u0627\u0646", "name:ar1": "\u0645\u064a\u062e\u0627\u0633 \u0639\u0644\u064a \u062e\u0627\u0646", "name:de": "Maikhas", "name:en": "Maikhas", "name:fr": "Maikhas", "place": "village"}}, {"type": "node", "id": 2488546116, "lat": 34.3452, "lon": 45.3672608, "tags": {"alt_name": "\u0645\u0627\u0644\u0643 \u0634\u0627\u0647", "int_name": "Malak Sh\u0101h, Malaksh\u0101hi, M\u0101lik Sh\u0101h, \u0645\u0627\u0644\u0643 \u0634\u0627\u0647, Malak Shah, Malakshahi, Malik Shah, \u0645\u0627\u0644\u0643 \u0634\u0627\u0647", "name": "\u0645\u06d5\u0644\u06d5\u06a9 \u0634\u0627", "name:ar": "\u0645\u0627\u0644\u0643 \u0634\u0627\u0647", "name:ar1": "\u0645\u0627\u0644\u0643 \u0634\u0627\u0647", "name:de": "Malak Shah", "name:en": "Malak Shah", "name:fr": "Malak Shah", "place": "village"}}, {"type": "node", "id": 2488546117, "lat": 34.3679389, "lon": 45.3043698, "tags": {"alt_name": "\u0645\u0631\u062f\u0627\u0646 \u0642\u0627\u0633\u0645", "int_name": "Mard\u0101n Q\u0101sim, \u0645\u0631\u062f\u0627\u0646 \u0642\u0627\u0633\u0645, Mardan Qasim, \u0645\u0631\u062f\u0627\u0646 \u0642\u0627\u0633\u0645", "name": "\u0645\u06d5\u0631\u062f\u0627\u0646 \u0642\u0627\u0633\u0645", "name:ar": "\u0645\u0631\u062f\u0627\u0646 \u0642\u0627\u0633\u0645", "name:ar1": "\u0645\u0631\u062f\u0627\u0646 \u0642\u0627\u0633\u0645", "name:de": "Mardan Qasim", "name:en": "Mardan Qasim", "name:fr": "Mardan Qasim", "place": "village"}}, {"type": "node", "id": 2488546130, "lat": 34.379726, "lon": 45.3298196, "tags": {"alt_name": "\u0645\u062d\u0645\u062f \u0627\u0644\u0639\u0628\u0627\u0633 \u0639\u0644\u064a", "int_name": "Mu\u1e29ammad al Abb\u0101s Al\u012b, \u0645\u062d\u0645\u062f \u0627\u0644\u0639\u0628\u0627\u0633 \u0639\u0644\u064a, Muhammad al Abbas Ali, \u0645\u062d\u0645\u062f \u0627\u0644\u0639\u0628\u0627\u0633 \u0639\u0644\u064a", "name": "\u0645\u062d\u0645\u062f \u0627\u0644\u0639\u0628\u0627\u0633 \u0639\u0644\u064a", "name:ar": "\u0645\u062d\u0645\u062f \u0627\u0644\u0639\u0628\u0627\u0633 \u0639\u0644\u064a", "name:ar1": "\u0645\u062d\u0645\u062f \u0627\u0644\u0639\u0628\u0627\u0633 \u0639\u0644\u064a", "name:de": "Muhammad al Abbas Ali", "name:en": "Muhammad al Abbas Ali", "name:fr": "Muhammad al Abbas Ali", "place": "village"}}, {"type": "node", "id": 2488546211, "lat": 34.361187, "lon": 45.4403791, "tags": {"name": "\u0642\u0627\u0634\u0644\u0627\u0646", "name:ar": "\u0642\u0627\u0645\u0634\u0644\u0627\u0646", "name:en": "Qamishlan", "place": "village"}}, {"type": "node", "id": 2488546238, "lat": 34.391937, "lon": 45.306477, "tags": {"name": "\u0634\u06ce\u062e \u0695\u06d5\u062d\u06cc\u0645", "name:ar": "\u0642\u0631\u064a\u0629 \u0634\u064a\u062e \u0631\u062d\u064a\u0645", "name:ar1": "\u0642\u0631\u064a\u0629 \u0634\u064a\u062e \u0631\u062d\u064a\u0645", "name:de": "Qaryat Shaykh Rahim", "name:en": "Qaryat Shaykh Rahim", "name:fr": "Qaryat Shaykh Rahim", "place": "village"}}, {"type": "node", "id": 2488546245, "lat": 34.4117322, "lon": 45.3200247, "tags": {"name": "\u0628\u0627\u0648\u06d5 \u067e\u06b5\u0627\u0648\u06cc", "place": "village"}}, {"type": "node", "id": 2488546252, "lat": 34.3669358, "lon": 45.2814148, "tags": {"name": "\u0695\u06d5\u0647\u0645\u06d5\u06b5\u06d5", "name:en": "Rahamla", "place": "village"}}, {"type": "node", "id": 2488546255, "lat": 34.357434, "lon": 45.310565, "tags": {"name": "\u0631\u0645\u0636\u0627\u0646 \u0639\u0628\u062f\u0627\u0644\u0644\u0647 \u0641\u062a\u0627\u062d", "place": "village"}}, {"type": "node", "id": 2488546259, "lat": 34.361662, "lon": 45.348941, "tags": {"alt_name": "\u0635\u0627\u0644\u062d \u0633\u0644\u0645\u0627\u0646", "int_name": "\u015e\u0101li\u1e29 Salm\u0101n, \u0635\u0627\u0644\u062d \u0633\u0644\u0645\u0627\u0646, Salih Salman, \u0635\u0627\u0644\u062d \u0633\u0644\u0645\u0627\u0646", "name": "\u0635\u0627\u0644\u062d \u0633\u0644\u0645\u0627\u0646", "name:ar": "\u0635\u0627\u0644\u062d \u0633\u0644\u0645\u0627\u0646", "name:ar1": "\u0635\u0627\u0644\u062d \u0633\u0644\u0645\u0627\u0646", "name:de": "Salih Salman", "name:en": "Salih Salman", "name:fr": "Salih Salman", "place": "village"}}, {"type": "node", "id": 2488546261, "lat": 34.3538985, "lon": 45.3468, "tags": {"alt_name": "\u0633\u0627\u0644\u064a\u0645 \u0628\u0627\u062c\u0644\u0627\u0646", "int_name": "S\u0101l\u012bm B\u0101jal\u0101n, Salim Bajalan", "name": "\u0633\u06d5\u0644\u06cc\u0645 \u0628\u0627\u062c\u06d5\u06b5\u0627\u0646", "name:ar": "\u0633\u0627\u0644\u064a\u0645 \u0628\u0627\u062c\u0644\u0627\u0646", "name:ar1": "\u0633\u0627\u0644\u064a\u0645 \u0628\u0627\u062c\u0644\u0627\u0646", "name:de": "Salim Bajalan", "name:en": "Salim Bajalan", "name:fr": "Salim Bajalan", "place": "village"}}, {"type": "node", "id": 2488546265, "lat": 34.3584597, "lon": 45.4440263, "tags": {"name": "\u0634\u0627 \u0628\u0632\u0631\u06af", "name:ar": "\u0634\u0627\u0647 \u0628\u0632\u0631\u0643", "name:en": "Shabuzurg", "place": "village"}}, {"type": "node", "id": 2488546268, "lat": 34.3484684, "lon": 45.2875736, "tags": {"name": "\u0634\u0641\u064a\u0642 \u0639\u0632\u064a\u0632 \u0622\u063a\u0627", "name:en": "Shafiq Aziz Agha", "place": "village"}}, {"type": "node", "id": 2488546273, "lat": 34.359748, "lon": 45.3383005, "tags": {"alt_name": "\u0633\u0644\u064a\u0645\u0627\u0646 \u0628\u064a\u0643", "int_name": "Sulaiman Beg, Sulaym\u0101n Bak, Sulaym\u0101n Bey, Sulaiman Beg, Sulayman Bak, Sulayman Bey", "name": "\u0633\u0644\u064a\u0645\u0627\u0646 \u0628\u064a\u0643", "name:ar": "\u0633\u0644\u064a\u0645\u0627\u0646 \u0628\u064a\u0643", "name:ar1": "\u0633\u0644\u064a\u0645\u0627\u0646 \u0628\u064a\u0643", "name:de": "Sulaiman Beg", "name:en": "Sulaiman Beg", "name:fr": "Sulaiman Beg", "place": "village"}}, {"type": "node", "id": 2488546276, "lat": 34.387338, "lon": 45.2571694, "tags": {"alt_name": "\u0637\u0627\u0647\u0627 \u064a\u0627\u0633\u064a\u0646", "int_name": "\u0162\u0101h\u0101 Y\u0101s\u012bn, Taha Yasin", "name": "\u0637\u0627\u0647\u0627 \u064a\u0627\u0633\u064a\u0646", "name:ar": "\u0637\u0627\u0647\u0627 \u064a\u0627\u0633\u064a\u0646", "name:ar1": "\u0637\u0627\u0647\u0627 \u064a\u0627\u0633\u064a\u0646", "name:de": "Taha Yasin", "name:en": "Taha Yasin", "name:fr": "Taha Yasin", "place": "village"}}, {"type": "node", "id": 2488546287, "lat": 34.358191, "lon": 45.375808, "tags": {"name": "\u062a\u06c6\u06b5\u06d5 \u0641\u0631\u06c6\u0634", "name:ar": "\u062a\u0648\u0644 \u0641\u0631\u0648\u0633", "name:ar1": "\u062a\u0648\u0644 \u0641\u0631\u0648\u0633", "name:de": "Tolafarush", "name:en": "Tolafarush", "name:fr": "Tolafarush", "place": "village"}}, {"type": "node", "id": 2488546289, "lat": 34.3722165, "lon": 45.3642227, "tags": {"alt_name": "\u0639\u0645\u0631 \u0643\u0648\u0627\u0632\u064a", "int_name": "Umar Ku\u0101zi, Umar Kuazi", "name": "\u0639\u0645\u0631 \u0643\u0648\u0627\u0632\u064a", "name:ar": "\u0639\u0645\u0631 \u0643\u0648\u0627\u0632\u064a", "name:ar1": "\u0639\u0645\u0631 \u0643\u0648\u0627\u0632\u064a", "name:de": "Umar Kuazi", "name:en": "Umar Kuazi", "name:fr": "Umar Kuazi", "place": "village"}}, {"type": "node", "id": 2488546300, "lat": 34.3730486, "lon": 45.3650411, "tags": {"alt_name": "\u0627\u0644\u0637\u0644\u064a\u0639\u0647", "int_name": "\u0627\u0644\u0637\u0644\u064a\u0639\u0647, \u0627\u0644\u0637\u0644\u064a\u0639\u0647", "name": "\u0627\u0644\u0637\u0644\u064a\u0639\u0647", "name:ar": "\u0627\u0644\u0637\u0644\u064a\u0639\u0647", "name:ar1": "\u0627\u0644\u0637\u0644\u064a\u0639\u0647", "place": "village"}}, {"type": "node", "id": 2488546310, "lat": 34.3883305, "lon": 45.2572313, "tags": {"alt_name": "\u0637\u0647 \u064a\u0627\u0633\u064a\u0646", "int_name": "\u0637\u0647 \u064a\u0627\u0633\u064a\u0646, \u0637\u0647 \u064a\u0627\u0633\u064a\u0646", "name": "\u0637\u0647 \u064a\u0627\u0633\u064a\u0646", "name:ar": "\u0637\u0647 \u064a\u0627\u0633\u064a\u0646", "name:ar1": "\u0637\u0647 \u064a\u0627\u0633\u064a\u0646", "name:de": "\u0637\u0647 \u064a\u0627\u0633\u064a\u0646", "name:en": "\u0637\u0647 \u064a\u0627\u0633\u064a\u0646", "name:fr": "\u0637\u0647 \u064a\u0627\u0633\u064a\u0646", "place": "village"}}, {"type": "node", "id": 2488546318, "lat": 34.3944297, "lon": 45.3560873, "tags": {"name": "\u0645\u06d5\u0644\u0627 \u0695\u06d5\u062d\u0645\u0627\u0646", "name:ar": "\u062c\u062f\u064a\u062f\u0629", "name:ar1": "\u0645\u0644\u0627 \u0631\u062d\u0645\u0646", "name:de": "\u0645\u0644\u0627 \u0631\u062d\u0645\u0646", "name:fr": "\u0645\u0644\u0627 \u0631\u062d\u0645\u0646", "place": "village"}}, {"type": "node", "id": 2488623906, "lat": 34.5197727, "lon": 45.1563281, "tags": {"name": "\u0626\u0627\u0648\u0628\u0627\u0631\u06d5", "name:ar": "\u0623\u0648\u0628\u0627\u0631\u0629", "name:en": "Aubara", "place": "village", "wikidata": "Q61391897", "wikipedia": "ckb:\u0626\u0627\u0648\u0628\u0627\u0631\u06d5\u060c \u06a9\u06c6\u06a9\u0633"}}, {"type": "node", "id": 2488623907, "lat": 34.409043, "lon": 45.164461, "tags": {"alt_name": "\u0623\u0628\u0648 \u0627\u0644\u062d\u0648\u0627\u064a\u062c", "int_name": "Ab\u016b al \u1e28aw\u0101yij, \u0627\u0628\u0648 \u0627\u0644\u062d\u0648\u0627\u064a\u062c, Abu al Hawayij, \u0627\u0628\u0648 \u0627\u0644\u062d\u0648\u0627\u064a\u062c", "name": "\u0623\u0628\u0648 \u0627\u0644\u062d\u0648\u0627\u064a\u062c", "name:ar": "\u0623\u0628\u0648 \u0627\u0644\u062d\u0648\u0627\u064a\u062c", "name:ar1": "\u0623\u0628\u0648 \u0627\u0644\u062d\u0648\u0627\u064a\u062c", "name:de": "Abu al Hawayij", "name:en": "Abu al Hawayij", "name:fr": "Abu al Hawayij", "place": "village"}}, {"type": "node", "id": 2488623910, "lat": 34.422163, "lon": 45.095792, "tags": {"alt_name": "\u0627\u0644\u0628\u0643\u0627\u0644\u0629", "int_name": "Al Bag\u0101lah, \u0627\u0644\u0628\u06af\u0627\u0644\u0629, Al Bagalah, \u0627\u0644\u0628\u06af\u0627\u0644\u0629", "name": "\u0627\u0644\u0628\u0643\u0627\u0644\u0629", "name:ar": "\u0627\u0644\u0628\u0643\u0627\u0644\u0629", "name:ar1": "\u0627\u0644\u0628\u0643\u0627\u0644\u0629", "name:de": "Al Bagalah", "name:en": "Al Bagalah", "name:fr": "Al Bagalah", "place": "village"}}, {"type": "node", "id": 2488623911, "lat": 34.438137, "lon": 45.145525, "tags": {"alt_name": "\u0627\u0644\u0642\u0644\u0639\u0629", "int_name": "Al Qalah, Qala, Qalah, \u0627\u0644\u0642\u0644\u0639\u0647, Al Qalah, Qala, Qalah, \u0627\u0644\u0642\u0644\u0639\u0647", "name": "\u0642\u06d5\u06b5\u0627", "name:ar": "\u0627\u0644\u0642\u0644\u0639\u0629", "name:ckb": "\u0642\u06d5\u06b5\u0627", "name:de": "Al Qalah", "name:en": "Al Qalah", "name:fr": "Al Qalah", "place": "village"}}, {"type": "node", "id": 2488623912, "lat": 34.40636, "lon": 45.149462, "tags": {"alt_name": "\u0627\u0644\u0642\u0631\u064a\u0629 \u0627\u0644\u0645\u062c\u0645\u0639\u0629", "int_name": "Al Qaryah al Mujammaah, \u0627\u0644\u0642\u0631\u064a\u0629 \u0627\u0644\u0645\u062c\u0645\u0639\u0629, Al Qaryah al Mujammaah, \u0627\u0644\u0642\u0631\u064a\u0629 \u0627\u0644\u0645\u062c\u0645\u0639\u0629", "name": "\u0627\u0644\u0642\u0631\u064a\u0629 \u0627\u0644\u0645\u062c\u0645\u0639\u0629", "name:ar": "\u0627\u0644\u0639\u0635\u0631\u064a\u0647", "name:ar1": "\u0627\u0644\u0642\u0631\u064a\u0629 \u0627\u0644\u0645\u062c\u0645\u0639\u0629", "name:de": "Al Qaryah al Mujammaah", "name:en": "Al Qaryah al Mujammaah", "name:fr": "Al Qaryah al Mujammaah", "place": "village"}}, {"type": "node", "id": 2488623913, "lat": 34.415098, "lon": 45.107744, "tags": {"alt_name": "\u0639\u0644\u0648\u0634", "int_name": "All\u016bsh, Alwash, \u0639\u0644\u0648\u0634, Allush, Alwash, \u0639\u0644\u0648\u0634", "name": "\u0639\u0644\u0648\u0634", "name:ar": "\u0639\u0644\u0648\u0634", "name:de": "Allush", "name:en": "Allush", "name:fr": "Allush", "place": "village"}}, {"type": "node", "id": 2488623915, "lat": 34.4771865, "lon": 45.1449903, "tags": {"name": "\u0628\u0627\u0646 \u0633\u0646\u062f\u0648\u0642", "name:ar": "\u0628\u0627\u0646 \u0635\u0646\u062f\u0648\u0642", "name:en": "Ban Snduq", "place": "village", "wikidata": "Q61391901", "wikipedia": "ckb:\u0628\u0627\u0646 \u0633\u0646\u062f\u0648\u0642"}}, {"type": "node", "id": 2488623916, "lat": 34.444787, "lon": 45.118209, "tags": {"alt_name": "\u0628\u0627\u0646\u0629 \u0628\u0627\u062e", "int_name": "B\u0101nah B\u0101kh, \u0628\u0627\u0646\u0647 \u0628\u0627\u062e, Banah Bakh, \u0628\u0627\u0646\u0647 \u0628\u0627\u062e", "name": "\u0628\u0627\u0646\u0629 \u0628\u0627\u062e", "name:ar": "\u0628\u0627\u0646\u0629 \u0628\u0627\u062e", "name:ar1": "\u0628\u0627\u0646\u0629 \u0628\u0627\u062e", "name:de": "Banah Bakh", "name:en": "Banah Bakh", "name:fr": "Banah Bakh", "place": "village"}}, {"type": "node", "id": 2488623927, "lat": 34.402135, "lon": 45.158089, "tags": {"alt_name": "\u0641\u062f\u0639\u0645 \u0645\u0639\u0631\u0648\u0641", "int_name": "Fadam Mar\u016bf, \u0641\u062f\u0639\u0645 \u0645\u0639\u0631\u0648\u0641, Fadam Maruf, \u0641\u062f\u0639\u0645 \u0645\u0639\u0631\u0648\u0641", "name": "\u0641\u062f\u0639\u0645 \u0645\u0639\u0631\u0648\u0641", "name:ar": "\u0642\u0631\u064a\u0629 \u0633\u0644\u064a\u0645\u0627\u0646", "name:ar1": "\u0641\u062f\u0639\u0645 \u0645\u0639\u0631\u0648\u0641", "name:de": "Fadam Maruf", "name:en": "Fadam Maruf", "name:fr": "Fadam Maruf", "place": "village"}}, {"type": "node", "id": 2488623966, "lat": 34.4875042, "lon": 45.0980139, "tags": {"name": "\u062d\u0627\u062c\u06cc\u0644\u06d5\u0631", "name:ar": "\u062d\u0627\u062c\u06cc\u0644\u06d5\u0631", "name:en": "Hajiler", "place": "village", "wikidata": "Q61392000", "wikipedia": "ckb:\u062d\u0627\u062c\u06cc\u0644\u06d5\u0631"}}, {"type": "node", "id": 2488624016, "lat": 34.413653, "lon": 45.139499, "tags": {"name": "\u06a9\u06d5\u0646\u062f \u0633\u0648\u0648\u0631", "place": "village"}}, {"type": "node", "id": 2488624022, "lat": 34.4952246, "lon": 45.1077588, "tags": {"name": "\u06a9\u06c6\u06a9\u0633", "name:ar": "\u06a9\u0648\u06a9\u0633", "name:en": "Koks", "place": "village", "wikidata": "Q61391946", "wikipedia": "ckb:\u06a9\u06c6\u06a9\u0633"}}, {"type": "node", "id": 2488624040, "lat": 34.4649389, "lon": 45.0940326, "tags": {"int_name": "K\u014dchiquragh, Quch\u012b Quragh, \u0642\u0686\u064a \u0642\u0631\u063a, Kochiquragh, Quchi Quragh, \u0642\u0686\u064a \u0642\u0631\u063a", "name": "\u0642\u0686 \u0642\u0631\u062e", "name:ar": "\u0642\u062c\u064a \u0642\u0631\u063a", "name:ar1": "\u0642\u062c\u064a \u0642\u0631\u063a", "name:de": "Kochiquragh", "name:en": "Kochiquragh", "name:fr": "Kochiquragh", "place": "village", "wikidata": "Q61391953", "wikipedia": "ckb:\u0642\u0686 \u0642\u0631\u062e"}}, {"type": "node", "id": 2488624053, "lat": 34.4530259, "lon": 45.1229925, "tags": {"name": "\u0644\u06d5\u0644\u0628\u0646", "name:ar": "\u0644\u0644\u0628\u0646", "name:en": "Lelbn", "place": "village", "wikidata": "Q61391937", "wikipedia": "ckb:\u0644\u06d5\u0644\u0628\u0646"}}, {"type": "node", "id": 2488624079, "lat": 34.448507, "lon": 45.0999982, "tags": {"alt_name": "\u0642\u0628\u0629", "int_name": "Qubba, Qubbah, \u0642\u0628\u0629, Qubba, Qubbah, \u0642\u0628\u0629", "name": "\u0642\u0628\u0629", "name:ar": "\u0642\u0628\u0629", "name:ckb": "\u0642\u0648\u0628\u06d5", "name:de": "Qubba", "name:en": "Qubba", "name:fr": "Qubba", "place": "village"}}, {"type": "node", "id": 2488624106, "lat": 34.398464, "lon": 45.143017, "tags": {"name": "\u0634\u06ce\u062e \u0628\u0627\u0648\u06d5", "name:ar": "\u0634\u064a\u062e \u0628\u0627\u0648\u0627", "name:ckb": "\u0634\u06ce\u062e \u0628\u0627\u0648\u06d5", "place": "village"}}, {"type": "node", "id": 2488624132, "lat": 34.431035, "lon": 45.080544, "tags": {"alt_name": "\u062a\u0644 \u062a\u064a\u0644\u0627\u0646\u0629", "int_name": "Tall T\u012bl\u0101nah, \u062a\u0644 \u062a\u064a\u0644\u0627\u0646\u0647, Tall Tilanah, \u062a\u0644 \u062a\u064a\u0644\u0627\u0646\u0647", "name": "\u062a\u0644 \u062a\u064a\u0644\u0627\u0646\u0629", "name:ar": "\u062a\u0644 \u062a\u064a\u0644\u0627\u0646\u0629", "name:ar1": "\u062a\u0644 \u062a\u064a\u0644\u0627\u0646\u0629", "name:de": "Tall Tilanah", "name:en": "Tall Tilanah", "name:fr": "Tall Tilanah", "place": "village"}}, {"type": "node", "id": 2488624136, "lat": 34.4651699, "lon": 45.1266113, "tags": {"int_name": "Tap\u0101n, \u062a\u067e\u0627\u0646, Tapan, \u062a\u067e\u0627\u0646", "name": "\u0633\u06cc\u062a\u06d5\u067e\u0627\u0646", "name:ar": "\u0633\u06cc\u062a\u0628\u0627\u0646", "name:de": "Sitepan", "name:en": "Sitepan", "name:fr": "Sitepan", "place": "village", "wikidata": "Q61391975", "wikipedia": "ckb:\u0633\u06cc\u062a\u06d5\u067e\u0627\u0646"}}, {"type": "node", "id": 2488624146, "lat": 34.4261, "lon": 45.136843, "tags": {"name": "\u062a\u06d5\u067e\u06d5 \u0686\u06d5\u0631\u0645\u06cc", "place": "village"}}, {"type": "node", "id": 2488624176, "lat": 34.4896563, "lon": 45.1189176, "tags": {"name": "\u062a\u0627\u0632\u0629 \u0634\u0627\u0631", "name:ar": "\u062a\u0627\u0632\u0629 \u0634\u0627\u0631", "name:ckb": "\u062a\u0627\u0632\u06d5\u0634\u0627\u0631", "name:en": "Taza Shar", "place": "village", "wikidata": "Q61391907", "wikipedia": "ckb:\u062a\u0627\u0632\u06d5\u0634\u0627\u0631\u060c \u06a9\u06c6\u06a9\u0633"}}, {"type": "node", "id": 2488624187, "lat": 34.432723, "lon": 45.163911, "tags": {"alt_name": "\u0623\u0645 \u0627\u0644\u062d\u0646\u0637\u0629", "int_name": "Umm al \u1e28in\u0163ah, \u0627\u0645 \u0627\u0644\u062d\u0646\u0637\u0647, Umm al Hintah, \u0627\u0645 \u0627\u0644\u062d\u0646\u0637\u0647", "name": "\u0623\u0645 \u0627\u0644\u062d\u0646\u0637\u0629", "name:ar": "\u0623\u0645 \u0627\u0644\u062d\u0646\u0637\u0629", "name:ar1": "\u0623\u0645 \u0627\u0644\u062d\u0646\u0637\u0629", "name:de": "Umm al Hintah", "name:en": "Umm al Hintah", "name:fr": "Umm al Hintah", "place": "village"}}, {"type": "node", "id": 2488624735, "lat": 34.3606498, "lon": 45.2186393, "tags": {"alt_name": "\u0627\u0644\u062f\u0631\u0648\u0627\u0634\u0647", "int_name": "Ad Darw\u0101shah, Ad Darwashah", "name": "\u0627\u0644\u062f\u0631\u0648\u0627\u0634\u0629", "name:ar": "\u0627\u0644\u062f\u0631\u0648\u0627\u0634\u0629", "name:ar1": "\u0627\u0644\u062f\u0631\u0648\u0627\u0634\u0629", "name:de": "Ad Darwashah", "name:en": "Ad Darwashah", "name:fr": "Ad Darwashah", "place": "village"}}, {"type": "node", "id": 2488624738, "lat": 34.3610575, "lon": 45.2198082, "tags": {"alt_name": "\u0639\u0632\u064a\u0632 \u0627\u063a\u0627", "int_name": "Az\u012bz \u0100gh\u0101, Aziz Agha", "name": "\u0639\u0632\u064a\u0632 \u0622\u063a\u0627", "name:ar": "\u0639\u0632\u064a\u0632 \u0622\u063a\u0627", "name:ar1": "\u0639\u0632\u064a\u0632 \u0622\u063a\u0627", "name:de": "Aziz Agha", "name:en": "Aziz Agha", "name:fr": "Aziz Agha", "place": "village"}}, {"type": "node", "id": 2488624741, "lat": 34.4007434, "lon": 45.2348764, "tags": {"alt_name": "\u062d\u0645\u062f \u0645\u0635\u0627\u0644\u062d", "int_name": "\u1e28amad Mu\u015f\u0101li\u1e29, \u062d\u0645\u062f \u0645\u0635\u0627\u0644\u062d, Hamad Musalih, \u062d\u0645\u062f \u0645\u0635\u0627\u0644\u062d", "name": "\u062d\u0645\u062f \u0645\u0635\u0627\u0644\u062d", "name:ar": "\u0642\u0631\u064a\u0629 \u0627\u0644\u0643\u0628\u064a\u0647 \u0627\u0644\u0635\u063a\u064a\u0631\u0647", "name:ar1": "\u062d\u0645\u062f \u0645\u0635\u0627\u0644\u062d", "name:de": "Hamad Musalih", "name:en": "Al - kubia Village", "name:fr": "Hamad Musalih", "name:ku": "Al - kubia Village", "place": "village"}}, {"type": "node", "id": 2488624742, "lat": 34.3990511, "lon": 45.2338259, "tags": {"alt_name": "\u062d\u0645\u062f \u0645\u0635\u0644\u062d", "int_name": "\u1e28amad Mu\u015fli\u1e29, Hamad Muslih", "name": "\u062d\u0645\u062f \u0645\u0635\u0644\u062d", "name:ar": "\u062d\u0645\u062f \u0645\u0635\u0644\u062d", "name:ar1": "\u062d\u0645\u062f \u0645\u0635\u0644\u062d", "name:de": "Hamad Muslih", "name:en": "Hamad Muslih", "name:fr": "Hamad Muslih", "place": "village"}}, {"type": "node", "id": 2488624743, "lat": 34.4007847, "lon": 45.2332256, "tags": {"alt_name": "\u062d\u0645\u062f", "int_name": "\u1e28amad, Hamad", "name": "\u062d\u0645\u062f", "name:ar": "\u062d\u0645\u062f", "name:ar1": "\u062d\u0645\u062f", "name:de": "Hamad", "name:en": "Hamad", "name:fr": "Hamad", "place": "village"}}, {"type": "node", "id": 2488624748, "lat": 34.3760349, "lon": 45.2502666, "tags": {"alt_name": "\u0645\u062d\u0645\u062f \u062d\u0645\u064a\u0644\u064a", "int_name": "Mu\u1e29ammad Humayl\u012b, Muhammad Humayli", "name": "\u0645\u062d\u0645\u062f \u062d\u0645\u064a\u0644\u064a", "name:ar": "\u0645\u062d\u0645\u062f \u062d\u0645\u064a\u0644\u064a", "name:ar1": "\u0645\u062d\u0645\u062f \u062d\u0645\u064a\u0644\u064a", "name:de": "Muhammad Humayli", "name:en": "Muhammad Humayli", "name:fr": "Muhammad Humayli", "place": "village"}}, {"type": "node", "id": 2488624750, "lat": 34.3766442, "lon": 45.2503683, "tags": {"alt_name": "\u0645\u062d\u0645\u062f \u0635\u0627\u0644\u062d", "int_name": "Mu\u1e29ammad \u015e\u0101li\u1e29, \u0645\u062d\u0645\u062f \u0635\u0627\u0644\u062d, Muhammad Salih, \u0645\u062d\u0645\u062f \u0635\u0627\u0644\u062d", "name": "\u0645\u062d\u0645\u062f \u0635\u0627\u0644\u062d", "name:ar": "\u0645\u062d\u0645\u062f \u0635\u0627\u0644\u062d", "name:ar1": "\u0645\u062d\u0645\u062f \u0635\u0627\u0644\u062d", "name:de": "Muhammad Salih", "name:en": "Muhammad Salih", "name:fr": "Muhammad Salih", "place": "village"}}, {"type": "node", "id": 2488624751, "lat": 34.407778, "lon": 45.245833, "tags": {"alt_name": "\u0645\u0635\u0637\u0641\u0649 \u0628\u0627\u0634\u0627", "int_name": "Mu\u015f\u0163af\u00e1 B\u0101sh\u0101, Mustafa P\u0101sha, Mustafa Basha, Mustafa Pasha", "name": "\u0645\u0635\u0637\u0641\u0649 \u0628\u0627\u0634\u0627", "name:ar": "\u0645\u0635\u0637\u0641\u0649 \u0628\u0627\u0634\u0627", "name:ar1": "\u0645\u0635\u0637\u0641\u0649 \u0628\u0627\u0634\u0627", "name:de": "Mustafa Basha", "name:en": "Mustafa Basha", "name:fr": "Mustafa Basha", "place": "village"}}, {"type": "node", "id": 2488624754, "lat": 34.3463565, "lon": 45.2447274, "tags": {"alt_name": "\u0634\u064a\u062e \u062f\u0627\u0648\u0648\u062f", "int_name": "Shaykh D\u0101wud, Shaykh Dawud", "name": "\u0634\u064a\u062e \u062f\u0627\u0648\u0648\u062f", "name:ar": "\u0634\u064a\u062e \u062f\u0627\u0648\u0648\u062f", "name:ar1": "\u0634\u064a\u062e \u062f\u0627\u0648\u0648\u062f", "name:de": "Shaykh Dawud", "name:en": "Shaykh Dawud", "name:fr": "Shaykh Dawud", "note": "Place name doesn't appear to be associated with an place, village above is already named.", "place": "village"}}, {"type": "node", "id": 2488624755, "lat": 34.370612, "lon": 45.215712, "tags": {"alt_name": "\u062a\u0644 \u0645\u0646\u0642\u0648\u0644", "int_name": "Tall Manq\u016bl, \u062a\u0644 \u0645\u0646\u0642\u0648\u0644, Tall Manqul, \u062a\u0644 \u0645\u0646\u0642\u0648\u0644", "name": "\u062a\u0644 \u0645\u0646\u0642\u0648\u0644", "name:ar": "\u062a\u0644 \u0645\u0646\u0642\u0648\u0644", "name:ar1": "\u062a\u0644 \u0645\u0646\u0642\u0648\u0644", "name:de": "Tall Manqul", "name:en": "Tall Manqul", "name:fr": "Tall Manqul", "place": "village"}}, {"type": "node", "id": 2488624757, "lat": 34.346083, "lon": 45.2447461, "tags": {"alt_name": "\u0634\u064a\u062e \u062f\u0627\u0648\u062f", "int_name": "\u0634\u064a\u062e \u062f\u0627\u0648\u062f, \u0634\u064a\u062e \u062f\u0627\u0648\u062f", "name": "\u0634\u064a\u062e \u062f\u0627\u0648\u062f", "name:ar": "\u0634\u064a\u062e \u062f\u0627\u0648\u062f", "name:ar1": "\u0634\u064a\u062e \u062f\u0627\u0648\u062f", "name:de": "\u0634\u064a\u062e \u062f\u0627\u0648\u062f", "name:en": "\u0634\u064a\u062e \u062f\u0627\u0648\u062f", "name:fr": "\u0634\u064a\u062e \u062f\u0627\u0648\u062f", "place": "village"}}, {"type": "node", "id": 2488624759, "lat": 34.3764362, "lon": 45.2518714, "tags": {"alt_name": "\u0645\u062d\u0645\u062f \u0647\u0645\u064a\u0644\u064a", "int_name": "\u0645\u062d\u0645\u062f \u0647\u0645\u064a\u0644\u064a, \u0645\u062d\u0645\u062f \u0647\u0645\u064a\u0644\u064a", "name": "\u0645\u062d\u0645\u062f \u0647\u0645\u064a\u0644\u064a", "name:ar": "\u0645\u062d\u0645\u062f \u0647\u0645\u064a\u0644\u064a", "name:ar1": "\u0645\u062d\u0645\u062f \u0647\u0645\u064a\u0644\u064a", "name:de": "\u0645\u062d\u0645\u062f \u0647\u0645\u064a\u0644\u064a", "name:en": "\u0645\u062d\u0645\u062f \u0647\u0645\u064a\u0644\u064a", "name:fr": "\u0645\u062d\u0645\u062f \u0647\u0645\u064a\u0644\u064a", "place": "village"}}, {"type": "node", "id": 2488629606, "lat": 34.472601, "lon": 45.213833, "tags": {"alt_name": "\u0639\u0628\u062f \u0627\u0644\u0642\u0627\u062f\u0631 \u0628\u064a\u0643", "int_name": "Abd al Q\u0101dir Bak, \u0639\u0628\u062f \u0627\u0644\u0642\u0627\u062f\u0631 \u0628\u0643, Abd al Qadir Bak, \u0639\u0628\u062f \u0627\u0644\u0642\u0627\u062f\u0631 \u0628\u0643", "name": "\u0639\u0628\u062f \u0627\u0644\u0642\u0627\u062f\u0631 \u0628\u064a\u0643", "name:ar": "\u0639\u0628\u062f \u0627\u0644\u0642\u0627\u062f\u0631 \u0628\u064a\u0643", "name:ar1": "\u0639\u0628\u062f \u0627\u0644\u0642\u0627\u062f\u0631 \u0628\u064a\u0643", "name:de": "Abd al Qadir Bak", "name:en": "Abd al Qadir Bak", "name:fr": "Abd al Qadir Bak", "place": "village"}}, {"type": "node", "id": 2488629671, "lat": 34.466458, "lon": 45.2164041, "tags": {"name": "\u062f\u06d5\u06a9\u06d5 \u0633\u06d5\u0631\u0686\u06d5\u0645", "name:ar": "\u062f\u0643\u0629 \u0633\u0631\u062c\u0645", "name:en": "Dakka Sarcham", "place": "village"}}, {"type": "node", "id": 2488629681, "lat": 34.45, "lon": 45.2, "tags": {"alt_name": "\u062f\u0643\u0629", "int_name": "Dakkah, Dekke, Dakkah, Dekke", "name": "\u062f\u06d5\u06a9\u06d5", "name:ar": "\u062f\u0643\u0629", "name:ar1": "\u062f\u0643\u0629", "name:de": "Dakkah", "name:en": "Dakkah", "name:fr": "Dakkah", "place": "village"}}, {"type": "node", "id": 2488629765, "lat": 34.5274579, "lon": 45.2783777, "tags": {"alt_name": "\u062c\u0628\u0631\u0627\u0648\u0629", "int_name": "Jabr\u0101wa, Jabrawa", "name": "\u062c\u0628\u0631\u0627\u0648\u0629", "name:ar": "\u062c\u0628\u0631\u0627\u0648\u0629", "name:ar1": "\u062c\u0628\u0631\u0627\u0648\u0629", "name:de": "Jabrawa", "name:en": "Jabrawa", "name:fr": "Jabrawa", "place": "village"}}, {"type": "node", "id": 2488629804, "lat": 34.5133309, "lon": 45.2552653, "tags": {"alt_name": "\u0643\u0627\u0646\u064a \u0645\u0627\u0633\u064a", "int_name": "Kani Masi, K\u0101n\u012b M\u0101s\u012b, \u0643\u0627\u0646\u064a \u0645\u0627\u0633\u064a, Kani Masi, Kani Masi, \u0643\u0627\u0646\u064a \u0645\u0627\u0633\u064a", "name": "\u06a9\u0627\u0646\u06cc \u0645\u0627\u0633\u06cc", "name:ar": "\u0643\u0627\u0646\u064a \u0645\u0627\u0633\u064a", "name:ar1": "\u0643\u0627\u0646\u064a \u0645\u0627\u0633\u064a", "name:de": "Kani Masi", "name:en": "Kani Masi", "name:fr": "Kani Masi", "place": "village", "wikidata": "Q61390920", "wikipedia": "ckb:\u06a9\u0627\u0646\u06cc \u0645\u0627\u0633\u06cc"}}, {"type": "node", "id": 2488629857, "lat": 34.435236, "lon": 45.2082, "tags": {"alt_name": "\u0645\u0644\u0627 \u0637\u064a\u0628", "int_name": "Mull\u0101 \u0162ayyib, \u0645\u0644\u0627 \u0637\u064a\u0628, Mulla Tayyib, \u0645\u0644\u0627 \u0637\u064a\u0628", "name": "\u0645\u06d5\u0644\u0627 \u062a\u06d5\u06cc\u0628", "name:ar": "\u0645\u0644\u0627 \u0637\u064a\u0628", "name:ar1": "\u0645\u0644\u0627 \u0637\u064a\u0628", "name:de": "Mulla Tayyib", "name:en": "Mulla Tayyib", "name:fr": "Mulla Tayyib", "place": "village"}}, {"type": "node", "id": 2488629858, "lat": 34.4346447, "lon": 45.2332063, "tags": {"alt_name": "\u0646\u0648\u0631\u064a \u0645\u064a\u0643\u0627\u0626\u064a\u0644", "int_name": "N\u016br\u012b M\u012bk\u0101\u012bl, \u0646\u0648\u0631\u064a \u0645\u064a\u0643\u0627\u0626\u064a\u0644, Nuri Mikail, \u0646\u0648\u0631\u064a \u0645\u064a\u0643\u0627\u0626\u064a\u0644", "name": "\u0646\u0648\u0648\u0631\u06cc \u0645\u06a9\u0627\u06cc\u0644", "name:ar": "\u0646\u0648\u0631\u064a \u0645\u064a\u0643\u0627\u0626\u064a\u0644", "name:ar1": "\u0646\u0648\u0631\u064a \u0645\u064a\u0643\u0627\u0626\u064a\u0644", "name:de": "Nuri Mikail", "name:en": "Nuri Mikail", "name:fr": "Nuri Mikail", "place": "village"}}, {"type": "node", "id": 2488629861, "lat": 34.4949583, "lon": 45.1939713, "tags": {"alt_name": "\u0642\u0631\u0647\u0628\u0644\u0627\u063a \u0627\u0644\u0635\u063a\u0631\u0649", "int_name": "Qarabolakh, Qarahbul\u0101gh a\u015f \u015eughr\u00e1, \u0642\u0631\u0647 \u0628\u0644\u0627\u063a \u0627\u0644\u0635\u063a\u0631\u0649, Qarabolakh, Qarahbulagh as Sughra, \u0642\u0631\u0647 \u0628\u0644\u0627\u063a \u0627\u0644\u0635\u063a\u0631\u0649", "name": "\u0642\u06d5\u0631\u06d5\u0628\u0648\u06b5\u0627\u063a\u06cc \u0628\u0631\u0627\u062d\u06d5\u0645\u06d5", "name:ar": "\u0642\u0631\u0629\u0628\u0644\u0627\u063a \u0628\u0631\u0627\u062d\u0645\u0629", "name:ar1": "\u0642\u0631\u0647\u0628\u0644\u0627\u063a \u0627\u0644\u0635\u063a\u0631\u0649", "name:de": "Qarabolakh Brahama", "name:en": "Qarabolakh Brahama", "name:fr": "Qarabolakh Brahama", "place": "village", "wikidata": "Q61391954", "wikipedia": "ckb:\u0642\u06d5\u0631\u06d5\u0628\u0648\u06b5\u0627\u063a\u06cc \u0628\u0631\u0627\u062d\u06d5\u0645\u06d5"}}, {"type": "node", "id": 2488629863, "lat": 34.443862, "lon": 45.207288, "tags": {"alt_name": "\u0631\u0628\u0639 \u062d\u0628\u064a\u0628", "int_name": "Rab \u1e28ab\u012bb, \u0631\u0628\u0639 \u062d\u0628\u064a\u0628, Rab Habib, \u0631\u0628\u0639 \u062d\u0628\u064a\u0628", "name": "\u0631\u0628\u0639 \u062d\u0628\u064a\u0628", "name:ar": "\u0631\u0628\u0639 \u062d\u0628\u064a\u0628", "name:ar1": "\u0631\u0628\u0639 \u062d\u0628\u064a\u0628", "name:de": "Rab Habib", "name:en": "Rab Habib", "name:fr": "Rab Habib", "place": "village"}}, {"type": "node", "id": 2488629864, "lat": 34.469167, "lon": 45.221389, "tags": {"alt_name": "\u0633\u064a\u062f \u0623\u062d\u0645\u062f", "int_name": "Saiyid Ahmad, Sayyid A\u1e29mad, Saiyid Ahmad, Sayyid Ahmad", "name": "\u0633\u064a\u062f \u0623\u062d\u0645\u062f", "name:ar": "\u0633\u064a\u062f \u0623\u062d\u0645\u062f", "name:ar1": "\u0633\u064a\u062f \u0623\u062d\u0645\u062f", "name:de": "Saiyid Ahmad", "name:en": "Saiyid Ahmad", "name:fr": "Saiyid Ahmad", "place": "village"}}, {"type": "node", "id": 2488629866, "lat": 34.544722, "lon": 45.238978, "tags": {"alt_name": "\u0634\u064a\u062e \u0644\u0646\u0643\u0631 \u0627\u0644\u0642\u062f\u064a\u0645\u0629", "int_name": "Shaikh Langar, Shaykh Lankar, Shaykh Lankar al Qad\u012bmah, Shekh Langar, \u0634\u064a\u062e \u0644\u0646\u0643\u0631 \u0627\u0644\u0642\u062f\u064a\u0645\u0629, \u0634\u064a\u062e \u0644\u0646\u0643\u0631 \u0627\u0644\u0642\u062f\u064a\u0645\u0647, Shaikh Langar, Shaykh Lankar, Shaykh Lankar al Qadimah, Shekh Langar, \u0634\u064a\u062e \u0644\u0646\u0643\u0631 \u0627\u0644\u0642\u062f\u064a\u0645\u0629, \u0634\u064a\u062e \u0644\u0646\u0643\u0631 \u0627\u0644\u0642\u062f\u064a\u0645\u0647", "name": "\u0634\u06ce\u062e \u0644\u06d5\u0646\u06af\u06d5\u0631\u06cc \u0628\u0686\u0648\u06a9", "name:ar": "\u0634\u064a\u062e \u0644\u0646\u0643\u0631 \u0627\u0644\u0635\u063a\u06cc\u0631", "name:ar1": "\u0634\u064a\u062e \u0644\u0646\u0643\u0631 \u0627\u0644\u0642\u062f\u064a\u0645\u0629", "name:de": "Little Shaikh Langar", "name:en": "Little Shaikh Langar", "name:fr": "Little Shaikh Langar", "place": "village", "wikidata": "Q61391964", "wikipedia": "ckb:\u0634\u06ce\u062e \u0644\u06d5\u0646\u06af\u06d5\u0631\u06cc \u0628\u0686\u0648\u06a9"}}, {"type": "node", "id": 2488630603, "lat": 34.424504, "lon": 45.217887, "tags": {"alt_name": "\u0627\u0644\u0643\u0628\u064a\u0629 \u0627\u0644\u0643\u0628\u064a\u0631\u0629", "int_name": "Al Gabyah al Kab\u012brah, \u0627\u0644\u06af\u0628\u064a\u0629 \u0627\u0644\u0643\u0628\u064a\u0631\u0629, Al Gabyah al Kabirah, \u0627\u0644\u06af\u0628\u064a\u0629 \u0627\u0644\u0643\u0628\u064a\u0631\u0629", "name": "\u0627\u0644\u0643\u0628\u064a\u0629 \u0627\u0644\u0643\u0628\u064a\u0631\u0629", "name:ar": "\u0627\u0644\u0643\u0628\u064a\u0629 \u0627\u0644\u0643\u0628\u064a\u0631\u0629", "name:ar1": "\u0627\u0644\u0643\u0628\u064a\u0629 \u0627\u0644\u0643\u0628\u064a\u0631\u0629", "name:de": "Al Gabyah al Kabirah", "name:en": "Al Gabyah al Kabirah", "name:fr": "Al Gabyah al Kabirah", "place": "village"}}, {"type": "node", "id": 2488630625, "lat": 34.4310413, "lon": 45.3823691, "tags": {"alt_name": "\u0627\u0644\u0625\u0628\u0644", "int_name": "Al Ibil, \u0627\u0644\u0627\u0628\u0644, Al Ibil, \u0627\u0644\u0627\u0628\u0644", "name": "\u0627\u0644\u0625\u0628\u0644", "name:ar": "\u0627\u0644\u0625\u0628\u0644", "name:ar1": "\u0627\u0644\u0625\u0628\u0644", "name:de": "Al Ibil", "name:en": "Al Ibil", "name:fr": "Al Ibil", "place": "village"}}, {"type": "node", "id": 2488630733, "lat": 34.516667, "lon": 45.316667, "tags": {"alt_name": "\u0639\u0644\u064a \u0634\u0627\u0641\u064a", "int_name": "Al\u012b Sh\u0101f\u012b, Ali Shafi", "name": "\u0639\u0644\u064a \u0634\u0627\u0641\u064a", "name:ar": "\u0639\u0644\u064a \u0634\u0627\u0641\u064a", "name:ar1": "\u0639\u0644\u064a \u0634\u0627\u0641\u064a", "name:de": "Ali Shafi", "name:en": "Ali Shafi", "name:fr": "Ali Shafi", "place": "village"}}, {"type": "node", "id": 2488630746, "lat": 34.4182459, "lon": 45.2295366, "tags": {"alt_name": "\u0639\u0644\u064a\u0627\u0646", "int_name": "Aly\u0101n, \u0639\u0644\u064a\u0627\u0646, Alyan, \u0639\u0644\u064a\u0627\u0646", "name": "\u0639\u0644\u064a\u0627\u0646", "name:ar": "\u0639\u0644\u064a\u0627\u0646", "name:ar1": "\u0639\u0644\u064a\u0627\u0646", "name:de": "Alyan", "name:en": "Alyan", "name:fr": "Alyan", "place": "village"}}, {"type": "node", "id": 2488630765, "lat": 34.3895988, "lon": 45.1487145, "tags": {"alt_name": "\u0623\u0645\u064a\u0646 \u062d\u0628\u064a\u0628", "int_name": "Am\u012bn \u1e28ab\u012bb, Amin Habib", "name": "\u0623\u0645\u064a\u0646 \u062d\u0628\u064a\u0628", "name:ar": "\u0623\u0645\u064a\u0646 \u062d\u0628\u064a\u0628", "name:de": "Amin Habib", "name:en": "Amin Habib", "name:fr": "Amin Habib", "place": "village"}}, {"type": "node", "id": 2488630772, "lat": 34.364657, "lon": 45.081189, "tags": {"alt_name": "\u0639\u0631\u0628 \u0639\u0628\u0627\u0633", "int_name": "Arab Abb\u0101s, \u0639\u0631\u0628 \u0639\u0628\u0627\u0633, Arab Abbas, \u0639\u0631\u0628 \u0639\u0628\u0627\u0633", "name": "\u0639\u0631\u0628 \u0639\u0628\u0627\u0633", "name:ar": "\u0639\u0631\u0628 \u0639\u0628\u0627\u0633", "name:ar1": "\u0639\u0631\u0628 \u0639\u0628\u0627\u0633", "name:de": "Arab Abbas", "name:en": "Arab Abbas", "name:fr": "Arab Abbas", "place": "village"}}, {"type": "node", "id": 2488630796, "lat": 34.452336, "lon": 45.357551, "tags": {"alt_name": "\u0622\u0648\u064a \u062d\u0627\u0636\u0631", "int_name": "\u0100w\u012b \u1e28\u0101\u1e11ir, Awi Hazir, Awihazir, \u0622\u0648\u064a \u062d\u0627\u0636\u0631, Awi Hadir, Awi Hazir, Awihazir, \u0622\u0648\u064a \u062d\u0627\u0636\u0631", "name": "\u0622\u0648\u064a \u062d\u0627\u0636\u0631", "name:ar": "\u0622\u0648\u064a \u062d\u0627\u0636\u0631", "name:ar1": "\u0622\u0648\u064a \u062d\u0627\u0636\u0631", "name:de": "Awi Hadir", "name:en": "Awi Hadir", "name:fr": "Awi Hadir", "place": "village"}}, {"type": "node", "id": 2488630873, "lat": 34.5700725, "lon": 45.1003651, "tags": {"name": "\u067e\u06cc\u0631\u06d5\u0641\u06d5\u0642\u06cc\u0631\u06d5", "name:ar": "\u0628\u06cc\u0631\u0629 \u0641\u0642\u06cc\u0631\u0629", "name:en": "Pira Faqira", "place": "village", "wikidata": "Q61391905", "wikipedia": "ckb:\u067e\u06cc\u0631\u06d5\u0641\u06d5\u0642\u06cc\u0631\u06d5"}}, {"type": "node", "id": 2488630909, "lat": 34.5084076, "lon": 45.3781607, "tags": {"is_in": "Iraq , \u062c\u0645\u0647\u0648\u0631\u064a\u0629 \u0627\u0644\u0639\u0631\u0627\u0642", "name": "\u062f\u0627\u0631\u06d5\u062e\u0648\u0631\u0645\u0627\u06cc \u0645\u06d5\u0644\u0627\u062d\u06d5\u0633\u06d5\u0646", "name:ar": "\u062f\u0627\u0631\u0629\u062e\u0631\u0645\u0627 \u0645\u0644\u0627\u062d\u0633\u0646", "name:ar1": "\u062f\u0627\u0631\u0629 \u062e\u0631\u0645\u0629 \u0627\u0644\u0635\u063a\u064a\u0631\u0629", "name:de": "Darakhurma Mala Hassan", "name:en": "Darakhurma Mala Hassan", "name:fr": "Darakhurma Mala Hassan", "place": "village", "wikidata": "Q61390807", "wikipedia": "ckb:\u062f\u0627\u0631\u06d5\u062e\u0648\u0631\u0645\u0627\u06cc \u0645\u06d5\u0644\u0627\u062d\u06d5\u0633\u06d5\u0646"}}, {"type": "node", "id": 2488630939, "lat": 34.52453, "lon": 45.3252095, "tags": {"alt_name": "\u0643\u0627\u0643\u0648\u0644", "int_name": "G\u0101k\u016bl, Kakol, K\u0101k\u016bl, \u0643\u0627\u0643\u0648\u0644, Gakul, Kakol, Kakul, \u0643\u0627\u0643\u0648\u0644", "name": "\u0643\u0627\u0643\u0648\u0644", "name:ar": "\u0643\u0627\u0643\u0648\u0644", "name:ckb": "\u06a9\u0627\u06a9\u06c6\u06b5\u06cc \u06a9\u06c6\u0646", "name:de": "Gakul", "name:en": "Gakul", "name:fr": "Gakul", "place": "village"}}, {"type": "node", "id": 2488630997, "lat": 34.436438, "lon": 45.333452, "tags": {"alt_name": "\u0647\u0627\u0645\u0631", "int_name": "H\u0101mir, \u0647\u0627\u0645\u0631, Hamir, \u0647\u0627\u0645\u0631", "name": "\u0647\u0627\u0645\u0631", "name:ar": "\u0647\u0627\u0645\u0631", "name:ar1": "\u0647\u0627\u0645\u0631", "name:de": "Hamir", "name:en": "Hamir", "name:fr": "Hamir", "place": "village"}}, {"type": "node", "id": 2488631131, "lat": 34.333056, "lon": 45.200833, "tags": {"alt_name": "\u062d\u0644\u0648\u0627\u0646", "int_name": "\u1e28ulw\u0101n, Hulwan", "name": "\u062d\u0644\u0648\u0627\u0646", "name:ar": "\u062d\u0644\u0648\u0627\u0646", "name:ar1": "\u062d\u0644\u0648\u0627\u0646", "name:de": "Hulwan", "name:en": "Hulwan", "name:fr": "Hulwan", "place": "village"}}, {"type": "node", "id": 2488631202, "lat": 34.387409, "lon": 45.172401, "tags": {"alt_name": "\u0625\u0645\u0627\u0645 \u0634\u064a\u062e \u0628\u0627\u0628\u0627", "int_name": "Im\u0101m Shaykh B\u0101b\u0101, \u0627\u0645\u0627\u0645 \u0634\u064a\u062e \u0628\u0627\u0628\u0627, Imam Shaykh Baba, \u0627\u0645\u0627\u0645 \u0634\u064a\u062e \u0628\u0627\u0628\u0627", "name": "\u0625\u0645\u0627\u0645 \u0634\u064a\u062e \u0628\u0627\u0628\u0627", "name:ar": "\u0625\u0645\u0627\u0645 \u0634\u064a\u062e \u0628\u0627\u0628\u0627", "name:ar1": "\u0625\u0645\u0627\u0645 \u0634\u064a\u062e \u0628\u0627\u0628\u0627", "name:de": "Imam Shaykh Baba", "name:en": "Imam Shaykh Baba", "name:fr": "Imam Shaykh Baba", "place": "village"}}, {"type": "node", "id": 2488631250, "lat": 34.444844, "lon": 45.3543782, "tags": {"alt_name": "\u0643\u0644\u0627\u0645\u064a\u0631\u0647", "int_name": "Kalm\u012br\u0101, \u0643\u0644\u0645\u064a\u0631\u0627, Kalmira, \u0643\u0644\u0645\u064a\u0631\u0627", "name": "\u0643\u0644\u0645\u064a\u0631\u0627", "name:ar": "\u0643\u0644\u0645\u064a\u0631\u0627", "name:ckb": "\u06a9\u06d5\u0644\u0627\u06cc \u0645\u06cc\u0631\u06d5", "name:de": "Kalmira", "name:en": "Kalamira", "name:fr": "Kalmira", "place": "village", "wikidata": "Q61390921", "wikipedia": "ckb:\u06a9\u06d5\u0644\u0627\u06cc \u0645\u06cc\u0631\u06d5"}}, {"type": "node", "id": 2488631256, "lat": 34.4314828, "lon": 45.3825328, "tags": {"alt_name": "\u0643\u0645\u0644\u0627\u064a \u0645\u064a\u0631", "int_name": "Kaml\u0101y M\u012br, \u0643\u0645\u0644\u0627\u064a \u0645\u064a\u0631, Kamlay Mir, \u0643\u0645\u0644\u0627\u064a \u0645\u064a\u0631", "name": "\u0643\u0645\u0644\u0627\u064a \u0645\u064a\u0631", "name:ar": "\u0643\u0645\u0644\u0627\u064a \u0645\u064a\u0631", "name:ar1": "\u0643\u0645\u0644\u0627\u064a \u0645\u064a\u0631", "name:de": "Kamlay Mir", "name:en": "Kamlay Mir", "name:fr": "Kamlay Mir", "place": "village"}}, {"type": "node", "id": 2488631261, "lat": 34.440337, "lon": 45.287962, "tags": {"name": "\u06a9\u062a\u0627\u0628", "name:en": "Kitab", "place": "village"}}, {"type": "node", "id": 2488631329, "lat": 34.5470189, "lon": 45.1269403, "tags": {"name": "\u062d\u0627\u062c\u06cc \u062d\u06d5\u0633\u06d5\u0646", "name:ar": "\u062d\u0627\u062c \u062d\u0633\u0646", "name:en": "Haji Hassan", "place": "village", "wikidata": "Q61392005", "wikipedia": "ckb:\u062d\u0627\u062c\u06cc \u062d\u06d5\u0633\u06d5\u0646\u060c \u06a9\u06c6\u06a9\u0633"}}, {"type": "node", "id": 2488631339, "lat": 34.3633972, "lon": 45.1691983, "tags": {"alt_name": "\u0645\u062f\u0646 \u062c\u0631\u0628\u0629;\u0645\u0639\u062f\u0646 \u062c\u0631\u0628\u0629", "int_name": "Madan Jarbah, Madan Jarbah;Mudun Jarbah, Mudur Jarbah, Mudun Jarbah, Mudur Jarbah", "name": "\u0645\u062f\u0646 \u062c\u0631\u0628\u0629", "name:ar": "\u0627\u0644\u0627\u0635\u0644\u0627\u062d", "name:de": "Madan Jarbah", "name:en": "Madan Jarbah", "name:fr": "Madan Jarbah", "place": "village"}}, {"type": "node", "id": 2488631344, "lat": 34.416944, "lon": 45.229167, "tags": {"alt_name": "\u0645\u062c\u064a\u062f \u0633\u0639\u064a\u062f", "int_name": "Maj\u012bd Sa\u012bd, Majid Said", "name": "\u0645\u062c\u064a\u062f \u0633\u0639\u064a\u062f", "name:ar": "\u0645\u062c\u064a\u062f \u0633\u0639\u064a\u062f", "name:ar1": "\u0645\u062c\u064a\u062f \u0633\u0639\u064a\u062f", "name:de": "Majid Said", "name:en": "Majid Said", "name:fr": "Majid Said", "place": "village"}}, {"type": "node", "id": 2488631398, "lat": 34.4770519, "lon": 45.3578274, "tags": {"alt_name": "\u0645\u0644\u0627 \u062d\u0633\u0646", "int_name": "Mal\u0101 \u1e28asan, Mull\u0101 \u1e28asan, \u0645\u0644\u0627 \u062d\u0633\u0646, Mala Hasan, Mulla Hasan, \u0645\u0644\u0627 \u062d\u0633\u0646", "name": "\u0645\u0644\u0627 \u062d\u0633\u0646", "name:ar": "\u0645\u0644\u0627 \u062d\u0633\u0646", "name:ar1": "\u0645\u0644\u0627 \u062d\u0633\u0646", "name:de": "Mala Hasan", "name:en": "Mala Hasan", "name:fr": "Mala Hasan", "place": "village"}}, {"type": "node", "id": 2488631431, "lat": 34.4189754, "lon": 45.2291122, "tags": {"alt_name": "\u0645\u062d\u0645\u062f \u0625\u0633\u0645\u0627\u0639\u064a\u0644", "int_name": "Mu\u1e29ammad Ism\u0101\u012bl, \u0645\u062d\u0645\u062f \u0627\u0633\u0645\u0627\u0639\u064a\u0644, Muhammad Ismail, \u0645\u062d\u0645\u062f \u0627\u0633\u0645\u0627\u0639\u064a\u0644", "name": "\u0645\u062d\u0645\u062f \u0625\u0633\u0645\u0627\u0639\u064a\u0644", "name:ar": "\u0645\u062d\u0645\u062f \u0625\u0633\u0645\u0627\u0639\u064a\u0644", "name:ar1": "\u0645\u062d\u0645\u062f \u0625\u0633\u0645\u0627\u0639\u064a\u0644", "name:de": "Muhammad Ismail", "name:en": "Muhammad Ismail", "name:fr": "Muhammad Ismail", "place": "village"}}, {"type": "node", "id": 2488631442, "lat": 34.4198593, "lon": 45.2149078, "tags": {"alt_name": "\u0645\u062d\u0645\u062f", "int_name": "Mu\u1e29ammad, \u0645\u062d\u0645\u062f, Muhammad, \u0645\u062d\u0645\u062f", "name": "\u0645\u062d\u0645\u062f", "name:ar": "\u0645\u062d\u0645\u062f", "name:ar1": "\u0645\u062d\u0645\u062f", "name:de": "Muhammad", "name:en": "Muhammad", "name:fr": "Muhammad", "place": "village"}}, {"type": "node", "id": 2488631451, "lat": 34.422407, "lon": 45.336351, "tags": {"alt_name": "\u0645\u0644\u0627 \u0643\u0646\u0627\u0631", "int_name": "Mull\u0101 Kan\u0101r, \u0645\u0644\u0627 \u0643\u0646\u0627\u0631, Mulla Kanar, \u0645\u0644\u0627 \u0643\u0646\u0627\u0631", "name": "\u0645\u0644\u0627 \u0643\u0646\u0627\u0631", "name:ar": "\u0645\u0644\u0627 \u0643\u0646\u0627\u0631", "name:ar1": "\u0645\u0644\u0627 \u0643\u0646\u0627\u0631", "name:de": "Mulla Kanar", "name:en": "Mulla Kanar", "name:fr": "Mulla Kanar", "place": "village"}}, {"type": "node", "id": 2488631585, "lat": 34.446418, "lon": 45.332564, "tags": {"alt_name": "\u0633\u064a\u062f", "int_name": "Saiyid, Sayyid, \u0633\u064a\u062f, Saiyid, Sayyid, \u0633\u064a\u062f", "name": "\u0633\u064a\u062f", "name:ar": "\u0633\u064a\u062f", "name:ar1": "\u0633\u064a\u062f", "name:de": "Saiyid", "name:en": "Saiyid", "name:fr": "Saiyid", "place": "village"}}, {"type": "node", "id": 2488631640, "lat": 34.5748714, "lon": 45.0950645, "tags": {"name": "\u0634\u06ce\u062a\u06a9\u0627\u0646 \u0633\u0627\u0644\u0645", "name:ar": "\u0634\u06cc\u062a\u06a9\u0627\u0646 \u0633\u0627\u0644\u0645", "name:en": "Shetkan Salm", "place": "village", "wikidata": "Q61391968", "wikipedia": "ckb:\u0634\u06ce\u062a\u06a9\u0627\u0646 \u0633\u0627\u0644\u0645"}}, {"type": "node", "id": 2488631682, "lat": 34.5401706, "lon": 45.3333794, "tags": {"alt_name": "\u0634\u064a\u0631\u0648\u0646\u062f", "int_name": "Sharawand Abd All\u0101h \u0100gh\u0101, Sher\u0101wand, Shirwand, Sh\u012brwand, \u0634\u064a\u0631\u0648\u0646\u062f, Sharawand Abd Allah Agha, Sherawand, Shirwand, Shirwand, \u0634\u064a\u0631\u0648\u0646\u062f", "name": "\u0634\u064a\u0631\u0648\u0646", "name:ar": "\u0634\u064a\u0631\u0648\u0646", "name:ckb": "\u0634\u06ce\u0631\u06d5\u0648\u06d5\u0646", "name:de": "Sharawan", "name:en": "Sharawan", "name:fr": "Sharawan", "place": "village", "wikidata": "Q61390879", "wikipedia": "ckb:\u0634\u06ce\u0631\u06d5\u0648\u06d5\u0646"}}, {"type": "node", "id": 2488631709, "lat": 34.4336849, "lon": 45.3331376, "tags": {"name": "\u0634\u06d5\u0648\u06a9\u06d5\u062a \u0628\u06d5\u06af", "name:ar": "\u0634\u0648\u0643\u0629 \u0628\u064a\u0643", "name:ar1": "\u0634\u0648\u0643\u0629 \u0628\u064a\u0643", "name:de": "Shaukat Beg", "name:en": "Shaukat Beg", "name:fr": "Shaukat Beg", "place": "village"}}, {"type": "node", "id": 2488631718, "lat": 34.5570466, "lon": 45.2500113, "tags": {"alt_name": "\u0634\u064a\u062e \u0644\u0646\u0643\u0631 \u0627\u0644\u062c\u062f\u064a\u062f\u0629", "int_name": "Shaykh Langar i T\u0101za, Shaykh Lankar al Jad\u012bdah, Shekh Langar, \u0634\u064a\u062e \u0644\u0646\u0643\u0631 \u0627\u0644\u062c\u062f\u064a\u062f\u0629, \u0634\u064a\u062e \u0644\u0646\u0643\u0631 \u0627\u0644\u062c\u062f\u064a\u062f\u0647, Shaykh Langar i Taza, Shaykh Lankar al Jadidah, Shekh Langar, \u0634\u064a\u062e \u0644\u0646\u0643\u0631 \u0627\u0644\u062c\u062f\u064a\u062f\u0629, \u0634\u064a\u062e \u0644\u0646\u0643\u0631 \u0627\u0644\u062c\u062f\u064a\u062f\u0647", "name": "\u0634\u06ce\u062e \u0644\u06d5\u0646\u06af\u06d5\u0631\u06cc \u06af\u06d5\u0648\u0631\u06d5", "name:ar": "\u0634\u064a\u062e \u0644\u0646\u0643\u0631 \u0627\u0644\u06a9\u0628\u06cc\u0631", "name:ar1": "\u0634\u064a\u062e \u0644\u0646\u0643\u0631 \u0627\u0644\u062c\u062f\u064a\u062f\u0629", "name:de": "Great Shaykh Langar", "name:en": "Great Shaykh Langar", "name:fr": "Great Shaykh Langar", "name:ku-Arab": "\u0634\u06ce\u062e \u0644\u0647\u200c\u0646\u06af\u0647\u200c\u0631 \u062a\u0627\u0632\u0647\u200c", "place": "village", "wikidata": "Q61391961", "wikipedia": "ckb:\u0634\u06ce\u062e \u0644\u06d5\u0646\u06af\u06d5\u0631\u06cc \u06af\u06d5\u0648\u0631\u06d5"}}, {"type": "node", "id": 2488631730, "lat": 34.4200863, "lon": 45.2141449, "tags": {"name": "\u0634\u06ce\u0631\u06a9", "name:ar": "\u0634\u064a\u0631\u0643", "place": "village"}}, {"type": "node", "id": 2488631762, "lat": 34.357446, "lon": 45.199116, "tags": {"alt_name": "\u062a\u0644 \u0639\u0628\u0627\u0633", "int_name": "Tall Abb\u0101s, \u062a\u0644 \u0639\u0628\u0627\u0633, Tall Abbas, \u062a\u0644 \u0639\u0628\u0627\u0633", "name": "\u062a\u0644 \u0639\u0628\u0627\u0633", "name:ar": "\u062a\u0644 \u0639\u0628\u0627\u0633", "name:ar1": "\u062a\u0644 \u0639\u0628\u0627\u0633", "name:de": "Tall Abbas", "name:en": "Tall Abbas", "name:fr": "Tall Abbas", "place": "village"}}, {"type": "node", "id": 2488631806, "lat": 34.5578488, "lon": 45.3277567, "tags": {"name": "\u062a\u0648\u0628 \u0639\u0633\u0643\u0631", "name:ar": "\u062a\u0648\u0628 \u0639\u0633\u0643\u0631", "name:ckb": "\u062a\u06c6\u067e \u0639\u06d5\u0633\u06a9\u06d5\u0631", "name:de": "Tob Askar", "name:en": "Tob Askar", "name:fr": "Tob Askar", "place": "village", "wikidata": "Q61390756", "wikipedia": "ckb:\u062a\u06c6\u067e \u0639\u06d5\u0633\u06a9\u06d5\u0631"}}, {"type": "node", "id": 2489358527, "lat": 34.6434849, "lon": 45.3871171, "tags": {"alt_name": "\u0628\u0631\u0646\u062c\u064a \u0642\u0644\u0639\u0629 \u0627\u0644\u0633\u0641\u0644\u0649", "int_name": "Barbagh\u012b Qalah, Barinj\u012b Qalat as Sufl\u00e1, Birinj\u012b Qalah, Qala Birinji, Qalat Birinj\u012b, Qula Birinji", "name": "\u0628\u0631\u0646\u062c\u064a \u0642\u0644\u0639\u0629 \u0627\u0644\u0633\u0641\u0644\u0649", "name:ar": "\u0628\u0631\u0646\u062c\u064a \u0642\u0644\u0639\u0629 \u0627\u0644\u0633\u0641\u0644\u0649", "name:ar1": "\u0628\u0631\u0646\u062c\u064a \u0642\u0644\u0639\u0629 \u0627\u0644\u0633\u0641\u0644\u0649", "name:de": "Barbaghi Qalah", "name:en": "Barbaghi Qalah", "name:fr": "Barbaghi Qalah", "place": "village"}}, {"type": "node", "id": 2489358535, "lat": 34.6000812, "lon": 45.2031152, "tags": {"name": "\u0686\u0627\u06b5\u06d5\u0633\u0648\u0631\u06a9", "name:ar": "\u062c\u0627\u0644\u0629\u0633\u0648\u0631\u06a9", "name:en": "Chalasurk", "place": "village", "wikidata": "Q61391928", "wikipedia": "ckb:\u0686\u0627\u06b5\u06d5\u0633\u0648\u0631\u06a9"}}, {"type": "node", "id": 2489358541, "lat": 34.744683, "lon": 45.303203, "tags": {"name": "\u06af\u06c6\u0628\u0627\u0646", "name:ar": "\u0643\u0648\u0628\u0627\u0646", "name:ckb": "\u06af\u06c6\u0628\u0627\u0646", "name:en": "Goban", "name:ku": "Goban", "place": "village", "wikidata": "Q61391038", "wikipedia": "ckb:\u06af\u06c6\u0628\u0627\u0646"}}, {"type": "node", "id": 2489358545, "lat": 34.7107155, "lon": 45.4030435, "tags": {"alt_name": "\u062d\u0633\u0646 \u0645\u062d\u0629", "int_name": "\u1e28asan Maba, \u1e28asan Ma\u1e29a, Hasan Mha, \u1e28asan Mi\u1e29ah, \u062d\u0633\u0646 \u0645\u062d\u0629, \u062d\u0633\u0646 \u0645\u062d\u0647, Hasan Maba, Hasan Maha, Hasan Mha, Hasan Mihah, \u062d\u0633\u0646 \u0645\u062d\u0629, \u062d\u0633\u0646 \u0645\u062d\u0647", "is_in": "Iraq , \u062c\u0645\u0647\u0648\u0631\u064a\u0629 \u0627\u0644\u0639\u0631\u0627\u0642", "name": "\u062d\u06d5\u0633\u06d5\u0646 \u0645\u06d5\u062d\u06d5", "name:ar": "\u062d\u0633\u0646 \u0645\u062d\u0629", "name:ar1": "\u062d\u0633\u0646 \u0645\u062d\u0629", "name:de": "Hassan Maha", "name:en": "Hassan Maha", "name:fr": "Hassan Maha", "place": "village", "wikidata": "Q61390997", "wikipedia": "ckb:\u062d\u06d5\u0633\u06d5\u0646 \u0645\u06d5\u062d\u06d5"}}, {"type": "node", "id": 2489358655, "lat": 34.677111, "lon": 45.1875991, "tags": {"alt_name": "\u0633\u064a\u062f\u0629", "int_name": "Saida, Sayyidah, Sh\u0101kal S\u012bda, S\u012bdah, \u0633\u064a\u062f\u0629, \u0633\u064a\u062f\u0647, Saida, Sayyidah, Shakal Sida, Sidah, \u0633\u064a\u062f\u0629, \u0633\u064a\u062f\u0647", "name": "\u0633\u06d5\u06cc\u062f\u06d5", "name:ar": "\u0633\u06cc\u062f\u0629", "name:en": "Sayda", "place": "village", "wikidata": "Q61391726", "wikipedia": "ckb:\u0633\u06d5\u06cc\u062f\u06d5"}}, {"type": "node", "id": 2489358672, "lat": 34.6764966, "lon": 45.1879565, "tags": {"alt_name": "\u0633\u0631 \u0642\u0644\u0639\u0629", "int_name": "Sir Qala, Sirr Qalah, Sir Qala, Sirr Qalah", "place": "village"}}, {"type": "node", "id": 2489358698, "lat": 34.6952502, "lon": 45.4303823, "tags": {"is_in": "Iraq , \u062c\u0645\u0647\u0648\u0631\u064a\u0629 \u0627\u0644\u0639\u0631\u0627\u0642", "name": "\u062a\u0627\u0632\u06d5 \u062f\u06ce", "name:ar": "\u062a\u0627\u0632\u0629 \u062f\u064a", "name:ar1": "\u062a\u0627\u0632\u0629 \u062f\u064a", "name:de": "Tazade", "name:en": "Tazade", "name:fr": "Tazade", "place": "village", "wikidata": "Q61390980", "wikipedia": "ckb:\u062a\u0627\u0632\u06d5\u062f\u06ce\u060c \u06a9\u06d5\u0644\u0627\u0631"}}, {"type": "node", "id": 2489358795, "lat": 34.7345484, "lon": 45.272933, "tags": {"alt_name": "\u0648\u0627\u062f\u064a \u0642\u0631\u0647\u062c\u0644", "int_name": "W\u0101d\u012b Qarahchil, \u0648\u0627\u062f\u064a \u0642\u0631\u0629\u0686\u0644, \u0648\u0627\u062f\u064a \u0642\u0631\u0647 \u0686\u0644, Wadi Qarahchil, \u0648\u0627\u062f\u064a \u0642\u0631\u0629\u0686\u0644, \u0648\u0627\u062f\u064a \u0642\u0631\u0647 \u0686\u0644", "name": "\u06af\u06d5\u0631\u0645\u06a9 \u062d\u0627\u062c\u06cc \u0639\u06d5\u0644\u06cc", "name:ar": "\u06a9\u0631\u0645\u0643 \u062d\u0627\u062c\u064a \u0639\u0644\u064a", "name:ar1": "\u0648\u0627\u062f\u064a \u0642\u0631\u0647\u062c\u0644", "name:de": "Garmak Haji Ali", "name:en": "Garmak Haji Ali", "name:fr": "Garmak Haji Ali", "place": "village", "wikidata": "Q61391037", "wikipedia": "ckb:\u06af\u06d5\u0631\u0645\u06a9 \u062d\u0627\u062c\u06cc \u0639\u06d5\u0644\u06cc"}}, {"type": "node", "id": 2489358868, "lat": 34.7395321, "lon": 45.3753414, "tags": {"name": "\u0698\u0627\u06b5\u06d5\u06cc \u0633\u06d5\u0641\u06d5\u0631", "name:ar": "\u0632\u0627\u0644\u0629 \u0633\u0641\u0631", "name:en": "Zhalay Safar", "place": "village", "wikidata": "Q61391012", "wikipedia": "ckb:\u0698\u0627\u06b5\u06d5\u06cc \u0633\u06d5\u0641\u06d5\u0631"}}, {"type": "node", "id": 2489367922, "lat": 34.7668276, "lon": 45.468361, "tags": {"alt_name": "\u0642\u0631\u064a\u0629 \u0639\u064a\u0633\u0627\u0648\u064a", "int_name": "\u012as\u0101w\u012b, Aisay, Qaryat \u012as\u0101w\u012b, \u0639\u064a\u0633\u0627\u0648\u064a, \u0642\u0631\u064a\u0629 \u0639\u064a\u0633\u0627\u0648\u064a, Isawi, Aisay, Qaryat Isawi, \u0639\u064a\u0633\u0627\u0648\u064a, \u0642\u0631\u064a\u0629 \u0639\u064a\u0633\u0627\u0648\u064a", "is_in": "Iraq , \u062c\u0645\u0647\u0648\u0631\u064a\u0629 \u0627\u0644\u0639\u0631\u0627\u0642", "name": "\u0639\u06cc\u0633\u0627\u06cc\u06cc", "name:ar": "\u0639\u06cc\u0633\u0627\u06cc\u064a", "name:ar1": "\u0642\u0631\u064a\u0629 \u0639\u064a\u0633\u0627\u0648\u064a", "name:de": "Isawi", "name:en": "Isaee", "name:fr": "Isawi", "name:ku": "\u06af\u0648\u0646\u062f\u06cc \u0639\u06cc\u0633\u0627\u06cc\u06cc", "place": "village", "wikidata": "Q61391018", "wikipedia": "ckb:\u0639\u06cc\u0633\u0627\u06cc\u06cc"}}, {"type": "node", "id": 2489367994, "lat": 34.6156437, "lon": 45.1727379, "tags": {"alt_name": "\u0645\u0644\u0627 \u062d\u0633\u064a\u0646", "int_name": "Mull\u0101 \u1e28usayn, \u0645\u0644\u0627 \u062d\u0633\u064a\u0646, Mulla Husayn, \u0645\u0644\u0627 \u062d\u0633\u064a\u0646", "name": "\u062d\u0648\u0633\u06ce\u0646 \u06a9\u0648\u0631\u062f\u06cc", "name:ar": "\u062d\u0633\u064a\u0646 \u0627\u0644\u0643\u0631\u062f\u064a", "name:ar1": "\u0645\u0644\u0627 \u062d\u0633\u064a\u0646", "name:de": "Hussein Kurdi", "name:en": "Hussein Kurdi", "name:fr": "Hussein Kurdi", "place": "village", "wikidata": "Q61391998", "wikipedia": "ckb:\u062d\u0633\u06ce\u0646 \u06a9\u0648\u0631\u062f\u06cc"}}, {"type": "node", "id": 2489368051, "lat": 34.6252101, "lon": 45.0798801, "tags": {"name": "\u0633\u06d5\u06cc\u062f\u062d\u0633\u06ce\u0646", "name:ar": "\u0633\u064a\u062f \u062d\u0633\u064a\u0646", "name:en": "Sayyid Hussein", "place": "village", "wikidata": "Q61391982", "wikipedia": "ckb:\u0633\u06d5\u06cc\u062f\u062d\u0633\u06ce\u0646"}}, {"type": "node", "id": 2489368052, "lat": 34.6281891, "lon": 45.1317166, "tags": {"name": "\u0633\u06d5\u06cc\u062f \u0645\u0627\u06b5\u06d5\u06b5\u0627", "name:ar": "\u0633\u064a\u062f\u0645\u0627\u0644 \u0627\u0644\u0644\u0647", "name:en": "Sayedmal Alla", "place": "village", "wikidata": "Q61391978", "wikipedia": "ckb:\u0633\u06d5\u06cc\u062f\u0645\u0627\u06b5 \u0626\u06d5\u06b5\u0627"}}, {"type": "node", "id": 2489368163, "lat": 34.7378145, "lon": 45.0844076, "tags": {"name": "\u0648\u06d5\u0644\u06cc \u0647\u06d5\u06cc\u06d5\u0631", "name:ar": "\u0648\u0644\u064a \u062d\u064a\u062f\u0631", "name:ar1": "\u0648\u0644\u064a \u062d\u064a\u062f\u0631", "name:de": "Wali Haidar", "name:en": "Wali Haidar", "name:fr": "Wali Haidar", "place": "village", "wikidata": "Q61391653", "wikipedia": "ckb:\u0648\u06d5\u0644\u06cc \u06be\u06d5\u06cc\u06d5\u0631"}}, {"type": "node", "id": 2489368183, "lat": 34.704056, "lon": 45.1339802, "tags": {"alt_name": "\u0632\u0643\u064a", "int_name": "Zak\u012b, Zaky, \u0632\u0643\u064a, Zaki, Zaky, \u0632\u0643\u064a", "name": "\u0632\u06d5\u06a9\u06cc \u062d\u0627\u062c\u06cc \u0639\u06d5\u0648\u0627\u062f", "name:ar": "\u0632\u0643\u064a", "name:ar1": "\u0632\u0643\u064a", "name:de": "Zaki", "name:en": "Zaki", "name:fr": "Zaki", "place": "village", "wikidata": "Q61391715", "wikipedia": "ckb:\u0632\u06d5\u06a9\u06cc \u062d\u0627\u062c\u06cc \u0639\u06d5\u0648\u0627\u062f"}}, {"type": "node", "id": 2657738031, "lat": 34.7651793, "lon": 45.4699198}, {"type": "node", "id": 2657738036, "lat": 34.7679159, "lon": 45.4656529}, {"type": "node", "id": 2657738042, "lat": 34.7683919, "lon": 45.4650521}, {"type": "node", "id": 2657738060, "lat": 34.7643729, "lon": 45.4710817}, {"type": "node", "id": 2657738092, "lat": 34.7694494, "lon": 45.4689789}, {"type": "node", "id": 2657738108, "lat": 34.7666424, "lon": 45.4719797}, {"type": "node", "id": 2657738110, "lat": 34.7700664, "lon": 45.4664469}, {"type": "node", "id": 2657738156, "lat": 34.7671756, "lon": 45.470202}, {"type": "node", "id": 2657738189, "lat": 34.7649193, "lon": 45.4720688}, {"type": "node", "id": 2657738192, "lat": 34.7669817, "lon": 45.4648804}, {"type": "node", "id": 2657738201, "lat": 34.7667305, "lon": 45.4670874}, {"type": "node", "id": 2657738217, "lat": 34.7664132, "lon": 45.4663793}, {"type": "node", "id": 2657738238, "lat": 34.7647783, "lon": 45.4682278}, {"type": "node", "id": 2657738258, "lat": 34.7647607, "lon": 45.4695797}, {"type": "node", "id": 2657738264, "lat": 34.7684976, "lon": 45.4687643}, {"type": "node", "id": 2657738302, "lat": 34.7700487, "lon": 45.4686141}, {"type": "node", "id": 2665489738, "lat": 34.6800223, "lon": 45.1852376}, {"type": "node", "id": 2665489745, "lat": 34.6745461, "lon": 45.1896215}, {"type": "node", "id": 2665489794, "lat": 34.6745623, "lon": 45.1879726}, {"type": "node", "id": 2665489808, "lat": 34.6758179, "lon": 45.1856448}, {"type": "node", "id": 2665489833, "lat": 34.6782484, "lon": 45.1841597}, {"type": "node", "id": 2665489869, "lat": 34.6764051, "lon": 45.1847538}, {"type": "node", "id": 2665489910, "lat": 34.674994, "lon": 45.1931929}, {"type": "node", "id": 2665489937, "lat": 34.6739953, "lon": 45.1915876}, {"type": "node", "id": 2665489973, "lat": 34.6740949, "lon": 45.1922492}, {"type": "node", "id": 2665489981, "lat": 34.6789145, "lon": 45.1848107}, {"type": "node", "id": 2665490001, "lat": 34.6779818, "lon": 45.1840452}, {"type": "node", "id": 3285070780, "lat": 34.5199671, "lon": 45.3730062}, {"type": "node", "id": 3285070784, "lat": 34.5204474, "lon": 45.3723378}, {"type": "node", "id": 3285070786, "lat": 34.5208144, "lon": 45.374256}, {"type": "node", "id": 3285070789, "lat": 34.5216372, "lon": 45.3721485}, {"type": "node", "id": 3285070792, "lat": 34.5219808, "lon": 45.3744665}, {"type": "node", "id": 3285070793, "lat": 34.5224712, "lon": 45.3732374}, {"type": "node", "id": 3285070794, "lat": 34.5227679, "lon": 45.3738053}, {"type": "node", "id": 3290716245, "lat": 34.4604721, "lon": 45.3270651}, {"type": "node", "id": 3290716246, "lat": 34.4604828, "lon": 45.3282697}, {"type": "node", "id": 3290716253, "lat": 34.4607841, "lon": 45.3283411}, {"type": "node", "id": 3290716260, "lat": 34.4610356, "lon": 45.3269916}, {"type": "node", "id": 3290717362, "lat": 34.4610534, "lon": 45.3273636}, {"type": "node", "id": 3290717369, "lat": 34.4614047, "lon": 45.3275452}, {"type": "node", "id": 3290717370, "lat": 34.4614278, "lon": 45.3284146}, {"type": "node", "id": 3301033944, "lat": 34.5615138, "lon": 45.4656601}, {"type": "node", "id": 3301033946, "lat": 34.5606632, "lon": 45.4643651}, {"type": "node", "id": 3301033947, "lat": 34.5635248, "lon": 45.4663352}, {"type": "node", "id": 3301033949, "lat": 34.5642573, "lon": 45.4583648}, {"type": "node", "id": 3301033955, "lat": 34.5680326, "lon": 45.4674984}, {"type": "node", "id": 3301033961, "lat": 34.5666297, "lon": 45.458369}, {"type": "node", "id": 3301033967, "lat": 34.5697631, "lon": 45.4670235}, {"type": "node", "id": 3301033969, "lat": 34.5698524, "lon": 45.4635873}, {"type": "node", "id": 3301050261, "lat": 34.7676824, "lon": 45.4224962}, {"type": "node", "id": 3301050262, "lat": 34.767854, "lon": 45.4215504}, {"type": "node", "id": 3301050263, "lat": 34.7682919, "lon": 45.4214931}, {"type": "node", "id": 3301050264, "lat": 34.7680777, "lon": 45.4230259}, {"type": "node", "id": 3301050268, "lat": 34.7683135, "lon": 45.4233458}, {"type": "node", "id": 3301050269, "lat": 34.7686341, "lon": 45.4214445}, {"type": "node", "id": 3301050271, "lat": 34.7687491, "lon": 45.4211472}, {"type": "node", "id": 3301050272, "lat": 34.768654, "lon": 45.4206705}, {"type": "node", "id": 3301050277, "lat": 34.7692306, "lon": 45.4198544}, {"type": "node", "id": 3301050278, "lat": 34.7694386, "lon": 45.4198887}, {"type": "node", "id": 3301050280, "lat": 34.7694739, "lon": 45.4241533}, {"type": "node", "id": 3301050282, "lat": 34.7697356, "lon": 45.4191349}, {"type": "node", "id": 3301050286, "lat": 34.7703235, "lon": 45.4251742}, {"type": "node", "id": 3301050287, "lat": 34.770406, "lon": 45.4241321}, {"type": "node", "id": 3301050289, "lat": 34.7705058, "lon": 45.4189992}, {"type": "node", "id": 3301050290, "lat": 34.7712162, "lon": 45.4256565}, {"type": "node", "id": 3301050297, "lat": 34.7718973, "lon": 45.4187332}, {"type": "node", "id": 3301050298, "lat": 34.7721371, "lon": 45.425729}, {"type": "node", "id": 3301050301, "lat": 34.7727549, "lon": 45.4253307}, {"type": "node", "id": 3301050303, "lat": 34.7731916, "lon": 45.4254453}, {"type": "node", "id": 3301050304, "lat": 34.7735003, "lon": 45.4191107}, {"type": "node", "id": 3301050306, "lat": 34.7735707, "lon": 45.4253416}, {"type": "node", "id": 3301050307, "lat": 34.7737273, "lon": 45.4247367}, {"type": "node", "id": 3301050308, "lat": 34.773915, "lon": 45.4250155}, {"type": "node", "id": 3301050311, "lat": 34.7744781, "lon": 45.4240841}, {"type": "node", "id": 3301050312, "lat": 34.7744554, "lon": 45.4230366}, {"type": "node", "id": 3301050313, "lat": 34.7745381, "lon": 45.4200674}, {"type": "node", "id": 3301050314, "lat": 34.7742687, "lon": 45.423447}, {"type": "node", "id": 3301050315, "lat": 34.7741365, "lon": 45.423648}, {"type": "node", "id": 3301050316, "lat": 34.7750058, "lon": 45.4210183}, {"type": "node", "id": 3301050317, "lat": 34.7750574, "lon": 45.4225501}, {"type": "node", "id": 3301050318, "lat": 34.775408, "lon": 45.4218972}, {"type": "node", "id": 3301050319, "lat": 34.7754286, "lon": 45.4214577}, {"type": "node", "id": 3301078054, "lat": 34.6902331, "lon": 45.1485721}, {"type": "node", "id": 3301078161, "lat": 34.6940823, "lon": 45.1505617}, {"type": "node", "id": 3301078166, "lat": 34.6933173, "lon": 45.1496087}, {"type": "node", "id": 3315838722, "lat": 34.6743285, "lon": 45.1908328}, {"type": "node", "id": 3320082221, "lat": 34.6785399, "lon": 45.1843848}, {"type": "node", "id": 3328736487, "lat": 34.5278081, "lon": 45.4290177}, {"type": "node", "id": 3328736489, "lat": 34.5281117, "lon": 45.4275987}, {"type": "node", "id": 3328736491, "lat": 34.528249, "lon": 45.4304714}, {"type": "node", "id": 3328736494, "lat": 34.5285507, "lon": 45.4266674}, {"type": "node", "id": 3328736519, "lat": 34.5301275, "lon": 45.4309705}, {"type": "node", "id": 3328736526, "lat": 34.5296021, "lon": 45.4249775}, {"type": "node", "id": 3328736552, "lat": 34.5306257, "lon": 45.4255493}, {"type": "node", "id": 3328736553, "lat": 34.5307069, "lon": 45.4267784}, {"type": "node", "id": 3328749366, "lat": 34.48841, "lon": 45.1193438}, {"type": "node", "id": 3370575819, "lat": 34.6912671, "lon": 45.1557644}, {"type": "node", "id": 3383435339, "lat": 34.7419566, "lon": 45.3010829}, {"type": "node", "id": 3383435340, "lat": 34.7455693, "lon": 45.3017809}, {"type": "node", "id": 3383435341, "lat": 34.7467083, "lon": 45.3038081}, {"type": "node", "id": 3383435342, "lat": 34.7466537, "lon": 45.3025426}, {"type": "node", "id": 3383435343, "lat": 34.7472285, "lon": 45.3033038}, {"type": "node", "id": 3383435344, "lat": 34.7446366, "lon": 45.2995058}, {"type": "node", "id": 3383435345, "lat": 34.7455707, "lon": 45.2993587}, {"type": "node", "id": 3383435346, "lat": 34.7417362, "lon": 45.3030141}, {"type": "node", "id": 3383435347, "lat": 34.7459371, "lon": 45.2997161}, {"type": "node", "id": 3383435348, "lat": 34.7422281, "lon": 45.3061582}, {"type": "node", "id": 3398947842, "lat": 34.7666633, "lon": 45.4669374}, {"type": "node", "id": 3433591549, "lat": 34.772558, "lon": 45.3332046}, {"type": "node", "id": 3433591550, "lat": 34.772245, "lon": 45.3327429}, {"type": "node", "id": 3433591551, "lat": 34.7718658, "lon": 45.3323912}, {"type": "node", "id": 3433591552, "lat": 34.7715046, "lon": 45.332655}, {"type": "node", "id": 3433591553, "lat": 34.7712518, "lon": 45.3324351}, {"type": "node", "id": 3433591554, "lat": 34.7709448, "lon": 45.3321347}, {"type": "node", "id": 3433591555, "lat": 34.7706739, "lon": 45.3316144}, {"type": "node", "id": 3433591556, "lat": 34.7708665, "lon": 45.3312846}, {"type": "node", "id": 3433591557, "lat": 34.7711675, "lon": 45.3309988}, {"type": "node", "id": 3433591558, "lat": 34.7711976, "lon": 45.3306764}, {"type": "node", "id": 3433591559, "lat": 34.7710953, "lon": 45.3303027}, {"type": "node", "id": 3433591560, "lat": 34.7707281, "lon": 45.3301708}, {"type": "node", "id": 3433591561, "lat": 34.7703609, "lon": 45.3301195}, {"type": "node", "id": 3433591562, "lat": 34.7701081, "lon": 45.3302294}, {"type": "node", "id": 3433591563, "lat": 34.7701863, "lon": 45.3306617}, {"type": "node", "id": 3433591564, "lat": 34.7703007, "lon": 45.3309475}, {"type": "node", "id": 3433591565, "lat": 34.7701502, "lon": 45.331204}, {"type": "node", "id": 3433591566, "lat": 34.7699516, "lon": 45.3311674}, {"type": "node", "id": 3433591567, "lat": 34.7697469, "lon": 45.3314312}, {"type": "node", "id": 3433591568, "lat": 34.7695061, "lon": 45.3318122}, {"type": "node", "id": 3433591569, "lat": 34.7695061, "lon": 45.3322373}, {"type": "node", "id": 3433591570, "lat": 34.7695603, "lon": 45.333102}, {"type": "node", "id": 3433591571, "lat": 34.769789, "lon": 45.3333438}, {"type": "node", "id": 3433591572, "lat": 34.7699335, "lon": 45.3337615}, {"type": "node", "id": 3433591573, "lat": 34.7699456, "lon": 45.3341719}, {"type": "node", "id": 3433591574, "lat": 34.7699997, "lon": 45.3346775}, {"type": "node", "id": 3433591575, "lat": 34.7702164, "lon": 45.3349413}, {"type": "node", "id": 3433591576, "lat": 34.7704211, "lon": 45.3348021}, {"type": "node", "id": 3433591577, "lat": 34.7705957, "lon": 45.3348314}, {"type": "node", "id": 3433591578, "lat": 34.7709147, "lon": 45.3346555}, {"type": "node", "id": 3433591579, "lat": 34.770993, "lon": 45.3345163}, {"type": "node", "id": 3433591580, "lat": 34.771318, "lon": 45.3341499}, {"type": "node", "id": 3433591581, "lat": 34.7712097, "lon": 45.3339227}, {"type": "node", "id": 3433591582, "lat": 34.7714625, "lon": 45.3336516}, {"type": "node", "id": 3433591583, "lat": 34.7716611, "lon": 45.3334024}, {"type": "node", "id": 3433591584, "lat": 34.7720163, "lon": 45.3336736}, {"type": "node", "id": 3433591585, "lat": 34.7723052, "lon": 45.3337615}, {"type": "node", "id": 3433591586, "lat": 34.7725339, "lon": 45.333505}, {"type": "node", "id": 3441018034, "lat": 34.6327193, "lon": 45.2083363}, {"type": "node", "id": 3441018035, "lat": 34.6300109, "lon": 45.2089869}, {"type": "node", "id": 3441018036, "lat": 34.630188, "lon": 45.2106784}, {"type": "node", "id": 3441018037, "lat": 34.6310313, "lon": 45.2112633}, {"type": "node", "id": 3442772043, "lat": 34.4018324, "lon": 45.3481687}, {"type": "node", "id": 3442772044, "lat": 34.4013285, "lon": 45.3473413}, {"type": "node", "id": 3442772045, "lat": 34.4006783, "lon": 45.3471049}, {"type": "node", "id": 3442772046, "lat": 34.4005158, "lon": 45.3464154}, {"type": "node", "id": 3442772047, "lat": 34.3999794, "lon": 45.3460805}, {"type": "node", "id": 3442772048, "lat": 34.3993942, "lon": 45.3466912}, {"type": "node", "id": 3442772049, "lat": 34.3992967, "lon": 45.3473019}, {"type": "node", "id": 3442772050, "lat": 34.3988578, "lon": 45.3480111}, {"type": "node", "id": 3442772051, "lat": 34.398614, "lon": 45.3490158}, {"type": "node", "id": 3442772052, "lat": 34.3983702, "lon": 45.3504538}, {"type": "node", "id": 3442772053, "lat": 34.3977061, "lon": 45.3512333}, {"type": "node", "id": 3442772054, "lat": 34.3973624, "lon": 45.3506508}, {"type": "node", "id": 3442772055, "lat": 34.396956, "lon": 45.3501583}, {"type": "node", "id": 3442772056, "lat": 34.3963383, "lon": 45.3485627}, {"type": "node", "id": 3442772057, "lat": 34.3956556, "lon": 45.3490355}, {"type": "node", "id": 3442772058, "lat": 34.3944202, "lon": 45.3498825}, {"type": "node", "id": 3442772059, "lat": 34.3939813, "lon": 45.3511039}, {"type": "node", "id": 3442772060, "lat": 34.3934124, "lon": 45.3518131}, {"type": "node", "id": 3442772061, "lat": 34.3926809, "lon": 45.3527193}, {"type": "node", "id": 3442772062, "lat": 34.392307, "lon": 45.3544725}, {"type": "node", "id": 3442772063, "lat": 34.392372, "lon": 45.355556}, {"type": "node", "id": 3442772064, "lat": 34.393006, "lon": 45.3566592}, {"type": "node", "id": 3442772065, "lat": 34.3926484, "lon": 45.3573486}, {"type": "node", "id": 3442772066, "lat": 34.392941, "lon": 45.3589443}, {"type": "node", "id": 3442772067, "lat": 34.3932986, "lon": 45.3589246}, {"type": "node", "id": 3442772068, "lat": 34.3943389, "lon": 45.3580381}, {"type": "node", "id": 3442772069, "lat": 34.3954931, "lon": 45.3573093}, {"type": "node", "id": 3442772070, "lat": 34.3965497, "lon": 45.3565016}, {"type": "node", "id": 3442772071, "lat": 34.3973461, "lon": 45.3556545}, {"type": "node", "id": 3442772072, "lat": 34.3985002, "lon": 45.354374}, {"type": "node", "id": 3442772073, "lat": 34.3992967, "lon": 45.3531527}, {"type": "node", "id": 3442772074, "lat": 34.4003857, "lon": 45.3508675}, {"type": "node", "id": 3442953259, "lat": 34.3767165, "lon": 45.3245567}, {"type": "node", "id": 3442953260, "lat": 34.3762167, "lon": 45.3243356}, {"type": "node", "id": 3442953261, "lat": 34.3750185, "lon": 45.3245663}, {"type": "node", "id": 3442953262, "lat": 34.3748598, "lon": 45.3250951}, {"type": "node", "id": 3442953263, "lat": 34.3750423, "lon": 45.3260372}, {"type": "node", "id": 3442953264, "lat": 34.3749312, "lon": 45.326316}, {"type": "node", "id": 3442953265, "lat": 34.3752248, "lon": 45.3266717}, {"type": "node", "id": 3442953266, "lat": 34.375693, "lon": 45.327162}, {"type": "node", "id": 3442953267, "lat": 34.3761611, "lon": 45.3272101}, {"type": "node", "id": 3442953268, "lat": 34.37678, "lon": 45.3270371}, {"type": "node", "id": 3442953269, "lat": 34.3769546, "lon": 45.3263545}, {"type": "node", "id": 3442953270, "lat": 34.376907, "lon": 45.3255854}, {"type": "node", "id": 3442953271, "lat": 34.3768673, "lon": 45.3251239}, {"type": "node", "id": 3447553713, "lat": 34.3862571, "lon": 45.3643869}, {"type": "node", "id": 3447553714, "lat": 34.3850701, "lon": 45.3612674}, {"type": "node", "id": 3447553715, "lat": 34.3848234, "lon": 45.3606883}, {"type": "node", "id": 3447553716, "lat": 34.3838465, "lon": 45.3617596}, {"type": "node", "id": 3447553717, "lat": 34.3835816, "lon": 45.3621397}, {"type": "node", "id": 3447553718, "lat": 34.3826382, "lon": 45.3623274}, {"type": "node", "id": 3447553719, "lat": 34.3822759, "lon": 45.363098}, {"type": "node", "id": 3447553720, "lat": 34.3824494, "lon": 45.3643869}, {"type": "node", "id": 3447553721, "lat": 34.3810773, "lon": 45.3656011}, {"type": "node", "id": 3447553722, "lat": 34.3818019, "lon": 45.3675812}, {"type": "node", "id": 3447553723, "lat": 34.3822027, "lon": 45.3671516}, {"type": "node", "id": 3447553724, "lat": 34.3828656, "lon": 45.3690382}, {"type": "node", "id": 3447553725, "lat": 34.3847309, "lon": 45.3680669}, {"type": "node", "id": 3447553726, "lat": 34.383991, "lon": 45.3660494}, {"type": "node", "id": 3520229907, "lat": 34.5821, "lon": 45.5523, "tags": {"alt_name": "Shahsavar;Basti Hidayat;Hedayat-e Shahsavar", "alt_name:en": "Shahsavar;Basti Hidayat;Hedayat-e Shahsavar", "is_in:country": "Iran", "is_in:state": "Kermanshah", "name": "\u0647\u062f\u0627\u06cc\u062a", "name:en": "Hedayat", "place": "village", "source:name": "GNS"}}, {"type": "node", "id": 3520229955, "lat": 34.5104, "lon": 45.5837, "tags": {"is_in:country": "Iran", "is_in:state": "Kermanshah", "name": "\u0646\u0635\u0631\u0622\u0628\u0627\u062f", "name:en": "Nasrabad", "place": "village", "source:name": "GNS"}}, {"type": "node", "id": 3520230398, "lat": 34.474045, "lon": 45.587948, "tags": {"alt_name": "\u062a\u067e\u0647 \u0642\u0628\u0631\u0633\u062a\u0627\u0646", "alt_name:en": "Tappeh Qabrestan;Seyyed Asadollah", "is_in:country": "Iran", "is_in:state": "Kermanshah", "name": "\u0633\u06cc\u062f \u0633\u0639\u06cc\u062f", "name:en": "Seyyed Sa`id", "place": "village", "source:name": "GNS"}}, {"type": "node", "id": 3520230400, "lat": 34.442396, "lon": 45.591474, "tags": {"alt_name": "Seyyed Fotuh;Saiyid Fatu;Sayid Fata", "alt_name:en": "Seyyed Fotuh;Saiyid Fatu;Sayid Fata", "is_in:country": "Iran", "is_in:state": "Kermanshah", "name": "\u0633\u06cc\u062f \u0633\u0647\u0631\u0627\u0628", "name:en": "Seyyed Sohrab", "place": "village", "population": "85", "source:name": "GNS", "wikidata": "Q5853580", "wikipedia": "fa:\u0633\u06cc\u062f \u0633\u0647\u0631\u0627\u0628"}}, {"type": "node", "id": 3520230435, "lat": 34.583333, "lon": 45.55, "tags": {"is_in:country": "Iran", "is_in:state": "Kermanshah", "name": "\u0639\u0632\u06cc\u0632 \u062e\u0627\u0646", "name:en": "`Aziz Khan", "place": "village", "source:name": "GNS"}}, {"type": "node", "id": 3522343246, "lat": 34.3575, "lon": 45.548333, "tags": {"alt_name": "Gar Sadaf", "alt_name:en": "Gar Sadaf", "is_in:country": "Iran", "is_in:state": "Kermanshah", "name": "\u0642\u0631\u0647 \u0635\u062f\u0641", "name:en": "Qareh Sadaf", "place": "village", "source:name": "GNS"}}, {"type": "node", "id": 3628519774, "lat": 34.76954, "lon": 45.3327776}, {"type": "node", "id": 3682556963, "lat": 34.6538286, "lon": 45.3822075}, {"type": "node", "id": 3682556964, "lat": 34.6524082, "lon": 45.3825947}, {"type": "node", "id": 3682556965, "lat": 34.652989, "lon": 45.3843334}, {"type": "node", "id": 3682556966, "lat": 34.6533208, "lon": 45.3853129}, {"type": "node", "id": 3682556967, "lat": 34.6532734, "lon": 45.3862635}, {"type": "node", "id": 3682556968, "lat": 34.6535736, "lon": 45.3867533}, {"type": "node", "id": 3682556969, "lat": 34.654008, "lon": 45.3870318}, {"type": "node", "id": 3682556970, "lat": 34.6548374, "lon": 45.3870702}, {"type": "node", "id": 3682556971, "lat": 34.6550507, "lon": 45.3878864}, {"type": "node", "id": 3682556972, "lat": 34.6557695, "lon": 45.3876079}, {"type": "node", "id": 3682556973, "lat": 34.6565195, "lon": 45.3835823}, {"type": "node", "id": 3682556974, "lat": 34.6549621, "lon": 45.3815069}, {"type": "node", "id": 3725001564, "lat": 34.5065509, "lon": 45.5980571, "tags": {"is_in:country": "Iran", "is_in:state": "Kermanshah", "name": "\u0642\u0635\u0631 \u062c\u062f\u06cc\u062f", "place": "village"}}, {"type": "node", "id": 3838462789, "lat": 34.7456824, "lon": 45.3010103}, {"type": "node", "id": 3845055719, "lat": 34.7454419, "lon": 45.3061321}, {"type": "node", "id": 3845055720, "lat": 34.7456264, "lon": 45.3042478}, {"type": "node", "id": 3845063062, "lat": 34.7453276, "lon": 45.2994591}, {"type": "node", "id": 3845079105, "lat": 34.7458208, "lon": 45.2994719}, {"type": "node", "id": 3868164333, "lat": 34.6285847, "lon": 45.3652675}, {"type": "node", "id": 3868164336, "lat": 34.6298811, "lon": 45.3650202}, {"type": "node", "id": 3868164337, "lat": 34.629949, "lon": 45.3642065}, {"type": "node", "id": 3868164339, "lat": 34.6292307, "lon": 45.3640669}, {"type": "node", "id": 3868164340, "lat": 34.6284187, "lon": 45.3632485}, {"type": "node", "id": 3868164341, "lat": 34.6276403, "lon": 45.3630967}, {"type": "node", "id": 3868164343, "lat": 34.6275603, "lon": 45.3635813}, {"type": "node", "id": 3868164344, "lat": 34.6266339, "lon": 45.3634843}, {"type": "node", "id": 3868164345, "lat": 34.6266631, "lon": 45.363189}, {"type": "node", "id": 3868164347, "lat": 34.6256131, "lon": 45.3629869}, {"type": "node", "id": 3868164349, "lat": 34.6251679, "lon": 45.3653486}, {"type": "node", "id": 3868164352, "lat": 34.6273323, "lon": 45.3659658}, {"type": "node", "id": 3868164354, "lat": 34.6274759, "lon": 45.3650466}, {"type": "node", "id": 3885500663, "lat": 34.5608556, "lon": 45.5881198}, {"type": "node", "id": 3885500665, "lat": 34.5604256, "lon": 45.587834}, {"type": "node", "id": 3885500666, "lat": 34.5601979, "lon": 45.5878003}, {"type": "node", "id": 3885500667, "lat": 34.5600034, "lon": 45.5880634}, {"type": "node", "id": 3885500668, "lat": 34.5595867, "lon": 45.5883804}, {"type": "node", "id": 3885500669, "lat": 34.5592812, "lon": 45.5887785}, {"type": "node", "id": 3885500670, "lat": 34.5591756, "lon": 45.5891765}, {"type": "node", "id": 3885500671, "lat": 34.5593089, "lon": 45.5898241}, {"type": "node", "id": 3885500672, "lat": 34.5591867, "lon": 45.5902289}, {"type": "node", "id": 3885500673, "lat": 34.5590867, "lon": 45.5906539}, {"type": "node", "id": 3885500674, "lat": 34.5590756, "lon": 45.590917}, {"type": "node", "id": 3885500675, "lat": 34.5593645, "lon": 45.5910654}, {"type": "node", "id": 3885500676, "lat": 34.5595534, "lon": 45.5911261}, {"type": "node", "id": 3885500678, "lat": 34.5606211, "lon": 45.5893594}, {"type": "node", "id": 3885500679, "lat": 34.5607499, "lon": 45.5890835}, {"type": "node", "id": 3885500680, "lat": 34.5605557, "lon": 45.5889499}, {"type": "node", "id": 3885837902, "lat": 34.6097616, "lon": 45.5005601}, {"type": "node", "id": 3885837903, "lat": 34.6101296, "lon": 45.5007309}, {"type": "node", "id": 3885837905, "lat": 34.6098389, "lon": 45.5000595}, {"type": "node", "id": 3885837908, "lat": 34.6095349, "lon": 45.4998293}, {"type": "node", "id": 3885837913, "lat": 34.6093258, "lon": 45.5002856}, {"type": "node", "id": 4893916722, "lat": 34.5835503, "lon": 45.0848605, "tags": {"name": "\u0686\u06d5\u062a\u0627\u06b5", "name:ar": "\u062c\u062a\u0627\u0644", "name:en": "Chatal", "place": "village", "wikidata": "Q61392007", "wikipedia": "ckb:\u0686\u06d5\u062a\u0627\u06b5\u060c \u06a9\u06c6\u06a9\u0633"}}, {"type": "node", "id": 5390953567, "lat": 34.7675811, "lon": 45.4220697}, {"type": "node", "id": 5390990206, "lat": 34.7677111, "lon": 45.4226534}, {"type": "node", "id": 5393291965, "lat": 34.7680592, "lon": 45.4228166}, {"type": "node", "id": 5394455537, "lat": 34.7730081, "lon": 45.4252712}, {"type": "node", "id": 5394455538, "lat": 34.7699278, "lon": 45.4242686}, {"type": "node", "id": 5394455539, "lat": 34.7679553, "lon": 45.4227609}, {"type": "node", "id": 5394455540, "lat": 34.7678738, "lon": 45.422829}, {"type": "node", "id": 5394455541, "lat": 34.7677895, "lon": 45.4228308}, {"type": "node", "id": 5394455542, "lat": 34.7677276, "lon": 45.4225125}, {"type": "node", "id": 5394455543, "lat": 34.7677211, "lon": 45.4227528}, {"type": "node", "id": 5394455544, "lat": 34.7680014, "lon": 45.4214476}, {"type": "node", "id": 5394455545, "lat": 34.7687295, "lon": 45.4213002}, {"type": "node", "id": 5394455546, "lat": 34.768668, "lon": 45.420911}, {"type": "node", "id": 5394455547, "lat": 34.7688655, "lon": 45.4199907}, {"type": "node", "id": 5394455549, "lat": 34.7715847, "lon": 45.4190068}, {"type": "node", "id": 5394455550, "lat": 34.771743, "lon": 45.4186454}, {"type": "node", "id": 5718652537, "lat": 34.6443885, "lon": 45.4217714}, {"type": "node", "id": 5718652539, "lat": 34.6440977, "lon": 45.4212675}, {"type": "node", "id": 5718652540, "lat": 34.6437044, "lon": 45.4222277}, {"type": "node", "id": 5718652545, "lat": 34.6435753, "lon": 45.421689}, {"type": "node", "id": 6690811527, "lat": 34.7516091, "lon": 45.526116, "tags": {"name": "\u0633\u06ce \u062e\u0695\u0627\u0646", "name:ar": "\u0633\u064a\u062e\u0631\u0627\u0646", "name:en": "Sekhran", "place": "village", "wikidata": "Q61390867", "wikipedia": "ckb:\u0633\u06ce \u062e\u0695\u0627\u0646"}}, {"type": "node", "id": 6695500374, "lat": 34.5204915, "lon": 45.5066935, "tags": {"name": "\u06be\u06d5\u0646\u062c\u06cc\u0631\u06d5\u06cc \u06a9\u0627\u06a9\u06d5\u06cc\u06cc", "name:ar": "\u0647\u0646\u062c\u06cc\u0631\u0629 \u06a9\u0627\u06a9\u0629\u06cc\u064a", "name:en": "Hanjira Kakayi", "place": "village", "wikidata": "Q61390957", "wikipedia": "ckb:\u06be\u06d5\u0646\u062c\u06cc\u0631\u06d5\u06cc \u06a9\u0627\u06a9\u06d5\u06cc\u06cc"}}, {"type": "node", "id": 6695520576, "lat": 34.5200672, "lon": 45.4777284, "tags": {"name": "\u06be\u06d5\u0646\u062c\u06cc\u0631\u06d5\u06cc \u06a9\u0648\u06ce\u062e\u0627\u0634\u0627\u0645\u0631\u0627\u062f", "name:ar": "\u0647\u0646\u062c\u06cc\u0631\u0629 \u06a9\u0648\u06cc\u062e\u0627 \u0634\u0627\u0645\u0631\u0627\u062f", "name:en": "Hanjira kwekha Shamurad", "place": "village", "wikidata": "Q61390959", "wikipedia": "ckb:\u06be\u06d5\u0646\u062c\u06cc\u0631\u06d5\u06cc \u06a9\u0648\u06ce\u062e\u0627\u0634\u0627\u0645\u0631\u0627\u062f"}}, {"type": "node", "id": 6695545632, "lat": 34.3964999, "lon": 45.3528841, "tags": {"name": "\u0645\u06ce\u062e\u0627\u0633", "place": "village"}}, {"type": "node", "id": 6696607255, "lat": 34.7153926, "lon": 45.3480995, "tags": {"name": "\u0642\u0627\u0633\u0645 \u0626\u0627\u063a\u0627", "name:ar": "\u0642\u0627\u0633\u0645 \u0622\u063a\u0627", "name:en": "Qasim Agha", "place": "village", "wikidata": "Q61391033", "wikipedia": "ckb:\u0642\u0627\u0633\u0645 \u0626\u0627\u063a\u0627"}}, {"type": "node", "id": 7352459795, "lat": 34.6887816, "lon": 45.1504996}, {"type": "node", "id": 7352459796, "lat": 34.6886196, "lon": 45.1528912}, {"type": "node", "id": 7352459797, "lat": 34.6897581, "lon": 45.1550145}, {"type": "node", "id": 7352532542, "lat": 34.746087, "lon": 45.1528692}, {"type": "node", "id": 7352532543, "lat": 34.7455098, "lon": 45.1541632}, {"type": "node", "id": 7352532544, "lat": 34.7412096, "lon": 45.1548462}, {"type": "node", "id": 7352532545, "lat": 34.7406101, "lon": 45.1532583}, {"type": "node", "id": 7352532546, "lat": 34.7393934, "lon": 45.1478296}, {"type": "node", "id": 7352532547, "lat": 34.740469, "lon": 45.1464563}, {"type": "node", "id": 7352532548, "lat": 34.7421088, "lon": 45.1466494}, {"type": "node", "id": 7352532549, "lat": 34.7452121, "lon": 45.1478081}, {"type": "node", "id": 7352532550, "lat": 34.7463052, "lon": 45.1480227}, {"type": "node", "id": 7352532551, "lat": 34.7473807, "lon": 45.1484733}, {"type": "node", "id": 7352532552, "lat": 34.7476452, "lon": 45.1493745}, {"type": "node", "id": 7352532553, "lat": 34.7478391, "lon": 45.1502757}, {"type": "node", "id": 7352532554, "lat": 34.7476099, "lon": 45.1509409}, {"type": "node", "id": 7352537842, "lat": 34.6329877, "lon": 45.2099129}, {"type": "node", "id": 7369198805, "lat": 34.609195, "lon": 45.4976604}, {"type": "node", "id": 7369198806, "lat": 34.6033593, "lon": 45.4996281}, {"type": "node", "id": 7369198807, "lat": 34.6055544, "lon": 45.4900788}, {"type": "node", "id": 7369198808, "lat": 34.6092251, "lon": 45.4911267}, {"type": "node", "id": 7369198809, "lat": 34.6028845, "lon": 45.4951862}, {"type": "node", "id": 7369417660, "lat": 34.4780487, "lon": 45.5022545, "tags": {"name": "\u0686\u06d5\u0645 \u0686\u06d5\u0642\u06d5\u06b5", "name:ar": "\u062c\u0645\u062c\u0629\u0642\u0644", "name:en": "Chamchaqal", "place": "village", "wikidata": "Q61390759", "wikipedia": "ckb:\u0686\u06d5\u0645 \u0686\u06d5\u0642\u06d5\u06b5"}}, {"type": "node", "id": 7369482087, "lat": 34.6440818, "lon": 45.4219888}, {"type": "node", "id": 7369492769, "lat": 34.5649347, "lon": 45.4580423}, {"type": "node", "id": 7369564429, "lat": 34.6264046, "lon": 45.3657377}, {"type": "node", "id": 7369918778, "lat": 34.6102109, "lon": 45.5005392}, {"type": "node", "id": 7369984896, "lat": 34.6448939, "lon": 45.5010064}, {"type": "node", "id": 7369984897, "lat": 34.6413351, "lon": 45.5045677}, {"type": "node", "id": 7369984898, "lat": 34.6375839, "lon": 45.503946}, {"type": "node", "id": 7369984899, "lat": 34.6371413, "lon": 45.4998547}, {"type": "node", "id": 7369984900, "lat": 34.6407986, "lon": 45.4964287}, {"type": "node", "id": 7369984901, "lat": 34.6432561, "lon": 45.4989486}, {"type": "node", "id": 7369984902, "lat": 34.6447003, "lon": 45.4995715}, {"type": "node", "id": 7370017443, "lat": 34.5766205, "lon": 45.4426026}, {"type": "node", "id": 7370017444, "lat": 34.5752302, "lon": 45.4453591}, {"type": "node", "id": 7370017445, "lat": 34.5741905, "lon": 45.4445855}, {"type": "node", "id": 7370017446, "lat": 34.5755813, "lon": 45.4418293}, {"type": "node", "id": 7370088447, "lat": 34.5843148, "lon": 45.5649454}, {"type": "node", "id": 7370088448, "lat": 34.5849173, "lon": 45.563498}, {"type": "node", "id": 7370088449, "lat": 34.5833375, "lon": 45.5591561}, {"type": "node", "id": 7370088450, "lat": 34.5818379, "lon": 45.5598554}, {"type": "node", "id": 7370088451, "lat": 34.5800974, "lon": 45.5629126}, {"type": "node", "id": 7370088452, "lat": 34.5799769, "lon": 45.5650104}, {"type": "node", "id": 7370088453, "lat": 34.5815434, "lon": 45.5655145}, {"type": "node", "id": 7370153947, "lat": 34.637379, "lon": 45.5351844}, {"type": "node", "id": 7370153948, "lat": 34.6375291, "lon": 45.532352}, {"type": "node", "id": 7370153949, "lat": 34.6358254, "lon": 45.5313542}, {"type": "node", "id": 7370153950, "lat": 34.6336715, "lon": 45.5349484}, {"type": "node", "id": 7370153951, "lat": 34.6331948, "lon": 45.5362788}, {"type": "node", "id": 7370153952, "lat": 34.6334066, "lon": 45.5366006}, {"type": "node", "id": 7370153953, "lat": 34.6364786, "lon": 45.5356243}, {"type": "node", "id": 7370178346, "lat": 34.4705198, "lon": 45.4512097, "tags": {"name": "\u06af\u06d5\u0695\u06d5\u067e\u0648\u0648\u0644\u06d5", "name:ar": "\u06a9\u0631\u0629\u0628\u0648\u0644\u0629", "name:en": "Garapula", "place": "village", "wikidata": "Q61390923", "wikipedia": "ckb:\u06af\u06d5\u0695\u06d5\u067e\u0648\u0648\u0644\u06d5"}}, {"type": "node", "id": 7370193866, "lat": 34.5296807, "lon": 45.4314358}, {"type": "node", "id": 7373021519, "lat": 34.6065617, "lon": 45.4948531, "tags": {"name": "\u0642\u06c6\u0631\u06d5\u062a\u0648\u0648", "name:ar": "\u0642\u0648\u0631\u062a\u0648", "name:ckb": "\u0642\u06c6\u0631\u06d5\u062a\u0648\u0648", "name:en": "Qoratu", "name:ku": "Qoret\u00fb", "place": "town", "wikidata": "Q61390687", "wikipedia": "ckb:\u0642\u06c6\u0631\u06d5\u062a\u0648\u0648"}}, {"type": "node", "id": 7682149054, "lat": 34.4385234, "lon": 45.2469221, "tags": {"name": "\u062f\u06d5\u06a9\u06d5 \u0628\u0631\u0627\u0647\u06cc\u0645 \u0628\u06d5\u06af", "place": "village"}}, {"type": "node", "id": 7728087374, "lat": 34.4646039, "lon": 45.1668535, "tags": {"name": "\u06a9\u0648\u06b5\u06d5\u062c\u06c6", "name:ar": "\u06a9\u0648\u0644\u0629\u062c\u0648", "name:en": "Kulajo", "place": "town", "wikidata": "Q61392013", "wikipedia": "ckb:\u06a9\u0648\u06b5\u06d5\u062c\u06c6"}}, {"type": "node", "id": 8577533796, "lat": 34.5452921, "lon": 45.586009, "tags": {"name": "\u067e\u0627\u0633\u06af\u0627\u0647 \u0646\u06cc\u0631\u0648\u06cc \u0627\u0646\u062a\u0638\u0627\u0645\u06cc \u067e\u0631\u0648\u06cc\u0632\u062e\u0627\u0646", "place": "hamlet", "ref:sci": "353117"}}, {"type": "node", "id": 8850437354, "lat": 34.477318, "lon": 45.5370694, "tags": {"name": "\u0627\u0646\u062c\u06cc\u0631\u06a9", "place": "hamlet", "ref:sci": "351953"}}, {"type": "node", "id": 8960932425, "lat": 34.3799648, "lon": 45.390721, "tags": {"name": "\u062a\u0627\u06cc\u0631 \u0639\u0648\u0632\u06ce\u0631", "place": "village"}}, {"type": "node", "id": 9459278201, "lat": 34.4177219, "lon": 45.3127722, "tags": {"name": "\u0626\u0627\u0648\u0627\u06cc\u06cc \u0642\u06d5\u0695\u0627\u0645\u06cc", "place": "village"}}, {"type": "node", "id": 9653291547, "lat": 34.3652932, "lon": 45.3018454, "tags": {"name": "\u0645\u06d5\u0631\u062f\u0627\u0646 \u0642\u0627\u0633\u0645", "place": "village"}}, {"type": "node", "id": 9653325225, "lat": 34.3560388, "lon": 45.3107315, "tags": {"name": "\u0695\u06d5\u0645\u06d5\u0632\u0627\u0646 \u0639\u06d5\u0628\u062f\u06b5\u0627 \u0641\u06d5\u062a\u0627\u062d", "place": "village"}}, {"type": "node", "id": 11218675001, "lat": 34.5749452, "lon": 45.3429208, "tags": {"name": "\u0633\u0627\u06b5\u06d5\u062d \u0626\u0627\u063a\u0627", "name:ar": "\u0635\u0627\u0644\u062d \u0622\u063a\u0627", "name:en": "Saleh Agha", "place": "village", "wikidata": "Q61390824", "wikipedia": "ckb:\u0633\u0627\u06b5\u06d5\u062d \u0626\u0627\u063a\u0627"}}, {"type": "node", "id": 11218708890, "lat": 34.5864596, "lon": 45.2916496, "tags": {"name": "\u06af\u0631\u062f\u06d5\u06af\u06c6\u0632\u06cc\u0646\u06d5", "name:ar": "\u0643\u0631\u062f\u0629\u0643\u0648\u0632\u064a\u0646\u0629", "name:ckb": "\u06af\u0631\u062f\u06d5\u06af\u06c6\u0632\u06cc\u0646\u06d5", "name:en": "Grdagozina", "name:ku": "Girdegoz\u00eene", "place": "village", "wikidata": "Q25630661", "wikipedia": "ckb:\u06af\u0631\u062f\u06d5\u06af\u06c6\u0632\u06cc\u0646\u06d5"}}, {"type": "node", "id": 11259390299, "lat": 34.7693433, "lon": 45.2199494, "tags": {"name": "\u0634\u06c6\u0631\u0627\u0648\u06d5", "name:ar": "\u0634\u0648\u0631\u0627\u0648\u0629", "name:en": "Shorawa", "place": "village", "wikidata": "Q61391405", "wikipedia": "ckb:\u0634\u06c6\u0631\u0627\u0648\u06d5"}}, {"type": "node", "id": 11268900132, "lat": 34.6624646, "lon": 45.2114162, "tags": {"name": "\u0634\u0627\u06a9\u06d5\u0644", "name:ar": "\u0634\u0627\u06a9\u0644", "name:en": "Shakel", "place": "village", "wikidata": "Q61391731", "wikipedia": "ckb:\u0634\u0627\u06a9\u06d5\u0644"}}, {"type": "node", "id": 11268923717, "lat": 34.7070835, "lon": 45.2056947, "tags": {"name": "\u06a9\u0627\u0631\u06ce\u0632\u06cc \u062d\u06d5\u0645\u06d5\u06a9\u06d5\u06cc\u0641\u06d5", "name:ar": "\u06a9\u0627\u0631\u06cc\u0632\u064a \u062d\u0645\u0629\u06a9\u06cc\u0641\u0629", "name:en": "Karezy Hama Kayfa", "place": "village", "wikidata": "Q61391741", "wikipedia": "ckb:\u06a9\u0627\u0631\u06ce\u0632\u06cc \u062d\u06d5\u0645\u06d5\u06a9\u06d5\u06cc\u0641\u06d5"}}, {"type": "node", "id": 11269942278, "lat": 34.6295826, "lon": 45.2095814}, {"type": "node", "id": 11269942279, "lat": 34.6318632, "lon": 45.2084789}, {"type": "node", "id": 11269942280, "lat": 34.6318308, "lon": 45.2078822}, {"type": "node", "id": 11269942281, "lat": 34.6326133, "lon": 45.2075953}, {"type": "node", "id": 11269942282, "lat": 34.6314201, "lon": 45.2095121, "tags": {"name": "\u062f\u06ce \u0628\u0646\u06d5", "name:ar": "\u062f\u06cc\u0628\u0646\u0629", "name:en": "Debna", "place": "village", "wikidata": "Q61391716", "wikipedia": "ckb:\u062f\u06ce \u0628\u0646\u06d5"}}, {"type": "node", "id": 11269943087, "lat": 34.6908883, "lon": 45.1519343, "tags": {"name": "\u0626\u06d5\u0648\u06b5\u0627\u0642\u0648\u062a", "name:ar": "\u0639\u0648\u0644\u0627\u0642\u0648\u062a", "name:en": "Awllaqwt", "place": "village", "wikidata": "Q61391669", "wikipedia": "ckb:\u0626\u06d5\u0648\u06b5\u0627\u0642\u0648\u062a"}}, {"type": "node", "id": 11269958554, "lat": 34.7443901, "lon": 45.1505204, "tags": {"name": "\u062d\u06d5\u0633\u06cc\u0631\u06d5", "name:en": "Hasira", "place": "village", "wikidata": "Q61391644", "wikipedia": "ckb:\u062d\u06d5\u0633\u06cc\u0631\u06d5"}}, {"type": "node", "id": 11269962812, "lat": 34.7313139, "lon": 45.1589757, "tags": {"name": "\u0645\u06cc\u0644 \u0642\u0627\u0633\u0645", "name:ar": "\u0645\u06cc\u0644 \u0642\u0627\u0633\u0645", "name:en": "Mil Qasm", "place": "village", "wikidata": "Q61391666", "wikipedia": "ckb:\u0645\u06cc\u0644 \u0642\u0627\u0633\u0645"}}, {"type": "node", "id": 11269968667, "lat": 34.7253417, "lon": 45.1964764, "tags": {"name": "\u06a9\u06d5\u0648\u0627\u0686\u06d5\u0631\u0645\u06c6", "name:ar": "\u06a9\u0648\u0627\u062c\u0631\u0645\u0648", "name:en": "Kawacharmo", "place": "village", "wikidata": "Q61391700", "wikipedia": "ckb:\u06a9\u06d5\u0648\u0627\u0686\u06d5\u0631\u0645\u06c6"}}, {"type": "node", "id": 11270227280, "lat": 34.7104456, "lon": 45.2104152, "tags": {"name": "\u0633\u06d5\u0639\u062f\u0627\u0648\u0627", "name:ar": "\u0633\u0639\u062f\u0627\u0648\u0627", "name:en": "Saadawa", "place": "village", "wikidata": "Q61391719", "wikipedia": "ckb:\u0633\u06d5\u0639\u062f\u0627\u0648\u0627"}}, {"type": "node", "id": 11281006399, "lat": 34.6818368, "lon": 45.0974479, "tags": {"name": "\u0686\u0627\u06b5\u06d5\u0633\u0648\u06a9", "name:ar": "\u062c\u0627\u0644\u0629\u0633\u0648\u06a9", "name:en": "Chalasuk", "place": "village", "wikidata": "Q61391689", "wikipedia": "ckb:\u0686\u0627\u06b5\u06d5\u0633\u0648\u06a9"}}, {"type": "node", "id": 11282073212, "lat": 34.7403134, "lon": 45.4630901, "tags": {"name": "\u0686\u0627\u06b5\u06d5\u0695\u06d5\u0634\u06cc \u06a9\u06c6\u0646", "name:ar": "\u062c\u0627\u0644\u0629\u0631\u0634 \u0642\u062f\u06cc\u0645", "name:en": "Old Chalarash", "place": "village", "wikidata": "Q61390994", "wikipedia": "ckb:\u0686\u0627\u06b5\u06d5\u0695\u06d5\u0634\u06cc \u06a9\u06c6\u0646"}}, {"type": "node", "id": 11282190537, "lat": 34.7455149, "lon": 45.4613306, "tags": {"name": "\u0686\u0627\u06b5\u06d5\u0695\u06d5\u0634", "name:ar": "\u062c\u0627\u0644\u0629\u0631\u0634", "name:en": "Chalarash", "place": "village", "wikidata": "Q61390993", "wikipedia": "ckb:\u0686\u0627\u06b5\u06d5\u0695\u06d5\u0634"}}, {"type": "node", "id": 11282225950, "lat": 34.6716496, "lon": 45.4087488, "tags": {"name": "\u0628\u06d5\u0631\u0644\u0648\u062a", "name:ar": "\u0628\u0631\u0644\u0648\u062a", "name:en": "Barlut", "place": "village", "wikidata": "Q61390977", "wikipedia": "ckb:\u0628\u06d5\u0631\u0644\u0648\u062a"}}, {"type": "node", "id": 11282227269, "lat": 34.7171206, "lon": 45.462009, "tags": {"name": "\u0642\u0648\u0644\u06d5\u0633\u0648\u062a\u0627\u0648", "name:ar": "\u0642\u0648\u0644\u0629\u0633\u0648\u062a\u0627\u0648", "name:en": "Qulasutaw", "place": "village", "wikidata": "Q61391035", "wikipedia": "ckb:\u0642\u0648\u0644\u06d5\u0633\u0648\u062a\u0627\u0648"}}, {"type": "node", "id": 11282239550, "lat": 34.5613135, "lon": 45.2658347, "tags": {"name": "\u06af\u06ce\u0698\u06d5\u06a9\u0627\u0646", "name:ar": "\u06a9\u06cc\u0632\u06a9\u0627\u0646", "name:en": "Gezhakan", "place": "village", "wikidata": "Q61391051", "wikipedia": "ckb:\u06af\u06ce\u0698\u06d5\u06a9\u0627\u0646"}}, {"type": "node", "id": 11282243510, "lat": 34.6557925, "lon": 45.3831105}, {"type": "node", "id": 11282243511, "lat": 34.6577078, "lon": 45.3881943}, {"type": "node", "id": 11282243512, "lat": 34.6567961, "lon": 45.3885859}, {"type": "node", "id": 11282243513, "lat": 34.6578838, "lon": 45.385539}, {"type": "node", "id": 11282243514, "lat": 34.6551481, "lon": 45.3856025, "tags": {"name": "\u0628\u06d5\u0631\u062f\u06d5\u0633\u0648\u0648\u0631", "name:ar": "\u0628\u0631\u062f\u0629\u0633\u0648\u0631", "name:en": "Bardasur", "place": "village", "wikidata": "Q61390964", "wikipedia": "ckb:\u0628\u06d5\u0631\u062f\u06d5\u0633\u0648\u0648\u0631\u060c \u06a9\u06d5\u0644\u0627\u0631"}}, {"type": "node", "id": 11282732538, "lat": 34.7058787, "lon": 45.3210333, "tags": {"name": "\u0633\u06d5\u06cc\u062f\u062e\u06d5\u0644\u06cc\u0644 \u062f\u06d5\u0631\u0648\u06ce\u0634 \u062d\u0633\u06ce\u0646", "name:ar": "\u0633\u064a\u062f \u062e\u0644\u064a\u0644 \u062f\u0631\u0648\u064a\u0634 \u062d\u0633\u064a\u0646", "name:en": "Sayed Khalil Darwish Hussein", "place": "village", "wikidata": "Q61391013", "wikipedia": "ckb:\u0633\u06d5\u06cc\u062f\u062e\u06d5\u0644\u06cc\u0644 \u062f\u06d5\u0631\u0648\u06ce\u0634 \u062d\u0633\u06ce\u0646"}}, {"type": "node", "id": 11282774328, "lat": 34.709217, "lon": 45.3160751, "tags": {"name": "\u0633\u06d5\u06cc\u062f\u062e\u06d5\u0644\u06cc\u0644 \u062e\u06d5\u0644\u06cc\u0641\u06d5", "name:ar": "\u0633\u064a\u062f \u062e\u0644\u064a\u0644 \u062e\u0644\u064a\u0641\u0629", "name:en": "Sayyid Khalil Khalifa", "place": "village", "wikidata": "Q61391014", "wikipedia": "ckb:\u0633\u06d5\u06cc\u062f\u062e\u06d5\u0644\u06cc\u0644 \u062e\u06d5\u0644\u06cc\u0641\u06d5"}}, {"type": "node", "id": 11282775501, "lat": 34.7274877, "lon": 45.3377367, "tags": {"name": "\u0633\u06d5\u06cc\u062f\u062e\u06d5\u0644\u06cc\u0644 \u0641\u06d5\u0642\u06ce \u0645\u0633\u062a\u06d5\u0641\u0627", "name:ar": "\u0633\u064a\u062f \u062e\u0644\u064a\u0644 \u0641\u0642\u064a \u0645\u0635\u0637\u0641\u0649", "name:en": "Sayed Khalil Faqe Mustafa", "place": "village", "wikidata": "Q61391015", "wikipedia": "ckb:\u0633\u06d5\u06cc\u062f\u062e\u06d5\u0644\u06cc\u0644 \u0641\u06d5\u0642\u06ce \u0645\u0633\u062a\u06d5\u0641\u0627"}}, {"type": "node", "id": 11282808824, "lat": 34.7241054, "lon": 45.3791827, "tags": {"name": "\u0645\u0686\u06d5\u0634\u06d5\u0644", "name:ar": "\u0645\u062c\u0629\u0634\u0644", "name:en": "Mcheshal", "place": "village", "wikidata": "Q61391052", "wikipedia": "ckb:\u0645\u0686\u06d5\u0634\u06d5\u0644"}}, {"type": "node", "id": 11282873692, "lat": 34.753266, "lon": 45.2592688, "tags": {"name": "\u062d\u06d5\u0645\u06d5\u06cc \u0645\u06d5\u062d\u0645\u0648\u062f", "name:ar": "\u062d\u0645\u0629 \u0645\u062d\u0645\u0648\u062f", "name:en": "Hama Mahmoud", "place": "village", "wikidata": "Q61391469", "wikipedia": "ckb:\u062d\u06d5\u0645\u06d5\u06cc \u0645\u06d5\u062d\u0645\u0648\u062f"}}, {"type": "node", "id": 11282900389, "lat": 34.7669507, "lon": 45.2603366, "tags": {"name": "\u0646\u0627\u0632\u06ce\u06cc \u0628\u0686\u0648\u0648\u06a9", "name:ar": "\u0646\u0627\u0632\u064a \u0635\u063a\u06cc\u0631", "name:en": "Little Nazi", "place": "village", "wikidata": "Q61391053", "wikipedia": "ckb:\u0646\u0627\u0632\u06ce\u06cc \u0628\u0686\u0648\u06a9"}}, {"type": "node", "id": 11282906690, "lat": 34.7585581, "lon": 45.2635285, "tags": {"name": "\u0642\u06d5\u0631\u06d5\u0686\u06ce\u06b5", "name:ar": "\u0642\u0631\u0629\u062c\u06cc\u0644", "name:en": "Karachel", "place": "village", "wikidata": "Q61391034", "wikipedia": "ckb:\u0642\u06d5\u0631\u06d5\u0686\u06ce\u06b5"}}, {"type": "node", "id": 11282911285, "lat": 34.746964, "lon": 45.2535417, "tags": {"name": "\u0633\u06d5\u06cc\u062f\u062e\u062f\u0631", "name:ar": "\u0633\u064a\u062f \u062e\u0636\u0631", "name:en": "Sayed Khadr", "place": "village", "wikidata": "Q61391412", "wikipedia": "ckb:\u0633\u06d5\u06cc\u062f\u062e\u062f\u0631"}}, {"type": "node", "id": 11282913314, "lat": 34.768905, "lon": 45.2667345, "tags": {"name": "\u0646\u0627\u0632\u06ce\u06cc \u06af\u06d5\u0648\u0631\u06d5", "name:ar": "\u0646\u0627\u0632\u064a \u06a9\u0628\u06cc\u0631", "name:en": "Great Nazee", "place": "village", "wikidata": "Q61391055", "wikipedia": "ckb:\u0646\u0627\u0632\u06ce\u06cc \u06af\u06d5\u0648\u0631\u06d5"}}, {"type": "node", "id": 11283040974, "lat": 34.6230728, "lon": 45.0779414}, {"type": "node", "id": 11283040975, "lat": 34.6229816, "lon": 45.0784467}, {"type": "node", "id": 11283040976, "lat": 34.6235191, "lon": 45.0792231}, {"type": "node", "id": 11283040977, "lat": 34.6233568, "lon": 45.0799133}, {"type": "node", "id": 11283040978, "lat": 34.6231945, "lon": 45.0806774}, {"type": "node", "id": 11283040979, "lat": 34.622941, "lon": 45.0810471}, {"type": "node", "id": 11283040980, "lat": 34.6231033, "lon": 45.0812197}, {"type": "node", "id": 11283040981, "lat": 34.6238233, "lon": 45.0807637}, {"type": "node", "id": 11283040982, "lat": 34.6242493, "lon": 45.0807637}, {"type": "node", "id": 11283040983, "lat": 34.6237827, "lon": 45.0817619}, {"type": "node", "id": 11283040984, "lat": 34.6236509, "lon": 45.0825014}, {"type": "node", "id": 11283040985, "lat": 34.6241276, "lon": 45.0822919}, {"type": "node", "id": 11283040986, "lat": 34.6244825, "lon": 45.0819591}, {"type": "node", "id": 11283040987, "lat": 34.6248172, "lon": 45.0821809}, {"type": "node", "id": 11283040988, "lat": 34.6252431, "lon": 45.0819221}, {"type": "node", "id": 11283040989, "lat": 34.6254155, "lon": 45.0811704}, {"type": "node", "id": 11283040990, "lat": 34.6267136, "lon": 45.0817989}, {"type": "node", "id": 11283040991, "lat": 34.6269773, "lon": 45.0814415}, {"type": "node", "id": 11283040992, "lat": 34.6266223, "lon": 45.0811457}, {"type": "node", "id": 11283040993, "lat": 34.6267947, "lon": 45.0805418}, {"type": "node", "id": 11283040994, "lat": 34.627241, "lon": 45.0805788}, {"type": "node", "id": 11283040995, "lat": 34.6275452, "lon": 45.0804432}, {"type": "node", "id": 11283040996, "lat": 34.6279103, "lon": 45.0801475}, {"type": "node", "id": 11283040997, "lat": 34.6280624, "lon": 45.0792724}, {"type": "node", "id": 11283040998, "lat": 34.6280522, "lon": 45.078459}, {"type": "node", "id": 11283040999, "lat": 34.627677, "lon": 45.0781509}, {"type": "node", "id": 11283041000, "lat": 34.6273728, "lon": 45.0785083}, {"type": "node", "id": 11283041001, "lat": 34.6271294, "lon": 45.0785946}, {"type": "node", "id": 11283041002, "lat": 34.6266122, "lon": 45.0784714}, {"type": "node", "id": 11283041003, "lat": 34.626166, "lon": 45.0781756}, {"type": "node", "id": 11283041004, "lat": 34.6259632, "lon": 45.0787302}, {"type": "node", "id": 11283041005, "lat": 34.6254257, "lon": 45.0785946}, {"type": "node", "id": 11283041006, "lat": 34.6246245, "lon": 45.0784837}, {"type": "node", "id": 11283041007, "lat": 34.6240363, "lon": 45.0781263}, {"type": "node", "id": 11283041008, "lat": 34.6238537, "lon": 45.0775717}, {"type": "node", "id": 11283041009, "lat": 34.6236306, "lon": 45.0776703}, {"type": "node", "id": 11283041010, "lat": 34.6236712, "lon": 45.0781509}, {"type": "node", "id": 11283059642, "lat": 34.5214506, "lon": 45.2162239, "tags": {"name": "\u0628\u0627\u0646 \u0626\u0627\u0633\u06cc\u0627\u0648", "name:ar": "\u0628\u0627\u0646 \u0622\u0633\u06cc\u0627\u0648", "name:en": "Ban Asiaw", "place": "village", "wikidata": "Q61391746", "wikipedia": "ckb:\u0628\u0627\u0646 \u0626\u0627\u0633\u06cc\u0627\u0648"}}, {"type": "node", "id": 11283086346, "lat": 34.5496077, "lon": 45.2207776, "tags": {"name": "\u0686\u0627\u06b5\u06d5\u0631\u06d5\u0634", "name:ar": "\u062c\u0627\u0644\u0629\u0631\u0634", "name:en": "Chalarash", "place": "village", "wikidata": "Q61391927", "wikipedia": "ckb:\u0686\u0627\u06b5\u06d5\u0631\u06d5\u0634"}}, {"type": "node", "id": 11283093407, "lat": 34.5212191, "lon": 45.2017506, "tags": {"name": "\u0633\u06cc\u0627\u0645\u06d5\u0695\u06c6", "name:ar": "\u0633\u064a\u0627\u0645\u0627\u0631\u0648", "name:en": "Siamaro", "place": "village", "wikidata": "Q61391977", "wikipedia": "ckb:\u0633\u06cc\u0627\u0645\u06d5\u0695\u06c6"}}, {"type": "node", "id": 11283115023, "lat": 34.5339589, "lon": 45.2005153, "tags": {"name": "\u0642\u06d5\u0631\u06d5\u0628\u0648\u06b5\u0627\u063a\u06cc \u06a9\u06c6\u0646", "name:ar": "\u0642\u0631\u0629\u0628\u0644\u0627\u063a \u0627\u0644\u0642\u062f\u06cc\u0645\u0629", "name:en": "Old Qarabulagh", "place": "village", "wikidata": "Q61391949", "wikipedia": "ckb:\u0642\u06d5\u0631\u06d5\u0628\u0648\u06b5\u0627\u063a\u06cc \u06a9\u06c6\u0646"}}, {"type": "node", "id": 11283473134, "lat": 34.5201381, "lon": 45.1534233}, {"type": "node", "id": 11283473135, "lat": 34.5226829, "lon": 45.155488}, {"type": "node", "id": 11283473136, "lat": 34.521994, "lon": 45.1582354}, {"type": "node", "id": 11283473137, "lat": 34.5211083, "lon": 45.1590374}, {"type": "node", "id": 11283473138, "lat": 34.5211083, "lon": 45.1598394}, {"type": "node", "id": 11283473139, "lat": 34.5205459, "lon": 45.1598053}, {"type": "node", "id": 11283473140, "lat": 34.5200397, "lon": 45.159993}, {"type": "node", "id": 11283473141, "lat": 34.5194914, "lon": 45.1591057}, {"type": "node", "id": 11283473142, "lat": 34.5180573, "lon": 45.1572627}, {"type": "node", "id": 11283473143, "lat": 34.5173683, "lon": 45.1575528}, {"type": "node", "id": 11283473144, "lat": 34.5166934, "lon": 45.1567337}, {"type": "node", "id": 11283473145, "lat": 34.5183947, "lon": 45.154413}, {"type": "node", "id": 11283473146, "lat": 34.5180151, "lon": 45.1531673}, {"type": "node", "id": 11283473147, "lat": 34.5185916, "lon": 45.1528943}, {"type": "node", "id": 11283473148, "lat": 34.5191469, "lon": 45.1530527}, {"type": "node", "id": 11283473149, "lat": 34.5194738, "lon": 45.1535409}, {"type": "node", "id": 11288249644, "lat": 34.7546171, "lon": 45.5603722, "tags": {"name": "\u06af\u06c6\u0695\u06af\u0646\u06c6\u0634", "name:ar": "\u06a9\u0648\u0631\u06a9\u0646\u0648\u0634", "name:en": "Gorgnosh", "place": "village", "wikidata": "Q61390659", "wikipedia": "ckb:\u06af\u06c6\u0695\u06af\u0646\u06c6\u0634"}}, {"type": "node", "id": 11288270506, "lat": 34.7607013, "lon": 45.6129227}, {"type": "node", "id": 11288270507, "lat": 34.7607548, "lon": 45.613622}, {"type": "node", "id": 11288270508, "lat": 34.7611556, "lon": 45.6139472}, {"type": "node", "id": 11288270509, "lat": 34.76169, "lon": 45.6137846}, {"type": "node", "id": 11288270510, "lat": 34.7622511, "lon": 45.6143538}, {"type": "node", "id": 11288270511, "lat": 34.7628122, "lon": 45.6146465}, {"type": "node", "id": 11288270512, "lat": 34.7634267, "lon": 45.6144513}, {"type": "node", "id": 11288270513, "lat": 34.7640279, "lon": 45.6150042}, {"type": "node", "id": 11288270514, "lat": 34.764295, "lon": 45.614988}, {"type": "node", "id": 11288270515, "lat": 34.7643485, "lon": 45.6145164}, {"type": "node", "id": 11288270516, "lat": 34.7636404, "lon": 45.6139147}, {"type": "node", "id": 11288270517, "lat": 34.7641481, "lon": 45.6136057}, {"type": "node", "id": 11288270518, "lat": 34.7647493, "lon": 45.6137358}, {"type": "node", "id": 11288270519, "lat": 34.7648561, "lon": 45.6132642}, {"type": "node", "id": 11288270520, "lat": 34.7654306, "lon": 45.6130528}, {"type": "node", "id": 11288270521, "lat": 34.7655107, "lon": 45.6124023}, {"type": "node", "id": 11288270522, "lat": 34.7650699, "lon": 45.6121584}, {"type": "node", "id": 11288270523, "lat": 34.7653638, "lon": 45.6116055}, {"type": "node", "id": 11288270524, "lat": 34.7651901, "lon": 45.6114266}, {"type": "node", "id": 11288270525, "lat": 34.765297, "lon": 45.6105647}, {"type": "node", "id": 11288270526, "lat": 34.7650966, "lon": 45.6102883}, {"type": "node", "id": 11288270527, "lat": 34.7647092, "lon": 45.6104509}, {"type": "node", "id": 11288270528, "lat": 34.7643886, "lon": 45.6109225}, {"type": "node", "id": 11288270529, "lat": 34.7638809, "lon": 45.6108737}, {"type": "node", "id": 11288270530, "lat": 34.7635336, "lon": 45.6114754}, {"type": "node", "id": 11288270531, "lat": 34.7635202, "lon": 45.6117356}, {"type": "node", "id": 11288270532, "lat": 34.7631061, "lon": 45.6116705}, {"type": "node", "id": 11288270533, "lat": 34.7629725, "lon": 45.6112315}, {"type": "node", "id": 11288270534, "lat": 34.7624915, "lon": 45.6111014}, {"type": "node", "id": 11288270535, "lat": 34.7623312, "lon": 45.6104346}, {"type": "node", "id": 11288270536, "lat": 34.7621843, "lon": 45.6102558}, {"type": "node", "id": 11288270537, "lat": 34.7620239, "lon": 45.6106298}, {"type": "node", "id": 11288270538, "lat": 34.7619304, "lon": 45.6115242}, {"type": "node", "id": 11288270539, "lat": 34.7615564, "lon": 45.6120608}, {"type": "node", "id": 11288270540, "lat": 34.7612624, "lon": 45.6125487}, {"type": "node", "id": 11288340201, "lat": 34.7408169, "lon": 45.5854887}, {"type": "node", "id": 11288340202, "lat": 34.7407167, "lon": 45.5857489}, {"type": "node", "id": 11288340203, "lat": 34.7406098, "lon": 45.586505}, {"type": "node", "id": 11288340204, "lat": 34.7405028, "lon": 45.5869197}, {"type": "node", "id": 11288340205, "lat": 34.7407634, "lon": 45.5871067}, {"type": "node", "id": 11288340206, "lat": 34.74071, "lon": 45.587432}, {"type": "node", "id": 11288340207, "lat": 34.740436, "lon": 45.5878466}, {"type": "node", "id": 11288340208, "lat": 34.7403291, "lon": 45.5884402}, {"type": "node", "id": 11288340209, "lat": 34.7400886, "lon": 45.5889687}, {"type": "node", "id": 11288340210, "lat": 34.7397812, "lon": 45.5890907}, {"type": "node", "id": 11288340211, "lat": 34.7396543, "lon": 45.5893021}, {"type": "node", "id": 11288340212, "lat": 34.7397345, "lon": 45.5898143}, {"type": "node", "id": 11288340213, "lat": 34.7395607, "lon": 45.5900908}, {"type": "node", "id": 11288340214, "lat": 34.7391064, "lon": 45.589977}, {"type": "node", "id": 11288340215, "lat": 34.7389327, "lon": 45.5892533}, {"type": "node", "id": 11288340216, "lat": 34.7391264, "lon": 45.5887411}, {"type": "node", "id": 11288340217, "lat": 34.7389193, "lon": 45.5884402}, {"type": "node", "id": 11288340218, "lat": 34.7390463, "lon": 45.5878954}, {"type": "node", "id": 11288340219, "lat": 34.7394071, "lon": 45.587684}, {"type": "node", "id": 11288340220, "lat": 34.7396476, "lon": 45.5872775}, {"type": "node", "id": 11288340221, "lat": 34.7396209, "lon": 45.5867002}, {"type": "node", "id": 11288340222, "lat": 34.7398681, "lon": 45.5863099}, {"type": "node", "id": 11288340223, "lat": 34.7399483, "lon": 45.5859034}, {"type": "node", "id": 11288340224, "lat": 34.7400418, "lon": 45.5855375}, {"type": "node", "id": 11288340225, "lat": 34.7403559, "lon": 45.5853017}, {"type": "node", "id": 11288340226, "lat": 34.7397345, "lon": 45.5877084, "tags": {"name": "\u062c\u06d5\u0628\u0631\u0627\u0648\u0627", "name:ar": "\u062c\u0628\u0631\u0627\u0648\u0627", "name:en": "Jabrawa", "place": "village", "wikidata": "Q61390548", "wikipedia": "ckb:\u062c\u06d5\u0628\u0631\u0627\u0648\u0627"}}, {"type": "node", "id": 11289602534, "lat": 34.700071, "lon": 45.6025212, "tags": {"name": "\u0695\u06d5\u0632\u0648\u0627\u0631", "name:ar": "\u0631\u0632\u0648\u0627\u0631", "name:en": "Razwar", "place": "village", "wikidata": "Q61390813", "wikipedia": "ckb:\u0695\u06d5\u0632\u0648\u0627\u0631"}}, {"type": "node", "id": 11289624928, "lat": 34.5828603, "lon": 45.5648246, "tags": {"name": "\u0645\u06d5\u062c\u06cc\u062f\u0633\u0627\u0644\u0627\u0631", "name:ar": "\u0645\u062c\u06cc\u062f \u0633\u0627\u0644\u0627\u0631", "name:en": "Majidsalar", "place": "village", "wikidata": "Q61390939", "wikipedia": "ckb:\u0645\u06d5\u062c\u06cc\u062f\u0633\u0627\u0644\u0627\u0631"}}, {"type": "node", "id": 11289654027, "lat": 34.616703, "lon": 45.4939354, "tags": {"name": "\u0639\u06d5\u0644\u06cc \u0626\u0627\u063a\u0627", "name:ar": "\u0639\u0644\u064a \u0622\u063a\u0627", "name:en": "Ali Agha", "place": "village", "wikidata": "Q61390882", "wikipedia": "ckb:\u0639\u06d5\u0644\u06cc \u0626\u0627\u063a\u0627"}}, {"type": "node", "id": 11289654087, "lat": 34.5597635, "lon": 45.5887693, "tags": {"name": "\u067e\u06d5\u0631\u0648\u06ce\u0632\u062e\u0627\u0646", "name:ar": "\u0628\u0631\u0648\u06cc\u0632\u062e\u0627\u0646", "name:en": "Parwezkhan", "place": "village", "wikidata": "Q61390738", "wikipedia": "ckb:\u067e\u06d5\u0631\u0648\u06ce\u0632\u062e\u0627\u0646"}}, {"type": "node", "id": 11290247431, "lat": 34.649607, "lon": 45.471954, "tags": {"name": "\u0633\u06d5\u0646\u06af\u06d5\u0631\u06cc \u0633\u06d5\u0631\u0648\u0648", "name:ar": "\u0633\u0646\u06a9\u0631 \u0627\u0644\u0639\u0644\u06cc\u0627", "name:en": "Upper Sangar", "place": "village", "wikidata": "Q61390831", "wikipedia": "ckb:\u0633\u06d5\u0646\u06af\u06d5\u0631\u06cc \u0633\u06d5\u0631\u0648\u0648"}}, {"type": "node", "id": 11290255597, "lat": 34.6403479, "lon": 45.5007061, "tags": {"name": "\u0633\u06d5\u06cc\u062f\u0645\u0633\u062a\u06d5\u0641\u0627", "name:ar": "\u0633\u064a\u062f \u0645\u0635\u0637\u0641\u0649", "name:en": "Seyed Mustafa", "place": "village", "wikidata": "Q61390862", "wikipedia": "ckb:\u0633\u06d5\u06cc\u062f\u0645\u0633\u062a\u06d5\u0641\u0627"}}, {"type": "node", "id": 11290266431, "lat": 34.6837227, "lon": 45.4606369, "tags": {"name": "\u0633\u06d5\u0646\u06af\u06d5\u0631\u06cc \u062e\u0648\u0627\u0631\u0648\u0648", "name:ar": "\u0633\u0646\u06a9\u0631 \u0627\u0644\u0633\u0641\u0644\u06cc", "name:en": "Lower Sangar", "place": "village", "wikidata": "Q61390829", "wikipedia": "ckb:\u0633\u06d5\u0646\u06af\u06d5\u0631\u06cc \u062e\u0648\u0627\u0631\u0648\u0648"}}, {"type": "node", "id": 11290267006, "lat": 34.6613715, "lon": 45.4657537, "tags": {"name": "\u0633\u06d5\u0646\u06af\u06d5\u0631\u06cc \u0646\u0627\u0648\u06d5\u0695\u0627\u0633\u062a", "name:ar": "\u0633\u0646\u06a9\u0631 \u0627\u0644\u0648\u0633\u0637\u06cc", "name:en": "Middle Sangar", "place": "village", "wikidata": "Q61390844", "wikipedia": "ckb:\u0633\u06d5\u0646\u06af\u06d5\u0631\u06cc \u0646\u0627\u0648\u06d5\u0695\u0627\u0633\u062a"}}, {"type": "node", "id": 11290287118, "lat": 34.7159308, "lon": 45.4773219}, {"type": "node", "id": 11290287119, "lat": 34.7162395, "lon": 45.4774077}, {"type": "node", "id": 11290287120, "lat": 34.7161336, "lon": 45.4779227}, {"type": "node", "id": 11290287121, "lat": 34.7163012, "lon": 45.4784162}, {"type": "node", "id": 11290287122, "lat": 34.7163453, "lon": 45.4787273}, {"type": "node", "id": 11290287123, "lat": 34.7160455, "lon": 45.4795856}, {"type": "node", "id": 11290287124, "lat": 34.7156133, "lon": 45.4794462}, {"type": "node", "id": 11290287125, "lat": 34.715481, "lon": 45.4795749}, {"type": "node", "id": 11290287126, "lat": 34.7152694, "lon": 45.4800363}, {"type": "node", "id": 11290287127, "lat": 34.714996, "lon": 45.4811735}, {"type": "node", "id": 11290287128, "lat": 34.7153047, "lon": 45.4817529}, {"type": "node", "id": 11290287129, "lat": 34.7152341, "lon": 45.4821713}, {"type": "node", "id": 11290287130, "lat": 34.7145198, "lon": 45.4824073}, {"type": "node", "id": 11290287131, "lat": 34.7142552, "lon": 45.4827292}, {"type": "node", "id": 11290287132, "lat": 34.7136026, "lon": 45.4820533}, {"type": "node", "id": 11290287133, "lat": 34.7144228, "lon": 45.4812808}, {"type": "node", "id": 11290287134, "lat": 34.714899, "lon": 45.4809375}, {"type": "node", "id": 11290287135, "lat": 34.7151547, "lon": 45.4799504}, {"type": "node", "id": 11290287136, "lat": 34.7149695, "lon": 45.4798109}, {"type": "node", "id": 11290287137, "lat": 34.7144845, "lon": 45.4791028}, {"type": "node", "id": 11290287138, "lat": 34.7142199, "lon": 45.4799504}, {"type": "node", "id": 11290287139, "lat": 34.7141935, "lon": 45.4803903}, {"type": "node", "id": 11290287140, "lat": 34.7135585, "lon": 45.4805512}, {"type": "node", "id": 11290287141, "lat": 34.7126765, "lon": 45.4808087}, {"type": "node", "id": 11290287142, "lat": 34.7123767, "lon": 45.4812915}, {"type": "node", "id": 11290287143, "lat": 34.7125531, "lon": 45.4815919}, {"type": "node", "id": 11290287144, "lat": 34.7124825, "lon": 45.4817743}, {"type": "node", "id": 11290287145, "lat": 34.7121386, "lon": 45.4816241}, {"type": "node", "id": 11290287146, "lat": 34.711142, "lon": 45.482579}, {"type": "node", "id": 11290287147, "lat": 34.7105952, "lon": 45.4824395}, {"type": "node", "id": 11290287148, "lat": 34.7107539, "lon": 45.481946}, {"type": "node", "id": 11290287149, "lat": 34.7109568, "lon": 45.4814095}, {"type": "node", "id": 11290287150, "lat": 34.7122532, "lon": 45.4808731}, {"type": "node", "id": 11290287151, "lat": 34.7120416, "lon": 45.479135}, {"type": "node", "id": 11290287152, "lat": 34.7127647, "lon": 45.4777939}, {"type": "node", "id": 11290287153, "lat": 34.7133645, "lon": 45.4772575}, {"type": "node", "id": 11290287154, "lat": 34.7128, "lon": 45.4766245}, {"type": "node", "id": 11290287155, "lat": 34.7124296, "lon": 45.4764099}, {"type": "node", "id": 11290287156, "lat": 34.712165, "lon": 45.4770215}, {"type": "node", "id": 11290287157, "lat": 34.7116006, "lon": 45.4767747}, {"type": "node", "id": 11290287158, "lat": 34.7119004, "lon": 45.4757447}, {"type": "node", "id": 11290287159, "lat": 34.7120504, "lon": 45.4756911}, {"type": "node", "id": 11290287160, "lat": 34.7129058, "lon": 45.4764743}, {"type": "node", "id": 11290287161, "lat": 34.7133204, "lon": 45.4758842}, {"type": "node", "id": 11290287162, "lat": 34.7136202, "lon": 45.475734}, {"type": "node", "id": 11290287163, "lat": 34.7142993, "lon": 45.4762597}, {"type": "node", "id": 11290287164, "lat": 34.7145639, "lon": 45.4766245}, {"type": "node", "id": 11290287165, "lat": 34.7149166, "lon": 45.4771287}, {"type": "node", "id": 11290287166, "lat": 34.7150048, "lon": 45.4771609}, {"type": "node", "id": 11290287167, "lat": 34.7135938, "lon": 45.4790814, "tags": {"name": "\u06af\u06c6\u0695\u06d5\u0634\u06d5\u0644\u06d5", "name:ar": "\u06a9\u0648\u0631\u0634\u0644\u0629", "name:en": "Gorashala", "place": "village", "wikidata": "Q61390934", "wikipedia": "ckb:\u06af\u06c6\u0695\u06d5\u0634\u06d5\u0644\u06d5"}}, {"type": "node", "id": 11290291010, "lat": 34.7531074, "lon": 45.4916989}, {"type": "node", "id": 11290291011, "lat": 34.7523726, "lon": 45.4912435}, {"type": "node", "id": 11290291012, "lat": 34.7517847, "lon": 45.492886}, {"type": "node", "id": 11290291013, "lat": 34.7517045, "lon": 45.4932356}, {"type": "node", "id": 11290291014, "lat": 34.7521655, "lon": 45.4936584}, {"type": "node", "id": 11290291015, "lat": 34.7526532, "lon": 45.493943}, {"type": "node", "id": 11290291016, "lat": 34.7534014, "lon": 45.4942438}, {"type": "node", "id": 11290291017, "lat": 34.7536953, "lon": 45.4947805}, {"type": "node", "id": 11290291018, "lat": 34.7539425, "lon": 45.4941951}, {"type": "node", "id": 11290291019, "lat": 34.7544435, "lon": 45.4943739}, {"type": "node", "id": 11290291020, "lat": 34.7549846, "lon": 45.4927152}, {"type": "node", "id": 11290291021, "lat": 34.7548176, "lon": 45.4923819}, {"type": "node", "id": 11290291022, "lat": 34.7548109, "lon": 45.4920973}, {"type": "node", "id": 11290291023, "lat": 34.7552719, "lon": 45.4914712}, {"type": "node", "id": 11290291024, "lat": 34.7552318, "lon": 45.4910972}, {"type": "node", "id": 11290291025, "lat": 34.7550247, "lon": 45.4909752}, {"type": "node", "id": 11290291026, "lat": 34.7548043, "lon": 45.4912029}, {"type": "node", "id": 11290291027, "lat": 34.7545838, "lon": 45.4917151}, {"type": "node", "id": 11290291028, "lat": 34.7545704, "lon": 45.4922192}, {"type": "node", "id": 11290291029, "lat": 34.7543634, "lon": 45.4927477}, {"type": "node", "id": 11290291030, "lat": 34.754016, "lon": 45.4928372}, {"type": "node", "id": 11290291031, "lat": 34.7537621, "lon": 45.4925445}, {"type": "node", "id": 11290291032, "lat": 34.7535884, "lon": 45.4924876}, {"type": "node", "id": 11290291033, "lat": 34.753241, "lon": 45.49239}, {"type": "node", "id": 11290291034, "lat": 34.7528937, "lon": 45.4923819}, {"type": "node", "id": 11290291035, "lat": 34.7532878, "lon": 45.4930405, "tags": {"name": "\u0628\u0627\u0646\u06d5\u0628\u06c6\u0631", "name:ar": "\u0628\u0627\u0646\u0629\u0628\u0648\u0631", "name:en": "Banabor", "place": "village", "wikidata": "Q61390728", "wikipedia": "ckb:\u0628\u0627\u0646\u06d5\u0628\u06c6\u0631"}}, {"type": "node", "id": 11290292792, "lat": 34.7229946, "lon": 45.4800603, "tags": {"name": "\u062a\u0627\u0632\u06d5\u062f\u06ce\u06cc \u06af\u06c6\u0695\u06d5\u0634\u06d5\u0644\u06d5", "name:ar": "\u062a\u0627\u0632\u0629\u062f\u064a\u064a \u06a9\u0648\u0631\u0634\u0644\u0629", "name:en": "Tazadei Gorashala", "place": "village", "wikidata": "Q61390749", "wikipedia": "ckb:\u062a\u0627\u0632\u06d5\u062f\u06ce\u06cc \u06af\u06c6\u0695\u06d5\u0634\u06d5\u0644\u06d5"}}, {"type": "node", "id": 11290298290, "lat": 34.7439279, "lon": 45.4790948, "tags": {"name": "\u0626\u06d5\u0644\u06cc \u062e\u0627\u06b5\u06d5", "name:ar": "\u0639\u0644\u064a \u062e\u0627\u0644\u0629", "name:en": "Ali Khala", "place": "village", "wikidata": "Q61390694", "wikipedia": "ckb:\u0626\u06d5\u0644\u06cc \u062e\u0627\u06b5\u06d5"}}, {"type": "node", "id": 11290352011, "lat": 34.7046516, "lon": 45.5637006, "tags": {"name": "\u06a9\u0627\u0646\u06cc \u067e\u06d5\u0645\u0648\u0648", "name:ar": "\u06a9\u0627\u0646\u064a \u0628\u0645\u0648\u0648", "name:en": "Kani Pamu", "place": "village", "wikidata": "Q61390905", "wikipedia": "ckb:\u06a9\u0627\u0646\u06cc \u067e\u06d5\u0645\u0648\u0648"}}, {"type": "node", "id": 11290362856, "lat": 34.6667797, "lon": 45.5184722, "tags": {"name": "\u062a\u06d5\u0646\u0648\u0648\u0631\u06d5", "name:ar": "\u062a\u0646\u0648\u0631\u0629", "name:en": "Tanwra", "place": "village", "wikidata": "Q61390753", "wikipedia": "ckb:\u062a\u06d5\u0646\u0648\u0648\u0631\u06d5"}}, {"type": "node", "id": 11290373203, "lat": 34.6678438, "lon": 45.5970919, "tags": {"name": "\u0686\u06cc\u0627\u0633\u06d5\u0648\u0632", "name:ar": "\u062c\u06cc\u0627\u0633\u0648\u0632", "name:en": "Chya Sawz", "place": "village", "wikidata": "Q61390773", "wikipedia": "ckb:\u0686\u06cc\u0627\u0633\u06d5\u0648\u0632"}}, {"type": "node", "id": 11290380917, "lat": 34.6402357, "lon": 45.6110401, "tags": {"name": "\u0628\u06d5\u0631\u062f\u06d5\u0639\u06d5\u0644\u06cc \u062e\u0648\u0627\u0631\u0648\u0648", "name:ar": "\u0628\u0631\u062f\u0639\u0644\u064a \u0627\u0644\u0633\u0641\u0644\u064a", "name:en": "Lower Bardaali", "place": "village", "wikidata": "Q61390736", "wikipedia": "ckb:\u0628\u06d5\u0631\u062f\u06d5\u0639\u06d5\u0644\u06cc \u062e\u0648\u0627\u0631\u0648\u0648"}}, {"type": "node", "id": 11290398977, "lat": 34.6232638, "lon": 45.5718109, "tags": {"name": "\u0633\u06d5\u06cc \u06a9\u06d5\u0648\u06d5\u0646", "name:ar": "\u0633\u0629\u064a \u06a9\u0648\u0646", "name:en": "Say Kewan", "place": "village", "wikidata": "Q61390847", "wikipedia": "ckb:\u0633\u06d5\u06cc \u06a9\u06d5\u0648\u06d5\u0646"}}, {"type": "node", "id": 11290427965, "lat": 34.6514855, "lon": 45.5878536, "tags": {"name": "\u0626\u06cc\u062f\u0627\u0631\u06d5", "name:ar": "\u0627\u062f\u0627\u0631\u0629", "name:en": "Idara", "place": "village", "wikidata": "Q61390706", "wikipedia": "ckb:\u0626\u06cc\u062f\u0627\u0631\u06d5"}}, {"type": "node", "id": 11290439623, "lat": 34.6494599, "lon": 45.4321767, "tags": {"name": "\u0633\u0648\u0628\u062d\u0627\u0646 \u0626\u0627\u0648\u0627", "name:ar": "\u0633\u0628\u062d\u0627\u0646 \u0622\u0648\u0627", "name:en": "Subhan Awa", "place": "village", "wikidata": "Q61390825", "wikipedia": "ckb:\u0633\u0648\u0628\u062d\u0627\u0646 \u0626\u0627\u0648\u0627"}}, {"type": "node", "id": 11290452496, "lat": 34.6469118, "lon": 45.4197533, "tags": {"name": "\u062d\u06d5\u0645\u06cc\u062f \u0626\u0627\u0648\u0627", "name:ar": "\u062d\u0645\u06cc\u062f\u0627\u0648\u0627", "name:en": "Hamid Awa", "place": "village", "wikidata": "Q61390786", "wikipedia": "ckb:\u062d\u06d5\u0645\u06cc\u062f \u0626\u0627\u0648\u0627"}}, {"type": "node", "id": 11290469442, "lat": 34.6067851, "lon": 45.4314739, "tags": {"name": "\u0628\u0627\u0646\u0632\u06d5\u0645\u06cc\u0646\u06cc \u0633\u06d5\u06cc\u062f\u06a9\u06d5\u0631\u06cc\u0645", "name:ar": "\u0628\u0627\u0646\u0632\u0627\u0645\u064a\u0646\u064a \u0633\u064a\u062f \u0643\u0631\u064a\u0645", "name:en": "Banzamini Sayed Karim", "place": "village", "wikidata": "Q61390713", "wikipedia": "ckb:\u0628\u0627\u0646\u0632\u06d5\u0645\u06cc\u0646\u06cc \u0633\u06d5\u06cc\u062f\u06a9\u06d5\u0631\u06cc\u0645"}}, {"type": "node", "id": 11290474785, "lat": 34.6465772, "lon": 45.4248308, "tags": {"name": "\u0628\u0627\u0646\u0632\u06d5\u0645\u06cc\u0646\u06cc \u0645\u06d5\u0644\u0627 \u0633\u06b5\u06ce\u0645\u0627\u0646", "name:ar": "\u0628\u0627\u0646\u0632\u0627\u0645\u064a\u0646\u064a \u0645\u0644\u0627 \u0633\u0644\u064a\u0645\u0627\u0646", "name:en": "Banzamini Mullah Sulaiman", "place": "village", "wikidata": "Q61390717", "wikipedia": "ckb:\u0628\u0627\u0646\u0632\u06d5\u0645\u06cc\u0646\u06cc \u0645\u06d5\u0644\u0627 \u0633\u06b5\u06ce\u0645\u0627\u0646"}}, {"type": "node", "id": 11290475627, "lat": 34.644587, "lon": 45.4082363, "tags": {"name": "\u0628\u0627\u0646\u0632\u06d5\u0645\u06cc\u0646\u06cc \u0633\u06d5\u06cc\u062f \u0645\u062d\u06d5\u0645\u06d5\u062f", "name:ar": "\u0628\u0627\u0646\u0632\u0627\u0645\u064a\u0646\u064a \u0633\u064a\u062f \u0645\u062d\u0645\u062f", "name:en": "Banzamini Sayed Mohammed", "place": "village", "wikidata": "Q61390714", "wikipedia": "ckb:\u0628\u0627\u0646\u0632\u06d5\u0645\u06cc\u0646\u06cc \u0633\u06d5\u06cc\u062f \u0645\u062d\u06d5\u0645\u06d5\u062f"}}, {"type": "node", "id": 11291917864, "lat": 34.5205327, "lon": 45.4759847}, {"type": "node", "id": 11291917865, "lat": 34.5197126, "lon": 45.475791}, {"type": "node", "id": 11291917866, "lat": 34.5191775, "lon": 45.4775129}, {"type": "node", "id": 11291917867, "lat": 34.519227, "lon": 45.4784028}, {"type": "node", "id": 11291917868, "lat": 34.5205024, "lon": 45.4799464}, {"type": "node", "id": 11291921506, "lat": 34.5654864, "lon": 45.4631691, "tags": {"name": "\u062d\u06d5\u0648\u0634 \u06a9\u0648\u0695\u0648", "name:ar": "\u062d\u0648\u0634 \u06a9\u0648\u0631\u0648", "name:en": "Hawsh korw", "place": "village", "wikidata": "Q61390788", "wikipedia": "ckb:\u062d\u06d5\u0648\u0634 \u06a9\u0648\u0695\u0648"}}, {"type": "node", "id": 11291944510, "lat": 34.5771986, "lon": 45.3924542, "tags": {"name": "\u06af\u06d5\u0631\u0645\u06a9 \u0642\u06d5\u06cc\u0633\u06d5\u0631", "name:ar": "\u06a9\u0631\u0645\u06a9 \u0642\u06cc\u0635\u0631", "name:en": "Garmak Caesar", "place": "village", "wikidata": "Q61390924", "wikipedia": "ckb:\u06af\u06d5\u0631\u0645\u06a9 \u0642\u06d5\u06cc\u0633\u06d5\u0631"}}, {"type": "node", "id": 11291979673, "lat": 34.5199889, "lon": 45.5062377}, {"type": "node", "id": 11291979674, "lat": 34.5198605, "lon": 45.5070006}, {"type": "node", "id": 11291979675, "lat": 34.5198942, "lon": 45.5075666}, {"type": "node", "id": 11291979676, "lat": 34.5204822, "lon": 45.5077635}, {"type": "node", "id": 11291979677, "lat": 34.520881, "lon": 45.5078455}, {"type": "node", "id": 11291979678, "lat": 34.5210229, "lon": 45.5073779}, {"type": "node", "id": 11291979679, "lat": 34.5212595, "lon": 45.5059424}, {"type": "node", "id": 11291979680, "lat": 34.5205363, "lon": 45.5054503}, {"type": "node", "id": 11291979681, "lat": 34.5203268, "lon": 45.5059506}, {"type": "node", "id": 11291981369, "lat": 34.5211152, "lon": 45.4772741}, {"type": "node", "id": 11291981370, "lat": 34.5210197, "lon": 45.4762466}, {"type": "node", "id": 11291981371, "lat": 34.5211685, "lon": 45.4753202}, {"type": "node", "id": 11291981372, "lat": 34.5206141, "lon": 45.4753009}, {"type": "node", "id": 11291981373, "lat": 34.5195192, "lon": 45.4797874}, {"type": "node", "id": 11292000395, "lat": 34.4966769, "lon": 45.443186, "tags": {"name": "\u062f\u06c6\u06b5\u06cc \u0628\u06d5\u06af\u0632\u0627\u062f", "name:ar": "\u062f\u0648\u0644\u064a \u0628\u06a9\u0632\u0627\u062f", "name:en": "Doli Bagzad", "place": "village", "wikidata": "Q61390812", "wikipedia": "ckb:\u062f\u06c6\u06b5\u06cc \u0628\u06d5\u06af\u0632\u0627\u062f"}}, {"type": "node", "id": 11292037967, "lat": 34.4927796, "lon": 45.45299, "tags": {"name": "\u0642\u06d5\u06b5\u06d5\u0645\u06d5", "name:ar": "\u0642\u0644\u0645\u0629", "name:en": "Qalama", "place": "village", "wikidata": "Q61390901", "wikipedia": "ckb:\u0642\u06d5\u06b5\u06d5\u0645\u06d5"}}, {"type": "node", "id": 11292045825, "lat": 34.521367, "lon": 45.3734433, "tags": {"name": "\u062f\u0627\u0631\u06d5\u062e\u0648\u0631\u0645\u0627\u06cc \u0645\u062d\u0645\u06d5\u062f\u0633\u0627\u0644\u0645", "name:ar": "\u062f\u0627\u0631\u0629 \u062e\u0631\u0645\u0627 \u0645\u062d\u0645\u062f\u0633\u0627\u0644\u0645", "name:en": "Darakhurma Muhammad Salm", "place": "village", "wikidata": "Q61390805", "wikipedia": "ckb:\u062f\u0627\u0631\u06d5\u062e\u0648\u0631\u0645\u0627\u06cc \u0645\u062d\u0645\u06d5\u062f\u0633\u0627\u0644\u0645"}}, {"type": "node", "id": 11292045826, "lat": 34.5231534, "lon": 45.3746866}, {"type": "node", "id": 11292045827, "lat": 34.522627, "lon": 45.3748571}, {"type": "node", "id": 11292045828, "lat": 34.5210509, "lon": 45.3718951}, {"type": "node", "id": 11292080171, "lat": 34.492234, "lon": 45.4016687, "tags": {"name": "\u062f\u0627\u0631\u06d5\u062e\u0648\u0631\u0645\u0627\u06cc \u0633\u06d5\u06cc\u062f\u063a\u06d5\u0631\u06cc\u0628", "name:ar": "\u062f\u0627\u0631\u0629\u062e\u0631\u0645\u0627 \u0633\u06cc\u062f\u063a\u0631\u06cc\u0628", "name:en": "Darakhurma Sayd Gharib", "place": "village", "wikidata": "Q61390794", "wikipedia": "ckb:\u062f\u0627\u0631\u06d5\u062e\u0648\u0631\u0645\u0627\u06cc \u0633\u06d5\u06cc\u062f\u063a\u06d5\u0631\u06cc\u0628"}}, {"type": "node", "id": 11294198456, "lat": 34.4855011, "lon": 45.2950759, "tags": {"name": "\u0633\u06d5\u06cc\u062f \u0633\u06cc\u062e\u06cc", "name:ar": "\u0633\u064a\u062f \u0633\u064a\u062e\u064a", "name:en": "Sayyid Sikhi", "place": "village", "wikidata": "Q61390849", "wikipedia": "ckb:\u0633\u06d5\u06cc\u062f \u0633\u06cc\u062e\u06cc"}}, {"type": "node", "id": 11295366480, "lat": 34.5751361, "lon": 45.350931, "tags": {"name": "\u0642\u0627\u062f\u0631 \u0626\u0627\u063a\u0627", "name:ar": "\u0642\u0627\u062f\u0631 \u0622\u063a\u0627", "name:en": "Qadr Agha", "place": "village", "wikidata": "Q61390886", "wikipedia": "ckb:\u0642\u0627\u062f\u0631\u0626\u0627\u063a\u0627"}}, {"type": "node", "id": 11295367225, "lat": 34.5851002, "lon": 45.3527335, "tags": {"name": "\u0648\u06d5\u0644\u06cc \u0626\u0627\u063a\u0627", "name:ar": "\u0648\u0644\u064a \u0622\u063a\u0627", "name:en": "Wali Agha", "place": "village", "wikidata": "Q61390962", "wikipedia": "ckb:\u0648\u06d5\u0644\u06cc \u0626\u0627\u063a\u0627"}}, {"type": "node", "id": 11295370806, "lat": 34.6267877, "lon": 45.3652925, "tags": {"name": "\u062f\u06d5\u0648\u0631\u06d5", "name:ar": "\u062f\u0648\u0631\u0629", "name:en": "Dawra", "place": "village", "wikidata": "Q61390810", "wikipedia": "ckb:\u062f\u06d5\u0648\u0631\u06d5"}}, {"type": "node", "id": 11295372105, "lat": 34.5998349, "lon": 45.3546454, "tags": {"name": "\u0628\u0627\u0631\u06cc\u06a9\u06d5", "name:ar": "\u0628\u0627\u0631\u06cc\u06a9\u0629", "name:en": "Barika", "place": "village", "wikidata": "Q61390712", "wikipedia": "ckb:\u0628\u0627\u0631\u06cc\u06a9\u06d5\u060c \u0642\u06c6\u0631\u06d5\u062a\u0648\u0648"}}, {"type": "node", "id": 11295373126, "lat": 34.5534284, "lon": 45.3358989, "tags": {"name": "\u067e\u0634\u062a \u067e\u06d5\u0646\u06af", "name:ar": "\u0628\u0634\u062a \u0628\u0646\u06a9", "name:en": "Pshtpang", "place": "village", "wikidata": "Q61390733", "wikipedia": "ckb:\u067e\u0634\u062a \u067e\u06d5\u0646\u06af"}}, {"type": "node", "id": 11295392764, "lat": 34.5665418, "lon": 45.3088648, "tags": {"name": "\u062e\u062f\u0631\u06cc \u06af\u06d5\u0648\u0631\u06d5", "name:ar": "\u062e\u062f\u0631 \u06a9\u0629\u0648\u0631\u0629", "name:en": "Great Khdr", "place": "village", "wikidata": "Q61390789", "wikipedia": "ckb:\u062e\u062f\u0631\u06cc \u06af\u06d5\u0648\u0631\u06d5"}}, {"type": "node", "id": 11295402533, "lat": 34.5700967, "lon": 45.3198443, "tags": {"name": "\u062e\u06d5\u06cc\u0627\u06b5", "name:ar": "\u062e\u06cc\u0627\u0644", "name:en": "Khayal", "place": "village", "wikidata": "Q61390793", "wikipedia": "ckb:\u062e\u06d5\u06cc\u0627\u06b5\u060c \u0642\u06c6\u0631\u06d5\u062a\u0648\u0648"}}, {"type": "node", "id": 11295421432, "lat": 34.5631786, "lon": 45.2902856, "tags": {"name": "\u0626\u0627\u0648\u0627\u06cc\u06cc \u0634\u06ce\u062e \u063a\u06d5\u0631\u06cc\u0628", "name:ar": "\u0622\u0648\u0627\u064a \u0634\u06cc\u062e \u063a\u0631\u06cc\u0628", "name:en": "Awayi Sheykh Gharib", "place": "village", "wikidata": "Q61390692", "wikipedia": "ckb:\u0626\u0627\u0648\u0627\u06cc\u06cc \u0634\u06ce\u062e \u063a\u06d5\u0631\u06cc\u0628"}}, {"type": "node", "id": 11295542838, "lat": 34.5157499, "lon": 45.3402619, "tags": {"name": "\u06a9\u0627\u06a9\u06c6\u06b5\u06cc", "name:ar": "\u06a9\u0627\u06a9\u0648\u0644\u064a", "name:en": "Kakoli", "place": "village", "wikidata": "Q61390902", "wikipedia": "ckb:\u06a9\u0627\u06a9\u06c6\u06b5\u06cc"}}, {"type": "node", "id": 11295589698, "lat": 34.4865513, "lon": 45.346139, "tags": {"name": "\u0633\u06d5\u0648\u0632\u0628\u06b5\u0627\u062e\u06cc \u0628\u0686\u0648\u0648\u06a9", "name:ar": "\u0633\u0648\u0632\u0628\u0644\u0627\u062e \u0627\u0644\u0635\u063a\u06cc\u0631", "name:en": "Little Sawzblakh", "place": "village", "wikidata": "Q61390842", "wikipedia": "ckb:\u0633\u06d5\u0648\u0632\u0628\u06b5\u0627\u062e\u06cc \u0628\u0686\u0648\u0648\u06a9"}}, {"type": "node", "id": 11295597073, "lat": 34.5087459, "lon": 45.3427114}, {"type": "node", "id": 11295597074, "lat": 34.5083554, "lon": 45.3433491}, {"type": "node", "id": 11295597075, "lat": 34.5082589, "lon": 45.3435715}, {"type": "node", "id": 11295597076, "lat": 34.5084856, "lon": 45.3441507}, {"type": "node", "id": 11295597077, "lat": 34.5080757, "lon": 45.3445076}, {"type": "node", "id": 11295597078, "lat": 34.5075791, "lon": 45.3447358}, {"type": "node", "id": 11295597079, "lat": 34.5074152, "lon": 45.3440454}, {"type": "node", "id": 11295597080, "lat": 34.5071355, "lon": 45.3437704}, {"type": "node", "id": 11295597081, "lat": 34.5063689, "lon": 45.3439928}, {"type": "node", "id": 11295597082, "lat": 34.5062001, "lon": 45.3431502}, {"type": "node", "id": 11295597083, "lat": 34.5058578, "lon": 45.3427406}, {"type": "node", "id": 11295597084, "lat": 34.505689, "lon": 45.3423427}, {"type": "node", "id": 11295597085, "lat": 34.5053852, "lon": 45.3424422}, {"type": "node", "id": 11295597086, "lat": 34.5052261, "lon": 45.3417576}, {"type": "node", "id": 11295597087, "lat": 34.5051538, "lon": 45.3409853}, {"type": "node", "id": 11295597088, "lat": 34.5075616, "lon": 45.3406128}, {"type": "node", "id": 11295597089, "lat": 34.507006, "lon": 45.3423527, "tags": {"name": "\u0633\u06d5\u0648\u0632\u0628\u06b5\u0627\u062e\u06cc \u06af\u06d5\u0648\u0631\u06d5", "name:ar": "\u0633\u0648\u0632\u0628\u0644\u0627\u062e \u0627\u0644\u06a9\u0628\u06cc\u0631", "name:en": "Great Sawzblakh", "place": "village", "wikidata": "Q61390848", "wikipedia": "ckb:\u0633\u06d5\u0648\u0632\u0628\u06b5\u0627\u062e\u06cc \u06af\u06d5\u0648\u0631\u06d5"}}, {"type": "node", "id": 11297350931, "lat": 34.5009553, "lon": 45.3113511, "tags": {"name": "\u063a\u06d5\u06cc\u062f\u0627\u0646", "name:ar": "\u063a\u064a\u062f\u0627\u0646", "name:en": "Ghaidan", "place": "village", "wikidata": "Q61390883", "wikipedia": "ckb:\u063a\u06d5\u06cc\u062f\u0627\u0646"}}, {"type": "node", "id": 11297351013, "lat": 34.4803782, "lon": 45.3414543, "tags": {"name": "\u0633\u06cc\u0627\u0648\u06b5\u06d5\u06cc \u0695\u06d5\u0634\u06cc\u062f", "name:ar": "\u0633\u06cc\u0627\u0648\u0644\u0629 \u0631\u0634\u06cc\u062f", "name:en": "Syawlla Rashid", "place": "village", "wikidata": "Q61390864", "wikipedia": "ckb:\u0633\u06cc\u0627\u0648\u06b5\u06d5\u06cc \u0695\u06d5\u0634\u06cc\u062f"}}, {"type": "node", "id": 11297366787, "lat": 34.5289841, "lon": 45.2940703, "tags": {"name": "\u0626\u0627\u0648\u0627\u06cc\u06cc \u06af\u06d5\u0648\u0631\u06d5", "name:ar": "\u0622\u0648\u0627\u06cc\u064a \u06a9\u0648\u0631\u0629", "name:en": "Awayi Gawra", "place": "village", "wikidata": "Q61390693", "wikipedia": "ckb:\u0626\u0627\u0648\u0627\u06cc\u06cc \u06af\u06d5\u0648\u0631\u06d5"}}, {"type": "node", "id": 11297368148, "lat": 34.4968857, "lon": 45.3350806}, {"type": "node", "id": 11297368149, "lat": 34.4972532, "lon": 45.3352646}, {"type": "node", "id": 11297368150, "lat": 34.4969791, "lon": 45.3360503}, {"type": "node", "id": 11297368151, "lat": 34.4966349, "lon": 45.3358026}, {"type": "node", "id": 11297368152, "lat": 34.4959523, "lon": 45.335477}, {"type": "node", "id": 11297368153, "lat": 34.4961273, "lon": 45.3348046}, {"type": "node", "id": 11297368154, "lat": 34.4967165, "lon": 45.3350948}, {"type": "node", "id": 11297368155, "lat": 34.4970782, "lon": 45.3340826}, {"type": "node", "id": 11297368156, "lat": 34.496664, "lon": 45.3338277}, {"type": "node", "id": 11297368157, "lat": 34.4969382, "lon": 45.3330987}, {"type": "node", "id": 11297368158, "lat": 34.4971191, "lon": 45.3331553}, {"type": "node", "id": 11297368159, "lat": 34.4972591, "lon": 45.3325607}, {"type": "node", "id": 11297368160, "lat": 34.4971132, "lon": 45.3324899}, {"type": "node", "id": 11297368161, "lat": 34.4972882, "lon": 45.3319166}, {"type": "node", "id": 11297368162, "lat": 34.4972124, "lon": 45.3318741}, {"type": "node", "id": 11297368163, "lat": 34.4972999, "lon": 45.3316193}, {"type": "node", "id": 11297368164, "lat": 34.4976149, "lon": 45.3317538}, {"type": "node", "id": 11297368165, "lat": 34.4971832, "lon": 45.3330703}, {"type": "node", "id": 11297368166, "lat": 34.4974224, "lon": 45.3332402}, {"type": "node", "id": 11297368167, "lat": 34.498455, "lon": 45.3303027}, {"type": "node", "id": 11297368168, "lat": 34.4969324, "lon": 45.3295241}, {"type": "node", "id": 11297369393, "lat": 34.5315189, "lon": 45.2955485, "tags": {"name": "\u062d\u0627\u062c\u06cc \u062e\u06d5\u0644\u06cc\u0644", "name:ar": "\u062d\u0627\u062c\u064a \u062e\u0644\u06cc\u0644", "name:en": "Haji Khalil", "place": "village", "wikidata": "Q61390776", "wikipedia": "ckb:\u062d\u0627\u062c\u06cc \u062e\u06d5\u0644\u06cc\u0644"}}, {"type": "node", "id": 11297374769, "lat": 34.4970782, "lon": 45.3293117}, {"type": "node", "id": 11297374770, "lat": 34.4971832, "lon": 45.3278677}, {"type": "node", "id": 11297374771, "lat": 34.4966057, "lon": 45.3277332}, {"type": "node", "id": 11297374772, "lat": 34.4966757, "lon": 45.3272802}, {"type": "node", "id": 11297374773, "lat": 34.4973116, "lon": 45.3274076}, {"type": "node", "id": 11297374774, "lat": 34.4972532, "lon": 45.3280447}, {"type": "node", "id": 11297374775, "lat": 34.4977316, "lon": 45.3281084}, {"type": "node", "id": 11297374776, "lat": 34.4976616, "lon": 45.3296727}, {"type": "node", "id": 11297374777, "lat": 34.4986416, "lon": 45.3301824}, {"type": "node", "id": 11297374778, "lat": 34.4978599, "lon": 45.3323767}, {"type": "node", "id": 11297374779, "lat": 34.4973772, "lon": 45.3319742, "tags": {"name": "\u0633\u06cc\u0627\u0648\u06b5\u06d5\u06cc \u0634\u06ce\u062e \u0646\u06d5\u062c\u0645", "name:ar": "\u0633\u06cc\u0627\u0648\u0644\u0629 \u0634\u06cc\u062e \u0646\u062c\u0645", "name:en": "Syawlla Sheykh Najm", "place": "village", "wikidata": "Q61390866", "wikipedia": "ckb:\u0633\u06cc\u0627\u0648\u06b5\u06d5\u06cc \u0634\u06ce\u062e \u0646\u06d5\u062c\u0645"}}, {"type": "node", "id": 11297394459, "lat": 34.4647356, "lon": 45.3423396, "tags": {"name": "\u0645\u0648\u0633\u0627\u0639\u0648\u0633\u0645\u0627\u0646", "name:ar": "\u0645\u0648\u0633\u0649 \u0639\u062b\u0645\u0627\u0646", "name:en": "Musa Osman", "place": "village", "wikidata": "Q61390956", "wikipedia": "ckb:\u0645\u0648\u0633\u0627\u0639\u0648\u0633\u0645\u0627\u0646"}}, {"type": "node", "id": 11297399868, "lat": 34.5147167, "lon": 45.2998315, "tags": {"name": "\u062a\u0627\u0632\u06d5\u0634\u0627\u0631", "name:ar": "\u062a\u0627\u0632\u0629\u0634\u0627\u0631", "name:en": "Taza Shar", "place": "village", "wikidata": "Q61390752", "wikipedia": "ckb:\u062a\u0627\u0632\u06d5\u0634\u0627\u0631\u060c \u0642\u06c6\u0631\u06d5\u062a\u0648\u0648"}}, {"type": "node", "id": 11297404381, "lat": 34.5106075, "lon": 45.2999075, "tags": {"name": "\u06a9\u0627\u0646\u06cc \u0632\u06d5\u0631\u062f", "name:ar": "\u06a9\u0627\u0646\u064a \u0632\u0631\u062f", "name:en": "Kani Zard", "place": "village", "wikidata": "Q61390904", "wikipedia": "ckb:\u06a9\u0627\u0646\u06cc \u0632\u06d5\u0631\u062f"}}, {"type": "node", "id": 11297415704, "lat": 34.529082, "lon": 45.4275606, "tags": {"name": "\u0645\u06d5\u0631\u06a9\u06d5\u0632\u062d\u062f\u0648\u062f", "name:ar": "\u0645\u0631\u06a9\u0632 \u062d\u062f\u0648\u062f", "name:en": "Markaz Hdud", "place": "village", "wikidata": "Q61390943", "wikipedia": "ckb:\u0645\u06d5\u0631\u06a9\u06d5\u0632\u062d\u062f\u0648\u062f"}}, {"type": "node", "id": 11297415709, "lat": 34.5343311, "lon": 45.43719, "tags": {"name": "\u0645\u06d5\u0631\u06a9\u06d5\u0632\u0634\u06ce\u062e", "name:ar": "\u0645\u0631\u06a9\u0632\u0634\u06cc\u062e", "name:en": "Markaz Sheykh", "place": "village", "wikidata": "Q61390942", "wikipedia": "ckb:\u0645\u06d5\u0631\u06a9\u06d5\u0632\u0634\u06ce\u062e"}}, {"type": "node", "id": 11297431140, "lat": 34.5716175, "lon": 45.0967689}, {"type": "node", "id": 11297431141, "lat": 34.5719829, "lon": 45.0973111}, {"type": "node", "id": 11297431142, "lat": 34.5721655, "lon": 45.0971263}, {"type": "node", "id": 11297431143, "lat": 34.5725207, "lon": 45.0976316}, {"type": "node", "id": 11297431144, "lat": 34.5725613, "lon": 45.0980383}, {"type": "node", "id": 11297431145, "lat": 34.5723177, "lon": 45.0988886}, {"type": "node", "id": 11297431146, "lat": 34.572267, "lon": 45.1004538}, {"type": "node", "id": 11297431147, "lat": 34.5713232, "lon": 45.1012426}, {"type": "node", "id": 11297431148, "lat": 34.5713334, "lon": 45.1018588}, {"type": "node", "id": 11297431149, "lat": 34.5714552, "lon": 45.1022162}, {"type": "node", "id": 11297431150, "lat": 34.5709478, "lon": 45.1030172}, {"type": "node", "id": 11297431151, "lat": 34.569801, "lon": 45.1039046}, {"type": "node", "id": 11297431152, "lat": 34.5692226, "lon": 45.1037197}, {"type": "node", "id": 11297431153, "lat": 34.568979, "lon": 45.1032514}, {"type": "node", "id": 11297431154, "lat": 34.5684412, "lon": 45.1021176}, {"type": "node", "id": 11297431155, "lat": 34.567812, "lon": 45.1016492}, {"type": "node", "id": 11297431156, "lat": 34.5678729, "lon": 45.1010084}, {"type": "node", "id": 11297431157, "lat": 34.568908, "lon": 45.0997267}, {"type": "node", "id": 11297431158, "lat": 34.5683904, "lon": 45.0987654}, {"type": "node", "id": 11297431159, "lat": 34.5688065, "lon": 45.0982601}, {"type": "node", "id": 11297431160, "lat": 34.5691921, "lon": 45.0986914}, {"type": "node", "id": 11297431161, "lat": 34.5694864, "lon": 45.098371}, {"type": "node", "id": 11297431162, "lat": 34.5699837, "lon": 45.0986791}, {"type": "node", "id": 11297431163, "lat": 34.5705317, "lon": 45.0979273}, {"type": "node", "id": 11297431164, "lat": 34.5707753, "lon": 45.0975083}, {"type": "node", "id": 11297431165, "lat": 34.5711406, "lon": 45.0965963}, {"type": "node", "id": 11297495805, "lat": 34.5745785, "lon": 45.0941052}, {"type": "node", "id": 11297495806, "lat": 34.5743654, "lon": 45.0938464}, {"type": "node", "id": 11297495807, "lat": 34.5737261, "lon": 45.0944749}, {"type": "node", "id": 11297495808, "lat": 34.5738174, "lon": 45.0947214}, {"type": "node", "id": 11297495809, "lat": 34.5737362, "lon": 45.0954116}, {"type": "node", "id": 11297495810, "lat": 34.5736144, "lon": 45.095769}, {"type": "node", "id": 11297495811, "lat": 34.5740204, "lon": 45.0964838}, {"type": "node", "id": 11297495812, "lat": 34.5745988, "lon": 45.096225}, {"type": "node", "id": 11297495813, "lat": 34.5749945, "lon": 45.0965577}, {"type": "node", "id": 11297495814, "lat": 34.5751062, "lon": 45.0966686}, {"type": "node", "id": 11297495815, "lat": 34.5757759, "lon": 45.0960031}, {"type": "node", "id": 11297495816, "lat": 34.5761513, "lon": 45.0954732}, {"type": "node", "id": 11297495817, "lat": 34.576334, "lon": 45.0951404}, {"type": "node", "id": 11297495818, "lat": 34.5764152, "lon": 45.0945982}, {"type": "node", "id": 11297495819, "lat": 34.5759382, "lon": 45.0941915}, {"type": "node", "id": 11297495820, "lat": 34.5755628, "lon": 45.0932548}, {"type": "node", "id": 11297496330, "lat": 34.493995, "lon": 45.105855}, {"type": "node", "id": 11297496331, "lat": 34.4935882, "lon": 45.1062251}, {"type": "node", "id": 11297496332, "lat": 34.4934158, "lon": 45.1065577}, {"type": "node", "id": 11297496333, "lat": 34.493261, "lon": 45.107593}, {"type": "node", "id": 11297496334, "lat": 34.4933141, "lon": 45.1081241}, {"type": "node", "id": 11297496335, "lat": 34.4938491, "lon": 45.1082904}, {"type": "node", "id": 11297496336, "lat": 34.4936766, "lon": 45.1094545}, {"type": "node", "id": 11297496337, "lat": 34.4933981, "lon": 45.1093794}, {"type": "node", "id": 11297496338, "lat": 34.4933539, "lon": 45.1099212}, {"type": "node", "id": 11297496339, "lat": 34.4930975, "lon": 45.1102323}, {"type": "node", "id": 11297496340, "lat": 34.492956, "lon": 45.1109672}, {"type": "node", "id": 11297496341, "lat": 34.493009, "lon": 45.111096}, {"type": "node", "id": 11297496342, "lat": 34.4936988, "lon": 45.111493}, {"type": "node", "id": 11297496343, "lat": 34.4940171, "lon": 45.1100231}, {"type": "node", "id": 11297496344, "lat": 34.4942691, "lon": 45.1101304}, {"type": "node", "id": 11297496345, "lat": 34.4946361, "lon": 45.1106561}, {"type": "node", "id": 11297496346, "lat": 34.4943398, "lon": 45.1115466}, {"type": "node", "id": 11297496347, "lat": 34.4946272, "lon": 45.1118524}, {"type": "node", "id": 11297496348, "lat": 34.4949102, "lon": 45.1120723}, {"type": "node", "id": 11297496349, "lat": 34.4952329, "lon": 45.1121689}, {"type": "node", "id": 11297496350, "lat": 34.4954054, "lon": 45.1123674}, {"type": "node", "id": 11297496351, "lat": 34.4957325, "lon": 45.1123459}, {"type": "node", "id": 11297496352, "lat": 34.4960376, "lon": 45.1115949}, {"type": "node", "id": 11297496353, "lat": 34.4956574, "lon": 45.1114393}, {"type": "node", "id": 11297496354, "lat": 34.4958784, "lon": 45.1109082}, {"type": "node", "id": 11297496355, "lat": 34.4960508, "lon": 45.1106937}, {"type": "node", "id": 11297496356, "lat": 34.4957546, "lon": 45.110007}, {"type": "node", "id": 11297496357, "lat": 34.4958342, "lon": 45.1097495}, {"type": "node", "id": 11297496358, "lat": 34.4962365, "lon": 45.1102001}, {"type": "node", "id": 11297496359, "lat": 34.4966919, "lon": 45.10983}, {"type": "node", "id": 11297496360, "lat": 34.4968378, "lon": 45.1096637}, {"type": "node", "id": 11297496361, "lat": 34.4961967, "lon": 45.1086445}, {"type": "node", "id": 11297496362, "lat": 34.4961304, "lon": 45.1084996}, {"type": "node", "id": 11297496363, "lat": 34.4962675, "lon": 45.1078827}, {"type": "node", "id": 11297496364, "lat": 34.4971694, "lon": 45.1076359}, {"type": "node", "id": 11297496365, "lat": 34.4972667, "lon": 45.1075179}, {"type": "node", "id": 11297496366, "lat": 34.4974214, "lon": 45.1075072}, {"type": "node", "id": 11297496367, "lat": 34.4974921, "lon": 45.1071531}, {"type": "node", "id": 11297496368, "lat": 34.4972799, "lon": 45.1067133}, {"type": "node", "id": 11297498374, "lat": 34.5826875, "lon": 45.0836916}, {"type": "node", "id": 11297498375, "lat": 34.5824835, "lon": 45.0838402}, {"type": "node", "id": 11297498376, "lat": 34.5827807, "lon": 45.084725}, {"type": "node", "id": 11297498377, "lat": 34.5830546, "lon": 45.0852488}, {"type": "node", "id": 11297498378, "lat": 34.5833052, "lon": 45.0856311}, {"type": "node", "id": 11297498379, "lat": 34.5838647, "lon": 45.0860345}, {"type": "node", "id": 11297498380, "lat": 34.5843833, "lon": 45.0861053}, {"type": "node", "id": 11297498381, "lat": 34.5844941, "lon": 45.0863177}, {"type": "node", "id": 11297498382, "lat": 34.5848495, "lon": 45.0858788}, {"type": "node", "id": 11297498383, "lat": 34.5849603, "lon": 45.0855107}, {"type": "node", "id": 11297498384, "lat": 34.5848903, "lon": 45.0850506}, {"type": "node", "id": 11297498385, "lat": 34.58436, "lon": 45.0851285}, {"type": "node", "id": 11297498386, "lat": 34.5838181, "lon": 45.0850719}, {"type": "node", "id": 11297498387, "lat": 34.5836491, "lon": 45.0847887}, {"type": "node", "id": 11297498388, "lat": 34.5842202, "lon": 45.0841587}, {"type": "node", "id": 11297498389, "lat": 34.5839346, "lon": 45.0838048}, {"type": "node", "id": 11297498390, "lat": 34.5838355, "lon": 45.0835642}, {"type": "node", "id": 11297498391, "lat": 34.5834393, "lon": 45.0832244}, {"type": "node", "id": 11297498392, "lat": 34.5832703, "lon": 45.0835288}, {"type": "node", "id": 11297498393, "lat": 34.5828915, "lon": 45.0837482}, {"type": "node", "id": 11297510087, "lat": 34.4887818, "lon": 45.1167273}, {"type": "node", "id": 11297510088, "lat": 34.4890128, "lon": 45.1168394}, {"type": "node", "id": 11297510089, "lat": 34.4892283, "lon": 45.1168114}, {"type": "node", "id": 11297510090, "lat": 34.4893977, "lon": 45.1161669}, {"type": "node", "id": 11297510091, "lat": 34.4896594, "lon": 45.1159521}, {"type": "node", "id": 11297510092, "lat": 34.4900752, "lon": 45.1160268}, {"type": "node", "id": 11297510093, "lat": 34.4901675, "lon": 45.1165498}, {"type": "node", "id": 11297510094, "lat": 34.4898519, "lon": 45.117297}, {"type": "node", "id": 11297510095, "lat": 34.4913377, "lon": 45.1182124}, {"type": "node", "id": 11297510096, "lat": 34.4910066, "lon": 45.1189222}, {"type": "node", "id": 11297510097, "lat": 34.4921614, "lon": 45.11952}, {"type": "node", "id": 11297510098, "lat": 34.4925232, "lon": 45.1197908}, {"type": "node", "id": 11297510099, "lat": 34.4923076, "lon": 45.1206688}, {"type": "node", "id": 11297510100, "lat": 34.491915, "lon": 45.1208276}, {"type": "node", "id": 11297510101, "lat": 34.4917072, "lon": 45.1206501}, {"type": "node", "id": 11297510102, "lat": 34.4914146, "lon": 45.1205847}, {"type": "node", "id": 11297510103, "lat": 34.4910143, "lon": 45.1199589}, {"type": "node", "id": 11297510104, "lat": 34.4905524, "lon": 45.1197441}, {"type": "node", "id": 11297510105, "lat": 34.4900136, "lon": 45.1208276}, {"type": "node", "id": 11297510106, "lat": 34.4897518, "lon": 45.1213786}, {"type": "node", "id": 11297510107, "lat": 34.4893515, "lon": 45.1210611}, {"type": "node", "id": 11297510108, "lat": 34.4889435, "lon": 45.1208276}, {"type": "node", "id": 11297510109, "lat": 34.4889743, "lon": 45.1205754}, {"type": "node", "id": 11297510110, "lat": 34.4886048, "lon": 45.1203606}, {"type": "node", "id": 11297510111, "lat": 34.4885971, "lon": 45.1195853}, {"type": "node", "id": 11297510112, "lat": 34.4887895, "lon": 45.1193145}, {"type": "node", "id": 11297510113, "lat": 34.4886433, "lon": 45.1189876}, {"type": "node", "id": 11297510114, "lat": 34.4883122, "lon": 45.1199403}, {"type": "node", "id": 11297510115, "lat": 34.4882814, "lon": 45.1201084}, {"type": "node", "id": 11297510116, "lat": 34.4878118, "lon": 45.1200897}, {"type": "node", "id": 11297510117, "lat": 34.487935, "lon": 45.1196414}, {"type": "node", "id": 11297510118, "lat": 34.4875963, "lon": 45.1193612}, {"type": "node", "id": 11297510119, "lat": 34.4880274, "lon": 45.1183711}, {"type": "node", "id": 11297510120, "lat": 34.4883122, "lon": 45.1175586}, {"type": "node", "id": 11297510121, "lat": 34.4885124, "lon": 45.1168954}, {"type": "node", "id": 11297510617, "lat": 34.4854594, "lon": 45.0990558}, {"type": "node", "id": 11297510618, "lat": 34.485296, "lon": 45.0992116}, {"type": "node", "id": 11297510619, "lat": 34.485086, "lon": 45.0994522}, {"type": "node", "id": 11297510620, "lat": 34.4849226, "lon": 45.0996929}, {"type": "node", "id": 11297510621, "lat": 34.4848643, "lon": 45.0998911}, {"type": "node", "id": 11297510622, "lat": 34.4849109, "lon": 45.1001459}, {"type": "node", "id": 11297510623, "lat": 34.4857861, "lon": 45.1001176}, {"type": "node", "id": 11297510624, "lat": 34.4863462, "lon": 45.0989992}, {"type": "node", "id": 11297510625, "lat": 34.486988, "lon": 45.099523}, {"type": "node", "id": 11297510626, "lat": 34.4865563, "lon": 45.1003158}, {"type": "node", "id": 11297510627, "lat": 34.4867546, "lon": 45.1005281}, {"type": "node", "id": 11297510628, "lat": 34.4863346, "lon": 45.1012218}, {"type": "node", "id": 11297510629, "lat": 34.4860078, "lon": 45.1014625}, {"type": "node", "id": 11297510630, "lat": 34.4861595, "lon": 45.1022411}, {"type": "node", "id": 11297510631, "lat": 34.4865679, "lon": 45.101958}, {"type": "node", "id": 11297510632, "lat": 34.486918, "lon": 45.1014625}, {"type": "node", "id": 11297510633, "lat": 34.4873089, "lon": 45.10079}, {"type": "node", "id": 11297510634, "lat": 34.4872564, "lon": 45.100698}, {"type": "node", "id": 11297510635, "lat": 34.4876006, "lon": 45.1001813}, {"type": "node", "id": 11297510637, "lat": 34.4880512, "lon": 45.0993653}, {"type": "node", "id": 11297510638, "lat": 34.4885166, "lon": 45.0985179}, {"type": "node", "id": 11297510639, "lat": 34.4888083, "lon": 45.0979091}, {"type": "node", "id": 11297510640, "lat": 34.4893042, "lon": 45.0972721}, {"type": "node", "id": 11297510641, "lat": 34.4897301, "lon": 45.0964581}, {"type": "node", "id": 11297510642, "lat": 34.4899868, "lon": 45.0960121}, {"type": "node", "id": 11297510643, "lat": 34.4891642, "lon": 45.0953043}, {"type": "node", "id": 11297510644, "lat": 34.4887442, "lon": 45.0956299}, {"type": "node", "id": 11297510645, "lat": 34.4884116, "lon": 45.0953043}, {"type": "node", "id": 11297510646, "lat": 34.4880149, "lon": 45.0956087}, {"type": "node", "id": 11297510647, "lat": 34.487834, "lon": 45.0956865}, {"type": "node", "id": 11297510648, "lat": 34.4879157, "lon": 45.0960617}, {"type": "node", "id": 11297510649, "lat": 34.4873498, "lon": 45.0961183}, {"type": "node", "id": 11297510650, "lat": 34.4870055, "lon": 45.0964227}, {"type": "node", "id": 11297510651, "lat": 34.4867838, "lon": 45.0964652}, {"type": "node", "id": 11297510652, "lat": 34.4865213, "lon": 45.096996}, {"type": "node", "id": 11297510653, "lat": 34.486037, "lon": 45.0968615}, {"type": "node", "id": 11297510654, "lat": 34.4860195, "lon": 45.096996}, {"type": "node", "id": 11297510655, "lat": 34.486212, "lon": 45.097442}, {"type": "node", "id": 11297510656, "lat": 34.486813, "lon": 45.0979799}, {"type": "node", "id": 11297510657, "lat": 34.4875014, "lon": 45.0986524}, {"type": "node", "id": 11297510658, "lat": 34.4877757, "lon": 45.098893}, {"type": "node", "id": 11297510659, "lat": 34.4873964, "lon": 45.0995655}, {"type": "node", "id": 11297510662, "lat": 34.4871222, "lon": 45.099339}, {"type": "node", "id": 11297510663, "lat": 34.4871631, "lon": 45.0991762}, {"type": "node", "id": 11297510664, "lat": 34.4868772, "lon": 45.0989214}, {"type": "node", "id": 11297510665, "lat": 34.4866555, "lon": 45.0988506}, {"type": "node", "id": 11297510666, "lat": 34.4868013, "lon": 45.0992894}, {"type": "node", "id": 11297510667, "lat": 34.4864454, "lon": 45.0988081}, {"type": "node", "id": 11297510668, "lat": 34.4862821, "lon": 45.0989638}, {"type": "node", "id": 11297517869, "lat": 34.4975275, "lon": 45.1061661}, {"type": "node", "id": 11297517870, "lat": 34.4973241, "lon": 45.1059301}, {"type": "node", "id": 11297517871, "lat": 34.4968201, "lon": 45.1059944}, {"type": "node", "id": 11297517872, "lat": 34.4968157, "lon": 45.1057906}, {"type": "node", "id": 11297517873, "lat": 34.4963736, "lon": 45.1053346}, {"type": "node", "id": 11297517874, "lat": 34.4961348, "lon": 45.1047874}, {"type": "node", "id": 11297517875, "lat": 34.4970456, "lon": 45.1043636}, {"type": "node", "id": 11297517876, "lat": 34.4976203, "lon": 45.1038165}, {"type": "node", "id": 11297517877, "lat": 34.4977265, "lon": 45.1036877}, {"type": "node", "id": 11297517878, "lat": 34.497753, "lon": 45.102985}, {"type": "node", "id": 11297517879, "lat": 34.4978989, "lon": 45.1027168}, {"type": "node", "id": 11297517880, "lat": 34.4977618, "lon": 45.1023466}, {"type": "node", "id": 11297517881, "lat": 34.4973551, "lon": 45.1024056}, {"type": "node", "id": 11297517882, "lat": 34.4972622, "lon": 45.1028241}, {"type": "node", "id": 11297517883, "lat": 34.4968599, "lon": 45.1025558}, {"type": "node", "id": 11297517884, "lat": 34.4967892, "lon": 45.1029528}, {"type": "node", "id": 11297517885, "lat": 34.4971252, "lon": 45.1034141}, {"type": "node", "id": 11297517886, "lat": 34.4971296, "lon": 45.1036931}, {"type": "node", "id": 11297517887, "lat": 34.4970147, "lon": 45.1041491}, {"type": "node", "id": 11297517888, "lat": 34.4965195, "lon": 45.1044387}, {"type": "node", "id": 11297517889, "lat": 34.4964355, "lon": 45.1040364}, {"type": "node", "id": 11297517890, "lat": 34.4961967, "lon": 45.1041062}, {"type": "node", "id": 11297517891, "lat": 34.4960685, "lon": 45.1046104}, {"type": "node", "id": 11297517892, "lat": 34.4956839, "lon": 45.1048196}, {"type": "node", "id": 11297517893, "lat": 34.4953611, "lon": 45.104428}, {"type": "node", "id": 11297517894, "lat": 34.4949898, "lon": 45.1042349}, {"type": "node", "id": 11297517895, "lat": 34.4948748, "lon": 45.1043046}, {"type": "node", "id": 11297517896, "lat": 34.4945653, "lon": 45.104648}, {"type": "node", "id": 11297517897, "lat": 34.4945874, "lon": 45.1048518}, {"type": "node", "id": 11297517898, "lat": 34.4943487, "lon": 45.1053024}, {"type": "node", "id": 11297539269, "lat": 34.4859262, "lon": 45.0995301}, {"type": "node", "id": 11299138492, "lat": 34.5606141, "lon": 45.1648404, "tags": {"name": "\u06af\u0648\u0645\u0627\u0631", "name:ar": "\u06a9\u0648\u0645\u0627\u0631", "name:en": "Gumar", "place": "village", "wikidata": "Q61391938", "wikipedia": "ckb:\u06af\u0648\u0645\u0627\u0631"}}, {"type": "node", "id": 11299336697, "lat": 34.5085755, "lon": 45.0861044, "tags": {"name": "\u062c\u06d5\u062f\u06cc\u062f\u06d5", "name:ar": "\u062c\u062f\u06cc\u062f\u0629", "name:en": "Jadida", "place": "village", "wikidata": "Q61391922", "wikipedia": "ckb:\u062c\u06d5\u062f\u06cc\u062f\u06d5"}}, {"type": "node", "id": 11299373956, "lat": 34.4572057, "lon": 45.1250004, "tags": {"name": "\u0645\u062d\u06d5\u0645\u06d5\u062f\u0633\u06d5\u0644\u06cc\u0645", "name:ar": "\u0645\u062d\u0645\u062f \u0633\u0644\u064a\u0645", "name:en": "Mohammed Salim", "place": "village", "wikidata": "Q61391933", "wikipedia": "ckb:\u0645\u062d\u06d5\u0645\u06d5\u062f\u0633\u06d5\u0644\u06cc\u0645"}}, {"type": "node", "id": 11409830777, "lat": 34.5597888, "lon": 45.5911749}, {"type": "way", "id": 260303382, "nodes": [2657738042, 2657738036, 2657738192, 2657738217, 3398947842, 2657738201, 2657738238, 2657738258, 2657738031, 2657738060, 2657738189, 2657738108, 2657738156, 2657738264, 2657738092, 2657738302, 2657738110, 2657738042], "tags": {"name": "\u0639\u06cc\u0633\u0627\u06cc\u06cc", "place": "village", "residential": "rural", "wikidata": "Q61391018", "wikipedia": "ckb:\u0639\u06cc\u0633\u0627\u06cc\u06cc"}}, {"type": "way", "id": 260953567, "nodes": [2665489738, 2665489910, 2665489973, 2665489937, 3315838722, 2665489745, 2665489794, 2665489808, 2665489869, 2665490001, 2665489833, 3320082221, 2665489981, 2665489738], "tags": {"name": "\u0633\u06d5\u06cc\u062f\u06d5", "place": "village", "residential": "rural", "wikidata": "Q61391726", "wikipedia": "ckb:\u0633\u06d5\u06cc\u062f\u06d5"}}, {"type": "way", "id": 321740815, "nodes": [3285070784, 11292045828, 3285070789, 3285070793, 3285070794, 11292045826, 11292045827, 3285070792, 3285070786, 3285070780, 3285070784], "tags": {"name": "\u062f\u0627\u0631\u06d5\u062e\u0648\u0631\u0645\u0627\u06cc \u0645\u062d\u0645\u06d5\u062f\u0633\u0627\u0644\u0645", "name:ar": "\u062f\u0627\u0631\u0629 \u062e\u0631\u0645\u0627 \u0645\u062d\u0645\u062f\u0633\u0627\u0644\u0645", "name:en": "Darakhurma Muhammad Salm", "place": "village", "residential": "rural", "wikidata": "Q61390805", "wikipedia": "ckb:\u062f\u0627\u0631\u06d5\u062e\u0648\u0631\u0645\u0627\u06cc \u0645\u062d\u0645\u06d5\u062f\u0633\u0627\u0644\u0645"}}, {"type": "way", "id": 322306703, "nodes": [3290717370, 3290717369, 3290717362, 3290716260, 3290716245, 3290716246, 3290716253, 3290717370], "tags": {"place": "village"}}, {"type": "way", "id": 323303727, "nodes": [3301033967, 3301033969, 3301033961, 7369492769, 3301033949, 3301033946, 3301033944, 3301033947, 3301033955, 3301033967], "tags": {"name": "\u062d\u06d5\u0648\u0634 \u06a9\u0648\u0695\u0648", "place": "village", "residential": "rural", "wikidata": "Q61390788", "wikipedia": "ckb:\u062d\u06d5\u0648\u0634 \u06a9\u0648\u0695\u0648"}}, {"type": "way", "id": 323305026, "nodes": [3301050316, 3301050313, 3301050304, 3301050297, 5394455550, 5394455549, 3301050289, 3301050282, 3301050278, 3301050277, 5394455547, 3301050272, 5394455546, 3301050271, 5394455545, 3301050269, 3301050263, 5394455544, 3301050262, 5390953567, 3301050261, 5394455542, 5390990206, 5394455543, 5394455541, 5394455540, 5394455539, 5393291965, 3301050264, 3301050268, 3301050280, 5394455538, 3301050287, 3301050286, 3301050290, 3301050298, 3301050301, 5394455537, 3301050303, 3301050306, 3301050308, 3301050307, 3301050311, 3301050315, 3301050314, 3301050312, 3301050317, 3301050318, 3301050319, 3301050316], "tags": {"name": "\u0632\u06d5\u0645\u0627\u0648\u06d5\u0646\u06af\u06d5", "place": "village", "residential": "rural", "wikidata": "Q61390999", "wikipedia": "ckb:\u0632\u06d5\u0645\u0627\u0648\u06d5\u0646\u06af\u06d5"}}, {"type": "way", "id": 323307926, "nodes": [3301078166, 3301078054, 7352459795, 7352459796, 7352459797, 3370575819, 3301078161, 3301078166], "tags": {"name": "\u0626\u06d5\u0648\u06b5\u0627\u0642\u0648\u062a", "place": "village", "residential": "rural", "wikidata": "Q61391669", "wikipedia": "ckb:\u0626\u06d5\u0648\u06b5\u0627\u0642\u0648\u062a"}}, {"type": "way", "id": 326256026, "nodes": [3328736526, 3328736552, 3328736553, 3328736519, 7370193866, 3328736491, 3328736487, 3328736489, 3328736494, 3328736526], "tags": {"name": "\u0645\u06d5\u0631\u06a9\u06d5\u0632\u062d\u062f\u0648\u062f", "place": "village", "residential": "rural", "wikidata": "Q61390943", "wikipedia": "ckb:\u0645\u06d5\u0631\u06a9\u06d5\u0632\u062d\u062f\u0648\u062f"}}, {"type": "way", "id": 331284750, "nodes": [3383435344, 3845063062, 3383435345, 3845079105, 3383435347, 3838462789, 3383435340, 3383435342, 3383435343, 3383435341, 3845055720, 3845055719, 3383435348, 3383435346, 3383435339, 3383435344], "tags": {"place": "village"}}, {"type": "way", "id": 336305459, "nodes": [3433591549, 3433591550, 3433591551, 3433591552, 3433591553, 3433591554, 3433591555, 3433591556, 3433591557, 3433591558, 3433591559, 3433591560, 3433591561, 3433591562, 3433591563, 3433591564, 3433591565, 3433591566, 3433591567, 3433591568, 3433591569, 3628519774, 3433591570, 3433591571, 3433591572, 3433591573, 3433591574, 3433591575, 3433591576, 3433591577, 3433591578, 3433591579, 3433591580, 3433591581, 3433591582, 3433591583, 3433591584, 3433591585, 3433591586, 3433591549], "tags": {"name": "\u062a\u0648\u0631\u06a9\u06d5", "place": "village", "residential": "rural", "wikidata": "Q61390982", "wikipedia": "ckb:\u062a\u0648\u0631\u06a9\u06d5"}}, {"type": "way", "id": 337007261, "nodes": [3441018034, 11269942281, 11269942280, 11269942279, 3441018035, 11269942278, 3441018036, 3441018037, 7352537842, 3441018034], "tags": {"name": "\u062f\u06ce \u0628\u0646\u06d5", "place": "village", "residential": "rural", "wikidata": "Q61391716", "wikipedia": "ckb:\u062f\u06ce \u0628\u0646\u06d5"}}, {"type": "way", "id": 337178837, "nodes": [3442772043, 3442772044, 3442772045, 3442772046, 3442772047, 3442772048, 3442772049, 3442772050, 3442772051, 3442772052, 3442772053, 3442772054, 3442772055, 3442772056, 3442772057, 3442772058, 3442772059, 3442772060, 3442772061, 3442772062, 3442772063, 3442772064, 3442772065, 3442772066, 3442772067, 3442772068, 3442772069, 3442772070, 3442772071, 3442772072, 3442772073, 3442772074, 3442772043], "tags": {"place": "village"}}, {"type": "way", "id": 337197190, "nodes": [3442953259, 3442953260, 3442953261, 3442953262, 3442953263, 3442953264, 3442953265, 3442953266, 3442953267, 3442953268, 3442953269, 3442953270, 3442953271, 3442953259], "tags": {"name": "\u062f\u06ce", "place": "village"}}, {"type": "way", "id": 337690001, "nodes": [3447553713, 3447553714, 3447553715, 3447553716, 3447553717, 3447553718, 3447553719, 3447553720, 3447553721, 3447553722, 3447553723, 3447553724, 3447553725, 3447553726, 3447553713], "tags": {"place": "village"}}, {"type": "way", "id": 364192225, "nodes": [3682556963, 3682556964, 3682556965, 3682556966, 3682556967, 3682556968, 3682556969, 3682556970, 3682556971, 3682556972, 11282243512, 11282243511, 11282243513, 3682556973, 11282243510, 3682556974, 3682556963], "tags": {"name": "\u0628\u06d5\u0631\u062f\u06d5\u0633\u0648\u0648\u0631", "place": "village", "residential": "rural", "wikidata": "Q61390964", "wikipedia": "ckb:\u0628\u06d5\u0631\u062f\u06d5\u0633\u0648\u0648\u0631\u060c \u06a9\u06d5\u0644\u0627\u0631"}}, {"type": "way", "id": 383533203, "nodes": [3868164333, 3868164336, 3868164337, 3868164339, 3868164340, 3868164341, 3868164343, 3868164344, 3868164345, 3868164347, 3868164349, 7369564429, 3868164352, 3868164354, 3868164333], "tags": {"name": "\u062f\u06d5\u0648\u0631\u06d5", "place": "village", "residential": "rural", "wikidata": "Q61390810", "wikipedia": "ckb:\u062f\u06d5\u0648\u0631\u06d5"}}, {"type": "way", "id": 385192687, "nodes": [3885500663, 3885500665, 3885500666, 3885500667, 3885500668, 3885500669, 3885500670, 3885500671, 3885500672, 3885500673, 3885500674, 3885500675, 3885500676, 11409830777, 3885500678, 3885500679, 3885500680, 3885500663], "tags": {"name": "\u067e\u06d5\u0631\u0648\u06ce\u0632\u062e\u0627\u0646", "place": "village", "residential": "rural", "wikidata": "Q61390738", "wikipedia": "ckb:\u067e\u06d5\u0631\u0648\u06ce\u0632\u062e\u0627\u0646"}}, {"type": "way", "id": 385228440, "nodes": [3885837902, 3885837903, 7369918778, 3885837905, 3885837908, 3885837913, 3885837902], "tags": {"name": "\u0626\u06d5\u0644\u06cc \u0626\u0627\u063a\u0627", "place": "village"}}, {"type": "way", "id": 601827322, "nodes": [5718652537, 5718652539, 5718652545, 5718652540, 7369482087, 5718652537], "tags": {"name": "\u062d\u06d5\u0645\u06cc\u062f\u0627\u0648\u06d5", "place": "village"}}, {"type": "way", "id": 786357497, "nodes": [7352532542, 7352532543, 7352532544, 7352532545, 7352532546, 7352532547, 7352532548, 7352532549, 7352532550, 7352532551, 7352532552, 7352532553, 7352532554, 7352532542], "tags": {"name": "\u062d\u06d5\u0633\u06cc\u0631\u06d5", "place": "village", "residential": "rural", "wikidata": "Q61391644", "wikipedia": "ckb:\u062d\u06d5\u0633\u06cc\u0631\u06d5"}}, {"type": "way", "id": 788189223, "nodes": [7369198805, 7369198806, 7369198809, 7369198807, 7369198808, 7369198805], "tags": {"name": "Qoret\u00fb", "place": "village", "residential": "urban", "wikidata": "Q61390687", "wikipedia": "ckb:\u0642\u06c6\u0631\u06d5\u062a\u0648\u0648"}}, {"type": "way", "id": 788279805, "nodes": [7369984896, 7369984897, 7369984898, 7369984899, 7369984900, 7369984901, 7369984902, 7369984896], "tags": {"name": "\u0633\u06d5\u06cc\u062f\u0645\u0633\u062a\u06d5\u0641\u0627", "place": "village", "residential": "rural", "wikidata": "Q61390862", "wikipedia": "ckb:\u0633\u06d5\u06cc\u062f\u0645\u0633\u062a\u06d5\u0641\u0627"}}, {"type": "way", "id": 788295318, "nodes": [7370153947, 7370153948, 7370153949, 7370153950, 7370153951, 7370153952, 7370153953, 7370153947], "tags": {"name": "\u06a9\u0627\u0646\u06cc \u0634\u06cc\u0631\u06cc\u0646\u06d5", "place": "village"}}, {"type": "way", "id": 788296166, "nodes": [7370017443, 7370017444, 7370017445, 7370017446, 7370017443], "tags": {"name": "\u06af\u06d5\u0631\u0645\u06a9 \u0642\u06d5\u06cc\u0633\u06d5\u0631", "place": "village"}}, {"type": "way", "id": 788296704, "nodes": [7370088447, 7370088448, 7370088449, 7370088450, 7370088451, 7370088452, 7370088453, 7370088447], "tags": {"name": "\u0645\u06d5\u062c\u06cc\u062f\u0633\u0627\u0644\u0627\u0631", "place": "village", "residential": "rural", "wikidata": "Q61390939", "wikipedia": "ckb:\u0645\u06d5\u062c\u06cc\u062f\u0633\u0627\u0644\u0627\u0631"}}, {"type": "way", "id": 1217715818, "nodes": [11283040974, 11283040975, 11283040976, 11283040977, 11283040978, 11283040979, 11283040980, 11283040981, 11283040982, 11283040983, 11283040984, 11283040985, 11283040986, 11283040987, 11283040988, 11283040989, 11283040990, 11283040991, 11283040992, 11283040993, 11283040994, 11283040995, 11283040996, 11283040997, 11283040998, 11283040999, 11283041000, 11283041001, 11283041002, 11283041003, 11283041004, 11283041005, 11283041006, 11283041007, 11283041008, 11283041009, 11283041010, 11283040974], "tags": {"name": "\u0633\u06d5\u06cc\u062f\u062d\u0633\u06ce\u0646", "place": "village", "residential": "rural", "wikidata": "Q61391982", "wikipedia": "ckb:\u0633\u06d5\u06cc\u062f\u062d\u0633\u06ce\u0646"}}, {"type": "way", "id": 1217770800, "nodes": [11283473134, 11283473135, 11283473136, 11283473137, 11283473138, 11283473139, 11283473140, 11283473141, 11283473142, 11283473143, 11283473144, 11283473145, 11283473146, 11283473147, 11283473148, 11283473149, 11283473134], "tags": {"name": "\u0626\u0627\u0648\u0628\u0627\u0631\u06d5", "place": "village", "residential": "rural", "wikidata": "Q61391897", "wikipedia": "ckb:\u0626\u0627\u0648\u0628\u0627\u0631\u06d5\u060c \u06a9\u06c6\u06a9\u0633"}}, {"type": "way", "id": 1218225130, "nodes": [11288270506, 11288270507, 11288270508, 11288270509, 11288270510, 11288270511, 11288270512, 11288270513, 11288270514, 11288270515, 11288270516, 11288270517, 11288270518, 11288270519, 11288270520, 11288270521, 11288270522, 11288270523, 11288270524, 11288270525, 11288270526, 11288270527, 11288270528, 11288270529, 11288270530, 11288270531, 11288270532, 11288270533, 11288270534, 11288270535, 11288270536, 11288270537, 11288270538, 11288270539, 11288270540, 11288270506], "tags": {"name": "\u062e\u06d5\u0644\u06cc\u0641\u06d5\u0626\u06d5\u062d\u0645\u06d5\u062f", "place": "village", "residential": "rural", "wikidata": "Q61390577", "wikipedia": "ckb:\u062e\u06d5\u0644\u06cc\u0641\u06d5\u0626\u06d5\u062d\u0645\u06d5\u062f"}}, {"type": "way", "id": 1218229707, "nodes": [11288340201, 11288340202, 11288340203, 11288340204, 11288340205, 11288340206, 11288340207, 11288340208, 11288340209, 11288340210, 11288340211, 11288340212, 11288340213, 11288340214, 11288340215, 11288340216, 11288340217, 11288340218, 11288340219, 11288340220, 11288340221, 11288340222, 11288340223, 11288340224, 11288340225, 11288340201], "tags": {"name": "\u062c\u06d5\u0628\u0631\u0627\u0648\u0627", "place": "village", "residential": "rural", "wikidata": "Q61390548", "wikipedia": "ckb:\u062c\u06d5\u0628\u0631\u0627\u0648\u0627"}}, {"type": "way", "id": 1218448937, "nodes": [11290287118, 11290287119, 11290287120, 11290287121, 11290287122, 11290287123, 11290287124, 11290287125, 11290287126, 11290287127, 11290287128, 11290287129, 11290287130, 11290287131, 11290287132, 11290287133, 11290287134, 11290287135, 11290287136, 11290287137, 11290287138, 11290287139, 11290287140, 11290287141, 11290287142, 11290287143, 11290287144, 11290287145, 11290287146, 11290287147, 11290287148, 11290287149, 11290287150, 11290287151, 11290287152, 11290287153, 11290287154, 11290287155, 11290287156, 11290287157, 11290287158, 11290287159, 11290287160, 11290287161, 11290287162, 11290287163, 11290287164, 11290287165, 11290287166, 11290287118], "tags": {"name": "\u06af\u06c6\u0695\u06d5\u0634\u06d5\u0644\u06d5", "place": "village", "residential": "rural", "wikidata": "Q61390934", "wikipedia": "ckb:\u06af\u06c6\u0695\u06d5\u0634\u06d5\u0644\u06d5"}}, {"type": "way", "id": 1218450008, "nodes": [11290291010, 11290291011, 11290291012, 11290291013, 11290291014, 11290291015, 11290291016, 11290291017, 11290291018, 11290291019, 11290291020, 11290291021, 11290291022, 11290291023, 11290291024, 11290291025, 11290291026, 11290291027, 11290291028, 11290291029, 11290291030, 11290291031, 11290291032, 11290291033, 11290291034, 11290291010], "tags": {"name": "\u0628\u0627\u0646\u06d5\u0628\u06c6\u0631", "place": "village", "residential": "rural", "wikidata": "Q61390728", "wikipedia": "ckb:\u0628\u0627\u0646\u06d5\u0628\u06c6\u0631"}}, {"type": "way", "id": 1218629140, "nodes": [11291917864, 11291917865, 11291917866, 11291917867, 11291981373, 11291917868, 11291981369, 11291981370, 11291981371, 11291981372, 11291917864], "tags": {"name": "\u06be\u06d5\u0646\u062c\u06cc\u0631\u06d5\u06cc \u06a9\u0648\u06ce\u062e\u0627\u0634\u0627\u0645\u0631\u0627\u062f", "place": "village", "residential": "rural", "wikidata": "Q61390959", "wikipedia": "ckb:\u06be\u06d5\u0646\u062c\u06cc\u0631\u06d5\u06cc \u06a9\u0648\u06ce\u062e\u0627\u0634\u0627\u0645\u0631\u0627\u062f"}}, {"type": "way", "id": 1218629749, "nodes": [11291979673, 11291979674, 11291979675, 11291979676, 11291979677, 11291979678, 11291979679, 11291979680, 11291979681, 11291979673], "tags": {"name": "\u06be\u06d5\u0646\u062c\u06cc\u0631\u06d5\u06cc \u06a9\u0627\u06a9\u06d5\u06cc\u06cc", "place": "village", "residential": "rural", "wikidata": "Q61390957", "wikipedia": "ckb:\u06be\u06d5\u0646\u062c\u06cc\u0631\u06d5\u06cc \u06a9\u0627\u06a9\u06d5\u06cc\u06cc"}}, {"type": "way", "id": 1219012749, "nodes": [11295597073, 11295597074, 11295597075, 11295597076, 11295597077, 11295597078, 11295597079, 11295597080, 11295597081, 11295597082, 11295597083, 11295597084, 11295597085, 11295597086, 11295597087, 11295597088, 11295597073], "tags": {"name": "\u0633\u06d5\u0648\u0632\u0628\u06b5\u0627\u062e\u06cc \u06af\u06d5\u0648\u0631\u06d5", "place": "village", "residential": "rural", "wikidata": "Q61390848", "wikipedia": "ckb:\u0633\u06d5\u0648\u0632\u0628\u06b5\u0627\u062e\u06cc \u06af\u06d5\u0648\u0631\u06d5"}}, {"type": "way", "id": 1219258680, "nodes": [11297368148, 11297368149, 11297368150, 11297368151, 11297368152, 11297368153, 11297368154, 11297368155, 11297368156, 11297368157, 11297368158, 11297368159, 11297368160, 11297368161, 11297368162, 11297368163, 11297368164, 11297368165, 11297368166, 11297368167, 11297368168, 11297374769, 11297374770, 11297374771, 11297374772, 11297374773, 11297374774, 11297374775, 11297374776, 11297374777, 11297374778, 11297368148], "tags": {"name": "\u0633\u06cc\u0627\u0648\u06b5\u06d5\u06cc \u0634\u06ce\u062e \u0646\u06d5\u062c\u0645", "place": "village", "residential": "rural", "wikidata": "Q61390866", "wikipedia": "ckb:\u0633\u06cc\u0627\u0648\u06b5\u06d5\u06cc \u0634\u06ce\u062e \u0646\u06d5\u062c\u0645"}}, {"type": "way", "id": 1219267636, "nodes": [11297431140, 11297431141, 11297431142, 11297431143, 11297431144, 11297431145, 11297431146, 11297431147, 11297431148, 11297431149, 11297431150, 11297431151, 11297431152, 11297431153, 11297431154, 11297431155, 11297431156, 11297431157, 11297431158, 11297431159, 11297431160, 11297431161, 11297431162, 11297431163, 11297431164, 11297431165, 11297431140], "tags": {"name": "\u067e\u06cc\u0631\u06d5\u0641\u06d5\u0642\u06cc\u0631\u06d5", "place": "village", "residential": "rural", "wikidata": "Q61391905", "wikipedia": "ckb:\u067e\u06cc\u0631\u06d5\u0641\u06d5\u0642\u06cc\u0631\u06d5"}}, {"type": "way", "id": 1219273338, "nodes": [11297495805, 11297495806, 11297495807, 11297495808, 11297495809, 11297495810, 11297495811, 11297495812, 11297495813, 11297495814, 11297495815, 11297495816, 11297495817, 11297495818, 11297495819, 11297495820, 11297495805], "tags": {"name": "\u0634\u06ce\u062a\u06a9\u0627\u0646 \u0633\u0627\u0644\u0645", "place": "village", "residential": "rural", "wikidata": "Q61391968", "wikipedia": "ckb:\u0634\u06ce\u062a\u06a9\u0627\u0646 \u0633\u0627\u0644\u0645"}}, {"type": "way", "id": 1219273558, "nodes": [11297498374, 11297498375, 11297498376, 11297498377, 11297498378, 11297498379, 11297498380, 11297498381, 11297498382, 11297498383, 11297498384, 11297498385, 11297498386, 11297498387, 11297498388, 11297498389, 11297498390, 11297498391, 11297498392, 11297498393, 11297498374], "tags": {"name": "\u0686\u06d5\u062a\u0627\u06b5", "place": "village", "residential": "rural", "wikidata": "Q61392007", "wikipedia": "ckb:\u0686\u06d5\u062a\u0627\u06b5\u060c \u06a9\u06c6\u06a9\u0633"}}, {"type": "way", "id": 1219275377, "nodes": [11297510087, 11297510088, 11297510089, 11297510090, 11297510091, 11297510092, 11297510093, 11297510094, 11297510095, 11297510096, 11297510097, 11297510098, 11297510099, 11297510100, 11297510101, 11297510102, 11297510103, 11297510104, 11297510105, 11297510106, 11297510107, 11297510108, 11297510109, 11297510110, 11297510111, 11297510112, 11297510113, 3328749366, 11297510114, 11297510115, 11297510116, 11297510117, 11297510118, 11297510119, 11297510120, 11297510121, 11297510087], "tags": {"name": "\u062a\u0627\u0632\u06d5\u0634\u0627\u0631", "place": "village", "residential": "rural", "wikidata": "Q61391907", "wikipedia": "ckb:\u062a\u0627\u0632\u06d5\u0634\u0627\u0631\u060c \u06a9\u06c6\u06a9\u0633"}}, {"type": "way", "id": 1219275774, "nodes": [11297496330, 11297496331, 11297496332, 11297496333, 11297496334, 11297496335, 11297496336, 11297496337, 11297496338, 11297496339, 11297496340, 11297496341, 11297496342, 11297496343, 11297496344, 11297496345, 11297496346, 11297496347, 11297496348, 11297496349, 11297496350, 11297496351, 11297496352, 11297496353, 11297496354, 11297496355, 11297496356, 11297496357, 11297496358, 11297496359, 11297496360, 11297496361, 11297496362, 11297496363, 11297496364, 11297496365, 11297496366, 11297496367, 11297496368, 11297517869, 11297517870, 11297517871, 11297517872, 11297517873, 11297517874, 11297517875, 11297517876, 11297517877, 11297517878, 11297517879, 11297517880, 11297517881, 11297517882, 11297517883, 11297517884, 11297517885, 11297517886, 11297517887, 11297517888, 11297517889, 11297517890, 11297517891, 11297517892, 11297517893, 11297517894, 11297517895, 11297517896, 11297517897, 11297517898, 11297496330], "tags": {"name": "\u06a9\u06c6\u06a9\u0633", "place": "village", "residential": "rural", "wikidata": "Q61391946", "wikipedia": "ckb:\u06a9\u06c6\u06a9\u0633"}}, {"type": "way", "id": 1219277466, "nodes": [11297510617, 11297510618, 11297510619, 11297510620, 11297510621, 11297510622, 11297510623, 11297510624, 11297510625, 11297510626, 11297510627, 11297510628, 11297510629, 11297510630, 11297510631, 11297510632, 11297510633, 11297510634, 11297510635, 11297510637, 11297510638, 11297510639, 11297510640, 11297510641, 11297510642, 11297510643, 11297510644, 11297510645, 11297510646, 11297510647, 11297510648, 11297510649, 11297510650, 11297510651, 11297510652, 11297510653, 11297510654, 11297510655, 11297510656, 11297510657, 11297510658, 11297510659, 11297510662, 11297510663, 11297510664, 11297510665, 11297510666, 11297510667, 11297510668, 11297539269, 11297510617], "tags": {"name": "\u062d\u0627\u062c\u06cc\u0644\u06d5\u0631", "place": "village", "residential": "rural", "wikidata": "Q61392000", "wikipedia": "ckb:\u062d\u0627\u062c\u06cc\u0644\u06d5\u0631"}}]}