{"version": 0.6, "generator": "Overpass API 0.7.61.5 4133829e", "osm3s": {"timestamp_osm_base": "2024-03-06T11:15:40Z", "copyright": "The data included in this document is from www.openstreetmap.org. The data is made available under ODbL."}, "elements": [{"type": "node", "id": 2483988817, "lat": 32.8852576, "lon": 46.4588506, "tags": {"alt_name": "\u0639\u0644\u064a \u0645\u0631\u062f\u0629", "int_name": "Al\u012b Murdah, \u0639\u0644\u064a \u0645\u0631\u062f\u0629, Ali Murdah, \u0639\u0644\u064a \u0645\u0631\u062f\u0629", "is_in": "Iraq , \u062c\u0645\u0647\u0648\u0631\u064a\u0629 \u0627\u0644\u0639\u0631\u0627\u0642", "name": "\u0639\u0644\u064a \u0645\u0631\u062f\u0629", "name:ar": "\u0639\u0644\u064a \u0645\u0631\u062f\u0629", "name:ar1": "\u0639\u0644\u064a \u0645\u0631\u062f\u0629", "name:de": "Ali Murdah", "name:en": "Ali Murdah", "name:fr": "Ali Murdah", "place": "village"}}, {"type": "node", "id": 2483988911, "lat": 32.883333, "lon": 46.433333, "tags": {"alt_name": "\u0634\u064a\u062e \u0623\u062d\u0645\u062f", "int_name": "Shaikh Ahmad, Shaykh A\u1e29mad, Shaikh Ahmad, Shaykh Ahmad", "is_in": "Iraq , \u062c\u0645\u0647\u0648\u0631\u064a\u0629 \u0627\u0644\u0639\u0631\u0627\u0642", "name": "\u0634\u064a\u062e \u062d\u0645\u062f \u0627\u0644\u0631\u064a\u0633", "name:ar": "\u0634\u064a\u062e \u0623\u062d\u0645\u062f", "name:ar1": "\u0634\u064a\u062e \u0623\u062d\u0645\u062f", "name:de": "Shaikh Ahmad", "name:en": "Shaikh Ahmad", "name:fr": "Shaikh Ahmad", "place": "village"}}, {"type": "node", "id": 2483988914, "lat": 32.883333, "lon": 46.233333, "tags": {"alt_name": "\u0634\u0648\u0643\u0629", "int_name": "Shawkah, Shoka, Shawkah, Shoka", "is_in": "Iraq , \u062c\u0645\u0647\u0648\u0631\u064a\u0629 \u0627\u0644\u0639\u0631\u0627\u0642", "name": "\u0634\u0648\u0643\u0629", "name:ar": "\u0634\u0648\u0643\u0629", "name:ar1": "\u0634\u0648\u0643\u0629", "name:de": "Shawkah", "name:en": "Shawkah", "name:fr": "Shawkah", "name:ru": "\u0428\u0430\u0443\u043a\u0430", "place": "village"}}, {"type": "node", "id": 2484015521, "lat": 32.6578454, "lon": 46.1364473, "tags": {"alt_name": "\u0627\u0644\u0625\u0635\u0644\u0627\u062d", "int_name": "Al \u012a\u015fl\u0101\u1e29, \u0627\u0644\u0627\u0635\u0644\u0627\u062d, Al Islah, \u0627\u0644\u0627\u0635\u0644\u0627\u062d", "is_in": "Iraq , \u062c\u0645\u0647\u0648\u0631\u064a\u0629 \u0627\u0644\u0639\u0631\u0627\u0642", "name": "\u0627\u0644\u0625\u0635\u0644\u0627\u062d", "name:ar": "\u0627\u0644\u0625\u0635\u0644\u0627\u062d", "name:ar1": "\u0627\u0644\u0625\u0635\u0644\u0627\u062d", "name:de": "Al Islah", "name:en": "Al Islah", "name:fr": "Al Islah", "place": "village"}}, {"type": "node", "id": 2484015812, "lat": 32.75, "lon": 46.25, "tags": {"alt_name": "\u0634\u064a\u062e \u064a\u0639\u0642\u0648\u0628 \u0627\u0644\u064a\u0648\u0633\u0641", "int_name": "Shaikh Yaq\u016bb al Y\u016bsuf, Shaykh Yaq\u016bb al Y\u016bsuf, Yaq\u016bb al Y\u016bsuf, Shaikh Yaqub al Yusuf, Shaykh Yaqub al Yusuf, Yaqub al Yusuf", "is_in": "Iraq , \u062c\u0645\u0647\u0648\u0631\u064a\u0629 \u0627\u0644\u0639\u0631\u0627\u0642", "name": "\u0634\u064a\u062e \u064a\u0639\u0642\u0648\u0628 \u0627\u0644\u064a\u0648\u0633\u0641", "name:ar": "\u0634\u064a\u062e \u064a\u0639\u0642\u0648\u0628 \u0627\u0644\u064a\u0648\u0633\u0641", "name:ar1": "\u0634\u064a\u062e \u064a\u0639\u0642\u0648\u0628 \u0627\u0644\u064a\u0648\u0633\u0641", "name:de": "Shaikh Yaqub al Yusuf", "name:en": "Shaikh Yaqub al Yusuf", "name:fr": "Shaikh Yaqub al Yusuf", "name:ru": "\u0428\u0430\u0439\u0445-\u042f\u043a\u0443\u0431-\u044d\u043b\u044c-\u042e\u0441\u0443\u0444", "place": "village"}}, {"type": "node", "id": 3091105613, "lat": 32.5726725, "lon": 46.2719079, "tags": {"capital": "7", "int_name": "Shaikh Saad", "name": "\u0634\u064a\u062e \u0633\u0639\u062f", "name:ar": "\u0634\u064a\u062e \u0633\u0639\u062f", "name:en": "Shaikh Saad", "name:ru": "\u0428\u0430\u0439\u0445-\u0421\u0430\u0430\u0434", "place": "town"}}]}