{"version": 0.6, "generator": "Overpass API 0.7.61.5 4133829e", "osm3s": {"timestamp_osm_base": "2024-03-05T11:06:20Z", "copyright": "The data included in this document is from www.openstreetmap.org. The data is made available under ODbL."}, "elements": [{"type": "node", "id": 4333788620, "lat": 5.3511022, "lon": -0.8436953, "tags": {"amenity": "clinic", "name": "Ngyiresi CHPS Compound"}}, {"type": "node", "id": 4614565789, "lat": 5.3833164, "lon": -0.9250126, "tags": {"addr:street": "Ajumako-Mabdo", "amenity": "clinic", "name": "GHS", "opening_hours": "24/7", "operator": "Ghana Health Service"}}, {"type": "node", "id": 4614566089, "lat": 5.3301088, "lon": -0.8334708, "tags": {"addr:street": "Kyiri-Nkwanta", "amenity": "clinic", "name": "GHS (Chips Zone)", "operator": "Ghana Health Service"}}, {"type": "node", "id": 4615061889, "lat": 5.3390201, "lon": -0.9139165, "tags": {"amenity": "clinic", "name": "Sanford Internal Clinic", "name:en": "Sanford Internal Clinic"}}, {"type": "node", "id": 8032639993, "lat": 5.1364522, "lon": -1.1991666, "tags": {"amenity": "clinic", "name": "Moore Health Centre"}}, {"type": "node", "id": 8070159326, "lat": 5.2651828, "lon": -1.0203137, "tags": {"amenity": "hospital", "disabled": "no", "name": "Stanford Health", "power": "grid"}}, {"type": "node", "id": 8070175973, "lat": 5.2671901, "lon": -1.0172193, "tags": {"amenity": "pharmacy", "name": "A & E Pharmacy", "wheelchair": "yes"}}, {"type": "node", "id": 8070178813, "lat": 5.2650332, "lon": -1.0204381, "tags": {"amenity": "pharmacy", "name": "A & E Pharmacy"}}, {"type": "node", "id": 8142883219, "lat": 5.1769951, "lon": -1.1222592, "tags": {"amenity": "pharmacy", "name": "Alex K. Okwaisie Pharmarcy"}}, {"type": "node", "id": 8142883220, "lat": 5.1741366, "lon": -1.1216926, "tags": {"amenity": "pharmacy", "name": "Samuel Ntifful Pharmarcy"}}, {"type": "node", "id": 8142911215, "lat": 5.1746706, "lon": -1.120458, "tags": {"amenity": "pharmacy", "name": "Phillis Oduro Sarah Pharmarcy"}}, {"type": "node", "id": 8142912456, "lat": 5.176745, "lon": -1.1215647, "tags": {"amenity": "pharmacy", "healthcare": "pharmacy", "name": "John B. Bawah"}}, {"type": "node", "id": 8770201743, "lat": 5.1415989, "lon": -1.1937171, "tags": {"amenity": "clinic", "name": "Moree Health Centre"}}, {"type": "node", "id": 10674888237, "lat": 5.2579046, "lon": -1.0218202, "tags": {"amenity": "pharmacy"}}]}