{"version": 0.6, "generator": "Overpass API 0.7.61.5 4133829e", "osm3s": {"timestamp_osm_base": "2024-03-06T11:17:45Z", "copyright": "The data included in this document is from www.openstreetmap.org. The data is made available under ODbL."}, "elements": [{"type": "node", "id": 2053635634, "lat": 36.0210952, "lon": 43.2723486, "tags": {"name": "Qaryat ar Rasif", "place": "village", "source": "GNS"}}, {"type": "node", "id": 2482439894, "lat": 35.7886404, "lon": 43.449852, "tags": {"alt_name": "\u062f\u0648\u0648\u06af\u0631\u062f\u06a9\u0627\u0646", "int_name": "D\u0101r Gardak\u0101n, D\u0101r Kardak\u0101n, D\u016b Kardak\u0101n, Dar Gardakan, \u062f\u0648\u0648\u06af\u0631\u062f\u06a9\u0627\u0646", "name": "\u062f\u0648\u0648\u06af\u0631\u062f\u06a9\u0627\u0646", "name:ar": "\u062f\u0648\u0648\u06af\u0631\u062f\u06a9\u0627\u0646", "name:ckb": "\u062f\u0648\u0648\u06af\u0631\u062f\u06a9\u0627\u0646", "name:de": "Dugrdkan", "name:en": "Dugrdkan", "name:fr": "Dugrdkan", "place": "village"}}, {"type": "node", "id": 2482440728, "lat": 35.880792, "lon": 43.38683, "tags": {"alt_name": "\u0633\u0644\u0637\u0627\u0646 \u0639\u0628\u062f \u0627\u0644\u0644\u0647", "int_name": "Sul\u0163\u0101n Abd All\u0101h, Sultan Abdalla, Sult\u0101n Abdallah, Sultan Abdullah, Sultan Abd Allah, Sultan Abdalla, Sultan Abdallah, Sultan Abdullah", "name": "\u0633\u0644\u0637\u0627\u0646 \u0639\u0628\u062f \u0627\u0644\u0644\u0647", "name:ar": "\u0633\u0644\u0637\u0627\u0646 \u0639\u0628\u062f \u0627\u0644\u0644\u0647", "name:ar1": "\u0633\u0644\u0637\u0627\u0646 \u0639\u0628\u062f \u0627\u0644\u0644\u0647", "name:de": "Sultan Abd Allah", "name:en": "Sultan Abd Allah", "name:fr": "Sultan Abd Allah", "name:ku": "Sultan Abdullah", "place": "village"}}, {"type": "node", "id": 2482441642, "lat": 35.8274959, "lon": 43.3890384, "tags": {"alt_name": "\u0639\u064a\u0646 \u0645\u0631\u0645\u064a\u0629", "int_name": "Ain Marmiyah, Ayn Marm\u012byah, Ain Marmiyah, Ayn Marmiyah", "name": "Naser", "name:ar": "\u0627\u0644\u0646\u0635\u0631", "name:ar1": "\u0639\u064a\u0646 \u0645\u0631\u0645\u064a\u0629", "name:en": "\u0627\u0644\u0646\u0635\u0631", "place": "village"}}, {"type": "node", "id": 2482441645, "lat": 35.8336197, "lon": 43.3889663, "tags": {"alt_name": "\u0635\u0644\u0627\u062d\u064a\u0629", "int_name": "\u015eal\u0101\u1e29\u012byah, Salahiyah", "name": "\u0635\u0644\u0627\u062d\u064a\u0629", "name:ar": "\u0635\u0644\u0627\u062d\u064a\u0629", "name:ar1": "\u0635\u0644\u0627\u062d\u064a\u0629", "name:en": "Salahiya", "place": "village"}}, {"type": "node", "id": 2482441648, "lat": 35.8212228, "lon": 43.3867641, "tags": {"alt_name": "\u0642\u0631\u064a\u0629 \u0627\u0644\u062e\u0627\u0644\u062f\u064a\u0629", "int_name": "Al Kh\u0101lid\u012byah, Kh\u0101land\u012byah, Khaldia, Qaryat al Kh\u0101lid\u012byah, \u0642\u0631\u064a\u0629 \u0627\u0644\u062e\u0627\u0644\u062f\u064a\u0629, Al Khalidiyah, Khalandiyah, Khaldia, Qaryat al Khalidiyah, \u0642\u0631\u064a\u0629 \u0627\u0644\u062e\u0627\u0644\u062f\u064a\u0629", "name": "\u0642\u0631\u064a\u0629 \u0627\u0644\u062e\u0627\u0644\u062f\u064a\u0629", "name:ar": "\u0642\u0631\u064a\u0629 \u0627\u0644\u062e\u0627\u0644\u062f\u064a\u0629", "name:ar1": "\u0642\u0631\u064a\u0629 \u0627\u0644\u062e\u0627\u0644\u062f\u064a\u0629", "name:de": "Al Khalidiyah", "name:en": "Al Khalidiyah", "name:fr": "Al Khalidiyah", "name:ku-Arab": "\u062a\u062d\u0631\u064a\u0631", "place": "village"}}, {"type": "node", "id": 2482442618, "lat": 35.839687, "lon": 43.3317, "tags": {"alt_name": "\u0642\u0631\u064a\u0629 \u0645\u0643\u0648\u0643", "int_name": "Makk\u016bk, M\u0101k\u016bl, Qaryat Makk\u016bk, \u0642\u0631\u064a\u0629 \u0645\u0643\u0648\u0643, Makkuk, Makul, Qaryat Makkuk, \u0642\u0631\u064a\u0629 \u0645\u0643\u0648\u0643", "name": "\u0642\u0631\u064a\u0629 \u0645\u0643\u0648\u0643", "name:ar": "\u0642\u0631\u064a\u0629 \u0645\u0643\u0648\u0643", "name:ar1": "\u0642\u0631\u064a\u0629 \u0645\u0643\u0648\u0643", "name:de": "Makkuk", "name:en": "Makkuk", "name:fr": "Makkuk", "name:ru": "\u041c\u0430\u043a\u0443\u043a", "place": "village"}}, {"type": "node", "id": 2482442690, "lat": 35.7837524, "lon": 43.3539058, "tags": {"alt_name": "\u0643\u0628\u0631\u0648\u0643", "int_name": "Kabar\u016bk, Kabr\u016bk, Kaprok, Kabaruk, Kabruk, Kaprok", "name": "\u06a9\u06d5\u067e\u0631\u06c6\u06a9", "name:ar": "\u0643\u0628\u0631\u0648\u0643", "name:ar1": "\u0643\u0628\u0631\u0648\u0643", "name:de": "Kabaruk", "name:en": "Kabaruk", "name:fr": "Kabaruk", "place": "village"}}, {"type": "node", "id": 2482442698, "lat": 35.770866, "lon": 43.36373, "tags": {"alt_name": "\u0642\u0631\u064a\u0629 \u0645\u0647\u0627\u0646\u0629", "int_name": "Mah\u0101hah, Ma\u1e29\u0101lah, Mahana, Mah\u0101nah, Qaryat Mah\u0101nah, \u0642\u0631\u064a\u0629 \u0645\u0647\u0627\u0646\u0629, Mahahah, Mahalah, Mahana, Mahanah, Qaryat Mahanah, \u0642\u0631\u064a\u0629 \u0645\u0647\u0627\u0646\u0629", "name": "\u0645\u06d5\u0647\u0627\u0646\u06d5", "name:ar": "\u0642\u0631\u064a\u0629 \u0645\u0647\u0627\u0646\u0629", "name:ckb": "\u0645\u06d5\u0647\u0627\u0646\u06d5", "name:de": "Mahana", "name:en": "Mahana", "name:fr": "Mahana", "place": "village"}}, {"type": "node", "id": 2482442988, "lat": 35.926607, "lon": 43.442825, "tags": {"alt_name": "\u0642\u0631\u064a\u0629 \u0628\u0634\u0627\u0631", "int_name": "Bashara, Bish\u0101r, Mish\u0101r, Qaryat Bish\u0101r, \u0642\u0631\u064a\u0629 \u0628\u0634\u0627\u0631, Bashara, Bishar, Mishar, Qaryat Bishar, \u0642\u0631\u064a\u0629 \u0628\u0634\u0627\u0631", "name": "\u0642\u0631\u064a\u0629 \u0628\u0634\u0627\u0631", "name:ar": "\u0642\u0631\u064a\u0629 \u0628\u0634\u0627\u0631", "name:ar1": "\u0642\u0631\u064a\u0629 \u0628\u0634\u0627\u0631", "name:de": "Bashara", "name:en": "Bashara", "name:fr": "Bashara", "name:ku": "\u0645\u0643\u0627\u0646 \u0633\u0631\u064a\u0647 2", "place": "village"}}, {"type": "node", "id": 2482642255, "lat": 35.655956, "lon": 43.396078, "tags": {"admin_level": "9", "alt_name": "\u06af\u0648\u0646\u062f\u06cc \u0639\u06d5\u0646\u06a9\u0627\u0648\u06d5", "name": "\u0639\u06d5\u0646\u06a9\u0627\u0648\u06d5", "name:ckb": "\u0639\u06d5\u0646\u06a9\u0627\u0648\u06d5", "name:de": "Ankawa", "name:en": "Ankawa", "name:fr": "Ankawa", "place": "village"}}, {"type": "node", "id": 2482642258, "lat": 35.6721571, "lon": 43.4453373, "tags": {"alt_name": "\u062d\u0648\u0634\u062a\u0631\u0627\u0644\u0648\u06a9", "int_name": "Hushtraluk, H\u016bshtir Lal\u016bk, \u062d\u0648\u0634\u062a\u0631\u0627\u0644\u0648\u06a9", "name": "\u062d\u0648\u0634\u062a\u0631\u0627\u0644\u0648\u06a9", "name:ar": "\u062d\u0648\u0634\u062a\u0631\u0627\u0644\u0648\u06a9", "name:ckb": "\u062d\u0648\u0634\u062a\u0631\u0627\u0644\u0648\u06a9", "name:de": "Hushtraluk", "name:en": "Hushtraluk", "name:fr": "Hushtraluk", "place": "village"}}, {"type": "node", "id": 2482642264, "lat": 35.645773, "lon": 43.451631, "tags": {"admin_level": "9", "alt_name": "\u06af\u0648\u0646\u062f\u06cc \u0642\u06c6\u0686", "description": "\u0642\u0648\u0686\u06cc \u0628\u06d5\u0631\u06d5\u0628\u0627\u0628\u06cc \u0642\u0627\u062f\u0631 \u0686\u06cc\u0645\u06d5\u0646 \u0644\u06d5\u06a9\u06cc", "name": "\u0642\u0648\u0686-\u06cc \u062d\u06d5\u0633\u06d5\u0646 \u0626\u06d5\u0633\u062a\u06ce\u0631\u06cc", "name:ar": "\u0642\u0648\u062c \u062d\u0633\u0646 \u0627\u0633\u062a\u06cc\u0631", "name:ckb": "\u0642\u0648\u0686\u06cc \u062d\u06d5\u0633\u06d5\u0646 \u0626\u06d5\u0633\u062a\u06ce\u0631", "name:en": "Quch Hassan Aster", "place": "village"}}, {"type": "node", "id": 2482642270, "lat": 35.64728, "lon": 43.358476, "tags": {"alt_name": "\u0634\u06ce\u0631\u0627\u0648\u06d5", "int_name": "Sh\u012br\u0101wa, Shirawa, \u0634\u06ce\u0631\u0627\u0648\u06d5", "name": "\u0634\u06ce\u0631\u0627\u0648\u06d5", "name:ar": "\u0634\u06ce\u0631\u0627\u0648\u06d5", "name:de": "Shirawa", "name:en": "Shirawa", "name:fr": "Shirawa", "place": "village"}}, {"type": "node", "id": 2482643263, "lat": 35.710261, "lon": 43.303582, "tags": {"alt_name": "\u0625\u062c\u062d\u0627\u0644\u0629 \u0634\u0631\u0642\u064a", "int_name": "Ijh\u0101la Sharqi, Ij\u1e29\u0101lah Sharq\u012b, Qaryat Ij\u1e29\u0101lah, \u0642\u0631\u064a\u0629 \u0627\u062c\u062d\u0627\u0644\u0647, Ijhala Sharqi, Ijhalah Sharqi, Qaryat Ijhalah, \u0642\u0631\u064a\u0629 \u0627\u062c\u062d\u0627\u0644\u0647", "name": "\u0625\u062c\u062d\u0627\u0644\u0629 \u0634\u0631\u0642\u064a", "name:ar": "\u0625\u062c\u062d\u0644\u0629", "name:ar1": "\u0625\u062c\u062d\u0627\u0644\u0629 \u0634\u0631\u0642\u064a", "name:de": "Ijhala Sharqi", "name:en": "Ijhala Sharqi", "name:fr": "Ijhala Sharqi", "place": "village"}}, {"type": "node", "id": 2482643270, "lat": 35.691517, "lon": 43.270466, "tags": {"alt_name": "\u0642\u0631\u064a\u0629 \u0625\u0645\u0627\u0645 \u0627\u0644\u0634\u0631\u0642\u064a", "int_name": "Qaryat Im\u0101m ash Asharq\u012b, \u0642\u0631\u064a\u0629 \u0627\u0645\u0627\u0645 \u0627\u0644\u0634\u0631\u0642\u064a, Qaryat Imam ash Asharqi, \u0642\u0631\u064a\u0629 \u0627\u0645\u0627\u0645 \u0627\u0644\u0634\u0631\u0642\u064a", "name": "\u0642\u0631\u064a\u0629 \u0625\u0645\u0627\u0645 \u063a\u0631\u0628\u064a", "name:ar": "\u0642\u0631\u064a\u0629 \u0625\u0645\u0627\u0645 \u0627\u0644\u0634\u0631\u0642\u064a", "name:ar1": "\u0642\u0631\u064a\u0629 \u0625\u0645\u0627\u0645 \u0627\u0644\u0634\u0631\u0642\u064a", "name:de": "Qaryat Imam ash Asharqi", "name:en": "Qaryat Imam ash Asharqi", "name:fr": "Qaryat Imam ash Asharqi", "place": "village"}}, {"type": "node", "id": 2482643481, "lat": 35.657708, "lon": 43.271013, "tags": {"alt_name": "\u0642\u0631\u064a\u0629 \u0643\u0646\u0639\u0648\u0635 \u0627\u0644\u0633\u0641\u0644\u0649", "int_name": "Gan\u016b\u015f as Sufl\u00e1, Ganus, Qanus, Qaryat Kan\u016b\u015f as Sufl\u00e1, \u0642\u0631\u064a\u0629 \u0643\u0646\u0639\u0648\u0635 \u0627\u0644\u0633\u0641\u0644\u0649, Ganus as Sufla, Ganus, Qanus, Qaryat Kanus as Sufla, \u0642\u0631\u064a\u0629 \u0643\u0646\u0639\u0648\u0635 \u0627\u0644\u0633\u0641\u0644\u0649", "name": "\u0642\u0631\u064a\u0629 \u0643\u0646\u0639\u0648\u0635 \u0627\u0644\u0633\u0641\u0644\u0649", "name:ar": "\u0642\u0631\u064a\u0629 \u0643\u0646\u0639\u0648\u0635 \u0627\u0644\u0633\u0641\u0644\u0649", "name:ar1": "\u0642\u0631\u064a\u0629 \u0643\u0646\u0639\u0648\u0635 \u0627\u0644\u0633\u0641\u0644\u0649", "name:de": "Ganus as Sufla", "name:en": "Southern Ganus", "name:fr": "Ganus as Sufla", "place": "village"}}, {"type": "node", "id": 2482643491, "lat": 35.715525, "lon": 43.3473371, "tags": {"admin_level": "9", "alt_name": "\u06af\u0648\u0646\u062f\u06cc \u062e\u06d5\u0631\u0627\u0628\u06d5 \u062c\u0628\u0631", "name": "\u062e\u06d5\u0631\u0627\u0628\u06d5 \u062c\u0628\u0631", "name:ckb": "\u062e\u06d5\u0631\u0627\u0628\u06d5 \u062c\u0628\u0631", "name:de": "Kharaba", "name:en": "Kharaba", "name:fr": "Kharaba", "place": "village"}}, {"type": "node", "id": 2482643493, "lat": 35.656712, "lon": 43.3133599, "tags": {"alt_name": "\u0642\u0631\u064a\u0629 \u0623\u062c\u062f\u064a\u062f\u0629", "int_name": "Qaryat Ajad\u012bdah, \u0642\u0631\u064a\u0629 \u0627\u062c\u062f\u064a\u062f\u0647, Qaryat Ajadidah, \u0642\u0631\u064a\u0629 \u0627\u062c\u062f\u064a\u062f\u0647", "name": "\u0642\u0631\u064a\u0629 \u0623\u062c\u062f\u064a\u062f\u0629", "name:ar": "\u0642\u0631\u064a\u0629 \u0623\u062c\u062f\u064a\u062f\u0629", "name:ar1": "\u0642\u0631\u064a\u0629 \u0623\u062c\u062f\u064a\u062f\u0629", "name:de": "Qaryat Ajadidah", "name:en": "Qaryat Ajadidah", "name:fr": "Qaryat Ajadidah", "place": "village"}}, {"type": "node", "id": 2482643495, "lat": 35.6449986, "lon": 43.2620431, "tags": {"alt_name": "\u0642\u0631\u064a\u0629 \u0644\u0632\u0627\u0643\u0629", "int_name": "Qaryat Laz\u0101kah, \u0642\u0631\u064a\u0629 \u0644\u0632\u0627\u0643\u0647, Qaryat Lazakah, \u0642\u0631\u064a\u0629 \u0644\u0632\u0627\u0643\u0647", "name": "\u0642\u0631\u064a\u0629 \u0644\u0632\u0627\u0643\u0629", "name:ar": "\u0642\u0631\u064a\u0629 \u0644\u0632\u0627\u0643\u0629", "name:ar1": "\u0642\u0631\u064a\u0629 \u0644\u0632\u0627\u0643\u0629", "name:de": "Qaryat Lazakah", "name:en": "Qaryat Lazakah", "name:fr": "Qaryat Lazakah", "place": "village"}}, {"type": "node", "id": 2482643496, "lat": 35.666867, "lon": 43.3210501, "tags": {"alt_name": "\u0642\u0631\u064a\u0629 \u0633\u062c\u0644 \u0627\u0644\u0645\u0636\u064a\u0641", "int_name": "Qaryat Sijill al Mu\u1e11\u012bf, \u0642\u0631\u064a\u0629 \u0633\u062c\u0644 \u0627\u0644\u0645\u0636\u064a\u0641, Qaryat Sijill al Mudif, \u0642\u0631\u064a\u0629 \u0633\u062c\u0644 \u0627\u0644\u0645\u0636\u064a\u0641", "name": "\u0642\u0631\u064a\u0629 \u0633\u062c\u0644 \u0627\u0644\u0645\u0636\u064a\u0641", "name:ar": "\u0642\u0631\u064a\u0629 \u0633\u062c\u0644 \u0627\u0644\u0645\u0636\u064a\u0641", "name:ar1": "\u0642\u0631\u064a\u0629 \u0633\u062c\u0644 \u0627\u0644\u0645\u0636\u064a\u0641", "name:de": "Qaryat Sijill al Mudif", "name:en": "Qaryat Sijill al Mudif", "name:fr": "Qaryat Sijill al Mudif", "place": "village"}}, {"type": "node", "id": 2482644869, "lat": 35.732174, "lon": 43.286727, "tags": {"alt_name": "\u0642\u0631\u064a\u0629 \u0623\u0631\u0643\u0628\u0629", "int_name": "Arg\u016bbah ash Sharq\u012byah, Argaba Sharqi, Arkabah Sharq\u012b, Qaryat Arkabah, \u0642\u0631\u064a\u0629 \u0627\u0631\u0643\u0628\u0647, Argubah ash Sharqiyah, Argaba Sharqi, Arkabah Sharqi, Qaryat Arkabah, \u0642\u0631\u064a\u0629 \u0627\u0631\u0643\u0628\u0647", "name": "\u0642\u0631\u064a\u0629 \u0623\u0631\u0643\u0628\u0629", "name:ar": "\u062f\u0648\u0631 \u0627\u0644\u0642\u0627\u0639\u062f\u0647", "name:ar1": "\u0642\u0631\u064a\u0629 \u0623\u0631\u0643\u0628\u0629", "name:de": "Argubah ash Sharqiyah", "name:en": "Argubah ash Sharqiyah", "name:fr": "Argubah ash Sharqiyah", "place": "village"}}, {"type": "node", "id": 2482644896, "lat": 35.7346217, "lon": 43.3181238, "tags": {"alt_name": "\u0642\u0631\u064a\u0629 \u0627\u0644\u0643\u0631\u0627\u0645\u0629", "int_name": "Qaryat al Kar\u0101mah, \u0642\u0631\u064a\u0629 \u0627\u0644\u0643\u0631\u0627\u0645\u0629, Qaryat al Karamah, \u0642\u0631\u064a\u0629 \u0627\u0644\u0643\u0631\u0627\u0645\u0629", "name": "\u0642\u0631\u064a\u0629 \u0627\u0644\u0643\u0631\u0627\u0645\u0629", "name:ar": "\u0642\u0631\u064a\u0629 \u0627\u0644\u0643\u0631\u0627\u0645\u0629", "name:de": "Qaryat al Karamah", "name:en": "Qaryat al Karamah", "name:fr": "Qaryat al Karamah", "place": "village"}}, {"type": "node", "id": 2482644908, "lat": 35.717239, "lon": 43.330675, "tags": {"alt_name": "\u0631\u0639\u064a\u0627\u0646 \u0641\u0631\u062c", "int_name": "Ruy\u0101n Faraj, \u0631\u0639\u064a\u0627\u0646 \u0641\u0631\u062c, Ruyan Faraj, \u0631\u0639\u064a\u0627\u0646 \u0641\u0631\u062c", "name": "\u0631\u0639\u064a\u0627\u0646 \u0641\u0631\u062c", "name:ar": "\u0631\u0639\u064a\u0627\u0646 \u0641\u0631\u062c", "name:ar1": "\u0631\u0639\u064a\u0627\u0646 \u0641\u0631\u062c", "name:de": "Ruyan Faraj", "name:en": "Ruyan Faraj", "name:fr": "Ruyan Faraj", "place": "village"}}, {"type": "node", "id": 2484132789, "lat": 35.7412533, "lon": 43.4449888, "tags": {"alt_name": "\u0642\u0631\u064a\u0629 \u0639\u0645\u0631 \u0622\u0648\u0629", "int_name": "Qaryat Umar \u0100wah, \u0642\u0631\u064a\u0629 \u0639\u0645\u0631 \u0627\u0648\u0647, Qaryat Umar Awah, \u0642\u0631\u064a\u0629 \u0639\u0645\u0631 \u0627\u0648\u0647", "name": "\u0642\u0631\u064a\u0629 \u0639\u0645\u0631 \u0622\u0648\u0629", "name:ar": "\u0642\u0631\u064a\u0629 \u0639\u0645\u0631 \u0622\u0648\u0629", "name:ar1": "\u0642\u0631\u064a\u0629 \u0639\u0645\u0631 \u0622\u0648\u0629", "name:de": "Qaryat Umar Awah", "name:en": "Qaryat Umar Awah", "name:fr": "Qaryat Umar Awah", "place": "village"}}, {"type": "node", "id": 2484133127, "lat": 35.7565917, "lon": 43.3450966, "tags": {"alt_name": "\u0639\u064a\u0646 \u0634\u0647\u0627\u0628 \u0627\u0644\u062c\u0646\u0648\u0628\u064a\u0629", "int_name": "Ayn Shih\u0101b al Jan\u016bb\u012byah, \u0639\u064a\u0646 \u0634\u0647\u0627\u0628 \u0627\u0644\u062c\u0646\u0648\u0628\u064a\u0629, Ayn Shihab al Janubiyah, \u0639\u064a\u0646 \u0634\u0647\u0627\u0628 \u0627\u0644\u062c\u0646\u0648\u0628\u064a\u0629", "name": "\u0639\u064a\u0646 \u0634\u0647\u0627\u0628 \u0627\u0644\u062c\u0646\u0648\u0628\u064a\u0629", "name:ar": "\u0639\u064a\u0646 \u0634\u0647\u0627\u0628 \u0627\u0644\u062c\u0646\u0648\u0628\u064a\u0629", "name:ar1": "\u0639\u064a\u0646 \u0634\u0647\u0627\u0628 \u0627\u0644\u062c\u0646\u0648\u0628\u064a\u0629", "name:de": "Ayn Shihab al Janubiyah", "name:en": "Ayn Shihab al Janubiyah", "name:fr": "Ayn Shihab al Janubiyah", "place": "hamlet"}}, {"type": "node", "id": 2484133129, "lat": 35.7247708, "lon": 43.4257749, "tags": {"name": "\u06a9\u06d5\u0631\u0645\u0631\u062f\u06cc", "place": "village"}}, {"type": "node", "id": 2484133131, "lat": 35.761109, "lon": 43.396613, "tags": {"int_name": "K\u016bd\u012blah, Qaryat Kud\u012blah, \u0642\u0631\u064a\u0629 \u0643\u062f\u064a\u0644\u0629, Kudilah, Qaryat Kudilah, \u0642\u0631\u064a\u0629 \u0643\u062f\u064a\u0644\u0629", "name": "\u06a9\u0648\u062f\u06cc\u0644\u06d5", "name:ar": "\u0642\u0631\u064a\u0629 \u0643\u062f\u064a\u0644\u0629", "name:ckb": "\u06a9\u0648\u062f\u06cc\u0644\u06d5", "name:de": "Kudilah", "name:en": "Kudilah", "name:fr": "Kudilah", "place": "village"}}, {"type": "node", "id": 2484133199, "lat": 35.735295, "lon": 43.313575, "tags": {"int_name": "A\u1e29mad al Al\u012b, \u0627\u062d\u0645\u062f \u0627\u0644\u0639\u0644\u064a, Ahmad al Ali, \u0627\u062d\u0645\u062f \u0627\u0644\u0639\u0644\u064a", "name": "\u0623\u062d\u0645\u062f \u0627\u0644\u0639\u0644\u064a", "name:ar": "\u0623\u062d\u0645\u062f \u0627\u0644\u0639\u0644\u064a", "name:de": "Ahmad al Ali", "name:en": "Ahmad al Ali", "name:fr": "Ahmad al Ali", "place": "village"}}, {"type": "node", "id": 2484133201, "lat": 35.7545404, "lon": 43.2806021, "tags": {"alt_name": "\u0623\u0631\u0643\u0628\u0629 \u0634\u0631\u0642\u064a\u0629", "int_name": "Arkabah Sharq\u012byah, \u0627\u0631\u0643\u0628\u0629 \u0634\u0631\u0642\u064a\u0629, Arkabah Sharqiyah, \u0627\u0631\u0643\u0628\u0629 \u0634\u0631\u0642\u064a\u0629", "name": "\u0623\u0631\u0643\u0628\u0629 \u0634\u0631\u0642\u064a\u0629", "name:ar": "\u0623\u0631\u0643\u0628\u0629 \u0634\u0631\u0642\u064a\u0629", "name:ar1": "\u0623\u0631\u0643\u0628\u0629 \u0634\u0631\u0642\u064a\u0629", "name:de": "Arkabah Sharqiyah", "name:en": "Arkabah Sharqiyah", "name:fr": "Arkabah Sharqiyah", "place": "village"}}, {"type": "node", "id": 2484133203, "lat": 35.7597077, "lon": 43.3429128, "tags": {"alt_name": "\u0639\u064a\u0646 \u0634\u0647\u0627\u0628 \u0627\u0644\u0634\u0645\u0627\u0644\u064a\u0629", "int_name": "Ayn Shih\u0101b ash Sham\u0101l\u012byah, \u0639\u064a\u0646 \u0634\u0647\u0627\u0628 \u0627\u0644\u0634\u0645\u0627\u0644\u064a\u0629, Ayn Shihab ash Shamaliyah, \u0639\u064a\u0646 \u0634\u0647\u0627\u0628 \u0627\u0644\u0634\u0645\u0627\u0644\u064a\u0629", "name": "\u0639\u064a\u0646 \u0634\u0647\u0627\u0628 \u0627\u0644\u0634\u0645\u0627\u0644\u064a\u0629", "name:ar": "\u0639\u064a\u0646 \u0634\u0647\u0627\u0628 \u0627\u0644\u0634\u0645\u0627\u0644\u064a\u0629", "name:ar1": "\u0639\u064a\u0646 \u0634\u0647\u0627\u0628 \u0627\u0644\u0634\u0645\u0627\u0644\u064a\u0629", "name:de": "Ayn Shihab ash Shamaliyah", "name:en": "Ayn Shihab ash Shamaliyah", "name:fr": "Ayn Shihab ash Shamaliyah", "place": "hamlet"}}, {"type": "node", "id": 2484133204, "lat": 35.7410972, "lon": 43.3064207, "tags": {"alt_name": "\u062d\u0627\u062c \u0639\u0644\u064a", "name": "\u062d\u0627\u062c \u0639\u0644\u064a", "name:ar": "\u062d\u0627\u062c \u0639\u0644\u064a", "name:de": "Hajj Ali", "name:en": "Hajj Ali", "name:fr": "Hajj Ali", "place": "village"}}, {"type": "node", "id": 2484133214, "lat": 35.7445271, "lon": 43.3050002, "tags": {"alt_name": "\u0642\u0631\u064a\u0629 \u062d\u0627\u062c\u064a \u0639\u0644\u064a", "int_name": "Qaryat \u1e28\u0101jj\u012b Al\u012b, \u0642\u0631\u064a\u0629 \u062d\u0627\u062c\u064a \u0639\u0644\u064a, Qaryat Hajji Ali, \u0642\u0631\u064a\u0629 \u062d\u0627\u062c\u064a \u0639\u0644\u064a", "name": "\u0642\u0631\u064a\u0629 \u062d\u0627\u062c\u064a \u0639\u0644\u064a", "name:ar": "\u0642\u0631\u064a\u0629 \u062d\u0627\u062c\u064a \u0639\u0644\u064a", "name:de": "Qaryat Hajji Ali", "name:en": "Qaryat Hajji Ali", "name:fr": "Qaryat Hajji Ali", "place": "village"}}, {"type": "node", "id": 2484133220, "lat": 35.745123, "lon": 43.27847, "tags": {"alt_name": "\u0642\u0631\u064a\u0629 \u0643\u0628\u0629 \u062c\u062f\u0639\u0629", "int_name": "Qaryat Kabbah Jadah, \u0642\u0631\u064a\u0629 \u0643\u0628\u0647 \u062c\u062f\u0639\u0647, Qaryat Kabbah Jadah, \u0642\u0631\u064a\u0629 \u0643\u0628\u0647 \u062c\u062f\u0639\u0647", "name": "\u0642\u0631\u064a\u0629 \u0643\u0628\u0629 \u062c\u062f\u0639\u0629", "name:ar": "\u0642\u0631\u064a\u0629 \u0627\u0631\u0643\u0628\u0629 \u062c\u062f\u0639\u0629", "name:ar1": "\u0642\u0631\u064a\u0629 \u0643\u0628\u0629 \u062c\u062f\u0639\u0629", "name:de": "Qaryat Kabbah Jadah", "name:en": "Qaryat Kabbah Jadah", "name:fr": "Qaryat Kabbah Jadah", "name:ku": "\u0627\u0644\u062c\u062f\u0639\u0629", "place": "village"}}, {"type": "node", "id": 2484133227, "lat": 35.7817927, "lon": 43.2680941, "tags": {"alt_name": "\u0642\u0631\u064a\u0629 \u0627\u0644\u062d\u0648\u064a\u062c", "int_name": "Qaryat al \u1e28uwayj, \u0642\u0631\u064a\u0629 \u0627\u0644\u062d\u0648\u064a\u062c, Qaryat al Huwayj, \u0642\u0631\u064a\u0629 \u0627\u0644\u062d\u0648\u064a\u062c", "name": "\u0642\u0631\u064a\u0629 \u0627\u0644\u062d\u0648\u064a\u062c", "name:ar": "\u0642\u0631\u064a\u0629 \u0627\u0644\u062d\u0648\u064a\u062c", "name:ar1": "\u0642\u0631\u064a\u0629 \u0627\u0644\u062d\u0648\u064a\u062c", "name:de": "Qaryat al Huwayj", "name:en": "Qaryat al Huwayj", "name:fr": "Qaryat al Huwayj", "place": "village"}}, {"type": "node", "id": 2484133456, "lat": 35.798776, "lon": 43.291783, "tags": {"alt_name:ko": "\uae4c\uc57c\ub77c;\uac8c\uc57c\ub808;\uac1c\uc57c\ub798", "name": "\u0646\u0627\u062d\u064a\u0629 \u0627\u0644\u0642\u064a\u0627\u0631\u0629", "name:ar": "\u0646\u0627\u062d\u064a\u0629 \u0627\u0644\u0642\u064a\u0627\u0631\u0629", "name:ckb": "\u06af\u06d5\u06cc\u0627\u0631\u06d5", "name:en": "Gayara", "name:ko": "\uc54c \uae4c\uc57c\ub77c", "name:ku": "Geyare", "name:ru": "\u041a\u0430\u0439\u044f\u0440\u0430", "place": "town"}}, {"type": "node", "id": 2484133624, "lat": 35.955943, "lon": 43.338022, "tags": {"alt_name": "\u0642\u0631\u064a\u0629 \u062d\u0641\u0631\u0629 \u0627\u0644\u0641\u0627\u0636\u0644", "int_name": "Qaryat \u1e28ufrat al F\u0101\u1e11il, \u0642\u0631\u064a\u0629 \u062d\u0641\u0631\u0629 \u0627\u0644\u0641\u0627\u0636\u0644, Qaryat Hufrat al Fadil, \u0642\u0631\u064a\u0629 \u062d\u0641\u0631\u0629 \u0627\u0644\u0641\u0627\u0636\u0644", "name": "\u0642\u0631\u064a\u0629 \u062d\u0641\u0631\u0629 \u0627\u0644\u0641\u0627\u0636\u0644", "name:ar": "\u0642\u0631\u064a\u0629 \u062d\u0636\u0631\u0629 \u0627\u0644\u0641\u0627\u0636\u0644", "name:ar1": "\u0642\u0631\u064a\u0629 \u062d\u0641\u0631\u0629 \u0627\u0644\u0641\u0627\u0636\u0644", "name:de": "Qaryat Hufrat al Fadil", "name:en": "Qaryat Hadhrat al Fadil", "name:fr": "Qaryat Hufrat al Fadil", "place": "village"}}, {"type": "node", "id": 2484133626, "lat": 35.9128356, "lon": 43.3637077, "tags": {"alt_name": "\u0642\u0631\u064a\u0629 \u062a\u0644 \u0627\u0644\u0634\u0648\u064a\u0631", "int_name": "Qaryat Tall ash Shuwayr, \u0642\u0631\u064a\u0629 \u062a\u0644 \u0627\u0644\u0634\u0648\u064a\u0631, Qaryat Tall ash Shuwayr, \u0642\u0631\u064a\u0629 \u062a\u0644 \u0627\u0644\u0634\u0648\u064a\u0631", "name": "\u0642\u0631\u064a\u0629 \u062a\u0644 \u0627\u0644\u0634\u0648\u064a\u0631", "name:ar": "\u0642\u0631\u064a\u0629 \u062a\u0644 \u0634\u0639\u064a\u0631", "name:ar1": "\u0642\u0631\u064a\u0629 \u062a\u0644 \u0627\u0644\u0634\u0648\u064a\u0631", "name:de": "Qaryat Tall ash Shuwayr", "name:en": "Qaryat Tall ash Shuwayr", "name:fr": "Qaryat Tall ash Shuwayr", "place": "village"}}, {"type": "node", "id": 2484133627, "lat": 35.913847, "lon": 43.360178, "tags": {"alt_name": "\u062a\u0644 \u0627\u0644\u0634\u0648\u064a\u0631", "int_name": "Tall ash Shuwayr, Tall ash Shuwayr", "name": "\u062a\u0644 \u0627\u0644\u0634\u0648\u064a\u0631", "name:ar": "\u062a\u0644 \u0627\u0644\u0634\u0648\u064a\u0631", "name:ar1": "\u062a\u0644 \u0627\u0644\u0634\u0648\u064a\u0631", "name:de": "Tall ash Shuwayr", "name:en": "Tall ash Shuwayr", "name:fr": "Tall ash Shuwayr", "name:ku": "Til \u015eair", "place": "village"}}, {"type": "node", "id": 2484134532, "lat": 35.8688099, "lon": 43.3207918, "tags": {"alt_name": "\u0627\u0644\u062d\u0648\u0636 \u0627\u0644\u0641\u0648\u0642\u0627\u0646\u064a", "int_name": "Al \u1e28awd al Fawq\u0101n\u012b, Al Hawd al Fawqani", "name": "\u0627\u0644\u062d\u0648\u0636 \u0627\u0644\u0641\u0648\u0642\u0627\u0646\u064a", "name:ar": "\u0627\u0644\u062d\u0648\u062f \u0641\u0648\u0642\u0627\u0646\u064a", "name:ar1": "\u0627\u0644\u062d\u0648\u0636 \u0627\u0644\u0641\u0648\u0642\u0627\u0646\u064a", "name:de": "Al Hawd al Fawqani", "name:en": "Al Hawd al Fawqani", "name:fr": "Al Hawd al Fawqani", "place": "village"}}, {"type": "node", "id": 2484134539, "lat": 35.8633117, "lon": 43.3017805, "tags": {"alt_name": "\u0627\u0644\u062d\u0648\u0636 \u0627\u0644\u062a\u062d\u062a\u0627\u0646\u064a", "int_name": "Al \u1e28awd at Ta\u1e29t\u0101n\u012b, Al Hawd at Tahtani", "name": "\u0627\u0644\u062d\u0648\u0636 \u0627\u0644\u062a\u062d\u062a\u0627\u0646\u064a", "name:ar": "\u0627\u0644\u062d\u0648\u062f \u0627\u0644\u062a\u062d\u062a\u0627\u0646\u064a", "name:ar1": "\u0627\u0644\u062d\u0648\u0636 \u0627\u0644\u062a\u062d\u062a\u0627\u0646\u064a", "name:de": "Al Hawd at Tahtani", "name:en": "Al Hawd at Tahtani", "name:fr": "Al Hawd at Tahtani", "place": "village"}}, {"type": "node", "id": 2484134545, "lat": 35.8677602, "lon": 43.3005643, "tags": {"alt_name": "\u0627\u0644\u062d\u0648\u0636", "int_name": "Al \u1e28awd, Al Hawd", "name": "\u0627\u0644\u062d\u0648\u0636", "name:ar": "\u0627\u0644\u062d\u0648\u062f", "name:ar1": "\u0627\u0644\u062d\u0648\u0636", "name:de": "Al Hawd", "name:en": "Al Hawd", "name:fr": "Al Hawd", "place": "village"}}, {"type": "node", "id": 2484134552, "lat": 35.8668551, "lon": 43.2985647, "tags": {"alt_name": "\u0627\u0644\u062d\u0648\u0633", "int_name": "Al \u1e28aws, Al Haws", "name": "\u0627\u0644\u062d\u0648\u0633", "name:ar": "\u0627\u0644\u062d\u0648\u062f", "name:ar1": "\u0627\u0644\u062d\u0648\u0633", "name:de": "Al Haws", "name:en": "Al Hawd", "name:fr": "Al Haws", "place": "village"}}, {"type": "node", "id": 2484134560, "lat": 35.8682844, "lon": 43.3157476, "tags": {"alt_name": "\u0642\u0631\u064a\u0629 \u0627\u0644\u0644\u0632\u0627\u0643\u0629", "int_name": "Al Laz\u0101kah, Qaryat al Laz\u0101kah, \u0642\u0631\u064a\u0629 \u0627\u0644\u0644\u0632\u0627\u0643\u0629, Al Lazakah, Qaryat al Lazakah, \u0642\u0631\u064a\u0629 \u0627\u0644\u0644\u0632\u0627\u0643\u0629", "name": "\u0642\u0631\u064a\u0629 \u0627\u0644\u0644\u0632\u0627\u0643\u0629", "name:ar": "\u0642\u0631\u064a\u0629 \u0627\u0644\u0644\u0632\u0627\u06af\u0629", "name:ar1": "\u0642\u0631\u064a\u0629 \u0627\u0644\u0644\u0632\u0627\u0643\u0629", "name:de": "Al Lazakah", "name:en": "Al Lazakah", "name:fr": "Al Lazakah", "place": "village"}}, {"type": "node", "id": 2484134567, "lat": 35.8661609, "lon": 43.3026213, "tags": {"alt_name": "\u0647\u0648\u062f", "int_name": "Hawd, Hawd", "name": "\u0647\u0648\u062f", "name:ar": "\u0627\u0644\u062d\u0648\u062f \u062a\u062d\u062a\u0627\u0646\u064a", "name:ar1": "\u0647\u0648\u062f", "name:de": "Hawd", "name:en": "Hawd", "name:fr": "Hawd", "place": "village"}}, {"type": "node", "id": 2484134572, "lat": 35.8618044, "lon": 43.3001245, "tags": {"alt_name": "\u0642\u0631\u064a\u0629 \u0627\u0644\u062d\u0648\u0636", "int_name": "Qaryat al \u1e28awd, Qaryat al Hawd", "name": "\u0642\u0631\u064a\u0629 \u0627\u0644\u062d\u0648\u0636", "name:ar": "\u0642\u0631\u064a\u0629 \u0627\u0644\u062d\u0648\u062f", "name:ar1": "\u0642\u0631\u064a\u0629 \u0627\u0644\u062d\u0648\u0636", "name:de": "Qaryat al Hawd", "name:en": "Qaryat al Hawd", "name:fr": "Qaryat al Hawd", "place": "village"}}, {"type": "node", "id": 2484134578, "lat": 35.8589191, "lon": 43.2966182, "tags": {"alt_name": "\u0627\u0644\u062d\u0648\u062f \u0627\u0644\u062a\u062d\u062a\u0627\u0646\u064a", "int_name": "\u0627\u0644\u062d\u0648\u062f \u0627\u0644\u062a\u062d\u062a\u0627\u0646\u064a, \u0627\u0644\u062d\u0648\u062f \u0627\u0644\u062a\u062d\u062a\u0627\u0646\u064a", "name": "\u0627\u0644\u062d\u0648\u062f \u0627\u0644\u062a\u062d\u062a\u0627\u0646\u064a", "name:ar": "\u0627\u0644\u062d\u0648\u062f \u0627\u0644\u062a\u062d\u062a\u0627\u0646\u064a", "name:ar1": "\u0627\u0644\u062d\u0648\u062f \u0627\u0644\u062a\u062d\u062a\u0627\u0646\u064a", "name:de": "\u0627\u0644\u062d\u0648\u062f \u0627\u0644\u062a\u062d\u062a\u0627\u0646\u064a", "name:en": "The underground border", "name:fr": "\u0627\u0644\u062d\u0648\u062f \u0627\u0644\u062a\u062d\u062a\u0627\u0646\u064a", "place": "village"}}, {"type": "node", "id": 2484134585, "lat": 35.865715, "lon": 43.3181256, "tags": {"alt_name": "\u0627\u0644\u062d\u0648\u062f \u0627\u0644\u0641\u0648\u0642\u0627\u0646\u064a", "int_name": "\u0627\u0644\u062d\u0648\u062f \u0627\u0644\u0641\u0648\u0642\u0627\u0646\u064a, \u0627\u0644\u062d\u0648\u062f \u0627\u0644\u0641\u0648\u0642\u0627\u0646\u064a", "name": "\u0627\u0644\u062d\u0648\u062f \u0627\u0644\u0641\u0648\u0642\u0627\u0646\u064a", "name:ar": "\u0627\u0644\u062d\u0648\u062f \u0641\u0648\u0642\u0627\u0646\u064a", "name:ar1": "\u0627\u0644\u062d\u0648\u062f \u0627\u0644\u0641\u0648\u0642\u0627\u0646\u064a", "place": "village"}}, {"type": "node", "id": 2484135085, "lat": 35.880278, "lon": 43.1986228, "tags": {"alt_name": "\u062d\u0645\u064a\u062f\u064a\u0629 \u063a\u0631\u0628\u064a", "int_name": "\u1e28am\u012bd\u012byah Gharb\u012b, Hamidiyah Gharbi", "name": "\u062d\u0645\u064a\u062f\u064a\u0629 \u063a\u0631\u0628\u064a", "name:ar": "\u062d\u0645\u064a\u062f\u064a\u0629 \u063a\u0631\u0628\u064a", "name:ar1": "\u062d\u0645\u064a\u062f\u064a\u0629 \u063a\u0631\u0628\u064a", "name:de": "Hamidiyah Gharbi", "name:en": "Hamidiyah Gharbi", "name:fr": "Hamidiyah Gharbi", "place": "village"}}, {"type": "node", "id": 2484140863, "lat": 35.9642703, "lon": 43.0699953, "tags": {"alt_name": "\u0642\u0631\u064a\u0629 \u0628\u064a\u062c\u0648\u0627\u0646\u064a\u0647 \u0627\u0644\u0639\u0644\u064a\u0627", "int_name": "\u0642\u0631\u064a\u0629 \u0628\u064a\u062c\u0648\u0627\u0646\u064a\u0647 \u0627\u0644\u0639\u0644\u064a\u0627, \u0642\u0631\u064a\u0629 \u0628\u064a\u062c\u0648\u0627\u0646\u064a\u0647 \u0627\u0644\u0639\u0644\u064a\u0627", "name": "\u0642\u0631\u064a\u0629 \u0628\u064a\u062c\u0648\u0627\u0646\u064a\u0647 \u0627\u0644\u0639\u0644\u064a\u0627", "name:ar": "\u0642\u0631\u064a\u0629 \u0628\u064a\u062c\u0648\u0627\u0646\u064a\u0647 \u0627\u0644\u0639\u0644\u064a\u0627", "name:ar1": "\u0642\u0631\u064a\u0629 \u0628\u064a\u062c\u0648\u0627\u0646\u064a\u0647 \u0627\u0644\u0639\u0644\u064a\u0627", "name:de": "\u0642\u0631\u064a\u0629 \u0628\u064a\u062c\u0648\u0627\u0646\u064a\u0647 \u0627\u0644\u0639\u0644\u064a\u0627", "name:fr": "\u0642\u0631\u064a\u0629 \u0628\u064a\u062c\u0648\u0627\u0646\u064a\u0647 \u0627\u0644\u0639\u0644\u064a\u0627", "place": "village"}}, {"type": "node", "id": 2484143857, "lat": 36.046065, "lon": 43.3373224, "tags": {"alt_name": "\u0642\u0631\u064a\u0629 \u0627\u0644\u062c\u0631\u0641", "int_name": "Qaryat al Jaraf, \u0642\u0631\u064a\u0629 \u0627\u0644\u062c\u0631\u0641, Qaryat al Jaraf, \u0642\u0631\u064a\u0629 \u0627\u0644\u062c\u0631\u0641", "name": "\u0642\u0631\u064a\u0629 \u0627\u0644\u062c\u0631\u0641", "name:ar": "\u0642\u0631\u064a\u0629 \u0627\u0644\u062c\u0631\u0641", "name:ar1": "\u0642\u0631\u064a\u0629 \u0627\u0644\u062c\u0631\u0641", "name:de": "Qaryat al Jaraf", "name:en": "Qaryat al Jaraf", "name:fr": "Qaryat al Jaraf", "place": "village"}}, {"type": "node", "id": 2484143868, "lat": 36.072375, "lon": 43.31203, "tags": {"alt_name": "\u062d\u0648\u064a\u062c\u0647 \u0627\u0644\u062d\u0635\u0627\u0646", "int_name": "\u062d\u0648\u064a\u062c\u0647 \u0627\u0644\u062d\u0635\u0627\u0646, \u062d\u0648\u064a\u062c\u0647 \u0627\u0644\u062d\u0635\u0627\u0646", "name": "\u062d\u0648\u064a\u062c\u0647 \u0627\u0644\u062d\u0635\u0627\u0646", "name:ar": "\u062d\u0648\u064a\u062c\u0647 \u0627\u0644\u062d\u0635\u0627\u0646", "name:ar1": "\u062d\u0648\u064a\u062c\u0647 \u0627\u0644\u062d\u0635\u0627\u0646", "name:de": "\u062d\u0648\u064a\u062c\u0647 \u0627\u0644\u062d\u0635\u0627\u0646", "name:en": "Hawijat al Husan", "name:fr": "\u062d\u0648\u064a\u062c\u0647 \u0627\u0644\u062d\u0635\u0627\u0646", "place": "village"}}, {"type": "node", "id": 2485315430, "lat": 36.034862, "lon": 43.435489, "tags": {"alt_name": "\u0625\u0628\u0631\u0627\u0647\u064a\u0645 \u0627\u0644\u062e\u0644\u064a\u0644", "int_name": "Ibr\u0101h\u012bm Khal\u012bl, Ibrahim Khalil", "name": "\u0625\u0628\u0631\u0627\u0647\u064a\u0645 \u0627\u0644\u062e\u0644\u064a\u0644", "name:ar": "\u0625\u0628\u0631\u0627\u0647\u064a\u0645 \u0627\u0644\u062e\u0644\u064a\u0644", "name:de": "Ibrahim Khalil", "name:en": "Ibrahim Khalil", "name:fr": "Ibrahim Khalil", "place": "village"}}, {"type": "node", "id": 2485315488, "lat": 36.037685, "lon": 43.450262, "tags": {"alt_name": "\u0642\u0631\u064a\u0629 \u0643\u0647\u0627\u0631\u064a", "int_name": "Qaryat Kah\u0101r\u012b, \u0642\u0631\u064a\u0629 \u0643\u0647\u0627\u0631\u064a, Qaryat Kahari, \u0642\u0631\u064a\u0629 \u0643\u0647\u0627\u0631\u064a", "name": "\u0642\u0631\u064a\u0629 \u0643\u0647\u0627\u0631\u064a", "name:ar": "\u0642\u0631\u064a\u0629 \u0643\u0647\u0627\u0631\u064a", "name:de": "Kahari", "name:en": "Kahari", "name:fr": "Kahari", "place": "village"}}, {"type": "node", "id": 2488212152, "lat": 35.896836, "lon": 42.921891, "tags": {"alt_name": "\u062e\u0631\u0628\u0629 \u0639\u0628\u0627\u062f \u0627\u0644\u0634\u0631\u0642\u064a", "int_name": "Khirbat Abb\u0101d Ash Sharq\u012b, \u062e\u0631\u0628\u0629 \u0639\u0628\u0627\u062f \u0627\u0644\u0634\u0631\u0642\u064a, Khirbat Abbad Ash Sharqi, \u062e\u0631\u0628\u0629 \u0639\u0628\u0627\u062f \u0627\u0644\u0634\u0631\u0642\u064a", "name": "\u062e\u0631\u0628\u0629 \u0639\u0628\u0627\u062f \u0627\u0644\u0634\u0631\u0642\u064a", "name:ar": "\u062e\u0631\u0628\u0629 \u0639\u0628\u0627\u0631 \u0627\u0644\u0634\u0631\u0642\u064a", "name:ar1": "\u062e\u0631\u0628\u0629 \u0639\u0628\u0627\u062f \u0627\u0644\u0634\u0631\u0642\u064a", "name:de": "Khirbat Abbad Ash Sharqi", "name:en": "Khirbat Abbad Ash Sharqi", "name:fr": "Khirbat Abbad Ash Sharqi", "place": "village"}}, {"type": "node", "id": 2488212173, "lat": 35.872569, "lon": 42.921697, "tags": {"alt_name": "\u062e\u0631\u0628\u0629 \u062d\u0645\u0627\u062f\u064a", "int_name": "Khirbat \u1e28amm\u0101d\u012b, \u062e\u0631\u0628\u0629 \u062d\u0645\u0627\u062f\u064a, Khirbat Hammadi, \u062e\u0631\u0628\u0629 \u062d\u0645\u0627\u062f\u064a", "name": "\u062e\u0631\u0628\u0629 \u062d\u0645\u0627\u062f\u064a", "name:ar": "\u062e\u0631\u0628\u0629 \u062d\u0645\u0627\u062f", "name:ar1": "\u062e\u0631\u0628\u0629 \u062d\u0645\u0627\u062f\u064a", "name:de": "Khirbat Hammadi", "name:en": "Khirbat Hammadi", "name:fr": "Khirbat Hammadi", "place": "village"}}, {"type": "node", "id": 2488212256, "lat": 35.8917177, "lon": 43.015007, "tags": {"alt_name": "\u0642\u0631\u064a\u0629 \u0627\u0644\u062b\u0627\u064a\u0629", "int_name": "Qaryat ath Ath\u0101yah, \u0642\u0631\u064a\u0629 \u0627\u0644\u062b\u0627\u064a\u0647, Qaryat ath Athayah, \u0642\u0631\u064a\u0629 \u0627\u0644\u062b\u0627\u064a\u0647", "name": "\u0642\u0631\u064a\u0629 \u0627\u0644\u062b\u0627\u064a\u0629", "name:ar": "\u0642\u0631\u064a\u0629 \u0627\u0644\u062b\u0627\u064a\u0629", "name:ar1": "\u0642\u0631\u064a\u0629 \u0627\u0644\u062b\u0627\u064a\u0629", "name:de": "Qaryat ath Athayah", "name:en": "Qaryat ath Athayah", "name:fr": "Qaryat ath Athayah", "place": "village"}}, {"type": "node", "id": 2488212401, "lat": 35.9451586, "lon": 42.9599319, "tags": {"alt_name": "\u0627\u0644\u0641\u0627\u0631\u0633\u064a\u0629 \u0627\u0644\u0623\u062b\u0631\u064a\u0647", "int_name": "\u0627\u0644\u0641\u0627\u0631\u0633\u064a\u0629 \u0627\u0644\u0623\u062b\u0631\u064a\u0647, \u0627\u0644\u0641\u0627\u0631\u0633\u064a\u0629 \u0627\u0644\u0623\u062b\u0631\u064a\u0647", "name": "\u0627\u0644\u0641\u0627\u0631\u0633\u064a\u0629 \u0627\u0644\u0623\u062b\u0631\u064a\u0647", "name:ar": "\u0627\u0644\u0641\u0627\u0631\u0633\u064a\u0629 \u0627\u0644\u0623\u062b\u0631\u064a\u0647", "name:ar1": "\u0627\u0644\u0641\u0627\u0631\u0633\u064a\u0629 \u0627\u0644\u0623\u062b\u0631\u064a\u0647", "place": "village"}}, {"type": "node", "id": 2488227303, "lat": 35.759629, "lon": 42.95079, "tags": {"alt_name": "\u0627\u0644\u0631\u0643\u064a \u0627\u0644\u062c\u0646\u0648\u0628\u064a\u0629", "int_name": "Ar Rag\u012b al Jan\u016bb\u012byah, \u0627\u0644\u0631\u06af\u064a \u0627\u0644\u062c\u0646\u0648\u0628\u064a\u0647, Ar Ragi al Janubiyah, \u0627\u0644\u0631\u06af\u064a \u0627\u0644\u062c\u0646\u0648\u0628\u064a\u0647", "name": "\u0627\u0644\u0631\u0643\u064a \u0627\u0644\u062c\u0646\u0648\u0628\u064a\u0629", "name:ar": "\u0627\u0644\u0631\u0643\u0639\u064a \u0627\u0644\u062c\u0646\u0648\u0628\u064a\u0629", "name:ar1": "\u0627\u0644\u0631\u0643\u064a \u0627\u0644\u062c\u0646\u0648\u0628\u064a\u0629", "name:de": "Ar Ragi al Janubiyah", "name:en": "Ar Ragi al Janubiyah", "name:fr": "Ar Ragi al Janubiyah", "place": "village"}}, {"type": "node", "id": 2488227344, "lat": 35.6993318, "lon": 43.1038191, "tags": {"alt_name": "\u0642\u0631\u064a\u0629 \u0639\u0628\u062f \u0627\u0644\u062c\u0627\u0633\u0645", "int_name": "Qaryat Abd al J\u0101sim, \u0642\u0631\u064a\u0629 \u0639\u0628\u062f \u0627\u0644\u062c\u0627\u0633\u0645, Qaryat Abd al Jasim, \u0642\u0631\u064a\u0629 \u0639\u0628\u062f \u0627\u0644\u062c\u0627\u0633\u0645", "name": "\u0642\u0631\u064a\u0629 \u0639\u0628\u062f \u0627\u0644\u062c\u0627\u0633\u0645", "name:ar": "\u0642\u0631\u064a\u0629 \u0639\u0628\u062f \u0627\u0644\u062c\u0627\u0633\u0645", "name:ar1": "\u0642\u0631\u064a\u0629 \u0639\u0628\u062f \u0627\u0644\u062c\u0627\u0633\u0645", "name:de": "Qaryat Abd al Jasim", "name:en": "Qaryat Abd al Jasim", "name:fr": "Qaryat Abd al Jasim", "place": "village"}}, {"type": "node", "id": 2488230721, "lat": 36.026585, "lon": 43.405923, "tags": {"alt_name": "\u0642\u0631\u064a\u0629 \u0627\u0644\u0639\u062f\u0644\u0629", "int_name": "Al Adiah, Al Ad\u012byah, Al Adlah, Al Adyah, Al Adla, Qaryat al Adlah, \u0642\u0631\u064a\u0629 \u0627\u0644\u0639\u062f\u0644\u0629, Al Adiah, Al Adiyah, Al Adlah, Al Adyah, Al Adla, Qaryat al Adlah, \u0642\u0631\u064a\u0629 \u0627\u0644\u0639\u062f\u0644\u0629", "name": "\u0642\u0631\u064a\u0629 \u0627\u0644\u0639\u062f\u0644\u0629", "name:ar": "\u0642\u0631\u064a\u0629 \u0627\u0644\u0639\u062f\u0644\u0629", "name:de": "Al Adiah", "name:en": "Al Adiah", "name:fr": "Al Adiah", "place": "village"}}, {"type": "node", "id": 2488230761, "lat": 35.9814768, "lon": 43.3408126, "tags": {"alt_name": "\u0645\u062e\u0644\u0637", "int_name": "Makhlat, Makhla\u0163, Mexlat, Makhlat, Makhlat, Mexlat", "name": "\u0645\u062e\u0644\u0637", "name:ar": "\u0645\u062e\u0644\u0637", "name:ar1": "\u0645\u062e\u0644\u0637", "name:de": "Makhlat", "name:en": "Makhlat", "name:fr": "Makhlat", "place": "village"}}, {"type": "node", "id": 2488230786, "lat": 36.0240528, "lon": 43.3211631, "tags": {"alt_name": "\u0642\u0631\u064a\u0629 \u0637\u0648\u0628\u064a\u0629", "int_name": "Qaryat \u0162\u016bb\u012byah, Qaryat Tubiyah", "name": "\u0642\u0631\u064a\u0629 \u0637\u0648\u0628\u064a\u0629", "name:ar": "\u0642\u0631\u064a\u0629 \u0637\u0648\u0628\u064a\u0629", "name:ar1": "\u0642\u0631\u064a\u0629 \u0637\u0648\u0628\u064a\u0629", "name:de": "Qaryat Tubiyah", "name:en": "Qaryat Tubiyah", "name:fr": "Qaryat Tubiyah", "place": "village"}}, {"type": "node", "id": 2488230794, "lat": 35.9940162, "lon": 43.450614, "tags": {"alt_name": "\u0642\u0631\u064a\u0629 \u0632\u0645\u0627\u0631\u0629 \u0627\u0644\u0643\u0628\u0631\u0649", "int_name": "Qaryat Zam\u0101rat \u015e\u0101bir, Zim\u0101rah, Zim\u0101rat, Zim\u0101rat \u015e\u0101bir, Zomar, Zumrah, \u0642\u0631\u064a\u0629 \u0632\u0645\u0627\u0631\u0629 \u0635\u0627\u0628\u0631, Qaryat Zamarat Sabir, Zimarah, Zimarat, Zimarat Sabir, Zomar, Zumrah, \u0642\u0631\u064a\u0629 \u0632\u0645\u0627\u0631\u0629 \u0635\u0627\u0628\u0631", "name": "\u0632\u0645\u0627\u0631\u06d5\u06cc \u06af\u06d5\u0648\u0631\u06d5", "name:ar": "\u0642\u0631\u064a\u0629 \u0632\u0645\u0627\u0631\u0629 \u0627\u0644\u0643\u0628\u0631\u0649", "name:ckb": "\u0632\u0645\u0627\u0631\u06d5\u06cc \u06af\u06d5\u0648\u0631\u06d5", "name:de": "Qaryat Zamarat gawra", "name:en": "Qaryat Zamarat gawra", "name:fr": "Qaryat Zamarat gawra", "place": "village"}}, {"type": "node", "id": 2488230831, "lat": 36.0269682, "lon": 43.3226008, "tags": {"alt_name": "\u0642\u0632\u064a\u0629 \u0637\u0648\u0628\u064a\u0629", "int_name": "\u0642\u0632\u064a\u0629 \u0637\u0648\u0628\u064a\u0629, \u0642\u0632\u064a\u0629 \u0637\u0648\u0628\u064a\u0629", "name": "\u0642\u0631\u064a\u0629 \u0637\u0648\u0628\u064a\u0629", "name:ar1": "\u0642\u0632\u064a\u0629 \u0637\u0648\u0628\u064a\u0629", "name:en": "Tubiah Village", "place": "village"}}, {"type": "node", "id": 2488245928, "lat": 35.837692, "lon": 42.974805, "tags": {"alt_name": "\u0623\u0635\u0644\u0648\u0628\u064a", "int_name": "A\u015fl\u016bb\u012b, \u0627\u0635\u0644\u0648\u0628\u064a, Aslubi, \u0627\u0635\u0644\u0648\u0628\u064a", "name": "\u0623\u0635\u0644\u0648\u0628\u064a", "name:ar": "\u0623\u0635\u0644\u0628\u064a", "name:ar1": "\u0623\u0635\u0644\u0648\u0628\u064a", "name:de": "Aslubi", "name:en": "Aslubi", "name:fr": "Aslubi", "place": "village"}}, {"type": "node", "id": 2488246060, "lat": 35.6786395, "lon": 43.0282474, "tags": {"alt_name": "\u0642\u0631\u064a\u0629 \u0631\u0643\u0639\u064a \u0627\u0644\u0633\u0641\u0644\u0649", "int_name": "Qaryat Ruk\u012b as Sufl\u00e1, \u0642\u0631\u064a\u0629 \u0631\u0643\u0639\u064a \u0627\u0644\u0633\u0641\u0644\u0649, Qaryat Ruki as Sufla, \u0642\u0631\u064a\u0629 \u0631\u0643\u0639\u064a \u0627\u0644\u0633\u0641\u0644\u0649", "name": "\u0642\u0631\u064a\u0629 \u0631\u0643\u0639\u064a \u0627\u0644\u0633\u0641\u0644\u0649", "name:ar": "\u0642\u0631\u064a\u0629 \u0631\u0643\u0639\u064a \u0627\u0644\u0633\u0641\u0644\u0649", "name:ar1": "\u0642\u0631\u064a\u0629 \u0631\u0643\u0639\u064a \u0627\u0644\u0633\u0641\u0644\u0649", "name:de": "Qaryat Ruki as Sufla", "name:en": "Qaryat Ruki as Sufla", "name:fr": "Qaryat Ruki as Sufla", "place": "village"}}, {"type": "node", "id": 2488246086, "lat": 35.667093, "lon": 42.985121, "tags": {"alt_name": "\u0631\u0645\u0636\u0627\u0646\u064a\u0629", "int_name": "Ram\u1e11\u0101n\u012byah, \u0631\u0645\u0636\u0627\u0646\u064a\u0629, Ramdaniyah, \u0631\u0645\u0636\u0627\u0646\u064a\u0629", "name": "\u0631\u0645\u0636\u0627\u0646\u064a\u0629", "name:ar": "\u0631\u0645\u0636\u0627\u0646\u064a\u0629", "name:ar1": "\u0631\u0645\u0636\u0627\u0646\u064a\u0629", "name:de": "Ramdaniyah", "name:en": "Ramdaniyah", "name:fr": "Ramdaniyah", "name:ru": "\u0420\u0430\u043c\u0430\u0434\u0430\u043d\u0438\u044f", "place": "village"}}, {"type": "node", "id": 2488246710, "lat": 35.9947385, "lon": 43.2234014, "tags": {"alt_name": "Ash Sh\u016brah, Ash Sh\u016brah, N\u0101\u1e29iyat ash Sh\u016brah, Sh\u016bra, Sh\u016brah, \u0627\u0644\u0634\u0648\u0631\u0647, Ash Shurah, Ash Shurah, Nahiyat ash Shurah, Shura, Shurah, \u0627\u0644\u0634\u0648\u0631\u0647", "capital": "7", "int_name": "Ash Shurah, \u0627\u0644\u0634\u0648\u0631\u0629", "name": "\u0627\u0644\u0634\u0648\u0631\u0629", "name:ar": "\u0627\u0644\u0634\u0648\u0631\u0629", "name:de": "Ash Shurah", "name:en": "Ash Shurah", "name:fr": "Ash Shurah", "name:ko": "\uc557 \uc288\ub77c", "place": "town"}}, {"type": "node", "id": 2488246788, "lat": 35.9285151, "lon": 43.3002769, "tags": {"alt_name": "\u0642\u0631\u064a\u0629 \u0627\u0644\u062f\u0646\u062c", "int_name": "Daynach, Daynij, Qaryat ad Danaj, \u0642\u0631\u064a\u0629 \u0627\u0644\u062f\u0646\u062c, Daynach, Daynij, Qaryat ad Danaj, \u0642\u0631\u064a\u0629 \u0627\u0644\u062f\u0646\u062c", "name": "\u0642\u0631\u064a\u0629 \u0627\u0644\u062f\u0646\u062c", "name:ar": "\u0642\u0631\u064a\u0629 \u0627\u0644\u062f\u0646\u062c", "name:ar1": "\u0642\u0631\u064a\u0629 \u0627\u0644\u062f\u0646\u062c", "name:de": "Daynach", "name:en": "Daynach", "name:fr": "Daynach", "place": "village"}}, {"type": "node", "id": 2488246897, "lat": 35.788142, "lon": 43.216147, "tags": {"alt_name": "\u0642\u0631\u064a\u0629 \u0632\u0647\u064a\u0644\u064a\u0644\u0629", "int_name": "Hayl\u012blah al Kubr\u00e1, Qaryat Zuhayl\u012blah, \u0642\u0631\u064a\u0629 \u0632\u0647\u064a\u0644\u064a\u0644\u0629, Haylilah al Kubra, Qaryat Zuhaylilah, \u0642\u0631\u064a\u0629 \u0632\u0647\u064a\u0644\u064a\u0644\u0629", "name": "\u0642\u0631\u064a\u0629 \u0627\u0632\u0647\u064a\u0644\u064a\u0644\u0629", "name:ar": "\u0642\u0631\u064a\u0629 \u0627\u0632\u0647\u064a\u0644\u064a\u0644\u0629", "name:ar1": "\u0642\u0631\u064a\u0629 \u0632\u0647\u064a\u0644\u064a\u0644\u0629", "name:de": "Haylilah al Kubra", "name:en": "Haylilah al Kubra", "name:fr": "Haylilah al Kubra", "place": "village"}}, {"type": "node", "id": 2488246947, "lat": 35.92141, "lon": 43.315215, "tags": {"alt_name": "\u062d\u0633\u064a\u0646 \u0639\u0648\u0627\u062f", "int_name": "\u1e28usayn Aww\u0101d, \u062d\u0633\u064a\u0646 \u0639\u0648\u0627\u062f, Husayn Awwad, \u062d\u0633\u064a\u0646 \u0639\u0648\u0627\u062f", "name": "\u0627\u0644\u0645\u0646\u0643\u0648\u0628\u0629(\u062d\u0627\u0631\u0629 \u062d\u0633\u064a\u0646 \u0627\u0644\u0639\u0648\u0627\u062f)", "name:ar": "\u062d\u0633\u064a\u0646 \u0639\u0648\u0627\u062f", "name:ar1": "\u062d\u0633\u064a\u0646 \u0639\u0648\u0627\u062f", "name:de": "Husayn Awwad", "name:en": "Husayn Awwad", "name:fr": "Husayn Awwad", "place": "village"}}, {"type": "node", "id": 2488247198, "lat": 35.6896996, "lon": 43.3905092, "tags": {"admin_level": "9", "alt_name": "\u06af\u0648\u0646\u062f\u06cc \u0642\u062f\u06cc\u0644\u06d5", "name": "\u0642\u062f\u06cc\u0644\u06d5", "name:ar": "\u0642\u062f\u06cc\u0644\u06d5", "name:ckb": "\u0642\u062f\u06cc\u0644\u06d5", "name:de": "Qdila", "name:en": "Qdila", "name:fr": "Qdila", "place": "village"}}, {"type": "node", "id": 2488247202, "lat": 35.744096, "lon": 43.220293, "tags": {"alt_name": "\u0642\u0631\u064a\u0629 \u0633\u0628\u0639 \u062e\u0631\u0627\u0628", "int_name": "Qaryat Sab Khar\u0101b, \u0642\u0631\u064a\u0629 \u0633\u0628\u0639 \u062e\u0631\u0627\u0628, Qaryat Sab Kharab, \u0642\u0631\u064a\u0629 \u0633\u0628\u0639 \u062e\u0631\u0627\u0628", "name": "\u0642\u0631\u064a\u0629 \u0633\u0628\u0639 \u062e\u0631\u0627\u0628", "name:ar": "\u0642\u0631\u064a\u0629 7 \u062e\u0631\u0627\u0628\u0629", "name:ar1": "\u0642\u0631\u064a\u0629 \u0633\u0628\u0639 \u062e\u0631\u0627\u0628", "name:de": "Qaryat Sab Kharab", "name:en": "Qaryat Sab Kharab", "name:fr": "Qaryat Sab Kharab", "place": "village"}}, {"type": "node", "id": 2488247206, "lat": 36.037107, "lon": 43.203768, "tags": {"alt_name": "\u0642\u0631\u064a\u0629 \u0633\u0631\u0648\u062c", "int_name": "Qaryat tahtouh,\u0642\u0631\u064a\u0629 \u0627\u0644\u0637\u062d\u0637\u0648\u062d, Qaryat tahtouh, \u0642\u0631\u064a\u0629 \u0627\u0644\u0637\u062d\u0637\u0648\u062d", "name": "\u0642\u0631\u064a\u0629 \u0633\u0631\u0648\u062c", "name:ar": "\u0642\u0631\u064a\u0629 \u0627\u0644\u0637\u062d\u0637\u0648\u062d", "name:ar1": "\u0642\u0631\u064a\u0629 \u0633\u0631\u0648\u062c", "name:de": "Qaryat Saruj", "name:en": "Qaryat tahtouh", "name:fr": "Qaryat Saruj", "place": "village"}}, {"type": "node", "id": 2488247213, "lat": 35.965316, "lon": 43.251421, "tags": {"alt_name": "\u0642\u0631\u064a\u0629 \u062a\u0644 \u0645\u0647\u0631", "int_name": "Grd Mahr, Grd Mahar, Tul\u016bl Ma\u1e29\u0101r, Tulul Mahar, \u06af\u0631\u062f \u0645\u0627\u0647\u06cc\u0631\u060c \u06af\u0648\u0646\u062f\u06cc \u06af\u0631\u062f \u0645\u0627\u0647\u06cc\u0631", "name": "\u06af\u0631\u062f \u0645\u0627\u0647\u06cc\u0631", "name:ckb": "\u06af\u0631\u062f \u0645\u0627\u0647\u06cc\u0631", "name:de": "Grd Mahir", "name:en": "Grd Mahir", "name:fr": "Grd Mahir", "place": "village"}}, {"type": "node", "id": 2488247217, "lat": 35.971122, "lon": 43.277248, "tags": {"alt_name": "\u0642\u0631\u064a\u0629 \u062a\u0644 \u0632\u0647\u0631\u0629 \u062e\u0627\u062a\u0648\u0646", "int_name": "Grdi Zahra Kh\u0101t\u016bn, Grdi Zahra Khatun, \u06af\u0631\u062f\u06cc \u0632\u06d5\u0647\u0631\u06d5 \u062e\u0627\u062a\u0648\u0648\u0646", "name": "\u06af\u0631\u062f\u06cc \u0632\u06d5\u0647\u0631\u06d5 \u062e\u0627\u062a\u0648\u0648\u0646", "name:ckb": "\u06af\u0631\u062f\u06cc \u0632\u06d5\u0647\u0631\u06d5 \u062e\u0627\u062a\u0648\u0648\u0646", "name:de": "Grdi Zahra Khatun", "name:en": "Grdi Zahra Khatun", "name:fr": "Grdi Zahra Khatun", "place": "village"}}, {"type": "node", "id": 2488247227, "lat": 35.809861, "lon": 43.146987, "tags": {"alt_name": "\u0642\u0631\u064a\u0629 \u0637\u0631\u0637\u064a\u0639\u0629", "int_name": "Qaryat \u0162ar\u0163\u012bah, \u0642\u0631\u064a\u0629 \u0637\u0631\u0637\u064a\u0639\u0629, Qaryat Tartiah, \u0642\u0631\u064a\u0629 \u0637\u0631\u0637\u064a\u0639\u0629", "name": "\u064a\u0648\u0633\u0641 \u0627\u0644\u0637\u062d\u0637\u0648\u062d", "name:ar": "\u064a\u0648\u0633\u0641 \u0627\u0644\u0637\u062d\u0637\u0648\u062d", "name:ar1": "\u0642\u0631\u064a\u0629 \u0637\u0631\u0637\u064a\u0639\u0629", "name:de": "Qaryat Tartiah", "name:en": "Yousif altahtouh", "name:fr": "Qaryat Tartiah", "place": "village", "tourism": "caravan_site"}}, {"type": "node", "id": 2488247612, "lat": 35.6360337, "lon": 43.1566466, "tags": {"alt_name": "\u0642\u0631\u064a\u0629 \u0627\u0639\u0630\u064a\u0629", "int_name": "\u0642\u0631\u064a\u0629 \u0627\u0639\u0630\u064a\u0629, \u0642\u0631\u064a\u0629 \u0627\u0639\u0630\u064a\u0629", "name": "\u0642\u0631\u064a\u0629 \u0627\u0639\u0630\u064a\u0629", "name:ar": "\u0642\u0631\u064a\u0629 \u0627\u0639\u0630\u064a\u0629", "name:ar1": "\u0642\u0631\u064a\u0629 \u0627\u0639\u0630\u064a\u0629", "name:de": "\u0642\u0631\u064a\u0629 \u0627\u0639\u0630\u064a\u0629", "name:fr": "\u0642\u0631\u064a\u0629 \u0627\u0639\u0630\u064a\u0629", "place": "village"}}, {"type": "node", "id": 2488247627, "lat": 35.9493408, "lon": 43.1540008, "tags": {"alt_name": "\u0642\u0631\u064a\u0629 \u0628\u064a\u062c\u0648\u0627\u0646\u064a\u0647 \u0631\u0642\u0645 \u0663", "int_name": "\u0642\u0631\u064a\u0629 \u0628\u064a\u062c\u0648\u0627\u0646\u064a\u0647 \u0631\u0642\u0645 \u0663, \u0642\u0631\u064a\u0629 \u0628\u064a\u062c\u0648\u0627\u0646\u064a\u0647 \u0631\u0642\u0645 \u0663", "name": "\u0642\u0631\u064a\u0629 \u0628\u064a\u062c\u0648\u0627\u0646\u064a\u0647 \u0631\u0642\u0645 \u0663", "name:ar": "\u0642\u0631\u064a\u0629 \u0628\u064a\u062c\u0648\u0627\u0646\u064a\u0647 \u0631\u0642\u0645 \u0663", "name:ar1": "\u0642\u0631\u064a\u0629 \u0628\u064a\u062c\u0648\u0627\u0646\u064a\u0647 \u0631\u0642\u0645 \u0663", "name:de": "\u0642\u0631\u064a\u0629 \u0628\u064a\u062c\u0648\u0627\u0646\u064a\u0647 \u0631\u0642\u0645 \u0663", "name:fr": "\u0642\u0631\u064a\u0629 \u0628\u064a\u062c\u0648\u0627\u0646\u064a\u0647 \u0631\u0642\u0645 \u0663", "place": "village"}}, {"type": "node", "id": 2962983934, "lat": 36.0111413, "lon": 43.3601265}, {"type": "node", "id": 2962983935, "lat": 36.0114933, "lon": 43.3622738}, {"type": "node", "id": 2962983936, "lat": 36.011903, "lon": 43.3781034}, {"type": "node", "id": 2962983937, "lat": 36.012809, "lon": 43.3806644}, {"type": "node", "id": 2962983938, "lat": 36.0139399, "lon": 43.3640608}, {"type": "node", "id": 2962983939, "lat": 36.0133975, "lon": 43.3572374}, {"type": "node", "id": 2962983940, "lat": 36.0139284, "lon": 43.3702884}, {"type": "node", "id": 2962983941, "lat": 36.0142919, "lon": 43.3741656}, {"type": "node", "id": 2962983942, "lat": 36.0135533, "lon": 43.3598626}, {"type": "node", "id": 2962983943, "lat": 36.0145574, "lon": 43.3597485}, {"type": "node", "id": 2962983944, "lat": 36.0156306, "lon": 43.3830042}, {"type": "node", "id": 2962983945, "lat": 36.0164211, "lon": 43.376805}, {"type": "node", "id": 2962983946, "lat": 36.0160287, "lon": 43.3785813}, {"type": "node", "id": 2962983947, "lat": 36.017552, "lon": 43.3718899}, {"type": "node", "id": 2962983948, "lat": 36.0172924, "lon": 43.3801079}, {"type": "node", "id": 2962983949, "lat": 36.0184868, "lon": 43.3698283}, {"type": "node", "id": 2962983950, "lat": 36.0210716, "lon": 43.3623308}, {"type": "node", "id": 2962983951, "lat": 36.0211755, "lon": 43.3679807}, {"type": "node", "id": 2962983952, "lat": 36.0226484, "lon": 43.3673891}, {"type": "node", "id": 2962983953, "lat": 36.0225785, "lon": 43.4067244}, {"type": "node", "id": 2962983954, "lat": 36.0237949, "lon": 43.3662615}, {"type": "node", "id": 2962983955, "lat": 36.0248628, "lon": 43.4117712}, {"type": "node", "id": 2962983956, "lat": 36.0259237, "lon": 43.3986836}, {"type": "node", "id": 2962983957, "lat": 36.0283577, "lon": 43.4121262}, {"type": "node", "id": 2962983958, "lat": 36.0283701, "lon": 43.4050113}, {"type": "node", "id": 2962983959, "lat": 36.0290566, "lon": 43.409734}, {"type": "node", "id": 2962983960, "lat": 36.0311458, "lon": 43.4318374}, {"type": "node", "id": 2962983961, "lat": 36.0319584, "lon": 43.3507121}, {"type": "node", "id": 2962983962, "lat": 36.032393, "lon": 43.438548}, {"type": "node", "id": 2962983963, "lat": 36.0329031, "lon": 43.3525117}, {"type": "node", "id": 2962983964, "lat": 36.0329286, "lon": 43.3500175}, {"type": "node", "id": 2962983965, "lat": 36.0332605, "lon": 43.3461658}, {"type": "node", "id": 2962983966, "lat": 36.0346903, "lon": 43.3525275}, {"type": "node", "id": 2962983967, "lat": 36.0350725, "lon": 43.4273072}, {"type": "node", "id": 2962983968, "lat": 36.0353349, "lon": 43.3469961}, {"type": "node", "id": 2962983969, "lat": 36.0358136, "lon": 43.3511383}, {"type": "node", "id": 2962983971, "lat": 36.0360658, "lon": 43.4501795}, {"type": "node", "id": 2962983972, "lat": 36.0367869, "lon": 43.3487657}, {"type": "node", "id": 2962983973, "lat": 36.0382838, "lon": 43.437795}, {"type": "node", "id": 2962983974, "lat": 36.0374975, "lon": 43.4340568}, {"type": "node", "id": 2962983975, "lat": 36.0378857, "lon": 43.3391147}, {"type": "node", "id": 2962983976, "lat": 36.0379964, "lon": 43.351312}, {"type": "node", "id": 2962983977, "lat": 36.0382894, "lon": 43.4532566}, {"type": "node", "id": 2962983979, "lat": 36.0394201, "lon": 43.3439591}, {"type": "node", "id": 2962983980, "lat": 36.0400637, "lon": 43.4505102}, {"type": "node", "id": 2962983984, "lat": 36.0435178, "lon": 43.3471069}, {"type": "node", "id": 2962983985, "lat": 36.0438066, "lon": 43.3406551}, {"type": "node", "id": 2962983988, "lat": 36.0470918, "lon": 43.3321941}, {"type": "node", "id": 2962983990, "lat": 36.0473987, "lon": 43.3333103}, {"type": "node", "id": 2962983992, "lat": 36.0490412, "lon": 43.3416374}, {"type": "node", "id": 2962983993, "lat": 36.0492037, "lon": 43.327305}, {"type": "node", "id": 2962983995, "lat": 36.0501062, "lon": 43.3362125}, {"type": "node", "id": 2962983997, "lat": 36.0509364, "lon": 43.3354088}, {"type": "node", "id": 2962983999, "lat": 36.0527413, "lon": 43.3273273}, {"type": "node", "id": 2962984001, "lat": 36.0540408, "lon": 43.325586}, {"type": "node", "id": 2962984004, "lat": 36.0549252, "lon": 43.3302965}, {"type": "node", "id": 2962984005, "lat": 36.0549252, "lon": 43.3337568}, {"type": "node", "id": 2962984007, "lat": 36.0550877, "lon": 43.3206523}, {"type": "node", "id": 2962984008, "lat": 36.0564413, "lon": 43.3298946}, {"type": "node", "id": 2962984182, "lat": 36.0583363, "lon": 43.3244698}, {"type": "node", "id": 2962984184, "lat": 36.0595816, "lon": 43.3279078}, {"type": "node", "id": 2962984201, "lat": 36.0693589, "lon": 43.313097}, {"type": "node", "id": 2962984202, "lat": 36.0700446, "lon": 43.3153295}, {"type": "node", "id": 2962984203, "lat": 36.0705859, "lon": 43.3096144}, {"type": "node", "id": 2962984204, "lat": 36.0722821, "lon": 43.3143919}, {"type": "node", "id": 2962984205, "lat": 36.0728054, "lon": 43.3153518}, {"type": "node", "id": 2962984206, "lat": 36.0741046, "lon": 43.3105297}, {"type": "node", "id": 2962984209, "lat": 36.0758909, "lon": 43.3146598}, {"type": "node", "id": 2971233699, "lat": 35.7320973, "lon": 43.295919}, {"type": "node", "id": 2971233701, "lat": 35.7328734, "lon": 43.2870223}, {"type": "node", "id": 2971233704, "lat": 35.7355035, "lon": 43.2810999}, {"type": "node", "id": 2971233707, "lat": 35.737234, "lon": 43.2797761}, {"type": "node", "id": 2971233710, "lat": 35.7686288, "lon": 43.2877411}, {"type": "node", "id": 2971233711, "lat": 35.7711809, "lon": 43.2877411}, {"type": "node", "id": 2971233712, "lat": 35.7727782, "lon": 43.2828685}, {"type": "node", "id": 2971233714, "lat": 35.7742129, "lon": 43.2866237}, {"type": "node", "id": 2971238371, "lat": 35.723991, "lon": 43.2821622}, {"type": "node", "id": 2971238372, "lat": 35.7404615, "lon": 43.2673962}, {"type": "node", "id": 2971238375, "lat": 35.7453066, "lon": 43.2849681}, {"type": "node", "id": 2971238381, "lat": 35.7537664, "lon": 43.2869068}, {"type": "node", "id": 2971238382, "lat": 35.7540896, "lon": 43.2843971}, {"type": "node", "id": 2971238383, "lat": 35.758734, "lon": 43.2843971}, {"type": "node", "id": 2971238384, "lat": 35.7633674, "lon": 43.283919}, {"type": "node", "id": 2971238385, "lat": 35.7636385, "lon": 43.286943}, {"type": "node", "id": 2982912716, "lat": 35.985116, "lon": 43.2515557}, {"type": "node", "id": 2982912717, "lat": 35.9853406, "lon": 43.2538415}, {"type": "node", "id": 2982912718, "lat": 35.9877303, "lon": 43.2553911}, {"type": "node", "id": 2982912719, "lat": 35.9879036, "lon": 43.2519638}, {"type": "node", "id": 2993510069, "lat": 36.0407048, "lon": 43.4487689}, {"type": "node", "id": 2993524366, "lat": 36.0325299, "lon": 43.4448386}, {"type": "node", "id": 2993526973, "lat": 36.0389432, "lon": 43.4401875}, {"type": "node", "id": 2994531752, "lat": 35.8067374, "lon": 43.0273237}, {"type": "node", "id": 2994531753, "lat": 35.8072046, "lon": 43.034092}, {"type": "node", "id": 2994531755, "lat": 35.8100804, "lon": 43.0176213}, {"type": "node", "id": 2994531756, "lat": 35.8129465, "lon": 43.0343844}, {"type": "node", "id": 2994531779, "lat": 35.8155491, "lon": 43.0256022}, {"type": "node", "id": 2994533664, "lat": 35.8284533, "lon": 43.0358149}, {"type": "node", "id": 2994533668, "lat": 35.8285359, "lon": 43.0307744}, {"type": "node", "id": 2994533687, "lat": 35.8312809, "lon": 43.0380551}, {"type": "node", "id": 2994533705, "lat": 35.8337446, "lon": 43.0036258}, {"type": "node", "id": 2994533706, "lat": 35.8337782, "lon": 43.0199042}, {"type": "node", "id": 2994533710, "lat": 35.8339846, "lon": 43.014151}, {"type": "node", "id": 2994533717, "lat": 35.8341824, "lon": 42.9923213}, {"type": "node", "id": 2994533836, "lat": 35.834645, "lon": 43.0300871}, {"type": "node", "id": 2994533841, "lat": 35.835388, "lon": 43.0364004}, {"type": "node", "id": 2994533880, "lat": 35.8400727, "lon": 43.0146856}, {"type": "node", "id": 2994533881, "lat": 35.8401552, "lon": 43.0199806}, {"type": "node", "id": 2994533882, "lat": 35.8405449, "lon": 42.9919737}, {"type": "node", "id": 2994533883, "lat": 35.8408368, "lon": 42.9971815}, {"type": "node", "id": 2994533884, "lat": 35.8463817, "lon": 43.0032658}, {"type": "node", "id": 2994533885, "lat": 35.846586, "lon": 42.9974335}, {"type": "node", "id": 3007240967, "lat": 35.8334115, "lon": 42.9758715}, {"type": "node", "id": 3007240968, "lat": 35.8352672, "lon": 42.9711364}, {"type": "node", "id": 3007240969, "lat": 35.8368134, "lon": 42.9768704}, {"type": "node", "id": 3007240970, "lat": 35.8382988, "lon": 42.9728317}, {"type": "node", "id": 3007240971, "lat": 35.8624981, "lon": 43.0563437}, {"type": "node", "id": 3007240972, "lat": 35.8635552, "lon": 43.0604604}, {"type": "node", "id": 3007240973, "lat": 35.865964, "lon": 43.0515141}, {"type": "node", "id": 3007240974, "lat": 35.8651834, "lon": 43.0616747}, {"type": "node", "id": 3007240975, "lat": 35.8665791, "lon": 43.0593529}, {"type": "node", "id": 3007240976, "lat": 35.8676929, "lon": 43.0535442}, {"type": "node", "id": 3008463577, "lat": 36.0409312, "lon": 43.0395239}, {"type": "node", "id": 3008463578, "lat": 36.0414813, "lon": 43.032067}, {"type": "node", "id": 3008463579, "lat": 36.0417352, "lon": 43.0349974}, {"type": "node", "id": 3008463580, "lat": 36.0428816, "lon": 43.0447536}, {"type": "node", "id": 3008463581, "lat": 36.0434127, "lon": 43.0483799}, {"type": "node", "id": 3008463583, "lat": 36.044213, "lon": 43.0444113}, {"type": "node", "id": 3008463585, "lat": 36.0446244, "lon": 43.0475196}, {"type": "node", "id": 3008463587, "lat": 36.044958, "lon": 42.9729886}, {"type": "node", "id": 3008463588, "lat": 36.0449984, "lon": 43.045984}, {"type": "node", "id": 3008463589, "lat": 36.0453171, "lon": 42.9680673}, {"type": "node", "id": 3008463615, "lat": 36.0498346, "lon": 42.9763558}, {"type": "node", "id": 3008464129, "lat": 36.0342722, "lon": 43.0113168}, {"type": "node", "id": 3008464130, "lat": 36.0345628, "lon": 43.0369859}, {"type": "node", "id": 3008464131, "lat": 36.0365164, "lon": 43.0065065}, {"type": "node", "id": 3008464132, "lat": 36.0370806, "lon": 43.0426899}, {"type": "node", "id": 3008464134, "lat": 36.0377731, "lon": 43.0148876}, {"type": "node", "id": 3008464135, "lat": 36.038752, "lon": 43.0309157}, {"type": "node", "id": 3008464137, "lat": 36.0401369, "lon": 43.0103732}, {"type": "node", "id": 3008464233, "lat": 36.0522036, "lon": 42.9689389}, {"type": "node", "id": 3008464235, "lat": 36.052584, "lon": 42.974392}, {"type": "node", "id": 3025090386, "lat": 35.9935235, "lon": 43.2548207}, {"type": "node", "id": 3025090387, "lat": 35.9941205, "lon": 43.2659094}, {"type": "node", "id": 3025092159, "lat": 35.9824222, "lon": 43.2714254}, {"type": "node", "id": 3025092160, "lat": 35.9824639, "lon": 43.2679225}, {"type": "node", "id": 3025092161, "lat": 35.9830197, "lon": 43.2717345}, {"type": "node", "id": 3025092162, "lat": 35.9842568, "lon": 43.2665607}, {"type": "node", "id": 3025092163, "lat": 35.9844524, "lon": 43.2696225}, {"type": "node", "id": 3025092164, "lat": 35.9855946, "lon": 43.2761294}, {"type": "node", "id": 3025092165, "lat": 35.987135, "lon": 43.2714369}, {"type": "node", "id": 3025092166, "lat": 35.9875674, "lon": 43.2811559}, {"type": "node", "id": 3025092167, "lat": 35.98777, "lon": 43.2633711}, {"type": "node", "id": 3025092168, "lat": 35.9909048, "lon": 43.2631373}, {"type": "node", "id": 3025092169, "lat": 35.9910658, "lon": 43.2632761}, {"type": "node", "id": 3025092170, "lat": 35.9920527, "lon": 43.2641269}, {"type": "node", "id": 3025092171, "lat": 35.9921759, "lon": 43.2543743}, {"type": "node", "id": 3097042019, "lat": 36.000072, "lon": 43.2933991}, {"type": "node", "id": 3097043555, "lat": 36.0057187, "lon": 43.2846172}, {"type": "node", "id": 3097043558, "lat": 36.0062562, "lon": 43.2362776}, {"type": "node", "id": 3097043559, "lat": 36.0063734, "lon": 43.2383281}, {"type": "node", "id": 3097043564, "lat": 36.0078131, "lon": 43.2860463}, {"type": "node", "id": 3097043566, "lat": 36.0079433, "lon": 43.2335601}, {"type": "node", "id": 3097043569, "lat": 36.0085851, "lon": 43.2370647}, {"type": "node", "id": 3097043571, "lat": 36.0089859, "lon": 43.2947661}, {"type": "node", "id": 3097043572, "lat": 36.0108134, "lon": 43.2379553}, {"type": "node", "id": 3097043573, "lat": 36.0127736, "lon": 43.2328808}, {"type": "node", "id": 3097043574, "lat": 36.0131589, "lon": 43.2366297}, {"type": "node", "id": 3097043575, "lat": 36.0135191, "lon": 43.2806412}, {"type": "node", "id": 3097043576, "lat": 36.0152236, "lon": 43.2821667}, {"type": "node", "id": 3097043577, "lat": 36.0163121, "lon": 43.2717663}, {"type": "node", "id": 3097043578, "lat": 36.0185893, "lon": 43.259903}, {"type": "node", "id": 3097043579, "lat": 36.0197264, "lon": 43.2598444}, {"type": "node", "id": 3097043580, "lat": 36.0199675, "lon": 43.3190587}, {"type": "node", "id": 3097043581, "lat": 36.0351236, "lon": 43.2904526}, {"type": "node", "id": 3097043582, "lat": 36.036698, "lon": 43.2913846}, {"type": "node", "id": 3097043583, "lat": 36.0370497, "lon": 43.2967697}, {"type": "node", "id": 3097043584, "lat": 36.0405438, "lon": 43.3116393}, {"type": "node", "id": 3097043585, "lat": 36.0407239, "lon": 43.31332}, {"type": "node", "id": 3097043586, "lat": 36.0409695, "lon": 43.3056656}, {"type": "node", "id": 3097043587, "lat": 36.0418046, "lon": 43.3130162}, {"type": "node", "id": 3097043588, "lat": 36.0448828, "lon": 43.3049771}, {"type": "node", "id": 3097043589, "lat": 36.0466442, "lon": 43.3125141}, {"type": "node", "id": 3097043590, "lat": 36.0474697, "lon": 43.3113558}, {"type": "node", "id": 3097043591, "lat": 36.0478846, "lon": 43.2751938}, {"type": "node", "id": 3097043592, "lat": 36.0481737, "lon": 43.3069818}, {"type": "node", "id": 3097043593, "lat": 36.051058, "lon": 43.2714445}, {"type": "node", "id": 3097043594, "lat": 36.053142, "lon": 43.2708587}, {"type": "node", "id": 3097043595, "lat": 36.0554864, "lon": 43.2846548}, {"type": "node", "id": 3097043596, "lat": 36.0564099, "lon": 43.2709759}, {"type": "node", "id": 3097044941, "lat": 36.0570019, "lon": 43.2850356}, {"type": "node", "id": 3097044942, "lat": 36.0574755, "lon": 43.2792653}, {"type": "node", "id": 3097044943, "lat": 36.0586832, "lon": 43.2789138}, {"type": "node", "id": 3097044944, "lat": 36.0597724, "lon": 43.2688962}, {"type": "node", "id": 3097044945, "lat": 36.0599145, "lon": 43.2761604}, {"type": "node", "id": 3097045236, "lat": 36.0022335, "lon": 43.28499}, {"type": "node", "id": 3097045248, "lat": 36.0039259, "lon": 43.2972308}, {"type": "node", "id": 3097045250, "lat": 36.0199633, "lon": 43.2650876}, {"type": "node", "id": 3097045251, "lat": 36.0221192, "lon": 43.2794695}, {"type": "node", "id": 3097045252, "lat": 36.0236753, "lon": 43.3107907}, {"type": "node", "id": 3097045253, "lat": 36.0244848, "lon": 43.3274168}, {"type": "node", "id": 3097045254, "lat": 36.0238723, "lon": 43.2658198}, {"type": "node", "id": 3097045255, "lat": 36.0240544, "lon": 43.3177621}, {"type": "node", "id": 3097045256, "lat": 36.026009, "lon": 43.3285735}, {"type": "node", "id": 3097045257, "lat": 36.0262175, "lon": 43.2702428}, {"type": "node", "id": 3097045258, "lat": 36.0263759, "lon": 43.3101171}, {"type": "node", "id": 3097045259, "lat": 36.0278375, "lon": 43.2949471}, {"type": "node", "id": 3097045260, "lat": 36.0279631, "lon": 43.3175277}, {"type": "node", "id": 3097045261, "lat": 36.0289817, "lon": 43.3236789}, {"type": "node", "id": 3097045262, "lat": 36.0292423, "lon": 43.3113766}, {"type": "node", "id": 3097045263, "lat": 36.0297973, "lon": 43.2894998}, {"type": "node", "id": 3097045264, "lat": 36.0318073, "lon": 43.2888163}, {"type": "node", "id": 3097045265, "lat": 36.0322595, "lon": 43.2973497}, {"type": "node", "id": 3097135290, "lat": 36.0421981, "lon": 43.0900939}, {"type": "node", "id": 3097135297, "lat": 36.0430264, "lon": 43.084131}, {"type": "node", "id": 3097135299, "lat": 36.0437806, "lon": 43.085553}, {"type": "node", "id": 3097136335, "lat": 36.0380441, "lon": 43.0871889}, {"type": "node", "id": 3097136337, "lat": 36.038415, "lon": 43.090889}, {"type": "node", "id": 3097136341, "lat": 36.0394041, "lon": 43.0820517}, {"type": "node", "id": 3098795523, "lat": 35.846796, "lon": 42.9757651}, {"type": "node", "id": 3098795524, "lat": 35.8484879, "lon": 42.9813106}, {"type": "node", "id": 3098795525, "lat": 35.8492905, "lon": 42.9707071}, {"type": "node", "id": 3098795526, "lat": 35.853773, "lon": 42.9817219}, {"type": "node", "id": 3098795527, "lat": 35.8542669, "lon": 42.9734037}, {"type": "node", "id": 3099156122, "lat": 35.7767852, "lon": 43.3043101}, {"type": "node", "id": 3099156123, "lat": 35.7794487, "lon": 43.3054903}, {"type": "node", "id": 3099156124, "lat": 35.7800992, "lon": 43.3102512}, {"type": "node", "id": 3099156125, "lat": 35.7766001, "lon": 43.3179545}, {"type": "node", "id": 3099156126, "lat": 35.7688181, "lon": 43.3129549}, {"type": "node", "id": 3099156127, "lat": 35.7687421, "lon": 43.3019498}, {"type": "node", "id": 3099156128, "lat": 35.7684351, "lon": 43.2992434}, {"type": "node", "id": 3099157829, "lat": 35.7682546, "lon": 43.2990315}, {"type": "node", "id": 3099157830, "lat": 35.7682023, "lon": 43.3095887}, {"type": "node", "id": 3099157831, "lat": 35.7621322, "lon": 43.31568}, {"type": "node", "id": 3099157832, "lat": 35.7607155, "lon": 43.3015421}, {"type": "node", "id": 3137166937, "lat": 35.9278661, "lon": 43.3439346}, {"type": "node", "id": 3137166938, "lat": 35.9272107, "lon": 43.3461439}, {"type": "node", "id": 3137166939, "lat": 35.9263892, "lon": 43.3489127}, {"type": "node", "id": 3137166940, "lat": 35.925375, "lon": 43.3529842}, {"type": "node", "id": 3137166943, "lat": 35.9322099, "lon": 43.3513589}, {"type": "node", "id": 3149561415, "lat": 36.0159768, "lon": 43.3733809}, {"type": "node", "id": 3154030407, "lat": 36.0680982, "lon": 43.1554298}, {"type": "node", "id": 3154030410, "lat": 36.0688648, "lon": 43.1583101}, {"type": "node", "id": 3154030412, "lat": 36.06948, "lon": 43.1532871}, {"type": "node", "id": 3154030415, "lat": 36.070928, "lon": 43.1587784}, {"type": "node", "id": 3154030417, "lat": 36.0712971, "lon": 43.1537905}, {"type": "node", "id": 3154030422, "lat": 36.0731804, "lon": 43.151964}, {"type": "node", "id": 3154030424, "lat": 36.0735022, "lon": 43.1574319}, {"type": "node", "id": 3176412689, "lat": 36.0549507, "lon": 43.133086}, {"type": "node", "id": 3176412691, "lat": 36.0568713, "lon": 43.1484713}, {"type": "node", "id": 3176412698, "lat": 36.0586059, "lon": 43.1446519}, {"type": "node", "id": 3176412700, "lat": 36.0587527, "lon": 43.1221427}, {"type": "node", "id": 3176415054, "lat": 36.0711052, "lon": 43.2002504}, {"type": "node", "id": 3176415055, "lat": 36.0712331, "lon": 43.1971302}, {"type": "node", "id": 3176415056, "lat": 36.072823, "lon": 43.193897}, {"type": "node", "id": 3176415057, "lat": 36.0758018, "lon": 43.1991425}, {"type": "node", "id": 3176415058, "lat": 36.0765145, "lon": 43.1962711}, {"type": "node", "id": 3176421151, "lat": 36.0614972, "lon": 43.1518758}, {"type": "node", "id": 3176421156, "lat": 36.0617803, "lon": 43.1474414}, {"type": "node", "id": 3176421410, "lat": 36.0367194, "lon": 43.2077975}, {"type": "node", "id": 3176421412, "lat": 36.0372737, "lon": 43.1967204}, {"type": "node", "id": 3176421416, "lat": 36.0394549, "lon": 43.2021815}, {"type": "node", "id": 3176421999, "lat": 36.0308191, "lon": 43.199661}, {"type": "node", "id": 3176422004, "lat": 36.031892, "lon": 43.2071563}, {"type": "node", "id": 3176422027, "lat": 36.0445858, "lon": 43.1318876}, {"type": "node", "id": 3176422032, "lat": 36.0476941, "lon": 43.1213488}, {"type": "node", "id": 3176422035, "lat": 36.0484748, "lon": 43.1268849}, {"type": "node", "id": 3176422037, "lat": 36.0499421, "lon": 43.1183216}, {"type": "node", "id": 3176422046, "lat": 36.0562941, "lon": 43.1288113}, {"type": "node", "id": 3177298361, "lat": 35.9363349, "lon": 43.3119519}, {"type": "node", "id": 3177298362, "lat": 35.9351854, "lon": 43.3213853}, {"type": "node", "id": 3177298363, "lat": 35.9380742, "lon": 43.3233841}, {"type": "node", "id": 3177298364, "lat": 35.9405546, "lon": 43.3265036}, {"type": "node", "id": 3177298365, "lat": 35.9442296, "lon": 43.3226182}, {"type": "node", "id": 3177298366, "lat": 35.9495073, "lon": 43.3242247}, {"type": "node", "id": 3177298367, "lat": 35.9526527, "lon": 43.3247104}, {"type": "node", "id": 3177298368, "lat": 35.9548604, "lon": 43.3172384}, {"type": "node", "id": 3177298369, "lat": 35.9546185, "lon": 43.311074}, {"type": "node", "id": 3177298370, "lat": 35.9506869, "lon": 43.3126804}, {"type": "node", "id": 3177298371, "lat": 35.9493864, "lon": 43.3116344}, {"type": "node", "id": 3177298372, "lat": 35.9500669, "lon": 43.3078797}, {"type": "node", "id": 3177298373, "lat": 35.9481463, "lon": 43.3085522}, {"type": "node", "id": 3177298374, "lat": 35.9471483, "lon": 43.3104202}, {"type": "node", "id": 3177298375, "lat": 35.9438969, "lon": 43.3105696}, {"type": "node", "id": 3177298376, "lat": 35.9424148, "lon": 43.3081039}, {"type": "node", "id": 3177298377, "lat": 35.939511, "lon": 43.3088137}, {"type": "node", "id": 3177298378, "lat": 35.9345804, "lon": 43.3084214}, {"type": "node", "id": 3177298379, "lat": 35.9325537, "lon": 43.3200404}, {"type": "node", "id": 3177298380, "lat": 35.9281218, "lon": 43.3197788}, {"type": "node", "id": 3177298381, "lat": 35.9270478, "lon": 43.3201711}, {"type": "node", "id": 3177298382, "lat": 35.923841, "lon": 43.3232907}, {"type": "node", "id": 3177298383, "lat": 35.9216929, "lon": 43.3209557}, {"type": "node", "id": 3177298384, "lat": 35.9199992, "lon": 43.3188176}, {"type": "node", "id": 3177298385, "lat": 35.9228344, "lon": 43.3154657}, {"type": "node", "id": 3177298386, "lat": 35.9282707, "lon": 43.3139321}, {"type": "node", "id": 3177298387, "lat": 35.9301127, "lon": 43.3028764}, {"type": "node", "id": 3177298388, "lat": 35.9308747, "lon": 43.2981287}, {"type": "node", "id": 3177298389, "lat": 35.9294412, "lon": 43.2935957}, {"type": "node", "id": 3177298390, "lat": 35.9266588, "lon": 43.292352}, {"type": "node", "id": 3177298391, "lat": 35.9213937, "lon": 43.2933724}, {"type": "node", "id": 3177298392, "lat": 35.9224633, "lon": 43.2996879}, {"type": "node", "id": 3177298393, "lat": 35.9240834, "lon": 43.3047271}, {"type": "node", "id": 3177298394, "lat": 35.9269043, "lon": 43.3081138}, {"type": "node", "id": 3177300666, "lat": 35.926352, "lon": 43.2829606}, {"type": "node", "id": 3177300667, "lat": 35.9276347, "lon": 43.2907689}, {"type": "node", "id": 3177300668, "lat": 35.9217626, "lon": 43.2923521}, {"type": "node", "id": 3177300669, "lat": 35.921935, "lon": 43.2909743}, {"type": "node", "id": 3177300670, "lat": 35.9216022, "lon": 43.2897414}, {"type": "node", "id": 3177300671, "lat": 35.9231754, "lon": 43.2861735}, {"type": "node", "id": 3177300672, "lat": 35.9247335, "lon": 43.2846231}, {"type": "node", "id": 3177302762, "lat": 35.9654127, "lon": 43.2474432}, {"type": "node", "id": 3177302763, "lat": 35.9620123, "lon": 43.2494113}, {"type": "node", "id": 3177302764, "lat": 35.9608551, "lon": 43.2505817}, {"type": "node", "id": 3177302765, "lat": 35.9633649, "lon": 43.2535894}, {"type": "node", "id": 3177302766, "lat": 35.9645675, "lon": 43.256902}, {"type": "node", "id": 3177302767, "lat": 35.9672396, "lon": 43.2555887}, {"type": "node", "id": 3177302768, "lat": 35.9666798, "lon": 43.2533006}, {"type": "node", "id": 3177302769, "lat": 35.9695114, "lon": 43.2519144}, {"type": "node", "id": 3177302770, "lat": 35.9684833, "lon": 43.2490751}, {"type": "node", "id": 3177470598, "lat": 36.0602936, "lon": 43.2189322}, {"type": "node", "id": 3177470674, "lat": 36.0528642, "lon": 43.2203355}, {"type": "node", "id": 3177470685, "lat": 36.0561874, "lon": 43.2234029}, {"type": "node", "id": 3177470689, "lat": 36.0580347, "lon": 43.2152066}, {"type": "node", "id": 3212357007, "lat": 35.9924694, "lon": 43.4226061}, {"type": "node", "id": 3212357008, "lat": 35.989101, "lon": 43.4216466}, {"type": "node", "id": 3212357009, "lat": 35.9864299, "lon": 43.4232891}, {"type": "node", "id": 3212357010, "lat": 35.9870483, "lon": 43.4260861}, {"type": "node", "id": 3212357011, "lat": 35.9894431, "lon": 43.4277936}, {"type": "node", "id": 3212357012, "lat": 35.9932588, "lon": 43.427257}, {"type": "node", "id": 3221642882, "lat": 35.8627437, "lon": 43.3049766}, {"type": "node", "id": 3221642883, "lat": 35.8585874, "lon": 43.3043328}, {"type": "node", "id": 3221642884, "lat": 35.8551092, "lon": 43.3013717}, {"type": "node", "id": 3221642885, "lat": 35.8530396, "lon": 43.305041}, {"type": "node", "id": 3221642886, "lat": 35.8506743, "lon": 43.3068649}, {"type": "node", "id": 3221642887, "lat": 35.8472131, "lon": 43.306779}, {"type": "node", "id": 3221642888, "lat": 35.8480654, "lon": 43.2998267}, {"type": "node", "id": 3221642889, "lat": 35.8515265, "lon": 43.2928959}, {"type": "node", "id": 3221642890, "lat": 35.8547092, "lon": 43.2898489}, {"type": "node", "id": 3221642891, "lat": 35.8570109, "lon": 43.2884887}, {"type": "node", "id": 3221642892, "lat": 35.8602366, "lon": 43.2886532}, {"type": "node", "id": 3221642893, "lat": 35.8647014, "lon": 43.2871567}, {"type": "node", "id": 3221642894, "lat": 35.868413, "lon": 43.2920761}, {"type": "node", "id": 3221642895, "lat": 35.8728679, "lon": 43.2932892}, {"type": "node", "id": 3221642896, "lat": 35.875011, "lon": 43.2931713}, {"type": "node", "id": 3221642897, "lat": 35.8771836, "lon": 43.2946539}, {"type": "node", "id": 3221642898, "lat": 35.8817247, "lon": 43.2889377}, {"type": "node", "id": 3221642899, "lat": 35.88606, "lon": 43.2886687}, {"type": "node", "id": 3221642900, "lat": 35.8903539, "lon": 43.2891623}, {"type": "node", "id": 3221642901, "lat": 35.8902958, "lon": 43.2942999}, {"type": "node", "id": 3221642902, "lat": 35.8894416, "lon": 43.3066952}, {"type": "node", "id": 3221642903, "lat": 35.8836259, "lon": 43.3030647}, {"type": "node", "id": 3221642904, "lat": 35.8791232, "lon": 43.303535}, {"type": "node", "id": 3221642905, "lat": 35.8755242, "lon": 43.3087277}, {"type": "node", "id": 3221642906, "lat": 35.8701584, "lon": 43.3164819}, {"type": "node", "id": 3221642907, "lat": 35.8704702, "lon": 43.3198432}, {"type": "node", "id": 3221642908, "lat": 35.8722988, "lon": 43.3234682}, {"type": "node", "id": 3221642909, "lat": 35.872551, "lon": 43.3244991}, {"type": "node", "id": 3221642910, "lat": 35.8700993, "lon": 43.3246708}, {"type": "node", "id": 3221642911, "lat": 35.8668997, "lon": 43.3228508}, {"type": "node", "id": 3221642912, "lat": 35.8643262, "lon": 43.3171431}, {"type": "node", "id": 3221642913, "lat": 35.8641095, "lon": 43.3161727}, {"type": "node", "id": 3221642914, "lat": 35.8656191, "lon": 43.3056624}, {"type": "node", "id": 3223220761, "lat": 35.8826267, "lon": 43.3346656}, {"type": "node", "id": 3223220762, "lat": 35.8842764, "lon": 43.3363655}, {"type": "node", "id": 3223220763, "lat": 35.8865768, "lon": 43.3420442}, {"type": "node", "id": 3223220764, "lat": 35.8858134, "lon": 43.3464634}, {"type": "node", "id": 3223220765, "lat": 35.885286, "lon": 43.3486991}, {"type": "node", "id": 3223220766, "lat": 35.8792102, "lon": 43.3490194}, {"type": "node", "id": 3223220767, "lat": 35.8767996, "lon": 43.3484515}, {"type": "node", "id": 3223220768, "lat": 35.8748773, "lon": 43.3463406}, {"type": "node", "id": 3223220769, "lat": 35.8747713, "lon": 43.3446781}, {"type": "node", "id": 3223220770, "lat": 35.8748167, "lon": 43.3428288}, {"type": "node", "id": 3223220771, "lat": 35.8749681, "lon": 43.3394103}, {"type": "node", "id": 3223220772, "lat": 35.8743626, "lon": 43.3373369}, {"type": "node", "id": 3223220773, "lat": 35.8733636, "lon": 43.33517}, {"type": "node", "id": 3223220774, "lat": 35.8727733, "lon": 43.3333767}, {"type": "node", "id": 3223220775, "lat": 35.8724857, "lon": 43.3313219}, {"type": "node", "id": 3223220776, "lat": 35.8726673, "lon": 43.3302198}, {"type": "node", "id": 3223220777, "lat": 35.8741053, "lon": 43.3293045}, {"type": "node", "id": 3223220778, "lat": 35.8758157, "lon": 43.3293605}, {"type": "node", "id": 3223220779, "lat": 35.8791352, "lon": 43.3287762}, {"type": "node", "id": 3223220780, "lat": 35.8838345, "lon": 43.3300952}, {"type": "node", "id": 3223220781, "lat": 35.8829597, "lon": 43.3314153}, {"type": "node", "id": 3223932098, "lat": 36.0230737, "lon": 43.362288}, {"type": "node", "id": 4062780334, "lat": 36.0109451, "lon": 43.3604404}, {"type": "node", "id": 4062780335, "lat": 36.0110605, "lon": 43.3588211}, {"type": "node", "id": 4062780336, "lat": 36.0121396, "lon": 43.3792876}, {"type": "node", "id": 4062780337, "lat": 36.0124801, "lon": 43.35855}, {"type": "node", "id": 4062780338, "lat": 36.012607, "lon": 43.3762058}, {"type": "node", "id": 4062780339, "lat": 36.012783, "lon": 43.3642498}, {"type": "node", "id": 4062780340, "lat": 36.0129013, "lon": 43.3570733}, {"type": "node", "id": 4062780341, "lat": 36.0132187, "lon": 43.3580364}, {"type": "node", "id": 4062780342, "lat": 36.0134437, "lon": 43.3811138}, {"type": "node", "id": 4062780343, "lat": 36.0134812, "lon": 43.3651451}, {"type": "node", "id": 4062780344, "lat": 36.0135129, "lon": 43.3584573}, {"type": "node", "id": 4062780345, "lat": 36.0136226, "lon": 43.3592919}, {"type": "node", "id": 4062780346, "lat": 36.0136226, "lon": 43.3799653}, {"type": "node", "id": 4062780347, "lat": 36.0136745, "lon": 43.3754211}, {"type": "node", "id": 4062780348, "lat": 36.013813, "lon": 43.3692826}, {"type": "node", "id": 4062780349, "lat": 36.0138592, "lon": 43.3657122}, {"type": "node", "id": 4062780350, "lat": 36.0139226, "lon": 43.3801222}, {"type": "node", "id": 4062780351, "lat": 36.0140553, "lon": 43.3583717}, {"type": "node", "id": 4062780352, "lat": 36.0141246, "lon": 43.3647741}, {"type": "node", "id": 4062780353, "lat": 36.0141621, "lon": 43.3681983}, {"type": "node", "id": 4062780354, "lat": 36.0141765, "lon": 43.3590565}, {"type": "node", "id": 4062780355, "lat": 36.0142775, "lon": 43.3707842}, {"type": "node", "id": 4062780356, "lat": 36.0144189, "lon": 43.3812208}, {"type": "node", "id": 4062780357, "lat": 36.0145487, "lon": 43.3729778}, {"type": "node", "id": 4062780358, "lat": 36.0145516, "lon": 43.3807714}, {"type": "node", "id": 4062780359, "lat": 36.014592, "lon": 43.3619528}, {"type": "node", "id": 4062780360, "lat": 36.0147766, "lon": 43.3789451}, {"type": "node", "id": 4062780361, "lat": 36.0147882, "lon": 43.3825262}, {"type": "node", "id": 4062780362, "lat": 36.014817, "lon": 43.3705738}, {"type": "node", "id": 4062780363, "lat": 36.0150074, "lon": 43.3716224}, {"type": "node", "id": 4062780364, "lat": 36.0151546, "lon": 43.3732239}, {"type": "node", "id": 4062780365, "lat": 36.0154286, "lon": 43.3754282}, {"type": "node", "id": 4062780366, "lat": 36.015446, "lon": 43.3716224}, {"type": "node", "id": 4062780367, "lat": 36.0154633, "lon": 43.3762129}, {"type": "node", "id": 4062780368, "lat": 36.0158556, "lon": 43.3801935}, {"type": "node", "id": 4062780369, "lat": 36.0158787, "lon": 43.379202}, {"type": "node", "id": 4062780370, "lat": 36.015896, "lon": 43.3761987}, {"type": "node", "id": 4062780371, "lat": 36.0159076, "lon": 43.3774185}, {"type": "node", "id": 4062780372, "lat": 36.015971, "lon": 43.3767266}, {"type": "node", "id": 4062780373, "lat": 36.0161268, "lon": 43.3815204}, {"type": "node", "id": 4062780374, "lat": 36.0163288, "lon": 43.3750716}, {"type": "node", "id": 4062780375, "lat": 36.0163923, "lon": 43.3774471}, {"type": "node", "id": 4062780376, "lat": 36.0170327, "lon": 43.382405}, {"type": "node", "id": 4062780377, "lat": 36.0176155, "lon": 43.3616032}, {"type": "node", "id": 4062780378, "lat": 36.017829, "lon": 43.362181}, {"type": "node", "id": 4062780379, "lat": 36.0188156, "lon": 43.370984}, {"type": "node", "id": 4062780380, "lat": 36.0193292, "lon": 43.3613321}, {"type": "node", "id": 4062780381, "lat": 36.0194388, "lon": 43.3693504}, {"type": "node", "id": 4062780382, "lat": 36.0194446, "lon": 43.3618457}, {"type": "node", "id": 4062780383, "lat": 36.0197907, "lon": 43.3695572}, {"type": "node", "id": 4062780384, "lat": 36.0199408, "lon": 43.3688795}, {"type": "node", "id": 4062780385, "lat": 36.0199581, "lon": 43.3608542}, {"type": "node", "id": 4062780386, "lat": 36.0206043, "lon": 43.3685728}, {"type": "node", "id": 4062780387, "lat": 36.021187, "lon": 43.3631869}, {"type": "node", "id": 4062780388, "lat": 36.0211928, "lon": 43.3663756}, {"type": "node", "id": 4062780389, "lat": 36.021464, "lon": 43.3668464}, {"type": "node", "id": 4062780390, "lat": 36.0216717, "lon": 43.3660403}, {"type": "node", "id": 4062780391, "lat": 36.0217063, "lon": 43.3632511}, {"type": "node", "id": 4062780392, "lat": 36.0217871, "lon": 43.3642213}, {"type": "node", "id": 4062780393, "lat": 36.0235122, "lon": 43.3670105}, {"type": "node", "id": 4062780394, "lat": 36.023668, "lon": 43.3643211}, {"type": "node", "id": 4062780395, "lat": 36.0237199, "lon": 43.363836}, {"type": "node", "id": 4062805213, "lat": 35.7649716, "lon": 43.2818517}, {"type": "node", "id": 4062805214, "lat": 35.7654624, "lon": 43.282669}, {"type": "node", "id": 4062805215, "lat": 35.7656765, "lon": 43.2816457}, {"type": "node", "id": 4062805216, "lat": 35.7660786, "lon": 43.2824438}, {"type": "node", "id": 4062805217, "lat": 35.7671752, "lon": 43.2813626}, {"type": "node", "id": 4062805218, "lat": 35.7674416, "lon": 43.2803779}, {"type": "node", "id": 4062805223, "lat": 35.7681674, "lon": 43.2808541}, {"type": "node", "id": 4062805234, "lat": 35.7701987, "lon": 43.281723}, {"type": "node", "id": 4062805237, "lat": 35.770747, "lon": 43.2821348}, {"type": "node", "id": 4084965717, "lat": 35.7432716, "lon": 43.3678169, "tags": {"int_name": "Khrabardan", "name": "\u062e\u0695\u06d5\u0628\u06d5\u0631\u062f\u0627\u0646", "name:ar": "\u062e\u0631\u0628\u0631\u062f\u0627\u0646", "name:en": "Khrabardan", "name:ku": "\u062e\u0631\u0627\u0628\u0647\u200c\u062f\u0631\u0627\u0648\u0647", "place": "village"}}, {"type": "node", "id": 4343405304, "lat": 35.862161, "lon": 43.2883318}, {"type": "node", "id": 4343405305, "lat": 35.8670339, "lon": 43.2924744}, {"type": "node", "id": 4343405306, "lat": 35.8693342, "lon": 43.290081}, {"type": "node", "id": 4343405307, "lat": 35.87179, "lon": 43.2932072}, {"type": "node", "id": 4343405308, "lat": 35.8738804, "lon": 43.2954636}, {"type": "node", "id": 4343405309, "lat": 35.8787581, "lon": 43.2906818}, {"type": "node", "id": 4343405361, "lat": 35.8806244, "lon": 43.3267651}, {"type": "node", "id": 4343405362, "lat": 35.8840262, "lon": 43.324151}, {"type": "node", "id": 4343405363, "lat": 35.8865622, "lon": 43.3277998}, {"type": "node", "id": 4343405364, "lat": 35.8849774, "lon": 43.3448174}, {"type": "node", "id": 4343405365, "lat": 35.8867167, "lon": 43.3479507}, {"type": "node", "id": 4343405366, "lat": 35.8835217, "lon": 43.3475942}, {"type": "node", "id": 4343405447, "lat": 35.8914111, "lon": 43.307111}, {"type": "node", "id": 4343405448, "lat": 35.8912695, "lon": 43.3055277}, {"type": "node", "id": 4343405449, "lat": 35.8889054, "lon": 43.3043729}, {"type": "node", "id": 4343405450, "lat": 35.8891544, "lon": 43.3034491}, {"type": "node", "id": 4343405451, "lat": 35.8877115, "lon": 43.3025265}, {"type": "node", "id": 4343405452, "lat": 35.8856254, "lon": 43.3011102}, {"type": "node", "id": 4343405453, "lat": 35.8881807, "lon": 43.295504}, {"type": "node", "id": 4343405454, "lat": 35.8885844, "lon": 43.298987}, {"type": "node", "id": 4343405455, "lat": 35.881366, "lon": 43.3029771}, {"type": "node", "id": 4343405456, "lat": 35.8762892, "lon": 43.3039856}, {"type": "node", "id": 4343405457, "lat": 35.8737159, "lon": 43.3108306}, {"type": "node", "id": 4343405458, "lat": 35.8731595, "lon": 43.3112812}, {"type": "node", "id": 4343405459, "lat": 35.872192, "lon": 43.3121142}, {"type": "node", "id": 4343405460, "lat": 35.8689701, "lon": 43.3101974}, {"type": "node", "id": 4343405462, "lat": 35.9360923, "lon": 43.3104357}, {"type": "node", "id": 4343405463, "lat": 35.9340796, "lon": 43.3136974}, {"type": "node", "id": 4343405464, "lat": 35.9345641, "lon": 43.3165933}, {"type": "node", "id": 4343405465, "lat": 35.9321608, "lon": 43.3106695}, {"type": "node", "id": 4343405466, "lat": 35.9321073, "lon": 43.3080735}, {"type": "node", "id": 4343405467, "lat": 35.9295145, "lon": 43.3070009}, {"type": "node", "id": 4343405468, "lat": 35.9283297, "lon": 43.3112494}, {"type": "node", "id": 4343405469, "lat": 35.9243861, "lon": 43.3134401}, {"type": "node", "id": 4343405470, "lat": 35.9236588, "lon": 43.3017253}, {"type": "node", "id": 4343405471, "lat": 35.9208991, "lon": 43.3031448}, {"type": "node", "id": 4343405472, "lat": 35.921274, "lon": 43.3053952}, {"type": "node", "id": 4343405473, "lat": 35.9252149, "lon": 43.3074037}, {"type": "node", "id": 4343405474, "lat": 35.9287164, "lon": 43.3060149}, {"type": "node", "id": 4343405475, "lat": 35.9231742, "lon": 43.2924113}, {"type": "node", "id": 4343405476, "lat": 35.9219285, "lon": 43.2969435}, {"type": "node", "id": 4343405477, "lat": 35.9189094, "lon": 43.297514}, {"type": "node", "id": 4343405478, "lat": 35.9195199, "lon": 43.3000414}, {"type": "node", "id": 4343405687, "lat": 35.9615575, "lon": 43.253764}, {"type": "node", "id": 4343405688, "lat": 35.966431, "lon": 43.2496745}, {"type": "node", "id": 4343444435, "lat": 35.8646555, "lon": 43.0515506}, {"type": "node", "id": 4343444436, "lat": 35.866082, "lon": 43.0609597}, {"type": "node", "id": 4343444437, "lat": 35.8659199, "lon": 43.0575103}, {"type": "node", "id": 4485990016, "lat": 35.7745174, "lon": 43.284833}, {"type": "node", "id": 4485990053, "lat": 35.773702, "lon": 43.2843044}, {"type": "node", "id": 4485990078, "lat": 35.7740646, "lon": 43.2853773}, {"type": "node", "id": 4485991802, "lat": 35.7745039, "lon": 43.284328}, {"type": "node", "id": 4559621186, "lat": 36.0221306, "lon": 43.3214649}, {"type": "node", "id": 4559621187, "lat": 36.0225778, "lon": 43.3220666}, {"type": "node", "id": 4559621188, "lat": 36.0236694, "lon": 43.3245384}, {"type": "node", "id": 4559621289, "lat": 36.0233932, "lon": 43.3247986}, {"type": "node", "id": 4559621319, "lat": 36.0232817, "lon": 43.2755694}, {"type": "node", "id": 4559621320, "lat": 36.0259781, "lon": 43.276314}, {"type": "node", "id": 4559621321, "lat": 36.0288004, "lon": 43.2743087}, {"type": "node", "id": 4559621322, "lat": 36.0281263, "lon": 43.2768832}, {"type": "node", "id": 4559621323, "lat": 36.0171009, "lon": 43.2812408}, {"type": "node", "id": 4559621324, "lat": 36.0188729, "lon": 43.2779247}, {"type": "node", "id": 4559621325, "lat": 36.0174958, "lon": 43.2750612}, {"type": "node", "id": 4559621326, "lat": 36.0193129, "lon": 43.26881}, {"type": "node", "id": 4559712230, "lat": 36.0428727, "lon": 43.3124048}, {"type": "node", "id": 4562340046, "lat": 35.9257067, "lon": 43.3557202}, {"type": "node", "id": 4562340047, "lat": 35.9274253, "lon": 43.3534992}, {"type": "node", "id": 4562340055, "lat": 35.9348965, "lon": 43.3500659}, {"type": "node", "id": 4562340056, "lat": 35.9336456, "lon": 43.3463752}, {"type": "node", "id": 4562340057, "lat": 35.932273, "lon": 43.3457529}, {"type": "node", "id": 4562340058, "lat": 35.9305884, "lon": 43.3423304}, {"type": "node", "id": 4562340137, "lat": 35.8566641, "lon": 43.3788462, "tags": {"name": "Eyn Uzan", "place": "village"}}, {"type": "node", "id": 4562340269, "lat": 35.8552093, "lon": 43.3927427, "tags": {"name": "Ebu Hindan", "place": "village"}}, {"type": "node", "id": 5163059296, "lat": 35.8835913, "lon": 43.2891798}, {"type": "node", "id": 5865331506, "lat": 35.9732575, "lon": 43.2786916}, {"type": "node", "id": 5865331507, "lat": 35.9732055, "lon": 43.2779621}, {"type": "node", "id": 5865331508, "lat": 35.9730144, "lon": 43.277726}, {"type": "node", "id": 5865331509, "lat": 35.9728581, "lon": 43.2769106}, {"type": "node", "id": 5865331510, "lat": 35.9725977, "lon": 43.2765459}, {"type": "node", "id": 5865331511, "lat": 35.9725282, "lon": 43.2760953}, {"type": "node", "id": 5865331512, "lat": 35.9721982, "lon": 43.2757519}, {"type": "node", "id": 5865331513, "lat": 35.9721461, "lon": 43.2750224}, {"type": "node", "id": 5865331514, "lat": 35.9719204, "lon": 43.2737778}, {"type": "node", "id": 5865331515, "lat": 35.9714515, "lon": 43.2739066}, {"type": "node", "id": 5865331516, "lat": 35.9713647, "lon": 43.2744645}, {"type": "node", "id": 5865331517, "lat": 35.9707395, "lon": 43.2744001}, {"type": "node", "id": 5865331518, "lat": 35.9707048, "lon": 43.2737564}, {"type": "node", "id": 5865331519, "lat": 35.9697323, "lon": 43.2738637}, {"type": "node", "id": 5865331520, "lat": 35.9688987, "lon": 43.2740997}, {"type": "node", "id": 5865331521, "lat": 35.9682735, "lon": 43.2745718}, {"type": "node", "id": 5865331522, "lat": 35.9677525, "lon": 43.2748292}, {"type": "node", "id": 5865331523, "lat": 35.9677351, "lon": 43.2756232}, {"type": "node", "id": 5865331524, "lat": 35.9679262, "lon": 43.2773827}, {"type": "node", "id": 5865331525, "lat": 35.9684124, "lon": 43.2796572}, {"type": "node", "id": 5865331526, "lat": 35.9685687, "lon": 43.2807301}, {"type": "node", "id": 5865331527, "lat": 35.9687598, "lon": 43.2816742}, {"type": "node", "id": 5865331528, "lat": 35.9693502, "lon": 43.2816742}, {"type": "node", "id": 5865331529, "lat": 35.969437, "lon": 43.2806657}, {"type": "node", "id": 5865331530, "lat": 35.9697149, "lon": 43.2798074}, {"type": "node", "id": 5865331531, "lat": 35.9705658, "lon": 43.2801508}, {"type": "node", "id": 5865331532, "lat": 35.9712779, "lon": 43.2797645}, {"type": "node", "id": 5865331533, "lat": 35.9727192, "lon": 43.2793354}, {"type": "node", "id": 5865331534, "lat": 35.9731534, "lon": 43.2790779}, {"type": "node", "id": 6222232599, "lat": 35.8673619, "lon": 43.0542847}, {"type": "node", "id": 7005991829, "lat": 35.779577, "lon": 43.3184695}, {"type": "node", "id": 7005991830, "lat": 35.7695841, "lon": 43.3173108}, {"type": "node", "id": 7005991831, "lat": 35.7683828, "lon": 43.3094787}, {"type": "node", "id": 7005991832, "lat": 35.7693926, "lon": 43.3175897}, {"type": "node", "id": 7005991833, "lat": 35.7593985, "lon": 43.3091354}, {"type": "node", "id": 8149196728, "lat": 36.020237, "lon": 43.2785738}, {"type": "node", "id": 10678891380, "lat": 35.8332975, "lon": 43.4362711, "tags": {"name": "\u062c\u0627\u0631 \u0627\u0644\u0644\u0647", "place": "village"}}, {"type": "node", "id": 10678918402, "lat": 35.8153711, "lon": 43.4442443, "tags": {"name": "\u0643\u0628\u064a\u0628\u0629", "place": "village"}}, {"type": "way", "id": 292764992, "nodes": [2962983934, 4062780335, 4062780337, 4062780340, 2962983939, 4062780341, 4062780344, 4062780351, 4062780354, 4062780345, 2962983942, 2962983943, 4062780359, 4062780377, 4062780378, 4062780382, 4062780380, 4062780385, 2962983950, 4062780387, 4062780391, 3223932098, 4062780395, 4062780394, 4062780392, 2962983954, 4062780393, 2962983952, 4062780390, 4062780388, 4062780389, 2962983951, 4062780386, 4062780384, 4062780383, 4062780381, 2962983949, 4062780379, 2962983947, 3149561415, 4062780374, 4062780365, 4062780367, 4062780370, 4062780372, 2962983945, 4062780375, 4062780371, 2962983946, 4062780369, 2962983948, 4062780376, 4062780373, 2962983944, 4062780361, 4062780356, 4062780358, 4062780368, 4062780360, 4062780350, 4062780346, 4062780342, 2962983937, 4062780336, 2962983936, 4062780338, 4062780347, 2962983941, 4062780357, 4062780364, 4062780366, 4062780363, 4062780362, 4062780355, 2962983940, 4062780348, 4062780353, 4062780349, 4062780343, 4062780352, 2962983938, 4062780339, 2962983935, 4062780334, 2962983934], "tags": {"landuse": "residential", "name": "Qaryat Kubaybah", "place": "village"}}, {"type": "way", "id": 292764994, "nodes": [2962984007, 2962984182, 2962984184, 2962984008, 2962984001, 2962984007], "tags": {"landuse": "residential", "name": "Qaryat adh Dhibaniyah", "place": "village"}}, {"type": "way", "id": 292764995, "nodes": [2962983962, 2962983960, 2962983967, 2962983974, 2962983973, 2993526973, 2993510069, 2962983980, 2962983977, 2962983971, 2993524366, 2962983962], "tags": {"landuse": "residential", "name": "Qaryat Ibrahim al Khalil", "place": "village"}}, {"type": "way", "id": 292764999, "nodes": [2962983958, 2962983959, 2962983957, 2962983955, 2962983953, 2962983956, 2962983958], "tags": {"landuse": "residential", "name": "Al Adiah", "place": "village"}}, {"type": "way", "id": 292765002, "nodes": [2962983988, 2962983993, 2962983999, 2962984004, 2962984005, 2962983997, 2962983988], "tags": {"landuse": "residential", "name": "Qaryat Sayyid Ahmad", "place": "village"}}, {"type": "way", "id": 292765010, "nodes": [2962983979, 2962983975, 2962983990, 2962983995, 2962983992, 2962983985, 2962983984, 2962983979], "tags": {"landuse": "residential", "name": "Qaryat al Jaraf", "place": "village"}}, {"type": "way", "id": 292765011, "nodes": [2962984206, 2962984209, 2962984205, 2962984204, 2962984202, 2962984201, 2962984203, 2962984206], "tags": {"landuse": "residential", "name": "Hawijat al Husan", "place": "village"}}, {"type": "way", "id": 292765022, "nodes": [2962983965, 2962983968, 2962983972, 2962983976, 2962983969, 2962983966, 2962983963, 2962983961, 2962983964, 2962983965], "tags": {"landuse": "residential", "name": "Sarsank", "place": "village"}}, {"type": "way", "id": 293515063, "nodes": [2971233712, 4485990053, 4485991802, 4485990016, 4485990078, 2971233714, 2971233711, 2971233710, 2971238385, 2971238384, 2971238383, 2971238382, 2971238381, 2971238375, 2971233707, 2971233704, 2971233701, 2971233699, 2971238371, 2971238372, 4062805218, 4062805215, 4062805213, 4062805214, 4062805216, 4062805217, 4062805223, 4062805234, 4062805237, 2971233712], "tags": {"landuse": "residential", "name": "Arkabah Sharqiyah", "place": "town"}}, {"type": "way", "id": 294693105, "nodes": [2982912716, 2982912719, 2982912718, 2982912717, 2982912716], "tags": {"landuse": "residential", "name": "Qaryat ash Shurah al Jadidah", "place": "village"}}, {"type": "way", "id": 295704786, "nodes": [2994533880, 2994533881, 2994533706, 2994533710, 2994533880], "tags": {"landuse": "residential", "name": "Qaryat Mushayrifah", "place": "village"}}, {"type": "way", "id": 295704788, "nodes": [2994533841, 2994533687, 2994533664, 2994533668, 2994533836, 2994533841], "tags": {"landuse": "residential", "name": "Qaryat Kahriz", "place": "village"}}, {"type": "way", "id": 295704789, "nodes": [2994531779, 2994531756, 2994531753, 2994531752, 2994531755, 2994531779], "tags": {"landuse": "residential", "name": "Ubayd as Sayil", "place": "village"}}, {"type": "way", "id": 295704790, "nodes": [2994533884, 2994533705, 2994533717, 2994533882, 2994533883, 2994533885, 2994533884], "tags": {"landuse": "residential", "name": "Habbarah", "place": "village"}}, {"type": "way", "id": 296916157, "nodes": [3007240970, 3007240969, 3007240967, 3007240968, 3007240970], "tags": {"landuse": "residential", "name": "Aslubi", "place": "village"}}, {"type": "way", "id": 296916174, "nodes": [3007240973, 4343444435, 3007240971, 3007240972, 3007240974, 4343444436, 3007240975, 4343444437, 6222232599, 3007240976, 3007240973], "tags": {"landuse": "residential", "name": "Qaryat al Agharr", "place": "village"}}, {"type": "way", "id": 297008615, "nodes": [3008464131, 3008464129, 3008464134, 3008464137, 3008464131], "tags": {"landuse": "residential", "name": "Mustaniq", "place": "village"}}, {"type": "way", "id": 297008617, "nodes": [3008464233, 3008464235, 3008463615, 3008463587, 3008463589, 3008464233], "tags": {"landuse": "residential", "name": "Ash Shak", "place": "village"}}, {"type": "way", "id": 297008618, "nodes": [3008463583, 3008463588, 3008463585, 3008463581, 3008463580, 3008463583], "tags": {"landuse": "residential", "name": "Qaryat Ganbas", "place": "village"}}, {"type": "way", "id": 297008620, "nodes": [3008464135, 3008464130, 3008464132, 3008463577, 3008463579, 3008463578, 3008464135], "tags": {"landuse": "residential", "name": "Qaryat Dahlah", "place": "village"}}, {"type": "way", "id": 298619101, "nodes": [3025092170, 3025090387, 3025092166, 3025092164, 3025092165, 3025092163, 3025092161, 3025092159, 3025092160, 3025092162, 3025092167, 3025092168, 3025092169, 3025092171, 3025090386, 3025092170], "tags": {"landuse": "residential", "name": "Qaryat Tall Wai", "place": "village"}}, {"type": "way", "id": 305124211, "nodes": [3097044944, 3097044945, 3097044943, 3097044942, 3097044941, 3097043595, 3097043591, 3097043593, 3097043594, 3097043596, 3097044944], "tags": {"landuse": "residential", "name": "Mutawassitat Safiyah", "place": "village"}}, {"type": "way", "id": 305124214, "nodes": [3097043564, 3097043571, 3097045248, 3097042019, 3097045236, 3097043555, 3097043564], "tags": {"landuse": "residential", "name": "Qaryat Nanaah", "place": "village"}}, {"type": "way", "id": 305124215, "nodes": [3097043582, 3097043583, 3097045265, 3097045259, 3097045263, 3097045264, 3097043581, 3097043582], "tags": {"landuse": "residential", "name": "Qaryat Hararah", "place": "village"}}, {"type": "way", "id": 305124216, "nodes": [3097043573, 3097043574, 3097043572, 3097043569, 3097043559, 3097043558, 3097043566, 3097043573], "tags": {"landuse": "residential", "name": "Qaryat Machman", "place": "village"}}, {"type": "way", "id": 305124217, "nodes": [3097043592, 3097043590, 3097043589, 4559712230, 3097043587, 3097043585, 3097043584, 3097043586, 3097043588, 3097043592], "tags": {"landuse": "residential", "name": "Qaryat Saff at Tut", "place": "village"}}, {"type": "way", "id": 305124218, "nodes": [3097045260, 3097045261, 3097045256, 3097045253, 4559621289, 4559621188, 4559621187, 4559621186, 3097043580, 3097045255, 3097045252, 3097045258, 3097045262, 3097045260], "tags": {"landuse": "residential", "name": "Qaryat Tubiyah", "place": "village"}}, {"type": "way", "id": 305124219, "nodes": [3097045254, 3097045257, 4559621321, 4559621322, 4559621320, 4559621319, 3097045251, 8149196728, 4559621324, 4559621323, 3097043576, 3097043575, 4559621325, 3097043577, 4559621326, 3097045250, 3097043578, 3097043579, 3097045254], "tags": {"landuse": "residential", "name": "Qaryat ar Rasif", "place": "village"}}, {"type": "way", "id": 305133986, "nodes": [3097135299, 3097135290, 3097136337, 3097136335, 3097136341, 3097135297, 3097135299], "tags": {"landuse": "residential", "name": "Qaryat Khuwayn", "place": "village"}}, {"type": "way", "id": 305278111, "nodes": [3098795527, 3098795526, 3098795524, 3098795523, 3098795525, 3098795527], "tags": {"landuse": "residential", "name": "Kabtan", "place": "village"}}, {"type": "way", "id": 305308123, "nodes": [3099156122, 3099156123, 3099156124, 7005991829, 3099156125, 7005991830, 3099156126, 7005991831, 3099156127, 3099156128, 3099156122], "tags": {"landuse": "residential", "name": "Aqubah", "place": "village"}}, {"type": "way", "id": 305308124, "nodes": [3099157829, 3099157830, 7005991832, 3099157831, 7005991833, 3099157832, 3099157829], "tags": {"landuse": "residential", "name": "Qaryat Awsajah Sharqi", "place": "village"}}, {"type": "way", "id": 308431086, "nodes": [4562340058, 3137166937, 3137166938, 3137166939, 3137166940, 4562340046, 4562340047, 3137166943, 4562340055, 4562340056, 4562340057, 4562340058], "tags": {"landuse": "residential", "name": "Duwaizat", "place": "village"}}, {"type": "way", "id": 310057231, "nodes": [3154030422, 3154030424, 3154030415, 3154030410, 3154030407, 3154030412, 3154030417, 3154030422], "tags": {"landuse": "residential", "name": "Bazzunah", "place": "village"}}, {"type": "way", "id": 311880527, "nodes": [3176421156, 3176421151, 3176412691, 3176412698, 3176421156], "tags": {"landuse": "residential", "name": "Qaryat Bu Ghalawin", "place": "village"}}, {"type": "way", "id": 311880530, "nodes": [3176415056, 3176415058, 3176415057, 3176415054, 3176415055, 3176415056], "tags": {"landuse": "residential", "name": "Qaryat Bir Ibn Chafidat", "place": "village"}}, {"type": "way", "id": 311880531, "nodes": [3176421410, 3176422004, 3176421999, 3176421412, 3176421416, 3176421410], "tags": {"landuse": "residential", "name": "Qaryat Saruj", "place": "village"}}, {"type": "way", "id": 311880532, "nodes": [3176422035, 3176422027, 3176412689, 3176422046, 3176412700, 3176422037, 3176422032, 3176422035], "tags": {"landuse": "residential", "name": "Abu Fishkah", "place": "village"}}, {"type": "way", "id": 311954102, "nodes": [3177298361, 3177298362, 3177298363, 3177298364, 3177298365, 3177298366, 3177298367, 3177298368, 3177298369, 3177298370, 3177298371, 3177298372, 3177298373, 3177298374, 3177298375, 3177298376, 3177298377, 3177298361], "tags": {"landuse": "residential", "name": "Qaryat Tulul an Nasir", "place": "town"}}, {"type": "way", "id": 311954105, "nodes": [3177298378, 4343405462, 4343405463, 4343405464, 3177298379, 3177298380, 3177298381, 3177298382, 3177298383, 3177298384, 3177298385, 4343405469, 3177298386, 4343405468, 4343405467, 4343405466, 4343405465, 3177298378], "tags": {"landuse": "residential", "name": "Qaryat Umm al Manasis", "place": "town"}}, {"type": "way", "id": 311954106, "nodes": [3177298387, 3177298388, 3177298389, 3177298390, 4343405475, 3177298391, 4343405476, 4343405477, 4343405478, 3177298392, 4343405470, 4343405471, 4343405472, 3177298393, 4343405473, 3177298394, 4343405474, 3177298387], "tags": {"landuse": "residential", "name": "Daynach", "place": "village"}}, {"type": "way", "id": 311954176, "nodes": [3177300666, 3177300667, 3177300668, 3177300669, 3177300670, 3177300671, 3177300672, 3177300666], "tags": {"landuse": "residential", "name": "Qaryat al Bakr al Anaj", "place": "village"}}, {"type": "way", "id": 311954382, "nodes": [3177302762, 3177302763, 3177302764, 4343405687, 3177302765, 3177302766, 3177302767, 3177302768, 3177302769, 3177302770, 4343405688, 3177302762], "tags": {"landuse": "residential", "name": "Qaryat Tall Mahr", "name:ckb": "\u06af\u0631\u062f \u0645\u0627\u0647\u06cc\u0631", "place": "village"}}, {"type": "way", "id": 311965644, "nodes": [3177470689, 3177470598, 3177470685, 3177470674, 3177470689], "tags": {"landuse": "residential", "name": "Qaryat Hassunah", "place": "village"}}, {"type": "way", "id": 315142750, "nodes": [3212357007, 3212357008, 3212357009, 3212357010, 3212357011, 3212357012, 3212357007], "tags": {"name": "Qaryat Sakiyah", "place": "village"}}, {"type": "way", "id": 316046481, "nodes": [3221642882, 3221642883, 3221642884, 3221642885, 3221642886, 3221642887, 3221642888, 3221642889, 3221642890, 3221642891, 3221642892, 4343405304, 3221642893, 4343405305, 3221642894, 4343405306, 4343405307, 3221642895, 4343405308, 3221642896, 3221642897, 4343405309, 3221642898, 5163059296, 3221642899, 3221642900, 3221642901, 4343405453, 4343405454, 4343405452, 4343405451, 4343405450, 4343405449, 4343405448, 4343405447, 3221642902, 3221642903, 4343405455, 3221642904, 4343405456, 3221642905, 4343405457, 4343405458, 4343405459, 3221642906, 3221642907, 3221642908, 3221642909, 3221642910, 3221642911, 3221642912, 3221642913, 4343405460, 3221642914, 3221642882], "tags": {"landuse": "residential", "name": "Qaryat al Hawd", "place": "town"}}, {"type": "way", "id": 316211365, "nodes": [3223220761, 3223220762, 3223220763, 4343405364, 3223220764, 4343405365, 3223220765, 4343405366, 3223220766, 3223220767, 3223220768, 3223220769, 3223220770, 3223220771, 3223220772, 3223220773, 3223220774, 3223220775, 3223220776, 3223220777, 3223220778, 3223220779, 4343405361, 4343405362, 4343405363, 3223220780, 3223220781, 3223220761], "tags": {"landuse": "residential", "name": "Al Khan", "place": "town"}}, {"type": "way", "id": 620837538, "nodes": [5865331506, 5865331507, 5865331508, 5865331509, 5865331510, 5865331511, 5865331512, 5865331513, 5865331514, 5865331515, 5865331516, 5865331517, 5865331518, 5865331519, 5865331520, 5865331521, 5865331522, 5865331523, 5865331524, 5865331525, 5865331526, 5865331527, 5865331528, 5865331529, 5865331530, 5865331531, 5865331532, 5865331533, 5865331534, 5865331506], "tags": {"landuse": "residential", "place": "village"}}]}