{"version": 0.6, "generator": "Overpass API 0.7.61.5 4133829e", "osm3s": {"timestamp_osm_base": "2024-03-06T11:17:45Z", "copyright": "The data included in this document is from www.openstreetmap.org. The data is made available under ODbL."}, "elements": [{"type": "node", "id": 598459803, "lat": 36.2565246, "lon": 44.8827887, "tags": {"addr:city": "\u0633\u0644\u06ce\u0645\u0627\u0646\u06cc", "addr:street": "Ranya, as Sulaymaniya, Iraq", "alt_name": "\u0695\u0627\u0646\u06cc\u06d5", "capital": "6", "description": "Omid Qasre", "ele": "576", "int_name": "Ranya", "is_in": "Sulaymaniyah, Iraq", "is_in:country": "Iraq", "is_in:country_code": "IQ", "name": "\u0695\u0627\u0646\u06cc\u06d5", "name:ar": "\u0631\u0627\u0646\u064a\u0629", "name:ckb": "\u0695\u0627\u0646\u06cc\u06d5", "name:en": "Ranya", "name:ja": "\u30e9\u30fc\u30f3\u30e4", "name:ku": "Ranye", "name:ml": "\u0d31\u0d3e\u0d28\u0d3f\u0d2f", "name:ru": "\u0420\u0430\u043d\u0438\u044f", "phone": "07504298731", "place": "town", "population": "130000", "population:date": "2014", "source:population": "https://ckb.wikipedia.org/wiki/%DA%95%D8%A7%D9%86%DB%8C%DB%95", "website": "www.Qasre91.blogspot.com", "wikidata": "Q1656131", "wikipedia": "ckb:\u0695\u0627\u0646\u06cc\u06d5"}}, {"type": "node", "id": 2480240838, "lat": 36.4115979, "lon": 45.0322576, "tags": {"alt_name": "\u0627\u0634\u0643\u0648\u0644\u0643\u0629", "int_name": "Ashk\u016blkah, \u0100shq\u014dlka, Ashqulka, Askulka, \u0627\u0634\u0643\u0648\u0644\u0643\u0629, Ashkulkah, Ashqolka, Ashqulka, Askulka, \u0627\u0634\u0643\u0648\u0644\u0643\u0629", "is_in": "Iraq , \u062c\u0645\u0647\u0648\u0631\u064a\u0629 \u0627\u0644\u0639\u0631\u0627\u0642", "name": "\u0626\u0627\u0634\u0642\u0648\u06b5\u06a9\u06d5", "name:ar": "\u0627\u0634\u0643\u0648\u0644\u0643\u0629", "name:ar1": "\u0627\u0634\u0643\u0648\u0644\u0643\u0629", "name:de": "Ashkulkah", "name:en": "Ashkulkah", "name:fr": "Ashkulkah", "place": "village"}}, {"type": "node", "id": 2480240841, "lat": 36.4325198, "lon": 44.9690196, "tags": {"alt_name": "\u0633\u062a\u0631\u0648\u0643\u0627\u0646", "int_name": "Asterokan, Asterukan, Satr\u016bk\u0101n, \u0633\u062a\u0631\u0648\u0643\u0627\u0646, Asterokan, Asterukan, Satrukan, \u0633\u062a\u0631\u0648\u0643\u0627\u0646", "is_in": "Iraq , \u062c\u0645\u0647\u0648\u0631\u064a\u0629 \u0627\u0644\u0639\u0631\u0627\u0642", "name": "\u0626\u06d5\u0633\u062a\u06ce\u0631\u06c6\u06a9\u0627\u0646", "name:ar": "\u0627\u0633\u062a\u06cc\u0631\u0648\u06a9\u0627\u0646", "name:ar1": "\u0633\u062a\u0631\u0648\u0643\u0627\u0646", "name:de": "Asterokan", "name:en": "Asterokan", "name:fr": "Asterokan", "place": "village"}}, {"type": "node", "id": 2480240844, "lat": 36.4039359, "lon": 45.0124429, "tags": {"alt_name": "\u0628\u0631\u062f \u0643\u0631\u0629", "int_name": "Bard Kera, Bard Kirah, Bard Koran, Bard Kuran, Bardkur\u0101n, \u0628\u0631\u062f \u0643\u0631\u0629, Bard Kera, Bard Kirah, Bard Koran, Bard Kuran, Bardkuran, \u0628\u0631\u062f \u0643\u0631\u0629", "is_in": "Iraq , \u062c\u0645\u0647\u0648\u0631\u064a\u0629 \u0627\u0644\u0639\u0631\u0627\u0642", "name": "\u0628\u06d5\u0631\u062f\u06a9\u0648\u0695\u0627\u0646", "name:ar": "\u0628\u0631\u062f\u06a9\u0648\u0631\u0627\u0646", "name:ar1": "\u0628\u0631\u062f \u0643\u0631\u0629", "name:de": "Bardkuran", "name:en": "Bardkuran", "name:fr": "Bardkuran", "place": "village"}}, {"type": "node", "id": 2480240845, "lat": 36.4071827, "lon": 45.015607, "tags": {"alt_name": "\u0628\u0631\u062f\u0645\u0643\u0629", "int_name": "Bardmakah, Pirdmamka, Pirmamkan, \u0628\u0631\u062f\u0645\u0643\u0629, Bardmakah, Pirdmamka, Pirmamkan, \u0628\u0631\u062f\u0645\u0643\u0629", "is_in": "Iraq , \u062c\u0645\u0647\u0648\u0631\u064a\u0629 \u0627\u0644\u0639\u0631\u0627\u0642", "name": "\u067e\u0631\u062f\u0645\u06d5\u0645\u06a9\u06d5", "name:ar": "\u0628\u0631\u062f\u0645\u0645\u0643\u0629", "name:ar1": "\u0628\u0631\u062f\u0645\u0643\u0629", "name:de": "Prdmamka", "name:en": "Prdmamka", "name:fr": "Prdmamka", "place": "village"}}, {"type": "node", "id": 2480240847, "lat": 36.4323821, "lon": 44.9620948, "tags": {"alt_name": "\u0628\u0645\u0644\u0629", "int_name": "Bawlah, Bola, Bol\u0113, Boli, B\u016bl\u012b, Bumlah, \u0628\u0645\u0644\u0629, \u0628\u0645\u0644\u06d5, \u0628\u0648\u0644\u06d5, Bawlah, Bola, Bole, Boli, Buli, Bumlah, \u0628\u0645\u0644\u0629, \u0628\u0645\u0644\u06d5, \u0628\u0648\u0644\u06d5", "is_in": "Iraq , \u062c\u0645\u0647\u0648\u0631\u064a\u0629 \u0627\u0644\u0639\u0631\u0627\u0642", "name": "\u0628\u06c6\u06b5\u06ce", "name:ar": "\u0628\u0648\u0644\u064a", "name:ar1": "\u0628\u0645\u0644\u0629", "name:de": "Bole", "name:en": "Bole", "name:fr": "Bole", "place": "village"}}, {"type": "node", "id": 2480240848, "lat": 36.4101254, "lon": 44.9564425, "tags": {"alt_name": "\u0628\u0627\u064a\u0648\u0627\u0646", "int_name": "B\u0101yaw\u0101n, \u0628\u0627\u064a\u0648\u0627\u0646, Bayawan, \u0628\u0627\u064a\u0648\u0627\u0646", "is_in": "Iraq , \u062c\u0645\u0647\u0648\u0631\u064a\u0629 \u0627\u0644\u0639\u0631\u0627\u0642", "name": "\u0628\u0627\u06cc\u06d5\u0648\u0627\u0646", "name:ar": "\u0628\u0627\u064a\u0629\u0648\u0627\u0646", "name:ar1": "\u0628\u0627\u064a\u0648\u0627\u0646", "name:de": "Bayawan", "name:en": "Bayawan", "name:fr": "Bayawan", "place": "village"}}, {"type": "node", "id": 2480240850, "lat": 36.4319234, "lon": 44.9941566, "tags": {"alt_name": "\u0628\u064a\u0627\u0646\u0629", "int_name": "Beiyani, Biana, Bin\u0101yah, Biy\u0101nah, \u0628\u0646\u0627\u064a\u0629, \u0628\u064a\u0627\u0646\u0629, Beiyani, Biana, Binayah, Biyanah, \u0628\u0646\u0627\u064a\u0629, \u0628\u064a\u0627\u0646\u0629", "is_in": "Iraq , \u062c\u0645\u0647\u0648\u0631\u064a\u0629 \u0627\u0644\u0639\u0631\u0627\u0642", "name": "\u0628\u06cc\u0627\u0646\u06d5", "name:ar": "\u0628\u064a\u0627\u0646\u0629", "name:ar1": "\u0628\u064a\u0627\u0646\u0629", "name:de": "Beiyani", "name:en": "Beiyani", "name:fr": "Beiyani", "place": "village"}}, {"type": "node", "id": 2480240852, "lat": 36.4430243, "lon": 45.0028151, "tags": {"alt_name": "\u0628\u0634\u062a \u0627\u0634\u0627\u0646", "int_name": "Bisht \u0100sh\u0101n, Pisht\u0101sh\u0101n, Psht Ashan, Pshtashan Upper, \u0628\u0634\u062a \u0627\u0634\u0627\u0646, Bisht Ashan, Pishtashan, Psht Ashan, Pshtashan Upper, \u0628\u0634\u062a \u0627\u0634\u0627\u0646", "is_in": "Iraq , \u062c\u0645\u0647\u0648\u0631\u064a\u0629 \u0627\u0644\u0639\u0631\u0627\u0642", "name": "\u067e\u0634\u062a\u0626\u0627\u0634\u0627\u0646\u06cc \u0633\u06d5\u0631\u0648\u0648", "name:ar": "\u0628\u0634\u062a \u0627\u0634\u0627\u0646 \u0627\u0644\u0639\u0644\u06cc\u0627", "name:ar1": "\u0628\u0634\u062a \u0627\u0634\u0627\u0646", "name:de": "Pshtashan Upper", "name:en": "Pshtashan Upper", "name:fr": "Pshtashan Upper", "place": "village"}}, {"type": "node", "id": 2480240853, "lat": 36.445472, "lon": 45.009972, "tags": {"alt_name": "\u0628\u0634\u062a \u0627\u0634\u0627\u0646", "int_name": "Bisht \u0100sh\u0101n, Pisht\u0101sh\u0101n, Psht Ashan, Pshtashan Lower, \u0628\u0634\u062a \u0627\u0634\u0627\u0646, Bisht Ashan, Pishtashan, Psht Ashan, Pshtashan Lower, \u0628\u0634\u062a \u0627\u0634\u0627\u0646", "is_in": "Iraq , \u062c\u0645\u0647\u0648\u0631\u064a\u0629 \u0627\u0644\u0639\u0631\u0627\u0642", "name": "\u067e\u0634\u062a\u0626\u0627\u0634\u0627\u0646\u06cc \u062e\u0648\u0627\u0631\u0648\u0648", "name:ar": "\u0628\u0634\u062a \u0627\u0634\u0627\u0646 \u0627\u0644\u0633\u0641\u0644\u06cc", "name:ar1": "\u0628\u0634\u062a \u0627\u0634\u0627\u0646", "name:de": "Pshtashan Lower", "name:en": "Pshtashan Lower", "name:fr": "Pshtashan Lower", "place": "village"}}, {"type": "node", "id": 2480240859, "lat": 36.4310483, "lon": 45.0163941, "tags": {"alt_name": "\u0643\u0633\u0643\u0627\u0646", "int_name": "Kaskan, Kask\u0101n, \u0643\u0633\u0643\u0627\u0646, Kaskan, Kaskan, \u0643\u0633\u0643\u0627\u0646", "is_in": "Iraq , \u062c\u0645\u0647\u0648\u0631\u064a\u0629 \u0627\u0644\u0639\u0631\u0627\u0642", "name": "\u06a9\u0627\u0633\u06a9\u0627\u0646", "name:ar": "\u0643\u0633\u0643\u0627\u0646", "name:ar1": "\u0643\u0633\u0643\u0627\u0646", "name:de": "Kaskan", "name:en": "Kaskan", "name:fr": "Kaskan", "place": "village"}}, {"type": "node", "id": 2480240861, "lat": 36.4272626, "lon": 44.9915408, "tags": {"alt_name": "\u0643\u0648\u062a\u064a\u0643\u0629;\u0643\u0648\u0646\u064a\u0643\u0629", "int_name": "Kawinga, Kawt\u012bkah, Kopinga, \u0643\u0648\u062a\u064a\u0643\u0647, Kawinga, Kawtikah, Kopinga, \u0643\u0648\u062a\u064a\u0643\u0647;Kaw\u012bnga, Kawn\u012bkah, \u0643\u0648\u0646\u064a\u0643\u0647, Kawinga, Kawnikah, \u0643\u0648\u0646\u064a\u0643\u0647", "is_in": "Iraq , \u062c\u0645\u0647\u0648\u0631\u064a\u0629 \u0627\u0644\u0639\u0631\u0627\u0642", "name": "\u06a9\u06c6\u0628\u0646\u06a9\u06d5", "name:ar": "\u06a9\u0648\u0628\u0646\u06a9\u0629", "name:ar1": "\u0643\u0648\u062a\u064a\u0643\u0629;\u0643\u0648\u0646\u064a\u0643\u0629", "name:de": "Kobnka", "name:en": "Kobnka", "name:fr": "Kobnka", "place": "village"}}, {"type": "node", "id": 2480240864, "lat": 36.4071205, "lon": 44.9653521, "tags": {"alt_name": "\u0643\u0648\u0647\u062a\u0627", "int_name": "Kometan, Komtan, K\u016bhat\u0101n, K\u016bht\u0101, \u0643\u0648\u0647\u062a\u0627, Kometan, Komtan, Kuhatan, Kuhta, \u0643\u0648\u0647\u062a\u0627", "is_in": "Iraq , \u062c\u0645\u0647\u0648\u0631\u064a\u0629 \u0627\u0644\u0639\u0631\u0627\u0642", "name": "\u06af\u06c6\u0645\u062a\u0627\u0646", "name:ar": "\u06a9\u0648\u0645\u062a\u0627\u0646", "name:ar1": "\u0643\u0648\u0647\u062a\u0627", "name:de": "Gomtan", "name:en": "Gomtan", "name:fr": "Gomtan", "place": "village"}}, {"type": "node", "id": 2480240868, "lat": 36.4516533, "lon": 45.0136708, "tags": {"alt_name": "\u0642\u0631\u0646\u0643\u0648", "int_name": "Qirn\u0101g\u014d, Qirn\u0101q\u0101w, Qurnik\u016b, \u0642\u0631\u0646\u0643\u0648, Qirnago, Qirnaqaw, Qurniku, \u0642\u0631\u0646\u0643\u0648;Qurnik\u016b, \u0642\u0631\u0646\u0643\u0648, Qurniku, \u0642\u0631\u0646\u0643\u0648", "is_in": "Iraq , \u062c\u0645\u0647\u0648\u0631\u064a\u0629 \u0627\u0644\u0639\u0631\u0627\u0642", "name": "\u0642\u0695\u0646\u0627\u0642\u0627\u0648", "name:ar": "\u0642\u0631\u0646\u0627\u0642\u0627\u0648", "name:ar1": "\u0642\u0631\u0646\u0643\u0648", "name:de": "Qrnaqaw", "name:en": "Qrnaqaw", "name:fr": "Qrnaqaw", "place": "village"}}, {"type": "node", "id": 2480240882, "lat": 36.4312769, "lon": 45.0019262, "tags": {"alt_name": "\u0631\u0632\u064a \u0643\u0631\u0629", "int_name": "Raz\u012b Karah, Razn\u012bkare, \u0631\u0632\u064a \u0643\u0631\u0647, Razi Karah, Raznikare, \u0631\u0632\u064a \u0643\u0631\u0647", "is_in": "Iraq , \u062c\u0645\u0647\u0648\u0631\u064a\u0629 \u0627\u0644\u0639\u0631\u0627\u0642", "name": "\u0695\u06d5\u0698\u06cc \u06a9\u06d5\u0631\u06ce", "name:ar": "\u0631\u0632\u064a \u06a9\u0629\u0631\u064a", "name:ar1": "\u0631\u0632\u064a \u0643\u0631\u0629", "name:de": "Razhi Kare", "name:en": "Razhi Kare", "name:fr": "Razhi Kare", "place": "village"}}, {"type": "node", "id": 2480240896, "lat": 36.4252881, "lon": 45.0140263, "tags": {"alt_name": "\u0633\u0643\u0631\u0648\u0634", "int_name": "Sakr\u016bsh, S\u0101r\u014dsh, Sh\u0101r\u014dsh, \u0633\u0643\u0631\u0648\u0634, Sakrush, Sarosh, Sharosh, \u0633\u0643\u0631\u0648\u0634", "is_in": "Iraq , \u062c\u0645\u0647\u0648\u0631\u064a\u0629 \u0627\u0644\u0639\u0631\u0627\u0642", "name": "\u0634\u0627\u0631\u06c6\u0634", "name:ar": "\u0634\u0627\u0631\u0648\u0634", "name:ar1": "\u0633\u0643\u0631\u0648\u0634", "name:de": "Sharosh", "name:en": "Sharosh", "name:fr": "Sharosh", "place": "village"}}, {"type": "node", "id": 2480240903, "lat": 36.4110901, "lon": 45.0262031, "tags": {"alt_name": "\u0633\u0631 \u0643\u064a\u0646\u0644", "int_name": "Sar K\u012bnil, \u0633\u0631 \u0643\u064a\u0646\u0644, Sar Kinil, \u0633\u0631 \u0643\u064a\u0646\u0644", "is_in": "Iraq , \u062c\u0645\u0647\u0648\u0631\u064a\u0629 \u0627\u0644\u0639\u0631\u0627\u0642", "name": "\u0633\u0648\u0631\u06d5\u062f\u06ce", "name:ar": "\u0633\u0648\u0631\u0629\u062f\u064a", "name:ar1": "\u0633\u0631 \u0643\u064a\u0646\u0644", "name:de": "Surade", "name:en": "Surade", "name:fr": "Surade", "place": "village"}}, {"type": "node", "id": 2480240911, "lat": 36.4147219, "lon": 45.0229267, "tags": {"alt_name": "\u0633\u0631\u0643\u064a\u0646\u064a\u0644", "int_name": "Sargan\u012bl, Sarg\u0113n\u012bl, Sark\u012bn\u012bl, \u0633\u0631\u0643\u064a\u0646\u064a\u0644, Sarganil, Sargenil, Sarkinil, \u0633\u0631\u0643\u064a\u0646\u064a\u0644", "is_in": "Iraq , \u062c\u0645\u0647\u0648\u0631\u064a\u0629 \u0627\u0644\u0639\u0631\u0627\u0642", "name": "\u0633\u06d5\u0631\u06af\u06d5 \u0646\u06ce\u06b5", "name:ar": "\u0633\u0631\u06af\u064a\u0646\u064a\u06b5", "name:ar1": "\u0633\u0631\u0643\u064a\u0646\u064a\u0644", "name:de": "Sarga Nel", "name:en": "Sarga Nel", "name:fr": "Sarga Nel", "place": "village"}}, {"type": "node", "id": 2480240918, "lat": 36.418788, "lon": 44.993695, "tags": {"alt_name": "\u0634\u064a\u0648\u0629", "int_name": "Shewa, Sh\u012bw, Sh\u012bwah, \u0634\u064a\u0648, Shewa, Shiw, Shiwah, \u0634\u064a\u0648", "is_in": "Iraq , \u062c\u0645\u0647\u0648\u0631\u064a\u0629 \u0627\u0644\u0639\u0631\u0627\u0642", "name": "\u0634\u06cc\u0648\u06d5", "name:ar": "\u0634\u064a\u0648\u0629", "name:ar1": "\u0634\u064a\u0648\u0629", "name:de": "Shewa", "name:en": "Shewa", "name:fr": "Shewa", "place": "village"}}, {"type": "node", "id": 2480240926, "lat": 36.4185863, "lon": 45.0216052, "tags": {"alt_name": "\u0633\u064a\u0646\u0629 \u0645\u0648\u0643\u0629", "int_name": "S\u012bnah M\u016bkah, Sinam\u014dka, Sinamona, \u0633\u064a\u0646\u0629 \u0645\u0648\u0643\u0629, \u0633\u064a\u0646\u0629 \u0645\u0648\u0643\u0647, Sinah Mukah, Sinamoka, Sinamona, \u0633\u064a\u0646\u0629 \u0645\u0648\u0643\u0629, \u0633\u064a\u0646\u0629 \u0645\u0648\u0643\u0647", "is_in": "Iraq , \u062c\u0645\u0647\u0648\u0631\u064a\u0629 \u0627\u0644\u0639\u0631\u0627\u0642", "name": "\u0633\u06cc\u0646\u06d5\u0645\u06c6\u06a9\u06d5", "name:ar": "\u0633\u064a\u0646\u0629 \u0645\u0648\u0643\u0629", "name:ar1": "\u0633\u064a\u0646\u0629 \u0645\u0648\u0643\u0629", "name:de": "Sinah Mukah", "name:en": "Sinah Mukah", "name:fr": "Sinah Mukah", "place": "village"}}, {"type": "node", "id": 2485303607, "lat": 36.1636991, "lon": 44.7046279, "tags": {"name": "\u06a9\u06b5\u0627\u0648\u0633\u0648\u0631\u0627\u0646", "name:ar": "\u06a9\u0644\u0627\u0648\u0633\u0648\u0631\u0627\u0646", "name:en": "Klaw Swran", "place": "village"}}, {"type": "node", "id": 2488191404, "lat": 36.086222, "lon": 44.716694, "tags": {"alt_name": "\u0643\u0627\u0646\u064a \u0633\u0647\u0631\u0648 \u0642\u0627\u0645\u064a\u0633\u0642", "int_name": "K\u0101n\u012b Sahr\u016b Q\u0101m\u012bsq, Saru Qamisha, \u0643\u0627\u0646\u064a \u0633\u06d5\u0631\u0648 \u0642\u0627\u0645\u064a\u0633\u0642, Kani Sahru Qamisq, Saru Qamisha, \u0643\u0627\u0646\u064a \u0633\u06d5\u0631\u0648 \u0642\u0627\u0645\u064a\u0633\u0642", "is_in": "Iraq , \u062c\u0645\u0647\u0648\u0631\u064a\u0629 \u0627\u0644\u0639\u0631\u0627\u0642", "name": "\u0634\u0627\u0631\u0648\u0642\u0627\u0645\u06cc\u0634\u06d5", "name:ar": "\u0634\u0627\u0631\u0648\u0642\u0627\u0645\u06cc\u0634\u0629", "name:ar1": "\u0643\u0627\u0646\u064a \u0633\u0647\u0631\u0648 \u0642\u0627\u0645\u064a\u0633\u0642", "name:de": "Sharuqamisha", "name:en": "Sharuqamisha", "name:fr": "Sharuqamisha", "place": "village"}}, {"type": "node", "id": 2488191405, "lat": 36.092556, "lon": 44.669833, "tags": {"alt_name": "\u0645\u0627\u0645\u0627 \u0645\u062d\u0645\u0648\u062f\u0629", "int_name": "Mam Mahmoda, Mam Mahmuda, M\u0101m\u0101 Ma\u1e29m\u016bdah, Mam Mahmoda, Mam Mahmuda, Mama Mahmudah", "name": "\u0645\u0627\u0645 \u0645\u06d5\u062d\u0645\u0648\u0648\u062f\u06d5", "name:ar": "\u0645\u0627\u0645\u0627 \u0645\u062d\u0645\u0648\u062f\u0629", "name:ar1": "\u0645\u0627\u0645\u0627 \u0645\u062d\u0645\u0648\u062f\u0629", "name:de": "Mam Mahmoda", "name:en": "Mam Mahmoda", "name:fr": "Mam Mahmoda", "place": "village"}}, {"type": "node", "id": 2488196494, "lat": 36.3848939, "lon": 44.5466856, "tags": {"alt_name": "\u062f\u0631\u0627\u0634", "int_name": "Darash, Dar\u0101sh, Drsh, \u062f\u0631\u0627\u0634, Darash, Darash, Drsh, \u062f\u0631\u0627\u0634", "is_in": "Iraq , \u062c\u0645\u0647\u0648\u0631\u064a\u0629 \u0627\u0644\u0639\u0631\u0627\u0642", "name": "\u062f\u0627\u0631\u0627\u0634", "name:ar": "\u062f\u0631\u0627\u0634", "name:ar1": "\u062f\u0631\u0627\u0634", "name:de": "Darash", "name:en": "Darash", "name:fr": "Darash", "place": "village"}}, {"type": "node", "id": 2488197922, "lat": 36.3892118, "lon": 44.7621017, "tags": {"is_in": "Iraq , \u062c\u0645\u0647\u0648\u0631\u064a\u0629 \u0627\u0644\u0639\u0631\u0627\u0642", "name": "\u067e\u06b5\u0646\u06af\u0627\u0646", "name:ar": "\u0628\u0644\u0646\u06a9\u0627\u0646", "name:ar1": "\u0628\u0644\u0646\u0643\u0627\u0632", "name:de": "Plngan", "name:en": "Plngan", "name:fr": "Plngan", "place": "village", "wikidata": "Q61389291", "wikipedia": "ckb:\u067e\u06b5\u0646\u06af\u0627\u0646"}}, {"type": "node", "id": 2488197925, "lat": 36.3806442, "lon": 44.739062, "tags": {"is_in": "Iraq , \u062c\u0645\u0647\u0648\u0631\u064a\u0629 \u0627\u0644\u0639\u0631\u0627\u0642", "name": "\u0628\u06d5\u0631\u062f\u0627\u0646\u06af\u06d5", "name:ar": "\u0628\u0631\u062f\u0627\u0646\u0643\u0629", "name:ar1": "\u0628\u0631\u062f\u0627\u0646\u0643\u0629", "name:de": "Bandingah", "name:en": "Bandingah", "name:fr": "Bandingah", "name:ru": "\u0411\u0430\u0440\u0434\u0430\u043d\u0433\u0430", "place": "village"}}, {"type": "node", "id": 2488197927, "lat": 36.339861, "lon": 44.703417, "tags": {"alt_name": "\u0628\u064a\u062a\u0648\u0627\u062a\u0629;\u0633\u0631\u0648\u0643\u0627\u0646\u064a", "capital": "7", "int_name": "Baytw\u0101tah, Baytw\u0101t\u0101h, Betwata, Betw\u0101tah, Baytwatah, Baytwatah, Betwata, Betwatah;Sarukani, Sar\u016bk\u0101n\u012b, Sarukani, Sarukani", "name": "\u0628\u06ce\u062a\u0648\u0627\u062a\u06d5", "name:ar": "\u0628\u06cc\u062a\u0648\u0627\u062a\u06d5", "name:ar1": "\u0633\u0631\u0648\u0643\u0627\u0646\u064a", "name:ckb": "\u0628\u06ce\u062a\u0648\u0627\u062a\u06d5", "name:de": "Betwata", "name:en": "Betwata", "name:fr": "Betwata", "place": "village", "wikidata": "Q61389028"}}, {"type": "node", "id": 2488197951, "lat": 36.366641, "lon": 44.7614407, "tags": {"name": "\u0645\u0627\u0645 \u062e\u06d5\u06b5\u0627\u0646", "name:ar": "\u0645\u0627\u0645\u0629 \u062e\u0644\u0627\u0646", "name:de": "Mama Khalan", "name:en": "Mama Khalan", "name:fr": "Mama Khalan", "place": "village", "wikidata": "Q61389365", "wikipedia": "ckb:\u0645\u0627\u0645 \u062e\u06d5\u06b5\u0627\u0646"}}, {"type": "node", "id": 2488207423, "lat": 36.5012267, "lon": 44.875223, "tags": {"int_name": "Qallat, Qalat, Qellat, Qelat", "name": "\u0642\u06d5\u06b5\u0627\u062a", "name:ar": "\u0642\u0644\u0627\u062a", "name:ckb": "\u0642\u06d5\u06b5\u0627\u062a", "name:en": "Qallat", "name:ku": "Qellat", "place": "village", "wikipedia": "ckb: \u0642\u06d5\u06b5\u0627\u062a\u060c \u0686\u06c6\u0645\u0627\u0646"}}, {"type": "node", "id": 2488207439, "lat": 36.503652, "lon": 44.873532, "tags": {"int_name": "Zewah, \u0632\u06ce\u0648\u06d5, Z\u00eawa, \u0632\u064a\u0648\u0629", "name": "\u0632\u06ce\u0648\u06d5", "name:ar": "\u0632\u064a\u0648\u0629", "name:ckb": "\u0632\u06ce\u0648\u06d5", "name:en": "Zewa", "name:ku": "Z\u00eawe", "place": "village"}}, {"type": "node", "id": 2488208013, "lat": 36.521639, "lon": 44.869167, "tags": {"int_name": "Bawr\u0101n, Bawran, \u0628\u0648\u0631\u0627\u0646", "name": "\u0628\u0648\u0631\u0627\u0646", "name:ar": "\u0628\u0648\u0631\u0627\u0646", "name:ckb": "\u0628\u0648\u0631\u0627\u0646", "name:en": "Buran", "name:ku": "Buran", "place": "village", "wikipedia": "ckb: \u0628\u0648\u0631\u0627\u0646"}}, {"type": "node", "id": 2488208014, "lat": 36.504889, "lon": 44.862389, "tags": {"int_name": "Iskawa, Esk\u0101w\u0101, Eskawa, \u0626\u06cc\u0633\u0643\u0627\u0648\u0647", "name": "\u0626\u06cc\u0633\u06a9\u0627\u0648\u06d5", "name:ar": "\u0625\u064a\u0633\u0643\u0627\u0648\u0629", "name:ckb": "\u0626\u06cc\u0633\u06a9\u0627\u0648\u06d5", "name:en": "Iskawa", "name:ku": "\u00ceskawe", "place": "village"}}, {"type": "node", "id": 2488208015, "lat": 36.4956503, "lon": 44.8923019, "tags": {"int_name": "Khazena, Khazaynah, \u062e\u06d5\u0632\u06ce\u0646\u06d5", "name": "\u062e\u06d5\u0632\u06ce\u0646\u06d5", "name:ar": "\u062e\u0632\u064a\u0646\u0629", "name:ckb": "\u062e\u06d5\u0632\u06ce\u0646\u06d5", "name:en": "Khazena", "name:ku": "Xez\u00eane", "place": "village", "wikipedia": "ckb: \u062e\u06d5\u0632\u06ce\u0646\u06d5\u060c \u0686\u06c6\u0645\u0627\u0646"}}, {"type": "node", "id": 2488208016, "lat": 36.516667, "lon": 44.90325, "tags": {"int_name": "K\u014dyla, Koiyla, Koyla, Koyle, \u06a9\u06c6\u06cc\u0644\u06d5", "name": "\u06a9\u06c6\u06cc\u0644\u06d5", "name:ar": "\u0643\u0648\u064a\u0644\u0629", "name:ckb": "\u06a9\u06c6\u06cc\u0644\u06d5", "name:en": "Koyla", "name:ku": "Koyle", "place": "village", "wikipedia": "ckb: \u06a9\u06c6\u06cc\u0644\u06d5\u060c \u0686\u06c6\u0645\u0627\u0646"}}, {"type": "node", "id": 2488208017, "lat": 36.4998014, "lon": 44.8950821, "tags": {"int_name": "Mawn\u0101n, Mawnan, \u0645\u0627\u0648\u0646\u0627\u0646", "name": "\u0645\u0627\u0648\u0646\u0627\u0646", "name:ar": "\u0645\u0627\u0648\u0646\u0627\u0646", "name:ckb": "\u0645\u0627\u0648\u0646\u0627\u0646", "name:en": "Mawnan", "name:ku": "Mawnan", "place": "village", "wikipedia": "ckb: \u0645\u0627\u0648\u0646\u0627\u0646"}}, {"type": "node", "id": 2488208020, "lat": 36.5123417, "lon": 44.9049003, "tags": {"int_name": "Sark\u0101n, Serkan, \u0633\u06d5\u0631\u0643\u0627\u0646", "name": "\u0633\u06d5\u0631\u06a9\u0627\u0646", "name:ar": "\u0633\u0631\u0643\u0627\u0646", "name:ckb": "\u0633\u06d5\u0631\u06a9\u0627\u0646", "name:en": "Sarkan", "name:ku": "Serkan", "place": "village", "wikipedia": "ckb: \u0633\u06d5\u0631\u06a9\u0627\u0646\u060c \u0642\u06d5\u0633\u0631\u06ce"}}, {"type": "node", "id": 2488208031, "lat": 36.5147323, "lon": 44.8574719, "tags": {"int_name": "W\u0101s\u0101n, \u0648\u0633\u0627\u0646, Wasan, Wesan", "name": "\u0648\u06d5\u0633\u0627\u0646", "name:ar": "\u0648\u0633\u0627\u0646", "name:ckb": "\u0648\u06d5\u0633\u0627\u0646", "name:en": "Wasan", "name:ku": "Wesan", "place": "village", "wikipedia": "ckb: \u0648\u06d5\u0633\u0627\u0646"}}, {"type": "node", "id": 2488208927, "lat": 36.4986129, "lon": 44.922819, "tags": {"int_name": "Choma, \u00e7oma, Chome", "name": "\u0686\u06c6\u0645\u06d5", "name:ar": "\u062c\u0648\u0645\u0629", "name:ckb": "\u0686\u06c6\u0645\u0647", "name:en": "Choma", "name:ku": "\u00c7ome", "place": "village", "wikipedia": "ckb: \u0686\u06c6\u0645\u06d5"}}, {"type": "node", "id": 2488268772, "lat": 36.4325136, "lon": 44.556967, "tags": {"alt_name": "\u0627\u0644\u0634\u064a\u062e \u0648\u0633\u0627\u0646", "int_name": "Ash Shaykh Wass\u0101n, Shaikh Wassan, Shaykh W\u0101s\u0101n, Shekh Wasan, Ash Shaykh Wassan, Shaikh Wassan, Shaykh Wasan, Shekh Wasan", "is_in": "Iraq , \u062c\u0645\u0647\u0648\u0631\u064a\u0629 \u0627\u0644\u0639\u0631\u0627\u0642", "name": "\u0634\u06ce\u062e \u0648\u06d5\u0633\u0627\u0646", "name:ar": "\u0627\u0644\u0634\u064a\u062e \u0648\u0633\u0627\u0646", "name:ar1": "\u0627\u0644\u0634\u064a\u062e \u0648\u0633\u0627\u0646", "name:de": "Ash Shaykh Wassan", "name:en": "Ash Shaykh Wassan", "name:fr": "Ash Shaykh Wassan", "place": "village"}}, {"type": "node", "id": 2488268820, "lat": 36.3964771, "lon": 44.5484915, "tags": {"alt_name": "\u0628\u0627\u0644\u064a\u0633\u0627\u0646", "capital": "7", "int_name": "Balisan, Baliy\u0101n, \u0628\u0627\u0644\u064a\u0633\u0627\u0646, Balisan, Baliyan, \u0628\u0627\u0644\u064a\u0633\u0627\u0646", "name": "\u0628\u0627\u0644\u06cc\u0633\u0627\u0646", "name:ar": "\u0628\u0627\u0644\u064a\u0633\u0627\u0646", "name:ckb": "\u0628\u0627\u0644\u06cc\u0633\u0627\u0646", "name:de": "Balisan", "name:en": "Balisan", "name:fr": "Balisan", "name:ku": "Bal\u00eesan", "place": "town", "wikidata": "Q7181233", "wikipedia": "ckb:\u0628\u0627\u0644\u06cc\u0633\u0627\u0646"}}, {"type": "node", "id": 2488268863, "lat": 36.12173, "lon": 44.611317, "tags": {"name": "\u0628\u0627\u0648\u0627\u062c\u06cc", "name:en": "Bawaji", "place": "village"}}, {"type": "node", "id": 2488268875, "lat": 36.411944, "lon": 44.581667, "tags": {"alt_name": "\u0628\u064a\u0644\u0627\u0648\u0629", "int_name": "B\u0113l\u0101wa, Bel\u0101wah, Berawa, B\u0113r\u0101wa, B\u012bl\u0101wah, Belawa, Belawah, Berawa, Berawa, Bilawah", "is_in": "Iraq , \u062c\u0645\u0647\u0648\u0631\u064a\u0629 \u0627\u0644\u0639\u0631\u0627\u0642", "name": "\u0628\u06ce\u0644\u0627\u0648\u06d5", "name:ar": "\u0628\u064a\u0631\u0627\u0648\u0629", "name:ar1": "\u0628\u064a\u0644\u0627\u0648\u0629", "name:de": "Belawa", "name:en": "Berawa", "name:fr": "Belawa", "name:ku": "\u0628\u06cc\u0631\u0627\u0648\u06d5", "place": "village"}}, {"type": "node", "id": 2488269169, "lat": 36.520946, "lon": 44.583107, "tags": {"alt_name": "\u0643\u0631\u0648\u0629 \u0627\u0644\u0633\u0641\u0644\u0649", "int_name": "Garawan, Karawah as Sufl\u00e1, \u0643\u0631\u0648\u0647 \u0627\u0644\u0633\u0641\u0644\u0649, Garawan, Karawah as Sufla, \u0643\u0631\u0648\u0647 \u0627\u0644\u0633\u0641\u0644\u0649", "is_in": "Iraq , \u062c\u0645\u0647\u0648\u0631\u064a\u0629 \u0627\u0644\u0639\u0631\u0627\u0642", "name": "\u06af\u06d5\u0631\u06d5\u0648\u0627\u0646\u06cc \u062e\u0648\u0627\u0631\u0648\u0648", "name:ar1": "\u0643\u0631\u0648\u0629 \u0627\u0644\u0633\u0641\u0644\u0649", "name:en": "Garawan Upper", "place": "village", "population": "1000"}}, {"type": "node", "id": 2488269192, "lat": 36.269694, "lon": 44.601917, "tags": {"alt_name": "\u062c\u0631\u062f \u0634\u064a\u0631", "int_name": "Gird Shayr, Gird Sher, Grda Sher, Jird Sh\u012br, Gird Shayr, Gird Sher, Grda Sher, Jird Shir", "name": "\u06af\u0631\u062f\u06d5 \u0634\u06ce\u0631", "name:ar": "\u06a9\u0631\u062f\u0629 \u0634\u064a\u0631", "name:ar1": "\u062c\u0631\u062f \u0634\u064a\u0631", "name:de": "Grda Sher", "name:en": "Grda Sher", "name:fr": "Grda Sher", "name:ku": "\u06af\u0631\u062f\u06d5 \u0634\u06ce\u0631", "place": "village"}}, {"type": "node", "id": 2488269316, "lat": 36.381709, "lon": 44.620358, "tags": {"is_in": "Iraq , \u062c\u0645\u0647\u0648\u0631\u064a\u0629 \u0627\u0644\u0639\u0631\u0627\u0642", "name": "\u0647\u06d5\u0631\u0645\u06a9", "name:ar": "\u0647\u0631\u0645\u0643", "name:ar1": "\u0647\u0631\u0645\u0643", "name:de": "Harmik", "name:en": "Harmik", "name:fr": "Harmik", "place": "village"}}, {"type": "node", "id": 2488269386, "lat": 36.189333, "lon": 44.597806, "tags": {"name": "\u062c\u06d5\u0644\u06cc", "name:ar": "\u062c\u06d5\u0644\u06cc", "name:ckb": "\u062c\u06d5\u0644\u06cc", "name:de": "Jali", "name:en": "Jalli", "name:fr": "Jali", "place": "village"}}, {"type": "node", "id": 2488269399, "lat": 36.1709, "lon": 44.5837742, "tags": {"alt_name": "\u0633\u0645\u0627\u0642\u0629 \u0642\u0644\u064a \u0643\u0644\u064a", "int_name": "Jelli, Sem\u0101gul\u012b Gal\u012b, Semaquli Gelli, Sim\u0101qah Qul\u012b Kal\u012b, Smaquly, \u0633\u0645\u0627\u0642\u0629 \u0642\u0644\u064a \u0643\u0644\u064a, Jelli, Semaguli Gali, Semaquli Gelli, Simaqah Quli Kali, Smaquly, \u0633\u0645\u0627\u0642\u0629 \u0642\u0644\u064a \u0643\u0644\u064a", "name": "\u0633\u0645\u0627\u0642\u0648\u0648\u06b5\u06cc \u06af\u06d5\u0644\u06cc", "name:ar": "\u0633\u0645\u0627\u0642\u0648\u0644\u064a \u06a9\u0644\u064a", "name:de": "Simaquli Jalli", "name:en": "Simaquli Jalli", "name:fr": "Simaquli Jalli", "place": "village"}}, {"type": "node", "id": 2488269449, "lat": 36.415556, "lon": 44.560111, "tags": {"alt_name": "\u0643\u0627\u0646\u064a \u0628\u0631\u062f", "int_name": "Kani Bard, K\u0101n\u012b Bard, Kani Brd, Kani Bard, Kani Bard, Kani Brd", "is_in": "Iraq , \u062c\u0645\u0647\u0648\u0631\u064a\u0629 \u0627\u0644\u0639\u0631\u0627\u0642", "name": "\u06a9\u0627\u0646\u06cc \u0628\u06d5\u0631\u062f", "name:ar": "\u0643\u0627\u0646\u064a \u0628\u0631\u062f", "name:ar1": "\u0643\u0627\u0646\u064a \u0628\u0631\u062f", "name:de": "Kani Bard", "name:en": "Kani Bard", "name:fr": "Kani Bard", "place": "village"}}, {"type": "node", "id": 2488269512, "lat": 36.096287, "lon": 44.613855, "tags": {"alt_name": "\u0643\u064a\u0644\u0629 \u062e\u0648\u0627\u0631\u064a", "int_name": "Kayla \u012b Khw\u0101r\u016b, Kaylah Khuw\u0101r\u012b, Kela Khwara, \u0643\u064a\u0644\u0629 \u062e\u0648\u0627\u0631\u064a, Kayla i Khwaru, Kaylah Khuwari, Kela Khwara, \u0643\u064a\u0644\u0629 \u062e\u0648\u0627\u0631\u064a", "name": "\u06a9\u06ce\u0644\u06d5 \u062e\u0648\u0627\u0631\u06cc", "name:ar": "\u0643\u064a\u0644\u0629 \u062e\u0648\u0627\u0631\u064a", "name:ar1": "\u0643\u064a\u0644\u0629 \u062e\u0648\u0627\u0631\u064a", "name:de": "Kayla i Khwaru", "name:en": "Kayla i Khwaru", "name:fr": "Kayla i Khwaru", "place": "village"}}, {"type": "node", "id": 2488269563, "lat": 36.3841433, "lon": 44.5824168, "tags": {"name": "\u062e\u06c6\u0631\u0627\u0646", "place": "village"}}, {"type": "node", "id": 2488269569, "lat": 36.1550464, "lon": 44.5627348, "tags": {"name": "\u06a9\u0631\u06c6\u0698", "name:ar": "\u0643\u0631\u0648\u0632", "name:ckb": "\u06a9\u0631\u06c6\u0698", "name:en": "Krozh", "name:ku": "Kiroj", "place": "village", "wikipedia": "ckb:\u06a9\u0631\u06c6\u0698"}}, {"type": "node", "id": 2488269637, "lat": 36.4430163, "lon": 44.6093018, "tags": {"admin_level": "9", "name": "\u0633\u06d5\u0631\u0648\u0686\u0627\u0648\u06ce \u0628\u0627\u0631\u0627\u0646", "name:en": "Saruchawe Baran", "name:ku": "\u0633\u06d5\u0631\u0648\u0686\u0627\u0648\u06ce \u0628\u0627\u0631\u0627\u0646", "place": "village"}}, {"type": "node", "id": 2488269644, "lat": 36.366667, "lon": 44.61, "tags": {"name": "\u0645\u06d5\u0644\u0648\u06a9", "name:ckb": "\u0645\u06d5\u0644\u0648\u06a9", "name:de": "Malok", "name:en": "Malok", "name:fr": "Malok", "place": "village"}}, {"type": "node", "id": 2488269861, "lat": 36.236085, "lon": 44.61612, "tags": {"alt_name": "\u0633\u0643\u062a\u0627\u0646", "capital": "7", "int_name": "Sakt\u0101n, Sekt\u0101n, Sikt\u0101n, \u0633\u0643\u062a\u0627\u0646, Saktan, Sektan, Siktan, \u0633\u0643\u062a\u0627\u0646", "name": "\u0633\u06a9\u062a\u0627\u0646", "name:ar": "\u0633\u0643\u062a\u0627\u0646", "name:ckb": "\u0633\u0643\u062a\u0627\u0646", "name:de": "Sktan", "name:en": "Sktan", "name:fr": "Sktan", "name:ku": "Siktan", "place": "town", "wikidata": "Q12247206"}}, {"type": "node", "id": 2488269867, "lat": 36.2152645, "lon": 44.559412, "tags": {"int_name": "San\u0101wa, \u0633\u0646\u0627\u0648\u0647, Sanawa, \u0633\u0646\u0627\u0648\u0647", "name": "\u0633\u0646\u0627\u0648\u06d5", "name:ar": "\u0633\u0646\u0627\u0648\u0629", "name:de": "Sanawa", "name:en": "Snawa", "name:fr": "Sanawa", "place": "village"}}, {"type": "node", "id": 2488269892, "lat": 36.3157282, "lon": 44.6143997, "tags": {"name": "\u0633\u06d5\u0631\u062f\u06c6\u06b5", "name:ar": "\u0633\u0631\u062f\u0648\u0644", "name:de": "Sardol", "name:en": "Sardol", "name:fr": "Sardol", "place": "village"}}, {"type": "node", "id": 2488269919, "lat": 36.1447326, "lon": 44.5586689, "tags": {"name": "\u0633\u06ce\u0646\u0627\u0646", "name:ar": "\u0633\u064a\u0646\u0627\u0646", "name:ckb": "\u0633\u06ce\u0646\u0627\u0646", "name:en": "Senan", "name:ku": "S\u00eanan", "place": "village", "wikipedia": "ckb:\u0633\u06ce\u0646\u0627\u0646"}}, {"type": "node", "id": 2488269922, "lat": 36.3739736, "lon": 44.577012, "tags": {"is_in": "Iraq , \u062c\u0645\u0647\u0648\u0631\u064a\u0629 \u0627\u0644\u0639\u0631\u0627\u0642", "name": "\u0633\u0648\u06ce\u0631\u06d5", "name:ar": "\u0633\u064a\u0648\u064a\u0631\u0629", "name:ar1": "\u0633\u064a\u0648\u064a\u0631\u0629", "name:de": "Sewerah", "name:en": "Sewerah", "name:fr": "Sewerah", "place": "village"}}, {"type": "node", "id": 2488269923, "lat": 36.404722, "lon": 44.599444, "tags": {"alt_name": "\u0634\u064a\u0631\u0629 \u062e\u0648\u0627\u0631\u0648", "int_name": "Shera, Sh\u012bra i Khw\u0101r\u016b, Shera, Shira i Khwaru", "is_in": "Iraq, \u062c\u0645\u0647\u0648\u0631\u064a\u0629 \u0627\u0644\u0639\u0631\u0627\u0642", "name": "\u0634\u06cc\u0631\u06ce\u06cc \u062e\u0648\u0627\u0631\u0648\u0648", "name:ar": "\u0634\u064a\u0631\u0629 \u062e\u0648\u0627\u0631\u0648", "name:ar1": "\u0634\u064a\u0631\u0629 \u062e\u0648\u0627\u0631\u0648", "name:de": "Shera", "name:en": "Shera", "name:fr": "Shera", "name:ru": "\u0428\u0438\u0440\u0430", "place": "village"}}, {"type": "node", "id": 2488269928, "lat": 36.414722, "lon": 44.60325, "tags": {"is_in": "Iraq , \u062c\u0645\u0647\u0648\u0631\u064a\u0629 \u0627\u0644\u0639\u0631\u0627\u0642", "name": "\u0634\u06cc\u0631\u06ce\u06cc \u0633\u06d5\u0631\u0648\u0648", "name:ckb": "\u0634\u06cc\u0631\u06d5\u06cc \u0633\u06d5\u0631\u0648\u0648", "name:en": "Shira Upper", "name:ku": "\u015e\u00eerey Ser\u00fb", "place": "village"}}, {"type": "node", "id": 2488270046, "lat": 36.171519, "lon": 44.552581, "tags": {"alt_name": "\u0633\u0645\u0627\u0642\u0629 \u0642\u0644\u064a \u0633\u064a\u0627\u0646", "int_name": "Sim\u0101gul\u012b S\u0113nan, Sim\u0101qat Qul\u012b Siy\u0101n, Smaqully, \u0633\u0645\u0627\u0642\u0629 \u0642\u0644\u064a \u0633\u064a\u0627\u0646, Simaguli Senan, Simaqat Quli Siyan, Smaqully, \u0633\u0645\u0627\u0642\u0629 \u0642\u0644\u064a \u0633\u064a\u0627\u0646", "name": "\u0633\u0645\u0627\u0642\u0648\u0648\u06b5\u06cc \u06af\u0631\u062a\u06a9", "name:ar": "\u0633\u0645\u0627\u0642\u0648\u0644\u064a \u06a9\u0631\u062a\u06a9", "name:de": "Simaquli Grtk", "name:en": "Simaquli Grtk", "name:fr": "Simaquli Senan", "place": "village"}}, {"type": "node", "id": 2488270063, "lat": 36.3743421, "lon": 44.5769349, "tags": {"alt_name": "\u0633\u0648\u064a\u0631\u0629", "int_name": "Suw\u0113ra, Suwera", "is_in": "Iraq , \u062c\u0645\u0647\u0648\u0631\u064a\u0629 \u0627\u0644\u0639\u0631\u0627\u0642", "name": "\u0633\u0648\u064a\u0631\u0629", "name:ar": "\u0633\u0648\u064a\u0631\u0629", "name:ar1": "\u0633\u0648\u064a\u0631\u0629", "name:de": "Suwera", "name:en": "Suwera", "name:fr": "Suwera", "place": "village"}}, {"type": "node", "id": 2488270180, "lat": 36.354667, "lon": 44.622389, "tags": {"alt_name": "\u0648\u06d5\u0631\u06ce", "name": "\u0648\u06d5\u0631\u06ce", "name:ar": "\u0648\u06d5\u0631\u06ce", "name:ckb": "\u0648\u06d5\u0631\u06ce", "name:de": "Ware", "name:en": "Ware", "name:fr": "Ware", "place": "village"}}, {"type": "node", "id": 2488271370, "lat": 36.334528, "lon": 44.716306, "tags": {"alt_name": "\u0623\u0646\u062f\u064a\u0643", "int_name": "Andek, Andik, And\u012bk, Andek, Andik, Andik", "is_in": "Iraq , \u062c\u0645\u0647\u0648\u0631\u064a\u0629 \u0627\u0644\u0639\u0631\u0627\u0642", "name": "\u0626\u0627\u0646\u062f\u06ce\u06a9", "name:ar": "\u0622\u0646\u062f\u06cc\u06a9", "name:ar1": "\u0623\u0645\u0627\u0646\u062c;\u0623\u0646\u062f\u064a\u0643", "name:de": "Andek", "name:en": "Andek", "name:fr": "Andek", "place": "village"}}, {"type": "node", "id": 2488271372, "lat": 36.3200013, "lon": 44.7344017, "tags": {"name": "\u0626\u0627\u0646\u06af\u06c6\u0632", "name:ar": "\u0622\u0646\u0643\u0648\u0632", "name:ckb": "\u0626\u0627\u0646\u06af\u06c6\u0632", "name:en": "Angoz", "name:ku": "Angoz", "place": "village", "wikidata": "Q61389086", "wikipedia": "ckb:\u0626\u0627\u0646\u06af\u06c6\u0632"}}, {"type": "node", "id": 2488271373, "lat": 36.356444, "lon": 44.677611, "tags": {"name": "\u0628\u06ce\u06a9\u06ce\u0644", "name:ar": "\u0628\u062c\u064a\u0644", "name:ar1": "\u0628\u062c\u064a\u0644", "name:de": "Baikil", "name:en": "Baikil", "name:fr": "Baikil", "place": "village"}}, {"type": "node", "id": 2488271376, "lat": 36.378472, "lon": 44.657, "tags": {"name": "\u0628\u06d5\u0695\u06c6\u0698\u06d5", "name:ar": "\u0628\u0631\u0648\u0632\u0629", "name:ckb": "\u0628\u06d5\u0695\u06c6\u0698\u06d5", "name:en": "Barozha", "name:ku": "Beroje", "place": "village", "wikidata": "Q61389029", "wikipedia": "ckb:\u0628\u06d5\u0695\u06c6\u0698\u06d5"}}, {"type": "node", "id": 2488271378, "lat": 36.270306, "lon": 44.686556, "tags": {"name": "\u0628\u06ce\u0644\u06d5\u0646\u06af\u06d5", "name:ar": "\u0628\u064a\u0644\u0646\u0643\u0629", "name:ar1": "\u0628\u064a\u0644\u0646\u0643\u0629", "name:de": "Baylinga", "name:en": "Baylinga", "name:fr": "Baylinga", "place": "village"}}, {"type": "node", "id": 2488271390, "lat": 36.252361, "lon": 44.703528, "tags": {"alt_name": "\u062c\u0645\u064a \u0622\u0648\u0627", "int_name": "Cham\u012b \u0100w\u0101, Chamiy\u0101w\u0101, Mamiawa, Mamyawa, \u0686\u0645\u064a \u0627\u0648\u0627, Chami Awa, Chamiyawa, Mamiawa, Mamyawa, \u0686\u0645\u064a \u0627\u0648\u0627", "name": "\u0645\u06d5\u0645\u06cc\u0627\u0648\u0627", "name:ar": "\u0645\u0645\u06cc\u0627\u0648\u0627", "name:ar1": "\u062c\u0645\u064a \u0622\u0648\u0627", "name:de": "Mamyawa", "name:en": "Mamyawa", "name:fr": "Mamyawa", "place": "village"}}, {"type": "node", "id": 2488271393, "lat": 36.333278, "lon": 44.698806, "tags": {"name": "\u062f\u0648\u0648\u0626\u0627\u0648", "name:ar": "\u062f\u0648\u0627\u0648", "name:en": "Dwawa", "place": "village"}}, {"type": "node", "id": 2488271395, "lat": 36.45, "lon": 44.716667, "tags": {"alt_name": "\u062c\u0627\u0631\u0648 \u0645\u0646\u062c\u0644", "int_name": "Garu Manjal, J\u0101r\u016b Manjal, Garu Manjal, Jaru Manjal", "is_in": "Iraq , \u062c\u0645\u0647\u0648\u0631\u064a\u0629 \u0627\u0644\u0639\u0631\u0627\u0642", "name": "\u062c\u0627\u0631\u0648 \u0645\u0646\u062c\u0644", "name:ar": "\u062c\u0627\u0631\u0648 \u0645\u0646\u062c\u0644", "name:ar1": "\u062c\u0627\u0631\u0648 \u0645\u0646\u062c\u0644", "name:de": "Garu Manjal", "name:en": "Garu Manjal", "name:fr": "Garu Manjal", "place": "village"}}, {"type": "node", "id": 2488271396, "lat": 36.217083, "lon": 44.677111, "tags": {"int_name": "Gird Gawr\u0101n, Gird Gor\u0101n, Girda Goran, Grd Goran, Jird K\u016br\u0101n, Gird Gawran, Gird Goran, Girda Goran, Grd Goran, Jird Kuran", "name": "\u06af\u0631\u062f \u06af\u0627\u0648\u0631\u0627\u0646", "name:ar": "\u062c\u0631\u062f \u0643\u0648\u0631\u0627\u0646", "name:de": "Gird Gawran", "name:en": "Gird Gawran", "name:fr": "Gird Gawran", "place": "village"}}, {"type": "node", "id": 2488271398, "lat": 36.403333, "lon": 44.630694, "tags": {"alt_name": "\u0647\u0646\u062c\u064a\u0631\u0629", "int_name": "Hanjeera, Hanjira, Hanj\u012bra, Hanjeera, Hanjira, Hanjira", "is_in": "Iraq , \u062c\u0645\u0647\u0648\u0631\u064a\u0629 \u0627\u0644\u0639\u0631\u0627\u0642", "name": "\u0647\u06d5\u0646\u062c\u06cc\u0631\u06d5", "name:ar": "\u0647\u0646\u062c\u064a\u0631\u0629", "name:ar1": "\u0647\u0646\u062c\u064a\u0631\u0629", "name:de": "Hanjeera", "name:en": "Hanjeera", "name:fr": "Hanjeera", "place": "village"}}, {"type": "node", "id": 2488271399, "lat": 36.3790639, "lon": 44.6671515, "tags": {"name": "\u06be\u06d5\u0631\u062a\u06d5\u0644", "name:ar": "\u0647\u0631\u062a\u0644", "name:ckb": "\u06be\u06d5\u0631\u062a\u06d5\u0644", "name:en": "Hartal", "name:ku": "Hertel", "place": "village", "wikidata": "Q61389140", "wikipedia": "ckb:\u06be\u06d5\u0631\u062a\u06d5\u0644"}}, {"type": "node", "id": 2488271406, "lat": 36.2212601, "lon": 44.7020834, "tags": {"name": "\u06a9\u0627\u0646\u06cc \u062a\u0648\u0648\u0627\u0646", "name:ar": "\u06a9\u0627\u0646\u06cc \u062a\u0648\u0648\u0627\u0646", "name:ckb": "\u06a9\u0627\u0646\u06cc \u062a\u0648\u0648\u0627\u0646", "name:de": "Kani Tuwan", "name:en": "Kani Tuwan", "name:fr": "Kani Tuwan", "place": "village"}}, {"type": "node", "id": 2488271408, "lat": 36.2401283, "lon": 44.7180971, "tags": {"is_in": "Iraq , \u062c\u0645\u0647\u0648\u0631\u064a\u0629 \u0627\u0644\u0639\u0631\u0627\u0642", "name": "\u062e\u06d5\u0644\u06cc\u0641\u06d5", "name:ar": "\u062e\u0644\u06cc\u0641\u0629", "name:ar1": "\u062e\u0644\u064a\u0641\u0627\u0646", "name:de": "Khalifa", "name:en": "Khalifa", "name:fr": "Khalifa", "place": "village"}}, {"type": "node", "id": 2488271410, "lat": 36.246472, "lon": 44.672694, "tags": {"alt_name": "\u0643\u0648\u062f\u0644\u0629", "int_name": "Kodala, Kodalah, K\u016bdah Lah, K\u016bdahlah, Kudala, K\u016bd\u0101lah, \u0643\u0648\u062f\u0629\u0644\u0647, Kodala, Kodalah, Kudah Lah, Kudahlah, Kudala, Kudalah, \u0643\u0648\u062f\u0629\u0644\u0647", "name": "\u06a9\u06c6\u062f\u06d5\u06b5\u06d5", "name:ar": "\u0643\u0648\u062f\u0644\u0629", "name:ar1": "\u0643\u0648\u062f\u0644\u0629", "name:de": "Kodala", "name:en": "Kodala", "name:fr": "Kodala", "place": "village"}}, {"type": "node", "id": 2488271414, "lat": 36.282778, "lon": 44.672222, "tags": {"name": "\u0646\u06ce\u0648\u06d5", "name:ar": "\u0646\u06cc\u0648\u0629", "name:ar1": "\u0646\u0648\u0649", "name:de": "Newa", "name:en": "Newa", "name:fr": "Newa", "name:ru": "\u041d\u0430\u0432\u0430", "place": "village"}}, {"type": "node", "id": 2488271415, "lat": 36.3353477, "lon": 44.6417764, "tags": {"name": "\u0646\u0648\u0648\u0627\u0648\u06d5", "name:ar": "\u0646\u0648\u0648\u0627\u0648\u06d5", "name:ckb": "\u0646\u0648\u0648\u0627\u0648\u06d5", "name:de": "Nuwawa", "name:en": "Nuwawa", "name:fr": "Nuwawa", "place": "village"}}, {"type": "node", "id": 2488271418, "lat": 36.1943217, "lon": 44.6951947, "tags": {"alt_name": "\u0642\u0627\u0642\u0627", "int_name": "Q\u0101q\u0101, \u0642\u0627\u0642\u0627, Qaqa, \u0642\u0627\u0642\u0627", "name": "\u0642\u0627\u0686\u06d5", "name:ar": "\u0642\u0627\u062c\u0629", "name:de": "Qacha", "name:en": "Qacha", "name:fr": "Qacha", "place": "village"}}, {"type": "node", "id": 2488271420, "lat": 36.390167, "lon": 44.645833, "tags": {"name": "\u0632\u06ce\u0648\u06d5", "name:ckb": "\u0632\u06ce\u0648\u06d5", "place": "village"}}, {"type": "node", "id": 2488271425, "lat": 36.462362, "lon": 44.68482, "tags": {"alt_name": "\u0633\u064a\u0648\u0643", "int_name": "Sewok, S\u012bwak, S\u012bwuk, \u0633\u064a\u0648\u0643, Sewok, Siwak, Siwuk, \u0633\u064a\u0648\u0643", "is_in": "Iraq , \u062c\u0645\u0647\u0648\u0631\u064a\u0629 \u0627\u0644\u0639\u0631\u0627\u0642", "name": "\u0633\u064a\u0648\u0643", "name:ar": "\u0633\u064a\u0646\u06d5\u0645\u06c6\u06a9\u0627\u0646", "name:ar1": "\u0633\u064a\u0648\u0643", "name:de": "Sewok", "name:en": "Senamokan", "name:fr": "Sewok", "place": "village"}}, {"type": "node", "id": 2488271426, "lat": 36.3070676, "lon": 44.7213986, "tags": {"is_in": "Iraq , \u062c\u0645\u0647\u0648\u0631\u064a\u0629 \u0627\u0644\u0639\u0631\u0627\u0642", "name": "\u0634\u06a9\u0627\u0631\u062a\u06d5\u06cc \u06a9\u06c6\u0646", "name:ar": "\u0634\u0643\u0627\u0631\u062a\u0629 \u0627\u0644\u0642\u062f\u06cc\u0645", "name:de": "Shikarta Old", "name:en": "Shikarta Old", "name:fr": "Shikarta Old", "place": "village"}}, {"type": "node", "id": 2488271438, "lat": 36.3614371, "lon": 44.6404221, "tags": {"name": "\u0628\u06ce\u0646\u0627\u062a\u0627\u0646", "name:ckb": "\u0628\u06ce\u0646\u0627\u062a\u0627\u0646", "place": "village"}}, {"type": "node", "id": 2488271545, "lat": 36.1275443, "lon": 44.6388406, "tags": {"alt_name": "\u062c\u0646\u0627\u0631\u0648\u0643 \u0628\u0644\u0628\u0627\u0633", "int_name": "Chnarok Blbas, Jin\u0101rawk Bilb\u0101s, Chnarok Blbas, Jinarawk Bilbas", "name": "\u0686\u0646\u0627\u0631\u06c6\u06a9\u06cc \u0628\u06b5\u0628\u0627\u0633", "name:ar": "\u062c\u0646\u0627\u0631\u0648\u0643 \u0628\u0644\u0628\u0627\u0633", "name:ar1": "\u062c\u0646\u0627\u0631\u0648\u0643 \u0628\u0644\u0628\u0627\u0633", "name:de": "Chnarok Blbas", "name:en": "Chnarok Blbas", "name:fr": "Chnarok Blbas", "place": "village"}}, {"type": "node", "id": 2488271551, "lat": 36.174667, "lon": 44.638306, "tags": {"alt_name": "\u0643\u0631\u062a\u0643", "int_name": "Grtik, Grtk, \u06af\u0631\u062a\u06a9", "name": "\u06af\u0631\u062a\u06a9 \u062c\u06d5\u0644\u06cc", "name:de": "Grtk", "name:en": "Grtk", "name:fr": "Grtk", "place": "village"}}, {"type": "node", "id": 2488271554, "lat": 36.1036964, "lon": 44.6404549, "tags": {"alt_name": "\u062d\u0645\u0629 \u0628\u0627\u064a\u0632\u0627\u0646", "int_name": "\u1e28amah B\u0101yz\u0101n, \u062d\u0645\u06d5 \u0628\u0627\u064a\u0632\u0627\u0646, Hamah Bayzan, \u062d\u0645\u06d5 \u0628\u0627\u064a\u0632\u0627\u0646", "name": "\u062d\u06d5\u0645\u06d5 \u0628\u0627\u06cc\u0632\u0627\u0646", "name:ar": "\u062d\u0645\u0629 \u0628\u0627\u064a\u0632\u0627\u0646", "name:ar1": "\u062d\u0645\u0629 \u0628\u0627\u064a\u0632\u0627\u0646", "name:de": "Hamah Bayzan", "name:en": "Hamah Bayzan", "name:fr": "Hamah Bayzan", "place": "village"}}, {"type": "node", "id": 2488271558, "lat": 36.172194, "lon": 44.656472, "tags": {"name": "\u0647\u06cc\u0632\u06c6\u067e\u06cc \u0628\u0686\u0648\u0648\u06a9", "name:ar": "\u06be\u064a\u0632\u0648\u0628 \u0635\u063a\u064a\u0631", "name:ckb": "\u0647\u06cc\u0632\u06c6\u067e\u06cc \u0628\u0686\u0648\u0648\u06a9", "name:en": "Little Hizop", "name:ku": "H\u00eezopa Bi\u00e7\u00fbk", "place": "village", "wikidata": "Q61388917", "wikipedia": "ckb:\u06be\u06cc\u0632\u06c6\u067e\u06cc \u0628\u0686\u0648\u0648\u06a9"}}, {"type": "node", "id": 2488271561, "lat": 36.1153229, "lon": 44.6600597, "tags": {"name": "\u0686\u0646\u0627\u0631\u06c6\u06a9", "name:ckb": "\u0686\u0646\u0627\u0631\u06c6\u06a9", "name:de": "Jinarawk", "name:en": "Chnarok", "name:fr": "Jinarawk", "place": "village"}}, {"type": "node", "id": 2488271562, "lat": 36.096304, "lon": 44.6338847, "tags": {"alt_name": "\u0643\u0627\u0641\u0631\u0648\u0634", "int_name": "Kafroshi, Kafroshyan, K\u0101fr\u016bsh, K\u0101tr\u014dsh\u012b, \u0643\u0627\u0641\u0631\u0648\u0634, Kafroshi, Kafroshyan, Kafrush, Katroshi, \u0643\u0627\u0641\u0631\u0648\u0634", "name": "\u06a9\u0627\u0641\u0631\u06c6\u0634\u06cc\u0627\u0646", "name:ar": "\u0643\u0627\u0641\u0631\u0648\u0634", "name:de": "Kafroshi", "name:en": "Kafroshi", "name:fr": "Kafroshi", "place": "village"}}, {"type": "node", "id": 2488271691, "lat": 36.163936, "lon": 44.678778, "tags": {"alt_name": "\u0628\u0644\u0645\u062f", "int_name": "Balmad, \u0628\u0644\u0645\u062f, Balmad, \u0628\u0644\u0645\u062f", "name": "Balmad", "name:ar": "\u0628\u0644\u0645\u062f", "name:ar1": "\u0628\u0644\u0645\u062f", "name:de": "Balmad", "name:en": "Balmad", "name:fr": "Balmad", "place": "hamlet"}}, {"type": "node", "id": 2488271695, "lat": 36.1409667, "lon": 44.6902818, "tags": {"name": "\u0628\u06ce\u0633\u062a\u0627\u0646\u06d5", "name:ar": "\u0628\u0633\u062a\u0627\u0646\u0629", "name:ckb": "\u0628\u06ce\u0633\u062a\u0627\u0646\u06d5", "name:de": "Bestana", "name:en": "Bestana", "name:fr": "Bestana", "place": "village"}}, {"type": "node", "id": 2488271702, "lat": 36.174675, "lon": 44.6862255, "tags": {"name": "\u0647\u06cc\u0632\u06c6\u067e\u06cc \u06af\u06d5\u0648\u0631\u06d5", "name:ar": "\u06be\u064a\u0632\u0648\u0628 \u0643\u0628\u064a\u0631", "name:ckb": "\u0647\u06cc\u0632\u06c6\u067e\u06cc \u06af\u06d5\u0648\u0631\u06d5", "name:en": "Big Hizop", "name:ku": "H\u00eezopa Mezin", "place": "village", "wikidata": "Q61388937", "wikipedia": "ckb:\u06be\u06cc\u0632\u06c6\u067e\u06cc \u06af\u06d5\u0648\u0631\u06d5"}}, {"type": "node", "id": 2488271706, "lat": 36.1215596, "lon": 44.6747364, "tags": {"name": "\u06a9\u0627\u0646\u06cc \u06a9\u06d5\u0646\u062f", "name:ar": "\u0643\u0627\u0646\u064a \u0643\u0646\u062f", "name:ckb": "\u06a9\u0627\u0646\u06cc \u06a9\u06d5\u0646\u062f", "name:de": "Kani Kand", "name:en": "Kani Kand", "name:fr": "Kani Kand", "name:ku": "Kan\u00ee Kend", "place": "village"}}, {"type": "node", "id": 2488272747, "lat": 36.109389, "lon": 44.74625, "tags": {"name": "\u0628\u0627\u062f\u0627\u0648\u0627\u0646", "name:ar": "\u0628\u0627\u062f\u0627\u0648\u0627\u0646", "name:ckb": "\u0628\u0627\u062f\u0627\u0648\u0627\u0646", "name:de": "Badawan", "name:en": "Badawan", "name:fr": "Badawan", "place": "village"}}, {"type": "node", "id": 2488272751, "lat": 36.0942654, "lon": 44.7504916, "tags": {"alt_name": "\u0628\u0627\u0642\u0644\u0627\u0646", "int_name": "B\u0101qil\u0101n, Baqlan, B\u0101qul\u0101n, \u0628\u0627\u0642\u0644\u0627\u0646, Baqilan, Baqlan, Baqulan, \u0628\u0627\u0642\u0644\u0627\u0646", "is_in": "Iraq , \u062c\u0645\u0647\u0648\u0631\u064a\u0629 \u0627\u0644\u0639\u0631\u0627\u0642", "name": "\u0628\u0627\u0642\u0644\u0627\u0646", "name:ar": "\u0628\u0627\u0642\u0644\u0627\u0646", "name:ar1": "\u0628\u0627\u0642\u0644\u0627\u0646", "name:de": "Baqilan", "name:en": "Baqilan", "name:fr": "Baqilan", "place": "village"}}, {"type": "node", "id": 2488272753, "lat": 36.511056, "lon": 44.797889, "tags": {"alt_name": "\u0628\u0627\u0631\u062c\u064a\u0631\u0643\u0627\u0646", "int_name": "Bargirdk\u0101n, Bargrka, B\u0101rj\u012brk\u0101n, \u0628\u0627\u0631\u062c\u064a\u0631\u0643\u0627\u0646, Bargirdkan, Bargrka, Barjirkan, \u0628\u0627\u0631\u062c\u064a\u0631\u0643\u0627\u0646", "name": "\u0628\u0627\u0631\u062c\u064a\u0631\u0643\u0627\u0646", "name:ar": "\u0628\u06d5\u0631\u06af\u0631\u06a9\u06d5", "name:de": "Bargirdkan", "name:en": "Bargirdkan", "name:fr": "Bargirdkan", "name:ku": "Bargrka", "place": "village"}}, {"type": "node", "id": 2488272759, "lat": 36.231944, "lon": 44.751944, "tags": {"is_in": "Iraq , \u062c\u0645\u0647\u0648\u0631\u064a\u0629 \u0627\u0644\u0639\u0631\u0627\u0642", "name": "\u067e\u0648\u06a9\u06d5\u06cc \u062e\u0648\u0627\u0631\u0648\u0648", "name:ar": "\u0628\u0648\u0643\u0629 \u0627\u0644\u0633\u0641\u0644\u06cc", "name:ar1": "\u0628\u0648\u0643\u0629 \u0635\u0648\u0641\u064a\u0629", "name:de": "Puka Lower", "name:en": "Puka Lower", "name:fr": "Puka Lower", "place": "village"}}, {"type": "node", "id": 2488272760, "lat": 36.2375525, "lon": 44.7477404, "tags": {"is_in": "Iraq , \u062c\u0645\u0647\u0648\u0631\u064a\u0629 \u0627\u0644\u0639\u0631\u0627\u0642", "name": "\u067e\u0648\u06a9\u06d5\u06cc \u0633\u06d5\u0631\u0648\u0648", "name:ar": "\u0628\u0648\u06a9\u0629 \u0627\u0644\u0639\u0644\u06cc\u0627", "name:ar1": "\u0643\u0631\u062f\u064a \u062e\u0648\u0627\u064a \u062f\u0627\u0648", "name:de": "Puka Upper", "name:en": "Puka Upper", "name:fr": "Puka Upper", "place": "village"}}, {"type": "node", "id": 2488272818, "lat": 36.2711774, "lon": 44.804186, "tags": {"name": "\u06af\u06d5\u0631\u0645\u06a9\u06d5\u062f\u0627\u06b5", "name:ckb": "\u06af\u06d5\u0631\u0645\u06a9\u06d5\u062f\u0627\u06b5", "name:de": "Garmkadall", "name:en": "Garmkadall", "name:fr": "Garmkadall", "place": "village"}}, {"type": "node", "id": 2488272830, "lat": 36.3288702, "lon": 44.7918901, "tags": {"name": "\u06af\u06ce\u0648\u0698\u06d5", "name:ckb": "\u06af\u06ce\u0648\u0698\u06d5", "name:de": "Gewzha", "name:en": "Gewzha", "name:fr": "Gewzha", "place": "village", "wikidata": "Q61389361", "wikipedia": "ckb:\u06af\u06ce\u0648\u0698\u06d5"}}, {"type": "node", "id": 2488272840, "lat": 36.2543927, "lon": 44.756014, "tags": {"is_in": "Iraq , \u062c\u0645\u0647\u0648\u0631\u064a\u0629 \u0627\u0644\u0639\u0631\u0627\u0642", "name": "\u06af\u0631\u062f\u06cc \u062a\u0644\u06ce", "name:ar": "\u0643\u0631\u062f\u064a \u062a\u0644\u0627", "name:ar1": "\u0643\u0631\u062f\u064a \u062a\u0644\u0627", "name:de": "Girdi Tile", "name:en": "Girdi Tile", "name:fr": "Girdi Tile", "place": "village"}}, {"type": "node", "id": 2488272857, "lat": 36.1503714, "lon": 44.7554898, "tags": {"name": "\u06a9\u0648\u0631\u062f\u0627\u0648\u0627", "name:ar": "\u06a9\u0648\u0631\u062f\u0627\u0648\u0627", "name:ckb": "\u06a9\u0648\u0631\u062f\u0627\u0648\u0627", "name:de": "Kurdawa", "name:en": "Kurdawa", "name:fr": "Kurdawa", "place": "village"}}, {"type": "node", "id": 2488272875, "lat": 36.3336434, "lon": 44.7899925, "tags": {"name": "\u06a9\u0627\u0646\u06cc \u0628\u0646\u0627\u0648", "name:ar": "\u06a9\u0627\u0646\u064a \u0628\u0646\u0627\u0648", "name:en": "Kani Bnaw", "place": "village", "wikidata": "Q61389345", "wikipedia": "ckb:\u06a9\u0627\u0646\u06cc \u0628\u0646\u0627\u0648\u060c \u0633\u06d5\u0631\u06a9\u06d5\u067e\u06a9\u0627\u0646"}}, {"type": "node", "id": 2488272881, "lat": 36.1964362, "lon": 44.7484048, "tags": {"name": "\u06a9\u0627\u0646\u06cc \u0645\u0627\u0631\u0627\u0646", "name:de": "Kani Maran", "name:en": "Kani Maran", "name:fr": "Kani Maran", "place": "village"}}, {"type": "node", "id": 2488272914, "lat": 36.0863174, "lon": 44.7631997, "tags": {"alt_name": "\u0643\u0627\u0646\u064a \u0639\u062b\u0645\u0627\u0646", "int_name": "K\u0101n\u012b Uthm\u0101n, Kani Watman, K\u0101ni Wutman, \u0643\u0627\u0646\u064a \u0639\u062b\u0645\u0627\u0646, Kani Uthman, Kani Watman, Kani Wutman, \u0643\u0627\u0646\u064a \u0639\u062b\u0645\u0627\u0646", "is_in": "Iraq , \u062c\u0645\u0647\u0648\u0631\u064a\u0629 \u0627\u0644\u0639\u0631\u0627\u0642", "name": "\u06a9\u0627\u0646\u06cc \u0648\u06d5\u062a\u0645\u0627\u0646", "name:ar": "\u06a9\u0627\u0646\u064a \u0648\u062a\u0645\u0627\u0646", "name:ar1": "\u0643\u0627\u0646\u064a \u0639\u062b\u0645\u0627\u0646", "name:de": "Kani Watman", "name:en": "Kani Watman", "name:fr": "Kani Watman", "place": "village"}}, {"type": "node", "id": 2488272932, "lat": 36.241472, "lon": 44.769472, "tags": {"name": "\u06a9\u0641\u0631\u06d5\u062f\u06c6\u06b5\u06cc \u0633\u06d5\u0631\u0648\u0648", "name:ar": "\u0643\u0641\u0631\u062f\u0648\u0644 \u0627\u0644\u0639\u0644\u06cc\u0627", "name:ar1": "\u0643\u0641\u0631\u062f\u0648\u0644", "name:de": "Kfradol Upper", "name:en": "Kfradol Upper", "name:fr": "Kfradol Upper", "place": "village"}}, {"type": "node", "id": 2488272963, "lat": 36.1295633, "lon": 44.7758179, "tags": {"alt_name": "\u062e\u062f\u0631\u0627\u0646", "capital": "7", "int_name": "Khdran, Khidr\u0101n, \u062e\u062f\u0631\u0627\u0646, Khdran, Khidran, \u062e\u062f\u0631\u0627\u0646", "is_in": "Iraq , \u062c\u0645\u0647\u0648\u0631\u064a\u0629 \u0627\u0644\u0639\u0631\u0627\u0642", "name": "\u062e\u062f\u0631\u0627\u0646", "name:ar": "\u062e\u062f\u0631\u0627\u0646", "name:ckb": "\u062e\u062f\u0631\u0627\u0646", "name:de": "Khidran", "name:en": "Khidran", "name:fr": "Khidran", "name:ku": "Xidran", "place": "town", "wikidata": "Q61388706"}}, {"type": "node", "id": 2488272966, "lat": 36.1109859, "lon": 44.8000135, "tags": {"alt_name": "\u0645\u064a\u0648\u064a\u0632\u0647\u0629;\u0648\u064a\u062c\u0627", "int_name": "Maiwizha, Mayw\u012bzhah, Mewizha, Mewzha, M\u0113wzha, Maiwizha, Maywizhah, Mewizha, Mewzha, Mewzha;W\u012bj\u0101, \u0648\u064a\u062c\u0627, Wija, \u0648\u064a\u062c\u0627", "name": "\u0645\u06ce\u0648\u0648\u0698\u06d5", "name:ar": "\u0645\u06cc\u0648\u0632\u0629", "name:de": "Mewzha", "name:en": "Mewzha", "name:fr": "Mewzha", "place": "village"}}, {"type": "node", "id": 2488272972, "lat": 36.212611, "lon": 44.756694, "tags": {"is_in": "Iraq , \u062c\u0645\u0647\u0648\u0631\u064a\u0629 \u0627\u0644\u0639\u0631\u0627\u0642", "name": "\u0632\u0646\u06af\u0632\u0646\u06af\u06d5", "name:ar": "\u0632\u0646\u0643\u0632\u0646\u0643\u0629", "name:ar1": "\u0632\u0646\u0643\u0632\u0646\u0643\u0629", "name:de": "Ngznga", "name:en": "Zngznga", "name:fr": "Ngznga", "place": "village"}}, {"type": "node", "id": 2488272973, "lat": 36.2012102, "lon": 44.7578651, "tags": {"name": "\u0642\u06d5\u0631\u06d5\u0646\u06cc\u0627\u063a\u0627", "name:de": "Qereniyagha", "name:en": "Qereniyagha", "name:fr": "Qereniyagha", "place": "village"}}, {"type": "node", "id": 2488272976, "lat": 36.154167, "lon": 44.740833, "tags": {"name": "\u0642\u06d5\u0645\u062a\u06d5\u0631\u0627\u0646", "name:ckb": "\u0642\u06d5\u0645\u062a\u06d5\u0631\u0627\u0646", "name:de": "Qamtaran", "name:en": "Qamtaran", "name:fr": "Qamtaran", "place": "village", "wikidata": "Q61388933", "wikipedia": "ckb:\u0642\u06d5\u0645\u062a\u06d5\u0631\u0627\u0646"}}, {"type": "node", "id": 2488272979, "lat": 36.1541355, "lon": 44.712766, "tags": {"alt_name": "\u0642\u0635\u0631\u0648\u0643", "name": "\u0642\u06d5\u0633\u0631\u06c6\u06a9", "name:ar": "\u0642\u0633\u0631\u0648\u0643", "name:ckb": "\u0642\u06d5\u0633\u0631\u06c6\u06a9", "name:de": "Qasrok", "name:en": "Qasrok", "name:fr": "Qasrok", "name:ku": "Qesrok", "place": "village"}}, {"type": "node", "id": 2488272991, "lat": 36.226611, "lon": 44.753194, "tags": {"is_in": "Iraq , \u062c\u0645\u0647\u0648\u0631\u064a\u0629 \u0627\u0644\u0639\u0631\u0627\u0642", "name": "\u0642\u0648\u0695\u06d5\u0628\u06d5\u0631\u0627\u0632\u06d5", "name:ar": "\u0642\u0631\u0629 \u0628\u0631\u0627\u0632\u0629", "name:ar1": "\u0642\u0631\u0629 \u0628\u0631\u0627\u0632\u0629", "name:de": "Qura Baraza", "name:en": "Qura Baraza", "name:fr": "Qura Baraza", "place": "village"}}, {"type": "node", "id": 2488272997, "lat": 36.277097, "lon": 44.7506798, "tags": {"alt_name": "\u0633\u0631 \u062c\u0627\u0648\u0629", "ele": "588", "int_name": "Sar J\u0101wah, Sar\u00e1 J\u0101wa, Sar\u012b J\u0101w, Saroochawa, Seruchawa, S\u0113r\u016bch\u0101wah, \u0633\u0631 \u062c\u0627\u0648\u0647, \u0633\u0631\u064a \u062c\u0627\u0648, Sar Jawah, Sara Jawa, Sari Jaw, Saroochawa, Seruchawa, Seruchawah, \u0633\u0631 \u062c\u0627\u0648\u0647, \u0633\u0631\u064a \u062c\u0627\u0648", "name": "\u0633\u06d5\u0631\u0648\u0686\u0627\u0648\u06d5", "name:ar": "\u0633\u0631\u0648\u062c\u0627\u0648\u0629", "name:ckb": "\u0633\u06d5\u0631\u0648\u0686\u0627\u0648\u06d5", "name:de": "Saruchawa", "name:en": "Saruchawa", "name:fr": "Saruchawa", "name:ku": "Seru\u00e7awe", "place": "town", "wikidata": "Q61389084", "wikipedia": "ckb:\u0633\u06d5\u0631\u0648\u0686\u0627\u0648\u06d5"}}, {"type": "node", "id": 2488272999, "lat": 36.1723611, "lon": 44.7378604, "tags": {"name": "\u0633\u06d5\u0631\u062e\u0645\u06d5", "name:ar": "\u0633\u0631 \u062e\u0648\u0645\u0629", "name:de": "Sar Khumah", "name:en": "Sar Khumah", "name:fr": "Sar Khumah", "place": "village"}}, {"type": "node", "id": 2488273052, "lat": 36.501611, "lon": 44.7535, "tags": {"alt_name": "\u0648\u0631\u062a\u0629", "capital": "7", "int_name": "Warta, Wartah, Wirta, W\u012brtah, \u0648\u0631\u062a\u0629, Warta, Wartah, Wirta, Wirtah, \u0648\u0631\u062a\u0629", "name": "\u0648\u06d5\u0631\u062a\u06ce", "name:ar": "\u0648\u0631\u062a\u064a", "name:ckb": "\u0648\u06d5\u0631\u062a\u06ce", "name:de": "Warte", "name:en": "Warte", "name:fr": "Warte", "name:ku": "Wert\u00ea", "place": "town", "wikidata": "Q5989134", "wikipedia": "ckb:\u0648\u06d5\u0631\u062a\u06ce"}}, {"type": "node", "id": 2488273055, "lat": 36.510167, "lon": 44.761417, "tags": {"alt_name": "\u0632\u064a\u0648\u0629", "int_name": "Z\u0113wa, Z\u012bwah, \u0632\u064a\u0648\u0647, Zewa, Ziwah, \u0632\u064a\u0648\u0647", "is_in": "Iraq , \u062c\u0645\u0647\u0648\u0631\u064a\u0629 \u0627\u0644\u0639\u0631\u0627\u0642", "name": "\u0632\u06cc\u0648\u06d5", "name:ar": "\u0632\u064a\u0648\u0629", "name:ar1": "\u0632\u064a\u0648\u0629", "name:de": "Zewa", "name:en": "Zewa", "name:fr": "Zewa", "place": "village"}}, {"type": "node", "id": 2488273056, "lat": 36.45, "lon": 44.75, "tags": {"alt_name": "\u0632\u0646\u0648 \u0633\u062a\u0631\u0648\u0643\u0627\u0646", "int_name": "Zinu Strok\u0101n, Zinu Strokan", "is_in": "Iraq , \u062c\u0645\u0647\u0648\u0631\u064a\u0629 \u0627\u0644\u0639\u0631\u0627\u0642", "name": "\u0632\u0646\u0648 \u0633\u062a\u0631\u0648\u0643\u0627\u0646", "name:ar": "\u0632\u0646\u0648 \u0633\u062a\u0631\u0648\u0643\u0627\u0646", "name:ar1": "\u0632\u0646\u0648 \u0633\u062a\u0631\u0648\u0643\u0627\u0646", "name:de": "Zinu Strokan", "name:en": "Zinu Starokan", "name:fr": "Zinu Strokan", "name:ku": "zinue starokan", "place": "village"}}, {"type": "node", "id": 2488273488, "lat": 36.2562682, "lon": 44.8085438, "tags": {"name": "\u0626\u06d5\u0633\u062a\u0631\u06cc\u0644\u0627\u0646", "name:ar": "\u0623\u0633\u062a\u0631\u0628\u0644\u0627\u0646", "name:de": "Astrilan", "name:en": "Astrilan", "name:fr": "Astrilan", "place": "village"}}, {"type": "node", "id": 2488273491, "lat": 36.3015287, "lon": 44.8264499, "tags": {"name": "\u0628\u06d5\u0631\u062f\u062e\u0695\u06d5", "name:ckb": "\u0628\u06d5\u0631\u062f\u062e\u0695\u06d5", "name:de": "Bardkhrra", "name:en": "Bardkhrra", "name:fr": "Bardkhrra", "place": "village", "wikidata": "Q61389175", "wikipedia": "ckb:\u0628\u06d5\u0631\u062f\u062e\u0695\u06d5"}}, {"type": "node", "id": 2488273492, "lat": 36.2115135, "lon": 44.8270687, "tags": {"addr:city": "\u0633\u0644\u06ce\u0645\u0627\u0646\u06cc", "capital": "7", "name": "\u0686\u0648\u0627\u0631\u0642\u0648\u0695\u0646\u06d5", "name:ar": "\u062c\u0648\u0627\u0631\u0642\u0648\u0631\u0646\u0629", "name:ckb": "\u0686\u0648\u0627\u0631\u0642\u0648\u0695\u0646\u06d5", "name:ckb-Latn": "\u00c7warqurrne", "name:en": "Chwarqurna", "name:ku": "\u00c7iwarqurrne", "name:ru": "\u0427\u0430\u0440\u043a\u0443\u0440\u0438\u0430", "place": "town", "wikidata": "Q5990249", "wikipedia": "ckb:\u0686\u0648\u0627\u0631\u0642\u0648\u0695\u0646\u06d5"}}, {"type": "node", "id": 2488273493, "lat": 36.2989595, "lon": 44.8181551, "tags": {"alt_name": "\u062f\u0647\u0644\u0627\u0644\u0627\u0646", "name": "\u062f\u06d5\u06b5\u0627\u06b5\u0627\u0646", "name:ar": "\u062f\u0647\u0644\u0627\u0644\u0627\u0646", "name:de": "Dahlalan", "name:en": "Dahlalan", "name:fr": "Dahlalan", "place": "village", "wikidata": "Q61389380", "wikipedia": "ckb:\u062f\u06d5\u06b5\u0627\u06b5\u0627\u0646"}}, {"type": "node", "id": 2488273494, "lat": 36.3055777, "lon": 44.8121913, "tags": {"name": "\u0695\u06ce\u0632\u06ce\u0646\u06d5", "name:ckb": "\u0695\u06ce\u0632\u06ce\u0646\u06d5", "name:de": "Rezena", "name:en": "Rezena", "name:fr": "Rezena", "place": "village", "wikidata": "Q61389313", "wikipedia": "ckb:\u0695\u06ce\u0632\u06ce\u0646\u06d5"}}, {"type": "node", "id": 2488273495, "lat": 36.2855424, "lon": 44.8566651, "tags": {"is_in": "Iraq , \u062c\u0645\u0647\u0648\u0631\u064a\u0629 \u0627\u0644\u0639\u0631\u0627\u0642", "name": "\u0647\u06d5\u0646\u062c\u06cc\u0631\u06d5\u06cc \u0626\u0627\u06a9\u06c6", "name:ar": "\u0647\u0646\u062c\u064a\u0631\u0629", "name:ar1": "\u0647\u0646\u062c\u064a\u0631\u0629", "name:de": "Hanjeer Ako", "name:en": "Hanjeer Ako", "name:fr": "Hanjeer Ako", "place": "village", "wikidata": "Q61388868", "wikipedia": "ckb:\u06be\u06d5\u0646\u062c\u06cc\u0631\u06d5\u06cc \u0626\u0627\u06a9\u06c6"}}, {"type": "node", "id": 2488273497, "lat": 36.22365, "lon": 44.855846, "tags": {"name": "\u06a9\u06c6\u0644\u06ce\u0646", "name:de": "Kolen", "name:en": "Kolen", "name:fr": "Kolen", "place": "village"}}, {"type": "node", "id": 2488273498, "lat": 36.311278, "lon": 44.80775, "tags": {"alt_name": "\u0645\u064a\u0643\u0648\u0643\u0629", "name": "\u0645\u06ce\u06a9\u06c6\u06a9\u06d5", "name:ar": "\u0645\u064a\u0643\u0648\u0643\u0629", "name:de": "Maykawkah", "name:en": "Maykawkah", "name:fr": "Maykawkah", "place": "village", "wikidata": "Q61389366", "wikipedia": "ckb:\u0645\u06ce\u06a9\u0648\u06a9\u06d5"}}, {"type": "node", "id": 2488273500, "lat": 36.275833, "lon": 44.814444, "tags": {"alt_name": "\u0645\u06cc\u0631\u06d5\u0628\u06d5\u06af", "name": "\u0645\u06cc\u0631\u06d5\u0628\u06d5\u06af", "name:ckb": "\u0645\u06cc\u0631\u06d5\u0628\u06d5\u06af", "name:de": "Mirebeg", "name:en": "Mirebeg", "name:fr": "Mirebeg", "place": "village"}}, {"type": "node", "id": 2488273502, "lat": 36.316224, "lon": 44.836925, "tags": {"alt_name": "\u0642\u0644\u0639\u0629 \u0645\u0635\u0637\u0641\u0649 \u0634\u064a\u0648\u0629 \u0642\u062f\u064a\u0645\u0629", "int_name": "Qalat Mu\u015f\u0163af\u00e1 Sh\u012bwat Qad\u012bmah, Qalat Mustafa, Qale Mstafa, \u0642\u0644\u0639\u0629 \u0645\u0635\u0637\u0641\u0649 \u0634\u064a\u0648\u0629 \u0642\u062f\u064a\u0645\u0629, Qalat Mustafa Shiwat Qadimah, Qalat Mustafa, Qale Mstafa, \u0642\u0644\u0639\u0629 \u0645\u0635\u0637\u0641\u0649 \u0634\u064a\u0648\u0629 \u0642\u062f\u064a\u0645\u0629", "is_in": "Iraq , \u062c\u0645\u0647\u0648\u0631\u064a\u0629 \u0627\u0644\u0639\u0631\u0627\u0642", "name": "\u0642\u0644\u0639\u0629 \u0645\u0635\u0637\u0641\u0649 \u0634\u064a\u0648\u0629 \u0642\u062f\u064a\u0645\u0629", "name:ar": "\u0642\u0644\u0639\u0629 \u0645\u0635\u0637\u0641\u0649 \u0634\u064a\u0648\u0629 \u0642\u062f\u064a\u0645\u0629", "name:ar1": "\u0642\u0644\u0639\u0629 \u0645\u0635\u0637\u0641\u0649 \u0634\u064a\u0648\u0629 \u0642\u062f\u064a\u0645\u0629", "name:de": "Qalat Mustafa Shiwat Qadimah", "name:en": "Qalat Mustafa Shiwat Qadimah", "name:fr": "Qalat Mustafa Shiwat Qadimah", "place": "village"}}, {"type": "node", "id": 2488273504, "lat": 36.2866643, "lon": 44.823302, "tags": {"addr:street": "Ranya, As Sulaymaniya, Iraq", "alt_name": "\u0633\u0631\u0643\u064a\u0643\u0627\u0646", "capital": "7", "description": "Omid Qasre", "int_name": "Sarkapkan, \u0633\u06d5\u0631\u06a9\u06d5\u067e\u06a9\u06d5\u0646", "is_in": "Iraq , \u062c\u0645\u0647\u0648\u0631\u064a\u0629 \u0627\u0644\u0639\u0631\u0627\u0642", "name": "\u0633\u06d5\u0631\u06a9\u06d5\u067e\u06a9\u0627\u0646", "name:ar": "\u0633\u0631\u0643\u0628\u0643\u0627\u0646", "name:ckb": "\u0633\u06d5\u0631\u06a9\u06d5\u067e\u06a9\u0627\u0646", "name:de": "Sarkapkan", "name:en": "Sarkapkan", "name:fr": "Sarkapkan", "name:ku": "Serkepkan", "phone": "07504298731", "place": "town", "website": "www.Qasre91.blogspot.com", "wikidata": "Q61389159", "wikipedia": "ckb:\u0633\u06d5\u0631\u06a9\u06d5\u067e\u06a9\u0627\u0646"}}, {"type": "node", "id": 2488273505, "lat": 36.2886389, "lon": 44.8330859, "tags": {"name": "\u0634\u06ce\u0628\u0627\u0646", "name:ckb": "\u0634\u06ce\u0628\u0627\u0646", "name:de": "Sheban", "name:en": "Sheban", "name:fr": "Sheban", "place": "village", "wikidata": "Q61389230", "wikipedia": "ckb:\u0634\u06ce\u0628\u0627\u0646"}}, {"type": "node", "id": 2488273506, "lat": 36.278177, "lon": 44.840211, "tags": {"is_in": "Iraq , \u062c\u0645\u0647\u0648\u0631\u064a\u0629 \u0627\u0644\u0639\u0631\u0627\u0642", "name": "\u0634\u0627\u0631\u0633\u062a\u06ce\u0646", "name:ar": "\u0634\u0627\u0631\u0633\u062a\u064a\u0646", "name:ar1": "\u0634\u0627\u0631\u0633\u062a\u064a\u0646", "name:de": "Sharistayn", "name:en": "Sharistayn", "name:fr": "Sharistayn", "place": "village"}}, {"type": "node", "id": 2488281052, "lat": 36.437299, "lon": 44.8973723, "tags": {"alt_name": "\u0623\u064a\u0646\u062f\u0632\u0629", "int_name": "Ayndizah, Endezah, Endza, Ind\u0101zah, Yandiza, Yandza, \u0623\u064a\u0646\u062f\u0632\u0647, \u0627\u064a\u0646\u062f\u0632\u0647, Ayndizah, Endezah, Endza, Indazah, Yandiza, Yandza, \u0623\u064a\u0646\u062f\u0632\u0647, \u0627\u064a\u0646\u062f\u0632\u0647", "is_in": "Iraq , \u062c\u0645\u0647\u0648\u0631\u064a\u0629 \u0627\u0644\u0639\u0631\u0627\u0642", "name": "\u0626\u06ce\u0646\u062f\u0632\u06d5", "name:ar": "\u0626\u06cc\u0646\u0632\u06d5", "name:ar1": "\u0623\u064a\u0646\u062f\u0632\u0629", "name:de": "Ayndizah", "name:en": "Aynza", "name:fr": "Ayndizah", "name:ru": "\u042d\u043d\u0434\u0435\u0437\u0430", "place": "village"}}, {"type": "node", "id": 2488281057, "lat": 36.4653037, "lon": 44.8480363, "tags": {"alt_name": "\u0628\u0648\u0643\u0631\u064a\u0643\u0627\u0646", "int_name": "Bawkr\u012bk\u0101n, Bokirskan, Bokrisk\u0101n, \u0628\u0648\u0643\u0631\u064a\u0643\u0627\u0646, Bawkrikan, Bokirskan, Bokriskan, \u0628\u0648\u0643\u0631\u064a\u0643\u0627\u0646", "is_in": "Iraq , \u062c\u0645\u0647\u0648\u0631\u064a\u0629 \u0627\u0644\u0639\u0631\u0627\u0642", "name": "\u0628\u06c6\u06a9\u0631\u06cc\u0633\u06a9\u0627\u0646", "name:ar": "\u0628\u0648\u06a9\u0631\u06cc\u0633\u06a9\u0627\u0646", "name:ar1": "\u0628\u0648\u0643\u0631\u064a\u0643\u0627\u0646", "name:de": "Bokriskan", "name:en": "Bokriskan", "name:fr": "Bokriskan", "place": "village"}}, {"type": "node", "id": 2488281065, "lat": 36.3179381, "lon": 44.8683192, "tags": {"name": "\u067e\u06cc\u0631\u0627\u0646\u0627\u0646", "name:ar": "\u0628\u064a\u0631\u0627\u0646\u0627\u0646", "name:ckb": "\u067e\u06cc\u0631\u0627\u0646\u0627\u0646", "name:en": "Piranan", "name:ku": "P\u00eeranan", "place": "village", "wikidata": "Q61390001", "wikipedia": "ckb:\u067e\u06cc\u0631\u0627\u0646\u0627\u0646"}}, {"type": "node", "id": 2488281075, "lat": 36.3065245, "lon": 44.9278789, "tags": {"is_in": "Iraq , \u062c\u0645\u0647\u0648\u0631\u064a\u0629 \u0627\u0644\u0639\u0631\u0627\u0642", "name": "\u062f\u0648\u0648\u067e\u0627\u0646", "name:ar": "\u062f\u0648\u0628\u0627\u0646", "name:ar1": "\u062f\u0648\u0628\u0627\u0646", "name:de": "Dopan", "name:en": "Dopan", "name:fr": "Dopan", "place": "village"}}, {"type": "node", "id": 2488281077, "lat": 36.3143853, "lon": 44.9167899, "tags": {"is_in": "Iraq , \u062c\u0645\u0647\u0648\u0631\u064a\u0629 \u0627\u0644\u0639\u0631\u0627\u0642", "name": "\u0645\u0627\u0645 \u0639\u06d5\u0644\u06cc", "name:ar": "\u0645\u0627\u0645 \u0639\u0644\u064a", "name:ar1": "\u0625\u0645\u0627\u0645 \u0639\u0644\u064a", "name:de": "Mam Ali", "name:en": "Mam Ali", "name:fr": "Mam Ali", "place": "village"}}, {"type": "node", "id": 2488281079, "lat": 36.3134215, "lon": 44.8926468, "tags": {"alt_name": "\u062c\u0644\u0643", "int_name": "Jalik, Jilik, \u062c\u0644\u0643, Jalik, Jilik, \u062c\u0644\u0643", "is_in": "Iraq , \u062c\u0645\u0647\u0648\u0631\u064a\u0629 \u0627\u0644\u0639\u0631\u0627\u0642", "name": "\u062c\u06d5\u0644\u06a9\u0627\u0646", "name:ar": "\u062c\u0644\u0643\u0627\u0646", "name:ar1": "\u062c\u0644\u0643", "name:de": "Jalkan", "name:en": "Jalkan", "name:fr": "Jalkan", "place": "village", "wikidata": "Q61390110", "wikipedia": "ckb:\u062c\u06d5\u0644\u06a9\u0627\u0646"}}, {"type": "node", "id": 2488281081, "lat": 36.4474121, "lon": 44.8740822, "tags": {"alt_name": "\u0644\u064a\u0648\u0632\u0629", "int_name": "Lay\u016bzah, L\u0113\u014dzhah, Lewzha, L\u0113wzha, \u0644\u064a\u0648\u0632\u0647, Layuzah, Leozhah, Lewzha, Lewzha, \u0644\u064a\u0648\u0632\u0647", "is_in": "Iraq , \u062c\u0645\u0647\u0648\u0631\u064a\u0629 \u0627\u0644\u0639\u0631\u0627\u0642", "name": "\u0644\u06ce\u0648\u0698\u06d5", "name:ar": "\u0644\u06cc\u0648\u0632\u0629", "name:ar1": "\u0644\u064a\u0648\u0632\u0629", "name:de": "Layuzah", "name:en": "Lewzha", "name:fr": "Layuzah", "place": "village"}}, {"type": "node", "id": 2488281091, "lat": 36.4736397, "lon": 44.8360456, "tags": {"alt_name": "\u0632\u0627\u0631\u064a\u0643\u064a", "int_name": "Z\u0101r Gelli, Z\u0101rgal\u012b, Z\u0101r\u012bg\u012b, Z\u0101r\u012bk\u012b, \u0632\u0627\u0631\u064a\u0643\u064a, Zar Gelli, Zargali, Zarigi, Zariki, \u0632\u0627\u0631\u064a\u0643\u064a", "is_in": "Iraq , \u062c\u0645\u0647\u0648\u0631\u064a\u0629 \u0627\u0644\u0639\u0631\u0627\u0642", "name": "\u0632\u0627\u0631\u06af\u06d5\u0644\u06cc", "name:ar": "\u0632\u0627\u0631\u06a9\u0644\u064a", "name:ar1": "\u0632\u0627\u0631\u064a\u0643\u064a", "name:de": "Zar Gelli", "name:en": "Zar Gelli", "name:fr": "Zar Gelli", "place": "village"}}, {"type": "node", "id": 2488281190, "lat": 36.232167, "lon": 44.916, "tags": {"is_in": "Iraq , \u062c\u0645\u0647\u0648\u0631\u064a\u0629 \u0627\u0644\u0639\u0631\u0627\u0642", "name": "\u0628\u06c6\u0633\u06a9\u06ce\u0646", "name:ar": "\u0628\u0648\u0633\u0643\u064a\u0646", "name:ar1": "\u0628\u0648\u0633\u0643\u064a\u0646", "name:de": "Bosken", "name:en": "Bosken", "name:fr": "Bosken", "place": "village", "wikidata": "Q61381063", "wikipedia": "ckb:\u0628\u06c6\u0633\u06a9\u06ce\u0646\u060c \u0695\u0627\u0646\u06cc\u06d5"}}, {"type": "node", "id": 2488281196, "lat": 36.4149036, "lon": 44.9461729, "tags": {"alt_name": "\u062f\u0648\u064a\u0644\u064a", "int_name": "Duwaila, Duwaylah, Duwayl\u012b, Duwela, Dwela, \u062f\u0648\u064a\u0644\u064a, Duwaila, Duwaylah, Duwayli, Duwela, Dwela, \u062f\u0648\u064a\u0644\u064a", "is_in": "Iraq , \u062c\u0645\u0647\u0648\u0631\u064a\u0629 \u0627\u0644\u0639\u0631\u0627\u0642", "name": "\u062f\u0648\u06ce\u06b5\u06ce", "name:ar": "\u062f\u0648\u064a\u0644\u064a", "name:ar1": "\u062f\u0648\u064a\u0644\u064a", "name:de": "Duwaila", "name:en": "Duwaila", "name:fr": "Duwaila", "place": "village"}}, {"type": "node", "id": 2488281197, "lat": 36.31075, "lon": 44.950944, "tags": {"is_in": "Iraq , \u062c\u0645\u0647\u0648\u0631\u064a\u0629 \u0627\u0644\u0639\u0631\u0627\u0642", "name": "\u0645\u0627\u062e\u0648\u0628\u0632\u0646\u0627\u0646", "name:ar": "\u0645\u0627\u062e\u0648\u0628\u0632\u0646\u0627\u0646", "name:ar1": "\u063a\u0627\u0644\u0648", "name:de": "Makhu Bznan", "name:en": "Makhu Bznan", "name:fr": "Makhu Bznan", "place": "village"}}, {"type": "node", "id": 2488281198, "lat": 36.1965614, "lon": 44.888666, "tags": {"is_in": "Iraq , \u062c\u0645\u0647\u0648\u0631\u064a\u0629 \u0627\u0644\u0639\u0631\u0627\u0642", "name": "\u06af\u0648\u06b5\u06d5\u06a9", "name:ar": "\u0643\u0648\u0644\u0627\u0643", "name:ar1": "\u0643\u0648\u0644\u0627\u0643", "name:de": "Golak", "name:en": "Golak", "name:fr": "Golak", "place": "village"}}, {"type": "node", "id": 2488281199, "lat": 36.2218844, "lon": 44.9204268, "tags": {"is_in": "Iraq , \u062c\u0645\u0647\u0648\u0631\u064a\u0629 \u0627\u0644\u0639\u0631\u0627\u0642", "name": "\u0647\u06d5\u0646\u062c\u06cc\u0631\u06d5\u06cc \u0695\u06d5\u0645\u06a9", "name:ar": "\u0647\u0646\u062c\u064a\u0631\u0629", "name:de": "Hanjeera", "name:en": "Hanjeera", "name:fr": "Hanjeera", "place": "village"}}, {"type": "node", "id": 2488281206, "lat": 36.228083, "lon": 44.9495688, "tags": {"is_in": "Iraq , \u062c\u0645\u0647\u0648\u0631\u064a\u0629 \u0627\u0644\u0639\u0631\u0627\u0642", "name": "\u0642\u0648\u0695\u06d5\u06af\u06c6", "name:ar": "\u0642\u0648\u0631\u0629 \u0643\u0648", "name:ar1": "\u0642\u0648\u0631\u0629 \u0643\u0648", "name:de": "Qurago", "name:en": "Qurago", "name:fr": "Qurago", "place": "village", "wikidata": "Q5987761", "wikipedia": "ckb:\u0642\u0648\u0695\u06d5\u06af\u06c6"}}, {"type": "node", "id": 2488281214, "lat": 36.257806, "lon": 44.900861, "tags": {"is_in": "Iraq , \u062c\u0645\u0647\u0648\u0631\u064a\u0629 \u0627\u0644\u0639\u0631\u0627\u0642", "name": "\u0633\u06d5\u06cc\u062f\u0627\u0648\u06d5", "name:ar": "\u0633\u064a\u062f\u0627\u0648\u0629", "name:ar1": "\u0633\u064a\u062f\u0627\u0648\u0629", "name:de": "Sayda Faqirah", "name:en": "Sayda Faqirah", "name:fr": "Sayda Faqirah", "place": "village"}}, {"type": "node", "id": 2488281227, "lat": 36.4241531, "lon": 44.9414291, "tags": {"alt_name": "\u0633\u0644\u064a", "int_name": "Sul\u012b, \u0633\u0644\u064a, Suli, \u0633\u0644\u064a", "is_in": "Iraq , \u062c\u0645\u0647\u0648\u0631\u064a\u0629 \u0627\u0644\u0639\u0631\u0627\u0642", "name": "\u0633\u06b5\u06ce", "name:ar": "\u0633\u0644\u064a", "name:ar1": "\u0633\u0644\u064a", "name:de": "Sli", "name:en": "Sli", "name:fr": "Sli", "place": "village"}}, {"type": "node", "id": 2488281456, "lat": 36.0892382, "lon": 44.8578276, "tags": {"name": "\u06a9\u06d5\u0644\u06a9\u0627\u0646", "name:de": "Kalkan", "name:en": "Kalkan", "name:fr": "Kalkan", "place": "village"}}, {"type": "node", "id": 2488312879, "lat": 36.157306, "lon": 45.067611, "tags": {"alt_name": "\u0628\u0646\u0627\u0648\u064a\u0644\u0629", "int_name": "Binawila, Bin\u0101w\u012blah, Bnawila, Binawila, Binawilah, Bnawila", "name": "\u0628\u0646\u0627\u0648\u06cc\u0644\u06d5", "name:ar1": "\u0628\u0646\u0627\u0648\u064a\u0644\u0629", "name:de": "Binawila", "name:en": "Binawila", "name:fr": "Binawila", "place": "village"}}, {"type": "node", "id": 2488312891, "lat": 36.165528, "lon": 45.077611, "tags": {"name": "\u0686\u06c6\u0645\u06cc\u06a9\u0627\u0646\u06cc\u0627\u0646", "name:ar": "\u062c\u0648\u0645\u0643\u0646\u064a\u0627\u0646", "name:ar1": "\u062c\u0648\u0645\u0643\u0646\u064a\u0627\u0646", "name:de": "Cham i Khaniyan", "name:en": "Cham i Khaniyan", "name:fr": "Cham i Khaniyan", "place": "village", "wikidata": "Q61389507", "wikipedia": "ckb:\u0686\u06c6\u0645\u06cc\u06a9\u0627\u0646\u06cc\u0627\u0646"}}, {"type": "node", "id": 2488312905, "lat": 36.2230969, "lon": 45.0673834, "tags": {"alt_name": "\u0698\u0627\u0631\u0627\u0648\u0627", "capital": "7", "int_name": "Jayr\u0101wah, Zharawa, \u062c\u064a\u0631\u0627\u0648\u06d5, Jayrawah, Zharawa, \u062c\u064a\u0631\u0627\u0648\u06d5", "name": "\u0698\u0627\u0631\u0627\u0648\u06d5", "name:ar": "\u062c\u064a\u0631\u0627\u0648\u0629", "name:ckb": "\u0698\u0627\u0631\u0627\u0648\u06d5", "name:en": "Zharawa", "name:ku": "Jarawe", "place": "town", "wikidata": "Q61389795", "wikipedia": "ckb:\u0698\u0627\u0631\u0627\u0648\u06d5"}}, {"type": "node", "id": 2488312906, "lat": 36.145502, "lon": 45.0799097, "tags": {"alt_name": "\u0643\u0644\u0643\u0627\u0646", "int_name": "Kalakan, Kalak\u0101n, \u0643\u0644\u0643\u0627\u0646, Kalakan, Kalakan, \u0643\u0644\u0643\u0627\u0646", "is_in": "Iraq , \u062c\u0645\u0647\u0648\u0631\u064a\u0629 \u0627\u0644\u0639\u0631\u0627\u0642", "name": "\u06a9\u06d5\u06b5\u06d5\u06a9\u0627\u0646", "name:ar1": "\u0643\u0644\u0643\u0627\u0646", "name:de": "Kalakan", "name:en": "Kalakan", "name:fr": "Kalakan", "place": "village"}}, {"type": "node", "id": 2488312942, "lat": 36.2446772, "lon": 45.0658488, "tags": {"name": "\u0628\u0627\u0631\u06d5\u067e\u0627\u0646\u06d5", "name:ar": "\u0628\u0627\u0631\u0628\u0627\u0646\u0629", "name:de": "Barapana", "name:en": "Barapana", "name:fr": "Barapana", "place": "village"}}, {"type": "node", "id": 2488312945, "lat": 36.267333, "lon": 45.038389, "tags": {"alt_name": "\u0628\u0633\u062a\u0633\u064a\u0646", "int_name": "Bastasayn, Bastasten Upper, \u0628\u0633\u062a\u0633\u064a\u0646, Bastasayn, Bastasten Upper, \u0628\u0633\u062a\u0633\u064a\u0646", "is_in": "Iraq , \u062c\u0645\u0647\u0648\u0631\u064a\u0629 \u0627\u0644\u0639\u0631\u0627\u0642", "name": "\u0628\u06d5\u0633\u062a\u06d5\u0633\u06ce\u0646\u06cc \u0633\u06d5\u0631\u0648\u0648", "name:ar": "\u0628\u0633\u062a\u0629\u0633\u06cc\u0646 \u0627\u0644\u0639\u0644\u06cc\u0627", "name:ar1": "\u0628\u0633\u062a\u0633\u064a\u0646", "name:de": "Bastasen Upper", "name:en": "Bastasen Upper", "name:fr": "Bastasen Upper", "place": "village"}}, {"type": "node", "id": 2488312965, "lat": 36.2368877, "lon": 45.0550919, "tags": {"name": "\u062e\u06d5\u0646\u062f\u06d5\u06a9\u06d5", "name:ckb": "\u062e\u06d5\u0646\u062f\u06d5\u06a9\u06d5", "name:de": "Khandaka", "name:en": "Khandaka", "name:fr": "Khandaka", "place": "village"}}, {"type": "node", "id": 2488312970, "lat": 36.273818, "lon": 45.0702882, "tags": {"is_in": "Iraq , \u062c\u0645\u0647\u0648\u0631\u064a\u0629 \u0627\u0644\u0639\u0631\u0627\u0642", "name": "\u0642\u06d5\u06b5\u0627\u0648\u06d5", "name:ar": "\u0642\u0644\u0627\u0648\u0629", "name:ar1": "\u0642\u0644\u0627\u0648\u0629", "name:de": "Qalawa", "name:en": "Qalawa", "name:fr": "Qalawa", "name:ku-Arab": "\u0642\u06d5\u0644\u0627\u0648\u06d5", "place": "village"}}, {"type": "node", "id": 2488313000, "lat": 36.2304809, "lon": 45.0538156, "tags": {"alt_name": "\u062f\u0648\u0644\u0647 \u0628\u062e\u064a\u0631", "name": "\u062f\u06c6\u06b5\u06d5 \u0628\u06d5\u0641\u0631\u06d5", "name:ckb": "\u06af\u0648\u0646\u062f\u06cc \u062f\u06c6\u06b5\u06d5 \u0628\u06d5\u0641\u0631\u06d5", "name:en": "Dola Bafra", "place": "village"}}, {"type": "node", "id": 2488314081, "lat": 36.254861, "lon": 44.999028, "tags": {"alt_name": "\u0622\u0634\u0648\u0631\u0646", "int_name": "Ashoran, \u0100sh\u016bran, \u0622\u0634\u0648\u0631\u0646, Ashoran, Ashuran, \u0622\u0634\u0648\u0631\u0646", "is_in": "Iraq , \u062c\u0645\u0647\u0648\u0631\u064a\u0629 \u0627\u0644\u0639\u0631\u0627\u0642", "name": "\u0626\u0627\u0634\u0648\u0631\u0627\u0646", "name:ar": "\u0622\u0634\u0648\u0631\u0646", "name:ar1": "\u0622\u0634\u0648\u0631\u0646", "name:de": "Ashoran", "name:en": "Ashoran", "name:fr": "Ashoran", "place": "village"}}, {"type": "node", "id": 2488314095, "lat": 36.2525846, "lon": 45.0382315, "tags": {"is_in": "Iraq , \u062c\u0645\u0647\u0648\u0631\u064a\u0629 \u0627\u0644\u0639\u0631\u0627\u0642", "name": "\u0628\u06d5\u0633\u062a\u06d5\u0633\u06ce\u0646\u06cc \u062e\u0648\u0627\u0631\u0648\u0648", "name:ar": "\u0628\u0633\u062a\u0629\u0633\u06cc\u0646 \u0627\u0644\u0633\u0641\u0644\u06cc", "name:ar1": "\u0628\u0633\u062a\u0633\u064a\u0646", "name:de": "Bastasen Lower", "name:en": "Bastasen Lower", "name:fr": "Bastasen Lower", "place": "village"}}, {"type": "node", "id": 2488314133, "lat": 36.2367908, "lon": 44.9971925, "tags": {"alt_name": "\u062c\u0645\u0629 \u0633\u062a\u0648 \u0643\u0648\u0646;\u062c\u0645\u0629 \u0633\u062a\u0648", "int_name": "Chama Sutaw Kon, Chama Sutaw Kon;Chama Sutaw, Chama Sutaw", "is_in": "Iraq , \u062c\u0645\u0647\u0648\u0631\u064a\u0629 \u0627\u0644\u0639\u0631\u0627\u0642", "name": "\u0686\u06d5\u0645\u06d5\u0633\u0648\u062a\u0627\u0648", "name:ar": "\u062c\u0645\u0629\u0633\u0648\u062a\u0627\u0648", "name:ar1": "\u062c\u0645\u0629 \u0633\u062a\u0648 \u0643\u0648\u0646;\u062c\u0645\u0629 \u0633\u062a\u0648", "name:de": "Chama Sutaw", "name:en": "Chama Sutaw", "name:fr": "Chama Sutaw", "place": "village"}}, {"type": "node", "id": 2488314143, "lat": 36.301639, "lon": 45.010139, "tags": {"alt_name": "\u062f\u0644\u0648 \u0643\u0648\u062a\u0631", "int_name": "Dalaw Kawtir, Dara Koz, Darua Kotr, D\u012bl\u014d Kot\u012br, D\u012bl\u014d Kot\u012br, \u062f\u0644\u0648 \u0643\u0648\u062a\u0631, Dalaw Kawtir, Dara Koz, Darua Kotr, Dilo Kotir, Dilo Kotir, \u062f\u0644\u0648 \u0643\u0648\u062a\u0631", "is_in": "Iraq , \u062c\u0645\u0647\u0648\u0631\u064a\u0629 \u0627\u0644\u0639\u0631\u0627\u0642", "name": "\u062f\u06d5\u0631\u0648\u06d5\u06a9\u06c6\u062a\u0631", "name:ar": "\u062f\u0631\u0648\u0629\u06a9\u0648\u062a\u0631", "name:ar1": "\u062f\u0644\u0648 \u0643\u0648\u062a\u0631", "name:de": "Darwa Kotr", "name:en": "Darwa Kotr", "name:fr": "Darwa Kotr", "place": "village"}}, {"type": "node", "id": 2488314150, "lat": 36.29175, "lon": 44.962139, "tags": {"name": "\u062f\u0648\u0648\u06af\u06c6\u0645\u0627\u0646", "name:ar": "\u062f\u0648\u0643\u0648\u0645\u0627\u0646", "name:ckb": "\u062f\u0648\u0648\u06af\u06c6\u0645\u0627\u0646", "name:en": "Dugoman", "name:ku": "D\u00fbgoman", "place": "village", "wikidata": "Q61390072", "wikipedia": "ckb:\u062f\u0648\u0648\u06af\u06c6\u0645\u0627\u0646\u060c \u0633\u06d5\u0646\u06af\u06d5\u0633\u06d5\u0631"}}, {"type": "node", "id": 2488314161, "lat": 36.285028, "lon": 45.001222, "tags": {"int_name": "Girtik, Grtk, Kirnik, \u0643\u0631\u0646\u0643, Girtik, Grtk, Kirnik, \u0643\u0631\u0646\u0643", "name": "\u06af\u0631\u062a\u06a9", "name:ar": "\u06a9\u0631\u062a\u06a9", "name:ckb": "\u06af\u0631\u062a\u06a9", "name:en": "Girtik", "name:fr": "Girtik", "place": "village", "population": "2000"}}, {"type": "node", "id": 2488314173, "lat": 36.2779608, "lon": 45.0315943, "tags": {"int_name": "Jisr Shah\u012bd\u0101n, \u062c\u0633\u0631 \u0634\u0647\u064a\u062f\u0627\u0646, Jisr Shahidan, \u062c\u0633\u0631 \u0634\u0647\u064a\u062f\u0627\u0646", "name": "\u0632\u0648\u0648\u0631\u06a9\u0627\u0646\u06cc \u062e\u0648\u0627\u0631\u0648\u0648", "name:ar": "\u0632\u0648\u0631\u06a9\u0627\u0646 \u0627\u0644\u0633\u0641\u0644\u06cc", "name:ckb": "\u0632\u0648\u0648\u0631\u06a9\u0627\u0646\u06cc \u062e\u0648\u0627\u0631\u0648\u0648", "name:de": "Zurkan Lower", "name:en": "Zurkan Lower", "name:fr": "Zurkan Lower", "place": "village"}}, {"type": "node", "id": 2488314207, "lat": 36.212972, "lon": 45.024667, "tags": {"alt_name": "\u0643\u0646\u062c\u0627\u0631\u0629 \u0627\u0644\u0633\u0641\u0644\u0649", "int_name": "Kanj\u0101ra i Khw\u0101r\u016b, Kanjara Lower, Kanjara i Khwaru, Kanjara Lower", "is_in": "Iraq , \u062c\u0645\u0647\u0648\u0631\u064a\u0629 \u0627\u0644\u0639\u0631\u0627\u0642", "name": "\u06a9\u06d5\u0646\u062c\u0627\u0631\u06d5\u06cc \u062e\u0648\u0627\u0631\u0648\u0648", "name:ar": "\u0643\u0646\u062c\u0627\u0631\u0629 \u0627\u0644\u0633\u0641\u0644\u0649", "name:ar1": "\u0643\u0646\u062c\u0627\u0631\u0629 \u0627\u0644\u0633\u0641\u0644\u0649", "name:de": "Kanjara Lower", "name:en": "Kanjara Lower", "name:fr": "Kanjara Lower", "place": "village"}}, {"type": "node", "id": 2488314213, "lat": 36.209639, "lon": 45.030444, "tags": {"alt_name": "\u0643\u0646\u062c\u0627\u0631\u0629 \u0627\u0644\u0639\u0644\u064a\u0627", "int_name": "Kanj\u0101ra i Zh\u016br\u016b, Kanjara Upper, Kanjara i Zhuru, Kanjara Upper", "is_in": "Iraq , \u062c\u0645\u0647\u0648\u0631\u064a\u0629 \u0627\u0644\u0639\u0631\u0627\u0642", "name": "\u06a9\u06d5\u0646\u062c\u0627\u0695\u06d5\u06cc \u0633\u06d5\u0631\u0648\u0648", "name:ar": "\u0643\u0646\u062c\u0627\u0631\u0629 \u0627\u0644\u0639\u0644\u064a\u0627", "name:ar1": "\u0643\u0646\u062c\u0627\u0631\u0629 \u0627\u0644\u0639\u0644\u064a\u0627", "name:de": "Kanjara Upper", "name:en": "Kanjara Upper", "name:fr": "Kanjara Upper", "place": "village"}}, {"type": "node", "id": 2488314220, "lat": 36.2081864, "lon": 45.0559253, "tags": {"name": "\u06a9\u06d5\u0631\u0633\u06c6\u0646\u0627\u0646", "name:ar": "\u06a9\u06d5\u0631\u0633\u0648\u0646\u0627\u0646", "name:ar1": "\u0643\u0631\u0633\u0648\u0645\u0627\u0646", "name:de": "Karsonan", "name:en": "Karsonan", "name:fr": "Karsonan", "place": "village"}}, {"type": "node", "id": 2488314238, "lat": 36.2231057, "lon": 44.9910903, "tags": {"name": "\u06a9\u06c6\u0645\u06d5\u06b5\u06d5", "name:ar": "\u0643\u0648\u0645\u0644\u0629", "name:ckb": "\u06a9\u06c6\u0645\u06d5\u06b5\u06d5", "name:en": "Komala", "name:fr": "Komele", "place": "village", "wikidata": "Q61389957", "wikipedia": "ckb:\u06a9\u06c6\u0645\u06d5\u06b5\u06d5\u060c \u0633\u06d5\u0646\u06af\u06d5\u0633\u06d5\u0631"}}, {"type": "node", "id": 2488314245, "lat": 36.2453475, "lon": 44.9919198, "tags": {"alt_name": "\u0645\u062c\u0645\u0639 \u062a\u0648\u0633\u0648\u0631\u0627\u0646", "int_name": "Mujamma Tuwasawr\u0101n, Tua Soran, \u0645\u062c\u0645\u0639 \u062a\u0648\u0633\u0648\u0631\u0627\u0646, Mujamma Tuwasawran, Tua Soran, \u0645\u062c\u0645\u0639 \u062a\u0648\u0633\u0648\u0631\u0627\u0646", "is_in": "Iraq , \u062c\u0645\u0647\u0648\u0631\u064a\u0629 \u0627\u0644\u0639\u0631\u0627\u0642", "name": "\u062a\u0648\u0648\u06d5\u0633\u0648\u0631\u0627\u0646", "name:ar": "\u062a\u0648\u0633\u0648\u0631\u0627\u0646", "name:ar1": "\u0645\u062c\u0645\u0639 \u062a\u0648\u0633\u0648\u0631\u0627\u0646", "name:de": "Tuwasawran", "name:en": "Tuwasawran", "name:fr": "Tuwasawran", "place": "village"}}, {"type": "node", "id": 2488314254, "lat": 36.2506403, "lon": 45.0085, "tags": {"is_in": "Iraq , \u062c\u0645\u0647\u0648\u0631\u064a\u0629 \u0627\u0644\u0639\u0631\u0627\u0642", "name": "\u0633\u06d5\u0646\u06af\u06d5\u0633\u06d5\u0631", "name:ar": "\u0633\u0646\u0643\u0629 \u0633\u0627\u0631", "name:ar1": "\u0633\u0646\u0643\u0629 \u0633\u0627\u0631", "name:de": "Sangah sar", "name:en": "Sangah sar", "name:fr": "Sangah sar", "place": "village"}}, {"type": "node", "id": 2488314261, "lat": 36.2438633, "lon": 45.0057164, "tags": {"alt_name": "\u062f\u0631\u0648\u0643\u062f\u0648\u0644\u0629", "int_name": "Darak Dula, Dar\u014dk, Dar\u014dk D\u016bla, Darok Dulo, Darwakad\u016bla, Darwakdula, Darwakidawlah, Dawrak D\u016blah, Dork Dula", "is_in": "Iraq , \u062c\u0645\u0647\u0648\u0631\u064a\u0629 \u0627\u0644\u0639\u0631\u0627\u0642", "name": "\u0633\u06d5\u0646\u06af\u06d5\u0633\u06d5\u0631", "name:ar": "\u0633\u0646\u06a9\u0633\u0631", "name:ar1": "\u0633\u0646\u0643\u0633\u0631;\u062f\u0631\u0648\u0643\u062f\u0648\u0644\u0629", "name:de": "Sangasar", "name:en": "Sangasar", "name:fr": "Sangasar", "name:ru": "\u0421\u0430\u043d\u0433\u0430\u0441\u0430\u0440", "place": "town", "wikidata": "Q85847154", "wikipedia": "ckb:\u0633\u06d5\u0646\u06af\u06d5\u0633\u06d5\u0631"}}, {"type": "node", "id": 2488314268, "lat": 36.198611, "lon": 44.987222, "tags": {"alt_name": "\u0633\u0627\u0631\u0633\u064a\u0627\u0646", "int_name": "Sarsian, S\u0101rsiy\u0101n, Sarsian, Sarsiyan", "is_in": "Iraq , \u062c\u0645\u0647\u0648\u0631\u064a\u0629 \u0627\u0644\u0639\u0631\u0627\u0642", "name": "\u0633\u06d5\u0631\u0633\u06cc\u0627\u0646", "name:ar": "\u0633\u0631\u0633\u06cc\u0627\u0646", "name:ar1": "\u0633\u0627\u0631\u0633\u064a\u0627\u0646", "name:de": "Sarsian", "name:en": "Sarsian", "name:fr": "Sarsian", "place": "village", "wikidata": "Q61388621", "wikipedia": "ckb:\u0633\u06d5\u0631\u0633\u06cc\u0627\u0646"}}, {"type": "node", "id": 2488314274, "lat": 36.2885577, "lon": 45.0090564, "tags": {"alt_name": "\u0634\u064a\u062f\u0646", "int_name": "Sh\u0101hed\u0101n, Sh\u0101h\u012bd\u0101h, Shah\u012bd\u0101n, Shaydan, \u0634\u064a\u062f\u0646, Shahedan, Shahidah, Shahidan, Shaydan, \u0634\u064a\u062f\u0646", "is_in": "Iraq , \u062c\u0645\u0647\u0648\u0631\u064a\u0629 \u0627\u0644\u0639\u0631\u0627\u0642", "name": "\u0634\u06d5\u06be\u06cc\u062f\u0627\u0646", "name:ar": "\u0634\u06be\u06cc\u062f\u0627\u0646", "name:ar1": "\u0634\u064a\u062f\u0646", "name:de": "Shahidan", "name:en": "Shahidan", "name:fr": "Shahidan", "name:ru": "\u0428\u0430\u0445\u0438\u0434\u0430\u043d", "place": "village"}}, {"type": "node", "id": 2488314287, "lat": 36.2154769, "lon": 45.0440989, "tags": {"is_in": "Iraq , \u062c\u0645\u0647\u0648\u0631\u064a\u0629 \u0627\u0644\u0639\u0631\u0627\u0642", "name": "\u0633\u0648\u06b5\u062a\u0627\u0646\u06d5\u062f\u06ce\u06cc \u06a9\u06c6\u0646", "name:ar": "\u0633\u0644\u0637\u0627\u0646\u0629 \u062f\u064a \u0627\u0644\u0642\u062f\u06cc\u0645", "name:ar1": "\u0633\u0644\u0637\u0627\u0646\u0629 \u062f\u064a", "name:de": "Sultanade Old", "name:en": "Sultanade Old", "name:fr": "Sultanade Old", "place": "village"}}, {"type": "node", "id": 2488314341, "lat": 36.2959257, "lon": 45.0266193, "tags": {"int_name": "Z\u014dng, Z\u016bnik, \u0632\u0648\u0646\u0643, Zong, Zunik, \u0632\u0648\u0646\u0643", "is_in": "Iraq , \u062c\u0645\u0647\u0648\u0631\u064a\u0629 \u0627\u0644\u0639\u0631\u0627\u0642", "name": "\u0632\u0648\u0631\u06a9\u0627\u0646\u06cc \u0633\u06d5\u0631\u0648\u0648", "name:ar": "\u0632\u0648\u0631\u06a9\u0627\u0646 \u0627\u0644\u0639\u0644\u06cc\u0627", "name:de": "Zurkan Upper", "name:en": "Zurkan Upper", "name:fr": "Zurkan Upper", "place": "village"}}, {"type": "node", "id": 2488315993, "lat": 36.355582, "lon": 44.994732, "tags": {"int_name": "B\u0101r\u0101wa, Barawa Lower, B\u0101r\u0101wah, Brawa, \u0628\u0627\u0631\u0627\u0648\u0647, Barawa, Barawa Lower, Barawah, Brawa, \u0628\u0627\u0631\u0627\u0648\u0647", "is_in": "Iraq , \u062c\u0645\u0647\u0648\u0631\u064a\u0629 \u0627\u0644\u0639\u0631\u0627\u0642", "name": "\u0628\u0627\u0631\u0627\u0648\u06d5\u06cc \u062e\u0648\u0627\u0631\u0648\u0648", "name:ar": "\u0628\u0627\u0631\u0627\u0648\u0629 \u0627\u0644\u0633\u0641\u0644\u06cc", "name:de": "Barawa Lower", "name:en": "Barawa Lower", "name:fr": "Barawa Lower", "place": "village"}}, {"type": "node", "id": 2488316000, "lat": 36.3621948, "lon": 44.9930429, "tags": {"alt_name": "\u0628\u0627\u0631\u0627\u0648\u0629", "int_name": "B\u0101r\u0101wa, Barawa Upper, B\u0101r\u0101wah, Brawa, \u0628\u0627\u0631\u0627\u0648\u0647, Barawa, Barawa Upper, Barawah, Brawa, \u0628\u0627\u0631\u0627\u0648\u0647", "is_in": "Iraq , \u062c\u0645\u0647\u0648\u0631\u064a\u0629 \u0627\u0644\u0639\u0631\u0627\u0642", "name": "\u0628\u0627\u0631\u0627\u0648\u06d5\u06cc \u0633\u06d5\u0631\u0648\u0648", "name:ar": "\u0628\u0627\u0631\u0627\u0648\u0629 \u0627\u0644\u0639\u0644\u06cc\u0627", "name:ar1": "\u0628\u0627\u0631\u0627\u0648\u0629", "name:de": "Barawa Upper", "name:en": "Barawa Upper", "name:fr": "Barawa Upper", "place": "village"}}, {"type": "node", "id": 2488316012, "lat": 36.3678975, "lon": 45.0477406, "tags": {"alt_name": "\u0628\u064a\u0641\u062a\u0627\u0646;\u0628\u064a\u0628\u0627\u0644\u0627\u0646", "int_name": "Bayfat\u0101n, \u0628\u064a\u0641\u062a\u0627\u0646, Bayfatan, \u0628\u064a\u0641\u062a\u0627\u0646;Bayb\u0101l\u0101n, Be Palan, Biy\u0101l\u0101n, Biyatan, \u0628\u064a\u0628\u0627\u0644\u0627\u0646, Baybalan, Be Palan, Biyalan, Biyatan, \u0628\u064a\u0628\u0627\u0644\u0627\u0646", "is_in": "Iraq , \u062c\u0645\u0647\u0648\u0631\u064a\u0629 \u0627\u0644\u0639\u0631\u0627\u0642", "name": "\u0628\u06ce\u067e\u0627\u06b5\u0627\u0646", "name:ar": "\u0628\u06cc\u0628\u0627\u0644\u0627\u0646", "name:ar1": "\u0628\u064a\u0641\u062a\u0627\u0646;\u0628\u064a\u0628\u0627\u0644\u0627\u0646", "name:de": "Bepalan", "name:en": "Bepalan", "name:fr": "Bepalan", "place": "village"}}, {"type": "node", "id": 2488316020, "lat": 36.376917, "lon": 45.009194, "tags": {"alt_name": "\u0628\u064a\u0631\u0634", "int_name": "Berash, Bierash, Birash, B\u012br\u0113zh, Biya Rash, Biyarash, \u0628\u0631\u0634, \u0628\u064a\u0631\u0634, Berash, Bierash, Birash, Birezh, Biya Rash, Biyarash, \u0628\u0631\u0634, \u0628\u064a\u0631\u0634", "is_in": "Iraq , \u062c\u0645\u0647\u0648\u0631\u064a\u0629 \u0627\u0644\u0639\u0631\u0627\u0642", "name": "\u0628\u06cc\u06d5\u0695\u06d5\u0634", "name:ar": "\u0628\u064a\u0631\u0634", "name:ar1": "\u0628\u064a\u0631\u0634", "name:de": "Byarash", "name:en": "Byarash", "name:fr": "Byarash", "place": "village"}}, {"type": "node", "id": 2488317376, "lat": 36.166722, "lon": 45.014972, "tags": {"name": "\u0628\u06d5\u0631\u062f\u06d5\u06a9\u06c6\u0632", "name:ar": "\u0628\u0631\u062f\u0643\u0648\u0632", "name:ckb": "\u0628\u06d5\u0631\u062f\u06d5\u06a9\u06c6\u0632", "name:en": "Bardakoz", "name:ku": "Berdekoz", "place": "village", "wikidata": "Q61388511", "wikipedia": "ckb:\u0628\u06d5\u0631\u062f\u06d5\u06a9\u06c6\u0632"}}, {"type": "node", "id": 2488317503, "lat": 36.1073318, "lon": 45.0240648, "tags": {"name": "\u062f\u06ce\u0644\u06ce\u0698\u06d5", "name:ar": "\u062f\u06cc\u0644\u06cc\u0632\u0629", "name:en": "Delezha", "place": "village", "wikidata": "Q61388525", "wikipedia": "ckb:\u062f\u06ce\u0644\u06ce\u0698\u06d5\u060c \u0645\u06d5\u0631\u06af\u06d5"}}, {"type": "node", "id": 2488317556, "lat": 36.1751035, "lon": 45.0443134, "tags": {"alt_name": "\u0643\u0644\u064a \u0633\u0628\u064a", "int_name": "Kala Spi, Kelaspi Upper, K\u0113laspi Zh\u016br\u016b, Kala Spi, Kelaspi Upper, Kelaspi Zhuru", "is_in": "Iraq , \u062c\u0645\u0647\u0648\u0631\u064a\u0629 \u0627\u0644\u0639\u0631\u0627\u0642", "name": "\u06a9\u06ce\u0644\u06d5\u0633\u067e\u06cc", "name:ar1": "\u0643\u0644\u064a \u0633\u0628\u064a", "name:de": "Kela Spi", "name:en": "Kela Spi", "name:fr": "Kela Spi", "place": "village"}}, {"type": "node", "id": 2488317577, "lat": 36.15, "lon": 44.95, "tags": {"alt_name": "\u062e\u0631\u0642 \u0631\u0633\u0629", "int_name": "Kharq Risa, Kharq Risa", "is_in": "Iraq , \u062c\u0645\u0647\u0648\u0631\u064a\u0629 \u0627\u0644\u0639\u0631\u0627\u0642", "name": "\u062e\u0631\u0642 \u0631\u0633\u0629", "name:ar": "\u062e\u0631\u0642 \u0631\u0633\u0629", "name:ar1": "\u062e\u0631\u0642 \u0631\u0633\u0629", "name:de": "Kharq Risa", "name:en": "Kharq Risa", "name:fr": "Kharq Risa", "place": "hamlet"}}, {"type": "node", "id": 2488317818, "lat": 36.1057287, "lon": 45.0167002, "tags": {"alt_name": "\u0645\u0627\u0648\u0627\u0646\u062f\u0627\u0648\u0629", "int_name": "Mamandawa, Mamand\u0101wa, M\u0101w\u0101nd\u0101wah, Memendova, \u0645\u0627\u0648\u0627\u0646\u062f\u0627\u0648\u0647, Mamandawa, Mamandawa, Mawandawah, Memendova, \u0645\u0627\u0648\u0627\u0646\u062f\u0627\u0648\u0647", "name": "\u0645\u06d5\u0645\u06d5\u0646\u062f\u0627\u0648\u0627", "name:de": "Mamandawa", "name:en": "Mamandawa", "name:fr": "Mamandawa", "place": "village", "wikidata": "Q61385122", "wikipedia": "ckb:\u0645\u06d5\u0645\u06d5\u0646\u062f\u0626\u0627\u0648\u0627"}}, {"type": "node", "id": 2488317989, "lat": 36.103961, "lon": 45.0289463, "tags": {"alt_name": "\u0642\u0631\u0629 \u062a\u0628\u0629", "int_name": "Qarah Tappah, Qare Tepe, Qarah Tappah, Qare Tepe", "name": "\u0642\u06d5\u0631\u06d5\u062a\u06d5\u067e\u06d5", "name:ar": "\u0642\u0631\u06d5\u062a\u067e\u0629", "name:de": "Qara Tappa", "name:en": "Qara Tappa", "name:fr": "Qara Tappa", "place": "village", "wikidata": "Q61388640", "wikipedia": "ckb:\u0642\u06d5\u0631\u06d5\u062a\u06d5\u067e\u06d5\u060c \u0645\u06d5\u0631\u06af\u06d5"}}, {"type": "node", "id": 2488318133, "lat": 36.3531376, "lon": 45.0780594, "tags": {"alt_name": "\u0633\u0648\u064a\u0633", "int_name": "Sawi, Say Ways\u012b, Sewais, Suways, \u0633\u0648\u064a\u0633, Sawi, Say Waysi, Sewais, Suways, \u0633\u0648\u064a\u0633", "is_in": "Iraq , \u062c\u0645\u0647\u0648\u0631\u064a\u0629 \u0627\u0644\u0639\u0631\u0627\u0642", "name": "\u0633\u06ce\u0648\u06d5\u06cc\u0633", "name:ar": "\u0633\u06cc\u0648\u06cc\u0633", "name:ar1": "\u0633\u0648\u064a\u0633", "name:de": "Seways", "name:en": "Seways", "name:fr": "Seways", "place": "village"}}, {"type": "node", "id": 2488318147, "lat": 36.0905765, "lon": 45.0306032, "tags": {"name": "\u0633\u06ce\u0648\u06a9\u0627\u0646", "name:ar": "\u0633\u06cc\u0648\u06a9\u0627\u0646", "name:de": "Saywakan", "name:en": "Saywakan", "name:fr": "Saywakan", "place": "village", "wikidata": "Q61388635", "wikipedia": "ckb:\u0633\u06ce\u0648\u06a9\u0627\u0646"}}, {"type": "node", "id": 2488318245, "lat": 36.3611519, "lon": 45.0746484, "tags": {"alt_name": "\u0634\u064a\u062e\u0627\u0646", "int_name": "Shaykh\u0101n, Shekh\u0101n, \u0634\u064a\u062e\u0627\u0646, Shaykhan, Shekhan, \u0634\u064a\u062e\u0627\u0646", "is_in": "Iraq , \u062c\u0645\u0647\u0648\u0631\u064a\u0629 \u0627\u0644\u0639\u0631\u0627\u0642", "name": "\u0634\u06ce\u062e\u0627\u0646", "name:ar": "\u0634\u064a\u062e\u0627\u0646", "name:ar1": "\u0634\u064a\u062e\u0627\u0646", "name:de": "Shaykhan", "name:en": "Shaykhan", "name:fr": "Shaykhan", "place": "village"}}, {"type": "node", "id": 3307644263, "lat": 36.2529769, "lon": 45.004966}, {"type": "node", "id": 3307644265, "lat": 36.2407291, "lon": 45.0037214}, {"type": "node", "id": 3307644266, "lat": 36.2440182, "lon": 45.0106029}, {"type": "node", "id": 3307644267, "lat": 36.256922, "lon": 45.0055989}, {"type": "node", "id": 3307644278, "lat": 36.2611006, "lon": 45.008131}, {"type": "node", "id": 3307644280, "lat": 36.2562697, "lon": 45.0103454}, {"type": "node", "id": 3307644282, "lat": 36.2423222, "lon": 45.0036935}, {"type": "node", "id": 3307644291, "lat": 36.2451253, "lon": 45.0010836}, {"type": "node", "id": 3307644295, "lat": 36.2583236, "lon": 45.0117144}, {"type": "node", "id": 3307644296, "lat": 36.2609751, "lon": 45.0101051}, {"type": "node", "id": 3307644299, "lat": 36.2494096, "lon": 45.0045994}, {"type": "node", "id": 3307644301, "lat": 36.2494987, "lon": 45.0110707}, {"type": "node", "id": 3307644303, "lat": 36.2438832, "lon": 45.0010285}, {"type": "node", "id": 3307644306, "lat": 36.2509696, "lon": 45.0101051}, {"type": "node", "id": 3307644307, "lat": 36.2407162, "lon": 45.0085923}, {"type": "node", "id": 3315747711, "lat": 36.2343069, "lon": 44.7938749, "tags": {"addr:city": "\u0633\u0644\u06ce\u0645\u0627\u0646\u06cc", "capital": "7", "name": "\u062d\u0627\u062c\u06cc\u0627\u0648\u0627", "name:ar": "\u062d\u0627\u062c\u064a\u0627\u0648\u0627", "name:ckb": "\u062d\u0627\u062c\u06cc\u0627\u0648\u0627", "name:en": "Hajiawa", "name:ku": "Haciyawa", "place": "town", "population": "70,000"}}, {"type": "node", "id": 4957365228, "lat": 36.2444146, "lon": 44.7666966}, {"type": "node", "id": 4957365229, "lat": 36.2425711, "lon": 44.7640943}, {"type": "node", "id": 4957365230, "lat": 36.2410883, "lon": 44.7639723}, {"type": "node", "id": 4957365231, "lat": 36.2387257, "lon": 44.764561}, {"type": "node", "id": 4957365232, "lat": 36.2367424, "lon": 44.7651562}, {"type": "node", "id": 4957365233, "lat": 36.2354628, "lon": 44.7656194}, {"type": "node", "id": 4957365234, "lat": 36.2312945, "lon": 44.7679599}, {"type": "node", "id": 4957365235, "lat": 36.2290985, "lon": 44.7693191}, {"type": "node", "id": 4957365236, "lat": 36.2266562, "lon": 44.771144}, {"type": "node", "id": 4957365237, "lat": 36.2244959, "lon": 44.7729386}, {"type": "node", "id": 4957365238, "lat": 36.2232909, "lon": 44.7739816}, {"type": "node", "id": 4957365239, "lat": 36.2219124, "lon": 44.7752645}, {"type": "node", "id": 4957365240, "lat": 36.21762, "lon": 44.7791171}, {"type": "node", "id": 4957365241, "lat": 36.2151511, "lon": 44.7818643}, {"type": "node", "id": 4957365242, "lat": 36.217718, "lon": 44.7958148}, {"type": "node", "id": 4957365243, "lat": 36.2193715, "lon": 44.7977845}, {"type": "node", "id": 4957365244, "lat": 36.2234496, "lon": 44.8079093}, {"type": "node", "id": 4957365245, "lat": 36.2299428, "lon": 44.8051214}, {"type": "node", "id": 4957365246, "lat": 36.2359833, "lon": 44.8032331}, {"type": "node", "id": 4957365247, "lat": 36.2560354, "lon": 44.8030538}, {"type": "node", "id": 4957365248, "lat": 36.2578387, "lon": 44.7762474}, {"type": "node", "id": 4957365249, "lat": 36.2520864, "lon": 44.7745442}, {"type": "node", "id": 4957365250, "lat": 36.2500704, "lon": 44.7681498}, {"type": "node", "id": 5255183807, "lat": 36.2426926, "lon": 45.0118819}, {"type": "node", "id": 5259189480, "lat": 36.2596299, "lon": 45.0116929}, {"type": "node", "id": 5259189481, "lat": 36.2590848, "lon": 45.0069937}, {"type": "node", "id": 5259192850, "lat": 36.2536067, "lon": 45.0103808}, {"type": "node", "id": 5259192908, "lat": 36.2504742, "lon": 45.0105423}, {"type": "node", "id": 5259192963, "lat": 36.2491068, "lon": 45.0114773}, {"type": "node", "id": 5259193217, "lat": 36.2436608, "lon": 45.0012988}, {"type": "node", "id": 5259193239, "lat": 36.2478774, "lon": 45.0013985}, {"type": "node", "id": 5274677083, "lat": 36.2430512, "lon": 44.7663279}, {"type": "node", "id": 5276691571, "lat": 36.256481, "lon": 44.7726076}, {"type": "node", "id": 5385211887, "lat": 36.2160181, "lon": 44.7911409}, {"type": "node", "id": 5385211888, "lat": 36.216331, "lon": 44.7876968}, {"type": "node", "id": 5385211892, "lat": 36.2160277, "lon": 44.7913615}, {"type": "node", "id": 5434956760, "lat": 36.4501638, "lon": 44.8755026, "tags": {"place": "hamlet"}}, {"type": "node", "id": 5437538046, "lat": 36.5165518, "lon": 44.8299265, "tags": {"name": "\u0633\u06d5\u0631\u0646\u06ce\u06b5", "name:ar": "\u0633\u0631\u0646\u064a\u0644", "name:ckb": "\u0633\u06d5\u0631\u0646\u06ce\u06b5", "name:en": "Sarnell", "name:ku": "Sern\u00eall", "place": "village", "wikipedia": "ckb: \u0633\u06d5\u0631\u0646\u06ce\u06b5"}}, {"type": "node", "id": 5446893337, "lat": 36.5166682, "lon": 44.5925778, "tags": {"place": "hamlet"}}, {"type": "node", "id": 5446893456, "lat": 36.475631, "lon": 44.6420538, "tags": {"place": "hamlet"}}, {"type": "node", "id": 5446893497, "lat": 36.4702346, "lon": 44.6731836, "tags": {"place": "hamlet"}}, {"type": "node", "id": 5454015745, "lat": 36.4402797, "lon": 44.9762061, "tags": {"place": "hamlet"}}, {"type": "node", "id": 5454047213, "lat": 36.4319178, "lon": 44.9140835, "tags": {"fixme": "name", "name": "\u062e\u06ce\u0648\u0628\u06cc\u0627\u0646", "name:ar": "\u062e\u06cc\u0648\u0628\u06cc\u0627\u0646", "name:en": "Khewbyan", "place": "village"}}, {"type": "node", "id": 5502937766, "lat": 36.5146609, "lon": 44.5730931, "tags": {"name": "\u06af\u06d5\u0631\u06d5\u0648\u0627\u0646\u06cc \u0633\u06d5\u0631\u0648\u0648", "name:en": "Garawan Upper", "place": "village", "population": "211"}}, {"type": "node", "id": 6205753608, "lat": 36.2348756, "lon": 44.792163, "tags": {"name": "\u062d\u0627\u062c\u06cc\u0627\u0648\u06d5", "name:ar": "\u062d\u0627\u062c\u064a\u0627\u0648\u0629", "name:ckb": "\u062d\u0627\u062c\u06cc\u0627\u0648\u06d5", "name:en": "Hajiawa", "name:ku": "Haciyawe", "place": "town"}}, {"type": "node", "id": 6697029652, "lat": 36.390897, "lon": 44.7241801, "tags": {"name": "\u0634\u06d5\u06a9\u06d5\u06b5\u06d5", "name:ar": "\u0634\u06a9\u0644\u0629", "name:en": "Shakala", "place": "village", "wikidata": "Q61389326", "wikipedia": "ckb:\u0634\u06d5\u06a9\u06d5\u06b5\u06d5"}}, {"type": "node", "id": 6710549157, "lat": 36.3420414, "lon": 44.5760716, "tags": {"name": "\u0686\u06ce\u0648\u06d5\u06cc \u0633\u06d5\u0631\u0648\u0648", "place": "village"}}, {"type": "node", "id": 6710556706, "lat": 36.3592622, "lon": 44.5631424, "tags": {"name": "\u0686\u06ce\u0648\u06d5\u06cc \u062e\u0648\u0627\u0631\u0648\u0648", "place": "village"}}, {"type": "node", "id": 7301506372, "lat": 36.1683281, "lon": 44.6981476, "tags": {"name": "\u06af\u06d5\u0644\u06cc \u06af\u0648\u06b5\u0627\u0646", "name:ar": "\u06af\u06d5\u0644\u06cc \u06af\u0648\u06b5\u0627\u0646", "name:ckb": "\u06af\u06d5\u0644\u06cc \u06af\u0648\u06b5\u0627\u0646", "name:en": "Galigulan", "place": "village"}}, {"type": "node", "id": 7301509341, "lat": 36.1569717, "lon": 44.6964677, "tags": {"name": "\u062f\u0627\u0631\u0648\u0642\u06d5\u0628\u0631\u0627\u0646", "name:ar": "\u062f\u0627\u0631\u0648\u0642\u0628\u0631\u0627\u0646", "name:en": "Daruqabran", "place": "village"}}, {"type": "node", "id": 7301536754, "lat": 36.1830602, "lon": 44.6953044, "tags": {"name": "\u0646\u06ce\u0648\u0644\u0627\u0646\u06a9\u06d5", "name:ar": "\u0646\u06cc\u0648\u0644\u0627\u0646\u06a9\u0629", "name:en": "Newlanka", "place": "village"}}, {"type": "node", "id": 7309162027, "lat": 36.1473755, "lon": 44.7466948, "tags": {"name": "\u062f\u06d5\u0631\u0645\u0627\u0646\u0627\u0648\u0627", "name:ar": "\u062f\u06d5\u0631\u0645\u0627\u0646\u0627\u0648\u0627", "name:ckb": "\u062f\u06d5\u0631\u0645\u0627\u0646\u0627\u0648\u0627", "name:en": "Darmanawa", "place": "village"}}, {"type": "node", "id": 7312265981, "lat": 36.4857745, "lon": 44.828015, "tags": {"name": "\u06a9\u06c6\u0632\u06cc\u0646\u06d5", "name:ar": "\u06a9\u0648\u0632\u06cc\u0646\u0629", "name:en": "Kozyna", "place": "village"}}, {"type": "node", "id": 7312478224, "lat": 36.2387505, "lon": 44.9700043, "tags": {"name": "\u0628\u0627\u0646\u0648\u06d5\u0642\u06d5\u0644", "name:ar": "\u0628\u0627\u0646\u0648\u0629\u0642\u0644", "name:en": "Banwaqal", "place": "village"}}, {"type": "node", "id": 7312505031, "lat": 36.4030871, "lon": 45.0083444, "tags": {"name": "\u0628\u0695\u06d5\u062f\u06ce", "name:ar": "\u0628\u0631\u062f\u06cc", "name:en": "Brade", "place": "village"}}, {"type": "node", "id": 7312521848, "lat": 36.4069767, "lon": 45.0108212, "tags": {"name": "\u0628\u06ce \u0626\u0627\u0648\u0627", "name:ar": "\u0628\u064a \u0622\u0648\u0627", "name:en": "Be Awa", "place": "village"}}, {"type": "node", "id": 7312521869, "lat": 36.4128337, "lon": 45.0127939, "tags": {"name": "\u0628\u06ce \u06a9\u0648\u0695\u06d5", "name:ar": "\u0628\u064a \u06a9\u0648\u0631\u0629", "name:en": "Bekura", "place": "village"}}, {"type": "node", "id": 7312568849, "lat": 36.5000136, "lon": 44.8113338, "tags": {"name": "\u067e\u0631\u062f\u06d5\u0634\u0627\u06b5", "name:ar": "\u0628\u0631\u062f\u0629\u0634\u0627\u0644", "name:en": "Prdashal", "place": "village"}}, {"type": "node", "id": 7312595576, "lat": 36.3132855, "lon": 44.8784946, "tags": {"name": "\u062d\u0627\u062c\u06cc \u0648\u0633\u0648", "name:ar": "\u062d\u0627\u062c\u064a \u0648\u0633\u0648", "name:en": "Haji Wsw", "place": "village", "wikidata": "Q61390150", "wikipedia": "ckb:\u062d\u0627\u062c\u06cc \u0648\u0633\u0648"}}, {"type": "node", "id": 7312774433, "lat": 36.2213076, "lon": 45.0049713, "tags": {"name": "\u062e\u0695\u06d5\u0686\u06d5\u0648", "name:ar": "\u062e\u0631\u062c\u0648", "name:ckb": "\u062e\u0695\u06d5\u0686\u06d5\u0648", "name:en": "Khrachaw", "name:ku": "Xire\u00e7ew", "place": "village", "wikidata": "Q61389959", "wikipedia": "ckb:\u062e\u0695\u06d5\u0686\u06d5\u0648"}}, {"type": "node", "id": 7312817127, "lat": 36.3799441, "lon": 45.0250267, "tags": {"name": "\u062e\u0695\u06d5\u06cc\u0627\u0633", "name:ar": "\u062e\u0631\u0629\u06cc\u0627\u0633", "name:en": "Khrayas", "place": "village"}}, {"type": "node", "id": 7312830582, "lat": 36.3571218, "lon": 45.0806667, "tags": {"name": "\u062e\u0648\u0627\u0631\u0627\u0646", "name:ar": "\u062e\u0648\u0627\u0631\u0627\u0646", "name:en": "Khwaran", "place": "village"}}, {"type": "node", "id": 7312861434, "lat": 36.2959082, "lon": 44.9301007, "tags": {"name": "\u0695\u06d5\u0633\u0648\u0627\u062c\u06cc\u0646", "name:ar": "\u0631\u0633\u0648\u0627\u062c\u06cc\u0646", "name:en": "Raswajin", "place": "village"}}, {"type": "node", "id": 7312914319, "lat": 36.2610173, "lon": 45.0218289, "tags": {"name": "\u0632\u0648\u0648\u0631\u06a9\u0627\u0646\u06cc \u062d\u0627\u062c\u06cc \u0645\u0648\u0633\u0627", "name:ar": "\u0632\u0648\u0631\u06a9\u0627\u0646 \u062d\u0627\u062c\u064a \u0645\u0648\u0633\u06cc", "name:en": "Zurkan Haji Musa", "place": "village", "population": "100"}}, {"type": "node", "id": 7312928053, "lat": 36.346905, "lon": 44.9544709, "tags": {"name": "\u0632\u06ce\u0646\u0648\u06ce\u06cc \u0645\u0627\u062e\u0648\u0628\u0632\u0646\u0627\u0646", "name:ar": "\u0632\u06cc\u0646\u0648\u06cc\u064a \u0645\u0627\u062e\u0648\u0628\u0632\u0646\u0627\u0646", "name:en": "Zenwei Makhu Bznan", "place": "village"}}, {"type": "node", "id": 7319434327, "lat": 36.2422763, "lon": 45.0247335, "tags": {"name": "\u06a9\u06d5\u0646\u062c\u0627\u0695\u06d5\u06cc \u06a9\u0648\u06ce\u062e\u0627 \u0642\u0627\u062f\u0631", "name:ar": "\u06a9\u0646\u062c\u0627\u0631\u0629 \u06a9\u0648\u06cc\u062e\u0627 \u0642\u0627\u062f\u0631", "name:en": "Kanjara Kuikha Qadr", "place": "village"}}, {"type": "node", "id": 7319434328, "lat": 36.2413274, "lon": 45.0236266}, {"type": "node", "id": 7319434329, "lat": 36.2413667, "lon": 45.0252528}, {"type": "node", "id": 7319434330, "lat": 36.2413274, "lon": 45.0263098}, {"type": "node", "id": 7319434331, "lat": 36.2413011, "lon": 45.0267977}, {"type": "node", "id": 7319434332, "lat": 36.2420618, "lon": 45.0273668}, {"type": "node", "id": 7319434333, "lat": 36.2424028, "lon": 45.0277571}, {"type": "node", "id": 7319434334, "lat": 36.2419438, "lon": 45.029611}, {"type": "node", "id": 7319434335, "lat": 36.2424684, "lon": 45.0300501}, {"type": "node", "id": 7319434336, "lat": 36.2432553, "lon": 45.0290256}, {"type": "node", "id": 7319434337, "lat": 36.2432553, "lon": 45.0285377}, {"type": "node", "id": 7319434338, "lat": 36.2424684, "lon": 45.0280173}, {"type": "node", "id": 7319434339, "lat": 36.243098, "lon": 45.0261797}, {"type": "node", "id": 7319434340, "lat": 36.2434652, "lon": 45.025204}, {"type": "node", "id": 7319434341, "lat": 36.2438324, "lon": 45.0249926}, {"type": "node", "id": 7319434342, "lat": 36.2442652, "lon": 45.0251878}, {"type": "node", "id": 7319434343, "lat": 36.244698, "lon": 45.0242283}, {"type": "node", "id": 7319434344, "lat": 36.2451702, "lon": 45.023399}, {"type": "node", "id": 7319434345, "lat": 36.2456948, "lon": 45.023773}, {"type": "node", "id": 7319434346, "lat": 36.2466128, "lon": 45.0248625}, {"type": "node", "id": 7319434347, "lat": 36.2464292, "lon": 45.0256594}, {"type": "node", "id": 7319434348, "lat": 36.2474391, "lon": 45.0262123}, {"type": "node", "id": 7319434349, "lat": 36.2478063, "lon": 45.0247649}, {"type": "node", "id": 7319434350, "lat": 36.247321, "lon": 45.0245698}, {"type": "node", "id": 7319434351, "lat": 36.2471768, "lon": 45.0248788}, {"type": "node", "id": 7319434352, "lat": 36.2458522, "lon": 45.0236754}, {"type": "node", "id": 7319434353, "lat": 36.2454325, "lon": 45.02309}, {"type": "node", "id": 7319434354, "lat": 36.2447505, "lon": 45.0229436}, {"type": "node", "id": 7319434355, "lat": 36.2443964, "lon": 45.0232851}, {"type": "node", "id": 7319434356, "lat": 36.2439767, "lon": 45.0232526}, {"type": "node", "id": 7319434357, "lat": 36.2436882, "lon": 45.0234965}, {"type": "node", "id": 7319434358, "lat": 36.2432685, "lon": 45.0234477}, {"type": "node", "id": 7319434359, "lat": 36.243098, "lon": 45.0238218}, {"type": "node", "id": 7319434360, "lat": 36.2422979, "lon": 45.0232363}, {"type": "node", "id": 7319434361, "lat": 36.2417602, "lon": 45.0232689}, {"type": "node", "id": 7319434362, "lat": 36.2414061, "lon": 45.0234315}, {"type": "node", "id": 7319546361, "lat": 36.3806909, "lon": 45.0681999, "tags": {"name": "\u0648\u06d5\u0631\u062a\u06d5", "name:ar": "\u0648\u0631\u062a\u0629", "name:en": "Warta", "place": "village"}}, {"type": "node", "id": 7333054006, "lat": 36.272868, "lon": 45.0699347}, {"type": "node", "id": 7333054007, "lat": 36.2729113, "lon": 45.0696986}, {"type": "node", "id": 7333054008, "lat": 36.2733264, "lon": 45.069527}, {"type": "node", "id": 7333054009, "lat": 36.273707, "lon": 45.0694626}, {"type": "node", "id": 7333054010, "lat": 36.2738973, "lon": 45.0692051}, {"type": "node", "id": 7333054011, "lat": 36.2742519, "lon": 45.0692158}, {"type": "node", "id": 7333054012, "lat": 36.2744941, "lon": 45.0691085}, {"type": "node", "id": 7333054013, "lat": 36.2748228, "lon": 45.068776}, {"type": "node", "id": 7333054014, "lat": 36.274918, "lon": 45.068733}, {"type": "node", "id": 7333054015, "lat": 36.2751428, "lon": 45.0690764}, {"type": "node", "id": 7333054016, "lat": 36.2756445, "lon": 45.0692158}, {"type": "node", "id": 7333054017, "lat": 36.2756964, "lon": 45.0695913}, {"type": "node", "id": 7333054018, "lat": 36.2752466, "lon": 45.0696772}, {"type": "node", "id": 7333054019, "lat": 36.2750909, "lon": 45.0698918}, {"type": "node", "id": 7333054020, "lat": 36.2747882, "lon": 45.0700634}, {"type": "node", "id": 7333054021, "lat": 36.2745028, "lon": 45.0702994}, {"type": "node", "id": 7333054022, "lat": 36.2745114, "lon": 45.0704926}, {"type": "node", "id": 7333054023, "lat": 36.2747104, "lon": 45.0706213}, {"type": "node", "id": 7333054024, "lat": 36.2751169, "lon": 45.0706642}, {"type": "node", "id": 7333054025, "lat": 36.2753418, "lon": 45.0705033}, {"type": "node", "id": 7333054026, "lat": 36.2754975, "lon": 45.0704818}, {"type": "node", "id": 7333054027, "lat": 36.2756099, "lon": 45.0709539}, {"type": "node", "id": 7333054028, "lat": 36.2748747, "lon": 45.0710505}, {"type": "node", "id": 7333054029, "lat": 36.2744768, "lon": 45.0712007}, {"type": "node", "id": 7333054030, "lat": 36.2743298, "lon": 45.0711578}, {"type": "node", "id": 7333054031, "lat": 36.2743125, "lon": 45.071662}, {"type": "node", "id": 7333054032, "lat": 36.2749699, "lon": 45.0715225}, {"type": "node", "id": 7333054033, "lat": 36.2749699, "lon": 45.07178}, {"type": "node", "id": 7333054034, "lat": 36.2746325, "lon": 45.0718873}, {"type": "node", "id": 7333054035, "lat": 36.2744941, "lon": 45.0720804}, {"type": "node", "id": 7333054036, "lat": 36.2741309, "lon": 45.0719839}, {"type": "node", "id": 7333054037, "lat": 36.2737935, "lon": 45.07178}, {"type": "node", "id": 7333054038, "lat": 36.2734129, "lon": 45.0717264}, {"type": "node", "id": 7333054039, "lat": 36.2731275, "lon": 45.0716406}, {"type": "node", "id": 7333054040, "lat": 36.2727556, "lon": 45.0715333}, {"type": "node", "id": 7333054041, "lat": 36.2721501, "lon": 45.0713616}, {"type": "node", "id": 7333054042, "lat": 36.2724269, "lon": 45.0710612}, {"type": "node", "id": 7333054043, "lat": 36.2727123, "lon": 45.0710397}, {"type": "node", "id": 7333054044, "lat": 36.2727469, "lon": 45.0707822}, {"type": "node", "id": 7333054045, "lat": 36.2730324, "lon": 45.0706535}, {"type": "node", "id": 7333054046, "lat": 36.2732832, "lon": 45.0704282}, {"type": "node", "id": 7333054047, "lat": 36.2734043, "lon": 45.0702458}, {"type": "node", "id": 7333054048, "lat": 36.2734216, "lon": 45.0700312}, {"type": "node", "id": 7333090230, "lat": 36.2499209, "lon": 45.0405997}, {"type": "node", "id": 7333090231, "lat": 36.2499323, "lon": 45.041166}, {"type": "node", "id": 7333090232, "lat": 36.2504232, "lon": 45.0413925}, {"type": "node", "id": 7333090233, "lat": 36.2504232, "lon": 45.0406564}, {"type": "node", "id": 7333090234, "lat": 36.2513594, "lon": 45.0406281}, {"type": "node", "id": 7333090235, "lat": 36.2513708, "lon": 45.0411943}, {"type": "node", "id": 7333090236, "lat": 36.2519987, "lon": 45.0411802}, {"type": "node", "id": 7333090237, "lat": 36.2522384, "lon": 45.0413784}, {"type": "node", "id": 7333090238, "lat": 36.2526608, "lon": 45.0415058}, {"type": "node", "id": 7333090239, "lat": 36.253186, "lon": 45.0412934}, {"type": "node", "id": 7333090240, "lat": 36.2531403, "lon": 45.0404865}, {"type": "node", "id": 7333090241, "lat": 36.2539737, "lon": 45.0405148}, {"type": "node", "id": 7333090242, "lat": 36.2539737, "lon": 45.040175}, {"type": "node", "id": 7333090243, "lat": 36.2533458, "lon": 45.0399769}, {"type": "node", "id": 7333090244, "lat": 36.2532887, "lon": 45.0396371}, {"type": "node", "id": 7333090245, "lat": 36.2535171, "lon": 45.0390283}, {"type": "node", "id": 7333090246, "lat": 36.2536198, "lon": 45.0385045}, {"type": "node", "id": 7333090247, "lat": 36.2543048, "lon": 45.0384054}, {"type": "node", "id": 7333090248, "lat": 36.2543847, "lon": 45.0379666}, {"type": "node", "id": 7333090249, "lat": 36.2539737, "lon": 45.03791}, {"type": "node", "id": 7333090250, "lat": 36.2540422, "lon": 45.0376127}, {"type": "node", "id": 7333090251, "lat": 36.2543048, "lon": 45.037103}, {"type": "node", "id": 7333090252, "lat": 36.2545445, "lon": 45.0370606}, {"type": "node", "id": 7333090253, "lat": 36.2547158, "lon": 45.0360271}, {"type": "node", "id": 7333090254, "lat": 36.2544988, "lon": 45.0355316}, {"type": "node", "id": 7333090255, "lat": 36.2542249, "lon": 45.0348946}, {"type": "node", "id": 7333090256, "lat": 36.2524896, "lon": 45.035744}, {"type": "node", "id": 7333090257, "lat": 36.2521814, "lon": 45.0357864}, {"type": "node", "id": 7333090258, "lat": 36.2523869, "lon": 45.0341584}, {"type": "node", "id": 7333090259, "lat": 36.2527522, "lon": 45.0341726}, {"type": "node", "id": 7333090260, "lat": 36.252912, "lon": 45.0331533}, {"type": "node", "id": 7333090261, "lat": 36.2519188, "lon": 45.0329551}, {"type": "node", "id": 7333090262, "lat": 36.2518046, "lon": 45.0339319}, {"type": "node", "id": 7333090263, "lat": 36.2522384, "lon": 45.0341301}, {"type": "node", "id": 7333090264, "lat": 36.2519987, "lon": 45.0357581}, {"type": "node", "id": 7333090265, "lat": 36.252033, "lon": 45.0365368}, {"type": "node", "id": 7333090266, "lat": 36.2520786, "lon": 45.0370606}, {"type": "node", "id": 7333090267, "lat": 36.251542, "lon": 45.0375844}, {"type": "node", "id": 7333090268, "lat": 36.2511653, "lon": 45.0377825}, {"type": "node", "id": 7333090269, "lat": 36.2509941, "lon": 45.0379524}, {"type": "node", "id": 7333090270, "lat": 36.2511767, "lon": 45.0386036}, {"type": "node", "id": 7333090271, "lat": 36.2515991, "lon": 45.0388443}, {"type": "node", "id": 7333090272, "lat": 36.2516334, "lon": 45.0392832}, {"type": "node", "id": 7333090273, "lat": 36.2515877, "lon": 45.0394955}, {"type": "node", "id": 7333090274, "lat": 36.2516334, "lon": 45.0399769}, {"type": "node", "id": 7333090275, "lat": 36.2513594, "lon": 45.0405007}, {"type": "node", "id": 7333090276, "lat": 36.2511539, "lon": 45.0405007}, {"type": "node", "id": 7333090277, "lat": 36.2511996, "lon": 45.039807}, {"type": "node", "id": 7333090278, "lat": 36.2506858, "lon": 45.0398494}, {"type": "node", "id": 7333090279, "lat": 36.2507201, "lon": 45.0405431}, {"type": "node", "id": 7333122046, "lat": 36.2213366, "lon": 45.0417218, "tags": {"name": "\u0633\u0648\u06b5\u062a\u0627\u0646\u06d5\u062f\u06ce\u06cc \u062a\u0627\u0632\u06d5", "name:ar": "\u0633\u0648\u0644\u062a\u0627\u0646\u0629\u062f\u064a \u0627\u0644\u062c\u062f\u06cc\u062f", "name:en": "Sultanade New", "place": "village"}}, {"type": "node", "id": 7347304070, "lat": 36.3397102, "lon": 44.7145243, "tags": {"name": "\u0626\u0627\u0645\u0627\u0646\u062c", "name:ar": "\u0622\u0645\u0627\u0646\u062c", "name:en": "Amanj", "place": "village"}}, {"type": "node", "id": 7347340742, "lat": 36.3385602, "lon": 44.7078253, "tags": {"name": "\u0633\u06d5\u0631\u0626\u06d5\u0634\u06a9\u06d5\u0648\u062a\u0627\u0646", "name:ar": "\u0633\u0631\u0626\u0634\u06a9\u0629\u0648\u062a\u0627\u0646", "name:en": "Sar Ashkawtan", "place": "village"}}, {"type": "node", "id": 7347374479, "lat": 36.2960728, "lon": 44.7063233, "tags": {"name": "\u0634\u06a9\u0627\u0631\u062a\u06d5", "name:ar": "\u0634\u06a9\u0627\u0631\u062a\u0629", "name:ckb": "\u0634\u06a9\u0627\u0631\u062a\u06d5", "name:en": "Shkarta", "name:ku": "\u015eikarte", "place": "town", "wikipedia": "ckb:\u0634\u06a9\u0627\u0631\u062a\u06d5"}}, {"type": "node", "id": 7367036536, "lat": 36.2096771, "lon": 44.7149405, "tags": {"name": "\u06a9\u0648\u0646\u06d5\u06a9\u06c6\u062a\u0631", "name:ar": "\u06a9\u0648\u0646\u06d5\u06a9\u06c6\u062a\u0631", "name:en": "Kuna Kotr", "place": "village"}}, {"type": "node", "id": 7367037071, "lat": 36.2080644, "lon": 44.7282887, "tags": {"name": "\u0642\u0648\u0644\u06d5\u06cc \u06a9\u0627\u0646\u06cc\u0645\u0627\u0631\u0627\u0646", "name:ar": "\u0642\u0648\u0644\u06d5\u06cc \u06a9\u0627\u0646\u06cc\u0645\u0627\u0631\u0627\u0646", "name:en": "Qula Kanimaran", "place": "village"}}, {"type": "node", "id": 7367066716, "lat": 36.1911404, "lon": 44.7270057, "tags": {"name": "\u062f\u0648\u0648\u067e\u0634\u06a9\u06d5", "name:ar": "\u062f\u0648\u0628\u0634\u06a9\u0629", "name:ckb": "\u062f\u0648\u0648\u067e\u0634\u06a9\u06d5", "name:en": "Dupshka", "place": "village"}}, {"type": "node", "id": 7367084410, "lat": 36.2051065, "lon": 44.6885194, "tags": {"name": "\u0642\u0627\u0642\u0627", "name:ar": "\u0642\u0627\u0642\u0627", "name:ckb": "\u0642\u0627\u0642\u0627", "name:en": "Qaqa", "name:ku": "Qaqa", "place": "village", "wikipedia": "ckb:\u0642\u0627\u0642\u0627"}}, {"type": "node", "id": 7367135056, "lat": 36.2419004, "lon": 44.764592, "tags": {"name": "\u06a9\u0641\u0631\u06d5\u062f\u06c6\u06b5\u06cc \u062e\u0648\u0627\u0631\u0648\u0648", "name:ar": "\u06a9\u0641\u0631\u062f\u0648\u0644\u064a \u0627\u0644\u0633\u0641\u0644\u06cc", "name:en": "Kfradol Lower", "place": "village"}}, {"type": "node", "id": 7367158204, "lat": 36.2557569, "lon": 44.7744215, "tags": {"name": "\u062a\u0627\u0642\u06c6\u06b5\u0627\u0646", "name:ar": "\u062a\u0627\u0642\u0648\u0644\u0627\u0646", "name:en": "Taqolan", "place": "village"}}, {"type": "node", "id": 7367169675, "lat": 36.2856754, "lon": 44.7833725, "tags": {"name": "\u062f\u06c6\u06b5\u0646\u0627\u0631\u0627\u0646", "name:ckb": "\u062f\u06c6\u06b5\u0646\u0627\u0631\u0627\u0646", "name:en": "Dolnaran", "place": "village"}}, {"type": "node", "id": 7599833651, "lat": 36.5212934, "lon": 44.7865884, "tags": {"name": "\u06af\u06c6\u062c\u0627\u0631", "name:ckb": "\u06af\u06c6\u062c\u0627\u0631", "name:en": "Gojar", "name:ku": "Gocar", "place": "village"}}, {"type": "node", "id": 7630419339, "lat": 36.2256816, "lon": 44.7719292}, {"type": "node", "id": 7630461802, "lat": 36.2606807, "lon": 44.7839895}, {"type": "node", "id": 7630461803, "lat": 36.262914, "lon": 44.7895397}, {"type": "node", "id": 7630461804, "lat": 36.2681526, "lon": 44.7968115}, {"type": "node", "id": 7630461805, "lat": 36.2639722, "lon": 44.8077988}, {"type": "node", "id": 7630461806, "lat": 36.2595436, "lon": 44.8041426}, {"type": "node", "id": 7630461807, "lat": 36.2678451, "lon": 44.8025197}, {"type": "node", "id": 7630535843, "lat": 36.2164037, "lon": 44.7941734}, {"type": "node", "id": 7630535844, "lat": 36.2169227, "lon": 44.7949789}, {"type": "node", "id": 7630535845, "lat": 36.2165944, "lon": 44.7944211}, {"type": "node", "id": 8355222722, "lat": 36.4072993, "lon": 44.5499718}, {"type": "node", "id": 8355222723, "lat": 36.40739, "lon": 44.5527774}, {"type": "node", "id": 8355222724, "lat": 36.4090133, "lon": 44.5502454}, {"type": "node", "id": 8367113417, "lat": 36.4661064, "lon": 44.5816792}, {"type": "node", "id": 8367113418, "lat": 36.4649487, "lon": 44.5809847}, {"type": "node", "id": 8367113419, "lat": 36.4647049, "lon": 44.5816603}, {"type": "node", "id": 8367113420, "lat": 36.4639686, "lon": 44.583624}, {"type": "node", "id": 8367113421, "lat": 36.4634507, "lon": 44.5853603}, {"type": "node", "id": 8367113422, "lat": 36.4622523, "lon": 44.5876082}, {"type": "node", "id": 8367113423, "lat": 36.4608304, "lon": 44.589616}, {"type": "node", "id": 8367113424, "lat": 36.4589006, "lon": 44.5917439}, {"type": "node", "id": 8367113425, "lat": 36.4576006, "lon": 44.5922111}, {"type": "node", "id": 8367113426, "lat": 36.4521538, "lon": 44.596507}, {"type": "node", "id": 8367113427, "lat": 36.4528224, "lon": 44.598201}, {"type": "node", "id": 8367113428, "lat": 36.4543259, "lon": 44.5975716}, {"type": "node", "id": 8367113429, "lat": 36.4554031, "lon": 44.5972154}, {"type": "node", "id": 8367113430, "lat": 36.4575851, "lon": 44.5950774}, {"type": "node", "id": 8367113431, "lat": 36.4611918, "lon": 44.5919589}, {"type": "node", "id": 8367113432, "lat": 36.4635584, "lon": 44.5889127}, {"type": "node", "id": 8367113433, "lat": 36.4654032, "lon": 44.5844079}, {"type": "node", "id": 8367113438, "lat": 36.4547793, "lon": 44.5976444}, {"type": "node", "id": 8367113439, "lat": 36.455541, "lon": 44.5961547}, {"type": "node", "id": 8373134060, "lat": 36.4669535, "lon": 44.577692}, {"type": "node", "id": 8373134061, "lat": 36.4663849, "lon": 44.5769995}, {"type": "node", "id": 8373134062, "lat": 36.4673668, "lon": 44.5751663}, {"type": "node", "id": 8373134063, "lat": 36.4676394, "lon": 44.5742879}, {"type": "node", "id": 8373134064, "lat": 36.4682549, "lon": 44.5736574}, {"type": "node", "id": 8373134065, "lat": 36.4690492, "lon": 44.5724473}, {"type": "node", "id": 8373134066, "lat": 36.4694038, "lon": 44.573169}, {"type": "node", "id": 8373134067, "lat": 36.4688206, "lon": 44.5739234}, {"type": "node", "id": 8373134068, "lat": 36.4683047, "lon": 44.5750679}, {"type": "node", "id": 8373134069, "lat": 36.4680644, "lon": 44.575928}, {"type": "node", "id": 8373134070, "lat": 36.4700139, "lon": 44.5729864}, {"type": "node", "id": 8373134071, "lat": 36.4697344, "lon": 44.572014}, {"type": "node", "id": 8373134072, "lat": 36.4700609, "lon": 44.5714935}, {"type": "node", "id": 8373134073, "lat": 36.4704835, "lon": 44.572073}, {"type": "node", "id": 8373134098, "lat": 36.479165, "lon": 44.5519257}, {"type": "node", "id": 8373134099, "lat": 36.4797671, "lon": 44.5522492}, {"type": "node", "id": 8373134100, "lat": 36.4798635, "lon": 44.5538429}, {"type": "node", "id": 8373134101, "lat": 36.4795166, "lon": 44.5551011}, {"type": "node", "id": 8373134102, "lat": 36.4797334, "lon": 44.5554427}, {"type": "node", "id": 8373134103, "lat": 36.4795022, "lon": 44.5562036}, {"type": "node", "id": 8373134104, "lat": 36.4785435, "lon": 44.5555984}, {"type": "node", "id": 8373134105, "lat": 36.4765153, "lon": 44.5567308}, {"type": "node", "id": 8373134106, "lat": 36.4764189, "lon": 44.5557722}, {"type": "node", "id": 8373134107, "lat": 36.4767465, "lon": 44.5552869}, {"type": "node", "id": 8373134108, "lat": 36.4780328, "lon": 44.5546758}, {"type": "node", "id": 8373134112, "lat": 36.4808232, "lon": 44.5468308}, {"type": "node", "id": 8373134113, "lat": 36.4815651, "lon": 44.5468787}, {"type": "node", "id": 8373134114, "lat": 36.4812857, "lon": 44.548095}, {"type": "node", "id": 8373134115, "lat": 36.4815362, "lon": 44.5485084}, {"type": "node", "id": 8373134116, "lat": 36.480009, "lon": 44.5507911}, {"type": "node", "id": 8373170117, "lat": 36.4793972, "lon": 44.5504616}, {"type": "node", "id": 8373170118, "lat": 36.4794309, "lon": 44.5498325}, {"type": "node", "id": 8373170119, "lat": 36.4799416, "lon": 44.5491195}, {"type": "node", "id": 8373170120, "lat": 36.4800813, "lon": 44.5486821}, {"type": "node", "id": 9209914819, "lat": 36.4843194, "lon": 44.5449296, "tags": {"admin_level": "9", "name": "\u0626\u06cc\u06ce", "place": "village"}}, {"type": "node", "id": 9309967989, "lat": 36.3161318, "lon": 44.802081, "tags": {"name": "\u067e\u0627\u0634\u06a9\u06c6\u062a\u06d5\u06b5", "name:ar": "\u0628\u0627\u0634\u06a9\u0648\u062a\u0644", "name:en": "Pashkotal", "place": "village", "wikidata": "Q61389287", "wikipedia": "ckb:\u067e\u0627\u0634\u06a9\u06c6\u062a\u06d5\u06b5"}}, {"type": "node", "id": 9309993760, "lat": 36.3731651, "lon": 44.5973625, "tags": {"name": "\u0645\u06cc\u0631\u0627\u0646\u06c6\u06a9", "place": "village"}}, {"type": "node", "id": 9310002116, "lat": 36.3723335, "lon": 44.5865288, "tags": {"name": "\u0632\u06cc\u062e\u0627\u0646", "place": "village"}}, {"type": "node", "id": 9310006397, "lat": 36.267192, "lon": 44.5519847, "tags": {"name": "\u06a9\u06c6\u0644\u06a9\u06d5 \u0695\u06d5\u0634", "name:ar": "\u06a9\u0648\u0644\u06a9\u0629\u0631\u0634", "name:en": "Kolkarash", "place": "village"}}, {"type": "node", "id": 9310018439, "lat": 36.3669784, "lon": 44.5925853, "tags": {"name": "\u0645\u06ce\u0631\u06af\u06d5\u0633\u06d5\u0631", "place": "village"}}, {"type": "node", "id": 9310032036, "lat": 36.3203888, "lon": 44.7981949, "tags": {"name": "\u062a\u06c6\u067e\u0632\u0627\u0648\u0627", "name:ar": "\u062a\u0648\u0628\u0632\u0627\u0648\u0627", "name:en": "Topzawa", "place": "village", "wikidata": "Q61389293", "wikipedia": "ckb:\u062a\u06c6\u067e\u0632\u0627\u0648\u0627\u060c \u0633\u06d5\u0631\u06a9\u06d5\u067e\u06a9\u0627\u0646"}}, {"type": "node", "id": 10055339597, "lat": 36.2738918, "lon": 44.5427423, "tags": {"name": "\u06a9\u0627\u0645\u0648\u0633\u06d5\u06a9", "name:ar": "\u06a9\u0627\u0645\u0648\u0633\u06a9", "name:en": "Kamusak", "place": "village"}}, {"type": "node", "id": 10055363958, "lat": 36.299226, "lon": 44.5466507, "tags": {"name": "\u06a9\u0648\u0646\u06d5\u0641\u0644\u0648\u0633\u06d5", "name:ar": "\u06a9\u0648\u0646\u0629\u0641\u0644\u0648\u0633\u0629", "name:en": "Kunaflusa", "place": "village"}}, {"type": "node", "id": 10058580151, "lat": 36.109513, "lon": 44.6251212, "tags": {"name": "\u0641\u06d5\u0642\u06ce\u06cc\u0627\u0646", "name:ar": "\u0641\u0642\u06cc\u0627\u0646", "name:en": "Faq\u00eayan", "place": "village"}}, {"type": "node", "id": 10058597855, "lat": 36.1426291, "lon": 44.6203643, "tags": {"name": "\u0645\u06cc\u0631\u0633\u06d5\u06cc\u062f", "name:ar": "\u0645\u06cc\u0631\u0633\u06cc\u062f", "name:en": "Mirsaid", "place": "village"}}, {"type": "node", "id": 10750401834, "lat": 36.1963637, "lon": 44.9811721}, {"type": "node", "id": 10750401835, "lat": 36.1955579, "lon": 44.9819864}, {"type": "node", "id": 10750401836, "lat": 36.195777, "lon": 44.982316}, {"type": "node", "id": 10750401837, "lat": 36.1965202, "lon": 44.9815405}, {"type": "node", "id": 10750401838, "lat": 36.1968878, "lon": 44.9828588}, {"type": "node", "id": 10750401839, "lat": 36.1963402, "lon": 44.9835665}, {"type": "node", "id": 10750401840, "lat": 36.1965749, "lon": 44.9838379}, {"type": "node", "id": 10750401841, "lat": 36.1962698, "lon": 44.9842935}, {"type": "node", "id": 10750401842, "lat": 36.1967627, "lon": 44.9848655}, {"type": "node", "id": 10750401843, "lat": 36.1966923, "lon": 44.9852048}, {"type": "node", "id": 10750401844, "lat": 36.1973807, "lon": 44.9860288}, {"type": "node", "id": 10750401845, "lat": 36.1967705, "lon": 44.9869981}, {"type": "node", "id": 10750401846, "lat": 36.197279, "lon": 44.9879094}, {"type": "node", "id": 10750401847, "lat": 36.1969895, "lon": 44.9880839}, {"type": "node", "id": 10750401848, "lat": 36.1972555, "lon": 44.9886655}, {"type": "node", "id": 10750401849, "lat": 36.1976075, "lon": 44.9885104}, {"type": "node", "id": 10750401850, "lat": 36.1978266, "lon": 44.9883844}, {"type": "node", "id": 10750401851, "lat": 36.1981317, "lon": 44.9890242}, {"type": "node", "id": 10750401852, "lat": 36.1983429, "lon": 44.9891114}, {"type": "node", "id": 10750401853, "lat": 36.1985697, "lon": 44.9894507}, {"type": "node", "id": 10750401854, "lat": 36.1987966, "lon": 44.9891793}, {"type": "node", "id": 10750401855, "lat": 36.1989765, "lon": 44.9893732}, {"type": "node", "id": 10750401856, "lat": 36.2000873, "lon": 44.9890048}, {"type": "node", "id": 10750401857, "lat": 36.2005176, "lon": 44.9889175}, {"type": "node", "id": 10750401858, "lat": 36.2013311, "lon": 44.9887527}, {"type": "node", "id": 10750401859, "lat": 36.201748, "lon": 44.9887544}, {"type": "node", "id": 10750401860, "lat": 36.2014493, "lon": 44.9876976}, {"type": "node", "id": 10750401861, "lat": 36.2016658, "lon": 44.9872309}, {"type": "node", "id": 10750401862, "lat": 36.2012589, "lon": 44.9868071}, {"type": "node", "id": 10750401863, "lat": 36.2009342, "lon": 44.9871129}, {"type": "node", "id": 10750401864, "lat": 36.2003758, "lon": 44.9862599}, {"type": "node", "id": 10750401865, "lat": 36.1990771, "lon": 44.9849188}, {"type": "node", "id": 10750401866, "lat": 36.1991118, "lon": 44.9846935}, {"type": "node", "id": 10750401867, "lat": 36.1989429, "lon": 44.9845648}, {"type": "node", "id": 10750401868, "lat": 36.198826, "lon": 44.9847579}, {"type": "node", "id": 10750401869, "lat": 36.1983802, "lon": 44.9847794}, {"type": "node", "id": 10750401870, "lat": 36.1976875, "lon": 44.9841571}, {"type": "node", "id": 10750401871, "lat": 36.1972849, "lon": 44.9836046}, {"type": "node", "id": 10750401872, "lat": 36.1970165, "lon": 44.9830413}, {"type": "node", "id": 10750401873, "lat": 36.1964797, "lon": 44.9811155}, {"type": "node", "id": 11180578222, "lat": 36.0998319, "lon": 44.8256967, "tags": {"name": "\u0628\u0627\u0633\u06d5\u0631\u06ce", "name:ar": "\u0628\u0627\u0633\u0631\u06cc", "name:en": "Basare", "place": "village", "wikidata": "Q61388750", "wikipedia": "ckb:\u0628\u0627\u0633\u06d5\u0631\u06ce"}}, {"type": "node", "id": 11185188053, "lat": 36.1849612, "lon": 45.0621379, "tags": {"name": "\u0628\u0631\u0627\u06cc\u0645 \u0626\u0627\u0648\u0627", "name:ar": "\u0628\u0631\u0627\u06cc\u0645\u0627\u0648\u0627", "name:en": "Ibrahim Awa", "place": "village", "wikidata": "Q61389433", "wikipedia": "ckb:\u0628\u0631\u0627\u06cc\u0645 \u0626\u0627\u0648\u0627\u060c \u0642\u06d5\u06b5\u0627\u062f\u0632\u06ce"}}, {"type": "node", "id": 11185194274, "lat": 36.1735159, "lon": 45.0530384, "tags": {"name": "\u0633\u0646\u062f\u06c6\u06b5\u0627\u0646", "name:ar": "\u0633\u0646\u062f\u0648\u0644\u0627\u0646", "name:en": "Sndolan", "place": "village", "wikidata": "Q5988019", "wikipedia": "ckb:\u0633\u0646\u062f\u06c6\u06b5\u0627\u0646\u060c \u067e\u0634\u062f\u06d5\u0631"}}, {"type": "node", "id": 11195526776, "lat": 36.3077117, "lon": 44.9108301, "tags": {"name": "\u0645\u06d5\u0645\u06a9\u0627\u0646", "name:ar": "\u0645\u0645\u06a9\u0627\u0646", "name:en": "Mamkan", "place": "village", "wikidata": "Q61390019", "wikipedia": "ckb:\u0645\u06d5\u0645\u06a9\u0627\u0646"}}, {"type": "node", "id": 11195548626, "lat": 36.3011233, "lon": 44.9171601, "tags": {"name": "\u0632\u06d5\u0646\u06af\u0644\u0627\u0646", "name:ar": "\u0632\u0646\u06a9\u0644\u0627\u0646", "name:en": "Zanglan", "place": "village", "wikidata": "Q61390179", "wikipedia": "ckb:\u0632\u06d5\u0646\u06af\u0644\u0627\u0646"}}, {"type": "node", "id": 11200633679, "lat": 36.2172549, "lon": 45.0620695, "tags": {"name": "\u062a\u06c6\u067e\u0632\u0627\u0648\u0627", "name:ar": "\u0637\u0648\u0628\u0632\u0627\u0648\u0629", "name:en": "Topzawa", "place": "village", "wikidata": "Q61389818", "wikipedia": "ckb:\u062a\u06c6\u067e\u0632\u0627\u0648\u0627\u060c \u0698\u0627\u0631\u0627\u0648\u06d5"}}, {"type": "node", "id": 11224573355, "lat": 36.2073411, "lon": 44.7924152, "tags": {"name": "\u06af\u0631\u062f\u062c\u0627\u0646", "name:ar": "\u0643\u0631\u062f\u062c\u0627\u0646", "name:ckb": "\u06af\u0631\u062f\u062c\u0627\u0646", "name:en": "Grdjan", "name:ku": "Girdcan", "place": "village", "wikidata": "Q61388897", "wikipedia": "ckb:\u06af\u0631\u062f\u062c\u0627\u0646"}}, {"type": "node", "id": 11342830564, "lat": 36.3501646, "lon": 44.801438, "tags": {"name": "\u0633\u0627\u0631\u062a\u06a9\u06d5\u06cc \u0633\u06d5\u0631\u0648\u0648", "name:ar": "\u0633\u0627\u0631\u062a\u06a9\u0629 \u0639\u0644\u06cc\u0627", "name:en": "Upper Sartka", "place": "village", "wikidata": "Q61389213", "wikipedia": "ckb:\u0633\u0627\u0631\u062a\u06a9\u06d5\u06cc \u0633\u06d5\u0631\u0648\u0648"}}, {"type": "node", "id": 11342880403, "lat": 36.3458302, "lon": 44.7812345, "tags": {"name": "\u0633\u0627\u0631\u062a\u06a9\u06d5\u06cc \u062e\u0648\u0627\u0631\u0648\u0648", "name:ar": "\u0633\u0627\u0631\u062a\u06a9\u0629 \u0633\u0641\u0644\u06cc", "name:en": "Lower Sartka", "place": "village", "wikidata": "Q61389206", "wikipedia": "ckb:\u0633\u0627\u0631\u062a\u06a9\u06d5\u06cc \u062e\u0648\u0627\u0631\u0648\u0648"}}, {"type": "node", "id": 11342893245, "lat": 36.3425572, "lon": 44.7781769, "tags": {"name": "\u0642\u06d5\u06b5\u0627\u0633\u06d5\u06cc\u062f\u06d5\u06cc \u062e\u0648\u0627\u0631\u0648\u0648", "name:ar": "\u0642\u0644\u0627\u0633\u06cc\u062f\u0629 \u0627\u0644\u0633\u0641\u0644\u06cc", "name:en": "Lower Qalasayda", "place": "village", "wikidata": "Q61389342", "wikipedia": "ckb:\u0642\u06d5\u06b5\u0627\u0633\u06d5\u06cc\u062f\u06d5\u06cc \u062e\u0648\u0627\u0631\u0648\u0648"}}, {"type": "node", "id": 11342893364, "lat": 36.3386683, "lon": 44.7838203, "tags": {"name": "\u0633\u06c6\u0631\u06d5\u0628\u0646\u06d5", "name:ar": "\u0633\u0648\u0631\u0629\u0628\u0646\u0629", "name:en": "Sorabna", "place": "village", "wikidata": "Q61389252", "wikipedia": "ckb:\u0633\u06c6\u0631\u06d5\u0628\u0646\u06d5"}}, {"type": "node", "id": 11342903314, "lat": 36.3509408, "lon": 44.7703921, "tags": {"name": "\u0646\u06c6\u0631\u06d5\u06cc \u062e\u0648\u0627\u0631\u0648\u0648", "name:ar": "\u0646\u0648\u0631\u0629 \u0633\u0641\u0644\u06cc", "name:en": "Lower Nora", "place": "village", "wikidata": "Q61389249", "wikipedia": "ckb:\u0646\u06c6\u0631\u06d5\u06cc \u062e\u0648\u0627\u0631\u0648\u0648"}}, {"type": "node", "id": 11342905050, "lat": 36.3704841, "lon": 44.7590025, "tags": {"name": "\u062f\u0627\u0631\u06d5\u0628\u06d5\u0646", "name:ar": "\u062f\u0627\u0631\u0629\u0628\u0646", "name:en": "Daraban", "place": "village", "wikidata": "Q61389304", "wikipedia": "ckb:\u062f\u0627\u0631\u06d5\u0628\u06d5\u0646\u060c \u0633\u06d5\u0631\u06a9\u06d5\u067e\u06a9\u0627\u0646"}}, {"type": "node", "id": 11342905477, "lat": 36.3401351, "lon": 44.770407, "tags": {"name": "\u0642\u06d5\u06b5\u0627\u0633\u06d5\u06cc\u062f\u06d5\u06cc \u0633\u06d5\u0631\u0648\u0648", "name:ar": "\u0642\u0644\u0627\u0633\u06cc\u062f\u0629 \u0639\u0644\u06cc\u0627", "name:en": "Upper Qalasayda", "place": "village", "wikidata": "Q61389344", "wikipedia": "ckb:\u0642\u06d5\u06b5\u0627\u0633\u06d5\u06cc\u062f\u06d5\u06cc \u0633\u06d5\u0631\u0648\u0648"}}, {"type": "node", "id": 11342907890, "lat": 36.350979, "lon": 44.7769827, "tags": {"name": "\u062f\u06ce\u0631\u06d5", "name:ar": "\u062f\u06cc\u0631\u0629", "name:en": "Dera", "place": "village", "wikidata": "Q61389311", "wikipedia": "ckb:\u062f\u06ce\u0631\u06d5"}}, {"type": "node", "id": 11345738097, "lat": 36.3766135, "lon": 44.7554132, "tags": {"name": "\u0634\u06d5\u0645\u0627\u0645\u06a9", "name:ar": "\u0634\u0645\u0627\u0645\u06a9", "name:en": "Shamamk", "place": "village", "wikidata": "Q61389330", "wikipedia": "ckb:\u0634\u06d5\u0645\u0627\u0645\u06a9"}}, {"type": "node", "id": 11345742319, "lat": 36.3740253, "lon": 44.7589547, "tags": {"name": "\u0634\u06ce\u062e \u0626\u06d5\u0645\u06cc\u0631", "name:ar": "\u0634\u06cc\u062e \u0627\u0645\u06cc\u0631", "name:en": "Sheykh Amir", "place": "village", "wikidata": "Q61389264", "wikipedia": "ckb:\u0634\u06ce\u062e \u0626\u06d5\u0645\u06cc\u0631\u060c \u0633\u06d5\u0631\u06a9\u06d5\u067e\u06a9\u0627\u0646"}}, {"type": "node", "id": 11345756664, "lat": 36.3804946, "lon": 44.7564406, "tags": {"name": "\u0626\u0627\u0633\u0646\u06af\u06d5\u0631\u0627\u0646", "name:ar": "\u0622\u0633\u0646\u06a9\u0631\u0627\u0646", "name:en": "Asngaran", "place": "village", "wikidata": "Q61389272", "wikipedia": "ckb:\u0626\u0627\u0633\u0646\u06af\u06d5\u0631\u0627\u0646"}}, {"type": "node", "id": 11345762045, "lat": 36.380452, "lon": 44.7601013, "tags": {"name": "\u06a9\u06d5\u0648\u0628\u06ce\u0646\u06cc \u062e\u0648\u0627\u0631\u0648\u0648", "name:ar": "\u06a9\u0648\u0628\u06cc\u0646 \u0633\u0641\u0644\u06cc", "name:en": "Lower Kawben", "place": "village", "wikidata": "Q61389348", "wikipedia": "ckb:\u06a9\u06d5\u0648\u0628\u06ce\u0646\u06cc \u062e\u0648\u0627\u0631\u0648\u0648"}}, {"type": "node", "id": 11345763489, "lat": 36.349846, "lon": 44.7656225, "tags": {"name": "\u0646\u06c6\u0631\u06d5\u06cc \u0633\u06d5\u0631\u0648\u0648", "name:ar": "\u0646\u0648\u0631\u0629 \u0639\u0644\u06cc\u0627", "name:en": "Upper Nora", "place": "village", "wikidata": "Q61389253", "wikipedia": "ckb:\u0646\u06c6\u0631\u06d5\u06cc \u0633\u06d5\u0631\u0648\u0648"}}, {"type": "node", "id": 11345770164, "lat": 36.3965311, "lon": 44.7824809, "tags": {"name": "\u06a9\u06d5\u0646\u062c\u0627\u0695", "name:ar": "\u06a9\u0646\u062c\u0627\u0631", "name:en": "Kanjar", "place": "village", "wikidata": "Q61389233", "wikipedia": "ckb:\u06a9\u06d5\u0646\u062c\u0627\u0695"}}, {"type": "node", "id": 11345782787, "lat": 36.3834602, "lon": 44.7588946, "tags": {"name": "\u06a9\u06d5\u0648\u0628\u06ce\u0646\u06cc \u0633\u06d5\u0631\u0648\u0648", "name:ar": "\u06a9\u0648\u0628\u06cc\u0646\u064a \u0639\u0644\u06cc\u0627", "name:en": "Upper Kawbien", "place": "village", "wikidata": "Q61389235", "wikipedia": "ckb:\u06a9\u06d5\u0648\u0628\u06ce\u0646\u06cc \u0633\u06d5\u0631\u0648\u0648"}}, {"type": "node", "id": 11345782946, "lat": 36.3892605, "lon": 44.7650728, "tags": {"name": "\u0628\u0627\u0632\u06d5\u0633\u067e", "name:ar": "\u0628\u0627\u0632\u0633\u0628", "name:en": "Bazasp", "place": "village", "wikidata": "Q61389161", "wikipedia": "ckb:\u0628\u0627\u0632\u06d5\u0633\u067e"}}, {"type": "node", "id": 11345786309, "lat": 36.3893524, "lon": 44.7504278, "tags": {"name": "\u062f\u06c6\u06b5\u0627\u0648\u062f\u06c6\u06b5", "name:ar": "\u062f\u0648\u0644\u0627\u0648\u062f\u0648\u0644", "name:en": "Dolawdol", "place": "village", "wikidata": "Q61389199", "wikipedia": "ckb:\u062f\u06c6\u06b5\u0627\u0648\u062f\u06c6\u06b5"}}, {"type": "node", "id": 11345786324, "lat": 36.394223, "lon": 44.7766658, "tags": {"name": "\u0642\u06d5\u06b5\u0627\u062a", "name:ar": "\u0642\u0644\u0627\u062a", "name:en": "Qalat", "place": "village", "wikidata": "Q61389332", "wikipedia": "ckb:\u0642\u06d5\u06b5\u0627\u062a\u060c \u0633\u06d5\u0631\u06a9\u06d5\u067e\u06a9\u0627\u0646"}}, {"type": "node", "id": 11345802420, "lat": 36.3885229, "lon": 44.770876, "tags": {"name": "\u0633\u0695\u06ce", "name:ar": "\u0633\u0631\u064a", "name:en": "Sre", "place": "village", "wikidata": "Q61389217", "wikipedia": "ckb:\u0633\u0695\u06ce"}}, {"type": "node", "id": 11345809610, "lat": 36.3949193, "lon": 44.7927397, "tags": {"name": "\u0628\u0627\u0645\u06c6\u0644\u06d5\u06a9\u0627\u0646", "name:ar": "\u0628\u0627\u0645\u0648\u0644\u06a9\u0627\u0646", "name:en": "Bamolakan", "place": "village", "wikidata": "Q61389167", "wikipedia": "ckb:\u0628\u0627\u0645\u06c6\u0644\u06d5\u06a9\u0627\u0646"}}, {"type": "node", "id": 11345819679, "lat": 36.3925518, "lon": 44.7998143, "tags": {"name": "\u062f\u06d5\u0631\u0648\u06a9\u06d5", "name:ar": "\u062f\u0631\u0648\u06a9\u0629", "name:en": "Darwka", "place": "village", "wikidata": "Q61389193", "wikipedia": "ckb:\u062f\u06d5\u0631\u0648\u06a9\u06d5"}}, {"type": "node", "id": 11345872939, "lat": 36.3903562, "lon": 44.8076139, "tags": {"name": "\u062a\u0627\u06b5\u06cc\u0646\u06d5", "name:ar": "\u062a\u0627\u0644\u06cc\u0646\u0629", "name:en": "Talina", "place": "village", "wikidata": "Q61389211", "wikipedia": "ckb:\u062a\u0627\u06b5\u06cc\u0646\u06d5"}}, {"type": "node", "id": 11345881261, "lat": 36.3961663, "lon": 44.8036725, "tags": {"name": "\u0633\u067e\u06cc\u0627\u0648\u06d5", "name:ar": "\u0633\u0628\u06cc\u0627\u0648\u0629", "name:en": "Spiawa", "place": "village", "wikidata": "Q61389322", "wikipedia": "ckb:\u0633\u067e\u06cc\u0627\u0648\u06d5"}}, {"type": "node", "id": 11345881745, "lat": 36.3927388, "lon": 44.8027852, "tags": {"name": "\u0633\u0645\u0627\u06a9\u06d5", "name:ar": "\u0633\u0645\u0627\u06a9\u0629", "name:en": "Smaka", "place": "village", "wikidata": "Q61389325", "wikipedia": "ckb:\u0633\u0645\u0627\u06a9\u06d5"}}, {"type": "node", "id": 11345891450, "lat": 36.4088733, "lon": 44.7987667, "tags": {"name": "\u062e\u06d5\u0632\u06ce\u0646\u06d5", "name:ar": "\u062e\u0632\u06cc\u0646\u0629", "name:en": "Khazena", "place": "village", "wikidata": "Q61389302", "wikipedia": "ckb:\u062e\u06d5\u0632\u06ce\u0646\u06d5\u060c \u0633\u06d5\u0631\u06a9\u06d5\u067e\u06a9\u0627\u0646"}}, {"type": "node", "id": 11345895081, "lat": 36.3946476, "lon": 44.8018699, "tags": {"name": "\u0634\u06d5\u0631\u0648\u06d5", "name:ar": "\u0634\u0631\u0648\u0629", "name:en": "Shrwa", "place": "village", "wikidata": "Q61389223", "wikipedia": "ckb:\u0634\u06d5\u0631\u0648\u06d5"}}, {"type": "node", "id": 11345897751, "lat": 36.4048815, "lon": 44.7912902, "tags": {"name": "\u062f\u06d5\u0631\u0626\u06d5\u0634\u06a9\u06d5\u0648\u062a", "name:ar": "\u062f\u0631 \u0627\u0634\u06a9\u0648\u062a", "name:en": "Dar Ashkawt", "place": "village", "wikidata": "Q61389192", "wikipedia": "ckb:\u062f\u06d5\u0631\u0626\u06d5\u0634\u06a9\u06d5\u0648\u062a"}}, {"type": "node", "id": 11345900653, "lat": 36.4066942, "lon": 44.7969161, "tags": {"name": "\u0632\u06d5\u0648\u06cc \u0628\u06d5\u0644\u0627\u0633", "name:ar": "\u0632\u0648\u064a \u0628\u0644\u0627\u0633", "name:en": "Zawi Balas", "place": "village", "wikidata": "Q61389198", "wikipedia": "ckb:\u0632\u06d5\u0648\u06cc \u0628\u06d5\u0644\u0627\u0633"}}, {"type": "node", "id": 11345901457, "lat": 36.3991972, "lon": 44.7170416, "tags": {"name": "\u0628\u06ce \u0632\u06ce\u0648\u06d5", "name:ar": "\u0628\u064a \u0632\u06cc\u0648\u0629", "name:en": "Bezewa", "place": "village", "wikidata": "Q61389258", "wikipedia": "ckb:\u0628\u06ce \u0632\u06ce\u0648\u06d5"}}, {"type": "node", "id": 11345904206, "lat": 36.4063003, "lon": 44.7944245, "tags": {"name": "\u0686\u06c6\u0645", "name:ar": "\u062c\u0648\u0645", "name:en": "Chom", "place": "village", "wikidata": "Q61389180", "wikipedia": "ckb:\u0686\u06c6\u0645\u060c \u0633\u06d5\u0631\u06a9\u06d5\u067e\u06a9\u0627\u0646"}}, {"type": "node", "id": 11345911039, "lat": 36.410024, "lon": 44.8003366, "tags": {"name": "\u0645\u06d5\u062d\u0628\u0627\u0628", "name:ar": "\u0645\u062d\u0628\u0627\u0628", "name:en": "Mahbab", "place": "village", "wikidata": "Q61389245", "wikipedia": "ckb:\u0645\u06d5\u062d\u0628\u0627\u0628"}}, {"type": "node", "id": 11345915228, "lat": 36.4101576, "lon": 44.7522473, "tags": {"name": "\u062f\u06ce\u0645\u0627\u0646", "name:ar": "\u062f\u06cc\u0645\u0627\u0646", "name:en": "Deman", "place": "village", "wikidata": "Q97262208", "wikipedia": "ckb:\u062f\u06ce\u0645\u0627\u0646"}}, {"type": "node", "id": 11345915252, "lat": 36.4211169, "lon": 44.7540612, "tags": {"name": "\u0628\u06c6\u062a\u06ce", "name:ar": "\u0628\u0648\u062a\u064a", "name:en": "Bote", "place": "village", "wikidata": "Q61389283", "wikipedia": "ckb:\u0628\u06c6\u062a\u06ce"}}, {"type": "node", "id": 11345929901, "lat": 36.4036323, "lon": 44.7122901, "tags": {"name": "\u0645\u06ce\u062f\u06ce\u0631\u06d5", "name:ar": "\u0645\u06cc\u062f\u06cc\u0631\u0629", "name:en": "Mayd\u012brah", "place": "village", "wikidata": "Q61389362", "wikipedia": "ckb:\u0645\u06ce\u062f\u06ce\u0631\u06d5"}}, {"type": "node", "id": 11346207843, "lat": 36.3832453, "lon": 44.7456534, "tags": {"name": "\u067e\u0627\u0634\u062a\u06d5\u0644\u0627\u0646", "name:ar": "\u0628\u0627\u0634\u062a\u0644\u0627\u0646", "name:en": "Pashtalan", "place": "village", "wikidata": "Q61389173", "wikipedia": "ckb:\u067e\u0627\u0634\u062a\u06d5\u0644\u0627\u0646"}}, {"type": "node", "id": 11346219862, "lat": 36.3943239, "lon": 44.7237423, "tags": {"name": "\u062f\u06d5\u0646\u06af\u0627\u06b5\u06d5", "name:ar": "\u062f\u0646\u06a9\u0627\u0644\u0629", "name:en": "Dangala", "place": "village", "wikidata": "Q61389305", "wikipedia": "ckb:\u062f\u06d5\u0646\u06af\u0627\u06b5\u06d5"}}, {"type": "node", "id": 11346230134, "lat": 36.3715109, "lon": 44.7525033, "tags": {"name": "\u0646\u0627\u0648\u06d5\u0632\u06cc\u0646\u0627\u0646", "name:ar": "\u0646\u0627\u0648\u0632\u06cc\u0646\u0627\u0646", "name:en": "Nawazinan", "place": "village", "wikidata": "Q61389368", "wikipedia": "ckb:\u0646\u0627\u0648\u06d5\u0632\u06cc\u0646\u0627\u0646"}}, {"type": "node", "id": 11346232599, "lat": 36.3869525, "lon": 44.7380929, "tags": {"name": "\u06af\u0648\u06ce\u0686\u06a9\u06d5\u0644\u0627\u0646", "name:ar": "\u06a9\u0648\u06cc\u062c\u06a9\u0644\u0627\u0646", "name:en": "Gwechkalan", "place": "village", "wikidata": "Q61389240", "wikipedia": "ckb:\u06af\u0648\u06ce\u0686\u06a9\u06d5\u0644\u0627\u0646"}}, {"type": "node", "id": 11346239937, "lat": 36.3800437, "lon": 44.7251161, "tags": {"name": "\u0628\u06ce\u0631\u062f\u0628\u06cc", "name:ar": "\u0628\u06cc\u0631\u062f\u0628\u064a", "name:en": "Berdbi", "place": "village", "wikidata": "Q61389286", "wikipedia": "ckb:\u0628\u06ce\u0631\u062f\u0628\u06cc"}}, {"type": "node", "id": 11346249782, "lat": 36.3874133, "lon": 44.7302963, "tags": {"name": "\u062e\u0627\u0631\u0648\u0628\u06d5\u06a9", "name:ar": "\u062e\u0627\u0631\u0648\u0628\u0643", "name:en": "Kharwbak", "place": "village", "wikidata": "Q61389187", "wikipedia": "ckb:\u062e\u0627\u0631\u0648\u0628\u06d5\u06a9"}}, {"type": "node", "id": 11346256933, "lat": 36.3948257, "lon": 44.7132622, "tags": {"name": "\u06af\u0648\u06b5\u0627\u0646", "name:ar": "\u06a9\u0648\u0644\u0627\u0646", "name:en": "Gullan", "place": "village", "wikidata": "Q61389350", "wikipedia": "ckb:\u06af\u0648\u06b5\u0627\u0646\u060c \u0633\u06d5\u0631\u06a9\u06d5\u067e\u06a9\u0627\u0646"}}, {"type": "node", "id": 11346287519, "lat": 36.3917156, "lon": 44.7169585, "tags": {"name": "\u06a9\u0627\u0646\u06cc \u0695\u06d5\u0634", "name:ar": "\u06a9\u0627\u0646\u064a \u0631\u0634", "name:en": "Kani Rash", "place": "village", "wikidata": "Q61389229", "wikipedia": "ckb:\u06a9\u0627\u0646\u06cc \u0695\u06d5\u0634\u060c \u0633\u06d5\u0631\u06a9\u06d5\u067e\u06a9\u0627\u0646"}}, {"type": "node", "id": 11346300569, "lat": 36.3953942, "lon": 44.7068481, "tags": {"name": "\u062a\u06cc\u0631\u0627\u0646", "name:ar": "\u062a\u06cc\u0631\u0627\u0646", "name:en": "Tiran", "place": "village", "wikidata": "Q61389179", "wikipedia": "ckb:\u062a\u06cc\u0631\u0627\u0646"}}, {"type": "node", "id": 11346301201, "lat": 36.2178613, "lon": 44.9240274, "tags": {"name": "\u062a\u06c6\u067e\u0627\u0648\u0627", "name:ar": "\u062a\u0648\u0628\u0627\u0648\u0627", "name:en": "Topawa", "place": "village", "wikidata": "Q61388861", "wikipedia": "ckb:\u062a\u06c6\u067e\u0627\u0648\u0627"}}, {"type": "node", "id": 11346337592, "lat": 36.2148526, "lon": 44.9783929, "tags": {"name": "\u062f\u06d5\u0631\u0628\u06d5\u0646\u062f\u06cc \u0695\u0627\u0646\u06cc\u06d5", "name:ar": "\u062f\u0631\u0628\u0646\u062f \u0631\u0627\u0646\u06cc\u0629", "name:en": "Darbandi Rania", "place": "village", "wikidata": "Q61388874", "wikipedia": "ckb:\u062f\u06d5\u0631\u0628\u06d5\u0646\u062f\u06cc \u0695\u0627\u0646\u06cc\u06d5"}}, {"type": "way", "id": 324003267, "nodes": [3307644265, 3307644307, 5255183807, 3307644266, 5259192963, 3307644301, 5259192908, 3307644306, 5259192850, 3307644280, 3307644295, 5259189480, 3307644296, 3307644278, 5259189481, 3307644267, 3307644263, 3307644299, 5259193239, 3307644291, 3307644303, 5259193217, 3307644282, 3307644265], "tags": {"name": "\u0633\u06d5\u0646\u06af\u06d5\u0633\u06d5\u0631", "place": "town", "residential": "urban"}}, {"type": "way", "id": 505910622, "nodes": [4957365250, 4957365249, 5276691571, 4957365248, 7630461802, 7630461803, 7630461804, 7630461807, 7630461805, 7630461806, 4957365247, 4957365246, 4957365245, 4957365244, 4957365243, 4957365242, 7630535844, 7630535845, 7630535843, 5385211892, 5385211887, 5385211888, 4957365241, 4957365240, 4957365239, 4957365238, 4957365237, 7630419339, 4957365236, 4957365235, 4957365234, 4957365233, 4957365232, 4957365231, 4957365230, 4957365229, 5274677083, 4957365228, 4957365250], "tags": {"name": "Hajiawa", "name:ckb": "\u062d\u0627\u062c\u06cc\u0627\u0648\u0627", "name:en": "Hajiawa", "place": "city", "population": "80,000"}}, {"type": "way", "id": 783635298, "nodes": [7319434328, 7319434329, 7319434330, 7319434331, 7319434332, 7319434333, 7319434334, 7319434335, 7319434336, 7319434337, 7319434338, 7319434339, 7319434340, 7319434341, 7319434342, 7319434343, 7319434344, 7319434345, 7319434346, 7319434347, 7319434348, 7319434349, 7319434350, 7319434351, 7319434352, 7319434353, 7319434354, 7319434355, 7319434356, 7319434357, 7319434358, 7319434359, 7319434360, 7319434361, 7319434362, 7319434328], "tags": {"name": "\u06a9\u06d5\u0646\u062c\u0627\u0695\u06d5\u06cc \u06a9\u0648\u06ce\u062e\u0627 \u0642\u0627\u062f\u0631", "place": "village", "residential": "rural"}}, {"type": "way", "id": 784902772, "nodes": [7333054006, 7333054007, 7333054008, 7333054009, 7333054010, 7333054011, 7333054012, 7333054013, 7333054014, 7333054015, 7333054016, 7333054017, 7333054018, 7333054019, 7333054020, 7333054021, 7333054022, 7333054023, 7333054024, 7333054025, 7333054026, 7333054027, 7333054028, 7333054029, 7333054030, 7333054031, 7333054032, 7333054033, 7333054034, 7333054035, 7333054036, 7333054037, 7333054038, 7333054039, 7333054040, 7333054041, 7333054042, 7333054043, 7333054044, 7333054045, 7333054046, 7333054047, 7333054048, 7333054006], "tags": {"name": "\u0642\u06d5\u06b5\u0627\u0648\u06d5", "place": "village", "residential": "rural"}}, {"type": "way", "id": 784904795, "nodes": [7333090230, 7333090231, 7333090232, 7333090233, 7333090234, 7333090235, 7333090236, 7333090237, 7333090238, 7333090239, 7333090240, 7333090241, 7333090242, 7333090243, 7333090244, 7333090245, 7333090246, 7333090247, 7333090248, 7333090249, 7333090250, 7333090251, 7333090252, 7333090253, 7333090254, 7333090255, 7333090256, 7333090257, 7333090258, 7333090259, 7333090260, 7333090261, 7333090262, 7333090263, 7333090264, 7333090265, 7333090266, 7333090267, 7333090268, 7333090269, 7333090270, 7333090271, 7333090272, 7333090273, 7333090274, 7333090275, 7333090276, 7333090277, 7333090278, 7333090279, 7333090230], "tags": {"name": "\u0628\u06d5\u0633\u062a\u06d5\u0633\u06ce\u0646\u06cc \u062e\u0648\u0627\u0631\u0648\u0648", "place": "village", "residential": "rural"}}, {"type": "way", "id": 899223317, "nodes": [8355222722, 8355222723, 8355222724, 8355222722], "tags": {"name": "\u06af\u06d5\u0695\u06d5\u06a9\u0649 \u06a9\u0627\u0646\u06cc\u06ce \u06af\u06d5\u0648\u0631\u06d5", "place": "village"}}, {"type": "way", "id": 900722166, "nodes": [8367113417, 8367113418, 8367113419, 8367113420, 8367113421, 8367113422, 8367113423, 8367113424, 8367113425, 8367113426, 8367113427, 8367113428, 8367113438, 8367113429, 8367113439, 8367113430, 8367113431, 8367113432, 8367113433, 8367113417], "tags": {"landuse": "residential", "name": "\u0645\u06d5\u0644\u06d5\u06a9\u0627\u0646", "name:ckb": "\u0645\u06d5\u0644\u06d5\u06a9\u0627\u0646", "name:de": "Malakan", "name:en": "Malakan", "name:fr": "Malakan", "place": "village"}}, {"type": "way", "id": 901344037, "nodes": [8373134060, 8373134061, 8373134062, 8373134063, 8373134064, 8373134065, 8373134071, 8373134072, 8373134073, 8373134070, 8373134066, 8373134067, 8373134068, 8373134069, 8373134060], "tags": {"landuse": "residential", "name": "\u06af\u06c6\u0631\u06d5 \u0634\u06ce\u0631", "name:de": "Gorasher", "name:fr": "Gorasher", "place": "village"}}, {"type": "way", "id": 901344044, "nodes": [8373134098, 8373134099, 8373134100, 8373134101, 8373134102, 8373134103, 8373134104, 8373134105, 8373134106, 8373134107, 8373134108, 8373134098], "tags": {"landuse": "residential", "name": "\u062a\u0627\u0631\u06cc\u0646\u0627\u0646 \u0698\u0648\u0648\u0631\u06cc", "name:de": "Tarinan Zuri", "name:en": "Tarinan Zuri", "name:fr": "Tarinan Zuri", "name:ku": "\u062a\u0627\u0631\u06cc\u0646\u0627\u0646\u06cc \u0633\u06d5\u0631\u0648\u0648", "place": "village"}}, {"type": "way", "id": 901344046, "nodes": [8373134112, 8373134113, 8373134114, 8373134115, 8373134116, 8373170117, 8373170118, 8373170119, 8373170120, 8373134112], "tags": {"landuse": "residential", "name": "\u062a\u0627\u0631\u06cc\u0646\u0627\u0646\u06cc \u0698\u06ce\u0631\u06cc", "name:de": "Tarinan Lower", "name:en": "Tarinan Lower", "name:fr": "Tarinan Lower", "place": "village"}}, {"type": "way", "id": 1156002096, "nodes": [10750401834, 10750401835, 10750401836, 10750401837, 10750401838, 10750401839, 10750401840, 10750401841, 10750401842, 10750401843, 10750401844, 10750401845, 10750401846, 10750401847, 10750401848, 10750401849, 10750401850, 10750401851, 10750401852, 10750401853, 10750401854, 10750401855, 10750401856, 10750401857, 10750401858, 10750401859, 10750401860, 10750401861, 10750401862, 10750401863, 10750401864, 10750401865, 10750401866, 10750401867, 10750401868, 10750401869, 10750401870, 10750401871, 10750401872, 10750401873, 10750401834], "tags": {"name": "\u0633\u06d5\u0631\u0633\u06cc\u0627\u0646", "place": "village", "residential": "rural"}}]}