{"version": 0.6, "generator": "Overpass API 0.7.61.5 4133829e", "osm3s": {"timestamp_osm_base": "2024-03-05T14:21:45Z", "copyright": "The data included in this document is from www.openstreetmap.org. The data is made available under ODbL."}, "elements": [{"type": "node", "id": 3752523632, "lat": 38.4554515, "lon": 70.7893888, "tags": {"addr:city": "\u049a\u0430\u043b\u044a\u0430\u0438 \u0425\u0443\u043c\u0431, Qal'ai Khumb", "amenity": "bank", "atm": "yes", "name": "Amonatbank"}}, {"type": "node", "id": 3752529219, "lat": 38.4556324, "lon": 70.7894013, "tags": {"addr:city": "\u049a\u0430\u043b\u044a\u0430\u0438 \u0425\u0443\u043c\u0431, Qal'ai Khumb", "amenity": "bank", "atm": "yes", "name": "ATM"}}, {"type": "node", "id": 3752529297, "lat": 38.4551536, "lon": 70.7887629, "tags": {"addr:city": "\u049a\u0430\u043b\u044a\u0430\u0438 \u0425\u0443\u043c\u0431", "addr:street": "M41", "amenity": "bank", "name": "FMFB"}}, {"type": "node", "id": 3752758108, "lat": 38.4531915, "lon": 70.7900359, "tags": {"addr:city": "\u049a\u0430\u043b\u044a\u0430\u0438 \u0425\u0443\u043c\u0431, Qal'ai Khumb", "amenity": "bank", "name": "Tojiksodirotbank"}}, {"type": "node", "id": 3754137918, "lat": 38.4557246, "lon": 70.7896463, "tags": {"addr:city": "\u049a\u0430\u043b\u044a\u0430\u0438 \u0425\u0443\u043c\u0431, Qal'ai Khumb", "amenity": "bank", "name": "Agroinvestbank"}}, {"type": "node", "id": 3957829004, "lat": 38.4520037, "lon": 70.7890943, "tags": {"amenity": "bank", "atm": "yes"}}, {"type": "node", "id": 3957829260, "lat": 38.452805, "lon": 70.7903556}, {"type": "node", "id": 3957829262, "lat": 38.4528334, "lon": 70.7905566}, {"type": "node", "id": 3957829271, "lat": 38.4529645, "lon": 70.7903331}, {"type": "node", "id": 3957829275, "lat": 38.4529928, "lon": 70.7905341}, {"type": "way", "id": 392567347, "nodes": [3957829271, 3957829275, 3957829262, 3957829260, 3957829271], "tags": {"amenity": "bank", "building": "residential", "name": "The First MicroFinanceBank"}}]}