{"version": 0.6, "generator": "Overpass API 0.7.61.5 4133829e", "osm3s": {"timestamp_osm_base": "2024-03-06T10:45:02Z", "copyright": "The data included in this document is from www.openstreetmap.org. The data is made available under ODbL."}, "elements": [{"type": "node", "id": 3987843394, "lat": 36.0835348, "lon": 44.6618982}, {"type": "node", "id": 3987843395, "lat": 36.0830666, "lon": 44.661748}, {"type": "node", "id": 3987843396, "lat": 36.0824043, "lon": 44.6613229}, {"type": "node", "id": 3987843397, "lat": 36.081961, "lon": 44.6622751}, {"type": "node", "id": 3987843398, "lat": 36.0830839, "lon": 44.663014}, {"type": "node", "id": 4024645479, "lat": 36.0827422, "lon": 44.635368}, {"type": "node", "id": 4024645480, "lat": 36.0825883, "lon": 44.6345537}, {"type": "node", "id": 4024645481, "lat": 36.0820071, "lon": 44.6347219}, {"type": "node", "id": 4024645482, "lat": 36.0821609, "lon": 44.6355362}, {"type": "node", "id": 4085461306, "lat": 36.0831077, "lon": 44.6616327}, {"type": "node", "id": 4563395292, "lat": 36.0733111, "lon": 44.6362597, "tags": {"addr:street": "Match Road", "amenity": "school", "name": "EPU", "name:en": "Erbil Polytechnic University", "name:ku": "EPU", "opening_hours": "Su-Th 08:30-17:30"}}, {"type": "node", "id": 4861870121, "lat": 36.078678, "lon": 44.6283459, "tags": {"amenity": "school", "name": "arabic elementary school", "name:ar": "arabic elementary school"}}, {"type": "node", "id": 5038181322, "lat": 36.01488, "lon": 44.842205, "tags": {"amenity": "school", "name": "\u0642\u0648\u062a\u0627\u0628\u062e\u0627\u0646\u06d5\u06cc \u0628\u0646\u06d5\u0695\u06d5\u062a\u06cc \u062e\u06d5\u0644\u06d5\u06a9\u0627\u0646", "name:en": "Khalakan Primary School", "name:ku": "\u0642\u0648\u062a\u0627\u0628\u062e\u0627\u0646\u06d5\u06cc \u0628\u0646\u06d5\u0695\u06d5\u062a\u06cc \u062e\u06d5\u0644\u06d5\u06a9\u0627\u0646"}}, {"type": "node", "id": 5878520185, "lat": 36.0083638, "lon": 44.9631365, "tags": {"amenity": "school", "name:en": "Torba Village"}}, {"type": "node", "id": 5964508508, "lat": 35.8879657, "lon": 44.5886877, "tags": {"amenity": "school", "name": "\u062a\u06d5\u06a4\u062a\u06d5\u0642\u06cc \u0647\u0627\u0648\u0695\u06ce\u06cc \u0628\u0646\u06d5\u0695\u06d5\u062a\u06cc \u062a\u06ce\u06a9\u06d5\u06b5\u0627\u0648", "name:en": "Taqtaq Friendly Basic School"}}, {"type": "node", "id": 5979341985, "lat": 36.0075328, "lon": 44.8523592, "tags": {"amenity": "school", "name": "\u0634\u06ce\u062d \u062d\u0627\u062c\u06cc", "name:en": "shekh hagy", "name:ku": "shekh hajy"}}, {"type": "node", "id": 6063409985, "lat": 36.0154994, "lon": 44.8411882, "tags": {"amenity": "school", "name": "\u0626\u0627\u0645\u0627\u062f\u06d5\u06cc\u06cc \u0628\u0648\u0628\u0627\u0646", "name:en": "amadaiy buban"}}, {"type": "node", "id": 6483995686, "lat": 36.0820291, "lon": 44.6302772, "tags": {"amenity": "school", "name": "\u0642\u0648\u062a\u0627\u0628\u062e\u0627\u0646\u0647\u200c\u06cc \u0626\u0647\u200c\u0631\u062f\u0647\u200c\u0644\u0627\u0646\u06cc \u0628\u0646\u0647\u200c\u0695\u0647\u200c\u062a\u06cc", "name:ar": "\u0642\u0648\u062a\u0627\u0628\u062e\u0627\u0646\u0647\u200c\u06cc \u0626\u0647\u200c\u0631\u062f\u0647\u200c\u0644\u0627\u0646\u06cc \u0628\u0646\u0647\u200c\u0695\u0647\u200c\u062a\u06cc", "name:en": "\u0642\u0648\u062a\u0627\u0628\u062e\u0627\u0646\u0647\u200c\u06cc \u0626\u0647\u200c\u0631\u062f\u0647\u200c\u0644\u0627\u0646\u06cc \u0628\u0646\u0647\u200c\u0695\u0647\u200c\u062a\u06cc"}}, {"type": "node", "id": 6570410485, "lat": 36.0773543, "lon": 44.6275684, "tags": {"amenity": "school", "name": "\u0645\u062f\u0631\u0633\u0629 \u0627\u0644\u062b\u0627\u0646\u0648\u064a\u0629 \u0627\u0644\u0643\u0648\u064a\u0629\u064a \u0643\u062c\u0627\u0646", "name:ar": "\u0645\u062f\u0631\u0633\u0629 \u0627\u0644\u062b\u0627\u0646\u0648\u064a\u0629 \u0643\u0648\u064a\u0629\u064a \u0643\u062c\u0627\u0646", "name:en": "Koyai Kchan High School", "name:ku": "\u062f\u0648\u0627\u0646\u0627\u0648\u06d5\u0646\u062f\u06cc \u06a9\u06c6\u06cc\u06d5\u06cc \u06a9\u0686\u0627\u0646"}}, {"type": "node", "id": 7241012505, "lat": 35.748747, "lon": 44.8998326, "tags": {"addr:city": "\u0626\u0627\u063a\u062c\u06d5\u0644\u06d5\u0631", "addr:street": "\u0634\u06ce\u0646\u06ce", "amenity": "school"}}, {"type": "node", "id": 7970506494, "lat": 36.0708319, "lon": 44.6207856, "tags": {"addr:postcode": "46017", "addr:street": "shahidan", "amenity": "school", "name": "\u0646\u062c\u06cc\u0628\u06d5 \u062e\u0627\u0646", "name:en": "Najibaxan School", "name:ku": "\u0646\u06d5\u062c\u06cc\u0628\u06d5\u062e\u0627\u0646"}}, {"type": "node", "id": 8045152786, "lat": 35.7620415, "lon": 44.5524677, "tags": {"amenity": "school", "name": "\u062e\u0648\u06ce\u0646\u062f\u0646\u06af\u06d5\u06cc \u0646\u0627\u0695\u0648\u0648\u062c\u06d5\u06cc \u06af\u06d5\u0648\u0631\u06d5", "name:ku": "\u0642\u0648\u062a\u0627\u0628\u062e\u0627\u0646\u06d5\u06cc \u0646\u0627\u0695\u0648\u062c\u06d5\u06cc \u06af\u06d5\u0648\u0631\u06d5"}}, {"type": "node", "id": 9223738891, "lat": 36.0766642, "lon": 44.6265682, "tags": {"amenity": "school", "name": "\u062e\u0648\u06ce\u0646\u062f\u0646\u06af\u0647\u200c\u06cc \u0626\u06ce\u0648\u0627\u0631\u0627\u0646", "name:ar": "\u062e\u0648\u06ce\u0646\u062f\u0646\u06af\u0647\u200c\u06cc \u0626\u06ce\u0648\u0627\u0631\u0627\u0646", "name:en": "\u062e\u0648\u06ce\u0646\u062f\u0646\u06af\u0647\u200c\u06cc \u0626\u06ce\u0648\u0627\u0631\u0627\u0646"}}, {"type": "node", "id": 9223738892, "lat": 36.0766165, "lon": 44.6265716, "tags": {"amenity": "school", "name": "\u062e\u0648\u06ce\u0646\u062f\u0646\u06af\u0647\u200c\u06cc \u0626\u0627\u0645\u0627\u062f\u0647\u200c\u06cc\u06cc \u0647\u06cc\u0648\u0627\u06cc \u0643\u0648\u0695\u0627\u0646", "name:ar": "\u062e\u0648\u06ce\u0646\u062f\u0646\u06af\u0647\u200c\u06cc \u0626\u0627\u0645\u0627\u062f\u0647\u200c\u06cc\u06cc \u0647\u06cc\u0648\u0627\u06cc \u0643\u0648\u0695\u0627\u0646", "name:en": "\u062e\u0648\u06ce\u0646\u062f\u0646\u06af\u0647\u200c\u06cc \u0626\u0627\u0645\u0627\u062f\u0647\u200c\u06cc\u06cc \u0647\u06cc\u0648\u0627\u06cc \u0643\u0648\u0695\u0627\u0646"}}, {"type": "node", "id": 9223738893, "lat": 36.0765658, "lon": 44.6265755, "tags": {"amenity": "school", "name": "\u062e\u0648\u06ce\u0646\u062f\u0646\u06af\u0647\u200c\u06cc \u0631\u0627\u062c\u06cc \u0643\u0648\u0695\u0627\u0646", "name:ar": "\u062e\u0648\u06ce\u0646\u062f\u0646\u06af\u0647\u200c\u06cc \u0631\u0627\u062c\u06cc \u0643\u0648\u0695\u0627\u0646", "name:en": "\u062e\u0648\u06ce\u0646\u062f\u0646\u06af\u0647\u200c\u06cc \u0631\u0627\u062c\u06cc \u0643\u0648\u0695\u0627\u0646"}}, {"type": "node", "id": 9321007753, "lat": 36.0836496, "lon": 44.617381, "tags": {"amenity": "school", "name": "\u0642\u0648\u062a\u0627\u0628\u062e\u0627\u0646\u0647\u200c\u06cc \u0628\u0627\u0648\u0647\u200c\u062c\u06cc \u0628\u0646\u0647\u200c\u0631\u0647\u200c\u062a\u06cc \u062a\u06ce\u0643\u0647\u200c\u0644\u0627\u0648", "name:ar": "\u0642\u0648\u062a\u0627\u0628\u062e\u0627\u0646\u0647\u200c\u06cc \u0628\u0627\u0648\u0647\u200c\u062c\u06cc \u0628\u0646\u0647\u200c\u0631\u0647\u200c\u062a\u06cc \u062a\u06ce\u0643\u0647\u200c\u0644\u0627\u0648", "name:en": "Bawajy school"}}, {"type": "node", "id": 9848232642, "lat": 35.8846813, "lon": 44.5867768}, {"type": "node", "id": 9848232643, "lat": 35.8840624, "lon": 44.5859861}, {"type": "node", "id": 9848232644, "lat": 35.8843867, "lon": 44.585837}, {"type": "node", "id": 9848232645, "lat": 35.8846874, "lon": 44.5856288}, {"type": "node", "id": 9848232646, "lat": 35.8848222, "lon": 44.5861932}, {"type": "node", "id": 9848232647, "lat": 35.8848552, "lon": 44.5862779}, {"type": "node", "id": 9848232648, "lat": 35.8848561, "lon": 44.5865515}, {"type": "node", "id": 9848253868, "lat": 35.8895434, "lon": 44.5775584}, {"type": "node", "id": 9848253869, "lat": 35.8902391, "lon": 44.5777177}, {"type": "node", "id": 9848253870, "lat": 35.8903522, "lon": 44.5769682}, {"type": "node", "id": 9848253871, "lat": 35.8896429, "lon": 44.5768058}, {"type": "node", "id": 9848253872, "lat": 35.891327, "lon": 44.5802175}, {"type": "node", "id": 9848253873, "lat": 35.8910468, "lon": 44.5800567}, {"type": "node", "id": 9848253874, "lat": 35.891175, "lon": 44.5797548}, {"type": "node", "id": 9848253875, "lat": 35.8911521, "lon": 44.5797378}, {"type": "node", "id": 9848253876, "lat": 35.8912201, "lon": 44.5795651}, {"type": "node", "id": 9848253877, "lat": 35.8914647, "lon": 44.5797244}, {"type": "node", "id": 9848253878, "lat": 35.8914708, "lon": 44.5798352}, {"type": "node", "id": 11270936869, "lat": 35.879839, "lon": 44.582952, "tags": {"addr:housenumber": "0056", "addr:postcode": "44001", "amenity": "school", "name": "\u067e\u06d5\u06cc\u0645\u0627\u0646\u06af\u0627\u06cc \u062a\u06d5\u06a9\u0646\u06cc\u06a9\u06cc \u062a\u06d5\u0642\u062a\u06d5\u0642\u066bPaymangay takniki Taqtaq", "name:en": "Taqtaq Tecnical institute", "name:ku": "\u0695\u0627\u06af\u0631\u0627\u06cc\u06d5\u062a\u06cc \u067e\u06d5\u06cc\u0645\u0627\u0646\u06af\u0627\u06cc \u062a\u06d5\u06a9\u0646\u06cc\u06a9\u06cc \u062a\u06d5\u0642\u062a\u06d5\u0642", "opening_hours": "Sa 08:00-18:00; Su-Fr 09:00-18:00", "phone": "07501203648"}}, {"type": "way", "id": 395980330, "nodes": [3987843394, 4085461306, 3987843395, 3987843396, 3987843397, 3987843398, 3987843394], "tags": {"amenity": "school", "building:levels": "2", "ele": "5", "name": "Koya Fine Artist Institute"}}, {"type": "way", "id": 399778627, "nodes": [4024645479, 4024645480, 4024645481, 4024645482, 4024645479], "tags": {"addr:city": "Koya", "addr:street": "Koysinjaq - Haibat Sultan Road", "amenity": "school", "building": "school", "building:levels": "2", "ele": "20", "name": "Primary School"}}, {"type": "way", "id": 1073576863, "nodes": [9848253868, 9848253869, 9848253870, 9848253871, 9848253868], "tags": {"amenity": "school", "name": "\u0626\u0627\u0645\u0627\u062f\u06d5\u06cc \u06be\u06c6\u0698\u06cc\u0646\u06cc \u06a9\u0686\u0627\u0646", "name:ckb": "\u0626\u0627\u0645\u0627\u062f\u06d5\u06cc \u06be\u06c6\u0698\u06cc\u0646\u06cc \u06a9\u0686\u0627\u0646"}}, {"type": "way", "id": 1073576864, "nodes": [9848253872, 9848253873, 9848253874, 9848253875, 9848253876, 9848253877, 9848253878, 9848253872], "tags": {"amenity": "school", "name": "\u062e\u0648\u06ce\u0646\u062f\u0646\u06af\u06d5\u06cc \u0628\u0646\u06d5\u0695\u06d5\u062a\u06cc \u062e\u0627\u06a9", "name:ckb": "\u062e\u0648\u06ce\u0646\u062f\u0646\u06af\u06d5\u06cc \u0628\u0646\u06d5\u0695\u06d5\u062a\u06cc \u062e\u0627\u06a9"}}, {"type": "way", "id": 1073577643, "nodes": [9848232642, 9848232643, 9848232644, 9848232645, 9848232646, 9848232647, 9848232648, 9848232642], "tags": {"amenity": "school", "name": "\u062e\u0648\u06ce\u0646\u062f\u0646\u06af\u06d5\u06cc \u0642\u0627\u0646\u0639", "name:ckb": "\u062e\u0648\u06ce\u0646\u062f\u0646\u06af\u06d5\u06cc \u0642\u0627\u0646\u0639"}}]}