{"version": 0.6, "generator": "Overpass API 0.7.61.5 4133829e", "osm3s": {"timestamp_osm_base": "2024-03-06T11:18:45Z", "copyright": "The data included in this document is from www.openstreetmap.org. The data is made available under ODbL."}, "elements": [{"type": "node", "id": 567056360, "lat": 35.5102362, "lon": 40.6908435, "tags": {"alt_name": "\u0628\u062f\u0648\u064a \u0627\u0644\u062c\u0627\u0633\u0631", "is_in": "Syria, \u0627\u0644\u062c\u0645\u0647\u0648\u0631\u064a\u0629 \u0627\u0644\u0639\u0631\u0628\u064a\u0629 \u0627\u0644\u0633\u0648\u0631\u064a\u0629 \u060c \u0633\u0648\u0631\u064a\u0627", "name": "\u0628\u062f\u0648\u064a \u0627\u0644\u062c\u0627\u0633\u0631", "name:alt": "Badaw\u012b al J\u0101sir", "name:ar": "\u0628\u062f\u0648\u064a \u0627\u0644\u062c\u0627\u0633\u0631", "name:ar1": "\u0628\u062f\u0648\u064a \u0627\u0644\u062c\u0627\u0633\u0631", "name:de": "Badawi al Jasir", "name:en": "Badawi al Jasir", "name:fr": "Badawi al Jasir", "place": "village"}}, {"type": "node", "id": 567056366, "lat": 35.4828441, "lon": 40.6344646, "tags": {"alt_name": "\u062c\u0631\u064a\u0629", "int_name": "Harayjiyah, Jariye, Jar\u00eey\u00e9, Jeriye, J\u00e9riy\u00e9, \u1e28arayj\u012byah, Jir\u012byah", "is_in": "Syria, \u0627\u0644\u062c\u0645\u0647\u0648\u0631\u064a\u0629 \u0627\u0644\u0639\u0631\u0628\u064a\u0629 \u0627\u0644\u0633\u0648\u0631\u064a\u0629 \u060c \u0633\u0648\u0631\u064a\u0627", "name": "\u062c\u0631\u064a\u0629", "name:ar": "\u062c\u0631\u064a\u0629", "name:ar1": "\u062c\u0631\u064a\u0629", "name:de": "Jiriyah", "name:en": "Jiriyah", "name:fr": "Jiriyah", "place": "village"}}, {"type": "node", "id": 567056370, "lat": 35.4333333, "lon": 40.5833333, "tags": {"alt_name": "\u062d\u0631\u064a\u062c\u064a\u0629", "int_name": "Harijiye, Har\u00eej\u00eey\u00e9, \u1e28ar\u012bj\u012byah", "is_in": "Syria, \u0627\u0644\u062c\u0645\u0647\u0648\u0631\u064a\u0629 \u0627\u0644\u0639\u0631\u0628\u064a\u0629 \u0627\u0644\u0633\u0648\u0631\u064a\u0629 \u060c \u0633\u0648\u0631\u064a\u0627", "name": "\u062d\u0631\u064a\u062c\u064a\u0629", "name:ar": "\u062d\u0631\u064a\u062c\u064a\u0629", "name:ar1": "\u062d\u0631\u064a\u062c\u064a\u0629", "name:de": "Harijiyah", "name:en": "Harijiyah", "name:fr": "Harijiyah", "name:ru": "\u042d\u043b\u044c-\u0425\u0430\u0440\u0438\u0434\u0436\u0438\u044f", "place": "village"}}, {"type": "node", "id": 567056371, "lat": 35.5513966, "lon": 40.7067651, "tags": {"alt_name": "\u0628\u0633\u0627\u062a\u064a\u0646", "int_name": "Baasatine, Baas\u00e2t\u00eene, Bass\u00e2t\u00eene", "is_in": "Syria, \u0627\u0644\u062c\u0645\u0647\u0648\u0631\u064a\u0629 \u0627\u0644\u0639\u0631\u0628\u064a\u0629 \u0627\u0644\u0633\u0648\u0631\u064a\u0629 \u060c \u0633\u0648\u0631\u064a\u0627", "name": "\u0628\u0633\u0627\u062a\u064a\u0646", "name:ar": "\u0628\u0633\u0627\u062a\u064a\u0646", "name:ar1": "\u0628\u0633\u0627\u062a\u064a\u0646", "name:de": "Bassatine", "name:en": "Bassatine", "name:fr": "Bassatine", "place": "village"}}, {"type": "node", "id": 567056372, "lat": 35.429746, "lon": 40.6248909, "tags": {"alt_name": "\u0646\u0645\u0644\u064a\u0629", "int_name": "Namliye, Naml\u00eeye, Nimliye, Nimliy\u00e9, Naml\u012byah", "is_in": "Syria, \u0627\u0644\u062c\u0645\u0647\u0648\u0631\u064a\u0629 \u0627\u0644\u0639\u0631\u0628\u064a\u0629 \u0627\u0644\u0633\u0648\u0631\u064a\u0629 \u060c \u0633\u0648\u0631\u064a\u0627", "name": "\u0646\u0645\u0644\u064a\u0629", "name:ar": "\u0646\u0645\u0644\u064a\u0629", "name:ar1": "\u0646\u0645\u0644\u064a\u0629", "name:de": "Namliyah", "name:en": "Namliyah", "name:fr": "Namliyah", "place": "village"}}, {"type": "node", "id": 567056380, "lat": 35.5045823, "lon": 40.6564906, "tags": {"alt_name": "\u0627\u0644\u0635\u0648\u0631", "int_name": "Souar, Sou\u00e2r, Suri, Suwar, Tell es Suwar, \u015euw\u0101r, A\u015f \u015euwar", "is_in": "Syria, \u0627\u0644\u062c\u0645\u0647\u0648\u0631\u064a\u0629 \u0627\u0644\u0639\u0631\u0628\u064a\u0629 \u0627\u0644\u0633\u0648\u0631\u064a\u0629 \u060c \u0633\u0648\u0631\u064a\u0627", "name": "\u0627\u0644\u0635\u0648\u0631", "name:ar": "\u0627\u0644\u0635\u0648\u0631", "name:ar1": "\u0627\u0644\u0635\u0648\u0631", "name:de": "As Suwar", "name:en": "As Suwar", "name:fr": "As Suwar", "name:ml": "\u0d05\u0d7d-\u0d38\u0d41\u0d35\u0d7c", "name:ru": "\u0421\u0443\u0432\u0430\u0440", "place": "town", "population": "5297"}}, {"type": "node", "id": 573457657, "lat": 35.18162, "lon": 40.4293952, "tags": {"alt_name": "\u0627\u0644\u0641\u0644\u064a\u062a", "int_name": "Al Fulayl, Al Fulayt", "is_in": "Syria, \u0627\u0644\u062c\u0645\u0647\u0648\u0631\u064a\u0629 \u0627\u0644\u0639\u0631\u0628\u064a\u0629 \u0627\u0644\u0633\u0648\u0631\u064a\u0629 \u060c \u0633\u0648\u0631\u064a\u0627", "name": "\u0627\u0644\u0641\u0644\u064a\u062a", "name:ar": "\u0627\u0644\u0641\u0644\u064a\u062a", "name:ar1": "\u0627\u0644\u0641\u0644\u064a\u062a", "name:de": "Al Fulayt", "name:en": "Al Fulayt", "name:fr": "Al Fulayt", "name:ru": "\u042d\u043b\u044c-\u0424\u043b\u0435\u0444", "place": "village"}}, {"type": "node", "id": 573457664, "lat": 35.1292971, "lon": 40.3955095, "tags": {"alt_name": "\u0632\u0628\u0627\u0631\u064a", "int_name": "Zebari, Z\u00e9bari, Zab\u0101r\u012b", "is_in": "Syria, \u0627\u0644\u062c\u0645\u0647\u0648\u0631\u064a\u0629 \u0627\u0644\u0639\u0631\u0628\u064a\u0629 \u0627\u0644\u0633\u0648\u0631\u064a\u0629 \u060c \u0633\u0648\u0631\u064a\u0627", "name": "\u0632\u0628\u0627\u0631\u064a", "name:ar": "\u0632\u0628\u0627\u0631\u064a", "name:ar1": "\u0632\u0628\u0627\u0631\u064a", "name:de": "Zabari", "name:en": "Zabari", "name:fr": "Zabari", "place": "village"}}, {"type": "node", "id": 573457668, "lat": 35.1416859, "lon": 40.4333179, "tags": {"alt_name": "\u0631\u0648\u064a\u062d\u0629", "is_in": "Syria, \u0627\u0644\u062c\u0645\u0647\u0648\u0631\u064a\u0629 \u0627\u0644\u0639\u0631\u0628\u064a\u0629 \u0627\u0644\u0633\u0648\u0631\u064a\u0629 \u060c \u0633\u0648\u0631\u064a\u0627", "name": "\u0631\u0648\u064a\u062d\u0629", "name:alt": "Ruway\u1e29ah", "name:ar": "\u0631\u0648\u064a\u062d\u0629", "name:ar1": "\u0631\u0648\u064a\u062d\u0629", "name:de": "Ruwayhah", "name:en": "Ruwayhah", "name:fr": "Ruwayhah", "place": "village"}}, {"type": "node", "id": 573457673, "lat": 35.1775808, "lon": 40.4391424, "tags": {"alt_name": "\u0628\u063a\u062f\u0627\u062f\u064a", "int_name": "Barhdadi, Barhd\u00e2di, Baghd\u0101d\u012b", "is_in": "Syria, \u0627\u0644\u062c\u0645\u0647\u0648\u0631\u064a\u0629 \u0627\u0644\u0639\u0631\u0628\u064a\u0629 \u0627\u0644\u0633\u0648\u0631\u064a\u0629 \u060c \u0633\u0648\u0631\u064a\u0627", "name": "\u0628\u063a\u062f\u0627\u062f\u064a", "name:ar": "\u0628\u063a\u062f\u0627\u062f\u064a", "name:ar1": "\u0628\u063a\u062f\u0627\u062f\u064a", "name:de": "Baghdadi", "name:en": "Baghdadi", "name:fr": "Baghdadi", "name:ru": "\u042d\u043b\u044c-\u0411\u0430\u0433\u0434\u0430\u0434\u0438", "place": "village"}}, {"type": "node", "id": 573457681, "lat": 35.1856616, "lon": 40.4534821, "tags": {"alt_name": "\u0627\u0644\u0632\u064a\u0628", "int_name": "Az Zieb, Az Z\u012bb", "is_in": "Syria, \u0627\u0644\u062c\u0645\u0647\u0648\u0631\u064a\u0629 \u0627\u0644\u0639\u0631\u0628\u064a\u0629 \u0627\u0644\u0633\u0648\u0631\u064a\u0629 \u060c \u0633\u0648\u0631\u064a\u0627", "name": "\u0627\u0644\u0632\u064a\u0628", "name:ar": "\u0627\u0644\u0632\u064a\u0628", "name:ar1": "\u0627\u0644\u0632\u064a\u0628", "name:de": "Az Zib", "name:en": "Az Zib", "name:fr": "Az Zib", "place": "village"}}, {"type": "node", "id": 573457682, "lat": 35.1928381, "lon": 40.4498439, "tags": {"alt_name": "\u0627\u0644\u0637\u0648\u064a\u0645\u064a\u0629", "is_in": "Syria, \u0627\u0644\u062c\u0645\u0647\u0648\u0631\u064a\u0629 \u0627\u0644\u0639\u0631\u0628\u064a\u0629 \u0627\u0644\u0633\u0648\u0631\u064a\u0629 \u060c \u0633\u0648\u0631\u064a\u0627", "name": "\u0627\u0644\u0637\u0648\u064a\u0645\u064a\u0629", "name:alt": "A\u0163 \u0162uwaym\u012byah", "name:ar": "\u0627\u0644\u0637\u0648\u064a\u0645\u064a\u0629", "name:ar1": "\u0627\u0644\u0637\u0648\u064a\u0645\u064a\u0629", "name:de": "At Tuwaymiyah", "name:en": "At Tuwaymiyah", "name:fr": "At Tuwaymiyah", "place": "village"}}, {"type": "node", "id": 573457684, "lat": 35.2004559, "lon": 40.4810373, "tags": {"alt_name": "\u0628\u0631\u064a\u062d\u0629", "int_name": "Baja, Barayhah, Baray\u1e29ah, Braiha, Bra\u00efha, Buray\u1e29ah", "is_in": "Syria, \u0627\u0644\u062c\u0645\u0647\u0648\u0631\u064a\u0629 \u0627\u0644\u0639\u0631\u0628\u064a\u0629 \u0627\u0644\u0633\u0648\u0631\u064a\u0629 \u060c \u0633\u0648\u0631\u064a\u0627", "name": "\u0628\u0631\u064a\u062d\u0629", "name:ar": "\u0628\u0631\u064a\u062d\u0629", "name:ar1": "\u0628\u0631\u064a\u062d\u0629", "name:de": "Burayhah", "name:en": "Burayhah", "name:fr": "Burayhah", "place": "village"}}, {"type": "node", "id": 573457685, "lat": 35.1653336, "lon": 40.4469101, "tags": {"alt_name": "\u0631\u0634\u064a\u062f\u0629", "int_name": "Rachide, Rach\u00eed\u00e9, Rash\u012bdah", "is_in": "Syria, \u0627\u0644\u062c\u0645\u0647\u0648\u0631\u064a\u0629 \u0627\u0644\u0639\u0631\u0628\u064a\u0629 \u0627\u0644\u0633\u0648\u0631\u064a\u0629 \u060c \u0633\u0648\u0631\u064a\u0627", "name": "\u0631\u0634\u064a\u062f\u0629", "name:ar": "\u0631\u0634\u064a\u062f\u0629", "name:ar1": "\u0631\u0634\u064a\u062f\u0629", "name:de": "Rashidah", "name:en": "Rashidah", "name:fr": "Rashidah", "place": "village"}}, {"type": "node", "id": 573457688, "lat": 35.1983868, "lon": 40.4646651, "tags": {"alt_name": "\u0631\u0645\u064a\u0644", "int_name": "Raml, Rumayl", "is_in": "Syria, \u0627\u0644\u062c\u0645\u0647\u0648\u0631\u064a\u0629 \u0627\u0644\u0639\u0631\u0628\u064a\u0629 \u0627\u0644\u0633\u0648\u0631\u064a\u0629 \u060c \u0633\u0648\u0631\u064a\u0627", "name": "\u0631\u0645\u064a\u0644", "name:ar": "\u0631\u0645\u064a\u0644", "name:ar1": "\u0631\u0645\u064a\u0644", "name:de": "Rumayl", "name:en": "Rumayl", "name:fr": "Rumayl", "place": "village"}}, {"type": "node", "id": 573457702, "lat": 35.1666667, "lon": 40.3833333, "tags": {"alt_name": "\u0633\u0639\u0644\u0648", "int_name": "Saalou, Sa`l\u016b", "is_in": "Syria, \u0627\u0644\u062c\u0645\u0647\u0648\u0631\u064a\u0629 \u0627\u0644\u0639\u0631\u0628\u064a\u0629 \u0627\u0644\u0633\u0648\u0631\u064a\u0629 \u060c \u0633\u0648\u0631\u064a\u0627", "name": "\u0633\u0639\u0644\u0648", "name:ar": "\u0633\u0639\u0644\u0648", "name:ar1": "\u0633\u0639\u0644\u0648", "name:de": "Sa`lu", "name:en": "Sa`lu", "name:fr": "Sa`lu", "name:ru": "\u042d\u0441-\u0421\u0430\u043b\u0443", "place": "village"}}, {"type": "node", "id": 573457747, "lat": 35.35, "lon": 40.55, "tags": {"alt_name": "\u0637\u064a\u0628 \u0627\u0644\u0641\u0623\u0644", "int_name": "Taib el Fal, Taiyeb el Fal, Ta\u00efb el F\u00e2l, Ta\u00efyeb el F\u00e2l, \u0162ayyib al Fa'l", "is_in": "Syria, \u0627\u0644\u062c\u0645\u0647\u0648\u0631\u064a\u0629 \u0627\u0644\u0639\u0631\u0628\u064a\u0629 \u0627\u0644\u0633\u0648\u0631\u064a\u0629 \u060c \u0633\u0648\u0631\u064a\u0627", "name": "\u0637\u064a\u0628 \u0627\u0644\u0641\u0623\u0644", "name:ar": "\u0627\u0644\u0641\u062f\u064a\u0646", "name:ar1": "\u0637\u064a\u0628 \u0627\u0644\u0641\u0623\u0644", "name:de": "Tayyib al Fa'l", "name:en": "al fdeen", "name:fr": "Tayyib al Fa'l", "place": "village"}}, {"type": "node", "id": 573457773, "lat": 35.2367291, "lon": 40.3730902, "tags": {"alt_name": "\u062c\u062f\u064a\u062f \u0628\u0648 \u062e\u064a\u0631", "is_in": "Syria, \u0627\u0644\u062c\u0645\u0647\u0648\u0631\u064a\u0629 \u0627\u0644\u0639\u0631\u0628\u064a\u0629 \u0627\u0644\u0633\u0648\u0631\u064a\u0629 \u060c \u0633\u0648\u0631\u064a\u0627", "name": "\u062c\u062f\u064a\u062f \u0628\u0648 \u062e\u064a\u0631", "name:alt": "Jad\u012bd B\u016b Khayr", "name:ar": "\u062c\u062f\u064a\u062f \u0628\u0648 \u062e\u064a\u0631", "name:ar1": "\u062c\u062f\u064a\u062f \u0628\u0648 \u062e\u064a\u0631", "name:de": "Jadid Bu Khayr", "name:en": "Jadid Bu Khayr", "name:fr": "Jadid Bu Khayr", "name:ru": "\u0414\u0436\u0434\u0430\u0439\u0435\u0434-\u0431\u0443-\u0425\u0430\u0439\u0435\u0440", "place": "village"}}, {"type": "node", "id": 573457797, "lat": 35.2057721, "lon": 40.3776177, "tags": {"alt_name": "\u0623\u0628\u0648 \u0644\u064a\u0644", "int_name": "Abou Lail, Abou La\u00efl, Toub, To\u00fbb, Ab\u016b Layl", "is_in": "Syria, \u0627\u0644\u062c\u0645\u0647\u0648\u0631\u064a\u0629 \u0627\u0644\u0639\u0631\u0628\u064a\u0629 \u0627\u0644\u0633\u0648\u0631\u064a\u0629 \u060c \u0633\u0648\u0631\u064a\u0627", "name": "\u0623\u0628\u0648 \u0644\u064a\u0644", "name:ar": "\u0627\u0644\u0628\u0648 \u0644\u064a\u0644", "name:ar1": "\u0623\u0628\u0648 \u0644\u064a\u0644", "name:de": "Abu Layl", "name:en": "Abu Layl", "name:fr": "Abu Layl", "name:ru": "\u0410\u0431\u0443-\u044d\u043b\u044c-\u041b\u0438\u0435\u043b\u044c", "place": "village", "population": "11688"}}, {"type": "node", "id": 573457803, "lat": 35.1760683, "lon": 40.4552512, "tags": {"alt_name": "\u0627\u0644\u0628\u062f\u064a\u0642", "int_name": "Al Badhikha, Al Bad\u012bq", "is_in": "Syria, \u0627\u0644\u062c\u0645\u0647\u0648\u0631\u064a\u0629 \u0627\u0644\u0639\u0631\u0628\u064a\u0629 \u0627\u0644\u0633\u0648\u0631\u064a\u0629 \u060c \u0633\u0648\u0631\u064a\u0627", "name": "\u0627\u0644\u0628\u062f\u064a\u0642", "name:ar": "\u0627\u0644\u0628\u062f\u064a\u0642", "name:ar1": "\u0627\u0644\u0628\u062f\u064a\u0642", "name:de": "Al Badiq", "name:en": "Al Badiq", "name:fr": "Al Badiq", "name:ru": "\u042d\u043b\u044c-\u0411\u0430\u0434\u0434\u0438\u043a", "place": "village"}}, {"type": "node", "id": 573457829, "lat": 35.2387796, "lon": 40.3246387, "tags": {"alt_name": "\u0645\u062d\u0635\u0629", "is_in": "Syria, \u0627\u0644\u062c\u0645\u0647\u0648\u0631\u064a\u0629 \u0627\u0644\u0639\u0631\u0628\u064a\u0629 \u0627\u0644\u0633\u0648\u0631\u064a\u0629 \u060c \u0633\u0648\u0631\u064a\u0627", "name": "\u0645\u062d\u0635\u0629", "name:alt": "Mu\u1e29a\u015f\u015fah", "name:ar": "\u0645\u062d\u0635\u0629", "name:ar1": "\u0645\u062d\u0635\u0629", "name:de": "Muhassah", "name:en": "Muhassah", "name:fr": "Muhassah", "name:ru": "\u041c\u0443-\u0425\u0430\u0441\u0430\u043d", "place": "village"}}, {"type": "node", "id": 573457869, "lat": 35.2196218, "lon": 40.3371915, "tags": {"alt_name": "\u0645\u062d\u0633\u0646", "int_name": "Mouhassane, Mu\u1e29assan", "is_in": "Syria, \u0627\u0644\u062c\u0645\u0647\u0648\u0631\u064a\u0629 \u0627\u0644\u0639\u0631\u0628\u064a\u0629 \u0627\u0644\u0633\u0648\u0631\u064a\u0629 \u060c \u0633\u0648\u0631\u064a\u0627", "name": "\u0645\u062d\u0633\u0646", "name:ar": "\u0645\u0648\u062d\u0633\u0646", "name:ar1": "\u0645\u062d\u0633\u0646", "name:de": "Muhassan", "name:en": "Muhassan", "name:fr": "Muhassan", "name:ru": "\u041c\u0443-\u0425\u0430\u0441\u0430\u043d", "place": "village"}}, {"type": "node", "id": 573457870, "lat": 35.1641407, "lon": 40.4443196, "tags": {"alt_name": "\u0627\u0644\u062d\u064a\u0648\u0627\u0646", "is_in": "Syria, \u0627\u0644\u062c\u0645\u0647\u0648\u0631\u064a\u0629 \u0627\u0644\u0639\u0631\u0628\u064a\u0629 \u0627\u0644\u0633\u0648\u0631\u064a\u0629 \u060c \u0633\u0648\u0631\u064a\u0627", "name": "\u0627\u0644\u062d\u064a\u0648\u0627\u0646", "name:alt": "Al \u1e28ayaw\u0101n", "name:ar": "\u0627\u0644\u062d\u064a\u0648\u0627\u0646", "name:ar1": "\u0627\u0644\u062d\u064a\u0648\u0627\u0646", "name:de": "Al Hayawan", "name:en": "Al Hayawan", "name:fr": "Al Hayawan", "place": "village"}}, {"type": "node", "id": 573457874, "lat": 35.2333162, "lon": 40.5419164, "tags": {"alt_name": "\u062f\u0645\u0627\u0646", "is_in": "Syria, \u0627\u0644\u062c\u0645\u0647\u0648\u0631\u064a\u0629 \u0627\u0644\u0639\u0631\u0628\u064a\u0629 \u0627\u0644\u0633\u0648\u0631\u064a\u0629 \u060c \u0633\u0648\u0631\u064a\u0627", "name": "\u062f\u0645\u0627\u0646", "name:alt": "Dam\u0101n", "name:ar": "\u0636\u0645\u0627\u0646", "name:ar1": "\u062f\u0645\u0627\u0646", "name:de": "Daman", "name:en": "Daman", "name:fr": "Daman", "place": "village"}}, {"type": "node", "id": 573457884, "lat": 35.2503633, "lon": 40.3587564, "tags": {"alt_name": "\u062c\u062f\u064a\u062f \u0639\u0642\u064a\u062f\u0627\u062a", "is_in": "Syria, \u0627\u0644\u062c\u0645\u0647\u0648\u0631\u064a\u0629 \u0627\u0644\u0639\u0631\u0628\u064a\u0629 \u0627\u0644\u0633\u0648\u0631\u064a\u0629 \u060c \u0633\u0648\u0631\u064a\u0627", "name": "\u062c\u062f\u064a\u062f \u0639\u0642\u064a\u062f\u0627\u062a", "name:alt": "Jad\u012bd `Uqayd\u0101t", "name:ar": "\u062c\u062f\u064a\u062f \u0639\u0642\u064a\u062f\u0627\u062a", "name:ar1": "\u062c\u062f\u064a\u062f \u0639\u0642\u064a\u062f\u0627\u062a", "name:de": "Jadid `Uqaydat", "name:en": "Jadid `Uqaydat", "name:fr": "Jadid `Uqaydat", "name:ru": "\u0414\u0436\u0434\u0430\u0439\u0435\u0434-\u0410\u0433\u0435\u0434\u0430\u0442", "place": "village"}}, {"type": "node", "id": 573457887, "lat": 35.198983, "lon": 40.4676967, "tags": {"alt_name": "\u0627\u0644\u062e\u0627\u0646", "is_in": "Syria, \u0627\u0644\u062c\u0645\u0647\u0648\u0631\u064a\u0629 \u0627\u0644\u0639\u0631\u0628\u064a\u0629 \u0627\u0644\u0633\u0648\u0631\u064a\u0629 \u060c \u0633\u0648\u0631\u064a\u0627", "name": "\u0627\u0644\u062e\u0627\u0646", "name:alt": "Al Kh\u0101n", "name:ar": "\u0627\u0644\u062e\u0627\u0646", "name:ar1": "\u0627\u0644\u062e\u0627\u0646", "name:de": "Al Khan", "name:en": "Al Khan", "name:fr": "Al Khan", "place": "village"}}, {"type": "node", "id": 573457889, "lat": 35.1407033, "lon": 40.3598646, "tags": {"alt_name": "\u0633\u0644\u0648", "int_name": "Sillo, Sill\u016b", "is_in": "Syria, \u0627\u0644\u062c\u0645\u0647\u0648\u0631\u064a\u0629 \u0627\u0644\u0639\u0631\u0628\u064a\u0629 \u0627\u0644\u0633\u0648\u0631\u064a\u0629 \u060c \u0633\u0648\u0631\u064a\u0627", "name": "\u0633\u0644\u0648", "name:ar": "\u0633\u0644\u0648", "name:ar1": "\u0633\u0644\u0648", "name:de": "Sillu", "name:en": "Sillu", "name:fr": "Sillu", "name:ru": "\u0421\u0435\u043b\u043b\u0443", "place": "village"}}, {"type": "node", "id": 573457890, "lat": 35.1582561, "lon": 40.4270777, "tags": {"alt_name": "\u0627\u0644\u0628\u0635\u064a\u0631\u0629", "int_name": "Bassira, Bessireh, Boussaira, Boussa\u00efra, Bseira, Bse\u00efra, Busayrah, Buseira, Buseire, Bu\u015fayrah, Circesium, Al Bu\u015fayrah", "is_in": "Syria, \u0627\u0644\u062c\u0645\u0647\u0648\u0631\u064a\u0629 \u0627\u0644\u0639\u0631\u0628\u064a\u0629 \u0627\u0644\u0633\u0648\u0631\u064a\u0629 \u060c \u0633\u0648\u0631\u064a\u0627", "name": "\u0627\u0644\u0628\u0635\u064a\u0631\u0629", "name:ar": "\u0627\u0644\u0628\u0635\u064a\u0631\u0629", "name:ar1": "\u0627\u0644\u0628\u0635\u064a\u0631\u0629", "name:de": "Al Busayrah", "name:en": "Al Busayrah", "name:fr": "Al Busayrah", "name:ru": "\u042d\u043b\u044c-\u0411\u0441\u0435\u0440\u0430", "place": "town", "population": "6199"}}, {"type": "node", "id": 573457893, "lat": 35.1922069, "lon": 40.4687696, "tags": {"alt_name": "\u0639\u0644\u064a \u0627\u0644\u0634\u0629\u0644", "is_in": "Syria, \u0627\u0644\u062c\u0645\u0647\u0648\u0631\u064a\u0629 \u0627\u0644\u0639\u0631\u0628\u064a\u0629 \u0627\u0644\u0633\u0648\u0631\u064a\u0629 \u060c \u0633\u0648\u0631\u064a\u0627", "name": "\u0639\u0644\u064a \u0627\u0644\u0634\u0629\u0644", "name:alt": "`Al\u012b ash Shahl", "name:ar": "\u0639\u0644\u064a \u0627\u0644\u0634\u0629\u0644", "name:ar1": "\u0639\u0644\u064a \u0627\u0644\u0634\u0629\u0644", "name:de": "`Ali ash Shahl", "name:en": "`Ali ash Shahl", "name:fr": "`Ali ash Shahl", "place": "village"}}, {"type": "node", "id": 573457905, "lat": 35.1545992, "lon": 40.4584972, "tags": {"alt_name": "\u0627\u0644\u0642\u0635\u064a\u0631", "is_in": "Syria, \u0627\u0644\u062c\u0645\u0647\u0648\u0631\u064a\u0629 \u0627\u0644\u0639\u0631\u0628\u064a\u0629 \u0627\u0644\u0633\u0648\u0631\u064a\u0629 \u060c \u0633\u0648\u0631\u064a\u0627", "name": "\u0627\u0644\u0642\u0635\u064a\u0631", "name:alt": "Al Qu\u015fayr", "name:ar": "\u0627\u0644\u0642\u0635\u064a\u0631", "name:ar1": "\u0627\u0644\u0642\u0635\u064a\u0631", "name:de": "Al Qusayr", "name:en": "Al Qusayr", "name:fr": "Al Qusayr", "place": "village"}}, {"type": "node", "id": 573457921, "lat": 35.2260901, "lon": 40.3855142, "tags": {"alt_name": "\u062f\u062d\u0644\u0629", "int_name": "Dahla, Da\u1e29lah", "is_in": "Syria, \u0627\u0644\u062c\u0645\u0647\u0648\u0631\u064a\u0629 \u0627\u0644\u0639\u0631\u0628\u064a\u0629 \u0627\u0644\u0633\u0648\u0631\u064a\u0629 \u060c \u0633\u0648\u0631\u064a\u0627", "name": "\u062f\u062d\u0644\u0629", "name:ar": "\u062f\u062d\u0644\u0629", "name:ar1": "\u062f\u062d\u0644\u0629", "name:de": "Dahlah", "name:en": "Dahlah", "name:fr": "Dahlah", "place": "village"}}, {"type": "node", "id": 573457926, "lat": 35.2544721, "lon": 40.5737048, "tags": {"alt_name": "\u0627\u0644\u0633\u0643\u0631", "int_name": "Es Siker, Secher, As Sukkar", "is_in": "Syria, \u0627\u0644\u062c\u0645\u0647\u0648\u0631\u064a\u0629 \u0627\u0644\u0639\u0631\u0628\u064a\u0629 \u0627\u0644\u0633\u0648\u0631\u064a\u0629 \u060c \u0633\u0648\u0631\u064a\u0627", "name": "\u0627\u0644\u0633\u0643\u0631", "name:ar": "\u0627\u0644\u0633\u0643\u0631", "name:ar1": "\u0627\u0644\u0633\u0643\u0631", "name:de": "As Sukkar", "name:en": "As Sukkar", "name:fr": "As Sukkar", "place": "village"}}, {"type": "node", "id": 573457929, "lat": 35.1632285, "lon": 40.4656212, "tags": {"alt_name": "\u0627\u0644\u0645\u0635\u0631\u064a", "is_in": "Syria, \u0627\u0644\u062c\u0645\u0647\u0648\u0631\u064a\u0629 \u0627\u0644\u0639\u0631\u0628\u064a\u0629 \u0627\u0644\u0633\u0648\u0631\u064a\u0629 \u060c \u0633\u0648\u0631\u064a\u0627", "name": "\u0627\u0644\u0645\u0635\u0631\u064a", "name:alt": "Al Mi\u015fr\u012b", "name:ar": "\u0627\u0644\u0645\u0635\u0631\u064a", "name:ar1": "\u0627\u0644\u0645\u0635\u0631\u064a", "name:de": "Al Misri", "name:en": "Al Misri", "name:fr": "Al Misri", "name:ru": "\u042d\u043b\u044c-\u041c\u0430\u0441\u0440\u0438", "place": "village"}}, {"type": "node", "id": 4569219592, "lat": 35.2110563, "lon": 40.4731349, "tags": {"name": "\u062d\u0631\u064a\u0632\u0629", "name:en": "Al hurayzah", "place": "village"}}, {"type": "node", "id": 4569219601, "lat": 35.2688814, "lon": 40.5403618, "tags": {"name": "\u0627\u0644\u062d\u062c\u0646\u0629", "name:en": "Al hejnah", "place": "village"}}, {"type": "node", "id": 4569219604, "lat": 35.325304, "lon": 40.536199, "tags": {"name": "al-Hereji", "name:en": "al-Hereji", "place": "village"}}, {"type": "node", "id": 4569219610, "lat": 35.2100965, "lon": 40.5184321, "tags": {"name": "Al Qu\u015fayr\u012byah", "name:en": "Al Qu\u015fayr\u012byah", "place": "village"}}, {"type": "node", "id": 4569219640, "lat": 35.3159547, "lon": 40.5641584, "tags": {"name": "Al \u2018Ay\u0101", "name:en": "Al \u2018Ay\u0101", "place": "village"}}, {"type": "node", "id": 4569219641, "lat": 35.2973931, "lon": 40.5657462, "tags": {"name": "Tayeeb Al Faal", "name:ar": "\u0637\u064a\u0628 \u0627\u0644\u0641\u0627\u0644", "name:en": "Tayeeb Al Faal", "place": "village"}}, {"type": "node", "id": 4569220694, "lat": 35.3444893, "lon": 40.5866782, "tags": {"name": "\u2018\u0100dil", "name:en": "\u2018\u0100dil", "place": "village"}}, {"type": "node", "id": 4569220695, "lat": 35.3625502, "lon": 40.591828, "tags": {"name": "A\u0163 \u0162all\u0101bah", "name:en": "A\u0163 \u0162all\u0101bah", "place": "village"}}, {"type": "node", "id": 4569220696, "lat": 35.371999, "lon": 40.6044451, "tags": {"name": "Al Ghavvari", "name:en": "Al Ghavvari", "place": "village"}}, {"type": "node", "id": 4569220697, "lat": 35.3890741, "lon": 40.619723, "tags": {"name": "Al Khar\u012bj\u012byah", "name:en": "Al Khar\u012bj\u012byah", "place": "village"}}, {"type": "node", "id": 4569220714, "lat": 35.4388266, "lon": 40.6331126, "tags": {"name": "Ar Rukn", "name:en": "Ar Rukn", "place": "village"}}, {"type": "node", "id": 4569220740, "lat": 35.4574606, "lon": 40.6671015, "tags": {"name": "Farr\u0101j", "name:en": "Farr\u0101j", "place": "village"}}, {"type": "node", "id": 4569220741, "lat": 35.4787813, "lon": 40.6751267, "tags": {"name": "\u1e28asan Jum\u2018ah", "name:en": "\u1e28asan Jum\u2018ah", "place": "village"}}, {"type": "node", "id": 4569220751, "lat": 35.5301024, "lon": 40.7031504, "tags": {"name": "J\u0101sim", "name:en": "J\u0101sim", "place": "village"}}, {"type": "node", "id": 4569220752, "lat": 35.5186462, "lon": 40.688173, "tags": {"name": "Al Jir\u012byah", "name:en": "Al Jir\u012byah", "place": "village"}}, {"type": "node", "id": 4570358207, "lat": 35.2006058, "lon": 40.4290126, "tags": {"name": "As Sabkhah", "name:ar": "\u0627\u0644\u0635\u0628\u062d\u0629", "name:en": "As Sabkhah", "place": "village"}}, {"type": "node", "id": 4570358208, "lat": 35.1725818, "lon": 40.4748462, "tags": {"name": "Al Lawziyah", "name:en": "Al Lawziyah", "place": "village"}}, {"type": "node", "id": 4570358209, "lat": 35.1820178, "lon": 40.465555, "tags": {"name": "A\u0163 \u0162aw\u012bl", "name:en": "A\u0163 \u0162aw\u012bl", "place": "village"}}, {"type": "node", "id": 4570358210, "lat": 35.1923645, "lon": 40.4926131, "tags": {"name": "Al Ma\u2018\u0101sh\u012bq", "name:en": "Al Ma\u2018\u0101sh\u012bq", "place": "village"}}, {"type": "node", "id": 5153781313, "lat": 35.5316915, "lon": 40.6593051, "tags": {"int_name": "Wasiah", "name:en": "Wasiah", "place": "village"}}, {"type": "node", "id": 5153781925, "lat": 35.5408469, "lon": 40.662771, "tags": {"int_name": "Jarbus", "name:en": "Jarbus", "place": "village"}}, {"type": "node", "id": 5190978154, "lat": 35.4542947, "lon": 40.607473, "tags": {"int_name": "Rubaydah", "name": "Rubaydah", "name:en": "Rubaydah", "place": "village"}}]}