{"version": 0.6, "generator": "Overpass API 0.7.61.5 4133829e", "osm3s": {"timestamp_osm_base": "2024-03-06T10:48:03Z", "copyright": "The data included in this document is from www.openstreetmap.org. The data is made available under ODbL."}, "elements": [{"type": "node", "id": 2382579261, "lat": 32.0088479, "lon": 44.9131557}, {"type": "node", "id": 4448788392, "lat": 32.0102573, "lon": 44.9101249, "tags": {"addr:street": "\u0627\u0644\u0641\u0631\u0627\u062a", "amenity": "college", "name": "\u0643\u0644\u064a\u0629 \u0627\u0644\u0637\u0628 / \u062c\u0627\u0645\u0639\u0629 \u0627\u0644\u0642\u0627\u062f\u0633\u064a\u0629", "name:ar": "\u0643\u0644\u064a\u0629 \u0627\u0644\u0637\u0628 \u0627\u0644\u0628\u0634\u0631\u064a", "name:en": "College of Human Medicine", "opening_hours": "Su-Th 08:00-15:00"}}, {"type": "node", "id": 4677608691, "lat": 32.0104687, "lon": 44.9141712, "tags": {"amenity": "college", "name": "\u0643\u0644\u064a\u0629 \u0627\u0644\u0637\u0628 \u0642\u0627\u062f\u0633\u064a\u0629", "name:ar": "\u0643\u0644\u064a\u0629 \u0627\u0644\u0637\u0628 \u0642\u0627\u062f\u0633\u064a\u0629"}}, {"type": "node", "id": 4680057195, "lat": 31.9926972, "lon": 44.9106681, "tags": {"addr:street": "\u0634\u0627\u0631\u0639 \u0627\u0644\u0639\u0631\u0648\u0628\u0647", "amenity": "college", "name": "\u0645\u0639\u0647\u062f \u0627\u0644\u0635\u062d\u0629 \u0627\u0644\u0639\u0627\u0644\u064a", "name:ar": "\u0627\u0639\u062f\u0627\u062f\u064a\u0629 \u0627\u0644\u062a\u0645\u0631\u064a\u0636 \u0628\u0646\u0627\u062a", "name:en": "Institute of Higher Health"}}, {"type": "node", "id": 5043819023, "lat": 31.9947553, "lon": 44.8912291, "tags": {"addr:postcode": "58002", "addr:street": "\u0634\u0627\u0631\u0639 \u0627\u0644\u062c\u0627\u0645\u0639\u0629", "amenity": "college", "name": "\u0643\u0644\u064a\u0629 \u0627\u0644\u0647\u0646\u062f\u0633\u0629", "name:ar": "\u0643\u0644\u064a\u0629 \u0627\u0644\u0647\u0646\u062f\u0633\u0629", "name:en": "College Of Engineering", "opening_hours": "Sa-Th 08:00-18:00", "operator": "Iraqi government", "website": "https://qu.edu.iq/eng/"}}, {"type": "node", "id": 5043820331, "lat": 32.009824, "lon": 44.9102538, "tags": {"addr:postcode": "58002", "addr:street": "\u0634\u0627\u0631\u0639 \u0643\u0644\u064a\u0629 \u0627\u0644\u0637\u0628", "amenity": "college", "name": "\u0643\u0644\u064a\u0629 \u0627\u0644\u0637\u0628", "name:ar": "\u0643\u0644\u064a\u0629 \u0627\u0644\u0637\u0628", "name:en": "medical school", "opening_hours": "Su-Th 08:00-16:00", "operator": "Iraqi Government", "website": "https://www.qu.edu.iq/med/"}}, {"type": "node", "id": 5100027521, "lat": 32.000427, "lon": 44.881776, "tags": {"amenity": "college", "name": "\u0642\u0633\u0645 \u0627\u0644\u0644\u063a\u0629 \u0627\u0644\u0627\u0646\u0643\u0644\u064a\u0632\u064a\u0647", "name:ar": "\u0642\u0633\u0645 \u0627\u0644\u0644\u063a\u0629 \u0627\u0644\u0627\u0646\u0643\u0644\u064a\u0632\u064a\u0647"}}, {"type": "node", "id": 5229050845, "lat": 31.9544791, "lon": 44.775159, "tags": {"amenity": "college", "name": "\u0627\u0644\u0632\u0631\u0627\u0639\u0629", "name:ar": "\u0643\u0644\u064a\u0629 \u0627\u0644\u0632\u0631\u0627\u0639\u0629 \u062c\u0627\u0645\u0639\u0629 \u0627\u0644\u0642\u0627\u062f\u0633\u064a\u0629"}}, {"type": "node", "id": 5230211621, "lat": 32.0031631, "lon": 44.8832524, "tags": {"amenity": "college", "name": "\u062c\u0627\u0645\u0639\u0629 \u0627\u0644\u0642\u0627\u062f\u0633\u064a\u0629 \u0643\u0644\u064a\u0629 \u0627\u0644\u0642\u0627\u0646\u0648\u0646"}}, {"type": "node", "id": 5240813821, "lat": 31.9553498, "lon": 44.7738145, "tags": {"amenity": "college", "name": "\u0643\u0644\u064a\u0629 \u0627\u0644\u0632\u0631\u0627\u0639\u0629", "name:ar": "\u0643\u0644\u064a\u0629 \u0627\u0644\u0632\u0631\u0627\u0639\u0629 \u062c\u0627\u0645\u0639\u0629 \u0627\u0644\u0642\u0627\u062f\u0633\u064a\u0629"}}, {"type": "node", "id": 5400418023, "lat": 32.0031338, "lon": 44.8779936, "tags": {"amenity": "college", "name": "\u0627\u0644\u062a\u0631\u0628\u064a\u0629 \u0627\u0644\u0628\u062f\u0646\u064a\u0629 \u0648\u0639\u0644\u0648\u0645 \u0627\u0644\u0631\u064a\u0627\u0636\u0629 \u0641\u064a \u0627\u0644\u062f\u064a\u0648\u0627\u0646\u064a\u0629"}}, {"type": "node", "id": 5643695297, "lat": 32.0050077, "lon": 44.8850714}, {"type": "node", "id": 5643695298, "lat": 32.0058606, "lon": 44.8827043}, {"type": "node", "id": 5643695299, "lat": 32.0060312, "lon": 44.8770314}, {"type": "node", "id": 5643695300, "lat": 32.001034, "lon": 44.8767659}, {"type": "node", "id": 5643695301, "lat": 31.9992348, "lon": 44.8758996}, {"type": "node", "id": 5786410353, "lat": 31.998888, "lon": 44.9179537, "tags": {"addr:street": "\u0645\u062a\u0642\u0627\u0639\u062f\u064a\u0646", "amenity": "college", "email": "Hamed.alipour20@gmail.com", "name": "\ud83d\udd4a\u062d\u0645\u0627\u0645\u0629 \u0627\u0644\u062d\u0631\u0645\ud83d\udd4a", "name:ar": "\u062d\u0645\u0627\u0645\u0629 \u0627\u0644\u062d\u0631\u0645", "name:en": "HaMaMe", "name:fa": "\u0643\u0628\u0648\u062a\u0631 \u062d\u0631\u0645", "name:ku": "H@M@M\u00a3", "operator": "Eng. Hamed Alipour", "phone": "07810086878", "website": "https://m.facebook.com/hamed.alipour"}}, {"type": "node", "id": 6203136285, "lat": 31.9981672, "lon": 44.881301, "tags": {"amenity": "college", "name": "\u0643\u0644\u064a\u0629 \u0644\u0644\u0625\u062f\u0627\u0631\u0629 \u0627\u0644\u0625\u0642\u062a\u0635\u0627\u062f  \u0627\u0644\u0642\u0627\u062f\u0633\u064a\u0629"}}, {"type": "node", "id": 6640101047, "lat": 32.0093543, "lon": 44.9088205}, {"type": "node", "id": 6640101052, "lat": 32.0088099, "lon": 44.9127245}, {"type": "node", "id": 6640101061, "lat": 32.0092739, "lon": 44.9133107}, {"type": "node", "id": 6640101067, "lat": 32.0096842, "lon": 44.9130422}, {"type": "node", "id": 6640101083, "lat": 32.0107279, "lon": 44.9100488}, {"type": "node", "id": 6875397185, "lat": 31.9731895, "lon": 44.9567909, "tags": {"amenity": "college", "name": "\u0627\u0644\u0645\u0639\u0647\u062f \u0627\u0644\u062a\u0642\u0646\u064a \u0627\u0644\u062f\u064a\u0648\u0627\u0646\u064a\u0629", "name:en": "Technical Institute Of Diwaniyah", "website": "http://www.idi.atu.edu.iq/"}}, {"type": "node", "id": 7928441068, "lat": 32.0069797, "lon": 44.879483}, {"type": "node", "id": 7928441069, "lat": 32.0036202, "lon": 44.8770019}, {"type": "node", "id": 7928441070, "lat": 32.0012069, "lon": 44.8761758}, {"type": "node", "id": 7928441071, "lat": 31.9960707, "lon": 44.8852739}, {"type": "node", "id": 7928441072, "lat": 31.9976925, "lon": 44.8858801}, {"type": "node", "id": 7928441073, "lat": 31.9989027, "lon": 44.8823127}, {"type": "node", "id": 8252196102, "lat": 31.9982901, "lon": 44.8782747, "tags": {"amenity": "college", "name": "\u062c\u0627\u0645\u0639\u0629 \u0627\u0644\u0642\u0627\u062f\u0633\u064a\u0629"}}, {"type": "node", "id": 8324936218, "lat": 31.9980694, "lon": 44.8833115, "tags": {"amenity": "college", "name": "\u062c\u0627\u0645\u0639\u0629 \u0627\u0644\u0642\u0627\u062f\u0633\u064a\u0629"}}, {"type": "node", "id": 8324936317, "lat": 31.9952328, "lon": 44.8904006, "tags": {"amenity": "college", "name": "\u0643\u0644\u064a\u0629 \u0627\u0644\u062a\u0642\u0627\u0646\u0627\u062a \u0648 \u0643\u0644\u064a\u0629 \u0627\u0644\u0622\u062b\u0627\u0631"}}, {"type": "node", "id": 8324936320, "lat": 32.0026047, "lon": 44.882441, "tags": {"amenity": "college", "name": "\u0643\u0644\u064a\u0629 \u0627\u0644\u0622\u062f\u0627\u0628 - \u0627\u0644\u0645\u0628\u0646\u0649 \u0627\u0644\u062c\u062f\u064a\u062f"}}, {"type": "node", "id": 8324936618, "lat": 31.9731337, "lon": 44.9542934, "tags": {"amenity": "college", "name": "\u0627\u0644\u0645\u0639\u0647\u062f \u0627\u0644\u0641\u0646\u064a \u0627\u0644\u062a\u0642\u0646\u064a \u0641\u064a \u0627\u0644\u062f\u064a\u0648\u0627\u0646\u064a\u0629"}}, {"type": "node", "id": 8324937017, "lat": 32.0048754, "lon": 44.8791247, "tags": {"amenity": "college", "name": "\u0642\u0633\u0645 \u0627\u0644\u062c\u063a\u0631\u0627\u0641\u064a\u0629 - \u0643\u0644\u064a\u0629 \u0627\u0644\u0627\u062f\u0627\u0628"}}, {"type": "node", "id": 10142260019, "lat": 31.9942526, "lon": 44.8914562, "tags": {"amenity": "college", "name": "\u0643\u0644\u064a\u0629 \u0627\u0644\u0647\u0646\u062f\u0633\u0629 \u062c\u0627\u0645\u0639\u0629 \u0627\u0644\u0642\u0627\u062f\u0633\u064a\u0629", "name:en": "College of Engineering, University of Al-Qadisiyah"}}, {"type": "node", "id": 10173226418, "lat": 32.0041894, "lon": 44.8796264, "tags": {"amenity": "college", "name": "\u0643\u0644\u064a\u0647 \u0627\u0644\u0627\u062f\u0627\u0628 /\u062c\u0627\u0645\u0639\u0629 \u0627\u0644\u0642\u0627\u062f\u0633\u064a\u0629"}}, {"type": "node", "id": 10982204036, "lat": 32.0006, "lon": 44.880946, "tags": {"amenity": "college", "name": "Al-Qadisiya University College of Medicine, Diwaniyah"}}, {"type": "node", "id": 11017057705, "lat": 32.0034529, "lon": 44.879358, "tags": {"amenity": "college", "name": "\u0643\u0644\u064a\u0629 \u0627\u0644\u0637\u0628 \u0627\u0644\u0628\u064a\u0637\u0631\u064a/ \u062c\u0627\u0645\u0639\u0629 \u0627\u0644\u0642\u0627\u062f\u0633\u064a\u0629", "name:en": "Faculty of veterinary medicine"}}, {"type": "way", "id": 591190588, "nodes": [5643695297, 5643695298, 7928441068, 5643695299, 7928441069, 7928441070, 5643695300, 5643695301, 7928441071, 7928441072, 7928441073, 5643695297], "tags": {"amenity": "university", "fixme": "check extent - does the university campus area include the residential zone to the west?", "name": "\u062c\u0627\u0645\u0639\u0629 \u0627\u0644\u0642\u0627\u062f\u0633\u064a\u0629", "name:ar": "\u0642\u0633\u0645 \u0627\u0644\u0644\u063a\u0629 \u0627\u0644\u0627\u0646\u0643\u0644\u064a\u0632\u064a\u0647", "name:en": "University of AlQadisiyah", "name:ku": "English Department", "website": "https://qu.edu.iq/"}}, {"type": "way", "id": 706623532, "nodes": [6640101047, 6640101083, 6640101067, 6640101061, 2382579261, 6640101052, 6640101047], "tags": {"amenity": "university"}}]}