{"version": 0.6, "generator": "Overpass API 0.7.61.5 4133829e", "osm3s": {"timestamp_osm_base": "2024-02-29T13:48:25Z", "copyright": "The data included in this document is from www.openstreetmap.org. The data is made available under ODbL."}, "elements": [{"type": "node", "id": 5323866559, "lat": 10.8050916, "lon": 0.0909159, "tags": {"amenity": "school", "name": "CEG Tonte", "name:en": "Tonte Middle School"}}, {"type": "node", "id": 8233766388, "lat": 10.8296333, "lon": 0.1339133, "tags": {"amenity": "school", "name": "EPP Nioukpourma"}}, {"type": "node", "id": 9067195734, "lat": 10.8228349, "lon": 0.1108568, "tags": {"amenity": "school", "name": "EPP Nagr\u00e9"}}, {"type": "node", "id": 9067261651, "lat": 10.8217508, "lon": 0.0859186, "tags": {"amenity": "school"}}, {"type": "node", "id": 9067264188, "lat": 10.814893, "lon": 0.0994873, "tags": {"amenity": "school"}}, {"type": "node", "id": 9067312053, "lat": 10.8315963, "lon": 0.0772246, "tags": {"amenity": "school", "name": "Kinkangbane"}}, {"type": "node", "id": 9070051252, "lat": 10.859852, "lon": 0.0961369, "tags": {"amenity": "school"}}, {"type": "node", "id": 9074186568, "lat": 10.8736872, "lon": 0.1033148, "tags": {"amenity": "school", "name": "EPP Wagante"}}, {"type": "node", "id": 9078881074, "lat": 10.9079266, "lon": 0.0928304, "tags": {"amenity": "school", "name": "EPP Naki-Ouest"}}, {"type": "node", "id": 9917492592, "lat": 10.7391726, "lon": 0.093431, "tags": {"amenity": "school", "name": "EPP Molbagou"}}, {"type": "node", "id": 10961414784, "lat": 10.7765787, "lon": 0.088294, "tags": {"amenity": "school", "name": "EPP KPARK"}}, {"type": "node", "id": 10961459308, "lat": 10.7765787, "lon": 0.088294, "tags": {"amenity": "school", "name": "EPP KPARK"}}, {"type": "node", "id": 10961460742, "lat": 10.7765787, "lon": 0.088294, "tags": {"amenity": "school", "name": "EPP KPARK"}}]}