{"version": 0.6, "generator": "Overpass API 0.7.61.5 4133829e", "osm3s": {"timestamp_osm_base": "2024-03-05T14:34:07Z", "copyright": "The data included in this document is from www.openstreetmap.org. The data is made available under ODbL."}, "elements": [{"type": "node", "id": 9944650510, "lat": 63.727723, "lon": 22.5800261, "tags": {"amenity": "ferry_terminal", "cargo": "passengers", "name": "M\u00e4ssk\u00e4r"}}, {"type": "node", "id": 9990569694, "lat": 63.8083775, "lon": 22.6696106, "tags": {"amenity": "ferry_terminal", "cargo": "passengers", "name": "K\u00f6pmanholmen", "name:sv": "K\u00f6pmanholmen"}}, {"type": "node", "id": 9990569698, "lat": 63.8036048, "lon": 22.6770755, "tags": {"amenity": "ferry_terminal", "cargo": "passengers", "name": "Sonamo"}}, {"type": "node", "id": 9990569703, "lat": 63.8065893, "lon": 22.6710982, "tags": {"amenity": "ferry_terminal", "cargo": "passengers", "name": "K\u00f6pmanholmen", "name:sv": "K\u00f6pmanholmen"}}, {"type": "node", "id": 9990650217, "lat": 63.9490773, "lon": 22.8507035, "tags": {"amenity": "ferry_terminal", "cargo": "passengers", "name": "Tankar"}}]}