{"version": 0.6, "generator": "Overpass API 0.7.61.5 4133829e", "osm3s": {"timestamp_osm_base": "2024-03-05T15:08:00Z", "copyright": "The data included in this document is from www.openstreetmap.org. The data is made available under ODbL."}, "elements": [{"type": "node", "id": 61151806, "lat": 65.5330663, "lon": 17.536874, "tags": {"name": "Sorsele", "name:ru": "\u0421\u0443\u0440\u0441\u0435\u043b\u0435", "name:sju": "Suorss\u00e1", "name:sma": "Suarsa", "name:sv": "Sorsele", "place": "town", "population": "1277", "ref:se:pts:postort": "SORSELE", "ref:se:scb": "8316", "wikidata": "Q524379", "wikipedia": "en:Sorsele"}}, {"type": "node", "id": 2235761948, "lat": 65.3428603, "lon": 17.5858606, "tags": {"alt_name": "Blattniksele", "name": "Blattnicksele", "name:sju": "Bl\u00e1hnage", "note": "Lantm\u00e4teriet says this is spelled Blattniksele, but everyone else use 'ck'.", "place": "village", "ref:se:pts:postort": "BLATTNICKSELE", "ref:se:scb": "S8449", "wikidata": "Q882229", "wikipedia": "sv:Blattnicksele"}}, {"type": "node", "id": 2666853969, "lat": 65.2146145, "lon": 17.6358979, "tags": {"name": "Lomselen\u00e4s", "name:sju": "Duvvieksuvvane", "name:sv": "Lomselen\u00e4s", "place": "hamlet"}}, {"type": "node", "id": 2667056000, "lat": 65.2414104, "lon": 17.6630244, "tags": {"name": "Sandsj\u00f6n\u00e4s", "place": "hamlet"}}, {"type": "node", "id": 2667056001, "lat": 65.2419735, "lon": 17.684868, "tags": {"name": "Sandsj\u00f6", "place": "hamlet"}}, {"type": "node", "id": 2667056002, "lat": 65.2118506, "lon": 17.7119394, "tags": {"name": "\u00d6stra Sandsj\u00f6", "place": "hamlet"}}, {"type": "node", "id": 2755955791, "lat": 65.5612024, "lon": 17.7808057, "tags": {"name": "Heden", "place": "hamlet"}}, {"type": "node", "id": 2756004707, "lat": 65.4621126, "lon": 17.7714993, "tags": {"name": "Aha", "name:sju": "\u00c1h\u00e1", "name:sv": "Aha", "place": "hamlet"}}, {"type": "node", "id": 2756027657, "lat": 65.3773078, "lon": 17.8288751, "tags": {"name": "Staggtr\u00e4sk", "name:sju": "St\u00e1gg\u00e1vrrie", "name:sv": "Staggtr\u00e4sk", "place": "hamlet"}}, {"type": "node", "id": 2756074687, "lat": 65.2887892, "lon": 17.7932076, "tags": {"name": "R\u00e5goliden", "name:sju": "R\u00e5vguogielas", "name:sv": "R\u00e5goliden", "place": "village"}}, {"type": "node", "id": 2758260462, "lat": 65.2859027, "lon": 17.7416493, "tags": {"name": "Lillsenbr\u00e4nnan", "name:sma": "Unna Suvvanetje", "place": "hamlet"}}, {"type": "node", "id": 2758260477, "lat": 65.2770527, "lon": 17.7878892, "tags": {"name": "Sappetavan", "name:sju": "S\u00e1hpatvu\u00f6hpeje", "name:sv": "Sappetavan", "place": "hamlet"}}, {"type": "node", "id": 2758283613, "lat": 65.2649785, "lon": 17.8119238, "tags": {"name": "Fredriksborg", "place": "hamlet"}}, {"type": "node", "id": 2900452242, "lat": 65.4248211, "lon": 17.4979291, "tags": {"name": "Nedre Saxn\u00e4s", "name:sju": "Vu\u00f6liebe Sk\u00e1rjj\u00e1njuon\u00e1", "name:sv": "Nedre Saxn\u00e4s", "place": "hamlet"}}, {"type": "node", "id": 2900452249, "lat": 65.4528307, "lon": 17.4578931, "tags": {"name": "\u00d6vre Saxn\u00e4s", "name:sma": "Bijjiebe Sk\u00e1rjj\u00e1njuon\u00e1", "place": "hamlet"}}, {"type": "node", "id": 2900452268, "lat": 65.485632, "lon": 17.419316, "tags": {"name": "Stensund", "name:sma": "Ge\u00e4rggietj\u00e5lbmie", "name:sv": "Stensund", "place": "hamlet"}}, {"type": "node", "id": 2900486061, "lat": 65.3964617, "lon": 17.5621433, "tags": {"name": "Kvarnbr\u00e4nna", "place": "hamlet"}}, {"type": "node", "id": 3282713957, "lat": 65.3364268, "lon": 17.5715244, "tags": {"alt_name": "S\u00f6dra Blattniksele", "name": "S\u00f6dra Blattnicksele", "place": "hamlet"}}, {"type": "node", "id": 3505052990, "lat": 65.2117172, "lon": 17.0676478, "tags": {"name": "Renberg", "name:sju": "B\u00e5ts\u00e5jvvie", "name:sv": "Renberg", "place": "hamlet"}}, {"type": "node", "id": 3506659115, "lat": 65.5327878, "lon": 16.980532, "tags": {"name": "Jiltjaur", "name:sju": "Jilttjure", "name:sv": "Jiltjaur", "place": "hamlet"}}, {"type": "node", "id": 5216053891, "lat": 65.3022534, "lon": 17.6624536, "tags": {"name": "Sandsele", "name:sju": "S\u00e1ddiesuvvane", "name:sv": "Sandsele", "place": "hamlet"}}, {"type": "node", "id": 5311727299, "lat": 65.2044687, "lon": 17.2682606, "tags": {"name": "Norrdal", "name:sju": "Nuorttal\u00e5bmie", "name:sv": "Norrdal", "place": "hamlet"}}, {"type": "node", "id": 6800122357, "lat": 65.619886, "lon": 17.5358563, "tags": {"name": "Laisheden", "name:sma": "L\u00e1jssuogielas", "place": "hamlet"}}, {"type": "node", "id": 7212051443, "lat": 65.2579908, "lon": 16.8308615, "tags": {"name": "Blaiken", "place": "hamlet"}}, {"type": "node", "id": 8119036338, "lat": 65.2006923, "lon": 17.0048371, "tags": {"name": "Laisb\u00e4ck", "name:sma": "Lojsatjuhka", "place": "hamlet"}}, {"type": "node", "id": 8568532622, "lat": 65.4687935, "lon": 16.894784, "tags": {"name": "\u00c5backa", "place": "hamlet"}}, {"type": "node", "id": 8578285284, "lat": 65.6023266, "lon": 17.486329, "tags": {"name": "Nedre Norra \u00d6rn\u00e4s", "place": "hamlet"}}, {"type": "node", "id": 8578285285, "lat": 65.6137845, "lon": 17.4608803, "tags": {"name": "\u00d6vre Norra \u00d6rn\u00e4s", "place": "hamlet"}}, {"type": "node", "id": 8579263095, "lat": 65.4718759, "lon": 17.4318695, "tags": {"name": "Nyby", "name:sma": "\u00c5rruonjuon\u00e1", "place": "hamlet"}}]}