{"version": 0.6, "generator": "Overpass API 0.7.61.5 4133829e", "osm3s": {"timestamp_osm_base": "2024-03-06T10:45:02Z", "copyright": "The data included in this document is from www.openstreetmap.org. The data is made available under ODbL."}, "elements": [{"type": "node", "id": 2483749989, "lat": 31.696242, "lon": 45.013996, "tags": {"alt_name": "\u0645\u062f\u0631\u0633\u0629 \u0627\u0644\u0634\u0648\u0641\u0629", "amenity": "school", "int_name": "Madrasat ash Sh\u016bfah, \u0645\u062f\u0631\u0633\u0629 \u0627\u0644\u0634\u0648\u0641\u0629, Madrasat ash Shufah, \u0645\u062f\u0631\u0633\u0629 \u0627\u0644\u0634\u0648\u0641\u0629", "name": "\u0645\u062f\u0631\u0633\u0629 \u0627\u0644\u0634\u0648\u0641\u0629", "name:ar": "\u0645\u062f\u0631\u0633\u0629 \u0627\u0644\u0634\u0648\u0641\u0629", "name:ar1": "\u0645\u062f\u0631\u0633\u0629 \u0627\u0644\u0634\u0648\u0641\u0629", "name:de": "Madrasat ash Shufah", "name:en": "Madrasat ash Shufah", "name:fr": "Madrasat ash Shufah"}}, {"type": "node", "id": 2483751153, "lat": 31.693879, "lon": 44.962141, "tags": {"alt_name": "\u0645\u062f\u0631\u0633\u0629 \u0627\u0644\u062e\u0632\u0627\u0639\u0644", "amenity": "school", "int_name": "Madrasat al Khaz\u0101al, \u0645\u062f\u0631\u0633\u0629 \u0627\u0644\u062e\u0632\u0627\u0639\u0644, Madrasat al Khazaal, \u0645\u062f\u0631\u0633\u0629 \u0627\u0644\u062e\u0632\u0627\u0639\u0644", "name": "\u0645\u062f\u0631\u0633\u0629 \u0627\u0644\u062e\u0632\u0627\u0639\u0644", "name:ar": "\u0645\u062f\u0631\u0633\u0629 \u0627\u0644\u062e\u0632\u0627\u0639\u0644", "name:ar1": "\u0645\u062f\u0631\u0633\u0629 \u0627\u0644\u062e\u0632\u0627\u0639\u0644", "name:de": "Madrasat al Khazaal", "name:en": "Madrasat al Khazaal", "name:fr": "Madrasat al Khazaal"}}, {"type": "node", "id": 4408597842, "lat": 31.5880873, "lon": 44.6452549, "tags": {"amenity": "school", "name": "\u0645\u062f\u0631\u0633\u0629 \u0627\u0628\u0646 \u0632\u064a\u062f\u0648\u0646 \u0644\u0644\u0628\u0646\u0627\u062a"}}, {"type": "node", "id": 4408606364, "lat": 31.5872323, "lon": 44.6450893, "tags": {"amenity": "school", "name": "\u062b\u0627\u0646\u0648\u064a\u0629 \u063a\u0632\u0629 \u0644\u0644\u0628\u0646\u0627\u062a"}}, {"type": "node", "id": 4408608279, "lat": 31.5878211, "lon": 44.6418884, "tags": {"amenity": "school", "name": "\u062b\u0627\u0646\u0648\u064a\u0629 \u0627\u0644\u0646\u0636\u0627\u0644"}}, {"type": "node", "id": 4514773633, "lat": 31.578068, "lon": 44.639276, "tags": {"amenity": "school", "name": "\u0645\u062f\u0631\u0633\u0629 \u0639\u0642\u0628\u0629 \u0627\u0628\u0646 \u0646\u0627\u0641\u0639"}}, {"type": "node", "id": 4517049087, "lat": 31.5853904, "lon": 44.6459659, "tags": {"amenity": "school", "name": "\u0645\u062f\u0631\u0633\u0629 \u0627\u0644\u0627\u0633\u0643\u0646\u062f\u0631\u0648\u0646\u0629 \u0644\u0644\u0628\u0646\u064a\u0646"}}, {"type": "node", "id": 4525580656, "lat": 31.5816098, "lon": 44.6504513, "tags": {"amenity": "school", "name": "\u0645\u062a\u0648\u0633\u0637\u0629 \u0627\u0644\u0634\u0646\u0627\u0641\u064a\u0629"}}, {"type": "node", "id": 4527785795, "lat": 31.5865832, "lon": 44.6411258, "tags": {"amenity": "school", "name": "\u0631\u0648\u0636\u0629 \u0627\u0644\u0648\u0631\u0648\u062f"}}, {"type": "node", "id": 4535429266, "lat": 31.5810543, "lon": 44.6478887, "tags": {"amenity": "school", "name": "\u0645\u062f\u0631\u0633\u0629 \u0627\u0644\u0634\u0646\u0627\u0641\u064a\u0629 \u0627\u0644\u0627\u0628\u062a\u062f\u0627\u064a\u0629 \u0644\u0644\u0628\u0646\u0627\u062a"}}, {"type": "node", "id": 4535525163, "lat": 31.5856529, "lon": 44.6479659}, {"type": "node", "id": 4535525169, "lat": 31.5843688, "lon": 44.647805}, {"type": "node", "id": 4544880123, "lat": 31.5821648, "lon": 44.6507546}, {"type": "node", "id": 4544880124, "lat": 31.5816206, "lon": 44.6499359}, {"type": "node", "id": 4544880125, "lat": 31.5809275, "lon": 44.6505707}, {"type": "node", "id": 4544880126, "lat": 31.5814717, "lon": 44.6513894}, {"type": "node", "id": 4559463545, "lat": 31.5849194, "lon": 44.6486814}, {"type": "node", "id": 4587675093, "lat": 31.6482404, "lon": 44.6994349}, {"type": "node", "id": 4587675094, "lat": 31.647738, "lon": 44.7001215}, {"type": "node", "id": 4587675095, "lat": 31.6473636, "lon": 44.6996924}, {"type": "node", "id": 4587675096, "lat": 31.6478294, "lon": 44.6990487}, {"type": "node", "id": 4742698973, "lat": 31.5850775, "lon": 44.6471087}, {"type": "node", "id": 4745488147, "lat": 31.5761579, "lon": 44.6458964}, {"type": "node", "id": 4745488148, "lat": 31.5757233, "lon": 44.6457179}, {"type": "node", "id": 4745488149, "lat": 31.5755638, "lon": 44.6462531}, {"type": "node", "id": 4745488150, "lat": 31.5760185, "lon": 44.6464288}, {"type": "node", "id": 4995414721, "lat": 31.2641952, "lon": 45.0670665, "tags": {"amenity": "school", "name": "\u0645\u062f\u0631\u0633\u0629 \u0627\u0644\u062b\u0642\u0644\u064a\u0646 \u0627\u0644\u062f\u064a\u0646\u064a\u0629", "name:ar": "\u0645\u062f\u0631\u0633\u0629 \u0627\u0644\u062b\u0642\u0644\u064a\u0646 \u0627\u0644\u062f\u064a\u0646\u064a\u0629"}}, {"type": "node", "id": 5473415221, "lat": 31.5395121, "lon": 44.777909, "tags": {"amenity": "school", "name": "\u0645\u062f\u0631\u0633\u0629 \u0627\u0644\u0639\u062f\u0644"}}, {"type": "node", "id": 5473415422, "lat": 31.5402378, "lon": 44.7781293, "tags": {"amenity": "school", "name": "\u0645\u062f\u0631\u0633\u0629 \u0627\u0644\u0639\u062f\u0644"}}, {"type": "node", "id": 6414264292, "lat": 31.4522638, "lon": 44.9213436, "tags": {"addr:housenumber": "253", "addr:postcode": "2451", "addr:street": "24", "amenity": "school", "email": "hamza_sahi@yahoo.com", "opening_hours": "Mo-Su 08:15-12:00", "phone": "07816040292"}}, {"type": "node", "id": 6414264293, "lat": 31.4649456, "lon": 44.7419302, "tags": {"addr:housenumber": "154", "addr:postcode": "2545", "addr:street": "\u0637\u0631\u064a\u0642 \u0646\u062c\u0641 \u0633\u0645\u0627\u0648\u0629", "amenity": "school", "email": "hamza_sahi@yahoo.com", "opening_hours": "Mo-Su 08:00-13:00", "phone": "07816040292"}}, {"type": "node", "id": 6414264294, "lat": 31.4808141, "lon": 44.7544426, "tags": {"addr:street": "\u0634\u0646\u0627\u0641\u064a\u0629 = \u0642\u0631\u064a\u0629 \u0627\u0644\u063a\u0631\u0628", "amenity": "school", "email": "hamza_sahi@yahoo.com", "opening_hours": "Mo-Su 08:00-12:00", "phone": "07816040292"}}, {"type": "node", "id": 6414264295, "lat": 31.5491959, "lon": 44.6781105, "tags": {"addr:housenumber": "07816041134", "addr:street": "\u0634\u0627\u0631\u0639 \u0634\u0646\u0627\u0641\u064a\u0629 \u0627\u0644\u063a\u0631\u0628", "amenity": "school", "opening_hours": "Mo-Su 08:00-13:00", "phone": "07812810947"}}, {"type": "node", "id": 6414264296, "lat": 31.6876359, "lon": 44.7405885, "tags": {"addr:street": "\u0634\u0646\u0627\u0641\u064a\u0629 - \u062a\u0642\u0627\u0637\u0639 \u0645\u064a\u0631\u064a \u0627\u0644\u0639\u0637\u064a\u0629", "amenity": "school", "email": "hamzasahi@outlook.com", "opening_hours": "Mo-Su 08:00-13:00", "phone": "07801347903"}}, {"type": "node", "id": 6414307988, "lat": 31.5416392, "lon": 44.8810533, "tags": {"addr:housenumber": "6", "addr:street": "\u0634\u0627\u0631\u0639 \u0645\u0632\u0631\u0639\u0629 \u0627\u0644\u062f\u0648\u0644\u0629", "amenity": "school", "email": "hamza_sahi@yahoo.com", "opening_hours": "Mo-Su 00:00-20:00", "phone": "07816040292"}}, {"type": "node", "id": 6414307989, "lat": 31.4771797, "lon": 44.6985887, "tags": {"amenity": "school", "opening_hours": "Mo-Su 08:00-13:00", "phone": "07816040292"}}, {"type": "node", "id": 6414309888, "lat": 31.4739833, "lon": 45.0457628, "tags": {"addr:housenumber": "25", "addr:postcode": "2425", "addr:street": "\u0634\u0627\u0631\u0639 \u0633\u0628\u0637\u0631\u0629 \u0627\u0644\u0631\u0645\u064a\u062b\u0629", "amenity": "school", "email": "hamza_sahi@yahoo.com", "opening_hours": "Mo-Su 08:15-12:00", "phone": "07816040292"}}, {"type": "node", "id": 6416659352, "lat": 31.4463077, "lon": 44.7758573, "tags": {"amenity": "school", "email": "hamza_sahi@yahoo.com", "phone": "+9647816040292"}}, {"type": "node", "id": 6416663193, "lat": 31.4840344, "lon": 44.9335298, "tags": {"amenity": "school", "email": "hamza_sahi@yahoo.com", "name": "\u0645\u062f\u0631\u0633\u0629 \u0628\u0627\u0628\u0644", "phone": "07816040292"}}, {"type": "node", "id": 6416665225, "lat": 31.5274032, "lon": 45.0282584, "tags": {"addr:street": "\u0634\u0627\u0631\u0639 \u0645\u0639\u0627\u0645\u0644 \u0627\u0644\u0637\u0627\u0628\u0648\u0642", "amenity": "school", "email": "hamza_sahi@yahoo.com", "opening_hours": "Mo-Su 08:00-13:00", "phone": "07802741460"}}, {"type": "node", "id": 6416665227, "lat": 31.452161, "lon": 44.9213487, "tags": {"amenity": "school", "email": "hamza_sahi@yahoo.com", "phone": "07816040292"}}, {"type": "node", "id": 6416665245, "lat": 31.4569338, "lon": 44.7960168, "tags": {"amenity": "school", "email": "hamza_sahi@yahoo.com", "phone": "+9647816040292"}}, {"type": "node", "id": 6416665252, "lat": 31.4240751, "lon": 44.7577226, "tags": {"amenity": "school", "email": "hamza_sahi@yahoo.com", "phone": "+9647816040292"}}, {"type": "node", "id": 6416665271, "lat": 31.5856499, "lon": 44.6890211, "tags": {"amenity": "school", "email": "hamza_sahi@yahoo.com", "name": "\u0645\u062f\u0631\u0633\u0629 \u0645\u0648\u0633\u0649 \u0628\u0646 \u0646\u0635\u064a\u0631", "opening_hours": "Mo-Su 08:00-13:00", "phone": "+9647816040292"}}, {"type": "node", "id": 6416665417, "lat": 31.5815883, "lon": 45.0570932, "tags": {"amenity": "school", "email": "hamza_sahi@yahoo.com", "phone": "07816040292"}}, {"type": "node", "id": 6416665419, "lat": 31.4680641, "lon": 44.8967541, "tags": {"amenity": "school", "email": "hamza_sahi@yahoo.com", "phone": "07816040292"}}, {"type": "node", "id": 6416665421, "lat": 31.6171746, "lon": 44.7097552, "tags": {"amenity": "school", "email": "hamzasahi@outlook.com", "phone": "07816040292"}}, {"type": "node", "id": 6416665425, "lat": 31.4367034, "lon": 44.9834015, "tags": {"amenity": "school"}}, {"type": "node", "id": 6416665810, "lat": 31.6020578, "lon": 44.5754668, "tags": {"amenity": "school", "email": "hamza_sahi@yahoo.com", "opening_hours": "Mo-Su 08:00-13:00"}}, {"type": "node", "id": 6416665821, "lat": 31.6106092, "lon": 44.9415387, "tags": {"addr:housenumber": "457", "addr:postcode": "1754", "addr:street": "\u0645\u0632\u0631\u0639\u0629 \u0627\u0644\u062f\u0648\u0644\u0629", "amenity": "school", "name": "\u0645\u062f\u0631\u0633\u0629 \u0627\u0644\u0646\u0633\u0648\u0631 \u0627\u0644\u0627\u0628\u062a\u062f\u0627\u0626\u064a\u0629", "opening_hours": "Mo-Su 08:00-14:00", "phone": "07816037495"}}, {"type": "node", "id": 6416665822, "lat": 31.4232556, "lon": 44.9437957, "tags": {"amenity": "school"}}, {"type": "node", "id": 6416665826, "lat": 31.4222747, "lon": 44.9437455, "tags": {"amenity": "school", "email": "hamza_sahi@yahoo.com"}}, {"type": "node", "id": 6416665835, "lat": 31.4569525, "lon": 44.7960508, "tags": {"amenity": "school", "email": "hamzasahi@outlook.com", "phone": "+9647816040292"}}, {"type": "node", "id": 6416665846, "lat": 31.5858726, "lon": 44.8027674, "tags": {"amenity": "school", "email": "hamza_sahi@yahoo.com", "name": "\u0645\u062f\u0631\u0633\u0629 \u0627\u0644\u0627\u0628\u062a\u0647\u0627\u0644", "opening_hours": "Mo-Su 08:00-18:00", "phone": "+9647816040292"}}, {"type": "node", "id": 6416667324, "lat": 31.5858276, "lon": 44.8027571, "tags": {"amenity": "school", "name": "\u0645\u062f\u0631\u0633\u0629 \u0627\u0644\u0627\u0628\u062a\u0647\u0627\u0644"}}, {"type": "node", "id": 6440910487, "lat": 31.4242336, "lon": 44.8455901, "tags": {"addr:street": "\u0627\u0644\u0633\u0645\u0627\u0648\u0629 \u0627\u0644\u0646\u062c\u0641", "amenity": "school", "email": "hamza_sahi@yahoo.com", "name": "\u0645\u062f\u0631\u0633\u0629 \u0627\u0644\u0627\u0648\u0633", "phone": "009647816040292"}}, {"type": "node", "id": 7899301585, "lat": 31.4110018, "lon": 45.058831, "tags": {"addr:postcode": "6611", "amenity": "school", "name": "\u062d\u062c\u0631 \u0628\u0646 \u0639\u062f\u064a \u0627\u0644\u0627\u0628\u062a\u062f\u0627\u0626\u064a\u0629"}}, {"type": "node", "id": 8329832420, "lat": 31.6452959, "lon": 44.9781995, "tags": {"addr:housenumber": "3575", "addr:postcode": "15726", "addr:street": "\u0634\u0627\u0631\u0639 \u0645\u0632\u0631\u0639\u0629 \u0627\u0644\u062f\u0648\u0644\u0629", "amenity": "school", "email": "ahmead.ali12380@gmail.com", "name": "\u0645\u062f\u0631\u0633\u0629 \u0628\u062f\u0631 \u0627\u0644\u0627\u0628\u062a\u062f\u0627\u0626\u064a\u0629", "name:en": "Bader school", "opening_hours": "Mo-Su 02:30-20:00", "phone": "07816040292"}}, {"type": "node", "id": 8329900017, "lat": 31.6534473, "lon": 44.7725217, "tags": {"addr:housenumber": "4542", "addr:postcode": "15758", "addr:street": "\u0634\u0627\u0631\u0639 \u0627\u0644\u0634\u0646\u0627\u0641\u064a\u0629 \u062d\u0645\u0632\u0629", "amenity": "school", "email": "ahmead.ali12380@gmail.com", "name": "\u0645\u062f\u0631\u0633\u0629 \u0627\u0644\u062a\u0631\u0627\u062b \u0627\u0644\u0639\u0631\u0628\u064a", "opening_hours": "Mo-Su 01:30-20:00", "phone": "07816040292"}}, {"type": "node", "id": 8329950317, "lat": 31.6171701, "lon": 44.7097464, "tags": {"addr:housenumber": "351", "addr:postcode": "1575", "addr:street": "\u0634\u0627\u0631\u0639 \u0627\u0644\u0628\u0632\u0644", "amenity": "school", "email": "hamza_sahi@yahoo.com", "name": "\u0645\u062f\u0631\u0633\u0629 \u0627\u0644\u0625\u0645\u0627\u0645 \u0627\u0644\u0639\u0633\u0643\u0631\u064a", "opening_hours": "Mo-Su 01:00-20:00", "phone": "07816040292"}}, {"type": "node", "id": 8329950318, "lat": 31.4649361, "lon": 44.7419146, "tags": {"addr:housenumber": "354", "addr:postcode": "1575", "addr:street": "\u0634\u0627\u0631\u0639 \u0633\u0645\u0627\u0648\u0629 \u0646\u062d\u0641", "amenity": "school", "email": "hamza_sahi@yahoo.com", "name": "\u0645\u062f\u0631\u0633\u0629 \u0627\u0644\u0627\u0648\u0635\u064a\u0627\u0621", "opening_hours": "Mo-Su 08:00-13:30", "phone": "07816040292"}}, {"type": "node", "id": 8329950417, "lat": 31.4771755, "lon": 44.6985766, "tags": {"addr:housenumber": "354", "addr:postcode": "1575", "addr:street": "\u0634\u0627\u0631\u0639 \u0633\u0645\u0627\u0648\u0629 \u0646\u062c\u0641", "amenity": "school", "email": "hamza_sahi@yahoo.com", "name": "\u0645\u062f\u0631\u0633\u0629 \u0627\u0644\u0639\u0648\u0627\u0644\u064a", "opening_hours": "Mo-Su 01:30-20:00", "phone": "07816040292"}}, {"type": "node", "id": 8330024917, "lat": 31.4462819, "lon": 44.7758353, "tags": {"addr:housenumber": "357", "addr:postcode": "1575", "addr:street": "\u0634\u0646\u0627\u0641\u064a\u0629 = \u0642\u0631\u064a\u0629 \u0627\u0644\u063a\u0631\u0628", "amenity": "school", "email": "hamza_sahi@yahoo.com", "name": "\u0645\u062f\u0631\u0633\u0629 \u0627\u0644\u0645\u0646\u0627\u062c\u0627\u0629", "opening_hours": "Mo-Su 09:00-18:00", "phone": "07816040292", "website": "https://www.facebook.com/hmzysah"}}, {"type": "node", "id": 8330024918, "lat": 31.3838455, "lon": 44.8999017, "tags": {"addr:housenumber": "07816040292", "addr:postcode": "357", "addr:street": "\u0634\u0627\u0631\u0639 \u0627\u0644\u063a\u0631\u0628", "amenity": "school", "email": "hamza_sahi@yahoo.com", "name": "\u0645\u062f\u0631\u0633\u0629 \u0627\u0648\u062a\u0627\u062f \u0627\u0644\u0627\u0631\u0636", "opening_hours": "Mo-Su 08:00-13:30", "phone": "07816040292", "website": "https://www.facebook.com/hmzysah"}}, {"type": "node", "id": 8330025517, "lat": 31.4504678, "lon": 44.8028844, "tags": {"addr:housenumber": "354", "addr:postcode": "1535", "addr:street": "\u0634\u0646\u0627\u0641\u064a\u0629 = \u0642\u0631\u064a\u0629 \u0627\u0644\u063a\u0631\u0628", "amenity": "school", "name": "\u0645\u062f\u0631\u0633\u0629 \u0627\u0644\u0646\u062c\u0627\u062d \u0627\u0644\u0627\u0628\u062a\u062f\u0627\u0626\u064a\u0629", "opening_hours": "Mo-Su 01:30-20:00", "phone": "7816040292", "website": "https://www.facebook.com/hmzysah"}}, {"type": "node", "id": 8364945820, "lat": 31.6286601, "lon": 45.0520925, "tags": {"addr:housenumber": "753", "addr:postcode": "1754", "addr:street": "\u0634\u0627\u0631\u0639 \u0627\u0644\u062d\u0645\u0632\u0629 \u0627\u0644\u0634\u0631\u0642\u064a \u0627\u0644\u0631\u0645\u064a\u062b\u0629", "amenity": "school", "email": "hamza_sahi@yahoo.com", "name": "\u0645\u062f\u0631\u0633\u0629 \u0627\u0644\u0648\u062c\u062f\u0627\u0646", "opening_hours": "Mo-Su 08:00-13:00", "phone": "009647816040292"}}, {"type": "node", "id": 8411325817, "lat": 31.6134309, "lon": 44.620086, "tags": {"addr:housenumber": "245", "addr:postcode": "1574", "amenity": "school", "name": "\u0645\u062f\u0631\u0633\u0629 \u0630\u0627\u062a \u0627\u0644\u0633\u0644\u0627\u0633\u0644", "opening_hours": "Mo-Su 08:00-13:00", "phone": "07816040292"}}, {"type": "node", "id": 8411325818, "lat": 31.575118, "lon": 44.6354609, "tags": {"addr:housenumber": "452", "addr:postcode": "1574", "amenity": "school", "name": "\u0645\u062f\u0631\u0633\u0629 \u0639\u0642\u0628\u0629 \u0628\u0646 \u0646\u0627\u0641\u0639 \u0644\u0644\u0628\u0646\u0627\u062a", "phone": "07816040292"}}, {"type": "node", "id": 8411325917, "lat": 31.6021326, "lon": 44.5754407, "tags": {"addr:housenumber": "754", "addr:postcode": "1574", "amenity": "school", "name": "\u0645\u062f\u0631\u0633\u0629 \u0627\u0644\u0645\u0641\u0627\u062e\u0631", "opening_hours": "Mo-Su 08:00-13:00", "phone": "07816040292"}}, {"type": "node", "id": 8428257518, "lat": 31.668651, "lon": 44.9619751, "tags": {"addr:housenumber": "1547", "addr:postcode": "7541", "addr:street": "\u0634\u0627\u0631\u0639 \u0645\u0632\u0631\u0639\u0629 \u0627\u0644\u062f\u0648\u0644\u0629", "amenity": "school", "email": "hamza_sahi@yahoo.com", "name": "\u0645\u062f\u0631\u0633\u0629 \u0627\u0644\u0641\u0636\u064a\u0644\u0629", "opening_hours": "Mo-Su 08:00-14:00", "phone": "07816038264"}}, {"type": "node", "id": 8428277317, "lat": 31.4436298, "lon": 44.9936381, "tags": {"addr:housenumber": "157", "addr:postcode": "2546", "amenity": "school", "email": "hamza_sahi@yahoo.com", "name": "\u0645\u062f\u0631\u0633\u0629 \u0637\u0631\u0627\u0628\u0644\u0633", "phone": "07816040292"}}, {"type": "node", "id": 8428326817, "lat": 31.6778843, "lon": 44.9831703, "tags": {"addr:housenumber": "1245", "addr:postcode": "1754", "addr:street": "\u0634\u0627\u0631\u0639 \u062d\u0645\u0632\u0629 \u0631\u0645\u064a\u062b\u0629", "amenity": "school", "email": "hamza_sahi@yahoo.com", "name": "\u0645\u062f\u0631\u0633\u0629 \u0627\u0644\u0647\u0628\u0629", "name:ar": "\u0645\u062f\u0631\u0633\u0629 \u0627\u0644\u0647\u0628\u0629 \u0627\u0644\u0627\u0628\u062a\u062f\u0627\u0626\u064a\u0629", "opening_hours": "Mo-Su 08:00-13:30", "phone": "07812155449"}}, {"type": "node", "id": 8428327317, "lat": 31.6959326, "lon": 44.970431, "tags": {"addr:housenumber": "1754", "addr:postcode": "1475", "amenity": "school", "name": "\u0645\u062f\u0631\u0633\u0629 \u0637\u0631\u064a\u0642 \u0627\u0644\u062d\u0633\u064a\u0646", "opening_hours": "Mo-Su 08:00-13:30", "phone": "07804304313"}}, {"type": "node", "id": 8579778018, "lat": 31.5858565, "lon": 44.6485563, "tags": {"addr:housenumber": "07803490086", "addr:street": "\u0634\u0627\u0631\u0639 \u0627\u0644\u0645\u0648\u0627\u0643\u0628", "amenity": "school", "name": "\u0645\u0639\u0647\u062f \u0639\u064a\u0633\u0649 \u0628\u0646 \u0632\u064a\u062f \u0639 \u0627\u0644\u0646\u0645\u0648\u0630\u062c\u064a", "name:en": "ESSA IBN ZAID a.s institute ideal", "opening_hours": "Mo-Su 07:00-19:00", "phone": "07803490086"}}, {"type": "node", "id": 8579782419, "lat": 31.5856692, "lon": 44.6449275, "tags": {"addr:street": "down town", "amenity": "school", "name": "\u0645\u0639\u0647\u062f \u0627\u0644\u0645\u0639\u0631\u0641\u0629 \u0627\u0644\u0627\u0647\u0644\u064a", "name:en": "National Knowledge Institute", "opening_hours": "24/7"}}, {"type": "node", "id": 8650524324, "lat": 31.5250431, "lon": 44.857892, "tags": {"addr:housenumber": "754", "addr:postcode": "1574", "addr:street": "\u0646\u0647\u0627\u064a\u0629 \u0634\u0627\u0631\u0639 \u0645\u0632\u0631\u0639\u0629 \u0627\u0644\u062f\u0648\u0644\u0629", "amenity": "school", "email": "hamza_sahi@yahoo.com", "name": "\u0645\u062f\u0631\u0633\u0629", "name:ar": "\u0645\u062f\u0631\u0633\u0629 \u0627\u0644\u0627\u0639\u062a\u062f\u0627\u0644 \u0627\u0644\u0627\u0628\u062a\u062f\u0627\u0626\u064a\u0629", "opening_hours": "Mo-Su 08:00-13:30", "phone": "07816040292"}}, {"type": "node", "id": 9276861817, "lat": 31.4739453, "lon": 45.045725, "tags": {"amenity": "school", "email": "hamza_sahi@yahoo.com", "name": "\u0645\u062f\u0631\u0633\u0629 \u0627\u0628\u0646 \u0627\u0644\u0627\u0631\u0642\u0645", "phone": "07816040292"}}, {"type": "node", "id": 9307083718, "lat": 31.4366108, "lon": 44.9834147, "tags": {"amenity": "school", "email": "hamza_sahi@yahoo.com", "name": "\u0645\u062f\u0631\u0633\u0629 \u0627\u0644\u062d\u064a\u0627\u0629", "phone": "07816040292"}}, {"type": "node", "id": 9463844717, "lat": 31.4232952, "lon": 44.9436668, "tags": {"addr:housenumber": "754", "addr:postcode": "7545", "amenity": "school", "email": "hamza_sahi@yahoo.com", "name": "\u0645\u062f\u0631\u0633\u0629 \u0627\u0644\u0635\u062f\u064a\u0642\u0629 \u0644\u0644\u0628\u0646\u0627\u062a", "phone": "+9647816040292"}}, {"type": "node", "id": 9463860017, "lat": 31.4223588, "lon": 44.943574, "tags": {"addr:housenumber": "7548", "addr:postcode": "5428", "amenity": "school", "email": "hamza_sahi@yahoo.com", "name": "\u0645\u062f\u0631\u0633\u0629 \u062c\u0627\u0628\u0631 \u0627\u0644\u0623\u0646\u0635\u0627\u0631\u064a", "phone": "+9647816040292"}}, {"type": "node", "id": 9463880317, "lat": 31.3840245, "lon": 44.8997474, "tags": {"addr:housenumber": "4575", "addr:postcode": "4527", "amenity": "school", "email": "hamza_sahi@yahoo.com", "name": "\u0645\u062f\u0631\u0633\u0629 \u0627\u0648\u062a\u0627\u062f \u0627\u0644\u0623\u0631\u0636", "phone": "+9647816040292"}}, {"type": "node", "id": 9463880417, "lat": 31.4507344, "lon": 44.8025096, "tags": {"addr:housenumber": "4572", "addr:postcode": "8557", "amenity": "school", "email": "hamza_sahi@yahoo.com", "name": "\u0645\u062f\u0631\u0633\u0629 \u0627\u0644\u0646\u062c\u0627\u062d \u0627\u0644\u0627\u0628\u062a\u062f\u0627\u0626\u064a\u0629", "phone": "+9647816040292"}}, {"type": "node", "id": 9463880617, "lat": 31.5758309, "lon": 44.6344419, "tags": {"addr:housenumber": "5848", "addr:postcode": "4575", "amenity": "school", "name": "\u0645\u062f\u0631\u0633\u0629 \u0639\u0642\u0628\u0629 \u0628\u0646 \u0646\u0627\u0641\u0639", "phone": "7816040292"}}, {"type": "node", "id": 9463880717, "lat": 31.5875884, "lon": 44.6185982, "tags": {"amenity": "school", "name": "\u0645\u062f\u0631\u0633\u0629 \u0627\u0644\u0645\u0646\u0627\u0630\u0631\u0629", "phone": "7816040292"}}, {"type": "node", "id": 9577756317, "lat": 31.4329646, "lon": 44.8220312, "tags": {"addr:housenumber": "1456", "addr:postcode": "1572", "addr:street": "\u0634\u0627\u0631\u0639 \u0646\u062c\u0641 \u0633\u0645\u0627\u0648\u0629", "amenity": "school", "email": "hamza_sahi@yahoo.com", "name": "\u0645\u062f\u0631\u0633\u0629 \u0627\u0644\u0625\u0634\u0631\u0627\u0642", "phone": "07816040292"}}, {"type": "node", "id": 9649792618, "lat": 31.5775375, "lon": 44.9951675, "tags": {"addr:housenumber": "1452", "addr:postcode": "1457", "addr:street": "\u0634\u0627\u0631\u0639 \u0627\u0644\u0645\u0633\u0631\u062c", "amenity": "school", "name": "\u0645\u062f\u0631\u0633\u0629 \u0627\u0644\u0639\u0627\u0631\u0636\u064a\u0627\u062a \u0627\u0644\u0627\u0628\u062a\u062f\u0627\u0626\u064a\u0629", "phone": "07816040292"}}, {"type": "node", "id": 9649793017, "lat": 31.6006249, "lon": 45.0223664, "tags": {"addr:housenumber": "1547", "addr:postcode": "1548", "addr:street": "\u0634\u0627\u0631\u0639 \u0627\u0644\u0645\u0633\u0631\u062c", "amenity": "school", "name": "\u0645\u062f\u0631\u0633\u0629 \u062d\u062c\u0631 \u0628\u0646 \u0639\u062f\u064a \u0627\u0644\u0627\u0628\u062a\u062f\u0627\u0626\u064a\u0629", "phone": "07816040292"}}, {"type": "node", "id": 9650041517, "lat": 31.6877687, "lon": 44.7404415, "tags": {"addr:housenumber": "1457", "addr:postcode": "1456", "addr:street": "\u0634\u0646\u0627\u0641\u064a\u0629 - \u062a\u0642\u0627\u0637\u0639 \u0645\u064a\u0631\u064a \u0627\u0644\u0639\u0637\u064a\u0629", "amenity": "school", "name": "\u0645\u062f\u0631\u0633\u0629 \u0627\u0644\u0623\u0635\u0627\u0644\u0629", "phone": "07816040292"}}, {"type": "node", "id": 9665615517, "lat": 31.4520941, "lon": 44.9214319, "tags": {"addr:housenumber": "1457", "addr:postcode": "1754", "amenity": "school", "name": "\u0645\u062f\u0631\u0633\u0629 \u0627\u0644\u0623\u0637\u0647\u0627\u0631", "phone": "+9647816040292"}}, {"type": "node", "id": 9682792117, "lat": 31.5754718, "lon": 45.0554375, "tags": {"addr:housenumber": "1452", "addr:postcode": "1456", "addr:street": "\u0634\u0627\u0631\u0639 \u0627\u0644\u0645\u0639\u0627\u0645\u0644", "amenity": "school", "email": "hamza_sahi@yahoo.com", "name": "\u0645\u062f\u0631\u0633\u0629 \u0627\u0633\u0648\u0627\u0646", "phone": "07816040292"}}, {"type": "node", "id": 9815604817, "lat": 31.5840844, "lon": 44.6432795, "tags": {"addr:housenumber": "1547", "addr:postcode": "1542", "addr:street": "\u0627\u0644\u0643\u0648\u0631\u0646\u064a\u0634", "amenity": "school", "email": "hamza_sahi@yahoo.com", "name": "\u062b\u0627\u0646\u0648\u064a\u0629 \u063a\u0632\u0629 \u0644\u0644\u0628\u0646\u0627\u062a", "opening_hours": "24/7", "phone": "07819149402"}}, {"type": "node", "id": 10154980217, "lat": 31.6208005, "lon": 45.0112738, "tags": {"addr:housenumber": "1546", "addr:postcode": "1254", "amenity": "school", "email": "hamza_sahi@yahoo.com", "name": "\u0645\u062f\u0631\u0633\u0629 \u0627\u0644\u0635\u0627\u0644\u062d\u064a\u0646", "phone": "07819149402"}}, {"type": "node", "id": 10170738917, "lat": 31.6495338, "lon": 44.9694969, "tags": {"addr:housenumber": "1455", "addr:postcode": "1542", "addr:street": "\u0634\u0627\u0631\u0639 \u0645\u0632\u0631\u0639\u0629 \u0627\u0644\u062f\u0648\u0644\u0629", "amenity": "school", "email": "hamza_sahi@yahoo.com", "name": "\u0645\u062f\u0631\u0633\u0629 \u0628\u062f\u0631 \u0627\u0644\u0627\u0628\u062a\u062f\u0627\u0626\u064a\u0629", "opening_hours": "24/7", "phone": "07819149402"}}, {"type": "node", "id": 10779235307, "lat": 31.5274023, "lon": 45.0281837, "tags": {"addr:housenumber": "1456", "addr:postcode": "1547", "amenity": "school", "email": "hamza_sahi@yahoo.com", "name": "\u0645\u062f\u0631\u0633\u0629 \u0627\u0644\u0648\u0627\u0642\u062f\u064a", "phone": "07819149402", "website": "https://www.facebook.com/hamza.sahi.1966?mibextid=ZbWKwL"}}, {"type": "node", "id": 10786549405, "lat": 31.6089986, "lon": 44.9408059, "tags": {"addr:housenumber": "1527", "addr:postcode": "1576", "amenity": "school", "email": "hamzasahi2@gmail.com", "name": "\u0645\u062f\u0631\u0633\u0629 \u0627\u0644\u0646\u0633\u0648\u0631", "phone": "07819149402", "website": "https://www.facebook.com/hamza.sahi.1966?mibextid=ZbWKwL"}}, {"type": "node", "id": 11050611905, "lat": 31.6172656, "lon": 44.7095395, "tags": {"addr:housenumber": "1452", "addr:postcode": "1426", "addr:street": "\u0634\u0627\u0631\u0639 \u0627\u0644\u0634\u0646\u0627\u0641\u064a\u0629", "amenity": "school", "email": "hamzasahi2@gmail.com", "name": "\u0645\u062f\u0631\u0633\u0629 \u0627\u0644\u0625\u0645\u0627\u0645 \u0627\u0644\u0639\u0633\u0643\u0631\u064a", "phone": "07819149402"}}, {"type": "node", "id": 11237986737, "lat": 31.6170692, "lon": 45.0705766, "tags": {"amenity": "school", "email": "hamzasahi2@gmail.com", "name": "\u0645\u062f\u0631\u0633\u0629 \u0645\u0635\u0628\u0627\u062d \u0627\u0644\u0647\u062f\u0649", "phone": "7816040292"}}, {"type": "node", "id": 11348181169, "lat": 31.6978903, "lon": 44.99589, "tags": {"addr:housenumber": "2542", "addr:postcode": "1562", "addr:street": "\u0634\u0627\u0631\u0639 \u0627\u0644 \u0634\u0646\u0628\u0627\u0631\u0629", "amenity": "school", "email": "hamzasahi2@gmail.com", "name": "\u0645\u062f\u0631\u0633\u0629 \u0627\u0644\u0645\u0647\u064a\u0645\u0646 \u0627\u0644\u0627\u0628\u062a\u062f\u0627\u0626\u064a\u0629", "opening_hours": "Su 09:00-13:00; Th 09:00-18:00", "phone": "07819149402"}}, {"type": "node", "id": 11507997069, "lat": 31.6879368, "lon": 44.8491754, "tags": {"amenity": "school", "email": "hamzasahi2@gmail.com", "name": "\u0645\u062f\u0631\u0633\u0629 \u0639\u0627\u0635\u0645 \u0627\u0644\u0643\u0648\u0641\u064a", "phone": "07818388886"}}, {"type": "node", "id": 11578293069, "lat": 31.4028604, "lon": 45.0518546, "tags": {"addr:street": "\u0627\u0644\u0647\u0644\u0627\u0644", "amenity": "school", "email": "hazamsamah1993@gmail.com", "name": "\u0645\u062f\u0631\u0633\u0629 \u0641\u062a\u0649 \u0627\u0644\u0627\u0633\u0644\u0627\u0645"}}, {"type": "way", "id": 458497908, "nodes": [4544880123, 4544880124, 4544880125, 4544880126, 4544880123], "tags": {"amenity": "school"}}, {"type": "way", "id": 463501766, "nodes": [4587675093, 4587675094, 4587675095, 4587675096, 4587675093], "tags": {"amenity": "school"}}, {"type": "way", "id": 481331721, "nodes": [4535525163, 4742698973, 4535525169, 4559463545, 4535525163], "tags": {"amenity": "school", "name": "\u0645\u062f\u0631\u0633\u0629 \u0627\u0628\u0646 \u0633\u064a\u0646\u0627"}}, {"type": "way", "id": 481637384, "nodes": [4745488147, 4745488148, 4745488149, 4745488150, 4745488147], "tags": {"amenity": "school", "name": "\u0645\u062f\u0631\u0633\u0629 \u0627\u0628\u0646 \u062e\u0644\u062f\u0648\u0646"}}]}