{"version": 0.6, "generator": "Overpass API 0.7.61.5 4133829e", "osm3s": {"timestamp_osm_base": "2024-03-06T10:51:10Z", "copyright": "The data included in this document is from www.openstreetmap.org. The data is made available under ODbL."}, "elements": [{"type": "node", "id": 5336444722, "lat": 33.3345766, "lon": 44.3939577, "tags": {"amenity": "ferry_terminal"}}, {"type": "node", "id": 7923813160, "lat": 33.3360471, "lon": 44.3892858, "tags": {"amenity": "ferry_terminal", "cargo": "passengers"}}, {"type": "node", "id": 8851569747, "lat": 33.3392136, "lon": 44.3875404, "tags": {"amenity": "ferry_terminal", "cargo": "passengers", "ferry": "yes", "name": "\u0645\u062d\u0637\u0629 D", "name:ar": "\u0645\u062d\u0637\u0629 D", "name:en": "Station D", "operator": "\u0627\u0644\u0634\u0631\u0643\u0629 \u0627\u0644\u0639\u0627\u0645\u0629 \u0644\u0644\u0646\u0642\u0644 \u0627\u0644\u0628\u062d\u0631\u064a"}}, {"type": "node", "id": 9366254351, "lat": 33.3410523, "lon": 44.4491179}, {"type": "node", "id": 9366254352, "lat": 33.3410485, "lon": 44.4490418}, {"type": "node", "id": 9366254353, "lat": 33.3410255, "lon": 44.4490434}, {"type": "node", "id": 9366254354, "lat": 33.3410237, "lon": 44.4490073}, {"type": "node", "id": 9366254355, "lat": 33.3410427, "lon": 44.4490059}, {"type": "node", "id": 9366254356, "lat": 33.3410393, "lon": 44.4489354}, {"type": "node", "id": 9366254357, "lat": 33.3411749, "lon": 44.4489259}, {"type": "node", "id": 9366254358, "lat": 33.3411787, "lon": 44.4490034}, {"type": "node", "id": 9366254359, "lat": 33.3412042, "lon": 44.4490017}, {"type": "node", "id": 9366254360, "lat": 33.3412058, "lon": 44.4490335}, {"type": "node", "id": 9366254361, "lat": 33.3411753, "lon": 44.4490356}, {"type": "node", "id": 9366254362, "lat": 33.3411789, "lon": 44.4491091}, {"type": "node", "id": 10723314905, "lat": 33.3626654, "lon": 44.3662354, "tags": {"amenity": "ferry_terminal", "name": "Boat rental place"}}, {"type": "node", "id": 10876566588, "lat": 33.3429435, "lon": 44.4420814, "tags": {"amenity": "ferry_terminal"}}, {"type": "node", "id": 10933617492, "lat": 33.3386494, "lon": 44.3861482, "tags": {"amenity": "ferry_terminal", "ferry": "yes"}}, {"type": "node", "id": 11037206155, "lat": 33.2827242, "lon": 44.3743465, "tags": {"amenity": "ferry_terminal", "cargo": "passengers", "ferry": "yes", "name": "\u0645\u062d\u0637\u0629 F", "name:ar": "\u0645\u062d\u0637\u0629 F", "name:en": "Station F", "operator": "\u0627\u0644\u0634\u0631\u0643\u0629 \u0627\u0644\u0639\u0627\u0645\u0629 \u0644\u0644\u0646\u0642\u0644 \u0627\u0644\u0628\u062d\u0631\u064a"}}, {"type": "node", "id": 11037206156, "lat": 33.3057001, "lon": 44.4187755, "tags": {"amenity": "ferry_terminal", "cargo": "passengers", "ferry": "yes", "name": "\u0645\u062d\u0637\u0629 E", "name:ar": "\u0645\u062d\u0637\u0629 E", "name:en": "Station E", "operator": "\u0627\u0644\u0634\u0631\u0643\u0629 \u0627\u0644\u0639\u0627\u0645\u0629 \u0644\u0644\u0646\u0642\u0644 \u0627\u0644\u0628\u062d\u0631\u064a"}}, {"type": "node", "id": 11037206161, "lat": 33.3493919, "lon": 44.3722337, "tags": {"amenity": "ferry_terminal", "cargo": "passengers", "ferry": "yes", "name": "\u0645\u062d\u0637\u0629 C", "name:ar": "\u0645\u062d\u0637\u0629 C", "name:en": "Station C", "operator": "\u0627\u0644\u0634\u0631\u0643\u0629 \u0627\u0644\u0639\u0627\u0645\u0629 \u0644\u0644\u0646\u0642\u0644 \u0627\u0644\u0628\u062d\u0631\u064a"}}, {"type": "node", "id": 11037206162, "lat": 33.3611393, "lon": 44.3716488, "tags": {"amenity": "ferry_terminal", "cargo": "passengers", "ferry": "yes", "name": "\u0645\u062d\u0637\u0629 B", "name:ar": "\u0645\u062d\u0637\u0629 B", "name:en": "Station B", "operator": "\u0627\u0644\u0634\u0631\u0643\u0629 \u0627\u0644\u0639\u0627\u0645\u0629 \u0644\u0644\u0646\u0642\u0644 \u0627\u0644\u0628\u062d\u0631\u064a"}}, {"type": "node", "id": 11037206165, "lat": 33.3714213, "lon": 44.3502226, "tags": {"amenity": "ferry_terminal", "cargo": "passengers", "ferry": "yes", "name": "\u0645\u062d\u0637\u0629 A", "name:ar": "\u0645\u062d\u0637\u0629 A", "name:en": "Station A", "operator": "\u0627\u0644\u0634\u0631\u0643\u0629 \u0627\u0644\u0639\u0627\u0645\u0629 \u0644\u0644\u0646\u0642\u0644 \u0627\u0644\u0628\u062d\u0631\u064a"}}, {"type": "way", "id": 1015342495, "nodes": [9366254362, 9366254361, 9366254360, 9366254359, 9366254358, 9366254357, 9366254356, 9366254355, 9366254354, 9366254353, 9366254352, 9366254351, 9366254362], "tags": {"amenity": "ferry_terminal", "cargo": "passengers"}}]}