{"version": 0.6, "generator": "Overpass API 0.7.61.5 4133829e", "osm3s": {"timestamp_osm_base": "2024-03-06T10:44:02Z", "copyright": "The data included in this document is from www.openstreetmap.org. The data is made available under ODbL."}, "elements": [{"type": "node", "id": 4068338325, "lat": 31.4043812, "lon": 46.1734915}, {"type": "node", "id": 4068338326, "lat": 31.4036652, "lon": 46.1739221}, {"type": "node", "id": 4068338327, "lat": 31.4036079, "lon": 46.1739221}, {"type": "node", "id": 4068338328, "lat": 31.403565, "lon": 46.1738774}, {"type": "node", "id": 4068338329, "lat": 31.4033788, "lon": 46.1734523}, {"type": "node", "id": 4068338330, "lat": 31.4041998, "lon": 46.1730385}, {"type": "node", "id": 4068338331, "lat": 31.4040003, "lon": 46.172567}, {"type": "node", "id": 4068338332, "lat": 31.4032291, "lon": 46.1730924}, {"type": "node", "id": 4068338333, "lat": 31.4032217, "lon": 46.1730404}, {"type": "node", "id": 4068338334, "lat": 31.403234, "lon": 46.1730029}, {"type": "node", "id": 4068338335, "lat": 31.4032587, "lon": 46.1729798}, {"type": "node", "id": 4402118189, "lat": 31.2784658, "lon": 46.2174159, "tags": {"amenity": "school", "name": "\u0627\u0633\u062a\u0627\u0630 \u062e\u0627\u0644\u062f \u062e\u0636\u0631", "name:ar": "\u0627\u0633\u062a\u0627\u0630 \u062e\u0627\u0644\u062f \u062e\u0636\u0631"}}, {"type": "node", "id": 4510791893, "lat": 31.4224345, "lon": 46.1699748, "tags": {"addr:postcode": "+964", "addr:street": "\u0634\u0627\u0631\u0639 \u0627\u0644\u0643\u0631\u0627\u062c", "amenity": "school", "name": "\u0627\u0639\u062f\u0627\u062f\u064a\u0629 \u0627\u0644\u0645\u0631\u062a\u0636\u0649 \u0644\u0644\u0628\u0646\u064a\u0646 / \u0627\u0639\u062f\u0627\u062f\u064a\u0629 \u0627\u0644\u0634\u0637\u0631\u0629 \u0644\u0644\u0628\u0646\u064a\u0646", "name:ar": "\u0627\u0628\u062a\u062f\u0627\u0626\u064a\u0629 \u062a\u0648\u0643\u0644\u0646\u0627 \u0639\u0644\u0649 \u0627\u0644\u0644\u0647 \u0627\u0644\u0627\u0648\u0644\u0649", "name:en": "Tawakkalna ala Allah aloula schoole", "name:ku": "\u0627\u0639\u062f\u0627\u062f\u064a\u0629 \u0627\u0644\u0645\u0631\u062a\u0636\u0649 \u0644\u0644\u0628\u0646\u064a\u0646 / \u0627\u0639\u062f\u0627\u062f\u064a\u0629 \u0627\u0644\u0634\u0637\u0631\u0629 \u0644\u0644\u0628\u0646\u064a\u0646", "opening_hours": "Su-Th 08:00-16:00", "operator": "Ahmed Jasim"}}, {"type": "node", "id": 4510808090, "lat": 31.4170872, "lon": 46.171062, "tags": {"addr:postcode": "+964", "addr:street": "\u0634\u0627\u0631\u0639 \u0627\u0644\u0643\u0631\u0627\u062c", "amenity": "school", "name": "\u0627\u0639\u062f\u0627\u062f\u064a\u0629 \u0627\u0644\u0645\u0631\u062a\u0636\u0649 \u0644\u0644\u0628\u0646\u064a\u0646 / \u0627\u0639\u062f\u0627\u062f\u064a\u0629 \u0627\u0644\u0634\u0637\u0631\u0629 \u0644\u0644\u0628\u0646\u064a\u0646", "name:ar": "\u0627\u0639\u062f\u0627\u062f\u064a\u0629 \u0627\u0644\u0645\u0631\u062a\u0636\u0649 \u0644\u0644\u0628\u0646\u064a\u0646 / \u0627\u0639\u062f\u0627\u062f\u064a\u0629 \u0627\u0644\u0634\u0637\u0631\u0629 \u0644\u0644\u0628\u0646\u064a\u0646", "name:en": "El-Murtadha preparatory school / El-Shatrah preparatory school for boys", "name:ku": "\u0627\u0639\u062f\u0627\u062f\u064a\u0629 \u0627\u0644\u0645\u0631\u062a\u0636\u0649 \u0644\u0644\u0628\u0646\u064a\u0646 / \u0627\u0639\u062f\u0627\u062f\u064a\u0629 \u0627\u0644\u0634\u0637\u0631\u0629 \u0644\u0644\u0628\u0646\u064a\u0646", "opening_hours": "Su-Th 08:00-16:00"}}, {"type": "node", "id": 4740769822, "lat": 31.4285345, "lon": 46.335449, "tags": {"amenity": "school", "name": "\u0645\u062f\u0631\u0633\u0629 \u0627\u0644\u0648\u0627\u062f\u064a \u0627\u0644\u0627\u0628\u062a\u062f\u0627\u0626\u064a\u0629", "name:ar": "\u0645\u062f\u0631\u0633\u0629 \u0627\u0644\u0648\u0627\u062f\u064a \u0627\u0644\u0627\u0628\u062a\u062f\u0627\u0626\u064a\u0629", "opening_hours": "24/7"}}, {"type": "node", "id": 4745279621, "lat": 31.3568569, "lon": 46.4820831, "tags": {"amenity": "school", "name": "\u0645\u062f\u0631\u0633\u0629 \u0627\u0644\u0631\u0635\u0627\u0641\u064a", "name:ar": "\u0645\u062f\u0631\u0633\u0629 \u0627\u0644\u0631\u0635\u0627\u0641\u064a"}}, {"type": "node", "id": 4822437822, "lat": 31.2867792, "lon": 46.4690786, "tags": {"amenity": "school", "name": "\u0645\u062f\u0631\u0633\u0629 \u0627\u0644\u0639\u0627\u0645\u0631\u064a\u0647", "name:ar": "\u0645\u062f\u0631\u0633\u0629 \u0627\u0644\u0639\u0627\u0645\u0631\u064a\u0647", "name:en": "Al_ Amiriyah School"}}, {"type": "node", "id": 4822451323, "lat": 31.2854855, "lon": 46.4679313, "tags": {"amenity": "school", "name": "\u0645\u062f\u0631\u0633\u0629 \u0627\u0644\u0639\u0627\u0645\u0631\u064a\u0647", "name:ar": "\u0645\u062f\u0631\u0633\u0629 \u0627\u0644\u0639\u0627\u0645\u0631\u064a\u0647", "name:en": "Al amiriya School"}}, {"type": "node", "id": 5081129829, "lat": 31.6067143, "lon": 46.2811568, "tags": {"addr:street": "\u0634\u0627\u0631\u0639 \u0642\u0631\u064a\u0629 \u0627\u0645 \u0627\u0644\u062d\u064a\u0627\u0629", "amenity": "school", "name": "\u0645\u062f\u0631\u0633\u0629 \u0627\u0644\u0645\u0633\u0631\u0629 \u0627\u0644\u0627\u0628\u062a\u062f\u0627\u0626\u064a\u0629", "name:ar": "\u0645\u062f\u0631\u0633\u0629 \u0627\u0644\u0645\u0633\u0631\u0629 \u0627\u0644\u0627\u0628\u062a\u062f\u0627\u0626\u064a\u0629"}}, {"type": "node", "id": 5081129830, "lat": 31.6090312, "lon": 46.3128582, "tags": {"addr:street": "\u0634\u0627\u0631\u0639 \u0642\u0631\u064a\u0629 \u0627\u0644\u0639\u0627\u0634\u0631\u0629", "amenity": "school", "name": "\u0645\u062f\u0631\u0633\u0629 \u0627\u0644\u0625\u0642\u0628\u0627\u0644 \u0627\u0644\u0627\u0628\u062a\u062f\u0627\u0626\u064a\u0629", "name:ar": "\u0645\u062f\u0631\u0633\u0629 \u0627\u0644\u0625\u0642\u0628\u0627\u0644 \u0627\u0644\u0627\u0628\u062a\u062f\u0627\u0626\u064a\u0629"}}, {"type": "node", "id": 5140554721, "lat": 31.4160438, "lon": 46.1659702, "tags": {"amenity": "school", "name": "\u0645\u062a\u0648\u0633\u0637\u0647 \u0627\u0644\u0634\u0637\u0631\u0647", "name:en": "al shatrah primary school", "opening_hours": "Su-Th 00:00-24:00"}}, {"type": "node", "id": 5244789422, "lat": 31.4266877, "lon": 46.1734205, "tags": {"amenity": "school", "name": "\u0645\u0639\u0647\u062f \u0627\u0644\u0634\u0637\u0631\u0629 \u0627\u0644\u062a\u0642\u0646\u064a", "name:en": "Al-Shatra Technical Institute"}}, {"type": "node", "id": 5302342922, "lat": 31.3304209, "lon": 46.2137767, "tags": {"amenity": "school", "name": "\u0645\u062f\u0631\u0633\u0629 \u0627\u0644\u0639\u0647\u062f \u0627\u0644\u0627\u0628\u062a\u062f\u0627\u0626\u064a\u0629"}}, {"type": "node", "id": 5302342923, "lat": 31.3304537, "lon": 46.2137542, "tags": {"amenity": "school", "name": "\u0645\u062f\u0631\u0633\u0629 \u0627\u0644\u0639\u0647\u062f \u0627\u0644\u0627\u0628\u062a\u062f\u0627\u0626\u064a\u0629"}}, {"type": "node", "id": 5303244021, "lat": 31.3538692, "lon": 46.1920386, "tags": {"amenity": "school", "name": "\u0645\u062f\u0631\u0633\u0629 \u0627\u0644\u0645\u0633\u0627\u0631 \u0627\u0644\u0627\u0628\u062a\u062f\u0627\u0626\u064a\u0629"}}, {"type": "node", "id": 5404557122, "lat": 31.3164754, "lon": 46.2206334, "tags": {"amenity": "school", "name": "\u0645\u062f\u0631\u0633\u0629 \u0627\u0644\u0645\u0639\u0627\u0631\u0641 \u0627\u0644\u0627\u0628\u062a\u062f\u0627\u0626\u064a\u0647"}}, {"type": "node", "id": 5405092822, "lat": 31.4178454, "lon": 46.1699637, "tags": {"amenity": "school", "name": "\u0625\u0639\u062f\u0627\u062f\u064a\u0629 \u0627\u0644\u0645\u0631\u062a\u0636\u0649 \u0644\u0644\u0628\u0646\u064a\u0646 / \u0625\u0639\u062f\u0627\u062f\u064a\u0629 \u0627\u0644\u0634\u0637\u0631\u0629 \u0644\u0644\u0628\u0646\u064a\u0646"}}, {"type": "node", "id": 5482266179, "lat": 31.5364321, "lon": 46.125477}, {"type": "node", "id": 5482266180, "lat": 31.5359909, "lon": 46.125477}, {"type": "node", "id": 5482266181, "lat": 31.5359634, "lon": 46.1265097}, {"type": "node", "id": 5482266182, "lat": 31.5364069, "lon": 46.126515}, {"type": "node", "id": 5535392423, "lat": 31.2977646, "lon": 46.2397375, "tags": {"amenity": "school", "name": "\u0634\u0647\u062f\u0627\u0621 \u0627\u0644\u0637\u0641", "name:ar": "\u0645\u062f\u0631\u0633\u0629 \u0634\u0647\u062f\u0627\u0621 \u0627\u0644\u0637\u0641"}}, {"type": "node", "id": 5631266621, "lat": 31.3249096, "lon": 46.3176677, "tags": {"amenity": "school", "name": "\u0642\u0631\u064a\u0629 \u0627\u0644\u0646\u0633\u064a\u0645", "name:en": "Alnaseem School"}}, {"type": "node", "id": 5631266623, "lat": 31.3243842, "lon": 46.3151388, "tags": {"amenity": "school", "name": "\u0645\u062f\u0631\u0633\u0629 \u0627\u0644\u0646\u0633\u064a\u0645"}}, {"type": "node", "id": 5736189827, "lat": 31.5375387, "lon": 46.1875349, "tags": {"amenity": "school", "name": "\u0645\u062f\u0631\u0633\u0629 \u0627\u0644\u0645\u0627\u062c\u062f \u0627\u0644\u0627\u0628\u062a\u062f\u0627\u0626\u064a\u0629"}}, {"type": "node", "id": 5736189828, "lat": 31.5389344, "lon": 46.1692479, "tags": {"amenity": "school", "name": "\u0645\u062f\u0631\u0633\u0629 \u0628\u062f\u0631 \u0627\u0644\u0633\u064a\u0627\u0628 \u0627\u0644\u0627\u0628\u062a\u062f\u0627\u0626\u064a\u0629"}}, {"type": "node", "id": 5736189923, "lat": 31.5701706, "lon": 46.2495292, "tags": {"amenity": "school", "name": "\u0645\u062f\u0631\u0633\u0629"}}, {"type": "node", "id": 5882562890, "lat": 31.4788138, "lon": 46.2845799, "tags": {"amenity": "school", "name": "\u0627\u0644\u062e\u0645\u0627\u0626\u0644 \u0627\u0644\u0627\u0628\u062a\u062f\u0627\u0626\u064a\u0647"}}, {"type": "node", "id": 5922413885, "lat": 31.2955103, "lon": 46.2417324, "tags": {"amenity": "school", "name": "\u0645\u062f\u0631\u0633\u0629 \u0627\u0644\u062d\u064a\u0627\u0629", "opening_hours": "Sa-Th 08:00-16:00"}}, {"type": "node", "id": 6026570787, "lat": 31.4056028, "lon": 46.2838196, "tags": {"amenity": "school", "name": "\u0645\u062f\u0631\u0633\u0629 \u0627\u0644\u062c\u0647\u0627\u062f \u0627\u0644\u0627\u0628\u062a\u062f\u0627\u0626\u064a\u0629"}}, {"type": "node", "id": 6224848972, "lat": 31.5386766, "lon": 46.1246319, "tags": {"amenity": "school", "name": "\u0645\u062f\u0631\u0633\u0629 \u0627\u0644\u0627\u0633\u062a\u0642\u0644\u0627\u0644 \u0627\u0644\u0627\u0628\u062a\u062f\u0627\u0626\u064a\u0629....\u064a\u0627\u0633"}}, {"type": "node", "id": 6240973986, "lat": 31.3597728, "lon": 46.1533862, "tags": {"amenity": "school", "name": "\u0645\u062f\u0631\u0633\u0647 \u0645\u062a\u0648\u0633\u0637\u0629 \u0627\u0644\u0625\u0645\u0627\u0645\u064a\u0646 \u0627\u0644\u0639\u0633\u0643\u0631\u064a\u0646 \u0644\u0644\u0628\u0646\u064a\u0646"}}, {"type": "node", "id": 6240981985, "lat": 31.3428963, "lon": 46.1579152, "tags": {"amenity": "school", "name": "\u0645\u062f\u0631\u0633\u0629 \u0627\u0631\u0636 \u0627\u0644\u0633\u0648\u0627\u062f"}}, {"type": "node", "id": 6240982085, "lat": 31.3598574, "lon": 46.1529806, "tags": {"amenity": "school", "name": "\u0645\u062f\u0631\u0633\u0647 \u0627\u0644\u0628\u0634\u0627\u0626\u0631 \u0627\u0644\u0627\u0628\u062a\u062f\u0627\u0626\u064a\u0629"}}, {"type": "node", "id": 6240982087, "lat": 31.3462965, "lon": 46.1146502, "tags": {"amenity": "school", "name": "\u0645\u062f\u0631\u0633\u0629 \u062f\u0645\u0634\u0642 \u0627\u0644\u0627\u0628\u062a\u062f\u0627\u0626\u064a\u0629"}}, {"type": "node", "id": 6276290886, "lat": 31.5258649, "lon": 46.1104761, "tags": {"amenity": "school", "name": "\u0645\u062f\u0631\u0633\u0629 \u0646\u0648\u0631 \u0627\u0644\u062f\u064a\u0646", "name:en": "Nour Aldin school"}}, {"type": "node", "id": 6284975385, "lat": 31.4945727, "lon": 46.1254781, "tags": {"amenity": "school", "name": "\u0645\u062f\u0631\u0633\u0629 \u0627\u0644\u0647\u0644\u0627\u0644\u064a\u0629 \u0627\u0644\u0627\u0628\u062a\u062f\u0627\u0626\u064a\u0629", "opening_hours": "Su-Th 08:00-17:00"}}, {"type": "node", "id": 6347399185, "lat": 31.5800921, "lon": 46.4809661, "tags": {"amenity": "school", "name": "\u0645\u062f\u0631\u0633\u0629 \u0627\u0644\u0632\u0628\u064a\u062f\u064a\u0629"}}, {"type": "node", "id": 6370394790, "lat": 31.4158551, "lon": 46.1691834, "tags": {"amenity": "school", "name": "\u062b\u0627\u0646\u0648\u064a\u0629 \u0627\u0644\u062d\u0643\u0645\u0629 \u0627\u0644\u0623\u0647\u0644\u064a\u0629 \u0644\u0644\u0628\u0646\u0627\u062a"}}, {"type": "node", "id": 6370395888, "lat": 31.4966844, "lon": 46.3810061, "tags": {"amenity": "school", "name": "\u0645\u062f\u0631\u0633\u0629 \u0627\u0644\u0627\u0628\u062f\u0627\u0639"}}, {"type": "node", "id": 6684125085, "lat": 31.2909883, "lon": 46.2395164, "tags": {"amenity": "school", "name": "\u0645\u062f\u0631\u0633\u0629 \u0627\u0644\u0633\u0646\u0627\u0628\u0644 \u0627\u0644\u0627\u0647\u0644\u064a\u0629 \u0644\u0644\u0628\u0646\u064a\u0646", "opening_hours": "Sa-Th 08:00-20:00"}}, {"type": "node", "id": 6684447088, "lat": 31.2976752, "lon": 46.240387, "tags": {"amenity": "school", "name": "\u0645\u062f\u0631\u0633\u0629 \u0627\u0644\u0641\u0627\u0636\u0644\u0627\u062a \u0644\u0644\u0628\u0646\u0627\u062a", "opening_hours": "Su-Th 08:00-16:00"}}, {"type": "node", "id": 7115223995, "lat": 31.3795063, "lon": 46.322331, "tags": {"addr:street": "\u0634\u0627\u0631\u0639 \u0627\u0644 \u0633\u0647\u0644\u0627\u0646", "amenity": "school", "name": "\u062b\u0627\u0646\u0648\u064a\u0629 \u0628\u0627\u0628\u0644 \u0627\u0644\u0645\u062e\u062a\u0644\u0637\u0629"}}, {"type": "node", "id": 7115223996, "lat": 31.3792445, "lon": 46.3232888, "tags": {"amenity": "school", "name": "\u0628\u064a\u0639\u0629 \u0627\u0644\u063a\u062f\u064a\u0631 \u0644\u0644\u0628\u0646\u0627\u062a"}}, {"type": "node", "id": 7125734487, "lat": 31.5288457, "lon": 46.1133595, "tags": {"addr:street": "\u0634\u0627\u0631\u0639 \u0627\u0644\u0637\u0639\u064a\u0633\u0627\u062a", "amenity": "school", "name": "\u0645\u062f\u0631\u0633\u0629 \u0646\u0648\u0631 \u0627\u0644\u062f\u064a\u0646", "name:en": "Nour Aldeen Primery School"}}, {"type": "node", "id": 7134411986, "lat": 31.2983314, "lon": 46.2452133, "tags": {"amenity": "school", "name": "\u0627\u0639\u062f\u0627\u062f\u064a\u0629 \u0627\u0644\u062c\u0648\u0627\u062f"}}, {"type": "node", "id": 7143863585, "lat": 31.296055, "lon": 46.2384487, "tags": {"addr:street": "\u062d\u064a \u0627\u0644\u0634\u0647\u062f\u0627\u0621", "amenity": "school", "name": "\u0645\u062f\u0631\u0633\u0629 \u0627\u0644\u0646\u0628\u0644\u0627\u0621", "name:en": "Alnublaa"}}, {"type": "node", "id": 7565764987, "lat": 31.5448245, "lon": 46.1183058, "tags": {"amenity": "school", "name": "\u0645\u062f\u0631\u0633\u0629 \u0627\u0644\u0628\u0635\u0631\u062a\u064a\u0646", "name:en": "Al-Basratain high school"}}, {"type": "node", "id": 7876643385, "lat": 31.5273354, "lon": 46.1225031, "tags": {"addr:street": "\u062d\u064a \u0627\u0644\u0632\u0647\u0631\u0627\u0621 2", "amenity": "school", "name": "\u0627\u0644\u0637\u0627\u0626\u0641 \u0627\u0644\u0627\u0628\u062a\u062f\u0627\u0626\u064a\u0629", "opening_hours": "Su-Th 08:00-12:00, 13:00-17:00"}}, {"type": "node", "id": 7924500093, "lat": 31.2924727, "lon": 46.5719802}, {"type": "node", "id": 7924500094, "lat": 31.2930292, "lon": 46.5722917}, {"type": "node", "id": 7924500095, "lat": 31.2927631, "lon": 46.5729641}, {"type": "node", "id": 7924500096, "lat": 31.2922066, "lon": 46.5726597}, {"type": "node", "id": 7963921785, "lat": 31.3140885, "lon": 46.1843321, "tags": {"addr:street": "\u0627\u0644 \u0646\u0648\u0645\u0627\u0646", "amenity": "school", "name": "\u0645\u062f\u0631\u0633\u0629 \u0627\u0644\u0635\u0627\u0644\u062d\u0644\u0648\u0646 \u0627\u0644\u0627\u0628\u062a\u062f\u0627\u0626\u064a\u0629", "opening_hours": "Sa-We 07:30-12:00"}}, {"type": "node", "id": 8149381817, "lat": 31.321782, "lon": 46.5945426, "tags": {"amenity": "school", "name": "\u0645\u062f\u0631\u0633\u0629 \u0627\u0644\u0645\u0641\u0644\u062d\u0648\u0646 \u0627\u0644\u0627\u0628\u062a\u062f\u0627\u0626\u064a\u0629"}}, {"type": "node", "id": 8198249210, "lat": 31.403895, "lon": 46.2786311, "tags": {"addr:city": "\u0627\u0644\u0634\u0637\u0631\u0629", "addr:housenumber": "100", "addr:postcode": "64007", "addr:street": "\u0646\u0627\u062d\u064a\u0629 \u0627\u0644 \u0633\u0644\u064a\u0645\u0627\u0646", "amenity": "school", "denomination": "shia", "name": "\u062b\u0627\u0646\u0648\u064a\u0629 \u0627\u0644\u062c\u0647\u0627\u062f", "operator": "\u062d\u0643\u0648\u0645\u064a", "operator:type": "government", "religion": "muslim", "website": "https://www.facebook.com/%D8%AB%D8%A7%D9%86%D9%88%D9%8A%D8%A9-%D8%A7%D9%84%D8%AC%D9%87%D8%A7%D8%AF-%D9%84%D9%84%D8%A8%D9%86%D9%8A%D9%86-855299464531213/"}}, {"type": "node", "id": 8675795294, "lat": 31.2974846, "lon": 46.2463907, "tags": {"amenity": "school", "name": "\u0645\u062f\u0631\u0633\u0629 \u0635\u0644\u0627\u062d \u0627\u0644\u062f\u064a\u0646 \u0627\u0644\u0627\u0628\u062a\u062f\u0627\u0626\u064a\u0629"}}, {"type": "node", "id": 8675796908, "lat": 31.2982348, "lon": 46.2343955, "tags": {"amenity": "school", "name": "\u0645\u062f\u0631\u0633\u0629 \u0634\u0647\u062f\u0627\u0621 \u0627\u0644\u063a\u0631\u0627\u0641"}}, {"type": "node", "id": 8714452817, "lat": 31.3332341, "lon": 46.2016668, "tags": {"amenity": "school", "name": "\u0627\u0644\u0649 \u0645. \u062d\u0645\u0648\u0631\u0627\u0628\u064a", "name:ku": "\u0627\u0644\u063a\u0631\u0627\u0641 \u0631\u064a\u0641 . \u0627\u0644\u0635\u0643\u0628\u0627\u0646"}}, {"type": "node", "id": 8714607818, "lat": 31.2896103, "lon": 46.114519, "tags": {"amenity": "school", "name": "\u062b. \u062d\u0645\u0648\u0631\u0627\u0628\u064a"}}, {"type": "node", "id": 9105522717, "lat": 31.4064613, "lon": 46.1730981, "tags": {"amenity": "school", "name": "\u0645\u062f\u0631\u0633\u0629 \u0627\u0644\u0639\u0628\u0627\u0633\u064a\u0629"}}, {"type": "node", "id": 9339646717, "lat": 31.4157351, "lon": 46.1653415, "tags": {"amenity": "school", "name": "\u0645\u062f\u0631\u0633\u0629 \u0627\u0644\u0645\u062d\u0645\u0631\u0629 \u0632\u0647\u064a\u0631 \u0628\u0646 \u0627\u0644\u0642\u064a\u0646"}}, {"type": "node", "id": 9491402917, "lat": 31.4199537, "lon": 46.1801108, "tags": {"amenity": "school", "name": "\u062b\u0627\u0646\u0648\u064a\u0629 \u0647\u0627\u062c\u0631 \u0644\u0644\u0628\u0646\u0627\u062a"}}, {"type": "node", "id": 10035236818, "lat": 31.407458, "lon": 46.1615349, "tags": {"amenity": "school", "name": "\u0627\u0639\u062f\u0627\u062f\u064a\u0629 \u0627\u0644\u0634\u0637\u0631\u0629 \u0644\u0644\u0628\u0646\u0627\u062a"}}, {"type": "node", "id": 10035895117, "lat": 31.4090933, "lon": 46.1634736, "tags": {"amenity": "school", "name": "\u0645\u062a\u0648\u0633\u0637\u0629 \u062f\u062c\u0644\u0629 \u0644\u0644\u0628\u0646\u0627\u062a"}}, {"type": "node", "id": 10715959705, "lat": 31.4957979, "lon": 46.3834772, "tags": {"amenity": "school", "name": "\u0645\u062a\u0648\u0633\u0637\u0629 \u0627\u0628\u0648 \u0637\u0627\u0644\u0628"}}, {"type": "node", "id": 10734948189, "lat": 31.2810395, "lon": 46.5363577}, {"type": "node", "id": 10734948190, "lat": 31.2810086, "lon": 46.5367582}, {"type": "node", "id": 10734948191, "lat": 31.2807626, "lon": 46.5367401}, {"type": "node", "id": 10734948197, "lat": 31.280715, "lon": 46.5367336}, {"type": "node", "id": 10734948198, "lat": 31.2807426, "lon": 46.5363269}, {"type": "node", "id": 11205519238, "lat": 31.4116454, "lon": 46.1847598, "tags": {"amenity": "school", "name": "\u0645\u0639\u0647\u062f\u0627\u0644\u0627\u0645\u062a\u064a\u0627\u0632\u0627\u0644\u0645\u0631\u0643\u0632\u064a"}}, {"type": "node", "id": 11338457170, "lat": 31.4061819, "lon": 46.1643881, "tags": {"amenity": "school"}}, {"type": "way", "id": 404554544, "nodes": [4068338325, 4068338326, 4068338327, 4068338328, 4068338329, 4068338330, 4068338325], "tags": {"amenity": "school"}}, {"type": "way", "id": 404554545, "nodes": [4068338331, 4068338330, 4068338329, 4068338332, 4068338333, 4068338334, 4068338335, 4068338331], "tags": {"amenity": "school"}}, {"type": "way", "id": 570217760, "nodes": [5482266179, 5482266180, 5482266181, 5482266182, 5482266179], "tags": {"amenity": "school", "name": "\u0627\u0639\u062f\u0627\u062f\u064a\u0629 \u0627\u0644\u0646\u0635\u0631 \u0644\u0644\u0628\u0646\u064a\u0646"}}, {"type": "way", "id": 849367292, "nodes": [7924500093, 7924500094, 7924500095, 7924500096, 7924500093], "tags": {"amenity": "school", "name": "\u062b\u0627\u0646\u0648\u064a\u0629 \u0627\u0644\u062a\u0638\u0627\u0645\u0646 \u0627\u0644\u0645\u062e\u062a\u0644\u0637\u0629"}}, {"type": "way", "id": 1154265198, "nodes": [10734948189, 10734948190, 10734948191, 10734948197, 10734948198, 10734948189], "tags": {"amenity": "school", "name": "\u062b\u0627\u0646\u0648\u064a\u0629 \u0627\u0644\u062b\u0648\u0627\u0631 \u0627\u0644\u0645\u062e\u062a\u0644\u0637\u0629"}}]}