{"version": 0.6, "generator": "Overpass API 0.7.61.5 4133829e", "osm3s": {"timestamp_osm_base": "2024-03-06T11:17:45Z", "copyright": "The data included in this document is from www.openstreetmap.org. The data is made available under ODbL."}, "elements": [{"type": "node", "id": 2482515414, "lat": 33.1945359, "lon": 43.1071328, "tags": {"alt_name": "\u0633\u0648\u062d \u0627\u0644\u063a\u0648\u0631", "int_name": "Saw\u1e29 al Ghawr, \u0633\u0648\u062d \u0627\u0644\u063a\u0648\u0631, Sawh al Ghawr, \u0633\u0648\u062d \u0627\u0644\u063a\u0648\u0631", "name": "\u0633\u0648\u062d \u0627\u0644\u063a\u0648\u0631", "name:ar": "\u0633\u0648\u062d \u0627\u0644\u063a\u0648\u0631", "name:ar1": "\u0633\u0648\u062d \u0627\u0644\u063a\u0648\u0631", "name:de": "Sawh al Ghawr", "name:en": "Sawh al Ghawr", "name:fr": "Sawh al Ghawr", "place": "village"}}, {"type": "node", "id": 2482520196, "lat": 33.1496378, "lon": 43.0650525, "tags": {"alt_name": "\u0645\u0643\u064a\u0646\u0629 \u0645\u0634\u0639\u0627\u0646", "int_name": "Mak\u012bnat Mish\u0101n, \u0645\u0643\u064a\u0646\u0629 \u0645\u0634\u0639\u0627\u0646, Makinat Mishan, \u0645\u0643\u064a\u0646\u0629 \u0645\u0634\u0639\u0627\u0646", "name": "\u0645\u0643\u064a\u0646\u0629 \u0645\u0634\u0639\u0627\u0646", "name:ar": "\u0645\u0643\u064a\u0646\u0629 \u0645\u0634\u0639\u0627\u0646", "name:ar1": "\u0645\u0643\u064a\u0646\u0629 \u0645\u0634\u0639\u0627\u0646", "name:de": "Makinat Mishan", "name:en": "Makinat Mishan", "name:fr": "Makinat Mishan", "place": "village"}}, {"type": "node", "id": 2485138254, "lat": 33.4332682, "lon": 43.3085127, "tags": {"alt_name": "\u0645\u062f\u064a\u0646\u0629 \u0627\u0644\u0623\u0644\u0639\u0627\u0628", "int_name": "Mad\u012bnat al Al\u0101b, \u0645\u062f\u064a\u0646\u0629 \u0627\u0644\u0627\u0644\u0639\u0627\u0628, Madinat al Alab, \u0645\u062f\u064a\u0646\u0629 \u0627\u0644\u0627\u0644\u0639\u0627\u0628", "name": "\u0645\u062f\u064a\u0646\u0629 \u0627\u0644\u0623\u0644\u0639\u0627\u0628", "name:ar": "\u0645\u062f\u064a\u0646\u0629 \u0627\u0644\u0623\u0644\u0639\u0627\u0628", "name:ar1": "\u0645\u062f\u064a\u0646\u0629 \u0627\u0644\u0623\u0644\u0639\u0627\u0628", "name:de": "Madinat al Alab", "name:en": "Madinat al Alab", "name:fr": "Madinat al Alab", "place": "village"}}, {"type": "node", "id": 2485149717, "lat": 33.4297688, "lon": 43.3904291, "tags": {"alt_name": "\u0622\u0644 \u0628\u0648 \u0634\u0628\u064a\u0646", "int_name": "\u0100lb\u016b Shab\u012bn, \u0100lb\u016b Shubayn, \u0622\u0644\u0628\u0648 \u0634\u0628\u064a\u0646, Albu Shabin, Albu Shubayn, \u0622\u0644\u0628\u0648 \u0634\u0628\u064a\u0646", "name": "\u0622\u0644 \u0628\u0648 \u0634\u0628\u064a\u0646", "name:ar": "\u0622\u0644 \u0628\u0648 \u0634\u0628\u064a\u0646", "name:ar1": "\u0622\u0644 \u0628\u0648 \u0634\u0628\u064a\u0646", "name:de": "Albu Shabin", "name:en": "Albu Shabin", "name:fr": "Albu Shabin", "place": "village"}}, {"type": "node", "id": 2485151840, "lat": 33.43455, "lon": 43.400722, "tags": {"alt_name": "\u0622\u0644 \u0628\u0648 \u063a\u0644\u064a\u0635", "int_name": "\u0100lb\u016b Ghil\u012b\u015f, \u0622\u0644\u0628\u0648 \u063a\u0644\u064a\u0635, Albu Ghilis, \u0622\u0644\u0628\u0648 \u063a\u0644\u064a\u0635", "name": "\u0622\u0644 \u0628\u0648\u0639\u0644\u064a\u0635", "name:ar": "\u0622\u0644 \u0628\u0648 \u063a\u0644\u064a\u0635", "name:ar1": "\u0622\u0644 \u0628\u0648 \u063a\u0644\u064a\u0635", "name:de": "Albu Ghilis", "name:en": "Albu Ghilis", "name:fr": "Albu Ghilis", "place": "village"}}, {"type": "node", "id": 2485151867, "lat": 33.4378145, "lon": 43.403836, "tags": {"alt_name": "\u0645\u0646\u0637\u0642\u0629 \u062c\u0648\u064a\u0628\u0629", "int_name": "Min\u0163aqat Juwaybah, \u0645\u0646\u0637\u0642\u0629 \u062c\u0648\u064a\u0628\u0629, Mintaqat Juwaybah, \u0645\u0646\u0637\u0642\u0629 \u062c\u0648\u064a\u0628\u0629", "name": "\u0645\u0646\u0637\u0642\u0629 \u062c\u0648\u064a\u0628\u0629", "name:ar": "\u0645\u0646\u0637\u0642\u0629 \u062c\u0648\u064a\u0628\u0629", "name:ar1": "\u0645\u0646\u0637\u0642\u0629 \u062c\u0648\u064a\u0628\u0629", "name:de": "Mintaqat Juwaybah", "name:en": "Mintaqat Juwaybah", "name:fr": "Mintaqat Juwaybah", "place": "village"}}, {"type": "node", "id": 2485155818, "lat": 33.4107211, "lon": 43.4786853, "tags": {"alt_name": "\u0639\u0628\u0648\u062f \u0637\u0631\u0627\u062f", "int_name": "Abb\u016bd \u0162arr\u0101d, \u0639\u0628\u0648\u062f \u0637\u0631\u0627\u062f, Abbud Tarrad, \u0639\u0628\u0648\u062f \u0637\u0631\u0627\u062f", "name": "\u0639\u0628\u0648\u062f \u0637\u0631\u0627\u062f", "name:ar": "\u0639\u0628\u0648\u062f \u0637\u0631\u0627\u062f", "name:ar1": "\u0639\u0628\u0648\u062f \u0637\u0631\u0627\u062f", "name:de": "Abbud Tarrad", "name:en": "Abbud Tarrad", "name:fr": "Abbud Tarrad", "place": "village"}}, {"type": "node", "id": 2485155863, "lat": 33.4336, "lon": 43.4786339, "tags": {"alt_name": "\u0622\u0644 \u0628\u0648 \u0628\u0627\u0644\u064a", "int_name": "\u0100lb\u016b B\u0101l\u012b, \u0627\u0644\u0628\u0648 \u0628\u0627\u0644\u064a, Albu Bali, \u0627\u0644\u0628\u0648 \u0628\u0627\u0644\u064a", "name": "\u0622\u0644 \u0628\u0648 \u0628\u0627\u0644\u064a", "name:ar": "\u0622\u0644 \u0628\u0648 \u0628\u0627\u0644\u064a", "name:ar1": "\u0622\u0644 \u0628\u0648 \u0628\u0627\u0644\u064a", "name:de": "Albu Bali", "name:en": "Albu Bali", "name:fr": "Albu Bali", "place": "village"}}, {"type": "node", "id": 2485155970, "lat": 33.4215015, "lon": 43.4847426, "tags": {"alt_name": "\u0628\u062f\u0645\u0646\u0629", "int_name": "Bidimnah, Bidimnah", "name": "\u0628\u062f\u0645\u0646\u0629", "name:ar": "\u0628\u062f\u0645\u0646\u0629", "name:ar1": "\u0628\u062f\u0645\u0646\u0629", "name:de": "Bidimnah", "name:en": "Bidimnah", "name:fr": "Bidimnah", "place": "village"}}, {"type": "node", "id": 2485156009, "lat": 33.4122394, "lon": 43.4805992, "tags": {"alt_name": "\u062d\u0645\u0627\u062f \u0647\u0631\u064a\u0631", "int_name": "\u1e28am\u0101d Hur\u012br, \u062d\u0645\u0627\u062f \u0647\u0631\u064a\u0631, Hamad Hurir, \u062d\u0645\u0627\u062f \u0647\u0631\u064a\u0631", "name": "\u062d\u0645\u0627\u062f \u0647\u0631\u064a\u0631", "name:ar": "\u062d\u0645\u0627\u062f \u0647\u0631\u064a\u0631", "name:ar1": "\u062d\u0645\u0627\u062f \u0647\u0631\u064a\u0631", "name:de": "Hamad Hurir", "name:en": "Hamad Hurir", "name:fr": "Hamad Hurir", "place": "village"}}, {"type": "node", "id": 2485156126, "lat": 33.420684, "lon": 43.453298, "tags": {"alt_name:en": "Huseiba;Husaybah", "int_name": "\u1e28u\u015faybah, \u062d\u0635\u064a\u0628\u0629, Husaybah, \u062d\u0635\u064a\u0628\u0629", "name": "\u062d\u0635\u064a\u0628\u0629", "name:ar": "\u062d\u0635\u064a\u0628\u0629", "name:de": "Husseiba", "name:en": "Husseiba", "name:fr": "Husaybah", "place": "town"}}, {"type": "node", "id": 2485156520, "lat": 33.4096648, "lon": 43.481738, "tags": {"alt_name": "\u0637\u0627\u0644\u0628 \u0639\u0627\u0634", "int_name": "\u0162\u0101lib \u0100sh, \u0637\u0627\u0644\u0628 \u0639\u0627\u0634, Talib Ash, \u0637\u0627\u0644\u0628 \u0639\u0627\u0634", "name": "\u0637\u0627\u0644\u0628 \u0639\u0627\u0634", "name:ar": "\u0637\u0627\u0644\u0628 \u0639\u0627\u0634", "name:ar1": "\u0637\u0627\u0644\u0628 \u0639\u0627\u0634", "name:de": "Talib Ash", "name:en": "Talib Ash", "name:fr": "Talib Ash", "place": "village"}}, {"type": "node", "id": 2486322636, "lat": 33.414096, "lon": 43.296994, "tags": {"alt_name": "\u062d\u064a \u0627\u0644\u062d\u0648\u0631", "alt_name:en": "Hayy al Hawr", "name": "\u062d\u064a \u0627\u0644\u062d\u0648\u0632", "name:de": "Hayy al Huz", "name:en": "Hayy al Huz", "name:fr": "Hayy al Huz", "place": "hamlet"}}, {"type": "node", "id": 3788216751, "lat": 33.4230377, "lon": 43.32329, "tags": {"name": "\u0627\u0644\u0645\u0644\u0639\u0628", "place": "village"}}, {"type": "node", "id": 3788217469, "lat": 33.4199712, "lon": 43.2707295, "tags": {"name": "\u0627\u0644\u062a\u0623\u0645\u064a\u0645", "place": "village"}}, {"type": "node", "id": 3788230735, "lat": 33.4341304, "lon": 43.3054006, "tags": {"name": "\u0627\u0644\u062b\u064a\u0644\u0629", "place": "village"}}, {"type": "node", "id": 3788231280, "lat": 33.4360371, "lon": 43.2729414, "tags": {"name": "\u0627\u0644\u0648\u0631\u0627\u0631", "place": "village"}}, {"type": "node", "id": 6234411890, "lat": 33.4259859, "lon": 43.2999218, "tags": {"alt_name:ko": "\ub77c\ub9c8\ub514", "capital": "4", "is_in:country": "Iraq", "name": "\u0627\u0644\u0631\u0645\u0627\u062f\u064a", "name:ckb": "\u0695\u06d5\u0645\u0627\u062f\u06cc", "name:en": "Ramadi", "name:es": "Ramadi", "name:he": "\u05e8\u05de\u05d0\u05d3\u05d9", "name:hi": "\u0930\u092e\u093e\u0926\u0940", "name:ko": "\uc544\ub974 \ub77c\ub9c8\ub514", "name:ku": "Remad\u00ee", "name:ml": "\u0d31\u0d2e\u0d3e\u0d26\u0d3f", "place": "city", "wikidata": "Q192961", "wikipedia": "de:Ramadi"}}, {"type": "node", "id": 11611266119, "lat": 33.4422268, "lon": 43.4043304, "tags": {"name": "\u062c\u0648\u064a\u0628\u0629", "place": "village"}}, {"type": "node", "id": 11611368833, "lat": 33.4322136, "lon": 43.4263373, "tags": {"name": "\u0642\u0631\u064a\u0629 \u0627\u0644\u0628\u0648\u0628\u0627\u0644\u064a \u0627\u0644\u0634\u0627\u0645\u064a\u0629", "place": "village"}}, {"type": "node", "id": 11615562176, "lat": 33.4320959, "lon": 43.3687514, "tags": {"name": "\u0627\u0644\u0633\u062c\u0627\u0631\u064a\u0629", "place": "village"}}]}