{"version": 0.6, "generator": "Overpass API 0.7.61.5 4133829e", "osm3s": {"timestamp_osm_base": "2024-03-05T13:52:05Z", "copyright": "The data included in this document is from www.openstreetmap.org. The data is made available under ODbL."}, "elements": [{"type": "node", "id": 312462304, "lat": 32.3740907, "lon": 62.1146266, "tags": {"ele": "650", "is_in:country": "Afghanistan", "is_in:country_code": "AF", "is_in:state": "Farah Province", "name": "\u0641\u0631\u0627\u0647", "name:ar": "\u0641\u0631\u0627\u0647", "name:cs": "Far\u00e1h", "name:de": "Farah", "name:el": "\u03a6\u03b1\u03c1\u03ac\u03c7", "name:en": "Farah", "name:es": "Far\u0101h", "name:et": "Far\u0101h", "name:fa": "\u0641\u0631\u0627\u0647", "name:fr": "Far\u00e2h", "name:hi": "\u092b\u0930\u093e\u0939", "name:ja": "\u30d5\u30a1\u30e9\u30fc", "name:ko": "\ud30c\ub77c", "name:lt": "Farahas", "name:ml": "\u0d2b\u0d31", "name:ru": "\u0424\u0430\u0440\u0430\u0445", "name:uk": "\u0424\u0430\u0440\u0430\u0445", "name:zh": "\u6cd5\u62c9", "name:zh-Hans": "\u6cd5\u62c9", "name:zh-Hant": "\u6cd5\u62c9", "place": "city", "population": "37400", "source": "wikipedia", "wikidata": "Q593156", "wikipedia": "en:Farah, Afghanistan"}}, {"type": "node", "id": 4406923653, "lat": 32.444271, "lon": 62.101334, "tags": {"alt_name": "Bolandeh", "name": "\u0628\u0644\u0646\u062f\u0647", "name:en": "Bulandeh", "name:ps": "\u0628\u0644\u0646\u062f\u0647", "name:ru": "Bulandekh", "place": "village", "source:name": "GNS"}}, {"type": "node", "id": 4406923654, "lat": 32.494602, "lon": 62.138313, "tags": {"alt_name": "\u062a\u0634\u064a\u0646 \u0641\u0627\u0631\u0633\u06cc;Tshin-e Farsi;Cin Farsi", "name": "\u0686\u06cc\u0646 \u0641\u0627\u0631\u0633\u06cc", "name:en": "Chin Farsi", "name:ps": "\u0686\u06cc\u0646 \u0641\u0627\u0631\u0633\u06cc", "name:ru": "Chinfarsi", "place": "village", "source:name": "GNS"}}, {"type": "node", "id": 4406923655, "lat": 32.469975, "lon": 62.11565, "tags": {"alt_name": "\u06af\u0646\u062c\u0643\u064a\u0646;Ganjgin;Gajkin;Gaj Kan;Ganj Gin;Konj Gin", "name": "\u06af\u0646\u062c \u06af\u06cc\u0646", "name:en": "Ganjkin", "name:ps": "\u06af\u0646\u062c \u06af\u06cc\u0646", "name:ru": "Gandzhgin", "place": "village", "source:name": "GNS"}}, {"type": "node", "id": 4406923656, "lat": 32.48035, "lon": 62.105164, "tags": {"alt_name": "Kusheh;Kosha;Kosa", "name": "\u06a9\u0648\u0634\u0647", "name:en": "Koshah", "name:ps": "\u06a9\u0648\u0634\u0647", "name:ru": "Kosha", "place": "village", "source:name": "GNS"}}, {"type": "node", "id": 4406923659, "lat": 32.441227, "lon": 62.116982, "tags": {"alt_name": "Qaryeh-ye Shiran;Qarya-i-Seran;Qaryeh-ye Seran;Qaryah-ye Sheran;Qaryah-ye Shayran", "name": "\u0642\u0631\u06cc\u0647 \u0634\u06cc\u0631\u0627\u0646", "name:en": "Qaryeh-ye Sheran", "name:ps": "\u0642\u0631\u06cc\u0647 \u0634\u06cc\u0631\u0627\u0646", "name:ru": "Kar'yayi-Sheran", "place": "village", "source:name": "GNS"}}, {"type": "node", "id": 4406923660, "lat": 32.437771, "lon": 62.140213, "tags": {"alt_name": "Rigi Mohammad Anwar Khan;Regi Muhammad Anwar Khan;Raygi Muhammad Anwar Khan", "name": "\u0631\u06cc\u06af\u06cc \u0645\u062d\u0645\u062f \u0627\u0646\u0648\u0631 \u062e\u0627\u0646", "name:en": "Rigi Mohammad Anvar Khan", "name:ps": "\u0631\u06cc\u06af\u06cc \u0645\u062d\u0645\u062f \u0627\u0646\u0648\u0631 \u062e\u0627\u0646", "name:ru": "Anvarkhan", "place": "village", "source:name": "GNS"}}, {"type": "node", "id": 4406923661, "lat": 32.452557, "lon": 62.133518, "tags": {"alt_name": "Tappeh", "name": "\u062a\u067e\u0647", "name:en": "Tapah", "name:ps": "\u062a\u067e\u0647", "name:ru": "Tapa", "place": "village", "source:name": "GNS"}}, {"type": "node", "id": 4406937767, "lat": 32.654224, "lon": 62.10434, "tags": {"alt_name": "\u0639\u0644\u0627\u0642\u062f\u0627\u0631\u06cc \u062e\u0627\u06a9 \u0633\u0641\u06cc\u062f;Khak-e Safid;Alagadari;Khak-e Sefid;`Alaqadari-ye Khak-e Safayd;Khak-e Safed;Khak-e Safayd;Khake Safed", "name": "\u062e\u0627\u06a9 \u0633\u0641\u06d0\u062f", "name:en": "Khaki Safed", "name:ps": "\u062e\u0627\u06a9 \u0633\u0641\u06d0\u062f", "name:ru": "\u0425\u0430\u043a\u0438-\u0421\u0430\u0444\u0435\u0434", "place": "village", "source:name": "GNS"}}, {"type": "node", "id": 4406937772, "lat": 32.660439, "lon": 62.117554, "tags": {"name": "\u06a9\u0631\u063a\u0646\u062f", "name:en": "Kurghand", "name:ps": "\u06a9\u0631\u063a\u0646\u062f", "name:ru": "Kurgand", "place": "village", "source:name": "GNS"}}, {"type": "node", "id": 4406937773, "lat": 32.646191, "lon": 62.094986, "tags": {"alt_name": "\u0646\u0648 \u062f\u0647;Nawdi;Naw Deh", "name": "\u0646\u0648\u062f\u06cc", "name:en": "Nowdi", "name:ps": "\u0646\u0648\u062f\u06cc", "name:ru": "Naudi", "place": "village", "source:name": "GNS"}}, {"type": "node", "id": 4406937774, "lat": 32.636692, "lon": 62.08165, "tags": {"alt_name": "Sarkari Karez", "name": "\u0633\u0631\u06a9\u0627\u0631\u06cc \u06a9\u0627\u0631\u06d0\u0632", "name:en": "Sarkari Kariz", "name:ps": "\u0633\u0631\u06a9\u0627\u0631\u06cc \u06a9\u0627\u0631\u06d0\u0632", "name:ru": "Sarkarikarez", "place": "village", "source:name": "GNS"}}, {"type": "node", "id": 5660926917, "lat": 32.3485161, "lon": 62.0304805, "tags": {"name": "Darabad-Bala", "place": "village"}}, {"type": "node", "id": 5660926956, "lat": 32.3702305, "lon": 62.0602922, "tags": {"name": "Ginakan", "place": "village"}}]}