{"version": 0.6, "generator": "Overpass API 0.7.61.5 4133829e", "osm3s": {"timestamp_osm_base": "2024-03-06T11:32:59Z", "copyright": "The data included in this document is from www.openstreetmap.org. The data is made available under ODbL."}, "elements": [{"type": "node", "id": 2912789310, "lat": -0.7183556, "lon": 37.1607712}, {"type": "node", "id": 3105367374, "lat": -0.7198915, "lon": 37.1562567, "tags": {"amenity": "pharmacy", "dispensing": "yes", "name": "Acess Health Pharmacy", "opening_hours": "Mo-Sa 08:00-18:00"}}, {"type": "node", "id": 3105367375, "lat": -0.7224076, "lon": 37.1592781, "tags": {"amenity": "pharmacy", "dispensing": "yes", "name": "Afya Chemists", "opening_hours": "Su 10:00+"}}, {"type": "node", "id": 3105367377, "lat": -0.7217109, "lon": 37.1606395, "tags": {"amenity": "pharmacy", "dispensing": "yes", "name": "Chemist", "opening_hours": "Mo-Su 08:00-18:00"}}, {"type": "node", "id": 3105367379, "lat": -0.7224975, "lon": 37.1599387, "tags": {"amenity": "doctors", "name": "Counselling Services", "opening_hours": "Mo-Sa 08:00-18:00"}}, {"type": "node", "id": 3105367381, "lat": -0.7218347, "lon": 37.1546838, "tags": {"amenity": "pharmacy", "dispensing": "yes", "name": "Daesak Chemist", "opening_hours": "Mo-Sa 08:00-18:00"}}, {"type": "node", "id": 3105367383, "lat": -0.7175138, "lon": 37.1607827, "tags": {"amenity": "clinic", "name": "Drug Youth Rehabilitation Centre"}}, {"type": "node", "id": 3105367384, "lat": -0.7199368, "lon": 37.1564004, "tags": {"amenity": "clinic", "name": "DynaPharm International Company"}}, {"type": "node", "id": 3105367388, "lat": -0.7207057, "lon": 37.1570738, "tags": {"amenity": "pharmacy", "dispensing": "yes", "name": "Flovins Chemist", "opening_hours": "Mo-Sa 08:00-18:00"}}, {"type": "node", "id": 3105367389, "lat": -0.7213571, "lon": 37.161006, "tags": {"amenity": "clinic", "name": "Focus Diagnostics Services"}}, {"type": "node", "id": 3105367393, "lat": -0.7318073, "lon": 37.1499188, "tags": {"amenity": "clinic", "name": "Huruma Medical Services"}}, {"type": "node", "id": 3105367395, "lat": -0.7203461, "lon": 37.1598943, "tags": {"amenity": "pharmacy", "dispensing": "yes", "name": "Jibamani Chemist", "opening_hours": "Mo-Su 08:00-18:00; Apr 10-15 off; Jun 08:00-14:00; Aug off; Dec 25 off", "operator": "County Government of Muranga"}}, {"type": "node", "id": 3105367396, "lat": -0.7311291, "lon": 37.1507368, "tags": {"amenity": "pharmacy", "dispensing": "yes", "name": "Jomol chemists", "opening_hours": "sunrise-sunset"}}, {"type": "node", "id": 3105367397, "lat": -0.7215659, "lon": 37.15984, "tags": {"amenity": "pharmacy", "dispensing": "yes", "name": "Kahuro Chemist", "opening_hours": "Mo-Sa 08:00-18:00"}}, {"type": "node", "id": 3105367398, "lat": -0.7222796, "lon": 37.1549192}, {"type": "node", "id": 3105367399, "lat": -0.7205744, "lon": 37.1591649, "tags": {"addr:postcode": "10200", "addr:street": "Uhuru highway", "amenity": "clinic", "name": "Kiriani Mission hospital", "operator": "County Government of Muranga"}}, {"type": "node", "id": 3105367401, "lat": -0.7206437, "lon": 37.1602896, "tags": {"amenity": "hospital", "name": "Maathai Supermarket", "opening_hours": "Mo-Su 08:00-18:00", "shop": "supermarket"}}, {"type": "node", "id": 3105367403, "lat": -0.7214384, "lon": 37.1594627, "tags": {"amenity": "pharmacy", "dispensing": "yes", "name": "Mathioya dispensing Chemists", "opening_hours": "Mo-Fr 08:30-20:00; Sa 08:30-20:00; Su off"}}, {"type": "node", "id": 3105367404, "lat": -0.7203529, "lon": 37.1568044, "tags": {"amenity": "clinic", "name": "Mayo Clinic"}}, {"type": "node", "id": 3105367405, "lat": -0.7316083, "lon": 37.1505297, "tags": {"amenity": "pharmacy", "dispensing": "yes", "name": "Mbiri chemist", "opening_hours": "sunrise-sunset", "operator": "County Government of Muranga"}}, {"type": "node", "id": 3105367406, "lat": -0.7223619, "lon": 37.1601162, "tags": {"addr:postcode": "10200", "amenity": "pharmacy", "dispensing": "yes", "name": "Medicare Pharmaceuticals", "opening_hours": "Mo-Su 08:00-18:00"}}, {"type": "node", "id": 3105367407, "lat": -0.7197649, "lon": 37.1562028, "tags": {"amenity": "clinic", "name": "Medrite Surgical Clinic", "opening_hours": "Mo-Sa 08:00-18:00"}}, {"type": "node", "id": 3105367409, "lat": -0.7319336, "lon": 37.1495865, "tags": {"amenity": "pharmacy", "dispensing": "yes", "name": "Mukuyu Chemist", "opening_hours": "Mo-Sa 08:00-18:00"}}, {"type": "node", "id": 3105367411, "lat": -0.72033, "lon": 37.1591024}, {"type": "node", "id": 3105367414, "lat": -0.7212767, "lon": 37.1598932, "tags": {"amenity": "pharmacy", "dispensing": "yes", "name": "Muranga County Pharmacy"}}, {"type": "node", "id": 3105367416, "lat": -0.7215, "lon": 37.1548867}, {"type": "node", "id": 3105367419, "lat": -0.7207702, "lon": 37.1598764, "tags": {"amenity": "pharmacy", "dispensing": "yes", "name": "Muranga Pharmacy", "opening_hours": "Mo-Su 08:30-20:00", "operator": "County Government of Muranga"}}, {"type": "node", "id": 3105367421, "lat": -0.7232662, "lon": 37.1606479, "tags": {"addr:city": "muranga", "addr:postcode": "10200", "amenity": "doctors", "name": "Muyesu Medical centres", "opening_hours": "sunrise-sunset"}}, {"type": "node", "id": 3105367422, "lat": -0.7204628, "lon": 37.160164, "tags": {"amenity": "pharmacy", "dispensing": "yes", "name": "Mwanjo Pharmacy", "opening_hours": "Mo-Su 08:00-18:00"}}, {"type": "node", "id": 3105367423, "lat": -0.7206075, "lon": 37.1602897, "tags": {"amenity": "pharmacy", "dispensing": "yes", "name": "Mwanjo Pharmacy", "opening_hours": "Mo-Su 08:00-18:00"}}, {"type": "node", "id": 3105367424, "lat": -0.7226431, "lon": 37.1609994, "tags": {"amenity": "clinic", "name": "Neno Opticians"}}, {"type": "node", "id": 3105367428, "lat": -0.7313819, "lon": 37.14955, "tags": {"amenity": "pharmacy", "dispensing": "yes", "name": "Phymm Care Chemist", "opening_hours": "sunrise-sunset"}}, {"type": "node", "id": 3105369930, "lat": -0.7316624, "lon": 37.14919, "tags": {"amenity": "pharmacy", "dispensing": "yes", "name": "Riara Chemist", "opening_hours": "sunrise-sunset"}}, {"type": "node", "id": 3105369933, "lat": -0.7329101, "lon": 37.1492536, "tags": {"amenity": "pharmacy", "dispensing": "yes", "name": "Thambiri Chemists"}}, {"type": "node", "id": 3105369935, "lat": -0.7206243, "lon": 37.1570918, "tags": {"amenity": "clinic", "name": "Waiganjos ENT Clinic"}}, {"type": "node", "id": 5484158228, "lat": -0.9415524, "lon": 37.1235262}, {"type": "node", "id": 5797022633, "lat": -0.7896629, "lon": 37.1287546}, {"type": "node", "id": 5797022634, "lat": -0.7890126, "lon": 37.1281296}, {"type": "node", "id": 5797022635, "lat": -0.789258, "lon": 37.1270876}, {"type": "node", "id": 5797022636, "lat": -0.7890809, "lon": 37.1278118}, {"type": "node", "id": 5797022637, "lat": -0.7889482, "lon": 37.128666}, {"type": "node", "id": 5797022638, "lat": -0.7892553, "lon": 37.1289919}, {"type": "node", "id": 5797022639, "lat": -0.7899432, "lon": 37.1280397}, {"type": "node", "id": 5797022640, "lat": -0.7903401, "lon": 37.1272659}, {"type": "node", "id": 5797022641, "lat": -0.7902395, "lon": 37.1271238}, {"type": "node", "id": 5797022642, "lat": -0.7902449, "lon": 37.1270071}, {"type": "node", "id": 5797022643, "lat": -0.7904487, "lon": 37.1261246}, {"type": "node", "id": 5797022644, "lat": -0.7903441, "lon": 37.1259785}, {"type": "node", "id": 5797022645, "lat": -0.78938, "lon": 37.1266638}, {"type": "node", "id": 7453543282, "lat": -0.7183958, "lon": 37.1609107}, {"type": "node", "id": 7453543283, "lat": -0.7183717, "lon": 37.1609134}, {"type": "node", "id": 7453543284, "lat": -0.7184227, "lon": 37.1610609}, {"type": "node", "id": 7453566085, "lat": -0.7183717, "lon": 37.1610877}, {"type": "node", "id": 7453566086, "lat": -0.7186023, "lon": 37.1616993}, {"type": "node", "id": 7453566087, "lat": -0.7192728, "lon": 37.1614874}, {"type": "node", "id": 7453566088, "lat": -0.7191736, "lon": 37.1611145}, {"type": "node", "id": 7453566089, "lat": -0.7193855, "lon": 37.1610502}, {"type": "node", "id": 7453566090, "lat": -0.7192648, "lon": 37.1606586}, {"type": "node", "id": 7453566091, "lat": -0.7186587, "lon": 37.1606317}, {"type": "node", "id": 7453566092, "lat": -0.7185755, "lon": 37.1606317}, {"type": "node", "id": 7453566093, "lat": -0.7185058, "lon": 37.1606452}, {"type": "node", "id": 7453566094, "lat": -0.7184548, "lon": 37.1606613}, {"type": "node", "id": 7453566095, "lat": -0.7184066, "lon": 37.1606827}, {"type": "node", "id": 7453566096, "lat": -0.7183851, "lon": 37.1607203}, {"type": "node", "id": 7453566097, "lat": -0.7223842, "lon": 37.1551311}, {"type": "node", "id": 7453566098, "lat": -0.7226014, "lon": 37.1549729}, {"type": "node", "id": 7453566099, "lat": -0.7227328, "lon": 37.154812}, {"type": "node", "id": 7453566100, "lat": -0.722529, "lon": 37.1548495}, {"type": "node", "id": 7453566101, "lat": -0.7204744, "lon": 37.1591612}, {"type": "node", "id": 7453566102, "lat": -0.7204273, "lon": 37.1592768}, {"type": "node", "id": 7453566103, "lat": -0.7202829, "lon": 37.159218}, {"type": "node", "id": 7453566104, "lat": -0.7216931, "lon": 37.1552126}, {"type": "node", "id": 7453566105, "lat": -0.721913, "lon": 37.1550087}, {"type": "node", "id": 7453566106, "lat": -0.7217467, "lon": 37.154711}, {"type": "node", "id": 7462702818, "lat": -0.9415516, "lon": 37.1235892}, {"type": "node", "id": 7462702819, "lat": -0.9416569, "lon": 37.1235905}, {"type": "node", "id": 7462702820, "lat": -0.9416576, "lon": 37.1235275}, {"type": "node", "id": 9806303647, "lat": -0.6214317, "lon": 37.2583455, "tags": {"amenity": "pharmacy", "emergency": "no", "healthcare": "pharmacy", "healthcare:speciality": "pharmacy", "name": "Murrihs pharmacy", "operator:type": "business"}}, {"type": "way", "id": 612399626, "nodes": [5797022645, 5797022644, 5797022643, 5797022642, 5797022641, 5797022640, 5797022639, 5797022633, 5797022638, 5797022637, 5797022634, 5797022636, 5797022635, 5797022645], "tags": {"amenity": "hospital", "name": "Maragua District Rural Hospital"}}, {"type": "way", "id": 796969747, "nodes": [2912789310, 7453543282, 7453543283, 7453543284, 7453566085, 7453566086, 7453566087, 7453566088, 7453566089, 7453566090, 7453566091, 7453566092, 7453566093, 7453566094, 7453566095, 7453566096, 2912789310], "tags": {"addr:city": "Murang'a", "addr:street": "Hospital Road", "amenity": "hospital", "healthcare": "hospital", "name": "Muranga District Hospital", "operator": "County Government of Muranga"}}, {"type": "way", "id": 796969748, "nodes": [3105367398, 7453566097, 7453566098, 7453566099, 7453566100, 3105367398], "tags": {"amenity": "hospital", "healthcare": "hospital", "name": "KimKan Health Services", "opening_hours": "Mo-Su 08:00-18:00"}}, {"type": "way", "id": 796969749, "nodes": [3105367411, 7453566101, 7453566102, 7453566103, 3105367411], "tags": {"amenity": "hospital", "healthcare": "hospital", "name": "Murang'a Redcross Tuck Shop", "opening_hours": "24/7", "operator": "Kenya Red Cross Murang'a Branch", "shop": "gift"}}, {"type": "way", "id": 796969750, "nodes": [3105367416, 7453566104, 7453566105, 7453566106, 3105367416], "tags": {"amenity": "hospital", "healthcare": "hospital", "name": "Muranga District Hospital", "operator": "County Government of Muranga"}}, {"type": "way", "id": 797884138, "nodes": [5484158228, 7462702818, 7462702819, 7462702820, 5484158228], "tags": {"amenity": "hospital", "healthcare": "hospital", "internet_access": "wlan", "name": "Kenol Hospital", "opening_hours": "24/7"}}]}