{"version": 0.6, "generator": "Overpass API 0.7.61.5 4133829e", "osm3s": {"timestamp_osm_base": "2024-03-06T11:04:23Z", "copyright": "The data included in this document is from www.openstreetmap.org. The data is made available under ODbL."}, "elements": [{"type": "node", "id": 4271091290, "lat": 31.0509113, "lon": 46.2430588, "tags": {"amenity": "bank", "name": "\u0645\u0635\u0631\u0641 \u0627\u0644\u0631\u0634\u064a\u062f \u0641\u0631\u0639 \u0627\u0648\u0631"}}, {"type": "node", "id": 4589391290, "lat": 31.0373623, "lon": 46.2381416, "tags": {"amenity": "bank", "name": "\u0645\u0635\u0631\u0641 \u0627\u0644\u0631\u0641\u062f\u064a\u0646", "name:ar": "\u0645\u0635\u0631\u0641 \u0627\u0644\u0631\u0641\u062f\u064a\u0646", "name:en": "Alrafdain Bank"}}, {"type": "node", "id": 5158271922, "lat": 31.036955, "lon": 46.2386273, "tags": {"amenity": "bank"}}, {"type": "node", "id": 5421018524, "lat": 31.0455037, "lon": 46.2468685, "tags": {"amenity": "bank", "name": "\u0627\u0644\u0645\u0635\u0631\u0641 \u0627\u0644\u0632\u0631\u0627\u0639\u064a \u0641\u064a \u0630\u064a \u0642\u0627\u0631"}}, {"type": "node", "id": 6818483987, "lat": 31.0414402, "lon": 46.2345659, "tags": {"amenity": "bank", "name": "\u0645\u0635\u0631\u0641 \u0628\u063a\u062f\u0627\u062f"}}, {"type": "node", "id": 9384284151, "lat": 31.0350486, "lon": 46.1820854, "tags": {"addr:full": "ATM - NASRIYA - ELEC PROD -NAS", "amenity": "atm", "atm": "yes", "cash_out": "yes", "currency:IQD": "yes", "language:ar": "yes", "language:en": "yes", "name": "\u0635\u0631\u0627\u0641 \u0622\u0644\u064a - \u0627\u0644\u0645\u0635\u0631\u0641 \u0627\u0644\u0639\u0631\u0627\u0642\u064a \u0644\u0644\u062a\u062c\u0627\u0631\u0629", "name:en": "TBI ATM", "operator": "Trade Bank of Iraq", "website": "https://tbi.com.iq/"}}, {"type": "node", "id": 9384284152, "lat": 31.0656836, "lon": 46.2610338, "tags": {"addr:full": "ATM - NASRIYA -\u00a0Al-Safi Mall R", "amenity": "atm", "atm": "yes", "cash_out": "yes", "currency:IQD": "yes", "language:ar": "yes", "language:en": "yes", "name": "\u0635\u0631\u0627\u0641 \u0622\u0644\u064a - \u0627\u0644\u0645\u0635\u0631\u0641 \u0627\u0644\u0639\u0631\u0627\u0642\u064a \u0644\u0644\u062a\u062c\u0627\u0631\u0629", "name:en": "TBI ATM", "operator": "Trade Bank of Iraq", "website": "https://tbi.com.iq/"}}, {"type": "node", "id": 9384284154, "lat": 31.0580223, "lon": 46.2460084, "tags": {"addr:full": "ATM-NASIRYA-Al-hussein Hosp.", "amenity": "atm", "atm": "yes", "cash_out": "yes", "currency:IQD": "yes", "language:ar": "yes", "language:en": "yes", "name": "\u0635\u0631\u0627\u0641 \u0622\u0644\u064a - \u0627\u0644\u0645\u0635\u0631\u0641 \u0627\u0644\u0639\u0631\u0627\u0642\u064a \u0644\u0644\u062a\u062c\u0627\u0631\u0629", "name:en": "TBI ATM", "operator": "Trade Bank of Iraq", "website": "https://tbi.com.iq/"}}, {"type": "node", "id": 9384284155, "lat": 31.0481726, "lon": 46.2494132, "tags": {"addr:full": "ATM-NASIRYA-DHIQAR HEALTH D.", "amenity": "atm", "atm": "yes", "cash_out": "yes", "currency:IQD": "yes", "language:ar": "yes", "language:en": "yes", "name": "\u0635\u0631\u0627\u0641 \u0622\u0644\u064a - \u0627\u0644\u0645\u0635\u0631\u0641 \u0627\u0644\u0639\u0631\u0627\u0642\u064a \u0644\u0644\u062a\u062c\u0627\u0631\u0629", "name:en": "TBI ATM", "operator": "Trade Bank of Iraq", "website": "https://tbi.com.iq/"}}, {"type": "node", "id": 9384284156, "lat": 31.0810595, "lon": 46.247498, "tags": {"addr:full": "ATM-NASIRYA-SPEC.HEART CEN.", "amenity": "atm", "atm": "yes", "cash_out": "yes", "currency:IQD": "yes", "language:ar": "yes", "language:en": "yes", "name": "\u0635\u0631\u0627\u0641 \u0622\u0644\u064a - \u0627\u0644\u0645\u0635\u0631\u0641 \u0627\u0644\u0639\u0631\u0627\u0642\u064a \u0644\u0644\u062a\u062c\u0627\u0631\u0629", "name:en": "TBI ATM", "operator": "Trade Bank of Iraq", "website": "https://tbi.com.iq/"}}, {"type": "node", "id": 9384316655, "lat": 31.048197, "lon": 46.22312, "tags": {"addr:full": "ATM - NASRIYA - Pre Col. Nas", "amenity": "atm", "atm": "yes", "cash_out": "yes", "currency:IQD": "yes", "language:ar": "yes", "language:en": "yes", "name": "\u0635\u0631\u0627\u0641 \u0622\u0644\u064a - \u0627\u0644\u0645\u0635\u0631\u0641 \u0627\u0644\u0639\u0631\u0627\u0642\u064a \u0644\u0644\u062a\u062c\u0627\u0631\u0629", "name:en": "TBI ATM", "operator": "Trade Bank of Iraq", "website": "https://tbi.com.iq/"}}, {"type": "node", "id": 9384316673, "lat": 31.0355711, "lon": 46.1827899, "tags": {"addr:full": "ATM-NASRIYAH-NASIRIYAH MOE 2", "amenity": "atm", "atm": "yes", "cash_out": "yes", "currency:IQD": "yes", "language:ar": "yes", "language:en": "yes", "name": "\u0635\u0631\u0627\u0641 \u0622\u0644\u064a - \u0627\u0644\u0645\u0635\u0631\u0641 \u0627\u0644\u0639\u0631\u0627\u0642\u064a \u0644\u0644\u062a\u062c\u0627\u0631\u0629", "name:en": "TBI ATM", "operator": "Trade Bank of Iraq", "website": "https://tbi.com.iq/"}}, {"type": "node", "id": 9384316674, "lat": 31.0429983, "lon": 46.2437915, "tags": {"addr:full": "ATM - NASRIYAH - E.P.S NAS COLLEG", "amenity": "atm", "atm": "yes", "cash_out": "yes", "currency:IQD": "yes", "language:ar": "yes", "language:en": "yes", "name": "\u0635\u0631\u0627\u0641 \u0622\u0644\u064a - \u0627\u0644\u0645\u0635\u0631\u0641 \u0627\u0644\u0639\u0631\u0627\u0642\u064a \u0644\u0644\u062a\u062c\u0627\u0631\u0629", "name:en": "TBI ATM", "operator": "Trade Bank of Iraq", "website": "https://tbi.com.iq/"}}, {"type": "node", "id": 9384316675, "lat": 31.0335448, "lon": 46.2305198, "tags": {"addr:full": "ATM - NASRIYA - IHEC-DHAI QAR", "amenity": "atm", "atm": "yes", "cash_out": "yes", "currency:IQD": "yes", "language:ar": "yes", "language:en": "yes", "name": "\u0635\u0631\u0627\u0641 \u0622\u0644\u064a - \u0627\u0644\u0645\u0635\u0631\u0641 \u0627\u0644\u0639\u0631\u0627\u0642\u064a \u0644\u0644\u062a\u062c\u0627\u0631\u0629", "name:en": "TBI ATM", "operator": "Trade Bank of Iraq", "website": "https://tbi.com.iq/"}}, {"type": "node", "id": 9384316676, "lat": 31.0493744, "lon": 46.2550893, "tags": {"addr:full": "ATM - NASRIYA - MOE DHAI QAR", "amenity": "atm", "atm": "yes", "cash_out": "yes", "currency:IQD": "yes", "language:ar": "yes", "language:en": "yes", "name": "\u0635\u0631\u0627\u0641 \u0622\u0644\u064a - \u0627\u0644\u0645\u0635\u0631\u0641 \u0627\u0644\u0639\u0631\u0627\u0642\u064a \u0644\u0644\u062a\u062c\u0627\u0631\u0629", "name:en": "TBI ATM", "operator": "Trade Bank of Iraq", "website": "https://tbi.com.iq/"}}, {"type": "node", "id": 9384316712, "lat": 31.0355734, "lon": 46.1827978, "tags": {"addr:full": "ATM - Nasriya -\u00a0General Directorate for the production of electric power", "amenity": "atm", "atm": "yes", "cash_out": "yes", "currency:IQD": "yes", "language:ar": "yes", "language:en": "yes", "name": "\u0635\u0631\u0627\u0641 \u0622\u0644\u064a - \u0627\u0644\u0645\u0635\u0631\u0641 \u0627\u0644\u0639\u0631\u0627\u0642\u064a \u0644\u0644\u062a\u062c\u0627\u0631\u0629", "name:en": "TBI ATM", "operator": "Trade Bank of Iraq", "website": "https://tbi.com.iq/"}}, {"type": "node", "id": 9384316720, "lat": 31.0934043, "lon": 46.3014963, "tags": {"addr:full": "ATM - Nasriya -\u00a0 Dhi Qar Oil Company", "amenity": "atm", "atm": "yes", "cash_out": "yes", "currency:IQD": "yes", "language:ar": "yes", "language:en": "yes", "name": "\u0635\u0631\u0627\u0641 \u0622\u0644\u064a - \u0627\u0644\u0645\u0635\u0631\u0641 \u0627\u0644\u0639\u0631\u0627\u0642\u064a \u0644\u0644\u062a\u062c\u0627\u0631\u0629", "name:en": "TBI ATM", "operator": "Trade Bank of Iraq", "website": "https://tbi.com.iq/"}}, {"type": "node", "id": 9384316775, "lat": 31.03691, "lon": 46.227814, "tags": {"addr:full": "ATM-NASIRYA-TEC.INSTITUTE-NS R W", "amenity": "atm", "atm": "yes", "cash_out": "yes", "currency:IQD": "yes", "language:ar": "yes", "language:en": "yes", "name": "\u0635\u0631\u0627\u0641 \u0622\u0644\u064a - \u0627\u0644\u0645\u0635\u0631\u0641 \u0627\u0644\u0639\u0631\u0627\u0642\u064a \u0644\u0644\u062a\u062c\u0627\u0631\u0629", "name:en": "TBI ATM", "operator": "Trade Bank of Iraq", "website": "https://tbi.com.iq/"}}, {"type": "node", "id": 9734483017, "lat": 31.0415107, "lon": 46.2562608, "tags": {"amenity": "bank", "name": "\u0627\u0644\u0645\u0635\u0631\u0641 \u0627\u0644\u0639\u0642\u0627\u0631\u064a"}}, {"type": "node", "id": 10280879482, "lat": 31.0441307, "lon": 46.2484807, "tags": {"amenity": "atm", "name": "\u0635\u0631\u0627\u0641 \u0622\u0644\u064a - \u0627\u0644\u0645\u0635\u0631\u0641 \u0627\u0644\u0639\u0631\u0627\u0642\u064a \u0644\u0644\u062a\u062c\u0627\u0631\u0629", "operator": "\u0635\u0631\u0627\u0641 TBI"}}, {"type": "node", "id": 10280904345, "lat": 31.0443629, "lon": 46.2485286}, {"type": "node", "id": 10280904346, "lat": 31.0441631, "lon": 46.2483801}, {"type": "node", "id": 10280904347, "lat": 31.0441194, "lon": 46.2485158}, {"type": "node", "id": 10280904348, "lat": 31.0443132, "lon": 46.2486469}, {"type": "node", "id": 10280916461, "lat": 31.044177, "lon": 46.2483904, "tags": {"amenity": "atm", "name": "\u0635\u0631\u0627\u0641 \u0622\u0644\u064a - \u0627\u0644\u0645\u0635\u0631\u0641 \u0627\u0644\u0639\u0631\u0627\u0642\u064a \u0644\u0644\u062a\u062c\u0627\u0631\u0629", "operator": "\u0635\u0631\u0627\u0641 TBI"}}, {"type": "node", "id": 10307768909, "lat": 31.0532471, "lon": 46.245908, "tags": {"amenity": "bank", "opening_hours": "24/7"}}, {"type": "node", "id": 11039573905, "lat": 31.0513536, "lon": 46.2416434, "tags": {"amenity": "bank", "name": "\u0645\u0631\u0643\u0632 \u062e\u062f\u0645\u0629 \u0627\u0644\u0632\u0628\u0627\u0626\u0646 \u0645\u0627\u0633\u062a\u0631 \u0643\u0627\u0631\u062f \u0630\u064a \u0642\u0627\u0631"}}, {"type": "node", "id": 11113408807, "lat": 31.0432389, "lon": 46.3056942, "tags": {"amenity": "bank", "name": "\u0628\u0644\u062f\u064a\u0629 \u0627\u0648\u0631 \u0633\u062f\u064a\u0646\u0627\u0648\u064a\u0629"}}, {"type": "way", "id": 1124252447, "nodes": [10280904345, 10280916461, 10280904346, 10280879482, 10280904347, 10280904348, 10280904345], "tags": {"amenity": "bank", "atm": "yes", "building": "yes", "name": "\u0627\u0644\u0645\u0635\u0631\u0641 \u0627\u0644\u0639\u0631\u0627\u0642\u064a \u0644\u0644\u062a\u062c\u0627\u0631\u0629 TBI", "name:en": "Trade Bank of Iraq Branch", "website": "https://tbi.com.iq/"}}]}