{"version": 0.6, "generator": "Overpass API 0.7.61.5 4133829e", "osm3s": {"timestamp_osm_base": "2024-03-05T18:55:45Z", "copyright": "The data included in this document is from www.openstreetmap.org. The data is made available under ODbL."}, "elements": [{"type": "node", "id": 31494656, "lat": 59.4689945, "lon": 18.3073641, "tags": {"name": "Tunag\u00e5rd", "network": "SL", "public_transport": "station", "railway": "station", "railway:ref": "Tug", "route_ref": "28", "sl_stop_id": "9661", "station": "train", "wikidata": "Q10706298", "wikipedia": "sv:Tunag\u00e5rds station"}}, {"type": "node", "id": 31495563, "lat": 59.4653917, "lon": 18.1850593, "tags": {"name": "Rydbo", "network": "SL", "public_transport": "station", "railway": "station", "railway:ref": "Rdb", "route_ref": "28", "sl_stop_id": "9665", "station": "train", "wheelchair": "yes", "wikidata": "Q15486285"}}, {"type": "node", "id": 31495675, "lat": 59.4611159, "lon": 18.3112173, "tags": {"name": "\u00d6stersk\u00e4r", "network": "SL", "public_transport": "station", "railway": "station", "railway:ref": "\u00d6sk", "route_ref": "28", "sl_stop_id": "9660", "station": "train", "train": "yes", "wheelchair": "yes", "wikidata": "Q15487487"}}, {"type": "node", "id": 36995817, "lat": 59.3055875, "lon": 18.1779447, "tags": {"name": "Stor\u00e4ngen", "public_transport": "station", "railway": "station", "sl_stop_id": "9427", "station": "light_rail", "wikidata": "Q15411586", "wikipedia": "sv:Stor\u00e4ngens station"}}, {"type": "node", "id": 36998371, "lat": 59.2899227, "lon": 18.2754417, "tags": {"name": "Igelboda", "public_transport": "station", "railway": "station", "sl_stop_id": "9423", "station": "light_rail", "wheelchair": "yes", "wikidata": "Q15455317", "wikipedia": "sv:Igelboda station"}}, {"type": "node", "id": 37014174, "lat": 59.2885105, "lon": 18.292129, "tags": {"name": "Neglinge", "public_transport": "station", "railway": "station", "sl_stop_id": "9422", "station": "light_rail", "wheelchair": "yes", "wikidata": "Q10595731", "wikipedia": "sv:Neglingedep\u00e5n"}}, {"type": "node", "id": 37014205, "lat": 59.2790134, "lon": 18.3122751, "tags": {"name": "Saltsj\u00f6baden", "public_transport": "station", "railway": "station", "sl_stop_id": "9420", "station": "light_rail", "wikidata": "Q10660770", "wikipedia": "sv:Saltsj\u00f6badens station"}}, {"type": "node", "id": 59751300, "lat": 59.4806333, "lon": 18.2703817, "tags": {"name": "\u00c5kers Run\u00f6", "network": "SL", "public_transport": "station", "railway": "station", "railway:ref": "\u00c5ru", "route_ref": "28", "sl_stop_id": "9663", "station": "train", "wheelchair": "yes", "wikidata": "Q10726331", "wikipedia": "sv:\u00c5kers Run\u00f6 station"}}, {"type": "node", "id": 59751301, "lat": 59.4791956, "lon": 18.298161, "tags": {"name": "\u00c5kersberga", "network": "SL", "public_transport": "station", "railway": "station", "railway:ref": "\u00c5bg", "route_ref": "28", "sl_stop_id": "9662", "station": "train", "wheelchair": "yes", "wikidata": "Q15487070"}}, {"type": "node", "id": 59776507, "lat": 59.4731293, "lon": 18.2352354, "tags": {"name": "T\u00e4lj\u00f6", "network": "SL", "public_transport": "station", "railway": "station", "railway:ref": "T\u00e4l", "route_ref": "28", "sl_stop_id": "9664", "station": "train", "wheelchair": "yes", "wikidata": "Q15486645", "wikipedia": "sv:T\u00e4lj\u00f6"}}, {"type": "node", "id": 260432362, "lat": 59.2898302, "lon": 18.2754355}, {"type": "node", "id": 260432364, "lat": 59.2902112, "lon": 18.2747037}, {"type": "node", "id": 282191410, "lat": 59.4022938, "lon": 18.359581, "tags": {"amenity": "ferry_terminal", "ferry": "yes", "public_transport": "station"}}, {"type": "node", "id": 294549037, "lat": 59.3005075, "lon": 18.1989196, "tags": {"name": "Saltsj\u00f6-Duvn\u00e4s", "public_transport": "station", "railway": "station", "sl_stop_id": "9426", "station": "light_rail", "wikidata": "Q15411614", "wikipedia": "sv:Saltsj\u00f6-Duvn\u00e4s station"}}, {"type": "node", "id": 2112813446, "lat": 59.2894225, "lon": 18.2763318}, {"type": "node", "id": 2113532805, "lat": 59.2896065, "lon": 18.276657}, {"type": "node", "id": 2113532807, "lat": 59.2898304, "lon": 18.2757954}, {"type": "node", "id": 2113532808, "lat": 59.28993, "lon": 18.275998}, {"type": "node", "id": 2113532810, "lat": 59.2902979, "lon": 18.2748466}, {"type": "node", "id": 2349164668, "lat": 59.3730553, "lon": 18.6987474, "tags": {"amenity": "ferry_terminal", "ferry": "yes", "name": "Sollenkroka", "public_transport": "station"}}, {"type": "node", "id": 3489868656, "lat": 59.2895696, "lon": 18.2765917}, {"type": "node", "id": 4900324640, "lat": 59.4024049, "lon": 18.3556819, "tags": {"amenity": "ferry_terminal", "ferry": "yes", "opening_hours": "Mo-Su 10:00-21:45", "public_transport": "station"}}, {"type": "node", "id": 6647583521, "lat": 59.2894987, "lon": 18.2761642}, {"type": "node", "id": 8898660241, "lat": 59.3275338, "lon": 18.1794549, "tags": {"amenity": "ferry_terminal", "ferry": "yes", "public_transport": "station"}}, {"type": "node", "id": 10129832321, "lat": 59.2865665, "lon": 18.7043247, "tags": {"amenity": "ferry_terminal", "ferry": "yes", "name": "Stavsn\u00e4s vinterhamn", "public_transport": "station"}}, {"type": "way", "id": 201385514, "nodes": [260432364, 2113532810, 2113532807, 2113532808, 2113532805, 3489868656, 2112813446, 6647583521, 260432362, 260432364], "tags": {"area": "yes", "covered": "no", "name": "Igelboda", "network": "SL", "operator": "Arriva", "public_transport": "station"}}]}