{"version": 0.6, "generator": "Overpass API 0.7.61.5 4133829e", "osm3s": {"timestamp_osm_base": "2024-03-06T11:30:59Z", "copyright": "The data included in this document is from www.openstreetmap.org. The data is made available under ODbL."}, "elements": [{"type": "node", "id": 11645444593, "lat": -2.1844666, "lon": 40.1350567, "tags": {"amenity": "pharmacy", "ele": "7.469", "evacuation_centre": "no", "flood_prone": "no", "name": "Maziwa pharmacy", "opening_hours": "8 hrs", "operational_status": "operational", "operator": "Ministry of Health", "operator:type": "public", "precision": "1.096", "source": "KRCS2023", "staff_count": "4", "storage_area": "yes"}}, {"type": "node", "id": 11645444596, "lat": -1.959303, "lon": 40.1491228, "tags": {"amenity": "pharmacy", "ele": "5.2", "evacuation_centre": "yes", "flood_prone": "no", "name": "Kitere minhaj pharmacy", "opening_hours": "24hrs", "operational_status": "operational", "operator": "Ministry of Health", "operator:type": "public", "precision": "4.972", "source": "KRCS2023", "staff_count": "4", "storage_area": "yes"}}, {"type": "node", "id": 11645444597, "lat": -2.0197389, "lon": 40.1543165, "tags": {"amenity": "pharmacy", "ele": "27.0", "evacuation_centre": "no", "flood_prone": "yes", "name": "Kinyadu pharmacy", "opening_hours": "0hrs", "operational_status": "non operational", "operator": "Ministry of Health", "operator:type": "public", "precision": "4.88", "source": "KRCS2023", "staff_count": "0", "storage_area": "no"}}, {"type": "node", "id": 11645444604, "lat": -2.2781597, "lon": 40.1825618, "tags": {"amenity": "pharmacy", "ele": "123.3", "evacuation_centre": "no", "flood_prone": "yes", "name": "Gamba pharmacy", "opening_hours": "24hrs", "operational_status": "operational", "operator": "Ministry of Health", "operator:type": "public", "precision": "4.96", "source": "KRCS2023", "staff_count": "5", "storage_area": "no"}}, {"type": "node", "id": 11645444605, "lat": -2.2189976, "lon": 40.1781074, "tags": {"amenity": "pharmacy", "ele": "-56.691", "evacuation_centre": "no", "flood_prone": "no", "name": "Wema catholic pharmacy", "opening_hours": "24 hrs", "operational_status": "operational", "operator": "Ministry of Health/ Catholic Diosis of Malindi", "operator:type": "religious", "precision": "3.9", "source": "KRCS2023", "staff_count": "10", "storage_area": "yes"}}, {"type": "node", "id": 11645444607, "lat": -2.1287392, "lon": 40.1245338, "tags": {"amenity": "pharmacy", "ele": "32.868", "evacuation_centre": "no", "flood_prone": "no", "name": "Sera pharmacy", "opening_hours": "8hrs", "operational_status": "operational", "operator": "Ministry of Health", "operator:type": "public", "precision": "4.621", "source": "KRCS2023", "staff_count": "7", "storage_area": "yes"}}, {"type": "node", "id": 11645444608, "lat": -2.2101614, "lon": 40.178112, "tags": {"amenity": "clinic", "ele": "-27.44", "evacuation_centre": "no", "flood_prone": "no", "name": "Wema Private Clinic", "opening_hours": "24hrs", "operational_status": "operational", "operator": "Private", "operator:type": "private", "precision": "3.9", "source": "KRCS2023", "staff_count": "3", "storage_area": "yes"}}, {"type": "node", "id": 11645444610, "lat": -2.0622306, "lon": 40.1761323, "tags": {"amenity": "pharmacy", "ele": "3.7", "evacuation_centre": "yes", "flood_prone": "no", "healthcare": "pharmacy", "name": "Mwina pharmacy", "opening_hours": "12hrs", "operational_status": "operational", "operator": "Ministry of Health", "operator:type": "public", "precision": "4.06", "source": "KRCS2023", "staff_count": "6", "storage_area": "yes"}}, {"type": "node", "id": 11645444612, "lat": -1.9783061, "lon": 40.1658433, "tags": {"amenity": "pharmacy", "ele": "10.3", "evacuation_centre": "yes", "flood_prone": "no", "name": "Mnazini pharmacy", "opening_hours": "8hrs", "operational_status": "operational", "operator": "Ministry of Health", "operator:type": "public", "precision": "4.92", "source": "KRCS2023", "staff_count": "10", "storage_area": "yes"}}, {"type": "node", "id": 11645444616, "lat": -2.1807534, "lon": 40.1784015, "tags": {"amenity": "pharmacy", "evacuation_centre": "no", "flood_prone": "no", "name": "Kulesa pharmacy", "opening_hours": "8hrs", "operational_status": "operational", "operator": "Ministry of Health", "operator:type": "public", "precision": "2.411", "source": "KRCS2023", "staff_count": "3", "storage_area": "yes"}}]}