{"version": 0.6, "generator": "Overpass API 0.7.61.5 4133829e", "osm3s": {"timestamp_osm_base": "2024-03-06T11:17:45Z", "copyright": "The data included in this document is from www.openstreetmap.org. The data is made available under ODbL."}, "elements": [{"type": "node", "id": 2488372490, "lat": 34.8649054, "lon": 43.4928555, "tags": {"alt_name": "\u0642\u0631\u064a\u0629 \u0622\u0644 \u0628\u0648 \u0637\u0639\u0645\u0629", "int_name": "Qaryat \u0100lb\u016b \u0162amah, \u0642\u0631\u064a\u0629 \u0627\u0644\u0628\u0648 \u0637\u0639\u0645\u0629, Qaryat Albu Tamah, \u0642\u0631\u064a\u0629 \u0627\u0644\u0628\u0648 \u0637\u0639\u0645\u0629", "name": "\u0642\u0631\u064a\u0629 \u0622\u0644 \u0628\u0648 \u0637\u0639\u0645\u0629", "name:ar": "\u0642\u0631\u064a\u0629 \u0622\u0644 \u0628\u0648 \u0637\u0639\u0645\u0629", "name:ar1": "\u0642\u0631\u064a\u0629 \u0622\u0644 \u0628\u0648 \u0637\u0639\u0645\u0629", "name:de": "Qaryat Albu Tamah", "name:en": "Qaryat Albu Tamah", "name:fr": "Qaryat Albu Tamah", "place": "village"}}, {"type": "node", "id": 2488452851, "lat": 34.810869, "lon": 43.777123, "tags": {"alt_name": "\u0639\u0631\u0628 \u062f\u062d\u0627\u0645 \u0627\u0644\u062c\u0627\u0639\u062f", "int_name": "Arab Da\u1e29\u1e29\u0101m al J\u0101id, \u0639\u0631\u0628 \u062f\u062d\u0627\u0645 \u0627\u0644\u062c\u0627\u0639\u062f, Arab Dahham al Jaid, \u0639\u0631\u0628 \u062f\u062d\u0627\u0645 \u0627\u0644\u062c\u0627\u0639\u062f", "name": "\u0639\u0631\u0628 \u062f\u062d\u0627\u0645 \u0627\u0644\u062c\u0627\u0639\u062f", "name:ar": "\u0639\u0631\u0628 \u062f\u062d\u0627\u0645 \u0627\u0644\u062c\u0627\u0639\u062f", "name:ar1": "\u0639\u0631\u0628 \u062f\u062d\u0627\u0645 \u0627\u0644\u062c\u0627\u0639\u062f", "name:de": "Arab Dahham al Jaid", "name:en": "Arab Dahham al Jaid", "name:fr": "Arab Dahham al Jaid", "place": "village"}}, {"type": "node", "id": 2488452862, "lat": 34.8200468, "lon": 43.7385349, "tags": {"alt_name": "\u0639\u0631\u0628 \u0645\u0637\u0631 \u062d\u0645\u062f", "int_name": "Arab Ma\u0163ar \u1e28amad, Arab Matar Hamad", "name": "\u0639\u0631\u0628 \u0645\u0637\u0631 \u062d\u0645\u062f", "name:ar": "\u0639\u0631\u0628 \u0645\u0637\u0631 \u062d\u0645\u062f", "name:ar1": "\u0639\u0631\u0628 \u0645\u0637\u0631 \u062d\u0645\u062f", "name:de": "Arab Matar Hamad", "name:en": "Arab Matar Hamad", "name:fr": "Arab Matar Hamad", "place": "village"}}, {"type": "node", "id": 2488452873, "lat": 34.828586, "lon": 43.836396, "tags": {"alt_name": "\u062e\u0644\u064a\u0644 \u062d\u0644\u064a\u062d\u0644", "int_name": "Khal\u012bl \u1e28al\u012b\u1e29al, \u062e\u0644\u064a\u0644 \u062d\u0644\u064a\u062d\u0644, Khalil Halihal, \u062e\u0644\u064a\u0644 \u062d\u0644\u064a\u062d\u0644", "name": "\u062e\u0644\u064a\u0644 \u062d\u0644\u064a\u062d\u0644", "name:ar": "\u062e\u0644\u064a\u0644 \u062d\u0644\u064a\u062d\u0644", "name:ar1": "\u062e\u0644\u064a\u0644 \u062d\u0644\u064a\u062d\u0644", "name:de": "Khalil Halihal", "name:en": "Khalil Halihal", "name:fr": "Khalil Halihal", "place": "village"}}, {"type": "node", "id": 2488452884, "lat": 34.818674, "lon": 43.779356, "tags": {"alt_name": "\u0643\u0631\u062f\u064a \u063a\u0636\u0628", "int_name": "Kurd\u012b Gha\u1e11ab, \u0643\u0631\u062f\u064a \u063a\u0636\u0628, Kurdi Ghadab, \u0643\u0631\u062f\u064a \u063a\u0636\u0628", "name": "\u0643\u0631\u062f\u064a \u063a\u0636\u0628", "name:ar": "\u0643\u0631\u062f\u064a \u063a\u0636\u0628", "name:ar1": "\u0643\u0631\u062f\u064a \u063a\u0636\u0628", "name:de": "Kurdi Ghadab", "name:en": "Kurdi Ghadab", "name:fr": "Kurdi Ghadab", "place": "village"}}, {"type": "node", "id": 2488452894, "lat": 34.806221, "lon": 43.854004, "tags": {"alt_name": "\u0642\u0631\u064a\u0629 \u0633\u064a\u062d\u0629 \u0627\u0644\u0645\u0644\u062d", "int_name": "Qaryat S\u012b\u1e29at al Mil\u1e29, \u0642\u0631\u064a\u0629 \u0633\u064a\u062d\u0629 \u0627\u0644\u0645\u0644\u062d, Qaryat Sihat al Milh, \u0642\u0631\u064a\u0629 \u0633\u064a\u062d\u0629 \u0627\u0644\u0645\u0644\u062d", "name": "\u0642\u0631\u064a\u0629 \u0633\u064a\u062d\u0629 \u0627\u0644\u0645\u0644\u062d", "name:ar": "\u0642\u0631\u064a\u0629 \u0633\u064a\u062d\u0629 \u0627\u0644\u0645\u0644\u062d", "name:ar1": "\u0642\u0631\u064a\u0629 \u0633\u064a\u062d\u0629 \u0627\u0644\u0645\u0644\u062d", "name:de": "Qaryat Sihat al Milh", "name:en": "Qaryat Sihat al Milh", "name:fr": "Qaryat Sihat al Milh", "place": "village"}}, {"type": "node", "id": 2488452904, "lat": 34.79962, "lon": 43.817937, "tags": {"alt_name": "\u0642\u0631\u064a\u0629 \u0627\u0644\u0632\u0631\u064a\u062c", "int_name": "Qaryat az Zurayj, \u0642\u0631\u064a\u0629 \u0627\u0644\u0632\u0631\u064a\u062c, Qaryat az Zurayj, \u0642\u0631\u064a\u0629 \u0627\u0644\u0632\u0631\u064a\u062c", "name": "\u0642\u0631\u064a\u0629 \u0627\u0644\u0632\u0631\u064a\u062c", "name:ar": "\u0642\u0631\u064a\u0629 \u0627\u0644\u0632\u0631\u064a\u062c", "name:ar1": "\u0642\u0631\u064a\u0629 \u0627\u0644\u0632\u0631\u064a\u062c", "name:de": "Qaryat az Zurayj", "name:en": "Qaryat az Zurayj", "name:fr": "Qaryat az Zurayj", "place": "village"}}, {"type": "node", "id": 2488452916, "lat": 34.834207, "lon": 43.711667, "tags": {"alt_name": "\u0631\u062c\u0628 \u0645\u062d\u0645\u0648\u062f \u0641\u062f\u0639\u0645", "int_name": "Rajib Ma\u1e29m\u016bd Fadim, \u0631\u062c\u0628 \u0645\u062d\u0645\u0648\u062f \u0641\u062f\u0639\u0645, Rajib Mahmud Fadim, \u0631\u062c\u0628 \u0645\u062d\u0645\u0648\u062f \u0641\u062f\u0639\u0645", "name": "\u0631\u062c\u0628 \u0645\u062d\u0645\u0648\u062f \u0641\u062f\u0639\u0645", "name:ar": "\u0631\u062c\u0628 \u0645\u062d\u0645\u0648\u062f \u0641\u062f\u0639\u0645", "name:ar1": "\u0631\u062c\u0628 \u0645\u062d\u0645\u0648\u062f \u0641\u062f\u0639\u0645", "name:de": "Rajib Mahmud Fadim", "name:en": "Rajib Mahmud Fadim", "name:fr": "Rajib Mahmud Fadim", "place": "village"}}, {"type": "node", "id": 2488452928, "lat": 34.810995, "lon": 43.727135, "tags": {"alt_name": "\u0639\u0645\u0631 \u062c\u062f\u064a\u062f", "int_name": "Umar Jad\u012bd, \u0639\u0645\u0631 \u062c\u062f\u064a\u062f, Umar Jadid, \u0639\u0645\u0631 \u062c\u062f\u064a\u062f", "name": "\u0639\u0645\u0631 \u062c\u062f\u064a\u062f", "name:ar": "\u0639\u0645\u0631 \u062c\u062f\u064a\u062f", "name:ar1": "\u0639\u0645\u0631 \u062c\u062f\u064a\u062f", "name:de": "Umar Jadid", "name:en": "Umar Jadid", "name:fr": "Umar Jadid", "place": "village"}}, {"type": "node", "id": 2488452979, "lat": 34.8197038, "lon": 43.7383704, "tags": {"alt_name": "\u0639\u0631\u0628 \u0645\u0637\u0631\u062d\u0645\u062f", "int_name": "\u0639\u0631\u0628 \u0645\u0637\u0631\u062d\u0645\u062f, \u0639\u0631\u0628 \u0645\u0637\u0631\u062d\u0645\u062f", "name": "\u0639\u0631\u0628 \u0645\u0637\u0631\u062d\u0645\u062f", "name:ar": "\u0639\u0631\u0628 \u0645\u0637\u0631\u062d\u0645\u062f", "name:ar1": "\u0639\u0631\u0628 \u0645\u0637\u0631\u062d\u0645\u062f", "name:de": "\u0639\u0631\u0628 \u0645\u0637\u0631\u062d\u0645\u062f", "name:en": "\u0639\u0631\u0628 \u0645\u0637\u0631\u062d\u0645\u062f", "name:fr": "\u0639\u0631\u0628 \u0645\u0637\u0631\u062d\u0645\u062f", "place": "village"}}, {"type": "node", "id": 2488470055, "lat": 34.771917, "lon": 43.965149, "tags": {"alt_name": "\u0645\u062d\u0645\u062f \u0639\u0628\u062f \u0627\u0644\u0639\u0632\u064a\u0632", "int_name": "Mu\u1e29ammad Abd al Az\u012bz, \u0645\u062d\u0645\u062f \u0639\u0628\u062f \u0627\u0644\u0639\u0632\u064a\u0632, Muhammad Abd al Aziz, \u0645\u062d\u0645\u062f \u0639\u0628\u062f \u0627\u0644\u0639\u0632\u064a\u0632", "name": "\u0645\u062d\u0645\u062f \u0639\u0628\u062f \u0627\u0644\u0639\u0632\u064a\u0632", "name:ar": "\u0645\u062d\u0645\u062f \u0639\u0628\u062f \u0627\u0644\u0639\u0632\u064a\u0632", "name:ar1": "\u0645\u062d\u0645\u062f \u0639\u0628\u062f \u0627\u0644\u0639\u0632\u064a\u0632", "name:de": "Muhammad Abd al Aziz", "name:en": "Muhammad Abd al Aziz", "name:fr": "Muhammad Abd al Aziz", "place": "village"}}, {"type": "node", "id": 2489272527, "lat": 35.117013, "lon": 43.499801, "tags": {"alt_name": "\u0639\u0628\u062f \u0627\u0644\u0644\u0647 \u0645\u062d\u0645\u062f \u062d\u0633\u064a\u0646", "int_name": "Abd All\u0101h Mu\u1e29ammad \u1e28usayn, \u0639\u0628\u062f \ufdf2 \u0645\u062d\u0645\u062f \u062d\u0633\u064a\u0646, Abd Allah Muhammad Husayn, \u0639\u0628\u062f \ufdf2 \u0645\u062d\u0645\u062f \u062d\u0633\u064a\u0646", "name": "\u0639\u0628\u062f \u0627\u0644\u0644\u0647 \u0645\u062d\u0645\u062f \u062d\u0633\u064a\u0646", "name:ar": "\u0639\u0628\u062f \u0627\u0644\u0644\u0647 \u0645\u062d\u0645\u062f \u062d\u0633\u064a\u0646", "name:ar1": "\u0639\u0628\u062f \u0627\u0644\u0644\u0647 \u0645\u062d\u0645\u062f \u062d\u0633\u064a\u0646", "name:de": "Abd Allah Muhammad Husayn", "name:en": "Abd Allah Muhammad Husayn", "name:fr": "Abd Allah Muhammad Husayn", "place": "village"}}, {"type": "node", "id": 2489272546, "lat": 34.902271, "lon": 43.491124, "tags": {"alt_name": "\u0639\u0628\u062f\u0629", "int_name": "Abdah, \u0639\u0628\u062f\u0647, Abdah, \u0639\u0628\u062f\u0647", "name": "\u0627\u0644\u0645\u0627\u0644\u062d\u0629", "name:ar": "\u0627\u0644\u0645\u0627\u0644\u062d\u0629", "name:ar1": "\u0639\u0628\u062f\u0629", "name:de": "Abdah", "name:en": "Abdah", "name:fr": "Abdah", "place": "village"}}, {"type": "node", "id": 2489272550, "lat": 35.083333, "lon": 43.491667, "tags": {"alt_name": "\u0623\u0628\u0648 \u0642\u0637\u0627\u0641", "int_name": "Ab\u016b Qa\u0163\u0163\u0101f, Abu Qattaf", "name": "\u0623\u0628\u0648 \u0642\u0637\u0627\u0641", "name:ar": "\u0623\u0628\u0648 \u0642\u0637\u0627\u0641", "name:ar1": "\u0623\u0628\u0648 \u0642\u0637\u0627\u0641", "name:de": "Abu Qattaf", "name:en": "Abu Qattaf", "name:fr": "Abu Qattaf", "place": "village"}}, {"type": "node", "id": 2489272551, "lat": 34.787778, "lon": 43.5625, "tags": {"alt_name": "\u0623\u0628\u0648 \u0631\u062c\u0634", "int_name": "Ab\u016b Rajash, Abu Rajash", "name": "\u0623\u0628\u0648 \u0631\u062c\u0634", "name:ar": "\u0623\u0628\u0648 \u0631\u062c\u0634", "name:ar1": "\u0623\u0628\u0648 \u0631\u062c\u0634", "name:de": "Abu Rajash", "name:en": "Abu Rajash", "name:fr": "Abu Rajash", "place": "village"}}, {"type": "node", "id": 2489272578, "lat": 35.1542324, "lon": 43.8350526, "tags": {"alt_name": "\u0639\u062c\u064a\u0645\u064a", "int_name": "Aj\u012bm\u012b, \u0639\u062c\u064a\u0645\u064a, Ajimi, \u0639\u062c\u064a\u0645\u064a", "name": "\u0639\u062c\u064a\u0645\u064a", "name:ar": "\u0639\u062c\u064a\u0645\u064a", "name:ar1": "\u0639\u062c\u064a\u0645\u064a", "name:ckb": "\u0639\u06d5\u062c\u06cc\u0645\u06cc", "name:de": "Ajimi", "name:en": "Ajimi", "name:fr": "Ajimi", "place": "village"}}, {"type": "node", "id": 2489272609, "lat": 35.05281, "lon": 43.560132, "tags": {"alt_name": "\u0627\u0644\u0641\u062a\u062d\u0629", "int_name": "Al Fat\u1e29ah, \u0627\u0644\u0641\u062a\u062d\u0629, Al Fathah, \u0627\u0644\u0641\u062a\u062d\u0629", "name": "\u0627\u0644\u0641\u062a\u062d\u0629", "name:ar": "\u0627\u0644\u0641\u062a\u062d\u0629", "name:ar1": "\u0627\u0644\u0641\u062a\u062d\u0629", "name:de": "Al Fathah", "name:en": "Al Fathah", "name:fr": "Al Fathah", "place": "village"}}, {"type": "node", "id": 2489272672, "lat": 35.091969, "lon": 43.52154, "tags": {"alt_name": "\u0642\u0631\u064a\u0629 \u0627\u0644\u0645\u0635\u0644\u062e\u0629", "int_name": "Al Muslakhah, Qaryat al Mu\u015flakhah, \u0642\u0631\u064a\u0629 \u0627\u0644\u0645\u0635\u0644\u062e\u0629, Al Muslakhah, Qaryat al Muslakhah, \u0642\u0631\u064a\u0629 \u0627\u0644\u0645\u0635\u0644\u062e\u0629", "name": "\u0642\u0631\u064a\u0629 \u0627\u0644\u0645\u0635\u0644\u062e\u0629", "name:ar": "\u0642\u0631\u064a\u0629 \u0627\u0644\u0645\u0635\u0644\u062e\u0629", "name:ar1": "\u0642\u0631\u064a\u0629 \u0627\u0644\u0645\u0635\u0644\u062e\u0629", "name:de": "Al Muslakhah", "name:en": "Al Muslakhah", "name:fr": "Al Muslakhah", "place": "village"}}, {"type": "node", "id": 2489272706, "lat": 34.816667, "lon": 43.583333, "tags": {"alt_name": "\u0622\u0644 \u0628\u0648 \u0639\u0644\u064a", "int_name": "\u0100lb\u016b Al\u012b, Albu Ali", "name": "\u0622\u0644 \u0628\u0648 \u0639\u0644\u064a", "name:ar": "\u0622\u0644 \u0628\u0648 \u0639\u0644\u064a", "name:ar1": "\u0622\u0644 \u0628\u0648 \u0639\u0644\u064a", "name:de": "Albu Ali", "name:en": "Albu Ali", "name:fr": "Albu Ali", "name:ru": "\u0410\u043b\u044c\u0431\u0443-\u0410\u043b\u0438", "place": "village"}}, {"type": "node", "id": 2489272741, "lat": 34.793776, "lon": 43.559815, "tags": {"alt_name": "\u0622\u0644 \u0628\u0648 \u0637\u0639\u0645\u0629 \u0627\u0644\u0637\u0644\u0639\u0629", "int_name": "\u0100lb\u016b \u0162amat a\u0163 \u0162alah, \u0627\u0644\u0628\u0648 \u0637\u0639\u0645\u0629 \u0627\u0644\u0637\u0644\u0639\u0629, Albu Tamat at Talah, \u0627\u0644\u0628\u0648 \u0637\u0639\u0645\u0629 \u0627\u0644\u0637\u0644\u0639\u0629", "name": "\u0622\u0644 \u0628\u0648 \u0637\u0639\u0645\u0629 \u0627\u0644\u0637\u0644\u0639\u0629", "name:ar": "\u0622\u0644 \u0628\u0648 \u0637\u0639\u0645\u0629 \u0627\u0644\u0637\u0644\u0639\u0629", "name:ar1": "\u0622\u0644 \u0628\u0648 \u0637\u0639\u0645\u0629 \u0627\u0644\u0637\u0644\u0639\u0629", "name:de": "Albu Tamat at Talah", "name:en": "Albu Tamat at Talah", "name:fr": "Albu Tamat at Talah", "place": "village"}}, {"type": "node", "id": 2489272862, "lat": 34.793452, "lon": 43.61057, "tags": {"alt_name": "\u0642\u0631\u064a\u0629 \u0631\u0628\u064a\u0636\u0629", "int_name": "Ar Rubaydhah, Qaryat Rubay\u1e11ah, \u0642\u0631\u064a\u0629 \u0631\u0628\u064a\u0636\u0629, Ar Rubaydhah, Qaryat Rubaydah, \u0642\u0631\u064a\u0629 \u0631\u0628\u064a\u0636\u0629", "name": "\u0642\u0631\u064a\u0629 \u0631\u0628\u064a\u0636\u0629", "name:ar": "\u0642\u0631\u064a\u0629 \u0631\u0628\u064a\u0636\u0629", "name:ar1": "\u0642\u0631\u064a\u0629 \u0631\u0628\u064a\u0636\u0629", "name:de": "Ar Rubaydhah", "name:en": "Ar Rubaydhah", "name:fr": "Ar Rubaydhah", "place": "village"}}, {"type": "node", "id": 2489272921, "lat": 34.828813, "lon": 43.555187, "tags": {"alt_name": "\u0639\u0631\u0628 \u0623\u062d\u0645\u062f \u0645\u062d\u0645\u062f", "int_name": "Arab A\u1e29mad Mu\u1e29ammad, \u0639\u0631\u0628 \u0627\u062d\u0645\u062f \u0645\u062d\u0645\u062f, Arab Ahmad Muhammad, \u0639\u0631\u0628 \u0627\u062d\u0645\u062f \u0645\u062d\u0645\u062f", "name": "\u0639\u0631\u0628 \u0623\u062d\u0645\u062f \u0645\u062d\u0645\u062f", "name:ar": "\u0639\u0631\u0628 \u0623\u062d\u0645\u062f \u0645\u062d\u0645\u062f", "name:ar1": "\u0639\u0631\u0628 \u0623\u062d\u0645\u062f \u0645\u062d\u0645\u062f", "name:de": "Arab Ahmad Muhammad", "name:en": "Arab Ahmad Muhammad", "name:fr": "Arab Ahmad Muhammad", "place": "village"}}, {"type": "node", "id": 2489272943, "lat": 35.1549277, "lon": 43.7495089, "tags": {"alt_name": "\u0639\u0631\u0628 \u0639\u0632\u064a\u0632 \u062d\u0645\u062f", "int_name": "Arab Az\u012bz \u1e28amad, \u0639\u0631\u0628 \u0639\u0632\u064a\u0632 \u062d\u0645\u062f, Arab Aziz Hamad, \u0639\u0631\u0628 \u0639\u0632\u064a\u0632 \u062d\u0645\u062f", "name": "\u0639\u0631\u0628 \u0639\u0632\u064a\u0632 \u062d\u0645\u062f", "name:ar": "\u0639\u0631\u0628 \u0639\u0632\u064a\u0632 \u062d\u0645\u062f", "name:ar1": "\u0639\u0631\u0628 \u0639\u0632\u064a\u0632 \u062d\u0645\u062f", "name:ckb": "\u0639\u06d5\u0631\u06d5\u0628 \u0639\u06d5\u0632\u06cc\u0632 \u062d\u06d5\u0645\u06d5\u062f", "name:de": "Arab Aziz Hamad", "name:en": "Arab Aziz Hamad", "name:fr": "Arab Aziz Hamad", "place": "village"}}, {"type": "node", "id": 2489272949, "lat": 34.783151, "lon": 43.623959, "tags": {"alt_name": "\u0639\u0631\u0628 \u0647\u0644\u0627\u0644 \u0641\u064a\u0627\u0636", "int_name": "Arab Hil\u0101l Fayy\u0101\u1e11, \u0639\u0631\u0628 \u0647\u0644\u0627\u0644 \u0641\u064a\u0627\u0636, Arab Hilal Fayyad, \u0639\u0631\u0628 \u0647\u0644\u0627\u0644 \u0641\u064a\u0627\u0636", "name": "\u0639\u0631\u0628 \u0647\u0644\u0627\u0644 \u0641\u064a\u0627\u0636", "name:ar": "\u0639\u0631\u0628 \u0647\u0644\u0627\u0644 \u0641\u064a\u0627\u0636", "name:ar1": "\u0639\u0631\u0628 \u0647\u0644\u0627\u0644 \u0641\u064a\u0627\u0636", "name:de": "Arab Hilal Fayyad", "name:en": "Arab Hilal Fayyad", "name:fr": "Arab Hilal Fayyad", "place": "village"}}, {"type": "node", "id": 2489272971, "lat": 34.861, "lon": 43.533098, "tags": {"alt_name": "\u0639\u0631\u0628 \u062c\u0645\u0639\u0629", "int_name": "Arab Jumah, \u0639\u0631\u0628 \u062c\u0645\u0639\u0629, Arab Jumah, \u0639\u0631\u0628 \u062c\u0645\u0639\u0629", "name": "\u0639\u0631\u0628 \u062c\u0645\u0639\u0629", "name:ar": "\u0639\u0631\u0628 \u062c\u0645\u0639\u0629", "name:ar1": "\u0639\u0631\u0628 \u062c\u0645\u0639\u0629", "name:de": "Arab Jumah", "name:en": "Arab Jumah", "name:fr": "Arab Jumah", "place": "village"}}, {"type": "node", "id": 2489272976, "lat": 34.817179, "lon": 43.615852, "tags": {"alt_name": "\u0639\u0631\u0628 \u0645\u0646\u0635\u0648\u0631 \u0645\u0635\u0644\u062d", "int_name": "Arab Man\u015f\u016br Mu\u015fli\u1e29, \u0639\u0631\u0628 \u0645\u0646\u0635\u0648\u0631 \u0645\u0635\u0644\u062d, Arab Mansur Muslih, \u0639\u0631\u0628 \u0645\u0646\u0635\u0648\u0631 \u0645\u0635\u0644\u062d", "name": "\u0639\u0631\u0628 \u0645\u0646\u0635\u0648\u0631 \u0645\u0635\u0644\u062d", "name:ar": "\u0639\u0631\u0628 \u0645\u0646\u0635\u0648\u0631 \u0645\u0635\u0644\u062d", "name:ar1": "\u0639\u0631\u0628 \u0645\u0646\u0635\u0648\u0631 \u0645\u0635\u0644\u062d", "name:de": "Arab Mansur Muslih", "name:en": "Arab Mansur Muslih", "name:fr": "Arab Mansur Muslih", "place": "village"}}, {"type": "node", "id": 2489272987, "lat": 34.861051, "lon": 43.52153, "tags": {"alt_name": "\u0639\u0631\u0628 \u0645\u0644\u0629 \u0625\u0628\u0631\u0627\u0647\u064a\u0645 \u0645\u0648\u0633\u0649", "int_name": "Arab Mullat Ibr\u0101h\u012bm M\u016bs\u00e1, \u0639\u0631\u0628 \u0645\u0644\u0629 \u0627\u0628\u0631\u0627\u0647\u064a\u0645 \u0645\u0648\u0633\u0649, Arab Mullat Ibrahim Musa, \u0639\u0631\u0628 \u0645\u0644\u0629 \u0627\u0628\u0631\u0627\u0647\u064a\u0645 \u0645\u0648\u0633\u0649", "name": "\u0639\u0631\u0628 \u0645\u0644\u0629 \u0625\u0628\u0631\u0627\u0647\u064a\u0645 \u0645\u0648\u0633\u0649", "name:ar": "\u0639\u0631\u0628 \u0645\u0644\u0629 \u0625\u0628\u0631\u0627\u0647\u064a\u0645 \u0645\u0648\u0633\u0649", "name:ar1": "\u0639\u0631\u0628 \u0645\u0644\u0629 \u0625\u0628\u0631\u0627\u0647\u064a\u0645 \u0645\u0648\u0633\u0649", "name:de": "Arab Mullat Ibrahim Musa", "name:en": "Arab Mullat Ibrahim Musa", "name:fr": "Arab Mullat Ibrahim Musa", "place": "village"}}, {"type": "node", "id": 2489272995, "lat": 34.788934, "lon": 43.554542, "tags": {"alt_name": "\u0639\u0631\u0628 \u0633\u0644\u0637\u0627\u0646 \u0627\u0644\u0633\u0644\u0627\u0645\u0629", "int_name": "Arab Sul\u0163\u0101n as Sal\u0101mah, \u0639\u0631\u0628 \u0633\u0644\u0637\u0627\u0646 \u0627\u0644\u0633\u0644\u0627\u0645\u0629, Arab Sultan as Salamah, \u0639\u0631\u0628 \u0633\u0644\u0637\u0627\u0646 \u0627\u0644\u0633\u0644\u0627\u0645\u0629", "name": "\u0639\u0631\u0628 \u0633\u0644\u0637\u0627\u0646 \u0627\u0644\u0633\u0644\u0627\u0645\u0629", "name:ar": "\u0639\u0631\u0628 \u0633\u0644\u0637\u0627\u0646 \u0627\u0644\u0633\u0644\u0627\u0645\u0629", "name:ar1": "\u0639\u0631\u0628 \u0633\u0644\u0637\u0627\u0646 \u0627\u0644\u0633\u0644\u0627\u0645\u0629", "name:de": "Arab Sultan as Salamah", "name:en": "Arab Sultan as Salamah", "name:fr": "Arab Sultan as Salamah", "place": "village"}}, {"type": "node", "id": 2489273023, "lat": 34.9307, "lon": 43.493107, "tags": {"alt_name": "Baiji, Bayj\u012b, \u0628\u064a\u062c\u064a, Bayji, \u0628\u06ce\u062c\u06cc", "alt_name:fr": "Baji", "capital": "6", "name": "\u0628\u064a\u062c\u064a", "name:ar": "\u0628\u064a\u062c\u064a", "name:ckb": "\u0628\u06ce\u062c\u06cc", "name:cs": "Bajd\u017e\u00ed", "name:de": "Baidschi", "name:en": "Baiji", "name:et": "Bayj\u012b", "name:fr": "Ba\u00efji", "name:hi": "\u092c\u0948\u091c\u0940", "name:hr": "Bajd\u017ei", "name:ml": "\u0d2c\u0d48\u0d1c\u0d3f", "name:te": "\u0c2c\u0c48\u0c1c\u0c40", "place": "city", "population": "173677", "population:date": "2014", "source:population": "https://ar.wikipedia.org/wiki/%D8%A8%D9%8A%D8%AC%D9%8A", "wikidata": "Q803712", "wikipedia": "de:Baidschi"}}, {"type": "node", "id": 2489273036, "lat": 34.806223, "lon": 43.562664, "tags": {"alt_name": "\u062f\u062e\u064a\u0644 \u0639\u0628\u0648\u062f", "int_name": "Dakh\u012bl Ab\u016bd, \u062f\u062e\u064a\u0644 \u0639\u0628\u0648\u062f, Dakhil Abud, \u062f\u062e\u064a\u0644 \u0639\u0628\u0648\u062f", "name": "\u062f\u062e\u064a\u0644 \u0639\u0628\u0648\u062f", "name:ar": "\u062f\u062e\u064a\u0644 \u0639\u0628\u0648\u062f", "name:ar1": "\u062f\u062e\u064a\u0644 \u0639\u0628\u0648\u062f", "name:de": "Dakhil Abud", "name:en": "Dakhil Abud", "name:fr": "Dakhil Abud", "place": "village"}}, {"type": "node", "id": 2489273052, "lat": 34.811147, "lon": 43.560123, "tags": {"alt_name": "\u0641\u0647\u062f \u0645\u062d\u0645\u062f", "int_name": "Fahd Mu\u1e29ammad, \u0641\u0647\u062f \u0645\u062d\u0645\u062f, Fahd Muhammad, \u0641\u0647\u062f \u0645\u062d\u0645\u062f", "name": "\u0641\u0647\u062f \u0645\u062d\u0645\u062f", "name:ar": "\u0641\u0647\u062f \u0645\u062d\u0645\u062f", "name:ar1": "\u0641\u0647\u062f \u0645\u062d\u0645\u062f", "name:de": "Fahd Muhammad", "name:en": "Fahd Muhammad", "name:fr": "Fahd Muhammad", "place": "village"}}, {"type": "node", "id": 2489273054, "lat": 34.814871, "lon": 43.607953, "tags": {"alt_name": "\u0641\u0631\u062d\u0627\u0646 \u062d\u0646\u062a\u0648\u0634", "int_name": "Far\u1e29\u0101n \u1e28ant\u016bsh, \u0641\u0631\u062d\u0627\u0646 \u062d\u0646\u062a\u0648\u0634, Farhan Hantush, \u0641\u0631\u062d\u0627\u0646 \u062d\u0646\u062a\u0648\u0634", "name": "\u0641\u0631\u062d\u0627\u0646 \u062d\u0646\u062a\u0648\u0634", "name:ar": "\u0641\u0631\u062d\u0627\u0646 \u062d\u0646\u062a\u0648\u0634", "name:ar1": "\u0641\u0631\u062d\u0627\u0646 \u062d\u0646\u062a\u0648\u0634", "name:de": "Farhan Hantush", "name:en": "Farhan Hantush", "name:fr": "Farhan Hantush", "place": "village"}}, {"type": "node", "id": 2489273058, "lat": 34.817778, "lon": 43.578611, "tags": {"alt_name": "\u063a\u0632\u0627\u0644 \u0627\u0644\u0646\u0645\u0631", "int_name": "Ghaz\u0101l An Namr, Ghazal An Namr", "name": "\u063a\u0632\u0627\u0644 \u0627\u0644\u0646\u0645\u0631", "name:ar": "\u063a\u0632\u0627\u0644 \u0627\u0644\u0646\u0645\u0631", "name:ar1": "\u063a\u0632\u0627\u0644 \u0627\u0644\u0646\u0645\u0631", "name:de": "Ghazal An Namr", "name:en": "Ghazal An Namr", "name:fr": "Ghazal An Namr", "place": "village"}}, {"type": "node", "id": 2489273168, "lat": 35.1558499, "lon": 43.8239108, "tags": {"alt_name": "\u062d\u0633\u0646 \u0627\u0644\u062d\u0645\u062f\u0627\u0646", "int_name": "\u1e28asan al \u1e28amd\u0101n, \u062d\u0633\u0646 \u0627\u0644\u062d\u0645\u062f\u0627\u0646, Hasan al Hamdan, \u062d\u0633\u0646 \u0627\u0644\u062d\u0645\u062f\u0627\u0646", "name": "\u062d\u0633\u0646 \u0627\u0644\u062d\u0645\u062f\u0627\u0646", "name:ar": "\u062d\u0633\u0646 \u0627\u0644\u062d\u0645\u062f\u0627\u0646", "name:ar1": "\u062d\u0633\u0646 \u0627\u0644\u062d\u0645\u062f\u0627\u0646", "name:ckb": "\u062d\u06d5\u0633\u06d5\u0646 \u062d\u06d5\u0645\u062f\u0627\u0646", "name:de": "Hasan al Hamdan", "name:en": "Hasan al Hamdan", "name:fr": "Hasan al Hamdan", "place": "village"}}, {"type": "node", "id": 2489273200, "lat": 34.779963, "lon": 43.656168, "tags": {"alt_name": "\u062d\u0633\u0648\u0646 \u0639\u064a\u0633\u0649", "int_name": "\u1e28ass\u016bn Is\u00e1, \u062d\u0633\u0648\u0646 \u0639\u064a\u0633\u0649, Hassun Isa, \u062d\u0633\u0648\u0646 \u0639\u064a\u0633\u0649", "name": "\u062d\u0633\u0648\u0646 \u0639\u064a\u0633\u0649", "name:ar": "\u062d\u0633\u0648\u0646 \u0639\u064a\u0633\u0649", "name:ar1": "\u062d\u0633\u0648\u0646 \u0639\u064a\u0633\u0649", "name:de": "Hassun Isa", "name:en": "Hassun Isa", "name:fr": "Hassun Isa", "place": "village"}}, {"type": "node", "id": 2489273261, "lat": 34.854788, "lon": 43.517159, "tags": {"alt_name": "\u0625\u0628\u0631\u0627\u0647\u064a\u0645 \u062d\u0633\u064a\u0646", "int_name": "Ibr\u0101h\u012bm \u1e28usayn, \u0627\u0628\u0631\u0627\u0647\u064a\u0645 \u062d\u0633\u064a\u0646, Ibrahim Husayn, \u0627\u0628\u0631\u0627\u0647\u064a\u0645 \u062d\u0633\u064a\u0646", "name": "\u0625\u0628\u0631\u0627\u0647\u064a\u0645 \u062d\u0633\u064a\u0646", "name:ar": "\u0625\u0628\u0631\u0627\u0647\u064a\u0645 \u062d\u0633\u064a\u0646", "name:ar1": "\u0625\u0628\u0631\u0627\u0647\u064a\u0645 \u062d\u0633\u064a\u0646", "name:de": "Ibrahim Husayn", "name:en": "Ibrahim Husayn", "name:fr": "Ibrahim Husayn", "place": "village"}}, {"type": "node", "id": 2489273340, "lat": 34.774374, "lon": 43.659982, "tags": {"alt_name": "\u0625\u0633\u0645\u0627\u0639\u064a\u0644 \u0625\u0628\u0631\u0627\u0647\u064a\u0645", "int_name": "Ism\u0101\u012bl Ibr\u0101h\u012bm, \u0627\u0633\u0645\u0627\u0639\u064a\u0644 \u0627\u0628\u0631\u0627\u0647\u064a\u0645, Ismail Ibrahim, \u0627\u0633\u0645\u0627\u0639\u064a\u0644 \u0627\u0628\u0631\u0627\u0647\u064a\u0645", "name": "\u0625\u0633\u0645\u0627\u0639\u064a\u0644 \u0625\u0628\u0631\u0627\u0647\u064a\u0645", "name:ar": "\u0625\u0633\u0645\u0627\u0639\u064a\u0644 \u0625\u0628\u0631\u0627\u0647\u064a\u0645", "name:ar1": "\u0625\u0633\u0645\u0627\u0639\u064a\u0644 \u0625\u0628\u0631\u0627\u0647\u064a\u0645", "name:de": "Ismail Ibrahim", "name:en": "Ismail Ibrahim", "name:fr": "Ismail Ibrahim", "place": "village"}}, {"type": "node", "id": 2489273397, "lat": 34.849332, "lon": 43.589507, "tags": {"alt_name": "\u062c\u0647\u0627\u062f \u062c\u0627\u0633\u0645", "int_name": "Jih\u0101d J\u0101sim, \u062c\u0647\u0627\u062f \u062c\u0627\u0633\u0645, Jihad Jasim, \u062c\u0647\u0627\u062f \u062c\u0627\u0633\u0645", "name": "\u062c\u0647\u0627\u062f \u062c\u0627\u0633\u0645", "name:ar": "\u062c\u0647\u0627\u062f \u062c\u0627\u0633\u0645", "name:ar1": "\u062c\u0647\u0627\u062f \u062c\u0627\u0633\u0645", "name:de": "Jihad Jasim", "name:en": "Jihad Jasim", "name:fr": "Jihad Jasim", "place": "village"}}, {"type": "node", "id": 2489273404, "lat": 35.1793629, "lon": 43.8071509, "tags": {"alt_name": "\u062e\u0636\u0631 \u0627\u0644\u0639\u0628\u0627\u0633", "int_name": "Kha\u1e11ar al Abb\u0101s, \u062e\u0636\u0631 \u0627\u0644\u0639\u0628\u0627\u0633, Khadar al Abbas, \u062e\u0636\u0631 \u0627\u0644\u0639\u0628\u0627\u0633", "name": "\u062e\u0636\u0631 \u0627\u0644\u0639\u0628\u0627\u0633", "name:ar": "\u062e\u0636\u0631 \u0627\u0644\u0639\u0628\u0627\u0633", "name:ar1": "\u062e\u0636\u0631 \u0627\u0644\u0639\u0628\u0627\u0633", "name:ckb": "\u062e\u062f\u0631 \u0639\u06d5\u0628\u0627\u0633", "name:de": "Khadar al Abbas", "name:en": "Khadar al Abbas", "name:fr": "Khadar al Abbas", "place": "village"}}, {"type": "node", "id": 2489273412, "lat": 34.806829, "lon": 43.553097, "tags": {"alt_name": "\u062e\u0644\u0641 \u0645\u062d\u0645\u062f", "int_name": "Khalaf Mu\u1e29ammad, \u062e\u0644\u0641 \u0645\u062d\u0645\u062f, Khalaf Muhammad, \u062e\u0644\u0641 \u0645\u062d\u0645\u062f", "name": "\u062e\u0644\u0641 \u0645\u062d\u0645\u062f", "name:ar": "\u062e\u0644\u0641 \u0645\u062d\u0645\u062f", "name:ar1": "\u062e\u0644\u0641 \u0645\u062d\u0645\u062f", "name:de": "Khalaf Muhammad", "name:en": "Khalaf Muhammad", "name:fr": "Khalaf Muhammad", "place": "village"}}, {"type": "node", "id": 2489273413, "lat": 35.010339, "lon": 43.577456, "tags": {"alt_name": "\u062e\u0644\u0641 \u064a\u0627\u0633\u064a\u0646", "int_name": "Khalaf Y\u0101s\u012bn, \u062e\u0644\u0641 \u064a\u0627\u0633\u064a\u0646, Khalaf Yasin, \u062e\u0644\u0641 \u064a\u0627\u0633\u064a\u0646", "name": "\u062e\u0644\u0641 \u064a\u0627\u0633\u064a\u0646", "name:ar": "\u062e\u0644\u0641 \u064a\u0627\u0633\u064a\u0646", "name:ar1": "\u062e\u0644\u0641 \u064a\u0627\u0633\u064a\u0646", "name:de": "Khalaf Yasin", "name:en": "Khalaf Yasin", "name:fr": "Khalaf Yasin", "place": "village"}}, {"type": "node", "id": 2489273434, "lat": 34.766237, "lon": 43.633553, "tags": {"alt_name": "\u0642\u0631\u064a\u0629 \u0627\u0644\u062e\u0632\u0627\u0645\u064a\u0629", "int_name": "Kh\u0101zim\u012byah, Kh\u0101zm\u012bya, Qaryat al Khaz\u0101m\u012byah, \u0642\u0631\u064a\u0629 \u0627\u0644\u062e\u0632\u0627\u0645\u064a\u0629, Khazimiyah, Khazmiya, Qaryat al Khazamiyah, \u0642\u0631\u064a\u0629 \u0627\u0644\u062e\u0632\u0627\u0645\u064a\u0629", "name": "\u0642\u0631\u064a\u0629 \u0627\u0644\u062e\u0632\u0627\u0645\u064a\u0629", "name:ar": "\u0642\u0631\u064a\u0629 \u0627\u0644\u062e\u0632\u0627\u0645\u064a\u0629", "name:ar1": "\u0642\u0631\u064a\u0629 \u0627\u0644\u062e\u0632\u0627\u0645\u064a\u0629", "name:de": "Khazimiyah", "name:en": "Khazimiyah", "name:fr": "Khazimiyah", "place": "village"}}, {"type": "node", "id": 2489273435, "lat": 34.965281, "lon": 43.538014, "tags": {"alt_name": "\u0642\u0631\u064a\u0629 \u0627\u0644\u0644\u0643\u0627\u0644\u0643", "int_name": "Laglag, Laqlaq, Qaryat al Lak\u0101lak, Umm Laqlaq, \u0642\u0631\u064a\u0629 \u0627\u0644\u0644\u0643\u0627\u0644\u0643, Laglag, Laqlaq, Qaryat al Lakalak, Umm Laqlaq, \u0642\u0631\u064a\u0629 \u0627\u0644\u0644\u0643\u0627\u0644\u0643", "name": "\u0642\u0631\u064a\u0629 \u0627\u0644\u0644\u0643\u0627\u0644\u0643", "name:ar": "\u0642\u0631\u064a\u0629 \u0627\u0644\u0644\u0643\u0627\u0644\u0643", "name:ar1": "\u0642\u0631\u064a\u0629 \u0627\u0644\u0644\u0643\u0627\u0644\u0643", "name:de": "Laglag", "name:en": "Laglag", "name:fr": "Laglag", "name:ru": "\u041b\u0430\u043a\u043b\u0430\u043a", "place": "village"}}, {"type": "node", "id": 2489273440, "lat": 35.0698877, "lon": 43.5495793, "tags": {"alt_name": "\u0628\u0631\u064a\u062c", "name": "\u0628\u0631\u064a\u062c", "name:ckb": "\u0628\u06d5\u0631\u06cc\u062c", "name:de": "Bar\u012bj", "name:en": "Bar\u012bj", "name:fr": "Bar\u012bj", "name:ku": "\u0628\u0631\u064a\u062c", "place": "village"}}, {"type": "node", "id": 2489273529, "lat": 34.877947, "lon": 43.573807, "tags": {"alt_name": "\u0645\u062d\u0645\u0648\u062f \u0645\u062d\u0644", "int_name": "Ma\u1e29m\u016bd Ma\u1e29al, Mahmud Mahal", "name": "\u0645\u062d\u0645\u0648\u062f \u0645\u062d\u0644", "name:ar": "\u0645\u062d\u0645\u0648\u062f \u0645\u062d\u0644", "name:ar1": "\u0645\u062d\u0645\u0648\u062f \u0645\u062d\u0644", "name:de": "Mahmud Mahal", "name:en": "Mahmud Mahal", "name:fr": "Mahmud Mahal", "place": "village"}}, {"type": "node", "id": 2489273636, "lat": 34.959007, "lon": 43.53432, "tags": {"alt_name": "\u0645\u062d\u0645\u062f \u0623\u062d\u0645\u062f", "int_name": "Mu\u1e29ammad A\u1e29mad, \u0645\u062d\u0645\u062f \u0627\u062d\u0645\u062f, Muhammad Ahmad, \u0645\u062d\u0645\u062f \u0627\u062d\u0645\u062f", "name": "\u0645\u062d\u0645\u062f \u0623\u062d\u0645\u062f", "name:ar": "\u0645\u062d\u0645\u062f \u0623\u062d\u0645\u062f", "name:ar1": "\u0645\u062d\u0645\u062f \u0623\u062d\u0645\u062f", "name:de": "Muhammad Ahmad", "name:en": "Muhammad Ahmad", "name:fr": "Muhammad Ahmad", "place": "village"}}, {"type": "node", "id": 2489273639, "lat": 34.790577, "lon": 43.64012, "tags": {"alt_name": "\u0645\u062d\u0645\u062f \u062d\u0645\u062f", "int_name": "Mu\u1e29ammad \u1e28amad, \u0645\u062d\u0645\u062f \u062d\u0645\u062f, Muhammad Hamad, \u0645\u062d\u0645\u062f \u062d\u0645\u062f", "name": "\u0645\u062d\u0645\u062f \u062d\u0645\u062f", "name:ar": "\u0645\u062d\u0645\u062f \u062d\u0645\u062f", "name:ar1": "\u0645\u062d\u0645\u062f \u062d\u0645\u062f", "name:de": "Muhammad Hamad", "name:en": "Muhammad Hamad", "name:fr": "Muhammad Hamad", "place": "village"}}, {"type": "node", "id": 2489273644, "lat": 35.104578, "lon": 43.736996, "tags": {"alt_name": "\u0645\u062d\u0645\u062f \u062d\u0633\u0646", "int_name": "Mu\u1e29ammad \u1e28asan, \u0645\u062d\u0645\u062f \u062d\u0633\u0646, Muhammad Hasan, \u0645\u062d\u0645\u062f \u062d\u0633\u0646", "name": "\u0645\u062d\u0645\u062f \u062d\u0633\u0646", "name:ar": "\u0645\u062d\u0645\u062f \u062d\u0633\u0646", "name:ar1": "\u0645\u062d\u0645\u062f \u062d\u0633\u0646", "name:de": "Muhammad Hasan", "name:en": "Muhammad Hasan", "name:fr": "Muhammad Hasan", "place": "village"}}, {"type": "node", "id": 2489273647, "lat": 35.015889, "lon": 43.546189, "tags": {"alt_name": "\u0645\u062d\u0645\u062f \u062e\u0644\u0641 \u0639\u0644\u064a", "int_name": "Mu\u1e29ammad Khalaf Al\u012b, \u0645\u062d\u0645\u062f \u062e\u0644\u0641 \u0639\u0644\u064a, Muhammad Khalaf Ali, \u0645\u062d\u0645\u062f \u062e\u0644\u0641 \u0639\u0644\u064a", "name": "\u0645\u062d\u0645\u062f \u062e\u0644\u0641 \u0639\u0644\u064a", "name:ar": "\u0645\u062d\u0645\u062f \u062e\u0644\u0641 \u0639\u0644\u064a", "name:ar1": "\u0645\u062d\u0645\u062f \u062e\u0644\u0641 \u0639\u0644\u064a", "name:de": "Muhammad Khalaf Ali", "name:en": "Muhammad Khalaf Ali", "name:fr": "Muhammad Khalaf Ali", "place": "village"}}, {"type": "node", "id": 2489273668, "lat": 35.1519584, "lon": 43.7699341, "tags": {"alt_name": "\u0645\u062d\u0645\u062f \u0645\u0637\u0631 \u0645\u062d\u0645\u0648\u062f", "int_name": "Mu\u1e29ammad Ma\u0163ar Ma\u1e29m\u016bd, \u0645\u062d\u0645\u062f \u0645\u0637\u0631 \u0645\u062d\u0645\u0648\u062f, Muhammad Matar Mahmud, \u0645\u062d\u0645\u062f \u0645\u0637\u0631 \u0645\u062d\u0645\u0648\u062f", "name": "\u0645\u062d\u0645\u062f \u0645\u0637\u0631 \u0645\u062d\u0645\u0648\u062f", "name:ar": "\u0645\u062d\u0645\u062f \u0645\u0637\u0631 \u0645\u062d\u0645\u0648\u062f", "name:ar1": "\u0645\u062d\u0645\u062f \u0645\u0637\u0631 \u0645\u062d\u0645\u0648\u062f", "name:ckb": "\u0645\u062d\u0645\u062f \u0645\u0637\u0631 \u0645\u062d\u0645\u0648\u062f", "name:de": "Muhammad Matar Mahmud", "name:en": "Muhammad Matar Mahmud", "name:fr": "Muhammad Matar Mahmud", "place": "village"}}, {"type": "node", "id": 2489273715, "lat": 35.023848, "lon": 43.480309, "tags": {"alt_name": "\u0645\u062d\u0645\u062f \u0627\u0644\u0639\u0644\u064a \u0648 \u0633\u0631\u062d\u0627\u0646 \u0627\u0644\u0639\u0644\u064a", "int_name": "Mu\u1e29ammad al Al\u012b wa Sir\u1e29\u0101n al Al\u012b, \u0645\u062d\u0645\u062f \u0627\u0644\u0639\u0644\u064a \u0648 \u0633\u0631\u062d\u0627\u0646 \u0627\u0644\u0639\u0644\u064a, Muhammad al Ali wa Sirhan al Ali, \u0645\u062d\u0645\u062f \u0627\u0644\u0639\u0644\u064a \u0648 \u0633\u0631\u062d\u0627\u0646 \u0627\u0644\u0639\u0644\u064a", "name": "\u0645\u062d\u0645\u062f \u0627\u0644\u0639\u0644\u064a \u0648 \u0633\u0631\u062d\u0627\u0646 \u0627\u0644\u0639\u0644\u064a", "name:ar": "\u0645\u062d\u0645\u062f \u0627\u0644\u0639\u0644\u064a \u0648 \u0633\u0631\u062d\u0627\u0646 \u0627\u0644\u0639\u0644\u064a", "name:ar1": "\u0645\u062d\u0645\u062f \u0627\u0644\u0639\u0644\u064a \u0648 \u0633\u0631\u062d\u0627\u0646 \u0627\u0644\u0639\u0644\u064a", "name:de": "Muhammad al Ali wa Sirhan al Ali", "name:en": "Muhammad al Ali wa Sirhan al Ali", "name:fr": "Muhammad al Ali wa Sirhan al Ali", "place": "village"}}, {"type": "node", "id": 2489273831, "lat": 35.1523001, "lon": 43.5753245, "tags": {"alt_name": "\u0642\u0631\u064a\u0629 \u0623\u0628\u0648 \u0635\u062e\u0631\u0629", "int_name": "Qaryat Ab\u016b \u015eakhrah, \u0642\u0631\u064a\u0629 \u0627\u0628\u0648 \u0635\u062e\u0631\u0629, Qaryat Abu Sakhrah, \u0642\u0631\u064a\u0629 \u0627\u0628\u0648 \u0635\u062e\u0631\u0629", "name": "\u0623\u0628\u0648 \u0635\u062e\u0631\u0629", "name:ar1": "\u0642\u0631\u064a\u0629 \u0623\u0628\u0648 \u0635\u062e\u0631\u0629", "name:ckb": "\u0626\u06d5\u0628\u0648\u0633\u06d5\u062e\u0631\u06d5", "name:de": "Abu Sakhrah", "name:en": "Abu Sakhrah", "name:fr": "Abu Sakhrah", "place": "village"}}, {"type": "node", "id": 2489273840, "lat": 35.1069583, "lon": 43.5946461, "tags": {"alt_name": "\u0642\u0631\u064a\u0629 \u0623\u0630\u0631\u0628\u0627\u0646", "int_name": "Qaryat Adhirab\u0101n, \u0642\u0631\u064a\u0629 \u0627\u0630\u0631\u0628\u0627\u0646, Qaryat Adhiraban, \u0642\u0631\u064a\u0629 \u0627\u0630\u0631\u0628\u0627\u0646", "name": "\u0623\u0630\u0631\u0628\u0627\u0646", "name:ar1": "\u0642\u0631\u064a\u0629 \u0623\u0630\u0631\u0628\u0627\u0646", "name:ckb": "\u0626\u06d5\u0632\u06cc\u0631\u06d5\u0628\u0627\u0646", "name:de": "Adhiraban", "name:en": "Adhiraban", "name:fr": "Adhiraban", "place": "village"}}, {"type": "node", "id": 2489273847, "lat": 35.1970106, "lon": 43.8191912, "tags": {"alt_name": "\u0642\u0631\u064a\u0629 \u0623\u062d\u0645\u062f \u0627\u0644\u062f\u0627\u0646\u0648", "int_name": "Qaryat A\u1e29mad ad D\u0101n\u016b, \u0642\u0631\u064a\u0629 \u0627\u062d\u0645\u062f \u0627\u0644\u062f\u0627\u0646\u0648, Qaryat Ahmad ad Danu, \u0642\u0631\u064a\u0629 \u0627\u062d\u0645\u062f \u0627\u0644\u062f\u0627\u0646\u0648", "name": "\u0623\u062d\u0645\u062f \u0627\u0644\u062f\u0627\u0646\u0648", "name:ar": "\u0623\u062d\u0645\u062f \u0627\u0644\u062f\u0627\u0646\u0648", "name:ar1": "\u0642\u0631\u064a\u0629 \u0623\u062d\u0645\u062f \u0627\u0644\u062f\u0627\u0646\u0648", "name:ckb": "\u0626\u06d5\u062d\u0645\u06d5\u062f \u062f\u0627\u0646\u0648", "name:de": "Ahmad ad Danu", "name:en": "Ahmad ad Danu", "name:fr": "Ahmad ad Danu", "place": "village"}}, {"type": "node", "id": 2489273937, "lat": 35.1404984, "lon": 43.7503399, "tags": {"alt_name": "\u0642\u0631\u064a\u0629 \u0622\u0644 \u0628\u0648 \u0633\u064a\u0641", "int_name": "Qaryat \u0100lb\u016b Sayf, \u0642\u0631\u064a\u0629 \u0627\u0644\u0628\u0648 \u0633\u064a\u0641, Qaryat Albu Sayf, \u0642\u0631\u064a\u0629 \u0627\u0644\u0628\u0648 \u0633\u064a\u0641", "name": "\u0623\u0628\u0648 \u0633\u06cc\u0641", "name:ar": "\u0623\u0628\u0648 \u0633\u06cc\u0641", "name:ar1": "\u0642\u0631\u064a\u0629 \u0622\u0644 \u0628\u0648 \u0633\u064a\u0641", "name:ckb": "\u0626\u06d5\u0628\u0648 \u0633\u06d5\u06cc\u0641", "name:de": "Albu Sayf", "name:en": "Albu Sayf", "name:fr": "Albu Sayf", "place": "village"}}, {"type": "node", "id": 2489273949, "lat": 34.821841, "lon": 43.547465, "tags": {"alt_name": "\u0642\u0631\u064a\u0629 \u0622\u0644 \u0628\u0648 \u0637\u0639\u0645\u0629", "int_name": "Qaryat \u0100lb\u016b \u0162amah, \u0642\u0631\u064a\u0629 \u0627\u0644\u0628\u0648 \u0637\u0639\u0645\u0629, Qaryat Albu Tamah, \u0642\u0631\u064a\u0629 \u0627\u0644\u0628\u0648 \u0637\u0639\u0645\u0629", "name": "\u0642\u0631\u064a\u0629 \u0622\u0644 \u0628\u0648 \u0637\u0639\u0645\u0629", "name:ar": "\u0642\u0631\u064a\u0629 \u0622\u0644 \u0628\u0648 \u0637\u0639\u0645\u0629", "name:ar1": "\u0642\u0631\u064a\u0629 \u0622\u0644 \u0628\u0648 \u0637\u0639\u0645\u0629", "name:de": "Qaryat Albu Tamah", "name:en": "Qaryat Albu Tamah", "name:fr": "Qaryat Albu Tamah", "place": "village"}}, {"type": "node", "id": 2489273973, "lat": 34.890009, "lon": 43.549275, "tags": {"alt_name": "\u0642\u0631\u064a\u0629 \u0628\u0632\u064a\u062e\u0629", "int_name": "Qaryat Baz\u012bkhah, \u0642\u0631\u064a\u0629 \u0628\u0632\u064a\u062e\u0629, Qaryat Bazikhah, \u0642\u0631\u064a\u0629 \u0628\u0632\u064a\u062e\u0629", "name": "\u0642\u0631\u064a\u0629 \u0628\u0632\u064a\u062e\u0629", "name:ar": "\u0642\u0631\u064a\u0629 \u0628\u0632\u064a\u062e\u0629", "name:ar1": "\u0642\u0631\u064a\u0629 \u0628\u0632\u064a\u062e\u0629", "name:de": "Qaryat Bazikhah", "name:en": "Qaryat Bazikhah", "name:fr": "Qaryat Bazikhah", "place": "village"}}, {"type": "node", "id": 2489273995, "lat": 34.843088, "lon": 43.570888, "tags": {"alt_name": "\u0642\u0631\u064a\u0629 \u0641\u0647\u062f \u0627\u0644\u0646\u0645\u0631", "int_name": "Qaryat Fahd an Namir, \u0642\u0631\u064a\u0629 \u0641\u0647\u062f \u0627\u0644\u0646\u0645\u0631, Qaryat Fahd an Namir, \u0642\u0631\u064a\u0629 \u0641\u0647\u062f \u0627\u0644\u0646\u0645\u0631", "name": "\u0642\u0631\u064a\u0629 \u0641\u0647\u062f \u0627\u0644\u0646\u0645\u0631", "name:ar": "\u0642\u0631\u064a\u0629 \u0641\u0647\u062f \u0627\u0644\u0646\u0645\u0631", "name:ar1": "\u0642\u0631\u064a\u0629 \u0641\u0647\u062f \u0627\u0644\u0646\u0645\u0631", "name:de": "Qaryat Fahd an Namir", "name:en": "Qaryat Fahd an Namir", "name:fr": "Qaryat Fahd an Namir", "place": "village"}}, {"type": "node", "id": 2489274007, "lat": 34.816823, "lon": 43.577038, "tags": {"alt_name": "\u0642\u0631\u064a\u0629 \u0641\u064a\u0635\u0644 \u063a\u0632\u0627\u0644", "int_name": "Qaryat Fay\u015fal Ghaz\u0101l, \u0642\u0631\u064a\u0629 \u0641\u064a\u0635\u0644 \u063a\u0632\u0627\u0644, Qaryat Faysal Ghazal, \u0642\u0631\u064a\u0629 \u0641\u064a\u0635\u0644 \u063a\u0632\u0627\u0644", "name": "\u0642\u0631\u064a\u0629 \u0641\u064a\u0635\u0644 \u063a\u0632\u0627\u0644", "name:ar": "\u0642\u0631\u064a\u0629 \u062a\u0644 \u0627\u0644\u0633\u064a\u0628\u0627\u0637", "name:ar1": "\u0642\u0631\u064a\u0629 \u0641\u064a\u0635\u0644 \u063a\u0632\u0627\u0644", "name:de": "Qaryat Faysal Ghazal", "name:en": "Qaryat Faysal Ghazal", "name:fr": "Qaryat Faysal Ghazal", "place": "village"}}, {"type": "node", "id": 2489274018, "lat": 35.1424587, "lon": 43.8308564, "tags": {"alt_name": "\u0642\u0631\u064a\u0629 \u062d\u0645\u0636\u0629", "int_name": "Qaryat \u1e28am\u1e11ah, \u0642\u0631\u064a\u0629 \u062d\u0645\u0636\u0629, Qaryat Hamdah, \u0642\u0631\u064a\u0629 \u062d\u0645\u0636\u0629", "name": "\u062d\u0645\u0636\u0629 \u0627\u0644\u0639\u0644\u06cc\u0627", "name:ar": "\u062d\u0645\u0636\u0629 \u0627\u0644\u0639\u0644\u06cc\u0627", "name:ar1": "\u0642\u0631\u064a\u0629 \u062d\u0645\u0636\u0629", "name:ckb": "\u062d\u06d5\u0645\u0636\u06d5\u06cc \u0633\u06d5\u0631\u0648\u0648", "name:de": "Hamdah Al-Sufla", "name:en": "Hamdah Al-Sufla", "name:fr": "Hamdah Al-Sufla", "place": "village"}}, {"type": "node", "id": 2489274030, "lat": 35.02692, "lon": 43.565962, "tags": {"alt_name": "\u0642\u0631\u064a\u0629 \u0647\u0646\u0634\u064a", "int_name": "Qaryat Hansh\u012b, \u0642\u0631\u064a\u0629 \u0647\u0646\u0634\u064a, Qaryat Hanshi, \u0642\u0631\u064a\u0629 \u0647\u0646\u0634\u064a", "name": "\u0642\u0631\u064a\u0629 \u0647\u0646\u0634\u064a", "name:ar": "\u0642\u0631\u064a\u0629 \u0647\u0646\u0634\u064a", "name:ar1": "\u0642\u0631\u064a\u0629 \u0647\u0646\u0634\u064a", "name:de": "Qaryat Hanshi", "name:en": "Qaryat Hanshi", "name:fr": "Qaryat Hanshi", "place": "village"}}, {"type": "node", "id": 2489274040, "lat": 35.0826695, "lon": 43.5466664, "tags": {"alt_name": "\u0642\u0631\u064a\u0629 \u062d\u0633\u0646 \u0627\u0644\u0628\u0643\u0631\u064a", "int_name": "Qaryat \u1e28asan al Bakr\u012b, \u0642\u0631\u064a\u0629 \u062d\u0633\u0646 \u0627\u0644\u0628\u0643\u0631\u064a, Qaryat Hasan al Bakri, \u0642\u0631\u064a\u0629 \u062d\u0633\u0646 \u0627\u0644\u0628\u0643\u0631\u064a", "name": "\u062d\u0633\u0646 \u0627\u0644\u0628\u0643\u0631\u064a", "name:ar1": "\u0642\u0631\u064a\u0629 \u062d\u0633\u0646 \u0627\u0644\u0628\u0643\u0631\u064a", "name:ckb": "\u062d\u06d5\u0633\u06d5\u0646 \u0628\u06d5\u06a9\u0631\u06cc", "name:de": "Hasan al Bakri", "name:en": "Hasan al Bakri", "name:fr": "Hasan al Bakri", "place": "village"}}, {"type": "node", "id": 2489274051, "lat": 34.769258, "lon": 43.788093, "tags": {"alt_name": "\u0642\u0631\u064a\u0629 \u062d\u0644\u064a\u062d\u0644", "int_name": "Qaryat \u1e28ulay\u1e29il, \u0642\u0631\u064a\u0629 \u062d\u0644\u064a\u062d\u0644, Qaryat Hulayhil, \u0642\u0631\u064a\u0629 \u062d\u0644\u064a\u062d\u0644", "name": "\u0642\u0631\u064a\u0629 \u062d\u0644\u064a\u062d\u0644", "name:ar": "\u0642\u0631\u064a\u0629 \u062d\u0644\u064a\u062d\u0644", "name:ar1": "\u0642\u0631\u064a\u0629 \u062d\u0644\u064a\u062d\u0644", "name:de": "Qaryat Hulayhil", "name:en": "Qaryat Hulayhil", "name:fr": "Qaryat Hulayhil", "place": "village"}}, {"type": "node", "id": 2489274057, "lat": 34.869032, "lon": 43.5694, "tags": {"alt_name": "\u0642\u0631\u064a\u0629 \u062c\u062f\u064a\u062f\u0629", "int_name": "Qaryat Jad\u012bdah, \u0642\u0631\u064a\u0629 \u062c\u062f\u064a\u062f\u0629, Qaryat Jadidah, \u0642\u0631\u064a\u0629 \u062c\u062f\u064a\u062f\u0629", "name": "\u0642\u0631\u064a\u0629 \u062c\u062f\u064a\u062f\u0629", "name:ar": "\u0642\u0631\u064a\u0629 \u062c\u062f\u064a\u062f\u0629", "name:ar1": "\u0642\u0631\u064a\u0629 \u062c\u062f\u064a\u062f\u0629", "name:de": "Qaryat Jadidah", "name:en": "Qaryat Jadidah", "name:fr": "Qaryat Jadidah", "place": "village"}}, {"type": "node", "id": 2489274069, "lat": 35.1328844, "lon": 43.8199149, "tags": {"alt_name": "\u0642\u0631\u064a\u0629 \u062e\u0644\u0641 \u0627\u0644\u0623\u0633\u0648\u062f", "int_name": "Qaryat Khalaf al Aswad, Qaryat Khalaf al Aswad", "name": "\u062e\u0644\u0641 \u0627\u0644\u0623\u0633\u0648\u062f", "name:ar": "\u062e\u0644\u0641 \u0627\u0644\u0623\u0633\u0648\u062f", "name:ar1": "\u0642\u0631\u064a\u0629 \u062e\u0644\u0641 \u0627\u0644\u0623\u0633\u0648\u062f", "name:ckb": "\u062e\u06d5\u06b5\u06d5\u0641 \u0626\u06d5\u0633\u0648\u06d5\u062f", "name:de": "Khalaf al Aswad", "name:en": "Khalaf al Aswad", "name:fr": "Khalaf al Aswad", "place": "village"}}, {"type": "node", "id": 2489274074, "lat": 35.1268264, "lon": 43.5550236, "tags": {"alt_name": "\u0642\u0631\u064a\u0629 \u0645\u0631\u0628\u0639", "int_name": "Qaryat Marba, \u0642\u0631\u064a\u0629 \u0645\u0631\u0628\u0639, Qaryat Marba, \u0642\u0631\u064a\u0629 \u0645\u0631\u0628\u0639", "name": "\u0645\u0631\u0628\u0639", "name:ar1": "\u0642\u0631\u064a\u0629 \u0645\u0631\u0628\u0639", "name:ckb": "\u0645\u0648\u0695\u06d5\u0628\u06d5\u0639", "name:de": "Marba", "name:en": "Marba", "name:fr": "Marba", "place": "village"}}, {"type": "node", "id": 2489274095, "lat": 35.1552714, "lon": 43.7300057, "tags": {"alt_name": "\u0642\u0631\u064a\u0629 \u0633\u0631\u0627\u064a \u0627\u0644\u0641\u0636\u0644", "int_name": "Qaryat Sar\u0101y al Fa\u1e11al, \u0642\u0631\u064a\u0629 \u0633\u0631\u0627\u064a \u0627\u0644\u0641\u0636\u0644, Qaryat Saray al Fadal, \u0642\u0631\u064a\u0629 \u0633\u0631\u0627\u064a \u0627\u0644\u0641\u0636\u0644", "name": "\u0633\u0631\u0627\u064a \u0627\u0644\u0641\u0636\u0644", "name:ar": "\u0633\u0631\u0627\u064a \u0627\u0644\u0641\u0636\u0644", "name:ar1": "\u0642\u0631\u064a\u0629 \u0633\u0631\u0627\u064a \u0627\u0644\u0641\u0636\u0644", "name:ckb": "\u0633\u06d5\u0631\u0627\u06cc \u0641\u06d5\u0632\u06b5", "name:de": "Saray al Fadal", "name:en": "Saray al Fadal", "name:fr": "Saray al Fadal", "place": "village"}}, {"type": "node", "id": 2489274096, "lat": 35.1741661, "lon": 43.7505343, "tags": {"alt_name": "\u0642\u0631\u064a\u0629 \u0633\u0631\u0627\u064a", "int_name": "Qaryat Sar\u0101y, \u0642\u0631\u064a\u0629 \u0633\u0631\u0627\u064a, Qaryat Saray, \u0642\u0631\u064a\u0629 \u0633\u0631\u0627\u064a", "name": "\u0633\u0631\u0627\u064a", "name:ar": "\u0633\u0631\u0627\u064a", "name:ar1": "\u0642\u0631\u064a\u0629 \u0633\u0631\u0627\u064a", "name:ckb": "\u0633\u06d5\u0631\u0627\u06cc", "name:de": "Saray", "name:en": "Saray", "name:fr": "Saray", "place": "village"}}, {"type": "node", "id": 2489274100, "lat": 35.146096, "lon": 43.7713586, "tags": {"alt_name": "\u0642\u0631\u064a\u0629 \u0634\u0639\u064a\u0628\u0627\u062a", "int_name": "Qaryat Sha\u012bb\u0101t, \u0642\u0631\u064a\u0629 \u0634\u0639\u064a\u0628\u0627\u062a, Qaryat Shaibat, \u0642\u0631\u064a\u0629 \u0634\u0639\u064a\u0628\u0627\u062a", "name": "\u0634\u0639\u064a\u0628\u0627\u062a", "name:ar": "\u0634\u0639\u064a\u0628\u0627\u062a", "name:ar1": "\u0642\u0631\u064a\u0629 \u0634\u0639\u064a\u0628\u0627\u062a", "name:ckb": "\u0634\u0648\u0639\u06d5\u06cc\u0628\u0627\u062a", "name:de": "Shaibat", "name:en": "Shaibat", "name:fr": "Shaibat", "place": "village"}}, {"type": "node", "id": 2489274105, "lat": 35.1191705, "lon": 43.4922289, "tags": {"alt_name": "\u0642\u0631\u064a\u0629 \u062a\u0644 \u0627\u0644\u0630\u0647\u0628 \u0627\u0644\u0639\u0644\u064a\u0627", "int_name": "Qaryat Tall adh Dhahab al Uly\u0101, \u0642\u0631\u064a\u0629 \u062a\u0644 \u0627\u0644\u0630\u0647\u0628 \u0627\u0644\u0639\u0644\u064a\u0627, Qaryat Tall adh Dhahab al Ulya, \u0642\u0631\u064a\u0629 \u062a\u0644 \u0627\u0644\u0630\u0647\u0628 \u0627\u0644\u0639\u0644\u064a\u0627", "name": "\u062a\u0644 \u0627\u0644\u0630\u0647\u0628 \u0627\u0644\u0639\u0644\u064a\u0627", "name:ar1": "\u0642\u0631\u064a\u0629 \u062a\u0644 \u0627\u0644\u0630\u0647\u0628 \u0627\u0644\u0639\u0644\u064a\u0627", "name:ckb": "\u062a\u06d5\u0644 \u0632\u06d5\u0647\u06d5\u0628\u06cc \u0633\u06d5\u0631\u0648\u0648", "name:de": "Tall adh Dhahab al Ulya", "name:en": "Tall adh Dhahab al Ulya", "name:fr": "Tall adh Dhahab al Ulya", "place": "village"}}, {"type": "node", "id": 2489274106, "lat": 35.1162856, "lon": 43.5083084, "tags": {"alt_name": "\u0642\u0631\u064a\u0629 \u062a\u0644 \u0627\u0644\u0630\u0647\u0628 \u0627\u0644\u0633\u0641\u0644\u0649", "int_name": "Qaryat Tall adh Dhahab as Sufl\u00e1, \u0642\u0631\u064a\u0629 \u062a\u0644 \u0627\u0644\u0630\u0647\u0628 \u0627\u0644\u0633\u0641\u0644\u0649, Qaryat Tall adh Dhahab as Sufla, \u0642\u0631\u064a\u0629 \u062a\u0644 \u0627\u0644\u0630\u0647\u0628 \u0627\u0644\u0633\u0641\u0644\u0649", "name": "\u062a\u0644 \u0627\u0644\u0630\u0647\u0628 \u0627\u0644\u0633\u0641\u0644\u0649", "name:ar1": "\u0642\u0631\u064a\u0629 \u062a\u0644 \u0627\u0644\u0630\u0647\u0628 \u0627\u0644\u0633\u0641\u0644\u0649", "name:ckb": "\u062a\u06d5\u0644 \u0632\u06d5\u0647\u06d5\u0628\u06cc \u062e\u0648\u0627\u0631\u0648\u0648", "name:de": "Tall adh Dhahab as Sufla", "name:en": "Tall adh Dhahab as Sufla", "name:fr": "Tall adh Dhahab as Sufla", "place": "village"}}, {"type": "node", "id": 2489274111, "lat": 35.1410511, "lon": 43.8034905, "tags": {"alt_name": "\u0642\u0631\u064a\u0629 \u0627\u0644\u0639\u0627\u0644\u064a\u0629", "int_name": "Qaryat al \u0100l\u012byah, \u0642\u0631\u064a\u0629 \u0627\u0644\u0639\u0627\u0644\u064a\u0629, Qaryat al Aliyah, \u0642\u0631\u064a\u0629 \u0627\u0644\u0639\u0627\u0644\u064a\u0629", "name": "\u0639\u0627\u0644\u064a\u0629", "name:ar": "\u0639\u0627\u0644\u064a\u0629", "name:ar1": "\u0642\u0631\u064a\u0629 \u0627\u0644\u0639\u0627\u0644\u064a\u0629", "name:ckb": "\u0639\u0627\u0644\u06cc\u06d5", "name:de": "Aliyah", "name:en": "Aliyah", "name:fr": "Aliyah", "place": "village"}}, {"type": "node", "id": 2489274112, "lat": 35.137682, "lon": 43.788234, "tags": {"alt_name": "\u0642\u0631\u064a\u0629 \u0627\u0644\u0639\u0633\u0627\u0643\u0631\u0629", "int_name": "Qaryat al As\u0101krah, \u0642\u0631\u064a\u0629 \u0627\u0644\u0639\u0633\u0627\u0643\u0631\u0629, Qaryat al Asakrah, \u0642\u0631\u064a\u0629 \u0627\u0644\u0639\u0633\u0627\u0643\u0631\u0629", "name": "\u0642\u0631\u064a\u0629 \u0627\u0644\u0639\u0633\u0627\u0643\u0631\u0629", "name:ar": "\u0642\u0631\u064a\u0629 \u0627\u0644\u0639\u0633\u0627\u0643\u0631\u0629", "name:ar1": "\u0642\u0631\u064a\u0629 \u0627\u0644\u0639\u0633\u0627\u0643\u0631\u0629", "name:de": "Qaryat al Asakrah", "name:en": "Qaryat al Asakrah", "name:fr": "Qaryat al Asakrah", "place": "village"}}, {"type": "node", "id": 2489274116, "lat": 35.0621841, "lon": 43.84817, "tags": {"alt_name": "\u0642\u0631\u064a\u0629 \u0627\u0644\u0623\u0639\u0648\u062c", "int_name": "Qaryat al Awaj, \u0642\u0631\u064a\u0629 \u0627\u0644\u0627\u0639\u0648\u062c, Qaryat al Awaj, \u0642\u0631\u064a\u0629 \u0627\u0644\u0627\u0639\u0648\u062c", "name": "\u0623\u0639\u0648\u062c", "name:ar": "\u0623\u0639\u0648\u062c", "name:ar1": "\u0642\u0631\u064a\u0629 \u0627\u0644\u0623\u0639\u0648\u062c", "name:ckb": "\u0626\u06d5\u0639\u0648\u06d5\u062c", "name:de": "Awaj", "name:en": "Awaj", "name:fr": "Awaj", "place": "village"}}, {"type": "node", "id": 2489274117, "lat": 35.194498, "lon": 43.753788, "tags": {"alt_name": "\u0642\u0631\u064a\u0629 \u0627\u0644\u0639\u0648\u0627\u0634\u0631", "int_name": "Qaryat al Aw\u0101shr, \u0642\u0631\u064a\u0629 \u0627\u0644\u0639\u0648\u0627\u0634\u0631, Qaryat al Awashr, \u0642\u0631\u064a\u0629 \u0627\u0644\u0639\u0648\u0627\u0634\u0631", "name": "\u0639\u0648\u0627\u0634\u0631", "name:ar1": "\u0642\u0631\u064a\u0629 \u0627\u0644\u0639\u0648\u0627\u0634\u0631", "name:ckb": "\u0639\u06d5\u0648\u0627\u0634\u06cc\u0631", "name:de": "Awashr", "name:en": "Awashr", "name:fr": "Awashr", "place": "village"}}, {"type": "node", "id": 2489274121, "lat": 34.895958, "lon": 43.51959, "tags": {"alt_name": "\u0642\u0631\u064a\u0629 \u0627\u0644\u0628\u0639\u064a\u062c\u064a", "int_name": "Qaryat al Buayj\u012b, \u0642\u0631\u064a\u0629 \u0627\u0644\u0628\u0639\u064a\u062c\u064a, Qaryat al Buayji, \u0642\u0631\u064a\u0629 \u0627\u0644\u0628\u0639\u064a\u062c\u064a", "name": "\u0642\u0631\u064a\u0629 \u0627\u0644\u0628\u0639\u064a\u062c\u064a", "name:ar": "\u0642\u0631\u064a\u0629 \u0627\u0644\u0628\u0639\u064a\u062c\u064a", "name:ar1": "\u0642\u0631\u064a\u0629 \u0627\u0644\u0628\u0639\u064a\u062c\u064a", "name:de": "Qaryat al Buayji", "name:en": "Qaryat al Buayji", "name:fr": "Qaryat al Buayji", "place": "village"}}, {"type": "node", "id": 2489274122, "lat": 35.1692614, "lon": 43.8283714, "tags": {"alt_name": "\u0642\u0631\u064a\u0629 \u0627\u0644\u0641\u0631\u062d\u0627\u0646\u064a\u0629", "int_name": "Qaryat al Far\u1e29\u0101n\u012byah, \u0642\u0631\u064a\u0629 \u0627\u0644\u0641\u0631\u062d\u0627\u0646\u064a\u0629, Qaryat al Farhaniyah, \u0642\u0631\u064a\u0629 \u0627\u0644\u0641\u0631\u062d\u0627\u0646\u064a\u0629", "name": "\u0641\u0631\u062d\u0627\u0646\u064a\u0629", "name:ar": "\u0641\u0631\u062d\u0627\u0646\u064a\u0629", "name:ar1": "\u0642\u0631\u064a\u0629 \u0627\u0644\u0641\u0631\u062d\u0627\u0646\u064a\u0629", "name:ckb": "\u0641\u06d5\u0631\u062d\u0627\u0646\u06cc\u06d5", "name:de": "Farhaniyah", "name:en": "Farhaniyah", "name:fr": "Farhaniyah", "place": "village"}}, {"type": "node", "id": 2489274125, "lat": 35.1011708, "lon": 43.834619, "tags": {"alt_name": "\u0642\u0631\u064a\u0629 \u0627\u0644\u062d\u0645\u0636\u0629 \u0627\u0644\u0633\u0641\u0644\u0649", "int_name": "Qaryat al \u1e28am\u1e11at as Sufl\u00e1, \u0642\u0631\u064a\u0629 \u0627\u0644\u062d\u0645\u0636\u0629 \u0627\u0644\u0633\u0641\u0644\u0649, Qaryat al Hamdat as Sufla, \u0642\u0631\u064a\u0629 \u0627\u0644\u062d\u0645\u0636\u0629 \u0627\u0644\u0633\u0641\u0644\u0649", "name": "\u062d\u0645\u0636\u0629 \u0627\u0644\u0633\u0641\u0644\u0649", "name:ar": "\u062d\u0645\u0636\u0629 \u0627\u0644\u0633\u0641\u0644\u0649", "name:ar1": "\u0642\u0631\u064a\u0629 \u0627\u0644\u062d\u0645\u0636\u0629 \u0627\u0644\u0633\u0641\u0644\u0649", "name:ckb": "\u062d\u06d5\u0645\u0636\u06d5\u06cc \u062e\u0648\u0627\u0631\u0648\u0648", "name:de": "\u062d\u0645\u0636\u0629 \u0627\u0644\u0633\u0641\u0644\u0649", "name:en": "Hamdat as Sufla", "name:fr": "Hamdat as Sufla", "place": "village"}}, {"type": "node", "id": 2489274126, "lat": 34.764396, "lon": 43.594539, "tags": {"alt_name": "\u0642\u0631\u064a\u0629 \u0627\u0644\u062d\u0645\u0631\u0629", "int_name": "Qaryat al \u1e28amrah, \u0642\u0631\u064a\u0629 \u0627\u0644\u062d\u0645\u0631\u0629, Qaryat al Hamrah, \u0642\u0631\u064a\u0629 \u0627\u0644\u062d\u0645\u0631\u0629", "name": "\u0642\u0631\u064a\u0629 \u0627\u0644\u062d\u0645\u0631\u0629", "name:ar": "\u0642\u0631\u064a\u0629 \u0627\u0644\u062d\u0645\u0631\u0629", "name:ar1": "\u0642\u0631\u064a\u0629 \u0627\u0644\u062d\u0645\u0631\u0629", "name:de": "Qaryat al Hamrah", "name:en": "Qaryat al Hamrah", "name:fr": "Qaryat al Hamrah", "place": "village"}}, {"type": "node", "id": 2489274127, "lat": 34.864861, "lon": 43.583799, "tags": {"alt_name": "\u0642\u0631\u064a\u0629 \u0627\u0644\u062d\u0627\u0631\u062b\u064a\u0629", "int_name": "Qaryat al \u1e28\u0101rith\u012byah, \u0642\u0631\u064a\u0629 \u0627\u0644\u062d\u0627\u0631\u062b\u064a\u0629, Qaryat al Harithiyah, \u0642\u0631\u064a\u0629 \u0627\u0644\u062d\u0627\u0631\u062b\u064a\u0629", "name": "\u0642\u0631\u064a\u0629 \u0627\u0644\u062d\u0627\u0631\u062b\u064a\u0629", "name:ar": "\u0642\u0631\u064a\u0629 \u0627\u0644\u062d\u0627\u0631\u062b\u064a\u0629", "name:ar1": "\u0642\u0631\u064a\u0629 \u0627\u0644\u062d\u0627\u0631\u062b\u064a\u0629", "name:de": "Qaryat al Harithiyah", "name:en": "Qaryat al Harithiyah", "name:fr": "Qaryat al Harithiyah", "place": "village"}}, {"type": "node", "id": 2489274134, "lat": 34.879483, "lon": 43.518986, "tags": {"alt_name": "\u0642\u0631\u064a\u0629 \u0627\u0644\u062c\u064a\u0633\u0627\u062a", "int_name": "Qaryat al J\u012bs\u0101t, \u0642\u0631\u064a\u0629 \u0627\u0644\u062c\u064a\u0633\u0627\u062a, Qaryat al Jisat, \u0642\u0631\u064a\u0629 \u0627\u0644\u062c\u064a\u0633\u0627\u062a", "name": "\u0642\u0631\u064a\u0629 \u0627\u0644\u062c\u064a\u0633\u0627\u062a", "name:ar": "\u0642\u0631\u064a\u0629 \u0627\u0644\u062c\u064a\u0633\u0627\u062a", "name:ar1": "\u0642\u0631\u064a\u0629 \u0627\u0644\u062c\u064a\u0633\u0627\u062a", "name:de": "Qaryat al Jisat", "name:en": "Qaryat al Jisat", "name:fr": "Qaryat al Jisat", "place": "village"}}, {"type": "node", "id": 2489274151, "lat": 35.012986, "lon": 43.8376333, "tags": {"alt_name": "\u0642\u0631\u064a\u0629 \u0627\u0644\u0645\u062d\u0645\u0648\u062f\u064a\u0629", "int_name": "Qaryat al Ma\u1e29m\u016bd\u012byah, \u0642\u0631\u064a\u0629 \u0627\u0644\u0645\u062d\u0645\u0648\u062f\u064a\u0629, Qaryat al Mahmudiyah, \u0642\u0631\u064a\u0629 \u0627\u0644\u0645\u062d\u0645\u0648\u062f\u064a\u0629", "name": "\u0645\u062d\u0645\u0648\u062f\u064a\u0629", "name:ar": "\u0645\u062d\u0645\u0648\u062f\u064a\u0629", "name:ar1": "\u0642\u0631\u064a\u0629 \u0627\u0644\u0645\u062d\u0645\u0648\u062f\u064a\u0629", "name:ckb": "\u0645\u06d5\u062d\u0645\u0648\u0648\u062f\u06cc\u06d5", "name:de": "Mahmudiyah", "name:en": "Mahmudiyah", "name:fr": "Mahmudiyah", "place": "village"}}, {"type": "node", "id": 2489274164, "lat": 35.1677334, "lon": 43.7772565, "tags": {"alt_name": "\u0642\u0631\u064a\u0629 \u0627\u0644\u0645\u0642\u0627\u0645", "int_name": "Qaryat al Maq\u0101m, \u0642\u0631\u064a\u0629 \u0627\u0644\u0645\u0642\u0627\u0645, Qaryat al Maqam, \u0642\u0631\u064a\u0629 \u0627\u0644\u0645\u0642\u0627\u0645", "name": "\u0645\u0642\u0627\u0645", "name:ar": "\u0645\u0642\u0627\u0645", "name:ar1": "\u0642\u0631\u064a\u0629 \u0627\u0644\u0645\u0642\u0627\u0645", "name:ckb": "\u0645\u06d5\u0642\u0627\u0645", "name:de": "Maqam", "name:en": "Maqam", "name:fr": "Maqam", "place": "village"}}, {"type": "node", "id": 2489274197, "lat": 35.1784535, "lon": 43.7219951, "tags": {"alt_name": "\u0642\u0631\u064a\u0629 \u0627\u0644\u0645\u0631\u0627\u062f\u064a\u0629", "int_name": "Qaryat al Mur\u0101d\u012byah, \u0642\u0631\u064a\u0629 \u0627\u0644\u0645\u0631\u0627\u062f\u064a\u0629, Qaryat al Muradiyah, \u0642\u0631\u064a\u0629 \u0627\u0644\u0645\u0631\u0627\u062f\u064a\u0629", "name": "\u0627\u0644\u0645\u0631\u0627\u062f\u064a\u0629", "name:ar1": "\u0642\u0631\u064a\u0629 \u0627\u0644\u0645\u0631\u0627\u062f\u064a\u0629", "name:ckb": "\u0645\u0648\u0631\u0627\u062f\u06cc\u06d5", "name:de": "Muradiyah", "name:en": "Muradiyah", "name:fr": "Muradiyah", "place": "village"}}, {"type": "node", "id": 2489274215, "lat": 35.1169281, "lon": 43.5719725, "tags": {"alt_name": "\u0642\u0631\u064a\u0629 \u0627\u0644\u0642\u0633\u0627\u0645\u064a\u0629", "int_name": "Qaryat al Qas\u0101m\u012byah, \u0642\u0631\u064a\u0629 \u0627\u0644\u0642\u0633\u0627\u0645\u064a\u0629, Qaryat al Qasamiyah, \u0642\u0631\u064a\u0629 \u0627\u0644\u0642\u0633\u0627\u0645\u064a\u0629", "name": "\u0642\u0633\u0627\u0645\u06cc\u0629", "name:ar1": "\u0642\u0631\u064a\u0629 \u0627\u0644\u0642\u0633\u0627\u0645\u064a\u0629", "name:ckb": "\u0642\u06d5\u0633\u0627\u0645\u06cc\u06d5", "name:de": "Qasamiyah", "name:en": "Qasamiyah", "name:fr": "Qasamiyah", "place": "village"}}, {"type": "node", "id": 2489274260, "lat": 34.9924117, "lon": 43.8350506, "tags": {"alt_name": "\u0642\u0631\u064a\u0629 \u0627\u0644\u064a\u0648\u0633\u0641\u064a\u0629", "int_name": "Qaryat al Y\u016bsuf\u012byah, \u0642\u0631\u064a\u0629 \u0627\u0644\u064a\u0648\u0633\u0641\u064a\u0629, Qaryat al Yusufiyah, \u0642\u0631\u064a\u0629 \u0627\u0644\u064a\u0648\u0633\u0641\u064a\u0629", "name": "\u064a\u0648\u0633\u0641\u064a\u0629", "name:ar": "\u064a\u0648\u0633\u0641\u064a\u0629", "name:ar1": "\u0642\u0631\u064a\u0629 \u0627\u0644\u064a\u0648\u0633\u0641\u064a\u0629", "name:ckb": "\u06cc\u0648\u0633\u0641\u06cc\u06d5", "name:de": "Yusufiyah", "name:en": "Yusufiyah", "name:fr": "Yusufiyah", "place": "village"}}, {"type": "node", "id": 2489274271, "lat": 34.799028, "lon": 43.590131, "tags": {"alt_name": "\u0642\u0631\u064a\u0629 \u0627\u0644\u0631\u0645\u0644", "int_name": "Qaryat ar Raml, \u0642\u0631\u064a\u0629 \u0627\u0644\u0631\u0645\u0644, Qaryat ar Raml, \u0642\u0631\u064a\u0629 \u0627\u0644\u0631\u0645\u0644", "name": "\u0642\u0631\u064a\u0629 \u0627\u0644\u0631\u0645\u0644", "name:ar": "\u0642\u0631\u064a\u0629 \u0627\u0644\u0631\u0645\u0644", "name:ar1": "\u0642\u0631\u064a\u0629 \u0627\u0644\u0631\u0645\u0644", "name:de": "Qaryat ar Raml", "name:en": "Qaryat ar Raml", "name:fr": "Qaryat ar Raml", "place": "village"}}, {"type": "node", "id": 2489274281, "lat": 35.082073, "lon": 43.524006, "tags": {"alt_name": "\u0642\u0631\u064a\u0629 \u0627\u0644\u0633\u0627\u062f\u0629", "int_name": "Qaryat as S\u0101dah, \u0642\u0631\u064a\u0629 \u0627\u0644\u0633\u0627\u062f\u0629, Qaryat as Sadah, \u0642\u0631\u064a\u0629 \u0627\u0644\u0633\u0627\u062f\u0629", "name": "\u0642\u0631\u064a\u0629 \u0627\u0644\u0633\u0627\u062f\u0629", "name:ar": "\u0642\u0631\u064a\u0629 \u0627\u0644\u0633\u0627\u062f\u0629", "name:ar1": "\u0642\u0631\u064a\u0629 \u0627\u0644\u0633\u0627\u062f\u0629", "name:de": "Qaryat as Sadah", "name:en": "Qaryat as Sadah", "name:fr": "Qaryat as Sadah", "place": "village"}}, {"type": "node", "id": 2489274287, "lat": 35.1988601, "lon": 43.7933401, "tags": {"alt_name": "\u0642\u0631\u064a\u0629 \u0627\u0644\u0635\u0641\u0631\u0629", "int_name": "Qaryat a\u015f \u015eafrah, \u0642\u0631\u064a\u0629 \u0627\u0644\u0635\u0641\u0631\u0629, Qaryat as Safrah, \u0642\u0631\u064a\u0629 \u0627\u0644\u0635\u0641\u0631\u0629", "name": "\u0635\u0641\u0631\u0629", "name:ar": "\u0635\u0641\u0631\u0629", "name:ar1": "\u0642\u0631\u064a\u0629 \u0627\u0644\u0635\u0641\u0631\u0629", "name:ckb": "\u0633\u06d5\u0641\u0631\u06d5", "name:de": "Safrah", "name:en": "Safrah", "name:fr": "Safrah", "place": "village"}}, {"type": "node", "id": 2489274292, "lat": 35.0429331, "lon": 43.8585916, "tags": {"alt_name": "\u0642\u0631\u064a\u0629 \u0627\u0644\u0633\u0648\u064a\u0633\u0629", "int_name": "Qaryat as Sw\u012bsah, \u0642\u0631\u064a\u0629 \u0627\u0644\u0633\u0648\u064a\u0633\u0629, Qaryat as Swisah, \u0642\u0631\u064a\u0629 \u0627\u0644\u0633\u0648\u064a\u0633\u0629", "name": "\u0633\u0648\u064a\u0633\u0629", "name:ar": "\u0633\u0648\u064a\u0633\u0629", "name:ar1": "\u0642\u0631\u064a\u0629 \u0627\u0644\u0633\u0648\u064a\u0633\u0629", "name:ckb": "\u0633\u0648\u06cc\u0633\u06d5", "name:de": "Swisah", "name:en": "Swisah", "name:fr": "Swisah", "place": "village"}}, {"type": "node", "id": 2489274298, "lat": 34.783333, "lon": 43.6, "tags": {"alt_name": "\u0642\u0635\u0631 \u0645\u0648\u0644\u0648\u062f \u0645\u062e\u0644\u0635 \u0628\u0627\u0634\u0627", "int_name": "Qa\u015fr Mawl\u016bd Mukhli\u015f B\u0101sh\u0101, Qasr Mawlud Mukhlis Basha", "name": "\u0642\u0635\u0631 \u0645\u0648\u0644\u0648\u062f \u0645\u062e\u0644\u0635 \u0628\u0627\u0634\u0627", "name:ar": "\u0642\u0635\u0631 \u0645\u0648\u0644\u0648\u062f \u0645\u062e\u0644\u0635 \u0628\u0627\u0634\u0627", "name:ar1": "\u0642\u0635\u0631 \u0645\u0648\u0644\u0648\u062f \u0645\u062e\u0644\u0635 \u0628\u0627\u0634\u0627", "name:de": "Qasr Mawlud Mukhlis Basha", "name:en": "Qasr Mawlud Mukhlis Basha", "name:fr": "Qasr Mawlud Mukhlis Basha", "place": "village"}}, {"type": "node", "id": 2489274311, "lat": 34.993261, "lon": 43.558036, "tags": {"alt_name": "\u0635\u0627\u062f\u0642 \u062c\u0639\u0641\u0631", "int_name": "\u015e\u0101diq Jafar, \u0635\u0627\u062f\u0642 \u062c\u0639\u0641\u0631, Sadiq Jafar, \u0635\u0627\u062f\u0642 \u062c\u0639\u0641\u0631", "name": "\u0635\u0627\u062f\u0642 \u062c\u0639\u0641\u0631", "name:ar": "\u0635\u0627\u062f\u0642 \u062c\u0639\u0641\u0631", "name:ar1": "\u0635\u0627\u062f\u0642 \u062c\u0639\u0641\u0631", "name:de": "Sadiq Jafar", "name:en": "Sadiq Jafar", "name:fr": "Sadiq Jafar", "place": "village"}}, {"type": "node", "id": 2489274312, "lat": 35.0440391, "lon": 43.7554965, "tags": {"alt_name": "\u0635\u0641\u0631 \u0645\u0627\u0646\u0639", "int_name": "\u015eafar M\u0101ni, \u0635\u0641\u0631 \u0645\u0627\u0646\u0639, Safar Mani, \u0635\u0641\u0631 \u0645\u0627\u0646\u0639", "name": "\u0635\u0641\u0631 \u0645\u0627\u0646\u0639", "name:ar": "\u0635\u0641\u0631 \u0645\u0627\u0646\u0639", "name:ar1": "\u0635\u0641\u0631 \u0645\u0627\u0646\u0639", "name:de": "Safar Mani", "name:en": "Safar Mani", "name:fr": "Safar Mani", "place": "village"}}, {"type": "node", "id": 2489274313, "lat": 35.008052, "lon": 43.577951, "tags": {"alt_name": "\u0633\u062d\u0627\u0628 \u0627\u0644\u0645\u0637\u0631", "int_name": "Sa\u1e29\u0101b al Ma\u0163ar, \u0633\u062d\u0627\u0628 \u0627\u0644\u0645\u0637\u0631, Sahab al Matar, \u0633\u062d\u0627\u0628 \u0627\u0644\u0645\u0637\u0631", "name": "\u0633\u062d\u0627\u0628 \u0627\u0644\u0645\u0637\u0631", "name:ar": "\u0633\u062d\u0627\u0628 \u0627\u0644\u0645\u0637\u0631", "name:ar1": "\u0633\u062d\u0627\u0628 \u0627\u0644\u0645\u0637\u0631", "name:de": "Sahab al Matar", "name:en": "Sahab al Matar", "name:fr": "Sahab al Matar", "place": "village"}}, {"type": "node", "id": 2489274319, "lat": 34.835583, "lon": 43.598413, "tags": {"alt_name": "\u0635\u0627\u0644\u062d \u0645\u0637\u0631", "int_name": "\u015e\u0101li\u1e29 Ma\u0163ar, \u0635\u0627\u0644\u062d \u0645\u0637\u0631, Salih Matar, \u0635\u0627\u0644\u062d \u0645\u0637\u0631", "name": "\u0635\u0627\u0644\u062d \u0645\u0637\u0631", "name:ar": "\u0635\u0627\u0644\u062d \u0645\u0637\u0631", "name:ar1": "\u0635\u0627\u0644\u062d \u0645\u0637\u0631", "name:de": "Salih Matar", "name:en": "Salih Matar", "name:fr": "Salih Matar", "place": "village"}}, {"type": "node", "id": 2489274324, "lat": 35.0268563, "lon": 43.8684046, "tags": {"alt_name": "\u0633\u0644\u0645\u0627\u0646\u064a", "int_name": "Salm\u0101n\u012b, Salmani", "name": "\u0633\u0644\u0645\u0627\u0646\u064a", "name:ar": "\u0633\u0644\u0645\u0627\u0646\u064a", "name:ar1": "\u0633\u0644\u0645\u0627\u0646\u064a", "name:ckb": "\u0633\u06d5\u0644\u0645\u0627\u0646\u06cc", "name:de": "Salmani", "name:en": "Salmani", "name:fr": "Salmani", "place": "village"}}, {"type": "node", "id": 2489274337, "lat": 35.053462, "lon": 43.7445801, "tags": {"alt_name": "\u0634\u0644\u0627\u0644 \u0645\u0637\u0631", "int_name": "Shal\u0101l Ma\u0163ar, \u0634\u0644\u0627\u0644 \u0645\u0637\u0631, Shalal Matar, \u0634\u0644\u0627\u0644 \u0645\u0637\u0631", "name": "\u0634\u0644\u0627\u0644 \u0645\u0637\u0631", "name:ar": "\u0634\u0644\u0627\u0644 \u0645\u0637\u0631", "name:ar1": "\u0634\u0644\u0627\u0644 \u0645\u0637\u0631", "name:ckb": "\u0634\u06d5\u0644\u0627\u0644 \u0645\u06d5\u062a\u06d5\u0695", "name:de": "Shalal Matar", "name:en": "Shalal Matar", "name:fr": "Shalal Matar", "place": "village"}}, {"type": "node", "id": 2489274464, "lat": 35.001449, "lon": 43.549053, "tags": {"alt_name": "\u0639\u0648\u064a\u062f \u0645\u0637\u0631", "int_name": "Uwayyd Ma\u0163ar, \u0639\u0648\u064a\u062f \u0645\u0637\u0631, Uwayyd Matar, \u0639\u0648\u064a\u062f \u0645\u0637\u0631", "name": "\u0639\u0648\u064a\u062f \u0645\u0637\u0631", "name:ar": "\u0639\u0648\u064a\u062f \u0645\u0637\u0631", "name:ar1": "\u0639\u0648\u064a\u062f \u0645\u0637\u0631", "name:de": "Uwayyd Matar", "name:en": "Uwayyd Matar", "name:fr": "Uwayyd Matar", "place": "village"}}, {"type": "node", "id": 2489274538, "lat": 35.078771, "lon": 43.765537, "tags": {"alt_name": "\u0648\u0633\u0645\u064a \u0634\u0644\u063a\u0645", "int_name": "Wasm\u012b Shalgham, \u0648\u0633\u0645\u064a \u0634\u0644\u063a\u0645, Wasmi Shalgham, \u0648\u0633\u0645\u064a \u0634\u0644\u063a\u0645", "name": "\u0648\u0633\u0645\u064a \u0634\u0644\u063a\u0645", "name:ar": "\u0648\u0633\u0645\u064a \u0634\u0644\u063a\u0645", "name:ar1": "\u0648\u0633\u0645\u064a \u0634\u0644\u063a\u0645", "name:de": "Wasmi Shalgham", "name:en": "Wasmi Shalgham", "name:fr": "Wasmi Shalgham", "place": "village"}}, {"type": "node", "id": 2489274549, "lat": 34.820045, "lon": 43.606048, "tags": {"alt_name": "\u0632\u064a\u062f\u0627\u0646 \u062e\u0644\u0641 \u0645\u062d\u0645\u0648\u062f", "int_name": "Zayd\u0101n Khalaf Ma\u1e29m\u016bd, \u0632\u064a\u062f\u0627\u0646 \u062e\u0644\u0641 \u0645\u062d\u0645\u0648\u062f, Zaydan Khalaf Mahmud, \u0632\u064a\u062f\u0627\u0646 \u062e\u0644\u0641 \u0645\u062d\u0645\u0648\u062f", "name": "\u0632\u064a\u062f\u0627\u0646 \u062e\u0644\u0641 \u0645\u062d\u0645\u0648\u062f", "name:ar": "\u0632\u064a\u062f\u0627\u0646 \u062e\u0644\u0641 \u0645\u062d\u0645\u0648\u062f", "name:ar1": "\u0632\u064a\u062f\u0627\u0646 \u062e\u0644\u0641 \u0645\u062d\u0645\u0648\u062f", "name:de": "Zaydan Khalaf Mahmud", "name:en": "Zaydan Khalaf Mahmud", "name:fr": "Zaydan Khalaf Mahmud", "place": "village"}}, {"type": "node", "id": 2489274556, "lat": 34.9474906, "lon": 43.5409096, "tags": {"alt_name": "\u0627\u062f\u0631\u064a\u0633 \u0643\u0631\u0645", "int_name": "\u0627\u062f\u0631\u064a\u0633 \u0643\u0631\u0645, \u0627\u062f\u0631\u064a\u0633 \u0643\u0631\u0645", "name": "\u0627\u062f\u0631\u064a\u0633 \u0643\u0631\u0645", "name:ar": "\u0627\u062f\u0631\u064a\u0633 \u0643\u0631\u0645", "name:ar1": "\u0627\u062f\u0631\u064a\u0633 \u0643\u0631\u0645", "name:de": "\u0627\u062f\u0631\u064a\u0633 \u0643\u0631\u0645", "name:en": "\u0627\u062f\u0631\u064a\u0633 \u0643\u0631\u0645", "name:fr": "\u0627\u062f\u0631\u064a\u0633 \u0643\u0631\u0645", "place": "village"}}, {"type": "node", "id": 2489278015, "lat": 34.782344, "lon": 43.912186, "tags": {"alt_name": "\u0645\u062d\u0645\u0648\u062f \u0639\u0644\u064a\u0648\u064a", "int_name": "Ma\u1e29m\u016bd Ulayw\u012b, \u0645\u062d\u0645\u0648\u062f \u0639\u0644\u064a\u0648\u064a, Mahmud Ulaywi, \u0645\u062d\u0645\u0648\u062f \u0639\u0644\u064a\u0648\u064a", "name": "\u0645\u062d\u0645\u0648\u062f \u0639\u0644\u064a\u0648\u064a", "name:ar": "\u0645\u062d\u0645\u0648\u062f \u0639\u0644\u064a\u0648\u064a", "name:ar1": "\u0645\u062d\u0645\u0648\u062f \u0639\u0644\u064a\u0648\u064a", "name:de": "Mahmud Ulaywi", "name:en": "Mahmud Ulaywi", "name:fr": "Mahmud Ulaywi", "place": "village"}}, {"type": "node", "id": 2489278072, "lat": 35.1766842, "lon": 43.919273, "tags": {"alt_name": "\u0642\u0631\u064a\u0629 \u0639\u0644\u0648\u064a\u0629 \u0627\u0644\u062c\u062f\u064a\u062f\u0629", "int_name": "Qaryat Alw\u012byat al Jad\u012bdah, \u0642\u0631\u064a\u0629 \u0639\u0644\u0648\u064a\u0629 \u0627\u0644\u062c\u062f\u064a\u062f\u0629, Qaryat Alwiyat al Jadidah, \u0642\u0631\u064a\u0629 \u0639\u0644\u0648\u064a\u0629 \u0627\u0644\u062c\u062f\u064a\u062f\u0629", "name": "\u0639\u0644\u0648\u064a\u0629 \u0627\u0644\u062c\u062f\u064a\u062f\u0629", "name:ar": "\u0639\u0644\u0648\u064a\u0629 \u0627\u0644\u062c\u062f\u064a\u062f\u0629", "name:ar1": "\u0642\u0631\u064a\u0629 \u0639\u0644\u0648\u064a\u0629 \u0627\u0644\u062c\u062f\u064a\u062f\u0629", "name:ckb": "\u0639\u06d5\u0644\u0648\u06cc\u06d5\u06cc \u062c\u06d5\u062f\u06cc\u062f\u06d5", "name:de": "Alwiyat al Jadidah", "name:en": "Alwiyat al Jadidah", "name:fr": "Alwiyat al Jadidah", "place": "village"}}, {"type": "node", "id": 2489278089, "lat": 35.1452159, "lon": 43.8748435, "tags": {"alt_name": "\u0642\u0631\u064a\u0629 \u0647\u0648\u0631 \u0646\u0627\u0641\u0644\u0629", "int_name": "Qaryat Hawr N\u0101filah, \u0642\u0631\u064a\u0629 \u0647\u0648\u0631 \u0646\u0627\u0641\u0644\u0629, Qaryat Hawr Nafilah, \u0642\u0631\u064a\u0629 \u0647\u0648\u0631 \u0646\u0627\u0641\u0644\u0629", "name": "\u0647\u0648\u0631 \u0646\u0627\u0641\u0644\u0629", "name:ar": "\u0647\u0648\u0631 \u0646\u0627\u0641\u0644\u0629", "name:ar1": "\u0642\u0631\u064a\u0629 \u0647\u0648\u0631 \u0646\u0627\u0641\u0644\u0629", "name:ckb": "\u0647\u06d5\u0648\u0631\u0646\u0627\u0641\u06cc\u0644\u06d5", "name:de": "Hawr Nafilah", "name:en": "Hawr Nafilah", "name:fr": "Hawr Nafilah", "place": "village"}}, {"type": "node", "id": 2489278093, "lat": 34.987906, "lon": 43.8887373, "tags": {"alt_name": "\u0642\u0631\u064a\u0629 \u062c\u062f\u064a\u062f\u0629", "int_name": "Qaryat Jad\u012bdah, \u0642\u0631\u064a\u0629 \u062c\u062f\u064a\u062f\u0629, Qaryat Jadidah, \u0642\u0631\u064a\u0629 \u062c\u062f\u064a\u062f\u0629", "name": "\u062c\u062f\u064a\u062f\u0629", "name:ar": "\u062c\u062f\u064a\u062f\u0629", "name:ar1": "\u0642\u0631\u064a\u0629 \u062c\u062f\u064a\u062f\u0629", "name:ckb": "\u062c\u06d5\u062f\u06cc\u062f\u06d5", "name:de": "Jadidah", "name:en": "Jadidah", "name:fr": "Jadidah", "place": "village"}}, {"type": "node", "id": 2489278136, "lat": 34.9834236, "lon": 43.8709694, "tags": {"alt_name": "\u0642\u0631\u064a\u0629 \u0637\u0648\u064a\u0644\u0639\u0629", "int_name": "Qaryat \u0162uwayliah, \u0642\u0631\u064a\u0629 \u0637\u0648\u064a\u0644\u0639\u0629, Qaryat Tuwayliah, \u0642\u0631\u064a\u0629 \u0637\u0648\u064a\u0644\u0639\u0629", "name": "\u0637\u0648\u064a\u0644\u0639\u0629", "name:ar": "\u0637\u0648\u064a\u0644\u0639\u0629", "name:ar1": "\u0642\u0631\u064a\u0629 \u0637\u0648\u064a\u0644\u0639\u0629", "name:ckb": "\u062a\u06d5\u0648\u06cc\u0644\u0639\u06d5", "name:de": "Tuwayliah", "name:en": "Tuwayliah", "name:fr": "Tuwayliah", "place": "village"}}, {"type": "node", "id": 2489278155, "lat": 35.0956485, "lon": 43.911447, "tags": {"alt_name": "\u0642\u0631\u064a\u0629 \u0627\u0644\u0645\u0636\u0645\u0648\u0645\u0629", "int_name": "Qaryat al Ma\u1e11m\u016bmah, \u0642\u0631\u064a\u0629 \u0627\u0644\u0645\u0636\u0645\u0648\u0645\u0629, Qaryat al Madmumah, \u0642\u0631\u064a\u0629 \u0627\u0644\u0645\u0636\u0645\u0648\u0645\u0629", "name": "\u0645\u0636\u0645\u0648\u0645\u0629", "name:ar": "\u0645\u0636\u0645\u0648\u0645\u0629", "name:ar1": "\u0642\u0631\u064a\u0629 \u0627\u0644\u0645\u0636\u0645\u0648\u0645\u0629", "name:ckb": "\u0645\u06d5\u0632\u0645\u0648\u0645\u06d5", "name:de": "Madmumah", "name:en": "Madmumah", "name:fr": "Madmumah", "place": "village"}}, {"type": "node", "id": 2489278160, "lat": 35.0188348, "lon": 43.9020246, "tags": {"alt_name": "\u0642\u0631\u064a\u0629 \u0627\u0644\u0645\u0646\u0633\u064a\u0629", "int_name": "Qaryat al Mans\u012byah, \u0642\u0631\u064a\u0629 \u0627\u0644\u0645\u0646\u0633\u064a\u0629, Qaryat al Mansiyah, \u0642\u0631\u064a\u0629 \u0627\u0644\u0645\u0646\u0633\u064a\u0629", "name": "\u0645\u0646\u0633\u064a\u0629", "name:ar": "\u0645\u0646\u0633\u064a\u0629", "name:ar1": "\u0642\u0631\u064a\u0629 \u0627\u0644\u0645\u0646\u0633\u064a\u0629", "name:ckb": "\u0645\u06d5\u0646\u0633\u06cc\u06d5", "name:de": "Mansiyah", "name:en": "Mansiyah", "name:fr": "Mansiyah", "place": "village"}}, {"type": "node", "id": 2489278164, "lat": 34.775114, "lon": 43.890663, "tags": {"alt_name": "\u0642\u0631\u064a\u0629 \u0627\u0644\u0645\u0639\u064a\u0628\u062f\u064a", "int_name": "Qaryat al Muaybid\u012b, \u0642\u0631\u064a\u0629 \u0627\u0644\u0645\u0639\u064a\u0628\u062f\u064a, Qaryat al Muaybidi, \u0642\u0631\u064a\u0629 \u0627\u0644\u0645\u0639\u064a\u0628\u062f\u064a", "name": "\u0642\u0631\u064a\u0629 \u0627\u0644\u0645\u0639\u064a\u0628\u062f\u064a", "name:ar": "\u0642\u0631\u064a\u0629 \u0627\u0644\u0645\u0639\u064a\u0628\u062f\u064a", "name:ar1": "\u0642\u0631\u064a\u0629 \u0627\u0644\u0645\u0639\u064a\u0628\u062f\u064a", "name:de": "Qaryat al Muaybidi", "name:en": "Qaryat al Muaybidi", "name:fr": "Qaryat al Muaybidi", "place": "village"}}, {"type": "node", "id": 2489278179, "lat": 35.1660098, "lon": 43.8720977, "tags": {"alt_name": "\u0642\u0631\u064a\u0629 \u0627\u0644\u0646\u0643\u0627\u0631", "int_name": "Qaryat an Nak\u0101r, \u0642\u0631\u064a\u0629 \u0627\u0644\u0646\u0643\u0627\u0631, Qaryat an Nakar, \u0642\u0631\u064a\u0629 \u0627\u0644\u0646\u0643\u0627\u0631", "name": "\u0646\u0643\u0627\u0631", "name:ar": "\u0646\u0643\u0627\u0631", "name:ar1": "\u0642\u0631\u064a\u0629 \u0627\u0644\u0646\u0643\u0627\u0631", "name:ckb": "\u0646\u06d5\u06a9\u0627\u0631", "name:de": "Nakar", "name:en": "Nakar", "name:fr": "Nakar", "place": "village"}}, {"type": "node", "id": 2489278212, "lat": 35.0868549, "lon": 43.8691804, "tags": {"alt_name": "\u0642\u0631\u064a\u0629 \u0627\u0644\u062a\u0637\u0648\u0649", "int_name": "Qaryat at Ta\u0163w\u00e1, \u0642\u0631\u064a\u0629 \u0627\u0644\u062a\u0637\u0648\u0649, Qaryat at Tatwa, \u0642\u0631\u064a\u0629 \u0627\u0644\u062a\u0637\u0648\u0649", "name": "\u062a\u0637\u0648\u0649", "name:ar": "\u062a\u0637\u0648\u0649", "name:ar1": "\u0642\u0631\u064a\u0629 \u0627\u0644\u062a\u0637\u0648\u0649", "name:ckb": "\u062a\u06d5\u062a\u0648\u0627", "name:de": "Tatwa", "name:en": "Tatwa", "name:fr": "Tatwa", "place": "village"}}, {"type": "node", "id": 2489321627, "lat": 35.1962885, "lon": 44.0065721, "tags": {"alt_name": "\u0643\u0631\u062d\u0629 \u063a\u0627\u0632\u0627\u0646", "int_name": "Gar\u1e29at Gh\u0101z\u0101n, \u06af\u0631\u062d\u0629 \u063a\u0627\u0632\u0627\u0646, Garhat Ghazan, \u06af\u0631\u062d\u0629 \u063a\u0627\u0632\u0627\u0646", "name": "\u0643\u0631\u062d\u0629 \u063a\u0632\u0627\u0646", "name:ar": "\u0643\u0631\u062d\u0629 \u063a\u0632\u0627\u0646", "name:ar1": "\u0643\u0631\u062d\u0629 \u063a\u0627\u0632\u0627\u0646", "name:ckb": "\u06af\u06d5\u0631\u062d\u06d5\u06cc \u062e\u0627\u0632\u0627\u0646", "name:de": "Garhat Ghazan", "name:en": "Garhat Ghazan", "name:fr": "Garhat Ghazan", "place": "village"}}, {"type": "node", "id": 2489321685, "lat": 35.1235491, "lon": 43.9320368, "tags": {"alt_name": "\u062c\u0647\u0645\u0627\u0648\u064a\u0629", "int_name": "Jahm\u0101w\u012byah, \u062c\u0647\u0645\u0627\u0648\u064a\u0629, Jahmawiyah, \u062c\u0647\u0645\u0627\u0648\u064a\u0629", "name": "\u062c\u0647\u0645\u0627\u0648\u064a\u0629", "name:ar": "\u062c\u0647\u0645\u0627\u0648\u064a\u0629", "name:ar1": "\u062c\u0647\u0645\u0627\u0648\u064a\u0629", "name:ckb": "\u062c\u06d5\u0647\u0645\u0627\u0648\u06cc\u06d5", "name:de": "Jahmawiyah", "name:en": "Jahmawiyah", "name:fr": "Jahmawiyah", "place": "village"}}, {"type": "node", "id": 2489321696, "lat": 34.9599173, "lon": 43.9588362, "tags": {"alt_name": "\u062e\u0627\u0646 \u0645\u0645\u0644\u062d\u0629 \u062e\u0644\u064a\u0641\u0629", "int_name": "Kh\u0101n Mamlaha, Kh\u0101n Mamlaha Khal\u012bfa, Kh\u0101n Mamla\u1e29ah, Khan Mamlaha, Khan Mamlaha Khalifa, Khan Mamlahah", "name": "\u062e\u0627\u0646 \u0645\u0645\u0644\u062d\u0629 \u062e\u0644\u064a\u0641\u0629", "name:ar": "\u062e\u0627\u0646 \u0645\u0645\u0644\u062d\u0629 \u062e\u0644\u064a\u0641\u0629", "name:ar1": "\u062e\u0627\u0646 \u0645\u0645\u0644\u062d\u0629 \u062e\u0644\u064a\u0641\u0629", "name:ckb": "\u062e\u0627\u0646 \u0645\u06d5\u0645\u0644\u06d5\u062d\u06d5\u06cc \u062e\u06d5\u0644\u06cc\u0641\u06d5", "name:de": "Khan Mamlaha", "name:en": "Khan Mamlaha", "name:fr": "Khan Mamlaha", "place": "village"}}, {"type": "node", "id": 2489321841, "lat": 35.0904496, "lon": 43.9738493, "tags": {"alt_name": "\u0642\u0631\u064a\u0629 \u062c\u062f\u064a\u062f\u0629", "int_name": "Qaryat Jad\u012bdah, \u0642\u0631\u064a\u0629 \u062c\u062f\u064a\u062f\u0629, Qaryat Jadidah, \u0642\u0631\u064a\u0629 \u062c\u062f\u064a\u062f\u0629", "name": "\u062c\u062f\u064a\u062f\u0629", "name:ar": "\u062c\u062f\u064a\u062f\u0629", "name:ar1": "\u0642\u0631\u064a\u0629 \u062c\u062f\u064a\u062f\u0629", "name:ckb": "\u062c\u06d5\u062f\u06cc\u062f\u06d5", "name:de": "Jadidah", "name:en": "Jadidah", "name:fr": "Jadidah", "place": "village"}}, {"type": "node", "id": 2489321852, "lat": 35.1515047, "lon": 43.9683376, "tags": {"alt_name": "\u0642\u0631\u064a\u0629 \u0631\u0628\u064a\u0636 \u0623\u0628\u0648 \u062f\u0639\u0627\u062c", "int_name": "Qaryat Rab\u012b\u1e11 Ab\u016b Da\u0101j, \u0642\u0631\u064a\u0629 \u0631\u0628\u064a\u0636 \u0627\u0628\u0648 \u062f\u0639\u0627\u062c, Qaryat Rabid Abu Daaj, \u0642\u0631\u064a\u0629 \u0631\u0628\u064a\u0636 \u0627\u0628\u0648 \u062f\u0639\u0627\u062c", "name": "\u0631\u0628\u064a\u0636 \u0623\u0628\u0648 \u062f\u0639\u0627\u062c", "name:ar": "\u0631\u0628\u064a\u0636 \u0623\u0628\u0648 \u062f\u0639\u0627\u062c", "name:ar1": "\u0642\u0631\u064a\u0629 \u0631\u0628\u064a\u0636 \u0623\u0628\u0648 \u062f\u0639\u0627\u062c", "name:ckb": "\u0695\u06d5\u0628\u06cc\u0632 \u0626\u06d5\u0628\u0648\u062f\u06d5\u0639\u0627\u062c", "name:de": "Rabid Abu Daaj", "name:en": "Rabid Abu Daaj", "name:fr": "Rabid Abu Daaj", "place": "village"}}, {"type": "node", "id": 2489321881, "lat": 34.9862239, "lon": 43.9256627, "tags": {"alt_name": "\u0642\u0631\u064a\u0629 \u0627\u0644\u062d\u0645\u0644", "int_name": "Qaryat al \u1e28aml, \u0642\u0631\u064a\u0629 \u0627\u0644\u062d\u0645\u0644, Qaryat al Haml, \u0642\u0631\u064a\u0629 \u0627\u0644\u062d\u0645\u0644", "name": "\u062d\u0645\u0644", "name:ar": "\u062d\u0645\u0644", "name:ar1": "\u0642\u0631\u064a\u0629 \u0627\u0644\u062d\u0645\u0644", "name:ckb": "\u062d\u06d5\u0645\u0644", "name:de": "Haml", "name:en": "Haml", "name:fr": "Haml", "place": "village"}}, {"type": "node", "id": 2489321883, "lat": 35.1667984, "lon": 43.9360405, "tags": {"alt_name": "\u0642\u0631\u064a\u0629 \u0627\u0644\u062d\u0645\u0631\u0627\u0646\u064a\u0629", "int_name": "Qaryat al \u1e28amr\u0101n\u012byah, \u0642\u0631\u064a\u0629 \u0627\u0644\u062d\u0645\u0631\u0627\u0646\u064a\u0629, Qaryat al Hamraniyah, \u0642\u0631\u064a\u0629 \u0627\u0644\u062d\u0645\u0631\u0627\u0646\u064a\u0629", "name": "\u062d\u0645\u0631\u0627\u0646\u064a\u0629", "name:ar": "\u062d\u0645\u0631\u0627\u0646\u064a\u0629", "name:ar1": "\u0642\u0631\u064a\u0629 \u0627\u0644\u062d\u0645\u0631\u0627\u0646\u064a\u0629", "name:ckb": "\u062d\u06d5\u0645\u0631\u0627\u0646\u06cc\u06d5", "name:de": "Hamraniyah", "name:en": "Hamraniyah", "name:fr": "Hamraniyah", "place": "village"}}, {"type": "node", "id": 2489321885, "lat": 35.201469, "lon": 43.929194, "tags": {"alt_name": "\u0642\u0631\u064a\u0629 \u0627\u0644\u0647\u0627\u0634\u0645\u064a\u0629", "int_name": "Qaryat al H\u0101shim\u012byah, \u0642\u0631\u064a\u0629 \u0627\u0644\u0647\u0627\u0634\u0645\u064a\u0629, Qaryat al Hashimiyah, \u0642\u0631\u064a\u0629 \u0627\u0644\u0647\u0627\u0634\u0645\u064a\u0629", "name": "\u0647\u0627\u0634\u0645\u064a\u0629", "name:ar": "\u0647\u0627\u0634\u0645\u064a\u0629", "name:ar1": "\u0642\u0631\u064a\u0629 \u0627\u0644\u0647\u0627\u0634\u0645\u064a\u0629", "name:ckb": "\u0647\u0627\u0634\u0645\u06cc\u06d5", "name:de": "Hashimiyah", "name:en": "Hashimiyah", "name:fr": "Hashimiyah", "place": "village"}}, {"type": "node", "id": 2489321887, "lat": 35.037459, "lon": 43.9712737, "tags": {"alt_name": "\u0642\u0631\u064a\u0629 \u0627\u0644\u0643\u0628\u0629", "int_name": "Qaryat al Kabbah, \u0642\u0631\u064a\u0629 \u0627\u0644\u0643\u0628\u0629, Qaryat al Kabbah, \u0642\u0631\u064a\u0629 \u0627\u0644\u0643\u0628\u0629", "name": "\u0643\u0628\u0629", "name:ar": "\u0643\u0628\u0629", "name:ar1": "\u0642\u0631\u064a\u0629 \u0627\u0644\u0643\u0628\u0629", "name:ckb": "\u06a9\u0648\u0628\u0628\u06d5", "name:de": "Kabbah", "name:en": "Kabbah", "name:fr": "Kabbah", "place": "village"}}, {"type": "node", "id": 2489321890, "lat": 34.9139521, "lon": 43.9838251, "tags": {"alt_name": "\u0642\u0631\u064a\u0629 \u0627\u0644\u0631\u0645\u0644", "int_name": "Qaryat ar Raml, Ramal, Ramel, Raml, \u0642\u0631\u064a\u0629 \u0627\u0644\u0631\u0645\u0644, Qaryat ar Raml, Ramal, Ramel, Raml, \u0642\u0631\u064a\u0629 \u0627\u0644\u0631\u0645\u0644", "name": "\u0631\u0645\u0644", "name:ar": "\u0631\u0645\u0644", "name:ar1": "\u0642\u0631\u064a\u0629 \u0627\u0644\u0631\u0645\u0644", "name:ckb": "\u0695\u06d5\u0645\u0644", "name:de": "Raml", "name:en": "Raml", "name:fr": "Raml", "place": "village"}}, {"type": "node", "id": 2489321892, "lat": 35.0930353, "lon": 43.9411118, "tags": {"alt_name": "\u0642\u0631\u064a\u0629 \u0627\u0644\u0631\u0634 \u0627\u0644\u0639\u0644\u064a\u0627", "int_name": "Qaryat ar Rash al Uly\u0101, \u0642\u0631\u064a\u0629 \u0627\u0644\u0631\u0634 \u0627\u0644\u0639\u0644\u064a\u0627, Qaryat ar Rash al Ulya, \u0642\u0631\u064a\u0629 \u0627\u0644\u0631\u0634 \u0627\u0644\u0639\u0644\u064a\u0627", "name": "\u0631\u0634 \u0627\u0644\u0639\u0644\u064a\u0627", "name:ar": "\u0631\u0634 \u0627\u0644\u0639\u0644\u064a\u0627", "name:ar1": "\u0642\u0631\u064a\u0629 \u0627\u0644\u0631\u0634 \u0627\u0644\u0639\u0644\u064a\u0627", "name:ckb": "\u0695\u06d5\u0634\u06cc \u0633\u06d5\u0631\u0648\u0648", "name:de": "Rash al Ulya", "name:en": "Rash al Ulya", "name:fr": "Rash al Ulya", "place": "village"}}, {"type": "node", "id": 2489321893, "lat": 35.0580069, "lon": 43.9375708, "tags": {"alt_name": "\u0642\u0631\u064a\u0629 \u0627\u0644\u0631\u0634 \u0627\u0644\u0633\u0641\u0644\u0649", "int_name": "Qaryat ar Rash as Sufl\u00e1, \u0642\u0631\u064a\u0629 \u0627\u0644\u0631\u0634 \u0627\u0644\u0633\u0641\u0644\u0649, Qaryat ar Rash as Sufla, \u0642\u0631\u064a\u0629 \u0627\u0644\u0631\u0634 \u0627\u0644\u0633\u0641\u0644\u0649", "name": "\u0631\u0634 \u0627\u0644\u0633\u0641\u0644\u0649", "name:ar": "\u0631\u0634 \u0627\u0644\u0633\u0641\u0644\u0649", "name:ar1": "\u0642\u0631\u064a\u0629 \u0627\u0644\u0631\u0634 \u0627\u0644\u0633\u0641\u0644\u0649", "name:ckb": "\u0695\u06d5\u0634\u06cc \u062e\u0648\u0627\u0631\u0648\u0648", "name:de": "Rash as Sufla", "name:en": "Rash as Sufla", "name:fr": "Rash as Sufla", "place": "village"}}, {"type": "node", "id": 2921695774, "lat": 34.9607923, "lon": 43.4928337}, {"type": "node", "id": 2921695775, "lat": 34.9767558, "lon": 43.5018373}, {"type": "node", "id": 2921695777, "lat": 34.9690571, "lon": 43.5000434}, {"type": "node", "id": 2921695778, "lat": 34.9665953, "lon": 43.4912243}, {"type": "node", "id": 2921695779, "lat": 34.9860061, "lon": 43.5121885}, {"type": "node", "id": 2921695780, "lat": 34.9616716, "lon": 43.4879413}, {"type": "node", "id": 2921695782, "lat": 34.9750178, "lon": 43.5090127}, {"type": "node", "id": 2921695783, "lat": 34.9590513, "lon": 43.4981981}, {"type": "node", "id": 2921695785, "lat": 34.9691626, "lon": 43.4889713}, {"type": "node", "id": 2921695788, "lat": 34.9733298, "lon": 43.496696}, {"type": "node", "id": 2921695789, "lat": 34.9594734, "lon": 43.4920183}, {"type": "node", "id": 2921695791, "lat": 34.9788348, "lon": 43.5192631}, {"type": "node", "id": 2921695793, "lat": 34.9807042, "lon": 43.5234854}, {"type": "node", "id": 2921695794, "lat": 34.9949363, "lon": 43.5255352}, {"type": "node", "id": 2921695795, "lat": 34.9847754, "lon": 43.5275736}, {"type": "node", "id": 2921695797, "lat": 34.9949363, "lon": 43.5230675}, {"type": "node", "id": 2921695799, "lat": 34.9591392, "lon": 43.4891429}, {"type": "node", "id": 2921725801, "lat": 34.9778283, "lon": 43.4984255}, {"type": "node", "id": 2921725802, "lat": 34.9943008, "lon": 43.5211063}, {"type": "node", "id": 2921725804, "lat": 34.9768287, "lon": 43.4966102}, {"type": "node", "id": 2921725805, "lat": 34.9654699, "lon": 43.4974471}, {"type": "node", "id": 2921725807, "lat": 34.9600511, "lon": 43.4946919}, {"type": "node", "id": 2921725808, "lat": 34.9781632, "lon": 43.5151486}, {"type": "node", "id": 2921725811, "lat": 34.9817516, "lon": 43.5081115}, {"type": "node", "id": 2921725812, "lat": 34.9721869, "lon": 43.5055795}, {"type": "node", "id": 2921959047, "lat": 35.01369, "lon": 43.5663476}, {"type": "node", "id": 2921959048, "lat": 35.0140415, "lon": 43.557314}, {"type": "node", "id": 2921959051, "lat": 35.0155502, "lon": 43.5612965}, {"type": "node", "id": 2921959054, "lat": 35.015219, "lon": 43.5596743}, {"type": "node", "id": 2921959064, "lat": 35.0156935, "lon": 43.5557476}, {"type": "node", "id": 2921959067, "lat": 35.0113175, "lon": 43.5595885}, {"type": "node", "id": 2921959070, "lat": 35.010386, "lon": 43.5622921}, {"type": "node", "id": 2921959073, "lat": 35.0148148, "lon": 43.5558978}, {"type": "node", "id": 2921959076, "lat": 35.0084825, "lon": 43.5619135}, {"type": "node", "id": 2921959079, "lat": 35.0157787, "lon": 43.5585928}, {"type": "node", "id": 2921982313, "lat": 34.9768287, "lon": 43.5114503}, {"type": "node", "id": 2930625731, "lat": 34.9898898, "lon": 43.5658296}, {"type": "node", "id": 2930625732, "lat": 34.9869725, "lon": 43.5726778}, {"type": "node", "id": 2930625733, "lat": 34.9846519, "lon": 43.561155}, {"type": "node", "id": 2930625734, "lat": 34.9888174, "lon": 43.5660656}, {"type": "node", "id": 2930625735, "lat": 34.9837729, "lon": 43.5623996}, {"type": "node", "id": 2930625736, "lat": 34.9831927, "lon": 43.5717337}, {"type": "node", "id": 2930625737, "lat": 34.9846167, "lon": 43.5640518}, {"type": "node", "id": 2930625738, "lat": 34.9831927, "lon": 43.5677425}, {"type": "node", "id": 2930625739, "lat": 34.9900665, "lon": 43.5671632}, {"type": "node", "id": 2930625740, "lat": 34.9886425, "lon": 43.5688154}, {"type": "node", "id": 2930625741, "lat": 34.9873592, "lon": 43.5653178}, {"type": "node", "id": 2940208453, "lat": 34.8185355, "lon": 43.5264153}, {"type": "node", "id": 2940208455, "lat": 34.8260643, "lon": 43.5301065}, {"type": "node", "id": 2940208457, "lat": 34.8217416, "lon": 43.5160942}, {"type": "node", "id": 2940208466, "lat": 34.8516469, "lon": 43.5095925}, {"type": "node", "id": 2940208476, "lat": 34.847632, "lon": 43.5009236}, {"type": "node", "id": 2940208481, "lat": 34.8322573, "lon": 43.5305995}, {"type": "node", "id": 2940208486, "lat": 34.848502, "lon": 43.5003662}, {"type": "node", "id": 2940208491, "lat": 34.8180599, "lon": 43.5187978}, {"type": "node", "id": 3142850541, "lat": 34.9569401, "lon": 43.5036056}, {"type": "node", "id": 3142850542, "lat": 34.8994164, "lon": 43.4823922}, {"type": "node", "id": 3142850543, "lat": 34.9154267, "lon": 43.5064595}, {"type": "node", "id": 3142850544, "lat": 34.9015428, "lon": 43.4926193}, {"type": "node", "id": 3142850545, "lat": 34.8995542, "lon": 43.4928124}, {"type": "node", "id": 3142850546, "lat": 34.9354652, "lon": 43.5133045}, {"type": "node", "id": 3142850547, "lat": 34.8984103, "lon": 43.4871046}, {"type": "node", "id": 3142850548, "lat": 34.9486881, "lon": 43.4886657}, {"type": "node", "id": 3142850549, "lat": 34.9070115, "lon": 43.4691059}, {"type": "node", "id": 3142850550, "lat": 34.9212329, "lon": 43.5145061}, {"type": "node", "id": 3142850551, "lat": 34.9288507, "lon": 43.5162442}, {"type": "node", "id": 3142850552, "lat": 34.9440131, "lon": 43.5060947}, {"type": "node", "id": 3142850553, "lat": 34.9463172, "lon": 43.5058801}, {"type": "node", "id": 3142850554, "lat": 34.9574817, "lon": 43.493837}, {"type": "node", "id": 3142850556, "lat": 34.9152155, "lon": 43.501889}, {"type": "node", "id": 3142850557, "lat": 34.9016039, "lon": 43.4831308}, {"type": "node", "id": 3142850558, "lat": 34.9206875, "lon": 43.5118239}, {"type": "node", "id": 3142850561, "lat": 34.9102359, "lon": 43.4894006}, {"type": "node", "id": 3142850562, "lat": 34.953384, "lon": 43.4934078}, {"type": "node", "id": 3142850563, "lat": 34.9483223, "lon": 43.4926407}, {"type": "node", "id": 3142850564, "lat": 34.9381918, "lon": 43.5075753}, {"type": "node", "id": 3142850565, "lat": 34.916324, "lon": 43.4951084}, {"type": "node", "id": 3142850566, "lat": 34.917802, "lon": 43.5076825}, {"type": "node", "id": 3142850567, "lat": 34.9369604, "lon": 43.5110514}, {"type": "node", "id": 3142850568, "lat": 34.9509605, "lon": 43.4850018}, {"type": "node", "id": 3142850569, "lat": 34.9256313, "lon": 43.5148494}, {"type": "node", "id": 3142850570, "lat": 34.9128929, "lon": 43.4900014}, {"type": "node", "id": 3142850571, "lat": 34.9517695, "lon": 43.4793584}, {"type": "node", "id": 3142850572, "lat": 34.9579425, "lon": 43.4997861}, {"type": "node", "id": 3142850573, "lat": 34.9198605, "lon": 43.4715049}, {"type": "node", "id": 3142850574, "lat": 34.9059775, "lon": 43.4922974}, {"type": "node", "id": 3142850576, "lat": 34.9445548, "lon": 43.4756623}, {"type": "node", "id": 3142850577, "lat": 34.9165528, "lon": 43.4906022}, {"type": "node", "id": 3702945672, "lat": 34.9152438, "lon": 43.5025008}, {"type": "node", "id": 3702945673, "lat": 34.9153875, "lon": 43.5056119}, {"type": "node", "id": 3705022832, "lat": 34.8433175, "lon": 43.503992}, {"type": "node", "id": 3705022833, "lat": 34.8421904, "lon": 43.5034985}, {"type": "node", "id": 3705022834, "lat": 34.8426835, "lon": 43.504507}, {"type": "node", "id": 3705022835, "lat": 34.8301084, "lon": 43.5116524}, {"type": "node", "id": 3705022836, "lat": 34.8263391, "lon": 43.5139484}, {"type": "node", "id": 3705022837, "lat": 34.8219177, "lon": 43.5165233}, {"type": "node", "id": 3705022838, "lat": 34.8178485, "lon": 43.5173387}, {"type": "node", "id": 3705022839, "lat": 34.8187117, "lon": 43.5228748}, {"type": "node", "id": 3705022840, "lat": 34.8177076, "lon": 43.5284538}, {"type": "node", "id": 3705022841, "lat": 34.819751, "lon": 43.5299344}, {"type": "node", "id": 3705022842, "lat": 34.8218473, "lon": 43.5303635}, {"type": "node", "id": 3705022843, "lat": 34.8306545, "lon": 43.5276598}, {"type": "node", "id": 3705022844, "lat": 34.8302493, "lon": 43.5243768}, {"type": "node", "id": 3705022845, "lat": 34.8312533, "lon": 43.5247416}, {"type": "node", "id": 3705022846, "lat": 34.8317289, "lon": 43.5269732}, {"type": "node", "id": 3705022847, "lat": 34.8325038, "lon": 43.5262007}, {"type": "node", "id": 3705022848, "lat": 34.8325743, "lon": 43.5247201}, {"type": "node", "id": 3705022849, "lat": 34.8334902, "lon": 43.5237331}, {"type": "node", "id": 3705022850, "lat": 34.833543, "lon": 43.526587}, {"type": "node", "id": 3705022851, "lat": 34.8344765, "lon": 43.5313935}, {"type": "node", "id": 3705022852, "lat": 34.8361144, "lon": 43.529119}, {"type": "node", "id": 3705022853, "lat": 34.8353923, "lon": 43.5256214}, {"type": "node", "id": 3705022854, "lat": 34.8368013, "lon": 43.5266513}, {"type": "node", "id": 3705022855, "lat": 34.8387386, "lon": 43.5259003}, {"type": "node", "id": 3705022856, "lat": 34.8381574, "lon": 43.5240335}, {"type": "node", "id": 3705022857, "lat": 34.8369422, "lon": 43.5228748}, {"type": "node", "id": 3705022858, "lat": 34.836907, "lon": 43.5210294}, {"type": "node", "id": 3705022859, "lat": 34.8395487, "lon": 43.5203213}, {"type": "node", "id": 3705022860, "lat": 34.8404117, "lon": 43.5170383}, {"type": "node", "id": 3705022861, "lat": 34.8420319, "lon": 43.5134334}, {"type": "node", "id": 3705022862, "lat": 34.8397777, "lon": 43.5123176}, {"type": "node", "id": 3705022863, "lat": 34.839901, "lon": 43.511116}, {"type": "node", "id": 3705022864, "lat": 34.8413627, "lon": 43.5111374}, {"type": "node", "id": 3705022865, "lat": 34.8425074, "lon": 43.5089702}, {"type": "node", "id": 3705022866, "lat": 34.8441276, "lon": 43.5088629}, {"type": "node", "id": 3705022867, "lat": 34.8444974, "lon": 43.5101289}, {"type": "node", "id": 3705022868, "lat": 34.8425955, "lon": 43.5125966}, {"type": "node", "id": 3705022869, "lat": 34.8440924, "lon": 43.5134334}, {"type": "node", "id": 3705022870, "lat": 34.8462761, "lon": 43.5109872}, {"type": "node", "id": 3705022871, "lat": 34.8464522, "lon": 43.5127253}, {"type": "node", "id": 3705022872, "lat": 34.847315, "lon": 43.5161371}, {"type": "node", "id": 3705022873, "lat": 34.8493225, "lon": 43.5170598}, {"type": "node", "id": 3705022874, "lat": 34.8499846, "lon": 43.5145509}, {"type": "node", "id": 3705022875, "lat": 34.8507405, "lon": 43.5121608}, {"type": "node", "id": 3705022876, "lat": 34.8509778, "lon": 43.5082192}, {"type": "node", "id": 3705022877, "lat": 34.8489351, "lon": 43.5088629}, {"type": "node", "id": 3705022878, "lat": 34.8475616, "lon": 43.5048718}, {"type": "node", "id": 3705022879, "lat": 34.8486358, "lon": 43.502254}, {"type": "node", "id": 3705022880, "lat": 34.8469628, "lon": 43.5036702}, {"type": "node", "id": 3706577947, "lat": 34.9831927, "lon": 43.5682721}, {"type": "node", "id": 3706577948, "lat": 34.9832713, "lon": 43.5675387}, {"type": "node", "id": 3706584630, "lat": 34.956689, "lon": 43.5039213}, {"type": "node", "id": 3725813446, "lat": 34.8261018, "lon": 43.5140866}, {"type": "node", "id": 3725819549, "lat": 34.8222621, "lon": 43.5163227}, {"type": "node", "id": 3725819550, "lat": 34.8230959, "lon": 43.5158372}, {"type": "node", "id": 3725835939, "lat": 34.8228317, "lon": 43.515991}, {"type": "node", "id": 3969361340, "lat": 35.0096009, "lon": 43.5660388}, {"type": "node", "id": 4848349188, "lat": 34.8371954, "lon": 43.5168672, "tags": {"name": "\u0642\u0631\u064a\u0629 \u0627\u0644\u062d\u062c\u0627\u062c", "place": "village"}}, {"type": "node", "id": 8721020842, "lat": 35.0116473, "lon": 43.5684286}, {"type": "node", "id": 8721020843, "lat": 35.0115363, "lon": 43.5682301}, {"type": "node", "id": 8721020844, "lat": 35.0114462, "lon": 43.5680839}, {"type": "node", "id": 8721020845, "lat": 35.0113518, "lon": 43.5679431}, {"type": "node", "id": 8721020846, "lat": 35.0112551, "lon": 43.5678117}, {"type": "node", "id": 8721020847, "lat": 35.0110464, "lon": 43.5675341}, {"type": "node", "id": 8721020848, "lat": 35.0109366, "lon": 43.5673919}, {"type": "node", "id": 8721020849, "lat": 35.0108564, "lon": 43.5672793}, {"type": "node", "id": 8721020850, "lat": 35.0107663, "lon": 43.5671733}, {"type": "node", "id": 8721020851, "lat": 35.0106609, "lon": 43.567062}, {"type": "node", "id": 8721020852, "lat": 35.0105664, "lon": 43.5669614}, {"type": "node", "id": 8721020853, "lat": 35.01045, "lon": 43.5668394}, {"type": "node", "id": 8721020854, "lat": 35.010361, "lon": 43.5667361}, {"type": "node", "id": 8721020855, "lat": 35.0102852, "lon": 43.5666664}, {"type": "node", "id": 8721020856, "lat": 35.0102171, "lon": 43.5666087}, {"type": "node", "id": 8721020857, "lat": 35.0101402, "lon": 43.5665591}, {"type": "node", "id": 8721020858, "lat": 35.0100447, "lon": 43.5664867}, {"type": "node", "id": 8721020859, "lat": 35.0099744, "lon": 43.5664277}, {"type": "node", "id": 8721020860, "lat": 35.009892, "lon": 43.5663298}, {"type": "node", "id": 8721020861, "lat": 35.0098162, "lon": 43.5662319}, {"type": "node", "id": 8721020862, "lat": 35.0097459, "lon": 43.5661514}, {"type": "node", "id": 8721020863, "lat": 35.0096844, "lon": 43.5661004}, {"type": "node", "id": 8721020864, "lat": 35.0094559, "lon": 43.5659569}, {"type": "node", "id": 8721020865, "lat": 35.0093395, "lon": 43.5658872}, {"type": "node", "id": 8721020866, "lat": 35.0092516, "lon": 43.5658362}, {"type": "node", "id": 8721020867, "lat": 35.0091209, "lon": 43.5657826}, {"type": "node", "id": 8721020868, "lat": 35.009, "lon": 43.5657437}, {"type": "node", "id": 8721020869, "lat": 35.0088825, "lon": 43.5657196}, {"type": "node", "id": 8721020870, "lat": 35.0087419, "lon": 43.5657021}, {"type": "node", "id": 8721020871, "lat": 35.0085991, "lon": 43.5656713}, {"type": "node", "id": 8721020872, "lat": 35.0084607, "lon": 43.5656324}, {"type": "node", "id": 8721020873, "lat": 35.008274, "lon": 43.5655721}, {"type": "node", "id": 8721020874, "lat": 35.0081004, "lon": 43.5655332}, {"type": "node", "id": 8721020878, "lat": 35.0117626, "lon": 43.5686325}, {"type": "node", "id": 8721020879, "lat": 35.0079466, "lon": 43.565505}, {"type": "node", "id": 8721020881, "lat": 35.0111409, "lon": 43.5676561}, {"type": "node", "id": 10271230971, "lat": 35.1429755, "lon": 43.656717, "tags": {"name": "\u0639\u0644\u064a \u0633\u0644\u0637\u0627\u0646", "name:ckb": "\u0639\u06d5\u0644\u06cc \u0633\u0648\u06b5\u062a\u0627\u0646", "name:en": "Ali Sultaan", "place": "village"}}, {"type": "node", "id": 11413006015, "lat": 35.1909094, "lon": 43.6173415, "tags": {"name": "\u06a9\u06cc\u0635\u0648\u0645\u0629", "name:ckb": "\u06a9\u06d5\u06cc\u0633\u0648\u0645\u06d5", "name:en": "Kaisuma", "place": "village"}}, {"type": "node", "id": 11413247201, "lat": 35.1446787, "lon": 43.6747017, "tags": {"name": "\u0633\u0631\u0647\u06cc\u062f \u0627\u0644\u0645\u0637\u0631", "name:ckb": "\u0633\u06d5\u0631\u0647\u06cc\u062f \u0645\u06d5\u062a\u06d5\u0695", "name:en": "Sarhid Mattar", "place": "village"}}, {"type": "node", "id": 11413258508, "lat": 35.1632568, "lon": 43.6771373, "tags": {"name": "\u062d\u0633\u06cc\u0646 \u0646\u0639\u06cc\u0645", "name:ckb": "\u062d\u0633\u06ce\u0646 \u0646\u06d5\u0639\u06cc\u0645", "name:en": "Hussein Na\u00e0im", "place": "village"}}, {"type": "node", "id": 11413262568, "lat": 35.1671805, "lon": 43.6283964, "tags": {"name": "\u062a\u0644 \u0627\u0644\u0644\u062d\u0645", "name:ckb": "\u062a\u06d5\u0644 \u0644\u06d5\u062d\u0645", "name:en": "Tal Lahm", "place": "village"}}, {"type": "node", "id": 11413266766, "lat": 35.1986613, "lon": 43.6939582, "tags": {"name": "\u062f\u0627\u0648\u062f\u06cc\u0629", "name:ckb": "\u062f\u0627\u0648\u062f\u06cc\u06d5", "name:en": "Dawdya", "place": "village"}}, {"type": "node", "id": 11413301915, "lat": 35.1839144, "lon": 43.6818385, "tags": {"name": "\u06cc\u0627\u0633\u06cc\u0646 \u0645\u062d\u0645\u062f", "name:ckb": "\u06cc\u0627\u0633\u06cc\u0646 \u0645\u062d\u0645\u062f", "name:en": "Yassin Muhammad", "place": "village"}}, {"type": "node", "id": 11413324592, "lat": 35.1822218, "lon": 43.6615008, "tags": {"name": "\u062c\u0627\u0633\u0645\u06cc\u0629", "name:ckb": "\u062c\u0627\u0633\u0645\u06cc\u06d5", "name:en": "Jasmia", "place": "village"}}, {"type": "node", "id": 11413336606, "lat": 35.1859186, "lon": 43.7142136, "tags": {"name": "\u062a\u0628\u0629\u06a9\u0631\u0629", "name:ckb": "\u062a\u06d5\u067e\u06d5\u06a9\u0648\u0695\u06d5", "name:en": "Tappa Kura", "place": "village"}}, {"type": "node", "id": 11413356812, "lat": 35.169656, "lon": 43.6975407, "tags": {"name": "\u0645\u062c\u0648\u0644 \u0639\u0644\u064a\u062c", "name:ckb": "\u0645\u062c\u0648\u0644 \u0639\u0644\u064a\u062c", "name:en": "Majul Alij", "place": "village"}}, {"type": "node", "id": 11413357279, "lat": 35.1583858, "lon": 43.6981995, "tags": {"name": "\u0633\u0644\u0645\u0627\u0646 \u062d\u0645\u064a\u062f", "name:ckb": "\u0633\u06d5\u0644\u0645\u0627\u0646 \u062d\u06d5\u0645\u06cc\u062f", "name:en": "Salman Hamid", "place": "village"}}, {"type": "node", "id": 11416475838, "lat": 35.1990466, "lon": 43.9079759, "tags": {"name": "\u062c\u0648\u0627\u0644\u0629", "name:ar": "\u062c\u0648\u0627\u0644\u0629", "name:ckb": "\u062c\u06d5\u0648\u0627\u0644\u06d5", "name:en": "Jawalah", "place": "village"}}, {"type": "node", "id": 11423481320, "lat": 35.0027117, "lon": 43.8671154, "tags": {"name": "\u0633\u0627\u062f\u0629", "name:ar": "\u0633\u0627\u062f\u0629", "name:ckb": "\u0633\u0627\u062f\u06d5", "name:en": "Sada", "place": "village"}}, {"type": "node", "id": 11423563847, "lat": 35.0582394, "lon": 43.6935989, "tags": {"name": "\u0639\u0644\u064a \u0627\u0644\u0633\u0644\u0637\u0627\u0646", "name:ar": "\u0639\u0644\u064a \u0627\u0644\u0633\u0644\u0637\u0627\u0646", "name:ckb": "\u0639\u06d5\u0644\u06cc \u0633\u0648\u06b5\u062a\u0627\u0646", "name:en": "Ali Sultan", "place": "village"}}, {"type": "node", "id": 11423586873, "lat": 35.1096664, "lon": 43.6219951, "tags": {"name": "\u062a\u0644\u06cc\u0644", "name:ar": "\u062a\u0644\u06cc\u0644", "name:ckb": "\u062a\u0648\u0644\u06d5\u06cc\u0644", "name:en": "Tulail", "place": "village"}}, {"type": "node", "id": 11423587772, "lat": 35.0959563, "lon": 43.6262374, "tags": {"name": "\u06a9\u0646\u0639\u0627\u0646", "name:ar": "\u06a9\u0646\u0639\u0627\u0646", "name:ckb": "\u06a9\u06d5\u0646\u0639\u0627\u0646", "name:en": "Kan\u00e0an", "place": "village"}}, {"type": "node", "id": 11423593878, "lat": 35.0861527, "lon": 43.6388446, "tags": {"name": "\u062d\u0645\u062f \u062e\u0644\u0641", "name:ar": "\u062d\u0645\u062f \u062e\u0644\u0641", "name:ckb": "\u062d\u06d5\u0645\u06d5\u062f \u062e\u06d5\u06b5\u06d5\u0641", "name:en": "Hamad Khalaf", "place": "village"}}, {"type": "node", "id": 11425905777, "lat": 35.0859802, "lon": 44.0011254, "tags": {"name": "\u062a\u0644 \u0639\u06cc\u062f\u0629", "name:ar": "\u062a\u0644 \u0639\u06cc\u062f\u0629", "name:ckb": "\u062a\u06d5\u0644 \u0639\u06d5\u06cc\u062f\u06d5", "name:en": "Tal Aaida", "place": "village"}}, {"type": "way", "id": 288619028, "nodes": [2921695797, 2921695794, 2921695795, 2921695793, 2921695791, 2921725808, 2921982313, 2921695782, 2921725812, 2921695777, 2921725805, 2921695783, 2921725807, 2921695774, 2921695789, 2921695799, 2921695780, 2921695778, 2921695785, 2921695788, 2921725804, 2921725801, 2921695775, 2921725811, 2921695779, 2921725802, 2921695797], "tags": {"landuse": "residential", "name": "\u0627\u0644\u0628\u0648\u062c\u0648\u0627\u0631\u064a", "place": "town"}}, {"type": "way", "id": 288643675, "nodes": [2921959064, 2921959079, 2921959054, 2921959051, 2921959047, 8721020878, 8721020842, 8721020843, 8721020844, 8721020845, 8721020846, 8721020881, 8721020847, 8721020848, 8721020849, 8721020850, 8721020851, 8721020852, 8721020853, 8721020854, 8721020855, 8721020856, 8721020857, 8721020858, 8721020859, 8721020860, 8721020861, 8721020862, 8721020863, 3969361340, 8721020864, 8721020865, 8721020866, 8721020867, 8721020868, 8721020869, 8721020870, 8721020871, 8721020872, 8721020873, 8721020874, 8721020879, 2921959076, 2921959070, 2921959067, 2921959048, 2921959073, 2921959064], "tags": {"alt_name": "\u0642\u0631\u064a\u0629 \u0634\u0648\u064a\u0634", "int_name": "Qaryat Shaw\u012bsh, Saw\u0101w\u012bsh, S\u012bwash, \u0642\u0631\u064a\u0629 \u0634\u0648\u064a\u0634, Qaryat Shawish, Sawawish, Siwash, \u0642\u0631\u064a\u0629 \u0634\u0648\u064a\u0634", "landuse": "residential", "name": "\u0642\u0631\u064a\u0629 \u0634\u0648\u064a\u0634", "name:ar": "\u0642\u0631\u064a\u0629 \u0634\u0648\u064a\u0634", "name:ar1": "\u0642\u0631\u064a\u0629 \u0634\u0648\u064a\u0634", "name:de": "Qaryat Shawish", "name:en": "Qaryat Shawish", "name:fr": "Qaryat Shawish", "place": "village"}}, {"type": "way", "id": 289502243, "nodes": [2930625735, 2930625733, 2930625741, 2930625734, 2930625731, 2930625739, 2930625740, 2930625732, 2930625736, 3706577947, 2930625738, 3706577948, 2930625737, 2930625735], "tags": {"alt_name": "\u0642\u0631\u064a\u0629 \u0627\u0644\u0644\u0643\u0627\u0644\u0643", "int_name": "Qaryat al Lak\u0101lak, \u0642\u0631\u064a\u0629 \u0627\u0644\u0644\u0643\u0627\u0644\u0643, Qaryat al Lakalak, \u0642\u0631\u064a\u0629 \u0627\u0644\u0644\u0643\u0627\u0644\u0643", "landuse": "residential", "name": "\u0642\u0631\u064a\u0629 \u0627\u0644\u0644\u0643\u0627\u0644\u0643", "name:ar": "\u0642\u0631\u064a\u0629 \u0627\u0644\u0644\u0643\u0627\u0644\u0643", "name:ar1": "\u0642\u0631\u064a\u0629 \u0627\u0644\u0644\u0643\u0627\u0644\u0643", "name:de": "Qaryat al Lakalak", "name:en": "Qaryat al Lakalak", "name:fr": "Qaryat al Lakalak", "place": "village"}}, {"type": "way", "id": 290490114, "nodes": [2940208486, 3705022879, 3705022880, 3705022878, 3705022877, 3705022876, 2940208466, 3705022875, 3705022874, 3705022873, 3705022872, 3705022871, 3705022870, 3705022869, 3705022868, 3705022867, 3705022866, 3705022865, 3705022864, 3705022863, 3705022862, 3705022861, 3705022860, 3705022859, 3705022858, 3705022857, 3705022856, 3705022855, 3705022854, 3705022853, 3705022852, 3705022851, 2940208481, 3705022850, 3705022849, 3705022848, 3705022847, 3705022846, 3705022845, 3705022844, 3705022843, 2940208455, 3705022842, 3705022841, 3705022840, 2940208453, 3705022839, 2940208491, 3705022838, 2940208457, 3705022837, 3725819549, 3725835939, 3725819550, 3725813446, 3705022836, 3705022835, 3705022833, 3705022834, 3705022832, 2940208476, 2940208486], "tags": {"name": "\u0642\u0631\u064a\u0629 \u0627\u0644\u062d\u062c\u0627\u062c Qaryat al-Hajjaj", "place": "village"}}, {"type": "way", "id": 308988005, "nodes": [3142850571, 3142850568, 3142850548, 3142850563, 3142850562, 3142850554, 3142850572, 3142850541, 3706584630, 3142850553, 3142850552, 3142850564, 3142850567, 3142850546, 3142850551, 3142850569, 3142850550, 3142850558, 3142850566, 3142850543, 3702945673, 3702945672, 3142850556, 3142850565, 3142850577, 3142850570, 3142850561, 3142850574, 3142850544, 3142850545, 3142850547, 3142850542, 3142850557, 3142850549, 3142850573, 3142850576, 3142850571], "tags": {"name": "\u0628\u064a\u062c\u064a", "name:ar": "\u0628\u064a\u062c\u064a", "name:ckb": "\u0628\u06ce\u062c\u06cc", "place": "city"}}]}