{"version": 0.6, "generator": "Overpass API 0.7.61.5 4133829e", "osm3s": {"timestamp_osm_base": "2024-03-05T11:12:34Z", "copyright": "The data included in this document is from www.openstreetmap.org. The data is made available under ODbL."}, "elements": [{"type": "node", "id": 925866734, "lat": 5.8907019, "lon": 0.9844764, "tags": {"amenity": "bank", "atm": "no", "name": "Anlo Rural Bank"}}, {"type": "node", "id": 2365815123, "lat": 6.1905342, "lon": 1.1600496, "tags": {"amenity": "bank", "atm": "yes", "name": "FUCEC", "operator": "FUCEC"}}, {"type": "node", "id": 2435398458, "lat": 6.2312027, "lon": 1.2109424, "tags": {"amenity": "bank", "atm": "yes", "bic": "BSAHTGTG", "name": "Agence BSIC Ago\u00e8-Nyiv\u00e9", "opening_hours": "Mo-Fr 08:00-16:00", "operator": "Banque Sah\u00e9lo-Saharienne pour l'Investissement et le Commerce", "short_name": "BSIC", "source": "bing; survey"}}, {"type": "node", "id": 2435398461, "lat": 6.2309973, "lon": 1.2109467, "tags": {"amenity": "bank", "atm": "yes", "bic": "BPECTGTG", "name": "Sun Bank Ago\u00e8-Nyiv\u00e9", "opening_hours": "Mo-Fr 08:00-16:00", "operator": "Banque Populaire pour l'Epargne et le Cr\u00e9dit", "source": "bing; survey"}}, {"type": "node", "id": 2435398464, "lat": 6.225569, "lon": 1.2107864, "tags": {"amenity": "bank", "atm": "yes", "name": "FUCEC Ago\u00e8", "operator": "COOPEC-FUCEC TOGO", "source": "bing; survey"}}, {"type": "node", "id": 2453664710, "lat": 6.2341233, "lon": 1.2102566, "tags": {"amenity": "bank", "atm": "yes", "name": "Banque Atlantique d'Ago\u00e8-Nyiv\u00e9", "opening_hours": "Mo-Fr 08:00-16:00", "source": "bing"}}, {"type": "node", "id": 2468760801, "lat": 6.187099, "lon": 1.2097973}, {"type": "node", "id": 2468760802, "lat": 6.1871145, "lon": 1.2098233}, {"type": "node", "id": 2468760803, "lat": 6.1871171, "lon": 1.2097864}, {"type": "node", "id": 2468760806, "lat": 6.1871326, "lon": 1.2098124}, {"type": "node", "id": 2559806822, "lat": 6.1928704, "lon": 1.1906441, "tags": {"amenity": "bank", "atm": "yes", "name": "D\u00e9p\u00f4t Flooz", "operator": "Moov"}}, {"type": "node", "id": 2559882850, "lat": 6.1959568, "lon": 1.1881719, "tags": {"amenity": "bank", "atm": "yes", "name": "Fusec"}}, {"type": "node", "id": 2559882855, "lat": 6.1960284, "lon": 1.1880703, "tags": {"amenity": "bank", "atm": "yes", "name": "IBS-Togi Sorl"}}, {"type": "node", "id": 2559882863, "lat": 6.1959014, "lon": 1.1878442, "tags": {"amenity": "bank", "name": "JUMAU-TRANS"}}, {"type": "node", "id": 2631787059, "lat": 6.1266122, "lon": 1.2099158, "tags": {"amenity": "bank", "name": "Union Togolaise de Banques", "source": "Bing;survey"}}, {"type": "node", "id": 2657348745, "lat": 6.1967758, "lon": 1.188589, "tags": {"amenity": "bank", "name": "Wester Union", "source": "local_knowledge"}}, {"type": "node", "id": 2657353891, "lat": 6.1925677, "lon": 1.1904942, "tags": {"addr:city": "Lom\u00e9", "addr:street": "Avenue Pya", "amenity": "bank", "atm": "yes", "name": "Ecobank Agence Totsi", "operator": "Ecobank"}}, {"type": "node", "id": 2673846419, "lat": 6.123882, "lon": 1.2260994}, {"type": "node", "id": 2673846422, "lat": 6.1239699, "lon": 1.2262738}, {"type": "node", "id": 2673846425, "lat": 6.123998, "lon": 1.2260373}, {"type": "node", "id": 2673846427, "lat": 6.1240239, "lon": 1.2260113}, {"type": "node", "id": 2673846429, "lat": 6.124051, "lon": 1.2260012}, {"type": "node", "id": 2673846431, "lat": 6.1240751, "lon": 1.2262183}, {"type": "node", "id": 2673846433, "lat": 6.1240818, "lon": 1.2259955}, {"type": "node", "id": 2673846435, "lat": 6.1241374, "lon": 1.2263249}, {"type": "node", "id": 2673846437, "lat": 6.1241428, "lon": 1.2259663}, {"type": "node", "id": 2673846439, "lat": 6.1241686, "lon": 1.226281}, {"type": "node", "id": 2673846441, "lat": 6.1241695, "lon": 1.2262263}, {"type": "node", "id": 2673846443, "lat": 6.1241784, "lon": 1.2262989}, {"type": "node", "id": 2673846449, "lat": 6.1241927, "lon": 1.2262649}, {"type": "node", "id": 2673846458, "lat": 6.1242702, "lon": 1.2261623}, {"type": "node", "id": 2954209733, "lat": 6.1813246, "lon": 1.1710835, "tags": {"amenity": "bank", "name": "BTCI", "operator": "BTCI", "source": "Bing,Survey"}}, {"type": "node", "id": 3101663007, "lat": 6.1367559, "lon": 1.2112752, "tags": {"amenity": "bank", "atm": "yes", "name": "Ecobank", "source": "Survey"}}, {"type": "node", "id": 3139953666, "lat": 6.1352328, "lon": 1.2189265, "tags": {"addr:city": "Lom\u00e9", "addr:country": "TG", "addr:housenumber": "23", "addr:street": "Avenue Kleber Dadjo", "amenity": "bank", "name": "Banque Populaire pour l'\u00c9pargne et le Cr\u00e9dit", "old_name": "Caisse d'\u00c9pargne du Togo", "short_name": "BPEC"}}, {"type": "node", "id": 3139956973, "lat": 6.1361331, "lon": 1.2257518, "tags": {"addr:city": "Lom\u00e9", "addr:country": "TG", "addr:housenumber": "23", "addr:street": "Avenue Kleber Dadjo", "amenity": "bank", "atm": "yes", "name": "Banque Togolaise pour le Commerce et l'Industrie (BTCI)", "short_name": "BTCI"}}, {"type": "node", "id": 3187631071, "lat": 6.2171125, "lon": 1.2093288}, {"type": "node", "id": 3187631072, "lat": 6.2170318, "lon": 1.2093165}, {"type": "node", "id": 3187631073, "lat": 6.2170192, "lon": 1.2093998}, {"type": "node", "id": 3187631074, "lat": 6.2170998, "lon": 1.2094122}, {"type": "node", "id": 3188482430, "lat": 6.1178297, "lon": 1.1900085, "tags": {"addr:city": "Aflao", "addr:country": "GH", "addr:region": "Volta", "addr:street": "N1", "alt_name": "Ecobank - Aflao Branch", "amenity": "bank", "atm": "yes", "branch": "Aflao", "brand": "Ecobank", "brand:wikidata": "Q930225", "brand:wikipedia": "en:Ecobank", "contact:facebook": "EcobankGhanaPLC", "contact:instagram": "ecobankghanaplc", "contact:linkedin": "ecobankghanaplc", "contact:twitter": "EcobankGhanaPLC", "contact:youtube": "ecobanktv", "email": "ecobankenquiries@ecobank.com", "facebook": "https://www.facebook.com/EcobankGhanaPLC/", "name": "Ecobank", "opening_hours": "Mo-Fr 08:30-16:00; Sa 09:00-14:00; PH off", "operator": "Ecobank Ghana PLC", "operator:type": "public", "operator:wikidata": "Q5333155", "operator:wikipedia": "en:Ecobank Ghana", "phone": "+233 36 253 0890;+233 30 709 8380", "website": "https://ecobank.com/gh/personal-banking"}}, {"type": "node", "id": 3188482432, "lat": 6.1122437, "lon": 1.1981221, "tags": {"amenity": "bank", "atm": "yes", "branch": "Aflao", "brand": "GT Bank", "brand:wikidata": "Q579747", "brand:wikipedia": "en:Guaranty Trust Holding Company PLC", "name": "GT Bank", "official_name": "Guaranty Trust Bank", "opening_hours": "Mo-Fr 08:00-16:30", "operator": "Guaranty Trust Bank Ghana Limited"}}, {"type": "node", "id": 3188482439, "lat": 6.1122234, "lon": 1.1972476, "tags": {"alt_name": "UBA", "amenity": "bank", "atm": "yes", "branch": "Aflao", "name": "UBA", "official_name": "United Bank of Africa", "opening_hours": "Mo-Fr 08:00-16:00"}}, {"type": "node", "id": 3210774172, "lat": 6.1628554, "lon": 1.2132442}, {"type": "node", "id": 3210774176, "lat": 6.1628674, "lon": 1.213296}, {"type": "node", "id": 3210774179, "lat": 6.163004, "lon": 1.2132094}, {"type": "node", "id": 3210774180, "lat": 6.163016, "lon": 1.2132613}, {"type": "node", "id": 3262788633, "lat": 6.1191256, "lon": 1.1780928, "tags": {"amenity": "bank", "name": "Unity Rural Bank", "source": "site visit; Bing"}}, {"type": "node", "id": 3287015761, "lat": 6.1707677, "lon": 1.2232092}, {"type": "node", "id": 3287015762, "lat": 6.1707148, "lon": 1.2231804}, {"type": "node", "id": 3287015763, "lat": 6.1706476, "lon": 1.2233055}, {"type": "node", "id": 3287015764, "lat": 6.1707006, "lon": 1.2233343}, {"type": "node", "id": 3292288007, "lat": 6.2113976, "lon": 1.1770989, "tags": {"amenity": "bank", "atm": "yes", "name": "Mutuelle ASJD"}}, {"type": "node", "id": 3299531791, "lat": 6.1690397, "lon": 1.2144081}, {"type": "node", "id": 3299531792, "lat": 6.1691888, "lon": 1.2144099}, {"type": "node", "id": 3299531793, "lat": 6.1691893, "lon": 1.214259}, {"type": "node", "id": 3299531794, "lat": 6.1691424, "lon": 1.2142588}, {"type": "node", "id": 3299531795, "lat": 6.1691424, "lon": 1.2142427}, {"type": "node", "id": 3299531796, "lat": 6.1690943, "lon": 1.2142425}, {"type": "node", "id": 3299531797, "lat": 6.1690943, "lon": 1.2142594}, {"type": "node", "id": 3299531798, "lat": 6.1690409, "lon": 1.2142592}, {"type": "node", "id": 3299531799, "lat": 6.1690408, "lon": 1.2142879}, {"type": "node", "id": 3299531800, "lat": 6.1690283, "lon": 1.2142879}, {"type": "node", "id": 3299531801, "lat": 6.1690282, "lon": 1.2143157}, {"type": "node", "id": 3299531802, "lat": 6.1690112, "lon": 1.2143157}, {"type": "node", "id": 3299531803, "lat": 6.1690112, "lon": 1.2143432}, {"type": "node", "id": 3299531804, "lat": 6.1690399, "lon": 1.2143433}, {"type": "node", "id": 3299536182, "lat": 6.1690905, "lon": 1.2144083}, {"type": "node", "id": 3299536183, "lat": 6.1690905, "lon": 1.2143956}, {"type": "node", "id": 3299536184, "lat": 6.1691214, "lon": 1.2143957}, {"type": "node", "id": 3299536185, "lat": 6.1691213, "lon": 1.2144097}, {"type": "node", "id": 3299541336, "lat": 6.1690205, "lon": 1.2143157}, {"type": "node", "id": 3299543320, "lat": 6.1690231, "lon": 1.2143432}, {"type": "node", "id": 3299543321, "lat": 6.1690112, "lon": 1.2143304}, {"type": "node", "id": 3299543325, "lat": 6.1691891, "lon": 1.2143323}, {"type": "node", "id": 3299556299, "lat": 6.1691046, "lon": 1.2143956, "tags": {"entrance": "yes"}}, {"type": "node", "id": 3303346296, "lat": 5.9206898, "lon": 0.9921131, "tags": {"amenity": "bank", "atm": "yes", "brand": "GCB Bank", "brand:wikidata": "Q1521346", "brand:wikipedia": "en:GCB Bank", "name": "GCB Bank", "source": "bing; local knowledge"}}, {"type": "node", "id": 3488186445, "lat": 6.1853331, "lon": 1.166518, "tags": {"amenity": "bank", "atm": "yes", "name": "BSIC", "operator": "BSIC", "source": "Bing,Survey"}}, {"type": "node", "id": 3488186446, "lat": 6.1853097, "lon": 1.1659506, "tags": {"amenity": "bank", "atm": "yes", "name": "Banque Populaire d'\u00e9pargne et de cr\u00e9dit (BPEC)", "source": "Bing,Survey"}}, {"type": "node", "id": 3595536893, "lat": 6.1690943, "lon": 1.2143755, "tags": {"amenity": "bank", "brand": "Ecobank", "brand:wikidata": "Q930225", "brand:wikipedia": "en:Ecobank", "name": "Ecobank", "opening_hours": "Mo-Fr 08:00-17:30", "wheelchair": "yes", "wheelchair:description": "Ecobank UL"}}, {"type": "node", "id": 3642932853, "lat": 6.1047353, "lon": 1.1518824, "tags": {"addr:street": "J.E.A Mills High Street", "amenity": "bank", "level": "0", "name": "Avenor Rural Bank Limited", "opening_hours": "Mo-Fr 08:30-16:00"}}, {"type": "node", "id": 3779998658, "lat": 6.1237471, "lon": 1.2249305, "tags": {"amenity": "bank", "atm": "yes", "name": "Orabank Bank"}}, {"type": "node", "id": 3811339966, "lat": 6.1489906, "lon": 1.201508, "tags": {"amenity": "bank", "atm": "yes", "name": "Orabank"}}, {"type": "node", "id": 3811807576, "lat": 6.1684563, "lon": 1.2241021, "tags": {"amenity": "bank", "brand": "Banque Atlantique", "brand:wikidata": "Q2882890", "brand:wikipedia": "en:Atlantic Bank Group", "name": "Banque Atlantique"}}, {"type": "node", "id": 3822302139, "lat": 6.1510473, "lon": 1.2178538, "tags": {"amenity": "bank", "name": "BIA Togo"}}, {"type": "node", "id": 3822303336, "lat": 6.1491957, "lon": 1.218376, "tags": {"amenity": "bank", "name": "Soci\u00e9t\u00e9 G\u00e9n\u00e9rale du Togo"}}, {"type": "node", "id": 3830956305, "lat": 6.1632553, "lon": 1.2148853, "tags": {"amenity": "bank", "atm": "yes", "brand": "Banque Atlantique", "brand:wikidata": "Q2882890", "brand:wikipedia": "en:Atlantic Bank Group", "name": "Banque Atlantique", "note": "A c\u00f4t\u00e9 de la Boutique Las v\u00e9gas", "operator": "Priv\u00e9", "source": "Bing;survey"}}, {"type": "node", "id": 3842353543, "lat": 6.1355298, "lon": 1.2304832, "tags": {"amenity": "bank", "name": "BSIC"}}, {"type": "node", "id": 3859947975, "lat": 6.1293185, "lon": 1.2215807, "tags": {"amenity": "bank", "name": "Ecobank Agence Assivito"}}, {"type": "node", "id": 3870442387, "lat": 6.1956408, "lon": 1.2085739, "tags": {"addr:city": "Lom\u00e9", "addr:postcode": "05 BP 941", "amenity": "bank", "atm": "no", "email": "mecit.togo@yahoo.fr", "name": "MECIT", "operator": "MUTUELLE D'EPARGNE ET DE CREDIT ISLAMIQUE DU TOGO", "phone": "+22822256077"}}, {"type": "node", "id": 3887277122, "lat": 6.1969673, "lon": 1.152423, "tags": {"amenity": "bank", "name": "Ecobank", "name:fr": "Ecobank Adidogom\u00e9 Madiba"}}, {"type": "node", "id": 3935743488, "lat": 6.1365794, "lon": 1.2280378, "tags": {"amenity": "bank", "name": "Diamond Banque"}}, {"type": "node", "id": 3997867047, "lat": 6.1935342, "lon": 1.208896, "tags": {"amenity": "bank", "name": "Orabank"}}, {"type": "node", "id": 4032800902, "lat": 6.2020532, "lon": 1.1812542, "tags": {"amenity": "bank", "atm": "yes", "name": "Orabank"}}, {"type": "node", "id": 4081276949, "lat": 6.1863326, "lon": 1.1649418, "tags": {"amenity": "bank", "name": "Banque Of Africa"}}, {"type": "node", "id": 4081278623, "lat": 6.1856822, "lon": 1.1656719, "tags": {"amenity": "bank", "name": "nagode Transfert"}}, {"type": "node", "id": 4109592394, "lat": 6.1702343, "lon": 1.1958737, "tags": {"amenity": "bank", "atm": "yes", "name": "Mythe Nevaeme microfinance"}}, {"type": "node", "id": 4148024134, "lat": 6.1757837, "lon": 1.181393, "tags": {"amenity": "bank", "atm": "yes", "name": "Atlantique Banque"}}, {"type": "node", "id": 4160292390, "lat": 6.197553, "lon": 1.2009035, "tags": {"amenity": "bank", "name": "BTCI"}}, {"type": "node", "id": 4519141243, "lat": 6.1913879, "lon": 1.2083177, "tags": {"amenity": "bank", "atm": "yes", "name": "Banque Atlantique"}}, {"type": "node", "id": 4553850489, "lat": 6.1492611, "lon": 1.2187606, "tags": {"amenity": "bank", "name": "ORABANK BLD DES ARM\u00c9ES", "name:fr": "ORABANK BLD DES ARM\u00c9ES"}}, {"type": "node", "id": 4601445374, "lat": 6.1974704, "lon": 1.2010938, "tags": {"amenity": "bank", "description": "mutuelle", "name": "Mutuelle ASJD agance Agbalepedo"}}, {"type": "node", "id": 4614447738, "lat": 6.1187132, "lon": 1.1890116, "tags": {"amenity": "bank", "name": "GN Bank"}}, {"type": "node", "id": 4614506951, "lat": 6.1136034, "lon": 1.199819, "tags": {"amenity": "bank", "name": "Union Togolaise de Banque"}}, {"type": "node", "id": 4623471469, "lat": 6.1164293, "lon": 1.1912883, "tags": {"amenity": "bank", "atm": "yes", "name": "ABii International"}}, {"type": "node", "id": 4686563269, "lat": 6.2511327, "lon": 1.1754228, "tags": {"amenity": "bank", "atm": "yes", "name": "Mutual Finance", "source": "survey", "source:date": "2017"}}, {"type": "node", "id": 4686727494, "lat": 6.1742714, "lon": 1.1907476, "tags": {"amenity": "bank", "atm": "yes", "name": "Agence FUCEC"}}, {"type": "node", "id": 4726906189, "lat": 6.1330954, "lon": 1.228264, "tags": {"amenity": "bank", "name:en": "BRS"}}, {"type": "node", "id": 4728168827, "lat": 6.1308084, "lon": 1.2240466, "tags": {"amenity": "bank", "name": "Bank of Africa"}}, {"type": "node", "id": 4759561233, "lat": 6.1190331, "lon": 1.2020996, "tags": {"amenity": "bank", "name": "COOPEC AD SIEGE", "name:fr": "COOPEC AD SIEGE"}}, {"type": "node", "id": 4762530534, "lat": 6.1190282, "lon": 1.2093022, "tags": {"amenity": "bank", "name": "CECA SI\u00c8GE", "name:fr": "CECA SI\u00c8GE"}}, {"type": "node", "id": 4902855575, "lat": 6.1259884, "lon": 1.2307692, "tags": {"amenity": "bank", "name": "Diamond Banque", "source": "survey", "source:date": "2017-05-17"}}, {"type": "node", "id": 5037445921, "lat": 6.2014413, "lon": 1.1475569, "tags": {"amenity": "bank", "name": "BTCI Adidogom\u00e9 Assiy\u00e9y\u00e9", "name:fr": "BTCI Adidogom\u00e9 Assiy\u00e9y\u00e9"}}, {"type": "node", "id": 5037446021, "lat": 6.2012264, "lon": 1.1483695, "tags": {"amenity": "bank", "name": "BSIC Adidogom\u00e9 Assiy\u00e9y\u00e9", "name:fr": "BSIC Adidogom\u00e9 Assiy\u00e9y\u00e9"}}, {"type": "node", "id": 5037446025, "lat": 6.2018023, "lon": 1.1480667, "tags": {"amenity": "bank", "name": "Orabank Adidogom\u00e9 Assiy\u00e9y\u00e9", "name:fr": "Orabank Adidogom\u00e9 Assiy\u00e9y\u00e9"}}, {"type": "node", "id": 5082048326, "lat": 6.1227866, "lon": 1.2242759, "tags": {"amenity": "bank", "name": "Bank of Africa", "name:fr": "BOA", "operator": "private"}}, {"type": "node", "id": 5096591926, "lat": 6.2052355, "lon": 1.1898973, "tags": {"amenity": "bank", "atm": "yes", "name": "SIAB"}}, {"type": "node", "id": 5101285124, "lat": 6.1288393, "lon": 1.2217435, "tags": {"amenity": "bank", "name": "Banque Atlantique", "name:fr": "Banque Atlantique"}}, {"type": "node", "id": 5168351059, "lat": 6.117717, "lon": 1.1901391, "tags": {"amenity": "bank", "name": "Agave Rural Bank", "source": "survey"}}, {"type": "node", "id": 5168351064, "lat": 6.117801, "lon": 1.1894497, "tags": {"amenity": "bank", "atm": "yes", "branch": "Aflao", "brand": "GCB Bank", "brand:wikidata": "Q1521346", "brand:wikipedia": "en:GCB Bank", "name": "GCB Bank", "opening_hours": "Mo-Fr 08:30-16:00"}}, {"type": "node", "id": 5310540551, "lat": 6.1716709, "lon": 1.2128116, "tags": {"amenity": "bank"}}, {"type": "node", "id": 5484968742, "lat": 6.1239306, "lon": 1.2244907, "tags": {"amenity": "bank", "name": "Banque Togolaise pour le Commerce et l'Industrie Agencr rue du commerce (BTCI)"}}, {"type": "node", "id": 5484970151, "lat": 6.12362, "lon": 1.2245937, "tags": {"amenity": "bank", "name": "Soci\u00e9t\u00e9 Inter-Africaine de Banque (SIAB)"}}, {"type": "node", "id": 5484978357, "lat": 6.1241333, "lon": 1.2253319, "tags": {"amenity": "bank", "name": "BIA-Togo"}}, {"type": "node", "id": 5484978361, "lat": 6.1244533, "lon": 1.2248166, "tags": {"amenity": "bank", "name": "BIA-Togo"}}, {"type": "node", "id": 5484985319, "lat": 6.1241182, "lon": 1.2260807, "tags": {"amenity": "bank", "name": "Ecobank Togo"}}, {"type": "node", "id": 5484989669, "lat": 6.12416, "lon": 1.224535, "tags": {"amenity": "bank", "name": "Coris Bank"}}, {"type": "node", "id": 5484997147, "lat": 6.124746, "lon": 1.2245236, "tags": {"amenity": "bank", "name": "Union Togolaise des Banques (UTB)"}}, {"type": "node", "id": 5485000692, "lat": 6.1288353, "lon": 1.2217722, "tags": {"amenity": "bank", "name": "Banque Atlantique"}}, {"type": "node", "id": 5485023723, "lat": 6.1308568, "lon": 1.2224194, "tags": {"amenity": "bank", "name": "Orabank"}}, {"type": "node", "id": 5490966635, "lat": 6.2073857, "lon": 1.1403527, "tags": {"amenity": "bank", "name": "Mutuelle ASJD"}}, {"type": "node", "id": 5491157735, "lat": 6.2036411, "lon": 1.165725, "tags": {"amenity": "bank", "name": "BTCI"}}, {"type": "node", "id": 5498894783, "lat": 6.1361967, "lon": 1.2298985, "tags": {"amenity": "bank", "brand": "Banque Atlantique", "brand:wikidata": "Q2882890", "brand:wikipedia": "en:Atlantic Bank Group", "name": "Banque Atlantique"}}, {"type": "node", "id": 5739025756, "lat": 6.149619, "lon": 1.2187627, "tags": {"amenity": "bank", "name": "Agence Orabank"}}, {"type": "node", "id": 5777233439, "lat": 6.1739046, "lon": 1.1845595, "tags": {"amenity": "bank", "name": "Union Togolaise de Banque (UTB)"}}, {"type": "node", "id": 5919827185, "lat": 6.1272473, "lon": 1.2125925}, {"type": "node", "id": 5928804501, "lat": 6.1733456, "lon": 1.1859986, "tags": {"amenity": "bank", "name": "NSIA Bank Adidogome", "opening_hours": "Mo-Fr 08:00-17:00; Sa 09:00-13:00"}}, {"type": "node", "id": 6125292260, "lat": 6.1274179, "lon": 1.2124836}, {"type": "node", "id": 6125292261, "lat": 6.1274336, "lon": 1.2125443}, {"type": "node", "id": 6125292262, "lat": 6.1274625, "lon": 1.2125364}, {"type": "node", "id": 6125292263, "lat": 6.1274724, "lon": 1.2125767}, {"type": "node", "id": 6125292264, "lat": 6.1274448, "lon": 1.2126334}, {"type": "node", "id": 6125292265, "lat": 6.1273969, "lon": 1.2126473}, {"type": "node", "id": 6125292266, "lat": 6.127391, "lon": 1.2126202}, {"type": "node", "id": 6125292267, "lat": 6.1273293, "lon": 1.2126374}, {"type": "node", "id": 6125292268, "lat": 6.1273372, "lon": 1.2126651}, {"type": "node", "id": 6125292269, "lat": 6.127284, "lon": 1.2126822}, {"type": "node", "id": 6125292270, "lat": 6.1272329, "lon": 1.2126453}, {"type": "node", "id": 6125292271, "lat": 6.1272217, "lon": 1.2126031}, {"type": "node", "id": 6125292272, "lat": 6.1272302, "lon": 1.2125357}, {"type": "node", "id": 6125292273, "lat": 6.127202, "lon": 1.2125437}, {"type": "node", "id": 6125292274, "lat": 6.1271935, "lon": 1.2124961}, {"type": "node", "id": 6125292275, "lat": 6.1272283, "lon": 1.2124433}, {"type": "node", "id": 6125292276, "lat": 6.1272709, "lon": 1.2124321}, {"type": "node", "id": 6125292277, "lat": 6.1272794, "lon": 1.2124552}, {"type": "node", "id": 6125292278, "lat": 6.1273378, "lon": 1.212442}, {"type": "node", "id": 6125292279, "lat": 6.1273339, "lon": 1.212413}, {"type": "node", "id": 6125292280, "lat": 6.1273759, "lon": 1.2124024}, {"type": "node", "id": 6125292281, "lat": 6.1274359, "lon": 1.2124381}, {"type": "node", "id": 6125292282, "lat": 6.1274441, "lon": 1.2124744}, {"type": "node", "id": 6189742059, "lat": 6.1465102, "lon": 1.2191546, "tags": {"amenity": "bank", "atm": "yes", "brand": "Ecobank", "brand:wikidata": "Q930225", "brand:wikipedia": "en:Ecobank", "drive_through": "no", "name": "Ecobank"}}, {"type": "node", "id": 6228891298, "lat": 6.1962702, "lon": 1.1876612, "tags": {"amenity": "bank", "name": "UTB agence de Totsi"}}, {"type": "node", "id": 6513304502, "lat": 6.1275819, "lon": 1.2247666, "tags": {"amenity": "bank", "name": "Agence Atlantique Banque"}}, {"type": "node", "id": 6516981354, "lat": 6.1813159, "lon": 1.1710946, "tags": {"amenity": "bank", "name": "Agence de la BTCI"}}, {"type": "node", "id": 6697004285, "lat": 6.1362741, "lon": 1.2244092, "tags": {"addr:street": "Boulevard du 13 Janvier", "amenity": "bank", "name": "Banque d'investissement et de d\u00e9veloppement de la CEDEAO", "name:en": "ECOWAS Bank for Investment and Development"}}, {"type": "node", "id": 6697004385, "lat": 6.1360425, "lon": 1.2232546, "tags": {"addr:postcode": "BP1172", "addr:street": "Avenue de la Lib\u00e9raton", "amenity": "bank", "name:en": "West African Development Bank", "name:fr": "Banque Ouest Africaine de D\u00e9veloppement"}}, {"type": "node", "id": 6697051985, "lat": 6.1362688, "lon": 1.2256056, "tags": {"addr:street": "Boulevard du 13 Janvier", "amenity": "bank", "name": "Banque Togolaise pour le Commerce et l'industrie au Togo (BTCI)"}}, {"type": "node", "id": 6698544486, "lat": 6.1430349, "lon": 1.2091479, "tags": {"amenity": "bank", "name": "UMECTO Tokoin"}}, {"type": "node", "id": 6805735257, "lat": 6.2257907, "lon": 1.1976366}, {"type": "node", "id": 6805735258, "lat": 6.2259087, "lon": 1.1976315}, {"type": "node", "id": 6805735259, "lat": 6.2259043, "lon": 1.1975274}, {"type": "node", "id": 6805735260, "lat": 6.2257863, "lon": 1.1975325}, {"type": "node", "id": 7245844385, "lat": 6.15831, "lon": 1.2157667, "tags": {"amenity": "bank", "email": "contactmifatg@mifa.tg", "name": "M\u00e9canisme Incitatif de Financement Agricole fond\u00e9 sur le partage de risques (MIFA S.A)", "website": "https://www.mifa.tg/"}}, {"type": "node", "id": 7525679922, "lat": 6.2089568, "lon": 1.1893914, "tags": {"amenity": "bank", "name": "Cori's Bank", "phone": "+22822208282", "website": "www.corisbank.tg"}}, {"type": "node", "id": 7580099899, "lat": 6.21806, "lon": 1.1694, "tags": {"amenity": "bank", "name": "Fusec Togo Agence Vakpossito"}}, {"type": "node", "id": 7713448825, "lat": 6.1756792, "lon": 1.1816148, "tags": {"amenity": "bank", "name": "Orabank Agence Adidogom\u00e9"}}, {"type": "node", "id": 7713454935, "lat": 6.1753627, "lon": 1.1811869, "tags": {"amenity": "bank", "name": "Microfinance FINAM"}}, {"type": "node", "id": 7846630885, "lat": 6.1230734, "lon": 1.2229211, "tags": {"amenity": "bank", "name": "African Lease Togo", "survey:date": "2020-08-26"}}, {"type": "node", "id": 7921132085, "lat": 6.218053, "lon": 1.1693708, "tags": {"amenity": "bank", "name": "FUCEC-Togo Coopec AVE agence Vakpossito"}}, {"type": "node", "id": 8169032739, "lat": 6.2166916, "lon": 1.2085526, "tags": {"amenity": "bank", "name": "NSIA Banque"}}, {"type": "node", "id": 8274298412, "lat": 6.2669424, "lon": 1.1519528, "tags": {"amenity": "bank", "name": "Institution de micofinance Wages"}}, {"type": "node", "id": 8307128631, "lat": 6.2180082, "lon": 1.2084637, "tags": {"amenity": "bank", "name": "UTB"}}, {"type": "node", "id": 8325850028, "lat": 6.2163331, "lon": 1.2084334, "tags": {"amenity": "bank", "name": "NSIA Banque"}}, {"type": "node", "id": 8364204257, "lat": 6.1523761, "lon": 1.2213645, "tags": {"amenity": "bank", "name": "Banque Atlantique"}}, {"type": "node", "id": 8615034132, "lat": 6.2332058, "lon": 1.1510815, "tags": {"amenity": "bank", "description": "Mutuelle d'appui et de soutien aux jeunes pour le d\u00e9veloppement", "name": "Syst\u00e8me financier D\u00e9centralis\u00e9 agence de Zossim\u00e9"}}, {"type": "node", "id": 8641712925, "lat": 6.1882078, "lon": 1.175707, "tags": {"amenity": "bank", "name": "Microfinance COFEC Agence Adidogom\u00e9", "type": "Microfinance"}}, {"type": "node", "id": 8762276729, "lat": 6.1235502, "lon": 1.2238408, "tags": {"amenity": "bank", "name": "Fucec - Togo Coopeceelo"}}, {"type": "node", "id": 8762284734, "lat": 6.123499, "lon": 1.2241499, "tags": {"amenity": "bank", "name": "Oranank Agence Rue du Commerce"}}, {"type": "node", "id": 8762293616, "lat": 6.1235044, "lon": 1.2242464, "tags": {"addr:street": "Rue du commerce", "amenity": "bank", "name": "Nsia Banque"}}, {"type": "node", "id": 8929126192, "lat": 6.1522958, "lon": 1.2175595, "tags": {"amenity": "bank", "name": "Fucec-Togo COOPEC ECHOPE"}}, {"type": "node", "id": 8929132938, "lat": 6.1533881, "lon": 1.2172256, "tags": {"amenity": "bank", "name": "UTB"}}, {"type": "node", "id": 8993671711, "lat": 6.1919155, "lon": 1.2084845, "tags": {"amenity": "bank", "name": "Orabank"}}, {"type": "node", "id": 9607433470, "lat": 6.1939134, "lon": 1.1190388, "tags": {"addr:street": "Route vers Segbe", "amenity": "bank", "atm": "no", "name": "POSTE DE SEGBE", "opening_hours": "7H"}}, {"type": "node", "id": 9647171481, "lat": 6.1919476, "lon": 1.2085328, "tags": {"amenity": "bank", "name": "Orabank", "opening_hours": "Mo-Fr 08:00-17:00; Sa 09:00-13:00"}}, {"type": "node", "id": 9738112756, "lat": 6.199557, "lon": 1.1885393, "tags": {"amenity": "bank", "name": "Banque Atlantique", "operator": "Groupe Banque Centrale Populaire"}}, {"type": "node", "id": 9760423219, "lat": 6.2174666, "lon": 1.1880218, "tags": {"addr:street": "Carrefour Deux Lions", "amenity": "bank", "name": "ECOBANK GAB", "opening_hours": "24/7", "website": "https://www.ecobank.com/"}}, {"type": "node", "id": 9817147723, "lat": 6.1643773, "lon": 1.2227376, "tags": {"addr:street": "boulevard Eyad\u00e9ma, carrefour 3K", "amenity": "bank", "description": "- Banque - \u00c9change - Transferts", "name": "Coris Bank", "opening_hours": "Mo-Fr 07:45-16:45; Sa 09:00-14:00", "phone": "+22822208282", "website": "https://www.corisbank.tg"}}, {"type": "node", "id": 9883375415, "lat": 6.1814486, "lon": 1.2136147, "tags": {"amenity": "bank", "description": "-Banque -Change -Transfert d'argent", "name": "Orabank", "opening_hours": "Mo-Fr 07:45-17:00; Sa 09:00-14:00", "phone": "+22822216221", "website": "https://www.orabank.net/"}}, {"type": "node", "id": 10562377524, "lat": 6.2521654, "lon": 1.1751884, "tags": {"amenity": "bank", "atm": "yes", "name": "CORIS BANK"}}, {"type": "node", "id": 10780946239, "lat": 6.1494558, "lon": 1.2207937, "tags": {"addr:municipality": "Golfe 3", "amenity": "bank", "name": "COMEC"}}, {"type": "node", "id": 10780946240, "lat": 6.1494768, "lon": 1.2207946, "tags": {"addr:municipality": "Golfe 3", "amenity": "bank", "name": "Comec"}}, {"type": "node", "id": 10780946246, "lat": 6.1523146, "lon": 1.2212136, "tags": {"addr:municipality": "Golfe 3", "amenity": "bank", "name": "Banque atlantique agence sotede"}}, {"type": "node", "id": 10780946247, "lat": 6.182653, "lon": 1.2144548, "tags": {"addr:municipality": "Golfe 3", "amenity": "bank", "name": "Ecobank"}}, {"type": "node", "id": 10780946249, "lat": 6.1523371, "lon": 1.2206549, "tags": {"addr:municipality": "Golfe 3", "amenity": "bank", "name": "COPEC-ICEC (Cooperative d'initiative Chr\u00e9tienne d'\u00e9pargne et de Cr\u00e9dit)"}}, {"type": "node", "id": 10780946250, "lat": 6.1506617, "lon": 1.2190047, "tags": {"addr:municipality": "Golfe 3", "amenity": "bank", "name": "COOPEC-AD"}}, {"type": "node", "id": 10780946251, "lat": 6.1880212, "lon": 1.2120062, "tags": {"addr:municipality": "Golfe 3", "amenity": "bank", "name": "GAB"}}, {"type": "node", "id": 10780946252, "lat": 6.1798342, "lon": 1.2174911, "tags": {"addr:municipality": "Golfe 3", "amenity": "bank", "name": "Groupe de la banque mondiale"}}, {"type": "node", "id": 10780946255, "lat": 6.1814628, "lon": 1.2135839, "tags": {"addr:municipality": "Golfe 3", "amenity": "bank", "name": "Orabank"}}, {"type": "node", "id": 10780946257, "lat": 6.1552022, "lon": 1.2170297, "tags": {"addr:municipality": "Golfe 3", "amenity": "bank", "name": "FADI"}}, {"type": "node", "id": 10780946259, "lat": 6.1798932, "lon": 1.217323, "tags": {"addr:municipality": "Golfe 3", "amenity": "bank", "name": "GAB"}}, {"type": "node", "id": 10780946260, "lat": 6.149505, "lon": 1.2188833, "tags": {"addr:municipality": "Golfe 3", "amenity": "bank", "name": "ORABANK"}}, {"type": "node", "id": 10780946261, "lat": 6.189387, "lon": 1.208017, "tags": {"addr:municipality": "Golfe 3", "amenity": "bank", "name": "BTCI"}}, {"type": "node", "id": 10780946263, "lat": 6.1604151, "lon": 1.216894, "tags": {"addr:municipality": "Golfe 3", "amenity": "bank", "name": "Mutuelle General des Enseignants du Togo (MUGET)"}}, {"type": "node", "id": 10780946267, "lat": 6.162893, "lon": 1.2133439, "tags": {"addr:municipality": "Golfe 3", "amenity": "bank", "name": "UTB (Union Togolaise de Banque)"}}, {"type": "node", "id": 10780946270, "lat": 6.1879857, "lon": 1.2118121, "tags": {"addr:municipality": "Golfe 3", "amenity": "bank", "name": "UTB Agence SGI"}}, {"type": "node", "id": 10780946272, "lat": 6.19177, "lon": 1.2085062, "tags": {"addr:municipality": "Golfe 3", "amenity": "bank", "name": "Orabank"}}, {"type": "node", "id": 10780946274, "lat": 6.1627193, "lon": 1.2133249, "tags": {"addr:municipality": "Golfe 3", "amenity": "bank", "name": "Union Togolaise de Banque"}}, {"type": "node", "id": 10780946277, "lat": 6.1914509, "lon": 1.2084453, "tags": {"addr:municipality": "Golfe 3", "amenity": "bank", "name": "Banque Atlantique"}}, {"type": "node", "id": 10780946278, "lat": 6.1552095, "lon": 1.2171197, "tags": {"addr:municipality": "Golfe 3", "amenity": "bank", "name": "FADI microfinance"}}, {"type": "node", "id": 10780946279, "lat": 6.1954596, "lon": 1.2087587, "tags": {"addr:municipality": "Golfe 3", "amenity": "bank", "name": "MECIT (Mutuelle d'\u00e9pargne et de Cr\u00e9dits Islamique du Togo)"}}, {"type": "node", "id": 10781984776, "lat": 6.1981325, "lon": 1.1514442, "tags": {"amenity": "bank", "name": "Cours Bank"}}, {"type": "node", "id": 10822161055, "lat": 6.154845, "lon": 1.2173202, "tags": {"addr:municipality": "Golfe 3", "amenity": "bank", "atm": "yes", "brand": "ecobank", "description": "vent gaz vente huile superette", "name": "TotalEnergies Tokoin Centre", "operator": "TotalEnergiesEnergies", "shop": "kiosk", "source": "WNA Hb - Mia Tou Togo project"}}, {"type": "node", "id": 10822161057, "lat": 6.2017025, "lon": 1.2082044, "tags": {"addr:municipality": "Golfe 3", "amenity": "bank", "atm": "yes", "brand": "ecobank", "description": "vent gaz vente huile superette", "name": "TOTAL Massouhoin", "operator": "TotalEnergiesEnergies", "shop": "kiosk", "source": "WNA Hb - Mia Tou Togo project"}}, {"type": "node", "id": 11086701388, "lat": 6.2520174, "lon": 1.1752504, "tags": {"amenity": "bank", "description": "Agence Agoe Sogbossito", "name": "Coris Bank International", "phone": "+22822208282", "website": "https://togo.coris.bank/"}}, {"type": "node", "id": 11270493869, "lat": 6.2027071, "lon": 1.1466507, "tags": {"addr:street": "Boulevard 30 Ao\u00fbt", "amenity": "bank", "name": "SogemeF Adidogom\u00e9", "opening_hours": "Su-Th 08:00-18:00; Fr 09:00-12:00"}}, {"type": "node", "id": 11337951834, "lat": 6.1311788, "lon": 1.2273058, "tags": {"amenity": "bank", "description": "agence chemin de fer\nBanque \nChang\u00e9\nTransfert d'argent", "name": "Orarbank", "opening_hours": "Mo-Fr 07:46-17:29; Sa, Su 09:00-14:00"}}, {"type": "node", "id": 11433132658, "lat": 6.1752413, "lon": 1.1815412, "tags": {"amenity": "bank", "name": "Agence BIA"}}, {"type": "node", "id": 11449768470, "lat": 6.1609574, "lon": 1.1643181, "tags": {"amenity": "bank", "name": "Microfinance"}}, {"type": "way", "id": 239061541, "nodes": [2468760803, 2468760801, 2468760802, 2468760806, 2468760803], "tags": {"atm": "yes", "building": "yes", "name": "Guichet Automatique", "opening_hours": "24/7", "operator": "Ecobank"}}, {"type": "way", "id": 261771174, "nodes": [2673846419, 2673846425, 2673846427, 2673846429, 2673846433, 2673846437, 2673846458, 2673846441, 2673846449, 2673846439, 2673846443, 2673846435, 2673846431, 2673846422, 2673846419], "tags": {"amenity": "bank", "atm": "yes", "building": "yes", "name": "Ecobank", "name:fr": "Ecobank grand march\u00e9", "office": "financial", "source": "bing"}}, {"type": "way", "id": 312856200, "nodes": [3187631071, 3187631072, 3187631073, 3187631074, 3187631071], "tags": {"amenity": "bank", "building": "yes", "name": "ECOBANK Ago\u00e9-Nyiv\u00e9", "operator": "Ecobank"}}, {"type": "way", "id": 314994550, "nodes": [3210774172, 3210774176, 3210774180, 3210774179, 3210774172], "tags": {"amenity": "bank", "building": "yes", "name": "Utb Agence Campus"}}, {"type": "way", "id": 321935178, "nodes": [3287015761, 3287015762, 3287015763, 3287015764, 3287015761], "tags": {"amenity": "bank", "building": "yes", "name": "UTB"}}, {"type": "way", "id": 323160474, "nodes": [3299531791, 3299536182, 3299536183, 3299556299, 3299536184, 3299536185, 3299531792, 3299543325, 3299531793, 3299531794, 3299531795, 3299531796, 3299531797, 3299531798, 3299531799, 3299531800, 3299531801, 3299541336, 3299531802, 3299543321, 3299531803, 3299543320, 3299531804, 3299531791], "tags": {"atm": "yes", "building": "yes", "name": "Ecobank"}}, {"type": "way", "id": 653607682, "nodes": [6125292282, 6125292281, 6125292280, 6125292279, 6125292278, 6125292277, 6125292276, 6125292275, 6125292274, 6125292273, 6125292272, 5919827185, 6125292271, 6125292270, 6125292269, 6125292268, 6125292267, 6125292266, 6125292265, 6125292264, 6125292263, 6125292262, 6125292261, 6125292260, 6125292282], "tags": {"addr:street": "Avenue Abdoulaye Fadiga", "amenity": "bank", "building": "commercial", "building:levels": "7", "name": "BCEAO LOME", "phone": "+22822235000"}}, {"type": "way", "id": 725874945, "nodes": [6805735260, 6805735259, 6805735258, 6805735257, 6805735260], "tags": {"amenity": "bank", "artist_name": "KPEDZROKU", "atm": "yes", "name": "Coopec-fi"}}]}