{"version": 0.6, "generator": "Overpass API 0.7.61.5 4133829e", "osm3s": {"timestamp_osm_base": "2024-03-05T15:08:58Z", "copyright": "The data included in this document is from www.openstreetmap.org. The data is made available under ODbL."}, "elements": [{"type": "node", "id": 38461549, "lat": 67.135243, "lon": 20.6604843, "tags": {"alt_name:se": "V\u00e1h\u010dir", "alt_name:smj": "V\u00e1htjer", "name": "G\u00e4llivare", "name:fi": "J\u00e4llivaara", "name:fit": "Jellivaara", "name:ru": "\u0415\u043b\u043b\u0438\u0432\u0430\u0440\u0435", "name:se": "Jiellev\u00e1rri", "name:smj": "Jiellev\u00e1rre", "name:sv": "G\u00e4llivare", "place": "town", "population": "18570", "ref:se:pts:postort": "G\u00c4LLIVARE", "ref:se:scb": "8596", "wikidata": "Q259046", "wikipedia": "sv:G\u00e4llivare"}}, {"type": "node", "id": 441161263, "lat": 67.1859642, "lon": 20.7386656, "tags": {"name": "Koskullskulle", "place": "village", "ref:se:pts:postort": "KOSKULLSKULLE", "ref:se:scb": "8694"}}, {"type": "node", "id": 712847428, "lat": 66.9590866, "lon": 21.2313732, "tags": {"name": "Sadjem", "name:smj": "Sadjemv\u00e1rre", "place": "hamlet"}}, {"type": "node", "id": 712847860, "lat": 66.9324816, "lon": 21.2767756, "tags": {"name": "Raatukkavaara", "name:smj": "R\u00e1dukv\u00e1rre", "place": "hamlet"}}, {"type": "node", "id": 1726941499, "lat": 67.0648079, "lon": 21.3329896, "tags": {"name": "Dokkas", "name:fit": "Tokanen", "name:smj": "Doages", "place": "village"}}, {"type": "node", "id": 1726954195, "lat": 67.0651422, "lon": 21.2871644, "tags": {"name": "Mett\u00e4 Dokkas", "name:fit": "Mett\u00e4-Tokanen", "name:smj": "M\u00e4htsedoages", "place": "village"}}, {"type": "node", "id": 1726954197, "lat": 67.1095192, "lon": 21.3389978, "tags": {"name": "Purnuvaara", "name:se": "Buornav\u00e1rri", "place": "hamlet"}}, {"type": "node", "id": 2960955156, "lat": 66.9258951, "lon": 20.8822269, "tags": {"name": "Nuortikon", "name:smj": "Nuortigon", "place": "hamlet", "wikidata": "Q2660228", "wikipedia": "sv:Nuortikon"}}, {"type": "node", "id": 2960955157, "lat": 66.9262975, "lon": 20.9269251, "tags": {"name": "Tidnokentt\u00e4", "name:smj": "Diddnogiedde", "place": "hamlet"}}, {"type": "node", "id": 2962204965, "lat": 67.0496759, "lon": 21.2183701, "tags": {"name": "Leipoj\u00e4rvi", "name:smj": "L\u00e4jbej\u00e1vrre", "place": "village"}}, {"type": "node", "id": 4109745188, "lat": 66.8891287, "lon": 21.2860555, "tags": {"name": "Purnu", "name:smj": "Buornna", "place": "hamlet", "wikidata": "Q10646852", "wikipedia": "sv:Purnu"}}, {"type": "node", "id": 4204294689, "lat": 67.1764189, "lon": 20.6127392, "tags": {"name": "Puoitak", "place": "hamlet"}}, {"type": "node", "id": 4347408723, "lat": 67.04874, "lon": 21.358597, "tags": {"name": "Alavaara", "place": "hamlet"}}, {"type": "node", "id": 4810044052, "lat": 67.0851435, "lon": 21.0462206, "tags": {"name": "Liikavaara", "name:smj": "Lijggev\u00e1rre", "place": "hamlet"}}, {"type": "node", "id": 4810044071, "lat": 67.088414, "lon": 20.992205, "tags": {"name": "Sakaj\u00e4rvi", "name:smj": "S\u00e1hkaj\u00e1vrre", "place": "hamlet"}}, {"type": "node", "id": 5347800640, "lat": 66.9986346, "lon": 21.31859, "tags": {"name": "Bj\u00f6rkberget", "place": "hamlet"}}, {"type": "node", "id": 5394104866, "lat": 66.8799729, "lon": 21.2497336, "tags": {"name": "Pikkujako", "place": "hamlet"}}, {"type": "node", "id": 5394104899, "lat": 66.8708801, "lon": 21.2869197, "tags": {"name": "Puolalaki", "place": "hamlet"}}, {"type": "node", "id": 7193220985, "lat": 67.1522339, "lon": 21.0756362, "tags": {"name": "Sjungberget", "place": "hamlet"}}]}