{"version": 0.6, "generator": "Overpass API 0.7.61.5 4133829e", "osm3s": {"timestamp_osm_base": "2024-03-06T11:08:30Z", "copyright": "The data included in this document is from www.openstreetmap.org. The data is made available under ODbL."}, "elements": [{"type": "node", "id": 3755396362, "lat": 32.0663907, "lon": 45.2425631}, {"type": "node", "id": 3755396363, "lat": 32.0653571, "lon": 45.2421403}, {"type": "node", "id": 3755396364, "lat": 32.0647645, "lon": 45.2436527}, {"type": "node", "id": 3755396365, "lat": 32.0654122, "lon": 45.244108}, {"type": "node", "id": 3755396366, "lat": 32.0658394, "lon": 45.2445633}, {"type": "node", "id": 5190756722, "lat": 31.9777624, "lon": 45.4025676, "tags": {"amenity": "doctors", "internet_access": "wlan", "name": "\u0627\u0644\u0645\u0631\u0643\u0632 \u0627\u0644\u0635\u062d\u064a \u0627\u0644\u0646\u0645\u0648\u0630\u062c\u064a \u0627\u0644\u0627\u0648\u0644 \u0641\u064a \u0627\u0644\u0628\u062f\u064a\u0631", "name:en": "First health center in albudair", "phone": "730022"}}, {"type": "node", "id": 5313814622, "lat": 31.7574306, "lon": 45.1563045, "tags": {"amenity": "doctors", "name": "\u0642\u0631\u064a\u0629 \u0627\u0644\u0639\u0628\u0637\u0627\u0646\u064a\u0647", "opening_hours": "Su-Th 09:00-18:00; Fr 08:00-14:00", "phone": "07814510104"}}, {"type": "node", "id": 7051907485, "lat": 31.9715853, "lon": 45.4074253, "tags": {"amenity": "pharmacy", "healthcare": "pharmacy", "name": "\u0635\u064a\u062f\u0644\u064a\u0629 \u0627\u0644\u0647\u0631\u0645", "name:ar": "alharam pharmacy;alharm", "operator": "mahdi"}}, {"type": "node", "id": 7187560185, "lat": 32.0527405, "lon": 45.1397936, "tags": {"addr:street": "\u0634\u0627\u0631\u0639 \u0646\u0641\u0631 \u0639\u0641\u0643", "amenity": "clinic", "phone": "07816040292"}}, {"type": "node", "id": 7838936285, "lat": 31.972446, "lon": 45.4073533, "tags": {"amenity": "clinic", "name": "\u0639\u064a\u0627\u062f\u0629 \u0627\u0644\u062f\u0643\u062a\u0648\u0631 \u0648\u0627\u062f\u064a \u0645\u0633\u064a\u0648\u0631"}}, {"type": "node", "id": 7853922885, "lat": 31.9725866, "lon": 45.4075237, "tags": {"amenity": "clinic", "name": "\u0639\u064a\u0627\u062f\u0629 \u0648\u0627\u062f\u064a \u0645\u0633\u064a\u0648\u0631 \u062d\u0633\u0627\u0646", "name:en": "Waidy masieor hassin", "name:ku": "\u0648\u0627\u062f\u064a \u0645\u0633\u064a\u0648\u0631 \u062d\u0633\u0627\u0646"}}, {"type": "way", "id": 371999698, "nodes": [3755396362, 3755396363, 3755396364, 3755396365, 3755396366, 3755396362], "tags": {"amenity": "hospital", "name": "\u0645\u0633\u062a\u0634\u0641\u0649 \u0639\u0641\u0643 \u0627\u0644\u0639\u0627\u0645"}}]}