{"version": 0.6, "generator": "Overpass API 0.7.61.5 4133829e", "osm3s": {"timestamp_osm_base": "2024-03-05T14:57:45Z", "copyright": "The data included in this document is from www.openstreetmap.org. The data is made available under ODbL."}, "elements": [{"type": "node", "id": 388443101, "lat": 63.6807134, "lon": 22.7233294, "tags": {"addr:city": "Jakobstad", "addr:housenumber": "7", "addr:postcode": "68600", "addr:street": "K\u00e5llbyv\u00e4gen", "amenity": "clinic", "emergency": "yes", "name": "Jouren Malmska", "name:fi": "P\u00e4ivystys, Malmi", "name:sv": "Jouren Malmska", "opening_hours": "24/7", "phone": "(06) 786 1333"}}, {"type": "node", "id": 391071400, "lat": 63.6779534, "lon": 22.7168731, "tags": {"addr:city": "Jakobstad", "addr:housenumber": "4", "addr:postcode": "68600", "addr:street": "Skolgatan", "amenity": "pharmacy", "dispensing": "yes", "email": "info@mediapteekki.fi", "healthcare": "pharmacy", "name": "Medi Apoteket", "name:fi": "Medi Apteekki", "name:sv": "Medi Apoteket", "opening_hours": "Mo-Fr 09:00-20:00; Sa 09:00-18:00; Su 12:00-18:00", "phone": "06 781 0770", "url": "http://www.mediapteekki.fi/", "website": "https://mediapteekki.fi/fi/"}}, {"type": "node", "id": 541339957, "lat": 63.6874776, "lon": 22.7352867, "tags": {"addr:city": "Jakobstad", "addr:housenumber": "32", "addr:postcode": "68660", "addr:street": "\u00d6stanp\u00e5v\u00e4gen", "amenity": "hospital", "name": "Folkh\u00e4lsan \u00d6stanlid", "note": "amenity=hospital ?", "url": "http://www.folkhalsan.fi/"}}, {"type": "node", "id": 570591856, "lat": 63.6746282, "lon": 22.7012275, "tags": {"addr:city": "Jakobstad", "addr:housenumber": "11", "addr:postcode": "68600", "addr:street": "R\u00e5dhusgatan", "amenity": "pharmacy", "dispensing": "yes", "fax": "(06) 789 9019", "name": "F\u00f6rsta Apoteket", "name:fi": "Ensinm\u00e4inen Apteekki", "name:sv": "F\u00f6rsta Apoteket", "opening_hours": "Mo-Fr 09:00-18:00;Sa 09:00-15:00", "phone": "(06) 789 9000", "website": "https://www.forstaapoteket.fi/"}}, {"type": "node", "id": 619076778, "lat": 63.5226725, "lon": 22.5388903, "tags": {"addr:city": "Nykarleby", "addr:housenumber": "9", "addr:postcode": "66900", "addr:street": "Mathesiusgatan", "amenity": "hospital", "name": "H\u00e4lsov\u00e5rdscentralen", "name:fi": "Terveyskeskus", "name:sv": "H\u00e4lsov\u00e5rdscentralen", "phone": "(06) 785 6333", "wheelchair": "yes"}}, {"type": "node", "id": 6400821664, "lat": 63.6739729, "lon": 22.7078613, "tags": {"addr:city": "Jakobstad", "addr:housenumber": "6", "addr:postcode": "68600", "addr:street": "K\u00f6pmansgatan", "amenity": "clinic", "contact:facebook": "https://www.facebook.com/pihlajalinnapietarsaari", "fax": "+358103122136", "healthcare": "clinic", "name": "Pihlajalinna Pietarsaari", "opening_hours": "Mo-Tu 08:00-17:00, We-Th 08:00-16:00; Fr 08:00-14:00", "phone": "+35810312136", "website": "https://www.pihlajalinna.fi/toimipisteet/pihlajalinna-pietarsaari"}}, {"type": "node", "id": 6433220132, "lat": 63.6814441, "lon": 22.7220708, "tags": {"addr:city": "Jakobstad", "addr:housenumber": "7", "addr:postcode": "68600", "addr:street": "K\u00e5llbyv\u00e4gen", "amenity": "hospital", "name": "Dag- och hemsjukhus", "name:fi": "P\u00e4iv\u00e4- ja kotisairaala", "name:sv": "Dag- och hemsjukhus"}}, {"type": "node", "id": 6433220134, "lat": 63.680493, "lon": 22.721657, "tags": {"addr:city": "Jakobstad", "addr:housenumber": "1", "addr:postcode": "68600", "addr:street": "Bottenviksv\u00e4gen", "amenity": "hospital", "name": "Jakobstads sjukhus", "name:fi": "Pietarsaaren sairaala", "name:sv": "Jakobstads sjukhus"}}, {"type": "node", "id": 7431149495, "lat": 63.5218577, "lon": 22.5311375, "tags": {"addr:city": "Nykarleby", "addr:housenumber": "8", "addr:postcode": "66900", "addr:street": "Sollefte\u00e5gatan", "amenity": "pharmacy", "dispensing": "yes", "healthcare": "pharmacy", "name": "Nykarleby apotek", "phone": "(06) 722 0009", "website": "https://nykarlebyapotek.fi/se/"}}, {"type": "node", "id": 10138637310, "lat": 63.6752442, "lon": 22.7024773, "tags": {"addr:city": "Jakobstad", "addr:housenumber": "19", "addr:postcode": "68600", "addr:street": "Kanalesplanaden", "amenity": "pharmacy", "dispensing": "yes", "email": "apteekki.esplanad@apteekit.net", "healthcare": "pharmacy", "name": "Apoteket Esplanad", "name:fi": "Apteekki Esplanad", "name:sv": "Apoteket Esplanad", "opening_hours": "Mo-Fr 09:00-20:00; Sa 09:00-16:00; Su 10:00-16:00", "phone": "06 7888 090", "website": "https://apteekkiesplanad.fi/"}}]}