{"version": 0.6, "generator": "Overpass API 0.7.61.5 4133829e", "osm3s": {"timestamp_osm_base": "2024-03-06T11:15:40Z", "copyright": "The data included in this document is from www.openstreetmap.org. The data is made available under ODbL."}, "elements": [{"type": "node", "id": 2896964372, "lat": 33.7366303, "lon": 46.6690766}, {"type": "node", "id": 2896964373, "lat": 33.7381584, "lon": 46.6688652}, {"type": "node", "id": 2896964374, "lat": 33.7386317, "lon": 46.6675155}, {"type": "node", "id": 2896964375, "lat": 33.7359541, "lon": 46.6656617}, {"type": "node", "id": 2896964376, "lat": 33.7340608, "lon": 46.6636127}, {"type": "node", "id": 2896964377, "lat": 33.7344124, "lon": 46.6612547}, {"type": "node", "id": 2896964378, "lat": 33.7316806, "lon": 46.6613197}, {"type": "node", "id": 2896964379, "lat": 33.7308151, "lon": 46.6652551}, {"type": "node", "id": 2896964380, "lat": 33.7300847, "lon": 46.6672716}, {"type": "node", "id": 2896964381, "lat": 33.7326543, "lon": 46.666491}, {"type": "node", "id": 2896964382, "lat": 33.73469, "lon": 46.6714511}, {"type": "node", "id": 2896964383, "lat": 33.7328879, "lon": 46.6767749}, {"type": "node", "id": 2896964384, "lat": 33.7308217, "lon": 46.6752805}, {"type": "node", "id": 2896964385, "lat": 33.730713, "lon": 46.6728521}, {"type": "node", "id": 2896964386, "lat": 33.7304178, "lon": 46.671806}, {"type": "node", "id": 2896964387, "lat": 33.7319869, "lon": 46.6714324}, {"type": "node", "id": 2896964388, "lat": 33.7341152, "lon": 46.6710588}, {"type": "node", "id": 2908945956, "lat": 33.6485093, "lon": 46.9210261}, {"type": "node", "id": 2908945957, "lat": 33.6461301, "lon": 46.926051}, {"type": "node", "id": 2908945958, "lat": 33.6443884, "lon": 46.9288903}, {"type": "node", "id": 2908945959, "lat": 33.6435487, "lon": 46.9278256}, {"type": "node", "id": 2908945960, "lat": 33.6435642, "lon": 46.9259389}, {"type": "node", "id": 2908945961, "lat": 33.6443418, "lon": 46.9228193}, {"type": "node", "id": 2908945962, "lat": 33.6467055, "lon": 46.9205404}, {"type": "node", "id": 2908945963, "lat": 33.6347154, "lon": 46.9030965}, {"type": "node", "id": 2908945964, "lat": 33.6335721, "lon": 46.9047245}, {"type": "node", "id": 2908945965, "lat": 33.6324877, "lon": 46.9032947}, {"type": "node", "id": 2908945966, "lat": 33.6323462, "lon": 46.9010721}, {"type": "node", "id": 2908945967, "lat": 33.6334424, "lon": 46.9010721}, {"type": "node", "id": 2917164938, "lat": 33.6997757, "lon": 46.6643501}, {"type": "node", "id": 2917164939, "lat": 33.6984237, "lon": 46.6672268}, {"type": "node", "id": 2917164940, "lat": 33.6970249, "lon": 46.6674884}, {"type": "node", "id": 2917164941, "lat": 33.6963877, "lon": 46.6668532}, {"type": "node", "id": 2917164942, "lat": 33.6965432, "lon": 46.6654336}, {"type": "node", "id": 2917164943, "lat": 33.6967141, "lon": 46.6645556}, {"type": "node", "id": 2917164944, "lat": 33.6984392, "lon": 46.6636963}, {"type": "node", "id": 2917164945, "lat": 33.7038007, "lon": 46.6669093}, {"type": "node", "id": 2917164946, "lat": 33.7033812, "lon": 46.6675257}, {"type": "node", "id": 2917164947, "lat": 33.698921, "lon": 46.6712244}, {"type": "node", "id": 2917164948, "lat": 33.6978486, "lon": 46.6706079}, {"type": "node", "id": 2917164949, "lat": 33.7013454, "lon": 46.6677499}, {"type": "node", "id": 2917164950, "lat": 33.7033501, "lon": 46.666461}, {"type": "node", "id": 2917164951, "lat": 33.706183, "lon": 46.6557015}, {"type": "node", "id": 2917164952, "lat": 33.7036937, "lon": 46.6570187}, {"type": "node", "id": 2917164953, "lat": 33.703342, "lon": 46.6566121}, {"type": "node", "id": 2917164954, "lat": 33.7041267, "lon": 46.6557177}, {"type": "node", "id": 2917164955, "lat": 33.7056012, "lon": 46.6552299}, {"type": "node", "id": 2917168672, "lat": 33.6880938, "lon": 46.7307473}, {"type": "node", "id": 2917168673, "lat": 33.6873767, "lon": 46.732097}, {"type": "node", "id": 2917168674, "lat": 33.6862806, "lon": 46.7312351}, {"type": "node", "id": 2917168675, "lat": 33.684075, "lon": 46.728617}, {"type": "node", "id": 2917168676, "lat": 33.6833984, "lon": 46.7278689}, {"type": "node", "id": 2917168677, "lat": 33.6837232, "lon": 46.7270558}, {"type": "node", "id": 2917168678, "lat": 33.6842103, "lon": 46.7259012}, {"type": "node", "id": 2917168679, "lat": 33.6848598, "lon": 46.7256248}, {"type": "node", "id": 2917168680, "lat": 33.6858476, "lon": 46.72595}, {"type": "node", "id": 2917168681, "lat": 33.6866189, "lon": 46.7269745}, {"type": "node", "id": 2917168682, "lat": 33.6867678, "lon": 46.7277551}, {"type": "node", "id": 2917168683, "lat": 33.6875932, "lon": 46.7275437}, {"type": "node", "id": 2917168684, "lat": 33.6877961, "lon": 46.7279827}, {"type": "node", "id": 2917168685, "lat": 33.6877555, "lon": 46.7292837}, {"type": "node", "id": 2917168686, "lat": 33.6870655, "lon": 46.7299992}, {"type": "node", "id": 3292468001, "lat": 33.4673719, "lon": 46.6795656, "tags": {"is_in:country": "Iran", "name": "\u0632\u06cc\u0641\u0644", "name:en": "Zifal", "place": "hamlet", "population": "101", "wikidata": "Q5822043", "wikipedia": "fa:\u0632\u06cc\u0641\u0644"}}, {"type": "node", "id": 3292468002, "lat": 33.4485185, "lon": 46.7779597, "tags": {"is_in:country": "Iran", "name": "\u0631\u0636\u0627\u0622\u0628\u0627\u062f", "name:en": "Rezaabad", "place": "hamlet", "population": "31", "wikidata": "Q5839856", "wikipedia": "en:Rezaabad, Ilam"}}, {"type": "node", "id": 3292492800, "lat": 33.5673389, "lon": 46.8146332, "tags": {"is_in:country": "Iran", "name": "\u0644\u0648\u0645\u0627\u0631", "name:ckb": "\u0644\u0648\u0648\u0645\u0627\u0631", "name:en": "Lumar", "name:fa": "\u0644\u0648\u0645\u0627\u0631", "name:fr": "Lumar", "name:ku": "L\u00fbmar", "place": "town", "population": "2696", "population:date": "2016", "source:population": "amar.org.ir", "wikidata": "Q4371553", "wikipedia": "fa:\u0644\u0648\u0645\u0627\u0631"}}, {"type": "node", "id": 3292492801, "lat": 33.5592661, "lon": 46.778029, "tags": {"is_in:country": "Iran", "name": "\u0639\u0628\u0627\u0633 \u0622\u0628\u0627\u062f", "name:en": "Abbasabad", "place": "hamlet", "wikidata": "Q4663855"}}, {"type": "node", "id": 3292492802, "lat": 33.5558953, "lon": 46.7767552, "tags": {"is_in:country": "Iran", "name": "\u0686\u06af\u0646\u06cc", "name:en": "Chegeni", "place": "village", "wikidata": "Q5089542"}}, {"type": "node", "id": 3292492803, "lat": 33.5747903, "lon": 46.7855516, "tags": {"is_in:country": "Iran", "name": "\u0627\u0633\u0644\u0627\u0645\u06cc\u0647", "name:en": "Eslamiyeh", "place": "village"}}, {"type": "node", "id": 3292492804, "lat": 33.5581043, "lon": 46.7916814, "tags": {"is_in:country": "Iran", "name": "\u0641\u0627\u0637\u0645\u06cc\u0647", "name:en": "Fatemiyeh", "place": "hamlet", "wikidata": "Q5437456"}}, {"type": "node", "id": 3292492805, "lat": 33.5540648, "lon": 46.731856, "tags": {"is_in:country": "Iran", "name": "\u06af\u0648\u0631\u0627\u0628 \u0639\u0644\u06cc\u0627", "name:en": "Gurab-e Olya", "place": "village"}}, {"type": "node", "id": 3292492806, "lat": 33.5665893, "lon": 46.7467711, "tags": {"is_in:country": "Iran", "name": "\u06af\u0648\u0631\u0627\u0628 \u0633\u0641\u0644\u06cc", "name:en": "Gurab-e Sofla", "place": "village", "wikidata": "Q5619790"}}, {"type": "node", "id": 3292492807, "lat": 33.5570962, "lon": 46.7591478, "tags": {"is_in:country": "Iran", "name": "\u0647\u06cc\u0648\u0646\u062f", "name:en": "Heyvand", "place": "village", "wikipedia": "fa:\u0647\u06cc\u0648\u0646\u062f"}}, {"type": "node", "id": 3292492808, "lat": 33.5591544, "lon": 46.7690957, "tags": {"is_in:country": "Iran", "name": "\u0644\u0627\u0644\u0627", "name:en": "Lala", "place": "village"}}, {"type": "node", "id": 3292492809, "lat": 33.5779614, "lon": 46.7569541, "tags": {"is_in:country": "Iran", "name": "\u0644\u0631\u0646\u06cc \u0633\u0641\u0644\u06cc", "name:en": "lorni sofla", "place": "village"}}, {"type": "node", "id": 3292492810, "lat": 33.5512711, "lon": 46.8328864, "tags": {"is_in:country": "Iran", "name": "\u0648\u0631\u06af\u0686", "name:en": "Vargach", "place": "village", "wikidata": "Q5845963", "wikipedia": "en:Vargach, Ilam"}}, {"type": "node", "id": 3292492811, "lat": 33.5661767, "lon": 46.7684217, "tags": {"is_in:country": "Iran", "name": "\u067e\u0627\u0646\u0632\u062f\u0647 \u062e\u0631\u062f\u0627\u062f", "name:en": "Panzdah-e Khordad", "place": "village", "wikidata": "Q7132004"}}, {"type": "node", "id": 3292492812, "lat": 33.565819, "lon": 46.7495487, "tags": {"is_in:country": "Iran", "name": "\u0646\u06af\u0644", "name:en": "Negel", "place": "village", "wikidata": "Q5844062"}}, {"type": "node", "id": 3293012340, "lat": 33.4859038, "lon": 46.8794262, "tags": {"is_in:country": "Iran", "name": "\u0622\u0628 \u0632\u0631", "name:en": "Abzar", "place": "village"}}, {"type": "node", "id": 3293012341, "lat": 33.5282134, "lon": 46.8216824, "tags": {"is_in:country": "Iran", "name": "\u0628\u0627\u063a\u0644\u0647", "name:en": "Baghleh", "place": "village", "wikidata": "Q4841888", "wikipedia": "fa:\u0628\u0627\u063a\u0644\u0647"}}, {"type": "node", "id": 3293012342, "lat": 33.5374772, "lon": 46.7774842, "tags": {"is_in:country": "Iran", "name": "\u0628\u0648\u0698\u0627\u0646", "name:en": "Buzhan", "place": "village"}}, {"type": "node", "id": 3293012344, "lat": 33.5074174, "lon": 46.8777014, "tags": {"is_in:country": "Iran", "name": "\u0686\u0645 \u062c\u0646\u06af\u0644", "name:en": "Cham Jangal", "place": "village"}}, {"type": "node", "id": 3293012345, "lat": 33.4684186, "lon": 46.9256847, "tags": {"is_in:country": "Iran", "name": "\u0686\u0645 \u062f\u0631 \u0628\u0627\u0644\u0648\u062a", "name:en": "Cham-e Dar Balut", "place": "village"}}, {"type": "node", "id": 3293012346, "lat": 33.4682978, "lon": 46.9115113, "tags": {"is_in:country": "Iran", "name": "\u0642\u0627\u0636\u06cc \u062e\u0627\u0646 \u0639\u0644\u06cc\u0627", "name:en": "Qazi Khan-e Olya", "place": "village"}}, {"type": "node", "id": 3293012347, "lat": 33.5487228, "lon": 46.7858905, "tags": {"is_in:country": "Iran", "name": "\u06a9\u0645\u0627\u0646 \u06af\u0631\u0627\u0646", "name:en": "Kamangaran", "place": "village", "wikidata": "Q5821715", "wikipedia": "en:Kamangaran"}}, {"type": "node", "id": 3293012348, "lat": 33.5457333, "lon": 46.7948473, "tags": {"is_in:country": "Iran", "name": "\u0639\u0645\u0627\u0631\u062a", "name:en": "Emarat", "place": "village"}}, {"type": "node", "id": 3293012349, "lat": 33.4892918, "lon": 46.8531695, "tags": {"is_in:country": "Iran", "name": "\u062f\u0648\u06af\u0631", "name:en": "Dogar", "place": "hamlet"}}, {"type": "node", "id": 3293012350, "lat": 33.5189382, "lon": 46.8548787, "tags": {"is_in:country": "Iran", "name": "\u0638\u0647\u06cc\u0631\u06cc \u0633\u0641\u0644\u06cc", "name:en": "Zoheyri-ye Sofla", "place": "village", "wikidata": "Q5825085"}}, {"type": "node", "id": 3293012351, "lat": 33.4541152, "lon": 46.9158177, "tags": {"is_in:country": "Iran", "name": "\u0642\u0627\u0636\u06cc \u062e\u0627\u0646 \u0633\u0641\u0644\u06cc", "name:en": "Qazi Khan-e Sofla", "place": "village", "wikidata": "Q5830596", "wikipedia": "en:Qazi Khan-e Sofla"}}, {"type": "node", "id": 3293012352, "lat": 33.5116592, "lon": 46.8059384, "tags": {"is_in:country": "Iran", "name": "\u0633\u0631\u0627\u0628 \u06af\u0648\u0631\u06cc \u062a\u0648\u062a\u06cc", "name:en": "Sarab Guri-e Tuti", "place": "village"}}, {"type": "node", "id": 3293012353, "lat": 33.5460325, "lon": 46.8367857, "tags": {"is_in:country": "Iran", "name": "\u0633\u0631\u06a9\u0627\u0646", "name:en": "Sarkan", "place": "village", "wikidata": "Q7424176", "wikipedia": "en:Sarkan, Ilam"}}, {"type": "node", "id": 3293012354, "lat": 33.5246802, "lon": 46.8362657, "tags": {"is_in:country": "Iran", "is_in:province": "Kermanshah", "name": "\u0633\u06cc\u0627\u0647 \u0633\u06cc\u0627\u0647 \u062d\u0628\u06cc\u0628", "name:en": "Siah Siah-ye Habib", "place": "hamlet", "wikidata": "Q5868148", "wikipedia": "en:Siah Siah-ye Habib"}}, {"type": "node", "id": 3293012355, "lat": 33.5428329, "lon": 46.8165854, "tags": {"is_in:country": "Iran", "name": "\u0634\u0648\u0631\u0627\u0628 \u062e\u0627\u0646\u0639\u0644\u06cc", "name:en": "Shurub-e Khan Ali", "place": "village"}}, {"type": "node", "id": 3293012356, "lat": 33.5166103, "lon": 46.8535387, "tags": {"is_in:country": "Iran", "name": "\u0638\u0647\u06cc\u0631\u06cc \u0639\u0644\u06cc\u0627", "name:en": "Zoheyri-ye Olya", "place": "village"}}, {"type": "node", "id": 3293056832, "lat": 33.6516526, "lon": 46.673278, "tags": {"is_in:country": "Iran", "name": "\u067e\u0647\u0646\u0647 \u0628\u0631", "name:en": "Pahneh Bor", "place": "village"}}, {"type": "node", "id": 3293056833, "lat": 33.6161935, "lon": 46.7280149, "tags": {"is_in:country": "Iran", "name": "\u0628\u0631\u0627\u0641\u062a\u0627\u0628 \u0645\u0644\u0647 \u0645\u0627\u0631\u0627\u0646", "name:en": "Baraftab-e Meleh Maran", "place": "village", "wikidata": "Q4858162", "wikipedia": "en:Baraftab-e Meleh Maran"}}, {"type": "node", "id": 3293056835, "lat": 33.5746091, "lon": 46.6873244, "tags": {"is_in:country": "Iran", "name": "\u062d\u0633\u0646 \u06af\u0627\u0648\u062f\u0627\u0631\u06cc", "name:en": "Hasan Gavdari", "place": "village", "wikidata": "Q5678158", "wikipedia": "en:Hasan Gavdari"}}, {"type": "node", "id": 3293056836, "lat": 33.5911956, "lon": 46.7018154, "tags": {"is_in:country": "Iran", "name": "\u0646\u0633\u0627\u0631\u0645\u0644\u0647 \u0645\u0627\u0631\u0627\u0646", "name:en": "Nesar-e Meleh Maran", "place": "village", "wikidata": "Q5832945", "wikipedia": "en:Nesar-e Meleh Maran"}}, {"type": "node", "id": 3293056840, "lat": 33.5737435, "lon": 46.7188271, "tags": {"is_in:country": "Iran", "name": "\u0633\u0631\u0627\u0628 \u06a9\u0644\u0627\u0646", "name:en": "Sarab-e Kalan", "place": "village"}}, {"type": "node", "id": 3293056844, "lat": 33.6448382, "lon": 46.6768276, "tags": {"is_in:country": "Iran", "name": "\u0634\u0647\u0631\u06a9 \u0633\u0631\u062a\u0646\u06af", "name:en": "Shahrak-e Sartang", "place": "village"}}, {"type": "node", "id": 3295047378, "lat": 33.728139, "lon": 47.0678839, "tags": {"is_in:country": "Iran", "name": "\u062a\u0648\u062d\u06cc\u062f", "name:ckb": "\u062a\u06c6\u062d\u06cc\u062f", "name:en": "Towhid", "name:fa": "Towhid", "name:fr": "Towhid", "name:ku": "Toh\u00eed", "place": "town", "wikidata": "Q4370903", "wikipedia": "en:Towhid"}}, {"type": "node", "id": 3295047379, "lat": 33.6669604, "lon": 46.8043038, "tags": {"is_in:country": "Iran", "name": "\u0628\u0644\u0627\u0648\u0647", "name:ckb": "\u0628\u06b5\u0627\u0648\u06d5", "name:en": "Balavah", "name:ku": "Belawe Tere", "nat_name": "\u0628\u0644\u0627\u0648\u0647 \u062a\u0631\u0647", "place": "town", "wikidata": "Q4850146"}}, {"type": "node", "id": 3295188516, "lat": 33.6930818, "lon": 46.6912602, "tags": {"is_in:country": "Iran", "name": "\u0628\u0631\u062f\u0647 \u0628\u0644", "name:en": "Bardeh Bal", "place": "village", "wikidata": "Q4860111", "wikipedia": "en:Bardeh Bal"}}, {"type": "node", "id": 3295188519, "lat": 33.7369504, "lon": 46.6676052, "tags": {"is_in:country": "Iran", "name": "\u062f\u0627\u0631\u062a\u0648\u062a", "name:en": "Dartut", "place": "village"}}, {"type": "node", "id": 3295188521, "lat": 33.6918359, "lon": 46.6977199, "tags": {"is_in:country": "Iran", "name": "\u0647\u0644\u0633\u0645", "name:en": "Halasem", "place": "village"}}, {"type": "node", "id": 3295188524, "lat": 33.7001327, "lon": 46.6694014, "tags": {"is_in:country": "Iran", "name": "\u063a\u0631\u06cc\u0628", "name:en": "Qarib", "place": "village"}}, {"type": "node", "id": 3295188525, "lat": 33.7325766, "lon": 46.6737237, "tags": {"is_in:country": "Iran", "name": "\u0633\u0646\u06af \u0633\u0641\u06cc\u062f", "name:en": "Sang-e Sefid", "place": "village"}}, {"type": "node", "id": 3295188526, "lat": 33.8212578, "lon": 46.7018386, "tags": {"is_in:country": "Iran", "is_in:state": "Kermanshah", "name": "\u0633\u0631\u062e\u0647 \u062e\u0627\u0646\u06cc", "name:en": "Sorkheh Khani", "name:ku": "Sorkh-e Kan", "place": "village", "source:name": "GNS"}}, {"type": "node", "id": 3295188528, "lat": 33.6229924, "lon": 46.9935635, "tags": {"is_in:country": "Iran", "name": "\u0645\u0644\u0647 \u0634\u06cc\u0631\u062e\u0627\u0646", "name:en": "Maleh-e Shirkan", "place": "hamlet", "wikidata": "Q5824431", "wikipedia": "en:Maleh-e Shirkhan"}}, {"type": "node", "id": 3295188529, "lat": 33.6153686, "lon": 47.0138001, "tags": {"is_in:country": "Iran", "name": "\u0628\u0627\u0631\u06cc\u06a9\u0647 \u0641\u0631\u062e\u06cc\u0646\u0648\u0646\u062f", "name:en": "Barikeh-ye Farkhinevand", "place": "hamlet"}}, {"type": "node", "id": 3295188530, "lat": 33.7304888, "lon": 46.8296685, "tags": {"is_in:country": "Iran", "name": "\u06a9\u0648\u0631\u0627\u06af", "name:en": "Kurag", "place": "village"}}, {"type": "node", "id": 3295196696, "lat": 33.7519135, "lon": 46.7821575, "tags": {"is_in:country": "Iran", "name": "\u0634\u0644\u0647 \u06a9\u0634", "name:en": "Shalah Kosh", "place": "village", "wikidata": "Q5863167", "wikipedia": "en:Shalah Kosh"}}, {"type": "node", "id": 3295196697, "lat": 33.6740156, "lon": 46.9304637, "tags": {"is_in:country": "Iran", "name": "\u0645\u06cc\u0627\u0646 \u0642\u0644\u0639\u0647", "name:en": "Mian Qaleh", "place": "village"}}, {"type": "node", "id": 3295196698, "lat": 33.6950156, "lon": 46.87317, "tags": {"is_in:country": "Iran", "name": "\u067e\u0644\u06a9\u0627\u0646\u0647", "name:en": "Palkaneh", "place": "hamlet"}}, {"type": "node", "id": 3295196699, "lat": 33.6941499, "lon": 46.8884489, "tags": {"is_in:country": "Iran", "name": "\u067e\u0644\u06a9\u0627\u0646\u0647 \u0633\u0641\u0644\u06cc", "name:en": "Palkaneh-ye Sofla", "place": "village"}}, {"type": "node", "id": 3295196700, "lat": 33.6453876, "lon": 46.9584529, "tags": {"is_in:country": "Iran", "name": "\u0633\u0631\u06af\u0644 \u0641\u0631\u062e\u06cc\u0646\u0648\u0646\u062f", "name:en": "Sargel-e Farkhinvand", "place": "hamlet"}}, {"type": "node", "id": 3295196701, "lat": 33.6349253, "lon": 46.9890902, "tags": {"is_in:country": "Iran", "name": "\u0632\u06cc\u0686", "name:en": "Zich", "place": "hamlet"}}, {"type": "node", "id": 3295228365, "lat": 33.7093673, "lon": 47.0263747, "tags": {"is_in:country": "Iran", "name": "\u0686\u06d5\u0645\u0632\u06d5\u0631\u062f\u0645\u0627\u0647\u06cc\u0632\u0627\u0646", "name:en": "Cham Zard-e Mahizan", "place": "village", "wikidata": "Q5069310", "wikipedia": "en:Cham Zard-e Mahizan"}}, {"type": "node", "id": 3295228366, "lat": 33.7086046, "lon": 47.0818116, "tags": {"is_in:country": "Iran", "name": "\u0686\u0646\u0627\u0631", "name:en": "Chenar-e Allah Qoli", "name:fa": "\u0686\u0646\u0627\u0631 \u0627\u0644\u0644\u0647 \u0642\u0644\u06cc", "place": "village"}}, {"type": "node", "id": 3295228367, "lat": 33.7311462, "lon": 47.1390739, "tags": {"is_in:country": "Iran", "name": "\u06a9\u0648\u0648\u0627\u0646\u06cc \u0645\u0627\u06cc\u06cc", "name:en": "Cheshmeh Mahi", "place": "village"}}, {"type": "node", "id": 3295228368, "lat": 33.6422459, "lon": 46.9804243, "tags": {"is_in:country": "Iran", "name": "\u0686\u0642\u0627 \u0634\u0627\u0641\u06cc", "name:en": "Choqa Shafi", "place": "hamlet"}}, {"type": "node", "id": 3295228369, "lat": 33.71047, "lon": 47.0903732, "tags": {"is_in:country": "Iran", "name": "\u062f\u0648\u0648\u0626\u0627\u0648", "name:en": "Dar Parusheh", "name:ku": "Dar Pir\u00fc\u015fe", "place": "village", "wikidata": "Q5221926", "wikipedia": "en:Dar Parusheh"}}, {"type": "node", "id": 3295228370, "lat": 33.7526382, "lon": 46.9567912, "tags": {"is_in:country": "Iran", "is_in:state": "Kermanshah", "name": "\u062f\u0695\u06d5\u0628\u0627\u0631\u06cc\u06a9", "name:en": "Darreh Barik", "name:fa": "\u062f\u0631\u0647 \u0628\u0627\u0631\u06cc\u06a9", "place": "village"}}, {"type": "node", "id": 3295228371, "lat": 33.7356323, "lon": 47.1307479, "tags": {"is_in:country": "Iran", "name": "\u0647\u0648\u0631\u062f\u06d5\u06a9\u0648\u0648\u0627\u0646\u06cc", "name:en": "Khordeh Cheshmeh", "place": "village"}}, {"type": "node", "id": 3295228372, "lat": 33.6988937, "lon": 47.0207151, "tags": {"is_in:country": "Iran", "name": "\u06af\u06d5\u0695\u0627\u0648", "name:en": "Garab", "name:fa": "\u06af\u0631\u0627\u0628", "place": "village"}}, {"type": "node", "id": 3295228373, "lat": 33.738783, "lon": 47.0391063, "tags": {"is_in:country": "Iran", "name": "\u06a9\u06d5\u0647\u06d5\u0695\u06d5", "name:en": "Kahreh", "name:ja": "\u30cf\u30fc\u30b7\u30e5", "name:ku": "Kehre", "place": "village", "wikidata": "Q5849924"}}, {"type": "node", "id": 3295228374, "lat": 33.7604164, "lon": 47.0469085, "tags": {"is_in:country": "Iran", "name": "\u06a9\u06d5\u06b5\u0627\u062a\u06d5", "name:en": "Kalateh", "name:fa": "\u06a9\u0644\u0627\u062a\u0647", "place": "village"}}, {"type": "node", "id": 3295228375, "lat": 33.7207772, "lon": 46.9779592, "tags": {"is_in:country": "Iran", "name": "\u0634\u0647\u0628\u0627\u0632\u0648\u0646\u062f", "name:en": "Shahbazvand", "name:fa": "\u0634\u0647\u0628\u0627\u0632\u0648\u0646\u062f", "place": "village"}}, {"type": "node", "id": 3295228376, "lat": 33.7021618, "lon": 47.0416011, "tags": {"is_in:country": "Iran", "name": "\u0645\u0627\u0647\u06cc\u0632\u0627\u0646 \u0633\u06d5\u0631\u06ce", "name:en": "Mahzihan-e Olya", "place": "village", "wikidata": "Q5830915", "wikipedia": "en:Mahizan-e Olya"}}, {"type": "node", "id": 3295228377, "lat": 33.6940049, "lon": 47.0474185, "tags": {"is_in:country": "Iran", "name": "\u0645\u0627\u0647\u06cc\u0632\u0627\u0646 \u062e\u0648\u0627\u0631\u06ce", "name:en": "Mahizan-e Sofla", "place": "village", "wikidata": "Q5830911", "wikipedia": "en:Mahizan-e Sofla"}}, {"type": "node", "id": 3295228378, "lat": 33.6316552, "lon": 46.9686286, "tags": {"is_in:country": "Iran", "name": "\u067e\u0644\u06a9\u06cc\u0644", "name:en": "Palkil", "place": "hamlet"}}, {"type": "node", "id": 3295228379, "lat": 33.8010901, "lon": 47.1227442, "tags": {"is_in:country": "Iran", "name": "\u067e\u0644\u06d5\u06a9\u06d5\u0648", "name:en": "Pelah Kabud", "name:fa": "\u067e\u0644\u0647 \u06a9\u0628\u0648\u062f", "name:ku": "Pile Kaw", "place": "village"}}, {"type": "node", "id": 3295228380, "lat": 33.7740637, "lon": 47.1004646, "tags": {"is_in:country": "Iran", "name": "\u0644\u0648\u0695\u0648\u0627\u0646", "name:en": "Posht Tang-e Sofla", "name:fa": "\u067e\u0634\u062a \u062a\u0646\u06af \u0633\u0641\u0644\u06cc", "place": "village"}}, {"type": "node", "id": 3295228381, "lat": 33.6282192, "lon": 46.9886747, "tags": {"is_in:country": "Iran", "name": "\u067e\u0634\u062a\u0647 \u06a9\u0628\u0648\u062f", "name:en": "Poshteh-ye Kabud", "place": "hamlet"}}, {"type": "node", "id": 3295228382, "lat": 33.740873, "lon": 47.1227495, "tags": {"is_in:country": "Iran", "name": "\u0634\u0647\u0631\u06a9 \u0627\u0645\u0627\u0645", "name:en": "Shahrak-e Emam", "place": "village"}}, {"type": "node", "id": 3295228383, "lat": 33.736273, "lon": 47.1390015, "tags": {"is_in:country": "Iran", "name": "\u0633\u0627\u0645\u0627\u0646", "name:en": "Saman", "place": "village"}}, {"type": "node", "id": 3295228385, "lat": 33.7604045, "lon": 47.0875546, "tags": {"is_in:country": "Iran", "name": "\u0634\u06ce\u0631\u0627\u0648\u06d5\u0646", "name:en": "Shiravand", "name:fa": "\u0634\u06cc\u0631\u0627\u0648\u0646\u062f", "name:ku": "\u015e\u00earawen", "place": "village"}}, {"type": "node", "id": 3295228386, "lat": 33.6902855, "lon": 47.0619443, "tags": {"is_in:country": "Iran", "name": "\u0698\u06ce\u0631\u0632\u06d5\u0645\u06cc\u0646\u06cc", "name:en": "Zir Khaki", "name:fa": "\u0632\u06cc\u0631 \u062e\u0627\u06a9\u06cc", "place": "village"}}, {"type": "node", "id": 3295228387, "lat": 33.7194957, "lon": 47.066046, "tags": {"is_in:country": "Iran", "name": "\u0633\u0631\u062e\u0647 \u0644\u06cc\u062c\u0647", "name:en": "Sorkheh Lijeh", "name:ku": "Sorxe L\u00eeje", "place": "village"}}, {"type": "node", "id": 3295228388, "lat": 33.6833797, "lon": 47.0577568, "tags": {"is_in:country": "Iran", "name": "\u062a\u0627\u0632\u0627\u0628\u0627\u062f", "name:en": "Tazehabad-e Zir Khaki", "name:fa": "\u062a\u0627\u0632\u0647 \u0622\u0628\u0627\u062f", "place": "village"}}, {"type": "node", "id": 3295228389, "lat": 33.7337321, "lon": 46.9623349, "tags": {"is_in:country": "Iran", "name": "\u06af\u06d5\u0646\u062c\u06d5\u0644\u06cc", "name:en": "Tokhm-e Balut-e Olya", "name:fa": "\u062a\u062e\u0645 \u0628\u0644\u0648\u0637 \u0639\u0644\u06cc\u0627", "place": "village"}}, {"type": "node", "id": 3295228390, "lat": 33.7265605, "lon": 46.967331, "tags": {"is_in:country": "Iran", "name": "\u062a\u062e\u0645 \u0628\u0644\u0648\u0637 \u0633\u0641\u0644\u06cc", "name:en": "Tokhm-e Balut-e Sofla", "name:fa": "\u062a\u062e\u0645 \u0628\u0644\u0648\u0637 \u0633\u0641\u0644\u06cc", "place": "village"}}, {"type": "node", "id": 3295228391, "lat": 33.7934972, "lon": 47.0833108, "tags": {"is_in:country": "Iran", "name": "\u0648\u06d5\u0631\u0628\u06d5\u0695", "name:en": "Varbar", "name:fa": "\u0648\u0631\u0628\u0631", "place": "village", "wikipedia": "fa:\u0648\u0631\u0628\u0631"}}, {"type": "node", "id": 3295228392, "lat": 33.7388753, "lon": 46.9633517, "tags": {"is_in:country": "Iran", "name": "\u0632\u0627\u06cc\u0631\u0627\u0646 \u062e\u0648\u0627\u0631\u06ce", "name:en": "Zahervand-e Sofla", "name:fa": "\u0638\u0627\u0647\u0631\u0648\u0646\u062f \u0633\u0641\u0644\u06cc", "place": "village"}}, {"type": "node", "id": 3296852720, "lat": 33.6666685, "lon": 46.7411493, "tags": {"is_in:country": "Iran", "name": "\u0639\u0644\u06cc\u0645\u0631\u0627\u062f\u062e\u0627\u0646\u06cc \u0639\u0644\u06cc\u0627", "name:en": "Ali Morad Khani-ye Olya", "place": "village"}}, {"type": "node", "id": 3296872438, "lat": 33.6641736, "lon": 46.8288364, "tags": {"is_in:country": "Iran", "name": "\u0628\u0627\u0644\u0627\u0648\u0647 \u062e\u0634\u06a9\u0647", "name:en": "Balaveh Khoshkeh", "name:ku": "Belawe Ho\u015fke", "place": "village"}}, {"type": "node", "id": 3296872439, "lat": 33.6545472, "lon": 46.7631131, "tags": {"is_in:country": "Iran", "name": "\u0639\u0644\u06cc\u0645\u0631\u0627\u062f\u062e\u0627\u0646\u06cc \u0633\u0641\u0644\u06cc", "name:en": "Ali Morad Khani-ye Sofla", "place": "village"}}, {"type": "node", "id": 3296872440, "lat": 33.6618068, "lon": 46.8921857, "tags": {"is_in:country": "Iran", "name": "\u0628\u0631\u0622\u0641\u062a\u0627\u0628 \u0628\u06cc", "name:en": "Baraftab-e Bi", "place": "village"}}, {"type": "node", "id": 3296872441, "lat": 33.624326, "lon": 46.8116819, "tags": {"is_in:country": "Iran", "name": "\u0686\u0645 \u067e\u0648\u0634", "name:en": "Cham Push", "place": "hamlet"}}, {"type": "node", "id": 3296872442, "lat": 33.6681929, "lon": 46.8629452, "tags": {"is_in:country": "Iran", "name": "\u0628\u0631\u0622\u0641\u062a\u0627\u0628 \u0686\u0644\u0627\u0628 \u0632\u0631\u062f", "name:en": "Baraftab-e Chalab Zard", "place": "hamlet"}}, {"type": "node", "id": 3296872444, "lat": 33.6077386, "lon": 46.8423145, "tags": {"is_in:country": "Iran", "name": "\u0686\u0645 \u0686\u0631\u0648\u062f", "name:en": "Cham Charud", "place": "village"}}, {"type": "node", "id": 3296872445, "lat": 33.6680773, "lon": 46.7635597, "tags": {"is_in:country": "Iran", "name": "\u0686\u063a\u0627\u0633\u0628\u0632", "name:en": "Chaqa Sabz", "place": "village"}}, {"type": "node", "id": 3296872446, "lat": 33.6537704, "lon": 46.87552, "tags": {"is_in:country": "Iran", "name": "\u0686\u0642\u0627\u0628\u0644\u06a9 \u0686\u0627\u0644\u0627\u0628 \u0632\u0631\u062f", "name:en": "Choqa Balak-e Chalab Zard", "place": "village"}}, {"type": "node", "id": 3296872447, "lat": 33.6508272, "lon": 46.8187548, "tags": {"is_in:country": "Iran", "name": "\u0686\u0642\u0627\u0628\u0644\u06a9 \u0647\u0631\u0642\u0631\u0648\u0634", "name:en": "Choqa Balak-e Harqorush", "place": "village"}}, {"type": "node", "id": 3296872448, "lat": 33.6289176, "lon": 46.8775623, "tags": {"is_in:country": "Iran", "name": "\u062f\u0631\u0647 \u0686\u067e\u06cc", "name:en": "Darreh Chapi", "place": "village"}}, {"type": "node", "id": 3296872449, "lat": 33.6383943, "lon": 46.9320776, "tags": {"is_in:country": "Iran", "name": "\u062f\u0648\u0644 \u0632\u0631\u062f \u0632\u06cc\u0631\u062a\u0646\u06af", "name:en": "Dul Zard-e Zirtang", "place": "hamlet"}}, {"type": "node", "id": 3296872450, "lat": 33.6409652, "lon": 46.7994205, "tags": {"is_in:country": "Iran", "name": "\u062c\u0648\u0628 \u0633\u0631\u062e \u0633\u0641\u0644\u06cc", "name:en": "Jub Sorkh-e Sofla", "place": "village"}}, {"type": "node", "id": 3296872451, "lat": 33.6413011, "lon": 46.8471045, "tags": {"is_in:country": "Iran", "name": "\u0647\u0644\u062a", "name:en": "Halat", "place": "village", "wikipedia": "fa:\u0647\u0644\u062a\u200e\u200e"}}, {"type": "node", "id": 3296872452, "lat": 33.6486697, "lon": 46.7867212, "tags": {"is_in:country": "Iran", "name": "\u062c\u0648\u0628 \u0628\u0631", "name:en": "Jub Bur", "place": "village"}}, {"type": "node", "id": 3296872453, "lat": 33.6185307, "lon": 46.8231239, "tags": {"is_in:country": "Iran", "name": "\u062c\u0648\u0628 \u0634\u0644\u0647", "name:en": "Jub Shaleh", "place": "village"}}, {"type": "node", "id": 3296872454, "lat": 33.6752876, "lon": 46.7426498, "tags": {"is_in:country": "Iran", "name": "\u06a9\u0644\u0647 \u0642\u0637\u0627\u0631 \u0639\u0644\u06cc\u0627", "name:en": "Kaleh Qatar-e Olya", "place": "hamlet"}}, {"type": "node", "id": 3296872455, "lat": 33.6659716, "lon": 46.7469661, "tags": {"is_in:country": "Iran", "name": "\u06a9\u0644\u0647 \u0642\u0637\u0627\u0631 \u0633\u0641\u0644\u06cc", "name:en": "Kaleh Qatar-e Sofla", "place": "hamlet"}}, {"type": "node", "id": 3296872457, "lat": 33.618438, "lon": 46.8140814, "tags": {"is_in:country": "Iran", "name": "\u06a9\u0644\u0646\u06af \u0628\u0631", "name:en": "Kolang Bor", "place": "village"}}, {"type": "node", "id": 3296872458, "lat": 33.6320166, "lon": 46.8523808, "tags": {"is_in:country": "Iran", "name": "\u0646\u062b\u0627\u0631 \u0686\u0627\u0644\u0627\u0628 \u0632\u0631\u062f", "place": "village"}}, {"type": "node", "id": 3296872459, "lat": 33.6348077, "lon": 46.9279407, "tags": {"is_in:country": "Iran", "name": "\u0646\u06cc\u062f\u0648\u0644\u0647 \u0639\u0644\u06cc\u0627", "name:en": "Neyduleh-ye Olya", "place": "village", "wikidata": "Q5865222", "wikipedia": "en:Neyduleh-ye Olya"}}, {"type": "node", "id": 3296872460, "lat": 33.6309827, "lon": 46.7977569, "tags": {"is_in:country": "Iran", "name": "\u0646\u0648\u0631\u0622\u0628\u0627\u062f", "name:en": "Nurabad", "place": "village"}}, {"type": "node", "id": 3296876561, "lat": 33.6500787, "lon": 46.7739809, "tags": {"is_in:country": "Iran", "name": "\u067e\u0647\u0646\u0647 \u0628\u0631", "name:en": "Pahneh Bor", "place": "hamlet"}}, {"type": "node", "id": 3296876562, "lat": 33.6816611, "lon": 46.7214399, "tags": {"is_in:country": "Iran", "name": "\u0642\u0627\u0633\u0645 \u0622\u0628\u0627\u062f", "name:en": "Qasemabad", "place": "hamlet"}}, {"type": "node", "id": 3296876563, "lat": 33.676403, "lon": 46.7304461, "tags": {"is_in:country": "Iran", "name": "\u0633\u0639\u062f\u0622\u0628\u0627\u062f", "name:en": "Sadabad", "place": "village"}}, {"type": "node", "id": 3296876564, "lat": 33.6367048, "lon": 46.8474823, "tags": {"is_in:country": "Iran", "name": "\u0633\u0631 \u0686\u0642\u0627", "name:en": "Sar Choqa", "place": "hamlet"}}, {"type": "node", "id": 3296876566, "lat": 33.6335565, "lon": 46.8985321, "tags": {"is_in:country": "Iran", "name": "\u062a\u062e\u062a \u0628\u0633\u0637\u0627\u0645 \u0639\u0644\u06cc\u0627", "name:en": "Takht-e Bastam-e Olya", "place": "hamlet"}}, {"type": "node", "id": 3296876567, "lat": 33.6333689, "lon": 46.9031958, "tags": {"is_in:country": "Iran", "name": "\u062a\u062e\u062a \u0628\u0633\u0637\u0627\u0645 \u0633\u0641\u0644\u06cc", "name:en": "Takht-e Bastam-e Sofla", "place": "hamlet"}}, {"type": "node", "id": 3296876569, "lat": 33.646163, "lon": 46.9232615, "tags": {"is_in:country": "Iran", "name": "\u0632\u06cc\u0631\u062a\u0646\u06af \u0628\u06cc\u062c\u0646\u0648\u0646\u062f", "name:en": "Zir Tang", "place": "village"}}, {"type": "node", "id": 3296952619, "lat": 33.6904944, "lon": 47.1502234, "tags": {"is_in:country": "Iran", "name": "\u062f\u0631\u0628 \u06af\u0646\u0628\u062f", "name:ckb": "\u062f\u06d5\u0631 \u06af\u06c6\u0645\u06d5", "name:en": "Darb-e Gonbad", "name:fa": "\u062f\u0631\u0628 \u06af\u0646\u0628\u062f", "name:fr": "Darb-e Gonbad", "name:ku": "Der Gome", "place": "town", "population": "2131", "population:date": "2016", "source:population": "amar.org.ir", "wikidata": "Q4357680", "wikipedia": "en:Darb-e Gonbad"}}, {"type": "node", "id": 3296968212, "lat": 33.7008984, "lon": 47.1005763, "tags": {"name": "\u0686\u0645 \u062f\u06cc\u0644\u0627\u0648\u0646\u062f \u0633\u0641\u0644\u06cc", "name:en": "Cham Deylavand-e Sofla", "place": "village", "wikidata": "Q5069187"}}, {"type": "node", "id": 3296968213, "lat": 33.6765039, "lon": 47.1358105, "tags": {"is_in:country": "Iran", "name": "\u0627\u0633\u06cc\u0627\u0648\u0644\u0647", "name:en": "Asiavaleh", "place": "hamlet"}}, {"type": "node", "id": 3296968214, "lat": 33.6593652, "lon": 47.1073187, "tags": {"is_in:country": "Iran", "name": "\u0628\u0627\u063a\u0644\u0647 \u0639\u0644\u06cc\u0627", "name:en": "Baghelah-ye Olya", "place": "village", "wikidata": "Q4841846"}}, {"type": "node", "id": 3296968215, "lat": 33.6697817, "lon": 47.1059216, "tags": {"is_in:country": "Iran", "name": "\u0628\u0627\u063a\u0644\u0647 \u0633\u0641\u0644\u06cc", "name:en": "Baghelah-ye Sofla", "place": "village"}}, {"type": "node", "id": 3296968216, "lat": 33.6983506, "lon": 47.126442, "tags": {"name": "\u0686\u0645\u062f\u06cc\u0644\u0627\u0648\u0646\u062f \u0639\u0644\u06cc\u0627", "name:en": "Cham Deylavand-e Olya", "place": "village", "wikidata": "Q5069193", "wikipedia": "en:Cham Deylavand-e Olya"}}, {"type": "node", "id": 3296968217, "lat": 33.6888357, "lon": 47.0717727, "tags": {"is_in:country": "Iran", "name": "\u0686\u0645 \u06a9\u0648\u0634\u06a9 \u0637\u0648\u0644\u0627\u0628\u06cc", "name:en": "Cham Kushk-e Tulabi", "place": "village", "wikidata": "Q5069237"}}, {"type": "node", "id": 3296968220, "lat": 33.6558899, "lon": 47.0604019, "tags": {"is_in:country": "Iran", "name": "\u0686\u0627\u0631\u0648 \u06af\u0644\u0647", "name:en": "Charu Geleh", "place": "village"}}, {"type": "node", "id": 3296968222, "lat": 33.6722217, "lon": 47.0732496, "tags": {"is_in:country": "Iran", "name": "\u06af\u0631\u0645\u0647 \u062e\u0627\u0646\u06cc", "name:en": "Garmeh Khani", "place": "village", "wikidata": "Q5523540"}}, {"type": "node", "id": 3296968223, "lat": 33.6313312, "lon": 47.1643821, "tags": {"is_in:country": "Iran", "name": "\u0634\u0631\u0634\u0631\u0647", "name:en": "Shur Shureh", "place": "village", "wikidata": "Q5811371", "wikipedia": "en:Shur Shureh, Kuhdasht"}}, {"type": "node", "id": 3296968224, "lat": 33.6671878, "lon": 47.1683687, "tags": {"is_in:country": "Iran", "name": "\u06af\u0645\u0628\u0644\u0647", "name:en": "Gombeleh", "place": "village", "wikidata": "Q5581127", "wikipedia": "en:Gombeleh"}}, {"type": "node", "id": 3296968225, "lat": 33.7133429, "lon": 47.1762056, "tags": {"is_in:country": "Iran", "name": "\u06a9\u0648\u0686\u06a9 \u0634\u06cc\u0631\u0627\u0648\u0646\u062f", "name:en": "Kuchekeh Shiravand", "place": "village", "wikidata": "Q5808779"}}, {"type": "node", "id": 3296968226, "lat": 33.697748, "lon": 47.0891237, "tags": {"is_in:country": "Iran", "is_in:province": "Lorestan", "name": "\u06a9\u0644\u0627\u0644\u06cc\u060c \u0628\u0627\u063a \u06a9\u0644\u0627\u0626\u06cc", "name:en": "Kalali", "place": "hamlet", "wikidata": "Q5815160", "wikipedia": "en:Kalali, Iran"}}, {"type": "node", "id": 3523688656, "lat": 33.8433, "lon": 47.0906, "tags": {"is_in:country": "Iran", "is_in:state": "Kermanshah", "name": "\u0628\u0627\u0646 \u0631\u0645\u0636\u0627\u0646", "name:en": "Ban Ramazan", "place": "village", "source:name": "GNS"}}, {"type": "node", "id": 3523688657, "lat": 33.8409, "lon": 46.7005, "tags": {"alt_name": "\u0628\u0627\u06cc\u0646\u062f\u0631\u0633\u0641\u0644\u06cc", "alt_name:en": "Bayandor-e Sofla;Bandarabad-e Pa'in", "is_in:country": "Iran", "is_in:state": "Kermanshah", "name": "\u0628\u0627\u0646\u062f\u0631 \u0622\u0628\u0627\u062f \u0633\u0641\u0644\u06cc", "name:en": "Bandarabad-e Sofla", "place": "village", "source:name": "GNS"}}, {"type": "node", "id": 3523688658, "lat": 33.8518, "lon": 46.6814, "tags": {"alt_name": "\u0628\u0627\u06cc\u0646\u062f\u0631 \u0639\u0644\u06cc\u0627", "alt_name:en": "Bayandor;Bandarabad-e Bala;Bayandor-e `Olya", "is_in:country": "Iran", "is_in:state": "Kermanshah", "name": "\u0628\u0627\u0646\u062f\u0631 \u0622\u0628\u0627\u062f \u0639\u0644\u06cc\u0627", "name:en": "Bandarabad-e `Olya", "place": "village", "source:name": "GNS"}}, {"type": "node", "id": 3523688665, "lat": 33.863689, "lon": 47.169309, "tags": {"alt_name": "\u0628\u0631\u0627 \u0628\u0644\u0648\u062c\u0633\u062a\u0627\u0646", "alt_name:en": "Bara Belujestan", "is_in:country": "Iran", "is_in:state": "Kermanshah", "name": "\u0628\u0627\u06cc\u0648\u0646\u062f", "name:en": "Bayevand", "place": "village", "source:name": "GNS"}}, {"type": "node", "id": 3523688692, "lat": 33.8521, "lon": 46.7422, "tags": {"alt_name": "\u062f\u0627\u0631\u0628\u06cc\u062f", "alt_name:en": "Darbid", "is_in:country": "Iran", "is_in:state": "Kermanshah", "name": "\u062f\u0627\u0631\u0628\u06cc\u062f \u0645\u0646\u0635\u0648\u0631\u06cc", "name:en": "Darbid-e Mansuri", "place": "village", "source:name": "GNS"}}, {"type": "node", "id": 3523690297, "lat": 33.7964, "lon": 46.7529, "tags": {"alt_name": "Davar Dar Mian;Davar Bamian", "alt_name:en": "Davar Dar Mian;Davar Bamian", "is_in:country": "Iran", "is_in:state": "Kermanshah", "name": "\u062f\u0627\u0648\u0631 \u062f\u0631 \u0645\u06cc\u0627\u0646", "name:en": "Davar Dar Mian", "place": "village", "source:name": "GNS"}}, {"type": "node", "id": 3523690305, "lat": 33.848006, "lon": 47.137385, "tags": {"alt_name": "\u06af\u0644\u06cc\u0627\u0646\u06c0 \u0639\u0644\u06cc \u0628\u0627\u0642\u0631;\u06af\u0644\u06cc\u0627\u0646\u0647;\u06a9\u0644\u06cc\u0627\u0646\u0647 \u0639\u0644\u06cc \u0628\u0627\u0642\u0631", "alt_name:en": "Kalianeh-ye `Ali Baqer;Galyaneh;Galianeh", "is_in:country": "Iran", "is_in:state": "Kermanshah", "name": "\u06af\u0644\u06cc\u0627\u0646\u0647 \u0639\u0644\u06cc \u0628\u0627\u0642\u0631", "name:en": "Galianeh-ye `Ali Baqer", "place": "village", "source:name": "GNS"}}, {"type": "node", "id": 3523690328, "lat": 33.8269, "lon": 46.6785, "tags": {"is_in:country": "Iran", "is_in:state": "Kermanshah", "name": "\u06a9\u0644\u06a9 \u062c\u0639\u0641\u0631", "name:en": "Kalak Ja`far", "place": "village", "source:name": "GNS"}}, {"type": "node", "id": 3523690329, "lat": 33.834, "lon": 46.6676, "tags": {"is_in:country": "Iran", "is_in:state": "Kermanshah", "name": "\u06a9\u0644\u06a9 \u062c\u0639\u0641\u0631", "name:en": "Kalak Ja`far", "place": "village", "source:name": "GNS"}}, {"type": "node", "id": 3523690331, "lat": 33.8479373, "lon": 47.0743, "tags": {"alt_name": "Kalek-e Sofla;Kalek-e `Olya", "alt_name:en": "Kalek-e Sofla;Kalek-e `Olya", "is_in:country": "Iran", "is_in:state": "Kermanshah", "name": "\u06a9\u0644\u06a9", "name:en": "Kalek", "place": "village", "source:name": "GNS"}}, {"type": "node", "id": 3523690333, "lat": 33.8308373, "lon": 46.7349, "tags": {"is_in:country": "Iran", "is_in:state": "Kermanshah", "name": "\u06a9\u0645\u0631\u0633\u0648\u0631\u0627\u062e", "name:en": "Kamar Surakh", "place": "village", "source:name": "GNS"}}, {"type": "node", "id": 3523690496, "lat": 33.8524, "lon": 47.0843, "tags": {"is_in:country": "Iran", "is_in:state": "Kermanshah", "name": "\u0644\u0627\u0644\u0647 \u0628\u06af", "name:en": "Laleh Beg", "place": "village", "source:name": "GNS"}}, {"type": "node", "id": 3523690503, "lat": 33.8335, "lon": 46.7601, "tags": {"alt_name": "Mian Chaqa;Miyan Cheqa", "alt_name:en": "Mian Chaqa;Miyan Cheqa", "is_in:country": "Iran", "is_in:state": "Kermanshah", "name": "\u0645\u06cc\u0627\u0646 \u0686\u0642\u0627", "name:en": "Mian Choqa", "place": "village", "source:name": "GNS"}}, {"type": "node", "id": 3523690517, "lat": 33.843836, "lon": 47.174354, "tags": {"alt_name": "\u0642\u0645\u0631\u0647 \u0648\u0646\u062f", "alt_name:en": "Qomreh Vand;Kameran", "is_in:country": "Iran", "is_in:state": "Kermanshah", "name": "\u067e\u0644\u06a9\u0627\u0646\u0647", "name:en": "Polkaneh", "place": "village", "source:name": "GNS"}}, {"type": "node", "id": 3523690518, "lat": 33.870236, "lon": 47.005615, "tags": {"is_in:country": "Iran", "is_in:state": "Kermanshah", "name": "\u067e\u0631\u06af\u0644\u06cc \u0633\u0641\u0644\u06cc", "name:en": "Porgoli-ye Sofla", "place": "village", "source:name": "GNS"}}, {"type": "node", "id": 3523690519, "lat": 33.871874, "lon": 47.013477, "tags": {"alt_name": "Palkuli", "alt_name:en": "Palkuli", "is_in:country": "Iran", "is_in:state": "Kermanshah", "name": "\u067e\u0631\u06af\u0644\u06cc \u0639\u0644\u06cc\u0627", "name:en": "Porgoli-ye `Olya", "place": "village", "source:name": "GNS"}}, {"type": "node", "id": 3523690522, "lat": 33.8464, "lon": 47.0319, "tags": {"alt_name": "\u0634\u0627\u0647 \u0648\u0644\u06cc;\u0642\u06cc\u0631 \u0628\u0627\u0628\u0627 \u0634\u0627\u0647 \u0648\u0644\u06cc", "alt_name:en": "Shah Vali;Qir-e Baba Shah Vali", "is_in:country": "Iran", "is_in:state": "Kermanshah", "name": "\u0642\u0628\u0631 \u0628\u0627\u0628\u0627", "name:en": "Qabr Baba", "place": "village", "source:name": "GNS"}}, {"type": "node", "id": 3523690528, "lat": 33.870002, "lon": 47.140683, "tags": {"alt_name": "\u062e\u0648\u0628 \u06cc\u0627\u0631\u0627\u0646 \u0633\u0641\u0644\u06cc", "alt_name:en": "Khub Yaran-e Sofla;Khub Yaran-e Pa'in", "is_in:country": "Iran", "is_in:state": "Kermanshah", "name": "\u0642\u0646\u0628\u0631", "name:en": "Qanbar", "place": "village", "source:name": "GNS"}}, {"type": "node", "id": 3523690529, "lat": 33.8729, "lon": 46.763, "tags": {"alt_name": "Qollaji;Kalaji", "alt_name:en": "Qollaji;Kalaji", "is_in:country": "Iran", "is_in:state": "Kermanshah", "name": "\u0642\u0644\u0627\u062c\u06cc", "name:en": "Qolaji", "place": "village", "source:name": "GNS"}}, {"type": "node", "id": 3523690531, "lat": 33.8718645, "lon": 46.7740715, "tags": {"alt_name": "\u0631\u0648\u062a\u0627\u0648\u0646\u062f \u0647\u0631\u0633\u0645", "alt_name:en": "Saiyidha Dawetahwand;Rutvand;Rootvand;Rutavand Harsam", "is_in:country": "Iran", "is_in:state": "Kermanshah", "name": "\u0631\u0648\u062a\u0648\u0646\u062f", "name:en": "Rutavand", "place": "village", "source:name": "GNS"}}, {"type": "node", "id": 3523690537, "lat": 33.861542, "lon": 47.13309, "tags": {"alt_name": "Sar Jub-e Sofla;Sarju Jalalwand;Sar Jub-e Jalavand;Sar Jub-e `Olya", "alt_name:en": "Sar Jub-e Sofla;Sarju Jalalwand;Sar Jub-e Jalavand;Sar Jub-e `Olya", "is_in:country": "Iran", "is_in:state": "Kermanshah", "name": "\u0633\u0631 \u062c\u0648\u0628", "name:en": "Sar Jub", "place": "village", "source:name": "GNS"}}, {"type": "node", "id": 3523690545, "lat": 33.8458, "lon": 47.0445, "tags": {"is_in:country": "Iran", "is_in:state": "Kermanshah", "name": "\u0633\u0631\u0632\u0644", "name:en": "Sarzal", "place": "village", "source:name": "GNS"}}, {"type": "node", "id": 3523690547, "lat": 33.862083, "lon": 47.073499, "tags": {"alt_name": "\u0633\u0647 \u062c\u0627", "alt_name:en": "Seh Ja", "is_in:country": "Iran", "is_in:state": "Kermanshah", "name": "\u0633\u062c\u0627", "name:en": "Seja", "place": "village", "source:name": "GNS"}}, {"type": "node", "id": 3523690551, "lat": 33.8142, "lon": 46.7216, "tags": {"alt_name": "\u0634\u0627\u062e\u0644 \u0628\u0647\u0627\u0631 \u0622\u0628", "alt_name:en": "Shakhol-e Bahar Ab", "is_in:country": "Iran", "is_in:state": "Kermanshah", "name": "\u0634\u0642\u0644 \u0628\u0647\u0627\u0631 \u0622\u0628", "name:en": "Shaqol-e Bahar Ab", "place": "village", "source:name": "GNS"}}, {"type": "node", "id": 3523690553, "lat": 33.8236, "lon": 46.7221, "tags": {"alt_name": "\u0686\u0627\u0644\u06af\u0647", "alt_name:en": "Siah Peleh-ye Sofla;Chalgeh", "is_in:country": "Iran", "is_in:state": "Kermanshah", "name": "\u0633\u06cc\u0627\u0647 \u067e\u0644\u0647", "name:en": "Siah Peleh", "place": "village", "source:name": "GNS"}}, {"type": "node", "id": 3523690554, "lat": 33.833333, "lon": 46.7, "tags": {"is_in:country": "Iran", "is_in:state": "Kermanshah", "name": "\u0633\u06cc\u0627\u0647 \u067e\u0644\u0647 \u0639\u0644\u06cc\u0627", "name:en": "Siah Peleh-ye `Olya", "name:fa": "Siah Peleh-ye `Olya", "place": "village", "source:name": "GNS"}}, {"type": "node", "id": 3523690556, "lat": 33.8344, "lon": 47.0845, "tags": {"is_in:country": "Iran", "is_in:state": "Kermanshah", "name": "\u0633\u0648\u0644\u0627\u0628", "name:en": "Sulab", "place": "village", "source:name": "GNS"}}, {"type": "node", "id": 3523690560, "lat": 33.8449, "lon": 47.0652, "tags": {"alt_name": "Tavileh-ye Sofla;Tavileh-ye Gav", "alt_name:en": "Tavileh-ye Sofla;Tavileh-ye Gav", "is_in:country": "Iran", "is_in:state": "Kermanshah", "name": "\u0637\u0648\u06cc\u0644\u0647 \u06af\u0627\u0647 \u0633\u0641\u0644\u06cc", "name:en": "Tavilehgah-e Sofla", "place": "village", "source:name": "GNS"}}, {"type": "node", "id": 3523690561, "lat": 33.8453, "lon": 47.0596, "tags": {"alt_name": "Tavileh-ye `Olya", "alt_name:en": "Tavileh-ye `Olya", "is_in:country": "Iran", "is_in:state": "Kermanshah", "name": "\u0637\u0648\u06cc\u0644\u0647 \u06af\u0627\u0647 \u0639\u0644\u06cc\u0627", "name:en": "Tavilehgah-e `Olya", "place": "village", "source:name": "GNS"}}, {"type": "node", "id": 3523690566, "lat": 33.8318, "lon": 46.7262, "tags": {"alt_name": "Tazehabad-e Siah Peleh", "alt_name:en": "Tazehabad-e Siah Peleh", "is_in:country": "Iran", "is_in:state": "Kermanshah", "name": "\u062a\u0627\u0632\u0647 \u0622\u0628\u0627\u062f", "name:en": "Tazehabad", "place": "village", "source:name": "GNS"}}, {"type": "node", "id": 3523690578, "lat": 33.8781, "lon": 46.764, "tags": {"alt_name": "\u0633\u06cc\u062f\u0645\u0627", "alt_name:en": "Seyyedma", "is_in:country": "Iran", "is_in:state": "Kermanshah", "name": "\u0632\u0639\u0641\u0631\u0627\u0646 \u0633\u0641\u0644\u06cc", "name:en": "Za`faran-e Sofla", "place": "village", "source:name": "GNS"}}, {"type": "node", "id": 3523690581, "lat": 33.866082, "lon": 47.181023, "tags": {"alt_name": "\u0632\u0631\u062f", "alt_name:en": "Zard", "is_in:country": "Iran", "is_in:state": "Kermanshah", "name": "\u0632\u0631\u062f \u0634\u06cc\u062e \u062d\u0633\u0646", "name:en": "Zard Sheykh Hasan", "place": "village", "source:name": "GNS"}}, {"type": "node", "id": 3523800827, "lat": 33.8201, "lon": 46.8969, "tags": {"alt_name": "Baqerabad", "alt_name:en": "Baqerabad", "is_in:country": "Iran", "is_in:state": "Kermanshah", "name": "\u0628\u0627\u0642\u0631\u0622\u0628\u0627\u062f \u062f\u06cc\u0632\u06af\u0631\u0627\u0646", "name:en": "Baqerabad-e Dizgaran", "place": "village", "source:name": "GNS", "wikipedia": "fa:\u0628\u0627\u0642\u0631\u0622\u0628\u0627\u062f (\u0627\u0633\u0644\u0627\u0645\u200c\u0622\u0628\u0627\u062f \u063a\u0631\u0628)"}}, {"type": "node", "id": 3523800830, "lat": 33.8294, "lon": 46.8829, "tags": {"alt_name": "Bazgeh", "alt_name:en": "Bazgeh", "is_in:country": "Iran", "is_in:state": "Kermanshah", "name": "\u0628\u0627\u0632\u06af\u0647", "name:en": "Bazegeh", "place": "village", "source:name": "GNS", "wikidata": "Q5813708", "wikipedia": "fa:\u0628\u0627\u0632\u06af\u0647"}}, {"type": "node", "id": 3523800831, "lat": 33.7737, "lon": 46.8523, "tags": {"alt_name": "\u0686\u0627\u0631 \u0645\u0644\u0647 \u0627\u06a9\u0628\u0631", "alt_name:en": "Chahar Meleh-ye Bala;Chahar Meleh-ye `Olya;Char Meleh-ye Akbar", "is_in:country": "Iran", "is_in:state": "Kermanshah", "name": "\u0686\u0647\u0627\u0631 \u0645\u0644\u0647 \u0627\u06a9\u0628\u0631", "name:en": "Chahar Meleh-ye Akbar", "place": "village", "source:name": "GNS", "wikipedia": "fa:\u0686\u0647\u0627\u0631\u0645\u0644\u0647 \u0639\u0644\u06cc\u0627"}}, {"type": "node", "id": 3523800832, "lat": 33.7555, "lon": 46.8851, "tags": {"alt_name": "Chahar Meleh-ye Pa'in;Chahar Meleh-ye Sofla", "alt_name:en": "Chahar Meleh-ye Pa'in;Chahar Meleh-ye Sofla", "is_in:country": "Iran", "is_in:state": "Kermanshah", "name": "\u0686\u0647\u0627\u0631 \u0645\u0644\u0647 \u0639\u0631\u0628", "name:en": "Chahar Meleh-ye `Arab", "place": "village", "source:name": "GNS", "wikidata": "Q5831396", "wikipedia": "fa:\u0686\u0647\u0627\u0631\u0645\u0644\u0647 \u0633\u0641\u0644\u06cc"}}, {"type": "node", "id": 3523800833, "lat": 33.8662, "lon": 46.8156, "tags": {"is_in:country": "Iran", "is_in:state": "Kermanshah", "name": "\u0686\u0647\u0627\u0631\u062f\u0647 \u062c\u0641\u062a\u0647", "name:en": "Chahardah Jofteh", "place": "village", "source:name": "GNS", "wikidata": "Q5827848", "wikipedia": "fa:\u0686\u0647\u0627\u0631\u062f\u0647\u200c\u062c\u0641\u062a\u0647"}}, {"type": "node", "id": 3523800834, "lat": 33.8012, "lon": 46.7977, "tags": {"is_in:country": "Iran", "is_in:state": "Kermanshah", "name": "\u0686\u0634\u0645\u0647 \u06a9\u0628\u0648\u062f", "name:en": "Cheshmeh Kabud", "place": "village", "source:name": "GNS"}}, {"type": "node", "id": 3523800835, "lat": 33.8361, "lon": 46.8697, "tags": {"alt_name": "\u06af\u0631\u062f\u06cc \u062f\u06cc\u0632\u06af\u0631\u0627\u0646", "alt_name:en": "Garmi;Gordi-ye Dizgaran", "is_in:country": "Iran", "is_in:state": "Kermanshah", "name": "\u06af\u0631\u062f\u06cc", "name:en": "Gordi", "place": "village", "source:name": "GNS", "wikidata": "Q5811075", "wikipedia": "fa:\u06af\u0631\u062f\u06cc"}}, {"type": "node", "id": 3523800837, "lat": 33.797, "lon": 46.9294, "tags": {"is_in:country": "Iran", "is_in:state": "Kermanshah", "name": "\u0647\u0634\u062a \u062c\u0641\u062a\u0647", "name:en": "Hasht Jofteh", "place": "village", "source:name": "GNS", "wikidata": "Q5812471", "wikipedia": "fa:\u0647\u0634\u062a\u200c\u062c\u0641\u062a\u0647"}}, {"type": "node", "id": 3523800838, "lat": 33.8493, "lon": 46.986, "tags": {"alt_name": "\u0647\u0627\u0634\u0645 \u062e\u0627\u0646", "alt_name:en": "Hashemkhan", "is_in:country": "Iran", "is_in:state": "Kermanshah", "name": "\u06a9\u0644\u0647 \u0632\u0631\u062f", "name:en": "Kaleh Zard", "place": "village", "source:name": "GNS"}}, {"type": "node", "id": 3523800839, "lat": 33.7415, "lon": 46.8671, "tags": {"alt_name": "\u06a9\u0645\u0627\u0644 \u06af\u06cc\u0631", "alt_name:en": "Jamalgir;Kamalgir", "is_in:country": "Iran", "is_in:state": "Kermanshah", "name": "\u06a9\u0645\u0627\u0644\u06af\u06cc\u0631", "name:en": "Kamalgir", "place": "village", "source:name": "GNS", "wikidata": "Q5820356", "wikipedia": "fa:\u06a9\u0645\u0627\u0644\u06af\u06cc\u0631"}}, {"type": "node", "id": 3523800846, "lat": 33.8318, "lon": 46.8772, "tags": {"alt_name": "\u0645\u0646\u0648\u0631\u06cc", "alt_name:en": "Manavari;Manuri;Manavvari", "is_in:country": "Iran", "is_in:state": "Kermanshah", "name": "\u0645\u0646\u0648\u0631\u06cc \u062f\u06cc\u0632\u06af\u0631\u0627\u0646", "name:en": "Manavvari Dizgaran", "place": "village", "source:name": "GNS", "wikidata": "Q6517978", "wikipedia": "fa:\u0645\u0646\u0648\u0631\u06cc (\u0627\u0633\u0644\u0627\u0645\u200c\u0622\u0628\u0627\u062f \u063a\u0631\u0628)"}}, {"type": "node", "id": 3523800847, "lat": 33.7776, "lon": 46.9459, "tags": {"alt_name": "\u0645\u0644\u0647 \u0647\u0627\u0631 \u062f\u06cc\u0632\u06af\u0631\u0627\u0646", "alt_name:en": "Meleh Har;Meleh Har-e Dizgaran", "is_in:country": "Iran", "is_in:state": "Kermanshah", "name": "\u0645\u0644\u0647 \u0647\u0627\u06cc \u062f\u06cc\u0632\u06af\u0631\u0627\u0646", "name:en": "Meleh Hay-ye Dizgaran", "place": "village", "source:name": "GNS", "wikidata": "Q5820021", "wikipedia": "fa:\u0645\u0644\u0647\u200c\u0647\u0627\u0631"}}, {"type": "node", "id": 3523800848, "lat": 33.8393, "lon": 46.7707, "tags": {"alt_name": "Mumena'i", "alt_name:en": "Mumena'i", "is_in:country": "Iran", "is_in:state": "Kermanshah", "name": "\u0645\u0624\u0645\u0646\u0627\u0626\u06cc", "name:en": "Mow'mena'i", "place": "village", "source:name": "GNS"}}, {"type": "node", "id": 3523800849, "lat": 33.866789, "lon": 46.832126, "tags": {"alt_name": "Qal`eh-ye Harasam;Harasam", "alt_name:en": "Qal`eh-ye Harasam;Harasam", "is_in:country": "Iran", "is_in:state": "Kermanshah", "name": "\u0642\u0644\u0639\u0647 \u0647\u0631\u0633\u0645", "name:en": "Qal`eh Harasam", "place": "village", "source:name": "GNS", "wikidata": "Q5824229", "wikipedia": "fa:\u0642\u0644\u0639\u0647 \u0647\u0631\u0633\u0645"}}, {"type": "node", "id": 3523800850, "lat": 33.7869, "lon": 46.9348, "tags": {"is_in:country": "Iran", "is_in:state": "Kermanshah", "name": "\u0642\u0644\u0639\u0647 \u062a\u0631\u06a9 \u0633\u0641\u0644\u06cc", "name:en": "Qal`eh Tork-e Sofla", "place": "village", "source:name": "GNS", "wikidata": "Q5831068", "wikipedia": "fa:\u0642\u0644\u0639\u0647\u200c\u062a\u0631\u06a9 \u0633\u0641\u0644\u06cc"}}, {"type": "node", "id": 3523800851, "lat": 33.7858, "lon": 46.9384, "tags": {"alt_name": "\u0642\u0644\u0639\u06c0 \u062a\u0631\u06a9", "alt_name:en": "Qal`eh Turk;Qal`a Turk;Qal`eh-ye Tork", "is_in:country": "Iran", "is_in:state": "Kermanshah", "name": "\u0642\u0644\u0639\u0647 \u062a\u0631\u06a9 \u0639\u0644\u06cc\u0627", "name:en": "Qal`eh Tork-e `Olya", "place": "village", "source:name": "GNS", "wikidata": "Q5831070", "wikipedia": "fa:\u0642\u0644\u0639\u0647\u200c\u062a\u0631\u06a9 \u0639\u0644\u06cc\u0627"}}, {"type": "node", "id": 3523800853, "lat": 33.7962, "lon": 46.9259, "tags": {"is_in:country": "Iran", "is_in:state": "Kermanshah", "name": "\u0631\u0636\u0627\u0622\u0628\u0627\u062f", "name:en": "Rezaabad", "place": "village", "source:name": "GNS", "wikidata": "Q5842470", "wikipedia": "fa:\u0631\u0636\u0627\u0622\u0628\u0627\u062f (\u0627\u0633\u0644\u0627\u0645\u200c\u0622\u0628\u0627\u062f \u063a\u0631\u0628)"}}, {"type": "node", "id": 3523800854, "lat": 33.8119, "lon": 46.9127, "tags": {"alt_name": "\u0631\u06cc\u0628\u0644\u06a9 \u0633\u0641\u0644\u06cc", "alt_name:en": "Rah Balag-e Sofla;Riblak-e Sofla", "is_in:country": "Iran", "is_in:state": "Kermanshah", "name": "\u0631\u06cc\u0628\u0644\u06af \u0633\u0641\u0644\u06cc", "name:en": "Ribalag-e Sofla", "place": "village", "source:name": "GNS", "wikidata": "Q5826749", "wikipedia": "fa:\u0631\u06cc\u200c\u0628\u0644\u06a9 \u0633\u0641\u0644\u06cc"}}, {"type": "node", "id": 3523800855, "lat": 33.8054, "lon": 46.9193, "tags": {"alt_name": "\u0631\u06cc\u0628\u0644\u06a9 \u0639\u0644\u06cc\u0627", "alt_name:en": "Rahbalak-e Bala;Rah Balag-e`Olya;Riblak-e `Olya", "is_in:country": "Iran", "is_in:state": "Kermanshah", "name": "\u0631\u06cc\u0628\u0644\u06af \u0639\u0644\u06cc\u0627", "name:en": "Ribalag-e `Olya", "place": "village", "source:name": "GNS", "wikidata": "Q5826749", "wikipedia": "fa:\u0631\u06cc\u200c\u0628\u0644\u06a9 \u0633\u0641\u0644\u06cc"}}, {"type": "node", "id": 3523800856, "lat": 33.8567, "lon": 46.8541, "tags": {"alt_name": "Sarab-e Harasm", "alt_name:en": "Sarab-e Harasm", "is_in:country": "Iran", "is_in:state": "Kermanshah", "name": "\u0633\u0631\u0627\u0628 \u0647\u0631\u0633\u0645", "name:en": "Sarab-e Harasam", "place": "village", "source:name": "GNS", "wikidata": "Q6559023", "wikipedia": "fa:\u0633\u0631\u0627\u0628 \u0647\u0631\u0633\u0645"}}, {"type": "node", "id": 3523800858, "lat": 33.8648, "lon": 46.8181, "tags": {"is_in:country": "Iran", "is_in:state": "Kermanshah", "name": "\u062a\u0627\u0632\u0647 \u0622\u0628\u0627\u062f", "name:en": "Tazehabad", "place": "village", "source:name": "GNS", "wikidata": "Q5852733", "wikipedia": "fa:\u062a\u0627\u0632\u0647\u200c\u0622\u0628\u0627\u062f (\u0627\u0633\u0644\u0627\u0645\u200c\u0622\u0628\u0627\u062f \u063a\u0631\u0628)"}}, {"type": "node", "id": 3523800859, "lat": 33.8798, "lon": 46.7935, "tags": {"alt_name": "\u0637\u0648\u0644\u0627\u0628\u06cc", "alt_name:en": "Tulabi", "is_in:country": "Iran", "is_in:state": "Kermanshah", "name": "\u0637\u0648\u0644\u0627\u0628\u06cc \u0647\u0631\u0627\u0633\u0645", "name:en": "Tulabi Harasam", "place": "village", "source:name": "GNS", "wikidata": "Q5816624", "wikipedia": "fa:\u062a\u0648\u0644\u0627\u0628\u06cc"}}, {"type": "node", "id": 3523800860, "lat": 33.8247, "lon": 46.8913, "tags": {"alt_name": "Visegeh;Visekeh;Veysekeh", "alt_name:en": "Visegeh;Visekeh;Veysekeh", "is_in:country": "Iran", "is_in:state": "Kermanshah", "name": "\u0648\u06cc\u0633\u06af\u0647", "name:en": "Visgeh", "place": "village", "source:name": "GNS", "wikidata": "Q5804997", "wikipedia": "fa:\u0648\u06cc\u0633\u06af\u0647"}}, {"type": "node", "id": 3523800861, "lat": 33.814, "lon": 46.909, "tags": {"alt_name": "Qal'a Aliabad;Dizgeran;Dizgaran;Qal`eh `Aliabad", "alt_name:en": "Qal'a Aliabad;Dizgeran;Dizgaran;Qal`eh `Aliabad", "is_in:country": "Iran", "is_in:state": "Kermanshah", "name": "\u0639\u0644\u06cc \u0622\u0628\u0627\u062f", "name:en": "Aliabad", "place": "village", "source:name": "GNS", "wikidata": "Q5838239", "wikipedia": "fa:\u0639\u0644\u06cc\u200c\u0622\u0628\u0627\u062f \u062f\u06cc\u0632\u06af\u0631\u0627\u0646"}}, {"type": "node", "id": 3989927403, "lat": 33.5988743, "lon": 47.000767}, {"type": "node", "id": 3989927405, "lat": 33.5993718, "lon": 47.0016741}, {"type": "node", "id": 3989927406, "lat": 33.5994597, "lon": 46.9997703}, {"type": "node", "id": 3989927407, "lat": 33.5995578, "lon": 47.001765}, {"type": "node", "id": 3989927408, "lat": 33.5997392, "lon": 47.001315}, {"type": "node", "id": 3989927409, "lat": 33.5997829, "lon": 47.0000406}, {"type": "node", "id": 3989927410, "lat": 33.5997909, "lon": 47.0004433}, {"type": "node", "id": 3989927412, "lat": 33.5999574, "lon": 47.0007459}, {"type": "node", "id": 3989927413, "lat": 33.6000617, "lon": 47.0013705}, {"type": "node", "id": 3989927415, "lat": 33.600188, "lon": 47.000664}, {"type": "node", "id": 3989927418, "lat": 33.6004156, "lon": 47.0004513}, {"type": "node", "id": 3989927420, "lat": 33.6005715, "lon": 46.9960051}, {"type": "node", "id": 3989927422, "lat": 33.6006814, "lon": 47.0008308}, {"type": "node", "id": 3989927423, "lat": 33.6006987, "lon": 46.9971029}, {"type": "node", "id": 3989927424, "lat": 33.6007419, "lon": 46.9959145}, {"type": "node", "id": 3989927426, "lat": 33.6009489, "lon": 46.9959171}, {"type": "node", "id": 3989927427, "lat": 33.6009985, "lon": 46.9973592}, {"type": "node", "id": 3989927429, "lat": 33.6010395, "lon": 46.9971391}, {"type": "node", "id": 3989927430, "lat": 33.6010955, "lon": 46.9956504}, {"type": "node", "id": 3989927433, "lat": 33.6011904, "lon": 46.9976829}, {"type": "node", "id": 3989927434, "lat": 33.6012055, "lon": 46.9974706}, {"type": "node", "id": 3989927436, "lat": 33.6014082, "lon": 46.9959404}, {"type": "node", "id": 3989927443, "lat": 33.6016278, "lon": 46.9965158}, {"type": "node", "id": 3989927444, "lat": 33.6016766, "lon": 46.9971883}, {"type": "node", "id": 4476784341, "lat": 33.5711734, "lon": 46.8017054, "tags": {"is_in:country": "Iran", "is_in:state": "Ilam", "name": "\u0628\u0627\u0646\u0648\u0627\u0632", "place": "village", "population": "379"}}, {"type": "node", "id": 4476784345, "lat": 33.5580366, "lon": 46.8212891, "tags": {"is_in:country": "Iran", "is_in:state": "Ilam", "name": "\u062f\u0631\u0648\u06cc\u0634\u0627\u0646", "place": "village", "population": "451", "wikidata": "Q5225867"}}, {"type": "node", "id": 4476784347, "lat": 33.5725038, "lon": 46.8071464, "tags": {"is_in:country": "Iran", "is_in:state": "Ilam", "name": "\u0641\u0631\u0647\u0646\u06af\u06cc\u0627\u0646", "place": "village", "population": "257"}}, {"type": "node", "id": 4476784362, "lat": 33.5809733, "lon": 46.748646, "tags": {"is_in:country": "Iran", "is_in:state": "Ilam", "name": "\u0644\u0631\u0646\u06cc \u0639\u0644\u06cc\u0627", "place": "village", "population": "278"}}, {"type": "node", "id": 4476784372, "lat": 33.6354826, "lon": 47.0224279, "tags": {"is_in:country": "Iran", "is_in:state": "Ilam", "name": "\u0686\u0645 \u0628\u0648\u0631 \u0641\u0631\u062e\u06cc\u0646\u0648\u0646\u062f", "place": "village", "population": "278"}}, {"type": "node", "id": 4491454695, "lat": 33.4871859, "lon": 47.0147871, "tags": {"is_in:country": "Iran", "is_in:state": "Lorestan", "name": "\u06a9\u0644\u0627\u0631\u0686\u0647 \u0634\u0648\u0631\u0647", "place": "hamlet"}}, {"type": "node", "id": 4491454704, "lat": 33.4817369, "lon": 47.1668785, "tags": {"is_in:country": "Iran", "is_in:state": "Lorestan", "name": "\u0635\u06cc\u062f\u06a9\u0631\u06cc\u0645 \u06a9\u0648\u0634\u06a9\u06cc", "place": "village", "wikidata": "Q5811844"}}, {"type": "node", "id": 4491454705, "lat": 33.4836414, "lon": 47.1555447, "tags": {"is_in:country": "Iran", "is_in:state": "Lorestan", "name": "\u0645\u062d\u0645\u062f\u06a9\u0631\u06cc\u0645 \u06a9\u0648\u0634\u06a9\u06cc", "place": "village", "wikidata": "Q5810040"}}, {"type": "node", "id": 4491454706, "lat": 33.4847397, "lon": 47.1472223, "tags": {"is_in:country": "Iran", "is_in:state": "Lorestan", "name": "\u0645\u062d\u0645\u062f\u0639\u0644\u06cc", "place": "village"}}, {"type": "node", "id": 4491454707, "lat": 33.4883456, "lon": 47.1383387, "tags": {"is_in:country": "Iran", "is_in:state": "Lorestan", "name": "\u0642\u0644\u0646\u062f\u0631", "place": "village"}}, {"type": "node", "id": 4491454708, "lat": 33.4921527, "lon": 47.129997, "tags": {"is_in:country": "Iran", "is_in:state": "Lorestan", "name": "\u062d\u06cc\u062f\u0631\u0639\u0644\u06cc", "place": "village", "wikidata": "Q5792711"}}, {"type": "node", "id": 4491454709, "lat": 33.4989302, "lon": 47.1170857, "tags": {"is_in:country": "Iran", "is_in:state": "Lorestan", "name": "\u0644\u0637\u06cc\u0641", "place": "village", "wikidata": "Q6496059"}}, {"type": "node", "id": 4491454711, "lat": 33.5804127, "lon": 47.005625, "tags": {"is_in:country": "Iran", "is_in:state": "Lorestan", "name": "\u06a9\u0648\u0644 \u0628\u0627\u062f\u0627\u0645 \u06cc\u0627\u0648\u0631", "place": "village", "wikidata": "Q5808768"}}, {"type": "node", "id": 4491454713, "lat": 33.5447326, "lon": 47.070945, "tags": {"is_in:country": "Iran", "is_in:state": "Lorestan", "name": "\u0686\u0627\u0647 \u062e\u06cc\u0631\u0647", "place": "village"}}, {"type": "node", "id": 4491454714, "lat": 33.5599146, "lon": 47.0756441, "tags": {"is_in:country": "Iran", "is_in:state": "Lorestan", "name": "\u0632\u0648\u0644\u0647", "place": "village"}}, {"type": "node", "id": 4491454715, "lat": 33.5544343, "lon": 47.1279352, "tags": {"is_in:country": "Iran", "is_in:state": "Lorestan", "name": "\u0642\u06cc\u0644\u0647", "place": "village"}}, {"type": "node", "id": 4491454718, "lat": 33.5114473, "lon": 47.1509186, "tags": {"is_in:country": "Iran", "is_in:state": "Lorestan", "name": "\u062a\u0646\u06af \u06a9\u0628\u0648\u062f", "place": "village"}}, {"type": "node", "id": 4491454719, "lat": 33.5089693, "lon": 47.1520629, "tags": {"is_in:country": "Iran", "is_in:state": "Lorestan", "name": "\u06af\u0644\u0627\u0628\u06cc", "place": "village"}}, {"type": "node", "id": 4491454721, "lat": 33.4776856, "lon": 46.9315205, "tags": {"is_in:country": "Iran", "is_in:state": "Lorestan", "name": "\u0686\u0645 \u0645\u06cc\u0631\u0628\u06cc\u06af", "place": "village", "wikidata": "Q5069130"}}, {"type": "node", "id": 4491454722, "lat": 33.4647891, "lon": 46.9482628, "tags": {"is_in:country": "Iran", "is_in:state": "Lorestan", "name": "\u0686\u0645 \u0644\u062a\u0648\u0631", "place": "village", "wikidata": "Q5069126"}}, {"type": "node", "id": 4491454723, "lat": 33.4655872, "lon": 46.965594, "tags": {"is_in:country": "Iran", "is_in:state": "Lorestan", "name": "\u0642\u0628\u0631 \u0645\u062d\u0645\u062f\u0645\u0631\u0627\u062f", "place": "village", "wikidata": "Q5799833"}}, {"type": "node", "id": 4491454724, "lat": 33.4545522, "lon": 46.9754283, "tags": {"is_in:country": "Iran", "is_in:state": "Lorestan", "name": "\u0686\u0642\u0627\u0633\u0628\u0632 \u0646\u0642\u062f\u0639\u0644\u06cc", "place": "village", "wikidata": "Q5104902"}}, {"type": "node", "id": 4491454725, "lat": 33.5110872, "lon": 46.8842544, "tags": {"is_in:country": "Iran", "is_in:state": "Lorestan", "name": "\u0633\u06cc\u0627\u0647 \u06a9\u0645\u0631\u0647 \u0632\u0627\u0644\u06cc", "place": "village", "wikidata": "Q5805232"}}, {"type": "node", "id": 4491454726, "lat": 33.564317, "lon": 46.9062914, "tags": {"is_in:country": "Iran", "is_in:state": "Lorestan", "name": "\u0634\u0627\u0647\u06cc\u0648\u0646\u062f", "place": "hamlet"}}, {"type": "node", "id": 4491454727, "lat": 33.5454325, "lon": 46.9363175, "tags": {"is_in:country": "Iran", "is_in:state": "Lorestan", "name": "\u06a9\u0631\u0645 \u062e\u0627\u0646", "place": "hamlet"}}, {"type": "node", "id": 4491454728, "lat": 33.5356928, "lon": 46.9395891, "tags": {"is_in:country": "Iran", "is_in:state": "Lorestan", "name": "\u062d\u0627\u062c\u06cc \u0639\u0644\u06cc", "place": "hamlet"}}, {"type": "node", "id": 4491454729, "lat": 33.5191844, "lon": 46.9705923, "tags": {"is_in:country": "Iran", "is_in:state": "Lorestan", "name": "\u067e\u0631\u0686\u0647 \u0633\u0631\u062e\u0647", "place": "hamlet"}}, {"type": "node", "id": 4571036878, "lat": 33.5500886, "lon": 47.0625316, "tags": {"name": "\u0633\u0631\u0637\u0631\u0647\u0627\u0646 \u0686\u0634\u0645\u0647 \u0633\u0641\u06cc\u062f", "place": "village"}}, {"type": "node", "id": 5247277600, "lat": 33.7019592, "lon": 46.6673553}, {"type": "node", "id": 5247277602, "lat": 33.7026024, "lon": 46.6669417}, {"type": "node", "id": 5247277603, "lat": 33.7028674, "lon": 46.6667713}, {"type": "node", "id": 5247277753, "lat": 33.6871675, "lon": 46.7319325}, {"type": "node", "id": 5247277782, "lat": 33.6877116, "lon": 46.7304692}, {"type": "node", "id": 5247277791, "lat": 33.6877736, "lon": 46.7287033}, {"type": "node", "id": 5251678524, "lat": 33.6014131, "lon": 46.9974563}, {"type": "node", "id": 5652483422, "lat": 33.4602987, "lon": 46.7424803, "tags": {"name": "\u067e\u0627\u06a9\u0644 \u06af\u0631\u0627\u0628", "name:en": "Pakal-e Garab", "place": "village"}}, {"type": "node", "id": 6777582630, "lat": 33.4460625, "lon": 46.8396646, "tags": {"name": "\u0686\u0646\u0627\u0631 \u062c\u0627\u0641\u0631\u06cc", "place": "village"}}, {"type": "node", "id": 6984492380, "lat": 33.5316246, "lon": 46.8395179, "tags": {"name": "\u0633\u06cc\u0627\u0647 \u0633\u06cc\u0627\u0647", "place": "village"}}, {"type": "node", "id": 7079402033, "lat": 33.6665994, "lon": 47.1606535, "tags": {"name": "\u06af\u0645\u0628\u0644\u0647 \u0639\u0644\u06cc\u0627", "place": "village"}}, {"type": "node", "id": 9169799078, "lat": 33.511368, "lon": 47.1001, "tags": {"name": "\u0686\u0642\u0627\u067e\u06cc\u062a", "place": "village"}}, {"type": "node", "id": 9536936233, "lat": 33.4558637, "lon": 46.9561028, "tags": {"name": "\u0686\u0645 \u0631\u0648\u062a\u0647", "place": "village", "wikidata": "Q5069273"}}, {"type": "node", "id": 9670106361, "lat": 33.5502874, "lon": 47.0547143, "tags": {"name": "\u0633\u0631\u0637\u0631\u0647\u0627\u0646 \u0645\u0644\u0647", "place": "village"}}, {"type": "node", "id": 9671522401, "lat": 33.6817334, "lon": 46.7679593, "tags": {"is_in:country": "Iran", "name": "\u0634\u0648\u0631\u0627\u0628\u0647 \u0645\u0631\u0627\u062a\u0639", "name:en": "Shurabeh-ye Marate", "place": "village", "wikidata": "Q5865755", "wikipedia": "en:Shurabeh-ye Marate"}}, {"type": "node", "id": 9671527627, "lat": 33.6859093, "lon": 46.7286381, "tags": {"is_in:country": "Iran", "name": "\u0637\u0627\u0642 \u06af\u0627\u0648\u0631\u06cc\u0646", "name:en": "Taq-e Gavarin", "place": "village"}}, {"type": "node", "id": 9852690211, "lat": 33.7501914, "lon": 46.975656, "tags": {"name": "\u0634\u0627\u0647 \u0628\u062f\u0627\u063a", "name:ckb": "\u0634\u06d5\u0647\u0628\u06cc\u06cc\u0627\u062e", "name:ku": "\u015eehb\u00eeyax", "place": "village"}}, {"type": "node", "id": 9856222475, "lat": 33.5992039, "lon": 47.0013679}, {"type": "node", "id": 9931872720, "lat": 33.6536621, "lon": 46.981242, "tags": {"name": "\u062f\u0631\u0647 \u06af\u0646\u0648\u0698", "place": "village"}}, {"type": "node", "id": 9931872722, "lat": 33.6527683, "lon": 46.9594922, "tags": {"name": "\u0646\u0627\u0645 \u0686\u06cc\u0627", "place": "village"}}, {"type": "node", "id": 9939682177, "lat": 33.6072063, "lon": 46.9826594, "tags": {"name": "\u06a9\u0645\u0648\u0644 \u0628\u0627\u0628\u0627\u062e\u0627\u0646\u06cc", "name:en": "Kamul-Babakhani_Farkhinvand", "place": "village"}}, {"type": "node", "id": 9963440077, "lat": 33.6468609, "lon": 46.974844, "tags": {"name": "\u06af\u06cc\u0632\u0644\u0627\u0646", "place": "hamlet"}}, {"type": "node", "id": 9963697435, "lat": 33.6604557, "lon": 46.96905, "tags": {"name": "\u0686\u0627\u0644\u0627\u0628", "place": "hamlet"}}, {"type": "node", "id": 10034973374, "lat": 33.8067742, "lon": 47.1201754, "tags": {"name": "\u067e\u06ce\u0634\u062a\u06d5\u0646\u06af", "name:en": "P\u00eashtang", "name:fa": "\u067e\u0634\u062a\u0646\u06af \u0639\u0644\u06cc\u0627", "place": "village"}}, {"type": "node", "id": 10034990021, "lat": 33.8070021, "lon": 47.0437427, "tags": {"name": "\u0628\u0627\u06b5\u0627\u062f\u06d5\u0634\u062a", "name:en": "Balladasht", "name:fa": "\u0628\u0627\u0644\u0627\u062f\u0634\u062a\u0647", "place": "village"}}, {"type": "node", "id": 10035011407, "lat": 33.8241621, "lon": 47.0636849, "tags": {"name": "\u062f\u0627\u0631\u0648\u06d5\u0646\u06d5", "name:en": "Darwana", "name:fa": "\u062f\u0627\u0631\u0648\u0646\u06d5", "place": "village"}}, {"type": "node", "id": 10035013491, "lat": 33.7646171, "lon": 46.9264955, "tags": {"name": "\u0632\u0627\u06cc\u0631\u0627\u0646 \u0633\u06d5\u0631\u06ce", "name:en": "Zayran Upper", "name:fa": "\u0638\u0627\u0647\u0631\u0648\u06d5\u0646\u062f \u0639\u0644\u06cc\u0627", "place": "village"}}, {"type": "node", "id": 10035040761, "lat": 33.7247215, "lon": 46.9832563, "tags": {"language": "laki", "name": "\u0645\u0647\u062f\u06cc\u0647", "name:en": "mahdiyeh", "name:fa": "\u0645\u0647\u062f\u06cc\u06d5", "place": "village", "population": "600"}}, {"type": "node", "id": 10035051130, "lat": 33.7004805, "lon": 47.0575098, "tags": {"name": "\u0686\u06d5\u0645 \u0634\u06d5\u0645\u06d5", "name:en": "Cham Shama", "name:fa": "\u0686\u0645 \u0686\u0645\u06d5", "place": "village"}}, {"type": "node", "id": 10167230968, "lat": 33.607065, "lon": 46.9818243, "tags": {"name": "\u06a9\u0645\u0648\u0644 \u0628\u0627\u0628\u0627\u062e\u0627\u0646\u06cc", "place": "village"}}, {"type": "node", "id": 10185473201, "lat": 33.6980117, "lon": 46.6655767, "tags": {"name": "\u0686\u0645 \u0642\u0648\u0644\u0647", "place": "village"}}, {"type": "way", "id": 286061872, "nodes": [2896964372, 2896964373, 2896964374, 2896964375, 2896964376, 2896964377, 2896964378, 2896964379, 2896964380, 2896964381, 2896964372], "tags": {"is_in:country": "Iran", "name": "\u0644\u062a\u0627\u0628", "name:en": "Latab", "place": "village"}}, {"type": "way", "id": 286061873, "nodes": [2896964382, 2896964383, 2896964384, 2896964385, 2896964386, 2896964387, 2896964388, 2896964382], "tags": {"is_in:country": "Iran", "name": "\u0633\u0646\u06af \u0633\u0641\u06cc\u062f", "name:en": "Sang Sefid", "place": "village"}}, {"type": "way", "id": 287271817, "nodes": [2908945956, 2908945957, 2908945958, 2908945959, 2908945960, 2908945961, 2908945962, 2908945956], "tags": {"is_in:country": "Iran", "name": "\u0632\u06cc\u0631 \u062a\u0646\u06af \u0628\u06cc\u062c\u0646\u0648\u0646\u062f", "name:en": "Bijnavand", "place": "village"}}, {"type": "way", "id": 287271818, "nodes": [2908945963, 2908945964, 2908945965, 2908945966, 2908945967, 2908945963], "tags": {"is_in:country": "Iran", "name": "\u062a\u062e\u062a \u0628\u0633\u0637\u0627\u0645", "name:en": "Takht E Bastam", "place": "village"}}, {"type": "way", "id": 288168339, "nodes": [2917164938, 2917164939, 2917164940, 2917164941, 2917164942, 2917164943, 2917164944, 2917164938], "tags": {"is_in:country": "Iran", "name": "\u0686\u0645 \u0642\u0648\u0644\u0647", "place": "village"}}, {"type": "way", "id": 288168340, "nodes": [2917164945, 2917164946, 2917164947, 2917164948, 2917164949, 5247277600, 5247277602, 5247277603, 2917164950, 2917164945], "tags": {"is_in:country": "Iran", "name": "\u063a\u0631\u06cc\u0628", "name:en": "Gharib", "place": "village"}}, {"type": "way", "id": 288168341, "nodes": [2917164951, 2917164952, 2917164953, 2917164954, 2917164955, 2917164951], "tags": {"is_in:country": "Iran", "name": "\u0686\u0634\u0645 \u06a9\u0628\u0648\u062f", "place": "village"}}, {"type": "way", "id": 288168741, "nodes": [2917168672, 2917168673, 5247277753, 2917168674, 2917168675, 2917168676, 2917168677, 2917168678, 2917168679, 2917168680, 2917168681, 2917168682, 2917168683, 2917168684, 5247277791, 2917168685, 2917168686, 5247277782, 2917168672], "tags": {"is_in:country": "Iran", "name": "\u0637\u0627\u0642 \u06af\u0627\u0648\u0631\u06cc\u0646", "place": "village"}}, {"type": "way", "id": 396196887, "nodes": [3989927422, 3989927418, 3989927415, 3989927412, 3989927410, 3989927409, 3989927406, 3989927403, 9856222475, 3989927405, 3989927407, 3989927408, 3989927413, 3989927422], "tags": {"name": "\u06a9\u0645\u0648\u0644 \u0631\u0633\u062a\u0645 \u0628\u06cc\u06af\u06cc", "place": "hamlet"}}, {"type": "way", "id": 396196890, "nodes": [3989927444, 3989927443, 3989927436, 3989927430, 3989927426, 3989927424, 3989927420, 3989927423, 3989927429, 3989927427, 3989927434, 3989927433, 5251678524, 3989927444], "tags": {"name": "\u06a9\u0645\u0648\u0644 \u06a9\u0631\u0645\u062e\u0627\u0646\u06cc", "place": "hamlet"}}]}