{"version": 0.6, "generator": "Overpass API 0.7.61.5 4133829e", "osm3s": {"timestamp_osm_base": "2024-03-06T11:21:41Z", "copyright": "The data included in this document is from www.openstreetmap.org. The data is made available under ODbL."}, "elements": [{"type": "node", "id": 6212996993, "lat": -0.7948202, "lon": 37.1294464, "tags": {"addr:city": "Maragua", "amenity": "bank", "name": "EQUITY BANK"}}, {"type": "node", "id": 6213154953, "lat": -0.7209786, "lon": 37.1589602, "tags": {"addr:city": "Murang'a", "addr:street": "Muranga", "amenity": "bank", "name": "KCB Muranga Branch"}}, {"type": "node", "id": 7279836607, "lat": -0.6247916, "lon": 37.2564225, "tags": {"addr:city": "Kagio", "amenity": "bank", "brand": "Equity Bank", "brand:wikidata": "Q5384664", "brand:wikipedia": "en:Equity Bank Kenya Limited", "name": "Equity Bank"}}, {"type": "node", "id": 7282595083, "lat": -0.9393812, "lon": 37.1241112, "tags": {"amenity": "bank", "brand": "Equity Bank", "brand:wikidata": "Q5384664", "brand:wikipedia": "en:Equity Bank Kenya Limited", "name": "Equity Bank"}}, {"type": "node", "id": 7282605085, "lat": -0.9398241, "lon": 37.1248824, "tags": {"addr:street": "Meru-Nairobi Highway", "amenity": "bank", "brand": "Barclays", "brand:wikidata": "Q245343", "brand:wikipedia": "en:Barclays", "name": "Barclays"}}, {"type": "node", "id": 7282605087, "lat": -0.935668, "lon": 37.1227166, "tags": {"addr:street": "C71", "amenity": "bank", "name": "Kenya Commercial Bank"}}]}