{"version": 0.6, "generator": "Overpass API 0.7.61.5 4133829e", "osm3s": {"timestamp_osm_base": "2024-03-05T14:58:45Z", "copyright": "The data included in this document is from www.openstreetmap.org. The data is made available under ODbL."}, "elements": [{"type": "node", "id": 449565284, "lat": 57.7259779, "lon": 12.9587656}, {"type": "node", "id": 449565287, "lat": 57.7258519, "lon": 12.9570973}, {"type": "node", "id": 449565290, "lat": 57.7267546, "lon": 12.9574056}, {"type": "node", "id": 497122607, "lat": 57.7272262, "lon": 12.961045}, {"type": "node", "id": 604243039, "lat": 57.7260382, "lon": 13.0039612, "tags": {"addr:city": "Br\u00e4mhult", "addr:country": "SE", "addr:housenumber": "19", "addr:postcode": "507 30", "addr:street": "Tvinnargatan", "amenity": "clinic", "contact:phone": "+46 33 20 28 60", "healthcare": "clinic", "name": "Br\u00e4mhults v\u00e5rdcentral", "network": "V\u00e4stra G\u00f6talandsregionen", "operator": "Praktikertj\u00e4nst AB", "ownership": "private"}}, {"type": "node", "id": 773934578, "lat": 57.7290257, "lon": 12.9604401}, {"type": "node", "id": 773934579, "lat": 57.7291173, "lon": 12.9604781}, {"type": "node", "id": 870534978, "lat": 57.7261584, "lon": 12.9564428}, {"type": "node", "id": 870535402, "lat": 57.7255497, "lon": 12.9581688}, {"type": "node", "id": 1318860578, "lat": 57.6695308, "lon": 12.5715126, "tags": {"addr:country": "SE", "addr:housenumber": "8", "addr:postcode": "51736", "addr:street": "G\u00e4stgivaregr\u00e4nd", "amenity": "pharmacy", "brand": "Apoteket", "name": "Apoteket Linden", "operator": "Apoteket AB (publ)", "phone": "+46771450450"}}, {"type": "node", "id": 1318861223, "lat": 57.6695551, "lon": 12.5721096, "tags": {"addr:city": "Bollebygd", "addr:country": "SE", "addr:housenumber": "8", "addr:postcode": "517 36", "addr:street": "G\u00e4stgivarev\u00e4gen", "amenity": "clinic", "contact:phone": "+46 10 441 61 00", "emergency": "no", "healthcare": "centre", "name": "N\u00e4rh\u00e4lsan Bollebygd v\u00e5rdcentral", "network": "V\u00e4stra G\u00f6talandsregionen", "operator": "V\u00e4stra G\u00f6talandsregionen", "website": "https://www.narhalsan.se/hitta-mottagning/bollebygd/narhalsan-bollebygd-vardcentral/"}}, {"type": "node", "id": 1432131912, "lat": 57.724716, "lon": 12.9669288}, {"type": "node", "id": 1432131913, "lat": 57.7247309, "lon": 12.9670848}, {"type": "node", "id": 1432131914, "lat": 57.7247339, "lon": 12.9668285}, {"type": "node", "id": 1432131921, "lat": 57.7248499, "lon": 12.966784}, {"type": "node", "id": 1432131950, "lat": 57.725079, "lon": 12.9668564}, {"type": "node", "id": 1432131965, "lat": 57.7252039, "lon": 12.9669957}, {"type": "node", "id": 1432131969, "lat": 57.7252426, "lon": 12.9672854}, {"type": "node", "id": 1432131988, "lat": 57.7253675, "lon": 12.9669678}, {"type": "node", "id": 1432131991, "lat": 57.7253794, "lon": 12.9668564}, {"type": "node", "id": 1432131992, "lat": 57.7253973, "lon": 12.9676698}, {"type": "node", "id": 1432131996, "lat": 57.7254211, "lon": 12.9671907}, {"type": "node", "id": 1432132004, "lat": 57.7254627, "lon": 12.9668118}, {"type": "node", "id": 1432132021, "lat": 57.7255907, "lon": 12.9677422}, {"type": "node", "id": 1432132024, "lat": 57.7256382, "lon": 12.9674915}, {"type": "node", "id": 1432132025, "lat": 57.7256412, "lon": 12.9676475}, {"type": "node", "id": 1432132035, "lat": 57.7257334, "lon": 12.9667617}, {"type": "node", "id": 1432132039, "lat": 57.7257691, "lon": 12.9666558}, {"type": "node", "id": 1432132040, "lat": 57.725787, "lon": 12.9659873}, {"type": "node", "id": 1432132043, "lat": 57.7258048, "lon": 12.9657088}, {"type": "node", "id": 1432132044, "lat": 57.7258346, "lon": 12.9655862}, {"type": "node", "id": 1432132053, "lat": 57.7259174, "lon": 12.9655103}, {"type": "node", "id": 1432132066, "lat": 57.7264147, "lon": 12.9666462}, {"type": "node", "id": 1432132090, "lat": 57.7264798, "lon": 12.9655759}, {"type": "node", "id": 1432132094, "lat": 57.72652, "lon": 12.9635337}, {"type": "node", "id": 1432132099, "lat": 57.7265737, "lon": 12.9635793}, {"type": "node", "id": 1432132103, "lat": 57.7265922, "lon": 12.9634154}, {"type": "node", "id": 1432132108, "lat": 57.7267887, "lon": 12.9636009}, {"type": "node", "id": 1432132110, "lat": 57.7270539, "lon": 12.9652966}, {"type": "node", "id": 1432132116, "lat": 57.7273262, "lon": 12.9635819}, {"type": "node", "id": 1432132121, "lat": 57.7271401, "lon": 12.9639518}, {"type": "node", "id": 1432132123, "lat": 57.7271762, "lon": 12.9645043}, {"type": "node", "id": 1432132129, "lat": 57.7268358, "lon": 12.9634154}, {"type": "node", "id": 1432132211, "lat": 57.7271244, "lon": 12.962258}, {"type": "node", "id": 1432132212, "lat": 57.7271788, "lon": 12.963349}, {"type": "node", "id": 1432132218, "lat": 57.727165, "lon": 12.9624354}, {"type": "node", "id": 1432132222, "lat": 57.7272147, "lon": 12.960805}, {"type": "node", "id": 1432132234, "lat": 57.7272237, "lon": 12.9626635}, {"type": "node", "id": 1432132237, "lat": 57.7272339, "lon": 12.9621879}, {"type": "node", "id": 1432132239, "lat": 57.7273415, "lon": 12.9630957}, {"type": "node", "id": 1432132246, "lat": 57.7272688, "lon": 12.9607881}, {"type": "node", "id": 1432132265, "lat": 57.7273725, "lon": 12.9613372}, {"type": "node", "id": 1432132285, "lat": 57.7273996, "lon": 12.9609148}, {"type": "node", "id": 1432132288, "lat": 57.727495, "lon": 12.9621755}, {"type": "node", "id": 1432132298, "lat": 57.7275349, "lon": 12.9616751}, {"type": "node", "id": 1432132308, "lat": 57.727562, "lon": 12.9619539}, {"type": "node", "id": 1432132323, "lat": 57.7276973, "lon": 12.9611429}, {"type": "node", "id": 1432132360, "lat": 57.7279183, "lon": 12.9614048}, {"type": "node", "id": 1432132364, "lat": 57.7280447, "lon": 12.9616667}, {"type": "node", "id": 1432132388, "lat": 57.7282386, "lon": 12.9618779}, {"type": "node", "id": 1432132393, "lat": 57.7284867, "lon": 12.9619793}, {"type": "node", "id": 1432132395, "lat": 57.7285218, "lon": 12.9600089}, {"type": "node", "id": 1432132397, "lat": 57.7286662, "lon": 12.9600291}, {"type": "node", "id": 1432132400, "lat": 57.7287167, "lon": 12.9599277}, {"type": "node", "id": 1432132412, "lat": 57.7287419, "lon": 12.9597791}, {"type": "node", "id": 1432132413, "lat": 57.7287961, "lon": 12.9597453}, {"type": "node", "id": 1432132418, "lat": 57.728816, "lon": 12.9619455}, {"type": "node", "id": 1432132424, "lat": 57.7288971, "lon": 12.9597791}, {"type": "node", "id": 1432132428, "lat": 57.7289603, "lon": 12.9621313}, {"type": "node", "id": 1432132441, "lat": 57.7289859, "lon": 12.9598372}, {"type": "node", "id": 1432132443, "lat": 57.7290009, "lon": 12.9624777}, {"type": "node", "id": 1432132454, "lat": 57.7290783, "lon": 12.9601346}, {"type": "node", "id": 1432132472, "lat": 57.729084, "lon": 12.9599886}, {"type": "node", "id": 1499685068, "lat": 57.7106504, "lon": 12.9442494, "tags": {"addr:city": "Bor\u00e5s", "addr:country": "SE", "addr:housenumber": "30", "addr:postcode": "50433", "addr:street": "Trand\u00f6gatan", "amenity": "pharmacy", "brand": "DOZ Apotek", "brand:wikidata": "Q10475311", "drive_through": "no", "healthcare": "pharmacy", "name": "DOZ Apotek", "not:name": "LloydsApotek", "opening_hours": "Mo-Fr 09:00-19:00; Sa 10:00-16:00; Su 11:00-16:00", "owner": "Admenta Sweden AB", "phone": "+46334754910", "website": "https://dozapotek.se/apotek/boras/doz-apotek-boras-trandared"}}, {"type": "node", "id": 1574701835, "lat": 57.7211405, "lon": 12.9287479, "tags": {"amenity": "clinic", "healthcare": "clinic", "name": "Cityl\u00e4karna Bor\u00e5s"}}, {"type": "node", "id": 1846671896, "lat": 57.7495295, "lon": 12.9436321, "tags": {"amenity": "pharmacy", "brand": "Apotek Hj\u00e4rtat", "contact:phone": "+46771405405", "name": "Apotek Hj\u00e4rtat", "operator": "Apotek Hj\u00e4rtat Retail AB"}}, {"type": "node", "id": 1871091068, "lat": 57.7110624, "lon": 12.9418829, "tags": {"addr:city": "Bor\u00e5s", "addr:country": "SE", "addr:housenumber": "16", "addr:postcode": "50433", "addr:street": "Trand\u00f6gatan", "amenity": "pharmacy", "brand": "Apotek Hj\u00e4rtat", "brand:wikidata": "Q10416114", "contact:phone": "+46771405405", "drive_through": "no", "healthcare": "pharmacy", "name": "Apotek Hj\u00e4rtat", "opening_hours": "Mo-Su 07:00-22:00", "operator": "Apotek Hj\u00e4rtat Retail AB", "website": "https://www.apotekhjartat.se/hitta-apotek-hjartat/vastra-gotaland/apotek_hjartat_ica_maxi_boras/"}}, {"type": "node", "id": 2145506686, "lat": 57.4914, "lon": 12.645746, "tags": {"amenity": "pharmacy", "dispensing": "yes", "drive_through": "no", "healthcare": "pharmacy", "name": "Kronans Apotek"}}, {"type": "node", "id": 2955733546, "lat": 57.6536422, "lon": 12.4972651, "tags": {"alt_name": "R\u00e4vlanda jourcentral", "amenity": "clinic", "contact:phone": "+46 301 45 255", "healthcare": "clinic", "name": "R\u00e4vlanda v\u00e5rdcentral", "network": "V\u00e4stra G\u00f6talandsregionen", "ownership": "private"}}, {"type": "node", "id": 3110958303, "lat": 57.7039272, "lon": 12.4510465, "tags": {"addr:city": "Hind\u00e5s", "addr:country": "SE", "addr:housenumber": "47", "addr:street": "Hind\u00e5s stationsv\u00e4g", "amenity": "clinic", "contact:phone": "+46 10 473 38 90", "healthcare": "centre", "name": "N\u00e4rh\u00e4lsan Hind\u00e5s v\u00e5rdcentral", "network": "V\u00e4stra G\u00f6talandsregionen", "operator": "V\u00e4stra G\u00f6talandsregionen", "website": "https://www.narhalsan.se/hitta-mottagning/harryda/narhalsan-hindas-vardcentral/"}}, {"type": "node", "id": 4367331991, "lat": 57.7339919, "lon": 12.9376413, "tags": {"addr:city": "Bor\u00e5s", "addr:country": "SE", "addr:housenumber": "58", "addr:postcode": "50630", "addr:street": "Skaraborgsv\u00e4gen", "amenity": "pharmacy", "brand": "Apotek Hj\u00e4rtat", "brand:wikidata": "Q10416114", "contact:phone": "+46771450450", "drive_through": "no", "healthcare": "pharmacy", "name": "Apotek Hj\u00e4rtat", "opening_hours": "Mo-Fr 10:00-19:00; Sa 10:00-17:00; Su 11:00-17:00", "operator": "Apoteket AB (publ)"}}, {"type": "node", "id": 5361278932, "lat": 57.7094702, "lon": 12.7989575, "tags": {"addr:city": "Sandared", "addr:country": "SE", "addr:housenumber": "11", "addr:postcode": "518 32", "addr:street": "Strandv\u00e4gen", "amenity": "clinic", "contact:phone": "+46 10 435 91 20", "healthcare": "clinic", "name": "N\u00e4rh\u00e4lsan Sandared v\u00e5rdcentral", "network": "V\u00e4stra G\u00f6talandsregionen", "operator": "V\u00e4stra G\u00f6talandsregionen", "website": "https://www.narhalsan.se/hitta-mottagning/boras/narhalsan-sandared-vardcentral/"}}, {"type": "node", "id": 5581907893, "lat": 57.3556476, "lon": 12.474879, "tags": {"addr:city": "Horred", "addr:country": "SE", "addr:housenumber": "4", "addr:postcode": "519 30", "addr:street": "Lunnaliden", "alt_name": "N\u00e4rh\u00e4lsan Horred barnav\u00e5rdscentral", "amenity": "clinic", "contact:phone": "+46 473 39 33", "emergency": "no", "healthcare": "clinic", "name": "N\u00e4rh\u00e4lsan Horred v\u00e5rdcentral", "network": "V\u00e4stra G\u00f6talandsregionen", "operator": "V\u00e4stra G\u00f6talandsregionen"}}, {"type": "node", "id": 5645671682, "lat": 57.7285265, "lon": 12.9599109}, {"type": "node", "id": 5645671683, "lat": 57.727486, "lon": 12.9596052}, {"type": "node", "id": 5645671684, "lat": 57.7265565, "lon": 12.9583794}, {"type": "node", "id": 6433352863, "lat": 57.7079547, "lon": 12.9528916, "tags": {"addr:city": "Bor\u00e5s", "addr:country": "SE", "addr:housenumber": "1", "addr:postcode": "504 50", "addr:street": "Kindsgatan", "amenity": "clinic", "contact:phone": "+46 10 435 91 00", "healthcare": "clinic", "name": "N\u00e4rh\u00e4lsan Trandared v\u00e5rdcentral", "network": "V\u00e4stra G\u00f6talandsregionen", "operator": "V\u00e4stra G\u00f6talandsregionen"}}, {"type": "node", "id": 6448584652, "lat": 57.4944825, "lon": 13.1176168, "tags": {"addr:city": "Svenljunga", "addr:country": "SE", "addr:housenumber": "3", "addr:postcode": "512 54", "addr:street": "Klockaregatan", "amenity": "clinic", "contact:phone": "+46 325 61 91 00", "healthcare": "clinic", "name": "N\u00e4rh\u00e4lsan Svenljunga v\u00e5rdcentral", "network": "V\u00e4stra G\u00f6talandsregionen", "operator": "V\u00e4stra G\u00f6talandsregionen", "website": "https://www.narhalsan.se/hitta-mottagning/svenljunga/narhalsan-svenljunga-vardcentral/"}}, {"type": "node", "id": 7168194681, "lat": 57.493854, "lon": 12.6493996}, {"type": "node", "id": 7168194682, "lat": 57.4937819, "lon": 12.6486352}, {"type": "node", "id": 7168211220, "lat": 57.4939636, "lon": 12.6473933}, {"type": "node", "id": 7168211221, "lat": 57.4939246, "lon": 12.6472297}, {"type": "node", "id": 7168211222, "lat": 57.4938165, "lon": 12.6466075}, {"type": "node", "id": 7168211223, "lat": 57.493596, "lon": 12.6459128}, {"type": "node", "id": 7168211224, "lat": 57.4934605, "lon": 12.645328}, {"type": "node", "id": 7168211241, "lat": 57.4917185, "lon": 12.6462749}, {"type": "node", "id": 7168211324, "lat": 57.4933337, "lon": 12.6451591}, {"type": "node", "id": 7168211336, "lat": 57.4920169, "lon": 12.6482557}, {"type": "node", "id": 7168211376, "lat": 57.493681, "lon": 12.6477098}, {"type": "node", "id": 7168211378, "lat": 57.4916955, "lon": 12.6454917}, {"type": "node", "id": 7168211379, "lat": 57.4928119, "lon": 12.6449552}, {"type": "node", "id": 7168228989, "lat": 57.4917711, "lon": 12.6452878}, {"type": "node", "id": 7168231292, "lat": 57.4938381, "lon": 12.6476822}, {"type": "node", "id": 7168231293, "lat": 57.49372, "lon": 12.6494077}, {"type": "node", "id": 7168231294, "lat": 57.4927917, "lon": 12.6492119}, {"type": "node", "id": 7168231295, "lat": 57.4923506, "lon": 12.6492467}, {"type": "node", "id": 7168231296, "lat": 57.4922093, "lon": 12.6491636}, {"type": "node", "id": 7168231297, "lat": 57.4921409, "lon": 12.6489075}, {"type": "node", "id": 7168231298, "lat": 57.4918418, "lon": 12.647223}, {"type": "node", "id": 7168231299, "lat": 57.4916875, "lon": 12.6458698}, {"type": "node", "id": 7168231300, "lat": 57.4918872, "lon": 12.6452301}, {"type": "node", "id": 7168231301, "lat": 57.4922793, "lon": 12.645151}, {"type": "node", "id": 8697150777, "lat": 57.7271065, "lon": 12.9647952}, {"type": "node", "id": 8697150778, "lat": 57.7261928, "lon": 12.9668766}, {"type": "node", "id": 8697150779, "lat": 57.7259092, "lon": 12.9669625}, {"type": "node", "id": 8697150780, "lat": 57.7242191, "lon": 12.967346}, {"type": "node", "id": 8697150781, "lat": 57.7241575, "lon": 12.9668927}, {"type": "node", "id": 8697150782, "lat": 57.7238842, "lon": 12.9648995}, {"type": "node", "id": 8697150783, "lat": 57.7238082, "lon": 12.9645553}, {"type": "node", "id": 8697150784, "lat": 57.7234192, "lon": 12.9631872}, {"type": "node", "id": 8697150785, "lat": 57.7232752, "lon": 12.9623437}, {"type": "node", "id": 8697150786, "lat": 57.7231406, "lon": 12.9608001}, {"type": "node", "id": 8697150787, "lat": 57.7230375, "lon": 12.9597527}, {"type": "node", "id": 8697150788, "lat": 57.7230819, "lon": 12.9595703}, {"type": "node", "id": 8697150789, "lat": 57.7233196, "lon": 12.9594322}, {"type": "node", "id": 8697150790, "lat": 57.7237959, "lon": 12.9592632}, {"type": "node", "id": 8697150791, "lat": 57.7244569, "lon": 12.9586932}, {"type": "node", "id": 8697150792, "lat": 57.7251243, "lon": 12.9582681}, {"type": "node", "id": 8697150793, "lat": 57.7254208, "lon": 12.9583244}, {"type": "node", "id": 8697150794, "lat": 57.7268224, "lon": 12.9575419}, {"type": "node", "id": 8697150795, "lat": 57.7291172, "lon": 12.9618233}, {"type": "node", "id": 8916775595, "lat": 57.4919131, "lon": 12.6477997}, {"type": "node", "id": 8916775596, "lat": 57.491978, "lon": 12.6480237}, {"type": "node", "id": 8987691323, "lat": 57.7261641, "lon": 12.9583955}, {"type": "node", "id": 8987691324, "lat": 57.7262558, "lon": 12.9585081}, {"type": "node", "id": 8987691325, "lat": 57.7264592, "lon": 12.9580522}, {"type": "node", "id": 8987691326, "lat": 57.726356, "lon": 12.9576015}, {"type": "node", "id": 8988319724, "lat": 57.7252833, "lon": 12.9582506}, {"type": "node", "id": 8988319725, "lat": 57.7249038, "lon": 12.9583995}, {"type": "node", "id": 8988319726, "lat": 57.7239943, "lon": 12.9590271}, {"type": "node", "id": 8988319727, "lat": 57.7234457, "lon": 12.963253}, {"type": "node", "id": 8988319728, "lat": 57.7236383, "lon": 12.9632878}, {"type": "node", "id": 8988319729, "lat": 57.7233948, "lon": 12.963092}, {"type": "node", "id": 8988319730, "lat": 57.7232151, "lon": 12.961759}, {"type": "node", "id": 8988319731, "lat": 57.7232108, "lon": 12.961527}, {"type": "node", "id": 8988319733, "lat": 57.7231671, "lon": 12.9608966}, {"type": "node", "id": 8988319734, "lat": 57.723267, "lon": 12.9610529}, {"type": "node", "id": 8988319735, "lat": 57.7236276, "lon": 12.9635587}, {"type": "node", "id": 9007220625, "lat": 57.7299207, "lon": 12.9879172, "tags": {"addr:city": "Bor\u00e5s", "addr:country": "SE", "addr:housenumber": "2", "addr:postcode": "507 42", "addr:street": "Sm\u00f6rhulegatan", "amenity": "clinic", "name": "N\u00e4rh\u00e4lsan Boda v\u00e5rdcentral", "operator": "V\u00e4stra G\u00f6talandsregionen", "phone": "+46 10 435 80 20", "website": "https://www.narhalsan.se/hitta-mottagning/boras/narhalsan-boda-vardcentral/"}}, {"type": "node", "id": 9007259941, "lat": 57.7147949, "lon": 13.0916771, "tags": {"addr:city": "Dalsj\u00f6fors", "addr:country": "SE", "addr:housenumber": "2", "addr:postcode": "516 34", "addr:street": "Uppeg\u00e5rdsgatan", "amenity": "clinic", "name": "N\u00e4rh\u00e4lsan Dalsj\u00f6fors v\u00e5rdcentral", "operator": "V\u00e4stra G\u00f6talandsregionen", "phone": "+46 10 435 90 40", "website": "https://www.narhalsan.se/hitta-mottagning/boras/narhalsan-dalsjofors-vardcentral/"}}, {"type": "node", "id": 9007744381, "lat": 57.7228846, "lon": 12.9417028, "tags": {"addr:city": "Bor\u00e5s", "addr:country": "SE", "addr:housenumber": "22", "addr:postcode": "503 34", "addr:street": "Steng\u00e4rdsgatan", "amenity": "clinic", "name": "N\u00e4rh\u00e4lsan Heimdal v\u00e5rdcentral", "operator": "V\u00e4stra G\u00f6talandsregionen", "phone": "+46 10 435 91 70", "website": "https://www.narhalsan.se/hitta-mottagning/boras/narhalsan-heimdal-vardcentral/"}}, {"type": "node", "id": 9008172032, "lat": 57.5118353, "lon": 12.712107, "tags": {"addr:city": "Kinna", "addr:country": "SE", "addr:housenumber": "3", "addr:postcode": "511 57", "addr:street": "Kinnaborgsv\u00e4gen", "amenity": "clinic", "name": "N\u00e4rh\u00e4lsan Kinna v\u00e5rdcentral", "operator": "V\u00e4stra G\u00f6talandsregionen", "phone": "+46 10 435 94 00", "website": "https://www.narhalsan.se/hitta-mottagning/mark/narhalsan-kinna-vardcentral/"}}, {"type": "node", "id": 9010716619, "lat": 57.7498025, "lon": 12.9442884, "tags": {"addr:city": "Bor\u00e5s", "addr:country": "SE", "addr:housenumber": "4", "addr:postcode": "506 42", "addr:street": "Sj\u00f6bo Torggata", "amenity": "clinic", "name": "N\u00e4rh\u00e4lsan Sj\u00f6bo v\u00e5rdcentral", "operator": "V\u00e4stra G\u00f6talandsregionen", "phone": "+46 33 616 18 12", "website": "https://www.narhalsan.se/hitta-mottagning/boras/narhalsan-sjobo-vardcentral/"}}, {"type": "node", "id": 9010729691, "lat": 57.4925913, "lon": 12.6475368, "tags": {"addr:city": "Skene", "addr:country": "SE", "addr:housenumber": "50", "addr:postcode": "511 81", "addr:street": "Varbergsv\u00e4gen", "amenity": "clinic", "name": "N\u00e4rh\u00e4lsan Skene v\u00e5rdcentral", "operator": "V\u00e4stra G\u00f6talandsregionen", "phone": "+46 320 77 93 01", "website": "https://www.narhalsan.se/hitta-mottagning/mark/narhalsan-skene-vardcentral/"}}, {"type": "node", "id": 9010966551, "lat": 57.7180626, "lon": 12.941924, "tags": {"addr:city": "Bor\u00e5s", "addr:country": "SE", "addr:housenumber": "4", "addr:postcode": "503 36", "addr:street": "Kvarngatan", "amenity": "clinic", "name": "N\u00e4rh\u00e4lsan S\u00f6dra torget v\u00e5rdcentral", "operator": "V\u00e4stra G\u00f6talandsregionen", "phone": "+46 10 435 95 00", "website": "https://www.narhalsan.se/hitta-mottagning/boras/narhalsan-sodra-torget-vardcentral/"}}, {"type": "node", "id": 9025255196, "lat": 57.70792, "lon": 12.9529479, "tags": {"addr:city": "Bor\u00e5s", "addr:country": "SE", "addr:housenumber": "1", "addr:postcode": "504 50", "addr:street": "Kindsgatan", "amenity": "clinic", "contact:phone": "+46 10 435 91 00", "healthcare": "clinic", "name": "N\u00e4rh\u00e4lsan Trandared barnav\u00e5rdscentral", "network": "V\u00e4stra G\u00f6talandsregionen", "operator": "V\u00e4stra G\u00f6talandsregionen"}}, {"type": "node", "id": 9026076884, "lat": 57.7180322, "lon": 12.9418858, "tags": {"addr:city": "Bor\u00e5s", "addr:country": "SE", "addr:housenumber": "4", "addr:postcode": "503 36", "addr:street": "Kvarngatan", "amenity": "clinic", "name": "N\u00e4rh\u00e4lsan S\u00f6dra torget rehabmottagning", "operator": "V\u00e4stra G\u00f6talandsregionen", "phone": "+46 10 435 84 00", "website": "https://www.narhalsan.se/hitta-mottagning/boras/narhalsan-sodra-torget-rehabmottagning/"}}, {"type": "node", "id": 9026086426, "lat": 57.7179724, "lon": 12.9418228, "tags": {"addr:city": "Bor\u00e5s", "addr:country": "SE", "addr:housenumber": "5", "addr:postcode": "503 38", "addr:street": "Bryggaregatan", "amenity": "clinic", "name": "N\u00e4rh\u00e4lsan S\u00f6dra torget barnav\u00e5rdscentral", "operator": "V\u00e4stra G\u00f6talandsregionen", "phone": "+46 10 435 95 00", "website": "https://www.narhalsan.se/hitta-mottagning/boras/narhalsan-sodra-torget-barnavardscentral/"}}, {"type": "node", "id": 9026115796, "lat": 57.4943772, "lon": 13.1175444, "tags": {"addr:city": "Svenljunga", "addr:country": "SE", "addr:housenumber": "3", "addr:postcode": "512 54", "addr:street": "Klockaregatan", "amenity": "clinic", "name": "N\u00e4rh\u00e4lsan Svenljunga rehabmottagning", "operator": "V\u00e4stra G\u00f6talandsregionen", "phone": "+46 10 435 84 00", "website": "https://www.narhalsan.se/hitta-mottagning/svenljunga/narhalsan-svenljunga-rehabmottagning/"}}, {"type": "node", "id": 9026124453, "lat": 57.4944298, "lon": 13.1175886, "tags": {"addr:city": "Svenljunga", "addr:country": "SE", "addr:housenumber": "3", "addr:postcode": "512 54", "addr:street": "Klockaregatan", "amenity": "clinic", "name": "N\u00e4rh\u00e4lsan Svenljunga barnav\u00e5rdscentral", "operator": "V\u00e4stra G\u00f6talandsregionen", "phone": "+46 325 61 91 32;+46 325 61 91 33", "website": "https://www.narhalsan.se/hitta-mottagning/svenljunga/narhalsan-svenljunga-barnavardscentral/"}}, {"type": "node", "id": 9026663968, "lat": 57.4925337, "lon": 12.6475355, "tags": {"addr:city": "Skene", "addr:country": "SE", "addr:housenumber": "50", "addr:postcode": "511 81", "addr:street": "Varbergsv\u00e4gen", "amenity": "clinic", "name": "N\u00e4rh\u00e4lsan Skene rehabmottagning", "operator": "V\u00e4stra G\u00f6talandsregionen", "phone": "+46 10 435 84 00", "website": "https://www.narhalsan.se/hitta-mottagning/mark/narhalsan-skene-rehabmottagning/"}}, {"type": "node", "id": 9026679053, "lat": 57.4925675, "lon": 12.6475382, "tags": {"addr:city": "Skene", "addr:country": "SE", "addr:housenumber": "50", "addr:postcode": "511 81", "addr:street": "Varbergsv\u00e4gen", "amenity": "clinic", "name": "N\u00e4rh\u00e4lsan Skene barnav\u00e5rdscentral", "operator": "V\u00e4stra G\u00f6talandsregionen", "phone": "+46 320 77 81 29;+46 320 77 81 28;+46 320 77 81 26", "website": "https://www.narhalsan.se/hitta-mottagning/mark/narhalsan-skene-barnavardscentral/"}}, {"type": "node", "id": 9026723504, "lat": 57.7094525, "lon": 12.7989569, "tags": {"addr:city": "Sandared", "addr:country": "SE", "addr:housenumber": "11", "addr:postcode": "518 32", "addr:street": "Strandv\u00e4gen", "amenity": "clinic", "healthcare": "clinic", "name": "N\u00e4rh\u00e4lsan Sandared barnav\u00e5rdscentral", "operator": "V\u00e4stra G\u00f6talandsregionen", "phone": "+46 10 435 91 20", "website": "https://www.narhalsan.se/hitta-mottagning/boras/narhalsan-sandared-barnavardscentral/"}}, {"type": "node", "id": 9026731601, "lat": 57.7497907, "lon": 12.9442871, "tags": {"addr:city": "Bor\u00e5s", "addr:country": "SE", "addr:housenumber": "4", "addr:postcode": "506 42", "addr:street": "Sj\u00f6bo Torggata", "amenity": "clinic", "name": "N\u00e4rh\u00e4lsan Sj\u00f6bo barnav\u00e5rdscentral", "operator": "V\u00e4stra G\u00f6talandsregionen", "phone": "+46 33 616 18 12", "website": "https://www.narhalsan.se/hitta-mottagning/boras/narhalsan-sjobo-barnavardscentral/"}}, {"type": "node", "id": 9026739518, "lat": 57.5420634, "lon": 12.4344943, "tags": {"addr:city": "S\u00e4tila", "addr:country": "SE", "addr:housenumber": "3", "addr:postcode": "511 69", "addr:street": "Skogsh\u00e4llsv\u00e4gen", "amenity": "clinic", "name": "N\u00e4rh\u00e4lsan Skene rehabmottagning - S\u00e4tila", "operator": "V\u00e4stra G\u00f6talandsregionen", "phone": "+46 10 435 84 00", "website": "https://www.narhalsan.se/hitta-mottagning/mark/narhalsan-skene-rehabmottagning-satila/"}}, {"type": "node", "id": 9026785264, "lat": 57.7094392, "lon": 12.7989522, "tags": {"addr:city": "Sandared", "addr:country": "SE", "addr:housenumber": "11", "addr:postcode": "518 32", "addr:street": "Strandv\u00e4gen", "amenity": "clinic", "healthcare": "clinic", "name": "N\u00e4rh\u00e4lsan Sandared rehabmottagning", "operator": "V\u00e4stra G\u00f6talandsregionen", "phone": "+46 10 435 84 00", "website": "https://www.narhalsan.se/hitta-mottagning/boras/narhalsan-sandared-rehabmottagning/"}}, {"type": "node", "id": 9029790315, "lat": 57.5117798, "lon": 12.7120681, "tags": {"addr:city": "Kinna", "addr:country": "SE", "addr:housenumber": "3", "addr:postcode": "511 57", "addr:street": "Kinnaborgsv\u00e4gen", "amenity": "clinic", "name": "N\u00e4rh\u00e4lsan Kinna barnav\u00e5rdscentral", "operator": "V\u00e4stra G\u00f6talandsregionen", "phone": "+46 10 435 94 00", "website": "https://www.narhalsan.se/hitta-mottagning/mark/narhalsan-kinna-barnavardscentral/"}}, {"type": "node", "id": 9030239110, "lat": 57.7038767, "lon": 12.4510516, "tags": {"addr:city": "Hind\u00e5s", "addr:country": "SE", "addr:housenumber": "47", "addr:postcode": "438 53", "addr:street": "Hind\u00e5s stationsv\u00e4g", "amenity": "clinic", "name": "N\u00e4rh\u00e4lsan Hind\u00e5s barnav\u00e5rdscentral", "operator": "V\u00e4stra G\u00f6talandsregionen", "phone": "+46 10 473 38 90", "website": "https://www.narhalsan.se/hitta-mottagning/harryda/narhalsan-hindas-barnavardscentral/"}}, {"type": "node", "id": 9030282222, "lat": 57.7228531, "lon": 12.941692, "tags": {"addr:city": "Bor\u00e5s", "addr:country": "SE", "addr:housenumber": "22", "addr:postcode": "503 34", "addr:street": "Steng\u00e4rdsgatan", "amenity": "clinic", "name": "N\u00e4rh\u00e4lsan Heimdal barnav\u00e5rdscentral", "operator": "V\u00e4stra G\u00f6talandsregionen", "phone": "+46 10 435 91 70", "website": "https://www.narhalsan.se/hitta-mottagning/boras/narhalsan-heimdal-barnavardscentral/"}}, {"type": "node", "id": 9038798853, "lat": 57.714686, "lon": 13.0919212, "tags": {"addr:city": "Dalsj\u00f6fors", "addr:country": "SE", "addr:housenumber": "2", "addr:postcode": "516 34", "addr:street": "Uppeg\u00e5rdsgatan", "amenity": "clinic", "name": "N\u00e4rh\u00e4lsan Dalsj\u00f6fors barnav\u00e5rdscentral", "operator": "V\u00e4stra G\u00f6talandsregionen", "phone": "+46 10 435 90 40", "website": "https://www.narhalsan.se/hitta-mottagning/boras/narhalsan-dalsjofors-barnavardscentral/"}}, {"type": "node", "id": 9038803290, "lat": 57.71459, "lon": 13.091712, "tags": {"addr:city": "Dalsj\u00f6fors", "addr:country": "SE", "addr:housenumber": "2", "addr:postcode": "516 34", "addr:street": "Uppeg\u00e5rdsgatan", "amenity": "clinic", "name": "N\u00e4rh\u00e4lsan Dalsj\u00f6fors rehabmottagning", "operator": "V\u00e4stra G\u00f6talandsregionen", "phone": "+46 10 435 84 00", "website": "https://www.narhalsan.se/hitta-mottagning/boras/narhalsan-dalsjofors-rehabmottagning/"}}, {"type": "node", "id": 9038855916, "lat": 57.7298769, "lon": 12.9879145, "tags": {"addr:city": "Bor\u00e5s", "addr:country": "SE", "addr:housenumber": "2", "addr:postcode": "507 42", "addr:street": "Sm\u00f6rhulegatan", "amenity": "clinic", "name": "N\u00e4rh\u00e4lsan Boda barnav\u00e5rdscentral", "operator": "V\u00e4stra G\u00f6talandsregionen", "phone": "+46 10 435 80 20", "website": "https://www.narhalsan.se/hitta-mottagning/boras/narhalsan-boda-barnavardscentral/"}}, {"type": "node", "id": 9038864579, "lat": 57.6694942, "lon": 12.5721104, "tags": {"addr:city": "Bollebygd", "addr:country": "SE", "addr:housenumber": "8", "addr:postcode": "517 36", "addr:street": "G\u00e4stgivarev\u00e4gen", "amenity": "clinic", "name": "N\u00e4rh\u00e4lsan Bollebygd rehabmottagning", "operator": "V\u00e4stra G\u00f6talandsregionen", "phone": "+46 10 435 84 00", "website": "https://www.narhalsan.se/hitta-mottagning/bollebygd/narhalsan-bollebygd-barnavardscentral/"}}, {"type": "node", "id": 9038867883, "lat": 57.6695243, "lon": 12.5721104, "tags": {"addr:city": "Bollebygd", "addr:country": "SE", "addr:housenumber": "8", "addr:postcode": "517 36", "addr:street": "G\u00e4stgivarev\u00e4gen", "amenity": "clinic", "name": "N\u00e4rh\u00e4lsan Bollebygd barnav\u00e5rdscentral", "operator": "V\u00e4stra G\u00f6talandsregionen", "phone": "+46 10 441 61 22;+46 10-441 61 24;+46 10 441 61 36", "website": "https://www.narhalsan.se/hitta-mottagning/bollebygd/narhalsan-bollebygd-barnavardscentral/"}}, {"type": "node", "id": 9038886625, "lat": 57.718005, "lon": 12.9418778, "tags": {"addr:city": "Bor\u00e5s", "addr:country": "SE", "addr:housenumber": "4", "addr:postcode": "503 36", "addr:street": "Kvarngatan", "amenity": "clinic", "name": "Bor\u00e5s jourcentral", "operator": "V\u00e4stra G\u00f6talandsregionen", "phone": "+46 10 435 95 19", "website": "https://www.narhalsan.se/hitta-mottagning/boras/boras-jourcentral/"}}, {"type": "node", "id": 9038957829, "lat": 57.4927333, "lon": 12.647388, "tags": {"addr:city": "Skene", "addr:country": "SE", "addr:housenumber": "50", "addr:postcode": "511 81", "addr:street": "Varbergsv\u00e4gen", "amenity": "clinic", "name": "N\u00e4rakuten Skene", "operator": "V\u00e4stra G\u00f6talandsregionen", "website": "https://www.narhalsan.se/hitta-mottagning/mark/skene-jourcentral/"}}, {"type": "node", "id": 9039046961, "lat": 57.720909, "lon": 12.9667318, "tags": {"addr:city": "Bor\u00e5s", "addr:country": "SE", "addr:housenumber": "15", "addr:postcode": "504 55", "addr:street": "Eken\u00e4sgatan", "amenity": "clinic", "name": "N\u00e4rh\u00e4lsan Solhem rehabmottagning", "operator": "V\u00e4stra G\u00f6talandsregionen", "phone": "+46 10 435 84 00", "website": "https://www.narhalsan.se/hitta-mottagning/boras/narhalsan-solhem-rehabmottagning/"}}, {"type": "node", "id": 9757296554, "lat": 57.7241858, "lon": 12.9670861}, {"type": "node", "id": 10100427593, "lat": 57.5068266, "lon": 12.6915689, "tags": {"amenity": "pharmacy", "dispensing": "yes", "drive_through": "no", "healthcare": "pharmacy", "name": "Kronans Apotek"}}, {"type": "node", "id": 10309371245, "lat": 57.7144593, "lon": 12.8660854, "tags": {"amenity": "pharmacy", "dispensing": "yes", "drive_through": "no", "healthcare": "pharmacy", "name": "Apoteket Hj\u00e4rtat", "operator": "Apoteket", "website": "https://www.apoteket.se/apotek/apoteket-goteborgsvagen-boras-boras/"}}, {"type": "node", "id": 11205064193, "lat": 57.7227945, "lon": 12.938054, "tags": {"amenity": "clinic", "healthcare": "clinic", "name": "Herkules V\u00e5rdcentral", "operator": "Praktikertj\u00e4nst"}}, {"type": "node", "id": 11216175716, "lat": 57.7205092, "lon": 12.94261, "tags": {"amenity": "pharmacy", "brand": "Kronans Apotek", "brand:wikidata": "Q10549422", "healthcare": "pharmacy", "name": "Kronans Apotek"}}, {"type": "node", "id": 11330171320, "lat": 57.7236257, "lon": 12.9638232}, {"type": "node", "id": 11330171321, "lat": 57.7237025, "lon": 12.9643706}, {"type": "node", "id": 11505948843, "lat": 57.7342586, "lon": 12.9395654, "tags": {"amenity": "clinic", "healthcare": "clinic", "name": "Bor\u00e5s V\u00e5rdcentral"}}, {"type": "node", "id": 11505966890, "lat": 57.5429977, "lon": 12.4327868, "tags": {"amenity": "clinic", "healthcare": "clinic", "name": "S\u00e4tila v\u00e5rdcentral"}}, {"type": "node", "id": 11505969773, "lat": 57.630691, "lon": 12.8658017, "tags": {"amenity": "clinic", "healthcare": "clinic", "name": "Viskaforskliniken"}}, {"type": "node", "id": 11505978155, "lat": 57.5068801, "lon": 12.6917374, "tags": {"amenity": "clinic", "healthcare": "clinic", "name": "Husl\u00e4karcentralen Kinna"}}, {"type": "node", "id": 11505990135, "lat": 57.7210945, "lon": 12.942305, "tags": {"amenity": "clinic", "healthcare": "clinic", "name": "All\u00e9kliniken Sleipner"}}, {"type": "node", "id": 11682742657, "lat": 57.7232606, "lon": 12.9613942}, {"type": "way", "id": 767746211, "nodes": [7168211336, 8916775596, 8916775595, 7168231298, 7168211241, 7168231299, 7168211378, 7168228989, 7168231300, 7168231301, 7168211379, 7168211324, 7168211224]}, {"type": "way", "id": 767746212, "nodes": [7168231292, 7168211376, 7168194682, 7168194681]}, {"type": "way", "id": 767746214, "nodes": [7168211224, 7168211223, 7168211222, 7168211221, 7168211220]}, {"type": "way", "id": 767746215, "nodes": [7168211220, 7168231292]}, {"type": "way", "id": 767746216, "nodes": [7168211336, 7168231297, 7168231296, 7168231295, 7168231294, 7168231293, 7168194681]}, {"type": "way", "id": 938818379, "nodes": [449565290, 870534978, 449565287, 8987691326, 8987691325, 8987691324, 8987691323, 449565284, 870535402]}, {"type": "way", "id": 938818381, "nodes": [773934579, 773934578, 1432132454, 1432132472, 1432132441, 1432132424, 1432132413, 1432132412, 1432132400, 1432132397, 1432132395, 5645671682]}, {"type": "way", "id": 938818383, "nodes": [1432131913, 1432131912, 1432131914, 1432131921, 1432131950, 1432131965, 1432131969, 1432131992, 1432132021, 1432132025, 1432132024, 1432131996, 1432131988, 1432131991, 1432132004, 1432132035, 1432132039, 1432132040, 1432132043, 1432132044, 1432132053, 8697150779, 8697150778, 1432132066, 1432132090, 1432132110, 8697150777, 1432132123, 1432132121, 1432132116, 1432132108, 1432132099, 1432132094, 1432132103, 1432132129, 1432132212, 1432132239, 1432132234, 1432132218, 1432132211, 1432132237, 1432132288, 1432132308, 1432132298, 1432132265, 497122607, 1432132222, 1432132246, 1432132285, 1432132323, 1432132360, 1432132364, 1432132388, 1432132393, 1432132418, 1432132428, 1432132443]}, {"type": "way", "id": 938818385, "nodes": [870535402, 8697150793, 8988319724, 8697150792, 8988319725, 8697150791, 8988319726, 8697150790, 8697150789, 8697150788, 8697150787, 8697150786, 8988319733, 8988319734, 11682742657, 8988319731, 8988319730, 8697150785, 8988319729, 8697150784, 8988319727, 8988319728, 8988319735, 11330171320, 11330171321, 8697150783, 8697150782, 8697150781, 9757296554, 8697150780, 1432131913]}, {"type": "way", "id": 938818386, "nodes": [5645671682, 5645671683, 5645671684, 8697150794, 449565290]}, {"type": "way", "id": 938818387, "nodes": [1432132443, 8697150795, 773934579]}, {"type": "relation", "id": 1734405, "members": [{"type": "way", "ref": 938818381, "role": "outer"}, {"type": "way", "ref": 938818387, "role": "outer"}, {"type": "way", "ref": 938818383, "role": "outer"}, {"type": "way", "ref": 938818385, "role": "outer"}, {"type": "way", "ref": 938818379, "role": "outer"}, {"type": "way", "ref": 938818386, "role": "outer"}], "tags": {"amenity": "hospital", "emergency": "yes", "health_specialty:emergency_medicine": "yes", "health_specialty:family_medicine": "yes", "health_specialty:intensive_care_medicine": "yes", "health_specialty:orthopaedics": "yes", "health_specialty:paediatrics": "yes", "health_specialty:surgery": "yes", "health_specialty:vascular_surgery": "yes", "healthcare": "hospital", "name": "S\u00f6dra \u00c4lvsborgs Sjukhus", "opening_hours": "24/7", "type": "multipolygon", "website": "https://www.vgregion.se/sas/", "wikidata": "Q30264316"}}, {"type": "relation", "id": 10648276, "members": [{"type": "way", "ref": 767746214, "role": "outer"}, {"type": "way", "ref": 767746215, "role": "outer"}, {"type": "way", "ref": 767746212, "role": "outer"}, {"type": "way", "ref": 767746216, "role": "outer"}, {"type": "way", "ref": 767746211, "role": "outer"}], "tags": {"amenity": "hospital", "healthcare": "hospital", "name": "S\u00f6dra \u00c4lvsborgs Sjukhus Skene", "type": "multipolygon"}}]}