{"version": 0.6, "generator": "Overpass API 0.7.61.5 4133829e", "osm3s": {"timestamp_osm_base": "2024-03-06T11:04:23Z", "copyright": "The data included in this document is from www.openstreetmap.org. The data is made available under ODbL."}, "elements": [{"type": "node", "id": 6812560004, "lat": -0.7738309, "lon": 35.4918547}, {"type": "node", "id": 6812560005, "lat": -0.7736922, "lon": 35.4921496}, {"type": "node", "id": 6812560006, "lat": -0.7739429, "lon": 35.4922261}, {"type": "node", "id": 6812560007, "lat": -0.7740171, "lon": 35.4919445}, {"type": "node", "id": 8177396933, "lat": -0.8422054, "lon": 35.5392105}, {"type": "node", "id": 8177396934, "lat": -0.8417334, "lon": 35.5398274}, {"type": "node", "id": 8177396935, "lat": -0.841256, "lon": 35.5396048}, {"type": "node", "id": 8177396936, "lat": -0.841972, "lon": 35.538843}, {"type": "node", "id": 8177396937, "lat": -0.8421061, "lon": 35.5386955}, {"type": "node", "id": 10216898286, "lat": -0.644017, "lon": 35.6188023, "tags": {"amenity": "school", "name": "Kaplamboi Pri"}}, {"type": "node", "id": 10223314854, "lat": -0.5893031, "lon": 35.6633377, "tags": {"amenity": "school", "name": "Seanin primary"}}, {"type": "node", "id": 10223314856, "lat": -0.5899897, "lon": 35.6458282, "tags": {"amenity": "school", "name": "Cheptuech polytechnic"}}, {"type": "node", "id": 10223314857, "lat": -0.5991838, "lon": 35.6397557, "tags": {"amenity": "school", "name": "Cheptuech primary"}}, {"type": "node", "id": 10223314858, "lat": -0.5977784, "lon": 35.6391013, "tags": {"amenity": "school", "name": "Cheptuech high school"}}, {"type": "node", "id": 10223314859, "lat": -0.6081847, "lon": 35.615959, "tags": {"amenity": "school", "name": "Kapugunot primary"}}, {"type": "node", "id": 10223314860, "lat": -0.656526, "lon": 35.6034708, "tags": {"amenity": "school", "name": "Chikamba primary"}}, {"type": "node", "id": 10223314862, "lat": -0.6561182, "lon": 35.602129, "tags": {"amenity": "school", "name": "Chikamba mixed secondary"}}, {"type": "node", "id": 10223314864, "lat": -0.6350525, "lon": 35.6059622, "tags": {"amenity": "school", "name": "Emitik primary"}}, {"type": "node", "id": 10223314865, "lat": -0.6349591, "lon": 35.6048403, "tags": {"amenity": "school", "name": "Emitik girls secondary"}}, {"type": "node", "id": 10223314866, "lat": -0.6184118, "lon": 35.6012564, "tags": {"amenity": "school", "name": "Cheptebes primary"}}, {"type": "node", "id": 10223314868, "lat": -0.5972213, "lon": 35.6009447, "tags": {"amenity": "school", "name": "Sugutek secondary"}}, {"type": "node", "id": 10223314869, "lat": -0.5950399, "lon": 35.5998228, "tags": {"amenity": "school", "name": "Sugutek primary"}}, {"type": "node", "id": 10223314870, "lat": -0.5874985, "lon": 35.6177111, "tags": {"amenity": "school", "name": "Wmkong primary"}}, {"type": "node", "id": 10223314871, "lat": -0.5876855, "lon": 35.6342905, "tags": {"amenity": "school", "name": "Chemngalilo primary"}}, {"type": "node", "id": 10223314872, "lat": -0.5704214, "lon": 35.6561055, "tags": {"amenity": "school", "name": "Irongo primary"}}, {"type": "node", "id": 10223314881, "lat": -0.5700474, "lon": 35.5857365, "tags": {"amenity": "school", "name": "Arorwet secondary"}}, {"type": "node", "id": 10223314882, "lat": -0.5685516, "lon": 35.5834927, "tags": {"amenity": "school", "name": "Arorwet primary"}}, {"type": "node", "id": 10223314883, "lat": -0.5774018, "lon": 35.5783817, "tags": {"amenity": "school", "name": "Konoin primary"}}, {"type": "node", "id": 10223314885, "lat": -0.5907707, "lon": 35.5927096, "tags": {"amenity": "school", "name": "Chepkiswet primary"}}, {"type": "node", "id": 10223314886, "lat": -0.5710446, "lon": 35.5614283, "tags": {"amenity": "school", "name": "Ole tach asis primary"}}, {"type": "node", "id": 10223377406, "lat": -0.5959425, "lon": 35.6808141, "tags": {"amenity": "school", "name": "Olenguruone secondary"}}, {"type": "node", "id": 10223377408, "lat": -0.6090947, "lon": 35.6632388, "tags": {"amenity": "school", "name": "Saptet ECD"}}, {"type": "node", "id": 10223377410, "lat": -0.6314359, "lon": 35.6503732, "tags": {"amenity": "school", "name": "Ambosket secondary"}}, {"type": "node", "id": 10223377411, "lat": -0.6477466, "lon": 35.6344061, "tags": {"amenity": "school", "name": "Nukiat primary"}}, {"type": "node", "id": 10223377412, "lat": -0.6675319, "lon": 35.6310461, "tags": {"amenity": "school", "name": "Kaplamai secondary"}}, {"type": "node", "id": 10223377413, "lat": -0.6671012, "lon": 35.6321948, "tags": {"amenity": "school", "name": "Kaplamai primary"}}, {"type": "node", "id": 10223377415, "lat": -0.6584864, "lon": 35.639403, "tags": {"amenity": "school", "name": "Kaplamai polytechnic"}}, {"type": "node", "id": 10223377416, "lat": -0.6788173, "lon": 35.6385414, "tags": {"amenity": "school", "name": "Ngorofa primary"}}, {"type": "node", "id": 10223382317, "lat": -0.6328142, "lon": 35.664847, "tags": {"amenity": "school", "name": "Kabigeriet primary"}}, {"type": "node", "id": 10223382319, "lat": -0.6392466, "lon": 35.6588736, "tags": {"amenity": "school", "name": "Ndasiet primary"}}, {"type": "node", "id": 10223382320, "lat": -0.6521114, "lon": 35.6516367, "tags": {"amenity": "school", "name": "Sigowet primary"}}, {"type": "node", "id": 10223382321, "lat": -0.6606113, "lon": 35.6520962, "tags": {"amenity": "school", "name": "Ngorofa secondary"}}, {"type": "node", "id": 10223382322, "lat": -0.696219, "lon": 35.6441701, "tags": {"amenity": "school", "name": "Lelkoita primary"}}, {"type": "node", "id": 10223382325, "lat": -0.674395, "lon": 35.6586439, "tags": {"amenity": "school", "name": "Lelaitich primary"}}, {"type": "node", "id": 10223382326, "lat": -0.6526857, "lon": 35.6651916, "tags": {"amenity": "school", "name": "Longet primary"}}, {"type": "node", "id": 10223382327, "lat": -0.6540641, "lon": 35.6672593, "tags": {"amenity": "school", "name": "Amani secondary school"}}, {"type": "node", "id": 10223382329, "lat": -0.6351115, "lon": 35.6787464, "tags": {"amenity": "school", "name": "Kitoben primary"}}, {"type": "way", "id": 726902735, "nodes": [6812560004, 6812560005, 6812560006, 6812560007, 6812560004], "tags": {"amenity": "school"}}, {"type": "way", "id": 879015835, "nodes": [8177396933, 8177396934, 8177396935, 8177396936, 8177396937, 8177396933], "tags": {"amenity": "school", "name": "Tengecha Esoit Secondary school"}}]}