{"version": 0.6, "generator": "Overpass API 0.7.61.5 4133829e", "osm3s": {"timestamp_osm_base": "2024-03-06T11:08:30Z", "copyright": "The data included in this document is from www.openstreetmap.org. The data is made available under ODbL."}, "elements": [{"type": "node", "id": 2488507067, "lat": 33.900216, "lon": 44.936919, "tags": {"alt_name": "\u0627\u0644\u0645\u0631\u0643\u0632 \u0627\u0644\u0635\u062d\u064a \u0641\u064a \u0627\u0644\u062d\u0645\u064a\u062f\u064a\u0629", "amenity": "hospital", "int_name": "Al Markaz a\u015f \u015ei\u1e29\u1e29\u012b f\u012b al \u1e28am\u012bd\u012byah, \u0627\u0644\u0645\u0631\u0643\u0632 \u0627\u0644\u0635\u062d\u064a \u0641\u064a \u0627\u0644\u062d\u0645\u064a\u062f\u064a\u0629, Al Markaz as Sihhi fi al Hamidiyah, \u0627\u0644\u0645\u0631\u0643\u0632 \u0627\u0644\u0635\u062d\u064a \u0641\u064a \u0627\u0644\u062d\u0645\u064a\u062f\u064a\u0629", "is_in": "Iraq , \u062c\u0645\u0647\u0648\u0631\u064a\u0629 \u0627\u0644\u0639\u0631\u0627\u0642", "name": "\u0627\u0644\u0645\u0631\u0643\u0632 \u0627\u0644\u0635\u062d\u064a \u0641\u064a \u0627\u0644\u062d\u0645\u064a\u062f\u064a\u0629", "name:ar": "\u0627\u0644\u0645\u0631\u0643\u0632 \u0627\u0644\u0635\u062d\u064a \u0641\u064a \u0627\u0644\u062d\u0645\u064a\u062f\u064a\u0629", "name:ar1": "\u0627\u0644\u0645\u0631\u0643\u0632 \u0627\u0644\u0635\u062d\u064a \u0641\u064a \u0627\u0644\u062d\u0645\u064a\u062f\u064a\u0629", "name:de": "Al Markaz as Sihhi fi al Hamidiyah", "name:en": "Al Markaz as Sihhi fi al Hamidiyah", "name:fr": "Al Markaz as Sihhi fi al Hamidiyah"}}, {"type": "node", "id": 2489330417, "lat": 34.0903856, "lon": 45.0627309, "tags": {"alt_name": "\u0645\u0633\u062a\u0648\u0635\u0641 \u0645\u062c\u0645\u0639 \u062d\u0645\u0631\u064a\u0646", "amenity": "hospital", "int_name": "Mustaw\u015faf Mujamma \u1e28amr\u012bn, Mustawsaf Mujamma Hamrin", "is_in": "Iraq , \u062c\u0645\u0647\u0648\u0631\u064a\u0629 \u0627\u0644\u0639\u0631\u0627\u0642", "name": "\u0645\u0633\u062a\u0648\u0635\u0641 \u0645\u062c\u0645\u0639 \u062d\u0645\u0631\u064a\u0646", "name:ar": "\u0645\u0633\u062a\u0648\u0635\u0641 \u0645\u062c\u0645\u0639 \u062d\u0645\u0631\u064a\u0646", "name:ar1": "\u0645\u0633\u062a\u0648\u0635\u0641 \u0645\u062c\u0645\u0639 \u062d\u0645\u0631\u064a\u0646", "name:de": "Mustawsaf Mujamma Hamrin", "name:en": "Mustawsaf Mujamma Hamrin", "name:fr": "Mustawsaf Mujamma Hamrin"}}, {"type": "node", "id": 2489330493, "lat": 34.0901663, "lon": 45.0626686, "tags": {"alt_name": "\u0645\u0633\u062a\u0648\u0635\u0641 \u062c\u0645\u0639 \u062d\u0645\u0631\u064a\u0646", "amenity": "hospital", "int_name": "\u0645\u0633\u062a\u0648\u0635\u0641 \u062c\u0645\u0639 \u062d\u0645\u0631\u064a\u0646, \u0645\u0633\u062a\u0648\u0635\u0641 \u062c\u0645\u0639 \u062d\u0645\u0631\u064a\u0646", "is_in": "Iraq , \u062c\u0645\u0647\u0648\u0631\u064a\u0629 \u0627\u0644\u0639\u0631\u0627\u0642", "name": "\u0645\u0633\u062a\u0648\u0635\u0641 \u062c\u0645\u0639 \u062d\u0645\u0631\u064a\u0646", "name:ar": "\u0645\u0633\u062a\u0648\u0635\u0641 \u062c\u0645\u0639 \u062d\u0645\u0631\u064a\u0646", "name:ar1": "\u0645\u0633\u062a\u0648\u0635\u0641 \u062c\u0645\u0639 \u062d\u0645\u0631\u064a\u0646", "name:de": "\u0645\u0633\u062a\u0648\u0635\u0641 \u062c\u0645\u0639 \u062d\u0645\u0631\u064a\u0646", "name:en": "\u0645\u0633\u062a\u0648\u0635\u0641 \u062c\u0645\u0639 \u062d\u0645\u0631\u064a\u0646", "name:fr": "\u0645\u0633\u062a\u0648\u0635\u0641 \u062c\u0645\u0639 \u062d\u0645\u0631\u064a\u0646"}}, {"type": "node", "id": 4524682907, "lat": 33.9769153, "lon": 44.927557, "tags": {"addr:street": "\u0645\u0642\u062f\u0627\u062f\u064a\u0629", "amenity": "pharmacy", "name": "\u0635\u064a\u062f\u0644\u064a\u0647 \u0627\u0644\u0647\u0644\u0627\u0644", "name:ar": "\u0635\u064a\u062f\u0644\u064a\u0647 \u0627\u0644\u0647\u0644\u0627\u0644"}}, {"type": "node", "id": 4524803189, "lat": 33.9773171, "lon": 44.9339727, "tags": {"amenity": "hospital", "emergency": "yes", "healthcare": "hospital", "name": "\u0627\u0644\u0645\u0633\u062a\u0634\u0641\u0649 \u0627\u0644\u0639\u0627\u0645 \u0627\u0644\u0645\u0642\u062f\u0627\u062f\u064a\u0647 x", "name:ar": "\u0645\u0633\u062a\u0634\u0641\u0649 \u0627\u0644\u0645\u0642\u062f\u0627\u062f\u064a\u0629 \u0627\u0644\u0639\u0627\u0645", "name:en": "\u0645\u0633\u062a\u0634\u0641\u0649"}}, {"type": "node", "id": 4754150321, "lat": 33.9766042, "lon": 44.9273733, "tags": {"amenity": "clinic", "name": "\u062f\u0643\u062a\u0648\u0631 \u0632\u064a\u062f \u0637\u0647", "name:ar": "\u062f\u0643\u062a\u0648\u0631 \u0632\u064a\u062f \u0637\u0647"}}, {"type": "node", "id": 4908745422, "lat": 33.976571, "lon": 44.9275075, "tags": {"addr:street": "\u0634\u0627\u0631\u0639 \u062d\u064a \u0627\u0644\u0645\u0639\u0644\u0645\u064a\u0646", "amenity": "clinic", "internet_access": "wlan", "name": "Dr. Zeid Taha Specialty Pediatrics", "name:ar": "\u062f\u0643\u062a\u0648\u0631 \u0632\u064a\u062f \u0637\u0647 \u0627\u062e\u062a\u0635\u0627\u0635 \u0637\u0628 \u0627\u0637\u0641\u0627\u0644", "name:en": "Dr. Zeid Taha Specialty Pediatrics", "name:ku": "Dr. Zeid Taha Specialty Pediatrics"}}, {"type": "node", "id": 5018859522, "lat": 34.0956145, "lon": 45.05637, "tags": {"addr:street": "\u0634\u0627\u0631\u0639 \u0627\u0644\u0645\u062f\u0627\u0631\u0633", "amenity": "clinic", "name": "\u0645\u062e\u062a\u0628\u0631 \u0627\u0644\u0627\u0645\u0644 \u0644\u0644\u062a\u062d\u0644\u064a\u0644\u0627\u062a \u0627\u0644\u0645\u0631\u0636\u064a\u0647", "name:ar": "\u0645\u062e\u062a\u0628\u0631 \u0627\u0644\u0627\u0645\u0644 \u0644\u0644\u062a\u062d\u0644\u064a\u0644\u0627\u062a \u0627\u0644\u0645\u0631\u0636\u064a\u0647"}}, {"type": "node", "id": 5080180523, "lat": 34.0718361, "lon": 44.8654606, "tags": {"amenity": "hospital", "name": "\u0642\u0637\u0627\u0639 \u0627\u0644\u0645\u0646\u0635\u0648\u0631\u064a\u0629 \u0644\u0644\u0631\u0639\u0627\u064a\u0629 \u0627\u0644\u0635\u062d\u064a\u0629 \u0627\u0644\u0627\u0648\u0644\u064a\u0629", "name:ar": "\u0642\u0637\u0627\u0639 \u0627\u0644\u0645\u0646\u0635\u0648\u0631\u064a\u0629 \u0644\u0644\u0631\u0639\u0627\u064a\u0629 \u0627\u0644\u0635\u062d\u064a\u0629 \u0627\u0644\u0627\u0648\u0644\u064a\u0629"}}, {"type": "node", "id": 5120401322, "lat": 33.9765734, "lon": 44.9273544, "tags": {"amenity": "clinic", "name": "\u0639\u064a\u0627\u062f\u0629 \u062f\u0643\u062a\u0648\u0631 \u0632\u064a\u062f \u0627\u062e\u062a\u0635\u0627\u0635 \u0637\u0628 \u0623\u0637\u0641\u0627\u0644"}}, {"type": "node", "id": 5277889622, "lat": 33.9767899, "lon": 44.9270894, "tags": {"amenity": "doctors", "name": "\u062f\u0643\u062a\u0648\u0631 \u0627\u062d\u0645\u062f \u0639\u0628\u062f\u0627\u0644\u0648\u0627\u062d\u062f \u0627\u062e\u0635\u0627\u0626\u064a \u062c\u0644\u062f\u064a\u0629 \u062a\u062c\u0645\u064a\u0644\u064a\u0629"}}, {"type": "node", "id": 5478153822, "lat": 33.9757922, "lon": 44.9315246, "tags": {"addr:street": "\u0627\u0644\u062d\u064a \u0627\u0644\u0639\u0635\u0631\u064a \u062e\u0644\u0641 \u0627\u0639\u062f\u0627\u062f\u064a\u0629 \u0639\u0644\u064a \u0628\u0646 \u0627\u0628\u064a \u0637\u0627\u0644\u0628 \u0639\u0644\u064a\u0647 \u0627\u0644\u0633\u0644\u0627\u0645", "amenity": "doctors", "name": "\u0627\u0644\u062f\u0643\u062a\u0648\u0631 \u0632\u064a\u062f \u0637\u0647 \u0627\u062e\u062a\u0635\u0627\u0635 \u0637\u0628 \u0623\u0637\u0641\u0627\u0644 \u0648\u062d\u062f\u064a\u062b\u064a \u0627\u0644\u0648\u0644\u0627\u062f\u0629", "name:en": "Dr. Zeid Taha Specialty Pediatrics and Neonatology", "name:ku": "Dr. Zeid Taha Specialty Pediatrics \u00fb Neonatolojiy\u00ea"}}, {"type": "node", "id": 5839836486, "lat": 33.9759221, "lon": 44.9349954, "tags": {"amenity": "doctors", "healthcare": "doctor", "name": "\u0627\u0644\u062f\u0643\u062a\u0648\u0631 \u0627\u0644\u062c\u0631\u0627\u062d \u062d\u064a\u062f\u0631 \u0633\u0627\u0644\u0645 \u0634\u0627\u0643\u0631", "operator": "\u062d\u064a\u062f\u0631 \u0633\u0627\u0644\u0645"}}, {"type": "node", "id": 6129486286, "lat": 34.0746008, "lon": 44.8622874, "tags": {"addr:street": "\u0634\u0627\u0631\u0639 \u0627\u0644\u0644\u0627\u0632", "amenity": "hospital", "name": "\u0645\u0636\u064a\u0641", "name:ar": "\u062f\u0627\u0631 \u0627\u0644\u0636\u064a\u0627\u0641\u0629 \u0627\u0644\u0627\u0632", "name:en": "Break", "name:ku": "\u0627\u0633\u062a\u0631\u0627\u062d\u0647"}}, {"type": "node", "id": 6898755585, "lat": 34.0949343, "lon": 45.0569388, "tags": {"addr:street": "\u0634\u0627\u0631\u0639 \u0627\u0644\u0645\u062f\u0627\u0631\u0633", "amenity": "clinic", "name": "\u0645\u062e\u062a\u0628\u0631 \u0627\u0644\u0623\u0645\u0644 \u0644\u0644\u062a\u062d\u0644\u064a\u0644\u0627\u062a \u0627\u0644\u0645\u0631\u0636\u064a\u0629", "opening_hours": "Mo-Su 15:00-20:00", "phone": "07707659748"}}, {"type": "node", "id": 7825904285, "lat": 33.9814343, "lon": 44.9425528, "tags": {"addr:street": "\u0645\u062f\u062e\u0644 \u0627\u0644\u0633\u0648\u0642", "amenity": "clinic", "name": "\u0627\u0644\u0639\u064a\u0627\u062f\u0629 \u0627\u0644\u0634\u0639\u0628\u064a\u0629", "opening_hours": "Su-Th 08:00-14:00"}}, {"type": "node", "id": 8170853219, "lat": 34.0962359, "lon": 45.0580784, "tags": {"amenity": "clinic", "name": "\u0631\u064a\u0627\u0636 \u0627\u0644\u0645\u0636\u0645\u062f \u0627\u0628\u0648 \u0645\u0635\u0637\u0641\u0649"}}, {"type": "node", "id": 8178298025, "lat": 34.0974123, "lon": 45.0586785, "tags": {"amenity": "hospital", "healthcare": "hospital", "healthcare:speciality": "general", "name": "\u0645\u0631\u0643\u0632 \u0635\u062d\u064a \u0645\u062c\u0645\u0639 \u062d\u0645\u0631\u064a\u0646"}}, {"type": "node", "id": 8269323417, "lat": 34.0153795, "lon": 44.9276318, "tags": {"amenity": "clinic", "name:en": "Sinsil PHCC"}}, {"type": "node", "id": 8386675417, "lat": 33.9857452, "lon": 44.9486142, "tags": {"amenity": "doctors", "name": "\u0627\u0644\u0639\u064a\u0627\u062f\u0629 \u0627\u0644\u0634\u0639\u0628\u064a\u0629", "name:en": "Public Medical center"}}, {"type": "node", "id": 8386688819, "lat": 33.9884336, "lon": 44.9465535, "tags": {"amenity": "doctors", "name": "\u062f. \u0633\u0627\u0645\u064a \u0645\u0646\u0630\u0648\u0631", "name:en": "Dr. Sami Manthoor"}}, {"type": "node", "id": 8386688820, "lat": 33.9767946, "lon": 44.9313134, "tags": {"amenity": "doctors", "name": "\u062f\u0643\u062a\u0648\u0631\u0647 \u064a\u0633\u0631\u0649", "name:en": "Dr. Yousra"}}, {"type": "node", "id": 8919536381, "lat": 34.0333679, "lon": 45.000118, "tags": {"amenity": "hospital", "name:en": "MANSURIYAT AL JABAL HOSPITAL MILITARY"}}, {"type": "node", "id": 9388050817, "lat": 33.9829359, "lon": 44.9410642, "tags": {"amenity": "doctors", "name": "\u062f\u0643\u062a\u0648\u0631 \u0633\u0627\u0645\u064a \u0645\u0646\u0630\u0648\u0631 \u0627\u0644\u0631\u0628\u064a\u0639\u064a", "name:en": "Dr Sami Manthoor Alrubaie"}}, {"type": "node", "id": 9803905265, "lat": 33.9763967, "lon": 44.9349465, "tags": {"amenity": "pharmacy", "dispensing": "yes", "healthcare": "pharmacy", "name": "\u0635\u064a\u062f\u0644\u064a\u0629"}}, {"type": "node", "id": 9803929143, "lat": 33.9751341, "lon": 44.93486, "tags": {"amenity": "pharmacy", "dispensing": "yes", "healthcare": "pharmacy", "name": "\u0635\u064a\u062f\u0644\u064a\u0629", "operator": "\u0645\u0645\u0631\u0636"}}, {"type": "node", "id": 9803948217, "lat": 33.9754028, "lon": 44.9351254, "tags": {"amenity": "pharmacy", "name": "\u0635\u064a\u062f\u0644\u064a\u0629"}}, {"type": "node", "id": 9881207381, "lat": 33.9783439, "lon": 44.9325426}, {"type": "node", "id": 9881207382, "lat": 33.9781139, "lon": 44.9325869}, {"type": "node", "id": 9881207383, "lat": 33.9780612, "lon": 44.9321806}, {"type": "node", "id": 9881207384, "lat": 33.9782896, "lon": 44.9321402}, {"type": "node", "id": 11401267069, "lat": 33.9757481, "lon": 44.9261076, "tags": {"amenity": "doctors", "name": "\u062d\u062c\u064a \u0639\u0628\u0627\u0633 \u0627\u0644\u0645\u062c\u0628\u0631\u062c\u064a"}}, {"type": "way", "id": 1077714313, "nodes": [9881207381, 9881207382, 9881207383, 9881207384, 9881207381], "tags": {"amenity": "hospital", "healthcare": "hospital", "name": "\u0627\u0644\u0627\u0633\u062a\u0634\u0627\u0631\u064a\u0629"}}]}