{"version": 0.6, "generator": "Overpass API 0.7.61.5 4133829e", "osm3s": {"timestamp_osm_base": "2024-03-05T13:45:00Z", "copyright": "The data included in this document is from www.openstreetmap.org. The data is made available under ODbL."}, "elements": [{"type": "node", "id": 4409907318, "lat": 32.784856, "lon": 69.082436, "tags": {"alt_name": "Babukheyl;Babowkheyl", "name": "\u0628\u0627\u0628\u0648 \u062e\u06d0\u0644", "name:en": "Babu Khel", "name:ps": "\u0628\u0627\u0628\u0648 \u062e\u06d0\u0644", "name:ru": "Babukheyl'", "place": "village", "source:name": "GNS"}}, {"type": "node", "id": 4409907319, "lat": 32.800262, "lon": 69.10508, "tags": {"alt_name": "Lanjikhel Samali;Lanjikheyl Shomali", "name": "\u0644\u0627\u0646\u062c\u06cc \u062e\u06d0\u0644 \u0634\u0645\u0627\u0644\u06cc", "name:en": "Lanji Khel-e Shamali", "name:ps": "\u0644\u0627\u0646\u062c\u06cc \u062e\u06d0\u0644 \u0634\u0645\u0627\u0644\u06cc", "name:ru": "Landzhikheyl'-Shamali", "place": "village", "source:name": "GNS"}}, {"type": "node", "id": 4409907321, "lat": 32.796936, "lon": 69.097038, "tags": {"alt_name": "\u0633\u0631\u0648\u0628\u06cc;Lanji Kheyl;Lanjikhel;Lanjikhel Wasati;Sarowbi;Sarubi;Sorobi;Sorowbi;Lanji Khel-e Wasati", "name": "\u0644\u0627\u0646\u062c\u06cc \u062e\u06d0\u0644 \u0648\u0633\u0637\u06cc", "name:en": "Sarobi", "name:ps": "\u0644\u0627\u0646\u062c\u06cc \u062e\u06d0\u0644 \u0648\u0633\u0637\u06cc", "name:ru": "\u0421\u043e\u0440\u043e\u0431\u0438", "place": "town", "source:name": "GNS"}}, {"type": "node", "id": 4409907322, "lat": 32.789622, "lon": 69.094877, "tags": {"alt_name": "\u0633\u0631\u0627\u0648\u0627\u0646 \u062e\u06d0\u0644;Sarwankheyl;Sarwan Khelhel;Sarwankhel;Sarwankhelhel", "name": "\u0633\u0631\u0648\u0627\u06bc \u062e\u06d0\u0644\u0647\u06d0\u0644", "name:en": "Sarwan Khel", "name:ps": "\u0633\u0631\u0648\u0627\u06bc \u062e\u06d0\u0644\u0647\u06d0\u0644", "place": "village", "source:name": "GNS"}}, {"type": "node", "id": 4410227170, "lat": 32.820049, "lon": 69.115395, "tags": {"alt_name": "Khan Zaman Kalay", "name": "\u062e\u0627\u0646 \u0632\u0645\u0627\u0646 \u06a9\u0644\u06cc", "name:en": "Khan Zaman Kelay", "name:ps": "\u062e\u0627\u0646 \u0632\u0645\u0627\u0646 \u06a9\u0644\u06cc", "name:ru": "Khan-Zaman-Kalay", "place": "village", "source:name": "GNS"}}, {"type": "node", "id": 5280401745, "lat": 32.5193291, "lon": 69.2699522, "tags": {"name": "\u0627\u0646\u06af\u0648\u0631 \u0627\u0688\u06c1", "name:en": "Angoor Ada", "place": "town"}}]}