{"version": 0.6, "generator": "Overpass API 0.7.61.5 4133829e", "osm3s": {"timestamp_osm_base": "2024-03-05T13:36:45Z", "copyright": "The data included in this document is from www.openstreetmap.org. The data is made available under ODbL."}, "elements": [{"type": "node", "id": 312969030, "lat": 36.9517042, "lon": 65.1263868, "tags": {"addr:country": "AF", "addr:region": "AF-FYB", "alt_name": "Ankhoi;Andkhui;Andkhoi", "ele": "316", "is_in:country": "Afghanistan", "is_in:country_code": "AF", "is_in:state": "Faryab Province", "name": "\u0627\u0646\u062f\u062e\u0648\u06cc", "name:en": "Andkhoy", "name:et": "Andkhvoy", "name:fa": "\u0627\u0646\u062f\u062e\u0648\u06cc", "name:ja": "\u30a2\u30f3\u30c9\u30d5\u30dc\u30a4", "name:lt": "Andhojus", "name:ps": "\u0627\u0646\u062f\u062e\u0648\u06cc", "name:ru": "\u0410\u043d\u0434\u0445\u043e\u0439", "name:tk": "Antgu\u00fdy", "place": "town", "population": "26700", "source": "wikipedia", "source:name": "GNS", "wikidata": "Q1054127", "wikipedia": "es:Andhvoy"}}, {"type": "node", "id": 4393739932, "lat": 36.791039, "lon": 65.61013, "tags": {"alt_name": "\u0686\u0648\u0628 \u0628\u0627\u0634\u06cc \u0646\u0648;Chub Bash-e Now;Chob Bash-e Now;Chob Bashi-e Now", "name": "\u0686\u0648\u0628 \u0628\u0627\u0634 \u0646\u0648", "name:en": "Chob Bash-i- Naw", "name:ps": "\u0686\u0648\u0628 \u0628\u0627\u0634 \u0646\u0648", "place": "village", "source:name": "GNS"}}, {"type": "node", "id": 4393739938, "lat": 36.80024, "lon": 65.614639, "tags": {"alt_name": "Saltiq Now;Saltiq-e Now", "name": "\u0633\u0644\u062a\u06cc\u0642 \u0646\u0648", "name:en": "Saltiq Naw", "name:ps": "\u0633\u0644\u062a\u06cc\u0642 \u0646\u0648", "place": "village", "source:name": "GNS"}}, {"type": "node", "id": 4394368549, "lat": 36.995435, "lon": 65.16981, "tags": {"alt_name": "`Arab Shah-e Payan;Arab Shah Bagh;`Arab Shah-e Pa'in", "name": "\u0639\u0631\u0628 \u0634\u0627\u0647 \u067e\u0627\u0626\u06cc\u0646", "name:en": "Arab Shah-i-Payan", "name:ps": "\u0639\u0631\u0628 \u0634\u0627\u0647 \u067e\u0627\u0626\u06cc\u0646", "place": "village", "source:name": "GNS"}}, {"type": "node", "id": 4394368550, "lat": 37.001082, "lon": 65.223922, "tags": {"alt_name": "Chahar Bagh;Khancarbagh;Khan'-charbag';Khan Chahar Bagh;Char Bagh;Qani Chahar Bagh;Khan-Chekhar-Bar", "name": "\u0686\u0647\u0627\u0631 \u0628\u0627\u063a", "name:en": "Khan-e Chahar Bagh", "name:ps": "\u0686\u0647\u0627\u0631 \u0628\u0627\u063a", "place": "town", "source:name": "GNS"}}, {"type": "node", "id": 4394368552, "lat": 37.018126, "lon": 65.239164, "tags": {"alt_name": "Qanly Char Bagh", "name": "\u0642\u0646\u0644\u06cc \u0686\u0647\u0627\u0631 \u0628\u0627\u063a", "name:en": "Qanli Chahar Bagh", "name:ps": "\u0642\u0646\u0644\u06cc \u0686\u0647\u0627\u0631 \u0628\u0627\u063a", "place": "village", "source:name": "GNS"}}, {"type": "node", "id": 4394368553, "lat": 36.979521, "lon": 65.170781, "tags": {"name": "\u0639\u0631\u0628 \u0634\u0627\u0647 \u062a\u0648\u0631\u0647 \u062e\u0627\u0646", "name:en": "`Arab Shah Torah Khan", "name:ps": "\u0639\u0631\u0628 \u0634\u0627\u0647 \u062a\u0648\u0631\u0647 \u062e\u0627\u0646", "place": "village", "source:name": "GNS"}}, {"type": "node", "id": 4394960609, "lat": 36.854945, "lon": 65.108849, "tags": {"alt_name": "Alti Bulaq Tuzkan", "name": "\u0627\u0644\u062a\u06cc \u0628\u0648\u0644\u0627\u0642 \u062a\u0632\u06a9\u0646", "name:en": "Altibulaq Tozkan", "name:ps": "\u0627\u0644\u062a\u06cc \u0628\u0648\u0644\u0627\u0642 \u062a\u0632\u06a9\u0646", "place": "village", "source:name": "GNS"}}]}