{"version": 0.6, "generator": "Overpass API 0.7.61.5 4133829e", "osm3s": {"timestamp_osm_base": "2024-03-06T13:34:01Z", "copyright": "The data included in this document is from www.openstreetmap.org. The data is made available under ODbL."}, "elements": [{"type": "node", "id": 413940889, "lat": -0.4676823, "lon": 34.06622, "tags": {"amenity": "ferry_terminal", "ferry": "yes", "name": "Kenya Port Landing Mfangano Island", "network": "WaterBus", "operator": "WaterBus", "public_transport": "station"}}, {"type": "node", "id": 3282130294, "lat": -0.4215758, "lon": 34.2077487}, {"type": "node", "id": 3282130295, "lat": -0.4219504, "lon": 34.2072282}, {"type": "node", "id": 3282130297, "lat": -0.422048, "lon": 34.2072902}, {"type": "node", "id": 3282130298, "lat": -0.4222431, "lon": 34.2074241}, {"type": "node", "id": 3283378460, "lat": -0.4218922, "lon": 34.2079496}, {"type": "node", "id": 6626074599, "lat": -0.4386482, "lon": 34.1645703, "tags": {"amenity": "ferry_terminal", "ferry": "yes", "internet_access": "no", "name": "Waterbus Rusinga Island Landing Site", "network": "Waterbus", "operator": "Waterbus", "public_transport": "station"}}, {"type": "node", "id": 7239935960, "lat": -0.4192481, "lon": 34.2059467, "tags": {"amenity": "ferry_terminal", "ferry": "yes", "internet_access": "no", "name": "Mfangano Waterbus landing", "network": "Waterbus", "operator": "Waterbus", "public_transport": "station"}}, {"type": "node", "id": 8440450863, "lat": -0.4341883, "lon": 34.0408358, "tags": {"amenity": "ferry_terminal", "ferry": "yes", "name": "Waterbus Landing Yokia", "network": "WaterBus Ferry", "operator": "WaterBus", "public_transport": "station"}}, {"type": "node", "id": 10598335778, "lat": -0.4340444, "lon": 34.0187075, "tags": {"amenity": "ferry_terminal", "ferry": "yes", "name": "WaterBus Ferry Terminal", "network": "WaterBus", "operator": "WaterBus", "public_transport": "station"}}, {"type": "node", "id": 10598745344, "lat": -0.4555175, "lon": 33.9347795, "tags": {"amenity": "ferry_terminal", "ferry": "yes", "name": "WaterBus Terminal Ringiti", "network": "WaterBus", "operator": "WaterBus", "public_transport": "station"}}, {"type": "node", "id": 10601091748, "lat": -0.4807159, "lon": 33.9862281, "tags": {"amenity": "ferry_terminal", "ferry": "yes", "name": "WaterBus Terminal Ugina", "network": "WaterBus Mfangano South", "public_transport": "station"}}, {"type": "node", "id": 10601091749, "lat": -0.493074, "lon": 33.9978034, "tags": {"amenity": "ferry_terminal", "ferry": "yes", "name": "WaterBus Terminal Mauta", "network": "WaterBus Mfangano South", "public_transport": "station"}}, {"type": "node", "id": 10601091752, "lat": -0.4961829, "lon": 34.0149263, "tags": {"amenity": "ferry_terminal", "ferry": "yes", "name": "WaterBus Terminal Kasarani", "network": "Waterbus Mfangano South", "operator": "WaterBus", "public_transport": "station"}}, {"type": "node", "id": 10601249956, "lat": -0.4898572, "lon": 34.0427555, "tags": {"amenity": "ferry_terminal", "ferry": "yes", "name": "WaterBus Terminal Peace Resort", "network": "WaterBus", "operator": "WaterBus", "public_transport": "station"}}, {"type": "way", "id": 321471841, "nodes": [3282130295, 3282130297, 3282130298, 3283378460, 3282130294, 3282130295], "tags": {"amenity": "bus_station", "bus": "yes", "internet_access": "no", "layer": "1", "name": "Main Bus and Matatu Stage", "public_transport": "station"}}]}