{"version": 0.6, "generator": "Overpass API 0.7.61.5 4133829e", "osm3s": {"timestamp_osm_base": "2024-03-06T11:17:45Z", "copyright": "The data included in this document is from www.openstreetmap.org. The data is made available under ODbL."}, "elements": [{"type": "node", "id": 1413814168, "lat": 36.6554768, "lon": 44.5422044, "tags": {"alt_name:ar": "\u062f\u064a\u0627\u0646\u0627", "alt_name:ckb": "\u062f\u06cc\u0627\u0646\u06d5", "alt_name:en": "Diana", "capital": "6", "name": "\u0633\u06c6\u0631\u0627\u0646", "name:ar": "\u0633\u0648\u0631\u0627\u0646", "name:azb": "\u0633\u0648\u0631\u0627\u0646", "name:ckb": "\u0633\u06c6\u0631\u0627\u0646", "name:en": "Soran", "name:es": "Soran", "name:fa": "\u0633\u0648\u0631\u0627\u0646", "name:fr": "Soran", "name:kmr": "\u0633\u06c6\u0631\u0627\u0646", "name:ks": "\u0633\u0648\u0631\u0627\u0646", "name:ku": "Soran", "name:ml": "\u0d38\u0d4b\u0d31\u0d3e\u0d7b", "name:sdh": "\u0633\u06c6\u0631\u0627\u0646", "name:tr": "Soran", "name:ur": "\u0633\u0648\u0631\u0627\u0646", "place": "town", "population": "125000", "postal_code": "44018", "wikidata": "Q1529881", "wikipedia": "ckb:\u0633\u06c6\u0631\u0627\u0646", "wikipedia:ar": "\u0633\u0648\u0631\u0627\u0646 (\u0627\u0644\u0639\u0631\u0627\u0642)"}}, {"type": "node", "id": 2480241224, "lat": 36.6166348, "lon": 44.913213, "tags": {"name": "\u0634\u06ce\u062e \u0648\u06d5\u062a\u0645\u0627\u0646", "name:ar": "\u0634\u06ce\u062e \u0648\u06d5\u062a\u0645\u0627\u0646", "name:ckb": "\u0634\u06ce\u062e \u0648\u06d5\u062a\u0645\u0627\u0646", "name:de": "Shex Watman", "name:en": "Shex Watman", "name:fr": "Shex Watman", "place": "village"}}, {"type": "node", "id": 2480241231, "lat": 36.6068156, "lon": 44.9563011, "tags": {"alt_name": "\u0626\u06ce\u0646\u06ce", "name": "\u0626\u06ce\u0646\u06d5", "name:ar": "\u0626\u06ce\u0646\u06d5", "name:ckb": "\u0626\u06ce\u0646\u06d5", "name:en": "Enne", "name:ku": "\u00cane", "place": "village"}}, {"type": "node", "id": 2480241235, "lat": 36.613528, "lon": 44.91975, "tags": {"name": "\u0628\u0646\u062f\u0627\u06cc\u0632\u0627\u0646", "name:ar": "\u0628\u0646\u062f\u0627\u064a\u0632\u0627\u0646", "name:ckb": "\u0628\u0646\u062f\u0627\u06cc\u0632\u0627\u0646", "name:de": "Bandah Izan", "name:en": "Bndayizan", "name:fr": "Bandah Izan", "place": "village"}}, {"type": "node", "id": 2480241272, "lat": 36.620083, "lon": 44.867, "tags": {"int_name": "Kar\u0101wtah, Kawart, Kawarta, \u0643\u0631\u0627\u0648\u062a\u0629, Karawtah, Kawart, Kawarta, \u0643\u0631\u0627\u0648\u062a\u0629", "name": "\u06a9\u06d5\u0648\u06d5\u0631\u062a\u06ce", "name:ar": "\u06a9\u0648\u0631\u062a\u06cc", "name:ckb": "\u06a9\u06d5\u0648\u06d5\u0631\u062a\u06ce", "name:de": "Kawarte", "name:en": "Kawarte", "name:fr": "Kawarte", "place": "village"}}, {"type": "node", "id": 2480241278, "lat": 36.625152, "lon": 44.890794, "tags": {"addr:city": "\u0686\u06c6\u0645\u0627\u0646", "addr:country": "IQ", "addr:state": "\u0645\u062d\u0627\u0641\u0638\u0629 \u0623\u0631\u0628\u064a\u0644", "alt_name": "\u0643\u0648\u0633\u0627\u0631\u062a\u0627\u0646", "int_name": "Kaws\u0101rt\u0101n, K\u014dmart\u0101n, K\u014dmsart\u0101n, \u0643\u0648\u0633\u0627\u0631\u062a\u0627\u0646, Kawsartan, Komartan, Komsartan, \u0643\u0648\u0633\u0627\u0631\u062a\u0627\u0646", "name": "\u0643\u0648\u0633\u0627\u0631\u062a\u0627\u0646 \u0646\u0627\u0648\u067e\u0631\u062f\u0627\u0646", "name:ar": "\u0643\u0648\u0633\u0631\u062a\u0627\u0646 \u0646\u0627\u0648\u067e\u0631\u062f\u0627\u0646", "name:de": "Kosretan Nawprdan", "name:en": "Kosretan Nawprdan", "name:fr": "Kosretan Nawprdan", "name:ku-Arab": "\u06a9\u06c6\u0633\u0631\u06d5\u062a\u0627\u0646 \u0646\u0627\u0648\u067e\u0631\u062f\u0627\u0646", "place": "village"}}, {"type": "node", "id": 2480241285, "lat": 36.6074768, "lon": 44.9292423, "tags": {"name": "\u062e\u06c6\u0634\u06a9\u0627\u0646", "name:ar": "\u062e\u0648\u0634\u0643\u0627\u0646", "name:ckb": "\u062e\u06c6\u0634\u06a9\u0627\u0646", "name:en": "Khoshkan", "payment:cash": "yes", "place": "village"}}, {"type": "node", "id": 2480241292, "lat": 36.603056, "lon": 44.944472, "tags": {"name": "\u0645\u06d5\u0631\u0627\u0646", "name:ar": "\u0645\u0631\u0627\u0646", "name:ckb": "\u0645\u06d5\u0631\u0627\u0646\u0646", "name:de": "Maran", "name:en": "Maran", "name:fr": "Maran", "place": "village"}}, {"type": "node", "id": 2480241303, "lat": 36.614194, "lon": 44.94625, "tags": {"name": "\u0645\u0648\u0698\u062f\u06d5\u06cc\u0646\u0627\u0646", "name:ar": "\u0645\u0632\u062f\u064a\u0646\u0627\u0646", "name:ckb": "\u0645\u0648\u0698\u062f\u06d5\u06cc\u0646\u0627\u0646", "name:de": "Mzhdenyan", "name:en": "Mzhdenyan", "name:fr": "Mzhdenyan", "place": "village"}}, {"type": "node", "id": 2480241314, "lat": 36.616279, "lon": 44.879683, "tags": {"alt_name": "\u0646\u0627\u0648\u064a\u0631\u062f\u0627\u0646", "name": "\u0646\u0627\u0648\u067e\u0631\u062f\u0627\u0646", "name:ar": "\u0646\u0627\u0648\u067e\u0631\u062f\u0627\u0646", "name:ckb": "\u0646\u0627\u0648\u067e\u0631\u062f\u0627\u0646", "name:de": "Nawprdan", "name:en": "Nawprdan", "name:fr": "Nawprdan", "name:ku": "\u0646\u0627\u0648\u067e\u0631\u062f\u0627\u0646", "place": "village"}}, {"type": "node", "id": 2480241325, "lat": 36.6059781, "lon": 44.8835511, "tags": {"name": "\u0646\u0627\u0648\u0628\u0631\u0643\u0629", "name:ar": "\u0646\u0627\u0648\u0628\u0631\u0643\u0629", "name:de": "Nawbarka", "name:en": "Nawbarka", "name:fr": "Nawbarka", "place": "village"}}, {"type": "node", "id": 2480241359, "lat": 36.5908491, "lon": 44.9188404, "tags": {"int_name": "Sak\u0101r\u012b Sakr\u0101n, Sakr\u0101 i Sakr\u0101n, \u0633\u0643\u0627\u0631\u064a \u0633\u0643\u0631\u0627\u0646, Sakari Sakran, Sakra i Sakran, \u0633\u0643\u0627\u0631\u064a \u0633\u0643\u0631\u0627\u0646", "is_in": "Iraq , \u062c\u0645\u0647\u0648\u0631\u064a\u0629 \u0627\u0644\u0639\u0631\u0627\u0642", "name": "\u0633\u06d5\u06a9\u0631\u06cc \u0633\u06d5\u06a9\u0631\u0627\u0646", "name:ar": "\u0633\u0643\u0631\u064a \u0633\u0643\u0631\u0627\u0646", "name:ckb": "\u0633\u06d5\u06a9\u0631\u06cc \u0633\u06d5\u06a9\u0631\u0627\u0646", "name:de": "Sakri Sakran", "name:en": "Sakri Sakran", "name:fr": "Sakri Sakran", "name:ku": "Sekr\u00ee Sekran", "place": "village"}}, {"type": "node", "id": 2480241366, "lat": 36.6091772, "lon": 44.8996837, "tags": {"name": "\u0634\u06ce\u062e\u0627\u0646", "name:ar": "\u0634\u064a\u062e\u0627\u0646", "name:ckb": "\u0634\u06ce\u062e\u0627\u0646", "name:de": "Shekhan", "name:en": "Shekhan", "name:fr": "Shekhan", "place": "village"}}, {"type": "node", "id": 2480241372, "lat": 36.6032218, "lon": 44.8873413, "tags": {"int_name": "Sh\u012bwal\u014dk, Sh\u012bw\u0101l\u016bk, \u0634\u064a\u0648\u0627\u0644\u0648\u0643, Shiwalok, Shiwaluk, \u0634\u064a\u0648\u0627\u0644\u0648\u0643", "name": "\u0634\u06cc\u0648\u06d5\u06b5\u06c6\u06a9", "name:ar": "\u0634\u06cc\u0648\u0644\u0648\u0643", "name:ckb": "\u0634\u06cc\u0648\u06d5\u06b5\u06c6\u06a9", "name:de": "Shiwalok", "name:en": "Shiwallok", "name:fr": "Shiwalok", "name:ku": "\u015e\u00eewellok", "place": "village"}}, {"type": "node", "id": 2480241722, "lat": 36.6713095, "lon": 45.0424151, "tags": {"alt_name": "\u062d\u0627\u062c\u064a \u0647\u0648\u0645\u0631\u0627\u0646 \u062e\u0648\u0627\u0631\u0648", "int_name": "\u1e28\u0101j\u012b H\u014dmar\u0101n i Khw\u0101r\u016b, Haji Homaran i Khwaru", "is_in": "Iraq, \u062c\u0645\u0647\u0648\u0631\u064a\u0629 \u0627\u0644\u0639\u0631\u0627\u0642", "name": "\u062d\u0627\u062c\u06cc \u0626\u06c6\u0645\u06d5\u0631\u0627\u0646\u06cc \u062e\u0648\u0627\u0631\u0648\u0648", "name:ar": "\u062d\u0627\u062c\u064a \u0647\u0648\u0645\u0631\u0627\u0646 \u062e\u0648\u0627\u0631\u0648", "name:ar1": "\u062d\u0627\u062c\u064a \u0647\u0648\u0645\u0631\u0627\u0646 \u062e\u0648\u0627\u0631\u0648", "name:ckb": "\u062d\u0627\u062c\u06cc \u0626\u06c6\u0645\u06d5\u0631\u0627\u0646\u06cc \u062e\u0648\u0627\u0631\u0648\u0648", "name:de": "Haji Homaran i Khwaru", "name:en": "Haji Homarani Khwaru", "name:fr": "Haji Homaran i Khwaru", "place": "hamlet"}}, {"type": "node", "id": 2480241724, "lat": 36.675, "lon": 45.045278, "tags": {"alt_name": "\u062d\u0627\u062c\u064a \u0647\u0648\u0645\u0631\u0627\u0646 \u0632\u0648\u0631\u0648", "int_name": "\u1e28\u0101j\u012b H\u014dmar\u0101n i Zh\u016br\u016b, Haji Homaran i Zhuru", "is_in": "Iraq, \u062c\u0645\u0647\u0648\u0631\u064a\u0629 \u0627\u0644\u0639\u0631\u0627\u0642", "name": "\u062d\u0627\u062c\u06cc \u0626\u06c6\u0645\u06d5\u0631\u0627\u0646\u06cc \u0698\u0648\u0648\u0631\u0648\u0648", "name:ar": "\u062d\u0627\u062c\u064a \u0626\u0648\u0645\u0631\u0627\u0646 \u0632\u0648\u0631\u0648\u0648", "name:ckb": "\u062d\u0627\u062c\u06cc \u0626\u06c6\u0645\u06d5\u0631\u0627\u0646\u06cc \u0698\u0648\u0648\u0631\u0648\u0648", "name:de": "Haji Homarani Zhuru", "name:en": "Haji Omarani Zhuru", "name:fr": "Haji Homarani Zhuru", "name:ku": "Hac\u00ee Omeran\u00ee J\u00fbr\u00fb", "name_1": "\u062d\u0627\u062c\u06cc \u0626\u06c6\u0645\u06d5\u0631\u0627\u0646\u06cc \u0633\u06d5\u0631\u0648\u0648", "place": "hamlet"}}, {"type": "node", "id": 2480241725, "lat": 36.6754741, "lon": 45.0440451, "tags": {"capital": "7", "name": "\u062d\u0627\u062c\u06cc \u0626\u06c6\u0645\u06d5\u0631\u0627\u0646", "name:ar": "\u062d\u0627\u062c \u0639\u0645\u0631\u0627\u0646", "name:ckb": "\u062d\u0627\u062c\u06cc \u0626\u06c6\u0645\u06d5\u0631\u0627\u0646", "name:de": "Haji Omaran", "name:en": "Haji Omaran", "name:fr": "Haji Omaran", "name:ku": "Hac\u00ee Omeran", "place": "town", "postal_code": "44012", "wikidata": "Q10950852", "wikipedia": "ckb:\u062d\u0627\u062c\u06cc \u0626\u06c6\u0645\u06d5\u0631\u0627\u0646"}}, {"type": "node", "id": 2480241731, "lat": 36.6568153, "lon": 45.0443732, "tags": {"int_name": "M\u012bwat\u0101n, \u0645\u064a\u0648\u062a\u0627\u0646, Miwatan, \u0645\u064a\u0648\u062a\u0627\u0646", "name": "\u0645\u0627\u0648\u06d5\u062a\u0627\u0646", "name:ar": "\u0645\u0627\u0648\u062a\u0627\u0646", "name:ckb": "\u0645\u0627\u0648\u06d5\u062a\u0627\u0646", "name:de": "Mawatan", "name:en": "Mawatan", "name:fr": "Mawatan", "name:ku": "Mawetan", "place": "village", "wikidata": "Q5988387", "wikipedia": "ckb:\u0645\u0627\u0648\u06d5\u062a\u0627\u0646"}}, {"type": "node", "id": 2480241732, "lat": 36.66832, "lon": 45.052576, "tags": {"alt_name": "\u0634\u064a\u0648\u0631\u0634", "int_name": "Sh\u012bwarash, \u0634\u064a\u0648\u0631\u0634, Shiwarash, \u0634\u064a\u0648\u0631\u0634", "name": "\u0634\u06cc\u0648\u06d5\u0695\u06d5\u0634", "name:ar": "\u0634\u064a\u0648\u0631\u0634", "name:ckb": "\u0634\u06cc\u0648\u06d5\u0695\u06d5\u0634", "name:de": "Shiwarash", "name:en": "Shiwarash", "name:fr": "Shiwarash", "name:ku": "\u015e\u00eewerre\u015f", "place": "village", "wikidata": "Q5988382", "wikipedia": "ckb:\u0634\u06cc\u0648\u06d5\u0695\u06d5\u0634"}}, {"type": "node", "id": 2480243566, "lat": 36.639778, "lon": 44.927056, "tags": {"name": "\u0645\u06d5\u0645\u06cc \u062e\u06d5\u0644\u0627\u0646", "name:ar": "\u0645\u0645\u0649 \u062e\u0644\u0627\u0646", "name:ckb": "\u0645\u06d5\u0645\u06cc \u062e\u06d5\u0644\u0627\u0646", "name:de": "Mami Khalan", "name:en": "Mami Khalan", "name:fr": "Mami Khalan", "place": "village"}}, {"type": "node", "id": 2480243570, "lat": 36.63631, "lon": 44.886767, "tags": {"name": "\u0686\u06c6\u0645\u0627\u0646", "name:ar": "\u062c\u0648\u0645\u0627\u0646", "name:ckb": "\u0686\u06c6\u0645\u0627\u0646", "name:en": "Choman", "name:ku": "\u00c7oman", "place": "town", "wikidata": "Q3673817", "wikipedia": "ckb:\u0686\u06c6\u0645\u0627\u0646"}}, {"type": "node", "id": 2480243574, "lat": 36.64925, "lon": 44.865694, "tags": {"alt_name": "\u062f\u06ce\u06b5\u0632\u06ce", "name": "\u062f\u06ce\u06b5\u0632\u06d5", "name:ar": "Delza", "name:ckb": "\u062f\u06ce\u06b5\u0632\u06d5", "name:de": "Delza", "name:en": "Delza", "name:fr": "Delza", "place": "village"}}, {"type": "node", "id": 2480243580, "lat": 36.664415, "lon": 44.927224, "tags": {"alt_name": "\u062f\u06d5\u0631\u0628\u06d5\u0646\u062f\u06cc \u0695\u0627\u06cc\u0627\u062a", "int_name": "Daraband, Darband, \u062f\u0631\u0628\u0646\u062f, Daraband, Darband, \u062f\u0631\u0628\u0646\u062f", "name": "\u062f\u06d5\u0631\u0628\u06d5\u0646\u062f", "name:ar": "\u062f\u0631\u0628\u0646\u062f", "name:ckb": "\u062f\u06d5\u0631\u0628\u06d5\u0646\u062f", "name:de": "Darband", "name:en": "Darband", "name:fr": "Darband", "name:ku": "Derbend", "name:ku-Arab": "\u062f\u06d5\u0631\u0628\u06d5\u0646\u062f", "place": "village", "wikidata": "Q13198478", "wikipedia": "ckb:\u062f\u06d5\u0631\u0628\u06d5\u0646\u062f\u06cc \u0695\u0627\u06cc\u0627\u062a"}}, {"type": "node", "id": 2480243587, "lat": 36.666667, "lon": 44.9, "tags": {"name": "\u062f\u06c6\u06b5\u06d5\u0628\u06c6\u0646", "name:ar": "\u062f\u0648\u0644\u0628\u0648\u0646", "name:ckb": "\u062f\u06c6\u06b5\u06d5\u0628\u06c6\u0646", "name:de": "Dolabon", "name:en": "Dolabon", "name:fr": "Dolabon", "name:ku": "Dollebon", "place": "village", "wikidata": "Q5988376", "wikipedia": "ckb:\u062f\u06c6\u06b5\u06d5\u0628\u06c6\u0646"}}, {"type": "node", "id": 2480243594, "lat": 36.640879, "lon": 44.8731174, "tags": {"name": "\u06a9\u06c6\u0646\u0647\u200c\u062e\u0627\u0646\u0627\u0646", "name:ar": "\u06a9\u06c6\u0646\u0647\u200c\u062e\u0627\u0646\u0627\u0646", "name:en": "Konakhanan", "place": "village"}}, {"type": "node", "id": 2480243614, "lat": 36.6623968, "lon": 44.8790021, "tags": {"alt_name": "\u0648\u06d5\u0631\u062f\u06ce", "name": "\u0648\u06d5\u0631\u062f\u06ce", "name:ar": "\u0648\u0631\u062f\u0629", "name:ckb": "\u0648\u06d5\u0631\u062f\u06ce", "name:de": "Warda", "name:en": "Warda", "name:fr": "Warda", "place": "village"}}, {"type": "node", "id": 2480245484, "lat": 36.6228408, "lon": 44.6596142, "tags": {"int_name": "Barsar\u012bn, Barsar\u012bn\u012b, Barsren, Barsrin, Berserine, B\u012brsar\u012bn, Barsarin, Barsarini, Barsren, Barsrin, Berserine, Birsarin, \u0628\u0631\u0633\u0631\u064a\u0646, \u0628\u06d5\u0631\u0633\u06cc\u0631\u06cc\u0646", "is_in": "Iraq , \u062c\u0645\u0647\u0648\u0631\u064a\u0629 \u0627\u0644\u0639\u0631\u0627\u0642", "name": "\u0628\u06d5\u0631\u0633\u06cc\u0631\u06cc\u0646", "name:ar": "\u0628\u0631\u0633\u0631\u064a\u0646", "name:ckb": "\u0628\u06d5\u0631\u0633\u06cc\u0631\u06cc\u0646", "name:en": "Barsirin", "name:ku": "Bers\u00eer\u00een", "place": "village"}}, {"type": "node", "id": 2480245497, "lat": 36.6524539, "lon": 44.6532596, "tags": {"alt_name": "\u0628\u064a\u0634\u0648\u0643 \u062e\u0648\u0627\u0631\u0648", "int_name": "B\u0113sh\u014dk i Khw\u0101r\u016b, Beshok i Khwaru", "is_in": "Iraq, \u062c\u0645\u0647\u0648\u0631\u064a\u0629 \u0627\u0644\u0639\u0631\u0627\u0642", "name": "\u0628\u06ce\u0634\u0648\u06a9\u06cc \u062e\u0648\u0627\u0631\u0648\u0648", "name:ar": "\u0628\u064a\u0634\u0648\u0643 \u062e\u0648\u0627\u0631\u0648", "name:ckb": "\u200e\u0628\u06ce\u0634\u0648\u06a9\u06cc \u062e\u0648\u0627\u0631\u0648\u0648", "name:de": "Beshok i Khwaru", "name:en": "Beshok i Khwaru", "name:fr": "Beshok i Khwaru", "name:ku": "B\u00ea\u015fuk\u00ee Xwar\u00fb", "place": "village"}}, {"type": "node", "id": 2480245506, "lat": 36.652889, "lon": 44.641278, "tags": {"alt_name": "\u0628\u064a\u0631\u0627\u0648\u0633\u0648", "int_name": "B\u012br\u0101ws\u016b, P\u012br \u016as\u016b, P\u012br Wus\u016b, Pirosoan, Pirswan, \u0628\u064a\u0631\u0627\u0648\u0633\u0648, Birawsu, Pir Usu, Pir Wusu, Pirosoan, Pirswan, \u0628\u064a\u0631\u0627\u0648\u0633\u0648", "is_in": "Iraq , \u062c\u0645\u0647\u0648\u0631\u064a\u0629 \u0627\u0644\u0639\u0631\u0627\u0642", "name": "\u0628\u064a\u0631\u0627\u0648\u0633\u0648", "name:ar": "\u0628\u064a\u0631\u0633\u0648\u0627", "name:ar1": "\u0628\u064a\u0631\u0627\u0648\u0633\u0648", "name:de": "Birawsu", "name:en": "Birawsu", "name:fr": "Birawsu", "place": "village"}}, {"type": "node", "id": 2482509324, "lat": 36.9216203, "lon": 44.6022295, "tags": {"alt_name": "\u062e\u0644\u064a\u0641\u0627\u0646", "int_name": "Khal\u012bl\u0101n, Khalilan;Khal\u012bf\u0101n, \u062e\u0644\u064a\u0641\u0627\u0646, Khalifan, \u062e\u0644\u064a\u0641\u0627\u0646", "is_in": "Iraq , \u062c\u0645\u0647\u0648\u0631\u064a\u0629 \u0627\u0644\u0639\u0631\u0627\u0642", "name": "\u062e\u0644\u064a\u0644\u0627\u0646", "name:ar": "\u062e\u0644\u064a\u0644\u0627\u0646", "name:de": "Khalifan", "name:en": "Khalilan", "name:fr": "Khalifan", "place": "village"}}, {"type": "node", "id": 2488199515, "lat": 36.878003, "lon": 44.543603, "tags": {"alt_name": "\u0628\u064a\u0631\u0643\u0627", "int_name": "B\u012brk\u0101, P\u012brka, \u0628\u064a\u0631\u0643\u0627, Birka, Pirka, \u0628\u064a\u0631\u0643\u0627", "is_in": "Iraq , \u062c\u0645\u0647\u0648\u0631\u064a\u0629 \u0627\u0644\u0639\u0631\u0627\u0642", "name": "\u067e\u06cc\u0631\u06d5\u06a9\u06d5", "name:ar": "\u0628\u064a\u0631\u0629\u0643\u0629", "name:ar1": "\u0628\u064a\u0631\u0643\u0627", "name:de": "Birka", "name:en": "Piraka", "name:fr": "Birka", "place": "village"}}, {"type": "node", "id": 2488199533, "lat": 36.8011497, "lon": 44.6336296, "tags": {"alt_name": "\u062c\u064a\u0633\u064a\u0633", "int_name": "Jays\u012bs, \u062c\u064a\u0633\u064a\u0633, Jaysis, \u062c\u064a\u0633\u064a\u0633", "is_in": "Iraq , \u062c\u0645\u0647\u0648\u0631\u064a\u0629 \u0627\u0644\u0639\u0631\u0627\u0642", "name": "\u0645\u062c\u06ce\u0633\u06d5\u0631", "name:ar": "\u0645\u062c\u06cc\u0633\u0631", "name:ckb": "\u0645\u062c\u06ce\u0633\u06d5\u0631", "name:en": "Mjesar", "place": "village"}}, {"type": "node", "id": 2488199535, "lat": 36.8695781, "lon": 44.5647837, "tags": {"alt_name": "\u062e\u0632\u064a", "int_name": "Khazay, Khazay", "is_in": "Iraq , \u062c\u0645\u0647\u0648\u0631\u064a\u0629 \u0627\u0644\u0639\u0631\u0627\u0642", "name": "\u062e\u0632\u064a", "name:ar": "\u062e\u0632\u064a", "name:ar1": "\u062e\u0632\u064a", "name:de": "Khazay", "name:en": "Khazay", "name:fr": "Khazay", "place": "village"}}, {"type": "node", "id": 2488199547, "lat": 36.810033, "lon": 44.647255, "tags": {"alt_name": "\u0642\u0644\u064a\u0637\u0627\u0646", "int_name": "Qal\u012b\u0163\u0101n, \u0642\u0644\u064a\u0637\u0627\u0646, Qalitan, \u0642\u0644\u064a\u0637\u0627\u0646", "is_in": "Iraq , \u062c\u0645\u0647\u0648\u0631\u064a\u0629 \u0627\u0644\u0639\u0631\u0627\u0642", "name": "\u0642\u06d5\u0644\u06cc\u062a\u0627\u0646", "name:ar": "\u0642\u0629\u0644\u064a\u062a\u0627\u0646", "name:ar1": "\u0642\u0644\u064a\u0637\u0627\u0646", "name:de": "Qalitan", "name:en": "Qalitan", "name:fr": "Qalitan", "place": "village"}}, {"type": "node", "id": 2488199582, "lat": 36.803556, "lon": 44.663435, "tags": {"capital": "6", "int_name": "S\u012bdah K\u0101n, Sidaka, S\u012bdak\u0101n, Sidikan, \u0633\u064a\u062f\u0643\u0627\u0646, Sidah Kan, Sidaka, Sidakan, Sidikan, \u0633\u064a\u062f\u0643\u0627\u0646", "name": "\u0633\u06cc\u062f\u06d5\u06a9\u0627\u0646", "name:ar": "\u0633\u064a\u062f\u0643\u0627\u0646", "name:ckb": "\u0633\u06cc\u062f\u06d5\u06a9\u0627\u0646", "name:de": "Sidekan", "name:en": "Sidekan", "name:fr": "Sidakan", "name:ku": "S\u00eedekan", "place": "town", "wikidata": "Q4120424", "wikipedia": "ckb:\u0633\u06cc\u062f\u06d5\u06a9\u0627\u0646"}}, {"type": "node", "id": 2488200686, "lat": 36.7816598, "lon": 44.7068823, "tags": {"alt_name": "\u0628\u064a\u0631\u0648\u0634", "int_name": "B\u0113r\u014dsh, B\u012br\u016bsh, \u0628\u064a\u0631\u0648\u0634, Berosh, Birush, \u0628\u064a\u0631\u0648\u0634", "is_in": "Iraq , \u062c\u0645\u0647\u0648\u0631\u064a\u0629 \u0627\u0644\u0639\u0631\u0627\u0642", "name": "\u0628\u06ce\u0631\u0648\u0634\u0645\u06d5", "name:ar1": "\u0628\u064a\u0631\u0648\u0634", "name:de": "Berosh", "name:en": "Berosh", "name:fr": "Berosh", "place": "village"}}, {"type": "node", "id": 2488200718, "lat": 36.7713303, "lon": 44.717625, "tags": {"alt_name": "\u062f\u064a\u0631\u0629", "int_name": "D\u0113ra, D\u012brah, \u062f\u064a\u0631\u0647, Dera, Dirah, \u062f\u064a\u0631\u0647", "is_in": "Iraq , \u062c\u0645\u0647\u0648\u0631\u064a\u0629 \u0627\u0644\u0639\u0631\u0627\u0642", "name": "\u062f\u064a\u0631\u0629", "name:ar": "\u062f\u064a\u0631\u0629", "name:ar1": "\u062f\u064a\u0631\u0629", "name:de": "Dera", "name:en": "Dera", "name:fr": "Dera", "place": "village"}}, {"type": "node", "id": 2488200750, "lat": 36.7785902, "lon": 44.6538062, "tags": {"alt_name": "\u0647\u0631\u064a\u0646\u0629", "int_name": "Har\u012bnah, Harinah", "is_in": "Iraq , \u062c\u0645\u0647\u0648\u0631\u064a\u0629 \u0627\u0644\u0639\u0631\u0627\u0642", "name": "\u0647\u0631\u064a\u0646\u0629", "name:ar": "\u0647\u0631\u064a\u0646\u0629", "name:ar1": "\u0647\u0631\u064a\u0646\u0629", "name:de": "Harinah", "name:en": "Harinah", "name:fr": "Harinah", "place": "village"}}, {"type": "node", "id": 2488200758, "lat": 36.784565, "lon": 44.6299775, "tags": {"alt_name": "\u0647\u0648\u064a\u0644\u0627\u0646", "int_name": "Haw\u0113l\u0101n, Haweran, Huw\u012bl\u0101n, \u0647\u0648\u064a\u0644\u0627\u0646, Hawelan, Haweran, Huwilan, \u0647\u0648\u064a\u0644\u0627\u0646", "is_in": "Iraq , \u062c\u0645\u0647\u0648\u0631\u064a\u0629 \u0627\u0644\u0639\u0631\u0627\u0642", "name": "\u0647\u06d5\u0648\u06ce\u0644\u0627\u0646", "name:ar": "\u0647\u06d5\u0648\u064a\u0644\u0627\u0646", "name:ar1": "\u0647\u0648\u064a\u0644\u0627\u0646", "name:de": "Hawelan", "name:en": "Hawelan", "name:fr": "Hawelan", "place": "village"}}, {"type": "node", "id": 2488200791, "lat": 36.7857656, "lon": 44.7181129, "tags": {"alt_name": "\u0632\u0648\u0631\u064a\u0644\u0629", "int_name": "Z\u016br\u012blah, Z\u016bz\u012bl\u0101, \u0632\u0648\u0631\u064a\u0644\u0629, Zurilah, Zuzila, \u0632\u0648\u0631\u064a\u0644\u0629", "is_in": "Iraq , \u062c\u0645\u0647\u0648\u0631\u064a\u0629 \u0627\u0644\u0639\u0631\u0627\u0642", "name": "\u0698\u0648\u0698\u06cc\u0644\u06d5", "name:ar": "\u0698\u0648\u0698\u06cc\u0644\u0629", "name:ar1": "\u0632\u0648\u0631\u064a\u0644\u0629", "name:de": "Zurilah", "name:en": "Zhuzhila", "name:fr": "Zurilah", "place": "village"}}, {"type": "node", "id": 2488203165, "lat": 36.7086428, "lon": 44.9788975, "tags": {"int_name": "Al\u0101na, Al\u0101nah, All\u0101nah, \u0627\u0644\u0627\u0646\u0629, Alana, Alanah, Allanah, \u0627\u0644\u0627\u0646\u0629", "name": "\u0626\u0627\u06b5\u0627\u0646\u06d5", "name:ar": "\u0622\u0644\u0627\u0646\u0629", "name:ckb": "\u0626\u0627\u06b5\u0627\u0646\u06d5", "name:de": "Alana", "name:en": "Alana", "name:fr": "Alana", "name:ku": "Allane", "place": "village", "wikidata": "Q25630489", "wikipedia": "ckb:\u0626\u0627\u06b5\u0627\u0646\u06d5\u060c \u0686\u06c6\u0645\u0627\u0646"}}, {"type": "node", "id": 2488203166, "lat": 36.6749353, "lon": 44.973723, "tags": {"alt_name": "\u0628\u0627\u0628\u0627\u06a9\u0631\u0627\u0648\u06d5", "int_name": "B\u0101b\u0101 Kar\u0101wah, B\u0101bakr\u0101wa, \u0628\u0627\u0628\u0627 \u0643\u0631\u0627\u0648\u0647, Baba Karawah, Babakrawa, \u0628\u0627\u0628\u0627 \u0643\u0631\u0627\u0648\u0647", "name": "\u0628\u0627\u0648\u06d5\u06a9\u0631\u0627\u0648\u06d5", "name:ar": "\u0628\u0627\u0648\u064e\u0643\u0631\u0627\u0648\u0629", "name:ckb": "\u0628\u0627\u0648\u06d5\u06a9\u0631\u0627\u0648\u06d5", "name:de": "Bawakrawa", "name:en": "Bawakrawa", "name:fr": "Bawakrawa", "name:ku": "Bawekirawe", "place": "village", "wikidata": "Q5988400", "wikipedia": "ckb:\u0628\u0627\u0648\u06d5\u06a9\u0631\u0627\u0648\u06d5"}}, {"type": "node", "id": 2488203167, "lat": 36.7624212, "lon": 44.7432534, "tags": {"alt_name": "\u0628\u0627\u063a\u0629", "int_name": "B\u0101gha, B\u0101ghah, \u0628\u0627\u063a\u0629, Bagha, Baghah, \u0628\u0627\u063a\u0629", "is_in": "Iraq , \u062c\u0645\u0647\u0648\u0631\u064a\u0629 \u0627\u0644\u0639\u0631\u0627\u0642", "name": "\u0628\u0627\u063a\u06d5", "name:ar": "\u0628\u0627\u063a\u0629", "name:ar1": "\u0628\u0627\u063a\u0629", "name:de": "Bagha", "name:en": "Bagha", "name:fr": "Bagha", "place": "village"}}, {"type": "node", "id": 2488203172, "lat": 36.6843968, "lon": 44.7537017, "tags": {"alt_name": "\u0628\u064a\u0631\u0648\u0645\u0627", "int_name": "B\u012br\u016bm\u0101, P\u012br Umar, P\u012bromar, \u0628\u064a\u0631\u0648\u0645\u0627, Biruma, Pir Umar, Piromar, \u0628\u064a\u0631\u0648\u0645\u0627", "name": "\u067e\u06cc\u0631\u06c6\u0645\u06d5\u0631", "name:ar": "\u0628\u064a\u0631\u0648\u0645\u0631", "name:ckb": "\u067e\u06cc\u0631\u06c6\u0645\u06d5\u0631", "name:de": "Piromar", "name:en": "Piromar", "name:fr": "Piromar", "name:ku": "P\u00eeromer", "place": "village", "wikipedia": "ckb: \u067e\u06cc\u0631\u06c6\u0645\u06d5\u0631"}}, {"type": "node", "id": 2488203188, "lat": 36.6832393, "lon": 44.7310153, "tags": {"alt_name": "\u062f\u0627\u0631\u0629 \u0643\u0631\u062f", "int_name": "D\u0101ragird, D\u0101rat Kurd, \u062f\u0627\u0631\u0629 \u0643\u0631\u062f, Daragird, Darat Kurd, \u062f\u0627\u0631\u0629 \u0643\u0631\u062f", "is_in": "Iraq , \u062c\u0645\u0647\u0648\u0631\u064a\u0629 \u0627\u0644\u0639\u0631\u0627\u0642", "name": "\u062f\u0627\u0631\u06d5\u06af\u0631\u062f", "name:ar": "\u062f\u0627\u0631\u0629 \u0643\u0631\u062f", "name:ar1": "\u062f\u0627\u0631\u0629 \u0643\u0631\u062f", "name:de": "Daragird", "name:en": "Daragird", "name:fr": "Daragird", "place": "village"}}, {"type": "node", "id": 2488203208, "lat": 36.7042238, "lon": 44.7160191, "tags": {"alt_name": "\u062f\u0632\u0648\u0643", "int_name": "D\u012bz\u014dk, Diz\u016bk, \u062f\u0632\u0648\u0643, Dizok, Dizuk, \u062f\u0632\u0648\u0643", "is_in": "Iraq , \u062c\u0645\u0647\u0648\u0631\u064a\u0629 \u0627\u0644\u0639\u0631\u0627\u0642", "name": "\u062f\u0632\u0648\u0648\u06a9", "name:ar": "\u062f\u0632\u0648\u0643", "name:ar1": "\u062f\u0632\u0648\u0643", "name:de": "Dzwk", "name:en": "Dzwk", "name:fr": "Dizok", "place": "village"}}, {"type": "node", "id": 2488203220, "lat": 36.6935666, "lon": 44.7247904, "tags": {"alt_name": "\u062f\u0648\u0644\u0627\u0646\u0629", "int_name": "D\u016bl\u0101nah, D\u016bran\u012b, \u062f\u0648\u0644\u0627\u0646\u0647, Dulanah, Durani, \u062f\u0648\u0644\u0627\u0646\u0647", "is_in": "Iraq , \u062c\u0645\u0647\u0648\u0631\u064a\u0629 \u0627\u0644\u0639\u0631\u0627\u0642", "name": "\u062f\u06c6\u0644\u0627\u0646\u06d5", "name:ar": "\u062f\u0648\u0644\u0627\u0646\u0629", "name:ar1": "\u062f\u0648\u0644\u0627\u0646\u0629", "name:de": "Dulana", "name:en": "Dulana", "name:fr": "Dulana", "place": "village"}}, {"type": "node", "id": 2488203222, "lat": 36.7067463, "lon": 44.6931999, "tags": {"int_name": "Gazna, Gaznah, Kaznah, \u0643\u0632\u0646\u0629, Gazna, Gaznah, Kaznah, \u0643\u0632\u0646\u0629", "name": "\u06af\u06d5\u0632\u0646\u06d5", "name:ar": "\u0643\u0632\u0646\u0629", "name:ckb": "\u06af\u06d5\u0632\u0646\u06d5", "name:de": "Gazna", "name:en": "Gazna", "name:fr": "Gazna", "name:ku": "Gezne", "place": "village", "wikidata": "Q5988155", "wikipedia": "ckb:\u06af\u06d5\u0632\u0646\u06d5\u060c \u0686\u06c6\u0645\u0627\u0646"}}, {"type": "node", "id": 2488203223, "lat": 36.7202449, "lon": 44.9172289, "tags": {"alt_name": "\u06af\u06d5\u0644\u06d5\u0698\u06ce\u0631", "name": "\u06af\u06d5\u0644\u06d5\u0698\u06ce\u0631", "name:ar": "\u0643\u0644\u0632\u064a\u0631", "name:ckb": "\u06af\u06d5\u0644\u06d5\u0698\u06ce\u0631", "name:de": "Galazher", "name:en": "Galazher", "name:fr": "Galazher", "name:ku": "Gelej\u00ear", "place": "village", "wikidata": "Q5988384", "wikipedia": "ckb:\u06af\u06d5\u0644\u06d5\u0698\u06ce\u0631"}}, {"type": "node", "id": 2488203226, "lat": 36.7049657, "lon": 44.7797045, "tags": {"alt_name": "\u0643\u0631\u062a\u0643", "int_name": "Girtik, J\u012brtik, Kirtak, \u0643\u0631\u062a\u0643, Girtik, Jirtik, Kirtak, \u0643\u0631\u062a\u0643", "is_in": "Iraq , \u062c\u0645\u0647\u0648\u0631\u064a\u0629 \u0627\u0644\u0639\u0631\u0627\u0642", "name": "\u06af\u0631\u062a\u06a9", "name:ar": "\u0643\u0631\u062a\u0643", "name:ar1": "\u0643\u0631\u062a\u0643", "name:de": "Girtik", "name:en": "Girtik", "name:fr": "Girtik", "place": "village"}}, {"type": "node", "id": 2488203227, "lat": 36.7241256, "lon": 44.9188155, "tags": {"name": "\u06af\u0648\u0646\u062f\u06d5\u0698\u06c6\u0631", "name:ar": "\u0643\u0648\u0646\u062f\u0632\u0648\u0631", "name:ckb": "\u06af\u0648\u0646\u062f\u06d5\u0698\u06c6\u0631", "name:de": "Gundazhor", "name:en": "Gundazhor", "name:fr": "Gundazhor", "name:ku": "Gundejor", "place": "village", "wikidata": "Q5988394", "wikipedia": "ckb:\u06af\u0648\u0646\u062f\u06d5\u0698\u06c6\u0631"}}, {"type": "node", "id": 2488203228, "lat": 36.6873779, "lon": 44.7064853, "tags": {"int_name": "Habrasah, Havras\u0101n, \u0647\u0628\u0631\u0633\u0629, Habrasah, Havrasan, \u0647\u0628\u0631\u0633\u0629", "name": "\u0686\u06c6\u0645\u0628\u0631\u0633", "name:ar": "\u062c\u0648\u0645\u0628\u0631\u0633", "name:ckb": "\u0686\u06c6\u0645\u0628\u0631\u0633", "name:de": "Chombrs", "name:en": "Chombrs", "name:fr": "Chombrs", "name:ku": "\u00c7ombirs", "place": "village", "wikidata": "Q5988195", "wikipedia": "ckb:\u0686\u06c6\u0645\u0628\u0631\u0633"}}, {"type": "node", "id": 2488203232, "lat": 36.6773726, "lon": 44.716029, "tags": {"int_name": "Im\u0101m Kha\u0163iy\u0101n, M\u0101ma Khat\u012bb\u0101n, \u0627\u0645\u0627\u0645 \u062e\u0637\u064a\u0627\u0646, Imam Khatiyan, Mama Khatiban, \u0627\u0645\u0627\u0645 \u062e\u0637\u064a\u0627\u0646", "name": "\u0645\u0627\u0645\u06d5\u062e\u06d5\u062a\u06cc\u0628\u06cc\u0627\u0646", "name:ar": "\u0645\u0627\u0645\u064e\u062e\u064e\u062a\u064a\u0628\u064a\u0627\u0646", "name:ckb": "\u0645\u0627\u0645\u06d5\u062e\u06d5\u062a\u06cc\u0628\u06cc\u0627\u0646", "name:de": "Mamakhatibyan", "name:en": "Mamakhatibyan", "name:fr": "Mamakhatibyan", "name:ku": "Mamexet\u00eebyan", "place": "village", "wikidata": "Q5988294", "wikipedia": "ckb:\u0645\u0627\u0645\u06d5\u062e\u06d5\u062a\u06cc\u0628\u06cc\u0627\u0646"}}, {"type": "node", "id": 2488203234, "lat": 36.680163, "lon": 44.70656, "tags": {"name": "\u062c\u0627\u0648\u06d5\u06a9\u06d5", "name:ar": "\u062c\u0627\u0648\u0643\u0629", "name:ckb": "\u062c\u0627\u0648\u06d5\u06a9\u06d5", "name:de": "Jawaka", "name:en": "Jawaka", "name:fr": "Jawaka", "name:ku": "Caweke", "place": "village", "wikidata": "Q5988193", "wikipedia": "ckb:\u062c\u0627\u0648\u06d5\u06a9\u06d5"}}, {"type": "node", "id": 2488203237, "lat": 36.688885, "lon": 44.6937483, "tags": {"name": "\u06af\u0632\u0631\u06d5", "name:ar": "\u0643\u0632\u0631\u0629", "name:ckb": "\u06af\u0632\u0631\u06d5", "name:de": "Gzra", "name:en": "Gzra", "name:fr": "Gzra", "name:ku": "Gizre", "place": "village", "wikidata": "Q13198566", "wikipedia": "ckb:\u06af\u0632\u0631\u06d5"}}, {"type": "node", "id": 2488203238, "lat": 36.6915757, "lon": 44.9924762, "tags": {"alt_name": "\u062e\u0627\u0644\u0627\u0646", "name": "\u062e\u06d5\u0644\u0627\u0646", "name:ar": "\u062e\u0644\u0627\u0646", "name:ckb": "\u062e\u06d5\u0644\u0627\u0646", "name:de": "Khalan", "name:en": "Khalan", "name:fr": "Khalan", "name:ku": "Xelan", "place": "village", "wikidata": "Q5988347", "wikipedia": "ckb:\u062e\u06d5\u0644\u0627\u0646\u060c \u0686\u06c6\u0645\u0627\u0646"}}, {"type": "node", "id": 2488203240, "lat": 36.738976, "lon": 44.921207, "tags": {"alt_name": "\u0643\u0648\u062c\u0631\u0627\u0646", "int_name": "K\u014dchar\u0101n, K\u016bjar\u0101n, \u0643\u0648\u062c\u0631\u0627\u0646, Kocharan, Kujaran, \u0643\u0648\u062c\u0631\u0627\u0646", "is_in": "Iraq , \u062c\u0645\u0647\u0648\u0631\u064a\u0629 \u0627\u0644\u0639\u0631\u0627\u0642", "name": "\u06a9\u06c6\u0686\u06d5\u0631\u0627\u0646", "name:ar": "\u0643\u0648\u062c\u0631\u0627\u0646", "name:ar1": "\u0643\u0648\u062c\u0631\u0627\u0646", "name:de": "Kocharan", "name:en": "Kocharan", "name:fr": "Kocharan", "name:ku": "\u06a9\u06c6\u0686\u06d5\u0631\u0627\u0646", "place": "village"}}, {"type": "node", "id": 2488203245, "lat": 36.6748117, "lon": 44.7375401, "tags": {"alt_name": "\u0645\u0627\u0648\u0627\u0646", "int_name": "M\u0101w\u0101n, \u0645\u0627\u0648\u0627\u0646, Mawan, \u0645\u0627\u0648\u0627\u0646", "is_in": "Iraq , \u062c\u0645\u0647\u0648\u0631\u064a\u0629 \u0627\u0644\u0639\u0631\u0627\u0642", "name": "\u0645\u0627\u0648\u0627\u0646", "name:ar": "\u0645\u0627\u0648\u0627\u0646", "name:ar1": "\u0645\u0627\u0648\u0627\u0646", "name:de": "Mawan", "name:en": "Mawan", "name:fr": "Mawan", "place": "village"}}, {"type": "node", "id": 2488203247, "lat": 36.6774924, "lon": 44.8886632, "tags": {"name": "\u0646\u0627\u0648\u06d5\u0646\u062f\u06d5", "name:ar": "\u0646\u0627\u0648\u06d5\u0646\u062f\u06d5", "name:ckb": "\u0646\u0627\u0648\u06d5\u0646\u062f\u06d5", "name:de": "Nawanda", "name:en": "Nawanda", "name:fr": "Nawanda", "name:ku": "Nawende", "place": "village", "wikidata": "Q5988391", "wikipedia": "ckb:\u0646\u0627\u0648\u06d5\u0646\u062f\u06d5"}}, {"type": "node", "id": 2488203248, "lat": 36.684798, "lon": 44.9707695, "tags": {"alt_name": "\u0631\u0627\u06cc\u0627\u062a", "int_name": "R\u0101i\u0101t, R\u0101y\u0101t, R\u0101y\u0101t, \u0631\u0627\u064a\u0627\u062a, Raiat, Rayat, Rayat, \u0631\u0627\u064a\u0627\u062a", "name": "\u0695\u0627\u06cc\u0627\u062a", "name:ar": "\u0631\u0627\u064a\u0627\u062a", "name:ckb": "\u0695\u0627\u06cc\u0627\u062a", "name:de": "Rayat", "name:en": "Rayat", "name:fr": "Rayat", "name:ku": "Rayat", "place": "village", "wikidata": "Q5988351", "wikipedia": "ckb:\u0695\u0627\u06cc\u0627\u062a"}}, {"type": "node", "id": 2488203249, "lat": 36.7051164, "lon": 44.7689596, "tags": {"name": "\u0695\u0648\u0633\u062a", "name:ckb": "\u0695\u0648\u0633\u062a", "name:en": "Rust", "name:ku": "Rust", "place": "village", "wikipedia": "ckb: \u0695\u0648\u0633\u062a"}}, {"type": "node", "id": 2488203250, "lat": 36.759121, "lon": 44.6389161, "tags": {"is_in": "Iraq , \u062c\u0645\u0647\u0648\u0631\u064a\u0629 \u0627\u0644\u0639\u0631\u0627\u0642", "name": "\u06a9\u06d5\u0698\u06d5\u06a9", "name:ar": "\u06a9\u06d5\u0698\u06d5\u06a9", "name:en": "Kazhak", "place": "village"}}, {"type": "node", "id": 2488203251, "lat": 36.705556, "lon": 44.781667, "tags": {"alt_name": "\u062c\u0628\u0644 \u0628\u0631\u0633\u0627\u0648\u0627", "int_name": "Sar i Bars\u0101w\u0101, Sar i Barsawa", "is_in": "Iraq , \u062c\u0645\u0647\u0648\u0631\u064a\u0629 \u0627\u0644\u0639\u0631\u0627\u0642", "name": "\u0633\u06d5\u0631\u06cc \u0645\u0627\u0631\u0633\u0627\u0648\u0627", "name:ar1": "\u062c\u0628\u0644 \u0628\u0631\u0633\u0627\u0648\u0627", "name:de": "Sar i Marsawa", "name:en": "Sar i Marsawa", "name:fr": "Sar i Marsawa", "place": "village"}}, {"type": "node", "id": 2488203257, "lat": 36.6745193, "lon": 44.7600091, "tags": {"alt_name": "\u0633\u0631\u0634\u0645\u0629", "int_name": "Sarashmah, Sereshma, \u0633\u0631\u0634\u0645\u0629, Sarashmah, Sereshma, \u0633\u0631\u0634\u0645\u0629", "name": "\u0633\u0631\u06ce\u0634\u0645\u06d5", "name:ar": "\u0633\u0631\u064a\u0634\u0645\u0629", "name:ckb": "\u0633\u0631\u06ce\u0634\u0645\u06d5", "name:de": "Sreshma", "name:en": "Sreshma", "name:fr": "Sreshma", "name:ku": "Sir\u00ea\u015fme", "place": "village", "wikipedia": "ckb: \u0633\u0631\u06ce\u0634\u0645\u06d5\u060c \u0686\u06c6\u0645\u0627\u0646"}}, {"type": "node", "id": 2488203264, "lat": 36.7104938, "lon": 44.7992685, "tags": {"alt_name": "\u0634\u0627\u0644\u0627\u0646", "int_name": "Shl\u0101n, \u0634\u0644\u0627\u0646, Shlan, \u0634\u0644\u0627\u0646", "is_in": "Iraq , \u062c\u0645\u0647\u0648\u0631\u064a\u0629 \u0627\u0644\u0639\u0631\u0627\u0642", "name": "\u0634\u0644\u0627\u0646", "name:ar": "\u0634\u0644\u0627\u0646", "name:ar1": "\u0634\u0627\u0644\u0627\u0646", "name:de": "Shlan", "name:en": "Shlan", "name:fr": "Shlan", "name:ku": "\u0634\u0644\u0627\u0646", "place": "village"}}, {"type": "node", "id": 2488203286, "lat": 36.7060525, "lon": 44.9135819, "tags": {"alt_name": "\u0634\u0648\u0631\u0629", "int_name": "Sh\u016bra, Sh\u016brah, \u0634\u0648\u0631\u0647, Shura, Shurah, \u0634\u0648\u0631\u0647", "name": "\u0634\u06c6\u0631\u06d5", "name:ar": "\u0634\u0648\u0631\u0629", "name:ckb": "\u0634\u06c6\u0631\u06d5", "name:de": "Shora", "name:en": "Shora", "name:fr": "Shora", "name:ku": "\u015eore", "place": "village", "wikidata": "Q5988318", "wikipedia": "ckb:\u0634\u06c6\u0631\u06d5"}}, {"type": "node", "id": 2488203299, "lat": 36.6797587, "lon": 44.7318815, "tags": {"alt_name": "\u0633\u0645\u06ce\u06b5\u0627\u0646", "capital": "7", "int_name": "Sim\u0113l\u0101n, Sum\u012bl\u0101n, \u0633\u0645\u064a\u0644\u0627\u0646, Simelan, Sumilan, \u0633\u0645\u064a\u0644\u0627\u0646", "is_in": "Iraq , \u062c\u0645\u0647\u0648\u0631\u064a\u0629 \u0627\u0644\u0639\u0631\u0627\u0642", "name": "\u0633\u0645\u06ce\u0644\u0627\u0646", "name:ar": "\u0633\u0645\u064a\u0644\u0627\u0646", "name:ckb": "\u0633\u06ce\u0645\u06ce\u0644\u0627\u0646", "name:de": "Simelan", "name:en": "Simelan", "name:fr": "Simelan", "place": "town", "wikidata": "Q5989530"}}, {"type": "node", "id": 2488203351, "lat": 36.7482044, "lon": 44.7171275, "tags": {"alt_name": "\u0632\u0627\u0646", "int_name": "Z\u0101n, \u0632\u0627\u0646, Zan, \u0632\u0627\u0646", "is_in": "Iraq , \u062c\u0645\u0647\u0648\u0631\u064a\u0629 \u0627\u0644\u0639\u0631\u0627\u0642", "name": "\u0632\u06cc\u0646\u06ce", "name:ar": "\u0632\u06cc\u0646\u06ce", "name:ar1": "\u0632\u0627\u0646", "name:de": "Zine", "name:en": "Zine", "name:fr": "Zine", "place": "village"}}, {"type": "node", "id": 2488203367, "lat": 36.687767, "lon": 44.6696534, "tags": {"alt_name": "\u0632\u064a\u0646\u0648 \u0628\u064a\u0634\u0629", "int_name": "Z\u012bn\u016b i B\u0113sha, Zinu i Besha", "is_in": "Iraq, \u062c\u0645\u0647\u0648\u0631\u064a\u0629 \u0627\u0644\u0639\u0631\u0627\u0642", "name": "\u0632\u064a\u0646\u0648 \u0628\u064a\u0634\u0629", "name:ar": "\u0632\u064a\u0646\u064a \u0628\u064a\u0634\u0629", "name:ar1": "\u0632\u064a\u0646\u0648 \u0628\u064a\u0634\u0629", "name:de": "Zinu i Besha", "name:en": "Zinu i Besha", "name:fr": "Zinu i Besha", "place": "village"}}, {"type": "node", "id": 2488203375, "lat": 36.6915568, "lon": 45.0067136, "tags": {"name": "\u0632\u06cc\u0646\u0648\u06ce", "name:ar": "\u0632\u064a\u0646\u0648\u064a", "name:ckb": "\u0632\u06cc\u0646\u0648\u06ce", "name:de": "Zinwe", "name:en": "Zinwe", "name:fr": "Zinwe", "name:ku": "Z\u00eenw\u00ea", "place": "village", "wikidata": "Q5988353", "wikipedia": "ckb:\u0632\u06cc\u0646\u0648\u06ce"}}, {"type": "node", "id": 2488204178, "lat": 36.60944, "lon": 45.029779, "tags": {"alt_name": "\u0628\u0631\u062f\u0648\u0646\u0627\u0632", "int_name": "Bardunaz, Bard\u016bn\u0101z, \u0628\u0631\u062f\u0648\u0646\u0627\u0632, Bardunaz, Bardunaz, \u0628\u0631\u062f\u0648\u0646\u0627\u0632", "name": "\u0628\u06d5\u0631\u062f\u0648\u0648\u0646\u0627\u0632", "name:ar": "\u0628\u0631\u062f\u0648\u0646\u0627\u0632", "name:ckb": "\u0628\u06d5\u0631\u062f\u0648\u0648\u0646\u0627\u0632", "name:de": "Bardunaz", "name:en": "Bardunaz", "name:fr": "Bardunaz", "name:ku": "Berd\u00fbnaz", "name_1": "\u0628\u06d5\u0631\u062f\u0648\u0646\u0627\u0632", "place": "village"}}, {"type": "node", "id": 2488204179, "lat": 36.659785, "lon": 44.6441544, "tags": {"alt_name": "\u0628\u064a\u0634\u0648\u0643 \u0632\u0631\u0648", "int_name": "B\u0113sh\u014dk i Zh\u016br\u016b, B\u012bsh\u016bk Zar\u016b, \u0628\u064a\u0634\u0648\u0643 \u0632\u0631\u0648, Beshok i Zhuru, Bishuk Zaru, \u0628\u064a\u0634\u0648\u0643 \u0632\u0631\u0648", "is_in": "Iraq , \u062c\u0645\u0647\u0648\u0631\u064a\u0629 \u0627\u0644\u0639\u0631\u0627\u0642", "name": "\u0628\u06ce\u0634\u0648\u06a9\u06cc \u0698\u0648\u0648\u0631\u06cc", "name:ar": "\u0628\u06ce\u0634\u0648\u06a9\u06cc \u0698\u0648\u0648\u0631\u06cc", "name:ar1": "\u0628\u064a\u0634\u0648\u0643 \u0632\u0631\u0648", "name:de": "Beshok Upper", "name:en": "Beshok Upper", "name:fr": "Beshok Upper", "place": "village"}}, {"type": "node", "id": 2488204180, "lat": 36.647917, "lon": 44.707056, "tags": {"int_name": "Cham Balok, Chambrok, Chombalok, Chomb\u0101r\u016bk, Ch\u016bmb\u0101r\u016bk, Jam B\u0101r\u016bk, Sh\u0101m B\u0101l\u016bk, \u062c\u0645 \u0628\u0627\u0631\u0648\u0643, Cham Balok, Chambrok, Chombalok, Chombaruk, Chumbaruk, Jam Baruk, Sham Baluk, \u062c\u0645 \u0628\u0627\u0631\u0648\u0643", "name": "\u0686\u06c6\u0645\u0628\u0627\u06b5\u06c6\u06a9", "name:ar": "\u062c\u0648\u0645\u0628\u0627\u0644\u0648\u0643", "name:ckb": "\u0686\u06c6\u0645\u0628\u0627\u06b5\u06c6\u06a9", "name:de": "Chombalok", "name:en": "Chombalok", "name:fr": "Chombalok", "name:ku": "\u00c7omballok", "place": "village", "wikidata": "Q5988245", "wikipedia": "ckb:\u0686\u06c6\u0645\u0628\u0627\u06b5\u06c6\u06a9"}}, {"type": "node", "id": 2488204192, "lat": 36.65651, "lon": 44.820279, "tags": {"int_name": "Delza", "is_in": "Iraq , \u062c\u0645\u0647\u0648\u0631\u064a\u0629 \u0627\u0644\u0639\u0631\u0627\u0642", "name": "Delza", "name:ar": "\u062f\u064a\u0644\u0632\u0629", "name:ckb": "\u062f\u06ce\u06b5\u0632\u06d5", "name:de": "Delza", "name:en": "Delza", "name:fr": "Delza", "place": "village"}}, {"type": "node", "id": 2488204204, "lat": 36.6071389, "lon": 44.7559363, "tags": {"alt_name": "\u062f\u0627\u0631 \u0627\u0644\u0633\u0644\u0627\u0645", "int_name": "D\u0101r as Sal\u0101m, Dar us Sal\u0101m, Dara Salam, \u062f\u0627\u0631 \u0627\u0644\u0633\u0644\u0627\u0645, Dar as Salam, Dar us Salam, Dara Salam, \u062f\u0627\u0631 \u0627\u0644\u0633\u0644\u0627\u0645", "name": "\u062f\u0627\u0631 \u0633\u06d5\u0644\u0627\u0645", "name:ar": "\u062f\u0627\u0631\u0633\u0644\u0627\u0645", "name:ckb": "\u062f\u0627\u0631\u0633\u0644\u0627\u0645", "name:de": "Darslam", "name:en": "Darslam", "name:fr": "Darslam", "name:ku": "Darsilam", "place": "village", "wikipedia": "ckb: \u062f\u0627\u0631\u0633\u0644\u0627\u0645"}}, {"type": "node", "id": 2488204210, "lat": 36.6481498, "lon": 44.7313336, "tags": {"int_name": "Daykah, Dega, D\u0113ga, \u062f\u064a\u0643\u0629, Daykah, Dega, Dega, \u062f\u064a\u0643\u0629", "name": "\u062f\u06ce\u06af\u06d5", "name:ar": "\u062f\u064a\u0643\u0629", "name:ckb": "\u062f\u06ce\u06af\u06d5", "name:de": "Dega", "name:en": "Dega", "name:fr": "Dega", "name:ku": "D\u00eage", "place": "village", "wikidata": "Q5988002", "wikipedia": "ckb:\u062f\u06ce\u06af\u06d5\u060c \u0686\u06c6\u0645\u0627\u0646"}}, {"type": "node", "id": 2488204211, "lat": 36.6377811, "lon": 45.0147825, "tags": {"alt_name": "\u0643\u0648\u0644 \u0643\u0634", "int_name": "Gol Gash, K\u016bl Kash, \u0643\u0648\u0644 \u0643\u0634, Gol Gash, Kul Kash, \u0643\u0648\u0644 \u0643\u0634", "is_in": "Iraq , \u062c\u0645\u0647\u0648\u0631\u064a\u0629 \u0627\u0644\u0639\u0631\u0627\u0642", "name": "\u06af\u06c6\u0644 \u06af\u06d5\u0634", "name:ar": "\u0643\u0648\u0644 \u0643\u0634", "name:ar1": "\u0643\u0648\u0644 \u0643\u0634", "name:ckb": "\u06af\u06c6\u0644 \u06af\u06d5\u0634", "name:de": "Gol Gash", "name:en": "Gol Gash", "name:fr": "Gol Gash", "name:ku": "Gol Ge\u015f", "name_1": "\u06af\u0648\u0648\u0644\u06af\u06d5\u0634", "name_2": "\u06af\u06c6\u0644\u06af\u06d5\u0634", "name_3": "\u06af\u0648\u0648\u0644 \u06af\u06d5\u0634", "name_4": "\u06af\u0648\u0644 \u06af\u06d5\u0634", "place": "village"}}, {"type": "node", "id": 2488204212, "lat": 36.621361, "lon": 44.756361, "tags": {"int_name": "G\u00f6z\u0101n, Guezan, Guizan, Gwizan, Kawz\u0101n, \u0643\u0648\u0632\u0627\u0646, Gozan, Guezan, Guizan, Gwizan, Kawzan, \u0643\u0648\u0632\u0627\u0646", "name": "\u06af\u0648\u06ce\u0632\u0627\u0646", "name:ar": "\u0643\u0648\u06cc\u0632\u0627\u0646", "name:ckb": "\u06af\u0648\u06ce\u0632\u0627\u0646", "name:de": "Gwezan", "name:en": "Gwezan", "name:fr": "Gwezan", "name:ku": "Gw\u00eazan", "place": "village", "wikipedia": "ckb: \u06af\u0648\u06ce\u0632\u0627\u0646\u060c \u0686\u06c6\u0645\u0627\u0646"}}, {"type": "node", "id": 2488204213, "lat": 36.632333, "lon": 44.738139, "tags": {"int_name": "Guw\u012bzlangah, Gwizlinga, Kawayrtik, Kortik, \u0643\u0648\u064a\u0631\u062a\u0643, Guwizlangah, Gwizlinga, Kawayrtik, Kortik, \u0643\u0648\u064a\u0631\u062a\u0643", "name": "\u06af\u0648\u06ce\u0632\u0644\u06cc\u0646\u06af\u06d5", "name:ar": "\u0643\u0648\u06cc\u0632\u0644\u064a\u0646\u0643\u0629", "name:ckb": "\u06af\u0648\u06ce\u0632\u0644\u06cc\u0646\u06af\u06d5", "name:de": "Gwezlinga", "name:en": "Gwezlinga", "name:fr": "Gwezlinga", "name:ku": "Giw\u00eazl\u00eenge", "place": "village", "wikidata": "Q5988264", "wikipedia": "ckb:\u06af\u0648\u06ce\u0632\u0644\u06cc\u0646\u06af\u06d5"}}, {"type": "node", "id": 2488204214, "lat": 36.6266642, "lon": 44.6375164, "tags": {"alt_name": "\u0647\u0648\u0631\u0629 \u0643\u0627\u0648\u0627\u0646", "int_name": "Haw\u0101r a K\u014dn, Hawar Kon, Hawar Kon, Hawra Kon, Hawrah K\u0101w\u0101n, W\u0101rah Kaw\u0101n, Warakaon, W\u0101r\u0101kaw\u0101n, \u0647\u0648\u0631\u0629 \u0643\u0627\u0648\u0627\u0646, Hawar a Kon, Hawar Kon, Hawar Kon, Hawra Kon, Hawrah Kawan, Warah Kawan, Warakaon, Warakawan, \u0647\u0648\u0631\u0629 \u0643\u0627\u0648\u0627\u0646", "is_in": "Iraq , \u062c\u0645\u0647\u0648\u0631\u064a\u0629 \u0627\u0644\u0639\u0631\u0627\u0642", "name": "\u0647\u0647\u200c\u0648\u0627\u0631\u0647\u200c\u06a9\u06c6\u0646", "name:ar": "\u0647\u0647\u200c\u0648\u0627\u0631\u0647\u200c\u06a9\u06c6\u0646", "name:ar1": "\u0647\u0648\u0631\u0629 \u0643\u0627\u0648\u0627\u0646", "name:de": "Hawar a Kon", "name:en": "Hawar a Kon", "name:fr": "Hawar a Kon", "place": "village"}}, {"type": "node", "id": 2488204219, "lat": 36.6118366, "lon": 44.823147, "tags": {"capital": "7", "ele": "994", "name": "\u06af\u06d5\u06b5\u0627\u06b5\u06d5", "name:ar": "\u0643\u0644\u0627\u0644\u0629", "name:ckb": "\u06af\u06d5\u06b5\u0627\u06b5\u06d5", "name:en": "Galala", "place": "town", "wikidata": "Q11184143", "wikipedia": "ckb:\u06af\u06d5\u06b5\u0627\u06b5\u06d5\u060c \u0686\u06c6\u0645\u0627\u0646"}}, {"type": "node", "id": 2488204220, "lat": 36.6069934, "lon": 44.6514667, "tags": {"alt_name": "\u0645\u0627\u0648\u0644\u064a\u0627\u0646", "int_name": "M\u0101viliy\u0101n, M\u0101wili\u0101n, M\u0101wiliy\u0101n, Mawilyan, M\u0101w\u012bly\u0101n, M\u0101wiy\u0101n, Mawlian, \u0645\u0627\u0648\u0644\u064a\u0627\u0646, Maviliyan, Mawilian, Mawiliyan, Mawilyan, Mawilyan, Mawiyan, Mawlian, \u0645\u0627\u0648\u0644\u064a\u0627\u0646", "is_in": "Iraq , \u062c\u0645\u0647\u0648\u0631\u064a\u0629 \u0627\u0644\u0639\u0631\u0627\u0642", "name": "\u0645\u0627\u0648\u06cc\u0644\u06cc\u0627\u0646", "name:ar": "\u0645\u0627\u0648\u06cc\u0644\u06cc\u0627\u0646", "name:ar1": "\u0645\u0627\u0648\u0644\u064a\u0627\u0646", "name:de": "Maviliyan", "name:en": "Mawiliyan", "name:fr": "Maviliyan", "name:ku": "\u0645\u0627\u0648\u06cc\u0644\u06cc\u0627\u0646", "place": "village", "population": "500"}}, {"type": "node", "id": 2488204225, "lat": 36.6236035, "lon": 44.6249935, "tags": {"alt_name": "\u0633\u064a\u0631\u0627\u062c\u064a\u0627\u0646", "int_name": "S\u012br\u0101jiy\u0101n, \u0633\u064a\u0631\u0627\u062c\u064a\u0627\u0646, Sirajiyan, \u0633\u064a\u0631\u0627\u062c\u064a\u0627\u0646", "is_in": "Iraq , \u062c\u0645\u0647\u0648\u0631\u064a\u0629 \u0627\u0644\u0639\u0631\u0627\u0642", "name": "\u0633\u064a\u0631\u0627\u062c\u064a\u0627\u0646", "name:ar": "\u0633\u064a\u0631\u0627\u062c\u064a\u0627\u0646", "name:ar1": "\u0633\u064a\u0631\u0627\u062c\u064a\u0627\u0646", "name:de": "Sirajiyan", "name:en": "Sirajiyan", "name:fr": "Sirajiyan", "place": "village"}}, {"type": "node", "id": 2488204226, "lat": 36.6464907, "lon": 45.0147604, "tags": {"alt_name": "\u0648\u0627\u0631\u0647 \u0643\u0648\u0631\u0643", "int_name": "W\u0101rah K\u016brk, \u0648\u0627\u0631\u0647 \u0643\u0648\u0631\u0643, Warah Kurk, \u0648\u0627\u0631\u0647 \u0643\u0648\u0631\u0643", "name": "\u0648\u0627\u0631\u06d5 \u06a9\u0648\u0631\u06a9", "name:ar": "\u0648\u0627\u0631\u0647 \u0643\u0648\u0631\u0643", "name:ckb": "\u0648\u0627\u0631\u06d5 \u06a9\u0648\u0631\u06a9", "name:de": "Wara Kurk", "name:en": "Wara Kurk", "name:fr": "Wara Kurk", "name_1": "Warah Kurk", "name_2": "\u0648\u0627\u0631\u06d5 \u06a9\u0648\u0648\u0631\u06a9", "name_3": "Wara Kurik", "place": "village"}}, {"type": "node", "id": 2488205777, "lat": 36.7033489, "lon": 44.5373477, "tags": {"alt_name": "\u0628\u0627\u062f\u064a\u0644\u064a\u0627\u0646", "int_name": "Badaliy\u0101n, B\u0101d\u012bliy\u0101n, \u0628\u0627\u062f\u064a\u0644\u064a\u0627\u0646, Badaliyan, Badiliyan, \u0628\u0627\u062f\u064a\u0644\u064a\u0627\u0646", "is_in": "Iraq , \u062c\u0645\u0647\u0648\u0631\u064a\u0629 \u0627\u0644\u0639\u0631\u0627\u0642", "name": "\u0628\u0627\u062f\u0644\u06cc\u0627\u0646", "name:ar": "\u0628\u0627\u062f\u064a\u0644\u064a\u0627\u0646", "name:ar1": "\u0628\u0627\u062f\u064a\u0644\u064a\u0627\u0646", "name:de": "Badaliyan", "name:en": "Badlyan", "name:fr": "Badaliyan", "place": "village"}}, {"type": "node", "id": 2488205801, "lat": 36.624611, "lon": 44.612583, "tags": {"alt_name": "\u0632\u064a\u0648\u0627", "int_name": "Barzewa, Zayw\u0101, Zewa, Zewa, Z\u0113wah, Z\u012bwah, \u0632\u064a\u0648\u0627, Barzewa, Zaywa, Zewa, Zewa, Zewah, Ziwah, \u0632\u064a\u0648\u0627", "is_in": "Iraq , \u062c\u0645\u0647\u0648\u0631\u064a\u0629 \u0627\u0644\u0639\u0631\u0627\u0642", "name": "\u0628\u06d5\u0631\u0632\u06ce\u0648\u06d5", "name:ar1": "\u0632\u064a\u0648\u0627", "name:de": "Barzewa", "name:en": "Barzewa", "name:fr": "Barzewa", "place": "village"}}, {"type": "node", "id": 2488205852, "lat": 36.7492705, "lon": 44.544418, "tags": {"alt_name": "\u062f\u064a\u0631\u0627\u0646\u0629", "int_name": "D\u0113r\u0101na, D\u012br\u0101nah, \u062f\u064a\u0631\u0627\u0646\u0629, Derana, Diranah, \u062f\u064a\u0631\u0627\u0646\u0629", "is_in": "Iraq , \u062c\u0645\u0647\u0648\u0631\u064a\u0629 \u0627\u0644\u0639\u0631\u0627\u0642", "name": "\u062f\u06ce\u0631\u0627\u0646\u06d5", "name:ar": "\u062f\u064a\u0631\u0627\u0646\u0629", "name:ar1": "\u062f\u064a\u0631\u0627\u0646\u0629", "name:de": "Derana", "name:en": "Derana", "name:fr": "Derana", "place": "village"}}, {"type": "node", "id": 2488205853, "lat": 36.6636075, "lon": 44.5519781, "tags": {"alt_name": "\u062f\u064a\u0627\u0646\u0627", "capital": "9", "int_name": "Diana, Diy\u0101n\u0101, Diy\u0101nah, \u062f\u064a\u0627\u0646\u0627, Diana, Diyana, Diyanah, \u062f\u064a\u0627\u0646\u0627", "is_in": "Iraq , \u062c\u0645\u0647\u0648\u0631\u064a\u0629 \u0627\u0644\u0639\u0631\u0627\u0642", "is_in:country": "Iraq", "is_in:country_code": "IQ", "name": "\u062f\u06cc\u0627\u0646\u0627", "name:ckb": "\u062f\u064a\u0627\u0646\u0627", "name:de": "Diana", "name:en": "Diana", "name:fr": "Diana", "name:ku": "Diyana", "place": "village"}}, {"type": "node", "id": 2488205867, "lat": 36.7047815, "lon": 44.6221475, "tags": {"alt_name": "\u0647\u0633\u0646\u0627\u0646", "int_name": "Hasn\u0101n, \u0647\u0633\u0646\u0627\u0646, Hasnan, \u0647\u0633\u0646\u0627\u0646", "is_in": "Iraq , \u062c\u0645\u0647\u0648\u0631\u064a\u0629 \u0627\u0644\u0639\u0631\u0627\u0642", "name": "\u0647\u06d5\u0633\u06d5\u0646\u0627\u0646", "name:ar": "\u0647\u0629\u0633\u0646\u0627\u0646", "name:ar1": "\u0647\u0633\u0646\u0627\u0646", "name:de": "Hasnan", "name:en": "Hasnan", "name:fr": "Hasnan", "name:ku": "\u0647\u06d5\u0633\u0646\u0627\u0646", "place": "village"}}, {"type": "node", "id": 2488205870, "lat": 36.6269653, "lon": 44.6048542, "tags": {"alt_name": "\u062c\u0646\u064a \u0644\u0627\u0648\u0629", "int_name": "Jinay L\u0101wah, Jin\u0113r\u0101wa, \u062c\u0646\u064a \u0644\u0627\u0648\u0647, Jinay Lawah, Jinerawa, \u062c\u0646\u064a \u0644\u0627\u0648\u0647", "is_in": "Iraq , \u062c\u0645\u0647\u0648\u0631\u064a\u0629 \u0627\u0644\u0639\u0631\u0627\u0642", "name": "\u062c\u0646\u064a \u0644\u0627\u0648\u0629", "name:ar": "\u062c\u0646\u064a \u0644\u0627\u0648\u0629", "name:ar1": "\u062c\u0646\u064a \u0644\u0627\u0648\u0629", "name:de": "Jinay Lawah", "name:en": "Jinay Lawah", "name:fr": "Jinay Lawah", "place": "village"}}, {"type": "node", "id": 2488205921, "lat": 36.6313237, "lon": 44.5849378, "tags": {"alt_name": "\u062e\u0644\u0643\u0627\u0646", "int_name": "Khalakh\u0101n, Khalk\u0101n, Khalokan, Khalq\u0101n, \u062e\u0644\u0643\u0627\u0646, Khalakhan, Khalkan, Khalokan, Khalqan, \u062e\u0644\u0643\u0627\u0646", "is_in": "Iraq , \u062c\u0645\u0647\u0648\u0631\u064a\u0629 \u0627\u0644\u0639\u0631\u0627\u0642", "name": "\u062e\u0644\u0643\u0627\u0646", "name:ar": "\u062e\u0644\u0643\u0627\u0646", "name:ar1": "\u062e\u0644\u0643\u0627\u0646", "name:de": "Khalakhan", "name:en": "Khalakhan", "name:fr": "Khalakhan", "place": "village"}}, {"type": "node", "id": 2488205959, "lat": 36.7415642, "lon": 44.5443283, "tags": {"alt_name": "\u0645\u0648\u0633\u0629 \u0643\u0627\u0648\u0629", "int_name": "M\u016bs\u00e1 K\u0101wa, M\u016bs\u00e1 Kh\u0101wah, M\u016bsat K\u0101wah, \u0645\u0648\u0633\u0629 \u0643\u0627\u0648\u0629, Musa Kawa, Musa Khawah, Musat Kawah, \u0645\u0648\u0633\u0629 \u0643\u0627\u0648\u0629", "is_in": "Iraq , \u062c\u0645\u0647\u0648\u0631\u064a\u0629 \u0627\u0644\u0639\u0631\u0627\u0642", "name": "\u0645\u0648\u0648\u0633\u0627 \u06a9\u0627\u0648\u06d5", "name:ar": "\u0645\u0648\u0633\u0649 \u0643\u0627\u0648\u0629", "name:ckb": "\u0645\u0648\u0648\u0633\u0627 \u06a9\u0627\u0648\u06d5", "name:de": "Musa Kawa", "name:en": "Musa Kawa", "name:fr": "Musa Kawa", "place": "village"}}, {"type": "node", "id": 2488205962, "lat": 36.7061018, "lon": 44.5943458, "tags": {"alt_name": "\u0646\u0627\u0648\u0631\u0648\u064a", "int_name": "N\u0101warw\u012b, N\u0101wr\u014dyen, N\u016brwin, \u0646\u0627\u0648\u0631\u0648\u064a, Nawarwi, Nawroyen, Nurwin, \u0646\u0627\u0648\u0631\u0648\u064a", "is_in": "Iraq , \u062c\u0645\u0647\u0648\u0631\u064a\u0629 \u0627\u0644\u0639\u0631\u0627\u0642", "name": "\u0646\u0627\u0648\u0631\u0648\u06cc\u0646", "name:ar": "\u0646\u0627\u0648\u0631\u0648\u06cc\u0646", "name:ar1": "\u0646\u0627\u0648\u0631\u0648\u064a", "name:de": "Nawarwi", "name:en": "Nawarwi", "name:fr": "Nawarwi", "place": "village"}}, {"type": "node", "id": 2488205978, "lat": 36.7219388, "lon": 44.580372, "tags": {"alt_name": "\u0634\u064a\u062e\u0627\u0646", "int_name": "Shaykh\u0101n, \u0634\u064a\u062e\u0627\u0646, Shaykhan, \u0634\u064a\u062e\u0627\u0646", "is_in": "Iraq , \u062c\u0645\u0647\u0648\u0631\u064a\u0629 \u0627\u0644\u0639\u0631\u0627\u0642", "name": "\u0634\u064a\u062e\u0627\u0646", "name:ar": "\u0634\u064a\u062e\u0627\u0646", "name:ar1": "\u0634\u064a\u062e\u0627\u0646", "name:de": "Shaykhan", "name:en": "Shaykhan", "name:fr": "Shaykhan", "place": "village"}}, {"type": "node", "id": 2488205979, "lat": 36.68137, "lon": 44.596674, "tags": {"alt_name": "\u0633\u064a\u062a\u0643\u0627\u0646", "int_name": "S\u012bdk\u0101n, S\u012btk\u0101n, \u0633\u064a\u062a\u0643\u0627\u0646, Sidkan, Sitkan, \u0633\u064a\u062a\u0643\u0627\u0646", "is_in": "Iraq , \u062c\u0645\u0647\u0648\u0631\u064a\u0629 \u0627\u0644\u0639\u0631\u0627\u0642", "name": "\u0633\u06cc\u062a\u06a9\u0627\u0646", "name:ar": "\u0633\u064a\u062a\u0643\u0627\u0646", "name:ar1": "\u0633\u064a\u062a\u0643\u0627\u0646", "name:de": "Sidkan", "name:en": "Sidkan", "name:fr": "Sidkan", "name:ku": "\u0633\u064a\u062a\u0643\u0627\u0646", "name:ru": "\u0421\u0438\u0434\u0430\u043a\u0430\u043d", "place": "village"}}, {"type": "node", "id": 2488268723, "lat": 36.5614822, "lon": 44.5584702, "tags": {"alt_name": "\u0622\u0643\u0648\u064a\u0627\u0646", "int_name": "Akaw\u0101, \u0100kawy\u0101n, \u0100koy\u0101n, \u0622\u0643\u0648\u064a\u0627\u0646, Akawa, Akawyan, Akoyan, \u0622\u0643\u0648\u064a\u0627\u0646", "is_in": "Iraq , \u062c\u0645\u0647\u0648\u0631\u064a\u0629 \u0627\u0644\u0639\u0631\u0627\u0642", "name": "\u06af\u0648\u0646\u062f\u06cc \u0626\u0627\u06a9\u06c6\u06cc\u0627\u0646", "name:ar1": "\u0622\u0643\u0648\u064a\u0627\u0646", "place": "village"}}, {"type": "node", "id": 2488268838, "lat": 36.5802748, "lon": 44.5588334, "tags": {"alt_name": "\u0628\u0646\u064a \u0643\u0627\u0648\u0644", "int_name": "Ban Kawl, Ban\u012b K\u0101wul, Binah K\u0101wul, Binik\u0101wul, Bna Kawl, \u0628\u0646\u06d5 \u0643\u0627\u0648\u0644, \u0628\u0646\u064a \u0643\u0627\u0648\u0644, Ban Kawl, Bani Kawul, Binah Kawul, Binikawul, Bna Kawl, \u0628\u0646\u06d5 \u0643\u0627\u0648\u0644, \u0628\u0646\u064a \u0643\u0627\u0648\u0644", "is_in": "Iraq , \u062c\u0645\u0647\u0648\u0631\u064a\u0629 \u0627\u0644\u0639\u0631\u0627\u0642", "name": "\u06a9\u0627\u0648\u0644\u06c6\u06a9\u0627\u0646", "name:ar": "\u0628\u0646\u064a \u0643\u0627\u0648\u0644", "name:ar1": "\u0628\u0646\u064a \u0643\u0627\u0648\u0644", "name:de": "Ban Kawl", "name:en": "Ban Kawl", "name:fr": "Ban Kawl", "place": "village"}}, {"type": "node", "id": 2488268895, "lat": 36.5355313, "lon": 44.5513667, "tags": {"alt_name": "\u0628\u0646 \u0645\u064a\u0631\u062f\u0627", "int_name": "Bin Mayrd\u0101, Bin Merdah, Binm\u0113rda, Bnmerda, \u0628\u0646 \u0645\u064a\u0631\u062f\u0627, Bin Mayrda, Bin Merdah, Binmerda, Bnmerda, \u0628\u0646 \u0645\u064a\u0631\u062f\u0627", "is_in": "Iraq , \u062c\u0645\u0647\u0648\u0631\u064a\u0629 \u0627\u0644\u0639\u0631\u0627\u0642", "name": "\u0628\u0646\u0645\u06ce\u0631\u062f", "name:ar": "\u0628\u0646\u0645\u06ce\u0631\u062f", "name:ar1": "\u0628\u0646 \u0645\u064a\u0631\u062f\u0627", "name:de": "Bin Mayrda", "name:en": "Bin Mayrda", "name:fr": "Bin Mayrda", "place": "village"}}, {"type": "node", "id": 2488269118, "lat": 36.5428028, "lon": 44.5379826, "tags": {"alt_name": "\u0641\u0627\u0642\u064a\u0627\u0646", "int_name": "Faqiyan, F\u0101qiy\u0101n, \u0641\u0627\u0642\u064a\u0627\u0646, Faqiyan, Faqiyan, \u0641\u0627\u0642\u064a\u0627\u0646", "is_in": "Iraq , \u062c\u0645\u0647\u0648\u0631\u064a\u0629 \u0627\u0644\u0639\u0631\u0627\u0642", "name": "\u0641\u06d5\u0642\u06cc\u0627\u0646", "name:ar": "\u0641\u06d5\u0642\u06cc\u0627\u0646", "name:ar1": "\u0641\u0627\u0642\u064a\u0627\u0646", "name:de": "Faqiyan", "name:en": "Faqiyan", "name:fr": "Faqiyan", "place": "village", "population": "400"}}, {"type": "node", "id": 2488269239, "lat": 36.576323, "lon": 44.542624, "tags": {"alt_name": "\u0643\u0631\u062f\u064a \u0633\u064a\u0645\u0643", "int_name": "Gird i S\u0113mik, Kird\u012b Saymik, \u0643\u0631\u062f\u064a \u0633\u064a\u0645\u0643, Gird i Semik, Kirdi Saymik, \u0643\u0631\u062f\u064a \u0633\u064a\u0645\u0643", "is_in": "Iraq , \u062c\u0645\u0647\u0648\u0631\u064a\u0629 \u0627\u0644\u0639\u0631\u0627\u0642", "name": "\u06af\u0631\u062f\u06cc \u0633\u06cc\u0645\u06a9", "name:ar": "\u06af\u0631\u062f\u06cc \u0633\u06cc\u0645\u06a9", "name:ar1": "\u0643\u0631\u062f\u064a \u0633\u064a\u0645\u0643", "name:de": "Gird i Semik", "name:en": "Gird i Semik", "name:fr": "Gird i Semik", "place": "village"}}, {"type": "node", "id": 2488271377, "lat": 36.5980922, "lon": 44.7301743, "tags": {"int_name": "B\u0101shkawz, P\u0101shag\u014dz, Bashkawz, Pashagoz, \u0628\u0627\u0634\u0643\u0648\u0632 \u067e\u0627\u0634\u06a9\u06c6\u0632", "name": "\u067e\u0627\u0634\u06a9\u06c6\u0632", "name:ar": "\u0628\u0627\u0634\u0643\u0648\u0632", "name:ckb": "\u067e\u0627\u0634\u06a9\u06c6\u0632", "name:en": "Pashkoz", "name:ku": "Pa\u015fkoz", "place": "village", "wikipedia": "ckb: \u067e\u0627\u0634\u06a9\u06c6\u0632"}}, {"type": "node", "id": 2488271419, "lat": 36.600429, "lon": 44.710669, "tags": {"int_name": "R\u0101z\u0101n\u014dk, R\u0101z\u0101n\u016bk, Rezanok, Razanuk, \u0631\u0627\u0632\u0627\u0646\u0648\u0643 \u0631\u0632\u0627\u0646\u0648\u0643\u060c \u0695\u06d5\u0632\u0627\u0646\u06c6\u06a9", "is_in": "Iraq , \u062c\u0645\u0647\u0648\u0631\u064a\u0629 \u0627\u0644\u0639\u0631\u0627\u0642", "name": "\u0695\u06d5\u0632\u0627\u0646\u06c6\u06a9", "name:ar": "\u0631\u0632\u0627\u0646\u0648\u0643", "name:ckb": "\u0695\u06d5\u0632\u0627\u0646\u06c6\u06a9", "name:en": "Razanok", "name:ku": "Rezanok", "place": "village"}}, {"type": "node", "id": 2488271423, "lat": 36.5482722, "lon": 44.6378743, "tags": {"alt_name": "\u0635\u0644\u0627\u0646", "int_name": "\u015eal\u0101n, \u0635\u0644\u0627\u0646, Salan, \u0635\u0644\u0627\u0646", "is_in": "Iraq , \u062c\u0645\u0647\u0648\u0631\u064a\u0629 \u0627\u0644\u0639\u0631\u0627\u0642", "name": "\u0633\u06d5\u0631\u0627\u0646", "name:ar": "\u0635\u0644\u0627\u0646", "name:ar1": "\u0635\u0644\u0627\u0646", "name:de": "Salan", "name:en": "Salan", "name:fr": "Salan", "place": "village"}}, {"type": "node", "id": 2488271424, "lat": 36.5474961, "lon": 44.6383057, "tags": {"alt_name": "\u0633\u0631\u0627\u0646", "int_name": "Sar\u0101n, Saran", "is_in": "Iraq , \u062c\u0645\u0647\u0648\u0631\u064a\u0629 \u0627\u0644\u0639\u0631\u0627\u0642", "name": "\u0633\u0631\u0627\u0646", "name:ar": "\u0633\u0631\u0627\u0646", "name:ar1": "\u0633\u0631\u0627\u0646", "name:de": "Saran", "name:en": "Saran", "name:fr": "Saran", "place": "village"}}, {"type": "node", "id": 2488272755, "lat": 36.5340196, "lon": 44.7915127, "tags": {"name": "\u067e\u0627\u0634\u062a\u0627\u062a \u0642\u06d5\u0633\u0631\u06ce", "name:ar": "\u0628\u0627\u0634\u062a\u0627\u062a", "name:ckb": "\u067e\u0627\u0634\u062a\u0627\u062a", "name:en": "Pashtat", "name:ku": "Pa\u015ftat", "place": "village", "region:type": "mountain_area"}}, {"type": "node", "id": 2488272765, "lat": 36.5716729, "lon": 44.7482, "tags": {"alt_name": "\u062c\u0645\u0631\u062e\u0627\u0646", "int_name": "Cham Rokhan, Chamarukh\u0101n, Chamrakhin, Chamrokh\u0101n, Ch\u014dmrakh\u012bn, \u0686\u0645\u0631\u062e\u0627\u0646, Cham Rokhan, Chamarukhan, Chamrakhin, Chamrokhan, Chomrakhin, \u0686\u0645\u0631\u062e\u0627\u0646", "is_in": "Iraq , \u062c\u0645\u0647\u0648\u0631\u064a\u0629 \u0627\u0644\u0639\u0631\u0627\u0642", "name": "\u062c\u0645\u0631\u062e\u0627\u0646", "name:ar": "\u062c\u0645\u0631\u062e\u0627\u0646", "name:ar1": "\u062c\u0645\u0631\u062e\u0627\u0646", "name:de": "ChamRakhan", "name:en": "ChamRakhan", "name:fr": "ChamRakhan", "place": "village"}}, {"type": "node", "id": 2488272898, "lat": 36.598417, "lon": 44.778194, "tags": {"int_name": "K\u0101ni Sm\u0101q, Kani Smaq, \u06a9\u0627\u0646\u06cc \u0633\u0645\u0627\u0642", "name": "\u06a9\u0627\u0646\u06cc \u0633\u0645\u0627\u0642", "name:ar": "\u0643\u0627\u0646\u064a \u0633\u0645\u0627\u0642", "name:ckb": "\u06a9\u0627\u0646\u06cc \u0633\u0645\u0627\u0642", "name:en": "Kani Smaq", "name:ku": "Kan\u00ee Simaq", "place": "village", "wikidata": "Q5988256", "wikipedia": "ckb:\u06a9\u0627\u0646\u06cc \u0633\u0645\u0627\u0642"}}, {"type": "node", "id": 2488272938, "lat": 36.538111, "lon": 44.767861, "tags": {"alt_name": "\u062e\u0627\u0646\u0642\u0627\u0647", "int_name": "Khanaqa, Kh\u0101naq\u0101h, \u062e\u0627\u0646\u0642\u0627\u06d5, Khanaqa, Khanaqah, \u062e\u0627\u0646\u0642\u0627\u06d5", "is_in": "Iraq , \u062c\u0645\u0647\u0648\u0631\u064a\u0629 \u0627\u0644\u0639\u0631\u0627\u0642", "name": "\u062e\u0627\u0646\u06d5\u0642\u0627", "name:ar": "\u062e\u0627\u0646\u0642\u0627\u0647", "name:ar1": "\u062e\u0627\u0646\u0642\u0627\u0647", "name:de": "Khanaqa", "name:en": "Khanaqa", "name:fr": "Khanaqa", "name:ku": "Xanaqa", "place": "village"}}, {"type": "node", "id": 2488272993, "lat": 36.5899539, "lon": 44.7942064, "tags": {"alt_name": "\u0695\u06d5\u0632\u0627\u0646 \u0645\u06d5\u0644\u0627 \u0628\u0631\u0627\u06cc\u06cc\u0645", "alt_name:ku": "Rezan Mela Biray\u00eem", "name": "\u0695\u06d5\u0632\u0627\u0646", "name:ar": "\u0631\u0632\u0627\u0646", "name:ckb": "\u0695\u06d5\u0632\u0627\u0646", "name:en": "Razan", "name:ku": "Rezan", "place": "village", "wikidata": "Q5988314", "wikipedia": "ckb:\u0695\u06d5\u0632\u0627\u0646 \u0645\u06d5\u0644\u0627 \u0628\u0631\u0627\u06cc\u06cc\u0645"}}, {"type": "node", "id": 2488273001, "lat": 36.5454595, "lon": 44.7697403, "tags": {"alt_name": "\u0633\u0631\u062f\u0627\u0631\u0629", "int_name": "Sardara, Sard\u0101rah, Serdera, \u0633\u0631\u062f\u0627\u0631\u0629, Sardara, Sardarah, Serdera, \u0633\u0631\u062f\u0627\u0631\u0629", "is_in": "Iraq , \u062c\u0645\u0647\u0648\u0631\u064a\u0629 \u0627\u0644\u0639\u0631\u0627\u0642", "name": "\u0633\u06d5\u0631\u062f\u0627\u0631\u06d5", "name:ar": "\u0633\u0631\u062f\u0627\u0631\u0629", "name:ar1": "\u0633\u0631\u062f\u0627\u0631\u0629", "name:de": "Sardara", "name:en": "Sardara", "name:fr": "Sardara", "place": "village"}}, {"type": "node", "id": 2488273011, "lat": 36.533333, "lon": 44.8, "tags": {"alt_name": "\u0633\u0631\u0645\u0627\u0648\u0629", "int_name": "Sirmawa, Sirm\u0101wah, Sirmawa, Sirmawah", "name": "\u0633\u0631\u0645\u0627\u0648\u06d5", "name:ar": "\u0633\u0631\u0645\u0627\u0648\u0629", "name:de": "Sirmawa", "name:en": "Sirmawa", "name:fr": "Sirmawa", "place": "village"}}, {"type": "node", "id": 2488281194, "lat": 36.525139, "lon": 44.843972, "tags": {"int_name": "Chomsak, Choms\u0101k, Ch\u014dms\u0101k, chawms\u0101k, \u0686\u06c6\u0645\u0633\u0627\u06a9", "name": "\u0686\u06c6\u0645\u0633\u0627\u06a9", "name:ar": "\u062c\u0648\u0645\u0633\u0627\u0643", "name:ckb": "\u0686\u06c6\u0645\u0633\u0627\u06a9", "name:de": "Chomsak", "name:en": "Chomsak", "name:ku": "\u00c7omsak", "place": "village", "wikipedia": "ckb:\u0686\u06c6\u0645\u0633\u0627\u06a9"}}, {"type": "node", "id": 2488281195, "lat": 36.5951685, "lon": 44.8236609, "tags": {"name": "\u0645\u06ce\u0631\u06af\u06d5\u06cc \u062e\u0648\u0627\u0631\u0648\u0648", "name:ckb": "\u0645\u06ce\u0631\u06af\u06d5\u06cc \u062e\u0648\u0627\u0631\u0648\u0648", "name:en": "Mergay Khwaru", "name:ku": "M\u00eargey Xwar\u00fb", "place": "village", "wikidata": "Q5988284", "wikipedia": "ckb:\u0645\u06ce\u0631\u06af\u06d5\u06cc \u062e\u0648\u0627\u0631\u0648\u0648"}}, {"type": "node", "id": 2488281201, "lat": 36.564972, "lon": 44.817778, "tags": {"name": "\u0645\u0627\u06a9\u06c6\u0633\u0627\u0646", "name:ar": "\u0645\u0627\u06a9\u06c6\u0633\u0627\u0646", "name:ckb": "\u0645\u0627\u06a9\u06c6\u0633\u0627\u0646", "name:en": "Makosan", "name:ku": "Makosan", "place": "village", "wikidata": "Q5988151", "wikipedia": "ckb:\u0645\u0627\u06a9\u06c6\u0633\u0627\u0646"}}, {"type": "node", "id": 2488281202, "lat": 36.591944, "lon": 44.838444, "tags": {"int_name": "Merga, \u0645\u06ce\u0631\u06af\u06d5", "name": "\u0645\u06ce\u0631\u06af\u06d5", "name:ar": "\u0645\u06ce\u0631\u06af\u06d5", "name:ckb": "\u0645\u06ce\u0631\u06af\u06d5", "name:en": "Merga", "name:ku": "M\u00earge", "place": "village", "wikipedia": "ckb:\u0645\u06ce\u0631\u06af\u06d5"}}, {"type": "node", "id": 2488281208, "lat": 36.5894247, "lon": 44.8083417, "tags": {"alt_name": "\u0695\u06d5\u0698\u062f\u0648\u0648\u0631", "alt_name:ku": "Re\u015fd\u00fbr", "name": "\u0695\u06d5\u0698\u062f\u0648\u0648\u0631", "name:ar": "\u0631\u0634\u062f\u0648\u0631", "name:ckb": "\u0695\u06d5\u0698\u062f\u0648\u0648\u0631", "name:en": "Razhdur", "name:ku": "Rejd\u00fbr", "place": "village", "wikidata": "Q5988144", "wikipedia": "ckb:\u0695\u06d5\u0698\u062f\u0648\u0648\u0631"}}, {"type": "node", "id": 2488281212, "lat": 36.5702733, "lon": 44.8148613, "tags": {"int_name": "Saya, S\u0101yah, Saya, Sayah, \u0633\u0627\u064a\u0629", "name": "\u0633\u0627\u06cc\u06d5", "name:ar": "\u0633\u0627\u06cc\u06d5", "name:ckb": "\u0633\u0627\u06cc\u06d5", "name:en": "Saya", "name:ku": "Saye", "place": "village", "wikidata": "Q5987929", "wikipedia": "ckb:\u0633\u0627\u06cc\u06d5"}}, {"type": "node", "id": 2488281256, "lat": 36.578557, "lon": 44.852856, "tags": {"name": "\u0648\u06d5\u06b5\u0627\u0634", "name:ar": "\u0648\u0644\u0627\u0634", "name:ckb": "\u0648\u06d5\u06b5\u0627\u0634", "name:en": "Wallash", "name:ku": "Wella\u015f", "place": "village", "wikidata": "Q5987955", "wikipedia": "ckb:\u0648\u06d5\u06b5\u0627\u0634"}}, {"type": "node", "id": 2488281257, "lat": 36.5509743, "lon": 44.8571077, "tags": {"alt_name": "\u0648\u06d5\u06b5\u0632\u06d5", "alt_name:ku": "Wellze", "name": "\u0648\u06d5\u06b5\u0632\u06ce", "name:ar": "\u0648\u0644\u0632\u064a", "name:ckb": "\u0648\u06d5\u06b5\u0632\u06ce", "name:en": "Wallze", "name:ku": "Wellz\u00ea", "place": "village", "wikidata": "Q5987953", "wikipedia": "ckb:\u0648\u06d5\u06b5\u0632\u06d5"}}, {"type": "node", "id": 2488316626, "lat": 36.5902266, "lon": 44.9984828, "tags": {"alt_name:ar": "\u0645\u0635\u064a\u0641 \u0633\u064a\u0643\u0627\u0646\u064a\u0627\u0646", "name": "\u0633\u06ce\u06a9\u0627\u0646\u06cc\u0627\u0646", "name:ar": "\u0633\u064a\u0643\u0627\u0646\u064a\u0627\u0646", "name:ckb": "\u0633\u06ce\u06a9\u0627\u0646\u06cc\u0627\u0646", "name:en": "Sekaniyan", "name:ku": "S\u00eakaniyan", "name_2": "\u06be\u0627\u0648\u06cc\u0646\u06d5\u06be\u06d5\u0648\u0627\u0631\u06cc \u0633\u06ce\u06a9\u0627\u0646\u06cc\u0627\u0646 - \u0642\u06d5\u0633\u0631\u06ce", "place": "village"}}, {"type": "node", "id": 2834726905, "lat": 36.9201489, "lon": 44.5614284}, {"type": "node", "id": 2834726929, "lat": 36.9208172, "lon": 44.5584887}, {"type": "node", "id": 2834726967, "lat": 36.9182177, "lon": 44.5573087}, {"type": "node", "id": 2834726994, "lat": 36.9189964, "lon": 44.5619264}, {"type": "node", "id": 2834727008, "lat": 36.9189162, "lon": 44.5586911}, {"type": "node", "id": 2834727020, "lat": 36.9185031, "lon": 44.5574745}, {"type": "node", "id": 2834727058, "lat": 36.9194895, "lon": 44.5624242}, {"type": "node", "id": 2834727150, "lat": 36.9209973, "lon": 44.5600942}, {"type": "node", "id": 2834727373, "lat": 36.917132, "lon": 44.5578328}, {"type": "node", "id": 2834727388, "lat": 36.9192516, "lon": 44.5606643}, {"type": "node", "id": 2834727406, "lat": 36.9194391, "lon": 44.5613368}, {"type": "node", "id": 2834727408, "lat": 36.9174305, "lon": 44.5585666}, {"type": "node", "id": 2884890799, "lat": 36.8300695, "lon": 44.6092023}, {"type": "node", "id": 2884892301, "lat": 36.8271662, "lon": 44.6068567}, {"type": "node", "id": 2884892304, "lat": 36.8758103, "lon": 44.6122814}, {"type": "node", "id": 2884892319, "lat": 36.8115182, "lon": 44.6475793}, {"type": "node", "id": 2884892363, "lat": 36.8298548, "lon": 44.6126248}, {"type": "node", "id": 2884892365, "lat": 36.8777327, "lon": 44.6130003}, {"type": "node", "id": 2884892382, "lat": 36.8771148, "lon": 44.6113695}, {"type": "node", "id": 2884892410, "lat": 36.8776469, "lon": 44.6116699}, {"type": "node", "id": 2884892449, "lat": 36.8102211, "lon": 44.6461309}, {"type": "node", "id": 2884892458, "lat": 36.8094738, "lon": 44.6446289}, {"type": "node", "id": 2884892460, "lat": 36.8782202, "lon": 44.6125561}, {"type": "node", "id": 2884892629, "lat": 36.8112519, "lon": 44.6486951}, {"type": "node", "id": 2884892647, "lat": 36.8279139, "lon": 44.6097079}, {"type": "node", "id": 2884892658, "lat": 36.8099875, "lon": 44.649002}, {"type": "node", "id": 2884892676, "lat": 36.8310829, "lon": 44.6114982}, {"type": "node", "id": 2884892687, "lat": 36.8308252, "lon": 44.6102751}, {"type": "node", "id": 2884892809, "lat": 36.8091646, "lon": 44.6480299}, {"type": "node", "id": 2884892833, "lat": 36.830085, "lon": 44.6080714}, {"type": "node", "id": 2884892845, "lat": 36.8760077, "lon": 44.6111442}, {"type": "node", "id": 2884892853, "lat": 36.8107005, "lon": 44.6462661}, {"type": "node", "id": 2884892867, "lat": 36.8765655, "lon": 44.6127213}, {"type": "node", "id": 2884893008, "lat": 36.8098002, "lon": 44.6475471}, {"type": "node", "id": 2884893009, "lat": 36.8089842, "lon": 44.646088}, {"type": "node", "id": 2884893054, "lat": 36.8750207, "lon": 44.6104146}, {"type": "node", "id": 2884893092, "lat": 36.8092247, "lon": 44.6486737}, {"type": "node", "id": 2884893109, "lat": 36.828893, "lon": 44.6113266}, {"type": "node", "id": 2884893133, "lat": 36.8289102, "lon": 44.6128501}, {"type": "node", "id": 2884893136, "lat": 36.8291984, "lon": 44.6072459}, {"type": "node", "id": 2884893170, "lat": 36.8303272, "lon": 44.6127857}, {"type": "node", "id": 2884893302, "lat": 36.8283875, "lon": 44.6065211}, {"type": "node", "id": 2884893335, "lat": 36.8090873, "lon": 44.64494}, {"type": "node", "id": 2884893341, "lat": 36.874686, "lon": 44.6107258}, {"type": "node", "id": 2884893353, "lat": 36.8768916, "lon": 44.6124638}, {"type": "node", "id": 2884893406, "lat": 36.8311687, "lon": 44.61226}, {"type": "node", "id": 2884893430, "lat": 36.8295886, "lon": 44.6129359}, {"type": "node", "id": 2884893450, "lat": 36.810685, "lon": 44.6473433}, {"type": "node", "id": 2884893458, "lat": 36.8102641, "lon": 44.6483947}, {"type": "node", "id": 2884893472, "lat": 36.8279442, "lon": 44.6089389}, {"type": "node", "id": 2884893479, "lat": 36.8303083, "lon": 44.6085757}, {"type": "node", "id": 2884893480, "lat": 36.8755785, "lon": 44.6112193}, {"type": "node", "id": 2884893489, "lat": 36.8295199, "lon": 44.6093847}, {"type": "node", "id": 2884893508, "lat": 36.8296316, "lon": 44.6103932}, {"type": "node", "id": 2884893529, "lat": 36.8315122, "lon": 44.6107687}, {"type": "node", "id": 3033547939, "lat": 36.7474146, "lon": 44.5878161}, {"type": "node", "id": 3033547940, "lat": 36.7469964, "lon": 44.5869002}, {"type": "node", "id": 3033547941, "lat": 36.7459553, "lon": 44.5873828}, {"type": "node", "id": 3033547946, "lat": 36.7437623, "lon": 44.586617}, {"type": "node", "id": 3033547947, "lat": 36.7437683, "lon": 44.5883849}, {"type": "node", "id": 3033547949, "lat": 36.7446221, "lon": 44.5882799}, {"type": "node", "id": 3033547950, "lat": 36.7446585, "lon": 44.5885764}, {"type": "node", "id": 3033547952, "lat": 36.7460095, "lon": 44.5887819}, {"type": "node", "id": 3033547955, "lat": 36.7473261, "lon": 44.5886719}, {"type": "node", "id": 3035699825, "lat": 36.8238542, "lon": 44.667851}, {"type": "node", "id": 3035699826, "lat": 36.8243405, "lon": 44.668637}, {"type": "node", "id": 3035699827, "lat": 36.8246078, "lon": 44.6691703}, {"type": "node", "id": 3035699828, "lat": 36.8240188, "lon": 44.6699426}, {"type": "node", "id": 3035699829, "lat": 36.8229561, "lon": 44.6705825}, {"type": "node", "id": 3035699830, "lat": 36.8227613, "lon": 44.6700568}, {"type": "node", "id": 3035699831, "lat": 36.8226859, "lon": 44.6683505}, {"type": "node", "id": 3035699832, "lat": 36.8230911, "lon": 44.668211}, {"type": "node", "id": 3035699833, "lat": 36.8234057, "lon": 44.6695169}, {"type": "node", "id": 3035699834, "lat": 36.8235798, "lon": 44.669462}, {"type": "node", "id": 3035699835, "lat": 36.8240251, "lon": 44.6690727}, {"type": "node", "id": 3035699836, "lat": 36.8235542, "lon": 44.6679475}, {"type": "node", "id": 3035699840, "lat": 36.8265973, "lon": 44.6711427}, {"type": "node", "id": 3035699841, "lat": 36.8272761, "lon": 44.6714667}, {"type": "node", "id": 3035699842, "lat": 36.8279816, "lon": 44.6719907}, {"type": "node", "id": 3035699843, "lat": 36.828268, "lon": 44.6719242}, {"type": "node", "id": 3035699844, "lat": 36.8290953, "lon": 44.6728343}, {"type": "node", "id": 3035699845, "lat": 36.8281188, "lon": 44.6738232}, {"type": "node", "id": 3035699846, "lat": 36.8273425, "lon": 44.673331}, {"type": "node", "id": 3035699847, "lat": 36.8275332, "lon": 44.6726286}, {"type": "node", "id": 3035699848, "lat": 36.8268578, "lon": 44.6722184}, {"type": "node", "id": 3035699849, "lat": 36.8265858, "lon": 44.6723947}, {"type": "node", "id": 3035699850, "lat": 36.826259, "lon": 44.6714754}, {"type": "node", "id": 3077269406, "lat": 36.8655746, "lon": 44.6129787}, {"type": "node", "id": 3077269407, "lat": 36.8649394, "lon": 44.6117878}, {"type": "node", "id": 3077269408, "lat": 36.8631969, "lon": 44.6128714}, {"type": "node", "id": 3077269409, "lat": 36.8629566, "lon": 44.6141696}, {"type": "node", "id": 3077269410, "lat": 36.8630768, "lon": 44.6163261}, {"type": "node", "id": 3077269411, "lat": 36.8635575, "lon": 44.6169162}, {"type": "node", "id": 3077269412, "lat": 36.8643128, "lon": 44.6169484}, {"type": "node", "id": 3077269413, "lat": 36.8646562, "lon": 44.6147382}, {"type": "node", "id": 3077283146, "lat": 36.8497792, "lon": 44.5502311}, {"type": "node", "id": 3077283147, "lat": 36.8471006, "lon": 44.5489436}, {"type": "node", "id": 3077283148, "lat": 36.8474097, "lon": 44.5528704}, {"type": "node", "id": 3077283149, "lat": 36.8489207, "lon": 44.5527631}, {"type": "node", "id": 3090018582, "lat": 36.6540725, "lon": 44.6410775}, {"type": "node", "id": 3090018583, "lat": 36.6530052, "lon": 44.6399188}, {"type": "node", "id": 3090018584, "lat": 36.6506812, "lon": 44.6421719}, {"type": "node", "id": 3090018585, "lat": 36.651146, "lon": 44.6439099}, {"type": "node", "id": 3090018586, "lat": 36.6524715, "lon": 44.6441674}, {"type": "node", "id": 3090018587, "lat": 36.653711, "lon": 44.6427298}, {"type": "node", "id": 3090018618, "lat": 36.6503282, "lon": 44.6532011}, {"type": "node", "id": 3090018619, "lat": 36.6497774, "lon": 44.653008}, {"type": "node", "id": 3090018620, "lat": 36.6488563, "lon": 44.654392}, {"type": "node", "id": 3090018621, "lat": 36.6495622, "lon": 44.6550894}, {"type": "node", "id": 3090021463, "lat": 36.6083802, "lon": 44.6494675}, {"type": "node", "id": 3090021464, "lat": 36.6093965, "lon": 44.6515489}, {"type": "node", "id": 3090021565, "lat": 36.6081391, "lon": 44.6528256}, {"type": "node", "id": 3090021566, "lat": 36.6047113, "lon": 44.6533513}, {"type": "node", "id": 3090021567, "lat": 36.6030748, "lon": 44.6524393}, {"type": "node", "id": 3090021568, "lat": 36.6054261, "lon": 44.650594}, {"type": "node", "id": 3098377593, "lat": 36.6675993, "lon": 44.9251869}, {"type": "node", "id": 3098377594, "lat": 36.6676724, "lon": 44.9253962}, {"type": "node", "id": 3098377595, "lat": 36.6666182, "lon": 44.9259111}, {"type": "node", "id": 3098377596, "lat": 36.6665193, "lon": 44.9262491}, {"type": "node", "id": 3098377597, "lat": 36.6656931, "lon": 44.9262115}, {"type": "node", "id": 3098377598, "lat": 36.6652714, "lon": 44.926351}, {"type": "node", "id": 3098377599, "lat": 36.6644452, "lon": 44.9279818}, {"type": "node", "id": 3098377600, "lat": 36.6634942, "lon": 44.9271074}, {"type": "node", "id": 3098377601, "lat": 36.6630166, "lon": 44.9273917}, {"type": "node", "id": 3098377602, "lat": 36.6624443, "lon": 44.927955}, {"type": "node", "id": 3098377603, "lat": 36.6620183, "lon": 44.9282447}, {"type": "node", "id": 3098377604, "lat": 36.6616482, "lon": 44.928132}, {"type": "node", "id": 3098377605, "lat": 36.6614761, "lon": 44.9277565}, {"type": "node", "id": 3098377606, "lat": 36.6611877, "lon": 44.9262437}, {"type": "node", "id": 3098377607, "lat": 36.6607574, "lon": 44.925026}, {"type": "node", "id": 3098377608, "lat": 36.6604476, "lon": 44.923347}, {"type": "node", "id": 3098377609, "lat": 36.6606025, "lon": 44.9227622}, {"type": "node", "id": 3098377610, "lat": 36.6609984, "lon": 44.9225691}, {"type": "node", "id": 3098377611, "lat": 36.6612652, "lon": 44.9227783}, {"type": "node", "id": 3098377612, "lat": 36.6613728, "lon": 44.9232987}, {"type": "node", "id": 3098377613, "lat": 36.6611877, "lon": 44.9238995}, {"type": "node", "id": 3098377614, "lat": 36.6612394, "lon": 44.924393}, {"type": "node", "id": 3098377615, "lat": 36.6616138, "lon": 44.9249724}, {"type": "node", "id": 3098377616, "lat": 36.6617902, "lon": 44.925026}, {"type": "node", "id": 3098377617, "lat": 36.6622678, "lon": 44.9255303}, {"type": "node", "id": 3098377618, "lat": 36.6626078, "lon": 44.9255303}, {"type": "node", "id": 3098377619, "lat": 36.6628703, "lon": 44.9251494}, {"type": "node", "id": 3098377620, "lat": 36.6637008, "lon": 44.9254391}, {"type": "node", "id": 3098377621, "lat": 36.6649315, "lon": 44.9252996}, {"type": "node", "id": 3098377622, "lat": 36.6653445, "lon": 44.925482}, {"type": "node", "id": 3098377623, "lat": 36.6666268, "lon": 44.9253962}, {"type": "node", "id": 3098377624, "lat": 36.6666871, "lon": 44.9251118}, {"type": "node", "id": 3098377625, "lat": 36.6671088, "lon": 44.92479}, {"type": "node", "id": 3098377626, "lat": 36.6673669, "lon": 44.9251977}, {"type": "node", "id": 4467202490, "lat": 36.6557856, "lon": 44.9071596, "tags": {"name": "\u0626\u0627\u0634\u06cc \u0628\u0695\u06d5\u06af\u0648\u06ce\u0632", "name:ckb": "\u0626\u0627\u0634\u06cc \u0628\u0695\u06d5\u06af\u0648\u06ce\u0632", "name:en": "Ashi Bragwez", "name:ku": "A\u015f\u00ee Birregiw\u00eaz", "name:ku-Arab": "\u0626\u0627\u0634\u06cc \u0628\u0695\u06d5\u06af\u0648\u06ce\u0632", "place": "village", "wikidata": "Q5988406", "wikipedia": "ckb:\u0626\u0627\u0634\u06cc \u0628\u0695\u06d5\u06af\u0648\u06ce\u0632"}}, {"type": "node", "id": 4497369051, "lat": 36.8117287, "lon": 45.0410822, "tags": {"is_in:country": "Iran", "is_in:state": "West Azerbaijan", "name": "\u0632\u0628\u06a9\u0627 \u0632\u06cc\u0648\u06a9\u0647", "place": "village"}}, {"type": "node", "id": 4497369052, "lat": 36.8143728, "lon": 45.0669848, "tags": {"is_in:country": "Iran", "is_in:state": "West Azerbaijan", "name": "\u06af\u0631\u062f\u06a9\u0627\u0648\u0644\u0627\u0646", "place": "village", "wikidata": "Q5712932"}}, {"type": "node", "id": 4497369053, "lat": 36.7997785, "lon": 45.0634051, "tags": {"is_in:country": "Iran", "is_in:state": "West Azerbaijan", "name": "\u0645\u0627\u0634\u06a9\u0627\u0646", "place": "village", "wikidata": "Q5708342"}}, {"type": "node", "id": 5134089029, "lat": 36.5630479, "lon": 44.5607115, "tags": {"name": "\u06af\u0648\u0646\u062f\u06cc \u0626\u0627\u06a9\u06c6\u06cc\u0627\u0646", "name:en": "Gundi Akoyan", "place": "village"}}, {"type": "node", "id": 5135745628, "lat": 36.6337235, "lon": 44.5658568, "tags": {"name": "\u06a9\u06d5\u0648\u0631\u06cc\u0646", "name:ckb": "\u06a9\u06d5\u0648\u0631\u06cc\u0646", "name:en": "Kawrin", "name:ku": "Kewr\u00een", "place": "village"}}, {"type": "node", "id": 5168314372, "lat": 36.5516589, "lon": 44.7557885}, {"type": "node", "id": 5168314373, "lat": 36.5515911, "lon": 44.7560363}, {"type": "node", "id": 5168314374, "lat": 36.5514855, "lon": 44.7565397}, {"type": "node", "id": 5168314375, "lat": 36.5518627, "lon": 44.7566056}, {"type": "node", "id": 5168314376, "lat": 36.5521313, "lon": 44.7576048}, {"type": "node", "id": 5168314377, "lat": 36.5510667, "lon": 44.7575644}, {"type": "node", "id": 5168314378, "lat": 36.5507404, "lon": 44.7571926}, {"type": "node", "id": 5168314379, "lat": 36.5510016, "lon": 44.7566188}, {"type": "node", "id": 5168314380, "lat": 36.5508758, "lon": 44.7565213}, {"type": "node", "id": 5168314382, "lat": 36.5513075, "lon": 44.7556979}, {"type": "node", "id": 5442648475, "lat": 36.5931623, "lon": 44.878968, "tags": {"place": "hamlet"}}, {"type": "node", "id": 5442648539, "lat": 36.5891938, "lon": 44.8789766, "tags": {"place": "hamlet"}}, {"type": "node", "id": 5450682495, "lat": 36.5342986, "lon": 44.7157725}, {"type": "node", "id": 5450682496, "lat": 36.5338643, "lon": 44.7162348}, {"type": "node", "id": 5450682497, "lat": 36.5328368, "lon": 44.7152546}, {"type": "node", "id": 5450682498, "lat": 36.5324675, "lon": 44.7157931}, {"type": "node", "id": 5450682499, "lat": 36.5318993, "lon": 44.7164532}, {"type": "node", "id": 5450682500, "lat": 36.5307192, "lon": 44.714876}, {"type": "node", "id": 5450682501, "lat": 36.5309281, "lon": 44.7137471}, {"type": "node", "id": 5450682502, "lat": 36.5313329, "lon": 44.7130367}, {"type": "node", "id": 5450682503, "lat": 36.5316072, "lon": 44.7131844}, {"type": "node", "id": 5450682504, "lat": 36.5324442, "lon": 44.7124389}, {"type": "node", "id": 5450682505, "lat": 36.5332503, "lon": 44.7139101}, {"type": "node", "id": 5450682507, "lat": 36.5334914, "lon": 44.7146592}, {"type": "node", "id": 5875285487, "lat": 36.6639883, "lon": 44.7372164, "tags": {"name": "\u0628\u06ce\u0648\u0644\u06d5", "name:en": "Bewla", "place": "village"}}, {"type": "node", "id": 6118544721, "lat": 36.6531095, "lon": 44.640032}, {"type": "node", "id": 6470460478, "lat": 36.6251709, "lon": 44.5475764, "tags": {"name": "\u062d\u0627\u0645\u06cc\u06d5", "place": "village"}}, {"type": "node", "id": 6470532165, "lat": 36.629134, "lon": 44.5769423, "tags": {"alt_name": "\u062c\u0646\u062f\u06cc\u0627\u0646", "name": "\u062c\u0648\u0646\u062f\u06cc\u0627\u0646", "name:ckb": "\u062c\u0648\u0646\u062f\u06cc\u0627\u0646", "name:en": "Jundian", "name:ku": "Cundiyan", "place": "village"}}, {"type": "node", "id": 6470538200, "lat": 36.6303427, "lon": 44.5798603, "tags": {"name": "\u0628\u06ce\u0634\u06c6\u06a9", "name:ckb": "\u0628\u06ce\u0634\u06c6\u06a9", "name:en": "Beshok", "name:ku": "B\u00ea\u015fok", "place": "village"}}, {"type": "node", "id": 6493322487, "lat": 36.7632529, "lon": 44.6264366}, {"type": "node", "id": 6493322488, "lat": 36.7637256, "lon": 44.6259863}, {"type": "node", "id": 6493322489, "lat": 36.7640864, "lon": 44.6258621}, {"type": "node", "id": 6493322490, "lat": 36.7641983, "lon": 44.6261571}, {"type": "node", "id": 6493322491, "lat": 36.7645839, "lon": 44.6265608}, {"type": "node", "id": 6493322492, "lat": 36.7647456, "lon": 44.6267006}, {"type": "node", "id": 6493322493, "lat": 36.7648203, "lon": 44.626918}, {"type": "node", "id": 6493322494, "lat": 36.7647705, "lon": 44.6270732}, {"type": "node", "id": 6493322495, "lat": 36.7645217, "lon": 44.6273527}, {"type": "node", "id": 6493322496, "lat": 36.7644471, "lon": 44.6276788}, {"type": "node", "id": 6493322497, "lat": 36.7643849, "lon": 44.6280359}, {"type": "node", "id": 6493322498, "lat": 36.7640615, "lon": 44.6280825}, {"type": "node", "id": 6493322499, "lat": 36.7638003, "lon": 44.6276477}, {"type": "node", "id": 6493322500, "lat": 36.7634893, "lon": 44.6275701}, {"type": "node", "id": 6493322501, "lat": 36.7631161, "lon": 44.6276012}, {"type": "node", "id": 6493322502, "lat": 36.7630539, "lon": 44.6272285}, {"type": "node", "id": 6493322503, "lat": 36.7635515, "lon": 44.6266385}, {"type": "node", "id": 6496537498, "lat": 36.7711089, "lon": 44.7559111}, {"type": "node", "id": 6496537499, "lat": 36.7705101, "lon": 44.7564339}, {"type": "node", "id": 6496538653, "lat": 36.7688528, "lon": 44.7542237}, {"type": "node", "id": 6496538654, "lat": 36.7691647, "lon": 44.7543254}, {"type": "node", "id": 6910251466, "lat": 36.6048412, "lon": 44.6533314}, {"type": "node", "id": 7238560857, "lat": 36.7737242, "lon": 44.6315268, "tags": {"name": "\u0628\u06ce\u0632\u06d5\u0641\u06d5\u0631\u0627", "name:ckb": "\u0628\u06ce\u0632\u06d5\u0641\u06d5\u0631\u0627", "place": "village"}}, {"type": "node", "id": 7512645790, "lat": 36.5580142, "lon": 44.8246539, "tags": {"capital": "7", "name": "\u0642\u06d5\u0633\u0631\u06ce", "name:ar": "\u0642\u0633\u0631\u064a", "name:ckb": "\u0642\u06d5\u0633\u0631\u06ce", "name:en": "Qasre", "name:ku": "Qesr\u00ea", "name:ml": "\u0d15\u0d38\u0d4d\u0d30\u0d46", "place": "town", "wikidata": "Q5989368", "wikipedia": "ckb:\u0642\u06d5\u0633\u0631\u06ce"}}, {"type": "node", "id": 7545957303, "lat": 36.5611662, "lon": 44.8391955, "tags": {"name": "\u0628\u06d5\u0631\u062f\u06d5\u0695\u06d5\u0634\u0627\u0646", "name:ckb": "\u0628\u06d5\u0631\u062f\u06d5\u0695\u06d5\u0634\u0627\u0646", "name:en": "Bardarashan", "name:ku": "Berderre\u015fan", "place": "village"}}, {"type": "node", "id": 7588421254, "lat": 36.6023236, "lon": 44.7819225, "tags": {"name": "\u06a9\u0627\u0646\u06cc \u0632\u06cc\u0644", "name:ckb": "\u06a9\u0627\u0646\u06cc \u0632\u06cc\u0644", "name:en": "Kani Zil", "name:ku": "Kan\u00ee Z\u00eel", "place": "village", "wikidata": "Q5988226", "wikipedia": "ckb:\u06a9\u0627\u0646\u06cc \u0632\u06cc\u0644"}}, {"type": "node", "id": 7589196163, "lat": 36.5825704, "lon": 44.7674417, "tags": {"name": "\u0626\u06c6\u0645\u06d5\u0631\u0627\u0648\u06d5", "name:ckb": "\u0626\u06c6\u0645\u06d5\u0631\u0627\u0648\u06d5", "name:en": "Omarawa", "name:ku": "Omerawe", "place": "village", "wikidata": "Q5988242", "wikipedia": "ckb:\u0626\u06c6\u0645\u06d5\u0631\u0627\u0648\u06d5"}}, {"type": "node", "id": 7589196164, "lat": 36.6229881, "lon": 44.7584319, "tags": {"name": "\u0628\u06ce\u0631\u06d5\u0634", "name:ckb": "\u0628\u06ce\u0631\u06d5\u0634", "name:en": "Berash", "name:ku": "B\u00eare\u015f", "place": "village", "wikipedia": "ckb: \u0628\u06ce\u0631\u06d5\u0634"}}, {"type": "node", "id": 7589196165, "lat": 36.6902911, "lon": 44.6642946, "tags": {"name": "\u0628\u06d5\u0633\u062a\u06d5\u0648\u0627\u0646\u06cc\u06d5", "place": "village"}}, {"type": "node", "id": 7589196166, "lat": 36.7028905, "lon": 44.7825125, "tags": {"name": "\u062f\u0631\u06ce\u0634\u06a9", "name:en": "Dreshk", "place": "village"}}, {"type": "node", "id": 7589196167, "lat": 36.6822721, "lon": 44.7419869, "tags": {"name": "\u0628\u0631\u0627\u06cc\u06d5\u062a\u06cc", "name:en": "Brayati", "place": "village"}}, {"type": "node", "id": 7589603057, "lat": 36.6857158, "lon": 44.7331726, "tags": {"name": "\u0634\u06cc\u0648\u06d5\u0686\u0646\u0627\u0631", "name:ckb": "\u0634\u06cc\u0648\u06d5\u0686\u0646\u0627\u0631", "name:en": "Shiwachnar", "name:ku": "\u015e\u00eewe\u00e7inar", "place": "village"}}, {"type": "node", "id": 7589603058, "lat": 36.7005533, "lon": 44.7161133, "tags": {"name": "\u0646\u0632\u0627\u0631\u06cc", "name:ckb": "Nzari", "place": "village"}}, {"type": "node", "id": 7589883963, "lat": 36.7065062, "lon": 44.6913531, "tags": {"name": "\u06be\u06d5\u0648\u06ce\u0632\u06d5 \u0628\u06c6\u0631", "name:ckb": "\u06be\u06d5\u0648\u06ce\u0632\u06d5 \u0628\u06c6\u0631", "name:en": "Haweza Bor", "name:ku": "Hew\u00eaze Bor", "place": "village", "wikidata": "Q5988272", "wikipedia": "ckb:\u06be\u06d5\u0648\u06ce\u0632\u06d5 \u0628\u06c6\u0631"}}, {"type": "node", "id": 7589883964, "lat": 36.6587811, "lon": 44.7032155, "tags": {"name": "\u0686\u06c6\u0645\u0627\u0646\u06cc \u0633\u0645\u0627\u06cc\u0644 \u0626\u0627\u063a\u0627", "name:ckb": "\u0686\u06c6\u0645\u0627\u0646\u06cc \u0633\u0645\u0627\u06cc\u0644 \u0626\u0627\u063a\u0627", "name:en": "Choman Smayl Agha", "name:ku": "\u00c7oman\u00ee Simayil Axa", "place": "village", "wikidata": "Q5988344", "wikipedia": "ckb:\u0686\u06c6\u0645\u0627\u0646\u06cc \u0633\u0645\u0627\u06cc\u0644 \u0626\u0627\u063a\u0627"}}, {"type": "node", "id": 7589883965, "lat": 36.6611755, "lon": 44.7047394, "tags": {"name": "\u0626\u0627\u0634\u06cc \u062e\u062f\u0631\u0626\u0627\u063a\u0627", "name:en": "Ashi Khdr Agha", "place": "village"}}, {"type": "node", "id": 7589883966, "lat": 36.6824193, "lon": 44.9846823, "tags": {"name": "\u0626\u0627\u0632\u0627\u062f\u06cc", "name:ckb": "\u0626\u0627\u0632\u0627\u062f\u06cc", "name:en": "Azadi", "name:ku": "Azad\u00ee", "place": "village", "wikidata": "Q13198424", "wikipedia": "ckb:\u0626\u0627\u0632\u0627\u062f\u06cc\u060c \u0686\u06c6\u0645\u0627\u0646"}}, {"type": "node", "id": 7589891794, "lat": 36.7000289, "lon": 44.9779092, "tags": {"name": "\u0695\u06d5\u0634\u06d5\u06be\u06d5\u0631\u0645\u06ce\u06cc\u0627\u0646", "name:ckb": "\u0695\u06d5\u0634\u06d5\u06be\u06d5\u0631\u0645\u06ce\u06cc\u0627\u0646", "name:en": "Rashaharmeyan", "name:ku": "Re\u015feherm\u00eayan", "place": "village", "wikidata": "Q5988411", "wikipedia": "ckb:\u0695\u06d5\u0634\u06d5\u06be\u06d5\u0631\u0645\u06ce\u06cc\u0627\u0646"}}, {"type": "node", "id": 7593205240, "lat": 36.7661568, "lon": 44.61164, "tags": {"name": "\u062a\u0627\u0648\u06a9\u0627\u0646", "name:en": "Tawkan", "place": "village"}}, {"type": "node", "id": 7593205241, "lat": 36.7638825, "lon": 44.627075, "tags": {"name": "\u067e\u06d5\u0646\u062c\u0627\u0631", "place": "village"}}, {"type": "node", "id": 7593205242, "lat": 36.7835507, "lon": 44.6009937, "tags": {"name": "\u0644\u06ce\u0631\u06d5\u0628\u0627\u0646", "name:en": "Leraban", "place": "village"}}, {"type": "node", "id": 7593205243, "lat": 36.7877505, "lon": 44.6072868, "tags": {"name": "\u0645\u06ce\u0648\u0698\u06af\u06d5", "place": "village"}}, {"type": "node", "id": 7593213548, "lat": 36.7841698, "lon": 44.6170206, "tags": {"name": "\u0646\u0627\u0648\u0645\u06ce\u0631\u06af\u06d5", "place": "village"}}, {"type": "node", "id": 7593213550, "lat": 36.804977, "lon": 44.6394309, "tags": {"name": "Mjesar", "place": "village"}}, {"type": "node", "id": 7593414098, "lat": 36.5812625, "lon": 44.5672867, "tags": {"name": "\u0626\u0627\u06a9\u06c6\u06a9\u0647\u200c\u0648\u0646", "name:en": "Akokawn", "place": "village"}}, {"type": "node", "id": 7594831292, "lat": 36.780033, "lon": 44.62784, "tags": {"name": "\u062e\u06c6\u0695\u0627\u06af\u0631", "name:ckb": "\u062e\u06c6\u0631\u0627\u06af\u0631", "place": "village"}}, {"type": "node", "id": 7594955786, "lat": 36.7545567, "lon": 44.6473937, "tags": {"name": "\u06a9\u0627\u0646\u06cc \u0628\u0627\u062e\u0627\u0646", "name:en": "Kani bakhan", "place": "village"}}, {"type": "node", "id": 7595081709, "lat": 36.802104, "lon": 44.619811, "tags": {"name": "\u06a9\u06d5\u0648\u0646\u06d5 \u0633\u06cc\u062f\u06d5\u06a9\u0627\u0646", "place": "village"}}, {"type": "node", "id": 7595881286, "lat": 36.7937792, "lon": 44.6194014, "tags": {"name:en": "Hajre", "place": "village"}}, {"type": "node", "id": 7597560497, "lat": 36.7694904, "lon": 44.6629232, "tags": {"name": "Naw Royn Harki", "place": "village"}}, {"type": "node", "id": 7597560498, "lat": 36.7889715, "lon": 44.6721947, "tags": {"name": "\u0634\u06d5\u0645\u0632\u06cc\u0646\u0627\u0646", "name:ckb": "\u0634\u06d5\u0645\u0632\u06cc\u0646\u0627\u0646", "place": "village"}}, {"type": "node", "id": 7597560499, "lat": 36.7844322, "lon": 44.6660047, "tags": {"name": "\u0646\u0627\u0648\u0695\u06c6\u06cc\u0646", "place": "village"}}, {"type": "node", "id": 7597560500, "lat": 36.7931254, "lon": 44.6680555, "tags": {"name": "\u06af\u06d5\u0631\u0648\u0648\u06cc \u0647\u0627\u0633\u06c6\u06cc", "name:ckb": "\u06af\u06d5\u0631\u0648\u0648\u06cc \u0647\u0627\u0633\u06c6\u06cc", "place": "village"}}, {"type": "node", "id": 7597560501, "lat": 36.7954988, "lon": 44.6552992, "tags": {"name": "\u0633\u0645\u062e\u06d5\u06cc\u0644\u0627\u0646", "place": "village"}}, {"type": "node", "id": 7597560503, "lat": 36.7744102, "lon": 44.6827066, "tags": {"name": "\u0633\u06c6\u0631\u06cc\u0627", "name:ckb": "\u0633\u06c6\u0631\u06cc\u0627", "place": "village"}}, {"type": "node", "id": 7598824579, "lat": 36.7811168, "lon": 44.6898529, "tags": {"name": "\u06af\u06b5\u06d5\u0695\u06d5\u0634", "place": "village"}}, {"type": "node", "id": 7598824580, "lat": 36.7399563, "lon": 44.721112, "tags": {"place": "village", "population": "Bega Pushk"}}, {"type": "node", "id": 7599833652, "lat": 36.5317458, "lon": 44.7902451, "tags": {"name": "Cheneran", "place": "village"}}, {"type": "node", "id": 7600003595, "lat": 36.5431045, "lon": 44.7663874, "tags": {"name": "\u0628\u06d5\u0631\u0633\u0648\u0644", "place": "village"}}, {"type": "node", "id": 7600003597, "lat": 36.5830538, "lon": 44.7322108, "tags": {"name": "\u0628\u0627\u0646\u06d5\u0633\u06d5\u0631\u062f\u06d5", "place": "village"}}, {"type": "node", "id": 7600057507, "lat": 36.6024914, "lon": 44.934453, "tags": {"name": "\u0628\u0627\u0633\u0627\u0646", "name:en": "Basan", "place": "village"}}, {"type": "node", "id": 7600180669, "lat": 36.608058, "lon": 44.908808, "tags": {"name": "Razi Shekhi", "place": "village"}}, {"type": "node", "id": 7600180670, "lat": 36.660183, "lon": 44.9777817, "tags": {"name": "Krkawz", "place": "village"}}, {"type": "node", "id": 7600392541, "lat": 36.6474643, "lon": 45.0041334, "tags": {"name": "Sarsul", "place": "village"}}, {"type": "node", "id": 7600392542, "lat": 36.6622804, "lon": 45.0283074, "tags": {"name": "Megula", "place": "village"}}, {"type": "node", "id": 7806049810, "lat": 36.7988223, "lon": 44.7787712}, {"type": "node", "id": 7806049811, "lat": 36.7990599, "lon": 44.7788722}, {"type": "node", "id": 7806049812, "lat": 36.7990852, "lon": 44.7791595}, {"type": "node", "id": 7806049813, "lat": 36.7986099, "lon": 44.7795036}, {"type": "node", "id": 7806049814, "lat": 36.7983425, "lon": 44.779651}, {"type": "node", "id": 7806049815, "lat": 36.7984149, "lon": 44.7802443}, {"type": "node", "id": 7806049816, "lat": 36.7979097, "lon": 44.7802013}, {"type": "node", "id": 7806049817, "lat": 36.7979678, "lon": 44.7794089}, {"type": "node", "id": 7806049818, "lat": 36.7981877, "lon": 44.7788722}, {"type": "node", "id": 7806049819, "lat": 36.7981612, "lon": 44.7803024}, {"type": "node", "id": 7806050279, "lat": 36.8005272, "lon": 44.7766895}, {"type": "node", "id": 7806050280, "lat": 36.8007598, "lon": 44.7767747}, {"type": "node", "id": 7806050281, "lat": 36.8006587, "lon": 44.777504}, {"type": "node", "id": 7806050282, "lat": 36.8004691, "lon": 44.777946}, {"type": "node", "id": 7806050283, "lat": 36.8003579, "lon": 44.7778229}, {"type": "node", "id": 7806050284, "lat": 36.8002365, "lon": 44.777564}, {"type": "node", "id": 7806050285, "lat": 36.8003579, "lon": 44.7773619}, {"type": "node", "id": 7806050286, "lat": 36.800368, "lon": 44.7769452}, {"type": "node", "id": 7806050287, "lat": 36.8004109, "lon": 44.7767716}, {"type": "node", "id": 7806737911, "lat": 36.777177, "lon": 44.8008811}, {"type": "node", "id": 7806737912, "lat": 36.776762, "lon": 44.8005371}, {"type": "node", "id": 7806737913, "lat": 36.7766355, "lon": 44.8006909}, {"type": "node", "id": 7806737914, "lat": 36.776642, "lon": 44.8009621}, {"type": "node", "id": 7806737915, "lat": 36.7767685, "lon": 44.8010188}, {"type": "node", "id": 7806737916, "lat": 36.7770035, "lon": 44.8011604}, {"type": "node", "id": 7813853150, "lat": 36.8269157, "lon": 44.6083189}, {"type": "node", "id": 8010445043, "lat": 36.8267696, "lon": 44.6712839}, {"type": "node", "id": 8010445069, "lat": 36.8273511, "lon": 44.6736116}, {"type": "node", "id": 8019958887, "lat": 36.7702835, "lon": 44.7558535}, {"type": "node", "id": 8019958888, "lat": 36.7699058, "lon": 44.7553846}, {"type": "node", "id": 8019958889, "lat": 36.7697041, "lon": 44.7555257}, {"type": "node", "id": 8123823832, "lat": 36.7707273, "lon": 44.7553879}, {"type": "node", "id": 8123823833, "lat": 36.7695946, "lon": 44.7560932}, {"type": "node", "id": 8123823834, "lat": 36.7695001, "lon": 44.7567581}, {"type": "node", "id": 8123823835, "lat": 36.7690111, "lon": 44.7567013}, {"type": "node", "id": 8123823836, "lat": 36.7686136, "lon": 44.7545284}, {"type": "node", "id": 8123823837, "lat": 36.7691773, "lon": 44.7548235}, {"type": "node", "id": 8123823838, "lat": 36.769596, "lon": 44.7555027}, {"type": "node", "id": 8123823839, "lat": 36.7693498, "lon": 44.7551655}, {"type": "node", "id": 8123823840, "lat": 36.7691492, "lon": 44.7545389}, {"type": "node", "id": 8123831732, "lat": 36.7692107, "lon": 44.755497}, {"type": "node", "id": 8123831733, "lat": 36.7702412, "lon": 44.7564588}, {"type": "node", "id": 8123831734, "lat": 36.7707387, "lon": 44.7563678}, {"type": "node", "id": 8123831735, "lat": 36.7700478, "lon": 44.7564013}, {"type": "node", "id": 8155273974, "lat": 36.5434051, "lon": 44.7638202}, {"type": "node", "id": 8155273975, "lat": 36.5435579, "lon": 44.7644193}, {"type": "node", "id": 8155273976, "lat": 36.5456067, "lon": 44.7636583}, {"type": "node", "id": 8155273977, "lat": 36.5463254, "lon": 44.7632171}, {"type": "node", "id": 8155273978, "lat": 36.5469204, "lon": 44.7625371}, {"type": "node", "id": 8155273979, "lat": 36.5473562, "lon": 44.7609503}, {"type": "node", "id": 8155273980, "lat": 36.5475708, "lon": 44.7598129}, {"type": "node", "id": 8155273981, "lat": 36.5478732, "lon": 44.7590276}, {"type": "node", "id": 8155273982, "lat": 36.5484488, "lon": 44.7576838}, {"type": "node", "id": 8155273983, "lat": 36.5485724, "lon": 44.7576838}, {"type": "node", "id": 8155273984, "lat": 36.5488228, "lon": 44.7574045}, {"type": "node", "id": 8155273985, "lat": 36.5491479, "lon": 44.7568378}, {"type": "node", "id": 8155273986, "lat": 36.5494406, "lon": 44.7559675}, {"type": "node", "id": 8155273987, "lat": 36.5503877, "lon": 44.7547747}, {"type": "node", "id": 8155273988, "lat": 36.5503377, "lon": 44.7543533}, {"type": "node", "id": 8155273989, "lat": 36.5497203, "lon": 44.7541947}, {"type": "node", "id": 8155273990, "lat": 36.549304, "lon": 44.7545791}, {"type": "node", "id": 8155273991, "lat": 36.5489268, "lon": 44.7553887}, {"type": "node", "id": 8155273992, "lat": 36.5484293, "lon": 44.7553158}, {"type": "node", "id": 8155273993, "lat": 36.5480358, "lon": 44.7557611}, {"type": "node", "id": 8155273994, "lat": 36.548387, "lon": 44.7564371}, {"type": "node", "id": 8155273995, "lat": 36.5480488, "lon": 44.7570847}, {"type": "node", "id": 8155273996, "lat": 36.5474017, "lon": 44.7584002}, {"type": "node", "id": 8155273997, "lat": 36.5472294, "lon": 44.7590398}, {"type": "node", "id": 8155273998, "lat": 36.547096, "lon": 44.7597967}, {"type": "node", "id": 8155273999, "lat": 36.5468034, "lon": 44.7606063}, {"type": "node", "id": 8155274000, "lat": 36.5464522, "lon": 44.7608329}, {"type": "node", "id": 8155274001, "lat": 36.5462083, "lon": 44.7616061}, {"type": "node", "id": 8155274002, "lat": 36.5459059, "lon": 44.7621849}, {"type": "node", "id": 8155274003, "lat": 36.5456945, "lon": 44.7625492}, {"type": "node", "id": 8155274004, "lat": 36.5451319, "lon": 44.7629742}, {"type": "node", "id": 8155274005, "lat": 36.5445498, "lon": 44.7632454}, {"type": "node", "id": 8155274006, "lat": 36.5441205, "lon": 44.7634761}, {"type": "node", "id": 8155274007, "lat": 36.5506501, "lon": 44.7544857}, {"type": "node", "id": 8155274008, "lat": 36.5504581, "lon": 44.7543108}, {"type": "node", "id": 8155274009, "lat": 36.5502342, "lon": 44.7542425}, {"type": "node", "id": 8155274010, "lat": 36.5500672, "lon": 44.7544306}, {"type": "node", "id": 8155274011, "lat": 36.5494615, "lon": 44.7546913}, {"type": "node", "id": 8155274012, "lat": 36.5466781, "lon": 44.7629367}, {"type": "node", "id": 8155274047, "lat": 36.5517584, "lon": 44.7582673}, {"type": "node", "id": 8155274048, "lat": 36.5523236, "lon": 44.7589395}, {"type": "node", "id": 8155274049, "lat": 36.5529051, "lon": 44.7586542}, {"type": "node", "id": 8155274050, "lat": 36.5526212, "lon": 44.759512}, {"type": "node", "id": 8155274051, "lat": 36.5531853, "lon": 44.7596828}, {"type": "node", "id": 8155274052, "lat": 36.5527082, "lon": 44.7599015}, {"type": "node", "id": 8155274053, "lat": 36.5516029, "lon": 44.7581418}, {"type": "node", "id": 8155274054, "lat": 36.551312, "lon": 44.7583145}, {"type": "node", "id": 8155274055, "lat": 36.5518913, "lon": 44.7570667}, {"type": "node", "id": 8155274056, "lat": 36.5520884, "lon": 44.7585462}, {"type": "node", "id": 8155274057, "lat": 36.5525184, "lon": 44.7592758}, {"type": "node", "id": 8155274097, "lat": 36.5514633, "lon": 44.7557381}, {"type": "node", "id": 8155274142, "lat": 36.5481952, "lon": 44.7573073}, {"type": "node", "id": 8155274143, "lat": 36.5476359, "lon": 44.7584731}, {"type": "node", "id": 8155274144, "lat": 36.5585666, "lon": 44.7451761}, {"type": "node", "id": 8155274145, "lat": 36.5584749, "lon": 44.7458404}, {"type": "node", "id": 8155274146, "lat": 36.5581622, "lon": 44.7458041}, {"type": "node", "id": 8155274147, "lat": 36.5581747, "lon": 44.746214}, {"type": "node", "id": 8155274148, "lat": 36.5577371, "lon": 44.7462795}, {"type": "node", "id": 8155274149, "lat": 36.558109, "lon": 44.7470306}, {"type": "node", "id": 8155274150, "lat": 36.5579079, "lon": 44.7474959}, {"type": "node", "id": 8155274151, "lat": 36.5580872, "lon": 44.7482796}, {"type": "node", "id": 8155274152, "lat": 36.558354, "lon": 44.7483315}, {"type": "node", "id": 8155274153, "lat": 36.5583123, "lon": 44.7485339}, {"type": "node", "id": 8155274154, "lat": 36.5579125, "lon": 44.7488917}, {"type": "node", "id": 8155274155, "lat": 36.5574077, "lon": 44.7486844}, {"type": "node", "id": 8155274156, "lat": 36.5568532, "lon": 44.7491826}, {"type": "node", "id": 8155274157, "lat": 36.5563738, "lon": 44.7495355}, {"type": "node", "id": 8155274158, "lat": 36.556057, "lon": 44.7495303}, {"type": "node", "id": 8155274159, "lat": 36.5557652, "lon": 44.749494}, {"type": "node", "id": 8155274160, "lat": 36.5557527, "lon": 44.7492241}, {"type": "node", "id": 8155274161, "lat": 36.5550398, "lon": 44.7487726}, {"type": "node", "id": 8155274162, "lat": 36.5552732, "lon": 44.7483471}, {"type": "node", "id": 8155274163, "lat": 36.5557193, "lon": 44.7486221}, {"type": "node", "id": 8155274164, "lat": 36.5559361, "lon": 44.7481706}, {"type": "node", "id": 8155274165, "lat": 36.5558319, "lon": 44.7480876}, {"type": "node", "id": 8155274166, "lat": 36.5561487, "lon": 44.7474388}, {"type": "node", "id": 8155274167, "lat": 36.5563988, "lon": 44.7474648}, {"type": "node", "id": 8155274168, "lat": 36.5564622, "lon": 44.7458604}, {"type": "node", "id": 8155274169, "lat": 36.5569082, "lon": 44.7458818}, {"type": "node", "id": 8155274170, "lat": 36.5569908, "lon": 44.7455134}, {"type": "node", "id": 8155274171, "lat": 36.5574827, "lon": 44.7452435}, {"type": "node", "id": 8155274172, "lat": 36.5578621, "lon": 44.7450567}, {"type": "node", "id": 8155274213, "lat": 36.5564681, "lon": 44.7471095}, {"type": "node", "id": 8155274214, "lat": 36.556395, "lon": 44.7471045}, {"type": "node", "id": 8155274215, "lat": 36.5579299, "lon": 44.7472191}, {"type": "node", "id": 8155274224, "lat": 36.5584958, "lon": 44.7456889}, {"type": "node", "id": 8155274239, "lat": 36.5516179, "lon": 44.7557779}, {"type": "node", "id": 8155274397, "lat": 36.5664192, "lon": 44.7442777}, {"type": "node", "id": 8155274398, "lat": 36.5671461, "lon": 44.7439897}, {"type": "node", "id": 8155274399, "lat": 36.5683024, "lon": 44.7437899}, {"type": "node", "id": 8155274400, "lat": 36.5687131, "lon": 44.7437547}, {"type": "node", "id": 8155274401, "lat": 36.5687886, "lon": 44.7441073}, {"type": "node", "id": 8155274402, "lat": 36.5678918, "lon": 44.7447654}, {"type": "node", "id": 8155274403, "lat": 36.5677785, "lon": 44.7445245}, {"type": "node", "id": 8155274404, "lat": 36.5674434, "lon": 44.7446655}, {"type": "node", "id": 8155274405, "lat": 36.5677833, "lon": 44.7459114}, {"type": "node", "id": 8155274406, "lat": 36.5671791, "lon": 44.7461523}, {"type": "node", "id": 8155274407, "lat": 36.5673632, "lon": 44.7467928}, {"type": "node", "id": 8155274408, "lat": 36.5668016, "lon": 44.7468575}, {"type": "node", "id": 8155274409, "lat": 36.566778, "lon": 44.7462169}, {"type": "node", "id": 8155274410, "lat": 36.56649, "lon": 44.7463286}, {"type": "node", "id": 8155274411, "lat": 36.5661502, "lon": 44.7443952}, {"type": "node", "id": 8155381383, "lat": 36.5551055, "lon": 44.7488142}, {"type": "node", "id": 8155381390, "lat": 36.5562227, "lon": 44.7495663}, {"type": "node", "id": 8165298078, "lat": 36.5729823, "lon": 44.7298177}, {"type": "node", "id": 8165298079, "lat": 36.572491, "lon": 44.7298599}, {"type": "node", "id": 8165298080, "lat": 36.5723582, "lon": 44.7289011}, {"type": "node", "id": 8165298081, "lat": 36.5720025, "lon": 44.728929}, {"type": "node", "id": 8165298082, "lat": 36.5721343, "lon": 44.7300902}, {"type": "node", "id": 8165298083, "lat": 36.5724653, "lon": 44.7307571}, {"type": "node", "id": 8165298084, "lat": 36.5724566, "lon": 44.732189}, {"type": "node", "id": 8165298085, "lat": 36.57295, "lon": 44.7322299}, {"type": "node", "id": 8166320824, "lat": 36.8754245, "lon": 44.6109971}, {"type": "node", "id": 8175911931, "lat": 36.827476, "lon": 44.6715975}, {"type": "node", "id": 8175911932, "lat": 36.8277109, "lon": 44.6717797}, {"type": "node", "id": 8175911933, "lat": 36.8281225, "lon": 44.6721361}, {"type": "node", "id": 8175911934, "lat": 36.8286466, "lon": 44.6721726}, {"type": "node", "id": 8175911939, "lat": 36.8262794, "lon": 44.6720664}, {"type": "node", "id": 8175911940, "lat": 36.8258388, "lon": 44.6721225}, {"type": "node", "id": 8175911941, "lat": 36.8257968, "lon": 44.6715412}, {"type": "node", "id": 8175911974, "lat": 36.8287314, "lon": 44.6739149}, {"type": "node", "id": 8175911975, "lat": 36.8292125, "lon": 44.6732555}, {"type": "node", "id": 8175911997, "lat": 36.8276898, "lon": 44.6736167}, {"type": "node", "id": 8175911998, "lat": 36.8275907, "lon": 44.6736502}, {"type": "node", "id": 8175911999, "lat": 36.827962, "lon": 44.67372}, {"type": "node", "id": 8175912000, "lat": 36.8282994, "lon": 44.6741758}, {"type": "node", "id": 8175912035, "lat": 36.8265575, "lon": 44.6711819}, {"type": "node", "id": 8355726402, "lat": 36.5311794, "lon": 44.7140782}, {"type": "node", "id": 8355726403, "lat": 36.5327045, "lon": 44.7127606}, {"type": "node", "id": 8355726404, "lat": 36.532327, "lon": 44.7133498}, {"type": "node", "id": 8355726405, "lat": 36.5331008, "lon": 44.7143307}, {"type": "node", "id": 8357231178, "lat": 36.5389627, "lon": 44.6129958}, {"type": "node", "id": 8357231179, "lat": 36.53912, "lon": 44.6137763}, {"type": "node", "id": 8357231180, "lat": 36.5383033, "lon": 44.6142457}, {"type": "node", "id": 8357231181, "lat": 36.5374413, "lon": 44.6140177}, {"type": "node", "id": 8357231182, "lat": 36.537715, "lon": 44.6131487}, {"type": "node", "id": 8357231183, "lat": 36.5380167, "lon": 44.6132694}, {"type": "node", "id": 8357231184, "lat": 36.5381654, "lon": 44.6131098}, {"type": "node", "id": 8365773847, "lat": 36.5723125, "lon": 44.730763}, {"type": "node", "id": 8373129134, "lat": 36.8041932, "lon": 44.6490394}, {"type": "node", "id": 8373129135, "lat": 36.8063236, "lon": 44.6487371}, {"type": "node", "id": 8373129136, "lat": 36.8104932, "lon": 44.6541804}, {"type": "node", "id": 8373129137, "lat": 36.8120123, "lon": 44.6610882}, {"type": "node", "id": 8373129138, "lat": 36.8120244, "lon": 44.668012}, {"type": "node", "id": 8373129139, "lat": 36.8075824, "lon": 44.6767047}, {"type": "node", "id": 8373129140, "lat": 36.8039269, "lon": 44.676493}, {"type": "node", "id": 8373129141, "lat": 36.7994965, "lon": 44.674301}, {"type": "node", "id": 8373129142, "lat": 36.7971965, "lon": 44.6814819}, {"type": "node", "id": 8373129143, "lat": 36.7919788, "lon": 44.6778839}, {"type": "node", "id": 8373129144, "lat": 36.7937221, "lon": 44.6699925}, {"type": "node", "id": 8373129145, "lat": 36.7968818, "lon": 44.6625243}, {"type": "node", "id": 8373129146, "lat": 36.8002592, "lon": 44.6544969}, {"type": "node", "id": 8512498669, "lat": 36.7445468, "lon": 44.5872926}, {"type": "node", "id": 8512498670, "lat": 36.7445563, "lon": 44.5866468}, {"type": "node", "id": 8512498671, "lat": 36.7459314, "lon": 44.5868691}, {"type": "node", "id": 8512498672, "lat": 36.7470546, "lon": 44.5878002}, {"type": "node", "id": 8544065929, "lat": 36.7830731, "lon": 44.6200858}, {"type": "node", "id": 8544065930, "lat": 36.7828288, "lon": 44.6215532}, {"type": "node", "id": 8544065931, "lat": 36.782617, "lon": 44.6207448}, {"type": "node", "id": 8544065932, "lat": 36.7819627, "lon": 44.6204825}, {"type": "node", "id": 8544065933, "lat": 36.7822173, "lon": 44.6200068}, {"type": "node", "id": 8544065934, "lat": 36.782605, "lon": 44.6203246}, {"type": "node", "id": 8544065935, "lat": 36.7833473, "lon": 44.6208867}, {"type": "node", "id": 8544065936, "lat": 36.7831448, "lon": 44.6215479}, {"type": "node", "id": 8544066136, "lat": 36.7802943, "lon": 44.6213329}, {"type": "node", "id": 8544066137, "lat": 36.7808826, "lon": 44.621988}, {"type": "node", "id": 8544066138, "lat": 36.7808858, "lon": 44.6224882}, {"type": "node", "id": 8544066139, "lat": 36.7803229, "lon": 44.623052}, {"type": "node", "id": 8544066140, "lat": 36.7799859, "lon": 44.623052}, {"type": "node", "id": 8544066141, "lat": 36.7798619, "lon": 44.6232386}, {"type": "node", "id": 8544066142, "lat": 36.7800018, "lon": 44.6236713}, {"type": "node", "id": 8544066143, "lat": 36.7795693, "lon": 44.6239929}, {"type": "node", "id": 8544066144, "lat": 36.7782242, "lon": 44.6236951}, {"type": "node", "id": 8544066145, "lat": 36.7781002, "lon": 44.6239691}, {"type": "node", "id": 8544066146, "lat": 36.7782687, "lon": 44.6242509}, {"type": "node", "id": 8544066147, "lat": 36.778291, "lon": 44.6246837}, {"type": "node", "id": 8544066148, "lat": 36.7777313, "lon": 44.6250569}, {"type": "node", "id": 8544066149, "lat": 36.7774833, "lon": 44.6243701}, {"type": "node", "id": 8544066150, "lat": 36.7771685, "lon": 44.6245805}, {"type": "node", "id": 8544066151, "lat": 36.7769967, "lon": 44.6242192}, {"type": "node", "id": 8544066152, "lat": 36.7769936, "lon": 44.6236673}, {"type": "node", "id": 8544066153, "lat": 36.7772416, "lon": 44.6232544}, {"type": "node", "id": 8544066154, "lat": 36.7767233, "lon": 44.623048}, {"type": "node", "id": 8544066155, "lat": 36.7769236, "lon": 44.6221428}, {"type": "node", "id": 8544066156, "lat": 36.7776296, "lon": 44.6225239}, {"type": "node", "id": 8544066157, "lat": 36.77845, "lon": 44.6229964}, {"type": "node", "id": 8544066158, "lat": 36.7792354, "lon": 44.6231393}, {"type": "node", "id": 8544066368, "lat": 36.7836351, "lon": 44.6211927}, {"type": "node", "id": 8544066369, "lat": 36.7835219, "lon": 44.620739}, {"type": "node", "id": 8548139866, "lat": 36.9187868, "lon": 44.5608361}, {"type": "node", "id": 8548139867, "lat": 36.9203324, "lon": 44.5606522}, {"type": "node", "id": 8548139907, "lat": 36.9179443, "lon": 44.5560522}, {"type": "node", "id": 8548139908, "lat": 36.9173425, "lon": 44.556218}, {"type": "node", "id": 8548139909, "lat": 36.9174574, "lon": 44.5573973}, {"type": "node", "id": 8548139982, "lat": 36.9205592, "lon": 44.5608132}, {"type": "node", "id": 8548139983, "lat": 36.9201845, "lon": 44.5610795}, {"type": "node", "id": 8572660208, "lat": 36.8229746, "lon": 44.6702141}, {"type": "node", "id": 8572660209, "lat": 36.8226424, "lon": 44.6705763}, {"type": "node", "id": 8572660210, "lat": 36.8228357, "lon": 44.6690032}, {"type": "node", "id": 8572660211, "lat": 36.8227405, "lon": 44.6695094}, {"type": "node", "id": 8572660212, "lat": 36.8226245, "lon": 44.6700847}, {"type": "node", "id": 8572660213, "lat": 36.8239592, "lon": 44.6680392}, {"type": "node", "id": 8572660214, "lat": 36.8237854, "lon": 44.6677056}, {"type": "node", "id": 8572660215, "lat": 36.8244792, "lon": 44.6694336}, {"type": "node", "id": 8572660216, "lat": 36.8242444, "lon": 44.6698197}, {"type": "node", "id": 8791462317, "lat": 36.601243, "lon": 44.7371002, "tags": {"name": "\u0646\u0627\u0648\u06a9\u06ce\u0644\u06d5\u06a9\u0627\u0646", "name:ckb": "\u0646\u0627\u0648\u06a9\u06ce\u0644\u06d5\u06a9\u0627\u0646", "name:en": "Nawkelakan", "name:ku": "Nawk\u00ealekan", "place": "village", "wikipedia": "ckb: \u0646\u0627\u0648\u06a9\u06ce\u0644\u06d5\u06a9\u0627\u0646"}}, {"type": "node", "id": 8792156341, "lat": 36.5853764, "lon": 44.753603, "tags": {"name": "\u0695\u06d5\u0634\u06d5\u06a9\u06d5\u06b5", "name:ckb": "\u0695\u06d5\u0634\u06d5\u06a9\u06d5\u06b5", "name:en": "Rashakall", "name:ku": "Re\u015fekell", "place": "village", "wikipedia": "ckb: \u0695\u06d5\u0634\u06d5\u06a9\u06d5\u06b5"}}, {"type": "node", "id": 8940737018, "lat": 36.6749858, "lon": 44.6648705, "tags": {"name": "\u062f\u06c6\u06b5\u0628\u0627\u0644\u06cc\u0633", "name:ckb": "\u062f\u06c6\u06b5\u0628\u0627\u0644\u06cc\u0633", "name:en": "Dolbalis", "name:ku": "Dollbal\u00ees", "place": "village", "wikidata": "Q5988247", "wikipedia": "ckb:\u062f\u06c6\u06b5\u0628\u0627\u0644\u06cc\u0633"}}, {"type": "node", "id": 8940781850, "lat": 36.6207332, "lon": 44.7389144, "tags": {"name": "\u06a9\u06c6\u062a\u06cc\u06a9", "name:en": "Kotik", "place": "village"}}, {"type": "node", "id": 8949532083, "lat": 36.5386004, "lon": 44.6134909, "tags": {"name": "\u06a9\u0627\u0646\u06cc \u06a9\u06d5\u0648\u0627\u0646", "name:en": "Kani Kawan", "place": "village"}}, {"type": "node", "id": 8958130076, "lat": 36.7092874, "lon": 44.7622423, "tags": {"name": "\u06af\u0648\u06b5\u0627\u0646", "name:en": "Gulan", "place": "village"}}, {"type": "node", "id": 8958130077, "lat": 36.6937618, "lon": 44.7770021, "tags": {"name": "\u0633\u06d5\u0631\u06cc \u067e\u0631\u0633\u06d5\u0648\u0627\u0644", "name:en": "Sari Prsawal", "place": "village"}}, {"type": "node", "id": 8958130078, "lat": 36.7062555, "lon": 44.7479791, "tags": {"name": "\u0646\u0627\u0631\u06ce\u0633", "name:en": "Nares", "place": "village"}}, {"type": "node", "id": 9555882290, "lat": 36.589195, "lon": 44.9853113, "tags": {"alt_name": "\u0648\u06ce\u0632\u06ce", "name": "\u0648\u06ce\u0632\u06d5", "name:ar": "\u0648\u064a\u0632\u064a", "name:ckb": "\u0648\u06ce\u0632\u06d5", "name:en": "Weze", "name:ku": "W\u00eaz\u00ea", "place": "village"}}, {"type": "node", "id": 9921214040, "lat": 36.5534023, "lon": 44.8391352, "tags": {"name": "\u0633\u06c6\u0631\u06d5\u0628\u0627\u0646", "name:ckb": "\u0633\u06c6\u0631\u06d5\u0628\u0627\u0646", "name:de": "Soraban", "name:en": "Soraban", "name:fr": "Soraban", "name:ku": "Soreban", "place": "village", "wikidata": "Q5988149", "wikipedia": "ckb:\u0633\u06c6\u0631\u06d5\u0628\u0627\u0646"}}, {"type": "node", "id": 10004475993, "lat": 36.661886, "lon": 45.0580251, "tags": {"int_name": "M\u012bwat\u0101n, \u0645\u064a\u0648\u062a\u0627\u0646, Miwatan, \u0645\u064a\u0648\u062a\u0627\u0646", "name": "\u0645\u0627\u0648\u06d5\u062a\u0627\u0646", "name:ar": "\u0645\u0627\u0648\u062a\u0627\u0646", "name:ckb": "\u0645\u0627\u0648\u06d5\u062a\u0627\u0646", "name:de": "Mawatan", "name:en": "Mawatan", "name:fr": "Mawatan", "name:ku": "Mawetan", "place": "village", "wikidata": "Q5988387", "wikipedia": "ckb:\u0645\u0627\u0648\u06d5\u062a\u0627\u0646"}}, {"type": "node", "id": 10101227578, "lat": 36.8797377, "lon": 44.6914663, "tags": {"name": "Letan", "place": "village"}}, {"type": "node", "id": 10101337040, "lat": 36.8351602, "lon": 44.648401, "tags": {"name": "Buzan", "place": "village"}}, {"type": "node", "id": 10107235571, "lat": 36.7075546, "lon": 44.7122069, "tags": {"name": "\u06a9\u0627\u0648\u0644\u0627\u0646", "name:ar": "\u06a9\u0627\u0648\u0644\u0627\u0646", "name:ckb": "\u06a9\u0627\u0648\u0644\u0627\u0646", "name:en": "Kawlan", "place": "village"}}, {"type": "node", "id": 10292695011, "lat": 36.6431261, "lon": 44.6629451, "tags": {"name": "\u062f\u06ce", "place": "village"}}, {"type": "node", "id": 10297472833, "lat": 36.59589, "lon": 44.8767111, "tags": {"name": "\u06af\u06c6\u0631\u06c6\u0646", "place": "village"}}, {"type": "node", "id": 10311154248, "lat": 36.8340935, "lon": 44.5927336, "tags": {"name": "\u062f\u06c6\u0633\u062a\u0627\u0646\u0627\u0646", "name:en": "Dostanan", "place": "village"}}, {"type": "node", "id": 11494620780, "lat": 36.809424, "lon": 44.7022949, "tags": {"name": "\u06af\u0648\u0646\u062f\u06cc \u06af\u0631\u0645\u0648\u0633\u06d5\u06a9", "name:ar": "\u0642\u0631\u06cc\u0629 \u0643\u0631\u0645\u0648\u0633\u0643", "place": "village"}}, {"type": "node", "id": 11494661647, "lat": 36.8084687, "lon": 44.6959134, "tags": {"name": "\u06af\u0648\u0646\u062f\u06cc \u062a\u06c6\u0628\u0632\u0627\u0648\u06d5", "place": "village"}}, {"type": "node", "id": 11494663842, "lat": 36.801837, "lon": 44.688562, "tags": {"name": "\u06af\u0648\u0646\u062f\u06cc \u0628\u06ce\u0645\u06d5\u0633\u0648\u0631\u0627\u0646", "place": "village"}}, {"type": "node", "id": 11494675873, "lat": 36.7976343, "lon": 44.6857296, "tags": {"name": "\u06af\u0648\u0646\u062f\u06cc \u062c\u06c6\u062e\u06cc\u0646 \u06af\u06d5\u0644\u0627", "place": "village"}}, {"type": "node", "id": 11555298147, "lat": 36.8052335, "lon": 44.6487835}, {"type": "way", "id": 279239541, "nodes": [2834726994, 2834727058, 2834726905, 8548139983, 8548139867, 8548139982, 2834727150, 2834726929, 2834727008, 2834727020, 2834726967, 8548139907, 8548139908, 8548139909, 2834727373, 2834727408, 8548139866, 2834727388, 2834727406, 2834726994], "tags": {"alt_name": "\u0644\u064a\u0644 \u0643\u0627\u0646", "int_name": "Layl K\u0101n, L\u0113lk\u0101n, \u0644\u064a\u0644 \u0643\u0627\u0646, Layl Kan, Lelkan, \u0644\u064a\u0644 \u0643\u0627\u0646", "is_in": "Iraq , \u062c\u0645\u0647\u0648\u0631\u064a\u0629 \u0627\u0644\u0639\u0631\u0627\u0642", "landuse": "residential", "name": "\u0644\u064a\u0644 \u0643\u0627\u0646", "name:ar": "\u0644\u064a\u0644 \u0643\u0627\u0646", "name:de": "Layl Kan", "name:en": "Layl Kan", "name:fr": "Layl Kan", "place": "village", "source": "Bing"}}, {"type": "way", "id": 284780433, "nodes": [2884892867, 2884892304, 2884893341, 2884893054, 8166320824, 2884893480, 2884892845, 2884892382, 2884892410, 2884892460, 2884892365, 2884893353, 2884892867], "tags": {"landuse": "residential", "name": "\u062f\u06d5\u0631\u0647\u06c6\u0644", "place": "village", "source": "Bing"}}, {"type": "way", "id": 284780455, "nodes": [2884893092, 2884892809, 2884893008, 2884893009, 2884893335, 2884892458, 2884892449, 2884892853, 2884893450, 2884892319, 2884892629, 2884893458, 2884892658, 2884893092], "tags": {"name": "Qalitan", "place": "village", "source": "Bing"}}, {"type": "way", "id": 284780482, "nodes": [2884893133, 2884893109, 2884892647, 2884893472, 7813853150, 2884892301, 2884893302, 2884893136, 2884892833, 2884893479, 2884890799, 2884893489, 2884893508, 2884892687, 2884893529, 2884892676, 2884893406, 2884893170, 2884892363, 2884893430, 2884893133], "tags": {"name": "\u062c\u06d5\u0632\u0627", "place": "village"}}, {"type": "way", "id": 299366081, "nodes": [3033547939, 8512498672, 3033547940, 8512498671, 3033547941, 8512498669, 8512498670, 3033547946, 3033547947, 3033547949, 3033547950, 3033547952, 3033547955, 3033547939], "tags": {"landuse": "residential", "name": "\u0633\u06d5\u0631\u06cc \u0628\u06d5\u0631\u062f\u06cc", "name:ckb": "\u0633\u06d5\u0631\u06cc \u0628\u06d5\u0631\u062f\u06cc", "place": "village", "source": "Bing"}}, {"type": "way", "id": 299568734, "nodes": [3035699825, 8572660213, 3035699826, 3035699827, 8572660215, 8572660216, 3035699828, 8572660208, 3035699829, 8572660209, 8572660212, 3035699830, 8572660211, 8572660210, 3035699831, 3035699832, 3035699833, 3035699834, 3035699835, 3035699836, 8572660214, 3035699825], "tags": {"int_name": "D\u014dl i Aradu, W\u0101d\u012b Ar\u0101d\u016b, \u0648\u0627\u062f\u064a \u0627\u0631\u0627\u062f\u0648, Dol i Aradu, Wadi Aradu, \u0648\u0627\u062f\u064a \u0627\u0631\u0627\u062f\u0648", "is_in": "Iraq , \u062c\u0645\u0647\u0648\u0631\u064a\u0629 \u0627\u0644\u0639\u0631\u0627\u0642", "landuse": "residential", "name": "\u0648\u0627\u062f\u064a \u0623\u0631\u0627\u062f\u0648", "name:de": "Dol i Aradu", "name:en": "Dol i Aradu", "name:fr": "Dol i Aradu", "place": "village", "source": "Bing"}}, {"type": "way", "id": 299568735, "nodes": [3035699840, 8010445043, 3035699841, 8175911931, 8175911932, 3035699842, 8175911933, 3035699843, 8175911934, 3035699844, 8175911975, 8175911974, 8175912000, 3035699845, 8175911999, 8175911997, 8175911998, 8010445069, 3035699846, 3035699847, 3035699848, 3035699849, 8175911939, 8175911940, 8175911941, 3035699850, 8175912035, 3035699840], "tags": {"landuse": "residential", "place": "village", "source": "Bing"}}, {"type": "way", "id": 303372507, "nodes": [3077269406, 3077269407, 3077269408, 3077269409, 3077269410, 3077269411, 3077269412, 3077269413, 3077269406], "tags": {"landuse": "residential", "place": "village"}}, {"type": "way", "id": 303373495, "nodes": [3077283146, 3077283147, 3077283148, 3077283149, 3077283146], "tags": {"landuse": "residential", "place": "village"}}, {"type": "way", "id": 304463233, "nodes": [3090018582, 6118544721, 3090018583, 3090018584, 3090018585, 3090018586, 3090018587, 3090018582], "tags": {"name": "\u0628\u06cc\u0631\u0627\u0648\u0633\u0648", "place": "village"}}, {"type": "way", "id": 304463235, "nodes": [3090018618, 3090018619, 3090018620, 3090018621, 3090018618], "tags": {"place": "village"}}, {"type": "way", "id": 304463391, "nodes": [3090021463, 3090021464, 3090021565, 6910251466, 3090021566, 3090021567, 3090021568, 3090021463], "tags": {"landuse": "residential", "place": "village"}}, {"type": "way", "id": 305236362, "nodes": [3098377593, 3098377594, 3098377595, 3098377596, 3098377597, 3098377598, 3098377599, 3098377600, 3098377601, 3098377602, 3098377603, 3098377604, 3098377605, 3098377606, 3098377607, 3098377608, 3098377609, 3098377610, 3098377611, 3098377612, 3098377613, 3098377614, 3098377615, 3098377616, 3098377617, 3098377618, 3098377619, 3098377620, 3098377621, 3098377622, 3098377623, 3098377624, 3098377625, 3098377626, 3098377593], "tags": {"place": "village", "source": "Bing"}}, {"type": "way", "id": 532640140, "nodes": [5168314372, 5168314373, 5168314374, 5168314375, 8155274055, 5168314376, 8155274049, 8155274051, 8155274052, 8155274050, 8155274057, 8155274048, 8155274056, 8155274047, 8155274053, 8155274054, 5168314377, 5168314378, 5168314379, 5168314380, 5168314382, 8155274097, 8155274239, 5168314372], "tags": {"landuse": "residential", "name": "\u0686\u06c6\u0645\u06d5 \u0628\u06d5\u0695\u0648\u0648", "place": "village"}}, {"type": "way", "id": 566073798, "nodes": [5450682507, 8355726405, 5450682505, 8355726404, 8355726403, 5450682504, 5450682503, 5450682502, 5450682501, 8355726402, 5450682500, 5450682499, 5450682498, 5450682497, 5450682496, 5450682495, 5450682507], "tags": {"int_name": "Kahl\u012btah, Kaleta, Kalita, Kal\u012bta Zhori, Kal\u012btah, Kal\u012btah Zh\u016bri, \u0643\u06d5\u0644\u064a\u062a\u0647, Kahlitah, Kaleta, Kalita, Kalita Zhori, Kalitah, Kalitah Zhuri, \u0643\u06d5\u0644\u064a\u062a\u0647", "is_in": "Iraq , \u062c\u0645\u0647\u0648\u0631\u064a\u0629 \u0627\u0644\u0639\u0631\u0627\u0642", "landuse": "residential", "name": "\u0643\u0647\u0644\u064a\u062a\u0629", "name:ar": "\u0643\u0647\u0644\u064a\u062a\u0629", "name:de": "Kahlitah", "name:en": "Kahlitah", "name:fr": "Kahlitah", "place": "village"}}, {"type": "way", "id": 691841607, "nodes": [6493322487, 6493322488, 6493322489, 6493322490, 6493322491, 6493322492, 6493322493, 6493322494, 6493322495, 6493322496, 6493322497, 6493322498, 6493322499, 6493322500, 6493322501, 6493322502, 6493322503, 6493322487], "tags": {"place": "village"}}, {"type": "way", "id": 836338113, "nodes": [7806049810, 7806049811, 7806049812, 7806049813, 7806049814, 7806049815, 7806049819, 7806049816, 7806049817, 7806049818, 7806049810], "tags": {"area": "yes", "place": "hamlet"}}, {"type": "way", "id": 836338145, "nodes": [7806050279, 7806050280, 7806050281, 7806050282, 7806050283, 7806050284, 7806050285, 7806050286, 7806050287, 7806050279], "tags": {"area": "yes", "place": "hamlet"}}, {"type": "way", "id": 836409880, "nodes": [7806737911, 7806737912, 7806737913, 7806737914, 7806737915, 7806737916, 7806737911], "tags": {"area": "yes", "place": "hamlet"}}, {"type": "way", "id": 872214781, "nodes": [8019958888, 8019958887, 8123823832, 6496537498, 8123831734, 6496537499, 8123831733, 8123831735, 8123823833, 8123823834, 8123823835, 8123831732, 8123823836, 6496538653, 6496538654, 8123823840, 8123823837, 8123823839, 8123823838, 8019958889, 8019958888], "tags": {"alt_name": "\u0628\u0648\u0644\u064a", "is_in": "B\u014dla, B\u014dlah, B\u016blah, B\u016bl\u012b, \u0628\u0648\u0644\u064a, Bola, Bolah, Bulah, Buli, \u0628\u0648\u0644\u064a", "landuse": "residential", "name": "\u0628\u0648\u0644\u064a", "name:ar": "\u0628\u0648\u0644\u064a", "name:de": "Bole", "name:en": "Bole", "name:fr": "Bole", "place": "village"}}, {"type": "way", "id": 876232373, "nodes": [8155273974, 8155273975, 8155273976, 8155273977, 8155274012, 8155273978, 8155273979, 8155273980, 8155273981, 8155273982, 8155273983, 8155273984, 8155273985, 8155273986, 8155273987, 8155274007, 8155274008, 8155273988, 8155274009, 8155274010, 8155273989, 8155274011, 8155273990, 8155273991, 8155273992, 8155273993, 8155273994, 8155273995, 8155274142, 8155274143, 8155273996, 8155273997, 8155273998, 8155273999, 8155274000, 8155274001, 8155274002, 8155274003, 8155274004, 8155274005, 8155274006, 8155273974], "tags": {"alt_name": "\u0633\u064a\u0631\u0646\u0648\u0633\u0628\u0646\u0648\u0633", "landuse": "residential", "name": "\u0633\u06d5\u0631\u0646\u06d5\u0648\u0633", "name:ar": "\u0633\u06d5\u0631\u0646\u06d5\u0648\u0633", "name:ar1": "\u0633\u064a\u0631\u0646\u0648\u0633\u0628\u0646\u0648\u0633", "name:de": "sarnaws", "name:en": "Sernews", "name:fr": "sarnaws", "name:ku": "\u0633\u06d5\u0631\u0646\u06d5\u0648\u0633", "place": "village"}}, {"type": "way", "id": 876232383, "nodes": [8155274144, 8155274224, 8155274145, 8155274146, 8155274147, 8155274148, 8155274149, 8155274215, 8155274150, 8155274151, 8155274152, 8155274153, 8155274154, 8155274155, 8155274156, 8155274157, 8155381390, 8155274158, 8155274159, 8155274160, 8155381383, 8155274161, 8155274162, 8155274163, 8155274164, 8155274165, 8155274166, 8155274167, 8155274214, 8155274213, 8155274168, 8155274169, 8155274170, 8155274171, 8155274172, 8155274144], "tags": {"is_in": "Iraq , \u062c\u0645\u0647\u0648\u0631\u064a\u0629 \u0627\u0644\u0639\u0631\u0627\u0642", "landuse": "residential", "name": "\u0631\u06d5\u0698\u0648\u06a9\u06d5\u0631\u06cc\u0627\u0646", "name:ar": "\u0631\u06d5\u0698\u0648\u06a9\u06d5\u0631\u06cc\u0627\u0646", "name:de": "Razhukaryan", "name:en": "Razhukaryan", "name:fr": "Razhukaryan", "place": "village"}}, {"type": "way", "id": 876232398, "nodes": [8155274397, 8155274398, 8155274399, 8155274400, 8155274401, 8155274402, 8155274403, 8155274404, 8155274405, 8155274406, 8155274407, 8155274408, 8155274409, 8155274410, 8155274411, 8155274397], "tags": {"int_name": "Dayr K\u0101lah, Dayr Kalah", "landuse": "residential", "name": "\u062f\u06d5\u0631\u06af\u06d5\u06b5\u06d5", "name:ar": "\u062f\u06d5\u0631\u06af\u06d5\u06b5\u06d5", "name:de": "Dayr Kalah", "name:en": "Dayr Kalah", "name:fr": "Dayr Kalah", "name:ku": "Dargala", "place": "village"}}, {"type": "way", "id": 877597858, "nodes": [8165298078, 8165298079, 8165298080, 8165298081, 8165298082, 8365773847, 8165298083, 8165298084, 8165298085, 8165298078], "tags": {"int_name": "Dargala, D\u0101rgala, Dargalah, Dargla, Darkahlah, Darkalah, Dergala, \u062f\u0631\u0643\u06d5\u0644\u06d5, \u062f\u0631\u06af\u06d5\u0644\u06d5, Dargala, Dargala, Dargalah, Dargla, Darkahlah, Darkalah, Dergala, \u062f\u0631\u0643\u06d5\u0644\u06d5, \u062f\u0631\u06af\u06d5\u0644\u06d5", "is_in": "Dargala, D\u0101rgala, Dargalah, Dargla, Darkahlah, Darkalah, Dergala, \u062f\u0631\u0643\u06d5\u0644\u06d5, \u062f\u0631\u06af\u06d5\u0644\u06d5, Dargala, Dargala, Dargalah, Dargla, Darkahlah, Darkalah, Dergala, \u062f\u0631\u0643\u06d5\u0644\u06d5, \u062f\u0631\u06af\u06d5\u0644\u06d5", "landuse": "residential", "name": "\u062f\u0631\u0643\u0644\u0629", "name:de": "Dargala", "name:en": "Dargala", "name:fr": "Dargala", "place": "village"}}, {"type": "way", "id": 899455784, "nodes": [8357231178, 8357231179, 8357231180, 8357231181, 8357231182, 8357231183, 8357231184, 8357231178], "tags": {"alt_name": "\u0643\u0627\u0646\u064a \u0643\u0648\u0646", "int_name": "K\u0101n\u012b Kawn, Kani Koan, K\u0101n\u012b K\u014dn, Kany Kawan, \u0643\u0627\u0646\u064a \u0643\u0648\u0646, Kani Kawn, Kani Koan, Kani Kon, Kany Kawan, \u0643\u0627\u0646\u064a \u0643\u0648\u0646", "is_in": "Iraq , \u062c\u0645\u0647\u0648\u0631\u064a\u0629 \u0627\u0644\u0639\u0631\u0627\u0642", "landuse": "residential", "name": "\u06a9\u0627\u0646\u06cc \u06a9\u0647\u200c\u0648\u0627\u0646", "name:ar": "\u06a9\u0627\u0646\u06cc \u06a9\u0647\u200c\u0648\u0627\u0646", "name:de": "Kani Kawan", "name:en": "Kani Kawan", "name:fr": "Kani Kawan", "place": "village"}}, {"type": "way", "id": 901345316, "nodes": [8373129134, 11555298147, 8373129135, 8373129136, 8373129137, 8373129138, 8373129139, 8373129140, 8373129141, 8373129142, 8373129143, 8373129144, 8373129145, 8373129146, 8373129134], "tags": {"name": "Sidakan", "name:ar": "\u0633\u06cc\u062f\u06a9\u0627\u0646", "name:ckb": "\u0633\u06cc\u062f\u06d5\u06a9\u0627\u0646", "name:en": "Sidakan", "name:fa": "\u0633\u06cc\u062f\u06a9\u0627\u0646", "place": "village"}}, {"type": "way", "id": 920108968, "nodes": [8544065929, 8544065935, 8544066369, 8544066368, 8544065936, 8544065930, 8544065931, 8544065932, 8544065933, 8544065934, 8544065929], "tags": {"landuse": "residential", "name": "\u06af\u0631\u06a9\u06d5\u0628\u0627\u0646", "name:ckb": "\u06af\u0631\u06a9\u06d5\u0628\u0627\u0646", "place": "village"}}, {"type": "way", "id": 920108978, "nodes": [8544066136, 8544066137, 8544066138, 8544066139, 8544066140, 8544066141, 8544066142, 8544066143, 8544066144, 8544066145, 8544066146, 8544066147, 8544066148, 8544066149, 8544066150, 8544066151, 8544066152, 8544066153, 8544066154, 8544066155, 8544066156, 8544066157, 8544066158, 8544066136], "tags": {"landuse": "residential", "name": "\u0633\u06d5\u0631\u06af\u0631\u062f", "place": "village"}}]}