{"version": 0.6, "generator": "Overpass API 0.7.61.5 4133829e", "osm3s": {"timestamp_osm_base": "2024-03-05T13:52:05Z", "copyright": "The data included in this document is from www.openstreetmap.org. The data is made available under ODbL."}, "elements": [{"type": "node", "id": 4382916344, "lat": 35.1055339, "lon": 61.6901225, "tags": {"alt_name": "Guiran", "name": "\u06af\u0644\u0631\u0627\u0646", "name:en": "Gulran", "name:ps": "\u06af\u0644\u0631\u0627\u0646", "name:ru": "\u0413\u0443\u043b\u044c\u0440\u0430\u043d", "place": "town", "source:name": "GNS", "wikidata": "Q5617858", "wikipedia": "en:Gulran"}}, {"type": "node", "id": 4382916347, "lat": 35.032825, "lon": 61.6494715, "tags": {"abandoned": "yes", "alt_name": "Sir Band;Sher Band;Shayr Band", "name": "\u0634\u06cc\u0631 \u0628\u0646\u062f", "name:en": "Shir Band", "name:ps": "\u0634\u06cc\u0631 \u0628\u0646\u062f", "place": "village", "source:name": "GNS"}}, {"type": "node", "id": 4382929358, "lat": 34.957833, "lon": 61.538723, "tags": {"alt_name": "Ao Mazar;Ao Masar", "name": "\u0622\u0628 \u0645\u0632\u0627\u0631", "name:en": "Ab Mazar", "name:ps": "\u0622\u0628 \u0645\u0632\u0627\u0631", "place": "village", "source:name": "GNS", "wikidata": "Q4663036", "wikipedia": "en:Ab Mazar"}}, {"type": "node", "id": 11330281713, "lat": 35.1708704, "lon": 61.8222034, "tags": {"place": "village"}}, {"type": "node", "id": 11330281714, "lat": 35.1716027, "lon": 61.8344128, "tags": {"place": "hamlet"}}]}