{"version": 0.6, "generator": "Overpass API 0.7.61.5 4133829e", "osm3s": {"timestamp_osm_base": "2024-03-06T11:17:45Z", "copyright": "The data included in this document is from www.openstreetmap.org. The data is made available under ODbL."}, "elements": [{"type": "node", "id": 2093558057, "lat": 32.7797122, "lon": 44.290267, "tags": {"alt_name": "Al Musaiyib, Al Musayyib, Mosayab, Musa\u012byib, Musayyib, Museyib, \u0627\u0644\u0645\u0633\u064a\u0628, Al Musaiyib, Al Musayyib, Mosayab, Musaiyib, Musayyib, Museyib, \u0627\u0644\u0645\u0633\u064a\u0628", "capital": "6", "name": "\u0627\u0644\u0645\u0633\u064a\u0628", "name:ar": "\u0627\u0644\u0645\u0633\u064a\u0628", "name:az-Arab": "\u0645\u0633\u06cc\u0628", "name:azb": "\u0645\u0633\u06cc\u0628", "name:de": "Al-Musayyib", "name:en": "Al Musaiyib", "name:es": "Almusayib", "name:et": "Al-Musayyib", "name:eu": "Musayyib", "name:fa": "\u0645\u0633\u06cc\u0628", "name:fr": "Al Moussayib", "name:he": "\u05de\u05d5\u05e1\u05d9\u05d9\u05d1", "name:hi": "\u092e\u0941\u0938\u0948\u092f\u093f\u092c", "name:ml": "\u0d05\u0d7d-\u0d2e\u0d41\u0d38\u0d2f\u0d4d\u0d2f\u0d3f\u0d2c\u0d4d", "name:ru": "\u042d\u043b\u044c-\u041c\u0443\u0441\u0430\u0439\u0438\u0431", "place": "city", "population": "279939", "population:date": "2003", "wikidata": "Q4120374", "wikipedia": "ar:\u0627\u0644\u0645\u0633\u064a\u0628", "wikipedia:ar": "\u0627\u0644\u0645\u0633\u064a\u0628"}}, {"type": "node", "id": 2093693402, "lat": 32.8852996, "lon": 44.3460645, "tags": {"alt_name:en": "Iskandariyah, Iskanderiyah, Iskanderiya, Iskanderiyeh or Sikandariyeh, Al Askandariyah", "capital": "7", "int_name": "Al Iskandariyah - \u0627\u0644\u0625\u0633\u0643\u0646\u062f\u0631\u064a", "is_in": "Iraq , \u062c\u0645\u0647\u0648\u0631\u064a\u0629 \u0627\u0644\u0639\u0631\u0627\u0642", "name": "\u0627\u0644\u0625\u0633\u0643\u0646\u062f\u0631\u064a\u0629", "name:ar": "\u0627\u0644\u0625\u0633\u0643\u0646\u062f\u0631\u064a\u0629", "name:en": "Al Iskandariyah", "name:ja": "\u30a4\u30b9\u30ab\u30f3\u30c0\u30ea\u30fc\u30e4", "name:ml": "\u0d05\u0d7d-\u0d07\u0d38\u0d4d\u0d15\u0d28\u0d4d\u0d26\u0d30\u0d3f\u0d2f", "name:ru": "\u042d\u043b\u044c-\u0418\u0441\u043a\u0430\u043d\u0434\u0430\u0440\u0438\u044f", "place": "town"}}, {"type": "node", "id": 2480069233, "lat": 32.636505, "lon": 44.04956, "tags": {"alt_name": "\u062d\u064a \u0627\u0644\u0639\u0628\u0627\u0633", "int_name": "\u1e28ayy al Abb\u0101s, \u062d\u064a \u0627\u0644\u0639\u0628\u0627\u0633, Hayy al Abbas, \u062d\u064a \u0627\u0644\u0639\u0628\u0627\u0633", "name": "\u062d\u064a \u0627\u0644\u0639\u0628\u0627\u0633", "name:ar": "\u062d\u064a \u0627\u0644\u0639\u0628\u0627\u0633", "name:ar1": "\u062d\u064a \u0627\u0644\u0639\u0628\u0627\u0633", "name:de": "Hayy al Abbas", "name:en": "Hayy al Abbas", "name:fr": "Hayy al Abbas", "place": "town"}}, {"type": "node", "id": 2480069239, "lat": 32.624745, "lon": 44.052035, "tags": {"alt_name": "\u0642\u0631\u064a\u0629 \u062d\u0645\u0633", "int_name": "Qaryat \u1e28amas, \u0642\u0631\u064a\u0629 \u062d\u0645\u0633, Qaryat Hamas, \u0642\u0631\u064a\u0629 \u062d\u0645\u0633", "name": "\u0642\u0631\u064a\u0629 \u062d\u0645\u0633", "name:ar": "\u0642\u0631\u064a\u0629 \u062d\u0645\u0633", "name:ar1": "\u0642\u0631\u064a\u0629 \u062d\u0645\u0633", "name:de": "Qaryat Hamas", "name:en": "Qaryat Hamas", "name:fr": "Qaryat Hamas", "place": "hamlet"}}, {"type": "node", "id": 2480069240, "lat": 32.635843, "lon": 44.058292, "tags": {"alt_name": "\u0642\u0631\u064a\u0629 \u0627\u0644\u0641\u0644\u0637\u0627\u0648\u064a\u0629", "int_name": "Qaryat al Fal\u0163\u0101w\u012byah, \u0642\u0631\u064a\u0629 \u0627\u0644\u0641\u0644\u0637\u0627\u0648\u064a\u0647, Qaryat al Faltawiyah, \u0642\u0631\u064a\u0629 \u0627\u0644\u0641\u0644\u0637\u0627\u0648\u064a\u0647", "name": "\u0642\u0631\u064a\u0629 \u0627\u0644\u0641\u0644\u0637\u0627\u0648\u064a\u0629", "name:ar": "\u0642\u0631\u064a\u0629 \u0627\u0644\u063a\u0644\u0637\u0627\u0648\u064a\u0629", "name:ar1": "\u0642\u0631\u064a\u0629 \u0627\u0644\u0641\u0644\u0637\u0627\u0648\u064a\u0629", "name:de": "Qaryat al ghaltawiyah", "name:en": "Qaryat al ghaltawiyah", "name:fr": "Qaryat al ghaltawiyah", "place": "village"}}, {"type": "node", "id": 2480069241, "lat": 32.6276196, "lon": 44.07554, "tags": {"alt_name": "\u0642\u0631\u064a\u0629 \u0627\u0644\u0641\u0631\u0627\u0634\u064a\u0629", "int_name": "Qaryat al Far\u0101sh\u012byah, Qaryat al Farashiyah", "name": "\u0642\u0631\u064a\u0629 \u0627\u0644\u0641\u0631\u0627\u0634\u064a\u0629", "name:ar": "\u0642\u0631\u064a\u0629 \u0627\u0644\u0641\u0631\u0627\u0634\u064a\u0629", "name:ar1": "\u0642\u0631\u064a\u0629 \u0627\u0644\u0641\u0631\u0627\u0634\u064a\u0629", "name:de": "Qaryat al Farashiyah", "name:en": "Qaryat al Farashiyah", "name:fr": "Qaryat al Farashiyah", "place": "hamlet"}}, {"type": "node", "id": 2480069248, "lat": 32.633231, "lon": 44.086247, "tags": {"alt_name": "\u0642\u0631\u064a\u0629 \u0627\u0644\u062c\u0646\u0643\u0629", "int_name": "Qaryat al Jankah, \u0642\u0631\u064a\u0629 \u0627\u0644\u062c\u0646\u0643\u0647, Qaryat al Jankah, \u0642\u0631\u064a\u0629 \u0627\u0644\u062c\u0646\u0643\u0647", "name": "\u0642\u0631\u064a\u0629 \u0627\u0644\u062c\u0646\u0643\u0629", "name:ar": "\u0627\u0644\u062d\u0627\u0641\u0638", "name:ar1": "\u0642\u0631\u064a\u0629 \u0627\u0644\u062c\u0646\u0643\u0629", "name:de": "Qaryat al Jankah", "name:en": "Qaryat al Jankah", "name:fr": "Qaryat al Jankah", "place": "village"}}, {"type": "node", "id": 2480069249, "lat": 32.6217427, "lon": 44.0452286, "tags": {"alt_name": "\u0642\u0631\u064a\u0629 \u0627\u0644\u0643\u0631\u0643\u0634\u064a\u0629", "int_name": "Qaryat al Karkash\u012byah, \u0642\u0631\u064a\u0629 \u0627\u0644\u0643\u0631\u0643\u0634\u064a\u0629, Qaryat al Karkashiyah, \u0642\u0631\u064a\u0629 \u0627\u0644\u0643\u0631\u0643\u0634\u064a\u0629", "name": "\u0642\u0631\u064a\u0629 \u0627\u0644\u0643\u0631\u0643\u0634\u064a\u0629", "name:ar": "\u0642\u0631\u064a\u0629 \u0627\u0644\u0643\u0631\u0643\u0634\u064a\u0629", "name:ar1": "\u0642\u0631\u064a\u0629 \u0627\u0644\u0643\u0631\u0643\u0634\u064a\u0629", "name:de": "Qaryat al Karkashiyah", "name:fr": "Qaryat al Karkashiyah", "name:hu": "Kerbela", "place": "village"}}, {"type": "node", "id": 2480069251, "lat": 32.630556, "lon": 44.076389, "tags": {"alt_name": "\u0642\u0635\u0631 \u0627\u0644\u064a\u0639\u0642\u0648\u0628\u064a\u0629", "int_name": "Qa\u015fr al Yaq\u016bb\u012byah, Qasr al Yaqubiyah", "is_in": "Iraq , \u062c\u0645\u0647\u0648\u0631\u064a\u0629 \u0627\u0644\u0639\u0631\u0627\u0642", "name": "\u0642\u0635\u0631 \u0627\u0644\u064a\u0639\u0642\u0648\u0628\u064a\u0629", "name:ar": "\u0642\u0635\u0631 \u0627\u0644\u064a\u0639\u0642\u0648\u0628\u064a\u0629", "name:ar1": "\u0642\u0635\u0631 \u0627\u0644\u064a\u0639\u0642\u0648\u0628\u064a\u0629", "name:de": "Qasr al Yaqubiyah", "name:en": "Qasr al Yaqubiyah", "name:fr": "Qasr al Yaqubiyah", "place": "hamlet"}}, {"type": "node", "id": 2480069253, "lat": 32.628041, "lon": 44.075579, "tags": {"alt_name": "\u0642\u0631\u064a\u0629 \u0627\u0644\u0641\u0631\u0627\u0634\u064a\u0647", "int_name": "\u0642\u0631\u064a\u0629 \u0627\u0644\u0641\u0631\u0627\u0634\u064a\u0647, \u0642\u0631\u064a\u0629 \u0627\u0644\u0641\u0631\u0627\u0634\u064a\u0647", "name": "\u0642\u0631\u064a\u0629 \u0627\u0644\u0641\u0631\u0627\u0634\u064a\u0647", "name:ar": "\u0642\u0631\u064a\u0629 \u0627\u0644\u0641\u0631\u0627\u0634\u064a\u0647", "name:ar1": "\u0642\u0631\u064a\u0629 \u0627\u0644\u0641\u0631\u0627\u0634\u064a\u0647", "name:de": "\u0642\u0631\u064a\u0629 \u0627\u0644\u0641\u0631\u0627\u0634\u064a\u0647", "name:fr": "\u0642\u0631\u064a\u0629 \u0627\u0644\u0641\u0631\u0627\u0634\u064a\u0647", "place": "hamlet"}}, {"type": "node", "id": 2480070719, "lat": 32.684679, "lon": 44.064634, "tags": {"alt_name": "\u0642\u0631\u064a\u0629 \u0628\u062f\u0639\u0629 \u0627\u0633\u0648\u062f", "int_name": "\u0642\u0631\u064a\u0629 \u0628\u062f\u0639\u0629 \u0627\u0633\u0648\u062f, \u0642\u0631\u064a\u0629 \u0628\u062f\u0639\u0629 \u0627\u0633\u0648\u062f", "name": "\u0642\u0631\u064a\u0629 \u0628\u062f\u0639\u0629 \u0627\u0633\u0648\u062f", "name:ar": "\u0642\u0631\u064a\u0629 \u0628\u062f\u0639\u0629 \u0627\u0633\u0648\u062f", "name:ar1": "\u0642\u0631\u064a\u0629 \u0628\u062f\u0639\u0629 \u0627\u0633\u0648\u062f", "name:de": "\u0642\u0631\u064a\u0629 \u0628\u062f\u0639\u0629 \u0627\u0633\u0648\u062f", "name:fr": "\u0642\u0631\u064a\u0629 \u0628\u062f\u0639\u0629 \u0627\u0633\u0648\u062f", "place": "village"}}, {"type": "node", "id": 2480079239, "lat": 32.601547, "lon": 44.097818, "tags": {"alt_name": "\u0642\u0631\u064a\u0629 \u0627\u0644\u0645\u0639\u0627\u0645\u0644", "int_name": "Qaryat al Ma\u0101mil, \u0642\u0631\u064a\u0629 \u0627\u0644\u0645\u0639\u0627\u0645\u0644, Qaryat al Maamil, \u0642\u0631\u064a\u0629 \u0627\u0644\u0645\u0639\u0627\u0645\u0644", "name": "\u0642\u0631\u064a\u0629 \u0627\u0644\u0645\u0639\u0627\u0645\u0644", "name:ar": "\u0642\u0631\u064a\u0629 \u0627\u0644\u0645\u0639\u0627\u0645\u0644", "name:ar1": "\u0642\u0631\u064a\u0629 \u0627\u0644\u0645\u0639\u0627\u0645\u0644", "name:de": "Qaryat al Maamil", "name:en": "Qaryat al Maamil", "name:fr": "Qaryat al Maamil", "place": "village"}}, {"type": "node", "id": 2480079240, "lat": 32.5812603, "lon": 44.1017838, "tags": {"alt_name": "\u0642\u0631\u064a\u0629 \u0627\u0644\u0633\u0644\u064a\u0645\u0627\u0646\u064a\u0629", "int_name": "Qaryat as Sulaym\u0101n\u012byah, Qaryat as Sulaymaniyah", "name": "\u0642\u0631\u064a\u0629 \u0627\u0644\u0633\u0644\u064a\u0645\u0627\u0646\u064a\u0629", "name:ar": "\u0642\u0631\u064a\u0629 \u0627\u0644\u0633\u0644\u064a\u0645\u0627\u0646\u064a\u0629", "name:ar1": "\u0642\u0631\u064a\u0629 \u0627\u0644\u0633\u0644\u064a\u0645\u0627\u0646\u064a\u0629", "name:de": "Qaryat as Sulaymaniyah", "name:en": "Qaryat as Sulaymaniyah", "name:fr": "Qaryat as Sulaymaniyah", "place": "hamlet"}}, {"type": "node", "id": 2480079242, "lat": 32.589357, "lon": 44.084958, "tags": {"alt_name": "\u0642\u0631\u064a\u0629 \u0661 \u062d\u0632\u064a\u0631\u0627\u0646", "int_name": "\u0642\u0631\u064a\u0629 \u0661 \u062d\u0632\u064a\u0631\u0627\u0646, \u0642\u0631\u064a\u0629 \u0661 \u062d\u0632\u064a\u0631\u0627\u0646", "name": "\u0642\u0631\u064a\u0629 \u0661 \u062d\u0632\u064a\u0631\u0627\u0646", "name:ar": "\u0642\u0631\u064a\u0629 \u0661 \u062d\u0632\u064a\u0631\u0627\u0646", "name:ar1": "\u0642\u0631\u064a\u0629 \u0661 \u062d\u0632\u064a\u0631\u0627\u0646", "name:de": "\u0642\u0631\u064a\u0629 \u0661 \u062d\u0632\u064a\u0631\u0627\u0646", "name:fr": "\u0642\u0631\u064a\u0629 \u0661 \u062d\u0632\u064a\u0631\u0627\u0646", "place": "village"}}, {"type": "node", "id": 2480080451, "lat": 32.686669, "lon": 44.111185, "tags": {"alt_name": "\u0646\u0627\u062d\u064a\u0629 \u0639\u0648\u0646", "name": "\u0646\u0627\u062d\u064a\u0629 \u0639\u0648\u0646", "name:ar": "\u0646\u0627\u062d\u064a\u0629 \u0639\u0648\u0646", "name:de": "Awn", "name:en": "Awn", "name:fr": "Awn", "place": "town"}}, {"type": "node", "id": 2480082269, "lat": 32.694061, "lon": 44.265913, "tags": {"alt_name": "\u0642\u0631\u064a\u0629 \u0627\u0644\u0632\u0648\u064a\u0629", "int_name": "Qaryat az Zaw\u012byah, \u0642\u0631\u064a\u0629 \u0627\u0644\u0632\u0648\u064a\u0629, Qaryat az Zawiyah, \u0642\u0631\u064a\u0629 \u0627\u0644\u0632\u0648\u064a\u0629", "name": "\u0642\u0631\u064a\u0629 \u0627\u0644\u0632\u0648\u064a\u0629", "name:ar": "\u0633\u062f\u0629 \u0627\u0644\u0647\u0646\u062f\u064a\u0629", "name:ar1": "\u0642\u0631\u064a\u0629 \u0627\u0644\u0632\u0648\u064a\u0629", "name:de": "Qaryat az Zawiyah", "name:en": "Qaryat az Zawiyah", "name:fr": "Qaryat az Zawiyah", "place": "village"}}, {"type": "node", "id": 2480082273, "lat": 32.6681708, "lon": 44.2489244, "tags": {"alt_name": "\u0642\u0631\u064a\u0629 \u0631\u0642\u0645 \u0661", "int_name": "\u0642\u0631\u064a\u0629 \u0631\u0642\u0645 \u0661, \u0642\u0631\u064a\u0629 \u0631\u0642\u0645 \u0661", "name": "\u0642\u0631\u064a\u0629 \u0631\u0642\u0645 \u0661", "name:ar1": "\u0642\u0631\u064a\u0629 \u0631\u0642\u0645 \u0661", "name:en": "Village No.1", "place": "village"}}, {"type": "node", "id": 2480084724, "lat": 32.6701913, "lon": 44.2864174, "tags": {"alt_name": "\u0642\u0631\u064a\u0629 \u0631\u0642\u0645 \u0663", "int_name": "\u0642\u0631\u064a\u0629 \u0631\u0642\u0645 \u0663, \u0642\u0631\u064a\u0629 \u0631\u0642\u0645 \u0663", "name": "\u0642\u0631\u064a\u0629 \u0631\u0642\u0645 \u0663", "name:ar": "\u0642\u0631\u064a\u0629 \u0631\u0642\u0645 \u0663", "name:ar1": "\u0642\u0631\u064a\u0629 \u0631\u0642\u0645 \u0663", "place": "village"}}, {"type": "node", "id": 2480086535, "lat": 32.7151355, "lon": 44.279276, "tags": {"alt_name": "N\u0101\u1e29iyat Saddat al Hind\u012byah, N\u0101\u1e29\u012byat Saddat al Hind\u012byah, \u0646\u0627\u062d\u064a\u0629 \u0633\u062f\u0629 \u0627\u0644\u0647\u0646\u062f\u064a\u0629, Nahiyat Saddat al Hindiyah, Nahiyat Saddat al Hindiyah, \u0646\u0627\u062d\u064a\u0629 \u0633\u062f\u0629 \u0627\u0644\u0647\u0646\u062f\u064a\u0629", "capital": "7", "int_name": "Saddat al Hind\u012byah - \u0633\u062f\u0629 \u0627\u0644\u0647\u0646\u062f\u064a\u0629", "name": "\u0633\u062f\u0629 \u0627\u0644\u0647\u0646\u062f\u064a\u0629", "name:ar": "\u0633\u062f\u0629 \u0627\u0644\u0647\u0646\u062f\u064a\u0629", "name:de": "Saddat al Hindiyah", "name:en": "Saddat al Hindiyah", "name:fr": "Saddat al Hindiyah", "name:ml": "\u0d38\u0d26\u0d4d\u0d26\u0d24\u0d4d\u0d24\u0d4d \u0d05\u0d7d \u0d39\u0d3f\u0d28\u0d4d\u0d26\u0d3f\u0d2f", "place": "city", "wikidata": "Q4404528"}}, {"type": "node", "id": 2480086541, "lat": 32.707319, "lon": 44.279983, "tags": {"alt_name": "\u0646\u0627\u062c\u064a \u0645\u0633\u0644\u0645", "int_name": "N\u0101j\u012b Musallam, \u0646\u0627\u062c\u064a \u0645\u0633\u0644\u0645, Naji Musallam, \u0646\u0627\u062c\u064a \u0645\u0633\u0644\u0645", "name": "\u0646\u0627\u062c\u064a \u0645\u0633\u0644\u0645", "name:ar": "\u0627\u0644\u0633\u0627\u062f\u0629 \u0627\u0644\u0623\u0634\u0631\u0627\u0641", "name:ar1": "\u0646\u0627\u062c\u064a \u0645\u0633\u0644\u0645", "name:de": "Naji Musallam", "name:en": "Naji Musallam", "name:fr": "Naji Musallam", "place": "village"}}, {"type": "node", "id": 2483912028, "lat": 32.8785058, "lon": 44.3451305, "tags": {"alt_name": "\u062d\u064a \u062b\u0644\u0627\u062b\u0648\u0646 \u062a\u0645\u0648\u0632", "int_name": "\u1e28ayy Thal\u0101th\u016bn Tamm\u016bz, Hayy Thalathun Tammuz", "is_in": "Iraq , \u062c\u0645\u0647\u0648\u0631\u064a\u0629 \u0627\u0644\u0639\u0631\u0627\u0642", "name": "\u062d\u064a \u062b\u0644\u0627\u062b\u0648\u0646 \u062a\u0645\u0648\u0632", "name:ar": "\u062d\u064a \u062b\u0644\u0627\u062b\u0648\u0646 \u062a\u0645\u0648\u0632", "name:ar1": "\u062d\u064a \u062b\u0644\u0627\u062b\u0648\u0646 \u062a\u0645\u0648\u0632", "name:de": "Hayy Thalathun Tammuz", "name:en": "Hayy Thalathun Tammuz", "name:fr": "Hayy Thalathun Tammuz", "place": "hamlet"}}, {"type": "node", "id": 2483912039, "lat": 32.878092, "lon": 44.344604, "tags": {"alt_name": "\u062d\u064a \u0663\u0660 \u062a\u0645\u0648\u0632", "is_in": "Iraq , \u062c\u0645\u0647\u0648\u0631\u064a\u0629 \u0627\u0644\u0639\u0631\u0627\u0642", "name": "\u062d\u064a \u0663\u0660 \u062a\u0645\u0648\u0632", "name:ar": "\u062d\u064a \u0663\u0660 \u062a\u0645\u0648\u0632", "name:ar1": "\u062d\u064a \u0663\u0660 \u062a\u0645\u0648\u0632", "place": "hamlet"}}, {"type": "node", "id": 2483912197, "lat": 32.9050167, "lon": 44.2825862, "tags": {"alt_name": "\u0639\u0631\u0628 \u0633\u0647\u064a\u0644 \u0646\u062c\u0645", "int_name": "Arab Suhayl Najm, \u0639\u0631\u0628 \u0633\u0647\u064a\u0644 \u0646\u062c\u0645, Arab Suhayl Najm, \u0639\u0631\u0628 \u0633\u0647\u064a\u0644 \u0646\u062c\u0645", "is_in": "Iraq , \u062c\u0645\u0647\u0648\u0631\u064a\u0629 \u0627\u0644\u0639\u0631\u0627\u0642", "name": "\u0639\u0631\u0628 \u0633\u0647\u064a\u0644 \u0646\u062c\u0645", "name:ar": "\u0639\u0631\u0628 \u0633\u0647\u064a\u0644 \u0646\u062c\u0645", "name:ar1": "\u0639\u0631\u0628 \u0633\u0647\u064a\u0644 \u0646\u062c\u0645", "name:de": "Arab Suhayl Najm", "name:en": "Arab Suhayl Najm", "name:fr": "Arab Suhayl Najm", "place": "village"}}, {"type": "node", "id": 2483912210, "lat": 32.9092441, "lon": 44.283709, "tags": {"alt_name": "\u062d\u0627\u0645\u062f \u0625\u0628\u0631\u0627\u0647\u064a\u0645", "int_name": "\u1e28\u0101mid Ibr\u0101h\u012bm, \u062d\u0627\u0645\u062f \u0627\u0628\u0631\u0627\u0647\u064a\u0645, Hamid Ibrahim, \u062d\u0627\u0645\u062f \u0627\u0628\u0631\u0627\u0647\u064a\u0645", "is_in": "Iraq , \u062c\u0645\u0647\u0648\u0631\u064a\u0629 \u0627\u0644\u0639\u0631\u0627\u0642", "name": "\u062d\u0627\u0645\u062f \u0625\u0628\u0631\u0627\u0647\u064a\u0645", "name:ar": "\u062d\u0627\u0645\u062f \u0625\u0628\u0631\u0627\u0647\u064a\u0645", "name:ar1": "\u062d\u0627\u0645\u062f \u0625\u0628\u0631\u0627\u0647\u064a\u0645", "name:de": "Hamid Ibrahim", "name:en": "Hamid Ibrahim", "name:fr": "Hamid Ibrahim", "place": "village"}}, {"type": "node", "id": 2483912217, "lat": 32.9022384, "lon": 44.2893873, "tags": {"alt_name": "\u062a\u0631\u0643\u064a \u0647\u0632\u0627\u0639", "int_name": "Turk\u012b Haz\u0101, \u062a\u0631\u0643\u064a \u0647\u0632\u0627\u0639, Turki Haza, \u062a\u0631\u0643\u064a \u0647\u0632\u0627\u0639", "is_in": "Iraq , \u062c\u0645\u0647\u0648\u0631\u064a\u0629 \u0627\u0644\u0639\u0631\u0627\u0642", "name": "\u062a\u0631\u0643\u064a \u0647\u0632\u0627\u0639", "name:ar": "\u062a\u0631\u0643\u064a \u0647\u0632\u0627\u0639", "name:ar1": "\u062a\u0631\u0643\u064a \u0647\u0632\u0627\u0639", "name:de": "Turki Haza", "name:en": "Turki Haza", "name:fr": "Turki Haza", "place": "village"}}, {"type": "node", "id": 2483913766, "lat": 32.9894066, "lon": 44.4301463, "tags": {"alt_name": "\u0639\u0637\u064a\u0647 \u0631\u0627\u0636\u064a", "int_name": "\u0639\u0637\u064a\u0647 \u0631\u0627\u0636\u064a, \u0639\u0637\u064a\u0647 \u0631\u0627\u0636\u064a", "is_in": "Iraq , \u062c\u0645\u0647\u0648\u0631\u064a\u0629 \u0627\u0644\u0639\u0631\u0627\u0642", "name": "\u0639\u0637\u064a\u0647 \u0631\u0627\u0636\u064a", "name:ar": "\u0639\u0637\u064a\u0647 \u0631\u0627\u0636\u064a", "name:ar1": "\u0639\u0637\u064a\u0647 \u0631\u0627\u0636\u064a", "name:de": "\u0639\u0637\u064a\u0647 \u0631\u0627\u0636\u064a", "name:fr": "\u0639\u0637\u064a\u0647 \u0631\u0627\u0636\u064a", "place": "village"}}, {"type": "node", "id": 2485194142, "lat": 33.005625, "lon": 44.3673945, "tags": {"alt_name": "\u0627\u0644\u0644\u0637\u064a\u0641\u064a\u0629", "capital": "7", "int_name": "Al La\u0163\u012bf\u012byah, \u0627\u0644\u0644\u0637\u064a\u0641\u064a\u0629, Al Latifiyah, \u0627\u0644\u0644\u0637\u064a\u0641\u064a\u0629", "name": "\u0627\u0644\u0644\u0637\u064a\u0641\u064a\u0629", "name:ar": "\u0627\u0644\u0644\u0637\u064a\u0641\u064a\u0629", "name:de": "Al Latifiyah", "name:en": "Al Latifiyah", "name:fr": "Al Latifiyah", "place": "town", "wikidata": "Q2618795", "wikipedia": "en:Latifiya"}}, {"type": "node", "id": 2485194500, "lat": 33.004893, "lon": 44.2921701, "tags": {"alt_name": "\u0642\u0631\u064a\u0629 \u0643\u064a\u0644\u0648 \u0661\u0662", "int_name": "\u0642\u0631\u064a\u0629 \u0643\u064a\u0644\u0648 \u0661\u0662, \u0642\u0631\u064a\u0629 \u0643\u064a\u0644\u0648 \u0661\u0662", "is_in": "Iraq , \u062c\u0645\u0647\u0648\u0631\u064a\u0629 \u0627\u0644\u0639\u0631\u0627\u0642", "name": "\u0642\u0631\u064a\u0629 \u0643\u064a\u0644\u0648 \u0661\u0662", "name:ar": "\u0642\u0631\u064a\u0629 \u0643\u064a\u0644\u0648 \u0661\u0662", "place": "village"}}, {"type": "node", "id": 2485194501, "lat": 33.0051649, "lon": 44.3139459, "tags": {"alt_name": "\u0642\u0631\u064a\u0629 \u0643\u064a\u0644\u0648 \u0661\u0664", "int_name": "\u0642\u0631\u064a\u0629 \u0643\u064a\u0644\u0648 \u0661\u0664, \u0642\u0631\u064a\u0629 \u0643\u064a\u0644\u0648 \u0661\u0664", "is_in": "Iraq , \u062c\u0645\u0647\u0648\u0631\u064a\u0629 \u0627\u0644\u0639\u0631\u0627\u0642", "name": "\u0642\u0631\u064a\u0629 \u0643\u064a\u0644\u0648 \u0661\u0664", "name:ar": "\u0642\u0631\u064a\u0629 \u0643\u064a\u0644\u0648 \u0661\u0664", "name:ar1": "\u0642\u0631\u064a\u0629 \u0643\u064a\u0644\u0648 \u0661\u0664", "name:de": "\u0642\u0631\u064a\u0629 \u0643\u064a\u0644\u0648 \u0661\u0664", "name:fr": "\u0642\u0631\u064a\u0629 \u0643\u064a\u0644\u0648 \u0661\u0664", "place": "village"}}, {"type": "node", "id": 2485201352, "lat": 32.9668499, "lon": 44.3549833, "tags": {"alt_name": "\u0627\u0644\u0644\u0637\u064a\u0641\u064a\u0629", "int_name": "Al La\u0163\u012bf\u012byah, \u0627\u0644\u0644\u0637\u064a\u0641\u064a\u0629, Al Latifiyah, \u0627\u0644\u0644\u0637\u064a\u0641\u064a\u0629", "is_in": "Iraq , \u062c\u0645\u0647\u0648\u0631\u064a\u0629 \u0627\u0644\u0639\u0631\u0627\u0642", "name": "\u0627\u0644\u0644\u0637\u064a\u0641\u064a\u0629", "name:ar": "\u0627\u0644\u0644\u0637\u064a\u0641\u064a\u0629", "name:ar1": "\u0627\u0644\u0644\u0637\u064a\u0641\u064a\u0629", "name:de": "Al Latifiyah", "name:en": "Al Latifiyah", "name:fr": "Al Latifiyah", "place": "village"}}, {"type": "node", "id": 2485201488, "lat": 32.9646055, "lon": 44.3116091, "tags": {"alt_name": "\u0642\u0631\u064a\u0629 \u0628\u0632\u0627\u064a\u0632 \u0643\u064a\u0644\u0648 \u0662", "int_name": "\u0642\u0631\u064a\u0629 \u0628\u0632\u0627\u064a\u0632 \u0643\u064a\u0644\u0648 \u0662, \u0642\u0631\u064a\u0629 \u0628\u0632\u0627\u064a\u0632 \u0643\u064a\u0644\u0648 \u0662", "is_in": "Iraq , \u062c\u0645\u0647\u0648\u0631\u064a\u0629 \u0627\u0644\u0639\u0631\u0627\u0642", "name": "\u0642\u0631\u064a\u0629 \u0628\u0632\u0627\u064a\u0632 \u0643\u064a\u0644\u0648 \u0662", "name:ar": "\u0642\u0631\u064a\u0629 \u0628\u0632\u0627\u064a\u0632 \u0643\u064a\u0644\u0648 \u0662", "name:ar1": "\u0642\u0631\u064a\u0629 \u0628\u0632\u0627\u064a\u0632 \u0643\u064a\u0644\u0648 \u0662", "name:de": "\u0642\u0631\u064a\u0629 \u0628\u0632\u0627\u064a\u0632 \u0643\u064a\u0644\u0648 \u0662", "name:fr": "\u0642\u0631\u064a\u0629 \u0628\u0632\u0627\u064a\u0632 \u0643\u064a\u0644\u0648 \u0662", "place": "village"}}, {"type": "node", "id": 2485202689, "lat": 32.928597, "lon": 44.427289, "tags": {"alt_name": "\u0643\u0627\u0638\u0645 \u0646\u0627\u0635\u0631", "int_name": "K\u0101z\u0327im N\u0101\u015fir, \u0643\u0627\u0638\u0645 \u0646\u0627\u0635\u0631, Kazim Nasir, \u0643\u0627\u0638\u0645 \u0646\u0627\u0635\u0631", "is_in": "Iraq , \u062c\u0645\u0647\u0648\u0631\u064a\u0629 \u0627\u0644\u0639\u0631\u0627\u0642", "name": "\u0643\u0627\u0638\u0645 \u0646\u0627\u0635\u0631", "name:ar": "\u0643\u0627\u0638\u0645 \u0646\u0627\u0635\u0631", "name:ar1": "\u0643\u0627\u0638\u0645 \u0646\u0627\u0635\u0631", "name:de": "Kazim Nasir", "name:en": "Kazim Nasir", "name:fr": "Kazim Nasir", "place": "hamlet"}}, {"type": "node", "id": 2485202726, "lat": 32.923272, "lon": 44.41497, "tags": {"alt_name": "\u0646\u0639\u0645\u0647 \u0643\u0627\u0638\u0645", "int_name": "\u0646\u0639\u0645\u0647 \u0643\u0627\u0638\u0645, \u0646\u0639\u0645\u0647 \u0643\u0627\u0638\u0645", "is_in": "Iraq , \u062c\u0645\u0647\u0648\u0631\u064a\u0629 \u0627\u0644\u0639\u0631\u0627\u0642", "name": "\u0646\u0639\u0645\u0647 \u0643\u0627\u0638\u0645", "name:ar": "\u0646\u0639\u0645\u0647 \u0643\u0627\u0638\u0645", "name:ar1": "\u0646\u0639\u0645\u0647 \u0643\u0627\u0638\u0645", "name:de": "\u0646\u0639\u0645\u0647 \u0643\u0627\u0638\u0645", "name:fr": "\u0646\u0639\u0645\u0647 \u0643\u0627\u0638\u0645", "place": "village"}}, {"type": "node", "id": 2486220484, "lat": 32.676439, "lon": 44.477544, "tags": {"alt_name": "\u0639\u0631\u0628 \u0639\u0628\u0627\u0633 \u0627\u0644\u062f\u0645\u0627\u0645", "int_name": "Arab Abb\u0101s ad Damm\u0101m, \u0639\u0631\u0628 \u0639\u0628\u0627\u0633 \u0627\u0644\u062f\u0645\u0627\u0645, Arab Abbas ad Dammam, \u0639\u0631\u0628 \u0639\u0628\u0627\u0633 \u0627\u0644\u062f\u0645\u0627\u0645", "name": "\u0639\u0631\u0628 \u0639\u0628\u0627\u0633 \u0627\u0644\u062f\u0645\u0627\u0645", "name:ar": "\u0639\u0631\u0628 \u0639\u0628\u0627\u0633 \u0627\u0644\u062f\u0645\u0627\u0645", "name:de": "Arab Abbas ad Dammam", "name:en": "Arab Abbas ad Dammam", "name:fr": "Arab Abbas ad Dammam", "place": "village"}}, {"type": "node", "id": 2486220500, "lat": 32.685103, "lon": 44.46233, "tags": {"alt_name": "\u0642\u0631\u064a\u0629 \u0639\u0645\u064a\u0629 \u0639\u0627\u0635\u064a", "int_name": "Qaryat Am\u012byah \u0100\u015f\u012b, \u0642\u0631\u064a\u0629 \u0639\u0645\u064a\u0629 \u0639\u0627\u0635\u064a, Qaryat Amiyah Asi, \u0642\u0631\u064a\u0629 \u0639\u0645\u064a\u0629 \u0639\u0627\u0635\u064a", "name": "\u0642\u0631\u064a\u0629 \u0639\u0645\u064a\u0629 \u0639\u0627\u0635\u064a", "name:ar": "\u0642\u0631\u064a\u0629 \u0639\u0645\u064a\u0629 \u0639\u0627\u0635\u064a", "name:de": "Qaryat Amiyah Asi", "name:en": "Qaryat Amiyah Asi", "name:fr": "Qaryat Amiyah Asi", "place": "village"}}, {"type": "node", "id": 2486220503, "lat": 32.698361, "lon": 44.458252, "tags": {"alt_name": "\u0642\u0631\u064a\u0629 \u0627\u0644\u0628\u062f\u0639", "int_name": "Qaryat al Bid, \u0642\u0631\u064a\u0629 \u0627\u0644\u0628\u062f\u0639, Qaryat al Bid, \u0642\u0631\u064a\u0629 \u0627\u0644\u0628\u062f\u0639", "name": "\u0642\u0631\u064a\u0629 \u0627\u0644\u0628\u062f\u0639", "name:ar": "\u0642\u0631\u064a\u0629 \u0627\u0644\u0628\u062f\u0639", "name:de": "Qaryat al Bid", "name:en": "Qaryat al Bid", "name:fr": "Qaryat al Bid", "place": "village"}}, {"type": "node", "id": 2486220507, "lat": 32.671498, "lon": 44.428751, "tags": {"alt_name": "\u062a\u0644 \u0623\u0628\u0648 \u062e\u0645\u064a\u0633", "int_name": "Tall Ab\u016b Kham\u012bs, \u062a\u0644 \u0627\u0628\u0648 \u062e\u0645\u064a\u0633, Tall Abu Khamis, \u062a\u0644 \u0627\u0628\u0648 \u062e\u0645\u064a\u0633", "name": "\u062a\u0644 \u0623\u0628\u0648 \u062e\u0645\u064a\u0633", "name:ang": "Tall Abu Khamis", "name:ar": "\u062a\u0644 \u0623\u0628\u0648 \u062e\u0645\u064a\u0633", "name:ar1": "\u062a\u0644 \u0623\u0628\u0648 \u062e\u0645\u064a\u0633", "name:en": "Tall Abu Khamis", "name:fr": "Tall Abu Khamis", "place": "village"}}, {"type": "node", "id": 2486220509, "lat": 32.6917271, "lon": 44.4264843, "tags": {"alt_name": "\u0642\u0631\u064a\u0629 \u0627\u0644\u0633\u0639\u064a\u062f\u064a\u0629 \u0627\u0644\u062b\u0627\u0646\u064a\u0629", "int_name": "\u0642\u0631\u064a\u0629 \u0627\u0644\u0633\u0639\u064a\u062f\u064a\u0629 \u0627\u0644\u062b\u0627\u0646\u064a\u0629, \u0642\u0631\u064a\u0629 \u0627\u0644\u0633\u0639\u064a\u062f\u064a\u0629 \u0627\u0644\u062b\u0627\u0646\u064a\u0629", "name": "\u0642\u0631\u064a\u0629 \u0627\u0644\u0633\u0639\u064a\u062f\u064a\u0629 \u0627\u0644\u062b\u0627\u0646\u064a\u0629", "name:ar": "\u0642\u0631\u064a\u0629 \u0627\u0644\u0633\u0639\u064a\u062f\u064a\u0629 \u0627\u0644\u062b\u0627\u0646\u064a\u0629", "place": "village"}}, {"type": "node", "id": 2486247219, "lat": 32.725919, "lon": 44.484877, "tags": {"alt_name": "\u0642\u0631\u064a\u0629 \u0622\u0644 \u0628\u0648 \u062d\u0645\u064a\u0631", "int_name": "Qaryat \u0100lb\u016b \u1e28umayr, \u0642\u0631\u064a\u0629 \u0627\u0644\u0628\u0648 \u062d\u0645\u064a\u0631, Qaryat Albu Humayr, \u0642\u0631\u064a\u0629 \u0627\u0644\u0628\u0648 \u062d\u0645\u064a\u0631", "name": "\u0642\u0631\u064a\u0629 \u0622\u0644 \u0628\u0648 \u062d\u0645\u064a\u0631", "name:ar": "\u0642\u0631\u064a\u0629 \u0627\u0644\u062d\u0645\u064a\u0631\u064a", "name:ar1": "\u0642\u0631\u064a\u0629 \u0622\u0644 \u0628\u0648 \u062d\u0645\u064a\u0631", "name:de": "Qaryat Albu Humayr", "name:en": "Qaryat Albu Humayr", "name:fr": "Qaryat Albu Humayr", "name:ku": "\u0639\u0628\u062f\u0627\u0644\u0644\u0647 \u0627\u0644\u062d\u0645\u064a\u0631\u064a", "place": "village"}}, {"type": "node", "id": 2486247307, "lat": 32.8400749, "lon": 44.4743704, "tags": {"alt_name": "\u0645\u0637\u0627\u0631 \u062d\u0645\u064a\u062f", "int_name": "Ma\u0163ar \u1e28am\u012bd, Matar Hamid", "is_in": "Iraq , \u062c\u0645\u0647\u0648\u0631\u064a\u0629 \u0627\u0644\u0639\u0631\u0627\u0642", "name": "\u0645\u0637\u0627\u0631 \u062d\u0645\u064a\u062f", "name:ar": "\u0645\u0637\u0631 \u062d\u0645\u064a\u062f", "name:ar1": "\u0645\u0637\u0627\u0631 \u062d\u0645\u064a\u062f", "name:de": "Matar Hamid", "name:en": "Matar Hamid", "name:fr": "Matar Hamid", "place": "village"}}, {"type": "node", "id": 2486247312, "lat": 32.8324249, "lon": 44.4465467, "tags": {"alt_name": "\u0642\u0631\u064a\u0629 \u0645\u0648\u064a\u062d\u0644\u0647 \u0627\u0644\u0623\u0648\u0644\u0649", "int_name": "\u0642\u0631\u064a\u0629 \u0645\u0648\u064a\u062d\u0644\u0647 \u0627\u0644\u0627\u0648\u0644\u0649, \u0642\u0631\u064a\u0629 \u0645\u0648\u064a\u062d\u0644\u0647 \u0627\u0644\u0627\u0648\u0644\u0649", "name": "\u0642\u0631\u064a\u0629 \u0645\u0648\u064a\u062d\u0644\u0647 \u0627\u0644\u0623\u0648\u0644\u0649", "name:ar": "\u0642\u0631\u064a\u0629 \u0645\u0648\u064a\u062d\u0644\u0647 \u0627\u0644\u0623\u0648\u0644\u0649", "name:ar1": "\u0642\u0631\u064a\u0629 \u0645\u0648\u064a\u062d\u0644\u0647 \u0627\u0644\u0623\u0648\u0644\u0649", "name:de": "\u0642\u0631\u064a\u0629 \u0645\u0648\u064a\u062d\u0644\u0647 \u0627\u0644\u0627\u0648\u0644\u0649", "name:fr": "\u0642\u0631\u064a\u0629 \u0645\u0648\u064a\u062d\u0644\u0647 \u0627\u0644\u0627\u0648\u0644\u0649", "place": "village"}}, {"type": "node", "id": 2486248250, "lat": 32.801106, "lon": 44.407637, "tags": {"alt_name": "\u062d\u064a \u062a\u0648\u0646\u0633", "int_name": "\u1e28ayy T\u016bnis, \u062d\u064a \u062a\u0648\u0646\u0633, Hayy Tunis, \u062d\u064a \u062a\u0648\u0646\u0633", "name": "\u062d\u064a \u062a\u0648\u0646\u0633", "name:ar": "\u062d\u064a \u062a\u0648\u0646\u0633", "name:ar1": "\u062d\u064a \u062a\u0648\u0646\u0633", "name:de": "Hayy Tunis", "name:en": "Hayy Tunis", "name:fr": "Hayy Tunis", "name:ku": "abdullah", "place": "hamlet"}}, {"type": "node", "id": 2486249573, "lat": 32.8624651, "lon": 44.3003695, "tags": {"alt_name": "\u0639\u0631\u0628 \u062e\u0636\u064a\u0631 \u0627\u0644\u0646\u0635\u0627\u0631", "int_name": "Arab Khu\u1e11ayr an Na\u015f\u0101r, \u0639\u0631\u0628 \u062e\u0636\u064a\u0631 \u0627\u0644\u0646\u0635\u0627\u0631, Arab Khudayr an Nasar, \u0639\u0631\u0628 \u062e\u0636\u064a\u0631 \u0627\u0644\u0646\u0635\u0627\u0631", "is_in": "Iraq , \u062c\u0645\u0647\u0648\u0631\u064a\u0629 \u0627\u0644\u0639\u0631\u0627\u0642", "name": "\u0639\u0631\u0628 \u062e\u0636\u064a\u0631 \u0627\u0644\u0646\u0635\u0627\u0631", "name:ar": "\u0639\u0631\u0628 \u062e\u0636\u064a\u0631 \u0627\u0644\u0646\u0635\u0627\u0631", "name:ar1": "\u0639\u0631\u0628 \u062e\u0636\u064a\u0631 \u0627\u0644\u0646\u0635\u0627\u0631", "name:de": "Arab Khudayr an Nasar", "name:en": "Arab Khudayr an Nasar", "name:fr": "Arab Khudayr an Nasar", "place": "village"}}, {"type": "node", "id": 2486249575, "lat": 32.8576185, "lon": 44.2953417, "tags": {"alt_name": "\u0639\u0631\u0628 \u0631\u062d\u064a\u0645 \u0639\u0644\u064a\u0648\u064a", "int_name": "Arab Ra\u1e29\u012bm Alayw\u012b, \u0639\u0631\u0628 \u0631\u062d\u064a\u0645 \u0639\u0644\u064a\u0648\u064a, Arab Rahim Alaywi, \u0639\u0631\u0628 \u0631\u062d\u064a\u0645 \u0639\u0644\u064a\u0648\u064a", "is_in": "Iraq , \u062c\u0645\u0647\u0648\u0631\u064a\u0629 \u0627\u0644\u0639\u0631\u0627\u0642", "name": "\u0639\u0631\u0628 \u0631\u062d\u064a\u0645 \u0639\u0644\u064a\u0648\u064a", "name:ar": "\u0639\u0631\u0628 \u0631\u062d\u064a\u0645 \u0639\u0644\u064a\u0648\u064a", "name:ar1": "\u0639\u0631\u0628 \u0631\u062d\u064a\u0645 \u0639\u0644\u064a\u0648\u064a", "name:de": "Arab Rahim Alaywi", "name:en": "Arab Rahim Alaywi", "name:fr": "Arab Rahim Alaywi", "place": "village"}}, {"type": "node", "id": 2486249662, "lat": 32.80181, "lon": 44.2717675, "tags": {"alt_name": "\u0642\u0631\u064a\u0629 \u062d\u0633\u0646 \u0639\u0644\u064a \u0627\u0644\u0632\u064a\u062f", "int_name": "Qaryat \u1e28asan Al\u012b az Zayd, Qaryat Hasan Ali az Zayd", "name": "\u0642\u0631\u064a\u0629 \u062d\u0633\u0646 \u0639\u0644\u064a \u0627\u0644\u0632\u064a\u062f", "name:ar": "\u0642\u062a\u064a\u0628\u0629 \u0627\u0644\u062d\u0644\u0627\u0642", "name:ar1": "\u0642\u0631\u064a\u0629 \u062d\u0633\u0646 \u0639\u0644\u064a \u0627\u0644\u0632\u064a\u062f", "name:de": "Qaryat Hasan Ali az Zayd", "name:en": "Qaryat Hasan Ali az Zayd", "name:fr": "Qaryat Hasan Ali az Zayd", "place": "village"}}, {"type": "node", "id": 2486249669, "lat": 32.8553863, "lon": 44.2959586, "tags": {"alt_name": "\u0642\u0631\u064a\u0629 \u0627\u0644\u0645\u0639\u0627\u0645\u0631\u0629", "int_name": "Qaryat al Mu\u0101marah, \u0642\u0631\u064a\u0629 \u0627\u0644\u0645\u0639\u0627\u0645\u0631\u0647, Qaryat al Muamarah, \u0642\u0631\u064a\u0629 \u0627\u0644\u0645\u0639\u0627\u0645\u0631\u0647", "is_in": "Iraq , \u062c\u0645\u0647\u0648\u0631\u064a\u0629 \u0627\u0644\u0639\u0631\u0627\u0642", "name": "\u0642\u0631\u064a\u0629 \u0627\u0644\u0645\u0639\u0627\u0645\u0631\u0629", "name:ar": "\u0642\u0631\u064a\u0629 \u0627\u0644\u0645\u0639\u0627\u0645\u0631\u0629", "name:ar1": "\u0642\u0631\u064a\u0629 \u0627\u0644\u0645\u0639\u0627\u0645\u0631\u0629", "name:de": "Qaryat al Muamarah", "name:en": "Qaryat al Muamarah", "name:fr": "Qaryat al Muamarah", "place": "village"}}, {"type": "node", "id": 2486249676, "lat": 32.812498, "lon": 44.264317, "tags": {"alt_name": "\u0642\u0631\u064a\u0629 \u0627\u0644\u0645\u062a\u0642\u0627\u0639\u062f\u064a\u0646", "int_name": "Qaryat al Mutaq\u0101id\u012bn, \u0642\u0631\u064a\u0629 \u0627\u0644\u0645\u062a\u0642\u0627\u0639\u062f\u064a\u0646, Qaryat al Mutaqaidin, \u0642\u0631\u064a\u0629 \u0627\u0644\u0645\u062a\u0642\u0627\u0639\u062f\u064a\u0646", "name": "\u0642\u0631\u064a\u0629 \u0627\u0644\u0645\u062a\u0642\u0627\u0639\u062f\u064a\u0646", "name:ar": "\u0627\u0644\u062d\u0627\u0645\u064a\u0647", "name:ar1": "\u0642\u0631\u064a\u0629 \u0627\u0644\u0645\u062a\u0642\u0627\u0639\u062f\u064a\u0646", "name:de": "Qaryat al Mutaqaidin", "name:en": "Qaryat al Mutaqaidin", "name:fr": "Qaryat al Mutaqaidin", "place": "village"}}, {"type": "node", "id": 2486249704, "lat": 32.8030928, "lon": 44.2716491, "tags": {"alt_name": "\u0642\u0631\u064a\u0629 \u062d\u0633\u0646 \u0639\u0644\u064a \u0632\u064a\u062f", "int_name": "\u0642\u0631\u064a\u0629 \u062d\u0633\u0646 \u0639\u0644\u064a \u0632\u064a\u062f, \u0642\u0631\u064a\u0629 \u062d\u0633\u0646 \u0639\u0644\u064a \u0632\u064a\u062f", "name": "\u0642\u0631\u064a\u0629 \u062d\u0633\u0646 \u0639\u0644\u064a \u0632\u064a\u062f", "name:ar1": "\u0642\u0631\u064a\u0629 \u062d\u0633\u0646 \u0639\u0644\u064a \u0632\u064a\u062f", "name:en": "Hassan Ali Zayed Village", "place": "village"}}, {"type": "node", "id": 2486327118, "lat": 32.9919697, "lon": 44.1734711, "tags": {"alt_name": "\u0642\u0631\u064a\u0629 \u0641\u062d\u064a\u0644 \u0623\u0645 \u0627\u0644\u062e\u064a\u0631", "int_name": "Qaryat Fu\u1e29ayl Umm al Khayr, \u0642\u0631\u064a\u0629 \u0641\u062d\u064a\u0644 \u0627\u0645 \u0627\u0644\u062e\u064a\u0631, Qaryat Fuhayl Umm al Khayr, \u0642\u0631\u064a\u0629 \u0641\u062d\u064a\u0644 \u0627\u0645 \u0627\u0644\u062e\u064a\u0631", "is_in": "Iraq , \u062c\u0645\u0647\u0648\u0631\u064a\u0629 \u0627\u0644\u0639\u0631\u0627\u0642", "name": "\u0642\u0631\u064a\u0629 \u0641\u062d\u064a\u0644 \u0623\u0645 \u0627\u0644\u062e\u064a\u0631", "name:ar": "\u0642\u0631\u064a\u0629 \u0641\u062d\u064a\u0644 \u0623\u0645 \u0627\u0644\u062e\u064a\u0631", "name:ar1": "\u0642\u0631\u064a\u0629 \u0641\u062d\u064a\u0644 \u0623\u0645 \u0627\u0644\u062e\u064a\u0631", "name:de": "Qaryat Fuhayl Umm al Khayr", "name:en": "Qaryat Fuhayl Umm al Khayr", "name:fr": "Qaryat Fuhayl Umm al Khayr", "place": "village"}}, {"type": "node", "id": 2486327146, "lat": 32.9867691, "lon": 44.1812289, "tags": {"alt_name": "\u0634\u064a\u062e \u0628\u064a\u0648\u062a\u064a", "int_name": "Shaykh Biy\u016bt\u012b, Shaykh Biyuti", "is_in": "Iraq , \u062c\u0645\u0647\u0648\u0631\u064a\u0629 \u0627\u0644\u0639\u0631\u0627\u0642", "name": "\u0634\u064a\u062e \u0628\u064a\u0648\u062a\u064a", "name:ar": "\u0634\u064a\u062e \u0628\u064a\u0648\u062a\u064a", "name:ar1": "\u0634\u064a\u062e \u0628\u064a\u0648\u062a\u064a", "name:de": "Shaykh Biyuti", "name:en": "Shaykh Biyuti", "name:fr": "Shaykh Biyuti", "place": "village"}}, {"type": "node", "id": 2486329363, "lat": 32.862204, "lon": 44.365513, "tags": {"alt_name": "\u0639\u0628\u062f \u0627\u0644\u0644\u0647 \u0627\u0644\u0639\u0632\u064a\u0632", "int_name": "Abdullahalhumairi", "is_in": "Iraq , \u062c\u0645\u0647\u0648\u0631\u064a\u0629 \u0627\u0644\u0639\u0631\u0627\u0642", "name": "\u0639\u0628\u062f \u0627\u0644\u0644\u0647 \u0627\u0644\u0639\u0632\u064a\u0632", "name:ar": "Abdullahalhumairi", "name:ar1": "\u0639\u0628\u062f \u0627\u0644\u0644\u0647 \u0627\u0644\u0639\u0632\u064a\u0632", "name:de": "Abdullahalhumairi", "name:en": "Abdullahalhumairi", "name:fr": "Abdullahalhumairi", "name:ku-Arab": "\u0645\u0634\u0631\u0648\u0639 \u0627\u0644\u0645\u0633\u064a\u0628", "place": "village"}}, {"type": "node", "id": 2486329817, "lat": 32.900923, "lon": 44.208818, "tags": {"alt_name": "\u0647\u0627\u062f\u064a \u0645\u062d\u0645\u062f", "int_name": "H\u0101d\u012b Mu\u1e29ammad, \u0647\u0627\u062f\u064a \u0645\u062d\u0645\u062f, Hadi Muhammad, \u0647\u0627\u062f\u064a \u0645\u062d\u0645\u062f", "is_in": "Iraq , \u062c\u0645\u0647\u0648\u0631\u064a\u0629 \u0627\u0644\u0639\u0631\u0627\u0642", "name": "\u0647\u0627\u062f\u064a \u0645\u062d\u0645\u062f", "name:ar": "\u0645\u062f\u0631\u0633\u0629", "name:ar1": "\u0647\u0627\u062f\u064a \u0645\u062d\u0645\u062f", "name:de": "Hadi Muhammad", "name:en": "Hadi Muhammad", "name:fr": "Hadi Muhammad", "place": "village"}}, {"type": "node", "id": 2486329955, "lat": 32.8681523, "lon": 44.2159436, "tags": {"alt_name": "\u062c\u0631\u0641 \u0627\u0644\u0635\u062e\u0631;N\u0101\u1e29iyat Jurf a\u015f \u015eakhr, \u0646\u0627\u062d\u064a\u0629 \u062c\u0631\u0641 \u0627\u0644\u0635\u062e\u0631, Nahiyat Jurf as Sakhr, \u0646\u0627\u062d\u064a\u0629 \u062c\u0631\u0641 \u0627\u0644\u0635\u062e\u0631;Jurf as Sakhr;\u0646\u0627\u062d\u064a\u0629 \u062c\u0631\u0641 \u0627\u0644\u0635\u062e\u0631", "capital": "7", "int_name": "Jurf a\u015f \u015eakhr, \u062c\u0631\u0641 \u0627\u0644\u0635\u062e\u0631, Jurf as Sakhr, \u062c\u0631\u0641 \u0627\u0644\u0635\u062e\u0631", "is_in": "Iraq , \u062c\u0645\u0647\u0648\u0631\u064a\u0629 \u0627\u0644\u0639\u0631\u0627\u0642", "name": "\u062c\u0631\u0641 \u0627\u0644\u0635\u062e\u0631", "name:ar": "\u062c\u0631\u0641 \u0627\u0644\u0646\u0635\u0631", "name:de": "Jurf as Sakhr", "name:en": "Jurf Al-Sakhar", "name:fr": "Jurf as Sakhr", "place": "town", "wikidata": "Q6315043", "wikipedia": "en:Jurf Al Nasr"}}, {"type": "node", "id": 2486330377, "lat": 32.8932794, "lon": 44.2877526, "tags": {"alt_name": "\u0642\u0631\u064a\u0629 \u0627\u0644\u062c\u0631\u0627\u0634\u064a\u0629", "int_name": "Qaryat al Jar\u0101sh\u012byah, \u0642\u0631\u064a\u0629 \u0627\u0644\u062c\u0631\u0627\u0634\u064a\u0629, Qaryat al Jarashiyah, \u0642\u0631\u064a\u0629 \u0627\u0644\u062c\u0631\u0627\u0634\u064a\u0629", "is_in": "Iraq , \u062c\u0645\u0647\u0648\u0631\u064a\u0629 \u0627\u0644\u0639\u0631\u0627\u0642", "name": "\u0642\u0631\u064a\u0629 \u0627\u0644\u062c\u0631\u0627\u0634\u064a\u0629", "name:ar": "\u0642\u0631\u064a\u0629 \u0627\u0644\u062c\u0631\u0627\u0634\u064a\u0629", "name:ar1": "\u0642\u0631\u064a\u0629 \u0627\u0644\u062c\u0631\u0627\u0634\u064a\u0629", "name:de": "Qaryat al Jarashiyah", "name:en": "Qaryat al Jarashiyah", "name:fr": "Qaryat al Jarashiyah", "place": "village"}}, {"type": "node", "id": 2486330495, "lat": 32.8525804, "lon": 44.2193287, "tags": {"alt_name": "\u0635\u0646\u064a\u062f\u064a\u0642", "int_name": "Sunaid\u012bj, \u015eunaydij, \u015eunayd\u012bq, Sunaidij, Sunaydij, Sunaydiq", "is_in": "Iraq , \u062c\u0645\u0647\u0648\u0631\u064a\u0629 \u0627\u0644\u0639\u0631\u0627\u0642", "name": "\u0635\u0646\u064a\u062f\u064a\u0642", "name:ar": "\u0635\u0646\u064a\u062f\u064a\u0642", "name:ar1": "\u0635\u0646\u064a\u062f\u064a\u0642", "name:de": "Sunaidij", "name:en": "Sunaidij", "name:fr": "Sunaidij", "place": "village"}}, {"type": "node", "id": 2486330550, "lat": 33.0075203, "lon": 44.2775357, "tags": {"alt_name": "\u062b\u0627\u0645\u0631 \u0627\u0644\u0647\u0632\u0627\u0639", "int_name": "Th\u0101mir al Haz\u0101, \u062b\u0627\u0645\u0631 \u0627\u0644\u0647\u0632\u0627\u0639, Thamir al Haza, \u062b\u0627\u0645\u0631 \u0627\u0644\u0647\u0632\u0627\u0639", "is_in": "Iraq , \u062c\u0645\u0647\u0648\u0631\u064a\u0629 \u0627\u0644\u0639\u0631\u0627\u0642", "name": "\u062b\u0627\u0645\u0631 \u0627\u0644\u0647\u0632\u0627\u0639", "name:ar": "\u062b\u0627\u0645\u0631 \u0627\u0644\u0647\u0632\u0627\u0639", "name:ar1": "\u062b\u0627\u0645\u0631 \u0627\u0644\u0647\u0632\u0627\u0639", "name:de": "Thamir al Haza", "name:en": "Thamir al Haza", "name:fr": "Thamir al Haza", "place": "village"}}, {"type": "node", "id": 2486331028, "lat": 32.866111, "lon": 44.529722, "tags": {"alt_name": "\u0639\u0628\u0627\u0633 \u0627\u0644\u0639\u0627\u0628\u062f", "int_name": "Abb\u0101s al \u0100bid, Abbas al Abid", "is_in": "Iraq , \u062c\u0645\u0647\u0648\u0631\u064a\u0629 \u0627\u0644\u0639\u0631\u0627\u0642", "name": "\u0639\u0628\u0627\u0633 \u0627\u0644\u0639\u0627\u0628\u062f", "name:ar": "\u0639\u0628\u0627\u0633 \u0627\u0644\u0639\u0627\u0628\u062f", "name:ar1": "\u0639\u0628\u0627\u0633 \u0627\u0644\u0639\u0627\u0628\u062f", "name:de": "Abbas al Abid", "name:en": "Abbas al Abid", "name:fr": "Abbas al Abid", "place": "hamlet"}}, {"type": "node", "id": 2486331034, "lat": 32.901246, "lon": 44.43772, "tags": {"alt_name": "\u0639\u0628\u062f \u0627\u0644\u0644\u0647 \u0627\u0644\u0631\u0648\u0643\u0627\u0646", "int_name": "Abd All\u0101h ar R\u016bk\u0101n, \u0639\u0628\u062f \u0627\u0644\u0644\u0647 \u0627\u0644\u0631\u0648\u0643\u0627\u0646, Abd Allah ar Rukan, \u0639\u0628\u062f \u0627\u0644\u0644\u0647 \u0627\u0644\u0631\u0648\u0643\u0627\u0646", "is_in": "Iraq , \u062c\u0645\u0647\u0648\u0631\u064a\u0629 \u0627\u0644\u0639\u0631\u0627\u0642", "name": "\u0639\u0628\u062f \u0627\u0644\u0644\u0647 \u0627\u0644\u0631\u0648\u0643\u0627\u0646", "name:ar": "\u0639\u0628\u062f \u0627\u0644\u0644\u0647 \u0627\u0644\u0631\u0648\u0643\u0627\u0646", "name:ar1": "\u0639\u0628\u062f \u0627\u0644\u0644\u0647 \u0627\u0644\u0631\u0648\u0643\u0627\u0646", "name:de": "Abd Allah ar Rukan", "name:en": "Abd Allah ar Rukan", "name:fr": "Abd Allah ar Rukan", "place": "hamlet"}}, {"type": "node", "id": 2486331036, "lat": 32.897988, "lon": 44.441611, "tags": {"alt_name": "\u0639\u0628\u062f \u062e\u0627\u062c\u064a", "int_name": "Abd Kh\u0101j\u012b, \u0639\u0628\u062f \u062e\u0627\u062c\u064a, Abd Khaji, \u0639\u0628\u062f \u062e\u0627\u062c\u064a", "is_in": "Iraq , \u062c\u0645\u0647\u0648\u0631\u064a\u0629 \u0627\u0644\u0639\u0631\u0627\u0642", "name": "\u0639\u0628\u062f \u062e\u0627\u062c\u064a", "name:ar": "\u0639\u0628\u062f \u062e\u0627\u062c\u064a", "name:ar1": "\u0639\u0628\u062f \u062e\u0627\u062c\u064a", "name:de": "Abd Khaji", "name:en": "Abd Khaji", "name:fr": "Abd Khaji", "place": "hamlet"}}, {"type": "node", "id": 2486331037, "lat": 32.909326, "lon": 44.476821, "tags": {"alt_name": "\u0639\u0628\u062f \u0633\u0631\u062d\u0627\u0646", "int_name": "Abd Sar\u1e29\u0101n, Abd Sarhan", "is_in": "Iraq , \u062c\u0645\u0647\u0648\u0631\u064a\u0629 \u0627\u0644\u0639\u0631\u0627\u0642", "name": "\u0639\u0628\u062f \u0633\u0631\u062d\u0627\u0646", "name:ar": "\u0639\u0628\u062f \u0633\u0631\u062d\u0627\u0646", "name:ar1": "\u0639\u0628\u062f \u0633\u0631\u062d\u0627\u0646", "name:de": "Abd Sarhan", "name:en": "Abd Sarhan", "name:fr": "Abd Sarhan", "place": "hamlet"}}, {"type": "node", "id": 2486331047, "lat": 32.894808, "lon": 44.408196, "tags": {"alt_name": "\u0639\u0628\u062f \u0627\u0644\u0639\u0628\u062f \u0627\u0644\u0644\u0647", "int_name": "Abd al Abd All\u0101h, \u0639\u0628\u062f \u0627\u0644\u0639\u0628\u062f \u0627\u0644\u0644\u0647, Abd al Abd Allah, \u0639\u0628\u062f \u0627\u0644\u0639\u0628\u062f \u0627\u0644\u0644\u0647", "is_in": "Iraq , \u062c\u0645\u0647\u0648\u0631\u064a\u0629 \u0627\u0644\u0639\u0631\u0627\u0642", "name": "\u0639\u0628\u062f \u0627\u0644\u0639\u0628\u062f \u0627\u0644\u0644\u0647", "name:ar": "\u0639\u0628\u062f \u0627\u0644\u0639\u0628\u062f \u0627\u0644\u0644\u0647", "name:ar1": "\u0639\u0628\u062f \u0627\u0644\u0639\u0628\u062f \u0627\u0644\u0644\u0647", "name:de": "Abd al Abd Allah", "name:en": "Abd al Abd Allah", "name:fr": "Abd al Abd Allah", "place": "hamlet"}}, {"type": "node", "id": 2486331069, "lat": 32.870618, "lon": 44.499406, "tags": {"alt_name": "\u0623\u062d\u0645\u062f \u0641\u064a\u0627\u0636", "int_name": "A\u1e29mad Fayy\u0101\u1e11, \u0627\u062d\u0645\u062f \u0641\u064a\u0627\u0636, Ahmad Fayyad, \u0627\u062d\u0645\u062f \u0641\u064a\u0627\u0636", "is_in": "Iraq , \u062c\u0645\u0647\u0648\u0631\u064a\u0629 \u0627\u0644\u0639\u0631\u0627\u0642", "name": "\u0623\u062d\u0645\u062f \u0641\u064a\u0627\u0636", "name:ar": "\u0623\u062d\u0645\u062f \u0641\u064a\u0627\u0636", "name:ar1": "\u0623\u062d\u0645\u062f \u0641\u064a\u0627\u0636", "name:de": "Ahmad Fayyad", "name:en": "Ahmad Fayyad", "name:fr": "Ahmad Fayyad", "place": "hamlet"}}, {"type": "node", "id": 2486331090, "lat": 32.881819, "lon": 44.491425, "tags": {"alt_name": "\u0627\u0644\u0644\u0637\u064a\u0641\u064a\u0629", "int_name": "Al La\u0163\u012bf\u012byah, \u0627\u0644\u0644\u0637\u064a\u0641\u064a\u0629, Al Latifiyah, \u0627\u0644\u0644\u0637\u064a\u0641\u064a\u0629", "is_in": "Iraq , \u062c\u0645\u0647\u0648\u0631\u064a\u0629 \u0627\u0644\u0639\u0631\u0627\u0642", "name": "\u0627\u0644\u0644\u0637\u064a\u0641\u064a\u0629", "name:ar": "\u0627\u0644\u0644\u0637\u064a\u0641\u064a\u0629/\u0645\u062f\u0631\u0633\u0629 \u062c\u0645\u0627\u0644 \u0639\u0628\u062f \u0627\u0644\u0646\u0627\u0635\u0631", "name:ar1": "\u0627\u0644\u0644\u0637\u064a\u0641\u064a\u0629", "name:de": "Al Latifiyah", "name:en": "Al Latifiyah", "name:fr": "Al Latifiyah", "place": "hamlet"}}, {"type": "node", "id": 2486331113, "lat": 32.896678, "lon": 44.451972, "tags": {"alt_name": "\u0639\u0644\u064a \u0639\u0628\u0627\u0633", "int_name": "Al\u012b Abb\u0101s, \u0639\u0644\u064a \u0639\u0628\u0627\u0633, Ali Abbas, \u0639\u0644\u064a \u0639\u0628\u0627\u0633", "is_in": "Iraq , \u062c\u0645\u0647\u0648\u0631\u064a\u0629 \u0627\u0644\u0639\u0631\u0627\u0642", "name": "\u0639\u0644\u064a \u0639\u0628\u0627\u0633", "name:ar": "\u0639\u0644\u064a \u0639\u0628\u0627\u0633", "name:ar1": "\u0639\u0644\u064a \u0639\u0628\u0627\u0633", "name:de": "Ali Abbas", "name:en": "Ali Abbas", "name:fr": "Ali Abbas", "place": "hamlet"}}, {"type": "node", "id": 2486331130, "lat": 32.914796, "lon": 44.448537, "tags": {"alt_name": "\u0639\u0644\u064a \u0627\u0644\u0645\u062f\u0644\u0644", "int_name": "Ali al Mudalal, \u0639\u0644\u064a \u0627\u0644\u0645\u062f\u0644\u0644, Ali al Mudalal, \u0639\u0644\u064a \u0627\u0644\u0645\u062f\u0644\u0644", "is_in": "Iraq , \u062c\u0645\u0647\u0648\u0631\u064a\u0629 \u0627\u0644\u0639\u0631\u0627\u0642", "name": "\u0639\u0644\u064a \u0627\u0644\u0645\u062f\u0644\u0644", "name:ar": "\u0639\u0644\u064a \u0627\u0644\u0645\u062f\u0644\u0644", "name:ar1": "\u0639\u0644\u064a \u0627\u0644\u0645\u062f\u0644\u0644", "name:de": "Ali al Mudalal", "name:en": "Ali al Mudalal", "name:fr": "Ali al Mudalal", "place": "hamlet"}}, {"type": "node", "id": 2486331138, "lat": 32.909167, "lon": 44.460833, "tags": {"alt_name": "\u0627\u0644\u0631\u062d\u064a\u0645", "int_name": "Ar Ra\u1e29\u012bm, Ar Rahim", "is_in": "Iraq , \u062c\u0645\u0647\u0648\u0631\u064a\u0629 \u0627\u0644\u0639\u0631\u0627\u0642", "name": "\u0627\u0644\u0631\u062d\u064a\u0645", "name:ar": "\u0627\u0644\u0631\u062d\u064a\u0645", "name:ar1": "\u0627\u0644\u0631\u062d\u064a\u0645", "name:de": "Ar Rahim", "name:en": "Ar Rahim", "name:fr": "Ar Rahim", "place": "hamlet"}}, {"type": "node", "id": 2486331164, "lat": 32.906879, "lon": 44.508636, "tags": {"alt_name": "\u0639\u0631\u0628 \u0639\u0628\u062f \u062c\u0648\u0627\u062f", "int_name": "Arab Abd Jaw\u0101d, \u0639\u0631\u0628 \u0639\u0628\u062f \u062c\u0648\u0627\u062f, Arab Abd Jawad, \u0639\u0631\u0628 \u0639\u0628\u062f \u062c\u0648\u0627\u062f", "is_in": "Iraq , \u062c\u0645\u0647\u0648\u0631\u064a\u0629 \u0627\u0644\u0639\u0631\u0627\u0642", "name": "\u0639\u0631\u0628 \u0639\u0628\u062f \u062c\u0648\u0627\u062f", "name:ar": "\u0639\u0631\u0628 \u0639\u0628\u062f \u062c\u0648\u0627\u062f", "name:ar1": "\u0639\u0631\u0628 \u0639\u0628\u062f \u062c\u0648\u0627\u062f", "name:de": "Arab Abd Jawad", "name:en": "Arab Abd Jawad", "name:fr": "Arab Abd Jawad", "place": "hamlet"}}, {"type": "node", "id": 2486331172, "lat": 32.89859, "lon": 44.485476, "tags": {"alt_name": "\u0639\u0631\u0628 \u0623\u062d\u0645\u062f \u0627\u0644\u062d\u0644\u0648", "int_name": "Arab A\u1e29mad al \u1e28ul\u016b, \u0639\u0631\u0628 \u0627\u062d\u0645\u062f \u0627\u0644\u062d\u0644\u0648, Arab Ahmad al Hulu, \u0639\u0631\u0628 \u0627\u062d\u0645\u062f \u0627\u0644\u062d\u0644\u0648", "is_in": "Iraq , \u062c\u0645\u0647\u0648\u0631\u064a\u0629 \u0627\u0644\u0639\u0631\u0627\u0642", "name": "\u0639\u0631\u0628 \u0623\u062d\u0645\u062f \u0627\u0644\u062d\u0644\u0648", "name:ar": "\u0639\u0631\u0628 \u0623\u062d\u0645\u062f \u0627\u0644\u062d\u0644\u0648", "name:ar1": "\u0639\u0631\u0628 \u0623\u062d\u0645\u062f \u0627\u0644\u062d\u0644\u0648", "name:de": "Arab Ahmad al Hulu", "name:en": "Arab Ahmad al Hulu", "name:fr": "Arab Ahmad al Hulu", "place": "hamlet"}}, {"type": "node", "id": 2486331178, "lat": 32.905877, "lon": 44.528269, "tags": {"alt_name": "\u0639\u0631\u0628 \u0647\u0627\u062f\u064a \u0645\u0648\u0633\u0649", "int_name": "Arab H\u0101d\u012b M\u016bs\u00e1, \u0639\u0631\u0628 \u0647\u0627\u062f\u064a \u0645\u0648\u0633\u0649, Arab Hadi Musa, \u0639\u0631\u0628 \u0647\u0627\u062f\u064a \u0645\u0648\u0633\u0649", "is_in": "Iraq , \u062c\u0645\u0647\u0648\u0631\u064a\u0629 \u0627\u0644\u0639\u0631\u0627\u0642", "name": "\u0639\u0631\u0628 \u0647\u0627\u062f\u064a \u0645\u0648\u0633\u0649", "name:ar": "\u0639\u0631\u0628 \u0647\u0627\u062f\u064a \u0645\u0648\u0633\u0649", "name:ar1": "\u0639\u0631\u0628 \u0647\u0627\u062f\u064a \u0645\u0648\u0633\u0649", "name:de": "Arab Hadi Musa", "name:en": "Arab Hadi Musa", "name:fr": "Arab Hadi Musa", "place": "hamlet"}}, {"type": "node", "id": 2486331184, "lat": 32.906554, "lon": 44.45822, "tags": {"alt_name": "\u0639\u0631\u0628 \u062d\u0645\u0648\u062f \u0639\u0628\u062f", "int_name": "Arab \u1e28am\u016bd Abd, \u0639\u0631\u0628 \u062d\u0645\u0648\u062f \u0639\u0628\u062f, Arab Hamud Abd, \u0639\u0631\u0628 \u062d\u0645\u0648\u062f \u0639\u0628\u062f", "is_in": "Iraq , \u062c\u0645\u0647\u0648\u0631\u064a\u0629 \u0627\u0644\u0639\u0631\u0627\u0642", "name": "\u0639\u0631\u0628 \u062d\u0645\u0648\u062f \u0639\u0628\u062f", "name:ar": "\u0639\u0631\u0628 \u062d\u0645\u0648\u062f \u0639\u0628\u062f", "name:ar1": "\u0639\u0631\u0628 \u062d\u0645\u0648\u062f \u0639\u0628\u062f", "name:de": "Arab Hamud Abd", "name:en": "Arab Hamud Abd", "name:fr": "Arab Hamud Abd", "place": "hamlet"}}, {"type": "node", "id": 2486331187, "lat": 32.902357, "lon": 44.459119, "tags": {"alt_name": "\u0639\u0631\u0628 \u062d\u0633\u0646 \u0646\u0635\u0646\u0628", "int_name": "Arab \u1e28asan Na\u015fnab, \u0639\u0631\u0628 \u062d\u0633\u0646 \u0646\u0635\u0646\u0628, Arab Hasan Nasnab, \u0639\u0631\u0628 \u062d\u0633\u0646 \u0646\u0635\u0646\u0628", "is_in": "Iraq , \u062c\u0645\u0647\u0648\u0631\u064a\u0629 \u0627\u0644\u0639\u0631\u0627\u0642", "name": "\u0639\u0631\u0628 \u062d\u0633\u0646 \u0646\u0635\u0646\u0628", "name:ar": "\u0639\u0631\u0628 \u062d\u0633\u0646 \u0646\u0635\u0646\u0628", "name:ar1": "\u0639\u0631\u0628 \u062d\u0633\u0646 \u0646\u0635\u0646\u0628", "name:de": "Arab Hasan Nasnab", "name:en": "Arab Hasan Nasnab", "name:fr": "Arab Hasan Nasnab", "place": "hamlet"}}, {"type": "node", "id": 2486331190, "lat": 32.876703, "lon": 44.531005, "tags": {"alt_name": "\u0639\u0631\u0628 \u062d\u0633\u064a\u0646 \u0639\u0644\u064a", "int_name": "Arab \u1e28usayn Al\u012b, \u0639\u0631\u0628 \u062d\u0633\u064a\u0646 \u0639\u0644\u064a, Arab Husayn Ali, \u0639\u0631\u0628 \u062d\u0633\u064a\u0646 \u0639\u0644\u064a", "is_in": "Iraq , \u062c\u0645\u0647\u0648\u0631\u064a\u0629 \u0627\u0644\u0639\u0631\u0627\u0642", "name": "\u0639\u0631\u0628 \u062d\u0633\u064a\u0646 \u0639\u0644\u064a", "name:ar": "\u0639\u0631\u0628 \u062d\u0633\u064a\u0646 \u0639\u0644\u064a", "name:ar1": "\u0639\u0631\u0628 \u062d\u0633\u064a\u0646 \u0639\u0644\u064a", "name:de": "Arab Husayn Ali", "name:en": "Arab Husayn Ali", "name:fr": "Arab Husayn Ali", "place": "hamlet"}}, {"type": "node", "id": 2486331191, "lat": 32.927339, "lon": 44.555001, "tags": {"alt_name": "\u0639\u0631\u0628 \u062d\u0633\u064a\u0646 \u0627\u0644\u063a\u0627\u0644\u0628", "int_name": "Arab \u1e28usayn al Gh\u0101lib, \u0639\u0631\u0628 \u062d\u0633\u064a\u0646 \u0627\u0644\u063a\u0627\u0644\u0628, Arab Husayn al Ghalib, \u0639\u0631\u0628 \u062d\u0633\u064a\u0646 \u0627\u0644\u063a\u0627\u0644\u0628", "is_in": "Iraq , \u062c\u0645\u0647\u0648\u0631\u064a\u0629 \u0627\u0644\u0639\u0631\u0627\u0642", "name": "\u0639\u0631\u0628 \u062d\u0633\u064a\u0646 \u0627\u0644\u063a\u0627\u0644\u0628", "name:ar": "\u0639\u0631\u0628 \u062d\u0633\u064a\u0646 \u0627\u0644\u063a\u0627\u0644\u0628", "name:ar1": "\u0639\u0631\u0628 \u062d\u0633\u064a\u0646 \u0627\u0644\u063a\u0627\u0644\u0628", "name:de": "Arab Husayn al Ghalib", "name:en": "Arab Husayn al Ghalib", "name:fr": "Arab Husayn al Ghalib", "place": "hamlet"}}, {"type": "node", "id": 2486331192, "lat": 32.915327, "lon": 44.517434, "tags": {"alt_name": "\u0639\u0631\u0628 \u062d\u0633\u064a\u0646 \u0627\u0644\u062e\u0644\u0641", "int_name": "Arab \u1e28usayn al Khalaf, \u0639\u0631\u0628 \u062d\u0633\u064a\u0646 \u0627\u0644\u062e\u0644\u0641, Arab Husayn al Khalaf, \u0639\u0631\u0628 \u062d\u0633\u064a\u0646 \u0627\u0644\u062e\u0644\u0641", "is_in": "Iraq , \u062c\u0645\u0647\u0648\u0631\u064a\u0629 \u0627\u0644\u0639\u0631\u0627\u0642", "name": "\u0639\u0631\u0628 \u062d\u0633\u064a\u0646 \u0627\u0644\u062e\u0644\u0641", "name:ar": "\u0639\u0631\u0628 \u062d\u0633\u064a\u0646 \u0627\u0644\u062e\u0644\u0641", "name:ar1": "\u0639\u0631\u0628 \u062d\u0633\u064a\u0646 \u0627\u0644\u062e\u0644\u0641", "name:de": "Arab Husayn al Khalaf", "name:en": "Arab Husayn al Khalaf", "name:fr": "Arab Husayn al Khalaf", "place": "hamlet"}}, {"type": "node", "id": 2486331195, "lat": 32.887098, "lon": 44.479257, "tags": {"alt_name": "\u0639\u0631\u0628 \u0625\u0633\u0645\u0627\u0639\u064a\u0644 \u062f\u0639\u064a\u0628\u0644", "int_name": "Arab Ism\u0101\u012bl Duaybil, \u0639\u0631\u0628 \u0627\u0633\u0645\u0627\u0639\u064a\u0644 \u062f\u0639\u064a\u0628\u0644, Arab Ismail Duaybil, \u0639\u0631\u0628 \u0627\u0633\u0645\u0627\u0639\u064a\u0644 \u062f\u0639\u064a\u0628\u0644", "is_in": "Iraq , \u062c\u0645\u0647\u0648\u0631\u064a\u0629 \u0627\u0644\u0639\u0631\u0627\u0642", "name": "\u0639\u0631\u0628 \u0625\u0633\u0645\u0627\u0639\u064a\u0644 \u062f\u0639\u064a\u0628\u0644", "name:ar": "\u0639\u0631\u0628 \u0625\u0633\u0645\u0627\u0639\u064a\u0644 \u062f\u0639\u064a\u0628\u0644", "name:ar1": "\u0639\u0631\u0628 \u0625\u0633\u0645\u0627\u0639\u064a\u0644 \u062f\u0639\u064a\u0628\u0644", "name:de": "Arab Ismail Duaybil", "name:en": "Arab Ismail Duaybil", "name:fr": "Arab Ismail Duaybil", "place": "hamlet"}}, {"type": "node", "id": 2486331196, "lat": 32.867701, "lon": 44.418369, "tags": {"alt_name": "\u0639\u0631\u0628 \u0643\u0627\u0638\u0645 \u0639\u0644\u064a\u0648\u064a", "int_name": "Arab K\u0101z\u0327im Alayw\u012b, \u0639\u0631\u0628 \u0643\u0627\u0638\u0645 \u0639\u0644\u064a\u0648\u064a, Arab Kazim Alaywi, \u0639\u0631\u0628 \u0643\u0627\u0638\u0645 \u0639\u0644\u064a\u0648\u064a", "is_in": "Iraq , \u062c\u0645\u0647\u0648\u0631\u064a\u0629 \u0627\u0644\u0639\u0631\u0627\u0642", "name": "\u0639\u0631\u0628 \u0643\u0627\u0638\u0645 \u0639\u0644\u064a\u0648\u064a", "name:ar": "\u0639\u0631\u0628 \u0643\u0627\u0638\u0645 \u0639\u0644\u064a\u0648\u064a", "name:ar1": "\u0639\u0631\u0628 \u0643\u0627\u0638\u0645 \u0639\u0644\u064a\u0648\u064a", "name:de": "Arab Kazim Alaywi", "name:en": "Arab Kazim Alaywi", "name:fr": "Arab Kazim Alaywi", "place": "hamlet"}}, {"type": "node", "id": 2486331197, "lat": 32.880766, "lon": 44.472328, "tags": {"alt_name": "\u0639\u0631\u0628 \u062e\u0644\u0641 \u0627\u0644\u0639\u0648\u0627\u062f", "int_name": "Arab Khalaf al Aww\u0101d, \u0639\u0631\u0628 \u062e\u0644\u0641 \u0627\u0644\u0639\u0648\u0627\u062f, Arab Khalaf al Awwad, \u0639\u0631\u0628 \u062e\u0644\u0641 \u0627\u0644\u0639\u0648\u0627\u062f", "is_in": "Iraq , \u062c\u0645\u0647\u0648\u0631\u064a\u0629 \u0627\u0644\u0639\u0631\u0627\u0642", "name": "\u0639\u0631\u0628 \u062e\u0644\u0641 \u0627\u0644\u0639\u0648\u0627\u062f", "name:ar": "\u0639\u0631\u0628 \u062e\u0644\u0641 \u0627\u0644\u0639\u0648\u0627\u062f", "name:ar1": "\u0639\u0631\u0628 \u062e\u0644\u0641 \u0627\u0644\u0639\u0648\u0627\u062f", "name:de": "Arab Khalaf al Awwad", "name:en": "Arab Khalaf al Awwad", "name:fr": "Arab Khalaf al Awwad", "place": "hamlet"}}, {"type": "node", "id": 2486331198, "lat": 32.911445, "lon": 44.49496, "tags": {"alt_name": "\u0639\u0631\u0628 \u062e\u0627\u0644\u062f \u0639\u0644\u064a", "int_name": "Arab Kh\u0101lid Al\u012b, \u0639\u0631\u0628 \u062e\u0627\u0644\u062f \u0639\u0644\u064a, Arab Khalid Ali, \u0639\u0631\u0628 \u062e\u0627\u0644\u062f \u0639\u0644\u064a", "is_in": "Iraq , \u062c\u0645\u0647\u0648\u0631\u064a\u0629 \u0627\u0644\u0639\u0631\u0627\u0642", "name": "\u0639\u0631\u0628 \u062e\u0627\u0644\u062f \u0639\u0644\u064a", "name:ar": "\u0639\u0631\u0628 \u062e\u0627\u0644\u062f \u0639\u0644\u064a", "name:ar1": "\u0639\u0631\u0628 \u062e\u0627\u0644\u062f \u0639\u0644\u064a", "name:de": "Arab Khalid Ali", "name:en": "Arab Khalid Ali", "name:fr": "Arab Khalid Ali", "place": "hamlet"}}, {"type": "node", "id": 2486331200, "lat": 32.905387, "lon": 44.495483, "tags": {"alt_name": "\u0639\u0631\u0628 \u062e\u0636\u064a\u0631 \u0639\u0644\u064a\u0648\u064a", "int_name": "Arab Khu\u1e11ayr Alayw\u012b, \u0639\u0631\u0628 \u062e\u0636\u064a\u0631 \u0639\u0644\u064a\u0648\u064a, Arab Khudayr Alaywi, \u0639\u0631\u0628 \u062e\u0636\u064a\u0631 \u0639\u0644\u064a\u0648\u064a", "is_in": "Iraq , \u062c\u0645\u0647\u0648\u0631\u064a\u0629 \u0627\u0644\u0639\u0631\u0627\u0642", "name": "\u0639\u0631\u0628 \u062e\u0636\u064a\u0631 \u0639\u0644\u064a\u0648\u064a", "name:ar": "\u0639\u0631\u0628 \u062e\u0636\u064a\u0631 \u0639\u0644\u064a\u0648\u064a", "name:ar1": "\u0639\u0631\u0628 \u062e\u0636\u064a\u0631 \u0639\u0644\u064a\u0648\u064a", "name:de": "Arab Khudayr Alaywi", "name:en": "Arab Khudayr Alaywi", "name:fr": "Arab Khudayr Alaywi", "place": "hamlet"}}, {"type": "node", "id": 2486331201, "lat": 32.917582, "lon": 44.433437, "tags": {"alt_name": "\u0639\u0631\u0628 \u062e\u0636\u064a\u0631 \u0627\u0644\u062d\u0645\u062f", "int_name": "Arab Khu\u1e11ayr al \u1e28amad, \u0639\u0631\u0628 \u062e\u0636\u064a\u0631 \u0627\u0644\u062d\u0645\u062f, Arab Khudayr al Hamad, \u0639\u0631\u0628 \u062e\u0636\u064a\u0631 \u0627\u0644\u062d\u0645\u062f", "is_in": "Iraq , \u062c\u0645\u0647\u0648\u0631\u064a\u0629 \u0627\u0644\u0639\u0631\u0627\u0642", "name": "\u0639\u0631\u0628 \u062e\u0636\u064a\u0631 \u0627\u0644\u062d\u0645\u062f", "name:ar": "\u0639\u0631\u0628 \u062e\u0636\u064a\u0631 \u0627\u0644\u062d\u0645\u062f", "name:ar1": "\u0639\u0631\u0628 \u062e\u0636\u064a\u0631 \u0627\u0644\u062d\u0645\u062f", "name:de": "Arab Khudayr al Hamad", "name:en": "Arab Khudayr al Hamad", "name:fr": "Arab Khudayr al Hamad", "place": "hamlet"}}, {"type": "node", "id": 2486331203, "lat": 32.913647, "lon": 44.481915, "tags": {"alt_name": "\u0639\u0631\u0628 \u0646\u062d\u0645 \u0631\u064a\u062d\u0627\u0646", "int_name": "Arab Na\u1e29m R\u012b\u1e29\u0101n, \u0639\u0631\u0628 \u0646\u062d\u0645 \u0631\u064a\u062d\u0627\u0646, Arab Nahm Rihan, \u0639\u0631\u0628 \u0646\u062d\u0645 \u0631\u064a\u062d\u0627\u0646", "is_in": "Iraq , \u062c\u0645\u0647\u0648\u0631\u064a\u0629 \u0627\u0644\u0639\u0631\u0627\u0642", "name": "\u0639\u0631\u0628 \u0646\u062d\u0645 \u0631\u064a\u062d\u0627\u0646", "name:ar": "\u0639\u0631\u0628 \u0646\u062d\u0645 \u0631\u064a\u062d\u0627\u0646", "name:ar1": "\u0639\u0631\u0628 \u0646\u062d\u0645 \u0631\u064a\u062d\u0627\u0646", "name:de": "Arab Nahm Rihan", "name:en": "Arab Nahm Rihan", "name:fr": "Arab Nahm Rihan", "place": "hamlet"}}, {"type": "node", "id": 2486331207, "lat": 32.923602, "lon": 44.462373, "tags": {"alt_name": "\u0639\u0631\u0628 \u0635\u0627\u0644\u062d \u062d\u0644\u0648", "int_name": "Arab \u015e\u0101li\u1e29 \u1e28ul\u016b, \u0639\u0631\u0628 \u0635\u0627\u0644\u062d \u062d\u0644\u0648, Arab Salih Hulu, \u0639\u0631\u0628 \u0635\u0627\u0644\u062d \u062d\u0644\u0648", "is_in": "Iraq , \u062c\u0645\u0647\u0648\u0631\u064a\u0629 \u0627\u0644\u0639\u0631\u0627\u0642", "name": "\u0639\u0631\u0628 \u0635\u0627\u0644\u062d \u062d\u0644\u0648", "name:ar": "\u0639\u0631\u0628 \u0635\u0627\u0644\u062d \u062d\u0644\u0648", "name:ar1": "\u0639\u0631\u0628 \u0635\u0627\u0644\u062d \u062d\u0644\u0648", "name:de": "Arab Salih Hulu", "name:en": "Arab Salih Hulu", "name:fr": "Arab Salih Hulu", "place": "hamlet"}}, {"type": "node", "id": 2486331209, "lat": 32.924269, "lon": 44.483501, "tags": {"alt_name": "\u0639\u0631\u0628 \u0633\u0644\u0645\u0627\u0646 \u0639\u0628\u0627\u0633", "int_name": "Arab Salm\u0101n Abb\u0101s, \u0639\u0631\u0628 \u0633\u0644\u0645\u0627\u0646 \u0639\u0628\u0627\u0633, Arab Salman Abbas, \u0639\u0631\u0628 \u0633\u0644\u0645\u0627\u0646 \u0639\u0628\u0627\u0633", "is_in": "Iraq , \u062c\u0645\u0647\u0648\u0631\u064a\u0629 \u0627\u0644\u0639\u0631\u0627\u0642", "name": "\u0639\u0631\u0628 \u0633\u0644\u0645\u0627\u0646 \u0639\u0628\u0627\u0633", "name:ar": "\u0639\u0631\u0628 \u0633\u0644\u0645\u0627\u0646 \u0639\u0628\u0627\u0633", "name:ar1": "\u0639\u0631\u0628 \u0633\u0644\u0645\u0627\u0646 \u0639\u0628\u0627\u0633", "name:de": "Arab Salman Abbas", "name:en": "Arab Salman Abbas", "name:fr": "Arab Salman Abbas", "place": "hamlet"}}, {"type": "node", "id": 2486331211, "lat": 32.904307, "lon": 44.548283, "tags": {"alt_name": "\u0639\u0631\u0628 \u062b\u0631\u064a\u0627 \u0647\u0630\u0631\u064a", "int_name": "Arab Thurayy\u0101 Hadhr\u012b, \u0639\u0631\u0628 \u062b\u0631\u064a\u0627 \u0647\u0630\u0631\u064a, Arab Thurayya Hadhri, \u0639\u0631\u0628 \u062b\u0631\u064a\u0627 \u0647\u0630\u0631\u064a", "is_in": "Iraq , \u062c\u0645\u0647\u0648\u0631\u064a\u0629 \u0627\u0644\u0639\u0631\u0627\u0642", "name": "\u0639\u0631\u0628 \u062b\u0631\u064a\u0627 \u0647\u0630\u0631\u064a", "name:ar": "\u0639\u0631\u0628 \u062b\u0631\u064a\u0627 \u0647\u0630\u0631\u064a", "name:ar1": "\u0639\u0631\u0628 \u062b\u0631\u064a\u0627 \u0647\u0630\u0631\u064a", "name:de": "Arab Thurayya Hadhri", "name:en": "Arab Thurayya Hadhri", "name:fr": "Arab Thurayya Hadhri", "place": "hamlet"}}, {"type": "node", "id": 2486331212, "lat": 32.911329, "lon": 44.535632, "tags": {"alt_name": "\u0639\u0631\u0628 \u0639\u0628\u064a\u062f \u062c\u0648\u062f", "int_name": "Arab Ubayd J\u016bd, \u0639\u0631\u0628 \u0639\u0628\u064a\u062f \u062c\u0648\u062f, Arab Ubayd Jud, \u0639\u0631\u0628 \u0639\u0628\u064a\u062f \u062c\u0648\u062f", "is_in": "Iraq , \u062c\u0645\u0647\u0648\u0631\u064a\u0629 \u0627\u0644\u0639\u0631\u0627\u0642", "name": "\u0639\u0631\u0628 \u0639\u0628\u064a\u062f \u062c\u0648\u062f", "name:ar": "\u0639\u0631\u0628 \u0639\u0628\u064a\u062f \u062c\u0648\u062f", "name:ar1": "\u0639\u0631\u0628 \u0639\u0628\u064a\u062f \u062c\u0648\u062f", "name:de": "Arab Ubayd Jud", "name:en": "Arab Ubayd Jud", "name:fr": "Arab Ubayd Jud", "place": "hamlet"}}, {"type": "node", "id": 2486331218, "lat": 32.916667, "lon": 44.433333, "tags": {"alt_name": "\u0628\u064a\u0648\u062a \u062c\u0631\u0648", "int_name": "Biy\u0101t Jaru, Buy\u016bt Jar\u016b, Buy\u016bt Jarw, Biyat Jaru, Buyut Jaru, Buyut Jarw", "is_in": "Iraq , \u062c\u0645\u0647\u0648\u0631\u064a\u0629 \u0627\u0644\u0639\u0631\u0627\u0642", "name": "\u0628\u064a\u0648\u062a \u062c\u0631\u0648", "name:ar": "\u0628\u064a\u0648\u062a \u062c\u0631\u0648", "name:ar1": "\u0628\u064a\u0648\u062a \u062c\u0631\u0648", "name:de": "Biyat Jaru", "name:en": "Biyat Jaru", "name:fr": "Biyat Jaru", "place": "hamlet"}}, {"type": "node", "id": 2486331223, "lat": 32.92461, "lon": 44.510703, "tags": {"alt_name": "\u062f\u062e\u0644 \u0641\u062f\u0639\u0627\u0646", "int_name": "Dakhl Fad\u0101n, \u062f\u062e\u0644 \u0641\u062f\u0639\u0627\u0646, Dakhl Fadan, \u062f\u062e\u0644 \u0641\u062f\u0639\u0627\u0646", "is_in": "Iraq , \u062c\u0645\u0647\u0648\u0631\u064a\u0629 \u0627\u0644\u0639\u0631\u0627\u0642", "name": "\u062f\u062e\u0644 \u0641\u062f\u0639\u0627\u0646", "name:ar": "\u062f\u062e\u0644 \u0641\u062f\u0639\u0627\u0646", "name:ar1": "\u062f\u062e\u0644 \u0641\u062f\u0639\u0627\u0646", "name:de": "Dakhl Fadan", "name:en": "Dakhl Fadan", "name:fr": "Dakhl Fadan", "place": "hamlet"}}, {"type": "node", "id": 2486331224, "lat": 32.852664, "lon": 44.500156, "tags": {"alt_name": "\u062f\u0627\u0648\u0648\u062f \u0645\u062d\u0633\u0646", "int_name": "D\u0101wud Mu\u1e29sin, Dawud Muhsin", "is_in": "Iraq , \u062c\u0645\u0647\u0648\u0631\u064a\u0629 \u0627\u0644\u0639\u0631\u0627\u0642", "name": "\u062f\u0627\u0648\u0648\u062f \u0645\u062d\u0633\u0646", "name:ar": "\u062f\u0627\u0648\u0648\u062f \u0645\u062d\u0633\u0646", "name:ar1": "\u062f\u0627\u0648\u0648\u062f \u0645\u062d\u0633\u0646", "name:de": "Dawud Muhsin", "name:en": "Dawud Muhsin", "name:fr": "Dawud Muhsin", "place": "hamlet"}}, {"type": "node", "id": 2486331228, "lat": 32.868461, "lon": 44.520528, "tags": {"alt_name": "\u0641\u0627\u0644\u062d \u062d\u0633\u0646", "int_name": "F\u0101li\u1e29 \u1e28asan, \u0641\u0627\u0644\u062d \u062d\u0633\u0646, Falih Hasan, \u0641\u0627\u0644\u062d \u062d\u0633\u0646", "is_in": "Iraq , \u062c\u0645\u0647\u0648\u0631\u064a\u0629 \u0627\u0644\u0639\u0631\u0627\u0642", "name": "\u0641\u0627\u0644\u062d \u062d\u0633\u0646", "name:ar": "\u0641\u0627\u0644\u062d \u062d\u0633\u0646", "name:ar1": "\u0641\u0627\u0644\u062d \u062d\u0633\u0646", "name:de": "Falih Hasan", "name:en": "Falih Hasan", "name:fr": "Falih Hasan", "place": "hamlet"}}, {"type": "node", "id": 2486331229, "lat": 32.852222, "lon": 44.506667, "tags": {"alt_name": "\u063a\u0631\u064a\u0631\u064a", "int_name": "Ghar\u012br\u012b, Ghariri", "is_in": "Iraq , \u062c\u0645\u0647\u0648\u0631\u064a\u0629 \u0627\u0644\u0639\u0631\u0627\u0642", "name": "\u063a\u0631\u064a\u0631\u064a", "name:ar": "\u063a\u0631\u064a\u0631\u064a", "name:ar1": "\u063a\u0631\u064a\u0631\u064a", "name:de": "Ghariri", "name:en": "Ghariri", "name:fr": "Ghariri", "place": "hamlet"}}, {"type": "node", "id": 2486331231, "lat": 32.866667, "lon": 44.516667, "tags": {"alt_name": "\u062d\u0645\u064a\u062f", "int_name": "\u1e28am\u012bd, Hamid", "is_in": "Iraq , \u062c\u0645\u0647\u0648\u0631\u064a\u0629 \u0627\u0644\u0639\u0631\u0627\u0642", "name": "\u062d\u0645\u064a\u062f", "name:ar": "\u062d\u0645\u064a\u062f", "name:ar1": "\u062d\u0645\u064a\u062f", "name:de": "Hamid", "name:en": "Hamid", "name:fr": "Hamid", "place": "hamlet"}}, {"type": "node", "id": 2486331232, "lat": 32.877837, "lon": 44.539067, "tags": {"alt_name": "\u062d\u0645\u0632\u0629 \u0639\u0644\u0648\u0627\u0646", "int_name": "\u1e28amzah Alw\u0101n, \u062d\u0645\u0632\u0629 \u0639\u0644\u0648\u0627\u0646, Hamzah Alwan, \u062d\u0645\u0632\u0629 \u0639\u0644\u0648\u0627\u0646", "is_in": "Iraq , \u062c\u0645\u0647\u0648\u0631\u064a\u0629 \u0627\u0644\u0639\u0631\u0627\u0642", "name": "\u062d\u0645\u0632\u0629 \u0639\u0644\u0648\u0627\u0646", "name:ar": "\u062d\u0645\u0632\u0629 \u0639\u0644\u0648\u0627\u0646", "name:ar1": "\u062d\u0645\u0632\u0629 \u0639\u0644\u0648\u0627\u0646", "name:de": "Hamzah Alwan", "name:en": "Hamzah Alwan", "name:fr": "Hamzah Alwan", "place": "hamlet"}}, {"type": "node", "id": 2486331233, "lat": 32.884594, "lon": 44.503054, "tags": {"alt_name": "\u062d\u0646\u062a\u0648\u0634 \u0634\u0631\u0645\u0648\u062f", "int_name": "\u1e28ant\u016bsh Sharm\u016bd, \u062d\u0646\u062a\u0648\u0634 \u0634\u0631\u0645\u0648\u062f, Hantush Sharmud, \u062d\u0646\u062a\u0648\u0634 \u0634\u0631\u0645\u0648\u062f", "is_in": "Iraq , \u062c\u0645\u0647\u0648\u0631\u064a\u0629 \u0627\u0644\u0639\u0631\u0627\u0642", "name": "\u062d\u0646\u062a\u0648\u0634 \u0634\u0631\u0645\u0648\u062f", "name:ar": "\u062d\u0646\u062a\u0648\u0634 \u0634\u0631\u0645\u0648\u062f", "name:ar1": "\u062d\u0646\u062a\u0648\u0634 \u0634\u0631\u0645\u0648\u062f", "name:de": "Hantush Sharmud", "name:en": "Hantush Sharmud", "name:fr": "Hantush Sharmud", "place": "hamlet"}}, {"type": "node", "id": 2486331236, "lat": 32.901908, "lon": 44.446145, "tags": {"alt_name": "\u0647\u0646\u062f\u064a \u0627\u0644\u0639\u0627\u064a\u062f", "int_name": "Hind\u012b al \u0100yid, \u0647\u0646\u062f\u064a \u0627\u0644\u0639\u0627\u064a\u062f, Hindi al Ayid, \u0647\u0646\u062f\u064a \u0627\u0644\u0639\u0627\u064a\u062f", "is_in": "Iraq , \u062c\u0645\u0647\u0648\u0631\u064a\u0629 \u0627\u0644\u0639\u0631\u0627\u0642", "name": "\u0647\u0646\u062f\u064a \u0627\u0644\u0639\u0627\u064a\u062f", "name:ar": "\u0647\u0646\u062f\u064a \u0627\u0644\u0639\u0627\u064a\u062f", "name:ar1": "\u0647\u0646\u062f\u064a \u0627\u0644\u0639\u0627\u064a\u062f", "name:de": "Hindi al Ayid", "name:en": "Hindi al Ayid", "name:fr": "Hindi al Ayid", "place": "hamlet"}}, {"type": "node", "id": 2486331239, "lat": 32.900582, "lon": 44.508172, "tags": {"alt_name": "\u062d\u0633\u064a\u0646 \u0639\u0644\u064a", "int_name": "\u1e28usayn Al\u012b, \u062d\u0633\u064a\u0646 \u0639\u0644\u064a, Husayn Ali, \u062d\u0633\u064a\u0646 \u0639\u0644\u064a", "is_in": "Iraq , \u062c\u0645\u0647\u0648\u0631\u064a\u0629 \u0627\u0644\u0639\u0631\u0627\u0642", "name": "\u062d\u0633\u064a\u0646 \u0639\u0644\u064a", "name:ar": "\u062d\u0633\u064a\u0646 \u0639\u0644\u064a", "name:ar1": "\u062d\u0633\u064a\u0646 \u0639\u0644\u064a", "name:de": "Husayn Ali", "name:en": "Husayn Ali", "name:fr": "Husayn Ali", "place": "hamlet"}}, {"type": "node", "id": 2486331241, "lat": 32.89786, "lon": 44.420708, "tags": {"alt_name": "\u062d\u0633\u064a\u0646 \u0633\u0639\u0648\u062f", "int_name": "\u1e28usayn Su\u016bd, \u062d\u0633\u064a\u0646 \u0633\u0639\u0648\u062f, Husayn Suud, \u062d\u0633\u064a\u0646 \u0633\u0639\u0648\u062f", "is_in": "Iraq , \u062c\u0645\u0647\u0648\u0631\u064a\u0629 \u0627\u0644\u0639\u0631\u0627\u0642", "name": "\u062d\u0633\u064a\u0646 \u0633\u0639\u0648\u062f", "name:ar": "\u062d\u0633\u064a\u0646 \u0633\u0639\u0648\u062f", "name:ar1": "\u062d\u0633\u064a\u0646 \u0633\u0639\u0648\u062f", "name:de": "Husayn Suud", "name:en": "Husayn Suud", "name:fr": "Husayn Suud", "place": "hamlet"}}, {"type": "node", "id": 2486331246, "lat": 32.902693, "lon": 44.41265, "tags": {"alt_name": "\u062c\u0648\u0627\u062f \u0627\u0644\u062d\u0645\u064a\u062f", "int_name": "Jaw\u0101d al \u1e28am\u012bd, \u062c\u0648\u0627\u062f \u0627\u0644\u062d\u0645\u064a\u062f, Jawad al Hamid, \u062c\u0648\u0627\u062f \u0627\u0644\u062d\u0645\u064a\u062f", "is_in": "Iraq , \u062c\u0645\u0647\u0648\u0631\u064a\u0629 \u0627\u0644\u0639\u0631\u0627\u0642", "name": "\u062c\u0648\u0627\u062f \u0627\u0644\u062d\u0645\u064a\u062f", "name:ar": "\u062c\u0648\u0627\u062f \u0627\u0644\u062d\u0645\u064a\u062f", "name:ar1": "\u062c\u0648\u0627\u062f \u0627\u0644\u062d\u0645\u064a\u062f", "name:de": "Jawad al Hamid", "name:en": "Jawad al Hamid", "name:fr": "Jawad al Hamid", "place": "hamlet"}}, {"type": "node", "id": 2486331249, "lat": 32.858318, "lon": 44.547126, "tags": {"alt_name": "\u0643\u0631\u064a\u0645 \u0623\u062f\u062e\u064a\u0644", "int_name": "Kar\u012bm Adkh\u012bl, \u0643\u0631\u064a\u0645 \u0627\u062f\u062e\u064a\u0644, Karim Adkhil, \u0643\u0631\u064a\u0645 \u0627\u062f\u062e\u064a\u0644", "is_in": "Iraq , \u062c\u0645\u0647\u0648\u0631\u064a\u0629 \u0627\u0644\u0639\u0631\u0627\u0642", "name": "\u0643\u0631\u064a\u0645 \u0623\u062f\u062e\u064a\u0644", "name:ar": "\u0643\u0631\u064a\u0645 \u0623\u062f\u062e\u064a\u0644", "name:ar1": "\u0643\u0631\u064a\u0645 \u0623\u062f\u062e\u064a\u0644", "name:de": "Karim Adkhil", "name:en": "Karim Adkhil", "name:fr": "Karim Adkhil", "place": "hamlet"}}, {"type": "node", "id": 2486331250, "lat": 32.897028, "lon": 44.516454, "tags": {"alt_name": "\u0643\u0627\u0638\u0645 \u062d\u0633\u064a\u0646", "int_name": "K\u0101z\u0327im \u1e28usayn, \u0643\u0627\u0638\u0645 \u062d\u0633\u064a\u0646, Kazim Husayn, \u0643\u0627\u0638\u0645 \u062d\u0633\u064a\u0646", "is_in": "Iraq , \u062c\u0645\u0647\u0648\u0631\u064a\u0629 \u0627\u0644\u0639\u0631\u0627\u0642", "name": "\u0643\u0627\u0638\u0645 \u062d\u0633\u064a\u0646", "name:ar": "\u0643\u0627\u0638\u0645 \u062d\u0633\u064a\u0646", "name:ar1": "\u0643\u0627\u0638\u0645 \u062d\u0633\u064a\u0646", "name:de": "Kazim Husayn", "name:en": "Kazim Husayn", "name:fr": "Kazim Husayn", "place": "hamlet"}}, {"type": "node", "id": 2486331252, "lat": 32.853489, "lon": 44.519284, "tags": {"alt_name": "\u0643\u0627\u0638\u0645 \u0645\u062d\u0633\u0646", "int_name": "K\u0101z\u0327im Mu\u1e29sin, \u0643\u0627\u0638\u0645 \u0645\u062d\u0633\u0646, Kazim Muhsin, \u0643\u0627\u0638\u0645 \u0645\u062d\u0633\u0646", "is_in": "Iraq , \u062c\u0645\u0647\u0648\u0631\u064a\u0629 \u0627\u0644\u0639\u0631\u0627\u0642", "name": "\u0643\u0627\u0638\u0645 \u0645\u062d\u0633\u0646", "name:ar": "\u0643\u0627\u0638\u0645 \u0645\u062d\u0633\u0646", "name:ar1": "\u0643\u0627\u0638\u0645 \u0645\u062d\u0633\u0646", "name:de": "Kazim Muhsin", "name:en": "Kazim Muhsin", "name:fr": "Kazim Muhsin", "place": "hamlet"}}, {"type": "node", "id": 2486331254, "lat": 32.873752, "lon": 44.469072, "tags": {"alt_name": "\u062e\u0644\u0641 \u0645\u062e\u0644\u0641", "int_name": "Khalaf Mukhlif, \u062e\u0644\u0641 \u0645\u062e\u0644\u0641, Khalaf Mukhlif, \u062e\u0644\u0641 \u0645\u062e\u0644\u0641", "is_in": "Iraq , \u062c\u0645\u0647\u0648\u0631\u064a\u0629 \u0627\u0644\u0639\u0631\u0627\u0642", "name": "\u062e\u0644\u0641 \u0645\u062e\u0644\u0641", "name:ar": "\u062e\u0644\u0641 \u0645\u062e\u0644\u0641", "name:ar1": "\u062e\u0644\u0641 \u0645\u062e\u0644\u0641", "name:de": "Khalaf Mukhlif", "name:en": "Khalaf Mukhlif", "name:fr": "Khalaf Mukhlif", "place": "hamlet"}}, {"type": "node", "id": 2486331255, "lat": 32.9, "lon": 44.416667, "tags": {"alt_name": "\u062e\u0644\u0627\u0626\u0641", "int_name": "Khal\u0101if, Khalaif", "is_in": "Iraq , \u062c\u0645\u0647\u0648\u0631\u064a\u0629 \u0627\u0644\u0639\u0631\u0627\u0642", "name": "\u062e\u0644\u0627\u0626\u0641", "name:ar": "\u062e\u0644\u0627\u0626\u0641", "name:ar1": "\u062e\u0644\u0627\u0626\u0641", "name:de": "Khalaif", "name:en": "Khalaif", "name:fr": "Khalaif", "place": "hamlet"}}, {"type": "node", "id": 2486331265, "lat": 32.883333, "lon": 44.516667, "tags": {"alt_name": "\u0645\u062e\u0644\u0641", "int_name": "Makhlaf, Makhlaf", "is_in": "Iraq , \u062c\u0645\u0647\u0648\u0631\u064a\u0629 \u0627\u0644\u0639\u0631\u0627\u0642", "name": "\u0645\u062e\u0644\u0641", "name:ar": "\u0645\u062e\u0644\u0641", "name:ar1": "\u0645\u062e\u0644\u0641", "name:de": "Makhlaf", "name:en": "Makhlaf", "name:fr": "Makhlaf", "place": "hamlet"}}, {"type": "node", "id": 2486331269, "lat": 32.922951, "lon": 44.502081, "tags": {"alt_name": "\u0645\u062d\u0645\u062f \u0630\u064a\u0627\u0628", "int_name": "Mu\u1e29ammad Dh\u012by\u0101b, \u0645\u062d\u0645\u062f \u0630\u064a\u0627\u0628, Muhammad Dhiyab, \u0645\u062d\u0645\u062f \u0630\u064a\u0627\u0628", "is_in": "Iraq , \u062c\u0645\u0647\u0648\u0631\u064a\u0629 \u0627\u0644\u0639\u0631\u0627\u0642", "name": "\u0645\u062d\u0645\u062f \u0630\u064a\u0627\u0628", "name:ar": "\u0645\u062d\u0645\u062f \u0630\u064a\u0627\u0628", "name:ar1": "\u0645\u062d\u0645\u062f \u0630\u064a\u0627\u0628", "name:de": "Muhammad Dhiyab", "name:en": "Muhammad Dhiyab", "name:fr": "Muhammad Dhiyab", "place": "hamlet"}}, {"type": "node", "id": 2486331271, "lat": 32.894243, "lon": 44.424053, "tags": {"alt_name": "\u0645\u062d\u0645\u062f \u062c\u0628\u0631", "int_name": "Mu\u1e29ammad Jabr, \u0645\u062d\u0645\u062f \u062c\u0628\u0631, Muhammad Jabr, \u0645\u062d\u0645\u062f \u062c\u0628\u0631", "is_in": "Iraq , \u062c\u0645\u0647\u0648\u0631\u064a\u0629 \u0627\u0644\u0639\u0631\u0627\u0642", "name": "\u0645\u062d\u0645\u062f \u062c\u0628\u0631", "name:ar": "\u0645\u062d\u0645\u062f \u062c\u0628\u0631", "name:ar1": "\u0645\u062d\u0645\u062f \u062c\u0628\u0631", "name:de": "Muhammad Jabr", "name:en": "Muhammad Jabr", "name:fr": "Muhammad Jabr", "place": "hamlet"}}, {"type": "node", "id": 2486331274, "lat": 32.8775, "lon": 44.412778, "tags": {"alt_name": "\u0645\u062d\u0645\u062f \u0627\u0644\u0639\u0632\u064a\u0632", "int_name": "Muhammad al Az\u012bz, Muhammad al Aziz", "is_in": "Iraq , \u062c\u0645\u0647\u0648\u0631\u064a\u0629 \u0627\u0644\u0639\u0631\u0627\u0642", "name": "\u0645\u062d\u0645\u062f \u0627\u0644\u0639\u0632\u064a\u0632", "name:ar": "\u0645\u062d\u0645\u062f \u0627\u0644\u0639\u0632\u064a\u0632", "name:ar1": "\u0645\u062d\u0645\u062f \u0627\u0644\u0639\u0632\u064a\u0632", "name:de": "Muhammad al Aziz", "name:en": "Muhammad al Aziz", "name:fr": "Muhammad al Aziz", "place": "hamlet"}}, {"type": "node", "id": 2486331275, "lat": 32.859066, "lon": 44.507354, "tags": {"alt_name": "\u0645\u062d\u0633\u0646 \u0639\u0628\u062f", "int_name": "Mu\u1e29sin Abd, \u0645\u062d\u0633\u0646 \u0639\u0628\u062f, Muhsin Abd, \u0645\u062d\u0633\u0646 \u0639\u0628\u062f", "is_in": "Iraq , \u062c\u0645\u0647\u0648\u0631\u064a\u0629 \u0627\u0644\u0639\u0631\u0627\u0642", "name": "\u0645\u062d\u0633\u0646 \u0639\u0628\u062f", "name:ar": "\u0645\u062d\u0633\u0646 \u0639\u0628\u062f", "name:ar1": "\u0645\u062d\u0633\u0646 \u0639\u0628\u062f", "name:de": "Muhsin Abd", "name:en": "Muhsin Abd", "name:fr": "Muhsin Abd", "place": "hamlet"}}, {"type": "node", "id": 2486331281, "lat": 32.904936, "lon": 44.42083, "tags": {"alt_name": "\u0645\u0637\u0644\u0643 \u0639\u0644\u0648\u0627\u0646", "int_name": "Mu\u0163lak Alw\u0101n, \u0645\u0637\u0644\u0643 \u0639\u0644\u0648\u0627\u0646, Mutlak Alwan, \u0645\u0637\u0644\u0643 \u0639\u0644\u0648\u0627\u0646", "is_in": "Iraq , \u062c\u0645\u0647\u0648\u0631\u064a\u0629 \u0627\u0644\u0639\u0631\u0627\u0642", "name": "\u0645\u0637\u0644\u0643 \u0639\u0644\u0648\u0627\u0646", "name:ar": "\u0645\u0637\u0644\u0643 \u0639\u0644\u0648\u0627\u0646", "name:ar1": "\u0645\u0637\u0644\u0643 \u0639\u0644\u0648\u0627\u0646", "name:de": "Mutlak Alwan", "name:en": "Mutlak Alwan", "name:fr": "Mutlak Alwan", "place": "hamlet"}}, {"type": "node", "id": 2486331293, "lat": 32.905807, "lon": 44.543732, "tags": {"alt_name": "\u0646\u0627\u062c\u064a \u062d\u0645\u0632\u0629", "int_name": "N\u0101j\u012b \u1e28amzah, \u0646\u0627\u062c\u064a \u062d\u0645\u0632\u0647, Naji Hamzah, \u0646\u0627\u062c\u064a \u062d\u0645\u0632\u0647", "is_in": "Iraq , \u062c\u0645\u0647\u0648\u0631\u064a\u0629 \u0627\u0644\u0639\u0631\u0627\u0642", "name": "\u0646\u0627\u062c\u064a \u062d\u0645\u0632\u0629", "name:ar": "\u0646\u0627\u062c\u064a \u062d\u0645\u0632\u0629", "name:ar1": "\u0646\u0627\u062c\u064a \u062d\u0645\u0632\u0629", "name:de": "Naji Hamzah", "name:en": "Naji Hamzah", "name:fr": "Naji Hamzah", "place": "hamlet"}}, {"type": "node", "id": 2486331294, "lat": 32.868415, "lon": 44.477377, "tags": {"alt_name": "\u0646\u062c\u0645 \u0639\u0628\u062f \u062d\u0633\u0648\u0646", "int_name": "Najm Abd Hass\u016bn, \u0646\u062c\u0645 \u0639\u0628\u062f \u062d\u0633\u0648\u0646, Najm Abd Hassun, \u0646\u062c\u0645 \u0639\u0628\u062f \u062d\u0633\u0648\u0646", "is_in": "Iraq , \u062c\u0645\u0647\u0648\u0631\u064a\u0629 \u0627\u0644\u0639\u0631\u0627\u0642", "name": "\u0646\u062c\u0645 \u0639\u0628\u062f \u062d\u0633\u0648\u0646", "name:ar": "\u0646\u062c\u0645 \u0639\u0628\u062f \u062d\u0633\u0648\u0646", "name:ar1": "\u0646\u062c\u0645 \u0639\u0628\u062f \u062d\u0633\u0648\u0646", "name:de": "Najm Abd Hassun", "name:en": "Najm Abd Hassun", "name:fr": "Najm Abd Hassun", "place": "hamlet"}}, {"type": "node", "id": 2486331303, "lat": 32.877893, "lon": 44.415497, "tags": {"alt_name": "\u0642\u0631\u064a\u0629 \u0645\u0648\u064a\u0644\u062d\u0629 \u0627\u0644\u062b\u0627\u0646\u064a\u0629", "int_name": "Qaryat Muwayli\u1e29ah ath Th\u0101n\u012byah, \u0642\u0631\u064a\u0629 \u0645\u0648\u064a\u0644\u062d\u0647 \u0627\u0644\u062b\u0627\u0646\u064a\u0647, Qaryat Muwaylihah ath Thaniyah, \u0642\u0631\u064a\u0629 \u0645\u0648\u064a\u0644\u062d\u0647 \u0627\u0644\u062b\u0627\u0646\u064a\u0647", "is_in": "Iraq , \u062c\u0645\u0647\u0648\u0631\u064a\u0629 \u0627\u0644\u0639\u0631\u0627\u0642", "name": "\u0642\u0631\u064a\u0629 \u0645\u0648\u064a\u0644\u062d\u0629 \u0627\u0644\u062b\u0627\u0646\u064a\u0629", "name:ar": "\u0642\u0631\u064a\u0629 \u0645\u0648\u064a\u0644\u062d\u0629 \u0627\u0644\u062b\u0627\u0646\u064a\u0629", "name:ar1": "\u0642\u0631\u064a\u0629 \u0645\u0648\u064a\u0644\u062d\u0629 \u0627\u0644\u062b\u0627\u0646\u064a\u0629", "name:de": "Qaryat Muwaylihah ath Thaniyah", "name:en": "Qaryat Muwaylihah ath Thaniyah", "name:fr": "Qaryat Muwaylihah ath Thaniyah", "place": "hamlet"}}, {"type": "node", "id": 2486331304, "lat": 32.884682, "lon": 44.440817, "tags": {"alt_name": "\u0642\u0631\u064a\u0629 \u0645\u0648\u064a\u0644\u062d\u0629 \u0627\u0644\u062b\u0627\u0646\u064a\u0629", "int_name": "Qaryat Muwayli\u1e29ah ath Th\u0101n\u012byah, \u0642\u0631\u064a\u0629 \u0645\u0648\u064a\u0644\u062d\u0647 \u0627\u0644\u062b\u0627\u0646\u064a\u0647, Qaryat Muwaylihah ath Thaniyah, \u0642\u0631\u064a\u0629 \u0645\u0648\u064a\u0644\u062d\u0647 \u0627\u0644\u062b\u0627\u0646\u064a\u0647", "is_in": "Iraq , \u062c\u0645\u0647\u0648\u0631\u064a\u0629 \u0627\u0644\u0639\u0631\u0627\u0642", "name": "\u0642\u0631\u064a\u0629 \u0645\u0648\u064a\u0644\u062d\u0629 \u0627\u0644\u062b\u0627\u0646\u064a\u0629", "name:ar": "\u0642\u0631\u064a\u0629 \u0645\u0648\u064a\u0644\u062d\u0629 \u0627\u0644\u062b\u0627\u0646\u064a\u0629", "name:ar1": "\u0642\u0631\u064a\u0629 \u0645\u0648\u064a\u0644\u062d\u0629 \u0627\u0644\u062b\u0627\u0646\u064a\u0629", "name:de": "Qaryat Muwaylihah ath Thaniyah", "name:en": "Qaryat Muwaylihah ath Thaniyah", "name:fr": "Qaryat Muwaylihah ath Thaniyah", "place": "hamlet"}}, {"type": "node", "id": 2486331306, "lat": 32.8686929, "lon": 44.5454106, "tags": {"alt_name": "\u0642\u0631\u064a\u0629 \u0627\u0644\u0625\u064a\u0645\u0627\u0646", "int_name": "Qaryat al \u012am\u0101n, Qaryat al Iman", "is_in": "Iraq , \u062c\u0645\u0647\u0648\u0631\u064a\u0629 \u0627\u0644\u0639\u0631\u0627\u0642", "name": "\u0642\u0631\u064a\u0629 \u0627\u0644\u0625\u064a\u0645\u0627\u0646", "name:ar": "\u0642\u0631\u064a\u0629 \u0627\u0644\u0625\u064a\u0645\u0627\u0646", "name:ar1": "\u0642\u0631\u064a\u0629 \u0627\u0644\u0625\u064a\u0645\u0627\u0646", "name:de": "Qaryat al Iman", "name:en": "Qaryat al Iman", "name:fr": "Qaryat al Iman", "place": "hamlet"}}, {"type": "node", "id": 2486331316, "lat": 32.9, "lon": 44.433333, "tags": {"alt_name": "\u0633\u0644\u0645\u0627\u0646", "int_name": "Salm\u0101n, Salman", "is_in": "Iraq , \u062c\u0645\u0647\u0648\u0631\u064a\u0629 \u0627\u0644\u0639\u0631\u0627\u0642", "name": "\u0633\u0644\u0645\u0627\u0646", "name:ar": "\u0633\u0644\u0645\u0627\u0646", "name:ar1": "\u0633\u0644\u0645\u0627\u0646", "name:de": "Salman", "name:en": "Salman", "name:fr": "Salman", "place": "hamlet"}}, {"type": "node", "id": 2486331317, "lat": 32.861859, "lon": 44.507538, "tags": {"alt_name": "\u0633\u064a\u062f \u0639\u0628\u062f \u0627\u0644\u0644\u0647", "int_name": "Sayyid Abd All\u0101h, \u0633\u064a\u062f \u0639\u0628\u062f \u0627\u0644\u0644\u0647, Sayyid Abd Allah, \u0633\u064a\u062f \u0639\u0628\u062f \u0627\u0644\u0644\u0647", "is_in": "Iraq , \u062c\u0645\u0647\u0648\u0631\u064a\u0629 \u0627\u0644\u0639\u0631\u0627\u0642", "name": "\u0633\u064a\u062f \u0639\u0628\u062f \u0627\u0644\u0644\u0647", "name:ar": "\u0633\u064a\u062f \u0639\u0628\u062f \u0627\u0644\u0644\u0647", "name:ar1": "\u0633\u064a\u062f \u0639\u0628\u062f \u0627\u0644\u0644\u0647", "name:de": "Sayyid Abd Allah", "name:en": "Sayyid Abd Allah", "name:fr": "Sayyid Abd Allah", "place": "hamlet"}}, {"type": "node", "id": 2487984998, "lat": 32.6486784, "lon": 44.4082918, "tags": {"alt_name": "\u062d\u064a \u0661\u0667 \u062a\u0645\u0648\u0632", "name": "\u062d\u064a \u0661\u0667 \u062a\u0645\u0648\u0632", "name:ar": "\u062d\u064a \u0661\u0667 \u062a\u0645\u0648\u0632", "name:ar1": "\u062d\u064a \u0661\u0667 \u062a\u0645\u0648\u0632", "place": "hamlet"}}, {"type": "node", "id": 2488022372, "lat": 32.6826199, "lon": 44.1640562, "tags": {"alt_name": "Al \u1e28usayn\u012byah, Al \u1e28ussayn\u012byah, \u0627\u0644\u062d\u0633\u064a\u0646\u064a\u0629, Al Husayniyah, Al Hussayniyah, \u0627\u0644\u062d\u0633\u064a\u0646\u064a\u0629", "capital": "7", "int_name": "Al Husayniyah - \u0627\u0644\u062d\u0633\u064a\u0646\u064a\u0629", "name": "\u0627\u0644\u062d\u0633\u064a\u0646\u064a\u0629", "name:ar": "\u0627\u0644\u062d\u0633\u064a\u0646\u064a\u0629", "name:de": "Al Husayniyah", "name:en": "Al Husayniyah", "name:fr": "Al Husayniyah", "place": "town"}}, {"type": "node", "id": 2488022427, "lat": 32.661381, "lon": 44.408537, "tags": {"alt_name": "Al Ma\u1e29\u0101w\u012bl, Kh\u0101n al Mahaw\u012bl, Mahawil, Qa\u1e11\u0101 al Ma\u1e29\u0101w\u012bl, Al Mahawil, Khan al Mahawil, Mahawil, Qada al Mahawil", "capital": "6", "int_name": "Al Mahawil - \u0627\u0644\u0645\u062d\u0627\u0648\u064a\u0644", "name": "\u0627\u0644\u0645\u062d\u0627\u0648\u064a\u0644", "name:ar": "\u0627\u0644\u0645\u062d\u0627\u0648\u064a\u0644", "name:de": "Al Mahawil", "name:en": "Al Mahawil", "name:fr": "Al Mahawil", "name:he": "\u05d0\u05dc \u05de\u05d7\u05d0\u05d5\u05d5\u05d9\u05dc", "name:ml": "\u0d05\u0d7d \u0d2e\u0d39\u0d3e\u0d35\u0d3f\u0d7d", "name:uk": "\u0425\u0430\u043d-\u0435\u043b\u044c-\u041c\u0430\u0445\u0430\u0432\u0456\u043b", "place": "city", "wikidata": "Q2507006"}}, {"type": "node", "id": 2488022839, "lat": 32.635556, "lon": 44.224167, "tags": {"alt_name": "\u0639\u0631\u0628 \u0623\u0646\u0639\u0645", "int_name": "Arab Anam, Arab Anam", "is_in": "Iraq , \u062c\u0645\u0647\u0648\u0631\u064a\u0629 \u0627\u0644\u0639\u0631\u0627\u0642", "name": "\u0639\u0631\u0628 \u0623\u0646\u0639\u0645", "name:ar": "\u0639\u0631\u0628 \u0645\u062d\u0645\u062f \u0627\u0644 \u0639\u0628\u0627\u0633", "name:ar1": "\u0639\u0631\u0628 \u0623\u0646\u0639\u0645", "name:de": "Arab Anam", "name:en": "Arab mohamed abbas", "name:fr": "Arab Anam", "place": "village"}}, {"type": "node", "id": 2488023956, "lat": 32.584722, "lon": 44.149167, "tags": {"alt_name": "\u0642\u0631\u064a\u0629 \u0628\u0646\u064a \u0635\u0627\u0644\u062d", "int_name": "Ban\u012b \u015e\u0101li\u1e29, Qaryat al Bani S\u0101lih, Qaryat Ban\u012b \u015eal\u0101h, Bani Salih, Qaryat al Bani Salih, Qaryat Bani Salah", "name": "\u0642\u0631\u064a\u0629 \u0628\u0646\u064a \u0635\u0627\u0644\u062d", "name:ar": "\u0628\u0646\u064a \u0633\u0627\u0644\u0647 \u0622\u0644 \u063a\u0631\u0627\u0628", "name:ar1": "\u0642\u0631\u064a\u0629 \u0628\u0646\u064a \u0635\u0627\u0644\u062d", "name:de": "Bani Salih", "name:en": "Bani Salih", "name:fr": "Bani Salih", "place": "village"}}, {"type": "node", "id": 2488024536, "lat": 32.707393, "lon": 44.261584, "tags": {"alt_name": "\u062d\u064a \u0633\u0648\u064a\u0641", "int_name": "\u1e28ayy Suwayf, \u062d\u064a \u0633\u0648\u064a\u0641, Hayy Suwayf, \u062d\u064a \u0633\u0648\u064a\u0641", "name": "\u062d\u064a \u0633\u0648\u064a\u0641", "name:ar": "\u062d\u064a \u0627\u0644\u0645\u0635\u0627\u064a\u0641", "name:ar1": "\u062d\u064a \u0633\u0648\u064a\u0641", "name:de": "Hayy Suwayf", "name:en": "Hayy masaif", "name:fr": "Hayy Suwayf", "place": "hamlet"}}, {"type": "node", "id": 2488025163, "lat": 32.844203, "lon": 44.516133, "tags": {"alt_name": "\u0645\u0647\u062f\u064a \u063a\u0646\u064a\u0648\u064a", "int_name": "Mahd\u012b Ghunayw\u012b, \u0645\u0647\u062f\u064a \u063a\u0646\u064a\u0648\u064a, Mahdi Ghunaywi, \u0645\u0647\u062f\u064a \u063a\u0646\u064a\u0648\u064a", "is_in": "Iraq , \u062c\u0645\u0647\u0648\u0631\u064a\u0629 \u0627\u0644\u0639\u0631\u0627\u0642", "name": "\u0645\u0647\u062f\u064a \u063a\u0646\u064a\u0648\u064a", "name:ar": "\u0645\u0647\u062f\u064a \u063a\u0646\u064a\u0648\u064a", "name:ar1": "\u0645\u0647\u062f\u064a \u063a\u0646\u064a\u0648\u064a", "name:de": "Mahdi Ghunaywi", "name:en": "Mahdi Ghunaywi", "name:fr": "Mahdi Ghunaywi", "place": "hamlet"}}, {"type": "node", "id": 2488025457, "lat": 32.8162674, "lon": 44.2029336, "tags": {"alt_name": "\u0645\u0644\u0627 \u0631\u062c\u0628", "int_name": "Mull\u0101 Rajab, Mulla Rajab", "name": "\u0645\u0644\u0627 \u0631\u062c\u0628", "name:ar": "\u0645\u0644\u0627 \u0631\u062c\u0628", "name:ar1": "\u0645\u0644\u0627 \u0631\u062c\u0628", "name:de": "Mulla Rajab", "name:en": "Mulla Rajab", "name:fr": "Mulla Rajab", "place": "village"}}, {"type": "node", "id": 2488025502, "lat": 32.6711888, "lon": 44.502291, "tags": {"alt_name": "N\u0101\u1e29iyat al Im\u0101m, \u0646\u0627\u062d\u064a\u0629 \u0627\u0644\u0627\u0645\u0627\u0645, Nahiyat al Imam, \u0646\u0627\u062d\u064a\u0629 \u0627\u0644\u0627\u0645\u0627\u0645", "capital": "7", "int_name": "Al Imam - \u0627\u0644\u0625\u0645\u0627\u0645", "name": "\u0627\u0644\u0625\u0645\u0627\u0645", "name:ar": "\u0627\u0644\u0625\u0645\u0627\u0645", "name:de": "Al Imam", "name:en": "Al Imam", "name:fr": "Al Imam", "place": "village"}}, {"type": "node", "id": 2488026981, "lat": 32.649772, "lon": 44.463627, "tags": {"alt_name": "\u0637\u0627\u0644\u0628 \u0643\u0645\u0631", "int_name": "\u0162\u0101lib Kamar, \u0637\u0627\u0644\u0628 \u0643\u0645\u0631, Talib Kamar, \u0637\u0627\u0644\u0628 \u0643\u0645\u0631", "name": "\u0637\u0627\u0644\u0628 \u0643\u0645\u0631", "name:ar": "\u0637\u0627\u0644\u0628 \u0643\u0645\u0631", "name:ar1": "\u0637\u0627\u0644\u0628 \u0643\u0645\u0631", "name:de": "Talib Kamar", "name:en": "Talib Kamar", "name:fr": "Talib Kamar", "place": "village"}}, {"type": "node", "id": 2488027290, "lat": 32.6334987, "lon": 44.3711386, "tags": {"alt_name": "\u0642\u0631\u064a\u0629 \u0623\u0645 \u0645\u0638\u0648\u0645", "int_name": "\u0642\u0631\u064a\u0629 \u0627\u0645 \u0645\u0638\u0648\u0645, \u0642\u0631\u064a\u0629 \u0627\u0645 \u0645\u0638\u0648\u0645", "name": "\u0642\u0631\u064a\u0629 \u0623\u0645 \u0645\u0638\u0648\u0645", "name:ar": "\u0642\u0631\u064a\u0629 \u0623\u0645 \u0645\u0638\u0648\u0645", "name:ar1": "\u0642\u0631\u064a\u0629 \u0623\u0645 \u0645\u0638\u0648\u0645", "place": "village"}}, {"type": "node", "id": 2488027300, "lat": 32.5916951, "lon": 44.3952837, "tags": {"alt_name": "\u0642\u0631\u064a\u0629 \u0645\u0646\u062e\u0644\u064a\u0647 \u0627\u0644\u063a\u0631\u0628\u064a\u0629", "int_name": "\u0642\u0631\u064a\u0629 \u0645\u0646\u062e\u0644\u064a\u0647 \u0627\u0644\u063a\u0631\u0628\u064a\u0629, \u0642\u0631\u064a\u0629 \u0645\u0646\u062e\u0644\u064a\u0647 \u0627\u0644\u063a\u0631\u0628\u064a\u0629", "name": "\u0642\u0631\u064a\u0629 \u0645\u0646\u062e\u0644\u064a\u0647 \u0627\u0644\u063a\u0631\u0628\u064a\u0629", "name:ar": "\u0642\u0631\u064a\u0629 \u0627\u0644\u0646\u062e\u0644\u064a\u0629 \u0627\u0644\u063a\u0631\u0628\u064a\u0629", "name:ar1": "\u0642\u0631\u064a\u0629 \u0645\u0646\u062e\u0644\u064a\u0647 \u0627\u0644\u063a\u0631\u0628\u064a\u0629", "name:de": "\u0642\u0631\u064a\u0629 \u0645\u0646\u062e\u0644\u064a\u0647 \u0627\u0644\u063a\u0631\u0628\u064a\u0629", "name:fr": "\u0642\u0631\u064a\u0629 \u0645\u0646\u062e\u0644\u064a\u0647 \u0627\u0644\u063a\u0631\u0628\u064a\u0629", "place": "village"}}, {"type": "node", "id": 5000780305, "lat": 32.6022933, "lon": 44.1042555}, {"type": "node", "id": 5000780309, "lat": 32.5892248, "lon": 44.100553}, {"type": "node", "id": 5000780352, "lat": 32.6586435, "lon": 43.9945471}, {"type": "node", "id": 5000780353, "lat": 32.6593039, "lon": 43.9853818}, {"type": "node", "id": 5000780355, "lat": 32.6576407, "lon": 43.9758372}, {"type": "node", "id": 5000780358, "lat": 32.6331894, "lon": 43.9486222}, {"type": "node", "id": 5102703423, "lat": 32.6038545, "lon": 44.1933592, "tags": {"name": "\u0642\u0631\u064a\u0629 \u0627\u0644\u062f\u0639\u0648\u0645 \u0627\u0644\u0639\u062f\u0646\u0627\u0646\u064a\u0629", "place": "village"}}, {"type": "node", "id": 5549971393, "lat": 32.6580465, "lon": 43.9809391}, {"type": "node", "id": 5613002738, "lat": 32.6191865, "lon": 43.9472904}, {"type": "node", "id": 6042424637, "lat": 32.6409692, "lon": 43.9583802}, {"type": "node", "id": 6042424642, "lat": 32.6278944, "lon": 43.9468928}, {"type": "node", "id": 6498361085, "lat": 32.7030668, "lon": 44.2815307, "tags": {"addr:street": "\u0637\u0631\u064a\u0642 \u0627\u0644\u0633\u062f\u0629", "name": "\u0645\u0646\u0637\u0642\u0647 \u0627\u0644\u0645\u0639\u0627\u0641\u0627\u0647", "opening_hours": "24/7", "place": "village"}}, {"type": "node", "id": 7792648687, "lat": 32.6379321, "lon": 44.2154072, "tags": {"name": "\u0642\u0631\u064a\u0629 \u0627\u0644 \u0639\u0628\u062f\u0648\u0646 \u0634\u064a\u0648\u062e \u0627\u0644\u062f\u0639\u0648\u0645", "name:en": "aal abdoon", "place": "village"}}, {"type": "node", "id": 8401830740, "lat": 32.5845775, "lon": 44.0973882}, {"type": "node", "id": 8634354090, "lat": 32.625813, "lon": 44.0533231}, {"type": "node", "id": 9111123074, "lat": 32.6575421, "lon": 43.978883}, {"type": "node", "id": 9111123075, "lat": 32.6575248, "lon": 43.978024}, {"type": "node", "id": 9111123076, "lat": 32.657795, "lon": 43.9772524}, {"type": "node", "id": 9111123077, "lat": 32.6577901, "lon": 43.9765287}, {"type": "node", "id": 9487475498, "lat": 32.5806191, "lon": 43.9753144}, {"type": "node", "id": 9487475504, "lat": 32.6173171, "lon": 43.9481631}, {"type": "node", "id": 9487486903, "lat": 32.6548315, "lon": 43.973664}, {"type": "node", "id": 9487501605, "lat": 32.5315288, "lon": 44.0159947}, {"type": "node", "id": 9487617904, "lat": 32.6472839, "lon": 43.9667884}, {"type": "node", "id": 9583744566, "lat": 32.638004, "lon": 43.9545229}, {"type": "node", "id": 9583814691, "lat": 32.6221217, "lon": 43.9463828}, {"type": "node", "id": 9643343481, "lat": 32.5610562, "lon": 44.0938119}, {"type": "node", "id": 9643343482, "lat": 32.5683379, "lon": 44.093993}, {"type": "node", "id": 9643343483, "lat": 32.5733163, "lon": 44.0961211}, {"type": "node", "id": 9643343488, "lat": 32.6126093, "lon": 44.0619477}, {"type": "node", "id": 9687278966, "lat": 32.6035354, "lon": 44.1000905}, {"type": "node", "id": 9687278967, "lat": 32.6056736, "lon": 44.0902894}, {"type": "node", "id": 9687278968, "lat": 32.6063823, "lon": 44.0831491}, {"type": "node", "id": 9687278969, "lat": 32.6048692, "lon": 44.0955905}, {"type": "node", "id": 9687278970, "lat": 32.606686, "lon": 44.0804008}, {"type": "node", "id": 9687278971, "lat": 32.6076788, "lon": 44.0706585}, {"type": "node", "id": 9687278972, "lat": 32.6071993, "lon": 44.0649001}, {"type": "node", "id": 9687278976, "lat": 32.6402976, "lon": 44.030831}, {"type": "node", "id": 9687278977, "lat": 32.6345469, "lon": 44.0283432}, {"type": "node", "id": 9687278978, "lat": 32.6344277, "lon": 44.020767}, {"type": "node", "id": 9687278979, "lat": 32.6387762, "lon": 44.0186516}, {"type": "node", "id": 9687278980, "lat": 32.6439544, "lon": 44.0167346}, {"type": "node", "id": 9738039331, "lat": 32.6578418, "lon": 43.980119}, {"type": "node", "id": 9738039332, "lat": 32.658367, "lon": 43.9831685}, {"type": "node", "id": 9738039333, "lat": 32.6587869, "lon": 43.984369}, {"type": "node", "id": 9738039334, "lat": 32.6596127, "lon": 43.9858771}, {"type": "node", "id": 9738039335, "lat": 32.6604294, "lon": 43.986641}, {"type": "node", "id": 9738039336, "lat": 32.6604927, "lon": 43.9867752}, {"type": "node", "id": 9738039337, "lat": 32.6483658, "lon": 44.0168556}, {"type": "node", "id": 9738039338, "lat": 32.6540105, "lon": 44.0003799}, {"type": "node", "id": 9738039339, "lat": 32.6536774, "lon": 44.004438}, {"type": "node", "id": 9738039340, "lat": 32.6432321, "lon": 44.0315842}, {"type": "node", "id": 9738039341, "lat": 32.6441753, "lon": 44.0338062}, {"type": "node", "id": 9738039342, "lat": 32.6474293, "lon": 44.0389942}, {"type": "node", "id": 9738039343, "lat": 32.6472132, "lon": 44.0498065}, {"type": "node", "id": 9738039344, "lat": 32.6476653, "lon": 44.0544616}, {"type": "node", "id": 9738039345, "lat": 32.6438441, "lon": 44.0520899}, {"type": "node", "id": 9738039346, "lat": 32.6401267, "lon": 44.0555389}, {"type": "node", "id": 9738039347, "lat": 32.6348469, "lon": 44.058339}, {"type": "node", "id": 10200344593, "lat": 32.5365056, "lon": 44.0042836}, {"type": "node", "id": 10200344594, "lat": 32.6304343, "lon": 43.9475148}, {"type": "node", "id": 10200344595, "lat": 32.6247319, "lon": 43.946195}, {"type": "node", "id": 10200344596, "lat": 32.5738868, "lon": 43.980489}, {"type": "node", "id": 10200344597, "lat": 32.5711909, "lon": 43.9850767}, {"type": "node", "id": 10200344598, "lat": 32.5695719, "lon": 43.9838995}, {"type": "node", "id": 10200344599, "lat": 32.565534, "lon": 43.9902962}, {"type": "node", "id": 10200344600, "lat": 32.5578556, "lon": 43.9846861}, {"type": "node", "id": 10200344602, "lat": 32.545161, "lon": 43.9985593}, {"type": "node", "id": 10200344603, "lat": 32.5488571, "lon": 44.0007805}, {"type": "node", "id": 10200344607, "lat": 32.5394904, "lon": 44.031558}, {"type": "node", "id": 10200344608, "lat": 32.5294131, "lon": 44.0236583}, {"type": "node", "id": 10200344609, "lat": 32.5397841, "lon": 44.0059919}, {"type": "node", "id": 10200344610, "lat": 32.5338182, "lon": 44.0110618}, {"type": "node", "id": 10200344611, "lat": 32.5329561, "lon": 44.0134705}, {"type": "node", "id": 10200369619, "lat": 32.5438766, "lon": 44.0981557}, {"type": "node", "id": 10200369622, "lat": 32.5366087, "lon": 44.0893136}, {"type": "node", "id": 10200369624, "lat": 32.5422434, "lon": 44.0997396}, {"type": "node", "id": 10200369626, "lat": 32.5401659, "lon": 44.0961829}, {"type": "node", "id": 10200369631, "lat": 32.569398, "lon": 44.0940626}, {"type": "node", "id": 10200369632, "lat": 32.5701362, "lon": 44.094219}, {"type": "node", "id": 10200369633, "lat": 32.571184, "lon": 44.0946713}, {"type": "node", "id": 10200369634, "lat": 32.5723208, "lon": 44.0953662}, {"type": "node", "id": 10200369635, "lat": 32.5760028, "lon": 44.0978963}, {"type": "node", "id": 10200369636, "lat": 32.5839754, "lon": 44.0972194}, {"type": "node", "id": 11018644341, "lat": 32.5227299, "lon": 44.0571858}, {"type": "node", "id": 11018644342, "lat": 32.5288915, "lon": 44.0719387}, {"type": "node", "id": 11018644343, "lat": 32.5464601, "lon": 44.0960319}, {"type": "node", "id": 11018644344, "lat": 32.5474782, "lon": 44.0953788}, {"type": "node", "id": 11018644345, "lat": 32.5480972, "lon": 44.0943928}, {"type": "node", "id": 11055059521, "lat": 32.5742467, "lon": 44.0969906}, {"type": "node", "id": 11055059522, "lat": 32.5751248, "lon": 44.0979152}, {"type": "way", "id": 1040938006, "nodes": [9487617904, 9487486903, 5000780355, 9111123077, 9111123076, 9111123075, 9111123074, 9738039331, 5549971393, 9738039332, 9738039333, 5000780353, 9738039334, 9738039335, 9738039336, 5000780352, 9738039338, 9738039339, 9738039337, 9687278980, 9687278979, 9687278978, 9687278977, 9687278976, 9738039340, 9738039341, 9738039342, 9738039343, 9738039344, 9738039345, 9738039346, 9738039347, 8634354090, 9643343488, 9687278972, 9687278971, 9687278970, 9687278968, 9687278967, 9687278969, 9687278966, 5000780305, 5000780309, 8401830740, 10200369636, 10200369635, 11055059522, 11055059521, 9643343483, 10200369634, 10200369633, 10200369632, 10200369631, 9643343482, 9643343481, 11018644345, 11018644344, 11018644343, 10200369619, 10200369624, 10200369626, 10200369622, 11018644342, 11018644341, 10200344607, 10200344608, 9487501605, 10200344611, 10200344610, 10200344593, 10200344609, 10200344602, 10200344603, 10200344600, 10200344599, 10200344598, 10200344597, 10200344596, 9487475498, 9487475504, 5613002738, 9583814691, 10200344595, 6042424642, 10200344594, 5000780358, 9583744566, 6042424637, 9487617904], "tags": {"name": "\u0643\u0631\u0628\u0644\u0627\u0621", "name:ar": "\u0643\u0631\u0628\u0644\u0627\u0621", "name:de": "Kerbela", "name:en": "Karbala", "name:fa": "\u06a9\u0631\u0628\u0644\u0627", "name:fr": "Kerbala", "name:he": "\u05db\u05e8\u05d1\u05dc\u05d0", "name:hi": "\u0915\u0930\u092c\u0932\u093e", "name:ja": "\u30ab\u30eb\u30d0\u30e9\u30fc", "name:ru": "\u041a\u0435\u0440\u0431\u0435\u043b\u0430", "name:tr": "Kerbel\u00e2", "name:zh": "\u5361\u723e\u5df4\u62c9", "place": "city", "wikidata": "Q199909", "wikipedia": "ar:\u0643\u0631\u0628\u0644\u0627\u0621"}}]}