{"version": 0.6, "generator": "Overpass API 0.7.61.5 4133829e", "osm3s": {"timestamp_osm_base": "2024-03-05T13:42:59Z", "copyright": "The data included in this document is from www.openstreetmap.org. The data is made available under ODbL."}, "elements": [{"type": "node", "id": 8165922918, "lat": 33.7448109, "lon": 67.7262505, "tags": {"place": "hamlet"}}, {"type": "node", "id": 11247577879, "lat": 33.3476914, "lon": 67.3455928, "tags": {"name": "\u0634\u0646\u06cc\u0647 \u062f\u0647", "name:en": "Shinia-Deh", "place": "village"}}, {"type": "node", "id": 11247583940, "lat": 33.3525277, "lon": 67.3352368, "tags": {"name": "\u062a\u0646\u06af\u06cc", "name:en": "Tangi", "place": "village"}}, {"type": "node", "id": 11247739572, "lat": 33.3881189, "lon": 67.3669026, "tags": {"name": "\u0646\u0648\u062f\u0647", "name:en": "Nawdeh", "place": "village"}}, {"type": "node", "id": 11254472119, "lat": 33.4019448, "lon": 67.4423101, "tags": {"name": "\u0627\u0648\u0644\u0648\u0645 \u0628\u0644\u062e\u0633\u0648", "name:en": "Ulum Blagh Su", "place": "village"}}, {"type": "node", "id": 11254487286, "lat": 33.403563, "lon": 67.4100692, "tags": {"name": "\u0633\u0628\u0632\u06a9", "name:en": "Sabzak", "place": "village"}}, {"type": "node", "id": 11254487287, "lat": 33.41243, "lon": 67.4299681, "tags": {"name": "\u0628\u0627\u0633\u0627\u0631", "name:en": "Bassar", "place": "village"}}, {"type": "node", "id": 11254491765, "lat": 33.411039, "lon": 67.4732478, "tags": {"name": "\u0686\u0644\u0645\u0642\u0648\u0644", "name:en": "Chalmaqul", "place": "village"}}, {"type": "node", "id": 11254498094, "lat": 33.4142153, "lon": 67.4826498, "tags": {"name": "\u0628\u06cc\u062f\u0642\u0648\u0644", "name:en": "Bidqul", "place": "village"}}, {"type": "node", "id": 11254545225, "lat": 33.4302453, "lon": 67.4311585, "tags": {"name": "\u0628\u0644\u0648\u063a\u0648", "name:en": "Blawghu", "place": "village"}}, {"type": "node", "id": 11254559197, "lat": 33.5137781, "lon": 67.5600812, "tags": {"name": "\u0633\u0648\u0631\u062e\u0646\u06af\u06a9", "name:en": "Surkhangak", "place": "village"}}, {"type": "node", "id": 11254570858, "lat": 33.4956075, "lon": 67.5274544, "tags": {"name": "\u062e\u0631\u06af\u0648\u0644", "name:en": "Khargol", "place": "village"}}, {"type": "node", "id": 11254573827, "lat": 33.523087, "lon": 67.5475456, "tags": {"name": "Dahan Qarqand", "name:fa": "\u062f\u0647\u0646 \u0642\u0631\u0642\u0646\u062f", "place": "village"}}, {"type": "node", "id": 11254583938, "lat": 33.5157531, "lon": 67.5367041, "tags": {"name": "\u0642\u06cc\u0634\u0644\u06cc\u063a\u0627\u06a9", "name:en": "Qeshleghak", "place": "village"}}, {"type": "node", "id": 11254703006, "lat": 33.5280997, "lon": 67.5732717, "tags": {"name": "\u062f\u06cc\u0648\u0627\u0644", "name:en": "Diwal", "place": "village"}}, {"type": "node", "id": 11254728127, "lat": 33.5388824, "lon": 67.5855617, "tags": {"name": "\u0633\u0646\u06af \u062f\u0647", "name:en": "Sangdeh", "place": "village"}}, {"type": "node", "id": 11254766008, "lat": 33.5418819, "lon": 67.4446255, "tags": {"name": "\u0633\u0631\u062c\u0646\u06af\u0644", "name:en": "Sar jangle", "place": "village"}}, {"type": "node", "id": 11254774903, "lat": 33.5194396, "lon": 67.4645532, "tags": {"name": "\u063a\u0648\u063a\u0647", "name:en": "Ghogha", "place": "village"}}, {"type": "node", "id": 11254775308, "lat": 33.536758, "lon": 67.4600167, "tags": {"name": "\u062f\u0627\u0644\u0647", "name:en": "Dala", "place": "village"}}, {"type": "node", "id": 11254789535, "lat": 33.4191946, "lon": 67.3360625, "tags": {"name": "\u0645\u06a9\u0646\u06a9", "name:en": "Maknak", "place": "village"}}, {"type": "node", "id": 11254803961, "lat": 33.424762, "lon": 67.3355962, "tags": {"name": "\u06af\u0631\u062f\u0648", "name:en": "Gardo", "place": "village"}}, {"type": "node", "id": 11254807379, "lat": 33.4292125, "lon": 67.3218076, "tags": {"name": "\u06af\u0631\u062f\u0646", "name:en": "Gardan", "place": "village"}}, {"type": "node", "id": 11254832060, "lat": 33.4087075, "lon": 67.3378563, "tags": {"name": "\u0642\u0648\u0644 \u0648\u0648\u0631\u062f\u0647", "name:en": "Qol Worda", "place": "village"}}]}