{"version": 0.6, "generator": "Overpass API 0.7.61.5 4133829e", "osm3s": {"timestamp_osm_base": "2024-03-06T10:45:02Z", "copyright": "The data included in this document is from www.openstreetmap.org. The data is made available under ODbL."}, "elements": [{"type": "node", "id": 2485442490, "lat": 31.564234, "lon": 45.149504, "tags": {"alt_name": "\u0645\u062f\u0631\u0633\u0629 \u0627\u0644\u0639\u0631\u0627\u0636\u064a\u0627\u062a", "amenity": "school", "int_name": "Madrasat al Ar\u0101\u1e11\u012by\u0101t, \u0645\u062f\u0631\u0633\u0629 \u0627\u0644\u0639\u0631\u0627\u0636\u064a\u0627\u062a, Madrasat al Aradiyat, \u0645\u062f\u0631\u0633\u0629 \u0627\u0644\u0639\u0631\u0627\u0636\u064a\u0627\u062a", "name": "\u0645\u062f\u0631\u0633\u0629 \u0627\u0644\u0639\u0631\u0627\u0636\u064a\u0627\u062a", "name:ar": "\u0645\u062f\u0631\u0633\u0629 \u0627\u0644\u0639\u0631\u0627\u0636\u064a\u0627\u062a", "name:ar1": "\u0645\u062f\u0631\u0633\u0629 \u0627\u0644\u0639\u0631\u0627\u0636\u064a\u0627\u062a", "name:de": "Madrasat al Aradiyat", "name:en": "Madrasat al Aradiyat", "name:fr": "Madrasat al Aradiyat"}}, {"type": "node", "id": 4493970095, "lat": 31.4530967, "lon": 45.2173088, "tags": {"amenity": "school", "name": "\u0645\u062f\u0631\u0633\u0647 \u0627\u0644\u062c\u0648\u0644\u0627\u0646 \u0627\u0644\u0627\u0628\u062a\u062f\u0627\u0626\u064a\u0647", "name:ar": "\u0645\u062f\u0631\u0633\u0647 \u0627\u0644\u062c\u0648\u0644\u0627\u0646 \u0627\u0644\u0627\u0628\u062a\u062f\u0627\u0626\u064a\u0647"}}, {"type": "node", "id": 4520375195, "lat": 31.5287134, "lon": 45.1959597, "tags": {"amenity": "school", "name": "\u0645\u062a\u0648\u0633\u0637\u0629 \u0627\u0644\u0634\u0631\u064a\u0641 \u0627\u0644\u0631\u0636\u064a", "name:ar": "\u0645\u062a\u0648\u0633\u0637\u0629 \u0627\u0644\u0634\u0631\u064a\u0641 \u0627\u0644\u0631\u0636\u064a"}}, {"type": "node", "id": 4520393291, "lat": 31.532395, "lon": 45.2064259, "tags": {"amenity": "school", "name": "\u0645\u062f\u0631\u0633\u0629 \u0627\u0644\u062b\u0642\u0644\u064a\u0646 \u0644\u0644\u0628\u0646\u064a\u0646", "name:ar": "\u0645\u062f\u0631\u0633\u0629 \u0627\u0644\u062b\u0642\u0644\u064a\u0646 \u0644\u0644\u0628\u0646\u064a\u0646"}}, {"type": "node", "id": 4586112290, "lat": 31.525268, "lon": 45.1924104, "tags": {"amenity": "school", "name": "\u0645\u062f\u0631\u0633\u0629 \u0627\u0643\u062f \u0627\u0644\u0627\u0647\u0644\u064a\u0629", "name:ar": "\u0645\u062f\u0631\u0633\u0629 \u0627\u0643\u062f \u0627\u0644\u0627\u0647\u0644\u064a\u0629"}}, {"type": "node", "id": 4594413990, "lat": 31.4477251, "lon": 45.4162145, "tags": {"amenity": "school", "name": "\u0645\u062f\u0631\u0633\u0629 \u0627\u0644\u0627\u0639\u0631\u0627\u0641 \u0627\u0644\u0627\u0628\u062a\u062f\u0627\u0626\u064a\u0629", "name:ar": "\u0645\u062f\u0631\u0633\u0629 \u0627\u0644\u0627\u0639\u0631\u0627\u0641 \u0627\u0644\u0627\u0628\u062a\u062f\u0627\u0626\u064a\u0629"}}, {"type": "node", "id": 4603491693, "lat": 31.3655693, "lon": 45.2933768, "tags": {"addr:street": "\u0642\u0631\u064a\u0629 \u0627\u0644\u0634\u0646\u0627\u0628\u0631\u0629", "amenity": "school", "name": "\u0645\u062f\u0631\u0633\u0629 \u0627\u0644\u0633\u0631\u0648\u0631", "name:ar": "\u0645\u062f\u0631\u0633\u0629 \u0627\u0644\u0633\u0631\u0648\u0631", "name:en": "al srour school"}}, {"type": "node", "id": 4607459090, "lat": 31.3101627, "lon": 45.2835795, "tags": {"amenity": "school", "name": "\u0645\u062f\u0631\u0633\u0629 \u0634\u0645\u0633 \u0627\u0644\u0645\u0639\u0627\u0631\u0641 \u0627\u0644\u0627\u0647\u0644\u064a\u0629", "name:ar": "\u0645\u062f\u0631\u0633\u0629 \u0634\u0645\u0633 \u0627\u0644\u0645\u0639\u0627\u0631\u0641 \u0627\u0644\u0627\u0647\u0644\u064a\u0629"}}, {"type": "node", "id": 4609369292, "lat": 31.2958462, "lon": 45.2851238, "tags": {"amenity": "school", "name": "\u0627\u0639\u062f\u0627\u062f\u064a\u0629 \u0627\u0644\u062a\u062c\u0627\u0631\u0629 \u0644\u0644\u0628\u0646\u0627\u062a", "name:ar": "\u0627\u0639\u062f\u0627\u062f\u064a\u0629 \u0627\u0644\u062a\u062c\u0627\u0631\u0629 \u0644\u0644\u0628\u0646\u0627\u062a"}}, {"type": "node", "id": 4609370490, "lat": 31.3124235, "lon": 45.2843077, "tags": {"amenity": "school", "name": "\u0627\u0644\u0627\u0639\u062f\u0627\u062f\u064a\u0629 \u0627\u0644\u0645\u0631\u0643\u0632\u064a\u0629 \u0644\u0644\u0628\u0646\u064a\u0646", "name:ar": "\u0627\u0644\u0627\u0639\u062f\u0627\u062f\u064a\u0629 \u0627\u0644\u0645\u0631\u0643\u0632\u064a\u0629 \u0644\u0644\u0628\u0646\u064a\u0646"}}, {"type": "node", "id": 4610232691, "lat": 31.3124399, "lon": 45.2853954, "tags": {"amenity": "school", "name": "\u0645\u062f\u0631\u0633\u0629 \u0633\u0648\u0645\u0631", "name:ar": "\u0645\u062f\u0631\u0633\u0629 \u0633\u0648\u0645\u0631"}}, {"type": "node", "id": 4617668589, "lat": 31.3133493, "lon": 45.2768475, "tags": {"amenity": "school", "name": "\u0645\u062f\u0631\u0633\u0629 \u0627\u0648\u0631\u0648\u0643 \u0627\u0644\u0627\u0647\u0644\u064a\u0629", "name:ar": "\u0645\u062f\u0631\u0633\u0629 \u0627\u0648\u0631\u0648\u0643 \u0627\u0644\u0627\u0647\u0644\u064a\u0629"}}, {"type": "node", "id": 4617668690, "lat": 31.3140095, "lon": 45.27914, "tags": {"amenity": "school", "name": "\u0645\u062a\u0648\u0633\u0637\u0629 \u0627\u0644\u0627\u0645\u0627\u0645 \u0627\u0644\u062d\u0633\u064a\u0646 \u0639 ( \u0627\u0644\u0637\u0644\u064a\u0639\u0629)", "name:ar": "\u0645\u062a\u0648\u0633\u0637\u0629 \u0627\u0644\u0627\u0645\u0627\u0645 \u0627\u0644\u062d\u0633\u064a\u0646 \u0639 ( \u0627\u0644\u0637\u0644\u064a\u0639\u0629)"}}, {"type": "node", "id": 4620406692, "lat": 31.3160219, "lon": 45.2822155, "tags": {"amenity": "school", "name": "\u0627\u0639\u062f\u0627\u062f\u064a\u0629 \u0627\u0644\u0633\u0645\u0627\u0648\u0629 \u0644\u0644\u0628\u0646\u0627\u062a", "name:ar": "\u0627\u0639\u062f\u0627\u062f\u064a\u0629 \u0627\u0644\u0633\u0645\u0627\u0648\u0629 \u0644\u0644\u0628\u0646\u0627\u062a"}}, {"type": "node", "id": 4620518490, "lat": 31.3151472, "lon": 45.2790092, "tags": {"amenity": "school", "name": "\u0645\u0639\u0647\u062f \u0627\u0644\u0645\u0639\u0644\u0645\u0627\u062a", "name:ar": "\u0645\u0639\u0647\u062f \u0627\u0644\u0645\u0639\u0644\u0645\u0627\u062a"}}, {"type": "node", "id": 4629506744, "lat": 31.4696762, "lon": 45.2880905, "tags": {"amenity": "school", "name": "\u0645\u062f\u0631\u0633\u0629 \u0627\u0644\u0641\u0636\u064a\u0644\u0629 \u0644\u0644\u0628\u0646\u0627\u062a"}}, {"type": "node", "id": 4702078792, "lat": 31.3003706, "lon": 45.258875, "tags": {"amenity": "school", "name": "\u0645\u062f\u0631\u0633\u0629 \u0627\u0644\u0645\u0631\u0628\u062f", "name:ar": "\u0645\u062f\u0631\u0633\u0629 \u0627\u0644\u0645\u0631\u0628\u062f"}}, {"type": "node", "id": 4702081093, "lat": 31.3005377, "lon": 45.2599315, "tags": {"amenity": "school", "name": "\u0631\u0648\u0636\u0629 \u0627\u0644\u0646\u0633\u0631\u064a\u0646", "name:ar": "\u0631\u0648\u0636\u0629 \u0627\u0644\u0646\u0633\u0631\u064a\u0646"}}, {"type": "node", "id": 4702084689, "lat": 31.3171464, "lon": 45.2764907, "tags": {"addr:street": "3", "amenity": "school", "name": "\u0627\u0639\u062f\u0627\u062f\u064a\u0629 \u0627\u0644\u0633\u0645\u0627\u0648\u0629 \u0644\u0644\u0628\u0646\u064a\u0646", "name:ar": "\u062b\u0627\u0646\u0648\u064a\u0629 \u0627\u0644\u062a\u062d\u0631\u064a\u0631 \u0644\u0644\u0645\u062a\u0645\u064a\u0632\u064a\u0646", "name:en": "Al-Tahrir Secondary  School"}}, {"type": "node", "id": 4702086795, "lat": 31.2993655, "lon": 45.2594323, "tags": {"amenity": "school", "name": "\u0645\u062f\u0631\u0633\u0629 \u0627\u0644\u0628\u064a\u062a \u0627\u0644\u0639\u062a\u064a\u0642", "name:ar": "\u0645\u062f\u0631\u0633\u0629 \u0627\u0644\u0628\u064a\u062a \u0627\u0644\u0639\u062a\u064a\u0642"}}, {"type": "node", "id": 4706894293, "lat": 31.4151931, "lon": 45.2644294, "tags": {"amenity": "school", "denomination": "shia", "name": "\u0645\u062f\u0631\u0633\u0629 \u0627\u0644\u0648\u062b\u0628\u0629 \u0627\ufefb\u0628\u062a\u062f\u0627\u0626\u064a\u0647", "name:ar": "\u0645\u062f\u0631\u0633\u0629 \u0627\u0644\u0648\u062b\u0628\u0629 \u0627\ufefb\u0628\u062a\u062f\u0627\u0626\u064a\u0647", "religion": "muslim"}}, {"type": "node", "id": 4712167790, "lat": 31.3063811, "lon": 45.2702124, "tags": {"amenity": "school", "name": "\u0645\u062f\u0631\u0633\u0629 \u0627\u0645\u0646\u0629 \u0628\u0646\u062a \u0648\u0647\u0628", "name:ar": "\u0645\u062f\u0631\u0633\u0629 \u0627\u0645\u0646\u0629 \u0628\u0646\u062a \u0648\u0647\u0628"}}, {"type": "node", "id": 4712181189, "lat": 31.3075354, "lon": 45.2705019, "tags": {"amenity": "school", "name": "\u0645\u062a\u0648\u0633\u0637\u0629 \u0631\u0642\u064a\u0629 \u0644\u0644\u0628\u0646\u0627\u062a", "name:ar": "\u0645\u062a\u0648\u0633\u0637\u0629 \u0631\u0642\u064a\u0629 \u0644\u0644\u0628\u0646\u0627\u062a"}}, {"type": "node", "id": 4775032530, "lat": 31.3126772, "lon": 45.2698634, "tags": {"amenity": "school", "name": "\u0645\u062f\u0631\u0633\u0629 \u0627\u0644\u0627\u0645\u0644 \u0627\u0644\u0645\u0646\u062a\u0638\u0631 \u0627\u0644\u0627\u0628\u062a\u062f\u0627\u0626\u064a\u0629 \u0644\u0644\u0627\u064a\u062a\u0627\u0645", "name:ar": "\u0645\u062f\u0631\u0633\u0629 \u0627\u0644\u0627\u0645\u0644 \u0627\u0644\u0645\u0646\u062a\u0638\u0631 \u0627\u0644\u0627\u0628\u062a\u062f\u0627\u0626\u064a\u0629 \u0644\u0644\u0627\u064a\u062a\u0627\u0645"}}, {"type": "node", "id": 4843225723, "lat": 31.3127313, "lon": 45.2699992, "tags": {"amenity": "school", "name": "\u0645\u062f\u0631\u0633\u0629 \u0627\u0644\u0627\u0645\u0644 \u0627\u0644\u0645\u0646\u062a\u0638\u0631 \u0627\u0644\u0627\u0628\u062a\u062f\u0627\u0626\u064a\u0629 \u0644\u0631\u0639\u0627\u064a\u0629 \u0627\u0644\u0627\u064a\u062a\u0627\u0645 \u0627\u0644\u0645\u062e\u062a\u0644\u0637\u0629", "name:ar": "\u0645\u062f\u0631\u0633\u0629 \u0627\u0644\u0627\u0645\u0644 \u0627\u0644\u0645\u0646\u062a\u0638\u0631 \u0627\u0644\u0627\u0628\u062a\u062f\u0627\u0626\u064a\u0629 \u0644\u0631\u0639\u0627\u064a\u0629 \u0627\u0644\u0627\u064a\u062a\u0627\u0645 \u0627\u0644\u0645\u062e\u062a\u0644\u0637\u0629", "opening_hours": "Su-Th 08:00-13:00"}}, {"type": "node", "id": 4861336024, "lat": 31.3102638, "lon": 45.2833129, "tags": {"amenity": "school", "name": "\u062b\u0627\u0646\u0648\u064a\u0629 \u0627\u0644\u0645\u0646\u0627\u0631 \u0627\u0644\u0623\u0647\u0644\u064a\u0629", "name:ar": "\u062b\u0627\u0646\u0648\u064a\u0629 \u0627\u0644\u0645\u0646\u0627\u0631 \u0627\u0644\u0623\u0647\u0644\u064a\u0629"}}, {"type": "node", "id": 4954986121, "lat": 31.3374058, "lon": 45.2887541, "tags": {"amenity": "school", "name": "\u062c\u0627\u0645\u0639\u0629 \u0627\u0644\u0645\u062b\u0646\u0649", "name:ar": "\u062c\u0627\u0645\u0639\u0629 \u0627\u0644\u0645\u062b\u0646\u0649", "name:en": "Al-muthanna university"}}, {"type": "node", "id": 5116394642, "lat": 31.493677, "lon": 45.3200036, "tags": {"amenity": "school", "name": "\u0645\u062f\u0631\u0633\u0629 \u0627\u0644\u0645\u062f\u0627\u0626\u0646 \u0627\u0644\u0628\u062a\u062f\u0627\u0626\u064a\u0629"}}, {"type": "node", "id": 5116394648, "lat": 31.4607779, "lon": 45.2896732, "tags": {"amenity": "school", "name": "\u0627\u0639\u062f\u0627\u062f\u064a\u0629 \u0627\u0628\u0646 \u062d\u064a\u0627\u0646"}}, {"type": "node", "id": 5117581660, "lat": 31.4490493, "lon": 45.288265, "tags": {"amenity": "school", "name": "\u0645\u062f\u0631\u0633\u0629 \u0641\u0644\u0633\u0637\u064a\u0646 \u0627\u0644\u0627\u0628\u062a\u062f\u0627\u0626\u064a\u0629"}}, {"type": "node", "id": 5119594355, "lat": 31.4695215, "lon": 45.2879379, "tags": {"amenity": "school", "name": "\u0645\u062f\u0631\u0633\u0629 \u0627\u0644\u0628\u062f\u0648\u0631 \u0644\u0644\u0628\u0646\u0627\u062a"}}, {"type": "node", "id": 5122460122, "lat": 31.3027956, "lon": 45.2705518, "tags": {"amenity": "school", "name": "\u0645\u062f\u0631\u0633\u0629 \u0627\u0645 \u0633\u0644\u0645\u0649"}}, {"type": "node", "id": 5155257150, "lat": 31.3189183, "lon": 45.2381927, "tags": {"amenity": "school", "name": "\u0645\u062f\u0631\u0633\u0629 \u0627\u0628\u0648 \u0641\u0631\u0627\u0633 \u0627\u0644\u0627\u0628\u062a\u062f\u0627\u0626\u064a\u0647", "name:ar": "\u0645\u062f\u0631\u0633\u0629 \u0627\u0628\u0648 \u0641\u0631\u0627\u0633 \u0627\u0644\u0627\u0628\u062a\u062f\u0627\u0626\u064a\u0647"}}, {"type": "node", "id": 5345758325, "lat": 31.30124, "lon": 45.2750633, "tags": {"amenity": "school", "name": "\u0627\u0644\u062d\u0648\u0631\u0627\u0621 \u0644\u0644\u0628\u0646\u0627\u062a"}}, {"type": "node", "id": 5391529823, "lat": 31.3004231, "lon": 45.2614248, "tags": {"amenity": "school", "name": "\u0645\u062f\u0631\u0633\u0629 \u0627\u0644\u0627\u0643\u0631\u0645\u064a\u0646 \u0648\u0627\u0645\u064a\u0631 \u0627\u0644\u0645\u0624\u0645\u0646\u064a\u0646", "name:ar": "\u0645\u062f\u0631\u0633\u0629 \u0627\u0644\u0627\u0643\u0631\u0645\u064a\u0646 \u0648\u0627\u0645\u064a\u0631 \u0627\u0644\u0645\u0624\u0645\u0646\u064a\u0646"}}, {"type": "node", "id": 5391529824, "lat": 31.3185115, "lon": 45.2743628, "tags": {"amenity": "school", "name": "\u062b\u0627\u0646\u0648\u064a\u0629 \u0627\u0644\u0643\u0646\u062f\u064a"}}, {"type": "node", "id": 5416842049, "lat": 31.3099154, "lon": 45.2625658, "tags": {"addr:city": "\u0627\u0644\u0633\u0645\u0627\u0648\u0629", "addr:country": "IQ", "amenity": "school", "facebook": "https://www.facebook.com/\u0645\u062f\u0631\u0633\u0629-\u0627\u0642\u0631\u0623-\u0623\u0644\u0627\u0628\u062a\u062f\u0627\u0626\u064a\u0629-\u0627\u0644\u0645\u062e\u062a\u0644\u0637\u0629-\u0623\u0644\u0627\u0647\u0644\u064a\u0629-1451374585169362/?rc=p", "name": "\u0645\u062f\u0631\u0633\u0629 \u0627\u0642\u0631\u0623"}}, {"type": "node", "id": 5426193121, "lat": 31.310565, "lon": 45.127999, "tags": {"amenity": "school", "name": "\u0645\u062f\u0631\u0633\u0629 \u0627\u0645 \u0627\u0644\u0642\u0631\u0649"}}, {"type": "node", "id": 5463235242, "lat": 31.3066119, "lon": 45.2720314, "tags": {"amenity": "school", "name": "\u0627\u0639\u062f\u0627\u062f\u064a\u0629 \u0627\u0644\u0632\u0647\u0631\u0627\u0621 \u0644\u0644\u0628\u0646\u0627\u062a"}}, {"type": "node", "id": 5561621423, "lat": 31.5425724, "lon": 45.2044169, "tags": {"amenity": "school", "name": "\u0645\u062f\u0631\u0633\u0629 \u0627\u0644\u0634\u0627\u0643\u0631\u064a\u0646 \u0627\u0644\u0627\u0628\u062a\u062f\u0627\u0626\u064a\u0629"}}, {"type": "node", "id": 5605113821, "lat": 31.3034329, "lon": 45.2773092, "tags": {"amenity": "school", "name": "\u0639\u0645\u0631 \u0627\u0644\u0645\u062e\u062a\u0627\u0631 \u0644\u0644\u0628\u0646\u064a\u0646"}}, {"type": "node", "id": 5650108023, "lat": 31.3382009, "lon": 45.2891507, "tags": {"amenity": "school", "name": "\u062c\u0627\u0645\u0639\u0629 \u0627\u0644\u0645\u062b\u0646\u0649", "name:ar": "\u062c\u0627\u0645\u0639\u0629 \u0627\u0644\u0645\u062b\u0646\u0649"}}, {"type": "node", "id": 5713299222, "lat": 31.5289148, "lon": 45.1957156, "tags": {"addr:street": "\u062d\u064a \u0627\u0644\u0645\u0639\u0644\u0645\u064a\u0646", "amenity": "school", "email": "kadhimfaaq@gmail.com", "name": "\u0645\u062f\u0631\u0633\u0629 \u0627\u0639\u062f\u0627\u062f\u064a\u0629 \u0627\u0644\u0627\u0639\u062a\u0645\u0627\u062f \u0644\u0644\u0628\u0646\u064a\u0646", "opening_hours": "Su-Th 07:00-12:00"}}, {"type": "node", "id": 6025355485, "lat": 31.5218919, "lon": 45.1995767, "tags": {"amenity": "school", "name": "\u062b\u0627\u0646\u0648\u064a\u0629 \u0627\u0644\u0631\u0645\u064a\u062b\u0629 \u0644\u0644\u0628\u0646\u0627\u062a"}}, {"type": "node", "id": 6126052985, "lat": 31.3168338, "lon": 45.2827773, "tags": {"amenity": "school", "name": "\u0645\u062a\u0648\u0633\u0637\u0629 \u0627\u0644\u0643\u0631\u0627\u0645\u0629 \u0644\u0644\u0628\u0646\u0627\u062a"}}, {"type": "node", "id": 6126107685, "lat": 31.3168389, "lon": 45.2827872, "tags": {"amenity": "school", "name": "\u0645\u062a\u0648\u0633\u0637\u0629 \u0627\u0644\u0643\u0631\u0627\u0645\u0629 \u0644\u0644\u0628\u0646\u0627\u062a"}}, {"type": "node", "id": 6157265585, "lat": 31.4008272, "lon": 45.2001252, "tags": {"amenity": "school", "name": "\u062b\u0627\u0646\u0648\u064a\u0647 \u0623\u0628\u064a \u0627\u0644\u0639\u0644\u0627\u0621"}}, {"type": "node", "id": 6157265586, "lat": 31.4019732, "lon": 45.1994921, "tags": {"amenity": "school", "name": "\u0645\u062f\u0631\u0633\u0647 \u0627\u0644\u0628\u062d\u062a\u0631\u064a \u0644\u0627\u0628\u062a\u062f\u0627\u0626\u064a\u0647"}}, {"type": "node", "id": 6157265686, "lat": 31.4014179, "lon": 45.1998207, "tags": {"amenity": "school", "name": "\u062b\u0627\u0646\u0648\u064a\u0647 \u0627\u0644\u0645\u062c\u062f \u0644\u0644\u0628\u0646\u0627\u062a"}}, {"type": "node", "id": 6297695688, "lat": 31.3326399, "lon": 45.2922626, "tags": {"amenity": "school", "name": "\u0645\u062f\u0631\u0633\u0629 \u0643\u0641\u0631 \u0642\u0627\u0633\u0645", "name:en": "Kafr Kassem School"}}, {"type": "node", "id": 6311396089, "lat": 31.4405264, "lon": 45.4494267, "tags": {"amenity": "school", "name": "\u0645\u062f\u0631\u0633\u0629 \u0627\u0644\u0643\u0631\u0627\u0645\u0629 \u0627\u0644\u0627\u0628\u062a\u062f\u0627\u0626\u064a\u0629", "name:en": "alkrama school"}}, {"type": "node", "id": 6395308486, "lat": 31.3195777, "lon": 45.2672492, "tags": {"amenity": "school", "name": "\u0631\u0648\u0636\u0629 \u0627\u0644\u0632\u0646\u0627\u0628\u0642"}}, {"type": "node", "id": 6395321785, "lat": 31.3176956, "lon": 45.267285, "tags": {"amenity": "school", "name": "\u0645\u062f\u0631\u0633\u0629 \u0627\u0644\u0623\u0642\u0645\u0627\u0631 \u0627\u0644\u0645\u0646\u064a\u0631\u0629"}}, {"type": "node", "id": 6416659088, "lat": 31.5855365, "lon": 45.0895912, "tags": {"addr:street": "\u0627\u0644\u062d\u0645\u0632\u0629 \u0627\u0644\u0631\u0645\u064a\u062b\u0629", "amenity": "school", "email": "hamza_sahi@yahoo.com", "phone": "07816040292"}}, {"type": "node", "id": 6862995485, "lat": 31.3978025, "lon": 45.1753566, "tags": {"amenity": "school", "name": "\u0627\u0644\u0631\u064a\u0641 \u0627\u0644\u0632\u0627\u0647\u0631"}}, {"type": "node", "id": 6903116985, "lat": 31.2991647, "lon": 45.2641344, "tags": {"amenity": "school", "name": "\u0645\u062f\u0631\u0633\u0629 \u0627\u0644\u0645\u0631\u0648\u0629 \u0644\u0644\u0628\u0646\u0627\u062a", "opening_hours": "Su-Th 08:00-13:00"}}, {"type": "node", "id": 6984045785, "lat": 31.6654663, "lon": 45.1823583, "tags": {"amenity": "school", "name": "\u062b\u0627\u0646\u0648\u064a\u0647 \u0639\u0644\u064a \u0627\u0644\u0627\u0643\u0628\u0631"}}, {"type": "node", "id": 7007597886, "lat": 31.3391574, "lon": 45.2438317, "tags": {"amenity": "school", "name": "\u0645\u062f\u0631\u0633\u0629 \u0627\u0644\u0627\u0645\u0627\u0645 \u0639\u0644\u064a"}}, {"type": "node", "id": 7089454985, "lat": 31.3152384, "lon": 45.278831, "tags": {"amenity": "school", "name": "\u0627\u0639\u062f\u0627\u062f\u064a\u0629 \u0627\u0644\u0633\u0645\u0627\u0648\u0647 \u0644\u0644\u0628\u0646\u0627\u062a"}}, {"type": "node", "id": 7097430485, "lat": 31.4011381, "lon": 45.2047628, "tags": {"amenity": "school", "name": "\u0645\u062f\u0631\u0633\u0629 \u0627\u0644\u0641\u0627\u0637\u0645\u064a\u0647 \u0644\u0644\u0628\u0646\u0627\u062a"}}, {"type": "node", "id": 7176799436, "lat": 31.4896543, "lon": 45.3136764}, {"type": "node", "id": 7176799437, "lat": 31.4902536, "lon": 45.3139232}, {"type": "node", "id": 7176799438, "lat": 31.4904548, "lon": 45.3132258}, {"type": "node", "id": 7176799439, "lat": 31.4898693, "lon": 45.3129898}, {"type": "node", "id": 7176860652, "lat": 31.4637765, "lon": 45.290498}, {"type": "node", "id": 7176860653, "lat": 31.4637078, "lon": 45.2912786}, {"type": "node", "id": 7176860654, "lat": 31.4629036, "lon": 45.2911632}, {"type": "node", "id": 7176860655, "lat": 31.4630077, "lon": 45.2904176}, {"type": "node", "id": 7176861688, "lat": 31.4697128, "lon": 45.2914966}, {"type": "node", "id": 7176861689, "lat": 31.4693336, "lon": 45.2917903}, {"type": "node", "id": 7176861690, "lat": 31.4689762, "lon": 45.2911868}, {"type": "node", "id": 7176861691, "lat": 31.4693463, "lon": 45.2908911}, {"type": "node", "id": 7176877061, "lat": 31.4629185, "lon": 45.2912839}, {"type": "node", "id": 7176877062, "lat": 31.4628499, "lon": 45.2920752}, {"type": "node", "id": 7176877063, "lat": 31.4636529, "lon": 45.2918821}, {"type": "node", "id": 7176877064, "lat": 31.4636964, "lon": 45.2913993}, {"type": "node", "id": 7176877065, "lat": 31.4636758, "lon": 45.2913993}, {"type": "node", "id": 7835342585, "lat": 31.6675975, "lon": 45.1839341, "tags": {"amenity": "school", "name": "\u0627\u0644\u062d\u0631\u064a\u0629 \u0627\u0644\u0627\u0628\u062a\u062f\u0627\u0626\u064a\u0629"}}, {"type": "node", "id": 8144150019, "lat": 31.3283809, "lon": 45.4106696, "tags": {"amenity": "school", "name": "\u0645\u062a\u0648\u0633\u0637\u0647 \u0627\u0644\u062f\u0633\u062a\u0648\u0631 \u0644\u0644\u0628\u0646\u064a\u0646"}}, {"type": "node", "id": 8258175517, "lat": 31.4250861, "lon": 45.213137, "tags": {"amenity": "school", "name": "\u0645\u062f\u0631\u0633\u0629 \u0627\u0644\u062d\u062f\u0628\u0627\u0621 \u0627\u0644\u0627\u0628\u062a\u062f\u0627\u0626\u064a\u0629"}}, {"type": "node", "id": 8274810142, "lat": 31.4293084, "lon": 45.2651082, "tags": {"amenity": "school", "grades": "1-7", "name": "\u0645\u062f\u0631\u0633\u0629 \u0627\u0646\u0648\u0627\u0631 \u0627\u0644\u063a\u062f\u064a\u0631 \u0627\u0644\u0627\u0628\u062a\u062f\u0627\u0626\u064a\u0629", "religion": "muslim"}}, {"type": "node", "id": 8274830476, "lat": 31.3905861, "lon": 45.283394, "tags": {"amenity": "school", "grades": "1-7", "name": "\u0645\u062f\u0631\u0633\u0629 \u0637\u0644\u064a\u0637\u0644\u0629 \u0627\u0644\u0627\u0628\u062a\u062f\u0627\u0626\u064a\u0629"}}, {"type": "node", "id": 8274859963, "lat": 31.3874302, "lon": 45.2798851, "tags": {"amenity": "school", "name": "\u0645\u062f\u0631\u0633\u0629 \u0627\u0644\u0648\u0627\u062f\u064a \u0627\u0644\u0645\u0642\u062f\u0633"}}, {"type": "node", "id": 8462229517, "lat": 31.3271395, "lon": 45.2685214, "tags": {"amenity": "school", "name": "\u062b\u0627\u0646\u0648\u064a\u0629 \u0627\u0644\u0643\u0646\u062f\u064a \u0627\u0644\u0627\u0647\u0644\u064a\u0629 \u0644\u0644\u0628\u0646\u064a\u0646"}}, {"type": "node", "id": 9276994917, "lat": 31.5855688, "lon": 45.090004, "tags": {"addr:housenumber": "1575", "addr:postcode": "1756", "amenity": "school", "email": "hamza_sahi@yahoo.com", "name": "\u0645\u062f\u0631\u0633\u0629 \u0627\u0644\u0623\u0641\u0631\u0627\u062d", "phone": "+9647816040292"}}, {"type": "node", "id": 9389279017, "lat": 31.3791076, "lon": 45.2608607, "tags": {"addr:street": "\u0627\u0644 \u0628\u0648\u062d\u0645\u062f", "amenity": "school", "name": "\u0627\u0628\u064a \u062d\u0645\u0632\u0647 \u0627\u0644\u062b\u0645\u0627\u0644\u064a", "name:ku": "\u0627\u0644\u0627\u0634\u0628\u0627\u0644", "opening_hours": "Su-Th 08:00-12:00"}}, {"type": "node", "id": 9419115317, "lat": 31.4398939, "lon": 45.2667638, "tags": {"amenity": "school", "name": "\u0645\u0646\u062a\u062f\u0649 \u0627\u0644\u0632\u0647\u0631\u0627\u0621 \u0627\u0644\u0625\u0633\u0644\u0627\u0645\u064a \u0648\u0645\u062f\u0631\u0633\u0629 \u0627\u0644\u0634\u0647\u064a\u062f \u062c\u0627\u0633\u0645 \u0627\u0644\u0645\u0648\u0633\u0648\u064a"}}, {"type": "node", "id": 9713768611, "lat": 31.3520241, "lon": 45.2763794, "tags": {"amenity": "school", "name": "\u0627\u0628\u062a\u062f\u0627\u0626\u064a\u0629 \u0627\u0628\u0646 \u0627\u0644\u0628\u064a\u0637\u0627\u0631"}}, {"type": "node", "id": 9782727365, "lat": 31.3199199, "lon": 45.288869, "tags": {"amenity": "school", "name": "\u062b\u0627\u0646\u0648\u064a\u0629 \u0627\u0644\u0645\u062b\u0646\u0649"}}, {"type": "node", "id": 9782727366, "lat": 31.3195329, "lon": 45.2896193, "tags": {"amenity": "school", "name": "\u0645\u062f\u0631\u0633\u0629 \u0627\u0644\u0634\u0631\u0627\u0631"}}, {"type": "node", "id": 9782727367, "lat": 31.3196962, "lon": 45.2908722, "tags": {"amenity": "school"}}, {"type": "node", "id": 9828827282, "lat": 31.3826984, "lon": 45.2812763, "tags": {"amenity": "school", "name": "\u0645\u062f\u0631\u0633\u0629 \u0627\u0644\u0628\u0648\u062d\u0633\u064a\u0646"}}, {"type": "node", "id": 9834158741, "lat": 31.3539737, "lon": 45.2692866}, {"type": "node", "id": 9834158742, "lat": 31.3528949, "lon": 45.2692681}, {"type": "node", "id": 9834158743, "lat": 31.3528791, "lon": 45.269718}, {"type": "node", "id": 9834158744, "lat": 31.3527423, "lon": 45.2697241}, {"type": "node", "id": 9834158745, "lat": 31.352737, "lon": 45.270291}, {"type": "node", "id": 9834158746, "lat": 31.3539368, "lon": 45.2703403}, {"type": "node", "id": 9965353817, "lat": 31.3792659, "lon": 45.2616444, "tags": {"amenity": "school", "name": "\u0645\u062f\u0631\u0633\u0629 \u0627\u0628\u064a \u062d\u0645\u0632\u0647 \u0627\u0644\u062b\u0645\u0627\u0644\u064a", "opening_hours": "Su-Th 08:00-16:30"}}, {"type": "node", "id": 10249434517, "lat": 31.3594041, "lon": 45.2775237}, {"type": "node", "id": 10249434518, "lat": 31.3593639, "lon": 45.2785789}, {"type": "node", "id": 10249434519, "lat": 31.3601823, "lon": 45.2786254}, {"type": "node", "id": 10249434520, "lat": 31.3602317, "lon": 45.277568}, {"type": "node", "id": 10602571106, "lat": 31.3168473, "lon": 45.2104992, "tags": {"amenity": "school", "name": "\u0645\u062a\u0648\u0633\u0637\u0629 \u0648\u0627\u0631\u062b"}}, {"type": "node", "id": 10602603805, "lat": 31.3169397, "lon": 45.2110264, "tags": {"amenity": "school", "name": "\u0645\u062a\u0648\u0633\u0637\u0629 \u0648\u0627\u0631\u062b"}}, {"type": "node", "id": 10682494505, "lat": 31.4600935, "lon": 45.2883951, "tags": {"amenity": "school", "name": "\u0627\u0644\u0635\u064a\u0646\u064a\u0629"}}, {"type": "node", "id": 10865710213, "lat": 31.3296063, "lon": 45.2965284}, {"type": "node", "id": 10865710214, "lat": 31.32931, "lon": 45.2961886}, {"type": "node", "id": 10865710215, "lat": 31.3288928, "lon": 45.2966912}, {"type": "node", "id": 10865710216, "lat": 31.3291891, "lon": 45.2970026}, {"type": "node", "id": 10899591610, "lat": 31.4311114, "lon": 45.3325622, "tags": {"amenity": "school", "name": "\u0645\u062f\u0631\u0633\u0629 \u0627\u0644\u0645\u0646\u0647\u0644 \u0627\u0644\u0627\u0628\u062a\u062f\u0627\u0626\u064a\u0629"}}, {"type": "node", "id": 10899958805, "lat": 31.4567036, "lon": 45.2335085, "tags": {"amenity": "school", "name": "\u0645\u062f\u0631\u0633\u0629 \u0627\u0644\u062a\u0639\u0627\u0648\u0646"}}, {"type": "node", "id": 10899958905, "lat": 31.4568295, "lon": 45.233819, "tags": {"amenity": "school", "name": "\u0645\u062f\u0631\u0633\u0629 \u0627\u0644\u062a\u0639\u0627\u0648\u0646"}}, {"type": "node", "id": 11327664669, "lat": 31.696913, "lon": 45.0974943, "tags": {"addr:housenumber": "1428", "addr:postcode": "11558", "addr:street": "\u0634\u0627\u0631\u0639 \u0623\u0628\u0648 \u0635\u062e\u0631\u0629", "amenity": "school", "email": "hamzasahi2@gmail.com", "name": "\u0645\u062f\u0631\u0633\u0629 \u0646\u062c\u062f \u0627\u0644\u0627\u0628\u062a\u062f\u0627\u0626\u064a\u0629", "phone": "07819149402"}}, {"type": "node", "id": 11638702369, "lat": 31.4601192, "lon": 45.2015791, "tags": {"addr:street": "\u0645\u062f\u0631\u0633\u0629 \u0627\u0644\u0645\u0647\u0644\u0628 \u0627\u0644\u0627\u0628\u062a\u062f\u0627\u0626\u064a\u0629", "amenity": "school", "name": "\u0645\u062f\u0631\u0633\u0629 \u0627\u0644\u0645\u0647\u0644\u0628 \u0627\u0644\u0627\u0628\u062a\u062f\u0627\u0626\u064a\u0629", "opening_hours": "Th 09:00-18:00; Tu-We, Sa-Su 00:00-24:00"}}, {"type": "way", "id": 768730095, "nodes": [7176799436, 7176799437, 7176799438, 7176799439, 7176799436], "tags": {"amenity": "school", "name": "\u0645\u062f\u0631\u0633\u0629 \u0627\u0644\u0645\u062e\u062a\u0627\u0631 \u0627\u0644\u0627\u0628\u062a\u062f\u0627\u0626\u064a\u0629"}}, {"type": "way", "id": 768732001, "nodes": [7176861688, 7176861689, 7176861690, 7176861691, 7176861688], "tags": {"amenity": "school", "name": "\u0645\u062f\u0631\u0633\u0629 \u0627\u0644\u0648\u0631\u0643\u0627\u0621 \u0627\u0644\u0627\u0628\u062a\u062f\u0627\u0626\u064a\u0629 \u0644\u0644\u0628\u0646\u064a\u0646"}}, {"type": "way", "id": 768732722, "nodes": [7176877061, 7176877062, 7176877063, 7176877064, 7176877065, 7176877061], "tags": {"amenity": "school", "name": "\u0645\u062a\u0648\u0633\u0637\u0629 \u0645\u0627\u0644\u0643 \u0627\u0644\u0627\u0634\u062a\u0631"}}, {"type": "way", "id": 768733070, "nodes": [7176860652, 7176860653, 7176860654, 7176860655, 7176860652], "tags": {"amenity": "school", "name": "\u0627\u0639\u062f\u0627\u062f\u064a\u0629 \u0627\u0644\u0648\u0631\u0643\u0627\u0621 \u0627\u0644\u0645\u0647\u0646\u064a\u0629"}}, {"type": "way", "id": 1071699032, "nodes": [9834158741, 9834158742, 9834158743, 9834158744, 9834158745, 9834158746, 9834158741], "tags": {"amenity": "school", "name": "\u062b\u0627\u0646\u0648\u064a\u0629 \u062e\u062f\u064a\u062c\u0629 \u0644\u0644\u0628\u0646\u0627\u062a", "name:en": "Khadija High School for Girls"}}, {"type": "way", "id": 1120622887, "nodes": [10249434517, 10249434518, 10249434519, 10249434520, 10249434517], "tags": {"amenity": "school"}}, {"type": "way", "id": 1168338917, "nodes": [10865710213, 10865710214, 10865710215, 10865710216, 10865710213], "tags": {"amenity": "school", "name": "\u0645\u062f\u0631\u0633\u0629 \u0627\u0644\u0646\u062c\u0648\u062f"}}]}