{"version": 0.6, "generator": "Overpass API 0.7.61.5 4133829e", "osm3s": {"timestamp_osm_base": "2024-03-05T14:54:41Z", "copyright": "The data included in this document is from www.openstreetmap.org. The data is made available under ODbL."}, "elements": [{"type": "node", "id": 822117485, "lat": 58.9386622, "lon": 11.1710028, "tags": {"amenity": "bank", "atm": "yes", "branch": "Str\u00f6mstad", "brand": "SEB", "name": "SEB", "operator": "SEB"}}, {"type": "node", "id": 822124640, "lat": 58.9378872, "lon": 11.1715271, "tags": {"amenity": "bank", "atm": "yes", "branch": "Str\u00f6mstad", "brand": "Nordea", "operator": "Nordea"}}, {"type": "node", "id": 822126208, "lat": 58.9376492, "lon": 11.1740645, "tags": {"amenity": "bank", "atm": "yes", "brand": "Swedbank", "brand:wikidata": "Q1145493", "brand:wikipedia": "sv:Swedbank", "name": "Swedbank", "wheelchair": "yes"}}, {"type": "node", "id": 822127617, "lat": 58.9397665, "lon": 11.1702195, "tags": {"amenity": "bank", "atm": "yes", "brand": "Handelsbanken", "brand:wikidata": "Q1421630", "brand:wikipedia": "sv:Handelsbanken", "name": "Handelsbanken", "operator": "Handelsbanken"}}, {"type": "node", "id": 3676183825, "lat": 58.72369, "lon": 11.323832, "tags": {"amenity": "bank", "name": "Sparbanken Tanum"}}]}