{"version": 0.6, "generator": "Overpass API 0.7.61.5 4133829e", "osm3s": {"timestamp_osm_base": "2024-03-06T11:18:45Z", "copyright": "The data included in this document is from www.openstreetmap.org. The data is made available under ODbL."}, "elements": [{"type": "node", "id": 1936469536, "lat": 33.6387394, "lon": 42.8278537, "tags": {"alt_name:en": "Heet", "capital": "6", "int_name": "Heet, \u0647\u064a\u062a\u200e", "name": "\u0647\u064a\u062a", "name:ar": "\u0647\u064a\u062a\u200e", "name:ckb": "\u0647\u06cc\u062a", "name:de": "H\u012bt", "name:en": "Hit", "name:fa": "\u0647\u06cc\u062a", "name:fr": "Hit", "name:hi": "\u0939\u0940\u0924", "name:hr": "Hit", "name:ko": "\ud788\ud2b8", "name:ku": "H\u00eet", "name:ml": "\u0d39\u0d40\u0d24\u0d4d\u0d24\u0d4d", "name:ru": "\u0425\u0438\u0442", "name:tr": "Hit", "place": "city", "population": "95800", "population:date": "2013", "wikidata": "Q2422345", "wikipedia": "fr:Hit (ville)"}}, {"type": "node", "id": 2485147231, "lat": 33.52972, "lon": 42.91263, "tags": {"alt_name": "\u0627\u0644\u0639\u0643\u0648\u0628\u0629", "int_name": "Ak\u016bbah, Aqabah, Al Ak\u016bbah, Aquba, \u0627\u0644\u0639\u0643\u0648\u0628\u0629, Akubah, Aqabah, Al Akubah, Aquba, \u0627\u0644\u0639\u0643\u0648\u0628\u0629", "name": "\u0627\u0644\u0639\u0643\u0648\u0628\u0629", "name:ar": "\u0627\u0644\u0639\u0643\u0648\u0628\u0629", "name:ar1": "\u0627\u0644\u0639\u0643\u0648\u0628\u0629", "name:de": "Akubah", "name:en": "Akubah", "name:fr": "Akubah", "name:ru": "\u0410\u043a\u0430\u0431\u0430", "place": "village"}}, {"type": "node", "id": 2485147237, "lat": 33.5514053, "lon": 42.9008851, "tags": {"alt_name": "\u0627\u0644\u062d\u0633\u064a\u0646\u064a\u0629", "int_name": "Al \u1e28usayn\u012byah, \u0627\u0644\u062d\u0633\u064a\u0646\u064a\u0629, Al Husayniyah, \u0627\u0644\u062d\u0633\u064a\u0646\u064a\u0629", "name": "\u0627\u0644\u062d\u0633\u064a\u0646\u064a\u0629", "name:ar": "\u0627\u0644\u0645\u062d\u0645\u062f\u064a", "name:ar1": "\u0627\u0644\u062d\u0633\u064a\u0646\u064a\u0629", "name:de": "Al Husayniyah", "name:en": "Al Husayniyah", "name:fr": "Al Husayniyah", "place": "village"}}, {"type": "node", "id": 2485147239, "lat": 33.5508716, "lon": 42.9011325, "tags": {"alt_name": "\u0627\u0644\u0645\u062d\u0645\u062f\u064a", "int_name": "Al Mu\u1e29ammad\u012b, Al Muhammadi", "name": "\u0627\u0644\u0645\u062d\u0645\u062f\u064a", "name:ar": "\u0627\u0644\u0645\u062d\u0645\u062f\u064a", "name:ar1": "\u0627\u0644\u0645\u062d\u0645\u062f\u064a", "name:de": "Al Muhammadi", "name:en": "Al Muhammadi", "name:fr": "Al Muhammadi", "place": "village"}}, {"type": "node", "id": 2485147245, "lat": 33.5421914, "lon": 42.9637201, "tags": {"alt_name": "\u0639\u0631\u0628 \u062a\u0644 \u0623\u0633\u0648\u062f", "int_name": "Arab Tall Aswad, Arab Tall Aswad", "name": "\u062a\u0644 \u0623\u0633\u0648\u062f", "name:ar": "\u062a\u0644 \u0623\u0633\u0648\u062f", "name:ar1": "\u0639\u0631\u0628 \u062a\u0644 \u0623\u0633\u0648\u062f", "name:de": "Arab Tall Aswad", "name:en": "Arab Tall Aswad", "name:fr": "Arab Tall Aswad", "place": "village"}}, {"type": "node", "id": 2485147246, "lat": 33.542929, "lon": 42.933328, "tags": {"alt_name": "\u0639\u0631\u0628 \u0632\u0648\u064a\u0629", "int_name": "Arab Zawayyah, Zuwayyah, \u0639\u0631\u0628 \u0632\u0648\u064a\u0629, Arab Zawayyah, Zuwayyah, \u0639\u0631\u0628 \u0632\u0648\u064a\u0629", "name": "\u0632\u0648\u064a\u0629 \u0627\u0644\u0628\u0648\u0646\u0645\u0631", "name:ar": "\u0632\u0648\u064a\u0629 \u0627\u0644\u0628\u0648\u0646\u0645\u0631", "name:ar1": "\u0639\u0631\u0628 \u0632\u0648\u064a\u0629", "name:de": "Arab Zawayyah", "name:en": "Arab Zawayyah", "name:fr": "Arab Zawayyah", "place": "village"}}, {"type": "node", "id": 2485147320, "lat": 33.5419746, "lon": 42.9646471, "tags": {"alt_name": "\u0639\u0631\u0628 \u062a\u0644 \u0627\u0633\u0648\u062f", "int_name": "\u0639\u0631\u0628 \u062a\u0644 \u0627\u0633\u0648\u062f, \u0639\u0631\u0628 \u062a\u0644 \u0627\u0633\u0648\u062f", "name": "\u062a\u0644 \u0627\u0633\u0648\u062f", "name:ar": "\u0639\u0631\u0628 \u062a\u0644 \u0627\u0633\u0648\u062f", "name:ar1": "\u0639\u0631\u0628 \u062a\u0644 \u0627\u0633\u0648\u062f", "name:de": "\u0639\u0631\u0628 \u062a\u0644 \u0627\u0633\u0648\u062f", "name:en": "\u0639\u0631\u0628 \u062a\u0644 \u0627\u0633\u0648\u062f", "name:fr": "\u0639\u0631\u0628 \u062a\u0644 \u0627\u0633\u0648\u062f", "place": "village"}}, {"type": "node", "id": 2488040360, "lat": 33.5714599, "lon": 42.6125891, "tags": {"alt_name": "\u0627\u0644\u062e\u0636\u0631", "int_name": "Al Khi\u1e11r, \u0627\u0644\u062e\u0636\u0631, Al Khidr, \u0627\u0644\u062e\u0636\u0631", "name": "\u0627\u0644\u062e\u0636\u0631", "name:ar": "\u0627\u0644\u062e\u0636\u0631", "name:ar1": "\u0627\u0644\u062e\u0636\u0631", "name:de": "Al Khidr", "name:en": "Al Khidr", "name:fr": "Al Khidr", "place": "village"}}, {"type": "node", "id": 2488397400, "lat": 33.5987494, "lon": 42.8684539, "tags": {"alt_name": "\u0623\u0628\u0648 \u062d\u0635\u0648\u0629", "int_name": "Abu Haswa, Ab\u016b \u1e28a\u015fwah, Abu Haswa, Abu Haswah", "name": "\u0623\u0628\u0648 \u062d\u0635\u0648\u0629", "name:ar": "\u0623\u0628\u0648 \u062d\u0635\u0648\u0629", "name:ar1": "\u0623\u0628\u0648 \u062d\u0635\u0648\u0629", "name:de": "Abu Haswa", "name:en": "Abu Haswa", "name:fr": "Abu Haswa", "place": "village"}}, {"type": "node", "id": 2488397417, "lat": 33.5971574, "lon": 42.8869669, "tags": {"alt_name": "\u0623\u0628\u0648 \u0646\u0645\u0644", "int_name": "Abu Namil, Ab\u016b Naml, Abu Namil, Abu Naml", "name": "\u0623\u0628\u0648 \u0646\u0645\u0644", "name:ar": "\u0623\u0628\u0648 \u0646\u0645\u0644", "name:ar1": "\u0623\u0628\u0648 \u0646\u0645\u0644", "name:de": "Abu Namil", "name:en": "Abu Namil", "name:fr": "Abu Namil", "name:ru": "\u0410\u0431\u0443-\u041d\u0430\u043c\u0438\u043b\u044c", "place": "village"}}, {"type": "node", "id": 2488397433, "lat": 33.6488986, "lon": 42.8042702, "tags": {"alt_name": "\u0627\u0644\u0628\u0633\u0627\u064a\u0631", "int_name": "Al Bas\u0101yir, \u0627\u0644\u0628\u0633\u0627\u064a\u0631, Al Basayir, \u0627\u0644\u0628\u0633\u0627\u064a\u0631", "name": "\u0627\u0644\u0628\u0633\u0627\u064a\u0631", "name:ar": "\u0627\u0644\u0628\u0633\u0627\u064a\u0631", "name:ar1": "\u0627\u0644\u0628\u0633\u0627\u064a\u0631", "name:de": "Al Basayir", "name:en": "Al Basayir", "name:fr": "Al Basayir", "place": "village"}}, {"type": "node", "id": 2488397450, "lat": 33.692207, "lon": 42.78799, "tags": {"alt_name": "\u0627\u0644\u062d\u0628\u0633\u064a\u0629", "int_name": "Al \u1e28abs\u012byah, \u0627\u0644\u062d\u0628\u0633\u064a\u0629, Al Habsiyah, \u0627\u0644\u062d\u0628\u0633\u064a\u0629", "name": "\u0627\u0644\u062d\u0628\u0633\u064a\u0629", "name:ar": "\u0627\u0644\u062d\u0628\u0633\u064a\u0629", "name:ar1": "\u0627\u0644\u062d\u0628\u0633\u064a\u0629", "name:de": "Al Habsiyah", "name:en": "Al Habsiyah", "name:fr": "Al Habsiyah", "place": "village"}}, {"type": "node", "id": 2488397467, "lat": 33.7067765, "lon": 42.7266904, "tags": {"alt_name": "\u0627\u0644\u062e\u0627\u0644\u062f\u064a\u0629", "int_name": "Al Kh\u0101lid\u012byah, \u0627\u0644\u062e\u0627\u0644\u062f\u064a\u0629, Al Khalidiyah, \u0627\u0644\u062e\u0627\u0644\u062f\u064a\u0629", "name": "\u0627\u0644\u062e\u0627\u0644\u062f\u064a\u0629", "name:ar": "\u0627\u0644\u062e\u0627\u0644\u062f\u064a\u0629", "name:ar1": "\u0627\u0644\u062e\u0627\u0644\u062f\u064a\u0629", "name:de": "Al Khalidiyah", "name:en": "Al Khalidiyah", "name:fr": "Al Khalidiyah", "place": "village"}}, {"type": "node", "id": 2488397530, "lat": 33.6156893, "lon": 42.7902997, "tags": {"alt_name": "\u0627\u0644\u0645\u0639\u0645\u0648\u0631\u0629", "int_name": "Al Mam\u016brah, \u0627\u0644\u0645\u0639\u0645\u0648\u0631\u0629, Al Mamurah, \u0627\u0644\u0645\u0639\u0645\u0648\u0631\u0629", "name": "\u0627\u0644\u0645\u0639\u0645\u0648\u0631\u0629", "name:ar": "\u0627\u0644\u0645\u0639\u0645\u0648\u0631\u0629", "name:ar1": "\u0627\u0644\u0645\u0639\u0645\u0648\u0631\u0629", "name:de": "Al Mamurah", "name:en": "Al Mamurah", "name:fr": "Al Mamurah", "place": "village"}}, {"type": "node", "id": 2488397548, "lat": 33.698889, "lon": 42.747778, "tags": {"alt_name": "\u0627\u0644\u0645\u0633\u062e\u0627\u0646", "int_name": "Al Maskhan, Maskh\u0101n, Al Maskhan, Maskhan", "name": "\u0627\u0644\u0645\u0633\u062e\u0627\u0646", "name:ar": "\u0627\u0644\u0645\u0633\u062e\u0627\u0646", "name:ar1": "\u0627\u0644\u0645\u0633\u062e\u0627\u0646", "name:de": "Al Maskhan", "name:en": "Al Maskhan", "name:fr": "Al Maskhan", "place": "village"}}, {"type": "node", "id": 2488397562, "lat": 33.7044908, "lon": 42.7399362, "tags": {"alt_name": "\u0627\u0644\u0648\u0633\u0644\u0629", "int_name": "Al Waslah, \u0627\u0644\u0648\u0633\u0644\u0629, Al Waslah, \u0627\u0644\u0648\u0633\u0644\u0629", "name": "\u0627\u0644\u0648\u0633\u0644\u0629", "name:ar": "\u0627\u0644\u0648\u0633\u0644\u0629", "name:ar1": "\u0627\u0644\u0648\u0633\u0644\u0629", "name:de": "Al Waslah", "name:en": "Al Waslah", "name:fr": "Al Waslah", "place": "village"}}, {"type": "node", "id": 2488397573, "lat": 33.6958598, "lon": 42.7727564, "tags": {"alt_name": "\u0627\u0644\u0634\u0627\u062e\u0635\u0644\u064a\u0629", "int_name": "Ash Sh\u0101khi\u015fal\u012byah, \u0627\u0644\u0634\u0627\u062e\u0635\u0644\u064a\u0629, Ash Shakhisaliyah, \u0627\u0644\u0634\u0627\u062e\u0635\u0644\u064a\u0629", "name": "\u0627\u0644\u0634\u0627\u062e\u0635\u0644\u064a\u0629", "name:ar": "\u0627\u0644\u0634\u0627\u062e\u0635\u0644\u064a\u0629", "name:ar1": "\u0627\u0644\u0634\u0627\u062e\u0635\u0644\u064a\u0629", "name:de": "Ash Shakhisaliyah", "name:en": "Ash Shakhisaliyah", "name:fr": "Ash Shakhisaliyah", "place": "village"}}, {"type": "node", "id": 2488397583, "lat": 33.653345, "lon": 42.828292, "tags": {"alt_name": "\u0627\u0644\u062a\u0631\u0628\u0629", "int_name": "At Turbah, \u0627\u0644\u062a\u0631\u0628\u0629, At Turbah, \u0627\u0644\u062a\u0631\u0628\u0629", "name": "\u0627\u0644\u062a\u0631\u0628\u0629", "name:ar": "\u0627\u0644\u062a\u0631\u0628\u0629", "name:ar1": "\u0627\u0644\u062a\u0631\u0628\u0629", "name:de": "At Turbah", "name:en": "At Turbah", "name:fr": "At Turbah", "name:ko": "\uc557 \ud22c\ub974\ubc14", "place": "village"}}, {"type": "node", "id": 2488397593, "lat": 33.6858927, "lon": 42.7908053, "tags": {"alt_name": "\u0639\u064a\u0646 \u0643\u0628\u0631\u064a\u062a", "int_name": "Ayn Kibr\u012bt, \u0639\u064a\u0646 \u0643\u0628\u0631\u064a\u062a, Ayn Kibrit, \u0639\u064a\u0646 \u0643\u0628\u0631\u064a\u062a", "name": "\u0639\u064a\u0646 \u0643\u0628\u0631\u064a\u062a", "name:ar": "\u0639\u064a\u0646 \u0643\u0628\u0631\u064a\u062a", "name:ar1": "\u0639\u064a\u0646 \u0643\u0628\u0631\u064a\u062a", "name:de": "Ayn Kibrit", "name:en": "Ayn Kibrit", "name:fr": "Ayn Kibrit", "place": "village"}}, {"type": "node", "id": 2488397604, "lat": 33.6170474, "lon": 42.8516797, "tags": {"alt_name": "\u0628\u0646\u0631\u0646\u064a", "int_name": "Banran\u012b, Banrani", "name": "\u0628\u0646\u0631\u0646\u064a", "name:ar": "\u0628\u0646\u0631\u0646\u064a", "name:ar1": "\u0628\u0646\u0631\u0646\u064a", "name:de": "Banrani", "name:en": "Banrani", "name:fr": "Banrani", "place": "village"}}, {"type": "node", "id": 2488397625, "lat": 33.6914016, "lon": 42.7793118, "tags": {"alt_name": "\u062d\u062c\u0631", "int_name": "\u1e28ajar, \u062d\u062c\u0631, Hajar, \u062d\u062c\u0631", "name": "\u062d\u062c\u0631", "name:ar": "\u062d\u062c\u0631", "name:ar1": "\u062d\u062c\u0631", "name:de": "Hajar", "name:en": "Hajar", "name:fr": "Hajar", "place": "village"}}, {"type": "node", "id": 2488397635, "lat": 33.6296019, "lon": 42.8373942, "tags": {"alt_name": "\u062d\u0627\u062c \u0623\u062d\u0645\u062f \u0643\u0631\u064a\u0645", "int_name": "\u1e28\u0101jj A\u1e29mad Kar\u012bm, \u062d\u0627\u062c \u0627\u062d\u0645\u062f \u0643\u0631\u064a\u0645, Hajj Ahmad Karim, \u062d\u0627\u062c \u0627\u062d\u0645\u062f \u0643\u0631\u064a\u0645", "name": "\u062d\u0627\u062c \u0623\u062d\u0645\u062f \u0643\u0631\u064a\u0645", "name:ar": "\u062d\u0627\u062c \u0623\u062d\u0645\u062f \u0643\u0631\u064a\u0645", "name:ar1": "\u062d\u0627\u062c \u0623\u062d\u0645\u062f \u0643\u0631\u064a\u0645", "name:de": "Hajj Ahmad Karim", "name:en": "Hajj Ahmad Karim", "name:fr": "Hajj Ahmad Karim", "place": "village"}}, {"type": "node", "id": 2488397644, "lat": 33.7124691, "lon": 42.7448991, "tags": {"alt_name": "\u062d\u0648\u064a\u062c\u0629 \u0627\u0644\u063a\u0644\u064a\u0648\u064a", "int_name": "\u1e28aw\u012bjat al Ghalyaw\u012b, \u062d\u0648\u064a\u062c\u0629 \u0627\u0644\u063a\u0644\u064a\u0648\u064a, Hawijat al Ghalyawi, \u062d\u0648\u064a\u062c\u0629 \u0627\u0644\u063a\u0644\u064a\u0648\u064a", "name": "\u062d\u0648\u064a\u062c\u0629 \u0627\u0644\u063a\u0644\u064a\u0648\u064a", "name:ar": "\u062d\u0648\u064a\u062c\u0629 \u0627\u0644\u063a\u0644\u064a\u0648\u064a", "name:ar1": "\u062d\u0648\u064a\u062c\u0629 \u0627\u0644\u063a\u0644\u064a\u0648\u064a", "name:de": "Hawijat al Ghalyawi", "name:en": "Hawijat al Ghalyawi", "name:fr": "Hawijat al Ghalyawi", "place": "village"}}, {"type": "node", "id": 2488397656, "lat": 33.6788066, "lon": 42.7925004, "tags": {"alt_name": "\u062d\u0633\u064a\u0646\u064a\u0629", "int_name": "\u1e28usayn\u012byah, \u062d\u0633\u064a\u0646\u064a\u0629, Husayniyah, \u062d\u0633\u064a\u0646\u064a\u0629", "name": "\u062d\u0633\u064a\u0646\u064a\u0629", "name:ar": "\u062d\u0633\u064a\u0646\u064a\u0629", "name:ar1": "\u062d\u0633\u064a\u0646\u064a\u0629", "name:de": "Husayniyah", "name:en": "Husayniyah", "name:fr": "Husayniyah", "place": "village"}}, {"type": "node", "id": 2488397665, "lat": 33.71006, "lon": 42.748739, "tags": {"alt_name": "\u0625\u0645\u0627\u0645 \u0634\u064a\u062e \u0647\u0627\u062f\u064a", "int_name": "Im\u0101m Shaykh H\u0101d\u012b, \u0627\u0645\u0627\u0645 \u0634\u064a\u062e \u0647\u0627\u062f\u064a, Imam Shaykh Hadi, \u0627\u0645\u0627\u0645 \u0634\u064a\u062e \u0647\u0627\u062f\u064a", "name": "\u0625\u0645\u0627\u0645 \u0634\u064a\u062e \u0647\u0627\u062f\u064a", "name:ar": "\u0625\u0645\u0627\u0645 \u0634\u064a\u062e \u0647\u0627\u062f\u064a", "name:ar1": "\u0625\u0645\u0627\u0645 \u0634\u064a\u062e \u0647\u0627\u062f\u064a", "name:de": "Imam Shaykh Hadi", "name:en": "Imam Shaykh Hadi", "name:fr": "Imam Shaykh Hadi", "place": "village"}}, {"type": "node", "id": 2488397671, "lat": 33.703085, "lon": 42.761502, "tags": {"alt_name": "\u062c\u0644\u0627\u0648\u064a\u0629", "int_name": "Jall\u0101w\u012byah, \u062c\u0644\u0627\u0648\u064a\u0629, Jallawiyah, \u062c\u0644\u0627\u0648\u064a\u0629", "name": "\u062c\u0644\u0627\u0648\u064a\u0629", "name:ar": "\u062c\u0644\u0627\u0648\u064a\u0629", "name:ar1": "\u062c\u0644\u0627\u0648\u064a\u0629", "name:de": "Jallawiyah", "name:en": "Jallawiyah", "name:fr": "Jallawiyah", "place": "village"}}, {"type": "node", "id": 2488397681, "lat": 33.6980028, "lon": 42.7569505, "tags": {"alt_name": "\u062c\u0632\u064a\u0631\u0629 \u0627\u0644\u062d\u0633\u064a\u0646\u064a\u0629", "int_name": "Jaz\u012brat al \u1e28usayn\u012byah, \u062c\u0632\u064a\u0631\u0629 \u0627\u0644\u062d\u0633\u064a\u0646\u064a\u0629, Jazirat al Husayniyah, \u062c\u0632\u064a\u0631\u0629 \u0627\u0644\u062d\u0633\u064a\u0646\u064a\u0629", "name": "\u062c\u0632\u064a\u0631\u0629 \u0627\u0644\u062d\u0633\u064a\u0646\u064a\u0629", "name:ar": "\u062c\u0632\u064a\u0631\u0629 \u0627\u0644\u062d\u0633\u064a\u0646\u064a\u0629", "name:ar1": "\u062c\u0632\u064a\u0631\u0629 \u0627\u0644\u062d\u0633\u064a\u0646\u064a\u0629", "name:de": "Jazirat al Husayniyah", "name:en": "Jazirat al Husayniyah", "name:fr": "Jazirat al Husayniyah", "place": "village"}}, {"type": "node", "id": 2488397691, "lat": 33.5985439, "lon": 42.8676707, "tags": {"alt_name": "\u062e\u0648\u0632\u0629", "int_name": "Khauza, Khawzah, Khauza, Khawzah", "name": "\u062e\u0648\u0632\u0629", "name:ar": "\u062e\u0648\u0632\u0629", "name:ar1": "\u062e\u0648\u0632\u0629", "name:de": "Khauza", "name:en": "Khauza", "name:fr": "Khauza", "place": "village"}}, {"type": "node", "id": 2488397701, "lat": 33.6797057, "lon": 42.7872753, "tags": {"alt_name": "\u0643\u0645\u064a\u0629", "int_name": "Kumayyah, \u0643\u0645\u064a\u0629, Kumayyah, \u0643\u0645\u064a\u0629", "name": "\u0643\u0645\u064a\u0629", "name:ar": "\u0643\u0645\u064a\u0629", "name:ar1": "\u0643\u0645\u064a\u0629", "name:de": "Kumayyah", "name:en": "Kumayyah", "name:fr": "Kumayyah", "place": "village"}}, {"type": "node", "id": 2488397711, "lat": 33.7038629, "lon": 42.7654713, "tags": {"alt_name": "\u0645\u062d\u0644\u0628\u064a\u0629", "int_name": "Ma\u1e29lab\u012byah, \u0645\u062d\u0644\u0628\u064a\u0629, Mahlabiyah, \u0645\u062d\u0644\u0628\u064a\u0629", "name": "\u0645\u062d\u0644\u0628\u064a\u0629", "name:ar": "\u0645\u062d\u0644\u0628\u064a\u0629", "name:ar1": "\u0645\u062d\u0644\u0628\u064a\u0629", "name:de": "Mahlabiyah", "name:en": "Mahlabiyah", "name:fr": "Mahlabiyah", "place": "village"}}, {"type": "node", "id": 2488397721, "lat": 33.7012155, "lon": 42.7828545, "tags": {"alt_name": "\u0645\u0646\u0627\u0632\u0644 \u0623\u0645\u064a\u0631\u0629", "int_name": "Man\u0101zil Am\u012brah, Manazil Amirah", "name": "\u0645\u0646\u0627\u0632\u0644 \u0623\u0645\u064a\u0631\u0629", "name:ar": "\u0645\u0646\u0627\u0632\u0644 \u0623\u0645\u064a\u0631\u0629", "name:ar1": "\u0645\u0646\u0627\u0632\u0644 \u0623\u0645\u064a\u0631\u0629", "name:de": "Manazil Amirah", "name:en": "Manazil Amirah", "name:fr": "Manazil Amirah", "place": "village"}}, {"type": "node", "id": 2488397743, "lat": 33.6825467, "lon": 42.7855964, "tags": {"alt_name": "\u0646\u062a\u0644", "int_name": "Natil, Natil", "name": "\u0646\u062a\u0644", "name:ar": "\u0646\u062a\u0644", "name:ar1": "\u0646\u062a\u0644", "name:de": "Natil", "name:en": "Natil", "name:fr": "Natil", "place": "village"}}, {"type": "node", "id": 2488397754, "lat": 33.6630396, "lon": 42.7957368, "tags": {"alt_name": "\u0642\u0646\u0627\u0646", "int_name": "Qin\u0101n, \u0642\u0646\u0627\u0646, Qinan, \u0642\u0646\u0627\u0646", "name": "\u0642\u0646\u0627\u0646", "name:ar": "\u0642\u0646\u0627\u0646", "name:ar1": "\u0642\u0646\u0627\u0646", "name:de": "Qinan", "name:en": "Qinan", "name:fr": "Qinan", "place": "village"}}, {"type": "node", "id": 2488397764, "lat": 33.666667, "lon": 42.8, "tags": {"alt_name": "\u0635\u062f\u0642\u0629", "int_name": "\u015eadqah, Sadqah", "name": "\u0635\u062f\u0642\u0629", "name:ar": "\u0635\u062f\u0642\u0629", "name:ar1": "\u0635\u062f\u0642\u0629", "name:de": "Sadqah", "name:en": "Sadqah", "name:fr": "Sadqah", "place": "village"}}, {"type": "node", "id": 2488397774, "lat": 33.705045, "lon": 42.7338465, "tags": {"alt_name": "\u0633\u0647\u064a\u0644\u064a\u0629", "int_name": "Sahiliya, S\u0101\u1e29il\u012byah, Suhayl\u012byah, Sahiliya, Sahiliyah, Suhayliyah", "name": "\u0633\u0647\u064a\u0644\u064a\u0629", "name:ar": "\u0633\u0647\u064a\u0644\u064a\u0629", "name:ar1": "\u0633\u0647\u064a\u0644\u064a\u0629", "name:de": "Sahiliya", "name:en": "Sahiliya", "name:fr": "Sahiliya", "place": "village"}}, {"type": "node", "id": 2488397785, "lat": 33.7110598, "lon": 42.7071141, "tags": {"alt_name": "\u0633\u0647\u0644\u064a\u0629", "int_name": "Sahil\u012bya, S\u0101\u1e29il\u012byah, Sahl\u012byah, Sahiliya, Sahiliyah, Sahliyah", "name": "\u0633\u0647\u0644\u064a\u0629", "name:ar": "\u0633\u0647\u0644\u064a\u0629", "name:ar1": "\u0633\u0647\u0644\u064a\u0629", "name:de": "Sahiliya", "name:en": "Sahiliya", "name:fr": "Sahiliya", "name:ru": "\u0421\u0430\u0445\u0438\u043b\u0438\u044f", "place": "village"}}, {"type": "node", "id": 2488397805, "lat": 33.6823031, "lon": 42.7853525, "tags": {"alt_name": "\u062a\u0627\u062c\u0627\u062a", "int_name": "T\u0101j\u0101t, Tajat", "name": "\u062a\u0627\u062c\u0627\u062a", "name:ar": "\u062a\u0627\u062c\u0627\u062a", "name:ar1": "\u062a\u0627\u062c\u0627\u062a", "name:de": "Tajat", "name:en": "Tajat", "name:fr": "Tajat", "place": "village"}}, {"type": "node", "id": 2488398016, "lat": 33.6040439, "lon": 42.8863422, "tags": {"alt_name": "\u0632\u0646\u0631\u0648\u0627", "int_name": "Zunarwa, Zunarwa", "name": "\u0632\u0646\u0631\u0648\u0627", "name:ar": "\u0632\u0646\u0631\u0648\u0627", "name:ar1": "\u0632\u0646\u0631\u0648\u0627", "name:de": "Zunarwa", "name:en": "Zunarwa", "name:fr": "Zunarwa", "place": "village"}}, {"type": "node", "id": 2488398644, "lat": 33.765023, "lon": 42.7308183, "tags": {"alt_name": "\u0627\u0644\u0630\u0628\u064a\u0629", "int_name": "Adh Dhub\u012byah, \u0627\u0644\u0630\u0628\u064a\u0629, Adh Dhubiyah, \u0627\u0644\u0630\u0628\u064a\u0629", "name": "\u0627\u0644\u0630\u0628\u064a\u0629", "name:ar": "\u0627\u0644\u0630\u0628\u064a\u0629", "name:ar1": "\u0627\u0644\u0630\u0628\u064a\u0629", "name:de": "Adh Dhubiyah", "name:en": "Adh Dhubiyah", "name:fr": "Adh Dhubiyah", "place": "village"}}, {"type": "node", "id": 2488398731, "lat": 33.7992728, "lon": 42.7245342, "tags": {"alt_name": "\u0627\u0644\u062e\u0632\u0648\u0631\u064a\u0629", "int_name": "Al Khaz\u016br\u012byah, \u0627\u0644\u062e\u0632\u0648\u0631\u064a\u0629, Al Khazuriyah, \u0627\u0644\u062e\u0632\u0648\u0631\u064a\u0629", "name": "\u0627\u0644\u062e\u0632\u0648\u0631\u064a\u0629", "name:ar": "\u0627\u0644\u062e\u0632\u0648\u0631\u064a\u0629", "name:ar1": "\u0627\u0644\u062e\u0632\u0648\u0631\u064a\u0629", "name:de": "Al Khazuriyah", "name:en": "Al Khazuriyah", "name:fr": "Al Khazuriyah", "place": "village"}}, {"type": "node", "id": 2488398741, "lat": 33.8074198, "lon": 42.7201012, "tags": {"alt_name": "\u0627\u0644\u0633\u064a\u0646\u064a\u0629", "int_name": "As S\u012bn\u012byah, San\u012byah, Sin\u012bya, Sin\u012byah, \u0627\u0644\u0633\u064a\u0646\u064a\u0629, As Siniyah, Saniyah, Siniya, Siniyah, \u0627\u0644\u0633\u064a\u0646\u064a\u0629", "name": "\u0627\u0644\u0633\u064a\u0646\u064a\u0629", "name:ar": "\u0627\u0644\u0633\u064a\u0646\u064a\u0629", "name:ar1": "\u0627\u0644\u0633\u064a\u0646\u064a\u0629", "name:de": "As Siniyah", "name:en": "As Siniyah", "name:fr": "As Siniyah", "place": "village"}}, {"type": "node", "id": 2488398752, "lat": 33.7439982, "lon": 42.7340435, "tags": {"alt_name": "\u0627\u0644\u0634\u0627\u0643\u0631\u064a\u0629", "int_name": "Ash Sh\u0101kir\u012byah, \u0627\u0644\u0634\u0627\u0643\u0631\u064a\u0629, Ash Shakiriyah, \u0627\u0644\u0634\u0627\u0643\u0631\u064a\u0629", "name": "\u0627\u0644\u0634\u0627\u0643\u0631\u064a\u0629", "name:ar": "\u0627\u0644\u0634\u0627\u0643\u0631\u064a\u0629", "name:ar1": "\u0627\u0644\u0634\u0627\u0643\u0631\u064a\u0629", "name:de": "Ash Shakiriyah", "name:en": "Ash Shakiriyah", "name:fr": "Ash Shakiriyah", "place": "village"}}, {"type": "node", "id": 2488398764, "lat": 33.8077161, "lon": 42.7138151, "tags": {"alt_name": "\u0628\u0627\u0632\u064a\u0629", "int_name": "B\u0101z\u012byah, Baziyah", "name": "\u0628\u0627\u0632\u064a\u0629", "name:ar": "\u0628\u0627\u0632\u064a\u0629", "name:ar1": "\u0628\u0627\u0632\u064a\u0629", "name:de": "Baziyah", "name:en": "Baziyah", "name:fr": "Baziyah", "place": "village"}}, {"type": "node", "id": 2488398775, "lat": 33.7948913, "lon": 42.7192198, "tags": {"alt_name": "\u0641\u0627\u0644\u062c", "int_name": "F\u0101lij, \u0641\u0627\u0644\u062c, Falij, \u0641\u0627\u0644\u062c", "name": "\u0641\u0627\u0644\u062c", "name:ar": "\u0641\u0627\u0644\u062c", "name:ar1": "\u0641\u0627\u0644\u062c", "name:de": "Falij", "name:en": "Falij", "name:fr": "Falij", "place": "village"}}, {"type": "node", "id": 2488398785, "lat": 33.780131, "lon": 42.735699, "tags": {"alt_name": "\u062d\u064a\u0637\u0627\u0646", "int_name": "\u1e28ay\u0163\u0101n, \u062d\u064a\u0637\u0627\u0646, Haytan, \u062d\u064a\u0637\u0627\u0646", "name": "\u062d\u064a\u0637\u0627\u0646", "name:ar": "\u062d\u064a\u0637\u0627\u0646", "name:ar1": "\u062d\u064a\u0637\u0627\u0646", "name:de": "Haytan", "name:en": "Haytan", "name:fr": "Haytan", "place": "village"}}, {"type": "node", "id": 2488398815, "lat": 33.843841, "lon": 42.7588826, "tags": {"alt_name": "\u0643\u0637\u0628\u064a\u0629", "int_name": "Ka\u0163b\u012byah, Qaba\u0163\u012byah, \u0643\u0637\u0628\u064a\u0629, Katbiyah, Qabatiyah, \u0643\u0637\u0628\u064a\u0629", "name": "\u0643\u0637\u0628\u064a\u0629", "name:ar": "\u0643\u0637\u0628\u064a\u0629", "name:ar1": "\u0643\u0637\u0628\u064a\u0629", "name:de": "Katbiyah", "name:en": "Katbiyah", "name:fr": "Katbiyah", "place": "village"}}, {"type": "node", "id": 2488398825, "lat": 33.7715687, "lon": 42.7282713, "tags": {"alt_name": "\u062e\u062f\u0627\u0631\u0645", "int_name": "Khad\u0101ram, Khadaram", "name": "\u062e\u062f\u0627\u0631\u0645", "name:ar": "\u062e\u062f\u0627\u0631\u0645", "name:ar1": "\u062e\u062f\u0627\u0631\u0645", "name:de": "Khadaram", "name:en": "Khadaram", "name:fr": "Khadaram", "place": "village"}}, {"type": "node", "id": 2488398834, "lat": 33.7718228, "lon": 42.7279219, "tags": {"alt_name": "\u062e\u062f\u0631\u0627\u0645", "int_name": "Khadr\u0101m, Khadram", "name": "\u062e\u062f\u0631\u0627\u0645", "name:ar": "\u062e\u062f\u0631\u0627\u0645", "name:ar1": "\u062e\u062f\u0631\u0627\u0645", "name:de": "Khadram", "name:en": "Khadram", "name:fr": "Khadram", "place": "village"}}, {"type": "node", "id": 2488398844, "lat": 33.772222, "lon": 42.7282567, "tags": {"alt_name": "\u062e\u0632\u0631\u062c", "int_name": "Khazraj, \u062e\u0632\u0631\u062c, Khazraj, \u062e\u0632\u0631\u062c", "name": "\u062e\u0632\u0631\u062c", "name:ar": "\u062e\u0632\u0631\u062c", "name:ar1": "\u062e\u0632\u0631\u062c", "name:de": "Khazraj", "name:en": "Khazraj", "name:fr": "Khazraj", "place": "village"}}, {"type": "node", "id": 2488398854, "lat": 33.771822, "lon": 42.740809, "tags": {"alt_name": "\u0645\u0644\u0643\u064a\u0629", "int_name": "Malak\u012byah, \u0645\u0644\u0643\u064a\u0629, Malakiyah, \u0645\u0644\u0643\u064a\u0629", "name": "\u0645\u0644\u0643\u064a\u0629", "name:ar": "\u0645\u0644\u0643\u064a\u0629", "name:ar1": "\u0645\u0644\u0643\u064a\u0629", "name:de": "Malakiyah", "name:en": "Malakiyah", "name:fr": "Malakiyah", "place": "village"}}, {"type": "node", "id": 2488398864, "lat": 33.760505, "lon": 42.749257, "tags": {"alt_name": "\u0645\u0646\u0635\u0648\u0631", "int_name": "Man\u015f\u016br, \u0645\u0646\u0635\u0648\u0631, Mansur, \u0645\u0646\u0635\u0648\u0631", "name": "\u0645\u0646\u0635\u0648\u0631", "name:ar": "\u0645\u0646\u0635\u0648\u0631", "name:ar1": "\u0645\u0646\u0635\u0648\u0631", "name:de": "Mansur", "name:en": "Mansur", "name:fr": "Mansur", "place": "village"}}, {"type": "node", "id": 2488398920, "lat": 33.767877, "lon": 42.723177, "tags": {"alt_name": "\u0645\u0641\u0631\u0648\u062f\u0639", "int_name": "Mufrawda, Mufrawda", "name": "\u0645\u0641\u0631\u0648\u062f\u0639", "name:ar": "\u0645\u0641\u0631\u0648\u062f\u0639", "name:ar1": "\u0645\u0641\u0631\u0648\u062f\u0639", "name:de": "Mufrawda", "name:en": "Mufrawda", "name:fr": "Mufrawda", "place": "village"}}, {"type": "node", "id": 2488398941, "lat": 33.8165793, "lon": 42.7217758, "tags": {"alt_name": "\u0646\u0648\u064a", "int_name": "Naw\u012b, \u0646\u0648\u064a, Nawi, \u0646\u0648\u064a", "name": "\u0646\u0648\u064a", "name:ar": "\u0646\u0648\u064a", "name:ar1": "\u0646\u0648\u064a", "name:de": "Nawi", "name:en": "Nawi", "name:fr": "Nawi", "place": "village"}}, {"type": "node", "id": 2488398950, "lat": 33.8222786, "lon": 42.7538681, "tags": {"alt_name": "\u0635\u0641\u064a\u0629", "int_name": "\u015eaf\u012byah, \u0635\u0641\u064a\u0629, Safiyah, \u0635\u0641\u064a\u0629", "name": "\u0635\u0641\u064a\u0629", "name:ar": "\u0635\u0641\u064a\u0629", "name:ar1": "\u0635\u0641\u064a\u0629", "name:de": "Safiyah", "name:en": "Safiyah", "name:fr": "Safiyah", "place": "village"}}, {"type": "node", "id": 2488398960, "lat": 33.8190022, "lon": 42.7480184, "tags": {"alt_name": "\u0633\u062f\u0647\u0627\u062f\u064a\u0629", "int_name": "Sidh\u0101d\u012byah, Sidhadiyah", "name": "\u0633\u062f\u0647\u0627\u062f\u064a\u0629", "name:ar": "\u0633\u062f\u0647\u0627\u062f\u064a\u0629", "name:ar1": "\u0633\u062f\u0647\u0627\u062f\u064a\u0629", "name:de": "Sidhadiyah", "name:en": "Sidhadiyah", "name:fr": "Sidhadiyah", "place": "village"}}, {"type": "node", "id": 2488398972, "lat": 33.779704, "lon": 42.72696, "tags": {"alt_name": "\u0623\u0645\u062e\u0636\u064a\u0645", "int_name": "Umkha\u1e11\u012bm, \u0627\u0645\u062e\u0636\u064a\u0645, Umkhadim, \u0627\u0645\u062e\u0636\u064a\u0645", "name": "\u0623\u0645\u062e\u0636\u064a\u0645", "name:ar": "\u0623\u0645\u062e\u0636\u064a\u0645", "name:ar1": "\u0623\u0645\u062e\u0636\u064a\u0645", "name:de": "Umkhadim", "name:en": "Umkhadim", "name:fr": "Umkhadim", "place": "village"}}, {"type": "node", "id": 2488399110, "lat": 33.7882264, "lon": 42.7225016, "tags": {"alt_name": "\u0648\u0631\u0634\u0627\u0646\u064a\u0629", "int_name": "Warsh\u0101n\u012byah, \u0648\u0631\u0634\u0627\u0646\u064a\u0629, Warshaniyah, \u0648\u0631\u0634\u0627\u0646\u064a\u0629", "name": "\u0648\u0631\u0634\u0627\u0646\u064a\u0629", "name:ar": "\u0648\u0631\u0634\u0627\u0646\u064a\u0629", "name:ar1": "\u0648\u0631\u0634\u0627\u0646\u064a\u0629", "name:de": "Warshaniyah", "name:en": "Warshaniyah", "name:fr": "Warshaniyah", "place": "village"}}, {"type": "node", "id": 2488399112, "lat": 33.8230623, "lon": 42.7157277, "tags": {"alt_name": "\u0632\u062e\u064a\u062e\u0629", "int_name": "Zukhaykhah, \u0632\u062e\u064a\u062e\u0629, Zukhaykhah, \u0632\u062e\u064a\u062e\u0629", "name": "\u0632\u062e\u064a\u062e\u0629", "name:ar": "\u0632\u062e\u064a\u062e\u0629", "name:ar1": "\u0632\u062e\u064a\u062e\u0629", "name:de": "Zukhaykhah", "name:en": "Zukhaykhah", "name:fr": "Zukhaykhah", "place": "village"}}, {"type": "node", "id": 2488417283, "lat": 33.8490606, "lon": 42.6009728, "tags": {"alt_name": "\u0627\u0644\u062f\u0631\u064a\u0639", "int_name": "Ad Duray, \u0627\u0644\u062f\u0631\u064a\u0639, Ad Duray, \u0627\u0644\u062f\u0631\u064a\u0639", "name": "\u0627\u0644\u062f\u0631\u064a\u0639", "name:ar": "\u0627\u0644\u062f\u0631\u064a\u0639", "name:ar1": "\u0627\u0644\u062f\u0631\u064a\u0639", "name:de": "Ad Duray", "name:en": "Ad Duray", "name:fr": "Ad Duray", "place": "village"}}, {"type": "node", "id": 2488417303, "lat": 33.8524594, "lon": 42.5869993, "tags": {"alt_name": "\u0627\u0644\u0639\u0633\u0627\u0641", "int_name": "Al Ass\u0101f, \u0627\u0644\u0639\u0633\u0627\u0641, Al Assaf, \u0627\u0644\u0639\u0633\u0627\u0641", "name": "\u0627\u0644\u0639\u0633\u0627\u0641", "name:ar": "\u0627\u0644\u0639\u0633\u0627\u0641", "name:ar1": "\u0627\u0644\u0639\u0633\u0627\u0641", "name:de": "Al Assaf", "name:en": "Al Assaf", "name:fr": "Al Assaf", "place": "village"}}, {"type": "node", "id": 2488417315, "lat": 33.8517524, "lon": 42.5491802, "tags": {"alt_name": "\u062e\u0627\u0646 \u0627\u0644\u0628\u063a\u062f\u0627\u062f\u064a", "int_name": "Al Baghd\u0101d\u012b, Kh\u0101n al Baghd\u0101d\u012b, Kh\u0101n Bagd\u0101di, Khan Baghdadi, \u0627\u0644\u0628\u063a\u062f\u0627\u062f\u064a, Al Baghdadi, Khan al Baghdadi, Khan Bagdadi, Khan Baghdadi, \u0627\u0644\u0628\u063a\u062f\u0627\u062f\u064a", "name": "\u062e\u0627\u0646 \u0627\u0644\u0628\u063a\u062f\u0627\u062f\u064a", "name:ar": "\u062e\u0627\u0646 \u0627\u0644\u0628\u063a\u062f\u0627\u062f\u064a", "name:ar1": "\u062e\u0627\u0646 \u0627\u0644\u0628\u063a\u062f\u0627\u062f\u064a", "name:de": "Al Baghdadi", "name:en": "Al Baghdadi", "name:fr": "Al Baghdadi", "name:ru": "\u0425\u0430\u043d-\u042d\u043b\u044c-\u0411\u0430\u0433\u0434\u0430\u0434\u0438", "name:uk": "\u0425\u0430\u043d-\u0435\u043b\u044c-\u0411\u0430\u0491\u0434\u0430\u0434\u0456", "place": "village"}}, {"type": "node", "id": 2488417341, "lat": 33.8446654, "lon": 42.5738021, "tags": {"alt_name": "\u0627\u0644\u062c\u062f\u064a\u062f\u0629", "int_name": "Al Jad\u012bdah, \u0627\u0644\u062c\u062f\u064a\u062f\u0629, Al Jadidah, \u0627\u0644\u062c\u062f\u064a\u062f\u0629", "name": "\u0627\u0644\u062c\u062f\u064a\u062f\u0629", "name:ar": "\u0627\u0644\u062c\u062f\u064a\u062f\u0629", "name:ar1": "\u0627\u0644\u062c\u062f\u064a\u062f\u0629", "name:de": "Al Jadidah", "name:en": "Al Jadidah", "name:fr": "Al Jadidah", "place": "village"}}, {"type": "node", "id": 2488417451, "lat": 33.8427228, "lon": 42.5880285, "tags": {"alt_name": "\u0627\u0644\u0645\u062c\u064a\u0648\u0644", "int_name": "Al Majy\u016bl, \u0627\u0644\u0645\u062c\u064a\u0648\u0644, Al Majyul, \u0627\u0644\u0645\u062c\u064a\u0648\u0644", "name": "\u0627\u0644\u0645\u062c\u064a\u0648\u0644", "name:ar": "\u0627\u0644\u0645\u062c\u064a\u0648\u0644", "name:ar1": "\u0627\u0644\u0645\u062c\u064a\u0648\u0644", "name:de": "Al Majyul", "name:en": "Al Majyul", "name:fr": "Al Majyul", "place": "village"}}, {"type": "node", "id": 2488417498, "lat": 33.8435604, "lon": 42.5785013, "tags": {"alt_name": "\u0627\u0644\u0648\u0633\u0637\u0627\u0646\u064a\u0629", "int_name": "Al Was\u0163\u0101n\u012byah, \u0627\u0644\u0648\u0633\u0637\u0627\u0646\u064a\u0629, Al Wastaniyah, \u0627\u0644\u0648\u0633\u0637\u0627\u0646\u064a\u0629", "name": "\u0627\u0644\u0648\u0633\u0637\u0627\u0646\u064a\u0629", "name:ar": "\u0627\u0644\u0648\u0633\u0637\u0627\u0646\u064a\u0629", "name:ar1": "\u0627\u0644\u0648\u0633\u0637\u0627\u0646\u064a\u0629", "name:de": "Al Wastaniyah", "name:en": "Al Wastaniyah", "name:fr": "Al Wastaniyah", "place": "village"}}, {"type": "node", "id": 2488417572, "lat": 33.8530977, "lon": 42.5754965, "tags": {"alt_name": "\u062f\u0648\u064a\u0644\u064a\u0629", "int_name": "D\u016bwayl\u012byah, \u062f\u0648\u064a\u0644\u064a\u0629, Duwayliyah, \u062f\u0648\u064a\u0644\u064a\u0629", "name": "\u062f\u0648\u064a\u0644\u064a\u0629", "name:ar": "\u062f\u0648\u064a\u0644\u064a\u0629", "name:ar1": "\u062f\u0648\u064a\u0644\u064a\u0629", "name:de": "Duwayliyah", "name:en": "Duwayliyah", "name:fr": "Duwayliyah", "place": "village"}}, {"type": "node", "id": 2488417584, "lat": 33.8511668, "lon": 42.5490795, "tags": {"alt_name": "\u0628\u063a\u062f\u0627\u062f\u064a", "int_name": "Bagdadi", "name": "\u0628\u063a\u062f\u0627\u062f\u064a", "name:ar": "\u0628\u063a\u062f\u0627\u062f\u064a", "name:ar1": "\u0628\u063a\u062f\u0627\u062f\u064a", "name:de": "Bagdadi", "name:en": "Bagdadi", "name:fr": "Bagdadi", "place": "village"}}, {"type": "node", "id": 2488417594, "lat": 33.852005, "lon": 42.5867778, "tags": {"alt_name": "\u063a\u0631\u0627\u0641", "int_name": "Gharr\u0101f, Gharraf", "name": "\u063a\u0631\u0627\u0641", "name:ar": "\u063a\u0631\u0627\u0641", "name:ar1": "\u063a\u0631\u0627\u0641", "name:de": "Gharraf", "name:en": "Gharraf", "name:fr": "Gharraf", "place": "village"}}, {"type": "node", "id": 2488417604, "lat": 33.8451207, "lon": 42.5593474, "tags": {"alt_name": "\u062d\u0648\u064a\u062c\u0629 \u062d\u0646\u064a\u0634", "int_name": "\u1e28aw\u012bjat \u1e28an\u012bsh, \u062d\u0648\u064a\u062c\u0629 \u062d\u0646\u064a\u0634, Hawijat Hanish, \u062d\u0648\u064a\u062c\u0629 \u062d\u0646\u064a\u0634", "name": "\u062d\u0648\u064a\u062c\u0629 \u062d\u0646\u064a\u0634", "name:ar": "\u062d\u0648\u064a\u062c\u0629 \u062d\u0646\u064a\u0634", "name:ar1": "\u062d\u0648\u064a\u062c\u0629 \u062d\u0646\u064a\u0634", "name:de": "Hawijat Hanish", "name:en": "Hawijat Hanish", "name:fr": "Hawijat Hanish", "place": "village"}}, {"type": "node", "id": 2488417675, "lat": 33.8429901, "lon": 42.583973, "tags": {"alt_name": "\u0644\u0645\u0646\u0629", "int_name": "Lumnah, \u0644\u0645\u0646\u0629, Lumnah, \u0644\u0645\u0646\u0629", "name": "\u0644\u0645\u0646\u0629", "name:ar": "\u0644\u0645\u0646\u0629", "name:ar1": "\u0644\u0645\u0646\u0629", "name:de": "Lumnah", "name:en": "Lumnah", "name:fr": "Lumnah", "place": "village"}}, {"type": "node", "id": 2488417686, "lat": 33.8331963, "lon": 42.5832988, "tags": {"alt_name": "\u0645\u064a\u0644", "int_name": "Mail, Mayl, Mail, Mayl", "name": "\u0645\u064a\u0644", "name:ar": "\u0645\u064a\u0644", "name:ar1": "\u0645\u064a\u0644", "name:de": "Mail", "name:en": "Mail", "name:fr": "Mail", "place": "village"}}, {"type": "node", "id": 2488417710, "lat": 33.8334336, "lon": 42.583333, "tags": {"alt_name": "\u0645\u0634\u0647\u062f", "int_name": "Mashhad, Mashhad", "name": "\u0645\u0634\u0647\u062f", "name:ar": "\u0645\u0634\u0647\u062f", "name:ar1": "\u0645\u0634\u0647\u062f", "name:de": "Mashhad", "name:en": "Mashhad", "name:fr": "Mashhad", "place": "village"}}, {"type": "node", "id": 2488417722, "lat": 33.8560784, "lon": 42.5606252, "tags": {"alt_name": "\u0645\u0632\u064a\u062f\u064a\u0629", "int_name": "Maz\u012bd\u012byah, \u0645\u0632\u064a\u062f\u064a\u0629, Mazidiyah, \u0645\u0632\u064a\u062f\u064a\u0629", "name": "\u0645\u0632\u064a\u062f\u064a\u0629", "name:ar": "\u0645\u0632\u064a\u062f\u064a\u0629", "name:ar1": "\u0645\u0632\u064a\u062f\u064a\u0629", "name:de": "Mazidiyah", "name:en": "Mazidiyah", "name:fr": "Mazidiyah", "place": "village"}}, {"type": "node", "id": 2488417734, "lat": 33.8605606, "lon": 42.5485278, "tags": {"alt_name": "\u0645\u0633\u062c\u0627\u0641", "int_name": "Misj\u0101f, \u0645\u0633\u062c\u0627\u0641, Misjaf, \u0645\u0633\u062c\u0627\u0641", "name": "\u0645\u0633\u062c\u0627\u0641", "name:ar": "\u0645\u0633\u062c\u0627\u0641", "name:ar1": "\u0645\u0633\u062c\u0627\u0641", "name:de": "Misjaf", "name:en": "Misjaf", "name:fr": "Misjaf", "place": "village"}}, {"type": "node", "id": 2488417770, "lat": 33.8580232, "lon": 42.5974842, "tags": {"alt_name": "\u0633\u062d\u0627\u0644\u0629", "int_name": "Sa\u1e29\u0101lah, Sam\u0101la, Sam\u0101lah, \u0633\u062d\u0627\u0644\u0629, Sahalah, Samala, Samalah, \u0633\u062d\u0627\u0644\u0629", "name": "\u0633\u062d\u0627\u0644\u0629", "name:ar": "\u0633\u0645\u0627\u0644\u0629", "name:ar1": "\u0633\u062d\u0627\u0644\u0629", "name:de": "Sahalah", "name:en": "Samalah", "name:fr": "Sahalah", "place": "village"}}, {"type": "node", "id": 2488417975, "lat": 33.833333, "lon": 42.6, "tags": {"alt_name": "\u0632\u0631\u064a\u0642", "int_name": "Zur\u0101riq, Zurarq, Z\u016brayk, Zurayq, Zurariq, Zurarq, Zurayk, Zurayq", "name": "\u0632\u0631\u064a\u0642", "name:ar": "\u0632\u0631\u064a\u0642", "name:ar1": "\u0632\u0631\u064a\u0642", "name:de": "Zurariq", "name:en": "Zurariq", "name:fr": "Zurariq", "place": "village"}}, {"type": "node", "id": 2489267976, "lat": 33.604054, "lon": 42.462576, "tags": {"alt_name": "\u0639\u064a\u0646 \u0627\u0644\u0623\u0631\u0646\u0628", "int_name": "Ayn al Arnab, \u0639\u064a\u0646 \u0627\u0644\u0627\u0631\u0646\u0628, Ayn al Arnab, \u0639\u064a\u0646 \u0627\u0644\u0627\u0631\u0646\u0628", "name": "\u0639\u064a\u0646 \u0627\u0644\u0623\u0631\u0646\u0628", "name:ar": "\u0639\u064a\u0646 \u0627\u0644\u0623\u0631\u0646\u0628", "name:ar1": "\u0639\u064a\u0646 \u0627\u0644\u0623\u0631\u0646\u0628", "name:de": "Ayn al Arnab", "name:en": "Ayn al Arnab", "name:fr": "Ayn al Arnab", "place": "hamlet"}}, {"type": "node", "id": 2489268118, "lat": 33.730171, "lon": 42.718433, "tags": {"alt_name": "\u0627\u0644\u0628\u0633\u0637\u0627\u0645\u064a\u0629", "int_name": "Al Bas\u0163\u0101m\u012byah, \u0627\u0644\u0628\u0633\u0637\u0627\u0645\u064a\u0629, Al Bastamiyah, \u0627\u0644\u0628\u0633\u0637\u0627\u0645\u064a\u0629", "name": "\u0627\u0644\u0628\u0633\u0637\u0627\u0645\u064a\u0629", "name:ar": "\u0627\u0644\u0628\u0633\u0637\u0627\u0645\u064a\u0629", "name:ar1": "\u0627\u0644\u0628\u0633\u0637\u0627\u0645\u064a\u0629", "name:de": "Al Bastamiyah", "name:en": "Al Bastamiyah", "name:fr": "Al Bastamiyah", "place": "village"}}, {"type": "node", "id": 2489268126, "lat": 33.621867, "lon": 42.560116, "tags": {"alt_name": "\u0639\u064a\u0646 \u0627\u0644\u0646\u062c\u064a\u0628\u0629", "int_name": "Ayn an Nujaybah, \u0639\u064a\u0646 \u0627\u0644\u0646\u062c\u064a\u0628\u0629, Ayn an Nujaybah, \u0639\u064a\u0646 \u0627\u0644\u0646\u062c\u064a\u0628\u0629", "name": "\u0639\u064a\u0646 \u0627\u0644\u0646\u062c\u064a\u0628\u0629", "name:ar": "\u0639\u064a\u0646 \u0627\u0644\u0646\u062c\u064a\u0628\u0629", "name:ar1": "\u0639\u064a\u0646 \u0627\u0644\u0646\u062c\u064a\u0628\u0629", "name:de": "Ayn an Nujaybah", "name:en": "Ayn an Nujaybah", "name:fr": "Ayn an Nujaybah", "place": "village"}}, {"type": "node", "id": 2489268161, "lat": 33.638399, "lon": 42.601278, "tags": {"alt_name": "\u0646\u062e\u064a\u0644 \u062e\u0636\u064a\u0631\u0629", "int_name": "Nakh\u012bl Khu\u1e11ayrah, \u0646\u062e\u064a\u0644 \u062e\u0636\u064a\u0631\u0629, Nakhil Khudayrah, \u0646\u062e\u064a\u0644 \u062e\u0636\u064a\u0631\u0629", "name": "\u0646\u062e\u064a\u0644 \u062e\u0636\u064a\u0631\u0629", "name:ar": "\u0646\u062e\u064a\u0644 \u062e\u0636\u064a\u0631\u0629", "name:ar1": "\u0646\u062e\u064a\u0644 \u062e\u0636\u064a\u0631\u0629", "name:de": "Nakhil Khudayrah", "name:en": "Nakhil Khudayrah", "name:fr": "Nakhil Khudayrah", "place": "village"}}, {"type": "node", "id": 4407431441, "lat": 33.6485572, "lon": 42.8422546, "tags": {"alt_name": "\u0646\u0627\u062d\u064a\u0629 \u0627\u0644\u0641\u0631\u0627\u062a", "capital": "7", "name": "\u0627\u0644\u0641\u0631\u0627\u062a", "name:ar": "\u0627\u0644\u0641\u0631\u0627\u062a", "name:en": "Al-Forat", "name:ko": "\uc54c \ud478\ub77c\ud2b8", "place": "town"}}, {"type": "node", "id": 4470520176, "lat": 33.5941027, "lon": 42.6184633, "tags": {"capital": "7", "is_in:country": "Iraq", "is_in:country_code": "IQ", "name": "\u0643\u0628\u064a\u0633\u0629", "name:de": "Kabisa", "name:en": "Kabisa", "name:es": "Kabisa", "name:fr": "Kabisa", "name:ru": "\u041a\u0443\u0431\u0430\u0439\u0441\u0430", "place": "town", "population": "12000", "population:date": "2012", "source:population": "https://ar.wikipedia.org/wiki/%D9%83%D8%A8%D9%8A%D8%B3%D8%A9", "wikidata": "Q4119719"}}, {"type": "node", "id": 9988757617, "lat": 33.6434039, "lon": 42.8460077, "tags": {"name": "\u0642\u0631\u064a\u0647 \u0627\u0644\u062f\u0648\u0627\u0633\u0631", "name:en": "Aldawser", "place": "village"}}]}