{"version": 0.6, "generator": "Overpass API 0.7.61.5 4133829e", "osm3s": {"timestamp_osm_base": "2024-03-06T11:09:29Z", "copyright": "The data included in this document is from www.openstreetmap.org. The data is made available under ODbL."}, "elements": [{"type": "node", "id": 4779498827, "lat": 36.4802498, "lon": 41.7502723, "tags": {"amenity": "hospital"}}, {"type": "node", "id": 4779498828, "lat": 36.4915409, "lon": 41.8138821, "tags": {"amenity": "hospital"}}, {"type": "node", "id": 4796988421, "lat": 36.4919513, "lon": 41.8132386, "tags": {"amenity": "hospital"}}, {"type": "node", "id": 7867175285, "lat": 36.6847309, "lon": 41.694262, "tags": {"addr:street": "Cezaa / Jezaah", "amenity": "pharmacy", "name": "\u0645\u0631\u0643\u0632 \u0627\u0644\u062c\u0632\u0639\u0647 \u0627\u0644\u0635\u062d\u064a", "name:ar": "\u0635\u064a\u062f\u0644\u064a\u0647 \u0627\u0644\u062c\u0632\u0639\u0647", "name:en": "Aljazaa Health Center", "opening_hours": "Mo-Su 08:00-12:30, 16:00-20:00", "phone": "+963933316356"}}]}