{"version": 0.6, "generator": "Overpass API 0.7.61.5 4133829e", "osm3s": {"timestamp_osm_base": "2024-02-29T13:48:25Z", "copyright": "The data included in this document is from www.openstreetmap.org. The data is made available under ODbL."}, "elements": [{"type": "node", "id": 4763888816, "lat": 6.4612124, "lon": -2.7270704}, {"type": "node", "id": 4763888817, "lat": 6.46119, "lon": -2.7265173}, {"type": "node", "id": 4763888818, "lat": 6.4610528, "lon": -2.7265229}, {"type": "node", "id": 4763888819, "lat": 6.4610752, "lon": -2.727076}, {"type": "node", "id": 6402609993, "lat": 6.7016423, "lon": -2.4494094, "tags": {"amenity": "school"}}, {"type": "node", "id": 6647645617, "lat": 6.7357867, "lon": -2.5737512, "tags": {"amenity": "school", "name": "M.A. J.H.S", "source": "Local Knowledge"}}, {"type": "node", "id": 6877620985, "lat": 6.5649906, "lon": -2.5806672, "tags": {"amenity": "school", "name": "Marfokrom DA"}}, {"type": "node", "id": 6877657185, "lat": 6.5863046, "lon": -2.6009768, "tags": {"amenity": "school", "name": "Drurowakrom DA Basic School"}}, {"type": "node", "id": 7149572759, "lat": 6.7314356, "lon": -2.5751714, "tags": {"amenity": "school", "name": "Leadership Training Institute"}}, {"type": "node", "id": 7208022085, "lat": 6.729106, "lon": -2.4928175, "tags": {"amenity": "school", "name": "Nfrekrom No. 2 DA Basic School"}}, {"type": "node", "id": 7208247586, "lat": 6.4752073, "lon": -2.4555407, "tags": {"amenity": "school", "name": "Oppongkrom DA Basic"}}, {"type": "node", "id": 7208479586, "lat": 6.4920952, "lon": -2.567709, "tags": {"amenity": "school", "name": "Kwaku Nii DA Basic"}}, {"type": "node", "id": 7208528786, "lat": 6.5868726, "lon": -2.6487106, "tags": {"amenity": "school", "name": "Denyasi DA Basic School"}}, {"type": "node", "id": 7208876590, "lat": 6.6296869, "lon": -2.7817099, "tags": {"amenity": "school", "name": "Anwiaso DA Basic School"}}, {"type": "node", "id": 7208876591, "lat": 6.624233, "lon": -2.7905788, "tags": {"amenity": "school", "name": "Sekyikrom DA Basic School"}}, {"type": "node", "id": 7208876592, "lat": 6.6537427, "lon": -2.7731063, "tags": {"amenity": "school", "name": "Manukrom MA Basic school"}}, {"type": "node", "id": 7208884786, "lat": 6.6251953, "lon": -2.7640179, "tags": {"amenity": "school", "name": "Nakete DA Basic School"}}, {"type": "node", "id": 8214000045, "lat": 6.6882854, "lon": -2.439732}, {"type": "node", "id": 8214000046, "lat": 6.6884985, "lon": -2.4384821}, {"type": "node", "id": 8214000047, "lat": 6.6888075, "lon": -2.4360895}, {"type": "node", "id": 8214000048, "lat": 6.6858665, "lon": -2.4354565}, {"type": "node", "id": 8214000049, "lat": 6.683714, "lon": -2.43536}, {"type": "node", "id": 8214000050, "lat": 6.6833943, "lon": -2.4368674}, {"type": "node", "id": 8214000051, "lat": 6.6827496, "lon": -2.4392974}, {"type": "node", "id": 8214000052, "lat": 6.6879817, "lon": -2.4397159}, {"type": "node", "id": 8543716881, "lat": 6.5192871, "lon": -2.4990785}, {"type": "node", "id": 8543716882, "lat": 6.5159293, "lon": -2.4997223}, {"type": "node", "id": 8543716883, "lat": 6.5155962, "lon": -2.4983972}, {"type": "node", "id": 8543716884, "lat": 6.5191165, "lon": -2.4978447}, {"type": "node", "id": 9501889740, "lat": 6.7025742, "lon": -2.4500893, "tags": {"amenity": "school", "name": "Kukuom R/C Primary School"}}, {"type": "node", "id": 9835220726, "lat": 6.4234627, "lon": -2.7063113}, {"type": "node", "id": 9835220727, "lat": 6.4236946, "lon": -2.7060834}, {"type": "node", "id": 9835220728, "lat": 6.4239398, "lon": -2.7058125}, {"type": "node", "id": 9835220729, "lat": 6.4241131, "lon": -2.7055496}, {"type": "node", "id": 9835220730, "lat": 6.4242303, "lon": -2.7051339}, {"type": "node", "id": 9835220731, "lat": 6.4243716, "lon": -2.7044874}, {"type": "node", "id": 9835220732, "lat": 6.4241904, "lon": -2.7034843}, {"type": "node", "id": 9835220733, "lat": 6.4236306, "lon": -2.7015424}, {"type": "node", "id": 9835220734, "lat": 6.4213064, "lon": -2.7022827}, {"type": "node", "id": 9835220735, "lat": 6.421565, "lon": -2.7028888}, {"type": "node", "id": 9835220736, "lat": 6.4222526, "lon": -2.704356}, {"type": "node", "id": 9835220737, "lat": 6.4227591, "lon": -2.7054879}, {"type": "node", "id": 9835220738, "lat": 6.4232202, "lon": -2.7064803}, {"type": "node", "id": 9845940866, "lat": 6.3450228, "lon": -2.8281695}, {"type": "node", "id": 9845940867, "lat": 6.3474594, "lon": -2.8254497}, {"type": "node", "id": 9845940868, "lat": 6.3469209, "lon": -2.823953}, {"type": "node", "id": 9845940869, "lat": 6.3461371, "lon": -2.8235346}, {"type": "node", "id": 9845940870, "lat": 6.3450868, "lon": -2.8244144}, {"type": "node", "id": 9845940871, "lat": 6.3433647, "lon": -2.8253424}, {"type": "node", "id": 9845940872, "lat": 6.3432288, "lon": -2.8256562}, {"type": "node", "id": 9845940873, "lat": 6.3431621, "lon": -2.8262356}, {"type": "node", "id": 9845940874, "lat": 6.3436686, "lon": -2.8272012}, {"type": "node", "id": 9845940875, "lat": 6.3444577, "lon": -2.8284216}, {"type": "way", "id": 483648466, "nodes": [4763888816, 4763888817, 4763888818, 4763888819, 4763888816], "tags": {"amenity": "school", "building": "school", "name": "Anglican Primary School"}}, {"type": "way", "id": 883260864, "nodes": [8214000052, 8214000051, 8214000050, 8214000049, 8214000048, 8214000047, 8214000046, 8214000045, 8214000052], "tags": {"addr:country": "GH", "addr:district": "Asunafo South", "addr:place": "Kukuom", "addr:region": "Ahafo", "amenity": "school", "description": "Established in 1976 as Agric School, the school now offers six academic programmes. The enrolment now stands at almost one thousand, five hundred students with a teaching population of sixty and Non-teaching, thirty-seven.", "email": "kukuomagricshs@ges.gov.gh", "isced:level": "3", "name": "Kukuom Agric Senior High School", "operator": "Ghana Education Service", "operator:short": "GES", "operator:type": "public", "operator:wikidata": "Q30263788", "phone": "+233 20 081 4178; +233 24 882 4984", "start_date": "1976"}}, {"type": "way", "id": 920065444, "nodes": [8543716884, 8543716883, 8543716882, 8543716881, 8543716884], "tags": {"addr:country": "GH", "addr:district": "Asunafo South", "addr:place": "Sankore", "addr:region": "Ahafo", "amenity": "school", "description": "Sankore SHS is a coeducational institution, situated in Sankore and located within the Asunafo South District of the Ahafo Region of Ghana. It's in a typically cocoa growing area and as such heavily forested.", "email": "sankoreshs@ges.gov.gh", "isced:level": "3", "name": "Sankore Senior High School", "operator": "Ghana Education Service", "operator:short": "GES", "operator:type": "public", "operator:wikidata": "Q30263788", "phone": "+233 20 817 2431", "start_date": "2009"}}, {"type": "way", "id": 1071840690, "nodes": [9835220738, 9835220737, 9835220736, 9835220735, 9835220734, 9835220733, 9835220732, 9835220731, 9835220730, 9835220729, 9835220728, 9835220727, 9835220726, 9835220738], "tags": {"addr:country": "GH", "addr:district": "Sefwi Wiawso", "addr:place": "Asawinso", "addr:region": "Western North", "amenity": "school", "description": "The school is located on the Sefwi Wiawso - Asawinso trunk road and situated at Asawinso near the Roman Catholic Church. It is a Category B school.", "email": "asawinsoshs@ges.gov.gh", "isced:level": "3", "name": "Asawinso Senior High School", "operator": "Ghana Education Service", "operator:short": "GES", "operator:type": "public", "operator:wikidata": "Q30263788", "phone": "+233 20 811 5739", "start_date": "1991"}}, {"type": "way", "id": 1073274384, "nodes": [9845940875, 9845940874, 9845940873, 9845940872, 9845940871, 9845940870, 9845940869, 9845940868, 9845940867, 9845940866, 9845940875], "tags": {"addr:country": "GH", "addr:district": "Sefwi Juaboso", "addr:place": "Juaboso", "addr:region": "Western North", "amenity": "school", "description": "Juaboso Senior High School exists to provide a learner-centred and well-balanced education through discipline and best practices in teaching and learning in line with government policies and programmes with the collaboration of relevant stakeholders.", "email": "juabososhs@ges.gov.gh", "isced:level": "3", "name": "Juaboso Senior High School", "operator": "Ghana Education Service", "operator:short": "GES", "operator:type": "public", "operator:wikidata": "Q30263788", "phone": "+233 24 468 9421", "start_date": "1991"}}]}