{"version": 0.6, "generator": "Overpass API 0.7.61.5 4133829e", "osm3s": {"timestamp_osm_base": "2024-03-06T11:04:23Z", "copyright": "The data included in this document is from www.openstreetmap.org. The data is made available under ODbL."}, "elements": [{"type": "node", "id": 2435185996, "lat": -0.8290538, "lon": 34.1436498}, {"type": "node", "id": 2435185997, "lat": -0.8290708, "lon": 34.1437074}, {"type": "node", "id": 2435185998, "lat": -0.8290991, "lon": 34.143344}, {"type": "node", "id": 2435185999, "lat": -0.8291301, "lon": 34.1436611}, {"type": "node", "id": 2435186000, "lat": -0.829133, "lon": 34.14402}, {"type": "node", "id": 2435186001, "lat": -0.8291415, "lon": 34.1436934}, {"type": "node", "id": 2435186002, "lat": -0.8291655, "lon": 34.1440723}, {"type": "node", "id": 2435186003, "lat": -0.8291754, "lon": 34.1433553}, {"type": "node", "id": 2435186004, "lat": -0.8292037, "lon": 34.1440059}, {"type": "node", "id": 2435186005, "lat": -0.8292276, "lon": 34.1440318}, {"type": "node", "id": 2435186006, "lat": -0.8292716, "lon": 34.1442349}, {"type": "node", "id": 2435186007, "lat": -0.829297, "lon": 34.1442915}, {"type": "node", "id": 2435186008, "lat": -0.8293336, "lon": 34.1441944}, {"type": "node", "id": 2435186009, "lat": -0.829347, "lon": 34.1442326}, {"type": "node", "id": 2435186010, "lat": -0.8295402, "lon": 34.1444979}, {"type": "node", "id": 2435186011, "lat": -0.8295902, "lon": 34.1444391}, {"type": "node", "id": 2435186012, "lat": -0.8296138, "lon": 34.1446238}, {"type": "node", "id": 2435186013, "lat": -0.8296455, "lon": 34.1445855}, {"type": "node", "id": 2435186014, "lat": -0.8296933, "lon": 34.1452037}, {"type": "node", "id": 2435186015, "lat": -0.829716, "lon": 34.144644}, {"type": "node", "id": 2435186016, "lat": -0.8297265, "lon": 34.14529}, {"type": "node", "id": 2435186017, "lat": -0.8297389, "lon": 34.1446164}, {"type": "node", "id": 2435186018, "lat": -0.8297449, "lon": 34.145331}, {"type": "node", "id": 2435186019, "lat": -0.8297531, "lon": 34.1451807}, {"type": "node", "id": 2435186020, "lat": -0.8297552, "lon": 34.1447412}, {"type": "node", "id": 2435186021, "lat": -0.829767, "lon": 34.1446863}, {"type": "node", "id": 2435186022, "lat": -0.8297863, "lon": 34.145267}, {"type": "node", "id": 2435186023, "lat": -0.8297869, "lon": 34.1447029}, {"type": "node", "id": 2435186024, "lat": -0.8297898, "lon": 34.1446588}, {"type": "node", "id": 2435186025, "lat": -0.8297944, "lon": 34.1454604}, {"type": "node", "id": 2435186026, "lat": -0.8298119, "lon": 34.1453054}, {"type": "node", "id": 2435186027, "lat": -0.8298614, "lon": 34.1454348}, {"type": "node", "id": 3170012831, "lat": -0.8322306, "lon": 34.1437674}, {"type": "node", "id": 3170012841, "lat": -0.8326033, "lon": 34.1445685}, {"type": "node", "id": 3170012843, "lat": -0.8329496, "lon": 34.143426}, {"type": "node", "id": 3170012845, "lat": -0.8330809, "lon": 34.1443141}, {"type": "node", "id": 3170012846, "lat": -0.8331843, "lon": 34.1439135}, {"type": "node", "id": 3170027535, "lat": -0.8165032, "lon": 34.1401771}, {"type": "node", "id": 3170027536, "lat": -0.8166772, "lon": 34.1393727}, {"type": "node", "id": 3170027537, "lat": -0.8170318, "lon": 34.1394088}, {"type": "node", "id": 3170027538, "lat": -0.8172452, "lon": 34.1404267}, {"type": "node", "id": 3170027543, "lat": -0.8176161, "lon": 34.1396551}, {"type": "node", "id": 3170027548, "lat": -0.8179149, "lon": 34.1408338}, {"type": "node", "id": 3170027549, "lat": -0.8183305, "lon": 34.130955}, {"type": "node", "id": 3170027550, "lat": -0.8183537, "lon": 34.1314705}, {"type": "node", "id": 3170027557, "lat": -0.8184763, "lon": 34.1400655}, {"type": "node", "id": 3170027790, "lat": -0.8195609, "lon": 34.130774}, {"type": "node", "id": 3170027794, "lat": -0.8196398, "lon": 34.1312708}, {"type": "node", "id": 4059403956, "lat": -0.9981941, "lon": 34.0909682, "tags": {"amenity": "school", "name": "Senye Secondary School"}}, {"type": "node", "id": 5172727698, "lat": -0.7706258, "lon": 34.1845663}, {"type": "node", "id": 5172727699, "lat": -0.7705829, "lon": 34.1850008}, {"type": "node", "id": 5172727700, "lat": -0.7705722, "lon": 34.1854944}, {"type": "node", "id": 5172727701, "lat": -0.7705347, "lon": 34.1857787}, {"type": "node", "id": 5172727702, "lat": -0.7704167, "lon": 34.1857519}, {"type": "node", "id": 5172727703, "lat": -0.7700787, "lon": 34.1855909}, {"type": "node", "id": 5172727704, "lat": -0.7697032, "lon": 34.1854193}, {"type": "node", "id": 5172727705, "lat": -0.7693921, "lon": 34.1852583}, {"type": "node", "id": 5172727706, "lat": -0.7690596, "lon": 34.1850706}, {"type": "node", "id": 5172727707, "lat": -0.7690059, "lon": 34.1849687}, {"type": "node", "id": 5172727708, "lat": -0.7690864, "lon": 34.1846522}, {"type": "node", "id": 5172727709, "lat": -0.7691937, "lon": 34.1843947}, {"type": "node", "id": 5172727710, "lat": -0.7694297, "lon": 34.1843947}, {"type": "node", "id": 5172727711, "lat": -0.7696925, "lon": 34.1844054}, {"type": "node", "id": 5172727712, "lat": -0.7699714, "lon": 34.1844054}, {"type": "node", "id": 5172727713, "lat": -0.7702826, "lon": 34.1843678}, {"type": "node", "id": 5172727714, "lat": -0.7706258, "lon": 34.1843303}, {"type": "node", "id": 5172727729, "lat": -0.7665646, "lon": 34.2366097, "tags": {"amenity": "school", "name": "got rachar ojode mixed"}}, {"type": "node", "id": 5172728912, "lat": -0.7854223, "lon": 34.318328}, {"type": "node", "id": 5172729040, "lat": -0.8133614, "lon": 34.3181647, "tags": {"amenity": "school", "name": "m field academy"}}, {"type": "node", "id": 5172729041, "lat": -0.8109584, "lon": 34.3064917, "tags": {"amenity": "school", "name": "st. marys wachara mixed secondary"}}, {"type": "node", "id": 5172729045, "lat": -0.8203988, "lon": 34.2704428, "tags": {"amenity": "school", "name": "sibuoche primary"}}, {"type": "node", "id": 5172729046, "lat": -0.8011746, "lon": 34.265293, "tags": {"amenity": "school", "name": "apuoche mixed secondary"}}, {"type": "node", "id": 5292468025, "lat": -0.7854067, "lon": 34.3191594}, {"type": "node", "id": 5292468026, "lat": -0.7846884, "lon": 34.3191459}, {"type": "node", "id": 5292468027, "lat": -0.784704, "lon": 34.3183145}, {"type": "node", "id": 6082280194, "lat": -0.7445766, "lon": 34.0950631, "tags": {"addr:city": "Nyandiwa", "addr:street": "C19", "amenity": "school", "name": "Kiabuya Primary School"}}, {"type": "node", "id": 6082451957, "lat": -0.8290956, "lon": 34.1438322, "tags": {"addr:city": "Karungu", "addr:street": "C19", "amenity": "school", "name": "Kiranda Primary"}}, {"type": "node", "id": 10591614156, "lat": -0.977433, "lon": 34.1328954, "tags": {"amenity": "school", "grades": "1-9", "name": "Matoso Complex Academy"}}, {"type": "node", "id": 11073226568, "lat": -0.7739415, "lon": 34.107046}, {"type": "node", "id": 11073226569, "lat": -0.7744907, "lon": 34.1068076}, {"type": "node", "id": 11073226570, "lat": -0.7747589, "lon": 34.1066969}, {"type": "node", "id": 11073226571, "lat": -0.7750558, "lon": 34.106518}, {"type": "node", "id": 11073226572, "lat": -0.7755635, "lon": 34.1072334}, {"type": "node", "id": 11073226573, "lat": -0.7750314, "lon": 34.107591}, {"type": "node", "id": 11073226574, "lat": -0.7746525, "lon": 34.1078337}, {"type": "node", "id": 11073226575, "lat": -0.7744353, "lon": 34.1079955}, {"type": "node", "id": 11073226576, "lat": -0.7743034, "lon": 34.1080807}, {"type": "node", "id": 11073226577, "lat": -0.7741033, "lon": 34.1075272}, {"type": "node", "id": 11073226578, "lat": -0.7740437, "lon": 34.1073228}, {"type": "node", "id": 11073226579, "lat": -0.7731902, "lon": 34.1057293}, {"type": "node", "id": 11073226580, "lat": -0.7736194, "lon": 34.1055466}, {"type": "node", "id": 11073226581, "lat": -0.7739458, "lon": 34.1053727}, {"type": "node", "id": 11073226582, "lat": -0.7742395, "lon": 34.105228}, {"type": "node", "id": 11073226583, "lat": -0.7744183, "lon": 34.1057049}, {"type": "node", "id": 11073226584, "lat": -0.7746269, "lon": 34.1060242}, {"type": "node", "id": 11073226585, "lat": -0.7749462, "lon": 34.1064329}, {"type": "node", "id": 11073226586, "lat": -0.7750178, "lon": 34.1065409}, {"type": "node", "id": 11073226587, "lat": -0.7735158, "lon": 34.1062371}, {"type": "node", "id": 11073226593, "lat": -0.7734414, "lon": 34.1056145}, {"type": "node", "id": 11080366918, "lat": -0.7554992, "lon": 34.117406, "tags": {"amenity": "school", "denomination": "roman_catholic", "grades": "1-10", "name": "sokoni primary", "operator": "community", "operator:type": "government", "religion": "christian"}}, {"type": "node", "id": 11080366942, "lat": -0.7625157, "lon": 34.1439766, "tags": {"amenity": "school", "grades": "1-10", "name": "GOT Adundo Primary", "operator": "community", "operator:type": "public", "religion": "christian"}}, {"type": "node", "id": 11083135084, "lat": -0.7583903, "lon": 34.0985564, "tags": {"amenity": "school", "grades": "1-10", "name": "lwanda primary", "operator": "government", "operator:type": "public", "religion": "christian"}}, {"type": "node", "id": 11083135099, "lat": -0.7683886, "lon": 34.0934656, "tags": {"amenity": "school", "denomination": "roman_catholic", "grades": "1-10", "name": "lak nyiero primary", "operator": "government", "operator:type": "public", "religion": "christian"}}, {"type": "node", "id": 11083137128, "lat": -0.7781027, "lon": 34.086347, "tags": {"amenity": "school", "denomination": "roman_catholic", "grades": "1-10", "name": "Our lady of orore marist Brothers Classes", "operator": "private", "operator:type": "private", "religion": "christian"}}, {"type": "node", "id": 11083137129, "lat": -0.7792774, "lon": 34.0853921, "tags": {"amenity": "school", "denomination": "roman_catholic", "grades": "1-10", "name": "Our lady of orore marist Brothers dormitories and canteen", "operator": "private", "operator:type": "private", "religion": "christian"}}, {"type": "node", "id": 11083137146, "lat": -0.7959793, "lon": 34.0788429, "tags": {"amenity": "school", "grades": "1-10", "name": "Mukuyu primary", "operator": "community", "operator:type": "public", "religion": "christian"}}, {"type": "node", "id": 11083137185, "lat": -0.8004531, "lon": 34.0787889, "tags": {"amenity": "school", "denomination": "baptist", "grades": "1-10", "name": "primary school", "operator": "private", "operator:type": "private", "religion": "christian"}}, {"type": "node", "id": 11364103983, "lat": -0.7928019, "lon": 34.2326635, "tags": {"addr:street": "C18", "amenity": "school", "grades": "1-8", "name": "Koroge Primary School", "religion": "christian"}}, {"type": "node", "id": 11505514249, "lat": -0.7968028, "lon": 34.0918519, "tags": {"addr:city": "Kachieng' ward", "addr:housenumber": "117", "addr:postcode": "40401", "addr:street": "mukuyu-Gunga rd", "amenity": "school", "denomination": "catholic", "grades": "Form 1 - Form 4;9-12", "name": "St. Agnes Okuodo Secondary School", "operator": "Ministry of Education", "operator:type": "government_facility-public", "religion": "christian"}}, {"type": "way", "id": 235464427, "nodes": [2435186007, 2435186010, 2435186011, 2435186009, 2435186007], "tags": {"amenity": "school", "building": "yes", "name": "Kiranda Primary School"}}, {"type": "way", "id": 235464428, "nodes": [2435186002, 2435186006, 2435186008, 2435186005, 2435186002], "tags": {"amenity": "school", "building": "yes", "name": "Kiranda Primary School"}}, {"type": "way", "id": 235464429, "nodes": [2435185997, 2435186000, 2435186004, 2435186001, 2435185997], "tags": {"amenity": "school", "building": "yes", "name": "Kiranda Primary School"}}, {"type": "way", "id": 235464430, "nodes": [2435185998, 2435185996, 2435185999, 2435186003, 2435185998], "tags": {"amenity": "school", "building": "yes", "name": "Kiranda Primary School"}}, {"type": "way", "id": 235464431, "nodes": [2435186012, 2435186020, 2435186023, 2435186021, 2435186024, 2435186017, 2435186015, 2435186013, 2435186012], "tags": {"amenity": "school", "building": "yes", "name": "Kiranda Primary School"}}, {"type": "way", "id": 235464432, "nodes": [2435186018, 2435186025, 2435186027, 2435186026, 2435186018], "tags": {"amenity": "school", "building": "yes", "name": "Kiranda Primary School, Teachers Quqters"}}, {"type": "way", "id": 235464433, "nodes": [2435186014, 2435186016, 2435186022, 2435186019, 2435186014], "tags": {"amenity": "school", "building": "yes", "name": "Kiranda Primary School, Teachers Quqters"}}, {"type": "way", "id": 311364817, "nodes": [3170012846, 3170012843, 3170012831, 3170012841, 3170012845, 3170012846], "tags": {"addr:city": "Karungu", "addr:street": "C19", "amenity": "school", "name": "Kiranda Girls' Boarding"}}, {"type": "way", "id": 311366067, "nodes": [3170027549, 3170027790, 3170027794, 3170027550, 3170027549], "tags": {"amenity": "school", "name": "B.L. TEZZA"}}, {"type": "way", "id": 311366069, "nodes": [3170027535, 3170027538, 3170027548, 3170027557, 3170027543, 3170027537, 3170027536, 3170027535], "tags": {"amenity": "school", "name": "Rabuor Primary School"}}, {"type": "way", "id": 533133444, "nodes": [5172727714, 5172727713, 5172727712, 5172727711, 5172727710, 5172727709, 5172727708, 5172727707, 5172727706, 5172727705, 5172727704, 5172727703, 5172727702, 5172727701, 5172727700, 5172727699, 5172727698, 5172727714], "tags": {"amenity": "school", "name": "god keyo primary"}}, {"type": "way", "id": 547763959, "nodes": [5292468027, 5292468026, 5292468025, 5172728912, 5292468027], "tags": {"amenity": "school", "isced:level": "1", "name": "Nyarongi Primary", "wikidata": "Q46033521"}}, {"type": "way", "id": 1192923975, "nodes": [11073226568, 11073226569, 11073226570, 11073226586, 11073226571, 11073226572, 11073226573, 11073226574, 11073226575, 11073226576, 11073226577, 11073226578, 11073226568], "tags": {"addr:city": "homabay", "addr:housenumber": "41", "addr:postcode": "40307", "addr:street": "magunga", "amenity": "school", "name": "God oloo primary and junior seconday", "office": "educational_institution", "opening_hours": "monday-friday", "phone": "+254708992065", "website": "N/A"}}, {"type": "way", "id": 1192923976, "nodes": [11073226579, 11073226593, 11073226580, 11073226581, 11073226582, 11073226583, 11073226584, 11073226585, 11073226586, 11073226568, 11073226587, 11073226579], "tags": {"addr:city": "homabay", "addr:housenumber": "42", "addr:postcode": "40307", "addr:street": "magunga", "amenity": "school", "name": "God Oloo High", "office": "educational_institution", "opening_hours": "Mo-Su 24/7", "phone": "+254723261209", "website": "www.godoloohsch.ac.ke"}}]}