{"version": 0.6, "generator": "Overpass API 0.7.61.5 4133829e", "osm3s": {"timestamp_osm_base": "2024-03-06T10:45:02Z", "copyright": "The data included in this document is from www.openstreetmap.org. The data is made available under ODbL."}, "elements": [{"type": "node", "id": 4443961090, "lat": 32.7766727, "lon": 44.2851445, "tags": {"amenity": "school", "name": "\u062b\u0627\u0646\u0648\u064a\u0629 \u0627\u0644\u0645\u0633\u064a\u0628 \u0644\u0644\u0628\u0646\u0627\u062a", "name:ar": "\u062b\u0627\u0646\u0648\u064a\u0629 \u0627\u0644\u0645\u0633\u064a\u0628 \u0644\u0644\u0628\u0646\u0627\u062a"}}, {"type": "node", "id": 4443963690, "lat": 32.7803167, "lon": 44.2932832, "tags": {"amenity": "school", "name": "\u0645\u062f\u0631\u0633\u0629 \u0627\u0644\u0645\u062b\u0646\u0649 \u0627\u0644\u0627\u0628\u062a\u062f\u0627\u0626\u064a\u0629 \u0644\u0644\u0628\u0646\u064a\u0646", "name:ar": "\u0645\u062f\u0631\u0633\u0629 \u0627\u0644\u0645\u062b\u0646\u0649"}}, {"type": "node", "id": 4443968689, "lat": 32.7759386, "lon": 44.2832458, "tags": {"amenity": "school", "name": "\u062b\u0627\u0646\u0648\u064a\u0629 \u0627\u0644\u0645\u0633\u064a\u0628 \u0644\u0644\u0628\u0646\u064a\u0646", "name:ar": "\u062b\u0627\u0646\u0648\u064a\u0629 \u0627\u0644\u0645\u0633\u064a\u0628 \u0644\u0644\u0628\u0646\u064a\u0646"}}, {"type": "node", "id": 4483546290, "lat": 32.7780614, "lon": 44.293374, "tags": {"amenity": "school", "name": "\u0645\u062f\u0631\u0633\u0629 \u062c\u0645\u064a\u0644\u0629 \u0628\u0648\u062d\u064a\u0631\u062f \u0627\u0644\u0627\u0628\u062a\u062f\u0627\u0626\u064a\u0629 \u0644\u0644\u0628\u0646\u0627\u062a", "name:ar": "\u0645\u062f\u0631\u0633\u0647 \u062c\u0645\u064a\u0644\u0647 \u0628\u0648\u062d\u064a\u0631\u062f \u0627\u0644\u0627\u0628\u062a\u062f\u0627\u0626\u064a\u0647 \u0644\u0644\u0628\u0646\u0627\u062a"}}, {"type": "node", "id": 4501068590, "lat": 32.7764087, "lon": 44.2835041, "tags": {"amenity": "school", "name": "\u0627\u0639\u062f\u0627\u062f\u064a\u0629 \u0627\u0644\u0645\u0633\u064a\u0628 \u0644\u0644\u0628\u0646\u064a\u0646", "name:ar": "\u0627\u0639\u062f\u0627\u062f\u064a\u0629 \u0627\u0644\u0645\u0633\u064a\u0628 \u0644\u0644\u0628\u0646\u064a\u0646"}}, {"type": "node", "id": 4501072892, "lat": 32.7768173, "lon": 44.285313, "tags": {"amenity": "school", "name": "\u062b\u0627\u0646\u0648\u064a\u0629 \u0627\u0644\u0645\u0633\u064a\u0628 \u0644\u0644\u0628\u0646\u0627\u062a", "name:ar": "\u062b\u0627\u0646\u0648\u064a\u0629 \u0627\u0644\u0645\u0633\u064a\u0628 \u0644\u0644\u0628\u0646\u0627\u062a"}}, {"type": "node", "id": 4501072893, "lat": 32.7730146, "lon": 44.2894958, "tags": {"amenity": "school", "name": "\u062b\u0627\u0646\u0648\u064a\u0629 \u0627\u0644\u0645\u0639\u0631\u0641\u0629 \u0644\u0644\u0628\u0646\u0627\u062a", "name:ar": "\u062b\u0627\u0646\u0648\u064a\u0629 \u0627\u0644\u0645\u0639\u0631\u0641\u0629 \u0644\u0644\u0628\u0646\u0627\u062a"}}, {"type": "node", "id": 4501072990, "lat": 32.7832484, "lon": 44.292562, "tags": {"amenity": "school", "name": "\u0645\u062f\u0631\u0633\u0629 \u0627\u0644\u062a\u0647\u0630\u064a\u0628 \u0627\u0644\u0627\u0628\u062a\u062f\u0627\u0626\u064a\u0629", "name:ar": "\u0645\u062f\u0631\u0633\u0629 \u0627\u0644\u062a\u0647\u0630\u064a\u0628 \u0627\u0644\u0627\u0628\u062a\u062f\u0627\u0626\u064a\u0629"}}, {"type": "node", "id": 4501073390, "lat": 32.7725648, "lon": 44.2883623, "tags": {"amenity": "school", "name": "\u0643\u0644\u064a\u0629 \u0627\u0644\u0645\u0633\u064a\u0628 \u0644\u0644\u0647\u0646\u062f\u0633\u0629", "name:ar": "\u0643\u0644\u064a\u0629 \u0627\u0644\u0645\u0633\u064a\u0628 \u0644\u0644\u0647\u0646\u062f\u0633\u0629"}}, {"type": "node", "id": 4501074389, "lat": 32.7792722, "lon": 44.2935691, "tags": {"amenity": "school", "name": "\u0645\u062f\u0631\u0633\u0629 \u0627\u0644\u0645\u062b\u0646\u0649 \u0627\u0644\u0627\u0628\u062a\u062f\u0627\u0626\u064a\u0629 \u0644\u0644\u0628\u0646\u064a\u0646", "name:ar": "\u0645\u062f\u0631\u0633\u0629 \u0627\u0644\u0645\u062b\u0646\u0649 \u0627\u0644\u0627\u0628\u062a\u062f\u0627\u0626\u064a\u0629 \u0644\u0644\u0628\u0646\u064a\u0646"}}, {"type": "node", "id": 4501074589, "lat": 32.7779785, "lon": 44.2936215, "tags": {"amenity": "school", "name": "\u0645\u062f\u0631\u0633\u0629 \u062c\u0645\u064a\u0644\u0629 \u0628\u0648\u062d\u064a\u0631\u062f \u0627\u0644\u0627\u0628\u062a\u062f\u0627\u0626\u064a\u0629 \u0644\u0644\u0628\u0646\u0627\u062a", "name:ar": "\u0645\u062f\u0631\u0633\u0629 \u062c\u0645\u064a\u0644\u0629 \u0628\u0648\u062d\u064a\u0631\u062f \u0627\u0644\u0627\u0628\u062a\u062f\u0627\u0626\u064a\u0629 \u0644\u0644\u0628\u0646\u0627\u062a"}}, {"type": "node", "id": 4501074590, "lat": 32.7747701, "lon": 44.2921043, "tags": {"amenity": "school", "name": "\u0645\u062f\u0631\u0633\u0629 \u064a\u0627\u0641\u0627 \u0644\u0644\u0628\u0646\u064a\u0646", "name:ar": "\u0645\u062f\u0631\u0633\u0629 \u064a\u0627\u0641\u0627 \u0644\u0644\u0628\u0646\u064a\u0646"}}, {"type": "node", "id": 4501074690, "lat": 32.7749684, "lon": 44.2918862, "tags": {"amenity": "school", "name": "\u0645\u062f\u0631\u0633\u0629 \u0627\u0644\u0646\u0647\u0636\u0629 \u0644\u0644\u0628\u0646\u0627\u062a", "name:ar": "\u0645\u062f\u0631\u0633\u0629 \u0627\u0644\u0646\u0647\u0636\u0629 \u0644\u0644\u0628\u0646\u0627\u062a"}}, {"type": "node", "id": 4502146189, "lat": 32.597361, "lon": 44.046861, "tags": {"amenity": "school", "name": "\u0627\u0644\u0627\u0646\u0648\u0627\u0631", "name:ar": "\u0627\u0644\u0627\u0646\u0648\u0627\u0631", "name:en": "al anwar"}}, {"type": "node", "id": 4502154192, "lat": 32.607833, "lon": 44.080361, "tags": {"amenity": "school", "name": "\u0645\u062a\u0648\u0633\u0637\u0629 \u0627\u0644\u0627\u0633\u062a\u0642\u0627\u0645\u0629", "name:ar": "\u0645\u062a\u0648\u0633\u0637\u0629 \u0627\u0644\u0627\u0633\u062a\u0642\u0627\u0645\u0629", "name:en": "Al-estekama"}}, {"type": "node", "id": 4502163789, "lat": 32.623056, "lon": 44.040028, "tags": {"amenity": "school", "name": "\u0627\u0644\u0641\u0631\u0627\u0647\u064a\u062f\u064a", "name:ar": "\u0627\u0644\u0641\u0631\u0627\u0647\u064a\u062f\u064a", "name:en": "Al-Faraheedy"}}, {"type": "node", "id": 4502163792, "lat": 32.6069288, "lon": 44.0388273, "tags": {"amenity": "school", "name": "\u0627\u0644\u062b\u0648\u0631\u0629 \u0627\u0644\u0627\u0633\u0627\u0633\u064a\u0629 2", "name:ar": "\u0627\u0644\u062b\u0648\u0631\u0629 \u0627\u0644\u0627\u0633\u0627\u0633\u064a\u0629 2", "name:en": "Althawra alassasia 2"}}, {"type": "node", "id": 4502225490, "lat": 32.597028, "lon": 44.057472, "tags": {"amenity": "school", "name": "\u0627\u0628\u062a\u062f\u0627\u0626\u064a\u0629 \u0627\u0644\u062c\u0648\u0632\u0627\u0621", "name:ar": "\u0627\u0628\u062a\u062f\u0627\u0626\u064a\u0629 \u0627\u0644\u062c\u0648\u0632\u0627\u0621", "name:en": "Al-jawzaa"}}, {"type": "node", "id": 4502279190, "lat": 32.6402743, "lon": 44.0483484, "tags": {"amenity": "school", "name": "\u062b\u0627\u0646\u0648\u064a\u0629 \u0646\u064a\u0646\u0648\u0649 \u0644\u0644\u0646\u0627\u0632\u062d\u064a\u0646", "name:ar": "\u062b\u0627\u0646\u0648\u064a\u0629 \u0646\u064a\u0646\u0648\u0649 \u0644\u0644\u0646\u0627\u0632\u062d\u064a\u0646", "name:en": "Neenawa for emigrants"}}, {"type": "node", "id": 4502281789, "lat": 32.586139, "lon": 44.0465, "tags": {"amenity": "school", "name": "\u0627\u0628\u062a\u062f\u0627\u0626\u064a\u0629 \u0627\u0644\u0633\u064a\u062f\u0629 \u0645\u0631\u064a\u0645 \u0627\u0644\u0639\u0630\u0631\u0627\u0621", "name:ar": "\u0627\u0628\u062a\u062f\u0627\u0626\u064a\u0629 \u0627\u0644\u0633\u064a\u062f\u0629 \u0645\u0631\u064a\u0645 \u0627\u0644\u0639\u0630\u0631\u0627\u0621", "name:en": "Al-Sayeida Mareim Al-Athraa"}}, {"type": "node", "id": 4502306393, "lat": 32.604889, "lon": 44.087639, "tags": {"amenity": "school", "name": "\u0627\u0628\u062a\u062f\u0627\u0626\u064a\u0629 \u0627\u0644\u0627\u062f\u064a\u0628", "name:ar": "\u0627\u0628\u062a\u062f\u0627\u0626\u064a\u0629 \u0627\u0644\u0627\u062f\u064a\u0628", "name:en": "Al-adeeb"}}, {"type": "node", "id": 4502315290, "lat": 32.605083, "lon": 44.086222, "tags": {"amenity": "school", "name": "\u0627\u0644\u0639\u0631\u0648\u0629 \u0627\u0644\u0648\u062b\u0642\u0649", "name:ar": "\u0627\u0644\u0639\u0631\u0648\u0629 \u0627\u0644\u0648\u062b\u0642\u0649", "name:en": "al erwato al wathkaa"}}, {"type": "node", "id": 4502315489, "lat": 32.582222, "lon": 44.040056, "tags": {"amenity": "school", "name": "\u0627\u0644\u0631\u064a\u062d\u0627\u0646\u0647", "name:ar": "\u0627\u0644\u0631\u064a\u062d\u0627\u0646\u0647", "name:en": "al raiehaanah"}}, {"type": "node", "id": 4502324591, "lat": 32.616515, "lon": 44.042295, "tags": {"amenity": "school", "name": "\u0623\u0646\u0648\u0627\u0631 \u0627\u0644\u0628\u0642\u064a\u0639", "name:ar": "\u0623\u0646\u0648\u0627\u0631 \u0627\u0644\u0628\u0642\u064a\u0639", "name:en": "Anwar Al-Baqia"}}, {"type": "node", "id": 4502612692, "lat": 32.596167, "lon": 44.0485, "tags": {"amenity": "school", "name": "\u062b\u0627\u0646\u0648\u064a\u0629 \u0627\u0644\u0646\u0642\u0627\u0621", "name:ar": "\u062b\u0627\u0646\u0648\u064a\u0629 \u0627\u0644\u0646\u0642\u0627\u0621", "name:en": "Al-naqaa"}}, {"type": "node", "id": 4502725094, "lat": 32.608306, "lon": 44.043417, "tags": {"amenity": "school", "name": "\u0627\u0628\u062a\u062f\u0627\u0626\u064a\u0629 \u0627\u0644\u0636\u0631\u063a\u0627\u0645", "name:ar": "\u0627\u0628\u062a\u062f\u0627\u0626\u064a\u0629 \u0627\u0644\u0636\u0631\u063a\u0627\u0645", "name:en": "Al-dhurgham"}}, {"type": "node", "id": 4502728993, "lat": 32.596874, "lon": 44.0574704, "tags": {"amenity": "school", "name": "\u0627\u0644\u0633\u0644\u0633\u0628\u064a\u0644", "name:ar": "\u0627\u0644\u0633\u0644\u0633\u0628\u064a\u0644", "name:en": "Al-salsabeel"}}, {"type": "node", "id": 4502753390, "lat": 32.5960698, "lon": 44.048379, "tags": {"amenity": "school", "name": "\u062b\u0627\u0646\u0648\u064a\u0629 \u0627\u0644\u0634\u0631\u064a\u0641 \u0627\u0644\u0645\u0631\u062a\u0636\u0649", "name:ar": "\u062b\u0627\u0646\u0648\u064a\u0629 \u0627\u0644\u0634\u0631\u064a\u0641 \u0627\u0644\u0645\u0631\u062a\u0636\u0649", "name:en": "Al-shareef Al-murtada"}}, {"type": "node", "id": 4502815993, "lat": 32.611667, "lon": 44.040694, "tags": {"amenity": "school", "name": "\u062b\u0627\u0646\u0648\u064a\u0629 \u0646\u064a\u0646\u0648\u0649 \u0627\u0644\u0635\u0646\u0627\u0639\u064a\u0629", "name:ar": "\u062b\u0627\u0646\u0648\u064a\u0629 \u0646\u064a\u0646\u0648\u0649 \u0627\u0644\u0635\u0646\u0627\u0639\u064a\u0629", "name:en": "Naynawa Industrial"}}, {"type": "node", "id": 4503895889, "lat": 32.635361, "lon": 44.048, "tags": {"amenity": "school", "name": "\u0627\u0644\u0645\u0648\u0627\u0647\u0628", "name:ar": "\u0627\u0644\u0645\u0648\u0627\u0647\u0628", "name:en": "Al-mawahb"}}, {"type": "node", "id": 4503922289, "lat": 32.595667, "lon": 44.05875, "tags": {"amenity": "school", "name": "\u062b\u0627\u0646\u0648\u064a\u0629 \u0627\u0644\u0633\u0646\u0627\u0628\u0644", "name:ar": "\u062b\u0627\u0646\u0648\u064a\u0629 \u0627\u0644\u0633\u0646\u0627\u0628\u0644", "name:en": "Al-sanabil"}}, {"type": "node", "id": 4504123890, "lat": 32.5825162, "lon": 44.041888, "tags": {"amenity": "school", "name": "\u0645\u062a\u0648\u0633\u0637\u0629 \u0627\u0644\u0645\u062a\u0646\u0628\u064a", "name:ar": "\u0645\u062a\u0648\u0633\u0637\u0629 \u0627\u0644\u0645\u062a\u0646\u0628\u064a", "name:en": "Al-mutanabee"}}, {"type": "node", "id": 4504149189, "lat": 32.6352389, "lon": 44.0480156, "tags": {"amenity": "school", "name": "\u062b\u0627\u0646\u0648\u064a\u0629 \u0633\u0645\u064a\u0629", "name:ar": "\u062b\u0627\u0646\u0648\u064a\u0629 \u0633\u0645\u064a\u0629", "name:en": "Soumayya"}}, {"type": "node", "id": 4504175191, "lat": 32.6211214, "lon": 44.0417525, "tags": {"amenity": "school", "name": "\u063a\u0632\u0629", "name:ar": "\u0645\u062f\u0631\u0633\u0629 \u063a\u0632\u0629", "name:en": "Ghaza"}}, {"type": "node", "id": 4504186291, "lat": 32.6204694, "lon": 44.0392591, "tags": {"amenity": "school", "name": "\u0639\u0628\u062f\u0627\u0644\u0644\u0647 \u0628\u0646 \u0631\u0648\u0627\u062d\u0647", "name:ar": "\u0639\u0628\u062f\u0627\u0644\u0644\u0647 \u0628\u0646 \u0631\u0648\u0627\u062d\u0647", "name:en": "abeid allah ben rawaaha"}}, {"type": "node", "id": 4504206589, "lat": 32.621074, "lon": 44.0415338, "tags": {"amenity": "school", "name": "\u0627\u0639\u062f\u0627\u062f\u064a\u0629 \u0627\u0644\u062d\u0631\u064a\u0629", "name:ar": "\u0627\u0639\u062f\u0627\u062f\u064a\u0629 \u0627\u0644\u062d\u0631\u064a\u0629", "name:en": "Al-hurreeya"}}, {"type": "node", "id": 4504245589, "lat": 32.63425, "lon": 44.048417, "tags": {"amenity": "school", "name": "\u0627\u0628\u062a\u062f\u0627\u0626\u064a\u0629 \u0627\u0644\u0648\u0627\u0631\u062b", "name:ar": "\u0627\u0628\u062a\u062f\u0627\u0626\u064a\u0629 \u0627\u0644\u0648\u0627\u0631\u062b", "name:en": "Al-wareth"}}, {"type": "node", "id": 4504411190, "lat": 32.610778, "lon": 44.041556, "tags": {"amenity": "school", "name": "\u0627\u0644\u0631\u0648\u0636\u062a\u064a\u0646", "name:ar": "\u0627\u0644\u0631\u0648\u0636\u062a\u064a\u0646", "name:en": "Al-rawdhatain"}}, {"type": "node", "id": 4504630994, "lat": 32.5955899, "lon": 44.0587881, "tags": {"amenity": "school", "name": "\u0627\u0628\u062a\u062f\u0627\u0626\u064a\u0629 \u0643\u0645\u064a\u0644 \u0628\u0646 \u0632\u064a\u0627\u062f", "name:ar": "\u0627\u0628\u062a\u062f\u0627\u0626\u064a\u0629 \u0643\u0645\u064a\u0644 \u0628\u0646 \u0632\u064a\u0627\u062f", "name:en": "Kumail Bin Ziad"}}, {"type": "node", "id": 4504631192, "lat": 32.6049251, "lon": 44.0874894, "tags": {"amenity": "school", "name": "\u0627\u0628\u062a\u062f\u0627\u0626\u064a\u0629 \u0627\u0628\u0646 \u0627\u0644\u0646\u0641\u064a\u0633", "name:ar": "\u0627\u0628\u062a\u062f\u0627\u0626\u064a\u0629 \u0627\u0628\u0646 \u0627\u0644\u0646\u0641\u064a\u0633", "name:en": "Ibn Al-nafees"}}, {"type": "node", "id": 4504641393, "lat": 32.6077362, "lon": 44.0803762, "tags": {"amenity": "school", "name": "\u0627\u0628\u062a\u062f\u0627\u0626\u064a\u0629 \u0627\u0644\u0645\u0648\u062f\u0629", "name:ar": "\u0627\u0628\u062a\u062f\u0627\u0626\u064a\u0629 \u0627\u0644\u0645\u0648\u062f\u0629", "name:en": "Al-mouwada"}}, {"type": "node", "id": 4504642090, "lat": 32.6341596, "lon": 44.0484329, "tags": {"amenity": "school", "name": "\u0645\u062a\u0648\u0633\u0637\u0629 \u0627\u0644\u0642\u062f\u0633", "name:ar": "\u0645\u062a\u0648\u0633\u0637\u0629 \u0627\u0644\u0642\u062f\u0633", "name:en": "Al-qudus"}}, {"type": "node", "id": 4504713791, "lat": 32.5971383, "lon": 44.0574361, "tags": {"amenity": "school", "name": "\u0627\u0628\u062a\u062f\u0627\u0626\u064a\u0629 \u0627\u0644\u0632\u0648\u0631\u0627\u0621", "name:ar": "\u0627\u0628\u062a\u062f\u0627\u0626\u064a\u0629 \u0627\u0644\u0632\u0648\u0631\u0627\u0621", "name:en": "Al-zawraa"}}, {"type": "node", "id": 4504752692, "lat": 32.6050847, "lon": 44.0861134, "tags": {"amenity": "school", "name": "\u0645\u062f\u0631\u0633\u0629 \u0627\u0644\u0645\u0639\u0627\u0644\u064a \u0627\u0644\u0627\u0628\u062a\u062f\u0627\u0626\u064a\u0629", "name:ar": "\u0627\u0628\u062a\u062f\u0627\u0626\u064a\u0629 \u0627\u0644\u0645\u0639\u0627\u0644\u064a", "name:en": "Al-maa'lee"}}, {"type": "node", "id": 4504752694, "lat": 32.6144649, "lon": 44.0404869, "tags": {"amenity": "school", "name": "\u0627\u0628\u062a\u062f\u0627\u0626\u064a\u0629 \u0627\u0644\u0646\u0639\u0645\u0629", "name:ar": "\u0627\u0628\u062a\u062f\u0627\u0626\u064a\u0629 \u0627\u0644\u0646\u0639\u0645\u0629", "name:en": "Al-ne'ma"}}, {"type": "node", "id": 4504753195, "lat": 32.609167, "lon": 44.042167, "tags": {"amenity": "school", "name": "\u0627\u0644\u0639\u0628\u0627\u0633\u064a\u0647", "name:ar": "\u0627\u0644\u0639\u0628\u0627\u0633\u064a\u0647", "name:en": "al abaseiyah"}}, {"type": "node", "id": 4504770392, "lat": 32.6048785, "lon": 44.0877868, "tags": {"amenity": "school", "name": "\u0645\u062f\u0631\u0633\u0629 \u0627\u0644\u0643\u0648\u0627\u0643\u0628 \u0627\u0644\u0627\u0628\u062a\u062f\u0627\u0626\u064a\u0629", "name:ar": "\u0627\u0628\u062a\u062f\u0627\u0626\u064a\u0629 \u0627\u0644\u0643\u0648\u0627\u0643\u0628", "name:en": "Al-kawakeb"}}, {"type": "node", "id": 4504770989, "lat": 32.6090955, "lon": 44.0421018, "tags": {"amenity": "school", "name": "\u0645\u062f\u0631\u0633\u0629 \u0627\u0631\u0648\u0649 \u0627\u0644\u0627\u0628\u062a\u062f\u0627\u0626\u064a\u0629", "name:ar": "\u0627\u0628\u062a\u062f\u0627\u0626\u064a\u0629 \u0627\u0631\u0648\u0649", "name:en": "Arwaa"}}, {"type": "node", "id": 4504835989, "lat": 32.6143052, "lon": 44.0405017, "tags": {"amenity": "school", "name": "\u0627\u0628\u062a\u062f\u0627\u0626\u064a\u0629 \u0627\u0644\u062d\u0636\u0627\u0631\u0629", "name:ar": "\u0627\u0628\u062a\u062f\u0627\u0626\u064a\u0629 \u0627\u0644\u062d\u0636\u0627\u0631\u0629", "name:en": "Al-hadaara"}}, {"type": "node", "id": 4505616895, "lat": 32.6117282, "lon": 44.0405947, "tags": {"amenity": "school", "name": "\u0627\u0628\u062a\u062f\u0627\u0626\u064a\u0629 \u0627\u0644\u0641\u0627\u0631\u0627\u0628\u064a \u0627\u0644\u0645\u0633\u0627\u0626\u064a\u0629", "name:ar": "\u0627\u0628\u062a\u062f\u0627\u0626\u064a\u0629 \u0627\u0644\u0641\u0627\u0631\u0627\u0628\u064a \u0627\u0644\u0645\u0633\u0627\u0626\u064a\u0629", "name:en": "Al-farabee"}}, {"type": "node", "id": 4505622996, "lat": 32.582778, "lon": 44.040333, "tags": {"amenity": "school", "name": "\u0627\u0628\u062a\u062f\u0627\u0626\u064a\u0629 \u0627\u0644\u063a\u062f\u064a\u0631", "name:ar": "\u0627\u0628\u062a\u062f\u0627\u0626\u064a\u0629 \u0627\u0644\u063a\u062f\u064a\u0631", "name:en": "Al-ghadeer"}}, {"type": "node", "id": 4505635589, "lat": 32.5860276, "lon": 44.046593, "tags": {"amenity": "school", "name": "\u0627\u0628\u062a\u062f\u0627\u0626\u064a\u0629 \u0627\u0644\u0633\u064a\u062f\u0629 \u0645\u0631\u064a\u0645 \u0627\u0644\u0639\u0630\u0631\u0627\u0621", "name:ar": "\u0627\u0628\u062a\u062f\u0627\u0626\u064a\u0629 \u0627\u0644\u0633\u064a\u062f\u0629 \u0645\u0631\u064a\u0645 \u0627\u0644\u0639\u0630\u0631\u0627\u0621", "name:en": "Al-sayeida Mareim Al-Athraa"}}, {"type": "node", "id": 4505705092, "lat": 32.636889, "lon": 44.049556, "tags": {"amenity": "school", "name": "\u0627\u0628\u062a\u062f\u0627\u0626\u064a\u0629 \u0627\u0644\u062e\u0644\u064a\u0644", "name:ar": "\u0627\u0628\u062a\u062f\u0627\u0626\u064a\u0629 \u0627\u0644\u062e\u0644\u064a\u0644", "name:en": "Al-Khaleel"}}, {"type": "node", "id": 4505840490, "lat": 32.5862379, "lon": 44.0464259, "tags": {"amenity": "school", "name": "\u0627\u0628\u062a\u062f\u0627\u0626\u064a\u0629 \u0627\u0644\u0634\u0647\u064a\u062f", "name:ar": "\u0627\u0628\u062a\u062f\u0627\u0626\u064a\u0629 \u0627\u0644\u0634\u0647\u064a\u062f", "name:en": "Al-shaheed"}}, {"type": "node", "id": 4505841789, "lat": 32.5828645, "lon": 44.0403624, "tags": {"amenity": "school", "name": "\u0627\u0628\u062a\u062f\u0627\u0626\u064a\u0629 \u0628\u0637\u0644\u0629 \u0643\u0631\u0628\u0644\u0627\u0621", "name:ar": "\u0627\u0628\u062a\u062f\u0627\u0626\u064a\u0629 \u0628\u0637\u0644\u0629 \u0643\u0631\u0628\u0644\u0627\u0621", "name:en": "Batalet Karbalaa"}}, {"type": "node", "id": 4505868495, "lat": 32.610917, "lon": 44.04125, "tags": {"amenity": "school", "name": "\u0627\u0628\u062a\u062f\u0627\u0626\u064a\u0629 \u0627\u0644\u0639\u0632\u0629", "name:ar": "\u0627\u0628\u062a\u062f\u0627\u0626\u064a\u0629 \u0627\u0644\u0639\u0632\u0629", "name:en": "Al-ezza"}}, {"type": "node", "id": 4505882592, "lat": 32.6082465, "lon": 44.0435126, "tags": {"amenity": "school", "name": "\u0645\u062f\u0631\u0633\u0629 \u0635\u0646\u0639\u0627\u0621 \u0627\u0644\u0627\u0628\u062a\u062f\u0627\u0626\u064a\u0629", "name:ar": "\u0627\u0628\u062a\u062f\u0627\u0626\u064a\u0629 \u0635\u0646\u0639\u0627\u0621", "name:en": "Sanna'a"}}, {"type": "node", "id": 4505882594, "lat": 32.609139, "lon": 44.038778, "tags": {"amenity": "school", "name": "\u0645\u062f\u0631\u0633\u0629 \u0627\u0644\u0631\u0641\u0639\u0629 \u0627\u0644\u0627\u0628\u062a\u062f\u0627\u0626\u064a\u0629", "name:ar": "\u0627\u0628\u062a\u062f\u0627\u0626\u064a\u0629 \u0627\u0644\u0631\u0641\u0639\u0629", "name:en": "Al-raffa'a"}}, {"type": "node", "id": 4505930691, "lat": 32.611472, "lon": 44.041278, "tags": {"amenity": "school", "name": "\u0627\u0628\u062a\u062f\u0627\u0626\u064a\u0629 \u0627\u0644\u0641\u0631\u0632\u062f\u0642", "name:ar": "\u0627\u0628\u062a\u062f\u0627\u0626\u064a\u0629 \u0627\u0644\u0641\u0631\u0632\u062f\u0642", "name:en": "Al-Farazdak"}}, {"type": "node", "id": 4510162692, "lat": 32.7795179, "lon": 44.2932272, "tags": {"amenity": "school", "name": "\u0645\u062f\u0631\u0633\u0629 \u0627\u0644\u0645\u062b\u0646\u0649 \u0627\u0644\u0627\u0628\u062a\u062f\u0627\u0626\u064a\u0629 \u0644\u0644\u0628\u0646\u064a\u0646", "name:ar": "\u0645\u062f\u0631\u0633\u0629 \u0627\u0644\u0645\u062b\u0646\u0649 \u0627\u0644\u0627\u0628\u062a\u062f\u0627\u0626\u064a\u0629 \u0644\u0644\u0628\u0646\u064a\u0646"}}, {"type": "node", "id": 4510208798, "lat": 32.7836517, "lon": 44.2791275, "tags": {"amenity": "school", "name": "\u0645\u062f\u0631\u0633\u0629 \u062e\u062f\u064a\u062c\u0629 ( \u0639 ) \u0627\u0644\u0627\u0628\u062a\u062f\u0627\u0626\u064a\u0629 \u0644\u0644\u0628\u0646\u0627\u062a", "name:ar": "\u0645\u062f\u0631\u0633\u0629 \u062e\u062f\u064a\u062c\u0629 ( \u0639 ) \u0627\u0644\u0627\u0628\u062a\u062f\u0627\u0626\u064a\u0629 \u0644\u0644\u0628\u0646\u0627\u062a"}}, {"type": "node", "id": 4510209191, "lat": 32.7833719, "lon": 44.2777521, "tags": {"amenity": "school", "name": "\u062b\u0627\u0646\u0648\u064a\u0629 \u0627\u0644\u0633\u062c\u0627\u062f ( \u0639 ) \u0644\u0644\u0628\u0646\u064a\u0646", "name:ar": "\u062b\u0627\u0646\u0648\u064a\u0629 \u0627\u0644\u0633\u062c\u0627\u062f ( \u0639 ) \u0644\u0644\u0628\u0646\u064a\u0646"}}, {"type": "node", "id": 4510245592, "lat": 32.7838858, "lon": 44.2796734, "tags": {"amenity": "school", "name": "\u062b\u0627\u0646\u0648\u064a\u0629 \u0639\u0634\u062a\u0627\u0631 \u0644\u0644\u0628\u0646\u0627\u062a", "name:ar": "\u062b\u0627\u0646\u0648\u064a\u0629 \u0639\u0634\u062a\u0627\u0631 \u0644\u0644\u0628\u0646\u0627\u062a"}}, {"type": "node", "id": 4510247392, "lat": 32.7832531, "lon": 44.2804797, "tags": {"amenity": "school", "name": "\u0645\u062f\u0631\u0633\u0629 \u0627\u0644\u062d\u0645\u062f\u0627\u0646\u064a\u0629 \u0627\u0644\u0627\u0628\u062a\u062f\u0627\u0626\u064a\u0629 \u0644\u0644\u0628\u0646\u064a\u0646", "name:ar": "\u0645\u062f\u0631\u0633\u0629 \u0627\u0644\u062d\u0645\u062f\u0627\u0646\u064a\u0629 \u0627\u0644\u0627\u0628\u062a\u062f\u0627\u0626\u064a\u0629 \u0644\u0644\u0628\u0646\u064a\u0646"}}, {"type": "node", "id": 4510293590, "lat": 32.7761835, "lon": 44.2858198, "tags": {"amenity": "school", "name": "\u0645\u062f\u0631\u0633\u0629 \u0627\u0644\u0645\u0633\u064a\u0628 \u0627\u0644\u0627\u0628\u062a\u062f\u0627\u0626\u064a\u0629 \u0644\u0644\u0628\u0646\u064a\u0646", "name:ar": "\u0645\u062f\u0631\u0633\u0629 \u0627\u0644\u0645\u0633\u064a\u0628 \u0627\u0644\u0627\u0628\u062a\u062f\u0627\u0626\u064a\u0629 \u0644\u0644\u0628\u0646\u064a\u0646"}}, {"type": "node", "id": 4510315589, "lat": 32.7758469, "lon": 44.2860543, "tags": {"amenity": "school", "name": "\u0645\u062f\u0631\u0633\u0629 \u0627\u0645\u0646\u0629 \u0628\u0646\u062a \u0648\u0647\u0628", "name:ar": "\u0645\u062f\u0631\u0633\u0629 \u0627\u0645\u0646\u0629 \u0628\u0646\u062a \u0648\u0647\u0628"}}, {"type": "node", "id": 4523126717, "lat": 32.765634, "lon": 44.2875643, "tags": {"amenity": "school", "name": "\u0645\u062f\u0631\u0633\u0629 \u0627\u0644\u0645\u0633\u062a\u0642\u0628\u0644 \u0627\u0644\u0627\u0647\u0644\u064a\u0647", "name:ar": "\u0645\u062f\u0631\u0633\u0629 \u0627\u0644\u0645\u0633\u062a\u0642\u0628\u0644 \u0627\u0644\u0627\u0647\u0644\u064a\u0647"}}, {"type": "node", "id": 4523129905, "lat": 32.7829414, "lon": 44.3864905, "tags": {"amenity": "school", "name": "\u0627\u0644\u0637\u0627\u0626\u0641", "name:ar": "\u0627\u0644\u0637\u0627\u0626\u0641"}}, {"type": "node", "id": 4536391493, "lat": 32.7624378, "lon": 44.2833311, "tags": {"amenity": "school", "name": "\u062b\u0627\u0646\u0648\u064a\u0629 \u0627\u0644\u0643\u0648\u062b\u0631 \u0644\u0644\u0628\u0646\u0627\u062a", "name:ar": "\u062b\u0627\u0646\u0648\u064a\u0629 \u0627\u0644\u0643\u0648\u062b\u0631 \u0644\u0644\u0628\u0646\u0627\u062a"}}, {"type": "node", "id": 4536391495, "lat": 32.7934138, "lon": 44.4051425, "tags": {"amenity": "school", "name": "\u0643\u0644\u064a\u0629 \u0627\u0644\u0645\u0633\u064a\u0628 \u0627\u0644\u062a\u0642\u0646\u064a\u0629", "name:ar": "\u0643\u0644\u064a\u0629 \u0627\u0644\u0645\u0633\u064a\u0628 \u0627\u0644\u062a\u0642\u0646\u064a\u0629"}}, {"type": "node", "id": 4536391496, "lat": 32.7709399, "lon": 44.408414, "tags": {"amenity": "school", "name": "\u0645\u062f\u0631\u0633\u0629 \u0646\u0635\u0631 \u0627\u0644\u0641\u064a\u0635\u0644", "name:ar": "\u0645\u062f\u0631\u0633\u0629 \u0646\u0635\u0631 \u0627\u0644\u0641\u064a\u0635\u0644"}}, {"type": "node", "id": 4536391500, "lat": 32.7746709, "lon": 44.2882948, "tags": {"amenity": "school", "name": "\u0627\u0639\u062f\u0627\u062f\u064a\u0629 \u062a\u062c\u0627\u0631\u0629 \u0627\u0644\u0645\u0633\u064a\u0628 \u0644\u0644\u0628\u0646\u0627\u062a", "name:ar": "\u0627\u0639\u062f\u0627\u062f\u064a\u0629 \u062a\u062c\u0627\u0631\u0629 \u0627\u0644\u0645\u0633\u064a\u0628 \u0644\u0644\u0628\u0646\u0627\u062a"}}, {"type": "node", "id": 4536401696, "lat": 32.7746991, "lon": 44.2884233, "tags": {"amenity": "school", "name": "\u0645\u062f\u0631\u0633\u0629 \u0627\u0644\u064a\u0645\u0646 \u0627\u0644\u0633\u0639\u064a\u062f \u0627\u0644\u0627\u0628\u062a\u062f\u0627\u0626\u064a\u0629 \u0644\u0644\u0628\u0646\u0627\u062a", "name:ar": "\u0645\u062f\u0631\u0633\u0629 \u0627\u0644\u064a\u0645\u0646 \u0627\u0644\u0633\u0639\u064a\u062f \u0627\u0644\u0627\u0628\u062a\u062f\u0627\u0626\u064a\u0629 \u0644\u0644\u0628\u0646\u0627\u062a"}}, {"type": "node", "id": 4536401794, "lat": 32.7765857, "lon": 44.2912503, "tags": {"amenity": "school", "name": "\u0645\u062f\u0631\u0633\u0629 \u0627\u0644\u062b\u0648\u0631\u0629 \u0627\u0644\u0627\u0628\u062a\u062f\u0627\u0626\u064a\u0629 \u0644\u0644\u0628\u0646\u064a\u0646", "name:ar": "\u0645\u062f\u0631\u0633\u0629 \u0627\u0644\u062b\u0648\u0631\u0629 \u0627\u0644\u0627\u0628\u062a\u062f\u0627\u0626\u064a\u0629 \u0644\u0644\u0628\u0646\u064a\u0646"}}, {"type": "node", "id": 4536401795, "lat": 32.7615802, "lon": 44.2868403, "tags": {"amenity": "school", "name": "\u0645\u0631\u0633\u0629 \u062d\u0637\u064a\u0646 \u0627\u0644\u0627\u0628\u062a\u062f\u0627\u0626\u064a\u0629", "name:ar": "\u0645\u0631\u0633\u0629 \u062d\u0637\u064a\u0646 \u0627\u0644\u0627\u0628\u062a\u062f\u0627\u0626\u064a\u0629"}}, {"type": "node", "id": 4536401894, "lat": 32.7882194, "lon": 44.3157518, "tags": {"amenity": "school", "name": "\u0645\u062f\u0631\u0633\u0629 \u0627\u0644\u0645\u062c\u062f \u0627\u0644\u0627\u0628\u062a\u062f\u0627\u0626\u064a\u0629", "name:ar": "\u0645\u062f\u0631\u0633\u0629 \u0627\u0644\u0645\u062c\u062f \u0627\u0644\u0627\u0628\u062a\u062f\u0627\u0626\u064a\u0629"}}, {"type": "node", "id": 4536450594, "lat": 32.7705214, "lon": 44.3394297, "tags": {"amenity": "school", "name": "\u0645\u062f\u0631\u0633\u0629 \u0627\u0644\u0627\u0645\u0627\u0645 \u0627\u0628\u0648 \u0627\u0644\u062c\u0627\u0633\u0645 (\u0639)", "name:ar": "\u0645\u062f\u0631\u0633\u0629 \u0627\u0644\u0627\u0645\u0627\u0645 \u0627\u0628\u0648 \u0627\u0644\u062c\u0627\u0633\u0645 (\u0639)"}}, {"type": "node", "id": 4536450595, "lat": 32.7845694, "lon": 44.3120231, "tags": {"amenity": "school", "name": "\u0645\u062f\u0631\u0633\u0629 \u0627\u0648\u0644\u0627\u062f \u0645\u0633\u0644\u0645", "name:ar": "\u0645\u062f\u0631\u0633\u0629 \u0627\u0648\u0644\u0627\u062f \u0645\u0633\u0644\u0645"}}, {"type": "node", "id": 4551256790, "lat": 32.7443304, "lon": 44.2753249, "tags": {"amenity": "school", "name": "\u0643\u0644\u064a\u0629 \u0627\u0644\u062d\u0644\u0629 \u0627\u0644\u062c\u0627\u0645\u0639\u0629", "name:ar": "\u0643\u0644\u064a\u0629 \u0627\u0644\u062d\u0644\u0629 \u0627\u0644\u062c\u0627\u0645\u0639\u0629"}}, {"type": "node", "id": 4551282090, "lat": 32.7928552, "lon": 44.2961246, "tags": {"amenity": "school", "name": "\u0635\u0646\u0627\u0639\u0629 \u0627\u0628\u0646 \u0627\u0644\u0647\u064a\u062b\u0645", "name:ar": "\u0635\u0646\u0627\u0639\u0629 \u0627\u0628\u0646 \u0627\u0644\u0647\u064a\u062b\u0645"}}, {"type": "node", "id": 4551619102, "lat": 32.7592429, "lon": 44.2900854, "tags": {"amenity": "school", "name": "\u0627\u0644\u0645\u0633\u062a\u0642\u0628\u0644 \u0627\u0644\u0627\u0628\u062a\u062f\u0627\u0626\u064a\u0647 \u0627\u0644\u0627\u0647\u0644\u064a\u0647", "name:ar": "\u0627\u0644\u0645\u0633\u062a\u0642\u0628\u0644 \u0627\u0644\u0627\u0628\u062a\u062f\u0627\u0626\u064a\u0647 \u0627\u0644\u0627\u0647\u0644\u064a\u0647"}}, {"type": "node", "id": 4582994593, "lat": 32.7937749, "lon": 44.2965169, "tags": {"amenity": "school", "name": "\u0627\u0639\u062f\u0627\u062f\u064a\u0629 \u0635\u0646\u0627\u0639\u0629 \u0627\u0628\u0646 \u0627\u0644\u0647\u064a\u062b\u0645 \u0627\u0644\u0645\u0647\u0646\u064a\u0629", "name:ar": "\u0627\u0639\u062f\u0627\u062f\u064a\u0629 \u0635\u0646\u0627\u0639\u0629 \u0627\u0628\u0646 \u0627\u0644\u0647\u064a\u062b\u0645 \u0627\u0644\u0645\u0647\u0646\u064a\u0629"}}, {"type": "node", "id": 4582994594, "lat": 32.7704609, "lon": 44.3393342, "tags": {"amenity": "school", "name": "\u0645\u062f\u0631\u0633\u0629 \u0627\u0644\u0627\u0645\u0627\u0645 \u0627\u0628\u0648 \u0627\u0644\u062c\u0627\u0633\u0645 (\u0639)", "name:ar": "\u0645\u062f\u0631\u0633\u0629 \u0627\u0644\u0627\u0645\u0627\u0645 \u0627\u0628\u0648 \u0627\u0644\u062c\u0627\u0633\u0645 (\u0639)"}}, {"type": "node", "id": 4636075894, "lat": 32.8719723, "lon": 44.2200047, "tags": {"amenity": "school", "name": "\u0645\u062f\u0631\u0633\u0629 \u0627\u0644\u0643\u0631\u0627\u0645\u0629", "name:ar": "\u0645\u062f\u0631\u0633\u0629 \u0627\u0644\u0643\u0631\u0627\u0645\u0629"}}, {"type": "node", "id": 4636076795, "lat": 32.7931238, "lon": 44.4040946, "tags": {"amenity": "school", "name": "\u0627\u0644\u0645\u0639\u0647\u062f \u0627\u0644\u0641\u0646\u064a \u0627\u0644\u0645\u0633\u064a\u0628", "name:ar": "\u0627\u0644\u0645\u0639\u0647\u062f \u0627\u0644\u0641\u0646\u064a \u0627\u0644\u0645\u0633\u064a\u0628"}}, {"type": "node", "id": 4694204596, "lat": 32.5893731, "lon": 44.0724111, "tags": {"amenity": "school", "name": "\u0627\u0628\u062a\u062f\u0627\u0626\u064a\u0629 \u0627\u0644\u0633\u064a\u062f\u0629 \u0631\u0642\u064a\u0647( \u0644\u0644\u0627\u064a\u062a\u0627\u0645)", "name:ar": "\u0627\u0628\u062a\u062f\u0627\u0626\u064a\u0629 \u0627\u0644\u0633\u064a\u062f\u0629 \u0631\u0642\u064a\u0647( \u0644\u0644\u0627\u064a\u062a\u0627\u0645)"}}, {"type": "node", "id": 4703926189, "lat": 32.6774206, "lon": 44.1651475, "tags": {"addr:street": "\u0627\u0644\u0639\u0637\u064a\u0634\u064a", "amenity": "school", "name": "\u062c\u0627\u0645\u0639\u0629 \u0643\u0631\u0628\u0644\u0627\u0621 \u0643\u0644\u064a\u0629 \u0627\u0644\u0647\u0646\u062f\u0633\u0629 \u0627\u0644\u0632\u0631\u0627\u0639\u064a\u0629", "name:ar": "\u062c\u0627\u0645\u0639\u0629 \u0643\u0631\u0628\u0644\u0627\u0621 \u0643\u0644\u064a\u0629 \u0627\u0644\u0647\u0646\u062f\u0633\u0629 \u0627\u0644\u0632\u0631\u0627\u0639\u064a\u0629", "opening_hours": "Su-Th 09:00-17:00"}}, {"type": "node", "id": 4728773598, "lat": 32.6693903, "lon": 44.1605309, "tags": {"amenity": "school", "name": "\u0645\u062f\u0631\u0633\u0629 \u0627\u0644\u063a\u0627\u0636\u0631\u064a\u0627\u062a \u0627\u0644\u0627\u0628\u062a\u062f\u0627\u0626\u064a\u0629 \u0644\u0644\u0628\u0646\u064a\u0646", "name:ar": "\u0645\u062f\u0631\u0633\u0629 \u0627\u0644\u063a\u0627\u0636\u0631\u064a\u0627\u062a \u0627\u0644\u0627\u0628\u062a\u062f\u0627\u0626\u064a\u0629 \u0644\u0644\u0628\u0646\u064a\u0646"}}, {"type": "node", "id": 4783166623, "lat": 32.7703774, "lon": 44.2898022, "tags": {"amenity": "school", "name": "\u0645\u062f\u0631\u0633\u0629 \u0645\u0648\u0637\u0646\u064a \u0627\u0644\u0627\u0628\u062a\u062f\u0627\u0626\u064a\u0629 \u0644\u0644\u0628\u0646\u064a\u0646", "name:ar": "\u0645\u062f\u0631\u0633\u0629 \u0645\u0648\u0637\u0646\u064a \u0627\u0644\u0627\u0628\u062a\u062f\u0627\u0626\u064a\u0629 \u0644\u0644\u0628\u0646\u064a\u0646"}}, {"type": "node", "id": 4783204921, "lat": 32.7685925, "lon": 44.2896853, "tags": {"amenity": "school", "name": "\u0645\u062f\u0631\u0633\u0629 \u0645\u0648\u0637\u0646\u064a \u0627\u0644\u0627\u0628\u062a\u062f\u0627\u0626\u064a\u0629 \u0644\u0644\u0628\u0646\u0627\u062a", "name:ar": "\u0645\u062f\u0631\u0633\u0629 \u0645\u0648\u0637\u0646\u064a \u0627\u0644\u0627\u0628\u062a\u062f\u0627\u0626\u064a\u0629 \u0644\u0644\u0628\u0646\u0627\u062a"}}, {"type": "node", "id": 4807670623, "lat": 32.771311, "lon": 44.4086509, "tags": {"amenity": "school", "name": "\u0645\u062f\u0631\u0633\u0629", "name:ar": "\u0645\u062f\u0631\u0633\u0629"}}, {"type": "node", "id": 5007519822, "lat": 32.698116, "lon": 44.144049, "tags": {"amenity": "school", "name": "\u062b\u0627\u0646\u0648\u064a\u0629 \u0627\u0644\u0628\u0633\u0627\u0637 \u0627\u0644\u0627\u062e\u0636\u0631 \u0644\u0644\u0628\u0646\u064a\u0646", "name:ar": "\u062b\u0627\u0646\u0648\u064a\u0629 \u0627\u0644\u0628\u0633\u0627\u0637 \u0627\u0644\u0627\u062e\u0636\u0631 \u0644\u0644\u0628\u0646\u064a\u0646"}}, {"type": "node", "id": 5205088421, "lat": 32.6231309, "lon": 44.039799, "tags": {"amenity": "school", "name": "\u0627\u0644\u0639\u0631\u0627\u0642 \u0627\u0635\u0645", "name:ar": "\u0627\u0644\u0639\u0631\u0627\u0642", "name:en": "Iraq"}}, {"type": "node", "id": 5482957627, "lat": 32.8160315, "lon": 44.2625972, "tags": {"amenity": "school", "name": "\u0645\u062f\u0631\u0633\u0629 \u0627\u0644\u064a\u0631\u0645\u0648\u0643 + \u062b\u0627\u0646\u0648\u064a\u0629 \u0627\u0644\u0645\u0635\u0637\u0641\u0649"}}, {"type": "node", "id": 5515173521, "lat": 32.8799595, "lon": 44.3831558, "tags": {"amenity": "school", "name": "\u0645\u062f\u0631\u0633\u0629 \u0627\u0644\u0642\u0631\u064a\u0629 \u0627\u0644\u0639\u0635\u0631\u064a\u0629"}}, {"type": "node", "id": 5546231424, "lat": 32.6719203, "lon": 44.5015824, "tags": {"addr:street": "\u0634\u0627\u0631\u0639 \u0627\u0644\u0645\u062d\u0643\u0645\u0629", "amenity": "school", "name": "\u0625\u0639\u062f\u0627\u062f\u064a\u0629 \u0627\u0644\u0641\u0627\u0648 \u0644\u0644\u0628\u0646\u0627\u062a", "opening_hours": "Su-Th 06:00-18:00"}}, {"type": "node", "id": 5546231425, "lat": 32.6684835, "lon": 44.5026068, "tags": {"addr:street": "\u0634\u0627\u0631\u0639 \u0627\u0644\u0633\u0648\u0642", "amenity": "school", "name": "\u062b\u0627\u0646\u0648\u064a\u0629 \u0627\u0644\u0625\u0645\u0627\u0645 \u0644\u0644\u0628\u0646\u064a\u0646", "opening_hours": "Su-Th 06:00-18:00"}}, {"type": "node", "id": 5546231426, "lat": 32.667751, "lon": 44.5019726, "tags": {"addr:street": "\u0634\u0627\u0631\u0639 \u0627\u0644\u062d\u064a", "amenity": "school", "name": "\u0625\u0628\u062a\u062f\u0627\u0626\u064a\u0629 \u0627\u0644\u0627\u0645\u0627\u0645 \u0644\u0644\u0628\u0646\u0627\u062a", "opening_hours": "Su-Th 06:00-18:00"}}, {"type": "node", "id": 5547365026, "lat": 32.6662668, "lon": 44.5071593, "tags": {"addr:street": "\u0637\u0631\u064a\u0642 \u0627\u0644\u0645\u062d\u0627\u0648\u064a\u0644", "amenity": "school", "name": "\u0625\u0628\u062a\u062f\u0627\u0626\u064a\u0629 \u0627\u0644\u0625\u0645\u0627\u0645 \u0644\u0644\u0628\u0646\u064a\u0646", "opening_hours": "Su-Th 06:00-18:00"}}, {"type": "node", "id": 5598952821, "lat": 32.874813, "lon": 44.3826694, "tags": {"amenity": "school", "name": "\u0645\u062f\u0631\u0633\u0629 \u0633\u0639\u062f \u0628\u0646 \u0623\u0628\u064a \u0648\u0642\u0627\u0635"}}, {"type": "node", "id": 5672441621, "lat": 32.6949882, "lon": 44.2675512, "tags": {"amenity": "school", "name": "\u062e\u0648\u0644\u0647 \u0628\u0646\u062a \u0627\u0644\u0627\u0632\u0648\u0631"}}, {"type": "node", "id": 5672441721, "lat": 32.6958553, "lon": 44.2644393, "tags": {"amenity": "school", "name": "\u0645\u062f\u0631\u0633\u0647 \u0627\u0644\u0645\u0634\u0627\u063a\u0628\u064a\u0646 \u0632"}}, {"type": "node", "id": 5964591586, "lat": 32.8844254, "lon": 44.3833864, "tags": {"amenity": "school", "name": "\u0645\u062f\u0631\u0633\u0629 \u0627\u0643\u062f\u0627\u0644\u0627\u0628\u062a\u062f\u0627\u0626\u064a\u0629 &\u0645\u062f\u0631\u0633\u0629 \u0646\u0628\u0648\u062e\u0630\u0646\u0635\u0631 \u0627\u0644\u0627\u0628\u062a\u062f\u0627\u0626\u064a\u0629 \u0644\u0644\u0628\u0646\u064a\u0646"}}, {"type": "node", "id": 6165389886, "lat": 32.6366817, "lon": 44.0411782, "tags": {"amenity": "school", "name": "\u0645\u062f\u0631\u0633\u0629 \u0633\u064a\u062f \u0627\u0644\u0645\u0627\u0621 \u0627\u0644\u0627\u0628\u062a\u062f\u0627\u0626\u064a\u0647"}}, {"type": "node", "id": 6255541985, "lat": 32.8843943, "lon": 44.5024947, "tags": {"amenity": "school", "name": "\u0645\u062f\u0631\u0633\u0629 \u062c\u0645\u0627\u0644 \u0639\u0628\u062f \u0627\u0644\u0646\u0627\u0635\u0631 \u0627\u0644\u0627\u0628\u062a\u062f\u0627\u0626\u064a\u0629"}}, {"type": "node", "id": 6441590459, "lat": 32.8214318, "lon": 44.3821728, "tags": {"amenity": "school", "name": "\u0645\u062f\u0631\u0633\u0629 \u0627\u0644\u0646\u0627\u0635\u0631\u0629", "name:en": "An Nasira School"}}, {"type": "node", "id": 6498318588, "lat": 32.7046232, "lon": 44.2821875, "tags": {"addr:street": "\u0637\u0631\u064a\u0642 \u0627\u0644\u0633\u062f\u0629", "amenity": "school", "name": "\u0645\u062f\u0631\u0633\u0647 \u0627\u0644\u062a\u0636\u062d\u064a\u0647 \u0627\u0644\u0627\u0628\u062a\u062f\u0627\u0626\u064a\u0647", "opening_hours": "Mo-Su 09:00-18:00"}}, {"type": "node", "id": 6581698385, "lat": 32.5818987, "lon": 44.0397236, "tags": {"amenity": "school", "name": "\u0645\u062f\u0631\u0633\u0629 \u0627\u0644\u0627\u0645\u0627\u0645 \u0627\u0644\u062d\u0633\u064a\u0646 \u0627\u0644\u062f\u064a\u0646\u064a\u0646\u0629 \u0627\u0644\u0646\u0633\u0648\u064a\u0629"}}, {"type": "node", "id": 6966465985, "lat": 32.6602077, "lon": 44.4075656, "tags": {"amenity": "school", "name": "\u0627\u0639\u062f\u0627\u062f\u064a\u0629 \u0627\u0644\u0645\u062d\u0627\u0648\u064a\u0644 \u0644\u0644\u0628\u0646\u064a\u0646"}}, {"type": "node", "id": 7230370385, "lat": 32.6402789, "lon": 44.0483141, "tags": {"amenity": "school", "name": "\u0645\u062f\u0631\u0633\u0629 \u0627\u0628\u0646\u0627\u0621", "name:ar": "\u062a\u062c\u0645\u0639 \u062c\u0628\u0646\u0627\u0621 \u062a\u0644\u0639\u0641\u0631 \u0641\u064a \u0643\u0631\u0628\u0644\u0627\u0621", "name:en": "\u062a\u062c\u0645\u0639 \u062c\u0628\u0646\u0627\u0621 \u062a\u0644\u0639\u0641\u0631 \u0641\u064a \u0643\u0631\u0628\u0644\u0627\u0621", "name:ku": "\u062a\u062c\u0645\u0639 \u062c\u0628\u0646\u0627\u0621 \u062a\u0644\u0639\u0641\u0631 \u0641\u064a \u0643\u0631\u0628\u0644\u0627\u0621"}}, {"type": "node", "id": 7425751445, "lat": 32.8945833, "lon": 44.3605954, "tags": {"amenity": "school"}}, {"type": "node", "id": 7425751446, "lat": 32.8951113, "lon": 44.3604993, "tags": {"alt_name": "\u0637\u0631\u064a\u0642 \u0628\u063a\u062f\u0627\u062f \u0627\u0644\u0642\u062f\u064a\u0645", "amenity": "school", "name": "\u0645\u062f\u0631\u0633\u0629 \u0627\u0644\u0645\u0633\u062a\u0646\u0635\u0631\u064a\u0629/\u0627\u0644\u0639\u0627\u0645\u0644"}}, {"type": "node", "id": 7816957186, "lat": 32.8899789, "lon": 44.3624341}, {"type": "node", "id": 7816957188, "lat": 32.8948164, "lon": 44.3601479}, {"type": "node", "id": 7816957189, "lat": 32.8943074, "lon": 44.360956}, {"type": "node", "id": 7816957190, "lat": 32.8949348, "lon": 44.3601647}, {"type": "node", "id": 7816957192, "lat": 32.8906187, "lon": 44.3634762}, {"type": "node", "id": 7816957195, "lat": 32.8943681, "lon": 44.3601034}, {"type": "node", "id": 7816957196, "lat": 32.8953125, "lon": 44.3610666}, {"type": "node", "id": 7816957197, "lat": 32.8906637, "lon": 44.3624907}, {"type": "node", "id": 7816957198, "lat": 32.8899042, "lon": 44.3633989}, {"type": "node", "id": 7816957200, "lat": 32.8947521, "lon": 44.3609942}, {"type": "node", "id": 7816957201, "lat": 32.8948676, "lon": 44.3610248}, {"type": "node", "id": 7816957202, "lat": 32.8953771, "lon": 44.3602007}, {"type": "node", "id": 7832206177, "lat": 32.8906501, "lon": 44.3627892}, {"type": "node", "id": 7832265095, "lat": 32.8906622, "lon": 44.3625237}, {"type": "node", "id": 7832387755, "lat": 32.890671, "lon": 44.3589195}, {"type": "node", "id": 7832387756, "lat": 32.8906669, "lon": 44.359173}, {"type": "node", "id": 7832387757, "lat": 32.8900183, "lon": 44.3588578}, {"type": "node", "id": 7832387758, "lat": 32.8900046, "lon": 44.3592248}, {"type": "node", "id": 7832387759, "lat": 32.8907771, "lon": 44.3579132}, {"type": "node", "id": 7832387760, "lat": 32.8904893, "lon": 44.3592514}, {"type": "node", "id": 7832387761, "lat": 32.8900922, "lon": 44.3578312}, {"type": "node", "id": 7832387762, "lat": 32.8904911, "lon": 44.3591743}, {"type": "node", "id": 7837905995, "lat": 32.8795433, "lon": 44.383436}, {"type": "node", "id": 7837905996, "lat": 32.8802031, "lon": 44.3827001}, {"type": "node", "id": 7837905997, "lat": 32.8800577, "lon": 44.3834229}, {"type": "node", "id": 7837905998, "lat": 32.8797752, "lon": 44.3828937}, {"type": "node", "id": 7837905999, "lat": 32.8801613, "lon": 44.3833141}, {"type": "node", "id": 7837906000, "lat": 32.8800399, "lon": 44.3827157}, {"type": "node", "id": 7837906001, "lat": 32.8801121, "lon": 44.3833879}, {"type": "node", "id": 7837906002, "lat": 32.879627, "lon": 44.3831544}, {"type": "node", "id": 7837906003, "lat": 32.880239, "lon": 44.3827301}, {"type": "node", "id": 7837906004, "lat": 32.8798661, "lon": 44.3828075}, {"type": "node", "id": 7837906005, "lat": 32.8801482, "lon": 44.3833501}, {"type": "node", "id": 7837906006, "lat": 32.8801873, "lon": 44.3827226}, {"type": "node", "id": 7837906007, "lat": 32.8800927, "lon": 44.3834015}, {"type": "node", "id": 7837906008, "lat": 32.8796962, "lon": 44.3829947}, {"type": "node", "id": 7837906009, "lat": 32.8801697, "lon": 44.3832666}, {"type": "node", "id": 7837906010, "lat": 32.879575, "lon": 44.3834878}, {"type": "node", "id": 7837906011, "lat": 32.8799529, "lon": 44.3827504}, {"type": "node", "id": 7837906012, "lat": 32.8801296, "lon": 44.3833735}, {"type": "node", "id": 7839831527, "lat": 32.8906473, "lon": 44.3628515}, {"type": "node", "id": 7839831528, "lat": 32.8904792, "lon": 44.3592509}, {"type": "node", "id": 7839831532, "lat": 32.8900636, "lon": 44.3588621}, {"type": "node", "id": 7839831533, "lat": 32.8907149, "lon": 44.3585028}, {"type": "node", "id": 7839831538, "lat": 32.8900431, "lon": 44.3592268}, {"type": "node", "id": 7839831539, "lat": 32.8906486, "lon": 44.3628215}, {"type": "node", "id": 7839831542, "lat": 32.8902197, "lon": 44.3578465}, {"type": "node", "id": 7839831543, "lat": 32.8906196, "lon": 44.3589146}, {"type": "node", "id": 7851270885, "lat": 32.8857845, "lon": 44.3866126, "tags": {"amenity": "school", "name": "\u0645\u062a\u0648\u0633\u0637\u0629 \u0627\u0644\u0639\u062f\u0644 \u0644\u0644\u0628\u0646\u064a\u0646/\u0627\u0639\u062f\u0627\u062f\u064a\u0629 \u0635\u0646\u0639\u0627\u0621 \u0644\u0644\u0628\u0646\u064a\u0646", "opening_hours": "Su-Th 08:00-17:00"}}, {"type": "node", "id": 7879757150, "lat": 32.8757844, "lon": 44.3580931}, {"type": "node", "id": 7879757151, "lat": 32.8761834, "lon": 44.3597243}, {"type": "node", "id": 7879757152, "lat": 32.8760799, "lon": 44.3580531}, {"type": "node", "id": 7879757153, "lat": 32.8758506, "lon": 44.359789}, {"type": "node", "id": 7895009340, "lat": 32.8875504, "lon": 44.3607452}, {"type": "node", "id": 7895009341, "lat": 32.887478, "lon": 44.3618811}, {"type": "node", "id": 7895009342, "lat": 32.886966, "lon": 44.3618301}, {"type": "node", "id": 7895009344, "lat": 32.8870442, "lon": 44.3607214}, {"type": "node", "id": 8210174017, "lat": 32.650692, "lon": 44.1098099, "tags": {"amenity": "school", "name": "\u0645\u062a\u0648\u0633\u0637\u0629\u0634\u0647\u064a\u062f \u0627\u0644\u0645\u062d\u0631\u0627\u0628 \u0648 \u0627\u0639\u062f\u0627\u062f\u064a\u0629 \u0627\u0644\u0641\u062a\u062d \u0644\u0644\u0628\u0646\u064a\u0646"}}, {"type": "node", "id": 8210174217, "lat": 32.6504122, "lon": 44.1089194, "tags": {"amenity": "school", "name": "\u0645\u062a\u0648\u0633\u0637\u0629 \u0648 \u0627\u0639\u062f\u0627\u062f\u064a\u0629 \u0644\u0644\u0628\u0646\u0627\u062a"}}, {"type": "node", "id": 8393216717, "lat": 32.8855648, "lon": 44.3867721, "tags": {"amenity": "school", "name": "\u0645\u0639\u0647\u062f \u0627\u0644\u0627\u0646\u0648\u0627\u0631 \u0644\u0644\u062a\u062f\u0631\u064a\u0633 \u0627\u0644\u062e\u0635\u0648\u0635\u064a"}}, {"type": "node", "id": 9896941417, "lat": 32.5893184, "lon": 44.0723972, "tags": {"addr:street": "\u0627\u0644\u0634\u0628\u0627\u0646\u0627\u062a", "amenity": "school", "name": "\u062b\u0627\u0646\u0648\u064a\u0629 \u0639\u0644\u064a \u0627\u0644\u0623\u0635\u063a\u0631 \u0639\u0644\u064a\u0647 \u0627\u0644\u0633\u0644\u0627\u0645 \u0644\u0644\u0623\u064a\u062a\u0627\u0645", "opening_hours": "Sa-Th 00:00-24:00"}}, {"type": "node", "id": 9936017164, "lat": 32.6046813, "lon": 44.0858892}, {"type": "node", "id": 9936017165, "lat": 32.6051583, "lon": 44.0859944}, {"type": "node", "id": 9936017166, "lat": 32.6050826, "lon": 44.0864786}, {"type": "node", "id": 9936017167, "lat": 32.6046055, "lon": 44.0863734}, {"type": "node", "id": 9936017168, "lat": 32.6049746, "lon": 44.0875227}, {"type": "node", "id": 9936017169, "lat": 32.6040952, "lon": 44.0873419}, {"type": "node", "id": 9936017170, "lat": 32.6039966, "lon": 44.0880172}, {"type": "node", "id": 9936017171, "lat": 32.6048761, "lon": 44.088198}, {"type": "node", "id": 9936017172, "lat": 32.6048481, "lon": 44.0883207}, {"type": "node", "id": 9936017173, "lat": 32.6039686, "lon": 44.0881399}, {"type": "node", "id": 9936017174, "lat": 32.6038701, "lon": 44.0888152}, {"type": "node", "id": 9936017175, "lat": 32.6047496, "lon": 44.088996}, {"type": "node", "id": 10607465905, "lat": 32.6699013, "lon": 44.4551275, "tags": {"addr:housenumber": "20211", "addr:postcode": "352", "addr:street": "\u0637\u0631\u064a\u0642 \u0639\u0645\u064a\u0647 \u0639\u0627\u0635\u064a", "amenity": "school", "email": "Altaee19.Ameer86@gmail.com", "name": "\u0645\u062f\u0631\u0633\u0647 \u0627\u0644\u0631\u0642\u064a\u0645 \u0627\u0644\u0645\u062e\u062a\u0644\u0637\u0629", "phone": "07133586087", "website": "http://Ameer.altaee906@gmail.com"}}, {"type": "node", "id": 10709337707, "lat": 32.884759, "lon": 44.395091, "tags": {"amenity": "school", "name": "\u0645\u0639\u0647\u062f \u062f\u0627\u0631 \u0627\u0644\u0639\u0644\u0645 \u0644\u0644\u062a\u062f\u0631\u064a\u0633 \u0627\u0644\u062e\u0635\u0648\u0635\u064a"}}, {"type": "node", "id": 10742011406, "lat": 32.7236058, "lon": 44.3087537, "tags": {"amenity": "school", "name": "\u0645\u062f\u0631\u0633\u0629 \u0627\u0644\u0633\u064a\u062f \u0627\u0628\u0631\u0627\u0647\u064a\u0645 \u0627\u0644\u0645\u062e\u062a\u0644\u0637\u0629"}}, {"type": "node", "id": 11103997979, "lat": 32.6045564, "lon": 44.0889563}, {"type": "node", "id": 11250693138, "lat": 32.6701485, "lon": 44.2385626, "tags": {"amenity": "school", "name": "\u0645\u062f\u0631\u0633\u0629 \u0633\u0627\u0645\u0631\u0627\u0621 \u0627\u0644\u0627\u0628\u062a\u062f\u0627\u0626\u064a\u0629 \u0627\u0644\u0645\u062e\u062a\u0644\u0637\u0629"}}, {"type": "node", "id": 11693978743, "lat": 32.648075, "lon": 44.0514798, "tags": {"amenity": "school", "name": "\u200f\u0645\u0639\u0647\u062f \u0646\u0648\u0631 \u0627\u0644\u0625\u0645\u0627\u0645 \u0627\u0644\u062d\u0633\u064a\u0646 \u0644\u0644\u0645\u0643\u0641\u0648\u0641\u064a\u0646 \u0648\u0636\u0639\u0627\u0641 \u0627\u0644\u0628\u0635\u0631"}}, {"type": "way", "id": 837540479, "nodes": [7816957188, 7816957200, 7816957189, 7816957195, 7816957188], "tags": {"amenity": "school"}}, {"type": "way", "id": 837540481, "nodes": [7816957201, 7816957196, 7816957202, 7816957190, 7816957201], "tags": {"amenity": "school"}}, {"type": "way", "id": 837540482, "nodes": [7816957197, 7832265095, 7832206177, 7839831539, 7839831527, 7816957192, 7816957198, 7816957186, 7816957197], "tags": {"amenity": "school"}}, {"type": "way", "id": 839330214, "nodes": [7832387755, 7832387757, 7832387758, 7839831538, 7839831528, 7832387760, 7832387762, 7832387756, 7832387755], "tags": {"amenity": "school"}}, {"type": "way", "id": 839330215, "nodes": [7832387755, 7839831533, 7832387759, 7839831542, 7832387761, 7832387757, 7839831532, 7839831543, 7832387755], "tags": {"amenity": "school"}}, {"type": "way", "id": 839931224, "nodes": [7837906010, 7837905997, 7837906007, 7837906001, 7837906012, 7837906005, 7837905999, 7837906009, 7837906003, 7837905996, 7837906006, 7837906000, 7837906011, 7837906004, 7837905998, 7837906008, 7837906002, 7837905995, 7837906010], "tags": {"amenity": "school"}}, {"type": "way", "id": 844634373, "nodes": [7879757153, 7879757150, 7879757152, 7879757151, 7879757153], "tags": {"amenity": "school"}}, {"type": "way", "id": 846214892, "nodes": [7895009344, 7895009342, 7895009341, 7895009340, 7895009344], "tags": {"amenity": "school"}}, {"type": "way", "id": 1084287503, "nodes": [9936017167, 9936017166, 9936017165, 9936017164, 9936017167], "tags": {"amenity": "school"}}, {"type": "way", "id": 1084287504, "nodes": [9936017171, 9936017170, 9936017169, 9936017168, 9936017171], "tags": {"amenity": "school"}}, {"type": "way", "id": 1084287505, "nodes": [9936017175, 11103997979, 9936017174, 9936017173, 9936017172, 9936017175], "tags": {"amenity": "school", "name": "\u0627\u0644\u0628\u064a\u0627\u0646", "name:ar": "\u0627\u0644\u0628\u064a\u0627\u0646", "name:en": "Albian"}}]}