{"version": 0.6, "generator": "Overpass API 0.7.61.5 4133829e", "osm3s": {"timestamp_osm_base": "2024-03-06T11:01:15Z", "copyright": "The data included in this document is from www.openstreetmap.org. The data is made available under ODbL."}, "elements": [{"type": "node", "id": 11286235076, "lat": -3.1638257, "lon": 39.8643982, "tags": {"amenity": "school", "capacity": "800", "evacuation_center": "no", "flood_prone": "no", "isced:level": "1", "name": "Kakoneni primary school", "operator:type": "public", "phone": "+254 729 329 766", "source": "KRCS2023", "storage_area": "no"}}, {"type": "node", "id": 11286235078, "lat": -3.14356, "lon": 39.721461, "tags": {"amenity": "school", "capacity": "360", "evacuation_center": "no", "flood_prone": "no", "isced:level": "3", "name": "Mkondoni secondary school", "operator:type": "public", "phone": "+254 715 881 893", "source": "KRCS2023", "storage_area": "no"}}, {"type": "node", "id": 11286235080, "lat": -3.1591441, "lon": 40.0977397, "tags": {"amenity": "school", "capacity": "48", "evacuation_center": "no", "flood_prone": "no", "isced:level": "0", "name": "Maboromokoni Pre Primary School", "operator:type": "public", "phone": "+254 728 859 993", "source": "KRCS2023", "storage_area": "yes"}}, {"type": "node", "id": 11286235082, "lat": -3.1598265, "lon": 40.113148, "tags": {"amenity": "school", "capacity": "145", "evacuation_center": "no", "flood_prone": "no", "isced:level": "3", "name": "Dirham High School", "operator:type": "private", "phone": "+254 719 497 240", "source": "KRCS2023", "storage_area": "yes"}}, {"type": "node", "id": 11286235086, "lat": -3.1406405, "lon": 39.7789495, "tags": {"amenity": "school", "capacity": "154", "evacuation_center": "no", "flood_prone": "no", "isced:level": "0", "name": "Flora Pre primary", "operator:type": "public", "phone": "+254 721 580 065", "source": "KRCS2023", "storage_area": "yes"}}, {"type": "node", "id": 11286235087, "lat": -3.1411275, "lon": 39.7218749, "tags": {"amenity": "school", "capacity": "600", "evacuation_center": "no", "flood_prone": "no", "isced:level": "1", "name": "Mkondoni primary school", "operator:type": "public", "phone": "+254 705 510 403", "source": "KRCS2023", "storage_area": "yes"}}, {"type": "node", "id": 11286235090, "lat": -3.1452406, "lon": 39.7493061, "tags": {"amenity": "school", "capacity": "70", "evacuation_center": "no", "flood_prone": "no", "isced:level": "0", "name": "Khombeni primary", "operator:type": "public", "phone": "+254 706 975 349", "source": "KRCS2023", "storage_area": "yes"}}, {"type": "node", "id": 11286235091, "lat": -3.1067681, "lon": 39.8495098, "tags": {"amenity": "school", "capacity": "300", "evacuation_center": "no", "flood_prone": "no", "isced:level": "1", "name": "Bungale primary school", "operator:type": "public", "phone": "+254 725 322 083", "source": "KRCS2023", "storage_area": "no"}}, {"type": "node", "id": 11286235092, "lat": -3.1653075, "lon": 39.8672957, "tags": {"amenity": "school", "capacity": "700", "evacuation_center": "no", "flood_prone": "no", "isced:level": "3", "name": "Kakoneni girls secondary school", "operator:type": "public", "phone": "+254 722 783 845", "source": "KRCS2023", "storage_area": "yes"}}, {"type": "node", "id": 11286235095, "lat": -3.0890266, "lon": 39.8248477, "tags": {"amenity": "school", "capacity": "13", "evacuation_center": "no", "flood_prone": "yes", "isced:level": "2", "name": "Gandini", "operator:type": "public", "phone": "+254 725 433 085", "source": "KRCS2023", "storage_area": "no"}}, {"type": "node", "id": 11286235098, "lat": -3.1229457, "lon": 39.8552921, "tags": {"amenity": "school", "capacity": "100", "evacuation_center": "yes", "flood_prone": "no", "isced:level": "2", "name": "Singwaya junior secondary", "operator:type": "public", "phone": "+254 717 418 281", "source": "KRCS2023", "storage_area": "yes"}}, {"type": "node", "id": 11286235099, "lat": -3.137497, "lon": 39.8995311, "tags": {"amenity": "school", "capacity": "60", "evacuation_center": "no", "flood_prone": "yes", "isced:level": "2", "name": "Tumaini zhongwani (junior secondary)", "operator:type": "private", "phone": "+254 720 839 248", "source": "KRCS2023", "storage_area": "yes"}}, {"type": "node", "id": 11286235100, "lat": -3.1609627, "lon": 39.9678196, "tags": {"amenity": "school", "capacity": "500", "evacuation_center": "yes", "flood_prone": "no", "isced:level": "1", "name": "Dhololo primary", "operator:type": "public", "phone": "+254 728 879 350", "source": "KRCS2023", "storage_area": "yes"}}, {"type": "node", "id": 11286235101, "lat": -3.1300197, "lon": 39.7935909, "tags": {"amenity": "school", "capacity": "40", "evacuation_center": "no", "flood_prone": "no", "isced:level": "1", "name": "Mambosasa primary", "operator:type": "public", "phone": "+254 704 863 033", "source": "KRCS2023", "storage_area": "yes"}}, {"type": "node", "id": 11286235114, "lat": -3.1637386, "lon": 39.8642263, "tags": {"amenity": "school", "capacity": "180", "evacuation_center": "no", "flood_prone": "no", "isced:level": "2", "name": "Kakoneni junior secondary", "operator:type": "public", "phone": "+254 729 329 766", "source": "KRCS2023", "storage_area": "no"}}, {"type": "node", "id": 11286235116, "lat": -3.1354612, "lon": 39.7799521, "tags": {"amenity": "school", "capacity": "105", "evacuation_center": "no", "flood_prone": "no", "isced:level": "0", "name": "St Mary Help Of Christians Catholic school (pre-primary)", "operator:type": "private", "phone": "+254 707 016 412", "source": "KRCS2023", "storage_area": "no"}}, {"type": "node", "id": 11286235118, "lat": -3.161117, "lon": 40.0995416, "tags": {"amenity": "school", "capacity": "45", "evacuation_center": "yes", "flood_prone": "no", "isced:level": "0", "name": "Maboromokoni Junior School", "operator:type": "private", "phone": "+254 706 533 292", "source": "KRCS2023", "storage_area": "no"}}, {"type": "node", "id": 11286235121, "lat": -3.1542611, "lon": 40.122712, "tags": {"amenity": "school", "capacity": "205", "evacuation_center": "no", "flood_prone": "no", "isced:level": "1", "name": "Harmony Almona Junior Academy (primary)", "operator:type": "private", "phone": "+254 720 696 080", "source": "KRCS2023", "storage_area": "no"}}, {"type": "node", "id": 11286235122, "lat": -3.1428744, "lon": 39.7795954, "tags": {"amenity": "school", "capacity": "508", "evacuation_center": "no", "flood_prone": "no", "isced:level": "1", "name": "Maki Langobaya", "operator:type": "public", "phone": "+254 721 580 065", "source": "KRCS2023", "storage_area": "yes"}}, {"type": "node", "id": 11286235125, "lat": -3.1596469, "lon": 40.1135146, "tags": {"amenity": "school", "capacity": "197", "evacuation_center": "no", "flood_prone": "yes", "isced:level": "1", "name": "ACK ST. CLEMENT EDUCATION CENTER", "operator:type": "private", "phone": "+254 720 708 711", "source": "KRCS2023", "storage_area": "yes"}}, {"type": "node", "id": 11286235127, "lat": -3.141018, "lon": 39.7223068, "tags": {"amenity": "school", "capacity": "53", "evacuation_center": "no", "flood_prone": "no", "isced:level": "2", "name": "Mkondoni Junior Secondary", "operator:type": "public", "phone": "+254 705 510 403", "source": "KRCS2023", "storage_area": "yes"}}, {"type": "node", "id": 11286235130, "lat": -3.1451202, "lon": 39.7480348, "tags": {"amenity": "school", "capacity": "386", "evacuation_center": "no", "flood_prone": "no", "isced:level": "1", "name": "KOMBENI PRIMARY", "operator:type": "public", "phone": "+254 706 975 349", "source": "KRCS2023", "storage_area": "yes"}}, {"type": "node", "id": 11286235131, "lat": -3.1067751, "lon": 39.849858, "tags": {"amenity": "school", "capacity": "40", "evacuation_center": "no", "flood_prone": "no", "isced:level": "2", "name": "Bungale junior secondary", "operator:type": "public", "source": "KRCS2023", "storage_area": "no"}}, {"type": "node", "id": 11286235134, "lat": -3.1028904, "lon": 39.7834766, "tags": {"amenity": "school", "capacity": "800", "evacuation_center": "no", "flood_prone": "no", "isced:level": "1", "name": "Baricho primary school", "operator:type": "public", "phone": "+254 717 670 413", "source": "KRCS2023", "storage_area": "yes"}}, {"type": "node", "id": 11286235135, "lat": -3.1292124, "lon": 39.9331109, "tags": {"amenity": "school", "capacity": "300", "evacuation_center": "yes", "flood_prone": "no", "isced:level": "3", "name": "Dagamra Seconday", "operator:type": "public", "phone": "+254 723 677 433", "source": "KRCS2023", "storage_area": "yes"}}, {"type": "node", "id": 11286235138, "lat": -3.1218221, "lon": 39.8890333, "tags": {"amenity": "school", "capacity": "400", "evacuation_center": "yes", "flood_prone": "no", "isced:level": "3", "name": "Garashi Secondary school", "operator:type": "public", "phone": "+254 721 614 791", "source": "KRCS2023", "storage_area": "yes"}}, {"type": "node", "id": 11286235145, "lat": -3.1310602, "lon": 39.9861388, "tags": {"amenity": "school", "capacity": "600", "evacuation_center": "no", "flood_prone": "no", "isced:level": "1", "name": "Karimboni primary", "operator:type": "public", "phone": "+254 732 935 076", "source": "KRCS2023", "storage_area": "no"}}, {"type": "node", "id": 11286235155, "lat": -3.1605684, "lon": 40.1123074, "tags": {"amenity": "school", "capacity": "20", "evacuation_center": "no", "flood_prone": "no", "isced:level": "2", "name": "ACK ST. Clement Education Centre", "operator:type": "private", "phone": "+254 720 708 711", "source": "KRCS2023", "storage_area": "yes"}}, {"type": "node", "id": 11286235159, "lat": -3.1431185, "lon": 39.7800413, "tags": {"amenity": "school", "capacity": "89", "evacuation_center": "no", "flood_prone": "no", "isced:level": "2", "name": "Majilangobaya Junior secondary", "operator:type": "public", "phone": "+254 721 580 065", "source": "KRCS2023", "storage_area": "yes"}}, {"type": "node", "id": 11286235162, "lat": -3.1543139, "lon": 40.1228081, "tags": {"amenity": "school", "capacity": "10", "evacuation_center": "no", "flood_prone": "yes", "isced:level": "2", "name": "ALMONA HARMONY JUNIOR ACADEMY (junior-secondary)", "operator:type": "private", "phone": "+254 720 696 080", "source": "KRCS2023", "storage_area": "no"}}, {"type": "node", "id": 11286235164, "lat": -3.1405685, "lon": 39.7220113, "tags": {"amenity": "school", "capacity": "95", "evacuation_center": "no", "flood_prone": "no", "isced:level": "0", "name": "Mkondoni Pre primary", "operator:type": "public", "phone": "+254 705 510 403", "source": "KRCS2023", "storage_area": "no"}}, {"type": "node", "id": 11286237669, "lat": -3.1451944, "lon": 39.748066, "tags": {"amenity": "school", "capacity": "49", "evacuation_center": "no", "flood_prone": "no", "isced:level": "2", "name": "Khombeni Junior secondary", "operator:type": "public", "phone": "+254 706 975 349", "source": "KRCS2023", "storage_area": "yes"}}, {"type": "node", "id": 11286237670, "lat": -3.102635, "lon": 39.7836452, "tags": {"amenity": "school", "capacity": "100", "evacuation_center": "yes", "flood_prone": "no", "isced:level": "2", "name": "Baricho junior secondary school", "operator:type": "public", "phone": "+254 717 870 43", "source": "KRCS2023", "storage_area": "yes"}}, {"type": "node", "id": 11286237671, "lat": -3.1561622, "lon": 39.893894, "tags": {"amenity": "school", "capacity": "200", "evacuation_center": "no", "flood_prone": "yes", "isced:level": "1", "name": "Mikuyuni primary", "operator:type": "public", "phone": "+254 726 079 625", "source": "KRCS2023", "storage_area": "yes"}}, {"type": "node", "id": 11286237672, "lat": -3.1453073, "lon": 39.8226159, "tags": {"amenity": "school", "capacity": "65", "evacuation_center": "no", "flood_prone": "no", "isced:level": "0", "name": "Marikano Pre primary", "operator:type": "public", "phone": "+254 728 765 594", "source": "KRCS2023", "storage_area": "yes"}}, {"type": "node", "id": 11286237673, "lat": -3.0892807, "lon": 39.8251683, "tags": {"amenity": "school", "capacity": "300", "evacuation_center": "no", "flood_prone": "no", "isced:level": "1", "name": "Gandini primary school", "operator:type": "public", "phone": "+254 725 433 085", "source": "KRCS2023", "storage_area": "no"}}, {"type": "node", "id": 11286237674, "lat": -3.1374007, "lon": 39.8993304, "tags": {"amenity": "school", "capacity": "400", "evacuation_center": "no", "flood_prone": "yes", "isced:level": "1", "name": "Tumaini zhongwani (primary)", "operator:type": "public", "phone": "+254 720 839 248", "source": "KRCS2023", "storage_area": "no"}}, {"type": "node", "id": 11286237676, "lat": -3.1360428, "lon": 39.9187269, "tags": {"amenity": "school", "capacity": "120", "evacuation_center": "yes", "flood_prone": "no", "isced:level": "2", "name": "Kaya Dagamra Junior Secondary School", "operator:type": "public", "phone": "+254 701 668 738", "source": "KRCS2023", "storage_area": "yes"}}, {"type": "node", "id": 11286237677, "lat": -3.1321844, "lon": 39.8911852, "tags": {"amenity": "school", "capacity": "600", "evacuation_center": "yes", "flood_prone": "no", "isced:level": "1", "name": "Garashi primary school", "operator:type": "public", "phone": "+254 711 289 865", "source": "KRCS2023", "storage_area": "no"}}, {"type": "node", "id": 11286237679, "lat": -3.1318228, "lon": 39.8915802, "tags": {"amenity": "school", "capacity": "100", "evacuation_center": "yes", "flood_prone": "no", "isced:level": "2", "name": "Garashi junior school", "operator:type": "public", "phone": "+254 711 289 865", "source": "KRCS2023", "storage_area": "no"}}, {"type": "node", "id": 11286237685, "lat": -3.1563657, "lon": 39.7764625, "tags": {"amenity": "school", "capacity": "105", "evacuation_center": "no", "flood_prone": "no", "isced:level": "1", "name": "Lionesses primary", "operator:type": "private", "phone": "+254 798 615 115", "source": "KRCS2023", "storage_area": "yes"}}, {"type": "node", "id": 11286237686, "lat": -3.1668358, "lon": 40.0509278, "tags": {"amenity": "school", "capacity": "150", "evacuation_center": "no", "flood_prone": "yes", "isced:level": "1", "name": "Kisiwani ADC Nursery School", "operator:type": "public", "phone": "+254 713 348 999", "source": "KRCS2023", "storage_area": "yes"}}, {"type": "node", "id": 11286237687, "lat": -3.1405494, "lon": 39.7789587, "tags": {"amenity": "school", "capacity": "250", "evacuation_center": "no", "flood_prone": "no", "isced:level": "0", "name": "Flora nursery school", "operator:type": "public", "source": "KRCS2023", "storage_area": "no"}}, {"type": "node", "id": 11286237693, "lat": -3.1353824, "lon": 39.7797055, "tags": {"amenity": "school", "capacity": "245", "evacuation_center": "no", "flood_prone": "no", "isced:level": "1", "name": "St Mary Help Of Christians Catholic school (primary)", "operator:type": "private", "phone": "+254 707 016 412", "source": "KRCS2023", "storage_area": "no"}}, {"type": "node", "id": 11286237698, "lat": -3.157138, "lon": 40.1225511, "tags": {"amenity": "school", "capacity": "64", "evacuation_center": "no", "flood_prone": "no", "isced:level": "0", "name": "Moi ECD Center", "operator:type": "public", "phone": "+254 718 786 710", "source": "KRCS2023", "storage_area": "yes"}}, {"type": "node", "id": 11286237699, "lat": -3.1443122, "lon": 39.780388, "tags": {"amenity": "school", "capacity": "700", "evacuation_center": "no", "flood_prone": "no", "isced:level": "3", "name": "Langobaya secondary school", "operator:type": "public", "phone": "+254 723 802 022", "source": "KRCS2023", "storage_area": "yes"}}, {"type": "node", "id": 11286237709, "lat": -3.1452603, "lon": 39.8231843, "tags": {"amenity": "school", "capacity": "324", "evacuation_center": "no", "flood_prone": "no", "isced:level": "1", "name": "Marikano primary", "operator:type": "public", "phone": "+254 728 765 594", "source": "KRCS2023", "storage_area": "yes"}}, {"type": "node", "id": 11286237714, "lat": -3.1332296, "lon": 39.8914838, "tags": {"amenity": "school", "capacity": "120", "evacuation_center": "no", "flood_prone": "yes", "isced:level": "1", "name": "Garashi pendeza accademy", "operator:type": "private", "phone": "+254 757 431 239", "source": "KRCS2023", "storage_area": "yes"}}, {"type": "node", "id": 11286237716, "lat": -3.1553437, "lon": 39.8940385, "tags": {"amenity": "school", "capacity": "40", "evacuation_center": "no", "flood_prone": "yes", "isced:level": "0", "name": "Mikuyuni", "operator:type": "public", "phone": "+254 726 079 625", "source": "KRCS2023", "storage_area": "yes"}}, {"type": "node", "id": 11286237719, "lat": -3.156227, "lon": 39.7769627, "tags": {"amenity": "school", "capacity": "15", "evacuation_center": "no", "flood_prone": "no", "isced:level": "2", "name": "Lionesses Junior secondary", "operator:type": "private", "phone": "+254 798 615 115", "source": "KRCS2023", "storage_area": "yes"}}, {"type": "node", "id": 11286237727, "lat": -3.1308956, "lon": 39.9858933, "tags": {"amenity": "school", "capacity": "100", "evacuation_center": "no", "flood_prone": "no", "isced:level": "2", "name": "Karimboni junior secondary school", "operator:type": "public", "phone": "+254 732 935 076", "source": "KRCS2023", "storage_area": "no"}}, {"type": "node", "id": 11286237730, "lat": -3.1357707, "lon": 39.7797878, "tags": {"amenity": "school", "capacity": "35", "evacuation_center": "no", "flood_prone": "no", "isced:level": "2", "name": "St Mary Help of catholic school (junior secondary)", "operator:type": "private", "phone": "+254 707 016 412", "source": "KRCS2023", "storage_area": "no"}}, {"type": "node", "id": 11286237731, "lat": -3.16605, "lon": 39.8640658, "tags": {"amenity": "school", "capacity": "100", "evacuation_center": "no", "flood_prone": "no", "isced:level": "0", "name": "Kakoneni pre-primary school", "operator:type": "public", "phone": "+254 729 329 766", "source": "KRCS2023", "storage_area": "no"}}, {"type": "node", "id": 11286237734, "lat": -3.1640273, "lon": 39.8638956, "tags": {"amenity": "school", "capacity": "20", "evacuation_center": "no", "flood_prone": "no", "isced:level": "1", "name": "Kakoneni Special School", "operator:type": "public", "phone": "+254 729 329 766", "source": "KRCS2023", "storage_area": "no"}}, {"type": "node", "id": 11286237735, "lat": -3.1577895, "lon": 40.1072729, "tags": {"amenity": "school", "capacity": "71", "evacuation_center": "no", "flood_prone": "yes", "isced:level": "0", "name": "Mwangaza Bring life Academy", "operator:type": "private", "phone": "+254 721 852 829", "source": "KRCS2023", "storage_area": "no"}}, {"type": "node", "id": 11286237745, "lat": -3.1454009, "lon": 39.823032, "tags": {"amenity": "school", "capacity": "43", "evacuation_center": "no", "flood_prone": "no", "isced:level": "2", "name": "Marikano junior secondary", "operator:type": "public", "phone": "+254 728 765 594", "source": "KRCS2023", "storage_area": "yes"}}, {"type": "node", "id": 11286237746, "lat": -3.1469808, "lon": 39.8790331, "tags": {"amenity": "school", "capacity": "46", "evacuation_center": "no", "flood_prone": "yes", "isced:level": "2", "name": "Masindeni junior secondary school", "operator:type": "public", "phone": "+254 729 664 848", "source": "KRCS2023", "storage_area": "yes"}}, {"type": "node", "id": 11286237749, "lat": -3.1468737, "lon": 39.879644, "tags": {"amenity": "school", "capacity": "300", "evacuation_center": "no", "flood_prone": "yes", "isced:level": "1", "name": "Masindeni Primary school", "operator:type": "public", "phone": "+254 729 664 848", "source": "KRCS2023", "storage_area": "yes"}}, {"type": "node", "id": 11286237750, "lat": -3.1366331, "lon": 39.9186027, "tags": {"amenity": "school", "capacity": "800", "evacuation_center": "yes", "flood_prone": "no", "isced:level": "1", "name": "Kaya Dagamra pimary", "operator:type": "public", "phone": "+254 701 668 738", "source": "KRCS2023", "storage_area": "yes"}}, {"type": "node", "id": 11286237752, "lat": -3.1234756, "lon": 39.8552242, "tags": {"amenity": "school", "capacity": "800", "evacuation_center": "yes", "flood_prone": "no", "isced:level": "1", "name": "Singwaya primary", "operator:type": "public", "phone": "+254 721 714 030", "source": "KRCS2023", "storage_area": "yes"}}]}