{"version": 0.6, "generator": "Overpass API 0.7.61.5 4133829e", "osm3s": {"timestamp_osm_base": "2024-03-06T11:02:15Z", "copyright": "The data included in this document is from www.openstreetmap.org. The data is made available under ODbL."}, "elements": [{"type": "node", "id": 4532130292, "lat": 32.4775698, "lon": 44.4099516, "tags": {"amenity": "atm", "opening_hours": "24/7", "operator": "\u0634\u0631\u0643\u0629 \u0643\u0644\u0627\u0644\u0647"}}, {"type": "node", "id": 4704788889, "lat": 32.4916834, "lon": 44.4395871, "tags": {"amenity": "atm", "opening_hours": "Sa-Th 09:00-13:00, 14:00-18:00", "operator": "\u0634\u0631\u0643\u0629 \u0627\u0644\u0648\u0631\u062f\u064a\u0629 \u0644\u0644\u0627\u0633\u062a\u062b\u0645\u0627\u0631\u0627\u062a \u0627\u0644\u0639\u0642\u0627\u0631\u064a\u0629"}}, {"type": "node", "id": 5314574821, "lat": 32.4853173, "lon": 44.4263175, "tags": {"amenity": "atm", "opening_hours": "24/7", "operator": "\u0645\u0643\u062a\u0628 \u0627\u0644\u0639\u0631\u0628\u064a"}}, {"type": "node", "id": 6123945887, "lat": 32.4403913, "lon": 44.4039621, "tags": {"amenity": "atm"}}, {"type": "node", "id": 6360833985, "lat": 32.4881827, "lon": 44.4350518, "tags": {"amenity": "atm"}}, {"type": "node", "id": 6360834285, "lat": 32.4881125, "lon": 44.4350148, "tags": {"amenity": "atm", "operator": "\u0645\u0627\u0643\u0646\u0629 \u0635\u0631\u0627\u0641 \u0627\u0644\u064a"}}, {"type": "node", "id": 6749398456, "lat": 32.495728, "lon": 44.4251907, "tags": {"amenity": "atm", "opening_hours": "Mo-Su 09:00-18:00", "operator": "\u0645\u0635\u0631\u0641 \u0627\u0644\u0627\u0642\u062a\u0635\u0627\u062f\u064a \u0644\u0644\u062a\u0646\u0645\u064a\u0647"}}, {"type": "node", "id": 9384284160, "lat": 32.4658006, "lon": 44.4098001, "tags": {"addr:full": "ATM-HILLA-EDC-HILLA R", "amenity": "atm", "atm": "yes", "cash_out": "yes", "currency:IQD": "yes", "language:ar": "yes", "language:en": "yes", "name": "\u0635\u0631\u0627\u0641 \u0622\u0644\u064a - \u0627\u0644\u0645\u0635\u0631\u0641 \u0627\u0644\u0639\u0631\u0627\u0642\u064a \u0644\u0644\u062a\u062c\u0627\u0631\u0629", "name:en": "TBI ATM", "operator": "Trade Bank of Iraq", "website": "https://tbi.com.iq/"}}, {"type": "node", "id": 9384316667, "lat": 32.3941027, "lon": 44.394452, "tags": {"addr:full": "ATM - HILLA - BABYLON COLLEGE", "amenity": "atm", "atm": "yes", "cash_out": "yes", "currency:IQD": "yes", "language:ar": "yes", "language:en": "yes", "name": "\u0635\u0631\u0627\u0641 \u0622\u0644\u064a - \u0627\u0644\u0645\u0635\u0631\u0641 \u0627\u0644\u0639\u0631\u0627\u0642\u064a \u0644\u0644\u062a\u062c\u0627\u0631\u0629", "name:en": "TBI ATM", "operator": "Trade Bank of Iraq", "website": "https://tbi.com.iq/"}}, {"type": "node", "id": 9384316687, "lat": 32.486311, "lon": 44.438516, "tags": {"addr:full": "ATM - Hilla -\u00a0Federal Board of Supreme Audit", "amenity": "atm", "atm": "yes", "cash_out": "yes", "currency:IQD": "yes", "language:ar": "yes", "language:en": "yes", "name": "\u0635\u0631\u0627\u0641 \u0622\u0644\u064a - \u0627\u0644\u0645\u0635\u0631\u0641 \u0627\u0644\u0639\u0631\u0627\u0642\u064a \u0644\u0644\u062a\u062c\u0627\u0631\u0629", "name:en": "TBI ATM", "operator": "Trade Bank of Iraq", "website": "https://tbi.com.iq/"}}, {"type": "node", "id": 9384316688, "lat": 32.465826, "lon": 44.4097317, "tags": {"addr:full": "ATM - Hilla - Security Advisory", "amenity": "atm", "atm": "yes", "cash_out": "yes", "currency:IQD": "yes", "language:ar": "yes", "language:en": "yes", "name": "\u0635\u0631\u0627\u0641 \u0622\u0644\u064a - \u0627\u0644\u0645\u0635\u0631\u0641 \u0627\u0644\u0639\u0631\u0627\u0642\u064a \u0644\u0644\u062a\u062c\u0627\u0631\u0629", "name:en": "TBI ATM", "operator": "Trade Bank of Iraq", "website": "https://tbi.com.iq/"}}, {"type": "node", "id": 9384316690, "lat": 32.4914939, "lon": 44.4372446, "tags": {"addr:full": "ATM - Hilla -\u00a0Babylon Governorate Divan", "amenity": "atm", "atm": "yes", "cash_out": "yes", "currency:IQD": "yes", "language:ar": "yes", "language:en": "yes", "name": "\u0635\u0631\u0627\u0641 \u0622\u0644\u064a - \u0627\u0644\u0645\u0635\u0631\u0641 \u0627\u0644\u0639\u0631\u0627\u0642\u064a \u0644\u0644\u062a\u062c\u0627\u0631\u0629", "name:en": "TBI ATM", "operator": "Trade Bank of Iraq", "website": "https://tbi.com.iq/"}}, {"type": "node", "id": 9384316721, "lat": 32.4679899, "lon": 44.4170819, "tags": {"addr:full": "ATM - Hilla - Directorate-General for the production of electrical power in the Middle Euphrates", "amenity": "atm", "atm": "yes", "cash_out": "yes", "currency:IQD": "yes", "language:ar": "yes", "language:en": "yes", "name": "\u0635\u0631\u0627\u0641 \u0622\u0644\u064a - \u0627\u0644\u0645\u0635\u0631\u0641 \u0627\u0644\u0639\u0631\u0627\u0642\u064a \u0644\u0644\u062a\u062c\u0627\u0631\u0629", "name:en": "TBI ATM", "operator": "Trade Bank of Iraq", "website": "https://tbi.com.iq/"}}, {"type": "node", "id": 10367778209, "lat": 32.3203417, "lon": 44.2025368, "tags": {"amenity": "atm"}}, {"type": "node", "id": 11432787086, "lat": 32.4361699, "lon": 44.4551178, "tags": {"amenity": "atm", "name": "\u0632"}}]}