{"version": 0.6, "generator": "Overpass API 0.7.61.5 4133829e", "osm3s": {"timestamp_osm_base": "2024-03-05T15:08:58Z", "copyright": "The data included in this document is from www.openstreetmap.org. The data is made available under ODbL."}, "elements": [{"type": "node", "id": 343142243, "lat": 66.7371285, "lon": 20.3497886, "tags": {"name": "Sarkavare", "name:smj": "S\u00e1rggav\u00e1rre", "name:sv": "Sarkavare", "place": "hamlet"}}, {"type": "node", "id": 616934290, "lat": 66.4295605, "lon": 20.6024171, "tags": {"name": "Vuollerim", "name:smj": "Vuolleriebme", "name:sv": "Vuollerim", "place": "village", "ref:se:pts:postort": "VUOLLERIM", "ref:se:scb": "8920"}}, {"type": "node", "id": 668730614, "lat": 66.8449854, "lon": 21.0147336, "tags": {"name": "Kilvo", "name:smj": "Gilvvo", "place": "hamlet"}}, {"type": "node", "id": 671051151, "lat": 66.4836758, "lon": 20.8769234, "tags": {"name": "Murjek", "name:smj": "Muorjek", "name:sv": "Murjek", "place": "village", "ref:se:pts:postort": "MURJEK"}}, {"type": "node", "id": 740463161, "lat": 66.7603816, "lon": 21.0305846, "tags": {"name": "Nattavaara by", "name:smj": "Nahtav\u00e1rre", "place": "village"}}, {"type": "node", "id": 2235762198, "lat": 66.7553794, "lon": 20.9532227, "tags": {"name": "Nattavaara", "name:fi": "Nattavaara", "name:fit": "Nattavaara", "name:smj": "Nahtav\u00e1rre", "place": "hamlet", "ref:se:pts:postort": "NATTAVAARA"}}, {"type": "node", "id": 3018268535, "lat": 66.5687934, "lon": 21.0194071, "tags": {"name": "Polcirkeln", "place": "hamlet"}}, {"type": "node", "id": 3138261842, "lat": 66.7408518, "lon": 20.5839951}, {"type": "node", "id": 3138261843, "lat": 66.7411696, "lon": 20.5869992}, {"type": "node", "id": 3138261844, "lat": 66.7394325, "lon": 20.5849929}, {"type": "node", "id": 3138261845, "lat": 66.7404525, "lon": 20.589065}, {"type": "node", "id": 3138261846, "lat": 66.7393806, "lon": 20.587917}, {"type": "node", "id": 3138261847, "lat": 66.74005, "lon": 20.582735}, {"type": "node", "id": 4261887576, "lat": 66.4454957, "lon": 20.798778, "tags": {"name": "Kirtik", "name:smj": "Girdek", "name:sv": "Kirtik", "place": "hamlet"}}, {"type": "node", "id": 5190340898, "lat": 66.4829432, "lon": 20.2710314, "tags": {"name": "K\u00e5skats", "name:smj": "Goask\u00e1sj", "name:sv": "K\u00e5skats", "place": "hamlet"}}, {"type": "node", "id": 5244350768, "lat": 66.5124934, "lon": 20.238745, "tags": {"name": "Sj\u00e4llarim", "name:smj": "Sj\u00e4ll\u00e1riebme", "name:sv": "Sj\u00e4llarim", "place": "hamlet"}}, {"type": "node", "id": 5246799527, "lat": 66.4646196, "lon": 20.4801231, "tags": {"name": "Padjerim", "name:smj": "Badjeriebme", "name:sv": "Padjerim", "place": "hamlet"}}, {"type": "node", "id": 5447673332, "lat": 66.6727202, "lon": 20.5782506, "tags": {"name": "Stubbudden", "place": "hamlet"}}, {"type": "node", "id": 5447673333, "lat": 66.6755276, "lon": 20.554118, "tags": {"name": "H\u00f6gtr\u00e4sk", "name:smj": "Allakj\u00e1vrre", "name:sv": "H\u00f6gtr\u00e4sk", "place": "hamlet"}}, {"type": "way", "id": 308558836, "nodes": [3138261847, 3138261842, 3138261843, 3138261845, 3138261846, 3138261844, 3138261847], "tags": {"landuse": "residential", "name:en": "Sotaure", "place": "hamlet"}}]}