{"version": 0.6, "generator": "Overpass API 0.7.61.5 4133829e", "osm3s": {"timestamp_osm_base": "2024-03-06T11:12:35Z", "copyright": "The data included in this document is from www.openstreetmap.org. The data is made available under ODbL."}, "elements": [{"type": "node", "id": 3588037678, "lat": 34.2000228, "lon": 43.879546}, {"type": "node", "id": 3588037684, "lat": 34.2000707, "lon": 43.8806205}, {"type": "node", "id": 3588037798, "lat": 34.2017218, "lon": 43.8794354}, {"type": "node", "id": 3588037802, "lat": 34.2017697, "lon": 43.8805099}, {"type": "node", "id": 4491545090, "lat": 34.1996952, "lon": 43.8662401, "tags": {"addr:street": "\u0627\u0644\u0642\u0627\u0637\u0648\u0644", "amenity": "hospital", "name": "\u0645\u0633\u062a\u0634\u0641\u0649 \u0627\u0644\u0634\u0647\u064a\u062f \u0645\u062d\u0645\u062f\u0627\u0644\u0645\u0627\u062c\u062f", "name:ar": "\u0645\u0633\u062a\u0634\u0641\u0649 \u0627\u0644\u0634\u0647\u064a\u062f \u0645\u062d\u0645\u062f\u0627\u0644\u0645\u0627\u062c\u062f", "name:en": "Muhamed Almajid Hospital"}}, {"type": "node", "id": 4610441989, "lat": 34.2040348, "lon": 43.8675457, "tags": {"amenity": "hospital", "internet_access": "wlan", "name": "\u0645\u0633\u062a\u0634\u0641\u0649 \u0627\u0644\u0628\u062a\u0648\u0644 \u0627\u0644\u0645\u064a\u062f\u0627\u0646\u064a -\u062f\u0627\u0626\u0631\u0629 \u0635\u062d\u0629 \u0627\u0644\u0646\u062c\u0641 \u0627\u0644\u0627\u0634\u0631\u0641", "name:ar": "\u0645\u0633\u062a\u0634\u0641\u0649 \u0627\u0644\u0628\u062a\u0648\u0644 \u0627\u0644\u0645\u064a\u062f\u0627\u0646\u064a -\u062f\u0627\u0626\u0631\u0629 \u0635\u062d\u0629 \u0627\u0644\u0646\u062c\u0641 \u0627\u0644\u0627\u0634\u0631\u0641", "name:en": "Al Batool Battle Field Hospital"}}, {"type": "node", "id": 4658431689, "lat": 34.2000013, "lon": 43.8661285, "tags": {"amenity": "hospital", "name": "\u0645\u0633\u062a\u0634\u0641\u0649 \u0627\u0644\u0634\u0647\u064a\u062f \u0645\u062d\u0645\u062f \u0627\u0644\u0645\u0627\u062c\u062f", "name:ar": "\u0645\u0633\u062a\u0634\u0641\u0649 \u0627\u0644\u0634\u0647\u064a\u062f \u0645\u062d\u0645\u062f \u0627\u0644\u0645\u0627\u062c\u062f", "name:en": "Mohammad almajid hospital"}}, {"type": "node", "id": 4683208898, "lat": 34.2039966, "lon": 43.8756245, "tags": {"addr:street": "Tikrit-Samarra road", "amenity": "hospital", "name": "Al-hadi hospital", "name:ar": "\u0645\u0633\u062a\u0634\u0641\u0649 \u0627\u0644\u0647\u0627\u062f\u064a", "name:en": "Alhadi private hospital", "name:ku": "Al-hadi hospital"}}, {"type": "node", "id": 4683255793, "lat": 34.1883539, "lon": 43.8995226, "tags": {"amenity": "hospital", "name": "\u0645\u0633\u062a\u0634\u0641\u0649 \u0627\u0644\u062f\u0643\u062a\u0648\u0631 \u062c\u0645\u0627\u0644", "name:ar": "\u0645\u0633\u062a\u0634\u0641\u0649 \u0627\u0644\u062f\u0643\u062a\u0648\u0631 \u062c\u0645\u0627\u0644"}}, {"type": "node", "id": 4935225057, "lat": 34.2023569, "lon": 43.888023, "tags": {"amenity": "hospital", "name": "\u0627\u0644\u0645\u0633\u062a\u0634\u0641\u0649 \u0627\u0644\u0627\u0644\u0645\u0627\u0646\u064a", "name:ar": "\u0627\u0644\u0645\u0633\u062a\u0634\u0641\u0649 \u0627\u0644\u0627\u0644\u0645\u0627\u0646\u064a", "name:en": "German Hospital"}}, {"type": "node", "id": 4935225324, "lat": 34.1910665, "lon": 43.8880664, "tags": {"amenity": "hospital", "name": "\u0627\u0644\u0627\u0633\u062a\u0634\u0627\u0631\u064a\u0647", "name:ar": "\u0627\u0644\u0627\u0633\u062a\u0634\u0627\u0631\u064a\u0647"}}, {"type": "node", "id": 4935225521, "lat": 34.1990736, "lon": 43.8662619, "tags": {"amenity": "hospital", "name": "\u0627\u0644\u0642\u0627\u0637\u0648\u0644", "name:ar": "\u0627\u0644\u0642\u0627\u0637\u0648\u0644", "name:en": "Alqatol hospital"}}, {"type": "node", "id": 8922032782, "lat": 34.2001475, "lon": 43.8665307, "tags": {"amenity": "hospital", "name:en": "SAMARRA HOSPITAL SAMARRAH"}}, {"type": "node", "id": 8922032786, "lat": 34.188895, "lon": 43.867169, "tags": {"amenity": "hospital", "name:en": "SAMARRA HOSPITAL SAMARRAH"}}, {"type": "way", "id": 353019131, "nodes": [3588037684, 3588037678, 3588037798, 3588037802, 3588037684], "tags": {"amenity": "hospital", "name": "\u0645\u0633\u062a\u0634\u0641\u0649 \u0633\u0627\u0645\u0631\u0627\u0621 \u0627\u0644\u0639\u0627\u0645", "name:ar": "\u0645\u0633\u062a\u0634\u0641\u0649 \u0633\u0627\u0645\u0631\u0627\u0621 \u0627\u0644\u0639\u0627\u0645", "name:en": "Sameraa General Hospital"}}]}