{"version": 0.6, "generator": "Overpass API 0.7.61.5 4133829e", "osm3s": {"timestamp_osm_base": "2024-03-06T11:08:30Z", "copyright": "The data included in this document is from www.openstreetmap.org. The data is made available under ODbL."}, "elements": [{"type": "node", "id": 3975492116, "lat": 32.9108465, "lon": 45.0724139, "tags": {"amenity": "hospital", "name": "Al-Ghadeer Health Center", "name:ar": "\u0645\u0631\u0643\u0632 \u0627\u0644\u063a\u062f\u064a\u0631 \u0627\u0644\u0635\u062d\u064a \u0627\u0644\u0646\u0645\u0648\u0630\u062c\u064a"}}, {"type": "node", "id": 4329068891, "lat": 32.7484949, "lon": 44.5989012, "tags": {"amenity": "hospital", "name": "\u0645\u0633\u062a\u0634\u0641\u0649 \u0627\u0644\u0627\u0645\u0627\u0645 \u0639\u0644\u064a \u0639 \u0627\u0644\u0639\u0627\u0645"}}, {"type": "node", "id": 4329093790, "lat": 32.747165, "lon": 44.6143437, "tags": {"amenity": "hospital", "name": "\u0645\u0631\u0643\u0632 \u0635\u062d\u064a \u0627\u0644\u0645\u0634\u0631\u0648\u0639"}}, {"type": "node", "id": 4414403091, "lat": 32.7532017, "lon": 44.6167054, "tags": {"amenity": "pharmacy", "name": "\u0635\u064a\u062f\u0644\u064a\u0629 \u0648\u0645\u062e\u062a\u0628\u0631 \u0648\u0639\u064a\u0627\u062f\u0629 \u0627\u0644\u0648\u0634\u0642"}}, {"type": "node", "id": 4414634395, "lat": 32.7479041, "lon": 44.6109387, "tags": {"amenity": "clinic", "name": "\u0627\u0644\u0645\u062c\u0645\u0639 \u0627\u0644\u0637\u0628\u064a \u0641\u064a \u0627\u0644\u0645\u0634\u0631\u0648\u0639"}}, {"type": "node", "id": 4447089689, "lat": 32.7530979, "lon": 44.6169996, "tags": {"amenity": "clinic", "name": "\u0635\u064a\u062f\u0644\u064a\u0629 \u0627\u0644\u0648\u0634\u0642", "name:ar": "\u0635\u064a\u062f\u0644\u064a\u0629 \u0627\u0644\u0648\u0634\u0642"}}, {"type": "node", "id": 4469603789, "lat": 32.9049363, "lon": 45.0582397, "tags": {"amenity": "clinic", "email": "abdulsattarhadi@gmail.com", "name": "\u0627\u0644\u062f\u0643\u062a\u0648\u0631 \u0639\u0628\u062f \u0627\u0644\u0633\u062a\u0627\u0631 \u0627\u0644\u062f\u0641\u0627\u0639\u064a", "name:ar": "\u0639\u064a\u0627\u062f\u0629 \u0639\u0644\u0627\u062c \u0627\u0644\u0622\u0644\u0627\u0645 \u0627\u0644\u0645\u0632\u0645\u0646\u0629", "name:en": "Chronic pain clinic", "name:ku": "\u0627\u0644\u062f\u0643\u062a\u0648\u0631 \u0639\u0628\u062f \u0627\u0644\u0633\u062a\u0627\u0631 \u0627\u0644\u062f\u0641\u0627\u0639\u064a", "opening_hours": "Sa-Th 16:00-19:00", "phone": "07832316518"}}, {"type": "node", "id": 4885160722, "lat": 32.9053753, "lon": 45.0571174, "tags": {"addr:postcode": "00964", "amenity": "doctors", "email": "abdulsattarhadi@gmail.com", "healthcare": "doctor", "internet_access": "wlan", "name": "\u0639\u0628\u062f \u0627\u0644\u0633\u062a\u0627\u0631 \u0627\u0644\u062f\u0641\u0627\u0639\u064a", "name:ar": "\u0639\u0628\u062f \u0627\u0644\u0633\u062a\u0627\u0631 \u0627\u0644\u062f\u0641\u0627\u0639\u064a", "phone": "07832316518"}}, {"type": "node", "id": 5091320324, "lat": 32.931381, "lon": 44.7843181, "tags": {"amenity": "hospital", "name": "\u0645\u0633\u062a\u0634\u0641\u0649 \u0627\u0644\u0631\u0627\u0632\u064a", "name:ar": "\u0645\u0633\u062a\u0634\u0641\u0649 \u0627\u0644\u0631\u0627\u0632\u064a"}}, {"type": "node", "id": 5160891625, "lat": 32.9319217, "lon": 44.7776292, "tags": {"amenity": "clinic", "name": "\u0645\u0633\u062a\u0634\u0641\u0649 \u0627\u0644\u0635\u0648\u064a\u0631\u0647 \u0627\u0644\u0639\u0627\u0645"}}, {"type": "node", "id": 5277309124, "lat": 32.9893464, "lon": 44.8419582, "tags": {"amenity": "doctors", "name": "\u0645\u0633\u062a\u0634\u0641\u0649", "name:ar": "\u0645\u0631\u0643\u0632 \u0635\u062d\u064a"}}, {"type": "node", "id": 5356297424, "lat": 32.9069277, "lon": 45.0553423, "tags": {"amenity": "doctors", "name": "\u0645\u0633\u062a\u0634\u0641\u0649 \u0627\u0644\u0639\u0632\u064a\u0632\u064a\u0647 \u0627\u0644\u0639\u0627\u0645"}}, {"type": "node", "id": 5838573585, "lat": 32.7843005, "lon": 44.5712099, "tags": {"amenity": "doctors", "name": "\u0642\u0631\u064a\u0629 \u0622\u0644 \u0647\u0627\u062a\u0641"}}, {"type": "node", "id": 5874349285, "lat": 32.7482409, "lon": 44.5989993, "tags": {"amenity": "clinic", "name": "\u0637\u0648\u0627\u0631\u064a\u0621 \u0645\u0633\u062a\u0634\u0641\u0649 \u0627\u0644\u0627\u0645\u0627\u0645 \u0639\u0644\u064a \u0639 \u0627\u0644\u0639\u0627\u0645"}}, {"type": "node", "id": 5874349385, "lat": 32.7482225, "lon": 44.5995424, "tags": {"amenity": "clinic", "name": "\u0627\u0633\u062a\u0634\u0627\u0631\u064a\u0629 \u0645\u0633\u062a\u0634\u0641\u0649 \u0627\u0644\u0627\u0645\u0627\u0645 \u0639\u0644\u064a \u0639 \u0627\u0644\u0639\u0627\u0645"}}, {"type": "node", "id": 6560387085, "lat": 32.9108998, "lon": 44.7894945, "tags": {"addr:street": "\u062d\u064a \u0627\u0644\u0632\u0647\u0648\u0631 \u0627\u0644\u0635\u0648\u064a\u0631\u0647 \u0627\u0644\u0643\u0648\u062a", "amenity": "hospital", "name": "\u0645\u0631\u0643\u0632 \u0627\u0644\u0632\u0647\u0631\u0627\u0621 \u0627\u0644\u0635\u062d\u064a \u0627\u0644\u0646\u0645\u0648\u0630\u062c\u064a"}}, {"type": "node", "id": 7135189087, "lat": 32.9508008, "lon": 44.7043372, "tags": {"amenity": "doctors", "name": "\u062f\u0643\u062a\u0648\u0631. \u0636\u064a\u0627\u0621\u0627\u0644\u062f\u064a\u0646 \u0627\u0644\u062c\u062d\u064a\u0634\u064a", "name:ar": "\u0627\u0644\u062f\u0643\u062a\u0648\u0631  \u0636\u064a\u0627\u0621\u0627\u0644\u062f\u064a\u0646 \u0627\u0644\u062c\u062d\u064a\u0634\u064a", "name:en": "dr. deiaaldeen aljuishi"}}, {"type": "node", "id": 7135189088, "lat": 32.9340511, "lon": 44.7815296, "tags": {"amenity": "doctors", "name": "\u0627\u0644\u062f\u0643\u062a\u0648\u0631 \u0634\u0645\u0633 \u0627\u0644\u062f\u064a\u0646 \u0627\u0644\u062c\u062d\u064a\u0634\u064a", "name:en": "dr. shams aldeeb aljuhishi"}}, {"type": "node", "id": 7179675385, "lat": 32.9321215, "lon": 44.7588528, "tags": {"amenity": "doctors", "name": "\u0627\u0644\u062f\u0643\u062a\u0648\u0631 \u0634\u0645\u0633 \u0627\u0644\u062f\u064a\u0646 \u0627\u0644\u062c\u062d\u064a\u0634\u064a", "name:en": "Dr. Shamsaldeen AJUHAISHI"}}, {"type": "node", "id": 7289443592, "lat": 32.9511839, "lon": 44.7034, "tags": {"amenity": "doctors", "name": "\u0627\u0644\u062f\u0643\u062a\u0648\u0631 \u0636\u064a\u0627\u0621\u0627\u0644\u062f\u064a\u0646 \u0627\u0644\u062c\u062d\u064a\u0634\u064a", "name:en": "Dr. deiaaldeen AJUHAISHI"}}, {"type": "node", "id": 7878758186, "lat": 32.9320443, "lon": 44.781183, "tags": {"amenity": "pharmacy", "name": "\u0635\u064a\u062f\u0644\u064a\u0629 \u0633\u0645\u0627 \u0627\u0644\u0635\u0648\u064a\u0631\u0647"}}, {"type": "node", "id": 8262845618, "lat": 32.9288619, "lon": 44.9772264, "tags": {"amenity": "clinic", "name": "\u0645\u0631\u0643\u0632 \u062b\u0644\u0627\u0633\u064a\u0645\u064a\u0627 \u0648\u0627\u0633\u0637"}}, {"type": "node", "id": 8324941020, "lat": 32.9068181, "lon": 45.0650832, "tags": {"amenity": "clinic", "name": "\u0645\u0633\u062a\u0648\u0635\u0641 \u0627\u0644\u0639\u0632\u064a\u0632\u064a\u0629 \u0627\u0644\u0635\u062d\u064a"}}, {"type": "node", "id": 8327486918, "lat": 32.903339, "lon": 45.062751, "tags": {"amenity": "pharmacy", "name": "\u0635\u064a\u062f\u0644\u064a\u0629"}}, {"type": "node", "id": 8327486919, "lat": 32.9045485, "lon": 45.0585432, "tags": {"amenity": "pharmacy", "name": "\u0635\u064a\u062f\u0644\u064a\u0629"}}, {"type": "node", "id": 8845956020, "lat": 32.59998, "lon": 44.5826858, "tags": {"amenity": "clinic", "name:en": "SAMAWI CLINIC CIVILIAN"}}, {"type": "node", "id": 8922549713, "lat": 32.9168636, "lon": 44.7832292, "tags": {"amenity": "hospital", "name:en": "AS SUWAYRAH HOSPITAL CIVILIAN"}}, {"type": "node", "id": 8922549714, "lat": 32.8840742, "lon": 44.7428834, "tags": {"amenity": "hospital", "name:en": "AS SUWAYRAH HOSPITAL SHAIKH MAZHAR MILITARY"}}, {"type": "node", "id": 9104986964, "lat": 32.9325539, "lon": 44.7769493}, {"type": "node", "id": 9104986975, "lat": 32.9313714, "lon": 44.7765203}, {"type": "node", "id": 9104986977, "lat": 32.9309377, "lon": 44.7783537}, {"type": "node", "id": 9104986980, "lat": 32.9321564, "lon": 44.7784833}, {"type": "node", "id": 9104986981, "lat": 32.9329485, "lon": 44.77349, "tags": {"amenity": "hospital", "healthcare": "hospital", "name": "\u0645\u0631\u0643\u0632 \u0627\u0644\u0634\u0641\u0627\u0621 \u0627\u0644\u062a\u062e\u0635\u0635\u064a"}}, {"type": "node", "id": 9669098617, "lat": 32.9322925, "lon": 44.7789725, "tags": {"amenity": "pharmacy", "name": "\u0635\u064a\u062f\u0644\u064a\u0629 \u0633\u0631\u0648\u0631 \u0627\u0644\u062e\u0641\u0627\u062c\u064a"}}, {"type": "node", "id": 9669098818, "lat": 32.9147191, "lon": 45.0632185, "tags": {"amenity": "pharmacy", "name": "\u0645\u0630\u062e\u0631 \u062a\u0627\u062c \u0627\u0644\u062f\u064a\u0646 \u0635\u0648\u064a\u0631\u0647"}}, {"type": "node", "id": 9900262617, "lat": 32.7471717, "lon": 44.6123626, "tags": {"amenity": "pharmacy", "name": "\u0635\u064a\u062f\u0644\u064a\u0629 \u0627\u0644\u0646\u0628\u0639", "opening_hours": "24/7"}}, {"type": "node", "id": 10980525686, "lat": 32.9052, "lon": 44.7593583, "tags": {"amenity": "clinic", "name": "\u0645\u0631\u0643\u0632 \u062a\u0628\u0648\u0643 \u0627\u0644\u0635\u062d\u064a"}}, {"type": "node", "id": 10980553505, "lat": 32.9320282, "lon": 44.7778277, "tags": {"amenity": "hospital", "name": "\u0645\u0633\u062a\u0634\u0641\u0649 \u0627\u0644\u0635\u0648\u064a\u0631\u0629 \u0644\u0639\u0627\u0645"}}, {"type": "node", "id": 10980553511, "lat": 32.9310222, "lon": 44.7856167, "tags": {"amenity": "clinic", "name": "\u0645\u0631\u0643\u0632 \u0627\u0644\u0631\u0627\u0632\u064a \u0627\u0644\u0635\u062d\u064a"}}, {"type": "node", "id": 10980553542, "lat": 32.9074638, "lon": 45.061889, "tags": {"amenity": "clinic", "name": "\u0642\u0637\u0627\u0639 \u0627\u0644\u0631\u0639\u0627\u064a\u0629 \u0627\u0644\u0635\u062d\u064a\u0629 \u0627\u0644\u0639\u0632\u064a\u0632\u064a\u0629"}}, {"type": "node", "id": 10980553543, "lat": 32.9055925, "lon": 45.0612849, "tags": {"amenity": "clinic", "name": "\u0645\u0631\u0643\u0632 \u0635\u062d\u064a \u0627\u0644\u0639\u0632\u064a\u0632\u064a\u0629"}}, {"type": "node", "id": 10980553553, "lat": 32.9085758, "lon": 45.0596652, "tags": {"amenity": "hospital", "name": "\u0645\u0633\u062a\u0634\u0641\u0649 \u0627\u0644\u0639\u0632\u064a\u0632\u064a\u0629 \u0627\u0644\u0639\u0627\u0645", "opening_hours": "24/7"}}, {"type": "node", "id": 10980553588, "lat": 32.6978472, "lon": 44.97195, "tags": {"amenity": "clinic", "name": "\u0645\u0631\u0643\u0632 \u0635\u062d\u064a \u0627\u0644\u0634\u062d\u064a\u0645\u064a\u0629"}}, {"type": "node", "id": 10980553606, "lat": 32.9902337, "lon": 44.8428971, "tags": {"amenity": "clinic", "name": "\u0645\u0631\u0643\u0632 \u0635\u062d\u064a \u062a\u0627\u062c \u0627\u0644\u062f\u064a\u0646"}}, {"type": "node", "id": 11338517575, "lat": 32.908803, "lon": 45.0595783, "tags": {"amenity": "clinic", "name": "\u062f.\u0646\u0628\u064a\u0644 /\u0627\u0637\u0641\u0627\u0644 \u0648\u062d\u062f\u064a\u062b\u064a \u0627\u0644\u0648\u0644\u0627\u062f\u0629", "phone": "07829643036"}}, {"type": "node", "id": 11445669669, "lat": 32.9090286, "lon": 45.059968, "tags": {"addr:street": "\u0634\u0627\u0631\u0639 \u0627\u0644\u0627\u0637\u0628\u0627\u0621", "amenity": "clinic", "name": "\u062f.\u0639\u0644\u064a \u0627\u0644\u0628\u062f\u0631\u064a /\u0627\u0645\u0631\u0627\u0636 \u0627\u0644\u0645\u0641\u0627\u0635\u0644 \u0648\u0627\u0644\u0631\u0648\u0645\u0627\u062a\u0632\u0645 \u0648\u0627\u0644\u0641\u0642\u0631\u0627\u062a", "opening_hours": "Mo-We 14:00-09:00", "phone": "07737037147"}}, {"type": "node", "id": 11497464969, "lat": 32.933617, "lon": 44.7814233, "tags": {"addr:street": "said noor", "amenity": "doctors", "name": "\u0639\u064a\u0627\u062f\u0629 \u062f.\u062d\u0633\u0646 \u0635\u0628\u064a\u062d", "name:en": "dr.Hasan Sabeeh", "opening_hours": "Mo-We 04:00-08:00", "phone": "07904547712"}}, {"type": "node", "id": 11659783115, "lat": 32.9099238, "lon": 45.0611343, "tags": {"amenity": "clinic", "building": "yes", "building:levels": "3", "healthcare": "clinic", "healthcare:speciality": "general;gynaecology;radiology", "level": "3", "name": "\u0627\u0644\u0645\u062c\u0645\u0639 \u0627\u0644\u0637\u0628\u064a \u0627\u0644\u0639\u0627\u0644\u0645\u064a"}}, {"type": "way", "id": 984834573, "nodes": [9104986977, 9104986980, 9104986964, 9104986975, 9104986977], "tags": {"amenity": "hospital", "healthcare": "hospital"}}]}