{"version": 0.6, "generator": "Overpass API 0.7.61.5 4133829e", "osm3s": {"timestamp_osm_base": "2024-03-05T13:42:59Z", "copyright": "The data included in this document is from www.openstreetmap.org. The data is made available under ODbL."}, "elements": [{"type": "node", "id": 1131478255, "lat": 36.9209666, "lon": 68.0612682, "tags": {"alt_name": "Khvosh Tappeh;Tahaneh Khvosh Tappeh;Khesht Tappeh;Khus Tapa;Khist Tapa;Khisht Tapa;Khisht Tepe;Khosh Tapah", "name": "\u062e\u0648\u0634 \u062a\u067e\u0647", "name:en": "Khvash Tappeh", "name:ps": "\u062e\u0648\u0634 \u062a\u067e\u0647", "name:ru": "\u041a\u0432\u043e\u0448 \u0442\u0430\u043f\u043f\u0435", "name:uz": "Kvosh tappe", "place": "village", "source:name": "GNS"}}, {"type": "node", "id": 1131478264, "lat": 36.9565414, "lon": 68.1360227, "tags": {"name": "Baghicha", "place": "hamlet"}}, {"type": "node", "id": 1131478269, "lat": 36.9879818, "lon": 68.2188987, "tags": {"name": "Kolukh Tappeh", "place": "hamlet"}}, {"type": "node", "id": 1131478270, "lat": 36.9993137, "lon": 68.1848089, "tags": {"name": "Baghri Kol", "place": "hamlet"}}, {"type": "node", "id": 3450095579, "lat": 36.9819516, "lon": 68.0290461, "tags": {"addr:subdistrict": "\u04b6\u0430\u043c\u043e\u0430\u0442\u0438 \u04b6\u04ef\u0440\u0430 \u041d\u0430\u0437\u0430\u0440\u043e\u0432", "name": "\u0410\u0439\u0432\u0430\u04b7", "name:en": "Aiwaj", "name:uk": "\u0410\u0439\u0432\u0430\u0434\u0436", "name:uz": "Ayvach", "old_name": "\u0410\u0439\u0432\u0430\u0434\u0436", "place": "village", "population": "6473", "population:date": "2017", "wikidata": "Q80949057", "wikipedia": "uk:\u0410\u0439\u0432\u0430\u0434\u0436"}}, {"type": "node", "id": 3450272115, "lat": 37.0431099, "lon": 68.0791755, "tags": {"addr:subdistrict": "\u04b6\u0430\u043c\u043e\u0430\u0442\u0438 \u04b6\u04ef\u0440\u0430 \u041d\u0430\u0437\u0430\u0440\u043e\u0432", "name": "\u041b\u0443\u0431\u0438\u0451\u043a\u043e\u0440", "name:en": "Lyublikar", "name:uk": "\u041b\u0443\u0431\u0456\u0439\u043e\u043a\u043e\u0440", "old_name": "\u041b\u044e\u0431\u043b\u0438\u043a\u0430\u0440", "place": "village", "population": "3537", "population:date": "2017", "wikidata": "Q97236614", "wikipedia": "uk:\u041b\u0443\u0431\u0456\u0439\u043e\u043a\u043e\u0440"}}, {"type": "node", "id": 3450386116, "lat": 37.1855977, "lon": 68.2202412, "tags": {"name": "\u041d\u0430\u0432\u043e\u0431\u043e\u0434", "name:en": "Navobod", "name:fa": "\u06a9\u0627\u0644\u06cc\u0646\u06cc\u0646", "name:uk": "\u041d\u0430\u0432\u043e\u0431\u043e\u0434", "old_name": "\u0438\u043c\u0435\u043d\u0438 \u041a\u0430\u043b\u0438\u043d\u0438\u043d\u0430", "place": "village", "population": "1729", "population:date": "2017", "wikidata": "Q61710739", "wikipedia": "tg:\u041d\u0430\u0432\u043e\u0431\u043e\u0434 (\u0434\u0435\u04b3\u0430, \u04b7. \u0422\u0430\u0445\u0442\u0438 \u0421\u0430\u043d\u0433\u0438\u043d, \u043d. \u049a\u0443\u0431\u043e\u0434\u0438\u0451\u043d)"}}, {"type": "node", "id": 3450389843, "lat": 37.2027198, "lon": 68.2111189, "tags": {"name": "\u0410\u0432\u0430\u0441\u0442\u043e", "name:en": "Avasto", "name:uk": "\u0410\u0432\u0430\u0441\u0442\u043e", "old_name": "\u0414\u0436\u0430\u0440\u043a\u0443\u0440\u0433\u0430\u043d", "place": "village", "population": "4983", "population:date": "2017", "wikidata": "Q61710345", "wikipedia": "tg:\u0410\u0432\u0430\u0441\u0442\u043e (\u0434\u0435\u04b3\u0430, \u043d. \u049a\u0443\u0431\u043e\u0434\u0438\u0451\u043d)"}}, {"type": "node", "id": 6918631970, "lat": 37.0506588, "lon": 68.1108636, "tags": {"name": "\u0428\u043e\u04b3", "name:en": "Sh\u043ekh", "name:lt": "\u0160\u043eh", "name:ru": "\u0428\u0430\u0445", "name:uk": "\u0428\u043e\u0445", "old_name": "\u0428\u0430\u0445", "place": "village", "population": "7087", "population:date": "2017", "wikidata": "Q61710334", "wikipedia": "tg:\u0428\u043e\u04b3 (\u0434\u0435\u04b3\u0430, \u043d. \u049a\u0443\u0431\u043e\u0434\u0438\u0451\u043d)"}}, {"type": "node", "id": 6918631971, "lat": 37.0849901, "lon": 68.1139258, "tags": {"name": "\u041d\u0430\u0432\u043e\u0431\u043e\u0434", "name:en": "Novabad", "name:lt": "Novabad", "name:ru": "\u041d\u043e\u0432\u0430\u0431\u0430\u0434", "name:uk": "\u041d\u0430\u0432\u043e\u0431\u043e\u0434", "old_name": "\u041d\u043e\u0432\u0430\u0431\u0430\u0434", "place": "village", "population": "3203", "population:date": "2017", "wikidata": "Q61710738", "wikipedia": "tg:\u041d\u0430\u0432\u043e\u0431\u043e\u0434 (\u0434\u0435\u04b3\u0430, \u043d. \u049a\u0443\u0431\u043e\u0434\u0438\u0451\u043d)"}}, {"type": "node", "id": 6918676664, "lat": 37.1279455, "lon": 68.2291543, "tags": {"name": "\u0421\u0430\u0438\u0434\u043d\u0430\u0437\u0430\u0440 \u0425\u0443\u0434\u043e\u0439\u049b\u0443\u043b\u043e\u0432", "name:uk": "\u0421\u0430\u0457\u0434\u043d\u0430\u0437\u0430\u0440\u0430 \u0425\u0443\u0434\u043e\u0439\u043a\u0443\u043b\u043e\u0432\u0430", "old_name": "\u0422\u0435\u0448\u0438\u043a\u0442\u043e\u0448", "place": "village", "population": "4835", "population:date": "2017", "wikidata": "Q61710352", "wikipedia": "tg:\u0421\u0430\u0438\u0434\u043d\u0430\u0437\u0430\u0440 \u0425\u0443\u0434\u043e\u0439\u049b\u0443\u043b\u043e\u0432 (\u0434\u0435\u04b3\u0430, \u043d. \u049a\u0443\u0431\u043e\u0434\u0438\u0451\u043d)"}}, {"type": "node", "id": 6918702804, "lat": 37.1844576, "lon": 68.1853072, "tags": {"name": "\u04b2\u0430\u0451\u0442", "name:uk": "\u0425\u0430\u0439\u043e\u0442", "old_name": "\u041a\u0443\u0440\u0434\u0436\u0430\u043b\u043e\u043b", "place": "village", "population": "1641", "population:date": "2017", "wikidata": "Q61710358", "wikipedia": "tg:\u04b2\u0430\u0451\u0442 (\u0434\u0435\u04b3\u0430, \u043d. \u049a\u0443\u0431\u043e\u0434\u0438\u0451\u043d)"}}, {"type": "node", "id": 6925594106, "lat": 37.2074546, "lon": 68.0325732, "tags": {"name": "\u0410\u0440\u0430\u0431\u0445\u043e\u043d\u0430", "name:uk": "\u0410\u0440\u0430\u0431\u0445\u043e\u043d\u0430", "old_name": "\u0410\u0440\u0430\u0431\u0445\u0430\u043d\u0430", "place": "village", "population": "1975", "population:date": "2017", "wikidata": "Q61710676", "wikipedia": "uk:\u0410\u0440\u0430\u0431\u0445\u043e\u043d\u0430"}}, {"type": "node", "id": 6925689874, "lat": 37.2135909, "lon": 68.1445786, "tags": {"name": "\u0421\u0430\u0439\u0451\u0434", "name:en": "Sayod", "name:tg": "\u0421\u0430\u0439\u0451\u0434", "name:uk": "\u0421\u0430\u0439\u0439\u043e\u0434", "old_name": "\u0421\u0430\u044f\u0442", "place": "village", "population": "4688", "population:date": "2017", "wikidata": "Q97237410", "wikipedia": "uk:\u0421\u0430\u0439\u0439\u043e\u0434 (\u0428\u0430\u0445\u0440\u0456\u0442\u0443\u0441\u044c\u043a\u0438\u0439 \u0440\u0430\u0439\u043e\u043d)"}}, {"type": "node", "id": 6925696063, "lat": 37.1791035, "lon": 68.1368521, "tags": {"name": "\u0427\u04ef\u044f\u043d\u0447\u04e3", "name:uk": "\u0427\u0443\u044f\u043d\u0447\u0456", "place": "village", "population": "1921", "population:date": "2017", "wikidata": "Q97238356", "wikipedia": "uk:\u0427\u0443\u044f\u043d\u0447\u0456"}}, {"type": "node", "id": 6925696077, "lat": 37.1520976, "lon": 68.1250109, "tags": {"name": "\u041b\u043e\u0447\u0438\u043d \u041d\u0443\u0440\u043e\u0432", "name:en": "Lochin Nurov", "name:ru": "\u041b\u043e\u0447\u0438\u043d\u0430 \u041d\u0443\u0440\u043e\u0432\u0430", "name:uk": "\u041b\u043e\u0447\u0438\u043d\u0430 \u041d\u0443\u0440\u043e\u0432\u0430", "old_name": "\u041b\u0435\u043d\u0438\u043d\u044a\u0451\u043b", "place": "village", "population": "1917", "population:date": "2017", "wikidata": "Q97236567", "wikipedia": "uk:\u041b\u043e\u0447\u0438\u043d\u0430 \u041d\u0443\u0440\u043e\u0432\u0430"}}, {"type": "node", "id": 6925699292, "lat": 37.0865789, "lon": 68.088328, "tags": {"name": "\u0410\u0441\u043e\u043c\u0438\u0434\u0434\u0438\u043d \u041c\u0443\u0440\u043e\u0434\u043e\u0432", "name:en": "Asomiddin Murodov", "name:ru": "\u0410\u0441\u043e\u043c\u0438\u0434\u0434\u0438\u043d\u0430 \u041c\u0443\u0440\u043e\u0434\u043e\u0432\u0430", "name:uk": "\u0410\u0441\u043e\u043c\u0456\u0434\u0434\u0456\u043d\u0430 \u041c\u0443\u0440\u043e\u0434\u043e\u0432\u0430", "old_name": "\u0422\u0430\u0434\u0436\u0438\u043a\u0430\u0431\u0430\u0434", "place": "village", "population": "3618", "population:date": "2017", "wikidata": "Q97235412", "wikipedia": "uk:\u0410\u0441\u043e\u043c\u0456\u0434\u0434\u0456\u043d\u0430 \u041c\u0443\u0440\u043e\u0434\u043e\u0432\u0430"}}, {"type": "node", "id": 8243420764, "lat": 37.1643243, "lon": 68.2231628, "tags": {"name": "\u0413\u0443\u043b\u0438\u0441\u0442\u043e\u043d", "name:uk": "\u0413\u0443\u043b\u0456\u0441\u0442\u043e\u043d", "old_name": "\u0411\u043e\u043b\u044c\u0448\u0435\u0432\u0438\u043a", "place": "village", "population": "4887", "population:date": "2017", "wikidata": "Q61710346", "wikipedia": "tg:\u0413\u0443\u043b\u0438\u0441\u0442\u043e\u043d (\u0434\u0435\u04b3\u0430, \u043d. \u049a\u0443\u0431\u043e\u0434\u0438\u0451\u043d)"}}, {"type": "node", "id": 9609470963, "lat": 37.1923658, "lon": 68.1454567, "tags": {"name": "\u0411\u0430\u04b3\u043e\u0440\u0438\u0441\u0442\u043e\u043d", "name:uk": "\u0411\u0430\u0445\u043e\u0440\u0456\u0441\u0442\u043e\u043d", "old_name": "\u041a\u044b\u0437\u044b\u043b-\u0410\u0441\u043a\u0430\u0440", "place": "village", "population": "1228", "population:date": "2017", "wikidata": "Q97235453", "wikipedia": "uk:\u0411\u0430\u0445\u043e\u0440\u0456\u0441\u0442\u043e\u043d (\u0428\u0430\u0445\u0440\u0456\u0442\u0443\u0441\u044c\u043a\u0438\u0439 \u0440\u0430\u0439\u043e\u043d)"}}, {"type": "node", "id": 9623642637, "lat": 37.106091, "lon": 68.0932236, "tags": {"name": "\u0425\u0443\u0448\u043e\u0434\u04e3", "name:en": "Khushodi", "name:uk": "\u0425\u0443\u0448\u043e\u0434\u0456", "old_name": "\u0425\u043e\u0448\u0430\u0434\u044b", "place": "village", "population": "2606", "population:date": "2017", "wikidata": "Q97238882", "wikipedia": "uk:\u0425\u0443\u0448\u043e\u0434\u0456"}}, {"type": "node", "id": 9623703107, "lat": 37.1193365, "lon": 68.1034592, "tags": {"name": "\u04b6\u0430\u043c\u044a\u0438\u044f\u0442\u0434\u0435\u04b3\u049b\u043e\u043d", "name:en": "Jam'iyatdehqon", "name:uk": "\u0414\u0436\u0430\u043c\u0456\u044f\u0442\u0434\u0435\u0445\u043a\u043e\u043d", "old_name": "\u0414\u0436\u0430\u043c\u0438\u044f\u0442-\u0414\u0435\u0445\u043a\u0430\u043d", "place": "village", "population": "2715", "population:date": "2017", "wikidata": "Q97238907", "wikipedia": "uk:\u0414\u0436\u0430\u043c\u0456\u044f\u0442\u0434\u0435\u0445\u043a\u043e\u043d"}}, {"type": "node", "id": 9641336878, "lat": 37.1721677, "lon": 68.1331965, "tags": {"name": "\u0425\u043e\u04b7\u0430 \u0414\u0443\u0440\u0431\u0430\u0434", "name:uk": "\u0425\u043e\u0434\u0436\u0430-\u0414\u0443\u0440\u0431\u0430\u0434", "old_name": "\u0425\u043e\u0434\u0436\u0430-\u0414\u0443\u0440\u0431\u0430\u0434", "place": "village", "population": "1204", "population:date": "2017", "wikidata": "Q97238077", "wikipedia": "tg:\u0425\u043e\u04b7\u0430 \u0414\u0443\u0440\u0431\u0430\u0434"}}, {"type": "node", "id": 9641336880, "lat": 37.1508755, "lon": 68.0190733, "tags": {"name": "\u0428\u0430\u0440\u049b", "name:uk": "\u0428\u0430\u0440\u043a", "place": "village", "population": "571", "population:date": "2017", "wikidata": "Q97238389", "wikipedia": "uk:\u0428\u0430\u0440\u043a (\u0428\u0430\u0445\u0440\u0456\u0442\u0443\u0441\u044c\u043a\u0438\u0439 \u0440\u0430\u0439\u043e\u043d)"}}, {"type": "node", "id": 9657808218, "lat": 37.1410435, "lon": 68.2244783, "tags": {"name": "\u0412\u0430\u04b3\u0434\u0430\u0442", "name:uk": "\u0412\u0430\u0445\u0434\u0430\u0442", "old_name": "\u049a\u0438\u0437\u0438\u043b\u0438\u0442\u0442\u0438\u0444\u043e\u049b", "place": "village", "population": "3233", "population:date": "2017", "wikidata": "Q31458969", "wikipedia": "tg:\u0412\u0430\u04b3\u0434\u0430\u0442 (\u0434\u0435\u04b3\u0430, \u043d. \u049a\u0443\u0431\u043e\u0434\u0438\u0451\u043d)"}}, {"type": "node", "id": 10845608829, "lat": 37.2120185, "lon": 68.1051437, "tags": {"name": "\u0412\u0430\u0442\u0430\u043d", "name:uk": "\u0412\u0430\u0442\u0430\u043d", "place": "village", "population": "3500", "population:date": "2017", "source:population": "http://tojkiston.ucoz.ru/index/dekha_vatan/0-1551", "wikidata": "Q97235611", "wikipedia": "uk:\u0412\u0430\u0442\u0430\u043d (\u0422\u0430\u0434\u0436\u0438\u043a\u0438\u0441\u0442\u0430\u043d)"}}, {"type": "node", "id": 10871815183, "lat": 37.171334, "lon": 68.0351202, "tags": {"name": "\u0413\u0443\u043b\u0438\u0441\u0442\u043e\u043d", "name:uk": "\u0413\u0443\u043b\u0456\u0441\u0442\u043e\u043d", "place": "village", "population": "738", "population:date": "2017", "wikidata": "Q97235851", "wikipedia": "tg:\u0413\u0443\u043b\u0438\u0441\u0442\u043e\u043d (\u0434\u0435\u04b3\u0430, \u04b7. \u0422\u0430\u043b\u0431\u0430\u043a \u0421\u0430\u0434\u0440\u0438\u0434\u0434\u0438\u043d\u043e\u0432, \u043d. \u0428\u0430\u04b3\u0440\u0438\u0442\u04ef\u0441)"}}, {"type": "node", "id": 10871844154, "lat": 37.1675261, "lon": 68.1654827, "tags": {"name": "\u0413\u0443\u043b\u0447\u0438\u043d", "name:uk": "\u0413\u0443\u043b\u0447\u0438\u043d", "place": "village", "population": "528", "population:date": "2017", "wikidata": "Q61710736", "wikipedia": "tg:\u0413\u0443\u043b\u0447\u0438\u043d (\u0434\u0435\u04b3\u0430, \u043d. \u049a\u0443\u0431\u043e\u0434\u0438\u0451\u043d)"}}, {"type": "node", "id": 10882737024, "lat": 37.1910527, "lon": 68.0288868, "tags": {"name": "\u0411\u043e\u0431\u043e\u049b\u0443\u043b \u0425\u0438\u0434\u0438\u0440\u043e\u0432", "name:uk": "\u0411\u043e\u0431\u043e\u043a\u0443\u043b\u0430 \u0425\u0456\u0434\u0456\u0440\u043e\u0432\u0430", "place": "village", "population": "663", "population:date": "2017", "wikidata": "Q61710678", "wikipedia": "tg:\u0411\u043e\u0431\u043e\u049b\u0443\u043b \u0425\u0438\u0434\u0438\u0440\u043e\u0432 (\u0434\u0435\u04b3\u0430, \u043d. \u041d\u043e\u0441\u0438\u0440\u0438 \u0425\u0443\u0441\u0440\u0430\u0432)"}}, {"type": "node", "id": 10882738137, "lat": 37.1887853, "lon": 67.9865101, "tags": {"name": "\u0418\u0441\u0444\u0430\u0440\u0430", "name:uk": "\u0406\u0441\u0444\u0430\u0440\u0430", "place": "village", "population": "25", "population:date": "2017", "wikidata": "Q61710792", "wikipedia": "tg:\u0418\u0441\u0444\u0430\u0440\u0430 (\u0434\u0435\u04b3\u0430, \u043d. \u041d\u043e\u0441\u0438\u0440\u0438 \u0425\u0443\u0441\u0440\u0430\u0432)"}}]}