{"version": 0.6, "generator": "Overpass API 0.7.61.5 4133829e", "osm3s": {"timestamp_osm_base": "2024-03-06T11:17:45Z", "copyright": "The data included in this document is from www.openstreetmap.org. The data is made available under ODbL."}, "elements": [{"type": "node", "id": 192581952, "lat": 33.3532137, "lon": 43.7875674, "tags": {"alt_name:fr": "Falloujah", "alt_name:ko": "\ud314\ub8e8\uc790", "capital": "6", "name": "\u0627\u0644\u0641\u0644\u0648\u062c\u0629", "name:ar": "\u0627\u0644\u0641\u0644\u0648\u062c\u0629", "name:ckb": "\u0641\u06d5\u0644\u0648\u062c\u06d5", "name:de": "Falludscha", "name:el": "\u03a6\u03b1\u03bb\u03bf\u03cd\u03c4\u03b6\u03b1", "name:en": "Fallujah", "name:eo": "Falu\u011da", "name:es": "Faluya", "name:et": "Al-Fall\u016bjah", "name:eu": "Falluja", "name:fr": "Fallouja", "name:he": "\u05e4\u05dc\u05d5\u05d2'\u05d4", "name:hi": "\u092b\u0932\u094d\u0932\u0941\u091c\u093e", "name:hr": "Falud\u017ea", "name:hu": "Falludzsa", "name:it": "Falluja", "name:ja": "\u30d5\u30a1\u30eb\u30fc\u30b8\u30e3", "name:ko": "\uc54c \ud314\ub8e8\uc790", "name:ku": "Feluce", "name:ml": "\u0d2b\u0d32\u0d4d\u0d32\u0d41\u0d1c", "name:pt": "Falluja", "name:te": "\u0c2b\u0c32\u0c42\u0c1c\u0c3e", "name:tr": "Felluce", "name:tt": "\u0424\u04d9\u043b\u043b\u0443\u0497\u04d9", "place": "city", "population": "326471", "wikidata": "Q191170", "wikipedia": "en:Fallujah"}}, {"type": "node", "id": 2318152545, "lat": 33.4049406, "lon": 43.9142317, "tags": {"alt_name:en": "Garma;Karmah;Karma", "capital": "7", "fixme": "Verify if size. Wikipedia list its population at 116 000", "int_name": "Al-Karmah - \u0627\u0644\u0643\u0631\u0645\u0629", "is_in:country": "Iraq", "is_in:country_code": "IQ", "name": "\u0627\u0644\u0643\u0631\u0645\u0629", "name:ar": "\u0627\u0644\u0643\u0631\u0645\u0629", "name:en": "Al-Karmah", "name:fr": "Al-Karmah", "place": "town", "population": "95000", "population:date": "2013", "source:population": "DBpedia", "wikidata": "Q4702665", "wikipedia": "en:Al-Karmah"}}, {"type": "node", "id": 2480091035, "lat": 33.1783413, "lon": 43.8898284, "tags": {"alt_name": "\u0642\u0631\u064a\u0629 \u0639\u0628\u0627\u0633 \u0627\u0644\u0639\u0631\u0633\u0627\u0646", "int_name": "Qaryat Abb\u0101s al Irs\u0101n, \u0642\u0631\u064a\u0629 \u0639\u0628\u0627\u0633 \u0627\u0644\u0639\u0631\u0633\u0627\u0646, Qaryat Abbas al Irsan, \u0642\u0631\u064a\u0629 \u0639\u0628\u0627\u0633 \u0627\u0644\u0639\u0631\u0633\u0627\u0646", "name": "\u0642\u0631\u064a\u0629 \u0639\u0628\u0627\u0633 \u0627\u0644\u0639\u0631\u0633\u0627\u0646", "name:ar": "\u0642\u0631\u064a\u0629 \u0639\u0628\u0627\u0633 \u0627\u0644\u0639\u0631\u0633\u0627\u0646", "name:ar1": "\u0642\u0631\u064a\u0629 \u0639\u0628\u0627\u0633 \u0627\u0644\u0639\u0631\u0633\u0627\u0646", "name:de": "Qaryat Abbas al Irsan", "name:en": "Qaryat Abbas al Irsan", "name:fr": "Qaryat Abbas al Irsan", "place": "village"}}, {"type": "node", "id": 2480091078, "lat": 33.1886712, "lon": 43.8321372, "tags": {"alt_name": "\u0642\u0631\u064a\u0629 \u0627\u0644\u0639\u0646\u0643\u0648\u0631", "int_name": "Qaryat al Ank\u016br, \u0642\u0631\u064a\u0629 \u0627\u0644\u0639\u0646\u06a9\u0648\u0631, Qaryat al Ankur, \u0642\u0631\u064a\u0629 \u0627\u0644\u0639\u0646\u06a9\u0648\u0631", "name": "\u0642\u0631\u064a\u0629 \u0627\u0644\u0639\u0646\u0643\u0648\u0631", "name:ar": "\u0642\u0631\u064a\u0629 \u0627\u0644\u0639\u0646\u0643\u0648\u0631", "name:ar1": "\u0642\u0631\u064a\u0629 \u0627\u0644\u0639\u0646\u0643\u0648\u0631", "name:de": "Qaryat al Ankur", "name:en": "Qaryat al Ankur", "name:fr": "Qaryat al Ankur", "place": "village"}}, {"type": "node", "id": 2480091093, "lat": 33.1826309, "lon": 43.9246971, "tags": {"alt_name": "\u0642\u0631\u064a\u0629 \u062a\u0644 \u0639\u0637\u0627\u0633", "int_name": "Qaryat Tall A\u0163\u0101s, \u0642\u0631\u064a\u0629 \u062a\u0644 \u0639\u0637\u0627\u0633, Qaryat Tall Atas, \u0642\u0631\u064a\u0629 \u062a\u0644 \u0639\u0637\u0627\u0633", "name": "\u0642\u0631\u064a\u0629 \u062a\u0644 \u0639\u0637\u0627\u0633", "name:ar": "\u0642\u0631\u064a\u0629 \u062a\u0644 \u0639\u0637\u0627\u0633", "name:ar1": "\u0642\u0631\u064a\u0629 \u062a\u0644 \u0639\u0637\u0627\u0633", "name:de": "Qaryat Tall Atas", "name:en": "Qaryat Tall Atas", "name:fr": "Qaryat Tall Atas", "place": "village"}}, {"type": "node", "id": 2480091097, "lat": 33.1767512, "lon": 43.9049877, "tags": {"alt_name": "\u0642\u0631\u064a\u0629 \u0627\u0644\u0645\u0646\u0627\u0635\u064a\u0631", "int_name": "Qaryat al Man\u0101\u015f\u012br, \u0642\u0631\u064a\u0629 \u0627\u0644\u0645\u0646\u0627\u0635\u064a\u0631, Qaryat al Manasir, \u0642\u0631\u064a\u0629 \u0627\u0644\u0645\u0646\u0627\u0635\u064a\u0631", "name": "\u0642\u0631\u064a\u0629 \u0627\u0644\u0645\u0646\u0627\u0635\u064a\u0631", "name:ar": "\u0642\u0631\u064a\u0629 \u0627\u0644\u0645\u0646\u0627\u0635\u064a\u0631 \u0627\u0644\u0628\u0645\u0637\u0631", "name:ar1": "\u0642\u0631\u064a\u0629 \u0627\u0644\u0645\u0646\u0627\u0635\u064a\u0631", "name:de": "Qaryat al Manasir", "name:en": "Qaryat al Manasir", "name:fr": "Qaryat al Manasir", "place": "village"}}, {"type": "node", "id": 2480091181, "lat": 33.1403751, "lon": 43.9599691, "tags": {"alt_name": "\u0642\u0631\u064a\u0629 \u0627\u0644\u0639\u062c\u064a\u0632 \u0627\u0644\u063a\u0631\u0628\u064a", "int_name": "Qaryat al Ujayz al Gharb\u012b, \u0642\u0631\u064a\u0629 \u0627\u0644\u0639\u062c\u064a\u0632 \u0627\u0644\u063a\u0631\u0628\u064a, Qaryat al Ujayz al Gharbi, \u0642\u0631\u064a\u0629 \u0627\u0644\u0639\u062c\u064a\u0632 \u0627\u0644\u063a\u0631\u0628\u064a", "name": "\u0642\u0631\u064a\u0629 \u0627\u0644\u0639\u062c\u064a\u0632 \u0627\u0644\u063a\u0631\u0628\u064a", "name:ar": "\u0642\u0631\u064a\u0629 \u0627\u0644\u0639\u062c\u064a\u0632 \u0627\u0644\u063a\u0631\u0628\u064a", "name:ar1": "\u0642\u0631\u064a\u0629 \u0627\u0644\u0639\u062c\u064a\u0632 \u0627\u0644\u063a\u0631\u0628\u064a", "name:de": "Qaryat al Ujayz al Gharbi", "name:en": "Qaryat al Ujayz al Gharbi", "name:fr": "Qaryat al Ujayz al Gharbi", "place": "village"}}, {"type": "node", "id": 2480091195, "lat": 33.0979687, "lon": 43.8375044, "tags": {"alt_name": "\u0641\u0648\u0627\u0632 \u0627\u0644\u062f\u0627\u0648\u062f", "int_name": "\u0641\u0648\u0627\u0632 \u0627\u0644\u062f\u0627\u0648\u062f, \u0641\u0648\u0627\u0632 \u0627\u0644\u062f\u0627\u0648\u062f", "is_in": "Iraq , \u062c\u0645\u0647\u0648\u0631\u064a\u0629 \u0627\u0644\u0639\u0631\u0627\u0642", "name": "\u0641\u0648\u0627\u0632 \u0627\u0644\u062f\u0627\u0648\u062f", "name:ar": "\u0641\u0648\u0627\u0632 \u0627\u0644\u062f\u0627\u0648\u062f", "name:ar1": "\u0641\u0648\u0627\u0632 \u0627\u0644\u062f\u0627\u0648\u062f", "place": "village"}}, {"type": "node", "id": 2485169004, "lat": 33.377222, "lon": 43.628333, "tags": {"alt_name": "\u0623\u0647\u0648\u064a\u0648\u064a", "int_name": "Ahwaiwi, Ahwaiwi", "name": "\u0623\u0647\u0648\u064a\u0648\u064a", "name:ar": "\u0641\u0644\u0627\u062d\u0627\u062a \u0627\u0644\u0628\u0648 \u062c\u062f\u0627\u062d", "name:ar1": "\u0623\u0647\u0648\u064a\u0648\u064a", "name:de": "Ahwaiwi", "name:en": "Ahwaiwi", "name:fr": "Ahwaiwi", "place": "village"}}, {"type": "node", "id": 2485169006, "lat": 33.3654776, "lon": 43.6329789, "tags": {"alt_name": "\u0639\u0644\u0627\u0648\u064a \u0639\u0628\u062f \u0627\u0644\u062e\u0644\u0641", "int_name": "Al\u0101w\u012b Abd al Khalaf, Aliw\u012b Abd al Khalaf, Ulaiwa Abd al Khalaf, Alawi Abd al Khalaf, Aliwi Abd al Khalaf, Ulaiwa Abd al Khalaf", "name": "\u0639\u0644\u0627\u0648\u064a \u0639\u0628\u062f \u0627\u0644\u062e\u0644\u0641", "name:ar": "\u0639\u0644\u0627\u0648\u064a \u0639\u0628\u062f \u0627\u0644\u062e\u0644\u0641", "name:ar1": "\u0639\u0644\u0627\u0648\u064a \u0639\u0628\u062f \u0627\u0644\u062e\u0644\u0641", "name:de": "Alawi Abd al Khalaf", "name:en": "Alawi Abd al Khalaf", "name:fr": "Alawi Abd al Khalaf", "place": "village"}}, {"type": "node", "id": 2485169011, "lat": 33.3644186, "lon": 43.6355597, "tags": {"alt_name": "\u0645\u062d\u0645\u062f \u0627\u0644\u0639\u0644\u0627\u0648\u064a", "int_name": "Mu\u1e29ammad al Al\u0101w\u012b, Muhammad al Alawi", "name": "\u0645\u062d\u0645\u062f \u0627\u0644\u0639\u0644\u0627\u0648\u064a", "name:ar": "\u0645\u062d\u0645\u062f \u0627\u0644\u0639\u0644\u0627\u0648\u064a", "name:ar1": "\u0645\u062d\u0645\u062f \u0627\u0644\u0639\u0644\u0627\u0648\u064a", "name:de": "Muhammad al Alawi", "name:en": "Muhammad al Alawi", "name:fr": "Muhammad al Alawi", "place": "village"}}, {"type": "node", "id": 2486307544, "lat": 33.430219, "lon": 44.009817, "tags": {"alt_name": "\u0628\u0643\u0631 \u0641\u064a\u0627\u0636", "int_name": "Bakr Fayy\u0101\u1e11, Bakr Fayyad", "name": "\u0628\u0643\u0631 \u0641\u064a\u0627\u0636", "name:ar": "\u0627\u0644\u0641\u0631\u0627\u0631\u0629", "name:ar1": "\u0628\u0643\u0631 \u0641\u064a\u0627\u0636", "name:de": "Bakr Fayyad", "name:en": "Bakr Fayyad", "name:fr": "Bakr Fayyad", "place": "village"}}, {"type": "node", "id": 2486307662, "lat": 33.4487235, "lon": 43.9843542, "tags": {"alt_name": "\u062d\u0633\u0646 \u0627\u0644\u0644\u0627\u062c\u064a", "int_name": "Hasan al Lacha, Hasan al L\u0101chih, \u1e28asan al L\u0101j\u012b, Hasan al Lacha, Hasan al Lachih, Hasan al Laji", "name": "\u062d\u0633\u0646 \u0627\u0644\u0644\u0627\u062c\u064a", "name:ar": "\u062d\u0633\u0646 \u0627\u0644\u0644\u0627\u062c\u064a", "name:ar1": "\u062d\u0633\u0646 \u0627\u0644\u0644\u0627\u062c\u064a", "name:de": "Hasan al Lacha", "name:en": "Hasan al Lacha", "name:fr": "Hasan al Lacha", "place": "village"}}, {"type": "node", "id": 2486308038, "lat": 33.4, "lon": 43.9, "tags": {"alt_name": "\u0645\u062d\u0645\u062f \u0627\u0644\u0639\u0628\u0627\u0633", "int_name": "Mohammad al Abb\u0101s, Mu\u1e29ammad al Abb\u0101s, Mohammad al Abbas, Muhammad al Abbas", "name": "\u0645\u062d\u0645\u062f \u0627\u0644\u0639\u0628\u0627\u0633", "name:ar": "\u0627\u062c\u0645\u064a\u0644\u0629 \u0645\u062d\u0645\u062f \u0627\u0644\u0639\u0628\u0627\u0633", "name:ar1": "\u0645\u062d\u0645\u062f \u0627\u0644\u0639\u0628\u0627\u0633", "name:de": "Mohammad al Abbas", "name:en": "Mohammad al Abbas", "name:fr": "Mohammad al Abbas", "place": "village"}}, {"type": "node", "id": 2486308940, "lat": 33.3857537, "lon": 43.9105215, "tags": {"alt_name": "\u0642\u0631\u064a\u0629 \u0627\u0644\u0634\u0647\u0627\u0628\u064a \u0627\u0644\u0627\u0648\u0644\u0649", "int_name": "\u0642\u0631\u064a\u0629 \u0627\u0644\u0634\u0647\u0627\u0628\u064a \u0627\u0644\u0627\u0648\u0644\u0649, \u0642\u0631\u064a\u0629 \u0627\u0644\u0634\u0647\u0627\u0628\u064a \u0627\u0644\u0627\u0648\u0644\u0649", "name": "\u0642\u0631\u064a\u0629 \u0627\u0644\u0634\u0647\u0627\u0628\u064a \u0627\u0644\u0627\u0648\u0644\u0649", "name:ar": "\u0642\u0631\u064a\u0629 \u0627\u0644\u0634\u0647\u0627\u0628\u064a \u0627\u0644\u0627\u0648\u0644\u0649", "name:ar1": "\u0642\u0631\u064a\u0629 \u0627\u0644\u0634\u0647\u0627\u0628\u064a \u0627\u0644\u0627\u0648\u0644\u0649", "name:de": "\u0642\u0631\u064a\u0629 \u0627\u0644\u0634\u0647\u0627\u0628\u064a \u0627\u0644\u0627\u0648\u0644\u0649", "name:en": "Shehabi First Village", "name:fr": "\u0642\u0631\u064a\u0629 \u0627\u0644\u0634\u0647\u0627\u0628\u064a \u0627\u0644\u0627\u0648\u0644\u0649", "place": "village"}}, {"type": "node", "id": 2486313912, "lat": 33.439282, "lon": 43.86464, "tags": {"alt_name": "\u0642\u0631\u064a\u0629 \u0622\u0644 \u0628\u0648 \u062d\u0627\u0633\u0645", "int_name": "Qaryat \u0100lb\u016b \u1e28\u0101sim, \u0642\u0631\u064a\u0629 \u0627\u0644\u0628\u0648 \u062d\u0627\u0633\u0645, Qaryat Albu Hasim, \u0642\u0631\u064a\u0629 \u0627\u0644\u0628\u0648 \u062d\u0627\u0633\u0645", "name": "\u0642\u0631\u064a\u0629 \u0622\u0644 \u0628\u0648 \u062d\u0627\u0633\u0645", "name:ar": "\u0642\u0631\u064a\u0629 \u0622\u0644 \u0628\u0648 \u062d\u0627\u0633\u0645", "name:ar1": "\u0642\u0631\u064a\u0629 \u0622\u0644 \u0628\u0648 \u062d\u0627\u0633\u0645", "name:de": "Qaryat Albu Hasim", "name:en": "Qaryat Albu Jasim", "name:fr": "Qaryat Albu Hasim", "place": "village"}}, {"type": "node", "id": 2486313951, "lat": 33.432734, "lon": 43.837948, "tags": {"alt_name": "\u0642\u0631\u064a\u0629 \u0627\u0644\u062f\u0648\u0627\u0628\u0629", "int_name": "Qaryat ad Daw\u0101bah, \u0642\u0631\u064a\u0629 \u0627\u0644\u062f\u0648\u0627\u0628\u0629, Qaryat ad Dawabah, \u0642\u0631\u064a\u0629 \u0627\u0644\u062f\u0648\u0627\u0628\u0629", "name": "\u0642\u0631\u064a\u0629 \u0627\u0644\u062f\u0648\u0627\u0628\u0629", "name:ar": "\u0642\u0631\u064a\u0629 \u0627\u0644\u062f\u0648\u0627\u064a\u0629", "name:ar1": "\u0642\u0631\u064a\u0629 \u0627\u0644\u062f\u0648\u0627\u0628\u0629", "name:de": "Qaryat ad Dawabah", "name:en": "Qaryat ad Dawabah", "name:fr": "Qaryat ad Dawabah", "place": "village"}}, {"type": "node", "id": 2486313978, "lat": 33.4044561, "lon": 43.8516309, "tags": {"alt_name": "\u0642\u0631\u064a\u0629 \u0627\u0644\u0644\u064a\u0641\u064a\u0629", "int_name": "Qaryat al L\u012bf\u012byah, \u0642\u0631\u064a\u0629 \u0627\u0644\u0644\u064a\u0641\u064a\u0629, Qaryat al Lifiyah, \u0642\u0631\u064a\u0629 \u0627\u0644\u0644\u064a\u0641\u064a\u0629", "name": "\u0642\u0631\u064a\u0629 \u0627\u0644\u0644\u064a\u0641\u064a\u0629", "name:ar": "\u0642\u0631\u064a\u0629 \u0627\u0644\u0644\u064a\u0641\u064a\u0629", "name:ar1": "\u0642\u0631\u064a\u0629 \u0627\u0644\u0644\u064a\u0641\u064a\u0629", "name:de": "Qaryat al Lifiyah", "name:en": "Qaryat al Lifiyah", "name:fr": "Qaryat al Lifiyah", "place": "village"}}, {"type": "node", "id": 2486316008, "lat": 33.4134611, "lon": 43.8534488, "tags": {"alt_name": "\u0642\u0631\u064a\u0629 \u0622\u0644 \u0628\u0648 \u0639\u0648\u062f\u0629", "int_name": "Qaryat \u0100lb\u016b Awdah, \u0642\u0631\u064a\u0629 \u0627\u0644\u0628\u0648 \u0639\u0648\u062f\u0647, Qaryat Albu Awdah, \u0642\u0631\u064a\u0629 \u0627\u0644\u0628\u0648 \u0639\u0648\u062f\u0647", "name": "\u0642\u0631\u064a\u0629 \u0622\u0644 \u0628\u0648 \u0639\u0648\u062f\u0629", "name:ar": "\u0642\u0631\u064a\u0629 \u0622\u0644 \u0628\u0648 \u0639\u0648\u062f\u0629", "name:ar1": "\u0642\u0631\u064a\u0629 \u0622\u0644 \u0628\u0648 \u0639\u0648\u062f\u0629", "name:de": "Qaryat Albu Awdah", "name:en": "Qaryat Albu Awdah", "name:fr": "Qaryat Albu Awdah", "place": "village"}}, {"type": "node", "id": 2486318354, "lat": 33.395757, "lon": 43.682886, "tags": {"alt_name": "\u0646\u0627\u062d\u064a\u0629 \u0627\u0644\u0635\u0642\u0644\u0627\u0648\u064a\u0629", "int_name": "A\u015f \u015eaql\u0101w\u012byah, N\u0101\u1e29iyat a\u015f \u015eaql\u0101w\u012byah, \u0627\u0644\u0635\u0642\u0644\u0627\u0648\u064a\u0629, \u0646\u0627\u062d\u064a\u0629 \u0627\u0644\u0635\u0642\u0644\u0627\u0648\u064a\u0629, As Saqlawiyah, Nahiyat as Saqlawiyah, \u0627\u0644\u0635\u0642\u0644\u0627\u0648\u064a\u0629, \u0646\u0627\u062d\u064a\u0629 \u0627\u0644\u0635\u0642\u0644\u0627\u0648\u064a\u0629", "name": "\u0627\u0644\u0641\u0644\u0648\u062c\u0647", "name:ar": "\u0646\u0627\u062d\u064a\u0629 \u0627\u0644\u0635\u0642\u0644\u0627\u0648\u064a\u0629", "name:ar1": "\u0646\u0627\u062d\u064a\u0629 \u0627\u0644\u0635\u0642\u0644\u0627\u0648\u064a\u0629", "name:de": "As Saqlawiyah", "name:en": "As Saqlawiyah", "name:fr": "As Saqlawiyah", "place": "village"}}, {"type": "node", "id": 2486318357, "lat": 33.396389, "lon": 43.683333, "tags": {"alt_name": "\u0627\u0644\u0635\u0642\u0644\u0627\u0648\u064a\u0629", "capital": "7", "int_name": "Al Saqlawiyah - \u0627\u0644\u0635\u0642\u0644\u0627\u0648\u064a\u0629", "name": "\u0627\u0644\u0635\u0642\u0644\u0627\u0648\u064a\u0629", "name:ar": "\u0627\u0644\u0635\u0642\u0644\u0627\u0648\u064a\u0629", "name:de": "As Saqlawiyah", "name:en": "As Saqlawiyah", "name:fr": "As Saqlawiyah", "name:ko": "\uc557 \uc0ac\ub04c\ub77c\uc704\uc57c", "place": "town", "wikidata": "Q3950238", "wikipedia": "en:Saqlawiyah"}}, {"type": "node", "id": 2486319088, "lat": 33.284722, "lon": 43.989722, "tags": {"alt_name": "\u0623\u0628\u0648 \u063a\u0631\u064a\u0628", "int_name": "Abu Gharaib, Ab\u016b Ghurayb, Abu Gharaib, Abu Ghurayb", "name": "\u0623\u0628\u0648 \u063a\u0631\u064a\u0628", "name:ar": "\u0623\u0628\u0648 \u063a\u0631\u064a\u0628", "name:ar1": "\u0623\u0628\u0648 \u063a\u0631\u064a\u0628", "name:de": "Abu Gharaib", "name:en": "Abu Gharaib", "name:fr": "Abu Gharaib", "name:ku": "\u0627\u0644\u0632\u064a\u062a\u0648\u0646", "place": "village"}}, {"type": "node", "id": 2486319091, "lat": 33.2445147, "lon": 43.8516445, "tags": {"alt_name": "\u0639\u0631\u0628 \u0646\u0648\u0631\u064a", "int_name": "Arab N\u016br\u012b, \u0639\u0631\u0628 \u0646\u0648\u0631\u064a, Arab Nuri, \u0639\u0631\u0628 \u0646\u0648\u0631\u064a", "name": "\u0639\u0631\u0628 \u0646\u0648\u0631\u064a", "name:ar": "\u0639\u0631\u0628 \u0646\u0648\u0631\u064a", "name:ar1": "\u0639\u0631\u0628 \u0646\u0648\u0631\u064a", "name:de": "Arab Nuri", "name:en": "Arab Nuri", "name:fr": "Arab Nuri", "place": "village"}}, {"type": "node", "id": 2486319097, "lat": 33.2633035, "lon": 43.8472033, "tags": {"alt_name": "\u0639\u0631\u0628 \u0627\u0644\u0634\u064a\u062a\u064a", "int_name": "Arab ash Sh\u012bt\u012b, \u0639\u0631\u0628 \u0627\u0644\u0634\u064a\u062a\u064a, Arab ash Shiti, \u0639\u0631\u0628 \u0627\u0644\u0634\u064a\u062a\u064a", "name": "\u0639\u0631\u0628 \u0627\u0644\u0634\u064a\u062a\u064a", "name:ar": "\u0639\u0631\u0628 \u0627\u0644\u0634\u064a\u062a\u064a", "name:ar1": "\u0639\u0631\u0628 \u0627\u0644\u0634\u064a\u062a\u064a", "name:de": "Arab ash Shiti", "name:en": "Arab ash Shiti", "name:fr": "Arab ash Shiti", "place": "village"}}, {"type": "node", "id": 2486319107, "lat": 33.2463672, "lon": 43.8743252, "tags": {"alt_name": "\u062d\u0633\u064a\u0646 \u064a\u0648\u0633\u0641", "int_name": "\u1e28usayn Y\u016bsif, \u1e28usayn Y\u016bsuf, \u062d\u0633\u064a\u0646 \u064a\u0648\u0633\u0641, Husayn Yusif, Husayn Yusuf, \u062d\u0633\u064a\u0646 \u064a\u0648\u0633\u0641", "name": "\u062d\u0633\u064a\u0646 \u064a\u0648\u0633\u0641", "name:ar": "\u062d\u0633\u064a\u0646 \u064a\u0648\u0633\u0641", "name:ar1": "\u062d\u0633\u064a\u0646 \u064a\u0648\u0633\u0641", "name:de": "Husayn Yusif", "name:en": "Husayn Yusif", "name:fr": "Husayn Yusif", "place": "village"}}, {"type": "node", "id": 2486319198, "lat": 33.1734674, "lon": 43.9837857, "tags": {"alt_name": "\u0642\u0644\u0639\u0629 \u0627\u0644\u0633\u0627\u062f\u0629", "int_name": "Qala as S\u0101da, Qalat as S\u0101da, Qalat as S\u0101dah, Ridhw\u0101n\u012bya, Qala as Sada, Qalat as Sada, Qalat as Sadah, Ridhwaniya", "name": "\u0642\u0644\u0639\u0629 \u0627\u0644\u0633\u0627\u062f\u0629", "name:ar": "\u0642\u0644\u0639\u0629 \u0627\u0644\u0633\u0627\u062f\u0629", "name:ar1": "\u0642\u0644\u0639\u0629 \u0627\u0644\u0633\u0627\u062f\u0629", "name:de": "Qala as Sada", "name:en": "Qala as Sada", "name:fr": "Qala as Sada", "place": "village"}}, {"type": "node", "id": 2486319309, "lat": 33.2500373, "lon": 43.8396824, "tags": {"alt_name": "\u0642\u0631\u064a\u0629 \u062a\u0644 \u0627\u0644\u0633\u0644\u0637\u0627\u0646", "int_name": "Qaryat Tall as Sul\u0163\u0101n, \u0642\u0631\u064a\u0629 \u062a\u0644 \u0627\u0644\u0633\u0644\u0637\u0627\u0646, Qaryat Tall as Sultan, \u0642\u0631\u064a\u0629 \u062a\u0644 \u0627\u0644\u0633\u0644\u0637\u0627\u0646", "name": "\u0642\u0631\u064a\u0629 \u062a\u0644 \u0627\u0644\u0633\u0644\u0637\u0627\u0646", "name:ar": "\u0642\u0631\u064a\u0629 \u062a\u0644 \u0627\u0644\u0633\u0644\u0637\u0627\u0646", "name:ar1": "\u0642\u0631\u064a\u0629 \u062a\u0644 \u0627\u0644\u0633\u0644\u0637\u0627\u0646", "name:de": "Qaryat Tall as Sultan", "name:en": "Qaryat Tall as Sultan", "name:fr": "Qaryat Tall as Sultan", "place": "village"}}, {"type": "node", "id": 2486319371, "lat": 33.1941453, "lon": 43.9966654, "tags": {"alt_name": "\u0642\u0631\u064a\u0629 \u0627\u0644\u0643\u0633\u0627\u0631", "int_name": "Qaryat al Kas\u0101r, \u0642\u0631\u064a\u0629 \u0627\u0644\u06a9\u0633\u0627\u0631, Qaryat al Kasar, \u0642\u0631\u064a\u0629 \u0627\u0644\u06a9\u0633\u0627\u0631", "name": "\u0642\u0631\u064a\u0629 \u0627\u0644\u0643\u0633\u0627\u0631", "name:ar": "\u0642\u0631\u064a\u0629 \u0627\u0644\u0643\u0633\u0627\u0631", "name:ar1": "\u0642\u0631\u064a\u0629 \u0627\u0644\u0643\u0633\u0627\u0631", "name:de": "Qaryat al Kasar", "name:en": "Qaryat al Kasar", "name:fr": "Qaryat al Kasar", "place": "village"}}, {"type": "node", "id": 2486319372, "lat": 33.2259728, "lon": 43.8544537, "tags": {"alt_name": "\u0642\u0631\u064a\u0629 \u0627\u0644\u062e\u0636\u0631", "int_name": "Qaryat al Kha\u1e11r, \u0642\u0631\u064a\u0629 \u0627\u0644\u062e\u0636\u0631, Qaryat al Khadr, \u0642\u0631\u064a\u0629 \u0627\u0644\u062e\u0636\u0631", "name": "\u0642\u0631\u064a\u0629 \u0627\u0644\u062e\u0636\u064a\u0631", "name:ar": "\u0642\u0631\u064a\u0629 \u0627\u0644\u062e\u0636\u0631", "name:ar1": "\u0642\u0631\u064a\u0629 \u0627\u0644\u062e\u0636\u0631", "name:de": "Qaryat al Khadr", "name:en": "Qaryat al Khadr", "name:fr": "Qaryat al Khadr", "place": "village"}}, {"type": "node", "id": 2486319376, "lat": 33.1486264, "lon": 43.955432, "tags": {"alt_name": "\u0642\u0631\u064a\u0629 \u0627\u0644\u0645\u0648\u064a\u0644\u062d\u0629", "int_name": "Qaryat al Muwayla\u1e29ah, \u0642\u0631\u064a\u0629 \u0627\u0644\u0645\u0648\u064a\u0644\u062d\u0629, Qaryat al Muwaylahah, \u0642\u0631\u064a\u0629 \u0627\u0644\u0645\u0648\u064a\u0644\u062d\u0629", "name": "\u0642\u0631\u064a\u0629 \u0627\u0644\u0645\u0648\u064a\u0644\u062d\u0629", "name:ar": "\u0642\u0631\u064a\u0629 \u0627\u0644\u0645\u0648\u064a\u0644\u062d\u0629", "name:ar1": "\u0642\u0631\u064a\u0629 \u0627\u0644\u0645\u0648\u064a\u0644\u062d\u0629", "name:de": "Qaryat al Muwaylahah", "name:en": "Qaryat al Muwaylahah", "name:fr": "Qaryat al Muwaylahah", "place": "village"}}, {"type": "node", "id": 2486319380, "lat": 33.2161663, "lon": 43.8875227, "tags": {"alt_name": "\u0642\u0631\u064a\u0629 \u0627\u0644\u0633\u0639\u062f\u0627\u0646", "int_name": "Qaryat as Sad\u0101n, \u0642\u0631\u064a\u0629 \u0627\u0644\u0633\u0639\u062f\u0627\u0646, Qaryat as Sadan, \u0642\u0631\u064a\u0629 \u0627\u0644\u0633\u0639\u062f\u0627\u0646", "name": "\u0642\u0631\u064a\u0629 \u0627\u0644\u0633\u0639\u062f\u0627\u0646", "name:ar": "\u0642\u0631\u064a\u0629 \u0627\u0644\u0633\u0639\u062f\u0627\u0646", "name:ar1": "\u0642\u0631\u064a\u0629 \u0627\u0644\u0633\u0639\u062f\u0627\u0646", "name:de": "Qaryat as Sadan", "name:en": "Qaryat as Sadan", "name:fr": "Qaryat as Sadan", "place": "village"}}, {"type": "node", "id": 2486319382, "lat": 33.256472, "lon": 43.8748002, "tags": {"alt_name": "\u0642\u0631\u064a\u0629 \u0627\u0644\u0633\u0639\u062f\u0627\u0646", "int_name": "Qaryat as Sad\u0101n, \u0642\u0631\u064a\u0629 \u0627\u0644\u0633\u0639\u062f\u0627\u0646, Qaryat as Sadan, \u0642\u0631\u064a\u0629 \u0627\u0644\u0633\u0639\u062f\u0627\u0646", "name": "\u0642\u0631\u064a\u0629 \u0627\u0644\u0633\u0639\u062f\u0627\u0646", "name:ar": "\u0642\u0631\u064a\u0629 \u0627\u0644\u0633\u0639\u062f\u0627\u0646", "name:ar1": "\u0642\u0631\u064a\u0629 \u0627\u0644\u0633\u0639\u062f\u0627\u0646", "name:de": "Qaryat as Sadan", "name:en": "Qaryat as Sadan", "name:fr": "Qaryat as Sadan", "place": "village"}}, {"type": "node", "id": 2486319391, "lat": 33.2257818, "lon": 43.9107903, "tags": {"alt_name": "\u0639\u0631\u0643\u0648\u0628 \u0627\u0644\u062f\u0648\u0627\u0631", "int_name": "Urk\u016bb ad Duww\u0101r, \u0639\u0631\u06a9\u0648\u0628 \u0627\u0644\u062f\u0648\u0627\u0631, Urkub ad Duwwar, \u0639\u0631\u06a9\u0648\u0628 \u0627\u0644\u062f\u0648\u0627\u0631", "name": "\u0639\u0631\u0643\u0648\u0628 \u0627\u0644\u062f\u0648\u0627\u0631", "name:ar": "\u0639\u0631\u0643\u0648\u0628 \u0627\u0644\u062f\u0648\u0627\u0631", "name:ar1": "\u0639\u0631\u0643\u0648\u0628 \u0627\u0644\u062f\u0648\u0627\u0631", "name:de": "Urkub ad Duwwar", "name:en": "Urkub ad Duwwar", "name:fr": "Urkub ad Duwwar", "place": "village"}}, {"type": "node", "id": 2486321601, "lat": 33.2600184, "lon": 43.800428, "tags": {"alt_name": "\u0642\u0631\u064a\u0629 \u0627\u0644\u062d\u0642\u064a", "int_name": "Qaryat al \u1e28aq\u012b, Qaryat al Haqi", "name": "\u0642\u0631\u064a\u0629 \u0627\u0644\u062d\u0642\u064a", "name:ar": "\u0642\u0631\u064a\u0629 \u0627\u0644\u062d\u0642\u064a", "name:ar1": "\u0642\u0631\u064a\u0629 \u0627\u0644\u062d\u0642\u064a", "name:de": "Qaryat al Haqi", "name:en": "Qaryat al Haqi", "name:fr": "Qaryat al Haqi", "place": "village"}}, {"type": "node", "id": 2486321604, "lat": 33.296043, "lon": 43.7529282, "tags": {"alt_name": "\u0642\u0631\u064a\u0629 \u0627\u0644\u062d\u0635\u0649", "int_name": "Qaryat al \u1e28a\u015f\u00e1, QaryatalHasy, \u0642\u0631\u064a\u0629 \u0627\u0644\u062d\u0635\u0649, Qaryat al Hasa, QaryatalHasy, \u0642\u0631\u064a\u0629 \u0627\u0644\u062d\u0635\u0649", "name": "\u0642\u0631\u064a\u0629 \u0627\u0644\u062d\u0635\u0649", "name:ar": "\u0642\u0631\u064a\u0629 \u0627\u0644\u062d\u0635\u0649", "name:ar1": "\u0642\u0631\u064a\u0629 \u0627\u0644\u062d\u0635\u0649", "name:de": "Qaryat al Hasa", "name:en": "Qaryat al Hasa", "name:fr": "Qaryat al Hasa", "place": "village"}}, {"type": "node", "id": 2486321605, "lat": 33.3129124, "lon": 43.6737517, "tags": {"alt_name": "\u0642\u0631\u064a\u0629 \u0627\u0644\u062c\u0641\u0629", "int_name": "Qaryat al Jaffah, \u0642\u0631\u064a\u0629 \u0627\u0644\u062c\u0641\u0629, Qaryat al Jaffah, \u0642\u0631\u064a\u0629 \u0627\u0644\u062c\u0641\u0629", "name": "\u0642\u0631\u064a\u0629 \u0627\u0644\u062c\u0641\u0629", "name:ar": "\u0642\u0631\u064a\u0629 \u0627\u0644\u062c\u0641\u0629", "name:ar1": "\u0642\u0631\u064a\u0629 \u0627\u0644\u062c\u0641\u0629", "name:de": "Qaryat al Jaffah", "name:en": "Qaryat al Jaffah", "name:fr": "Qaryat al Jaffah", "place": "village"}}, {"type": "node", "id": 2486321823, "lat": 33.359834, "lon": 43.763408, "tags": {"alt_name": "\u0627\u0644\u062d\u0635\u0648\u0629", "int_name": "Al \u1e28a\u015fwah, \u0627\u0644\u062d\u0635\u0648\u0629, Al Haswah, \u0627\u0644\u062d\u0635\u0648\u0629", "name": "\u0627\u0644\u062d\u0635\u0648\u0629", "name:ar": "\u0627\u0644\u062c\u0648\u0644\u0627\u0646", "name:ar1": "\u0627\u0644\u062d\u0635\u0648\u0629", "name:de": "Al Haswah", "name:en": "Al Haswah", "name:fr": "Al Haswah", "place": "hamlet"}}, {"type": "node", "id": 2486321831, "lat": 33.339532, "lon": 43.7531651, "tags": {"alt_name": "\u062d\u0645\u064a\u062f \u0643\u0646\u0646\u0627", "int_name": "Ham\u012bd Kann\u0101, Hamid Kanna", "name": "\u062d\u0645\u064a\u062f \u0643\u0646\u0646\u0627", "name:ar": "\u062d\u0645\u064a\u062f \u0643\u0646\u0646\u0627", "name:ar1": "\u062d\u0645\u064a\u062f \u0643\u0646\u0646\u0627", "name:de": "Hamid Kanna", "name:en": "Hamid Kanna", "name:fr": "Hamid Kanna", "place": "village"}}, {"type": "node", "id": 2486321832, "lat": 33.3454808, "lon": 43.7836671, "tags": {"alt_name": "\u062d\u064a \u0646\u0632\u0627\u0644", "int_name": "\u1e28ayy Nazz\u0101l, \u062d\u064a \u0646\u0632\u0627\u0644, Hayy Nazzal, \u062d\u064a \u0646\u0632\u0627\u0644", "name": "\u062d\u064a \u0646\u0632\u0627\u0644", "name:ar": "\u062d\u064a \u0646\u0632\u0627\u0644", "name:ar1": "\u062d\u064a \u0646\u0632\u0627\u0644", "name:de": "Hayy Nazzal", "name:en": "Hayy Nazzal", "name:fr": "Hayy Nazzal", "place": "hamlet"}}, {"type": "node", "id": 2486321833, "lat": 33.364932, "lon": 43.766953, "tags": {"alt_name": "\u062d\u064a \u0646\u0648\u0627\u0628 \u0627\u0644\u0636\u0628\u0627\u0637", "int_name": "\u1e28ayy Nuww\u0101b a\u1e11 \u1e10ubb\u0101\u0163, \u062d\u064a \u0646\u0648\u0627\u0628 \u0627\u0644\u0636\u0628\u0627\u0637, Hayy Nuwwab ad Dubbat, \u062d\u064a \u0646\u0648\u0627\u0628 \u0627\u0644\u0636\u0628\u0627\u0637", "name": "\u062d\u064a \u0646\u0648\u0627\u0628 \u0627\u0644\u0636\u0628\u0627\u0637", "name:ar": "\u062d\u064a \u0627\u0644\u0632\u0647\u0648\u0631", "name:ar1": "\u062d\u064a \u0646\u0648\u0627\u0628 \u0627\u0644\u0636\u0628\u0627\u0637", "name:de": "Hayy Nuwwab ad Dubbat", "name:en": "Hayy al Zuhur", "name:fr": "Hayy Nuwwab ad Dubbat", "place": "hamlet"}}, {"type": "node", "id": 2486321840, "lat": 33.361462, "lon": 43.80668, "tags": {"alt_name": "\u062d\u064a \u0627\u0644\u0636\u0628\u0627\u0637 \u0627\u0644\u062b\u0627\u0646\u064a\u0629", "int_name": "\u1e28ayy a\u1e11 \u1e10ubb\u0101\u0163 ath Th\u0101niyah, \u062d\u064a \u0627\u0644\u0636\u0628\u0627\u0637 \u0627\u0644\u062b\u0627\u0646\u064a\u0629, Hayy ad Dubbat ath Thaniyah, \u062d\u064a \u0627\u0644\u0636\u0628\u0627\u0637 \u0627\u0644\u062b\u0627\u0646\u064a\u0629", "name": "\u062d\u064a \u0627\u0644\u0636\u0628\u0627\u0637 \u0627\u0644\u062b\u0627\u0646\u064a\u0629", "name:ar": "\u0627\u0644\u0639\u0633\u0643\u0631\u064a", "name:ar1": "\u062d\u064a \u0627\u0644\u0636\u0628\u0627\u0637 \u0627\u0644\u062b\u0627\u0646\u064a\u0629", "name:de": "Hayy ad Dubbat ath Thaniyah", "name:en": "Hayy ad Dubbat ath Thaniyah", "name:fr": "Hayy ad Dubbat ath Thaniyah", "place": "hamlet"}}, {"type": "node", "id": 2486321841, "lat": 33.342927, "lon": 43.773606, "tags": {"alt_name": "\u062d\u064a \u0627\u0644\u0628\u0639\u062b", "int_name": "\u1e28ayy al Bath, \u062d\u064a \u0627\u0644\u0628\u0639\u062b, Hayy al Bath, \u062d\u064a \u0627\u0644\u0628\u0639\u062b", "name": "\u062d\u064a \u0627\u0644\u0628\u0639\u062b", "name:ar": "\u062d\u064a \u0627\u0644\u0631\u0633\u0627\u0644\u0629", "name:ar1": "\u062d\u064a \u0627\u0644\u0628\u0639\u062b", "name:de": "Hayy al Bath", "name:en": "Hayy al Bath", "name:fr": "Hayy al Bath", "place": "hamlet"}}, {"type": "node", "id": 2486321842, "lat": 33.364723, "lon": 43.778887, "tags": {"alt_name": "\u062d\u064a \u0627\u0644\u0645\u0647\u0646\u062f\u0633\u064a\u0646", "int_name": "\u1e28ayy al Muhandis\u012bn, \u062d\u064a \u0627\u0644\u0645\u0647\u0646\u062f\u0633\u064a\u0646, Hayy al Muhandisin, \u062d\u064a \u0627\u0644\u0645\u0647\u0646\u062f\u0633\u064a\u0646", "name": "\u062d\u064a \u0627\u0644\u0645\u0647\u0646\u062f\u0633\u064a\u0646", "name:ar": "\u062d\u064a \u0627\u0644\u0645\u0639\u0644\u0645\u064a\u0646", "name:ar1": "\u062d\u064a \u0627\u0644\u0645\u0647\u0646\u062f\u0633\u064a\u0646", "name:de": "Hayy al Muhandisin", "name:en": "Hayy al Muhandisin", "name:fr": "Hayy al Muhandisin", "place": "hamlet"}}, {"type": "node", "id": 2486321855, "lat": 33.32787, "lon": 43.722692, "tags": {"alt_name": "\u0642\u0631\u064a\u0629 \u0622\u0644 \u0628\u0648 \u062d\u0627\u062a\u0645", "int_name": "Qaryat \u0100lb\u016b \u1e28\u0101tim, \u0642\u0631\u064a\u0629 \u0627\u0644\u0628\u0648 \u062d\u0627\u062a\u0645, Qaryat Albu Hatim, \u0642\u0631\u064a\u0629 \u0627\u0644\u0628\u0648 \u062d\u0627\u062a\u0645", "name": "\u0642\u0631\u064a\u0629 \u0622\u0644 \u0628\u0648 \u062d\u0627\u062a\u0645", "name:ar": "\u0642\u0631\u064a\u0629 \u0622\u0644 \u0628\u0648 \u062d\u0627\u062a\u0645", "name:ar1": "\u0642\u0631\u064a\u0629 \u0622\u0644 \u0628\u0648 \u062d\u0627\u062a\u0645", "name:de": "Qaryat Albu Hatim", "name:en": "Qaryat Albu Hatim", "name:fr": "Qaryat Albu Hatim", "place": "village"}}, {"type": "node", "id": 2486321857, "lat": 33.3372996, "lon": 43.7101698, "tags": {"alt_name": "\u0642\u0631\u064a\u0629 \u0627\u0644\u062d\u0644\u0627\u0628\u0633\u0629", "int_name": "Qaryat al \u1e28al\u0101bisah, \u0642\u0631\u064a\u0629 \u0627\u0644\u062d\u0644\u0627\u0628\u0633\u0629, Qaryat al Halabisah, \u0642\u0631\u064a\u0629 \u0627\u0644\u062d\u0644\u0627\u0628\u0633\u0629", "name": "\u0642\u0631\u064a\u0629 \u0627\u0644\u062d\u0644\u0627\u0628\u0633\u0629", "name:ar": "\u0642\u0631\u064a\u0629 \u0627\u0644\u062d\u0644\u0627\u0628\u0633\u0629", "name:ar1": "\u0642\u0631\u064a\u0629 \u0627\u0644\u062d\u0644\u0627\u0628\u0633\u0629", "name:de": "Qaryat al Halabisah", "name:en": "Qaryat al Halabisah", "name:fr": "Qaryat al Halabisah", "place": "village"}}, {"type": "node", "id": 2486321858, "lat": 33.3711104, "lon": 43.6800594, "tags": {"alt_name": "\u0642\u0631\u064a\u0629 \u0627\u0644\u0645\u062d\u0627\u0645\u062f\u0629", "int_name": "Qaryat al Ma\u1e29\u0101midah, \u0642\u0631\u064a\u0629 \u0627\u0644\u0645\u062d\u0627\u0645\u062f\u0647, Qaryat al Mahamidah, \u0642\u0631\u064a\u0629 \u0627\u0644\u0645\u062d\u0627\u0645\u062f\u0647", "name": "\u0642\u0631\u064a\u0629 \u0627\u0644\u0645\u062d\u0627\u0645\u062f\u0629", "name:ar": "\u0642\u0631\u064a\u0629 \u0627\u0644\u0645\u062d\u0627\u0645\u062f\u0629", "name:ar1": "\u0642\u0631\u064a\u0629 \u0627\u0644\u0645\u062d\u0627\u0645\u062f\u0629", "name:de": "Qaryat al Mahamidah", "name:en": "Qaryat al Mahamidah", "name:fr": "Qaryat al Mahamidah", "place": "village"}}, {"type": "node", "id": 2486321864, "lat": 33.372613, "lon": 43.699168, "tags": {"alt_name": "\u0642\u0631\u064a\u0629 \u062e\u0644\u0641 \u0627\u0644\u0633\u0644\u0637\u0627\u0646", "int_name": "\u0642\u0631\u064a\u0629 \u062e\u0644\u0641 \u0627\u0644\u0633\u0644\u0637\u0627\u0646, \u0642\u0631\u064a\u0629 \u062e\u0644\u0641 \u0627\u0644\u0633\u0644\u0637\u0627\u0646", "name": "\u0642\u0631\u064a\u0629 \u062e\u0644\u0641 \u0627\u0644\u0633\u0644\u0637\u0627\u0646", "name:ar": "\u0642\u0631\u064a\u0629 \u062e\u0644\u0641 \u0627\u0644\u0633\u0644\u0637\u0627\u0646", "name:ar1": "\u0642\u0631\u064a\u0629 \u062e\u0644\u0641 \u0627\u0644\u0633\u0644\u0637\u0627\u0646", "name:de": "\u0642\u0631\u064a\u0629 \u062e\u0644\u0641 \u0627\u0644\u0633\u0644\u0637\u0627\u0646", "name:fr": "\u0642\u0631\u064a\u0629 \u062e\u0644\u0641 \u0627\u0644\u0633\u0644\u0637\u0627\u0646", "place": "village"}}, {"type": "node", "id": 2486323376, "lat": 33.382421, "lon": 43.5275942, "tags": {"alt_name": "\u0627\u0644\u062e\u0627\u0644\u062f\u064a\u0629", "alt_name:ko": "\uc54c \ud560\uc774\ub514\uc57c;\ud560\ub9ac\ub514\uc57c;\ud560\uc774\ub514\uc57c", "capital": "7", "int_name": "Al Kh\u0101lid\u012byah, Al Khalidiyah", "name": "\u0627\u0644\u062e\u0627\u0644\u062f\u064a\u0629", "name:ar": "\u0627\u0644\u062e\u0627\u0644\u062f\u064a\u0629", "name:de": "Al Khalidiyah", "name:en": "Al Khalidiyah", "name:fr": "Al Khalidiyah", "name:ko": "\uc54c \ud560\ub9ac\ub514\uc57c", "place": "town", "population": "40000", "wikidata": "Q4119728", "wikipedia": "en:Al-Khalidiya, Iraq"}}, {"type": "node", "id": 2486323619, "lat": 33.3822674, "lon": 43.5835878, "tags": {"alt_name": "\u0627\u0644\u062d\u0628\u0627\u0646\u064a\u0629", "alt_name:ko": "\ud569\ubc14\ub2c8\uc57c", "capital": "6", "int_name": "Al Habbaniya - \u0627\u0644\u062d\u0628\u0627\u0646\u064a\u0629", "name": "\u0627\u0644\u062d\u0628\u0627\u0646\u064a\u0629", "name:ar": "\u0627\u0644\u062d\u0628\u0627\u0646\u064a\u0629", "name:de": "Habbanija", "name:en": "Al Habbaniya", "name:ko": "\uc54c \ud569\ubc14\ub2c8\uc57c", "name:ru": "\u042d\u043b\u044c-\u0425\u0430\u0431\u0431\u0430\u043d\u0438\u044f", "place": "town", "wikidata": "Q1032220", "wikipedia": "en:Habbaniyah"}}, {"type": "node", "id": 2486323655, "lat": 33.3687255, "lon": 43.6451052, "tags": {"alt_name": "\u0642\u0631\u064a\u0629 \u0625\u0635\u0628\u0627\u062d\u0627\u062a", "int_name": "Qaryat I\u015fb\u0101\u1e29\u0101t, \u0642\u0631\u064a\u0629 \u0627\u0635\u0628\u0627\u062d\u0627\u062a, Qaryat Isbahat, \u0642\u0631\u064a\u0629 \u0627\u0635\u0628\u0627\u062d\u0627\u062a", "name": "\u0642\u0631\u064a\u0629 \u0625\u0635\u0628\u0627\u062d\u0627\u062a", "name:ar": "\u0642\u0631\u064a\u0629 \u0625\u0635\u0628\u0627\u062d\u0627\u062a", "name:ar1": "\u0642\u0631\u064a\u0629 \u0625\u0635\u0628\u0627\u062d\u0627\u062a", "name:de": "Qaryat Isbahat", "name:en": "Qaryat Isbahat", "name:fr": "Qaryat Isbahat", "place": "village"}}, {"type": "node", "id": 2621508230, "lat": 33.3627924, "lon": 43.6233609}, {"type": "node", "id": 2621508231, "lat": 33.3594231, "lon": 43.6273735}, {"type": "node", "id": 2621508236, "lat": 33.3597278, "lon": 43.6332529}, {"type": "node", "id": 2621508237, "lat": 33.3607672, "lon": 43.6249488}, {"type": "node", "id": 2621508238, "lat": 33.361511, "lon": 43.6334643}, {"type": "node", "id": 2621508239, "lat": 33.3592618, "lon": 43.6314076}, {"type": "node", "id": 2621508240, "lat": 33.3634555, "lon": 43.6236613}, {"type": "node", "id": 2621508242, "lat": 33.3636526, "lon": 43.6254423}, {"type": "node", "id": 3564306968, "lat": 33.3594398, "lon": 43.6325957}, {"type": "node", "id": 3564306969, "lat": 33.3596765, "lon": 43.6317769}, {"type": "node", "id": 3564306970, "lat": 33.3602421, "lon": 43.628171}, {"type": "node", "id": 3564306971, "lat": 33.3612022, "lon": 43.6254626}, {"type": "node", "id": 3564306972, "lat": 33.3619913, "lon": 43.6249272}, {"type": "node", "id": 3564306973, "lat": 33.3621622, "lon": 43.6243446}, {"type": "node", "id": 3796841311, "lat": 33.3905179, "lon": 43.6305373, "tags": {"name": "\u0627\u0644\u0628\u0648\u0634\u062c\u0644", "place": "village"}}, {"type": "node", "id": 3796842092, "lat": 33.3748665, "lon": 43.5920938, "tags": {"name": "\u0627\u0644\u0633\u064a\u0633\u064a", "name:en": "CC", "place": "village"}}, {"type": "node", "id": 4215174000, "lat": 33.3305702, "lon": 43.7483604, "tags": {"name": "\u0627\u0644\u0632\u0648\u064a\u0629", "place": "village"}}, {"type": "node", "id": 4215175223, "lat": 33.3794913, "lon": 43.7654077, "tags": {"name": "\u0627\u0644\u0645\u062e\u062a\u0627\u0631", "place": "village"}}, {"type": "node", "id": 4215175955, "lat": 33.3892808, "lon": 43.7769241, "tags": {"name": "\u0627\u0644\u0645\u0644\u062d\u0627\u0646\u064a\u0629", "place": "village"}}, {"type": "node", "id": 4215181901, "lat": 33.3304451, "lon": 43.7926038, "tags": {"name": "\u062d\u064a \u0627\u0644\u0634\u0647\u062f\u0627\u0621", "place": "village"}}, {"type": "node", "id": 4215181902, "lat": 33.3293694, "lon": 43.7809094, "tags": {"name": "\u0627\u0644\u0646\u0639\u064a\u0645\u064a\u0629", "place": "village"}}, {"type": "node", "id": 4215182979, "lat": 33.3300527, "lon": 43.7753002, "tags": {"name": "\u0627\u0644\u062e\u0636\u0631\u0627\u0621 -\u062c\u0628\u064a\u0644", "name:ar": "\u062c\u0628\u064a\u0644", "place": "village"}}, {"type": "node", "id": 4362546567, "lat": 33.1634675, "lon": 43.8642164, "tags": {"capital": "7", "name": "\u0627\u0644\u0639\u0627\u0645\u0631\u064a\u0629", "name:en": "Al Amirya", "place": "town"}}, {"type": "node", "id": 11464795851, "lat": 33.2981042, "lon": 43.9395687}, {"type": "node", "id": 11464795852, "lat": 33.2955762, "lon": 43.9856455}, {"type": "node", "id": 11464795853, "lat": 33.2931601, "lon": 43.9859432}, {"type": "node", "id": 11464795854, "lat": 33.2920989, "lon": 43.9774473}, {"type": "node", "id": 11464795855, "lat": 33.3359392, "lon": 43.9395977}, {"type": "node", "id": 11464795856, "lat": 33.3290016, "lon": 43.9867763}, {"type": "node", "id": 11464795857, "lat": 33.3301552, "lon": 43.982791}, {"type": "node", "id": 11464795858, "lat": 33.2930643, "lon": 43.9692475}, {"type": "node", "id": 11464795860, "lat": 33.3352426, "lon": 43.9673789}, {"type": "node", "id": 11464795861, "lat": 33.3372859, "lon": 43.960893}, {"type": "node", "id": 11464805611, "lat": 33.2999731, "lon": 43.9836509}, {"type": "node", "id": 11464805662, "lat": 33.293871, "lon": 43.9736734}, {"type": "node", "id": 11464805663, "lat": 33.2943108, "lon": 43.9726162}, {"type": "node", "id": 11464805713, "lat": 33.2936617, "lon": 43.9662648}, {"type": "node", "id": 11464805714, "lat": 33.2978367, "lon": 43.9411777}, {"type": "node", "id": 11464805726, "lat": 33.2994815, "lon": 43.939596}, {"type": "node", "id": 11464805727, "lat": 33.334792, "lon": 43.9402956}, {"type": "node", "id": 11464805739, "lat": 33.3360547, "lon": 43.9420091}, {"type": "node", "id": 11464805742, "lat": 33.3311199, "lon": 43.9789626}, {"type": "node", "id": 11464805743, "lat": 33.3284858, "lon": 43.9867133}, {"type": "way", "id": 256490686, "nodes": [2621508242, 2621508238, 2621508236, 3564306968, 3564306969, 2621508239, 3564306970, 2621508231, 2621508237, 3564306971, 3564306972, 3564306973, 2621508230, 2621508240, 2621508242], "tags": {"int_name": "Qaryat \u0100lb\u016b \u1e28ar\u0101n, \u0642\u0631\u064a\u0629 \u0627\u0644\u0628\u0648 \u062d\u0631\u0627\u0646, Qaryat Albu Haran, \u0642\u0631\u064a\u0629 \u0627\u0644\u0628\u0648 \u062d\u0631\u0627\u0646", "landuse": "residential", "name": "\u0642\u0631\u064a\u0629 \u0622\u0644 \u0628\u0648 \u062d\u0631\u0627\u0646", "name:ar": "\u0642\u0631\u064a\u0629 \u0622\u0644 \u0628\u0648 \u062d\u0631\u0627\u0646", "name:ar1": "\u0642\u0631\u064a\u0629 \u0622\u0644 \u0628\u0648 \u062d\u0631\u0627\u0646", "name:de": "Qaryat Albu Haran", "name:en": "Qaryat Albu Haran", "name:fr": "Qaryat Albu Haran", "place": "village"}}, {"type": "way", "id": 1235116759, "nodes": [11464805662, 11464805663, 11464795858, 11464805713, 11464805714, 11464795851, 11464805726, 11464805727, 11464795855, 11464805739, 11464795861, 11464795860, 11464805742, 11464795857, 11464795856, 11464805743, 11464805611, 11464795852, 11464795853, 11464795854, 11464805662], "tags": {"alt_name": "\u0645\u062f\u064a\u0646\u0629 \u0627\u0644\u0634\u0627\u0639\u0631 \u0645\u062d\u0645\u062f \u0645\u0647\u062f\u064a \u0627\u0644\u062c\u0648\u0627\u0647\u0631\u064a", "construction": "town", "landuse": "construction", "name": "\u0645\u062f\u064a\u0646\u0629 \u0627\u0644\u062c\u0648\u0627\u0647\u0631\u064a", "name:en": "Jawahri Town", "place": "town"}}]}