{"version": 0.6, "generator": "Overpass API 0.7.61.5 4133829e", "osm3s": {"timestamp_osm_base": "2024-03-06T11:05:25Z", "copyright": "The data included in this document is from www.openstreetmap.org. The data is made available under ODbL."}, "elements": [{"type": "node", "id": 4456036589, "lat": 36.698774, "lon": 45.1391558, "tags": {"amenity": "bank", "brand": "\u0628\u0627\u0646\u06a9 \u0635\u0627\u062f\u0631\u0627\u062a", "brand:en": "Bank Saderat Iran", "brand:fa": "\u0628\u0627\u0646\u06a9 \u0635\u0627\u062f\u0631\u0627\u062a", "brand:wikidata": "Q2882608", "brand:wikipedia": "en:Bank Saderat Iran", "name": "\u0628\u0627\u0646\u06a9 \u0635\u0627\u062f\u0631\u0627\u062a", "name:en": "Bank Saderat Iran", "name:fa": "\u0628\u0627\u0646\u06a9 \u0635\u0627\u062f\u0631\u0627\u062a"}}, {"type": "node", "id": 5168441583, "lat": 36.698981, "lon": 45.1381992}, {"type": "node", "id": 5168441584, "lat": 36.6988867, "lon": 45.1383709}, {"type": "node", "id": 5168441585, "lat": 36.699022, "lon": 45.1384865}, {"type": "node", "id": 5168441586, "lat": 36.6991163, "lon": 45.1383148}, {"type": "node", "id": 5168441587, "lat": 36.6992401, "lon": 45.137012}, {"type": "node", "id": 5168441588, "lat": 36.6991333, "lon": 45.1369569}, {"type": "node", "id": 5168441589, "lat": 36.6990594, "lon": 45.13718}, {"type": "node", "id": 5168441590, "lat": 36.6991662, "lon": 45.1372351}, {"type": "node", "id": 5174123073, "lat": 36.6920253, "lon": 45.1390338}, {"type": "node", "id": 5174123074, "lat": 36.6919349, "lon": 45.1390767}, {"type": "node", "id": 5174123075, "lat": 36.6919865, "lon": 45.1392162}, {"type": "node", "id": 5174123076, "lat": 36.6920769, "lon": 45.1391786}, {"type": "node", "id": 10002644928, "lat": 36.6998234, "lon": 45.1402736, "tags": {"amenity": "bank", "brand": "\u0628\u0627\u0646\u06a9 \u06a9\u0634\u0627\u0648\u0631\u0632\u06cc", "brand:en": "Bank Keshavarzi Iran", "brand:wikidata": "Q6395007", "name": "\u0628\u0627\u0646\u06a9 \u06a9\u0634\u0627\u0648\u0631\u0632\u06cc", "name:en": "Bank Keshavarzi Iran"}}, {"type": "node", "id": 10002644951, "lat": 36.698419, "lon": 45.1389006, "tags": {"amenity": "bank", "brand": "\u0628\u0627\u0646\u06a9 \u0645\u0644\u06cc", "brand:en": "Bank Melli Iran", "brand:wikidata": "Q806640", "name": "\u0628\u0627\u0646\u06a9 \u0645\u0644\u06cc", "name:en": "Bank Melli Iran"}}, {"type": "node", "id": 10002644977, "lat": 36.6997737, "lon": 45.1395672, "tags": {"amenity": "bank", "brand": "\u0628\u0627\u0646\u06a9 \u062a\u062c\u0627\u0631\u062a", "brand:wikidata": "Q7695198", "name": "\u0628\u0627\u0646\u06a9 \u062a\u062c\u0627\u0631\u062a"}}, {"type": "node", "id": 10002644989, "lat": 36.6994285, "lon": 45.139963, "tags": {"amenity": "bank", "brand": "\u0628\u0627\u0646\u06a9 \u0645\u0633\u06a9\u0646", "brand:en": "Bank Maskan", "brand:wikidata": "Q4855942", "name": "\u0628\u0627\u0646\u06a9 \u0645\u0633\u06a9\u0646", "name:en": "Bank Maskan"}}, {"type": "way", "id": 532656914, "nodes": [5168441583, 5168441584, 5168441585, 5168441586, 5168441583], "tags": {"amenity": "bank", "brand": "\u0628\u0627\u0646\u06a9 \u0645\u0647\u0631 \u0627\u0642\u062a\u0635\u0627\u062f", "brand:wikidata": "Q5942921", "brand:wikipedia": "fa:\u0628\u0627\u0646\u06a9 \u0645\u0647\u0631 \u0627\u0642\u062a\u0635\u0627\u062f", "building": "yes", "name": "\u0628\u0627\u0646\u06a9 \u0645\u0647\u0631 \u0627\u0642\u062a\u0635\u0627\u062f", "name:en": "Mehr Eqtesad Bank"}}, {"type": "way", "id": 532656915, "nodes": [5168441587, 5168441588, 5168441589, 5168441590, 5168441587], "tags": {"amenity": "bank", "brand": "\u0628\u0627\u0646\u06a9 \u0645\u0644\u062a", "brand:en": "Bank Mellat", "brand:wikidata": "Q4855944", "brand:wikipedia": "en:Bank Mellat", "building": "yes", "name": "\u0628\u0627\u0646\u06a9 \u0645\u0644\u062a", "name:en": "Bank Mellat"}}, {"type": "way", "id": 533305899, "nodes": [5174123073, 5174123074, 5174123075, 5174123076, 5174123073], "tags": {"amenity": "bank", "atm": "yes", "building": "yes", "name": "\u0628\u0627\u0646\u06a9 \u06a9\u0634\u0627\u0648\u0631\u0632\u06cc"}}]}