{"version": 0.6, "generator": "Overpass API 0.7.61.5 4133829e", "osm3s": {"timestamp_osm_base": "2024-02-29T13:48:25Z", "copyright": "The data included in this document is from www.openstreetmap.org. The data is made available under ODbL."}, "elements": [{"type": "node", "id": 6547556380, "lat": 8.65582, "lon": 0.2082703, "tags": {"amenity": "school", "name": "Kpanja D/A Primary School"}}, {"type": "node", "id": 6548952079, "lat": 8.6046808, "lon": 0.2356791, "tags": {"amenity": "school"}}, {"type": "node", "id": 6548990505, "lat": 8.7081718, "lon": 0.1529482, "tags": {"amenity": "school"}}, {"type": "node", "id": 6548997893, "lat": 8.8209227, "lon": 0.0627893, "tags": {"amenity": "school"}}, {"type": "node", "id": 6548998265, "lat": 8.7358515, "lon": 0.0860396, "tags": {"amenity": "school"}}, {"type": "node", "id": 6820953221, "lat": 8.7937261, "lon": 0.0603627}, {"type": "node", "id": 6820953222, "lat": 8.7935799, "lon": 0.061215}, {"type": "node", "id": 6820953225, "lat": 8.7934708, "lon": 0.0616413}, {"type": "node", "id": 6820953226, "lat": 8.7934272, "lon": 0.0596855}, {"type": "node", "id": 6820953227, "lat": 8.7925153, "lon": 0.0595659}, {"type": "node", "id": 6820953228, "lat": 8.7923441, "lon": 0.0615468}, {"type": "node", "id": 8147251651, "lat": 8.6378144, "lon": 0.4507092, "tags": {"amenity": "school", "name": "EEP Tindjassi Kadabini Groupe B"}}, {"type": "node", "id": 8147262573, "lat": 8.6476896, "lon": 0.4585969, "tags": {"amenity": "school", "name": "Lyc\u00e9e de Tindjassi"}}, {"type": "node", "id": 8147270517, "lat": 8.6486371, "lon": 0.4584123, "tags": {"amenity": "school"}}, {"type": "node", "id": 8645209344, "lat": 8.5751008, "lon": 0.1671488, "tags": {"amenity": "school", "name": "Ubunja Primary School"}}, {"type": "node", "id": 8645212394, "lat": 8.5947157, "lon": 0.2160077, "tags": {"amenity": "school", "name": "Sibi Lancha Primary School"}}, {"type": "way", "id": 727864599, "nodes": [6820953225, 6820953222, 6820953221, 6820953226, 6820953227, 6820953228, 6820953225], "tags": {"amenity": "school"}}]}