{"version": 0.6, "generator": "Overpass API 0.7.61.5 4133829e", "osm3s": {"timestamp_osm_base": "2024-03-06T11:15:40Z", "copyright": "The data included in this document is from www.openstreetmap.org. The data is made available under ODbL."}, "elements": [{"type": "node", "id": 248700950, "lat": 31.8497708, "lon": 47.1496466, "tags": {"capital": "4", "name": "\u0627\u0644\u0639\u0645\u0627\u0631\u0629", "name:ar": "\u0627\u0644\u0639\u0645\u0627\u0631\u0629", "name:ar-Latn": "Al-\u2018Am\u0101ra", "name:azb": "\u0627\u0644\u0639\u0645\u0627\u0631\u0647", "name:be": "\u042d\u043b\u044c-\u0410\u043c\u0430\u0440\u0430", "name:ckb": "\u0639\u06d5\u0645\u0627\u0631\u06d5", "name:cs": "Am\u00e1ra", "name:de": "Amara", "name:el": "\u0391\u03bc\u03ac\u03c1\u03b1", "name:en": "Amarah", "name:es": "Amara", "name:et": "Al-\u2018Am\u0101ra", "name:fa": "\u0639\u0645\u0627\u0631\u0647", "name:fi": "Amara", "name:fr": "Al-Amara", "name:he": "\u05d0\u05dc \u05e2\u05de\u05d0\u05e8\u05d4", "name:hi": "\u0905\u092e\u093e\u0930\u093e", "name:hr": "Amara", "name:ja": "\u30a2\u30de\u30fc\u30e9", "name:kk": "\u042d\u043b\u044c-\u0410\u043c\u0430\u0440\u0430", "name:ku": "Emare", "name:ml": "\u0d05\u0d2e\u0d3e\u0d31", "name:mzn": "\u0627\u0644\u0639\u0645\u0627\u0631\u0647", "name:pl": "Al-Amara", "name:pnb": "\u0639\u0645\u0627\u0631\u0627\u06c1", "name:ru": "\u042d\u043b\u044c-\u0410\u043c\u0430\u0440\u0430", "name:sv": "Al-Amara", "name:tr": "Am\u00e2re", "name:uk": "\u0415\u043b\u044c-\u0410\u043c\u0430\u0440\u0430", "name:ur": "\u0627\u0644\u0639\u0645\u0627\u0631\u06c1", "name:zh": "\u963f\u9a6c\u62c9", "place": "city", "population": "511542", "population:date": "2012", "wikidata": "Q366010", "wikipedia": "ar:\u0627\u0644\u0639\u0645\u0627\u0631\u0629 (\u0645\u062f\u064a\u0646\u0629)"}}, {"type": "node", "id": 2479481078, "lat": 31.7611976, "lon": 47.3607746, "tags": {"alt_name": "\u0633\u0644\u0641 \u0627\u0644\u0635\u0628\u064a\u0647", "int_name": "\u0633\u0644\u0641 \u0627\u0644\u0635\u0628\u064a\u0647, \u0633\u0644\u0641 \u0627\u0644\u0635\u0628\u064a\u0647", "is_in": "Iraq , \u062c\u0645\u0647\u0648\u0631\u064a\u0629 \u0627\u0644\u0639\u0631\u0627\u0642", "name": "\u0633\u0644\u0641 \u0627\u0644\u0635\u0628\u064a\u0647", "name:ar": "\u0633\u0644\u0641 \u0627\u0644\u0635\u0628\u064a\u0647", "name:ar1": "\u0633\u0644\u0641 \u0627\u0644\u0635\u0628\u064a\u0647", "name:de": "\u0633\u0644\u0641 \u0627\u0644\u0635\u0628\u064a\u0647", "name:fr": "\u0633\u0644\u0641 \u0627\u0644\u0635\u0628\u064a\u0647", "place": "village"}}, {"type": "node", "id": 2479482485, "lat": 31.810833, "lon": 47.176367, "tags": {"alt_name": "\u062d\u064a \u0627\u0644\u0642\u0627\u062a\u0644 \u0627\u0644\u0639\u0631\u0628\u064a", "fixme": "\u0627\u0644\u0645\u0639\u0647\u062f \u0623\u0648 \u0627\u0644\u0645\u062d\u0644\u0629\u061f", "int_name": "\u1e28ayy al Q\u0101til al Arab\u012b, \u062d\u064a \u0627\u0644\u0642\u0627\u062a\u0644 \u0627\u0644\u0639\u0631\u0628\u064a, Hayy al Qatil al Arabi, \u062d\u064a \u0627\u0644\u0642\u0627\u062a\u0644 \u0627\u0644\u0639\u0631\u0628\u064a", "is_in": "Iraq , \u062c\u0645\u0647\u0648\u0631\u064a\u0629 \u0627\u0644\u0639\u0631\u0627\u0642", "name": "\u062d\u064a \u0627\u0644\u0642\u0627\u062a\u0644 \u0627\u0644\u0639\u0631\u0628\u064a", "name:ar": "\u0627\u0644\u0645\u0639\u0647\u062f \u0627\u0644\u062a\u0642\u0646\u064a \u0627\u0644\u0639\u0645\u0627\u0631\u0629", "name:ar1": "\u062d\u064a \u0627\u0644\u0642\u0627\u062a\u0644 \u0627\u0644\u0639\u0631\u0628\u064a", "name:de": "Hayy al Qatil al Arabi", "name:en": "Amara Technical Institute", "name:fr": "Hayy al Qatil al Arabi", "place": "hamlet"}}, {"type": "node", "id": 2487827758, "lat": 32.018139, "lon": 47.641367, "tags": {"alt_name": "\u0633\u0644\u0641 \u0627\u0644\u0632\u0631\u06cc\u062c\u0627\u062a", "int_name": "Salaf az Zar\u012bj\u0101t, \u0633\u0644\u0641 \u0627\u0644\u0632\u0631\u064a\u062c\u0627\u062a, Salaf az Zarijat, \u0633\u0644\u0641 \u0627\u0644\u0632\u0631\u064a\u062c\u0627\u062a", "is_in": "Iraq , \u062c\u0645\u0647\u0648\u0631\u064a\u0629 \u0627\u0644\u0639\u0631\u0627\u0642", "name": "\u0633\u0644\u0641 \u0627\u0644\u0632\u0631\u06cc\u062c\u0627\u062a", "name:ar": "\u0633\u0644\u0641 \u0627\u0644\u0632\u0631\u064a\u062c\u0627\u062a", "name:ar1": "\u0633\u0644\u0641 \u0627\u0644\u0632\u0631\u064a\u062c\u0627\u062a", "name:de": "Salaf az Zarijat", "name:en": "Salaf az Zarijat", "name:fr": "Salaf az Zarijat", "place": "village"}}, {"type": "node", "id": 2487841544, "lat": 32.059682, "lon": 47.634925, "tags": {"alt_name": "\u0639\u0631\u0627\u0642 \u0633\u06a9\u0631\u06cc \u0627\u0644\u0641\u0627\u0644\u062d", "int_name": "Ir\u0101q Sakr\u012b al F\u0101li\u1e29, \u0639\u0631\u0627\u0642 \u0633\u0643\u0631\u064a \u0627\u0644\u0641\u0627\u0644\u062d, Iraq Sakri al Falih, \u0639\u0631\u0627\u0642 \u0633\u0643\u0631\u064a \u0627\u0644\u0641\u0627\u0644\u062d", "is_in": "Iraq , \u062c\u0645\u0647\u0648\u0631\u064a\u0629 \u0627\u0644\u0639\u0631\u0627\u0642", "name": "\u0639\u0631\u0627\u0642 \u0633\u06a9\u0631\u06cc \u0627\u0644\u0641\u0627\u0644\u062d", "name:ar": "\u0639\u0631\u0627\u0642 \u0633\u0643\u0631\u064a \u0627\u0644\u0641\u0627\u0644\u062d", "name:ar1": "\u0639\u0631\u0627\u0642 \u0633\u0643\u0631\u064a \u0627\u0644\u0641\u0627\u0644\u062d", "name:de": "Iraq Sakri al Falih", "name:en": "Iraq Sakri al Falih", "name:fr": "Iraq Sakri al Falih", "place": "village"}}, {"type": "node", "id": 2487841679, "lat": 32.057025, "lon": 47.625426, "tags": {"alt_name": "\u0634\u06cc\u062e \u0641\u0627\u0631\u0633", "int_name": "Shaikh F\u0101ris, Shaykh F\u0101ris, \u0634\u064a\u062e \u0641\u0627\u0631\u0633, Shaikh Faris, Shaykh Faris, \u0634\u064a\u062e \u0641\u0627\u0631\u0633", "is_in": "Iraq , \u062c\u0645\u0647\u0648\u0631\u064a\u0629 \u0627\u0644\u0639\u0631\u0627\u0642", "name": "\u0634\u06cc\u062e \u0641\u0627\u0631\u0633", "name:ar": "\u0634\u064a\u062e \u0641\u0627\u0631\u0633", "name:ar1": "\u0634\u064a\u062e \u0641\u0627\u0631\u0633", "name:de": "Shaikh Faris", "name:en": "Shaikh Faris", "name:fr": "Shaikh Faris", "place": "village"}}, {"type": "node", "id": 2487847370, "lat": 31.7835592, "lon": 47.5333416, "tags": {"alt_name": "\u0646\u0632\u0644 \u0645\u062d\u064a\u0629", "int_name": "Nazil Muha\u012byah, Nazil Muhaiyah", "is_in": "Iraq , \u062c\u0645\u0647\u0648\u0631\u064a\u0629 \u0627\u0644\u0639\u0631\u0627\u0642", "name": "\u0646\u0632\u0644 \u0645\u062d\u064a\u0629", "name:ar": "\u0646\u0632\u0644 \u0645\u062d\u064a \u0627\u0644\u0634\u064a\u0627\u0639", "name:ar1": "\u0646\u0632\u0644 \u0645\u062d\u064a\u0629", "name:de": "Nazil Muhaiyah", "name:en": "Nazil Muhiy sheaa", "name:fr": "Nazil Muhaiyah", "place": "village"}}, {"type": "node", "id": 2487847371, "lat": 31.7809916, "lon": 47.5348522, "tags": {"alt_name": "\u0646\u0632\u0644 \u0627\u0644\u0645\u062d\u064a\u0627", "int_name": "Nazl al Mu\u1e29ayy\u0101, Nazl al Muhayya", "name": "\u0646\u0632\u0644 \u0627\u0644\u0645\u062d\u064a\u0627", "name:ar": "\u0646\u0632\u0644 \u0627\u0644\u0634\u064a\u062e \u0645\u062d\u064a", "name:ar1": "\u0646\u0632\u0644 \u0627\u0644\u0645\u062d\u064a\u0627", "name:de": "Nazl al Muhayya", "name:en": "Nazl al Muhayya", "name:fr": "Nazl al Muhayya", "place": "village"}}, {"type": "node", "id": 2487847395, "lat": 31.7496479, "lon": 47.5442919, "tags": {"alt_name": "\u0633\u0644\u0641 \u0627\u0644\u062c\u0627\u062f\u0644", "int_name": "Salaf al J\u0101dal, \u0633\u0644\u0641 \u0627\u0644\u062c\u0627\u062f\u0644, Salaf al Jadal, \u0633\u0644\u0641 \u0627\u0644\u062c\u0627\u062f\u0644", "is_in": "Iraq , \u062c\u0645\u0647\u0648\u0631\u064a\u0629 \u0627\u0644\u0639\u0631\u0627\u0642", "name": "\u0633\u0644\u0641 \u0627\u0644\u062c\u0627\u062f\u0644", "name:ar": "\u0633\u0644\u0641 \u0627\u0644\u062c\u0627\u062f\u0644", "name:ar1": "\u0633\u0644\u0641 \u0627\u0644\u062c\u0627\u062f\u0644", "name:de": "Salaf al Jadal", "name:en": "Salaf al Jadal", "name:fr": "Salaf al Jadal", "place": "village"}}, {"type": "node", "id": 2487856565, "lat": 31.70688, "lon": 47.3271404, "tags": {"alt_name": "\u0639\u0631\u0628 \u0627\u0644\u0641\u0624\u0627\u062f\u064a\u0629", "int_name": "Arab al Fu\u0101d\u012byah, Arab al Fuw\u0101diya, Arab al Fuadiyah, Arab al Fuwadiya", "is_in": "Iraq , \u062c\u0645\u0647\u0648\u0631\u064a\u0629 \u0627\u0644\u0639\u0631\u0627\u0642", "name": "Halfaya Base Camp", "name:ar": "\u062d\u0642\u0644 \u062d\u0644\u0641\u0627\u064a\u0629", "name:ar1": "\u0639\u0631\u0628 \u0627\u0644\u0641\u0624\u0627\u062f\u064a\u0629", "name:de": "Arab al Fuadiyah", "name:en": "Halfaya field", "name:fr": "Arab al Fuadiyah", "place": "village"}}, {"type": "node", "id": 2487870184, "lat": 31.822223, "lon": 47.438178, "tags": {"alt_name": "Al Mesharah, Al Musharra\u1e29, Musharrah, Musharraif, \u0627\u0644\u0645\u0634\u0631\u062d, Al Mesharah, Al Musharrah, Musharrah, Musharraif, \u0627\u0644\u0645\u0634\u0631\u062d", "capital": "7", "int_name": "Al Mesharah - \u0627\u0644\u0645\u0634\u0631\u062d", "is_in": "Iraq , \u062c\u0645\u0647\u0648\u0631\u064a\u0629 \u0627\u0644\u0639\u0631\u0627\u0642", "name": "\u0627\u0644\u0645\u0634\u0631\u062d", "name:ar": "\u0627\u0644\u0645\u0634\u0631\u062d", "name:de": "Al Mesharah", "name:en": "Al Mesharah", "name:fr": "Al Mesharah", "place": "town"}}, {"type": "node", "id": 2487871449, "lat": 31.755434, "lon": 47.502711, "tags": {"alt_name": "\u0633\u0644\u0641 \u0639\u0632\u064a\u0644 \u0627\u0644\u0634\u064a\u0627\u0639", "int_name": "Salaf Azayl ash Shayy\u0101, \u0633\u0644\u0641 \u0639\u0632\u064a\u0644 \u0627\u0644\u0634\u064a\u0627\u0639, Salaf Azayl ash Shayya, \u0633\u0644\u0641 \u0639\u0632\u064a\u0644 \u0627\u0644\u0634\u064a\u0627\u0639", "is_in": "Iraq , \u062c\u0645\u0647\u0648\u0631\u064a\u0629 \u0627\u0644\u0639\u0631\u0627\u0642", "name": "\u0633\u0644\u0641 \u0639\u0632\u064a\u0644 \u0627\u0644\u0634\u064a\u0627\u0639", "name:ar": "\u0633\u0644\u0641 \u0639\u0632\u064a\u0632 \u0627\u0644\u0634\u064a\u0627\u0639", "name:ar1": "\u0633\u0644\u0641 \u0639\u0632\u064a\u0644 \u0627\u0644\u0634\u064a\u0627\u0639", "name:de": "Salaf Azayl ash Shayya", "name:en": "Salaf Azayl ash Shayya", "name:fr": "Salaf Azayl ash Shayya", "place": "village"}}, {"type": "node", "id": 2487871451, "lat": 31.726606, "lon": 47.510667, "tags": {"alt_name": "\u0633\u0644\u0641 \u0634\u0646\u0648\u0646", "int_name": "Salaf Shan\u016bn, \u0633\u0644\u0641 \u0634\u0646\u0648\u0646, Salaf Shanun, \u0633\u0644\u0641 \u0634\u0646\u0648\u0646", "name": "\u0633\u0644\u0641 \u0634\u0646\u0648\u0646", "name:ar": "\u0633\u0644\u0641 \u0634\u0627\u0644\u0646\u0648\u062a", "name:ar1": "\u0633\u0644\u0641 \u0634\u0646\u0648\u0646", "name:de": "Salaf Shanun", "name:en": "Salaf Shalnut", "name:fr": "Salaf Shanun", "place": "village"}}, {"type": "node", "id": 6698890397, "lat": 31.7047209, "lon": 47.2603726, "tags": {"place": "town"}}]}