{"version": 0.6, "generator": "Overpass API 0.7.61.5 4133829e", "osm3s": {"timestamp_osm_base": "2024-03-06T11:01:15Z", "copyright": "The data included in this document is from www.openstreetmap.org. The data is made available under ODbL."}, "elements": [{"type": "node", "id": 4397040201, "lat": 34.2438498, "lon": 46.3577861, "tags": {"amenity": "atm", "name": "\u0628\u0627\u0646\u06a9 \u062a\u062c\u0627\u0631\u062a \u0648 \u0645\u0644\u06cc", "name:en": "tejarat bank_melli", "operator": "\u062e\u0648\u062f\u06a9\u0627\u0631 \u0648 \u06f2\u06f4 \u0633\u0627\u0639\u062a\u0647 \u060c\u062a\u062c\u0627\u0631\u062a \u0628\u0627\u0646\u06a9"}}, {"type": "node", "id": 4397056202, "lat": 34.2764916, "lon": 46.2372166, "tags": {"amenity": "atm"}}, {"type": "node", "id": 4754232326, "lat": 34.1182608, "lon": 46.5248891, "tags": {"amenity": "atm", "operator": "\u062e\u0648\u062f\u067e\u0631\u062f\u0627\u0632 \u0628\u0627\u0646\u06a9 \u0645\u0644\u06cc"}}, {"type": "node", "id": 4758031445, "lat": 34.1125319, "lon": 46.5333322, "tags": {"amenity": "atm", "operator": "\u062e\u0648\u067e\u0631\u062f\u0627\u0632 \u0628\u0627\u0646\u06a9 \u0627\u0646\u0635\u0627\u0631"}}, {"type": "node", "id": 5529781123, "lat": 34.1178168, "lon": 46.524248, "tags": {"amenity": "atm"}}, {"type": "node", "id": 6025933088, "lat": 34.1083561, "lon": 46.5378102, "tags": {"amenity": "atm"}}, {"type": "node", "id": 6408413911, "lat": 34.1002946, "lon": 46.5157532, "tags": {"amenity": "atm", "cash_in": "yes", "currency:\u0631\u06cc\u0627\u0644": "yes", "operator": "\u0628\u0627\u0646\u06a9 \u0645\u0633\u06a9\u0646", "source": "map.ir"}}, {"type": "node", "id": 6761553678, "lat": 34.0997683, "lon": 46.515147, "tags": {"amenity": "atm", "operator": "\u0628\u0627\u0646\u06a9 \u0633\u067e\u0647", "source": "map.ir"}}]}