{"version": 0.6, "generator": "Overpass API 0.7.61.5 4133829e", "osm3s": {"timestamp_osm_base": "2024-03-06T11:17:45Z", "copyright": "The data included in this document is from www.openstreetmap.org. The data is made available under ODbL."}, "elements": [{"type": "node", "id": 248441616, "lat": 35.5311005, "lon": 44.8271913, "tags": {"capital": "6", "name": "\u0686\u06d5\u0645\u0686\u06d5\u0645\u0627\u06b5", "name:ar": "\u062c\u0645\u062c\u0645\u0627\u0644", "name:ckb": "\u0686\u06d5\u0645\u0686\u06d5\u0645\u0627\u06b5", "name:ckb-Latn": "Chemchemal", "name:de": "Dschamdscham\u0101l", "name:en": "Chamchamal", "name:et": "Chamchamal", "name:fr": "Chamchamal", "name:ku": "\u00c7em\u00e7emal", "name:ru": "\u0427\u0430\u043c\u0447\u0430\u043c\u0430\u043b\u044c", "name:tr": "\u00c7em\u00e7emal", "place": "town", "wikidata": "Q870475", "wikipedia": "ckb:\u0686\u06d5\u0645\u0686\u06d5\u0645\u0627\u06b5"}}, {"type": "node", "id": 2488269067, "lat": 35.479674, "lon": 44.566985, "tags": {"name": "\u0686\u06cc\u0645\u06d5\u0646\u06cc \u0628\u0686\u0648\u0648\u06a9", "name:ar": "\u062c\u064a\u0645\u0646 \u0627\u0644\u0635\u063a\u0631\u0649", "name:ckb": "\u0686\u06cc\u0645\u06d5\u0646\u06cc \u0628\u0686\u0648\u0648\u06a9", "name:de": "Chimani Bchuk", "name:en": "Little Chiman", "name:fr": "Chimani Bchuk", "name:ku": "\u00c7\u00eemena Pi\u00e7\u00fbk", "place": "village"}}, {"type": "node", "id": 2488269254, "lat": 35.5713406, "lon": 44.6082442, "tags": {"name": "\u06af\u06c6\u0631\u0627\u0646", "name:ar": "\u0643\u0648\u0631\u0627\u0646", "name:ckb": "\u06af\u06c6\u0631\u0627\u0646", "name:de": "Goran", "name:en": "Goran", "name:fr": "Goran", "name:ku": "Goran", "place": "village"}}, {"type": "node", "id": 2488269273, "lat": 35.550695, "lon": 44.57898, "tags": {"name": "\u06be\u06d5\u06cc\u0628\u06d5", "name:ar": "\u0647\u064a\u0628\u0629", "name:ckb": "\u06be\u06d5\u06cc\u0628\u06d5", "name:en": "Hayba", "name:ku": "Heybe", "place": "village"}}, {"type": "node", "id": 2488269493, "lat": 35.631505, "lon": 44.620678, "tags": {"name": "\u06a9\u06b5\u0627\u0648\u0642\u0648\u062a", "name:ar": "\u0643\u0644\u0627\u0648\u0642\u0648\u062a", "name:ar1": "\u062a\u0644\u0627\u0648\u0642\u0648\u062a", "name:ckb": "\u06a9\u06b5\u0627\u0648\u0642\u0648\u062a", "name:de": "Klawkut", "name:en": "Klawqut", "name:fr": "Klawkut", "name:ku": "Killawqut", "place": "village"}}, {"type": "node", "id": 2488269776, "lat": 35.631064, "lon": 44.544129, "tags": {"name": "\u0642\u06d5\u0641\u0627\u0631", "name:ar": "\u0642\u0641\u0627\u0631", "name:ckb": "\u0642\u06d5\u0641\u0627\u0631", "name:de": "Qafar", "name:en": "Qafar", "name:fr": "Qafar", "name:ku": "Qefar", "place": "village"}}, {"type": "node", "id": 2488269904, "lat": 35.5557702, "lon": 44.6240091, "tags": {"name": "\u0633\u0627\u062a\u06cc", "name:ckb": "\u0633\u0627\u062a\u06cc", "name:en": "Sati", "name:ku": "Sat\u00ee", "place": "village"}}, {"type": "node", "id": 2488270181, "lat": 35.4465039, "lon": 44.5761556, "tags": {"name": "\u0632\u06d5\u0646\u06af\u0646\u06d5", "name:ar": "\u0632\u0646\u0643\u0646\u0629", "name:ckb": "\u0632\u06d5\u0646\u06af\u0646\u06d5", "name:de": "Zangana", "name:en": "Zangna", "name:fr": "Zangana", "name:ku": "Zengine", "place": "village"}}, {"type": "node", "id": 2488270185, "lat": 35.5762036, "lon": 44.5437872, "tags": {"name": "\u0633\u0648\u0648\u0631\u06d5\u062f\u06ce\u06cc \u0633\u06d5\u0631\u0648\u0648", "name:ar": "\u0633\u0648\u0631\u064e\u062f\u064a", "name:ckb": "\u0633\u0648\u0648\u0631\u06d5\u062f\u06ce", "name:de": "Surade", "name:en": "Surade", "name:fr": "Surade", "name:ku": "S\u00fbred\u00ea", "place": "village"}}, {"type": "node", "id": 2488271543, "lat": 35.5845244, "lon": 44.6339914, "tags": {"name": "\u0626\u0627\u0648\u0628\u0627\u0631\u06cc\u06a9", "name:ar": "\u0622\u0648\u0628\u0627\u0631\u064a\u0643", "name:ckb": "\u0626\u0627\u0648\u0628\u0627\u0631\u06cc\u06a9", "name:de": "Awbarik", "name:en": "Awbarik", "name:fr": "Awbarik", "name:ku": "Awbar\u00eek", "place": "village"}}, {"type": "node", "id": 2488271549, "lat": 35.641366, "lon": 44.670044, "tags": {"alt_name": "\u062f\u0627\u0631 \u0633\u0644\u0627", "int_name": "D\u0101r Sal\u0101, \u062f\u0627\u0631 \u0633\u0644\u0627, Dar Sala, \u062f\u0627\u0631 \u0633\u0644\u0627", "name": "\u062f\u0627\u0631 \u0633\u0644\u0627", "name:ar": "\u062f\u0627\u0631 \u0633\u0644\u0627", "name:ar1": "\u062f\u0627\u0631 \u0633\u0644\u0627", "name:de": "Dar Sala", "name:en": "Dar Sala", "name:fr": "Dar Sala", "place": "village"}}, {"type": "node", "id": 2488271552, "lat": 35.5481027, "lon": 44.6551781, "tags": {"name": "\u06af\u0648\u0631\u06af\u06d5\u06cc\u06cc \u062e\u0627\u0633\u06d5", "name:ckb": "\u06af\u0648\u0631\u06af\u06d5\u06cc\u06cc \u062e\u0627\u0633\u06d5", "name:en": "Gurgeyi Khasa", "name:ku": "Gurgey\u00ee Xase", "place": "village"}}, {"type": "node", "id": 2488271555, "lat": 35.528566, "lon": 44.654194, "tags": {"name": "\u0647\u06d5\u0632\u0627\u0631 \u06a9\u0627\u0646\u06cc", "name:ar": "\u0647\u0632\u0627\u0631 \u0643\u0627\u0646\u064a", "name:ar1": "\u0647\u0632\u0627\u0631 \u0643\u0627\u0646\u064a", "name:de": "Hazar Kani", "name:en": "Hazar Kani", "name:fr": "Hazar Kani", "place": "village"}}, {"type": "node", "id": 2488271700, "lat": 35.5386022, "lon": 44.6833283, "tags": {"name": "\u06af\u0648\u0631\u06af\u06d5\u06cc\u06cc \u0639\u06d5\u0631\u06d5\u0628 \u0686\u0627\u0648\u0634", "name:ckb": "\u06af\u0648\u0631\u06af\u06d5\u06cc\u06cc \u0639\u06d5\u0631\u06d5\u0628 \u0686\u0627\u0648\u0634", "name:en": "Gurgeyi Arab Chawush", "name:ku": "Gurgey\u00ee 'Ereb \u00c7awi\u015f", "place": "village"}}, {"type": "node", "id": 2488271709, "lat": 35.601815, "lon": 44.696786, "tags": {"name": "\u0645\u06d5\u062d\u0645\u0648\u0648\u062f \u0641\u0627\u062a\u06d5", "name:ckb": "\u0645\u06d5\u062d\u0645\u0648\u0648\u062f \u0641\u0627\u062a\u06d5", "name:en": "Mahmud Fata", "name:ku": "Mehm\u00fbd Fate", "place": "village"}}, {"type": "node", "id": 2488271723, "lat": 35.360354, "lon": 44.6866976, "tags": {"name": "\u0639\u0648\u0633\u0645\u0627\u0646 \u0644\u06d5\u06a9\u06d5", "name:ar": "\u0639\u062b\u0645\u0627\u0646 \u0644\u0643\u0629", "name:ckb": "\u0639\u0648\u0633\u0645\u0627\u0646 \u0644\u06d5\u06a9\u06d5", "name:de": "Uthman Lah", "name:en": "Osman Laka", "name:fr": "Uthman Lah", "name:ku": "Osman Leke", "name:ru": "\u0423\u043c\u0430\u043d-\u041b\u0430\u043a\u0430", "place": "village"}}, {"type": "node", "id": 2488272750, "lat": 35.5380683, "lon": 44.7655794, "tags": {"name": "\u0628\u0646\u06af\u0631\u062f", "name:ar": "\u0628\u0627\u0646\u0643\u0631\u062f", "name:ckb": "\u0628\u0627\u0646\u06af\u0631\u062f", "name:en": "Bangrd", "name:ku": "Bangird", "place": "village", "wikidata": "Q64210385", "wikipedia": "ckb:\u0628\u0627\u0646\u06af\u0631\u062f"}}, {"type": "node", "id": 2488272758, "lat": 35.5618655, "lon": 44.7353176, "tags": {"name": "\u0628\u0646\u06d5\u06cc \u0633\u06d5\u0631\u0648\u0648", "name:ar": "\u0628\u0646\u0629 \u0639\u0644\u06cc\u0627", "name:ar1": "\u0628\u0646\u0629", "name:ckb": "\u0628\u0646\u06d5", "name:de": "Upper Bina", "name:en": "Upper Bina", "name:fr": "Upper Bina", "name:ku": "Bine", "name:ru": "\u0411\u0438\u043d\u0430", "place": "village"}}, {"type": "node", "id": 2488272763, "lat": 35.5826621, "lon": 44.7216775, "tags": {"name": "\u0633\u06d5\u06cc\u062f\u0627\u0646\u06cc \u062e\u0648\u0627\u0631\u0648\u0648", "name:ar": "\u0633\u06cc\u062f\u0627\u0646 \u0627\u0633\u0641\u0644\u06cc", "name:en": "Lower Saydan", "name:ku": "Seydan", "place": "village"}}, {"type": "node", "id": 2488272866, "lat": 35.5724786, "lon": 44.7643253, "tags": {"name": "\u0628\u0631\u0627\u0647\u06cc\u0645 \u0626\u0627\u063a\u0627", "name:ar": "\u0625\u0628\u0631\u0627\u0647\u064a\u0645 \u0622\u063a\u0627", "name:de": "Ibrahim Agha", "name:en": "Ibrahim Agha", "name:fr": "Ibrahim Agha", "place": "village", "wikidata": "Q64210363", "wikipedia": "ckb:\u0626\u06cc\u0628\u0631\u0627\u06be\u06cc\u0645 \u0626\u0627\u063a\u0627"}}, {"type": "node", "id": 2488273054, "lat": 35.622832, "lon": 44.721616, "tags": {"name": "\u06cc\u06d5\u062e\u062a\u06d5 \u062e\u0627\u0646", "name:ar": "\u064a\u062e\u062a\u0629 \u062e\u0627\u0646", "name:ckb": "\u06cc\u06d5\u062e\u062a\u06d5 \u062e\u0627\u0646", "name:en": "Yakhta Khan", "name:ku": "Yexte Xan", "place": "village"}}, {"type": "node", "id": 2488277474, "lat": 35.5082637, "lon": 44.8779766, "tags": {"int_name": "Chashmah B\u0101rd\u012bn, Chashmeh Bard\u012bn, Jashm\u0101n Bardin, Chashmah Bardin, Chashmeh Bardin, Jashman Bardin", "name": "\u0686\u06d5\u0634\u0645\u06d5 \u0628\u06d5\u0631\u062f\u06cc\u0646", "name:de": "Chashmah Bardin", "name:en": "Chashmah Bardin", "name:fr": "Chashmah Bardin", "place": "village", "wikidata": "Q64210590", "wikipedia": "ckb:\u0686\u06d5\u0634\u0645\u06d5\u0628\u06d5\u0631\u062f\u06cc\u0646"}}, {"type": "node", "id": 2488277481, "lat": 35.4699093, "lon": 44.8427157, "tags": {"name": "\u0641\u06d5\u06cc\u0632\u0627\u0648\u06d5", "name:ar": "\u0641\u064a\u0632\u0627\u0648\u0629", "name:en": "Faizawa", "place": "village", "wikidata": "Q64210630", "wikipedia": "ckb:\u0641\u06d5\u06cc\u0632\u0627\u0648\u0627\u060c \u0634\u06c6\u0695\u0634"}}, {"type": "node", "id": 2488277504, "lat": 35.499167, "lon": 44.815833, "tags": {"name": "\u0645\u0648\u0632\u06d5\u0641\u06d5\u0631", "name:ar": "\u0645\u0638\u0641\u0631", "name:ckb": "\u0645\u0648\u0632\u06d5\u0641\u06d5\u0631", "name:en": "Muzafar", "name:ku": "Muzefer", "place": "village", "wikidata": "Q64210698", "wikipedia": "ckb:\u0645\u0648\u0632\u06d5\u0641\u06d5\u0631"}}, {"type": "node", "id": 2488278404, "lat": 35.456183, "lon": 45.049543, "tags": {"alt_name": "\u0623\u062d\u0645\u062f \u0644\u0627\u0648\u0646\u062f", "int_name": "A\u1e29mad L\u0101wand, Ahmed Lawand, \u0627\u062d\u0645\u062f \u0644\u0627\u0648\u0646\u062f, Ahmad Lawand, Ahmed Lawand, \u0627\u062d\u0645\u062f \u0644\u0627\u0648\u0646\u062f", "name": "\u0626\u06d5\u062d\u0645\u06d5\u062f \u0644\u06d5\u0648\u06d5\u0646\u062f", "name:ar": "\u0623\u062d\u0645\u062f \u0644\u0627\u0648\u0646\u062f", "name:ar1": "\u0623\u062d\u0645\u062f \u0644\u0627\u0648\u0646\u062f", "name:de": "Ahmad Lawand", "name:en": "Ahmad Lawand", "name:fr": "Ahmad Lawand", "place": "village", "wikidata": "Q64210393", "wikipedia": "ckb:\u0626\u06d5\u062d\u0645\u06d5\u062f\u0644\u06d5\u0648\u06d5\u0646\u062f"}}, {"type": "node", "id": 2488278497, "lat": 35.4175488, "lon": 45.0279186, "tags": {"name": "\u0686\u0631\u0627\u063a\u06d5 \u0695\u0648\u0648\u062a\u06d5", "name:ar": "\u062c\u0631\u0627\u062e \u0631\u0648\u062a\u0629", "name:ar1": "\u062c\u0631\u0627\u062e \u0631\u0648\u062a\u0629", "name:de": "Chiragha Ruta", "name:en": "Chiragha Ruta", "name:fr": "Chiragha Ruta", "place": "village", "wikidata": "Q64210584", "wikipedia": "ckb:\u0686\u0631\u0627\u063a\u06d5\u0695\u0648\u0648\u062a\u06d5"}}, {"type": "node", "id": 2488278690, "lat": 35.547983, "lon": 45.046929, "tags": {"name": "\u0634\u06c6\u0631\u0627\u0648\u0627", "name:ar": "\u0634\u0648\u0631\u0627\u0648\u0627", "name:en": "Shorawa", "place": "village", "wikidata": "Q64211602", "wikipedia": "ckb:\u0634\u06c6\u0631\u0627\u0648\u0627"}}, {"type": "node", "id": 2488281686, "lat": 35.626911, "lon": 44.879566, "tags": {"alt_name": "\u0643\u062c\u0643 \u0646\u0642\u0634\u064a\u0646\u0629", "int_name": "K\u016bchuk Naqshina, Kuchuk Naqsh\u012bnah, \u0643\u0686\u0643 \u0646\u0642\u0634\u064a\u0646\u0629, Kuchuk Naqshina, Kuchuk Naqshinah, \u0643\u0686\u0643 \u0646\u0642\u0634\u064a\u0646\u0629", "name": "\u0643\u0648\u0686\u06a9 \u0646\u06d5\u062e\u0634\u06cc\u0646\u06d5", "name:ar": "\u0643\u062c\u0643 \u0646\u0642\u0634\u064a\u0646\u0629", "name:de": "Kuchuk Naqshina", "name:en": "Kuchuk Naqshina", "name:fr": "Kuchuk Naqshina", "place": "village"}}, {"type": "node", "id": 2488281687, "lat": 35.5869837, "lon": 44.9481548, "tags": {"name": "\u0644\u06a9\u0627\u0648\u06d5\u06cc \u06a9\u06c6\u0646", "name:ar": "\u0644\u0643\u0627\u0648\u0629 \u0642\u062f\u06cc\u0645", "name:en": "Old Lkawa", "place": "village", "wikidata": "Q64211617", "wikipedia": "ckb:\u0644\u06a9\u0627\u0648\u06d5\u06cc \u06a9\u06c6\u0646"}}, {"type": "node", "id": 2488281697, "lat": 35.6258159, "lon": 44.9597486, "tags": {"alt_name": "\u062a\u06d5\u06a9\u06cc\u06d5", "alt_name:ku": "Tekye", "int_name": "Tak\u012byat Kalak Am\u012bn, Takiyat Kalak Amin;\u062a\u0643\u064a\u0629 \u0643\u0644\u0643 \u0627\u0645\u064a\u0646, \u062a\u0643\u064a\u0629 \u0643\u0644\u0643 \u0627\u0645\u064a\u0646", "name": "\u062a\u06d5\u06a9\u06cc\u06d5\u06cc \u06a9\u0627\u06a9\u06d5\u0645\u06d5\u0646\u062f", "name:ar": "\u062a\u06a9\u06cc\u0629 \u06a9\u0627\u06a9\u0629\u0645\u0646\u062f", "name:ar1": "\u062a\u0643\u064a\u0629 \u0643\u0644\u0643 \u0623\u0645\u064a\u0646;\u062a\u0643\u064a\u0629 \u0643\u0644\u0643 \u0627\u0645\u064a\u0646", "name:ckb": "\u062a\u06d5\u06a9\u06cc\u06d5\u06cc \u06a9\u0627\u06a9\u06d5\u0645\u06d5\u0646\u062f", "name:de": "Takiay Kakamand", "name:en": "Takiay Kakamand", "name:fr": "Takiay Kakamand", "name:ku": "Tekyey Kakemend", "place": "town", "wikidata": "Q65403537", "wikipedia": "ckb:\u062a\u06d5\u06a9\u06cc\u06d5\u06cc \u06a9\u0627\u06a9\u06d5\u0645\u06d5\u0646\u062f"}}, {"type": "node", "id": 2488283538, "lat": 35.5971963, "lon": 45.0469838, "tags": {"name": "\u0686\u06c6\u06b5\u0645\u06d5\u06a9 \u0628\u0627\u0628\u0627\u0639\u06d5\u0644\u06cc", "name:ar": "\u062c\u0648\u0644\u0645\u06a9", "name:en": "Cholmak", "place": "village", "wikidata": "Q61383780", "wikipedia": "ckb:\u0686\u06c6\u06b5\u0645\u06a9"}}, {"type": "node", "id": 2488283558, "lat": 35.5990063, "lon": 45.0007522, "tags": {"name": "\u06a9\u0627\u0646\u06cc \u0686\u0646\u0627\u0631", "name:ar": "\u0643\u0627\u0646\u064a \u062c\u0646\u0627\u0631", "name:de": "Kani Chinar", "name:en": "Kani Chinar", "name:fr": "Kani Chinar", "place": "village", "wikidata": "Q64211609", "wikipedia": "ckb:\u06a9\u0627\u0646\u06cc \u0686\u0646\u0627\u0631\u060c \u062a\u06d5\u06a9\u06cc\u06d5"}}, {"type": "node", "id": 2488283570, "lat": 35.363522, "lon": 45.079055, "tags": {"alt_name": "\u062e\u064a\u0644\u064a \u0645\u0633\u0648\u0631", "int_name": "Khayl\u012b Mas\u016br, Khel i Mas\u016br, Khel Masur, \u062e\u064a\u0644\u064a \u0645\u0633\u0648\u0631, Khayli Masur, Khel i Masur, Khel Masur, \u062e\u064a\u0644\u064a \u0645\u0633\u0648\u0631", "name": "\u062e\u06ce\u06b5\u06cc \u0645\u06d5\u0633\u0648\u0648\u0631", "name:ar": "\u062e\u064a\u0644\u064a \u0645\u0633\u0648\u0631", "name:ar1": "\u062e\u064a\u0644\u064a \u0645\u0633\u0648\u0631", "name:de": "Khayli Masur", "name:en": "Khayli Masur", "name:fr": "Khayli Masur", "place": "village"}}, {"type": "node", "id": 2488283574, "lat": 35.6454216, "lon": 45.0370136, "tags": {"name": "\u06af\u06c6\u067e\u0627\u06b5\u06d5", "name:ar": "\u0643\u0648\u0628\u0627\u0644\u0629", "name:ckb": "\u06af\u06c6\u067e\u0627\u06b5\u06d5", "name:de": "Kubalah", "name:en": "Gopala", "name:fr": "Kubalah", "name:ku": "Gopale", "place": "village", "wikidata": "Q61383846", "wikipedia": "ckb:\u06af\u06c6\u067e\u0627\u06b5\u06d5"}}, {"type": "node", "id": 2488283580, "lat": 35.626905, "lon": 45.070837, "tags": {"alt_name": "\u0645\u0627\u0645 \u0628\u0647\u0631\u0627\u0645", "int_name": "M\u0101m Bahr\u0101m, \u0645\u0627\u0645 \u0628\u0647\u0631\u0627\u0645, Mam Bahram, \u0645\u0627\u0645 \u0628\u0647\u0631\u0627\u0645", "name": "\u0645\u0627\u0645 \u0628\u0627\u0631\u0627\u0645", "name:ar": "\u0645\u0627\u0645 \u0628\u0647\u0631\u0627\u0645", "name:ar1": "\u0645\u0627\u0645 \u0628\u0647\u0631\u0627\u0645", "name:de": "Mam Bahram", "name:en": "Mam Bahram", "name:fr": "Mam Bahram", "place": "village"}}, {"type": "node", "id": 2488283587, "lat": 35.5681152, "lon": 45.0029702, "tags": {"name": "\u062e\u0648\u0627\u0645\u0631\u0627\u062f", "name:ar": "\u062e\u0648\u0627\u0645\u0631\u0627\u062f", "name:en": "Khwamrad", "place": "village", "wikidata": "Q64211598", "wikipedia": "ckb:\u062e\u0648\u0627\u0645\u0631\u0627\u062f"}}, {"type": "node", "id": 2489302961, "lat": 35.2471333, "lon": 44.6716614, "tags": {"alt_name": "\u062c\u064a\u0645\u0646", "int_name": "Chiman, Jiman, \u062c\u064a\u0645\u0646, \u0686\u064a\u0645\u0646, Chiman, Jiman, \u062c\u064a\u0645\u0646, \u0686\u064a\u0645\u0646", "name": "\u0686\u06cc\u0645\u06d5\u0646\u06cc \u062d\u0627\u062c\u06cc \u0626\u06d5\u0645\u06cc\u0646", "name:ar": "\u062c\u064a\u0645\u0646 \u062d\u0627\u062c \u0627\u0645\u06cc\u0646", "name:ckb": "\u0686\u06cc\u0645\u06d5\u0646", "name:de": "Chimani Haji Emyn", "name:en": "Chimani Haji Emyn", "name:fr": "Chimani Haji Emyn", "name:ku": "\u00c7\u00eemen", "place": "village"}}, {"type": "node", "id": 2489303051, "lat": 35.3104784, "lon": 44.6315976, "tags": {"name": "\u06be\u06d5\u0631\u0645\u064a\u0646", "name:ckb": "\u06be\u06d5\u0631\u0645\u064a\u0646", "name:en": "Harmeen", "name:ku": "Herm\u00een", "place": "village"}}, {"type": "node", "id": 2489303063, "lat": 35.2829947, "lon": 44.6904488, "tags": {"name": "\u062d\u06d5\u0633\u06d5\u0646 \u062e\u0627\u0646", "name:ar": "\u062d\u0633\u0646 \u062e\u0627\u0646", "name:en": "Hasan Khan", "name:ku": "Hesen Xan", "place": "village"}}, {"type": "node", "id": 2489303603, "lat": 35.292227, "lon": 44.657402, "tags": {"name": "\u0634\u06c6\u0631\u062c\u06d5", "name:ckb": "\u0634\u06c6\u0631\u062c\u06d5", "name:en": "Shorja", "name:ku": "\u015eorice", "place": "village"}}, {"type": "node", "id": 2489322492, "lat": 35.3431981, "lon": 44.9077406, "tags": {"name": "\u0686\u0646\u06af\u0646\u06cc", "name:ar": "\u062c\u0646\u06a9\u0646\u064a", "name:en": "Chngni", "place": "village", "wikidata": "Q65403701", "wikipedia": "ckb:\u0686\u0646\u06af\u0646\u06cc"}}, {"type": "node", "id": 2489322571, "lat": 35.2406392, "lon": 44.9096685, "tags": {"name": "\u0642\u06d5\u06b5\u0627\u0645\u06cc\u06a9\u0627\u0626\u06cc\u0644\u06cc \u0628\u0686\u0648\u06a9", "name:ar": "\u0642\u0644\u0627 \u0645\u06cc\u06a9\u0627\u0626\u06cc\u0644 \u0635\u063a\u06cc\u0631", "name:en": "Little Qala Mikail", "place": "village", "wikidata": "Q65403658", "wikipedia": "ckb:\u0642\u06d5\u06b5\u0627\u0645\u06cc\u06a9\u0627\u0626\u06cc\u0644\u06cc \u0628\u0686\u0648\u06a9"}}, {"type": "node", "id": 2489322591, "lat": 35.273437, "lon": 44.9529157, "tags": {"name": "\u0642\u0627\u06cc\u062a\u06d5\u0648\u06d5\u0646\u06cc \u0628\u0686\u0648\u0648\u06a9", "name:ar": "\u0642\u064a\u062a\u0648\u0646 \u0635\u063a\u06cc\u0631", "name:en": "Small Qaytawan", "place": "village", "wikidata": "Q65403635", "wikipedia": "ckb:\u0642\u0627\u06cc\u062a\u06d5\u0648\u06d5\u0646\u06cc \u0628\u0686\u0648\u06a9"}}, {"type": "node", "id": 2489322613, "lat": 35.3318345, "lon": 44.9327416, "tags": {"name": "\u0648\u06d5\u0633\u062a\u0627 \u062e\u062f\u0631", "name:ar": "\u0648\u0633\u062a\u0627 \u062e\u0636\u0631", "name:de": "Ustadh Khidr", "name:en": "Ustadh Khidr", "name:fr": "Ustadh Khidr", "place": "village", "wikidata": "Q65404401", "wikipedia": "ckb:\u0648\u06d5\u0633\u062a\u0627\u062e\u062f\u0631"}}, {"type": "node", "id": 2489371822, "lat": 35.2271401, "lon": 45.047942, "tags": {"name": "\u06af\u0648\u06b5\u0628\u0627\u062e\u06cc \u0633\u06d5\u0631\u0648\u0648", "name:ar": "\u06a9\u0648\u0644\u0628\u0627\u062e \u0639\u0644\u06cc\u0627", "name:en": "Upper Gulbakh", "place": "village", "wikidata": "Q65404475", "wikipedia": "ckb:\u06af\u0648\u06b5\u0628\u0627\u062e\u06cc \u0633\u06d5\u0631\u0648\u0648"}}, {"type": "node", "id": 2489372131, "lat": 35.2360876, "lon": 44.9978931, "tags": {"alt_name": "\u062e\u0636\u0631 \u0631\u064a\u062d\u0627\u0646", "int_name": "Khazar Ray\u1e29\u0101n, Khazar Rih\u0101n, Khi\u1e11r R\u012b\u1e29\u0101n, \u062e\u0636\u0631 \u0631\u064a\u062d\u0627\u0646, Khazar Rayhan, Khazar Rihan, Khidr Rihan, \u062e\u0636\u0631 \u0631\u064a\u062d\u0627\u0646", "name": "\u062e\u062f\u0631\u0695\u06cc\u062d\u0627\u0646", "name:ar": "\u062e\u0636\u0631 \u0631\u064a\u062d\u0627\u0646", "name:ar1": "\u062e\u0636\u0631 \u0631\u064a\u062d\u0627\u0646", "name:de": "Khazar Rayhan", "name:en": "Khazar Rayhan", "name:fr": "Khazar Rayhan", "place": "village", "wikidata": "Q65403548", "wikipedia": "ckb:\u062e\u062f\u0631\u0695\u06cc\u062d\u0627\u0646"}}, {"type": "node", "id": 4558209449, "lat": 35.5514081, "lon": 44.5797048}, {"type": "node", "id": 4558209450, "lat": 35.5502501, "lon": 44.5755773}, {"type": "node", "id": 4558209451, "lat": 35.5471949, "lon": 44.5798688}, {"type": "node", "id": 4558209452, "lat": 35.5470727, "lon": 44.5812421}, {"type": "node", "id": 4558209453, "lat": 35.5492201, "lon": 44.5806199}, {"type": "node", "id": 4558210307, "lat": 35.5517693, "lon": 44.6525669}, {"type": "node", "id": 4558210308, "lat": 35.5511035, "lon": 44.6516944}, {"type": "node", "id": 4558210309, "lat": 35.5502428, "lon": 44.651136}, {"type": "node", "id": 4558210310, "lat": 35.5464464, "lon": 44.6537403}, {"type": "node", "id": 4558210311, "lat": 35.5463809, "lon": 44.6549286}, {"type": "node", "id": 4558210312, "lat": 35.5466324, "lon": 44.6560789}, {"type": "node", "id": 4558210420, "lat": 35.5412063, "lon": 44.7624307}, {"type": "node", "id": 4558210421, "lat": 35.5380111, "lon": 44.762023}, {"type": "node", "id": 4558210422, "lat": 35.5361078, "lon": 44.7647267}, {"type": "node", "id": 4558210423, "lat": 35.5358921, "lon": 44.7689883}, {"type": "node", "id": 4558210424, "lat": 35.5393555, "lon": 44.7682243}, {"type": "node", "id": 4558210778, "lat": 35.4367618, "lon": 44.7745276}, {"type": "node", "id": 4558210779, "lat": 35.4345798, "lon": 44.7751028}, {"type": "node", "id": 4558210780, "lat": 35.4336526, "lon": 44.7734338}, {"type": "node", "id": 4558210781, "lat": 35.4299639, "lon": 44.7729115}, {"type": "node", "id": 4558210782, "lat": 35.4297273, "lon": 44.7765253}, {"type": "node", "id": 4558210783, "lat": 35.4336269, "lon": 44.7814484}, {"type": "node", "id": 4558210784, "lat": 35.4386375, "lon": 44.7811711}, {"type": "node", "id": 4926008129, "lat": 35.6285423, "lon": 44.6191715}, {"type": "node", "id": 4926008130, "lat": 35.6284217, "lon": 44.6202443}, {"type": "node", "id": 4926008131, "lat": 35.6285949, "lon": 44.6213061}, {"type": "node", "id": 4926008132, "lat": 35.6328162, "lon": 44.6225624}, {"type": "node", "id": 4926008133, "lat": 35.6333481, "lon": 44.6217516}, {"type": "node", "id": 5130628753, "lat": 35.6292348, "lon": 44.7967686}, {"type": "node", "id": 5130628754, "lat": 35.6294073, "lon": 44.7970123}, {"type": "node", "id": 5130628755, "lat": 35.6291811, "lon": 44.7980757}, {"type": "node", "id": 5130628756, "lat": 35.6280488, "lon": 44.7975168}, {"type": "node", "id": 5130628757, "lat": 35.6279347, "lon": 44.7973231}, {"type": "node", "id": 5130628758, "lat": 35.6279886, "lon": 44.7968261}, {"type": "node", "id": 5130628759, "lat": 35.6281478, "lon": 44.7967295}, {"type": "node", "id": 5130628760, "lat": 35.6286853, "lon": 44.7967881}, {"type": "node", "id": 5385662688, "lat": 35.6156164, "lon": 44.7444105}, {"type": "node", "id": 5385662689, "lat": 35.6125811, "lon": 44.7457838}, {"type": "node", "id": 5385662690, "lat": 35.6130347, "lon": 44.748702}, {"type": "node", "id": 5385662691, "lat": 35.6152326, "lon": 44.7481441}, {"type": "node", "id": 5385663944, "lat": 35.6408968, "lon": 44.6709983}, {"type": "node", "id": 5385663945, "lat": 35.6397458, "lon": 44.6688311}, {"type": "node", "id": 5385663946, "lat": 35.6376183, "lon": 44.6712773}, {"type": "node", "id": 5385663947, "lat": 35.6392576, "lon": 44.6724789}, {"type": "node", "id": 5385663956, "lat": 35.5755445, "lon": 44.7953101}, {"type": "node", "id": 5385663957, "lat": 35.5737588, "lon": 44.7932559}, {"type": "node", "id": 5385663958, "lat": 35.572344, "lon": 44.7947451}, {"type": "node", "id": 5385663959, "lat": 35.5740058, "lon": 44.7972709}, {"type": "node", "id": 5385663989, "lat": 35.6153518, "lon": 44.7701907}, {"type": "node", "id": 5385663990, "lat": 35.6120835, "lon": 44.7700899}, {"type": "node", "id": 5385663991, "lat": 35.6114903, "lon": 44.7725146}, {"type": "node", "id": 5385663992, "lat": 35.6152409, "lon": 44.7732012}, {"type": "node", "id": 5385664139, "lat": 35.487764, "lon": 44.6347134}, {"type": "node", "id": 5385664140, "lat": 35.4890637, "lon": 44.6398357}, {"type": "node", "id": 6178200385, "lat": 35.3795382, "lon": 44.8014925, "tags": {"name": "\u0645\u06c6\u0631\u062f\u0627\u0646\u06d5", "name:ar": "\u0645\u0648\u0631\u062f\u0627\u0646\u0629", "name:ckb": "\u0645\u06c6\u0631\u062f\u0627\u0646\u06d5", "name:en": "Mordana", "name:ku": "Mordane", "place": "village", "wikidata": "Q65403673", "wikipedia": "ckb:\u0645\u06c6\u0631\u062f\u0627\u0646\u06d5"}}, {"type": "node", "id": 6358483963, "lat": 35.2382453, "lon": 44.6235352}, {"type": "node", "id": 6358483964, "lat": 35.2360083, "lon": 44.621031}, {"type": "node", "id": 6358483965, "lat": 35.2382134, "lon": 44.6182139}, {"type": "node", "id": 6358483966, "lat": 35.2338568, "lon": 44.6133213}, {"type": "node", "id": 6358483967, "lat": 35.2390489, "lon": 44.6027433}, {"type": "node", "id": 6358483968, "lat": 35.2462662, "lon": 44.605615}, {"type": "node", "id": 6358483969, "lat": 35.2476083, "lon": 44.6078648}, {"type": "node", "id": 6358483970, "lat": 35.2461064, "lon": 44.6126383}, {"type": "node", "id": 6358483971, "lat": 35.2501805, "lon": 44.6185856}, {"type": "node", "id": 6358483972, "lat": 35.245675, "lon": 44.6259415}, {"type": "node", "id": 6358483973, "lat": 35.2419254, "lon": 44.6194011}, {"type": "node", "id": 6636903839, "lat": 35.3776845, "lon": 44.9879451, "tags": {"name": "\u062e\u0648\u06ce\u06b5\u06ce\u0646\u06cc \u06a9\u06d5\u0648\u06d5\u06b5\u06d5", "name:ar": "\u062e\u0648\u06cc\u0644\u06cc\u0646 \u06a9\u0648\u0644\u0629", "name:en": "Khwelen Kawala", "place": "village", "wikidata": "Q65402448", "wikipedia": "ckb:\u062e\u0648\u06ce\u06b5\u06cc\u0646\u06cc \u06a9\u06d5\u0648\u06d5\u06b5\u06d5"}}, {"type": "node", "id": 6636908669, "lat": 35.3769717, "lon": 44.9827646, "tags": {"name": "\u062e\u0648\u06ce\u06b5\u06ce\u0646\u06cc \u0642\u06d5\u06b5\u0627\u06cc \u0628\u0627\u0633\u06d5\u0695\u06d5", "name:en": "Khwelini Qalai Basara", "place": "village", "wikidata": "Q65402444", "wikipedia": "ckb:\u062e\u0648\u06ce\u06b5\u06cc\u0646\u06cc \u0642\u06d5\u06b5\u0627\u06cc \u0628\u0627\u0633\u06d5\u0695\u06d5"}}, {"type": "node", "id": 6695767711, "lat": 35.3206108, "lon": 44.8492412, "tags": {"name": "\u0628\u0627\u0646\u06af\u06c6\u06b5", "name:ar": "\u0628\u0627\u0646\u062c\u0648\u0644", "name:en": "Bangol", "place": "village", "wikidata": "Q65403493", "wikipedia": "ckb:\u0628\u0627\u0646\u06af\u06c6\u06b5"}}, {"type": "node", "id": 6695803149, "lat": 35.3109871, "lon": 44.8419658, "tags": {"name": "\u06a9\u0627\u0646\u06cc \u0628\u0627\u06cc\u0632", "name:ar": "\u0643\u0627\u0646\u064a \u0628\u0627\u064a\u0632", "name:en": "Kani Bayz", "place": "village", "wikidata": "Q65403715", "wikipedia": "ckb:\u06a9\u0627\u0646\u06cc \u0628\u0627\u06cc\u0632"}}, {"type": "node", "id": 6695811205, "lat": 35.3680805, "lon": 44.7740409, "tags": {"name": "\u0647\u06d5\u0646\u0627\u0631\u06d5\u06cc \u0645\u062d\u06d5\u0645\u06d5\u062f \u0626\u06d5\u0645\u06cc\u0646", "name:ar": "\u0647\u0646\u0627\u0631\u0629 \u0645\u062d\u0645\u062f \u0623\u0645\u064a\u0646", "name:en": "Hanara i Mohammed Amin", "place": "village", "wikidata": "Q65403767", "wikipedia": "ckb:\u06be\u06d5\u0646\u0627\u0631\u06d5\u06cc \u0645\u062d\u06d5\u0645\u06d5\u062f\u0626\u06d5\u0645\u06cc\u0646"}}, {"type": "node", "id": 6708408451, "lat": 35.3484459, "lon": 44.9593048, "tags": {"name": "\u062d\u06d5\u0645\u06d5\u06cc \u0628\u0627\u0631\u0627\u0645", "name:ar": "\u062d\u0645\u0629 \u0628\u0627\u0631\u0627\u0645", "name:en": "Hama Baram", "place": "village", "wikidata": "Q65402421", "wikipedia": "ckb:\u062d\u06d5\u0645\u06d5\u06cc \u0628\u0627\u0631\u0627\u0645\u060c \u0633\u06d5\u0646\u06af\u0627\u0648"}}, {"type": "node", "id": 6710538159, "lat": 35.4554269, "lon": 44.8798851, "tags": {"name": "\u0646\u0648\u0648\u0631\u06d5\u06cc \u0633\u06d5\u0631\u0648\u0648", "name:ar": "\u0646\u0648\u0631\u0629 \u0639\u0644\u06cc\u0627", "name:en": "Upper Nura", "place": "village", "wikidata": "Q64210717", "wikipedia": "ckb:\u0646\u0648\u0631\u06d5\u06cc \u0633\u06d5\u0631\u0648\u0648"}}, {"type": "node", "id": 6727037814, "lat": 35.3340526, "lon": 44.8047731, "tags": {"name": "\u0632\u06d5\u0648\u062c", "name:ar": "\u0632\u0648\u062c", "name:en": "Zawj", "place": "village"}}, {"type": "node", "id": 6772568777, "lat": 35.4830384, "lon": 44.8666998, "tags": {"name": "\u06af\u06c6\u0634\u0642\u0648\u062a", "place": "village"}}, {"type": "node", "id": 6813689276, "lat": 35.3078209, "lon": 44.7986567}, {"type": "node", "id": 6813689277, "lat": 35.3073437, "lon": 44.8019074}, {"type": "node", "id": 6813689278, "lat": 35.3102918, "lon": 44.8020319}, {"type": "node", "id": 6815744512, "lat": 35.4024106, "lon": 44.7301022}, {"type": "node", "id": 6815744513, "lat": 35.4024659, "lon": 44.7307863}, {"type": "node", "id": 6815744514, "lat": 35.4020187, "lon": 44.7311006}, {"type": "node", "id": 6815744515, "lat": 35.3998837, "lon": 44.7303056}, {"type": "node", "id": 6815744516, "lat": 35.4000495, "lon": 44.7293873}, {"type": "node", "id": 6815744517, "lat": 35.4015616, "lon": 44.7284505}, {"type": "node", "id": 6815744518, "lat": 35.4021343, "lon": 44.7290236}, {"type": "node", "id": 6815744519, "lat": 35.4008851, "lon": 44.729114}, {"type": "node", "id": 6822227329, "lat": 35.3397105, "lon": 44.7218194}, {"type": "node", "id": 6822227330, "lat": 35.3369759, "lon": 44.7237173}, {"type": "node", "id": 6822227331, "lat": 35.3338065, "lon": 44.7259325}, {"type": "node", "id": 6822227332, "lat": 35.3322104, "lon": 44.7242596}, {"type": "node", "id": 6822227333, "lat": 35.3315386, "lon": 44.7225253}, {"type": "node", "id": 6822227334, "lat": 35.3312941, "lon": 44.7185581}, {"type": "node", "id": 6822227335, "lat": 35.3361314, "lon": 44.7182947}, {"type": "node", "id": 6822227336, "lat": 35.3396602, "lon": 44.7210923}, {"type": "node", "id": 6822227337, "lat": 35.337897, "lon": 44.7235378}, {"type": "node", "id": 6822227338, "lat": 35.3343394, "lon": 44.7258687}, {"type": "node", "id": 6822227339, "lat": 35.3317949, "lon": 44.7179604}, {"type": "node", "id": 6982130402, "lat": 35.4293814, "lon": 44.773735}, {"type": "node", "id": 6982130403, "lat": 35.4359486, "lon": 44.7810951}, {"type": "node", "id": 6982130404, "lat": 35.4357684, "lon": 44.7741918}, {"type": "node", "id": 7195151626, "lat": 35.50741, "lon": 44.8456819, "tags": {"name": "\u0634\u06c6\u0695\u0634", "name:ar": "\u0634\u0648\u0631\u0634", "name:en": "Shorsh", "place": "town", "wikidata": "Q65403613", "wikipedia": "ckb:\u0634\u06c6\u0695\u0634\u060c \u0686\u06d5\u0645\u0686\u06d5\u0645\u0627\u06b5"}}, {"type": "node", "id": 7291818612, "lat": 35.6352591, "lon": 45.0168826, "tags": {"name": "\u062f\u06d5\u0631\u06af\u06d5\u0632\u06ce\u0646\u06cc \u0628\u0627\u0628\u06d5\u0639\u06d5\u0644\u06cc", "name:ar": "\u062f\u0631\u06a9\u0629\u0632\u06cc\u0646\u064a \u0628\u0627\u0628\u0629\u0639\u0644\u064a", "name:en": "Dargazen Baba Ali", "place": "village", "wikidata": "Q61383802", "wikipedia": "ckb:\u062f\u06d5\u0631\u06af\u06d5\u0632\u06ce\u0646\u06cc \u0628\u0627\u0628\u06d5\u0639\u06d5\u0644\u06cc"}}, {"type": "node", "id": 7291819477, "lat": 35.6330802, "lon": 45.0296239, "tags": {"name": "\u062f\u06d5\u0631\u06af\u06d5\u0632\u06ce\u0646\u06cc \u06be\u06d5\u0645\u06d5\u0648\u06d5\u0646\u062f", "name:ar": "\u062f\u0631\u06a9\u0629\u0632\u06cc\u0646\u064a \u06be\u0645\u0648\u0646\u062f", "name:en": "Dargazen Hamawand", "place": "village", "wikidata": "Q61383944", "wikipedia": "ckb:\u062f\u06d5\u0631\u06af\u06d5\u0632\u06ce\u0646\u06cc \u06be\u06d5\u0645\u06d5\u0648\u06d5\u0646\u062f"}}, {"type": "node", "id": 7328052839, "lat": 35.4297332, "lon": 44.8922563, "tags": {"name": "\u06af\u06c6\u0695\u0628\u0646\u06d5", "name:ar": "\u06a9\u0648\u0631\u0628\u0646\u0629", "name:en": "Gorbna", "place": "village", "wikidata": "Q64210681", "wikipedia": "ckb:\u06af\u06c6\u0695\u0628\u0646\u06d5"}}, {"type": "node", "id": 7371501460, "lat": 35.4992596, "lon": 44.8488198}, {"type": "node", "id": 7371501461, "lat": 35.4946651, "lon": 44.8528323}, {"type": "node", "id": 7371501462, "lat": 35.4940711, "lon": 44.8515663}, {"type": "node", "id": 7371501463, "lat": 35.4959928, "lon": 44.8458801}, {"type": "node", "id": 7371501464, "lat": 35.4993295, "lon": 44.8474465}, {"type": "node", "id": 7392849813, "lat": 35.5690646, "lon": 44.8484055}, {"type": "node", "id": 7392849814, "lat": 35.5662021, "lon": 44.8532335}, {"type": "node", "id": 7392849815, "lat": 35.5634617, "lon": 44.8494355}, {"type": "node", "id": 7392849816, "lat": 35.5625715, "lon": 44.8475043}, {"type": "node", "id": 7392849817, "lat": 35.5627111, "lon": 44.8456375}, {"type": "node", "id": 7392849818, "lat": 35.5662894, "lon": 44.8425047}, {"type": "node", "id": 7394286064, "lat": 35.21013, "lon": 44.874721}, {"type": "node", "id": 7394286065, "lat": 35.2098145, "lon": 44.8747103}, {"type": "node", "id": 7394286066, "lat": 35.2096348, "lon": 44.8743187}, {"type": "node", "id": 7394286067, "lat": 35.209889, "lon": 44.8740559}, {"type": "node", "id": 7394286068, "lat": 35.2102922, "lon": 44.8743187}, {"type": "node", "id": 7394313831, "lat": 35.3818523, "lon": 44.9609097}, {"type": "node", "id": 7394313832, "lat": 35.3815812, "lon": 44.9599387}, {"type": "node", "id": 7394313833, "lat": 35.3810957, "lon": 44.9602874}, {"type": "node", "id": 7394313834, "lat": 35.3814631, "lon": 44.9612637}, {"type": "node", "id": 7399865479, "lat": 35.4153928, "lon": 44.560263, "tags": {"name": "\u062c\u0627\u0641\u0627\u0646", "name:ar": "\u062c\u0627\u0641\u0627\u0646", "name:ckb": "\u062c\u0627\u0641\u0627\u0646", "name:en": "Jafan", "name:ku": "Cafan", "place": "village"}}, {"type": "node", "id": 7406405694, "lat": 35.2898177, "lon": 44.6571923}, {"type": "node", "id": 7406405695, "lat": 35.2892543, "lon": 44.6565145}, {"type": "node", "id": 7406405696, "lat": 35.2889224, "lon": 44.6562433}, {"type": "node", "id": 7406405697, "lat": 35.2894656, "lon": 44.6545919}, {"type": "node", "id": 7406405698, "lat": 35.2906425, "lon": 44.6539757}, {"type": "node", "id": 7406405699, "lat": 35.2910047, "lon": 44.6544193}, {"type": "node", "id": 7406405700, "lat": 35.291397, "lon": 44.6545426}, {"type": "node", "id": 7406405701, "lat": 35.2917189, "lon": 44.6545303}, {"type": "node", "id": 7406405702, "lat": 35.2920106, "lon": 44.6544933}, {"type": "node", "id": 7406405703, "lat": 35.2923627, "lon": 44.6543084}, {"type": "node", "id": 7406405704, "lat": 35.2927952, "lon": 44.6545303}, {"type": "node", "id": 7406405705, "lat": 35.2931976, "lon": 44.6550232}, {"type": "node", "id": 7406405706, "lat": 35.2937307, "lon": 44.6554299}, {"type": "node", "id": 7406405707, "lat": 35.2942538, "lon": 44.6557257}, {"type": "node", "id": 7406405708, "lat": 35.2943745, "lon": 44.6578455}, {"type": "node", "id": 7406405709, "lat": 35.2942437, "lon": 44.6592258}, {"type": "node", "id": 7406405710, "lat": 35.2937408, "lon": 44.6604212}, {"type": "node", "id": 7406405711, "lat": 35.2931875, "lon": 44.6609635}, {"type": "node", "id": 7406405712, "lat": 35.2928556, "lon": 44.6609758}, {"type": "node", "id": 7406405713, "lat": 35.292594, "lon": 44.6604335}, {"type": "node", "id": 7406405714, "lat": 35.292081, "lon": 44.6590656}, {"type": "node", "id": 7406405715, "lat": 35.2914775, "lon": 44.6595462}, {"type": "node", "id": 7406405716, "lat": 35.2912867, "lon": 44.6597557}, {"type": "node", "id": 7406405717, "lat": 35.2907335, "lon": 44.6596941}, {"type": "node", "id": 7406405718, "lat": 35.2902104, "lon": 44.6596325}, {"type": "node", "id": 7406405719, "lat": 35.2898583, "lon": 44.6599159}, {"type": "node", "id": 7406405720, "lat": 35.2895565, "lon": 44.6600761}, {"type": "node", "id": 7406405721, "lat": 35.2889932, "lon": 44.6597064}, {"type": "node", "id": 7406405722, "lat": 35.289305, "lon": 44.658893}, {"type": "node", "id": 7406405723, "lat": 35.2895766, "lon": 44.6579564}, {"type": "node", "id": 7416752807, "lat": 35.4948625, "lon": 44.641881, "tags": {"name": "\u0642\u06d5\u0631\u06d5\u06be\u06d5\u0646\u062c\u06cc\u0631", "name:ar": "\u0642\u0631\u0629\u06be\u0646\u062c\u06cc\u0631", "name:ckb": "\u0642\u06d5\u0631\u06d5\u06be\u06d5\u0646\u062c\u06cc\u0631", "name:en": "Qarahanjir", "name:ku": "Qerehenc\u00eer", "place": "town"}}, {"type": "node", "id": 7502450820, "lat": 35.5069152, "lon": 44.6279816, "tags": {"name": "\u062c\u06b5\u0641\u06d5", "name:ckb": "\u0632\u0648\u06b5\u0641\u06d5", "name:en": "Zullfa", "name:ku": "Zullfe", "place": "village"}}, {"type": "node", "id": 7511540615, "lat": 35.6293366, "lon": 44.7979059}, {"type": "node", "id": 7515964472, "lat": 35.5852114, "lon": 44.7875976}, {"type": "node", "id": 7515964473, "lat": 35.5836687, "lon": 44.7899617}, {"type": "node", "id": 7515964474, "lat": 35.5833923, "lon": 44.7898485}, {"type": "node", "id": 7515964475, "lat": 35.5828627, "lon": 44.7859837}, {"type": "node", "id": 7515964476, "lat": 35.5834333, "lon": 44.7850445}, {"type": "node", "id": 7515964477, "lat": 35.585246, "lon": 44.7870171}, {"type": "node", "id": 7515964478, "lat": 35.5837809, "lon": 44.785079}, {"type": "node", "id": 7519413731, "lat": 35.434406, "lon": 44.777402, "tags": {"name": "\u0642\u06d5\u0631\u06d5\u0648\u06d5\u06cc\u0633", "name:ckb": "\u0642\u06d5\u0631\u06d5\u0648\u06d5\u06cc\u0633", "name:en": "Qaraways", "name:ku": "Qereweys", "place": "village"}}, {"type": "node", "id": 7525979295, "lat": 35.6321029, "lon": 44.6231238}, {"type": "node", "id": 7525979296, "lat": 35.6312817, "lon": 44.6233781}, {"type": "node", "id": 7525979297, "lat": 35.6304373, "lon": 44.623299}, {"type": "node", "id": 7525979298, "lat": 35.6296568, "lon": 44.6228946}, {"type": "node", "id": 7525979299, "lat": 35.6290209, "lon": 44.6222066}, {"type": "node", "id": 7525979300, "lat": 35.6289432, "lon": 44.6182074}, {"type": "node", "id": 7525979301, "lat": 35.6295797, "lon": 44.6174593}, {"type": "node", "id": 7525979302, "lat": 35.6303809, "lon": 44.6170107}, {"type": "node", "id": 7525979303, "lat": 35.6312574, "lon": 44.6169115}, {"type": "node", "id": 7525979304, "lat": 35.6321116, "lon": 44.6171729}, {"type": "node", "id": 7525979305, "lat": 35.6328483, "lon": 44.6177656}, {"type": "node", "id": 7525979306, "lat": 35.6333853, "lon": 44.6186237}, {"type": "node", "id": 7525979307, "lat": 35.6336629, "lon": 44.6196515}, {"type": "node", "id": 7525979308, "lat": 35.63365, "lon": 44.6207343}, {"type": "node", "id": 7540849551, "lat": 35.2745022, "lon": 44.8877599}, {"type": "node", "id": 7540849552, "lat": 35.2741551, "lon": 44.8879017}, {"type": "node", "id": 7540849553, "lat": 35.2735011, "lon": 44.8877661}, {"type": "node", "id": 7540849554, "lat": 35.2732445, "lon": 44.8873101}, {"type": "node", "id": 7540849555, "lat": 35.273315, "lon": 44.8870266}, {"type": "node", "id": 7540849556, "lat": 35.2737325, "lon": 44.886811}, {"type": "node", "id": 7540849557, "lat": 35.2741048, "lon": 44.886737}, {"type": "node", "id": 7540849558, "lat": 35.2744268, "lon": 44.8870759}, {"type": "node", "id": 7540849559, "lat": 35.2745978, "lon": 44.8874826}, {"type": "node", "id": 7550416665, "lat": 35.5272582, "lon": 44.995874, "tags": {"name": "\u06be\u06d5\u0631\u0627\u0648\u0627", "name:ar": "\u0647\u0631\u0627\u0648\u0627", "name:en": "Harawa", "place": "village", "wikidata": "Q64211621", "wikipedia": "ckb:\u06be\u06d5\u0631\u0627\u0648\u0627"}}, {"type": "node", "id": 7550435338, "lat": 35.5470543, "lon": 45.007637, "tags": {"name": "\u0641\u06d5\u0631\u06cc\u0642\u0627\u0648\u06d5", "name:ar": "\u0641\u0631\u06cc\u0642\u0627\u0648\u0627", "name:en": "Fariqawa", "place": "village", "wikidata": "Q64211606", "wikipedia": "ckb:\u0641\u06d5\u0631\u06cc\u0642 \u0626\u0627\u0648\u0627"}}, {"type": "node", "id": 7556988724, "lat": 35.2728194, "lon": 44.7131131, "tags": {"name": "\u067e\u0648\u06cc\u0632\u06b5", "name:ar": "\u0628\u0648\u06cc\u0632\u0644", "name:en": "Puizl", "place": "village", "wikidata": "Q65403691", "wikipedia": "ckb:\u067e\u0648\u06cc\u0632\u06b5"}}, {"type": "node", "id": 7556999726, "lat": 35.278892, "lon": 44.7429023, "tags": {"name": "\u062d\u06d5\u0645\u06a9", "name:ar": "\u062d\u0645\u06a9", "name:en": "Hamk", "place": "village", "wikidata": "Q65403544", "wikipedia": "ckb:\u062d\u06d5\u0645\u06a9"}}, {"type": "node", "id": 7591564853, "lat": 35.2305442, "lon": 44.6311281}, {"type": "node", "id": 7591564854, "lat": 35.2292365, "lon": 44.6306535}, {"type": "node", "id": 7591564855, "lat": 35.2278731, "lon": 44.6306115}, {"type": "node", "id": 7591564856, "lat": 35.2265476, "lon": 44.6310051}, {"type": "node", "id": 7591564857, "lat": 35.2253512, "lon": 44.631807}, {"type": "node", "id": 7591564858, "lat": 35.2243664, "lon": 44.6329622}, {"type": "node", "id": 7591564859, "lat": 35.2236609, "lon": 44.6343912}, {"type": "node", "id": 7591564860, "lat": 35.2232831, "lon": 44.6359956}, {"type": "node", "id": 7591564861, "lat": 35.2232592, "lon": 44.637665}, {"type": "node", "id": 7591564862, "lat": 35.2235908, "lon": 44.6392847}, {"type": "node", "id": 7591564863, "lat": 35.231706, "lon": 44.6320026}, {"type": "node", "id": 7591564864, "lat": 35.2251454, "lon": 44.6417583}, {"type": "node", "id": 7649550309, "lat": 35.3790693, "lon": 44.7668804, "tags": {"name": "\u0647\u06d5\u0646\u0627\u0631\u06d5\u06cc \u0645\u062d\u06d5\u0645\u06d5\u062f \u0634\u06d5\u0631\u06cc\u0641", "name:ar": "\u0647\u0646\u0627\u0631\u0629 \u0645\u062d\u0645\u062f \u0634\u0631\u064a\u0641", "name:en": "Hanara Mohammed Sharif", "place": "village", "wikidata": "Q65403763", "wikipedia": "ckb:\u06be\u06d5\u0646\u0627\u0631\u06d5\u06cc \u0645\u062d\u06d5\u0645\u06d5\u062f \u0634\u06d5\u0631\u06cc\u0641"}}, {"type": "node", "id": 7658032225, "lat": 35.5667619, "lon": 44.8505499, "tags": {"name": "\u06af\u0648\u0631\u06af\u06d5\u06cc\u06cc \u0686\u0627\u0648\u0633\u0648\u0648\u0631", "old_name": "\u06af\u0648\u0631\u06af\u06d5\u06cc\u06cc \u06a9\u0627\u06a9\u06d5\u06cc\u06cc", "place": "village"}}, {"type": "node", "id": 7658034674, "lat": 35.5684905, "lon": 44.8602643, "tags": {"name": "\u06af\u0648\u0631\u06af\u06d5\u06cc\u06cc \u0634\u0627\u0645\u0627\u0631", "name:ar": "\u06a9\u0648\u0631\u06a9\u0629\u06cc \u0634\u0627\u0645\u0627\u0631", "name:en": "Gurgayi Shamar", "place": "village", "wikidata": "Q64210486", "wikipedia": "ckb:\u06af\u0648\u0631\u06af\u06d5\u06cc\u06cc \u0634\u0627\u0645\u0627\u0631"}}, {"type": "node", "id": 7704467198, "lat": 35.2296876, "lon": 44.6385229}, {"type": "node", "id": 7793743313, "lat": 35.5750156, "lon": 44.76442}, {"type": "node", "id": 7793743314, "lat": 35.5748961, "lon": 44.7635295}, {"type": "node", "id": 7793743315, "lat": 35.570323, "lon": 44.7644571}, {"type": "node", "id": 7793743316, "lat": 35.5704697, "lon": 44.7654425}, {"type": "node", "id": 7793743317, "lat": 35.5745587, "lon": 44.7627279}, {"type": "node", "id": 7793743318, "lat": 35.5740363, "lon": 44.7620938}, {"type": "node", "id": 7793743319, "lat": 35.57338, "lon": 44.7616892}, {"type": "node", "id": 7793743320, "lat": 35.5726542, "lon": 44.7615538}, {"type": "node", "id": 7793743321, "lat": 35.5719299, "lon": 44.7617007}, {"type": "node", "id": 7793743322, "lat": 35.571278, "lon": 44.7621156}, {"type": "node", "id": 7793743323, "lat": 35.5707622, "lon": 44.7627579}, {"type": "node", "id": 7793743324, "lat": 35.5704332, "lon": 44.7635647}, {"type": "node", "id": 7793743325, "lat": 35.5708817, "lon": 44.7663069}, {"type": "node", "id": 7793743326, "lat": 35.5715093, "lon": 44.7669458}, {"type": "node", "id": 7793743327, "lat": 35.5722768, "lon": 44.7672824}, {"type": "node", "id": 7793743328, "lat": 35.5730916, "lon": 44.767276}, {"type": "node", "id": 7793743329, "lat": 35.5738555, "lon": 44.7669273}, {"type": "node", "id": 7793743330, "lat": 35.5744763, "lon": 44.7662784}, {"type": "node", "id": 7793743331, "lat": 35.5748792, "lon": 44.7654077}, {"type": "node", "id": 7802006671, "lat": 35.3671364, "lon": 44.5917617, "tags": {"name": "\u062e\u062f\u0631\u0628\u06d5\u06af \u0634\u06ce\u062e \u062d\u0648\u0633\u06ce\u0646", "name:ar": "\u062e\u062f\u0631\u0628\u06a9 \u0634\u06cc\u062e \u062d\u0633\u06cc\u0646", "name:en": "Khdrbag Sheykh Hussein", "name:ku": "Xidir Beg", "place": "village"}}, {"type": "node", "id": 7818745218, "lat": 35.427376, "lon": 44.6917738, "tags": {"name": "\u0634\u06ce\u062e \u062c\u06cc\u0631\u06cc \u062e\u0648\u0627\u0631\u0648\u0648", "name:ar": "\u0634\u06cc\u062e \u062c\u06cc\u0631\u064a \u0633\u0641\u0644\u06cc", "name:en": "Lower Shekh Jiri", "name:ku": "\u015e\u00eax C\u00eer\u00ee", "place": "village"}}, {"type": "node", "id": 7818752475, "lat": 35.4127779, "lon": 44.7125755, "tags": {"name": "\u0626\u06c6\u0645\u06d5\u0631\u06af\u06d5\u062f\u06d5", "name:ar": "\u0627\u0648\u0645\u0631 \u0643\u062f\u0629", "name:ckb": "\u0626\u06c6\u0645\u06d5\u0631\u06af\u06d5\u062f\u06d5", "name:en": "Omargada", "name:ku": "Omergede", "place": "village"}}, {"type": "node", "id": 7845356645, "lat": 35.5775046, "lon": 44.8597992, "tags": {"name": "\u06af\u0648\u0631\u06af\u06d5\u06cc\u06cc \u06a9\u0627\u06a9\u06d5 \u0639\u06d5\u0628\u062f\u0648\u06b5\u06b5\u0627", "name:ar": "\u06a9\u0648\u0631\u06a9\u0629\u06cc \u06a9\u0627\u06a9\u0629 \u0639\u0628\u062f\u0627\u0644\u0644\u0647", "name:en": "Gurgayi Kaka Abdulla", "old_name": "\u06af\u0648\u0631\u06af\u06d5\u06cc\u06cc \u0644\u0648\u0695", "place": "village", "wikidata": "Q64210499", "wikipedia": "ckb:\u06af\u0648\u0631\u06af\u06d5\u06cc\u06cc \u06a9\u0627\u06a9 \u0639\u06d5\u0628\u062f\u0648\u06b5\u0627"}}, {"type": "node", "id": 7845364958, "lat": 35.5831558, "lon": 44.788297, "tags": {"name": "\u06af\u06d5\u06b5\u0627\u06b5\u06cc", "place": "village"}}, {"type": "node", "id": 7845390260, "lat": 35.5732153, "lon": 44.7940759, "tags": {"name": "\u0647\u06d5\u0645\u0632\u06d5", "place": "village"}}, {"type": "node", "id": 7845491792, "lat": 35.5492811, "lon": 44.6509524}, {"type": "node", "id": 7845491793, "lat": 35.5483231, "lon": 44.6511635}, {"type": "node", "id": 7845491794, "lat": 35.5474733, "lon": 44.6517465}, {"type": "node", "id": 7845491795, "lat": 35.5468241, "lon": 44.6526378}, {"type": "node", "id": 7845491796, "lat": 35.5471738, "lon": 44.6570669}, {"type": "node", "id": 7845491797, "lat": 35.5479465, "lon": 44.6577857}, {"type": "node", "id": 7845491798, "lat": 35.548867, "lon": 44.6581579}, {"type": "node", "id": 7845491799, "lat": 35.5498361, "lon": 44.6581432}, {"type": "node", "id": 7845491800, "lat": 35.5507488, "lon": 44.6577431}, {"type": "node", "id": 7845491801, "lat": 35.5515068, "lon": 44.6570009}, {"type": "node", "id": 7845491802, "lat": 35.552028, "lon": 44.6559968}, {"type": "node", "id": 7845491803, "lat": 35.5522562, "lon": 44.6548392}, {"type": "node", "id": 7845491804, "lat": 35.5521668, "lon": 44.6536532}, {"type": "node", "id": 7965708411, "lat": 35.6045109, "lon": 44.5842435, "tags": {"name": "\u062f\u06d5\u0644\u06c6", "name:ckb": "\u062f\u06d5\u0644\u06c6", "name:en": "Dalo", "name:ku": "Delo", "place": "village"}}, {"type": "node", "id": 7966142171, "lat": 35.5995397, "lon": 44.5658797, "tags": {"name": "\u067e\u06cc\u0631\u06cc\u062c\u0627\u0646", "name:ckb": "\u067e\u06cc\u0631\u06cc\u062c\u0627\u0646", "name:en": "Pirijan", "name:ku": "P\u00eer\u00eecan", "place": "village"}}, {"type": "node", "id": 7966168263, "lat": 35.6159216, "lon": 44.5969597}, {"type": "node", "id": 7966168264, "lat": 35.615917, "lon": 44.5961505}, {"type": "node", "id": 7966168265, "lat": 35.611869, "lon": 44.596428}, {"type": "node", "id": 7966168266, "lat": 35.6119454, "lon": 44.5972676}, {"type": "node", "id": 7966168267, "lat": 35.6157032, "lon": 44.5953851}, {"type": "node", "id": 7966168268, "lat": 35.6153026, "lon": 44.5947432}, {"type": "node", "id": 7966168269, "lat": 35.6147566, "lon": 44.5942915}, {"type": "node", "id": 7966168270, "lat": 35.6141222, "lon": 44.594077}, {"type": "node", "id": 7966168271, "lat": 35.6134653, "lon": 44.5941221}, {"type": "node", "id": 7966168272, "lat": 35.6128542, "lon": 44.5944219}, {"type": "node", "id": 7966168273, "lat": 35.6123525, "lon": 44.5949454}, {"type": "node", "id": 7966168274, "lat": 35.6120123, "lon": 44.5956381}, {"type": "node", "id": 7966168275, "lat": 35.612244, "lon": 44.5980285}, {"type": "node", "id": 7966168276, "lat": 35.612731, "lon": 44.5986243}, {"type": "node", "id": 7966168277, "lat": 35.6133511, "lon": 44.5989876}, {"type": "node", "id": 7966168278, "lat": 35.614034, "lon": 44.5990772}, {"type": "node", "id": 7966168279, "lat": 35.6147025, "lon": 44.598883}, {"type": "node", "id": 7966168280, "lat": 35.6152806, "lon": 44.5984269}, {"type": "node", "id": 7966168281, "lat": 35.615703, "lon": 44.5977606}, {"type": "node", "id": 7966168282, "lat": 35.6139059, "lon": 44.5965714, "tags": {"name": "\u0695\u06d5\u062d\u06cc\u0645\u06d5 \u0642\u0648\u062a\u06d5", "name:ckb": "\u0695\u06d5\u062d\u06cc\u0645\u06d5 \u0642\u0648\u062a\u06d5", "name:en": "Rahima Quta", "name:ku": "Reh\u00eeme Qute", "place": "village"}}, {"type": "node", "id": 7966286825, "lat": 35.6127654, "lon": 44.594516}, {"type": "node", "id": 7997427246, "lat": 35.361729, "lon": 44.9538319, "tags": {"name": "\u0642\u0631\u062e", "name:ar": "\u0642\u0631\u062e", "name:en": "Qrkh", "place": "village", "wikidata": "Q64210646", "wikipedia": "ckb:\u0642\u0631\u062e"}}, {"type": "node", "id": 8066249645, "lat": 35.2421712, "lon": 44.6185654, "tags": {"name": "\u0628\u0627\u0648\u06d5", "name:ckb": "\u0628\u0627\u0648\u06d5", "name:en": "Bawa", "name:ku": "Bawe", "place": "village"}}, {"type": "node", "id": 8066249646, "lat": 35.2292222, "lon": 44.635749, "tags": {"name": "\u0633\u0627\u06b5\u06d5\u06cc\u06cc", "name:ckb": "\u0633\u0627\u06b5\u06d5\u06cc\u06cc", "name:en": "Salayi", "name:ku": "Salley\u00ee", "place": "village"}}, {"type": "node", "id": 8066249648, "lat": 35.2163134, "lon": 44.6483845, "tags": {"name": "\u0645\u0627\u0645\u0634\u06d5", "name:ckb": "\u0645\u0627\u0645\u0634\u06d5", "name:en": "Mamsha", "name:ku": "Mami\u015fe", "place": "village"}}, {"type": "node", "id": 8069531797, "lat": 35.3494372, "lon": 44.7994563, "tags": {"alt_name": "\u0633\u06d5\u06b5\u0628\u0627\u062a\u0648\u0648", "alt_name:ku": "Sellbat\u00fb", "name": "\u062a\u06d5\u06a9\u06cc\u06d5\u06cc \u062c\u06d5\u0628\u0627\u0631\u06cc", "name:ar": "\u062a\u0643\u064a\u0629 \u0627\u0644\u062c\u0628\u0627\u0631\u064a", "name:ckb": "\u062a\u06d5\u06a9\u06cc\u06d5\u06cc \u062c\u06d5\u0628\u0627\u0631\u06cc", "name:en": "Takya Jabari", "name:ku": "Tekyey Cebar\u00ee", "place": "town", "wikidata": "Q65403534", "wikipedia": "ckb:\u062a\u06d5\u06a9\u06cc\u06d5\u06cc \u062c\u06d5\u0628\u0627\u0631\u06cc"}}, {"type": "node", "id": 8120833904, "lat": 35.4695706, "lon": 44.5628578, "tags": {"name": "\u0686\u06cc\u0645\u06d5\u0646\u06cc \u0646\u0648\u06ce", "name:ckb": "\u0686\u06cc\u0645\u06d5\u0646\u06cc \u0646\u0648\u06ce", "name:en": "New Chiman", "name:ku": "\u00c7\u00eemena N\u00fb", "place": "village"}}, {"type": "node", "id": 8203550445, "lat": 35.4194948, "lon": 44.6303121, "tags": {"alt_name": "\u0642\u06d5\u0631\u06d5\u062d\u06d5\u0633\u06d5\u0646", "name": "\u062e\u0627\u06b5\u06c6\u0628\u0627\u0632\u06cc\u0627\u0646\u06cc", "name:ar": "\u062e\u0627\u0644\u0648\u0628\u0627\u0632\u06cc\u0627\u0646\u064a", "name:ckb": "\u062e\u0627\u06b5\u06c6\u0628\u0627\u0632\u06cc\u0627\u0646\u06cc", "name:en": "Khalobazyani", "name:ku": "Xallobazyan\u00ee", "place": "village"}}, {"type": "node", "id": 8514854492, "lat": 35.4216402, "lon": 44.5501077, "tags": {"name": "\u0645\u06d5\u0645\u0644\u06cc", "name:ar": "\u0645\u0645\u0644\u064a", "name:ckb": "\u0645\u06d5\u0645\u0644\u06cc", "name:en": "Mamli", "name:ku": "Meml\u00ee", "place": "village"}}, {"type": "node", "id": 8535578357, "lat": 35.4948621, "lon": 44.9710689, "tags": {"name": "\u0628\u0627\u06cc\u0646\u062c\u0627\u0646\u06cc \u0633\u06d5\u0631\u0648\u0648", "name:ar": "\u0628\u0627\u06cc\u0646\u062c\u0627\u0646 \u0639\u0644\u06cc\u0627", "name:en": "Upper baynjan", "place": "village", "wikidata": "Q64210412", "wikipedia": "ckb:\u0628\u0627\u06cc\u0646\u062c\u0627\u0646\u06cc \u0633\u06d5\u0631\u0648\u0648"}}, {"type": "node", "id": 8535602214, "lat": 35.5133257, "lon": 45.0031075, "tags": {"name": "\u0686\u06c6\u06b5\u06d5\u0645\u06d5\u06a9\u06cc \u0633\u06d5\u0631\u0648\u0648", "name:ar": "\u062c\u0648\u0644\u0645\u06a9 \u0639\u0644\u06cc\u0627", "name:en": "Cholmak Upper", "place": "village", "wikidata": "Q64211593", "wikipedia": "ckb:\u0686\u06c6\u06b5\u06d5\u0645\u06d5\u06a9\u06cc \u0633\u06d5\u0631\u0648\u0648"}}, {"type": "node", "id": 8756179994, "lat": 35.5560232, "lon": 44.9305545, "tags": {"name": "\u0686\u06d5\u0631\u0645\u0648\u0648", "name:en": "Charmu 4950 B.C.", "place": "village"}}, {"type": "node", "id": 9191659915, "lat": 35.5365188, "lon": 44.7677816}, {"type": "node", "id": 9191659916, "lat": 35.5369027, "lon": 44.7692115}, {"type": "node", "id": 9278598802, "lat": 35.5974119, "lon": 44.9736064, "tags": {"name": "\u062a\u06d5\u06a9\u06cc\u06d5\u06cc \u062d\u06d5\u0645\u06d5\u0628\u0627\u06cc\u0632", "name:ar": "\u062a\u06a9\u06cc\u0629 \u062d\u0645\u0629 \u0628\u0627\u06cc\u0632", "name:en": "Takia Hama Baiz", "place": "village", "population": "22", "wikidata": "Q64211585", "wikipedia": "ckb:\u062a\u06d5\u06a9\u06cc\u06d5\u06cc \u062d\u06d5\u0645\u06d5\u0628\u0627\u06cc\u0632"}}, {"type": "node", "id": 9278641040, "lat": 35.5879346, "lon": 44.8978906, "tags": {"name": "\u0645\u06d5\u0646\u0632\u06d5\u0631\u0627\u0648\u06d5", "place": "village"}}, {"type": "node", "id": 9278704036, "lat": 35.6116468, "lon": 44.9661296, "tags": {"name": "\u062a\u06d5\u06a9\u06cc\u06d5\u06cc \u06a9\u0627\u06a9\u06d5 \u0639\u06d5\u0628\u062f\u0648\u06b5\u0627", "name:ar": "\u062a\u06a9\u06cc\u0629 \u06a9\u0627\u06a9\u0629 \u0639\u0628\u062f\u0627\u0644\u0644\u0647", "name:en": "Takia Kaka Abdullah", "place": "village", "wikidata": "Q64211586", "wikipedia": "ckb:\u062a\u06d5\u06a9\u06cc\u06d5\u06cc \u06a9\u0627\u06a9\u06d5 \u0639\u06d5\u0628\u062f\u0648\u06b5\u0627"}}, {"type": "node", "id": 9295077089, "lat": 35.554923, "lon": 45.0216983, "tags": {"name": "\u062d\u0627\u062c\u06cc\u0627\u0648\u06d5", "name:ar": "\u062d\u0627\u062c\u06cc\u0627\u0648\u0627", "name:en": "Hajiawa", "place": "village", "wikidata": "Q64211595", "wikipedia": "ckb:\u062d\u0627\u062c\u06cc\u0627\u0648\u0627\u060c \u062a\u06d5\u06a9\u06cc\u06d5"}}, {"type": "node", "id": 9295484091, "lat": 35.549708, "lon": 44.8547906, "tags": {"name": "\u06af\u0648\u0631\u06af\u06d5\u06cc\u06cc \u0641\u06d5\u062a\u0627\u062d", "place": "village"}}, {"type": "node", "id": 9295552529, "lat": 35.3759422, "lon": 45.0684738, "tags": {"name": "\u0632\u06d5\u0644\u06d5 \u0633\u0648\u062a\u0627\u0648", "name:ar": "\u0632\u0644\u0629 \u0633\u0648\u062a\u0627\u0648", "name:en": "Zelesutaw", "place": "village", "wikidata": "Q65402615", "wikipedia": "ckb:\u0632\u06d5\u0644\u06d5\u0633\u0648\u062a\u0627\u0648"}}, {"type": "node", "id": 9296543361, "lat": 35.6131498, "lon": 44.9262575, "tags": {"name": "\u062a\u06d5\u06a9\u06cc\u06d5\u06cc \u062e\u0648\u0627\u0631\u0648\u0648", "place": "village"}}, {"type": "node", "id": 9370202211, "lat": 35.3183696, "lon": 44.5660315, "tags": {"name": "\u0641\u06d5\u0631\u0642\u0627\u0646", "name:ckb": "\u0641\u06d5\u0631\u0642\u0627\u0646", "name:en": "Farqan", "name:ku": "Ferqan", "place": "village"}}, {"type": "node", "id": 9388894566, "lat": 35.2787553, "lon": 44.5833296, "tags": {"name": "\u062e\u062f\u0631 \u0628\u0648\u06b5\u0627\u063a", "name:ckb": "\u062e\u062f\u0631 \u0628\u0648\u06b5\u0627\u063a", "name:en": "Khdr Bulagh", "name:ku": "Xidir Bullax", "place": "village"}}, {"type": "node", "id": 9388894890, "lat": 35.3062895, "lon": 44.6232861, "tags": {"name": "\u0633\u06cc\u0627 \u0645\u06d5\u0646\u0633\u0648\u0648\u0631", "name:ckb": "\u0633\u06cc\u0627 \u0645\u06d5\u0646\u0633\u0648\u0648\u0631", "name:en": "Sya Mansur", "name:ku": "Siya Mens\u00fbr", "place": "village"}}, {"type": "node", "id": 9388912298, "lat": 35.2764437, "lon": 44.8491519, "tags": {"name": "\u06af\u06c6\u0644\u06d5\u0645\u06d5", "name:ar": "\u0643\u0648\u0644\u0645\u0629", "name:ckb": "\u06af\u06c6\u0644\u06d5\u0645\u06d5", "name:en": "Golama", "name:ku": "Goleme", "place": "village", "wikidata": "Q65404485", "wikipedia": "ckb:\u06af\u06c6\u0644\u06d5\u0645\u06d5"}}, {"type": "node", "id": 9388914488, "lat": 35.2187403, "lon": 44.9153113, "tags": {"name": "\u0634\u0627\u0648\u06a9", "name:ar": "\u0634\u0627\u0648\u06a9", "name:en": "Shawk", "place": "village", "wikidata": "Q65403609", "wikipedia": "ckb:\u0634\u0627\u0648\u06a9"}}, {"type": "node", "id": 9388974046, "lat": 35.337037, "lon": 44.7223317, "tags": {"name": "\u06be\u06d5\u0641\u062a\u0627 \u0686\u06d5\u0634\u0645\u06d5", "name:ckb": "\u06be\u06d5\u0641\u062a\u0627 \u0686\u06d5\u0634\u0645\u06d5", "name:en": "Hafta Chashma", "name:ku": "Hefta \u00c7e\u015fme", "place": "village"}}, {"type": "node", "id": 9388987455, "lat": 35.3057573, "lon": 44.9255284, "tags": {"name": "\u0628\u06d5\u06a9\u0631 \u0628\u0627\u062c\u06d5\u0644\u0627\u0646", "name:ar": "\u0628\u0643\u0631 \u0628\u0627\u062c\u0644\u0627\u0646", "name:en": "Bakr Bajalan", "place": "village", "wikidata": "Q65403500", "wikipedia": "ckb:\u0628\u06d5\u06a9\u0631\u0628\u0627\u062c\u06d5\u0644\u0627\u0646"}}, {"type": "node", "id": 9389250316, "lat": 35.3083268, "lon": 44.8008872, "tags": {"name": "\u0642\u06c6\u0686\u06d5\u0644\u06cc", "name:ar": "\u0642\u0648\u062c\u0644\u06cc", "name:en": "Qochali", "place": "village", "wikidata": "Q65403643", "wikipedia": "ckb:\u0642\u06c6\u0686\u06d5\u0644\u06cc"}}, {"type": "node", "id": 9424473770, "lat": 35.4192121, "lon": 44.8578987, "tags": {"name": "\u062a\u06d5\u067e\u06d5\u062f\u06ce\u06cc \u062f\u0627\u0631\u06d5\u0642\u0627\u0632\u06cc", "name:ar": "\u062a\u0628\u0629\u062f\u064a \u062f\u0627\u0631\u0629\u0642\u0627\u0636\u064a", "name:en": "Tapade Daraqazi", "place": "village", "wikidata": "Q64210567", "wikipedia": "ckb:\u062a\u06d5\u067e\u06d5\u062f\u06ce\u06cc \u062f\u0627\u0631\u06d5\u0642\u0627\u0632\u06cc"}}, {"type": "node", "id": 9424479085, "lat": 35.425069, "lon": 44.8262212, "tags": {"name": "\u0633\u06d5\u0648\u0632\u06af\u06d5", "name:ar": "\u0633\u0648\u0632\u06a9\u0629", "name:en": "Sawzga", "place": "village", "wikidata": "Q64210613", "wikipedia": "ckb:\u0633\u06d5\u0648\u0632\u06af\u06d5"}}, {"type": "node", "id": 9424483073, "lat": 35.4550938, "lon": 44.844884, "tags": {"name": "\u0641\u06d5\u06cc\u0632\u0627\u0648\u0627\u06cc \u0633\u06d5\u0631\u0686\u06d5\u0645", "name:ar": "\u0641\u06cc\u0632\u0627\u0648\u0627 \u0633\u0631\u062c\u0645", "name:en": "Faizawa Sarcham", "place": "village", "wikidata": "Q64210636", "wikipedia": "ckb:\u0641\u06d5\u06cc\u0632\u0627\u0648\u0627\u06cc \u0633\u06d5\u0631\u0686\u06d5\u0645"}}, {"type": "node", "id": 9424484305, "lat": 35.4342726, "lon": 44.8487234, "tags": {"name": "\u062a\u06d5\u067e\u06d5\u062f\u06ce\u06cc \u062e\u0648\u0627\u0631\u0648\u0648", "name:ar": "\u062a\u0628\u0629\u062f\u064a \u0633\u0641\u0644\u06cc", "name:en": "Tapade Lower", "place": "village", "wikidata": "Q64210562", "wikipedia": "ckb:\u062a\u06d5\u067e\u06d5\u062f\u06ce\u06cc \u062e\u0648\u0627\u0631\u0648\u0648"}}, {"type": "node", "id": 9424575774, "lat": 35.4061326, "lon": 44.8979699, "tags": {"name": "\u062f\u0627\u0631\u06d5\u062a\u0648\u0648", "name:ar": "\u062f\u0627\u0631\u062a\u0648", "name:ckb": "\u062f\u0627\u0631\u06d5\u062a\u0648\u0648", "name:en": "Daratu", "name:ku": "Daret\u00fb", "place": "village", "wikidata": "Q64210599", "wikipedia": "ckb:\u062f\u0627\u0631\u06d5\u062a\u0648\u0648"}}, {"type": "node", "id": 9424580458, "lat": 35.4467433, "lon": 44.8419488, "tags": {"name": "\u062a\u06d5\u067e\u06d5\u062f\u06ce\u06cc \u0633\u06d5\u0631\u0648\u0648", "name:ar": "\u062a\u0628\u0629\u062f\u064a \u0639\u0644\u06cc\u0627", "name:en": "Tapadei Upper", "place": "village", "wikidata": "Q64210573", "wikipedia": "ckb:\u062a\u06d5\u067e\u06d5\u062f\u06ce\u06cc \u0633\u06d5\u0631\u0648\u0648"}}, {"type": "node", "id": 9424583974, "lat": 35.3616621, "lon": 44.9992329, "tags": {"name": "\u0645\u06d5\u0645\u0644\u06d5\u062d\u06d5\u06cc \u062e\u0648\u06ce\u06b5\u06cc\u0646", "name:ar": "\u0645\u0645\u0644\u062d\u0629 \u062e\u0648\u06cc\u0644\u06cc\u0646", "name:en": "Mamlaha Khwelin", "place": "village", "wikidata": "Q65402962", "wikipedia": "ckb:\u0645\u06d5\u0645\u0644\u06d5\u062d\u06d5\u06cc \u062e\u0648\u06ce\u06b5\u06cc\u0646"}}, {"type": "node", "id": 9424589138, "lat": 35.3046046, "lon": 44.9774094, "tags": {"name": "\u0698\u0627\u06b5\u06d5\u06cc \u06af\u06d5\u0648\u0631\u06d5", "name:ar": "\u0632\u0627\u0644\u0629 \u06a9\u0628\u06cc\u0631", "name:en": "Great Zhalay", "place": "village", "wikidata": "Q65403193", "wikipedia": "ckb:\u0698\u0627\u06b5\u06d5\u06cc \u06af\u06d5\u0648\u0631\u06d5"}}, {"type": "node", "id": 9424607562, "lat": 35.4356989, "lon": 44.6969663, "tags": {"name": "\u0634\u06ce\u062e \u062c\u06cc\u0631\u06cc \u0633\u06d5\u0631\u0648\u0648", "name:ar": "\u0634\u06cc\u062e \u062c\u06cc\u0631\u064a \u0639\u0644\u06cc\u0627", "name:en": "Upper Sheykh Jiri", "place": "village"}}, {"type": "node", "id": 9424610447, "lat": 35.3665212, "lon": 45.0012959, "tags": {"name": "\u062e\u0648\u06ce\u06b5\u06ce\u0646\u06cc \u0626\u0627\u0648\u06d5\u0644\u06ce\u06b5\u06d5\u06a9\u06d5", "name:ar": "\u062e\u0648\u06cc\u0644\u06cc\u0646\u064a \u0622\u0648\u0629\u0644\u06cc\u0644\u06a9\u0629", "name:en": "Khweleni Awalelaka", "place": "village", "wikidata": "Q65402440", "wikipedia": "ckb:\u062e\u0648\u06ce\u06b5\u06cc\u0646\u06cc \u0626\u0627\u0648\u06d5\u0644\u06ce\u06b5\u06d5\u06a9\u06d5"}}, {"type": "node", "id": 9424611267, "lat": 35.3800031, "lon": 44.9221493, "tags": {"name": "\u062a\u0627\u06b5\u06d5\u0628\u0627\u0646", "name:ar": "\u0637\u0627\u0644\u0628\u0627\u0646", "name:ckb": "\u062a\u0627\u06b5\u06d5\u0628\u0627\u0646", "name:en": "Talaban", "name:ku": "Talleban", "place": "village", "wikidata": "Q64210556", "wikipedia": "ckb:\u062a\u0627\u06b5\u06d5\u0628\u0627\u0646"}}, {"type": "node", "id": 9424630162, "lat": 35.401611, "lon": 44.7297702, "tags": {"name": "\u062a\u06d5\u06cc\u0645\u06d5\u0632\u0627\u0648\u0627", "name:ckb": "\u062a\u06d5\u06cc\u0645\u06d5\u0632\u0627\u0648\u0627", "name:en": "Taymazawa", "name:ku": "Teymezawa", "place": "village"}}, {"type": "node", "id": 9424639470, "lat": 35.3932969, "lon": 44.7601507, "tags": {"name": "\u0634\u06ce\u0631\u062f\u06d5\u0631\u06d5", "name:ar": "\u0634\u06cc\u0631\u062f\u0631\u0629", "name:en": "Sherdara", "place": "village"}}, {"type": "node", "id": 9424641847, "lat": 35.397298, "lon": 44.7900665, "tags": {"name": "\u06a9\u0648\u06b5\u06d5\u0628\u0627\u0646", "name:ar": "\u06a9\u0648\u0644\u0628\u0627\u0646", "name:ckb": "\u06a9\u0648\u06b5\u06d5\u0628\u0627\u0646", "name:en": "Kulaban", "name:ku": "Kulleban", "place": "village", "wikidata": "Q65403735", "wikipedia": "ckb:\u06a9\u0648\u06b5\u06d5\u0628\u0627\u0646"}}, {"type": "node", "id": 9424663665, "lat": 35.4696384, "lon": 44.6831578, "tags": {"name": "\u0628\u0627\u0634\u0628\u0648\u06b5\u0627\u063a\u06cc \u062e\u0648\u0627\u0631\u0648\u0648", "name:ar": "\u0628\u0627\u0634\u0628\u0648\u0644\u0627\u063a \u0633\u0641\u0644\u06cc", "name:en": "Lower Bashbulagh", "place": "village"}}, {"type": "node", "id": 9424663666, "lat": 35.4816711, "lon": 44.7018488, "tags": {"name": "\u0628\u0627\u0634\u0628\u0648\u06b5\u0627\u063a\u06cc \u0633\u06d5\u0631\u0648\u0648", "name:ar": "\u0628\u0627\u0634\u0628\u0648\u0644\u0627\u063a \u0639\u0644\u06cc\u0627", "name:en": "Upper Bashbulagh", "place": "village"}}, {"type": "node", "id": 9424961535, "lat": 35.3536068, "lon": 44.7930832, "tags": {"name": "\u062c\u0627\u0646\u06cc", "name:ar": "\u062c\u0627\u0646\u064a", "name:en": "Jani", "place": "village", "wikidata": "Q65403540", "wikipedia": "ckb:\u062c\u0627\u0646\u06cc"}}, {"type": "node", "id": 9438064702, "lat": 35.3882737, "lon": 44.611425, "tags": {"name": "\u062d\u0648\u0633\u06ce\u0646 \u0633\u06d5\u0644\u0627\u0645", "name:ar": "\u062d\u0633\u06cc\u0646 \u0633\u0644\u0627\u0645", "name:ckb": "\u062d\u0648\u0633\u06ce\u0646 \u0633\u06d5\u0644\u0627\u0645", "name:en": "Husen Salam", "name:ku": "Hus\u00ean Selam", "place": "village"}}, {"type": "node", "id": 9467082421, "lat": 35.6090366, "lon": 44.6902748, "tags": {"name": "\u06af\u0648\u06b5\u0645 \u06a9\u06d5\u0648\u06d5", "name:ckb": "\u06af\u0648\u06b5\u0645 \u06a9\u06d5\u0648\u06d5", "name:en": "Gullm Kawa", "name:ku": "Gullim Kewe", "place": "village"}}, {"type": "node", "id": 9467098923, "lat": 35.6133764, "lon": 44.7719769, "tags": {"name": "\u062f\u0627\u0646\u06d5 \u0633\u06c6\u0641\u06cc", "name:ar": "\u062f\u0627\u0646\u0629\u0635\u0648\u0641\u064a", "name:en": "Danasofi", "place": "village", "wikidata": "Q64210423", "wikipedia": "ckb:\u062f\u0627\u0646\u06d5\u0633\u06c6\u0641\u06cc"}}, {"type": "node", "id": 9487035927, "lat": 35.6137231, "lon": 44.9270536}, {"type": "node", "id": 9487035928, "lat": 35.6133837, "lon": 44.9274458}, {"type": "node", "id": 9487035929, "lat": 35.612341, "lon": 44.9264851}, {"type": "node", "id": 9487035930, "lat": 35.6128747, "lon": 44.9247747}, {"type": "node", "id": 9487035931, "lat": 35.6133852, "lon": 44.924551}, {"type": "node", "id": 9487035932, "lat": 35.6135767, "lon": 44.9249627}, {"type": "node", "id": 9487035933, "lat": 35.6138094, "lon": 44.9262139}, {"type": "node", "id": 9487035934, "lat": 35.6131963, "lon": 44.9244945}, {"type": "node", "id": 9556704441, "lat": 35.3564636, "lon": 45.0078734, "tags": {"name": "\u0645\u06d5\u0645\u0644\u06d5\u062d\u06d5\u06cc \u062e\u0648\u06ce\u06b5\u06cc\u0646\u06cc \u06af\u06c6\u0645", "name:ar": "\u0645\u0645\u0644\u062d\u0629 \u062e\u0648\u06cc\u0644\u06cc\u0646 \u06a9\u0648\u0645", "name:en": "Mamlaha Khwelin Gom", "place": "village", "wikidata": "Q65402969", "wikipedia": "ckb:\u0645\u06d5\u0645\u0644\u06d5\u062d\u06d5\u06cc \u062e\u0648\u06ce\u06b5\u06cc\u0646\u06cc \u06af\u06c6\u0645"}}, {"type": "node", "id": 9841317705, "lat": 35.4316914, "lon": 44.5892564, "tags": {"name": "\u06a9\u06d5\u0648\u06d5\u06b5\u06d5", "name:ar": "\u06a9\u0648\u0644\u0629", "name:ckb": "\u06a9\u06d5\u0648\u06d5\u06b5\u06d5", "name:en": "Kawala", "name:ku": "Kewelle", "place": "village"}}, {"type": "node", "id": 9907395221, "lat": 35.505336, "lon": 45.0204642, "tags": {"name": "\u062e\u0627\u06b5\u062f\u0627\u0646", "name:ar": "\u062e\u0627\u0644\u062f\u0627\u0646", "name:ckb": "\u062e\u0627\u06b5\u062f\u0627\u0646", "name:en": "Khaldan", "name:ku": "Xaldan", "place": "village", "wikidata": "Q64211597", "wikipedia": "ckb:\u062e\u0627\u06b5\u062f\u0627\u0646\u060c \u062a\u06d5\u06a9\u06cc\u06d5"}}, {"type": "node", "id": 9947285699, "lat": 35.555073, "lon": 44.6738087, "tags": {"name": "\u06af\u0648\u0631\u06af\u06d5\u06cc\u06cc \u062e\u0627\u0646", "name:ar": "\u06a9\u0648\u0631\u06a9\u0629\u064a \u062e\u0627\u0646", "name:en": "Gurgayi Khan", "place": "village"}}, {"type": "node", "id": 10091265609, "lat": 35.4895033, "lon": 44.630838}, {"type": "node", "id": 10091339564, "lat": 35.4875211, "lon": 44.6321652}, {"type": "node", "id": 10316768053, "lat": 35.5729613, "lon": 45.0667678, "tags": {"name": "\u0645\u06c6\u0631\u062a\u06a9\u06d5", "name:ar": "\u0645\u0648\u0631\u062a\u06a9\u0629", "name:en": "Mortka", "place": "village", "wikidata": "Q61383861", "wikipedia": "ckb:\u0645\u06c6\u0631\u062a\u06a9\u06d5"}}, {"type": "node", "id": 10316828654, "lat": 35.6005155, "lon": 45.0319587, "tags": {"name": "\u0633\u0627\u062a\u06cc\u0627\u0631", "name:ar": "\u0633\u0627\u062a\u06cc\u0627\u0631", "name:en": "Satyar", "place": "village", "wikidata": "Q61383953", "wikipedia": "ckb:\u0633\u0627\u062a\u06cc\u0627\u0631\u060c \u0628\u0627\u0632\u06cc\u0627\u0646"}}, {"type": "node", "id": 10316829064, "lat": 35.5959864, "lon": 45.0763352, "tags": {"name": "\u06be\u06d5\u06cc\u0627\u0633\u06cc", "name:ar": "\u0647\u06cc\u0627\u0633\u064a", "name:ckb": "\u06be\u06d5\u06cc\u0627\u0633\u06cc", "name:en": "Hayasi", "name:ku": "Heyas\u00ee", "place": "village", "wikidata": "Q61384035", "wikipedia": "ckb:\u06be\u06d5\u06cc\u0627\u0633\u06cc"}}, {"type": "node", "id": 10585187813, "lat": 35.4668135, "lon": 44.5851402, "tags": {"name": "\u0632\u06d5\u0646\u06af\u0646\u06d5", "place": "village"}}, {"type": "node", "id": 10891921941, "lat": 35.4379546, "lon": 45.0686715, "tags": {"name": "\u0642\u0648\u0644\u06d5", "name:ckb": "\u0642\u0648\u0644\u06d5", "name:en": "Qula", "name:ku": "Qule", "place": "village", "wikidata": "Q64210452", "wikipedia": "ckb:\u0642\u0648\u0644\u06d5\u060c \u0686\u06d5\u0645\u0686\u06d5\u0645\u0627\u06b5"}}, {"type": "node", "id": 10891954866, "lat": 35.4330578, "lon": 45.0277397, "tags": {"name": "\u06a9\u0648\u0646\u06d5\u06a9\u06c6\u062a\u0631", "name:ckb": "\u06a9\u0648\u0646\u06d5\u06a9\u06c6\u062a\u0631", "name:en": "Kunakotr", "name:ku": "Kunekotir", "place": "village", "wikidata": "Q64210472", "wikipedia": "ckb:\u06a9\u0648\u0646\u06d5\u06a9\u06c6\u062a\u0631\u060c \u0686\u06d5\u0645\u0686\u06d5\u0645\u0627\u06b5"}}, {"type": "node", "id": 10891970884, "lat": 35.4785716, "lon": 45.044422, "tags": {"name": "\u06a9\u0627\u0646\u06cc \u06a9\u06d5\u0648\u06d5", "name:en": "Kani Kawa", "place": "village", "wikidata": "Q64210459", "wikipedia": "ckb:\u06a9\u0627\u0646\u06cc \u06a9\u06d5\u0648\u06d5\u060c \u0686\u06d5\u0645\u0686\u06d5\u0645\u0627\u06b5"}}, {"type": "node", "id": 10891988014, "lat": 35.4439884, "lon": 44.9885374, "tags": {"name": "\u0642\u06d5\u06b5\u0627\u0686\u0648\u063a\u06d5", "name:en": "Qapachal Chogha", "place": "village", "wikidata": "Q64210659", "wikipedia": "ckb:\u0642\u06d5\u06b5\u0627\u0686\u0648\u063a\u06d5"}}, {"type": "node", "id": 10891989059, "lat": 35.4612864, "lon": 45.0164899, "tags": {"name": "\u0632\u06d5\u0646\u0627\u0646", "name:ar": "\u0632\u0646\u0627\u0646", "name:ckb": "\u0632\u06d5\u0646\u0627\u0646", "name:en": "Zanan", "name:ku": "Zenan", "place": "village", "wikidata": "Q64210429", "wikipedia": "ckb:\u0632\u06d5\u0646\u0627\u0646"}}, {"type": "node", "id": 10895542567, "lat": 35.3998135, "lon": 44.99687, "tags": {"name": "\u06af\u06d5\u0695\u0627\u0648", "name:en": "Garaw", "place": "village", "wikidata": "Q65403401", "wikipedia": "ckb:\u06af\u06d5\u0695\u0627\u0648\u060c \u0633\u06d5\u0646\u06af\u0627\u0648"}}, {"type": "node", "id": 10895560696, "lat": 35.3984803, "lon": 45.0152563, "tags": {"name": "\u06af\u06d5\u0695\u0627\u0648\u06cc \u062d\u0627\u062c\u06cc \u0634\u06d5\u0631\u06cc\u0641", "name:en": "Garaw Haji Sharif", "place": "village", "wikidata": "Q65403404", "wikipedia": "ckb:\u06af\u06d5\u0695\u0627\u0648\u06cc \u062d\u0627\u062c\u06cc \u0634\u06d5\u0631\u06cc\u0641"}}, {"type": "node", "id": 10895585132, "lat": 35.3798306, "lon": 45.0491541, "tags": {"name": "\u06a9\u0627\u0646\u06cc \u0645\u0627\u0645\u06d5", "name:en": "Kani Mama", "place": "village", "wikidata": "Q65403250", "wikipedia": "ckb:\u06a9\u0627\u0646\u06cc \u0645\u0627\u0645\u06d5"}}, {"type": "node", "id": 11162635938, "lat": 35.6288377, "lon": 44.7972224, "tags": {"name": "\u062a\u0648\u0631\u06a9\u06d5", "name:ar": "\u062a\u0648\u0631\u06a9\u0629", "name:en": "Turka", "place": "village", "wikidata": "Q64211588", "wikipedia": "ckb:\u062a\u0648\u0631\u06a9\u06d5\u060c \u062a\u06d5\u06a9\u06cc\u06d5"}}, {"type": "node", "id": 11162641059, "lat": 35.6112132, "lon": 44.7709662}, {"type": "node", "id": 11162641060, "lat": 35.6119314, "lon": 44.7740676}, {"type": "node", "id": 11162641061, "lat": 35.6134905, "lon": 44.7749281}, {"type": "node", "id": 11162696154, "lat": 35.6139298, "lon": 44.7466953, "tags": {"name": "\u0686\u0627\u06b5\u0627\u0648", "name:ar": "\u062c\u0627\u0644\u0627\u0648", "name:en": "Chalaw", "place": "village", "wikidata": "Q64210418", "wikipedia": "ckb:\u0686\u0627\u06b5\u0627\u0648\u060c \u0686\u06d5\u0645\u0686\u06d5\u0645\u0627\u06b5"}}, {"type": "node", "id": 11168984498, "lat": 35.464331, "lon": 44.9799123, "tags": {"name": "\u06be\u06d5\u06a9\u0632\u06cc \u0633\u06d5\u0631\u0648\u0648", "name:ar": "\u0647\u06a9\u0632 \u0639\u0644\u06cc\u0627", "name:ckb": "\u06be\u06d5\u06a9\u0632\u06cc \u0633\u06d5\u0631\u0648\u0648", "name:en": "Hakzi Saru", "name:ku": "Hekiz\u00ee Ser\u00fb", "place": "village", "wikidata": "Q64210523", "wikipedia": "ckb:\u06be\u06d5\u06a9\u0632\u06cc \u0633\u06d5\u0631\u0648\u0648"}}, {"type": "node", "id": 11169049855, "lat": 35.4591731, "lon": 44.9705349, "tags": {"name": "\u06be\u06d5\u06a9\u0632\u06cc \u062e\u0648\u0627\u0631\u0648\u0648", "name:ar": "\u0647\u06a9\u0632 \u0633\u0641\u0644\u06cc", "name:ckb": "\u06be\u06d5\u06a9\u0632\u06cc \u062e\u0648\u0627\u0631\u0648\u0648", "name:en": "Hakzi Khwaru", "name:ku": "Hekiz\u00ee Xwar\u00fb", "place": "village", "wikidata": "Q64210517", "wikipedia": "ckb:\u06be\u06d5\u06a9\u0632\u06cc \u062e\u0648\u0627\u0631\u0648\u0648"}}, {"type": "node", "id": 11169064929, "lat": 35.5015499, "lon": 44.9423627, "tags": {"name": "\u0628\u0627\u06cc\u0646\u062c\u0627\u0646\u06cc \u062e\u0648\u0627\u0631\u0648\u0648", "name:ar": "\u0628\u0627\u06cc\u0646\u062c\u0627\u0646 \u0633\u0641\u0644\u06cc", "name:en": "Baynjan lower", "place": "village", "wikidata": "Q64210405", "wikipedia": "ckb:\u0628\u0627\u06cc\u0646\u062c\u0627\u0646\u06cc \u062e\u0648\u0627\u0631\u0648\u0648"}}, {"type": "node", "id": 11169090234, "lat": 35.4764929, "lon": 44.9196813, "tags": {"name": "\u0642\u06d5\u0631\u06d5\u062a\u0627\u0645\u0648\u0648\u0631", "name:ar": "\u0642\u0631\u0629\u062a\u0627\u0645\u0648\u0631", "name:en": "Qara Tamur", "place": "village", "wikidata": "Q64210651", "wikipedia": "ckb:\u0642\u06d5\u0631\u06d5\u062a\u0627\u0645\u0648\u0631"}}, {"type": "node", "id": 11169123990, "lat": 35.5105374, "lon": 44.904452, "tags": {"name": "\u0639\u06d5\u0644\u06cc \u0645\u06d5\u0646\u0633\u0648\u0648\u0631", "name:ar": "\u0639\u0644\u06cc \u0645\u0646\u0635\u0648\u0631", "name:en": "Ali Mansur", "place": "village", "wikidata": "Q64210618", "wikipedia": "ckb:\u0639\u06d5\u0644\u06cc \u0645\u06d5\u0646\u0633\u0648\u0631"}}, {"type": "node", "id": 11169182744, "lat": 35.5878044, "lon": 44.8353595, "tags": {"name": "\u06a9\u0627\u0646\u06cc \u06a9\u0648\u0686\u06d5\u06b5\u06d5", "name:ar": "\u06a9\u0627\u0646\u06cc \u06a9\u0648\u062c\u0644\u0629", "name:en": "Kani Kuchalla", "place": "village", "wikidata": "Q64210465", "wikipedia": "ckb:\u06a9\u0627\u0646\u06cc \u06a9\u0648\u0686\u06d5\u06b5\u06d5"}}, {"type": "node", "id": 11169217341, "lat": 35.3955095, "lon": 45.0781334, "tags": {"name": "\u0645\u06d5\u0644\u0627 \u062d\u0633\u06ce\u0646", "name:ar": "\u0645\u0644\u0627\u062d\u0633\u06cc\u0646", "name:en": "Mala Husen", "place": "village", "wikidata": "Q64210511", "wikipedia": "ckb:\u0645\u06d5\u0644\u0627\u062d\u0633\u06ce\u0646"}}, {"type": "node", "id": 11169635265, "lat": 35.4769941, "lon": 44.942113, "tags": {"name": "\u0633\u06d5\u0639\u062f\u0648\u0646\u0627\u0648\u0627", "name:ar": "\u0633\u0639\u062f\u0648\u0646\u0627\u0648\u0627", "name:en": "Saadunawa", "place": "village", "wikidata": "Q64210606", "wikipedia": "ckb:\u0633\u06d5\u0639\u062f\u0648\u0648\u0646\u0627\u0648\u0627"}}, {"type": "node", "id": 11171310195, "lat": 35.2566901, "lon": 44.7895486, "tags": {"name": "\u0645\u06d5\u062d\u0645\u0648\u0648\u062f \u067e\u06d5\u0631\u06cc\u0632\u0627\u062f", "name:ar": "\u0645\u062d\u0645\u0648\u062f\u0628\u0631\u06cc\u0632\u0627\u062f", "name:en": "Mahmud Paryzad", "place": "village", "source": "https://krso.gov.krd/content/upload/1/root/a212.pdf", "wikidata": "Q65403680", "wikipedia": "ckb:\u0645\u06d5\u062d\u0645\u0648\u0648\u062f\u067e\u06d5\u0631\u06cc\u0632\u0627\u062f"}}, {"type": "node", "id": 11171314941, "lat": 35.2269342, "lon": 44.7004561, "tags": {"name": "\u062a\u0627\u0648\u06ce\u0631\u0628\u06d5\u0631\u0632", "name:ar": "\u062a\u0627\u0648\u06cc\u0631\u0628\u0631\u0632", "name:en": "Tawerbarz", "place": "village", "wikidata": "Q65403514", "wikipedia": "ckb:\u062a\u0627\u0648\u06ce\u0631\u0628\u06d5\u0631\u0632"}}, {"type": "node", "id": 11171318601, "lat": 35.217908, "lon": 44.7785142, "tags": {"name": "\u0632\u06d5\u0631\u062f\u06d5", "name:ar": "\u0632\u0631\u062f\u0629", "name:ckb": "\u0632\u06d5\u0631\u062f\u06d5", "name:en": "Zarda", "name:ku": "Zerde", "place": "village", "wikidata": "Q65403589", "wikipedia": "ckb:\u0632\u06d5\u0631\u062f\u06d5"}}, {"type": "node", "id": 11174573263, "lat": 35.2866978, "lon": 44.7731891, "tags": {"name": "\u0642\u06d5\u06b5\u0627\u0648\u06ce\u0698", "name:ar": "\u0642\u0644\u0639\u0629\u0648\u06cc\u0632", "name:en": "Qalawezh", "place": "village", "wikidata": "Q65403666", "wikipedia": "ckb:\u0642\u06d5\u06b5\u0627\u0648\u06ce\u0698"}}, {"type": "node", "id": 11180433407, "lat": 35.4861708, "lon": 44.8503195, "tags": {"name": "\u0639\u0648\u0633\u0645\u0627\u0646 \u063a\u06d5\u0632\u0627\u06b5", "name:ar": "\u0639\u062b\u0645\u0627\u0646 \u063a\u0632\u0627\u0644", "name:en": "Ottman Ghazal", "place": "village", "wikidata": "Q64210624", "wikipedia": "ckb:\u0639\u0648\u0633\u0645\u0627\u0646 \u063a\u06d5\u0632\u0627\u0644"}}, {"type": "node", "id": 11180445655, "lat": 35.5487902, "lon": 44.9506523, "tags": {"name": "\u06a9\u0627\u0646\u06cc \u0633\u0627\u0631\u062f", "name:ar": "\u06a9\u0627\u0646\u06cc \u0633\u0627\u0631\u062f", "name:en": "Kani Sard", "place": "village", "wikidata": "Q64211611", "wikipedia": "ckb:\u06a9\u0627\u0646\u06cc \u0633\u0627\u0631\u062f\u060c \u062a\u06d5\u06a9\u06cc\u06d5"}}, {"type": "node", "id": 11180592804, "lat": 35.5742313, "lon": 44.9691057, "tags": {"name": "\u062a\u06d5\u0634\u06a9\u06d5", "name:ar": "\u062a\u0634\u06a9\u0629", "name:en": "Tashka", "place": "village", "wikidata": "Q64211584", "wikipedia": "ckb:\u062a\u06d5\u0634\u06a9\u06d5"}}, {"type": "node", "id": 11180963563, "lat": 35.4041057, "lon": 44.8416859, "tags": {"name": "\u062c\u0627\u0641\u0627\u0646", "name:ar": "\u062c\u0627\u0641\u0627\u0646", "name:ckb": "\u062c\u0627\u0641\u0627\u0646", "name:en": "Jafan", "name:ku": "Cafan", "place": "village", "wikidata": "Q64210578", "wikipedia": "ckb:\u062c\u0627\u0641\u0627\u0646"}}, {"type": "node", "id": 11181068291, "lat": 35.3522224, "lon": 44.9850615, "tags": {"name": "\u062f\u06ce\u06cc \u0695\u06d5\u0634\u06d5", "name:ar": "\u062f\u064a \u0631\u0634\u0629", "name:en": "Derasha", "place": "village", "wikidata": "Q65402537", "wikipedia": "ckb:\u062f\u06ce\u06cc \u0695\u06d5\u0634\u06d5"}}, {"type": "node", "id": 11181081939, "lat": 35.327703, "lon": 45.014856, "tags": {"name": "\u0626\u0627\u0648\u06d5\u0628\u06c6\u0631\u06d5\u06a9\u06d5\u06cc \u0633\u06d5\u0631\u0648\u0648", "name:ar": "\u0622\u0648\u0629\u0628\u0648\u0631\u06a9\u0629 \u0639\u0644\u06cc\u0627", "name:en": "Awaboraka Upper", "place": "village", "wikidata": "Q65404195", "wikipedia": "ckb:\u0626\u0627\u0648\u06d5\u0628\u06c6\u0631\u06d5\u06a9\u06d5\u06cc \u0633\u06d5\u0631\u0648\u0648"}}, {"type": "node", "id": 11181090263, "lat": 35.3163462, "lon": 45.0232038, "tags": {"name": "\u0626\u0627\u0648\u06d5\u0628\u06c6\u0631\u06d5\u06a9\u06d5\u06cc \u062e\u0648\u0627\u0631\u0648\u0648", "name:ar": "\u0622\u0648\u0629\u0628\u0648\u0631\u06a9\u0629 \u0633\u0641\u0644\u06cc", "name:en": "Awaboraka Lower", "place": "village", "wikidata": "Q65404191", "wikipedia": "ckb:\u0626\u0627\u0648\u06d5\u0628\u06c6\u0631\u06d5\u06a9\u06d5\u06cc \u062e\u0648\u0627\u0631\u0648\u0648"}}, {"type": "node", "id": 11181099820, "lat": 35.2902481, "lon": 45.0259068, "tags": {"name": "\u0642\u06d5\u06cc\u062a\u0648\u0644", "name:ar": "\u0642\u06cc\u062a\u0648\u0644", "name:en": "Qaitul", "place": "village", "wikidata": "Q65403669", "wikipedia": "ckb:\u0642\u06d5\u06cc\u062a\u0648\u0644"}}, {"type": "node", "id": 11181151645, "lat": 35.5918701, "lon": 44.9372815, "tags": {"name": "\u0644\u06a9\u0627\u0648\u06d5\u06cc \u062a\u0627\u0632\u06d5", "name:ar": "\u0644\u06a9\u0627\u0648\u0629 \u062c\u062f\u06cc\u062f\u0629", "name:en": "New Lkawa", "place": "village", "wikidata": "Q64211614", "wikipedia": "ckb:\u0644\u06a9\u0627\u0648\u06d5\u06cc \u062a\u0627\u0632\u06d5"}}, {"type": "node", "id": 11181235631, "lat": 35.5517139, "lon": 44.9128146, "tags": {"name": "\u0686\u0627\u06b5\u06af\u06d5", "name:ar": "\u062c\u0627\u0644\u06a9\u0629", "name:en": "Chalga", "place": "village", "wikidata": "Q64211589", "wikipedia": "ckb:\u0686\u0627\u06b5\u06af\u06d5\u060c \u062a\u06d5\u06a9\u06cc\u06d5"}}, {"type": "node", "id": 11181269516, "lat": 35.5454733, "lon": 44.879534, "tags": {"name": "\u0642\u0648\u062f\u0631\u06d5\u062a\u06d5", "name:ar": "\u0642\u0648\u062f\u0631\u062a\u0629", "name:en": "Qudrata", "place": "village", "wikidata": "Q64210665", "wikipedia": "ckb:\u0642\u0648\u062f\u0631\u06d5\u062a\u06d5"}}, {"type": "node", "id": 11181382447, "lat": 35.6175617, "lon": 44.9881435, "tags": {"name": "\u06a9\u0627\u0646\u06cc \u0628\u0646\u0627\u0648", "name:ar": "\u06a9\u0627\u0646\u064a \u0628\u0646\u0627\u0648", "name:en": "Kani Bnaw", "place": "village", "wikidata": "Q64211608", "wikipedia": "ckb:\u06a9\u0627\u0646\u06cc \u0628\u0646\u0627\u0648\u060c \u062a\u06d5\u06a9\u06cc\u06d5"}}, {"type": "node", "id": 11181397826, "lat": 35.5394791, "lon": 45.0146751, "tags": {"name": "\u0695\u06d5\u0626\u0648\u0641\u0627\u0648\u06d5", "name:ar": "\u0631\u0648\u0624\u0641\u0627\u0648\u0627", "name:en": "Raufawa", "place": "village", "wikidata": "Q64211601", "wikipedia": "ckb:\u0695\u06d5\u0626\u0648\u0641 \u0626\u0627\u0648\u0627"}}, {"type": "node", "id": 11181572672, "lat": 35.5195484, "lon": 45.0674678, "tags": {"name": "\u0645\u0627\u0631\u0648\u0648\u0644\u06d5", "name:ar": "\u0645\u0627\u0631\u0648\u0644\u0629", "name:ckb": "\u0645\u0627\u0631\u0648\u0648\u0644\u06d5", "name:en": "Marula", "name:ku": "Mar\u00fble", "place": "village", "wikidata": "Q64211618", "wikipedia": "ckb:\u0645\u0627\u0631\u0648\u0648\u0644\u06d5"}}, {"type": "node", "id": 11181711502, "lat": 35.5067682, "lon": 44.986004, "tags": {"name": "\u0686\u06c6\u06b5\u06d5\u0645\u06d5\u06a9\u06cc \u062e\u0648\u0627\u0631\u0648\u0648", "name:ar": "\u062c\u0648\u0644\u0645\u06a9 \u0633\u0641\u0644\u06cc", "name:en": "Lower Cholamak", "place": "village", "wikidata": "Q64211592", "wikipedia": "ckb:\u0686\u06c6\u06b5\u06d5\u0645\u06d5\u06a9\u06cc \u062e\u0648\u0627\u0631\u0648\u0648"}}, {"type": "node", "id": 11181743264, "lat": 35.3657204, "lon": 44.855647, "tags": {"name": "\u06af\u06c6\u0631\u0627\u0646", "name:ar": "\u06a9\u0648\u0631\u0627\u0646", "name:en": "Goran", "place": "village", "wikidata": "Q65403755", "wikipedia": "ckb:\u06af\u06c6\u0631\u0627\u0646 \u062c\u06d5\u0628\u0627\u0631\u06cc"}}, {"type": "node", "id": 11181764739, "lat": 35.4541649, "lon": 44.8980266, "tags": {"name": "\u0646\u0648\u0631\u06d5\u06cc \u062e\u0648\u0627\u0631\u0648\u0648", "name:ar": "\u0646\u0648\u0631\u0629 \u0633\u0641\u0644\u06cc", "name:en": "Lower Nura", "place": "village", "wikidata": "Q64210705", "wikipedia": "ckb:\u0646\u0648\u0631\u06d5\u06cc \u062e\u0648\u0627\u0631\u0648\u0648"}}, {"type": "node", "id": 11181792578, "lat": 35.5159938, "lon": 44.8693791, "tags": {"name": "\u067e\u06cc\u0631\u06cc\u0627\u062f\u06cc", "name:ar": "\u0628\u06cc\u0631\u06cc\u0627\u062f\u064a", "name:en": "Piryadi", "place": "village", "wikidata": "Q64210549", "wikipedia": "ckb:\u067e\u06cc\u0631\u06cc\u0627\u062f\u06cc"}}, {"type": "node", "id": 11181806745, "lat": 35.4245199, "lon": 45.0134049, "tags": {"name": "\u0642\u0627\u0633\u0645 \u0628\u06d5\u06af\u0632\u0627\u062f\u06d5", "name:ar": "\u0642\u0627\u0633\u0645 \u0628\u06a9\u0632\u0627\u062f\u0629", "name:en": "Qasm Bagzada", "place": "village", "wikidata": "Q64210641", "wikipedia": "ckb:\u0642\u0627\u0633\u0645 \u0628\u06d5\u06af\u0632\u0627\u062f\u06d5"}}, {"type": "node", "id": 11228535370, "lat": 35.3960328, "lon": 44.7871556}, {"type": "node", "id": 11228535371, "lat": 35.3958356, "lon": 44.787206}, {"type": "node", "id": 11228535372, "lat": 35.3956302, "lon": 44.7876293}, {"type": "node", "id": 11228535373, "lat": 35.3954412, "lon": 44.7883146}, {"type": "node", "id": 11228535374, "lat": 35.3962464, "lon": 44.7887077}, {"type": "node", "id": 11228535375, "lat": 35.3965175, "lon": 44.7892419}, {"type": "node", "id": 11228535376, "lat": 35.3968379, "lon": 44.7891612}, {"type": "node", "id": 11228535377, "lat": 35.3971747, "lon": 44.7896752}, {"type": "node", "id": 11228535378, "lat": 35.3975444, "lon": 44.7901086}, {"type": "node", "id": 11228535379, "lat": 35.3979223, "lon": 44.7903202}, {"type": "node", "id": 11228535380, "lat": 35.3977333, "lon": 44.7906629}, {"type": "node", "id": 11228535381, "lat": 35.3975937, "lon": 44.7911567}, {"type": "node", "id": 11228535382, "lat": 35.3977251, "lon": 44.7915599}, {"type": "node", "id": 11228535383, "lat": 35.3983166, "lon": 44.7914188}, {"type": "node", "id": 11228535384, "lat": 35.3983577, "lon": 44.7918521}, {"type": "node", "id": 11228535385, "lat": 35.3986042, "lon": 44.792346}, {"type": "node", "id": 11228535386, "lat": 35.3991135, "lon": 44.7921444}, {"type": "node", "id": 11228535387, "lat": 35.3996639, "lon": 44.7914893}, {"type": "node", "id": 11228535388, "lat": 35.3997625, "lon": 44.7910963}, {"type": "node", "id": 11228535389, "lat": 35.3994421, "lon": 44.7909249}, {"type": "node", "id": 11228535390, "lat": 35.399056, "lon": 44.7910257}, {"type": "node", "id": 11228535391, "lat": 35.3987849, "lon": 44.7904714}, {"type": "node", "id": 11228535392, "lat": 35.398177, "lon": 44.7899473}, {"type": "node", "id": 11228535393, "lat": 35.3976348, "lon": 44.7896853}, {"type": "node", "id": 11228548572, "lat": 35.364459, "lon": 44.7485478, "tags": {"name": "\u0647\u06d5\u0646\u0627\u0631\u06d5\u06cc \u0645\u062d\u06d5\u0645\u06d5\u062f \u0633\u06d5\u0639\u06cc\u062f", "name:ar": "\u0647\u0646\u0627\u0631\u0629 \u0645\u062d\u0645\u062f \u0633\u0639\u064a\u062f", "name:en": "Hanara i Mohammed Saeed", "place": "village", "wikidata": "Q65403758", "wikipedia": "ckb:\u06be\u06d5\u0646\u0627\u0631\u06d5\u06cc \u0645\u062d\u06d5\u0645\u06d5\u062f \u0633\u06d5\u0639\u06cc\u062f"}}, {"type": "node", "id": 11233195373, "lat": 35.3088811, "lon": 44.8204926}, {"type": "node", "id": 11233195374, "lat": 35.3086489, "lon": 44.8204764}, {"type": "node", "id": 11233195375, "lat": 35.3086356, "lon": 44.8208667}, {"type": "node", "id": 11233195376, "lat": 35.3088147, "lon": 44.8212}, {"type": "node", "id": 11233195377, "lat": 35.30912, "lon": 44.8212}, {"type": "node", "id": 11233195378, "lat": 35.3092726, "lon": 44.8216716}, {"type": "node", "id": 11233195379, "lat": 35.309611, "lon": 44.8216147}, {"type": "node", "id": 11233195380, "lat": 35.3098034, "lon": 44.8213545}, {"type": "node", "id": 11233195381, "lat": 35.3099494, "lon": 44.8210943}, {"type": "node", "id": 11233195382, "lat": 35.3105067, "lon": 44.8210537}, {"type": "node", "id": 11233195383, "lat": 35.3107721, "lon": 44.8211756}, {"type": "node", "id": 11233195384, "lat": 35.3107456, "lon": 44.8214114}, {"type": "node", "id": 11233195385, "lat": 35.3109513, "lon": 44.8219481}, {"type": "node", "id": 11233195386, "lat": 35.311356, "lon": 44.8219481}, {"type": "node", "id": 11233195387, "lat": 35.3119465, "lon": 44.8224928}, {"type": "node", "id": 11233195388, "lat": 35.3122451, "lon": 44.822257}, {"type": "node", "id": 11233195389, "lat": 35.3122849, "lon": 44.8220782}, {"type": "node", "id": 11233195390, "lat": 35.3120991, "lon": 44.8214277}, {"type": "node", "id": 11233195391, "lat": 35.3123512, "lon": 44.8212}, {"type": "node", "id": 11233195392, "lat": 35.3120726, "lon": 44.8208748}, {"type": "node", "id": 11233195393, "lat": 35.3116745, "lon": 44.8208341}, {"type": "node", "id": 11233195394, "lat": 35.3115351, "lon": 44.8209886}, {"type": "node", "id": 11233195395, "lat": 35.3107854, "lon": 44.8207203}, {"type": "node", "id": 11233195396, "lat": 35.3096309, "lon": 44.8205902}, {"type": "node", "id": 11233195397, "lat": 35.3090934, "lon": 44.8206553}, {"type": "node", "id": 11233195398, "lat": 35.3105639, "lon": 44.8211901, "tags": {"name": "\u0633\u06c6\u0631\u0627\u0646", "name:ar": "\u0633\u0648\u0631\u0627\u0646", "name:en": "Soran", "place": "village", "wikidata": "Q65403601", "wikipedia": "ckb:\u0633\u06c6\u0631\u0627\u0646 \u062c\u06d5\u0628\u0627\u0631\u06cc"}}, {"type": "node", "id": 11233206075, "lat": 35.3222461, "lon": 44.8314891, "tags": {"name": "\u062f\u0627\u0648\u06b5", "name:ar": "\u062f\u0627\u0648\u0644", "name:en": "Dawl", "place": "village", "wikidata": "Q65403577", "wikipedia": "ckb:\u062f\u0627\u0648\u06b5"}}, {"type": "node", "id": 11233215400, "lat": 35.3167071, "lon": 44.828929, "tags": {"name": "\u0634\u06ce\u062e \u0645\u062d\u06d5\u0645\u06d5\u062f", "name:ar": "\u0634\u064a\u062e \u0645\u062d\u0645\u062f", "name:en": "Sheikh Mohammed", "place": "village", "wikidata": "Q65403617", "wikipedia": "ckb:\u0634\u06ce\u062e \u0645\u062d\u06d5\u0645\u06d5\u062f\u06cc \u062c\u06d5\u0628\u0627\u0631\u06cc"}}, {"type": "node", "id": 11233218010, "lat": 35.3117513, "lon": 44.840647}, {"type": "node", "id": 11233218011, "lat": 35.3118842, "lon": 44.8409514}, {"type": "node", "id": 11233218012, "lat": 35.3118091, "lon": 44.8410859}, {"type": "node", "id": 11233218013, "lat": 35.3119939, "lon": 44.8414964}, {"type": "node", "id": 11233218014, "lat": 35.3119708, "lon": 44.8416946}, {"type": "node", "id": 11233218015, "lat": 35.3120979, "lon": 44.8418999}, {"type": "node", "id": 11233218016, "lat": 35.311786, "lon": 44.8424024}, {"type": "node", "id": 11233218017, "lat": 35.3114799, "lon": 44.8427068}, {"type": "node", "id": 11233218018, "lat": 35.3113008, "lon": 44.8430324}, {"type": "node", "id": 11233218019, "lat": 35.3114914, "lon": 44.8431598}, {"type": "node", "id": 11233218020, "lat": 35.311347, "lon": 44.8433651}, {"type": "node", "id": 11233218021, "lat": 35.3106423, "lon": 44.8430961}, {"type": "node", "id": 11233218022, "lat": 35.3102784, "lon": 44.8429687}, {"type": "node", "id": 11233218023, "lat": 35.3099665, "lon": 44.8425086}, {"type": "node", "id": 11233218024, "lat": 35.3099549, "lon": 44.8422467}, {"type": "node", "id": 11233218025, "lat": 35.3102842, "lon": 44.841638}, {"type": "node", "id": 11233218026, "lat": 35.3103997, "lon": 44.8416875}, {"type": "node", "id": 11233218027, "lat": 35.3104459, "lon": 44.8414185}, {"type": "node", "id": 11233218028, "lat": 35.3104055, "lon": 44.8411425}, {"type": "node", "id": 11233218029, "lat": 35.3106423, "lon": 44.8411779}, {"type": "node", "id": 11233218030, "lat": 35.3108791, "lon": 44.8411354}, {"type": "node", "id": 11233218031, "lat": 35.3109716, "lon": 44.840916}, {"type": "node", "id": 11233218032, "lat": 35.3110755, "lon": 44.840739}, {"type": "node", "id": 11233234349, "lat": 35.321216, "lon": 44.8495959}, {"type": "node", "id": 11233234350, "lat": 35.3212008, "lon": 44.8499415}, {"type": "node", "id": 11233234351, "lat": 35.3212693, "lon": 44.8510716}, {"type": "node", "id": 11233234352, "lat": 35.3211017, "lon": 44.8514546}, {"type": "node", "id": 11233234353, "lat": 35.3206825, "lon": 44.8513051}, {"type": "node", "id": 11233234354, "lat": 35.3203168, "lon": 44.8507634}, {"type": "node", "id": 11233234355, "lat": 35.3200957, "lon": 44.8495025}, {"type": "node", "id": 11233234356, "lat": 35.319829, "lon": 44.8495679}, {"type": "node", "id": 11233234357, "lat": 35.3197071, "lon": 44.8503151}, {"type": "node", "id": 11233234358, "lat": 35.3191355, "lon": 44.850259}, {"type": "node", "id": 11233234359, "lat": 35.3186402, "lon": 44.8500162}, {"type": "node", "id": 11233234360, "lat": 35.3183963, "lon": 44.8499602}, {"type": "node", "id": 11233234361, "lat": 35.3184191, "lon": 44.8495118}, {"type": "node", "id": 11233234362, "lat": 35.318945, "lon": 44.8495679}, {"type": "node", "id": 11233234363, "lat": 35.3193337, "lon": 44.8493904}, {"type": "node", "id": 11233234364, "lat": 35.319547, "lon": 44.848774}, {"type": "node", "id": 11233234365, "lat": 35.3181829, "lon": 44.847868}, {"type": "node", "id": 11233234366, "lat": 35.3175046, "lon": 44.8473823}, {"type": "node", "id": 11233234367, "lat": 35.3170016, "lon": 44.8471675}, {"type": "node", "id": 11233234368, "lat": 35.3170855, "lon": 44.846878}, {"type": "node", "id": 11233234369, "lat": 35.3167882, "lon": 44.8463456}, {"type": "node", "id": 11233234370, "lat": 35.3165215, "lon": 44.8466912}, {"type": "node", "id": 11233234371, "lat": 35.3158966, "lon": 44.8461681}, {"type": "node", "id": 11233234372, "lat": 35.3163005, "lon": 44.8459159}, {"type": "node", "id": 11233234373, "lat": 35.3161328, "lon": 44.8456264}, {"type": "node", "id": 11233234374, "lat": 35.3158661, "lon": 44.8453742}, {"type": "node", "id": 11233234375, "lat": 35.3152183, "lon": 44.8448885}, {"type": "node", "id": 11233234376, "lat": 35.3147076, "lon": 44.8447671}, {"type": "node", "id": 11233234377, "lat": 35.3141513, "lon": 44.8445897}, {"type": "node", "id": 11233234378, "lat": 35.3137169, "lon": 44.8442908}, {"type": "node", "id": 11233234379, "lat": 35.3138236, "lon": 44.8439545}, {"type": "node", "id": 11233234380, "lat": 35.3142275, "lon": 44.8442534}, {"type": "node", "id": 11233234381, "lat": 35.3146391, "lon": 44.8441694}, {"type": "node", "id": 11233234382, "lat": 35.3147991, "lon": 44.8443935}, {"type": "node", "id": 11233234383, "lat": 35.3151954, "lon": 44.8445803}, {"type": "node", "id": 11233234384, "lat": 35.3156832, "lon": 44.8448792}, {"type": "node", "id": 11233234385, "lat": 35.3157899, "lon": 44.8441694}, {"type": "node", "id": 11233234386, "lat": 35.3162929, "lon": 44.8443935}, {"type": "node", "id": 11233234387, "lat": 35.3161862, "lon": 44.8449446}, {"type": "node", "id": 11233234388, "lat": 35.3166663, "lon": 44.8451781}, {"type": "node", "id": 11233234389, "lat": 35.3167578, "lon": 44.845589}, {"type": "node", "id": 11233234390, "lat": 35.3173446, "lon": 44.845972}, {"type": "node", "id": 11233234391, "lat": 35.3177561, "lon": 44.8451781}, {"type": "node", "id": 11233234392, "lat": 35.3181372, "lon": 44.8453649}, {"type": "node", "id": 11233234393, "lat": 35.3177256, "lon": 44.8461868}, {"type": "node", "id": 11233234394, "lat": 35.3175961, "lon": 44.8465417}, {"type": "node", "id": 11233234395, "lat": 35.318442, "lon": 44.8472796}, {"type": "node", "id": 11233234396, "lat": 35.3186173, "lon": 44.8475224}, {"type": "node", "id": 11233234397, "lat": 35.318503, "lon": 44.8477653}, {"type": "node", "id": 11233234398, "lat": 35.3195547, "lon": 44.8484751}, {"type": "node", "id": 11233234399, "lat": 35.3201339, "lon": 44.8488954}, {"type": "node", "id": 11233234400, "lat": 35.3207435, "lon": 44.8490262}, {"type": "node", "id": 11233374615, "lat": 35.2706022, "lon": 44.8355371, "tags": {"name": "\u06a9\u0648\u0695\u06d5", "name:ar": "\u06a9\u0648\u0631\u0629", "name:en": "Kwra", "place": "village", "wikidata": "Q65403731", "wikipedia": "ckb:\u06a9\u0648\u0695\u06d5"}}, {"type": "node", "id": 11233376841, "lat": 35.2170404, "lon": 44.8585658, "tags": {"name": "\u0626\u0627\u0644\u06cc\u0627\u0648\u06d5", "name:ar": "\u0639\u0644\u064a\u0627\u0648\u0627", "name:en": "Aliawa", "place": "village", "wikidata": "Q65403470", "wikipedia": "ckb:\u0626\u0627\u0644\u06cc\u0627\u0648\u06d5"}}, {"type": "node", "id": 11237580490, "lat": 35.2819344, "lon": 44.8936268, "tags": {"name": "\u06cc\u06c6\u06b5\u06d5", "name:ar": "\u06cc\u0648\u0644\u0629", "name:en": "Yole", "place": "village", "wikidata": "Q65404508", "wikipedia": "ckb:\u06cc\u06c6\u06b5\u06d5"}}, {"type": "node", "id": 11237614041, "lat": 35.2656806, "lon": 44.8762997, "tags": {"name": "\u0642\u06d5\u0634\u0642\u06d5", "name:ar": "\u0642\u0634\u0642\u0629", "name:en": "Qashqa", "place": "village", "wikidata": "Q65403654", "wikipedia": "ckb:\u0642\u06d5\u0634\u0642\u06d5"}}, {"type": "node", "id": 11237658589, "lat": 35.3003008, "lon": 44.9508623, "tags": {"name": "\u0698\u0627\u06b5\u06d5\u06cc \u0628\u0686\u0648\u0648\u06a9", "name:ar": "\u0632\u0627\u0644\u0627\u064a \u0627\u0644\u0635\u063a\u064a\u0631", "name:en": "Little Zhalay", "place": "village", "wikidata": "Q65403183", "wikipedia": "ckb:\u0698\u0627\u06b5\u06d5\u06cc \u0628\u0686\u0648\u0648\u06a9"}}, {"type": "node", "id": 11237663464, "lat": 35.2783768, "lon": 44.9437167, "tags": {"name": "\u0642\u0627\u06cc\u062a\u06d5\u0648\u06d5\u0646\u06cc \u06af\u06d5\u0648\u0631\u06d5", "name:ar": "\u0642\u064a\u062a\u0648\u0627\u0646 \u0627\u0644\u0643\u0628\u0631\u0649", "name:en": "Great Qaitwan", "place": "village", "wikidata": "Q65403639", "wikipedia": "ckb:\u0642\u0627\u06cc\u062a\u06d5\u0648\u06d5\u0646\u06cc \u06af\u06d5\u0648\u0631\u06d5"}}, {"type": "node", "id": 11237685173, "lat": 35.2536737, "lon": 45.0419272, "tags": {"name": "\u06be\u06d5\u0631\u06ce\u0646\u06d5", "name:ar": "\u0647\u0631\u064a\u0646\u0629", "name:en": "Harena", "place": "village", "wikidata": "Q65404505", "wikipedia": "ckb:\u06be\u06d5\u0631\u06ce\u0646\u06d5"}}, {"type": "node", "id": 11237688131, "lat": 35.2403551, "lon": 45.0372785, "tags": {"name": "\u06af\u0648\u06b5\u0628\u0627\u062e\u06cc \u062e\u0648\u0627\u0631\u0648\u0648", "name:ar": "\u063a\u0644\u0628\u0627\u062e \u0627\u0644\u0633\u0641\u0644\u0649", "name:en": "Lower Gulbakh", "place": "village", "wikidata": "Q65404471", "wikipedia": "ckb:\u06af\u0648\u06b5\u0628\u0627\u062e\u06cc \u062e\u0648\u0627\u0631\u0648\u0648"}}, {"type": "node", "id": 11237692369, "lat": 35.2152904, "lon": 44.9614056, "tags": {"name": "\u0644\u06d5\u06a9 \u06be\u06cc\u062f\u0627\u06cc\u06d5\u062a", "name:ar": "\u0644\u06a9 \u0647\u06cc\u062f\u0627\u06cc\u062a", "name:en": "Lak Hidayat", "place": "village", "wikidata": "Q65404363", "wikipedia": "ckb:\u0644\u06d5\u06a9 \u06be\u06cc\u062f\u0627\u06cc\u06d5\u062a"}}, {"type": "node", "id": 11237737090, "lat": 35.234577, "lon": 44.9575698, "tags": {"name": "\u062f\u0627\u0631\u06d5\u062a\u0648\u0648\u06cc \u0632\u06d5\u0646\u06af\u06d5\u0646\u06d5", "name:ar": "\u062f\u0627\u0631\u062a\u0648 \u0632\u0646\u06a9\u0646\u0629", "name:en": "Daratw Zangana", "place": "village", "wikidata": "Q65403573", "wikipedia": "ckb:\u062f\u0627\u0631\u06d5\u062a\u0648\u0648\u06cc \u0632\u06d5\u0646\u06af\u06d5\u0646\u06d5"}}, {"type": "node", "id": 11237782475, "lat": 35.2464474, "lon": 44.9318075, "tags": {"name": "\u0642\u06d5\u06b5\u0627\u0645\u06cc\u06a9\u0627\u0626\u06cc\u0644\u06cc \u06af\u06d5\u0648\u0631\u06d5", "name:ar": "\u0642\u0644\u0627\u0645\u06cc\u06a9\u0627\u0626\u06cc\u0644 \u06a9\u0628\u06cc\u0631", "name:en": "Graet Qala Mikail", "place": "village", "wikidata": "Q65403662", "wikipedia": "ckb:\u0642\u06d5\u06b5\u0627\u0645\u06cc\u06a9\u0627\u0626\u06cc\u0644\u06cc \u06af\u06d5\u0648\u0631\u06d5"}}, {"type": "node", "id": 11237935678, "lat": 35.3212918, "lon": 45.0463759, "tags": {"name": "\u067e\u0648\u0646\u06af\u06b5\u06d5", "name:ar": "\u0628\u0648\u0646\u06a9\u0644\u0629", "name:en": "Pungla", "place": "village", "wikidata": "Q65403113", "wikipedia": "ckb:\u067e\u0648\u0646\u06af\u06b5\u06d5"}}, {"type": "node", "id": 11237948185, "lat": 35.309846, "lon": 45.0697101, "tags": {"name": "\u0632\u0627\u0644\u0648\u0627\u0648", "name:ar": "\u0632\u0644\u0648\u0627\u0648", "name:en": "Zalwaw", "place": "village", "wikidata": "Q65402591", "wikipedia": "ckb:\u0632\u0627\u0644\u0648\u0627\u0648"}}, {"type": "node", "id": 11237953377, "lat": 35.2917279, "lon": 45.0748401, "tags": {"name": "\u06a9\u06d5\u0631\u06cc\u0645\u06d5\u062c\u06d5\u0644", "name:ar": "\u0643\u0631\u064a\u0645\u062c\u0627\u0644", "name:en": "Karimajal", "place": "village", "wikidata": "Q65403321", "wikipedia": "ckb:\u06a9\u06d5\u0631\u06cc\u0645\u06d5\u062c\u06d5\u0644"}}, {"type": "node", "id": 11247499707, "lat": 35.3876925, "lon": 45.078309, "tags": {"name": "\u062f\u0648\u0648\u06d5\u0631", "name:ar": "\u062f\u0648\u0631", "name:en": "Dwar", "place": "village", "wikidata": "Q65402502", "wikipedia": "ckb:\u062f\u0648\u0648\u06d5\u0631"}}, {"type": "node", "id": 11254728136, "lat": 35.3738247, "lon": 45.0564934, "tags": {"name": "\u0634\u0627\u062d\u06d5\u0633\u06d5\u0646\u06cc \u0641\u06d5\u0631\u06cc\u0642", "name:ar": "\u0634\u0627\u062d\u0633\u0646 \u0641\u0631\u06cc\u0642", "name:en": "Shahasani Fariq", "place": "village"}}, {"type": "node", "id": 11332603017, "lat": 35.6466156, "lon": 44.7074822}, {"type": "node", "id": 11332603018, "lat": 35.646087, "lon": 44.7083604}, {"type": "node", "id": 11332603019, "lat": 35.6460606, "lon": 44.7088564}, {"type": "node", "id": 11332603020, "lat": 35.6464835, "lon": 44.7094255}, {"type": "node", "id": 11332603021, "lat": 35.647098, "lon": 44.7096369}, {"type": "node", "id": 11332603022, "lat": 35.6475869, "lon": 44.7094174}, {"type": "node", "id": 11332603023, "lat": 35.6480098, "lon": 44.7091247}, {"type": "node", "id": 11332603024, "lat": 35.6482542, "lon": 44.7094824}, {"type": "node", "id": 11332603025, "lat": 35.6485053, "lon": 44.7098483}, {"type": "node", "id": 11332603026, "lat": 35.6487696, "lon": 44.709458}, {"type": "node", "id": 11332603027, "lat": 35.648611, "lon": 44.7088889}, {"type": "node", "id": 11332603028, "lat": 35.6486507, "lon": 44.7083116}, {"type": "node", "id": 11332603029, "lat": 35.6485582, "lon": 44.7076855}, {"type": "node", "id": 11332603030, "lat": 35.6487498, "lon": 44.7071895}, {"type": "node", "id": 11332603031, "lat": 35.6493048, "lon": 44.7070594}, {"type": "node", "id": 11332603032, "lat": 35.6490537, "lon": 44.7064577}, {"type": "node", "id": 11332603033, "lat": 35.6486507, "lon": 44.7070757}, {"type": "node", "id": 11332603034, "lat": 35.6483137, "lon": 44.7078725}, {"type": "node", "id": 11332603035, "lat": 35.6478908, "lon": 44.7074904}, {"type": "node", "id": 11332603036, "lat": 35.6474746, "lon": 44.7076448}, {"type": "node", "id": 11332603037, "lat": 35.6472433, "lon": 44.7079213}, {"type": "node", "id": 11332603038, "lat": 35.6468535, "lon": 44.7078562}, {"type": "node", "id": 11370383548, "lat": 35.3836467, "lon": 44.7013595, "tags": {"name": "\u0645\u06cc\u0631\u06d5 \u0633\u0648\u0648\u0631\u06d5", "name:ar": "\u0645\u06cc\u0631\u0629\u0633\u0648\u0631\u0629", "name:en": "Mira Sura", "place": "village"}}, {"type": "node", "id": 11370384359, "lat": 35.3852574, "lon": 44.6564904, "tags": {"name": "\u0628\u0632\u06d5\u06b5\u06d5", "name:ar": "\u0628\u0632\u0644\u0629", "name:en": "Bzala", "place": "village"}}, {"type": "node", "id": 11370397802, "lat": 35.3378799, "lon": 44.6239903, "tags": {"name": "\u067e\u06d5\u06b5\u06a9\u0627\u0646\u06d5", "name:ar": "\u0628\u0644\u06a9\u0627\u0646\u0629", "name:en": "Palkana", "place": "village"}}, {"type": "node", "id": 11370436081, "lat": 35.3580223, "lon": 44.6532833, "tags": {"name": "\u0634\u0648\u0627\u0646\u06d5", "name:ar": "\u0634\u0648\u0627\u0646\u0629", "name:en": "Shwana", "place": "village"}}, {"type": "node", "id": 11370455100, "lat": 35.2960592, "lon": 44.5991056, "tags": {"name": "\u0646\u06d5\u0632\u0631\u0627\u0648\u06d5", "name:ar": "\u0646\u0632\u0631\u0627\u0648\u0629", "name:en": "Nazrawa", "place": "village"}}, {"type": "node", "id": 11377286126, "lat": 35.341702, "lon": 44.5456911, "tags": {"name": "\u0628\u0627\u0646 \u0644\u06d5\u06cc\u0644\u0627\u0646", "name:ar": "\u0628\u0627\u0646 \u0644\u06cc\u0644\u0627\u0646", "name:en": "Ban Laylan", "place": "village"}}, {"type": "node", "id": 11377314463, "lat": 35.3618835, "lon": 44.5746993, "tags": {"name": "\u0642\u06d5\u06cc\u0633\u06d5\u0631\u06cc", "name:ar": "\u0642\u06cc\u0635\u0631\u064a", "name:en": "Qaisary", "place": "village"}}, {"type": "node", "id": 11377643040, "lat": 35.4272676, "lon": 44.5439075, "tags": {"name": "\u0642\u06d5\u06b5\u0627 \u06af\u06c6\u0645\u06d5", "name:ar": "\u0642\u0644\u0627\u06a9\u0648\u0645\u0629", "name:en": "Qala Goma", "place": "village"}}, {"type": "node", "id": 11379354585, "lat": 35.2375284, "lon": 44.5459668, "tags": {"name": "\u0639\u06d5\u0644\u06cc\u0627\u0648\u0627", "name:ar": "\u0639\u0644\u06cc\u0627\u0648\u0627", "name:en": "Aliawa", "place": "village"}}, {"type": "node", "id": 11380396824, "lat": 35.5841403, "lon": 44.7203815}, {"type": "node", "id": 11380396825, "lat": 35.5844448, "lon": 44.7207479}, {"type": "node", "id": 11380396826, "lat": 35.5845096, "lon": 44.7210427}, {"type": "node", "id": 11380396827, "lat": 35.5842569, "lon": 44.7215446}, {"type": "node", "id": 11380396828, "lat": 35.5840172, "lon": 44.7221421}, {"type": "node", "id": 11380396829, "lat": 35.5837904, "lon": 44.7222855}, {"type": "node", "id": 11380396830, "lat": 35.5833045, "lon": 44.7218314}, {"type": "node", "id": 11380396831, "lat": 35.583, "lon": 44.7224289}, {"type": "node", "id": 11380396832, "lat": 35.5829546, "lon": 44.7229388}, {"type": "node", "id": 11380396833, "lat": 35.5825659, "lon": 44.7232415}, {"type": "node", "id": 11380396834, "lat": 35.5822354, "lon": 44.7230822}, {"type": "node", "id": 11380396835, "lat": 35.5816458, "lon": 44.7232176}, {"type": "node", "id": 11380396836, "lat": 35.5814903, "lon": 44.7235681}, {"type": "node", "id": 11380396837, "lat": 35.5815551, "lon": 44.7241338}, {"type": "node", "id": 11380396838, "lat": 35.5810951, "lon": 44.7242214}, {"type": "node", "id": 11380396839, "lat": 35.5810238, "lon": 44.7238071}, {"type": "node", "id": 11380396840, "lat": 35.5809202, "lon": 44.7221899}, {"type": "node", "id": 11380396841, "lat": 35.580959, "lon": 44.7215287}, {"type": "node", "id": 11380396842, "lat": 35.5815811, "lon": 44.7213454}, {"type": "node", "id": 11380396843, "lat": 35.5818921, "lon": 44.722166}, {"type": "node", "id": 11380396844, "lat": 35.582514, "lon": 44.7217677}, {"type": "node", "id": 11380396845, "lat": 35.5829417, "lon": 44.7210029}, {"type": "node", "id": 11380396846, "lat": 35.5831101, "lon": 44.7203416}, {"type": "node", "id": 11380396847, "lat": 35.5823197, "lon": 44.7205488}, {"type": "node", "id": 11380396848, "lat": 35.5822031, "lon": 44.7201026}, {"type": "node", "id": 11380396849, "lat": 35.5827667, "lon": 44.7196406}, {"type": "node", "id": 11380396850, "lat": 35.5833175, "lon": 44.7195211}, {"type": "node", "id": 11380396851, "lat": 35.5839394, "lon": 44.7196724}, {"type": "node", "id": 11380396852, "lat": 35.5843282, "lon": 44.7196804}, {"type": "node", "id": 11380396853, "lat": 35.5842828, "lon": 44.7202142}, {"type": "node", "id": 11380407671, "lat": 35.5555669, "lon": 44.6971766}, {"type": "node", "id": 11380407672, "lat": 35.5552012, "lon": 44.6974373}, {"type": "node", "id": 11380407673, "lat": 35.5552873, "lon": 44.6984213}, {"type": "node", "id": 11380407674, "lat": 35.5553407, "lon": 44.6998829}, {"type": "node", "id": 11380407675, "lat": 35.55563, "lon": 44.7011995}, {"type": "node", "id": 11380407676, "lat": 35.5564738, "lon": 44.7008624}, {"type": "node", "id": 11380407677, "lat": 35.556642, "lon": 44.7013568}, {"type": "node", "id": 11380407678, "lat": 35.5571905, "lon": 44.7010602}, {"type": "node", "id": 11380407679, "lat": 35.5571539, "lon": 44.7001612}, {"type": "node", "id": 11380407680, "lat": 35.5571539, "lon": 44.6995409}, {"type": "node", "id": 11380407681, "lat": 35.5568907, "lon": 44.6993521}, {"type": "node", "id": 11380407682, "lat": 35.5565542, "lon": 44.6997747}, {"type": "node", "id": 11380407683, "lat": 35.5562178, "lon": 44.699442}, {"type": "node", "id": 11380407684, "lat": 35.5561374, "lon": 44.6988937}, {"type": "node", "id": 11380407685, "lat": 35.5560642, "lon": 44.6985431}, {"type": "node", "id": 11380407686, "lat": 35.5557644, "lon": 44.6980756}, {"type": "node", "id": 11380407687, "lat": 35.5560715, "lon": 44.6997297, "tags": {"name": "\u0633\u06d5\u06cc\u062f\u0627\u0646\u06cc \u0646\u0627\u0648\u06d5\u0695\u0627\u0633\u062a", "name:ar": "\u0633\u06cc\u062f\u0627\u0646 \u0627\u0644\u0648\u0633\u0637\u06cc", "name:en": "Middle Saydan", "place": "village"}}, {"type": "node", "id": 11381842497, "lat": 35.4677057, "lon": 44.6817458}, {"type": "node", "id": 11381842498, "lat": 35.4678424, "lon": 44.6820335}, {"type": "node", "id": 11381842499, "lat": 35.4686723, "lon": 44.6817817}, {"type": "node", "id": 11381842500, "lat": 35.4689847, "lon": 44.6823332}, {"type": "node", "id": 11381842501, "lat": 35.4691312, "lon": 44.6826688}, {"type": "node", "id": 11381842502, "lat": 35.468809, "lon": 44.6831843}, {"type": "node", "id": 11381842503, "lat": 35.4690531, "lon": 44.68352}, {"type": "node", "id": 11381842504, "lat": 35.4695022, "lon": 44.6833881}, {"type": "node", "id": 11381842505, "lat": 35.4696389, "lon": 44.6841433}, {"type": "node", "id": 11381842506, "lat": 35.4696096, "lon": 44.6847667}, {"type": "node", "id": 11381842507, "lat": 35.4698829, "lon": 44.685426}, {"type": "node", "id": 11381842508, "lat": 35.4701954, "lon": 44.6859535}, {"type": "node", "id": 11381842509, "lat": 35.4704199, "lon": 44.686481}, {"type": "node", "id": 11381842510, "lat": 35.471035, "lon": 44.6861932}, {"type": "node", "id": 11381842511, "lat": 35.4713181, "lon": 44.6857497}, {"type": "node", "id": 11381842512, "lat": 35.4709959, "lon": 44.6847667}, {"type": "node", "id": 11381842513, "lat": 35.4712107, "lon": 44.6840115}, {"type": "node", "id": 11381842514, "lat": 35.4711424, "lon": 44.6833881}, {"type": "node", "id": 11381842515, "lat": 35.4709276, "lon": 44.6828606}, {"type": "node", "id": 11381842516, "lat": 35.4709276, "lon": 44.6821534}, {"type": "node", "id": 11381842517, "lat": 35.4706249, "lon": 44.681494}, {"type": "node", "id": 11381842518, "lat": 35.4704394, "lon": 44.6811704}, {"type": "node", "id": 11381842519, "lat": 35.470127, "lon": 44.6806669}, {"type": "node", "id": 11381842520, "lat": 35.4697951, "lon": 44.6804511}, {"type": "node", "id": 11381842521, "lat": 35.4694924, "lon": 44.6810505}, {"type": "node", "id": 11381842522, "lat": 35.4692386, "lon": 44.6807508}, {"type": "node", "id": 11381842523, "lat": 35.4688676, "lon": 44.6804511}, {"type": "node", "id": 11381957234, "lat": 35.5607511, "lon": 44.7345739}, {"type": "node", "id": 11381957235, "lat": 35.5603654, "lon": 44.7345394}, {"type": "node", "id": 11381957236, "lat": 35.5596992, "lon": 44.7348756}, {"type": "node", "id": 11381957237, "lat": 35.559608, "lon": 44.7352032}, {"type": "node", "id": 11381957238, "lat": 35.5601831, "lon": 44.7354273}, {"type": "node", "id": 11381957239, "lat": 35.56066, "lon": 44.7358153}, {"type": "node", "id": 11381957240, "lat": 35.5610948, "lon": 44.7363842}, {"type": "node", "id": 11381957241, "lat": 35.5608704, "lon": 44.7372549}, {"type": "node", "id": 11381957242, "lat": 35.561733, "lon": 44.7377377}, {"type": "node", "id": 11381957243, "lat": 35.5618171, "lon": 44.737048}, {"type": "node", "id": 11381957244, "lat": 35.5622028, "lon": 44.7372205}, {"type": "node", "id": 11381957245, "lat": 35.5624132, "lon": 44.7363929}, {"type": "node", "id": 11381957246, "lat": 35.5628691, "lon": 44.736117}, {"type": "node", "id": 11381957247, "lat": 35.5630233, "lon": 44.7354618}, {"type": "node", "id": 11381957248, "lat": 35.5631355, "lon": 44.7350653}, {"type": "node", "id": 11381957249, "lat": 35.563851, "lon": 44.734096}, {"type": "node", "id": 11381957250, "lat": 35.5630023, "lon": 44.7334618}, {"type": "node", "id": 11381957251, "lat": 35.5624553, "lon": 44.7332549}, {"type": "node", "id": 11381957252, "lat": 35.5621117, "lon": 44.7334101}, {"type": "node", "id": 11381957253, "lat": 35.56174, "lon": 44.7333756}, {"type": "node", "id": 11381957254, "lat": 35.5617821, "lon": 44.7338928}, {"type": "node", "id": 11381957255, "lat": 35.5617119, "lon": 44.7343152}, {"type": "node", "id": 11381957256, "lat": 35.5614595, "lon": 44.7341859}, {"type": "node", "id": 11381957257, "lat": 35.5609335, "lon": 44.7341515}, {"type": "node", "id": 11382004277, "lat": 35.5566625, "lon": 44.7372555, "tags": {"name": "\u0628\u0646\u06d5\u06cc \u062e\u0648\u0627\u0631\u0648\u0648", "name:ar": "\u0628\u0646\u0629 \u0633\u0641\u0644\u06cc", "name:en": "Lower Bna", "place": "village"}}, {"type": "node", "id": 11395649435, "lat": 35.4296632, "lon": 44.9445953, "tags": {"name": "\u06a9\u0648\u0695\u06d5\u062f\u0627\u0648\u06ce", "name:ar": "\u06a9\u0648\u0631\u062f\u0627\u0648\u064a", "name:en": "Kuradwe", "place": "village", "wikidata": "Q64210674", "wikipedia": "ckb:\u06a9\u0648\u0631\u06d5\u062f\u0627\u0648\u06cc"}}, {"type": "node", "id": 11455838811, "lat": 35.5521583, "lon": 44.576718}, {"type": "node", "id": 11466120107, "lat": 35.5634467, "lon": 44.7335755}, {"type": "node", "id": 11486982056, "lat": 35.2537646, "lon": 44.9772447, "tags": {"name": "\u06af\u06d5\u0695\u0627\u0648\u06cc", "name:ar": "\u06a9\u0631\u0627\u0648\u064a", "name:ckb": "\u06af\u06d5\u0695\u0627\u0648\u06cc", "name:en": "Garawi", "place": "village", "wikidata": "Q65404499", "wikipedia": "ckb:\u06af\u06d5\u0695\u0627\u0648\u06cc"}}, {"type": "node", "id": 11487014436, "lat": 35.255254, "lon": 44.975807, "tags": {"name": "\u062a\u06d5\u067e\u06d5\u0633\u067e\u06cc", "name:ar": "\u062a\u0628\u0629\u0633\u0628\u064a", "name:ckb": "\u062a\u06d5\u067e\u06d5\u0633\u067e\u06cc", "name:en": "Tapaspi", "place": "village", "wikidata": "Q65403529", "wikipedia": "ckb:\u062a\u06d5\u067e\u06d5\u0633\u067e\u06cc\u060c \u0642\u0627\u062f\u0631\u06a9\u06d5\u0631\u06d5\u0645"}}, {"type": "node", "id": 11491966038, "lat": 35.4960777, "lon": 44.6382382}, {"type": "node", "id": 11491966039, "lat": 35.498195, "lon": 44.6531198}, {"type": "node", "id": 11491966040, "lat": 35.4947083, "lon": 44.6567384}, {"type": "node", "id": 11491966041, "lat": 35.497207, "lon": 44.6556205}, {"type": "node", "id": 11491966042, "lat": 35.4930175, "lon": 44.6446658}, {"type": "node", "id": 11491966043, "lat": 35.4905851, "lon": 44.6403514}, {"type": "node", "id": 11491966044, "lat": 35.4924515, "lon": 44.6334583}, {"type": "node", "id": 11491966045, "lat": 35.4934905, "lon": 44.6544984}, {"type": "node", "id": 11491966046, "lat": 35.4951757, "lon": 44.6566593}, {"type": "way", "id": 460144049, "nodes": [4558209449, 11455838811, 4558209450, 4558209451, 4558209452, 4558209453, 4558209449], "tags": {"place": "village"}}, {"type": "way", "id": 460144059, "nodes": [7845491796, 7845491797, 7845491798, 7845491799, 7845491800, 7845491801, 7845491802, 7845491803, 7845491804, 4558210307, 4558210308, 4558210309, 7845491792, 7845491793, 7845491794, 7845491795, 4558210310, 4558210311, 4558210312, 7845491796], "tags": {"place": "village"}}, {"type": "way", "id": 460144063, "nodes": [4558210420, 4558210421, 4558210422, 9191659915, 4558210423, 9191659916, 4558210424, 4558210420], "tags": {"name": "\u0628\u0646\u06af\u0631\u062f", "place": "village", "residential": "rural"}}, {"type": "way", "id": 460144081, "nodes": [4558210778, 6982130404, 4558210779, 4558210780, 4558210781, 6982130402, 4558210782, 4558210783, 6982130403, 4558210784, 4558210778], "tags": {"name": "\u0642\u06d5\u0631\u06d5 \u0648\u06d5\u06cc\u0633", "place": "village"}}, {"type": "way", "id": 501979275, "nodes": [7525979300, 7525979301, 7525979302, 7525979303, 7525979304, 7525979305, 7525979306, 7525979307, 7525979308, 4926008133, 4926008132, 7525979295, 7525979296, 7525979297, 7525979298, 7525979299, 4926008131, 4926008130, 4926008129, 7525979300], "tags": {"place": "village"}}, {"type": "way", "id": 527816544, "nodes": [5130628753, 5130628754, 7511540615, 5130628755, 5130628756, 5130628757, 5130628758, 5130628759, 5130628760, 5130628753], "tags": {"name": "\u062a\u0648\u0631\u06a9\u06d5", "place": "village", "residential": "rural"}}, {"type": "way", "id": 558473013, "nodes": [5385662688, 5385662689, 5385662690, 5385662691, 5385662688], "tags": {"name": "\u0686\u0627\u06b5\u0627\u0648", "place": "village", "residential": "rural", "wikidata": "Q64210418", "wikipedia": "ckb:\u0686\u0627\u06b5\u0627\u0648\u060c \u0686\u06d5\u0645\u0686\u06d5\u0645\u0627\u06b5"}}, {"type": "way", "id": 558473017, "nodes": [5385663944, 5385663945, 5385663946, 5385663947, 5385663944], "tags": {"place": "village"}}, {"type": "way", "id": 558473021, "nodes": [5385663956, 5385663957, 5385663958, 5385663959, 5385663956], "tags": {"name": "\u0647\u06d5\u0645\u0632\u06d5", "place": "village"}}, {"type": "way", "id": 558473024, "nodes": [5385663989, 5385663990, 11162641059, 5385663991, 11162641060, 11162641061, 5385663992, 5385663989], "tags": {"name": "\u062f\u0627\u0646\u0627 \u0633\u06c6\u0641\u06cc", "place": "village", "residential": "rural"}}, {"type": "way", "id": 558473033, "nodes": [10091339564, 5385664139, 5385664140, 11491966043, 11491966042, 11491966045, 11491966040, 11491966046, 11491966041, 11491966039, 11491966038, 11491966044, 10091265609, 10091339564], "tags": {"landuse": "residential", "name": "\u0642\u06d5\u0631\u06d5\u0647\u06d5\u0646\u062c\u06cc\u0631", "place": "town"}}, {"type": "way", "id": 679054512, "nodes": [6358483963, 6358483964, 6358483965, 6358483966, 6358483967, 6358483968, 6358483969, 6358483970, 6358483971, 6358483972, 6358483973, 6358483963], "tags": {"name": "\u0628\u0627\u0648\u06d5", "name:ar": "\u0628\u0627\u0648\u0629", "name:ckb": "\u0628\u0627\u0648\u06d5", "name:en": "Bawa", "place": "village"}}, {"type": "way", "id": 727045452, "nodes": [6813689276, 6813689277, 6813689278, 6813689276], "tags": {"alt_name": "\u0642\u06c6\u0686\u0627\u063a\u0644\u06cc", "name": "\u0642\u06c6\u0686\u06d5\u0644\u06cc", "place": "village", "residential": "rural"}}, {"type": "way", "id": 727281035, "nodes": [6815744512, 6815744513, 6815744514, 6815744515, 6815744516, 6815744519, 6815744517, 6815744518, 6815744512], "tags": {"name": "\u062a\u06d5\u06cc\u0645\u06d5\u0632\u0627\u0648\u0627", "name:ar": "\u062a\u064a\u0645\u0632\u0627\u0648\u0629", "name:ckb": "\u062a\u06d5\u06cc\u0645\u06d5\u0632\u0627\u0648\u0627", "place": "village"}}, {"type": "way", "id": 728012131, "nodes": [6822227329, 6822227337, 6822227330, 6822227338, 6822227331, 6822227332, 6822227333, 6822227334, 6822227339, 6822227335, 6822227336, 6822227329], "tags": {"name": "\u0647\u06d5\u0641\u062a\u0627 \u0686\u06d5\u0634\u0645\u06d5", "place": "village"}}, {"type": "way", "id": 788455224, "nodes": [7371501460, 7371501461, 7371501462, 7371501463, 7371501464, 7371501460], "tags": {"name": "\u0639\u0648\u0633\u0645\u0627\u0646 \u063a\u06d5\u0632\u0627\u0644", "place": "village"}}, {"type": "way", "id": 790796826, "nodes": [7392849813, 7392849814, 7392849815, 7392849816, 7392849817, 7392849818, 7392849813], "tags": {"place": "village"}}, {"type": "way", "id": 790964130, "nodes": [7394286064, 7394286065, 7394286066, 7394286067, 7394286068, 7394286064], "tags": {"place": "village"}}, {"type": "way", "id": 790966788, "nodes": [7394313831, 7394313832, 7394313833, 7394313834, 7394313831], "tags": {"place": "village"}}, {"type": "way", "id": 792234375, "nodes": [7406405694, 7406405695, 7406405696, 7406405697, 7406405698, 7406405699, 7406405700, 7406405701, 7406405702, 7406405703, 7406405704, 7406405705, 7406405706, 7406405707, 7406405708, 7406405709, 7406405710, 7406405711, 7406405712, 7406405713, 7406405714, 7406405715, 7406405716, 7406405717, 7406405718, 7406405719, 7406405720, 7406405721, 7406405722, 7406405723, 7406405694], "tags": {"name": "\u0634\u06c6\u0631\u062c\u06d5", "name:ar": "\u0634\u0648\u0631\u062c\u0629", "name:ckb": "\u0634\u06c6\u0631\u062c\u06d5", "place": "village"}}, {"type": "way", "id": 803497854, "nodes": [7515964472, 7515964473, 7515964474, 7515964475, 7515964476, 7515964478, 7515964477, 7515964472], "tags": {"name": "\u06af\u06d5\u06b5\u0627\u06b5\u06cc", "place": "village"}}, {"type": "way", "id": 806380961, "nodes": [7540849551, 7540849552, 7540849553, 7540849554, 7540849555, 7540849556, 7540849557, 7540849558, 7540849559, 7540849551], "tags": {"place": "village"}}, {"type": "way", "id": 812763285, "nodes": [7591564863, 7591564853, 7591564854, 7591564855, 7591564856, 7591564857, 7591564858, 7591564859, 7591564860, 7591564861, 7591564862, 7591564864, 7704467198, 7591564863], "tags": {"name": "\u0633\u0627\u06b5\u06d5\u06cc\u06cc", "name:ar": "\u0635\u0627\u0644\u062d\u064a", "name:ckb": "\u0633\u0627\u06b5\u06d5\u06cc\u06cc", "place": "village"}}, {"type": "way", "id": 834937674, "nodes": [7793743325, 7793743326, 7793743327, 7793743328, 7793743329, 7793743330, 7793743331, 7793743313, 7793743314, 7793743317, 7793743318, 7793743319, 7793743320, 7793743321, 7793743322, 7793743323, 7793743324, 7793743315, 7793743316, 7793743325], "tags": {"name": "\u0626\u06cc\u0628\u0631\u0627\u0647\u06cc\u0645 \u0626\u0627\u063a\u0627", "place": "village", "residential": "rural"}}, {"type": "way", "id": 854195399, "nodes": [7966168275, 7966168276, 7966168277, 7966168278, 7966168279, 7966168280, 7966168281, 7966168263, 7966168264, 7966168267, 7966168268, 7966168269, 7966168270, 7966168271, 7966168272, 7966286825, 7966168273, 7966168274, 7966168265, 7966168266, 7966168275], "tags": {"name": "\u0695\u06d5\u062d\u06cc\u0645\u06d5 \u0642\u0648\u062a\u06d5", "place": "village"}}, {"type": "way", "id": 1029001660, "nodes": [9487035927, 9487035928, 9487035929, 9487035930, 9487035934, 9487035931, 9487035932, 9487035933, 9487035927], "tags": {"name": "\u062a\u06d5\u06a9\u06cc\u06d5\u06cc \u062e\u0648\u0627\u0631\u0648\u0648", "place": "village"}}, {"type": "way", "id": 1212001568, "nodes": [11228535370, 11228535371, 11228535372, 11228535373, 11228535374, 11228535375, 11228535376, 11228535377, 11228535378, 11228535379, 11228535380, 11228535381, 11228535382, 11228535383, 11228535384, 11228535385, 11228535386, 11228535387, 11228535388, 11228535389, 11228535390, 11228535391, 11228535392, 11228535393, 11228535370], "tags": {"name": "\u06a9\u0648\u06b5\u06d5\u0628\u0627\u0646", "place": "village", "residential": "rural", "wikidata": "Q65403735", "wikipedia": "ckb:\u06a9\u0648\u06b5\u06d5\u0628\u0627\u0646"}}, {"type": "way", "id": 1212452867, "nodes": [11233195373, 11233195374, 11233195375, 11233195376, 11233195377, 11233195378, 11233195379, 11233195380, 11233195381, 11233195382, 11233195383, 11233195384, 11233195385, 11233195386, 11233195387, 11233195388, 11233195389, 11233195390, 11233195391, 11233195392, 11233195393, 11233195394, 11233195395, 11233195396, 11233195397, 11233195373], "tags": {"name": "\u0633\u06c6\u0631\u0627\u0646", "place": "village", "residential": "rural", "wikidata": "Q65403601", "wikipedia": "ckb:\u0633\u06c6\u0631\u0627\u0646 \u062c\u06d5\u0628\u0627\u0631\u06cc"}}, {"type": "way", "id": 1212454591, "nodes": [11233218010, 11233218011, 11233218012, 11233218013, 11233218014, 11233218015, 11233218016, 11233218017, 11233218018, 11233218019, 11233218020, 11233218021, 11233218022, 11233218023, 11233218024, 11233218025, 11233218026, 11233218027, 11233218028, 11233218029, 11233218030, 11233218031, 11233218032, 11233218010], "tags": {"name": "\u06a9\u0627\u0646\u06cc \u0628\u0627\u06cc\u0632", "place": "village", "residential": "rural", "wikidata": "Q65403715", "wikipedia": "ckb:\u06a9\u0627\u0646\u06cc \u0628\u0627\u06cc\u0632"}}, {"type": "way", "id": 1212455528, "nodes": [11233234349, 11233234350, 11233234351, 11233234352, 11233234353, 11233234354, 11233234355, 11233234356, 11233234357, 11233234358, 11233234359, 11233234360, 11233234361, 11233234362, 11233234363, 11233234364, 11233234365, 11233234366, 11233234367, 11233234368, 11233234369, 11233234370, 11233234371, 11233234372, 11233234373, 11233234374, 11233234375, 11233234376, 11233234377, 11233234378, 11233234379, 11233234380, 11233234381, 11233234382, 11233234383, 11233234384, 11233234385, 11233234386, 11233234387, 11233234388, 11233234389, 11233234390, 11233234391, 11233234392, 11233234393, 11233234394, 11233234395, 11233234396, 11233234397, 11233234398, 11233234399, 11233234400, 11233234349], "tags": {"name": "\u0628\u0627\u0646\u06af\u06c6\u06b5", "place": "village", "residential": "rural", "wikidata": "Q65403493", "wikipedia": "ckb:\u0628\u0627\u0646\u06af\u06c6\u06b5"}}, {"type": "way", "id": 1221945621, "nodes": [11332603017, 11332603018, 11332603019, 11332603020, 11332603021, 11332603022, 11332603023, 11332603024, 11332603025, 11332603026, 11332603027, 11332603028, 11332603029, 11332603030, 11332603031, 11332603032, 11332603033, 11332603034, 11332603035, 11332603036, 11332603037, 11332603038, 11332603017], "tags": {"name": "\u0639\u06d5\u0644\u06cc \u0645\u06cc\u06a9\u0627\u0626\u06cc\u0644", "place": "village", "residential": "rural"}}, {"type": "way", "id": 1227237169, "nodes": [11380407671, 11380407672, 11380407673, 11380407674, 11380407675, 11380407676, 11380407677, 11380407678, 11380407679, 11380407680, 11380407681, 11380407682, 11380407683, 11380407684, 11380407685, 11380407686, 11380407671], "tags": {"name": "\u0633\u06d5\u06cc\u062f\u0627\u0646\u06cc \u0646\u0627\u0648\u06d5\u0695\u0627\u0633\u062a", "place": "village", "residential": "rural"}}, {"type": "way", "id": 1227237427, "nodes": [11380396824, 11380396825, 11380396826, 11380396827, 11380396828, 11380396829, 11380396830, 11380396831, 11380396832, 11380396833, 11380396834, 11380396835, 11380396836, 11380396837, 11380396838, 11380396839, 11380396840, 11380396841, 11380396842, 11380396843, 11380396844, 11380396845, 11380396846, 11380396847, 11380396848, 11380396849, 11380396850, 11380396851, 11380396852, 11380396853, 11380396824], "tags": {"name": "\u0633\u06d5\u06cc\u062f\u0627\u0646\u06cc \u062e\u0648\u0627\u0631\u0648\u0648", "place": "village", "residential": "rural"}}, {"type": "way", "id": 1227391863, "nodes": [11381842497, 11381842498, 11381842499, 11381842500, 11381842501, 11381842502, 11381842503, 11381842504, 11381842505, 11381842506, 11381842507, 11381842508, 11381842509, 11381842510, 11381842511, 11381842512, 11381842513, 11381842514, 11381842515, 11381842516, 11381842517, 11381842518, 11381842519, 11381842520, 11381842521, 11381842522, 11381842523, 11381842497], "tags": {"name": "\u0628\u0627\u0634\u0628\u0648\u06b5\u0627\u063a\u06cc \u062e\u0648\u0627\u0631\u0648\u0648", "place": "village", "residential": "rural"}}, {"type": "way", "id": 1227400073, "nodes": [11381957234, 11381957235, 11381957236, 11381957237, 11381957238, 11381957239, 11381957240, 11381957241, 11381957242, 11381957243, 11381957244, 11381957245, 11381957246, 11381957247, 11381957248, 11381957249, 11466120107, 11381957250, 11381957251, 11381957252, 11381957253, 11381957254, 11381957255, 11381957256, 11381957257, 11381957234], "tags": {"name": "\u0628\u0646\u06d5\u06cc \u0633\u06d5\u0631\u0648\u0648", "place": "village", "residential": "rural"}}]}