{"version": 0.6, "generator": "Overpass API 0.7.61.5 4133829e", "osm3s": {"timestamp_osm_base": "2024-03-05T13:42:00Z", "copyright": "The data included in this document is from www.openstreetmap.org. The data is made available under ODbL."}, "elements": [{"type": "node", "id": 4408445440, "lat": 32.5681364, "lon": 67.0140054, "tags": {"name": "\u06a9\u0644\u0627\u06af\u06cc", "name:en": "Kalagay", "name:ps": "\u06a9\u0644\u0627\u06af\u06cc", "place": "village", "source:name": "GNS"}}, {"type": "node", "id": 4408445441, "lat": 32.564873, "lon": 67.019878, "tags": {"alt_name": "Mana Khel", "name": "\u0645\u0646\u0627 \u062e\u06d0\u0644", "name:en": "Mana Kheyl", "name:ps": "\u0645\u0646\u0627 \u062e\u06d0\u0644", "place": "village", "source:name": "GNS"}}, {"type": "node", "id": 4408445442, "lat": 32.571891, "lon": 67.034804, "tags": {"alt_name": "Shadu", "name": "\u0634\u0627\u062f\u0648", "name:en": "Sadu", "name:ps": "\u0634\u0627\u062f\u0648", "place": "village", "source:name": "GNS"}}, {"type": "node", "id": 4408445443, "lat": 32.565214, "lon": 67.033239, "tags": {"alt_name": "\u0633\u0627\u06af\u0632;Sayagaz", "name": "\u0633\u0627\u06cc\u06af\u0632", "name:en": "Sagaz", "name:ps": "\u0633\u0627\u06cc\u06af\u0632", "place": "village", "source:name": "GNS"}}, {"type": "node", "id": 4408484810, "lat": 32.838503, "lon": 67.073771, "tags": {"alt_name": "Khakeran", "name": "\u062e\u0627\u06a9\u0631\u0627\u0646", "name:en": "Khakiran", "name:ps": "\u062e\u0627\u06a9\u0631\u0627\u0646", "name:ru": "Khakiran", "place": "village", "source:name": "GNS"}}]}