{"version": 0.6, "generator": "Overpass API 0.7.61.5 4133829e", "osm3s": {"timestamp_osm_base": "2024-03-05T13:37:45Z", "copyright": "The data included in this document is from www.openstreetmap.org. The data is made available under ODbL."}, "elements": [{"type": "node", "id": 4395760102, "lat": 35.840263, "lon": 65.230896, "tags": {"alt_name": "\u0628\u06d0\u0644 \u0686\u0631\u0627\u063a;Belchiragh;Belchirag;Belceragh;Bal Chiragh", "name": "\u0628\u0644 \u0686\u0631\u0627\u063a", "name:en": "Bilchiragh", "name:ps": "\u0628\u0644 \u0686\u0631\u0627\u063a", "name:ru": "\u0411\u0438\u043b\u044c\u0447\u0438\u0440\u0430\u0433", "place": "town", "source:name": "GNS"}}, {"type": "node", "id": 4395960294, "lat": 35.707462, "lon": 65.202919, "tags": {"alt_name": "Dom Qal`a;Dowm Qal`eh", "name": "\u062f\u0648\u0645 \u0642\u0644\u0639\u0647", "name:en": "Dom Qal`ah", "name:ps": "\u062f\u0648\u0645 \u0642\u0644\u0639\u0647", "place": "village", "source:name": "GNS"}}, {"type": "node", "id": 4395960296, "lat": 35.7120645, "lon": 65.2257633, "tags": {"name": "\u06af\u0631\u0632\u06cc\u0648\u0627\u0646", "name:en": "Gurziwan", "place": "town"}}, {"type": "node", "id": 4395960297, "lat": 35.701775, "lon": 65.230553, "tags": {"alt_name": "Sar Cakan", "name": "\u0633\u0631 \u0686\u06a9\u0627\u0646", "name:en": "Sar Chakan", "name:ps": "\u0633\u0631 \u0686\u06a9\u0627\u0646", "place": "village", "source:name": "GNS"}}]}