{"version": 0.6, "generator": "Overpass API 0.7.61.5 4133829e", "osm3s": {"timestamp_osm_base": "2024-03-06T11:17:45Z", "copyright": "The data included in this document is from www.openstreetmap.org. The data is made available under ODbL."}, "elements": [{"type": "node", "id": 599171145, "lat": 34.7254333, "lon": 44.5835396, "tags": {"capital": "6", "int_name": "Amirli - \u0622\u0645\u0631\u0644\u064a", "name": "\u0622\u0645\u0631\u0644\u064a", "name:ar": "\u0622\u0645\u0631\u0644\u064a", "name:ckb": "\u0626\u0627\u0645\u0631\u0644\u06cc", "name:de": "Amerli", "name:en": "Amirli", "name:mzn": "\u0622\u0645\u0631\u0644\u06cc", "name:tr": "Emirli", "place": "town", "population": "26000", "source": "geonames.org", "wikidata": "Q4746778"}}, {"type": "node", "id": 2488450066, "lat": 34.588799, "lon": 44.576931, "tags": {"alt_name": "\u0639\u064a\u0646 \u0623\u0628\u0648 \u0639\u0643\u0641\u0629", "int_name": "Ayn Ab\u016b Akifah, \u0639\u064a\u0646 \u0627\u0628\u0648 \u0639\u0643\u0641\u0629, Ayn Abu Akifah, \u0639\u064a\u0646 \u0627\u0628\u0648 \u0639\u0643\u0641\u0629", "name": "\u0639\u064a\u0646 \u0623\u0628\u0648 \u0639\u0643\u0641\u0629", "name:ar": "\u0639\u064a\u0646 \u0623\u0628\u0648 \u0639\u0643\u0641\u0629", "name:ar1": "\u0639\u064a\u0646 \u0623\u0628\u0648 \u0639\u0643\u0641\u0629", "name:de": "Ayn Abu Akifah", "name:en": "Ayn Abu Akifah", "name:fr": "Ayn Abu Akifah", "place": "village"}}, {"type": "node", "id": 2488452194, "lat": 34.6470307, "lon": 44.5800704, "tags": {"alt_name": "\u062e\u0636\u0631", "int_name": "Khezir, Khidhr, Khi\u1e11r, \u062e\u0636\u0631, Khezir, Khidhr, Khidr, \u062e\u0636\u0631", "name": "\u062e\u0636\u0631", "name:ar": "\u062e\u0636\u0631", "name:ar1": "\u062e\u0636\u0631", "name:de": "Khezir", "name:en": "Khezir", "name:fr": "Khezir", "place": "village"}}, {"type": "node", "id": 2488452227, "lat": 34.6473591, "lon": 44.5801547, "tags": {"alt_name": "\u0623\u0628\u064a\u0634\u0644 \u062a\u0628\u0629", "int_name": "Yeshil tepe , ye\u015fil tepe , \u064a\u0627\u0634\u0644 \u062a\u0628\u0647,Ye\u015fil Tepe , \u064a\u0634\u064a\u0644 \u062a\u067e\u0647", "name": "\u0623\u0628\u064a\u0634\u0644 \u062a\u0628\u0629", "name:ar": "\u0623\u0628\u064a\u0634\u0644 \u062a\u0628\u0629", "name:ar1": "\u064a\u0627\u0634\u0644 \u062a\u067e\u0647", "name:de": "Ubayshal Tabbah", "name:en": "Ubayshal Tabbah", "name:fr": "Ubayshal Tabbah", "name:tr": "Ye\u015fil tepe k\u00f6y\u00fc", "place": "village"}}, {"type": "node", "id": 2488614550, "lat": 34.696706, "lon": 44.647455, "tags": {"alt_name": "\u0628\u0626\u0631 \u0627\u0644\u0630\u0647\u0628", "int_name": "Bar az Zahab, Barah Zahab, B\u0101razahab, Bir adh Dhahab, P\u0101rah Zah\u0101b, \u0628\u0626\u0631 \u0627\u0644\u0630\u0647\u0628, Bar az Zahab, Barah Zahab, Barazahab, Bir adh Dhahab, Parah Zahab, \u0628\u0626\u0631 \u0627\u0644\u0630\u0647\u0628", "name": "\u0628\u0626\u0631 \u0627\u0644\u0630\u0647\u0628", "name:ar": "\u0628\u0626\u0631 \u0627\u0644\u0630\u0647\u0628", "name:ar1": "\u0628\u0626\u0631 \u0627\u0644\u0630\u0647\u0628", "name:de": "Bar az Zahab", "name:en": "Bar az Zahab", "name:fr": "Bar az Zahab", "place": "village"}}, {"type": "node", "id": 2488614559, "lat": 34.702989, "lon": 44.615235, "tags": {"alt_name": "\u0628\u0627\u0634\u0627\u0643\u0644\u0627\u0646", "int_name": "( Pa\u015fa Gelen) \u067e\u0627\u0634\u0627\u06af\u0644\u0646, ( Pa\u015fa Gelen), \u067e\u0627\u0634\u0627\u06af\u0644\u0646", "name": "\u0628\u0627\u0634\u0627\u0643\u0644\u0627\u0646", "name:ar": "\u0628\u0627\u0634\u0627\u0643\u0644\u0627\u0646", "name:ckb": "\u067e\u0627\u0634\u0627\u06af\u0644\u0646", "name:en": "Pasha Gelen", "name:tr": "Pa\u015fa Gelen", "place": "village"}}, {"type": "node", "id": 2488614568, "lat": 34.733611, "lon": 44.653056, "tags": {"alt_name": "\u062d\u0628\u064a\u0633", "int_name": "\u1e28ab\u012bs, \u1e28abs, Habis, Habs", "name": "\u062d\u0628\u064a\u0633", "name:ar": "\u062d\u0628\u0634 \u0627\u0648\u0628\u0627\u0633\u064a", "name:ar1": "\u062d\u0628\u064a\u0633", "name:de": "Habash", "name:en": "Habash", "name:fr": "Habash", "name:ku": "\u062d\u0628\u0634 \u0627\u0648\u0628\u0627\u0633\u0649", "name:tr": "Haba\u015f k\u00f6y\u00fc", "place": "village"}}, {"type": "node", "id": 2488614578, "lat": 34.7321863, "lon": 44.5685063, "tags": {"alt_name": "\u0625\u0645\u0627\u0645 \u062d\u0633\u0646", "int_name": "Im\u0101m \u1e28asan, Imam Hasan", "name": "\u0625\u0645\u0627\u0645 \u062d\u0633\u0646", "name:ar": "\u0625\u0645\u0627\u0645 \u062d\u0633\u0646", "name:ar1": "\u0625\u0645\u0627\u0645 \u062d\u0633\u0646", "name:de": "Imam Hasan", "name:en": "Imam Hasan", "name:fr": "Imam Hasan", "place": "village"}}, {"type": "node", "id": 2488614582, "lat": 34.613554, "lon": 44.618648, "tags": {"alt_name": "\u062b\u0639\u064a\u0644\u0628", "int_name": "Is\u0101ilib, Thuaylab, Thuaylib, Thu\u015faylib, \u062b\u0639\u064a\u0644\u0628, Isailib, Thuaylab, Thuaylib, Thusaylib, \u062b\u0639\u064a\u0644\u0628", "name": "\u062b\u0639\u064a\u0644\u0628", "name:ar": "\u062b\u0639\u064a\u0644\u0628", "name:ar1": "\u062b\u0639\u064a\u0644\u0628", "name:de": "Isailib", "name:en": "Isailib", "name:fr": "Isailib", "place": "village"}}, {"type": "node", "id": 2488614585, "lat": 34.735392, "lon": 44.651441, "tags": {"alt_name": "\u0643\u0648\u062a\u0629 \u0628\u0631\u0648\u0646 \u062d\u062f\u064a\u062f", "int_name": "( Kuta Burun ) , \u0643\u0648\u062a\u0647 \u0628\u0648\u0631\u0648\u0646, Kuta Burun \u0643\u0648\u062a\u0647 \u0628\u0648\u0631\u0648\u0646", "name": "\u0643\u0648\u062a\u0647 \u0628\u0648\u0631\u0648\u0646", "name:ar": "\u0643\u0648\u062a\u0647 \u0628\u0648\u0631\u0648\u0646 \u0627\u0648\u0628\u0627\u0633\u064a", "name:ar1": "\u0643\u0648\u062a\u0629 \u0628\u0631\u0648\u0646 \u062d\u062f\u064a\u062f", "name:de": "Kuta Burun", "name:en": "Kuta Burun", "name:fr": "Kuta Burun", "name:ku": "\u0643\u0648\u062a\u0647 \u0628\u0648\u0631\u0648\u0646", "name:tr": "Kuta Burun", "place": "village"}}, {"type": "node", "id": 2488614595, "lat": 34.6471651, "lon": 44.6535533, "tags": {"alt_name": "\u0628\u0648\u064a\u0648\u0643 \u0645\u0641\u062a\u0648\u0644", "int_name": "Maft\u016bl, \u0645\u0641\u062a\u0648\u0644, Maftul, \u0645\u0641\u062a\u0648\u0644", "name": "\u0645\u0641\u062a\u0648\u0644", "name:ar": "\u0645\u0641\u062a\u0648\u0644", "name:ckb": "\u0645\u06d5\u0641\u062a\u0648\u0648\u0644 \u06af\u06d5\u0648\u0631\u06d5", "name:de": "Buyuk Maftul", "name:en": "Buyuk Maftul", "name:fr": "Buyuk Maftul", "name:ku": "\u0628\u0648\u064a\u0648\u06af \u0645\u0641\u062a\u0648\u0644", "name:tr": "B\u00fcy\u00fck Maftul k\u00f6y", "place": "village"}}, {"type": "node", "id": 2488614600, "lat": 34.6720648, "lon": 44.6178431, "tags": {"int_name": "\u016ach Tappah, Uch Tepe, Uj Tepe, \u0627\u0648\u062c \u062a\u0628\u0629, Uch Tappah, Uch Tepe, Uj Tepe, \u0627\u0648\u062c \u062a\u0628\u0629", "name": "\u0623\u0648\u062c \u062a\u0628\u0629", "name:ar": "\u0623\u0648\u062c \u062a\u0628\u0629", "name:ar1": "\u0627\u0648\u0686 \u062a\u067e\u0647", "name:de": "Uch Tappa", "name:en": "Uch Tappa", "name:fr": "Uch Tappa", "name:tr": "\u00dc\u00e7 Tepe", "place": "village"}}, {"type": "node", "id": 2488614991, "lat": 34.5856109, "lon": 44.7217512, "tags": {"alt_name": "\u0627\u0644\u0642\u0648\u0634\u062c\u064a\u0629", "int_name": "Al Q\u016bshj\u012byah, \u0627\u0644\u0642\u0648\u0634\u062c\u064a\u0629, Al Qushjiyah, \u0627\u0644\u0642\u0648\u0634\u062c\u064a\u0629", "name": "\u0627\u0644\u0642\u0648\u0634\u062c\u064a\u0629", "name:ar": "\u0627\u0644\u0642\u0648\u0634\u062c\u064a\u0629", "name:ar1": "\u0627\u0644\u0642\u0648\u0634\u062c\u064a\u0629", "name:de": "Al Qushjiyah", "name:en": "Al Qushjiyah", "name:fr": "Al Qushjiyah", "place": "village"}}, {"type": "node", "id": 2488614992, "lat": 34.609137, "lon": 44.711149, "tags": {"alt_name": "\u0622\u0644 \u0628\u0648 \u0643\u0628\u064a\u0631", "int_name": "Alb\u016b Kab\u012br, \u0627\u0644\u0628\u0648 \u0643\u0628\u064a\u0631, Albu Kabir, \u0627\u0644\u0628\u0648 \u0643\u0628\u064a\u0631", "name": "\u0622\u0644 \u0628\u0648 \u0643\u0628\u064a\u0631", "name:ar": "\u0622\u0644 \u0628\u0648 \u0643\u0628\u064a\u0631", "name:ar1": "\u0622\u0644 \u0628\u0648 \u0643\u0628\u064a\u0631", "name:de": "Albu Kabir", "name:en": "Albu Kabir", "name:fr": "Albu Kabir", "place": "village"}}, {"type": "node", "id": 2488614993, "lat": 34.541735, "lon": 44.647256, "tags": {"alt_name": "\u0639\u0648\u0633\u062c\u0629", "int_name": "Awsajah, \u0639\u0648\u0633\u062c\u0629, Awsajah, \u0639\u0648\u0633\u062c\u0629", "name": "\u0639\u0648\u0633\u062c\u0629", "name:ar": "\u0639\u0648\u0633\u062c\u0629", "name:ar1": "\u0639\u0648\u0633\u062c\u0629", "name:de": "Awsajah", "name:en": "Awsajah", "name:fr": "Awsajah", "place": "village"}}, {"type": "node", "id": 2488615008, "lat": 34.518706, "lon": 44.765591, "tags": {"alt_name": "\u0623\u0645 \u0627\u0644\u063a\u0632\u0644\u0627\u0646", "int_name": "Ghusl\u0101n, Umm al Ghazl\u0101n, Umm al Ghuzl\u0101n, \u0627\u0645 \u0627\u0644\u063a\u0632\u0644\u0627\u0646, Ghuslan, Umm al Ghazlan, Umm al Ghuzlan, \u0627\u0645 \u0627\u0644\u063a\u0632\u0644\u0627\u0646", "name": "\u0623\u0645 \u0627\u0644\u063a\u0632\u0644\u0627\u0646", "name:ar": "\u0623\u0645 \u0627\u0644\u063a\u0632\u0644\u0627\u0646", "name:ar1": "\u0623\u0645 \u0627\u0644\u063a\u0632\u0644\u0627\u0646", "name:de": "Ghuslan", "name:en": "Ghuslan", "name:fr": "Ghuslan", "place": "village"}}, {"type": "node", "id": 2488615021, "lat": 34.566637, "lon": 44.779363, "tags": {"alt_name": "\u0647\u062f\u0627\u0645", "int_name": "Hadd\u0101m, \u0647\u062f\u0627\u0645, Haddam, \u0647\u062f\u0627\u0645", "name": "\u0647\u062f\u0627\u0645", "name:ar": "\u0647\u062f\u0627\u0645", "name:ar1": "\u0647\u062f\u0627\u0645", "name:de": "Haddam", "name:en": "Haddam", "name:fr": "Haddam", "place": "village"}}, {"type": "node", "id": 2488615036, "lat": 34.4799, "lon": 44.721225, "tags": {"alt_name": "\u0627\u0633\u0646\u064a\u062f\u062c", "int_name": "Isunaydij, Sunaydij, Sunraydij, \u0627\u0633\u0646\u064a\u062f\u062c, Isunaydij, Sunaydij, Sunraydij, \u0627\u0633\u0646\u064a\u062f\u062c", "name": "\u0627\u0633\u0646\u064a\u062f\u062c", "name:ar": "\u0627\u0633\u0646\u064a\u062f\u062c", "name:ar1": "\u0627\u0633\u0646\u064a\u062f\u062c", "name:de": "Isunaydij", "name:en": "Isunaydij", "name:fr": "Isunaydij", "place": "village"}}, {"type": "node", "id": 2488615057, "lat": 34.566667, "lon": 44.783333, "tags": {"alt_name": "\u0643\u0647\u0631\u064a\u0632 \u0639\u062a\u064a\u0642", "int_name": "Kahr\u012bz At\u012bq, Kahriz Atiq", "name": "\u0643\u0647\u0631\u064a\u0632 \u0639\u062a\u064a\u0642", "name:ar": "\u0643\u0647\u0631\u064a\u0632 \u0639\u062a\u064a\u0642", "name:ar1": "\u0643\u0647\u0631\u064a\u0632 \u0639\u062a\u064a\u0642", "name:de": "Kahriz Atiq", "name:en": "Kahriz Atiq", "name:fr": "Kahriz Atiq", "place": "village"}}, {"type": "node", "id": 2488615063, "lat": 34.4836994, "lon": 44.6335208, "tags": {"name": "\u062e\u0631\u0627\u0626\u0628 \u0625\u0646\u062c\u0627\u0646\u0629", "name:en": "Injana Ruins", "place": "village"}}, {"type": "node", "id": 2488615070, "lat": 34.5846046, "lon": 44.7216133, "tags": {"alt_name": "\u0633\u0646\u0631\u062c \u0627\u0644\u0635\u063a\u0631\u0649", "int_name": "Sanraj a\u015f \u015eughr\u00e1, \u0633\u0646\u0631\u062c \u0627\u0644\u0635\u063a\u0631\u0649, Sanraj as Sughra, \u0633\u0646\u0631\u062c \u0627\u0644\u0635\u063a\u0631\u0649", "name": "\u0633\u0646\u0631\u062c \u0627\u0644\u0635\u063a\u0631\u0649", "name:ar": "\u0633\u0646\u0631\u062c \u0627\u0644\u0635\u063a\u0631\u0649", "name:ar1": "\u0633\u0646\u0631\u062c \u0627\u0644\u0635\u063a\u0631\u0649", "name:de": "Sanraj as Sughra", "name:en": "Sanraj as Sughra", "name:fr": "Sanraj as Sughra", "place": "village"}}, {"type": "node", "id": 2488615077, "lat": 34.58411, "lon": 44.644817, "tags": {"alt_name": "\u0633\u0627\u0631\u0647\u0629", "int_name": "S\u0101rha, S\u0101rhah, S\u0101ri\u1e29ah, \u0633\u0627\u0631\u0647\u0629, Sarha, Sarhah, Sarihah, \u0633\u0627\u0631\u0647\u0629", "name": "\u0633\u0631\u062d\u0629", "name:ar": "( Sarha K\u00f6y\u00fc ) \u0633\u0631\u062d\u0647", "name:ar1": "\u0633\u0627\u0631\u0647\u0629", "name:de": "Sarha", "name:en": "Sarha", "name:fr": "Sarha", "name:tr": "Sarha K\u00f6y\u00fc", "place": "village"}}, {"type": "node", "id": 2488615083, "lat": 34.602795, "lon": 44.698075, "tags": {"alt_name": "\u062a\u0644 \u0634\u0631\u0641", "int_name": "Tall Mushrif, Tall Sharif, Tall Shar\u012bf al Kab\u012br, Tall Shar\u012bf al Kubr\u00e1, Tel Shar\u012bf, \u062a\u0644 \u0634\u0631\u0641, Tall Mushrif, Tall Sharif, Tall Sharif al Kabir, Tall Sharif al Kubra, Tel Sharif, \u062a\u0644 \u0634\u0631\u0641", "name": "\u062a\u0644 \u0634\u0631\u0641", "name:ar": "\u062a\u0644 \u0634\u0631\u0641", "name:ar1": "\u062a\u0644 \u0634\u0631\u0641", "name:de": "Tall Mushrif", "name:en": "Tall Mushrif", "name:fr": "Tall Mushrif", "place": "village"}}, {"type": "node", "id": 2488615090, "lat": 34.603381, "lon": 44.678191, "tags": {"alt_name": "\u062a\u0644 \u0634\u0631\u0641", "int_name": "Tall Sharif, \u062a\u0644 \u0634\u0631\u0641, Tall Sharif, \u062a\u0644 \u0634\u0631\u0641", "name": "\u062a\u0644 \u0634\u0631\u0641", "name:ar": "\u062a\u0644 \u0634\u0631\u0641", "name:ar1": "\u062a\u0644 \u0634\u0631\u0641", "name:de": "Tall Sharif", "name:en": "Tall Sharif", "name:fr": "Tall Sharif", "place": "village"}}, {"type": "node", "id": 2488615104, "lat": 34.521608, "lon": 44.662406, "tags": {"alt_name": "\u0637\u064a\u0627\u0648\u064a", "int_name": "Tawai, Tay\u0101w\u012b, \u0162ay\u0101w\u012b, Tiy\u0101wah, \u0637\u064a\u0627\u0648\u064a, Tawai, Tayawi, Tayawi, Tiyawah, \u0637\u064a\u0627\u0648\u064a", "name": "\u0637\u064a\u0627\u0648\u064a", "name:ar": "\u0637\u064a\u0627\u0648\u064a", "name:ar1": "\u0637\u064a\u0627\u0648\u064a", "name:de": "Tawai", "name:en": "Tawai", "name:fr": "Tawai", "place": "village"}}, {"type": "node", "id": 2488619251, "lat": 34.449437, "lon": 44.895897, "tags": {"alt_name": "\u0639\u0644\u064a \u0633\u0631\u0627\u064a \u0627\u0644\u0633\u0641\u0644\u0649", "int_name": "Al\u012b Sar\u0101y as Sufl\u00e1, \u0639\u0644\u064a \u0633\u0631\u0627\u064a \u0627\u0644\u0633\u0641\u0644\u0649, Ali Saray as Sufla, \u0639\u0644\u064a \u0633\u0631\u0627\u064a \u0627\u0644\u0633\u0641\u0644\u0649", "name": "\u0639\u0644\u064a \u0633\u0631\u0627\u064a \u0627\u0644\u0633\u0641\u0644\u0649", "name:ar": "\u0639\u0644\u064a \u0633\u0631\u0627\u064a \u0627\u0644\u0633\u0641\u0644\u0649", "name:ar1": "\u0639\u0644\u064a \u0633\u0631\u0627\u064a \u0627\u0644\u0633\u0641\u0644\u0649", "name:de": "Ali Saray as Sufla", "name:en": "Ali Saray as Sufla", "name:fr": "Ali Saray as Sufla", "name:ku": "\u062a\u0627\u062a\u0631\u0627\u0646", "place": "village"}}, {"type": "node", "id": 2488619280, "lat": 34.375613, "lon": 44.886423, "tags": {"alt_name": "\u0623\u0633\u0643\u064a \u0643\u0648\u0628\u0631\u064a \u0645\u062d\u0645\u0648\u062f \u062c\u0627\u0648\u064a\u0634", "int_name": "Ask\u012b K\u016bbr\u012b, Ask\u012b K\u016bbr\u012b Ma\u1e29m\u016bd Ch\u0101waysh, \u0627\u0633\u06a9\u064a \u06a9\u0648\u0628\u0631\u064a, \u0627\u0633\u06a9\u064a \u06a9\u0648\u0628\u0631\u064a \u0645\u062d\u0645\u0648\u062f \u0686\u0627\u0648\u064a\u0634, Aski Kubri, Aski Kubri Mahmud Chawaysh, \u0627\u0633\u06a9\u064a \u06a9\u0648\u0628\u0631\u064a, \u0627\u0633\u06a9\u064a \u06a9\u0648\u0628\u0631\u064a \u0645\u062d\u0645\u0648\u062f \u0686\u0627\u0648\u064a\u0634", "name": "\u0623\u0633\u0643\u064a \u0643\u0648\u0628\u0631\u064a \u0645\u062d\u0645\u0648\u062f \u062c\u0627\u0648\u064a\u0634", "name:ar": "\u0623\u0633\u0643\u064a \u0643\u0648\u0628\u0631\u064a \u0645\u062d\u0645\u0648\u062f \u062c\u0627\u0648\u064a\u0634", "name:ar1": "\u0623\u0633\u0643\u064a \u0643\u0648\u0628\u0631\u064a \u0645\u062d\u0645\u0648\u062f \u062c\u0627\u0648\u064a\u0634", "name:de": "Aski Kubri", "name:en": "Aski Kubri", "name:fr": "Aski Kubri", "place": "village"}}, {"type": "node", "id": 2488619290, "lat": 34.391444, "lon": 44.844638, "tags": {"alt_name": "\u0628\u0644\u0627\u0637", "int_name": "Bal\u0101\u0163, Ball\u0101t Jah\u012br, \u0628\u0644\u0627\u0637, Balat, Ballat Jahir, \u0628\u0644\u0627\u0637", "name": "\u0628\u0644\u0627\u0637", "name:ar": "\u0628\u0644\u0627\u0637", "name:ar1": "\u0628\u0644\u0627\u0637", "name:de": "Balat", "name:en": "Balat", "name:fr": "Balat", "place": "village"}}, {"type": "node", "id": 2488619322, "lat": 34.410037, "lon": 44.889221, "tags": {"alt_name": "\u0628\u064a\u0644\u0627\u0637", "int_name": "Balat, Ball\u0101t, B\u0101l\u016bt, Bayl\u0101\u0163, \u0628\u064a\u0644\u0627\u0637, Balat, Ballat, Balut, Baylat, \u0628\u064a\u0644\u0627\u0637", "name": "\u0628\u064a\u0644\u0627\u0637", "name:ar": "\u0628\u064a\u0644\u0627\u0637", "name:ar1": "\u0628\u064a\u0644\u0627\u0637", "name:de": "Balat", "name:en": "Balat", "name:fr": "Balat", "place": "village"}}, {"type": "node", "id": 2488619347, "lat": 34.4325, "lon": 44.813611, "tags": {"alt_name": "\u062f\u0644\u0648", "int_name": "Dalo, Dalu, Dalo, Dalu", "name": "\u062f\u0644\u0648", "name:ar": "\u062f\u0644\u0648", "name:ar1": "\u062f\u0644\u0648", "name:de": "Dalo", "name:en": "Dalo", "name:fr": "Dalo", "place": "village"}}, {"type": "node", "id": 2488619354, "lat": 34.378446, "lon": 44.856097, "tags": {"alt_name": "\u0643\u0644\u064a \u062a\u0628\u0629", "int_name": "Gal\u012b Tappah, Kul Tappeh, Kul Tepe, Qul Tappah, Qul Tepe, \u06af\u0644\u064a \u062a\u0628\u0629, Gali Tappah, Kul Tappeh, Kul Tepe, Qul Tappah, Qul Tepe, \u06af\u0644\u064a \u062a\u0628\u0629", "name": "\u0643\u0644\u064a \u062a\u0628\u0629", "name:ar": "\u0643\u0644\u064a \u062a\u0628\u0629", "name:ar1": "\u0643\u0644\u064a \u062a\u0628\u0629", "name:de": "Gali Tappah", "name:en": "Gali Tappah", "name:fr": "Gali Tappah", "place": "village"}}, {"type": "node", "id": 2488619361, "lat": 34.433333, "lon": 44.9, "tags": {"alt_name": "\u063a\u0631\u0628\u064a", "int_name": "Gharb\u012b, Gharbi", "name": "\u063a\u0631\u0628\u064a", "name:ar": "\u063a\u0631\u0628\u064a", "name:ar1": "\u063a\u0631\u0628\u064a", "name:de": "Gharbi", "name:en": "Gharbi", "name:fr": "Gharbi", "place": "village"}}, {"type": "node", "id": 2488619368, "lat": 34.408251, "lon": 44.887112, "tags": {"alt_name": "\u062d\u0645\u064a\u062f \u0643\u0631\u064a\u0645", "int_name": "\u1e28am\u012bd Kar\u012bm, \u062d\u0645\u064a\u062f \u06a9\u0631\u064a\u0645, Hamid Karim, \u062d\u0645\u064a\u062f \u06a9\u0631\u064a\u0645", "name": "\u062d\u0645\u064a\u062f \u0643\u0631\u064a\u0645", "name:ar": "\u062d\u0645\u064a\u062f \u0643\u0631\u064a\u0645", "name:ar1": "\u062d\u0645\u064a\u062f \u0643\u0631\u064a\u0645", "name:de": "Hamid Karim", "name:en": "Hamid Karim", "name:fr": "Hamid Karim", "place": "village"}}, {"type": "node", "id": 2488619376, "lat": 34.408238, "lon": 44.958616, "tags": {"alt_name": "\u0647\u064a\u0644\u0627\u0646", "int_name": "Hayl\u0101n, \u0647\u064a\u0644\u0627\u0646, Haylan, \u0647\u064a\u0644\u0627\u0646", "name": "\u0647\u064a\u0644\u0627\u0646", "name:ar": "\u0647\u064a\u0644\u0627\u0646", "name:ar1": "\u0647\u064a\u0644\u0627\u0646", "name:de": "Haylan", "name:en": "Haylan", "name:fr": "Haylan", "place": "village"}}, {"type": "node", "id": 2488619400, "lat": 34.4220615, "lon": 44.8210613, "tags": {"alt_name": "\u062c\u0645\u0628\u0627\u0632", "int_name": "Jamb\u0101z, \u062c\u0645\u0628\u0627\u0632, Jambaz, \u062c\u0645\u0628\u0627\u0632", "name": "\u062c\u0645\u0628\u0627\u0632", "name:ar": "\u062c\u0645\u0628\u0627\u0632", "name:ar1": "\u062c\u0645\u0628\u0627\u0632", "name:de": "Jambaz", "name:en": "Jambaz", "name:fr": "Jambaz", "place": "village"}}, {"type": "node", "id": 2488619412, "lat": 34.4226052, "lon": 44.8205703, "tags": {"alt_name": "\u062c\u0627\u0646\u0628\u0627\u0632", "int_name": "J\u0101nb\u0101z, Janbaz", "name": "\u062c\u0627\u0646\u0628\u0627\u0632", "name:ar": "\u062c\u0627\u0646\u0628\u0627\u0632", "name:ar1": "\u062c\u0627\u0646\u0628\u0627\u0632", "name:de": "Janbaz", "name:en": "Janbaz", "name:fr": "Janbaz", "place": "village"}}, {"type": "node", "id": 2488619445, "lat": 34.453301, "lon": 44.823311, "tags": {"alt_name": "\u0646\u0638\u0627\u0645", "int_name": "Niz\u0327\u0101m, \u0646\u0638\u0627\u0645, Nizam, \u0646\u0638\u0627\u0645", "name": "\u0646\u0638\u0627\u0645", "name:ar": "\u0646\u0638\u0627\u0645", "name:ar1": "\u0646\u0638\u0627\u0645", "name:de": "Nizam", "name:en": "Nizam", "name:fr": "Nizam", "place": "village"}}, {"type": "node", "id": 2488619451, "lat": 34.432775, "lon": 44.934786, "tags": {"alt_name": "Qara Tapa, QARA TAPPA, Qara Tepe, Qarah Tepe, Qarat Tabbah, \u0642\u0631\u0629 \u062a\u0628\u0629, Qara Tapa, QARA TAPPA, Qara Tepe, Qarah Tepe, Qarat Tabbah, \u0642\u0631\u0629 \u062a\u0628\u0629", "capital": "7", "int_name": "Sara Tapa", "name": "\u0642\u0631\u0629 \u062a\u0628\u0629", "name:ar": "\u0642\u0631\u0629 \u062a\u0628\u0629", "name:ckb": "\u0642\u06d5\u0631\u06d5\u062a\u06d5\u067e\u06d5", "name:de": "Qara Tapa", "name:en": "Qara Tapa", "name:fr": "Qara Tapa", "name:ku": "Qeretepe", "name:ru": "\u041a\u0430\u0440\u0430-\u0422\u0430\u043f\u043f\u0430", "name:tr": "Karatepe", "place": "town", "wikidata": "Q12232414", "wikipedia": "en:Qara Tapa"}}, {"type": "node", "id": 2488619457, "lat": 34.402766, "lon": 44.890115, "tags": {"alt_name": "\u0642\u0648\u0631\u0629", "int_name": "Qawrah, \u0642\u0648\u0631\u0629, Qawrah, \u0642\u0648\u0631\u0629", "name": "\u0642\u0648\u0631\u0629", "name:ar": "\u0642\u0648\u0631\u0629", "name:ar1": "\u0642\u0648\u0631\u0629", "name:de": "Qawrah", "name:en": "Qawrah", "name:fr": "Qawrah", "place": "village"}}, {"type": "node", "id": 2488619463, "lat": 34.4389516, "lon": 44.8992519, "tags": {"alt_name": "\u0633\u0631 \u0639\u0644\u064a \u0634\u0631\u0642\u064a", "int_name": "Sar Al\u012b Sharq\u012b, Sar Ali Sharqi", "name": "\u0633\u0631 \u0639\u0644\u064a \u0634\u0631\u0642\u064a", "name:ar": "\u0633\u0631 \u0639\u0644\u064a \u0634\u0631\u0642\u064a", "name:ar1": "\u0633\u0631 \u0639\u0644\u064a \u0634\u0631\u0642\u064a", "name:de": "Sar Ali Sharqi", "name:en": "Sar Ali Sharqi", "name:fr": "Sar Ali Sharqi", "place": "village"}}, {"type": "node", "id": 2488619469, "lat": 34.413365, "lon": 44.831513, "tags": {"alt_name": "\u0633\u0627\u0631\u064a \u062a\u0628\u0629", "int_name": "Sar i Tepe, S\u0101r Tepe, S\u0101r\u012b Tappah, \u015e\u0101r\u012b Tappah, S\u0101r\u012b Tappan, \u0633\u0627\u0631\u064a \u062a\u0628\u0629, Sar i Tepe, Sar Tepe, Sari Tappah, Sari Tappah, Sari Tappan, \u0633\u0627\u0631\u064a \u062a\u0628\u0629", "name": "\u0633\u0627\u0631\u064a \u062a\u0628\u0629", "name:ar": "\u0633\u0627\u0631\u064a \u062a\u0628\u0629", "name:ar1": "\u0633\u0627\u0631\u064a \u062a\u0628\u0629", "name:de": "Sar i Tepe", "name:en": "Sar i Tepe", "name:fr": "Sar i Tepe", "place": "village"}}, {"type": "node", "id": 2488619475, "lat": 34.4401281, "lon": 44.8978379, "tags": {"alt_name": "\u0633\u0631\u0627\u0645\u064a \u0634\u0631\u0642\u064a", "int_name": "Sar\u0101m\u012b Sharq\u012b, Sarami Sharqi", "name": "\u0633\u0631\u0627\u0645\u064a \u0634\u0631\u0642\u064a", "name:ar": "\u0633\u0631\u0627\u0645\u064a \u0634\u0631\u0642\u064a", "name:ar1": "\u0633\u0631\u0627\u0645\u064a \u0634\u0631\u0642\u064a", "name:de": "Sarami Sharqi", "name:en": "Sarami Sharqi", "name:fr": "Sarami Sharqi", "place": "village"}}, {"type": "node", "id": 2488619480, "lat": 34.438611, "lon": 44.898889, "tags": {"alt_name": "\u0633\u0631\u0627\u064a \u0634\u0631\u0642\u064a", "int_name": "Sar\u0101y Sharq\u012b, Saray Sharqi", "name": "\u0633\u0631\u0627\u064a \u0634\u0631\u0642\u064a", "name:ar": "\u0633\u0631\u0627\u064a \u0634\u0631\u0642\u064a", "name:ar1": "\u0633\u0631\u0627\u064a \u0634\u0631\u0642\u064a", "name:de": "Saray Sharqi", "name:en": "Saray Sharqi", "name:fr": "Saray Sharqi", "place": "village"}}, {"type": "node", "id": 2488619492, "lat": 34.456257, "lon": 44.821879, "tags": {"alt_name": "\u0639\u0645\u0631 \u0645\u0646\u062f\u0627\u0646 \u0627\u0644\u0639\u0644\u064a\u0627", "int_name": "Umar Mand\u0101n al Uly\u0101, \u0639\u0645\u0631 \u0645\u0646\u062f\u0627\u0646 \u0627\u0644\u0639\u0644\u064a\u0627, Umar Mandan al Ulya, \u0639\u0645\u0631 \u0645\u0646\u062f\u0627\u0646 \u0627\u0644\u0639\u0644\u064a\u0627", "name": "\u0639\u0645\u0631 \u0645\u0646\u062f\u0627\u0646 \u0627\u0644\u0639\u0644\u064a\u0627", "name:ar": "\u0639\u0645\u0631 \u0645\u0646\u062f\u0627\u0646 \u0627\u0644\u0639\u0644\u064a\u0627", "name:ar1": "\u0639\u0645\u0631 \u0645\u0646\u062f\u0627\u0646 \u0627\u0644\u0639\u0644\u064a\u0627", "name:de": "Umar Mandan al Ulya", "name:en": "Umar Mandan al Ulya", "name:fr": "Umar Mandan al Ulya", "name:ku": "\u0644\u0647\u06cc\u0628", "place": "village"}}, {"type": "node", "id": 2488619498, "lat": 34.4531961, "lon": 44.8163796, "tags": {"alt_name": "\u0639\u0645\u0631 \u0645\u0646\u062f\u0627\u0646 \u0627\u0644\u0648\u0633\u0637\u0649", "int_name": "Umar Mand\u0101n al Wus\u0163\u00e1, \u0639\u0645\u0631 \u0645\u0646\u062f\u0627\u0646 \u0627\u0644\u0648\u0633\u0637\u0649, Umar Mandan al Wusta, \u0639\u0645\u0631 \u0645\u0646\u062f\u0627\u0646 \u0627\u0644\u0648\u0633\u0637\u0649", "name": "\u0639\u0645\u0631 \u0645\u0646\u062f\u0627\u0646 \u0627\u0644\u0648\u0633\u0637\u0649", "name:ar": "\u0639\u0645\u0631 \u0645\u0646\u062f\u0627\u0646 \u0627\u0644\u0648\u0633\u0637\u0649", "name:ar1": "\u0639\u0645\u0631 \u0645\u0646\u062f\u0627\u0646 \u0627\u0644\u0648\u0633\u0637\u0649", "name:de": "Umar Mandan al Wusta", "name:en": "Umar Mandan al Wusta", "name:fr": "Umar Mandan al Wusta", "place": "village"}}, {"type": "node", "id": 2488619504, "lat": 34.4539587, "lon": 44.8162247, "tags": {"alt_name": "\u0639\u0645\u0631 \u0645\u0646\u062f\u0627\u0646", "int_name": "Umar Mand\u0101n, Umar Mandan", "name": "\u0639\u0645\u0631 \u0645\u0646\u062f\u0627\u0646", "name:ar": "\u0639\u0645\u0631 \u0645\u0646\u062f\u0627\u0646", "name:ar1": "\u0639\u0645\u0631 \u0645\u0646\u062f\u0627\u0646", "name:de": "Umar Mandan", "name:en": "Umar Mandan", "name:fr": "Umar Mandan", "place": "village"}}, {"type": "node", "id": 2488619509, "lat": 34.437011, "lon": 44.814179, "tags": {"alt_name": "\u0639\u0645\u0631 \u0645\u0646\u062f\u0627\u0646 \u0627\u0644\u0633\u0641\u0644\u0649", "int_name": "Umr Mand\u0101n as Sufl\u00e1, \u0639\u0645\u0631 \u0645\u0646\u062f\u0627\u0646 \u0627\u0644\u0633\u0641\u0644\u0649, Umr Mandan as Sufla, \u0639\u0645\u0631 \u0645\u0646\u062f\u0627\u0646 \u0627\u0644\u0633\u0641\u0644\u0649", "name": "\u0639\u0645\u0631 \u0645\u0646\u062f\u0627\u0646 \u0627\u0644\u0633\u0641\u0644\u0649", "name:ar": "\u0639\u0645\u0631 \u0645\u0646\u062f\u0627\u0646 \u0627\u0644\u0633\u0641\u0644\u0649", "name:ar1": "\u0639\u0645\u0631 \u0645\u0646\u062f\u0627\u0646 \u0627\u0644\u0633\u0641\u0644\u0649", "name:de": "Umr Mandan as Sufla", "name:en": "Umr Mandan as Sufla", "name:fr": "Umr Mandan as Sufla", "place": "village"}}, {"type": "node", "id": 2488619533, "lat": 34.456447, "lon": 44.83856, "tags": {"name": "\u0632\u0631\u06af\u0648\u0648\u0634 \u062a\u0627\u0632\u06d5", "name:ar": "\u0632\u0631\u0643\u0648\u0634 \u0627\u0644\u062c\u062f\u064a\u062f", "name:de": "Zargush al Jadid", "name:en": "Zargush al Jadid", "name:fr": "Zargush al Jadid", "place": "village"}}, {"type": "node", "id": 2488619534, "lat": 34.4608264, "lon": 44.8463461, "tags": {"name": "\u0632\u0631\u0643\u0648\u0634", "name:en": "Zargoosh", "place": "village"}}, {"type": "node", "id": 2488623908, "lat": 34.443645, "lon": 45.059369, "tags": {"alt_name": "\u0627\u0644\u062f\u0648\u0631\u0629", "int_name": "Ad Dawrah, \u0627\u0644\u062f\u0648\u0631\u0629, Ad Dawrah, \u0627\u0644\u062f\u0648\u0631\u0629", "name": "\u0627\u0644\u062f\u0648\u0631\u0629", "name:ar": "\u0627\u0644\u062f\u0648\u0631\u0629", "name:ar1": "\u0627\u0644\u062f\u0648\u0631\u0629", "name:de": "Ad Dawrah", "name:en": "Ad Dawrah", "name:fr": "Ad Dawrah", "place": "village"}}, {"type": "node", "id": 2488623914, "lat": 34.433453, "lon": 45.018926, "tags": {"alt_name": "\u0627\u0644\u0634\u0648\u0643\u0629", "int_name": "Ash Shaukah, \u0627\u0644\u0634\u0648\u0643\u0647, Ash Shaukah, \u0627\u0644\u0634\u0648\u0643\u0647", "name": "\u0627\u0644\u0634\u0648\u0643\u0629", "name:ar": "\u0627\u0644\u0634\u0648\u0643\u0629", "name:ar1": "\u0627\u0644\u0634\u0648\u0643\u0629", "name:de": "Ash Shaukah", "name:en": "Ash Shaukah", "name:fr": "Ash Shaukah", "place": "village"}}, {"type": "node", "id": 2488623938, "lat": 34.514228, "lon": 45.0292943, "tags": {"name": "\u06af\u0632\u0646\u06af", "name:ar": "\u06a9\u0632\u0646\u06a9", "name:en": "Gzng", "place": "village", "wikidata": "Q61391944", "wikipedia": "ckb:\u06af\u0632\u0646\u06af\u060c \u06a9\u06c6\u06a9\u0633"}}, {"type": "node", "id": 2488623943, "lat": 34.436843, "lon": 45.05938, "tags": {"alt_name": "\u063a\u062c\u0641\u0629", "int_name": "Ghajafa, Ghajifah, \u063a\u062c\u0641\u0629, Ghajafa, Ghajifah, \u063a\u062c\u0641\u0629", "name": "\u063a\u062c\u0641\u0629", "name:ar": "\u062d\u0630\u064a\u0641\u0629", "name:ar1": "\u063a\u062c\u0641\u0629", "name:de": "Ghajafa", "name:en": "Huzaifa", "name:fr": "Ghajafa", "name:ku": "\u062e\u0632\u064a\u0641\u0647", "place": "village"}}, {"type": "node", "id": 2488623989, "lat": 34.447749, "lon": 45.056744, "tags": {"alt_name": "\u0647\u0648\u0631 \u0639\u0644\u064a", "int_name": "Hawd Al\u012b, Hawd Al\u012b, \u0647\u0648\u0631 \u0639\u0644\u064a, Hawd Ali, Hawd Ali, \u0647\u0648\u0631 \u0639\u0644\u064a", "name": "\u0647\u0648\u0631 \u0639\u0644\u064a", "name:ar": "\u0647\u0648\u0631 \u0639\u0644\u064a", "name:ar1": "\u0647\u0648\u0631 \u0639\u0644\u064a", "name:de": "Hawd Ali", "name:en": "Hawd Ali", "name:fr": "Hawd Ali", "place": "village"}}, {"type": "node", "id": 2488624010, "lat": 34.45226, "lon": 45.034561, "tags": {"alt_name": "\u062e\u0631\u0633\u062c\u0644\u0627", "int_name": "Juspa, Kharsijl\u0101, \u062e\u0631\u0633\u062c\u0644\u0627, Juspa, Kharsijla, \u062e\u0631\u0633\u062c\u0644\u0627", "name": "\u062e\u0631\u0633\u062c\u0644\u0627", "name:ar": "\u0642\u0631\u064a\u0629 \u0627\u0644\u0628\u0650\u0634\u0650\u0631\u0652", "name:ar1": "\u062e\u0631\u0633\u062c\u0644\u0627", "name:de": "Juspa", "name:en": "Juspa", "name:fr": "Juspa", "place": "village"}}, {"type": "node", "id": 2488624028, "lat": 34.5050061, "lon": 45.0488216, "tags": {"alt_name": "\u062e\u064a\u0627\u0644", "int_name": "Khayal, Khay\u0101l, \u062e\u064a\u0627\u0644, Khayal, Khayal, \u062e\u064a\u0627\u0644", "name": "\u062e\u064a\u0627\u0644", "name:ar": "\u062e\u064a\u0627\u0644", "name:ckb": "\u062e\u06cc\u0627\u06b5", "name:de": "Khayal", "name:en": "Khayal", "name:fr": "Khayal", "place": "village", "wikidata": "Q61391993", "wikipedia": "ckb:\u062e\u06cc\u0627\u06b5"}}, {"type": "node", "id": 2488624119, "lat": 34.46452, "lon": 45.063752, "tags": {"alt_name": "\u062a\u0628\u0647 \u0628\u0644\u0627\u0646", "int_name": "Tabbah Yal\u0101n, \u062a\u0628\u0647 \u0628\u0644\u0627\u0646, Tabbah Yalan, \u062a\u0628\u0647 \u0628\u0644\u0627\u0646", "name": "\u062a\u0628\u0647 \u0628\u0644\u0627\u0646", "name:ar": "\u062a\u0628\u0647 \u0628\u0644\u0627\u0646", "name:ar1": "\u062a\u0628\u0647 \u0628\u0644\u0627\u0646", "name:de": "Tabbah Yalan", "name:en": "Tabbah Yalan", "name:fr": "Tabbah Yalan", "place": "village"}}, {"type": "node", "id": 2488624125, "lat": 34.524282, "lon": 45.0611943, "tags": {"alt_name": "\u062a\u0644 \u0634\u064a\u0644\u0627\u0646 \u0627\u0644\u0623\u062b\u0631\u064a", "int_name": "Tall Sh\u012bl\u0101n al \u0100thar\u012b, \u062a\u0644 \u0634\u064a\u0644\u0627\u0646 \u0627\u0644\u0627\u062b\u0631\u064a, Tall Shilan al Athari, \u062a\u0644 \u0634\u064a\u0644\u0627\u0646 \u0627\u0644\u0627\u062b\u0631\u064a", "name": "\u0639\u0644\u064a \u062e\u0644\u0641", "name:ar": "\u0639\u0644\u064a \u062e\u0644\u0641", "name:ar1": "\u062a\u0644 \u0634\u064a\u0644\u0627\u0646 \u0627\u0644\u0623\u062b\u0631\u064a", "name:ckb": "\u0639\u06d5\u0644\u06cc \u062e\u06d5\u06b5\u06d5\u0641", "name:de": "Ali Khalaf", "name:en": "Ali Khalaf", "name:fr": "Ali Khalaf", "place": "village", "wikidata": "Q61391959", "wikipedia": "ckb:\u0639\u06d5\u0644\u06cc \u062e\u06d5\u06b5\u06d5\u0641"}}, {"type": "node", "id": 2488624139, "lat": 34.4869971, "lon": 45.0312191, "tags": {"alt_name": "\u062a\u0628\u0629 \u0639\u0644\u064a", "int_name": "Tappah Al\u012b, Tepe Ali, \u062a\u067e\u0629 \u0639\u0644\u064a, Tappah Ali, Tepe Ali, \u062a\u067e\u0629 \u0639\u0644\u064a", "name": "\u062a\u06d5\u067e\u06d5\u0639\u06d5\u0644\u06cc", "name:ar": "\u062a\u0628\u0629 \u0639\u0644\u064a", "name:ar1": "\u062a\u0628\u0629 \u0639\u0644\u064a", "name:de": "Tappah Ali", "name:en": "Tappah Ali", "name:fr": "Tappah Ali", "place": "village", "wikidata": "Q61391913", "wikipedia": "ckb:\u062a\u06d5\u067e\u06d5\u0639\u06d5\u0644\u06cc"}}, {"type": "node", "id": 2488624152, "lat": 34.4735699, "lon": 45.0695537, "tags": {"name": "\u062a\u06d5\u067e\u06d5\u06af\u0632\u0646", "name:ar": "\u062a\u0628\u0629\u06a9\u0632\u0646", "name:en": "Tepagzn", "place": "village", "wikidata": "Q61391921", "wikipedia": "ckb:\u062a\u06d5\u067e\u06d5\u06af\u0632\u0646"}}, {"type": "node", "id": 2488624159, "lat": 34.4938043, "lon": 45.0617963, "tags": {"alt_name": "\u062a\u0628\u0629 \u0633\u0631\u0627\u064a", "int_name": "Tappah Sar\u0101y, Tepe Sar\u0101i, Tappah Saray, Tepe Sarai", "name": "\u062a\u06d5\u067e\u06d5\u0633\u06d5\u0631\u0627\u06cc\u06cc", "name:ar": "\u062a\u0628\u0629 \u0633\u0631\u0627\u064a", "name:ar1": "\u062a\u0628\u0629 \u0633\u0631\u0627\u064a", "name:de": "Tappah Saray", "name:en": "Tappah Saray", "name:fr": "Tappah Saray", "place": "village", "wikidata": "Q61391912", "wikipedia": "ckb:\u062a\u06d5\u067e\u06d5\u0633\u06d5\u0631\u0627\u06cc\u06cc"}}, {"type": "node", "id": 2488624234, "lat": 34.4594002, "lon": 45.0226375, "tags": {"int_name": "Zang\u0101b\u0101d, Zangabad", "name": "\u0632\u06d5\u0646\u06af\u0627\u0628\u0627\u062f", "name:ar": "\u0646\u0631\u0643\u0632 \u0632\u0646\u06af\u0627\u0628\u0627\u062f", "name:en": "Zangabad", "place": "village"}}, {"type": "node", "id": 2488630593, "lat": 34.3323755, "lon": 45.013592, "tags": {"alt_name": "\u0627\u0644\u0639\u0644\u0627\u0645\u0627\u062a", "int_name": "Al Al\u0101m\u0101t, Al Alamat", "name": "\u0627\u0644\u0639\u0644\u0627\u0645\u0627\u062a", "name:ar": "\u0627\u0644\u0639\u0644\u0627\u0645\u0627\u062a", "name:ar1": "\u0627\u0644\u0639\u0644\u0627\u0645\u0627\u062a", "name:de": "Al Alamat", "name:en": "Al Alamat", "name:fr": "Al Alamat", "place": "village"}}, {"type": "node", "id": 2488630778, "lat": 34.526062, "lon": 45.006196, "tags": {"alt_name": "\u0639\u0631\u0628 \u0625\u0628\u0631\u0627\u0647\u064a\u0645", "int_name": "Arab Ibr\u0101h\u012bm, Arab Ibrahim, \u0639\u0631\u0628 \u0627\u0628\u0631\u0627\u0647\u064a\u0645, Arab Ibrahim, Arab Ibrahim, \u0639\u0631\u0628 \u0627\u0628\u0631\u0627\u0647\u064a\u0645", "name": "\u0639\u0631\u0628 \u0625\u0628\u0631\u0627\u0647\u064a\u0645", "name:ar": "\u0639\u0631\u0628 \u0625\u0628\u0631\u0627\u0647\u064a\u0645", "name:ar1": "\u0639\u0631\u0628 \u0625\u0628\u0631\u0627\u0647\u064a\u0645", "name:de": "Arab Ibrahim", "name:en": "Arab Ibrahim", "name:fr": "Arab Ibrahim", "place": "village"}}, {"type": "node", "id": 2488630801, "lat": 34.347529, "lon": 44.990436, "tags": {"alt_name": "\u0623\u0648\u0643 \u062a\u0628\u0629", "int_name": "Awwik Tabbah, \u016ach Tappah, Uch Tepe, \u0627\u0648\u0643 \u062a\u0628\u0629, Awwik Tabbah, Uch Tappah, Uch Tepe, \u0627\u0648\u0643 \u062a\u0628\u0629", "name": "\u0623\u0648\u0643 \u062a\u0628\u0629", "name:ar": "\u0623\u0648\u0643 \u062a\u0628\u0629", "name:ar1": "\u0623\u0648\u0643 \u062a\u0628\u0629", "name:de": "Awwik Tabbah", "name:en": "Awwik Tabbah", "name:fr": "Awwik Tabbah", "place": "village"}}, {"type": "node", "id": 2488630930, "lat": 34.4466007, "lon": 44.9951826, "tags": {"alt_name": "\u0643\u0627\u062e\u0648\u0631", "int_name": "G\u0101khur, K\u0101kh\u016br, K\u0101w Khawr, \u06a9\u0627\u0648 \u062e\u0648\u0631, Gakhur, Kakhur, Kaw Khawr, \u06a9\u0627\u0648 \u062e\u0648\u0631", "name": "\u0643\u0627\u062e\u0648\u0631", "name:ar": "\u0643\u0627\u062e\u0648\u0631", "name:ckb": "\u06af\u0627\u062e\u06c6\u0631", "name:de": "Gakhur", "name:en": "Gakhur", "name:fr": "Gakhur", "place": "village"}}, {"type": "node", "id": 2488631233, "lat": 34.3918918, "lon": 45.0035147, "tags": {"alt_name": "\u062c\u0645\u064a\u0644 \u0628\u064a\u0643", "int_name": "Jam\u012bl Bak, \u062c\u0645\u064a\u0644 \u0628\u0643, Jamil Bak, \u062c\u0645\u064a\u0644 \u0628\u0643", "name": "\u062c\u06d5\u0645\u06cc\u0644 \u0628\u06d5\u06af", "name:ar": "\u062c\u0645\u064a\u0644 \u0628\u064a\u0643", "name:ar1": "\u062c\u0645\u064a\u0644 \u0628\u064a\u0643", "name:de": "Jamil Bak", "name:en": "Jamil Bak", "name:fr": "Jamil Bak", "place": "village"}}, {"type": "node", "id": 2488631271, "lat": 34.369167, "lon": 45.023611, "tags": {"alt_name": "\u0643\u0634\u0643\u0648\u064a\u0644 \u0625\u0628\u0631\u0627\u0647\u064a\u0645", "int_name": "Kashkaw\u0113l Ibr\u0101him, Kashkawel Ibrahim", "name": "\u0643\u0634\u0643\u0648\u064a\u0644 \u0625\u0628\u0631\u0627\u0647\u064a\u0645", "name:ar": "\u0643\u0634\u0643\u0648\u064a\u0644 \u0625\u0628\u0631\u0627\u0647\u064a\u0645", "name:ar1": "\u0643\u0634\u0643\u0648\u064a\u0644 \u0625\u0628\u0631\u0627\u0647\u064a\u0645", "name:de": "Kashkawel Ibrahim", "name:en": "Kashkawel Ibrahim", "name:fr": "Kashkawel Ibrahim", "place": "village"}}, {"type": "node", "id": 2488631276, "lat": 34.3934607, "lon": 45.0031874, "tags": {"alt_name": "\u0643\u0634\u0643\u0648\u064a\u0644 \u062c\u0645\u064a\u0644 \u0628\u064a\u0643", "int_name": "Kashkaw\u0113l Jumayl Bag, Kashkaw\u0113l Jumayl Bag, Kashkaw\u0113l Jumayl Bey, Kashkawel Jumayl Bag, Kashkawel Jumayl Bag, Kashkawel Jumayl Bey", "name": "\u06a9\u06d5\u0634\u06a9\u06d5\u0648\u06b5 \u062c\u06d5\u0645\u06cc\u0644 \u0628\u06d5\u06af", "name:ar": "\u0643\u0634\u0643\u0648\u064a\u0644 \u062c\u0645\u064a\u0644 \u0628\u064a\u0643", "name:ar1": "\u0643\u0634\u0643\u0648\u064a\u0644 \u062c\u0645\u064a\u0644 \u0628\u064a\u0643", "name:de": "Kashkawel Jumayl Bag", "name:en": "Kashkawel Jumayl Bag", "name:fr": "Kashkawel Jumayl Bag", "place": "village"}}, {"type": "node", "id": 2488631281, "lat": 34.3932929, "lon": 45.0041514, "tags": {"alt_name": "\u0643\u0634\u0643\u0648\u0644 \u0627\u0644\u062c\u062f\u064a\u062f\u0629", "int_name": "Kashk\u016bl al Jad\u012bdah, \u0643\u0634\u0643\u0648\u0644 \u0627\u0644\u062c\u062f\u064a\u062f\u0629, Kashkul al Jadidah, \u0643\u0634\u0643\u0648\u0644 \u0627\u0644\u062c\u062f\u064a\u062f\u0629", "name": "\u06a9\u06d5\u0634\u06a9\u06d5\u0648\u06b5 \u062a\u0627\u0632\u06d5", "name:ar": "\u0643\u0634\u0643\u0648\u0644 \u0627\u0644\u062c\u062f\u064a\u062f\u0629", "name:ar1": "\u0643\u0634\u0643\u0648\u0644 \u0627\u0644\u062c\u062f\u064a\u062f\u0629", "name:de": "Kashkul al Jadidah", "name:en": "Kashkul al Jadidah", "name:fr": "Kashkul al Jadidah", "place": "village"}}, {"type": "node", "id": 2488631426, "lat": 34.358874, "lon": 45.028464, "tags": {"alt_name": "\u0645\u062d\u0645\u062f \u0639\u0628\u062f", "int_name": "Mu\u1e29ammad Abd, \u0645\u062d\u0645\u062f \u0639\u0628\u062f, Muhammad Abd, \u0645\u062d\u0645\u062f \u0639\u0628\u062f", "name": "\u0645\u062d\u0645\u062f \u0639\u0628\u062f", "name:ar": "\u0645\u062d\u0645\u062f \u0639\u0628\u062f", "name:ar1": "\u0645\u062d\u0645\u062f \u0639\u0628\u062f", "name:de": "Muhammad Abd", "name:en": "Muhammad Abd", "name:fr": "Muhammad Abd", "place": "village"}}, {"type": "node", "id": 2488631501, "lat": 34.372539, "lon": 45.061268, "tags": {"alt_name": "\u0642\u0631\u064a\u0629 \u0627\u0644\u0628\u062c\u0627\u062c\u064a\u0644", "int_name": "Qaryat al Baj\u0101j\u012bl, \u0642\u0631\u064a\u0629 \u0627\u0644\u0628\u062c\u0627\u062c\u064a\u0644, Qaryat al Bajajil, \u0642\u0631\u064a\u0629 \u0627\u0644\u0628\u062c\u0627\u062c\u064a\u0644", "name": "\u0642\u0631\u064a\u0629 \u0627\u0644\u0628\u062c\u0627\u062c\u064a\u0644", "name:ar": "\u0642\u0631\u064a\u0629 \u0627\u0644\u0628\u062c\u0627\u062c\u064a\u0644", "name:ar1": "\u0642\u0631\u064a\u0629 \u0627\u0644\u0628\u062c\u0627\u062c\u064a\u0644", "name:de": "Qaryat al Bajajil", "name:en": "Qaryat al Bajajil", "name:fr": "Qaryat al Bajajil", "place": "village"}}, {"type": "node", "id": 2488631773, "lat": 34.4855451, "lon": 45.0035611, "tags": {"alt_name": "\u062a\u0628\u0629 \u0642\u0648\u064a", "int_name": "Tappah Qaw\u012b, Tappah Qawi", "name": "\u062a\u06d5\u067e\u06d5\u0642\u06d5\u0648\u06cc", "name:ar": "\u062a\u0628\u0629 \u0642\u0648\u064a", "name:ar1": "\u062a\u0628\u0629 \u0642\u0648\u064a", "name:de": "Tappah Qawi", "name:en": "Tappah Qawi", "name:fr": "Tappah Qawi", "place": "village", "wikidata": "Q61391917", "wikipedia": "ckb:\u062a\u06d5\u067e\u06d5\u0642\u06d5\u0648\u06cc"}}, {"type": "node", "id": 2488631914, "lat": 34.3319498, "lon": 45.0134451, "tags": {"alt_name": "\u0627\u0644\u0641\u0644\u0627\u0645\u0627\u0646", "int_name": "\u0627\u0644\u0641\u0644\u0627\u0645\u0627\u0646, \u0627\u0644\u0641\u0644\u0627\u0645\u0627\u0646", "name": "\u0627\u0644\u0641\u0644\u0627\u0645\u0627\u0646", "name:ar": "\u0627\u0644\u0641\u0644\u0627\u0645\u0627\u0646", "name:ar1": "\u0627\u0644\u0641\u0644\u0627\u0645\u0627\u0646", "name:de": "\u0627\u0644\u0641\u0644\u0627\u0645\u0627\u0646", "name:en": "\u0627\u0644\u0641\u0644\u0627\u0645\u0627\u0646", "name:fr": "\u0627\u0644\u0641\u0644\u0627\u0645\u0627\u0646", "place": "village"}}, {"type": "node", "id": 2488631967, "lat": 34.4000354, "lon": 44.9997156, "tags": {"alt_name": "\u062e\u0648\u0631\u0645\u0627\u0644\u0648", "int_name": "\u062e\u0648\u0631\u0645\u0627\u0644\u0648, \u062e\u0648\u0631\u0645\u0627\u0644\u0648", "name": "\u062e\u0648\u0631\u0645\u0627\u0644\u0648\u0648", "name:ar": "\u062e\u0648\u0631\u0645\u0627\u0644\u0648", "name:ar1": "\u062e\u0648\u0631\u0645\u0627\u0644\u0648", "name:de": "\u062e\u0648\u0631\u0645\u0627\u0644\u0648", "name:en": "\u062e\u0648\u0631\u0645\u0627\u0644\u0648", "name:fr": "\u062e\u0648\u0631\u0645\u0627\u0644\u0648", "place": "village"}}, {"type": "node", "id": 2488642348, "lat": 34.5855874, "lon": 44.8647454, "tags": {"alt_name": "\u0639\u0628\u062f \u0627\u0644\u0631\u062d\u0645\u0627\u0646", "int_name": "Abd ar Rahm\u0101n, Abd ar Rahman", "name": "\u0639\u0628\u062f \u0627\u0644\u0631\u062d\u0645\u0627\u0646", "name:ar": "\u0639\u0628\u062f \u0627\u0644\u0631\u062d\u0645\u0627\u0646", "name:ar1": "\u0639\u0628\u062f \u0627\u0644\u0631\u062d\u0645\u0627\u0646", "name:de": "Abd ar Rahman", "name:en": "Abd ar Rahman", "name:fr": "Abd ar Rahman", "place": "village"}}, {"type": "node", "id": 2488642354, "lat": 34.5877644, "lon": 44.8640183, "tags": {"alt_name": "\u0639\u064a\u0646 \u0634\u0643\u0631", "int_name": "Ain Shukur, Ayn Shukr, Ain Shukur, Ayn Shukr", "name": "\u0639\u064a\u0646 \u0634\u0643\u0631", "name:ar": "\u0639\u064a\u0646 \u0634\u0643\u0631", "name:ar1": "\u0639\u064a\u0646 \u0634\u0643\u0631", "name:de": "Ain Shukur", "name:en": "Ain Shukur", "name:fr": "Ain Shukur", "place": "village"}}, {"type": "node", "id": 2488642359, "lat": 34.5873266, "lon": 44.8631762, "tags": {"alt_name": "\u0639\u064a\u0646 \u0634\u0643\u0631 \u0639\u0628\u062f \u0627\u0644\u0631\u062d\u0645\u0627\u0646", "int_name": "Ayn Shukr Abd ar Rahm\u0101n, Ayn Shukr Abd ar Rahman", "name": "\u0639\u064a\u0646 \u0634\u0643\u0631 \u0639\u0628\u062f \u0627\u0644\u0631\u062d\u0645\u0627\u0646", "name:ar": "\u0639\u064a\u0646 \u0634\u0643\u0631 \u0639\u0628\u062f \u0627\u0644\u0631\u062d\u0645\u0627\u0646", "name:ar1": "\u0639\u064a\u0646 \u0634\u0643\u0631 \u0639\u0628\u062f \u0627\u0644\u0631\u062d\u0645\u0627\u0646", "name:de": "Ayn Shukr Abd ar Rahman", "name:en": "Ayn Shukr Abd ar Rahman", "name:fr": "Ayn Shukr Abd ar Rahman", "place": "village"}}, {"type": "node", "id": 2488642365, "lat": 34.5867427, "lon": 44.8649313, "tags": {"alt_name": "\u0639\u064a\u0646 \u0634\u0643\u0648\u0631", "int_name": "Ayn Shuk\u016br, \u0639\u064a\u0646 \u0634\u0643\u0648\u0631, Ayn Shukur, \u0639\u064a\u0646 \u0634\u0643\u0648\u0631", "name": "\u0639\u064a\u0646 \u0634\u0643\u0648\u0631", "name:ar": "\u0639\u064a\u0646 \u0634\u0643\u0648\u0631", "name:ar1": "\u0639\u064a\u0646 \u0634\u0643\u0648\u0631", "name:de": "Ayn Shukur", "name:en": "Ayn Shukur", "name:fr": "Ayn Shukur", "place": "village"}}, {"type": "node", "id": 2488642370, "lat": 34.583333, "lon": 44.866667, "tags": {"alt_name": "\u063a\u0644\u0627\u0628\u0627\u062a", "int_name": "Ghil\u0101b\u0101t, Gilabat, Gil\u0101b\u0101t West, Qil\u0101b\u0101t, Ghilabat, Gilabat, Gilabat West, Qilabat", "name": "\u063a\u0644\u0627\u0628\u0627\u062a", "name:ar": "\u063a\u0644\u0627\u0628\u0627\u062a", "name:ar1": "\u063a\u0644\u0627\u0628\u0627\u062a", "name:de": "Ghilabat", "name:en": "Ghilabat", "name:fr": "Ghilabat", "place": "village"}}, {"type": "node", "id": 2488642375, "lat": 34.590319, "lon": 44.873757, "tags": {"alt_name": "\u0643\u064a\u0644\u0627\u0628\u0627\u062a", "int_name": "Gil\u0101b\u0101t, Gil\u0101bat East, K\u012bl\u0101b\u0101t, Qil\u0101b\u0101t, \u0643\u064a\u0644\u0627\u0628\u0627\u062a, Gilabat, Gilabat East, Kilabat, Qilabat, \u0643\u064a\u0644\u0627\u0628\u0627\u062a", "name": "\u0643\u064a\u0644\u0627\u0628\u0627\u062a", "name:ar": "\u0643\u064a\u0644\u0627\u0628\u0627\u062a", "name:ar1": "\u0643\u064a\u0644\u0627\u0628\u0627\u062a", "name:de": "Gilabat", "name:en": "Gilabat", "name:fr": "Gilabat", "place": "village"}}, {"type": "node", "id": 2488642380, "lat": 34.592161, "lon": 44.866961, "tags": {"alt_name": "\u062d\u0645\u0632\u0629", "int_name": "\u1e28amzah, \u062d\u0645\u0632\u0629, Hamzah, \u062d\u0645\u0632\u0629", "name": "\u062d\u0645\u0632\u0629", "name:ar": "\u062d\u0645\u0632\u0629", "name:ar1": "\u062d\u0645\u0632\u0629", "name:de": "Hamzah", "name:en": "Hamzah", "name:fr": "Hamzah", "place": "village"}}, {"type": "node", "id": 2488642386, "lat": 34.6, "lon": 44.866667, "tags": {"alt_name": "\u0631\u0632\u0648\u0642", "int_name": "Razuq, Razuq", "name": "\u0631\u0632\u0648\u0642", "name:ar": "\u0631\u0632\u0648\u0642", "name:ar1": "\u0631\u0632\u0648\u0642", "name:de": "Razuq", "name:en": "Razuq", "name:fr": "Razuq", "place": "village"}}, {"type": "node", "id": 2488642401, "lat": 34.5875382, "lon": 44.8649668, "tags": {"alt_name": "\u0639\u0628\u062f \u0627\u0644\u0631\u062d\u0645\u0646", "int_name": "\u0639\u0628\u062f \u0627\u0644\u0631\u062d\u0645\u0646, \u0639\u0628\u062f \u0627\u0644\u0631\u062d\u0645\u0646", "name": "\u0639\u0628\u062f \u0627\u0644\u0631\u062d\u0645\u0646", "name:ar": "\u0639\u0628\u062f \u0627\u0644\u0631\u062d\u0645\u0646", "name:ar1": "\u0639\u0628\u062f \u0627\u0644\u0631\u062d\u0645\u0646", "name:de": "\u0639\u0628\u062f \u0627\u0644\u0631\u062d\u0645\u0646", "name:en": "\u0639\u0628\u062f \u0627\u0644\u0631\u062d\u0645\u0646", "name:fr": "\u0639\u0628\u062f \u0627\u0644\u0631\u062d\u0645\u0646", "place": "village"}}, {"type": "node", "id": 2488642975, "lat": 34.53722, "lon": 44.809712, "tags": {"alt_name": "\u0622\u0644 \u0628\u0648 \u0639\u0644\u0643", "int_name": "Ab\u016b Alik, Ab\u016b Alaik, Alb\u016b Alik, \u0627\u0644\u0628\u0648 \u0639\u0644\u0643, Abu Alik, Abu Alaik, Albu Alik, \u0627\u0644\u0628\u0648 \u0639\u0644\u0643", "name": "\u0622\u0644 \u0628\u0648 \u0639\u0644\u0643", "name:ar": "\u0622\u0644 \u0628\u0648 \u0639\u0644\u0643", "name:ar1": "\u0622\u0644 \u0628\u0648 \u0639\u0644\u0643", "name:de": "Abu Alik", "name:en": "Abu Alik", "name:fr": "Abu Alik", "place": "village"}}, {"type": "node", "id": 2488642981, "lat": 34.5699899, "lon": 44.8876355, "tags": {"alt_name": "\u0639\u064a\u0646 \u0634\u0643\u0631 \u0635\u063a\u064a\u0631", "int_name": "Ain Shukur Sagh\u012br, Ayn Shukr, Ayn Shukr Sagh\u012br, Ain Shukur Saghir, Ayn Shukr, Ayn Shukr Saghir", "name": "\u0639\u064a\u0646 \u0634\u0643\u0631 \u0635\u063a\u064a\u0631", "name:ar": "\u0639\u064a\u0646 \u0634\u0643\u0631 \u0635\u063a\u064a\u0631", "name:ar1": "\u0639\u064a\u0646 \u0634\u0643\u0631 \u0635\u063a\u064a\u0631", "name:de": "Ain Shukur Saghir", "name:en": "Ain Shukur Saghir", "name:fr": "Ain Shukur Saghir", "place": "village"}}, {"type": "node", "id": 2488642997, "lat": 34.687276, "lon": 44.75913, "tags": {"alt_name": "\u0622\u0644 \u0628\u0648 \u063a\u0646\u0627\u0645", "int_name": "Alb\u016b Ghann\u0101m, \u0627\u0644\u0628\u0648 \u063a\u0646\u0627\u0645, Albu Ghannam, \u0627\u0644\u0628\u0648 \u063a\u0646\u0627\u0645", "name": "\u0622\u0644 \u0628\u0648 \u063a\u0646\u0627\u0645", "name:ar": "\u0622\u0644 \u0628\u0648 \u063a\u0646\u0627\u0645", "name:ar1": "\u0622\u0644 \u0628\u0648 \u063a\u0646\u0627\u0645", "name:de": "Albu Ghannam", "name:en": "Albu Ghannam", "name:fr": "Albu Ghannam", "place": "village"}}, {"type": "node", "id": 2488643002, "lat": 34.6523947, "lon": 44.8191462, "tags": {"alt_name": "\u0623\u0631\u062c\u0627\u0646", "int_name": "Arch\u0101n, Arj\u0101n, \u0627\u0631\u062c\u0627\u0646, Archan, Arjan, \u0627\u0631\u062c\u0627\u0646", "name": "\u0623\u0631\u062c\u0627\u0646", "name:ar": "\u0623\u0631\u062c\u0627\u0646", "name:ar1": "\u0623\u0631\u062c\u0627\u0646", "name:de": "Archan", "name:en": "Archan", "name:fr": "Archan", "place": "village"}}, {"type": "node", "id": 2488643013, "lat": 34.568705, "lon": 44.8879049, "tags": {"alt_name": "\u0639\u064a\u0646 \u0634\u0643\u0648\u0631 \u0644\u0627\u0648\u0629", "int_name": "Ayn Shuk\u016br L\u0101wah, \u0639\u064a\u0646 \u0634\u0643\u0648\u0631 \u0644\u0627\u0648\u0629, Ayn Shukur Lawah, \u0639\u064a\u0646 \u0634\u0643\u0648\u0631 \u0644\u0627\u0648\u0629", "name": "\u0639\u064a\u0646 \u0634\u0643\u0648\u0631 \u0644\u0627\u0648\u0629", "name:ar": "\u0639\u064a\u0646 \u0634\u0643\u0648\u0631 \u0644\u0627\u0648\u0629", "name:ar1": "\u0639\u064a\u0646 \u0634\u0643\u0648\u0631 \u0644\u0627\u0648\u0629", "name:de": "Ayn Shukur Lawah", "name:en": "Ayn Shukur Lawah", "name:fr": "Ayn Shukur Lawah", "place": "village"}}, {"type": "node", "id": 2488643018, "lat": 34.644709, "lon": 44.846892, "tags": {"alt_name": "\u0628\u0644\u0627\u0646\u062c\u064a\u0629", "int_name": "Bal\u0101nj\u012byah, \u0628\u0644\u0627\u0646\u062c\u064a\u0629, Balanjiyah, \u0628\u0644\u0627\u0646\u062c\u064a\u0629", "name": "\u0628\u0644\u0627\u0646\u062c\u064a\u0629", "name:ar": "\u0628\u0644\u0627\u0646\u062c\u064a\u0629", "name:ar1": "\u0628\u0644\u0627\u0646\u062c\u064a\u0629", "name:de": "Balanjiyah", "name:en": "Balanjiyah", "name:fr": "Balanjiyah", "place": "village"}}, {"type": "node", "id": 2488643019, "lat": 34.668945, "lon": 44.77909, "tags": {"alt_name": "\u062c\u0641\u0629 \u0639\u064a\u0634\u0629", "int_name": "Chafat Ayshah, Ch\u0101ft al \u0100sha, Chhaptalesa, \u0686\u0641\u0629 \u0639\u064a\u0634\u0629, Chafat Ayshah, Chaft al Asha, Chhaptalesa, \u0686\u0641\u0629 \u0639\u064a\u0634\u0629", "name": "\u062c\u0641\u0629 \u0639\u064a\u0634\u0629", "name:ar": "\u062c\u0641\u0629 \u0639\u064a\u0634\u0629", "name:ar1": "\u062c\u0641\u0629 \u0639\u064a\u0634\u0629", "name:de": "Chafat Ayshah", "name:en": "Chafat Ayshah", "name:fr": "Chafat Ayshah", "place": "village"}}, {"type": "node", "id": 2488643023, "lat": 34.6005726, "lon": 44.8303391, "tags": {"alt_name": "\u062f\u0628\u0627\u062c\u0629", "int_name": "Dabb\u0101chah, \u062f\u0628\u0627\u0686\u0629, Dabbachah, \u062f\u0628\u0627\u0686\u0629", "name": "\u062f\u0628\u0627\u062c\u0629", "name:ar": "\u062f\u0628\u0627\u062c\u0629", "name:ar1": "\u062f\u0628\u0627\u062c\u0629", "name:de": "Dabbachah", "name:en": "Dabbachah", "name:fr": "Dabbachah", "place": "hamlet"}}, {"type": "node", "id": 2488643025, "lat": 34.6755861, "lon": 44.8364673, "tags": {"name": "\u062f\u0648\u064a\u0631\u0627\u0646", "place": "village"}}, {"type": "node", "id": 2488643041, "lat": 34.593047, "lon": 44.934586, "tags": {"int_name": "Jabarah, \u062c\u0628\u0627\u0631\u0629", "name": "\u062c\u0628\u0627\u0631\u0629", "name:ar": "\u062c\u0628\u0627\u0631\u0629", "name:ckb": "\u062c\u06d5\u0628\u0627\u0631\u06d5", "name:en": "Jabara", "name:ku": "Cebare", "place": "town", "wikidata": "Q12204619", "wikipedia": "ckb:\u062c\u06d5\u0628\u0627\u0631\u06d5"}}, {"type": "node", "id": 2488643050, "lat": 34.6567726, "lon": 44.9198013, "tags": {"name": "\u06a9\u0627\u0631\u06ce\u0632 \u0645\u06d5\u062c\u06cc\u062f \u067e\u0627\u0634\u0627", "place": "village"}}, {"type": "node", "id": 2488643071, "lat": 34.673184, "lon": 44.90271, "tags": {"name": "\u06a9\u0646\u06af\u0631\u0628\u0627\u0646", "place": "village"}}, {"type": "node", "id": 2488643083, "lat": 34.702782, "lon": 44.745715, "tags": {"name": "\u0644\u0642\u0645", "place": "village"}}, {"type": "node", "id": 2488643094, "lat": 34.608467, "lon": 44.821586, "tags": {"alt_name": "\u0645\u0648\u064a\u0644\u062d \u0623\u062d\u0645\u062f \u062e\u0644\u0641", "int_name": "Muwayli\u1e29 A\u1e29mad Falaf, Muwayli\u1e29 A\u1e29mad Khalaf, \u0645\u0648\u064a\u0644\u062d \u0627\u062d\u0645\u062f \u062e\u0644\u0641, Muwaylih Ahmad Falaf, Muwaylih Ahmad Khalaf, \u0645\u0648\u064a\u0644\u062d \u0627\u062d\u0645\u062f \u062e\u0644\u0641", "name": "\u0645\u0648\u064a\u0644\u062d \u0623\u062d\u0645\u062f \u062e\u0644\u0641", "name:ar": "\u0645\u0648\u064a\u0644\u062d \u0623\u062d\u0645\u062f \u062e\u0644\u0641", "name:ar1": "\u0645\u0648\u064a\u0644\u062d \u0623\u062d\u0645\u062f \u062e\u0644\u0641", "name:de": "Muwaylih Ahmad Falaf", "name:en": "Muwaylih Ahmad Falaf", "name:fr": "Muwaylih Ahmad Falaf", "place": "village"}}, {"type": "node", "id": 2488643099, "lat": 34.6201666, "lon": 44.8120044, "tags": {"alt_name": "\u0645\u0648\u064a\u0644\u062d \u0633\u0627\u0644\u0645", "int_name": "Muwayli\u1e29 S\u0101lim, \u0645\u0648\u064a\u0644\u062d \u0633\u0627\u0644\u0645, Muwaylih Salim, \u0645\u0648\u064a\u0644\u062d \u0633\u0627\u0644\u0645", "name": "\u0645\u0648\u064a\u0644\u062d \u0633\u0627\u0644\u0645", "name:ar": "\u0645\u0648\u064a\u0644\u062d \u0633\u0627\u0644\u0645", "name:ar1": "\u0645\u0648\u064a\u0644\u062d \u0633\u0627\u0644\u0645", "name:de": "Muwaylih Salim", "name:en": "Muwaylih Salim", "name:fr": "Muwaylih Salim", "place": "village"}}, {"type": "node", "id": 2488643128, "lat": 34.644461, "lon": 44.80859, "tags": {"alt_name": "\u0633\u0627\u0631\u064a \u0643\u0648\u064a\u0644", "int_name": "\u015e\u0101r\u012b Gar\u012bl, \u015e\u0101r\u012b Gul, S\u0101r\u012b Kaw\u012bl, \u0633\u0627\u0631\u064a \u0643\u0648\u064a\u0644, Sari Garil, Sari Gul, Sari Kawil, \u0633\u0627\u0631\u064a \u0643\u0648\u064a\u0644", "name": "\u0633\u0627\u0631\u064a \u0643\u0648\u064a\u0644", "name:ar": "\u0633\u0627\u0631\u064a \u0643\u0648\u064a\u0644", "name:ar1": "\u0633\u0627\u0631\u064a \u0643\u0648\u064a\u0644", "name:de": "Sari Garil", "name:en": "Sari Garil", "name:fr": "Sari Garil", "place": "village"}}, {"type": "node", "id": 2488643134, "lat": 34.680095, "lon": 44.809252, "tags": {"name": "\u0634\u062f\u06cc\u062f\u0629", "place": "village"}}, {"type": "node", "id": 2488643154, "lat": 34.677875, "lon": 44.8315589, "tags": {"alt_name": "\u062a\u0644 \u062d\u0646\u0634", "int_name": "Tall Hanish, Tall \u1e28anish, \u062a\u0644 \u062d\u0646\u0634, Tall Hanish, Tall Hanish, \u062a\u0644 \u062d\u0646\u0634", "name": "\u062a\u0644 \u062d\u0646\u0634", "name:ar": "\u062a\u0644 \u062d\u0646\u0634", "name:ar1": "\u062a\u0644 \u062d\u0646\u0634", "name:de": "Tall Hanish", "name:en": "Tall Hanish", "name:fr": "Tall Hanish", "place": "village"}}, {"type": "node", "id": 2488643160, "lat": 34.6285831, "lon": 44.8681052, "tags": {"alt_name": "\u062a\u0644 \u0646\u0642\u0627\u0631", "int_name": "Tall Naqq\u0101r, Thankar, \u062a\u0644 \u0646\u0642\u0627\u0631, Tall Naqqar, Thankar, \u062a\u0644 \u0646\u0642\u0627\u0631", "name": "\u062a\u0644 \u0646\u0642\u0627\u0631", "name:ar": "\u062a\u0644 \u0646\u0642\u0627\u0631", "name:ar1": "\u062a\u0644 \u0646\u0642\u0627\u0631", "name:de": "Tall Naqqar", "name:en": "Tall Naqqar", "name:fr": "Tall Naqqar", "place": "village"}}, {"type": "node", "id": 2488643167, "lat": 34.536023, "lon": 44.908219, "tags": {"alt_name": "\u062a\u0644 \u0627\u0644\u0634\u0648\u0643", "int_name": "Tall ash Sh\u016bk, \u062a\u0644 \u0627\u0644\u0634\u0648\u0643, Tall ash Shuk, \u062a\u0644 \u0627\u0644\u0634\u0648\u0643", "name": "\u062a\u0644 \u0627\u0644\u0634\u0648\u0643", "name:ar": "\u062a\u0644 \u0627\u0644\u0634\u0648\u0643", "name:ar1": "\u062a\u0644 \u0627\u0644\u0634\u0648\u0643", "name:de": "Tall ash Shuk", "name:en": "Tall ash Shuk", "name:fr": "Tall ash Shuk", "place": "village"}}, {"type": "node", "id": 2489303031, "lat": 34.727778, "lon": 44.71459, "tags": {"alt_name": "\u062d\u0641\u0631\u064a\u0629", "int_name": "\u1e28afr\u012byah, \u062d\u0641\u0631\u064a\u0629, Hafriyah, \u062d\u0641\u0631\u064a\u0629", "name": "\u062d\u0641\u0631\u064a\u0629", "name:ar": "\u062d\u0641\u0631\u064a\u0629", "name:ar1": "\u062d\u0641\u0631\u064a\u0629", "name:de": "Hafriyah", "name:en": "Hafriyah", "name:fr": "Hafriyah", "place": "village"}}, {"type": "node", "id": 2489307788, "lat": 34.551667, "lon": 44.596389, "tags": {"alt_name": "\u0623\u0628\u0648 \u063a\u0631\u064a\u0628", "int_name": "Abu Ghuraib, Ab\u016b Ghurayb, Abu Guraib, Abu Ghuraib, Abu Ghurayb, Abu Guraib", "name": "\u0623\u0628\u0648 \u063a\u0631\u064a\u0628", "name:ar": "\u0623\u0628\u0648 \u063a\u0631\u064a\u0628", "name:ar1": "\u0623\u0628\u0648 \u063a\u0631\u064a\u0628", "name:de": "Abu Ghuraib", "name:en": "Abu Ghuraib", "name:fr": "Abu Ghuraib", "place": "village"}}, {"type": "node", "id": 2489307812, "lat": 34.377383, "lon": 44.710482, "tags": {"alt_name": "\u0627\u0644\u0623\u063a\u0627\u064a\u0631", "int_name": "Al Agh\u0101yir, Al Agh\u0101y\u012br, \u0627\u0644\u0623\u063a\u0627\u064a\u0631, \u0627\u0644\u0627\u063a\u0627\u064a\u064a\u0631, Al Aghayir, Al Aghayir, \u0627\u0644\u0623\u063a\u0627\u064a\u0631, \u0627\u0644\u0627\u063a\u0627\u064a\u064a\u0631", "name": "\u0627\u0644\u0623\u063a\u0627\u064a\u0631", "name:ar": "\u0627\u0644\u0623\u063a\u0627\u064a\u0631", "name:ar1": "\u0627\u0644\u0623\u063a\u0627\u064a\u0631", "name:de": "Al Aghayir", "name:en": "Al Aghayir", "name:fr": "Al Aghayir", "place": "village"}}, {"type": "node", "id": 2489307818, "lat": 34.7365193, "lon": 44.5496127, "tags": {"alt_name": "\u0622\u0644 \u0628\u0648 \u0631\u062d\u0636\u0627", "int_name": "rewizat obasi", "name": "\u0622\u0644 \u0628\u0648 \u0631\u062d\u0636\u0627", "name:ar": "\u0631\u0648\u064a\u0632\u0627\u062a \u0627\u0648\u0628\u0627\u0633\u064a", "name:ar1": "\u0622\u0644 \u0628\u0648 \u0631\u062d\u0636\u0627", "name:de": "rewizat obasi", "name:en": "rewizat obasi", "name:fr": "rewizat obasi", "place": "village"}}, {"type": "node", "id": 2489307825, "lat": 34.3356754, "lon": 44.6352631, "tags": {"alt_name": "\u0627\u0644\u0643\u0631\u0639\u0629", "int_name": "Al Karah, \u0627\u0644\u06a9\u0631\u0639\u0629, Al Karah, \u0627\u0644\u06a9\u0631\u0639\u0629", "name": "\u0627\u0644\u0643\u0631\u0639\u0629", "name:ar": "\u0627\u0644\u0643\u0631\u0639\u0629", "name:ar1": "\u0627\u0644\u0643\u0631\u0639\u0629", "name:de": "Al Karah", "name:en": "Al Karah", "name:fr": "Al Karah", "place": "village"}}, {"type": "node", "id": 2489307832, "lat": 34.3353251, "lon": 44.6358861, "tags": {"alt_name": "\u0622\u0644 \u0628\u0648 \u0639\u0628\u0627\u062f\u0629", "int_name": "\u0100lb\u016b Ab\u0101dah, \u0627\u0644\u0628\u0648 \u0639\u0628\u0627\u062f\u0629, Albu Abadah, \u0627\u0644\u0628\u0648 \u0639\u0628\u0627\u062f\u0629", "name": "\u0622\u0644 \u0628\u0648 \u0639\u0628\u0627\u062f\u0629", "name:ar": "\u0622\u0644 \u0628\u0648 \u0639\u0628\u0627\u062f\u0629", "name:ar1": "\u0622\u0644 \u0628\u0648 \u0639\u0628\u0627\u062f\u0629", "name:de": "Albu Abadah", "name:en": "Albu Abadah", "name:fr": "Albu Abadah", "place": "village"}}, {"type": "node", "id": 2489308081, "lat": 34.337575, "lon": 44.719568, "tags": {"alt_name": "\u062d\u0633\u0646 \u0627\u0644\u0628\u0647\u0627\u064a\u0628\u064a", "int_name": "\u1e28asan Albah\u0101yb\u012b, \u062d\u0633\u0646 \u0627\u0644\u0628\u0647\u0627\u064a\u0628\u064a, Hasan Albahaybi, \u062d\u0633\u0646 \u0627\u0644\u0628\u0647\u0627\u064a\u0628\u064a", "name": "\u062d\u0633\u0646 \u0627\u0644\u0628\u0647\u0627\u064a\u0628\u064a", "name:ar": "\u062d\u0633\u0646 \u0627\u0644\u0628\u0647\u0627\u064a\u0628\u064a", "name:ar1": "\u062d\u0633\u0646 \u0627\u0644\u0628\u0647\u0627\u064a\u0628\u064a", "name:de": "Hasan Albahaybi", "name:en": "Hasan Albahaybi", "name:fr": "Hasan Albahaybi", "place": "village"}}, {"type": "node", "id": 2489308089, "lat": 34.377682, "lon": 44.6587907, "tags": {"alt_name": "\u062d\u0633\u0646 \u0627\u0644\u0638\u0639\u0646", "int_name": "\u1e28asan az\u0327 Z\u0327aan, \u062d\u0633\u0646 \u0627\u0644\u0638\u0639\u0646, Hasan az Zaan, \u062d\u0633\u0646 \u0627\u0644\u0638\u0639\u0646", "name": "\u062d\u0633\u0646 \u0627\u0644\u0638\u0639\u0646", "name:ar": "\u062d\u0633\u0646 \u0627\u0644\u0638\u0639\u0646", "name:ar1": "\u062d\u0633\u0646 \u0627\u0644\u0638\u0639\u0646", "name:de": "Hasan az Zaan", "name:en": "Hasan az Zaan", "name:fr": "Hasan az Zaan", "place": "village"}}, {"type": "node", "id": 2489308102, "lat": 34.3764341, "lon": 44.6586113, "tags": {"alt_name": "\u062d\u0633\u064a\u0646 \u0627\u0644\u0638\u0639\u0646", "int_name": "\u1e28usayn az\u0327 Z\u0327aan, \u062d\u0633\u064a\u0646 \u0627\u0644\u0638\u0639\u0646, Husayn az Zaan, \u062d\u0633\u064a\u0646 \u0627\u0644\u0638\u0639\u0646", "name": "\u062d\u0633\u064a\u0646 \u0627\u0644\u0638\u0639\u0646", "name:ar": "\u062d\u0633\u064a\u0646 \u0627\u0644\u0638\u0639\u0646", "name:ar1": "\u062d\u0633\u064a\u0646 \u0627\u0644\u0638\u0639\u0646", "name:de": "Husayn az Zaan", "name:en": "Husayn az Zaan", "name:fr": "Husayn az Zaan", "place": "village"}}, {"type": "node", "id": 2489308108, "lat": 34.41356, "lon": 44.596055, "tags": {"alt_name": "\u062d\u0635\u064a\u0648\u0627\u062a", "int_name": "\u1e28u\u015fayw\u0101t, Saww\u0101t, \u062d\u0635\u064a\u0648\u0627\u062a, Husaywat, Sawwat, \u062d\u0635\u064a\u0648\u0627\u062a", "name": "\u062d\u0635\u064a\u0648\u0627\u062a", "name:ar": "\u062d\u0635\u064a\u0648\u0627\u062a", "name:ar1": "\u062d\u0635\u064a\u0648\u0627\u062a", "name:de": "Husaywat", "name:en": "Husaywat", "name:fr": "Husaywat", "place": "village"}}, {"type": "node", "id": 2489308162, "lat": 34.418155, "lon": 44.584894, "tags": {"alt_name": "\u0645\u062d\u0645\u0648\u062f \u0627\u0644\u062e\u0644\u0641", "int_name": "Ma\u1e29m\u016bd al Khalaf, \u0645\u062d\u0645\u0648\u062f \u0627\u0644\u062e\u0644\u0641, Mahmud al Khalaf, \u0645\u062d\u0645\u0648\u062f \u0627\u0644\u062e\u0644\u0641", "name": "\u0645\u062d\u0645\u0648\u062f \u0627\u0644\u062e\u0644\u0641", "name:ar": "\u0645\u062d\u0645\u0648\u062f \u0627\u0644\u062e\u0644\u0641", "name:ar1": "\u0645\u062d\u0645\u0648\u062f \u0627\u0644\u062e\u0644\u0641", "name:de": "Mahmud al Khalaf", "name:en": "Mahmud al Khalaf", "name:fr": "Mahmud al Khalaf", "place": "village"}}, {"type": "node", "id": 2489308182, "lat": 34.766667, "lon": 44.566667, "tags": {"alt_name": "\u0628\u064a\u0631 \u0623\u062d\u0645\u062f\u0644\u064a", "int_name": "P\u012br A\u1e29madl\u012b, P\u012br Ahmedli, Pir Ahmadli, Pir Ahmedli", "name": "\u0628\u064a\u0631 \u0623\u062d\u0645\u062f", "name:ar": "\u0643\u0648\u062c\u0648\u0643 \u062f\u0648\u0646\u0628\u0644\u0627\u0646 \u062f\u0631\u0647", "name:ar1": "\u0628\u064a\u0631 \u0623\u062d\u0645\u062f\u0644\u064a", "name:de": "Pir Ahmadli", "name:en": "b\u0131r Ahmadli", "name:fr": "Pir Ahmadli", "place": "village"}}, {"type": "node", "id": 2489308385, "lat": 34.409241, "lon": 44.644986, "tags": {"alt_name": "\u0635\u0628\u0627\u062d \u0627\u0644\u0639\u0632\u0627\u0648\u064a", "int_name": "\u015eib\u0101\u1e29 al Azz\u0101w\u012b, \u0635\u0628\u0627\u062d \u0627\u0644\u0639\u0632\u0627\u0648\u064a, Sibah al Azzawi, \u0635\u0628\u0627\u062d \u0627\u0644\u0639\u0632\u0627\u0648\u064a", "name": "\u0635\u0628\u0627\u062d \u0627\u0644\u0639\u0632\u0627\u0648\u064a", "name:ar": "\u0635\u0628\u0627\u062d \u0627\u0644\u0639\u0632\u0627\u0648\u064a", "name:ar1": "\u0635\u0628\u0627\u062d \u0627\u0644\u0639\u0632\u0627\u0648\u064a", "name:de": "Sibah al Azzawi", "name:en": "Sibah al Azzawi", "name:fr": "Sibah al Azzawi", "place": "village"}}, {"type": "node", "id": 2489322457, "lat": 34.377228, "lon": 44.981204, "tags": {"alt_name": "\u0623\u0628\u0648 \u0637\u062d\u064a\u0646", "int_name": "Ab\u016b \u0162a\u1e29\u012bn, \u0627\u0628\u0648 \u0637\u062d\u064a\u0646, Abu Tahin, \u0627\u0628\u0648 \u0637\u062d\u064a\u0646", "name": "\u0623\u0628\u0648 \u0637\u062d\u064a\u0646", "name:ar": "\u0623\u0628\u0648 \u0637\u062d\u064a\u0646", "name:ar1": "\u0623\u0628\u0648 \u0637\u062d\u064a\u0646", "name:de": "Abu Tahin", "name:en": "Abu Tahin", "name:fr": "Abu Tahin", "place": "village"}}, {"type": "node", "id": 2489322461, "lat": 34.370527, "lon": 44.88805, "tags": {"alt_name": "\u0623\u0633\u0643\u064a \u0643\u0648\u0628\u0631\u064a \u062c\u062f\u0648\u064a", "int_name": "Ask\u012b K\u016bbr\u012b Jadw\u012b, \u0627\u0633\u06a9\u064a \u06a9\u0648\u0628\u0631\u064a \u062c\u062f\u0648\u064a, Aski Kubri Jadwi, \u0627\u0633\u06a9\u064a \u06a9\u0648\u0628\u0631\u064a \u062c\u062f\u0648\u064a", "name": "\u0623\u0633\u0643\u064a \u0643\u0648\u0628\u0631\u064a \u062c\u062f\u0648\u064a", "name:ar": "\u0623\u0633\u0643\u064a \u0643\u0648\u0628\u0631\u064a \u062c\u062f\u0648\u064a", "name:ar1": "\u0623\u0633\u0643\u064a \u0643\u0648\u0628\u0631\u064a \u062c\u062f\u0648\u064a", "name:de": "Aski Kubri Jadwi", "name:en": "Aski Kubri Jadwi", "name:fr": "Aski Kubri Jadwi", "place": "village"}}, {"type": "node", "id": 2489322462, "lat": 34.366979, "lon": 44.892313, "tags": {"alt_name": "\u0623\u0633\u0643\u064a \u0643\u0648\u0628\u0631\u064a \u062c\u0627\u0633\u0645 \u0627\u0644\u0639\u0644\u064a", "int_name": "Aski Kubri, Ask\u012b K\u016bbr\u012b J\u0101sim al Al\u012b, Ask\u012b K\u016bpr\u012b, Esk Kopri, Eski Kupri, J\u0101sim, \u0627\u0633\u06a9\u064a \u06a9\u0648\u0628\u0631\u064a \u062c\u0627\u0633\u0645 \u0627\u0644\u0639\u0644\u064a, Aski Kubri, Aski Kubri Jasim al Ali, Aski Kupri, Esk Kopri, Eski Kupri, Jasim, \u0627\u0633\u06a9\u064a \u06a9\u0648\u0628\u0631\u064a \u062c\u0627\u0633\u0645 \u0627\u0644\u0639\u0644\u064a", "name": "\u0623\u0633\u0643\u064a \u0643\u0648\u0628\u0631\u064a \u062c\u0627\u0633\u0645 \u0627\u0644\u0639\u0644\u064a", "name:ar": "\u0623\u0633\u0643\u064a \u0643\u0648\u0628\u0631\u064a \u062c\u0627\u0633\u0645 \u0627\u0644\u0639\u0644\u064a", "name:ar1": "\u0623\u0633\u0643\u064a \u0643\u0648\u0628\u0631\u064a \u062c\u0627\u0633\u0645 \u0627\u0644\u0639\u0644\u064a", "name:de": "Aski Kubri", "name:en": "Aski Kubri", "name:fr": "Aski Kubri", "place": "village"}}, {"type": "node", "id": 2489322514, "lat": 34.333333, "lon": 44.983333, "tags": {"alt_name": "\u062c \u062a\u0628\u0629", "int_name": "Jj Tappeh, Jj Tappeh", "name": "\u062c \u062a\u0628\u0629", "name:ar": "\u062c \u062a\u0628\u0629", "name:ar1": "\u062c \u062a\u0628\u0629", "name:de": "Jj Tappeh", "name:en": "Jj Tappeh", "name:fr": "Jj Tappeh", "place": "village"}}, {"type": "node", "id": 2489322520, "lat": 34.338641, "lon": 44.754872, "tags": {"alt_name": "\u0643\u0648\u0643\u062c\u0627\u0646", "int_name": "Kawkaj\u0101n, \u06a9\u0648\u06a9\u062c\u0627\u0646, Kawkajan, \u06a9\u0648\u06a9\u062c\u0627\u0646", "name": "\u0643\u0648\u0643\u062c\u0627\u0646", "name:ar": "\u0643\u0648\u0643\u062c\u0627\u0646", "name:ar1": "\u0643\u0648\u0643\u062c\u0627\u0646", "name:de": "Kawkajan", "name:en": "Kawkajan", "name:fr": "Kawkajan", "place": "village"}}, {"type": "node", "id": 2489322538, "lat": 34.350075, "lon": 44.91586, "tags": {"alt_name": "\u062e\u064a\u0632\u0631\u0627\u0646\u0629", "int_name": "Khayzar\u0101nah, \u062e\u064a\u0632\u0631\u0627\u0646\u0629, Khayzaranah, \u062e\u064a\u0632\u0631\u0627\u0646\u0629", "name": "\u062e\u064a\u0632\u0631\u0627\u0646\u0629", "name:ar": "\u062e\u064a\u0632\u0631\u0627\u0646\u0629", "name:ar1": "\u062e\u064a\u0632\u0631\u0627\u0646\u0629", "name:de": "Khayzaranah", "name:en": "Khayzaranah", "name:fr": "Khayzaranah", "place": "village"}}, {"type": "node", "id": 2489322566, "lat": 34.477949, "lon": 44.860631, "tags": {"alt_name": "\u064a\u0627\u0644\u063a\u0648\u0632 \u0622\u063a\u0627\u062c", "int_name": "Malagh\u016bz \u0100gh\u0101, Yal\u0101gh\u016bz \u0100gh\u0101, Y\u0101lgh\u016bz \u0100gh\u0101j, \u064a\u0627\u0644\u063a\u0648\u0632 \u0622\u063a\u0627\u062c, Malaghuz Agha, Yalaghuz Agha, Yalghuz Aghaj, \u064a\u0627\u0644\u063a\u0648\u0632 \u0622\u063a\u0627\u062c", "name": "\u064a\u0627\u0644\u063a\u0648\u0632 \u0622\u063a\u0627\u062c", "name:ar": "\u064a\u0627\u0644\u063a\u0648\u0632 \u0622\u063a\u0627\u062c", "name:ar1": "\u064a\u0627\u0644\u063a\u0648\u0632 \u0622\u063a\u0627\u062c", "name:de": "Malaghuz Agha", "name:en": "Malaghuz Agha", "name:fr": "Malaghuz Agha", "name:ku": "\u0646\u0627\u0631\u06cc\u0646", "place": "village"}}, {"type": "node", "id": 2489322581, "lat": 34.333333, "lon": 44.916667, "tags": {"alt_name": "\u0646\u0627\u0631\u064a\u0646 \u0643\u0648\u0628\u0631\u064a", "int_name": "N\u0101r\u012bn K\u016bpr\u012b, Narin Kupri", "name": "\u0646\u0627\u0631\u064a\u0646 \u0643\u0648\u0628\u0631\u064a", "name:ar": "\u0646\u0627\u0631\u064a\u0646 \u0643\u0648\u0628\u0631\u064a", "name:ar1": "\u0646\u0627\u0631\u064a\u0646 \u0643\u0648\u0628\u0631\u064a", "name:de": "Narin Kupri", "name:en": "Narin Kupri", "name:fr": "Narin Kupri", "place": "village"}}, {"type": "node", "id": 2489322595, "lat": 34.3937164, "lon": 44.9740126, "tags": {"alt_name": "\u0633\u064a\u062f \u0639\u0644\u0627\u0646", "int_name": "Saiyid Al\u0101n, Sayyid Al\u0101n, Saiyid Alan, Sayyid Alan", "name": "\u0633\u064a\u062f \u0639\u0644\u0627\u0646", "name:ar": "\u0633\u064a\u062f \u0639\u0644\u0627\u0646", "name:ar1": "\u0633\u064a\u062f \u0639\u0644\u0627\u0646", "name:de": "Saiyid Alan", "name:en": "Saiyid Alan", "name:fr": "Saiyid Alan", "place": "village"}}, {"type": "node", "id": 2489322604, "lat": 34.3926276, "lon": 44.9741658, "tags": {"alt_name": "\u0633\u064a\u062f\u0644\u0627\u0646", "int_name": "Saydal\u0101n, \u0633\u064a\u062f\u0644\u0627\u0646, Saydalan, \u0633\u064a\u062f\u0644\u0627\u0646", "name": "\u0633\u064a\u062f\u0644\u0627\u0646", "name:ar": "\u0633\u064a\u062f\u0644\u0627\u0646", "name:ar1": "\u0633\u064a\u062f\u0644\u0627\u0646", "name:de": "Saydalan", "name:en": "Saydalan", "name:fr": "Saydalan", "place": "village"}}, {"type": "node", "id": 2489322611, "lat": 34.6026942, "lon": 44.9795101, "tags": {"alt_name": "\u062a\u0644\u064a\u0634\u0627\u0646", "int_name": "Til\u012bsh\u0101n, \u062a\u0644\u064a\u0634\u0627\u0646, Tilishan, \u062a\u0644\u064a\u0634\u0627\u0646", "name": "\u062a\u0644\u06cc\u0634\u0627\u0646", "name:ar": "\u062a\u0644\u064a\u0634\u0627\u0646", "name:ar1": "\u062a\u0644\u064a\u0634\u0627\u0646", "name:de": "Tilishan", "name:en": "Tilishan", "name:fr": "Tilishan", "place": "village"}}, {"type": "node", "id": 2489322743, "lat": 34.35, "lon": 44.85, "tags": {"alt_name": "\u0648\u0627\u062f\u064a \u062e\u0646\u062c\u0631\u0627\u0646", "int_name": "W\u0101d\u012b Khanjar\u0101n, Wadi Khanjaran", "name": "\u0648\u0627\u062f\u064a \u062e\u0646\u062c\u0631\u0627\u0646", "name:ar": "\u0648\u0627\u062f\u064a \u062e\u0646\u062c\u0631\u0627\u0646", "name:ar1": "\u0648\u0627\u062f\u064a \u062e\u0646\u062c\u0631\u0627\u0646", "name:de": "Wadi Khanjaran", "name:en": "Wadi Khanjaran", "name:fr": "Wadi Khanjaran", "place": "village"}}, {"type": "node", "id": 2489322828, "lat": 34.5835071, "lon": 44.9892454, "tags": {"alt_name": "\u0632\u0631\u062f\u0627\u0648 \u0627\u0643\u0628\u064a\u0631", "int_name": "Zardau, Zard\u0101w, Zard\u0101w al Kab\u012br, \u0632\u0631\u062f\u0627\u0648 \u0627\u0643\u0628\u064a\u0631, Zardau, Zardaw, Zardaw al Kabir, \u0632\u0631\u062f\u0627\u0648 \u0627\u0643\u0628\u064a\u0631", "name": "\u0632\u06d5\u0631\u062f\u0627\u0648", "name:ar": "\u0632\u0631\u062f\u0627\u0648 \u0627\u0643\u0628\u064a\u0631", "name:ar1": "\u0632\u0631\u062f\u0627\u0648 \u0627\u0643\u0628\u064a\u0631", "name:de": "Zardau", "name:en": "Zardau", "name:fr": "Zardau", "place": "village"}}, {"type": "node", "id": 2489357242, "lat": 34.7273817, "lon": 45.0240092, "tags": {"alt_name": "\u062d\u064a\u062f\u0631 \u0643\u0627\u0644", "int_name": "Haderi Kal, Haidar K\u0101l, \u1e28aydar K\u0101l, \u1e28aydarah Kal, \u1e28aydarh Kal, \u1e28aydar\u012b Kal, Haderi Kal, Haidar Kal, Haydar Kal, Haydarah Kal, Haydarh Kal, Haydari Kal", "name": "\u0626\u06cc\u0628\u0631\u0627\u0647\u06cc\u0645 \u062e\u0627\u0646", "name:ar": "\u0627\u0628\u0631\u0627\u0647\u064a\u0645 \u062e\u0627\u0646", "name:ar1": "\u062d\u064a\u062f\u0631 \u0643\u0627\u0644", "name:de": "Ibrahim Khan", "name:en": "Ibrahim Khan", "name:fr": "Ibrahim Khan", "place": "village", "wikidata": "Q61391671", "wikipedia": "ckb:\u0626\u06cc\u0628\u0631\u0627\u06be\u06cc\u0645 \u062e\u0627\u0646"}}, {"type": "node", "id": 2489367926, "lat": 34.6369204, "lon": 45.0508393, "tags": {"alt_name": "\u0643\u0627\u0643\u0648\u0644", "int_name": "Kakole, K\u0101k\u016bl, \u0643\u0627\u0643\u0648\u0644, Kakole, Kakul, \u0643\u0627\u0643\u0648\u0644", "name": "\u06a9\u0627\u06a9\u06c6\u06b5\u06cc", "name:ar": "\u0643\u0627\u0643\u0648\u0644\u064a", "name:ar1": "\u0643\u0627\u0643\u0648\u0644", "name:de": "Kakole", "name:en": "Kakole", "name:fr": "Kakole", "place": "village", "wikidata": "Q61391705", "wikipedia": "ckb:\u06a9\u0627\u06a9\u06c6\u06b5\u06cc\u060c \u0633\u06d5\u0631\u0642\u06d5\u06b5\u0627"}}, {"type": "node", "id": 2489368022, "lat": 34.6157604, "lon": 45.0381061, "tags": {"name": "\u0695\u06d5\u062d\u06cc\u0645 \u0648\u06d5\u0631\u06d5\u0642\u06d5", "name:ar": "\u0631\u062d\u064a\u0645 \u0648\u0631\u0642\u0629", "name:en": "Rahim Waraqa", "place": "village", "wikidata": "Q61391991", "wikipedia": "ckb:\u0695\u06d5\u062d\u06cc\u0645 \u0648\u06d5\u0631\u06d5\u0642\u06d5"}}, {"type": "node", "id": 3057353405, "lat": 34.6797817, "lon": 44.8309248}, {"type": "node", "id": 3057353406, "lat": 34.6789877, "lon": 44.8301737}, {"type": "node", "id": 3057353407, "lat": 34.6781099, "lon": 44.8299507}, {"type": "node", "id": 3057353410, "lat": 34.6779076, "lon": 44.8303275}, {"type": "node", "id": 3057353411, "lat": 34.6776321, "lon": 44.8299121}, {"type": "node", "id": 3057353412, "lat": 34.676729, "lon": 44.8299162}, {"type": "node", "id": 3057353413, "lat": 34.6763231, "lon": 44.8303454}, {"type": "node", "id": 3057353414, "lat": 34.6767819, "lon": 44.831032}, {"type": "node", "id": 3057353415, "lat": 34.6760584, "lon": 44.8313539}, {"type": "node", "id": 3057353416, "lat": 34.6757937, "lon": 44.8317831}, {"type": "node", "id": 3057353417, "lat": 34.6761114, "lon": 44.8320191}, {"type": "node", "id": 3057353418, "lat": 34.6764996, "lon": 44.8317831}, {"type": "node", "id": 3057353419, "lat": 34.6769407, "lon": 44.8319976}, {"type": "node", "id": 3057353420, "lat": 34.6762878, "lon": 44.8336713}, {"type": "node", "id": 3057353421, "lat": 34.6767459, "lon": 44.8344623}, {"type": "node", "id": 3057353422, "lat": 34.6771667, "lon": 44.8344374}, {"type": "node", "id": 3057353423, "lat": 34.6771728, "lon": 44.8340165}, {"type": "node", "id": 3057353424, "lat": 34.6774878, "lon": 44.833564}, {"type": "node", "id": 3057353425, "lat": 34.6774348, "lon": 44.8330062}, {"type": "node", "id": 3057353426, "lat": 34.6780701, "lon": 44.8327916}, {"type": "node", "id": 3057353427, "lat": 34.6782289, "lon": 44.8333066}, {"type": "node", "id": 3057353428, "lat": 34.677576, "lon": 44.8344653}, {"type": "node", "id": 3057353429, "lat": 34.6781407, "lon": 44.8349588}, {"type": "node", "id": 3057353430, "lat": 34.6783348, "lon": 44.8346155}, {"type": "node", "id": 3057353431, "lat": 34.6781054, "lon": 44.8343151}, {"type": "node", "id": 3057353432, "lat": 34.6784583, "lon": 44.8337357}, {"type": "node", "id": 3057354333, "lat": 34.6789218, "lon": 44.8332954}, {"type": "node", "id": 3057354334, "lat": 34.6786426, "lon": 44.8327402}, {"type": "node", "id": 3057354335, "lat": 34.6790759, "lon": 44.8322337}, {"type": "node", "id": 3057354336, "lat": 34.6788818, "lon": 44.8319547}, {"type": "node", "id": 3057354337, "lat": 34.6792171, "lon": 44.8314183}, {"type": "node", "id": 3057354338, "lat": 34.6793935, "lon": 44.8314827}, {"type": "node", "id": 3057354339, "lat": 34.677029, "lon": 44.8360531}, {"type": "node", "id": 3057354340, "lat": 34.6764996, "lon": 44.8370402}, {"type": "node", "id": 3057354341, "lat": 34.6759049, "lon": 44.8373587}, {"type": "node", "id": 3057354342, "lat": 34.6755503, "lon": 44.8377953}, {"type": "node", "id": 3057354343, "lat": 34.6755721, "lon": 44.8385122}, {"type": "node", "id": 3057354344, "lat": 34.6758701, "lon": 44.8388297}, {"type": "node", "id": 3057354345, "lat": 34.6761856, "lon": 44.838462}, {"type": "node", "id": 3057354346, "lat": 34.6767466, "lon": 44.8373621}, {"type": "node", "id": 3057354347, "lat": 34.6775172, "lon": 44.8369487}, {"type": "node", "id": 3057354348, "lat": 34.6750173, "lon": 44.8350017}, {"type": "node", "id": 3057354349, "lat": 34.6741702, "lon": 44.8360961}, {"type": "node", "id": 3057354350, "lat": 34.6742585, "lon": 44.8365896}, {"type": "node", "id": 3057354351, "lat": 34.6739761, "lon": 44.8375337}, {"type": "node", "id": 3057354352, "lat": 34.6750879, "lon": 44.8379629}, {"type": "node", "id": 3057354353, "lat": 34.6756172, "lon": 44.8370187}, {"type": "node", "id": 3057354354, "lat": 34.6760707, "lon": 44.8365959}, {"type": "node", "id": 3057354355, "lat": 34.6759878, "lon": 44.8358171}, {"type": "node", "id": 3057354356, "lat": 34.6759525, "lon": 44.8354094}, {"type": "node", "id": 3283116717, "lat": 34.5208996, "lon": 44.9173878}, {"type": "node", "id": 3283116718, "lat": 34.5213453, "lon": 44.9221404}, {"type": "node", "id": 3283116719, "lat": 34.5213995, "lon": 44.9169698}, {"type": "node", "id": 3283116720, "lat": 34.5224015, "lon": 44.922874}, {"type": "node", "id": 3283116721, "lat": 34.5233143, "lon": 44.9228317}, {"type": "node", "id": 3283116722, "lat": 34.5243935, "lon": 44.9178284}, {"type": "node", "id": 3283116723, "lat": 34.5245808, "lon": 44.9195193}, {"type": "node", "id": 3301009739, "lat": 34.5210825, "lon": 44.9209655}, {"type": "node", "id": 3301009743, "lat": 34.5215421, "lon": 44.9216865}, {"type": "node", "id": 3301009744, "lat": 34.5220159, "lon": 44.9180045}, {"type": "node", "id": 3301009745, "lat": 34.5220513, "lon": 44.9196695}, {"type": "node", "id": 3301009746, "lat": 34.5220937, "lon": 44.9191288}, {"type": "node", "id": 3301009748, "lat": 34.5228079, "lon": 44.9174294}, {"type": "node", "id": 3301009749, "lat": 34.5233383, "lon": 44.9182791}, {"type": "node", "id": 3301009754, "lat": 34.5236848, "lon": 44.9226906}, {"type": "node", "id": 3301009755, "lat": 34.5238898, "lon": 44.9174981}, {"type": "node", "id": 3301009756, "lat": 34.52401, "lon": 44.91894}, {"type": "node", "id": 3301009757, "lat": 34.5241939, "lon": 44.9207595}, {"type": "node", "id": 3301009758, "lat": 34.5242363, "lon": 44.9221585}, {"type": "node", "id": 3301329842, "lat": 34.7049944, "lon": 44.8360418}, {"type": "node", "id": 3301329843, "lat": 34.7050948, "lon": 44.8372718}, {"type": "node", "id": 3301329844, "lat": 34.7053272, "lon": 44.8366683}, {"type": "node", "id": 3301329846, "lat": 34.7054605, "lon": 44.8377809}, {"type": "node", "id": 3301329848, "lat": 34.7060334, "lon": 44.8381321}, {"type": "node", "id": 3301329849, "lat": 34.7064423, "lon": 44.8337561}, {"type": "node", "id": 3301329850, "lat": 34.706719, "lon": 44.8371349}, {"type": "node", "id": 3301329851, "lat": 34.7069535, "lon": 44.8359318}, {"type": "node", "id": 3301329852, "lat": 34.7070266, "lon": 44.8365437}, {"type": "node", "id": 3301329853, "lat": 34.7070547, "lon": 44.8357143}, {"type": "node", "id": 3301329855, "lat": 34.707567, "lon": 44.8349963}, {"type": "node", "id": 3301329856, "lat": 34.707863, "lon": 44.8361279}, {"type": "node", "id": 3301329858, "lat": 34.7082892, "lon": 44.8348282}, {"type": "node", "id": 3301329859, "lat": 34.7083071, "lon": 44.8351664}, {"type": "node", "id": 3309153585, "lat": 34.6758707, "lon": 44.8368391}, {"type": "node", "id": 3309153603, "lat": 34.6760543, "lon": 44.8372787}, {"type": "node", "id": 3309153618, "lat": 34.6763815, "lon": 44.8367418}, {"type": "node", "id": 3309153622, "lat": 34.676405, "lon": 44.8370909}, {"type": "node", "id": 3309153643, "lat": 34.6770929, "lon": 44.8370995}, {"type": "node", "id": 3309153646, "lat": 34.6771386, "lon": 44.8369037}, {"type": "node", "id": 3309153654, "lat": 34.6775542, "lon": 44.8364407}, {"type": "node", "id": 3316136700, "lat": 34.7065682, "lon": 44.837032}, {"type": "node", "id": 3316136713, "lat": 34.7066976, "lon": 44.8339058}, {"type": "node", "id": 3316136729, "lat": 34.7070758, "lon": 44.8362537}, {"type": "node", "id": 3343436743, "lat": 34.633084, "lon": 45.0105709}, {"type": "node", "id": 3343436748, "lat": 34.633455, "lon": 45.0096098}, {"type": "node", "id": 3343436755, "lat": 34.6338642, "lon": 45.0084045}, {"type": "node", "id": 3343436757, "lat": 34.6333862, "lon": 45.0116636}, {"type": "node", "id": 3343436765, "lat": 34.6348022, "lon": 45.0136439}, {"type": "node", "id": 3343436780, "lat": 34.6355963, "lon": 45.0072674}, {"type": "node", "id": 3343436787, "lat": 34.635862, "lon": 45.0126829}, {"type": "node", "id": 3343436791, "lat": 34.636007, "lon": 45.0125277}, {"type": "node", "id": 3343436897, "lat": 34.6362693, "lon": 45.0064284}, {"type": "node", "id": 3343436898, "lat": 34.6362762, "lon": 45.012104}, {"type": "node", "id": 3343436903, "lat": 34.6366006, "lon": 45.00629}, {"type": "node", "id": 3343436904, "lat": 34.6366144, "lon": 45.0118062}, {"type": "node", "id": 3343436916, "lat": 34.6369906, "lon": 45.0116174}, {"type": "node", "id": 3343436921, "lat": 34.6373008, "lon": 45.0119046}, {"type": "node", "id": 3343436940, "lat": 34.6374062, "lon": 45.0071579}, {"type": "node", "id": 3343436952, "lat": 34.6378479, "lon": 45.011103}, {"type": "node", "id": 3343436964, "lat": 34.6381755, "lon": 45.0080347}, {"type": "node", "id": 3343436974, "lat": 34.6384025, "lon": 45.011181}, {"type": "node", "id": 3343437001, "lat": 34.6391305, "lon": 45.0087608}, {"type": "node", "id": 3343437019, "lat": 34.6393673, "lon": 45.0103702}, {"type": "node", "id": 3343437027, "lat": 34.639827, "lon": 45.0106208}, {"type": "node", "id": 3343437028, "lat": 34.6397394, "lon": 45.0100736}, {"type": "node", "id": 3343437033, "lat": 34.6399176, "lon": 45.0105012}, {"type": "node", "id": 3343437038, "lat": 34.6400381, "lon": 45.0088321}, {"type": "node", "id": 3343437046, "lat": 34.6403001, "lon": 45.009791}, {"type": "node", "id": 3343437063, "lat": 34.6413787, "lon": 45.0100188}, {"type": "node", "id": 3343437074, "lat": 34.6422852, "lon": 45.0101084}, {"type": "node", "id": 3343437082, "lat": 34.6422745, "lon": 45.0088531}, {"type": "node", "id": 3343437196, "lat": 34.6429428, "lon": 45.0102298}, {"type": "node", "id": 3343437215, "lat": 34.643586, "lon": 45.0095997}, {"type": "node", "id": 3343437216, "lat": 34.6436403, "lon": 45.0106463}, {"type": "node", "id": 3343437219, "lat": 34.6443355, "lon": 45.0111086}, {"type": "node", "id": 3343437222, "lat": 34.6444595, "lon": 45.0107563}, {"type": "node", "id": 3349930967, "lat": 34.6405248, "lon": 45.0090125}, {"type": "node", "id": 3355114046, "lat": 34.7437113, "lon": 44.9694062}, {"type": "node", "id": 3355114047, "lat": 34.7437151, "lon": 44.9696116}, {"type": "node", "id": 3355114048, "lat": 34.7434964, "lon": 44.9698965}, {"type": "node", "id": 3355114049, "lat": 34.7432355, "lon": 44.9702608}, {"type": "node", "id": 3355114050, "lat": 34.7430359, "lon": 44.9704709}, {"type": "node", "id": 3355114051, "lat": 34.7427328, "lon": 44.9704756}, {"type": "node", "id": 3355114052, "lat": 34.7424718, "lon": 44.9703822}, {"type": "node", "id": 3355114053, "lat": 34.7421456, "lon": 44.9706904}, {"type": "node", "id": 3355114054, "lat": 34.7419921, "lon": 44.9711107}, {"type": "node", "id": 3355114055, "lat": 34.7417888, "lon": 44.971461}, {"type": "node", "id": 3355114056, "lat": 34.7415432, "lon": 44.9713956}, {"type": "node", "id": 3355114057, "lat": 34.7414012, "lon": 44.971036}, {"type": "node", "id": 3355114058, "lat": 34.741382, "lon": 44.9707465}, {"type": "node", "id": 3355114059, "lat": 34.7415585, "lon": 44.9705503}, {"type": "node", "id": 3355114060, "lat": 34.7416161, "lon": 44.9704055}, {"type": "node", "id": 3355114061, "lat": 34.7422608, "lon": 44.9696537}, {"type": "node", "id": 3355114062, "lat": 34.7425562, "lon": 44.9699292}, {"type": "node", "id": 3355114063, "lat": 34.742917, "lon": 44.9695649}, {"type": "node", "id": 3355114064, "lat": 34.7432393, "lon": 44.9691166}, {"type": "node", "id": 3355114065, "lat": 34.7434542, "lon": 44.9689719}, {"type": "node", "id": 3355114066, "lat": 34.7436806, "lon": 44.9691073}, {"type": "node", "id": 3356971144, "lat": 34.6910355, "lon": 45.0109711}, {"type": "node", "id": 3356971145, "lat": 34.6893412, "lon": 45.0094718}, {"type": "node", "id": 3356971157, "lat": 34.6861264, "lon": 45.0134575}, {"type": "node", "id": 3687006278, "lat": 34.639466, "lon": 45.0104868}, {"type": "node", "id": 7195168835, "lat": 34.742806, "lon": 45.0656829, "tags": {"name": "\u0633\u06d5\u0631\u0642\u06d5\u06b5\u0627", "name:ar": "\u0633\u0631\u0642\u0644\u0627", "name:ckb": "\u0633\u06d5\u0631\u0642\u06d5\u06b5\u0627", "name:en": "Sarqala", "name:ku": "Serqella", "place": "town", "wikidata": "Q61391640", "wikipedia": "ckb:\u0633\u06d5\u0631\u0642\u06d5\u06b5\u0627"}}, {"type": "node", "id": 7352563193, "lat": 34.6850565, "lon": 45.0118255}, {"type": "node", "id": 7352563194, "lat": 34.6884001, "lon": 45.0125515}, {"type": "node", "id": 7352563195, "lat": 34.6867864, "lon": 45.0133596}, {"type": "node", "id": 7352563196, "lat": 34.6855725, "lon": 45.0133072}, {"type": "node", "id": 7352563197, "lat": 34.6849589, "lon": 45.0125333}, {"type": "node", "id": 7352563198, "lat": 34.6848637, "lon": 45.0123349}, {"type": "node", "id": 7352563199, "lat": 34.6868243, "lon": 45.0114476}, {"type": "node", "id": 7352563200, "lat": 34.6904903, "lon": 45.0096318}, {"type": "node", "id": 7352584090, "lat": 34.7015626, "lon": 45.052852, "tags": {"name": "\u06cc\u06d5\u06a9\u06d5\u0686\u0627\u06b5\u0627\u0648", "name:ar": "\u06cc\u06a9\u0629\u062c\u0627\u0644\u0627\u0648", "name:en": "Yakachalaw", "place": "village", "wikidata": "Q61391650", "wikipedia": "ckb:\u06cc\u06d5\u06a9\u06d5\u0686\u0627\u06b5\u0627\u0648"}}, {"type": "node", "id": 7681387817, "lat": 34.5400801, "lon": 45.0410353, "tags": {"name": "\u0634\u06cc\u0644\u0627\u0646", "name:ar": "\u0634\u06cc\u0644\u0627\u0646", "name:en": "Shilan", "place": "village", "wikidata": "Q61391970", "wikipedia": "ckb:\u0634\u06cc\u0644\u0627\u0646\u060c \u06a9\u06c6\u06a9\u0633"}}, {"type": "node", "id": 7681417985, "lat": 34.5502712, "lon": 45.0229273, "tags": {"name": "\u0686\u0627\u06b5\u06c6\u062e\u0627\u0644\u06cc\u062f", "name:ar": "\u062c\u0627\u0644\u0648 \u062e\u0627\u0644\u062f", "name:en": "Chalo khalid", "place": "village", "wikidata": "Q61392008", "wikipedia": "ckb:\u0686\u0627\u06b5\u06c6\u062e\u0627\u0644\u06cc\u062f"}}, {"type": "node", "id": 8465028264, "lat": 34.6865956, "lon": 44.9603501, "tags": {"name": "\u0643\u0641\u0631\u064a", "name:ar": "\u06a9\u0641\u0631\u064a", "name:ckb": "\u06a9\u0641\u0631\u06cc", "name:en": "kifri", "name:fa": "\u06a9\u0641\u0631\u06cc", "name:ku": "Kifr\u00ee", "name:tr": "Kifri", "place": "town", "population": "32870", "wikidata": "Q2626532", "wikipedia": "ar:\u0643\u0641\u0631\u064a"}}, {"type": "node", "id": 8491846365, "lat": 34.768612, "lon": 45.0064843}, {"type": "node", "id": 8491846366, "lat": 34.7681085, "lon": 45.00686}, {"type": "node", "id": 8491846367, "lat": 34.7678648, "lon": 45.0065831}, {"type": "node", "id": 8491846368, "lat": 34.7678323, "lon": 45.0055549}, {"type": "node", "id": 8491846369, "lat": 34.7679785, "lon": 45.0050704}, {"type": "node", "id": 8491846370, "lat": 34.7683603, "lon": 45.0050209}, {"type": "node", "id": 8491846371, "lat": 34.7686973, "lon": 45.0054412}, {"type": "node", "id": 8491846372, "lat": 34.7687217, "lon": 45.0062124}, {"type": "node", "id": 9370070732, "lat": 34.7382121, "lon": 44.7408483, "tags": {"name": "\u0627\u0644\u0635\u0641\u0631\u0629", "place": "village"}}, {"type": "node", "id": 9588871097, "lat": 34.7438117, "lon": 44.9698029, "tags": {"name": "\u06af\u06c6\u0628\u0627\u0646 \u0639\u0627\u0631\u06d5\u0628", "place": "village"}}, {"type": "node", "id": 9843802061, "lat": 34.6851855, "lon": 45.01271}, {"type": "node", "id": 9843802062, "lat": 34.6853666, "lon": 45.0130236}, {"type": "node", "id": 9843802063, "lat": 34.6850815, "lon": 45.0126104}, {"type": "node", "id": 10312625493, "lat": 34.6773307, "lon": 44.9035997, "tags": {"name": "\u0626\u0627\u0648\u0627\u06cc\u06cc \u062d\u06d5\u0645\u06a9\u06c6\u06b5", "name:en": "Hamkol Village", "place": "village"}}, {"type": "node", "id": 10557564023, "lat": 34.7058045, "lon": 44.8363563, "tags": {"name": "\u0642\u0646\u06af\u0631\u0628\u0627\u0646", "place": "village"}}, {"type": "node", "id": 10720413677, "lat": 34.636481, "lon": 45.0097972, "tags": {"name": "\u062f\u0648\u0627\u0646\u0632\u06d5\u0626\u06cc\u0645\u0627\u0645", "name:ar": "\u062f\u0648\u0627\u0646\u0632\u0629\u0625\u0645\u0627\u0645", "name:en": "Dwanza Imam", "place": "village", "wikidata": "Q61391524", "wikipedia": "ckb:\u062f\u0648\u0627\u0646\u0632\u06d5\u0626\u06cc\u0645\u0627\u0645\u060c \u06a9\u0641\u0631\u06cc"}}, {"type": "node", "id": 10720463716, "lat": 34.6573526, "lon": 44.9814942, "tags": {"name": "\u0633\u06d5\u0631\u0686\u06d5\u0645", "name:ar": "\u0633\u0631\u062c\u0645", "name:en": "Sarcham", "place": "village", "wikidata": "Q61391530", "wikipedia": "ckb:\u0633\u06d5\u0631\u0686\u06d5\u0645"}}, {"type": "node", "id": 11270224897, "lat": 34.7580517, "lon": 45.0476751, "tags": {"name": "\u0633\u06d5\u06cc \u062c\u06d5\u0698\u0646\u06cc", "name:ar": "\u0633\u06cc\u062f\u062c\u0632\u0646\u064a", "name:en": "Say Jazhni", "place": "village", "wikidata": "Q61391727", "wikipedia": "ckb:\u0633\u06d5\u06cc \u062c\u06d5\u0698\u0646\u06cc"}}, {"type": "node", "id": 11277204846, "lat": 34.7259125, "lon": 45.0198657}, {"type": "node", "id": 11277204847, "lat": 34.7263858, "lon": 45.0193775}, {"type": "node", "id": 11277204848, "lat": 34.7269928, "lon": 45.0199408}, {"type": "node", "id": 11277204849, "lat": 34.7277026, "lon": 45.0195277}, {"type": "node", "id": 11277204850, "lat": 34.7262932, "lon": 45.0174998}, {"type": "node", "id": 11277204851, "lat": 34.7268076, "lon": 45.0169366}, {"type": "node", "id": 11277204852, "lat": 34.7272808, "lon": 45.0173747}, {"type": "node", "id": 11277204853, "lat": 34.7281179, "lon": 45.0175537}, {"type": "node", "id": 11277204854, "lat": 34.7282248, "lon": 45.0179958}, {"type": "node", "id": 11277204855, "lat": 34.7273912, "lon": 45.0182104}, {"type": "node", "id": 11277204856, "lat": 34.727808, "lon": 45.0189386}, {"type": "node", "id": 11277204857, "lat": 34.7282568, "lon": 45.0196408}, {"type": "node", "id": 11277204858, "lat": 34.7271721, "lon": 45.0202585}, {"type": "node", "id": 11277204859, "lat": 34.7268514, "lon": 45.0205251}, {"type": "node", "id": 11277204860, "lat": 34.7272469, "lon": 45.0208047}, {"type": "node", "id": 11277204861, "lat": 34.7273003, "lon": 45.0211558}, {"type": "node", "id": 11277204862, "lat": 34.7271293, "lon": 45.0215719}, {"type": "node", "id": 11277204863, "lat": 34.7273324, "lon": 45.0218255}, {"type": "node", "id": 11277204864, "lat": 34.7274179, "lon": 45.0222416}, {"type": "node", "id": 11277204865, "lat": 34.727824, "lon": 45.0223521}, {"type": "node", "id": 11277204866, "lat": 34.7282088, "lon": 45.0218905}, {"type": "node", "id": 11277204867, "lat": 34.7288874, "lon": 45.0217604}, {"type": "node", "id": 11277204868, "lat": 34.728834, "lon": 45.0223196}, {"type": "node", "id": 11277206801, "lat": 34.7500035, "lon": 45.0174129, "tags": {"name": "\u0634\u06d5\u0631\u06d5\u0641 \u062e\u0627\u0646", "name:ar": "\u0634\u0631\u0641 \u062e\u0627\u0646", "name:en": "Sharaf Khan", "place": "village", "wikidata": "Q61391730", "wikipedia": "ckb:\u0634\u06d5\u0631\u06d5\u0641 \u062e\u0627\u0646"}}, {"type": "node", "id": 11277272169, "lat": 34.7295046, "lon": 45.0231992}, {"type": "node", "id": 11277272170, "lat": 34.7297901, "lon": 45.0255652}, {"type": "node", "id": 11277272171, "lat": 34.7296949, "lon": 45.0272859}, {"type": "node", "id": 11277272172, "lat": 34.7281176, "lon": 45.0274348}, {"type": "node", "id": 11277272173, "lat": 34.7262275, "lon": 45.0273851}, {"type": "node", "id": 11277272174, "lat": 34.7261013, "lon": 45.0284397}, {"type": "node", "id": 11277272175, "lat": 34.725909, "lon": 45.0286197}, {"type": "node", "id": 11277272176, "lat": 34.7256057, "lon": 45.0280527}, {"type": "node", "id": 11277272177, "lat": 34.72511, "lon": 45.0265495}, {"type": "node", "id": 11277272178, "lat": 34.724755, "lon": 45.0262075}, {"type": "node", "id": 11277272179, "lat": 34.7243629, "lon": 45.0265135}, {"type": "node", "id": 11277272180, "lat": 34.7240004, "lon": 45.0263785}, {"type": "node", "id": 11277272181, "lat": 34.7244368, "lon": 45.0258835}, {"type": "node", "id": 11277272182, "lat": 34.7250435, "lon": 45.0251634}, {"type": "node", "id": 11277272183, "lat": 34.7256205, "lon": 45.0243533}, {"type": "node", "id": 11277272184, "lat": 34.7259756, "lon": 45.0236693}, {"type": "node", "id": 11277508358, "lat": 34.6814153, "lon": 45.0664547, "tags": {"name": "\u067e\u0627\u0634\u0627", "name:ar": "\u0628\u0627\u0634\u0627", "name:en": "Pasha", "name:fa": "\u067e\u0627\u0634\u0627", "place": "village", "wikidata": "Q61391685", "wikipedia": "ckb:\u067e\u0627\u0634\u0627\u060c \u0633\u06d5\u0631\u0642\u06d5\u06b5\u0627"}}, {"type": "node", "id": 11280920976, "lat": 34.6885251, "lon": 45.0111659, "tags": {"name": "\u0646\u0627\u0633\u0627\u06b5\u06d5\u062d", "name:ar": "\u0646\u0627\u0635\u0644\u062d", "name:en": "Nasalh", "place": "village", "wikidata": "Q61391659", "wikipedia": "ckb:\u0646\u0627\u0633\u0627\u06b5\u06d5\u062d"}}, {"type": "node", "id": 11283026681, "lat": 34.6352691, "lon": 45.0132205}, {"type": "node", "id": 11283040974, "lat": 34.6230728, "lon": 45.0779414}, {"type": "node", "id": 11283040975, "lat": 34.6229816, "lon": 45.0784467}, {"type": "node", "id": 11283040976, "lat": 34.6235191, "lon": 45.0792231}, {"type": "node", "id": 11283040977, "lat": 34.6233568, "lon": 45.0799133}, {"type": "node", "id": 11283040978, "lat": 34.6231945, "lon": 45.0806774}, {"type": "node", "id": 11283040979, "lat": 34.622941, "lon": 45.0810471}, {"type": "node", "id": 11283040980, "lat": 34.6231033, "lon": 45.0812197}, {"type": "node", "id": 11283040981, "lat": 34.6238233, "lon": 45.0807637}, {"type": "node", "id": 11283040982, "lat": 34.6242493, "lon": 45.0807637}, {"type": "node", "id": 11283040983, "lat": 34.6237827, "lon": 45.0817619}, {"type": "node", "id": 11283040984, "lat": 34.6236509, "lon": 45.0825014}, {"type": "node", "id": 11283040985, "lat": 34.6241276, "lon": 45.0822919}, {"type": "node", "id": 11283040986, "lat": 34.6244825, "lon": 45.0819591}, {"type": "node", "id": 11283040987, "lat": 34.6248172, "lon": 45.0821809}, {"type": "node", "id": 11283040988, "lat": 34.6252431, "lon": 45.0819221}, {"type": "node", "id": 11283040989, "lat": 34.6254155, "lon": 45.0811704}, {"type": "node", "id": 11283040990, "lat": 34.6267136, "lon": 45.0817989}, {"type": "node", "id": 11283040991, "lat": 34.6269773, "lon": 45.0814415}, {"type": "node", "id": 11283040992, "lat": 34.6266223, "lon": 45.0811457}, {"type": "node", "id": 11283040993, "lat": 34.6267947, "lon": 45.0805418}, {"type": "node", "id": 11283040994, "lat": 34.627241, "lon": 45.0805788}, {"type": "node", "id": 11283040995, "lat": 34.6275452, "lon": 45.0804432}, {"type": "node", "id": 11283040996, "lat": 34.6279103, "lon": 45.0801475}, {"type": "node", "id": 11283040997, "lat": 34.6280624, "lon": 45.0792724}, {"type": "node", "id": 11283040998, "lat": 34.6280522, "lon": 45.078459}, {"type": "node", "id": 11283040999, "lat": 34.627677, "lon": 45.0781509}, {"type": "node", "id": 11283041000, "lat": 34.6273728, "lon": 45.0785083}, {"type": "node", "id": 11283041001, "lat": 34.6271294, "lon": 45.0785946}, {"type": "node", "id": 11283041002, "lat": 34.6266122, "lon": 45.0784714}, {"type": "node", "id": 11283041003, "lat": 34.626166, "lon": 45.0781756}, {"type": "node", "id": 11283041004, "lat": 34.6259632, "lon": 45.0787302}, {"type": "node", "id": 11283041005, "lat": 34.6254257, "lon": 45.0785946}, {"type": "node", "id": 11283041006, "lat": 34.6246245, "lon": 45.0784837}, {"type": "node", "id": 11283041007, "lat": 34.6240363, "lon": 45.0781263}, {"type": "node", "id": 11283041008, "lat": 34.6238537, "lon": 45.0775717}, {"type": "node", "id": 11283041009, "lat": 34.6236306, "lon": 45.0776703}, {"type": "node", "id": 11283041010, "lat": 34.6236712, "lon": 45.0781509}, {"type": "node", "id": 11299076703, "lat": 34.4929344, "lon": 45.0614056}, {"type": "node", "id": 11299076704, "lat": 34.4930325, "lon": 45.0621643}, {"type": "node", "id": 11299076705, "lat": 34.4934065, "lon": 45.0626999}, {"type": "node", "id": 11299076706, "lat": 34.4938418, "lon": 45.0629751}, {"type": "node", "id": 11299076707, "lat": 34.4942648, "lon": 45.0630272}, {"type": "node", "id": 11299076708, "lat": 34.4945713, "lon": 45.0626924}, {"type": "node", "id": 11299076709, "lat": 34.4947552, "lon": 45.0617477}, {"type": "node", "id": 11299076710, "lat": 34.4947185, "lon": 45.0613981}, {"type": "node", "id": 11299076711, "lat": 34.4940257, "lon": 45.0606319}, {"type": "node", "id": 11299076712, "lat": 34.4937989, "lon": 45.0605799}, {"type": "node", "id": 11299076713, "lat": 34.4934617, "lon": 45.0606171}, {"type": "node", "id": 11299076714, "lat": 34.4931612, "lon": 45.0608179}, {"type": "node", "id": 11299076715, "lat": 34.4929773, "lon": 45.0610783}, {"type": "node", "id": 11299340437, "lat": 34.5269498, "lon": 44.9863055, "tags": {"name": "\u0633\u06d5\u06cc \u0645\u0648\u0631\u0627\u062f", "name:ar": "\u0633\u0627\u064a \u0645\u0631\u0627\u062f", "name:en": "Sai Murad", "place": "village", "wikidata": "Q61391984", "wikipedia": "ckb:\u0633\u06d5\u06cc \u0645\u0648\u0631\u0627\u062f"}}, {"type": "node", "id": 11299369471, "lat": 34.5147253, "lon": 45.0730398, "tags": {"name": "\u0633\u0627\u0645\u06cc", "name:ar": "\u0633\u0627\u0645\u064a", "name:en": "Samy", "place": "village", "wikidata": "Q61391990", "wikipedia": "ckb:\u0633\u0627\u0645\u06cc"}}, {"type": "node", "id": 11299372332, "lat": 34.4867671, "lon": 44.9665401, "tags": {"name": "\u0642\u06d5\u0631\u06d5\u06cc\u0627\u062a\u0627\u063a", "name:ar": "\u0642\u0631\u0629 \u06cc\u0627\u062a\u0627\u063a", "name:en": "Qara Yatagh", "place": "village"}}, {"type": "way", "id": 301652273, "nodes": [3057353405, 3057353406, 3057353407, 3057353410, 3057353411, 3057353412, 3057353413, 3057353414, 3057353415, 3057353416, 3057353417, 3057353418, 3057353419, 3057353420, 3057353421, 3057353422, 3057353423, 3057353424, 3057353425, 3057353426, 3057353427, 3057353428, 3057353429, 3057353430, 3057353431, 3057353432, 3057354333, 3057354334, 3057354335, 3057354336, 3057354337, 3057354338, 3057353405], "tags": {"place": "village"}}, {"type": "way", "id": 301652275, "nodes": [3309153603, 3057354341, 3057354342, 3057354343, 3057354344, 3057354345, 3057354346, 3309153643, 3309153646, 3057354347, 3309153654, 3057354339, 3057354340, 3309153622, 3309153618, 3057354354, 3057354355, 3057354356, 3057354348, 3057354349, 3057354350, 3057354351, 3057354352, 3057354353, 3309153585, 3309153603], "tags": {"place": "village"}}, {"type": "way", "id": 321550332, "nodes": [3283116723, 3301009757, 3301009758, 3301009754, 3283116721, 3283116720, 3283116718, 3301009743, 3301009739, 3301009745, 3301009746, 3283116717, 3283116719, 3301009744, 3301009748, 3301009749, 3301009755, 3283116722, 3301009756, 3283116723], "tags": {"int_name": "Al Fakkah, Al Faqqah, Faqqa, Faqqah, Qaryat Fakkah, \u0627\u0644\u0641\u0643\u0629, Al Fakkah, Al Faqqah, Faqqa, Faqqah, Qaryat Fakkah, \u0627\u0644\u0641\u0643\u0629", "landuse": "residential", "name": "\u0642\u0631\u064a\u0629 \u0641\u0643\u0629", "name:ar": "\u0642\u0631\u064a\u0629 \u0641\u0643\u0629", "name:ar1": "\u0642\u0631\u064a\u0629 \u0641\u0643\u0629", "name:de": "Al Fakkah", "name:en": "Al Fakkah", "name:fr": "Al Fakkah", "place": "village"}}, {"type": "way", "id": 323332518, "nodes": [3301329859, 3301329856, 3301329853, 3301329851, 3316136729, 3301329852, 3301329850, 3316136700, 3301329848, 3301329846, 3301329843, 3301329844, 3301329842, 3301329849, 3316136713, 3301329855, 3301329858, 3301329859], "tags": {"name": "\u0642\u0646\u06af\u0631\u0628\u0627\u0646", "name:ckb": "\u0642\u0646\u06af\u0631\u0628\u0627\u0646", "place": "village"}}, {"type": "way", "id": 327548812, "nodes": [3343436748, 3343436743, 3343436757, 3343436765, 11283026681, 3343436787, 3343436791, 3343436898, 3343436904, 3343436916, 3343436921, 3343436952, 3343436974, 3343437019, 3687006278, 3343437027, 3343437033, 3343437028, 3343437046, 3343437063, 3343437074, 3343437196, 3343437216, 3343437219, 3343437222, 3343437215, 3343437082, 3349930967, 3343437038, 3343437001, 3343436964, 3343436940, 3343436903, 3343436897, 3343436780, 3343436755, 3343436748], "tags": {"name": "\u062f\u0648\u0627\u0646\u06af\u0632\u06d5 \u0626\u06cc\u0645\u0627\u0645", "place": "village"}}, {"type": "way", "id": 328683507, "nodes": [3355114046, 3355114047, 3355114048, 3355114049, 3355114050, 3355114051, 3355114052, 3355114053, 3355114054, 3355114055, 3355114056, 3355114057, 3355114058, 3355114059, 3355114060, 3355114061, 3355114062, 3355114063, 3355114064, 3355114065, 3355114066, 3355114046], "tags": {"name": "\u06af\u06c6\u0628\u0627\u0646 \u0639\u06d5\u0631\u06d5\u0628", "place": "village"}}, {"type": "way", "id": 328874634, "nodes": [3356971144, 7352563200, 3356971145, 7352563199, 7352563193, 7352563198, 7352563197, 9843802063, 9843802061, 9843802062, 7352563196, 3356971157, 7352563195, 7352563194, 3356971144], "tags": {"name": "\u0646\u0627\u0633\u0627\u06b5\u06d5\u062d", "place": "village", "residential": "rural", "wikidata": "Q61391659", "wikipedia": "ckb:\u0646\u0627\u0633\u0627\u06b5\u06d5\u062d"}}, {"type": "way", "id": 914184128, "nodes": [8491846365, 8491846366, 8491846367, 8491846368, 8491846369, 8491846370, 8491846371, 8491846372, 8491846365], "tags": {"place": "village"}}, {"type": "way", "id": 1217079827, "nodes": [11277204846, 11277204847, 11277204848, 11277204849, 11277204850, 11277204851, 11277204852, 11277204853, 11277204854, 11277204855, 11277204856, 11277204857, 11277204858, 11277204859, 11277204860, 11277204861, 11277204862, 11277204863, 11277204864, 11277204865, 11277204866, 11277204867, 11277204868, 11277272169, 11277272170, 11277272171, 11277272172, 11277272173, 11277272174, 11277272175, 11277272176, 11277272177, 11277272178, 11277272179, 11277272180, 11277272181, 11277272182, 11277272183, 11277272184, 11277204846], "tags": {"name": "\u0626\u06cc\u0628\u0631\u0627\u0647\u06cc\u0645 \u062e\u0627\u0646", "place": "village", "residential": "rural", "wikidata": "Q61391671", "wikipedia": "ckb:\u0626\u06cc\u0628\u0631\u0627\u06be\u06cc\u0645 \u062e\u0627\u0646"}}, {"type": "way", "id": 1217715818, "nodes": [11283040974, 11283040975, 11283040976, 11283040977, 11283040978, 11283040979, 11283040980, 11283040981, 11283040982, 11283040983, 11283040984, 11283040985, 11283040986, 11283040987, 11283040988, 11283040989, 11283040990, 11283040991, 11283040992, 11283040993, 11283040994, 11283040995, 11283040996, 11283040997, 11283040998, 11283040999, 11283041000, 11283041001, 11283041002, 11283041003, 11283041004, 11283041005, 11283041006, 11283041007, 11283041008, 11283041009, 11283041010, 11283040974], "tags": {"name": "\u0633\u06d5\u06cc\u062f\u062d\u0633\u06ce\u0646", "place": "village", "residential": "rural", "wikidata": "Q61391982", "wikipedia": "ckb:\u0633\u06d5\u06cc\u062f\u062d\u0633\u06ce\u0646"}}, {"type": "way", "id": 1219433727, "nodes": [11299076703, 11299076704, 11299076705, 11299076706, 11299076707, 11299076708, 11299076709, 11299076710, 11299076711, 11299076712, 11299076713, 11299076714, 11299076715, 11299076703], "tags": {"name": "\u062a\u06d5\u067e\u06d5\u0633\u06d5\u0631\u0627\u06cc\u06cc", "place": "village", "residential": "rural", "wikidata": "Q61391912", "wikipedia": "ckb:\u062a\u06d5\u067e\u06d5\u0633\u06d5\u0631\u0627\u06cc\u06cc"}}]}