{"version": 0.6, "generator": "Overpass API 0.7.61.5 4133829e", "osm3s": {"timestamp_osm_base": "2024-03-05T11:03:14Z", "copyright": "The data included in this document is from www.openstreetmap.org. The data is made available under ODbL."}, "elements": [{"type": "node", "id": 2189770722, "lat": 6.9761923, "lon": -2.3810319, "tags": {"amenity": "bank", "name": "Agricular Development Bank"}}, {"type": "node", "id": 2189770739, "lat": 6.9612038, "lon": -2.3697527}, {"type": "node", "id": 5324204822, "lat": 7.0041632, "lon": -2.1668487, "tags": {"amenity": "bank", "brand": "GCB Bank", "brand:wikidata": "Q1521346", "brand:wikipedia": "en:GCB Bank", "name": "GCB Bank"}}, {"type": "node", "id": 5338503224, "lat": 7.004097, "lon": -2.1660714, "tags": {"amenity": "bank", "name": "Tepaman Rural Bank", "phone": "0501293907"}}, {"type": "node", "id": 6126126904, "lat": 6.9612284, "lon": -2.369776}, {"type": "node", "id": 6126126905, "lat": 6.9611801, "lon": -2.3698278}, {"type": "node", "id": 6126126906, "lat": 6.9611532, "lon": -2.3698024}, {"type": "node", "id": 6126126907, "lat": 6.9611188, "lon": -2.3698393}, {"type": "node", "id": 6126126908, "lat": 6.961223, "lon": -2.3697321}, {"type": "node", "id": 6126126909, "lat": 6.9611417, "lon": -2.3696552}, {"type": "node", "id": 6126126910, "lat": 6.9610398, "lon": -2.3697645}, {"type": "node", "id": 9705086422, "lat": 7.0876952, "lon": -2.0262625, "tags": {"addr:city": "Bechem", "addr:postcode": "00233", "addr:street": "Sunyani Road", "amenity": "bank", "brand": "GCB Bank", "brand:wikidata": "Q1521346", "name": "GCB Bank", "opening_hours": "Mo-Su 08:00-17:00"}}, {"type": "way", "id": 653702923, "nodes": [6126126910, 6126126907, 6126126906, 6126126905, 6126126904, 2189770739, 6126126908, 6126126909, 6126126910], "tags": {"addr:country": "GH", "addr:region": "Ahafo", "addr:street": "N12", "addr:town": "Kenyasi", "alt_name": "Ecobank - Kenyasi Branch", "amenity": "bank", "branch": "Kenyasi", "brand": "Ecobank", "brand:wikidata": "Q930225", "brand:wikipedia": "en:Ecobank", "building": "commercial", "building:colour": "white", "building:levels": "1", "building:material": "cement_block", "contact:facebook": "EcobankGhanaPLC", "contact:instagram": "ecobankghanaplc", "contact:linkedin": "ecobankghanaplc", "contact:twitter": "EcobankGhanaPLC", "contact:youtube": "ecobanktv", "email": "ecobankenquiries@ecobank.com", "facebook": "https://www.facebook.com/EcobankGhanaPLC/", "name": "Ecobank", "opening_hours": "Mo-Fr 08:30-16:00; Sa 09:00-14:00; PH off", "operator": "Ecobank Ghana PLC", "operator:type": "public", "operator:wikidata": "Q5333155", "operator:wikipedia": "en:Ecobank Ghana", "phone": "+233 27 751 0263", "roof:colour": "red", "roof:material": "metal", "website": "https://ecobank.com/gh/personal-banking"}}]}