{"version": 0.6, "generator": "Overpass API 0.7.61.5 4133829e", "osm3s": {"timestamp_osm_base": "2024-03-06T10:46:01Z", "copyright": "The data included in this document is from www.openstreetmap.org. The data is made available under ODbL."}, "elements": [{"type": "node", "id": 2485256451, "lat": 35.251558, "lon": 43.909974, "tags": {"alt_name": "\u0625\u0639\u062f\u0627\u062f\u064a\u0629 \u0632\u0631\u0627\u0639\u0629 \u0643\u0631\u0643\u0648\u0643 \u0641\u064a \u0627\u0644\u0631\u064a\u0627\u0636", "amenity": "school", "int_name": "Id\u0101d\u012byat Zar\u0101at Kirk\u016bk f\u012b ar Riy\u0101\u1e11, \u0627\u0639\u062f\u0627\u062f\u064a\u0629 \u0632\u0631\u0627\u0639\u0629 \u0643\u0631\u0643\u0648\u0643 \u0641\u064a \u0627\u0644\u0631\u064a\u0627\u0636, Idadiyat Zaraat Kirkuk fi ar Riyad, \u0627\u0639\u062f\u0627\u062f\u064a\u0629 \u0632\u0631\u0627\u0639\u0629 \u0643\u0631\u0643\u0648\u0643 \u0641\u064a \u0627\u0644\u0631\u064a\u0627\u0636", "name": "\u0625\u0639\u062f\u0627\u062f\u064a\u0629 \u0632\u0631\u0627\u0639\u0629 \u0643\u0631\u0643\u0648\u0643 \u0641\u064a \u0627\u0644\u0631\u064a\u0627\u0636", "name:ar": "\u0625\u0639\u062f\u0627\u062f\u064a\u0629 \u0632\u0631\u0627\u0639\u0629 \u0643\u0631\u0643\u0648\u0643 \u0641\u064a \u0627\u0644\u0631\u064a\u0627\u0636", "name:ar1": "\u0625\u0639\u062f\u0627\u062f\u064a\u0629 \u0632\u0631\u0627\u0639\u0629 \u0643\u0631\u0643\u0648\u0643 \u0641\u064a \u0627\u0644\u0631\u064a\u0627\u0636", "name:de": "Idadiyat Zaraat Kirkuk fi ar Riyad", "name:en": "Idadiyat Zaraat Kirkuk fi ar Riyad", "name:fr": "Idadiyat Zaraat Kirkuk fi ar Riyad"}}, {"type": "node", "id": 4931184026, "lat": 35.2862444, "lon": 43.7384909, "tags": {"amenity": "school", "name": "\u0645\u062f\u0631\u0633\u0647 \u0627\u0644\u063a\u0627\u0632\u064a\u0647 \u0627\u0644\u0645\u062e\u062a\u0644\u0637\u0647", "name:ar": "\u0645\u062f\u0631\u0633\u0647 \u0627\u0644\u063a\u0627\u0632\u064a\u0647 \u0627\u0644\u0645\u062e\u062a\u0644\u0637\u0647"}}, {"type": "node", "id": 4931184127, "lat": 35.3210293, "lon": 43.7640277, "tags": {"amenity": "school", "name": "\u0645\u062f\u0631\u0633\u0647 \u0627\u0644\u0639\u0631\u0627\u0642", "name:ar": "\u0645\u062f\u0631\u0633\u0647 \u0627\u0644\u0639\u0631\u0627\u0642"}}, {"type": "node", "id": 4931184128, "lat": 35.3222241, "lon": 43.7591527, "tags": {"amenity": "school", "name": "\u0645\u062f\u0631\u0633\u0647 \u062f\u0627\u0631 \u0627\u0644\u0633\u0644\u0627\u0645"}}, {"type": "node", "id": 4931184223, "lat": 35.3174059, "lon": 43.7666295, "tags": {"amenity": "school", "name": "\u0623\u0639\u062f\u0627\u062f\u064a\u0629 \u0627\u0644\u0635\u0646\u0627\u0639\u0629", "name:ar": "\u0623\u0639\u062f\u0627\u062f\u064a\u0629 \u0627\u0644\u0635\u0646\u0627\u0639\u0629"}}, {"type": "node", "id": 4931184322, "lat": 35.3182135, "lon": 43.7677514, "tags": {"amenity": "school", "name": "\u0623\u0639\u062f\u0627\u062f\u064a\u0629 \u0627\u0644\u062d\u0648\u064a\u062c\u0629 \u0644\u0644\u0628\u0646\u064a\u0646", "name:ar": "\u0623\u0639\u062f\u0627\u062f\u064a\u0629 \u0627\u0644\u062d\u0648\u064a\u062c\u0629 \u0644\u0644\u0628\u0646\u064a\u0646"}}, {"type": "node", "id": 4931184325, "lat": 35.2926683, "lon": 43.7275604, "tags": {"amenity": "school", "name": "\u0645\u062f\u0631\u0633\u0647 \u062d\u064a\u0627\u0634 \u0627\u0644\u0627\u0628\u062a\u062f\u0627\u0626\u064a\u0629 \u0627\u0644\u0645\u062e\u062a\u0644\u0637\u0647", "name:ar": "\u0645\u062f\u0631\u0633\u0647 \u062d\u064a\u0627\u0634 \u0627\u0644\u0627\u0628\u062a\u062f\u0627\u0626\u064a\u0629 \u0627\u0644\u0645\u062e\u062a\u0644\u0637\u0647"}}, {"type": "node", "id": 4932667651, "lat": 35.2933756, "lon": 43.7151023, "tags": {"addr:street": "\u0642\u0631\u064a\u0629 \u0627\u0644\u063a\u0627\u0632\u064a\u0629 \u062d\u064a\u0627\u0634", "amenity": "school", "name": "\u0623\u0639\u062f\u0627\u062f\u064a\u0629 \u0627\u0644\u062c\u0632\u064a\u0631\u0629 \u0644\u0644\u0628\u0646\u064a\u0646", "name:ar": "\u0623\u0639\u062f\u0627\u062f\u064a\u0629 \u0627\u0644\u062c\u0632\u064a\u0631\u0629 \u0644\u0644\u0628\u0646\u064a\u0646"}}, {"type": "node", "id": 5074876222, "lat": 35.3272222, "lon": 43.7615, "tags": {"amenity": "school", "name": "\u0645\u062f\u0631\u0633\u0629 \u0627\u0644\u0633\u0647\u0644 \u0627\u0644\u0627\u062e\u0636\u0631 \u0633\u0627\u0628\u0642\u0622(\u0627\u0644\u0634\u0647\u064a\u062f \u062e\u0644\u0641 \u062d\u0645\u062f\u0648\u0646)"}}, {"type": "node", "id": 5152313927, "lat": 35.273706, "lon": 43.9176375, "tags": {"amenity": "school", "name": "\u0631\u064a\u0627\u0636"}}, {"type": "node", "id": 5462379827, "lat": 35.5775443, "lon": 43.9218366, "tags": {"amenity": "school", "name": "\u0645\u062f\u0631\u0633\u0629 \u0637\u0648\u064a\u0644\u0639\u0629"}}, {"type": "node", "id": 5462380024, "lat": 35.4878128, "lon": 43.9147253, "tags": {"amenity": "school", "name": "\u0645\u062f\u0631\u0633\u0629 \u0627\u0644\u0641\u0637\u0646\u0629 \u0627\u0644\u0627\u0628\u062a\u062f\u0627\u0626\u064a\u0629"}}, {"type": "node", "id": 5547455922, "lat": 35.4382673, "lon": 43.7994892, "tags": {"addr:street": "\u0642\u0631\u064a\u0629 \u0647\u0648\u0631 \u0627\u0644\u0633\u0641\u0646", "amenity": "school", "name": "\u0627\u0644\u0627\u0633\u062a\u0627\u0630 \u0633\u0639\u062f \u0639\u0644\u064a \u0639\u0628\u062f\u0627\u0644\u0644\u0647", "name:en": "Saad Ali Abdullah"}}, {"type": "node", "id": 5547676521, "lat": 35.4398747, "lon": 43.8019287, "tags": {"amenity": "school", "name": "\u062b\u0627\u0646\u0648\u064a\u0629 \u0627\u0644\u0645\u0639\u062a\u0635\u0645 \u0627\u0644\u0645\u062e\u062a\u0644\u0637\u0629", "name:en": "Al-matasam- MIX secondary School"}}, {"type": "node", "id": 7068799390, "lat": 35.3269923, "lon": 43.760865, "tags": {"amenity": "school", "name": "\u0645\u062f\u0631\u0633\u0629 \u0627\u0644\u0642\u0646\u0627\u062f\u064a\u0644 \u0627\u0644\u0625\u0628\u062a\u062f\u0627\u0626\u064a\u0629"}}, {"type": "node", "id": 7782698885, "lat": 35.3291968, "lon": 43.7746986, "tags": {"amenity": "school", "name": "\u0627\u0639\u062f\u0627\u062f\u064a\u0629 \u0627\u0644\u062d\u0648\u064a\u062c\u0629 \u0644\u0644\u0628\u0646\u0627\u062a"}}, {"type": "node", "id": 8267053717, "lat": 35.4349693, "lon": 43.7977551, "tags": {"amenity": "school", "name": "\u062b\u0627\u0646\u0648\u064a\u0629 \u0627\u0644\u0645\u0639\u062a\u0635\u0645 \u0627\u0644\u0645\u062e\u062a\u0644\u0637\u0629", "name:en": "Al-Moatasam Secondary School"}}, {"type": "node", "id": 8273190817, "lat": 35.2972511, "lon": 43.8480016, "tags": {"amenity": "school", "name": "\u0645\u062a\u0648\u0633\u0637\u0629 \u0623\u0628\u0648 \u0627\u0644\u062c\u064a\u0633 \u0627\u0644\u0645\u062e\u062a\u0644\u0637\u0629"}}, {"type": "node", "id": 8566547317, "lat": 35.4573477, "lon": 43.7922695, "tags": {"amenity": "school", "name": "\u0645\u062f\u0631\u0633\u0629 \u062a\u0644 \u0627\u0644\u0639\u0631\u064a\u0634 \u0627\u0644\u0627\u0628\u062a\u062f\u0627\u0626\u064a\u0629"}}, {"type": "node", "id": 10028036845, "lat": 35.2716017, "lon": 43.9177775, "tags": {"amenity": "school", "name": "\u0645\u062f\u0631\u0633\u0629 \u0627\u0644\u062d\u064a\u0627\u0629"}}, {"type": "node", "id": 10755913518, "lat": 35.3757201, "lon": 43.871646}, {"type": "node", "id": 10755913519, "lat": 35.3755065, "lon": 43.8710302}, {"type": "node", "id": 10755913520, "lat": 35.3748919, "lon": 43.8712744}, {"type": "node", "id": 10755913521, "lat": 35.3750708, "lon": 43.8719079}, {"type": "node", "id": 11143780405, "lat": 35.322422, "lon": 43.7975773, "tags": {"addr:postcode": "999", "addr:street": "\u0634\u0627\u0631\u0639 \u0627\u0644\u0645\u062f\u0627\u0631\u0633", "amenity": "school", "email": "khalaf07708132805@gmail.com", "name": "\u062b\u0627\u0646\u0648\u064a\u0629 \u0627\u0644\u0642\u062d\u0637\u0627\u0646\u064a\u0629 \u0627\u0644\u0645\u062e\u062a\u0644\u0637\u0629", "opening_hours": "Mo-Su 00:00-02:00", "phone": "000000000000", "website": "http://khalaf07708132805@gmail.com"}}, {"type": "way", "id": 1156595080, "nodes": [10755913518, 10755913519, 10755913520, 10755913521, 10755913518], "tags": {"amenity": "school"}}]}