{"version": 0.6, "generator": "Overpass API 0.7.61.5 4133829e", "osm3s": {"timestamp_osm_base": "2024-03-05T11:12:34Z", "copyright": "The data included in this document is from www.openstreetmap.org. The data is made available under ODbL."}, "elements": [{"type": "node", "id": 3495813415, "lat": 6.5530871, "lon": -0.7650076, "tags": {"amenity": "bank", "atm": "yes", "brand": "Absa", "brand:wikidata": "Q58641733", "brand:wikipedia": "en:Absa Group Limited", "name": "Absa", "old_name": "Barclays", "operator": "Absa Group Limited"}}, {"type": "node", "id": 3731304727, "lat": 6.3825959, "lon": -0.5507763, "tags": {"amenity": "bank", "atm": "yes", "name": "Adonten Community Bank", "name:it": "Adonten Community"}}, {"type": "node", "id": 5806003933, "lat": 6.5534006, "lon": -0.7685003, "tags": {"amenity": "bank", "brand": "Fidelity Bank", "brand:wikidata": "Q5446778", "brand:wikipedia": "en:Fidelity Bank Ghana", "name": "Fidelity Bank"}}, {"type": "node", "id": 8536977854, "lat": 6.5520311, "lon": -0.7650722, "tags": {"amenity": "bank", "brand": "Fidelity Bank", "brand:wikidata": "Q5446778", "brand:wikipedia": "en:Fidelity Bank Ghana", "name": "Fidelity Bank"}}, {"type": "node", "id": 8838548317, "lat": 6.552731, "lon": -0.7654667, "tags": {"addr:street": "Old Station Street", "amenity": "bank", "name": "Kwahu Rural Bank Limited", "opening_hours": "Mo-Fr 08:30-16:00", "phone": "0501256671"}}, {"type": "node", "id": 11214139114, "lat": 6.5511938, "lon": -0.7645985, "tags": {"addr:country": "GH", "addr:region": "Eastern", "addr:town": "Nkawkaw", "alt_name": "Absa - Nkawkaw Branch", "amenity": "bank", "branch": "Nkawkaw", "brand": "Absa", "brand:wikidata": "Q58641733", "brand:wikipedia": "en:Absa Group Limited", "contact:instagram": "absaghana", "contact:linkedin": "absa-ghana", "contact:twitter": "AbsaGhana", "contact:whatsapp": "+233 50 164 4644", "contact:youtube": "https://www.youtube.com/channel/UCKpKPyfJ69tf7lnxudpzKJQ", "email": "service.excellence.GH@absa.africa", "facebook": "AbsaGhana", "name": "Absa", "opening_hours": "Mo-Fr 08:30-16:30; PH off", "operator": "Absa Bank Ghana Limited", "operator:type": "public", "operator:wikidata": "Q96371413", "operator:wikipedia": "en:Absa Bank Ghana", "phone": "+233 57 770 2034", "website": "https://www.absa.com.gh"}}]}