{"version": 0.6, "generator": "Overpass API 0.7.61.5 4133829e", "osm3s": {"timestamp_osm_base": "2024-03-05T14:33:06Z", "copyright": "The data included in this document is from www.openstreetmap.org. The data is made available under ODbL."}, "elements": [{"type": "node", "id": 29645435, "lat": 59.4520796, "lon": 18.3848195, "tags": {"amenity": "ferry_terminal", "ferry": "yes", "name": "Lervik", "public_transport": "stop_position"}}, {"type": "node", "id": 34058974, "lat": 59.3571395, "lon": 18.2352069, "tags": {"amenity": "ferry_terminal", "ferry": "yes", "name": "G\u00e5shaga brygga", "name:sv": "G\u00e5shaga brygga", "public_transport": "stop_position"}}, {"type": "node", "id": 52141969, "lat": 59.400111, "lon": 18.3499389, "tags": {"amenity": "ferry_terminal", "name": "F\u00e4rjel\u00e4get Vaxholm", "website": "https://www.trafikverket.se/resa-och-trafik/trafikinformation/farjetrafik/vaxholmsleden/"}}, {"type": "node", "id": 52143716, "lat": 59.3967246, "lon": 18.4488904, "tags": {"amenity": "ferry_terminal", "cargo": "passengers;vehicle;bicycle", "name": "Stensl\u00e4tten", "source": "survey", "website": "https://www.trafikverket.se/resa-och-trafik/trafikinformation/farjetrafik/oxdjupsleden/"}}, {"type": "node", "id": 52145489, "lat": 59.4243716, "lon": 18.4718136, "tags": {"amenity": "ferry_terminal", "ferry": "yes", "name": "V\u00e5rholma", "public_transport": "stop_position"}}, {"type": "node", "id": 52148576, "lat": 59.4389952, "lon": 18.4398437, "tags": {"amenity": "ferry_terminal", "ferry": "yes", "name": "Bjur\u00f6n", "public_transport": "stop_position"}}, {"type": "node", "id": 119776178, "lat": 59.4034802, "lon": 18.3646129, "tags": {"amenity": "ferry_terminal", "name": "Rind\u00f6 Smedja", "website": "https://www.trafikverket.se/resa-och-trafik/trafikinformation/farjetrafik/vaxholmsleden/"}}, {"type": "node", "id": 119785318, "lat": 59.3955113, "lon": 18.4409489, "tags": {"amenity": "ferry_terminal", "cargo": "passengers;vehicle;bicycle", "name": "Rind\u00f6", "source": "survey", "website": "https://www.trafikverket.se/resa-och-trafik/trafikinformation/farjetrafik/oxdjupsleden/"}}, {"type": "node", "id": 248036475, "lat": 59.3459107, "lon": 18.2238378, "tags": {"amenity": "ferry_terminal", "ferry": "yes", "name": "Klippudden", "public_transport": "stop_position"}}, {"type": "node", "id": 248186565, "lat": 59.4140031, "lon": 18.3714468, "tags": {"amenity": "ferry_terminal", "ferry": "yes", "name": "Skarp\u00f6borg", "public_transport": "stop_position"}}, {"type": "node", "id": 248188711, "lat": 59.3762049, "lon": 18.3086519, "tags": {"amenity": "ferry_terminal", "ferry": "yes", "name": "Granholmen", "public_transport": "stop_position"}}, {"type": "node", "id": 248551357, "lat": 59.3635729, "lon": 18.3224259, "tags": {"amenity": "ferry_terminal", "ferry": "yes", "name": "Tegel\u00f6n", "public_transport": "stop_position"}}, {"type": "node", "id": 249131992, "lat": 59.4653029, "lon": 18.4183629, "tags": {"amenity": "ferry_terminal", "ferry": "yes", "name": "Mj\u00f6lk\u00f6", "public_transport": "stop_position"}}, {"type": "node", "id": 254008421, "lat": 59.4726825, "lon": 18.5117275, "tags": {"amenity": "ferry_terminal", "ferry": "yes", "name": "Linan\u00e4s", "public_transport": "stop_position"}}, {"type": "node", "id": 259705670, "lat": 59.4549162, "lon": 18.4549868, "tags": {"amenity": "ferry_terminal", "ferry": "yes", "name": "Storkr\u00e5n", "public_transport": "stop_position"}}, {"type": "node", "id": 272469244, "lat": 59.4439957, "lon": 18.5888292, "tags": {"amenity": "ferry_terminal", "ferry": "yes", "name": "Str\u00f6msholm", "public_transport": "stop_position"}}, {"type": "node", "id": 277753426, "lat": 59.4318371, "lon": 18.585998, "tags": {"amenity": "ferry_terminal", "ferry": "yes", "name": "\u00d6rs\u00f6", "public_transport": "stop_position"}}, {"type": "node", "id": 282191410, "lat": 59.4022938, "lon": 18.359581, "tags": {"amenity": "ferry_terminal", "ferry": "yes", "public_transport": "station"}}, {"type": "node", "id": 298082092, "lat": 59.4017652, "lon": 18.355, "tags": {"amenity": "ferry_terminal", "ferry": "yes", "name": "Vaxholm", "public_transport": "stop_position"}}, {"type": "node", "id": 327362807, "lat": 59.1295341, "lon": 18.4049313, "tags": {"amenity": "ferry_terminal", "ferry": "yes", "name": "Dalar\u00f6", "public_transport": "stop_position"}}, {"type": "node", "id": 332454137, "lat": 59.0820135, "lon": 18.1735025, "tags": {"amenity": "ferry_terminal", "ferry": "yes", "name": "\u00c5rsta brygga", "public_transport": "stop_position"}}, {"type": "node", "id": 353068525, "lat": 59.3486759, "lon": 18.2444615, "tags": {"amenity": "ferry_terminal", "description": "Several ferries per hour to Str\u00f6mkajen, just in front of the Grand Hotel in central Stockholm", "ferry": "yes", "name": "Hasseludden", "operator": "Waxholmsbolaget", "public_transport": "stop_position"}}, {"type": "node", "id": 361449730, "lat": 59.3631144, "lon": 18.4204908, "tags": {"amenity": "ferry_terminal"}}, {"type": "node", "id": 435221470, "lat": 59.0620086, "lon": 18.4801075, "tags": {"amenity": "ferry_terminal", "ferry": "yes", "name": "Mefj\u00e4rd", "operator": "Waxholmsbolaget", "public_transport": "stop_position"}}, {"type": "node", "id": 435221477, "lat": 59.102488, "lon": 18.4839309, "tags": {"amenity": "ferry_terminal", "ferry": "yes", "name": "S\u00f6derviken", "operator": "Waxholmsbolaget", "public_transport": "stop_position"}}, {"type": "node", "id": 435221479, "lat": 59.11127, "lon": 18.4895636, "tags": {"amenity": "ferry_terminal", "ferry": "yes", "name": "Kymmend\u00f6", "operator": "Waxholmsbolaget", "public_transport": "stop_position"}}, {"type": "node", "id": 435221482, "lat": 59.1888884, "lon": 18.4525454, "tags": {"amenity": "ferry_terminal", "ferry": "yes", "name": "Kalvholmen", "operator": "Waxholmsbolaget", "public_transport": "stop_position"}}, {"type": "node", "id": 435221483, "lat": 59.1913632, "lon": 18.4546579, "tags": {"amenity": "ferry_terminal", "ferry": "yes", "name": "Gr\u00e4n\u00f6", "operator": "Waxholmsbolaget", "public_transport": "stop_position"}}, {"type": "node", "id": 435221485, "lat": 59.1949752, "lon": 18.4425353, "tags": {"amenity": "ferry_terminal", "ferry": "yes", "name": "\u00c4ngs\u00f6", "public_transport": "stop_position"}}, {"type": "node", "id": 435221490, "lat": 59.2297744, "lon": 18.360558, "tags": {"amenity": "ferry_terminal", "ferry": "yes", "name": "Tyres\u00f6 (Trintorp)", "operator": "Waxholmsbolaget", "public_transport": "stop_position"}}, {"type": "node", "id": 435221501, "lat": 59.2790555, "lon": 18.3162988, "tags": {"amenity": "ferry_terminal", "ferry": "yes", "name": "Saltsj\u00f6baden", "operator": "Waxholmsbolaget", "public_transport": "stop_position"}}, {"type": "node", "id": 435221526, "lat": 59.1119027, "lon": 18.4838785, "tags": {"amenity": "ferry_terminal", "ferry": "yes", "name": "Orn\u00f6boda", "public_transport": "stop_position"}}, {"type": "node", "id": 441941298, "lat": 59.4061253, "lon": 18.8887539, "tags": {"amenity": "ferry_terminal", "cargo": "passengers", "ferry": "yes", "name": "Berg (M\u00f6ja)", "public_transport": "stop_position"}}, {"type": "node", "id": 441941314, "lat": 59.4036936, "lon": 18.874348, "tags": {"amenity": "ferry_terminal", "cargo": "passengers", "ferry": "yes", "name": "S\u00f6derm\u00f6ja", "public_transport": "stop_position"}}, {"type": "node", "id": 441941347, "lat": 59.3814356, "lon": 18.8140054, "tags": {"amenity": "ferry_terminal", "ferry": "yes", "name": "Kors\u00f6", "public_transport": "stop_position"}}, {"type": "node", "id": 441941351, "lat": 59.3870203, "lon": 18.8072341, "tags": {"amenity": "ferry_terminal", "ferry": "yes", "name": "S\u00f6derholm", "public_transport": "stop_position"}}, {"type": "node", "id": 441941352, "lat": 59.3882383, "lon": 18.8104263, "tags": {"amenity": "ferry_terminal", "ferry": "yes", "name": "S\u00f6dra Stavsudda", "public_transport": "stop_position"}}, {"type": "node", "id": 441941397, "lat": 59.3845324, "lon": 18.7732908, "tags": {"amenity": "ferry_terminal", "ferry": "yes", "name": "Tr\u00e4sk\u00f6-G\u00e5ln", "public_transport": "stop_position"}}, {"type": "node", "id": 441941404, "lat": 59.3825273, "lon": 18.7720493, "tags": {"amenity": "ferry_terminal", "ferry": "yes", "name": "Ytter\u00f6", "public_transport": "stop_position"}}, {"type": "node", "id": 441941424, "lat": 59.3778832, "lon": 18.7073616, "tags": {"amenity": "ferry_terminal", "ferry": "yes", "name": "Sollenkroka\u00f6", "public_transport": "stop_position"}}, {"type": "node", "id": 467047074, "lat": 59.2944653, "lon": 18.7564208, "tags": {"amenity": "ferry_terminal", "ferry": "yes", "name": "Gatan", "public_transport": "stop_position"}}, {"type": "node", "id": 467092718, "lat": 59.3869428, "lon": 18.3423633, "tags": {"amenity": "ferry_terminal", "description": "Several ferries per hour to Str\u00f6mkajen, just in front of the Grand Hotel in central Stockholm", "ferry": "yes", "name": "H\u00f6gan\u00e4s", "operator": "Waxholmsbolaget", "public_transport": "stop_position", "source": "survey;gps"}}, {"type": "node", "id": 476788337, "lat": 59.2924494, "lon": 18.9137417, "tags": {"amenity": "ferry_terminal", "ferry": "yes", "name": "Telegrafholmen", "public_transport": "stop_position"}}, {"type": "node", "id": 476790748, "lat": 59.2884847, "lon": 18.9155178, "tags": {"amenity": "ferry_terminal", "ferry": "yes", "name": "Sandhamn", "operator": "Waxholmsbolaget;Cinderalla;Roslagens Sj\u00f6trafik AB", "public_transport": "stop_position"}}, {"type": "node", "id": 491552371, "lat": 59.0892223, "lon": 18.4152556, "tags": {"amenity": "ferry_terminal", "ferry": "yes", "name": "H\u00e4sselmara", "public_transport": "stop_position", "waterway:sign": "ferry"}}, {"type": "node", "id": 758463397, "lat": 59.4072687, "lon": 18.5530006, "tags": {"amenity": "ferry_terminal", "ferry": "yes", "name": "S\u00f6dra Grinda", "public_transport": "stop_position", "wheelchair": "yes"}}, {"type": "node", "id": 795246073, "lat": 59.396546, "lon": 18.7057185, "tags": {"amenity": "ferry_terminal", "cargo": "passengers", "ferry": "yes", "name": "G\u00e4lln\u00f6n\u00e4s", "operator": "Waxholmsbolaget", "public_transport": "stop_position"}}, {"type": "node", "id": 795246364, "lat": 59.3902626, "lon": 18.6394389, "tags": {"amenity": "ferry_terminal", "cargo": "passengers", "ferry": "yes", "name": "G\u00e4lln\u00f6", "operator": "Waxholmsbolaget", "public_transport": "stop_position"}}, {"type": "node", "id": 822497065, "lat": 59.4219526, "lon": 18.4938916, "tags": {"amenity": "ferry_terminal", "ferry": "yes", "name": "Sipps\u00f6", "public_transport": "stop_position"}}, {"type": "node", "id": 822501766, "lat": 59.4165541, "lon": 18.6291534, "tags": {"amenity": "ferry_terminal", "cargo": "passengers", "ferry": "yes", "name": "Karkl\u00f6", "operator": "Waxholmsbolaget", "public_transport": "stop_position"}}, {"type": "node", "id": 822501777, "lat": 59.4288734, "lon": 18.646805, "tags": {"amenity": "ferry_terminal", "ferry": "yes", "name": "Tr\u00e5ngholmen", "public_transport": "stop_position"}}, {"type": "node", "id": 822502880, "lat": 59.4196661, "lon": 18.6777195, "tags": {"amenity": "ferry_terminal", "ferry": "yes", "name": "Hj\u00e4lm\u00f6", "public_transport": "stop_position"}}, {"type": "node", "id": 822562778, "lat": 59.4588506, "lon": 18.6767362, "tags": {"amenity": "ferry_terminal", "ferry": "yes", "name": "Norra Svarts\u00f6", "public_transport": "stop_position"}}, {"type": "node", "id": 842475508, "lat": 59.3699873, "lon": 18.6050789, "tags": {"amenity": "ferry_terminal", "ferry": "yes", "name": "Boda brygga", "public_transport": "stop_position"}}, {"type": "node", "id": 859356638, "lat": 59.419168, "lon": 18.5586743, "tags": {"amenity": "ferry_terminal", "ferry": "yes", "name": "Norra Grinda", "public_transport": "stop_position"}}, {"type": "node", "id": 863443825, "lat": 59.4131729, "lon": 18.496112, "tags": {"amenity": "ferry_terminal", "ferry": "yes", "name": "Lillsved", "network": "Waxholmsbolaget", "public_transport": "stop_position"}}, {"type": "node", "id": 897584233, "lat": 59.4707214, "lon": 18.4438556, "tags": {"amenity": "ferry_terminal", "ferry": "yes", "name": "Norra Bets\u00f6", "public_transport": "stop_position"}}, {"type": "node", "id": 897584337, "lat": 59.4131823, "lon": 18.3677945, "tags": {"amenity": "ferry_terminal", "ferry": "yes", "name": "Stegesund", "public_transport": "stop_position"}}, {"type": "node", "id": 897584355, "lat": 59.475672, "lon": 18.4650133, "tags": {"amenity": "ferry_terminal", "ferry": "yes", "name": "F\u00e5glar\u00f6", "public_transport": "stop_position"}}, {"type": "node", "id": 897584418, "lat": 59.4562199, "lon": 18.4046267, "tags": {"amenity": "ferry_terminal", "ferry": "yes", "name": "Elg\u00f6", "public_transport": "stop_position"}}, {"type": "node", "id": 946510410, "lat": 59.2087653, "lon": 18.7400278, "tags": {"amenity": "ferry_terminal", "ferry": "yes", "name": "N\u00e4md\u00f6b\u00f6te", "public_transport": "stop_position"}}, {"type": "node", "id": 946510441, "lat": 59.1774755, "lon": 18.6698818, "tags": {"amenity": "ferry_terminal", "ferry": "yes", "island": "N\u00e4md\u00f6", "name": "Bunkvik", "public_transport": "stop_position"}}, {"type": "node", "id": 946510502, "lat": 59.1823281, "lon": 18.6931521, "tags": {"amenity": "ferry_terminal", "ferry": "yes", "island": "N\u00e4md\u00f6", "name": "Sand", "public_transport": "stop_position"}}, {"type": "node", "id": 946514635, "lat": 59.1658208, "lon": 18.5844382, "tags": {"amenity": "ferry_terminal", "ferry": "yes", "name": "R\u00f6grund", "public_transport": "stop_position"}}, {"type": "node", "id": 946514649, "lat": 59.152659, "lon": 18.6162711, "tags": {"amenity": "ferry_terminal", "ferry": "yes", "name": "M\u00f6rt\u00f6 s\u00f6dra", "public_transport": "stop_position"}}, {"type": "node", "id": 946514665, "lat": 59.1709693, "lon": 18.6391498, "tags": {"amenity": "ferry_terminal", "ferry": "yes", "name": "Sunnansund", "public_transport": "stop_position"}}, {"type": "node", "id": 946514668, "lat": 59.1748939, "lon": 18.6488369, "tags": {"amenity": "ferry_terminal", "ferry": "yes", "name": "Uv\u00f6", "public_transport": "stop_position"}}, {"type": "node", "id": 946514708, "lat": 59.180563, "lon": 18.7005611, "tags": {"amenity": "ferry_terminal", "ferry": "yes", "name": "Orr\u00f6n", "public_transport": "stop_position", "wheelchair": "yes"}}, {"type": "node", "id": 946514711, "lat": 59.1846235, "lon": 18.7004008, "tags": {"amenity": "ferry_terminal", "ferry": "yes", "name": "Solvik", "public_transport": "stop_position", "wheelchair": "yes"}}, {"type": "node", "id": 946514722, "lat": 59.1914208, "lon": 18.7195045, "tags": {"amenity": "ferry_terminal", "ferry": "yes", "name": "Kalkberget", "public_transport": "stop_position"}}, {"type": "node", "id": 946514729, "lat": 59.1973945, "lon": 18.7398692, "tags": {"amenity": "ferry_terminal", "ferry": "yes", "name": "\u00d6stanvik", "public_transport": "stop_position"}}, {"type": "node", "id": 946514760, "lat": 59.2043297, "lon": 18.7577162, "tags": {"amenity": "ferry_terminal", "ferry": "yes", "name": "Id\u00f6borg", "public_transport": "stop_position"}}, {"type": "node", "id": 946514765, "lat": 59.2157602, "lon": 18.7533718, "tags": {"amenity": "ferry_terminal", "ferry": "yes", "name": "Asp\u00f6", "public_transport": "stop_position"}}, {"type": "node", "id": 1229138284, "lat": 59.1132662, "lon": 18.391915, "tags": {"amenity": "ferry_terminal", "ferry": "yes", "name": "Dalar\u00f6 Skans", "public_transport": "stop_position"}}, {"type": "node", "id": 1229138536, "lat": 59.1169902, "lon": 18.4116397, "tags": {"amenity": "ferry_terminal", "ferry": "yes", "name": "Asp\u00f6", "public_transport": "stop_position"}}, {"type": "node", "id": 1342567197, "lat": 59.3841749, "lon": 18.3434461, "tags": {"amenity": "ferry_terminal", "description": "Several ferries per hour to Str\u00f6mkajen, just in front of the Grand Hotel in central Stockholm", "ferry": "yes", "name": "Vasholmen", "operator": "Waxholmsbolaget", "public_transport": "stop_position"}}, {"type": "node", "id": 1342567199, "lat": 59.3751284, "lon": 18.3184817, "tags": {"amenity": "ferry_terminal", "description": "Several ferries per hour to Str\u00f6mkajen, just in front of the Grand Hotel in central Stockholm", "ferry": "yes", "name": "Edlunda", "operator": "Waxholmsbolaget", "public_transport": "stop_position", "source": "survey;gps"}}, {"type": "node", "id": 1342567200, "lat": 59.3815062, "lon": 18.3321169, "tags": {"amenity": "ferry_terminal", "description": "Several ferries per hour to Str\u00f6mkajen, just in front of the Grand Hotel in central Stockholm", "ferry": "yes", "name": "Karlsudd", "operator": "Waxholmsbolaget", "public_transport": "stop_position", "source": "survey;gps"}}, {"type": "node", "id": 1416127150, "lat": 59.4487158, "lon": 18.5783817, "tags": {"amenity": "ferry_terminal", "ferry": "yes", "name": "Stensvik", "public_transport": "stop_position"}}, {"type": "node", "id": 1596504099, "lat": 59.3632705, "lon": 18.3421314, "tags": {"amenity": "ferry_terminal", "ferry": "yes", "name": "Koviksudde", "public_transport": "stop_position"}}, {"type": "node", "id": 1596504122, "lat": 59.3702453, "lon": 18.3626068, "tags": {"amenity": "ferry_terminal", "ferry": "yes", "name": "Risberga", "public_transport": "stop_position"}}, {"type": "node", "id": 1633681719, "lat": 59.4539881, "lon": 18.4454521, "tags": {"amenity": "ferry_terminal", "ferry": "yes", "name": "Losten", "public_transport": "stop_position"}}, {"type": "node", "id": 1725846193, "lat": 59.3912313, "lon": 18.4544622, "tags": {"amenity": "ferry_terminal"}}, {"type": "node", "id": 1732041968, "lat": 59.3681414, "lon": 18.4427829, "tags": {"amenity": "ferry_terminal", "ferry": "yes", "name": "Skogs\u00f6 S\u00f6dra", "public_transport": "stop_position"}}, {"type": "node", "id": 1732115285, "lat": 59.3654642, "lon": 18.4408402, "tags": {"amenity": "ferry_terminal", "ferry": "yes", "name": "H\u00e4stholmen", "public_transport": "stop_position"}}, {"type": "node", "id": 1732293576, "lat": 59.3905332, "lon": 18.3990249, "tags": {"amenity": "ferry_terminal", "ferry": "yes", "name": "Rams\u00f6", "public_transport": "stop_position"}}, {"type": "node", "id": 1871949625, "lat": 59.3766366, "lon": 18.6324473, "tags": {"amenity": "ferry_terminal", "ferry": "yes", "name": "Puttisholmen", "public_transport": "stop_position"}}, {"type": "node", "id": 1917030192, "lat": 59.0521113, "lon": 18.4332508, "tags": {"amenity": "ferry_terminal", "ferry": "yes", "name": "Orn\u00f6 Kyrka", "network": "Waxholmsbolaget", "network:wikidata": "Q7975717", "network:wikipedia": "sv:Waxholmsbolaget", "operator": "Waxholmsbolaget", "public_transport": "stop_position"}}, {"type": "node", "id": 2010570464, "lat": 59.3911396, "lon": 18.406509, "tags": {"amenity": "ferry_terminal", "ferry": "yes", "name": "Vegabryggan", "public_transport": "stop_position"}}, {"type": "node", "id": 2151194095, "lat": 59.4031711, "lon": 18.3654928, "tags": {"amenity": "ferry_terminal", "ferry": "yes", "name": "Rind\u00f6 V\u00e4stra brygga", "public_transport": "stop_position"}}, {"type": "node", "id": 2213492644, "lat": 59.2209191, "lon": 18.5398016, "tags": {"amenity": "ferry_terminal", "ferry": "yes", "name": "Bj\u00f6rkviks brygga", "public_transport": "stop_position"}}, {"type": "node", "id": 2298829949, "lat": 59.4555813, "lon": 18.5990177, "tags": {"amenity": "ferry_terminal", "ferry": "yes", "name": "Hummelmora", "public_transport": "stop_position"}}, {"type": "node", "id": 2298829950, "lat": 59.45204, "lon": 18.4722175, "tags": {"amenity": "ferry_terminal", "ferry": "yes", "name": "Lilla Saxaren", "public_transport": "stop_position"}}, {"type": "node", "id": 2298829951, "lat": 59.4503006, "lon": 18.4830188, "tags": {"amenity": "ferry_terminal", "ferry": "yes", "name": "Stora Saxaren", "public_transport": "stop_position"}}, {"type": "node", "id": 2300082242, "lat": 59.3180727, "lon": 18.1597551, "tags": {"amenity": "ferry_terminal", "check_date": "2023-07-26", "ferry": "yes", "name": "Nacka strand", "network": "SL", "network:wikidata": "Q970452", "public_transport": "stop_position", "route_ref": "80"}}, {"type": "node", "id": 2331712511, "lat": 59.3055183, "lon": 18.8139488, "tags": {"amenity": "ferry_terminal", "ferry": "yes", "name": "V\u00e4stra Skarprunmarn", "public_transport": "stop_position"}}, {"type": "node", "id": 2334340773, "lat": 59.4237386, "lon": 18.9096704, "tags": {"amenity": "ferry_terminal", "ferry": "yes", "name": "Ramsmora", "public_transport": "stop_position"}}, {"type": "node", "id": 2335285481, "lat": 59.2863206, "lon": 18.7048196, "tags": {"amenity": "ferry_terminal", "ferry": "yes", "name": "Stavsn\u00e4s", "public_transport": "stop_position"}}, {"type": "node", "id": 2349013583, "lat": 59.4103126, "lon": 18.8961126, "tags": {"amenity": "ferry_terminal", "ferry": "yes", "name": "L\u00f6ka", "public_transport": "stop_position"}}, {"type": "node", "id": 2349139503, "lat": 59.4423424, "lon": 18.9208415, "tags": {"amenity": "ferry_terminal", "ferry": "yes", "name": "L\u00e5ngvik (M\u00f6ja)", "public_transport": "stop_position"}}, {"type": "node", "id": 2349141872, "lat": 59.4431984, "lon": 18.8864513, "tags": {"amenity": "ferry_terminal", "cargo": "passengers", "ferry": "yes", "name": "Dragedet", "operator": "Waxholmsbolaget", "public_transport": "stop_position"}}, {"type": "node", "id": 2349164668, "lat": 59.3730553, "lon": 18.6987474, "tags": {"amenity": "ferry_terminal", "ferry": "yes", "name": "Sollenkroka", "public_transport": "station"}}, {"type": "node", "id": 2349178882, "lat": 59.404237, "lon": 18.7798748, "tags": {"amenity": "ferry_terminal", "ferry": "yes", "name": "Norra Stavsudda", "public_transport": "stop_position"}}, {"type": "node", "id": 2349235266, "lat": 59.4039838, "lon": 18.8747342, "tags": {"amenity": "ferry_terminal", "cargo": "passengers", "ferry": "yes", "name": "M\u00f6jastr\u00f6m", "public_transport": "stop_position"}}, {"type": "node", "id": 2359277257, "lat": 59.384736, "lon": 18.7893115, "tags": {"amenity": "ferry_terminal", "ferry": "yes", "name": "S\u00f6dra Tr\u00e4sk\u00f6", "public_transport": "stop_position"}}, {"type": "node", "id": 2381391443, "lat": 59.3243568, "lon": 18.3813082, "tags": {"amenity": "ferry_terminal", "cargo": "passengers", "ferry": "yes", "name": "Gustavsberg", "public_transport": "stop_position"}}, {"type": "node", "id": 2381391480, "lat": 59.3076201, "lon": 18.3460893, "tags": {"amenity": "ferry_terminal", "ferry": "yes", "name": "Artipelag/H\u00e5lludden", "public_transport": "stop_position", "source": "survey"}}, {"type": "node", "id": 2447150447, "lat": 59.466643, "lon": 18.6328929, "tags": {"amenity": "ferry_terminal", "ferry": "yes", "name": "Ed\u00f6", "public_transport": "stop_position"}}, {"type": "node", "id": 2534683206, "lat": 59.4249996, "lon": 18.3555175, "tags": {"amenity": "ferry_terminal", "ferry": "yes", "name": "Ytterby brygga", "public_transport": "stop_position"}}, {"type": "node", "id": 2550392590, "lat": 59.0447486, "lon": 18.3652954, "tags": {"amenity": "ferry_terminal", "ferry": "yes", "name": "L\u00e4ttinge", "public_transport": "stop_position"}}, {"type": "node", "id": 2598658806, "lat": 59.3600676, "lon": 18.2855248, "tags": {"amenity": "ferry_terminal", "ferry": "yes", "name": "Riset", "public_transport": "stop_position"}}, {"type": "node", "id": 2758385094, "lat": 59.1670052, "lon": 18.6623938, "tags": {"amenity": "ferry_terminal", "ferry": "yes", "name": "Ekholmen", "public_transport": "stop_position"}}, {"type": "node", "id": 2908793762, "lat": 59.4653692, "lon": 18.7509584, "tags": {"amenity": "ferry_terminal", "ferry": "yes", "name": "S\u00f6dra Ingmars\u00f6", "public_transport": "stop_position"}}, {"type": "node", "id": 2908793764, "lat": 59.4378109, "lon": 18.6571213, "tags": {"amenity": "ferry_terminal", "ferry": "yes", "name": "Ahlsvik", "operator": "Waxholmsbolaget", "public_transport": "stop_position"}}, {"type": "node", "id": 2908793792, "lat": 59.4554842, "lon": 18.7398427, "tags": {"amenity": "ferry_terminal", "ferry": "yes", "name": "S\u00f6derboudd", "public_transport": "stop_position"}}, {"type": "node", "id": 2908794120, "lat": 59.4438804, "lon": 18.6807854, "tags": {"amenity": "ferry_terminal", "ferry": "yes", "name": "Sk\u00e4lvik", "operator": "Waxholmsbolaget", "public_transport": "stop_position"}}, {"type": "node", "id": 2943473865, "lat": 59.0708897, "lon": 18.5163994, "tags": {"amenity": "ferry_terminal", "ferry": "yes", "name": "Fivers\u00e4ttra\u00f6", "operator": "Waxholmsbolaget", "public_transport": "stop_position"}}, {"type": "node", "id": 2996082790, "lat": 59.4302454, "lon": 18.5787391, "tags": {"amenity": "ferry_terminal", "ferry": "yes", "name": "Stavestr\u00f6m", "public_transport": "stop_position"}}, {"type": "node", "id": 3053786256, "lat": 59.2892739, "lon": 18.9288207, "tags": {"amenity": "ferry_terminal"}}, {"type": "node", "id": 3255164651, "lat": 59.1726203, "lon": 18.65599, "tags": {"amenity": "ferry_terminal", "ferry": "yes", "name": "\u00c4ngsholmen", "public_transport": "stop_position"}}, {"type": "node", "id": 4010778911, "lat": 59.4000583, "lon": 18.3337093, "tags": {"amenity": "ferry_terminal", "ferry": "yes", "name": "Fredriksberg brygga", "public_transport": "stop_position"}}, {"type": "node", "id": 4830028132, "lat": 59.408718, "lon": 18.535341, "tags": {"amenity": "ferry_terminal", "ferry": "yes", "name": "Viggs\u00f6", "public_transport": "stop_position"}}, {"type": "node", "id": 4900324640, "lat": 59.4024049, "lon": 18.3556819, "tags": {"amenity": "ferry_terminal", "ferry": "yes", "opening_hours": "Mo-Su 10:00-21:45", "public_transport": "station"}}, {"type": "node", "id": 5010012668, "lat": 59.4551813, "lon": 18.8224975, "tags": {"amenity": "ferry_terminal", "ferry": "yes", "name": "Stora Kalholmen", "public_transport": "stop_position"}}, {"type": "node", "id": 5861205706, "lat": 59.4656732, "lon": 18.7275604, "tags": {"amenity": "ferry_terminal", "ferry": "yes", "name": "Brott\u00f6", "public_transport": "stop_position"}}, {"type": "node", "id": 5909835064, "lat": 59.3068989, "lon": 18.2924069, "tags": {"amenity": "ferry_terminal", "ferry": "yes", "name": "Boo", "public_transport": "stop_position"}}, {"type": "node", "id": 6189599063, "lat": 59.400244, "lon": 18.3501048, "tags": {"amenity": "ferry_terminal", "name": "F\u00e4rjel\u00e4get Vaxholm", "website": "https://www.trafikverket.se/farjerederiet/farjeleder/Farjeleder-i-Stockholm213/Vaxholmsleden/Tidtabell-Vaxholmsleden/"}}, {"type": "node", "id": 6310855104, "lat": 59.4260347, "lon": 18.4603731, "tags": {"amenity": "ferry_terminal", "ferry": "yes", "name": "Halleberg", "public_transport": "stop_position"}}, {"type": "node", "id": 6310855115, "lat": 59.4273717, "lon": 18.4192175, "tags": {"amenity": "ferry_terminal", "ferry": "yes", "public_transport": "stop_position"}}, {"type": "node", "id": 6315972800, "lat": 59.4220487, "lon": 18.3604567, "tags": {"amenity": "ferry_terminal", "ferry": "yes", "name": "Vikingsborg", "public_transport": "stop_position"}}, {"type": "node", "id": 7160212532, "lat": 59.3301104, "lon": 18.2183135, "tags": {"amenity": "ferry_terminal", "ferry": "yes", "name": "Talludden", "public_transport": "stop_position"}}, {"type": "node", "id": 7659223230, "lat": 59.3721667, "lon": 18.3359397, "tags": {"amenity": "ferry_terminal", "ferry": "yes", "name": "Furuholmen", "public_transport": "stop_position"}}, {"type": "node", "id": 7659223236, "lat": 59.4700704, "lon": 18.4207463, "tags": {"amenity": "ferry_terminal", "ferry": "yes", "name": "Ekholmen", "public_transport": "stop_position"}}, {"type": "node", "id": 7659223241, "lat": 59.4605736, "lon": 18.5192956, "tags": {"amenity": "ferry_terminal", "ferry": "yes", "name": "Grundvik", "public_transport": "stop_position"}}, {"type": "node", "id": 7659583981, "lat": 59.412321, "lon": 18.3525954, "tags": {"amenity": "ferry_terminal", "ferry": "yes", "name": "Edholma", "public_transport": "stop_position"}}, {"type": "node", "id": 7659583983, "lat": 59.3776933, "lon": 18.3650187, "tags": {"amenity": "ferry_terminal", "ferry": "yes", "name": "Kalvholmen", "public_transport": "stop_position"}}, {"type": "node", "id": 7674861534, "lat": 59.4413224, "lon": 18.58486, "tags": {"amenity": "ferry_terminal", "ferry": "yes", "name": "Stor\u00e4ngen", "public_transport": "stop_position"}}, {"type": "node", "id": 7678186414, "lat": 59.4519862, "lon": 18.7457503, "tags": {"amenity": "ferry_terminal", "ferry": "yes", "name": "Gistholmen", "public_transport": "stop_position"}}, {"type": "node", "id": 7678186421, "lat": 59.4420268, "lon": 18.6998476, "tags": {"amenity": "ferry_terminal", "ferry": "yes", "name": "Tr\u00e4sk\u00f6kvarn", "public_transport": "stop_position"}}, {"type": "node", "id": 7678186425, "lat": 59.4338002, "lon": 18.7020323, "tags": {"amenity": "ferry_terminal", "ferry": "yes", "name": "L\u00e5dna", "public_transport": "stop_position"}}, {"type": "node", "id": 7678186429, "lat": 59.4342912, "lon": 18.6894795, "tags": {"amenity": "ferry_terminal", "ferry": "yes", "name": "Karlshem", "public_transport": "stop_position"}}, {"type": "node", "id": 7678186437, "lat": 59.4314772, "lon": 18.6758673, "tags": {"amenity": "ferry_terminal", "ferry": "yes", "name": "Tr\u00e4dg\u00e5rdarna", "public_transport": "stop_position"}}, {"type": "node", "id": 7681276641, "lat": 59.3977415, "lon": 18.6172758, "tags": {"amenity": "ferry_terminal", "ferry": "yes", "name": "H\u00e4ger\u00f6", "public_transport": "stop_position"}}, {"type": "node", "id": 7681276644, "lat": 59.3848576, "lon": 18.6905008, "tags": {"amenity": "ferry_terminal", "ferry": "yes", "name": "Galtholmen", "public_transport": "stop_position"}}, {"type": "node", "id": 7681276650, "lat": 59.3774695, "lon": 18.7295115, "tags": {"amenity": "ferry_terminal", "ferry": "yes", "name": "Arboda\u00f6", "public_transport": "stop_position"}}, {"type": "node", "id": 7762516963, "lat": 59.355375, "lon": 18.411657, "tags": {"amenity": "ferry_terminal", "ferry": "yes", "name": "Norra Lagn\u00f6", "public_transport": "stop_position"}}, {"type": "node", "id": 7762516964, "lat": 59.3554018, "lon": 18.4115541, "tags": {"amenity": "ferry_terminal", "ferry": "yes", "name": "Norra Lagn\u00f6 brygga", "public_transport": "stop_position"}}, {"type": "node", "id": 7762516979, "lat": 59.366293, "lon": 18.4337416, "tags": {"amenity": "ferry_terminal", "ferry": "yes", "name": "Skogs\u00f6 udde", "public_transport": "stop_position"}}, {"type": "node", "id": 7762535586, "lat": 59.3764592, "lon": 18.4349553, "tags": {"amenity": "ferry_terminal", "ferry": "yes", "name": "Knutsholmen", "public_transport": "stop_position"}}, {"type": "node", "id": 7762535591, "lat": 59.3845421, "lon": 18.4189811, "tags": {"amenity": "ferry_terminal", "ferry": "yes", "name": "Rams\u00f6berg", "public_transport": "stop_position"}}, {"type": "node", "id": 7762535608, "lat": 59.3840628, "lon": 18.3940528, "tags": {"amenity": "ferry_terminal", "ferry": "yes", "name": "Norehill", "public_transport": "stop_position"}}, {"type": "node", "id": 7762535622, "lat": 59.3929842, "lon": 18.3763755, "tags": {"amenity": "ferry_terminal", "ferry": "yes", "name": "Norra Tynning\u00f6", "public_transport": "stop_position"}}, {"type": "node", "id": 7782282789, "lat": 59.1875256, "lon": 18.7069555, "tags": {"amenity": "ferry_terminal", "ferry": "yes", "name": "V\u00e4stanvik", "public_transport": "stop_position"}}, {"type": "node", "id": 7782282804, "lat": 59.1624939, "lon": 18.6289367, "tags": {"amenity": "ferry_terminal", "ferry": "yes", "name": "M\u00f6rt\u00f6", "public_transport": "stop_position"}}, {"type": "node", "id": 7784981225, "lat": 59.2802328, "lon": 18.7313911, "tags": {"amenity": "ferry_terminal", "ferry": "yes", "name": "Stryrsvik", "public_transport": "stop_position"}}, {"type": "node", "id": 7786848365, "lat": 59.346141, "lon": 18.8993812, "tags": {"amenity": "ferry_terminal", "ferry": "yes", "name": "Hagede", "public_transport": "stop_position"}}, {"type": "node", "id": 7786848370, "lat": 59.3390893, "lon": 18.9004487, "tags": {"amenity": "ferry_terminal", "ferry": "yes", "name": "Har\u00f6", "public_transport": "stop_position"}}, {"type": "node", "id": 7786848383, "lat": 59.3165095, "lon": 18.8449471, "tags": {"amenity": "ferry_terminal", "ferry": "yes", "name": "Hassel\u00f6", "public_transport": "stop_position"}}, {"type": "node", "id": 7786882491, "lat": 59.3146217, "lon": 18.8328724, "tags": {"amenity": "ferry_terminal", "ferry": "yes", "name": "Hasselkobben", "public_transport": "stop_position"}}, {"type": "node", "id": 7786882522, "lat": 59.296367, "lon": 18.7719145, "tags": {"amenity": "ferry_terminal", "ferry": "yes", "name": "L\u00e5ngvik", "public_transport": "stop_position"}}, {"type": "node", "id": 7816008196, "lat": 59.3728499, "lon": 18.8774031, "tags": {"amenity": "ferry_terminal", "ferry": "yes", "name": "Granholmen", "public_transport": "stop_position"}}, {"type": "node", "id": 7816933605, "lat": 59.0491015, "lon": 18.3413261, "tags": {"amenity": "ferry_terminal", "ferry": "yes", "name": "Bj\u00f6rksund", "public_transport": "stop_position"}}, {"type": "node", "id": 7816933618, "lat": 59.1040514, "lon": 18.3987173, "tags": {"amenity": "ferry_terminal", "ferry": "yes", "name": "F\u00e5glar\u00f6", "public_transport": "stop_position"}}, {"type": "node", "id": 7816933630, "lat": 59.1138065, "lon": 18.412748, "tags": {"amenity": "ferry_terminal", "ferry": "yes", "name": "Stora Segelholmen", "public_transport": "stop_position"}}, {"type": "node", "id": 7816933641, "lat": 59.1253352, "lon": 18.4093402, "tags": {"amenity": "ferry_terminal", "ferry": "yes", "name": "Jutholmen", "public_transport": "stop_position"}}, {"type": "node", "id": 7821206880, "lat": 59.295649, "lon": 18.249713, "tags": {"amenity": "ferry_terminal", "ferry": "yes", "name": "Fisks\u00e4tra Marina", "public_transport": "stop_position"}}, {"type": "node", "id": 7821236495, "lat": 59.3201746, "lon": 18.2242117, "tags": {"amenity": "ferry_terminal", "ferry": "yes", "name": "Lilla Bj\u00f6rkn\u00e4s", "public_transport": "stop_position"}}, {"type": "node", "id": 8722087059, "lat": 59.3909562, "lon": 18.4342301, "tags": {"amenity": "ferry_terminal", "ferry": "yes", "name": "Grenadj\u00e4rbryggan", "public_transport": "stop_position"}}, {"type": "node", "id": 8898660241, "lat": 59.3275338, "lon": 18.1794549, "tags": {"amenity": "ferry_terminal", "ferry": "yes", "public_transport": "station"}}, {"type": "node", "id": 9855372454, "lat": 59.428485, "lon": 18.4333661, "tags": {"amenity": "ferry_terminal", "ferry": "yes", "name": "Lilla Bets\u00f6", "public_transport": "stop_position"}}, {"type": "node", "id": 9855542072, "lat": 59.4272189, "lon": 18.4401172, "tags": {"amenity": "ferry_terminal", "ferry": "yes", "name": "Stora Issk\u00e4r", "public_transport": "stop_position"}}, {"type": "node", "id": 9855564652, "lat": 59.4233973, "lon": 18.4830764, "tags": {"amenity": "ferry_terminal"}}, {"type": "node", "id": 10129832321, "lat": 59.2865665, "lon": 18.7043247, "tags": {"amenity": "ferry_terminal", "ferry": "yes", "name": "Stavsn\u00e4s vinterhamn", "public_transport": "station"}}, {"type": "node", "id": 10895489112, "lat": 59.4238625, "lon": 18.424291, "tags": {"amenity": "ferry_terminal", "name": "Sk\u00e4ggaudd"}}, {"type": "node", "id": 10895492107, "lat": 59.4203549, "lon": 18.4677302, "tags": {"amenity": "ferry_terminal", "name": "Sk\u00e4rmar\u00e4ng"}}, {"type": "node", "id": 11064006067, "lat": 59.3000867, "lon": 18.2348045, "tags": {"amenity": "ferry_terminal", "name": "Tollare"}}]}