{"version": 0.6, "generator": "Overpass API 0.7.61.5 4133829e", "osm3s": {"timestamp_osm_base": "2024-03-06T11:16:45Z", "copyright": "The data included in this document is from www.openstreetmap.org. The data is made available under ODbL."}, "elements": [{"type": "node", "id": 32826329, "lat": 30.3636097, "lon": 48.2591475, "tags": {"name": "\u0622\u0628\u0627\u062f\u0627\u0646", "name:ar": "\u0639\u0628\u0627\u062f\u0627\u0646", "name:azb": "\u0622\u0628\u0627\u062f\u0627\u0646", "name:ckb": "\u0626\u0627\u0628\u0627\u062f\u0627\u0646", "name:cs": "\u00c1b\u00e1d\u00e1n", "name:de": "Abadan", "name:en": "Abadan", "name:es": "Abad\u00e1n", "name:et": "\u0100b\u0101d\u0101n", "name:fr": "Abadan", "name:he": "\u05e2\u05d1\u05d3\u05df", "name:hi": "\u0905\u092c\u093e\u0926\u093e\u0928", "name:hr": "Abadan", "name:ja": "\u30a2\u30fc\u30d0\u30fc\u30c0\u30fc\u30f3", "name:la": "Abadanum", "name:ml": "\u0d05\u0d2c\u0d3e\u0d26\u0d3e\u0d7b", "name:pnb": "\u0622\u0628\u0627\u062f\u0627\u0646", "name:ru": "\u0410\u0431\u0430\u0434\u0430\u043d", "name:tr": "Abadan", "name:ur": "\u0622\u0628\u0627\u062f\u0627\u0646", "old_name": "\u0622\u067e\u0627\u062f\u0627\u0646\u0627", "place": "city", "population": "231476", "wikidata": "Q63049", "wikipedia": "fa:\u0622\u0628\u0627\u062f\u0627\u0646"}}, {"type": "node", "id": 819610948, "lat": 29.9843073, "lon": 48.5109871, "tags": {"alt_name": "\u0627\u0644\u0642\u0635\u0628\u0629", "alt_name:ar": "\u0623\u0631\u0648\u0646\u062f\u0643\u0646\u0627\u0631", "name": "\u0627\u0631\u0648\u0646\u062f\u06a9\u0646\u0627\u0631", "name:ar": "\u0627\u0644\u0642\u0635\u0628\u0629", "name:en": "Arwandkenar", "name:fa": "\u0627\u0631\u0648\u0646\u062f\u06a9\u0646\u0627\u0631", "name:fr": "Arvandkenar", "name:ja": "\u30a2\u30eb\u30f4\u30a1\u30f3\u30c9\u30b1\u30ca\u30fc\u30eb", "nat_name": "\u0627\u0631\u0648\u0646\u062f \u06a9\u0646\u0627\u0631", "place": "town", "population": "11173", "population:date": "2016", "source:population": "amar.org.ir", "wikidata": "Q744176", "wikipedia": "fa:\u0627\u0631\u0648\u0646\u062f\u06a9\u0646\u0627\u0631"}}, {"type": "node", "id": 2479310557, "lat": 29.931111, "lon": 48.553611, "tags": {"alt_name": "\u0623\u0628\u0648 \u0641\u0644\u0648\u0633", "int_name": "Ab\u016b Ful\u016bs, Abu Fulus", "name": "\u0623\u0628\u0648 \u0641\u0644\u0648\u0633", "name:ar": "\u0623\u0628\u0648 \u0641\u0644\u0648\u0633", "name:de": "Abu Fulus", "name:en": "Abu Fulus", "name:fr": "Abu Fulus", "place": "village"}}, {"type": "node", "id": 2479310587, "lat": 29.942222, "lon": 48.543611, "tags": {"alt_name": "\u0627\u0644\u0642\u0634\u0644\u0629", "int_name": "Al Qushlah, Al Qushlah", "name": "\u0627\u0644\u0642\u0634\u0644\u0629", "name:ar": "\u0627\u0644\u0642\u0634\u0644\u0629", "name:de": "Al Qushlah", "name:en": "Al Qushlah", "name:fr": "Al Qushlah", "place": "village"}}, {"type": "node", "id": 2479310638, "lat": 29.998611, "lon": 48.450833, "tags": {"alt_name": "\u062f\u0627\u06cc\u0631", "fixme": "name, name:ar mismatch.", "int_name": "D\u0101yir, Dayir", "is_in": "Iraq , \u062c\u0645\u0647\u0648\u0631\u064a\u0629 \u0627\u0644\u0639\u0631\u0627\u0642", "name": "\u062f\u0627\u06cc\u0631", "name:ar": "\u062f\u0627\u064a\u0631", "name:ar1": "\u062f\u0627\u064a\u0631", "name:de": "Dayir", "name:en": "Dayir", "name:fr": "Dayir", "place": "village"}}, {"type": "node", "id": 2479310680, "lat": 29.965278, "lon": 48.491667, "tags": {"alt_name": "\u0643\u0648\u062a \u0627\u0644\u062d\u0627\u062c \u0634\u064a\u062f", "int_name": "K\u016bt al \u1e28\u0101jj Shayd, Kut al Hajj Shayd", "name": "\u0643\u0648\u062a \u0627\u0644\u062d\u0627\u062c \u0634\u064a\u062f", "name:ar": "\u0643\u0648\u062a \u0627\u0644\u062d\u0627\u062c \u0634\u064a\u062f", "name:de": "Kut al Hajj Shayd", "name:en": "Kut al Hajj Shayd", "name:fr": "Kut al Hajj Shayd", "place": "village"}}, {"type": "node", "id": 2479310701, "lat": 29.95, "lon": 48.5, "tags": {"alt_name": "\u0643\u0648\u062a \u0627\u0644\u0647\u0648 \u0628\u0627\u0633\u0644\u0648", "fixme": "name, name:ar mismatch.", "int_name": "K\u016bt al Hau B\u0101sluu, Kut al Hau Basluu", "name": "\u0643\u0648\u062a \u0627\u0644\u0647\u0648 \u0628\u0627\u0633\u0644\u0648", "name:ar": "\u0646\u0647\u0631 \u0627\u0644\u0639\u0634\u0627\u0631", "name:ar1": "\u0643\u0648\u062a \u0627\u0644\u0647\u0648 \u0628\u0627\u0633\u0644\u0648", "name:de": "Kut al Hau Basluu", "name:en": "Kut al Hau Basluu", "name:fr": "Kut al Hau Basluu", "place": "village"}}, {"type": "node", "id": 2479310884, "lat": 29.9275, "lon": 48.517222, "tags": {"alt_name": "\u0642\u0644\u0639\u0629 \u0642\u062f\u064a\u0645\u0649", "int_name": "Qalat Qadyam\u00e1, Qalat Qadyama", "name": "\u0627\u0644\u0642\u0644\u0639\u0629 \u0627\u0644\u0642\u062f\u064a\u0645\u0629", "name:ar": "\u0627\u0644\u0642\u0644\u0639\u0629 \u0627\u0644\u0642\u062f\u064a\u0645\u0629", "name:ar1": "\u0642\u0644\u0639\u0629 \u0642\u062f\u064a\u0645\u0649", "name:de": "Qalat Qadyama", "name:en": "Qalat Qadyama", "name:fr": "Qalat Qadyama", "place": "village"}}, {"type": "node", "id": 2479313481, "lat": 30.325299, "lon": 48.266157, "tags": {"alt_name": "\u0639\u0644\u0648\u0629 \u0627\u0644\u0641\u0627\u0633\u0644 \u0633\u06cc\u0628\u0629", "int_name": "Alwat al F\u0101sil Saiba, Alwat al Fasil Saiba", "is_in": "Iraq , \u062c\u0645\u0647\u0648\u0631\u064a\u0629 \u0627\u0644\u0639\u0631\u0627\u0642", "name": "\u0639\u0644\u0648\u0629 \u0627\u0644\u0641\u0627\u0633\u0644 \u0633\u06cc\u0628\u0629", "name:ar": "\u0639\u0644\u0648\u0629 \u0627\u0644\u0641\u0627\u0633\u0644 \u0633\u064a\u0628\u0629", "name:ar1": "\u0639\u0644\u0648\u0629 \u0627\u0644\u0641\u0627\u0633\u0644 \u0633\u064a\u0628\u0629", "name:de": "Alwat al Fasil Saiba", "name:en": "Alwat al Fasil Saiba", "name:fr": "Alwat al Fasil Saiba", "place": "village"}}, {"type": "node", "id": 2479313488, "lat": 30.3260214, "lon": 48.2662287, "tags": {"alt_name": "\u0627\u0644\u0633\u06cc\u0628\u0629", "int_name": "As Saybah, Seeba, \u0627\u0644\u0633\u064a\u0628\u0629, As Saybah, Seeba, \u0627\u0644\u0633\u064a\u0628\u0629", "is_in": "Iraq , \u062c\u0645\u0647\u0648\u0631\u064a\u0629 \u0627\u0644\u0639\u0631\u0627\u0642", "name": "\u0627\u0644\u0633\u06cc\u0628\u0629", "name:ar": "\u0627\u0644\u0633\u064a\u0628\u0629", "name:ar1": "\u0627\u0644\u0633\u064a\u0628\u0629", "name:de": "As Saybah", "name:en": "As Saybah", "name:fr": "As Saybah", "place": "village"}}, {"type": "node", "id": 2479313491, "lat": 30.3338438, "lon": 48.2658046, "tags": {"alt_name": "\u0628\u062d\u0631\u06cc\u0629", "int_name": "Bahr\u012bya, Bahriya", "is_in": "Iraq , \u062c\u0645\u0647\u0648\u0631\u064a\u0629 \u0627\u0644\u0639\u0631\u0627\u0642", "name": "\u0628\u062d\u0631\u06cc\u0629", "name:ar": "\u0628\u062d\u0631\u064a\u0629", "name:ar1": "\u0628\u062d\u0631\u064a\u0629", "name:de": "Bahriya", "name:en": "Bahriya", "name:fr": "Bahriya", "place": "village"}}, {"type": "node", "id": 2479313497, "lat": 30.3324427, "lon": 48.2677662, "tags": {"alt_name": "\u062e\u0631\u0645 \u0627\u0644\u0628\u062d\u0631\u06cc\u0629", "int_name": "Kharm al Ba\u1e29r\u012bya, Kharm al Bahriya", "is_in": "Iraq , \u062c\u0645\u0647\u0648\u0631\u064a\u0629 \u0627\u0644\u0639\u0631\u0627\u0642", "name": "\u062e\u0631\u0645 \u0627\u0644\u0628\u062d\u0631\u06cc\u0629", "name:ar": "\u062e\u0631\u0645 \u0627\u0644\u0628\u062d\u0631\u064a\u0629", "name:ar1": "\u062e\u0631\u0645 \u0627\u0644\u0628\u062d\u0631\u064a\u0629", "name:de": "Kharm al Bahriya", "name:en": "Kharm al Bahriya", "name:fr": "Kharm al Bahriya", "place": "village"}}, {"type": "node", "id": 2479314583, "lat": 30.294701, "lon": 48.296324, "tags": {"alt_name": "\u0627\u0644\u0648\u0633\u0627\u0644\u064a\u0629", "int_name": "Al Was\u0101l\u012byah, Al Was\u012bl\u012byah, Al Wasiliyeh, \u0627\u0644\u0648\u0633\u0627\u0644\u064a\u0629, Al Wasaliyah, Al Wasiliyah, Al Wasiliyeh, \u0627\u0644\u0648\u0633\u0627\u0644\u064a\u0629", "is_in": "Iraq , \u062c\u0645\u0647\u0648\u0631\u064a\u0629 \u0627\u0644\u0639\u0631\u0627\u0642", "name": "\u0627\u0644\u0648\u0627\u0635\u0644\u064a\u0629", "name:ar": "\u0627\u0644\u0648\u0627\u0635\u0644\u064a\u0629", "name:ar1": "\u0627\u0644\u0648\u0633\u0627\u0644\u064a\u0629", "name:de": "Al Wasaliyah", "name:en": "Al Wasaliyah", "name:fr": "Al Wasaliyah", "place": "village"}}, {"type": "node", "id": 2479314590, "lat": 30.2768818, "lon": 48.3133785, "tags": {"alt_name": "\u0627\u0644\u0634\u0628\u064a\u062c\u064a", "int_name": "Ash Shab\u012bj\u012b, Ash Shabiji", "is_in": "Iraq , \u062c\u0645\u0647\u0648\u0631\u064a\u0629 \u0627\u0644\u0639\u0631\u0627\u0642", "name": "\u0627\u0644\u0634\u0628\u064a\u062c\u064a", "name:ar": "\u0627\u0644\u0634\u0628\u064a\u062c\u064a", "name:ar1": "\u0627\u0644\u0634\u0628\u064a\u062c\u064a", "name:de": "Ash Shabiji", "name:en": "Ash Shabiji", "name:fr": "Ash Shabiji", "place": "village"}}, {"type": "node", "id": 2479314597, "lat": 30.282494, "lon": 48.308743, "tags": {"alt_name": "\u0627\u0644\u0632\u064a\u0627\u062f\u064a\u0629", "int_name": "Az Ziy\u0101d, Az Ziy\u0101d\u012byah, Zi\u0101d\u012byah, \u0627\u0644\u0632\u064a\u0627\u062f\u064a\u0629, Az Ziyad, Az Ziyadiyah, Ziadiyah, \u0627\u0644\u0632\u064a\u0627\u062f\u064a\u0629", "is_in": "Iraq , \u062c\u0645\u0647\u0648\u0631\u064a\u0629 \u0627\u0644\u0639\u0631\u0627\u0642", "name": "\u0627\u0644\u0632\u064a\u0627\u062f\u064a\u0629", "name:ar": "\u0627\u0644\u0632\u064a\u0627\u062f\u064a\u0629", "name:ar1": "\u0627\u0644\u0632\u064a\u0627\u062f\u064a\u0629", "name:de": "Al  Ziyadya", "name:en": "Al  Ziyadya", "name:fr": "Al  Ziyadya", "place": "village"}}, {"type": "node", "id": 2479314616, "lat": 30.283333, "lon": 48.316667, "tags": {"alt_name": "\u0645\u0631\u0628\u064a", "int_name": "Mirapi, Mirapi", "is_in": "Iraq , \u062c\u0645\u0647\u0648\u0631\u064a\u0629 \u0627\u0644\u0639\u0631\u0627\u0642", "name": "\u0645\u0631\u0628\u064a", "name:ar": "\u0645\u0631\u0628\u064a", "name:de": "Mirapi", "name:en": "Mirapi", "name:fr": "Mirapi", "place": "village"}}, {"type": "node", "id": 2479315379, "lat": 30.266667, "lon": 48.333333, "tags": {"alt_name": "\u0642\u0648\u0629", "int_name": "Que, Que", "is_in": "Iraq , \u062c\u0645\u0647\u0648\u0631\u064a\u0629 \u0627\u0644\u0639\u0631\u0627\u0642", "name": "\u0642\u0648\u0629", "name:ar": "\u0642\u0648\u0629", "name:de": "Que", "name:en": "Que", "name:fr": "Que", "place": "village"}}, {"type": "node", "id": 2479316092, "lat": 30.176494, "lon": 48.397752, "tags": {"alt_name": "\u0628\u062d\u0627\u0631", "capital": "7", "int_name": "Ba\u1e29\u0101r, \u0646\u0627\u062d\u064a\u0629 \u0628\u062d\u0627\u0631, Bahar, \u0628\u062d\u0627\u0631", "is_in": "Iraq , \u062c\u0645\u0647\u0648\u0631\u064a\u0629 \u0627\u0644\u0639\u0631\u0627\u0642", "name": "\u0628\u062d\u0627\u0631", "name:ar": "\u0628\u062d\u0627\u0631", "name:de": "Bahar", "name:en": "Bahar", "name:fr": "Bahar", "place": "town"}}, {"type": "node", "id": 2479316114, "lat": 30.160574, "lon": 48.402049, "tags": {"alt_name": "\u06a9\u0648\u062a \u0632\u0627\u06cc\u0631 \u0645\u0633\u0644\u0645", "int_name": "K\u016bt Z\u0101yir Maslim, \u0643\u0648\u062a \u0632\u0627\u064a\u0631 \u0645\u0633\u0644\u0645, Kut Zayir Maslim, \u0643\u0648\u062a \u0632\u0627\u064a\u0631 \u0645\u0633\u0644\u0645", "is_in": "Iraq , \u062c\u0645\u0647\u0648\u0631\u064a\u0629 \u0627\u0644\u0639\u0631\u0627\u0642", "name": "\u06a9\u0648\u062a \u0632\u0627\u06cc\u0631 \u0645\u0633\u0644\u0645", "name:ar": "\u0643\u0648\u062a \u0632\u0627\u064a\u0631 \u0645\u0633\u0644\u0645", "name:ar1": "\u0643\u0648\u062a \u0632\u0627\u064a\u0631 \u0645\u0633\u0644\u0645", "name:de": "Kut Zayir Maslim", "name:en": "Kut Zayir Maslim", "name:fr": "Kut Zayir Maslim", "place": "village"}}, {"type": "node", "id": 2479316301, "lat": 30.3247087, "lon": 48.1931762, "tags": {"alt_name": "\u0642\u0631\u06cc\u0629 \u0633\u06cc\u062d\u0627\u0646", "int_name": "Qaryat Say\u1e29\u0101n, Saih\u0101n, Seihan, \u0642\u0631\u064a\u0629 \u0633\u064a\u062d\u0627\u0646, Qaryat Sayhan, Saihan, Seihan, \u0642\u0631\u064a\u0629 \u0633\u064a\u062d\u0627\u0646", "name": "\u0642\u0631\u064a\u0629 \u0633\u064a\u062d\u0627\u0646", "name:ar": "\u0642\u0631\u064a\u0629 \u0633\u064a\u062d\u0627\u0646", "name:de": "Qaryat Sayhan", "name:en": "Qaryat Sayhan", "name:fr": "Qaryat Sayhan", "place": "village"}}, {"type": "node", "id": 2479316304, "lat": 30.3258777, "lon": 48.1832079, "tags": {"alt_name": "\u0642\u0631\u064a\u0629 \u0627\u0644\u0642\u0637\u0639\u0629", "int_name": "Qaryat al Qa\u0163ah, \u0642\u0631\u064a\u0629 \u0627\u0644\u0642\u0637\u0639\u0629, Qaryat al Qatah, \u0642\u0631\u064a\u0629 \u0627\u0644\u0642\u0637\u0639\u0629", "name": "\u0642\u0631\u064a\u0629 \u0627\u0644\u0642\u0637\u0639\u0629", "name:ar": "\u0642\u0631\u064a\u0629 \u0627\u0644\u0642\u0637\u0639\u0629", "name:ar1": "\u0642\u0631\u064a\u0629 \u0627\u0644\u0642\u0637\u0639\u0629", "name:de": "Qaryat al Qatah", "name:en": "Qaryat al Qatah", "name:fr": "Qaryat al Qatah", "place": "village"}}, {"type": "node", "id": 2479316306, "lat": 30.323636, "lon": 48.194271, "tags": {"alt_name": "\u0632\u06cc\u0646", "int_name": "Zain, Zain", "is_in": "Iraq , \u062c\u0645\u0647\u0648\u0631\u064a\u0629 \u0627\u0644\u0639\u0631\u0627\u0642", "name": "\u0632\u064a\u0646", "name:ar": "\u0632\u064a\u0646", "name:de": "Zain", "name:en": "Zain", "name:fr": "Zain", "place": "village"}}, {"type": "node", "id": 2487916020, "lat": 30.1361717, "lon": 48.4022525, "tags": {"alt_name": "\u0623\u0628\u0648 \u0639\u0642\u0627\u0628", "int_name": "Ab\u016b Iq\u0101b, Abu Iqab", "is_in": "Iraq , \u062c\u0645\u0647\u0648\u0631\u064a\u0629 \u0627\u0644\u0639\u0631\u0627\u0642", "name": "\u0623\u0628\u0648 \u0639\u0642\u0627\u0628", "name:ar": "\u0623\u0628\u0648 \u0639\u0642\u0627\u0628", "name:ar1": "\u0623\u0628\u0648 \u0639\u0642\u0627\u0628", "name:de": "Abu Iqab", "name:en": "Abu Iqab", "name:fa": "\u0627\u0628\u0648\u0639\u0642\u0627\u0628", "name:fr": "Abu Iqab", "place": "village"}}, {"type": "node", "id": 2487916021, "lat": 30.1164131, "lon": 48.4308682, "tags": {"alt_name": "\u0623\u0628\u0648 \u062e\u0636\u0631\u0627\u0648\u064a", "int_name": "Ab\u016b Kha\u1e11r\u0101w\u012b, Abu Khadrawi", "is_in": "Iraq , \u062c\u0645\u0647\u0648\u0631\u064a\u0629 \u0627\u0644\u0639\u0631\u0627\u0642", "name": "\u0623\u0628\u0648 \u062e\u0636\u0631\u0627\u0648\u064a", "name:ar": "\u0623\u0628\u0648 \u062e\u0636\u0631\u0627\u0648\u064a", "name:ar1": "\u0623\u0628\u0648 \u062e\u0636\u0631\u0627\u0648\u064a", "name:de": "Abu Khadrawi", "name:en": "Abu Khadrawi", "name:fa": "\u0627\u0628\u0648\u062e\u0636\u0631\u0627\u0648\u06cc", "name:fr": "Abu Khadrawi", "place": "village"}}, {"type": "node", "id": 2487916036, "lat": 30.1207812, "lon": 48.4055614, "tags": {"alt_name": "\u0643\u0648\u062a \u0634\u0646\u0648\u0641", "int_name": "K\u016bt Shann\u016bf, Kut Shannuf", "is_in": "Iraq , \u062c\u0645\u0647\u0648\u0631\u064a\u0629 \u0627\u0644\u0639\u0631\u0627\u0642", "name": "\u0643\u0648\u062a \u0634\u0646\u0648\u0641", "name:ar": "\u0643\u0648\u062a \u0634\u0646\u0648\u0641", "name:ar1": "\u0643\u0648\u062a \u0634\u0646\u0648\u0641", "name:de": "Kut Shannuf", "name:en": "Kut Shannuf", "name:fr": "Kut Shannuf", "place": "village"}}, {"type": "node", "id": 2487916054, "lat": 30.034722, "lon": 48.4275, "tags": {"alt_name": "\u0645\u0639\u0645\u064a\u0631", "int_name": "Mam\u012br, Mamir", "is_in": "Iraq , \u062c\u0645\u0647\u0648\u0631\u064a\u0629 \u0627\u0644\u0639\u0631\u0627\u0642", "name": "\u0645\u0639\u0645\u064a\u0631", "name:ar": "\u0627\u0644\u0645\u0639\u0627\u0645\u0631", "name:ar1": "\u0645\u0639\u0645\u064a\u0631", "name:de": "Mamir", "name:en": "Mamir", "name:fr": "Mamir", "place": "village"}}, {"type": "node", "id": 3758758096, "lat": 30.325388, "lon": 48.2511626, "tags": {"name": "\u0646\u0627\u062d\u06cc\u0629 \u0627\u0644\u0633\u06cc\u0628\u0629", "place": "town"}}, {"type": "node", "id": 4099761109, "lat": 30.3240359, "lon": 48.2546797, "tags": {"name": "\u0627\u0644\u0634\u064a\u0644\u0634\u064a\u0629", "place": "village"}}, {"type": "node", "id": 4099761111, "lat": 30.3246193, "lon": 48.2585313, "tags": {"name": "\u0627\u0644\u06cc\u0627\u0644\u06cc", "place": "village"}}, {"type": "node", "id": 4100023976, "lat": 30.3351085, "lon": 48.2617252, "tags": {"name": "\u0627\u0644\u0634\u0644\u0647\u0629", "place": "village"}}, {"type": "node", "id": 4100023977, "lat": 30.3270242, "lon": 48.2490222, "tags": {"name": "\u0627\u0644\u0648\u06a9\u0641", "place": "village"}}, {"type": "node", "id": 4100023978, "lat": 30.3288763, "lon": 48.2452028, "tags": {"name": "\u0627\u0644\u0639\u0644\u0648\u0629", "name:ar": "\u0627\u0644\u0639\u0644\u0648\u0629", "place": "village"}}, {"type": "node", "id": 4100023979, "lat": 30.3299506, "lon": 48.2424776, "tags": {"name": "\u0634\u0646\u064a\u0646\u0629", "name:ar": "\u0634\u0646\u064a\u0646\u0629", "place": "village"}}, {"type": "node", "id": 4100023981, "lat": 30.3351918, "lon": 48.2576053, "tags": {"name": "\u0627\u0644\u0645\u062d\u0637\u0629", "place": "hamlet"}}, {"type": "node", "id": 4100100589, "lat": 30.3207338, "lon": 48.2402837, "tags": {"name": "\u0627\u0644\u0632\u0627\u0648\u064a\u0629", "place": "village"}}, {"type": "node", "id": 4902725430, "lat": 30.3344089, "lon": 48.2772715}, {"type": "node", "id": 4902725431, "lat": 30.3342877, "lon": 48.2773422}, {"type": "node", "id": 4902725432, "lat": 30.3339544, "lon": 48.2773851}, {"type": "node", "id": 4902725433, "lat": 30.3332691, "lon": 48.2781897}, {"type": "node", "id": 4902725434, "lat": 30.3333617, "lon": 48.2784258}, {"type": "node", "id": 4902725435, "lat": 30.333195, "lon": 48.2787691}, {"type": "node", "id": 4902725436, "lat": 30.331806, "lon": 48.2804321}, {"type": "node", "id": 4902725437, "lat": 30.3315652, "lon": 48.2805394}, {"type": "node", "id": 4902725438, "lat": 30.3284074, "lon": 48.2837902}, {"type": "node", "id": 4902725439, "lat": 30.3283426, "lon": 48.2841335}, {"type": "node", "id": 4902725440, "lat": 30.3277222, "lon": 48.2847987}, {"type": "node", "id": 4902725441, "lat": 30.3276018, "lon": 48.2850562}, {"type": "node", "id": 4902725442, "lat": 30.3268887, "lon": 48.2855497}, {"type": "node", "id": 4902725443, "lat": 30.3266572, "lon": 48.2853352}, {"type": "node", "id": 4902725444, "lat": 30.3263516, "lon": 48.285657}, {"type": "node", "id": 4902725445, "lat": 30.3262775, "lon": 48.285818}, {"type": "node", "id": 4902725446, "lat": 30.3252773, "lon": 48.2867514}, {"type": "node", "id": 4902725447, "lat": 30.3252125, "lon": 48.2869338}, {"type": "node", "id": 4902725448, "lat": 30.3242031, "lon": 48.287835}, {"type": "node", "id": 4902725449, "lat": 30.3191794, "lon": 48.293252}, {"type": "node", "id": 4902725459, "lat": 30.3241912, "lon": 48.2881402}, {"type": "node", "id": 4902725465, "lat": 30.3183808, "lon": 48.2948509}, {"type": "node", "id": 4902725473, "lat": 30.2989409, "lon": 48.3252781}, {"type": "node", "id": 4902725474, "lat": 30.3085941, "lon": 48.3065442}, {"type": "node", "id": 4902725475, "lat": 30.3132928, "lon": 48.300613}, {"type": "node", "id": 4902725476, "lat": 30.3160767, "lon": 48.2985118}, {"type": "node", "id": 4902725477, "lat": 30.3174676, "lon": 48.2967398}, {"type": "node", "id": 4902725479, "lat": 30.3219963, "lon": 48.3342582}, {"type": "node", "id": 4902725480, "lat": 30.3282912, "lon": 48.3295734}, {"type": "node", "id": 4902725481, "lat": 30.3266407, "lon": 48.3327662}, {"type": "node", "id": 4902725482, "lat": 30.3372323, "lon": 48.3194159}, {"type": "node", "id": 4902725485, "lat": 30.3145387, "lon": 48.3457884}, {"type": "node", "id": 4902725486, "lat": 30.3190056, "lon": 48.3391573}, {"type": "node", "id": 4902725487, "lat": 30.321659, "lon": 48.3357972}, {"type": "node", "id": 4902725488, "lat": 30.3383369, "lon": 48.3204983}, {"type": "node", "id": 4902725489, "lat": 30.3331069, "lon": 48.3249598}, {"type": "node", "id": 4902725490, "lat": 30.3267307, "lon": 48.3277744}, {"type": "node", "id": 4902725491, "lat": 30.3130626, "lon": 48.3472944}, {"type": "node", "id": 4902725493, "lat": 30.3251556, "lon": 48.3342076}, {"type": "node", "id": 4902725494, "lat": 30.294851, "lon": 48.3306926}, {"type": "node", "id": 4902725495, "lat": 30.3049371, "lon": 48.3119214}, {"type": "node", "id": 4902725496, "lat": 30.3077613, "lon": 48.3139469}, {"type": "node", "id": 4902725497, "lat": 30.3051658, "lon": 48.318294}, {"type": "node", "id": 4902725498, "lat": 30.3077385, "lon": 48.3201313}, {"type": "node", "id": 4902725499, "lat": 30.3013644, "lon": 48.3274199}, {"type": "node", "id": 4902725500, "lat": 30.3022763, "lon": 48.3398798}, {"type": "node", "id": 4902725501, "lat": 30.3049788, "lon": 48.3233553}, {"type": "node", "id": 4902725502, "lat": 30.3026797, "lon": 48.3217917}, {"type": "node", "id": 4902725503, "lat": 30.3010947, "lon": 48.3245777}, {"type": "node", "id": 4902725504, "lat": 30.3027133, "lon": 48.325784}, {"type": "node", "id": 4902725505, "lat": 30.3250446, "lon": 48.3313059}, {"type": "node", "id": 4902725506, "lat": 30.3272894, "lon": 48.3270391}, {"type": "node", "id": 4902725507, "lat": 30.3293996, "lon": 48.3289757}, {"type": "node", "id": 4902725508, "lat": 30.3305623, "lon": 48.3275056}, {"type": "node", "id": 4902725509, "lat": 30.3431517, "lon": 48.3157198}, {"type": "node", "id": 4902725511, "lat": 30.3356705, "lon": 48.3213597}, {"type": "node", "id": 4902725512, "lat": 30.336215, "lon": 48.3223883}, {"type": "node", "id": 4902725513, "lat": 30.3353175, "lon": 48.3235538}, {"type": "node", "id": 4902725514, "lat": 30.3343865, "lon": 48.3224517}, {"type": "node", "id": 4902725515, "lat": 30.332576, "lon": 48.3243746}, {"type": "node", "id": 4902725516, "lat": 30.3321842, "lon": 48.3260144}, {"type": "node", "id": 4902725517, "lat": 30.3315803, "lon": 48.3261801}, {"type": "node", "id": 4902725518, "lat": 30.332824, "lon": 48.3266182}, {"type": "node", "id": 4902725519, "lat": 30.3324617, "lon": 48.3269819}, {"type": "node", "id": 4902725520, "lat": 30.3272394, "lon": 48.3308178}, {"type": "node", "id": 4902725721, "lat": 30.3260688, "lon": 48.3296192}, {"type": "node", "id": 4902725722, "lat": 30.32536, "lon": 48.3304554}, {"type": "node", "id": 4902725723, "lat": 30.3264531, "lon": 48.3318103}, {"type": "node", "id": 4902725724, "lat": 30.3224783, "lon": 48.3356875}, {"type": "node", "id": 4902725725, "lat": 30.3221435, "lon": 48.3360716}, {"type": "node", "id": 4902725726, "lat": 30.3210604, "lon": 48.3344045}, {"type": "node", "id": 4902725727, "lat": 30.3213045, "lon": 48.3338948}, {"type": "node", "id": 4902725728, "lat": 30.3212357, "lon": 48.3364294}, {"type": "node", "id": 4902725729, "lat": 30.3204753, "lon": 48.3373719}, {"type": "node", "id": 4902725731, "lat": 30.3183091, "lon": 48.3400365}, {"type": "node", "id": 4902725732, "lat": 30.315682, "lon": 48.3413283}, {"type": "node", "id": 4902725733, "lat": 30.3161431, "lon": 48.3417604}, {"type": "node", "id": 4902725734, "lat": 30.3145465, "lon": 48.3451618}, {"type": "node", "id": 4902725743, "lat": 30.3417207, "lon": 48.3170854}, {"type": "node", "id": 5323514974, "lat": 30.1872741, "lon": 48.5808584}, {"type": "node", "id": 5323514975, "lat": 30.1950577, "lon": 48.5773739}, {"type": "node", "id": 5323514976, "lat": 30.1784614, "lon": 48.5814337}, {"type": "node", "id": 5323514977, "lat": 30.1827264, "lon": 48.581086}, {"type": "node", "id": 5323514978, "lat": 30.1945725, "lon": 48.5715189}, {"type": "node", "id": 5323514979, "lat": 30.1931046, "lon": 48.57555}, {"type": "node", "id": 5323514980, "lat": 30.1853674, "lon": 48.5804731}, {"type": "node", "id": 5323514981, "lat": 30.197305, "lon": 48.5714144}, {"type": "node", "id": 5323514982, "lat": 30.1748015, "lon": 48.5843586}, {"type": "node", "id": 5323514983, "lat": 30.2001849, "lon": 48.5541971}, {"type": "node", "id": 5323514984, "lat": 30.1785675, "lon": 48.5843474}, {"type": "node", "id": 5323514985, "lat": 30.172466, "lon": 48.5820554}, {"type": "node", "id": 5323514986, "lat": 30.1993338, "lon": 48.5405575}, {"type": "node", "id": 5323514987, "lat": 30.1749353, "lon": 48.582233}, {"type": "node", "id": 5323514988, "lat": 30.169681, "lon": 48.5818778}, {"type": "node", "id": 5323514989, "lat": 30.1888351, "lon": 48.579593}, {"type": "node", "id": 5323514990, "lat": 30.1983314, "lon": 48.5662367}, {"type": "node", "id": 5323514991, "lat": 30.1854208, "lon": 48.5837045}, {"type": "node", "id": 5323514992, "lat": 30.2003113, "lon": 48.558258}, {"type": "node", "id": 5323514993, "lat": 30.1929427, "lon": 48.5773229}, {"type": "node", "id": 5323514994, "lat": 30.1823673, "lon": 48.5842233}, {"type": "node", "id": 5323514995, "lat": 30.1813119, "lon": 48.5806575}, {"type": "node", "id": 5323514996, "lat": 30.1681442, "lon": 48.5831845}, {"type": "node", "id": 5323514997, "lat": 30.1776657, "lon": 48.581865}, {"type": "node", "id": 5323514998, "lat": 30.168726, "lon": 48.5816241}, {"type": "node", "id": 5323514999, "lat": 30.1818106, "lon": 48.5825118, "tags": {"alt_name": "\u0686\u0648\u0626\u0628\u062f\u0647", "name": "\u0686\u0648\u06cc\u0628\u062f\u0647", "name:ar": "\u062a\u0634\u0648\u064a\u0628\u062f\u0629", "name:azb": "\u0686\u0648\u06cc\u0628\u062f\u0647", "name:en": "Chavibdeh", "name:fa": "\u0686\u0648\u06cc\u0628\u062f\u0647", "place": "town", "population": "7906", "population:date": "2016", "source:population": "amar.org.ir", "wikidata": "Q5088507", "wikipedia": "fa:\u0686\u0648\u06cc\u0628\u062f\u0647"}}, {"type": "node", "id": 5323515000, "lat": 30.1957247, "lon": 48.5701299}, {"type": "node", "id": 5323515001, "lat": 30.1996675, "lon": 48.5573447}, {"type": "node", "id": 5323515002, "lat": 30.2006725, "lon": 48.561562}, {"type": "node", "id": 5323515003, "lat": 30.1695915, "lon": 48.5841218}, {"type": "node", "id": 5323515004, "lat": 30.1873328, "lon": 48.5829942}, {"type": "node", "id": 5323515005, "lat": 30.1904592, "lon": 48.5817651}, {"type": "node", "id": 5323515006, "lat": 30.1922486, "lon": 48.5743193}, {"type": "node", "id": 5323515007, "lat": 30.200704, "lon": 48.5688881}, {"type": "node", "id": 5323515008, "lat": 30.1935655, "lon": 48.5765585}, {"type": "node", "id": 5323515009, "lat": 30.1947562, "lon": 48.5749537}, {"type": "node", "id": 5323515010, "lat": 30.1904018, "lon": 48.5794629}, {"type": "node", "id": 5323515011, "lat": 30.1886742, "lon": 48.5826221}, {"type": "node", "id": 5323515012, "lat": 30.1989694, "lon": 48.572548}, {"type": "node", "id": 5323515013, "lat": 30.2022952, "lon": 48.5639759}, {"type": "node", "id": 5323515014, "lat": 30.2032709, "lon": 48.5506142}, {"type": "node", "id": 5323515015, "lat": 30.1927712, "lon": 48.5797806}, {"type": "node", "id": 5323515016, "lat": 30.1915486, "lon": 48.5785559}, {"type": "node", "id": 5323515017, "lat": 30.1986935, "lon": 48.5648795}, {"type": "node", "id": 5323515018, "lat": 30.2012723, "lon": 48.5586414}, {"type": "node", "id": 5323515019, "lat": 30.2017397, "lon": 48.5462957}, {"type": "node", "id": 5323515020, "lat": 30.198427, "lon": 48.5439403}, {"type": "node", "id": 5323515321, "lat": 30.1988418, "lon": 48.5675054}, {"type": "node", "id": 5323515322, "lat": 30.2035046, "lon": 48.5587779}, {"type": "node", "id": 5323515323, "lat": 30.1938453, "lon": 48.573907}, {"type": "node", "id": 5323515324, "lat": 30.2037097, "lon": 48.5546622}, {"type": "node", "id": 5323515325, "lat": 30.2000024, "lon": 48.5501925}, {"type": "node", "id": 5323515326, "lat": 30.196065, "lon": 48.5729492}, {"type": "node", "id": 5323515327, "lat": 30.1999169, "lon": 48.5633066}, {"type": "node", "id": 5323515328, "lat": 30.1975879, "lon": 48.5410988}, {"type": "node", "id": 5323515329, "lat": 30.1713464, "lon": 48.5818715}, {"type": "node", "id": 5323515330, "lat": 30.2006238, "lon": 48.5527538}, {"type": "node", "id": 5323515331, "lat": 30.1808894, "lon": 48.5816114}, {"type": "node", "id": 5323515332, "lat": 30.2001291, "lon": 48.5477795}, {"type": "node", "id": 5607517014, "lat": 30.3831736, "lon": 48.2570959}, {"type": "node", "id": 5607517020, "lat": 30.3885322, "lon": 48.2799946}, {"type": "node", "id": 5607519730, "lat": 30.3404367, "lon": 48.2649383}, {"type": "node", "id": 5607519732, "lat": 30.3626463, "lon": 48.2923113}, {"type": "node", "id": 5607519735, "lat": 30.3466737, "lon": 48.2539048}, {"type": "node", "id": 5607519741, "lat": 30.3946773, "lon": 48.2618357}, {"type": "node", "id": 5607519742, "lat": 30.3919422, "lon": 48.2675273}, {"type": "node", "id": 5607519743, "lat": 30.3953056, "lon": 48.281132}, {"type": "node", "id": 5607519745, "lat": 30.4002483, "lon": 48.2548317}, {"type": "node", "id": 5607519749, "lat": 30.3646666, "lon": 48.290107}, {"type": "node", "id": 5607519751, "lat": 30.3917099, "lon": 48.2780547}, {"type": "node", "id": 5607519757, "lat": 30.359574, "lon": 48.2959476}, {"type": "node", "id": 5607519763, "lat": 30.4006442, "lon": 48.2579222}, {"type": "node", "id": 5607519769, "lat": 30.3467201, "lon": 48.2473824}, {"type": "node", "id": 5607519777, "lat": 30.4016822, "lon": 48.2552759}, {"type": "node", "id": 5607519790, "lat": 30.392568, "lon": 48.2699721}, {"type": "node", "id": 5607519796, "lat": 30.3888149, "lon": 48.2587772}, {"type": "node", "id": 5607519802, "lat": 30.3442735, "lon": 48.2589608}, {"type": "node", "id": 5607519806, "lat": 30.3848932, "lon": 48.2595737}, {"type": "node", "id": 5607519824, "lat": 30.3978451, "lon": 48.2574506}, {"type": "node", "id": 5607519827, "lat": 30.3437741, "lon": 48.2520614}, {"type": "node", "id": 5607519832, "lat": 30.3989092, "lon": 48.2504593}, {"type": "node", "id": 5607519841, "lat": 30.3509964, "lon": 48.2411134}, {"type": "node", "id": 5607519844, "lat": 30.3997945, "lon": 48.2521221}, {"type": "node", "id": 5607519846, "lat": 30.385999, "lon": 48.2593438}, {"type": "node", "id": 5607519850, "lat": 30.4004452, "lon": 48.2672218}, {"type": "node", "id": 5607519854, "lat": 30.4009686, "lon": 48.2558602}, {"type": "node", "id": 5607519856, "lat": 30.3456534, "lon": 48.3130952}, {"type": "node", "id": 5607519875, "lat": 30.3070707, "lon": 48.3086028}, {"type": "node", "id": 5607519878, "lat": 30.3160412, "lon": 48.3407829}, {"type": "node", "id": 5607519889, "lat": 30.3897345, "lon": 48.2798761}, {"type": "node", "id": 5607519891, "lat": 30.3945758, "lon": 48.272861}, {"type": "node", "id": 5607519894, "lat": 30.3666808, "lon": 48.28616}, {"type": "node", "id": 5607519897, "lat": 30.3990782, "lon": 48.2560161}, {"type": "node", "id": 5607519898, "lat": 30.3454257, "lon": 48.246224}, {"type": "node", "id": 5607519901, "lat": 30.3448953, "lon": 48.313913}, {"type": "node", "id": 5607519907, "lat": 30.3489232, "lon": 48.3097648}, {"type": "node", "id": 5607519909, "lat": 30.3514583, "lon": 48.3065695}, {"type": "node", "id": 5607519911, "lat": 30.3994876, "lon": 48.2590929}, {"type": "node", "id": 5607519912, "lat": 30.3919731, "lon": 48.2499219}, {"type": "node", "id": 5607519916, "lat": 30.3489905, "lon": 48.2442433}, {"type": "node", "id": 5607519917, "lat": 30.3959699, "lon": 48.2815811}, {"type": "node", "id": 5607519922, "lat": 30.3994476, "lon": 48.2776066}, {"type": "node", "id": 5607519923, "lat": 30.3900941, "lon": 48.2506264}, {"type": "node", "id": 5607519933, "lat": 30.3567476, "lon": 48.2992551}, {"type": "node", "id": 5607519939, "lat": 30.3450601, "lon": 48.2571191}, {"type": "node", "id": 5607519947, "lat": 30.3915942, "lon": 48.2398162}, {"type": "node", "id": 5607519955, "lat": 30.3466384, "lon": 48.3120129}, {"type": "node", "id": 5607519957, "lat": 30.3918362, "lon": 48.2679686}, {"type": "node", "id": 5607519959, "lat": 30.3854985, "lon": 48.2544696}, {"type": "node", "id": 5607519962, "lat": 30.397448, "lon": 48.2760091}, {"type": "node", "id": 5607519968, "lat": 30.3879174, "lon": 48.2518764}, {"type": "node", "id": 5607519972, "lat": 30.3896263, "lon": 48.2598285}, {"type": "node", "id": 5660672761, "lat": 30.3967536, "lon": 48.2192852}, {"type": "node", "id": 5660672765, "lat": 30.3940421, "lon": 48.2209186}, {"type": "node", "id": 5660672768, "lat": 30.3943498, "lon": 48.2214336}, {"type": "node", "id": 5660672769, "lat": 30.3939681, "lon": 48.2218494}, {"type": "node", "id": 5660672770, "lat": 30.3935054, "lon": 48.2212003}, {"type": "node", "id": 5660672771, "lat": 30.3923578, "lon": 48.2223349}, {"type": "node", "id": 5660672779, "lat": 30.3842784, "lon": 48.2208569}, {"type": "node", "id": 5660672780, "lat": 30.3885982, "lon": 48.2169249}, {"type": "node", "id": 5670400569, "lat": 30.3916753, "lon": 48.2405014}, {"type": "node", "id": 5670400572, "lat": 30.3900951, "lon": 48.2398228}, {"type": "node", "id": 5670400573, "lat": 30.389674, "lon": 48.2394769}, {"type": "node", "id": 5670400574, "lat": 30.3898498, "lon": 48.2392059}, {"type": "node", "id": 5670400575, "lat": 30.3891326, "lon": 48.2385112}, {"type": "node", "id": 5670400578, "lat": 30.3893293, "lon": 48.2382189}, {"type": "node", "id": 5670400579, "lat": 30.389158, "lon": 48.2377334}, {"type": "node", "id": 5670400582, "lat": 30.3910669, "lon": 48.239458}, {"type": "node", "id": 5670400584, "lat": 30.3907684, "lon": 48.2394688}, {"type": "node", "id": 5670400585, "lat": 30.3913236, "lon": 48.2394795}, {"type": "node", "id": 5670400586, "lat": 30.3904583, "lon": 48.23923}, {"type": "node", "id": 5907878211, "lat": 30.3342594, "lon": 48.3405948}, {"type": "node", "id": 5907878212, "lat": 30.3330463, "lon": 48.342644}, {"type": "node", "id": 5907878213, "lat": 30.3323889, "lon": 48.3437705}, {"type": "node", "id": 5907878214, "lat": 30.3310183, "lon": 48.346281}, {"type": "node", "id": 5907878215, "lat": 30.3303701, "lon": 48.3472681}, {"type": "node", "id": 5907878216, "lat": 30.3296015, "lon": 48.3488774}, {"type": "node", "id": 5907878217, "lat": 30.328231, "lon": 48.3517849}, {"type": "node", "id": 5907878218, "lat": 30.3271289, "lon": 48.3538449}, {"type": "node", "id": 5907878219, "lat": 30.325425, "lon": 48.3566666}, {"type": "node", "id": 5907878220, "lat": 30.3234246, "lon": 48.3598745}, {"type": "node", "id": 5907878221, "lat": 30.3211093, "lon": 48.3637905}, {"type": "node", "id": 5907878222, "lat": 30.3193173, "lon": 48.3666712}, {"type": "node", "id": 5907878223, "lat": 30.3186921, "lon": 48.3675563}, {"type": "node", "id": 5907878224, "lat": 30.317678, "lon": 48.3666873}, {"type": "node", "id": 5907878225, "lat": 30.3177752, "lon": 48.3663601}, {"type": "node", "id": 5907878226, "lat": 30.3179002, "lon": 48.3662152}, {"type": "node", "id": 5907878227, "lat": 30.3180994, "lon": 48.3662957}, {"type": "node", "id": 5907878228, "lat": 30.3185254, "lon": 48.3655447}, {"type": "node", "id": 5907878229, "lat": 30.3185161, "lon": 48.3653086}, {"type": "node", "id": 5907878230, "lat": 30.3187847, "lon": 48.3650726}, {"type": "node", "id": 5907878231, "lat": 30.3190163, "lon": 48.3651692}, {"type": "node", "id": 5907878232, "lat": 30.3194145, "lon": 48.3644557}, {"type": "node", "id": 5907878233, "lat": 30.3199054, "lon": 48.3637422}, {"type": "node", "id": 5907878234, "lat": 30.3192617, "lon": 48.3632219}, {"type": "node", "id": 5907878235, "lat": 30.3194423, "lon": 48.3629107}, {"type": "node", "id": 5907878236, "lat": 30.320248, "lon": 48.363415}, {"type": "node", "id": 5907878237, "lat": 30.320674, "lon": 48.3625889}, {"type": "node", "id": 5907878238, "lat": 30.3205768, "lon": 48.3623314}, {"type": "node", "id": 5907878239, "lat": 30.3210445, "lon": 48.3618379}, {"type": "node", "id": 5907878240, "lat": 30.3212066, "lon": 48.3615696}, {"type": "node", "id": 5907878241, "lat": 30.3212066, "lon": 48.3611619}, {"type": "node", "id": 5907878242, "lat": 30.3209797, "lon": 48.3608454}, {"type": "node", "id": 5907878243, "lat": 30.3211741, "lon": 48.3604002}, {"type": "node", "id": 5907878244, "lat": 30.3208083, "lon": 48.3601159}, {"type": "node", "id": 5907878245, "lat": 30.3212853, "lon": 48.3593273}, {"type": "node", "id": 5907878254, "lat": 30.3234524, "lon": 48.3565861}, {"type": "node", "id": 5907878255, "lat": 30.3237256, "lon": 48.3561784}, {"type": "node", "id": 5907878256, "lat": 30.3237348, "lon": 48.3558994}, {"type": "node", "id": 5907878257, "lat": 30.3238877, "lon": 48.3556795}, {"type": "node", "id": 5907878258, "lat": 30.3237904, "lon": 48.3556044}, {"type": "node", "id": 5907878259, "lat": 30.3238969, "lon": 48.3554918}, {"type": "node", "id": 5907878260, "lat": 30.3242488, "lon": 48.3555078}, {"type": "node", "id": 5907878261, "lat": 30.324485, "lon": 48.3556741}, {"type": "node", "id": 5907878262, "lat": 30.3250453, "lon": 48.3547568}, {"type": "node", "id": 5907878263, "lat": 30.324786, "lon": 48.3545423}, {"type": "node", "id": 5907878264, "lat": 30.3249295, "lon": 48.3541989}, {"type": "node", "id": 5907878265, "lat": 30.3250453, "lon": 48.3543277}, {"type": "node", "id": 5907878266, "lat": 30.3253555, "lon": 48.3539844}, {"type": "node", "id": 5907878267, "lat": 30.3251657, "lon": 48.3538234}, {"type": "node", "id": 5907878268, "lat": 30.3253046, "lon": 48.3535874}, {"type": "node", "id": 5907878269, "lat": 30.3259436, "lon": 48.3540863}, {"type": "node", "id": 5907878270, "lat": 30.3261241, "lon": 48.3537376}, {"type": "node", "id": 5907878271, "lat": 30.3254666, "lon": 48.3532172}, {"type": "node", "id": 5907878272, "lat": 30.3256241, "lon": 48.3529758}, {"type": "node", "id": 5907878273, "lat": 30.3251101, "lon": 48.3525145}, {"type": "node", "id": 5907878274, "lat": 30.3258556, "lon": 48.3512485}, {"type": "node", "id": 5907878288, "lat": 30.3283282, "lon": 48.3491886}, {"type": "node", "id": 5907878289, "lat": 30.3280133, "lon": 48.3486628}, {"type": "node", "id": 5907878290, "lat": 30.3280782, "lon": 48.3481318}, {"type": "node", "id": 5907878291, "lat": 30.3281985, "lon": 48.3478635}, {"type": "node", "id": 5907878292, "lat": 30.3283513, "lon": 48.3479923}, {"type": "node", "id": 5907878293, "lat": 30.3285736, "lon": 48.3483678}, {"type": "node", "id": 5907878294, "lat": 30.3287634, "lon": 48.3482605}, {"type": "node", "id": 5907878295, "lat": 30.3290644, "lon": 48.3485717}, {"type": "node", "id": 5907878296, "lat": 30.3296756, "lon": 48.3472735}, {"type": "node", "id": 5907878297, "lat": 30.329796, "lon": 48.3473271}, {"type": "node", "id": 5907878298, "lat": 30.3300784, "lon": 48.3466405}, {"type": "node", "id": 5907878299, "lat": 30.3296154, "lon": 48.3463561}, {"type": "node", "id": 5907878300, "lat": 30.3297219, "lon": 48.3460826}, {"type": "node", "id": 5907878301, "lat": 30.3296293, "lon": 48.3459914}, {"type": "node", "id": 5907878302, "lat": 30.3299256, "lon": 48.3453745}, {"type": "node", "id": 5907878303, "lat": 30.3305507, "lon": 48.3458626}, {"type": "node", "id": 5907878304, "lat": 30.330685, "lon": 48.3455408}, {"type": "node", "id": 5907878305, "lat": 30.3304303, "lon": 48.3449131}, {"type": "node", "id": 5907878306, "lat": 30.3306433, "lon": 48.344484}, {"type": "node", "id": 5907878307, "lat": 30.3311017, "lon": 48.3441353}, {"type": "node", "id": 5907878308, "lat": 30.3312776, "lon": 48.3437598}, {"type": "node", "id": 5907878309, "lat": 30.3311897, "lon": 48.3436203}, {"type": "node", "id": 5907878310, "lat": 30.3315369, "lon": 48.343116}, {"type": "node", "id": 5907878311, "lat": 30.3321435, "lon": 48.3430785}, {"type": "node", "id": 5907878312, "lat": 30.332324, "lon": 48.3426225}, {"type": "node", "id": 5907878313, "lat": 30.3321898, "lon": 48.3420485}, {"type": "node", "id": 5907878314, "lat": 30.3324398, "lon": 48.3416408}, {"type": "node", "id": 5907878315, "lat": 30.3326574, "lon": 48.3412653}, {"type": "node", "id": 5907878316, "lat": 30.3329028, "lon": 48.3414316}, {"type": "node", "id": 5907878317, "lat": 30.3330741, "lon": 48.3411366}, {"type": "node", "id": 5907878318, "lat": 30.332838, "lon": 48.3409649}, {"type": "node", "id": 5907878319, "lat": 30.3330463, "lon": 48.3406591}, {"type": "node", "id": 5907878320, "lat": 30.3329815, "lon": 48.340348}, {"type": "node", "id": 5907878321, "lat": 30.3331713, "lon": 48.3401602}, {"type": "node", "id": 5907878322, "lat": 30.333713, "lon": 48.3405626}, {"type": "node", "id": 5907878323, "lat": 30.3341529, "lon": 48.3397955}, {"type": "node", "id": 5907878324, "lat": 30.3338195, "lon": 48.3393449}, {"type": "node", "id": 5907878325, "lat": 30.3346113, "lon": 48.3381057}, {"type": "node", "id": 5907878326, "lat": 30.3349863, "lon": 48.3375639}, {"type": "node", "id": 5907878327, "lat": 30.3352039, "lon": 48.3377409}, {"type": "node", "id": 5907878328, "lat": 30.3355836, "lon": 48.338213}, {"type": "node", "id": 5974077795, "lat": 30.3268917, "lon": 48.332494}, {"type": "node", "id": 6070566235, "lat": 30.2584704, "lon": 48.451118, "tags": {"name": "\u0637\u0631\u0647 \u0628\u062e\u0627\u062e \u067e\u0631\u062f\u06cc\u0633", "place": "village"}}, {"type": "node", "id": 7994401190, "lat": 30.1312865, "lon": 48.4092718, "tags": {"name": "\u0623\u0628\u0648 \u0634\u06a9\u0631", "name:fa": "\u0627\u0628\u0648\u0634\u06a9\u0631", "place": "village"}}, {"type": "node", "id": 7994401191, "lat": 30.1366861, "lon": 48.4148284, "tags": {"name": "\u0646\u0647\u0631 \u06a9\u0648\u062a", "place": "village"}}, {"type": "node", "id": 7994401192, "lat": 30.139164, "lon": 48.4148393, "tags": {"name": "\u062e\u0632\u0639\u0644 \u0622\u0628\u0627\u062f", "place": "village"}}, {"type": "node", "id": 7994401193, "lat": 30.103125, "lon": 48.4376116, "tags": {"name": "\u0646\u0647\u0631 \u0639\u0641\u0627\u062f\u0644\u0647", "place": "village"}}, {"type": "node", "id": 7994401194, "lat": 30.1102359, "lon": 48.4331509, "tags": {"name": "\u0646\u0647\u0631 \u0633\u0644\u06cc\u0645", "place": "village"}}, {"type": "node", "id": 7994401195, "lat": 30.1130048, "lon": 48.431687, "tags": {"name": "\u0623\u0628\u0648 \u062f\u06cc\u0631\u0647", "name:fa": "\u0627\u0628\u0648 \u062f\u06cc\u0631\u0647", "place": "village"}}, {"type": "node", "id": 7994401196, "lat": 30.0970439, "lon": 48.4426992, "tags": {"name": "\u0623\u0644\u0628\u0648\u062d\u0645\u06cc\u062f", "name:fa": "\u0627\u0628\u0648\u062d\u0645\u06cc\u062f", "place": "village"}}, {"type": "node", "id": 7994401197, "lat": 30.0766946, "lon": 48.4555476, "tags": {"name": "\u0639\u0631\u0627\u0636\u0647", "place": "village"}}, {"type": "node", "id": 7994425855, "lat": 29.9672996, "lon": 48.6035585, "tags": {"name": "\u0623\u0628\u0648 \u0641\u0644\u0648\u0633", "name:fa": "\u0627\u0628\u0648\u0641\u0644\u0648\u0633", "place": "village"}}, {"type": "node", "id": 7994425856, "lat": 29.9652083, "lon": 48.6090946, "tags": {"name": "\u0642\u0627\u0633\u0645\u06cc\u0647", "place": "village"}}, {"type": "node", "id": 7994425857, "lat": 29.9668716, "lon": 48.5959555, "tags": {"name": "\u0628\u0686\u0627\u0686\u0631\u0647 \u0633\u0641\u0644\u06cc", "place": "village"}}, {"type": "node", "id": 7994425858, "lat": 29.9739247, "lon": 48.5970713, "tags": {"name": "\u0628\u0686\u0627\u0686\u0631\u0647 \u0639\u0644\u06cc\u0627", "place": "village"}}, {"type": "node", "id": 7994425859, "lat": 29.9752378, "lon": 48.5892455, "tags": {"name": "\u0627\u0628\u0637\u0631", "place": "village"}}, {"type": "node", "id": 7994425860, "lat": 29.9754193, "lon": 48.5856222, "tags": {"name": "\u0646\u0647\u0631 \u062d\u0627\u062c\u06cc \u0645\u062d\u0645\u062f", "place": "village"}}, {"type": "node", "id": 7994425861, "lat": 29.9732283, "lon": 48.574078, "tags": {"name": "\u0646\u0627\u0647\u06cc", "place": "village"}}, {"type": "node", "id": 7994425862, "lat": 29.9691874, "lon": 48.5760104, "tags": {"name": "\u0639\u0648\u0641\u06cc", "place": "village"}}, {"type": "node", "id": 7994425863, "lat": 29.9719827, "lon": 48.5701361, "tags": {"name": "\u0639\u0644\u0645", "place": "village"}}, {"type": "node", "id": 7994425864, "lat": 29.9717432, "lon": 48.5669406, "tags": {"name": "\u0639\u06cc\u0627\u0634 \u0634\u0646\u0648\u0641", "place": "village"}}, {"type": "node", "id": 7994425865, "lat": 29.9703659, "lon": 48.5551491, "tags": {"name": "\u0646\u0634\u0645\u06cc", "place": "village"}}, {"type": "node", "id": 8038991114, "lat": 30.283198, "lon": 48.4105775, "tags": {"name": "\u0637\u0631\u0647 \u062e\u0636\u0631", "place": "village"}}, {"type": "node", "id": 8439395898, "lat": 30.219272, "lon": 48.4677698, "tags": {"name": "\u0631\u0648\u0633\u062a\u0627\u06cc \u062a\u0646\u06af\u0647 \u06cc\u06a9", "place": "village"}}, {"type": "node", "id": 8523245287, "lat": 30.1839009, "lon": 48.4318864, "tags": {"name": "\u0646\u0642\u0634\u0647 \u062d\u06cc\u0631", "place": "village"}}, {"type": "node", "id": 8523263714, "lat": 30.2334913, "lon": 48.3893037, "tags": {"name": "\u062b\u0648\u0627\u0645\u0631", "place": "village"}}, {"type": "node", "id": 8523278293, "lat": 30.2208145, "lon": 48.4035462, "tags": {"name": "\u0634\u0644\u062d\u0647 \u0627\u0645\u0627\u0645 \u062d\u0633\u0646 \u0639\u0633\u06a9\u0631\u06cc", "place": "village"}}, {"type": "node", "id": 8523285669, "lat": 30.2586039, "lon": 48.3682644, "tags": {"name": "\u0634\u0644\u062d\u0647 \u062d\u0627\u062c \u062d\u0633\u06cc\u0646", "place": "village"}}, {"type": "node", "id": 9598967992, "lat": 30.1628141, "lon": 48.4262344, "tags": {"name": "\u062e\u0633\u0631\u0648 \u0622\u0628\u0627\u062f", "place": "village"}}, {"type": "node", "id": 9641985372, "lat": 29.9743957, "lon": 48.471826, "tags": {"name": "\u0627\u0644\u0641\u0627\u0648", "name:ar": "\u0627\u0644\u0641\u0627\u0648", "name:ckb": "\u0641\u0627\u0648", "name:cs": "Fao", "name:de": "Faw", "name:en": "Al-Faw", "name:fa": "\u0641\u0627\u0648", "name:fr": "Fao", "name:hr": "Fao", "name:ku": "Faw", "name:ml": "\u0d05\u0d7d-\u0d2b\u0d3e\u0d35\u0d41", "name:ru": "\u042d\u043b\u044c-\u0424\u0430\u043e", "name:tr": "El-Fav", "name:uk": "\u0415\u043b\u044c-\u0424\u0430\u043e", "name:zh": "\u6cd5\u5965", "place": "city", "population": "105080", "wikidata": "Q1164081", "wikipedia": "ar:\u0627\u0644\u0641\u0627\u0648 (\u0627\u0644\u0639\u0631\u0627\u0642)"}}, {"type": "node", "id": 9792261013, "lat": 30.3223226, "lon": 48.2193803, "tags": {"is_in:country": "Iran", "name": "\u0637\u0627\u0644\u0628 \u0639\u0635\u0641\u0648\u0631", "place": "hamlet"}}, {"type": "node", "id": 9792279417, "lat": 30.3396208, "lon": 48.2203674, "tags": {"is_in:country": "Iran", "name": "\u0635\u0645\u062f\u06cc\u0647", "place": "village"}}, {"type": "node", "id": 9792279428, "lat": 30.3387319, "lon": 48.2235002, "tags": {"alt_name": "\u062d\u0633\u0646 \u0645\u0638\u0644\u0648\u0645", "is_in:country": "Iran", "name": "\u0639\u0627\u0633\u0645\u06cc\u0647", "place": "hamlet"}}, {"type": "node", "id": 9792279432, "lat": 30.338806, "lon": 48.2209682, "tags": {"is_in:country": "Iran", "name": "\u0631\u0648\u06cc\u0633 \u0637\u0639\u0645\u0647", "place": "village"}}, {"type": "node", "id": 9792279440, "lat": 30.3385837, "lon": 48.2253027, "tags": {"is_in:country": "Iran", "name": "\u063a\u0627\u0646\u0645\u06cc\u0647 \u0639\u06cc\u0633\u06cc", "place": "village"}}, {"type": "node", "id": 9792279442, "lat": 30.3418431, "lon": 48.200798, "tags": {"is_in:country": "Iran", "name": "\u0627\u0645 \u0627\u0644\u0642\u0635\u0628", "place": "hamlet"}}, {"type": "node", "id": 9792279446, "lat": 30.3428801, "lon": 48.1986522, "tags": {"is_in:country": "Iran", "name": "\u0628\u062d\u0631\u06cc\u0647 \u0635\u0627\u062f\u0642", "place": "hamlet"}}, {"type": "node", "id": 9792279449, "lat": 30.3353984, "lon": 48.221569, "tags": {"alt_name": "\u0628\u062d\u0631\u06cc\u0647", "is_in:country": "Iran", "name": "\u0646\u062c\u0645 \u062f\u06cc\u0648\u0627\u0646", "place": "hamlet"}}, {"type": "node", "id": 9792279453, "lat": 30.3390282, "lon": 48.2007122, "tags": {"is_in:country": "Iran", "name": "\u06a9\u0628\u0631\u06cc\u062a\u0644\u0627\u0641\u06cc", "place": "hamlet"}}, {"type": "node", "id": 9792279455, "lat": 30.3242118, "lon": 48.2192087, "tags": {"is_in:country": "Iran", "name": "\u0645\u0636\u0631\u0648\u0628\u0647", "place": "hamlet"}}, {"type": "node", "id": 9929532284, "lat": 30.3228782, "lon": 48.35922, "tags": {"name": "\u0633\u0627\u062f\u0627\u062a", "place": "village"}}, {"type": "node", "id": 10091598714, "lat": 30.2930808, "lon": 48.3774054, "tags": {"name": "\u0631\u0648\u0633\u062a\u0627\u06cc \u0645\u063a\u06cc\u0637\u06cc\u0647", "place": "village"}}, {"type": "node", "id": 10857465627, "lat": 30.3219706, "lon": 48.3578467}, {"type": "node", "id": 10982315875, "lat": 30.3102083, "lon": 48.3703995, "tags": {"name": "\u0645\u0644\u0627\u06a9\u0647", "place": "village"}}, {"type": "node", "id": 11011679171, "lat": 30.1906059, "lon": 48.5097992, "tags": {"name": "\u062a\u0646\u06af\u0647 \u06f3", "place": "village"}}, {"type": "node", "id": 11074646120, "lat": 30.2544553, "lon": 48.4543682, "tags": {"name": "\u0635\u06cc\u062f\u0627\u0648\u06cc\u0647", "place": "village"}}, {"type": "node", "id": 11076006062, "lat": 30.3784543, "lon": 48.2873663}, {"type": "node", "id": 11076006063, "lat": 30.3787852, "lon": 48.2873046}, {"type": "node", "id": 11076006064, "lat": 30.377966, "lon": 48.2872537}, {"type": "node", "id": 11076006065, "lat": 30.3762815, "lon": 48.286103}, {"type": "node", "id": 11076006066, "lat": 30.3756613, "lon": 48.287015}, {"type": "node", "id": 11076006067, "lat": 30.374819, "lon": 48.2863819}, {"type": "node", "id": 11076006068, "lat": 30.3737083, "lon": 48.288356}, {"type": "node", "id": 11076006069, "lat": 30.3732825, "lon": 48.2879054}, {"type": "node", "id": 11076006070, "lat": 30.3677285, "lon": 48.2836997}, {"type": "node", "id": 11076006071, "lat": 30.3410791, "lon": 48.317855}, {"type": "node", "id": 11076006072, "lat": 30.3106789, "lon": 48.3482963}, {"type": "node", "id": 11076006073, "lat": 30.3213316, "lon": 48.3382344}, {"type": "node", "id": 11076006074, "lat": 30.3219706, "lon": 48.3372474}, {"type": "node", "id": 11076006075, "lat": 30.3229338, "lon": 48.3333528}, {"type": "node", "id": 11076006076, "lat": 30.3248045, "lon": 48.3347368}, {"type": "node", "id": 11076006077, "lat": 30.3239988, "lon": 48.332752}, {"type": "node", "id": 11076006078, "lat": 30.319396, "lon": 48.3398974}, {"type": "node", "id": 11076006079, "lat": 30.3190348, "lon": 48.3405197}, {"type": "node", "id": 11076006080, "lat": 30.3169139, "lon": 48.3416676}, {"type": "node", "id": 11076006081, "lat": 30.3122258, "lon": 48.3464707}, {"type": "node", "id": 11076006082, "lat": 30.3085318, "lon": 48.3508301}, {"type": "node", "id": 11076006083, "lat": 30.3095136, "lon": 48.3518922}, {"type": "node", "id": 11076006084, "lat": 30.3090319, "lon": 48.3525789}, {"type": "node", "id": 11076006085, "lat": 30.3083836, "lon": 48.3520317}, {"type": "node", "id": 11076006086, "lat": 30.3069849, "lon": 48.3539522}, {"type": "node", "id": 11076006087, "lat": 30.3029927, "lon": 48.3500361}, {"type": "node", "id": 11076006088, "lat": 30.3070764, "lon": 48.3447334}, {"type": "node", "id": 11076006089, "lat": 30.3789055, "lon": 48.2872456}, {"type": "node", "id": 11076006090, "lat": 30.379005, "lon": 48.2871518}, {"type": "node", "id": 11076006091, "lat": 30.3791346, "lon": 48.2868755}, {"type": "node", "id": 11076006092, "lat": 30.3792179, "lon": 48.2865697}, {"type": "node", "id": 11076006093, "lat": 30.3792433, "lon": 48.2863605}, {"type": "node", "id": 11076006094, "lat": 30.3796876, "lon": 48.2856524}, {"type": "node", "id": 11076006095, "lat": 30.3812333, "lon": 48.2851481}, {"type": "node", "id": 11076006096, "lat": 30.3852501, "lon": 48.2845795}, {"type": "node", "id": 11076006097, "lat": 30.3863885, "lon": 48.282541}, {"type": "node", "id": 11076006098, "lat": 30.3847226, "lon": 48.2813608}, {"type": "node", "id": 11076006099, "lat": 30.3867217, "lon": 48.2777774}, {"type": "node", "id": 11076006100, "lat": 30.3977993, "lon": 48.278861}, {"type": "node", "id": 11076006101, "lat": 30.3984008, "lon": 48.2793546}, {"type": "node", "id": 11076006102, "lat": 30.3943661, "lon": 48.2639372}, {"type": "node", "id": 11076006103, "lat": 30.3995298, "lon": 48.2685292}, {"type": "node", "id": 11076006104, "lat": 30.3921635, "lon": 48.256191}, {"type": "node", "id": 11076034005, "lat": 30.3934568, "lon": 48.2480854}, {"type": "node", "id": 11076034006, "lat": 30.3948565, "lon": 48.247093}, {"type": "node", "id": 11076034007, "lat": 30.3942365, "lon": 48.2460523}, {"type": "node", "id": 11076034008, "lat": 30.3919784, "lon": 48.2430267}, {"type": "node", "id": 11076034009, "lat": 30.3909234, "lon": 48.2418573}, {"type": "node", "id": 11076034010, "lat": 30.3937877, "lon": 48.2493058}, {"type": "node", "id": 11076034011, "lat": 30.389003, "lon": 48.2379037}, {"type": "node", "id": 11076034012, "lat": 30.3370605, "lon": 48.2727939}, {"type": "node", "id": 11076034013, "lat": 30.3360373, "lon": 48.2745963}, {"type": "node", "id": 11076034014, "lat": 30.3352919, "lon": 48.2757014}, {"type": "node", "id": 11076034015, "lat": 30.3380189, "lon": 48.2709056}, {"type": "node", "id": 11076034016, "lat": 30.3388476, "lon": 48.2693767}, {"type": "node", "id": 11076034017, "lat": 30.3398013, "lon": 48.2669681}, {"type": "node", "id": 11076034018, "lat": 30.3417227, "lon": 48.2580042}, {"type": "node", "id": 11076034019, "lat": 30.3409912, "lon": 48.2625639}, {"type": "node", "id": 11076034020, "lat": 30.3418893, "lon": 48.2574034}, {"type": "node", "id": 11076034021, "lat": 30.3446023, "lon": 48.2505691}, {"type": "node", "id": 11076034022, "lat": 30.3479331, "lon": 48.2431273}, {"type": "node", "id": 11076034023, "lat": 30.3538863, "lon": 48.236926}, {"type": "node", "id": 11076034024, "lat": 30.3567378, "lon": 48.2335357}, {"type": "node", "id": 11076034025, "lat": 30.3590522, "lon": 48.2301347}, {"type": "node", "id": 11076034026, "lat": 30.3581264, "lon": 48.2292978}, {"type": "node", "id": 11076034027, "lat": 30.3603853, "lon": 48.225532}, {"type": "node", "id": 11076034028, "lat": 30.3636994, "lon": 48.2212727}, {"type": "node", "id": 11076034029, "lat": 30.3630329, "lon": 48.220704}, {"type": "node", "id": 11076034030, "lat": 30.3638198, "lon": 48.2195239}, {"type": "node", "id": 11076034031, "lat": 30.3648473, "lon": 48.220114}, {"type": "node", "id": 11076034032, "lat": 30.3672449, "lon": 48.2229678}, {"type": "node", "id": 11076034033, "lat": 30.371938, "lon": 48.2193093}, {"type": "node", "id": 11076034034, "lat": 30.3712715, "lon": 48.2181506}, {"type": "node", "id": 11076034035, "lat": 30.3773806, "lon": 48.2125716}, {"type": "node", "id": 11076034036, "lat": 30.3777138, "lon": 48.2130115}, {"type": "node", "id": 11076034037, "lat": 30.3789911, "lon": 48.2145457}, {"type": "node", "id": 11076034038, "lat": 30.3785469, "lon": 48.2149856}, {"type": "node", "id": 11076034039, "lat": 30.3813236, "lon": 48.2181613}, {"type": "node", "id": 11076034040, "lat": 30.3823139, "lon": 48.2195024}, {"type": "node", "id": 11076034041, "lat": 30.3827489, "lon": 48.2203607}, {"type": "node", "id": 11076034042, "lat": 30.3840539, "lon": 48.2206933}, {"type": "node", "id": 11076034043, "lat": 30.3912242, "lon": 48.2144505}, {"type": "node", "id": 11076034044, "lat": 30.3880382, "lon": 48.2366095}, {"type": "node", "id": 11076034045, "lat": 30.3918257, "lon": 48.2314651}, {"type": "node", "id": 11076034046, "lat": 30.3924203, "lon": 48.2321249}, {"type": "node", "id": 11076034047, "lat": 30.3939936, "lon": 48.2300489}, {"type": "node", "id": 11076034048, "lat": 30.3978896, "lon": 48.2345442}, {"type": "node", "id": 11076034049, "lat": 30.397524, "lon": 48.2349305}, {"type": "node", "id": 11076034050, "lat": 30.3980237, "lon": 48.2356225}, {"type": "node", "id": 11076034051, "lat": 30.3987594, "lon": 48.2349788}, {"type": "node", "id": 11076034052, "lat": 30.3984957, "lon": 48.234335}, {"type": "node", "id": 11076034053, "lat": 30.3974778, "lon": 48.2327686}, {"type": "node", "id": 11076034054, "lat": 30.3950624, "lon": 48.2298879}, {"type": "node", "id": 11076034055, "lat": 30.3959184, "lon": 48.2286863}, {"type": "node", "id": 11076034056, "lat": 30.3955251, "lon": 48.2282464}, {"type": "node", "id": 11076034057, "lat": 30.3945951, "lon": 48.2272057}, {"type": "node", "id": 11076034058, "lat": 30.393392, "lon": 48.2287829}, {"type": "node", "id": 11076034059, "lat": 30.3921149, "lon": 48.2269697}, {"type": "node", "id": 11076034060, "lat": 30.3906851, "lon": 48.225017}, {"type": "node", "id": 11076034061, "lat": 30.3867286, "lon": 48.2195561}, {"type": "node", "id": 11076034062, "lat": 30.3876079, "lon": 48.218746}, {"type": "node", "id": 11076034063, "lat": 30.3900789, "lon": 48.2207255}, {"type": "node", "id": 11076034064, "lat": 30.3955205, "lon": 48.2195614}, {"type": "node", "id": 11076034065, "lat": 30.395974, "lon": 48.2201301}, {"type": "node", "id": 11076034066, "lat": 30.3944007, "lon": 48.2137088}, {"type": "node", "id": 11076034067, "lat": 30.3942804, "lon": 48.2125072}, {"type": "node", "id": 11076034068, "lat": 30.3948218, "lon": 48.2132931}, {"type": "node", "id": 11076034069, "lat": 30.3938269, "lon": 48.212011}, {"type": "way", "id": 551232745, "nodes": [5323514996, 5323514998, 5323514988, 5323515329, 5323514985, 5323514987, 5323514997, 5323514976, 5323515331, 5323514995, 5323514977, 5323514980, 5323514974, 5323514989, 5323515010, 5323515016, 5323514993, 5323515008, 5323514979, 5323515006, 5323515323, 5323515009, 5323515326, 5323514978, 5323515000, 5323514981, 5323515321, 5323514990, 5323515017, 5323515327, 5323515002, 5323515018, 5323514992, 5323515001, 5323514983, 5323515330, 5323515325, 5323515332, 5323515020, 5323515328, 5323514986, 5323515019, 5323515014, 5323515324, 5323515322, 5323515013, 5323515007, 5323515012, 5323514975, 5323515015, 5323515005, 5323515011, 5323515004, 5323514991, 5323514994, 5323514984, 5323514982, 5323515003, 5323514996], "tags": {"alt_name": "\u0686\u0648\u0626\u0628\u062f\u0647", "landuse": "residential", "name": "\u0686\u0648\u06cc\u0628\u062f\u0647", "name:ar": "\u062a\u0634\u0648\u064a\u0628\u062f\u0629", "name:azb": "\u0686\u0648\u06cc\u0628\u062f\u0647"}}, {"type": "way", "id": 593347808, "nodes": [4902725509, 5607519901, 5607519856, 5607519955, 5607519907, 5607519909, 5607519933, 5607519757, 5607519732, 5607519749, 5607519894, 11076006070, 11076006069, 11076006068, 11076006067, 11076006066, 11076006065, 11076006064, 11076006062, 11076006063, 11076006089, 11076006090, 11076006091, 11076006092, 11076006093, 11076006094, 11076006095, 11076006096, 11076006097, 11076006098, 11076006099, 5607517020, 5607519889, 5607519751, 5607519743, 5607519917, 11076006100, 11076006101, 5607519922, 5607519962, 5607519891, 5607519790, 5607519957, 5607519742, 11076006102, 11076006103, 5607519850, 5607519741, 5607519824, 5607519911, 5607519763, 5607519897, 5607519745, 5607519854, 5607519777, 5607519844, 5607519832, 11076006104, 5607519972, 5607519796, 5607519846, 5607519806, 5607517014, 5607519959, 5607519968, 5607519923, 5607519912, 11076034010, 11076034005, 11076034006, 11076034007, 11076034008, 11076034009, 5670400569, 5607519947, 5670400585, 5670400582, 5670400584, 5670400586, 5670400572, 5670400573, 5670400574, 5670400575, 5670400578, 11076034011, 5670400579, 11076034044, 11076034045, 11076034046, 11076034047, 11076034048, 11076034049, 11076034050, 11076034051, 11076034052, 11076034053, 11076034054, 11076034055, 11076034056, 11076034057, 11076034058, 11076034059, 11076034060, 11076034061, 11076034062, 11076034063, 5660672771, 5660672770, 5660672769, 5660672768, 5660672765, 11076034064, 11076034065, 5660672761, 11076034066, 11076034068, 11076034067, 11076034069, 11076034043, 5660672780, 5660672779, 11076034042, 11076034041, 11076034040, 11076034039, 11076034038, 11076034037, 11076034036, 11076034035, 11076034034, 11076034033, 11076034032, 11076034031, 11076034030, 11076034029, 11076034028, 11076034027, 11076034026, 11076034025, 11076034024, 11076034023, 5607519841, 5607519916, 11076034022, 5607519898, 5607519769, 11076034021, 5607519827, 5607519735, 5607519939, 5607519802, 11076034020, 11076034018, 11076034019, 5607519730, 11076034017, 11076034016, 11076034015, 11076034012, 11076034013, 11076034014, 4902725430], "tags": {"admin_level": "7", "boundary": "administrative"}}, {"type": "way", "id": 625734398, "nodes": [5907878328, 5907878327, 5907878326, 5907878325, 5907878324, 5907878323, 5907878322, 5907878321, 5907878320, 5907878319, 5907878318, 5907878317, 5907878316, 5907878315, 5907878314, 5907878313, 5907878312, 5907878311, 5907878310, 5907878309, 5907878308, 5907878307, 5907878306, 5907878305, 5907878304, 5907878303, 5907878302, 5907878301, 5907878300, 5907878299, 5907878298, 5907878297, 5907878296, 5907878295, 5907878294, 5907878293, 5907878292, 5907878291, 5907878290, 5907878289, 5907878288, 5907878274, 5907878273, 5907878272, 5907878271, 5907878270, 5907878269, 5907878268, 5907878267, 5907878266, 5907878265, 5907878264, 5907878263, 5907878262, 5907878261, 5907878260, 5907878259, 5907878258, 5907878257, 5907878256, 5907878255, 5907878254, 10857465627, 5907878245, 5907878244, 5907878243, 5907878242, 5907878241, 5907878240, 5907878239, 5907878238, 5907878237, 5907878236, 5907878235, 5907878234, 5907878233, 5907878232, 5907878231, 5907878230, 5907878229, 5907878228, 5907878227, 5907878226, 5907878225, 5907878224, 5907878223, 5907878222, 5907878221, 5907878220, 5907878219, 5907878218, 5907878217, 5907878216, 5907878215, 5907878214, 5907878213, 5907878212, 5907878211, 5907878328], "tags": {"landuse": "residential"}}, {"type": "way", "id": 679218530, "nodes": [4902725509, 4902725743, 11076006071, 4902725488, 4902725482, 4902725511, 4902725512, 4902725513, 4902725514, 4902725515, 4902725489, 4902725516, 4902725518, 4902725519, 4902725517, 4902725508, 4902725507, 4902725506, 4902725490, 4902725480, 4902725520, 4902725721, 4902725722, 4902725723, 5974077795, 4902725481, 4902725505, 11076006077, 4902725493, 11076006076, 11076006075, 4902725479, 4902725727, 4902725726, 4902725724, 4902725725, 4902725487, 4902725728, 11076006074, 11076006073, 4902725729, 4902725486, 11076006078, 11076006079, 4902725731, 11076006080, 5607519878, 4902725732, 4902725733, 4902725734, 4902725485, 4902725491, 11076006081, 11076006072], "tags": {"admin_level": "7", "boundary": "administrative", "name": "District \u06f3", "source": "Iran_boundaries_import"}}, {"type": "way", "id": 1193222485, "nodes": [11076006088, 4902725500, 4902725494, 4902725473, 4902725499, 4902725504, 4902725503, 4902725502, 4902725501, 4902725498, 4902725497, 4902725496, 4902725495, 5607519875, 4902725474, 4902725475, 4902725476, 4902725477, 4902725465], "tags": {"admin_level": "7", "boundary": "administrative", "name": "District \u06f3", "source": "Iran_boundaries_import"}}, {"type": "way", "id": 1193222486, "nodes": [4902725430, 4902725431, 4902725432, 4902725433, 4902725434, 4902725435, 4902725436, 4902725437, 4902725438, 4902725439, 4902725440, 4902725441, 4902725442, 4902725443, 4902725444, 4902725445, 4902725446, 4902725447, 4902725448, 4902725459, 4902725449, 4902725465], "tags": {"admin_level": "7", "boundary": "administrative", "name": "District \u06f1", "source": "Iran_boundaries_import"}}, {"type": "way", "id": 1193222487, "nodes": [11076006088, 11076006087, 11076006086, 11076006085, 11076006084, 11076006083, 11076006082, 11076006072], "tags": {"admin_level": "7", "boundary": "administrative"}}, {"type": "relation", "id": 15790485, "members": [{"type": "node", "ref": 9929532284, "role": "admin_centre"}, {"type": "way", "ref": 625734398, "role": "outer"}], "tags": {"admin_level": "8", "boundary": "administrative", "name": "\u0633\u0627\u062f\u0627\u062a", "place": "village", "type": "boundary"}}, {"type": "relation", "id": 16141105, "members": [{"type": "way", "ref": 1193222487, "role": "outer"}, {"type": "way", "ref": 679218530, "role": "outer"}, {"type": "way", "ref": 593347808, "role": "outer"}, {"type": "way", "ref": 1193222486, "role": "outer"}, {"type": "way", "ref": 1193222485, "role": "outer"}, {"type": "node", "ref": 32826329, "role": "admin_centre"}], "tags": {"admin_level": "7", "boundary": "administrative", "name": "\u0622\u0628\u0627\u062f\u0627\u0646", "place": "city", "type": "boundary", "wikidata": "Q63049"}}, {"type": "relation", "id": 16340479, "members": [{"type": "way", "ref": 551232745, "role": "outer"}, {"type": "node", "ref": 5323514999, "role": "admin_centre"}], "tags": {"admin_level": "7", "boundary": "administrative", "name": "\u0686\u0648\u06cc\u0628\u062f\u0647", "place": "town", "type": "boundary"}}]}