{"version": 0.6, "generator": "Overpass API 0.7.61.5 4133829e", "osm3s": {"timestamp_osm_base": "2024-03-06T11:03:20Z", "copyright": "The data included in this document is from www.openstreetmap.org. The data is made available under ODbL."}, "elements": [{"type": "node", "id": 2461346616, "lat": 0.0046472, "lon": 36.3647501, "tags": {"addr:city": "Nyahururu", "addr:street": "Gilgil-Nyahururu Road", "amenity": "school", "name": "Kisima Mixed Secondary School", "operator": "Kisima Trust", "operator:type": "private"}}, {"type": "node", "id": 2475300891, "lat": 0.0375071, "lon": 36.3642728}, {"type": "node", "id": 2475300892, "lat": 0.0377083, "lon": 36.3652766}, {"type": "node", "id": 2475300893, "lat": 0.03613, "lon": 36.365586}, {"type": "node", "id": 2475300894, "lat": 0.0359224, "lon": 36.3645907}, {"type": "node", "id": 2475328300, "lat": 0.0387857, "lon": 36.357507}, {"type": "node", "id": 2475328302, "lat": 0.0391558, "lon": 36.3564126}, {"type": "node", "id": 2475328304, "lat": 0.0411997, "lon": 36.356418}, {"type": "node", "id": 2475328306, "lat": 0.0416932, "lon": 36.3564126}, {"type": "node", "id": 2475328308, "lat": 0.0416878, "lon": 36.3577645}, {"type": "node", "id": 2475328310, "lat": 0.0403682, "lon": 36.3575821}, {"type": "node", "id": 2475328312, "lat": 0.0401268, "lon": 36.3579737}, {"type": "node", "id": 2475328314, "lat": 0.0395288, "lon": 36.3577647}, {"type": "node", "id": 2475347686, "lat": 0.0328973, "lon": 36.3613848, "tags": {"amenity": "school", "name": "Ngare Naro Primary School", "operator": "Government"}}, {"type": "node", "id": 2475353378, "lat": 0.0288096, "lon": 36.3606124, "tags": {"amenity": "school", "name": "Starehe Primary School"}}, {"type": "node", "id": 2475354501, "lat": 0.0264417, "lon": 36.3611993, "tags": {"addr:city": "Nyahururu", "addr:street": "Gilgil-Nyahururu Road", "amenity": "school", "isced:level": "2;3", "name": "Ndururi Secondary School", "source": "OCHA - Humanitarian Data EXchange", "source:date": "2018-08-16"}}, {"type": "node", "id": 2475403744, "lat": 0.0410452, "lon": 36.3613805, "tags": {"amenity": "school", "name": "Nyahururu Boys High School"}}, {"type": "node", "id": 3992288640, "lat": 0.0398763, "lon": 36.3602198}, {"type": "node", "id": 3992288647, "lat": 0.0402392, "lon": 36.3621794}, {"type": "node", "id": 3992288652, "lat": 0.0402859, "lon": 36.360142}, {"type": "node", "id": 3992288861, "lat": 0.0403377, "lon": 36.360422}, {"type": "node", "id": 3992289064, "lat": 0.0416079, "lon": 36.3602924}, {"type": "node", "id": 3992289067, "lat": 0.0417064, "lon": 36.3617854}, {"type": "node", "id": 3992289068, "lat": 0.0417841, "lon": 36.3616765}, {"type": "node", "id": 4869145821, "lat": 0.0330099, "lon": 36.3572447, "tags": {"amenity": "school", "name": "Falling Waters Primary School", "name:en": "Falling Waters Primary School"}}, {"type": "node", "id": 5609366099, "lat": -0.0473411, "lon": 36.1477894, "tags": {"amenity": "school"}}, {"type": "node", "id": 5609366866, "lat": -0.0772197, "lon": 36.1260574, "tags": {"amenity": "school"}}, {"type": "node", "id": 6241664235, "lat": -0.1313064, "lon": 36.3823061, "tags": {"addr:city": "Kasuku", "addr:street": "Gilgil-Nyahururu Road", "amenity": "school", "isced:level": "2;3", "name": "Kasuku Boys Senior Secondary School", "source": "OCHA - Humanitarian Data EXchange", "source:date": "2018-08-16"}}, {"type": "node", "id": 6241664238, "lat": -0.0940533, "lon": 36.375821, "tags": {"amenity": "school", "isced:level": "1", "name": "Chaka Reli Primary School", "source": "OCHA - Humanitarian Data EXchange", "source:date": "2018-08-16"}}, {"type": "node", "id": 6241664241, "lat": -0.0769407, "lon": 36.3645296, "tags": {"addr:city": "Joro Orok", "addr:street": "Gilgil-Nyahururu Road", "amenity": "school", "name": "Ol Joro Orok Primary School"}}, {"type": "node", "id": 6241778045, "lat": 0.0445922, "lon": 36.3670577, "tags": {"addr:city": "Nyahururu", "addr:street": "Nyeri-Nyahururu Road", "amenity": "school", "isced:level": "2;3", "name": "Nyahururu Elite Schools", "source": "OCHA - Humanitarian Data EXchange", "source:date": "2018-08-16"}}, {"type": "node", "id": 6241778057, "lat": 0.0405304, "lon": 36.3809673, "tags": {"addr:city": "Nyahururu", "addr:street": "Nyeri-Nyahururu Road", "amenity": "school", "name": "St. Francis Manguo"}}, {"type": "node", "id": 6241778058, "lat": 0.0418235, "lon": 36.3811498, "tags": {"addr:city": "Nyahururu", "addr:street": "Nyeri-Nyahururu Road", "amenity": "school", "name": "Graceland Girls Senior Secondary School"}}, {"type": "node", "id": 6241778065, "lat": 0.0337658, "lon": 36.393244, "tags": {"addr:city": "Nyahururu", "addr:street": "Nyeri-Nyahururu Road", "amenity": "school", "name": "Ziwani Boys Hostel"}}, {"type": "node", "id": 6241778066, "lat": 0.0266411, "lon": 36.3929549, "tags": {"addr:city": "Nyahururu", "addr:street": "Nyeri-Nyahururu Road", "amenity": "school", "name": "St. Cecilia Girls Secondary School"}}, {"type": "node", "id": 6416139037, "lat": -0.0578082, "lon": 36.5297827, "tags": {"amenity": "school", "name": "Ndaragwa Primary School"}}, {"type": "node", "id": 6416152211, "lat": -0.0525511, "lon": 36.5266713, "tags": {"amenity": "school", "name": "Baldo Childrens Home"}}, {"type": "node", "id": 9289204968, "lat": -0.107371, "lon": 36.2736235, "tags": {"amenity": "school", "isced:level": "2;3", "name": "Ngano Secondary School", "source": "OCHA - Humanitarian Data EXchange", "source:date": "2018-08-16"}}, {"type": "node", "id": 9289204969, "lat": -0.0804314, "lon": 36.355189, "tags": {"amenity": "school", "isced:level": "2;3", "name": "Rotewood Secondary", "source": "OCHA - Humanitarian Data EXchange", "source:date": "2018-08-16"}}, {"type": "node", "id": 9289204970, "lat": -0.1128343, "lon": 36.3350784, "tags": {"amenity": "school", "isced:level": "2;3", "name": "Kangui Secondary", "source": "OCHA - Humanitarian Data EXchange", "source:date": "2018-08-16"}}, {"type": "node", "id": 9289204971, "lat": -0.1193545, "lon": 36.3410469, "tags": {"amenity": "school", "isced:level": "2;3", "name": "Hospital Hill Secondary", "source": "OCHA - Humanitarian Data EXchange", "source:date": "2018-08-16"}}, {"type": "node", "id": 9289204978, "lat": -0.1344312, "lon": 36.3777838, "tags": {"amenity": "school", "isced:level": "2;3", "name": "Maranatha Secondary", "source": "OCHA - Humanitarian Data EXchange", "source:date": "2018-08-16"}}, {"type": "node", "id": 9293923272, "lat": -0.0683477, "lon": 36.4403242, "tags": {"amenity": "school", "isced:level": "2;3", "name": "Kahuho Secondary", "source": "survey"}}, {"type": "node", "id": 9293927009, "lat": 0.0357499, "lon": 36.3509382, "tags": {"amenity": "school", "isced:level": "2;3", "name": "Ewaso Nyiro Highschool", "source": "OCHA - Humanitarian Data EXchange", "source:date": "2018-08-16"}}, {"type": "node", "id": 9293927010, "lat": 0.03211, "lon": 36.3515179, "tags": {"amenity": "school", "isced:level": "2;3", "name": "Fakling Waters Girls", "source": "OCHA - Humanitarian Data EXchange", "source:date": "2018-08-16"}}, {"type": "node", "id": 9293927011, "lat": 0.0292092, "lon": 36.3541912, "tags": {"amenity": "school", "isced:level": "2;3", "name": "Central Highschool", "source": "OCHA - Humanitarian Data EXchange", "source:date": "2018-08-16"}}, {"type": "node", "id": 9293927012, "lat": 0.0303675, "lon": 36.3622942, "tags": {"amenity": "school", "isced:level": "2;3", "name": "Lakipia Highschool", "source": "OCHA - Humanitarian Data EXchange", "source:date": "2018-08-16"}}, {"type": "node", "id": 9293927013, "lat": 0.0558834, "lon": 36.3635973, "tags": {"amenity": "school", "isced:level": "2;3", "name": "Ndururuma Highschool", "source": "OCHA - Humanitarian Data EXchange", "source:date": "2018-08-16"}}, {"type": "node", "id": 9293927014, "lat": 0.0565565, "lon": 36.356459, "tags": {"amenity": "school", "isced:level": "2;3", "name": "Munyaka Day Secondary", "source": "OCHA - Humanitarian Data EXchange", "source:date": "2018-08-16"}}, {"type": "node", "id": 9293927015, "lat": 0.0692506, "lon": 36.4487154, "tags": {"amenity": "school", "isced:level": "2;3", "name": "Pondo Secondary", "source": "OCHA - Humanitarian Data EXchange", "source:date": "2018-08-16"}}, {"type": "node", "id": 9293927016, "lat": 0.0436539, "lon": 36.4257196, "tags": {"amenity": "school", "isced:level": "2;3", "name": "Ngaindethia Secondary", "source": "OCHA - Humanitarian Data EXchange", "source:date": "2018-08-16"}}, {"type": "node", "id": 9293927017, "lat": 0.0906972, "lon": 36.4241546, "tags": {"amenity": "school", "isced:level": "2;3", "name": "Mathingira Girls Secondary", "source": "OCHA - Humanitarian Data EXchange", "source:date": "2018-08-16"}}, {"type": "node", "id": 9293927018, "lat": 0.0977539, "lon": 36.4528831, "tags": {"amenity": "school", "isced:level": "2;3", "name": "Raichiri Secondary", "source": "OCHA - Humanitarian Data EXchange", "source:date": "2018-08-16"}}, {"type": "node", "id": 9293927019, "lat": 0.0640356, "lon": 36.500492, "tags": {"amenity": "school", "isced:level": "2;3", "name": "Ndivai Secondary", "source": "OCHA - Humanitarian Data EXchange", "source:date": "2018-08-16"}}, {"type": "node", "id": 9293927022, "lat": 0.0975853, "lon": 36.5539259, "tags": {"amenity": "school", "isced:level": "2;3", "name": "Muruku Secondary", "source": "OCHA - Humanitarian Data EXchange", "source:date": "2018-08-16"}}, {"type": "node", "id": 9293927023, "lat": -0.0159515, "lon": 36.5442226, "tags": {"amenity": "school", "isced:level": "2;3", "name": "Green Gate ECD", "source": "OCHA - Humanitarian Data EXchange", "source:date": "2018-08-16"}}, {"type": "node", "id": 9293927024, "lat": 0.027723, "lon": 36.5026516, "tags": {"amenity": "school", "isced:level": "2;3", "name": "Kagondo Secondary", "source": "OCHA - Humanitarian Data EXchange", "source:date": "2018-08-16"}}, {"type": "node", "id": 9293927025, "lat": -0.0025535, "lon": 36.5364282, "tags": {"amenity": "school", "isced:level": "2;3", "name": "Budget ECD", "source": "OCHA - Humanitarian Data EXchange", "source:date": "2018-08-16"}}, {"type": "node", "id": 9293927026, "lat": -0.006952, "lon": 36.5269857, "tags": {"amenity": "school", "isced:level": "2;3", "name": "Ndururi ECD", "source": "OCHA - Humanitarian Data EXchange", "source:date": "2018-08-16"}}, {"type": "node", "id": 9293927027, "lat": -0.0200653, "lon": 36.5201151, "tags": {"amenity": "school", "isced:level": "2;3", "name": "Munonda ECD", "source": "OCHA - Humanitarian Data EXchange", "source:date": "2018-08-16"}}, {"type": "node", "id": 9293927028, "lat": -0.0065533, "lon": 36.4746293, "tags": {"amenity": "school", "isced:level": "2;3", "name": "Karagoine Secondary", "source": "OCHA - Humanitarian Data EXchange", "source:date": "2018-08-16"}}, {"type": "node", "id": 9293927029, "lat": -0.0179287, "lon": 36.4297609, "tags": {"amenity": "school", "isced:level": "2;3", "name": "Githunguchi Secondary School", "source": "OCHA - Humanitarian Data EXchange", "source:date": "2018-08-16"}}, {"type": "node", "id": 9293927030, "lat": -0.0319622, "lon": 36.3732402, "tags": {"amenity": "school", "isced:level": "2;3", "name": "Gatimu Secondary", "source": "OCHA - Humanitarian Data EXchange", "source:date": "2018-08-16"}}, {"type": "node", "id": 9293927031, "lat": -0.0418501, "lon": 36.3288456, "tags": {"amenity": "school", "isced:level": "2;3", "name": "Gthanji Secondary", "source": "OCHA - Humanitarian Data EXchange", "source:date": "2018-08-16"}}, {"type": "way", "id": 239759720, "nodes": [2475300891, 2475300892, 2475300893, 2475300894, 2475300891], "tags": {"addr:city": "Nyahururu", "addr:street": "Gilgil-Nyahururu Road", "amenity": "school", "name": "Nyahururu DEB Primary School"}}, {"type": "way", "id": 239763467, "nodes": [2475328300, 2475328302, 2475328304, 2475328306, 2475328308, 2475328310, 2475328312, 2475328314, 2475328300], "tags": {"amenity": "school", "name": "Nyandarua Boarding Primary School"}}, {"type": "way", "id": 396423146, "nodes": [3992289064, 3992288861, 3992288652, 3992288640, 3992288647, 3992289067, 3992289068, 3992289064], "tags": {"amenity": "school"}}]}