{"version": 0.6, "generator": "Overpass API 0.7.61.5 4133829e", "osm3s": {"timestamp_osm_base": "2024-03-06T11:18:45Z", "copyright": "The data included in this document is from www.openstreetmap.org. The data is made available under ODbL."}, "elements": [{"type": "node", "id": 250880648, "lat": 34.4505521, "lon": 40.9170636, "tags": {"ele": "175", "int_name": "Abu Kamal", "name": "\u0627\u0644\u0628\u0648\u0643\u0645\u0627\u0644", "name:ar": "\u0627\u0644\u0628\u0648\u0643\u0645\u0627\u0644", "name:de": "Abu Kamal", "name:en": "Abu Kamal", "name:eo": "Abu Kamal", "name:es": "Abu Kamal", "name:fa": "\u0627\u0628\u0648\u06a9\u0645\u0627\u0644", "name:fr": "Abou Kamal", "name:he": "\u05d0\u05dc-\u05d1\u05d5\u05db\u05de\u05d0\u05dc", "name:ja": "\u30a2\u30d6\u30fb\u30ab\u30de\u30eb", "name:ko": "\uc544\ubd80\uce74\ub9d0", "name:lt": "Abu Kamalis", "name:ml": "\u0d05\u0d2c\u0d41 \u0d15\u0d2e\u0d3e\u0d7d", "name:nl": "Abu Kamal", "name:pl": "Abu Kamal", "name:ru": "\u0410\u0431\u0443-\u041a\u0435\u043c\u0430\u043b\u044c", "name:sv": "Abu Kamal", "name:tr": "Ebu Kemal", "name:uk": "\u0410\u0431\u0443-\u041a\u0435\u043c\u0430\u043b\u044c", "name:zh": "\u963f\u5e03\u51f1\u99ac\u52d2", "old_name": "Qashla", "place": "city", "population": "66589", "wikidata": "Q152828", "wikipedia": "ar:\u0627\u0644\u0628\u0648\u0643\u0645\u0627\u0644"}}, {"type": "node", "id": 573457443, "lat": 34.6533333, "lon": 40.8952778, "tags": {"alt_name": "\u0623\u0628\u0648 \u062d\u0633\u0646", "is_in": "Syria, \u0627\u0644\u062c\u0645\u0647\u0648\u0631\u064a\u0629 \u0627\u0644\u0639\u0631\u0628\u064a\u0629 \u0627\u0644\u0633\u0648\u0631\u064a\u0629 \u060c \u0633\u0648\u0631\u064a\u0627", "name": "\u0623\u0628\u0648 \u062d\u0633\u0646", "name:alt": "Ab\u016b \u1e28asan", "name:ar": "\u0623\u0628\u0648 \u062d\u0633\u0646", "name:ar1": "\u0623\u0628\u0648 \u062d\u0633\u0646", "name:de": "Abu Hasan", "name:en": "Abu Hasan", "name:fr": "Abu Hasan", "name:ru": "\u0410\u0431\u0443-\u0425\u0430\u0441\u0430\u043d", "place": "village"}}, {"type": "node", "id": 573457457, "lat": 34.6388889, "lon": 40.8755556, "tags": {"alt_name": "\u0627\u0644\u0631\u0645\u0627\u062f\u064a", "int_name": "Er Ramadi, Er Ram\u00e2di, Ramadi, Ram\u00e2di, Ar Ram\u0101d\u012b", "is_in": "Syria, \u0627\u0644\u062c\u0645\u0647\u0648\u0631\u064a\u0629 \u0627\u0644\u0639\u0631\u0628\u064a\u0629 \u0627\u0644\u0633\u0648\u0631\u064a\u0629 \u060c \u0633\u0648\u0631\u064a\u0627", "name": "\u0627\u0644\u0631\u0645\u0627\u062f\u064a", "name:ar": "\u0627\u0644\u0631\u0645\u0627\u062f\u064a", "name:ar1": "\u0627\u0644\u0631\u0645\u0627\u062f\u064a", "name:de": "Ar Ramadi", "name:en": "Ar Ramadi", "name:fr": "Ar Ramadi", "name:ru": "\u042d\u0440-\u0420\u0430\u043c\u0430\u0434\u0438", "place": "village"}}, {"type": "node", "id": 573457464, "lat": 34.6488879, "lon": 40.8813592, "tags": {"alt_name": "\u0627\u0644\u0628\u0631\u0647\u0645", "int_name": "El Bor'ham, Al Burham", "is_in": "Syria, \u0627\u0644\u062c\u0645\u0647\u0648\u0631\u064a\u0629 \u0627\u0644\u0639\u0631\u0628\u064a\u0629 \u0627\u0644\u0633\u0648\u0631\u064a\u0629 \u060c \u0633\u0648\u0631\u064a\u0627", "name": "\u0627\u0644\u0628\u0631\u0647\u0645", "name:ar": "\u0627\u0644\u0628\u0631\u0647\u0645", "name:ar1": "\u0627\u0644\u0628\u0631\u0647\u0645", "name:de": "Al Burham", "name:en": "Al Burham", "name:fr": "Al Burham", "place": "village"}}, {"type": "node", "id": 573457485, "lat": 34.6205556, "lon": 40.9386111, "tags": {"alt_name": "\u0627\u0644\u0643\u0634\u0645\u0629", "int_name": "Kashmah, Kechme, Kechm\u00e9, Khashma, Khashm\u0101, Al Kashmah", "is_in": "Syria, \u0627\u0644\u062c\u0645\u0647\u0648\u0631\u064a\u0629 \u0627\u0644\u0639\u0631\u0628\u064a\u0629 \u0627\u0644\u0633\u0648\u0631\u064a\u0629 \u060c \u0633\u0648\u0631\u064a\u0627", "name": "\u0627\u0644\u0646\u0633\u0628\u0647", "name:ar": "\u0627\u0644\u0643\u0634\u0645\u0629", "name:ar1": "\u0627\u0644\u0643\u0634\u0645\u0629", "name:de": "Al Kashmah", "name:en": "Alnnispa", "name:fr": "Al Kashmah", "name:ru": "\u042d\u043b\u044c-\u041a\u0438\u0448\u043c\u0430", "place": "village"}}, {"type": "node", "id": 573457521, "lat": 34.6394444, "lon": 40.8491667, "tags": {"alt_name": "\u0627\u0644\u0645\u0633\u0644\u062e\u0629", "int_name": "Moussallakha, Musallakhah, Al Musallakhah", "is_in": "Syria, \u0627\u0644\u062c\u0645\u0647\u0648\u0631\u064a\u0629 \u0627\u0644\u0639\u0631\u0628\u064a\u0629 \u0627\u0644\u0633\u0648\u0631\u064a\u0629 \u060c \u0633\u0648\u0631\u064a\u0627", "name": "\u0627\u0632\u0645\u064a\u062a", "name:ar": "\u0627\u0644\u0645\u0633\u0644\u062e\u0629", "name:ar1": "\u0627\u0644\u0645\u0633\u0644\u062e\u0629", "name:de": "Al Musallakhah", "name:en": "\u0130zmit", "name:fr": "Al Musallakhah", "name:ru": "\u042d\u043b\u044c-\u041c\u0443\u0441\u0430\u043b\u043b\u0430\u0445\u0430", "place": "village"}}, {"type": "node", "id": 573457573, "lat": 34.6897222, "lon": 40.83, "tags": {"alt_name": "\u0647\u062c\u064a\u0646", "int_name": "Abou Hardane, Abou Hard\u00e2ne, Abu Hardan, Abu Hardub, Ab\u016b \u1e28ard\u0101n, Ab\u016b \u1e28ard\u016bb, Bou Hardane, Hajine, Haj\u00eene, Haj\u012bn", "is_in": "Syria, \u0627\u0644\u062c\u0645\u0647\u0648\u0631\u064a\u0629 \u0627\u0644\u0639\u0631\u0628\u064a\u0629 \u0627\u0644\u0633\u0648\u0631\u064a\u0629 \u060c \u0633\u0648\u0631\u064a\u0627", "name": "\u0647\u062c\u064a\u0646", "name:ar": "\u0647\u062c\u064a\u0646", "name:ar1": "\u0647\u062c\u064a\u0646", "name:cs": "Had\u017e\u00edn", "name:de": "Hajin", "name:en": "Hajin", "name:fr": "Hajin", "name:ru": "\u0425\u0430\u0434\u0436\u0438\u043d", "place": "town", "population": "37935", "wikidata": "Q5639989"}}, {"type": "node", "id": 573457666, "lat": 34.4336111, "lon": 40.9894444, "tags": {"int_name": "Baghuz al Qibli, Barhouz Qibli, B\u00e2rho\u00fbz Qibli, B\u0101gh\u016bz al Qibl\u012b, B\u0101gh\u016bz", "long_name:ar": "\u0628\u0627\u063a\u0648\u0632 \u062a\u062d\u062a\u0627\u0646\u064a", "long_name:fr": "B\u00e2rho\u00fbz Qibli", "name": "\u0628\u0627\u063a\u0648\u0632", "name:ar": "\u0628\u0627\u063a\u0648\u0632", "name:de": "Baghuz", "name:en": "Baghuz tahtani", "name:fr": "B\u00e2rho\u00fbz", "name:ku": "Baxoz", "name:ru": "\u0411\u0430\u0433\u0443\u0437", "official_name:ar": "\u0628\u0627\u063a\u0648\u0632 \u062a\u062d\u062a\u0627\u0646\u064a", "official_name:fr": "B\u00e2rho\u00fbz Qibli", "place": "village"}}, {"type": "node", "id": 573457692, "lat": 34.5713889, "lon": 40.9066667, "tags": {"int_name": "Saiyal, Sa\u00efy\u00e2l, As Sayy\u0101l", "name": "\u0627\u0644\u0633\u064a\u0627\u0644", "name:ar": "\u0627\u0644\u0633\u064a\u0627\u0644", "name:de": "As Sayyal", "name:en": "As Sayyal", "name:fr": "Sa\u00efy\u00e2l", "name:ru": "\u042d\u0441-\u0421\u0430\u0439\u044f\u043b\u044c", "place": "village", "population": "14392"}}, {"type": "node", "id": 573457698, "lat": 34.5252778, "lon": 40.96, "tags": {"alt_name": "\u0627\u0644\u0633\u0648\u0633\u0629", "int_name": "Es Soussa, Es So\u00fbssa, Soussa, Sousse, Susah, S\u016bsah, As S\u016bsah", "is_in": "Syria, \u0627\u0644\u062c\u0645\u0647\u0648\u0631\u064a\u0629 \u0627\u0644\u0639\u0631\u0628\u064a\u0629 \u0627\u0644\u0633\u0648\u0631\u064a\u0629 \u060c \u0633\u0648\u0631\u064a\u0627", "name": "\u0627\u0644\u0633\u0648\u0633\u0629", "name:ar": "\u0627\u0644\u0633\u0648\u0633\u0629", "name:ar1": "\u0627\u0644\u0633\u0648\u0633\u0629", "name:de": "As Susah", "name:en": "As Susah", "name:fr": "Es So\u00fbssa", "name:ru": "\u042d\u0441-\u0421\u0443\u0441\u0430", "place": "village", "population": "8797"}}, {"type": "node", "id": 573457756, "lat": 34.5161111, "lon": 40.9022222, "tags": {"alt_name": "\u062a\u0639\u0633 \u0627\u0644\u0634\u0627\u064a\u0631", "name": "\u0639\u0634\u0627\u064a\u0631", "name:alt": "Ti`s ash Sh\u0101yir", "name:ar": "\u0627\u0644\u0639\u0634\u0627\u064a\u0631", "name:ar1": "\u062a\u0639\u0633 \u0627\u0644\u0634\u0627\u064a\u0631", "name:de": "Ti`s ash Shayir", "name:en": "AShayir", "name:fr": "Ti's ash Shayir", "name:ru": "\u0422\u0430\u0430\u0441-\u044d\u0441-\u0428\u0430\u0435\u0440", "place": "village"}}, {"type": "node", "id": 573457757, "lat": 34.5444444, "lon": 40.9194444, "tags": {"alt_name": "\u063a\u0628\u0631\u0629", "alt_name:fr": "Er Rhabra", "int_name": "El Ghabra, El Rhabra, Er Rhabra, Ghabra, Ghabr\u0101, Rhabra, Ghabrah", "name": "\u063a\u0628\u0631\u0629", "name:ar": "\u0627\u0644\u063a\u0628\u0631\u0629", "name:ar1": "\u063a\u0628\u0631\u0629", "name:de": "Ghabra", "name:en": "Ghabrah", "name:fr": "Ghabra", "name:ru": "\u0428\u0430\u0434\u0440\u0430", "place": "village"}}, {"type": "node", "id": 573457772, "lat": 34.4338889, "lon": 40.9333333, "tags": {"alt_name": "\u0633\u0648\u064a\u062d", "alt_name:ar": "\u0633\u0648\u064a\u062d", "int_name": "Sawiya, Sawiyah, Saw\u012byah, Saw\u012by\u0101, Souaiye, Soua\u00efy\u00e9, Suwayyah, Suwayya\u1e29", "name": "\u0633\u0648\u064a\u0639\u064a\u0629", "name:ar": "\u0633\u0648\u064a\u0639\u064a\u0629", "name:de": "Suwayyah", "name:en": "Suwayyah", "name:fr": "Soua\u00efy\u00e9", "name:ru": "\u0421\u0443\u0432\u0430\u0439\u044f", "place": "village"}}, {"type": "node", "id": 573457808, "lat": 34.4372222, "lon": 40.97, "tags": {"alt_name": "\u0627\u0644\u0647\u0631\u064a", "int_name": "Al Harah, Al \u1e28\u0101rah, Hary, Heri, H\u00e9ri, \u1e28ary, Al Hir\u012b", "name": "\u0627\u0644\u0647\u0631\u064a", "name:ar": "\u0627\u0644\u0647\u0631\u064a", "name:ar1": "\u0627\u0644\u0647\u0631\u064a", "name:de": "Al Hiri", "name:en": "Al Hiri", "name:fr": "H\u00e9ri", "name:ru": "\u042d\u043b\u044c-\u0425\u0438\u0440\u0438", "place": "village"}}, {"type": "node", "id": 573457850, "lat": 34.5099691, "lon": 40.9314306, "tags": {"name": "\u0627\u0644\u0645\u0631\u0627\u0634\u062f\u0629", "name:alt": "Al Mar\u0101shidah", "name:ar": "\u0627\u0644\u0645\u0631\u0627\u0634\u062f\u0629", "name:ar1": "\u0627\u0644\u0645\u0631\u0627\u0634\u062f\u0629", "name:de": "al-Maraschida", "name:en": "Al Marashidah", "name:fr": "Al Marashidah", "name:ru": "\u042d\u043b\u044c-\u041c\u0430\u0440\u0430\u0448\u0434\u0435", "place": "village"}}, {"type": "node", "id": 573457858, "lat": 34.4947222, "lon": 40.945, "tags": {"alt_name": "\u0627\u0644\u0635\u0641\u0627\u0642\u0646\u0629", "is_in": "Syria, \u0627\u0644\u062c\u0645\u0647\u0648\u0631\u064a\u0629 \u0627\u0644\u0639\u0631\u0628\u064a\u0629 \u0627\u0644\u0633\u0648\u0631\u064a\u0629 \u060c \u0633\u0648\u0631\u064a\u0627", "name": "\u0627\u0644\u0633\u0641\u0627\u0641\u0646\u0629", "name:alt": "A\u015f \u015eaf\u0101qinah", "name:ar": "\u0627\u0644\u0635\u0641\u0627\u0642\u0646\u0629", "name:ar1": "\u0627\u0644\u0635\u0641\u0627\u0642\u0646\u0629", "name:de": "As Safafinah", "name:en": "As Safafinah", "name:fr": "As Safafinah", "name:ru": "\u042d\u0441-\u0421\u0430\u0444\u0430\u0444\u0430", "place": "village"}}, {"type": "node", "id": 573457868, "lat": 34.6158333, "lon": 40.9063889, "tags": {"alt_name": "\u0627\u0644\u062d\u0633\u0631\u0627\u062a", "alt_name:fr": "Asr\u00e2te", "int_name": "Asrate, Asr\u00e2te, Hasra, Hasrat, Hasrate, Hasr\u00e2te, \u1e28asr\u0101t, Al \u1e28asr\u0101t", "is_in": "Syria, \u0627\u0644\u062c\u0645\u0647\u0648\u0631\u064a\u0629 \u0627\u0644\u0639\u0631\u0628\u064a\u0629 \u0627\u0644\u0633\u0648\u0631\u064a\u0629 \u060c \u0633\u0648\u0631\u064a\u0627", "name": "\u0627\u0644\u062d\u0633\u0631\u0627\u062a", "name:ar": "\u0627\u0644\u062d\u0633\u0631\u0627\u062a", "name:ar1": "\u0627\u0644\u062d\u0633\u0631\u0627\u062a", "name:de": "Al Hasrat", "name:en": "Al Hasrat", "name:fr": "Hasr\u00e2te", "name:ru": "\u042d\u043b\u044c-\u0425\u0430\u0441\u0440\u0430\u0442", "place": "village"}}, {"type": "node", "id": 573457885, "lat": 34.5786111, "lon": 40.9355556, "tags": {"alt_name": "\u0627\u0644\u0634\u0639\u0641\u0629", "alt_name:fr": "Chaafa", "int_name": "Chaafa, Chafaa, Ech Chaafa, Sa`fa, Sa`f\u0101, Ash Sha`fah", "is_in": "Syria, \u0627\u0644\u062c\u0645\u0647\u0648\u0631\u064a\u0629 \u0627\u0644\u0639\u0631\u0628\u064a\u0629 \u0627\u0644\u0633\u0648\u0631\u064a\u0629 \u060c \u0633\u0648\u0631\u064a\u0627", "name": "\u0627\u0644\u0634\u0639\u0641\u0629", "name:ar": "\u0627\u0644\u0634\u0639\u0641\u0629", "name:ar1": "\u0627\u0644\u0634\u0639\u0641\u0629", "name:de": "Ash Sha`fah", "name:en": "Ash Sha`fah", "name:fr": "Ech Chaafa", "name:ru": "\u042d\u0448-\u0428\u0430\u0430\u0444\u0430", "place": "town", "population": "18956"}}, {"type": "node", "id": 573457900, "lat": 34.4761111, "lon": 40.9597222, "tags": {"name": "\u0627\u0644\u0634\u062c\u0644\u0629", "name:ar": "\u0627\u0644\u0634\u062c\u0644\u0629", "name:de": "Ash Shajlah", "name:en": "Ash Shajlah", "name:fr": "Ash Shajlah", "name:ru": "\u042d\u0448-\u0428\u0430\u0434\u0436\u043b\u0430", "place": "village"}}, {"type": "node", "id": 573457903, "lat": 34.4641667, "lon": 40.9452778, "tags": {"alt_name": "\u0628\u0627\u063a\u0648\u0632 \u0641\u0648\u0642\u0627\u0646\u064a", "alt_name:fr": "B\u00e2rhouz Chim\u00e2li", "int_name": "Baghuz Shimali, Baghuz ash Shamali, Barhouz, Barhouz Chemali, Barhouz Chimali, B\u00e2rhouz Chim\u00e2li, B\u00e2rho\u00fbz Ch\u00e9m\u00e2li, B\u0101gh\u016bz Shim\u0101l\u012b, B\u0101gh\u016bz ash Sham\u0101l\u012b, B\u0101gh\u016bz Fawq\u0101n\u012b", "is_in": "Syria, \u0627\u0644\u062c\u0645\u0647\u0648\u0631\u064a\u0629 \u0627\u0644\u0639\u0631\u0628\u064a\u0629 \u0627\u0644\u0633\u0648\u0631\u064a\u0629 \u060c \u0633\u0648\u0631\u064a\u0627", "name": "\u0628\u0627\u063a\u0648\u0632 \u0641\u0648\u0642\u0627\u0646\u064a", "name:ar": "\u0628\u0627\u063a\u0648\u0632 \u0627\u0644\u0639\u0632\u0647", "name:ar1": "\u0628\u0627\u063a\u0648\u0632 \u0641\u0648\u0642\u0627\u0646\u064a", "name:de": "al-Baghuz Fawqani", "name:en": "Al-Baghuz \u0130zzet", "name:fr": "B\u00e2rho\u00fbz Ch\u00e9m\u00e2li", "name:ru": "\u042d\u043b\u044c-\u0411\u0430\u0433\u0443\u0437-\u0424\u043e\u043a\u0430\u043d\u0438", "place": "village", "population": "10689"}}, {"type": "node", "id": 2485260033, "lat": 34.378534, "lon": 41.203479, "tags": {"alt_name": "\u0645\u062e\u0641\u0631 \u0634\u0631\u0637\u0629 \u0627\u0644\u0642\u0646\u064a\u0637\u0631\u0629", "int_name": "Makhfar Shur\u0163at al Qunay\u0163irah, \u0645\u062e\u0641\u0631 \u0634\u0631\u0637\u0629 \u0627\u0644\u0642\u0646\u064a\u0637\u0631\u0629, Makhfar Shurtat al Qunaytirah, \u0645\u062e\u0641\u0631 \u0634\u0631\u0637\u0629 \u0627\u0644\u0642\u0646\u064a\u0637\u0631\u0629", "is_in": "Iraq , \u062c\u0645\u0647\u0648\u0631\u064a\u0629 \u0627\u0644\u0639\u0631\u0627\u0642", "name": "\u0645\u062e\u0641\u0631 \u0634\u0631\u0637\u0629 \u0627\u0644\u0642\u0646\u064a\u0637\u0631\u0629", "name:ar": "\u0645\u062e\u0641\u0631 \u0634\u0631\u0637\u0629 \u0627\u0644\u0642\u0646\u064a\u0637\u0631\u0629", "name:ar1": "\u0645\u062e\u0641\u0631 \u0634\u0631\u0637\u0629 \u0627\u0644\u0642\u0646\u064a\u0637\u0631\u0629", "name:de": "Makhfar Shurtat al Qunaytirah", "name:en": "Makhfar Shurtat al Qunaytirah", "name:fr": "Makhfar Shurtat al Qunaytirah", "place": "village"}}, {"type": "node", "id": 2488323669, "lat": 34.638737, "lon": 41.344276, "tags": {"alt_name": "\u0627\u0634\u0643\u064a\u0643", "int_name": "Ashk\u012bk, \u0627\u0634\u0643\u064a\u0643, Ashkik, \u0627\u0634\u0643\u064a\u0643", "is_in": "Iraq , \u062c\u0645\u0647\u0648\u0631\u064a\u0629 \u0627\u0644\u0639\u0631\u0627\u0642", "name": "\u0627\u0634\u0643\u064a\u0643", "name:ar": "\u0627\u0634\u0643\u064a\u0643", "name:ar1": "\u0627\u0634\u0643\u064a\u0643", "name:de": "Ashkik", "name:en": "Ashkik", "name:fr": "Ashkik", "place": "village"}}, {"type": "node", "id": 2488326865, "lat": 34.3883271, "lon": 41.1292323, "tags": {"alt_name": "\u0627\u0644\u062f\u0631\u062c\u0629", "int_name": "Ad Darjah, \u0627\u0644\u062f\u0631\u062c\u0629, Ad Darjah, \u0627\u0644\u062f\u0631\u062c\u0629", "is_in": "Iraq , \u062c\u0645\u0647\u0648\u0631\u064a\u0629 \u0627\u0644\u0639\u0631\u0627\u0642", "name": "\u0627\u0644\u062f\u0631\u062c\u0629", "name:ar": "\u0627\u0644\u062f\u0631\u062c\u0629", "name:ar1": "\u0627\u0644\u062f\u0631\u062c\u0629", "name:de": "Ad Darjah", "name:en": "Ad Darjah", "name:fr": "Ad Darjah", "place": "village"}}, {"type": "node", "id": 2488326975, "lat": 34.438581, "lon": 41.240279, "tags": {"alt_name": "\u0627\u0644\u0628\u0631\u062b", "int_name": "Al Barth, \u0627\u0644\u0628\u0631\u062b, Al Barth, \u0627\u0644\u0628\u0631\u062b", "is_in": "Iraq , \u062c\u0645\u0647\u0648\u0631\u064a\u0629 \u0627\u0644\u0639\u0631\u0627\u0642", "name": "\u0627\u0644\u0628\u0631\u062a", "name:ar": "\u0627\u0644\u0628\u0631\u062b", "name:ar1": "\u0627\u0644\u0628\u0631\u062b", "name:de": "Al Barth", "name:en": "Al Barth", "name:fr": "Al Barth", "place": "village"}}, {"type": "node", "id": 2488326976, "lat": 34.4388058, "lon": 41.2726693, "tags": {"alt_name": "\u0627\u0644\u0628\u064a\u0636\u0629", "int_name": "Al Bay\u1e11ah, \u0627\u0644\u0628\u064a\u0636\u0629, Al Baydah, \u0627\u0644\u0628\u064a\u0636\u0629", "is_in": "Iraq , \u062c\u0645\u0647\u0648\u0631\u064a\u0629 \u0627\u0644\u0639\u0631\u0627\u0642", "name": "\u0627\u0644\u0628\u064a\u0636\u0629", "name:ar": "\u0627\u0644\u0628\u064a\u0636\u0629", "name:ar1": "\u0627\u0644\u0628\u064a\u0636\u0629", "name:de": "Al Baydah", "name:en": "Al Baydah", "name:fr": "Al Baydah", "place": "village"}}, {"type": "node", "id": 2488326977, "lat": 34.45276, "lon": 41.336047, "tags": {"alt_name": "\u0627\u0644\u0628\u0648\u0628\u064a\u0629", "int_name": "Al Bub\u012bya, Al B\u016bb\u012byah, Babiye, \u0627\u0644\u0628\u0648\u0628\u064a\u0629, Al Bubiya, Al Bubiyah, Babiye, \u0627\u0644\u0628\u0648\u0628\u064a\u0629", "is_in": "Iraq , \u062c\u0645\u0647\u0648\u0631\u064a\u0629 \u0627\u0644\u0639\u0631\u0627\u0642", "name": "\u0627\u0644\u0628\u0648\u0628\u064a\u0629", "name:ar": "\u0627\u0644\u0628\u0648\u0628\u064a\u0629", "name:ar1": "\u0627\u0644\u0628\u0648\u0628\u064a\u0629", "name:de": "Al Bubiya", "name:en": "Al Bubiya", "name:fr": "Al Bubiya", "place": "village"}}, {"type": "node", "id": 2488326978, "lat": 34.412102, "lon": 41.048835, "tags": {"alt_name": "\u0627\u0644\u0641\u064a\u0632\u064a\u0629", "int_name": "Al Fayz\u012byah, \u0627\u0644\u0641\u064a\u0632\u064a\u0629, Al Fayziyah, \u0627\u0644\u0641\u064a\u0632\u064a\u0629", "is_in": "Iraq , \u062c\u0645\u0647\u0648\u0631\u064a\u0629 \u0627\u0644\u0639\u0631\u0627\u0642", "name": "\u0627\u0644\u0641\u064a\u0632\u064a\u0629", "name:ar": "\u0627\u0644\u0641\u064a\u0632\u064a\u0629", "name:ar1": "\u0627\u0644\u0641\u064a\u0632\u064a\u0629", "name:de": "Al Fayziyah", "name:en": "Al Fayziyah", "name:fr": "Al Fayziyah", "place": "village"}}, {"type": "node", "id": 2488326988, "lat": 34.4462458, "lon": 41.2787212, "tags": {"alt_name": "\u0627\u0644\u062c\u0627\u0628\u0631\u064a\u0629", "int_name": "Al J\u0101bar\u012byah, , Al Jabariyah,", "is_in": "Iraq , \u062c\u0645\u0647\u0648\u0631\u064a\u0629 \u0627\u0644\u0639\u0631\u0627\u0642", "name": "\u0627\u0644\u062c\u0627\u0628\u0631\u064a\u0629", "name:ar": "\u0627\u0644\u062c\u0639\u0628\u0631\u064a\u0629", "name:ar1": "\u0627\u0644\u062c\u0627\u0628\u0631\u064a\u0629", "name:de": "Al Jabariyah", "name:en": "Al Jabariyah", "name:fr": "Al Jabariyah", "place": "village"}}, {"type": "node", "id": 2488326992, "lat": 34.404492, "lon": 41.073761, "tags": {"alt_name": "\u0627\u0644\u062c\u0631\u0627\u0645\u0644", "int_name": "Al Jar\u0101mil, \u0627\u0644\u062c\u0631\u0627\u0645\u0644, Al Jaramil, \u0627\u0644\u062c\u0631\u0627\u0645\u0644", "is_in": "Iraq , \u062c\u0645\u0647\u0648\u0631\u064a\u0629 \u0627\u0644\u0639\u0631\u0627\u0642", "name": "\u0627\u0644\u062c\u0631\u0627\u0645\u0644", "name:ar": "\u0627\u0644\u062c\u0631\u0627\u0645\u0644", "name:ar1": "\u0627\u0644\u062c\u0631\u0627\u0645\u0644", "name:de": "Al Jaramil", "name:en": "Al Jaramil", "name:fr": "Al Jaramil", "place": "village"}}, {"type": "node", "id": 2488326996, "lat": 34.444283, "lon": 41.349946, "tags": {"alt_name": "\u0627\u0644\u062c\u0631\u0646", "int_name": "Al Jarin, \u0627\u0644\u062c\u0631\u0646, Al Jarin, \u0627\u0644\u062c\u0631\u0646", "is_in": "Iraq , \u062c\u0645\u0647\u0648\u0631\u064a\u0629 \u0627\u0644\u0639\u0631\u0627\u0642", "name": "\u0627\u0644\u062c\u0631\u0646", "name:ar": "\u0627\u0644\u062c\u0631\u0646", "name:ar1": "\u0627\u0644\u062c\u0631\u0646", "name:de": "Al Jarin", "name:en": "Al Jarin", "name:fr": "Al Jarin", "place": "village"}}, {"type": "node", "id": 2488327008, "lat": 34.390889, "lon": 41.046437, "tags": {"alt_name": "\u0627\u0644\u0643\u0631\u0627\u0628\u0644\u0629", "int_name": "Al Kar\u0101bilah, Al Kar\u0101blah, Kar\u0101blah, \u0627\u0644\u0643\u0631\u0627\u0628\u0644\u0629, \u0643\u0631\u0627\u0628\u0644\u0629, Al Karabilah, Al Karablah, Karablah, \u0627\u0644\u0643\u0631\u0627\u0628\u0644\u0629, \u0643\u0631\u0627\u0628\u0644\u0629", "is_in": "Iraq , \u062c\u0645\u0647\u0648\u0631\u064a\u0629 \u0627\u0644\u0639\u0631\u0627\u0642", "name": "\u0627\u0644\u0643\u0631\u0627\u0628\u0644\u0629", "name:ar": "\u0627\u0644\u0643\u0631\u0627\u0628\u0644\u0629", "name:ar1": "\u0627\u0644\u0643\u0631\u0627\u0628\u0644\u0629", "name:de": "Al Karabilah", "name:en": "Al Karabilah", "name:fr": "Al Karabilah", "place": "village"}}, {"type": "node", "id": 2488327012, "lat": 34.4496186, "lon": 41.3070809, "tags": {"alt_name": "\u0627\u0644\u062e\u0635\u0645", "int_name": "Al Kha\u015fm, \u0627\u0644\u062e\u0635\u0645, Al Khasm, \u0627\u0644\u062e\u0635\u0645", "is_in": "Iraq , \u062c\u0645\u0647\u0648\u0631\u064a\u0629 \u0627\u0644\u0639\u0631\u0627\u0642", "name": "\u0627\u0644\u062e\u0635\u0645", "name:ar": "\u0627\u0644\u062e\u0635\u064a\u0645", "name:ar1": "\u0627\u0644\u062e\u0635\u0645", "name:de": "Al Khasm", "name:en": "Al Khasm", "name:fr": "Al Khasm", "place": "village"}}, {"type": "node", "id": 2488327024, "lat": 34.4324538, "lon": 41.2089512}, {"type": "node", "id": 2488327028, "lat": 34.4382195, "lon": 41.2688462, "tags": {"alt_name": "\u0627\u0644\u0645\u0644\u064a\u0644\u064a", "int_name": "Al Mulayl\u012b, \u0627\u0644\u0645\u0644\u064a\u0644\u064a, Al Mulayli, \u0627\u0644\u0645\u0644\u064a\u0644\u064a", "is_in": "Iraq , \u062c\u0645\u0647\u0648\u0631\u064a\u0629 \u0627\u0644\u0639\u0631\u0627\u0642", "name": "\u0627\u0644\u0645\u0644\u064a\u0644\u064a", "name:ar": "\u0627\u0644\u0645\u0644\u064a\u0644\u064a", "name:ar1": "\u0627\u0644\u0645\u0644\u064a\u0644\u064a", "name:de": "Al Mulayli", "name:en": "Al Mulayli", "name:fr": "Al Mulayli", "place": "village"}}, {"type": "node", "id": 2488327033, "lat": 34.3957715, "lon": 40.9943684, "tags": {"alt_name:fr": "Al-Qa'im", "alt_name:ko": "\uc54c \uce74\uc784;\uae4c\uc784;\uce74\uc784", "capital": "6", "name": "\u0627\u0644\u0642\u0627\u0626\u0645", "name:ar": "\u0627\u0644\u0642\u0627\u0626\u0645", "name:azb": "\u0627\u0644\u0642\u0627\u0626\u0645", "name:de": "Al-Qa'im", "name:en": "Al-Qa'im", "name:es": "Al-Kaim", "name:fr": "Al-Qa\u00efm", "name:he": "\u05d0\u05dc-\u05e7\u05d0\u05d0\u05dd", "name:hi": "\u0905\u0932 \u0915\u093c\u0948\u092e", "name:ko": "\uc54c \uae4c\uc784", "name:ml": "\u0d05\u0d7d \u0d16\u0d3e\u0d2f\u0d3f\u0d02", "name:tr": "El Kaim", "name:ur": "\u0627\u0644\u0642\u0627\u0626\u0645", "place": "city", "population": "103000", "population:date": "2014", "wikidata": "Q2353905", "wikipedia": "ar:\u0627\u0644\u0642\u0627\u0626\u0645 (\u0645\u062f\u064a\u0646\u0629)"}}, {"type": "node", "id": 2488327044, "lat": 34.386751, "lon": 41.117983, "tags": {"alt_name": "\u0627\u0644\u0639\u0634", "int_name": "Al Ushsh, Al Ushsh", "is_in": "Iraq , \u062c\u0645\u0647\u0648\u0631\u064a\u0629 \u0627\u0644\u0639\u0631\u0627\u0642", "name": "\u0627\u0644\u0639\u0634", "name:ar": "\u0627\u0644\u0639\u0634", "name:ar1": "\u0627\u0644\u0639\u0634", "name:de": "Al Ushsh", "name:en": "Al Ushsh", "name:fr": "Al Ushsh", "place": "village"}}, {"type": "node", "id": 2488327056, "lat": 34.3996596, "lon": 41.1007111, "tags": {"alt_name": "\u0622\u0644 \u0628\u0648 \u062d\u0631\u062f\u0627\u0646", "int_name": "Alb\u016b\u1e29ard\u0101n, Albuhardan", "is_in": "Iraq , \u062c\u0645\u0647\u0648\u0631\u064a\u0629 \u0627\u0644\u0639\u0631\u0627\u0642", "name": "\u0622\u0644 \u0628\u0648 \u062d\u0631\u062f\u0627\u0646", "name:ar": "\u0622\u0644 \u0628\u0648 \u062d\u0631\u062f\u0627\u0646", "name:ar1": "\u0622\u0644 \u0628\u0648 \u062d\u0631\u062f\u0627\u0646", "name:de": "Albuhardan", "name:en": "Albuhardan", "name:fr": "Albuhardan", "place": "village"}}, {"type": "node", "id": 2488327059, "lat": 34.427567, "lon": 41.03786, "tags": {"alt_name": "\u0627\u0644\u0631\u0628\u0648\u062a", "int_name": "Ar R\u0101bi\u0163, Ar Rib\u016bt, \u0627\u0644\u0631\u0628\u0648\u062a, Ar Rabit, Ar Ribut, \u0627\u0644\u0631\u0628\u0648\u062a", "is_in": "Iraq , \u062c\u0645\u0647\u0648\u0631\u064a\u0629 \u0627\u0644\u0639\u0631\u0627\u0642", "name": "\u0627\u0644\u0631\u0628\u0648\u062a", "name:ar": "\u0627\u0644\u0631\u0628\u0637", "name:ar1": "\u0627\u0644\u0631\u0628\u0648\u062a", "name:de": "Ar Rabit", "name:en": "Ar Rabit", "name:fr": "Ar Rabit", "place": "village"}}, {"type": "node", "id": 2488327060, "lat": 34.444986, "lon": 41.336279, "tags": {"alt_name": "\u0627\u0644\u0631\u0627\u0641\u062f\u0629", "int_name": "Ar R\u0101fidah, \u0627\u0644\u0631\u0627\u0641\u062f\u0629, Ar Rafidah, \u0627\u0644\u0631\u0627\u0641\u062f\u0629", "is_in": "Iraq , \u062c\u0645\u0647\u0648\u0631\u064a\u0629 \u0627\u0644\u0639\u0631\u0627\u0642", "name": "\u0627\u0644\u0631\u0627\u0641\u062f\u0629", "name:ar": "\u0627\u0644\u0631\u0627\u0641\u062f\u0629", "name:ar1": "\u0627\u0644\u0631\u0627\u0641\u062f\u0629", "name:de": "Ar Rafidah", "name:en": "Ar Rafidah", "name:fr": "Ar Rafidah", "place": "village"}}, {"type": "node", "id": 2488327061, "lat": 34.4443392, "lon": 41.2657936, "tags": {"alt_name": "\u0627\u0644\u0631\u0648\u0645\u064a\u0629", "int_name": "Ar R\u016bm\u012byah, \u0627\u0644\u0631\u0648\u0645\u064a\u0629, Ar Rumiyah, \u0627\u0644\u0631\u0648\u0645\u064a\u0629", "is_in": "Iraq , \u062c\u0645\u0647\u0648\u0631\u064a\u0629 \u0627\u0644\u0639\u0631\u0627\u0642", "name": "\u0627\u0644\u0631\u0648\u0645\u064a\u0629", "name:ar": "\u0627\u0644\u0631\u0648\u0645\u064a\u0629", "name:ar1": "\u0627\u0644\u0631\u0648\u0645\u064a\u0629", "name:de": "Ar Rumiyah", "name:en": "Ar Rumiyah", "name:fr": "Ar Rumiyah", "place": "village"}}, {"type": "node", "id": 2488327062, "lat": 34.393061, "lon": 41.077981, "tags": {"alt_name": "\u0631\u0645\u0627\u0646\u0629", "alt_name:ar": "\u0627\u0644\u0639\u0628\u0648\u0631", "alt_name:ar-Latn": "Al-Obour", "alt_name:en": "Al-Obour", "capital": "7", "int_name": "Rumana - \u0631\u0645\u0627\u0646\u0629", "is_in": "Iraq , \u062c\u0645\u0647\u0648\u0631\u064a\u0629 \u0627\u0644\u0639\u0631\u0627\u0642", "name": "\u0631\u0645\u0627\u0646\u0629", "name:ar": "\u0631\u0645\u0627\u0646\u0629", "name:ar-Latn": "Rummanah;Rumana;Rummaneh", "name:de": "Rummanah", "name:en": "Rummanah", "name:fr": "Rummanah", "place": "village", "url": "https://www.wikiwand.com/en/Rumana_subdistrict", "wikidata": "Q7379315", "wikipedia": "en:Rummanah"}}, {"type": "node", "id": 2488327068, "lat": 34.442648, "lon": 41.202562, "tags": {"alt_name": "\u0627\u0644\u0633\u0645\u0629", "int_name": "As Simmah, \u0627\u0644\u0633\u0645\u0629, As Simmah, \u0627\u0644\u0633\u0645\u0629", "is_in": "Iraq , \u062c\u0645\u0647\u0648\u0631\u064a\u0629 \u0627\u0644\u0639\u0631\u0627\u0642", "name": "\u0627\u0644\u0635\u0645\u0629", "name:ar": "\u0627\u0644\u0633\u0645\u0629", "name:ar1": "\u0627\u0644\u0633\u0645\u0629", "name:de": "As Simmah", "name:en": "As Simmah", "name:fr": "As Simmah", "place": "village"}}, {"type": "node", "id": 2488327075, "lat": 34.3915443, "lon": 41.1106164, "tags": {"alt_name": "\u0628\u0639\u0644\u0648\u062c\u0629", "int_name": "Bal\u016bjah, Balujah", "is_in": "Iraq , \u062c\u0645\u0647\u0648\u0631\u064a\u0629 \u0627\u0644\u0639\u0631\u0627\u0642", "name": "\u0628\u0639\u0644\u0648\u062c\u0629", "name:ar": "\u0628\u0639\u0644\u0648\u062c\u0629", "name:ar1": "\u0628\u0639\u0644\u0648\u062c\u0629", "name:de": "Balujah", "name:en": "Balujah", "name:fr": "Balujah", "place": "village"}}, {"type": "node", "id": 2488327076, "lat": 34.390757, "lon": 41.110539, "tags": {"alt_name": "\u0628\u064a\u0644\u0648\u0643\u0629", "int_name": "Bayl\u016bkah, \u0628\u064a\u0644\u0648\u06a9\u0629, Baylukah, \u0628\u064a\u0644\u0648\u06a9\u0629", "is_in": "Iraq , \u062c\u0645\u0647\u0648\u0631\u064a\u0629 \u0627\u0644\u0639\u0631\u0627\u0642", "name": "\u0628\u064a\u0644\u0648\u0643\u0629", "name:ar": "\u0628\u064a\u0644\u0648\u0643\u0629", "name:ar1": "\u0628\u064a\u0644\u0648\u0643\u0629", "name:de": "Baylukah", "name:en": "Baylukah", "name:fr": "Baylukah", "place": "village"}}, {"type": "node", "id": 2488327104, "lat": 34.3876191, "lon": 41.1280579, "tags": {"alt_name": "\u062f\u0631\u062c\u0629", "int_name": "Darjah, \u062f\u0631\u062c\u0629, Darjah, \u062f\u0631\u062c\u0629", "is_in": "Iraq , \u062c\u0645\u0647\u0648\u0631\u064a\u0629 \u0627\u0644\u0639\u0631\u0627\u0642", "name": "\u062f\u0631\u062c\u0629", "name:ar": "\u062f\u0631\u062c\u0629", "name:ar1": "\u062f\u0631\u062c\u0629", "name:de": "Darjah", "name:en": "Darjah", "name:fr": "Darjah", "place": "village"}}, {"type": "node", "id": 2488327112, "lat": 34.402267, "lon": 41.194796, "tags": {"alt_name": "\u062f\u063a\u064a\u0645\u0629", "int_name": "Dughaymah, \u062f\u063a\u064a\u0645\u0629, Dughaymah, \u062f\u063a\u064a\u0645\u0629", "is_in": "Iraq , \u062c\u0645\u0647\u0648\u0631\u064a\u0629 \u0627\u0644\u0639\u0631\u0627\u0642", "name": "\u062f\u063a\u064a\u0645\u0629", "name:ar": "\u062f\u063a\u064a\u0645\u0629", "name:ar1": "\u062f\u063a\u064a\u0645\u0629", "name:de": "Dughaymah", "name:en": "Dughaymah", "name:fr": "Dughaymah", "place": "village"}}, {"type": "node", "id": 2488327127, "lat": 34.3988421, "lon": 41.100974, "tags": {"alt_name": "\u062d\u0627\u0648\u064a\u0629 \u0627\u0644\u0628\u0648\u062d\u0631\u062f\u0627\u0646", "int_name": "\u1e28\u0101wiyat Alb\u016b\u1e29ard\u0101n, \u062d\u0627\u0648\u064a\u0629 \u0627\u0644\u0628\u0648\u062d\u0631\u062f\u0627\u0646, Hawiyat Albuhardan, \u062d\u0627\u0648\u064a\u0629 \u0627\u0644\u0628\u0648\u062d\u0631\u062f\u0627\u0646", "is_in": "Iraq , \u062c\u0645\u0647\u0648\u0631\u064a\u0629 \u0627\u0644\u0639\u0631\u0627\u0642", "name": "\u062d\u0627\u0648\u064a\u0629 \u0627\u0644\u0628\u0648\u062d\u0631\u062f\u0627\u0646", "name:ar": "\u062d\u0627\u0648\u064a\u0629 \u0627\u0644\u0628\u0648\u062d\u0631\u062f\u0627\u0646", "name:ar1": "\u062d\u0627\u0648\u064a\u0629 \u0627\u0644\u0628\u0648\u062d\u0631\u062f\u0627\u0646", "name:de": "Hawiyat Albuhardan", "name:en": "Hawiyat Albuhardan", "name:fr": "Hawiyat Albuhardan", "place": "village"}}, {"type": "node", "id": 2488327128, "lat": 34.4151523, "lon": 41.0064426, "tags": {"alt_name": "\u062d\u0635\u064a\u0628\u0629", "int_name": "\u1e28u\u015faybah, \u062d\u0635\u064a\u0628\u0629, Husaybah, \u062d\u0635\u064a\u0628\u0629", "name": "\u062d\u0635\u064a\u0628\u0629", "name:ar": "\u062d\u0635\u064a\u0628\u0629", "name:ar1": "\u062d\u0635\u064a\u0628\u0629", "name:de": "Husaybah", "name:en": "Husaybah", "name:fr": "Hsaiba", "place": "village"}}, {"type": "node", "id": 2488327132, "lat": 34.3688016, "lon": 41.1605118, "tags": {"alt_name": "\u062c\u0631 \u064a\u062c\u064a\u0628", "int_name": "Jarr Yach\u012bb, \u062c\u0631 \u064a\u0686\u064a\u0628, Jarr Yachib, \u062c\u0631 \u064a\u0686\u064a\u0628", "is_in": "Iraq , \u062c\u0645\u0647\u0648\u0631\u064a\u0629 \u0627\u0644\u0639\u0631\u0627\u0642", "name": "\u062c\u0631 \u064a\u062c\u064a\u0628", "name:ar": "\u062c\u0631 \u064a\u062c\u064a\u0628", "name:ar1": "\u062c\u0631 \u064a\u062c\u064a\u0628", "name:de": "Jarr Yachib", "name:en": "Jarr Yachib", "name:fr": "Jarr Yachib", "place": "village"}}, {"type": "node", "id": 2488327134, "lat": 34.3934548, "lon": 41.1403559, "tags": {"alt_name": "\u062e\u062a\u064a\u0644\u0629", "int_name": "Khutaylah, \u062e\u062a\u064a\u0644\u0629, Khutaylah, \u062e\u062a\u064a\u0644\u0629", "is_in": "Iraq , \u062c\u0645\u0647\u0648\u0631\u064a\u0629 \u0627\u0644\u0639\u0631\u0627\u0642", "name": "\u062e\u062a\u064a\u0644\u0629", "name:ar": "\u062e\u062a\u064a\u0644\u0629", "name:ar1": "\u062e\u062a\u064a\u0644\u0629", "name:de": "Khutaylah", "name:en": "Khutaylah", "name:fr": "Khutaylah", "name:ru": "\u0425\u0443\u0442\u0430\u0439\u043b\u0430", "place": "village"}}, {"type": "node", "id": 2488327139, "lat": 34.4497112, "lon": 41.2843857, "tags": {"alt_name": "\u0645\u0637\u0631\u062f\u0644\u064a\u0629", "int_name": "Ma\u0163ardal\u012byah, Matardaliyah", "is_in": "Iraq , \u062c\u0645\u0647\u0648\u0631\u064a\u0629 \u0627\u0644\u0639\u0631\u0627\u0642", "name": "\u0645\u0637\u0631\u062f\u0644\u064a\u0629", "name:ar": "\u0645\u0637\u0631\u062f\u0644\u064a\u0629", "name:ar1": "\u0645\u0637\u0631\u062f\u0644\u064a\u0629", "name:de": "Matardaliyah", "name:en": "Matardaliyah", "name:fr": "Matardaliyah", "place": "village"}}, {"type": "node", "id": 2488327140, "lat": 34.444043, "lon": 41.227742, "tags": {"alt_name": "\u0645\u0634\u0639\u0644", "int_name": "Mishal, \u0645\u0634\u0639\u0644, Mishal, \u0645\u0634\u0639\u0644", "is_in": "Iraq , \u062c\u0645\u0647\u0648\u0631\u064a\u0629 \u0627\u0644\u0639\u0631\u0627\u0642", "name": "\u0645\u0634\u0639\u0644", "name:ar": "\u0645\u0634\u0639\u0644", "name:ar1": "\u0645\u0634\u0639\u0644", "name:de": "Mishal", "name:en": "Mishal", "name:fr": "Mishal", "place": "village"}}, {"type": "node", "id": 2488327144, "lat": 34.372789, "lon": 40.973319, "tags": {"alt_name": "\u0642\u0635\u0628\u0629 \u0627\u0644\u0641\u0627\u0631\u0648\u0642", "int_name": "Qa\u015fabat al F\u0101r\u016bq, \u0642\u0635\u0628\u0629 \u0627\u0644\u0641\u0627\u0631\u0648\u0642, Qasabat al Faruq, \u0642\u0635\u0628\u0629 \u0627\u0644\u0641\u0627\u0631\u0648\u0642", "is_in": "Iraq , \u062c\u0645\u0647\u0648\u0631\u064a\u0629 \u0627\u0644\u0639\u0631\u0627\u0642", "name": "\u0642\u0635\u0628\u0629 \u0627\u0644\u0641\u0627\u0631\u0648\u0642", "name:ar": "\u0642\u0635\u0628\u0629 \u0627\u0644\u0641\u0627\u0631\u0648\u0642", "name:ar1": "\u0642\u0635\u0628\u0629 \u0627\u0644\u0641\u0627\u0631\u0648\u0642", "name:de": "Qasabat al Faruq", "name:en": "Qasabat al Faruq", "name:fr": "Qasabat al Faruq", "place": "village"}}, {"type": "node", "id": 2488327147, "lat": 34.368749, "lon": 41.095737, "tags": {"alt_name": "\u0633\u0639\u062f\u0629", "int_name": "Sadah, \u0633\u0639\u062f\u0629, Sadah, \u0633\u0639\u062f\u0629", "is_in": "Iraq , \u062c\u0645\u0647\u0648\u0631\u064a\u0629 \u0627\u0644\u0639\u0631\u0627\u0642", "name": "\u0633\u0639\u062f\u0629", "name:ar": "\u0633\u0639\u062f\u0629", "name:ar1": "\u0633\u0639\u062f\u0629", "name:de": "Sadah", "name:en": "Sadah", "name:fr": "Sadah", "place": "village"}}, {"type": "node", "id": 2488327151, "lat": 34.4496075, "lon": 41.3094212, "tags": {"alt_name": "\u0634\u0642\u0627\u0642\u064a\u0629", "int_name": "Shaq\u0101q\u012byah, Shaqaqiyah", "is_in": "Iraq , \u062c\u0645\u0647\u0648\u0631\u064a\u0629 \u0627\u0644\u0639\u0631\u0627\u0642", "name": "\u0634\u0642\u0627\u0642\u064a\u0629", "name:ar": "\u0634\u0642\u0627\u0642\u064a\u0629", "name:ar1": "\u0634\u0642\u0627\u0642\u064a\u0629", "name:de": "Shaqaqiyah", "name:en": "Shaqaqiyah", "name:fr": "Shaqaqiyah", "place": "village"}}, {"type": "node", "id": 2488327152, "lat": 34.386706, "lon": 41.1194557, "tags": {"alt_name": "\u0634\u064a\u062e \u0625\u0628\u0631\u0627\u0647\u064a\u0645", "int_name": "Shaykh Ibr\u0101h\u012bm, \u0634\u064a\u062e \u0627\u0628\u0631\u0627\u0647\u064a\u0645, Shaykh Ibrahim, \u0634\u064a\u062e \u0627\u0628\u0631\u0627\u0647\u064a\u0645", "is_in": "Iraq , \u062c\u0645\u0647\u0648\u0631\u064a\u0629 \u0627\u0644\u0639\u0631\u0627\u0642", "name": "\u0634\u064a\u062e \u0625\u0628\u0631\u0627\u0647\u064a\u0645", "name:ar": "\u0634\u064a\u062e \u0625\u0628\u0631\u0627\u0647\u064a\u0645", "name:ar1": "\u0634\u064a\u062e \u0625\u0628\u0631\u0627\u0647\u064a\u0645", "name:de": "Shaykh Ibrahim", "name:en": "Shaykh Ibrahim", "name:fr": "Shaykh Ibrahim", "place": "village"}}, {"type": "node", "id": 2488327158, "lat": 34.370228, "lon": 41.142407, "tags": {"alt_name": "\u062a\u0644 \u0627\u0644\u0642\u0627\u0626\u0645", "int_name": "Tall al Q\u0101im, \u062a\u0644 \u0627\u0644\u0642\u0627\u0626\u0645, Tall al Qaim, \u062a\u0644 \u0627\u0644\u0642\u0627\u0626\u0645", "is_in": "Iraq , \u062c\u0645\u0647\u0648\u0631\u064a\u0629 \u0627\u0644\u0639\u0631\u0627\u0642", "name": "\u062a\u0644 \u0627\u0644\u0642\u0627\u0626\u0645", "name:ar": "\u062a\u0644 \u0627\u0644\u0642\u0627\u0626\u0645", "name:ar1": "\u062a\u0644 \u0627\u0644\u0642\u0627\u0626\u0645", "name:de": "Tall al Qaim", "name:en": "Tall al Qaim", "name:fr": "Tall al Qaim", "place": "village"}}, {"type": "node", "id": 2488327161, "lat": 34.376499, "lon": 41.186296, "tags": {"alt_name": "\u062a\u0631\u064a\u062c\u064a\u0629", "int_name": "Turayj\u012byah, \u062a\u0631\u064a\u062c\u064a\u0629, Turayjiyah, \u062a\u0631\u064a\u062c\u064a\u0629", "is_in": "Iraq , \u062c\u0645\u0647\u0648\u0631\u064a\u0629 \u0627\u0644\u0639\u0631\u0627\u0642", "name": "\u062a\u0631\u064a\u062c\u064a\u0629", "name:ar": "\u062a\u0631\u064a\u062c\u064a\u0629", "name:ar1": "\u062a\u0631\u064a\u062c\u064a\u0629", "name:de": "Turayjiyah", "name:en": "Turayjiyah", "name:fr": "Turayjiyah", "place": "village"}}, {"type": "node", "id": 4633729595, "lat": 34.3361914, "lon": 41.1948171, "tags": {"name": "Phosphate Plant Industrial Villiage (\u0627\u0644\u0645\u062e\u064a\u0645)", "place": "village"}}, {"type": "node", "id": 9249234472, "lat": 34.4260651, "lon": 41.210323}, {"type": "node", "id": 9249234473, "lat": 34.4214693, "lon": 41.221259}, {"type": "node", "id": 9249234474, "lat": 34.4236621, "lon": 41.191458}, {"type": "node", "id": 9249234475, "lat": 34.4165486, "lon": 41.1937179}, {"type": "node", "id": 9249234476, "lat": 34.4148895, "lon": 41.2030134}, {"type": "node", "id": 9249234477, "lat": 34.4295027, "lon": 41.2137818}, {"type": "node", "id": 9249234478, "lat": 34.4267477, "lon": 41.2320226}, {"type": "node", "id": 9249234479, "lat": 34.4333651, "lon": 41.2194687}, {"type": "node", "id": 9249234480, "lat": 34.4332117, "lon": 41.2220856}, {"type": "node", "id": 9249234481, "lat": 34.4156008, "lon": 41.2187119}, {"type": "node", "id": 9249234482, "lat": 34.414769, "lon": 41.2228052}, {"type": "node", "id": 9249234483, "lat": 34.4194573, "lon": 41.2251133}, {"type": "node", "id": 9249234484, "lat": 34.4211544, "lon": 41.2341278}, {"type": "node", "id": 9249234485, "lat": 34.4313023, "lon": 41.239359}, {"type": "node", "id": 9249234486, "lat": 34.436397, "lon": 41.2216418}, {"type": "node", "id": 9249234487, "lat": 34.441195, "lon": 41.2357291}, {"type": "node", "id": 9249234488, "lat": 34.4391697, "lon": 41.2269251}, {"type": "node", "id": 9454899785, "lat": 34.4260682, "lon": 41.2168102}, {"type": "node", "id": 9454899786, "lat": 34.4142553, "lon": 41.2050696}, {"type": "node", "id": 9454899787, "lat": 34.4223816, "lon": 41.2070419}, {"type": "node", "id": 9454899788, "lat": 34.4232941, "lon": 41.2100235}, {"type": "way", "id": 1002147495, "nodes": [2488327024, 9249234474, 9249234475, 9249234476, 9454899786, 9454899787, 9454899788, 9249234472, 9454899785, 9249234473, 9249234481, 9249234482, 9249234483, 9249234484, 9249234478, 9249234485, 9249234487, 9249234488, 9249234486, 9249234480, 9249234479, 9249234477, 2488327024], "tags": {"alt_name": "\u0627\u0644\u0645\u062d\u0627\u0636\u0629;\u0627\u0644\u0639\u0628\u064a\u062f\u064a;Al Ubaydi", "alt_name:en": "Al-Obaidy;Al-Obaidi;Al-Ubaidy", "alt_name:ko": "\uc6b0\ubc14\uc774\ub514;\uc624\ubc14\uc774\ub514;\uc54c \uc624\ubc14\uc774\ub514", "capital": "7", "int_name": "Al Ubaydi -\u0627\u0644\u0639\u0628\u064a\u062f\u064a;Al Ubaydi - \u0627\u0644\u0639\u0628\u064a\u062f\u064a", "is_in": "Iraq , \u062c\u0645\u0647\u0648\u0631\u064a\u0629 \u0627\u0644\u0639\u0631\u0627\u0642", "name": "\u0627\u0644\u0639\u0628\u064a\u062f\u064a", "name:ar": "\u0627\u0644\u0639\u0628\u064a\u062f\u064a", "name:de": "Al Ubaydi", "name:en": "Al Ubaydi", "name:fr": "Al Ubaydi", "name:ko": "\uc54c \uc6b0\ubc14\uc774\ub514", "place": "town", "wikidata": "Q2118592", "wikipedia": "en:Al Ubaidi"}}]}