{"version": 0.6, "generator": "Overpass API 0.7.61.5 4133829e", "osm3s": {"timestamp_osm_base": "2024-03-06T11:38:08Z", "copyright": "The data included in this document is from www.openstreetmap.org. The data is made available under ODbL."}, "elements": [{"type": "node", "id": 9315692611, "lat": 1.9178286, "lon": 33.9618486, "tags": {"amenity": "hospital", "healthcare": "hospital", "name": "katakwi general hospital", "operator": "government", "wikidata": "Q24807572"}}, {"type": "node", "id": 11151161538, "lat": 1.7519584, "lon": 33.9574102, "tags": {"amenity": "hospital", "name": "TOROMA HEALTH CENTRE III"}}, {"type": "node", "id": 11151161542, "lat": 1.8509795, "lon": 34.1339256, "tags": {"amenity": "hospital", "name": "APUUTON HEALTH CENTRE 2"}}, {"type": "node", "id": 11151161543, "lat": 1.9182936, "lon": 33.9618412, "tags": {"amenity": "hospital", "grade": "HC IV", "name": "KATAKWI/USUK HC IV"}}, {"type": "node", "id": 11151161547, "lat": 1.7522117, "lon": 33.9572216, "tags": {"amenity": "hospital", "grade": "HC III", "name": "TOROMA HC III"}}, {"type": "node", "id": 11151161559, "lat": 1.7805392, "lon": 33.9677371, "tags": {"amenity": "hospital", "grade": "HC II", "name": "TOROMA HEALTH CENTRE II"}}, {"type": "node", "id": 11151161564, "lat": 1.7552417, "lon": 33.9645818, "tags": {"amenity": "hospital", "description": "CONSTRUCTED BY (USAID) AIDS", "name": "COMMUNITY SUPPORT CENTRE HEALTH CENTRE II"}}, {"type": "node", "id": 11151161567, "lat": 1.8512051, "lon": 33.9497125, "tags": {"amenity": "hospital", "grade": "HC II", "name": "AKOBOI HEALTH CENTRE II"}}, {"type": "node", "id": 11151161581, "lat": 1.7310011, "lon": 34.1019043, "tags": {"amenity": "hospital", "grade": "HC III", "name": "MAGORO HEALTH CENTRE III"}}, {"type": "node", "id": 11151161594, "lat": 1.9172074, "lon": 33.9630454, "tags": {"amenity": "hospital", "name": "KATAKWI HEALTH CENTRE IV"}}, {"type": "node", "id": 11151161604, "lat": 1.8506319, "lon": 34.0677516, "tags": {"amenity": "hospital", "name": "BISINA HEALTH CENTRE II"}}, {"type": "node", "id": 11151230017, "lat": 1.888345, "lon": 34.1370691, "tags": {"amenity": "hospital", "name": "NGARIAM HEALTH CENTRE III"}}, {"type": "node", "id": 11151230030, "lat": 2.0042629, "lon": 33.965246, "tags": {"amenity": "hospital", "grade": "HC II", "name": "USUK HEALTH CENTRE II"}}, {"type": "node", "id": 11151230033, "lat": 1.78065, "lon": 33.9685105, "tags": {"amenity": "hospital", "name": "ST KEVIN HEALTH CENTRE"}}, {"type": "node", "id": 11151230035, "lat": 1.9912456, "lon": 34.0835995, "tags": {"amenity": "hospital", "name": "AKUM HEALTH CENTRE II"}}]}