{"version": 0.6, "generator": "Overpass API 0.7.61.5 4133829e", "osm3s": {"timestamp_osm_base": "2024-03-06T11:17:45Z", "copyright": "The data included in this document is from www.openstreetmap.org. The data is made available under ODbL."}, "elements": [{"type": "node", "id": 1442597561, "lat": 36.2149761, "lon": 42.8320278, "tags": {"name": "Abu Fishkah", "place": "village", "source": "GEOnet"}}, {"type": "node", "id": 1442597566, "lat": 36.2019614, "lon": 42.9100518, "tags": {"name": "Abu Shuwayhah", "place": "village", "source": "GEOnet"}}, {"type": "node", "id": 1442597661, "lat": 36.2398179, "lon": 42.8013832, "tags": {"name": "\u062d\u0631\u0627\u062f\u0629", "name:ar": "\u062e \u0641\u0661", "place": "hamlet", "source": "GEOnet"}}, {"type": "node", "id": 1442597679, "lat": 36.1328843, "lon": 42.8981195, "tags": {"name": "\u062d\u0648\u064a\u0637", "place": "village", "source": "GEOnet"}}, {"type": "node", "id": 1442597696, "lat": 36.2372473, "lon": 42.8414846, "tags": {"name": "\u062e\u0648\u064a\u062a\u0644\u0629", "name:ar": "\u062e\u0648\u064a\u062a\u0644\u0629", "place": "village", "source": "GEOnet"}}, {"type": "node", "id": 1442598164, "lat": 36.2343988, "lon": 42.899117, "tags": {"name": "\u0623\u0645 \u0627\u0644\u0639\u0638\u0627\u0645", "name:ar": "\u0623\u0645 \u0627\u0644\u0639\u0638\u0627\u0645", "place": "village", "source": "GEOnet"}}, {"type": "node", "id": 1667016753, "lat": 36.4316764, "lon": 42.7149998}, {"type": "node", "id": 2324855170, "lat": 36.4928528, "lon": 42.6389237}, {"type": "node", "id": 2465882734, "lat": 36.4375288, "lon": 42.7130946}, {"type": "node", "id": 2465882736, "lat": 36.4375013, "lon": 42.70685}, {"type": "node", "id": 2465882745, "lat": 36.4377704, "lon": 42.7119681}, {"type": "node", "id": 2465882751, "lat": 36.4335507, "lon": 42.704254}, {"type": "node", "id": 2465882755, "lat": 36.4372785, "lon": 42.7087387}, {"type": "node", "id": 2465882769, "lat": 36.4364321, "lon": 42.7160711}, {"type": "node", "id": 2466448505, "lat": 36.49219, "lon": 42.6395375}, {"type": "node", "id": 2486391778, "lat": 36.0956988, "lon": 42.9026757, "tags": {"alt_name": "\u062e\u0631\u0627\u062a\u064a", "int_name": "Khurr\u0101t\u012b, \u062e\u0631\u0627\u062a\u064a, Khurrati, \u062e\u0631\u0627\u062a\u064a", "name": "\u062e\u0631\u0627\u062a\u064a", "name:ar": "\u062e\u0631\u0627\u062a\u064a", "name:ar1": "\u062e\u0631\u0627\u062a\u064a", "name:de": "Khurrati", "name:en": "Khurrati", "name:fr": "Khurrati", "place": "village"}}, {"type": "node", "id": 2488212070, "lat": 36.1891961, "lon": 42.8021632, "tags": {"alt_name": "\u0627\u0644\u0631\u062d\u0645\u0627\u0646\u064a\u0629", "int_name": "Ar Ra\u1e29m\u0101n\u012byah, \u0627\u0644\u0631\u062d\u0645\u0627\u0646\u064a\u0629, Ar Rahmaniyah, \u0627\u0644\u0631\u062d\u0645\u0627\u0646\u064a\u0629", "name": "\u0627\u0644\u0631\u062d\u0645\u0627\u0646\u064a\u0629", "name:ar": "\u0627\u0644\u0631\u062d\u0645\u0627\u0646\u064a\u0629", "name:ar1": "\u0627\u0644\u0631\u062d\u0645\u0627\u0646\u064a\u0629", "name:de": "Ar Rahmaniyah", "name:en": "Ar Rahmaniyah", "name:fr": "Ar Rahmaniyah", "place": "village"}}, {"type": "node", "id": 2488212331, "lat": 36.1259891, "lon": 42.7845263, "tags": {"alt_name": "\u062a\u0644 \u062a\u0627\u0634\u064a", "amenity": "hospital", "int_name": "Tall T\u0101sh\u012b, Tel T\u0101shi, Tall Tashi, Tel Tashi", "name": "\u0645\u0633\u062a\u0634\u0641\u0649 \u0627\u0644\u0634\u0647\u064a\u062f \u0633\u0644\u0627\u0645 \u0627\u0644\u062f\u064a\u0631\u0627\u0648\u064a", "name:ar": "\u0645\u0633\u062a\u0634\u0641\u0649 \u0627\u0644\u0634\u0647\u064a\u062f \u0633\u0644\u0627\u0645 \u0627\u0644\u062f\u064a\u0631\u0627\u0648\u064a", "name:ar1": "\u062a\u0644 \u062a\u0627\u0634\u064a", "name:de": "Tall Tashi", "name:en": "Tall Tashi", "name:fr": "Tall Tashi", "place": "village"}}, {"type": "node", "id": 2488214866, "lat": 36.508476, "lon": 42.84071, "tags": {"alt_name": "\u062f\u0648\u0627\u0633\u0629", "int_name": "Dawasa, Daw\u0101sah, D\u012bwasah, \u062f\u0648\u0627\u0633\u0647, Dawasa, Dawasah, Diwasah, \u062f\u0648\u0627\u0633\u0647", "is_in": "Iraq , \u062c\u0645\u0647\u0648\u0631\u064a\u0629 \u0627\u0644\u0639\u0631\u0627\u0642", "name": "\u062f\u0648\u0627\u0633\u0629", "name:ar": "\u062f\u0648\u0627\u0633\u0629", "name:ar1": "\u062f\u0648\u0627\u0633\u0629", "name:de": "Dawasa", "name:en": "Dawasa", "name:fr": "Dawasa", "place": "village"}}, {"type": "node", "id": 2488214873, "lat": 36.506087, "lon": 42.78316, "tags": {"alt_name": "\u0642\u0631\u064a\u0629 \u062f\u064a\u0631 \u0623\u0645 \u062a\u0648\u062b\u0629", "int_name": "Dayr Umm T\u016bnah, Dayr Umm T\u016bthah, Der Um Tuna, Qaryat Dayr Umm T\u016bthah, \u0642\u0631\u064a\u0629 \u062f\u064a\u0631 \u0623\u0645 \u062a\u0648\u062b\u0647, Dayr Umm Tunah, Dayr Umm Tuthah, Der Um Tuna, Qaryat Dayr Umm Tuthah, \u0642\u0631\u064a\u0629 \u062f\u064a\u0631 \u0623\u0645 \u062a\u0648\u062b\u0647", "is_in": "Iraq , \u062c\u0645\u0647\u0648\u0631\u064a\u0629 \u0627\u0644\u0639\u0631\u0627\u0642", "name": "\u0642\u0631\u064a\u0629 \u062f\u064a\u0631 \u0623\u0645 \u062a\u0648\u062b\u0629", "name:ar": "\u0642\u0631\u064a\u0629 \u062f\u064a\u0631 \u0623\u0645 \u062a\u0648\u062b\u0629", "name:ar1": "\u0642\u0631\u064a\u0629 \u062f\u064a\u0631 \u0623\u0645 \u062a\u0648\u062b\u0629", "name:de": "Dayr Umm Tunah", "name:en": "Dayr Umm Tunah", "name:fr": "Dayr Umm Tunah", "place": "village"}}, {"type": "node", "id": 2488214942, "lat": 36.4921621, "lon": 42.593105, "tags": {"alt_name": "\u062a\u0645\u0631\u0627\u062a;\u0623\u062a\u0645\u0627\u0631\u0627\u062a", "alt_name:ar": "\u062a\u0645\u0631\u0627\u062a;\u0623\u062a\u0645\u0627\u0631\u0627\u062a", "int_name": "Itm\u0101r\u0101t, Tam\u0101r\u0101t, Tim\u0101r\u0101t, \u0627\u062a\u0645\u0627\u0631\u0627\u062a, Itmarat, Tamarat, Timarat, \u0627\u062a\u0645\u0627\u0631\u0627\u062a", "name": "\u0625\u062a\u0645\u0627\u0631\u0627\u062a", "name:ar": "\u0625\u062a\u0645\u0627\u0631\u0627\u062a", "name:de": "Itmarat", "name:en": "Itmarat", "place": "village"}}, {"type": "node", "id": 2488215004, "lat": 36.497187, "lon": 42.809716, "tags": {"alt_name": "\u0644\u0632\u0627\u0643\u0629", "int_name": "Lazz\u0101ga, Lazz\u0101kah, \u0644\u0632\u0627\u0643\u0629, Lazzaga, Lazzakah, \u0644\u0632\u0627\u0643\u0629", "is_in": "Iraq , \u062c\u0645\u0647\u0648\u0631\u064a\u0629 \u0627\u0644\u0639\u0631\u0627\u0642", "name": "\u0644\u0632\u0627\u0643\u0629", "name:ar": "\u0644\u0632\u0627\u0643\u0629", "name:ar1": "\u0644\u0632\u0627\u0643\u0629", "name:de": "Lazzaga", "name:en": "Lazzaga", "name:fr": "Lazzaga", "place": "village"}}, {"type": "node", "id": 2488215123, "lat": 36.494531, "lon": 42.844496, "tags": {"alt_name": "\u0634\u064a\u062e \u0642\u0631\u0629", "int_name": "Shaikh Qara, Shaykh Qara, Shaykh Qarah, Shaykh Qard, \u0634\u064a\u062e \u0642\u0631\u0629, Shaikh Qara, Shaykh Qara, Shaykh Qarah, Shaykh Qard, \u0634\u064a\u062e \u0642\u0631\u0629", "is_in": "Iraq , \u062c\u0645\u0647\u0648\u0631\u064a\u0629 \u0627\u0644\u0639\u0631\u0627\u0642", "name": "\u0634\u064a\u062e \u0642\u0631\u0629", "name:ar": "\u0634\u064a\u062e \u0642\u0631\u0629", "name:ar1": "\u0634\u064a\u062e \u0642\u0631\u0629", "name:de": "Shaikh Qara", "name:en": "Shaikh Qara", "name:fr": "Shaikh Qara", "place": "village"}}, {"type": "node", "id": 2488215665, "lat": 36.4225663, "lon": 42.7689129, "tags": {"alt_name": "\u0627\u0644\u0628\u0648\u064a\u062f", "int_name": "Al Buwayd, \u0627\u0644\u0628\u0648\u064a\u062f, Al Buwayd, \u0627\u0644\u0628\u0648\u064a\u062f", "is_in": "Iraq , \u062c\u0645\u0647\u0648\u0631\u064a\u0629 \u0627\u0644\u0639\u0631\u0627\u0642", "name": "\u0627\u0644\u0628\u0648\u064a\u0631", "name:ar": "\u0627\u0644\u0628\u0648\u064a\u0631", "name:ar1": "\u0627\u0644\u0628\u0648\u064a\u062f", "name:de": "Al Buwayd", "name:en": "Al Buwayd", "name:fr": "Al Buwayd", "name:ru": "\u042d\u043b\u044c-\u0411\u0443\u0432\u0430\u0439\u0440", "place": "village"}}, {"type": "node", "id": 2488215691, "lat": 36.488316, "lon": 42.481862, "tags": {"alt_name": "\u0627\u0644\u0633\u0627\u062c\u0639\u0629", "int_name": "As S\u0101jiah, Sajiaa, \u0627\u0644\u0635\u0627\u062c\u0639\u0629, As Sajiah, Sajiaa, \u0627\u0644\u0633\u0627\u062c\u0639\u0629", "is_in": "Iraq , \u062c\u0645\u0647\u0648\u0631\u064a\u0629 \u0627\u0644\u0639\u0631\u0627\u0642", "name": "\u0627\u0644\u0633\u0627\u062c\u0639\u0629", "name:ar": "\u0627\u0644\u0635\u0627\u062c\u0639\u0629", "name:ar1": "\u0627\u0644\u0633\u0627\u062c\u0639\u0629", "name:de": "As Sajiah", "name:en": "As Sajiah", "name:fr": "As Sajiah", "place": "village"}}, {"type": "node", "id": 2488215735, "lat": 36.4352842, "lon": 42.8006561, "tags": {"alt_name": "\u0627\u0644\u0632\u0646\u0627\u0632\u0644", "int_name": "Az Zan\u0101zil, Zan\u0101zil, \u0627\u0644\u0632\u0646\u0627\u0632\u0644, Az Zanazil, Zanazil, \u0627\u0644\u0632\u0646\u0627\u0632\u0644", "is_in": "Iraq , \u062c\u0645\u0647\u0648\u0631\u064a\u0629 \u0627\u0644\u0639\u0631\u0627\u0642", "name": "\u0627\u0644\u0632\u0646\u0627\u0632\u0644", "name:ar": "\u0627\u0644\u0632\u0646\u0627\u0632\u0644", "name:ar1": "\u0627\u0644\u0632\u0646\u0627\u0632\u0644", "name:de": "Az Zanazil", "name:en": "Az Zanazil", "name:fr": "Az Zanazil", "place": "village"}}, {"type": "node", "id": 2488215816, "lat": 36.4581441, "lon": 42.8731955, "tags": {"alt_name": "\u063a\u0631\u0628\u0644\u0648\u0629", "int_name": "Gharbal\u016bh, Gharbalwah, Gharblawa, \u063a\u0631\u0628\u0644\u0648\u0629, Gharbaluh, Gharbalwah, Gharblawa, \u063a\u0631\u0628\u0644\u0648\u0629", "is_in": "Iraq , \u062c\u0645\u0647\u0648\u0631\u064a\u0629 \u0627\u0644\u0639\u0631\u0627\u0642", "name": "\u063a\u0631\u0628 \u0644\u0648\u062d", "name:ar": "\u063a\u0631\u0628\u0644\u0648\u0629", "name:ar1": "\u063a\u0631\u0628\u0644\u0648\u0629", "name:de": "Gharbaluh", "name:en": "Gharbaluh", "name:fr": "Gharbaluh", "place": "village"}}, {"type": "node", "id": 2488216215, "lat": 36.334429, "lon": 42.370342, "tags": {"alt_name": "\u0642\u0635\u0631 \u0645\u0647\u0631\u0627\u0628", "int_name": "Qasr Mahrab, Qa\u015fr Mihr\u0101b, \u0642\u0635\u0631 \u0645\u062d\u0631\u0627\u0628, Qasr Mahrab, Qasr Mihrab, \u0642\u0635\u0631 \u0645\u062d\u0631\u0627\u0628", "name": "\u0642\u0635\u0631 \u0645\u062d\u0631\u0627\u0628", "name:ar": "\u0643\u0633\u0631 \u0645\u062d\u0631\u0627\u0628", "name:ar1": "\u0642\u0635\u0631 \u0645\u062d\u0631\u0627\u0628", "name:de": "Qasr Mahrab", "name:en": "Qasr Mahrab", "name:fr": "Qasr Mahrab", "place": "village"}}, {"type": "node", "id": 2488216225, "lat": 36.319999, "lon": 42.386911, "tags": {"alt_name": "\u0642\u0632\u0644 \u0642\u0648\u064a\u0648", "int_name": "Qazal Q\u016by\u016b, Qulula, \u0642\u0632\u0644 \u0642\u0648\u064a\u0648, Qazal Quyu, Qulula, \u0642\u0632\u0644 \u0642\u0648\u064a\u0648", "name": "\u0642\u0632\u0644 \u0642\u0648\u064a\u0648 K\u0131z\u0131l K\u00f6y\u00fc", "name:ar": "\u0642\u0632\u0644 \u0642\u0648\u064a\u0648 \u062d\u0633\u0646 \u062a\u0631\u0643\u0645\u0627\u0646\u064a", "name:ar1": "\u0642\u0632\u0644 \u0642\u0648\u064a\u0648", "name:de": "Qazal Quyu", "name:en": "Qazal Quyu", "name:fr": "Qazal Quyu", "name:tr": "K\u0131z\u0131l K\u00f6y\u00fc", "place": "village"}}, {"type": "node", "id": 2488225813, "lat": 36.3898587, "lon": 42.660031, "tags": {"alt_name": "\u0627\u0644\u062f\u0628\u0648\u0646\u0629", "int_name": "Ad Dab\u016bnah, Dabuna, Dab\u016bnah, \u0627\u0644\u062f\u0628\u0648\u0646\u0629, Ad Dabunah, Dabuna, Dabunah, \u0627\u0644\u062f\u0628\u0648\u0646\u0629", "is_in": "Iraq , \u062c\u0645\u0647\u0648\u0631\u064a\u0629 \u0627\u0644\u0639\u0631\u0627\u0642", "name": "\u062f\u0628\u0648\u0646\u0629", "name:ar": "\u062f\u0628\u0648\u0646\u0629", "name:de": "Dabunah", "name:en": "Dabunah", "name:fr": "Dabunah", "place": "village"}}, {"type": "node", "id": 2488225858, "lat": 36.360762, "lon": 42.715915, "tags": {"alt_name": "\u0645\u064a\u062c\u0631\u064a\u0646", "int_name": "Mayjar\u012bn, \u0645\u064a\u062c\u0631\u064a\u0646, Mayjarin, \u0645\u064a\u062c\u0631\u064a\u0646", "name": "\u0645\u062c\u0627\u0631\u064a\u0646", "name:ar": "\u0645\u062c\u0627\u0631\u064a\u0646", "name:ar1": "\u0645\u064a\u062c\u0631\u064a\u0646", "name:de": "Mjarin", "name:en": "Mjarin", "name:fr": "Mjarin", "place": "village", "population": "\u0639\u0631\u0628 \u0645\u0646 \u0639\u0634\u064a\u0631\u0629 \u0627\u0644\u0644\u0648\u064a\u0632\u064a\u064a\u0646"}}, {"type": "node", "id": 2488225892, "lat": 36.364722, "lon": 42.693889, "tags": {"alt_name": "\u062a\u0648\u064a\u0645", "alt_name:en": "Tu'aym", "int_name": "Tuaym, Tuwaim, Tuwaym, Tuaym, Tuwaim, Tuwaym", "name": "\u062a\u0648\u064a\u0645", "name:ar": "\u062a\u0648\u064a\u0645", "name:de": "Tuaym", "name:en": "Tuaym", "name:fr": "Tuaym", "place": "village"}}, {"type": "node", "id": 2488226222, "lat": 36.2403084, "lon": 42.8004253, "tags": {"alt_name": "\u062d\u0631\u0627\u062f\u0629", "int_name": "Har\u0101da, \u1e28ar\u0101dah, \u062d\u0631\u0627\u062f\u0629, Harada, Haradah, \u062d\u0631\u0627\u062f\u0629", "name": "\u062d\u0631\u0627\u062f\u0629", "name:ar": "\u062d\u0631\u0627\u062f\u0629", "name:ar1": "\u062d\u0631\u0627\u062f\u0629", "name:de": "Harada", "name:en": "Harada", "name:fr": "Harada", "place": "village"}}, {"type": "node", "id": 2488226237, "lat": 36.196679, "lon": 42.705605, "tags": {"alt_name": "\u0646\u0632\u0627\u0631\u0629", "int_name": "Nizaja, Niz\u0101jah, Niz\u0101rah, Niz\u0101zah, \u0646\u0632\u0627\u0631\u0629, Nizaja, Nizajah, Nizarah, Nizazah, \u0646\u0632\u0627\u0631\u0629", "name": "\u0646\u0632\u0627\u0632\u0629", "name:ar": "\u0646\u0632\u0627\u0631\u0629", "name:ar1": "\u0646\u0632\u0627\u0631\u0629", "name:de": "Nizaja", "name:en": "Nizaja", "name:fr": "Nizaja", "place": "village"}}, {"type": "node", "id": 2488226257, "lat": 36.1604564, "lon": 42.7010693, "tags": {"alt_name": "\u062a\u0644 \u0633\u064a\u0631\u0648\u0627\u0644", "int_name": "Sirw\u0101l, Tall S\u012brw\u0101l, Tel Sirwal, Sirwal, Tall Sirwal, Tel Sirwal", "name": "\u062a\u0644 \u0633\u0631\u0648\u0627\u0644", "name:ar": "\u062a\u0644 \u0633\u0631\u0648\u0627\u0644", "name:ar1": "\u062a\u0644 \u0633\u064a\u0631\u0648\u0627\u0644", "name:de": "Sirwal", "name:en": "Sirwal", "name:fr": "Sirwal", "place": "village"}}, {"type": "node", "id": 2488226284, "lat": 36.2490456, "lon": 42.772651, "tags": {"alt_name": "\u062a\u0644 \u0623\u0628\u0648 \u0634\u0642\u0629", "int_name": "Tall Ab\u016b Fushga, Tall Ab\u016b Shuqqah, Tel Abu Shugga, Tall Abu Fushga, Tall Abu Shuqqah, Tel Abu Shugga", "name": "\u062a\u0644 \u0623\u0628\u0648 \u0634\u0642\u0629", "name:ar": "\u062a\u0644 \u0623\u0628\u0648 \u0634\u0642\u0629", "name:ar1": "\u062a\u0644 \u0623\u0628\u0648 \u0634\u0642\u0629", "name:de": "Tall Abu Fushga", "name:en": "Tall Abu Fushga", "name:fr": "Tall Abu Fushga", "place": "village"}}, {"type": "node", "id": 2488226328, "lat": 36.138833, "lon": 42.6616851, "tags": {"alt_name": "\u0623\u0645 \u062d\u062c\u0627\u0631\u0629 \u0627\u0644\u0639\u0644\u064a\u0627", "int_name": "Umm \u1e28ij\u0101rah al Uly\u0101, Umm Zara, Umm Z\u0101rah, \u0627\u0645 \u062d\u062c\u0627\u0631\u0629 \u0627\u0644\u0639\u0644\u064a\u0627, Umm Hijarah al Ulya, Umm Zara, Umm Zarah, \u0627\u0645 \u062d\u062c\u0627\u0631\u0629 \u0627\u0644\u0639\u0644\u064a\u0627", "name": "\u0623\u0645 \u062d\u062c\u0631\u0629 \u0627\u0644\u0639\u0644\u064a\u0627", "name:ar": "\u0623\u0645 \u062d\u062c\u0631\u0629 \u0627\u0644\u0639\u0644\u064a\u0627", "name:ar1": "\u0623\u0645 \u062d\u062c\u0627\u0631\u0629 \u0627\u0644\u0639\u0644\u064a\u0627", "name:de": "Umm Hijarah al Ulya", "name:en": "Umm Hijrah al Ulya", "name:fr": "Umm Hijarah al Ulya", "place": "village"}}, {"type": "node", "id": 2488226332, "lat": 36.10436, "lon": 42.635102, "tags": {"alt_name": "\u0623\u0645 \u062d\u062c\u0627\u0631\u0629 \u0627\u0644\u0633\u0641\u0644\u0649", "int_name": "Umm \u1e28ij\u0101rah as Sufl\u00e1, \u0627\u0645 \u062d\u062c\u0627\u0631\u0629 \u0627\u0644\u0633\u0641\u0644\u0649, Umm Hijarah as Sufla, \u0627\u0645 \u062d\u062c\u0627\u0631\u0629 \u0627\u0644\u0633\u0641\u0644\u0649", "name": "\u0623\u0645 \u062d\u062c\u0631\u0629 \u0627\u0644\u0633\u0641\u0644\u0649", "name:ar": "\u0623\u0645 \u062d\u062c\u0631\u0629 \u0627\u0644\u0633\u0641\u0644\u0649", "name:ar1": "\u0623\u0645 \u062d\u062c\u0627\u0631\u0629 \u0627\u0644\u0633\u0641\u0644\u0649", "name:de": "Umm Hijarah as Sufla", "name:en": "Umm Hijrah as Sufla", "name:fr": "Umm Hijarah as Sufla", "place": "village"}}, {"type": "node", "id": 2488245767, "lat": 36.266584, "lon": 42.702901, "tags": {"alt_name": "Al Mu\u1e29allab\u012byah, Ma\u1e29lab\u012byah, Muh\u0101lab\u012bya, Muh\u0101lab\u012byah, Mu\u1e29allab\u012byah, \u0627\u0644\u0645\u062d\u0644\u0628\u064a\u0629, Al Muhallabiyah, Mahlabiyah, Muhalabiya, Muhalabiyah, Muhallabiyah, \u0627\u0644\u0645\u062d\u0644\u0628\u064a\u0629", "capital": "7", "int_name": "Al Muhallabiyah, \u0627\u0644\u0645\u062d\u0644\u0628\u064a\u0629", "is_in:country": "Iraq", "is_in:country_code": "IQ", "name": "\u0627\u0644\u0645\u062d\u0644\u0628\u064a\u0629", "name:ar": "\u0627\u0644\u0645\u062d\u0644\u0628\u064a\u0629", "name:de": "Al Muhallabiyah", "name:en": "Al Muhallabiyah", "name:fr": "Al Muhallabiyah", "place": "town", "wikidata": "Q12192503", "wikipedia": "ar:\u0627\u0644\u0645\u062d\u0644\u0628\u064a\u0629 (\u0627\u0644\u0645\u0648\u0635\u0644)"}}, {"type": "node", "id": 2488245832, "lat": 36.386492, "lon": 42.8898983, "tags": {"alt_name": "\u0627\u0644\u0631\u062d\u0645\u0627\u0646\u064a\u0629", "int_name": "Ar Ra\u1e29m\u0101n\u012byah, \u0627\u0644\u0631\u062d\u0645\u0627\u0646\u064a\u0629, Ar Rahmaniyah, \u0627\u0644\u0631\u062d\u0645\u0627\u0646\u064a\u0629", "is_in": "Iraq , \u062c\u0645\u0647\u0648\u0631\u064a\u0629 \u0627\u0644\u0639\u0631\u0627\u0642", "name": "\u0627\u0644\u0631\u064a\u062d\u0627\u0646\u064a\u0629", "name:ar": "\u0627\u0644\u0631\u064a\u062d\u0627\u0646\u064a\u0629", "name:ar1": "\u0627\u0644\u0631\u062d\u0645\u0627\u0646\u064a\u0629", "name:de": "Ar Rahmaniyah", "name:en": "Ar", "name:fr": "Ar Rahmaniyah", "place": "village"}}, {"type": "node", "id": 2488245911, "lat": 36.330834, "lon": 42.8492571, "tags": {"alt_name": "\u062e\u0631\u0628\u0629 \u0627\u0644\u0634\u0647\u062f\u0627\u0621", "int_name": "Ash Shuhad\u0101, Kharbat ash Shuh\u0101da, Khirbat ash Shah\u0101dah, \u0627\u0644\u0634\u0647\u062f\u0627\u0621, Ash Shuhada, Kharbat ash Shuhada, Khirbat ash Shahadah, \u0627\u0644\u0634\u0647\u062f\u0627\u0621", "name": "\u062e\u0631\u0628\u0629 \u0627\u0644\u0634\u0647\u062f\u0627\u0621", "name:ar": "\u062e\u0631\u0628\u0629 \u0627\u0644\u0634\u0647\u062f\u0627\u0621", "name:ar1": "\u062e\u0631\u0628\u0629 \u0627\u0644\u0634\u0647\u062f\u0627\u0621", "name:de": "Ash Shuhada", "name:en": "Ash Shuhada", "name:fr": "Ash Shuhada", "place": "village"}}, {"type": "node", "id": 2488245934, "lat": 36.3504862, "lon": 42.8449925, "tags": {"alt_name": "\u0627\u0644\u0637\u064a\u0634\u0629 \u0627\u0644\u0639\u0637\u0634\u0627\u0646\u0629", "int_name": "A\u0163 \u0162ayshah al A\u0163sh\u0101nah, \u0627\u0644\u0637\u064a\u0634\u0629 \u0627\u0644\u0639\u0637\u0634\u0627\u0646\u0629, At Tayshah al Atshanah, \u0627\u0644\u0637\u064a\u0634\u0629 \u0627\u0644\u0639\u0637\u0634\u0627\u0646\u0629", "name": "\u0627\u0644\u0639\u0637\u0634\u0627\u0646\u0629", "name:ar": "\u0627\u0644\u0637\u064a\u0634\u0629 \u0627\u0644\u0639\u0637\u0634\u0627\u0646\u0629", "name:ar1": "\u0627\u0644\u0637\u064a\u0634\u0629 \u0627\u0644\u0639\u0637\u0634\u0627\u0646\u0629", "name:de": "At Tayshah al Atshanah", "name:en": "At Tayshah al Atshanah", "name:fr": "At Tayshah al Atshanah", "place": "village"}}, {"type": "node", "id": 2488245976, "lat": 36.167222, "lon": 42.516667, "tags": {"alt_name": "\u0628\u0648\u064a\u0631", "int_name": "Buwair, Buwayr, Buwair, Buwayr", "name": "\u0628\u0648\u064a\u0631", "name:ar": "\u0628\u0648\u064a\u0631", "name:ar1": "\u0628\u0648\u064a\u0631", "name:de": "Buwair", "name:en": "Buwair", "name:fr": "Buwair", "name:ru": "\u0411\u0443\u0432\u0430\u0439\u0440", "place": "village"}}, {"type": "node", "id": 2488245985, "lat": 36.362413, "lon": 42.794028, "tags": {"alt_name": "\u0643\u0646\u064a\u0633\u064a\u0629", "int_name": "Gonais\u012bya, Gonays\u012byah, Gonesiya, Kan\u012bs\u012byah, Qunay\u015f\u012byah, \u0643\u0646\u064a\u0633\u064a\u0629, Gonaisiya, Gonaysiyah, Gonesiya, Kanisiyah, Qunaysiyah, \u0643\u0646\u064a\u0633\u064a\u0629", "name": "\u0643\u0646\u064a\u0633\u064a\u0629", "name:ar": "\u0643\u0646\u064a\u0633\u064a\u0629", "name:ar1": "\u0643\u0646\u064a\u0633\u064a\u0629", "name:de": "Gonaisiya", "name:en": "Gonaisiya", "name:fr": "Gonaisiya", "name:ru": "\u0413\u043e\u043d\u0430\u0439\u0441\u0438\u044f", "place": "village"}}, {"type": "node", "id": 2488245988, "lat": 36.2835622, "lon": 42.7858053, "tags": {"alt_name": "\u062d\u0644\u0627\u0648\u0629", "int_name": "\u1e28al\u0101wah, Mal\u0101wah, \u062d\u0644\u0627\u0648\u0629, Halawah, Malawah, \u062d\u0644\u0627\u0648\u0629", "name": "\u062d\u0644\u0627\u0648\u0629", "name:ar": "\u062d\u0644\u0627\u0648\u0629", "name:ar1": "\u062d\u0644\u0627\u0648\u0629", "name:de": "Halawah", "name:en": "Halawah", "name:fr": "Halawah", "place": "village"}}, {"type": "node", "id": 2488246118, "lat": 36.288508, "lon": 42.6458938, "tags": {"alt_name": "\u0634\u064a\u062e \u0625\u0628\u0631\u0627\u0647\u064a\u0645", "int_name": "Shaikh Ibr\u0101h\u012bm, Shaykh Ibr\u0101h\u012bm, \u0634\u064a\u062e \u0627\u0628\u0631\u0627\u0647\u064a\u0645, Shaikh Ibrahim, Shaykh Ibrahim, \u0634\u064a\u062e \u0627\u0628\u0631\u0627\u0647\u064a\u0645", "name": "\u0634\u064a\u062e \u0625\u0628\u0631\u0627\u0647\u064a\u0645", "name:ar": "\u0634\u064a\u062e \u0625\u0628\u0631\u0627\u0647\u064a\u0645", "name:ar1": "\u0634\u064a\u062e \u0625\u0628\u0631\u0627\u0647\u064a\u0645", "name:de": "Shaikh Ibrahim", "name:en": "Shaikh Ibrahim", "name:fr": "Shaikh Ibrahim", "place": "village"}}, {"type": "node", "id": 2488246186, "lat": 36.3186793, "lon": 42.8947797, "tags": {"alt_name": "\u062a\u0644 \u062e\u0632\u0641", "int_name": "Tall Khazaf, Tel Khazaf, \u062a\u0644 \u062e\u0632\u0641, Tall Khazaf, Tel Khazaf, \u062a\u0644 \u062e\u0632\u0641", "name": "\u062a\u0644 \u062e\u0632\u0641", "name:ar": "\u062a\u0644 \u062e\u0632\u0641", "name:ar1": "\u062a\u0644 \u062e\u0632\u0641", "name:de": "Tall Khazaf", "name:en": "Tall Khazaf", "name:fr": "Tall Khazaf", "place": "village"}}, {"type": "node", "id": 2785337833, "lat": 36.2753563, "lon": 42.8788874}, {"type": "node", "id": 2785337836, "lat": 36.2793289, "lon": 42.8794104}, {"type": "node", "id": 2785337874, "lat": 36.2764228, "lon": 42.8787345}, {"type": "node", "id": 2785337880, "lat": 36.2738948, "lon": 42.8824655}, {"type": "node", "id": 2785337882, "lat": 36.2792225, "lon": 42.8812258}, {"type": "node", "id": 2785337890, "lat": 36.2767168, "lon": 42.8779084}, {"type": "node", "id": 2785337893, "lat": 36.2750735, "lon": 42.8835732}, {"type": "node", "id": 2785337936, "lat": 36.2854928, "lon": 42.8270028}, {"type": "node", "id": 2785337952, "lat": 36.2879056, "lon": 42.8277538}, {"type": "node", "id": 2785337969, "lat": 36.2857349, "lon": 42.8262946}, {"type": "node", "id": 2785337997, "lat": 36.2821916, "lon": 42.8258306}, {"type": "node", "id": 2785338005, "lat": 36.2896611, "lon": 42.8298674}, {"type": "node", "id": 2785338015, "lat": 36.2859771, "lon": 42.8321526}, {"type": "node", "id": 2785338074, "lat": 36.2751747, "lon": 42.8806469}, {"type": "node", "id": 2785338126, "lat": 36.2875277, "lon": 42.8269893}, {"type": "node", "id": 2785338127, "lat": 36.2774667, "lon": 42.877675}, {"type": "node", "id": 2785338183, "lat": 36.2729693, "lon": 42.8828571}, {"type": "node", "id": 2785338185, "lat": 36.2866888, "lon": 42.830444}, {"type": "node", "id": 2785338214, "lat": 36.2749697, "lon": 42.8824896}, {"type": "node", "id": 2785338287, "lat": 36.2832528, "lon": 42.8328392}, {"type": "node", "id": 2785338347, "lat": 36.2782192, "lon": 42.8832428}, {"type": "node", "id": 2785338351, "lat": 36.2858473, "lon": 42.829803}, {"type": "node", "id": 2785338372, "lat": 36.2746903, "lon": 42.8796491}, {"type": "node", "id": 2785338374, "lat": 36.2802171, "lon": 42.830908}, {"type": "node", "id": 2785338378, "lat": 36.2863576, "lon": 42.8283117}, {"type": "node", "id": 2785338416, "lat": 36.2794932, "lon": 42.8785199}, {"type": "node", "id": 2785338424, "lat": 36.2904826, "lon": 42.8284833}, {"type": "node", "id": 2785338485, "lat": 36.2730062, "lon": 42.8835464}, {"type": "node", "id": 2785338550, "lat": 36.2834284, "lon": 42.8324718}, {"type": "node", "id": 2785338551, "lat": 36.2785998, "lon": 42.8844659}, {"type": "node", "id": 2785338565, "lat": 36.2780116, "lon": 42.8843157}, {"type": "node", "id": 2785338584, "lat": 36.2783576, "lon": 42.88541}, {"type": "node", "id": 2785338601, "lat": 36.2811278, "lon": 42.8320319}, {"type": "node", "id": 2785338606, "lat": 36.2795771, "lon": 42.8801808}, {"type": "node", "id": 2785479915, "lat": 36.4587086, "lon": 42.7016518}, {"type": "node", "id": 2785479918, "lat": 36.4345427, "lon": 42.8089145}, {"type": "node", "id": 2785479931, "lat": 36.4261099, "lon": 42.7743075}, {"type": "node", "id": 2785479939, "lat": 36.4967534, "lon": 42.8113542}, {"type": "node", "id": 2785479954, "lat": 36.4944936, "lon": 42.8115473}, {"type": "node", "id": 2785479957, "lat": 36.4438989, "lon": 42.6678269}, {"type": "node", "id": 2785479963, "lat": 36.4351296, "lon": 42.7917912}, {"type": "node", "id": 2785479993, "lat": 36.4204199, "lon": 42.7672222}, {"type": "node", "id": 2785479996, "lat": 36.4246501, "lon": 42.7614715}, {"type": "node", "id": 2785480001, "lat": 36.5089375, "lon": 42.7777901}, {"type": "node", "id": 2785480004, "lat": 36.4898083, "lon": 42.8482699}, {"type": "node", "id": 2785480007, "lat": 36.4978729, "lon": 42.8114357}, {"type": "node", "id": 2785480010, "lat": 36.4604676, "lon": 42.7039542}, {"type": "node", "id": 2785480013, "lat": 36.4193148, "lon": 42.7647653}, {"type": "node", "id": 2785480016, "lat": 36.4428998, "lon": 42.6638275}, {"type": "node", "id": 2785480018, "lat": 36.4270327, "lon": 42.7614286}, {"type": "node", "id": 2785480021, "lat": 36.4178644, "lon": 42.7763632}, {"type": "node", "id": 2785480025, "lat": 36.4335068, "lon": 42.7923706}, {"type": "node", "id": 2785480028, "lat": 36.5088028, "lon": 42.7820145}, {"type": "node", "id": 2785480031, "lat": 36.420084, "lon": 42.7773545}, {"type": "node", "id": 2785480035, "lat": 36.4284312, "lon": 42.7651193}, {"type": "node", "id": 2785480038, "lat": 36.4336027, "lon": 42.8060434}, {"type": "node", "id": 2785480042, "lat": 36.4370804, "lon": 42.7996877}, {"type": "node", "id": 2785480046, "lat": 36.4368732, "lon": 42.7952674}, {"type": "node", "id": 2785480053, "lat": 36.419566, "lon": 42.7732561}, {"type": "node", "id": 2785480058, "lat": 36.4271363, "lon": 42.7666643}, {"type": "node", "id": 2785480070, "lat": 36.4992865, "lon": 42.8679323}, {"type": "node", "id": 2785480074, "lat": 36.4938278, "lon": 42.840403}, {"type": "node", "id": 2785480078, "lat": 36.4978576, "lon": 42.8687258}, {"type": "node", "id": 2785480082, "lat": 36.4918112, "lon": 42.8475962}, {"type": "node", "id": 2785480091, "lat": 36.4444582, "lon": 42.6601574}, {"type": "node", "id": 2785480095, "lat": 36.498123, "lon": 42.812573}, {"type": "node", "id": 2785480101, "lat": 36.4281204, "lon": 42.7684882}, {"type": "node", "id": 2785480123, "lat": 36.4965791, "lon": 42.8651759}, {"type": "node", "id": 2785480126, "lat": 36.5069682, "lon": 42.7915418}, {"type": "node", "id": 2785480130, "lat": 36.4949922, "lon": 42.8116932}, {"type": "node", "id": 2785480133, "lat": 36.5085408, "lon": 42.7905359}, {"type": "node", "id": 2785480137, "lat": 36.5018488, "lon": 42.7874246}, {"type": "node", "id": 2785480147, "lat": 36.4951233, "lon": 42.8428433}, {"type": "node", "id": 2785480150, "lat": 36.4359928, "lon": 42.7919843}, {"type": "node", "id": 2785480152, "lat": 36.4981462, "lon": 42.8672533}, {"type": "node", "id": 2785480156, "lat": 36.507782, "lon": 42.7767065}, {"type": "node", "id": 2785480160, "lat": 36.4320567, "lon": 42.7951601}, {"type": "node", "id": 2785480162, "lat": 36.4972691, "lon": 42.8629229}, {"type": "node", "id": 2785480165, "lat": 36.4250644, "lon": 42.7600768}, {"type": "node", "id": 2785480167, "lat": 36.4970552, "lon": 42.8108392}, {"type": "node", "id": 2785480173, "lat": 36.4950612, "lon": 42.8461537}, {"type": "node", "id": 2785480182, "lat": 36.4357166, "lon": 42.8077987}, {"type": "node", "id": 2785480185, "lat": 36.4291045, "lon": 42.7633384}, {"type": "node", "id": 2785480192, "lat": 36.4211623, "lon": 42.760463}, {"type": "node", "id": 2785480196, "lat": 36.4257551, "lon": 42.7650121}, {"type": "node", "id": 2785480203, "lat": 36.4968034, "lon": 42.8089359}, {"type": "node", "id": 2785480204, "lat": 36.4178471, "lon": 42.7703336}, {"type": "node", "id": 2785480206, "lat": 36.4465916, "lon": 42.6590755}, {"type": "node", "id": 2785480212, "lat": 36.4893771, "lon": 42.8460357}, {"type": "node", "id": 2785480218, "lat": 36.4584534, "lon": 42.7031669}, {"type": "node", "id": 2785480224, "lat": 36.4231479, "lon": 42.7643898}, {"type": "node", "id": 2785480227, "lat": 36.5043098, "lon": 42.7930438}, {"type": "node", "id": 2785480235, "lat": 36.4923097, "lon": 42.841079}, {"type": "node", "id": 2785480237, "lat": 36.4334818, "lon": 42.8000353}, {"type": "node", "id": 2785480239, "lat": 36.4968034, "lon": 42.8117361}, {"type": "node", "id": 2785480243, "lat": 36.4946385, "lon": 42.8085711}, {"type": "node", "id": 2785480250, "lat": 36.4998479, "lon": 42.864103}, {"type": "node", "id": 2785480253, "lat": 36.496348, "lon": 42.8414808}, {"type": "node", "id": 2785480255, "lat": 36.5029818, "lon": 42.7915016}, {"type": "node", "id": 2785480259, "lat": 36.4966481, "lon": 42.8082063}, {"type": "node", "id": 2785480262, "lat": 36.4992787, "lon": 42.8636739}, {"type": "node", "id": 2785480263, "lat": 36.4932585, "lon": 42.8481815}, {"type": "node", "id": 2785480270, "lat": 36.459792, "lon": 42.7012622}, {"type": "node", "id": 2785480272, "lat": 36.4437185, "lon": 42.6658819}, {"type": "node", "id": 2785480274, "lat": 36.421638, "lon": 42.7783416}, {"type": "node", "id": 2785480278, "lat": 36.496486, "lon": 42.8660283}, {"type": "node", "id": 2785480282, "lat": 36.4902414, "lon": 42.8456865}, {"type": "node", "id": 2785480284, "lat": 36.4961738, "lon": 42.8079381}, {"type": "node", "id": 2785480289, "lat": 36.420015, "lon": 42.7710674}, {"type": "node", "id": 2785480293, "lat": 36.4183996, "lon": 42.7748397}, {"type": "node", "id": 2785480295, "lat": 36.4421074, "lon": 42.664039}, {"type": "node", "id": 2785480297, "lat": 36.4589198, "lon": 42.703604}, {"type": "node", "id": 2785480300, "lat": 36.4970121, "lon": 42.8104101}, {"type": "node", "id": 2785480302, "lat": 36.4445178, "lon": 42.6562696}, {"type": "node", "id": 2785480304, "lat": 36.4897437, "lon": 42.8466982}, {"type": "node", "id": 2785480306, "lat": 36.4439881, "lon": 42.6707534}, {"type": "node", "id": 2785480307, "lat": 36.4963118, "lon": 42.8119507}, {"type": "node", "id": 2785480310, "lat": 36.4474907, "lon": 42.6567555}, {"type": "node", "id": 2785480313, "lat": 36.497778, "lon": 42.811028}, {"type": "node", "id": 2785480317, "lat": 36.4950198, "lon": 42.8079531}, {"type": "node", "id": 2785480322, "lat": 36.4969155, "lon": 42.8691349}, {"type": "node", "id": 2785480323, "lat": 36.4602018, "lon": 42.7022785}, {"type": "node", "id": 2785480326, "lat": 36.5024611, "lon": 42.7780047}, {"type": "node", "id": 2785480328, "lat": 36.4959426, "lon": 42.8426824}, {"type": "node", "id": 2785480330, "lat": 36.4245637, "lon": 42.7741316}, {"type": "node", "id": 2785480338, "lat": 36.4606953, "lon": 42.7033923}, {"type": "node", "id": 2785480340, "lat": 36.4337831, "lon": 42.8069189}, {"type": "node", "id": 2785480349, "lat": 36.5086271, "lon": 42.7867808}, {"type": "node", "id": 2785480355, "lat": 36.4973571, "lon": 42.8099058}, {"type": "node", "id": 2785480357, "lat": 36.4955787, "lon": 42.8436432}, {"type": "node", "id": 2785480359, "lat": 36.4180638, "lon": 42.7725694}, {"type": "node", "id": 2785480364, "lat": 36.5047896, "lon": 42.7763525}, {"type": "node", "id": 2785480367, "lat": 36.4974071, "lon": 42.812691}, {"type": "node", "id": 2785480370, "lat": 36.4255824, "lon": 42.7660849}, {"type": "node", "id": 2785480372, "lat": 36.4906036, "lon": 42.8415451}, {"type": "node", "id": 2785480374, "lat": 36.4236616, "lon": 42.7607259}, {"type": "node", "id": 2785480376, "lat": 36.4891226, "lon": 42.8463468}, {"type": "node", "id": 2785480383, "lat": 36.4940365, "lon": 42.8104208}, {"type": "node", "id": 2785480388, "lat": 36.4592368, "lon": 42.7013023}, {"type": "node", "id": 2785480392, "lat": 36.4205675, "lon": 42.7749512}, {"type": "node", "id": 2785480394, "lat": 36.4981075, "lon": 42.8120945}, {"type": "node", "id": 2785480396, "lat": 36.4901275, "lon": 42.8423664}, {"type": "node", "id": 2785480400, "lat": 36.5090065, "lon": 42.7804938}, {"type": "node", "id": 2785480402, "lat": 36.4962083, "lon": 42.8408858}, {"type": "node", "id": 2785480403, "lat": 36.4903707, "lon": 42.8428862}, {"type": "node", "id": 2919422852, "lat": 36.4019085, "lon": 42.4545132}, {"type": "node", "id": 2919422857, "lat": 36.4029187, "lon": 42.4489174}, {"type": "node", "id": 2919422862, "lat": 36.4053367, "lon": 42.4553781}, {"type": "node", "id": 2919422863, "lat": 36.4050847, "lon": 42.4487758}, {"type": "node", "id": 2919422868, "lat": 36.4062105, "lon": 42.4454648}, {"type": "node", "id": 2919422870, "lat": 36.4066095, "lon": 42.4561767}, {"type": "node", "id": 2919422873, "lat": 36.4077129, "lon": 42.4543507}, {"type": "node", "id": 2919422875, "lat": 36.4095136, "lon": 42.454955}, {"type": "node", "id": 2919422876, "lat": 36.4082989, "lon": 42.4513341}, {"type": "node", "id": 2919422879, "lat": 36.4096447, "lon": 42.4474301}, {"type": "node", "id": 2919422886, "lat": 36.4117108, "lon": 42.4568318}, {"type": "node", "id": 2968661081, "lat": 36.0359178, "lon": 42.7941492}, {"type": "node", "id": 2968661082, "lat": 36.0373079, "lon": 42.7911204}, {"type": "node", "id": 2968661083, "lat": 36.0381908, "lon": 42.7986973}, {"type": "node", "id": 2968661084, "lat": 36.0404436, "lon": 42.7935394}, {"type": "node", "id": 2968661086, "lat": 36.0417152, "lon": 42.8005607}, {"type": "node", "id": 2968661101, "lat": 36.0555274, "lon": 42.8185092}, {"type": "node", "id": 2968661103, "lat": 36.0559097, "lon": 42.7925877}, {"type": "node", "id": 2968661106, "lat": 36.0579876, "lon": 42.7869218}, {"type": "node", "id": 2968661107, "lat": 36.0585749, "lon": 42.7912173}, {"type": "node", "id": 2968661108, "lat": 36.0594745, "lon": 42.8084094}, {"type": "node", "id": 2968661111, "lat": 36.061415, "lon": 42.8083778}, {"type": "node", "id": 2968661115, "lat": 36.066694, "lon": 42.7863849}, {"type": "node", "id": 2968661116, "lat": 36.0668531, "lon": 42.7895695}, {"type": "node", "id": 2968661117, "lat": 36.0673382, "lon": 42.8030717}, {"type": "node", "id": 2974343585, "lat": 36.434992, "lon": 42.6232205}, {"type": "node", "id": 2974343587, "lat": 36.4362943, "lon": 42.626716}, {"type": "node", "id": 2982912720, "lat": 36.0525157, "lon": 42.8806592}, {"type": "node", "id": 2982912721, "lat": 36.0556878, "lon": 42.8744665}, {"type": "node", "id": 2982912722, "lat": 36.0567196, "lon": 42.8841338}, {"type": "node", "id": 2982912723, "lat": 36.0585993, "lon": 42.8755742}, {"type": "node", "id": 2982912724, "lat": 36.0626157, "lon": 42.8782548}, {"type": "node", "id": 2982912725, "lat": 36.0628341, "lon": 42.8827629}, {"type": "node", "id": 2982912726, "lat": 36.0632508, "lon": 42.8819753}, {"type": "node", "id": 2982912727, "lat": 36.0645958, "lon": 42.8828303}, {"type": "node", "id": 2982912728, "lat": 36.0649741, "lon": 42.8822192}, {"type": "node", "id": 2982912729, "lat": 36.0660058, "lon": 42.8861901}, {"type": "node", "id": 2982912730, "lat": 36.0674196, "lon": 42.8836847}, {"type": "node", "id": 2982915456, "lat": 36.1992248, "lon": 42.9095465}, {"type": "node", "id": 2982915457, "lat": 36.1994626, "lon": 42.913721}, {"type": "node", "id": 2982915458, "lat": 36.2010874, "lon": 42.9140975}, {"type": "node", "id": 2982915459, "lat": 36.2011931, "lon": 42.9062561}, {"type": "node", "id": 2982915460, "lat": 36.202065, "lon": 42.9142285}, {"type": "node", "id": 2982915461, "lat": 36.2022763, "lon": 42.9084825}, {"type": "node", "id": 2982915462, "lat": 36.2041389, "lon": 42.9090227}, {"type": "node", "id": 2982915463, "lat": 36.2042842, "lon": 42.9096611}, {"type": "node", "id": 2982915464, "lat": 36.2053278, "lon": 42.9125587}, {"type": "node", "id": 2982915465, "lat": 36.2060015, "lon": 42.9105615}, {"type": "node", "id": 2986808607, "lat": 36.428707, "lon": 42.8038501}, {"type": "node", "id": 2986808608, "lat": 36.4289517, "lon": 42.8021212}, {"type": "node", "id": 2986808609, "lat": 36.4302655, "lon": 42.8014969}, {"type": "node", "id": 2986808610, "lat": 36.430639, "lon": 42.8080763}, {"type": "node", "id": 2986808611, "lat": 36.4308451, "lon": 42.8053389}, {"type": "node", "id": 2986808612, "lat": 36.4319877, "lon": 42.8027095}, {"type": "node", "id": 2986808613, "lat": 36.432524, "lon": 42.8050008}, {"type": "node", "id": 2986808614, "lat": 36.432571, "lon": 42.8079963}, {"type": "node", "id": 2986808618, "lat": 36.4462312, "lon": 42.6692584}, {"type": "node", "id": 2986808619, "lat": 36.4499344, "lon": 42.675479}, {"type": "node", "id": 2986808620, "lat": 36.4504934, "lon": 42.6635117}, {"type": "node", "id": 2986808621, "lat": 36.4517447, "lon": 42.6633961}, {"type": "node", "id": 2986808622, "lat": 36.4540495, "lon": 42.6682928}, {"type": "node", "id": 2992243596, "lat": 36.4354167, "lon": 42.631914}, {"type": "node", "id": 2992243598, "lat": 36.4365079, "lon": 42.6380893}, {"type": "node", "id": 2992243599, "lat": 36.4372652, "lon": 42.6294154}, {"type": "node", "id": 2992243603, "lat": 36.4387544, "lon": 42.6316433}, {"type": "node", "id": 2992243606, "lat": 36.4396787, "lon": 42.6395095}, {"type": "node", "id": 2992243608, "lat": 36.4402293, "lon": 42.637415}, {"type": "node", "id": 2992243611, "lat": 36.4409486, "lon": 42.6313533}, {"type": "node", "id": 2992243612, "lat": 36.4411797, "lon": 42.6238536}, {"type": "node", "id": 2992243613, "lat": 36.4413475, "lon": 42.6379457}, {"type": "node", "id": 2992243616, "lat": 36.4419499, "lon": 42.6320713}, {"type": "node", "id": 2992243620, "lat": 36.4431437, "lon": 42.6306831}, {"type": "node", "id": 2992243621, "lat": 36.4432592, "lon": 42.6263907}, {"type": "node", "id": 2992249506, "lat": 36.4440422, "lon": 42.6315129}, {"type": "node", "id": 2992249508, "lat": 36.4453002, "lon": 42.6295342}, {"type": "node", "id": 2992249510, "lat": 36.4454157, "lon": 42.6239015}, {"type": "node", "id": 2992249512, "lat": 36.4475464, "lon": 42.630731}, {"type": "node", "id": 2992249514, "lat": 36.4479443, "lon": 42.626678}, {"type": "node", "id": 2992249515, "lat": 36.4480855, "lon": 42.6253376}, {"type": "node", "id": 2992249516, "lat": 36.4482909, "lon": 42.6260397}, {"type": "node", "id": 2992249518, "lat": 36.4488557, "lon": 42.6276673}, {"type": "node", "id": 3005596695, "lat": 36.1861526, "lon": 42.8011872}, {"type": "node", "id": 3005596696, "lat": 36.1868907, "lon": 42.7991928}, {"type": "node", "id": 3005596697, "lat": 36.1878251, "lon": 42.8036097}, {"type": "node", "id": 3005596698, "lat": 36.1891521, "lon": 42.8059446}, {"type": "node", "id": 3005596699, "lat": 36.1894819, "lon": 42.80037}, {"type": "node", "id": 3005596741, "lat": 36.1907696, "lon": 42.8049133}, {"type": "node", "id": 3005596744, "lat": 36.191327, "lon": 42.8033275}, {"type": "node", "id": 3016772053, "lat": 36.4537594, "lon": 42.8762156}, {"type": "node", "id": 3016772058, "lat": 36.4544156, "lon": 42.8712815}, {"type": "node", "id": 3016772081, "lat": 36.4587487, "lon": 42.8722139}, {"type": "node", "id": 3016772082, "lat": 36.4608214, "lon": 42.8771998}, {"type": "node", "id": 3100616335, "lat": 36.5017382, "lon": 42.8520618}, {"type": "node", "id": 3100616339, "lat": 36.5052297, "lon": 42.8434395}, {"type": "node", "id": 3100616343, "lat": 36.5062328, "lon": 42.8557895}, {"type": "node", "id": 3100616350, "lat": 36.5079784, "lon": 42.8334234}, {"type": "node", "id": 3100616352, "lat": 36.5083822, "lon": 42.8526129}, {"type": "node", "id": 3100616360, "lat": 36.5103884, "lon": 42.8480748}, {"type": "node", "id": 3100616367, "lat": 36.5128764, "lon": 42.836989}, {"type": "node", "id": 3113210285, "lat": 36.2515886, "lon": 42.3808974}, {"type": "node", "id": 3123767455, "lat": 36.2546809, "lon": 42.3792037}, {"type": "node", "id": 3123973786, "lat": 36.243268, "lon": 42.7740596}, {"type": "node", "id": 3123973804, "lat": 36.2449893, "lon": 42.7635049}, {"type": "node", "id": 3123973863, "lat": 36.2460665, "lon": 42.7776601}, {"type": "node", "id": 3123973871, "lat": 36.249298, "lon": 42.7752791}, {"type": "node", "id": 3123973872, "lat": 36.2519557, "lon": 42.7691234}, {"type": "node", "id": 3133651632, "lat": 36.4696137, "lon": 42.6645245}, {"type": "node", "id": 3133651633, "lat": 36.4728231, "lon": 42.6743521}, {"type": "node", "id": 3133651634, "lat": 36.4713047, "lon": 42.6761116}, {"type": "node", "id": 3133651635, "lat": 36.4776199, "lon": 42.6698245}, {"type": "node", "id": 3133651636, "lat": 36.4690442, "lon": 42.6649751}, {"type": "node", "id": 3133651637, "lat": 36.4660114, "lon": 42.6757147}, {"type": "node", "id": 3133651638, "lat": 36.4699933, "lon": 42.6772918}, {"type": "node", "id": 3133651639, "lat": 36.4687854, "lon": 42.6774206}, {"type": "node", "id": 3133651640, "lat": 36.4689105, "lon": 42.6685907}, {"type": "node", "id": 3133651641, "lat": 36.4673359, "lon": 42.6774206}, {"type": "node", "id": 3133651642, "lat": 36.4777967, "lon": 42.6654364}, {"type": "node", "id": 3133651643, "lat": 36.4753121, "lon": 42.66593}, {"type": "node", "id": 3133651644, "lat": 36.4708043, "lon": 42.6644816}, {"type": "node", "id": 3133651645, "lat": 36.468354, "lon": 42.6659192}, {"type": "node", "id": 3133651646, "lat": 36.4674394, "lon": 42.6723351}, {"type": "node", "id": 3133651647, "lat": 36.4687164, "lon": 42.6701035}, {"type": "node", "id": 3133651648, "lat": 36.4759117, "lon": 42.6710691}, {"type": "node", "id": 3133651649, "lat": 36.4780555, "lon": 42.6660802}, {"type": "node", "id": 3133651650, "lat": 36.4741733, "lon": 42.6727535}, {"type": "node", "id": 3133651651, "lat": 36.4740353, "lon": 42.6653935}, {"type": "node", "id": 3150642886, "lat": 36.4954732, "lon": 42.8767568}, {"type": "node", "id": 3150642899, "lat": 36.4958806, "lon": 42.8798947}, {"type": "node", "id": 3150642926, "lat": 36.496711, "lon": 42.8752755}, {"type": "node", "id": 3150642932, "lat": 36.496993, "lon": 42.8824089}, {"type": "node", "id": 3150642947, "lat": 36.4983404, "lon": 42.8751975}, {"type": "node", "id": 3150642956, "lat": 36.4992648, "lon": 42.884163}, {"type": "node", "id": 3150642957, "lat": 36.4998052, "lon": 42.907437}, {"type": "node", "id": 3150642958, "lat": 36.4999072, "lon": 42.879232}, {"type": "node", "id": 3150642959, "lat": 36.5000639, "lon": 42.876328}, {"type": "node", "id": 3150642960, "lat": 36.500541, "lon": 42.9110258}, {"type": "node", "id": 3150642961, "lat": 36.5009569, "lon": 42.8813759}, {"type": "node", "id": 3150642962, "lat": 36.501025, "lon": 42.9105441}, {"type": "node", "id": 3150642963, "lat": 36.5011136, "lon": 42.880304}, {"type": "node", "id": 3150642964, "lat": 36.5028063, "lon": 42.9129768}, {"type": "node", "id": 3150642965, "lat": 36.5028837, "lon": 42.9064253}, {"type": "node", "id": 3150642966, "lat": 36.5034427, "lon": 42.902787}, {"type": "node", "id": 3150642967, "lat": 36.5043358, "lon": 42.9131213}, {"type": "node", "id": 3150642968, "lat": 36.50451, "lon": 42.9098456}, {"type": "node", "id": 3150642969, "lat": 36.5051296, "lon": 42.9068348}, {"type": "node", "id": 3150642970, "lat": 36.5060976, "lon": 42.904378}, {"type": "node", "id": 3177646309, "lat": 36.4200134, "lon": 42.6769244}, {"type": "node", "id": 3177646323, "lat": 36.4259532, "lon": 42.6725933}, {"type": "node", "id": 3177646338, "lat": 36.4295289, "lon": 42.6834399}, {"type": "node", "id": 3177646604, "lat": 36.4334312, "lon": 42.7049392}, {"type": "node", "id": 3177646609, "lat": 36.4349528, "lon": 42.6707855}, {"type": "node", "id": 3180273130, "lat": 36.2831514, "lon": 42.7824784}, {"type": "node", "id": 3180273131, "lat": 36.2804239, "lon": 42.7865839}, {"type": "node", "id": 3180273132, "lat": 36.2821015, "lon": 42.7881694}, {"type": "node", "id": 3180273133, "lat": 36.2841899, "lon": 42.7874758}, {"type": "node", "id": 3180273134, "lat": 36.2837677, "lon": 42.7829314}, {"type": "node", "id": 3190899600, "lat": 36.4363926, "lon": 42.7934753}, {"type": "node", "id": 3190899601, "lat": 36.4325115, "lon": 42.7967159}, {"type": "node", "id": 3190905391, "lat": 36.4185729, "lon": 42.5961369}, {"type": "node", "id": 3190905392, "lat": 36.4179859, "lon": 42.5917166}, {"type": "node", "id": 3190905393, "lat": 36.4209385, "lon": 42.5880903}, {"type": "node", "id": 3190905394, "lat": 36.4250132, "lon": 42.5876182}, {"type": "node", "id": 3190905395, "lat": 36.4292777, "lon": 42.5898713}, {"type": "node", "id": 3190905396, "lat": 36.4310905, "lon": 42.5901717}, {"type": "node", "id": 3190905397, "lat": 36.4360452, "lon": 42.5975746}, {"type": "node", "id": 3190905398, "lat": 36.434785, "lon": 42.6049346}, {"type": "node", "id": 3190905399, "lat": 36.4336629, "lon": 42.6083893}, {"type": "node", "id": 3190905400, "lat": 36.4340082, "lon": 42.6143974}, {"type": "node", "id": 3190905401, "lat": 36.433145, "lon": 42.6180237}, {"type": "node", "id": 3190905402, "lat": 36.4323336, "lon": 42.6213282}, {"type": "node", "id": 3190905403, "lat": 36.4303826, "lon": 42.6186246}, {"type": "node", "id": 3190905404, "lat": 36.4291039, "lon": 42.6107727}, {"type": "node", "id": 3190905405, "lat": 36.4257557, "lon": 42.6037759}, {"type": "node", "id": 3190905406, "lat": 36.4219227, "lon": 42.6014155}, {"type": "node", "id": 3190905407, "lat": 36.4334241, "lon": 42.6211005}, {"type": "node", "id": 3190905408, "lat": 36.4300415, "lon": 42.6225867}, {"type": "node", "id": 3190905409, "lat": 36.4242923, "lon": 42.6256122}, {"type": "node", "id": 3190905410, "lat": 36.424016, "lon": 42.6324787}, {"type": "node", "id": 3190905411, "lat": 36.4275209, "lon": 42.6339378}, {"type": "node", "id": 3190905412, "lat": 36.4286949, "lon": 42.6357402}, {"type": "node", "id": 3190905413, "lat": 36.4291266, "lon": 42.6383366}, {"type": "node", "id": 3190905414, "lat": 36.4301624, "lon": 42.6395597}, {"type": "node", "id": 3190905416, "lat": 36.43308, "lon": 42.6331653}, {"type": "node", "id": 3190905417, "lat": 36.4355055, "lon": 42.6314272}, {"type": "node", "id": 3190905418, "lat": 36.4368607, "lon": 42.6295497}, {"type": "node", "id": 3190905419, "lat": 36.4365829, "lon": 42.6273761}, {"type": "node", "id": 3219650657, "lat": 36.1911977, "lon": 42.8036954}, {"type": "node", "id": 3219650658, "lat": 36.189748, "lon": 42.8007966}, {"type": "node", "id": 3255946199, "lat": 36.3948347, "lon": 42.4527118}, {"type": "node", "id": 3255946205, "lat": 36.3959161, "lon": 42.452487}, {"type": "node", "id": 3255946206, "lat": 36.3960656, "lon": 42.4530443}, {"type": "node", "id": 3255946208, "lat": 36.3964119, "lon": 42.4528389}, {"type": "node", "id": 3255946214, "lat": 36.3971608, "lon": 42.4542466}, {"type": "node", "id": 3255946215, "lat": 36.3974035, "lon": 42.4526727}, {"type": "node", "id": 3255946218, "lat": 36.3984073, "lon": 42.454053}, {"type": "node", "id": 3255946219, "lat": 36.3986375, "lon": 42.4545665}, {"type": "node", "id": 3255946220, "lat": 36.3989853, "lon": 42.452311}, {"type": "node", "id": 3255946223, "lat": 36.3995913, "lon": 42.4523012}, {"type": "node", "id": 3255946227, "lat": 36.4000462, "lon": 42.4546447}, {"type": "node", "id": 3255946229, "lat": 36.4001308, "lon": 42.4525905}, {"type": "node", "id": 3255946230, "lat": 36.4004318, "lon": 42.4547033}, {"type": "node", "id": 3255946231, "lat": 36.4004391, "lon": 42.4522039}, {"type": "node", "id": 3255946237, "lat": 36.401683, "lon": 42.450597}, {"type": "node", "id": 3255946241, "lat": 36.4025959, "lon": 42.4501277}, {"type": "node", "id": 3255946242, "lat": 36.4027139, "lon": 42.4548989}, {"type": "node", "id": 3255946257, "lat": 36.4070654, "lon": 42.4549673}, {"type": "node", "id": 3255946258, "lat": 36.4073487, "lon": 42.4455129}, {"type": "node", "id": 3255946259, "lat": 36.4073802, "lon": 42.4555148}, {"type": "node", "id": 3255946260, "lat": 36.4075139, "lon": 42.4470284}, {"type": "node", "id": 3255946761, "lat": 36.408348, "lon": 42.4474097}, {"type": "node", "id": 3255946764, "lat": 36.4086234, "lon": 42.4469795}, {"type": "node", "id": 3255946765, "lat": 36.4086549, "lon": 42.4516236}, {"type": "node", "id": 3255946766, "lat": 36.4087572, "lon": 42.4497953}, {"type": "node", "id": 3255946767, "lat": 36.409009, "lon": 42.4500104}, {"type": "node", "id": 3255946770, "lat": 36.4100791, "lon": 42.4556517}, {"type": "node", "id": 3255946773, "lat": 36.4107637, "lon": 42.4527675}, {"type": "node", "id": 3255946775, "lat": 36.411102, "lon": 42.4533737}, {"type": "node", "id": 3255946777, "lat": 36.4118888, "lon": 42.4560037}, {"type": "node", "id": 3255946778, "lat": 36.412353, "lon": 42.4541656}, {"type": "node", "id": 3255946779, "lat": 36.4127229, "lon": 42.4552606}, {"type": "node", "id": 3255946781, "lat": 36.4139188, "lon": 42.4564827}, {"type": "node", "id": 3255946782, "lat": 36.4140054, "lon": 42.4561797}, {"type": "node", "id": 3255963150, "lat": 36.4269436, "lon": 42.6093967}, {"type": "node", "id": 3255963151, "lat": 36.4285745, "lon": 42.6427166}, {"type": "node", "id": 3255963152, "lat": 36.4303008, "lon": 42.6446663}, {"type": "node", "id": 3255963153, "lat": 36.4311286, "lon": 42.6204154}, {"type": "node", "id": 3255963154, "lat": 36.431569, "lon": 42.6418456}, {"type": "node", "id": 3255963155, "lat": 36.4327941, "lon": 42.6339246}, {"type": "node", "id": 3255963156, "lat": 36.4330151, "lon": 42.6396886}, {"type": "node", "id": 3255963157, "lat": 36.4333982, "lon": 42.6207089}, {"type": "node", "id": 3255963158, "lat": 36.4340831, "lon": 42.6368679}, {"type": "node", "id": 3255963159, "lat": 36.4347062, "lon": 42.6222993}, {"type": "node", "id": 3255963160, "lat": 36.4349063, "lon": 42.6448598}, {"type": "node", "id": 3255965661, "lat": 36.4359414, "lon": 42.6222143}, {"type": "node", "id": 3255965662, "lat": 36.4359742, "lon": 42.6440302}, {"type": "node", "id": 3255965663, "lat": 36.4371228, "lon": 42.6291686}, {"type": "node", "id": 3255965665, "lat": 36.4380416, "lon": 42.6243328}, {"type": "node", "id": 3255965667, "lat": 36.4383577, "lon": 42.6308009}, {"type": "node", "id": 3255965668, "lat": 36.4409922, "lon": 42.6606638}, {"type": "node", "id": 3255965669, "lat": 36.4413037, "lon": 42.6595715}, {"type": "node", "id": 3255965670, "lat": 36.4415484, "lon": 42.6597927}, {"type": "node", "id": 3255965671, "lat": 36.4420934, "lon": 42.664397}, {"type": "node", "id": 3255965672, "lat": 36.4421824, "lon": 42.6582303}, {"type": "node", "id": 3255965673, "lat": 36.4427608, "lon": 42.6592535}, {"type": "node", "id": 3255965674, "lat": 36.4429499, "lon": 42.6589631}, {"type": "node", "id": 3255965675, "lat": 36.4433281, "lon": 42.6620603}, {"type": "node", "id": 3255965676, "lat": 36.4438064, "lon": 42.6574698}, {"type": "node", "id": 3255965677, "lat": 36.4438508, "lon": 42.6582994}, {"type": "node", "id": 3255965678, "lat": 36.4440956, "lon": 42.6577187}, {"type": "node", "id": 3255965679, "lat": 36.4447407, "lon": 42.6590875}, {"type": "node", "id": 3255965680, "lat": 36.4449298, "lon": 42.65682}, {"type": "node", "id": 3255965681, "lat": 36.4455304, "lon": 42.6560595}, {"type": "node", "id": 3255965682, "lat": 36.4455304, "lon": 42.6577187}, {"type": "node", "id": 3255965683, "lat": 36.4460754, "lon": 42.6565019}, {"type": "node", "id": 3255965684, "lat": 36.4478105, "lon": 42.6570274}, {"type": "node", "id": 3255965685, "lat": 36.4478661, "lon": 42.6576496}, {"type": "node", "id": 3255965686, "lat": 36.4480107, "lon": 42.6583132}, {"type": "node", "id": 3255965687, "lat": 36.4485779, "lon": 42.6592811}, {"type": "node", "id": 3255965688, "lat": 36.4489116, "lon": 42.6600139}, {"type": "node", "id": 3255965689, "lat": 36.4499014, "lon": 42.6618944}, {"type": "node", "id": 3258821620, "lat": 36.4362418, "lon": 42.7061995}, {"type": "node", "id": 3258983915, "lat": 36.2514417, "lon": 42.3818961}, {"type": "node", "id": 3258983918, "lat": 36.2519265, "lon": 42.3809016}, {"type": "node", "id": 3258983920, "lat": 36.2519385, "lon": 42.3814879}, {"type": "node", "id": 3258983933, "lat": 36.2521599, "lon": 42.3819406}, {"type": "node", "id": 3258983934, "lat": 36.2522198, "lon": 42.3815695}, {"type": "node", "id": 3258983953, "lat": 36.2527823, "lon": 42.3818886}, {"type": "node", "id": 3258983954, "lat": 36.2527949, "lon": 42.380798}, {"type": "node", "id": 3258983959, "lat": 36.2531714, "lon": 42.3817996}, {"type": "node", "id": 3258988626, "lat": 36.4589171, "lon": 42.7032613}, {"type": "node", "id": 3258988627, "lat": 36.4591678, "lon": 42.7017213}, {"type": "node", "id": 3258988628, "lat": 36.4597348, "lon": 42.7020813}, {"type": "node", "id": 3258988629, "lat": 36.4599049, "lon": 42.7036658}, {"type": "node", "id": 3258988630, "lat": 36.4606063, "lon": 42.7033392}, {"type": "node", "id": 3258988631, "lat": 36.4606988, "lon": 42.7030572}, {"type": "node", "id": 3258988632, "lat": 36.4869348, "lon": 42.6323314}, {"type": "node", "id": 3258988633, "lat": 36.4871854, "lon": 42.6352187}, {"type": "node", "id": 3258988634, "lat": 36.4872676, "lon": 42.6344008}, {"type": "node", "id": 3258988635, "lat": 36.4874249, "lon": 42.6345944}, {"type": "node", "id": 3258988636, "lat": 36.4875554, "lon": 42.6325837}, {"type": "node", "id": 3258988637, "lat": 36.4875792, "lon": 42.6311291}, {"type": "node", "id": 3258988638, "lat": 36.4876389, "lon": 42.6320939}, {"type": "node", "id": 3258988639, "lat": 36.4880208, "lon": 42.6278637}, {"type": "node", "id": 3258988640, "lat": 36.4881998, "lon": 42.6293777}, {"type": "node", "id": 3258988641, "lat": 36.4893454, "lon": 42.6279082}, {"type": "node", "id": 3258988642, "lat": 36.4893454, "lon": 42.6282051}, {"type": "node", "id": 3258988643, "lat": 36.4897442, "lon": 42.6285481}, {"type": "node", "id": 3258988644, "lat": 36.4900494, "lon": 42.6307729}, {"type": "node", "id": 3258988645, "lat": 36.4902403, "lon": 42.6327322}, {"type": "node", "id": 3258988646, "lat": 36.4903239, "lon": 42.6316932}, {"type": "node", "id": 3258988647, "lat": 36.490479, "lon": 42.6297636}, {"type": "node", "id": 3258988648, "lat": 36.4907773, "lon": 42.6365468}, {"type": "node", "id": 3258988650, "lat": 36.4909921, "lon": 42.6361312}, {"type": "node", "id": 3258988651, "lat": 36.4912308, "lon": 42.6387138}, {"type": "node", "id": 3258988652, "lat": 36.4915003, "lon": 42.6393639}, {"type": "node", "id": 3258988653, "lat": 36.4916962, "lon": 42.6276411}, {"type": "node", "id": 3258988654, "lat": 36.4917439, "lon": 42.6294074}, {"type": "node", "id": 3258988655, "lat": 36.4919945, "lon": 42.629155}, {"type": "node", "id": 3258988656, "lat": 36.4920303, "lon": 42.6265872}, {"type": "node", "id": 3258988657, "lat": 36.4923405, "lon": 42.6312627}, {"type": "node", "id": 3258988658, "lat": 36.4927343, "lon": 42.631708}, {"type": "node", "id": 3258988659, "lat": 36.4928656, "lon": 42.6318713}, {"type": "node", "id": 3258988660, "lat": 36.4929133, "lon": 42.6370663}, {"type": "node", "id": 3258989971, "lat": 36.2541109, "lon": 42.3807309}, {"type": "node", "id": 3258989972, "lat": 36.2541708, "lon": 42.3796474}, {"type": "node", "id": 3258989973, "lat": 36.2542187, "lon": 42.3790314}, {"type": "node", "id": 3258989976, "lat": 36.2544975, "lon": 42.3797401}, {"type": "node", "id": 3258990263, "lat": 36.2532349, "lon": 42.3802078}, {"type": "node", "id": 3258990266, "lat": 36.2534646, "lon": 42.3798997}, {"type": "node", "id": 3258990269, "lat": 36.2535065, "lon": 42.3815101}, {"type": "node", "id": 3258990274, "lat": 36.2537818, "lon": 42.3799442}, {"type": "node", "id": 3258990278, "lat": 36.2538716, "lon": 42.3811539}, {"type": "node", "id": 3258990280, "lat": 36.2539793, "lon": 42.3796325}, {"type": "node", "id": 3258991164, "lat": 36.3955853, "lon": 42.4062901}, {"type": "node", "id": 3258991165, "lat": 36.3958034, "lon": 42.4055257}, {"type": "node", "id": 3258991166, "lat": 36.3967772, "lon": 42.4023192}, {"type": "node", "id": 3258991167, "lat": 36.3967741, "lon": 42.40583}, {"type": "node", "id": 3258991168, "lat": 36.3968368, "lon": 42.4051435}, {"type": "node", "id": 3258991169, "lat": 36.3968954, "lon": 42.4016528}, {"type": "node", "id": 3258991170, "lat": 36.3969789, "lon": 42.406683}, {"type": "node", "id": 3258991171, "lat": 36.3969874, "lon": 42.4082258}, {"type": "node", "id": 3258991172, "lat": 36.3971446, "lon": 42.4016213}, {"type": "node", "id": 3258991173, "lat": 36.3973429, "lon": 42.4028438}, {"type": "node", "id": 3258991174, "lat": 36.3973601, "lon": 42.4017052}, {"type": "node", "id": 3258991175, "lat": 36.3974316, "lon": 42.4025185}, {"type": "node", "id": 3258991176, "lat": 36.3975089, "lon": 42.4053068}, {"type": "node", "id": 3258991177, "lat": 36.3975534, "lon": 42.4083518}, {"type": "node", "id": 3258991178, "lat": 36.3976431, "lon": 42.3992126}, {"type": "node", "id": 3258991179, "lat": 36.3976515, "lon": 42.3997006}, {"type": "node", "id": 3258991180, "lat": 36.3976379, "lon": 42.4052136}, {"type": "node", "id": 3258991181, "lat": 36.3978078, "lon": 42.3997373}, {"type": "node", "id": 3258991182, "lat": 36.3977991, "lon": 42.4030485}, {"type": "node", "id": 3258991183, "lat": 36.3978069, "lon": 42.4041116}, {"type": "node", "id": 3258991184, "lat": 36.3978744, "lon": 42.4069349}, {"type": "node", "id": 3258991185, "lat": 36.397981, "lon": 42.399244}, {"type": "node", "id": 3258991186, "lat": 36.3979894, "lon": 42.3994225}, {"type": "node", "id": 3258991187, "lat": 36.3980856, "lon": 42.4063261}, {"type": "node", "id": 3258991188, "lat": 36.398111, "lon": 42.4057699}, {"type": "node", "id": 3258991191, "lat": 36.398187, "lon": 42.40535}, {"type": "node", "id": 3258991195, "lat": 36.3984921, "lon": 42.3994697}, {"type": "node", "id": 3258991196, "lat": 36.3984911, "lon": 42.4064206}, {"type": "node", "id": 3258991197, "lat": 36.3985925, "lon": 42.4058853}, {"type": "node", "id": 3258991202, "lat": 36.3989727, "lon": 42.4043845}, {"type": "node", "id": 3258991203, "lat": 36.399219, "lon": 42.4007626}, {"type": "node", "id": 3258991204, "lat": 36.3992654, "lon": 42.4010198}, {"type": "node", "id": 3258991206, "lat": 36.3993951, "lon": 42.4026527}, {"type": "node", "id": 3258991207, "lat": 36.3994555, "lon": 42.4012244}, {"type": "node", "id": 3258991208, "lat": 36.3995738, "lon": 42.4013871}, {"type": "node", "id": 3258991209, "lat": 36.3997174, "lon": 42.4015445}, {"type": "node", "id": 3258991210, "lat": 36.399733, "lon": 42.4027367}, {"type": "node", "id": 3258991212, "lat": 36.3998061, "lon": 42.4017807}, {"type": "node", "id": 3258991213, "lat": 36.3998483, "lon": 42.4020536}, {"type": "node", "id": 3258991261, "lat": 36.4932474, "lon": 42.6242124}, {"type": "node", "id": 3258991262, "lat": 36.4940469, "lon": 42.631426}, {"type": "node", "id": 3258991263, "lat": 36.4945719, "lon": 42.6240936}, {"type": "node", "id": 3258991264, "lat": 36.4954668, "lon": 42.630862}, {"type": "node", "id": 3258991265, "lat": 36.4965046, "lon": 42.6354362}, {"type": "node", "id": 4504041234, "lat": 36.4292474, "lon": 42.6219858}, {"type": "node", "id": 4504041235, "lat": 36.4276245, "lon": 42.6232518}, {"type": "node", "id": 4504041236, "lat": 36.4260361, "lon": 42.6243355}, {"type": "node", "id": 4504041237, "lat": 36.4235757, "lon": 42.6291742}, {"type": "node", "id": 4504041238, "lat": 36.4257253, "lon": 42.6331224}, {"type": "node", "id": 4504041239, "lat": 36.4248275, "lon": 42.6327791}, {"type": "node", "id": 4504041240, "lat": 36.4290316, "lon": 42.6368238}, {"type": "node", "id": 4504041241, "lat": 36.4291049, "lon": 42.6364322}, {"type": "node", "id": 4589595501, "lat": 36.4872824, "lon": 42.4193365, "tags": {"name": "\u0627\u0644\u0639\u064a\u0627\u0636\u064a\u0629", "name:de": "Al-Ayadiya", "name:en": "Al-Ayadiya", "place": "town"}}, {"type": "node", "id": 4705950687, "lat": 36.5021551, "lon": 42.7887661}, {"type": "node", "id": 4705950689, "lat": 36.5011243, "lon": 42.7846243}, {"type": "node", "id": 4705950690, "lat": 36.5011847, "lon": 42.7816954}, {"type": "node", "id": 4705994676, "lat": 36.508699, "lon": 42.7851337}, {"type": "node", "id": 4705994993, "lat": 36.5094991, "lon": 42.7786959}, {"type": "node", "id": 4705995027, "lat": 36.5040354, "lon": 42.7772208}, {"type": "node", "id": 4705995029, "lat": 36.5035698, "lon": 42.7775221}, {"type": "node", "id": 4705995092, "lat": 36.5058337, "lon": 42.776342}, {"type": "node", "id": 4705995148, "lat": 36.5014853, "lon": 42.7865597}, {"type": "node", "id": 4707474954, "lat": 36.5035536, "lon": 42.8534294}, {"type": "node", "id": 4707596173, "lat": 36.5010031, "lon": 42.7829975}, {"type": "node", "id": 4802479469, "lat": 36.4711491, "lon": 42.6694179, "tags": {"name": "\u0634\u0646\u062f\u0648\u062e\u0629", "name:ar": "\u0634\u0646\u062f\u0648\u062e\u0629", "place": "village"}}, {"type": "node", "id": 4812623778, "lat": 36.2819386, "lon": 42.7848816, "tags": {"name": "\u062d\u0644\u0627\u0648\u0629", "name:ar": "\u062d\u0644\u0627\u0648\u0629", "name:en": "Halawa", "place": "village"}}, {"type": "node", "id": 4846620135, "lat": 36.4273772, "lon": 42.6765794, "tags": {"name": "\u062a\u0644 \u0627\u0644\u0633\u0645\u0646", "place": "village"}}, {"type": "node", "id": 4848346613, "lat": 36.2478467, "lon": 42.7714276, "tags": {"name": "\u0623\u0628\u0648 \u0634\u0643\u0629", "place": "village"}}, {"type": "node", "id": 4862254512, "lat": 36.4902915, "lon": 42.6319528, "tags": {"name": "\u0627\u0644\u0648\u0627\u0626\u0644\u064a\u0629", "place": "hamlet"}}, {"type": "node", "id": 4862254514, "lat": 36.4272996, "lon": 42.6043367, "tags": {"addr:street": "\u0637\u0631\u064a\u0642 \u0645\u0648\u0635\u0644-\u062a\u0644\u0639\u0641\u0631", "name": "\u0623\u0628\u0648 \u0645\u0627\u0631\u064a\u0627", "place": "hamlet"}}, {"type": "node", "id": 5060301818, "lat": 36.3981942, "lon": 42.4532031}, {"type": "node", "id": 5060301819, "lat": 36.3952454, "lon": 42.4553042}, {"type": "node", "id": 5060301820, "lat": 36.4122822, "lon": 42.4547327}, {"type": "node", "id": 5060301821, "lat": 36.3970508, "lon": 42.4537864}, {"type": "node", "id": 5060301822, "lat": 36.3966684, "lon": 42.4540764}, {"type": "node", "id": 5060301823, "lat": 36.3977527, "lon": 42.4534117}, {"type": "node", "id": 5060301830, "lat": 36.3999462, "lon": 42.4522307}, {"type": "node", "id": 5062240224, "lat": 36.3975055, "lon": 42.4010661}, {"type": "node", "id": 5064120375, "lat": 36.4371832, "lon": 42.6296568}, {"type": "node", "id": 5064120378, "lat": 36.4361988, "lon": 42.6273225}, {"type": "node", "id": 5064120379, "lat": 36.4360871, "lon": 42.6266731}, {"type": "node", "id": 5064120384, "lat": 36.4345129, "lon": 42.6234994}, {"type": "node", "id": 5064120386, "lat": 36.4341883, "lon": 42.6227177}, {"type": "node", "id": 5071431871, "lat": 36.4377123, "lon": 42.6308237}, {"type": "node", "id": 5071431872, "lat": 36.4387263, "lon": 42.6316701}, {"type": "node", "id": 5071431873, "lat": 36.4400799, "lon": 42.6373148}, {"type": "node", "id": 5071431874, "lat": 36.4377924, "lon": 42.6310444}, {"type": "node", "id": 5071431875, "lat": 36.4383167, "lon": 42.6308653}, {"type": "node", "id": 5071431876, "lat": 36.4382014, "lon": 42.6321199}, {"type": "node", "id": 5072045598, "lat": 36.489183, "lon": 42.8465755}, {"type": "node", "id": 5073900091, "lat": 36.4953997, "lon": 42.8449092}, {"type": "node", "id": 5077007356, "lat": 36.5002203, "lon": 42.9091549}, {"type": "node", "id": 5297889471, "lat": 36.5061177, "lon": 42.7938187}, {"type": "node", "id": 5681253448, "lat": 36.4998104, "lon": 42.8643586}, {"type": "node", "id": 5681253461, "lat": 36.4993582, "lon": 42.8674432}, {"type": "node", "id": 5681253470, "lat": 36.4996578, "lon": 42.8653993}, {"type": "node", "id": 5681253576, "lat": 36.500171, "lon": 42.8826704}, {"type": "node", "id": 5683721750, "lat": 36.5020537, "lon": 42.7883221}, {"type": "node", "id": 5683721775, "lat": 36.5017033, "lon": 42.7870783}, {"type": "node", "id": 5683721936, "lat": 36.5014053, "lon": 42.786131}, {"type": "node", "id": 6007351271, "lat": 36.3740434, "lon": 42.4434793, "tags": {"alt_name": "\u062a\u0644 \u0639\u0641\u0631", "alt_name:ar": "\u062a\u0644 \u0639\u0641\u0631", "int_name": "Tal Afar, Tal Afar, Talaafar, Tall Afar, Tel Afar, \u062a\u0644\u0639\u0641\u0631, Tal Afar, Tal Afar, Talaafar, Tall Afar, Tel Afar, \u062a\u0644\u0639\u0641\u0631", "name": "\u062a\u0644\u0639\u0641\u0631", "name:ar": "\u062a\u0644\u0639\u0641\u0631", "name:az-Arab": "\u062a\u0644\u0639\u0641\u0631", "name:azb": "\u062a\u0644\u0639\u0641\u0631", "name:ckb": "\u062a\u06d5\u0644\u06d5\u0639\u0641\u06d5\u0631", "name:de": "Tal Afar", "name:en": "Tal Afar", "name:es": "Tal Afar", "name:fa": "\u062a\u0644\u200c\u0639\u0641\u0631", "name:fr": "Tal Afar", "name:ml": "\u0d24\u0d7d \u0d05\u0d2b\u0d7c", "name:mzn": "\u062a\u0644\u0639\u0641\u0631", "name:pnb": "\u062a\u0644\u0639\u0641\u0631", "name:ru": "\u0422\u0430\u043b\u043b\u044c-\u0410\u0444\u0430\u0440", "name:tr": "Telafer", "name:ur": "\u062a\u0644\u0639\u0641\u0631", "place": "city", "wikidata": "Q990427", "wikipedia": "ar:\u062a\u0644\u0639\u0641\u0631"}}, {"type": "node", "id": 6982050619, "lat": 36.3908279, "lon": 42.4990601, "tags": {"name": "\u0642\u0631\u064a\u0629 \u0645\u0638\u0644\u0648\u0645", "place": "village"}}, {"type": "node", "id": 6982050812, "lat": 36.3997775, "lon": 42.5068125, "tags": {"name": "\u0642\u0631\u064a\u0629 \u0639\u0644\u0648", "place": "village"}}, {"type": "node", "id": 7047038755, "lat": 36.1768698, "lon": 42.5867602, "tags": {"name": "\u0633\u0646 \u0627\u0644\u0630\u0628\u0627\u0646", "place": "hamlet", "population": "\u0627\u0644\u0644\u0648\u064a\u0632\u064a\u064a\u0646"}}, {"type": "node", "id": 8836666014, "lat": 36.4938491, "lon": 42.6379722}, {"type": "node", "id": 9468662590, "lat": 36.4909324, "lon": 42.6261112}, {"type": "node", "id": 10282785566, "lat": 36.4578406, "lon": 42.6854714, "tags": {"name": "\u0642\u0631\u064a\u0629 \u0637\u0634\u062a\u0629", "place": "hamlet"}}, {"type": "node", "id": 11694916809, "lat": 36.4905287, "lon": 42.6269391}, {"type": "way", "id": 238792936, "nodes": [2465882734, 2465882745, 2465882755, 2465882736, 3258821620, 2465882751, 3177646604, 1667016753, 2465882769, 2465882734], "tags": {"alt_name": "\u0623\u0628\u0637\u064a\u0631", "int_name": "Ab\u0163\u012br, Abtir", "is_in": "Iraq , \u062c\u0645\u0647\u0648\u0631\u064a\u0629 \u0627\u0644\u0639\u0631\u0627\u0642", "landuse": "residential", "name": "Al-Btesha Village", "name:ar1": "\u0623\u0628\u0637\u064a\u0631", "place": "village", "source": "Bing"}}, {"type": "way", "id": 273706038, "nodes": [2785337893, 2785338485, 2785338183, 2785337880, 2785338214, 2785338074, 2785338372, 2785337833, 2785337874, 2785337890, 2785338127, 2785338416, 2785337836, 2785338606, 2785337882, 2785338347, 2785338565, 2785338551, 2785338584, 2785337893], "tags": {"landuse": "residential", "name": "Masud", "place": "village", "source": "Bing"}}, {"type": "way", "id": 273706055, "nodes": [2785338015, 2785338550, 2785338287, 2785338601, 2785338374, 2785337997, 2785337936, 2785337969, 2785338126, 2785337952, 2785338424, 2785338005, 2785338378, 2785338351, 2785338185, 2785338015], "tags": {"landuse": "residential", "name": "Tall Zalat", "place": "village", "source": "Bing"}}, {"type": "way", "id": 273717069, "nodes": [2785480173, 2785480263, 2785480082, 2785480004, 2785480304, 5072045598, 2785480376, 2785480212, 2785480282, 2785480403, 2785480396, 2785480372, 2785480235, 2785480074, 2785480402, 2785480253, 2785480328, 2785480147, 2785480357, 5073900091, 2785480173], "tags": {"place": "village"}}, {"type": "way", "id": 273717072, "nodes": [2986808618, 2785480306, 2785479957, 2785480272, 3255965671, 2785480295, 2785480016, 3255965675, 3255965668, 3255965670, 3255965669, 3255965672, 3255965674, 3255965673, 2785480091, 3255965679, 3255965677, 3255965678, 3255965676, 2785480302, 3255965680, 3255965681, 3255965683, 3255965682, 2785480206, 2785480310, 3255965684, 3255965685, 3255965686, 3255965687, 3255965688, 3255965689, 2986808620, 2986808621, 2986808622, 2986808619, 2986808618], "tags": {"alt_name": "\u0645\u0632\u0631\u0639\u0629", "int_name": "Mazraah, \u0645\u0632\u0631\u0639\u0629, Mazraah, \u0645\u0632\u0631\u0639\u0629", "is_in": "Iraq , \u062c\u0645\u0647\u0648\u0631\u064a\u0629 \u0627\u0644\u0639\u0631\u0627\u0642", "landuse": "residential", "name": "\u0642\u0631\u064a\u0629 \u0627\u0644\u0639\u0627\u0634\u0642", "name:ar1": "\u0645\u0632\u0631\u0639\u0629", "place": "village"}}, {"type": "way", "id": 273717080, "nodes": [2785480250, 5681253448, 5681253470, 5681253461, 2785480070, 2785480152, 2785480078, 2785480322, 2785480278, 2785480123, 2785480162, 2785480262, 2785480250], "tags": {"landuse": "residential", "name": "Maslaj", "place": "village", "source": "Bing"}}, {"type": "way", "id": 273717082, "nodes": [2785480133, 2785480126, 5297889471, 2785480227, 2785480255, 4705950687, 5683721750, 2785480137, 5683721775, 4705995148, 5683721936, 4705950689, 4707596173, 4705950690, 2785480326, 4705995029, 4705995027, 2785480364, 4705995092, 2785480156, 2785480001, 4705994993, 2785480400, 2785480028, 4705994676, 2785480349, 2785480133]}, {"type": "way", "id": 273717091, "nodes": [2785480284, 2785480317, 2785480243, 2785480383, 2785479954, 2785480130, 2785480307, 2785480367, 2785480095, 2785480394, 2785480239, 2785479939, 2785480007, 2785480313, 2785480167, 2785480300, 2785480355, 2785480203, 2785480259, 2785480284]}, {"type": "way", "id": 273717094, "nodes": [2785480185, 2785480018, 2785480165, 2785479996, 2785480224, 2785480374, 2785480192, 2785480013, 2785479993, 2785480204, 2785480359, 2785480289, 2785480053, 2785480392, 2785480293, 2785480021, 2785480031, 2785480274, 2785480330, 2785479931, 2785480101, 2785480058, 2785480370, 2785480196, 2785480035, 2785480185], "tags": {"landuse": "residential", "name": "Al-Bwer Village", "place": "village", "source": "Bing"}}, {"type": "way", "id": 273717097, "nodes": [2986808612, 2986808609, 2986808608, 2986808607, 2986808611, 2986808610, 2986808614, 2986808613, 2785480038, 2785480340, 2785479918, 2785480182, 2785480042, 2785480046, 3190899600, 2785480150, 2785479963, 2785480025, 2785480160, 3190899601, 2785480237, 2986808612], "tags": {"landuse": "residential", "name": "Az Zanazil", "place": "village", "source": "Bing"}}, {"type": "way", "id": 273717102, "nodes": [2785480010, 3258988629, 2785480297, 3258988626, 2785480218, 2785479915, 3258988627, 2785480388, 2785480270, 3258988628, 2785480323, 3258988631, 3258988630, 2785480338, 2785480010], "tags": {"alt_name": "\u0628\u0631\u0627\u0632\u064a\u0641", "int_name": "Bar\u0101z\u012bf, \u0628\u0631\u0627\u0632\u064a\u0641, Barazif, \u0628\u0631\u0627\u0632\u064a\u0641", "is_in": "Iraq , \u062c\u0645\u0647\u0648\u0631\u064a\u0629 \u0627\u0644\u0639\u0631\u0627\u0642", "landuse": "residential", "name": "\u0628\u0631\u0627\u0632\u064a\u0641", "name:ar": "\u0628\u0631\u0627\u0632\u064a\u0641", "name:ar1": "\u0628\u0631\u0627\u0632\u064a\u0641", "name:de": "Barazif", "name:en": "Barazif", "name:fr": "Barazif", "place": "village", "source": "Bing"}}, {"type": "way", "id": 288382111, "nodes": [2919422879, 3255946764, 3255946761, 3255946260, 3255946258, 2919422868, 2919422863, 2919422857, 3255946241, 3255946237, 3255946231, 3255946229, 5060301830, 3255946223, 3255946220, 5060301818, 5060301823, 3255946215, 3255946208, 3255946206, 3255946205, 3255946199, 5060301819, 5060301822, 5060301821, 3255946214, 3255946218, 3255946219, 3255946227, 3255946230, 2919422852, 3255946242, 2919422862, 2919422870, 3255946259, 3255946257, 2919422873, 2919422875, 3255946770, 2919422886, 3255946777, 3255946781, 3255946782, 3255946779, 5060301820, 3255946778, 3255946775, 3255946773, 3255946765, 2919422876, 3255946766, 3255946767, 2919422879], "tags": {"int_name": "Dawm, \u062f\u0648\u0645, Dawm, \u062f\u0648\u0645", "is_in": "Iraq , \u062c\u0645\u0647\u0648\u0631\u064a\u0629 \u0627\u0644\u0639\u0631\u0627\u0642", "landuse": "residential", "name": "\u062f\u0648\u0645", "name:ar": "\u062f\u0648\u0645", "name:ar1": "\u062f\u0648\u0645", "name:de": "Dawm", "name:en": "Dawm", "name:fr": "Dawm", "place": "village"}}, {"type": "way", "id": 293287367, "nodes": [2968661103, 2968661084, 2968661082, 2968661081, 2968661083, 2968661086, 2968661101, 2968661108, 2968661111, 2968661117, 2968661116, 2968661115, 2968661106, 2968661107, 2968661103], "tags": {"landuse": "residential", "name": "Ghazail", "place": "village"}}, {"type": "way", "id": 294693101, "nodes": [2982915465, 2982915464, 2982915460, 2982915458, 2982915457, 2982915456, 2982915459, 2982915461, 2982915462, 2982915463, 2982915465], "tags": {"landuse": "residential", "name": "Abu Shuwaiha", "place": "village"}}, {"type": "way", "id": 294693104, "nodes": [2982912723, 2982912724, 2982912726, 2982912727, 2982912728, 2982912730, 2982912729, 2982912725, 2982912722, 2982912720, 2982912721, 2982912723], "tags": {"landuse": "residential", "name": "\u0639\u0633\u064a\u0644\u0629", "place": "village"}}, {"type": "way", "id": 295493370, "nodes": [2992243603, 2992243611, 2992243616, 2992243620, 2992249506, 2992249508, 2992249512, 2992249518, 2992249514, 2992249516, 2992249515, 2992249510, 2992243621, 2992243612, 3255965665, 3255965661, 3255963159, 2974343585, 2974343587, 3190905419, 3255965663, 2992243599, 3255965667, 2992243603], "tags": {"alt_name": "\u0645\u0632\u0631\u0639\u0629", "int_name": "Mazraah, \u0645\u0632\u0631\u0639\u0629, Mazraah, \u0645\u0632\u0631\u0639\u0629", "is_in": "Iraq , \u062c\u0645\u0647\u0648\u0631\u064a\u0629 \u0627\u0644\u0639\u0631\u0627\u0642", "landuse": "residential", "name": "\u0627\u0644\u0645\u0632\u0631\u0639 \u0627\u0644\u062b\u0627\u0646\u064a", "name:ar": "\u0627\u0644\u0645\u0632\u0631\u0639 \u0627\u0644\u062b\u0627\u0646\u064a", "name:ar1": "\u0645\u0632\u0631\u0639\u0629", "name:de": "Mazraah", "name:en": "Mazraah", "name:fr": "Mazraah", "place": "village"}}, {"type": "way", "id": 296751537, "nodes": [3005596741, 3005596698, 3005596697, 3005596695, 3005596696, 3005596699, 3219650658, 3005596744, 3219650657, 3005596741], "tags": {"landuse": "residential", "name": "Ar Rahmaniyah", "place": "village"}}, {"type": "way", "id": 297778013, "nodes": [3016772058, 3016772053, 3016772082, 3016772081, 3016772058], "tags": {"landuse": "residential", "name": "Gharbaluh", "place": "village"}}, {"type": "way", "id": 305435371, "nodes": [3100616350, 3100616367, 3100616360, 3100616352, 3100616343, 4707474954, 3100616335, 3100616339, 3100616350], "tags": {"place": "village"}}, {"type": "way", "id": 307300170, "nodes": [3123973872, 3123973871, 3123973863, 3123973786, 3123973804, 3123973872], "tags": {"landuse": "residential", "name": "Abu Shukkah", "place": "village"}}, {"type": "way", "id": 308086100, "nodes": [3133651635, 3133651649, 3133651642, 3133651643, 3133651651, 3133651644, 3133651632, 3133651636, 3133651645, 3133651640, 3133651647, 3133651646, 3133651637, 3133651641, 3133651639, 3133651638, 3133651634, 3133651633, 3133651650, 3133651648, 3133651635], "tags": {"landuse": "residential", "name": "Shindukhah", "place": "village"}}, {"type": "way", "id": 309732246, "nodes": [3150642970, 3150642966, 3150642965, 3150642957, 5077007356, 3150642960, 3150642962, 3150642964, 3150642967, 3150642968, 3150642969, 3150642970], "tags": {"landuse": "residential", "name": "Kafrij", "place": "village"}}, {"type": "way", "id": 309732247, "nodes": [3150642947, 3150642926, 3150642886, 3150642899, 3150642932, 3150642956, 5681253576, 3150642961, 3150642963, 3150642958, 3150642959, 3150642947], "tags": {"landuse": "residential", "place": "village"}}, {"type": "way", "id": 311975640, "nodes": [3177646609, 3177646338, 3177646309, 3177646323, 3177646609], "tags": {"alt_name": "\u062a\u0644 \u0627\u0644\u0633\u0645\u0643", "int_name": "Tall as Samak, Tall as Samak", "is_in": "Iraq , \u062c\u0645\u0647\u0648\u0631\u064a\u0629 \u0627\u0644\u0639\u0631\u0627\u0642", "landuse": "residential", "name": "\u062a\u0644 \u0627\u0644\u0633\u0645\u0646", "name:ar": "\u062a\u0644 \u0627\u0644\u0633\u0645\u0643", "name:ar1": "\u062a\u0644 \u0627\u0644\u0633\u0645\u0643", "name:de": "Tall as Samak", "name:en": "Tall as Samak", "name:fr": "Tall as Samak", "place": "village"}}, {"type": "way", "id": 312181829, "nodes": [3180273130, 3180273131, 3180273132, 3180273133, 3180273134, 3180273130], "tags": {"landuse": "residential", "name": "Halawah", "place": "village"}}, {"type": "way", "id": 313182458, "nodes": [3190905391, 3190905392, 3190905393, 3190905394, 3190905395, 3190905396, 3190905397, 3190905398, 3190905399, 3190905400, 3190905401, 3255963157, 3190905402, 3255963153, 3190905403, 3190905404, 3255963150, 3190905405, 3190905406, 3190905391], "tags": {"alt_name": "\u0623\u0628\u0648 \u0645\u0627\u0631\u064a\u0629", "int_name": "Ab\u016b Maria, Ab\u016b M\u0101r\u012byah, \u0627\u0628\u0648 \u0645\u0627\u0631\u064a\u0629, Abu Maria, Abu Mariyah, \u0627\u0628\u0648 \u0645\u0627\u0631\u064a\u0629", "is_in": "Iraq , \u062c\u0645\u0647\u0648\u0631\u064a\u0629 \u0627\u0644\u0639\u0631\u0627\u0642", "landuse": "residential", "name": "\u0623\u0628\u0648 \u0645\u0627\u0631\u064a\u0627", "name:ar": "\u0623\u0628\u0648 \u0645\u0627\u0631\u064a\u0627", "name:ar1": "\u0623\u0628\u0648 \u0645\u0627\u0631\u064a\u0629", "name:de": "Abu Maria", "name:en": "Abu Maria", "name:fr": "Abu Maria", "place": "village"}}, {"type": "way", "id": 313182459, "nodes": [3255963155, 3190905416, 3190905417, 3190905418, 5064120378, 5064120379, 5064120384, 5064120386, 3190905407, 3190905408, 4504041234, 4504041235, 4504041236, 3190905409, 4504041237, 3190905410, 4504041239, 4504041238, 3190905411, 3190905412, 4504041241, 4504041240, 3190905413, 3190905414, 3255963151, 3255963152, 3255963154, 3255963160, 3255965662, 3255963156, 3255963158, 3255963155], "tags": {"int_name": "Al Mazra, Al Mizra, Mazraah, Mizra, Mizrah, \u0645\u0632\u0631\u0639\u0629, Al Mazra, Al Mizra, Mazraah, Mizra, Mizrah, \u0645\u0632\u0631\u0639\u0629", "is_in": "Iraq , \u062c\u0645\u0647\u0648\u0631\u064a\u0629 \u0627\u0644\u0639\u0631\u0627\u0642", "landuse": "residential", "name": "\u0645\u0632\u0631\u0639 \u0627\u0644\u0641\u0631\u064a\u062d", "name:ar": "\u0645\u0632\u0631\u0639 \u0627\u0644\u0641\u0631\u064a\u062d", "name:de": "Al Mazra", "name:en": "Al Mazra", "name:fr": "Al Mazra", "place": "village"}}, {"type": "way", "id": 319186289, "nodes": [5064120375, 5071431871, 5071431874, 5071431875, 5071431872, 5071431876, 5071431873, 2992243608, 2992243613, 2992243606, 2992243598, 2992243596, 5064120375], "tags": {"int_name": "Qa\u1e11\u012byah, \u0642\u0636\u064a\u0629, Qadiyah, \u0642\u0636\u064a\u0629", "is_in": "Iraq , \u062c\u0645\u0647\u0648\u0631\u064a\u0629 \u0627\u0644\u0639\u0631\u0627\u0642", "landuse": "residential", "name": "\u0627\u0644\u0645\u0632\u0631\u0639 \u0627\u0644\u062b\u0627\u0646\u064a", "place": "village"}}, {"type": "way", "id": 319484175, "nodes": [3258988652, 3258988651, 3258988660, 3258988647, 3258988644, 3258988646, 3258988645, 3258988650, 3258988648, 3258988633, 3258988635, 3258988634, 3258988632, 3258988636, 3258988638, 3258988637, 3258988640, 3258988639, 3258988641, 3258988642, 3258988643, 11694916809, 9468662590, 3258988656, 3258988653, 3258988655, 3258988654, 3258988657, 3258988658, 3258988659, 3258991262, 3258991261, 3258991263, 3258991264, 3258991265, 8836666014, 2324855170, 2466448505, 3258988652], "tags": {"name": "Al Wailiyah", "name:ar": "\u0627\u0644\u0648\u0627\u0626\u0644\u064a\u0647", "place": "village"}}, {"type": "way", "id": 319484199, "nodes": [3123767455, 3258989976, 3258989972, 3258989971, 3258990278, 3258990269, 3258983959, 3258983953, 3258983933, 3258983915, 3113210285, 3258983918, 3258983920, 3258983934, 3258983954, 3258990263, 3258990266, 3258990274, 3258990280, 3258989973, 3123767455], "tags": {"int_name": "Tall Jam\u0101l, \u062a\u0644 \u062c\u0645\u0627\u0644, Tall Jamal, \u062a\u0644 \u062c\u0645\u0627\u0644", "landuse": "residential", "name": "\u062a\u0644 \u062c\u0645\u0627\u0644", "name:ar": "\u062a\u0644 \u062c\u0645\u0627\u0644", "name:ar1": "\u062a\u0644 \u062c\u0645\u0627\u0644", "name:de": "Tall Jamal", "name:en": "Tall Jamal", "name:fr": "Tall Jamal", "place": "village"}}, {"type": "way", "id": 319484200, "nodes": [3258991210, 3258991206, 3258991202, 3258991183, 3258991180, 3258991191, 3258991188, 3258991197, 3258991196, 3258991187, 3258991184, 3258991177, 3258991171, 3258991170, 3258991164, 3258991165, 3258991167, 3258991168, 3258991176, 3258991182, 3258991173, 3258991175, 3258991166, 3258991169, 3258991172, 3258991174, 5062240224, 3258991181, 3258991179, 3258991178, 3258991185, 3258991186, 3258991195, 3258991203, 3258991204, 3258991207, 3258991208, 3258991209, 3258991212, 3258991213, 3258991210], "tags": {"int_name": "Tirf\u012b, Tirm\u012b, Trfy, \u062a\u0631\u0645\u064a, Tirfi, Tirmi, Trfy, \u062a\u0631\u0645\u064a", "is_in": "Iraq , \u062c\u0645\u0647\u0648\u0631\u064a\u0629 \u0627\u0644\u0639\u0631\u0627\u0642", "landuse": "residential", "name": "\u062a\u0631\u0645\u064a", "name:ar": "\u062a\u0631\u0645\u064a", "name:ar1": "\u062a\u0631\u0645\u064a", "name:de": "Tirfi", "name:en": "Tirfi", "name:fr": "Tirfi", "place": "village"}}, {"type": "relation", "id": 4597580, "members": [{"type": "way", "ref": 305435371, "role": "outer"}, {"type": "node", "ref": 2488214866, "role": "label"}], "tags": {"boundary": "administrative", "name": "Dawasa", "place": "village", "type": "boundary"}}, {"type": "relation", "id": 4597581, "members": [{"type": "way", "ref": 273717082, "role": "outer"}, {"type": "node", "ref": 2488214873, "role": "label"}], "tags": {"boundary": "administrative", "name": "Dayr Umm Tunah", "place": "village", "type": "boundary"}}, {"type": "relation", "id": 4597583, "members": [{"type": "way", "ref": 273717069, "role": "outer"}, {"type": "node", "ref": 2488215123, "role": "label"}], "tags": {"boundary": "administrative", "place": "village", "type": "boundary"}}, {"type": "relation", "id": 4597584, "members": [{"type": "way", "ref": 273717091, "role": "outer"}, {"type": "node", "ref": 2488215004, "role": "label"}], "tags": {"boundary": "administrative", "place": "village", "type": "boundary"}}]}