{"version": 0.6, "generator": "Overpass API 0.7.61.5 4133829e", "osm3s": {"timestamp_osm_base": "2024-03-05T13:35:45Z", "copyright": "The data included in this document is from www.openstreetmap.org. The data is made available under ODbL."}, "elements": [{"type": "node", "id": 1610100621, "lat": 32.2872651, "lon": 65.0653179, "tags": {"name": "Kajaki", "place": "village", "wikidata": "Q6348847"}}, {"type": "node", "id": 1610119594, "lat": 32.0702505, "lon": 64.8471206, "tags": {"alt_name": "Sarban Qal`eh", "name": "\u0633\u0646\u06af\u06cc\u0646", "name:en": "Sangin", "name:ps": "\u0633\u0646\u06af\u06cc\u0646", "name:ru": "\u0421\u0430\u043d\u0433\u0438\u043d", "place": "town", "source:name": "GNS", "wikidata": "Q2457742"}}, {"type": "node", "id": 1610119597, "lat": 32.3510951, "lon": 64.7704294, "tags": {"alt_name": "Musa Qal'a;Musa Qal`ah", "name": "\u0645\u0648\u0633\u0649 \u0642\u0644\u0639\u0647", "name:en": "Musa Qal`eh", "name:ps": "\u0645\u0648\u0633\u0649 \u0642\u0644\u0639\u0647", "name:ru": "\u041c\u0443\u0441\u0430\u043a\u0430\u043b\u0430", "place": "town", "source:name": "GNS"}}, {"type": "node", "id": 4402564721, "lat": 32.007285, "lon": 65.108377, "tags": {"alt_name": "Cahe Gazak", "name": "\u0686\u0627\u0647 \u06af\u0632\u06a9", "name:en": "Chah-e Gazak", "name:ps": "\u0686\u0627\u0647 \u06af\u0632\u06a9", "name:ru": "Chakhi-Gazak", "place": "village", "source:name": "GNS"}}, {"type": "node", "id": 4402564722, "lat": 32.015826, "lon": 65.107207, "tags": {"alt_name": "\u0686\u06cc\u0646\u0627\u0631;Cenar;Chinar", "name": "\u0686\u0646\u0627\u0631", "name:en": "Chenar", "name:ps": "\u0686\u0646\u0627\u0631", "name:ru": "Chinar", "place": "village", "source:name": "GNS"}}, {"type": "node", "id": 4402564723, "lat": 32.032494, "lon": 65.135841, "tags": {"alt_name": "Ghowrak;Popalzai", "name": "\u063a\u0648\u0631\u06a9", "name:en": "Ghorak", "name:ps": "\u063a\u0648\u0631\u06a9", "name:ru": "Gorak", "place": "town", "source:name": "GNS"}}, {"type": "node", "id": 4402564725, "lat": 32.007537, "lon": 65.137118, "tags": {"name": "\u062c\u0644\u0648", "name:en": "Jalu", "name:ps": "\u062c\u0644\u0648", "name:ru": "Dzhalu", "place": "village", "source:name": "GNS"}}, {"type": "node", "id": 4402564727, "lat": 32.08422, "lon": 65.156744, "tags": {"alt_name": "Shah Kariz;Sah Karez", "name": "\u0634\u0627\u0647 \u06a9\u0627\u0631\u06d0\u0632", "name:en": "Shah Karez", "name:ps": "\u0634\u0627\u0647 \u06a9\u0627\u0631\u06d0\u0632", "name:ru": "Shakhkarez", "place": "village", "source:name": "GNS"}}, {"type": "node", "id": 4405281707, "lat": 32.3007619, "lon": 65.0963526, "tags": {"alt_name": "Kajaki `Ulya;Kajakay;Kajaki `Olya;Kajkai;\u06a9\u062c\u06a9\u06cc", "name": "\u06a9\u062c\u06a9\u06cc \u0639\u0644\u06cc\u0627", "name:en": "Kajaki", "name:ps": "\u06a9\u062c\u06a9\u06cc \u0639\u0644\u06cc\u0627", "name:ru": "\u041a\u0430\u0434\u0436\u0430\u043a\u0430\u0439", "place": "town", "source:name": "GNS"}}, {"type": "node", "id": 8313267397, "lat": 32.1160664, "lon": 65.2195456, "tags": {"place": "hamlet"}}, {"type": "node", "id": 8313267410, "lat": 32.1182375, "lon": 65.2104384, "tags": {"place": "hamlet"}}, {"type": "node", "id": 8313267560, "lat": 32.0997168, "lon": 65.1657577, "tags": {"place": "hamlet"}}, {"type": "node", "id": 9392905529, "lat": 32.0718018, "lon": 64.8456355}, {"type": "node", "id": 9392905530, "lat": 32.0717432, "lon": 64.8491737}, {"type": "node", "id": 9392905531, "lat": 32.0685915, "lon": 64.8491069}, {"type": "node", "id": 9392905532, "lat": 32.0685791, "lon": 64.845633}, {"type": "node", "id": 9392905533, "lat": 32.0686401, "lon": 64.8455835}, {"type": "way", "id": 1018358031, "nodes": [9392905529, 9392905530, 9392905531, 9392905532, 9392905533, 9392905529], "tags": {"name": "Sangin", "place": "city", "population": "20000"}}]}