{"version": 0.6, "generator": "Overpass API 0.7.61.5 4133829e", "osm3s": {"timestamp_osm_base": "2024-03-06T11:15:40Z", "copyright": "The data included in this document is from www.openstreetmap.org. The data is made available under ODbL."}, "elements": [{"type": "node", "id": 2487905895, "lat": 30.795094, "lon": 47.579572, "tags": {"alt_name": "\u0627\u0644\u062f\u064a\u0631", "alt_name:en": "Al Dayr, Al Deir, Ad Dayr, Ad Deir", "capital": "7", "int_name": "Ad Dayr", "is_in": "Iraq , \u062c\u0645\u0647\u0648\u0631\u064a\u0629 \u0627\u0644\u0639\u0631\u0627\u0642", "name": "\u0627\u0644\u062f\u064a\u0631", "name:ar": "\u0627\u0644\u062f\u064a\u0631", "name:ar-Latn": "Ad Dayr", "name:en": "Ad Dayr", "place": "town", "wikidata": "Q42530423", "wikipedia": "en:Ad Dayr, Iraq"}}, {"type": "node", "id": 2487905950, "lat": 30.770792, "lon": 47.552017, "tags": {"alt_name": "\u0642\u0631\u064a\u0629 \u0627\u0644\u0645\u0639\u062f\u0627\u0646", "int_name": "Qaryat al Mad\u0101n, \u0642\u0631\u064a\u0629 \u0627\u0644\u0645\u0639\u062f\u0627\u0646, Qaryat al Madan, \u0642\u0631\u064a\u0629 \u0627\u0644\u0645\u0639\u062f\u0627\u0646", "name": "\u0642\u0631\u064a\u0629 \u0627\u0644\u0645\u0639\u062f\u0627\u0646", "name:ar": "\u0628\u064a\u062a \u0627\u0628\u0648 \u0634\u0643\u064a\u0644\u0647", "name:ar1": "\u0642\u0631\u064a\u0629 \u0627\u0644\u0645\u0639\u062f\u0627\u0646", "name:de": "Qaryat al Madan", "name:en": "Qaryat al Madan", "name:fr": "Qaryat al Madan", "place": "village"}}, {"type": "node", "id": 2487905953, "lat": 30.766667, "lon": 47.616667, "tags": {"alt_name": "\u0631\u0645\u064a\u0644\u0629", "int_name": "Rumaila, Rumaylah, Rumaila, Rumaylah", "is_in": "Iraq , \u062c\u0645\u0647\u0648\u0631\u064a\u0629 \u0627\u0644\u0639\u0631\u0627\u0642", "name": "\u0631\u0645\u064a\u0644\u0629", "name:ar": "\u0628\u064a\u062a \u062d\u062c\u064a \u0633\u0644\u0637\u0627\u0646", "name:ar1": "\u0631\u0645\u064a\u0644\u0629", "name:de": "Rumaila", "name:en": "Ramila", "name:fr": "Rumaila", "name:ku": "\u0645\u0646\u0637\u0642\u0647 \u0627\u0644\u0634\u0631\u064a\u0628\u0647", "place": "village"}}, {"type": "node", "id": 2487924232, "lat": 30.628889, "lon": 47.210278, "tags": {"alt_name": "\u0627\u0644\u0631\u0637\u0627\u0648\u064a", "int_name": "Ar Ra\u0163\u0101w\u012b, Ar Ratawi", "is_in": "Iraq , \u062c\u0645\u0647\u0648\u0631\u064a\u0629 \u0627\u0644\u0639\u0631\u0627\u0642", "name": "\u0627\u0644\u0631\u0637\u0627\u0648\u064a", "name:ar": "\u0627\u0631\u0637\u0627\u0648\u064a", "name:ar1": "\u0627\u0644\u0631\u0637\u0627\u0648\u064a", "name:de": "Ar Ratawi", "name:en": "Ar Ratawi", "name:fr": "Ar Ratawi", "name:ku": "\u062d\u0627\u062c \u0627\u0631\u0637\u0627\u0648\u064a", "place": "village"}}, {"type": "node", "id": 2487924235, "lat": 30.576944, "lon": 47.355, "tags": {"alt_name": "\u0627\u0644\u0631\u0645\u064a\u0644\u0629", "int_name": "Ar Rumaila, Ar Rumaylah, Reamela, Rumeileh, Ar Rumaila, Ar Rumaylah, Reamela, Rumeileh", "is_in": "Iraq , \u062c\u0645\u0647\u0648\u0631\u064a\u0629 \u0627\u0644\u0639\u0631\u0627\u0642", "name": "\u0627\u0644\u0631\u0645\u064a\u0644\u0629", "name:ar": "\u0627\u0644\u0631\u0645\u064a\u0644\u0629", "name:ar1": "\u0627\u0644\u0631\u0645\u064a\u0644\u0629", "name:de": "Ar Rumaila", "name:en": "Ar Rumaila", "name:fr": "Ar Rumaila", "name:ku": "\u0627\u0644\u0634\u0645\u0627\u0644\u064a\u0629", "place": "village"}}, {"type": "node", "id": 2487924270, "lat": 30.473333, "lon": 47.491667, "tags": {"alt_name": "\u0645\u062d\u0637\u0629 \u0627\u0644\u0637\u0648\u0628\u0629", "int_name": "At Tuba, A\u0163 \u0162\u016bbah, Et Tobah, Etwab, Itoba, At Tuba, At Tubah, Et Tobah, Etwab, Itoba", "is_in": "Iraq , \u062c\u0645\u0647\u0648\u0631\u064a\u0629 \u0627\u0644\u0639\u0631\u0627\u0642", "name": "\u0645\u062d\u0637\u0629 \u0627\u0644\u0637\u0648\u0628\u0629", "name:ar": "\u0645\u062d\u0637\u0629 \u0642\u0637\u0627\u0631 \u0627\u0644\u0637\u0648\u0628\u0629", "name:ar1": "\u0645\u062d\u0637\u0629 \u0627\u0644\u0637\u0648\u0628\u0629", "name:de": "At Tuba", "name:en": "At Tuba Train station", "name:fr": "At Tuba", "name:ru": "\u042d\u0442-\u0422\u0443\u0431\u0430", "place": "village"}}, {"type": "node", "id": 2487924309, "lat": 30.589341, "lon": 47.366467, "tags": {"alt_name": "\u0642\u0631\u064a\u0629 \u0639\u0644\u0648\u064a", "int_name": "Qaryat Aluw\u012b, \u0642\u0631\u064a\u0629 \u0639\u0644\u0648\u064a, Qaryat Aluwi, \u0642\u0631\u064a\u0629 \u0639\u0644\u0648\u064a", "name": "\u0642\u0631\u064a\u0629 \u0639\u0644\u0648\u064a", "name:ar": "\u0642\u0631\u064a\u0629 \u0627\u0644\u0633\u0643\u0643", "name:ar1": "\u0642\u0631\u064a\u0629 \u0639\u0644\u0648\u064a", "name:de": "Qaryat Aluwi", "name:en": "Qaryat Aluwi", "name:fr": "Qaryat Aluwi", "place": "village"}}]}