{"version": 0.6, "generator": "Overpass API 0.7.61.5 4133829e", "osm3s": {"timestamp_osm_base": "2024-03-05T13:43:59Z", "copyright": "The data included in this document is from www.openstreetmap.org. The data is made available under ODbL."}, "elements": [{"type": "node", "id": 312781020, "lat": 36.120094, "lon": 68.6818617, "tags": {"alt_name": "Baghlani Jadid;Baglan;Sana`ati;Baghlan-e Jadid;Baghlin;Baghlan;Bagolaggo;Sana `Ati;\u0635\u0646\u0627\u0639\u062a\u06cc;\u0628\u063a\u0644\u0627\u0646 \u062c\u062f\u064a\u062f", "int_name": "Baghlan", "is_in:country": "\u0623\u0641\u063a\u0627\u0646\u0633\u062a\u0627\u0646", "name": "\u0628\u063a\u0644\u0627\u0646", "name:ar": "\u0628\u063a\u0644\u0627\u0646", "name:de": "Baglan", "name:en": "Baghlan", "name:lt": "Baglanas", "name:ru": "\u0411\u0430\u0433\u043b\u0430\u043d", "name:uk": "\u0411\u0430\u0491\u043b\u0430\u043d", "place": "town", "population": "61000", "wikidata": "Q732879", "wikipedia": "en:Baghlani Jadid"}}, {"type": "node", "id": 312781022, "lat": 35.9403928, "lon": 68.7166369, "tags": {"ele": "635", "int_name": "Puli Khumri", "name": "\u067e\u0644 \u062e\u0645\u0631\u06cc", "name:ar": "\u0628\u0644 \u062e\u0645\u0631\u064a", "name:cs": "Pol-e Chumr\u00ed", "name:de": "Pol-e Khomri", "name:el": "\u03a0\u03bf\u03cd\u03bb\u03b9 \u03a7\u03bf\u03c5\u03bc\u03c1\u03af", "name:en": "Puli Khumri", "name:es": "Puli Khumri", "name:et": "Pol-e Khomr\u012b", "name:fa": "\u067e\u0644 \u062e\u0645\u0631\u06cc", "name:fr": "Pol-e Khomri", "name:hi": "\u092a\u0941\u0932-\u090f-\u0916\u093c\u0941\u092e\u0930\u0940", "name:ja": "\u30d7\u30ec\u30fb\u30d5\u30e0\u30ea\u30fc", "name:ko": "\ud480\ub9ac\ud6d4\ub9ac", "name:ru": "\u041f\u0443\u043b\u0438-\u0425\u0443\u043c\u0440\u0438", "name:uk": "\u041f\u0443\u043b\u0456-\u0425\u0443\u043c\u0440\u0456", "name:zh": "\u666e\u52d2\u80e1\u59c6\u91cc", "name:zh-Hans": "\u666e\u52d2\u80e1\u59c6\u91cc", "name:zh-Hant": "\u666e\u52d2\u80e1\u59c6\u91cc", "place": "city", "population": "60000", "wikidata": "Q477148", "wikipedia": "en:Puli Khumri"}}, {"type": "node", "id": 2690057132, "lat": 36.0275416, "lon": 68.6499108, "tags": {"name": "Qazaq", "place": "hamlet"}}, {"type": "node", "id": 2690057133, "lat": 36.0774784, "lon": 68.6483771, "tags": {"name": "Lalakay", "place": "hamlet"}}, {"type": "node", "id": 2690057134, "lat": 35.992836, "lon": 68.6813361, "tags": {"name": "Kokan", "place": "hamlet"}}, {"type": "node", "id": 2690057135, "lat": 36.0107507, "lon": 68.6343009, "tags": {"name": "Aka Khel", "place": "hamlet"}}, {"type": "node", "id": 2690057136, "lat": 36.0139443, "lon": 68.6561877, "tags": {"name": "Kutub", "place": "hamlet"}}, {"type": "node", "id": 2690057137, "lat": 36.0353941, "lon": 68.6452229, "tags": {"name": "Shahabuddin", "place": "hamlet"}}, {"type": "node", "id": 2690057138, "lat": 36.0431327, "lon": 68.6605222, "tags": {"name": "Aka Khel", "place": "hamlet"}}, {"type": "node", "id": 2690057139, "lat": 36.0246353, "lon": 68.6733539, "tags": {"name": "Husain Khel", "place": "village"}}, {"type": "node", "id": 2690057140, "lat": 36.0740445, "lon": 68.6573035, "tags": {"name": "Bini A'Ina", "place": "hamlet"}}, {"type": "node", "id": 2690057141, "lat": 36.0023493, "lon": 68.6662299, "tags": {"name": "Gaw Sowar", "place": "hamlet"}}, {"type": "node", "id": 2690057142, "lat": 36.0620125, "lon": 68.6325821, "tags": {"name": "Gaji", "place": "hamlet"}}, {"type": "node", "id": 2690057143, "lat": 36.031646, "lon": 68.6119849, "tags": {"name": "Wazghari", "place": "hamlet"}}, {"type": "node", "id": 2690057144, "lat": 35.9986517, "lon": 68.6441714, "tags": {"name": "Saqi Kelay", "place": "hamlet"}}, {"type": "node", "id": 2690057145, "lat": 35.9940859, "lon": 68.6873443, "tags": {"name": "Zamankheyl", "place": "hamlet"}}, {"type": "node", "id": 2690057146, "lat": 36.0798716, "lon": 68.6265761, "tags": {"alt_name": "Qonduz Tappeh", "name": "Kunduz Tapah", "place": "village"}}, {"type": "node", "id": 2690057147, "lat": 35.9902665, "lon": 68.674298, "tags": {"name": "Khugiyani", "place": "hamlet"}}, {"type": "node", "id": 2690057148, "lat": 36.092591, "lon": 68.6363179, "tags": {"alt_name": "Omar Kheyl", "name": "Omar Khel", "place": "village"}}, {"type": "node", "id": 2690057149, "lat": 36.0751892, "lon": 68.5817511, "tags": {"name": "Gurgurak", "place": "hamlet"}}, {"type": "node", "id": 2690057150, "lat": 36.0442778, "lon": 68.6544711, "tags": {"name": "Wali", "place": "hamlet"}}, {"type": "node", "id": 2690057153, "lat": 36.0457351, "lon": 68.6682899, "tags": {"name": "Bala Duri II", "place": "village"}}, {"type": "node", "id": 2690057154, "lat": 36.0572856, "lon": 68.6602153, "tags": {"name": "Bibiaina", "place": "hamlet"}}, {"type": "node", "id": 2690057155, "lat": 36.0606543, "lon": 68.5945613, "tags": {"name": "Chashmah-i-Sher", "place": "hamlet"}}, {"type": "node", "id": 2690057156, "lat": 36.0859585, "lon": 68.6555225, "tags": {"name": "Puzeh-ye Eshan", "place": "hamlet"}}, {"type": "node", "id": 3452096288, "lat": 36.1746897, "lon": 68.7489741, "tags": {"name": "\u0628\u063a\u0644\u0627\u0646", "name:ar": "\u0628\u063a\u0644\u0627\u0646", "name:de": "Baglan", "name:en": "Baghlan", "name:es": "Ba\u0121l\u0101n", "name:et": "Baghl\u0101n", "name:fr": "Baghl\u00e2n", "name:hi": "\u092c\u0917\u093c\u0932\u093e\u0928", "name:ja": "\u30d0\u30b0\u30e9\u30fc\u30f3", "name:lt": "Baglanas", "name:ml": "\u0d2c\u0d17\u0d4d\u0d32\u0d3e\u0d7b", "name:ru": "\u0411\u0430\u0433\u043b\u0430\u043d", "name:uk": "\u0411\u0430\u0491\u043b\u0430\u043d", "place": "city", "population": "119607", "wikidata": "Q732879"}}, {"type": "node", "id": 4401241035, "lat": 36.172234, "lon": 68.767181, "tags": {"name": "\u0645\u0647\u0627\u062c\u0631", "name:en": "Makhadzhir;Mahajer;Mahajir", "name:ps": "\u0645\u0647\u0627\u062c\u0631", "name:ru": "\u041c\u0430\u0445\u0430\u0434\u0436\u0438\u0440", "place": "village", "source:name": "GNS"}}]}