{"version": 0.6, "generator": "Overpass API 0.7.61.5 4133829e", "osm3s": {"timestamp_osm_base": "2024-03-05T11:24:46Z", "copyright": "The data included in this document is from www.openstreetmap.org. The data is made available under ODbL."}, "elements": [{"type": "node", "id": 5515609756, "lat": 6.8056875, "lon": -2.5144686}, {"type": "node", "id": 5515609757, "lat": 6.8054957, "lon": -2.5143693}, {"type": "node", "id": 5515609758, "lat": 6.805388, "lon": -2.5145803}, {"type": "node", "id": 5515609759, "lat": 6.8055798, "lon": -2.5146796}, {"type": "node", "id": 5753044225, "lat": 6.8039167, "lon": -2.5169298, "tags": {"amenity": "bank", "name": "Republic Bank"}}, {"type": "node", "id": 5753057821, "lat": 6.803549, "lon": -2.518031}, {"type": "node", "id": 5789707053, "lat": 6.8054749, "lon": -2.5136381}, {"type": "node", "id": 5789707054, "lat": 6.8055159, "lon": -2.5135453}, {"type": "node", "id": 5789707055, "lat": 6.8054449, "lon": -2.5136247}, {"type": "node", "id": 5789707057, "lat": 6.8055821, "lon": -2.5135694}, {"type": "node", "id": 5789707058, "lat": 6.8056057, "lon": -2.51358}, {"type": "node", "id": 5789707059, "lat": 6.8055114, "lon": -2.5137293}, {"type": "node", "id": 5789707060, "lat": 6.8056376, "lon": -2.5135079}, {"type": "node", "id": 5789707061, "lat": 6.8055199, "lon": -2.5134552}, {"type": "node", "id": 5789707062, "lat": 6.8054173, "lon": -2.5136872}, {"type": "node", "id": 5910181379, "lat": 6.8033932, "lon": -2.519238, "tags": {"amenity": "bank", "atm": "yes", "brand": "GCB Bank", "brand:wikidata": "Q1521346", "brand:wikipedia": "en:GCB Bank", "name": "GCB Bank", "opening_hours": "Mo-Fr 08:00-04:30"}}, {"type": "node", "id": 5910181482, "lat": 6.8034001, "lon": -2.517875}, {"type": "node", "id": 5910181483, "lat": 6.8035692, "lon": -2.5179018}, {"type": "node", "id": 5910181485, "lat": 6.8033799, "lon": -2.5180042}, {"type": "node", "id": 5930737463, "lat": 6.8057223, "lon": -2.5172156, "tags": {"amenity": "bank", "atm": "no", "name": "Sinapi Aba Savings and Loans"}}, {"type": "node", "id": 6112271685, "lat": 6.8105166, "lon": -2.5301845, "tags": {"amenity": "bank", "name": "GN Bank"}}, {"type": "node", "id": 6301318521, "lat": 6.8044259, "lon": -2.5149693, "tags": {"addr:street": "Goaso High Street", "amenity": "bank", "atm": "yes", "name": "Pan African Savings and Loans", "opening_hours": "Mo-Fr 08:00-17:00", "wheelchair": "yes"}}, {"type": "node", "id": 6567438489, "lat": 6.9001034, "lon": -2.5585341, "tags": {"amenity": "bank", "name": "Ghana Commercial Bank"}}, {"type": "node", "id": 6605704712, "lat": 6.805486, "lon": -2.5135319}, {"type": "node", "id": 6715438908, "lat": 6.8045059, "lon": -2.5151364, "tags": {"addr:street": "Goaso High Street", "amenity": "bank", "name": "Opportunity International Savings and Loans"}}, {"type": "node", "id": 6745992417, "lat": 6.802225, "lon": -2.5142156, "tags": {"addr:street": "Bosam Avenue", "amenity": "bank", "name": "Negios Micro Credit Services", "wheelchair": "yes"}}, {"type": "way", "id": 574666781, "nodes": [5515609759, 5515609756, 5515609757, 5515609758, 5515609759], "tags": {"addr:street": "Goaso High Street", "amenity": "bank", "atm": "yes", "building": "commercial", "building:levels": "1", "name": "ADB", "opening_hours": "Mo-Fr 08:00-04:30"}}, {"type": "way", "id": 611557679, "nodes": [5789707062, 5789707059, 5789707057, 5789707058, 5789707060, 5789707061, 6605704712, 5789707054, 5789707053, 5789707055, 5789707062], "tags": {"addr:street": "Goaso High Street", "amenity": "bank", "brand": "Ahafo Rural Bank", "building": "yes", "building:levels": "2", "name": "Ahafo Community Bank", "opening_hours": "Mo-Fr 08:30-17:00", "wheelchair": "yes"}}, {"type": "way", "id": 626006898, "nodes": [5910181485, 5753057821, 5910181483, 5910181482, 5910181485], "tags": {"amenity": "bank", "atm": "yes", "building": "yes", "building:levels": "2", "name": "First Allied Savings and Loans", "opening_hours": "Mo-Fr 09:00-17:00"}}]}