{"version": 0.6, "generator": "Overpass API 0.7.61.5 4133829e", "osm3s": {"timestamp_osm_base": "2024-03-06T11:43:14Z", "copyright": "The data included in this document is from www.openstreetmap.org. The data is made available under ODbL."}, "elements": [{"type": "node", "id": 2487922884, "lat": 30.582061, "lon": 46.539065, "tags": {"alt_name": "\u0645\u062d\u0637\u0629 \u062c\u0644\u064a\u0628\u0629", "int_name": "Jaliba Railroad Station, Jal\u012bba Station, Ma\u1e29a\u0163\u0163at Jal\u012bbah, Jaliba Railroad Station, Jaliba Station, Mahattat Jalibah", "is_in": "Iraq , \u062c\u0645\u0647\u0648\u0631\u064a\u0629 \u0627\u0644\u0639\u0631\u0627\u0642", "name": "\u0645\u062d\u0637\u0629 \u062c\u0644\u064a\u0628\u0629", "name:ar": "\u0645\u062d\u0637\u0629 \u062c\u0644\u064a\u0628\u0629", "name:ar1": "\u0645\u062d\u0637\u0629 \u062c\u0644\u064a\u0628\u0629", "name:de": "Jaliba Railroad Station", "name:en": "Jaliba Railroad Station", "name:fr": "Jaliba Railroad Station", "public_transport": "station", "railway": "station"}}, {"type": "node", "id": 2487922885, "lat": 30.5808746, "lon": 46.5401735, "tags": {"alt_name": "\u062c\u0644\u064a\u0628\u0629", "int_name": "Jaliba, Jal\u012bbah, \u062c\u0644\u064a\u0628\u0647, Jaliba, Jalibah, \u062c\u0644\u064a\u0628\u0647", "is_in": "Iraq , \u062c\u0645\u0647\u0648\u0631\u064a\u0629 \u0627\u0644\u0639\u0631\u0627\u0642", "name": "\u062c\u0644\u064a\u0628\u0629", "name:ar": "\u062c\u0644\u064a\u0628\u0629", "name:ar1": "\u062c\u0644\u064a\u0628\u0629", "name:de": "Jaliba", "name:en": "Jaliba", "name:fr": "Jaliba", "public_transport": "station", "railway": "station"}}, {"type": "node", "id": 2487922889, "lat": 30.5835053, "lon": 46.5390051, "tags": {"alt_name": "\u0645\u062d\u0637\u0629 \u0642\u0637\u0627\u0631 \u062c\u0644\u064a\u0628\u0629", "int_name": "Ma\u1e29a\u0163\u0163at Qi\u0163\u0101r Jal\u012bbah, Mahattat Qitar Jalibah", "is_in": "Iraq , \u062c\u0645\u0647\u0648\u0631\u064a\u0629 \u0627\u0644\u0639\u0631\u0627\u0642", "name": "\u0645\u062d\u0637\u0629 \u0642\u0637\u0627\u0631 \u062c\u0644\u064a\u0628\u0629", "name:ar": "\u0645\u062d\u0637\u0629 \u0642\u0637\u0627\u0631 \u062c\u0644\u064a\u0628\u0629", "name:ar1": "\u0645\u062d\u0637\u0629 \u0642\u0637\u0627\u0631 \u062c\u0644\u064a\u0628\u0629", "name:de": "Mahattat Qitar Jalibah", "name:en": "Mahattat Qitar Jalibah", "name:fr": "Mahattat Qitar Jalibah", "public_transport": "station", "railway": "station"}}, {"type": "node", "id": 2487922891, "lat": 30.783496, "lon": 46.379344, "tags": {"alt_name": "\u0645\u062d\u0637\u0629 \u0642\u0637\u0627\u0631 \u062a\u0644 \u0627\u0644\u0644\u062d\u0645", "int_name": "Ma\u1e29a\u0163\u0163at Qi\u0163\u0101r Tall al La\u1e29m, Ma\u1e29a\u0163\u0163at Tall al La\u1e29m, Ma\u1e29a\u0163\u0163at Tall La\u1e29m, Tall al La\u1e29m, Tall al Lahm Railroad Station, Tel al Lahm, Tel al Lamm", "is_in": "Iraq , \u062c\u0645\u0647\u0648\u0631\u064a\u0629 \u0627\u0644\u0639\u0631\u0627\u0642", "name": "\u0645\u062d\u0637\u0629 \u0642\u0637\u0627\u0631 \u062a\u0644 \u0627\u0644\u0644\u062d\u0645", "name:ar": "\u0645\u062d\u0637\u0629 \u0642\u0637\u0627\u0631 \u062a\u0644 \u0627\u0644\u0644\u062d\u0645", "name:ar1": "\u0645\u062d\u0637\u0629 \u0642\u0637\u0627\u0631 \u062a\u0644 \u0627\u0644\u0644\u062d\u0645", "name:de": "Mahattat Qitar Tall al Lahm", "name:en": "Mahattat Qitar Tall al Lahm", "name:fr": "Mahattat Qitar Tall al Lahm", "public_transport": "station", "railway": "station"}}, {"type": "node", "id": 2487922897, "lat": 30.7163549, "lon": 46.4294457, "tags": {"alt_name": "\u0645\u062d\u0637\u0629 \u062a\u0644 \u0627\u0644\u062c\u0628\u0627\u0631", "int_name": "Ma\u1e29a\u0163\u0163at Tall al Jab\u0101r, \u0645\u062d\u0637\u0629 \u062a\u0644 \u0627\u0644\u062c\u0628\u0627\u0631, Mahattat Tall al Jabar, \u0645\u062d\u0637\u0629 \u062a\u0644 \u0627\u0644\u062c\u0628\u0627\u0631", "is_in": "Iraq , \u062c\u0645\u0647\u0648\u0631\u064a\u0629 \u0627\u0644\u0639\u0631\u0627\u0642", "name": "\u0645\u062d\u0637\u0629 \u062a\u0644 \u0627\u0644\u062c\u0628\u0627\u0631", "name:ar": "\u0645\u062d\u0637\u0629 \u062a\u0644 \u0627\u0644\u062c\u0628\u0627\u0631", "name:ar1": "\u0645\u062d\u0637\u0629 \u062a\u0644 \u0627\u0644\u062c\u0628\u0627\u0631", "name:de": "Mahattat Tall al Jabar", "name:en": "Mahattat Tall al Jabar", "name:fr": "Mahattat Tall al Jabar", "public_transport": "station", "railway": "station"}}, {"type": "node", "id": 2487922898, "lat": 30.5812873, "lon": 46.5337923, "tags": {"alt_name": "\u0645\u062d\u0637\u0629 \u0627\u0644\u062c\u0644\u064a\u0628\u0629", "int_name": "Ma\u1e29a\u0163\u0163at al Jal\u012bbah, Mahattat al Jalibah", "is_in": "Iraq , \u062c\u0645\u0647\u0648\u0631\u064a\u0629 \u0627\u0644\u0639\u0631\u0627\u0642", "name": "\u0645\u062d\u0637\u0629 \u0627\u0644\u062c\u0644\u064a\u0628\u0629", "name:ar": "\u0645\u062d\u0637\u0629 \u0627\u0644\u062c\u0644\u064a\u0628\u0629", "name:ar1": "\u0645\u062d\u0637\u0629 \u0627\u0644\u062c\u0644\u064a\u0628\u0629", "name:de": "Mahattat al Jalibah", "name:en": "Mahattat al Jalibah", "name:fr": "Mahattat al Jalibah", "public_transport": "station", "railway": "station"}}, {"type": "node", "id": 2487922899, "lat": 30.7044036, "lon": 46.431363, "tags": {"alt_name": "\u062a\u0644 \u0627\u0644\u062c\u0628\u0627\u0631", "int_name": "Tall al Jab\u0101r, Tall al Jabar", "is_in": "Iraq , \u062c\u0645\u0647\u0648\u0631\u064a\u0629 \u0627\u0644\u0639\u0631\u0627\u0642", "name": "\u062a\u0644 \u0627\u0644\u062c\u0628\u0627\u0631", "name:ar": "\u062a\u0644 \u0627\u0644\u062c\u0628\u0627\u0631", "name:ar1": "\u062a\u0644 \u0627\u0644\u062c\u0628\u0627\u0631", "name:de": "Tall al Jabar", "name:en": "Tall al Jabar", "name:fr": "Tall al Jabar", "public_transport": "station", "railway": "station"}}, {"type": "node", "id": 2487922901, "lat": 30.5798429, "lon": 46.539065, "tags": {"alt_name": "\u0645\u062d\u0637\u0629 \u0642\u0637\u0627\u0631 \u062c\u0644\u064a\u0628\u0647", "int_name": "\u0645\u062d\u0637\u0629 \u0642\u0637\u0627\u0631 \u062c\u0644\u064a\u0628\u0647, \u0645\u062d\u0637\u0629 \u0642\u0637\u0627\u0631 \u062c\u0644\u064a\u0628\u0647", "is_in": "Iraq , \u062c\u0645\u0647\u0648\u0631\u064a\u0629 \u0627\u0644\u0639\u0631\u0627\u0642", "name": "\u0645\u062d\u0637\u0629 \u0642\u0637\u0627\u0631 \u062c\u0644\u064a\u0628\u0647", "name:ar": "\u0645\u062d\u0637\u0629 \u0642\u0637\u0627\u0631 \u062c\u0644\u064a\u0628\u0647", "name:ar1": "\u0645\u062d\u0637\u0629 \u0642\u0637\u0627\u0631 \u062c\u0644\u064a\u0628\u0647", "name:de": "\u0645\u062d\u0637\u0629 \u0642\u0637\u0627\u0631 \u062c\u0644\u064a\u0628\u0647", "name:fr": "\u0645\u062d\u0637\u0629 \u0642\u0637\u0627\u0631 \u062c\u0644\u064a\u0628\u0647", "public_transport": "station", "railway": "station"}}]}