{"version": 0.6, "generator": "Overpass API 0.7.61.5 4133829e", "osm3s": {"timestamp_osm_base": "2024-03-06T11:26:46Z", "copyright": "The data included in this document is from www.openstreetmap.org. The data is made available under ODbL."}, "elements": [{"type": "node", "id": 5081616521, "lat": -4.0332584, "lon": 39.6438681, "tags": {"addr:city": "Mombasa", "addr:postcode": "254", "addr:street": "Makupa Causeway", "amenity": "bank", "name": "KCB MCID KIBARANI BRANCH", "name:en": "KCB MCID KIBARANI BRANCH", "opening_hours": "Mo-Fr 08:30-04:00; Sa 08:30-12:30"}}, {"type": "node", "id": 5997670028, "lat": -4.0287878, "lon": 39.6300251, "tags": {"addr:city": "Mombasa", "addr:street": "Magongo road", "amenity": "bank", "brand": "Equity Bank", "brand:wikidata": "Q5384664", "brand:wikipedia": "en:Equity Bank Kenya Limited", "name": "Equity Bank"}}, {"type": "node", "id": 5997683486, "lat": -4.0283331, "lon": 39.6292519, "tags": {"addr:city": "Mombasa", "addr:street": "Magongo road", "amenity": "bank", "name": "Kenya Women Finance"}}, {"type": "node", "id": 6073490885, "lat": -3.8639448, "lon": 39.4744013, "tags": {"addr:city": "Mariakani", "addr:street": "Mombasa Road", "amenity": "bank", "name": "Co - Operative Bank"}}, {"type": "node", "id": 6073490888, "lat": -3.8636151, "lon": 39.473551, "tags": {"addr:city": "Mariakani", "addr:street": "Mombasa Road", "amenity": "bank", "name": "KCB Mariakani Branch"}}, {"type": "node", "id": 6073490889, "lat": -3.8634919, "lon": 39.4733864, "tags": {"addr:city": "Mariakani", "addr:street": "Mombasa Road", "amenity": "bank", "name": "Diamond Trust Bank"}}, {"type": "node", "id": 6235829855, "lat": -3.9653373, "lon": 39.549087, "tags": {"addr:city": "Mazeras", "addr:street": "Mombasa Road", "amenity": "bank", "name": "KWFT Micro - Finance"}}, {"type": "node", "id": 6235829856, "lat": -3.9654958, "lon": 39.5495932, "tags": {"addr:city": "Mazeras", "addr:street": "Mombasa Road", "amenity": "bank", "name": "Co - Operative Bank - Mazeras"}}, {"type": "node", "id": 6235830600, "lat": -4.0177877, "lon": 39.6240191, "tags": {"addr:city": "Mombasa", "addr:street": "Pamba Road", "amenity": "bank", "name": "National Bank - Changamwe"}}, {"type": "node", "id": 6235830601, "lat": -4.0182156, "lon": 39.6241215, "tags": {"addr:city": "Mombasa", "addr:street": "Refinery Road", "amenity": "bank", "name": "I&M Bank"}}, {"type": "node", "id": 6235830607, "lat": -4.0252515, "lon": 39.6341981, "tags": {"addr:city": "Mombasa", "addr:street": "Mombasa road", "amenity": "bank", "brand": "Barclays", "brand:wikidata": "Q245343", "brand:wikipedia": "en:Barclays", "name": "Barclays"}}, {"type": "node", "id": 10080246989, "lat": -4.0240951, "lon": 39.624149, "tags": {"amenity": "bank", "atm": "no", "brand": "DTB", "name": "Diamond Trust Bank"}}, {"type": "node", "id": 11545635113, "lat": -4.0324041, "lon": 39.6029487, "tags": {"amenity": "atm", "atm": "yes", "name": "Absa Bank ATM"}}]}