{"version": 0.6, "generator": "Overpass API 0.7.61.5 4133829e", "osm3s": {"timestamp_osm_base": "2024-03-06T10:44:02Z", "copyright": "The data included in this document is from www.openstreetmap.org. The data is made available under ODbL."}, "elements": [{"type": "node", "id": 2484011935, "lat": 32.639481, "lon": 46.155049, "tags": {"alt_name": "\u0645\u062f\u0631\u0633\u0629 \u0627\u0644\u0623\u0628\u0627\u0621", "amenity": "school", "int_name": "Madrasat al Ab\u0101, \u0645\u062f\u0631\u0633\u0629 \u0627\u0644\u0627\u0628\u0627\u0621, Madrasat al Aba, \u0645\u062f\u0631\u0633\u0629 \u0627\u0644\u0627\u0628\u0627\u0621", "name": "\u0645\u062f\u0631\u0633\u0629 \u0627\u0644\u0623\u0628\u0627\u0621", "name:ar": "\u0645\u062f\u0631\u0633\u0629 \u0627\u0644\u0623\u0628\u0627\u0621", "name:ar1": "\u0645\u062f\u0631\u0633\u0629 \u0627\u0644\u0623\u0628\u0627\u0621", "name:de": "Madrasat al Aba", "name:en": "Madrasat al Aba", "name:fr": "Madrasat al Aba"}}, {"type": "node", "id": 2484012307, "lat": 32.579456, "lon": 46.237051, "tags": {"alt_name": "\u0645\u062f\u0631\u0633\u0629 \u0639\u0628\u0627\u0633 \u0628\u0646 \u0641\u0631\u0646\u0627\u0633", "amenity": "school", "int_name": "Madrasat Abb\u0101s Bin Firn\u0101s, \u0645\u062f\u0631\u0633\u0629 \u0639\u0628\u0627\u0633 \u0628\u0646 \u0641\u0631\u0646\u0627\u0633, Madrasat Abbas Bin Firnas, \u0645\u062f\u0631\u0633\u0629 \u0639\u0628\u0627\u0633 \u0628\u0646 \u0641\u0631\u0646\u0627\u0633", "name": "\u0645\u062f\u0631\u0633\u0629 \u0639\u0628\u0627\u0633 \u0628\u0646 \u0641\u0631\u0646\u0627\u0633", "name:ar": "\u0645\u062f\u0631\u0633\u0629 \u0639\u0628\u0627\u0633 \u0628\u0646 \u0641\u0631\u0646\u0627\u0633", "name:ar1": "\u0645\u062f\u0631\u0633\u0629 \u0639\u0628\u0627\u0633 \u0628\u0646 \u0641\u0631\u0646\u0627\u0633", "name:de": "Madrasat Abbas Bin Firnas", "name:en": "Madrasat Abbas Bin Firnas", "name:fr": "Madrasat Abbas Bin Firnas"}}, {"type": "node", "id": 2484013766, "lat": 32.610146, "lon": 46.187721, "tags": {"alt_name": "\u0645\u062f\u0631\u0633\u0629 \u0622\u0644 \u0628\u0648 \u062f\u0627\u0631\u064a", "amenity": "school", "int_name": "Madrasat \u0100lb\u016b D\u0101r\u012b, \u0645\u062f\u0631\u0633\u0629 \u0627\u0644\u0628\u0648 \u062f\u0627\u0631\u064a, Madrasat Albu Dari, \u0645\u062f\u0631\u0633\u0629 \u0627\u0644\u0628\u0648 \u062f\u0627\u0631\u064a", "name": "\u0645\u062f\u0631\u0633\u0629 \u0622\u0644 \u0628\u0648 \u062f\u0627\u0631\u064a", "name:ar": "\u0645\u062f\u0631\u0633\u0629 \u0622\u0644 \u0628\u0648 \u062f\u0627\u0631\u064a", "name:ar1": "\u0645\u062f\u0631\u0633\u0629 \u0622\u0644 \u0628\u0648 \u062f\u0627\u0631\u064a", "name:de": "Madrasat Albu Dari", "name:en": "Madrasat Albu Dari", "name:fr": "Madrasat Albu Dari"}}, {"type": "node", "id": 2484013771, "lat": 32.578496, "lon": 46.208325, "tags": {"alt_name": "\u0645\u062f\u0631\u0633\u0629 \u0627\u0644\u0635\u0645\u0648\u062f", "amenity": "school", "int_name": "Madrasat a\u015f \u015eum\u016bd, \u0645\u062f\u0631\u0633\u0629 \u0627\u0644\u0635\u0645\u0648\u062f, Madrasat as Sumud, \u0645\u062f\u0631\u0633\u0629 \u0627\u0644\u0635\u0645\u0648\u062f", "name": "\u0645\u062f\u0631\u0633\u0629 \u0627\u0644\u0635\u0645\u0648\u062f", "name:ar": "\u0645\u062f\u0631\u0633\u0629 \u0627\u0644\u0635\u0645\u0648\u062f", "name:ar1": "\u0645\u062f\u0631\u0633\u0629 \u0627\u0644\u0635\u0645\u0648\u062f", "name:de": "Madrasat as Sumud", "name:en": "Madrasat as Sumud", "name:fr": "Madrasat as Sumud"}}, {"type": "node", "id": 2484015581, "lat": 32.742088, "lon": 46.247529, "tags": {"alt_name": "\u0645\u062f\u0631\u0633\u0629 \u0627\u0644\u0645\u0643\u0627\u0641\u062d \u0627\u0644\u0639\u0631\u0628\u064a", "amenity": "school", "int_name": "Madrasat al Mak\u0101fa\u1e29 al Arab\u012b, \u0645\u062f\u0631\u0633\u0629 \u0627\u0644\u0645\u0643\u0627\u0641\u062d \u0627\u0644\u0639\u0631\u0628\u064a, Madrasat al Makafah al Arabi, \u0645\u062f\u0631\u0633\u0629 \u0627\u0644\u0645\u0643\u0627\u0641\u062d \u0627\u0644\u0639\u0631\u0628\u064a", "name": "\u0645\u062f\u0631\u0633\u0629 \u0627\u0644\u0645\u0643\u0627\u0641\u062d \u0627\u0644\u0639\u0631\u0628\u064a", "name:ar": "\u0645\u062f\u0631\u0633\u0629 \u0627\u0644\u0645\u0643\u0627\u0641\u062d \u0627\u0644\u0639\u0631\u0628\u064a", "name:ar1": "\u0645\u062f\u0631\u0633\u0629 \u0627\u0644\u0645\u0643\u0627\u0641\u062d \u0627\u0644\u0639\u0631\u0628\u064a", "name:de": "Madrasat al Makafah al Arabi", "name:en": "Madrasat al Makafah al Arabi", "name:fr": "Madrasat al Makafah al Arabi"}}, {"type": "node", "id": 10127450017, "lat": 32.6555759, "lon": 46.1496504, "tags": {"amenity": "school", "name": "\u0645\u062a\u0648\u0633\u0637\u0629  \u0627\u0644\u062c\u0648\u0644\u0627\u0646 \u0627\u0644\u0645\u062e\u062a\u0644\u0637\u0629"}}]}