{"version": 0.6, "generator": "Overpass API 0.7.61.5 4133829e", "osm3s": {"timestamp_osm_base": "2024-03-06T11:16:45Z", "copyright": "The data included in this document is from www.openstreetmap.org. The data is made available under ODbL."}, "elements": [{"type": "node", "id": 288763386, "lat": 34.2738201, "lon": 45.1666986, "tags": {"alt_name:ckb": "\u062c\u06d5\u0644\u06d5\u0648\u0644\u0627", "capital": "7", "name": "\u062c\u0644\u0648\u0644\u0627\u0621", "name:ar": "\u062c\u0644\u0648\u0644\u0627\u0621", "name:ckb": "\u06af\u0648\u06b5\u0627\u06b5\u06d5", "name:en": "Gulala", "name:fr": "Gulala", "name:ku": "Gullalle", "name:ml": "\u0d17\u0d41\u0d32\u0d32", "place": "town", "wikidata": "Q3160754", "wikipedia": "ar:\u062c\u0644\u0648\u0644\u0627\u0621"}}, {"type": "node", "id": 288765264, "lat": 34.1863032, "lon": 45.1182834, "tags": {"alt_name": "Sadiyah, Sadiye, Sadiyeh, Sadiyah, Sadiye, Sadiyeh, Saadiyah", "capital": "7", "int_name": "Sadiyah, \u0633\u0639\u062f\u064a\u0629", "name": "\u0633\u0639\u062f\u064a\u0629", "name:ar": "\u0633\u0639\u062f\u064a\u0629", "name:ckb": "\u0633\u06d5\u0639\u062f\u06cc\u06cc\u06d5", "name:de": "Sadiyah", "name:en": "Sadiyah", "name:fr": "Sadiyah", "name:ru": "\u042d\u0441-\u0421\u0430\u0430\u0434\u0438\u044f", "old_name:ckb": "\u062e\u06d5\u0633\u0631\u06d5\u0648 \u0626\u0627\u0628\u0627\u062f", "place": "town", "wikidata": "Q12198999", "wikipedia": "en:Sadiyah"}}, {"type": "node", "id": 2480140130, "lat": 34.3106015, "lon": 45.1639652, "tags": {"alt_name": "\u0627\u0644\u062c\u0631\u064a\u0629", "int_name": "Al Jaryah, \u0627\u0644\u062c\u0631\u064a\u0629, Al Jaryah, \u0627\u0644\u062c\u0631\u064a\u0629", "name": "\u0627\u0644\u062c\u0631\u064a\u0629", "name:ar": "\u0642\u0631\u064a\u0647 \u0627\u0644\u062d\u0635\u064a\u0646\u064a", "name:ar1": "\u0627\u0644\u062c\u0631\u064a\u0629", "name:de": "Al Jaryah", "name:en": "Al Jaryah", "name:fr": "Al Jaryah", "place": "village"}}, {"type": "node", "id": 2480140134, "lat": 34.269999, "lon": 45.165331, "tags": {"alt_name": "\u062d\u064a \u0627\u0644\u0648\u062d\u062f\u0629", "int_name": "\u1e28ayy al Wa\u1e29dah, \u062d\u064a \u0627\u0644\u0648\u062d\u062f\u0629, Hayy al Wahdah, \u062d\u064a \u0627\u0644\u0648\u062d\u062f\u0629", "name": "\u062d\u064a \u0627\u0644\u0648\u062d\u062f\u0629", "name:ar": "\u062d\u064a \u0627\u0644\u0648\u062d\u062f\u0629", "name:ar1": "\u062d\u064a \u0627\u0644\u0648\u062d\u062f\u0629", "name:de": "Hayy al Wahdah", "name:en": "Hayy al Wahdah", "name:fr": "Hayy al Wahdah", "name:ku": "\u0643\u0647 \u0631\u0643\u064a \u064a\u0647 \u0643\u064a\u062a\u064a", "place": "hamlet"}}, {"type": "node", "id": 2480140143, "lat": 34.2833995, "lon": 45.1664914, "tags": {"alt_name": "\u064a\u0648\u0633\u0641 \u0622\u063a\u0627", "int_name": "Y\u016bsuf \u0100gh\u0101, Yusuf Agha", "name": "\u064a\u0648\u0633\u0641 \u0622\u063a\u0627", "name:ar": "\u064a\u0648\u0633\u0641 \u0622\u063a\u0627", "name:ar1": "\u064a\u0648\u0633\u0641 \u0622\u063a\u0627", "name:de": "Yusuf Agha", "name:en": "Yusuf Agha", "name:fr": "Yusuf Agha", "place": "village"}}, {"type": "node", "id": 2488515561, "lat": 33.9278315, "lon": 45.0813016, "tags": {"alt_name": "\u0639\u0644\u064a \u062d\u0633\u064a\u0646 \u0627\u0644\u0645\u0646\u0636\u0645\u062f", "int_name": "Al\u012b \u1e28usayn al Mun\u1e11amid, Al\u012b \u1e28usayn al Mun\u015famid, \u0639\u0644\u064a \u062d\u0633\u064a\u0646 \u0627\u0644\u0645\u0646\u0636\u0645\u062f, Ali Husayn al Mundamid, Ali Husayn al Munsamid, \u0639\u0644\u064a \u062d\u0633\u064a\u0646 \u0627\u0644\u0645\u0646\u0636\u0645\u062f", "is_in": "Iraq , \u062c\u0645\u0647\u0648\u0631\u064a\u0629 \u0627\u0644\u0639\u0631\u0627\u0642", "name": "\u0639\u0644\u064a \u062d\u0633\u064a\u0646 \u0627\u0644\u0645\u0646\u0636\u0645\u062f", "name:ar": "\u0639\u0644\u064a \u062d\u0633\u064a\u0646 \u0627\u0644\u0645\u0646\u0636\u0645\u062f", "name:ar1": "\u0639\u0644\u064a \u062d\u0633\u064a\u0646 \u0627\u0644\u0645\u0646\u0636\u0645\u062f", "name:de": "Ali Husayn al Mundamid", "name:en": "Ali Husayn al Mundamid", "name:fr": "Ali Husayn al Mundamid", "place": "village"}}, {"type": "node", "id": 2488515572, "lat": 33.90684, "lon": 45.083841, "tags": {"alt_name": "\u0639\u0631\u0628 \u0627\u0644\u0646\u062f\u0649", "int_name": "Arab an Nad\u00e1, \u0639\u0631\u0628 \u0627\u0644\u0646\u062f\u0649, Arab an Nada, \u0639\u0631\u0628 \u0627\u0644\u0646\u062f\u0649", "is_in": "Iraq , \u062c\u0645\u0647\u0648\u0631\u064a\u0629 \u0627\u0644\u0639\u0631\u0627\u0642", "name": "\u0639\u0631\u0628 \u0627\u0644\u0646\u062f\u0649", "name:ar": "\u0639\u0631\u0628 \u0627\u0644\u0646\u062f\u0649", "name:ar1": "\u0639\u0631\u0628 \u0627\u0644\u0646\u062f\u0649", "name:de": "Arab an Nada", "name:en": "Arab an Nada", "name:fr": "Arab an Nada", "place": "village"}}, {"type": "node", "id": 2488515584, "lat": 33.911015, "lon": 45.085073, "tags": {"alt_name": "\u062d\u0631\u0628 \u0627\u0644\u0646\u062f\u0649", "int_name": "\u1e28arb an Nad\u00e1, \u062d\u0631\u0628 \u0627\u0644\u0646\u062f\u0649, Harb an Nada, \u062d\u0631\u0628 \u0627\u0644\u0646\u062f\u0649", "is_in": "Iraq , \u062c\u0645\u0647\u0648\u0631\u064a\u0629 \u0627\u0644\u0639\u0631\u0627\u0642", "name": "\u062d\u0631\u0628 \u0627\u0644\u0646\u062f\u0649", "name:ar": "\u062d\u0631\u0628 \u0627\u0644\u0646\u062f\u0649", "name:ar1": "\u062d\u0631\u0628 \u0627\u0644\u0646\u062f\u0649", "name:de": "Harb an Nada", "name:en": "Harb an Nada", "name:fr": "Harb an Nada", "place": "village"}}, {"type": "node", "id": 2488515593, "lat": 33.908634, "lon": 45.084118, "tags": {"alt_name": "\u0642\u0631\u064a\u0629 \u0635\u0627\u0644\u062d \u0627\u0644\u0645\u0647\u062f\u064a", "int_name": "Qaryat \u015e\u0101li\u1e29 al Mahd\u012b, \u0642\u0631\u064a\u0629 \u0635\u0627\u0644\u062d \u0627\u0644\u0645\u0647\u062f\u064a, Qaryat Salih al Mahdi, \u0642\u0631\u064a\u0629 \u0635\u0627\u0644\u062d \u0627\u0644\u0645\u0647\u062f\u064a", "is_in": "Iraq , \u062c\u0645\u0647\u0648\u0631\u064a\u0629 \u0627\u0644\u0639\u0631\u0627\u0642", "name": "\u0642\u0631\u064a\u0629 \u0635\u0627\u0644\u062d \u0627\u0644\u0645\u0647\u062f\u064a", "name:ar": "\u0642\u0631\u064a\u0629 \u0635\u0627\u0644\u062d \u0627\u0644\u0645\u0647\u062f\u064a", "name:ar1": "\u0642\u0631\u064a\u0629 \u0635\u0627\u0644\u062d \u0627\u0644\u0645\u0647\u062f\u064a", "name:de": "Qaryat Salih al Mahdi", "name:en": "Qaryat Salih al Mahdi", "name:fr": "Qaryat Salih al Mahdi", "place": "village"}}, {"type": "node", "id": 2488515594, "lat": 33.933333, "lon": 45.116667, "tags": {"alt_name": "\u0633\u064a\u062f \u062e\u0644\u064a\u0641\u0629", "int_name": "Sayyid Khal\u012bfah, Sayyid Khalifah", "is_in": "Iraq , \u062c\u0645\u0647\u0648\u0631\u064a\u0629 \u0627\u0644\u0639\u0631\u0627\u0642", "name": "\u0633\u064a\u062f \u062e\u0644\u064a\u0641\u0629", "name:ar": "\u0633\u064a\u062f \u062e\u0644\u064a\u0641\u0629", "name:ar1": "\u0633\u064a\u062f \u062e\u0644\u064a\u0641\u0629", "name:de": "Sayyid Khalifah", "name:en": "Sayyid Khalifah", "name:fr": "Sayyid Khalifah", "place": "village"}}, {"type": "node", "id": 2488515595, "lat": 33.9291052, "lon": 45.0795259, "tags": {"alt_name": "\u0633\u0628\u0627\u062e\u0648", "int_name": "Sub\u0101kh\u016b, Subakhu", "is_in": "Iraq , \u062c\u0645\u0647\u0648\u0631\u064a\u0629 \u0627\u0644\u0639\u0631\u0627\u0642", "name": "\u0633\u0628\u0627\u062e\u0648", "name:ar": "\u0633\u0628\u0627\u062e\u0648", "name:ar1": "\u0633\u0628\u0627\u062e\u0648", "name:de": "Subakhu", "name:en": "Subakhu", "name:fr": "Subakhu", "place": "village"}}, {"type": "node", "id": 2488515598, "lat": 33.9295668, "lon": 45.079864, "tags": {"alt_name": "\u062a\u0644 \u0623\u0635\u0628\u063a\u064a", "int_name": "Tall A\u015fbugh\u012b, \u062a\u0644 \u0627\u0635\u0628\u063a\u064a, Tall Asbughi, \u062a\u0644 \u0627\u0635\u0628\u063a\u064a", "is_in": "Iraq , \u062c\u0645\u0647\u0648\u0631\u064a\u0629 \u0627\u0644\u0639\u0631\u0627\u0642", "name": "\u062a\u0644 \u0623\u0635\u0628\u063a\u064a", "name:ar": "\u062a\u0644 \u0623\u0635\u0628\u063a\u064a", "name:ar1": "\u062a\u0644 \u0623\u0635\u0628\u063a\u064a", "name:de": "Tall Asbughi", "name:en": "Tall Asbughi", "name:fr": "Tall Asbughi", "place": "village"}}, {"type": "node", "id": 2488529382, "lat": 33.9453879, "lon": 45.2027452, "tags": {"alt_name": "\u0639\u0628\u062f \u0623\u0646\u0635\u064a\u0641 \u062e\u0644\u064a\u0644", "int_name": "Abd An\u015f\u012bf Khal\u012bl, \u0639\u0628\u062f \u0627\u0646\u0635\u064a\u0641 \u062e\u0644\u064a\u0644, Abd Ansif Khalil, \u0639\u0628\u062f \u0627\u0646\u0635\u064a\u0641 \u062e\u0644\u064a\u0644", "is_in": "Iraq , \u062c\u0645\u0647\u0648\u0631\u064a\u0629 \u0627\u0644\u0639\u0631\u0627\u0642", "name": "\u0639\u0628\u062f \u0623\u0646\u0635\u064a\u0641 \u062e\u0644\u064a\u0644", "name:ar": "\u0639\u0628\u062f \u0623\u0646\u0635\u064a\u0641 \u062e\u0644\u064a\u0644", "name:ar1": "\u0639\u0628\u062f \u0623\u0646\u0635\u064a\u0641 \u062e\u0644\u064a\u0644", "name:de": "Abd Ansif Khalil", "name:en": "Abd Ansif Khalil", "name:fr": "Abd Ansif Khalil", "place": "village"}}, {"type": "node", "id": 2488529393, "lat": 33.9012135, "lon": 45.2425827, "tags": {"alt_name": "\u0623\u0628\u0648 \u0628\u0631\u0627\u062b\u0639", "int_name": "Ab\u016b Bar\u0101thi, \u0627\u0628\u0648 \u0628\u0631\u0627\u062b\u0639, Abu Barathi, \u0627\u0628\u0648 \u0628\u0631\u0627\u062b\u0639", "is_in": "Iraq , \u062c\u0645\u0647\u0648\u0631\u064a\u0629 \u0627\u0644\u0639\u0631\u0627\u0642", "name": "\u0623\u0628\u0648 \u0628\u0631\u0627\u062b\u0639", "name:ar": "\u0623\u0628\u0648 \u0628\u0631\u0627\u062b\u0639", "name:ar1": "\u0623\u0628\u0648 \u0628\u0631\u0627\u062b\u0639", "name:de": "Abu Barathi", "name:en": "Abu Barathi", "name:fr": "Abu Barathi", "place": "village"}}, {"type": "node", "id": 2488529409, "lat": 33.9237212, "lon": 45.2541228, "tags": {"alt_name": "\u0639\u0631\u0628 \u0643\u0631\u064a\u0645 \u0627\u0644\u0639\u0628\u062f \u0627\u0644\u0644\u0647", "int_name": "Arab Kar\u012bm al Abd Allah, \u0639\u0631\u0628 \u0643\u0631\u064a\u0645 \u0627\u0644\u0639\u0628\u062f \u0627\u0644\u0644\u0647, Arab Karim al Abd Allah, \u0639\u0631\u0628 \u0643\u0631\u064a\u0645 \u0627\u0644\u0639\u0628\u062f \u0627\u0644\u0644\u0647", "is_in": "Iraq , \u062c\u0645\u0647\u0648\u0631\u064a\u0629 \u0627\u0644\u0639\u0631\u0627\u0642", "name": "\u0639\u0631\u0628 \u0643\u0631\u064a\u0645 \u0627\u0644\u0639\u0628\u062f \u0627\u0644\u0644\u0647", "name:ar": "\u0639\u0631\u0628 \u0643\u0631\u064a\u0645 \u0627\u0644\u0639\u0628\u062f \u0627\u0644\u0644\u0647", "name:ar1": "\u0639\u0631\u0628 \u0643\u0631\u064a\u0645 \u0627\u0644\u0639\u0628\u062f \u0627\u0644\u0644\u0647", "name:de": "Arab Karim al Abd Allah", "name:en": "Arab Karim al Abd Allah", "name:fr": "Arab Karim al Abd Allah", "place": "village"}}, {"type": "node", "id": 2488529413, "lat": 33.9233084, "lon": 45.2538367, "tags": {"alt_name": "\u0639\u0631\u0628 \u0643\u0631\u064a\u0645 \u0627\u0644\u0639\u0628\u062f", "int_name": "Arab Kar\u012bm al Abd, \u0639\u0631\u0628 \u0643\u0631\u064a\u0645 \u0627\u0644\u0639\u0628\u062f, Arab Karim al Abd, \u0639\u0631\u0628 \u0643\u0631\u064a\u0645 \u0627\u0644\u0639\u0628\u062f", "is_in": "Iraq , \u062c\u0645\u0647\u0648\u0631\u064a\u0629 \u0627\u0644\u0639\u0631\u0627\u0642", "name": "\u0639\u0631\u0628 \u0643\u0631\u064a\u0645 \u0627\u0644\u0639\u0628\u062f", "name:ar": "\u0639\u0631\u0628 \u0643\u0631\u064a\u0645 \u0627\u0644\u0639\u0628\u062f", "name:ar1": "\u0639\u0631\u0628 \u0643\u0631\u064a\u0645 \u0627\u0644\u0639\u0628\u062f", "name:de": "Arab Karim al Abd", "name:en": "Arab Karim al Abd", "name:fr": "Arab Karim al Abd", "place": "village"}}, {"type": "node", "id": 2488529418, "lat": 33.929417, "lon": 45.152006, "tags": {"alt_name": "\u0639\u0631\u0628 \u0634\u064a\u062e \u062e\u0644\u064a\u0644", "int_name": "Arab Shaykh Khal\u012bl, \u0639\u0631\u0628 \u0634\u064a\u062e \u062e\u0644\u064a\u0644, Arab Shaykh Khalil, \u0639\u0631\u0628 \u0634\u064a\u062e \u062e\u0644\u064a\u0644", "is_in": "Iraq , \u062c\u0645\u0647\u0648\u0631\u064a\u0629 \u0627\u0644\u0639\u0631\u0627\u0642", "name": "\u0639\u0631\u0628 \u0634\u064a\u062e \u062e\u0644\u064a\u0644", "name:ar": "\u0639\u0631\u0628 \u0634\u064a\u062e \u062e\u0644\u064a\u0644", "name:ar1": "\u0639\u0631\u0628 \u0634\u064a\u062e \u062e\u0644\u064a\u0644", "name:de": "Arab Shaykh Khalil", "name:en": "Arab Shaykh Khalil", "name:fr": "Arab Shaykh Khalil", "place": "village"}}, {"type": "node", "id": 2488529423, "lat": 33.916399, "lon": 45.297943, "tags": {"alt_name": "\u0639\u0631\u0628 \u0627\u0644\u062c\u0627\u0633\u0645", "int_name": "Arab al J\u0101sim, \u0639\u0631\u0628 \u0627\u0644\u062c\u0627\u0633\u0645, Arab al Jasim, \u0639\u0631\u0628 \u0627\u0644\u062c\u0627\u0633\u0645", "is_in": "Iraq , \u062c\u0645\u0647\u0648\u0631\u064a\u0629 \u0627\u0644\u0639\u0631\u0627\u0642", "name": "\u0639\u0631\u0628 \u0627\u0644\u062c\u0627\u0633\u0645", "name:ar": "\u0639\u0631\u0628 \u0627\u0644\u062c\u0627\u0633\u0645", "name:ar1": "\u0639\u0631\u0628 \u0627\u0644\u062c\u0627\u0633\u0645", "name:de": "Arab al Jasim", "name:en": "Arab al Jasim", "name:fr": "Arab al Jasim", "place": "village"}}, {"type": "node", "id": 2488529428, "lat": 33.9375, "lon": 45.187778, "tags": {"alt_name": "\u0628\u0647\u064a\u0629", "int_name": "Bah\u012byah, Bahiyah", "is_in": "Iraq , \u062c\u0645\u0647\u0648\u0631\u064a\u0629 \u0627\u0644\u0639\u0631\u0627\u0642", "name": "\u0645\u064a\u0627\u062d", "name:ar": "\u0645\u064a\u0627\u062d", "name:ar1": "\u0628\u0647\u064a\u0629", "name:fr": "Mayah", "place": "village"}}, {"type": "node", "id": 2488529433, "lat": 33.9322167, "lon": 45.1790895, "tags": {"alt_name": "\u0628\u0646\u064a \u0648\u064a\u0633", "int_name": "Ban\u012b Ways, \u0628\u0646\u064a \u0648\u064a\u0633, Bani Ways, \u0628\u0646\u064a \u0648\u064a\u0633", "is_in": "Iraq , \u062c\u0645\u0647\u0648\u0631\u064a\u0629 \u0627\u0644\u0639\u0631\u0627\u0642", "name": "\u0628\u0646\u064a \u0648\u064a\u0633", "name:ar": "\u0628\u0646\u064a \u0648\u064a\u0633", "name:ar1": "\u0628\u0646\u064a \u0648\u064a\u0633", "name:de": "Bani Ways", "name:en": "Bani Ways", "name:fr": "Bani Ways", "place": "village"}}, {"type": "node", "id": 2488529437, "lat": 33.9281453, "lon": 45.1964774, "tags": {"is_in": "Iraq , \u062c\u0645\u0647\u0648\u0631\u064a\u0629 \u0627\u0644\u0639\u0631\u0627\u0642", "name": "\u0642\u0631\u064a\u0629 \u0627\u0644\u0634\u064a\u062e \u0642\u0627\u062f\u0631 \u0627\u0644\u0645\u064a\u0627\u062d\u064a", "place": "village"}}, {"type": "node", "id": 2488529447, "lat": 33.927222, "lon": 45.154167, "tags": {"alt_name": "\u0645\u0635\u0637\u0641\u0649 \u062d\u0633\u0646 \u0623\u062d\u0645\u062f", "int_name": "\u1e28asan A\u1e29mad, Hasan Ahmad", "is_in": "Iraq , \u062c\u0645\u0647\u0648\u0631\u064a\u0629 \u0627\u0644\u0639\u0631\u0627\u0642", "name": "\u0645\u0635\u0637\u0641\u0649 \u062d\u0633\u0646 \u0623\u062d\u0645\u062f", "name:ar": "\u0645\u0635\u0637\u0641\u0649 \u062d\u0633\u0646 \u0623\u062d\u0645\u062f", "name:ar1": "\u0645\u0635\u0637\u0641\u0649 \u062d\u0633\u0646 \u0623\u062d\u0645\u062f", "name:de": "Hasan Ahmad", "name:en": "Hasan Ahmad", "name:fr": "Hasan Ahmad", "place": "village"}}, {"type": "node", "id": 2488529452, "lat": 33.933956, "lon": 45.314363, "tags": {"alt_name": "\u0639\u064a\u0633\u0649 \u0627\u0644\u062d\u0633\u064a\u0646", "int_name": "\u012as\u00e1 al \u1e28usayn, \u0639\u064a\u0633\u0649 \u0627\u0644\u062d\u0633\u064a\u0646, Isa al Husayn, \u0639\u064a\u0633\u0649 \u0627\u0644\u062d\u0633\u064a\u0646", "is_in": "Iraq , \u062c\u0645\u0647\u0648\u0631\u064a\u0629 \u0627\u0644\u0639\u0631\u0627\u0642", "name": "\u0639\u064a\u0633\u0649 \u0627\u0644\u062d\u0633\u064a\u0646", "name:ar": "\u0639\u064a\u0633\u0649 \u0627\u0644\u062d\u0633\u064a\u0646", "name:ar1": "\u0639\u064a\u0633\u0649 \u0627\u0644\u062d\u0633\u064a\u0646", "name:de": "Isa al Husayn", "name:en": "Isa al Husayn", "name:fr": "Isa al Husayn", "place": "village"}}, {"type": "node", "id": 2488529460, "lat": 33.9253415, "lon": 45.1903964, "tags": {"alt_name": "\u0645\u062d\u0637\u0629 \u0627\u0644\u0636\u062e \u0643\u064a\u0644\u0648 25", "is_in": "Iraq , \u062c\u0645\u0647\u0648\u0631\u064a\u0629 \u0627\u0644\u0639\u0631\u0627\u0642", "name": "\u0645\u062d\u0637\u0629 \u0627\u0644\u0636\u062e \u0643\u064a\u0644\u0648 25", "name:ar": "\u0645\u062d\u0637\u0629 \u0627\u0644\u0636\u062e", "place": "village", "population": "\u0645\u064a\u0627\u062d"}}, {"type": "node", "id": 2488529471, "lat": 33.900147, "lon": 45.288741, "tags": {"alt_name": "\u0643\u0631\u064a\u0645 \u0627\u0644\u0647\u064a\u0645\u0648\u0633", "int_name": "Kar\u012bm al Haym\u016bs, \u0643\u0631\u064a\u0645 \u0627\u0644\u0647\u064a\u0645\u0648\u0633, Karim al Haymus, \u0643\u0631\u064a\u0645 \u0627\u0644\u0647\u064a\u0645\u0648\u0633", "is_in": "Iraq , \u062c\u0645\u0647\u0648\u0631\u064a\u0629 \u0627\u0644\u0639\u0631\u0627\u0642", "name": "\u0643\u0631\u064a\u0645 \u0627\u0644\u0647\u064a\u0645\u0648\u0633", "name:ar": "\u0643\u0631\u064a\u0645 \u0627\u0644\u0647\u064a\u0645\u0635", "name:ar1": "\u0643\u0631\u064a\u0645 \u0627\u0644\u0647\u064a\u0645\u0648\u0633", "name:de": "Karim al Haymus", "name:en": "Karim al Hayms", "name:fr": "Karim al Haymus", "place": "village"}}, {"type": "node", "id": 2488529476, "lat": 33.955788, "lon": 45.222139, "tags": {"alt_name": "\u062e\u0644\u064a\u0641\u0629 \u0639\u0628\u0627\u0633", "int_name": "Khal\u012bfah Abb\u0101s, Khal\u012bfat Abb\u0101s, \u062e\u0644\u064a\u0641\u0629 \u0639\u0628\u0627\u0633, Khalifah Abbas, Khalifat Abbas, \u062e\u0644\u064a\u0641\u0629 \u0639\u0628\u0627\u0633", "is_in": "Iraq , \u062c\u0645\u0647\u0648\u0631\u064a\u0629 \u0627\u0644\u0639\u0631\u0627\u0642", "name": "\u062e\u0644\u064a\u0641\u0629 \u0639\u0628\u0627\u0633", "name:ar": "\u062e\u0644\u064a\u0641\u0629 \u0639\u0628\u0627\u0633", "name:ar1": "\u062e\u0644\u064a\u0641\u0629 \u0639\u0628\u0627\u0633", "name:de": "Khalifah Abbas", "name:en": "Khalifah Abbas", "name:fr": "Khalifah Abbas", "place": "village"}}, {"type": "node", "id": 2488529493, "lat": 33.9248511, "lon": 45.1800843, "tags": {"alt_name": "\u0645\u0646\u0647\u0644 \u0627\u0644\u0639\u0628\u0627\u0633", "int_name": "Munhal al Abb\u0101s, \u0645\u0646\u0647\u0644 \u0627\u0644\u0639\u0628\u0627\u0633, Munhal al Abbas, \u0645\u0646\u0647\u0644 \u0627\u0644\u0639\u0628\u0627\u0633", "is_in": "Iraq , \u062c\u0645\u0647\u0648\u0631\u064a\u0629 \u0627\u0644\u0639\u0631\u0627\u0642", "name": "\u0645\u0646\u0647\u0644 \u0627\u0644\u0639\u0628\u0627\u0633", "name:ar": "\u0645\u0646\u0647\u0644 \u0627\u0644\u0639\u0628\u0627\u0633", "name:ar1": "\u0645\u0646\u0647\u0644 \u0627\u0644\u0639\u0628\u0627\u0633", "name:de": "Munhal al Abbas", "name:en": "Munhal al Abbas", "name:fr": "Munhal al Abbas", "place": "village"}}, {"type": "node", "id": 2488529498, "lat": 33.913611, "lon": 45.221684, "tags": {"alt_name": "\u0645\u0648\u0633\u0649 \u0627\u0644\u0643\u0639\u0648\u062f", "int_name": "M\u016bs\u00e1 al Gu\u016bd, M\u016bs\u00e1 al Ku\u016bd, \u0645\u0648\u0633\u0649 \u0627\u0644\u0643\u0639\u0648\u062f, \u0645\u0648\u0633\u0649 \u0627\u0644\u06af\u0639\u0648\u062f, Musa al Guud, Musa al Kuud, \u0645\u0648\u0633\u0649 \u0627\u0644\u0643\u0639\u0648\u062f, \u0645\u0648\u0633\u0649 \u0627\u0644\u06af\u0639\u0648\u062f", "name": "\u0628\u064a\u062a \u0639\u0644\u064a \u0627\u0644\u0633\u0627\u0628\u0637", "name:ar": "\u0628\u064a\u062a \u0639\u0644\u064a \u0627\u0644\u0633\u0627\u0628\u0637", "name:ar1": "\u0628\u064a\u062a \u0639\u0644\u064a \u0627\u0644\u0633\u0627\u0628\u0637", "name:de": "Ali-alsabbt", "name:en": "Ali-alsabbt", "name:fr": "Ali-alsabbt", "place": "village"}}, {"type": "node", "id": 2488529503, "lat": 33.925935, "lon": 45.21992, "tags": {"alt_name": "\u0642\u0631\u064a\u0629 \u0639\u0644\u0648\u0627\u0646 \u0627\u0644\u0635\u0627\u0644\u062d", "int_name": "Qaryat Alw\u0101n a\u015f \u015e\u0101li\u1e29, \u0642\u0631\u064a\u0629 \u0639\u0644\u0648\u0627\u0646 \u0627\u0644\u0635\u0627\u0644\u062d, Qaryat Alwan as Salih, \u0642\u0631\u064a\u0629 \u0639\u0644\u0648\u0627\u0646 \u0627\u0644\u0635\u0627\u0644\u062d", "is_in": "Iraq , \u062c\u0645\u0647\u0648\u0631\u064a\u0629 \u0627\u0644\u0639\u0631\u0627\u0642", "name": "\u0642\u0631\u064a\u0629 \u0639\u0644\u0648\u0627\u0646 \u0627\u0644\u0635\u0627\u0644\u062d", "name:ar": "\u0642\u0631\u064a\u0629 \u0639\u0644\u0648\u0627\u0646 \u0627\u0644\u0635\u0627\u0644\u062d", "name:ar1": "\u0642\u0631\u064a\u0629 \u0639\u0644\u0648\u0627\u0646 \u0627\u0644\u0635\u0627\u0644\u062d", "name:de": "Qaryat Alwan as Salih", "name:en": "Qaryat Alwan as Salih", "name:fr": "Qaryat Alwan as Salih", "place": "village"}}, {"type": "node", "id": 2488529508, "lat": 33.9118778, "lon": 45.2307815, "tags": {"alt_name": "\u0642\u0631\u064a\u0629 \u062e\u0644\u0641 \u0627\u0644\u062d\u0633\u0648\u0646", "int_name": "Qaryat Khalaf al \u1e28as\u016bn, \u0642\u0631\u064a\u0629 \u062e\u0644\u0641 \u0627\u0644\u062d\u0633\u0648\u0646, Qaryat Khalaf al Hasun, \u0642\u0631\u064a\u0629 \u062e\u0644\u0641 \u0627\u0644\u062d\u0633\u0648\u0646", "is_in": "Iraq , \u062c\u0645\u0647\u0648\u0631\u064a\u0629 \u0627\u0644\u0639\u0631\u0627\u0642", "name": "\u0642\u0631\u064a\u0629 \u062e\u0644\u0641 \u0627\u0644\u062d\u0633\u0648\u0646", "name:ar": "\u0642\u0631\u064a\u0629 \u062e\u0644\u0641 \u0627\u0644\u062d\u0633\u0648\u0646", "name:ar1": "\u0642\u0631\u064a\u0629 \u062e\u0644\u0641 \u0627\u0644\u062d\u0633\u0648\u0646", "name:de": "Qaryat Khalaf al Hasun", "name:en": "Qaryat Khalaf al Hasun", "name:fr": "Qaryat Khalaf al Hasun", "place": "village"}}, {"type": "node", "id": 2488529512, "lat": 33.94622, "lon": 45.204821, "tags": {"alt_name": "\u0642\u0631\u064a\u0629 \u0645\u062d\u0645\u0648\u062f \u0627\u0644\u0639\u0644\u064a", "int_name": "Qaryat Ma\u1e29m\u016bd al Al\u012b, \u0642\u0631\u064a\u0629 \u0645\u062d\u0645\u0648\u062f \u0627\u0644\u0639\u0644\u064a, Qaryat Mahmud al Ali, \u0642\u0631\u064a\u0629 \u0645\u062d\u0645\u0648\u062f \u0627\u0644\u0639\u0644\u064a", "is_in": "Iraq , \u062c\u0645\u0647\u0648\u0631\u064a\u0629 \u0627\u0644\u0639\u0631\u0627\u0642", "name": "\u0642\u0631\u064a\u0629 \u0645\u062d\u0645\u0648\u062f \u0627\u0644\u0639\u0644\u064a", "name:ar": "\u0642\u0631\u064a\u0629 \u0645\u062d\u0645\u0648\u062f \u0627\u0644\u0639\u0644\u064a", "name:ar1": "\u0642\u0631\u064a\u0629 \u0645\u062d\u0645\u0648\u062f \u0627\u0644\u0639\u0644\u064a", "name:de": "Qaryat Mahmud al Ali", "name:en": "Qaryat Mahmud al Ali", "name:fr": "Qaryat Mahmud al Ali", "place": "village"}}, {"type": "node", "id": 2488529517, "lat": 33.9436067, "lon": 45.2309225, "tags": {"alt_name": "\u0642\u0631\u064a\u0629 \u0645\u062c\u064a\u062f \u062f\u0631\u064a\u0633", "int_name": "Qaryat Maj\u012bd Dar\u012bs, \u0642\u0631\u064a\u0629 \u0645\u062c\u064a\u062f \u062f\u0631\u064a\u0633, Qaryat Majid Daris, \u0642\u0631\u064a\u0629 \u0645\u062c\u064a\u062f \u062f\u0631\u064a\u0633", "is_in": "Iraq , \u062c\u0645\u0647\u0648\u0631\u064a\u0629 \u0627\u0644\u0639\u0631\u0627\u0642", "name": "\u0642\u0631\u064a\u0629 \u0645\u062c\u064a\u062f \u062f\u0631\u064a\u0633", "name:ar": "\u0642\u0631\u064a\u0629 \u0645\u062c\u064a\u062f \u062f\u0631\u064a\u0633", "name:ar1": "\u0642\u0631\u064a\u0629 \u0645\u062c\u064a\u062f \u062f\u0631\u064a\u0633", "name:de": "Qaryat Majid Daris", "name:en": "Qaryat Majid Daris", "name:fr": "Qaryat Majid Daris", "place": "village"}}, {"type": "node", "id": 2488529522, "lat": 33.923285, "lon": 45.1923, "tags": {"alt_name": "\u0642\u0631\u064a\u0629  \u0627\u0644\u0647\u0631\u064a\u0634\u0627\u062a", "is_in": "Iraq , \u062c\u0645\u0647\u0648\u0631\u064a\u0629 \u0627\u0644\u0639\u0631\u0627\u0642", "name": "\u0642\u0631\u064a\u0629 \u0627\u0644\u0647\u0631\u064a\u0634\u0627\u062a", "name:ar": "\u0642\u0631\u064a\u0629 \u0627\u0644\u0647\u0631\u064a\u0634\u0627\u062a", "name:ar1": "\u0642\u0631\u064a\u0629 \u0627\u0644\u0647\u0631\u064a\u0634\u0627\u062a", "place": "village"}}, {"type": "node", "id": 2488529532, "lat": 33.936927, "lon": 45.190254, "tags": {"alt_name": "\u0642\u0631\u064a\u0629 \u0648\u0627\u062f\u064a \u0627\u0644\u062d\u0635\u0627\u0646", "int_name": "Qaryat W\u0101d\u012b al \u1e28i\u015f\u0101n, \u0642\u0631\u064a\u0629 \u0648\u0627\u062f\u064a \u0627\u0644\u062d\u0635\u0627\u0646, Qaryat Wadi al Hisan, \u0642\u0631\u064a\u0629 \u0648\u0627\u062f\u064a \u0627\u0644\u062d\u0635\u0627\u0646", "is_in": "Iraq , \u062c\u0645\u0647\u0648\u0631\u064a\u0629 \u0627\u0644\u0639\u0631\u0627\u0642", "name": "\u0642\u0631\u064a\u0629 \u0648\u0627\u062f\u064a \u0627\u0644\u062d\u0635\u0627\u0646", "name:ar": "\u0642\u0631\u064a\u0629 \u0648\u0627\u062f\u064a \u0627\u0644\u062d\u0635\u0627\u0646", "name:ar1": "\u0642\u0631\u064a\u0629 \u0648\u0627\u062f\u064a \u0627\u0644\u062d\u0635\u0627\u0646", "name:de": "Qaryat Wadi al Hisan", "name:en": "Qaryat Wadi al Hisan", "name:fr": "Qaryat Wadi al Hisan", "place": "village"}}, {"type": "node", "id": 2488529536, "lat": 33.9171965, "lon": 45.2500563, "tags": {"alt_name": "\u0642\u0631\u064a\u0629 \u0627\u0644\u0639\u0645\u0627\u064a\u0644 \u0627\u0644\u062b\u0627\u0644\u062b\u0629", "int_name": "Qaryat al Am\u0101yil ath Th\u0101lathah, \u0642\u0631\u064a\u0629 \u0627\u0644\u0639\u0645\u0627\u064a\u0644 \u0627\u0644\u062b\u0627\u0644\u062b\u0629, Qaryat al Amayil ath Thalathah, \u0642\u0631\u064a\u0629 \u0627\u0644\u0639\u0645\u0627\u064a\u0644 \u0627\u0644\u062b\u0627\u0644\u062b\u0629", "is_in": "Iraq , \u062c\u0645\u0647\u0648\u0631\u064a\u0629 \u0627\u0644\u0639\u0631\u0627\u0642", "name": "\u0642\u0631\u064a\u0629 \u0627\u0644\u0639\u0645\u0627\u064a\u0644 \u0627\u0644\u062b\u0627\u0644\u062b\u0629", "name:ar": "\u0642\u0631\u064a\u0629 \u0627\u0644\u0639\u0645\u0627\u064a\u0644 \u0627\u0644\u062b\u0627\u0644\u062b\u0629", "name:ar1": "\u0642\u0631\u064a\u0629 \u0627\u0644\u0639\u0645\u0627\u064a\u0644 \u0627\u0644\u062b\u0627\u0644\u062b\u0629", "name:de": "Qaryat al Amayil ath Thalathah", "name:en": "Qaryat al Amayil ath Thalathah", "name:fr": "Qaryat al Amayil ath Thalathah", "place": "village"}}, {"type": "node", "id": 2488529542, "lat": 33.9317033, "lon": 45.1784178, "tags": {"alt_name": "\u0642\u0631\u064a\u0629 \u0627\u0644\u0643\u0647\u0627\u0631\u064a\u0632", "int_name": "Qaryat al Kah\u0101r\u012bz, \u0642\u0631\u064a\u0629 \u0627\u0644\u0643\u0647\u0627\u0631\u064a\u0632, Qaryat al Kahariz, \u0642\u0631\u064a\u0629 \u0627\u0644\u0643\u0647\u0627\u0631\u064a\u0632", "is_in": "Iraq , \u062c\u0645\u0647\u0648\u0631\u064a\u0629 \u0627\u0644\u0639\u0631\u0627\u0642", "name": "\u0642\u0631\u064a\u0629 \u0627\u0644\u0643\u0647\u0627\u0631\u064a\u0632", "name:ar": "\u0642\u0631\u064a\u0629 \u0627\u0644\u0643\u0647\u0627\u0631\u064a\u0632", "name:ar1": "\u0642\u0631\u064a\u0629 \u0627\u0644\u0643\u0647\u0627\u0631\u064a\u0632", "name:de": "Qaryat al Kahariz", "name:en": "Qaryat al Kahariz", "name:fr": "Qaryat al Kahariz", "place": "village"}}, {"type": "node", "id": 2488529551, "lat": 33.903734, "lon": 45.288954, "tags": {"alt_name": "\u0642\u0631\u064a\u0629 \u0627\u0644\u0643\u0641\u0627\u062d", "int_name": "Qaryat al Kif\u0101\u1e29, \u0642\u0631\u064a\u0629 \u0627\u0644\u0643\u0641\u0627\u062d, Qaryat al Kifah, \u0642\u0631\u064a\u0629 \u0627\u0644\u0643\u0641\u0627\u062d", "is_in": "Iraq , \u062c\u0645\u0647\u0648\u0631\u064a\u0629 \u0627\u0644\u0639\u0631\u0627\u0642", "name": "\u0642\u0631\u064a\u0629 \u0627\u0644\u0643\u0641\u0627\u062d", "name:ar": "\u0642\u0631\u064a\u0629 \u0627\u0644\u0643\u0641\u0627\u062d", "name:ar1": "\u0642\u0631\u064a\u0629 \u0627\u0644\u0643\u0641\u0627\u062d", "name:de": "Qaryat al Kifah", "name:en": "Qaryat al Kifah", "name:fr": "Qaryat al Kifah", "place": "village"}}, {"type": "node", "id": 2488529559, "lat": 33.9180221, "lon": 45.2509829, "tags": {"alt_name": "\u0642\u0631\u064a\u0629 \u0627\u0644\u0645\u062d\u0627\u064a\u0644 \u0627\u0644\u062b\u0627\u0644\u062b\u0629", "int_name": "Qaryat al Ma\u1e29\u0101yil ath Th\u0101lathah, \u0642\u0631\u064a\u0629 \u0627\u0644\u0645\u062d\u0627\u064a\u0644 \u0627\u0644\u062b\u0627\u0644\u062b\u0629, Qaryat al Mahayil ath Thalathah, \u0642\u0631\u064a\u0629 \u0627\u0644\u0645\u062d\u0627\u064a\u0644 \u0627\u0644\u062b\u0627\u0644\u062b\u0629", "is_in": "Iraq , \u062c\u0645\u0647\u0648\u0631\u064a\u0629 \u0627\u0644\u0639\u0631\u0627\u0642", "name": "\u0642\u0631\u064a\u0629 \u0627\u0644\u0645\u062d\u0627\u064a\u0644 \u0627\u0644\u062b\u0627\u0644\u062b\u0629", "name:ar": "\u0642\u0631\u064a\u0629 \u0627\u0644\u0645\u062d\u0627\u064a\u0644 \u0627\u0644\u062b\u0627\u0644\u062b\u0629", "name:ar1": "\u0642\u0631\u064a\u0629 \u0627\u0644\u0645\u062d\u0627\u064a\u0644 \u0627\u0644\u062b\u0627\u0644\u062b\u0629", "name:de": "Qaryat al Mahayil ath Thalathah", "name:en": "Qaryat al Mahayil ath Thalathah", "name:fr": "Qaryat al Mahayil ath Thalathah", "place": "village"}}, {"type": "node", "id": 2488529569, "lat": 33.9336554, "lon": 45.1763265, "tags": {"alt_name": "\u0633\u064a\u062f \u0645\u062d\u0645\u062f \u062e\u0644\u064a\u0641\u0629", "int_name": "Sayyid Mu\u1e29ammad Khal\u012bfah, \u0633\u064a\u062f \u0645\u062d\u0645\u062f \u062e\u0644\u064a\u0641\u0629, Sayyid Muhammad Khalifah, \u0633\u064a\u062f \u0645\u062d\u0645\u062f \u062e\u0644\u064a\u0641\u0629", "is_in": "Iraq , \u062c\u0645\u0647\u0648\u0631\u064a\u0629 \u0627\u0644\u0639\u0631\u0627\u0642", "name": "\u0633\u064a\u062f \u0645\u062d\u0645\u062f \u062e\u0644\u064a\u0641\u0629", "name:ar": "\u0633\u064a\u062f \u0645\u062d\u0645\u062f \u062e\u0644\u064a\u0641\u0629", "name:ar1": "\u0633\u064a\u062f \u0645\u062d\u0645\u062f \u062e\u0644\u064a\u0641\u0629", "name:de": "Sayyid Muhammad Khalifah", "name:en": "Sayyid Muhammad Khalifah", "name:fr": "Sayyid Muhammad Khalifah", "place": "village"}}, {"type": "node", "id": 2488532677, "lat": 34.023636, "lon": 45.304836, "tags": {"alt_name": "\u0639\u0628\u062f \u0627\u0644\u0644\u0647 \u0627\u0644\u062d\u0637\u0627\u0645", "int_name": "Abd All\u0101h al \u1e28a\u0163\u0101m, \u0639\u0628\u062f \ufdf2 \u0627\u0644\u062d\u0637\u0627\u0645, Abd Allah al Hatam, \u0639\u0628\u062f \ufdf2 \u0627\u0644\u062d\u0637\u0627\u0645", "is_in": "Iraq , \u062c\u0645\u0647\u0648\u0631\u064a\u0629 \u0627\u0644\u0639\u0631\u0627\u0642", "name": "\u0639\u0628\u062f \u0627\u0644\u0644\u0647 \u0627\u0644\u062d\u0637\u0627\u0645", "name:ar": "\u0639\u0628\u062f \u0627\u0644\u0644\u0647 \u0627\u0644\u062d\u0637\u0627\u0645", "name:ar1": "\u0639\u0628\u062f \u0627\u0644\u0644\u0647 \u0627\u0644\u062d\u0637\u0627\u0645", "name:de": "Abd Allah al Hatam", "name:en": "Abd Allah al Hatam", "name:fr": "Abd Allah al Hatam", "place": "village"}}, {"type": "node", "id": 2488532681, "lat": 34.016879, "lon": 45.200948, "tags": {"alt_name": "\u0639\u0628\u062f \u0627\u0644\u062d\u0631\u0627\u0645", "int_name": "Abd al \u1e28ar\u0101m, \u0639\u0628\u062f \u0627\u0644\u062d\u0631\u0627\u0645, Abd al Haram, \u0639\u0628\u062f \u0627\u0644\u062d\u0631\u0627\u0645", "is_in": "Iraq , \u062c\u0645\u0647\u0648\u0631\u064a\u0629 \u0627\u0644\u0639\u0631\u0627\u0642", "name": "\u0639\u0628\u062f \u0627\u0644\u062d\u0631\u0627\u0645", "name:ar": "\u0639\u0628\u062f \u0627\u0644\u062d\u0631\u0627\u0645", "name:ar1": "\u0639\u0628\u062f \u0627\u0644\u062d\u0631\u0627\u0645", "name:de": "Abd al Haram", "name:en": "Abd al Haram", "name:fr": "Abd al Haram", "place": "village"}}, {"type": "node", "id": 2488532685, "lat": 34.064579, "lon": 45.250598, "tags": {"alt_name": "\u0639\u0628\u062f \u0627\u0644\u062c\u0627\u0633\u0645", "int_name": "Abd al J\u0101sim, \u0639\u0628\u062f \u0627\u0644\u062c\u0627\u0633\u0645, Abd al Jasim, \u0639\u0628\u062f \u0627\u0644\u062c\u0627\u0633\u0645", "is_in": "Iraq , \u062c\u0645\u0647\u0648\u0631\u064a\u0629 \u0627\u0644\u0639\u0631\u0627\u0642", "name": "\u0639\u0628\u062f \u0627\u0644\u062c\u0627\u0633\u0645", "name:ar": "\u0639\u0628\u062f \u0627\u0644\u062c\u0627\u0633\u0645", "name:ar1": "\u0639\u0628\u062f \u0627\u0644\u062c\u0627\u0633\u0645", "name:de": "Abd al Jasim", "name:en": "Abd al Jasim", "name:fr": "Abd al Jasim", "place": "village"}}, {"type": "node", "id": 2488532689, "lat": 34.039028, "lon": 45.234853, "tags": {"alt_name": "\u0627\u0644\u0623\u0635\u064a\u0648\u0631", "int_name": "Al A\u015fy\u016br, \u0627\u0644\u0627\u0635\u064a\u0648\u0631, Al Asyur, \u0627\u0644\u0627\u0635\u064a\u0648\u0631", "is_in": "Iraq , \u062c\u0645\u0647\u0648\u0631\u064a\u0629 \u0627\u0644\u0639\u0631\u0627\u0642", "name": "\u0627\u0644\u0623\u0635\u064a\u0648\u0631", "name:ar": "\u0627\u0644\u0623\u0635\u064a\u0648\u0631", "name:ar1": "\u0627\u0644\u0623\u0635\u064a\u0648\u0631", "name:de": "Al Asyur", "name:en": "Al Asyur", "name:fr": "Al Asyur", "place": "village"}}, {"type": "node", "id": 2488532697, "lat": 34.0132611, "lon": 45.1921162, "tags": {"alt_name": "\u0627\u0644\u062d\u0641\u0627\u064a\u0631", "int_name": "Al \u1e28af\u0101yir, \u0627\u0644\u062d\u0641\u0627\u064a\u0631, Al Hafayir, \u0627\u0644\u062d\u0641\u0627\u064a\u0631", "is_in": "Iraq , \u062c\u0645\u0647\u0648\u0631\u064a\u0629 \u0627\u0644\u0639\u0631\u0627\u0642", "name": "\u0627\u0644\u062d\u0641\u0627\u064a\u0631", "name:ar": "\u0627\u0644\u062d\u0641\u0627\u064a\u0631", "name:ar1": "\u0627\u0644\u062d\u0641\u0627\u064a\u0631", "name:de": "Al Hafayir", "name:en": "Al Hafayir", "name:fr": "Al Hafayir", "place": "village"}}, {"type": "node", "id": 2488532708, "lat": 34.017699, "lon": 45.196556, "tags": {"alt_name": "\u0627\u0644\u062d\u0641\u0627\u064a\u0631", "int_name": "Al \u1e28af\u0101yir, \u0627\u0644\u062d\u0641\u0627\u064a\u0631, Al Hafayir, \u0627\u0644\u062d\u0641\u0627\u064a\u0631", "is_in": "Iraq , \u062c\u0645\u0647\u0648\u0631\u064a\u0629 \u0627\u0644\u0639\u0631\u0627\u0642", "name": "\u0627\u0644\u062d\u0641\u0627\u064a\u0631", "name:ar": "\u0627\u0644\u062d\u0641\u0627\u064a\u0631", "name:ar1": "\u0627\u0644\u062d\u0641\u0627\u064a\u0631", "name:de": "Al Hafayir", "name:en": "Al Hafayir", "name:fr": "Al Hafayir", "place": "village"}}, {"type": "node", "id": 2488532723, "lat": 34.053297, "lon": 45.218235, "tags": {"alt_name": "\u0627\u0644\u0645\u0631\u062d\u0644\u0629", "int_name": "Al Mar\u1e29alah, \u0627\u0644\u0645\u0631\u062d\u0644\u0647, Al Marhalah, \u0627\u0644\u0645\u0631\u062d\u0644\u0647", "is_in": "Iraq , \u062c\u0645\u0647\u0648\u0631\u064a\u0629 \u0627\u0644\u0639\u0631\u0627\u0642", "name": "\u0627\u0644\u0645\u0631\u062d\u0644\u0629", "name:ar": "\u0627\u0644\u0645\u0631\u062d\u0644\u0629", "name:ar1": "\u0627\u0644\u0645\u0631\u062d\u0644\u0629", "name:de": "Al Marhalah", "name:en": "Al Marhalah", "name:fr": "Al Marhalah", "place": "village"}}, {"type": "node", "id": 2488532735, "lat": 34.0117748, "lon": 45.2014829, "tags": {"alt_name": "\u0627\u0644\u0633\u062f\u0627\u0631\u0629", "int_name": "As Sad\u0101rah, \u0627\u0644\u0633\u062f\u0627\u0631\u0629, As Sadarah, \u0627\u0644\u0633\u062f\u0627\u0631\u0629", "is_in": "Iraq , \u062c\u0645\u0647\u0648\u0631\u064a\u0629 \u0627\u0644\u0639\u0631\u0627\u0642", "name": "\u0627\u0644\u0633\u062f\u0627\u0631\u0629", "name:ar": "\u0627\u0644\u0633\u062f\u0627\u0631\u0629", "name:ar1": "\u0627\u0644\u0633\u062f\u0627\u0631\u0629", "name:de": "As Sadarah", "name:en": "As Sadarah", "name:fr": "As Sadarah", "place": "village"}}, {"type": "node", "id": 2488532744, "lat": 34.000199, "lon": 45.198993, "tags": {"alt_name": "\u0627\u0644\u0633\u062f\u0627\u0631\u0629", "int_name": "As Sid\u0101rah, \u0627\u0644\u0633\u062f\u0627\u0631\u0629, As Sidarah, \u0627\u0644\u0633\u062f\u0627\u0631\u0629", "is_in": "Iraq , \u062c\u0645\u0647\u0648\u0631\u064a\u0629 \u0627\u0644\u0639\u0631\u0627\u0642", "name": "\u0627\u0644\u0633\u062f\u0627\u0631\u0629", "name:ar": "\u0627\u0644\u0633\u062f\u0627\u0631\u0629", "name:ar1": "\u0627\u0644\u0633\u062f\u0627\u0631\u0629", "name:de": "As Sidarah", "name:en": "As Sidarah", "name:fr": "As Sidarah", "place": "village"}}, {"type": "node", "id": 2488532753, "lat": 34.108386, "lon": 45.30023, "tags": {"alt_name": "\u0628\u0626\u0631 \u0627\u0644\u062b\u0644\u0627\u0628", "int_name": "B\u012br ath Thal\u0101b, \u0628\u064a\u0631 \u0627\u0644\u062b\u0644\u0627\u0628, Bir ath Thalab, \u0628\u064a\u0631 \u0627\u0644\u062b\u0644\u0627\u0628", "is_in": "Iraq , \u062c\u0645\u0647\u0648\u0631\u064a\u0629 \u0627\u0644\u0639\u0631\u0627\u0642", "name": "\u0628\u0626\u0631 \u0627\u0644\u062b\u0644\u0627\u0628", "name:ar": "\u0628\u0626\u0631 \u0627\u0644\u062b\u0644\u0627\u0628", "name:ar1": "\u0628\u0626\u0631 \u0627\u0644\u062b\u0644\u0627\u0628", "name:de": "Bir ath Thalab", "name:en": "Bir ath Thalab", "name:fr": "Bir ath Thalab", "place": "village"}}, {"type": "node", "id": 2488532767, "lat": 34.0067646, "lon": 45.2018614, "tags": {"alt_name": "\u0643\u0627\u0645\u0644 \u0645\u062d\u0645\u0648\u062f \u0639\u0646\u0643\u0648\u0634", "int_name": "K\u0101mil Ma\u1e29m\u016bd Ank\u016bsh, \u0643\u0627\u0645\u0644 \u0645\u062d\u0645\u0648\u062f \u0639\u0646\u0643\u0648\u0634, Kamil Mahmud Ankush, \u0643\u0627\u0645\u0644 \u0645\u062d\u0645\u0648\u062f \u0639\u0646\u0643\u0648\u0634", "is_in": "Iraq , \u062c\u0645\u0647\u0648\u0631\u064a\u0629 \u0627\u0644\u0639\u0631\u0627\u0642", "name": "\u0643\u0627\u0645\u0644 \u0645\u062d\u0645\u0648\u062f \u0639\u0646\u0643\u0648\u0634", "name:ar": "\u0643\u0627\u0645\u0644 \u0645\u062d\u0645\u0648\u062f \u0639\u0646\u0643\u0648\u0634", "name:ar1": "\u0643\u0627\u0645\u0644 \u0645\u062d\u0645\u0648\u062f \u0639\u0646\u0643\u0648\u0634", "name:de": "Kamil Mahmud Ankush", "name:en": "Kamil Mahmud Ankush", "name:fr": "Kamil Mahmud Ankush", "place": "village"}}, {"type": "node", "id": 2488532771, "lat": 34.0063541, "lon": 45.201978, "tags": {"alt_name": "\u0643\u0627\u0645\u0644 \u0645\u062d\u0645\u0648\u062f", "int_name": "K\u0101mil Ma\u1e29m\u016bd, \u0643\u0627\u0645\u0644 \u0645\u062d\u0645\u0648\u062f, Kamil Mahmud, \u0643\u0627\u0645\u0644 \u0645\u062d\u0645\u0648\u062f", "is_in": "Iraq , \u062c\u0645\u0647\u0648\u0631\u064a\u0629 \u0627\u0644\u0639\u0631\u0627\u0642", "name": "\u0643\u0627\u0645\u0644 \u0645\u062d\u0645\u0648\u062f", "name:ar": "\u0643\u0627\u0645\u0644 \u0645\u062d\u0645\u0648\u062f", "name:ar1": "\u0643\u0627\u0645\u0644 \u0645\u062d\u0645\u0648\u062f", "name:de": "Kamil Mahmud", "name:en": "Kamil Mahmud", "name:fr": "Kamil Mahmud", "place": "village"}}, {"type": "node", "id": 2488532780, "lat": 34.049124, "lon": 45.236804, "tags": {"alt_name": "\u0643\u0631\u064a\u0645 \u0645\u0635\u0637\u0627\u0641", "int_name": "Kar\u012bm Mu\u015f\u0163\u0101f, \u0643\u0631\u064a\u0645 \u0645\u0635\u0637\u0627\u0641, Karim Mustaf, \u0643\u0631\u064a\u0645 \u0645\u0635\u0637\u0627\u0641", "is_in": "Iraq , \u062c\u0645\u0647\u0648\u0631\u064a\u0629 \u0627\u0644\u0639\u0631\u0627\u0642", "name": "\u0643\u0631\u064a\u0645 \u0645\u0635\u0637\u0627\u0641", "name:ar": "\u0643\u0631\u064a\u0645 \u0645\u0635\u0637\u0627\u0641", "name:ar1": "\u0643\u0631\u064a\u0645 \u0645\u0635\u0637\u0627\u0641", "name:de": "Karim Mustaf", "name:en": "Karim Mustaf", "name:fr": "Karim Mustaf", "place": "village"}}, {"type": "node", "id": 2488532785, "lat": 34.021282, "lon": 45.169682, "tags": {"alt_name": "\u062e\u0644\u064a\u0641\u0629 \u0627\u0644\u0639\u064a\u0634\u0629", "int_name": "Khal\u012bfat al Ayshah, \u062e\u0644\u064a\u0641\u0629 \u0627\u0644\u0639\u064a\u0634\u0647, Khalifat al Ayshah, \u062e\u0644\u064a\u0641\u0629 \u0627\u0644\u0639\u064a\u0634\u0647", "is_in": "Iraq , \u062c\u0645\u0647\u0648\u0631\u064a\u0629 \u0627\u0644\u0639\u0631\u0627\u0642", "name": "\u062e\u0644\u064a\u0641\u0629 \u0627\u0644\u0639\u064a\u0634\u0629", "name:ar": "\u062e\u0644\u064a\u0641\u0629 \u0627\u0644\u0639\u064a\u0634\u0629", "name:ar1": "\u062e\u0644\u064a\u0641\u0629 \u0627\u0644\u0639\u064a\u0634\u0629", "name:de": "Khalifat al Ayshah", "name:en": "Khalifat al Ayshah", "name:fr": "Khalifat al Ayshah", "place": "village"}}, {"type": "node", "id": 2488532794, "lat": 34.009716, "lon": 45.206887, "tags": {"alt_name": "\u0645\u062d\u0645\u0648\u062f \u0639\u0628\u062f \u0627\u0644\u0644\u0647", "int_name": "Ma\u1e29m\u016bd Abd All\u0101h, \u0645\u062d\u0645\u0648\u062f \u0639\u0628\u062f \ufdf2, Mahmud Abd Allah, \u0645\u062d\u0645\u0648\u062f \u0639\u0628\u062f \ufdf2", "is_in": "Iraq , \u062c\u0645\u0647\u0648\u0631\u064a\u0629 \u0627\u0644\u0639\u0631\u0627\u0642", "name": "\u0645\u062d\u0645\u0648\u062f \u0639\u0628\u062f \u0627\u0644\u0644\u0647", "name:ar": "\u0645\u062d\u0645\u0648\u062f \u0639\u0628\u062f \u0627\u0644\u0644\u0647", "name:ar1": "\u0645\u062d\u0645\u0648\u062f \u0639\u0628\u062f \u0627\u0644\u0644\u0647", "name:de": "Mahmud Abd Allah", "name:en": "Mahmud Abd Allah", "name:fr": "Mahmud Abd Allah", "place": "village"}}, {"type": "node", "id": 2488532798, "lat": 34.0137313, "lon": 45.2223475, "tags": {"alt_name": "\u0645\u062d\u0645\u0648\u062f \u0623\u0645\u064a\u0646", "int_name": "Ma\u1e29m\u016bd Am\u012bn, Mahmud Amin", "is_in": "Iraq , \u062c\u0645\u0647\u0648\u0631\u064a\u0629 \u0627\u0644\u0639\u0631\u0627\u0642", "name": "\u0645\u062d\u0645\u0648\u062f \u0623\u0645\u064a\u0646", "name:ar": "\u0645\u062d\u0645\u0648\u062f \u0623\u0645\u064a\u0646", "name:ar1": "\u0645\u062d\u0645\u0648\u062f \u0623\u0645\u064a\u0646", "name:de": "Mahmud Amin", "name:en": "Mahmud Amin", "name:fr": "Mahmud Amin", "place": "village"}}, {"type": "node", "id": 2488532812, "lat": 34.046129, "lon": 45.23091, "tags": {"alt_name": "\u0645\u062d\u0645\u062f \u0627\u0644\u0633\u0628\u0639", "int_name": "Mu\u1e29ammad as Saba, \u0645\u062d\u0645\u062f \u0627\u0644\u0633\u0628\u0639, Muhammad as Saba, \u0645\u062d\u0645\u062f \u0627\u0644\u0633\u0628\u0639", "is_in": "Iraq , \u062c\u0645\u0647\u0648\u0631\u064a\u0629 \u0627\u0644\u0639\u0631\u0627\u0642", "name": "\u0645\u062d\u0645\u062f \u0627\u0644\u0633\u0628\u0639", "name:ar": "\u0645\u062d\u0645\u062f \u0627\u0644\u0633\u0628\u0639", "name:ar1": "\u0645\u062d\u0645\u062f \u0627\u0644\u0633\u0628\u0639", "name:de": "Muhammad as Saba", "name:en": "Muhammad as Saba", "name:fr": "Muhammad as Saba", "place": "village"}}, {"type": "node", "id": 2488532817, "lat": 34.0867772, "lon": 45.1843764, "tags": {"alt_name": "\u0645\u062c\u0645\u0639 \u0646\u0647\u0631\u0648\u0627\u0646", "int_name": "Mujama Nahraw\u0101n, \u0645\u062c\u0645\u0639 \u0646\u0647\u0631\u0648\u0627\u0646, Mujama Nahrawan, \u0645\u062c\u0645\u0639 \u0646\u0647\u0631\u0648\u0627\u0646", "is_in": "Iraq , \u062c\u0645\u0647\u0648\u0631\u064a\u0629 \u0627\u0644\u0639\u0631\u0627\u0642", "name": "\u0645\u062c\u0645\u0639 \u0646\u0647\u0631\u0648\u0627\u0646", "name:ar": "\u0645\u062c\u0645\u0639 \u0646\u0647\u0631\u0648\u0627\u0646", "name:ar1": "\u0645\u062c\u0645\u0639 \u0646\u0647\u0631\u0648\u0627\u0646", "name:de": "Mujama Nahrawan", "name:en": "Mujama Nahrawan", "name:fr": "Mujama Nahrawan", "place": "village"}}, {"type": "node", "id": 2488532822, "lat": 34.07113, "lon": 45.205091, "tags": {"alt_name": "\u0645\u0633\u064a\u0639\u064a\u062f\u0629", "int_name": "Musayyadah, \u0645\u0633\u064a\u0639\u064a\u062f\u0647, Musayyadah, \u0645\u0633\u064a\u0639\u064a\u062f\u0647", "is_in": "Iraq , \u062c\u0645\u0647\u0648\u0631\u064a\u0629 \u0627\u0644\u0639\u0631\u0627\u0642", "name": "\u0645\u0633\u064a\u0639\u064a\u062f\u0629", "name:ar": "\u0645\u0633\u064a\u0639\u064a\u062f\u0629", "name:ar1": "\u0645\u0633\u064a\u0639\u064a\u062f\u0629", "name:de": "Musayyadah", "name:en": "Musayyadah", "name:fr": "Musayyadah", "place": "village"}}, {"type": "node", "id": 2488532826, "lat": 34.0185618, "lon": 45.1741348, "tags": {"alt_name": "\u0645\u0635\u0644\u062d \u0627\u0644\u062d\u0633\u064a\u0646", "int_name": "Mu\u015fli\u1e29 al \u1e28usayn, \u0645\u0635\u0644\u062d \u0627\u0644\u062d\u0633\u064a\u0646, Muslih al Husayn, \u0645\u0635\u0644\u062d \u0627\u0644\u062d\u0633\u064a\u0646", "is_in": "Iraq , \u062c\u0645\u0647\u0648\u0631\u064a\u0629 \u0627\u0644\u0639\u0631\u0627\u0642", "name": "\u0645\u0635\u0644\u062d \u0627\u0644\u062d\u0633\u064a\u0646", "name:ar": "\u0645\u0635\u0644\u062d \u0627\u0644\u062d\u0633\u064a\u0646", "name:ar1": "\u0645\u0635\u0644\u062d \u0627\u0644\u062d\u0633\u064a\u0646", "name:de": "Muslih al Husayn", "name:en": "Muslih al Husayn", "name:fr": "Muslih al Husayn", "place": "village"}}, {"type": "node", "id": 2488532830, "lat": 34.121097, "lon": 45.170187, "tags": {"alt_name": "\u0646\u0648\u062f\u0631", "int_name": "Nawdar, \u0646\u0648\u062f\u0631, Nawdar, \u0646\u0648\u062f\u0631", "is_in": "Iraq , \u062c\u0645\u0647\u0648\u0631\u064a\u0629 \u0627\u0644\u0639\u0631\u0627\u0642", "name": "\u0646\u0648\u062f\u0631", "name:ar": "\u0646\u0648\u062f\u0631", "name:ar1": "\u0646\u0648\u062f\u0631", "name:de": "Nawdar", "name:en": "Nawdar", "name:fr": "Nawdar", "place": "village"}}, {"type": "node", "id": 2488532835, "lat": 34.1021253, "lon": 45.1981477, "tags": {"alt_name": "\u0642\u0627\u062f\u0631 \u062c\u0648\u0627\u0645\u064a\u0631", "int_name": "Q\u0101dir Juw\u0101m\u012br, \u0642\u0627\u062f\u0631 \u062c\u0648\u0627\u0645\u064a\u0631, Qadir Juwamir, \u0642\u0627\u062f\u0631 \u062c\u0648\u0627\u0645\u064a\u0631", "is_in": "Iraq , \u062c\u0645\u0647\u0648\u0631\u064a\u0629 \u0627\u0644\u0639\u0631\u0627\u0642", "name": "\u0642\u0627\u062f\u0631 \u062c\u0648\u0627\u0645\u06ce\u0631", "name:ar": "\u0642\u0627\u062f\u0631 \u062c\u0648\u0627\u0645\u064a\u0631", "name:ar1": "\u0642\u0627\u062f\u0631 \u062c\u0648\u0627\u0645\u064a\u0631", "name:de": "Qadir Juwamir", "name:en": "Qadir Juwamir", "name:fr": "Qadir Juwamir", "place": "village"}}, {"type": "node", "id": 2488532839, "lat": 34.1014503, "lon": 45.1972355, "tags": {"alt_name": "\u0642\u0627\u062f\u0631 \u062c\u0648\u064a\u064a\u062f", "int_name": "Q\u0101dir Juway\u012bd, Qadir Juwayid", "is_in": "Iraq , \u062c\u0645\u0647\u0648\u0631\u064a\u0629 \u0627\u0644\u0639\u0631\u0627\u0642", "name": "\u0642\u0627\u062f\u0631 \u062c\u0648\u064a\u064a\u062f", "name:ar": "\u0642\u0627\u062f\u0631 \u062c\u0648\u064a\u064a\u062f", "name:ar1": "\u0642\u0627\u062f\u0631 \u062c\u0648\u064a\u064a\u062f", "name:de": "Qadir Juwayid", "name:en": "Qadir Juwayid", "name:fr": "Qadir Juwayid", "place": "village"}}, {"type": "node", "id": 2488532841, "lat": 34.0114595, "lon": 45.1833228, "tags": {"alt_name": "\u0642\u0631\u064a\u0629 \u064a\u0648\u0633\u0641", "int_name": "Qarya Y\u016bsuf, Qaryat Y\u016bsuf, Qarya Yusuf, Qaryat Yusuf", "is_in": "Iraq , \u062c\u0645\u0647\u0648\u0631\u064a\u0629 \u0627\u0644\u0639\u0631\u0627\u0642", "name": "\u0642\u0631\u064a\u0629 \u064a\u0648\u0633\u0641", "name:ar": "\u0642\u0631\u064a\u0629 \u064a\u0648\u0633\u0641", "name:ar1": "\u0642\u0631\u064a\u0629 \u064a\u0648\u0633\u0641", "name:de": "Qarya Yusuf", "name:en": "Qarya Yusuf", "name:fr": "Qarya Yusuf", "place": "village"}}, {"type": "node", "id": 2488532844, "lat": 34.0468397, "lon": 45.2561824, "tags": {"alt_name": "\u0642\u0631\u064a\u0629 \u0623\u0635\u064a\u0648\u0631 \u0627\u0644\u0634\u0631\u0642\u064a\u0629", "int_name": "Qaryat A\u015fy\u016br ash Sharq\u012byah, Qaryat Asyur ash Sharqiyah", "is_in": "Iraq , \u062c\u0645\u0647\u0648\u0631\u064a\u0629 \u0627\u0644\u0639\u0631\u0627\u0642", "name": "\u0642\u0631\u064a\u0629 \u0623\u0635\u064a\u0648\u0631 \u0627\u0644\u0634\u0631\u0642\u064a\u0629", "name:ar": "\u0642\u0631\u064a\u0629 \u0623\u0635\u064a\u0648\u0631 \u0627\u0644\u0634\u0631\u0642\u064a\u0629", "name:ar1": "\u0642\u0631\u064a\u0629 \u0623\u0635\u064a\u0648\u0631 \u0627\u0644\u0634\u0631\u0642\u064a\u0629", "name:de": "Qaryat Asyur ash Sharqiyah", "name:en": "Qaryat Asyur ash Sharqiyah", "name:fr": "Qaryat Asyur ash Sharqiyah", "place": "village"}}, {"type": "node", "id": 2488532849, "lat": 33.9902212, "lon": 45.1904321, "tags": {"alt_name": "\u0642\u0631\u064a\u0629 \u0628\u0646\u064a \u0648\u064a\u0633", "int_name": "Qaryat Ban\u012b Ways, \u0642\u0631\u064a\u0629 \u0628\u0646\u064a \u0648\u064a\u0633, Qaryat Bani Ways, \u0642\u0631\u064a\u0629 \u0628\u0646\u064a \u0648\u064a\u0633", "is_in": "Iraq , \u062c\u0645\u0647\u0648\u0631\u064a\u0629 \u0627\u0644\u0639\u0631\u0627\u0642", "name": "\u0642\u0631\u064a\u0629 \u0628\u0646\u064a \u0648\u064a\u0633", "name:ar": "\u0642\u0631\u064a\u0629 \u0628\u0646\u064a \u0648\u064a\u0633", "name:ar1": "\u0642\u0631\u064a\u0629 \u0628\u0646\u064a \u0648\u064a\u0633", "name:de": "Qaryat Bani Ways", "name:en": "Qaryat Bani Ways", "name:fr": "Qaryat Bani Ways", "place": "village"}}, {"type": "node", "id": 2488532857, "lat": 34.0179632, "lon": 45.1740975, "tags": {"alt_name": "\u0642\u0631\u064a\u0629 \u0645\u0635\u0644\u062d", "int_name": "Qaryat Mu\u015fli\u1e29, \u0642\u0631\u064a\u0629 \u0645\u0635\u0644\u062d, Qaryat Muslih, \u0642\u0631\u064a\u0629 \u0645\u0635\u0644\u062d", "is_in": "Iraq , \u062c\u0645\u0647\u0648\u0631\u064a\u0629 \u0627\u0644\u0639\u0631\u0627\u0642", "name": "\u0642\u0631\u064a\u0629 \u0645\u0635\u0644\u062d", "name:ar": "\u0642\u0631\u064a\u0629 \u0645\u0635\u0644\u062d", "name:ar1": "\u0642\u0631\u064a\u0629 \u0645\u0635\u0644\u062d", "name:de": "Qaryat Muslih", "name:en": "Qaryat Muslih", "name:fr": "Qaryat Muslih", "place": "village"}}, {"type": "node", "id": 2488532862, "lat": 34.0850178, "lon": 45.1808788, "tags": {"alt_name": "\u0642\u0631\u064a\u0629 \u0646\u0647\u0631\u0648\u0627\u0646", "int_name": "Qaryat Nahraw\u0101n, \u0642\u0631\u064a\u0629 \u0646\u0647\u0631\u0648\u0627\u0646, Qaryat Nahrawan, \u0642\u0631\u064a\u0629 \u0646\u0647\u0631\u0648\u0627\u0646", "is_in": "Iraq , \u062c\u0645\u0647\u0648\u0631\u064a\u0629 \u0627\u0644\u0639\u0631\u0627\u0642", "name": "\u0642\u0631\u064a\u0629 \u0646\u0647\u0631\u0648\u0627\u0646", "name:ar": "\u0642\u0631\u064a\u0629 \u0646\u0647\u0631\u0648\u0627\u0646", "name:ar1": "\u0642\u0631\u064a\u0629 \u0646\u0647\u0631\u0648\u0627\u0646", "name:de": "Qaryat Nahrawan", "name:en": "Qaryat Nahrawan", "name:fr": "Qaryat Nahrawan", "place": "village"}}, {"type": "node", "id": 2488532871, "lat": 34.041174, "lon": 45.19431, "tags": {"alt_name": "\u0642\u0631\u064a\u0629 \u062a\u0631\u0643\u064a", "int_name": "Qaryat Turk\u012b, \u0642\u0631\u064a\u0629 \u062a\u0631\u0643\u064a, Qaryat Turki, \u0642\u0631\u064a\u0629 \u062a\u0631\u0643\u064a", "is_in": "Iraq , \u062c\u0645\u0647\u0648\u0631\u064a\u0629 \u0627\u0644\u0639\u0631\u0627\u0642", "name": "\u0642\u0631\u064a\u0629 \u062a\u0631\u0643\u064a", "name:ar": "\u0642\u0631\u064a\u0629 \u062a\u0631\u0643\u064a", "name:ar1": "\u0642\u0631\u064a\u0629 \u062a\u0631\u0643\u064a", "name:de": "Qaryat Turki", "name:en": "Qaryat Turki", "name:fr": "Qaryat Turki", "place": "village"}}, {"type": "node", "id": 2488532881, "lat": 34.0472885, "lon": 45.2569992, "tags": {"alt_name": "\u0642\u0631\u064a\u0629 \u0627\u0644\u0623\u0635\u064a\u0648\u062f", "int_name": "Qaryat al A\u015fy\u016bd, \u0642\u0631\u064a\u0629 \u0627\u0644\u0627\u0635\u064a\u0648\u062f, Qaryat al Asyud, \u0642\u0631\u064a\u0629 \u0627\u0644\u0627\u0635\u064a\u0648\u062f", "is_in": "Iraq , \u062c\u0645\u0647\u0648\u0631\u064a\u0629 \u0627\u0644\u0639\u0631\u0627\u0642", "name": "\u0642\u0631\u064a\u0629 \u0627\u0644\u0623\u0635\u064a\u0648\u062f", "name:ar": "\u0642\u0631\u064a\u0629 \u0627\u0644\u0623\u0635\u064a\u0648\u062f", "name:ar1": "\u0642\u0631\u064a\u0629 \u0627\u0644\u0623\u0635\u064a\u0648\u062f", "name:de": "Qaryat al Asyud", "name:en": "Qaryat al Asyud", "name:fr": "Qaryat al Asyud", "place": "village"}}, {"type": "node", "id": 2488532889, "lat": 34.048695, "lon": 45.256584, "tags": {"alt_name": "\u0633\u0639\u064a\u062f \u0633\u0644\u064a\u0645", "int_name": "Sa\u012bd Sal\u012bm, \u0633\u0639\u064a\u062f \u0633\u0644\u064a\u0645, Said Salim, \u0633\u0639\u064a\u062f \u0633\u0644\u064a\u0645", "is_in": "Iraq , \u062c\u0645\u0647\u0648\u0631\u064a\u0629 \u0627\u0644\u0639\u0631\u0627\u0642", "name": "\u0633\u0639\u064a\u062f \u0633\u0644\u064a\u0645", "name:ar": "\u0633\u0639\u064a\u062f \u0633\u0644\u064a\u0645", "name:ar1": "\u0633\u0639\u064a\u062f \u0633\u0644\u064a\u0645", "name:de": "Said Salim", "name:en": "Said Salim", "name:fr": "Said Salim", "place": "village"}}, {"type": "node", "id": 2488532893, "lat": 34.0372017, "lon": 45.2203517, "tags": {"alt_name": "\u0635\u0627\u0644\u062d \u0644\u0637\u064a\u0641", "int_name": "\u015e\u0101li\u1e29 La\u0163\u012bf, \u0635\u0627\u0644\u062d \u0644\u0637\u064a\u0641, Salih Latif, \u0635\u0627\u0644\u062d \u0644\u0637\u064a\u0641", "is_in": "Iraq , \u062c\u0645\u0647\u0648\u0631\u064a\u0629 \u0627\u0644\u0639\u0631\u0627\u0642", "name": "\u0635\u0627\u0644\u062d \u0644\u0637\u064a\u0641", "name:ar": "\u0635\u0627\u0644\u062d \u0644\u0637\u064a\u0641", "name:ar1": "\u0635\u0627\u0644\u062d \u0644\u0637\u064a\u0641", "name:de": "Salih Latif", "name:en": "Salih Latif", "name:fr": "Salih Latif", "place": "village"}}, {"type": "node", "id": 2488532898, "lat": 34.10843, "lon": 45.194119, "tags": {"alt_name": "\u0635\u0627\u0644\u062d \u0627\u0644\u062d\u0628\u064a\u0628", "int_name": "\u015e\u0101li\u1e29 al \u1e28ab\u012bb, \u0635\u0627\u0644\u062d \u0627\u0644\u062d\u0628\u064a\u0628, Salih al Habib, \u0635\u0627\u0644\u062d \u0627\u0644\u062d\u0628\u064a\u0628", "is_in": "Iraq , \u062c\u0645\u0647\u0648\u0631\u064a\u0629 \u0627\u0644\u0639\u0631\u0627\u0642", "name": "\u0635\u0627\u0644\u062d \u0627\u0644\u062d\u0628\u064a\u0628", "name:ar": "\u0635\u0627\u0644\u062d \u0627\u0644\u062d\u0628\u064a\u0628", "name:ar1": "\u0635\u0627\u0644\u062d \u0627\u0644\u062d\u0628\u064a\u0628", "name:de": "Salih al Habib", "name:en": "Salih al Habib", "name:fr": "Salih al Habib", "place": "village"}}, {"type": "node", "id": 2488532903, "lat": 34.034299, "lon": 45.2134418, "tags": {"alt_name": "\u0633\u0627\u0644\u0645 \u0639\u0632\u064a\u0632", "int_name": "S\u0101lim Az\u012bz, \u0633\u0627\u0644\u0645 \u0639\u0632\u064a\u0632, Salim Aziz, \u0633\u0627\u0644\u0645 \u0639\u0632\u064a\u0632", "is_in": "Iraq , \u062c\u0645\u0647\u0648\u0631\u064a\u0629 \u0627\u0644\u0639\u0631\u0627\u0642", "name": "\u0633\u0627\u0644\u0645 \u0639\u0632\u064a\u0632", "name:ar": "\u0633\u0627\u0644\u0645 \u0639\u0632\u064a\u0632", "name:ar1": "\u0633\u0627\u0644\u0645 \u0639\u0632\u064a\u0632", "name:de": "Salim Aziz", "name:en": "Salim Aziz", "name:fr": "Salim Aziz", "place": "village"}}, {"type": "node", "id": 2488532916, "lat": 34.0547654, "lon": 45.3078139, "tags": {"alt_name": "\u0633\u064a\u062f \u0645\u0635\u0637\u0641\u0649", "int_name": "Sayyid Mu\u015f\u0163af\u00e1, \u0633\u064a\u062f \u0645\u0635\u0637\u0641\u0649, Sayyid Mustafa, \u0633\u064a\u062f \u0645\u0635\u0637\u0641\u0649", "is_in": "Iraq , \u062c\u0645\u0647\u0648\u0631\u064a\u0629 \u0627\u0644\u0639\u0631\u0627\u0642", "name": "\u0633\u064a\u062f \u0645\u0635\u0637\u0641\u0649", "name:ar": "\u0633\u064a\u062f \u0645\u0635\u0637\u0641\u0649", "name:ar1": "\u0633\u064a\u062f \u0645\u0635\u0637\u0641\u0649", "name:de": "Sayyid Mustafa", "name:en": "Sayyid Mustafa", "name:fr": "Sayyid Mustafa", "place": "village"}}, {"type": "node", "id": 2488532920, "lat": 33.9818804, "lon": 45.2737729, "tags": {"alt_name": "\u0633\u064a\u062f \u0646\u0627\u0631\u064a\u0646", "int_name": "Sayyid N\u0101r\u012bn, \u0633\u064a\u062f \u0646\u0627\u0631\u064a\u0646, Sayyid Narin, \u0633\u064a\u062f \u0646\u0627\u0631\u064a\u0646", "is_in": "Iraq , \u062c\u0645\u0647\u0648\u0631\u064a\u0629 \u0627\u0644\u0639\u0631\u0627\u0642", "name": "\u0633\u064a\u062f \u0646\u0627\u0631\u064a\u0646", "name:ar": "\u0633\u064a\u062f \u0646\u0627\u0631\u064a\u0646", "name:ar1": "\u0633\u064a\u062f \u0646\u0627\u0631\u064a\u0646", "name:de": "Sayyid Narin", "name:en": "Sayyid Narin", "name:fr": "Sayyid Narin", "place": "village"}}, {"type": "node", "id": 2488532925, "lat": 34.0293346, "lon": 45.1591022, "tags": {"alt_name": "\u062a\u0644 \u0627\u0644\u0628\u062e\u062a\u0627\u0631\u064a\u0629", "int_name": "Tall al Bakhtar\u012byah, Tall al Bakht\u0101r\u012byah, \u062a\u0644 \u0627\u0644\u0628\u062e\u062a\u0627\u0631\u064a\u0629, \u062a\u0644 \u0627\u0644\u0628\u062e\u062a\u0631\u064a\u0629, Tall al Bakhtariyah, Tall al Bakhtariyah, \u062a\u0644 \u0627\u0644\u0628\u062e\u062a\u0627\u0631\u064a\u0629, \u062a\u0644 \u0627\u0644\u0628\u062e\u062a\u0631\u064a\u0629", "is_in": "Iraq , \u062c\u0645\u0647\u0648\u0631\u064a\u0629 \u0627\u0644\u0639\u0631\u0627\u0642", "name": "\u062a\u0644 \u0627\u0644\u0628\u062e\u062a\u0627\u0631\u064a\u0629", "name:ar": "\u062a\u0644 \u0627\u0644\u0628\u062e\u062a\u0627\u0631\u064a\u0629", "name:ar1": "\u062a\u0644 \u0627\u0644\u0628\u062e\u062a\u0627\u0631\u064a\u0629", "name:de": "Tall al Bakhtariyah", "name:en": "Tall al Bakhtariyah", "name:fr": "Tall al Bakhtariyah", "place": "village"}}, {"type": "node", "id": 2488532929, "lat": 34.036453, "lon": 45.205856, "tags": {"alt_name": "\u0639\u0628\u064a\u062f \u0627\u0644\u0634\u0643\u0631", "int_name": "Ubayd ash Shakr, \u0639\u0628\u064a\u062f \u0627\u0644\u0634\u0643\u0631, Ubayd ash Shakr, \u0639\u0628\u064a\u062f \u0627\u0644\u0634\u0643\u0631", "is_in": "Iraq , \u062c\u0645\u0647\u0648\u0631\u064a\u0629 \u0627\u0644\u0639\u0631\u0627\u0642", "name": "\u0639\u0628\u064a\u062f \u0627\u0644\u0634\u0643\u0631", "name:ar": "\u0639\u0628\u064a\u062f \u0627\u0644\u0634\u0643\u0631", "name:ar1": "\u0639\u0628\u064a\u062f \u0627\u0644\u0634\u0643\u0631", "name:de": "Ubayd ash Shakr", "name:en": "Ubayd ash Shakr", "name:fr": "Ubayd ash Shakr", "place": "village"}}, {"type": "node", "id": 2488532938, "lat": 34.0111189, "lon": 45.1811627, "tags": {"alt_name": "\u064a\u0639\u0642\u0648\u0628 \u064a\u0648\u0633\u0641 \u0632\u0628\u0627\u0644\u0629", "int_name": "Yaq\u016bb Y\u016bsuf Zab\u0101lah, \u064a\u0639\u0642\u0648\u0628 \u064a\u0648\u0633\u0641 \u0632\u0628\u0627\u0644\u0647, Yaqub Yusuf Zabalah, \u064a\u0639\u0642\u0648\u0628 \u064a\u0648\u0633\u0641 \u0632\u0628\u0627\u0644\u0647", "is_in": "Iraq , \u062c\u0645\u0647\u0648\u0631\u064a\u0629 \u0627\u0644\u0639\u0631\u0627\u0642", "name": "\u064a\u0639\u0642\u0648\u0628 \u064a\u0648\u0633\u0641 \u0632\u0628\u0627\u0644\u0629", "name:ar": "\u064a\u0639\u0642\u0648\u0628 \u064a\u0648\u0633\u0641 \u0632\u0628\u0627\u0644\u0629", "name:ar1": "\u064a\u0639\u0642\u0648\u0628 \u064a\u0648\u0633\u0641 \u0632\u0628\u0627\u0644\u0629", "name:de": "Yaqub Yusuf Zabalah", "name:en": "Yaqub Yusuf Zabalah", "name:fr": "Yaqub Yusuf Zabalah", "place": "village"}}, {"type": "node", "id": 2488532942, "lat": 34.023592, "lon": 45.222509, "tags": {"alt_name": "\u064a\u0627\u0633\u064a\u0646 \u0645\u062d\u0645\u0648\u062f", "int_name": "Y\u0101s\u012bn Ma\u1e29m\u016bd, \u064a\u0627\u0633\u064a\u0646 \u0645\u062d\u0645\u0648\u062f, Yasin Mahmud, \u064a\u0627\u0633\u064a\u0646 \u0645\u062d\u0645\u0648\u062f", "is_in": "Iraq , \u062c\u0645\u0647\u0648\u0631\u064a\u0629 \u0627\u0644\u0639\u0631\u0627\u0642", "name": "\u064a\u0627\u0633\u064a\u0646 \u0645\u062d\u0645\u0648\u062f", "name:ar": "\u064a\u0627\u0633\u064a\u0646 \u0645\u062d\u0645\u0648\u062f", "name:ar1": "\u064a\u0627\u0633\u064a\u0646 \u0645\u062d\u0645\u0648\u062f", "name:de": "Yasin Mahmud", "name:en": "Yasin Mahmud", "name:fr": "Yasin Mahmud", "place": "village"}}, {"type": "node", "id": 2488532952, "lat": 34.1014977, "lon": 45.1985002, "tags": {"alt_name": "\u0642\u0627\u062f\u0631 \u062c\u0648\u064a\u062f", "int_name": "\u0642\u0627\u062f\u0631 \u062c\u0648\u064a\u062f, \u0642\u0627\u062f\u0631 \u062c\u0648\u064a\u062f", "is_in": "Iraq , \u062c\u0645\u0647\u0648\u0631\u064a\u0629 \u0627\u0644\u0639\u0631\u0627\u0642", "name": "\u0642\u0627\u062f\u0631 \u062c\u0648\u064a\u062f", "name:ar": "\u0642\u0627\u062f\u0631 \u062c\u0648\u064a\u062f", "name:ar1": "\u0642\u0627\u062f\u0631 \u062c\u0648\u064a\u062f", "name:de": "\u0642\u0627\u062f\u0631 \u062c\u0648\u064a\u062f", "name:en": "\u0642\u0627\u062f\u0631 \u062c\u0648\u064a\u062f", "name:fr": "\u0642\u0627\u062f\u0631 \u062c\u0648\u064a\u062f", "place": "village"}}, {"type": "node", "id": 2488532963, "lat": 34.0468963, "lon": 45.2570961, "tags": {"alt_name": "\u0642\u0631\u064a\u0629 \u0627\u0635\u064a\u0648\u0631 \u0627\u0644\u0634\u0631\u0642\u064a\u0629", "int_name": "\u0642\u0631\u064a\u0629 \u0627\u0635\u064a\u0648\u0631 \u0627\u0644\u0634\u0631\u0642\u064a\u0629, \u0642\u0631\u064a\u0629 \u0627\u0635\u064a\u0648\u0631 \u0627\u0644\u0634\u0631\u0642\u064a\u0629", "is_in": "Iraq , \u062c\u0645\u0647\u0648\u0631\u064a\u0629 \u0627\u0644\u0639\u0631\u0627\u0642", "name": "\u0642\u0631\u064a\u0629 \u0627\u0635\u064a\u0648\u0631 \u0627\u0644\u0634\u0631\u0642\u064a\u0629", "name:ar": "\u0642\u0631\u064a\u0629 \u0627\u0635\u064a\u0648\u0631 \u0627\u0644\u0634\u0631\u0642\u064a\u0629", "name:ar1": "\u0642\u0631\u064a\u0629 \u0627\u0635\u064a\u0648\u0631 \u0627\u0644\u0634\u0631\u0642\u064a\u0629", "name:de": "\u0642\u0631\u064a\u0629 \u0627\u0635\u064a\u0648\u0631 \u0627\u0644\u0634\u0631\u0642\u064a\u0629", "name:fr": "\u0642\u0631\u064a\u0629 \u0627\u0635\u064a\u0648\u0631 \u0627\u0644\u0634\u0631\u0642\u064a\u0629", "place": "village"}}, {"type": "node", "id": 2488532973, "lat": 34.0140357, "lon": 45.2228207, "tags": {"alt_name": "\u0645\u062d\u0645\u0648\u062f \u0627\u0645\u064a\u0646", "int_name": "\u0645\u062d\u0645\u0648\u062f \u0627\u0645\u064a\u0646, \u0645\u062d\u0645\u0648\u062f \u0627\u0645\u064a\u0646", "is_in": "Iraq , \u062c\u0645\u0647\u0648\u0631\u064a\u0629 \u0627\u0644\u0639\u0631\u0627\u0642", "name": "\u0645\u062d\u0645\u0648\u062f \u0627\u0645\u064a\u0646", "name:ar": "\u0645\u062d\u0645\u0648\u062f \u0627\u0645\u064a\u0646", "name:ar1": "\u0645\u062d\u0645\u0648\u062f \u0627\u0645\u064a\u0646", "name:de": "\u0645\u062d\u0645\u0648\u062f \u0627\u0645\u064a\u0646", "name:en": "\u0645\u062d\u0645\u0648\u062f \u0627\u0645\u064a\u0646", "name:fr": "\u0645\u062d\u0645\u0648\u062f \u0627\u0645\u064a\u0646", "place": "village"}}, {"type": "node", "id": 2488536997, "lat": 34.144802, "lon": 45.130402, "tags": {"alt_name": "\u0639\u0631\u0628 \u062c\u0648\u0627\u0645\u064a\u0631", "int_name": "Arab Jaw\u0101m\u012br, Arab Juw\u0101m\u0113r, \u0639\u0631\u0628 \u062c\u0648\u0627\u0645\u064a\u0631, Arab Jawamir, Arab Juwamer, \u0639\u0631\u0628 \u062c\u0648\u0627\u0645\u064a\u0631", "name": "\u0639\u0631\u0628 \u062c\u0648\u0627\u0645\u064a\u0631", "name:ar": "\u0639\u0631\u0628 \u062c\u0648\u0627\u0645\u064a\u0631", "name:ar1": "\u0639\u0631\u0628 \u062c\u0648\u0627\u0645\u064a\u0631", "name:de": "Arab Jawamir", "name:en": "Arab Jawamir", "name:fr": "Arab Jawamir", "place": "village"}}, {"type": "node", "id": 2488537004, "lat": 34.139953, "lon": 45.13923, "tags": {"alt_name": "\u0642\u0644\u0627 \u0639\u0631\u0628 \u0632\u0631\u0643\u0648\u0634", "int_name": "Arab Zark\u014dsh, Qal\u0101 Arab Zark\u016bsh, Zark\u014dsh, \u0642\u0644\u0627 \u0639\u0631\u0628 \u0632\u0631\u0643\u0648\u0634, Arab Zarkosh, Qala Arab Zarkush, Zarkosh, \u0642\u0644\u0627 \u0639\u0631\u0628 \u0632\u0631\u0643\u0648\u0634", "name": "\u0642\u06d5\u06b5\u0627 \u0639\u06d5\u0631\u06d5\u0628 \u0632\u0631\u06af\u0648\u0648\u0634", "name:ar": "\u0642\u0644\u0627 \u0639\u0631\u0628 \u0632\u0631\u0643\u0648\u0634", "name:ar1": "\u0642\u0644\u0627 \u0639\u0631\u0628 \u0632\u0631\u0643\u0648\u0634", "name:de": "Arab Zarkosh", "name:en": "Arab Zarkosh", "name:fr": "Arab Zarkosh", "place": "village"}}, {"type": "node", "id": 2488537006, "lat": 34.202661, "lon": 45.161593, "tags": {"alt_name": "\u0627\u0644\u0634\u0631\u062d\u0648", "int_name": "Ash Shar\u1e29\u012b, \u0627\u0644\u0634\u0631\u062d\u0648, Ash Sharhi, \u0627\u0644\u0634\u0631\u062d\u0648", "name": "\u0627\u0644\u0634\u0631\u062d\u0648", "name:ar": "\u0627\u0644\u0634\u0631\u062d\u0648", "name:ar1": "\u0627\u0644\u0634\u0631\u062d\u0648", "name:de": "Ash Sharhi", "name:en": "Ash Sharhi", "name:fr": "Ash Sharhi", "place": "village"}}, {"type": "node", "id": 2488537011, "lat": 34.16302, "lon": 45.1309024, "tags": {"alt_name": "\u0627\u0644\u0637\u0644\u064a\u0639\u0629", "int_name": "A\u0163 \u0162al\u012bah, \u0627\u0644\u0637\u0644\u064a\u0639\u0629, At Taliah, \u0627\u0644\u0637\u0644\u064a\u0639\u0629", "name": "\u0627\u0644\u0637\u0644\u064a\u0639\u0629", "name:ar": "\u0627\u0644\u0637\u0644\u064a\u0639\u0629", "name:ar1": "\u0627\u0644\u0637\u0644\u064a\u0639\u0629", "name:de": "At Taliah", "name:en": "At Taliah", "name:fr": "At Taliah", "place": "village"}}, {"type": "node", "id": 2488537019, "lat": 34.1818508, "lon": 45.1184713, "tags": {"alt_name": "\u062d\u064a \u0633\u0628\u0639\u0629 \u0639\u0634\u0631\u0629 \u062a\u0645\u0648\u0632", "int_name": "\u1e28ayy Sabatah Asharah Tamm\u016bz, Hayy Sabatah Asharah Tammuz", "name": "\u062d\u064a \u0633\u0628\u0639\u0629 \u0639\u0634\u0631\u0629 \u062a\u0645\u0648\u0632", "name:ar": "\u062d\u064a \u0627\u0644\u0634\u0647\u064a\u062f", "name:ar1": "\u062d\u064a \u0633\u0628\u0639\u0629 \u0639\u0634\u0631\u0629 \u062a\u0645\u0648\u0632", "name:de": "Hayy Sabatah Asharah Tammuz", "name:en": "alshaed", "name:fr": "Hayy Sabatah Asharah Tammuz", "name:ku": "\u06af\u0629\u0631\u0643\u0649 \u0634\u0629\u0647\u064a\u062f", "place": "hamlet"}}, {"type": "node", "id": 2488537022, "lat": 34.1960648, "lon": 45.1277025, "tags": {"alt_name": "\u062d\u064a \u062b\u0644\u0627\u062b\u064a\u0646 \u062a\u0645\u0648\u0632", "int_name": "\u1e28ayy Thal\u0101th\u012bn Tamm\u016bz, Hayy Thalathin Tammuz", "name": "\u062d\u064a \u062b\u0644\u0627\u062b\u064a\u0646 \u062a\u0645\u0648\u0632", "name:ar": "\u062d\u064a \u062a\u067e\u0629", "name:ar1": "\u062d\u064a \u062b\u0644\u0627\u062b\u064a\u0646 \u062a\u0645\u0648\u0632", "name:de": "Hayy Thalathin Tammuz", "name:en": "Hayy tapa", "name:fr": "Hayy Thalathin Tammuz", "name:ku": "\u06af\u0629\u0631\u0643\u0649 \u062a\u067e\u0629", "place": "hamlet"}}, {"type": "node", "id": 2488537026, "lat": 34.178512, "lon": 45.119895, "tags": {"alt_name": "\u062d\u064a \u0627\u0644\u0634\u0647\u064a\u062f \u062d\u0645\u062f\u064a", "int_name": "\u1e28ayy ash Shah\u012bd \u1e28amd\u012b, \u062d\u064a \u0627\u0644\u0634\u0647\u064a\u062f \u062d\u0645\u062f\u064a, Hayy ash Shahid Hamdi, \u062d\u064a \u0627\u0644\u0634\u0647\u064a\u062f \u062d\u0645\u062f\u064a", "name": "\u062d\u064a \u0627\u0644\u0634\u0647\u064a\u062f \u062d\u0645\u062f\u064a", "name:ar": "\u062d\u064a \u0644\u0627\u062a\u064a\u0646", "name:ar1": "\u062d\u064a \u0627\u0644\u0634\u0647\u064a\u062f \u062d\u0645\u062f\u064a", "name:de": "Hayy ash Shahid Hamdi", "name:en": "Hayy Karen", "name:fr": "Hayy ash Shahid Hamdi", "name:ku": "\u06af\u0629\u0631\u06af\u0649 \u0644\u0627\u062a\u064a\u0646", "place": "hamlet"}}, {"type": "node", "id": 2488537027, "lat": 34.190989, "lon": 45.135671, "tags": {"alt_name": "\u062d\u064a \u0627\u0644\u062b\u0648\u0631\u0629", "int_name": "\u1e28ayy ath Thawrah, \u062d\u064a \u0627\u0644\u062b\u0648\u0631\u0629, Hayy ath Thawrah, \u062d\u064a \u0627\u0644\u062b\u0648\u0631\u0629", "name": "\u062d\u064a \u0627\u0644\u062b\u0648\u0631\u0629", "name:ar": "\u062d\u064a \u0627\u0644\u062b\u0648\u0631\u0629", "name:ar1": "\u062d\u064a \u0627\u0644\u062b\u0648\u0631\u0629", "name:de": "Hayy ath Thawrah", "name:en": "Hayy ath Thawrah", "name:fr": "Hayy ath Thawrah", "place": "hamlet"}}, {"type": "node", "id": 2488537028, "lat": 34.200192, "lon": 45.130113, "tags": {"alt_name": "\u062d\u064a \u0627\u0644\u062b\u0648\u0631\u0629", "int_name": "\u1e28ayy ath Thawrah, \u062d\u064a \u0627\u0644\u062b\u0648\u0631\u0629, Hayy ath Thawrah, \u062d\u064a \u0627\u0644\u062b\u0648\u0631\u0629", "name": "\u062d\u064a \u0627\u0644\u062b\u0648\u0631\u0629", "name:ar": "\u062d\u064a \u0627\u0644\u062b\u0648\u0631\u0629", "name:ar1": "\u062d\u064a \u0627\u0644\u062b\u0648\u0631\u0629", "name:de": "Hayy ath Thawrah", "name:en": "Hayy ath Thawrah", "name:fr": "Hayy ath Thawrah", "place": "hamlet"}}, {"type": "node", "id": 2488537036, "lat": 34.156944, "lon": 45.132778, "tags": {"alt_name": "\u0639\u0631\u0628 \u0627\u0644\u062c\u0628\u0648\u0631", "int_name": "Jab\u016br, Jabur", "name": "\u0639\u0631\u0628 \u0627\u0644\u062c\u0628\u0648\u0631", "name:ar": "\u0639\u0631\u0628 \u0627\u0644\u062c\u0628\u0648\u0631", "name:ar1": "\u0639\u0631\u0628 \u0627\u0644\u062c\u0628\u0648\u0631", "name:de": "Jabur", "name:en": "Jabur", "name:fr": "Jabur", "place": "hamlet"}}, {"type": "node", "id": 2488537052, "lat": 34.194424, "lon": 45.128475, "tags": {"alt_name": "\u0645\u062d\u0637\u0629 \u0648\u0642\u0648\u062f \u0627\u0644\u0633\u0639\u062f\u064a\u0629", "int_name": "Ma\u1e29a\u0163\u0163at Waq\u016bd as Sad\u012byah, \u0645\u062d\u0637\u0629 \u0648\u0642\u0648\u062f \u0627\u0644\u0633\u0639\u062f\u064a\u0629, Mahattat Waqud as Sadiyah, \u0645\u062d\u0637\u0629 \u0648\u0642\u0648\u062f \u0627\u0644\u0633\u0639\u062f\u064a\u0629", "name": "\u0645\u062d\u0637\u0629 \u0648\u0642\u0648\u062f \u0627\u0644\u0633\u0639\u062f\u064a\u0629", "name:ar": "\u0645\u062d\u0637\u0629 \u0648\u0642\u0648\u062f \u0642\u0632\u0644\u0631\u0628\u0627\u062a", "name:ar1": "\u0645\u062d\u0637\u0629 \u0648\u0642\u0648\u062f \u0627\u0644\u0633\u0639\u062f\u064a\u0629", "name:de": "Mahattat Waqud as Sadiyah", "name:en": "Mahattat Waqud as Sadiyah", "name:fr": "Mahattat Waqud as Sadiyah", "name:ku": "\u0628\u0627\u0646\u0632\u064a\u0646\u062e\u0627\u0646\u0647 \u0642\u0632\u0631\u0648\u0627\u062a", "place": "village"}}, {"type": "node", "id": 2488537059, "lat": 34.158005, "lon": 45.12815, "tags": {"alt_name": "\u0645\u062d\u0645\u062f \u0647\u0646\u064a", "int_name": "Mu\u1e29ammad Hann\u012b, \u0645\u062d\u0645\u062f \u0647\u0646\u064a, Muhammad Hanni, \u0645\u062d\u0645\u062f \u0647\u0646\u064a", "name": "\u0645\u062d\u0645\u062f \u0647\u0646\u064a", "name:ar": "\u0645\u062d\u0645\u062f \u0647\u0646\u064a", "name:ar1": "\u0645\u062d\u0645\u062f \u0647\u0646\u064a", "name:de": "Muhammad Hanni", "name:en": "Muhammad Hanni", "name:fr": "Muhammad Hanni", "place": "village"}}, {"type": "node", "id": 2488537063, "lat": 34.1728141, "lon": 45.1328779, "tags": {"alt_name": "\u0645\u0637\u0644\u0642 \u0627\u0644\u0646\u062c\u0631\u0633", "int_name": "Mu\u0163laq an Nigris, Mu\u0163laq an Nijris, Mutlaq an Nigris, Mutlaq an Nijris", "name": "\u0645\u0637\u0644\u0642 \u0627\u0644\u0646\u062c\u0631\u0633", "name:ar": "\u0645\u0637\u0644\u0642 \u0627\u0644\u0646\u062c\u0631\u0633", "name:ar1": "\u0645\u0637\u0644\u0642 \u0627\u0644\u0646\u062c\u0631\u0633", "name:de": "Mutlaq an Nigris", "name:en": "Mutlaq an Nigris", "name:fr": "Mutlaq an Nigris", "place": "village"}}, {"type": "node", "id": 2488537067, "lat": 34.1384717, "lon": 45.1772106, "tags": {"alt_name": "\u0642\u0631\u064a\u0629 \u0646\u0648\u064a\u062f\u0631 \u0627\u0644\u0623\u0648\u0644\u0649", "int_name": "Qaryat N\u016baydir al \u016al\u00e1, \u0642\u0631\u064a\u0629 \u0646\u0648\u064a\u062f\u0631 \u0627\u0644\u0627\u0648\u0644\u0649, Qaryat Nuaydir al Ula, \u0642\u0631\u064a\u0629 \u0646\u0648\u064a\u062f\u0631 \u0627\u0644\u0627\u0648\u0644\u0649", "name": "\u0642\u0631\u064a\u0629 \u0646\u0648\u064a\u062f\u0631 \u0627\u0644\u0623\u0648\u0644\u0649", "name:ar": "\u0642\u0631\u064a\u0629 \u0646\u0648\u064a\u062f\u0631 \u0627\u0644\u0623\u0648\u0644\u0649", "name:ar1": "\u0642\u0631\u064a\u0629 \u0646\u0648\u064a\u062f\u0631 \u0627\u0644\u0623\u0648\u0644\u0649", "name:de": "Qaryat Nuaydir al Ula", "name:en": "Qaryat Nuaydir al Ula", "name:fr": "Qaryat Nuaydir al Ula", "place": "village"}}, {"type": "node", "id": 2488537070, "lat": 34.133478, "lon": 45.176842, "tags": {"alt_name": "\u0642\u0631\u064a\u0629 \u0646\u0648\u064a\u062f\u0631 \u0627\u0644\u062b\u0627\u0646\u064a\u0629", "int_name": "Qaryat N\u016baydir ath Th\u0101n\u012byah, \u0642\u0631\u064a\u0629 \u0646\u0648\u064a\u062f\u0631 \u0627\u0644\u062b\u0627\u0646\u064a\u0629, Qaryat Nuaydir ath Thaniyah, \u0642\u0631\u064a\u0629 \u0646\u0648\u064a\u062f\u0631 \u0627\u0644\u062b\u0627\u0646\u064a\u0629", "name": "\u0642\u0631\u064a\u0629 \u0646\u0648\u064a\u062f\u0631 \u0627\u0644\u062b\u0627\u0646\u064a\u0629", "name:ar": "\u0642\u0631\u064a\u0629 \u0646\u0648\u064a\u062f\u0631 \u0627\u0644\u062b\u0627\u0646\u064a\u0629", "name:ar1": "\u0642\u0631\u064a\u0629 \u0646\u0648\u064a\u062f\u0631 \u0627\u0644\u062b\u0627\u0646\u064a\u0629", "name:de": "Qaryat Nuaydir ath Thaniyah", "name:en": "Qaryat Nuaydir ath Thaniyah", "name:fr": "Qaryat Nuaydir ath Thaniyah", "place": "village"}}, {"type": "node", "id": 2488537072, "lat": 34.167523, "lon": 45.1317728, "tags": {"alt_name": "\u0642\u0631\u064a\u0629 \u0627\u0644\u0639\u0633\u0627\u0643\u0631\u0629", "int_name": "Qaryat al As\u0101kirah, Qaryat al Asakirah", "name": "\u0642\u0631\u064a\u0629 \u0627\u0644\u0639\u0633\u0627\u0643\u0631\u0629", "name:ar": "\u0642\u0631\u064a\u0629 \u0642\u0632\u0644\u0631\u0628\u0627\u062a", "name:ar1": "\u0642\u0631\u064a\u0629 \u0627\u0644\u0639\u0633\u0627\u0643\u0631\u0629", "name:de": "Qaryat al Asakirah", "name:en": "kizlar bat", "name:fr": "Qaryat al Asakirah", "place": "village"}}, {"type": "node", "id": 2488537073, "lat": 34.184117, "lon": 45.143526, "tags": {"alt_name": "\u0642\u0632\u0644 \u0631\u0628\u0627\u0637", "int_name": "Qizil Rab\u0101\u0163, \u0642\u0632\u0644 \u0631\u0628\u0627\u0637, Qizil Rabat, \u0642\u0632\u0644 \u0631\u0628\u0627\u0637", "name": "\u0642\u0632\u0644 \u0631\u0628\u0627\u0637", "name:ar": "\u0642\u0632\u0644 \u0631\u0628\u0627\u0637", "name:ar1": "\u0642\u0632\u0644 \u0631\u0628\u0627\u0637", "name:de": "Qizil Rabat", "name:en": "Qizil Rabat", "name:fr": "Qizil Rabat", "place": "village"}}, {"type": "node", "id": 2488537080, "lat": 34.1889359, "lon": 45.1169282, "tags": {"alt_name": "\u0642\u0632\u0644 \u0631\u0628\u0627\u0637", "int_name": "Qizil Ribat, Qizil Robat, Qizil Ribat, Qizil Robat", "name": "\u0642\u0632\u0644 \u0631\u0628\u0627\u0637", "name:ar": "\u0642\u0632\u0644 \u0631\u0628\u0627\u0637", "name:ar1": "\u0642\u0632\u0644 \u0631\u0628\u0627\u0637", "name:de": "Qizil Ribat", "name:en": "Qizil Ribat", "name:fr": "Qizil Ribat", "old_name": "\u062e\u06d5\u0633\u0631\u06d5\u0648 \u0626\u0627\u0628\u0627\u062f", "place": "village"}}, {"type": "node", "id": 2488537104, "lat": 34.1413168, "lon": 45.1816367, "tags": {"alt_name": "\u062a\u0644 \u0628\u0631\u0643\u0627\u064a", "int_name": "Tall Bark\u0101y, \u062a\u0644 \u0628\u0631\u0643\u0627\u064a, Tall Barkay, \u062a\u0644 \u0628\u0631\u0643\u0627\u064a", "name": "\u062a\u0644 \u0628\u0631\u0643\u0627\u064a", "name:ar": "\u062a\u0644 \u0628\u0631\u0643\u0627\u064a", "name:ar1": "\u062a\u0644 \u0628\u0631\u0643\u0627\u064a", "name:de": "Tall Barkay", "name:en": "Tall Barkay", "name:fr": "Tall Barkay", "place": "village"}}, {"type": "node", "id": 2488537105, "lat": 34.162716, "lon": 45.137333, "tags": {"alt_name": "\u0639\u0644\u064a\u0648\u064a \u0627\u0644\u062d\u0627\u0644\u0648\u0628", "int_name": "Ulayw\u012b al \u1e28\u0101l\u016bb, \u0639\u0644\u064a\u0648\u064a \u0627\u0644\u062d\u0627\u0644\u0648\u0628, Ulaywi al Halub, \u0639\u0644\u064a\u0648\u064a \u0627\u0644\u062d\u0627\u0644\u0648\u0628", "name": "\u0639\u0644\u064a\u0648\u064a \u0627\u0644\u062d\u0627\u0644\u0648\u0628", "name:ar": "\u0639\u0644\u064a\u0648\u064a \u0627\u0644\u062d\u0627\u0644\u0648\u0628", "name:ar1": "\u0639\u0644\u064a\u0648\u064a \u0627\u0644\u062d\u0627\u0644\u0648\u0628", "name:de": "Ulaywi al Halub", "name:en": "Ulaywi al Halub", "name:fr": "Ulaywi al Halub", "place": "village"}}, {"type": "node", "id": 2488537110, "lat": 34.1824966, "lon": 45.1185331, "tags": {"alt_name": "\u062d\u064a \u0661\u0667 \u062a\u0645\u0648\u0632", "name": "\u062d\u064a \u0661\u0667 \u062a\u0645\u0648\u0632", "name:ar": "\u062d\u064a \u0627\u0644\u0634\u0647\u064a\u062f", "name:ar1": "\u062d\u064a \u0661\u0667 \u062a\u0645\u0648\u0632", "name:en": "alshahed", "name:ku": "\u06af\u0629\u0631\u0643\u064a \u0634\u0647\u064a\u062f", "place": "hamlet"}}, {"type": "node", "id": 2488537111, "lat": 34.197236, "lon": 45.1276099, "tags": {"alt_name": "\u062d\u064a \u0663\u0660 \u062a\u0645\u0648\u0632", "name": "\u062d\u064a \u0663\u0660 \u062a\u0645\u0648\u0632", "name:ar": "\u062d\u064a \u062a\u067e\u0629", "name:ar1": "\u062d\u064a \u0663\u0660 \u062a\u0645\u0648\u0632", "name:ku": "\u0643\u0629\u0631\u0643\u0649 \u062a\u067e\u0629", "place": "hamlet"}}, {"type": "node", "id": 2488537112, "lat": 34.1686469, "lon": 45.1320242, "tags": {"alt_name": "\u0642\u0631\u064a\u0629 \u0627\u0644\u0628\u0627\u0643\u0631\u0629", "int_name": "\u0642\u0631\u064a\u0629 \u0627\u0644\u0628\u0627\u0643\u0631\u0629, \u0642\u0631\u064a\u0629 \u0627\u0644\u0628\u0627\u0643\u0631\u0629", "name": "\u0642\u0631\u064a\u0629 \u0627\u0644\u0628\u0627\u0643\u0631\u0629", "name:ar": "\u0642\u0631\u064a\u0629 \u0642\u0632\u0631\u0648\u0627\u062a", "name:ar1": "\u0642\u0631\u064a\u0629 \u0627\u0644\u0628\u0627\u0643\u0631\u0629", "name:de": "\u0642\u0631\u064a\u0629 \u0627\u0644\u0628\u0627\u0643\u0631\u0629", "name:en": "kizlar bat", "name:fr": "\u0642\u0631\u064a\u0629 \u0627\u0644\u0628\u0627\u0643\u0631\u0629", "place": "village"}}, {"type": "node", "id": 2488537385, "lat": 34.2262189, "lon": 45.1347514, "tags": {"alt_name": "\u0645\u0631\u062c\u0627\u0646\u0629", "int_name": "Marj\u0101nah, \u0645\u0631\u062c\u0627\u0646\u0629, Marjanah, \u0645\u0631\u062c\u0627\u0646\u0629", "name": "\u0645\u0631\u062c\u0627\u0646\u0629", "name:ar": "\u0645\u0631\u062c\u0627\u0646\u0629", "name:ar1": "\u0645\u0631\u062c\u0627\u0646\u0629", "name:de": "Marjanah", "name:en": "Marjanah", "name:fr": "Marjanah", "place": "village"}}, {"type": "node", "id": 2488537387, "lat": 34.2244639, "lon": 45.1319673, "tags": {"alt_name": "\u0642\u0631\u064a\u0629 \u0645\u0631\u062c\u0627\u0646\u0629", "int_name": "Qaryat Marj\u0101nah, \u0642\u0631\u064a\u0629 \u0645\u0631\u062c\u0627\u0646\u0629, Qaryat Marjanah, \u0642\u0631\u064a\u0629 \u0645\u0631\u062c\u0627\u0646\u0629", "name": "\u0642\u0631\u064a\u0629 \u0645\u0631\u062c\u0627\u0646\u0629", "name:ar": "\u0642\u0631\u064a\u0629 \u0645\u0631\u062c\u0627\u0646\u0629", "name:ar1": "\u0642\u0631\u064a\u0629 \u0645\u0631\u062c\u0627\u0646\u0629", "name:de": "Qaryat Marjanah", "name:en": "Qaryat Marjanah", "name:fr": "Qaryat Marjanah", "place": "village"}}, {"type": "node", "id": 2488537388, "lat": 34.234498, "lon": 45.120285, "tags": {"alt_name": "\u0642\u0631\u064a\u0629 \u0645\u0637\u0644\u0628 \u0635\u0627\u0644\u062d", "int_name": "Qaryat Mu\u0163lab \u015e\u0101li\u1e29, \u0642\u0631\u064a\u0629 \u0645\u0637\u0644\u0628 \u0635\u0627\u0644\u062d, Qaryat Mutlab Salih, \u0642\u0631\u064a\u0629 \u0645\u0637\u0644\u0628 \u0635\u0627\u0644\u062d", "name": "\u0642\u0631\u064a\u0629 \u0645\u0637\u0644\u0628 \u0635\u0627\u0644\u062d", "name:ar": "\u0642\u0631\u064a\u0629 \u0645\u0637\u0644\u0628 \u0635\u0627\u0644\u062d", "name:ar1": "\u0642\u0631\u064a\u0629 \u0645\u0637\u0644\u0628 \u0635\u0627\u0644\u062d", "name:de": "Qaryat Mutlab Salih", "name:en": "Qaryat Mutlab Salih", "name:fr": "Qaryat Mutlab Salih", "place": "village"}}, {"type": "node", "id": 2488537389, "lat": 34.228845, "lon": 45.109519, "tags": {"alt_name": "\u0642\u0631\u064a\u0629 \u0627\u0644\u064a\u0639\u0631\u062c\u064a", "int_name": "Qaryat al Yaruj\u012b, \u0642\u0631\u064a\u0629 \u0627\u0644\u064a\u0639\u0631\u062c\u064a, Qaryat al Yaruji, \u0642\u0631\u064a\u0629 \u0627\u0644\u064a\u0639\u0631\u062c\u064a", "name": "\u0642\u0631\u064a\u0629 \u0627\u0644\u064a\u0639\u0631\u062c\u064a", "name:ar": "\u0642\u0631\u064a\u0629 \u0627\u0644\u064a\u0639\u0631\u062c\u064a", "name:ar1": "\u0642\u0631\u064a\u0629 \u0627\u0644\u064a\u0639\u0631\u062c\u064a", "name:de": "Qaryat al Yaruji", "name:en": "Qaryat al Yaruji", "name:fr": "Qaryat al Yaruji", "place": "village"}}, {"type": "node", "id": 2488537390, "lat": 34.232427, "lon": 45.113592, "tags": {"alt_name": "\u0642\u0631\u064a\u0629 \u0627\u0644\u0637\u0628\u064a\u062e", "int_name": "Qaryat a\u0163 \u0162ubaykh, \u0642\u0631\u064a\u0629 \u0627\u0644\u0637\u0628\u064a\u062e, Qaryat at Tubaykh, \u0642\u0631\u064a\u0629 \u0627\u0644\u0637\u0628\u064a\u062e", "name": "\u0642\u0631\u064a\u0629 \u0627\u0644\u0637\u0628\u064a\u062e", "name:ar": "\u0642\u0631\u064a\u0629 \u0627\u0644\u0637\u0628\u064a\u062e", "name:ar1": "\u0642\u0631\u064a\u0629 \u0627\u0644\u0637\u0628\u064a\u062e", "name:de": "Qaryat at Tubaykh", "name:en": "Qaryat at Tubaykh", "name:fr": "Qaryat at Tubaykh", "place": "village"}}, {"type": "node", "id": 2488537391, "lat": 34.2473499, "lon": 45.1554344, "tags": {"alt_name": "\u0631\u0634\u064a\u062f \u0639\u0628\u062f \u0627\u0644\u0631\u062d\u0645\u0627\u0646", "int_name": "Rash\u012bd Abd ar Ra\u1e29m\u0101n, Rash\u012bd Abdur Rahm\u0101n, Rashid Abd ar Rahman, Rashid Abdur Rahman", "name": "\u0631\u0634\u064a\u062f \u0639\u0628\u062f \u0627\u0644\u0631\u062d\u0645\u0627\u0646", "name:ar": "\u0631\u0634\u064a\u062f \u0639\u0628\u062f \u0627\u0644\u0631\u062d\u0645\u0627\u0646", "name:ar1": "\u0631\u0634\u064a\u062f \u0639\u0628\u062f \u0627\u0644\u0631\u062d\u0645\u0627\u0646", "name:de": "Rashid Abd ar Rahman", "name:en": "Rashid Abd ar Rahman", "name:fr": "Rashid Abd ar Rahman", "place": "village"}}, {"type": "node", "id": 2488545925, "lat": 34.327619, "lon": 45.3463219, "tags": {"alt_name": "\u0639\u0628\u062f \u0627\u0644\u0644\u0647 \u0627\u0644\u062d\u0635\u064a\u0646\u064a", "int_name": "Abd All\u0101h al \u1e28u\u015fayn\u012b, \u0639\u0628\u062f \ufdf2 \u0627\u0644\u062d\u0635\u064a\u0646\u064a, Abd Allah al Husayni, \u0639\u0628\u062f \ufdf2 \u0627\u0644\u062d\u0635\u064a\u0646\u064a", "name": "\u0639\u0628\u062f \u0627\u0644\u0644\u0647 \u0627\u0644\u062d\u0635\u064a\u0646\u064a", "name:ar": "\u0639\u0628\u062f \u0627\u0644\u0644\u0647 \u0627\u0644\u062d\u0635\u064a\u0646\u064a", "name:ar1": "\u0639\u0628\u062f \u0627\u0644\u0644\u0647 \u0627\u0644\u062d\u0635\u064a\u0646\u064a", "name:de": "Abd Allah al Husayni", "name:en": "Abd Allah al Husayni", "name:fr": "Abd Allah al Husayni", "place": "village"}}, {"type": "node", "id": 2488545928, "lat": 34.3082281, "lon": 45.3906911, "tags": {"alt_name": "\u0639\u0628\u062f \u0627\u0644\u0644\u0647", "int_name": "Abd All\u0101h, Abdull\u0101h, \u0639\u0628\u062f \ufdf2, Abd Allah, Abdullah, \u0639\u0628\u062f \ufdf2", "name": "\u062c\u0628\u0631\u0627\u0648\u0647", "name:ar": "\u062c\u0628\u0631\u0627\u0648\u0629", "name:ar1": "\u0639\u0628\u062f \u0627\u0644\u0644\u0647", "name:de": "Abd Allah", "name:en": "Jabrawa", "name:fr": "Abd Allah", "place": "village"}}, {"type": "node", "id": 2488545939, "lat": 34.3154893, "lon": 45.3217815, "tags": {"alt_name": "\u0623\u062d\u0645\u062f \u0637\u0627\u0647\u0631", "int_name": "A\u1e29mad \u0162\u0101hir, \u0627\u062d\u0645\u062f \u0637\u0627\u0647\u0631, Ahmad Tahir, \u0627\u062d\u0645\u062f \u0637\u0627\u0647\u0631", "name": "\u0623\u062d\u0645\u062f \u0637\u0627\u0647\u0631", "name:ar": "\u0623\u062d\u0645\u062f \u0637\u0627\u0647\u0631", "name:ar1": "\u0623\u062d\u0645\u062f \u0637\u0627\u0647\u0631", "name:de": "Ahmad Tahir", "name:en": "Ahmad Tahir", "name:fr": "Ahmad Tahir", "place": "village"}}, {"type": "node", "id": 2488545951, "lat": 34.3124232, "lon": 45.3057222, "tags": {"alt_name": "\u0639\u0644\u064a \u0623\u062d\u0645\u062f \u0628\u064a\u0643", "int_name": "Al\u012b A\u1e29mad Bayk, Ali Ahmad Beg, Ali Ahmad Bayk, Ali Ahmad Beg", "name": "\u0639\u0644\u064a \u0623\u062d\u0645\u062f \u0628\u064a\u0643", "name:ar": "\u0639\u0644\u064a \u0623\u062d\u0645\u062f \u0628\u064a\u0643", "name:ar1": "\u0639\u0644\u064a \u0623\u062d\u0645\u062f \u0628\u064a\u0643", "name:de": "Ali Ahmad Bayk", "name:en": "Ali Ahmad Bayk", "name:fr": "Ali Ahmad Bayk", "place": "village"}}, {"type": "node", "id": 2488545957, "lat": 34.3155834, "lon": 45.4030355, "tags": {"alt_name": "\u0645\u0635\u062a\u0627\u062a \u0623\u0644\u0648\u0646\u062f", "int_name": "Alwand, Mi\u015ft\u0101t Alwand, Mi\u015ft\u0101t Alwind, Alwand, Mistat Alwand, Mistat Alwind", "is_in": "Iraq , \u062c\u0645\u0647\u0648\u0631\u064a\u0629 \u0627\u0644\u0639\u0631\u0627\u0642", "name": "\u0645\u0635\u062a\u0627\u062a \u0623\u0644\u0648\u0646\u062f", "name:ar": "\u0628\u0627\u0646\u0645\u064a\u0644", "name:ar1": "\u0645\u0635\u062a\u0627\u062a \u0623\u0644\u0648\u0646\u062f", "name:de": "Alwand", "name:en": "Alwand", "name:fr": "Alwand", "place": "village"}}, {"type": "node", "id": 2488545967, "lat": 34.3289583, "lon": 45.4001456, "tags": {"is_in": "Iraq , \u062c\u0645\u0647\u0648\u0631\u064a\u0629 \u0627\u0644\u0639\u0631\u0627\u0642", "name": "\u0626\u06d5\u0631\u06a9\u06d5\u0648\u0627\u0632\u06cc", "name:ar": "\u0623\u0631\u0643\u0648\u0627\u0632\u064a", "name:ar1": "\u0623\u0631\u0643\u0648\u0627\u0632\u064a", "name:de": "Arkwazi", "name:en": "Arkwazi", "name:fr": "Arkwazi", "place": "village"}}, {"type": "node", "id": 2488545969, "lat": 34.3292381, "lon": 45.2620837, "tags": {"alt_name": "\u0623\u0633\u0639\u062f \u0628\u064a\u0643", "int_name": "Asad Bak, Asad Bayk, Asad Beg, Fileh Asad Beg, Asad Bak, Asad Bayk, Asad Beg, Fileh Asad Beg", "name": "\u0623\u0633\u0639\u062f \u0628\u064a\u0643", "name:ar": "\u0623\u0633\u0639\u062f \u0628\u064a\u0643", "name:ar1": "\u0623\u0633\u0639\u062f \u0628\u064a\u0643", "name:de": "Asad Bak", "name:en": "Asad Bak", "name:fr": "Asad Bak", "place": "village"}}, {"type": "node", "id": 2488545974, "lat": 34.325786, "lon": 45.276863, "tags": {"alt_name": "\u0627\u0644\u062a\u0627\u062c\u064a", "int_name": "At T\u0101j\u012b, \u0627\u0644\u062a\u0627\u062c\u064a, At Taji, \u0627\u0644\u062a\u0627\u062c\u064a", "name": "\u0627\u0644\u062a\u0627\u062c\u064a", "name:ar": "\u0627\u0644\u062a\u0627\u062c\u064a", "name:ar1": "\u0627\u0644\u062a\u0627\u062c\u064a", "name:de": "At Taji", "name:en": "At Taji", "name:fr": "At Taji", "place": "village"}}, {"type": "node", "id": 2488545979, "lat": 34.3192832, "lon": 45.3834205, "tags": {"alt_name": "\u0695\u0627\u067e\u06d5\u0695\u06cc\u0646", "name": "\u0631\u0627\u067e\u06d5\u0631\u06cc\u0646", "place": "village"}}, {"type": "node", "id": 2488546010, "lat": 34.2614948, "lon": 45.2686579, "tags": {"alt_name": "\u0641\u064a\u0635\u0644 \u0625\u064a\u0627\u0645\u0627\u0646", "int_name": "Faisal Iy\u0101m\u0101n, Fay\u015fal Iy\u0101m\u0101n, Faisal Iyaman, Faysal Iyaman", "name": "\u0641\u064a\u0635\u0644 \u0625\u064a\u0627\u0645\u0627\u0646", "name:ar": "\u0641\u064a\u0635\u0644 \u0625\u064a\u0627\u0645\u0627\u0646", "name:ar1": "\u0641\u064a\u0635\u0644 \u0625\u064a\u0627\u0645\u0627\u0646", "name:de": "Faisal Iyaman", "name:en": "Faisal Iyaman", "name:fr": "Faisal Iyaman", "place": "village"}}, {"type": "node", "id": 2488546017, "lat": 34.3152432, "lon": 45.4018378, "tags": {"alt_name": "\u062d\u0644\u0648\u0627\u0646", "int_name": "\u1e28alw\u0101n, \u062d\u0644\u0648\u0627\u0646, Halwan, \u062d\u0644\u0648\u0627\u0646", "is_in": "Iraq , \u062c\u0645\u0647\u0648\u0631\u064a\u0629 \u0627\u0644\u0639\u0631\u0627\u0642", "name": "\u0628\u0627\u0646\u0645\u064a\u0644", "name:ar": "\u062d\u0644\u0648\u0627\u0646", "name:ar1": "\u062d\u0644\u0648\u0627\u0646", "name:de": "Halwan", "name:en": "Halwan", "name:fr": "Halwan", "place": "village"}}, {"type": "node", "id": 2488546026, "lat": 34.3273195, "lon": 45.2647782, "tags": {"alt_name": "\u0625\u0628\u0631\u0627\u0647\u064a\u0645 \u0627\u0644\u0639\u0644\u064a", "int_name": "Ibr\u0101h\u012bm al Al\u012b, \u0627\u0628\u0631\u0627\u0647\u064a\u0645 \u0627\u0644\u0639\u0644\u064a, Ibrahim al Ali, \u0627\u0628\u0631\u0627\u0647\u064a\u0645 \u0627\u0644\u0639\u0644\u064a", "name": "\u0625\u0628\u0631\u0627\u0647\u064a\u0645 \u0627\u0644\u0639\u0644\u064a", "name:ar": "\u0625\u0628\u0631\u0627\u0647\u064a\u0645 \u0627\u0644\u0639\u0644\u064a", "name:ar1": "\u0625\u0628\u0631\u0627\u0647\u064a\u0645 \u0627\u0644\u0639\u0644\u064a", "name:de": "Ibrahim al Ali", "name:en": "Ibrahim al Ali", "name:fr": "Ibrahim al Ali", "place": "village"}}, {"type": "node", "id": 2488546058, "lat": 34.276869, "lon": 45.470551, "tags": {"alt_name": "\u062c\u0631\u064a\u0628\u064a\u0643\u0629 \u0625\u062b\u0646\u064a\u0646", "int_name": "Jurayb\u012bkah Ithnayn, \u062c\u0631\u064a\u0628\u064a\u0643\u0647 \u0662, Juraybikah Ithnayn, \u062c\u0631\u064a\u0628\u064a\u0643\u0647 \u0662", "is_in": "Iraq , \u062c\u0645\u0647\u0648\u0631\u064a\u0629 \u0627\u0644\u0639\u0631\u0627\u0642", "name": "\u062c\u0631\u064a\u0628\u064a\u0643\u0629 \u0625\u062b\u0646\u064a\u0646", "name:ar": "\u062c\u0631\u064a\u0628\u064a\u0643\u0629 \u0625\u062b\u0646\u064a\u0646", "name:ar1": "\u062c\u0631\u064a\u0628\u064a\u0643\u0629 \u0625\u062b\u0646\u064a\u0646", "name:de": "Juraybikah Ithnayn", "name:en": "Juraybikah Ithnayn", "name:fr": "Juraybikah Ithnayn", "place": "village"}}, {"type": "node", "id": 2488546061, "lat": 34.2914553, "lon": 45.4519603, "tags": {"alt_name": "\u062c\u0631\u064a\u0628\u064a\u0643\u0629 \u0648\u0627\u062d\u062f", "int_name": "Jurayb\u012bkah W\u0101\u1e29id, Juraybikah Wahid", "is_in": "Iraq , \u062c\u0645\u0647\u0648\u0631\u064a\u0629 \u0627\u0644\u0639\u0631\u0627\u0642", "name": "\u062c\u0631\u064a\u0628\u064a\u0643\u0629 \u0648\u0627\u062d\u062f", "name:ar": "\u062c\u0631\u064a\u0628\u064a\u0643\u0629 \u0648\u0627\u062d\u062f", "name:ar1": "\u062c\u0631\u064a\u0628\u064a\u0643\u0629 \u0648\u0627\u062d\u062f", "name:de": "Juraybikah Wahid", "name:en": "Juraybikah Wahid", "name:fr": "Juraybikah Wahid", "place": "village"}}, {"type": "node", "id": 2488546066, "lat": 34.321117, "lon": 45.327872, "tags": {"name": "\u06a9\u06d5\u0644\u0647\u0648\u0695\u06cc", "name:ar": "\u0642\u0631\u064a\u0647 \u0643\u0644\u0647\u0648\u0631\u064a(\u0643\u064a\u062e\u0627 \u0639\u0628\u062f\u0627\u0644\u0644\u0647)", "name:ar1": "\u0643\u0627\u0644\u0647\u0648\u0631\u064a", "name:de": "Kalhuri", "name:en": "Kalhuri", "name:fr": "Kalhuri", "name:ku": "\u06a9\u0648\u0646\u062f\u06cc \u06a9\u06d5\u0644\u0647\u0648\u0695\u06cc. \u06a9\u06d5\u06cc\u062e\u0627", "place": "village"}}, {"type": "node", "id": 2488546086, "lat": 34.3236444, "lon": 45.3460505, "tags": {"alt_name": "\u0643\u0648\u062e\u0629 \u0637\u0627\u0647\u0631", "int_name": "K\u00f6kh\u0101 Tahir, Kukha T\u0101hir, K\u016bkhah \u0162\u0101hir, \u0643\u0648\u062e\u0629 \u0637\u0627\u0647\u0631, Kokha Tahir, Kukha Tahir, Kukhah Tahir, \u0643\u0648\u062e\u0629 \u0637\u0627\u0647\u0631", "name": "\u0643\u0648\u062e\u0629 \u0637\u0627\u0647\u0631", "name:ar": "\u0643\u0648\u062e\u0629 \u0637\u0627\u0647\u0631", "name:ar1": "\u0643\u0648\u062e\u0629 \u0637\u0627\u0647\u0631", "name:de": "Kokha Tahir", "name:en": "Kokha Tahir", "name:fr": "Kokha Tahir", "place": "village"}}, {"type": "node", "id": 2488546087, "lat": 34.2984096, "lon": 45.329673, "tags": {"alt_name": "\u0643\u0648\u062e\u0629 \u062d\u0628\u064a\u0628 \u0639\u0628\u062f \u0627\u0644\u0644\u0647", "int_name": "K\u016bkhah \u1e28ab\u012bb Abd All\u0101h, Kukhah Habib Abd Allah", "name": "\u0643\u0648\u062e\u0629 \u062d\u0628\u064a\u0628 \u0639\u0628\u062f \u0627\u0644\u0644\u0647", "name:ar": "\u0643\u0648\u062e\u0629 \u062d\u0628\u064a\u0628 \u0639\u0628\u062f \u0627\u0644\u0644\u0647", "name:ar1": "\u0643\u0648\u062e\u0629 \u062d\u0628\u064a\u0628 \u0639\u0628\u062f \u0627\u0644\u0644\u0647", "name:de": "Kukhah Habib Abd Allah", "name:en": "Kukhah Habib Abd Allah", "name:fr": "Kukhah Habib Abd Allah", "place": "village"}}, {"type": "node", "id": 2488546097, "lat": 34.329552, "lon": 45.30285, "tags": {"alt_name": "\u0645\u062d\u0645\u0648\u062f \u0639\u0644\u064a", "int_name": "Ma\u1e29m\u016bd Al\u012b, \u0645\u062d\u0645\u0648\u062f \u0639\u0644\u064a, Mahmud Ali, \u0645\u062d\u0645\u0648\u062f \u0639\u0644\u064a", "name": "\u0645\u062d\u0645\u0648\u062f \u0639\u0644\u064a", "name:ar": "\u0645\u062d\u0645\u0648\u062f \u0639\u0644\u064a", "name:ar1": "\u0645\u062d\u0645\u0648\u062f \u0639\u0644\u064a", "name:de": "Mahmud Ali", "name:en": "Mahmud Ali", "name:fr": "Mahmud Ali", "place": "village"}}, {"type": "node", "id": 2488546102, "lat": 34.3244018, "lon": 45.2622478, "tags": {"alt_name": "\u0645\u062d\u0645\u0648\u062f \u0628\u064a\u0643", "int_name": "Ma\u1e29m\u016bd Bak, Ma\u1e29m\u016bd Bayk, Mahmud Beg, Mahmud Bak, Mahmud Bayk, Mahmud Beg", "name": "\u0645\u062d\u0645\u0648\u062f \u0628\u064a\u0643", "name:ar": "\u0645\u062d\u0645\u0648\u062f \u0628\u064a\u0643", "name:ar1": "\u0645\u062d\u0645\u0648\u062f \u0628\u064a\u0643", "name:de": "Mahmud Bak", "name:en": "Mahmud Bak", "name:fr": "Mahmud Bak", "place": "village"}}, {"type": "node", "id": 2488546141, "lat": 34.3224042, "lon": 45.4173172, "tags": {"is_in": "Iraq , \u062c\u0645\u0647\u0648\u0631\u064a\u0629 \u0627\u0644\u0639\u0631\u0627\u0642", "name": "\u0645\u06d5\u0644\u0627 \u0639\u06d5\u0632\u06cc\u0632", "name:ar": "\u0645\u0644\u0627 \u0639\u0632\u064a\u0632", "name:ar1": "\u0645\u0644\u0627 \u0639\u0632\u064a\u0632", "name:de": "Mulla Aziz", "name:en": "Mulla Aziz", "name:fr": "Mulla Aziz", "place": "village"}}, {"type": "node", "id": 2488546170, "lat": 34.313786, "lon": 45.304207, "tags": {"alt_name": "\u0645\u0648\u062a\u0643", "int_name": "M\u016btak, \u0645\u0648\u062a\u0643, Mutak, \u0645\u0648\u062a\u0643", "name": "\u0645\u0648\u062a\u0643", "name:ar": "\u0645\u0648\u062a\u0643", "name:ar1": "\u0645\u0648\u062a\u0643", "name:de": "Mutak", "name:en": "Mutak", "name:fr": "Mutak", "place": "village"}}, {"type": "node", "id": 2488546257, "lat": 34.3159454, "lon": 45.3601459, "tags": {"alt_name": "\u0633\u0639\u062f \u0627\u0644\u0644\u0647 \u0623\u0641\u0646\u062f\u064a", "int_name": "Saadullah Afandi, Sad All\u0101h Afand\u012b, Saadullah Afandi, Sad Allah Afandi", "name": "\u0633\u0639\u062f \u0627\u0644\u0644\u0647 \u0623\u0641\u0646\u062f\u064a", "name:ar": "\u0628\u062e\u062a\u064a\u0627\u0631\u064a", "name:ar1": "\u0633\u0639\u062f \u0627\u0644\u0644\u0647 \u0623\u0641\u0646\u062f\u064a", "name:de": "Saadullah Afandi", "name:en": "Saadullah Afandi", "name:fr": "Saadullah Afandi", "place": "village"}}, {"type": "node", "id": 2488546270, "lat": 34.329872, "lon": 45.3622383, "tags": {"alt_name": "\u0634\u0627\u0647 \u0645\u062d\u0645\u062f", "int_name": "Sh\u0101h Mu\u1e29ammad, Shah Muhammad", "name": "\u0634\u0627 \u0645\u062d\u06d5\u0645\u06d5\u062f", "name:ar": "\u0645\u0644\u0643 \u0634\u0627\u0647", "name:ar1": "\u0634\u0627\u0647 \u0645\u062d\u0645\u062f", "name:de": "Shah Muhammad", "name:en": "Malik shah", "name:fr": "Shah Muhammad", "place": "village"}}, {"type": "node", "id": 2488546279, "lat": 34.3209655, "lon": 45.3484256, "tags": {"alt_name": "\u0637\u0627\u0647\u0631 \u0623\u0641\u0646\u062f\u064a", "int_name": "\u0162\u0101hir Afand\u012b, Tahir Afandi", "name": "\u0637\u0627\u0647\u0631 \u0623\u0641\u0646\u062f\u064a", "name:ar": "\u0637\u0627\u0647\u0631 \u0623\u0641\u0646\u062f\u064a", "name:ar1": "\u0637\u0627\u0647\u0631 \u0623\u0641\u0646\u062f\u064a", "name:de": "Tahir Afandi", "name:en": "Tahir Afandi", "name:fr": "Tahir Afandi", "place": "village"}}, {"type": "node", "id": 2488546305, "lat": 34.2911117, "lon": 45.4517172, "tags": {"alt_name": "\u062c\u0631\u064a\u0628\u064a\u0643\u0647 \u0661", "int_name": "\u062c\u0631\u064a\u0628\u064a\u0643\u0647 \u0661, \u062c\u0631\u064a\u0628\u064a\u0643\u0647 \u0661", "is_in": "Iraq , \u062c\u0645\u0647\u0648\u0631\u064a\u0629 \u0627\u0644\u0639\u0631\u0627\u0642", "name": "\u062c\u0631\u064a\u0628\u064a\u0643\u0647 \u0661", "name:ar": "\u062c\u0631\u064a\u0628\u064a\u0643\u0647 \u0661", "name:ar1": "\u062c\u0631\u064a\u0628\u064a\u0643\u0647 \u0661", "name:de": "\u062c\u0631\u064a\u0628\u064a\u0643\u0647 \u0661", "name:en": "\u062c\u0631\u064a\u0628\u064a\u0643\u0647 \u0661", "name:fr": "\u062c\u0631\u064a\u0628\u064a\u0643\u0647 \u0661", "place": "village"}}, {"type": "node", "id": 2488630581, "lat": 34.253611, "lon": 45.215, "tags": {"alt_name": "\u0623\u062e\u062c\u064a\u0631", "int_name": "Akhj\u012br, Akhjir", "name": "\u0623\u062e\u062c\u064a\u0631", "name:ar": "\u0623\u062e\u062c\u064a\u0631", "name:ar1": "\u0623\u062e\u062c\u064a\u0631", "name:de": "Akhjir", "name:en": "Akhjir", "name:fr": "Akhjir", "place": "village"}}, {"type": "node", "id": 2488630698, "lat": 34.2629117, "lon": 45.1832319, "tags": {"alt_name": "\u0622\u0644 \u0628\u0648 \u062d\u062c\u064a\u0631", "int_name": "\u0100lb\u016b \u1e28ujayr, \u0627\u0644\u0628\u0648 \u062d\u062c\u064a\u0631, Albu Hujayr, \u0627\u0644\u0628\u0648 \u062d\u062c\u064a\u0631", "name": "\u0622\u0644 \u0628\u0648 \u062d\u062c\u064a\u0631", "name:ar": "\u0622\u0644 \u0628\u0648 \u062d\u062c\u064a\u0631", "name:ar1": "\u0622\u0644 \u0628\u0648 \u062d\u062c\u064a\u0631", "name:de": "Albu Hujayr", "name:en": "Albu Hujayr", "name:fr": "Albu Hujayr", "place": "village"}}, {"type": "node", "id": 2488630807, "lat": 34.2483496, "lon": 45.2959741, "tags": {"alt_name": "\u0639\u064a\u0646 \u0647\u0644\u0627\u0644", "int_name": "Ayn Hil\u0101l, Ayn Hilal", "name": "\u0639\u064a\u0646 \u0647\u0644\u0627\u0644", "name:ar": "\u0639\u064a\u0646 \u0647\u0644\u0627\u0644", "name:ar1": "\u0639\u064a\u0646 \u0647\u0644\u0627\u0644", "name:de": "Ayn Hilal", "name:en": "Ayn Hilal", "name:fr": "Ayn Hilal", "place": "village"}}, {"type": "node", "id": 2488630818, "lat": 34.2561493, "lon": 45.2744234, "tags": {"alt_name": "\u0639\u064a\u0646 \u0627\u0644\u0647\u0644\u0627\u0644 \u0627\u0644\u062c\u062f\u064a\u062f\u0629", "int_name": "Ayn al Hil\u0101l al Jad\u012bdah, \u0639\u064a\u0646 \u0627\u0644\u0647\u0644\u0627\u0644 \u0627\u0644\u062c\u062f\u064a\u062f\u0629, Ayn al Hilal al Jadidah, \u0639\u064a\u0646 \u0627\u0644\u0647\u0644\u0627\u0644 \u0627\u0644\u062c\u062f\u064a\u062f\u0629", "name": "\u0639\u064a\u0646 \u0627\u0644\u0647\u0644\u0627\u0644 \u0627\u0644\u062c\u062f\u064a\u062f\u0629", "name:ar": "\u0639\u064a\u0646 \u0627\u0644\u0647\u0644\u0627\u0644 \u0627\u0644\u062c\u062f\u064a\u062f\u0629", "name:ar1": "\u0639\u064a\u0646 \u0627\u0644\u0647\u0644\u0627\u0644 \u0627\u0644\u062c\u062f\u064a\u062f\u0629", "name:de": "Ayn al Hilal al Jadidah", "name:en": "Ayn al Hilal al Jadidah", "name:fr": "Ayn al Hilal al Jadidah", "place": "village"}}, {"type": "node", "id": 2488630824, "lat": 34.2484864, "lon": 45.2958063, "tags": {"alt_name": "\u0639\u064a\u0646 \u0627\u0644\u0647\u0644\u0627\u0644", "int_name": "Ayn al Hil\u0101l, Qarya Ainul Hil\u0101l, \u0639\u064a\u0646 \u0627\u0644\u0647\u0644\u0627\u0644, Ayn al Hilal, Qarya Ainul Hilal, \u0639\u064a\u0646 \u0627\u0644\u0647\u0644\u0627\u0644", "name": "\u0639\u064a\u0646 \u0627\u0644\u0647\u0644\u0627\u0644", "name:ar": "\u0639\u064a\u0646 \u0627\u0644\u0647\u0644\u0627\u0644", "name:ar1": "\u0639\u064a\u0646 \u0627\u0644\u0647\u0644\u0627\u0644", "name:de": "Ayn al Hilal", "name:en": "Ayn al Hilal", "name:fr": "Ayn al Hilal", "place": "village"}}, {"type": "node", "id": 2488630836, "lat": 34.306596, "lon": 45.079065, "tags": {"alt_name": "\u0628\u0647\u064a\u0632\u0629 \u0627\u0644\u0635\u063a\u064a\u0631\u0629", "int_name": "Bah\u012bzah a\u015f \u015eagh\u012brah, \u0628\u0647\u064a\u0632\u0629 \u0627\u0644\u0635\u063a\u064a\u0631\u0629, Bahizah as Saghirah, \u0628\u0647\u064a\u0632\u0629 \u0627\u0644\u0635\u063a\u064a\u0631\u0629", "name": "\u0628\u0647\u064a\u0632\u0629 \u0627\u0644\u0635\u063a\u064a\u0631\u0629", "name:ar": "\u0628\u0647\u064a\u0632\u0629 \u0627\u0644\u0635\u063a\u064a\u0631\u0629", "name:ar1": "\u0628\u0647\u064a\u0632\u0629 \u0627\u0644\u0635\u063a\u064a\u0631\u0629", "name:de": "Bahizah as Saghirah", "name:en": "Bahizah as Saghirah", "name:fr": "Bahizah as Saghirah", "place": "village"}}, {"type": "node", "id": 2488630867, "lat": 34.2563147, "lon": 45.4715213, "tags": {"alt_name": "\u0628\u064a\u0643\u0627", "int_name": "B\u012bk\u0101, Pika, \u0628\u064a\u0643\u0627, Bika, Pika, \u0628\u064a\u0643\u0627", "is_in": "Iraq , \u062c\u0645\u0647\u0648\u0631\u064a\u0629 \u0627\u0644\u0639\u0631\u0627\u0642", "name": "\u0628\u064a\u0643\u0627", "name:ar": "\u0628\u064a\u0643\u0627", "name:ar1": "\u0628\u064a\u0643\u0627", "name:de": "Bika", "name:en": "Bika", "name:fr": "Bika", "place": "village"}}, {"type": "node", "id": 2488631266, "lat": 34.316952, "lon": 45.524909, "tags": {"alt_name": "\u0643\u0627\u0646\u064a \u0628\u0632", "int_name": "K\u0101n\u012b Baz, Kanibez, \u0643\u0627\u0646\u064a \u0628\u0632, Kani Baz, Kanibez, \u0643\u0627\u0646\u064a \u0628\u0632", "is_in": "Iraq , \u062c\u0645\u0647\u0648\u0631\u064a\u0629 \u0627\u0644\u0639\u0631\u0627\u0642", "name": "\u06a9\u0627\u0646\u06cc \u0628\u0632", "name:ar": "\u0643\u0627\u0646\u064a \u0628\u0632", "name:ar1": "\u0643\u0627\u0646\u064a \u0628\u0632", "name:de": "Kani Baz", "name:en": "Kani Baz", "name:fr": "Kani Baz", "place": "village"}}, {"type": "node", "id": 2488631436, "lat": 34.2564593, "lon": 45.2110462, "tags": {"alt_name": "\u0645\u062d\u0645\u062f \u062c\u0627\u0633\u0645", "int_name": "Mu\u1e29ammad J\u0101sim, \u0645\u062d\u0645\u062f \u062c\u0627\u0633\u0645, Muhammad Jasim, \u0645\u062d\u0645\u062f \u062c\u0627\u0633\u0645", "name": "\u0645\u062d\u0645\u062f \u062c\u0627\u0633\u0645", "name:ar": "\u0645\u062d\u0645\u062f \u062c\u0627\u0633\u0645", "name:ar1": "\u0645\u062d\u0645\u062f \u062c\u0627\u0633\u0645", "name:de": "Muhammad Jasim", "name:en": "Muhammad Jasim", "name:fr": "Muhammad Jasim", "place": "village"}}, {"type": "node", "id": 2488631481, "lat": 34.255386, "lon": 45.2111991, "tags": {"alt_name": "\u0642\u0631\u064a\u0629 \u062c\u0645\u0644\u0627\u0646", "int_name": "Qaryat Jaml\u0101n, \u0642\u0631\u064a\u0629 \u062c\u0645\u0644\u0627\u0646, Qaryat Jamlan, \u0642\u0631\u064a\u0629 \u062c\u0645\u0644\u0627\u0646", "name": "\u0642\u0631\u064a\u0629 \u062c\u0645\u0644\u0627\u0646", "name:ar": "\u0642\u0631\u064a\u0629 \u062c\u0645\u0644\u0627\u0646", "name:ar1": "\u0642\u0631\u064a\u0629 \u062c\u0645\u0644\u0627\u0646", "name:de": "Qaryat Jamlan", "name:en": "Qaryat Jamlan", "name:fr": "Qaryat Jamlan", "place": "village"}}, {"type": "node", "id": 2488631607, "lat": 34.2631181, "lon": 45.1832912, "tags": {"alt_name": "\u0635\u0627\u0644\u062d \u0627\u0644\u0647\u0644\u0627\u0644", "int_name": "\u015e\u0101li\u1e29 al Hil\u0101l, \u0635\u0627\u0644\u062d \u0627\u0644\u0647\u0644\u0627\u0644, Salih al Hilal, \u0635\u0627\u0644\u062d \u0627\u0644\u0647\u0644\u0627\u0644", "name": "\u0635\u0627\u0644\u062d \u0627\u0644\u0647\u0644\u0627\u0644", "name:ar": "\u0635\u0627\u0644\u062d \u0627\u0644\u0647\u0644\u0627\u0644", "name:ar1": "\u0635\u0627\u0644\u062d \u0627\u0644\u0647\u0644\u0627\u0644", "name:de": "Salih al Hilal", "name:en": "Salih al Hilal", "name:fr": "Salih al Hilal", "place": "village"}}, {"type": "node", "id": 2489330118, "lat": 34.2351752, "lon": 45.0801512, "tags": {"alt_name": "\u0639\u0644\u064a\u0645\u0627\u062a", "int_name": "Ulaym\u0101t, \u0639\u0644\u064a\u0645\u0627\u062a, Ulaymat, \u0639\u0644\u064a\u0645\u0627\u062a", "name": "\u0639\u0644\u064a\u0645\u0627\u062a", "name:ar": "\u0639\u0644\u064a\u0645\u0627\u062a", "name:ar1": "\u0639\u0644\u064a\u0645\u0627\u062a", "name:de": "Ulaymat", "name:en": "Ulaymat", "name:fr": "Ulaymat", "place": "village"}}, {"type": "node", "id": 2489330339, "lat": 34.135987, "lon": 45.100532, "tags": {"alt_name": "\u0627\u0644\u0642\u0631\u064a\u0629 \u0627\u0644\u0639\u0635\u0631\u064a\u0629", "int_name": "Al Qaryat al A\u015fir\u012byah, \u0627\u0644\u0642\u0631\u064a\u0629 \u0627\u0644\u0639\u0635\u0631\u064a\u0629, Al Qaryat al Asiriyah, \u0627\u0644\u0642\u0631\u064a\u0629 \u0627\u0644\u0639\u0635\u0631\u064a\u0629", "name": "\u0627\u0644\u0642\u0631\u064a\u0629 \u0627\u0644\u0639\u0635\u0631\u064a\u0629", "name:ar": "\u0627\u0644\u0642\u0631\u064a\u0629 \u0627\u0644\u0639\u0635\u0631\u064a\u0629", "name:ar1": "\u0627\u0644\u0642\u0631\u064a\u0629 \u0627\u0644\u0639\u0635\u0631\u064a\u0629", "name:de": "Al Qaryat al Asiriyah", "name:en": "Al Qaryat al Asiriyah", "name:fr": "Al Qaryat al Asiriyah", "place": "village"}}, {"type": "node", "id": 2489330340, "lat": 34.0373524, "lon": 45.1449618, "tags": {"alt_name": "\u0639\u0644\u064a \u0627\u0644\u0645\u0627\u0644\u062d", "int_name": "Al\u012b al M\u0101li\u1e29, \u0639\u0644\u064a \u0627\u0644\u0645\u0627\u0644\u062d, Ali al Malih, \u0639\u0644\u064a \u0627\u0644\u0645\u0627\u0644\u062d", "is_in": "Iraq , \u062c\u0645\u0647\u0648\u0631\u064a\u0629 \u0627\u0644\u0639\u0631\u0627\u0642", "name": "\u0639\u0644\u064a \u0627\u0644\u0645\u0627\u0644\u062d", "name:ar": "\u0639\u0644\u064a \u0627\u0644\u0645\u0627\u0644\u062d", "name:ar1": "\u0639\u0644\u064a \u0627\u0644\u0645\u0627\u0644\u062d", "name:de": "Ali al Malih", "name:en": "Ali al Malih", "name:fr": "Ali al Malih", "place": "village"}}, {"type": "node", "id": 2489330344, "lat": 34.0620571, "lon": 45.1136192, "tags": {"alt_name": "\u0627\u0644\u0646\u0648\u0627\u0631\u0629 \u0627\u0644\u0643\u0628\u0631\u0649", "int_name": "An Nuw\u0101rah al Kubr\u00e1, An Nuwarah al Kubra", "is_in": "Iraq , \u062c\u0645\u0647\u0648\u0631\u064a\u0629 \u0627\u0644\u0639\u0631\u0627\u0642", "name": "\u0627\u0644\u0646\u0648\u0627\u0631\u0629 \u0627\u0644\u0643\u0628\u0631\u0649", "name:ar": "\u0627\u0644\u0646\u0648\u0627\u0631\u0629 \u0627\u0644\u0643\u0628\u0631\u0649", "name:ar1": "\u0627\u0644\u0646\u0648\u0627\u0631\u0629 \u0627\u0644\u0643\u0628\u0631\u0649", "name:de": "An Nuwarah al Kubra", "name:en": "An Nuwarah al Kubra", "name:fr": "An Nuwarah al Kubra", "place": "village"}}, {"type": "node", "id": 2489330345, "lat": 34.0708106, "lon": 45.0959232, "tags": {"alt_name": "\u0627\u0644\u0646\u0648\u0627\u0631\u0629 \u0627\u0644\u0639\u0644\u0649", "int_name": "An Nuw\u0101rah al \u016al\u00e1, An Nuwarah al Ula", "is_in": "Iraq , \u062c\u0645\u0647\u0648\u0631\u064a\u0629 \u0627\u0644\u0639\u0631\u0627\u0642", "name": "\u0627\u0644\u0646\u0648\u0627\u0631\u0629 \u0627\u0644\u0639\u0644\u0649", "name:ar": "\u0627\u0644\u0646\u0648\u0627\u0631\u0629 \u0627\u0644\u0639\u0644\u0649", "name:ar1": "\u0627\u0644\u0646\u0648\u0627\u0631\u0629 \u0627\u0644\u0639\u0644\u0649", "name:de": "An Nuwarah al Ula", "name:en": "An Nuwarah al Ula", "name:fr": "An Nuwarah al Ula", "place": "village"}}, {"type": "node", "id": 2489330356, "lat": 34.0293636, "lon": 45.458831, "tags": {"alt_name": "\u062c\u0627\u0644\u0627\u06cc", "int_name": "Chal\u0101i, Chalay, Ch\u0101l\u0101y, J\u0101l\u0101y, \u0686\u0627\u0644\u0627\u064a, Chalai, Chalay, Chalay, Jalay, \u0686\u0627\u0644\u0627\u064a", "is_in": "Iraq , \u062c\u0645\u0647\u0648\u0631\u064a\u0629 \u0627\u0644\u0639\u0631\u0627\u0642", "name": "\u062c\u0627\u0644\u0627\u06cc", "name:ar": "\u062c\u0627\u0644\u0627\u064a", "name:ar1": "\u062c\u0627\u0644\u0627\u064a", "name:de": "Chalai", "name:en": "Chalai", "name:fr": "Chalai", "place": "village"}}, {"type": "node", "id": 2489330418, "lat": 34.033656, "lon": 45.438457, "tags": {"alt_name": "\u0646\u0641\u0637 \u062e\u0627\u0646\u0629", "capital": "7", "int_name": "Naft Khana, Naf\u0163 Kh\u0101nah, Naf\u0163 Kh\u0101neh, \u0646\u0641\u0637 \u062e\u0627\u0646\u0629, Naft Khana, Naft Khanah, Naft Khaneh, \u0646\u0641\u0637 \u062e\u0627\u0646\u0629", "is_in": "Iraq , \u062c\u0645\u0647\u0648\u0631\u064a\u0629 \u0627\u0644\u0639\u0631\u0627\u0642", "name": "\u0646\u06d5\u0641\u062a\u062e\u0627\u0646\u06d5", "name:ar": "\u0646\u0641\u0637 \u062e\u0627\u0646\u0629", "name:de": "Naft Khana", "name:en": "Naft Khana", "name:fr": "Naft Khana", "name:ru": "\u041d\u0430\u0444\u0442-\u0425\u0430\u043d\u0430", "place": "village"}}, {"type": "node", "id": 2489330427, "lat": 34.123917, "lon": 45.335644, "tags": {"alt_name": "\u0642\u0631\u064a\u0629 \u0639\u064a\u0646 \u0623\u0645 \u0627\u0644\u0633\u0645\u0643", "int_name": "Qaryat Ayn Umm as Samak, \u0642\u0631\u064a\u0629 \u0639\u064a\u0646 \u0627\u0645 \u0627\u0644\u0633\u0645\u0643, Qaryat Ayn Umm as Samak, \u0642\u0631\u064a\u0629 \u0639\u064a\u0646 \u0627\u0645 \u0627\u0644\u0633\u0645\u0643", "is_in": "Iraq , \u062c\u0645\u0647\u0648\u0631\u064a\u0629 \u0627\u0644\u0639\u0631\u0627\u0642", "name": "\u0642\u0631\u064a\u0629 \u0639\u064a\u0646 \u0623\u0645 \u0627\u0644\u0633\u0645\u0643", "name:ar": "\u0642\u0631\u064a\u0629 \u0639\u064a\u0646 \u0623\u0645 \u0627\u0644\u0633\u0645\u0643", "name:ar1": "\u0642\u0631\u064a\u0629 \u0639\u064a\u0646 \u0623\u0645 \u0627\u0644\u0633\u0645\u0643", "name:de": "Qaryat Ayn Umm as Samak", "name:en": "Qaryat Ayn Umm as Samak", "name:fr": "Qaryat Ayn Umm as Samak", "place": "village"}}, {"type": "node", "id": 2489330428, "lat": 34.0787756, "lon": 45.3382069, "tags": {"alt_name": "\u0642\u0631\u064a\u0629 \u062f\u0627\u0648\u0648\u062f", "int_name": "Qaryat D\u0101wud, Qaryat Dawud", "is_in": "Iraq , \u062c\u0645\u0647\u0648\u0631\u064a\u0629 \u0627\u0644\u0639\u0631\u0627\u0642", "name": "\u0642\u0631\u064a\u0629 \u062f\u0627\u0648\u0648\u062f", "name:ar": "\u0642\u0631\u064a\u0629 \u062f\u0627\u0648\u0648\u062f", "name:ar1": "\u0642\u0631\u064a\u0629 \u062f\u0627\u0648\u0648\u062f", "name:de": "Qaryat Dawud", "name:en": "Qaryat Dawud", "name:fr": "Qaryat Dawud", "place": "village"}}, {"type": "node", "id": 2489330435, "lat": 34.127207, "lon": 45.372263, "tags": {"alt_name": "\u0642\u0631\u064a\u0629 \u0632\u0644\u0648", "int_name": "Qaryat Zal\u016b, \u0642\u0631\u064a\u0629 \u0632\u0644\u0648, Qaryat Zalu, \u0642\u0631\u064a\u0629 \u0632\u0644\u0648", "name": "\u0632\u0627\u0644\u0648\u06cc", "name:ar": "\u0642\u0631\u064a\u0629 \u0632\u0644\u0648", "name:ar1": "\u0642\u0631\u064a\u0629 \u0632\u0644\u0648", "name:de": "Qaryat Zalu", "name:en": "Qaryat Zalu", "name:fr": "Qaryat Zalu", "place": "village"}}, {"type": "node", "id": 2489330436, "lat": 34.105236, "lon": 45.331032, "tags": {"alt_name": "\u0642\u0631\u064a\u0629 \u0627\u0644\u0623\u0645\u0647\u0631\u064a\u0629", "int_name": "Qaryat al Amhur\u012byah, \u0642\u0631\u064a\u0629 \u0627\u0644\u0627\u0645\u0647\u0631\u064a\u0629, Qaryat al Amhuriyah, \u0642\u0631\u064a\u0629 \u0627\u0644\u0627\u0645\u0647\u0631\u064a\u0629", "is_in": "Iraq , \u062c\u0645\u0647\u0648\u0631\u064a\u0629 \u0627\u0644\u0639\u0631\u0627\u0642", "name": "\u0642\u0631\u064a\u0629 \u0627\u0644\u0623\u0645\u0647\u0631\u064a\u0629", "name:ar": "\u0642\u0631\u064a\u0629 \u0627\u0644\u0623\u0645\u0647\u0631\u064a\u0629", "name:ar1": "\u0642\u0631\u064a\u0629 \u0627\u0644\u0623\u0645\u0647\u0631\u064a\u0629", "name:de": "Qaryat al Amhuriyah", "name:en": "Qaryat al Amhuriyah", "name:fr": "Qaryat al Amhuriyah", "place": "village"}}, {"type": "node", "id": 2489330453, "lat": 33.933333, "lon": 45.133333, "tags": {"alt_name": "\u0633\u064a\u062f \u0645\u062d\u0645\u0648\u062f", "int_name": "Sayyid Ma\u1e29m\u016bd, Sayyid Mahmud", "is_in": "Iraq , \u062c\u0645\u0647\u0648\u0631\u064a\u0629 \u0627\u0644\u0639\u0631\u0627\u0642", "name": "\u0633\u064a\u062f \u0645\u062d\u0645\u0648\u062f", "name:ar": "\u0633\u064a\u062f \u0645\u062d\u0645\u0648\u062f", "name:ar1": "\u0633\u064a\u062f \u0645\u062d\u0645\u0648\u062f", "name:de": "Sayyid Mahmud", "name:en": "Sayyid Mahmud", "name:fr": "Sayyid Mahmud", "place": "village"}}, {"type": "node", "id": 2489330455, "lat": 34.0298028, "lon": 45.4436142, "tags": {"alt_name": "\u0634\u0627\u0631\u0646\u0648", "int_name": "Shahr e Now, Shahr i Nau, Shahr i Naw, Sh\u0101rinaw, \u0634\u0627\u0631\u0646\u0648, Shahr e Now, Shahr i Nau, Shahr i Naw, Sharinaw, \u0634\u0627\u0631\u0646\u0648", "is_in": "Iraq , \u062c\u0645\u0647\u0648\u0631\u064a\u0629 \u0627\u0644\u0639\u0631\u0627\u0642", "name": "\u0634\u0627\u0631\u0646\u0648\u0648", "name:ar": "\u0634\u0627\u0631\u0646\u0648", "name:ar1": "\u0634\u0627\u0631\u0646\u0648", "name:de": "Shahr e Now", "name:en": "Shahr e Now", "name:fr": "Shahr e Now", "place": "village"}}, {"type": "node", "id": 2489330456, "lat": 33.989778, "lon": 45.095745, "tags": {"alt_name": "\u0634\u062b\u0627\u062b\u0629", "int_name": "Shath\u0101thah, \u0634\u062b\u0627\u062b\u0629, Shathathah, \u0634\u062b\u0627\u062b\u0629", "is_in": "Iraq , \u062c\u0645\u0647\u0648\u0631\u064a\u0629 \u0627\u0644\u0639\u0631\u0627\u0642", "name": "\u0634\u062b\u0627\u062b\u0629", "name:ar": "\u0634\u062b\u0627\u062b\u0629", "name:ar1": "\u0634\u062b\u0627\u062b\u0629", "name:de": "Shathathah", "name:en": "Shathathah", "name:fr": "Shathathah", "place": "village"}}, {"type": "node", "id": 2489330483, "lat": 34.0704391, "lon": 45.0958921, "tags": {"alt_name": "\u0627\u0644\u0646\u0648\u0627\u0631\u0647 \u0627\u0644\u0627\u0648\u0644\u0649", "int_name": "\u0627\u0644\u0646\u0648\u0627\u0631\u0647 \u0627\u0644\u0627\u0648\u0644\u0649, \u0627\u0644\u0646\u0648\u0627\u0631\u0647 \u0627\u0644\u0627\u0648\u0644\u0649", "is_in": "Iraq , \u062c\u0645\u0647\u0648\u0631\u064a\u0629 \u0627\u0644\u0639\u0631\u0627\u0642", "name": "\u0627\u0644\u0646\u0648\u0627\u0631\u0647 \u0627\u0644\u0627\u0648\u0644\u0649", "name:ar": "\u0627\u0644\u0646\u0648\u0627\u0631\u0647 \u0627\u0644\u0627\u0648\u0644\u0649", "name:ar1": "\u0627\u0644\u0646\u0648\u0627\u0631\u0647 \u0627\u0644\u0627\u0648\u0644\u0649", "name:de": "\u0627\u0644\u0646\u0648\u0627\u0631\u0647 \u0627\u0644\u0627\u0648\u0644\u0649", "name:fr": "\u0627\u0644\u0646\u0648\u0627\u0631\u0647 \u0627\u0644\u0627\u0648\u0644\u0649", "place": "village"}}, {"type": "node", "id": 2489330484, "lat": 34.0610197, "lon": 45.1162542, "tags": {"alt_name": "\u0627\u0644\u0646\u0648\u0627\u0631\u0647 \u0627\u0644\u0643\u0628\u0631\u0649", "int_name": "\u0627\u0644\u0646\u0648\u0627\u0631\u0647 \u0627\u0644\u0643\u0628\u0631\u0649, \u0627\u0644\u0646\u0648\u0627\u0631\u0647 \u0627\u0644\u0643\u0628\u0631\u0649", "is_in": "Iraq , \u062c\u0645\u0647\u0648\u0631\u064a\u0629 \u0627\u0644\u0639\u0631\u0627\u0642", "name": "\u0627\u0644\u0646\u0648\u0627\u0631\u0647 \u0627\u0644\u0643\u0628\u0631\u0649", "name:ar": "\u0627\u0644\u0646\u0648\u0627\u0631\u0647 \u0627\u0644\u0643\u0628\u0631\u0649", "name:ar1": "\u0627\u0644\u0646\u0648\u0627\u0631\u0647 \u0627\u0644\u0643\u0628\u0631\u0649", "name:de": "\u0627\u0644\u0646\u0648\u0627\u0631\u0647 \u0627\u0644\u0643\u0628\u0631\u0649", "name:fr": "\u0627\u0644\u0646\u0648\u0627\u0631\u0647 \u0627\u0644\u0643\u0628\u0631\u0649", "place": "village"}}, {"type": "node", "id": 2489330490, "lat": 34.0782544, "lon": 45.338073, "tags": {"alt_name": "\u0642\u0631\u064a\u0629 \u062f\u0627\u0648\u062f", "int_name": "\u0642\u0631\u064a\u0629 \u062f\u0627\u0648\u062f, \u0642\u0631\u064a\u0629 \u062f\u0627\u0648\u062f", "is_in": "Iraq , \u062c\u0645\u0647\u0648\u0631\u064a\u0629 \u0627\u0644\u0639\u0631\u0627\u0642", "name": "\u0642\u0631\u064a\u0629 \u062f\u0627\u0648\u062f", "name:ar": "\u0642\u0631\u064a\u0629 \u062f\u0627\u0648\u062f", "name:ar1": "\u0642\u0631\u064a\u0629 \u062f\u0627\u0648\u062f", "name:de": "\u0642\u0631\u064a\u0629 \u062f\u0627\u0648\u062f", "name:fr": "\u0642\u0631\u064a\u0629 \u062f\u0627\u0648\u062f", "place": "village"}}, {"type": "node", "id": 2489331874, "lat": 34.166667, "lon": 45.283333, "tags": {"alt_name": "\u0642\u0631\u064a\u0629 \u0639\u064a\u0646 \u0627\u0644\u0633\u0645\u0643", "int_name": "Ain Samak, Ayn as Samak, Ayn Samak, Qarya Ain as Samak, Ain Samak, Ayn as Samak, Ayn Samak, Qarya Ain as Samak", "name": "\u0642\u0631\u064a\u0629 \u0639\u064a\u0646 \u0627\u0644\u0633\u0645\u0643", "name:ar": "\u0642\u0631\u064a\u0629 \u0639\u064a\u0646 \u0627\u0644\u0633\u0645\u0643", "name:ar1": "\u0642\u0631\u064a\u0629 \u0639\u064a\u0646 \u0627\u0644\u0633\u0645\u0643", "name:de": "Ain Samak", "name:en": "Ain Samak", "name:fr": "Ain Samak", "place": "village"}}, {"type": "node", "id": 2489331875, "lat": 34.1998865, "lon": 45.2833642, "tags": {"alt_name": "\u0639\u0644\u064a \u0635\u063a\u064a\u0631", "int_name": "Ali \u015eagh\u012br, Ali Saghir", "name": "\u0639\u0644\u064a \u0635\u063a\u064a\u0631", "name:ar": "\u0639\u0644\u064a \u0635\u063a\u064a\u0631", "name:ar1": "\u0639\u0644\u064a \u0635\u063a\u064a\u0631", "name:de": "Ali Saghir", "name:en": "Ali Saghir", "name:fr": "Ali Saghir", "place": "village"}}, {"type": "node", "id": 2489331879, "lat": 34.188395, "lon": 45.334193, "tags": {"alt_name": "\u0625\u0645\u0627\u0645 \u0623\u0628\u0648 \u0627\u0644\u0647\u0648\u0649", "int_name": "Im\u0101m Ab\u016b al Haw\u00e1, \u0627\u0645\u0627\u0645 \u0627\u0628\u0648 \u0627\u0644\u0647\u0648\u0649, Imam Abu al Hawa, \u0627\u0645\u0627\u0645 \u0627\u0628\u0648 \u0627\u0644\u0647\u0648\u0649", "name": "\u0625\u0645\u0627\u0645 \u0623\u0628\u0648 \u0627\u0644\u0647\u0648\u0649", "name:ar": "\u0625\u0645\u0627\u0645 \u0623\u0628\u0648 \u0627\u0644\u0647\u0648\u0649", "name:ar1": "\u0625\u0645\u0627\u0645 \u0623\u0628\u0648 \u0627\u0644\u0647\u0648\u0649", "name:de": "Imam Abu al Hawa", "name:en": "Imam Abu al Hawa", "name:fr": "Imam Abu al Hawa", "place": "village"}}, {"type": "node", "id": 2489331881, "lat": 34.171894, "lon": 45.28122, "tags": {"alt_name": "\u0643\u0627\u0646\u064a \u0645\u0627\u0633\u064a \u0627\u0644\u0635\u063a\u064a\u0631\u0629", "int_name": "K\u0101n\u012b M\u0101s\u012b a\u015f \u015eagh\u012brah, K\u0101n\u012b M\u0101s\u012b i Pich\u016bk, \u0643\u0627\u0646\u064a \u0645\u0627\u0633\u064a \u0627\u0644\u0635\u063a\u064a\u0631\u0629, Kani Masi as Saghirah, Kani Masi i Pichuk, \u0643\u0627\u0646\u064a \u0645\u0627\u0633\u064a \u0627\u0644\u0635\u063a\u064a\u0631\u0629", "name": "\u06a9\u0627\u0646\u06cc \u0645\u0627\u0633\u06cc \u0628\u0686\u0648\u0648\u06a9", "name:ar": "\u0643\u0627\u0646\u064a \u0645\u0627\u0633\u064a \u0627\u0644\u0635\u063a\u064a\u0631\u0629", "name:ar1": "\u0643\u0627\u0646\u064a \u0645\u0627\u0633\u064a \u0627\u0644\u0635\u063a\u064a\u0631\u0629", "name:de": "Kani Masi as Saghirah", "name:en": "Kani Masi as Saghirah", "name:fr": "Kani Masi as Saghirah", "place": "village"}}, {"type": "node", "id": 2489331893, "lat": 34.2001032, "lon": 45.2833049, "tags": {"alt_name": "\u0642\u0631\u064a\u0629 \u0639\u0644\u064a \u0635\u063a\u064a\u0631", "int_name": "Qarya Ali Sagh\u012br, Qaryat Al\u012b \u015eagh\u012br, Qarya Ali Saghir, Qaryat Ali Saghir", "name": "\u0642\u0631\u064a\u0629 \u0639\u0644\u064a \u0635\u063a\u064a\u0631", "name:ar": "\u0642\u0631\u064a\u0629 \u0639\u0644\u064a \u0635\u063a\u064a\u0631", "name:ar1": "\u0642\u0631\u064a\u0629 \u0639\u0644\u064a \u0635\u063a\u064a\u0631", "name:de": "Qarya Ali Saghir", "name:en": "Qarya Ali Saghir", "name:fr": "Qarya Ali Saghir", "place": "village"}}, {"type": "node", "id": 2489331895, "lat": 34.141054, "lon": 45.370524, "tags": {"name": "\u0645\u06cc\u0644", "name:ar": "\u0642\u0631\u064a\u0629 \u0645\u064a\u0644", "name:ar1": "\u0642\u0631\u064a\u0629 \u0645\u064a\u0644", "name:de": "Qaryat Mil", "name:en": "Qaryat Mil", "name:fr": "Qaryat Mil", "place": "village"}}, {"type": "node", "id": 2489331901, "lat": 34.178967, "lon": 45.530377, "tags": {"alt_name": "\u062a\u0644 \u0634\u0643\u0646", "int_name": "Tall Shakan, \u062a\u0644 \u0634\u0643\u0646, Tall Shakan, \u062a\u0644 \u0634\u0643\u0646", "is_in": "Iraq , \u062c\u0645\u0647\u0648\u0631\u064a\u0629 \u0627\u0644\u0639\u0631\u0627\u0642", "name": "\u062a\u0644 \u0634\u0643\u0646", "name:ar": "\u062a\u0644 \u0634\u0643\u0646", "name:ar1": "\u062a\u0644 \u0634\u0643\u0646", "name:de": "Tall Shakan", "name:en": "Tall Shakan", "name:fr": "Tall Shakan", "place": "village"}}, {"type": "node", "id": 2489332070, "lat": 34.2070142, "lon": 45.252089, "tags": {"alt_name": "\u0639\u0631\u0628 \u0633\u064a\u062f \u062d\u0633\u064a\u0646", "int_name": "Arab Sayyid \u1e28usayn, \u0639\u0631\u0628 \u0633\u064a\u062f \u062d\u0633\u064a\u0646, Arab Sayyid Husayn, \u0639\u0631\u0628 \u0633\u064a\u062f \u062d\u0633\u064a\u0646", "name": "\u0639\u0631\u0628 \u0633\u064a\u062f \u062d\u0633\u064a\u0646", "name:ar": "\u0639\u0631\u0628 \u0633\u064a\u062f \u062d\u0633\u064a\u0646", "name:ar1": "\u0639\u0631\u0628 \u0633\u064a\u062f \u062d\u0633\u064a\u0646", "name:de": "Arab Sayyid Husayn", "name:en": "Arab Sayyid Husayn", "name:fr": "Arab Sayyid Husayn", "place": "village"}}, {"type": "node", "id": 2489332073, "lat": 34.21734, "lon": 45.2300259, "tags": {"alt_name": "\u0627\u0644\u062a\u064a\u0646\u0629 \u0627\u0644\u0634\u0645\u0627\u0644\u064a\u0629", "int_name": "At T\u012bnat ash Sham\u0101l\u012byah, \u0627\u0644\u062a\u064a\u0646\u0629 \u0627\u0644\u0634\u0645\u0627\u0644\u064a\u0629, At Tinat ash Shamaliyah, \u0627\u0644\u062a\u064a\u0646\u0629 \u0627\u0644\u0634\u0645\u0627\u0644\u064a\u0629", "name": "\u0627\u0644\u062a\u064a\u0646\u0629 \u0627\u0644\u0634\u0645\u0627\u0644\u064a\u0629", "name:ar": "\u0627\u0644\u062a\u064a\u0646\u0629 \u0627\u0644\u0634\u0645\u0627\u0644\u064a\u0629", "name:ar1": "\u0627\u0644\u062a\u064a\u0646\u0629 \u0627\u0644\u0634\u0645\u0627\u0644\u064a\u0629", "name:de": "At Tinat ash Shamaliyah", "name:en": "At Tinat ash Shamaliyah", "name:fr": "At Tinat ash Shamaliyah", "place": "village"}}, {"type": "node", "id": 2489332076, "lat": 34.2413626, "lon": 45.3451514, "tags": {"alt_name": "\u0628\u0644\u0643\u0627\u0646\u0629", "int_name": "Balk\u0101na, Balk\u0101nah, \u0628\u0644\u0643\u0627\u0646\u0647, Balkana, Balkanah, \u0628\u0644\u0643\u0627\u0646\u0647", "name": "\u0628\u0644\u0643\u0627\u0646\u0629", "name:ar": "\u0628\u0644\u0643\u0627\u0646\u0629", "name:ar1": "\u0628\u0644\u0643\u0627\u0646\u0629", "name:de": "Balkana", "name:en": "Balkana", "name:fr": "Balkana", "place": "village"}}, {"type": "node", "id": 2489332082, "lat": 34.2418451, "lon": 45.3461658, "tags": {"alt_name": "\u0628\u064a\u0643\u0627\u0646\u0629", "int_name": "Bayk\u0101nah, Baykanah", "name": "\u0628\u064a\u0643\u0627\u0646\u0629", "name:ar": "\u0628\u064a\u0643\u0627\u0646\u0629", "name:ar1": "\u0628\u064a\u0643\u0627\u0646\u0629", "name:de": "Baykanah", "name:en": "Baykanah", "name:fr": "Baykanah", "place": "village"}}, {"type": "node", "id": 2489332090, "lat": 34.228604, "lon": 45.231573, "tags": {"alt_name": "\u0625\u0628\u0631\u0627\u0647\u064a\u0645 \u0646\u0635\u064a\u0641", "int_name": "Ibr\u0101h\u012bm Nas\u012bb, Ibr\u0101h\u012bm Na\u015f\u012bf, \u0627\u0628\u0631\u0627\u0647\u064a\u0645 \u0646\u0635\u064a\u0641, Ibrahim Nasib, Ibrahim Nasif, \u0627\u0628\u0631\u0627\u0647\u064a\u0645 \u0646\u0635\u064a\u0641", "name": "\u0625\u0628\u0631\u0627\u0647\u064a\u0645 \u0646\u0635\u064a\u0641", "name:ar": "\u0625\u0628\u0631\u0627\u0647\u064a\u0645 \u0646\u0635\u064a\u0641", "name:ar1": "\u0625\u0628\u0631\u0627\u0647\u064a\u0645 \u0646\u0635\u064a\u0641", "name:de": "Ibrahim Nasib", "name:en": "Ibrahim Nasib", "name:fr": "Ibrahim Nasib", "place": "village"}}, {"type": "node", "id": 2489332096, "lat": 34.223466, "lon": 45.297007, "tags": {"name": "\u06a9\u06d5\u0631\u06cc\u0645 \u0628\u06d5\u06af", "name:ar": "\u0643\u0631\u064a\u0645 \u0628\u064a\u0643", "name:ar1": "\u0643\u0631\u064a\u0645 \u0628\u064a\u0643", "name:de": "Karim Bag", "name:en": "Karim Bag", "name:fr": "Karim Bag", "place": "village"}}, {"type": "node", "id": 2489332184, "lat": 34.2674329, "lon": 45.5351585, "tags": {"alt_name": "\u0645\u062d\u0645\u062f \u062e\u0636\u064a\u0631", "int_name": "Mu\u1e29ammad Kha\u1e11\u012br, \u0645\u062d\u0645\u062f \u062e\u0636\u064a\u0631, Muhammad Khadir, \u0645\u062d\u0645\u062f \u062e\u0636\u064a\u0631", "is_in": "Iraq , \u062c\u0645\u0647\u0648\u0631\u064a\u0629 \u0627\u0644\u0639\u0631\u0627\u0642", "name": "\u0645\u062d\u0645\u062f \u062e\u0636\u064a\u0631", "name:ar": "\u0645\u062d\u0645\u062f \u062e\u0636\u064a\u0631", "name:ar1": "\u0645\u062d\u0645\u062f \u062e\u0636\u064a\u0631", "name:de": "Muhammad Khadir", "name:en": "Muhammad Khadir", "name:fr": "Muhammad Khadir", "place": "village"}}, {"type": "node", "id": 2489332199, "lat": 34.2153186, "lon": 45.4818286, "tags": {"alt_name": "\u0646\u0643\u064a\u0646\u0627", "int_name": "Nak\u012bn\u0101, Naknah, Naqna, Nekna, \u0646\u0643\u064a\u0646\u0627, Nakina, Naknah, Naqna, Nekna, \u0646\u0643\u064a\u0646\u0627", "is_in": "Iraq , \u062c\u0645\u0647\u0648\u0631\u064a\u0629 \u0627\u0644\u0639\u0631\u0627\u0642", "name": "\u0646\u0643\u064a\u0646\u0627", "name:ar": "\u0646\u0643\u064a\u0646\u0627", "name:ar1": "\u0646\u0643\u064a\u0646\u0627", "name:de": "Nakina", "name:en": "Nakina", "name:fr": "Nakina", "place": "village"}}, {"type": "node", "id": 2489332213, "lat": 34.2400719, "lon": 45.2541009, "tags": {"alt_name": "\u0646\u0627\u0648\u062f\u0648\u0645\u0627\u0646", "int_name": "N\u0101wd\u016bm\u0101n, Nawduman", "name": "\u0646\u0627\u0648\u062f\u06c6\u0645\u0627\u0646", "name:ar": "\u0646\u0627\u0648\u062f\u0648\u0645\u0627\u0646", "name:ar1": "\u0646\u0627\u0648\u062f\u0648\u0645\u0627\u0646", "name:de": "Nawduman", "name:en": "Nawduman", "name:fr": "Nawduman", "place": "village"}}, {"type": "node", "id": 2489332221, "lat": 34.2421651, "lon": 45.3453168, "tags": {"name": "\u067e\u06d5\u06b5\u06a9\u0627\u0646\u06d5", "name:ar": "\u0628\u064a\u062e\u0627\u0646\u0629", "name:ar1": "\u0628\u064a\u062e\u0627\u0646\u0629", "name:de": "Paykhanah", "name:en": "Paykhanah", "name:fr": "Paykhanah", "place": "village"}}, {"type": "node", "id": 2489332245, "lat": 34.240575, "lon": 45.254231, "tags": {"alt_name": "\u0642\u0631\u064a\u0629 \u0627\u0644\u0623\u0646\u0648\u0631", "int_name": "Qaryat al Anwar, Qaryat al Anw\u0101r, \u0642\u0631\u064a\u0629 \u0627\u0644\u0627\u0646\u0648\u0627\u0631, \u0642\u0631\u064a\u0629 \u0627\u0644\u0627\u0646\u0648\u0631, Qaryat al Anwar, Qaryat al Anwar, \u0642\u0631\u064a\u0629 \u0627\u0644\u0627\u0646\u0648\u0627\u0631, \u0642\u0631\u064a\u0629 \u0627\u0644\u0627\u0646\u0648\u0631", "name": "\u0642\u0631\u064a\u0629 \u0627\u0644\u0623\u0646\u0648\u0631", "name:ar": "\u0642\u0631\u064a\u0629 \u0627\u0644\u0623\u0646\u0648\u0631", "name:ar1": "\u0642\u0631\u064a\u0629 \u0627\u0644\u0623\u0646\u0648\u0631", "name:de": "Qaryat al Anwar", "name:en": "Qaryat al Anwar", "name:fr": "Qaryat al Anwar", "place": "village"}}, {"type": "node", "id": 2489332261, "lat": 34.219867, "lon": 45.241257, "tags": {"alt_name": "\u0633\u064a\u062f \u0625\u0628\u0631\u0627\u0647\u064a\u0645 \u0627\u0644\u0646\u0639\u064a\u0645\u064a", "int_name": "Sayyid Ibr\u0101h\u012bm an Na\u012bm\u012b, \u0633\u064a\u062f \u0627\u0628\u0631\u0627\u0647\u064a\u0645 \u0627\u0644\u0646\u0639\u064a\u0645\u064a, Sayyid Ibrahim an Naimi, \u0633\u064a\u062f \u0627\u0628\u0631\u0627\u0647\u064a\u0645 \u0627\u0644\u0646\u0639\u064a\u0645\u064a", "name": "\u0633\u064a\u062f \u0625\u0628\u0631\u0627\u0647\u064a\u0645 \u0627\u0644\u0646\u0639\u064a\u0645\u064a", "name:ar": "\u0633\u064a\u062f \u0625\u0628\u0631\u0627\u0647\u064a\u0645 \u0627\u0644\u0646\u0639\u064a\u0645\u064a", "name:ar1": "\u0633\u064a\u062f \u0625\u0628\u0631\u0627\u0647\u064a\u0645 \u0627\u0644\u0646\u0639\u064a\u0645\u064a", "name:de": "Sayyid Ibrahim an Naimi", "name:en": "Sayyid Ibrahim an Naimi", "name:fr": "Sayyid Ibrahim an Naimi", "place": "village"}}, {"type": "node", "id": 2489332277, "lat": 34.2336742, "lon": 45.0870443, "tags": {"alt_name": "\u0637\u064a\u0631\u0629", "int_name": "\u0162ayrah, \u0637\u064a\u0631\u0629, Tayrah, \u0637\u064a\u0631\u0629", "name": "\u0637\u064a\u0631\u0629", "name:ar": "\u0637\u0646\u064a\u0631\u0629", "name:ar1": "\u0637\u064a\u0631\u0629", "name:de": "Tayrah", "name:en": "Tayrah", "name:fr": "Tayrah", "place": "village"}}, {"type": "node", "id": 3295413908, "lat": 34.2431521, "lon": 45.1213361}, {"type": "node", "id": 3295413909, "lat": 34.2420692, "lon": 45.1222968}, {"type": "node", "id": 3295413910, "lat": 34.2417323, "lon": 45.1221512}, {"type": "node", "id": 3295413911, "lat": 34.2416601, "lon": 45.1216127}, {"type": "node", "id": 3295413912, "lat": 34.241227, "lon": 45.1213216}, {"type": "node", "id": 3295413913, "lat": 34.2405652, "lon": 45.1215981}, {"type": "node", "id": 3295413914, "lat": 34.240854, "lon": 45.1222094}, {"type": "node", "id": 3295413915, "lat": 34.2406855, "lon": 45.122355}, {"type": "node", "id": 3295413916, "lat": 34.2399756, "lon": 45.1223113}, {"type": "node", "id": 3295413917, "lat": 34.2398072, "lon": 45.1228644}, {"type": "node", "id": 3295413918, "lat": 34.2406133, "lon": 45.1233447}, {"type": "node", "id": 3295413919, "lat": 34.2403607, "lon": 45.1237522}, {"type": "node", "id": 3295413920, "lat": 34.2389408, "lon": 45.123694}, {"type": "node", "id": 3295413921, "lat": 34.2388927, "lon": 45.1241161}, {"type": "node", "id": 3295413922, "lat": 34.2393379, "lon": 45.1241743}, {"type": "node", "id": 3295413923, "lat": 34.2401922, "lon": 45.1254406}, {"type": "node", "id": 3295413924, "lat": 34.2406013, "lon": 45.1253096}, {"type": "node", "id": 3295413925, "lat": 34.2404088, "lon": 45.1245673}, {"type": "node", "id": 3295413926, "lat": 34.2405772, "lon": 45.1241161}, {"type": "node", "id": 3295413927, "lat": 34.240878, "lon": 45.1241743}, {"type": "node", "id": 3295413928, "lat": 34.2410465, "lon": 45.1243635}, {"type": "node", "id": 3295413929, "lat": 34.2412992, "lon": 45.1238978}, {"type": "node", "id": 3295413930, "lat": 34.2413232, "lon": 45.123432}, {"type": "node", "id": 3295413931, "lat": 34.2418647, "lon": 45.1234611}, {"type": "node", "id": 3295413932, "lat": 34.2417443, "lon": 45.122748}, {"type": "node", "id": 3295413933, "lat": 34.2421414, "lon": 45.1225005}, {"type": "node", "id": 3295413934, "lat": 34.2424663, "lon": 45.1229663}, {"type": "node", "id": 3295413935, "lat": 34.2437657, "lon": 45.1220639}, {"type": "node", "id": 3295413998, "lat": 34.2461732, "lon": 45.1245957}, {"type": "node", "id": 3295413999, "lat": 34.2463631, "lon": 45.1248961}, {"type": "node", "id": 3295414000, "lat": 34.2459103, "lon": 45.1257797}, {"type": "node", "id": 3295414005, "lat": 34.2449169, "lon": 45.1267694}, {"type": "node", "id": 3295414012, "lat": 34.2447197, "lon": 45.1262215}, {"type": "node", "id": 3295414013, "lat": 34.2452456, "lon": 45.1252495}, {"type": "node", "id": 3300955867, "lat": 34.2963874, "lon": 45.0998952}, {"type": "node", "id": 3300955868, "lat": 34.2964081, "lon": 45.1001086}, {"type": "node", "id": 3300955869, "lat": 34.2968023, "lon": 45.0996189}, {"type": "node", "id": 3300955870, "lat": 34.297072, "lon": 45.0990162}, {"type": "node", "id": 3300955871, "lat": 34.2971447, "lon": 45.0972205}, {"type": "node", "id": 3300955872, "lat": 34.297155, "lon": 45.098539}, {"type": "node", "id": 3300955873, "lat": 34.297238, "lon": 45.0970196}, {"type": "node", "id": 3300955874, "lat": 34.2973003, "lon": 45.0981497}, {"type": "node", "id": 3300955875, "lat": 34.2973521, "lon": 45.0987399}, {"type": "node", "id": 3300955876, "lat": 34.29757, "lon": 45.1011258}, {"type": "node", "id": 3300955877, "lat": 34.2975804, "lon": 45.0983004}, {"type": "node", "id": 3300955878, "lat": 34.2977152, "lon": 45.0969442}, {"type": "node", "id": 3300955879, "lat": 34.2977671, "lon": 45.1013769}, {"type": "node", "id": 3300955880, "lat": 34.2978293, "lon": 45.0979739}, {"type": "node", "id": 3300955881, "lat": 34.2978605, "lon": 45.0967684}, {"type": "node", "id": 3300955882, "lat": 34.2979849, "lon": 45.1012388}, {"type": "node", "id": 3300955883, "lat": 34.2980264, "lon": 45.0976851}, {"type": "node", "id": 3300955884, "lat": 34.2982339, "lon": 45.0974842}, {"type": "node", "id": 3300955885, "lat": 34.2982443, "lon": 45.1021554}, {"type": "node", "id": 3300955886, "lat": 34.2983065, "lon": 45.1020424}, {"type": "node", "id": 3300955887, "lat": 34.298348, "lon": 45.1013016}, {"type": "node", "id": 3300955888, "lat": 34.2984518, "lon": 45.0972456}, {"type": "node", "id": 3300955889, "lat": 34.2984932, "lon": 45.1015527}, {"type": "node", "id": 3300955890, "lat": 34.29868, "lon": 45.1025447}, {"type": "node", "id": 3300955891, "lat": 34.2988667, "lon": 45.0975093}, {"type": "node", "id": 3300955892, "lat": 34.2988667, "lon": 45.102507}, {"type": "node", "id": 3300955894, "lat": 34.2989743, "lon": 45.1023766}, {"type": "node", "id": 3300955895, "lat": 34.2990676, "lon": 45.1023795}, {"type": "node", "id": 3300955897, "lat": 34.2993231, "lon": 45.0967308}, {"type": "node", "id": 3300955899, "lat": 34.2997588, "lon": 45.0968187}, {"type": "node", "id": 3300955901, "lat": 34.3001219, "lon": 45.0966429}, {"type": "node", "id": 3300955903, "lat": 34.3004123, "lon": 45.0971954}, {"type": "node", "id": 3300955905, "lat": 34.3005265, "lon": 45.0959522}, {"type": "node", "id": 3300955907, "lat": 34.3008065, "lon": 45.0963038}, {"type": "node", "id": 3300955909, "lat": 34.3009791, "lon": 45.0974777}, {"type": "node", "id": 3300955911, "lat": 34.3010754, "lon": 45.0975256}, {"type": "node", "id": 3300955913, "lat": 34.3014073, "lon": 45.0976909}, {"type": "node", "id": 3301016504, "lat": 34.2432684, "lon": 45.1258422}, {"type": "node", "id": 3301016505, "lat": 34.2437043, "lon": 45.1269096}, {"type": "node", "id": 3301016506, "lat": 34.2440677, "lon": 45.1254529}, {"type": "node", "id": 3301016507, "lat": 34.2442286, "lon": 45.1259301}, {"type": "node", "id": 3301016508, "lat": 34.2443427, "lon": 45.1273491}, {"type": "node", "id": 3301016509, "lat": 34.2444362, "lon": 45.127663}, {"type": "node", "id": 3301016510, "lat": 34.2446957, "lon": 45.1270289}, {"type": "node", "id": 3301016511, "lat": 34.2447787, "lon": 45.1277886}, {"type": "node", "id": 3301016512, "lat": 34.2448685, "lon": 45.1263897}, {"type": "node", "id": 3301016513, "lat": 34.2449915, "lon": 45.1274119}, {"type": "node", "id": 3301016514, "lat": 34.2450079, "lon": 45.1266427}, {"type": "node", "id": 3301016515, "lat": 34.2450446, "lon": 45.1269002}, {"type": "node", "id": 3301016516, "lat": 34.245129, "lon": 45.1261943}, {"type": "node", "id": 3301016517, "lat": 34.2453603, "lon": 45.1260034}, {"type": "node", "id": 3301016518, "lat": 34.2453639, "lon": 45.1268647}, {"type": "node", "id": 3301016519, "lat": 34.2455291, "lon": 45.12603}, {"type": "node", "id": 3301016520, "lat": 34.2455364, "lon": 45.1268336}, {"type": "node", "id": 3301016521, "lat": 34.2458117, "lon": 45.1264607}, {"type": "node", "id": 3301016522, "lat": 34.2459511, "lon": 45.1267137}, {"type": "node", "id": 3301016523, "lat": 34.2461052, "lon": 45.1259324}, {"type": "node", "id": 3301016524, "lat": 34.2461713, "lon": 45.1266605}, {"type": "node", "id": 3301016525, "lat": 34.2463805, "lon": 45.1264119}, {"type": "node", "id": 3301016526, "lat": 34.2463842, "lon": 45.1262875}, {"type": "node", "id": 3328696718, "lat": 34.2978438, "lon": 45.0967887}, {"type": "node", "id": 3359190548, "lat": 34.3255417, "lon": 45.1826007}, {"type": "node", "id": 3359190549, "lat": 34.3257385, "lon": 45.1820712}, {"type": "node", "id": 3359190550, "lat": 34.3275914, "lon": 45.1817072}, {"type": "node", "id": 3359190551, "lat": 34.3276242, "lon": 45.1829978}, {"type": "node", "id": 3359190552, "lat": 34.3278866, "lon": 45.1845267}, {"type": "node", "id": 3359190554, "lat": 34.3286627, "lon": 45.1849437}, {"type": "node", "id": 3359190562, "lat": 34.329816, "lon": 45.1837457}, {"type": "node", "id": 3359190567, "lat": 34.3300947, "lon": 45.1820249}, {"type": "node", "id": 3521161998, "lat": 34.0325312, "lon": 45.4499738, "tags": {"name": "Barchoqa", "name:en": "Barchoqa", "name:fa": "Barchoqa", "place": "village", "source:name": "GNS"}}, {"type": "node", "id": 3521162045, "lat": 33.993356, "lon": 45.497316, "tags": {"alt_name": "Naft Khaneh;Naft-i-Shah;Naftshahr;Naft Kaneh;Naft-e Shah;Naft Shah", "alt_name:en": "Naft Khaneh;Naft-i-Shah;Naftshahr;Naft Kaneh;Naft-e Shah;Naft Shah", "is_in:country": "Iran", "is_in:state": "Kermanshah", "name": "\u0646\u0641\u062a \u0634\u0647\u0631", "name:en": "Naft Shahr", "place": "town", "source:name": "GNS", "wikidata": "Q6958218", "wikipedia": "en:Naft shahr"}}, {"type": "node", "id": 7266388498, "lat": 33.9323129, "lon": 45.1875844, "tags": {"name": "\u0642\u0631\u064a\u0629 \u0627\u0644\u0646\u0648\u0631 \u0645\u064a\u0627\u062d", "place": "village"}}, {"type": "node", "id": 7299914952, "lat": 33.9341471, "lon": 45.2046442, "tags": {"name": "\u0642\u0631\u064a\u0629 \u0627\u0644\u062d\u0648\u062f", "place": "village"}}, {"type": "node", "id": 7803755385, "lat": 34.3278416, "lon": 45.3874402, "tags": {"name": "\u0643\u0627\u0631\u064a\u0632 \u0628\u0627\u0646", "place": "village"}}, {"type": "node", "id": 8020016323, "lat": 34.1710028, "lon": 45.3543156}, {"type": "node", "id": 8020016324, "lat": 34.1696925, "lon": 45.350192}, {"type": "node", "id": 8020016325, "lat": 34.1680425, "lon": 45.3511069}, {"type": "node", "id": 8020016326, "lat": 34.1676518, "lon": 45.350017}, {"type": "node", "id": 8020016327, "lat": 34.1661359, "lon": 45.3507488}, {"type": "node", "id": 8020016328, "lat": 34.1680296, "lon": 45.3559386}, {"type": "node", "id": 8020016370, "lat": 34.1706418, "lon": 45.3531794}, {"type": "node", "id": 8020019744, "lat": 34.1691534, "lon": 45.350491}, {"type": "node", "id": 9904709373, "lat": 34.168881, "lon": 45.3532946, "tags": {"name": "\u06a9\u0627\u0646\u06cc \u0645\u0627\u0633\u06cc \u06af\u06d5\u0648\u0631\u06d5", "name:ckb": "\u06a9\u0627\u0646\u06cc \u0645\u0627\u0633\u06cc \u06af\u06d5\u0648\u0631\u06d5", "place": "village"}}, {"type": "node", "id": 9964943624, "lat": 34.3221313, "lon": 45.3819783, "tags": {"name": "7\u0646\u064a\u0633\u0627\u0646", "place": "village"}}, {"type": "way", "id": 322760697, "nodes": [3295413908, 3295413909, 3295413910, 3295413911, 3295413912, 3295413913, 3295413914, 3295413915, 3295413916, 3295413917, 3295413918, 3295413919, 3295413920, 3295413921, 3295413922, 3295413923, 3295413924, 3295413925, 3295413926, 3295413927, 3295413928, 3295413929, 3295413930, 3295413931, 3295413932, 3295413933, 3295413934, 3295413935, 3295413908], "tags": {"int_name": "Qaryat \u1e28am\u012bd al \u1e28asan, \u0642\u0631\u064a\u0629 \u062d\u0645\u064a\u062f \u0627\u0644\u062d\u0633\u0646, Qaryat Hamid al Hasan, \u0642\u0631\u064a\u0629 \u062d\u0645\u064a\u062f \u0627\u0644\u062d\u0633\u0646", "landuse": "residential", "name": "\u0642\u0631\u064a\u0629 \u062d\u0645\u064a\u062f \u0627\u0644\u062d\u0633\u0646", "name:ar": "\u0642\u0631\u064a\u0629 \u062d\u0645\u064a\u062f \u0627\u0644\u062d\u0633\u0646", "name:ar1": "\u0642\u0631\u064a\u0629 \u062d\u0645\u064a\u062f \u0627\u0644\u062d\u0633\u0646", "name:de": "Qaryat Hamid al Hasan", "name:en": "Qaryat Hamid al Hasan", "name:fr": "Qaryat Hamid al Hasan", "place": "village"}}, {"type": "way", "id": 323295877, "nodes": [3300955913, 3300955911, 3300955909, 3300955903, 3300955907, 3300955905, 3300955901, 3300955899, 3300955897, 3300955891, 3300955888, 3300955881, 3328696718, 3300955878, 3300955884, 3300955883, 3300955873, 3300955871, 3300955880, 3300955877, 3300955874, 3300955872, 3300955875, 3300955870, 3300955869, 3300955867, 3300955868, 3300955876, 3300955879, 3300955882, 3300955887, 3300955889, 3300955886, 3300955885, 3300955890, 3300955892, 3300955894, 3300955895], "tags": {"int_name": "B\u0101hiza, B\u0101hizah, B\u0101h\u012bzah al Kab\u012brah, \u0628\u0647\u064a\u0632\u0629 \u0627\u0644\u0643\u0628\u064a\u0631\u0629, Bahiza, Bahizah, Bahizah al Kabirah, \u0628\u0647\u064a\u0632\u0629 \u0627\u0644\u0643\u0628\u064a\u0631\u0629", "name": "\u0628\u0647\u064a\u0632\u0629 \u0627\u0644\u0643\u0628\u064a\u0631\u0629", "name:ar": "\u0628\u0647\u064a\u0632\u0629 \u0627\u0644\u0643\u0628\u064a\u0631\u0629", "name:ar1": "\u0628\u0647\u064a\u0632\u0629 \u0627\u0644\u0643\u0628\u064a\u0631\u0629", "name:de": "Bahiza", "name:en": "Bahiza", "name:fr": "Bahiza", "place": "village"}}, {"type": "way", "id": 323301400, "nodes": [3295414012, 3301016512, 3301016514, 3295414005, 3301016510, 3301016513, 3301016511, 3301016509, 3301016508, 3301016505, 3301016504, 3301016506, 3301016507, 3295414012], "tags": {"int_name": "A\u1e29mad ar Ra\u1e29\u012bm, \u0627\u062d\u0645\u062f \u0627\u0644\u0631\u062d\u064a\u0645, Ahmad ar Rahim, \u0627\u062d\u0645\u062f \u0627\u0644\u0631\u062d\u064a\u0645", "name": "\u0623\u062d\u0645\u062f \u0627\u0644\u0631\u062d\u064a\u0645", "name:ar": "\u0623\u062d\u0645\u062f \u0627\u0644\u0631\u062d\u064a\u0645", "name:ar1": "\u0623\u062d\u0645\u062f \u0627\u0644\u0631\u062d\u064a\u0645", "name:de": "Ahmad ar Rahim", "name:en": "Ahmad ar Rahim", "name:fr": "Ahmad ar Rahim", "place": "village"}}, {"type": "way", "id": 323301402, "nodes": [3295414000, 3301016523, 3301016526, 3301016525, 3301016524, 3301016522, 3301016521, 3301016520, 3301016518, 3301016515, 3295414005, 3301016514, 3301016512, 3301016516, 3301016517, 3301016519, 3295414000], "tags": {"int_name": "Khal\u012bfah, Khalifah", "name": "\u062e\u0644\u064a\u0641\u0629", "name:ar": "\u062e\u0644\u064a\u0641\u0629", "name:ar1": "\u062e\u0644\u064a\u0641\u0629", "name:de": "Khalifah", "name:en": "Khalifah", "name:fr": "Khalifah", "place": "village"}}, {"type": "way", "id": 323301404, "nodes": [3295414000, 3301016519, 3301016517, 3301016516, 3301016512, 3295414012, 3295414013, 3295413998, 3295413999, 3295414000], "tags": {"int_name": "\u0162abaj, Tabaj", "name": "\u0637\u0628\u062c", "name:ar": "\u0637\u0628\u062c", "name:ar1": "\u0637\u0628\u062c", "name:de": "Tabaj", "name:en": "Tabaj", "name:fr": "Tabaj", "place": "village"}}, {"type": "way", "id": 329094138, "nodes": [3359190567, 3359190562, 3359190554, 3359190552, 3359190551, 3359190548, 3359190549, 3359190550, 3359190567], "tags": {"place": "village"}}, {"type": "way", "id": 860516298, "nodes": [8020016323, 8020016370, 8020016324, 8020019744, 8020016325, 8020016326, 8020016327, 8020016328, 8020016323], "tags": {"landuse": "residential", "name": "\u06a9\u0627\u0646\u06cc \u0645\u0627\u0633\u06cc \u06af\u06d5\u0648\u0631\u06d5", "name:ar": "\u0643\u0627\u0646\u064a \u0645\u0627\u0633\u064a \u0627\u0644\u0643\u0628\u064a\u0631\u0629", "name:ckb": "\u06a9\u0627\u0646\u06cc \u0645\u0627\u0633\u06cc \u06af\u06d5\u0648\u0631\u06d5", "name:de": "Kani Masi gawra", "name:en": "Kani Masi gawra", "name:fr": "Kani Masi gawra", "name:ru": "\u041a\u0430\u043d\u0438-\u041c\u0430\u0441\u0438", "place": "village"}}]}