{"version": 0.6, "generator": "Overpass API 0.7.61.5 4133829e", "osm3s": {"timestamp_osm_base": "2024-03-06T10:45:02Z", "copyright": "The data included in this document is from www.openstreetmap.org. The data is made available under ODbL."}, "elements": [{"type": "node", "id": 3957441347, "lat": 36.0071171, "lon": 44.0296686}, {"type": "node", "id": 3957441348, "lat": 36.0064853, "lon": 44.0298176}, {"type": "node", "id": 3957441349, "lat": 36.0066691, "lon": 44.0312386}, {"type": "node", "id": 4638754391, "lat": 35.7492102, "lon": 44.1426877, "tags": {"amenity": "school", "name": "\u0643\u0648\u0644\u06cc\u0647\u200c\u06ce\u06cc \u0626\u0645\u0627\u0645 \u0626\u0647\u200c\u0639\u0632\u0647\u200c\u0645", "name:ar": "\u06a9\u0644\u06cc\u0629 \u0623\u0645\u0627\u0645 \u0627\u0644\u0627\u0639\u0638\u0645", "name:en": "zanco emam ahzam", "name:ku": "\u0643\u0648\u0644\u06cc\u0647\u200c\u06ce\u06cc \u0626\u0645\u0627\u0645 \u0626\u0647\u200c\u0639\u0632\u0647\u200c\u0645", "name:tr": "\u0130mam b\u00fcy\u00fck Fak\u00fcltesi"}}, {"type": "node", "id": 4977970723, "lat": 35.6719573, "lon": 44.0761947, "tags": {"amenity": "school", "name": "\u0627\u0639\u062f\u0627\u062f\u064a\u0629 \u0627\u0644\u062c\u0648\u0627\u0647\u0631\u064a \u0644\u0644\u0628\u0646\u064a\u0646", "name:ar": "\u0627\u0639\u062f\u0627\u062f\u064a\u0629 \u0627\u0644\u062c\u0648\u0627\u0647\u0631\u064a \u0644\u0644\u0628\u0646\u064a\u0646", "name:ckb": "\u0626\u0627\u0645\u0627\u062f\u06d5\u06cc\u06cc \u062c\u06d5\u0648\u0627\u0647\u06cc\u0631\u06cc \u06a9\u0648\u0695\u0627\u0646", "opening_hours": "Su-Th 09:00-12:00"}}, {"type": "node", "id": 5831923886, "lat": 35.7573495, "lon": 44.1447245, "tags": {"amenity": "school", "name": "\u0633\u0644\u0637\u0627\u0646 \u0623\u0648\u0632\u0628\u0643", "name:tr": "Sultan \u00d6zbek Erkek Lisesi"}}, {"type": "node", "id": 6051791186, "lat": 35.9138549, "lon": 44.490765, "tags": {"amenity": "school", "name": "\u0642\u0648\u0648\u062a\u0627\u0628\u062e\u0627\u0646\u06d5\u06cc  \u0626\u06c6\u0645\u06d5\u0631\u06af\u0648\u0648\u0628\u06d5\u062a", "name:ar": "\u0645\u062f\u0631\u0633\u0629 \u0627\u0648\u0645\u0631\u0643\u0648\u0645\u0628\u062a \u0627\u0628\u062a\u062f\u0627\u0626\u064a", "name:en": "Omergumbat Basic School", "name:ku": "\u0642\u0648\u062a\u0627\u0628\u062e\u0627\u0646\u06d5\u06cc \u0626\u06c6\u0645\u06d5\u0631\u06af\u0648\u0645\u0628\u06d5\u062a"}}, {"type": "node", "id": 6125395838, "lat": 35.8619066, "lon": 44.0099856, "tags": {"addr:city": "\u0647\u06d5\u0648\u0644\u06ce\u0631", "amenity": "school", "name": "\u0642\u0648\u062a\u0627\u0628\u062e\u0627\u0646\u06d5\u06cc \u0628\u0646\u06d5\u0695\u06d5\u062a\u06cc \u0628\u0627\u0634\u062a\u06d5\u067e\u06d5"}}, {"type": "node", "id": 6125889641, "lat": 35.9888399, "lon": 44.0388795}, {"type": "node", "id": 6125889642, "lat": 35.9886055, "lon": 44.0377611}, {"type": "node", "id": 6125889643, "lat": 35.9879501, "lon": 44.0379622}, {"type": "node", "id": 6125889644, "lat": 35.988178, "lon": 44.0390995}, {"type": "node", "id": 6271527485, "lat": 36.0186976, "lon": 44.1121872, "tags": {"addr:city": "\u0647\u06d5\u0648\u0644\u06ce\u0631", "amenity": "school", "name": "\u0645\u062f\u0631\u0633\u06d5 \u067e\u0627\u0644\u0627\u0646\u06cc", "name:en": "Palany", "name:ku": "\u0642\u0648\u062a\u0627\u0628\u062e\u0627\u0646\u06d5\u06cc \u067e\u0627\u06b5\u0627\u0646\u06cc"}}, {"type": "node", "id": 6361367933, "lat": 35.8246061, "lon": 44.0775767, "tags": {"amenity": "school"}}, {"type": "node", "id": 6361399525, "lat": 35.824459, "lon": 44.0777741}, {"type": "node", "id": 6361399526, "lat": 35.8243568, "lon": 44.0771626}, {"type": "node", "id": 6361399527, "lat": 35.8247287, "lon": 44.077058}, {"type": "node", "id": 6361399528, "lat": 35.8248341, "lon": 44.0776776}, {"type": "node", "id": 6361422482, "lat": 35.8295157, "lon": 44.0872959}, {"type": "node", "id": 6361422483, "lat": 35.8294559, "lon": 44.087583}, {"type": "node", "id": 6361422484, "lat": 35.829059, "lon": 44.0874556}, {"type": "node", "id": 6361424885, "lat": 35.8291286, "lon": 44.0871525}, {"type": "node", "id": 6467101848, "lat": 36.0478436, "lon": 44.0635723}, {"type": "node", "id": 6467101849, "lat": 36.0476636, "lon": 44.06295}, {"type": "node", "id": 6467101850, "lat": 36.0470455, "lon": 44.063245}, {"type": "node", "id": 6467101851, "lat": 36.0472407, "lon": 44.063878}, {"type": "node", "id": 6687363586, "lat": 36.0010246, "lon": 44.0340538, "tags": {"addr:city": "\u0647\u06d5\u0648\u0644\u06ce\u0631", "addr:street": "\u0695\u06ce\u06af\u0627\u06cc \u06a9\u06c6\u0646\u06cc \u06a9\u06d5\u0631\u06a9\u0648\u0648\u06a9", "amenity": "school", "name": "\u0645\u062f\u0631\u0633\u0629 \u062f\u0627\u0646\u0629\u0631", "name:en": "Danar School", "name:ku": "\u0642\u0648\u062a\u0627\u0628\u062e\u0627\u0646\u06d5\u06cc \u062f\u0627\u0646\u06d5\u0631"}}, {"type": "node", "id": 7295984585, "lat": 35.7556865, "lon": 44.1417789, "tags": {"amenity": "school", "name": "\u062b\u0627\u0646\u0648\u064a\u0629 \u0644\u0644\u0628\u0646\u064a\u0646", "name:ar": "\u062b\u0627\u0646\u0648\u064a\u0629 \u0644\u0644\u0628\u0646\u064a\u0646", "name:ckb": "\u062f\u0648\u0627\u0646\u0627\u0648\u06d5\u0646\u062f\u06cc \u06a9\u0648\u0695\u0627\u0646"}}, {"type": "node", "id": 7999164185, "lat": 35.7613078, "lon": 44.1336466, "tags": {"addr:country": "IQ", "addr:street": "\u0695\u06ce\u06af\u0627\u06cc \u0647\u06d5\u0648\u0644\u06ce\u0631-\u06a9\u06d5\u0631\u06a9\u0648\u0648\u06a9", "amenity": "school", "name": "\u0645\u062f\u0631\u0633\u0629 \u0628\u064a\u0631\u0645\u0643\u0631\u0648\u0646", "name:en": "piramagrun school", "name:ku": "\u0642\u0648\u062a\u0627\u0628\u062e\u0627\u0646\u06d5\u06cc \u067e\u06cc\u0631\u06d5\u0645\u06d5\u06af\u0631\u0648\u0646"}}, {"type": "node", "id": 8580610817, "lat": 35.9448115, "lon": 44.0385255, "tags": {"addr:city": "\u0647\u06d5\u0648\u0644\u06ce\u0631", "amenity": "school", "name": "\u0642\u0648\u062a\u0627\u0628\u062e\u0627\u0646\u06d5\u06cc \u0628\u06ce\u062e\u06d5\u0648\u06cc \u0628\u0646\u06d5\u0695\u06d5\u062a\u06cc \u062a\u06ce\u06a9\u06d5\u06b5\u0627\u0648"}}, {"type": "node", "id": 8632119819, "lat": 35.6766792, "lon": 44.0710245, "tags": {"amenity": "school", "name": "\u062b\u0627\u0646\u0648\u064a\u0647 \u0639\u0644\u064a \u0627\u0644\u0648\u0631\u062f\u064a \u0627\u0644\u0645\u0633\u0627\u0626\u064a\u0629"}}, {"type": "node", "id": 9620353467, "lat": 35.748309, "lon": 44.1556799}, {"type": "node", "id": 9620353468, "lat": 35.747522, "lon": 44.1552085}, {"type": "node", "id": 9620353469, "lat": 35.7477544, "lon": 44.1546193}, {"type": "node", "id": 9620353470, "lat": 35.7485415, "lon": 44.1550906}, {"type": "node", "id": 9867946265, "lat": 35.9939429, "lon": 44.0369563, "tags": {"addr:city": "\u0647\u06d5\u0648\u0644\u06ce\u0631", "amenity": "school", "name": "\u0642\u0648\u062a\u0627\u0628\u062e\u0627\u0646\u06d5\u06cc \u062f\u06ce\u062f\u06d5\u0648\u0627\u0646\u06cc \u0628\u0646\u06d5\u0631\u0650\u06d5\u062a\u06cc \u062a\u06ce\u06a9\u06d5\u06b5\u0627\u0648", "name:en": "Dedawan Mixed Primary School"}}, {"type": "node", "id": 9926743994, "lat": 35.8846702, "lon": 44.1484535, "tags": {"amenity": "school", "name": "\u0642\u0648\u062a\u0627\u0628\u062e\u0627\u0646\u06d5\u06cc \u06af\u0631\u062f\u06d5\u0633\u06c6\u0631", "name:en": "Grda sor School"}}, {"type": "node", "id": 9931282724, "lat": 35.9933871, "lon": 44.039053, "tags": {"addr:city": "\u0647\u06d5\u0648\u0644\u06ce\u0631", "addr:street": "\u0695\u06ce\u06af\u0627\u06cc \u06a9\u06c6\u0646\u06cc \u06a9\u06d5\u0631\u06a9\u0648\u0648\u06a9", "amenity": "school", "name": "\u0628\u0627\u062e\u0686\u06d5\u06cc \u0645\u0646\u062f\u0627\u06b5\u0627\u0646\u06cc \u06cc\u06d5\u06a9\u06af\u0631\u062a\u0646", "name:en": "Unification Kindergarten"}}, {"type": "node", "id": 9975986742, "lat": 36.0072751, "lon": 44.0310777}, {"type": "node", "id": 9997261573, "lat": 35.6857666, "lon": 44.3916937}, {"type": "node", "id": 9997261574, "lat": 35.6854456, "lon": 44.3918704}, {"type": "node", "id": 9997261575, "lat": 35.685222, "lon": 44.3912735}, {"type": "node", "id": 9997261576, "lat": 35.6855477, "lon": 44.3910912}, {"type": "node", "id": 10737281605, "lat": 36.0364449, "lon": 44.2243299, "tags": {"amenity": "school", "name": "\u0642\u0648\u062a\u0627\u0628\u062e\u0627\u0646\u06d5\u06cc \u0633\u06d5\u0631\u0645\u06d5\u0632\u0631\u0627 \u0628\u0646\u06d5\u0695\u06d5\u062a\u06cc \u062a\u06ce\u06a9\u06d5\u06b5\u0627\u0648", "opening_hours": "Fr-We 08:00-11:30"}}, {"type": "node", "id": 11362666469, "lat": 35.7579912, "lon": 44.1504336, "tags": {"addr:postcode": "1401", "addr:street": "\u0627\u0631\u0628\u064a\u0644 - \u0643\u0631\u0643\u0648\u0643", "amenity": "school", "name": "\u0645\u062a\u0648\u0633\u0637\u0629 \u0634\u064a\u062e \u0645\u062d\u0645\u0648\u062f \u0627\u0644\u062d\u0641\u064a\u062f \u0644\u0644\u0628\u0646\u064a\u0646", "name:en": "intermediate sheikh mahmud hafid Boys", "name:ku": "\u0646\u0627\u0648\u06d5\u0646\u062f\u06cc \u0634\u06ce\u062e \u0645\u062d\u0645\u0648\u062f\u06cc \u062d\u06d5\u0641\u06cc\u062f \u06a9\u0648\u0695\u0627\u0646", "opening_hours": "Sa-Su 12:15-16:20; Mo-We 08:15-12:20", "phone": "075-151-24090", "website": "https://www.facebook.com/profile.php?id=100029745573841&mibextid=ZbWKwL"}}, {"type": "node", "id": 11456166337, "lat": 35.734435, "lon": 44.4678809}, {"type": "node", "id": 11456166338, "lat": 35.7340119, "lon": 44.4681518}, {"type": "node", "id": 11456166339, "lat": 35.733692, "lon": 44.4675895}, {"type": "node", "id": 11456166340, "lat": 35.7336965, "lon": 44.4672888}, {"type": "node", "id": 11456166341, "lat": 35.7339604, "lon": 44.4670646}, {"type": "node", "id": 11456166342, "lat": 35.7343971, "lon": 44.4677707}, {"type": "node", "id": 11694837092, "lat": 35.9647487, "lon": 44.0745884, "tags": {"amenity": "school", "name": "\u0642\u0648\u062a\u0627\u0628\u062e\u0627\u0646\u06d5\u06cc \u0647\u06d5\u0645\u0632\u06d5\u06a9\u06c6\u0631"}}, {"type": "way", "id": 392529640, "nodes": [9975986742, 3957441347, 3957441348, 3957441349, 9975986742], "tags": {"amenity": "school", "denomination": "sunni", "grades": "1-9", "name": "Qushtapa elementary school", "name:ckb": "\u0642\u0648\u062a\u0627\u0628\u062e\u0627\u0646\u06d5\u06cc \u0642\u0648\u0634\u062a\u06d5\u067e\u06d5\u06cc \u0628\u0646\u06d5\u0695\u06d5\u062a\u06cc", "religion": "muslim"}}, {"type": "way", "id": 653675750, "nodes": [6125889641, 6125889642, 6125889643, 6125889644, 6125889641], "tags": {"amenity": "school"}}, {"type": "way", "id": 679345761, "nodes": [6361399525, 6361399526, 6361399527, 6361399528, 6361399525], "tags": {"amenity": "school"}}, {"type": "way", "id": 679348036, "nodes": [6361422482, 6361422483, 6361422484, 6361424885, 6361422482], "tags": {"addr:city": "\u0647\u06d5\u0648\u0644\u06ce\u0631", "amenity": "school"}}, {"type": "way", "id": 689381613, "nodes": [6467101848, 6467101849, 6467101850, 6467101851, 6467101848], "tags": {"addr:city": "\u0647\u06d5\u0648\u0644\u06ce\u0631", "amenity": "school"}}, {"type": "way", "id": 1046111729, "nodes": [9620353467, 9620353468, 9620353469, 9620353470, 9620353467], "tags": {"amenity": "school", "name": "\u0626\u0627\u0645\u0627\u062f\u06d5\u06cc\u06cc \u0633\u06d5\u0631\u0632\u06ce\u06cc \u062a\u06ce\u06a9\u06d5\u06b5"}}, {"type": "way", "id": 1091581264, "nodes": [9997261573, 9997261574, 9997261575, 9997261576, 9997261573], "tags": {"amenity": "school"}}, {"type": "way", "id": 1234352831, "nodes": [11456166337, 11456166338, 11456166339, 11456166340, 11456166341, 11456166342, 11456166337], "tags": {"amenity": "school", "name:ckb": "\u0626\u0627\u0645\u0627\u062f\u06d5\u06cc\u06cc \u0634\u0648\u0627\u0646\u06cc \u062a\u06ce\u06a9\u06d5\u06b5"}}]}