{"version": 0.6, "generator": "Overpass API 0.7.61.5 4133829e", "osm3s": {"timestamp_osm_base": "2024-03-06T10:46:01Z", "copyright": "The data included in this document is from www.openstreetmap.org. The data is made available under ODbL."}, "elements": [{"type": "node", "id": 2485138260, "lat": 33.435593, "lon": 43.326759, "tags": {"alt_name": "\u0645\u062f\u0631\u0633\u0629 \u0627\u0644\u0625\u0631\u062a\u0642\u0627\u0621", "amenity": "school", "int_name": "Madrasat al Irtiq\u0101, \u0645\u062f\u0631\u0633\u0629 \u0627\u0644\u0627\u0631\u062a\u0642\u0627\u0621, Madrasat al Irtiqa, \u0645\u062f\u0631\u0633\u0629 \u0627\u0644\u0627\u0631\u062a\u0642\u0627\u0621", "name": "\u0645\u062f\u0631\u0633\u0629 \u0627\u0644\u0625\u0631\u062a\u0642\u0627\u0621", "name:ar": "\u0645\u062f\u0631\u0633\u0629 \u0627\u0644\u0625\u0631\u062a\u0642\u0627\u0621", "name:ar1": "\u0645\u062f\u0631\u0633\u0629 \u0627\u0644\u0625\u0631\u062a\u0642\u0627\u0621", "name:de": "Madrasat al Irtiqa", "name:en": "Madrasat al Irtiqa", "name:fr": "Madrasat al Irtiqa"}}, {"type": "node", "id": 2485138266, "lat": 33.431745, "lon": 43.342121, "tags": {"alt_name": "\u0645\u062f\u0631\u0633\u0629 \u0627\u0644\u0648\u0641\u0627\u0621", "amenity": "school", "int_name": "Madrasat al Waf\u0101, \u0645\u062f\u0631\u0633\u0629 \u0627\u0644\u0648\u0641\u0627\u0621, Madrasat al Wafa, \u0645\u062f\u0631\u0633\u0629 \u0627\u0644\u0648\u0641\u0627\u0621", "name": "\u0645\u062f\u0631\u0633\u0629 \u0627\u0644\u0648\u0641\u0627\u0621", "name:ar": "\u0645\u062f\u0631\u0633\u0629 \u0627\u0644\u0648\u0641\u0627\u0621", "name:ar1": "\u0645\u062f\u0631\u0633\u0629 \u0627\u0644\u0648\u0641\u0627\u0621", "name:de": "Madrasat al Wafa", "name:en": "Madrasat al Wafa", "name:fr": "Madrasat al Wafa"}}, {"type": "node", "id": 2485138433, "lat": 33.4250372, "lon": 43.2945984, "tags": {"alt_name": "\u0625\u0639\u062f\u0627\u062f\u064a\u0629 \u0627\u0644\u0631\u0645\u0627\u062f\u064a", "amenity": "school", "int_name": "Id\u0101d\u012byat ar Ram\u0101d\u012b, Idadiyat ar Ramadi", "name": "\u0625\u0639\u062f\u0627\u062f\u064a\u0629 \u0627\u0644\u0631\u0645\u0627\u062f\u064a", "name:ar": "\u0625\u0639\u062f\u0627\u062f\u064a\u0629 \u0627\u0644\u0631\u0645\u0627\u062f\u064a", "name:ar1": "\u0625\u0639\u062f\u0627\u062f\u064a\u0629 \u0627\u0644\u0631\u0645\u0627\u062f\u064a", "name:de": "Idadiyat ar Ramadi", "name:en": "Idadiyat ar Ramadi", "name:fr": "Idadiyat ar Ramadi"}}, {"type": "node", "id": 2485149793, "lat": 33.43248, "lon": 43.375471, "tags": {"alt_name": "\u0645\u062f\u0631\u0633\u0629 \u0627\u0644\u0634\u0647\u064a\u062f \u0627\u0644\u0635\u0628\u0627\u063a \u0644\u0644\u0628\u0646\u0627\u062a", "amenity": "school", "int_name": "Madrasat ash Shah\u012bd a\u015f \u015eabb\u0101gh li al Ban\u0101t, \u0645\u062f\u0631\u0633\u0629 \u0627\u0644\u0634\u0647\u064a\u062f \u0627\u0644\u0635\u0628\u0627\u063a \u0644\u0644\u0628\u0646\u0627\u062a, Madrasat ash Shahid as Sabbagh li al Banat, \u0645\u062f\u0631\u0633\u0629 \u0627\u0644\u0634\u0647\u064a\u062f \u0627\u0644\u0635\u0628\u0627\u063a \u0644\u0644\u0628\u0646\u0627\u062a", "name": "\u0645\u062f\u0631\u0633\u0629 \u0627\u0644\u0634\u0647\u064a\u062f \u0627\u0644\u0635\u0628\u0627\u063a \u0644\u0644\u0628\u0646\u0627\u062a", "name:ar": "\u0645\u062f\u0631\u0633\u0629 \u0627\u0644\u0634\u0647\u064a\u062f \u0627\u0644\u0635\u0628\u0627\u063a \u0644\u0644\u0628\u0646\u0627\u062a", "name:ar1": "\u0645\u062f\u0631\u0633\u0629 \u0627\u0644\u0634\u0647\u064a\u062f \u0627\u0644\u0635\u0628\u0627\u063a \u0644\u0644\u0628\u0646\u0627\u062a", "name:de": "Madrasat ash Shahid as Sabbagh li al Banat", "name:en": "Madrasat ash Shahid as Sabbagh li al Banat", "name:fr": "Madrasat ash Shahid as Sabbagh li al Banat"}}, {"type": "node", "id": 2485151854, "lat": 33.439501, "lon": 43.415023, "tags": {"alt_name": "\u0645\u062f\u0631\u0633\u0629 \u0627\u0644\u0645\u062d\u0645\u0631\u0629", "amenity": "school", "int_name": "Madrasat al Mu\u1e29amarah, \u0645\u062f\u0631\u0633\u0629 \u0627\u0644\u0645\u062d\u0645\u0631\u0629, Madrasat al Muhamarah, \u0645\u062f\u0631\u0633\u0629 \u0627\u0644\u0645\u062d\u0645\u0631\u0629", "name": "\u0645\u062f\u0631\u0633\u0629 \u0627\u0644\u0645\u062d\u0645\u0631\u0629", "name:ar": "\u0645\u062f\u0631\u0633\u0629 \u0627\u0644\u0645\u062d\u0645\u0631\u0629", "name:ar1": "\u0645\u062f\u0631\u0633\u0629 \u0627\u0644\u0645\u062d\u0645\u0631\u0629", "name:de": "Madrasat al Muhamarah", "name:en": "Madrasat al Muhamarah", "name:fr": "Madrasat al Muhamarah"}}, {"type": "node", "id": 2485151862, "lat": 33.4254576, "lon": 43.4010149, "tags": {"alt_name": "\u0645\u062f\u0631\u0633\u0629 \u0627\u0644\u0634\u0647\u064a\u062f \u0627\u0644\u0635\u0628\u0627\u063a \u0644\u0644\u0628\u0646\u064a\u0646", "amenity": "school", "int_name": "Madrasat ash Shah\u012bd a\u015f \u015eabb\u0101gh li al Ban\u012bn, \u0645\u062f\u0631\u0633\u0629 \u0627\u0644\u0634\u0647\u064a\u062f \u0627\u0644\u0635\u0628\u0627\u063a \u0644\u0644\u0628\u0646\u064a\u0646, Madrasat ash Shahid as Sabbagh li al Banin, \u0645\u062f\u0631\u0633\u0629 \u0627\u0644\u0634\u0647\u064a\u062f \u0627\u0644\u0635\u0628\u0627\u063a \u0644\u0644\u0628\u0646\u064a\u0646", "name": "\u0645\u062f\u0631\u0633\u0629 \u0627\u0644\u0634\u0647\u064a\u062f \u0627\u0644\u0635\u0628\u0627\u063a \u0644\u0644\u0628\u0646\u064a\u0646", "name:ar": "\u0645\u062f\u0631\u0633\u0629 \u0627\u0644\u0634\u0647\u064a\u062f \u0627\u0644\u0635\u0628\u0627\u063a \u0644\u0644\u0628\u0646\u064a\u0646", "name:ar1": "\u0645\u062f\u0631\u0633\u0629 \u0627\u0644\u0634\u0647\u064a\u062f \u0627\u0644\u0635\u0628\u0627\u063a \u0644\u0644\u0628\u0646\u064a\u0646", "name:de": "Madrasat ash Shahid as Sabbagh li al Banin", "name:en": "Madrasat ash Shahid as Sabbagh li al Banin", "name:fr": "Madrasat ash Shahid as Sabbagh li al Banin"}}, {"type": "node", "id": 2485153154, "lat": 33.431988, "lon": 43.427255, "tags": {"alt_name": "\u0645\u062f\u0631\u0633\u0629 \u0642\u0631\u0637\u0628\u0629", "amenity": "school", "int_name": "Madrasat Qur\u0163ubah, \u0645\u062f\u0631\u0633\u0629 \u0642\u0631\u0637\u0628\u0629, Madrasat Qurtubah, \u0645\u062f\u0631\u0633\u0629 \u0642\u0631\u0637\u0628\u0629", "name": "\u0645\u062f\u0631\u0633\u0629 \u0642\u0631\u0637\u0628\u0629", "name:ar": "\u0645\u062f\u0631\u0633\u0629 \u0642\u0631\u0637\u0628\u0629", "name:ar1": "\u0645\u062f\u0631\u0633\u0629 \u0642\u0631\u0637\u0628\u0629", "name:de": "Madrasat Qurtubah", "name:en": "Madrasat Qurtubah", "name:fr": "Madrasat Qurtubah"}}, {"type": "node", "id": 2485156221, "lat": 33.3990896, "lon": 43.4872401, "tags": {"alt_name": "\u0645\u062f\u0631\u0633\u0629 \u0622\u063a\u0627\u062f\u064a\u0631", "amenity": "school", "int_name": "Madrasat Agh\u0101d\u012br, Madrasat Aghadir", "name": "\u0645\u062f\u0631\u0633\u0629 \u0622\u063a\u0627\u062f\u064a\u0631", "name:ar": "\u0645\u062f\u0631\u0633\u0629 \u0622\u063a\u0627\u062f\u064a\u0631", "name:ar1": "\u0645\u062f\u0631\u0633\u0629 \u0622\u063a\u0627\u062f\u064a\u0631", "name:de": "Madrasat Aghadir", "name:en": "Madrasat Aghadir", "name:fr": "Madrasat Aghadir"}}, {"type": "node", "id": 2485156235, "lat": 33.435485, "lon": 43.478483, "tags": {"alt_name": "\u0645\u062f\u0631\u0633\u0629 \u0627\u0644\u0639\u0645\u0644 \u0627\u0644\u0634\u0639\u0628\u064a", "amenity": "school", "int_name": "Madrasat al Amal ash Shab\u012b, \u0645\u062f\u0631\u0633\u0629 \u0627\u0644\u0639\u0645\u0644 \u0627\u0644\u0634\u0639\u0628\u064a, Madrasat al Amal ash Shabi, \u0645\u062f\u0631\u0633\u0629 \u0627\u0644\u0639\u0645\u0644 \u0627\u0644\u0634\u0639\u0628\u064a", "name": "\u0645\u062f\u0631\u0633\u0629 \u0627\u0644\u0639\u0645\u0644 \u0627\u0644\u0634\u0639\u0628\u064a", "name:ar": "\u0645\u062f\u0631\u0633\u0629 \u0627\u0644\u0639\u0645\u0644 \u0627\u0644\u0634\u0639\u0628\u064a", "name:ar1": "\u0645\u062f\u0631\u0633\u0629 \u0627\u0644\u0639\u0645\u0644 \u0627\u0644\u0634\u0639\u0628\u064a", "name:de": "Madrasat al Amal ash Shabi", "name:en": "Madrasat al Amal ash Shabi", "name:fr": "Madrasat al Amal ash Shabi"}}, {"type": "node", "id": 2485156245, "lat": 33.4089943, "lon": 43.4471531, "tags": {"alt_name": "\u0645\u062f\u0631\u0633\u0629 \u0627\u0644\u0645\u0642\u0627\u0635\u062f", "amenity": "school", "int_name": "Madrasat al Maq\u0101\u015fid, \u0645\u062f\u0631\u0633\u0629 \u0627\u0644\u0645\u0642\u0627\u0635\u062f, Madrasat al Maqasid, \u0645\u062f\u0631\u0633\u0629 \u0627\u0644\u0645\u0642\u0627\u0635\u062f", "name": "\u0645\u062f\u0631\u0633\u0629 \u0627\u0644\u0645\u0642\u0627\u0635\u062f \u0627\u0644\u0627\u0628\u062a\u062f\u0627\u0626\u064a\u0629 \u0644\u0644\u0628\u0646\u064a\u0646", "name:ar": "\u0645\u062f\u0631\u0633\u0629 \u0627\u0644\u0645\u0642\u0627\u0635\u062f", "name:ar1": "\u0645\u062f\u0631\u0633\u0629 \u0627\u0644\u0645\u0642\u0627\u0635\u062f", "name:de": "Madrasat al Maqasid", "name:en": "Madrasat al Maqasid", "name:fr": "Madrasat al Maqasid"}}, {"type": "node", "id": 2485156263, "lat": 33.422637, "lon": 43.437735, "tags": {"alt_name": "\u0645\u062f\u0631\u0633\u0629 \u0627\u0644\u064a\u0642\u0638\u0629", "amenity": "school", "int_name": "Madrasat al Yaqz\u0327ah, \u0645\u062f\u0631\u0633\u0629 \u0627\u0644\u064a\u0642\u0638\u0629, Madrasat al Yaqzah, \u0645\u062f\u0631\u0633\u0629 \u0627\u0644\u064a\u0642\u0638\u0629", "name": "\u0645\u062f\u0631\u0633\u0629 \u0627\u0644\u064a\u0642\u0638\u0629", "name:ar": "\u0645\u062f\u0631\u0633\u0629 \u0627\u0644\u064a\u0642\u0638\u0629", "name:ar1": "\u0645\u062f\u0631\u0633\u0629 \u0627\u0644\u064a\u0642\u0638\u0629", "name:de": "Madrasat al Yaqzah", "name:en": "Madrasat al Yaqzah", "name:fr": "Madrasat al Yaqzah"}}, {"type": "node", "id": 2485156289, "lat": 33.4141882, "lon": 43.4782811, "tags": {"alt_name": "\u0645\u062f\u0631\u0633\u0629 \u0627\u0644\u0646\u0635\u0631 \u0644\u0644\u0628\u0646\u064a\u0646", "amenity": "school", "int_name": "Madrasat an Na\u015fir lil Ban\u012bn, Madrasat an Nasir lil Banin", "name": "\u0645\u062f\u0631\u0633\u0629 \u0627\u0644\u0646\u0635\u0631 \u0644\u0644\u0628\u0646\u064a\u0646", "name:ar": "\u0645\u062f\u0631\u0633\u0629 \u0627\u0644\u0646\u0635\u0631 \u0644\u0644\u0628\u0646\u064a\u0646", "name:ar1": "\u0645\u062f\u0631\u0633\u0629 \u0627\u0644\u0646\u0635\u0631 \u0644\u0644\u0628\u0646\u064a\u0646", "name:de": "Madrasat an Nasir lil Banin", "name:en": "Madrasat an Nasir lil Banin", "name:fr": "Madrasat an Nasir lil Banin"}}, {"type": "node", "id": 2485156570, "lat": 33.4119438, "lon": 43.4745295, "tags": {"alt_name": "\u0645\u062f\u0631\u0633\u0629 \u0627\u0644\u0646\u0627\u0635\u0631 \u0644\u0644\u0628\u0646\u0627\u062a", "amenity": "school", "int_name": "\u0645\u062f\u0631\u0633\u0629 \u0627\u0644\u0646\u0627\u0635\u0631 \u0644\u0644\u0628\u0646\u0627\u062a, \u0645\u062f\u0631\u0633\u0629 \u0627\u0644\u0646\u0627\u0635\u0631 \u0644\u0644\u0628\u0646\u0627\u062a", "name": "\u0645\u062f\u0631\u0633\u0629 \u0627\u0644\u0646\u0627\u0635\u0631 \u0644\u0644\u0628\u0646\u0627\u062a", "name:ar": "\u0645\u062f\u0631\u0633\u0629 \u0627\u0644\u0646\u0627\u0635\u0631 \u0644\u0644\u0628\u0646\u0627\u062a", "name:ar1": "\u0645\u062f\u0631\u0633\u0629 \u0627\u0644\u0646\u0627\u0635\u0631 \u0644\u0644\u0628\u0646\u0627\u062a", "name:de": "\u0645\u062f\u0631\u0633\u0629 \u0627\u0644\u0646\u0627\u0635\u0631 \u0644\u0644\u0628\u0646\u0627\u062a", "name:en": "\u0645\u062f\u0631\u0633\u0629 \u0627\u0644\u0646\u0627\u0635\u0631 \u0644\u0644\u0628\u0646\u0627\u062a", "name:fr": "\u0645\u062f\u0631\u0633\u0629 \u0627\u0644\u0646\u0627\u0635\u0631 \u0644\u0644\u0628\u0646\u0627\u062a"}}, {"type": "node", "id": 2485164032, "lat": 33.4135827, "lon": 43.3147893, "tags": {"alt_name": "\u0645\u062f\u0631\u0633\u0629 \u0633\u0639\u062f\u0648\u0646", "amenity": "school", "int_name": "Madrasat Sad\u016bn, \u0645\u062f\u0631\u0633\u0629 \u0633\u0639\u062f\u0648\u0646, Madrasat Sadun, \u0645\u062f\u0631\u0633\u0629 \u0633\u0639\u062f\u0648\u0646", "name": "\u0645\u062f\u0631\u0633\u0629 \u0627\u062d\u062f \u0627\u0644\u0627\u0628\u062a\u062f\u0627\u0626\u064a\u0629 \u0644\u0644\u0628\u0646\u0627\u062a", "name:ar1": "\u0645\u062f\u0631\u0633\u0629 \u0633\u0639\u062f\u0648\u0646"}}, {"type": "node", "id": 2485164987, "lat": 33.38591, "lon": 43.278089, "tags": {"alt_name": "\u0645\u062f\u0631\u0633\u0629 \u0627\u0644\u062a\u0644\u0627\u062d\u0645 \u0627\u0644\u0625\u0628\u062a\u062f\u0627\u0626\u064a\u0629 \u0627\u0644\u0645\u062e\u062a\u0644\u0637\u0629", "amenity": "school", "int_name": "Madrasat al Tal\u0101\u1e29um al Ibtid\u0101\u012byah al Mukhtala\u0163ah, \u0645\u062f\u0631\u0633\u0629 \u0627\u0644\u062a\u0644\u0627\u062d\u0645 \u0627\u0644\u0627\u0628\u062a\u062f\u0627\u0626\u064a\u0629 \u0627\u0644\u0645\u062e\u062a\u0644\u0637\u0629, Madrasat al Talahum al Ibtidaiyah al Mukhtalatah, \u0645\u062f\u0631\u0633\u0629 \u0627\u0644\u062a\u0644\u0627\u062d\u0645 \u0627\u0644\u0627\u0628\u062a\u062f\u0627\u0626\u064a\u0629 \u0627\u0644\u0645\u062e\u062a\u0644\u0637\u0629", "name": "\u0645\u062f\u0631\u0633\u0629 \u0627\u0644\u062a\u0644\u0627\u062d\u0645 \u0627\u0644\u0625\u0628\u062a\u062f\u0627\u0626\u064a\u0629 \u0627\u0644\u0645\u062e\u062a\u0644\u0637\u0629", "name:ar": "\u0645\u062f\u0631\u0633\u0629 \u0627\u0644\u062a\u0644\u0627\u062d\u0645 \u0627\u0644\u0625\u0628\u062a\u062f\u0627\u0626\u064a\u0629 \u0627\u0644\u0645\u062e\u062a\u0644\u0637\u0629", "name:ar1": "\u0645\u062f\u0631\u0633\u0629 \u0627\u0644\u062a\u0644\u0627\u062d\u0645 \u0627\u0644\u0625\u0628\u062a\u062f\u0627\u0626\u064a\u0629 \u0627\u0644\u0645\u062e\u062a\u0644\u0637\u0629", "name:de": "Madrasat al Talahum al Ibtidaiyah al Mukhtalatah", "name:en": "Madrasat al Talahum al Ibtidaiyah al Mukhtalatah", "name:fr": "Madrasat al Talahum al Ibtidaiyah al Mukhtalatah"}}, {"type": "node", "id": 2485165871, "lat": 33.426849, "lon": 43.306932, "tags": {"alt_name": "\u0645\u062f\u0631\u0633\u0629 \u0627\u0644\u0631\u0634\u064a\u062f", "amenity": "school", "int_name": "Madrasat ar Rash\u012bd, \u0645\u062f\u0631\u0633\u0629 \u0627\u0644\u0631\u0634\u064a\u062f, Madrasat ar Rashid, \u0645\u062f\u0631\u0633\u0629 \u0627\u0644\u0631\u0634\u064a\u062f", "name": "\u0645\u062f\u0631\u0633\u0629 \u0627\u0644\u0631\u0634\u064a\u062f", "name:ar": "\u0645\u062f\u0631\u0633\u0629 \u0627\u0644\u0631\u0634\u064a\u062f", "name:ar1": "\u0645\u062f\u0631\u0633\u0629 \u0627\u0644\u0631\u0634\u064a\u062f", "name:de": "Madrasat ar Rashid", "name:en": "Al-Rasheed school", "name:fr": "Madrasat ar Rashid"}}, {"type": "node", "id": 2486323633, "lat": 33.332376, "lon": 43.477215, "tags": {"alt_name": "\u0645\u062f\u0631\u0633\u0629 \u0627\u0644\u0639\u0646\u0643\u0648\u0631", "amenity": "school", "int_name": "Madrasat al Ank\u016br, \u0645\u062f\u0631\u0633\u0629 \u0627\u0644\u0639\u0646\u0643\u0648\u0631, Madrasat al Ankur, \u0645\u062f\u0631\u0633\u0629 \u0627\u0644\u0639\u0646\u0643\u0648\u0631", "name": "\u0645\u062f\u0631\u0633\u0629 \u0627\u0644\u0639\u0646\u0643\u0648\u0631", "name:ar": "\u0645\u062f\u0631\u0633\u0629 \u0627\u0644\u0639\u0646\u0643\u0648\u0631", "name:ar1": "\u0645\u062f\u0631\u0633\u0629 \u0627\u0644\u0639\u0646\u0643\u0648\u0631", "name:de": "Madrasat al Ankur", "name:en": "Madrasat al Ankur", "name:fr": "Madrasat al Ankur"}}, {"type": "node", "id": 2486323635, "lat": 33.189829, "lon": 43.499212, "tags": {"alt_name": "\u0645\u062f\u0631\u0633\u0629 \u0627\u0644\u0645\u062c\u0631\u0629", "amenity": "school", "int_name": "Madrasat al Majarrah, \u0645\u062f\u0631\u0633\u0629 \u0627\u0644\u0645\u062c\u0631\u0629, Madrasat al Majarrah, \u0645\u062f\u0631\u0633\u0629 \u0627\u0644\u0645\u062c\u0631\u0629", "name": "\u0645\u062f\u0631\u0633\u0629 \u0627\u0644\u0645\u062c\u0631\u0629", "name:ar": "\u0645\u062f\u0631\u0633\u0629 \u0627\u0644\u0645\u062c\u0631\u0629", "name:ar1": "\u0645\u062f\u0631\u0633\u0629 \u0627\u0644\u0645\u062c\u0631\u0629", "name:de": "Madrasat al Majarrah", "name:en": "Madrasat al Majarrah", "name:fr": "Madrasat al Majarrah"}}, {"type": "node", "id": 3527359146, "lat": 33.409671, "lon": 43.2985563}, {"type": "node", "id": 3527359148, "lat": 33.4100606, "lon": 43.298324}, {"type": "node", "id": 3527359155, "lat": 33.4099946, "lon": 43.2993351}, {"type": "node", "id": 3527359171, "lat": 33.4103841, "lon": 43.2991029}, {"type": "node", "id": 3808337332, "lat": 33.4327189, "lon": 43.3681389, "tags": {"amenity": "school", "name": "\u0645\u062f\u0631\u0633\u0629 \u062d\u0644\u064a\u0645\u0629 \u0627\u0644\u0633\u0639\u062f\u064a\u0629"}}, {"type": "node", "id": 3808337333, "lat": 33.4332693, "lon": 43.3679277, "tags": {"amenity": "school", "name": "\u0645\u062f\u0631\u0633\u0629 \u0627\u0644\u0641\u062a\u0648\u0629"}}, {"type": "node", "id": 3940854002, "lat": 33.4165397, "lon": 43.3083595}, {"type": "node", "id": 3940854003, "lat": 33.4165482, "lon": 43.3088496}, {"type": "node", "id": 3940854007, "lat": 33.4165546, "lon": 43.3089774}, {"type": "node", "id": 3940854009, "lat": 33.4168548, "lon": 43.3083517}, {"type": "node", "id": 3940854010, "lat": 33.4168632, "lon": 43.3088418}, {"type": "node", "id": 3940854011, "lat": 33.4168509, "lon": 43.3096644}, {"type": "node", "id": 3940854012, "lat": 33.4168606, "lon": 43.3089836}, {"type": "node", "id": 4275543193, "lat": 33.4036397, "lon": 43.2593525, "tags": {"amenity": "school", "name:ar": "\u0643\u0644\u064a\u0629 \u0627\u0644\u062d\u0627\u0633\u0648\u0628"}}, {"type": "node", "id": 4275543390, "lat": 33.4003395, "lon": 43.2659221, "tags": {"amenity": "school", "name:ar": "\u0643\u0644\u064a\u0629 \u0627\u0644\u062a\u0631\u0628\u064a\u0629 \u0644\u0644\u0639\u0644\u0648\u0645 \u0627\u0644\u0627\u0646\u0633\u0627\u0646\u064a\u0629"}}, {"type": "node", "id": 4275543589, "lat": 33.3982212, "lon": 43.2657221, "tags": {"amenity": "school", "name:ar": "\u0627\u0644\u062a\u0631\u0628\u064a\u0629 \u0627\u0644\u0635\u0631\u0641\u0629"}}, {"type": "node", "id": 4275544211, "lat": 33.4020806, "lon": 43.2685688, "tags": {"amenity": "school", "name": "\u0643\u0644\u064a\u0629 \u0627\u0644\u0642\u0627\u0646\u0648\u0646 \u0648\u0627\u0644\u0639\u0644\u0648\u0645 \u0627\u0644\u0633\u064a\u0627\u0633\u064a\u0629"}}, {"type": "node", "id": 4396847589, "lat": 33.4184838, "lon": 43.2986675, "tags": {"amenity": "school", "name": "\u0645\u062f\u0631\u0633\u0629 \u0627\u0644\u0645\u0642\u062f\u0627\u062f \u0627\u0644\u0627\u0628\u062a\u062f\u0627\u0626\u064a\u0629", "name:ar": "\u0645\u062f\u0631\u0633\u0629 \u0627\u0644\u0645\u0642\u062f\u0627\u062f \u0627\u0644\u0627\u0628\u062a\u062f\u0627\u0626\u064a\u0629", "name:en": "Al-Mukdad primary school"}}, {"type": "node", "id": 4454686989, "lat": 33.4205891, "lon": 43.2978775, "tags": {"amenity": "school", "name": "\u0643\u0646\u062f\u0629 \u0644\u0644\u0628\u0646\u0627\u062a", "name:ar": "\u0643\u0646\u062f\u0629 \u0644\u0644\u0628\u0646\u0627\u062a", "name:en": "kinda female Hight school"}}, {"type": "node", "id": 5522436822, "lat": 33.4337262, "lon": 43.3056593, "tags": {"amenity": "school", "name": "\u0645\u062f\u0631\u0633\u0629 \u0627\u062d\u0645\u062f\u0634\u0648\u0642\u064a"}}, {"type": "node", "id": 6138201385, "lat": 33.2536586, "lon": 43.4326788, "tags": {"amenity": "school", "name": "\u062b\u0627\u0646\u0648\u064a\u0629 \u0627\u0644\u0627\u063a\u0635\u0627\u0646 \u0627\u0644\u0645\u062e\u062a\u0644\u0637\u0629"}}, {"type": "node", "id": 6472062785, "lat": 33.4190458, "lon": 43.2771717, "tags": {"addr:city": "\u0627\u0644\u0631\u0645\u0627\u062f\u064a ,\u062d\u064a \u0627\u0644\u0627\u0643\u0631\u0627\u062f", "addr:street": "\u0627\u0644\u062a\u0623\u0645\u064a\u0645", "amenity": "school", "name": "\u0645\u062f\u0631\u0633\u0629 \u062f\u0627\u0631 \u0627\u0644\u0639\u0644\u0648\u0645 \u0627\u0644\u0627\u0628\u062a\u062f\u0627\u0626\u064a\u0629"}}, {"type": "node", "id": 6474500888, "lat": 33.4061874, "lon": 43.287477, "tags": {"amenity": "school", "name": "\u0627\u0628\u062a\u062f\u0627\u0626\u064a\u0629 \u0639\u0628\u062f \u0627\u0644\u0642\u0627\u062f\u0631 \u0644\u0644\u0628\u0646\u064a\u0646"}}, {"type": "node", "id": 6474553189, "lat": 33.4128956, "lon": 43.282585, "tags": {"amenity": "school", "name": "\u0645\u062f\u0631\u0633\u0629 \u0627\u0644\u062d\u0648\u0631\u0627\u0621"}}, {"type": "node", "id": 6474561586, "lat": 33.4244621, "lon": 43.271283, "tags": {"addr:city": "\u0627\u0644\u0631\u0645\u0627\u062f\u064a ,\u0627\u0644\u062a\u0623\u0645\u064a\u0645", "addr:street": "\u0627\u0644\u062a\u0623\u0645\u064a\u0645", "amenity": "school", "name": "\u062b\u0627\u0646\u0648\u064a\u0629 \u0627\u0644\u0632\u064a\u062a\u0648\u0646 \u0627\u0644\u0646\u0645\u0648\u0630\u062c\u064a\u0629"}}, {"type": "node", "id": 7881402186, "lat": 33.4140904, "lon": 43.4389819, "tags": {"amenity": "school", "name": "\u0645\u062f\u0631\u0633\u0647 \u0627\u0644\u0645\u0646\u0635\u0648\u0631 \u0627\u0644\u0627\u0647\u0644\u064a\u0647"}}, {"type": "node", "id": 8312995717, "lat": 33.4240907, "lon": 43.3380529, "tags": {"amenity": "school", "name": "\u0645\u062f\u0631\u0633\u0629 \u0627\u0644\u0645\u0646\u0649 \u0644\u0644\u0628\u0646\u0627\u062a"}}, {"type": "node", "id": 8593057017, "lat": 33.4132889, "lon": 43.314888, "tags": {"amenity": "school", "name": "\u0645\u062f\u0631\u0633\u0629 \u0627\u0644\u0635\u0627\u062f\u0642 \u0627\u0644\u0627\u0645\u064a\u0646 \u0644\u0644\u0628\u0646\u064a\u0646"}}, {"type": "node", "id": 8632802219, "lat": 33.4302625, "lon": 43.3418697, "tags": {"amenity": "school", "name": "\u0643\u0644\u064a\u0629 \u0627\u0644\u062a\u0631\u0628\u064a\u0629 \u0628\u0646\u0627\u062a"}}, {"type": "node", "id": 10856182805, "lat": 33.401389, "lon": 43.486722, "tags": {"amenity": "school", "name": "\u0645\u062a\u0648\u0633\u0637\u0629 \u0627\u0644\u0645\u0636\u064a\u0642 \u0644\u0644\u0628\u0646\u064a\u0646"}}, {"type": "node", "id": 11553234721, "lat": 33.4261161, "lon": 43.2564528, "tags": {"addr:city": "\u0627\u0644\u0631\u0645\u0627\u062f\u064a ,5 \u0643\u064a\u0644\u0648", "addr:place": "5 \u0643\u064a\u0644\u0648", "amenity": "school", "name": "\u0645\u062a\u0648\u0633\u0637\u0629 \u0627\u0644\u0628\u0631\u0627\u0642 \u0644\u0644\u0628\u0646\u064a\u0646"}}, {"type": "node", "id": 11554070686, "lat": 33.4138194, "lon": 43.272937, "tags": {"addr:city": "\u0627\u0644\u0631\u0645\u0627\u062f\u064a ,\u0627\u0644\u062a\u0623\u0645\u064a\u0645", "addr:street": "\u0627\u0644\u062a\u0623\u0645\u064a\u0645", "amenity": "school", "name": "\u0645\u062f\u0631\u0633\u0629 \u0627\u0644\u0645\u0639\u0632 \u0644\u0644\u0628\u0646\u064a\u0646"}}, {"type": "node", "id": 11554139155, "lat": 33.4123492, "lon": 43.2780796}, {"type": "node", "id": 11554139156, "lat": 33.4116019, "lon": 43.2774482}, {"type": "node", "id": 11554139158, "lat": 33.4121726, "lon": 43.2783519}, {"type": "node", "id": 11554139159, "lat": 33.4123002, "lon": 43.2781561}, {"type": "node", "id": 11554139160, "lat": 33.4111701, "lon": 43.2781524}, {"type": "node", "id": 11554139161, "lat": 33.4119027, "lon": 43.2787795}, {"type": "node", "id": 11554139162, "lat": 33.4111405, "lon": 43.2789769, "tags": {"addr:city": "\u0627\u0644\u062a\u0623\u0645\u064a\u0645", "addr:street": "\u062d\u064a \u0627\u0644\u0642\u0627\u062f\u0633\u064a\u0629 \u0627\u0644\u0627\u0648\u0644\u0649", "amenity": "school", "name": "\u0645\u062a\u0648\u0633\u0637\u0629 \u0627\u0644\u0631\u0641\u0627\u0639\u064a \u0644\u0644\u0628\u0646\u064a\u0646"}}, {"type": "node", "id": 11554139163, "lat": 33.4116577, "lon": 43.2775339, "tags": {"addr:city": "\u0627\u0644\u062a\u0623\u0645\u064a\u0645", "addr:place": "\u062d\u064a \u0627\u0644\u0642\u0627\u062f\u0633\u064a\u0629 \u0627\u0644\u0627\u0648\u0644\u0649", "amenity": "school", "name": "\u062b\u0627\u0646\u0648\u064a\u0629 \u0627\u0644\u0643\u0648\u0627\u0643\u0628 \u0644\u0644\u0628\u0646\u0627\u062a"}}, {"type": "node", "id": 11554139164, "lat": 33.4121346, "lon": 43.2782554, "tags": {"addr:city": "\u0627\u0644\u062a\u0623\u0645\u064a\u0645", "addr:street": "\u062d\u064a \u0627\u0644\u0642\u0627\u062f\u0633\u064a\u0629", "amenity": "school", "operator": "\u0631\u0648\u0636\u0629 \u0627\u0644\u062a\u0623\u0645\u064a\u0645"}}, {"type": "node", "id": 11554139165, "lat": 33.412307, "lon": 43.2768901, "tags": {"addr:city": "\u0627\u0644\u0631\u0645\u0627\u062f\u064a ,\u0627\u0644\u062a\u0623\u0645\u064a\u0645", "addr:place": "\u062d\u064a \u0627\u0644\u0642\u0627\u062f\u0633\u064a\u0629 \u0627\u0644\u0627\u0648\u0644\u0649", "amenity": "school", "name": "\u0645\u062f\u0631\u0633\u0629 \u0627\u0644\u0645\u0639\u0632 \u0627\u0644\u0627\u0628\u062a\u062f\u0627\u0626\u064a\u0629 \u0644\u0644\u0628\u0646\u064a\u0646"}}, {"type": "node", "id": 11554399434, "lat": 33.4230051, "lon": 43.2703128, "tags": {"addr:city": "\u0627\u0644\u0631\u0645\u0627\u062f\u064a ,\u0627\u0644\u062a\u0623\u0645\u064a\u0645", "addr:street": "\u0627\u0644\u062a\u0623\u0645\u064a\u0645", "amenity": "school", "name": "\u0645\u062f\u0631\u0633\u0629 \u0630\u0627\u062a \u0627\u0644\u0639\u064a\u0648\u0646 \u0627\u0644\u0627\u0628\u062a\u062f\u0627\u0626\u064a\u0629 \u0644\u0644\u0628\u0646\u0627\u062a"}}, {"type": "node", "id": 11554455753, "lat": 33.4223759, "lon": 43.2750715, "tags": {"addr:city": "\u0627\u0644\u0631\u0645\u0627\u062f\u064a ,\u0627\u0644\u062a\u0623\u0645\u064a\u0645", "addr:street": "\u0627\u0644\u062a\u0623\u0645\u064a\u0645", "amenity": "school", "name": "\u0645\u062f\u0631\u0633\u0629 \u0631\u0628\u064a\u0639 \u062d\u0627\u0645\u062f \u0627\u0644\u0627\u0628\u062a\u062f\u0627\u0626\u064a\u0629"}}, {"type": "node", "id": 11554455754, "lat": 33.4233475, "lon": 43.2749052, "tags": {"addr:city": "\u0627\u0644\u0631\u0645\u0627\u062f\u064a ,\u0627\u0644\u062a\u0623\u0645\u064a\u0645", "addr:street": "\u0627\u0644\u062a\u0623\u0645\u064a\u0645", "amenity": "school", "name": "\u062b\u0627\u0646\u0648\u064a\u0629 \u0627\u0644\u0634\u0641\u0642 \u0644\u0644\u0628\u0646\u0627\u062a"}}, {"type": "node", "id": 11554520369, "lat": 33.4145231, "lon": 43.2408872, "tags": {"addr:city": "\u0627\u0644\u0631\u0645\u0627\u062f\u064a ,5\u0643\u064a\u0644\u0648", "addr:street": "5 \u0643\u064a\u0644\u0648", "amenity": "school", "name": "\u0645\u062f\u0631\u0633\u0629 \u0637\u064a\u0628\u0629 \u0627\u0644\u0627\u0628\u062a\u062f\u0627\u0626\u064a\u0629 \u0644\u0644\u0628\u0646\u0627\u062a"}}, {"type": "node", "id": 11554520370, "lat": 33.4142388, "lon": 43.2395836, "tags": {"amenity": "school", "name": "\u0645\u062a\u0648\u0633\u0637\u0629 \u0632\u0647\u0627 \u062d\u062f\u064a\u062f \u0644\u0644\u0628\u0646\u0627\u062a"}}, {"type": "node", "id": 11554572138, "lat": 33.4136662, "lon": 43.2275445, "tags": {"addr:city": "\u0627\u0644\u0631\u0645\u0627\u062f\u064a ,5\u0643\u064a\u0644\u0648", "addr:place": "5 \u0643\u064a\u0644\u0648", "amenity": "school", "name": "\u0645\u062a\u0648\u0633\u0637\u0629 \u0627\u0644\u0635\u062d\u0641 \u0627\u0644\u0645\u0643\u0631\u0645\u0629"}}, {"type": "node", "id": 11554572139, "lat": 33.4132923, "lon": 43.2260935, "tags": {"addr:city": "\u0627\u0644\u0631\u0645\u0627\u062f\u064a ,5\u0643\u064a\u0644\u0648", "addr:place": "5 \u0643\u064a\u0644\u0648", "amenity": "school", "name": "\u0645\u062f\u0631\u0633\u0629 \u0627\u0644\u0627\u0645\u0627\u0646\u064a \u0644\u0644\u0628\u0646\u064a\u0646"}}, {"type": "node", "id": 11554572140, "lat": 33.4131692, "lon": 43.2252218, "tags": {"addr:city": "\u0627\u0644\u0631\u0645\u0627\u062f\u064a ,5\u0643\u064a\u0644\u0648", "addr:place": "5 \u0643\u064a\u0644\u0648", "amenity": "school", "name": "\u0645\u062f\u0631\u0633\u0629 \u0627\u0644\u0627\u0645\u064a\u0646 \u0627\u0644\u0627\u0628\u062a\u062f\u0627\u0626\u064a\u0629 \u0644\u0644\u0628\u0646\u0627\u062a"}}, {"type": "node", "id": 11554572145, "lat": 33.4152401, "lon": 43.2252593, "tags": {"addr:city": "\u0627\u0644\u0631\u0645\u0627\u062f\u064a ,6\u0643\u064a\u0644\u0648", "addr:place": "6 \u0643\u064a\u0644\u0648", "amenity": "school", "name": "\u0645\u062f\u0631\u0633\u0629 \u0627\u0644\u062a\u0642\u0648\u0649 \u0627\u0644\u0627\u0628\u062a\u062f\u0627\u0626\u064a\u0629"}}, {"type": "node", "id": 11559571266, "lat": 33.418944, "lon": 43.2328412, "tags": {"addr:city": "\u0627\u0644\u0631\u0645\u0627\u062f\u064a", "amenity": "school", "name": "\u0627\u0639\u062f\u0627\u062f\u064a\u0629 \u0627\u0644\u0645\u0631\u0628\u062f \u0644\u0644\u0628\u0646\u064a\u0646"}}, {"type": "node", "id": 11559571267, "lat": 33.4185545, "lon": 43.233037, "tags": {"addr:city": "5 \u0643\u064a\u0644\u0648", "amenity": "school", "name": "\u0645\u062a\u0648\u0633\u0637\u0629 \u0627\u0644\u062d\u0633\u0646 \u0628\u0646 \u0639\u0644\u064a \u0644\u0644\u0628\u0646\u064a\u0646"}}, {"type": "node", "id": 11559654352, "lat": 33.4219658, "lon": 43.2419692, "tags": {"amenity": "school", "name": "\u0639\u0628\u062f \u0627\u0644\u0631\u062d\u0645\u0646 \u0628\u0646 \u0639\u0648\u0641 \u0627\u0644\u0627\u0633\u0644\u0627\u0645\u064a\u0629"}}, {"type": "node", "id": 11560111890, "lat": 33.4176034, "lon": 43.2689964, "tags": {"amenity": "school", "name": "\u062b\u0627\u0646\u0648\u064a\u0629 \u0627\u0644\u0634\u0645\u0648\u062e \u0644\u0644\u0628\u0646\u0627\u062a"}}, {"type": "node", "id": 11560187573, "lat": 33.4183303, "lon": 43.2668058, "tags": {"amenity": "school", "name": "\u0645\u062f\u0631\u0633\u0629 \u0627\u0644\u0627\u0628\u0631\u0627\u0631 \u0627\u0644\u0627\u0628\u062a\u062f\u0627\u0626\u064a\u0629 \u0644\u0644\u0628\u0646\u064a\u0646"}}, {"type": "node", "id": 11563581111, "lat": 33.4315739, "lon": 43.210952, "tags": {"amenity": "school", "name": "\u062b\u0627\u0646\u0648\u064a\u0629 \u0627\u0644\u0634\u0631\u0627\u0639 \u0644\u0644\u0628\u0646\u0627\u062a"}}, {"type": "node", "id": 11563581112, "lat": 33.4313837, "lon": 43.21107, "tags": {"amenity": "school", "name": "\u0645\u062f\u0631\u0633\u0629 \u0627\u0644\u064a\u0645\u0646 \u0644\u0644\u0628\u0646\u0627\u062a"}}, {"type": "node", "id": 11563581113, "lat": 33.4312359, "lon": 43.2109305, "tags": {"amenity": "school", "name": "\u0645\u062f\u0631\u0633\u0629 \u0627\u0644\u064a\u0645\u0646 \u0644\u0644\u0628\u0646\u064a\u0646"}}, {"type": "node", "id": 11563865088, "lat": 33.4219465, "lon": 43.2612461}, {"type": "node", "id": 11563865089, "lat": 33.4217222, "lon": 43.2616013}, {"type": "node", "id": 11563865090, "lat": 33.4222246, "lon": 43.2620566}, {"type": "node", "id": 11563865091, "lat": 33.4224489, "lon": 43.2617013}, {"type": "node", "id": 11563865092, "lat": 33.4217183, "lon": 43.261123}, {"type": "node", "id": 11563865093, "lat": 33.4213698, "lon": 43.2616785}, {"type": "node", "id": 11563865094, "lat": 33.4208783, "lon": 43.2612358}, {"type": "node", "id": 11563865095, "lat": 33.4212268, "lon": 43.2606803}, {"type": "node", "id": 11563865097, "lat": 33.4212273, "lon": 43.2619711}, {"type": "node", "id": 11563865098, "lat": 33.421012, "lon": 43.2623106}, {"type": "node", "id": 11563865099, "lat": 33.4205869, "lon": 43.2619235}, {"type": "node", "id": 11563865100, "lat": 33.4208023, "lon": 43.2615839}, {"type": "node", "id": 11563865101, "lat": 33.4238111, "lon": 43.2594544}, {"type": "node", "id": 11563865102, "lat": 33.4234508, "lon": 43.2600589}, {"type": "node", "id": 11563865103, "lat": 33.423095, "lon": 43.2597544}, {"type": "node", "id": 11563865104, "lat": 33.4234554, "lon": 43.25915}, {"type": "node", "id": 11563885968, "lat": 33.4113781, "lon": 43.2796513}, {"type": "node", "id": 11563901869, "lat": 33.410646, "lon": 43.2790258}, {"type": "node", "id": 11563901870, "lat": 33.412908, "lon": 43.2771661}, {"type": "node", "id": 11563901871, "lat": 33.412161, "lon": 43.2765321}, {"type": "node", "id": 11568765464, "lat": 33.4333157, "lon": 43.3127869, "tags": {"amenity": "school", "name": "\u0627\u0639\u062f\u0627\u062f\u064a\u0629 \u0641\u0644\u0633\u0637\u064a\u0646 \u0644\u0644\u0628\u0646\u064a\u0646"}}, {"type": "node", "id": 11568765465, "lat": 33.4328994, "lon": 43.3133716, "tags": {"amenity": "school", "name": "\u0645\u062a\u0648\u0633\u0637\u0629 \u0627\u0644\u0637\u0644\u064a\u0639\u0629 \u0644\u0644\u0628\u0646\u064a\u0646"}}, {"type": "node", "id": 11570083179, "lat": 33.4265297, "lon": 43.2647746, "tags": {"amenity": "school", "name": "\u0645\u062a\u0648\u0633\u0637\u0629  \u0627\u0644\u062a\u062d\u0631\u064a\u0631 \u0644\u0644\u0628\u0646\u064a\u0646"}}, {"type": "node", "id": 11572535005, "lat": 33.4116743, "lon": 43.3072847, "tags": {"amenity": "school", "name": "\u0645\u062f\u0631\u0633\u0629 \u062f\u0627\u0631 \u0627\u0644\u0639\u0644\u0645 \u0644\u0644\u062a\u0639\u0644\u064a\u0645 \u0627\u0644\u0627\u0633\u0627\u0633\u064a"}}, {"type": "node", "id": 11572535006, "lat": 33.4109019, "lon": 43.3079499, "tags": {"amenity": "school", "name": "\u062b\u0627\u0646\u0648\u064a\u0629 \u062f\u0627\u0631 \u0627\u0644\u0639\u0644\u0645 \u0644\u0644\u0628\u0646\u064a\u0646"}}, {"type": "node", "id": 11572535007, "lat": 33.4119878, "lon": 43.3075261, "tags": {"amenity": "school", "name": "\u062b\u0627\u0646\u0648\u064a\u0629 \u0627\u0644\u0645\u0639\u0627\u0644\u064a \u0644\u0644\u0628\u0646\u0627\u062a"}}, {"type": "node", "id": 11572620880, "lat": 33.4200946, "lon": 43.3092138, "tags": {"amenity": "school", "name": "\u0627\u0639\u062f\u0627\u062f\u064a\u0629 \u0627\u0644\u0639\u0644\u0627 \u0644\u0644\u0628\u0646\u0627\u062a"}}, {"type": "node", "id": 11572620881, "lat": 33.4197812, "lon": 43.3093211, "tags": {"amenity": "school", "name": "\u0645\u062f\u0631\u0633\u0629 \u0627\u0644\u064a\u0639\u0631\u0628\u064a\u0629 \u0627\u0644\u0627\u0628\u062a\u062f\u0627\u0626\u064a\u0629 \u0644\u0644\u0628\u0646\u064a\u0646"}}, {"type": "node", "id": 11572620882, "lat": 33.4193379, "lon": 43.3093104, "tags": {"amenity": "school", "name": "\u0645\u062f\u0631\u0633\u0629 \u0627\u0644\u0635\u062d\u0627\u0628\u0629 \u0627\u0644\u0627\u0628\u062a\u062f\u0627\u0626\u064a\u0629 \u0644\u0644\u0628\u0646\u064a\u0646"}}, {"type": "node", "id": 11572620887, "lat": 33.4270008, "lon": 43.3093372, "tags": {"amenity": "school", "name": "\u0645\u062f\u0631\u0633\u0629 \u0627\u0644\u0645\u0648\u0647\u0648\u0628\u064a\u0646 \u0641\u064a \u0627\u0644\u0627\u0646\u0628\u0627\u0631"}}, {"type": "node", "id": 11576147019, "lat": 33.4068447, "lon": 43.2876268, "tags": {"amenity": "school", "name": "\u0645\u062f\u0631\u0633\u0629 \u0627\u0644\u0646\u0648\u0631 \u0627\u0644\u0627\u0628\u062a\u062f\u0627\u0626\u064a\u0629 \u0644\u0644\u0628\u0646\u0627\u062a"}}, {"type": "node", "id": 11576147022, "lat": 33.4225995, "lon": 43.2420372, "tags": {"amenity": "school", "name": "\u0645\u062f\u0631\u0633\u0629 \u0633\u062a\u0627\u0631 \u0627\u0628\u0648 \u0631\u064a\u0634\u0629 \u0627\u0644\u0627\u0628\u062a\u062f\u0627\u0626\u064a\u0629 \u0644\u0644\u0628\u0646\u0627\u062a"}}, {"type": "node", "id": 11582356702, "lat": 33.439879, "lon": 43.3270708, "tags": {"amenity": "school", "name": "\u0645\u062f\u0631\u0633\u0629 \u0627\u0644\u062a\u0648\u062d\u064a\u062f \u0627\u0644\u0627\u0628\u062a\u062f\u0627\u0626\u064a\u0629 \u0644\u0644\u0628\u0646\u064a\u0646"}}, {"type": "node", "id": 11582356710, "lat": 33.4231273, "lon": 43.3235567, "tags": {"amenity": "school", "name": "\u0645\u062f\u0631\u0633\u0629 \u0628\u063a\u062f\u0627\u062f"}}, {"type": "node", "id": 11582356712, "lat": 33.4261928, "lon": 43.322203, "tags": {"amenity": "school", "name": "\u0627\u0639\u062f\u0627\u062f\u064a\u0629 \u0627\u0644\u0633\u0644\u0627\u0645 \u0644\u0644\u0628\u0646\u064a\u0646"}}, {"type": "node", "id": 11582356713, "lat": 33.4258839, "lon": 43.3217658, "tags": {"amenity": "school", "name": "\u0645\u062f\u0631\u0633\u0629 \u0627\u0644\u0627\u0645\u062c\u0627\u062f \u0627\u0644\u0627\u0628\u062a\u062f\u0627\u0626\u064a\u0629 \u0644\u0644\u0628\u0646\u064a\u0646"}}, {"type": "node", "id": 11585032588, "lat": 33.4186494, "lon": 43.2990992, "tags": {"amenity": "school", "name": "\u062b\u0627\u0646\u0648\u064a\u0629 \u0627\u0644\u0631\u0645\u0627\u062f\u064a \u0644\u0644\u0628\u0646\u0627\u062a"}}, {"type": "node", "id": 11585032589, "lat": 33.4186102, "lon": 43.2986606, "tags": {"amenity": "school", "name": "\u0627\u0639\u062f\u0627\u062f\u064a\u0629 \u0627\u0644\u0645\u063a\u064a\u0631\u0629 \u0644\u0644\u0628\u0646\u064a\u0646"}}, {"type": "node", "id": 11585032590, "lat": 33.4184378, "lon": 43.2991153, "tags": {"amenity": "school", "name": "\u0645\u062a\u0648\u0633\u0637\u0629 \u0627\u0644\u0645\u063a\u064a\u0631\u0629 \u0644\u0644\u0628\u0646\u064a\u0646"}}, {"type": "node", "id": 11585032591, "lat": 33.4144894, "lon": 43.3093171, "tags": {"amenity": "school", "name": "\u0645\u062f\u0631\u0633\u0629 \u0627\u0644\u0645\u0639\u0631\u0627\u062c \u0627\u0644\u0627\u0647\u0644\u064a\u0629 \u0627\u0644\u0627\u0628\u062a\u062f\u0627\u0626\u064a\u0629 \u0627\u0644\u0645\u062e\u062a\u0644\u0637\u0629"}}, {"type": "node", "id": 11585032600, "lat": 33.415891, "lon": 43.3036522, "tags": {"amenity": "school", "name": "\u0645\u062f\u0631\u0633\u0629 \u0627\u0644\u0641\u0631\u0633\u0627\u0646 \u0627\u0644\u0627\u0628\u062a\u062f\u0627\u0626\u064a\u0629 \u0644\u0644\u0628\u0646\u0627\u062a"}}, {"type": "node", "id": 11585032614, "lat": 33.4113054, "lon": 43.3073809, "tags": {"amenity": "school", "name": "\u0627\u0644\u0645\u0646\u062a\u0635\u0631 \u0628\u0627\u0644\u0644\u0647 \u0644\u0644\u0628\u0646\u0627\u062a"}}, {"type": "node", "id": 11585032615, "lat": 33.4110431, "lon": 43.3074756, "tags": {"amenity": "school", "name": "\u0627\u0639\u062f\u0627\u062f\u064a\u0629 \u0627\u0644\u062d\u0633\u064a\u0646 \u0644\u0644\u0628\u0646\u064a\u0646"}}, {"type": "node", "id": 11585032616, "lat": 33.4203837, "lon": 43.2984336, "tags": {"amenity": "school", "name": "\u0645\u062a\u0648\u0633\u0637\u0629 \u0627\u0644\u062e\u0637\u064a\u0628 \u0627\u0644\u0628\u063a\u062f\u0627\u062f\u064a \u0644\u0644\u0628\u0646\u064a\u0646"}}, {"type": "node", "id": 11585032617, "lat": 33.4206054, "lon": 43.2983853, "tags": {"amenity": "school", "name": "\u0645\u062f\u0631\u0633\u0629 \u0627\u0644\u0627\u0633\u0631\u0627\u0621 \u0627\u0644\u0627\u0628\u062a\u062f\u0627\u0626\u064a\u0629 \u0644\u0644\u0628\u0646\u064a\u0646"}}, {"type": "node", "id": 11585032618, "lat": 33.4203524, "lon": 43.2979843, "tags": {"amenity": "school", "name": "\u0627\u0644\u0631\u0645\u0627\u062f\u064a \u0627\u0644\u0627\u0628\u062a\u062f\u0627\u0626\u064a\u0629 \u0644\u0644\u0628\u0646\u0627\u062a"}}, {"type": "node", "id": 11585032633, "lat": 33.4349545, "lon": 43.2736528, "tags": {"amenity": "school", "name": "\u0645\u062f\u0631\u0633\u0629 \u0627\u0646\u0648\u0627\u0631 \u0627\u0644\u0642\u062f\u0633 \u0627\u0644\u0627\u0628\u062a\u062f\u0627\u0626\u064a\u0629"}}, {"type": "node", "id": 11585158784, "lat": 33.4117612, "lon": 43.1838496, "tags": {"amenity": "school"}}, {"type": "node", "id": 11592705051, "lat": 33.4190441, "lon": 43.2379533, "tags": {"amenity": "school", "name": "\u0645\u062f\u0631\u0633\u0629 \u0627\u0644\u0645\u0633\u062a\u0642\u0628\u0644 \u0644\u0644\u062a\u0639\u0644\u064a\u0645 \u0627\u0644\u0645\u0633\u0631\u0639 \u0644\u0644\u0628\u0646\u0627\u062a"}}, {"type": "node", "id": 11597865909, "lat": 33.4367217, "lon": 43.2042316, "tags": {"amenity": "school", "name": "\u062b\u0627\u0646\u0648\u064a\u0629 \u0627\u0644\u064a\u0645\u0646 \u0644\u0644\u0628\u0646\u064a\u0646"}}, {"type": "node", "id": 11599288753, "lat": 33.4300636, "lon": 43.2957189, "tags": {"amenity": "school", "name": "\u0645\u062a\u0648\u0633\u0637\u0629 \u062e\u0627\u0644\u062f \u0628\u0646 \u0627\u0644\u0648\u0644\u064a\u062f \u0644\u0644\u0628\u0646\u064a\u0646"}}, {"type": "node", "id": 11603538643, "lat": 33.4161913, "lon": 43.3036294, "tags": {"amenity": "school", "name": "\u0645\u062f\u0631\u0633\u0629 \u0627\u0644\u0641\u0631\u0633\u0627\u0646 \u0627\u0644\u0627\u0628\u062a\u062f\u0627\u0626\u064a\u0629 \u0644\u0644\u0628\u0646\u064a\u0646"}}, {"type": "node", "id": 11603538649, "lat": 33.416545, "lon": 43.3096581}, {"type": "node", "id": 11603538650, "lat": 33.4167824, "lon": 43.3086398, "tags": {"amenity": "school", "name": "\u0627\u0639\u062f\u0627\u062f\u064a\u0629 \u0627\u0644\u0631\u0645\u064a\u0644\u0629 \u0644\u0644\u0628\u0646\u064a\u0646"}}, {"type": "node", "id": 11603538651, "lat": 33.4167913, "lon": 43.3095785, "tags": {"amenity": "school", "name": "\u0645\u062a\u0648\u0633\u0637\u0629 \u0627\u0644\u0631\u0645\u064a\u0644\u0629 \u0644\u0644\u0628\u0646\u064a\u0646"}}, {"type": "node", "id": 11603538656, "lat": 33.4199972, "lon": 43.3078566, "tags": {"amenity": "school", "name": "\u0645\u062f\u0631\u0633\u0629"}}, {"type": "node", "id": 11603538659, "lat": 33.4306761, "lon": 43.3564669, "tags": {"amenity": "school", "name": "\u0645\u062f\u0631\u0633\u0629 \u0627\u0644\u0648\u0641\u0627\u0621 \u0627\u0644\u0627\u0628\u062a\u062f\u0627\u0626\u064a\u0629 \u0644\u0644\u0628\u0646\u0627\u062a"}}, {"type": "node", "id": 11603538665, "lat": 33.4159446, "lon": 43.4393033, "tags": {"amenity": "school", "name": "\u0645\u062f\u0631\u0633\u0629 \u0627\u0644\u0647\u0627\u062f\u064a \u0627\u0644\u0627\u0628\u062a\u062f\u0627\u0626\u064a\u0629 \u0644\u0644\u0628\u0646\u064a\u0646"}}, {"type": "node", "id": 11603543569, "lat": 33.4038599, "lon": 43.4579851, "tags": {"amenity": "school", "name": "\u0627\u0639\u062f\u0627\u062f\u064a\u0629 \u0627\u0644\u0641\u062c\u0631 \u0644\u0644\u0628\u0646\u064a\u0646"}}, {"type": "node", "id": 11603543572, "lat": 33.4229875, "lon": 43.2707006, "tags": {"amenity": "school", "name": "\u0645\u062f\u0631\u0633\u0629 \u0627\u0648\u064a\u0633 \u0627\u0644\u0642\u0631\u0646\u064a"}}, {"type": "node", "id": 11603543574, "lat": 33.4127904, "lon": 43.2863603, "tags": {"amenity": "school", "name": "\u0627\u0639\u062f\u0627\u062f\u064a\u0629 \u0627\u0644\u0646\u0647\u0636\u0629 \u0627\u0644\u0645\u0647\u0646\u064a\u0629"}}, {"type": "node", "id": 11603543576, "lat": 33.4292406, "lon": 43.2931476, "tags": {"amenity": "school", "name": "\u0645\u062f\u0631\u0633\u0629 \u062e\u0627\u0644\u062f \u0628\u0646 \u0627\u0644\u0648\u0644\u064a\u062f \u0627\u0644\u0627\u0628\u062a\u062f\u0627\u0626\u064a\u0629"}}, {"type": "node", "id": 11603543577, "lat": 33.4287526, "lon": 43.2935633, "tags": {"amenity": "school", "name": "\u0645\u062f\u0631\u0633\u0629 \u0627\u0644\u0627\u0646\u062a\u0635\u0627\u0631 \u0627\u0644\u0627\u0628\u062a\u062f\u0627\u0626\u064a\u0629 \u0644\u0644\u0628\u0646\u0627\u062a"}}, {"type": "node", "id": 11603543584, "lat": 33.4276915, "lon": 43.303458, "tags": {"amenity": "school", "name": "\u0645\u062f\u0631\u0633\u0629 \u0627\u0644\u0645\u0624\u0645\u0646 \u0627\u0644\u0627\u0628\u062a\u062f\u0627\u0626\u064a\u0629"}}, {"type": "node", "id": 11603543586, "lat": 33.418681, "lon": 43.3158552, "tags": {"amenity": "school", "name": "\u0645\u062f\u0631\u0633\u0629 \u0648\u0645\u062a\u0648\u0633\u0637\u0629  \u0635\u0647\u064a\u0628 \u0627\u0644\u0631\u0648\u0645\u064a \u0644\u0644\u0628\u0646\u064a\u0646"}}, {"type": "node", "id": 11603543589, "lat": 33.4222048, "lon": 43.3296578, "tags": {"amenity": "school", "name": "\u0645\u062a\u0648\u0633\u0637\u0629 \u0627\u0644\u0645\u0623\u0645\u0648\u0646 \u0644\u0644\u0628\u0646\u064a\u0646"}}, {"type": "node", "id": 11603543590, "lat": 33.4217435, "lon": 43.3298858, "tags": {"amenity": "school", "name": "\u062b\u0627\u0646\u0648\u064a\u0629 \u0642\u0631\u064a\u0634 \u0644\u0644\u0628\u0646\u0627\u062a"}}, {"type": "node", "id": 11603543612, "lat": 33.424309, "lon": 43.3376428, "tags": {"amenity": "school", "name": "\u062b\u0627\u0646\u0648\u064a\u0629 \u0627\u0644\u062c\u0648\u0627\u062f \u0644\u0644\u0628\u0646\u064a\u0646"}}, {"type": "node", "id": 11607749456, "lat": 33.4184023, "lon": 43.2305803, "tags": {"amenity": "school", "name": "\u0645\u062f\u0631\u0633\u0629 \u0627\u0644\u062d\u064a \u0627\u0644\u0642\u064a\u0648\u0645 \u0627\u0644\u0627\u0628\u062a\u062f\u0627\u0626\u064a\u0629 \u0644\u0644\u0628\u0646\u0627\u062a"}}, {"type": "node", "id": 11607749457, "lat": 33.4178046, "lon": 43.2309424, "tags": {"amenity": "school", "name": "\u0645\u062f\u0631\u0633\u0629 \u0630\u064a \u0627\u0644\u062c\u0646\u0627\u062d\u064a\u0646 \u0627\u0644\u0627\u0628\u062a\u062f\u0627\u0626\u064a\u0629 \u0644\u0644\u0628\u0646\u064a\u0646"}}, {"type": "node", "id": 11607758276, "lat": 33.417225, "lon": 43.2463444, "tags": {"amenity": "school", "name": "\u0645\u062f\u0627\u0631\u0633 \u0627\u0644\u062a\u0641\u0648\u0642 \u0627\u0644\u0627\u0647\u0644\u064a\u0629"}}, {"type": "node", "id": 11607758277, "lat": 33.4178725, "lon": 43.2703016, "tags": {"amenity": "school", "name": "\u0645\u062f\u0631\u0633\u0629 \u0627\u0644\u0645\u0639\u0631\u0627\u062c \u0627\u0644\u0627\u0628\u062a\u062f\u0627\u0626\u064a\u0629"}}, {"type": "node", "id": 11607758305, "lat": 33.4065878, "lon": 43.2871552, "tags": {"amenity": "school", "name": "\u0645\u062f\u0631\u0633\u0629 \u0641\u0627\u0637\u0645\u0629 \u0628\u0646\u062a \u0627\u0644\u062e\u0637\u0627\u0628 \u0644\u0644\u0628\u0646\u0627\u062a"}}, {"type": "node", "id": 11607845048, "lat": 33.4187466, "lon": 43.3150768, "tags": {"amenity": "school", "name": "\u0645\u062f\u0631\u0633\u0629 \u062f\u062c\u0644\u0629 \u0627\u0644\u0627\u0628\u062a\u062f\u0627\u0626\u064a\u0629 \u0644\u0644\u0628\u0646\u0627\u062a"}}, {"type": "node", "id": 11607845049, "lat": 33.4188563, "lon": 43.3150634, "tags": {"amenity": "school", "name": "\u0645\u062f\u0631\u0633\u0629 \u0627\u0644\u0627\u0639\u0631\u0627\u0641 \u0627\u0644\u0627\u0628\u062a\u062f\u0627\u0626\u064a\u0629 \u0644\u0644\u0628\u0646\u064a\u0646"}}, {"type": "node", "id": 11607845050, "lat": 33.418778, "lon": 43.3155461, "tags": {"amenity": "school", "name": "\u062b\u0627\u0646\u0648\u064a\u0629 \u062f\u062c\u0644\u0629 \u0644\u0644\u0628\u0646\u0627\u062a"}}, {"type": "node", "id": 11607845051, "lat": 33.4330507, "lon": 43.3019874, "tags": {"amenity": "school", "name": "\u062b\u0627\u0646\u0648\u064a\u0629 \u0627\u0644\u0627\u0639\u0631\u0627\u0641 \u0644\u0644\u0628\u0646\u064a\u0646"}}, {"type": "node", "id": 11607845052, "lat": 33.433908, "lon": 43.3050907, "tags": {"amenity": "school", "name": "\u062b\u0627\u0646\u0648\u064a\u0629 \u0642\u0628\u0629 \u0627\u0644\u0635\u062e\u0631\u0629 \u0644\u0644\u0628\u0646\u0627\u062a"}}, {"type": "node", "id": 11607845053, "lat": 33.4338767, "lon": 43.3054903, "tags": {"amenity": "school", "name": "\u0645\u062f\u0631\u0633\u0629 \u0627\u0644\u0634\u0643\u0648\u0631 \u0627\u0644\u0627\u0628\u062a\u062f\u0627\u0626\u064a\u0629 \u0644\u0644\u0628\u0646\u064a\u0646"}}, {"type": "node", "id": 11607845056, "lat": 33.4314615, "lon": 43.313612, "tags": {"amenity": "school", "name": "\u0645\u062f\u0631\u0633\u0629 \u0627\u0644\u062d\u0643\u0645\u0629 \u0627\u0644\u0627\u0628\u062a\u062f\u0627\u0626\u064a\u0629 \u0644\u0644\u0628\u0646\u064a\u0646"}}, {"type": "node", "id": 11607845057, "lat": 33.4311436, "lon": 43.313494, "tags": {"amenity": "school", "name": "\u0645\u062f\u0631\u0633\u0629 \u0627\u0644\u0639\u0641\u0629 \u0627\u0644\u0627\u0628\u062a\u062f\u0627\u0626\u064a\u0629 \u0644\u0644\u0628\u0646\u0627\u062a"}}, {"type": "node", "id": 11608106527, "lat": 33.4310698, "lon": 43.3301881, "tags": {"amenity": "school", "name": "\u0645\u062f\u0631\u0633\u0629 \u0627\u0644\u0645\u0627\u0646\u0639 \u0627\u0644\u0627\u0628\u062a\u062f\u0627\u0626\u064a\u0629 \u0644\u0644\u0628\u0646\u064a\u0646"}}, {"type": "node", "id": 11608106528, "lat": 33.430931, "lon": 43.3301881, "tags": {"amenity": "school", "name": "\u062b\u0627\u0646\u0648\u064a\u0629 \u0627\u0644\u0648\u062f\u0648\u062f \u0644\u0644\u0628\u0646\u0627\u062a"}}, {"type": "node", "id": 11608106529, "lat": 33.4163293, "lon": 43.3079472, "tags": {"amenity": "school", "name": "\u0645\u062f\u0631\u0633\u0629 \u0627\u0644\u0627\u0633\u0643\u0627\u0646 \u0627\u0644\u0627\u0628\u062a\u062f\u0627\u0626\u064a\u0629 \u0644\u0644\u0628\u0646\u064a\u0646"}}, {"type": "node", "id": 11608106530, "lat": 33.4162531, "lon": 43.3079258, "tags": {"amenity": "school", "name": "\u0645\u062f\u0631\u0633\u0629 \u0635\u0641\u0648\u0627\u0646 \u0627\u0644\u0627\u0628\u062a\u062f\u0627\u0626\u064a\u0629 \u0644\u0644\u0628\u0646\u064a\u0646"}}, {"type": "node", "id": 11608106531, "lat": 33.4279051, "lon": 43.3119682, "tags": {"amenity": "school", "name": "\u062b\u0627\u0646\u0648\u064a\u0629 \u0627\u0644\u0627\u0632\u062f\u0647\u0627\u0631 \u0644\u0644\u0628\u0646\u0627\u062a"}}, {"type": "node", "id": 11608106532, "lat": 33.427632, "lon": 43.312003, "tags": {"amenity": "school", "name": "\u0645\u062f\u0631\u0633\u0629 \u0627\u0644\u0631\u0634\u064a\u062f \u0627\u0644\u0627\u0628\u062a\u062f\u0627\u0626\u064a\u0629 \u0644\u0644\u0628\u0646\u064a\u0646"}}, {"type": "node", "id": 11608106533, "lat": 33.4275296, "lon": 43.312401, "tags": {"amenity": "school", "name": "\u0645\u062f\u0631\u0633\u0629 \u0627\u0644\u0632\u0647\u0631\u0627\u0621 \u0627\u0644\u0627\u0628\u062a\u062f\u0627\u0626\u064a\u0629 \u0644\u0644\u0628\u0646\u0627\u062a"}}, {"type": "node", "id": 11608106534, "lat": 33.4181498, "lon": 43.2666057, "tags": {"amenity": "school", "name": "\u0645\u062f\u0631\u0633\u0629 \u0627\u0644\u0631\u0628\u0627\u0628 \u0627\u0644\u0627\u0628\u062a\u062f\u0627\u0626\u064a\u0629 \u0644\u0644\u0628\u0646\u0627\u062a"}}, {"type": "node", "id": 11608106535, "lat": 33.4221861, "lon": 43.3044546, "tags": {"amenity": "school", "name": "\u0645\u062f\u0631\u0633\u0629 \u0627\u0644\u0631\u0645\u0627\u062f\u064a \u0627\u0644\u0627\u0628\u062a\u062f\u0627\u0626\u064a\u0629 \u0644\u0644\u0628\u0646\u064a\u0646"}}, {"type": "node", "id": 11608106536, "lat": 33.4350878, "lon": 43.2732143, "tags": {"amenity": "school", "name": "\u0645\u062a\u0648\u0633\u0637\u0629 \u0627\u0644\u0627\u0645\u0627\u0645 \u0627\u0644\u0639\u0627\u062f\u0644 \u0644\u0644\u0628\u0646\u064a\u0646"}}, {"type": "node", "id": 11608106537, "lat": 33.4354907, "lon": 43.2735523, "tags": {"amenity": "school", "name": "\u0627\u0639\u062f\u0627\u062f\u064a\u0629 \u0627\u0644\u0627\u0645\u0627\u0645 \u0627\u0644\u0639\u0627\u062f\u0644"}}, {"type": "node", "id": 11608106538, "lat": 33.42102, "lon": 43.2913865, "tags": {"amenity": "school", "name": "\u0645\u062f\u0631\u0633\u0629 \u0627\u0644\u062d\u0642 \u0627\u0644\u0627\u0628\u062a\u062f\u0627\u0626\u064a\u0629"}}, {"type": "node", "id": 11608106540, "lat": 33.4186549, "lon": 43.3155454, "tags": {"amenity": "school", "name": "\u0645\u062f\u0631\u0633\u0629 \u0627\u0633\u064a\u0627 \u0627\u0644\u0627\u0628\u062a\u062f\u0627\u0626\u064a\u0629 \u0644\u0644\u0628\u0646\u0627\u062a"}}, {"type": "node", "id": 11608106541, "lat": 33.4192485, "lon": 43.3144098}, {"type": "node", "id": 11608106542, "lat": 33.418556, "lon": 43.3144006}, {"type": "node", "id": 11608106543, "lat": 33.4185444, "lon": 43.3159564}, {"type": "node", "id": 11608106544, "lat": 33.419584, "lon": 43.3160018}, {"type": "node", "id": 11608106545, "lat": 33.4196027, "lon": 43.3153897}, {"type": "node", "id": 11608106546, "lat": 33.4191411, "lon": 43.3153695}, {"type": "node", "id": 11608106547, "lat": 33.4191527, "lon": 43.3147728}, {"type": "node", "id": 11608106548, "lat": 33.419261, "lon": 43.3147777}, {"type": "node", "id": 11608106567, "lat": 33.4160538, "lon": 43.3036286, "tags": {"amenity": "school", "name": "\u062b\u0627\u0646\u0648\u064a\u0629 \u0637\u0627\u0631\u0642 \u0628\u0646 \u0632\u064a\u0627\u062f \u0627\u0644\u0645\u0633\u0627\u0626\u064a\u0629"}}, {"type": "node", "id": 11610636732, "lat": 33.4221197, "lon": 43.3304151, "tags": {"amenity": "school", "name": "\u0645\u062f\u0631\u0633\u0629 \u0627\u0644\u0631\u062e\u0627\u0621 \u0627\u0644\u0627\u0628\u062a\u062f\u0627\u0626\u064a\u0629 \u0644\u0644\u0628\u0646\u0627\u062a"}}, {"type": "node", "id": 11610636733, "lat": 33.4228305, "lon": 43.3299538}, {"type": "node", "id": 11610636734, "lat": 33.4223514, "lon": 43.3303669}, {"type": "node", "id": 11610636735, "lat": 33.4221544, "lon": 43.3305117}, {"type": "node", "id": 11610636736, "lat": 33.4217201, "lon": 43.3306619}, {"type": "node", "id": 11610636737, "lat": 33.4213664, "lon": 43.3296641}, {"type": "node", "id": 11610636738, "lat": 33.4221813, "lon": 43.3293583}, {"type": "node", "id": 11610636739, "lat": 33.4225529, "lon": 43.329192}, {"type": "node", "id": 11611368803, "lat": 33.4279606, "lon": 43.4417251}, {"type": "node", "id": 11611368804, "lat": 33.4277658, "lon": 43.4426102}, {"type": "node", "id": 11611368805, "lat": 33.4273517, "lon": 43.4423983}, {"type": "node", "id": 11611368806, "lat": 33.4275084, "lon": 43.4414542}, {"type": "node", "id": 11611368807, "lat": 33.4276181, "lon": 43.4422374, "tags": {"amenity": "school", "name": "\u062b\u0627\u0646\u0648\u064a\u0629 \u0627\u0644\u0627\u0646\u062a\u0641\u0627\u0636\u0629 \u0644\u0644\u0628\u0646\u0627\u062a"}}, {"type": "node", "id": 11611368829, "lat": 33.4324546, "lon": 43.427166}, {"type": "node", "id": 11611368830, "lat": 33.4319891, "lon": 43.4274691}, {"type": "node", "id": 11611368831, "lat": 33.431754, "lon": 43.4271097}, {"type": "node", "id": 11611368832, "lat": 33.4321122, "lon": 43.4264365}, {"type": "node", "id": 11611368859, "lat": 33.4383676, "lon": 43.4269616}, {"type": "node", "id": 11611368860, "lat": 33.4379215, "lon": 43.4270843}, {"type": "node", "id": 11611368861, "lat": 33.4378392, "lon": 43.4266548}, {"type": "node", "id": 11611368862, "lat": 33.4382853, "lon": 43.4265321}, {"type": "node", "id": 11611368863, "lat": 33.4381922, "lon": 43.4268764, "tags": {"amenity": "school", "name": "\u062b\u0627\u0646\u0648\u064a\u0629 \u0642\u0631\u0637\u0628\u0629 \u0644\u0644\u0628\u0646\u0627\u062a"}}, {"type": "node", "id": 11611368919, "lat": 33.4121553, "lon": 43.4781643}, {"type": "node", "id": 11611368920, "lat": 33.4117616, "lon": 43.4784263}, {"type": "node", "id": 11611368921, "lat": 33.4115437, "lon": 43.4779565}, {"type": "node", "id": 11611368922, "lat": 33.4119374, "lon": 43.4776945}, {"type": "node", "id": 11611368923, "lat": 33.4120252, "lon": 43.4781013, "tags": {"amenity": "school", "name": "\u0645\u062f\u0631\u0633\u0629 \u0627\u0644\u0646\u0648\u0631 \u0644\u0644\u0628\u0646\u0627\u062a"}}, {"type": "node", "id": 11611368924, "lat": 33.4126591, "lon": 43.4784756}, {"type": "node", "id": 11611368925, "lat": 33.412269, "lon": 43.4787476}, {"type": "node", "id": 11611368926, "lat": 33.4121812, "lon": 43.478567}, {"type": "node", "id": 11611368927, "lat": 33.4125089, "lon": 43.4781666}, {"type": "node", "id": 11611368928, "lat": 33.4120835, "lon": 43.4784632}, {"type": "node", "id": 11611368929, "lat": 33.4121459, "lon": 43.4785917}, {"type": "node", "id": 11611368930, "lat": 33.4123208, "lon": 43.4785305, "tags": {"amenity": "school", "name": "\u0645\u062f\u0631\u0633\u0629 \u0627\u0644\u0646\u0635\u0631 \u0627\u0644\u0627\u0628\u062a\u062f\u0627\u0626\u064a\u0629 \u0644\u0644\u0628\u0646\u064a\u0646"}}, {"type": "node", "id": 11611368931, "lat": 33.4172112, "lon": 43.4870529}, {"type": "node", "id": 11611368932, "lat": 33.4167295, "lon": 43.4873572}, {"type": "node", "id": 11611368933, "lat": 33.4166017, "lon": 43.4870667}, {"type": "node", "id": 11611368934, "lat": 33.4170835, "lon": 43.4867625}, {"type": "node", "id": 11611368935, "lat": 33.4168858, "lon": 43.4871914, "tags": {"amenity": "school", "name": "\u062b\u0627\u0646\u0648\u064a\u0629 \u0632\u064a\u062f \u0628\u0646 \u0627\u0644\u062d\u0627\u0631\u062b\u0629 \u0644\u0644\u0628\u0646\u0627\u062a"}}, {"type": "node", "id": 11611368945, "lat": 33.421023, "lon": 43.4862767}, {"type": "node", "id": 11611368946, "lat": 33.4211618, "lon": 43.4869365}, {"type": "node", "id": 11611368947, "lat": 33.4207991, "lon": 43.4870841}, {"type": "node", "id": 11611368948, "lat": 33.4206648, "lon": 43.4864162}, {"type": "node", "id": 11611368949, "lat": 33.4210028, "lon": 43.4862284}, {"type": "node", "id": 11611368950, "lat": 33.4210387, "lon": 43.4868534, "tags": {"amenity": "school", "name": "\u0645\u062f\u0631\u0633\u0629 \u0627\u0644\u062e\u0627\u0644\u0635\u0629 \u0627\u0644\u0627\u0628\u062a\u062f\u0627\u0626\u064a\u0629 \u0644\u0644\u0628\u0646\u0627\u062a"}}, {"type": "node", "id": 11611368967, "lat": 33.416207, "lon": 43.4391892}, {"type": "node", "id": 11611368968, "lat": 33.4159294, "lon": 43.4395647}, {"type": "node", "id": 11611368969, "lat": 33.4154077, "lon": 43.4389505}, {"type": "node", "id": 11611368970, "lat": 33.4156473, "lon": 43.4385508}, {"type": "node", "id": 11611368971, "lat": 33.4228377, "lon": 43.4378305}, {"type": "node", "id": 11611368972, "lat": 33.4223686, "lon": 43.4381711}, {"type": "node", "id": 11611368973, "lat": 33.4221751, "lon": 43.4377888}, {"type": "node", "id": 11611368974, "lat": 33.4226442, "lon": 43.437448}, {"type": "node", "id": 11611369074, "lat": 33.4257375, "lon": 43.4011453}, {"type": "node", "id": 11611369075, "lat": 33.4251417, "lon": 43.401274}, {"type": "node", "id": 11611369076, "lat": 33.4250613, "lon": 43.4007395}, {"type": "node", "id": 11611369077, "lat": 33.425657, "lon": 43.4006108}, {"type": "node", "id": 11615562079, "lat": 33.4336022, "lon": 43.3680917}, {"type": "node", "id": 11615562080, "lat": 33.4325054, "lon": 43.3685637}, {"type": "node", "id": 11615562081, "lat": 33.4323174, "lon": 43.3679951}, {"type": "node", "id": 11615562082, "lat": 33.4334455, "lon": 43.3674962}, {"type": "node", "id": 11615562095, "lat": 33.4405084, "lon": 43.3730135}, {"type": "node", "id": 11615562096, "lat": 33.4400787, "lon": 43.3729599}, {"type": "node", "id": 11615562097, "lat": 33.4401884, "lon": 43.3719058}, {"type": "node", "id": 11615562098, "lat": 33.4406203, "lon": 43.3719567}, {"type": "node", "id": 11615562099, "lat": 33.4403764, "lon": 43.3727802, "tags": {"amenity": "school", "name": "\u0645\u062a\u0648\u0633\u0637\u0629 \u0627\u0644\u0633\u062c\u0627\u0631\u064a\u0629 \u0644\u0644\u0628\u0646\u064a\u0646"}}, {"type": "node", "id": 11615562133, "lat": 33.4405995, "lon": 43.3837109}, {"type": "node", "id": 11615562134, "lat": 33.4403577, "lon": 43.3844726}, {"type": "node", "id": 11615562135, "lat": 33.4400332, "lon": 43.3843466}, {"type": "node", "id": 11615562136, "lat": 33.4401854, "lon": 43.3838745}, {"type": "node", "id": 11615562137, "lat": 33.440501, "lon": 43.3836921}, {"type": "node", "id": 11615562138, "lat": 33.4403063, "lon": 43.384183, "tags": {"amenity": "school", "name": "\u0645\u062f\u0631\u0633\u0629 \u0627\u0644\u0634\u0647\u064a\u062f \u0645\u0635\u0637\u0641\u0649 \u0643\u0627\u0645\u0644"}}, {"type": "node", "id": 11615562193, "lat": 33.4310792, "lon": 43.3561739}, {"type": "node", "id": 11615562194, "lat": 33.4309762, "lon": 43.356654}, {"type": "node", "id": 11615562195, "lat": 33.4304099, "lon": 43.3564582}, {"type": "node", "id": 11615562196, "lat": 33.4304725, "lon": 43.3560076}, {"type": "node", "id": 11615562197, "lat": 33.4304401, "lon": 43.3562302}, {"type": "node", "id": 11615562198, "lat": 33.4391007, "lon": 43.3530546}, {"type": "node", "id": 11615562199, "lat": 33.4388104, "lon": 43.3531627}, {"type": "node", "id": 11615562200, "lat": 33.4386099, "lon": 43.3524225}, {"type": "node", "id": 11615562201, "lat": 33.4389025, "lon": 43.3523063}, {"type": "node", "id": 11615562202, "lat": 33.4389726, "lon": 43.3529242, "tags": {"amenity": "school", "name": "\u062b\u0627\u0646\u0648\u064a\u0629 \u0627\u0644\u0648\u0641\u0627\u0621 \u0644\u0644\u0628\u0646\u0627\u062a"}}, {"type": "node", "id": 11615562203, "lat": 33.4388652, "lon": 43.3526533, "tags": {"amenity": "school", "name": "\u0645\u062f\u0631\u0633\u0629 \u0627\u0644\u0645\u0647\u0646\u062f \u0627\u0644\u0627\u0628\u062a\u062f\u0627\u0626\u064a\u0629 \u0644\u0644\u0628\u0646\u064a\u0646"}}, {"type": "node", "id": 11615562289, "lat": 33.4314928, "lon": 43.3013872}, {"type": "node", "id": 11615562290, "lat": 33.4308387, "lon": 43.3015167}, {"type": "node", "id": 11615562291, "lat": 33.4307757, "lon": 43.3010602}, {"type": "node", "id": 11615562292, "lat": 33.4314298, "lon": 43.3009305}, {"type": "node", "id": 11615562293, "lat": 33.4312949, "lon": 43.3012181, "tags": {"amenity": "school", "name": "\u0627\u0639\u062f\u0627\u062f\u064a\u0629 \u0627\u0644\u0627\u062d\u0631\u0627\u0631 \u0644\u0644\u0628\u0646\u064a\u0646"}}, {"type": "node", "id": 11615562294, "lat": 33.43108, "lon": 43.3013629, "tags": {"amenity": "school", "name": "\u0645\u062f\u0631\u0633\u0629 \u0627\u0644\u0639\u0632\u0629 \u0627\u0644\u0627\u0628\u062a\u062f\u0627\u0626\u064a\u0629"}}, {"type": "node", "id": 11615562309, "lat": 33.429475, "lon": 43.2931205}, {"type": "node", "id": 11615562310, "lat": 33.4290855, "lon": 43.2935228}, {"type": "node", "id": 11615562311, "lat": 33.4288259, "lon": 43.2932251}, {"type": "node", "id": 11615562312, "lat": 33.4292915, "lon": 43.2927208}, {"type": "node", "id": 11615562313, "lat": 33.4293575, "lon": 43.2928429}, {"type": "node", "id": 11615562314, "lat": 33.429339, "lon": 43.292869}, {"type": "node", "id": 11615562315, "lat": 33.4289411, "lon": 43.2933659}, {"type": "node", "id": 11615562316, "lat": 33.4290174, "lon": 43.2935063}, {"type": "node", "id": 11615562317, "lat": 33.4285244, "lon": 43.2942853}, {"type": "node", "id": 11615562318, "lat": 33.4282507, "lon": 43.2940366}, {"type": "node", "id": 11615562319, "lat": 33.4287439, "lon": 43.2932576}, {"type": "node", "id": 11615562364, "lat": 33.4010395, "lon": 43.3336443}, {"type": "node", "id": 11615562365, "lat": 33.400399, "lon": 43.3338777}, {"type": "node", "id": 11615562366, "lat": 33.4001729, "lon": 43.3331535}, {"type": "node", "id": 11615562367, "lat": 33.4007999, "lon": 43.3329335}, {"type": "node", "id": 11615562368, "lat": 33.4007976, "lon": 43.3335531, "tags": {"amenity": "school", "name": "\u0645\u062f\u0631\u0633\u0629 \u0627\u0644\u062a\u0644 \u0627\u0644\u0627\u062e\u0636\u0631 \u0627\u0644\u0627\u0628\u062a\u062f\u0627\u0626\u064a\u0629 \u0627\u0644\u0645\u062e\u062a\u0644\u0637\u0629"}}, {"type": "node", "id": 11615562417, "lat": 33.4018642, "lon": 43.3132479}, {"type": "node", "id": 11615562418, "lat": 33.4012194, "lon": 43.3136491}, {"type": "node", "id": 11615562419, "lat": 33.4009667, "lon": 43.3130663}, {"type": "node", "id": 11615562420, "lat": 33.4016116, "lon": 43.3126652}, {"type": "node", "id": 11615562585, "lat": 33.3861402, "lon": 43.2783561}, {"type": "node", "id": 11615562586, "lat": 33.3856748, "lon": 43.2784328}, {"type": "node", "id": 11615562587, "lat": 33.385582, "lon": 43.2776253}, {"type": "node", "id": 11615562588, "lat": 33.3860476, "lon": 43.2775487}, {"type": "node", "id": 11615562605, "lat": 33.4013319, "lon": 43.2749071}, {"type": "node", "id": 11615562606, "lat": 33.401123, "lon": 43.2754627}, {"type": "node", "id": 11615562607, "lat": 33.400304, "lon": 43.275021}, {"type": "node", "id": 11615562608, "lat": 33.4005129, "lon": 43.2744653}, {"type": "node", "id": 11615562609, "lat": 33.4009197, "lon": 43.2751844, "tags": {"amenity": "school", "name": "\u0645\u062f\u0631\u0633\u0629 \u0635\u0631\u0648\u062d \u0627\u0644\u0645\u062c\u062f \u0627\u0644\u0627\u0628\u062a\u062f\u0627\u0626\u064a\u0629 \u0644\u0644\u0628\u0646\u064a\u0646"}}, {"type": "node", "id": 11615562610, "lat": 33.4071474, "lon": 43.2874743}, {"type": "node", "id": 11615562611, "lat": 33.4066559, "lon": 43.2882488}, {"type": "node", "id": 11615562612, "lat": 33.4058651, "lon": 43.2875287}, {"type": "node", "id": 11615562613, "lat": 33.4063564, "lon": 43.2867542}, {"type": "node", "id": 11615562630, "lat": 33.42826, "lon": 43.3018729}, {"type": "node", "id": 11615562631, "lat": 33.4279434, "lon": 43.3018769}, {"type": "node", "id": 11615562632, "lat": 33.4279411, "lon": 43.3016167}, {"type": "node", "id": 11615562633, "lat": 33.4282578, "lon": 43.3016127}, {"type": "node", "id": 11623881172, "lat": 33.4132545, "lon": 43.2862715}, {"type": "node", "id": 11623881173, "lat": 33.4129321, "lon": 43.2867918}, {"type": "node", "id": 11623881174, "lat": 33.4123052, "lon": 43.2862608}, {"type": "node", "id": 11623881175, "lat": 33.4126186, "lon": 43.2857082}, {"type": "node", "id": 11623881252, "lat": 33.4209693, "lon": 43.262152, "tags": {"amenity": "school", "name": "\u0645\u062f\u0631\u0633\u0629 \u0627\u0644\u0645\u0635\u0637\u0641\u0649 \u0627\u0644\u0627\u0628\u062a\u062f\u0627\u0626\u064a\u0629 \u0644\u0644\u0628\u0646\u064a\u0646"}}, {"type": "node", "id": 11623881276, "lat": 33.4305539, "lon": 43.2956805}, {"type": "node", "id": 11623881277, "lat": 33.4302159, "lon": 43.2963108}, {"type": "node", "id": 11623881278, "lat": 33.429621, "lon": 43.2958039}, {"type": "node", "id": 11623881279, "lat": 33.4299702, "lon": 43.2951923}, {"type": "node", "id": 11623881280, "lat": 33.4301896, "lon": 43.2960265, "tags": {"amenity": "school", "name": "\u0627\u0639\u062f\u0627\u062f\u064a\u0629 \u0627\u0644\u0639\u0644\u0645 \u0627\u0644\u0646\u0627\u0641\u0639 \u0644\u0644\u0628\u0646\u064a\u0646"}}, {"type": "node", "id": 11623881289, "lat": 33.4230106, "lon": 43.2422802}, {"type": "node", "id": 11623881290, "lat": 33.4224519, "lon": 43.2425084}, {"type": "node", "id": 11623881291, "lat": 33.4222018, "lon": 43.2416294}, {"type": "node", "id": 11623881292, "lat": 33.4226162, "lon": 43.2414601}, {"type": "node", "id": 11623881293, "lat": 33.4226956, "lon": 43.2417392}, {"type": "node", "id": 11623881294, "lat": 33.42284, "lon": 43.2416802}, {"type": "node", "id": 11623881295, "lat": 33.4222315, "lon": 43.2420348}, {"type": "node", "id": 11623881296, "lat": 33.4217836, "lon": 43.2422189}, {"type": "node", "id": 11623881297, "lat": 33.4216754, "lon": 43.241841}, {"type": "node", "id": 11623881298, "lat": 33.4221233, "lon": 43.2416568}, {"type": "node", "id": 11623881299, "lat": 33.4190816, "lon": 43.2328763}, {"type": "node", "id": 11623881300, "lat": 33.4183741, "lon": 43.2331552}, {"type": "node", "id": 11623881301, "lat": 33.4181323, "lon": 43.2323023}, {"type": "node", "id": 11623881302, "lat": 33.4185174, "lon": 43.2321387}, {"type": "node", "id": 11623881303, "lat": 33.4186428, "lon": 43.2323157}, {"type": "node", "id": 11623881304, "lat": 33.4189047, "lon": 43.2322165}, {"type": "node", "id": 11623881305, "lat": 33.4185926, "lon": 43.2301508}, {"type": "node", "id": 11623881306, "lat": 33.4180571, "lon": 43.2303636}, {"type": "node", "id": 11623881307, "lat": 33.4182063, "lon": 43.2309022}, {"type": "node", "id": 11623881308, "lat": 33.4187418, "lon": 43.2306892}, {"type": "node", "id": 11623881309, "lat": 33.4155152, "lon": 43.2245346}, {"type": "node", "id": 11623881310, "lat": 33.4150898, "lon": 43.2246687}, {"type": "node", "id": 11623881311, "lat": 33.4152846, "lon": 43.2255834}, {"type": "node", "id": 11623881312, "lat": 33.4153361, "lon": 43.2255995}, {"type": "node", "id": 11623881313, "lat": 33.4153652, "lon": 43.2255834}, {"type": "node", "id": 11623881314, "lat": 33.4156338, "lon": 43.2250496}, {"type": "node", "id": 11646632928, "lat": 33.4370779, "lon": 43.204277, "tags": {"amenity": "school", "name": "\u0645\u062f\u0631\u0633\u0629 \u062c\u0646\u0629 \u0627\u0644\u0645\u0623\u0648\u0649 \u0627\u0644\u0627\u0628\u062a\u062f\u0627\u0626\u064a\u0629 \u0627\u0644\u0645\u062e\u062a\u0644\u0637\u0629"}}, {"type": "way", "id": 346121841, "nodes": [3527359171, 3527359148, 3527359146, 3527359155, 3527359171], "tags": {"amenity": "school", "note": "guess based on imagery"}}, {"type": "way", "id": 390929121, "nodes": [3940854012, 3940854011, 11603538649, 3940854007, 3940854012], "tags": {"amenity": "school", "building": "yes"}}, {"type": "way", "id": 390929123, "nodes": [3940854009, 3940854010, 3940854003, 3940854002, 3940854009], "tags": {"amenity": "school", "building": "yes"}}, {"type": "way", "id": 1243203318, "nodes": [11554139155, 11554139156, 11554139160, 11554139161, 11554139158, 11554139159, 11554139155], "tags": {"addr:city": "\u0627\u0644\u062a\u0623\u0645\u064a\u0645", "addr:street": "\u0634\u0627\u0631\u0639 \u0627\u0644\u062a\u0623\u0645\u064a\u0645", "amenity": "school"}}, {"type": "way", "id": 1244029377, "nodes": [11563865088, 11563865089, 11563865090, 11563865091, 11563865088], "tags": {"amenity": "school", "name": "\u0645\u062f\u0631\u0633\u0629 \u0646\u064a\u0646\u0648\u0649 \u0627\u0644\u0627\u0628\u062a\u062f\u0627\u0626\u064a\u0629"}}, {"type": "way", "id": 1244029378, "nodes": [11563865092, 11563865093, 11563865094, 11563865095, 11563865092], "tags": {"amenity": "school", "name": "\u0645\u062a\u0648\u0633\u0637\u0629 \u0627\u0644\u0634\u0645\u0648\u062e \u0644\u0644\u0628\u0646\u064a\u0646"}}, {"type": "way", "id": 1244029379, "nodes": [11563865097, 11563865098, 11563865099, 11563865100, 11563865097], "tags": {"amenity": "school", "name": "\u0645\u062f\u0631\u0633\u0629 \u0627\u0644\u0645\u062e\u062a\u0627\u0631"}}, {"type": "way", "id": 1244029380, "nodes": [11563865101, 11563865102, 11563865103, 11563865104, 11563865101], "tags": {"amenity": "school", "name": "\u0645\u062f\u0631\u0633\u0629 \u0627\u0644\u0628\u0634\u064a\u0631"}}, {"type": "way", "id": 1244033946, "nodes": [11554139161, 11563885968, 11563901869, 11554139160, 11554139161], "tags": {"amenity": "school"}}, {"type": "way", "id": 1244033947, "nodes": [11554139155, 11563901870, 11563901871, 11554139156, 11554139155], "tags": {"amenity": "school"}}, {"type": "way", "id": 1248849712, "nodes": [11608106541, 11608106542, 11608106543, 11608106544, 11608106545, 11608106546, 11608106547, 11608106548, 11608106541], "tags": {"amenity": "school"}}, {"type": "way", "id": 1249126191, "nodes": [11610636733, 11610636734, 11610636735, 11610636736, 11610636737, 11610636738, 11610636739, 11610636733], "tags": {"amenity": "school"}}, {"type": "way", "id": 1249245605, "nodes": [11611368803, 11611368804, 11611368805, 11611368806, 11611368803], "tags": {"amenity": "school"}}, {"type": "way", "id": 1249245610, "nodes": [11611368829, 11611368830, 11611368831, 11611368832, 11611368829], "tags": {"amenity": "school"}}, {"type": "way", "id": 1249245614, "nodes": [11611368859, 11611368860, 11611368861, 11611368862, 11611368859], "tags": {"amenity": "school"}}, {"type": "way", "id": 1249245622, "nodes": [11611368919, 11611368920, 11611368921, 11611368922, 11611368919], "tags": {"amenity": "school"}}, {"type": "way", "id": 1249245623, "nodes": [11611368924, 11611368925, 11611368926, 11611368929, 11611368928, 11611368927, 11611368924], "tags": {"amenity": "school"}}, {"type": "way", "id": 1249245624, "nodes": [11611368931, 11611368932, 11611368933, 11611368934, 11611368931], "tags": {"amenity": "school"}}, {"type": "way", "id": 1249245627, "nodes": [11611368945, 11611368946, 11611368947, 11611368948, 11611368949, 11611368945], "tags": {"amenity": "school"}}, {"type": "way", "id": 1249245631, "nodes": [11611368967, 11611368968, 11611368969, 11611368970, 11611368967], "tags": {"amenity": "school"}}, {"type": "way", "id": 1249245632, "nodes": [11611368971, 11611368972, 11611368973, 11611368974, 11611368971], "tags": {"amenity": "school"}}, {"type": "way", "id": 1249245649, "nodes": [11611369074, 11611369075, 11611369076, 11611369077, 11611369074], "tags": {"amenity": "school"}}, {"type": "way", "id": 1249586161, "nodes": [11615562079, 11615562080, 11615562081, 11615562082, 11615562079], "tags": {"amenity": "school"}}, {"type": "way", "id": 1249586164, "nodes": [11615562095, 11615562096, 11615562097, 11615562098, 11615562095], "tags": {"amenity": "school"}}, {"type": "way", "id": 1249586170, "nodes": [11615562133, 11615562134, 11615562135, 11615562136, 11615562137, 11615562133], "tags": {"amenity": "school", "building": "yes"}}, {"type": "way", "id": 1249586175, "nodes": [11615562193, 11615562194, 11615562195, 11615562197, 11615562196, 11615562193], "tags": {"amenity": "school"}}, {"type": "way", "id": 1249586176, "nodes": [11615562198, 11615562199, 11615562200, 11615562201, 11615562198], "tags": {"amenity": "school"}}, {"type": "way", "id": 1249586188, "nodes": [11615562289, 11615562290, 11615562291, 11615562292, 11615562289], "tags": {"amenity": "school"}}, {"type": "way", "id": 1249586192, "nodes": [11615562309, 11615562310, 11615562315, 11615562311, 11615562312, 11615562313, 11615562314, 11615562309], "tags": {"amenity": "school"}}, {"type": "way", "id": 1249586193, "nodes": [11615562316, 11615562317, 11615562318, 11615562319, 11615562316], "tags": {"amenity": "school"}}, {"type": "way", "id": 1249586203, "nodes": [11615562364, 11615562365, 11615562366, 11615562367, 11615562364], "tags": {"amenity": "school"}}, {"type": "way", "id": 1249586205, "nodes": [11615562417, 11615562418, 11615562419, 11615562420, 11615562417], "tags": {"amenity": "school"}}, {"type": "way", "id": 1249586218, "nodes": [11615562585, 11615562586, 11615562587, 11615562588, 11615562585], "tags": {"amenity": "school"}}, {"type": "way", "id": 1249586221, "nodes": [11615562605, 11615562606, 11615562607, 11615562608, 11615562605], "tags": {"amenity": "school"}}, {"type": "way", "id": 1249586222, "nodes": [11615562610, 11615562611, 11615562612, 11615562613, 11615562610], "tags": {"amenity": "school"}}, {"type": "way", "id": 1249586227, "nodes": [11615562630, 11615562631, 11615562632, 11615562633, 11615562630], "tags": {"amenity": "school"}}, {"type": "way", "id": 1250493441, "nodes": [11623881172, 11623881173, 11623881174, 11623881175, 11623881172], "tags": {"amenity": "school"}}, {"type": "way", "id": 1250493468, "nodes": [11623881276, 11623881277, 11623881278, 11623881279, 11623881276], "tags": {"amenity": "school"}}, {"type": "way", "id": 1250493471, "nodes": [11623881289, 11623881290, 11623881291, 11623881292, 11623881293, 11623881294, 11623881289], "tags": {"amenity": "school"}}, {"type": "way", "id": 1250493472, "nodes": [11623881295, 11623881296, 11623881297, 11623881298, 11623881295], "tags": {"amenity": "school"}}, {"type": "way", "id": 1250493475, "nodes": [11623881299, 11623881300, 11623881301, 11623881302, 11623881303, 11623881304, 11623881299], "tags": {"amenity": "school"}}, {"type": "way", "id": 1250493476, "nodes": [11623881305, 11623881306, 11623881307, 11623881308, 11623881305], "tags": {"amenity": "school"}}, {"type": "way", "id": 1250493477, "nodes": [11623881309, 11623881310, 11623881311, 11623881312, 11623881313, 11623881314, 11623881309], "tags": {"amenity": "school"}}]}