{"version": 0.6, "generator": "Overpass API 0.7.61.5 4133829e", "osm3s": {"timestamp_osm_base": "2024-03-05T14:51:35Z", "copyright": "The data included in this document is from www.openstreetmap.org. The data is made available under ODbL."}, "elements": [{"type": "node", "id": 576402208, "lat": 56.2110074, "lon": 15.2777746, "tags": {"amenity": "bank", "opening_hours": "Mo-We 10:00-14:00;Th 10:00-17:30;Fr 10:00-14:00", "operator": "Handelsbanken", "wheelchair": "limited"}}, {"type": "node", "id": 576432056, "lat": 56.2116369, "lon": 15.275838, "tags": {"amenity": "bank", "atm": "yes", "name": "L\u00e4nsf\u00f6rs\u00e4kringar"}}, {"type": "node", "id": 958463882, "lat": 56.207056, "lon": 14.833532, "tags": {"amenity": "bank", "atm": "yes"}}, {"type": "node", "id": 1422684801, "lat": 56.1706523, "lon": 14.8616634, "tags": {"amenity": "bank", "atm": "yes", "name": "Sparbanken i Karlshamn"}}, {"type": "node", "id": 1422684802, "lat": 56.1711227, "lon": 14.8634867, "tags": {"amenity": "bank", "atm": "yes", "brand": "Nordea", "brand:wikidata": "Q1123823", "brand:wikipedia": "sv:Nordea", "name": "Nordea"}}, {"type": "node", "id": 1422684803, "lat": 56.1704425, "lon": 14.8618459, "tags": {"amenity": "bank", "atm": "yes", "brand": "Handelsbanken", "brand:wikidata": "Q1421630", "brand:wikipedia": "sv:Handelsbanken", "name": "Handelsbanken", "wheelchair": "no"}}, {"type": "node", "id": 2297460448, "lat": 56.2290063, "lon": 15.1180738, "tags": {"amenity": "bank", "atm": "yes", "brand": "Swedbank", "brand:wikidata": "Q1145493", "brand:wikipedia": "sv:Swedbank", "name": "Swedbank"}}, {"type": "node", "id": 2338299058, "lat": 56.211002, "lon": 15.2767715, "tags": {"amenity": "bank", "brand": "SEB", "brand:wikidata": "Q975655", "brand:wikipedia": "sv:Skandinaviska Enskilda Banken", "name": "SEB"}}, {"type": "node", "id": 2549206195, "lat": 56.211368, "lon": 15.276656, "tags": {"amenity": "bank", "atm": "no", "brand": "Swedbank", "brand:wikidata": "Q1145493", "brand:wikipedia": "sv:Swedbank", "name": "Swedbank", "website": "https://www.swedbank.se/om-swedbank/kontakta-oss/kontor/ronneby/index.htm", "wheelchair": "limited"}}, {"type": "node", "id": 3695843898, "lat": 56.2074754, "lon": 15.0297619, "tags": {"amenity": "bank", "atm": "no", "name": "Sparbanken Eken", "website": "https://www.sparbankeneken.se/vara-kontor/aryd/index.htm"}}, {"type": "node", "id": 3720293151, "lat": 56.2040059, "lon": 15.2714895, "tags": {"amenity": "bank", "atm": "no", "brand": "Western Union", "brand:wikidata": "Q861042", "brand:wikipedia": "en:Western Union", "name": "Western Union"}}, {"type": "node", "id": 4380843608, "lat": 56.1714651, "lon": 14.8610949, "tags": {"amenity": "bank", "atm": "no", "brand": "SEB", "brand:wikidata": "Q975655", "brand:wikipedia": "sv:Skandinaviska Enskilda Banken", "name": "SEB", "wheelchair": "yes"}}, {"type": "node", "id": 4556949248, "lat": 56.1858801, "lon": 14.8505444, "tags": {"amenity": "bank", "atm": "yes", "branch": "Klockans Grill", "brand": "Western Union", "brand:wikidata": "Q861042", "brand:wikipedia": "en:Western Union", "name": "Western Union"}}]}