{"version": 0.6, "generator": "Overpass API 0.7.61.5 4133829e", "osm3s": {"timestamp_osm_base": "2024-03-05T14:53:32Z", "copyright": "The data included in this document is from www.openstreetmap.org. The data is made available under ODbL."}, "elements": [{"type": "node", "id": 2314442023, "lat": 65.8555017, "lon": 22.2891907, "tags": {"addr:postcode": "95531", "amenity": "bank", "atm": "yes", "brand": "Swedbank", "brand:wikidata": "Q1145493", "brand:wikipedia": "en:Swedbank", "name": "Swedbank", "source": "local_knowledge"}}, {"type": "node", "id": 2317059695, "lat": 65.583589, "lon": 22.1544289, "tags": {"addr:city": "Lule\u00e5", "addr:country": "SE", "addr:housenumber": "38", "addr:postcode": "971 26", "addr:street": "K\u00f6pmangatan", "amenity": "bank", "atm": "no", "brand": "Nordea", "brand:wikidata": "Q1123823", "brand:wikipedia": "en:Nordea", "name": "Nordea", "opening_hours": "Mo-Fr 11:30-16:00;Sa-Su off", "operator": "Nordea Bank AB"}}, {"type": "node", "id": 2317059696, "lat": 65.5834673, "lon": 22.1530873, "tags": {"addr:city": "Lule\u00e5", "addr:country": "SE", "addr:housenumber": "34", "addr:postcode": "972 33", "addr:street": "K\u00f6pmangatan", "amenity": "bank", "atm": "yes", "brand": "Swedbank", "brand:wikidata": "Q1145493", "brand:wikipedia": "en:Swedbank", "name": "Swedbank", "opening_hours": "Mo-We 09:00-16:00;Th 09:00-18:00;Fr 09:00-16:00;Sa-Su off", "operator": "Swedbank AB", "website": "https://www.swedbank.se/om-swedbank/kontakta-oss/kontor/lulea/index.htm"}}, {"type": "node", "id": 2984005565, "lat": 65.584365, "lon": 22.1548547, "tags": {"addr:city": "Lule\u00e5", "addr:country": "SE", "addr:housenumber": "42A", "addr:postcode": "972 31", "addr:street": "Storgatan", "amenity": "bank", "atm": "yes", "brand": "SEB", "brand:wikidata": "Q975655", "brand:wikipedia": "en:SEB Group", "name": "SEB", "opening_hours": "Mo-Fr 10:00-15:00", "operator": "Skandinaviska Enskilda Banken AB", "website": "https://seb.se/kundservice/hitta-bankkontor/seb-i-lulea", "wheelchair": "yes"}}, {"type": "node", "id": 2984005566, "lat": 65.5845287, "lon": 22.1564375, "tags": {"addr:city": "Lule\u00e5", "addr:country": "SE", "addr:housenumber": "46", "addr:postcode": "972 31", "addr:street": "Storgatan", "amenity": "bank", "name": "Forex", "opening_hours": "Mo-Fr 10:00-18:00;Sa 10:00-14:00;Su off", "operator": "Forex Bank AB", "website": "http://www.forex.se/Om-FOREX/Bankbutiker/Bankbutiksinformation/?BankNum=151", "wheelchair": "yes"}}, {"type": "node", "id": 2998904684, "lat": 65.5841077, "lon": 22.1498061, "tags": {"addr:city": "Lule\u00e5", "addr:country": "SE", "addr:housenumber": "27", "addr:postcode": "972 32", "addr:street": "Storgatan", "amenity": "bank", "atm": "yes", "brand": "Handelsbanken", "brand:wikidata": "Q1421630", "brand:wikipedia": "en:Handelsbanken", "name": "Handelsbanken", "opening_hours": "Sa,Su off; Mo-Fr 10:00-15:00", "operator": "Svenska Handelsbanken AB", "website": "https://www.handelsbanken.se/lulea_storgatan", "wheelchair": "yes"}}, {"type": "node", "id": 3133282249, "lat": 65.5797677, "lon": 22.2005572, "tags": {"addr:city": "Lule\u00e5", "addr:country": "SE", "addr:housenumber": "7", "addr:postcode": "97435", "addr:street": "Kapellgr\u00e4nd", "amenity": "bank", "atm": "yes", "brand": "Handelsbanken", "brand:wikidata": "Q1421630", "brand:wikipedia": "en:Handelsbanken", "name": "Handelsbanken", "opening_hours": "Mo-Th 10:00-16:00;Fr 10:00-15:00", "operator": "Svenska Handelsbanken AB"}}, {"type": "node", "id": 3133282254, "lat": 65.5797057, "lon": 22.200435, "tags": {"amenity": "bank", "brand": "Swedbank", "brand:wikidata": "Q1145493", "brand:wikipedia": "en:Swedbank", "name": "Swedbank"}}, {"type": "node", "id": 3138425500, "lat": 65.5837902, "lon": 22.1559271, "tags": {"amenity": "bank", "name": "L\u00e4nsf\u00f6rs\u00e4kringar Norrbotten", "opening_hours": "Mo-Fr 08:00-16:30", "operator": "L\u00e4nsf\u00f6rs\u00e4kringar AB"}}, {"type": "node", "id": 3205930417, "lat": 65.855606, "lon": 22.2871942, "tags": {"addr:city": "R\u00e5ne\u00e5", "addr:country": "SE", "addr:housenumber": "4", "addr:postcode": "95531", "addr:street": "Aff\u00e4rsv\u00e4gen", "amenity": "bank", "atm": "no", "brand": "Handelsbanken", "brand:wikidata": "Q1421630", "brand:wikipedia": "en:Handelsbanken", "name": "Handelsbanken"}}]}