{"version": 0.6, "generator": "Overpass API 0.7.61.5 4133829e", "osm3s": {"timestamp_osm_base": "2024-03-05T13:45:00Z", "copyright": "The data included in this document is from www.openstreetmap.org. The data is made available under ODbL."}, "elements": [{"type": "node", "id": 1732050644, "lat": 34.2023744, "lon": 69.5326364, "tags": {"name": "Ahmadzo Kalay", "place": "village"}}, {"type": "node", "id": 1732053472, "lat": 34.1999934, "lon": 69.895241, "tags": {"name": "Khana", "place": "village"}}, {"type": "node", "id": 3442119156, "lat": 33.9524567, "lon": 69.8933088, "tags": {"name": "Kotri Mangal", "place": "village"}}, {"type": "node", "id": 3442119157, "lat": 33.9614397, "lon": 69.8864003, "tags": {"name": "Tari Mangal", "place": "village"}}, {"type": "node", "id": 3559282196, "lat": 33.9776545, "lon": 69.8376469, "tags": {"name": "\u06a9\u0648\u067c\u06a9\u0626 \u06a9\u0644\u06cc", "name:en": "Kotkai Kalai", "place": "village"}}, {"type": "node", "id": 3889747554, "lat": 33.9441218, "lon": 69.7141706, "tags": {"alt_name": "`Ali Kheyl;Alikhel", "name": "\u0639\u0644\u06cc \u062e\u06d0\u0644", "name:en": "`Ali Khel", "name:ps": "\u0639\u0644\u06cc \u062e\u06d0\u0644", "name:ru": "\u0410\u043b\u0438\u0445\u0435\u0439\u043b\u044c", "place": "town", "source:name": "GNS"}}, {"type": "node", "id": 3895770166, "lat": 34.1736408, "lon": 69.6456043, "tags": {"alt_name": "\u0627\u0632\u0631\u0647;\u0627\u0632\u0631\u0648;Azrow;Hokumati Azrow;Azra;Azreh;Hazro;Hazrah;Azru;Azraw;Hokumati Azraw;Hukumati Azrah", "name": "\u062d\u06a9\u0648\u0645\u062a\u06cc \u0627\u0632\u0631\u0647", "name:en": "Azrah", "name:ps": "\u062d\u06a9\u0648\u0645\u062a\u06cc \u0627\u0632\u0631\u0647", "name:ru": "Khukumati-Azrau", "place": "town", "source:name": "GNS"}}, {"type": "node", "id": 4411147120, "lat": 34.000486, "lon": 69.856699, "tags": {"alt_name": "\u0627\u062d\u0645\u062f \u062e\u064a\u0644;Ahmad Kheyl;Ahmad Khel", "name": "\u0627\u062d\u0645\u062f \u062e\u06d0\u0644", "name:en": "Ahmadkhel", "name:ps": "\u0627\u062d\u0645\u062f \u062e\u06d0\u0644", "name:ru": "Akhmedkheyl'", "place": "village", "source:name": "GNS"}}, {"type": "node", "id": 4411147121, "lat": 33.994666, "lon": 69.805955, "tags": {"alt_name": "\u0628\u0631\u0628\u06cc\u0644\u0647 \u0648\u0648\u062a;Pirano Kili;Bar Bilawut;Bar Bilahwut", "name": "\u0628\u0631\u0628\u0644\u0648\u0648\u062a", "name:en": "Bar Belawut", "name:ps": "\u0628\u0631\u0628\u0644\u0648\u0648\u062a", "name:ru": "Bar-Bilavut", "place": "village", "source:name": "GNS"}}, {"type": "node", "id": 4411147122, "lat": 33.958905, "lon": 69.761411, "tags": {"alt_name": "\u0628\u06cc\u0627\u062a\u06cc \u062e\u06d0\u0644", "name": "\u0628\u06cc\u0627\u0646 \u062e\u06d0\u0644", "name:en": "Bayan Khel;Bian Khel;Bayan Kheyl;Bayati Khel", "name:ps": "\u0628\u06cc\u0627\u0646 \u062e\u06d0\u0644", "name:ru": "Bayankheyl'", "place": "village", "source:name": "GNS"}}, {"type": "node", "id": 4411147123, "lat": 34.029513, "lon": 69.618889, "tags": {"alt_name": "\u062f\u0647\u0627\u0646 \u0633\u0647;Dre Khulah;Dre Khule", "name": "\u062f\u0631\u06d0 \u062e\u0648\u0644\u0647", "name:en": "Dre Kholeh", "name:ps": "\u062f\u0631\u06d0 \u062e\u0648\u0644\u0647", "name:ru": "Drekhula", "place": "village", "source:name": "GNS"}}, {"type": "node", "id": 4411147125, "lat": 33.977116, "lon": 69.818282, "tags": {"alt_name": "Jadrano Kalay;Zhandruno Kili;Dzadrano Kelay", "name": "\u0681\u062f\u0631\u0627\u0646\u0648 \u06a9\u0644\u06cc", "name:en": "Dzadrano Kalay", "name:ps": "\u0681\u062f\u0631\u0627\u0646\u0648 \u06a9\u0644\u06cc", "name:ru": "Dzhadrakhukalay", "place": "village", "source:name": "GNS"}}, {"type": "node", "id": 4411147127, "lat": 33.958527, "lon": 69.753258, "tags": {"alt_name": "\u063a\u0646\u062c\u06cc \u0627\u062d\u0645\u062f \u062e\u06d0\u0644;\u063a\u0646\u062c\u0647 \u0627\u062d\u0645\u062f \u062e\u06d0\u0644;Ghundzai Ahmad Khel;Ghundzay Ahmad Kheyl;Ghundzay Ahammad Kheyl;Ghunjay Ahmadkhel;Bian Khel;Ghundzay Ahmad Khel;Ghunjay Ahmad Khel;Ghunjah Ahmad Khel", "name": "\u063a\u0646\u0681\u06cc \u0627\u062d\u0645\u062f \u062e\u06d0\u0644", "name:en": "Ghunjay Ahammadkhel", "name:ps": "\u063a\u0646\u0681\u06cc \u0627\u062d\u0645\u062f \u062e\u06d0\u0644", "name:ru": "Gundzhayakhmedkheyl'", "place": "village", "source:name": "GNS"}}, {"type": "node", "id": 4411147128, "lat": 33.989908, "lon": 69.850201, "tags": {"alt_name": "Gulghunday;Gandaghundai;Gul Ghundey", "name": "\u06af\u0644 \u063a\u0646\u0689\u06cd", "name:en": "Gol Ghundey", "name:ps": "\u06af\u0644 \u063a\u0646\u0689\u06cd", "name:ru": "Gul'gunday", "place": "village", "source:name": "GNS"}}, {"type": "node", "id": 4411147130, "lat": 33.991952, "lon": 69.771101, "tags": {"alt_name": "Kharsatal", "name": "\u062e\u0631\u0634\u062a\u0644", "name:en": "Kharshatal", "name:ps": "\u062e\u0631\u0634\u062a\u0644", "place": "village", "source:name": "GNS"}}, {"type": "node", "id": 4411147131, "lat": 33.953056, "lon": 69.746574, "tags": {"alt_name": "\u062e\u0648\u0626\u06cc \u062e\u06d0\u0644;Khvajeh Kheyl;Khojikhel;Khodzi Kheyl;Khodzi Khel;Kho'i Khel;Khudzi Khel", "name": "\u062e\u0648\u0681\u06cc \u062e\u06d0\u0644", "name:en": "Khoji Kheyl", "name:ps": "\u062e\u0648\u0681\u06cc \u062e\u06d0\u0644", "name:ru": "Khodzhikheyl'", "place": "village", "source:name": "GNS"}}, {"type": "node", "id": 4411147132, "lat": 33.984016, "lon": 69.800484, "tags": {"alt_name": "Loe Bela Wat;Kuz Belawut;\u06a9\u0648\u0632 \u0628\u06cc\u0644\u0647 \u0648\u0648\u062a", "name": "\u06a9\u0648\u0632 \u0628\u0644\u0647 \u0648\u0648\u062a", "name:en": "Kuz Bilah Wut", "name:ps": "\u06a9\u0648\u0632 \u0628\u0644\u0647 \u0648\u0648\u062a", "name:ru": "Kuz-Bilavut", "place": "village", "source:name": "GNS"}}, {"type": "node", "id": 4411147133, "lat": 33.969166, "lon": 69.773979, "tags": {"alt_name": "Ali Sangi", "name": "\u06a9\u0648\u0632 \u0639\u0644\u06cc \u0633\u0646\u06af\u06cc", "name:en": "Kuz `Ali-Sangi", "name:ps": "\u06a9\u0648\u0632 \u0639\u0644\u06cc \u0633\u0646\u06af\u06cc", "name:ru": "Kuz-Alisangi", "place": "village", "source:name": "GNS"}}, {"type": "node", "id": 4411147134, "lat": 33.960598, "lon": 69.784904, "tags": {"alt_name": "\u0644\u0627\u0631 \u0644\u06cc\u0648\u0646\u06cc;Lar Lewani;Lar Laywani", "name": "\u0644\u0627\u0631 \u0644\u06d0\u0648\u0646\u06cc", "name:en": "Lar Lewanai", "name:ps": "\u0644\u0627\u0631 \u0644\u06d0\u0648\u0646\u06cc", "name:ru": "Lar-Levani", "place": "village", "source:name": "GNS"}}, {"type": "node", "id": 4411147135, "lat": 34.001404, "lon": 69.835983, "tags": {"alt_name": "\u0645\u064a\u0631 \u062e\u064a\u0644';Mirkhel;Mir Khel;Mir Kheyl", "name": "\u0645\u06cc\u0631 \u062e\u06d0\u0644", "name:en": "Mirkheyl", "name:ps": "\u0645\u06cc\u0631 \u062e\u06d0\u0644", "place": "village", "source:name": "GNS"}}, {"type": "node", "id": 4411147136, "lat": 33.98873, "lon": 69.796621, "tags": {"alt_name": "\u067e\u062a\u0644\u0647;Petlah;Petla;Pitla;Pitlah", "name": "\u067e\u0637\u0644\u0647", "name:en": "Patlah", "name:ps": "\u067e\u0637\u0644\u0647", "place": "village", "source:name": "GNS"}}, {"type": "node", "id": 4411147138, "lat": 34.002386, "lon": 69.841109, "tags": {"alt_name": "\u0633\u064a\u0631\u06af\u0644;Sirgul", "name": "\u0633\u0631\u06af\u0644", "name:en": "Sergal", "name:ps": "\u0633\u0631\u06af\u0644", "name:ru": "Sergal'", "place": "village", "source:name": "GNS"}}, {"type": "node", "id": 4411147139, "lat": 33.966755, "lon": 69.80439, "tags": {"alt_name": "Sharif Kalay;Sharif Kelay;Sarif Kalay", "name": "\u0634\u0631\u06cc\u0641 \u06a9\u0644\u06cc", "name:en": "Sharif Kili", "name:ps": "\u0634\u0631\u06cc\u0641 \u06a9\u0644\u06cc", "name:ru": "Sharifkalay", "place": "village", "source:name": "GNS"}}, {"type": "node", "id": 4411147142, "lat": 33.94299, "lon": 69.778802, "tags": {"alt_name": "\u0633\u0648\u0631\u0633\u0648\u0631\u0646\u06af;Sur Surang;Sursurang", "name": "\u0633\u0631\u0648\u0633\u0631\u0646\u06af", "name:en": "Sursorang", "name:ps": "\u0633\u0631\u0648\u0633\u0631\u0646\u06af", "name:ru": "Sursurang", "place": "village", "source:name": "GNS"}}, {"type": "node", "id": 4411404183, "lat": 33.787995, "lon": 69.816887, "tags": {"alt_name": "Darzakhel;Darwesha Khel;Darza Khel", "name": "\u062f\u0631\u0632\u0627 \u062e\u06d0\u0644", "name:en": "Darza Kheyl", "name:ps": "\u062f\u0631\u0632\u0627 \u062e\u06d0\u0644", "name:ru": "Darzakheyl'", "place": "village", "source:name": "GNS"}}, {"type": "node", "id": 4411404184, "lat": 33.800838, "lon": 69.78685, "tags": {"alt_name": "Hisarak-e Bala", "name": "\u062d\u0635\u0627\u0631\u06a9 \u0628\u0627\u0644\u0627", "name:en": "Hesarak-e Bala", "name:ps": "\u062d\u0635\u0627\u0631\u06a9 \u0628\u0627\u0644\u0627", "name:ru": "Khisaraki-Bala", "place": "village", "source:name": "GNS"}}, {"type": "node", "id": 4411404185, "lat": 33.795993, "lon": 69.821415, "tags": {"alt_name": "Ster Kalay Hesarak;Hesarak-e Sofla;Hesarak-e Pa`in", "name": "\u062d\u0635\u0627\u0631\u06a9 \u067e\u0627\u0626\u06cc\u0646", "name:en": "Hisarak-e Pa'in", "name:ps": "\u062d\u0635\u0627\u0631\u06a9 \u067e\u0627\u0626\u06cc\u0646", "name:ru": "Khisaraki-Payn", "place": "village", "source:name": "GNS"}}, {"type": "node", "id": 4411423604, "lat": 33.923883, "lon": 69.702526, "tags": {"alt_name": "Bar Kotkai;Bar Kotkay", "name": "\u0628\u0631 \u06a9\u0648\u062a\u06a9\u06cc", "name:en": "Bar Kowtkay", "name:ps": "\u0628\u0631 \u06a9\u0648\u062a\u06a9\u06cc", "name:ru": "Bar-Kotkay", "place": "village", "source:name": "GNS"}}, {"type": "node", "id": 4411423605, "lat": 33.93045, "lon": 69.699036, "tags": {"alt_name": "Barekat Khan Kalay;Barakat Khan Kelay", "name": "\u0628\u0631\u06a9\u062a \u062e\u0627\u0646 \u06a9\u0644\u06cc", "name:en": "Brakatkhan Kalay", "name:ps": "\u0628\u0631\u06a9\u062a \u062e\u0627\u0646 \u06a9\u0644\u06cc", "name:ru": "Brakatkhankalay", "place": "village", "source:name": "GNS"}}, {"type": "node", "id": 4411423608, "lat": 33.81872, "lon": 69.787274, "tags": {"alt_name": "Kata Mangyar", "name": "\u06a9\u062a\u0647 \u0645\u0646\u06af\u06cc\u0627\u0693", "name:en": "Katah Mangyar", "name:ps": "\u06a9\u062a\u0647 \u0645\u0646\u06af\u06cc\u0627\u0693", "name:ru": "Katamang'yar", "place": "village", "source:name": "GNS"}}, {"type": "node", "id": 4411423610, "lat": 33.97567, "lon": 69.832596, "tags": {"alt_name": "Nowabad", "name": "\u0646\u0648 \u0622\u0628\u0627\u062f", "name:en": "Nawabad", "name:ps": "\u0646\u0648 \u0622\u0628\u0627\u062f", "name:ru": "Navabad", "place": "village", "source:name": "GNS"}}, {"type": "node", "id": 4411592558, "lat": 33.942802, "lon": 69.688515, "tags": {"alt_name": "Bara Sega", "name": "\u0628\u0631\u0647 \u0634\u06af\u0647", "name:en": "Barah Shegah", "name:ps": "\u0628\u0631\u0647 \u0634\u06af\u0647", "name:ru": "Bara-Shega", "place": "village", "source:name": "GNS"}}, {"type": "node", "id": 4411592560, "lat": 34.015058, "lon": 69.648246, "tags": {"alt_name": "\u062f\u0631\u06c0 \u062e\u0644\u06cc;Dre Khule;Darreh-ye Khole", "name": "\u062f\u0631\u06d0 \u062e\u0648\u0644\u06d0", "name:en": "Dre Khole", "name:ps": "\u062f\u0631\u06d0 \u062e\u0648\u0644\u06d0", "name:ru": "Drekhule", "place": "village", "source:name": "GNS"}}, {"type": "node", "id": 4411592562, "lat": 34.011221, "lon": 69.633536, "tags": {"alt_name": "\u0634\u064a\u0644\u06c0 \u062d\u0633\u0646;Hasan Lgada;Hasan Lgadah", "name": "\u062d\u0633\u0646 \u0644\u06af\u0689\u0647", "name:en": "Hasan Algadah", "name:ps": "\u062d\u0633\u0646 \u0644\u06af\u0689\u0647", "name:ru": "Khasanl'gada", "place": "village", "source:name": "GNS"}}, {"type": "node", "id": 4411592563, "lat": 33.935143, "lon": 69.694283, "tags": {"alt_name": "Kuza Sega", "name": "\u06a9\u0648\u0632\u0647 \u0634\u06af\u0647", "name:en": "Kuzah Shegah", "name:ps": "\u06a9\u0648\u0632\u0647 \u0634\u06af\u0647", "name:ru": "Kuza-Shega", "place": "village", "source:name": "GNS"}}, {"type": "node", "id": 4411592564, "lat": 33.98061, "lon": 69.664841, "tags": {"alt_name": "Menakhel;Menah Khel", "name": "\u0645\u06d0\u0646\u0647 \u062e\u06d0\u0644", "name:en": "Menakheyl", "name:ps": "\u0645\u06d0\u0646\u0647 \u062e\u06d0\u0644", "name:ru": "Menakheyl'", "place": "village", "source:name": "GNS"}}, {"type": "node", "id": 4411592565, "lat": 33.9849011, "lon": 69.6531924, "tags": {"alt_name": "Rowqian;Ruqian", "name": "\u0631\u0648\u0642\u06cc\u0627\u0646", "name:en": "Ruqyan", "name:ps": "\u0631\u0648\u0642\u06cc\u0627\u0646", "name:ru": "Ruk'yan", "place": "village", "source:name": "GNS"}}, {"type": "node", "id": 4411592566, "lat": 33.952282, "lon": 69.678307, "tags": {"alt_name": "\u0633\u0631\u0647 \u0646\u06cc \u062e\u06d0\u0644;Sernikhel;Serni Khel;Srah Nay Khel", "name": "\u0633\u0631\u06bc\u06cc \u062e\u06d0\u0644", "name:en": "Serni Kheyl", "name:ps": "\u0633\u0631\u06bc\u06cc \u062e\u06d0\u0644", "name:ru": "Sernikheyl'", "place": "village", "source:name": "GNS"}}, {"type": "node", "id": 4411592567, "lat": 33.95126, "lon": 69.685104, "tags": {"alt_name": "Sahmohammad Kalay;Shah Muhammad Kelay", "name": "\u0634\u0627\u0647 \u0645\u062d\u0645\u062f \u06a9\u0644\u06cc", "name:en": "Shah Mohammad Kalay", "name:ps": "\u0634\u0627\u0647 \u0645\u062d\u0645\u062f \u06a9\u0644\u06cc", "name:ru": "Shakhmukhammed-Kalay", "place": "village", "source:name": "GNS"}}, {"type": "node", "id": 4411592568, "lat": 33.941307, "lon": 69.691093, "tags": {"alt_name": "Sega", "name": "\u0634\u06af\u0647", "name:en": "Shegah", "name:ps": "\u0634\u06af\u0647", "name:ru": "Shega", "place": "village", "source:name": "GNS"}}, {"type": "node", "id": 4411592569, "lat": 34.004635, "lon": 69.647105, "tags": {"alt_name": "\u0686\u067e\u0631\u06cc;Tsaparay;Caparay;Tsaperay", "name": "\u0685\u067e\u0631\u06cc", "name:en": "Tsaperai", "name:ps": "\u0685\u067e\u0631\u06cc", "name:ru": "Chaparay", "place": "village", "source:name": "GNS"}}, {"type": "node", "id": 4416172495, "lat": 34.179253, "lon": 69.664993, "tags": {"alt_name": "\u0627\u0643\u0628\u0631 \u062e\u064a\u0644;Akbarkheyl;Akbar Khel", "name": "\u0627\u06a9\u0628\u0631 \u062e\u06d0\u0644", "name:en": "Akbarkhel", "name:ps": "\u0627\u06a9\u0628\u0631 \u062e\u06d0\u0644", "name:ru": "Akbarkheyl'", "place": "village", "source:name": "GNS"}}, {"type": "node", "id": 4416172497, "lat": 34.165415, "lon": 69.632099, "tags": {"alt_name": "Babari", "name": "\u0628\u0628\u0631", "name:en": "Babar", "name:ps": "\u0628\u0628\u0631", "place": "village", "source:name": "GNS"}}, {"type": "node", "id": 4416172499, "lat": 34.158367, "lon": 69.623385, "tags": {"alt_name": "Katswal;Kacwal;\u06a9\u0686\u0648\u0627\u0644", "name": "\u06a9\u0685\u0648\u0627\u0644", "name:en": "Kachwal", "name:ps": "\u06a9\u0685\u0648\u0627\u0644", "name:ru": "Kachval'", "place": "village", "source:name": "GNS"}}, {"type": "node", "id": 4416172500, "lat": 34.164605, "lon": 69.619887, "tags": {"alt_name": "Salim Kheyl;\u0633\u0644\u064a\u0645 \u062e\u064a\u0644", "name": "\u0633\u0644\u06cc\u0645 \u062e\u06d0\u0644", "name:en": "Salim Khel", "name:ps": "\u0633\u0644\u06cc\u0645 \u062e\u06d0\u0644", "name:ru": "Salimkheyl'", "place": "village", "source:name": "GNS"}}, {"type": "node", "id": 4416172502, "lat": 34.170643, "lon": 69.637665, "tags": {"alt_name": "\u0633\u0648\u0631 \u0643\u0686;Sur Kach;Sur Kac", "name": "\u0633\u0648\u0631 \u06a9\u0685", "name:en": "Sur Kats", "name:ps": "\u0633\u0648\u0631 \u06a9\u0685", "name:ru": "Surkach", "place": "village", "source:name": "GNS"}}, {"type": "node", "id": 4416200357, "lat": 34.182289, "lon": 69.697472, "tags": {"alt_name": "\u0686\u0648\u062a\u0631\u0647 \u0628\u0627\u0644\u0627;Bara Cawatra;Barah Chawatrah;Barah Chowatrah", "name": "\u0628\u0631\u0647 \u0686\u0648\u062a\u0631\u0647", "name:en": "Barah Chow Atrah", "name:ps": "\u0628\u0631\u0647 \u0686\u0648\u062a\u0631\u0647", "name:ru": "Bara Chavatra", "place": "village", "source:name": "GNS"}}, {"type": "node", "id": 4416200359, "lat": 34.1621341, "lon": 69.6265518, "tags": {"alt_name": "\u062e\u0648\u0634\u062d\u0627\u0644 \u062e\u064a\u0644;Khvoshhal Kheyl;Khushhal Khel;Khoshhal Khel", "name": "\u062e\u0648\u0634\u062d\u0627\u0644 \u062e\u06d0\u0644", "name:en": "Khushalkhel", "name:ps": "\u062e\u0648\u0634\u062d\u0627\u0644 \u062e\u06d0\u0644", "name:ru": "Khushkal'kheyla", "place": "village", "source:name": "GNS"}}, {"type": "node", "id": 4416200361, "lat": 34.1806442, "lon": 69.71254, "tags": {"alt_name": "\u0686\u0648\u062a\u0631\u0647 \u067e\u0627\u0626\u06cc\u0646;Kuza Cawatra;Kuzah Chow Atrah;Kuzeh Chawatrah;Kuzah Chowatrah", "name": "\u06a9\u0648\u0632\u0647 \u0686\u0648\u062a\u0631\u0647", "name:en": "Kuza Chawatra", "name:ps": "\u06a9\u0648\u0632\u0647 \u0686\u0648\u062a\u0631\u0647", "name:ru": "Kuza Chavatra", "place": "village", "source:name": "GNS"}}, {"type": "node", "id": 4416200362, "lat": 34.171719, "lon": 69.728874, "tags": {"alt_name": "\u0645\u0644\u0627\u064a\u0627\u0646;Molayan;Mullayan", "name": "\u0645\u0644\u0627\u06cc\u0627\u0646", "name:en": "Mollayan", "name:ps": "\u0645\u0644\u0627\u06cc\u0627\u0646", "name:ru": "Mullayan", "place": "village", "source:name": "GNS"}}, {"type": "node", "id": 9456059568, "lat": 33.7723013, "lon": 69.804366, "tags": {"name": "\u0639\u0644\u064a\u0645 \u06a9\u0644\u06cc", "name:en": "Alim Village", "place": "village"}}]}