{"version": 0.6, "generator": "Overpass API 0.7.61.5 4133829e", "osm3s": {"timestamp_osm_base": "2024-03-06T11:17:45Z", "copyright": "The data included in this document is from www.openstreetmap.org. The data is made available under ODbL."}, "elements": [{"type": "node", "id": 248436981, "lat": 35.4719308, "lon": 44.3953896, "tags": {"alt_name": "\u0628\u0627\u0648\u06d5\u06af\u0648\u0695\u06af\u0648\u0695", "alt_name:syc": "\u071f\u072a\u071f\u0718\u071f", "capital": "4", "name": "\u0643\u0631\u0643\u0648\u0643 / \u06a9\u06d5\u0631\u06a9\u0648\u0648\u06a9", "name:ar": "\u0643\u0631\u0643\u0648\u0643", "name:arc": "\u071f\u072a\u071f \u0723\u0720\u0718\u071f", "name:arz": "\u0643\u0631\u0643\u0648\u0643", "name:az-Arab": "\u06a9\u0631\u06a9\u0648\u06a9", "name:azb": "\u06a9\u0631\u06a9\u0648\u06a9", "name:ckb": "\u06a9\u06d5\u0631\u06a9\u0648\u0648\u06a9", "name:cs": "Kirk\u00fak", "name:da": "Kirkuk", "name:de": "Kirkuk", "name:diq": "Kerk\u00fbk", "name:el": "\u039a\u03b9\u03c1\u03ba\u03bf\u03cd\u03ba", "name:en": "Kirkuk", "name:et": "Kirk\u016bk", "name:eu": "Kirkuk", "name:fa": "\u06a9\u0631\u06a9\u0648\u06a9", "name:fi": "Kirkuk", "name:fr": "Kirkouk", "name:he": "\u05db\u05d9\u05e8\u05db\u05d5\u05db", "name:hi": "\u0905\u0924 \u0924\u092e\u0940\u092e (\u0915\u093f\u0930\u0915\u0941\u0915)", "name:hr": "Kirkuk", "name:hy": "\u0554\u056b\u0580\u0584\u0578\u0582\u0584", "name:hyw": "\u0554\u0565\u0580\u0584\u0578\u0582\u0584", "name:ja": "\u30ad\u30eb\u30af\u30fc\u30af", "name:kk-Arab": "\u0643\u0649\u064a\u0631\u0643\u06cb\u0643", "name:kmr": "\u06a9\u06d5\u0631\u06a9\u0648\u0648\u06a9", "name:kn": "\u0c95\u0cbf\u0cb0\u0ccd\u0c95\u0cc1\u0c95\u0ccd", "name:ko": "\ud0a4\ub974\ucfe0\ud06c", "name:ks": "\u06a9\u0631\u06a9\u0648\u06a9", "name:ku": "Kerk\u00fbk", "name:ml": "\u0d15\u0d3f\u0d7c\u0d15\u0d41\u0d15\u0d4d\u0d15\u0d4d", "name:mzn": "\u06a9\u0631\u06a9\u0648\u06a9", "name:ota": "\u06a9\u0631\u06a9\u0648\u06a9", "name:pl": "Kirkuk", "name:pnb": "\u06a9\u0631\u06a9\u0648\u06a9", "name:ru": "\u041a\u0438\u0440\u043a\u0443\u0301\u043a", "name:sdh": "\u06a9\u06d5\u0631\u06a9\u0648\u0648\u06a9", "name:sv": "Kirkuk", "name:syc": "\u071f\u072a\u071f \u0723\u0720\u0718\u071f", "name:te": "\u0c15\u0c3f\u0c30\u0c4d\u0c15\u0c41\u0c15\u0c4d", "name:tr": "Kerk\u00fck", "name:tt": "\u041a\u04d9\u0440\u043a\u04af\u043a", "name:uk": "\u041a\u0456\u0440\u043a\u0443\u043a", "name:ur": "\u06a9\u0631\u06a9\u0648\u06a9", "place": "city", "population": "850787", "postal_code": "36001", "wikidata": "Q173310", "wikipedia": "ar:\u0643\u0631\u0643\u0648\u0643"}}, {"type": "node", "id": 2479361899, "lat": 35.4862071, "lon": 44.2196546, "tags": {"name": "\u0627\u0644\u0628\u0648 \u0635\u0628\u0627\u062d", "name:en": "Albu Sabah", "place": "village"}}, {"type": "node", "id": 2479362123, "lat": 35.6421683, "lon": 44.3244989, "tags": {"name": "\u06af\u0648\u06b5\u062f\u06d5\u0631\u06d5\u06cc \u0628\u0686\u0648\u0648\u06a9", "name:ar": "\u06a9\u064f\u0644\u062f\u0631\u0629 \u0627\u0644\u0635\u063a\u06cc\u0631", "name:en": "Little Goldara", "name:ku": "Gulldere", "place": "village"}}, {"type": "node", "id": 2479362134, "lat": 35.6015746, "lon": 44.2667599, "tags": {"alt_name": "\u0642\u0648\u062a\u0627\u0646 \u062e\u0644\u064a\u0641\u0629", "int_name": "Q\u016b\u0163an Kalifah, Q\u016bt\u0101n Khal\u012bfah, \u0642\u0648\u062a\u0627\u0646 \u062e\u0644\u064a\u0641\u0629, Qutan Kalifah, Qutan Khalifah, \u0642\u0648\u062a\u0627\u0646 \u062e\u0644\u064a\u0641\u0629", "name": "\u0642\u0648\u062a\u0627\u0646 \u062e\u06d5\u0644\u06cc\u0641\u06d5", "name:ar": "\u0642\u0648\u062a\u0627\u0646 \u062e\u0644\u064a\u0641\u0629", "name:ckb": "\u0642\u0648\u062a\u0627\u0646 \u062e\u06d5\u0644\u06cc\u0641\u06d5", "name:en": "Qutan Khalifa", "name:ku": "Qutan Xel\u00eefe", "place": "village"}}, {"type": "node", "id": 2482641170, "lat": 35.4811645, "lon": 44.0067453, "tags": {"name": "\u06af\u0628\u06cc\u0628\u0629", "name:ar": "\u06af\u0628\u06cc\u0628\u0629", "name:ckb": "\u06af\u0648\u0628\u06d5\u06cc\u0628\u06d5", "name:en": "Gubbeba", "place": "village", "source": "wikimapia"}}, {"type": "node", "id": 2482641191, "lat": 35.5655996, "lon": 44.0151542, "tags": {"name": "\u0645\u0627\u0645\u06d5", "name:ar": "\u0645\u0627\u0645\u0629", "name:ckb": "\u0645\u0627\u0645\u06d5", "name:en": "Mama", "name:ku": "Mame", "place": "village"}}, {"type": "node", "id": 2482641421, "lat": 35.3658094, "lon": 44.0521474, "tags": {"name": "\u0627\u0628\u0648 \u06af\u0635\u06d5", "name:ckb": "\u0626\u06d5\u0628\u0648\u06af\u06d5\u0633\u06d5", "name:en": "Abu Gassa", "place": "village"}}, {"type": "node", "id": 2482641429, "lat": 35.415001, "lon": 44.051772, "tags": {"name": "\u0628\u0631\u064a\u0645\u0629", "name:en": "Brema", "place": "village"}}, {"type": "node", "id": 2482641438, "lat": 35.5076218, "lon": 44.0630866, "tags": {"alt_name:ckb": "\u062f\u06d5\u0648\u0631\u0627\u0645\u06cc \u0695\u0648\u0648\u062e\u0627\u0648", "name": "\u062f\u0648\u0631\u0627\u0645 \u0627\u0644\u0642\u062f\u064a\u0645", "name:ar": "\u062f\u0648\u0631\u0627\u0645 \u0627\u0644\u0642\u062f\u064a\u0645", "name:ckb": "\u062f\u06d5\u0648\u0631\u0627\u0645\u06cc \u06a9\u06c6\u0646", "name:en": "Old Dawram", "name:ku": "Dewrama Kevn", "place": "village", "population": "0"}}, {"type": "node", "id": 2482641442, "lat": 35.526832, "lon": 44.0347813, "tags": {"name": "\u062e\u06d5\u0631\u0627\u0628\u06d5 \u0695\u0648\u0648\u062a", "name:ar": "\u062e\u0631\u0627\u0628\u0631\u0648\u062f", "name:ckb": "\u062e\u06d5\u0631\u0627\u0628\u06d5 \u0695\u0648\u0648\u062a", "name:en": "Kharaba Rut", "name:ku": "Xerabe R\u00fbt", "place": "village"}}, {"type": "node", "id": 2486472581, "lat": 35.6329539, "lon": 44.0043633, "tags": {"name": "\u0628\u0627\u064a \u062d\u0633\u0646", "name:ar": "\u0628\u0627\u064a \u062d\u0633\u0646", "name:ckb": "\u0628\u0627\u06cc \u062d\u06d5\u0633\u06d5\u0646", "name:en": "Bay Hasan", "name:ku": "Bay Hesen", "place": "village"}}, {"type": "node", "id": 2486472608, "lat": 35.5186639, "lon": 44.0985369, "tags": {"name": "\u062f\u0648\u0631\u0645", "name:ar": "\u062f\u0648\u0631\u0645", "name:ckb": "\u062f\u0648\u0631\u0645", "name:en": "Durm", "name:ku": "Durim", "place": "village"}}, {"type": "node", "id": 2486472669, "lat": 35.400334, "lon": 44.0981801, "tags": {"alt_name": "\u0643\u0648\u0627\u0632 \u0639\u0631\u0628 \u0627\u0644\u062c\u0628\u064a\u0631\u0629", "int_name": "Kaw\u0101z H\u0101ji Jam\u012bl, Kaw\u0101z \u1e28\u0101jj\u012b Jam\u012bl, Koaz Hajy Jamil, \u0643\u0648\u0627\u0632 \u062d\u0627\u062c\u064a \u062c\u0645\u064a\u0644, Kawaz Haji Jamil, Kawaz Hajji Jamil, Koaz Hajy Jamil, \u0643\u0648\u0627\u0632 \u062d\u0627\u062c\u064a \u062c\u0645\u064a\u0644", "name": "\u0643\u0648\u0627\u0632 \u062d\u0627\u062c\u064a \u062c\u0645\u064a\u0644", "name:ar": "\u0643\u0648\u0627\u0632 \u062d\u0627\u062c\u064a \u062c\u0645\u064a\u0644", "name:ckb": "\u06a9\u06d5\u0648\u0627\u0632\u06cc \u062d\u0627\u062c\u06cc \u062c\u06d5\u0645\u06cc\u0644", "name:de": "Kawaz Haji Jamil", "name:en": "Kawaz Haji Jamil", "name:fr": "Kawaz Haji Jamil", "place": "village"}}, {"type": "node", "id": 2486472706, "lat": 35.5438873, "lon": 44.1017228, "tags": {"name": "\u06a9\u0648\u0646\u06d5 \u0695\u06ce\u0648\u06cc", "name:ar": "\u0643\u0648\u0646\u0629 \u0631\u064a\u0648\u064a", "name:ckb": "\u06a9\u0648\u0646\u06d5\u0695\u06ce\u0648\u06cc", "name:en": "Kunarewi", "name:ku": "Kuner\u00eaw\u00ee", "place": "village"}}, {"type": "node", "id": 2486472721, "lat": 35.4316519, "lon": 44.1163814, "tags": {"int_name": "N\u0101\u015fir\u012byah, Nasria, \u0646\u0627\u0635\u0631\u064a\u0629, Nasiriyah, Nasria, \u0646\u0627\u0635\u0631\u064a\u0629", "name": "\u0646\u0627\u0635\u0631\u064a\u0629", "name:ar": "\u0646\u0627\u0635\u0631\u064a\u0629", "name:ckb": "\u0646\u0627\u0633\u0695\u06cc\u06d5", "name:de": "Nasiriyah", "name:en": "Nasiriyah", "name:fr": "Nasiriyah", "place": "village"}}, {"type": "node", "id": 2486472774, "lat": 35.5449894, "lon": 44.0696744, "tags": {"alt_name": "\u062a\u0627\u0642 \u062a\u0627\u0642", "int_name": "T\u0101q T\u0101q, Taqlaq, \u0162aq\u0163aq, \u062a\u0627\u0642 \u062a\u0627\u0642, Taq Taq, Taqlaq, Taqtaq, \u062a\u0627\u0642 \u062a\u0627\u0642", "name": "\u0637\u0642\u0637\u0642", "name:ar": "\u0637\u0642\u0637\u0642", "name:ckb": "\u062a\u06d5\u0642\u062a\u06d5\u0642", "name:en": "Taqtaq", "name:ku": "Teqteq", "place": "village"}}, {"type": "node", "id": 2488265174, "lat": 35.538884, "lon": 44.283006, "tags": {"int_name": "Bah Jawan, Bajaw\u0101n, B\u0101jaw\u0101n, Bajuan, \u0628\u0627\u062c\u0648\u0627\u0646, Bah Jawan, Bajawan, Bajawan, Bajuan, \u0628\u0627\u062c\u0648\u0627\u0646", "name": "\u0628\u0627\u062c\u0648\u0627\u0646", "name:de": "Bajawan", "name:en": "Bajawan", "name:fr": "Bajawan", "place": "village"}}, {"type": "node", "id": 2488265303, "lat": 35.439894, "lon": 44.232795, "tags": {"alt_name": "\u064a\u0627\u064a\u062c\u064a", "alt_name:en": "Yaychi", "capital": "7", "int_name": "Yaich\u012b, Yaychi, Y\u0101ych\u012b, \u064a\u0627\u064a\u0686\u064a, Yaichi, Yaychi, Yaychi, \u064a\u0627\u064a\u0686\u064a", "name": "\u06cc\u0627\u06cc\u0686\u06cc", "name:ar": "\u064a\u0627\u064a\u062c\u064a", "name:ckb": "\u06cc\u0627\u06cc\u0686\u06cc", "name:de": "Yaychi", "name:en": "Yaychi", "name:fr": "Yaychi", "name:ku": "Yay\u00e7\u00ee", "place": "town"}}, {"type": "node", "id": 2488265309, "lat": 35.4775194, "lon": 44.3002504, "tags": {"name": "\u0628\u06b5\u0627\u0648\u06d5", "name:ar": "\u0628\u0644\u0627\u0648\u0629", "name:en": "Blawa", "place": "village"}}, {"type": "node", "id": 2488265408, "lat": 35.3573328, "lon": 44.3112494, "tags": {"name": "\u0686\u0627\u0631\u062f\u0627\u063a\u0644\u06cc", "place": "village"}}, {"type": "node", "id": 2488265417, "lat": 35.4425855, "lon": 44.2851322, "tags": {"name": "\u062f\u06cc\u0628\u06d5\u06af \u062a\u06d5\u067e\u06d5", "name:ar": "\u062f\u064a\u0628\u0643 \u062a\u0628\u0647", "name:en": "Dibag Tappa", "place": "village"}}, {"type": "node", "id": 2488265454, "lat": 35.6266013, "lon": 44.461262, "tags": {"name": "\u06af\u06c6\u06af\u062c\u06d5", "name:ar": "\u0643\u0648\u0643\u062c\u0629", "name:ckb": "\u06af\u06c6\u06af\u062c\u06d5", "name:en": "Gogja", "name:ku": "Gogce", "place": "village"}}, {"type": "node", "id": 2488265489, "lat": 35.5069766, "lon": 44.2718658, "tags": {"name": "\u06a9\u0648\u0645\u0628\u06d5\u062a\u0644\u06d5\u0631", "name:en": "kumbetlar", "name:tr": "K\u00fcmbetler K\u00f6y\u00fc", "place": "village"}}, {"type": "node", "id": 2488265500, "lat": 35.5856978, "lon": 44.2456093, "tags": {"name": "\u0642\u0648\u062a\u0627\u0646\u06cc \u0628\u0686\u0648\u0648\u06a9", "name:ar": "\u0642\u0648\u062a\u0627\u0646 \u0627\u0644\u0635\u063a\u06cc\u0631", "name:en": "Little Qutan", "place": "village"}}, {"type": "node", "id": 2488265609, "lat": 35.4361527, "lon": 44.394924, "tags": {"name": "\u062d\u064a \u0627\u0644\u062d\u062c\u0627\u062c", "name:en": "Hay al Hujjaj", "place": "hamlet"}}, {"type": "node", "id": 2488265642, "lat": 35.511389, "lon": 44.307778, "tags": {"alt_name": "\u062d\u0635\u0627\u0631", "int_name": "Hasar", "name": "\u062d\u0635\u0627\u0631", "name:ar": "\u062d\u0635\u0627\u0631", "name:ckb": "\u062d\u06d5\u0633\u0627\u0631", "name:de": "Hasar", "name:en": "Hasar", "name:fr": "Hasar", "name:ku": "Hesar", "place": "village"}}, {"type": "node", "id": 2488265653, "lat": 35.427142, "lon": 44.225183, "tags": {"alt_name": "\u062c\u062f\u064a\u062f\u0629", "int_name": "Jadida, Jad\u012bdah, Taza, \u062c\u062f\u064a\u062f\u0629, Jadida, Jadidah, Taza, \u062c\u062f\u064a\u062f\u0629", "name": "\u062c\u062f\u064a\u062f\u0629", "name:ar": "\u0627\u0644\u062c\u062f\u064a\u062f\u0629", "name:ar1": "\u062c\u062f\u064a\u062f\u0629", "name:de": "Jadida", "name:en": "Jadida", "name:fr": "Jadida", "place": "village"}}, {"type": "node", "id": 2488265736, "lat": 35.425821, "lon": 44.3093195, "tags": {"name": "\u06a9\u0648\u06ce\u062e\u0627 \u062c\u0645\u0639\u06d5", "name:ar": "\u0643\u0648\u064a\u062e\u0627 \u062c\u0645\u0639\u0629", "name:en": "Kwekha Jumaa", "place": "village"}}, {"type": "node", "id": 2488265797, "lat": 35.472376, "lon": 44.378361, "tags": {"description": "\u06a9\u06d5\u0631\u062a\u06cc \u0642\u06d5\u06b5\u0627", "int_name": "Sh\u0101\u0163irl\u016b, \u0645\u062d\u0644\u0629 \u0634\u0627\u062a\u0631\u0644\u0648, Shatirlu, \u06af\u06d5\u0695\u06d5\u06a9\u06cc \u0634\u0627\u062a\u0631\u0644\u0648", "name": "\u0645\u062d\u0644\u0629 \u0634\u0627\u0637\u0631\u0644\u0648", "name:ar": "\u0645\u062d\u0644\u0629 \u0634\u0627\u0637\u0631\u0644\u0648", "name:ckb": "\u06af\u06d5\u0695\u06d5\u06a9\u06cc \u0634\u0627\u062a\u0631\u0644\u0648", "name:de": "Shatirlu", "name:en": "Shatirlu", "name:fr": "Shatirlu", "place": "hamlet"}}, {"type": "node", "id": 2488265804, "lat": 35.5444254, "lon": 44.2434819, "tags": {"alt_name": "\u0645\u062d\u0645\u0648\u062f", "int_name": "Mahmud, Ma\u1e29m\u016bd, \u0645\u062d\u0645\u0648\u062f, Mahmud, Mahmud, \u0645\u062d\u0645\u0648\u062f", "name": "\u0639\u06d5\u0644\u0627\u0648 \u0645\u06d5\u062d\u0645\u0648\u062f", "name:ar": "\u0639\u0644\u0627\u0648 \u0645\u062d\u0645\u0648\u062f", "name:ar1": "\u0645\u062d\u0645\u0648\u062f", "name:de": "Alaw Mahmood", "name:en": "Alaw Mahmood", "name:fr": "Alaw Mahmood", "place": "village"}}, {"type": "node", "id": 2488265821, "lat": 35.5344872, "lon": 44.3507906, "tags": {"alt_name:ar": "\u0628\u0627\u0628\u0627 \u0643\u0631 \u0643\u0631", "name": "\u0628\u0627\u0628\u0627\u06af\u0648\u0695\u06af\u0648\u0695", "name:ar": "\u0628\u0627\u0628\u0627 \u0643\u0631\u0643\u0631", "name:ckb": "\u0628\u0627\u0628\u0627 \u06af\u0648\u0695\u06af\u0648\u0695", "name:de": "Old Baba", "name:en": "Old Baba", "name:fr": "Old Baba", "place": "village"}}, {"type": "node", "id": 2488265828, "lat": 35.624158, "lon": 44.213508, "tags": {"name": "\u0642\u06d5\u06b5\u0627 \u06be\u06d5\u06b5\u0628\u06d5\u062a", "name:ar": "\u0642\u0644\u0627 \u0647\u0644\u0628\u062a", "name:ckb": "\u0642\u06d5\u06b5\u0627 \u06be\u06d5\u06b5\u0628\u06d5\u062a", "name:en": "Qala Halbat", "name:ku": "Qella Hellbet", "place": "village"}}, {"type": "node", "id": 2488265835, "lat": 35.3757481, "lon": 44.5050357, "tags": {"name": "\u0642\u0627\u0632\u0627\u0646 \u0628\u0648\u06b5\u0627\u063a", "name:ar": "\u0642\u0627\u0632\u0627\u0646 \u0628\u0648\u06b5\u0627\u063a", "name:en": "Qazan Bulagh", "name:ku": "Qazan Bullax", "place": "village"}}, {"type": "node", "id": 2488265965, "lat": 35.382353, "lon": 44.3073798, "tags": {"name": "\u0634\u06c6\u0695\u06cc\u062c\u06d5", "name:ckb": "\u0634\u06c6\u0695\u06cc\u062c\u06d5", "place": "village"}}, {"type": "node", "id": 2488265967, "lat": 35.5688212, "lon": 44.510343, "tags": {"name": "\u0633\u0648\u0648\u0631\u06d5\u062f\u06ce\u06cc \u062e\u0648\u0627\u0631\u0648\u0648", "name:ar": "\u0633\u0648\u0631\u064e\u062f\u064a \u0627\u0644\u06a9\u0628\u06cc\u0631", "name:ckb": "\u0633\u0648\u0648\u0631\u06d5\u062f\u06ce\u06cc \u06af\u06d5\u0648\u0631\u06d5", "name:en": "Great Surade", "name:ku": "S\u00fbred\u00eaya Mezin", "place": "village"}}, {"type": "node", "id": 2488265968, "lat": 35.396516, "lon": 44.27797, "tags": {"alt_name:en": "Topzawa", "name": "\u0637\u0648\u0628\u0632\u0627\u0648\u06d5", "name:ar": "\u0637\u0648\u0628\u0632\u0627\u0648\u06d5", "name:ckb": "\u062a\u06c6\u0628\u0632\u0627\u0648\u06d5", "name:en": "Tabuzawah", "place": "village"}}, {"type": "node", "id": 2488265969, "lat": 35.5910021, "lon": 44.1565334, "tags": {"name": "\u062a\u0644 \u0639\u0632\u064a\u0632", "name:de": "Tal Aziz", "name:en": "Tal Aziz", "name:fr": "Tal Aziz", "place": "village"}}, {"type": "node", "id": 2488265970, "lat": 35.40976, "lon": 44.223466, "tags": {"alt_name": "\u062a\u0644 \u062d\u0645\u0629 \u0631\u0634", "int_name": "Tal Hama Rash, Tall \u1e28ummat Rashsh, \u062a\u0644 \u062d\u0645\u0629 \u0631\u0634, Tal Hama Rash, Tall Hummat Rashsh, \u062a\u0644 \u062d\u0645\u0629 \u0631\u0634", "name": "\u06af\u0631\u062f\u06cc \u062d\u06d5\u0645\u06d5 \u0695\u06d5\u0634", "name:ar": "\u062a\u0644 \u0645\u062d\u0645\u062f", "name:ar1": "\u062a\u0644 \u062d\u0645\u0629 \u0631\u0634", "name:de": "Tal Hama Rash", "name:en": "Tal Hama Rash", "name:fr": "Tal Hama Rash", "place": "village"}}, {"type": "node", "id": 2488265973, "lat": 35.4006625, "lon": 44.2998533, "tags": {"name": "\u06af\u0631\u062f\u06cc \u0686\u0627\u06b5\u0627\u0648", "name:ar": "\u06a9\u0631\u062f\u064a \u062c\u0627\u0644\u0627\u0648", "name:en": "Grdi Challaw", "place": "village"}}, {"type": "node", "id": 2488265974, "lat": 35.3567691, "lon": 44.3898471, "tags": {"name": "\u062a\u06c6\u062e\u0645\u0627\u062e\u0644\u0648\u06cc \u0628\u0686\u0648\u0648\u06a9", "name:ar": "\u062a\u0648\u062e\u0645\u0627 \u062e\u0644\u0648 \u0627\u0644\u0635\u063a\u0631\u06cc", "name:ckb": "\u062a\u0648\u062e\u0645\u0627\u062e\u0644\u0648\u0648", "name:en": "Little Tokhmakhlo", "place": "village"}}, {"type": "node", "id": 2488265975, "lat": 35.387148, "lon": 44.274244, "tags": {"name": "\u062a\u0631\u0643\u0644\u0627\u0646", "name:ar": "\u062a\u0631\u0643\u0644\u0627\u0646", "name:ckb": "\u062a\u0695\u06a9\u06d5\u06b5\u0627\u0646", "name:de": "Tar Kalan", "name:en": "Tar Kalan", "name:fr": "Tar Kalan", "place": "village"}}, {"type": "node", "id": 2488265976, "lat": 35.3608725, "lon": 44.4709469, "tags": {"name": "\u062a\u06d5\u0631\u062c\u06cc\u0644", "name:ar": "\u062a\u0631\u062c\u064a\u0644", "name:ckb": "\u062a\u06d5\u0631\u062c\u06cc\u0644", "name:de": "Tarjeel", "name:en": "Tarjil", "name:fr": "Tarjeel", "name:ku": "Terc\u00eel", "place": "village"}}, {"type": "node", "id": 2488265978, "lat": 35.3641493, "lon": 44.3929406, "tags": {"name": "\u062a\u06c6\u062e\u0645\u0627\u062e\u0644\u0648\u06cc \u06af\u06d5\u0648\u0631\u06d5", "name:ar": "\u062a\u0648\u062e\u0645\u0627 \u062e\u0644\u0648 \u0627\u0644\u0643\u0628\u0631\u0649", "name:ckb": "\u062a\u0648\u062e\u0645\u0627\u062e\u0644\u0648\u0648\u06cc \u06af\u06d5\u0648\u0631\u06d5", "name:en": "Greater Tokhmakhloo", "place": "village"}}, {"type": "node", "id": 2488265979, "lat": 35.6020664, "lon": 44.4781022, "tags": {"name": "\u062a\u06c6\u0628\u0632\u0627\u0648\u0627", "name:ckb": "\u062a\u06c6\u0628\u0632\u0627\u0648\u0627", "name:en": "Tobzawa", "name:ku": "Tobzawa", "place": "village"}}, {"type": "node", "id": 2488266113, "lat": 35.533562, "lon": 44.4345649, "tags": {"name": "\u064a\u0627\u0631\u0648\u0644\u064a", "name:ar": "\u064a\u0627\u0631\u0648\u0644\u064a", "name:ckb": "\u06cc\u0627\u0631\u0648\u06d5\u0644\u06cc \u06a9\u06c6\u0646", "name:de": "Yarwali", "name:en": "Yarwali", "name:fr": "Yarwali", "place": "village"}}, {"type": "node", "id": 2488266114, "lat": 35.504097, "lon": 44.497863, "tags": {"name": "\u0632\u06d5\u0648\u06cc \u0695\u06d5\u0634\u06cc\u062f", "name:ar": "\u0632\u0648\u064a \u0631\u0634\u06cc\u062f", "name:ckb": "\u0632\u06d5\u0648\u06cc \u0695\u06d5\u0634\u06cc\u062f", "name:en": "Zawi Rashid", "name:ku": "Zew\u00ee Re\u015f\u00eed", "place": "village"}}, {"type": "node", "id": 2488268729, "lat": 35.433611, "lon": 44.1425, "tags": {"alt_name": "\u0627\u0644\u0627\u0628\u064a\u062a\u0631", "name": "\u0627\u0644\u0627\u0628\u064a\u0637\u0631", "name:ar": "\u0627\u0644\u0627\u0628\u064a\u0637\u0631", "name:ckb": "\u0647\u0648\u0628\u06cc\u062a\u06d5\u0631", "name:en": "AL Ubetir", "place": "village"}}, {"type": "node", "id": 2488268736, "lat": 35.3571275, "lon": 44.1436001, "tags": {"alt_name": "\u0627\u0644\u0645\u0631\u0629", "int_name": "Al Murrah, Mra, \u0627\u0644\u0645\u0631\u0629, Al Murrah, Mra, \u0627\u0644\u0645\u0631\u0629", "name": "\u0645\u0631\u0629", "name:ar": "\u0645\u0631\u0629", "name:ar1": "\u0627\u0644\u0645\u0631\u0629", "name:ckb": "\u0645\u0648\u0695\u06d5", "name:de": "Al Murrah", "name:en": "Al Murrah", "name:fr": "Al Murrah", "place": "village"}}, {"type": "node", "id": 2488268902, "lat": 35.5652479, "lon": 44.5346579, "tags": {"alt_name": "\u0628\u06cc\u0646\u06cc\u0627", "int_name": "Bozan", "name": "\u0628\u0648\u0632\u0627\u0646", "name:ar": "\u0628\u0648\u0632\u0627\u0646", "name:ckb": "\u0628\u06c6\u0632\u0627\u0646", "name:en": "Bozan", "name:ku": "Bozan", "place": "village"}}, {"type": "node", "id": 2488268926, "lat": 35.5766222, "lon": 44.1346252, "tags": {"alt_name": "\u062c\u063a\u0645\u0627\u063a\u0629", "int_name": "Chakhmakha, Chaqm\u0101qah, Jaghm\u0101ghah, Juqmaqah, \u062c\u063a\u0645\u0627\u063a\u0629, Chakhmakha, Chaqmaqah, Jaghmaghah, Juqmaqah, \u062c\u063a\u0645\u0627\u063a\u0629", "name": "\u0686\u06d5\u062e\u0645\u0627\u062e\u06d5", "name:ar": "\u062c\u063a\u0645\u0627\u063a\u0629", "name:ckb": "\u0686\u06d5\u062e\u0645\u0627\u062e\u06d5", "name:en": "Chakhmakha", "name:ku": "\u00c7exmaxe", "place": "village"}}, {"type": "node", "id": 2488269344, "lat": 35.476744, "lon": 44.1484935, "tags": {"int_name": "Idris Sultan, Idr\u012bs Sul\u0163\u0101n, Idris Sultan, Idris Sultan", "name": "\u0625\u062f\u0631\u064a\u0633 \u0633\u0644\u0637\u0627\u0646", "name:ar1": "\u0625\u062f\u0631\u064a\u0633 \u0633\u0644\u0637\u0627\u0646", "name:ckb": "\u0626\u06cc\u062f\u0631\u06cc\u0633 \u0633\u0648\u06b5\u062a\u0627\u0646", "name:de": "Idris Sultan", "name:en": "Idris Sultan", "name:fr": "Idris Sultan", "place": "village"}}, {"type": "node", "id": 2488269350, "lat": 35.564448, "lon": 44.147863, "tags": {"alt_name": "\u0625\u062f\u0631\u064a\u0633 \u062a\u0645\u0631", "int_name": "Idris, Idr\u012bs Tamr, \u0627\u062f\u0631\u064a\u0633 \u062a\u0645\u0631, Idris, Idris Tamr, \u0627\u062f\u0631\u064a\u0633 \u062a\u0645\u0631", "name": "\u0625\u062f\u0631\u064a\u0633 \u062a\u0645\u0631", "name:ar": "\u0625\u062f\u0631\u064a\u0633 \u062a\u0645\u0631", "name:ar1": "\u0625\u062f\u0631\u064a\u0633 \u062a\u0645\u0631", "name:de": "Idris", "name:en": "Idris", "name:fr": "Idris", "place": "village"}}, {"type": "node", "id": 2488269631, "lat": 35.454499, "lon": 44.1334301, "tags": {"capital": "7", "name": "\u0627\u0644\u0645\u0644\u062a\u0642\u0649", "name:ar": "\u0627\u0644\u0645\u0644\u062a\u0642\u06cc", "name:ckb": "\u0645\u0648\u0644\u062a\u06d5\u0642\u0627", "name:en": "Multaqa", "place": "town"}}, {"type": "node", "id": 2488269851, "lat": 35.5302769, "lon": 44.1353365, "tags": {"alt_name": "\u0635\u0627\u0628\u0648\u0646\u062c\u064a", "int_name": "\u015e\u0101b\u016bnch\u012b, Sabunchy, S\u0101bunj\u012b, \u0635\u0627\u0628\u0648\u0646\u0686\u064a, Sabunchi, Sabunchy, Sabunji, \u0635\u0627\u0628\u0648\u0646\u0686\u064a", "name": "\u0633\u0627\u0628\u0648\u0648\u0646\u0686\u06cc", "name:ar": "\u0635\u0627\u0628\u0648\u0646\u062c\u064a", "name:ckb": "\u0633\u0627\u0628\u0648\u0648\u0646\u0686\u06cc", "name:en": "Sabunchi", "name:ku": "Sab\u00fbn\u00e7\u00ee", "place": "village"}}, {"type": "node", "id": 2488270086, "lat": 35.3809418, "lon": 44.1216222, "tags": {"int_name": "Tal Ward, Tall al Warad, \u062a\u0644 \u0627\u0644\u0648\u0631\u062f, Tal Ward, Tall al Warad, \u062a\u0644 \u0627\u0644\u0648\u0631\u062f", "name": "\u062a\u0644 \u0627\u0644\u0648\u0631\u062f", "name:ar": "\u062a\u0644 \u0627\u0644\u0648\u0631\u062f", "name:ckb": "\u062a\u06d5\u0644 \u0648\u06d5\u0631\u062f", "name:de": "Tal Ward", "name:en": "Tal Ward", "name:fr": "Tal Ward", "place": "village", "source": "wikimapia"}}, {"type": "node", "id": 2489280048, "lat": 35.2145192, "lon": 44.1158324, "tags": {"alt_name": "\u0627\u0644\u0633\u0639\u064a\u062f\u064a\u0629", "int_name": "Al Sa\u012bd\u012byah, As Sa\u012bd\u012byah, \u0627\u0644\u0633\u0639\u064a\u062f\u064a\u0629, Al Saidiyah, As Saidiyah, \u0627\u0644\u0633\u0639\u064a\u062f\u064a\u0629", "name": "\u0633\u0639\u064a\u062f\u064a\u0629", "name:ar": "\u0633\u0639\u064a\u062f\u064a\u0629", "name:ar1": "\u0627\u0644\u0633\u0639\u064a\u062f\u064a\u0629", "name:ckb": "\u0633\u06d5\u0639\u06cc\u062f\u06cc\u06d5", "name:de": "Al Saidiyah", "name:en": "Al Saidiyah", "name:fr": "Al Saidiyah", "place": "village"}}, {"type": "node", "id": 2489280098, "lat": 35.296008, "lon": 44.1489007, "tags": {"alt_name": "\u062c\u0631\u0632\u0627\u062a", "int_name": "Charsat, Charz\u0101t, \u0686\u0631\u0632\u0627\u062a, Charsat, Charzat, \u0686\u0631\u0632\u0627\u062a", "name": "\u062c\u0631\u0632\u0627\u062a", "name:ar": "\u062c\u0631\u0632\u0627\u062a", "name:ar1": "\u062c\u0631\u0632\u0627\u062a", "name:ckb": "\u0686\u06d5\u0631\u06d5\u0632\u0627\u062a", "name:de": "Charsat", "name:en": "Charsat", "name:fr": "Charsat", "place": "village"}}, {"type": "node", "id": 2489280107, "lat": 35.2278369, "lon": 44.185413, "tags": {"alt_name": "\u062f\u0648\u0643\u0634\u0645\u0646 \u0627\u0644\u0643\u0628\u0631\u0649", "int_name": "Dogshm\u0101n al Kubr\u00e1, Dokshman the Great, D\u016bkshaman al Kubr\u00e1, \u062f\u0648\u0643\u0634\u0645\u0646 \u0627\u0644\u0643\u0628\u0631\u0649, Dogshman al Kubra, Dokshman the Great, Dukshaman al Kubra, \u062f\u0648\u0643\u0634\u0645\u0646 \u0627\u0644\u0643\u0628\u0631\u0649", "name": "\u062f\u0648\u0634\u0645\u0627\u0646\u06cc \u06af\u06d5\u0648\u0631\u06d5", "name:ar": "\u062f\u0648\u0643\u0634\u0645\u0646 \u0627\u0644\u0643\u0628\u0631\u0649", "name:ar1": "\u062f\u0648\u0643\u0634\u0645\u0646 \u0627\u0644\u0643\u0628\u0631\u0649", "name:ckb": "\u062f\u0648\u0634\u0645\u0627\u0646\u06cc \u06af\u06d5\u0648\u0631\u06d5", "name:de": "Dogshman al Kubra", "name:en": "Dogshman al Kubra", "name:fr": "Dogshman al Kubra", "place": "village"}}, {"type": "node", "id": 2489280111, "lat": 35.2093102, "lon": 44.1816719, "tags": {"alt_name": "\u062f\u0648\u0643\u0634\u0645\u0646 \u0627\u0644\u0635\u063a\u0631\u0649", "int_name": "Dogshman a\u015f \u015eughr\u00e1, Dokshman the Small, D\u016bkshaman a\u015f \u015eughr\u00e1, \u062f\u0648\u0643\u0634\u0645\u0646 \u0627\u0644\u0635\u063a\u0631\u0649, Dogshman as Sughra, Dokshman the Small, Dukshaman as Sughra, \u062f\u0648\u0643\u0634\u0645\u0646 \u0627\u0644\u0635\u063a\u0631\u0649", "name": "\u062f\u0648\u0634\u0645\u0627\u0646\u06cc \u0628\u0686\u0648\u0648\u06a9", "name:ar": "\u062f\u0648\u0643\u0634\u0645\u0646 \u0627\u0644\u0635\u063a\u0631\u0649", "name:ar1": "\u062f\u0648\u0643\u0634\u0645\u0646 \u0627\u0644\u0635\u063a\u0631\u0649", "name:ckb": "\u062f\u0648\u0634\u0645\u0627\u0646\u06cc \u0628\u0686\u0648\u0648\u06a9", "name:de": "Dogshman as Sughra", "name:en": "Dogshman as Sughra", "name:fr": "Dogshman as Sughra", "place": "village"}}, {"type": "node", "id": 2489280123, "lat": 35.2408072, "lon": 44.0329635, "tags": {"alt_name": "\u0643\u0631\u062d\u0629 \u0631\u0634\u0627\u062f\u064a\u0629", "int_name": "Gar\u1e29ah Rash\u0101d\u012byah, Garhat Rash\u0101d\u012byah, Kar\u1e29at Rash\u0101d\u012byah, \u0643\u0631\u062d\u0629 \u0631\u0634\u0627\u062f\u064a\u0629, \u06af\u0631\u062d\u0629 \u0631\u0634\u0627\u062f\u064a\u0629, Garhah Rashadiyah, Garhat Rashadiyah, Karhat Rashadiyah, \u0643\u0631\u062d\u0629 \u0631\u0634\u0627\u062f\u064a\u0629, \u06af\u0631\u062d\u0629 \u0631\u0634\u0627\u062f\u064a\u0629", "name": "\u0643\u0631\u062d\u0629 \u0631\u0634\u0627\u062f\u064a\u0629", "name:ar": "\u0643\u0631\u062d\u0629 \u0631\u0634\u0627\u062f\u064a\u0629", "name:ar1": "\u0643\u0631\u062d\u0629 \u0631\u0634\u0627\u062f\u064a\u0629", "name:ckb": "\u06af\u06d5\u0631\u062d\u06d5\u06cc \u0695\u06d5\u0634\u0627\u062f\u06cc\u06d5", "name:de": "Garhah Rashadiyah", "name:en": "Garhah Rashadiyah", "name:fr": "Garhah Rashadiyah", "place": "village"}}, {"type": "node", "id": 2489280133, "lat": 35.2738745, "lon": 44.0989259, "tags": {"name": "\u0646\u0648\u0633\u06cc\u0646 \u06af\u0631\u062d\u0629", "name:ar": "\u0646\u0648\u0633\u06cc\u0646 \u06af\u0631\u062d\u0629", "name:ckb": "\u06af\u06cc\u0631\u0645\u06d5", "name:en": "Nwesheen Garha", "place": "village"}}, {"type": "node", "id": 2489280152, "lat": 35.2568014, "lon": 44.1943678, "tags": {"name": "\u062d\u0645\u064a\u0631\u0629 \u0627\u0644\u0635\u063a\u06cc\u0631", "name:ckb": "\u062d\u0648\u0645\u06cc\u0631\u06d5\u06cc \u0628\u0686\u0648\u0648\u06a9", "name:en": "Humera as Sughra", "place": "village"}}, {"type": "node", "id": 2489280153, "lat": 35.3151309, "lon": 44.1322877, "tags": {"alt_name": "\u0645\u062d\u064a\u064a \u062d\u0645\u064a\u062f", "int_name": "Hamid, Mu\u1e29y\u012b \u1e28am\u012bd, \u0645\u062d\u064a\u064a \u062d\u0645\u064a\u062f, Hamid, Muhyi Hamid, \u0645\u062d\u064a\u064a \u062d\u0645\u064a\u062f", "name": "\u062d\u0645\u06cc\u062f", "name:ar": "\u062d\u0645\u06cc\u062f", "name:ar1": "\u0645\u062d\u064a\u064a \u062d\u0645\u064a\u062f", "name:ckb": "\u062d\u06d5\u0645\u06cc\u062f", "name:de": "Hamid", "name:en": "Hamid", "name:fr": "Hamid", "place": "village"}}, {"type": "node", "id": 2489280154, "lat": 35.3520842, "lon": 44.0459898, "tags": {"alt_name": "\u062c\u0628\u0644 \u062e\u0628\u0627\u0632", "int_name": "Jabal Khabb\u0101z, Jabal Khubb\u0101z, Jabal Khutar, Jabel Khabb\u0101z, \u062c\u0628\u0644 \u062e\u0628\u0627\u0632, Jabal Khabbaz, Jabal Khubbaz, Jabal Khutar, Jabel Khabbaz, \u062c\u0628\u0644 \u062e\u0628\u0627\u0632", "name": "\u062c\u0628\u0644 \u062e\u0628\u0627\u0632", "name:ar": "\u062c\u0628\u0644 \u062e\u0628\u0627\u0632", "name:ar1": "\u062c\u0628\u0644 \u062e\u0628\u0627\u0632", "name:ckb": "\u062c\u06d5\u0628\u06d5\u0644 \u062e\u06d5\u0628\u0627\u0632", "name:de": "Jabal Khabbaz", "name:en": "Jabal Khabbaz", "name:fr": "Jabal Khabbaz", "place": "village"}}, {"type": "node", "id": 2489280172, "lat": 35.3126759, "lon": 44.193483, "tags": {"alt_name": "\u0646\u0648\u0627\u0641\u0644", "int_name": "Law\u0101fil, Nwafil, \u0646\u0648\u0627\u0641\u0644, Lawafil, Nwafil, \u0646\u0648\u0627\u0641\u0644", "name": "\u0646\u0648\u0627\u0641\u0644", "name:ar": "\u0646\u0648\u0627\u0641\u0644", "name:ar1": "\u0646\u0648\u0627\u0641\u0644", "name:ckb": "\u0646\u06d5\u0648\u0627\u0641\u06cc\u0644", "name:de": "Nawafil", "name:en": "Nawafil", "name:fr": "Nawafil", "place": "village"}}, {"type": "node", "id": 2489280174, "lat": 35.238823, "lon": 44.0736958, "tags": {"name": "\u0645\u0631\u0628\u0627\u0637 \u06af\u0631\u062d\u06d5", "name:ar": "\u0645\u0631\u0628\u0627\u0637 \u06a9\u0631\u062d\u0629", "name:ckb": "\u0645\u0631\u0628\u0627\u0637 \u06af\u0631\u062d\u06d5", "name:en": "Mirbat Garha", "place": "village"}}, {"type": "node", "id": 2489280178, "lat": 35.3046987, "lon": 44.043473, "tags": {"alt_name": "\u0645\u062d\u0645\u062f \u0637\u0644\u0628", "int_name": "Muhamad, Mu\u1e29ammad \u0162alab, \u0645\u062d\u0645\u062f \u0637\u0644\u0628, Muhamad, Muhammad Talab, \u0645\u062d\u0645\u062f \u0637\u0644\u0628", "name": "\u0645\u062d\u0645\u062f \u0637\u0644\u0628", "name:ar": "\u0645\u062d\u0645\u062f \u0637\u0644\u0628", "name:ar1": "\u0645\u062d\u0645\u062f \u0637\u0644\u0628", "name:ckb": "\u0645\u0648\u062d\u06d5\u0645\u06d5\u062f \u062a\u06d5\u06b5\u06d5\u0628", "name:de": "Muhamad Talab", "name:en": "Muhamad Talab", "name:fr": "Muhamad Talab", "place": "village"}}, {"type": "node", "id": 2489280188, "lat": 35.2615475, "lon": 44.1494831, "tags": {"alt_name": "\u0633\u064a\u062f \u0634\u0631\u062c\u064a", "int_name": "Said Shirjy, Sayyid Sharj\u012b, \u0633\u064a\u062f \u0634\u0631\u062c\u064a, Said Shirjy, Sayyid Sharji, \u0633\u064a\u062f \u0634\u0631\u062c\u064a", "name": "\u0633\u064a\u062f \u0634\u0631\u062c\u064a", "name:ar": "\u0633\u064a\u062f \u0634\u0631\u062c\u064a", "name:ar1": "\u0633\u064a\u062f \u0634\u0631\u062c\u064a", "name:ckb": "\u0633\u06d5\u06cc\u062f \u0634\u06d5\u0631\u062c\u06cc", "name:de": "Said Shirjy", "name:en": "Said Shirjy", "name:fr": "Said Shirjy", "place": "village"}}, {"type": "node", "id": 2489280189, "lat": 35.3190775, "lon": 44.0541021, "tags": {"alt_name": "\u0633\u064a\u062f\u064a\u0629", "int_name": "Saidia, Saidia, Sayd\u012byah, Sayyid\u012byah, \u0633\u064a\u062f\u064a\u0629, Saidia, Saidia, Saydiyah, Sayyidiyah, \u0633\u064a\u062f\u064a\u0629", "name": "\u0633\u064a\u062f\u064a\u0629", "name:ar": "\u0633\u064a\u062f\u064a\u0629", "name:ar1": "\u0633\u064a\u062f\u064a\u0629", "name:ckb": "\u0633\u06d5\u06cc\u062f\u06cc\u06d5", "name:de": "Saidia", "name:en": "Saidia", "name:fr": "Saidia", "place": "village"}}, {"type": "node", "id": 2489280190, "lat": 35.2129557, "lon": 44.1543142, "tags": {"name": "\u0633\u0627\u0631\u0627\u0633 \u0627\u0644\u0633\u0648\u0633", "name:ckb": "\u0633\u0627\u0631\u0627\u0633 \u0633\u0648\u0633", "name:de": "Saras Al-Sus", "name:en": "Saras Al-Sus", "name:fr": "Saras Al-Sus", "place": "village"}}, {"type": "node", "id": 2489280196, "lat": 35.2420216, "lon": 44.1547842, "tags": {"alt_name": "\u062a\u0644 \u062a\u0648\u064a\u0645", "int_name": "Tal Tuw\u0101\u012bm, Tall Tuwaym, \u062a\u0644 \u062a\u0648\u064a\u0645, Tal Tuwaim, Tall Tuwaym, \u062a\u0644 \u062a\u0648\u064a\u0645", "name": "\u062a\u0644 \u062a\u0648\u064a\u0645", "name:ar": "\u062a\u0644 \u062a\u0648\u064a\u0645", "name:ar1": "\u062a\u0644 \u062a\u0648\u064a\u0645", "name:ckb": "\u062a\u0648\u06cc\u0645 \u0633\u06d5\u0631\u0647\u06cc\u062f", "name:de": "Tal Tuwaim", "name:en": "Tal Tuwaim", "name:fr": "Tal Tuwaim", "place": "village"}}, {"type": "node", "id": 2489280199, "lat": 35.3109424, "lon": 44.0565706, "tags": {"name": "\u062a\u0627\u06b5\u0627\u0648", "name:ar": "\u062a\u0627\u0644\u0627\u0648", "name:ckb": "\u062a\u0627\u06b5\u0627\u0648", "name:en": "Talaw", "place": "village"}}, {"type": "node", "id": 2489280200, "lat": 35.3228582, "lon": 44.093978, "tags": {"name": "\u0639\u0644\u0649 \u063a\u064a\u0631", "name:ar": "\u0639\u0644\u0649 \u063a\u064a\u0631", "name:ckb": "\u0639\u0644\u0649 \u063a\u064a\u0631", "name:en": "Ali Gher", "place": "village"}}, {"type": "node", "id": 2489280206, "lat": 35.2973218, "lon": 44.1858138, "tags": {"alt_name": "\u0648\u0633\u0637\u0627\u0646\u064a\u0629", "int_name": "Was\u0163\u0101n\u012byah, Wistania, \u0648\u0633\u0637\u0627\u0646\u064a\u0629, Wastaniyah, Wistania, \u0648\u0633\u0637\u0627\u0646\u064a\u0629", "name": "\u0648\u0633\u0637\u0627\u0646\u064a\u0629", "name:ar": "\u0648\u0633\u0637\u0627\u0646\u064a\u0629", "name:ar1": "\u0648\u0633\u0637\u0627\u0646\u064a\u0629", "name:ckb": "\u0648\u06d5\u0633\u062a\u0627\u0646\u06cc\u06d5", "name:de": "Wastaniyah", "name:en": "Wastaniyah", "name:fr": "Wastaniyah", "place": "village"}}, {"type": "node", "id": 2489280207, "lat": 35.287473, "lon": 44.0334488, "tags": {"name": "\u0630\u064a\u0628\u0627\u062a", "name:ar": "\u0630\u064a\u0628\u0627\u062a", "name:ckb": "\u0632\u06cc\u0628\u0627\u062a", "name:en": "Theyhbat", "place": "village"}}, {"type": "node", "id": 2489321548, "lat": 35.3502165, "lon": 44.0143775, "tags": {"alt_name": "\u0639\u0637\u0648\u0627\u0646\u064a\u0629", "int_name": "A\u0163w\u0101n\u012byah, Atwania, \u0639\u0637\u0648\u0627\u0646\u064a\u0629, Atwaniyah, Atwania, \u0639\u0637\u0648\u0627\u0646\u064a\u0629", "name": "\u0639\u0637\u0648\u0627\u0646\u064a\u0629", "name:ar1": "\u0639\u0637\u0648\u0627\u0646\u064a\u0629", "name:ckb": "\u0639\u06d5\u062a\u0648\u0627\u0646\u06cc\u06d5", "name:de": "Atwaniyah", "name:en": "Atwaniyah", "name:fr": "Atwaniyah", "place": "village"}}, {"type": "node", "id": 2489321558, "lat": 35.2440383, "lon": 44.2774842, "tags": {"name": "\u0628\u0634\u06cc\u0631", "name:ar": "\u0628\u0634\u06cc\u0631", "name:ckb": "\u0628\u06d5\u0634\u06cc\u0631", "name:de": "Bashir", "name:en": "Bashir", "name:fr": "Bashir", "name:ku": "Be\u015f\u00eer", "name:ru": "\u0411\u0443\u0448\u0430\u0439\u0440\u0438\u044f", "name:tr": "Be\u015fir", "place": "town"}}, {"type": "node", "id": 2489321665, "lat": 35.2767849, "lon": 44.2128241, "tags": {"alt_name": "\u062d\u0645\u064a\u0631\u0629 \u0627\u0644\u0643\u0628\u0631\u0649", "int_name": "Humera Upper, \u062d\u0645\u064a\u0631\u0629 \u0627\u0644\u0643\u0628\u0631\u0649", "name": "\u062d\u0645\u06cc\u0631\u0629 \u0627\u0644\u06a9\u0628\u06cc\u0631", "name:ar": "\u062d\u0645\u06cc\u0631\u0629 \u0627\u0644\u06a9\u0628\u06cc\u0631", "name:ar1": "\u062d\u0645\u064a\u0631\u0629 \u0627\u0644\u0643\u0628\u0631\u0649", "name:ckb": "\u062d\u0648\u0645\u06cc\u0631\u06d5\u06cc \u06af\u06d5\u0648\u0631\u06d5", "name:de": "Great Humera", "name:en": "Great Humera", "name:fr": "Great Humera", "place": "village"}}, {"type": "node", "id": 2489321684, "lat": 35.2458865, "lon": 44.3407659, "tags": {"name": "\u0633\u06d5\u06cc\u062f \u062c\u0648\u0645\u0639\u06d5", "name:ar": "\u0633\u06cc\u062f \u062c\u0645\u0639\u0629", "name:en": "Sayd Jumaa", "place": "village"}}, {"type": "node", "id": 2489321732, "lat": 35.3401517, "lon": 44.4638944, "tags": {"name": "\u062a\u06d5\u0695\u06a9\u06d5\u0634\u06a9\u0627\u0646\u06cc \u06af\u06d5\u0648\u0631\u06d5", "name:ar": "\u062a\u0631\u06a9\u0634\u06a9\u0627\u0646 \u0627\u0644\u06a9\u0628\u0631\u06cc", "name:en": "Great Tarkashkan", "name:ku": "Qu\u015ftepe", "place": "village"}}, {"type": "node", "id": 2489321749, "lat": 35.2699335, "lon": 44.3006481, "tags": {"name": "\u0645\u0631\u0627\u0639\u06cc\u06d5", "name:en": "Maraeya", "place": "village"}}, {"type": "node", "id": 2489321751, "lat": 35.327184, "lon": 44.245447, "tags": {"alt_name": "\u0645\u0631\u064a\u0645 \u0628\u064a\u0643", "int_name": "Maryam Bag, Maryam Beq, Maryam Bak, \u0645\u0631\u06cc\u06d5\u0645 \u0628\u06d5\u06af", "name": "\u0645\u0631\u06cc\u06d5\u0645 \u0628\u06d5\u06af", "name:ar": "\u0645\u0631\u064a\u0645 \u0628\u064a\u0643", "name:ckb": "\u0645\u0631\u06cc\u06d5\u0645 \u0628\u06d5\u06af", "name:de": "Maryam Begg", "name:en": "Maryam Begg", "name:fr": "Maryam Begg", "place": "village"}}, {"type": "node", "id": 2489321756, "lat": 35.2283013, "lon": 44.4121589, "tags": {"name": "\u0645\u06d5\u062a\u0627\u0631\u06d5\u06cc \u06a9\u06c6\u0646", "name:ar": "\u0645\u0637\u0627\u0631\u0629 \u0627\u0644\u0642\u062f\u064a\u0645", "name:en": "Matara | Old", "place": "village"}}, {"type": "node", "id": 2489321800, "lat": 35.2886043, "lon": 44.2876356, "tags": {"name": "\u0642\u06d5\u0631\u06d5\u06cc\u0627\u06b5", "name:en": "Qara Yal", "place": "village"}}, {"type": "node", "id": 2489321932, "lat": 35.3145404, "lon": 44.0180013, "tags": {"alt_name": "\u0633\u064a\u062f \u062d\u0645\u064a\u062f", "int_name": "Said Hamid, Sayyid \u1e28am\u012bd, \u0633\u064a\u062f \u062d\u0645\u064a\u062f, Said Hamid, Sayyid Hamid, \u0633\u064a\u062f \u062d\u0645\u064a\u062f", "name": "\u0633\u064a\u062f \u062d\u0645\u064a\u062f", "name:ar": "\u0633\u064a\u062f \u062d\u0645\u064a\u062f", "name:ar1": "\u0633\u064a\u062f \u062d\u0645\u064a\u062f", "name:ckb": "\u0633\u06d5\u06cc\u062f \u062d\u06d5\u0645\u06cc\u062f", "name:de": "Said Hamid", "name:en": "Said Hamid", "name:fr": "Said Hamid", "place": "village"}}, {"type": "node", "id": 2489321980, "lat": 35.2640416, "lon": 44.3133239, "tags": {"name": "\u0634\u0645\u0633\u064a\u0629", "name:en": "Shamsiya", "place": "village"}}, {"type": "node", "id": 2489321990, "lat": 35.2999413, "lon": 44.2206812, "tags": {"name": "\u0633\u0648\u0648\u0631", "name:ar": "\u0633\u0648\u0631", "name:en": "Sur", "place": "village"}}, {"type": "node", "id": 2489322029, "lat": 35.215761, "lon": 44.2453214, "tags": {"name": "\u062a\u0644 \u0627\u0644\u062c\u0648\u0627\u0644", "name:ckb": "\u062a\u06d5\u0644 \u0686\u06c6\u06b5", "name:en": "Tal Chol", "place": "village"}}, {"type": "node", "id": 2489322065, "lat": 35.2306762, "lon": 44.3411007, "tags": {"name": "\u062a\u06d5\u0648\u06ce\u0644\u06d5", "name:en": "Twelha", "place": "village"}}, {"type": "node", "id": 2489322072, "lat": 35.3012277, "lon": 44.3312849, "tags": {"alt_name": "Taza Khormatu, Taza Khurmath, Taza Khurmatu, T\u0101za Khurm\u0101t\u016b, Tazah Khormatu, T\u0101zat Kh\u016brm\u0101t\u016b, \u062a\u0627\u0632\u0629 \u062e\u0648\u0631\u0645\u0627\u062a\u0648, Taza Khormatu, Taza Khurmath, Taza Khurmatu, Taza Khurmatu, Tazah Khormatu, Tazat Khurmatu, \u062a\u0627\u0632\u0629 \u062e\u0648\u0631\u0645\u0627\u062a\u0648", "capital": "7", "int_name": "Taza Khormatu, \u062a\u0627\u0632\u0629 \u062e\u0648\u0631\u0645\u0627\u062a\u0648, \u062a\u0627\u0632\u06d5 \u062e\u0648\u0631\u0645\u0627\u062a\u0648\u0648", "name": "\u062a\u0627\u0632\u06d5 \u062e\u0648\u0631\u0645\u0627\u062a\u0648", "name:ar": "\u062a\u0627\u0632\u06d5 \u062e\u0648\u0631\u0645\u0627\u062a\u0648", "name:azb": "\u062a\u0627\u0632\u06d5 \u062e\u0648\u0631\u0645\u0627\u062a\u0648", "name:ckb": "\u062a\u0627\u0632\u06d5 \u062e\u0648\u0631\u0645\u0627\u062a\u0648\u0648", "name:de": "Taza Khormatu", "name:en": "Taza Khurmatu", "name:fa": "\u062a\u0627\u0632\u0647 \u062e\u0648\u0631\u0645\u0627\u062a\u0648", "name:fr": "Taza Khormatu", "name:ku": "Taze Xurmat\u00fb", "name:ru": "\u0422\u0430\u0437\u0430-\u0425\u0443\u0440\u043c\u0430\u0442\u0443", "name:tr": "Tazehurmatu", "place": "town", "wikidata": "Q7690384", "wikipedia": "ar:\u062a\u0627\u0632\u0629 \u062e\u0648\u0631\u0645\u0627\u062a\u0648"}}, {"type": "node", "id": 3075584596, "lat": 35.5136046, "lon": 44.088992}, {"type": "node", "id": 3075584597, "lat": 35.5114737, "lon": 44.0898288}, {"type": "node", "id": 3075584598, "lat": 35.5125042, "lon": 44.092275}, {"type": "node", "id": 3075584599, "lat": 35.5139888, "lon": 44.091245}, {"type": "node", "id": 3797784043, "lat": 35.3681277, "lon": 44.0788924, "tags": {"name": "\u0634\u064a\u062e \u0645\u0632\u0647\u0631", "name:ar": "\u0634\u064a\u062e \u0645\u0632\u0647\u0631", "name:ckb": "\u0634\u06ce\u062e \u0645\u06d5\u0632\u0647\u06d5\u0631", "name:en": "Sheikh Mazhar", "place": "village"}}, {"type": "node", "id": 4558209424, "lat": 35.5664915, "lon": 44.533473}, {"type": "node", "id": 4558209425, "lat": 35.5652277, "lon": 44.5340352}, {"type": "node", "id": 4558209426, "lat": 35.5648682, "lon": 44.5355116}, {"type": "node", "id": 4558209427, "lat": 35.5661669, "lon": 44.535842}, {"type": "node", "id": 4560141236, "lat": 35.5685854, "lon": 44.2280316, "tags": {"name": "\u0642\u0648\u062a\u0627\u0646\u06cc \u06af\u06d5\u0648\u0631\u06d5", "name:ar": "\u0642\u0648\u062a\u0627\u0646 \u0627\u0644\u06a9\u0628\u06cc\u0631", "name:en": "Great Qutan", "place": "village"}}, {"type": "node", "id": 4560141363, "lat": 35.5481937, "lon": 44.1347351, "tags": {"place": "hamlet"}}, {"type": "node", "id": 5178349321, "lat": 35.2791442, "lon": 44.3604227, "tags": {"email": "moshtaq88@gmail.com", "name": "\u0642\u0631\u064a\u0629 \u062d\u062c\u064a \u062c\u0647\u0627\u062f \u0627\u0644\u0639\u0628\u0627\u062f\u064a", "phone": "07701253728", "place": "village"}}, {"type": "node", "id": 6358369850, "lat": 35.3206431, "lon": 44.5100058}, {"type": "node", "id": 6358369855, "lat": 35.3131219, "lon": 44.5255283}, {"type": "node", "id": 6358369856, "lat": 35.3088353, "lon": 44.5211963}, {"type": "node", "id": 6358369857, "lat": 35.3071192, "lon": 44.5144157}, {"type": "node", "id": 6358369858, "lat": 35.3110187, "lon": 44.5034263}, {"type": "node", "id": 6358380961, "lat": 35.322814, "lon": 44.5222225}, {"type": "node", "id": 6358380962, "lat": 35.3175427, "lon": 44.5183297}, {"type": "node", "id": 6358380963, "lat": 35.3221906, "lon": 44.5084929}, {"type": "node", "id": 6358380964, "lat": 35.3281325, "lon": 44.5205796}, {"type": "node", "id": 6588334605, "lat": 35.6161047, "lon": 44.1364825, "tags": {"name": "\u0639\u06d5\u0645\u0634\u06d5", "name:ar": "\u0639\u0645\u0634\u0629", "name:ckb": "\u0639\u06d5\u0645\u0634\u06d5", "name:en": "Amsha", "name:ku": "'Em\u015fe", "place": "village"}}, {"type": "node", "id": 7130740485, "lat": 35.5899984, "lon": 44.1237517, "tags": {"name": "\u0646\u0627\u062f\u0631\u0627\u0648\u0627", "name:ckb": "\u0646\u0627\u062f\u0631\u0627\u0648\u0627", "name:en": "Nadrawa", "name:ku": "Nadirawa", "place": "village"}}, {"type": "node", "id": 7362772410, "lat": 35.3767097, "lon": 44.4834144}, {"type": "node", "id": 7362772411, "lat": 35.3766736, "lon": 44.4833179}, {"type": "node", "id": 7362772412, "lat": 35.3766506, "lon": 44.4831864}, {"type": "node", "id": 7362772413, "lat": 35.3766419, "lon": 44.4829973}, {"type": "node", "id": 7362772414, "lat": 35.3766484, "lon": 44.4828498}, {"type": "node", "id": 7362772415, "lat": 35.3765828, "lon": 44.4827372}, {"type": "node", "id": 7362772416, "lat": 35.3765082, "lon": 44.4826911}, {"type": "node", "id": 7362772417, "lat": 35.3764022, "lon": 44.4827005}, {"type": "node", "id": 7362772418, "lat": 35.376295, "lon": 44.4827582}, {"type": "node", "id": 7362772419, "lat": 35.3761386, "lon": 44.4828748}, {"type": "node", "id": 7362772420, "lat": 35.376084, "lon": 44.4829699}, {"type": "node", "id": 7362772421, "lat": 35.3760315, "lon": 44.4830772}, {"type": "node", "id": 7362772422, "lat": 35.3759899, "lon": 44.4832019}, {"type": "node", "id": 7362772423, "lat": 35.3758963, "lon": 44.4832328}, {"type": "node", "id": 7362772424, "lat": 35.3757913, "lon": 44.4833307}, {"type": "node", "id": 7362772425, "lat": 35.3758602, "lon": 44.4834943}, {"type": "node", "id": 7362772426, "lat": 35.3759422, "lon": 44.4836257}, {"type": "node", "id": 7362772427, "lat": 35.376011, "lon": 44.4836503}, {"type": "node", "id": 7362772428, "lat": 35.3760967, "lon": 44.4835884}, {"type": "node", "id": 7362772429, "lat": 35.3763704, "lon": 44.4841029}, {"type": "node", "id": 7362772430, "lat": 35.3766479, "lon": 44.483921}, {"type": "node", "id": 7362772431, "lat": 35.3768611, "lon": 44.4838696}, {"type": "node", "id": 7362772432, "lat": 35.3768926, "lon": 44.4838182}, {"type": "node", "id": 7362772433, "lat": 35.3768307, "lon": 44.4836478}, {"type": "node", "id": 7362772434, "lat": 35.3767574, "lon": 44.4835439}, {"type": "node", "id": 7371380925, "lat": 35.5499867, "lon": 44.0461963, "tags": {"name": "\u0634\u06c6\u0631\u0627\u0648\u0627", "name:ckb": "\u0634\u06c6\u0631\u0627\u0648\u0627", "name:en": "Shorawa", "name:ku": "\u015eorawa", "place": "village"}}, {"type": "node", "id": 7476949151, "lat": 35.3562825, "lon": 44.1726848, "tags": {"name": "\u0627\u0628\u0648 \u0643\u0639\u0648\u0628\u0629", "name:ckb": "\u0626\u06d5\u0628\u0648 \u06a9\u06d5\u0639\u0648\u0628\u06d5", "name:en": "Abu Ka\u00e0wba", "place": "village"}}, {"type": "node", "id": 7477004573, "lat": 35.3515037, "lon": 44.1897728, "tags": {"name": "\u0645\u062c\u0645\u0639 \u0646\u0647\u0631\u0648\u0627\u0646", "name:ckb": "\u06a9\u06c6\u0645\u06d5\u06b5\u06af\u06d5\u06cc \u0646\u06d5\u0647\u0631\u06d5\u0648\u0627\u0646", "name:en": "Nahrawan Colective", "place": "village"}}, {"type": "node", "id": 7477618209, "lat": 35.3883082, "lon": 44.1762241, "tags": {"name": "\u0645\u0643\u062a\u0628 \u062e\u0627\u0644\u062f", "place": "village"}}, {"type": "node", "id": 7477931469, "lat": 35.3322592, "lon": 44.2639815, "tags": {"name": "\u0642\u0637\u0634 \u062a\u0628\u0647", "place": "village"}}, {"type": "node", "id": 7495180925, "lat": 35.3408875, "lon": 44.0756705, "tags": {"name": "\u062d\u0645\u064a", "name:ar": "\u062d\u0645\u064a", "name:ckb": "\u062d\u06d5\u0645\u06cc", "name:en": "Hami", "place": "village"}}, {"type": "node", "id": 7498698865, "lat": 35.3760277, "lon": 44.4270694, "tags": {"name": "\u0695\u06d5\u062c\u06ce\u0628\u0627\u062a", "name:ar": "\u0631\u062c\u06cc\u0628\u0627\u062a", "name:en": "Rjebaat", "place": "village"}}, {"type": "node", "id": 7505161804, "lat": 35.3483968, "lon": 44.4848009, "tags": {"name": "\u062a\u06d5\u0695\u06a9\u06d5\u0634\u06a9\u0627\u0646\u06cc \u0628\u0686\u0648\u0648\u06a9", "name:ar": "\u062a\u0631\u06a9\u0634\u06a9\u0627\u0646 \u0627\u0644\u0635\u063a\u0631\u06cc", "name:en": "Little Trkashkan", "name:ku": "Tirrke\u015fikan", "place": "village"}}, {"type": "node", "id": 7514014159, "lat": 35.5444744, "lon": 44.2431819}, {"type": "node", "id": 7514014160, "lat": 35.5451492, "lon": 44.2424013}, {"type": "node", "id": 7514014161, "lat": 35.5446597, "lon": 44.2412305}, {"type": "node", "id": 7514014162, "lat": 35.5451889, "lon": 44.2406288}, {"type": "node", "id": 7514014163, "lat": 35.545136, "lon": 44.2396043}, {"type": "node", "id": 7514014164, "lat": 35.5459828, "lon": 44.2387261}, {"type": "node", "id": 7514014165, "lat": 35.545533, "lon": 44.2380431}, {"type": "node", "id": 7514014166, "lat": 35.5459696, "lon": 44.2374414}, {"type": "node", "id": 7514014167, "lat": 35.5455859, "lon": 44.236547}, {"type": "node", "id": 7514014168, "lat": 35.5447391, "lon": 44.2359291}, {"type": "node", "id": 7514014169, "lat": 35.5441304, "lon": 44.2359291}, {"type": "node", "id": 7514014170, "lat": 35.5436673, "lon": 44.2358315}, {"type": "node", "id": 7514014171, "lat": 35.5434026, "lon": 44.2354738}, {"type": "node", "id": 7514014172, "lat": 35.5434423, "lon": 44.2349696}, {"type": "node", "id": 7514014173, "lat": 35.5432912, "lon": 44.2347397}, {"type": "node", "id": 7514014174, "lat": 35.542865, "lon": 44.2342837}, {"type": "node", "id": 7514014175, "lat": 35.5425542, "lon": 44.2338585}, {"type": "node", "id": 7514014176, "lat": 35.5420026, "lon": 44.2335812}, {"type": "node", "id": 7514014177, "lat": 35.5416065, "lon": 44.2337907}, {"type": "node", "id": 7514014178, "lat": 35.5413357, "lon": 44.2335196}, {"type": "node", "id": 7514014179, "lat": 35.5409797, "lon": 44.2330944}, {"type": "node", "id": 7514014180, "lat": 35.5408137, "lon": 44.2327496}, {"type": "node", "id": 7514014181, "lat": 35.5405553, "lon": 44.2323667}, {"type": "node", "id": 7514014182, "lat": 35.5405097, "lon": 44.2319464}, {"type": "node", "id": 7514014183, "lat": 35.5401981, "lon": 44.2316662}, {"type": "node", "id": 7514014184, "lat": 35.5397497, "lon": 44.2316475}, {"type": "node", "id": 7514020085, "lat": 35.5394609, "lon": 44.231853}, {"type": "node", "id": 7514020086, "lat": 35.5377508, "lon": 44.2346176}, {"type": "node", "id": 7514020087, "lat": 35.537576, "lon": 44.2353741}, {"type": "node", "id": 7514020088, "lat": 35.537158, "lon": 44.2360186}, {"type": "node", "id": 7514020089, "lat": 35.53674, "lon": 44.2364762}, {"type": "node", "id": 7514020090, "lat": 35.5364816, "lon": 44.2366444}, {"type": "node", "id": 7514020091, "lat": 35.5361548, "lon": 44.2370366}, {"type": "node", "id": 7514020092, "lat": 35.5356911, "lon": 44.237541}, {"type": "node", "id": 7514020093, "lat": 35.5356607, "lon": 44.2378772}, {"type": "node", "id": 7514020094, "lat": 35.5359876, "lon": 44.2384937}, {"type": "node", "id": 7514020095, "lat": 35.5365272, "lon": 44.2388112}, {"type": "node", "id": 7514020096, "lat": 35.5369604, "lon": 44.2392129}, {"type": "node", "id": 7514020097, "lat": 35.5373404, "lon": 44.239437}, {"type": "node", "id": 7514020098, "lat": 35.5378724, "lon": 44.2396051}, {"type": "node", "id": 7514020099, "lat": 35.5385337, "lon": 44.2395491}, {"type": "node", "id": 7514020100, "lat": 35.5391721, "lon": 44.2396892}, {"type": "node", "id": 7514020101, "lat": 35.5400841, "lon": 44.2401749}, {"type": "node", "id": 7514020102, "lat": 35.5410721, "lon": 44.2405765}, {"type": "node", "id": 7514020103, "lat": 35.5439904, "lon": 44.2434159}, {"type": "node", "id": 7514070426, "lat": 35.579552, "lon": 44.2367013, "tags": {"name": "\u062e\u06d5\u0631\u0627\u0628\u06d5\u06cc \u0642\u0648\u062a\u0627\u0646", "name:ar": "\u062e\u0631\u0627\u0628\u0629 \u0642\u0648\u062a\u0627\u0646", "name:ckb": "\u062e\u06d5\u0631\u0627\u0628\u06d5\u06cc \u0642\u0648\u062a\u0627\u0646", "name:ku": "Xerabeya Qutan", "place": "village"}}, {"type": "node", "id": 7514130119, "lat": 35.560179, "lon": 44.2453652, "tags": {"name": "\u0645\u062c\u0645\u0639 \u0643\u0628\u0631\u064a\u062a \u0627\u0644\u0635\u063a\u064a\u0631", "name:ckb": "\u06a9\u06c6\u0645\u06d5\u06b5\u06af\u06d5\u06cc \u06a9\u0628\u0631\u06cc\u062a\u06cc \u0628\u0686\u0648\u0648\u06a9", "name:en": "Little Kibreet Complex", "place": "village"}}, {"type": "node", "id": 7514141913, "lat": 35.555713, "lon": 44.253098, "tags": {"name": "\u0645\u062c\u0645\u0639 \u0643\u0628\u0631\u064a\u062a \u0627\u0644\u0643\u0628\u064a\u0631", "name:ckb": "\u06a9\u06c6\u0645\u06d5\u06b5\u06af\u06d5\u06cc \u06a9\u0628\u0631\u06cc\u062a\u06cc \u06af\u06d5\u0648\u0631\u06d5", "name:en": "Great Kibrit Complex", "place": "village"}}, {"type": "node", "id": 7589707703, "lat": 35.3647673, "lon": 44.3308198, "tags": {"name": "\u0635\u06cc\u0627\u062f\u0629", "place": "village"}}, {"type": "node", "id": 7613008335, "lat": 35.5280549, "lon": 44.4246309, "tags": {"name": "\u06cc\u0627\u0631\u0648\u06d5\u0644\u06cc", "place": "village"}}, {"type": "node", "id": 7613567546, "lat": 35.3751497, "lon": 44.4458587, "tags": {"name": "\u0695\u0632\u06af\u0627\u0631\u06cc", "name:ar": "\u0631\u0632\u06a9\u0627\u0631\u06cc", "name:ckb": "\u0695\u0632\u06af\u0627\u0631\u06cc", "name:en": "Rizgari Complex", "place": "village"}}, {"type": "node", "id": 7660225525, "lat": 35.6427012, "lon": 44.4311953}, {"type": "node", "id": 7660225526, "lat": 35.6432825, "lon": 44.4288218}, {"type": "node", "id": 7660225527, "lat": 35.6434014, "lon": 44.4276513}, {"type": "node", "id": 7660225528, "lat": 35.6433485, "lon": 44.4271148}, {"type": "node", "id": 7660225529, "lat": 35.6413272, "lon": 44.4269848}, {"type": "node", "id": 7660225530, "lat": 35.6413007, "lon": 44.4289844}, {"type": "node", "id": 7660225531, "lat": 35.6421199, "lon": 44.4310327}, {"type": "node", "id": 7678228372, "lat": 35.2169865, "lon": 44.3943081, "tags": {"name": "\u0645\u06d5\u062a\u0627\u0631\u06d5", "name:ar": "\u0629\u0637\u0627\u0631\u0629", "place": "village"}}, {"type": "node", "id": 7704519009, "lat": 35.324885, "lon": 44.5187698}, {"type": "node", "id": 7704519010, "lat": 35.3262523, "lon": 44.5219116}, {"type": "node", "id": 7704519011, "lat": 35.3256335, "lon": 44.5095142}, {"type": "node", "id": 7704519012, "lat": 35.3210321, "lon": 44.5109005}, {"type": "node", "id": 7778459465, "lat": 35.3247824, "lon": 44.169784, "tags": {"name": "\u06cc\u0631\u0645\u0648\u06a9", "name:ckb": "\u06cc\u06d5\u0631\u0645\u0648\u06a9", "name:en": "Yarmuk", "place": "village"}}, {"type": "node", "id": 7817915585, "lat": 35.3170829, "lon": 44.5119863, "tags": {"name": "\u0644\u06d5\u06cc\u0644\u0627\u0646", "name:ar": "\u0644\u064a\u0644\u0627\u0646", "name:ckb": "\u0644\u06d5\u06cc\u0644\u0627\u0646", "name:en": "Laylan", "name:ku": "Leylan", "place": "town"}}, {"type": "node", "id": 7836049155, "lat": 35.6299008, "lon": 44.4626303}, {"type": "node", "id": 7836049156, "lat": 35.6296959, "lon": 44.4615551}, {"type": "node", "id": 7836049157, "lat": 35.6242218, "lon": 44.4632119}, {"type": "node", "id": 7836049158, "lat": 35.6244813, "lon": 44.4643781}, {"type": "node", "id": 7836049159, "lat": 35.6292293, "lon": 44.4606117}, {"type": "node", "id": 7836049160, "lat": 35.6285472, "lon": 44.4598937}, {"type": "node", "id": 7836049161, "lat": 35.6277175, "lon": 44.4594723}, {"type": "node", "id": 7836049162, "lat": 35.6268224, "lon": 44.4593894}, {"type": "node", "id": 7836049163, "lat": 35.6259507, "lon": 44.4596532}, {"type": "node", "id": 7836049164, "lat": 35.625189, "lon": 44.4602376}, {"type": "node", "id": 7836049165, "lat": 35.6246128, "lon": 44.4610844}, {"type": "node", "id": 7836049166, "lat": 35.6242794, "lon": 44.4621098}, {"type": "node", "id": 7836049167, "lat": 35.6250475, "lon": 44.4653664}, {"type": "node", "id": 7836049168, "lat": 35.625853, "lon": 44.4660593}, {"type": "node", "id": 7836049169, "lat": 35.6268019, "lon": 44.4663744}, {"type": "node", "id": 7836049170, "lat": 35.6277813, "lon": 44.4662741}, {"type": "node", "id": 7836049171, "lat": 35.6286748, "lon": 44.4657704}, {"type": "node", "id": 7836049172, "lat": 35.629376, "lon": 44.4649232}, {"type": "node", "id": 7836049173, "lat": 35.6298015, "lon": 44.4638333}, {"type": "node", "id": 7845767960, "lat": 35.6471467, "lon": 44.445443}, {"type": "node", "id": 7845767961, "lat": 35.6471199, "lon": 44.4451302}, {"type": "node", "id": 7845767962, "lat": 35.6455321, "lon": 44.4453721}, {"type": "node", "id": 7845767963, "lat": 35.6455749, "lon": 44.4457094}, {"type": "node", "id": 7845767964, "lat": 35.647015, "lon": 44.4448433}, {"type": "node", "id": 7845767965, "lat": 35.6468424, "lon": 44.444611}, {"type": "node", "id": 7845767966, "lat": 35.6466196, "lon": 44.4444568}, {"type": "node", "id": 7845767967, "lat": 35.6463688, "lon": 44.444396}, {"type": "node", "id": 7845767968, "lat": 35.646115, "lon": 44.4444346}, {"type": "node", "id": 7845767969, "lat": 35.6458838, "lon": 44.4445689}, {"type": "node", "id": 7845767970, "lat": 35.6456983, "lon": 44.4447854}, {"type": "node", "id": 7845767971, "lat": 35.645577, "lon": 44.4450624}, {"type": "node", "id": 7845767972, "lat": 35.6457079, "lon": 44.4460089}, {"type": "node", "id": 7845767973, "lat": 35.6459154, "lon": 44.4462355}, {"type": "node", "id": 7845767974, "lat": 35.6461729, "lon": 44.4463623}, {"type": "node", "id": 7845767975, "lat": 35.6464501, "lon": 44.4463745}, {"type": "node", "id": 7845767976, "lat": 35.6467144, "lon": 44.4462706}, {"type": "node", "id": 7845767977, "lat": 35.6469344, "lon": 44.4460628}, {"type": "node", "id": 7845767978, "lat": 35.6470845, "lon": 44.4457757}, {"type": "node", "id": 7846008948, "lat": 35.5581108, "lon": 44.524397, "tags": {"name": "\u0634\u06c6\u0631\u062c\u06d5", "name:ar": "\u0627\u0644\u0634\u0648\u0631\u062c\u0629", "name:ckb": "\u0634\u06c6\u0631\u06cc\u062c\u06d5", "name:en": "Shorija", "name:ku": "\u015eor\u00eece", "place": "village"}}, {"type": "node", "id": 7890467719, "lat": 35.2770963, "lon": 44.1608221, "tags": {"name": "\u0645\u062c\u0645\u0639 \u0630\u064a\u0642\u0627\u0631", "name:ar": "\u0645\u062c\u0645\u0639 \u0630\u06cc\u0642\u0627\u0631", "name:ckb": "\u06a9\u06c6\u0645\u06d5\u06b5\u06af\u06d5\u06cc \u0632\u06cc\u0642\u0627\u0631", "name:en": "Ziqar Collective", "place": "village"}}, {"type": "node", "id": 7963063659, "lat": 35.6401294, "lon": 44.382232, "tags": {"name": "\u06af\u0648\u06b5\u062f\u06d5\u0631\u06d5\u06cc \u06af\u06d5\u0648\u0631\u06d5", "name:ar": "\u06a9\u0648\u0644\u062f\u0631\u0629 \u0627\u0644\u06a9\u06cc\u0631", "name:en": "Great Goldar", "name:ku": "Golldere", "place": "village"}}, {"type": "node", "id": 7963063921, "lat": 35.633434, "lon": 44.3798694, "tags": {"name": "\u062d\u06d5\u0633\u0627\u0631\u06cc \u06af\u06d5\u0648\u0631\u06d5", "name:ckb": "\u062d\u06d5\u0633\u0627\u0631\u06cc \u06af\u06d5\u0648\u0631\u06d5", "name:en": "Big Hasar", "name:ku": "Hesara Mezin", "place": "village"}}, {"type": "node", "id": 7963068542, "lat": 35.58496, "lon": 44.3775916, "tags": {"name": "\u0633\u06d5\u0642\u0632\u0644\u06cc", "name:ar": "\u0633\u0642\u0632\u0644\u064a", "name:ckb": "\u0633\u06d5\u0642\u0632\u0644\u06cc", "name:en": "Saqzli", "name:ku": "Seqizl\u00ee", "place": "village", "population": "347", "population:date": "1977"}}, {"type": "node", "id": 7963068543, "lat": 35.5965735, "lon": 44.3729798, "tags": {"name": "\u0626\u06cc\u0645\u0627\u0645 \u062e\u06d5\u0644\u06cc\u0641\u06d5 \u0626\u06d5\u062d\u0645\u06d5\u062f", "name:ckb": "\u0626\u06cc\u0645\u0627\u0645 \u062e\u06d5\u0644\u06cc\u0641\u06d5 \u0626\u06d5\u062d\u0645\u06d5\u062f", "name:en": "Imam Khalifa Ahmad", "name:ku": "\u00cemam Xel\u00eefe Ehmed", "place": "village"}}, {"type": "node", "id": 7966892176, "lat": 35.6311229, "lon": 44.1349081, "tags": {"name": "\u0642\u06d5\u0631\u06d5\u062f\u06d5\u0631\u06d5", "name:ar": "\u0642\u0631\u0629 \u062f\u0631\u0629", "name:ckb": "\u0642\u06d5\u0631\u06d5\u062f\u06d5\u0631\u06d5", "name:en": "Qaradara", "name:ku": "Qeredere", "place": "village"}}, {"type": "node", "id": 7966910401, "lat": 35.6054862, "lon": 44.1699, "tags": {"name": "\u0645\u06d5\u0631\u0639\u06cc", "name:ar": "\u0645\u0631\u0639\u064a", "name:ckb": "\u0645\u06d5\u0631\u0639\u06cc", "name:en": "Maree", "name:ku": "Mer'\u00ee", "place": "village"}}, {"type": "node", "id": 7985023326, "lat": 35.6386707, "lon": 44.3046217, "tags": {"name": "\u06a9\u06d5\u06b5\u0648\u0695", "name:ar": "\u06a9\u0644\u0647\u0648\u0631", "name:ckb": "\u06a9\u06d5\u06b5\u06be\u0648\u0695", "name:en": "Kalur", "name:ku": "kelhur", "place": "village", "population": "437", "population:date": "1977"}}, {"type": "node", "id": 7988293552, "lat": 35.6080399, "lon": 44.3410221, "tags": {"name": "\u062f\u0627\u0631\u06d5\u0645\u0627\u0646\u06cc \u06af\u06d5\u0648\u0631\u06d5", "name:ar": "\u062f\u0627\u0631\u0645\u0627\u0646 \u0627\u0644\u06a9\u0628\u06cc\u0631", "name:en": "Great Daraman", "place": "village", "population": "279", "population:date": "1977"}}, {"type": "node", "id": 8032988617, "lat": 35.5049301, "lon": 44.4441541, "tags": {"name": "\u062f\u0648\u0648\u062d\u06ce\u0644\u06d5", "name:en": "Duhela", "name:ku": "D\u00fbh\u00eale", "place": "village"}}, {"type": "node", "id": 8403768593, "lat": 35.3764935, "lon": 44.4833965, "tags": {"alt_name": "\u062d\u06d5\u0633\u06d5\u0646 \u0626\u0627\u0648\u0627", "name": "\u062d\u06d5\u0633\u06d5\u0646\u0627\u0648\u0627", "name:ckb": "\u062d\u06d5\u0633\u06d5\u0646\u0627\u0648\u0627", "name:en": "Hasanawa", "name:ku": "Hesenawa", "place": "village"}}, {"type": "node", "id": 8435108015, "lat": 35.3056269, "lon": 44.4104532}, {"type": "node", "id": 8435108016, "lat": 35.3052572, "lon": 44.4140915}, {"type": "node", "id": 8435125217, "lat": 35.3032469, "lon": 44.4196127}, {"type": "node", "id": 8435125218, "lat": 35.3021262, "lon": 44.4200515}, {"type": "node", "id": 8435125219, "lat": 35.3006705, "lon": 44.4205753}, {"type": "node", "id": 8435125220, "lat": 35.2998964, "lon": 44.4202356}, {"type": "node", "id": 8435125221, "lat": 35.2996537, "lon": 44.4194711}, {"type": "node", "id": 8435125222, "lat": 35.2997346, "lon": 44.4162858}, {"type": "node", "id": 8435125223, "lat": 35.3020107, "lon": 44.4118406}, {"type": "node", "id": 8435125224, "lat": 35.3050261, "lon": 44.4098162}, {"type": "node", "id": 8740566574, "lat": 35.5909523, "lon": 44.1983071, "tags": {"name": "\u0642\u0648\u0634\u0642\u0627\u06cc\u06d5", "name:ckb": "\u0642\u0648\u0634\u0642\u0627\u06cc\u06d5", "name:en": "Qushqaya", "name:ku": "Qu\u015fqaye", "place": "village"}}, {"type": "node", "id": 8882924636, "lat": 35.3187138, "lon": 44.2700565, "tags": {"name": "\u0627\u0644\u0642\u0627\u062f\u0633\u064a\u0629", "place": "village"}}, {"type": "node", "id": 9041366547, "lat": 35.3588606, "lon": 44.1248932, "tags": {"name": "\u062f\u0627\u0648\u062f \u0639\u0644\u0648\u0643\u0647", "name:ar": "\u062f\u0627\u0648\u062f \u0639\u0644\u0648\u0643\u0629", "name:ckb": "\u062f\u0627\u0648\u062f \u0639\u0644\u0648\u0643\u0647", "name:en": "Dawd Alooka", "place": "village"}}, {"type": "node", "id": 9056091837, "lat": 35.2408901, "lon": 44.3917453, "tags": {"name": "\u0639\u0645\u0631 \u0628\u0646 \u0627\u0644\u062e\u0637\u0627\u0628", "place": "village"}}, {"type": "node", "id": 9087346862, "lat": 35.3230825, "lon": 44.1493768, "tags": {"name": "\u0645\u062c\u0645\u0639 \u0627\u0644\u0634\u0647\u064a\u062f", "name:ar": "\u0645\u062c\u0645\u0639 \u0627\u0644\u0634\u0647\u064a\u062f", "name:ckb": "\u06a9\u06c6\u0645\u06d5\u06b5\u06af\u06d5\u06cc \u0634\u06d5\u0647\u06cc\u062f", "name:en": "Shahid Collective", "place": "village"}}, {"type": "node", "id": 9388927402, "lat": 35.3193056, "lon": 44.4036815, "tags": {"name": "\u0642\u06d5\u0631\u06d5\u0644\u0648\u0648\u06cc \u0628\u0686\u0648\u0648\u06a9", "name:ar": "\u0642\u0631\u0644\u0648 \u0635\u063a\u06cc\u0631", "name:ckb": "\u0642\u06d5\u0631\u06d5\u0644\u0648\u0648", "name:en": "Little Qaralu", "name:ku": "Qerel\u00fb", "place": "village"}}, {"type": "node", "id": 9388928026, "lat": 35.3104057, "lon": 44.441441, "tags": {"name": "\u06cc\u0627\u0631\u0645\u0686\u06d5", "name:ckb": "\u06cc\u0627\u0631\u0645\u0686\u06d5", "name:en": "Yarmcha", "name:ku": "Yarmi\u00e7e", "place": "village"}}, {"type": "node", "id": 9388940120, "lat": 35.3231772, "lon": 44.3671694, "tags": {"name": "\u0632\u0646\u062f\u0627\u0646\u06d5", "name:ckb": "\u0632\u0646\u062f\u0627\u0646\u06d5", "name:en": "Zndana", "name:ku": "Zindane", "place": "village"}}, {"type": "node", "id": 9467108129, "lat": 35.5653667, "lon": 44.4344696, "tags": {"name": "\u06a9\u06c6\u0686\u06d5\u06a9\u06cc \u06af\u06d5\u0648\u0631\u06d5", "name:ar": "\u06a9\u0648\u062c\u06a9 \u0627\u0644\u06a9\u0628\u06cc\u0631", "name:en": "Great Kochak", "place": "village", "population": "240", "population:date": "1977"}}, {"type": "node", "id": 9470553802, "lat": 35.6422096, "lon": 44.4285673, "tags": {"name": "\u0642\u0632\u06b5 \u0642\u0627\u06cc\u06d5", "name:ckb": "\u0642\u0632\u06b5 \u0642\u0627\u06cc\u06d5", "name:en": "Qzl Qaya", "name:ku": "Qizill Qaye", "place": "village"}}, {"type": "node", "id": 9470589921, "lat": 35.6370232, "lon": 44.4073737, "tags": {"name": "\u062d\u06d5\u0633\u0627\u0631\u06cc \u0633\u06d5\u0639\u062f\u0648\u0648\u0646", "name:ckb": "\u062d\u06d5\u0633\u0627\u0631\u06cc \u0633\u06d5\u0639\u062f\u0648\u0648\u0646", "name:en": "Saadun's Hasar", "name:ku": "Hesara Se'd\u00fbn", "place": "village"}}, {"type": "node", "id": 9470589922, "lat": 35.6409414, "lon": 44.4094912, "tags": {"name": "\u0648\u06d5\u0644\u06cc \u067e\u0627\u0634\u0627", "name:ckb": "\u0648\u06d5\u0644\u06cc \u067e\u0627\u0634\u0627", "name:en": "Wali Pasha", "name:ku": "Wel\u00ee Pa\u015fa", "place": "village"}}, {"type": "node", "id": 9482793345, "lat": 35.578972, "lon": 44.0724588, "tags": {"name": "\u0634\u06cc\u0631\u06cc\u0646\u0627\u0648", "name:ar": "\u0634\u06cc\u0631\u0646\u0627\u0648", "name:ckb": "\u0634\u06cc\u0631\u06cc\u0646\u0627\u0648", "name:en": "Shirinaw", "name:ku": "\u015e\u00eer\u00eenaw", "place": "village"}}, {"type": "node", "id": 9593880392, "lat": 35.4858434, "lon": 44.4908699, "tags": {"name": "\u0686\u06cc\u0645\u06d5\u0646\u06cc \u06af\u06d5\u0648\u0631\u06d5", "name:ar": "\u062c\u06cc\u0645\u0629\u0646 \u0627\u0644\u06a9\u0628\u0631\u06cc", "name:en": "Great Chiman", "name:ku": "\u00c7\u00eemena \u015eeh\u00eedana Kakil", "place": "village"}}, {"type": "node", "id": 9602738039, "lat": 35.2334677, "lon": 44.1155353, "tags": {"name": "\u0639\u0644\u064a \u0627\u0644\u062f\u062d\u0627\u0645", "name:ckb": "\u0639\u06d5\u0644\u06cc \u062f\u06d5\u062d\u0627\u0645", "name:en": "Ali Al-Daham", "place": "village"}}, {"type": "node", "id": 9669135468, "lat": 35.2490453, "lon": 44.1962911, "tags": {"name": "\u0627\u0644\u0625\u0645\u0627\u0645", "name:ar": "\u0627\u0644\u0625\u0645\u0627\u0645", "name:ckb": "\u0626\u06cc\u0645\u0627\u0645", "name:en": "Imam", "place": "village"}}, {"type": "node", "id": 9735747625, "lat": 35.552213, "lon": 44.3602245, "tags": {"name": "\u0642\u0631\u064a\u0629 \u0633\u064a\u0643\u0627\u0646\u064a\u0627\u0646", "name:ar": "\u0642\u0631\u064a\u0629 \u0633\u064a\u0643\u0627\u0646\u064a\u0627\u0646", "name:ckb": "\u0633\u06ce\u06a9\u0627\u0646\u06cc\u0627\u0646", "name:en": "Sikanian village", "place": "village"}}, {"type": "node", "id": 9816540649, "lat": 35.2542538, "lon": 44.3939532, "tags": {"name": "\u0634\u0631\u06cc\u0646\u062c\u06d5 \u0628\u0648\u06b5\u0627\u063a", "name:ar": "\u0634\u0631\u06cc\u0646\u062c\u0629 \u0628\u0648\u0644\u0627\u063a", "name:en": "Shrinja Bulagh", "place": "village"}}, {"type": "node", "id": 9841254162, "lat": 35.5020461, "lon": 44.2933306, "tags": {"name": "\u0633\u06d5\u0631\u06cc \u062a\u06d5\u067e\u06d5", "name:ar": "\u0633\u0631\u064a \u062a\u0628\u06d5", "name:en": "Seri Tapa", "place": "village"}}, {"type": "node", "id": 9954313069, "lat": 35.4648428, "lon": 44.2339721, "tags": {"name": "\u0642\u0632\u0644\u064a\u0627\u0631 \u0627\u0644\u062c\u062f\u064a\u062f", "name:ckb": "\u0642\u0632\u0644\u06cc\u0627\u0631\u06cc \u062a\u0627\u0632\u06d5", "name:en": "New Qzlyar", "place": "village"}}, {"type": "node", "id": 9954345500, "lat": 35.4509037, "lon": 44.1905689, "tags": {"name": "\u0647\u0646\u062f\u06cc \u062a\u06d5\u067e\u06d5\u06cc \u062a\u0627\u0632\u06d5", "name:ar": "\u0647\u0646\u062f\u064a \u062a\u0628\u0629 \u0627\u0644\u062c\u062f\u06cc\u062f\u0629", "name:en": "New Hindi Tapa", "place": "village"}}, {"type": "node", "id": 9954352738, "lat": 35.4544609, "lon": 44.1732225, "tags": {"name": "\u0647\u0646\u062f\u06cc \u062a\u06d5\u067e\u06d5", "name:ar": "\u0647\u0646\u062f\u064a \u062a\u0628\u0629", "name:en": "Hndi Tapa", "place": "village"}}, {"type": "node", "id": 10223021834, "lat": 35.6432218, "lon": 44.2775573, "tags": {"name": "\u06a9\u06d5\u06b5\u0647\u0648\u0695 \u0628\u0646\u0627\u0631", "name:ar": "\u0643\u0644\u0647\u0648\u0631 \u0628\u0646\u0627\u0631", "name:ckb": "\u06a9\u06d5\u06b5\u0647\u0648\u0695 \u0628\u0646\u0627\u0631", "name:en": "Kalur Bnar", "name:es": "Calhur Bnar", "name:fa": "\u06a9\u0644\u0647\u0648\u0631 \u0628\u0646\u0627\u0631", "name:ku": "kelhur binar", "name:ps": "\u06a9\u0644\u0647\u0648\u0631 \u0628\u0646\u0627\u0631", "name:sdh": "\u06a9\u06d5\u06b5\u0647\u0648\u0695 \u0628\u0646\u0627\u0631", "name:tg": "\u06a9\u0644\u0647\u0648\u0631 \u0628\u0646\u0627\u0631", "name:ur": "\u06a9\u0644\u0647\u0648\u0631 \u0628\u0646\u0627\u0631", "place": "village", "population": "159", "population:date": "1977", "wikidata": "Q532", "wikipedia": "ar:\u0642\u0631\u064a\u0629"}}, {"type": "node", "id": 10286042309, "lat": 35.4043513, "lon": 44.1792892, "tags": {"name": "\u062a\u06d5\u0644 \u0639\u06d5\u0632\u06cc\u0632", "name:ar": "\u062a\u0644 \u0639\u0632\u06cc\u0632", "name:en": "Tal Aziz", "place": "village"}}, {"type": "node", "id": 11036788205, "lat": 35.5918068, "lon": 44.0449432, "tags": {"alt_name": "\u0642\u0631\u064a\u0629 \u0627\u0628\u0648 \u062e\u0631\u062c\u0629", "name": "\u0623\u0628\u0648 \u062e\u0631\u062c\u0629", "name:ar": "\u0623\u0628\u0648 \u062e\u0631\u062c\u0629", "name:ckb": "\u0626\u06d5\u0628\u0648 \u062e\u06d5\u0631\u062c\u06d5", "name:en": "Abu Kharja", "place": "village"}}, {"type": "node", "id": 11162636468, "lat": 35.6477602, "lon": 44.4697557}, {"type": "node", "id": 11162636469, "lat": 35.6493348, "lon": 44.4717703}, {"type": "node", "id": 11162636470, "lat": 35.6500346, "lon": 44.4732158}, {"type": "node", "id": 11162636471, "lat": 35.6492848, "lon": 44.4748613}, {"type": "node", "id": 11162636472, "lat": 35.6475353, "lon": 44.4752458}, {"type": "node", "id": 11162636473, "lat": 35.6472479, "lon": 44.4737694}, {"type": "node", "id": 11162636474, "lat": 35.6462856, "lon": 44.4731851}, {"type": "node", "id": 11162636475, "lat": 35.6455358, "lon": 44.4725546}, {"type": "node", "id": 11162636476, "lat": 35.6450734, "lon": 44.4712628}, {"type": "node", "id": 11162636477, "lat": 35.644611, "lon": 44.4700018}, {"type": "node", "id": 11162636478, "lat": 35.6460107, "lon": 44.4693559}, {"type": "node", "id": 11162636479, "lat": 35.6469479, "lon": 44.4691714}, {"type": "node", "id": 11169600321, "lat": 35.6398718, "lon": 44.014451, "tags": {"name": "\u062f\u0631\u0629 \u0627\u0644\u06a9\u0628\u0631\u06cc", "name:ar": "\u062f\u0631\u0629 \u0627\u0644\u06a9\u0628\u0631\u06cc", "name:ckb": "\u062f\u06ce\u0631\u06a9\u0627 \u0626\u0627\u0631\u06cc\u0627\u0646", "name:en": "Dara Alkubra", "place": "village"}}, {"type": "node", "id": 11169635242, "lat": 35.6031653, "lon": 44.0331512, "tags": {"name": "\u0645\u0634\u064a\u0631\u0641\u0629", "name:ar": "\u0645\u0634\u06cc\u0631\u0641\u0629", "name:ckb": "\u0645\u0634\u06ce\u0631\u0641\u06d5", "name:en": "Msherfa", "place": "village"}}, {"type": "node", "id": 11169677432, "lat": 35.4813184, "lon": 44.1018376, "tags": {"name": "\u0634\u0643\u0631\u0629", "name:ar": "\u0634\u06a9\u0631\u0629", "name:ckb": "\u0634\u06d5\u06a9\u0631\u06d5", "name:en": "Shakra", "place": "village"}}, {"type": "node", "id": 11169712165, "lat": 35.4917157, "lon": 44.1612775, "tags": {"name": "\u0625\u062f\u0631\u06cc\u0633 \u062e\u0628\u0627\u0632", "name:ar": "\u0625\u062f\u0631\u06cc\u0633 \u062e\u0628\u0627\u0632", "name:ckb": "\u0626\u06cc\u062f\u0631\u06cc\u0633 \u062e\u06d5\u0628\u0627\u0632", "name:en": "Idris Khabaz", "place": "village"}}, {"type": "node", "id": 11169733719, "lat": 35.459992, "lon": 44.1283074, "tags": {"name": "\u062e\u0631\u0627\u0628\u0629", "name:ar": "\u062e\u0631\u0627\u0628\u0629", "name:ckb": "\u062e\u06d5\u0631\u0627\u0628\u06d5", "name:en": "Kharaba", "place": "village"}}, {"type": "node", "id": 11169757061, "lat": 35.4696999, "lon": 44.1269676, "tags": {"name": "\u0645\u0644\u0627 \u0639\u0628\u062f\u0627\u0644\u0644\u0647", "name:ar": "\u0645\u0644\u0627 \u0639\u0628\u062f\u0627\u0644\u0644\u0647", "name:ckb": "\u0645\u06d5\u0644\u0627 \u0639\u06d5\u0628\u062f\u0648\u06b5\u06b5\u0627", "name:en": "Mala Abdulla", "place": "village"}}, {"type": "node", "id": 11169758318, "lat": 35.4073167, "lon": 44.1129683, "tags": {"name": "\u06a9\u0648\u0627\u0632\u0642\u0631\u0628\u06cc\u062a", "name:ar": "\u06a9\u0648\u0627\u0632\u0642\u0631\u0628\u06cc\u062a", "name:ckb": "\u06a9\u06d5\u0648\u0627\u0632\u06cc \u0642\u06d5\u0631\u06d5\u0628\u06ce\u062a", "name:en": "Kawaz Qarabet", "place": "village", "source": "wikimapia"}}, {"type": "node", "id": 11169783053, "lat": 35.4191374, "lon": 44.0930447, "tags": {"name": "\u062e\u0644\u0641", "name:ar": "\u062e\u0644\u0641", "name:ckb": "\u062e\u06d5\u06b5\u06d5\u0641", "name:en": "Khalaf", "place": "village", "source": "wikimapia"}}, {"type": "node", "id": 11169799188, "lat": 35.4272638, "lon": 44.0786429, "tags": {"name": "\u0645\u0646\u0635\u0648\u0631\u06cc\u0629", "name:ar": "\u0645\u0646\u0635\u0648\u0631\u06cc\u0629", "name:ckb": "\u0645\u06d5\u0646\u0633\u0648\u0695\u06cc\u06cc\u06d5", "name:en": "Mansuryia", "place": "village", "source": "wikimapia"}}, {"type": "node", "id": 11169802630, "lat": 35.430943, "lon": 44.0293451, "tags": {"name": "\u0642\u0648\u062f\u064a \u062c\u0627\u064a", "name:ar": "\u0642\u0648\u062f\u064a \u062c\u0627\u064a", "name:ckb": "\u0642\u06c6\u062f\u06cc \u0686\u0627\u06cc", "name:en": "Qodi Chay", "place": "village", "source": "wikimapia"}}, {"type": "node", "id": 11189020922, "lat": 35.5290166, "lon": 44.2115961, "tags": {"name": "\u0686\u0631\u0627\u063a", "name:ar": "\u062c\u0631\u0627\u063a", "name:en": "Chragh", "place": "village"}}, {"type": "node", "id": 11190523522, "lat": 35.4061592, "lon": 44.0099449, "tags": {"name": "\u0644\u0632\u0627\u0643\u0629", "name:ckb": "\u0644\u0632\u0627\u06af\u06d5", "name:en": "Lzaga", "place": "village"}}, {"type": "node", "id": 11224731124, "lat": 35.344153, "lon": 44.3444046, "tags": {"name": "\u0633\u0627\u0631\u06cc \u062a\u06d5\u067e\u06d5\u06cc \u0628\u0686\u0648\u0648\u06a9", "name:ar": "\u0633\u0627\u0631\u064a \u062a\u0628\u0629 \u0627\u0644\u0635\u063a\u0631\u06cc", "name:en": "Little Sari Tapa", "place": "village"}}, {"type": "node", "id": 11330446055, "lat": 35.5545544, "lon": 44.4639889, "tags": {"name": "\u06a9\u06c6\u0686\u06d5\u06a9\u06cc \u0628\u0686\u0648\u0648\u06a9", "name:ar": "\u06a9\u0648\u062c\u0643 \u0627\u0644\u0635\u063a\u06cc\u0631", "name:en": "Little Kochak", "place": "village", "population": "106", "population:date": "1977"}}, {"type": "node", "id": 11330507783, "lat": 35.609172, "lon": 44.3302458, "tags": {"name": "\u062f\u0627\u0631\u06d5\u0645\u0627\u0646\u06cc \u0628\u0686\u0648\u0648\u06a9", "name:ar": "\u062f\u0627\u0631\u0645\u0627\u0646 \u0627\u0644\u0635\u063a\u06cc\u0631", "name:en": "Little Daraman", "place": "village", "population": "113", "population:date": "1977"}}, {"type": "node", "id": 11331982037, "lat": 35.5332761, "lon": 44.1724576, "tags": {"name": "\u0626\u06cc\u062f\u0631\u06cc\u0633 \u0639\u06d5\u0631\u06d5\u0628", "name:ar": "\u0625\u062f\u0631\u06cc\u0633 \u0639\u0631\u0628", "name:en": "Idris Arab", "place": "village"}}, {"type": "node", "id": 11331998859, "lat": 35.5146244, "lon": 44.1899089, "tags": {"name": "\u0695\u0645\u06b5", "name:ar": "\u0631\u0645\u0644", "name:en": "Rmll", "place": "village"}}, {"type": "node", "id": 11332011278, "lat": 35.5721581, "lon": 44.2778949, "tags": {"name": "\u0647\u06d5\u0646\u062c\u06cc\u0631\u06d5", "name:ar": "\u0647\u0646\u062c\u06cc\u0631\u0629", "name:en": "Hanjira", "place": "village"}}, {"type": "node", "id": 11332319959, "lat": 35.4474755, "lon": 44.2111283, "tags": {"name": "\u0628\u0627\u0648\u06d5\u0633\u0627\u0641", "name:ar": "\u0628\u0627\u0648\u0629\u0633\u0627\u0641", "name:en": "Bawasaf", "place": "village"}}, {"type": "node", "id": 11332389950, "lat": 35.4428142, "lon": 44.2048544, "tags": {"name": "\u062c\u06d5\u062d\u06cc\u0634", "name:ar": "\u062c\u062d\u06cc\u0634", "name:en": "Jahish", "place": "village"}}, {"type": "node", "id": 11332410921, "lat": 35.5878872, "lon": 44.1971287, "tags": {"name": "\u0642\u0648\u0634\u0642\u0627\u06cc\u06d5", "name:ar": "\u0642\u0648\u0634\u0642\u0627\u06cc\u0629", "name:en": "Qushqaya", "place": "village"}}, {"type": "node", "id": 11338008278, "lat": 35.4995432, "lon": 44.2340588, "tags": {"name": "\u0642\u06d5\u0631\u06d5\u062a\u06d5\u067e\u06d5", "name:ar": "\u0642\u0631\u0629\u062a\u0628\u0629", "name:en": "Qara Tapa", "place": "village"}}, {"type": "node", "id": 11369389131, "lat": 35.4206189, "lon": 44.0229931, "tags": {"name": "\u0639\u0637\u0634\u0627\u0646\u0629 \u0627\u0644\u0639\u0644\u06cc\u0627", "name:ckb": "\u0639\u06d5\u062a\u0634\u0627\u0646\u06d5\u06cc \u0633\u06d5\u0631\u0648\u0648", "name:en": "Upper Atshanah", "place": "village"}}, {"type": "node", "id": 11369392012, "lat": 35.4016969, "lon": 44.0310888, "tags": {"name": "\u0639\u0637\u0634\u0627\u0646\u0629 \u0627\u0644\u0633\u0641\u0644\u06cc", "name:ckb": "\u0639\u06d5\u062a\u0634\u0627\u0646\u06d5\u06cc \u062e\u0648\u0627\u0631\u0648\u0648", "name:en": "Lower Atshanah", "place": "village"}}, {"type": "node", "id": 11369445452, "lat": 35.3824816, "lon": 44.0737032, "tags": {"name": "\u0645\u0695\u0627\u0646\u06d5\u06cc \u0628\u0686\u0648\u0648\u06a9", "name:ar": "\u0645\u0631\u0627\u0646\u0629 \u0627\u0644\u0635\u063a\u06cc\u0631", "name:en": "Little Mrana", "place": "village"}}, {"type": "node", "id": 11369448013, "lat": 35.3818735, "lon": 44.0489223, "tags": {"name": "\u0645\u0695\u0627\u0646\u06d5\u06cc \u06af\u06d5\u0648\u0631\u06d5", "name:ar": "\u0645\u0631\u0627\u0646\u0629 \u0627\u0644\u06a9\u0628\u06cc\u0631", "name:en": "Great Mrana", "place": "village"}}, {"type": "node", "id": 11369458933, "lat": 35.3830041, "lon": 44.1870775, "tags": {"name": "\u0639\u06d5\u0648\u06ce\u0646\u06d5", "name:ar": "\u0639\u0648\u06cc\u0646\u0629", "name:en": "Ewena", "place": "village"}}, {"type": "node", "id": 11369476071, "lat": 35.3628147, "lon": 44.1988512, "tags": {"name": "\u0633\u06d5\u06cc\u062f \u0639\u06d5\u0644\u06cc", "name:ar": "\u0633\u06cc\u062f \u0639\u0644\u064a", "name:en": "Said Ali", "place": "village"}}, {"type": "node", "id": 11369518970, "lat": 35.3944943, "lon": 44.2298918, "tags": {"name": "\u062d\u06d5\u0633\u0627\u0631\u06cc \u0626\u06d5\u062d\u0645\u06d5\u062f \u0628\u06d5\u06af", "name:ar": "\u062d\u0633\u0627\u0631 \u0627\u062d\u0645\u062f \u0628\u06a9", "name:en": "Hasari Ahmad Beg", "place": "village"}}, {"type": "node", "id": 11370485889, "lat": 35.2171661, "lon": 44.5155398, "tags": {"name": "\u0633\u0644\u0648\u06a9\u0627\u0646", "name:ar": "\u0633\u0644\u0648\u06a9\u0627\u0646", "name:en": "Slwkan", "place": "village"}}, {"type": "node", "id": 11377142958, "lat": 35.248644, "lon": 44.520485, "tags": {"name": "\u0628\u06d5\u06cc\u0627\u0646\u0644\u0648\u0648", "name:ar": "\u0628\u06cc\u0627\u0646\u0644\u0648", "name:en": "Bayanlu", "place": "village"}}, {"type": "node", "id": 11377158324, "lat": 35.4683235, "lon": 44.2466099, "tags": {"name": "\u0642\u0632\u0644\u06cc\u0627\u0631", "name:ar": "\u0642\u0632\u0644\u06cc\u0627\u0631", "name:en": "Qzlyar", "place": "village"}}, {"type": "node", "id": 11377161755, "lat": 35.4651885, "lon": 44.2133097, "tags": {"name": "\u06a9\u06d5\u0646\u0627\u062d\u06cc\u06d5", "name:ar": "\u06a9\u0646\u0627\u062d\u06cc\u0629", "name:en": "Kanahyia", "place": "village"}}, {"type": "node", "id": 11377260453, "lat": 35.2436539, "lon": 44.3353238, "tags": {"name": "\u062c\u06d5\u062f\u06cc\u062f\u06d5", "name:ar": "\u062c\u062f\u06cc\u062f\u0629", "name:en": "Jadida", "place": "village"}}, {"type": "node", "id": 11377268133, "lat": 35.2105743, "lon": 44.3792091, "tags": {"name": "\u0648\u06d5\u062d\u062f\u06d5", "name:ar": "\u0648\u062d\u062f\u0629", "name:en": "Wahda", "place": "village"}}, {"type": "node", "id": 11377275553, "lat": 35.3272304, "lon": 44.4126574, "tags": {"name": "\u0642\u06d5\u0631\u06d5\u0644\u0648\u0648\u06cc \u06af\u06d5\u0648\u0631\u06d5", "name:ar": "\u0642\u0631\u0644\u0648 \u06a9\u0628\u06cc\u0631", "name:en": "Great Qaralu", "place": "village"}}, {"type": "node", "id": 11377286106, "lat": 35.3721033, "lon": 44.53922, "tags": {"name": "\u062e\u062f\u0631\u0628\u06d5\u06af \u0634\u06ce\u062e \u0645\u062d\u06d5\u0645\u06d5\u062f", "name:ar": "\u062e\u062f\u0631\u0628\u06a9 \u0634\u06cc\u062e \u0645\u062d\u0645\u062f", "name:en": "Khdrbag Shekh Muhammad", "place": "village"}}, {"type": "node", "id": 11380106730, "lat": 35.3422773, "lon": 44.3507272, "tags": {"name": "\u0633\u0627\u0631\u06cc \u062a\u06d5\u067e\u06d5\u06cc \u06af\u06d5\u0648\u0631\u06d5", "name:ar": "\u0633\u0627\u0631\u064a \u062a\u0628\u0629 \u0627\u0644\u06a9\u0628\u0631\u06cc", "name:en": "Great Sari Tapa", "place": "village"}}, {"type": "node", "id": 11380239181, "lat": 35.4542782, "lon": 44.2800531, "tags": {"name": "\u062d\u06d5\u0633\u0627\u0631\u06cc \u062d\u0627\u062c\u06cc \u0645\u06d5\u062d\u0645\u0648\u0648\u062f", "name:ar": "\u062d\u0635\u0627\u0631 \u062d\u0627\u062c \u0645\u062d\u0645\u0648\u062f", "name:en": "Hasar Haji Mahmoud", "place": "village"}}, {"type": "node", "id": 11380239248, "lat": 35.4285159, "lon": 44.2784918, "tags": {"name": "\u06a9\u06c6\u0645\u06d5\u06b5\u06af\u06d5\u06cc \u062f\u06cc\u0628\u06d5\u06af\u06d5\u062a\u06d5\u067e\u06d5", "name:ar": "\u0645\u062c\u0645\u0639 \u062f\u06cc\u0628\u06a9\u0629\u062a\u0628\u0629", "name:en": "Dibaga Tappa Colective", "place": "village"}}, {"type": "node", "id": 11385095851, "lat": 35.5040732, "lon": 44.0937011, "tags": {"name": "\u0626\u06cc\u0633\u0645\u0627\u0639\u06cc\u0644 \u0626\u0627\u0648\u0627", "name:ar": "\u0627\u0633\u0645\u0627\u0639\u06cc\u0644 \u0622\u0648\u0627", "name:en": "Ismail Awa", "place": "village"}}, {"type": "node", "id": 11391358748, "lat": 35.429063, "lon": 44.1693663, "tags": {"name": "\u0634\u06d5\u0631\u06d5\u0641\u06cc\u06d5", "name:ar": "\u0634\u0631\u0641\u06cc\u0629", "name:en": "Sharafia", "place": "village"}}, {"type": "node", "id": 11391396821, "lat": 35.2087811, "lon": 44.3455891, "tags": {"name": "\u0633\u06d5\u06cc\u062f \u0646\u06d5\u062c\u0645", "name:ar": "\u0633\u06cc\u062f \u0646\u062c\u0645", "name:en": "Sayd Ajm", "place": "village"}}, {"type": "node", "id": 11414771409, "lat": 35.3293801, "lon": 44.0167731, "tags": {"name": "\u0634\u06cc\u062e \u0639\u06cc\u0633\u06cc", "name:ckb": "\u0634\u06ce\u062e \u0639\u06cc\u0633\u0627", "name:en": "Sheikh Issa", "place": "village"}}, {"type": "node", "id": 11414779721, "lat": 35.3306961, "lon": 44.0318202, "tags": {"name": "\u0637\u0627\u0647\u0631\u0629", "name:ckb": "\u062a\u0627\u0647\u06cc\u0631\u06d5", "name:en": "Tahirah", "place": "village"}}, {"type": "node", "id": 11415032213, "lat": 35.2965353, "lon": 44.1710342, "tags": {"name": "\u0645\u062c\u0645\u0639 \u0646\u0648\u0631", "name:ckb": "\u06a9\u06c6\u0645\u06d5\u06b5\u06af\u06d5\u06cc \u0646\u0648\u0648\u0631", "name:en": "Noor Collective", "place": "village"}}, {"type": "node", "id": 11415067840, "lat": 35.3035035, "lon": 44.1626366, "tags": {"name": "\u06af\u06cc\u0631\u0645\u06d5", "name:ar": "\u06a9\u06cc\u0631\u0645\u0629", "name:ckb": "\u06af\u06cc\u0631\u0645\u06d5", "name:en": "Girma", "place": "village"}}, {"type": "node", "id": 11415073538, "lat": 35.3050591, "lon": 44.1033709, "tags": {"name": "\u062a\u062d\u0648\u06cc\u0644\u0629", "name:ar": "\u062a\u062d\u0648\u06cc\u0644\u0629", "name:ckb": "\u062a\u06d5\u062d\u0648\u06cc\u0644\u06d5", "name:en": "Tahwila", "place": "village"}}, {"type": "node", "id": 11416351343, "lat": 35.2511909, "lon": 44.02525, "tags": {"name": "\u062d\u0627\u062c\u064a \u062d\u0645\u06cc\u062f", "name:ar": "\u062d\u0627\u062c\u064a \u062d\u0645\u06cc\u062f", "name:ckb": "\u062d\u0627\u062c\u06cc \u062d\u06d5\u0645\u06cc\u062f", "name:en": "Haji Hamid", "place": "village"}}, {"type": "node", "id": 11425424488, "lat": 35.2747698, "lon": 44.1256301, "tags": {"name": "\u0626\u06c6\u0645\u06d5\u062c\u0627\u0646", "name:ar": "\u0627\u0645\u0639\u062c\u0627\u0646", "name:ckb": "\u0626\u06c6\u0645\u06d5\u062c\u0627\u0646", "name:en": "Omajan", "place": "village"}}, {"type": "node", "id": 11425572510, "lat": 35.2526, "lon": 44.12918, "tags": {"name": "\u0634\u06a9\u0627\u0646\u06d5", "name:ar": "\u0634\u06a9\u0627\u0646\u0629", "name:ckb": "\u0634\u06a9\u0627\u0646\u06d5", "name:en": "Shkana", "place": "village"}}, {"type": "node", "id": 11432800088, "lat": 35.368537, "lon": 44.2236566}, {"type": "node", "id": 11432800089, "lat": 35.3684045, "lon": 44.2235841}, {"type": "node", "id": 11432800090, "lat": 35.3682211, "lon": 44.2238315}, {"type": "node", "id": 11432800091, "lat": 35.3680845, "lon": 44.2248662}, {"type": "node", "id": 11432800092, "lat": 35.3685981, "lon": 44.2249712}, {"type": "node", "id": 11432800093, "lat": 35.3687591, "lon": 44.2245963}, {"type": "node", "id": 11432800094, "lat": 35.3687714, "lon": 44.2243764}, {"type": "node", "id": 11432800095, "lat": 35.3687489, "lon": 44.2241839}, {"type": "node", "id": 11432800096, "lat": 35.3686796, "lon": 44.2239815}, {"type": "way", "id": 303221693, "nodes": [3075584596, 3075584597, 3075584598, 3075584599, 3075584596], "tags": {"place": "village"}}, {"type": "way", "id": 460144048, "nodes": [4558209424, 4558209425, 4558209426, 4558209427, 4558209424], "tags": {"name": "\u0628\u06c6\u0632\u0627\u0646", "name:ar": "\u0628\u0648\u0632\u0627\u0646", "name:en": "Bozan", "name:ku": "Bozan", "place": "village"}}, {"type": "way", "id": 679050324, "nodes": [6358369850, 6358369855, 6358369856, 6358369857, 6358369858, 6358369850], "tags": {"name": "Leylan", "name:ar": "\u0644\u064a\u0644\u0627\u0646", "name:en": "laylan", "place": "town"}}, {"type": "way", "id": 679050501, "nodes": [6358380961, 6358380962, 7704519012, 6358380963, 7704519011, 6358380964, 7704519010, 7704519009, 6358380961], "tags": {"name": "\u06cc\u06d5\u062d\u06cc\u0627\u0648\u06d5", "place": "village"}}, {"type": "way", "id": 787484200, "nodes": [7362772410, 7362772411, 7362772412, 7362772413, 7362772414, 7362772415, 7362772416, 7362772417, 7362772418, 7362772419, 7362772420, 7362772421, 7362772422, 7362772423, 7362772424, 7362772425, 7362772426, 7362772427, 7362772428, 7362772429, 7362772430, 7362772431, 7362772432, 7362772433, 7362772434, 7362772410], "tags": {"name": "\u062d\u06d5\u0633\u06d5\u0646 \u0626\u0627\u0648\u0627", "place": "village"}}, {"type": "way", "id": 803280687, "nodes": [7514014159, 7514014160, 7514014161, 7514014162, 7514014163, 7514014164, 7514014165, 7514014166, 7514014167, 7514014168, 7514014169, 7514014170, 7514014171, 7514014172, 7514014173, 7514014174, 7514014175, 7514014176, 7514014177, 7514014178, 7514014179, 7514014180, 7514014181, 7514014182, 7514014183, 7514014184, 7514020085, 7514020086, 7514020087, 7514020088, 7514020089, 7514020090, 7514020091, 7514020092, 7514020093, 7514020094, 7514020095, 7514020096, 7514020097, 7514020098, 7514020099, 7514020100, 7514020101, 7514020102, 7514020103, 7514014159], "tags": {"name": "\u0639\u06d5\u0644\u0627\u0648\u06d5 \u0645\u06d5\u062d\u0645\u0648\u0648\u062f", "place": "village"}}, {"type": "way", "id": 820363312, "nodes": [7660225525, 7660225526, 7660225527, 7660225528, 7660225529, 7660225530, 7660225531, 7660225525], "tags": {"name": "\u0642\u0632\u06b5 \u0642\u0627\u06cc\u06d5", "place": "village", "residential": "rural"}}, {"type": "way", "id": 839749305, "nodes": [7836049167, 7836049168, 7836049169, 7836049170, 7836049171, 7836049172, 7836049173, 7836049155, 7836049156, 7836049159, 7836049160, 7836049161, 7836049162, 7836049163, 7836049164, 7836049165, 7836049166, 7836049157, 7836049158, 7836049167], "tags": {"place": "village"}}, {"type": "way", "id": 840830778, "nodes": [7845767972, 7845767973, 7845767974, 7845767975, 7845767976, 7845767977, 7845767978, 7845767960, 7845767961, 7845767964, 7845767965, 7845767966, 7845767967, 7845767968, 7845767969, 7845767970, 7845767971, 7845767962, 7845767963, 7845767972], "tags": {"place": "village"}}, {"type": "way", "id": 908430004, "nodes": [8435108015, 8435108016, 8435125217, 8435125218, 8435125219, 8435125220, 8435125221, 8435125222, 8435125223, 8435125224, 8435108015], "tags": {"place": "village"}}, {"type": "way", "id": 1204394941, "nodes": [11162636468, 11162636469, 11162636470, 11162636471, 11162636472, 11162636473, 11162636474, 11162636475, 11162636476, 11162636477, 11162636478, 11162636479, 11162636468], "tags": {"name": "\u0639\u0648\u0645\u06d5\u0631\u0628\u06d5\u06af", "place": "village", "residential": "rural"}}, {"type": "way", "id": 1232503907, "nodes": [11432800088, 11432800089, 11432800090, 11432800091, 11432800092, 11432800093, 11432800094, 11432800095, 11432800096, 11432800088], "tags": {"place": "village"}}]}