{"version": 0.6, "generator": "Overpass API 0.7.61.5 4133829e", "osm3s": {"timestamp_osm_base": "2024-03-06T11:16:45Z", "copyright": "The data included in this document is from www.openstreetmap.org. The data is made available under ODbL."}, "elements": [{"type": "node", "id": 2484053419, "lat": 32.4367751, "lon": 45.5400187, "tags": {"alt_name": "\u0647\u0648\u0631 \u0623\u0645 \u0627\u0644\u0641\u0643", "int_name": "Hawr Umm al Fakk, \u0647\u0648\u0631 \u0627\u0645 \u0627\u0644\u0641\u0643, Hawr Umm al Fakk, \u0647\u0648\u0631 \u0627\u0645 \u0627\u0644\u0641\u0643", "is_in": "Iraq , \u062c\u0645\u0647\u0648\u0631\u064a\u0629 \u0627\u0644\u0639\u0631\u0627\u0642", "name": "\u0647\u0648\u0631 \u0623\u0645 \u0627\u0644\u0641\u0643", "name:ar": "\u0647\u0648\u0631 \u0623\u0645 \u0627\u0644\u0641\u0643", "name:ar1": "\u0647\u0648\u0631 \u0623\u0645 \u0627\u0644\u0641\u0643", "name:de": "Hawr Umm al Fakk", "name:en": "Hawr Umm al Fakk", "name:fr": "Hawr Umm al Fakk", "place": "village"}}, {"type": "node", "id": 2487993804, "lat": 32.556211, "lon": 45.412934, "tags": {"alt_name": "\u0627\u0644\u0628\u063a\u064a\u0644\u0629", "int_name": "Al Bughaylah, Baghailah, Baghela, Bghailah, Bogheileh, Bogheili, Al Bughaylah, Baghailah, Baghela, Bghailah, Bogheileh, Bogheili", "is_in": "Iraq , \u062c\u0645\u0647\u0648\u0631\u064a\u0629 \u0627\u0644\u0639\u0631\u0627\u0642", "name": "\u0627\u0644\u0628\u063a\u064a\u0644\u0629", "name:ar": "\u062d\u064a \u0627\u0644\u0634\u0631\u0642\u064a\u0629", "name:ar1": "\u0627\u0644\u0628\u063a\u064a\u0644\u0629", "name:de": "Al Bughaylah", "name:en": "Al Bughaylah", "name:fr": "Al Bughaylah", "place": "village"}}, {"type": "node", "id": 2487995273, "lat": 32.55, "lon": 45.383333, "tags": {"alt_name": "\u062c\u0644\u0627\u0628\u064a", "int_name": "Jall\u0101b\u012b, Jallabi", "is_in": "Iraq , \u062c\u0645\u0647\u0648\u0631\u064a\u0629 \u0627\u0644\u0639\u0631\u0627\u0642", "name": "\u062c\u0644\u0627\u0628\u064a", "name:ar": "\u0642\u0631\u064a\u0629 \u0627\u0644\u0645\u062b\u0644\u062b", "name:ar1": "\u062c\u0644\u0627\u0628\u064a", "name:de": "Jallabi", "name:en": "Jallabi", "name:fr": "Jallabi", "place": "village"}}, {"type": "node", "id": 2487995620, "lat": 32.549549, "lon": 45.391327, "tags": {"alt_name": "\u0633\u0639\u062f\u0648\u0646", "int_name": "Sad\u016bn, \u0633\u0639\u062f\u0648\u0646, Sadun, \u0633\u0639\u062f\u0648\u0646", "is_in": "Iraq , \u062c\u0645\u0647\u0648\u0631\u064a\u0629 \u0627\u0644\u0639\u0631\u0627\u0642", "name": "\u0645\u062b\u0644\u062b \u0646\u0639\u0645\u0627\u0646\u064a\u0629 \u0634\u0648\u0645\u0644\u064a", "name:ar": "\u0627\u0644\u0645\u062b\u0644\u062b", "name:ar1": "\u0633\u0639\u062f\u0648\u0646", "name:de": "Triangle Village", "name:en": "Triangle Village", "name:fr": "Triangle Village", "place": "village"}}, {"type": "node", "id": 3091126250, "lat": 32.5520407, "lon": 45.4119689, "tags": {"capital": "6", "is_in": "Iraq", "is_in:country": "Iraq", "is_in:country_code": "IQ", "name": "\u0627\u0644\u0646\u0639\u0645\u0627\u0646\u064a\u0629", "name:ar": "\u0627\u0644\u0646\u0639\u0645\u0627\u0646\u064a\u0629", "name:de": "An Numaniyah", "name:en": "An Numaniyah", "name:es": "An Numaniyah", "name:fr": "An Numaniyah", "name:ja": "\u30cc\u30fc\u30de\u30cb\u30e4\u30fc", "name:ru": "\u042d\u043d-\u041d\u0443\u0443\u043c\u0430\u043d\u0438\u044f", "place": "town", "population": "33369", "population:date": "2012", "source:population": "https://ru.wikipedia.org/wiki/%D0%AD%D0%BD-%D0%9D%D0%B0%D0%B0%D0%BC%D0%B0%D0%BD%D0%B8%D1%8F", "wikidata": "Q2349664", "wikipedia": "en:An Numaniyah"}}, {"type": "node", "id": 4477351357, "lat": 32.2870896, "lon": 45.5279177, "tags": {"place": "hamlet"}}, {"type": "node", "id": 4477351358, "lat": 32.2953928, "lon": 45.507828, "tags": {"place": "hamlet"}}, {"type": "node", "id": 4477351359, "lat": 32.2986168, "lon": 45.5136752, "tags": {"place": "hamlet"}}]}