{"version": 0.6, "generator": "Overpass API 0.7.61.5 4133829e", "osm3s": {"timestamp_osm_base": "2024-03-06T11:29:56Z", "copyright": "The data included in this document is from www.openstreetmap.org. The data is made available under ODbL."}, "elements": [{"type": "node", "id": 6934114951, "lat": 1.2580828, "lon": 35.0946694, "tags": {"amenity": "bank", "is_in:village": "Makutano", "name": "KCB Bank"}}, {"type": "node", "id": 6934146874, "lat": 1.2594433, "lon": 35.093585, "tags": {"amenity": "bank", "is_in:village": "Tilak", "name": "Post Bank"}}, {"type": "node", "id": 6934156176, "lat": 1.2585324, "lon": 35.097078, "tags": {"addr:city": "Kapenguria", "addr:street": "Kitale-Kapenguria Road", "amenity": "bank", "brand": "Equity Bank", "brand:wikidata": "Q5384664", "brand:wikipedia": "en:Equity Bank Kenya Limited", "is_in:village": "Makutano", "name": "Equity Bank"}}, {"type": "node", "id": 6934187382, "lat": 1.258879, "lon": 35.0950349, "tags": {"addr:city": "Kapenguria", "addr:street": "Kacheliba Road", "amenity": "bank", "brand": "Barclays", "brand:wikidata": "Q245343", "brand:wikipedia": "en:Barclays", "is_in:village": "Mawingo road", "name": "Barclays"}}, {"type": "node", "id": 6934187383, "lat": 1.2587282, "lon": 35.0955931, "tags": {"amenity": "bank", "image": "https://kc.humanitarianresponse.info/attachment/original?media_file=mapkibera/attachments/1572431282957.jpg", "is_in:village": "Mawingo road", "name": "Kapematt Capital Limited"}}, {"type": "node", "id": 6934258915, "lat": 1.2571813, "lon": 35.0933211, "tags": {"addr:street": "Kapenguria-Lodwar Road", "amenity": "bank", "is_in:village": "Makutano", "name": "Kenya Women MicroFinance Bank."}}]}