{"version": 0.6, "generator": "Overpass API 0.7.61.5 4133829e", "osm3s": {"timestamp_osm_base": "2024-03-06T10:46:01Z", "copyright": "The data included in this document is from www.openstreetmap.org. The data is made available under ODbL."}, "elements": [{"type": "node", "id": 2687899319, "lat": 37.14122, "lon": 42.7223167}, {"type": "node", "id": 4472852392, "lat": 37.1842417, "lon": 42.8048696, "tags": {"addr:street": "Hizawa Street", "amenity": "school", "name": "\u0642\u0648\u062a\u0627\u0628\u062e\u0627\u0646\u0627 \u0647\u06d5\u0633\u062a", "name:ar": "\u0645\u062f\u0631\u0633\u0629 \u0647\u0633\u062a", "name:en": "Hast School", "name:ku": "\u0642\u0648\u062a\u0627\u0628\u062e\u0627\u0646\u0627 \u0647\u06d5\u0633\u062a"}}, {"type": "node", "id": 4530419193, "lat": 37.1500112, "lon": 42.7020578, "tags": {"amenity": "school", "name": "miqdad midhet", "name:ar": "\u0645\u0642\u062f\u0627\u062f \u0645\u062f\u062d\u062a", "name:en": "Miqdad Madhat School", "name:ku": "\u0642\u0648\u062a\u0627\u0628\u062e\u0627\u0646\u06d5\u06cc \u0645\u06cc\u0642\u062f\u0627\u062f \u0645\u062f\u062d\u062a"}}, {"type": "node", "id": 4537893191, "lat": 37.1615221, "lon": 42.7124775, "tags": {"amenity": "school", "name": "qutabxana xwakurk", "name:ar": "\u0645\u062f\u0631\u0633\u0629 \u062e\u0648\u0627\u0643\u0648\u0631\u0643", "name:ku": "qutabxana xwakurk"}}, {"type": "node", "id": 4537893193, "lat": 37.1418169, "lon": 42.7017377, "tags": {"amenity": "school", "name": "qutabxana hevot", "name:ar": "\u0645\u062f\u0631\u0633\u0629 \u0647\u0641\u0648\u062a", "name:en": "Hevot School", "name:ku": "\u0642\u0648\u062a\u0627\u0628\u062e\u0627\u0646\u06d5\u06cc \u0647\u06ce\u06a4\u0648\u062a"}}, {"type": "node", "id": 4537956994, "lat": 37.1475217, "lon": 42.7025007, "tags": {"amenity": "school", "name": "qutabxana shepal", "name:ar": "\u0645\u062f\u0631\u0633\u0629 \u0634\u0628\u0627\u0644", "name:en": "Shepal School", "name:ku": "\u0642\u0648\u062a\u0627\u0628\u062e\u0627\u0646\u06d5\u06cc \u0634\u06ce\u067e\u0627\u0644"}}, {"type": "node", "id": 4537956996, "lat": 37.1422412, "lon": 42.7008935, "tags": {"amenity": "school", "name": "qutabxana zagros", "name:ar": "\u0645\u062f\u0631\u0633\u0629 \u0632\u0627\u0643\u0631\u0648\u0633", "name:en": "Zagroz School", "name:ku": "\u0642\u0648\u062a\u0627\u0628\u062e\u0627\u0646\u06d5\u06cc \u0632\u0627\u06af\u0631\u06c6\u0633"}}, {"type": "node", "id": 4537957590, "lat": 37.1650189, "lon": 42.7242311, "tags": {"amenity": "school", "name": "qutabxana tilkeber", "name:ar": "\u0645\u062f\u0631\u0633\u0629 \u062a\u0644\u0643\u0628\u0631", "name:en": "school tilkeber", "name:ku": "\u0642\u0648\u062a\u0627\u0628\u062e\u0627\u0646\u0627 \u062a\u0644\u0643\u06d5\u0628\u06d5\u0631"}}, {"type": "node", "id": 4544561395, "lat": 37.1624259, "lon": 42.7123062, "tags": {"amenity": "school", "name": "qutabxana shemal", "name:ar": "\u0645\u062f\u0631\u0633\u0629 \u0634\u0645\u0627\u0644", "name:ku": "qutabxana shemal"}}, {"type": "node", "id": 4544614094, "lat": 37.164386, "lon": 42.6970313, "tags": {"amenity": "school", "name": "Qutabxana Perleman", "name:ar": "\u0645\u062f\u0631\u0633\u0629 \u0628\u0631\u0644\u0645\u0627\u0646", "name:en": "Parliament School", "name:ku": "\u0642\u0648\u062a\u0627\u0628\u062e\u0627\u0646\u06d5\u06cc \u067e\u06d5\u0631\u0644\u06d5\u0645\u0627\u0646"}}, {"type": "node", "id": 4715615994, "lat": 37.1425572, "lon": 42.6958467, "tags": {"amenity": "school", "name": "\u0642\u0648\u062a\u0627\u0628\u062e\u0627\u0646\u0627 \u0698\u064a\u0627\u0631", "name:ar": "\u0645\u062f\u0631\u0633\u0629 \u0698\u064a\u0627\u0631", "name:en": "Jiyar School", "name:ku": "\u0642\u0648\u062a\u0627\u0628\u062e\u0627\u0646\u0627 \u0698\u064a\u0627\u0631"}}, {"type": "node", "id": 4715679790, "lat": 37.1436061, "lon": 42.6982043, "tags": {"amenity": "school", "name": "\u0642\u0648\u062a\u0627\u0628\u062e\u0627\u0646\u0627 \u0647\u0646\u062f\u0627\u0641", "name:ar": "\u0645\u062f\u0631\u0633\u0629 \u0647\u0646\u062f\u0627\u0641", "name:en": "Handav School", "name:ku": "\u0642\u0648\u062a\u0627\u0628\u062e\u0627\u0646\u0627 \u0647\u0646\u062f\u0627\u06a4"}}, {"type": "node", "id": 4771730823, "lat": 37.1421559, "lon": 42.6792565, "tags": {"addr:postcode": "964", "amenity": "school", "name": "\u0642\u0648\u062a\u0627\u0628\u062e\u0627\u0646\u0627 \u062f\u062c\u0644\u0629 \u064a\u0627 (\u0639\u0629\u0631\u0629\u0628\u064a)", "name:ar": "\u0627\u0639\u062f\u0627\u062f\u064a\u0629 \u0632\u0627\u062e\u0648 \u0644\u0644\u0628\u0646\u06cc\u0646", "name:en": "Zakho preparatory school", "name:ku": "\u0626\u0627\u0645\u0627\u062f\u06d5\u06cc\u0627 \u0632\u0627\u062e\u06c6 \u06cc\u0627 \u06a9\u0648\u0695\u0627\u0646"}}, {"type": "node", "id": 4771733323, "lat": 37.1557107, "lon": 42.7108354, "tags": {"addr:street": "Firq\u00ea", "amenity": "school", "grades": "9-12", "name": "\u0627\u0639\u062f\u0627\u062f\u064a\u0629 \u0634\u0647\u064a\u0627\u0646 \u0648 \u0634\u0627\u0646\u0627\u0632", "name:ar": "\u0627\u0639\u062f\u0627\u062f\u064a\u0629 \u0634\u0647\u064a\u0627\u0646", "name:en": "Shehyan & Shanaz School", "name:ku": "\u0626\u0627\u0645\u0627\u062f\u0647\u200c\u064a\u064a\u0627 \u0634\u0647\u200c\u0647\u064a\u0627\u0646 \u0648 \u0634\u0627\u0646\u0627\u0632", "religion": "muslim"}}, {"type": "node", "id": 4813876631, "lat": 37.1458777, "lon": 42.7066059, "tags": {"amenity": "school", "name": "\u0626\u0627\u0645\u0627\u062f\u0647 \u06cc\u0627 \u06a4\u06cc\u0646 \u06cc\u0627 \u06a9\u0686\u0627\u0646", "name:ar": "\u0626\u0627\u0645\u0627\u062f\u0647 \u06cc\u0627 \u06a4\u06cc\u0646 \u06cc\u0627 \u06a9\u0686\u0627\u0646", "name:en": "Vin School preparatory", "name:ku": "Amadeya V\u00een Ya Ki\u00e7an"}}, {"type": "node", "id": 4842615221, "lat": 37.1415241, "lon": 42.6923487, "tags": {"alt_name:en": "Galy High School for Boys", "amenity": "school", "facebook": "https://www.facebook.com/GaliHighSchool/", "name": "\u0626\u0627\u0645\u0627\u062f\u0647 \u064a\u0627 \u06af\u0647 \u0644\u064a \u064a\u0627 \u0643\u0648\u0631\u0627\u0646", "name:ar": "\u0645\u062f\u0631\u0633\u0629 \u06af\u0644\u064a", "name:en": "Gali High School", "name:ku": "\u0626\u0627\u0645\u0627\u062f\u0647 \u064a\u0627 \u06af\u0647 \u0644\u064a \u064a\u0627 \u0643\u0648\u0631\u0627\u0646"}}, {"type": "node", "id": 4856406122, "lat": 37.1407955, "lon": 42.689314, "tags": {"amenity": "school", "name": "\u0642\u0648\u062a\u0627\u0628\u062e\u0627\u0646\u0627 \u0628\u0648\u062a\u0627\u0646", "name:ar": "\u0645\u062f\u0631\u0633\u0647 \u0628\u0648\u062a\u0627\u0646", "name:en": "Botan School", "name:ku": "Dibistana Botan"}}, {"type": "node", "id": 4856406123, "lat": 37.1413584, "lon": 42.6866589, "tags": {"amenity": "school", "name": "\u0642\u0648\u062a\u0627\u0628\u062e\u0627\u0646\u0627 \u0628\u06d5\u062f\u0631\u062e\u0627\u0646", "name:ar": "\u0645\u062f\u0631\u0633\u0629 \u0628\u062f\u0631\u062e\u0627\u0646", "name:en": "Badrkhan School", "name:ku": "Dibistana Bedirxan"}}, {"type": "node", "id": 4856422222, "lat": 37.1402027, "lon": 42.6889099, "tags": {"amenity": "school", "name": "\u0642\u0648\u062a\u0627\u0628\u062e\u0627\u0646\u0627 \u06af\u0644\u0627\u06a4\u06ce\u0698", "name:ar": "\u0645\u062f\u0631\u0633\u0647 \u06a9\u0644\u0627\u0641\u06cc\u0632", "name:en": "Galawezh School", "name:ku": "\u0642\u0648\u062a\u0627\u0628\u062e\u0627\u0646\u0627 \u06af\u0644\u0627\u06a4\u06ce\u0698"}}, {"type": "node", "id": 4856427621, "lat": 37.1404928, "lon": 42.6893691, "tags": {"amenity": "school", "name": "\u0642\u0648\u062a\u0627\u0628\u062e\u0627\u0646\u0627 \u0632\u0648\u0632\u0627\u0646", "name:ar": "\u0645\u062f\u0631\u0633\u0629 \u0632\u0648\u0632\u0627\u0646", "name:en": "Zozan School", "name:ku": "Dibistana Zozan"}}, {"type": "node", "id": 4947271122, "lat": 37.134735, "lon": 42.6703269, "tags": {"addr:city": "\u0632\u0627\u062e\u0648", "addr:street": "\u0628\u06d5\u0631\u0627\u0645\u0628\u06d5\u0631 \u0645\u0632\u06af\u06d5\u0641\u062a\u0627 \u0633\u06d5\u0639\u06cc\u062f \u0626\u06cc\u0628\u0631\u0627\u0647\u06cc\u0645", "amenity": "school", "grades": "10-12", "name": "Haval Boys High School", "name:ar": "\u0645\u062f\u0631\u0633\u0629 \u0647\u0641\u0627\u0644 \u0644\u0644\u0628\u0646\u064a\u0646 \u0627\u0644\u062b\u0627\u0646\u0648\u064a\u0629", "name:ku": "\u0626\u0627\u0645\u0627\u062f\u06d5\u06cc\u06cc\u0627 \u0647\u06d5\u06a4\u0627\u0644 \u06cc\u0627 \u06a9\u06c6\u0631\u0627\u0646", "open_date": "2004-", "religion": "muslim"}}, {"type": "node", "id": 4981711221, "lat": 37.1643457, "lon": 42.7256559, "tags": {"amenity": "school", "name": "\u0645\u062f\u0631\u0633\u0629 \u062c\u0648\u062f\u064a", "name:ar": "\u0645\u062f\u0631\u0633\u0629 \u062c\u0648\u062f\u064a", "name:en": "choudi", "name:ku": "choudi"}}, {"type": "node", "id": 4984411421, "lat": 37.1884276, "lon": 42.8570911, "tags": {"amenity": "school", "name": "\u0626\u0627\u0645\u0627\u062f\u0647 \u06cc\u06cc\u0627 \u0628\u06ce\u0631\u0633\u06a4\u06ce \u06cc\u0627 \u062a\u06ce\u06a9\u0647 \u0644", "name:ar": "\u0626\u0627\u0645\u0627\u062f\u0647 \u06cc\u06cc\u0627 \u0628\u06ce\u0631\u0633\u06a4\u06ce \u06cc\u0627 \u062a\u06ce\u06a9\u0647 \u0644"}}, {"type": "node", "id": 5075462826, "lat": 37.1449132, "lon": 42.7066883, "tags": {"amenity": "school", "name": "\u0628\u0627\u062e\u062c\u064a \u0628\u064a\u0644\u064a\u0646", "name:ar": "\u0628\u0627\u062e\u062c\u064a \u0628\u064a\u0644\u064a\u0646"}}, {"type": "node", "id": 5075462827, "lat": 37.1454758, "lon": 42.7083748, "tags": {"amenity": "school", "name": "\u0633\u0627\u0628\u064a\u0633", "name:ar": "\u0633\u0627\u0628\u0648\u0633"}}, {"type": "node", "id": 5149560223, "lat": 37.1462925, "lon": 42.7086293, "tags": {"addr:street": "abasik", "amenity": "school", "email": "Mohamedslivanae@gmail.com", "name:en": "amadaya sarkerda ya koran"}}, {"type": "node", "id": 5262249022, "lat": 37.1510068, "lon": 42.6813481, "tags": {"amenity": "school", "name": "\u0645\u062f\u0631\u0633\u0629 \u0631\u0648\u0632 \u0627\u0644\u0623\u0633\u0627\u0633\u064a\u0629", "name:ar": "\u0645\u062f\u0631\u0633\u0629 \u0631\u0648\u0632 \u0627\u0644\u0623\u0633\u0627\u0633\u064a\u0629", "name:en": "Roj basic school"}}, {"type": "node", "id": 5313880664, "lat": 37.1418035, "lon": 42.7235112}, {"type": "node", "id": 5313880665, "lat": 37.1400613, "lon": 42.7232785}, {"type": "node", "id": 5313880711, "lat": 37.1451965, "lon": 42.7063772}, {"type": "node", "id": 5313880712, "lat": 37.1451175, "lon": 42.7070602}, {"type": "node", "id": 5313880713, "lat": 37.144542, "lon": 42.706947}, {"type": "node", "id": 5313880714, "lat": 37.1446154, "lon": 42.7062781}, {"type": "node", "id": 5313880715, "lat": 37.1455746, "lon": 42.7056127}, {"type": "node", "id": 5313880716, "lat": 37.1455153, "lon": 42.7063028}, {"type": "node", "id": 5313880717, "lat": 37.1446267, "lon": 42.706133}, {"type": "node", "id": 5313880718, "lat": 37.1447028, "lon": 42.7054393}, {"type": "node", "id": 5313880719, "lat": 37.1464463, "lon": 42.7066249}, {"type": "node", "id": 5313880720, "lat": 37.1459131, "lon": 42.7058604}, {"type": "node", "id": 5313880921, "lat": 37.1456874, "lon": 42.7061188}, {"type": "node", "id": 5313880922, "lat": 37.1455097, "lon": 42.7077291}, {"type": "node", "id": 5313880934, "lat": 37.1460739, "lon": 42.7066886}, {"type": "node", "id": 5313880935, "lat": 37.1460569, "lon": 42.7070181}, {"type": "node", "id": 5313880936, "lat": 37.145741, "lon": 42.7069611}, {"type": "node", "id": 5313880937, "lat": 37.1456959, "lon": 42.7069576}, {"type": "node", "id": 5313880938, "lat": 37.14571, "lon": 42.7068479}, {"type": "node", "id": 5313880939, "lat": 37.1456733, "lon": 42.7068479}, {"type": "node", "id": 5313880940, "lat": 37.1456625, "lon": 42.7067272}, {"type": "node", "id": 5313880941, "lat": 37.1457297, "lon": 42.7067417}, {"type": "node", "id": 5313880942, "lat": 37.1457382, "lon": 42.7066426}, {"type": "node", "id": 5313880943, "lat": 37.1461931, "lon": 42.7062618}, {"type": "node", "id": 5313880946, "lat": 37.146036, "lon": 42.7060366}, {"type": "node", "id": 5313880947, "lat": 37.1459469, "lon": 42.7088511}, {"type": "node", "id": 5313880948, "lat": 37.1459949, "lon": 42.7084582}, {"type": "node", "id": 5313880949, "lat": 37.1463052, "lon": 42.708076}, {"type": "node", "id": 5313880950, "lat": 37.1458764, "lon": 42.7074708}, {"type": "node", "id": 5313880951, "lat": 37.1454815, "lon": 42.707938}, {"type": "node", "id": 5313880952, "lat": 37.1453855, "lon": 42.7088546}, {"type": "node", "id": 5313880953, "lat": 37.1467171, "lon": 42.7086104}, {"type": "node", "id": 5313880954, "lat": 37.1464801, "lon": 42.7088723}, {"type": "node", "id": 5313882057, "lat": 37.1388144, "lon": 42.6855951}, {"type": "node", "id": 5313882060, "lat": 37.1385423, "lon": 42.6771533}, {"type": "node", "id": 5313882061, "lat": 37.1384401, "lon": 42.6775146}, {"type": "node", "id": 5313882062, "lat": 37.1378665, "lon": 42.6772672}, {"type": "node", "id": 5313882063, "lat": 37.1380144, "lon": 42.6768575}, {"type": "node", "id": 5320186000, "lat": 37.138455, "lon": 42.6854079}, {"type": "node", "id": 5390551322, "lat": 37.2013344, "lon": 42.8233599, "tags": {"amenity": "school", "name": "qutabxana derkar", "name:en": "darkar school"}}, {"type": "node", "id": 5407006422, "lat": 37.1584651, "lon": 42.675769, "tags": {"addr:street": "Judi Street", "amenity": "school", "name": "\u0642\u0648\u062a\u0627\u0628\u062e\u0627\u0646\u0627 \u0633\u062a\u06ce\u0631"}}, {"type": "node", "id": 5606956521, "lat": 37.1450072, "lon": 42.6599313, "tags": {"amenity": "school", "name": "\u0626\u0627\u0645\u0627\u062f\u0647 \u06cc\u0627 \u0647\u06cc\u0648\u0627 \u06cc\u0627 \u06a9\u0648\u0631\u0627\u0646", "name:ku": "Amadeya hiwa"}}, {"type": "node", "id": 5696238421, "lat": 37.1633557, "lon": 42.6920311, "tags": {"amenity": "school", "name": "\u0642\u0648\u062a\u0627\u0628\u062e\u0627\u0646\u0627 \u0646\u0648\u062f\u06d5\u0645 \u064a\u0627 \u0628\u0646\u06d5\u0631\u06d5\u062a", "name:ar": "\u0645\u062f\u0631\u0633\u0629 \u0646\u0648\u062f\u0629\u0645", "name:en": "Nudem School", "name:tr": "nudem orta okulu"}}, {"type": "node", "id": 5751464777, "lat": 37.1722427, "lon": 42.6733929}, {"type": "node", "id": 5751464778, "lat": 37.1730153, "lon": 42.6747234}, {"type": "node", "id": 5751464779, "lat": 37.1732431, "lon": 42.6737693}, {"type": "node", "id": 5751464780, "lat": 37.1720149, "lon": 42.6743472}, {"type": "node", "id": 5790647006, "lat": 37.1390903, "lon": 42.6848912}, {"type": "node", "id": 5790647007, "lat": 37.1387483, "lon": 42.6846706}, {"type": "node", "id": 5826461895, "lat": 37.1527021, "lon": 42.697522, "tags": {"addr:housenumber": "10001", "addr:postcode": "10001", "addr:street": "newroz\u2019street", "amenity": "school", "name": "\u0642\u0648\u062a\u0627\u0628\u062e\u0627\u0646\u0647", "name:ar": "wan\u2019school", "name:en": "wan\u2019school\u2019zakhu\u2019duhok\u2019iraq", "name:ku": "\u0642\u0648\u062a\u0627\u0628\u062e\u0627\u0646\u0627 \u0648\u0627\u0646", "website": "http://www.zaxo.com"}}, {"type": "node", "id": 5905840481, "lat": 37.1622664, "lon": 42.6862324}, {"type": "node", "id": 5905841488, "lat": 37.161868, "lon": 42.6859992}, {"type": "node", "id": 5927636685, "lat": 37.1416138, "lon": 42.6922009, "tags": {"addr:street": "\u0627\u0644\u0639\u0628\u0627\u0633\u064a\u0629", "amenity": "school", "name": "\u0645\u062f\u0631\u0633\u0629 \u06af\u0647 \u0644\u064a", "name:en": "Gali School", "name:ku": "\u0642\u0648\u062a\u0627\u0628\u062e\u0627\u0646\u0627 \u06af\u06d5\u0644\u06cc", "opening_hours": "Sa-Th 08:15-17:50"}}, {"type": "node", "id": 5971374242, "lat": 37.1471411, "lon": 42.6795593, "tags": {"amenity": "school", "name": "\u067e\u0647\u200c\u0631\u0648\u0647\u200c\u0631\u062f\u0627 \u0632\u0627\u062e\u0648", "name:ar": "\u062a\u0631\u0628\u064a\u0629 \u0632\u0627\u062e\u0648", "name:en": "Zakho Government Education"}}, {"type": "node", "id": 6106793486, "lat": 37.1363249, "lon": 42.6708859, "tags": {"amenity": "school", "name": "\u0642\u0648\u062a\u0627\u0628\u062e\u0627\u0646\u0627 \u067e\u06d5\u0631\u062a\u0648\u06cc \u0647\u06d5\u06a9\u0627\u0631"}}, {"type": "node", "id": 6109332985, "lat": 37.1374417, "lon": 42.6703316, "tags": {"amenity": "school", "name": "\u0642\u0648\u062a\u0627\u0628\u062e\u0627\u0646\u0627 \u06f1\u0666 \u0637\u06d5\u0628\u0627\u062e\u06ce"}}, {"type": "node", "id": 6139939689, "lat": 37.1512894, "lon": 42.6814}, {"type": "node", "id": 6139939690, "lat": 37.151144, "lon": 42.6817594}, {"type": "node", "id": 6139939691, "lat": 37.1508041, "lon": 42.6815636}, {"type": "node", "id": 6139939692, "lat": 37.150958, "lon": 42.6811157}, {"type": "node", "id": 6169238485, "lat": 37.1395309, "lon": 42.6781111, "tags": {"amenity": "school", "name": "\u0627\u0639\u062f\u0627\u062f\u064a\u0629 \u0698\u06cc\u0627\u0646 \u0644\u0644\u0628\u0646\u0627\u062a"}}, {"type": "node", "id": 6186722286, "lat": 37.1495241, "lon": 42.6880084, "tags": {"amenity": "school", "name": "\u0627\u0639\u062f\u0627\u062f\u064a\u0629 \u0643\u0648\u0631\u062f\u0633\u062a\u0627\u0646 \u0635\u0627\u0644\u062d \u0644\u0644\u0628\u0646\u0627\u062a"}}, {"type": "node", "id": 6572502886, "lat": 37.1454045, "lon": 42.7114822, "tags": {"amenity": "school", "email": "ayaz.othman1@gmail.com", "name": "\u0642\u0648\u062a\u0627\u0628\u062e\u0627\u0646\u0627 \u0643\u0647 \u0641\u064a\u0627\u0631 \u064a\u0627 \u0628\u0646\u0647 \u0631\u0647 \u062a", "website": "http://arazdosky_araz@yahoo.com"}}, {"type": "node", "id": 6677227192, "lat": 37.1496191, "lon": 42.6879622, "tags": {"amenity": "school", "name": "\u0643\u0648\u0631\u062f\u0633\u062a\u0627\u0646 \u0635\u0627\u0644\u062d kurdistan salih"}}, {"type": "node", "id": 6796284786, "lat": 37.1444894, "lon": 42.6752444, "tags": {"amenity": "school", "name": "\u0645\u0639\u0647\u062f \u0631\u064a\u0627\u0636\u0629 \u0632\u0627\u062e\u0648", "name:en": "zakho sport institute"}}, {"type": "node", "id": 7025819520, "lat": 37.1636027, "lon": 42.6919171}, {"type": "node", "id": 7025819521, "lat": 37.1634267, "lon": 42.6925623}, {"type": "node", "id": 7025819522, "lat": 37.1626798, "lon": 42.6922415}, {"type": "node", "id": 7025819523, "lat": 37.1628559, "lon": 42.6915962}, {"type": "node", "id": 7215647286, "lat": 37.1451102, "lon": 42.6518613, "tags": {"amenity": "school", "name": "\u0645\u062f\u0631\u0633\u0629 \u0647\u064a\u0632 \u0644\u0644\u0628\u0646\u064a\u0646", "name:ckb": "\u0642\u0648\u062a\u0627\u0628\u062e\u0627\u0646\u0627 \u0647\u064a\u0632\u0644 \u064a\u0627 \u0643\u0648\u0631\u0627\u0646", "name:en": "Hizl School for Boys"}}, {"type": "node", "id": 7339997187, "lat": 37.1563524, "lon": 42.673998, "tags": {"addr:street": "Mihemd\u00ee", "amenity": "school", "name": "\u0645\u062f\u0631\u0633\u0629 \u0633\u0631\u0648\u0631", "name:en": "sarwar school", "name:ku": "\u0642\u0648\u062a\u0627\u0628\u062e\u0627\u0646\u0627 \u0633\u06d5\u0631\u0648\u06d5\u0631", "opening_hours": "Sa-Th 00:00-24:00"}}, {"type": "node", "id": 7640516085, "lat": 37.165276, "lon": 42.6757837, "tags": {"addr:postcode": "42002", "addr:street": "Shqa", "amenity": "school", "name": "\u0642\u0648\u062a\u0627\u0628\u062e\u0627\u0646\u0627 \u0646\u0648\u06a4\u064a\u0646", "name:en": "Novin School"}}, {"type": "node", "id": 7640516185, "lat": 37.165266, "lon": 42.6775906, "tags": {"addr:postcode": "42002", "amenity": "school", "name": "\u0642\u0648\u062a\u0627\u0628\u062e\u0627\u0646\u0627 \u0646\u0648\u0644\u0686 \u064a\u0627 \u0626\u06d5\u0645\u0631\u064a\u0643\u0649", "name:en": "Knowledge Amrican School"}}, {"type": "node", "id": 7671696585, "lat": 37.1476623, "lon": 42.6442554, "tags": {"amenity": "school", "name": "\u0645\u062f\u0631\u0633\u0629 \u0633\u06d5\u0631\u0628\u06d5\u062e\u0648 \u0627\u0644\u0645\u062a\u0648\u0633\u0637\u0629 \u0627\u0644\u0645\u062e\u062a\u0644\u0637\u0629", "name:en": "Sarbakho basic school", "name:ku": "\u0642\u0648\u062a\u0627\u0628\u062e\u0627\u0646\u0627 \u0633\u06d5\u0631\u0628\u06d5\u062e\u0648 \u06cc\u0627 \u0628\u0646\u06d5\u0631\u06d5\u062a \u06cc\u0627 \u062a\u06ce\u06a9\u06d5\u0644"}}, {"type": "node", "id": 7701541126, "lat": 37.1999157, "lon": 42.8338729}, {"type": "node", "id": 7701541127, "lat": 37.1996269, "lon": 42.8336904}, {"type": "node", "id": 7701541128, "lat": 37.1994777, "lon": 42.8340626}, {"type": "node", "id": 7701541129, "lat": 37.1997665, "lon": 42.834245}, {"type": "node", "id": 7728533286, "lat": 37.1742344, "lon": 42.6931272, "tags": {"amenity": "school", "name": "\u0634\u0629\u06a4\u064a\u0627\u0631", "name:en": "Shavyar school", "name:ku": "\u0642\u0648\u062a\u0627\u0628\u062e\u0627\u0646\u0627 \u0634\u06d5\u06a4\u06cc\u0627\u0631"}}, {"type": "node", "id": 7728552085, "lat": 37.156795, "lon": 42.6782227, "tags": {"amenity": "school", "name": "\u0645\u062f\u0631\u0633\u0629 \u0641\u0631\u0627\u062a", "name:en": "Forat scool", "name:ku": "\u0642\u0648\u062a\u0627\u0628\u062e\u0627\u0646\u0627 \u0641\u0648\u0631\u0627\u062a"}}, {"type": "node", "id": 7728552086, "lat": 37.1547561, "lon": 42.6932253, "tags": {"amenity": "school", "name": "\u0645\u062f\u0631\u0633\u0629 \u0634\u0646\u06af", "name:en": "Shabg school", "name:ku": "\u0642\u0648\u062a\u0627\u0628\u062e\u0627\u0646\u0627 \u0634\u06d5\u0646\u06af"}}, {"type": "node", "id": 7731680385, "lat": 37.1526058, "lon": 42.6974504, "tags": {"amenity": "school", "name": "\u0642\u0648\u062a\u0627\u0628\u062e\u0627\u0646\u0627 \u0646\u06d5\u0647\u0631\u06cc", "name:ar": "\u0645\u062f\u0631\u0633\u0629 \u0646\u0629\u0647\u0631\u064a", "name:en": "Nahri school"}}, {"type": "node", "id": 7783798904, "lat": 37.1982508, "lon": 42.5165944}, {"type": "node", "id": 7783798905, "lat": 37.1979045, "lon": 42.5165294}, {"type": "node", "id": 7783798906, "lat": 37.1980163, "lon": 42.5159303}, {"type": "node", "id": 7783798907, "lat": 37.1987444, "lon": 42.5160604}, {"type": "node", "id": 7783798908, "lat": 37.1985971, "lon": 42.5166663}, {"type": "node", "id": 7783798909, "lat": 37.1983408, "lon": 42.5166115}, {"type": "node", "id": 7794601192, "lat": 37.1424919, "lon": 42.4379648}, {"type": "node", "id": 7794601193, "lat": 37.1420029, "lon": 42.4380493}, {"type": "node", "id": 7794601194, "lat": 37.1418571, "lon": 42.4375735}, {"type": "node", "id": 7794601195, "lat": 37.1423916, "lon": 42.4374477}, {"type": "node", "id": 7803090337, "lat": 37.2266159, "lon": 42.5816286}, {"type": "node", "id": 7803090338, "lat": 37.2262243, "lon": 42.5818313}, {"type": "node", "id": 7803090339, "lat": 37.2263999, "lon": 42.5823677}, {"type": "node", "id": 7803090340, "lat": 37.2268152, "lon": 42.5821621}, {"type": "node", "id": 7803738401, "lat": 37.2330056, "lon": 42.5457452}, {"type": "node", "id": 7803738402, "lat": 37.2332278, "lon": 42.5458016}, {"type": "node", "id": 7803738403, "lat": 37.2331787, "lon": 42.5461577}, {"type": "node", "id": 7803738404, "lat": 37.2328543, "lon": 42.5460687}, {"type": "node", "id": 7803738405, "lat": 37.2329143, "lon": 42.5457161}, {"type": "node", "id": 7803859152, "lat": 37.2345901, "lon": 42.5562159}, {"type": "node", "id": 7803859153, "lat": 37.2344588, "lon": 42.5565434}, {"type": "node", "id": 7803859154, "lat": 37.2349156, "lon": 42.5568257}, {"type": "node", "id": 7803859155, "lat": 37.2350541, "lon": 42.5565072}, {"type": "node", "id": 8367773673, "lat": 37.1352175, "lon": 42.6702284}, {"type": "node", "id": 8367773674, "lat": 37.135063, "lon": 42.6708892}, {"type": "node", "id": 8367773675, "lat": 37.1344859, "lon": 42.6706651}, {"type": "node", "id": 8367773676, "lat": 37.1346423, "lon": 42.6700043}, {"type": "node", "id": 8401285017, "lat": 37.1558891, "lon": 42.6856953, "tags": {"addr:city": "Zakho", "addr:street": "\u0634\u0627\u0631\u0639 \u0627\u0644\u0645\u062d\u0643\u0645\u0647", "amenity": "school", "name": "\u0642\u0648\u062a\u0627\u0628\u062e\u0627\u0646\u0627 \u0634\u06d5\u0647\u06cc\u062f \u0631\u06ce\u0628\u06d5\u0631 \u06cc\u0627 \u06a9\u0648\u0631\u0627\u0646", "name:ar": "\u0627\u0639\u062f\u0627\u062f\u064a\u0629 \u0634\u0647\u064a\u062f \u0631\u064a\u0628\u0631 \u0644\u0644\u0628\u0646\u064a\u0646", "name:en": "Shahid Reaper Junior High School for Boys", "opening_hours": "Sa-Th 00:00-24:00"}}, {"type": "node", "id": 8633345559, "lat": 37.1568507, "lon": 42.6857248}, {"type": "node", "id": 8633345560, "lat": 37.1566114, "lon": 42.6864243}, {"type": "node", "id": 8633345561, "lat": 37.1556891, "lon": 42.6858899}, {"type": "node", "id": 8633345562, "lat": 37.1559157, "lon": 42.6852047}, {"type": "node", "id": 8633345761, "lat": 37.1622495, "lon": 42.6845967}, {"type": "node", "id": 8633345762, "lat": 37.1617532, "lon": 42.685932}, {"type": "node", "id": 8633345763, "lat": 37.1625479, "lon": 42.6863972}, {"type": "node", "id": 8633345764, "lat": 37.1630444, "lon": 42.685062}, {"type": "node", "id": 8633345765, "lat": 37.1622091, "lon": 42.6858672, "tags": {"amenity": "school", "name": "\u0642\u0648\u062a\u0627\u0628\u062e\u0627\u0646\u0627 \u0634\u06d5\u0647\u06cc\u062f \u0626\u06cc\u062f\u0631\u06cc\u0633", "name:ar": "\u0645\u062f\u0631\u0633\u0629 \u0634\u0647\u064a\u062f \u0627\u062f\u0631\u064a\u0633", "name:en": "Shahid (martyr) Idris School"}}, {"type": "node", "id": 8687305361, "lat": 37.1464028, "lon": 42.6519038}, {"type": "node", "id": 8687305362, "lat": 37.1463734, "lon": 42.6528312}, {"type": "node", "id": 8687305363, "lat": 37.1454991, "lon": 42.6526741}, {"type": "node", "id": 8687305364, "lat": 37.1455138, "lon": 42.6517837}, {"type": "node", "id": 8739913354, "lat": 37.1346957, "lon": 42.6705426, "tags": {"addr:city": "\u0632\u0627\u062e\u0648", "addr:street": "\u0628\u06d5\u0631\u0627\u0645\u0628\u06d5\u0631 \u0645\u0632\u06af\u06d5\u0641\u062a\u0627 \u0633\u06d5\u0639\u06cc\u062f \u0626\u06cc\u0628\u0631\u0627\u0647\u06cc\u0645", "amenity": "school", "grades": "10-12", "name": "Peyvin Girls High School", "name:ar": "\u0645\u062f\u0631\u0633\u0629 \u0628\u064a\u0641\u064a\u0646 \u0627\u0644\u062b\u0627\u0646\u0648\u064a\u0629 \u0644\u0644\u0628\u0646\u0627\u062a", "name:ku": "\u0626\u0627\u0645\u0627\u062f\u06d5\u06cc\u06cc\u0627 \u067e\u06d5\u06cc\u06a4\u06cc\u0646 \u06cc\u0627 \u06a9\u0686\u0627\u0646", "open_date": "2018-", "religion": "muslim"}}, {"type": "node", "id": 8756261419, "lat": 37.1388209, "lon": 42.6850584, "tags": {"amenity": "school", "name": "\u0645\u062f\u0631\u0633\u0629 \u0642\u062f\u0631\u064a \u062c\u0627\u0646"}}, {"type": "node", "id": 8947473017, "lat": 37.1846114, "lon": 42.807396, "tags": {"addr:street": "Hizawa", "amenity": "school", "name": "\u0642\u0648\u062a\u0627\u0628\u062e\u0627\u0646\u0627 \u0647\u06cc\u0632\u0627\u0648\u0627 \u06cc\u0627 \u0628\u0646\u06d5\u0631\u06d5\u062a", "name:ku": "\u0645\u062f\u0631\u0633\u0629 \u0647\u064a\u0632\u0627\u0648\u0627 \u0627\u0644\u0623\u0633\u0627\u0633"}}, {"type": "node", "id": 8947473018, "lat": 37.1380049, "lon": 42.6770134, "tags": {"addr:street": "Ibrahim Khalil Road", "amenity": "school", "name": "\u0642\u0648\u062a\u0627\u0628\u062e\u0627\u0646\u0627 \u0627\u062d\u0645\u062f\u06ce \u062e\u0627\u0646\u06ce", "name:ku": "\u0645\u062f\u0631\u0633\u0629 \u0627\u062d\u0645\u062f \u062e\u0627\u0646\u064a"}}, {"type": "node", "id": 8947473117, "lat": 37.1846886, "lon": 42.8074919, "tags": {"addr:street": "Hizawa", "amenity": "school", "name": "\u0626\u0627\u0645\u0627\u062f\u06d5\u06cc\u06cc\u0627 \u0647\u06cc\u0632\u0627\u0648\u0627 \u06cc\u0627 \u062a\u06ce\u06a9\u06d5\u0644", "name:ku": "\u0625\u0639\u062f\u0627\u062f\u064a\u0629 \u0647\u064a\u0632\u0627\u0648\u0627 \u0627\u0644\u0645\u062e\u062a\u0644\u0637\u0629"}}, {"type": "node", "id": 8947473118, "lat": 37.1630672, "lon": 42.6918517, "tags": {"addr:street": "Gashapedan", "amenity": "school", "name": "\u0642\u0648\u062a\u0627\u0628\u062e\u0627\u0646\u0627 \u0646\u0648\u062f\u06d5\u0645 \u06cc\u0627 \u0628\u0646\u06d5\u0631\u06d5\u062a", "name:ku": "\u0645\u062f\u0631\u0633\u0629 \u0646\u0648\u062f\u0645 \u0627\u0644\u0623\u0633\u0627\u0633"}}, {"type": "node", "id": 8947499418, "lat": 37.160227, "lon": 42.7062028, "tags": {"addr:street": "Hizl", "amenity": "school", "name": "\u0642\u0648\u062a\u0627\u0628\u062e\u0627\u0646\u0627 \u06af\u0648\u0644\u0648\u0627\u0631 \u06cc\u0627 \u0628\u0646\u06d5\u0631\u06d5\u062a", "name:ku": "\u0645\u062f\u0631\u0633\u0629 \u0643\u0648\u0644\u0648\u0627\u0631 \u0627\u0644\u0623\u0633\u0627\u0633"}}, {"type": "node", "id": 8947499617, "lat": 37.1566132, "lon": 42.7076392, "tags": {"addr:street": "Hizl", "amenity": "school", "name": "\u0642\u0648\u062a\u0627\u0628\u062e\u0627\u0646\u0627 \u06a9\u0627\u0631\u06ce\u0632 \u06cc\u0627 \u0628\u0646\u06d5\u0631\u06d5\u062a", "name:ku": "\u0645\u062f\u0631\u0633\u0629 \u0643\u0627\u0631\u064a\u0632 \u0627\u0644\u0623\u0633\u0627\u0633"}}, {"type": "node", "id": 8947514417, "lat": 37.1666567, "lon": 42.7128798, "tags": {"addr:street": "Tilkeber", "amenity": "school", "name": "\u0642\u0648\u062a\u0627\u0628\u062e\u0627\u0646\u0627 \u0686\u06d5\u0644\u06d5\u0646\u06af \u06cc\u0627 \u0628\u0646\u06d5\u0631\u06d5\u062a", "name:ku": "\u0645\u062f\u0631\u0633\u0629 \u062c\u0644\u0646\u06af \u0627\u0644\u0623\u0633\u0627\u0633"}}, {"type": "node", "id": 8947514418, "lat": 37.1453994, "lon": 42.705934, "tags": {"addr:street": "Abasy", "amenity": "school", "name": "\u0642\u0648\u062a\u0627\u0628\u062e\u0627\u0646\u0627 \u062e\u0627\u0645\u062a\u06cc\u0631 \u06cc\u0627 \u0628\u0646\u06d5\u0631\u06d5\u062a", "name:ku": "\u0645\u062f\u0631\u0633\u0629 \u062e\u0627\u0645\u062a\u064a\u0631 \u0627\u0644\u0623\u0633\u0627\u0633"}}, {"type": "node", "id": 8947523317, "lat": 37.1536773, "lon": 42.7144777, "tags": {"addr:street": "Hizl", "amenity": "school", "name": "\u0642\u0648\u062a\u0627\u0628\u062e\u0627\u0646\u0627 \u0631\u06cc\u0641\u0631\u0627\u0646\u062f\u0648\u0645 \u06cc\u0627 \u0628\u0646\u06d5\u0631\u06d5\u062a", "name:ku": "\u0645\u062f\u0631\u0633\u0629 \u0631\u064a\u0641\u0631\u0627\u0646\u062f\u0645 \u0627\u0644\u0623\u0633\u0627\u0633"}}, {"type": "node", "id": 8952450919, "lat": 37.1477201, "lon": 42.7025772, "tags": {"addr:street": "Delal road", "amenity": "school", "name": "\u0642\u0648\u062a\u0627\u0628\u062e\u0627\u0646\u0627 \u0634\u06d5\u067e\u0627\u0644", "name:ku": "\u0645\u062f\u0631\u0633\u0629 \u0634\u0628\u0627\u0644 \u0627\u0644\u0623\u0633\u0627\u0633"}}, {"type": "node", "id": 8954535518, "lat": 37.1415219, "lon": 42.6858909, "tags": {"addr:street": "\u0633\u06cc\u06a9\u0627 \u0632\u0627\u062e\u0648 \u06cc\u0627 \u06af\u0634\u062a\u0649", "amenity": "school", "name": "\u0642\u0648\u062a\u0627\u0628\u062e\u0627\u0646\u0627 \u062e\u0627\u0628\u0648\u0631", "name:ku": "\u0645\u062f\u0631\u0633\u0629 \u062e\u0627\u0628\u0648\u0631"}}, {"type": "node", "id": 8983026919, "lat": 37.1743184, "lon": 42.6934055, "tags": {"amenity": "school", "name": "\u0642\u0648\u062a\u0627\u0628\u062e\u0627\u0646\u0627 \u06cc\u06d5\u06a9\u0628\u0648\u0648\u0646", "name:ku": "\u0645\u062f\u0631\u0633\u0629 \u06cc\u06a9\u0628\u0648\u0646"}}, {"type": "node", "id": 8983076618, "lat": 37.1740749, "lon": 42.6927194, "tags": {"amenity": "school", "name": "\u0642\u0648\u062a\u0627\u0628\u062e\u0627\u0646\u0627 \u0634\u06d5\u06a4\u06cc\u0627\u0631", "name:ku": "\u0645\u062f\u0631\u0633\u0629 \u0633\u0641\u06cc\u0627\u0631"}}, {"type": "node", "id": 8986522717, "lat": 37.19605, "lon": 42.8192644, "tags": {"amenity": "school", "name": "\u0642\u0648\u062a\u0627\u0628\u062e\u0627\u0646\u0627 \u0633\u0646\u0648\u0631 \u06cc\u0627 \u0628\u0646\u06d5\u0631\u06d5\u062a", "name:ku": "\u0645\u062f\u0631\u0633\u0629 \u0633\u0646\u0648\u0631 \u0627\u0644\u0623\u0633\u0627\u0633"}}, {"type": "node", "id": 8986522718, "lat": 37.1960854, "lon": 42.8209234, "tags": {"amenity": "school", "name": "\u0626\u0627\u0645\u0627\u062f\u06d5\u06cc\u06cc\u0627 \u062f\u06d5\u0631\u06a9\u0627\u0631\u06ce \u06cc\u0627 \u062a\u06ce\u06a9\u06d5\u0644", "name:ku": "\u0625\u0639\u062f\u0627\u062f\u064a\u0629 \u062f\u0631\u0643\u0627\u0631 \u0627\u0644\u0645\u062e\u062a\u0644\u0637\u0629"}}, {"type": "node", "id": 8986522719, "lat": 37.2013109, "lon": 42.8235446, "tags": {"amenity": "school", "name": "\u0642\u0648\u062a\u0627\u0628\u062e\u0627\u0646\u0627 \u062f\u06d5\u0631\u06a9\u0627\u0631 \u06cc\u0627 \u0628\u0646\u06d5\u0631\u06d5\u062a", "name:ku": "\u0645\u062f\u0631\u0633\u0629 \u062f\u0631\u0643\u0627\u0631 \u0627\u0644\u0623\u0633\u0627\u0633"}}, {"type": "node", "id": 8986522820, "lat": 37.1643063, "lon": 42.7253893, "tags": {"amenity": "school", "name": "\u0642\u0648\u062a\u0627\u0628\u062e\u0627\u0646\u0627 \u062c\u0648\u062f\u06cc \u06cc\u0627\u0628\u0646\u06d5\u0631\u06d5\u062a", "name:ku": "\u0645\u062f\u0631\u0633\u0629 \u062c\u0648\u062f\u064a \u0627\u0644\u0623\u0633\u0627\u0633"}}, {"type": "node", "id": 8986558917, "lat": 37.165079, "lon": 42.7245299, "tags": {"amenity": "school", "name": "\u0626\u0627\u0645\u0627\u062f\u06d5\u06cc\u06cc\u0627 \u062a\u0644\u06a9\u06d5\u0628\u06d5\u0631\u06ce \u06cc\u0627 \u062a\u06ce\u06a9\u06d5\u0644", "name:ku": "\u0627\u0639\u062f\u0627\u062f\u064a\u0629 \u062a\u0644\u0643\u0628\u0631 \u0627\u0644\u0645\u062e\u062a\u0644\u0637\u0629"}}, {"type": "node", "id": 8996894617, "lat": 37.1613899, "lon": 42.7125347, "tags": {"amenity": "school", "name": "\u0642\u0648\u062a\u0627\u0628\u062e\u0627\u0646\u0627 \u062e\u0648\u0627\u06a9\u0648\u0631\u0643 \u06cc\u0627 \u0628\u0646\u06d5\u0631\u06d5\u062a", "name:ar": "\u0645\u062f\u0631\u0633\u0629 \u062e\u0648\u0627\u06a9\u0648\u0631\u0643 \u0627\u0644\u0623\u0633\u0627\u0633", "name:ku": "\u0642\u0648\u062a\u0627\u0628\u062e\u0627\u0646\u0627 \u062e\u0648\u0627\u06a9\u0648\u0631\u0643 \u06cc\u0627 \u0628\u0646\u06d5\u0631\u06d5\u062a"}}, {"type": "node", "id": 8996894717, "lat": 37.162229, "lon": 42.7123189, "tags": {"amenity": "school", "name": "\u0642\u0648\u062a\u0627\u0628\u062e\u0627\u0646\u0627 \u0634\u06d5\u0645\u0627\u0644 \u06cc\u0627 \u0628\u0646\u06d5\u0631\u06d5\u062a 7-8-9", "name:ku": "\u0645\u062f\u0631\u0633\u0629 \u0634\u0645\u0627\u0644 \u0627\u0644\u0623\u0633\u0627\u0633"}}, {"type": "node", "id": 8996894719, "lat": 37.1531519, "lon": 42.6791165, "tags": {"amenity": "school", "name": "\u062c\u0627\u0645\u0639 \u0645\u0647\u0645\u062f\u064a\u0643", "name:ku": "\u0645\u0632\u0643\u0629\u0641\u062a\u0627 \u0645\u0647\u0645\u062f\u064a\u0643"}}, {"type": "node", "id": 9038261618, "lat": 37.1562491, "lon": 42.6855011, "tags": {"amenity": "school", "name": "\u0626\u0627\u0645\u0627\u062f\u06d5\u06cc\u06cc\u0627 \u0634\u06d5\u0647\u06cc\u062f \u0631\u06ce\u0628\u06d5\u0631 \u06cc\u0627 \u06a9\u0648\u0631\u0627\u0646", "name:ku": "\u0627\u0639\u062f\u0627\u062f\u064a\u0629 \u0634\u0647\u064a\u062f \u0631\u064a\u0628\u0631 \u0644\u0644\u0628\u0646\u064a\u0646"}}, {"type": "node", "id": 9038283917, "lat": 37.156758, "lon": 42.6852099, "tags": {"amenity": "school", "name": "\u0642\u0648\u062a\u0627\u0628\u062e\u0627\u0646\u0627 \u067e\u06d5\u0631\u06cc \u06cc\u0627 \u0628\u0646\u06d5\u0631\u06d5\u062a", "name:ku": "\u0645\u062f\u0631\u0633\u0629 \u0628\u0629\u0631\u064a \u0627\u0644\u0623\u0633\u0627\u0633"}}, {"type": "node", "id": 9038284017, "lat": 37.1565022, "lon": 42.6850858, "tags": {"amenity": "school", "name": "\u062f\u0648\u0627\u0646\u0627\u0648\u06d5\u0646\u062f\u06cc\u0627 \u062c\u0648\u062f\u06cc \u06cc\u0627 \u0626\u06cc\u0633\u0644\u0627\u0645\u06cc", "name:ku": "\u062b\u0627\u0646\u0648\u064a\u0629 \u062c\u0648\u062f\u064a \u0627\u0644\u0625\u0633\u0644\u0627\u0645\u064a"}}, {"type": "node", "id": 9140042017, "lat": 37.1565802, "lon": 42.6853545, "tags": {"addr:housenumber": "7", "addr:street": "\u0634\u0627\u0631\u0639 \u0627\u0644\u0645\u062d\u0643\u0645\u0647", "amenity": "school", "name": "\u062b\u0627\u0646\u0648\u064a\u0629 \u062c\u0648\u062f\u064a \u0627\u0644\u0625\u0633\u0644\u0627\u0645\u064a\u0629", "name:en": "Jodi Islamic High School", "name:ku": "\u062f\u0648\u0646\u0647 \u0648\u0646\u062f\u064a\u0627 \u062c\u0648\u062f\u064a \u064a\u0627 \u0626\u064a\u0633\u0644\u0627\u0645\u064a", "opening_hours": "Sa-Th 00:00-24:00"}}, {"type": "node", "id": 9950606003, "lat": 37.1711538, "lon": 42.68186}, {"type": "node", "id": 9950606004, "lat": 37.1709854, "lon": 42.6825455}, {"type": "node", "id": 9950606005, "lat": 37.1701098, "lon": 42.6822168}, {"type": "node", "id": 9950606006, "lat": 37.1702744, "lon": 42.6815219}, {"type": "node", "id": 9950606007, "lat": 37.171092, "lon": 42.6821113}, {"type": "node", "id": 9950606009, "lat": 37.1707055, "lon": 42.6824405}, {"type": "node", "id": 9950606010, "lat": 37.1705025, "lon": 42.6823642}, {"type": "node", "id": 9950606013, "lat": 37.1708355, "lon": 42.6817376}, {"type": "node", "id": 10237513209, "lat": 37.1517918, "lon": 42.6897296, "tags": {"addr:postcode": "42002", "addr:street": "Nawroz", "amenity": "school", "email": "sok.english.institute@gmail.com", "name": "source of Knowledge English language institute", "name:en": "English", "opening_hours": "Sa-We 16:00-20:00", "phone": "009647511505454"}}, {"type": "node", "id": 10252899910, "lat": 37.1471267, "lon": 42.700051}, {"type": "node", "id": 10252899911, "lat": 37.1470335, "lon": 42.6996963}, {"type": "node", "id": 10252899912, "lat": 37.1465373, "lon": 42.6995806}, {"type": "node", "id": 10252899913, "lat": 37.1464451, "lon": 42.7003161}, {"type": "node", "id": 10252899914, "lat": 37.1466813, "lon": 42.7003655}, {"type": "node", "id": 10252899915, "lat": 37.1470231, "lon": 42.700051}, {"type": "node", "id": 10543618915, "lat": 37.1612417, "lon": 42.7065057, "tags": {"amenity": "school"}}, {"type": "node", "id": 10591223205, "lat": 37.163756, "lon": 42.6888094, "tags": {"amenity": "school", "name": "\u0626\u0627\u0645\u0627\u062f\u06d5\u064a\u0627 \u0632\u064a\u0646\u062f\u0627", "name:en": "amadaya zinda"}}, {"type": "node", "id": 10596792405, "lat": 37.1599685, "lon": 42.6745486, "tags": {"amenity": "school", "name": "\u0642\u0648\u062a\u0627\u0628\u062e\u0627\u0646\u0627 \u0633\u0647\u200c\u0631\u0648\u0631", "name:ar": "\u0645\u062f\u0631\u0633\u0629 \u0633\u0631\u0648\u0631", "name:en": "sarwar basic school", "opening_hours": "Sa 08:00-12:30"}}, {"type": "node", "id": 10618528579, "lat": 37.148076, "lon": 42.6446973}, {"type": "node", "id": 10618528580, "lat": 37.1480776, "lon": 42.6438335}, {"type": "node", "id": 10618528581, "lat": 37.1474185, "lon": 42.6438316}, {"type": "node", "id": 10618528582, "lat": 37.1474169, "lon": 42.6446955}, {"type": "node", "id": 10618565128, "lat": 37.1453799, "lon": 42.6526368}, {"type": "node", "id": 10618565129, "lat": 37.1454003, "lon": 42.6517641}, {"type": "node", "id": 10618565130, "lat": 37.1450586, "lon": 42.6517105}, {"type": "node", "id": 10618565131, "lat": 37.1450667, "lon": 42.6520116}, {"type": "node", "id": 10618565132, "lat": 37.1448877, "lon": 42.6519657}, {"type": "node", "id": 10618565133, "lat": 37.1448633, "lon": 42.6525526}, {"type": "node", "id": 10633045164, "lat": 37.1779163, "lon": 42.813614}, {"type": "node", "id": 10633045165, "lat": 37.1778736, "lon": 42.8129493}, {"type": "node", "id": 10633045166, "lat": 37.1774381, "lon": 42.8129933}, {"type": "node", "id": 10633045167, "lat": 37.1774808, "lon": 42.813658}, {"type": "node", "id": 10637681117, "lat": 37.0850467, "lon": 42.4268198}, {"type": "node", "id": 10637681118, "lat": 37.0846584, "lon": 42.426261}, {"type": "node", "id": 10637681119, "lat": 37.0843298, "lon": 42.4266198}, {"type": "node", "id": 10637681120, "lat": 37.0847182, "lon": 42.4271786}, {"type": "node", "id": 10671158132, "lat": 37.1591031, "lon": 42.7200611}, {"type": "node", "id": 10671158133, "lat": 37.1588042, "lon": 42.7198289}, {"type": "node", "id": 10671158134, "lat": 37.1585072, "lon": 42.7204133}, {"type": "node", "id": 10671158135, "lat": 37.1588164, "lon": 42.7206276}, {"type": "node", "id": 10701772270, "lat": 37.1618841, "lon": 42.713038}, {"type": "node", "id": 10701772271, "lat": 37.161788, "lon": 42.7123072}, {"type": "node", "id": 10701772272, "lat": 37.1608406, "lon": 42.7125604}, {"type": "node", "id": 10701772274, "lat": 37.1614935, "lon": 42.7131962}, {"type": "node", "id": 10701778111, "lat": 37.1629375, "lon": 42.7127301}, {"type": "node", "id": 10701778112, "lat": 37.1627043, "lon": 42.7120399}, {"type": "node", "id": 10701778113, "lat": 37.1618572, "lon": 42.7122864}, {"type": "node", "id": 10701778114, "lat": 37.1619775, "lon": 42.7129951}, {"type": "node", "id": 10701796896, "lat": 37.1551969, "lon": 42.6932702}, {"type": "node", "id": 10701796897, "lat": 37.1545312, "lon": 42.6926296}, {"type": "node", "id": 10701796898, "lat": 37.1544973, "lon": 42.6926473}, {"type": "node", "id": 10701796899, "lat": 37.1544465, "lon": 42.6930649}, {"type": "node", "id": 10701796900, "lat": 37.1550925, "lon": 42.6936205}, {"type": "node", "id": 10701848732, "lat": 37.1669237, "lon": 42.7132164}, {"type": "node", "id": 10701848733, "lat": 37.1665304, "lon": 42.7122669}, {"type": "node", "id": 10701848734, "lat": 37.1662141, "lon": 42.7124654}, {"type": "node", "id": 10701848735, "lat": 37.1665667, "lon": 42.7133076}, {"type": "node", "id": 10701852002, "lat": 37.1644823, "lon": 42.6977217}, {"type": "node", "id": 10701852003, "lat": 37.1646721, "lon": 42.6966919}, {"type": "node", "id": 10701852004, "lat": 37.1641388, "lon": 42.6962351}, {"type": "node", "id": 10701861405, "lat": 37.1641204, "lon": 42.6962459}, {"type": "node", "id": 10701861406, "lat": 37.1639105, "lon": 42.697352}, {"type": "node", "id": 10703885021, "lat": 37.1661028, "lon": 42.6772016}, {"type": "node", "id": 10703885022, "lat": 37.1651737, "lon": 42.6766667}, {"type": "node", "id": 10703885023, "lat": 37.1647946, "lon": 42.6777037}, {"type": "node", "id": 10703885024, "lat": 37.1657238, "lon": 42.6782386}, {"type": "node", "id": 10703885080, "lat": 37.1649105, "lon": 42.6773867}, {"type": "node", "id": 10703885081, "lat": 37.1648834, "lon": 42.6774607}, {"type": "node", "id": 10703885082, "lat": 37.1648975, "lon": 42.6774221, "tags": {"access": "private", "barrier": "gate", "height": "3", "locked": "yes", "material": "steel"}}, {"type": "node", "id": 10706675900, "lat": 37.1723381, "lon": 42.6734463}, {"type": "node", "id": 10706675903, "lat": 37.1729634, "lon": 42.673669}, {"type": "node", "id": 10706675904, "lat": 37.1729012, "lon": 42.6736493}, {"type": "node", "id": 10706932578, "lat": 37.1560649, "lon": 42.710783}, {"type": "node", "id": 10706932579, "lat": 37.1558092, "lon": 42.7104671}, {"type": "node", "id": 10706932580, "lat": 37.1554239, "lon": 42.7109581}, {"type": "node", "id": 10706932581, "lat": 37.1556797, "lon": 42.7112741}, {"type": "node", "id": 10706932595, "lat": 37.155656, "lon": 42.7106618}, {"type": "node", "id": 10706932596, "lat": 37.1556152, "lon": 42.7107142}, {"type": "node", "id": 10706932597, "lat": 37.1556397, "lon": 42.7106826}, {"type": "node", "id": 10707005942, "lat": 37.1505613, "lon": 42.7025306}, {"type": "node", "id": 10707005943, "lat": 37.1501249, "lon": 42.701617}, {"type": "node", "id": 10707005944, "lat": 37.1496761, "lon": 42.7019544}, {"type": "node", "id": 10707005945, "lat": 37.1501125, "lon": 42.7028681}, {"type": "node", "id": 10707005975, "lat": 37.1504843, "lon": 42.7023695}, {"type": "node", "id": 10707005977, "lat": 37.1502797, "lon": 42.7027424}, {"type": "node", "id": 10707005983, "lat": 37.1498669, "lon": 42.701811}, {"type": "node", "id": 10707005995, "lat": 37.1503793, "lon": 42.7021497}, {"type": "node", "id": 10709737251, "lat": 37.1727298, "lon": 42.6740497, "tags": {"amenity": "school", "name": "Qutabkhana Zebar", "name:ar": "\u0645\u062f\u0631\u0633\u0629 \u0632\u064a\u0628\u0627\u0631", "name:ckb": "\u0642\u0648\u062a\u0627\u0628\u062e\u0627\u0646\u0627 \u0632\u06ce\u0628\u0627\u0631", "name:en": "zebar school", "religion": "muslim"}}, {"type": "node", "id": 10710735246, "lat": 37.160457, "lon": 42.6748122}, {"type": "node", "id": 10710735247, "lat": 37.1602845, "lon": 42.6740283}, {"type": "node", "id": 10710735248, "lat": 37.1595942, "lon": 42.6742674}, {"type": "node", "id": 10710735249, "lat": 37.1597667, "lon": 42.6750514}, {"type": "node", "id": 10711577795, "lat": 37.1567162, "lon": 42.6737975}, {"type": "node", "id": 10711577796, "lat": 37.1566614, "lon": 42.6744218}, {"type": "node", "id": 10711577797, "lat": 37.1561138, "lon": 42.6743462}, {"type": "node", "id": 10711577798, "lat": 37.1561684, "lon": 42.673722}, {"type": "node", "id": 10711587044, "lat": 37.1429919, "lon": 42.6673063, "tags": {"amenity": "school", "name": "qutabxana zakho ya kichan"}}, {"type": "node", "id": 10711608663, "lat": 37.1447974, "lon": 42.6595466}, {"type": "node", "id": 10711608664, "lat": 37.1447171, "lon": 42.6595172}, {"type": "node", "id": 10711608666, "lat": 37.1457537, "lon": 42.6599476}, {"type": "node", "id": 10711608667, "lat": 37.1457476, "lon": 42.6598991}, {"type": "node", "id": 10711608668, "lat": 37.144676, "lon": 42.6603021}, {"type": "node", "id": 10711608669, "lat": 37.1446976, "lon": 42.6603273}, {"type": "node", "id": 10711608670, "lat": 37.1453937, "lon": 42.6605367}, {"type": "node", "id": 10711608671, "lat": 37.1449598, "lon": 42.6604062}, {"type": "node", "id": 10711608676, "lat": 37.1453154, "lon": 42.6597387}, {"type": "node", "id": 10711634744, "lat": 37.1458357, "lon": 42.6522994, "tags": {"amenity": "school", "name": "\u0642\u0648\u062a\u0627\u0628\u062e\u0627\u0646\u0627 \u0628\u06ce\u062f\u0627\u0631\u06ce \u064a\u0627 \u0628\u0646\u0647\u200c\u0631\u0647\u200c\u062a", "name:ar": "\u0645\u062f\u0631\u0633\u0629 \u0628\u064a\u062f\u0627\u0631", "name:en": "bedar school"}}, {"type": "node", "id": 10711684214, "lat": 37.1453944, "lon": 42.6510306}, {"type": "node", "id": 10711684215, "lat": 37.1454303, "lon": 42.6503568}, {"type": "node", "id": 10711684216, "lat": 37.1448676, "lon": 42.6504319}, {"type": "node", "id": 10711684217, "lat": 37.1448163, "lon": 42.6509491}, {"type": "node", "id": 10711684218, "lat": 37.1451786, "lon": 42.6508044, "tags": {"amenity": "school", "name": "\u0645\u062f\u0631\u0633\u0629 \u0632\u0627\u062e\u0648 \u0627\u0644\u0645\u062e\u062a\u0644\u0637\u0647 \u0644\u0644\u0646\u0627\u0632\u062d\u064a\u0646"}}, {"type": "node", "id": 10718585423, "lat": 37.1639208, "lon": 42.6893003}, {"type": "node", "id": 10718585424, "lat": 37.1641697, "lon": 42.6885669}, {"type": "node", "id": 10718585425, "lat": 37.1636294, "lon": 42.6882781}, {"type": "node", "id": 10718585426, "lat": 37.1633804, "lon": 42.6890115}, {"type": "node", "id": 10718831078, "lat": 37.1413275, "lon": 42.6890887}, {"type": "node", "id": 10718831079, "lat": 37.1409113, "lon": 42.6888355}, {"type": "node", "id": 10718831080, "lat": 37.140551, "lon": 42.6897682}, {"type": "node", "id": 10718831081, "lat": 37.1409671, "lon": 42.6900212}, {"type": "node", "id": 10718902113, "lat": 37.14152, "lon": 42.6865827}, {"type": "node", "id": 10718902114, "lat": 37.1413645, "lon": 42.6870034}, {"type": "node", "id": 10718902115, "lat": 37.1409676, "lon": 42.6867725}, {"type": "node", "id": 10718902116, "lat": 37.1411231, "lon": 42.6863517}, {"type": "node", "id": 10719403576, "lat": 37.149799, "lon": 42.688696}, {"type": "node", "id": 10719403577, "lat": 37.1498177, "lon": 42.6886743}, {"type": "node", "id": 10719403578, "lat": 37.1498494, "lon": 42.687653}, {"type": "node", "id": 10719403579, "lat": 37.1498177, "lon": 42.6876278}, {"type": "node", "id": 10719403580, "lat": 37.1495229, "lon": 42.6875773}, {"type": "node", "id": 10719403581, "lat": 37.1494165, "lon": 42.6877487}, {"type": "node", "id": 10719403582, "lat": 37.1493756, "lon": 42.6878213}, {"type": "node", "id": 10719403583, "lat": 37.1493563, "lon": 42.6886103}, {"type": "node", "id": 10719403584, "lat": 37.149447, "lon": 42.6886983}, {"type": "node", "id": 10725689869, "lat": 37.1430776, "lon": 42.6959125}, {"type": "node", "id": 10725689870, "lat": 37.1429759, "lon": 42.6963565}, {"type": "node", "id": 10725689871, "lat": 37.1421948, "lon": 42.6959814}, {"type": "node", "id": 10725689872, "lat": 37.1421867, "lon": 42.6959329}, {"type": "node", "id": 10725689873, "lat": 37.1423108, "lon": 42.6955374}, {"type": "node", "id": 10725689874, "lat": 37.1403424, "lon": 42.6940729}, {"type": "node", "id": 10725689875, "lat": 37.1401997, "lon": 42.6944431}, {"type": "node", "id": 10725689876, "lat": 37.1396445, "lon": 42.6941305}, {"type": "node", "id": 10725689877, "lat": 37.1398126, "lon": 42.6937133}, {"type": "node", "id": 10725689878, "lat": 37.1401434, "lon": 42.693905}, {"type": "node", "id": 10725689879, "lat": 37.1402251, "lon": 42.6940106}, {"type": "node", "id": 10725691810, "lat": 37.1421086, "lon": 42.6914579}, {"type": "node", "id": 10725691811, "lat": 37.1417361, "lon": 42.6912341}, {"type": "node", "id": 10725691812, "lat": 37.1413175, "lon": 42.6923492}, {"type": "node", "id": 10725691813, "lat": 37.1417275, "lon": 42.6926055}, {"type": "node", "id": 10869037105, "lat": 36.953926, "lon": 42.4141352, "tags": {"addr:postcode": "8814838", "addr:street": "\u062c\u0645 \u0628\u0627\u0647\u06cc\u0641", "amenity": "school", "email": "havalfakheirkhalil@gmail.com", "int_name": "\u06af\u0648\u0646\u062f\u06ce \u0686\u06d5\u0645 \u0628\u0627\u0647\u06cc\u06a4\u06cc", "name": "\u0627\u0644\u0642\u0631\u064a\u0629 \u062c\u0645 \u0628\u0627\u0647\u064a\u0641\u064a", "name:en": "Village Chambahiv", "phone": "07518814838"}}, {"type": "node", "id": 11035212805, "lat": 37.1558284, "lon": 42.6836053, "tags": {"amenity": "school", "name": "\u06a9\u06c6\u0644\u06ce\u0698\u06cc \u0633\u06d5\u0631\u0628\u0627\u0632\u06cc \u0632\u0627\u062e\u06c6"}}, {"type": "node", "id": 11180442637, "lat": 37.1401158, "lon": 42.6940556, "tags": {"addr:street": "Pira Delal | \u067e\u0695\u0627 \u062f\u06d5\u0644\u0627\u0644", "amenity": "school", "name": "\u0645\u062f\u0631\u0633\u0629 \u0647\u064a\u0632\u0644", "name:en": "Hezl school", "name:ku": "\u0645\u062f\u0631\u0633\u0627 \u0647\u064a\u0632\u0644"}}, {"type": "node", "id": 11251985537, "lat": 37.1188741, "lon": 42.6781858, "tags": {"addr:street": "\u0695\u06ce\u06af\u0627\u06cc \u062f\u0647\u06c6\u06a9 - \u0632\u0627\u062e\u06c6", "amenity": "school", "name": "Light english private school", "opening_hours": "Su-Fr 08:30-14:30", "phone": "+9647506625222"}}, {"type": "node", "id": 11268839075, "lat": 37.1742147, "lon": 42.6994055}, {"type": "node", "id": 11268839076, "lat": 37.174343, "lon": 42.6988958}, {"type": "node", "id": 11268839077, "lat": 37.1733684, "lon": 42.6984667}, {"type": "node", "id": 11268839078, "lat": 37.1732402, "lon": 42.6989817}, {"type": "node", "id": 11285530706, "lat": 37.142463, "lon": 42.673233}, {"type": "node", "id": 11285530707, "lat": 37.1427936, "lon": 42.6722196}, {"type": "node", "id": 11285530708, "lat": 37.1421466, "lon": 42.6718874}, {"type": "node", "id": 11285530709, "lat": 37.1418159, "lon": 42.6729007}, {"type": "node", "id": 11393431969, "lat": 37.1401578, "lon": 42.6938834, "tags": {"addr:street": "\u0627\u0644\u0639\u0628\u0627\u0633\u064a\u0629", "amenity": "school"}}, {"type": "node", "id": 11696677306, "lat": 37.1253765, "lon": 42.6857857}, {"type": "node", "id": 11696677307, "lat": 37.1251862, "lon": 42.6854692}, {"type": "node", "id": 11696677308, "lat": 37.1252696, "lon": 42.6853512}, {"type": "node", "id": 11696677309, "lat": 37.125323, "lon": 42.6852144}, {"type": "node", "id": 11696677310, "lat": 37.1253252, "lon": 42.6850669}, {"type": "node", "id": 11696677311, "lat": 37.125276, "lon": 42.6849274}, {"type": "node", "id": 11696677312, "lat": 37.1251862, "lon": 42.6848041}, {"type": "node", "id": 11696677313, "lat": 37.1254236, "lon": 42.6845466}, {"type": "node", "id": 11696677314, "lat": 37.1255198, "lon": 42.6845439}, {"type": "node", "id": 11696677315, "lat": 37.1256588, "lon": 42.6846056}, {"type": "node", "id": 11696677316, "lat": 37.1258128, "lon": 42.6847906}, {"type": "node", "id": 11696677317, "lat": 37.1258855, "lon": 42.6849221}, {"type": "node", "id": 11696677318, "lat": 37.1259496, "lon": 42.6851045}, {"type": "way", "id": 550156424, "nodes": [2687899319, 5313880664, 5313880665, 2687899319], "tags": {"amenity": "school"}}, {"type": "way", "id": 550156437, "nodes": [5313880711, 5313880712, 5313880713, 5313880714, 5313880711], "tags": {"amenity": "school"}}, {"type": "way", "id": 550156438, "nodes": [5313880715, 5313880716, 5313880717, 5313880718, 5313880715], "tags": {"amenity": "school"}}, {"type": "way", "id": 550156439, "nodes": [5313880719, 5313880943, 5313880946, 5313880720, 5313880921, 5313880922, 5313880719], "tags": {"amenity": "school"}}, {"type": "way", "id": 550156441, "nodes": [5313880934, 5313880935, 5313880936, 5313880937, 5313880938, 5313880939, 5313880940, 5313880941, 5313880942, 5313880934], "tags": {"amenity": "school"}}, {"type": "way", "id": 550156444, "nodes": [5313880947, 5313880948, 5313880949, 5313880950, 5313880951, 5313880952, 5313880947], "tags": {"amenity": "school", "name": "English internestial school of zakho"}}, {"type": "way", "id": 550156446, "nodes": [5313880953, 5313880954, 5313880947, 5313880948, 5313880949, 5313880953], "tags": {"amenity": "school", "name": "Sarkerda"}}, {"type": "way", "id": 550156548, "nodes": [5790647006, 5313882057, 5320186000, 5790647007, 5790647006], "tags": {"amenity": "school"}}, {"type": "way", "id": 550156549, "nodes": [5313882060, 5313882061, 5313882062, 5313882063, 5313882060], "tags": {"amenity": "school", "name": "Ahmadi Khane School", "name:ckb": "\u0642\u06c6\u062a\u0627\u0628\u062e\u0627\u0646\u0627 \u0626\u06d5\u062d\u0645\u06d5\u062f\u06ce \u062e\u0627\u0646\u06cc"}}, {"type": "way", "id": 606688982, "nodes": [5751464779, 10706675903, 10706675904, 10706675900, 5751464777, 5751464780, 5751464778, 5751464779], "tags": {"amenity": "school"}}, {"type": "way", "id": 655303596, "nodes": [6139939689, 6139939690, 6139939691, 6139939692, 6139939689], "tags": {"amenity": "school"}}, {"type": "way", "id": 751542912, "nodes": [7025819520, 7025819521, 7025819522, 7025819523, 7025819520], "tags": {"amenity": "school"}}, {"type": "way", "id": 824782024, "nodes": [7701541126, 7701541127, 7701541128, 7701541129, 7701541126], "tags": {"amenity": "school", "building": "yes", "name": "Primary, Secondary School", "operator": "UNICEF"}}, {"type": "way", "id": 833829469, "nodes": [7783798904, 7783798905, 7783798906, 7783798907, 7783798908, 7783798909, 7783798904], "tags": {"amenity": "school"}}, {"type": "way", "id": 835035980, "nodes": [7794601192, 7794601193, 7794601194, 7794601195, 7794601192], "tags": {"amenity": "school"}}, {"type": "way", "id": 836010975, "nodes": [7803090337, 7803090338, 7803090339, 7803090340, 7803090337], "tags": {"amenity": "school"}}, {"type": "way", "id": 836081457, "nodes": [7803738401, 7803738402, 7803738403, 7803738404, 7803738405, 7803738401], "tags": {"amenity": "school"}}, {"type": "way", "id": 836097696, "nodes": [7803859152, 7803859153, 7803859154, 7803859155, 7803859152], "tags": {"amenity": "school"}}, {"type": "way", "id": 931170153, "nodes": [8633345559, 8633345560, 8633345561, 8633345562, 8633345559], "tags": {"addr:city": "Zakho", "amenity": "school"}}, {"type": "way", "id": 931170252, "nodes": [8633345761, 8633345762, 5905841488, 5905840481, 8633345763, 8633345764, 8633345761], "tags": {"amenity": "school"}}, {"type": "way", "id": 943957369, "nodes": [8367773673, 8367773674, 8367773675, 8367773676, 8367773673], "tags": {"addr:city": "\u0632\u0627\u062e\u0648", "addr:street": "\u0628\u06d5\u0631\u0627\u0645\u0628\u06d5\u0631 \u0645\u0632\u06af\u06d5\u0641\u062a\u0627 \u0633\u06d5\u0639\u06cc\u062f \u0626\u06cc\u0628\u0631\u0627\u0647\u06cc\u0645", "amenity": "school"}}, {"type": "way", "id": 1085965608, "nodes": [9950606003, 9950606007, 9950606004, 9950606009, 9950606010, 9950606005, 9950606006, 9950606013, 9950606003], "tags": {"amenity": "school"}}, {"type": "way", "id": 1120960767, "nodes": [10252899910, 10252899911, 10252899912, 10252899913, 10252899914, 10252899915, 10252899910], "tags": {"amenity": "school", "name": "\u0642\u0648\u062a\u0627\u0628\u062e\u0627\u0646\u0627 \u0628\u0646\u06d5\u0631\u06d5\u062a\u06cc\u0627 \u0634\u0627\u062f\u06cc"}}, {"type": "way", "id": 1139262324, "nodes": [10618528579, 10618528580, 10618528581, 10618528582, 10618528579], "tags": {"amenity": "school"}}, {"type": "way", "id": 1139267451, "nodes": [10618565128, 10618565129, 10618565130, 10618565131, 10618565132, 10618565133, 10618565128], "tags": {"amenity": "school"}}, {"type": "way", "id": 1141457359, "nodes": [10633045164, 10633045165, 10633045166, 10633045167, 10633045164], "tags": {"amenity": "school"}}, {"type": "way", "id": 1142190372, "nodes": [10637681117, 10637681118, 10637681119, 10637681120, 10637681117], "tags": {"amenity": "school"}}, {"type": "way", "id": 1146732893, "nodes": [10671158132, 10671158133, 10671158134, 10671158135, 10671158132], "tags": {"amenity": "school"}}, {"type": "way", "id": 1150424984, "nodes": [10701772270, 10701772271, 10701772272, 10701772274, 10701772270], "tags": {"amenity": "school"}}, {"type": "way", "id": 1150424990, "nodes": [10701778111, 10701778112, 10701778113, 10701778114, 10701778111], "tags": {"amenity": "school"}}, {"type": "way", "id": 1150428004, "nodes": [10701796896, 10701796897, 10701796898, 10701796899, 10701796900, 10701796896], "tags": {"amenity": "school"}}, {"type": "way", "id": 1150432349, "nodes": [10701848732, 10701848733, 10701848734, 10701848735, 10701848732], "tags": {"amenity": "school"}}, {"type": "way", "id": 1150433791, "nodes": [10701852002, 10701852003, 10701852004, 10701861405, 10701861406, 10701852002], "tags": {"amenity": "school"}}, {"type": "way", "id": 1150644420, "nodes": [10703885021, 10703885022, 10703885080, 10703885082, 10703885081, 10703885023, 10703885024, 10703885021], "tags": {"amenity": "school", "denomination": "sunni", "grades": "1-6", "religion": "muslim"}}, {"type": "way", "id": 1150983982, "nodes": [10706932581, 10706932578, 10706932579, 10706932595]}, {"type": "way", "id": 1150983985, "nodes": [10706932595, 10706932597, 10706932596, 10706932580, 10706932581]}, {"type": "way", "id": 1150986766, "nodes": [10707005942, 10707005975, 10707005995, 10707005943, 10707005983, 10707005944, 10707005945, 10707005977, 10707005942], "tags": {"amenity": "school"}}, {"type": "way", "id": 1151324125, "nodes": [10710735246, 10710735247, 10710735248, 10710735249, 10710735246], "tags": {"amenity": "school"}}, {"type": "way", "id": 1151412871, "nodes": [10711577795, 10711577796, 10711577797, 10711577798, 10711577795], "tags": {"amenity": "school"}}, {"type": "way", "id": 1151417076, "nodes": [10711608666, 10711608667, 10711608676, 10711608663, 10711608664, 10711608668, 10711608669, 10711608671, 10711608670, 10711608666], "tags": {"amenity": "school"}}, {"type": "way", "id": 1151422923, "nodes": [8687305361, 8687305362, 8687305363, 8687305364, 8687305361], "tags": {"amenity": "school"}}, {"type": "way", "id": 1151423076, "nodes": [10711684214, 10711684215, 10711684216, 10711684217, 10711684214], "tags": {"amenity": "school", "name": "\u0645\u062f\u0631\u0633\u0629 \u0632\u0627\u062e\u0648 \u0627\u0644\u0645\u062e\u062a\u0644\u0637\u0647 \u0644\u0644\u0646\u0627\u0632\u062d\u064a\u0646"}}, {"type": "way", "id": 1152362131, "nodes": [10718585423, 10718585424, 10718585425, 10718585426, 10718585423], "tags": {"amenity": "school"}}, {"type": "way", "id": 1152392599, "nodes": [10718831078, 10718831079, 10718831080, 10718831081, 10718831078], "tags": {"amenity": "school"}}, {"type": "way", "id": 1152398945, "nodes": [10718902113, 10718902114, 10718902115, 10718902116, 10718902113], "tags": {"amenity": "school"}}, {"type": "way", "id": 1152469424, "nodes": [10719403576, 10719403577, 10719403578, 10719403579, 10719403580, 10719403581, 10719403582, 10719403583, 10719403584, 10719403576], "tags": {"amenity": "school"}}, {"type": "way", "id": 1153233170, "nodes": [10725689869, 10725689870, 10725689871, 10725689872, 10725689873, 10725689869], "tags": {"amenity": "school"}}, {"type": "way", "id": 1153233171, "nodes": [10725689874, 10725689875, 10725689876, 10725689877, 10725689878, 10725689879, 10725689874], "tags": {"amenity": "school"}}, {"type": "way", "id": 1153233321, "nodes": [10725691810, 10725691811, 10725691812, 10725691813, 10725691810], "tags": {"amenity": "school"}}, {"type": "way", "id": 1216204376, "nodes": [11268839075, 11268839076, 11268839077, 11268839078, 11268839075], "tags": {"amenity": "school"}}, {"type": "way", "id": 1217956729, "nodes": [11285530706, 11285530707, 11285530708, 11285530709, 11285530706], "tags": {"amenity": "school"}}, {"type": "way", "id": 1258136635, "nodes": [11696677306, 11696677307, 11696677308, 11696677309, 11696677310, 11696677311, 11696677312, 11696677313, 11696677314, 11696677315, 11696677316, 11696677317, 11696677318, 11696677306], "tags": {"amenity": "school"}}, {"type": "relation", "id": 15552819, "members": [{"type": "way", "ref": 1150983982, "role": "outer"}, {"type": "way", "ref": 1150983985, "role": "outer"}], "tags": {"amenity": "school", "type": "multipolygon"}}]}