{"version": 0.6, "generator": "Overpass API 0.7.61.5 4133829e", "osm3s": {"timestamp_osm_base": "2024-03-06T11:16:45Z", "copyright": "The data included in this document is from www.openstreetmap.org. The data is made available under ODbL."}, "elements": [{"type": "node", "id": 248689519, "lat": 31.3078736, "lon": 45.2826616, "tags": {"capital": "4", "int_name": "As Samawah - \u0627\u0644\u0633\u0645\u0627\u0648\u0629", "is_capital": "state", "name": "\u0627\u0644\u0633\u0645\u0627\u0648\u0629", "name:ar": "\u0627\u0644\u0633\u0645\u0627\u0648\u0629", "name:ckb": "\u0633\u06d5\u0645\u0627\u0648\u06d5", "name:cs": "Sam\u00e1wa", "name:de": "As Samawah", "name:en": "As Samawah", "name:et": "As-Sam\u0101wah", "name:eu": "As Samawah", "name:fr": "As Samawah", "name:hi": "\u0938\u092e\u093e\u0935\u093e", "name:ja": "\u30b5\u30de\u30fc\u30ef", "name:ku": "Semawe", "name:ml": "\u0d38\u0d2e\u0d3e\u0d35", "name:pl": "Samawa", "name:ru": "\u042d\u0441-\u0421\u0430\u043c\u0430\u0432\u0430", "name:uk": "\u0415\u0441-\u0421\u0430\u043c\u0430\u0432\u0430", "place": "city", "population": "250000", "wikidata": "Q750679", "wikipedia": "en:Samawah"}}, {"type": "node", "id": 297453585, "lat": 31.5290776, "lon": 45.2109126, "tags": {"alt_name": "\u0627\u0644\u0631\u0645\u064a\u062b\u0629", "capital": "6", "int_name": "Al Rumitha", "name": "\u0627\u0644\u0631\u0645\u064a\u062b\u0629", "name:ar": "\u0627\u0644\u0631\u0645\u064a\u062b\u0629", "name:de": "Al Rumitha", "name:en": "Al-Rumaitha", "name:et": "Ar-Rumaythah", "name:eu": "Al-Rumaitha", "name:fr": "Al-Rumaitha", "name:ml": "\u0d05\u0d7d \u0d31\u0d41\u0d2e\u0d48\u0d24", "name:ru": "\u042d\u0440-\u0420\u0443\u043c\u0430\u0439\u0442\u0430", "place": "city", "population": "115431", "population:date": "2014", "source:population": "https://ar.wikipedia.org/wiki/%D8%A7%D9%84%D8%B1%D9%85%D9%8A%D8%AB%D8%A9", "wikidata": "Q4532299"}}, {"type": "node", "id": 2480225286, "lat": 31.392556, "lon": 45.249671, "tags": {"alt_name": "\u0627\u0644\u0634\u064a\u062e", "int_name": "Ash Shaykh, Ash Shaykh", "is_in": "Iraq , \u062c\u0645\u0647\u0648\u0631\u064a\u0629 \u0627\u0644\u0639\u0631\u0627\u0642", "name": "\u0627\u0644\u0634\u064a\u062e", "name:ar": "\u0645\u062f\u0631\u0633\u0647 \u0635\u0627\u062f\u0642\u064a\u0646", "name:ar1": "\u0627\u0644\u0634\u064a\u062e", "name:de": "Ash Shaykh", "name:en": "Ash Shaykh", "name:fr": "Ash Shaykh", "place": "village"}}, {"type": "node", "id": 2480225293, "lat": 31.4181402, "lon": 45.2739747, "tags": {"alt_name": "\u0628\u0646\u064a \u062d\u0634\u064a\u0645", "int_name": "Ban\u012b \u1e28uchaym, Bani Huchaym", "is_in": "Iraq , \u062c\u0645\u0647\u0648\u0631\u064a\u0629 \u0627\u0644\u0639\u0631\u0627\u0642", "name": "\u0628\u0646\u064a \u062d\u0634\u064a\u0645", "name:ar": "\u0642\u0631\u064a\u0629 \u0627\u0644\u0639\u0645\u064a\u0647", "name:ar1": "\u0628\u0646\u064a \u062d\u0634\u064a\u0645", "name:de": "Bani Huchaym", "name:en": "Bani Huchaym", "name:fr": "Bani Huchaym", "place": "hamlet"}}, {"type": "node", "id": 2480225330, "lat": 31.407057, "lon": 45.2749788, "tags": {"alt_name": "\u0642\u0631\u064a\u0629 \u0628\u0646\u064a \u062d\u0634\u064a\u0645", "int_name": "Qaryat Ban\u012b \u1e28uchaym, Qaryat Bani Huchaym", "name": "\u0642\u0631\u064a\u0629 \u0628\u0646\u064a \u062d\u0634\u064a\u0645", "name:ar": "\u0642\u0631\u064a\u0629 \u0627\u0644\u0639\u0645\u064a\u0647", "name:ar1": "\u0642\u0631\u064a\u0629 \u0628\u0646\u064a \u062d\u0634\u064a\u0645", "name:de": "Qaryat Bani Huchaym", "name:en": "Qaryat Bani Huchaym", "name:fr": "Qaryat Bani Huchaym", "place": "hamlet"}}, {"type": "node", "id": 2480225338, "lat": 31.4182705, "lon": 45.2742483, "tags": {"alt_name": "\u0628\u0646\u064a \u062d\u062c\u064a\u0645", "is_in": "Iraq , \u062c\u0645\u0647\u0648\u0631\u064a\u0629 \u0627\u0644\u0639\u0631\u0627\u0642", "name": "\u0628\u0646\u064a \u062d\u062c\u064a\u0645", "name:ar": "\u0628\u0646\u064a \u062d\u062c\u064a\u0645", "name:ar1": "\u0628\u0646\u064a \u062d\u062c\u064a\u0645", "place": "hamlet"}}, {"type": "node", "id": 2480225345, "lat": 31.4067887, "lon": 45.2750151, "tags": {"alt_name": "\u0642\u0631\u064a\u0629 \u0628\u0646\u064a \u062d\u062c\u064a\u0645", "name": "\u0642\u0631\u064a\u0629 \u0628\u0646\u064a \u062d\u062c\u064a\u0645", "name:ar": "\u0642\u0631\u064a\u0629 \u0627\u0644\u0639\u0645\u064a\u0629", "name:ar1": "\u0642\u0631\u064a\u0629 \u0628\u0646\u064a \u062d\u062c\u064a\u0645", "place": "hamlet"}}, {"type": "node", "id": 2480225587, "lat": 31.38296, "lon": 45.262972, "tags": {"alt_name": "\u0637\u0648\u064a\u0631 \u0627\u0644\u0639\u0628\u0648\u062f", "int_name": "\u0162uwayr al Abb\u016bd, \u0637\u0648\u064a\u0631 \u0627\u0644\u0639\u0628\u0648\u062f, Tuwayr al Abbud, \u0637\u0648\u064a\u0631 \u0627\u0644\u0639\u0628\u0648\u062f", "is_in": "Iraq , \u062c\u0645\u0647\u0648\u0631\u064a\u0629 \u0627\u0644\u0639\u0631\u0627\u0642", "name": "\u0637\u0648\u064a\u0631 \u0627\u0644\u0639\u0628\u0648\u062f", "name:ar": "\u0627\u0644 \u0628\u062d\u0645\u062f", "name:ar1": "\u0637\u0648\u064a\u0631 \u0627\u0644\u0639\u0628\u0648\u062f", "name:de": "Tuwayr al Abbud", "name:en": "Tuwayr al Abbud", "name:fr": "Tuwayr al Abbud", "place": "village"}}, {"type": "node", "id": 2480226168, "lat": 31.437335, "lon": 45.217314, "tags": {"alt_name": "\u0645\u0646\u0627\u0632\u0644 \u0627\u0644\u0633\u064a\u062f \u062d\u062c\u064a\u0645", "is_in": "Iraq , \u062c\u0645\u0647\u0648\u0631\u064a\u0629 \u0627\u0644\u0639\u0631\u0627\u0642", "name": "\u0645\u0646\u0627\u0632\u0644 \u0627\u0644\u0633\u064a\u062f \u062d\u062c\u064a\u0645", "name:ar": "\u0645\u0646\u0627\u0632\u0644 \u0627\u0644\u0633\u064a\u062f \u062d\u062c\u064a\u0645", "name:ar1": "\u0645\u0646\u0627\u0632\u0644 \u0627\u0644\u0633\u064a\u062f \u062d\u062c\u064a\u0645", "place": "hamlet"}}, {"type": "node", "id": 2480226699, "lat": 31.379386, "lon": 45.096653, "tags": {"alt_name": "\u0642\u0631\u064a\u0629 \u0627\u0644\u0637\u0631\u0627\u0648\u062f\u0629", "int_name": "Qaryat a\u0163 \u0162ar\u0101wid\u0642\u0631\u064a\u0629 \u0627\u0644\u0637\u0648\u0627\u0648\u0631\u0629, Qaryat at Tarawidah, \u0642\u0631\u064a\u0629 \u0627\u0644\u0637\u0631\u0627\u0648\u062f\u0629", "name": "\u0642\u0631\u064a\u0629 \u0627\u0644\u0637\u0631\u0627\u0648\u062f\u0629", "name:ar": "\u0642\u0631\u064a\u0629 \u0627\u0644\u0637\u0648\u0627\u0648\u0631\u0647", "name:ar1": "\u0642\u0631\u064a\u0629 \u0627\u0644\u0637\u0631\u0627\u0648\u062f\u0629", "name:de": "Qaryat at Tarawidah", "name:en": "Qaryat at Tarawidah", "name:fr": "Qaryat at Tarawidah", "place": "village"}}, {"type": "node", "id": 2482345241, "lat": 31.668543, "lon": 45.1820699, "tags": {"capital": "7", "int_name": "Al Najmi - \u0627\u0644\u0646\u062c\u0645\u064a", "is_in": "Iraq , \u062c\u0645\u0647\u0648\u0631\u064a\u0629 \u0627\u0644\u0639\u0631\u0627\u0642", "name": "\u0627\u0644\u0646\u062c\u0645\u064a", "name:ar": "\u0627\u0644\u0646\u062c\u0645\u064a", "name:de": "Al Najmi", "name:en": "Al Najmi", "name:fr": "Al Najmi", "place": "village", "population": "\u0628\u0646\u064a \u0632\u0631\u064a\u062c"}}, {"type": "node", "id": 2482345243, "lat": 31.6698999, "lon": 45.1806118, "tags": {"alt_name": "\u0639\u0631\u0628 \u0627\u0644\u0632\u0631\u0641\u0627\u062a", "int_name": "Arab az Zaraf\u0101t, \u0639\u0631\u0628 \u0627\u0644\u0632\u0631\u0641\u0627\u062a, Arab az Zarafat, \u0639\u0631\u0628 \u0627\u0644\u0632\u0631\u0641\u0627\u062a", "is_in": "Iraq , \u062c\u0645\u0647\u0648\u0631\u064a\u0629 \u0627\u0644\u0639\u0631\u0627\u0642", "name": "\u0639\u0631\u0628 \u0627\u0644\u0632\u0631\u0641\u0627\u062a", "name:ar": "\u0639\u0631\u0628 \u0627\u0644\u0632\u0631\u0641\u0627\u062a", "name:ar1": "\u0639\u0631\u0628 \u0627\u0644\u0632\u0631\u0641\u0627\u062a", "name:de": "Arab az Zarafat", "name:en": "Arab az Zarafat", "name:fr": "Arab az Zarafat", "place": "hamlet"}}, {"type": "node", "id": 2486577382, "lat": 31.357794, "lon": 45.259188, "tags": {"alt_name": "\u0627\u0644\u0637\u0627\u064a\u0633", "int_name": "A\u0163 \u0162\u0101yis, \u0627\u0644\u0637\u0627\u064a\u0633, At Tayis, \u0627\u0644\u0637\u0627\u064a\u0633", "is_in": "Iraq , \u062c\u0645\u0647\u0648\u0631\u064a\u0629 \u0627\u0644\u0639\u0631\u0627\u0642", "name": "\u0627\u0644\u0637\u0627\u064a\u0633", "name:ar": "\u0627\u0644\u0637\u0627\u0634\u064a", "name:ar1": "\u0627\u0644\u0637\u0627\u064a\u0633", "name:de": "At Tayis", "name:en": "Al-tashi", "name:fr": "At Tayis", "place": "village"}}, {"type": "node", "id": 2487752078, "lat": 31.3980737, "lon": 45.4344984, "tags": {"alt_name": "\u064a\u0627\u0628\u0631", "int_name": "alssufran , alssufran", "is_in": "Iraq , \u062c\u0645\u0647\u0648\u0631\u064a\u0629 \u0627\u0644\u0639\u0631\u0627\u0642", "name": "\u064a\u0627\u0628\u0631", "name:ar": "\u0627\u0644\u0635\u0641\u0631\u0627\u0646", "name:ar1": "\u064a\u0627\u0628\u0631", "name:de": "alssufran", "name:en": "alssufran", "name:fr": "alssufran", "place": "village"}}, {"type": "node", "id": 2487752081, "lat": 31.4018358, "lon": 45.4391647, "tags": {"alt_name": "\u0642\u0644\u0639\u0629 \u0627\u0644\u0645\u0631\u064a\u0631", "int_name": "\u0642\u0644\u0639\u0629 \u0627\u0644\u0645\u0631\u064a\u0631, \u0642\u0644\u0639\u0629 \u0627\u0644\u0645\u0631\u064a\u0631", "is_in": "Iraq , \u062c\u0645\u0647\u0648\u0631\u064a\u0629 \u0627\u0644\u0639\u0631\u0627\u0642", "name": "\u0642\u0644\u0639\u0629 \u0627\u0644\u0645\u0631\u064a\u0631", "name:ar": "\u0642\u0644\u0639\u0629 \u0627\u0644\u0645\u0631\u064a\u0631", "name:ar1": "\u0642\u0644\u0639\u0629 \u0627\u0644\u0645\u0631\u064a\u0631", "name:de": "\u0642\u0644\u0639\u0629 \u0627\u0644\u0645\u0631\u064a\u0631", "name:fr": "\u0642\u0644\u0639\u0629 \u0627\u0644\u0645\u0631\u064a\u0631", "place": "village"}}, {"type": "node", "id": 2487761605, "lat": 31.433333, "lon": 45.366667, "tags": {"alt_name": "\u0645\u0646\u0635\u0648\u0631", "int_name": "Man\u015f\u016br, Mansur", "is_in": "Iraq , \u062c\u0645\u0647\u0648\u0631\u064a\u0629 \u0627\u0644\u0639\u0631\u0627\u0642", "name": "\u0645\u0646\u0635\u0648\u0631", "name:ar": "\u0645\u0646\u0635\u0648\u0631", "name:ar1": "\u0645\u0646\u0635\u0648\u0631", "name:de": "Mansur", "name:en": "Mansur", "name:fr": "Mansur", "name:ru": "\u041c\u0430\u043d\u0441\u0443\u0440", "place": "village"}}, {"type": "node", "id": 2487763244, "lat": 31.3297066, "lon": 45.4167628, "tags": {"alt_name": "\u0627\u0644\u0633\u0648\u064a\u0631", "capital": "7", "int_name": "As Suwayr, As Suwayr", "is_in": "Iraq , \u062c\u0645\u0647\u0648\u0631\u064a\u0629 \u0627\u0644\u0639\u0631\u0627\u0642", "name": "\u0627\u0644\u0633\u0648\u064a\u0631", "name:ar": "\u0627\u0644\u0633\u0648\u064a\u0631", "name:ar1": "\u0646\u0627\u062d\u064a\u0629 \u0627\u0644\u0633\u0648\u064a\u0631", "name:de": "As Suwayr", "name:en": "Al-Sowair", "name:en1": "Nahya Al-Sowair", "name:fr": "As Suwayr", "place": "town"}}, {"type": "node", "id": 2487763319, "lat": 31.5048392, "lon": 45.3949297, "tags": {"alt_name": "\u0639\u0644\u0648\u0629 \u0645\u0632\u0647\u0631", "int_name": "Ilwah Mazhar, Ilwah Mazhar", "is_in": "Iraq , \u062c\u0645\u0647\u0648\u0631\u064a\u0629 \u0627\u0644\u0639\u0631\u0627\u0642", "name": "\u0639\u0644\u0648\u0629 \u0645\u0632\u0647\u0631", "name:ar": "\u0639\u0644\u0648\u0629 \u0633\u064a\u062f \u0645\u0632\u0647\u0631 \u0627\u0644\u0639\u0637\u0634\u0627\u0646", "name:ar1": "\u0639\u0644\u0648\u0629 \u0645\u0632\u0647\u0631", "name:de": "Ilwah Mazhar", "name:en": "Ilwah Mazhar", "name:fr": "Ilwah Mazhar", "place": "village"}}, {"type": "node", "id": 2487763454, "lat": 31.2783306, "lon": 45.4152083, "tags": {"alt_name": "\u0642\u0631\u064a\u0629 \u0628\u0646\u064a \u062d\u062c\u064a\u0645", "name": "\u0642\u0631\u064a\u0629 \u0628\u0646\u064a \u062d\u062c\u064a\u0645", "name:ar": "\u0642\u0631\u064a\u0629 \u0628\u0646\u064a \u062d\u062c\u064a\u0645", "name:ar1": "\u0642\u0631\u064a\u0629 \u0628\u0646\u064a \u062d\u062c\u064a\u0645", "place": "hamlet"}}, {"type": "node", "id": 2487767005, "lat": 31.302894, "lon": 45.274565, "tags": {"alt_name": "\u0627\u0644\u063a\u062c\u0631\u064a\u0629", "int_name": "Al Ghajar\u012byah, \u0627\u0644\u063a\u062c\u0631\u064a\u0629, Al Ghajariyah, \u0627\u0644\u063a\u062c\u0631\u064a\u0629", "is_in": "Iraq , \u062c\u0645\u0647\u0648\u0631\u064a\u0629 \u0627\u0644\u0639\u0631\u0627\u0642", "name": "\u0627\u0644\u063a\u062c\u0631\u064a\u0629", "name:ar": "\u0627\u0644\u062d\u064a \u0627\u0644\u062c\u0645\u0647\u0648\u0631\u064a", "name:ar1": "\u0627\u0644\u063a\u062c\u0631\u064a\u0629", "name:de": "Al Ghajariyah", "name:en": "Al Ghajariyah", "name:fr": "Al Ghajariyah", "name:ku": "\u0627\u0644\u062d\u064a \u0627\u0627\u062c\u0645\u0647\u0648\u0631\u064a", "place": "hamlet"}}, {"type": "node", "id": 2487767045, "lat": 31.38751, "lon": 45.247995, "tags": {"alt_name": "\u0627\u0644\u062c\u0645\u064a\u0644", "int_name": "\u0644\u062c\u0645\u064a\u0644", "is_in": "Iraq , \u062c\u0645\u0647\u0648\u0631\u064a\u0629 \u0627\u0644\u0639\u0631\u0627\u0642", "name": "\u0627\u0644\u062c\u0645\u064a\u0644", "name:ar": "\u0627\u0644 \u0634\u0643\u064a\u0644\u064a", "name:ar1": "\u0627\u0644\u062c\u0645\u064a\u0644", "name:de": "Al Jamil", "name:en": "Al Jamil", "name:fr": "Al Jamil", "place": "village"}}, {"type": "node", "id": 2487767056, "lat": 31.338356, "lon": 45.274465, "tags": {"alt_name": "\u0627\u0644\u062c\u0631\u0628\u0648\u0639\u064a\u0629 \u0627\u0644\u0623\u0648\u0644\u0649", "int_name": "Al Jarb\u016b\u012byah al Awl\u00e1, \u0627\u0644\u062c\u0631\u0628\u0648\u0639\u064a\u0629 \u0627\u0644\u0627\u0648\u0644\u0649, Al Jarbuiyah al Awla, \u0627\u0644\u062c\u0631\u0628\u0648\u0639\u064a\u0629 \u0627\u0644\u0627\u0648\u0644\u0649", "is_in": "Iraq , \u062c\u0645\u0647\u0648\u0631\u064a\u0629 \u0627\u0644\u0639\u0631\u0627\u0642", "name": "\u0627\u0644\u062c\u0631\u0628\u0648\u0639\u064a\u0629 \u0627\u0644\u0623\u0648\u0644\u0649", "name:ar": "\u0627\u0644\u0633\u0643\u0643", "name:ar1": "\u0627\u0644\u062c\u0631\u0628\u0648\u0639\u064a\u0629 \u0627\u0644\u0623\u0648\u0644\u0649", "name:de": "Al Jarbuiyah al Awla", "name:en": "al sikak", "name:fr": "Al Jarbuiyah al Awla", "place": "hamlet"}}, {"type": "node", "id": 2487767099, "lat": 31.400674, "lon": 45.199047, "tags": {"alt_name": "\u0627\u0644\u0645\u062c\u062f", "capital": "7", "int_name": "Al Majd, Al Majd", "is_in": "Iraq , \u062c\u0645\u0647\u0648\u0631\u064a\u0629 \u0627\u0644\u0639\u0631\u0627\u0642", "name": "\u0627\u0644\u0645\u062c\u062f", "name:ar": "\u0627\u0644\u0645\u062c\u062f", "name:ar1": "\u0646\u0627\u062d\u064a\u0629 \u0627\u0644\u0645\u062c\u062f", "name:de": "Al Majd", "name:en": "Al-Majd", "name:en1": "Nahya Al-Majd", "name:fr": "Al Majd", "place": "town"}}, {"type": "node", "id": 2487767135, "lat": 31.470193, "lon": 45.290854, "tags": {"capital": "6", "int_name": "Al Warka - \u0627\u0644\u0648\u0631\u06a9\u0627\u0621", "is_in": "Iraq , \u062c\u0645\u0647\u0648\u0631\u064a\u0629 \u0627\u0644\u0639\u0631\u0627\u0642", "name": "\u0627\u0644\u0648\u0631\u0643\u0627\u0621", "name:ar": "\u0627\u0644\u0648\u0631\u0643\u0627\u0621", "name:de": "Al Warka", "name:en": "Al Warka", "name:fr": "Al Warka", "place": "town"}}, {"type": "node", "id": 2487767148, "lat": 31.272114, "lon": 45.269536, "tags": {"alt_name": "\u0627\u0644\u064a\u0627\u0633\u0631\u064a", "int_name": "Al Y\u0101sir\u012b, \u0627\u0644\u064a\u0627\u0633\u0631\u064a, Al Yasiri, \u0627\u0644\u064a\u0627\u0633\u0631\u064a", "is_in": "Iraq , \u062c\u0645\u0647\u0648\u0631\u064a\u0629 \u0627\u0644\u0639\u0631\u0627\u0642", "name": "\u0627\u0644\u064a\u0627\u0633\u0631\u064a", "name:ar": "\u0627\u0644 \u0645\u0639\u0627\u0644\u064a", "name:ar1": "\u0627\u0644\u064a\u0627\u0633\u0631\u064a", "name:de": "Al Yasiri", "name:en": "Al Yasiri", "name:fr": "Al Yasiri", "place": "village"}}, {"type": "node", "id": 2487767196, "lat": 31.3305376, "lon": 45.2943994, "tags": {"alt_name": "\u0627\u0644\u0635\u0628\u0627\u063a", "int_name": "A\u015f \u015eabb\u0101gh, \u0627\u0644\u0635\u0628\u0627\u063a, As Sabbagh, \u0627\u0644\u0635\u0628\u0627\u063a", "is_in": "Iraq , \u062c\u0645\u0647\u0648\u0631\u064a\u0629 \u0627\u0644\u0639\u0631\u0627\u0642", "name": "\u062d\u064a \u0627\u0644\u062a\u0623\u0645\u064a\u0645", "name:ar": "\u062d\u064a \u0627\u0644\u062a\u0623\u0645\u064a\u0645", "name:ar1": "\u0627\u0644\u0635\u0628\u0627\u063a", "name:de": "haya altaamim", "name:en": "haya altaamim", "name:fr": "haya altaamim", "name:ku": "\u063a\u0633\u0644", "place": "hamlet"}}, {"type": "node", "id": 2487767668, "lat": 31.30794, "lon": 45.274286, "tags": {"alt_name": "\u062d\u064a\u062f\u0631\u064a\u0629", "int_name": "\u1e28aydar\u012byah, \u062d\u064a\u062f\u0631\u064a\u0629, Haydariyah, \u062d\u064a\u062f\u0631\u064a\u0629", "is_in": "Iraq , \u062c\u0645\u0647\u0648\u0631\u064a\u0629 \u0627\u0644\u0639\u0631\u0627\u0642", "name": "\u062d\u064a\u062f\u0631\u064a\u0629", "name:ar": "\u0627\u0644\u062d\u064a\u062f\u0631\u064a\u0629", "name:ar1": "\u062d\u064a\u062f\u0631\u064a\u0629", "name:de": "Haydariyah", "name:en": "Haydariyah", "name:fr": "Haydariyah", "place": "hamlet"}}, {"type": "node", "id": 2487767679, "lat": 31.301289, "lon": 45.260519, "tags": {"alt_name": "\u062d\u064a \u0627\u0644\u0639\u0633\u0643\u0631\u064a", "int_name": "\u1e28ayy al Askar\u012b, \u062d\u064a \u0627\u0644\u0639\u0633\u06a9\u0631\u064a, Hayy al Askari, \u062d\u064a \u0627\u0644\u0639\u0633\u06a9\u0631\u064a", "is_in": "Iraq , \u062c\u0645\u0647\u0648\u0631\u064a\u0629 \u0627\u0644\u0639\u0631\u0627\u0642", "name": "\u062d\u064a \u0627\u0644\u0639\u0633\u0643\u0631\u064a", "name:ar": "\u062d\u064a \u0627\u0644\u0639\u0633\u0643\u0631\u064a", "name:ar1": "\u062d\u064a \u0627\u0644\u0639\u0633\u0643\u0631\u064a", "name:de": "Hayy al Askari", "name:en": "Hayy al Askari", "name:fr": "Hayy al Askari", "name:ku": "\u0628\u064a\u062a \u0627\u0628\u0648 \u0645\u062d\u0645\u0648\u062f", "place": "hamlet"}}, {"type": "node", "id": 2487767691, "lat": 31.344983, "lon": 45.295573, "tags": {"alt_name": "\u062d\u064a \u0627\u0644\u0631\u0633\u0627\u0644\u0629", "int_name": "\u1e28ayy ar Ris\u0101lah, \u062d\u064a \u0627\u0644\u0631\u0633\u0627\u0644\u0629, Hayy ar Risalah, \u062d\u064a \u0627\u0644\u0631\u0633\u0627\u0644\u0629", "is_in": "Iraq , \u062c\u0645\u0647\u0648\u0631\u064a\u0629 \u0627\u0644\u0639\u0631\u0627\u0642", "name": "\u062d\u064a \u0627\u0644\u0631\u0633\u0627\u0644\u0629", "name:ar": "\u062d\u064a \u0627\u0644\u0632\u0647\u0631\u0627\u0621", "name:ar1": "\u062d\u064a \u0627\u0644\u0631\u0633\u0627\u0644\u0629", "name:de": "Hayy ar Risalah", "name:en": "Hayy ar Risalah", "name:fr": "Hayy ar Risalah", "place": "hamlet"}}, {"type": "node", "id": 2487767938, "lat": 31.2677973, "lon": 45.2938395}, {"type": "node", "id": 2487769127, "lat": 31.403611, "lon": 45.197222, "tags": {"alt_name": "\u0623\u0644\u0648\u0639\u0627\u0631", "int_name": "Alw\u0101r, Alwar", "is_in": "Iraq , \u062c\u0645\u0647\u0648\u0631\u064a\u0629 \u0627\u0644\u0639\u0631\u0627\u0642", "name": "\u0623\u0644\u0648\u0639\u0627\u0631", "name:ar": "\u0645\u062a\u0646\u0632\u0647 \u0627\u0644\u0645\u062c\u062f", "name:ar1": "\u0623\u0644\u0648\u0639\u0627\u0631", "name:de": "Alwar", "name:en": "Alwar", "name:fr": "Alwar", "place": "village"}}, {"type": "node", "id": 2487769232, "lat": 31.541889, "lon": 45.160685, "tags": {"alt_name": "\u0633\u064a\u062f \u0639\u0644\u064a", "int_name": "Sayyid Al\u012b, \u0633\u064a\u062f \u0639\u0644\u064a, Sayyid Ali, \u0633\u064a\u062f \u0639\u0644\u064a", "is_in": "Iraq , \u062c\u0645\u0647\u0648\u0631\u064a\u0629 \u0627\u0644\u0639\u0631\u0627\u0642", "name": "\u0633\u064a\u062f \u0639\u0644\u064a", "name:ar": "\u0627\u0644\u0633\u0627\u062f\u0629 \u0627\u0644\u0637\u0627\u0644\u0642\u0627\u0646\u064a\u064a\u0646", "name:ar1": "\u0633\u064a\u062f \u0639\u0644\u064a", "name:de": "Sayyid Ali", "name:en": "Sayyid Ali", "name:fr": "Sayyid Ali", "place": "village"}}, {"type": "node", "id": 2487769253, "lat": 31.4269923, "lon": 45.1289474, "tags": {"alt_name": "\u0622\u0644 \u0627\u0639\u0627\u062c\u064a\u0628", "is_in": "Iraq , \u062c\u0645\u0647\u0648\u0631\u064a\u0629 \u0627\u0644\u0639\u0631\u0627\u0642", "name": "\u0622\u0644 \u0627\u0639\u0627\u062c\u064a\u0628", "name:ar": "\u0622\u0644 \u0627\u0639\u0627\u062c\u064a\u0628", "name:ar1": "\u0622\u0644 \u0627\u0639\u0627\u062c\u064a\u0628", "place": "hamlet"}}, {"type": "node", "id": 2487769256, "lat": 31.4532552, "lon": 45.1836909, "tags": {"alt_name": "\u0642\u0631\u064a\u0629 \u0628\u0646\u064a \u062d\u062c\u064a\u0645", "name": "\u0642\u0631\u064a\u0629 \u0628\u0646\u064a \u062d\u062c\u064a\u0645", "name:ar": "\u0642\u0631\u064a\u0629 \u0628\u0646\u064a \u062d\u062c\u064a\u0645", "name:ar1": "\u0642\u0631\u064a\u0629 \u0628\u0646\u064a \u062d\u062c\u064a\u0645", "place": "hamlet"}}, {"type": "node", "id": 4406598323, "lat": 31.4285214, "lon": 45.1078832, "tags": {"alt_name": "\u0646\u0627\u062d\u064a\u0629 \u0627\u0644\u0647\u0644\u0627\u0644", "alt_name_1": "Nahyat Al-Hilal", "capital": "7", "name": "\u0627\u0644\u0647\u0644\u0627\u0644", "name:ar": "\u0627\u0644\u0647\u0644\u0627\u0644", "name:ar1": "\u0646\u0627\u062d\u064a\u0629 \u0627\u0644\u0647\u0644\u0627\u0644", "name:en": "Al-Hilal", "name:en1": "Nahya Al-Hilal", "place": "village", "wikidata": "Q28714744"}}, {"type": "node", "id": 4406704930, "lat": 31.438655, "lon": 45.4511986, "tags": {"alt_name": "\u0646\u0627\u062d\u064a\u0629 \u0627\u0644\u0643\u0631\u0627\u0645\u0629", "alt_name_1": "Nahyat Al-Karama", "capital": "7", "is_in": "Iraq - Al-Muthana", "name": "\u0627\u0644\u0643\u0631\u0627\u0645\u0629", "name:ar": "\u0627\u0644\u0643\u0631\u0627\u0645\u0629", "name:ar1": "\u0646\u0627\u062d\u064a\u0629 \u0627\u0644\u0643\u0631\u0627\u0645\u0629", "name:en": "Al-Karama", "name:en1": "Nahya Al-Karama", "place": "town"}}, {"type": "node", "id": 4814919548, "lat": 31.3760297, "lon": 45.3758402, "tags": {"addr:street": "\u062d\u0633\u0646 \u0639\u0646\u0627\u062f", "description": "vip place", "phone": "+9647829310094", "place": "village"}}, {"type": "node", "id": 5220562158, "lat": 31.3818108, "lon": 45.2603567, "tags": {"name": "\u0627\u0644\u062f\u0627\u062d\u0631\u0629", "place": "village"}}, {"type": "node", "id": 5561621422, "lat": 31.5425962, "lon": 45.2044181, "tags": {"addr:street": "\u0634\u0627\u0631\u0639 \u0645\u062f\u0631\u0633\u0629 \u0627\u0644\u0634\u0627\u0643\u0631\u064a\u0646", "name": "\u0642\u0631\u064a\u0629 \u0627\u0644 \u0634\u0648\u064a\u062c\u0629", "place": "village"}}, {"type": "node", "id": 8723693243, "lat": 31.3921776, "lon": 45.2291121, "tags": {"name": "\u0627\u0644\u062e\u0632\u0627\u0639\u0644 \u0627\u0644\u062c\u062a\u0627\u0646", "place": "village"}}, {"type": "node", "id": 10661686405, "lat": 31.6634637, "lon": 45.2395104, "tags": {"name": "\u0642\u0631\u064a\u0629 \u0627\u0644 \u062c\u0645\u0627\u062d", "place": "village"}}, {"type": "node", "id": 10682911721, "lat": 31.2688491, "lon": 45.3014968}, {"type": "node", "id": 11439299161, "lat": 31.2664451, "lon": 45.2945394}, {"type": "node", "id": 11439299162, "lat": 31.2684576, "lon": 45.2946034}, {"type": "node", "id": 11439299163, "lat": 31.2696314, "lon": 45.2946806}, {"type": "node", "id": 11439299164, "lat": 31.2696167, "lon": 45.2950411}, {"type": "node", "id": 11439299165, "lat": 31.2703283, "lon": 45.2955733}, {"type": "node", "id": 11439299166, "lat": 31.2702623, "lon": 45.2958479}, {"type": "node", "id": 11439299167, "lat": 31.2707025, "lon": 45.2963972}, {"type": "node", "id": 11439299168, "lat": 31.270453, "lon": 45.2968607}, {"type": "node", "id": 11439299169, "lat": 31.2704457, "lon": 45.2969637}, {"type": "node", "id": 11439299170, "lat": 31.2705557, "lon": 45.2972641}, {"type": "node", "id": 11439299171, "lat": 31.2708377, "lon": 45.297936}, {"type": "node", "id": 11439299172, "lat": 31.2683201, "lon": 45.3024218}, {"type": "node", "id": 11439299173, "lat": 31.2679813, "lon": 45.3020141}, {"type": "node", "id": 11439299174, "lat": 31.2671004, "lon": 45.2999982}, {"type": "node", "id": 11439299175, "lat": 31.2665002, "lon": 45.3006211}, {"type": "node", "id": 11439299176, "lat": 31.2665196, "lon": 45.3014818}, {"type": "node", "id": 11439299177, "lat": 31.2659387, "lon": 45.3016404}, {"type": "node", "id": 11439299178, "lat": 31.2653482, "lon": 45.3016404}, {"type": "node", "id": 11439299179, "lat": 31.2647093, "lon": 45.3010628}, {"type": "node", "id": 11439299180, "lat": 31.2644092, "lon": 45.3005645}, {"type": "node", "id": 11439299181, "lat": 31.2635669, "lon": 45.3004512}, {"type": "node", "id": 11439299182, "lat": 31.2635089, "lon": 45.2999303}, {"type": "node", "id": 11439299183, "lat": 31.2640897, "lon": 45.2994999}, {"type": "node", "id": 11439299184, "lat": 31.2648545, "lon": 45.2984126}, {"type": "node", "id": 11439299185, "lat": 31.2641188, "lon": 45.297484}, {"type": "node", "id": 11439299186, "lat": 31.2648061, "lon": 45.2960683}, {"type": "node", "id": 11439299187, "lat": 31.2641865, "lon": 45.2958191}, {"type": "node", "id": 11439299188, "lat": 31.2634217, "lon": 45.2972235}, {"type": "node", "id": 11439299189, "lat": 31.2628409, "lon": 45.2969403}, {"type": "node", "id": 11439299190, "lat": 31.2637218, "lon": 45.2948904}, {"type": "node", "id": 11439299191, "lat": 31.2631188, "lon": 45.2942499}, {"type": "node", "id": 11439299192, "lat": 31.2624738, "lon": 45.2940028}, {"type": "node", "id": 11439299193, "lat": 31.2607834, "lon": 45.2937296}, {"type": "node", "id": 11439299194, "lat": 31.2600606, "lon": 45.2939767}, {"type": "node", "id": 11439299195, "lat": 31.2597826, "lon": 45.2940158}, {"type": "node", "id": 11439299196, "lat": 31.2592488, "lon": 45.2938466}, {"type": "node", "id": 11439299197, "lat": 31.2584481, "lon": 45.2934564}, {"type": "node", "id": 11439299198, "lat": 31.2592154, "lon": 45.291622}, {"type": "node", "id": 11439299199, "lat": 31.2588484, "lon": 45.2914529}, {"type": "node", "id": 11439299200, "lat": 31.2603275, "lon": 45.2884347}, {"type": "node", "id": 11439299201, "lat": 31.264602, "lon": 45.2892052}, {"type": "way", "id": 1233026119, "nodes": [11439299161, 2487767938, 11439299162, 11439299163, 11439299164, 11439299165, 11439299166, 11439299167, 11439299168, 11439299169, 11439299170, 11439299171, 10682911721, 11439299172, 11439299173, 11439299174, 11439299175, 11439299176, 11439299177, 11439299178, 11439299179, 11439299180, 11439299181, 11439299182, 11439299183, 11439299184, 11439299185, 11439299186, 11439299187, 11439299188, 11439299189, 11439299190, 11439299191, 11439299192, 11439299193, 11439299194, 11439299195, 11439299196, 11439299197, 11439299198, 11439299199, 11439299200, 11439299201, 11439299161], "tags": {"alt_name": "\u0645\u062d\u0645\u062f \u0627\u0644\u062d\u0633\u0646", "int_name": "Mu\u1e29ammad al \u1e28asan, Muhammad al Hasan", "is_in": "Iraq , \u062c\u0645\u0647\u0648\u0631\u064a\u0629 \u0627\u0644\u0639\u0631\u0627\u0642", "name": "\u0645\u062d\u0645\u062f \u0627\u0644\u062d\u0633\u0646", "name:ar": "\u062f\u0648\u0631 \u0627\u0644\u0633\u0643\u0643", "name:ar1": "\u0645\u062d\u0645\u062f \u0627\u0644\u062d\u0633\u0646", "name:de": "Muhammad al Hasan", "name:en": "Muhammad al Hasan", "name:fr": "Muhammad al Hasan", "place": "village"}}]}