{"version": 0.6, "generator": "Overpass API 0.7.61.5 4133829e", "osm3s": {"timestamp_osm_base": "2024-03-06T11:05:25Z", "copyright": "The data included in this document is from www.openstreetmap.org. The data is made available under ODbL."}, "elements": [{"type": "node", "id": 4287898889, "lat": 36.1598456, "lon": 44.0334615, "tags": {"addr:city": "\u0623\u0631\u0628\u064a\u0644", "addr:country": "IQ", "addr:district": "\u0642\u0636\u0627\u0621 \u0623\u0631\u0628\u064a\u0644", "addr:postcode": "44001", "addr:state": "\u0645\u062d\u0627\u0641\u0638\u0629 \u0623\u0631\u0628\u064a\u0644", "addr:street": "\u0634\u06d5\u0642\u0627\u0645\u06cc \u0646\u06d5\u0645\u0627\u0645\u06af\u06d5", "amenity": "bank", "atm": "yes", "drive_through": "no", "name": "\u0628\u0627\u0646\u06a9\u06cc \u0648\u06d5\u0628\u06d5\u0631\u0647\u06ce\u0646\u0627\u0646\u06cc \u0639\u06ce\u0631\u0627\u0642\u06cc", "name:ckb": "\u0628\u0627\u0646\u06a9\u06cc \u0648\u06d5\u0631\u0628\u06d5\u0647\u06ce\u0646\u0627\u0646\u06cc \u0639\u06ce\u0631\u0627\u0642\u06cc"}}, {"type": "node", "id": 4293144490, "lat": 36.2163394, "lon": 44.0002696, "tags": {"addr:city": "\u0623\u0631\u0628\u064a\u0644", "addr:country": "IQ", "addr:district": "\u0642\u0636\u0627\u0621 \u0623\u0631\u0628\u064a\u0644", "addr:housenumber": "39", "addr:postcode": "44001", "addr:state": "\u0645\u062d\u0627\u0641\u0638\u0629 \u0623\u0631\u0628\u064a\u0644", "addr:street": "Gulan Road", "amenity": "bank", "atm": "yes", "name": "\u0628\u0627\u0646\u06a9\u06cc \u06a9\u0648\u0631\u062f\u0633\u062a\u0627\u0646\u06cc \u0646\u06ce\u0648\u062f\u06d5\u0648\u06b5\u06d5\u062a\u06cc", "name:en": "Kurdistan International Bank"}}, {"type": "node", "id": 4315546892, "lat": 36.2160206, "lon": 43.9996916, "tags": {"addr:city": "\u0623\u0631\u0628\u064a\u0644", "addr:country": "IQ", "addr:district": "\u0642\u0636\u0627\u0621 \u0623\u0631\u0628\u064a\u0644", "addr:postcode": "44001", "addr:state": "\u0645\u062d\u0627\u0641\u0638\u0629 \u0623\u0631\u0628\u064a\u0644", "addr:street": "Gulan Road", "amenity": "bank", "atm": "yes", "email": "info@rtbank.net", "name": "\u0628\u0627\u0646\u0643\u06cc RT", "name:ar": "\u0645\u0635\u0631\u0641 \u0627\u0644\u0627\u0642\u0644\u064a\u0645 \u0627\u0644\u062a\u062c\u0627\u0631\u064a", "name:en": "RT Bank", "name:ku": "\u0628\u0627\u0646\u06a9\u06cc \u0626\u06d5\u0642\u0644\u06cc\u0645\u06cc \u0628\u0627\u0632\u0631\u06af\u0627\u0646\u06cc", "opening_hours": "Su-We 08:45-14:30; Th 08:45-13:30", "phone": "07507779777", "website": "http://rtbank.net"}}, {"type": "node", "id": 4366361499, "lat": 36.380072, "lon": 44.2023733, "tags": {"amenity": "bank", "name": "\u0628\u0627\u0646\u0643\u0649 \u067e\u0649\u0631\u0645\u0627\u0645", "name:en": "Pirmam Bank", "name:ku-Arab": "\u0628\u0627\u0646\u0643\u0649 \u067e\u0649\u0631\u0645\u0627\u0645"}}, {"type": "node", "id": 4384898190, "lat": 36.1771995, "lon": 44.0200651, "tags": {"addr:city": "\u0623\u0631\u0628\u064a\u0644", "addr:country": "IQ", "addr:district": "\u0642\u0636\u0627\u0621 \u0623\u0631\u0628\u064a\u0644", "addr:postcode": "44001", "addr:state": "\u0645\u062d\u0627\u0641\u0638\u0629 \u0623\u0631\u0628\u064a\u0644", "addr:street": "\u0634\u06d5\u0642\u0627\u0645\u06cc \u06a9\u0648\u0631\u062f\u0633\u062a\u0627\u0646", "amenity": "bank", "name": "\u0628\u0627\u0646\u06a9\u06cc \u0628\u06d5\u0631\u06d5\u06a9\u06d5"}}, {"type": "node", "id": 4391177791, "lat": 36.1754194, "lon": 44.0156543, "tags": {"addr:city": "\u0623\u0631\u0628\u064a\u0644", "addr:country": "IQ", "addr:district": "\u0642\u0636\u0627\u0621 \u0623\u0631\u0628\u064a\u0644", "addr:postcode": "44001", "addr:state": "\u0645\u062d\u0627\u0641\u0638\u0629 \u0623\u0631\u0628\u064a\u0644", "addr:street": "\u0634\u06d5\u0642\u0627\u0645\u06cc \u06a9\u0648\u0631\u062f\u0633\u062a\u0627\u0646", "amenity": "bank", "atm": "yes", "name": "\u0628\u0627\u0646\u06a9\u06cc \u0628\u06cc\u0628\u0644\u0648\u0633", "name:en": "Byblos Bank", "name:ku": "\u0628\u0627\u0646\u06a9\u06cc \u0628\u06cc\u0628\u0644\u0648\u0633"}}, {"type": "node", "id": 4391177890, "lat": 36.1871803, "lon": 44.0105807, "tags": {"addr:city": "\u0623\u0631\u0628\u064a\u0644", "addr:country": "IQ", "addr:district": "\u0642\u0636\u0627\u0621 \u0623\u0631\u0628\u064a\u0644", "addr:postcode": "44001", "addr:state": "\u0645\u062d\u0627\u0641\u0638\u0629 \u0623\u0631\u0628\u064a\u0644", "amenity": "bank", "name:en": "Nishtiman bank"}}, {"type": "node", "id": 4398476792, "lat": 36.1587176, "lon": 44.1242207, "tags": {"amenity": "bank", "name": "\u0628\u0627\u0646\u06a9\u06cc \u0628\u0646\u06d5\u0633\u0631\u0627\u0648\u06d5", "name:ar": "\u0645\u0635\u0631\u0641 \u0628\u0646\u0633\u0644\u0627\u0648\u0629", "name:ckb": "\u0628\u0627\u0646\u06a9\u06cc \u0628\u0646\u06d5\u0633\u0631\u0627\u0648\u06d5", "name:en": "bnaslawa Bank", "name:ku": "\u0628\u0627\u0646\u0643\u06cc \u0628\u0646\u06d5\u0633\u06b5\u0627\u0648\u06d5"}}, {"type": "node", "id": 4486255695, "lat": 36.1824641, "lon": 44.0121915, "tags": {"addr:city": "\u0623\u0631\u0628\u064a\u0644", "addr:country": "IQ", "addr:district": "\u0642\u0636\u0627\u0621 \u0623\u0631\u0628\u064a\u0644", "addr:postcode": "44001", "addr:state": "\u0645\u062d\u0627\u0641\u0638\u0629 \u0623\u0631\u0628\u064a\u0644", "addr:street": "\u0634\u06d5\u0642\u0627\u0645\u06cc \u0634\u0627\u0631\u06d5\u0648\u0627\u0646\u06cc", "amenity": "bank", "name": "\u0628\u0627\u0646\u06a9\u06cc \u0647\u06d5\u0648\u0644\u06ce\u0631", "name:ckb": "\u0628\u0627\u0646\u06a9\u06cc \u0647\u06d5\u0648\u0644\u06ce\u0631"}}, {"type": "node", "id": 4505074190, "lat": 36.1409396, "lon": 44.0202261, "tags": {"addr:city": "\u0623\u0631\u0628\u064a\u0644", "addr:country": "IQ", "addr:district": "\u0642\u0636\u0627\u0621 \u0623\u0631\u0628\u064a\u0644", "addr:housenumber": "160", "addr:postcode": "44001", "addr:state": "\u0645\u062d\u0627\u0641\u0638\u0629 \u0623\u0631\u0628\u064a\u0644", "addr:street": "\u0634\u06d5\u0642\u0627\u0645\u06cc \u06a9\u06d5\u0631\u06a9\u0648\u0648\u06a9", "amenity": "bank", "atm": "yes", "drive_through": "no", "name": "\u0628\u0627\u0646\u06a9\u06cc \u0632\u0627\u0646\u06a9\u06c6", "name:ar": "\u0628\u0646\u0643 \u0632\u0627\u0646\u0643\u0648", "name:ckb": "\u0628\u0627\u0646\u06a9\u06cc \u0632\u0627\u0646\u06a9\u06c6", "name:en": "Zanko Bank", "name:ku": "\u0628\u0627\u0646\u06a9\u06cc \u0632\u0627\u0646\u06a9\u06c6\u06cc"}}, {"type": "node", "id": 4548807993, "lat": 36.1801674, "lon": 44.0310458, "tags": {"amenity": "bank", "name": "\u0628\u0627\u0646\u06a9\u06cc \u0628\u06ce\u062e\u0627\u06b5", "name:ar": "\u0628\u0627\u0646\u06a9\u06cc \u0628\u06ce\u062e\u0627\u06b5", "name:en": "Bekhal Bank"}}, {"type": "node", "id": 4549513392, "lat": 36.1803061, "lon": 44.038973, "tags": {"addr:city": "\u0623\u0631\u0628\u064a\u0644", "addr:country": "IQ", "addr:district": "\u0642\u0636\u0627\u0621 \u0623\u0631\u0628\u064a\u0644", "addr:postcode": "44001", "addr:state": "\u0645\u062d\u0627\u0641\u0638\u0629 \u0623\u0631\u0628\u064a\u0644", "amenity": "bank", "name": "North Iraq Investment Bank", "name:ar": "\u0645\u0635\u0631\u0641 \u0627\u0633\u062a\u062b\u0645\u0627\u0631 \u0634\u0645\u0627\u0644 \u0627\u0644\u0639\u0631\u0627\u0642\u064a"}}, {"type": "node", "id": 4561475719, "lat": 36.1890307, "lon": 43.9985022, "tags": {"addr:city": "\u0623\u0631\u0628\u064a\u0644", "addr:country": "IQ", "addr:district": "\u0642\u0636\u0627\u0621 \u0623\u0631\u0628\u064a\u0644", "addr:postcode": "44001", "addr:state": "\u0645\u062d\u0627\u0641\u0638\u0629 \u0623\u0631\u0628\u064a\u0644", "amenity": "bank", "name": "\u0628\u0627\u0646\u0643\u064a \u0632\u0627\u06af\u0631\u0648\u0632", "name:ar": "\u0645\u0635\u0631\u0641 \u0632\u0627\u06af\u0631\u0648\u0632", "name:en": "ZAGROS BANK", "name:ku": "\u0628\u0627\u0646\u0643\u064a \u0632\u0627\u06af\u0631\u0648\u0632"}}, {"type": "node", "id": 4561475720, "lat": 36.1890964, "lon": 43.9986212, "tags": {"addr:city": "\u0623\u0631\u0628\u064a\u0644", "addr:country": "IQ", "addr:district": "\u0642\u0636\u0627\u0621 \u0623\u0631\u0628\u064a\u0644", "addr:postcode": "44001", "addr:state": "\u0645\u062d\u0627\u0641\u0638\u0629 \u0623\u0631\u0628\u064a\u0644", "amenity": "bank", "name": "\u0645\u0635\u0631\u0641 \u062c\u0648\u0644\u064a", "name:ar": "\u0645\u0635\u0631\u0641 \u062c\u0648\u0644\u064a", "name:en": "Choly Bank", "name:ku": "\u0628\u0627\u0646\u0643\u06cc \u0686\u06c6\u0644\u06cc"}}, {"type": "node", "id": 4583566293, "lat": 36.1954661, "lon": 44.0154017, "tags": {"addr:city": "\u0623\u0631\u0628\u064a\u0644", "addr:country": "IQ", "addr:district": "\u0642\u0636\u0627\u0621 \u0623\u0631\u0628\u064a\u0644", "addr:postcode": "44001", "addr:state": "\u0645\u062d\u0627\u0641\u0638\u0629 \u0623\u0631\u0628\u064a\u0644", "amenity": "bank", "name": "\u0628\u0627\u0646\u06a9\u06cc BBAC", "name:ckb": "\u0628\u0627\u0646\u06a9\u06cc BBAC", "name:en": "BBAC"}}, {"type": "node", "id": 4668868490, "lat": 36.1767773, "lon": 44.0195298, "tags": {"amenity": "bank", "name": "\u062f\u0627\u0628\u0627\u0632\u064a\u0646", "name:ar": "\u062f\u0627\u0628\u0627\u0632\u064a\u0646", "name:en": "dabazin"}}, {"type": "node", "id": 4745465522, "lat": 36.1703429, "lon": 44.023459, "tags": {"addr:street": "Ronaky Street", "amenity": "bank", "name": "\u0631\u064a\u0643\u062e\u0631\u0627\u0648\u0649 \u0627\u0644\u0627\u0645\u0627\u0646", "name:ar": "\u0645\u0631\u0643\u0632 \u0627\u0644\u0627\u0645\u0627\u0646 \u0627\u0644\u0639\u0631\u0627\u0642\u064a", "name:en": "Iraqi Al-Aman Center", "name:ku": "\u0631\u064a\u0643\u062e\u0631\u0627\u0648\u0649 \u0627\u0644\u0627\u0645\u0627\u0646", "opening_hours": "Su-We 08:15-15:00; Th 08:15-14:30", "phone": "07503261517"}}, {"type": "node", "id": 4839978321, "lat": 36.1845613, "lon": 44.0025493, "tags": {"addr:city": "\u0623\u0631\u0628\u064a\u0644", "addr:country": "IQ", "addr:district": "\u0642\u0636\u0627\u0621 \u0623\u0631\u0628\u064a\u0644", "addr:postcode": "44001", "addr:state": "\u0645\u062d\u0627\u0641\u0638\u0629 \u0623\u0631\u0628\u064a\u0644", "addr:street": "\u0634\u06d5\u0642\u0627\u0645\u06cc \u0647\u06d5\u06b5\u06d5\u0628\u062c\u06d5", "amenity": "bank", "atm": "yes", "name": "central bank of iraq - erbil branch", "opening_hours": "Su-Th 08:00-14:00", "operator": "CBI"}}, {"type": "node", "id": 4865899422, "lat": 36.2061831, "lon": 43.9990839, "tags": {"addr:city": "\u0623\u0631\u0628\u064a\u0644", "addr:country": "IQ", "addr:district": "\u0642\u0636\u0627\u0621 \u0623\u0631\u0628\u064a\u0644", "addr:postcode": "44001", "addr:state": "\u0645\u062d\u0627\u0641\u0638\u0629 \u0623\u0631\u0628\u064a\u0644", "addr:street": "Ainkawa Road", "amenity": "bank", "name": "\u0628\u0646\u0643 \u0639\u0648\u062f\u0629", "name:ar": "\u0628\u0646\u0643 \u0639\u0648\u062f\u0629", "name:en": "Audi Bank"}}, {"type": "node", "id": 4953733311, "lat": 36.1858966, "lon": 44.0024744, "tags": {"addr:city": "\u0623\u0631\u0628\u064a\u0644", "addr:country": "IQ", "addr:district": "\u0642\u0636\u0627\u0621 \u0623\u0631\u0628\u064a\u0644", "addr:postcode": "44001", "addr:state": "\u0645\u062d\u0627\u0641\u0638\u0629 \u0623\u0631\u0628\u064a\u0644", "addr:street": "\u0634\u06d5\u0642\u0627\u0645\u06cc \u0647\u06d5\u06b5\u06d5\u0628\u062c\u06d5", "amenity": "bank", "name": "Banki Harem", "name:en": "Harem Bank", "name:ku": "\u0628\u0627\u0646\u06a9\u06cc \u0647\u06d5\u0631\u06ce\u0645"}}, {"type": "node", "id": 4971691223, "lat": 36.1794869, "lon": 44.0163091, "tags": {"addr:city": "\u0623\u0631\u0628\u064a\u0644", "addr:country": "IQ", "addr:district": "\u0642\u0636\u0627\u0621 \u0623\u0631\u0628\u064a\u0644", "addr:postcode": "44001", "addr:state": "\u0645\u062d\u0627\u0641\u0638\u0629 \u0623\u0631\u0628\u064a\u0644", "addr:street": "\u0634\u06d5\u0642\u0627\u0645\u06cc \u0626\u06cc\u0633\u06a9\u0627\u0646", "amenity": "bank", "name": "\u0628\u0627\u0646\u06a9\u06cc \u0645\u0648\u0635\u06b5", "name:ar": "\u0628\u0646\u0643 \u0645\u0648\u0635\u0644", "name:en": "Mousl Bank", "name:ku": "\u0628\u0627\u0646\u06a9\u06cc \u0645\u0648\u0635\u06b5", "opening_hours": "Su-Th 08:00-13:00", "phone": "07511206460"}}, {"type": "node", "id": 4973405822, "lat": 36.2199741, "lon": 44.0218261, "tags": {"addr:city": "\u0623\u0631\u0628\u064a\u0644", "addr:country": "IQ", "addr:district": "\u0642\u0636\u0627\u0621 \u0623\u0631\u0628\u064a\u0644", "addr:postcode": "44001", "addr:state": "\u0645\u062d\u0627\u0641\u0638\u0629 \u0623\u0631\u0628\u064a\u0644", "addr:street": "\u0634\u06d5\u0642\u0627\u0645\u06cc \u06af\u0648\u06b5\u0627\u0646", "amenity": "bank", "name": "\u0628\u0627\u0646\u06a9\u06cc \u0634\u06cc\u0631\u06cc\u0646", "name:ar": "\u0628\u0646\u0643 \u0634\u064a\u0631\u064a\u0646", "name:en": "SHEREEN BANK", "name:ku": "\u0628\u0627\u0646\u0643\u0649 \u0634\u064a\u0631\u064a\u0646"}}, {"type": "node", "id": 4982908722, "lat": 36.183505, "lon": 44.0119184, "tags": {"addr:city": "\u0623\u0631\u0628\u064a\u0644", "addr:country": "IQ", "addr:district": "\u0642\u0636\u0627\u0621 \u0623\u0631\u0628\u064a\u0644", "addr:postcode": "44001", "addr:state": "\u0645\u062d\u0627\u0641\u0638\u0629 \u0623\u0631\u0628\u064a\u0644", "amenity": "bank", "atm": "yes", "drive_through": "no", "name": "\u0628\u0627\u0646\u06a9\u06cc \u0628\u06d5\u063a\u062f\u0627\u062f", "name:ckb": "\u0628\u0627\u0646\u06a9\u06cc \u0628\u06d5\u063a\u062f\u0627\u062f", "name:en": "Baghdad Bank", "name:ku": "\u0628\u0627\u0646\u06a9\u06cc \u0628\u063a\u062f\u0627\u062f"}}, {"type": "node", "id": 5031659322, "lat": 36.1627511, "lon": 44.0323437, "tags": {"addr:city": "\u0623\u0631\u0628\u064a\u0644", "addr:country": "IQ", "addr:district": "\u0642\u0636\u0627\u0621 \u0623\u0631\u0628\u064a\u0644", "addr:postcode": "44001", "addr:state": "\u0645\u062d\u0627\u0641\u0638\u0629 \u0623\u0631\u0628\u064a\u0644", "addr:street": "\u0634\u06d5\u0642\u0627\u0645\u06cc \u067e\u06ce\u0634\u06d5\u0648\u0627 \u0642\u0627\u0632\u06cc", "amenity": "bank", "atm": "yes", "name": "\u0641\u0631\u0627\u0646\u0633 \u0628\u0627\u0646\u06a9", "name:en": "Fransa Bank"}}, {"type": "node", "id": 5047918629, "lat": 36.1564829, "lon": 44.0048163, "tags": {"addr:city": "\u0623\u0631\u0628\u064a\u0644", "addr:country": "IQ", "addr:district": "\u0642\u0636\u0627\u0621 \u0623\u0631\u0628\u064a\u0644", "addr:postcode": "44001", "addr:state": "\u0645\u062d\u0627\u0641\u0638\u0629 \u0623\u0631\u0628\u064a\u0644", "addr:street": "\u0634\u06d5\u0642\u0627\u0645\u06cc \u067e\u06ce\u0634\u06d5\u0648\u0627 \u0642\u0627\u0632\u06cc", "amenity": "bank", "name": "\u0628\u0627\u0646\u06a9\u06cc \u06a9\u0634\u062a\u0648\u06a9\u0627\u06b5\u06cc \u0647\u06d5\u0648\u0644\u06ce\u0631", "name:ckb": "\u0628\u0627\u0646\u06a9\u06cc \u06a9\u0634\u062a\u0648\u06a9\u0627\u06b5\u06cc \u0647\u06d5\u0648\u0644\u06ce\u0631", "name:en": "Industrial Bank of Erbil", "name:ku": "\u0628\u0627\u0646\u06a9\u06cc \u06a9\u0634\u062a\u0648\u06a9\u0627\u06b5\u06cc \u0647\u06d5\u0648\u0644\u06ce\u0631"}}, {"type": "node", "id": 5082249821, "lat": 36.1876246, "lon": 44.0068533, "tags": {"addr:city": "\u0623\u0631\u0628\u064a\u0644", "addr:country": "IQ", "addr:district": "\u0642\u0636\u0627\u0621 \u0623\u0631\u0628\u064a\u0644", "addr:postcode": "44001", "addr:state": "\u0645\u062d\u0627\u0641\u0638\u0629 \u0623\u0631\u0628\u064a\u0644", "amenity": "bank", "name": "Dolar and mobile markets", "name:ar": "Dolar and mobile markets"}}, {"type": "node", "id": 5115946028, "lat": 36.3143484, "lon": 44.0322416, "tags": {"addr:city": "\u0623\u0631\u0628\u064a\u0644", "addr:country": "IQ", "addr:state": "\u0645\u062d\u0627\u0641\u0638\u0629 \u0623\u0631\u0628\u064a\u0644", "addr:street": "\u0634\u06d5\u0642\u0627\u0645\u06cc \u0628\u06d5\u062d\u0631\u06a9\u06d5", "amenity": "bank", "name": "\u0628\u0627\u0646\u06a9\u06cc \u0628\u06d5\u062d\u0631\u06a9\u06d5"}}, {"type": "node", "id": 5175904725, "lat": 36.1765791, "lon": 44.0242558, "tags": {"addr:city": "\u0623\u0631\u0628\u064a\u0644", "addr:country": "IQ", "addr:district": "\u0642\u0636\u0627\u0621 \u0623\u0631\u0628\u064a\u0644", "addr:postcode": "44001", "addr:state": "\u0645\u062d\u0627\u0641\u0638\u0629 \u0623\u0631\u0628\u064a\u0644", "addr:street": "\u0627\u0633\u0643\u0627\u0646", "amenity": "bank", "name": "\u067e\u064a\u062e\u0627\u0644", "name:ar": "\u0628\u0646\u0643 \u0628\u064a\u062e\u0627\u0644 \u0634\u064a\u0643 \u062c\u0648\u0627\u0632\u0627\u062a", "name:en": "Bikhal Bank \u201cPassport check\u201d", "name:ku": "\u0628\u0627\u0646\u0643\u0649 \u0628\u064a\u062e\u0627\u0644 \u0686\u0629\u0643\u0649 \u067e\u0627\u0633\u067e\u0648\u0631\u062a"}}, {"type": "node", "id": 5214526023, "lat": 36.1567848, "lon": 44.0184446, "tags": {"addr:city": "\u0623\u0631\u0628\u064a\u0644", "addr:country": "IQ", "addr:district": "\u0642\u0636\u0627\u0621 \u0623\u0631\u0628\u064a\u0644", "addr:postcode": "44001", "addr:state": "\u0645\u062d\u0627\u0641\u0638\u0629 \u0623\u0631\u0628\u064a\u0644", "amenity": "bank", "name": "\u0628\u0627\u0646\u06a9\u06cc \u062f\u0627\u0631\u0648\u0633\u06d5\u0644\u0627\u0645", "name:ckb": "\u0628\u0627\u0646\u06a9\u06cc \u062f\u0627\u0631\u0648\u0633\u06d5\u0644\u0627\u0645", "name:en": "Dar Alsalam Bank"}}, {"type": "node", "id": 5306473928, "lat": 36.1878994, "lon": 44.013967, "tags": {"addr:street": "\u0634\u0627\u0631\u0639 \u0627\u0644\u062f\u0648\u0644\u0627\u0631", "amenity": "bank", "name": "\u0643\u0648\u0645\u0628\u0627\u0646\u064a\u0627\u0649 \u0627\u0644\u062a\u0628\u0627\u062f\u0644 \u0644\u062a\u0628\u062f\u064a\u0644 \u0627\u0644\u0639\u0645\u0644\u0627\u062a", "name:ar": "\u0634\u0631\u0643\u0629 \u0627\u0644\u0637\u064a\u0641 \u0644\u062a\u062d\u0648\u064a\u0644 \u0627\u0644\u0645\u0627\u0644\u064a", "opening_hours": "Sa-Th 08:00-15:00", "phone": "07704447262"}}, {"type": "node", "id": 5352490128, "lat": 36.177799, "lon": 44.0208765, "tags": {"addr:city": "\u0623\u0631\u0628\u064a\u0644", "addr:country": "IQ", "addr:district": "\u0642\u0636\u0627\u0621 \u0623\u0631\u0628\u064a\u0644", "addr:postcode": "44001", "addr:state": "\u0645\u062d\u0627\u0641\u0638\u0629 \u0623\u0631\u0628\u064a\u0644", "addr:street": "\u0634\u06d5\u0642\u0627\u0645\u06cc \u06a9\u0648\u0631\u062f\u0633\u062a\u0627\u0646", "amenity": "bank", "atm": "yes", "name": "\u0628\u0627\u0646\u06a9\u06cc \u0628\u0644\u0648\u0645", "name:ar": "\u0628\u0644\u0648\u0645 \u0628\u0646\u0643", "name:ckb": "\u0628\u0627\u0646\u06a9\u06cc \u0628\u0644\u0648\u0645", "name:en": "BLOM Bank", "name:ku": "Banka Bilum"}}, {"type": "node", "id": 5521893124, "lat": 36.2194533, "lon": 44.0229716, "tags": {"addr:city": "\u0623\u0631\u0628\u064a\u0644", "addr:country": "IQ", "addr:district": "\u0642\u0636\u0627\u0621 \u0623\u0631\u0628\u064a\u0644", "addr:postcode": "44001", "addr:state": "\u0645\u062d\u0627\u0641\u0638\u0629 \u0623\u0631\u0628\u064a\u0644", "addr:street": "\u0634\u06d5\u0642\u0627\u0645\u06cc \u0695\u06d5\u0633\u0648\u0644 \u06af\u06d5\u0631\u062f\u06cc", "amenity": "bank", "name": "\u0645\u0635\u0631\u0641 \u062c\u064a\u0647\u0627\u0646", "name:en": "Bank Cihan", "name:ku": "\u0628\u0627\u0646\u0643\u06cc \u062c\u06cc\u0647\u0627\u0646"}}, {"type": "node", "id": 5604142021, "lat": 36.1673548, "lon": 44.0262468, "tags": {"amenity": "bank", "name": "\u0628\u0627\u0646\u0643\u0649 \u0623\u0628\u0648 \u0636\u0628\u0649", "name:ar": "\u0645\u0635\u0631\u0641 \u0623\u0628\u0648\u0638\u0628\u064a", "name:en": "Abu Dabi Bank", "name:ku": "\u0628\u0627\u0646\u06a9\u06cc \u0627\u0628\u0648 \u0632\u0628\u06cc"}}, {"type": "node", "id": 5694976222, "lat": 36.1777513, "lon": 44.0112656, "tags": {"addr:city": "\u0623\u0631\u0628\u064a\u0644", "addr:country": "IQ", "addr:district": "\u0642\u0636\u0627\u0621 \u0623\u0631\u0628\u064a\u0644", "addr:postcode": "44001", "addr:state": "\u0645\u062d\u0627\u0641\u0638\u0629 \u0623\u0631\u0628\u064a\u0644", "amenity": "bank", "name:en": "Sarwaran Bank"}}, {"type": "node", "id": 5695726561, "lat": 36.1803104, "lon": 44.0153444, "tags": {"addr:city": "\u0623\u0631\u0628\u064a\u0644", "addr:country": "IQ", "addr:district": "\u0642\u0636\u0627\u0621 \u0623\u0631\u0628\u064a\u0644", "addr:postcode": "44001", "addr:state": "\u0645\u062d\u0627\u0641\u0638\u0629 \u0623\u0631\u0628\u064a\u0644", "addr:street": "\u0634\u06d5\u0642\u0627\u0645\u06cc \u0626\u06cc\u0633\u06a9\u0627\u0646", "amenity": "bank", "atm": "yes", "name": "\u0628\u0627\u0646\u06a9\u06cc \u0626\u06cc\u0633\u0644\u0627\u0645\u06cc \u0642\u0648\u0631\u062a\u0627\u0633", "name:en": "Qurtas Islamic Bank"}}, {"type": "node", "id": 5751822621, "lat": 36.3977804, "lon": 44.3290142, "tags": {"amenity": "bank", "name": "\u0633\u0648\u0631\u06a9 \u0628\u0646\u06a9", "name:en": "sork bank", "name:ku": "\u0628\u0627\u0646\u06a9\u06cc \u0633\u06c6\u0631\u06a9"}}, {"type": "node", "id": 5800867854, "lat": 36.2048513, "lon": 43.9997646, "tags": {"addr:city": "\u0623\u0631\u0628\u064a\u0644", "addr:country": "IQ", "addr:district": "\u0642\u0636\u0627\u0621 \u0623\u0631\u0628\u064a\u0644", "addr:postcode": "44001", "addr:state": "\u0645\u062d\u0627\u0641\u0638\u0629 \u0623\u0631\u0628\u064a\u0644", "amenity": "bank", "name:en": "Ashur Bank"}}, {"type": "node", "id": 5884175886, "lat": 36.1602408, "lon": 44.030001, "tags": {"addr:city": "\u0623\u0631\u0628\u064a\u0644", "addr:country": "IQ", "addr:district": "\u0642\u0636\u0627\u0621 \u0623\u0631\u0628\u064a\u0644", "addr:postcode": "44001", "addr:state": "\u0645\u062d\u0627\u0641\u0638\u0629 \u0623\u0631\u0628\u064a\u0644", "addr:street": "\u0634\u06d5\u0642\u0627\u0645\u06cc \u067e\u06ce\u0634\u06d5\u0648\u0627 \u0642\u0627\u0632\u06cc", "amenity": "bank", "name": "\u0628\u0627\u0646\u06a9\u06cc \u067e\u06d5\u0631\u06d5\u067e\u06ce\u062f\u0627\u0646\u06cc \u0646\u06ce\u0648\u062f\u06d5\u0648\u06b5\u06d5\u062a\u06cc", "name:ar": "\u0645\u0635\u0631\u0641 \u0627\u0644\u062a\u0646\u0645\u064a\u0629 \u0627\u0644\u062f\u0648\u0644\u064a", "name:en": "International development bank"}}, {"type": "node", "id": 5964768487, "lat": 36.1944383, "lon": 44.0084564, "tags": {"addr:city": "\u0623\u0631\u0628\u064a\u0644", "addr:country": "IQ", "addr:district": "\u0642\u0636\u0627\u0621 \u0623\u0631\u0628\u064a\u0644", "addr:postcode": "44001", "addr:state": "\u0645\u062d\u0627\u0641\u0638\u0629 \u0623\u0631\u0628\u064a\u0644", "amenity": "bank", "name:en": "Aras Bank"}}, {"type": "node", "id": 5964768488, "lat": 36.19414, "lon": 44.00855, "tags": {"addr:city": "\u0623\u0631\u0628\u064a\u0644", "addr:country": "IQ", "addr:district": "\u0642\u0636\u0627\u0621 \u0623\u0631\u0628\u064a\u0644", "addr:postcode": "44001", "addr:state": "\u0645\u062d\u0627\u0641\u0638\u0629 \u0623\u0631\u0628\u064a\u0644", "amenity": "bank", "name:en": "Zagroz Bank"}}, {"type": "node", "id": 5981675890, "lat": 36.1875015, "lon": 44.0057886, "tags": {"addr:city": "\u0623\u0631\u0628\u064a\u0644", "addr:country": "IQ", "addr:district": "\u0642\u0636\u0627\u0621 \u0623\u0631\u0628\u064a\u0644", "addr:postcode": "44001", "addr:state": "\u0645\u062d\u0627\u0641\u0638\u0629 \u0623\u0631\u0628\u064a\u0644", "addr:street": "\u0634\u06d5\u0642\u0627\u0645\u06cc \u0634\u06ce\u062e\u06cc \u0686\u06c6\u0644\u06cc", "amenity": "bank", "name": "\u0628\u0627\u0646\u06a9\u06cc \u0628\u0627\u06a9\u0648\u0648\u0631", "name:en": "North Bank"}}, {"type": "node", "id": 5981676785, "lat": 36.2164606, "lon": 44.0296972, "tags": {"amenity": "bank", "name:en": "Albir Iraq Bank"}}, {"type": "node", "id": 6013558592, "lat": 36.1951027, "lon": 44.017012, "tags": {"addr:city": "\u0623\u0631\u0628\u064a\u0644", "addr:country": "IQ", "addr:district": "\u0642\u0636\u0627\u0621 \u0623\u0631\u0628\u064a\u0644", "addr:postcode": "44001", "addr:state": "\u0645\u062d\u0627\u0641\u0638\u0629 \u0623\u0631\u0628\u064a\u0644", "amenity": "bank", "name": "\u0628\u0627\u0646\u06a9\u06cc \u0641\u06cc\u062f\u0695\u0627\u06b5", "name:ckb": "\u0628\u0627\u0646\u06a9\u06cc \u0641\u06cc\u062f\u0695\u0627\u06b5", "name:en": "Fedral Bank"}}, {"type": "node", "id": 6162487936, "lat": 36.140965, "lon": 44.0198929}, {"type": "node", "id": 6162487937, "lat": 36.1407109, "lon": 44.0199492}, {"type": "node", "id": 6162487938, "lat": 36.1407589, "lon": 44.0202818}, {"type": "node", "id": 6162487939, "lat": 36.1410131, "lon": 44.0202255}, {"type": "node", "id": 6315504485, "lat": 36.287518, "lon": 44.0329008, "tags": {"addr:city": "\u0623\u0631\u0628\u064a\u0644", "addr:country": "IQ", "addr:state": "\u0645\u062d\u0627\u0641\u0638\u0629 \u0623\u0631\u0628\u064a\u0644", "amenity": "bank", "name:en": "Mnara Bank"}}, {"type": "node", "id": 6396449185, "lat": 36.1839047, "lon": 44.0080533, "tags": {"addr:city": "\u0623\u0631\u0628\u064a\u0644", "addr:country": "IQ", "addr:district": "\u0642\u0636\u0627\u0621 \u0623\u0631\u0628\u064a\u0644", "addr:postcode": "44001", "addr:state": "\u0645\u062d\u0627\u0641\u0638\u0629 \u0623\u0631\u0628\u064a\u0644", "amenity": "bank", "name": "\u0645\u0627\u0644\u064a \u062a\u0648\u0631\u0643\u0645\u0627\u0646", "name:en": "Malitwr\u0137man"}}, {"type": "node", "id": 6432761985, "lat": 36.1832074, "lon": 44.0066303, "tags": {"addr:city": "\u0623\u0631\u0628\u064a\u0644", "addr:country": "IQ", "addr:district": "\u0642\u0636\u0627\u0621 \u0623\u0631\u0628\u064a\u0644", "addr:postcode": "44001", "addr:state": "\u0645\u062d\u0627\u0641\u0638\u0629 \u0623\u0631\u0628\u064a\u0644", "amenity": "bank", "name": "hawler"}}, {"type": "node", "id": 6533669185, "lat": 36.2139756, "lon": 44.0322129, "tags": {"amenity": "bank", "name": "\u0628\u0627\u0646\u06a9\u06cc \u0626\u06cc\u0633\u0644\u0627\u0645\u06cc \u0626\u06ce\u0631\u0627\u0642\u06cc", "name:en": "Iraqi Islamic Bank"}}, {"type": "node", "id": 6535292672, "lat": 36.1688098, "lon": 44.0109717, "tags": {"addr:city": "\u0623\u0631\u0628\u064a\u0644", "addr:country": "IQ", "addr:district": "\u0642\u0636\u0627\u0621 \u0623\u0631\u0628\u064a\u0644", "addr:postcode": "44001", "addr:state": "\u0645\u062d\u0627\u0641\u0638\u0629 \u0623\u0631\u0628\u064a\u0644", "addr:street": "\u0634\u06d5\u0642\u0627\u0645\u06cc \u0642\u0627\u0633\u0645\u0644\u06c6", "amenity": "bank", "name": "erbilian"}}, {"type": "node", "id": 6573083119, "lat": 36.201994, "lon": 44.0444603, "tags": {"amenity": "bank", "brand": "Ziraat Bankas\u0131", "brand:wikidata": "Q696003", "brand:wikipedia": "en:Ziraat Bankas\u0131", "name": "Ziraat Bankas\u0131"}}, {"type": "node", "id": 6584281885, "lat": 36.3137523, "lon": 44.0331445, "tags": {"amenity": "bank", "name": "FastPay \u0628\u0631\u06cc \u0643\u0627\u0631\u06cc"}}, {"type": "node", "id": 6840703585, "lat": 36.2111526, "lon": 44.0460159, "tags": {"addr:city": "\u0623\u0631\u0628\u064a\u0644", "addr:country": "IQ", "addr:district": "\u0642\u0636\u0627\u0621 \u0623\u0631\u0628\u064a\u0644", "addr:postcode": "44001", "addr:state": "\u0645\u062d\u0627\u0641\u0638\u0629 \u0623\u0631\u0628\u064a\u0644", "amenity": "bank"}}, {"type": "node", "id": 7098407299, "lat": 36.1975047, "lon": 44.0225238}, {"type": "node", "id": 7098407300, "lat": 36.197329, "lon": 44.022321}, {"type": "node", "id": 7098407301, "lat": 36.1972379, "lon": 44.0224537}, {"type": "node", "id": 7098407302, "lat": 36.1974207, "lon": 44.022653}, {"type": "node", "id": 7098407307, "lat": 36.1973925, "lon": 44.0223943}, {"type": "node", "id": 7118038433, "lat": 36.1687335, "lon": 44.0109341}, {"type": "node", "id": 7118038434, "lat": 36.1687346, "lon": 44.0107262}, {"type": "node", "id": 7118104227, "lat": 36.1688006, "lon": 44.01093}, {"type": "node", "id": 7118104228, "lat": 36.1688019, "lon": 44.0107258}, {"type": "node", "id": 7120363582, "lat": 36.168746, "lon": 44.0109371}, {"type": "node", "id": 7279816386, "lat": 36.1839942, "lon": 44.040037, "tags": {"addr:city": "\u0623\u0631\u0628\u064a\u0644", "addr:country": "IQ", "addr:district": "\u0642\u0636\u0627\u0621 \u0623\u0631\u0628\u064a\u0644", "addr:postcode": "44001", "addr:state": "\u0645\u062d\u0627\u0641\u0638\u0629 \u0623\u0631\u0628\u064a\u0644", "amenity": "bank", "name": "\u0628\u0627\u0646\u06a9\u06cc \u0628\u0631\u0627\u06cc\u06d5\u062a\u06cc", "name:en": "Brayati Bank"}}, {"type": "node", "id": 7297311420, "lat": 36.1822892, "lon": 44.0122469}, {"type": "node", "id": 7297311421, "lat": 36.1823953, "lon": 44.0122389}, {"type": "node", "id": 7297311422, "lat": 36.1823931, "lon": 44.0125124}, {"type": "node", "id": 7297311423, "lat": 36.1827114, "lon": 44.0124427}, {"type": "node", "id": 7297311424, "lat": 36.1827027, "lon": 44.0121611}, {"type": "node", "id": 7297311425, "lat": 36.1826399, "lon": 44.0121691}, {"type": "node", "id": 7303948769, "lat": 36.1949886, "lon": 44.0168787}, {"type": "node", "id": 7303948770, "lat": 36.1951161, "lon": 44.0169574}, {"type": "node", "id": 7303948771, "lat": 36.1950752, "lon": 44.0170783}, {"type": "node", "id": 7303948772, "lat": 36.1950334, "lon": 44.0171168}, {"type": "node", "id": 7303948773, "lat": 36.1950003, "lon": 44.0171294}, {"type": "node", "id": 7303948774, "lat": 36.1949636, "lon": 44.0172228}, {"type": "node", "id": 7303948775, "lat": 36.1948552, "lon": 44.0171661}, {"type": "node", "id": 7303951132, "lat": 36.1949604, "lon": 44.016929}, {"type": "node", "id": 7303951136, "lat": 36.1949169, "lon": 44.0170271}, {"type": "node", "id": 7323374308, "lat": 36.1777769, "lon": 44.0111846}, {"type": "node", "id": 7323374309, "lat": 36.1774278, "lon": 44.01124}, {"type": "node", "id": 7323374310, "lat": 36.1777562, "lon": 44.0111879}, {"type": "node", "id": 7323374313, "lat": 36.1774824, "lon": 44.0112314}, {"type": "node", "id": 7323393795, "lat": 36.1774203, "lon": 44.0111531}, {"type": "node", "id": 7323393798, "lat": 36.1773944, "lon": 44.0109815}, {"type": "node", "id": 7323393800, "lat": 36.1773814, "lon": 44.0108768}, {"type": "node", "id": 7342833612, "lat": 36.2021386, "lon": 44.0153548}, {"type": "node", "id": 7342896873, "lat": 36.2021002, "lon": 44.0155854}, {"type": "node", "id": 7342898686, "lat": 36.2024337, "lon": 44.0156727}, {"type": "node", "id": 7342898687, "lat": 36.2024859, "lon": 44.0154345}, {"type": "node", "id": 7377488673, "lat": 36.1872784, "lon": 44.0106514}, {"type": "node", "id": 7377488674, "lat": 36.1872294, "lon": 44.0104553}, {"type": "node", "id": 7377488676, "lat": 36.1871333, "lon": 44.0106946}, {"type": "node", "id": 7377488677, "lat": 36.1871004, "lon": 44.0105148}, {"type": "node", "id": 7428588915, "lat": 36.220013, "lon": 44.0219827}, {"type": "node", "id": 7428588916, "lat": 36.220113, "lon": 44.0217635}, {"type": "node", "id": 7428588917, "lat": 36.2199311, "lon": 44.0216283}, {"type": "node", "id": 7428588918, "lat": 36.2199006, "lon": 44.0219017}, {"type": "node", "id": 7798224985, "lat": 36.2044979, "lon": 43.9998881, "tags": {"addr:city": "\u0623\u0631\u0628\u064a\u0644", "addr:country": "IQ", "addr:district": "\u0642\u0636\u0627\u0621 \u0623\u0631\u0628\u064a\u0644", "addr:postcode": "44001", "addr:state": "\u0645\u062d\u0627\u0641\u0638\u0629 \u0623\u0631\u0628\u064a\u0644", "addr:street": "\u0634\u06d5\u0642\u0627\u0645\u06cc \u0639\u06d5\u0646\u06a9\u0627\u0648\u06d5", "amenity": "bank", "name": "\u0628\u0627\u0646\u06a9\u06cc \u0633\u06c6\u0645\u06d5\u0631\u06cc\u06d5", "name:en": "Somaria Bank"}}, {"type": "node", "id": 7947173986, "lat": 36.1780567, "lon": 44.0220967, "tags": {"addr:city": "\u0623\u0631\u0628\u064a\u0644", "addr:country": "IQ", "addr:district": "\u0642\u0636\u0627\u0621 \u0623\u0631\u0628\u064a\u0644", "addr:postcode": "44001", "addr:state": "\u0645\u062d\u0627\u0641\u0638\u0629 \u0623\u0631\u0628\u064a\u0644", "amenity": "bank", "name:en": "BBAC bank"}}, {"type": "node", "id": 8380695117, "lat": 36.228786, "lon": 43.9985115, "tags": {"addr:city": "\u0623\u0631\u0628\u064a\u0644", "addr:country": "IQ", "addr:district": "\u0642\u0636\u0627\u0621 \u0623\u0631\u0628\u064a\u0644", "addr:housenumber": "219", "addr:postcode": "44003", "addr:state": "\u0645\u062d\u0627\u0641\u0638\u0629 \u0623\u0631\u0628\u064a\u0644", "addr:street": "\u0634\u06d5\u0642\u0627\u0645\u06cc \u0634\u0644\u0627\u0645\u0627", "addr:subdistrict": "\u0646\u0627\u062d\u064a\u0629 \u0639\u0646\u0643\u0627\u0648\u0627", "addr:town": "\u0639\u0646\u0643\u0627\u0648\u0627", "amenity": "bank", "email": "brwrya@gmail.com", "name": "\u0628\u0627\u0646\u0643 \u0639\u0646\u0643\u0627\u0648\u0647", "name:en": "Ankawa bank", "name:ku": "Bank ankawa", "opening_hours": "24/7", "phone": "07507117781"}}, {"type": "node", "id": 8414524117, "lat": 36.2000998, "lon": 44.0294758, "tags": {"addr:postcode": "10011", "addr:street": "\u0634\u06d5\u0642\u0627\u0645\u06cc \u0628\u0631\u0627\u06cc\u06d5\u062a\u06cc", "amenity": "bank", "name": "\u067e\u06ce\u06cc \u062c\u0627\u0645\u0639 \u0634\u06cc\u062e \u0627\u0644\u0645\u062d\u06cc \u0627\u0644\u062f\u06cc\u0646", "opening_hours": "24/7"}}, {"type": "node", "id": 8574821918, "lat": 36.357835, "lon": 44.0227578, "tags": {"amenity": "bank", "name": "sbm 55"}}, {"type": "node", "id": 9132092219, "lat": 36.187801, "lon": 44.015285, "tags": {"addr:street": "\u0634\u06d5\u0642\u0627\u0645\u06cc \u0634\u06ce\u062e\u06d5\u06b5\u06b5\u0627", "amenity": "bank", "name": "\u0645\u0643\u062a\u0628 \u0628\u0646\u064a\u0627\u0645\u064a\u0646", "name:en": "bnyamin.CO", "name:ku": "\u0645\u0647 \u0643\u062a\u0647 \u0628 \u0628\u0646\u064a\u0627\u0645\u064a\u0646"}}, {"type": "node", "id": 9221331912, "lat": 36.206096, "lon": 44.1233273, "tags": {"addr:city": "\u0623\u0631\u0628\u064a\u0644", "addr:country": "IQ", "amenity": "bank", "name": "\u0628\u0627\u0646\u0643\u06cc \u062d\u0647\u200c\u0645\u0631\u06cc\u0646", "name:ar": "\u0645\u0635\u0631\u0641 \u062d\u0645\u0631\u064a\u0646", "name:en": "Hamrin Bank"}}, {"type": "node", "id": 9384284166, "lat": 36.1959638, "lon": 44.0648787, "tags": {"addr:full": "ATM-ERBIL-ERBIL MAJIDI MALL 2 R", "amenity": "atm", "atm": "yes", "cash_out": "yes", "currency:IQD": "yes", "language:ar": "yes", "language:en": "yes", "name": "\u0635\u0631\u0627\u0641 \u0622\u0644\u064a - \u0627\u0644\u0645\u0635\u0631\u0641 \u0627\u0644\u0639\u0631\u0627\u0642\u064a \u0644\u0644\u062a\u062c\u0627\u0631\u0629", "name:en": "TBI ATM", "operator": "Trade Bank of Iraq", "website": "https://tbi.com.iq/"}}, {"type": "node", "id": 9384284174, "lat": 36.1953743, "lon": 44.0635708, "tags": {"addr:city": "\u0623\u0631\u0628\u064a\u0644", "addr:full": "Branch - Erbil - Majidi Mall", "addr:street": "\u0634\u06d5\u0642\u0627\u0645\u06cc \u06a9\u06c6\u06cc\u06d5", "amenity": "bank", "atm": "yes", "name": "\u0627\u0644\u0645\u0635\u0631\u0641 \u0627\u0644\u0639\u0631\u0627\u0642\u064a \u0644\u0644\u062a\u062c\u0627\u0631\u0629", "name:ckb": "\u0628\u0627\u0646\u06a9\u06cc \u0639\u06ce\u0631\u0627\u0642 \u0628\u06c6 \u0628\u0627\u0632\u0631\u06af\u0627\u0646\u06cc", "name:en": "Trade Bank of Iraq", "operator": "Trade Bank of Iraq", "website": "https://tbi.com.iq/"}}, {"type": "node", "id": 9384284196, "lat": 36.201837, "lon": 44.019915, "tags": {"addr:city": "\u0623\u0631\u0628\u064a\u0644", "addr:country": "IQ", "addr:district": "\u0642\u0636\u0627\u0621 \u0623\u0631\u0628\u064a\u0644", "addr:full": "ATM - Erbil - Royal Mall", "addr:postcode": "44001", "addr:state": "\u0645\u062d\u0627\u0641\u0638\u0629 \u0623\u0631\u0628\u064a\u0644", "amenity": "atm", "atm": "yes", "cash_out": "yes", "currency:IQD": "yes", "language:ar": "yes", "language:en": "yes", "name": "\u0635\u0631\u0627\u0641 \u0622\u0644\u064a - \u0627\u0644\u0645\u0635\u0631\u0641 \u0627\u0644\u0639\u0631\u0627\u0642\u064a \u0644\u0644\u062a\u062c\u0627\u0631\u0629", "name:en": "TBI ATM", "operator": "Trade Bank of Iraq", "website": "https://tbi.com.iq/"}}, {"type": "node", "id": 9396078620, "lat": 36.1561124, "lon": 44.0043217, "tags": {"addr:city": "\u0623\u0631\u0628\u064a\u0644", "addr:country": "IQ", "addr:district": "\u0642\u0636\u0627\u0621 \u0623\u0631\u0628\u064a\u0644", "addr:postcode": "44001", "addr:state": "\u0645\u062d\u0627\u0641\u0638\u0629 \u0623\u0631\u0628\u064a\u0644", "addr:street": "\u0634\u06d5\u0642\u0627\u0645\u06cc \u067e\u06ce\u0634\u06d5\u0648\u0627 \u0642\u0627\u0632\u06cc", "amenity": "bank", "name": "\u0628\u06d5\u0695\u06ce\u0648\u06d5\u0628\u06d5\u0631\u0627\u06cc\u06d5\u062a\u06cc \u062e\u0627\u0646\u06d5\u0646\u0634\u06cc\u0646\u06cc \u0661", "name:ckb": "\u0628\u06d5\u0695\u06ce\u0648\u06d5\u0628\u06d5\u0631\u0627\u06cc\u06d5\u062a\u06cc \u062e\u0627\u0646\u06d5\u0646\u0634\u06cc\u0646\u06cc \u0661", "name:en": "khananshini1", "name:ku": "\u0628\u06d5\u0695\u06ce\u0648\u06d5\u0628\u06d5\u0631\u0627\u06cc\u06d5\u062a\u06cc \u062e\u0627\u0646\u06d5\u0646\u0634\u06cc\u0646\u06cc \u0661"}}, {"type": "node", "id": 9666542748, "lat": 36.3141477, "lon": 44.0323453}, {"type": "node", "id": 9666542749, "lat": 36.3143399, "lon": 44.0324958}, {"type": "node", "id": 9666542750, "lat": 36.3144661, "lon": 44.0322475}, {"type": "node", "id": 9666542751, "lat": 36.3144895, "lon": 44.0322551}, {"type": "node", "id": 9666542752, "lat": 36.3145634, "lon": 44.0321097}, {"type": "node", "id": 9666542753, "lat": 36.3145292, "lon": 44.0320829}, {"type": "node", "id": 9666542754, "lat": 36.3144557, "lon": 44.0322275}, {"type": "node", "id": 9666542755, "lat": 36.3142782, "lon": 44.0320885}, {"type": "node", "id": 9874444890, "lat": 36.1756988, "lon": 44.0156756}, {"type": "node", "id": 9874444900, "lat": 36.1753983, "lon": 44.0155282}, {"type": "node", "id": 9874444901, "lat": 36.1756741, "lon": 44.0154656}, {"type": "node", "id": 10018259018, "lat": 36.194867, "lon": 44.017246}, {"type": "node", "id": 10018259019, "lat": 36.19483, "lon": 44.0172041}, {"type": "node", "id": 10018259020, "lat": 36.1949248, "lon": 44.0172312}, {"type": "node", "id": 10038938918, "lat": 36.1561697, "lon": 44.0446707, "tags": {"amenity": "bank", "name:en": "Mahmoud"}}, {"type": "node", "id": 10099414405, "lat": 36.1754466, "lon": 44.0157358}, {"type": "node", "id": 10656832372, "lat": 36.1822863, "lon": 44.0120205}, {"type": "node", "id": 10687805027, "lat": 36.1825789, "lon": 44.0119571}, {"type": "node", "id": 10743390405, "lat": 36.1202264, "lon": 44.072484, "tags": {"addr:city": "\u0647\u06d5\u0648\u0644\u06ce\u0631", "amenity": "bank", "name": "\u0645\u0627\u0644\u0649 \u0643\u0627\u0631\u0632\u0627\u0646 \u0639\u0628\u062c\u0627\u0645\u0647"}}, {"type": "node", "id": 10920005305, "lat": 36.2035611, "lon": 44.009389, "tags": {"amenity": "bank", "name": "Imeib saman"}}, {"type": "node", "id": 11066099305, "lat": 36.1793846, "lon": 44.0225366, "tags": {"amenity": "bank", "name:en": "National Bank of Iraq"}}, {"type": "node", "id": 11347925069, "lat": 36.1859769, "lon": 44.014666, "tags": {"amenity": "bank", "name": "\u0634\u0631\u0643\u0629 \u0647\u0627\u0646\u0632\u0648 \u0644\u0644\u0635\u064a\u0631\u0641\u0629"}}, {"type": "node", "id": 11351233871, "lat": 36.1950416, "lon": 44.0170258, "tags": {"addr:postcode": "44001", "amenity": "bank", "name": "\u0628\u0627\u0646\u0643\u06cc \u0695\u0627\u0641\u06cc\u062f\u06d5\u06cc\u0646", "name:ar": "\u0628\u0627\u0646\u0642 \u0631\u0627\u0641\u064a\u062f\u064a\u0646", "name:en": "Rafidain Bank"}}, {"type": "node", "id": 11414939473, "lat": 36.1659778, "lon": 44.0479057, "tags": {"amenity": "bank", "name": "\u06cc\u0648\u0633\u0641 \u0645\u0627\u0645\u06d5\u0633\u06ce\u0646\u06cc"}}, {"type": "node", "id": 11438444769, "lat": 36.4176507, "lon": 44.2981234, "tags": {"amenity": "bank"}}, {"type": "node", "id": 11563837970, "lat": 36.1978634, "lon": 44.0358098, "tags": {"amenity": "bank", "branch": "Erbil", "name": "Union Bank of Iraq", "not:name": "Iraqi Union Bank", "website": "http://www.unionbank.iq/"}}, {"type": "node", "id": 11571455721, "lat": 36.1777132, "lon": 44.0109408}, {"type": "way", "id": 658008410, "nodes": [6162487939, 6162487938, 6162487937, 6162487936, 6162487939], "tags": {"addr:city": "\u0623\u0631\u0628\u064a\u0644", "addr:country": "IQ", "addr:district": "\u0642\u0636\u0627\u0621 \u0623\u0631\u0628\u064a\u0644", "addr:housenumber": "160", "addr:postcode": "44001", "addr:state": "\u0645\u062d\u0627\u0641\u0638\u0629 \u0623\u0631\u0628\u064a\u0644", "addr:street": "\u0634\u06d5\u0642\u0627\u0645\u06cc \u06a9\u06d5\u0631\u06a9\u0648\u0648\u06a9", "amenity": "bank", "building": "yes", "name": "\u0628\u0627\u0646\u06a9\u06cc \u0632\u0627\u0646\u06a9\u06c6", "name:ckb": "\u0628\u0627\u0646\u06a9\u06cc \u0632\u0627\u0646\u06a9\u06c6", "name:ku": "\u0628\u0627\u0646\u06a9\u06cc \u0632\u0627\u0646\u06a9\u06c6", "roof:shape": "flat"}}, {"type": "way", "id": 759861756, "nodes": [7098407299, 7098407307, 7098407300, 7098407301, 7098407302, 7098407299], "tags": {"addr:city": "\u0623\u0631\u0628\u064a\u0644", "addr:country": "IQ", "addr:district": "\u0642\u0636\u0627\u0621 \u0623\u0631\u0628\u064a\u0644", "addr:postcode": "44001", "addr:state": "\u0645\u062d\u0627\u0641\u0638\u0629 \u0623\u0631\u0628\u064a\u0644", "amenity": "bank", "building": "yes", "name": "\u0628\u0627\u0646\u06a9\u06cc \u062f\u0648\u0648\u06cc\u0646"}}, {"type": "way", "id": 761846198, "nodes": [7118038433, 7120363582, 7118104227, 7118104228, 7118038434, 7118038433], "tags": {"addr:city": "\u0623\u0631\u0628\u064a\u0644", "addr:country": "IQ", "addr:district": "\u0642\u0636\u0627\u0621 \u0623\u0631\u0628\u064a\u0644", "addr:postcode": "44001", "addr:state": "\u0645\u062d\u0627\u0641\u0638\u0629 \u0623\u0631\u0628\u064a\u0644", "addr:street": "\u0634\u06d5\u0642\u0627\u0645\u06cc \u0642\u0627\u0633\u0645\u0644\u06c6", "amenity": "bank", "building": "yes"}}, {"type": "way", "id": 781595749, "nodes": [10656832372, 7297311420, 7297311421, 7297311422, 7297311423, 7297311424, 7297311425, 10687805027, 10656832372], "tags": {"addr:city": "\u0623\u0631\u0628\u064a\u0644", "addr:country": "IQ", "addr:district": "\u0642\u0636\u0627\u0621 \u0623\u0631\u0628\u064a\u0644", "addr:postcode": "44001", "addr:state": "\u0645\u062d\u0627\u0641\u0638\u0629 \u0623\u0631\u0628\u064a\u0644", "amenity": "bank", "building": "yes", "name:en": "Erbil Bank"}}, {"type": "way", "id": 782182916, "nodes": [7303948769, 7303948770, 7303948771, 7303948772, 7303948773, 7303948774, 10018259020, 10018259018, 10018259019, 7303948775, 7303951136, 7303951132, 7303948769], "tags": {"addr:city": "\u0623\u0631\u0628\u064a\u0644", "addr:country": "IQ", "addr:district": "\u0642\u0636\u0627\u0621 \u0623\u0631\u0628\u064a\u0644", "addr:housenumber": "278", "addr:postcode": "44001", "addr:state": "\u0645\u062d\u0627\u0641\u0638\u0629 \u0623\u0631\u0628\u064a\u0644", "addr:street": "\u0634\u06d5\u0642\u0627\u0645\u06cc \u0628\u0627\u0631\u0632\u0627\u0646\u06cc \u0646\u06d5\u0645\u0631", "amenity": "bank", "building": "yes", "name": "\u0628\u0627\u0646\u06a9\u06cc \u0641\u06cc\u062f\u0695\u0627\u06b5", "name:ckb": "\u0628\u0627\u0646\u06a9\u06cc \u0641\u06cc\u062f\u0695\u0627\u06b5"}}, {"type": "way", "id": 784003102, "nodes": [7323374308, 11571455721, 7323393800, 7323393798, 7323393795, 7323374309, 7323374313, 7323374310, 7323374308], "tags": {"addr:city": "\u0623\u0631\u0628\u064a\u0644", "addr:country": "IQ", "addr:district": "\u0642\u0636\u0627\u0621 \u0623\u0631\u0628\u064a\u0644", "addr:postcode": "44001", "addr:state": "\u0645\u062d\u0627\u0641\u0638\u0629 \u0623\u0631\u0628\u064a\u0644", "addr:street": "104-2", "amenity": "bank", "building": "yes", "name": "Dedawan Bank"}}, {"type": "way", "id": 785577555, "nodes": [7342896873, 7342898686, 7342898687, 7342833612, 7342896873], "tags": {"addr:city": "\u0623\u0631\u0628\u064a\u0644", "addr:country": "IQ", "addr:district": "\u0642\u0636\u0627\u0621 \u0623\u0631\u0628\u064a\u0644", "addr:full": "\u0642\u0631\u0628 \u062c\u0627\u0645\u0639 \u062c\u0644\u064a\u0644 \u0627\u0644\u062e\u064a\u0627\u0637", "addr:postcode": "44001", "addr:state": "\u0645\u062d\u0627\u0641\u0638\u0629 \u0623\u0631\u0628\u064a\u0644", "addr:street": "\u0634\u0627\u0631\u0639 \u0627\u0644\u0633\u062a\u064a\u0646\u064a", "alt_name:en": "Baghdad Bank", "amenity": "bank", "atm": "yes", "brand": "Bank of Baghdad", "brand:website": "https://www.bankofbaghdad.com.iq/ar/", "brand:wikidata": "Q2075662", "brand:wikipedia": "ar:\u0645\u0635\u0631\u0641 \u0628\u063a\u062f\u0627\u062f", "building": "yes", "contact:email": "Branch727@bankofbaghdad.com.iq", "contact:facebook": "https://www.facebook.com/baghdadbank/?locale=ar_AR", "contact:linkedin": "https://iq.linkedin.com/company/bank-of-baghdad", "contact:website": "https://www.bankofbaghdad.com.iq/ar/\u0627\u062a\u0635\u0644-\u0628\u0646\u0627", "image": "https://i1.wp.com/khamnews.com/wp-content/uploads/2019/05/unnamed-file-10.jpg", "name": "\u0645\u0635\u0631\u0641 \u0628\u063a\u062f\u0627\u062f", "name:ar": "\u0645\u0635\u0631\u0641 \u0628\u063a\u062f\u0627\u062f", "name:ckb": "\u0628\u0627\u0646\u06a9\u06cc \u0628\u06d5\u063a\u062f\u0627", "name:en": "Bank of Baghdad", "opening_hours": "Su-Th 08:00-13:00", "operator": "\u0645\u0639\u0627\u0630 \u0645\u064a\u0633\u0631 \u0639\u0632\u064a\u0632 ; \u062a\u063a\u0631\u064a\u062f \u062c\u0648\u0631\u062c \u0646\u0635\u0648\u0631\u064a", "phone": "9647508224604+", "source:address": "https://www.bankofbaghdad.com.iq/ar/\u0641\u0631\u0648\u0639\u0646\u0627 ; https://i.ibb.co/3fFMq2Q/image.png"}}, {"type": "way", "id": 789126643, "nodes": [7377488673, 7377488676, 7377488677, 7377488674, 7377488673], "tags": {"addr:city": "\u0623\u0631\u0628\u064a\u0644", "addr:country": "IQ", "addr:district": "\u0642\u0636\u0627\u0621 \u0623\u0631\u0628\u064a\u0644", "addr:postcode": "44001", "addr:state": "\u0645\u062d\u0627\u0641\u0638\u0629 \u0623\u0631\u0628\u064a\u0644", "amenity": "bank", "building": "yes"}}, {"type": "way", "id": 794253631, "nodes": [7428588915, 7428588916, 7428588917, 7428588918, 7428588915], "tags": {"addr:city": "\u0623\u0631\u0628\u064a\u0644", "addr:country": "IQ", "addr:district": "\u0642\u0636\u0627\u0621 \u0623\u0631\u0628\u064a\u0644", "addr:postcode": "44001", "addr:state": "\u0645\u062d\u0627\u0641\u0638\u0629 \u0623\u0631\u0628\u064a\u0644", "amenity": "bank", "building": "yes"}}, {"type": "way", "id": 1051893747, "nodes": [9666542748, 9666542749, 9666542750, 9666542751, 9666542752, 9666542753, 9666542754, 9666542755, 9666542748], "tags": {"addr:city": "\u0623\u0631\u0628\u064a\u0644", "addr:country": "IQ", "addr:state": "\u0645\u062d\u0627\u0641\u0638\u0629 \u0623\u0631\u0628\u064a\u0644", "addr:street": "\u0634\u06d5\u0642\u0627\u0645\u06cc \u0628\u06d5\u062d\u0631\u06a9\u06d5", "amenity": "bank", "building": "yes", "name": "\u0628\u0627\u0646\u06a9\u06cc \u0628\u06d5\u062d\u0631\u06a9\u06d5", "name:en": "Baharka Bank"}}, {"type": "way", "id": 1103674857, "nodes": [9874444890, 9874444901, 9874444900, 10099414405, 9874444890], "tags": {"addr:city": "\u0623\u0631\u0628\u064a\u0644", "addr:country": "IQ", "addr:district": "\u0642\u0636\u0627\u0621 \u0623\u0631\u0628\u064a\u0644", "addr:postcode": "44001", "addr:state": "\u0645\u062d\u0627\u0641\u0638\u0629 \u0623\u0631\u0628\u064a\u0644", "addr:street": "\u0634\u06d5\u0642\u0627\u0645\u06cc \u06a9\u0648\u0631\u062f\u0633\u062a\u0627\u0646", "amenity": "bank", "building": "yes", "building:levels": "3", "drive_through": "no", "name": "\u0628\u0627\u0646\u06a9\u06cc \u0628\u06cc\u0628\u0644\u06c6\u0633"}}]}