{"version": 0.6, "generator": "Overpass API 0.7.61.5 4133829e", "osm3s": {"timestamp_osm_base": "2024-03-06T11:17:45Z", "copyright": "The data included in this document is from www.openstreetmap.org. The data is made available under ODbL."}, "elements": [{"type": "node", "id": 2482673028, "lat": 33.8, "lon": 43.1, "tags": {"alt_name": "\u062c\u0627\u0633\u0645 \u0627\u0644\u0645\u062a\u0631", "fixme": "this does not look like a village on aerial imagery", "int_name": "J\u0101sim al Mutar, Jasim al Mutar", "name": "\u062c\u0627\u0633\u0645 \u0627\u0644\u0645\u062a\u0631", "name:ar": "\u062c\u0627\u0633\u0645 \u0627\u0644\u0645\u062a\u0631", "name:ar1": "\u062c\u0627\u0633\u0645 \u0627\u0644\u0645\u062a\u0631", "name:de": "Jasim al Mutar", "name:en": "Jasim al Mutar", "name:fr": "Jasim al Mutar", "place": "village"}}, {"type": "node", "id": 2485126933, "lat": 33.4867851, "lon": 43.3551166, "tags": {"alt_name": "\u0622\u0644 \u0628\u0648 \u0639\u064a\u0634\u0629", "int_name": "\u0100lb\u016b Ayshah, \u0622\u0644\u0628\u0648 \u0639\u064a\u0634\u0629, Albu Ayshah, \u0622\u0644\u0628\u0648 \u0639\u064a\u0634\u0629", "name": "\u0622\u0644 \u0628\u0648 \u0639\u064a\u0634\u0629", "name:ar": "\u0622\u0644 \u0628\u0648 \u0639\u064a\u0634\u0629", "name:ar1": "\u0622\u0644 \u0628\u0648 \u0639\u064a\u0634\u0629", "name:de": "Albu Ayshah", "name:en": "Albu Ayshah", "name:fr": "Albu Ayshah", "place": "hamlet"}}, {"type": "node", "id": 2485134694, "lat": 33.450282, "lon": 43.305054, "tags": {"alt_name": "\u0622\u0644 \u0628\u0648 \u0641\u0631\u062c", "fixme": "3 different village names within 100 meters? -> unite & decide the names!", "int_name": "\u0100lb\u016b Faraj, \u0622\u0644\u0628\u0648 \u0641\u0631\u062c, Albu Faraj, \u0622\u0644\u0628\u0648 \u0641\u0631\u062c", "name": "\u0622\u0644 \u0628\u0648 \u0641\u0631\u0627\u062c", "name:ar": "\u0622\u0644 \u0628\u0648 \u0641\u0631\u0627\u062c", "name:ar1": "\u0622\u0644 \u0628\u0648 \u0641\u0631\u062c", "name:de": "Albu Faraj", "name:en": "Albu Faraj", "name:fr": "Albu Faraj", "place": "village"}}, {"type": "node", "id": 2485139975, "lat": 33.4732334, "lon": 43.2544552, "tags": {"alt_name": "\u0635\u0631\u0627\u0629 \u0622\u0644 \u0628\u0648 \u0630\u064a\u0627\u0628", "int_name": "\u015eur\u0101t \u0100lb\u016b Dhiy\u0101b, \u0635\u0631\u0627\u0629 \u0627\u0644\u0628\u0648 \u0630\u064a\u0627\u0628, Surat Albu Dhiyab, \u0635\u0631\u0627\u0629 \u0627\u0644\u0628\u0648 \u0630\u064a\u0627\u0628", "name": "\u0635\u0631\u0627\u0629 \u0622\u0644 \u0628\u0648 \u0630\u064a\u0627\u0628", "name:ar": "\u0635\u0631\u0627\u0629 \u0622\u0644 \u0628\u0648 \u0630\u064a\u0627\u0628", "name:ar1": "\u0635\u0631\u0627\u0629 \u0622\u0644 \u0628\u0648 \u0630\u064a\u0627\u0628", "name:de": "Surat Albu Dhiyab", "name:en": "Surat Albu Dhiyab", "name:fr": "Surat Albu Dhiyab", "place": "village"}}, {"type": "node", "id": 2485140611, "lat": 33.5261427, "lon": 43.1619347, "tags": {"alt_name": "\u0639\u0631\u0628 \u0622\u0644 \u0628\u0648 \u0639\u0635\u0627\u0641", "int_name": "Arab \u0100lb\u016b A\u015f\u0101f, \u0639\u0631\u0628 \u0627\u0644\u0628\u0648 \u0639\u0635\u0627\u0641, Arab Albu Asaf, \u0639\u0631\u0628 \u0627\u0644\u0628\u0648 \u0639\u0635\u0627\u0641", "name": "\u0639\u0631\u0628 \u0622\u0644 \u0628\u0648 \u0639\u0635\u0627\u0641", "name:ar": "\u0639\u0631\u0628 \u0622\u0644 \u0628\u0648 \u0639\u0635\u0627\u0641", "name:ar1": "\u0639\u0631\u0628 \u0622\u0644 \u0628\u0648 \u0639\u0635\u0627\u0641", "name:de": "Arab Albu Asaf", "name:en": "Arab Albu Asaf", "name:fr": "Arab Albu Asaf", "place": "village"}}, {"type": "node", "id": 2485140616, "lat": 33.5361566, "lon": 43.1223499, "tags": {"alt_name": "\u0639\u064a\u0646 \u062d\u0645\u0648\u062f\u064a \u0623\u062d\u0645\u062f", "int_name": "Ayn \u1e28am\u016bd\u012b A\u1e29mad, \u0639\u064a\u0646 \u062d\u0645\u0648\u062f\u064a \u0627\u062d\u0645\u062f, Ayn Hamudi Ahmad, \u0639\u064a\u0646 \u062d\u0645\u0648\u062f\u064a \u0627\u062d\u0645\u062f", "name": "\u0639\u064a\u0646 \u062d\u0645\u0648\u062f\u064a \u0623\u062d\u0645\u062f", "name:ar": "\u0639\u064a\u0646 \u062d\u0645\u0648\u062f\u064a \u0623\u062d\u0645\u062f", "name:ar1": "\u0639\u064a\u0646 \u062d\u0645\u0648\u062f\u064a \u0623\u062d\u0645\u062f", "name:de": "Ayn Hamudi Ahmad", "name:en": "Ayn Hamudi Ahmad", "name:fr": "Ayn Hamudi Ahmad", "place": "village"}}, {"type": "node", "id": 2485140620, "lat": 33.5271815, "lon": 43.1409918, "tags": {"alt_name": "\u0633\u064a\u062f \u0639\u0628\u062f \u0627\u0644\u0644\u0647 \u0639\u0644\u064a", "fixme": "and another 2 villages one house <50m away from each other with similar names. -> unite & decide the names!", "int_name": "Sayyid Abd All\u0101h Al\u012b, Sayyid Abd Allah Ali", "name": "\u0633\u064a\u062f \u0639\u0628\u062f \u0627\u0644\u0644\u0647 \u0639\u0644\u064a", "name:ar": "\u0633\u064a\u062f \u0639\u0628\u062f \u0627\u0644\u0644\u0647 \u0639\u0644\u064a", "name:ar1": "\u0633\u064a\u062f \u0639\u0628\u062f \u0627\u0644\u0644\u0647 \u0639\u0644\u064a", "name:de": "Sayyid Abd Allah Ali", "name:en": "Sayyid Abd Allah Ali", "name:fr": "Sayyid Abd Allah Ali", "name:ru": "\u0421\u0430\u0438\u0434-\u0410\u0431\u0434\u0430\u043b\u043b\u0430\u0445-\u0410\u043b\u0438", "place": "village"}}, {"type": "node", "id": 2485140621, "lat": 33.5267922, "lon": 43.1404501, "tags": {"alt_name": "\u0633\u064a\u062f \u0639\u0628\u062f \u0627\u0644\u0644\u0647", "fixme": "and another 2 villages one house <50m away from each other with similar names. -> unite & decide the names!", "int_name": "Sayyid Abd All\u0101h, \u0633\u064a\u062f \u0639\u0628\u062f\u0627\u0644\u0644\u0647, Sayyid Abd Allah, \u0633\u064a\u062f \u0639\u0628\u062f\u0627\u0644\u0644\u0647", "name": "\u0633\u064a\u062f \u0639\u0628\u062f \u0627\u0644\u0644\u0647", "name:ar": "\u0633\u064a\u062f \u0639\u0628\u062f \u0627\u0644\u0644\u0647", "name:ar1": "\u0633\u064a\u062f \u0639\u0628\u062f \u0627\u0644\u0644\u0647", "name:de": "Sayyid Abd Allah", "name:en": "Sayyid Abd Allah", "name:fr": "Sayyid Abd Allah", "place": "village"}}, {"type": "node", "id": 2485140629, "lat": 33.5086977, "lon": 43.1571276, "tags": {"alt_name": "\u0639\u0631\u0628 \u0645\u0646\u0627\u062c\u0628\u0647", "name": "\u0639\u0631\u0628 \u0645\u0646\u0627\u062c\u0628\u0647", "name:ar": "\u0639\u0631\u0628 \u0645\u0646\u0627\u062c\u0628\u0647", "name:ar1": "\u0639\u0631\u0628 \u0645\u0646\u0627\u062c\u0628\u0647", "place": "hamlet"}}, {"type": "node", "id": 2485143525, "lat": 33.4792407, "lon": 43.2023688, "tags": {"alt_name": "\u0622\u0644 \u0628\u0648 \u063a\u0644\u0627\u0628", "int_name": "\u0100lb\u016b Ghall\u0101b, \u0627\u0644\u0628\u0648 \u063a\u0644\u0627\u0628, Albu Ghallab, \u0627\u0644\u0628\u0648 \u063a\u0644\u0627\u0628", "name": "\u0622\u0644 \u0628\u0648 \u063a\u0644\u0627\u0628", "name:ar": "\u0622\u0644 \u0628\u0648 \u063a\u0644\u0627\u0628", "name:ar1": "\u0622\u0644 \u0628\u0648 \u063a\u0644\u0627\u0628", "name:de": "Albu Ghallab", "name:en": "Albu Ghallab", "name:fr": "Albu Ghallab", "place": "village"}}, {"type": "node", "id": 2485143536, "lat": 33.479872, "lon": 43.2022524, "tags": {"alt_name": "\u0642\u0631\u064a\u0629 \u0622\u0644 \u0628\u0648 \u062f\u0644\u0627\u0644", "int_name": "Qaryat \u0100lb\u016b Dal\u0101l, \u0642\u0631\u064a\u0629 \u0627\u0644\u0628\u0648 \u062f\u0644\u0627\u0644, Qaryat Albu Dalal, \u0642\u0631\u064a\u0629 \u0627\u0644\u0628\u0648 \u062f\u0644\u0627\u0644", "name": "\u0642\u0631\u064a\u0629 \u0622\u0644 \u0628\u0648 \u062f\u0644\u0627\u0644", "name:ar": "\u0642\u0631\u064a\u0629 \u0622\u0644 \u0628\u0648 \u062f\u0644\u0627\u0644", "name:ar1": "\u0642\u0631\u064a\u0629 \u0622\u0644 \u0628\u0648 \u062f\u0644\u0627\u0644", "name:de": "Qaryat Albu Dalal", "name:en": "Qaryat Albu Dalal", "name:fr": "Qaryat Albu Dalal", "place": "village"}}, {"type": "node", "id": 2485144061, "lat": 33.4956399, "lon": 43.2111609, "tags": {"alt_name": "\u0642\u0631\u064a\u0629 \u0627\u0644\u0646\u0641\u0627\u0637\u0629", "int_name": "Qaryat an Naff\u0101\u0163ah, \u0642\u0631\u064a\u0629 \u0627\u0644\u0646\u0641\u0627\u0637\u0629, Qaryat an Naffatah, \u0642\u0631\u064a\u0629 \u0627\u0644\u0646\u0641\u0627\u0637\u0629", "name": "\u0642\u0631\u064a\u0629 \u0627\u0644\u0646\u0641\u0627\u0637\u0629", "name:ar": "\u0642\u0631\u064a\u0629 \u0627\u0644\u0646\u0641\u0627\u0637\u0629", "name:ar1": "\u0642\u0631\u064a\u0629 \u0627\u0644\u0646\u0641\u0627\u0637\u0629", "name:de": "Qaryat an Naffatah", "name:en": "Qaryat an Naffatah", "name:fr": "Qaryat an Naffatah", "place": "village"}}, {"type": "node", "id": 2485145395, "lat": 33.4951226, "lon": 43.0395041, "tags": {"alt_name": "\u062e\u0627\u0646 \u0623\u0628\u0648 \u0627\u0644\u0631\u0627\u064a\u0627\u062a", "int_name": "Kh\u0101n Ab\u016b ar R\u0101y\u0101t, Khan Abu ar Rayat", "name": "\u062e\u0627\u0646 \u0623\u0628\u0648 \u0627\u0644\u0631\u0627\u064a\u0627\u062a", "name:ar": "\u062e\u0627\u0646 \u0623\u0628\u0648 \u0627\u0644\u0631\u0627\u064a\u0627\u062a", "name:ar1": "\u062e\u0627\u0646 \u0623\u0628\u0648 \u0627\u0644\u0631\u0627\u064a\u0627\u062a", "name:de": "Khan Abu ar Rayat", "name:en": "Khan Abu ar Rayat", "name:fr": "Khan Abu ar Rayat", "name:ru": "\u0425\u0430\u043d-\u0410\u0431\u0443-\u044d\u0440-\u0420\u0430\u044f\u0442", "place": "village"}}, {"type": "node", "id": 2485145870, "lat": 33.5067464, "lon": 43.0527899, "tags": {"alt_name": "\u0622\u0644 \u0628\u0648 \u0645\u062d\u0645\u062f \u062c\u0627\u0633\u0645", "int_name": "\u0100lb\u016b Mu\u1e29ammad J\u0101sim, \u0627\u0644\u0628\u0648 \u0645\u062d\u0645\u062f \u062c\u0627\u0633\u0645, Albu Muhammad Jasim, \u0627\u0644\u0628\u0648 \u0645\u062d\u0645\u062f \u062c\u0627\u0633\u0645", "name": "\u0622\u0644 \u0628\u0648 \u0645\u062d\u0645\u062f \u062c\u0627\u0633\u0645", "name:ar": "\u0622\u0644 \u0628\u0648 \u0645\u062d\u0645\u062f \u062c\u0627\u0633\u0645", "name:ar1": "\u0622\u0644 \u0628\u0648 \u0645\u062d\u0645\u062f \u062c\u0627\u0633\u0645", "name:de": "Albu Muhammad Jasim", "name:en": "Albu Muhammad Jasim", "name:fr": "Albu Muhammad Jasim", "place": "village"}}, {"type": "node", "id": 2485145876, "lat": 33.521412, "lon": 43.044614, "tags": {"alt_name": "\u0639\u0631\u0628 \u0623\u0628\u0648 \u0646\u0645\u0631", "int_name": "Arab Ab\u016b Namir, \u0639\u0631\u0628 \u0627\u0628\u0648 \u0646\u0645\u0631, Arab Abu Namir, \u0639\u0631\u0628 \u0627\u0628\u0648 \u0646\u0645\u0631", "name": "\u0632\u0648\u064a\u0629 \u0627\u0644\u0628\u0648\u0646\u0645\u0631", "name:ar": "\u0639\u0631\u0628 \u0623\u0628\u0648 \u0646\u0645\u0631", "name:ar1": "\u0639\u0631\u0628 \u0623\u0628\u0648 \u0646\u0645\u0631", "name:de": "Arab Abu Namir", "name:en": "Arab Abu Namir", "name:fr": "Arab Abu Namir", "place": "village"}}, {"type": "node", "id": 2485145887, "lat": 33.528449, "lon": 43.0402718, "tags": {"alt_name": "\u0643\u0631\u062f \u062d\u0645\u062f \u0646\u0627\u064a\u0641", "int_name": "Kurd \u1e28amad N\u0101yif, \u06a9\u0631\u062f \u062d\u0645\u062f \u0646\u0627\u064a\u0641, Kurd Hamad Nayif, \u06a9\u0631\u062f \u062d\u0645\u062f \u0646\u0627\u064a\u0641", "name": "\u0643\u0631\u062f \u062d\u0645\u062f \u0646\u0627\u064a\u0641", "name:ar": "\u0643\u0631\u062f \u062d\u0645\u062f \u0646\u0627\u064a\u0641", "name:ar1": "\u0643\u0631\u062f \u062d\u0645\u062f \u0646\u0627\u064a\u0641", "name:de": "Kurd Hamad Nayif", "name:en": "Kurd Hamad Nayif", "name:fr": "Kurd Hamad Nayif", "place": "village"}}, {"type": "node", "id": 2485145909, "lat": 33.4987703, "lon": 43.0802225, "tags": {"alt_name": "\u0646\u0635\u064a\u0641 \u062c\u0627\u0633\u0645", "int_name": "Na\u015f\u012bf J\u0101sim, \u0646\u0635\u064a\u0641 \u062c\u0627\u0633\u0645, Nasif Jasim, \u0646\u0635\u064a\u0641 \u062c\u0627\u0633\u0645", "name": "\u0646\u0635\u064a\u0641 \u062c\u0627\u0633\u0645", "name:ar": "\u0646\u0635\u064a\u0641 \u062c\u0627\u0633\u0645", "name:ar1": "\u0646\u0635\u064a\u0641 \u062c\u0627\u0633\u0645", "name:de": "Nasif Jasim", "name:en": "Nasif Jasim", "name:fr": "Nasif Jasim", "place": "village"}}, {"type": "node", "id": 2485146004, "lat": 33.5199573, "lon": 42.9867979, "tags": {"alt_name": "\u0623\u0628\u0648 \u062a\u0628\u0646", "int_name": "Ab\u016b Tibban, \u0627\u0628\u0648 \u062a\u0628\u0646, Abu Tibban, \u0627\u0628\u0648 \u062a\u0628\u0646", "name": "\u0623\u0628\u0648 \u0627\u0644\u0637\u064a\u0628\u064a\u0646", "name:ar": "\u0623\u0628\u0648 \u0637\u064a\u0628\u0627\u0646", "name:ar1": "\u0623\u0628\u0648 \u062a\u0628\u0646", "name:de": "Abu Tibban", "name:en": "Abu Tibban", "name:fr": "Abu Tibban", "place": "village"}}, {"type": "node", "id": 2485146008, "lat": 33.5328723, "lon": 43.0781776, "tags": {"alt_name": "\u062d\u0648\u064a\u062c\u0629 \u0627\u0644\u0637\u0631\u0627\u0628\u0634\u0629", "int_name": "\u1e28aw\u012bjat a\u0163 \u0162ar\u0101bishah, \u062d\u0648\u064a\u062c\u0629 \u0627\u0644\u0637\u0631\u0627\u0628\u0634\u0629, Hawijat at Tarabishah, \u062d\u0648\u064a\u062c\u0629 \u0627\u0644\u0637\u0631\u0627\u0628\u0634\u0629", "name": "\u062d\u0648\u064a\u062c\u0629 \u0627\u0644\u0637\u0631\u0627\u0628\u0634\u0629", "name:ar": "\u062d\u0648\u064a\u062c\u0629 \u0627\u0644\u0637\u0631\u0627\u0628\u0634\u0629", "name:ar1": "\u062d\u0648\u064a\u062c\u0629 \u0627\u0644\u0637\u0631\u0627\u0628\u0634\u0629", "name:de": "Hawijat at Tarabishah", "name:en": "Hawijat at Tarabishah", "name:fr": "Hawijat at Tarabishah", "place": "village"}}, {"type": "node", "id": 2485146010, "lat": 33.519759, "lon": 43.000856, "tags": {"name": "\u0645\u0631\u064a\u062d \u0627\u0644\u0633\u0631\u0648\u0627\u0646", "name:ar": "\u0645\u0631\u064a\u062d \u0627\u0644\u0633\u0631\u0648\u0627\u0646", "name:ar-Latn": "Mur\u012b\u1e29 as Sarw\u0101n", "name:de": "Murih as Sarwan", "name:en": "Murih as Sarwan", "place": "village"}}, {"type": "node", "id": 2485146012, "lat": 33.5206924, "lon": 43.0905381, "tags": {"alt_name": "\u062a\u0631\u0643\u064a \u0641\u0647\u062f", "int_name": "Turk\u012b Fahd, \u062a\u0631\u06a9\u064a \u0641\u0647\u062f, Turki Fahd, \u062a\u0631\u06a9\u064a \u0641\u0647\u062f", "name": "\u062a\u0631\u0643\u064a \u0641\u0647\u062f", "name:ar": "\u062a\u0631\u0643\u064a \u0641\u0647\u062f", "name:ar1": "\u062a\u0631\u0643\u064a \u0641\u0647\u062f", "name:de": "Turki Fahd", "name:en": "Turki Fahd", "name:fr": "Turki Fahd", "place": "village"}}, {"type": "node", "id": 2485146013, "lat": 33.5223425, "lon": 43.0983493, "tags": {"alt_name": "\u0632\u0646\u0642\u0648\u0631\u0629", "int_name": "Zanq\u016brah, Zanqurah", "name": "\u0632\u0646\u0642\u0648\u0631\u0629", "name:ar": "\u0632\u0646\u0642\u0648\u0631\u0629", "name:ar1": "\u0632\u0646\u0642\u0648\u0631\u0629", "name:de": "Zanqurah", "name:en": "Zanqurah", "name:fr": "Zanqurah", "place": "village"}}, {"type": "node", "id": 2485147248, "lat": 33.5420559, "lon": 43.0088631, "tags": {"alt_name": "\u0639\u0648\u062f\u0629 \u062c\u0631\u0627\u062f", "int_name": "A\u016bdat Jar\u0101d, \u0639\u0648\u062f\u0629 \u062c\u0631\u0627\u062f, Audat Jarad, \u0639\u0648\u062f\u0629 \u062c\u0631\u0627\u062f", "name": "\u0639\u0648\u062f\u0629 \u062c\u0631\u0627\u062f", "name:ar": "\u0639\u0648\u062f\u0629 \u062c\u0631\u0627\u062f", "name:ar1": "\u0639\u0648\u062f\u0629 \u062c\u0631\u0627\u062f", "name:de": "Audat Jarad", "name:en": "Audat Jarad", "name:fr": "Audat Jarad", "place": "village"}}, {"type": "node", "id": 2485147257, "lat": 33.5289182, "lon": 43.0671669, "tags": {"alt_name": "\u0643\u0631\u062f \u0635\u0627\u0644\u062d \u0646\u0627\u0635\u0631", "int_name": "Kurd \u015e\u0101la\u1e29 N\u0101\u015fr, \u06a9\u0631\u062f \u0635\u0627\u0644\u062d \u0646\u0627\u0635\u0631, Kurd Salah Nasr, \u06a9\u0631\u062f \u0635\u0627\u0644\u062d \u0646\u0627\u0635\u0631", "name": "\u0643\u0631\u062f \u0635\u0627\u0644\u062d \u0646\u0627\u0635\u0631", "name:ar": "\u0643\u0631\u062f \u0635\u0627\u0644\u062d \u0646\u0627\u0635\u0631", "name:ar1": "\u0643\u0631\u062f \u0635\u0627\u0644\u062d \u0646\u0627\u0635\u0631", "name:de": "Kurd Salah Nasr", "name:en": "Kurd Salah Nasr", "name:fr": "Kurd Salah Nasr", "place": "village"}}, {"type": "node", "id": 2485149631, "lat": 33.4549915, "lon": 43.3574901, "tags": {"alt_name": "\u0639\u062c\u0644 \u0627\u0644\u0633\u0627\u0644\u0645", "int_name": "Ajal as S\u0101lim, Ajal as Salim", "name": "\u0639\u062c\u0644 \u0627\u0644\u0633\u0627\u0644\u0645", "name:ar": "\u0639\u062c\u0644 \u0627\u0644\u0633\u0627\u0644\u0645", "name:ar1": "\u0639\u062c\u0644 \u0627\u0644\u0633\u0627\u0644\u0645", "name:de": "Ajal as Salim", "name:en": "Ajal as Salim", "name:fr": "Ajal as Salim", "place": "village"}}, {"type": "node", "id": 2485149689, "lat": 33.4479343, "lon": 43.3626602, "tags": {"alt_name": "\u0622\u0644 \u0628\u0648 \u0633\u062d\u0644 \u0648 \u0622\u0644 \u0628\u0648 \u0635\u0643\u0631", "int_name": "\u0100lb\u016b Sa\u1e29l wa \u0100lb\u016b \u015eakr, Albu Sahl wa Albu Sakr", "name": "\u0622\u0644 \u0628\u0648 \u0633\u062d\u0644 \u0648 \u0622\u0644 \u0628\u0648 \u0635\u0643\u0631", "name:ar": "\u0622\u0644 \u0628\u0648 \u0633\u062d\u0644 \u0648 \u0622\u0644 \u0628\u0648 \u0635\u0643\u0631", "name:ar1": "\u0622\u0644 \u0628\u0648 \u0633\u062d\u0644 \u0648 \u0622\u0644 \u0628\u0648 \u0635\u0643\u0631", "name:de": "Albu Sahl wa Albu Sakr", "name:en": "Albu Sahl wa Albu Sakr", "name:fr": "Albu Sahl wa Albu Sakr", "place": "village"}}, {"type": "node", "id": 2485153146, "lat": 33.458056, "lon": 43.392778, "tags": {"alt_name": "\u0639\u0644\u064a \u0627\u0644\u0646\u0639\u0645\u0627\u0646", "int_name": "Al\u012b an Num\u0101n, Ali an Numan", "name": "\u0639\u0644\u064a \u0627\u0644\u0646\u0639\u0645\u0627\u0646", "name:ar": "\u0639\u0644\u064a \u0627\u0644\u0646\u0639\u0645\u0627\u0646", "name:ar1": "\u0639\u0644\u064a \u0627\u0644\u0646\u0639\u0645\u0627\u0646", "name:de": "Ali an Numan", "name:en": "Ali an Numan", "name:fr": "Ali an Numan", "name:ru": "\u0410\u043b\u0438-\u044d\u043d-\u041d\u043e\u043c\u0430\u043d", "place": "village"}}, {"type": "node", "id": 2485153158, "lat": 33.4488704, "lon": 43.4201822, "tags": {"alt_name": "\u0645\u0646\u0637\u0642\u0629 \u0622\u0644 \u0628\u0648 \u062d\u0646\u0629", "int_name": "Min\u0163aqat \u0100lb\u016b \u1e28innah, \u0645\u0646\u0637\u0642\u0629 \u0622\u0644\u0628\u0648 \u062d\u0646\u0629, Mintaqat Albu Hinnah, \u0645\u0646\u0637\u0642\u0629 \u0622\u0644\u0628\u0648 \u062d\u0646\u0629", "name": "\u0645\u0646\u0637\u0642\u0629 \u0622\u0644 \u0628\u0648 \u062d\u0646\u0629", "name:ar": "\u0645\u0646\u0637\u0642\u0629 \u0622\u0644 \u0628\u0648 \u062d\u0646\u0629", "name:ar1": "\u0645\u0646\u0637\u0642\u0629 \u0622\u0644 \u0628\u0648 \u062d\u0646\u0629", "name:de": "Mintaqat Albu Hinnah", "name:en": "Mintaqat Albu Hinnah", "name:fr": "Mintaqat Albu Hinnah", "place": "village"}}, {"type": "node", "id": 2485155848, "lat": 33.4479105, "lon": 43.4414231, "tags": {"alt_name": "\u0627\u0644\u0641\u0631\u0633\u0627\u0646", "int_name": "Al Furs\u0101n, Al Fursan", "name": "\u0627\u0644\u0641\u0631\u0633\u0627\u0646", "name:ar": "\u0627\u0644\u0641\u0631\u0633\u0627\u0646", "name:ar1": "\u0627\u0644\u0641\u0631\u0633\u0627\u0646", "name:de": "Al Fursan", "name:en": "Al Fursan", "name:fr": "Al Fursan", "place": "village"}}, {"type": "node", "id": 2485155890, "lat": 33.4568732, "lon": 43.4948788, "tags": {"alt_name": "\u0622\u0644 \u0628\u0648 \u0628\u0627\u0646\u064a", "int_name": "Alb\u016b B\u0101n\u012b, Albu Bani, \u0100lb\u016b B\u0101l\u012b, \u0627\u0644\u0628\u0648 \u0628\u0627\u0644\u064a, Albu Bali, \u0627\u0644\u0628\u0648 \u0628\u0627\u0644\u064a", "name": "\u0622\u0644 \u0628\u0648 \u0628\u0627\u0646\u064a", "name:ar": "\u0622\u0644 \u0628\u0648 \u0628\u0627\u0646\u064a", "name:ar1": "\u0622\u0644 \u0628\u0648 \u0628\u0627\u0646\u064a", "name:de": "Albu Bani", "name:en": "Albu Bani", "name:fr": "Albu Bani", "place": "hamlet"}}, {"type": "node", "id": 2485155909, "lat": 33.45768, "lon": 43.4399181, "tags": {"alt_name": "\u0622\u0644 \u0628\u0648 \u0641\u0647\u062f", "int_name": "\u0100lb\u016b Fahd, \u0627\u0644\u0628\u0648 \u0641\u0647\u062f, Albu Fahd, \u0627\u0644\u0628\u0648 \u0641\u0647\u062f", "name": "\u0622\u0644 \u0628\u0648 \u0641\u0647\u062f", "name:ar": "\u0622\u0644 \u0628\u0648 \u0641\u0647\u062f", "name:ar1": "\u0622\u0644 \u0628\u0648 \u0641\u0647\u062f", "name:de": "Albu Fahd", "name:en": "Albu Fahd", "name:fr": "Albu Fahd", "place": "village"}}, {"type": "node", "id": 2486322631, "lat": 33.4892488, "lon": 43.2742385, "tags": {"alt_name": "\u0622\u0644 \u0628\u0648 \u0630\u064a\u0627\u0628", "int_name": "\u0100lb\u016b Dhiy\u0101b, \u0622\u0644\u0628\u0648 \u0630\u064a\u0627\u0628, Albu Dhiyab, \u0622\u0644\u0628\u0648 \u0630\u064a\u0627\u0628", "name": "\u0622\u0644 \u0628\u0648 \u0630\u064a\u0627\u0628", "name:ar": "\u0622\u0644 \u0628\u0648 \u0630\u064a\u0627\u0628", "name:ar1": "\u0622\u0644 \u0628\u0648 \u0630\u064a\u0627\u0628", "name:de": "Albu Dhiyab", "name:en": "Albu Dhiyab", "name:fr": "Albu Dhiyab", "place": "village"}}, {"type": "node", "id": 2486322633, "lat": 33.49332, "lon": 43.2773606, "tags": {"alt_name": "\u062d\u0628\u064a\u0628 \u0627\u0644\u0646\u062c\u0645", "int_name": "\u1e28ab\u012bb an Najm, Habib an Najm", "name": "\u062d\u0628\u064a\u0628 \u0627\u0644\u0646\u062c\u0645", "name:ar": "\u062d\u0628\u064a\u0628 \u0627\u0644\u0646\u062c\u0645", "name:ar1": "\u062d\u0628\u064a\u0628 \u0627\u0644\u0646\u062c\u0645", "name:de": "Habib an Najm", "name:en": "Habib an Najm", "name:fr": "Habib an Najm", "place": "village"}}, {"type": "node", "id": 2486323275, "lat": 33.4676706, "lon": 43.2314929, "tags": {"alt_name": "\u0622\u0644 \u0628\u0648 \u0631\u064a\u0634\u0629", "int_name": "Ab\u016b Rishah, \u0100lb\u016b R\u012bshah, \u0627\u0644\u0628\u0648 \u0631\u064a\u0634\u0629, Abu Rishah, Albu Rishah, \u0627\u0644\u0628\u0648 \u0631\u064a\u0634\u0629", "name": "\u0622\u0644 \u0628\u0648 \u0631\u064a\u0634\u0629", "name:ar": "\u0622\u0644 \u0628\u0648 \u0631\u064a\u0634\u0629", "name:ar1": "\u0622\u0644 \u0628\u0648 \u0631\u064a\u0634\u0629", "name:de": "Abu Rishah", "name:en": "Abu Rishah", "name:fr": "Abu Rishah", "place": "village"}}, {"type": "node", "id": 2486323285, "lat": 33.4732987, "lon": 43.2321248, "tags": {"alt_name": "\u0633\u0644\u064a\u0645\u0627\u0646 \u0639\u0628\u062f \u0627\u0644\u062d\u0645\u064a\u062f", "int_name": "Sulaym\u0101n Abd al \u1e28am\u012bd, \u0633\u0644\u064a\u0645\u0627\u0646 \u0639\u0628\u062f \u0627\u0644\u062d\u0645\u064a\u062f, Sulayman Abd al Hamid, \u0633\u0644\u064a\u0645\u0627\u0646 \u0639\u0628\u062f \u0627\u0644\u062d\u0645\u064a\u062f", "name": "\u0633\u0644\u064a\u0645\u0627\u0646 \u0639\u0628\u062f \u0627\u0644\u062d\u0645\u064a\u062f", "name:ar": "\u0633\u0644\u064a\u0645\u0627\u0646 \u0639\u0628\u062f \u0627\u0644\u062d\u0645\u064a\u062f", "name:ar1": "\u0633\u0644\u064a\u0645\u0627\u0646 \u0639\u0628\u062f \u0627\u0644\u062d\u0645\u064a\u062f", "name:de": "Sulayman Abd al Hamid", "name:en": "Sulayman Abd al Hamid", "name:fr": "Sulayman Abd al Hamid", "place": "village"}}, {"type": "node", "id": 2488392057, "lat": 33.685278, "lon": 43.490833, "tags": {"alt_name": "\u0645\u062f\u064a\u0646\u0629 \u0628\u062d\u064a\u0631\u0629 \u0627\u0644\u062b\u0631\u062b\u0627\u0631", "int_name": "Mad\u012bnat Bu\u1e29ayrat ath Tharth\u0101r, Madinat Buhayrat ath Tharthar", "name": "\u0645\u062f\u064a\u0646\u0629 \u0628\u062d\u064a\u0631\u0629 \u0627\u0644\u062b\u0631\u062b\u0627\u0631", "name:ar": "\u0645\u062f\u064a\u0646\u0629 \u0628\u062d\u064a\u0631\u0629 \u0627\u0644\u062b\u0631\u062b\u0627\u0631", "name:ar1": "\u0645\u062f\u064a\u0646\u0629 \u0628\u062d\u064a\u0631\u0629 \u0627\u0644\u062b\u0631\u062b\u0627\u0631", "name:de": "Madinat Buhayrat ath Tharthar", "name:en": "Madinat Buhayrat ath Tharthar", "name:fr": "Madinat Buhayrat ath Tharthar", "place": "village"}}, {"type": "node", "id": 3543582200, "lat": 33.4638317, "lon": 43.3813515}, {"type": "node", "id": 3543582201, "lat": 33.46596, "lon": 43.3823978}, {"type": "node", "id": 3543582202, "lat": 33.4661169, "lon": 43.3840791}, {"type": "node", "id": 3543582203, "lat": 33.463155, "lon": 43.3833501}, {"type": "node", "id": 3543582204, "lat": 33.4627528, "lon": 43.3847727}, {"type": "node", "id": 3543582205, "lat": 33.4649988, "lon": 43.3854664}, {"type": "node", "id": 3543582206, "lat": 33.4650087, "lon": 43.3856309}, {"type": "node", "id": 3543582207, "lat": 33.4656854, "lon": 43.3857485}, {"type": "node", "id": 3543582208, "lat": 33.4658227, "lon": 43.3850078}, {"type": "node", "id": 3543582209, "lat": 33.4674311, "lon": 43.3854781}, {"type": "node", "id": 3543582210, "lat": 33.4676175, "lon": 43.3832326}, {"type": "node", "id": 3543582211, "lat": 33.4685492, "lon": 43.3834442}, {"type": "node", "id": 3543582212, "lat": 33.4685982, "lon": 43.3818923}, {"type": "node", "id": 3543582213, "lat": 33.4676371, "lon": 43.3813632}, {"type": "node", "id": 3543582214, "lat": 33.4675292, "lon": 43.3794351}, {"type": "node", "id": 3543582215, "lat": 33.4668819, "lon": 43.379588}, {"type": "node", "id": 3543582216, "lat": 33.4668133, "lon": 43.3808577}, {"type": "node", "id": 3543582217, "lat": 33.4644986, "lon": 43.379682}, {"type": "node", "id": 3543582218, "lat": 33.464685, "lon": 43.3777186}, {"type": "node", "id": 3543582219, "lat": 33.4655677, "lon": 43.3758728}, {"type": "node", "id": 3543582220, "lat": 33.4643319, "lon": 43.3743679}, {"type": "node", "id": 3543582221, "lat": 33.462949, "lon": 43.3769074}, {"type": "node", "id": 3543582222, "lat": 33.4624096, "lon": 43.3784005}, {"type": "node", "id": 3543582223, "lat": 33.4639396, "lon": 43.3795057}, {"type": "node", "id": 3543987029, "lat": 33.4591669, "lon": 43.3083768}, {"type": "node", "id": 3543987030, "lat": 33.4558616, "lon": 43.311698}, {"type": "node", "id": 3543987031, "lat": 33.4561148, "lon": 43.3130467}, {"type": "node", "id": 3543987032, "lat": 33.4551162, "lon": 43.3144291}, {"type": "node", "id": 3543987033, "lat": 33.4509667, "lon": 43.3194698}, {"type": "node", "id": 3543987034, "lat": 33.4523171, "lon": 43.3212063}, {"type": "node", "id": 3543987035, "lat": 33.4536111, "lon": 43.3193687}, {"type": "node", "id": 3543987036, "lat": 33.4540612, "lon": 43.3200262}, {"type": "node", "id": 3543987037, "lat": 33.4530485, "lon": 43.3213749}, {"type": "node", "id": 3543987038, "lat": 33.4540894, "lon": 43.3232125}, {"type": "node", "id": 3543987039, "lat": 33.4544129, "lon": 43.3227404}, {"type": "node", "id": 3543987040, "lat": 33.4554537, "lon": 43.3237519}, {"type": "node", "id": 3543987041, "lat": 33.4560585, "lon": 43.3232799}, {"type": "node", "id": 3543987042, "lat": 33.4578589, "lon": 43.3257076}, {"type": "node", "id": 3543987043, "lat": 33.460925, "lon": 43.3218469}, {"type": "node", "id": 3543987044, "lat": 33.4620783, "lon": 43.3205656}, {"type": "node", "id": 3543987045, "lat": 33.4615579, "lon": 43.3198576}, {"type": "node", "id": 3543987046, "lat": 33.4603484, "lon": 43.321358}, {"type": "node", "id": 3543987047, "lat": 33.4597295, "lon": 43.3208185}, {"type": "node", "id": 3543987048, "lat": 33.4584356, "lon": 43.3223527}, {"type": "node", "id": 3543987049, "lat": 33.4579714, "lon": 43.3215603}, {"type": "node", "id": 3543987050, "lat": 33.457015, "lon": 43.322319}, {"type": "node", "id": 3543987051, "lat": 33.4562273, "lon": 43.3213411}, {"type": "node", "id": 3543987052, "lat": 33.460264, "lon": 43.3163341}, {"type": "node", "id": 3543987053, "lat": 33.459617, "lon": 43.3154237}, {"type": "node", "id": 3543987054, "lat": 33.4606719, "lon": 43.3141931}, {"type": "node", "id": 3543987055, "lat": 33.4613751, "lon": 43.3141931}, {"type": "node", "id": 3543987056, "lat": 33.4617267, "lon": 43.313367}, {"type": "node", "id": 3543987057, "lat": 33.4595045, "lon": 43.3087814}, {"type": "node", "id": 3642923570, "lat": 33.4923305, "lon": 43.2467893}, {"type": "node", "id": 3661314167, "lat": 33.4954467, "lon": 43.2489523}, {"type": "node", "id": 3661314199, "lat": 33.4929608, "lon": 43.2471351}, {"type": "node", "id": 3923402363, "lat": 33.5085597, "lon": 43.3097343, "tags": {"name": "\u062a\u0644 \u0627\u0644\u062c\u0631\u0627\u064a\u0634\u064a", "place": "village"}}, {"type": "node", "id": 3935564114, "lat": 33.6512555, "lon": 43.4753173, "tags": {"name": "\u0627\u0644\u0637\u0631\u0627\u062d", "place": "village"}}, {"type": "node", "id": 5784012153, "lat": 33.4912124, "lon": 43.2523075}, {"type": "node", "id": 5784012156, "lat": 33.4905347, "lon": 43.257519}, {"type": "node", "id": 5784306165, "lat": 33.4915301, "lon": 43.2510549}, {"type": "node", "id": 5784306176, "lat": 33.4915223, "lon": 43.2469659}, {"type": "node", "id": 9719227317, "lat": 33.4498113, "lon": 43.3632856, "tags": {"name": "\u0627\u0644\u0635\u0648\u0641\u064a\u0629", "place": "village"}}, {"type": "node", "id": 9949020838, "lat": 33.4975186, "lon": 43.2516725}, {"type": "node", "id": 9949020839, "lat": 33.5037126, "lon": 43.2558269}, {"type": "node", "id": 9949020840, "lat": 33.5000246, "lon": 43.264946}, {"type": "node", "id": 11547155813, "lat": 33.4679155, "lon": 43.1767845, "tags": {"junction": "yes", "name": "\u0645\u0641\u0631\u0642 \u0632\u0646\u0643\u0648\u0631\u0629", "place": "town"}}, {"type": "node", "id": 11548759354, "lat": 33.5277245, "lon": 43.0192437, "tags": {"name": "\u0632\u0648\u064a\u063a\u064a\u0631", "place": "village"}}, {"type": "node", "id": 11549657500, "lat": 33.497674, "lon": 43.0452426, "tags": {"name": "\u0627\u0644\u0628\u0648\u0639\u0633\u0627\u0641 \u0632\u0648\u064a\u063a\u064a\u0631", "place": "village"}}, {"type": "node", "id": 11549712269, "lat": 33.4644491, "lon": 43.0858195, "tags": {"name": "\u0627\u0644\u0642\u0631\u064a\u0629 \u0627\u0644\u0639\u0635\u0631\u064a\u0629", "place": "village"}}, {"type": "node", "id": 11576216944, "lat": 33.5236927, "lon": 43.0034021, "tags": {"name": "\u0627\u0628\u0648 \u0637\u064a\u0628\u0627\u0646 \u0627\u0644\u0628\u0648\u0645\u062d\u0644", "place": "village"}}, {"type": "node", "id": 11576216945, "lat": 33.5264832, "lon": 43.0165718, "tags": {"name": "\u0632\u0648\u064a\u063a\u064a\u0631 \u0627\u0644\u0628\u0633\u0648\u062f\u0629", "place": "village"}}, {"type": "node", "id": 11577260000, "lat": 33.4967227, "lon": 43.1539054, "tags": {"name": "\u0627\u0644\u062d\u0644\u0627\u0628\u0633\u0629", "place": "village"}}, {"type": "node", "id": 11580398454, "lat": 33.4814418, "lon": 43.0647852, "tags": {"name": "\u0645\u062f\u062e\u0644 \u0642\u0631\u064a\u0629 \u0632\u0648\u064a\u063a\u064a\u0631", "place": "village"}}, {"type": "node", "id": 11580398455, "lat": 33.4813344, "lon": 43.0681326, "tags": {"name": "\u0645\u062f\u062e\u0644 \u0627\u0644\u0642\u0637\u0646\u064a\u0629", "place": "village"}}, {"type": "node", "id": 11582317002, "lat": 33.4630426, "lon": 43.2498321, "tags": {"name": "\u0645\u0646\u0637\u0642\u0629 \u0637\u0648\u064a -\u0627\u0644\u0628\u0648\u0631\u064a\u0634\u0629", "place": "village"}}, {"type": "node", "id": 11611369031, "lat": 33.4794611, "lon": 43.3987263, "tags": {"name": "\u0627\u0644\u062d\u0627\u0645\u0636\u064a\u0629", "place": "village"}}, {"type": "way", "id": 348170623, "nodes": [3543582200, 3543582201, 3543582202, 3543582203, 3543582204, 3543582205, 3543582206, 3543582207, 3543582208, 3543582209, 3543582210, 3543582211, 3543582212, 3543582213, 3543582214, 3543582215, 3543582216, 3543582217, 3543582218, 3543582219, 3543582220, 3543582221, 3543582222, 3543582223, 3543582200], "tags": {"int_name": "\u0100lb\u016b As\u016bd al Kurd\u012b, \u0100lb\u016b Aswad al Kurd\u012b, \u0622\u0644\u0628\u0648 \u0627\u0633\u0648\u062f \u0627\u0644\u0643\u0631\u062f\u064a, Albu Asud al Kurdi, Albu Aswad al Kurdi, \u0622\u0644\u0628\u0648 \u0627\u0633\u0648\u062f \u0627\u0644\u0643\u0631\u062f\u064a", "landuse": "residential", "name": "\u0622\u0644 \u0628\u0648 \u0623\u0633\u0648\u062f \u0627\u0644\u0643\u0631\u062f\u064a", "name:ar": "\u0622\u0644 \u0628\u0648 \u0623\u0633\u0648\u062f \u0627\u0644\u0643\u0631\u062f\u064a", "name:ar1": "\u0622\u0644 \u0628\u0648 \u0623\u0633\u0648\u062f \u0627\u0644\u0643\u0631\u062f\u064a", "name:de": "Albu Asud al Kurdi", "name:en": "Albu Asud al Kurdi", "name:fr": "Albu Asud al Kurdi", "place": "village"}}, {"type": "way", "id": 348241630, "nodes": [3543987029, 3543987030, 3543987031, 3543987032, 3543987033, 3543987034, 3543987035, 3543987036, 3543987037, 3543987038, 3543987039, 3543987040, 3543987041, 3543987042, 3543987043, 3543987044, 3543987045, 3543987046, 3543987047, 3543987048, 3543987049, 3543987050, 3543987051, 3543987052, 3543987053, 3543987054, 3543987055, 3543987056, 3543987057, 3543987029], "tags": {"int_name": "Kumaysh, Kumaysh", "landuse": "residential", "name": "\u0643\u0645\u064a\u0634", "name:ar": "\u0643\u0645\u064a\u0634", "name:ar1": "\u0643\u0645\u064a\u0634", "name:de": "Kumaysh", "name:en": "Kumaysh", "name:fr": "Kumaysh", "place": "village"}}, {"type": "way", "id": 1085783903, "nodes": [5784306176, 3642923570, 3661314199, 3661314167, 9949020838, 9949020839, 9949020840, 5784012156, 5784012153, 5784306165, 5784306176], "tags": {"name": "\u0642\u0628\u064a\u0644\u0629 \u0627\u0644\u0628\u0648\u0634\u0639\u0628\u0627\u0646", "place": "village"}}]}