{"version": 0.6, "generator": "Overpass API 0.7.61.5 4133829e", "osm3s": {"timestamp_osm_base": "2024-03-06T11:12:35Z", "copyright": "The data included in this document is from www.openstreetmap.org. The data is made available under ODbL."}, "elements": [{"type": "node", "id": 4959379438, "lat": 36.5468094, "lon": 44.3487009, "tags": {"amenity": "hospital", "name": "\u200cHarir Hospital", "name:ckb": "\u0646\u06d5\u062e\u06c6\u0634\u062e\u0627\u0646\u06d5\u06cc \u0647\u06d5\u0631\u06cc\u0631"}}, {"type": "node", "id": 4973088274, "lat": 36.5553539, "lon": 44.3492109, "tags": {"amenity": "hospital", "healthcare": "hospital", "name": "Health Center", "name:ckb": "\u0628\u0646\u06a9\u06d5\u06cc \u062a\u06d5\u0646\u062f\u0631\u0648\u0633\u062a\u06cc \u0647\u06d5\u0631\u06cc\u0631", "name:en": "Mir Suleman Bag Health Center", "name:ku": "\u0628\u0646\u06a9\u06d5\u06cc \u062a\u06d5\u0646\u062f\u0631\u0648\u0633\u062a\u06cc \u0645\u06cc\u0631 \u0633\u0644\u06ce\u0645\u0627\u0646 \u0628\u06d5\u06af"}}, {"type": "node", "id": 4989733723, "lat": 36.6169901, "lon": 44.4109345, "tags": {"addr:street": "Khalifan", "amenity": "hospital", "name": "\u0646\u06d5\u062e\u06c6\u0634\u062e\u0627\u0646\u06d5\u06cc \u0641\u0631\u06cc\u0627\u06a9\u06d5\u0648\u062a\u0646\u06cc \u062e\u06d5\u0644\u06cc\u0641\u0627\u0646", "name:ar": "\u0637\u0648\u0627\u0631\u064a \u062e\u0644\u064a\u0641\u0627\u0646", "name:en": "Khalifan Emergency", "name:ku": "\u0646\u06d5\u062e\u06c6\u0634\u062e\u0627\u0646\u06d5\u06cc \u0641\u0631\u06cc\u0627\u06a9\u06d5\u0648\u062a\u0646\u06cc \u062e\u06d5\u0644\u06cc\u0641\u0627\u0646"}}, {"type": "node", "id": 5124333230, "lat": 36.61628, "lon": 44.5309, "tags": {"amenity": "hospital", "name": "\u0646\u06d5\u062e\u06c6\u0634\u062e\u0627\u0646\u06d5\u06cc \u06af\u0634\u062a\u06cc\u06cc \u0695\u06d5\u0648\u0627\u0646\u062f\u0632", "name:ckb": "\u0646\u06d5\u062e\u06c6\u0634\u062e\u0627\u0646\u06d5\u06cc \u06af\u0634\u062a\u06cc\u06cc \u0695\u06d5\u0648\u0627\u0646\u062f\u0632", "name:en": "Rawandz Public Hospital", "name:ku": "Nexwe\u015fxaneya Gi\u015ft\u00ee ya Rewandiz"}}, {"type": "node", "id": 5124354421, "lat": 36.6410289, "lon": 44.5151202, "tags": {"amenity": "hospital", "name": "\u0628\u0646\u06a9\u06d5\u06cc \u062a\u06d5\u0646\u062f\u0631\u0648\u0633\u062a\u06cc \u0628\u0627\u067e\u0634\u062a\u06cc\u0627\u0646", "name:en": "Bapshtian Health Center"}}, {"type": "node", "id": 5127861024, "lat": 36.5613963, "lon": 44.3353654, "tags": {"amenity": "hospital", "healthcare": "hospital", "name": "\u0628\u0646\u06a9\u06d5\u06cc \u062a\u06d5\u0646\u062f\u0631\u0648\u0633\u062a\u06cc \u0628\u0627\u062a\u0627\u0633", "name:en": "Batas Health Center"}}, {"type": "node", "id": 5131167287, "lat": 36.6527172, "lon": 44.5311253, "tags": {"amenity": "hospital", "name": "Marriage Blood Inspection", "name:ckb": "\u0628\u06d5\u0631\u06ce\u0648\u06d5\u0628\u06d5\u0631\u0627\u06cc\u06d5\u062a\u06cc \u0647\u0627\u062a\u0648\u0686\u06c6\u06cc \u0633\u06c6\u0631\u0627\u0646"}}, {"type": "node", "id": 5148484365, "lat": 36.653617, "lon": 44.5295556, "tags": {"amenity": "hospital", "name": "\u0646\u06d5\u062e\u06c6\u0634\u062e\u0627\u0646\u06d5\u06cc \u0626\u06ce\u0633\u06a9 \u0648 \u0634\u06a9\u0627\u0646", "name:en": "Orthopedic center of soran", "name:ku": "\u0646\u06d5\u062e\u06c6\u0634\u062e\u0627\u0646\u06d5\u06cc \u0626\u06c6\u0631\u062a\u06c6\u067e\u06cc\u062f\u06cc \u0633\u06c6\u0631\u0627\u0646"}}, {"type": "node", "id": 5150773837, "lat": 36.6494734, "lon": 44.5257086, "tags": {"amenity": "hospital", "name": "\u0633\u06d5\u0646\u062a\u06d5\u0631\u06cc \u0686\u0627\u0648 \u062f\u06a9\u062a\u06c6\u0631 \u0645\u0648\u0631\u0627\u062f", "name:en": "Santari chaw dktor Murad"}}, {"type": "node", "id": 5234712621, "lat": 36.8434943, "lon": 44.3010406, "tags": {"amenity": "hospital", "name": "\u0646\u06d5\u062e\u06c6\u0634\u062e\u0627\u0646\u06d5\u06cc \u0645\u06ce\u0631\u06af\u06d5\u0633\u06c6\u0631", "name:en": "mergasor hospital"}}, {"type": "node", "id": 5294082927, "lat": 36.7998828, "lon": 44.3817902, "tags": {"amenity": "hospital", "name": "\u0628\u0646\u06a9\u06d5\u06cc \u062a\u06d5\u0646\u062f\u0631\u0648\u0633\u062a\u06cc \u0644\u06d5\u06cc\u0644\u0648\u06a9", "name:en": "Layluk Health Center"}}, {"type": "node", "id": 5294088625, "lat": 36.7994842, "lon": 44.2464274, "tags": {"amenity": "hospital", "healthcare": "hospital", "name:en": "Shanadar Health Center"}}, {"type": "node", "id": 5482839322, "lat": 36.7248319, "lon": 44.0256935, "tags": {"addr:street": "bjeel road", "amenity": "hospital", "healthcare": "hospital", "name": "\u0628\u0646\u06af\u06d5\u0647\u06ce \u0633\u0627\u062e\u0644\u06d5\u0645\u06cc\u06ce \u06cc\u06ce \u0628\u062c\u06cc\u0644\u06ce", "name:en": "Bijil Health Center", "name:ku": "Bingeh\u00ea Saxlem\u00eey\u00ea y\u00ea Bic\u00eel\u00ea", "opening_hours": "Sa-Th 08:00-13:00"}}, {"type": "node", "id": 5483304221, "lat": 36.8553976, "lon": 44.0840488, "tags": {"addr:street": "rogvan", "amenity": "hospital", "name": "\u062f\u06a9\u062a\u0648\u0631 \u0646\u0627\u062f\u0631", "name:en": "Dr.nader", "name:ku": "\u062f\u062e\u062a\u0648\u0631 \u0646\u0627\u062f\u0631", "phone": "+9647503687755"}}, {"type": "node", "id": 5695825522, "lat": 36.8812298, "lon": 44.0653818, "tags": {"amenity": "hospital", "internet_access": "wlan", "name": "\u0646\u06d5\u062e\u06c6\u0634\u062e\u0627\u0646\u06d5\u06cc \u06af\u0634\u062a\u06cc \u0628\u0644\u06d5", "name:ckb": "\u0646\u06d5\u062e\u06c6\u0634\u062e\u0627\u0646\u06d5\u06cc \u06af\u0634\u062a\u06cc \u0628\u0644\u06d5", "name:en": "Bla General Hospital", "name:ku": "Nexwe\u015fxaneya Gi\u015ft\u00ee Bile", "opening_hours": "24/7", "phone": "+9647501104050"}}, {"type": "node", "id": 5769673912, "lat": 36.7262737, "lon": 44.0159899, "tags": {"amenity": "hospital", "healthcare": "hospital", "name": "\u062f\u0643\u062a\u0648\u0631 \u0633\u0639\u062f\u064a \u0627\u0628\u0648 \u0633\u0627\u0645\u0627\u0646", "name:ar": "\u0639\u064a\u0627\u062f\u0629 \u062f.\u0633\u0639\u062f\u064a", "name:en": "DR.Saadi", "name:ku": "\u062f.\u0633\u0639\u062f\u064a", "operator": "\u0627\u0628\u0648\u0633\u0627\u0645\u0627\u0646"}}, {"type": "node", "id": 5812010153, "lat": 36.6936247, "lon": 44.5238717, "tags": {"amenity": "hospital", "name": "\u0628\u0646\u06a9\u06d5\u06cc \u062a\u06d5\u0646\u062f\u0631\u0648\u0633\u062a\u06cc \u062f\u06ce\u0644\u0632\u06cc\u0627\u0646", "name:en": "Delzyan Health Center"}}, {"type": "node", "id": 5907794386, "lat": 36.7252183, "lon": 44.085113, "tags": {"addr:street": "kalat-akre", "amenity": "hospital", "name": "\u0645\u0633\u062a\u0648\u0635\u0641 \u0643\u0644\u0627\u062a", "name:en": "kalat clinic", "name:ku": "\u062e\u0633\u062a\u0647 \u062e\u0627\u0646\u0647 \u064a \u0643\u0647 \u0644\u0627\u062a"}}, {"type": "node", "id": 5909481376, "lat": 36.5554868, "lon": 44.3492845}, {"type": "node", "id": 5909481377, "lat": 36.555372, "lon": 44.3493613}, {"type": "node", "id": 5909481378, "lat": 36.5552635, "lon": 44.34911}, {"type": "node", "id": 5909481379, "lat": 36.5553783, "lon": 44.3490332}, {"type": "node", "id": 6009332434, "lat": 36.5464085, "lon": 44.3483526}, {"type": "node", "id": 6009332435, "lat": 36.5468875, "lon": 44.3490321}, {"type": "node", "id": 6009332436, "lat": 36.5475962, "lon": 44.348258}, {"type": "node", "id": 6009332437, "lat": 36.5471172, "lon": 44.3475785}, {"type": "node", "id": 6400303088, "lat": 36.7962342, "lon": 44.4363095, "tags": {"amenity": "hospital", "name:en": "Shekhan Health Center"}}, {"type": "node", "id": 6409406086, "lat": 36.5375191, "lon": 44.4427089, "tags": {"amenity": "hospital", "healthcare": "hospital", "name:en": "Alana Health Center"}}, {"type": "node", "id": 8080706117, "lat": 36.6272098, "lon": 44.2115284, "tags": {"amenity": "hospital", "name:en": "Barbyan Health Center"}}, {"type": "node", "id": 8919536378, "lat": 36.624664, "lon": 44.5308709, "tags": {"amenity": "hospital", "name:en": "RAWANDUZ HOSPITAL BKS A DIV HQ"}}, {"type": "node", "id": 8968825913, "lat": 36.8827842, "lon": 44.0661008}, {"type": "node", "id": 8968825914, "lat": 36.8827275, "lon": 44.0651398}, {"type": "node", "id": 8968825915, "lat": 36.8821652, "lon": 44.0652344}, {"type": "node", "id": 8968825916, "lat": 36.8820224, "lon": 44.0644991}, {"type": "node", "id": 8968853717, "lat": 36.8817146, "lon": 44.0645593}, {"type": "node", "id": 8968853718, "lat": 36.8816371, "lon": 44.0640752}, {"type": "node", "id": 8968853719, "lat": 36.8810251, "lon": 44.0641982}, {"type": "node", "id": 8968853720, "lat": 36.8810577, "lon": 44.064512}, {"type": "node", "id": 8968853721, "lat": 36.8805797, "lon": 44.0646453}, {"type": "node", "id": 8968853722, "lat": 36.8807981, "lon": 44.0663458}, {"type": "node", "id": 8968853723, "lat": 36.8813449, "lon": 44.0661975}, {"type": "node", "id": 8968853724, "lat": 36.8818831, "lon": 44.0660965}, {"type": "node", "id": 8968853725, "lat": 36.8825332, "lon": 44.0660986}, {"type": "node", "id": 9083680517, "lat": 36.6943486, "lon": 44.5123919, "tags": {"amenity": "hospital", "name": "\u0628\u0646\u06a9\u06d5\u06cc \u062a\u06d5\u0646\u062f\u0631\u0648\u0633\u062a\u06cc \u067e\u0634\u06a9\u0646\u06cc\u0646\u06cc \u0686\u0627\u0648"}}, {"type": "node", "id": 9984113217, "lat": 36.6238896, "lon": 44.2834691, "tags": {"amenity": "hospital", "name": "\u0628\u0646\u06a9\u06d5\u06cc \u062a\u06d5\u0646\u062f\u0631\u0648\u0633\u062a\u06cc \u0626\u0627\u0645\u06c6\u06a9\u0627\u0646"}}, {"type": "node", "id": 10967483105, "lat": 36.6578494, "lon": 44.5255952, "tags": {"addr:street": "\u0628\u06d5\u062e\u062a\u06cc\u0627\u0631\u06cc", "amenity": "hospital", "name": "Baxtiary healthcare center", "name:en": "\u0628\u0646\u06a9\u06d5\u06cc \u062a\u06d5\u0646\u062f\u0631\u0648\u0633\u062a\u06cc \u0628\u06d5\u062e\u062a\u06cc\u0627\u0631\u06cc", "opening_hours": "Fr-We 08:30-12:00; Th 00:00-24:00"}}, {"type": "node", "id": 11055738305, "lat": 36.6539312, "lon": 44.5326012, "tags": {"addr:street": "\u0634\u06d5\u0642\u0627\u0645\u06cc \u0628\u0627\u0631\u0632\u0627\u0646\u06cc", "amenity": "hospital", "email": "helav.medicalclinic@gmail.com", "name": "\u0646\u06d5\u062e\u06c6\u0634\u062e\u0627\u0646\u06d5\u06cc \u0647\u06ce\u0644\u0627\u06a4\u06cc \u062a\u0627\u06cc\u0628\u06d5\u062a", "name:en": "Helav Private Hospital", "opening_hours": "24/7", "phone": "07507747376"}}, {"type": "node", "id": 11056780605, "lat": 36.6540653, "lon": 44.5326004, "tags": {"addr:street": "\u0634\u06d5\u0642\u0627\u0645\u06cc \u0628\u0627\u0631\u0632\u0627\u0646\u06cc", "amenity": "hospital", "email": "helav.medicalclinic@gmail.com", "name": "\u0646\u06d5\u062e\u06c6\u0634\u062e\u0627\u0646\u06d5\u06cc \u0647\u06ce\u0644\u0627\u06a4\u06cc \u062a\u0627\u06cc\u0628\u06d5\u062a", "name:en": "Helav Private Hospital", "opening_hours": "24/7", "phone": "07507747376"}}, {"type": "node", "id": 11177658815, "lat": 36.6463457, "lon": 44.5073819, "tags": {"amenity": "hospital", "healthcare": "hospital", "name": "\u0641\u0631\u06cc\u0627\u06a9\u06d5\u0648\u062a\u0646/\u0637\u0648\u0627\u0631\u064a"}}, {"type": "way", "id": 625921887, "nodes": [5909481376, 5909481377, 5909481378, 5909481379, 5909481376], "tags": {"amenity": "hospital", "healthcare": "hospital"}}, {"type": "way", "id": 637413342, "nodes": [6009332434, 6009332435, 6009332436, 6009332437, 6009332434], "tags": {"amenity": "hospital", "healthcare": "hospital"}}, {"type": "way", "id": 969276675, "nodes": [8968825913, 8968825914, 8968825915, 8968825916, 8968853717, 8968853718, 8968853719, 8968853720, 8968853721, 8968853722, 8968853723, 8968853724, 8968853725, 8968825913], "tags": {"amenity": "hospital", "area": "yes", "healthcare": "hospital"}}]}