{"version": 0.6, "generator": "Overpass API 0.7.61.5 4133829e", "osm3s": {"timestamp_osm_base": "2024-03-05T14:43:30Z", "copyright": "The data included in this document is from www.openstreetmap.org. The data is made available under ODbL."}, "elements": [{"type": "node", "id": 415440874, "lat": 63.1796122, "lon": 14.6363927, "tags": {"amenity": "bank", "name": "L\u00e4nsf\u00f6rs\u00e4kringar bank", "operator": "L\u00e4nsf\u00f6rs\u00e4kringar J\u00e4mtland", "wheelchair": "yes"}}, {"type": "node", "id": 469222613, "lat": 63.1750821, "lon": 14.637461, "tags": {"amenity": "bank", "name": "Forex", "opening_hours": "Mo-Fr 10:00-18:00", "operator": "Forex", "wheelchair": "yes"}}, {"type": "node", "id": 476782154, "lat": 63.1771844, "lon": 14.6351019, "tags": {"amenity": "bank", "brand": "Nordea", "brand:wikidata": "Q1123823", "brand:wikipedia": "en:Nordea", "name": "Nordea", "opening_hours": "Mo-Fr 10:00-13:00", "operator": "Nordea", "wheelchair": "yes"}}, {"type": "node", "id": 1023280552, "lat": 63.1792731, "lon": 14.6367687, "tags": {"amenity": "bank", "brand": "Swedbank", "brand:wikidata": "Q1145493", "brand:wikipedia": "en:Swedbank", "name": "Swedbank", "operator": "Swedbank", "wheelchair": "yes"}}, {"type": "node", "id": 1503407607, "lat": 63.1788498, "lon": 14.6368314, "tags": {"amenity": "bank", "atm": "yes", "brand": "Handelsbanken", "brand:wikidata": "Q1421630", "brand:wikipedia": "en:Handelsbanken", "name": "Handelsbanken", "operator": "Handelsbanken", "wheelchair": "yes"}}]}