{"version": 0.6, "generator": "Overpass API 0.7.61.5 4133829e", "osm3s": {"timestamp_osm_base": "2024-03-06T10:46:01Z", "copyright": "The data included in this document is from www.openstreetmap.org. The data is made available under ODbL."}, "elements": [{"type": "node", "id": 2482441654, "lat": 35.905378, "lon": 43.485832, "tags": {"alt_name": "\u0647\u0648\u0627\u0631 \u063a\u0644", "amenity": "school", "int_name": "Haw\u0101r Ghal, Haw\u0101r Khar, \u0647\u0648\u0627\u0631 \u063a\u0644, Hawar Ghal, Hawar Khar, \u0647\u0648\u0627\u0631 \u063a\u0644", "landuse": "residential", "name": "\u06af\u0648\u0646\u062f\u06cc \u0647\u06d5\u0648\u0627\u0631\u063a\u06d5\u0631", "name:ar": "\u0647\u0648\u0627\u0631\u063a\u06d5\u0631", "name:ar1": "\u0647\u0648\u0627\u0631 \u063a\u0644", "name:de": "Hawar Ghal", "name:en": "Hawar Ghal", "name:fr": "Hawar Ghal", "name:ku": "\u0647\u06d5\u0648\u0627\u0631\u06d5 \u063a\u06d5\u0631\u06d5", "place": "village"}}, {"type": "node", "id": 3789833458, "lat": 36.0757304, "lon": 43.8385238, "tags": {"addr:city": "\u0647\u06d5\u0648\u0644\u06ce\u0631", "addr:country": "IQ", "addr:state": "\u0645\u062d\u0627\u0641\u0638\u0629 \u0623\u0631\u0628\u064a\u0644", "amenity": "school", "name": "\u0642\u0648\u062a\u0627\u0628\u062e\u0627\u0646\u0647", "name:ar": "\u0642\u0648\u062a\u0627\u0628\u062e\u0627\u0646\u0647", "name:ckb": "\u0642\u0648\u062a\u0627\u0628\u062e\u0627\u0646\u0647", "name:en": "\u0642\u0648\u062a\u0627\u0628\u062e\u0627\u0646\u0647"}}, {"type": "node", "id": 3957469243, "lat": 36.022847, "lon": 43.917984}, {"type": "node", "id": 3957469244, "lat": 36.0219529, "lon": 43.9179356}, {"type": "node", "id": 3957469245, "lat": 36.0219136, "lon": 43.9190462}, {"type": "node", "id": 3957469246, "lat": 36.0228077, "lon": 43.9190945}, {"type": "node", "id": 3957469247, "lat": 36.0214579, "lon": 43.9156329}, {"type": "node", "id": 3957469248, "lat": 36.0214992, "lon": 43.9145334}, {"type": "node", "id": 3957469249, "lat": 36.0206042, "lon": 43.914482}, {"type": "node", "id": 3957469250, "lat": 36.0205628, "lon": 43.9155814}, {"type": "node", "id": 5203597823, "lat": 36.0723473, "lon": 43.5813034, "tags": {"addr:street": "Gwer roaed", "amenity": "school", "email": "yally209@gmail.com", "name": "\u062b\u0627\u0646\u0648\u064a\u0629 \u0627\u0644\u0641\u062a\u0648\u0629 \u0627\u0644\u0645\u062e\u062a\u0644\u0637\u0629", "opening_hours": "Su-Th 00:00-24:00", "phone": "07803871209"}}, {"type": "node", "id": 5459812422, "lat": 36.0443395, "lon": 43.4970968, "tags": {"amenity": "school", "name": "\u0626\u0627\u0645\u0627\u062f\u0647\u200c\u06cc\u06cc \u0626\u0627\u0631\u0627\u0633 \u062a\u06ce\u06a9\u0647\u200c\u0644", "name:en": "Aras high school"}}, {"type": "node", "id": 5502313109, "lat": 35.783848, "lon": 43.5882737}, {"type": "node", "id": 5502313110, "lat": 35.7840707, "lon": 43.5891731}, {"type": "node", "id": 5502313111, "lat": 35.7849332, "lon": 43.5888485}, {"type": "node", "id": 5502313112, "lat": 35.7847105, "lon": 43.5879491}, {"type": "node", "id": 5865512785, "lat": 35.9992612, "lon": 43.8891125, "tags": {"addr:street": "arbil-makhmur road", "amenity": "school", "name": "\u0633\u0648\u0631\u064a\u0632\u0629", "name:en": "swrezha", "name:ku": "\u0633\u0648\u0631\u06cc\u0698\u06d5"}}, {"type": "node", "id": 6418470796, "lat": 36.0523043, "lon": 43.9890709, "tags": {"amenity": "school"}}, {"type": "node", "id": 7566203386, "lat": 35.8673438, "lon": 43.8174108, "tags": {"amenity": "school", "name": "\u06a9\u0627\u0631\u06cc\u062a\u0627\u0646", "name:en": "karitan"}}, {"type": "node", "id": 9043407052, "lat": 35.9608025, "lon": 43.5440257}, {"type": "node", "id": 9043407053, "lat": 35.9606846, "lon": 43.5444255}, {"type": "node", "id": 9043407054, "lat": 35.9603975, "lon": 43.5442963}, {"type": "node", "id": 9043407055, "lat": 35.9605154, "lon": 43.5438964}, {"type": "node", "id": 9141266205, "lat": 35.9257451, "lon": 43.9299187}, {"type": "node", "id": 9141266206, "lat": 35.9251386, "lon": 43.929669}, {"type": "node", "id": 9141266207, "lat": 35.924912, "lon": 43.9305058}, {"type": "node", "id": 9141266208, "lat": 35.9254466, "lon": 43.930724}, {"type": "node", "id": 9141266209, "lat": 35.9255372, "lon": 43.9306801}, {"type": "node", "id": 9722543301, "lat": 36.0372183, "lon": 43.729675, "tags": {"addr:street": "Shex Sharwan", "amenity": "school", "name": "\u0642\u0648\u062a\u0627\u0628\u062e\u0627\u0646\u06d5\u06cc \u0633\u06d5\u0631\u06d5\u062a\u0627\u06cc\u06cc \u0648 \u062f\u0648\u0627\u0646\u0627\u0648\u06d5\u0646\u062f\u06cc\u06cc \u0634\u06ce\u062e \u0634\u06d5\u0631\u0648\u0627\u0646", "name:en": "Sheikh Sherwan Elementary and High School"}}, {"type": "node", "id": 10039062517, "lat": 35.6490447, "lon": 43.5478256, "tags": {"amenity": "school", "name": "\u062c\u0627\u0645\u0639 \u0635\u0644\u0627\u062d\u062f\u064a\u0646 \u0627\u0644\u0627\u064a\u0648\u0628\u064a"}}, {"type": "node", "id": 10255204275, "lat": 36.0777589, "lon": 43.945004}, {"type": "node", "id": 10255204276, "lat": 36.0773791, "lon": 43.9456027}, {"type": "node", "id": 10255204277, "lat": 36.0768189, "lon": 43.9450491}, {"type": "node", "id": 10255204278, "lat": 36.0772143, "lon": 43.9444343}, {"type": "node", "id": 11640502307, "lat": 36.0316522, "lon": 43.9794728}, {"type": "node", "id": 11640502308, "lat": 36.0316326, "lon": 43.9794803}, {"type": "node", "id": 11640502309, "lat": 36.0316764, "lon": 43.9796484}, {"type": "node", "id": 11640502310, "lat": 36.0314974, "lon": 43.9797026}, {"type": "node", "id": 11640502311, "lat": 36.0314234, "lon": 43.9793953}, {"type": "node", "id": 11640502312, "lat": 36.0316197, "lon": 43.9793224}, {"type": "way", "id": 392529687, "nodes": [3957469243, 3957469244, 3957469245, 3957469246, 3957469243], "tags": {"addr:city": "\u0647\u06d5\u0648\u0644\u06ce\u0631", "addr:country": "IQ", "addr:state": "\u0645\u062d\u0627\u0641\u0638\u0629 \u0623\u0631\u0628\u064a\u0644", "amenity": "school"}}, {"type": "way", "id": 392529688, "nodes": [3957469247, 3957469248, 3957469249, 3957469250, 3957469247], "tags": {"addr:city": "\u0647\u06d5\u0648\u0644\u06ce\u0631", "addr:country": "IQ", "addr:state": "\u0645\u062d\u0627\u0641\u0638\u0629 \u0623\u0631\u0628\u064a\u0644", "amenity": "school"}}, {"type": "way", "id": 572755494, "nodes": [5502313109, 5502313110, 5502313111, 5502313112, 5502313109], "tags": {"amenity": "school"}}, {"type": "way", "id": 977332138, "nodes": [9043407052, 9043407053, 9043407054, 9043407055, 9043407052], "tags": {"addr:city": "\u06af\u0648\u0646\u062f\u06cc \u0645\u06cc\u0644\u06d5\u0647\u06c6\u0631\u062a", "amenity": "school", "name": "\u0642\u0648\u062a\u0627\u0628\u062e\u0627\u0646\u06d5", "name:en": "school"}}, {"type": "way", "id": 989026396, "nodes": [9141266205, 9141266206, 9141266207, 9141266208, 9141266209, 9141266205], "tags": {"amenity": "school"}}, {"type": "way", "id": 1121175145, "nodes": [10255204275, 10255204276, 10255204277, 10255204278, 10255204275], "tags": {"amenity": "school"}}, {"type": "way", "id": 1252294308, "nodes": [11640502307, 11640502308, 11640502309, 11640502310, 11640502311, 11640502312, 11640502307], "tags": {"amenity": "school"}}]}