{"version": 0.6, "generator": "Overpass API 0.7.61.5 4133829e", "osm3s": {"timestamp_osm_base": "2024-03-05T15:08:58Z", "copyright": "The data included in this document is from www.openstreetmap.org. The data is made available under ODbL."}, "elements": [{"type": "node", "id": 29284129, "lat": 66.6058539, "lon": 19.8379317, "tags": {"name": "Jokkmokk", "name:fi": "Jokimukka", "name:ru": "\u0419\u043e\u043a\u043c\u043e\u043a\u043a", "name:se": "Johkamohkki", "name:smj": "J\u00e5hk\u00e5m\u00e5hkke", "name:sv": "Jokkmokk", "place": "town", "population": "2786", "ref:se:pts:postort": "JOKKMOKK", "ref:se:scb": "8628", "wikidata": "Q3335533", "wikipedia": "sv:Jokkmokk"}}, {"type": "node", "id": 343138686, "lat": 66.60613, "lon": 19.7635113, "tags": {"name": "Skabram", "name:smj": "Skabrram", "name:sv": "Skabram", "place": "hamlet"}}, {"type": "node", "id": 2226880771, "lat": 66.5726164, "lon": 19.966581, "tags": {"name": "Mattisudden", "name:smj": "Smirjjo", "name:sv": "Mattisudden", "place": "hamlet", "ref:se:pts:postort": "MATTISUDDEN"}}, {"type": "node", "id": 2226880845, "lat": 66.7643376, "lon": 19.2779381, "tags": {"name": "Randijaur", "name:smj": "R\u00e1ddn\u00e1vrre", "name:sv": "Randijaur", "place": "hamlet", "ref:se:pts:postort": "RANDIJAUR"}}, {"type": "node", "id": 2649456297, "lat": 66.5065468, "lon": 19.6788581, "tags": {"alt_name": "Vaimat", "name": "Vajmat", "name:smj": "Vajmat", "name:sv": "Vajmat", "place": "hamlet"}}, {"type": "node", "id": 2649474721, "lat": 66.6415395, "lon": 19.807494, "tags": {"name": "\u00d6stansj\u00f6", "place": "hamlet"}}, {"type": "node", "id": 2744811777, "lat": 66.5711066, "lon": 19.9964075, "tags": {"name": "Norra Mattisudden", "place": "hamlet"}}, {"type": "node", "id": 3027067497, "lat": 66.599414, "lon": 19.0836814, "tags": {"name": "Piertinjaure", "name:smj": "Bierddinj\u00e1vrre", "name:sv": "Piertinjaure", "place": "hamlet"}}, {"type": "node", "id": 3027091251, "lat": 66.6377919, "lon": 19.5416364, "tags": {"name": "Norrstrand", "place": "hamlet"}}, {"type": "node", "id": 3027091253, "lat": 66.634352, "lon": 19.5774852, "tags": {"name": "Forsh\u00e4llan", "place": "hamlet"}}, {"type": "node", "id": 3027091254, "lat": 66.629277, "lon": 19.6362148, "tags": {"name": "Dragn\u00e4s", "place": "hamlet"}}, {"type": "node", "id": 3027091255, "lat": 66.6258665, "lon": 19.6958509, "tags": {"name": "Sasskam", "name:smj": "Sasskam", "place": "hamlet"}}, {"type": "node", "id": 3027091256, "lat": 66.6368878, "lon": 19.7460543, "tags": {"name": "Haraudden", "name:smj": "Njoammelnj\u00e1rgga", "name:sv": "Haraudden", "place": "hamlet"}}, {"type": "node", "id": 3027091257, "lat": 66.6386042, "lon": 19.717215, "tags": {"name": "Str\u00f6mn\u00e4s", "place": "hamlet"}}, {"type": "node", "id": 3027091258, "lat": 66.6668573, "lon": 19.7867577, "tags": {"name": "Vajkijaur", "name:smj": "V\u00e1jg\u00e1j\u00e1vrre", "name:sv": "Vajkijaur", "place": "hamlet"}}, {"type": "node", "id": 4811214202, "lat": 66.9038781, "lon": 19.2375823, "tags": {"name": "Nautijaur", "name:smj": "Bidtja", "name:sv": "Nautijaur", "place": "hamlet"}}, {"type": "node", "id": 4812266848, "lat": 66.7465051, "lon": 19.2148492, "tags": {"name": "Parkijaur", "name:smj": "B\u00e1rg\u00e1vrre", "name:sv": "Parkijaur", "place": "hamlet"}}, {"type": "node", "id": 5214541043, "lat": 66.6585555, "lon": 20.0233538, "tags": {"name": "Juggijaur", "name:smj": "Juggij\u00e1vrre", "name:sv": "Juggijaur", "place": "hamlet"}}, {"type": "node", "id": 5917963072, "lat": 66.6764855, "lon": 19.7357848, "tags": {"name": "Kuossenjarka", "name:smj": "Guossenj\u00e1rgga", "name:sv": "Kuossenjarka", "place": "hamlet"}}, {"type": "node", "id": 9855314518, "lat": 66.781845, "lon": 19.2928505, "tags": {"name": "Fagerlund", "place": "hamlet"}}]}