{"version": 0.6, "generator": "Overpass API 0.7.61.5 4133829e", "osm3s": {"timestamp_osm_base": "2024-03-05T15:08:58Z", "copyright": "The data included in this document is from www.openstreetmap.org. The data is made available under ODbL."}, "elements": [{"type": "node", "id": 1741684993, "lat": 67.4289275, "lon": 20.4755792, "tags": {"name": "Pauki", "name:se": "B\u00e1vgi", "place": "hamlet"}}, {"type": "node", "id": 2226880837, "lat": 67.4405188, "lon": 21.105806, "tags": {"name": "Puoltikasvaara", "name:se": "Buoldav\u00e1rri", "place": "village", "ref:se:pts:postort": "PUOLTIKASVAARA"}}, {"type": "node", "id": 2226880913, "lat": 67.4147287, "lon": 21.1114821, "tags": {"name": "Skaulo", "name:se": "Savdij\u00e1vri", "place": "village", "ref:se:pts:postort": "SKAULO"}}, {"type": "node", "id": 2558700086, "lat": 67.3266074, "lon": 20.7366992, "tags": {"name": "Tjautjas", "name:se": "C\u030cavc\u030cc\u030cas", "place": "village", "population": "234", "wikidata": "Q2348307", "wikipedia": "sv:Tjautjas"}}, {"type": "node", "id": 2921190834, "lat": 67.6469235, "lon": 21.0554854, "tags": {"name": "Svappavaara", "name:fi": "Vaskivuori", "name:fit": "Vaskivuori", "name:se": "Veaikev\u00e1rri", "name:sv": "Svappavaara", "place": "village", "postal_code": "98261", "ref:se:pts:postort": "SVAPPAVAARA", "ref:se:scb": "8864"}}, {"type": "node", "id": 3029207360, "lat": 67.3391006, "lon": 20.9791271, "tags": {"name": "Avvakko", "name:se": "\u00c1vv\u00e1k", "place": "hamlet"}}, {"type": "node", "id": 3029247201, "lat": 67.3731407, "lon": 21.0804144, "tags": {"name": "Moskoj\u00e4rvi", "name:se": "Moski", "place": "hamlet"}}, {"type": "node", "id": 3029272484, "lat": 67.5233366, "lon": 21.1945746, "tags": {"name": "Piilij\u00e4rvi", "place": "hamlet"}}]}