{"version": 0.6, "generator": "Overpass API 0.7.61.5 4133829e", "osm3s": {"timestamp_osm_base": "2024-03-05T13:52:05Z", "copyright": "The data included in this document is from www.openstreetmap.org. The data is made available under ODbL."}, "elements": [{"type": "node", "id": 312466967, "lat": 30.954754, "lon": 61.859475, "tags": {"name": "\u0632\u0631\u0646\u062c", "name:ar": "\u0632\u0631\u0646\u062c", "name:cs": "Zarand\u017e", "name:de": "Sarandsch", "name:el": "\u0396\u03b1\u03c1\u03ac\u03bd\u03c4\u03b6", "name:en": "Zaranj", "name:es": "Zaranj", "name:fa": "\u0632\u0631\u0646\u062c", "name:fr": "Zarandj", "name:hi": "\u091c\u0930\u093e\u0902\u091c", "name:ja": "\u30b6\u30e9\u30f3\u30b8\u30e5", "name:ko": "\uc790\ub780\uc9c0", "name:lt": "Zarand\u017eas", "name:ml": "\u0d38\u0d30\u0d1e\u0d4d\u0d1c\u0d4d", "name:pl": "Zarand\u017c", "name:ps": "\u0632\u0631\u0646\u062c", "name:ru": "\u0417\u0430\u0440\u0430\u043d\u0434\u0436", "name:tg": "\u0417\u0430\u0440\u0430\u043d\u04b7", "name:tr": "Zerenc", "name:uk": "\u0417\u0430\u0440\u0430\u043d\u0434\u0436", "name:zh": "\u624e\u5170\u5b63/\u624e\u862d\u5b63", "name:zh-Hans": "\u624e\u5170\u5b63", "name:zh-Hant": "\u624e\u862d\u5b63", "place": "town", "population": "49851", "wikidata": "Q475802", "wikipedia": "fa:\u0632\u0631\u0646\u062c"}}, {"type": "node", "id": 821859382, "lat": 30.9695102, "lon": 61.8092405, "tags": {"is_in:country": "Iran", "name": "\u0645\u06cc\u0644\u06a9", "name:en": "Milak", "name:lt": "Milakas", "name:ru": "\u041c\u0438\u043b\u0430\u043a", "place": "village"}}, {"type": "node", "id": 821859384, "lat": 30.9864355, "lon": 61.8167936, "tags": {"is_in:country": "Iran", "name": "\u0633\u0646\u062c\u0631\u0627\u0646\u06cc", "name:en": "Sanjarani", "place": "village"}}, {"type": "node", "id": 821859386, "lat": 30.9864355, "lon": 61.7910444, "tags": {"is_in:country": "Iran", "name": "\u062f\u0647 \u0646\u0648 \u0645\u06cc\u0644\u06a9", "name:en": "New Milak", "place": "village"}}, {"type": "node", "id": 6874108731, "lat": 30.9498366, "lon": 61.8187583, "tags": {"name": "\u0645\u062d\u062f \u06cc\u0639\u0642\u0648\u0628", "name:en": "Mu\u1e29ammad Ya\u2018q\u016bb", "place": "hamlet"}}, {"type": "node", "id": 6875674458, "lat": 30.9625527, "lon": 61.8718012, "tags": {"name": "\u0645\u0646\u0637\u0642\u0647 \u0646\u0642\u0634\u0647", "name:en": "Naqsha", "place": "village"}}, {"type": "node", "id": 6875674461, "lat": 30.9675322, "lon": 61.8773138, "tags": {"name": "\u062f\u0647 \u062e\u0648\u0627\u062c\u0647", "name:en": "Deh Khowaja", "place": "hamlet"}}, {"type": "node", "id": 6875674471, "lat": 30.9745839, "lon": 61.8765386, "tags": {"name": "\u0627\u0633\u0644\u0627\u0645 \u0622\u0628\u0627\u062f", "name:en": "Islam Abad", "place": "hamlet"}}, {"type": "node", "id": 8402043386, "lat": 30.9708002, "lon": 61.8913184, "tags": {"name": "\u062d\u0627\u062c\u06cc \u062e\u062f\u0627\u0646\u0638\u0631 \u062e\u0627\u0646 \u0627\u0632\u0628\u06a9\u0632\u0647\u06cc", "place": "village"}}, {"type": "node", "id": 8402043392, "lat": 30.9794807, "lon": 61.8817157, "tags": {"name": "\u06a9\u0645\u0627\u0644 \u062e\u0627\u0646 \u0627\u0632\u0628\u06a9\u0632\u0647\u06cc", "place": "village"}}, {"type": "node", "id": 8402043393, "lat": 30.9779373, "lon": 61.8796182, "tags": {"name": "\u0645\u06cc\u0631\u0632\u0627 \u0627\u0628\u0648\u0628\u06a9\u0631", "name:bal": "\u0627\u0632\u0628\u06a9\u0632\u0647\u06cc \u062f\u0647- \u0645\u06cc\u0631\u0632\u0627 \u0627\u0628\u0648\u0628\u06a9\u0631", "name:en": "M\u012brz\u0101 Ab\u016b Bakr", "place": "hamlet"}}, {"type": "node", "id": 8404112412, "lat": 30.9828946, "lon": 61.8890746, "tags": {"name": "\u062e\u0648\u0627\u062c\u0647 \u06a9\u0631\u06cc\u0645", "name:en": "Khowaja Karem", "place": "village", "population": "12000"}}, {"type": "node", "id": 10754708528, "lat": 30.9713788, "lon": 61.8872407, "tags": {"name": "Haji Zaher Ozbakzahi", "name:bgn": "\u062d\u0627\u062c\u06cc \u0638\u0627\u0647\u0631 \u0627\u0632\u0628\u06a9\u0632\u06cc\u06cc", "name:fa": "\u062d\u0627\u062c\u06cc \u0638\u0627\u0647\u0631 \u0627\u0632\u0628\u06a9\u0632\u0647\u06cc", "place": "village", "population": "1000"}}]}