{"version": 0.6, "generator": "Overpass API 0.7.61.5 4133829e", "osm3s": {"timestamp_osm_base": "2024-03-05T13:42:59Z", "copyright": "The data included in this document is from www.openstreetmap.org. The data is made available under ODbL."}, "elements": [{"type": "node", "id": 271756383, "lat": 37.3502486, "lon": 68.6788264, "tags": {"alt_name": "Pyandj;Pyandzh;D\u016dsty;Dusty", "int_name": "Dusti", "name": "\u0414\u0443\u0441\u0442\u0438", "name:en": "Dusti", "name:ru": "\u0414\u0443\u0441\u0442\u0438", "old_name": "Molotovabad", "old_name:ru": "\u041c\u043e\u043b\u043e\u0442\u043e\u0432\u0430\u0431\u0430\u0434", "place": "town", "population": "10800,   \t16 500[1] \u0447\u0435\u043b\u043e\u0432\u0435\u043a (2015)", "wikidata": "Q722396", "wikipedia": "en:Dusti"}}, {"type": "node", "id": 2503630306, "lat": 37.5866138, "lon": 68.6614719, "tags": {"name": "\u0411\u0430\u043b\u0445", "name:en": "Balkh", "name:ru": "\u0411\u0430\u043b\u0445", "name:tg": "\u0411\u0430\u043b\u0445", "name:uk": "\u0411\u0430\u043b\u0445", "old_name": "\u0422\u0443\u0433\u0443\u043b\u0430\u043d\u0433;\u041a\u0430\u0433\u0430\u043d\u043e\u0432\u0438\u0447\u0430\u0431\u0430\u0434;\u041a\u043e\u043b\u0445\u043e\u0437\u0430\u0431\u0430\u0434", "place": "town", "population": "19800", "population:date": "2022", "postal_code": "735200", "wikidata": "Q1935682", "wikipedia": "tg:\u0411\u0430\u043b\u0445 (\u0448\u0430\u04b3\u0440\u0430\u043a)"}}, {"type": "node", "id": 2503630321, "lat": 37.4902059, "lon": 68.5283505, "tags": {"int_name": "Jilikul", "name": "\u04b6\u0438\u043b\u0438\u043a\u04ef\u043b", "name:en": "Jilikul", "name:fa": "\u062c\u0644\u06cc \u06a9\u0648\u0644", "name:ru": "\u0414\u0436\u0438\u043b\u0438\u043a\u0443\u043b\u044c", "name:tg": "\u04b6\u0438\u043b\u0438\u043a\u04ef\u043b", "name:uk": "\u0414\u0436\u0438\u043b\u0456\u043a\u0443\u043b", "place": "village", "population": "3643", "population:date": "2017", "postal_code": "735214", "wikidata": "Q18378882", "wikipedia": "en:Jilikul"}}, {"type": "node", "id": 4283033352, "lat": 37.4141752, "lon": 68.6125492, "tags": {"name": "\u041f\u043e\u0431\u0435\u0434\u0430  7", "place": "village"}}, {"type": "node", "id": 4285002828, "lat": 37.4119347, "lon": 68.6220975, "tags": {"name": "\u042d\u043d\u0433\u0435\u043b\u044c\u0441", "name:en": "Engel's", "name:ru": "\u042d\u043d\u0433\u0435\u043b\u044c\u0441", "place": "village"}}, {"type": "node", "id": 4308381333, "lat": 37.3764365, "lon": 68.5985483, "tags": {"name": "\u041f\u043e\u0431\u0435\u0434\u0430  9", "place": "village"}}, {"type": "node", "id": 4622656660, "lat": 37.4100087, "lon": 68.6835468, "tags": {"name": "Bolshevik", "place": "village"}}, {"type": "node", "id": 6569296015, "lat": 37.5684603, "lon": 68.7694788, "tags": {"name": "\u0492\u0430\u0439\u0440\u0430\u0442", "name:uk": "\u0490\u0430\u0439\u0440\u0430\u0442", "old_name": "\u0422\u043e\u0448\u0440\u0430\u0431\u043e\u0442", "place": "village", "population": "860", "population:date": "2017", "wikidata": "Q65298168", "wikipedia": "tg:\u0492\u0430\u0439\u0440\u0430\u0442 (\u0434\u0435\u04b3\u0430, \u043d. \u0411\u0430\u043b\u0445\u04e3)"}}, {"type": "node", "id": 6853554623, "lat": 37.3680915, "lon": 68.5795568, "tags": {"name": "Turkmenski", "name:ru": "\u0422\u0443\u0440\u043a\u043c\u0435\u043d\u0441\u043a\u0438\u0439", "place": "village"}}, {"type": "node", "id": 6853599106, "lat": 37.3956097, "lon": 68.6466347, "tags": {"name": "\u0421\u0443\u0493\u0434\u0438\u0451\u043d", "place": "village"}}, {"type": "node", "id": 6853599107, "lat": 37.404997, "lon": 68.6523534, "tags": {"name": "\u049a\u0443\u043c\u0441\u0430\u043d\u0433\u0438\u0440", "name:ru": "\u0423\u043a\u0434\u0436", "place": "village"}}, {"type": "node", "id": 6853694039, "lat": 37.5716353, "lon": 68.5760845, "tags": {"name": "\u0428\u0443\u0440o", "name:en": "Shuro", "name:lt": "\u0160uro", "name:ru": "\u0428\u0443\u0440o", "name:tg": "\u0428\u04ef\u0440\u043e", "name:uk": "\u0428\u0443\u0440\u043e", "place": "village", "population": "1575", "population:date": "2017", "wikidata": "Q60336285", "wikipedia": "tg:\u0428\u04ef\u0440\u043e (\u0434\u0435\u04b3\u0430, \u043d. \u0414\u04ef\u0441\u0442\u04e3)"}}, {"type": "node", "id": 6853754077, "lat": 37.5636878, "lon": 68.5978399, "tags": {"name": "\u0410\u0431\u0434\u0443\u0440\u0430\u04b3\u043c\u043e\u043d\u0438 \u04b6\u043e\u043c\u04e3", "name:uk": "\u0410\u0431\u0434\u0443\u0440\u0430\u0445\u043c\u043e\u043d\u0456 \u0414\u0436\u043e\u043c\u0456", "old_name": "\u0410\u0439\u043d\u0438", "place": "village", "population": "3057", "population:date": "2017", "postal_code": "735206", "wikidata": "Q60333510", "wikipedia": "tg:\u0410\u0431\u0434\u0443\u0440\u0430\u04b3\u043c\u043e\u043d\u0438 \u04b6\u043e\u043c\u04e3 (\u0434\u0435\u04b3\u0430, \u043d. \u0411\u0430\u043b\u0445\u04e3)"}}, {"type": "node", "id": 6853953907, "lat": 37.5805419, "lon": 68.6152263, "tags": {"name": "\u041b\u043e\u04b3\u0443\u0442\u04e3", "name:en": "Lohuti", "name:ru": "\u041b\u0430\u0445\u0443\u0442\u0438", "name:tg": "\u041b\u043e\u04b3\u0443\u0442\u04e3", "name:uk": "\u041b\u043e\u0445\u0443\u0442\u0456", "place": "village", "population": "2477", "population:date": "2017", "wikidata": "Q65297709", "wikipedia": "tg:\u041b\u043e\u04b3\u0443\u0442\u04e3 (\u0434\u0435\u04b3\u0430, \u043d. \u0411\u0430\u043b\u0445\u04e3)"}}, {"type": "node", "id": 6853954683, "lat": 37.6378051, "lon": 68.5843934, "tags": {"name": "\u041c\u0435\u04b3\u043d\u0430\u0442\u043e\u0431\u043e\u0434", "name:en": "Mekhnatabad", "name:ru": "\u041c\u0435\u0445\u043d\u0430\u0442\u0430\u0431\u0430\u0434", "name:uk": "\u041c\u0435\u0445\u043d\u0430\u0442\u043e\u0431\u043e\u0434", "old_name": "\u041c\u0435\u0445\u043d\u0430\u0442\u0430\u0431\u0430\u0434", "place": "village", "population": "1004", "population:date": "2017", "wikidata": "Q65297751", "wikipedia": "tg:\u041c\u0435\u04b3\u043d\u0430\u0442\u043e\u0431\u043e\u0434 (\u0434\u0435\u04b3\u0430, \u043d. \u0411\u0430\u043b\u0445\u04e3)"}}, {"type": "node", "id": 6853964258, "lat": 37.6255957, "lon": 68.5776345, "tags": {"name": "\u0422\u0435\u043b\u043c\u0430\u043d", "name:ru": "\u0422\u0435\u043b\u044c\u043c\u0430\u043d", "name:uk": "\u0422\u0435\u043b\u044c\u043c\u0430\u043d", "old_name": "\u0422\u0435\u043b\u044c\u043c\u0430\u043d", "place": "village", "population": "1337", "population:date": "2017", "wikidata": "Q65298013", "wikipedia": "tg:\u0422\u0435\u043b\u043c\u0430\u043d (\u0434\u0435\u04b3\u0430, \u043d. \u0411\u0430\u043b\u0445\u04e3)"}}, {"type": "node", "id": 6853987693, "lat": 37.6390046, "lon": 68.6273938, "tags": {"name": "\u049a\u0438\u0437\u0438\u043b \u041e\u043a\u0442\u044f\u0431\u0440", "name:uk": "\u041a\u0438\u0437\u0438\u043b-\u041e\u043a\u0442\u044f\u0431\u0440", "old_name": "\u0413\u0438\u0448\u0442\u043c\u0430\u0437\u043e\u0440", "place": "village", "population": "1450", "population:date": "2017", "wikidata": "Q65298190", "wikipedia": "tg:\u049a\u0438\u0437\u0438\u043b \u041e\u043a\u0442\u044f\u0431\u0440 (\u0434\u0435\u04b3\u0430, \u043d. \u0411\u0430\u043b\u0445\u04e3)"}}, {"type": "node", "id": 6854007685, "lat": 37.6067945, "lon": 68.5961455, "tags": {"name": "\u041f\u0430\u0445\u0442\u0430\u0430\u0440\u0430\u043b", "name:en": "Pakhtaaral", "name:ru": "\u041f\u0430\u0445\u0442\u0430\u0430\u0440\u0430\u043b", "name:uk": "\u041f\u0430\u0445\u0442\u0430\u0430\u0440\u0430\u043b", "place": "village", "population": "1163", "population:date": "2017", "postal_code": "735210", "wikidata": "Q65297883", "wikipedia": "tg:\u041f\u0430\u0445\u0442\u0430\u0430\u0440\u0430\u043b (\u0434\u0435\u04b3\u0430, \u043d. \u0411\u0430\u043b\u0445\u04e3)"}}, {"type": "node", "id": 6854012150, "lat": 37.5764532, "lon": 68.5711319, "tags": {"name": "\u041d\u0443\u0440\u043e\u0431\u043e\u0434", "name:uk": "\u041d\u0443\u0440\u043e\u0431\u043e\u0434", "old_name": "\u0413\u0440\u043e\u043c\u043e\u0432\u0430\u0431\u0430\u0434", "place": "village", "population": "1830", "population:date": "2017", "wikidata": "Q60336268", "wikipedia": "tg:\u041d\u0443\u0440\u043e\u0431\u043e\u0434 (\u0434\u0435\u04b3\u0430, \u043d. \u0414\u04ef\u0441\u0442\u04e3)"}}, {"type": "node", "id": 6854022038, "lat": 37.6422936, "lon": 68.6071058, "tags": {"name": "\u0411\u043e\u043b\u0448\u0435\u0432\u0438\u043a", "name:en": "Bolshevik", "name:ru": "\u0431\u043e\u043b\u044c\u0448\u0435\u0432\u0438\u043a", "name:uk": "\u0411\u0456\u043b\u044c\u0448\u043e\u0432\u0438\u043a", "old_name": "\u0411\u043e\u043b\u044c\u0448\u0435\u0432\u0438\u043a", "place": "village", "population": "2180", "population:date": "2017", "wikidata": "Q65297421", "wikipedia": "tg:\u0411\u043e\u043b\u0448\u0435\u0432\u0438\u043a (\u0434\u0435\u04b3\u0430, \u043d. \u0411\u0430\u043b\u0445\u04e3)"}}, {"type": "node", "id": 6854022039, "lat": 37.622186, "lon": 68.6163226, "tags": {"name": "\u042f\u043d\u0433\u0438\u043e\u0431\u043e\u0434", "name:en": "Yangiabad", "name:ru": "\u042f\u043d\u0433\u0438\u0430\u0431\u0430\u0434", "name:uk": "\u042f\u043d\u0433\u0456\u043e\u0431\u043e\u0434", "old_name": "\u042f\u043d\u0433\u0438\u0430\u0431\u0430\u0434", "place": "village", "population": "1112", "population:date": "2017", "wikidata": "Q65298160", "wikipedia": "tg:\u042f\u043d\u0433\u0438\u043e\u0431\u043e\u0434 (\u0434\u0435\u04b3\u0430, \u043d. \u0411\u0430\u043b\u0445\u04e3)"}}, {"type": "node", "id": 6854034061, "lat": 37.5686455, "lon": 68.6452376, "tags": {"name": "\u042d\u043d\u0433\u0435\u043b\u0441", "name:ru": "\u042d\u043d\u0433\u0435\u043b\u044c\u0441", "name:uk": "\u0415\u043d\u0433\u0435\u043b\u044c\u0441", "old_name": "\u042d\u043d\u0433\u0435\u043b\u044c\u0441", "place": "village", "population": "3089", "population:date": "2017", "wikidata": "Q65298146", "wikipedia": "tg:\u042d\u043d\u0433\u0435\u043b\u0441 (\u0434\u0435\u04b3\u0430, \u043d. \u0411\u0430\u043b\u0445\u04e3)"}}, {"type": "node", "id": 6854043080, "lat": 37.5066373, "lon": 68.6309298, "tags": {"name": "\u0424\u0440\u0443\u043d\u0437\u0435", "name:ru": "\u0424\u0440\u0443\u043d\u0437\u0435", "name:uk": "\u0424\u0440\u0443\u043d\u0437\u0435", "old_name": "\u0438\u043c.\u041e\u0440\u0434\u0436\u043e\u043d\u0456\u043a\u0456\u0434\u0437\u0435", "place": "village", "population": "4265", "population:date": "2017", "postal_code": "735216", "wikidata": "Q65298071", "wikipedia": "tg:\u0424\u0440\u0443\u043d\u0437\u0435 (\u0434\u0435\u04b3\u0430, \u043d. \u0411\u0430\u043b\u0445\u04e3)"}}, {"type": "node", "id": 6854043884, "lat": 37.377301, "lon": 68.6544411, "tags": {"name": "\u041f\u0430\u0445\u0442\u0430\u043a\u043e\u0440", "name:en": "Pakhtakor", "place": "village"}}, {"type": "node", "id": 6854051284, "lat": 37.5387976, "lon": 68.6542779, "tags": {"name": "\u042f\u043d\u0433\u0438\u0442\u0443\u0440\u043c\u0443\u0448", "name:ru": "\u042f\u043d\u0433\u0438\u0442\u0443\u0440\u043c\u044b\u0448", "name:uk": "\u042f\u043d\u0433\u0456\u0442\u0443\u0440\u043c\u0443\u0448", "old_name": "\u042f\u043d\u0433\u0438\u0442\u0443\u0440\u043c\u044b\u0448", "place": "village", "population": "3352", "population:date": "2017", "wikidata": "Q65298163", "wikipedia": "tg:\u042f\u043d\u0433\u0438\u0442\u0443\u0440\u043c\u0443\u0448 (\u0434\u0435\u04b3\u0430, \u043d. \u0411\u0430\u043b\u0445\u04e3)"}}, {"type": "node", "id": 6854059008, "lat": 37.5215657, "lon": 68.6285287, "tags": {"name": "\u049a\u0430\u04b3\u0440\u0430\u043c\u043e\u043d", "name:ru": "\u041a\u0430\u0445\u0440\u0430\u043c\u043e\u043d", "name:uk": "\u041a\u0430\u0445\u0440\u0430\u043c\u043e\u043d", "place": "village", "population": "1480", "population:date": "2017", "wikidata": "Q65298183", "wikipedia": "tg:\u049a\u0430\u04b3\u0440\u0430\u043c\u043e\u043d (\u0434\u0435\u04b3\u0430, \u043d. \u0411\u0430\u043b\u0445\u04e3)"}}, {"type": "node", "id": 6854086341, "lat": 37.4848772, "lon": 68.6370228, "tags": {"name": "\u041a\u0430\u043b\u0438\u043d\u0438\u043d", "name:ru": "\u041a\u0430\u043b\u0438\u043d\u0438\u043d\u0441\u043a\u0438\u0439", "name:uk": "\u041a\u0430\u043b\u0456\u043d\u0456\u043d", "old_name": "\u041a\u0430\u043b\u0438\u043d\u0438\u043d\u0441\u043a\u0438\u0439", "place": "village", "population": "2329", "population:date": "2017", "wikidata": "Q65297646", "wikipedia": "tg:\u041a\u0430\u043b\u0438\u043d\u0438\u043d (\u0434\u0435\u04b3\u0430, \u043d. \u0411\u0430\u043b\u0445\u04e3)"}}, {"type": "node", "id": 6854091419, "lat": 37.4831155, "lon": 68.666252, "tags": {"name": "\u0423\u0437\u0431\u0430\u043a\u043e\u0431\u043e\u0434", "name:uk": "\u0423\u0437\u0431\u0430\u043a\u043e\u0431\u043e\u0434", "old_name": "\u041a\u0443\u043c\u0441\u0430\u043d\u0433\u0438\u0440", "place": "village", "population": "4245", "population:date": "2017", "wikidata": "Q65298037", "wikipedia": "tg:\u0423\u0437\u0431\u0430\u043a\u043e\u0431\u043e\u0434 (\u0434\u0435\u04b3\u0430, \u043d. \u0411\u0430\u043b\u0445\u04e3)"}}, {"type": "node", "id": 6854106900, "lat": 37.3778466, "lon": 68.6690752, "tags": {"name": "\u0418\u0441\u0442\u0438\u049b\u043b\u043e\u043b", "name:en": "Istiklol", "place": "village"}}, {"type": "node", "id": 6854293838, "lat": 37.4248162, "lon": 68.6132143, "tags": {"name": "Navruz", "name:ru": "\u041d\u0430\u0432\u0440\u0443\u0437 (\u0434\u043e 2013 \u0433\u043e\u0434\u0430 \u2014 \u0421\u043e\u0446\u0438\u0430\u043b\u0438\u0437\u043c)", "note": "\u041d\u0430\u0432\u0440\u0443\u0437 (\u0434\u043e 2013 \u0433\u043e\u0434\u0430 \u2014 \u0421\u043e\u0446\u0438\u0430\u043b\u0438\u0437\u043c)", "place": "village"}}, {"type": "node", "id": 6854299307, "lat": 37.4124766, "lon": 68.6354946, "tags": {"name": "\u04b6\u0430\u0432\u043e\u043d\u043e\u043d", "name:en": "Javonon", "name:ru": "\u0414\u0436\u0430\u0432\u043e\u043d\u043e\u043d", "note": "\u0414\u0436\u0430\u0432\u043e\u043d\u043e\u043d (\u0434\u043e 2013 \u0433\u043e\u0434\u0430 \u2014 \u041a\u043e\u043c\u0441\u043e\u043c\u043e\u043b)", "place": "village"}}, {"type": "node", "id": 6854315723, "lat": 37.4193289, "lon": 68.6413883, "tags": {"name": "Khomiyon", "name:ru": "\u0425\u043e\u043c\u0438\u0451\u043d", "note": "\u0425\u043e\u043c\u0438\u0451\u043d (\u0434\u043e 2013 \u0433\u043e\u0434\u0430 \u2014 \u0410\u0441\u043a\u0430\u0440\u0438\u0441\u0443\u0440\u0445)", "place": "village"}}, {"type": "node", "id": 6854856038, "lat": 37.4376197, "lon": 68.6428332, "tags": {"name": "\u0438\u043c\u0435\u043d\u0438 \u0410. \u0424\u0438\u0440\u0434\u0430\u0443\u0441\u0438", "note": "\u0438\u043c\u0435\u043d\u0438 \u0410. \u0424\u0438\u0440\u0434\u0430\u0443\u0441\u0438 (\u0434\u043e 2013 \u0433\u043e\u0434\u0430 \u2014 \u041a\u044b\u0437\u044b\u043b\u043d\u0438\u0448\u043e\u043d\n", "place": "village"}}, {"type": "node", "id": 6854992818, "lat": 37.4825177, "lon": 68.628006, "tags": {"name": "\u041c\u0430\u043a\u0441\u0438\u043c \u0413\u043e\u0440\u043a\u0438\u0439", "name:en": "Maksim Gorkiy", "name:ru": "\u0438\u043c\u0435\u043d\u0438 \u041c. \u0413\u043e\u0440\u044c\u043a\u043e\u0433\u043e", "name:tg": "\u041c\u0430\u043a\u0441\u0438\u043c \u0413\u043e\u0440\u043a\u0438\u0439", "name:uk": "\u041c\u0430\u043a\u0441\u0438\u043c \u0413\u043e\u0440\u044c\u043a\u0438\u0439", "old_name": "\u0438\u043c.\u041c\u0430\u043a\u0441\u0438\u043c\u0430 \u0413\u043e\u0440\u044c\u043a\u043e\u0433\u043e", "place": "village", "population": "2985", "population:date": "2017", "wikidata": "Q65297724", "wikipedia": "tg:\u041c\u0430\u043a\u0441\u0438\u043c \u0413\u043e\u0440\u043a\u0438\u0439 (\u0434\u0435\u04b3\u0430, \u043d. \u0411\u0430\u043b\u0445\u04e3)"}}, {"type": "node", "id": 6854992819, "lat": 37.4617478, "lon": 68.612432, "tags": {"name": "uchastok imeni Engel'sa", "place": "village"}}, {"type": "node", "id": 6855142373, "lat": 37.5633869, "lon": 68.5421044, "tags": {"name": "\u0411\u0435\u0448\u0442\u0443\u0442", "name:uk": "\u0411\u0435\u0448\u0442\u0443\u0442", "place": "village", "population": "656", "population:date": "2017", "wikidata": "Q60336258", "wikipedia": "tg:\u0411\u0435\u0448\u0442\u0443\u0442"}}, {"type": "node", "id": 6855380076, "lat": 37.4331032, "lon": 68.5227202, "tags": {"name": "\u041d\u0430\u043c\u0443\u043d\u0430", "name:en": "Namuna", "name:ru": "\u041d\u0430\u043c\u0443\u043d\u0430", "name:uk": "\u041d\u0430\u043c\u0443\u043d\u0430", "place": "village", "population": "1068", "population:date": "2017", "wikipedia": "tg:\u041d\u0430\u043c\u0443\u043d\u0430 (\u0434\u0435\u04b3\u0430, \u043d. \u0414\u04ef\u0441\u0442\u04e3)"}}, {"type": "node", "id": 6855569915, "lat": 37.3291856, "lon": 68.706573, "tags": {"name": "Oktyabr", "place": "village"}}, {"type": "node", "id": 6855569916, "lat": 37.3626775, "lon": 68.7346987, "tags": {"name": "Novabad", "place": "village"}}, {"type": "node", "id": 6855569917, "lat": 37.3580078, "lon": 68.7275693, "tags": {"name": "Mekhnat-Rokhat", "place": "village"}}, {"type": "node", "id": 6855574376, "lat": 37.4297391, "lon": 68.5441806, "tags": {"name": "\u0418\u0441\u0442\u0438\u049b\u043b\u043e\u043b\u0438\u044f\u0442", "name:uk": "\u0406\u0441\u0442\u0456\u043a\u043b\u043e\u043b\u0456\u044f\u0442", "nat_name": "\u0418\u0441\u0442\u0438\u049b\u043b\u043e\u043b\u0438\u044f\u0442", "old_name": "\u0443\u0447.\u0438\u043c.\u041c\u0430\u043a\u0441\u0438\u043c\u0430 \u0413\u043e\u0440\u044c\u043a\u043e\u0433\u043e", "place": "village", "population": "1640", "population:date": "2017", "wikidata": "Q60336200", "wikipedia": "tg:\u0418\u0441\u0442\u0438\u049b\u043b\u043e\u043b\u0438\u044f\u0442 (\u0434\u0435\u04b3\u0430, \u043d. \u0414\u04ef\u0441\u0442\u04e3)"}}, {"type": "node", "id": 6855576787, "lat": 37.4470526, "lon": 68.5308446, "tags": {"name": "\u0422\u043e\u04b7\u0438\u043a\u043e\u0431\u043e\u0434", "name:hi-Latn": "Tojikobod", "name:ru": "\u0422\u0430\u0434\u0436\u0438\u043a\u0430\u0431\u0430\u0434", "name:uk": "\u0422\u043e\u0434\u0436\u0438\u043a\u043e\u0431\u043e\u0434", "old_name": "\u0422\u0430\u0434\u0436\u0438\u043a\u0430\u0431\u0430\u0434", "place": "village", "population": "1018", "wikipedia": "tg:\u0422\u043e\u04b7\u0438\u043a\u043e\u0431\u043e\u0434 (\u0434\u0435\u04b3\u0430, \u043d. \u0414\u04ef\u0441\u0442\u04e3)"}}, {"type": "node", "id": 6855576788, "lat": 37.4382699, "lon": 68.5515438, "tags": {"name": "\u0422\u0443\u0440\u043a\u043c\u0430\u043d\u043e\u0431\u043e\u0434", "name:uk": "\u0422\u0443\u0440\u043a\u043c\u0430\u043d\u043e\u0431\u043e\u0434", "old_name": "\u0422\u0443\u0440\u043a\u043c\u0435\u043d\u0430\u0431\u0430\u0434", "place": "village", "population": "1098", "population:date": "2017", "wikidata": "Q60336247", "wikipedia": "tg:\u0422\u0443\u0440\u043a\u043c\u0430\u043d\u043e\u0431\u043e\u0434 (\u0434\u0435\u04b3\u0430, \u043d. \u0414\u04ef\u0441\u0442\u04e3)"}}, {"type": "node", "id": 6855591423, "lat": 37.4690778, "lon": 68.5375473, "tags": {"name": "\u041c\u0430\u0440\u043a\u0430\u0437", "name:uk": "\u041c\u0430\u0440\u043a\u0430\u0437", "old_name": "\u0443\u0447.\u0438\u043c.\u041a\u0430\u043b\u0438\u043d\u0438\u043d\u0430;\u041a\u0430\u043b\u0438\u043d\u0438\u043d", "place": "village", "population": "968", "population:date": "2017", "wikipedia": "tg:\u041c\u0430\u0440\u043a\u0430\u0437 (\u0434\u0435\u04b3\u0430, \u043d. \u0414\u04ef\u0441\u0442\u04e3)"}}, {"type": "node", "id": 6855591424, "lat": 37.4780525, "lon": 68.5474393, "tags": {"name": "\u041c\u0435\u04b3\u0440\u0433\u043e\u043d", "name:uk": "\u041c\u0435\u0445\u0440\u0433\u043e\u043d", "old_name": "\u0413\u0443\u043b\u0438\u0441\u0442\u0430\u043d", "place": "village", "population": "654", "population:date": "2017", "wikidata": "Q60336326", "wikipedia": "tg:\u041c\u0435\u04b3\u0440\u0433\u043e\u043d (\u0434\u0435\u04b3\u0430, \u043d. \u0414\u04ef\u0441\u0442\u04e3)"}}, {"type": "node", "id": 6855591426, "lat": 37.4578164, "lon": 68.5774049, "tags": {"name": "\u0413\u0443\u043b\u0438\u0441\u0442\u043e\u043d", "name:uk": "\u0413\u0443\u043b\u0456\u0441\u0442\u043e\u043d", "old_name": "\u0411\u0435\u0448\u0430\u0440\u044b\u043a", "place": "village", "population": "1068", "population:date": "2017", "wikidata": "Q60336196", "wikipedia": "tg:\u0413\u0443\u043b\u0438\u0441\u0442\u043e\u043d (\u0434\u0435\u04b3\u0430, \u043d. \u0414\u04ef\u0441\u0442\u04e3)"}}, {"type": "node", "id": 6855591427, "lat": 37.3885822, "lon": 68.601459, "tags": {"name": "Vakhsh", "place": "village", "postal_code": "735221"}}, {"type": "node", "id": 6855593002, "lat": 37.4173162, "lon": 68.5793926, "tags": {"name": "Maksim Gorkiy", "place": "village"}}, {"type": "node", "id": 6855593005, "lat": 37.4222061, "lon": 68.5615255, "tags": {"name": "\u042f\u043a\u043a\u0430\u0434\u0438\u043d", "name:en": "Yakkadin", "name:ru": "\u042f\u043a\u043a\u0430\u0434\u0438\u043d", "place": "village"}}, {"type": "node", "id": 6855614475, "lat": 37.3224735, "lon": 68.6811185, "tags": {"name": "\u041f\u0430\u043d\u04b7\u0438 \u0431\u043e\u043b\u043e", "name:en": "Panji Bolo", "name:fa": "\u067e\u0646\u062c \u0628\u0627\u0644\u0627", "place": "village"}}, {"type": "node", "id": 6855635584, "lat": 37.344976, "lon": 68.715832, "tags": {"name": "Pervoye maya", "place": "village", "postal_code": "735227"}}, {"type": "node", "id": 6855639685, "lat": 37.3488824, "lon": 68.6988804, "tags": {"name": "Krasnoostrovskiy", "place": "village"}}, {"type": "node", "id": 6855682194, "lat": 37.3878519, "lon": 68.6610158, "tags": {"name": "\u0422\u043e\u04b7\u0438\u043a\u0438\u0441\u0442\u043e\u043d", "name:en": "Tajikistan", "name:ru": "\u0422\u0430\u0434\u0436\u0438\u043a\u0438\u0441\u0442\u0430\u043d", "note": "\u0422\u0430\u0434\u0436\u0438\u043a\u0438\u0441\u0442\u0430\u043d (\u0434\u043e 2013 \u0433\u043e\u0434\u0430 \u2014 \u041a\u044b\u0437\u044b\u043b \u0422\u0430\u0434\u0436\u0438\u043a\u0438\u0441\u0442\u0430\u043d)", "place": "village", "postal_code": "735225"}}, {"type": "node", "id": 6855695012, "lat": 37.3389754, "lon": 68.6626097, "tags": {"name": "Piyonerskiy", "name:ru": "\u041f\u0438\u043e\u043d\u0435\u0440\u0441\u043a\u0438\u0439", "place": "village", "postal_code": "735227"}}, {"type": "node", "id": 6855803000, "lat": 37.5144494, "lon": 68.4846582, "tags": {"name": "\u04b6\u0430\u043d\u0433\u0430\u043b\u043f\u0430\u0440\u0432\u0430\u0440", "name:uk": "\u0414\u0436\u0430\u043d\u0433\u0430\u043b\u043f\u0430\u0440\u0432\u0430\u0440", "old_name": "\u042f\u043d\u0433\u0438\u0430\u0431\u0430\u0434", "place": "village", "population": "3111", "population:date": "2017", "postal_code": "735219", "wikidata": "Q60336304", "wikipedia": "tg:\u04b6\u0430\u043d\u0433\u0430\u043b\u043f\u0430\u0440\u0432\u0430\u0440"}}, {"type": "node", "id": 6856768776, "lat": 37.6160132, "lon": 68.7246515, "tags": {"name": "\u049a\u0430\u0437\u043e\u049b\u043e\u0431\u043e\u0434", "name:lt": "Kazakhabad", "name:uk": "\u041a\u0430\u0437\u043e\u043a\u043e\u0431\u043e\u0434", "old_name": "\u041a\u0430\u0437\u0430\u0445\u0430\u0431\u0430\u0434", "place": "village", "population": "1992", "population:date": "2017", "wikidata": "Q65298179", "wikipedia": "tg:\u049a\u0430\u0437\u043e\u049b\u043e\u0431\u043e\u0434"}}, {"type": "node", "id": 6856841203, "lat": 37.5489278, "lon": 68.7770109, "tags": {"name": "\u042f\u043d\u0433\u0438\u0451\u0440", "name:uk": "\u042f\u043d\u0433\u0456\u0439\u043e\u0440", "old_name": "\u041a\u044b\u0437\u044b\u043b-\u041e\u043a\u0442\u044f\u0431\u0440\u044c", "place": "village", "population": "2067", "population:date": "2017", "postal_code": "735202", "wikidata": "Q65298166", "wikipedia": "tg:\u042f\u043d\u0433\u0438\u0451\u0440 (\u0434\u0435\u04b3\u0430, \u043d. \u0411\u0430\u043b\u0445\u04e3)"}}, {"type": "node", "id": 6856876009, "lat": 37.5588118, "lon": 68.8174839, "tags": {"name": "\u041e\u0440\u0437\u0443", "name:en": "Orzu", "name:ru": "\u041e\u0440\u0437\u0443", "name:tg": "\u0428\u0430\u04b3\u0440\u0430\u043a\u0438 \u041e\u0440\u0437\u0443", "name:uk": "\u041e\u0440\u0437\u0443", "place": "town", "population": "7200", "population:date": "2022", "postal_code": "735180", "wikipedia": "tg:\u0428\u0430\u04b3\u0440\u0430\u043a\u0438 \u041e\u0440\u0437\u0443"}}, {"type": "node", "id": 6857807369, "lat": 37.6421509, "lon": 68.7642188, "tags": {"name": "\u041d\u0430\u0432\u0430\u0431\u0430\u0434", "name:lt": "Navabad", "place": "village"}}, {"type": "node", "id": 6857807381, "lat": 37.6327883, "lon": 68.8017804, "tags": {"name": "Bogara", "place": "village"}}, {"type": "node", "id": 6860314086, "lat": 37.5440621, "lon": 68.5495298, "tags": {"name": "\u0417\u0430\u0440\u043d\u0438\u0441\u043e\u0440", "name:uk": "\u0417\u0430\u0440\u043d\u0456\u0441\u043e\u0440", "old_name": "\u041f\u0430\u0445\u0442\u0430\u043a\u043e\u0440-\u0421\u0443\u0440\u0445", "place": "village", "population": "1860", "population:date": "2017", "postal_code": "735213", "wikidata": "Q60336321", "wikipedia": "tg:\u0417\u0430\u0440\u043d\u0438\u0441\u043e\u0440 (\u0434\u0435\u04b3\u0430, \u043d. \u0414\u04ef\u0441\u0442\u04e3)"}}, {"type": "node", "id": 6860319993, "lat": 37.5350265, "lon": 68.5590071, "tags": {"name": "\u0412\u0430\u04b3\u0434\u0430\u0442", "name:uk": "\u0412\u0430\u0445\u0434\u0430\u0442", "old_name": "\u041c\u0438\u0440\u043e\u0432\u043e\u0439;\u041c\u0438\u0440\u043e\u0432\u043e\u0439-\u041e\u043a\u0442\u044f\u0431\u0440\u044c", "place": "village", "population": "2357", "population:date": "2017", "wikidata": "Q31458979", "wikipedia": "tg:\u0412\u0430\u04b3\u0434\u0430\u0442 (\u0434\u0435\u04b3\u0430, \u043d. \u0414\u04ef\u0441\u0442\u04e3)"}}, {"type": "node", "id": 6860323111, "lat": 37.4965518, "lon": 68.5686575, "tags": {"name": "\u0427\u0430\u043c\u0430\u043d\u0438\u0441\u0442\u043e\u043d", "name:uk": "\u0427\u0430\u043c\u0430\u043d\u0456\u0441\u0442\u043e\u043d", "nat_name": "\u0427\u0430\u043c\u0430\u043d\u0438\u0441\u0442\u043e\u043d", "old_name": "\u041a\u0430\u0439\u0442\u043c\u0430\u0441", "place": "village", "population": "1284", "population:date": "2017", "wikidata": "Q60336336", "wikipedia": "tg:\u0427\u0430\u043c\u0430\u043d\u0438\u0441\u0442\u043e\u043d (\u0434\u0435\u04b3\u0430, \u043d. \u0414\u04ef\u0441\u0442\u04e3)"}}, {"type": "node", "id": 6860434063, "lat": 37.5431668, "lon": 68.5951508, "tags": {"name": "\u0427\u043a\u0430\u043b\u043e\u0432", "name:uk": "\u0427\u043a\u0430\u043b\u043e\u0432", "place": "village", "population": "1551", "population:date": "2017", "wikidata": "Q65298115", "wikipedia": "tg:\u0427\u043a\u0430\u043b\u043e\u0432 (\u0434\u0435\u04b3\u0430, \u043d. \u0411\u0430\u043b\u0445\u04e3)"}}, {"type": "node", "id": 6860876729, "lat": 37.4539799, "lon": 68.6420438, "tags": {"name": "Madaniyat", "place": "village"}}, {"type": "node", "id": 6860876730, "lat": 37.4456498, "lon": 68.6298129, "tags": {"name": "Udarnik", "place": "village"}}, {"type": "node", "id": 6860876731, "lat": 37.4079058, "lon": 68.6872336, "tags": {"name": "Novabad", "place": "village"}}, {"type": "node", "id": 6879892191, "lat": 37.3189614, "lon": 68.7168876, "tags": {"name": "Khlopkovyy", "name:ru": "\u0425\u043b\u043e\u043f\u043a\u043e\u0432\u044b\u0439", "place": "village"}}, {"type": "node", "id": 6879894723, "lat": 37.3425416, "lon": 68.742192, "tags": {"name": "Pervomayskiy", "place": "village"}}, {"type": "node", "id": 6887160062, "lat": 37.5547962, "lon": 68.6080666, "tags": {"name": "\u041a\u0430\u0440\u043b \u041c\u0430\u0440\u043a\u0441", "name:en": "Karl Marks", "place": "village"}}, {"type": "node", "id": 6888584194, "lat": 37.5669005, "lon": 68.4470961, "tags": {"name": "20-\u0441\u043e\u043b\u0430\u0433\u0438\u0438 \u0418\u0441\u0442\u0438\u049b\u043b\u043e\u043b\u0438\u044f\u0442\u0438 \u0422\u043e\u0447\u0438\u043a\u0438\u0441\u0442\u043e\u043d", "name:en": "20th Anniversary of Independence of Tajikistan", "name:ru": "20-\u0441\u043e\u043b\u0430\u0433\u0438\u0438 \u0418\u0441\u0442\u0438\u043a\u043b\u043e\u043b\u0438\u044f\u0442\u0438 \u0422\u043e\u0447\u0438\u043a\u0438\u0441\u0442\u043e\u043d", "name:uk": "20-\u0440\u0456\u0447\u0447\u044f \u041d\u0435\u0437\u0430\u043b\u0435\u0436\u043d\u043e\u0441\u0442\u0456 \u0422\u0430\u0434\u0436\u0438\u043a\u0438\u0441\u0442\u0430\u043d\u0443", "name:uz": "20-solagii Istiqloliyati Tojikiston", "old_name": "\u0413\u0430\u0440\u0430\u0432\u0443\u0442\u0438", "old_name:en": "Gharavuti", "old_name:tg": "\u0492\u0430\u0440\u0430\u0432\u0443\u0442\u04e3", "place": "town", "population": "6000", "population:date": "2022", "postal_code": "735218", "wikidata": "Q9265875", "wikipedia": "ru:20-\u043b\u0435\u0442\u0438\u044f \u041d\u0435\u0437\u0430\u0432\u0438\u0441\u0438\u043c\u043e\u0441\u0442\u0438 \u0420\u0435\u0441\u043f\u0443\u0431\u043b\u0438\u043a\u0438 \u0422\u0430\u0434\u0436\u0438\u043a\u0438\u0441\u0442\u0430\u043d"}}, {"type": "node", "id": 6888610536, "lat": 37.6113411, "lon": 68.4443656, "tags": {"name": "\u041a\u04ef\u04b3\u0434\u043e\u043c\u0430\u043d", "name:uk": "\u041a\u0443\u0445\u0434\u043e\u043c\u0430\u043d", "old_name": "\u041d\u0430\u0432\u0430\u0431\u0430\u0434", "place": "village", "population": "7419", "population:date": "2017", "wikidata": "Q60336172", "wikipedia": "tg:\u041a\u04ef\u04b3\u0434\u043e\u043c\u0430\u043d (\u0434\u0435\u04b3\u0430, \u043d. \u0414\u04ef\u0441\u0442\u04e3)"}}, {"type": "node", "id": 6888700473, "lat": 37.5934359, "lon": 68.4250402, "tags": {"name": "\u041e\u043b\u0438\u043c\u043e\u0431\u043e\u0434", "name:uk": "\u041e\u043b\u0456\u043c\u043e\u0431\u043e\u0434", "old_name": "\u0410\u0447\u0438\u0441\u043e\u0439;\u0410\u0447\u0438\u0441\u0435\u043b", "place": "village", "population": "1358", "population:date": "2017", "wikidata": "Q60336183", "wikipedia": "tg:\u041e\u043b\u0438\u043c\u043e\u0431\u043e\u0434 (\u0434\u0435\u04b3\u0430, \u043d. \u0414\u04ef\u0441\u0442\u04e3)"}}, {"type": "node", "id": 6892121395, "lat": 37.39769, "lon": 68.5644199, "tags": {"name": "\u04b6\u0430\u043b\u043e\u043b\u0438\u0434\u0434\u0438\u043d\u0438 \u0411\u0430\u043b\u0445\u04e3", "note": "\u0438\u043c\u0435\u043d\u0438 \u0411\u0430\u043b\u0445\u0438 (\u0434\u043e 2013 \u0433\u043e\u0434\u0430 \u2014 \u0424\u0440\u0443\u043d\u0437\u0435)", "place": "village"}}, {"type": "node", "id": 6892181612, "lat": 37.4560546, "lon": 68.6278281, "tags": {"name": "\u0412\u0430\u0445\u0434\u0430\u0442\u0438 \u043c\u0438\u043b\u043b\u0438", "note": "\u0412\u0430\u0445\u0434\u0430\u0442\u0438 \u043c\u0438\u043b\u043b\u0438 (\u0434\u043e 2013 \u0433\u043e\u0434\u0430 \u2014 \u0438\u043c\u0435\u043d\u0438 \u041d.\u041a. \u041a\u0440\u0443\u043f\u0441\u043a\u043e\u0439)", "place": "village", "population": "13102"}}, {"type": "node", "id": 6892181613, "lat": 37.4454239, "lon": 68.6272916, "tags": {"name": "\u0425\u0430\u0451\u0442\u0438 \u043d\u0430\u0432", "note": "\u0425\u0430\u0451\u0442\u0438 \u043d\u0430\u0432 (\u0434\u043e 2013 \u0433\u043e\u0434\u0430 \u2014 \u0423\u0434\u0430\u0440\u043d\u0438\u043a)", "place": "village", "postal_code": "735215"}}, {"type": "node", "id": 6899777566, "lat": 37.5191182, "lon": 68.777803, "tags": {"name": "\u041e\u0431\u0447\u0430\u043a\u043e\u0440\u043e\u043d", "name:uk": "\u041e\u0431\u0447\u0430\u043a\u043e\u0440\u043e\u043d", "old_name": "\u0425\u043e\u0441\u0456\u043b\u043e\u0442", "place": "village", "population": "3422", "population:date": "2017", "wikidata": "Q65298233", "wikipedia": "tg:\u041e\u0431\u0447\u0430\u043a\u043e\u0440\u043e\u043d (\u0434\u0435\u04b3\u0430, \u043d. \u0411\u0430\u043b\u0445\u04e3)"}}, {"type": "node", "id": 6899834937, "lat": 37.5212129, "lon": 68.8613337, "tags": {"name": "\u0413\u0443\u043b\u0438\u0441\u0442\u043e\u043d", "name:lt": "Guliston", "place": "village"}}, {"type": "node", "id": 6899847023, "lat": 37.5974367, "lon": 68.7512691, "tags": {"name": "\u041c\u0430\u0434\u0430\u043d\u0438\u044f\u0442", "name:uk": "\u041c\u0430\u0434\u0430\u043d\u0456\u044f\u0442", "old_name": "\u0422\u043e\u0448\u0440\u0430\u0431\u043e\u0442", "place": "village", "population": "1441", "population:date": "2017", "wikidata": "Q65297716", "wikipedia": "tg:\u041c\u0430\u0434\u0430\u043d\u0438\u044f\u0442 (\u0434\u0435\u04b3\u0430, \u043d. \u0411\u0430\u043b\u0445\u04e3)"}}, {"type": "node", "id": 6899884723, "lat": 37.6333858, "lon": 68.78138, "tags": {"name": "\u042f\u043a\u043a\u0430\u0434\u0438\u043d", "name:lt": "Yakkadin", "place": "village"}}, {"type": "node", "id": 7006544612, "lat": 37.4335989, "lon": 68.5978006, "tags": {"description": "\u0441\u0435\u043b\u043e \u0438\u043c\u0435\u043d\u0438 \u041a\u0430\u043b\u0438\u043d\u0438\u043d\u0430 \u043d\u0430 \u0441\u0435\u043b\u043e \u0414\u0435\u0445\u043a\u043e\u043d\u043e\u0431\u043e\u0434 \u0441\u0451\u043b \u0438\u043c\u0435\u043d\u0438 \u0422\u0435\u043b\u044c\u043c\u0430\u043d\u0430", "name": "\u0414\u0435\u0445\u043a\u043e\u043d\u043e\u0431\u043e\u0434 (\u0438\u043c\u0435\u043d\u0438 \u041a\u0430\u043b\u0438\u043d\u0438\u043d\u0430)", "place": "village"}}, {"type": "node", "id": 10685189016, "lat": 37.6100849, "lon": 68.5807276, "tags": {"name": "\u041a\u0430\u0440\u043b \u041c\u0430\u0440\u043a\u0441", "name:uk": "\u041a\u0430\u0440\u043b \u041c\u0430\u0440\u043a\u0441", "old_name": "\u041c\u043e\u0441\u043a\u0432\u0430", "place": "village", "population": "1660", "population:date": "2017", "wikidata": "Q65297658", "wikipedia": "tg:\u041a\u0430\u0440\u043b \u041c\u0430\u0440\u043a\u0441 (\u0434\u0435\u04b3\u0430, \u043d. \u0411\u0430\u043b\u0445\u04e3)"}}, {"type": "node", "id": 10685189017, "lat": 37.6027469, "lon": 68.5884037, "tags": {"name": "\u0420\u043e\u04b3\u0438\u043d\u0430\u0432", "name:uk": "\u0420\u043e\u0445\u0456\u043d\u0430\u0432", "place": "village", "population": "1492", "population:date": "2017", "wikidata": "Q65297928", "wikipedia": "tg:\u0420\u043e\u04b3\u0438\u043d\u0430\u0432 (\u0434\u0435\u04b3\u0430, \u043d. \u0411\u0430\u043b\u0445\u04e3)"}}, {"type": "node", "id": 10685189019, "lat": 37.6342983, "lon": 68.6401528, "tags": {"name": "\u049a\u0438\u0437\u0438\u043b \u0411\u0430\u0439\u0440\u0430\u049b", "name:uk": "\u041a\u0438\u0437\u0438\u043b-\u0411\u0430\u0439\u0440\u0430\u043a", "old_name": "\u041a\u044b\u0437\u044b\u043b-\u0411\u0430\u0439\u0440\u0430\u043a;\u041c\u0430\u0434\u0430\u043d\u0438\u044f\u0442", "place": "village", "population": "1632", "population:date": "2017", "wikidata": "Q65298185", "wikipedia": "tg:\u049a\u0438\u0437\u0438\u043b \u0411\u0430\u0439\u0440\u0430\u049b (\u0434\u0435\u04b3\u0430, \u043d. \u0411\u0430\u043b\u0445\u04e3)"}}, {"type": "node", "id": 10685189020, "lat": 37.6450464, "lon": 68.6456732, "tags": {"name": "\u049a\u0438\u0437\u0438\u043b \u042e\u043b\u0434\u0443\u0437", "name:uk": "\u041a\u0438\u0437\u0438\u043b-\u042e\u043b\u0434\u0443\u0437", "old_name": "\u041a\u044b\u0437\u044b\u043b-\u042e\u043b\u0434\u0443\u0437", "place": "village", "population": "808", "population:date": "2017", "wikidata": "Q65298192", "wikipedia": "tg:\u049a\u0438\u0437\u0438\u043b \u042e\u043b\u0434\u0443\u0437 (\u0434\u0435\u04b3\u0430, \u043d. \u0411\u0430\u043b\u0445\u04e3)"}}, {"type": "node", "id": 10685189021, "lat": 37.6114354, "lon": 68.6397004, "tags": {"name": "\u0425\u043b\u043e\u043f\u043a\u043e\u0440\u043e\u0431", "name:uk": "\u0425\u043b\u043e\u043f\u043a\u043e\u0440\u043e\u0431", "place": "village", "population": "921", "population:date": "2017", "wikidata": "Q65298081", "wikipedia": "tg:\u0425\u043b\u043e\u043f\u043a\u043e\u0440\u043e\u0431"}}, {"type": "node", "id": 10685194332, "lat": 37.4069568, "lon": 68.646384, "tags": {"name": "1 \u041c\u0430\u0439", "place": "village"}}, {"type": "node", "id": 10685194333, "lat": 37.4547139, "lon": 68.5006441, "tags": {"name": "\u041f\u0430\u0441\u0430\u0440\u0438\u049b", "name:en": "Pasariq", "name:uk": "\u041f\u0430\u0441\u0430\u0440\u0438\u043a", "old_name": "\u041f\u0430\u0441\u0441\u0430\u0440\u044b\u043a;\u041f\u0430\u0441\u0430\u0440\u044b\u043a", "place": "village", "population": "1190", "population:date": "2017", "wikidata": "Q60336240", "wikipedia": "tg:\u041f\u0430\u0441\u0430\u0440\u0438\u049b (\u0434\u0435\u04b3\u0430, \u043d. \u0414\u04ef\u0441\u0442\u04e3)"}}, {"type": "node", "id": 10685194334, "lat": 37.4374167, "lon": 68.5645298, "tags": {"name": "\u0418\u0441\u0442\u0438\u049b\u043b\u043e\u043b\u0438\u044f\u0442", "place": "village"}}, {"type": "node", "id": 10685194335, "lat": 37.4595513, "lon": 68.5170638, "tags": {"name": "\u0411\u0430\u04b3\u043e\u0440\u0438\u0441\u0442\u043e\u043d", "name:fa": "\u0628\u0647\u0627\u0631\u0633\u062a\u0627\u0646", "name:uk": "\u0411\u0430\u0445\u043e\u0440\u0456\u0441\u0442\u043e\u043d", "old_name": "\u041a\u043e\u043c\u0441\u043e\u043c\u043e\u043b", "place": "village", "population": "1768", "population:date": "2017", "wikipedia": "tg:\u0411\u0430\u04b3\u043e\u0440\u0438\u0441\u0442\u043e\u043d (\u0434\u0435\u04b3\u0430, \u043d. \u0414\u04ef\u0441\u0442\u04e3)"}}, {"type": "node", "id": 10685194336, "lat": 37.4587723, "lon": 68.5340454, "tags": {"name": "\u0422\u0443\u0440\u0441\u0443\u043d\u0437\u043e\u0434\u0430", "name:uk": "\u0422\u0443\u0440\u0441\u0443\u043d\u0437\u043e\u0434\u0430", "old_name": "\u0416\u0434\u0430\u043d\u043e\u0432\u0430;\u0416\u0434\u0430\u043d\u043e\u0432", "place": "village", "population": "1547", "population:date": "2017", "wikidata": "Q60336250", "wikipedia": "tg:\u0422\u0443\u0440\u0441\u0443\u043d\u0437\u043e\u0434\u0430 (\u0434\u0435\u04b3\u0430, \u043d. \u0414\u04ef\u0441\u0442\u04e3)"}}, {"type": "node", "id": 10685194337, "lat": 37.4718138, "lon": 68.5269744, "tags": {"name": "\u0428\u0430\u04b3\u0434\u0440\u0435\u0437", "name:uk": "\u0428\u0430\u0445\u0434\u0440\u0435\u0437", "old_name": "\u041b\u0435\u043d\u0438\u043d\u0430\u0431\u0430\u0434", "place": "village", "population": "1754", "population:date": "2017", "wikidata": "Q60336338", "wikipedia": "tg:\u0428\u0430\u04b3\u0434\u0440\u0435\u0437 (\u0434\u0435\u04b3\u0430, \u043d. \u0414\u04ef\u0441\u0442\u04e3)"}}, {"type": "node", "id": 10685194338, "lat": 37.485759, "lon": 68.5334861, "tags": {"name": "\u0413\u0443\u043b\u043e\u0431\u043e\u0434", "name:uk": "\u0413\u0443\u043b\u043e\u0431\u043e\u0434", "old_name": "8 \u041c\u0430\u0440\u0442\u0430", "place": "village", "population": "1966", "population:date": "2017", "wikidata": "Q60336311", "wikipedia": "tg:\u0413\u0443\u043b\u043e\u0431\u043e\u0434 (\u0434\u0435\u04b3\u0430, \u043d. \u0414\u04ef\u0441\u0442\u04e3)"}}, {"type": "node", "id": 10694850648, "lat": 37.4836596, "lon": 68.566993, "tags": {"name": "\u041f\u0430\u043d\u04b7\u0440\u04ef\u0434", "name:uk": "\u041f\u0430\u043d\u0434\u0436\u0440\u0443\u0434", "nat_name": "\u0427\u0430\u043c\u0430\u043d\u0438\u0441\u0442\u043e\u043d", "old_name": "1 \u041c\u0430\u044f", "place": "village", "population": "1550", "population:date": "2017", "wikidata": "Q60336333", "wikipedia": "tg:\u041f\u0430\u043d\u04b7\u0440\u04ef\u0434 (\u0434\u0435\u04b3\u0430, \u043d. \u0414\u04ef\u0441\u0442\u04e3)"}}, {"type": "node", "id": 10921553314, "lat": 37.3999153, "lon": 68.4608357, "tags": {"name": "\u041f\u043e\u043b\u0432\u043e\u043d\u0442\u0443\u0493\u0430\u0439", "name:uk": "\u041f\u043e\u043b\u0432\u043e\u043d\u0442\u0443\u0433\u0430\u0439", "old_name": "\u0412\u0430\u0445\u0448", "place": "village", "population": "1522", "population:date": "2017", "wikidata": "Q61710338", "wikipedia": "tg:\u041f\u043e\u043b\u0432\u043e\u043d\u0442\u0443\u0493\u0430\u0439"}}, {"type": "node", "id": 10971055167, "lat": 37.5904274, "lon": 68.4101603, "tags": {"name": "\u041c\u043e\u04b3\u0438\u043d\u0430\u0432", "name:uk": "\u041c\u043e\u0445\u0456\u043d\u0430\u0432", "place": "village", "population": "2604", "population:date": "2017", "wikidata": "Q60336180", "wikipedia": "tg:\u041c\u043e\u04b3\u0438\u043d\u0430\u0432 (\u0434\u0435\u04b3\u0430, \u043d. \u0414\u04ef\u0441\u0442\u04e3)"}}, {"type": "node", "id": 10971055168, "lat": 37.5808079, "lon": 68.4741915, "tags": {"name": "\u0428\u0430\u04b3\u0440\u0438\u043d\u0430\u0432", "name:uk": "\u0428\u0430\u0445\u0440\u0456\u043d\u0430\u0432", "old_name": "\u043e\u0442\u0434.\u21162", "place": "village", "population": "5049", "population:date": "2017", "wikidata": "Q60336187", "wikipedia": "tg:\u0428\u0430\u04b3\u0440\u0438\u043d\u0430\u0432 (\u0434\u0435\u04b3\u0430, \u043d. \u0414\u04ef\u0441\u0442\u04e3)"}}, {"type": "node", "id": 10971055169, "lat": 37.5711078, "lon": 68.495462, "tags": {"name": "\u0417\u0430\u0444\u0430\u0440\u043e\u0431\u043e\u0434", "name:uk": "\u0417\u0430\u0444\u0430\u0440\u043e\u0431\u043e\u0434", "old_name": "\u043e\u0442\u0434.\u21161", "place": "village", "population": "1483", "population:date": "2017", "wikidata": "Q60336169", "wikipedia": "tg:\u0417\u0430\u0444\u0430\u0440\u043e\u0431\u043e\u0434 (\u0434\u0435\u04b3\u0430, \u043d. \u0414\u04ef\u0441\u0442\u04e3)"}}, {"type": "node", "id": 10971055170, "lat": 37.5521856, "lon": 68.4688592, "tags": {"name": "\u049a\u0443\u0431\u043e\u0434\u0438\u0451\u043d", "place": "village", "population": "511", "population:date": "2017", "wikidata": "Q60336176", "wikipedia": "tg:\u049a\u0443\u0431\u043e\u0434\u0438\u0451\u043d (\u0434\u0435\u04b3\u0430, \u043d. \u0414\u04ef\u0441\u0442\u04e3)"}}, {"type": "node", "id": 10971055171, "lat": 37.5319947, "lon": 68.4797569, "tags": {"name": "\u041d\u0443\u0440\u0438 \u0412\u0430\u0445\u0448", "name:uk": "\u041d\u0443\u0440\u0456-\u0412\u0430\u0445\u0448", "old_name": "\u042f\u043d\u0433\u0438\u0430\u0431\u0430\u0434", "place": "village", "population": "3101", "population:date": "2017", "wikidata": "Q60336301", "wikipedia": "tg:\u041d\u0443\u0440\u0438 \u0412\u0430\u0445\u0448"}}, {"type": "node", "id": 10971055172, "lat": 37.5031187, "lon": 68.4792488, "tags": {"name": "\u0413\u043e\u0433\u043e\u043b", "name:uk": "\u0413\u043e\u0433\u043e\u043b\u044c", "old_name": "\u042f\u043d\u0433\u0438\u0430\u0431\u0430\u0434", "place": "village", "population": "4477", "population:date": "2017", "wikidata": "Q60336293", "wikipedia": "tg:\u0413\u043e\u0433\u043e\u043b (\u0434\u0435\u04b3\u0430, \u043d. \u0414\u04ef\u0441\u0442\u04e3)"}}, {"type": "node", "id": 10971055173, "lat": 37.488536, "lon": 68.4905799, "tags": {"name": "\u041d\u0430\u0432\u043e\u0431\u043e\u0434", "name:uk": "\u041d\u0430\u0432\u043e\u0431\u043e\u0434", "old_name": "\u042f\u043d\u0433\u0438\u0430\u0431\u0430\u0434", "place": "village", "population": "3319", "population:date": "2017", "wikidata": "Q60336299", "wikipedia": "tg:\u041d\u0430\u0432\u043e\u0431\u043e\u0434 (\u0434\u0435\u04b3\u0430, \u043d. \u0414\u04ef\u0441\u0442\u04e3)"}}, {"type": "node", "id": 10971055174, "lat": 37.5490304, "lon": 68.4245733, "tags": {"name": "\u041b\u043e\u0438\u049b \u0428\u0435\u0440\u0430\u043b\u04e3", "name:uk": "\u041b\u043e\u0457\u043a\u0430 \u0428\u0435\u0440\u0430\u043b\u0456", "place": "village", "population": "1264", "population:date": "2017", "wikidata": "Q60336296", "wikipedia": "tg:\u041b\u043e\u0438\u049b \u0428\u0435\u0440\u0430\u043b\u04e3 (\u0434\u0435\u04b3\u0430, \u043d. \u0414\u04ef\u0441\u0442\u04e3)"}}, {"type": "node", "id": 10971055175, "lat": 37.541093, "lon": 68.399611, "tags": {"name": "\u0411\u04ef\u0441\u0442\u043e\u043d", "name:uk": "\u0411\u0443\u0441\u0442\u043e\u043d", "old_name": "\u041e\u0439\u0445\u043e\u0442\u0443\u043d;\u0414\u043e\u043d\u0430\u0448\u0438\u043a\u0430\u043d", "place": "village", "population": "2956", "population:date": "2017", "wikidata": "Q60336523", "wikipedia": "tg:\u0411\u04ef\u0441\u0442\u043e\u043d (\u0434\u0435\u04b3\u0430, \u043d. \u0414\u04ef\u0441\u0442\u04e3)"}}, {"type": "node", "id": 10971080094, "lat": 37.5412422, "lon": 68.4984408, "tags": {"name": "\u049a\u0443\u0431\u043e\u0434\u0438\u0451\u043d", "name:uk": "\u041a\u0443\u0431\u043e\u0434\u0456\u0439\u043e\u043d", "old_name": "\u043e\u0442\u0434.\u21161 \u0441\u0432\u0445.\u0438\u043c.23 \u041f\u0430\u0440\u0442\u0441\u044a\u0435\u0437\u0434\u0430", "place": "village", "population": "3456", "population:date": "2017", "wikidata": "Q60336340", "wikipedia": "tg:\u049a\u0443\u0431\u043e\u0434\u0438\u0451\u043d (\u0434\u0435\u04b3\u0430, \u04b7. \u0414\u0435\u04b3\u049b\u043e\u043d\u043e\u0431\u043e\u0434, \u043d. \u0414\u04ef\u0441\u0442\u04e3)"}}, {"type": "node", "id": 10971080095, "lat": 37.5511247, "lon": 68.486212, "tags": {"name": "\u0422\u043e\u04b7\u0438\u043a\u043e\u0431\u043e\u0434", "name:uk": "\u0422\u043e\u0434\u0436\u0438\u043a\u043e\u0431\u043e\u0434", "old_name": "\u043e\u0442\u0434.\u21162 \u0441\u0432\u0445.\u0438\u043c.21 \u041f\u0430\u0440\u0442\u0441\u044a\u0435\u0437\u0434\u0430;\u041d\u0443\u0440\u0438-\u0412\u0430\u0445\u0448", "place": "village", "population": "1155", "population:date": "2017", "wikidata": "Q60336342", "wikipedia": "tg:\u0422\u043e\u04b7\u0438\u043a\u043e\u0431\u043e\u0434 (\u0434\u0435\u04b3\u0430, \u04b7. \u0414\u0435\u04b3\u049b\u043e\u043d\u043e\u0431\u043e\u0434, \u043d. \u0414\u04ef\u0441\u0442\u04e3)"}}, {"type": "node", "id": 10971080096, "lat": 37.535206, "lon": 68.458843, "tags": {"name": "\u04b2\u0430\u0451\u0442\u0438 \u043d\u0430\u0432", "name:uk": "\u0425\u0430\u0439\u043e\u0442\u0456-\u043d\u0430\u0432", "place": "village", "population": "657", "population:date": "2017", "wikidata": "Q60336282", "wikipedia": "tg:\u04b2\u0430\u0451\u0442\u0438 \u043d\u0430\u0432 (\u0434\u0435\u04b3\u0430, \u043d. \u0414\u04ef\u0441\u0442\u04e3)"}}, {"type": "node", "id": 10971080097, "lat": 37.5660596, "lon": 68.4774573, "tags": {"name": "\u0428\u0430\u04b3\u0440\u0438\u043d\u0430\u0432", "name:uk": "\u0428\u0430\u0445\u0440\u0456\u043d\u0430\u0432", "place": "village", "population": "1016", "population:date": "2017", "wikidata": "Q60336343", "wikipedia": "tg:\u0428\u0430\u04b3\u0440\u0438\u043d\u0430\u0432 (\u0434\u0435\u04b3\u0430, \u04b7. \u0414\u0435\u04b3\u049b\u043e\u043d\u043e\u0431\u043e\u0434, \u043d. \u0414\u04ef\u0441\u0442\u04e3)"}}, {"type": "node", "id": 10971080098, "lat": 37.5727431, "lon": 68.5579668, "tags": {"name": "\u0414\u0435\u04b3\u049b\u043e\u043d\u043e\u0431\u043e\u0434", "name:uk": "\u0414\u0435\u0445\u043a\u043e\u043d\u043e\u0431\u043e\u0434", "old_name": "\u0414\u0435\u0445\u043a\u0430\u043d\u0430\u0431\u0430\u0434", "place": "village", "population": "1050", "population:date": "2017", "wikidata": "Q60336261", "wikipedia": "tg:\u0414\u0435\u04b3\u049b\u043e\u043d\u043e\u0431\u043e\u0434 (\u0434\u0435\u04b3\u0430, \u043d. \u0414\u04ef\u0441\u0442\u04e3)"}}, {"type": "node", "id": 10971080099, "lat": 37.5942878, "lon": 68.5777079, "tags": {"name": "\u0414\u04ef\u0441\u0442\u04e3", "name:uk": "\u0414\u0443\u0441\u0442\u0456", "place": "village", "population": "751", "population:date": "2017", "wikidata": "Q60336265", "wikipedia": "tg:\u0414\u04ef\u0441\u0442\u04e3 (\u0434\u0435\u04b3\u0430, \u043d. \u0414\u04ef\u0441\u0442\u04e3)"}}, {"type": "node", "id": 10971080100, "lat": 37.5852592, "lon": 68.5791241, "tags": {"name": "\u0421\u043e\u043c\u043e\u043d\u0438\u0451\u043d", "name:uk": "\u0421\u043e\u043c\u043e\u043d\u0456\u0439\u043e\u043d", "old_name": "\u041a\u0430\u043d\u043e\u0430\u0442", "place": "village", "population": "911", "population:date": "2017", "wikidata": "Q60336279", "wikipedia": "tg:\u0421\u043e\u043c\u043e\u043d\u0438\u0451\u043d (\u0434\u0435\u04b3\u0430, \u043d. \u0414\u04ef\u0441\u0442\u04e3)"}}, {"type": "node", "id": 10971080101, "lat": 37.5939988, "lon": 68.5958181, "tags": {"name": "\u042f\u043a\u043a\u0430\u0442\u043e\u043b", "name:uk": "\u042f\u043a\u043a\u0430\u0442\u043e\u043b", "place": "village", "population": "592", "population:date": "2017", "wikidata": "Q60336287", "wikipedia": "tg:\u042f\u043a\u043a\u0430\u0442\u043e\u043b (\u0434\u0435\u04b3\u0430, \u043d. \u0414\u04ef\u0441\u0442\u04e3)"}}, {"type": "node", "id": 10971080102, "lat": 37.5600039, "lon": 68.5652624, "tags": {"name": "\u041e\u0437\u043e\u0434\u04e3", "name:uk": "\u041e\u0437\u043e\u0434\u0456", "old_name": "\u0413\u0440\u043e\u043c\u043e\u0432\u0430\u0431\u0430\u0434", "place": "village", "population": "954", "population:date": "2017", "wikidata": "Q60336272", "wikipedia": "tg:\u041e\u0437\u043e\u0434\u04e3 (\u0434\u0435\u04b3\u0430, \u043d. \u0414\u04ef\u0441\u0442\u04e3)"}}, {"type": "node", "id": 10971080103, "lat": 37.5502055, "lon": 68.5595117, "tags": {"name": "\u0420\u043e\u04b3\u0438 \u043d\u0430\u0432", "name:uk": "\u0420\u043e\u0445\u0456-\u043d\u0430\u0432", "old_name": "\u0438\u043c.\u041b\u0435\u043d\u0438\u043d\u0430", "place": "village", "population": "1172", "population:date": "2017", "wikidata": "Q60336275", "wikipedia": "tg:\u0420\u043e\u04b3\u0438 \u043d\u0430\u0432 (\u0434\u0435\u04b3\u0430, \u043d. \u0414\u04ef\u0441\u0442\u04e3)"}}, {"type": "node", "id": 10971129431, "lat": 37.5462587, "lon": 68.569554, "tags": {"name": "\u041b\u043e\u04b3\u0443\u0442\u04e3", "name:uk": "\u041b\u043e\u0445\u0443\u0442\u0456", "old_name": "\u043a\u043b\u0445.\u0438\u043c.\u041b\u0430\u0445\u0443\u0442\u0438;\u0421\u0443\u0440\u0445", "place": "village", "population": "1577", "population:date": "2017", "wikidata": "Q60336323", "wikipedia": "tg:\u041b\u043e\u04b3\u0443\u0442\u04e3 (\u0434\u0435\u04b3\u0430, \u043d. \u0414\u04ef\u0441\u0442\u04e3)"}}, {"type": "node", "id": 10971129433, "lat": 37.5174756, "lon": 68.5485618, "tags": {"name": "\u0411\u0430\u0434\u0430\u0445\u0448\u043e\u043d", "name:uk": "\u0411\u0430\u0434\u0430\u0445\u0448\u043e\u043d", "place": "village", "population": "1406", "population:date": "2017", "wikidata": "Q60336339", "wikipedia": "tg:\u0411\u0430\u0434\u0430\u0445\u0448\u043e\u043d (\u0434\u0435\u04b3\u0430, \u043d. \u0414\u04ef\u0441\u0442\u04e3)"}}, {"type": "node", "id": 10971129434, "lat": 37.5234663, "lon": 68.5484545, "tags": {"name": "\u041d\u0430\u0439\u0441\u043e\u043d", "name:uk": "\u041d\u0430\u0439\u0441\u043e\u043d", "old_name": "\u0410\u0433\u0440\u043e\u043d\u043e\u043c", "place": "village", "population": "1513", "population:date": "2017", "wikidata": "Q60336329", "wikipedia": "tg:\u041d\u0430\u0439\u0441\u043e\u043d"}}, {"type": "node", "id": 10971129435, "lat": 37.5087781, "lon": 68.5411375, "tags": {"name": "\u04b2\u043e\u0442\u0430\u043c\u0438 \u041c\u0430\u04b3\u0440\u0430\u043c", "name:uk": "\u0425\u043e\u0442\u0430\u043c\u0456 \u041c\u0430\u0445\u0440\u0430\u043c\u0430", "old_name": "\u041f\u0430\u0445\u0442\u0430\u043a\u043e\u0440", "place": "village", "population": "1556", "population:date": "2017", "wikidata": "Q60336335", "wikipedia": "tg:\u04b2\u043e\u0442\u0430\u043c\u0438 \u041c\u0430\u04b3\u0440\u0430\u043c"}}, {"type": "node", "id": 10971129436, "lat": 37.5031438, "lon": 68.5332625, "tags": {"name": "\u0410\u0441\u0440\u043e\u0440 \u0420\u0430\u04b7\u0430\u0431\u043e\u0432", "name:uk": "\u0410\u0441\u0440\u043e\u0440\u0430 \u0420\u0430\u0434\u0436\u0430\u0431\u043e\u0432\u0430", "old_name": "\u0443\u0447.\u0438\u043c.\u041a\u0443\u0439\u0431\u044b\u0448\u0435\u0432\u0430;\u041a\u0443\u0439\u0431\u044b\u0448\u0435\u0432", "place": "village", "population": "2206", "wikidata": "Q60336307", "wikipedia": "tg:\u0410\u0441\u0440\u043e\u0440 \u0420\u0430\u04b7\u0430\u0431\u043e\u0432 (\u0434\u0435\u04b3\u0430, \u043d. \u0414\u04ef\u0441\u0442\u04e3)"}}, {"type": "node", "id": 10971129437, "lat": 37.5178841, "lon": 68.5637539, "tags": {"name": "\u0492\u0430\u043b\u0430\u0431\u0430", "name:uk": "\u0490\u0430\u043b\u0430\u0431\u0430", "old_name": "\u0411\u043e\u043b\u044c\u0448\u0435\u0432\u0438\u043a", "place": "village", "population": "1370", "population:date": "2017", "wikidata": "Q60336318", "wikipedia": "tg:\u0492\u0430\u043b\u0430\u0431\u0430 (\u0434\u0435\u04b3\u0430, \u043d. \u0414\u04ef\u0441\u0442\u04e3)"}}, {"type": "node", "id": 10971129438, "lat": 37.5059695, "lon": 68.5665863, "tags": {"name": "\u0413\u0443\u043b\u0440\u0435\u0437", "name:uk": "\u0413\u0443\u043b\u0440\u0435\u0437", "old_name": "\u041a\u043e\u043c\u0438\u043d\u0442\u0435\u0440\u043d", "place": "village", "population": "598", "population:date": "2017", "wikidata": "Q60336314", "wikipedia": "tg:\u0413\u0443\u043b\u0440\u0435\u0437 (\u0434\u0435\u04b3\u0430, \u043d. \u0414\u04ef\u0441\u0442\u04e3)"}}, {"type": "node", "id": 10972879500, "lat": 37.4868482, "lon": 68.5563857, "tags": {"name": "\u0413\u0443\u043b\u0430\u0444\u0448\u043e\u043d", "name:uk": "\u0413\u0443\u043b\u0430\u0444\u0448\u043e\u043d", "old_name": "1 \u041c\u0430\u044f", "place": "village", "population": "655", "population:date": "2017", "wikidata": "Q60336309", "wikipedia": "tg:\u0413\u0443\u043b\u0430\u0444\u0448\u043e\u043d (\u0434\u0435\u04b3\u0430, \u043d. \u0414\u04ef\u0441\u0442\u04e3)"}}, {"type": "node", "id": 10972939195, "lat": 37.4501981, "lon": 68.5504205, "tags": {"name": "\u04b6\u043e\u043c\u04e3", "name:uk": "\u0414\u0436\u043e\u043c\u0456", "place": "village", "population": "1825", "population:date": "2017", "wikidata": "Q60336254", "wikipedia": "tg:\u04b6\u043e\u043c\u04e3 (\u0434\u0435\u04b3\u0430, \u043d. \u0414\u04ef\u0441\u0442\u04e3)"}}, {"type": "node", "id": 10972939196, "lat": 37.443912, "lon": 68.5056598, "tags": {"name": "\u041b\u0430\u0431\u0438\u0434\u0430\u0440\u0451", "name:uk": "\u041b\u0456\u0431\u0430\u0434\u0430\u0440\u044c\u043e", "old_name": "\u0438\u043c.\u041a\u0430\u0440\u043b\u0430 \u041c\u0430\u0440\u043a\u0441\u0430;\u041a\u0430\u0440\u043b \u041c\u0430\u0440\u043a\u0441", "place": "village", "population": "1513", "population:date": "2017", "wikidata": "Q60336230", "wikipedia": "tg:\u041b\u0430\u0431\u0438\u0434\u0430\u0440\u0451 (\u0434\u0435\u04b3\u0430, \u043d. \u0414\u04ef\u0441\u0442\u04e3)"}}, {"type": "node", "id": 10972939197, "lat": 37.4389202, "lon": 68.4897382, "tags": {"name": "\u049a\u0430\u04b3\u0440\u0430\u043c\u043e\u043d", "name:uk": "\u041a\u0430\u0445\u0440\u0430\u043c\u043e\u043d", "old_name": "\u0431\u0440\u0438\u0433.\u211611 \u0443\u0447.\u0438\u043c.\u041a\u0430\u0440\u043b\u0430 \u041c\u0430\u0440\u043a\u0441\u0430", "place": "village", "population": "1968", "population:date": "2017", "wikidata": "Q60336226", "wikipedia": "tg:\u049a\u0430\u04b3\u0440\u0430\u043c\u043e\u043d (\u0434\u0435\u04b3\u0430, \u043d. \u0414\u04ef\u0441\u0442\u04e3)"}}, {"type": "node", "id": 10972939198, "lat": 37.4238235, "lon": 68.5011108, "tags": {"name": "\u0411\u0435\u0448\u0430\u0438 \u043f\u0430\u043b\u0430\u043d\u0433\u043e\u043d", "name:uk": "\u0411\u0435\u0448\u0430\u0457-\u043f\u0430\u043b\u0430\u043d\u0433\u043e\u043d", "old_name": "\u0431\u0440\u0438\u0433.\u211611 \u0443\u0447.\u0438\u043c.\u041a\u0430\u0440\u043b\u0430 \u041c\u0430\u0440\u043a\u0441\u0430", "place": "village", "population": "136", "population:date": "2017", "wikidata": "Q60336193", "wikipedia": "tg:\u0411\u0435\u0448\u0430\u0438 \u043f\u0430\u043b\u0430\u043d\u0433\u043e\u043d (\u0434\u0435\u04b3\u0430, \u043d. \u0414\u04ef\u0441\u0442\u04e3)"}}, {"type": "node", "id": 10978469273, "lat": 37.6035179, "lon": 68.6608565, "tags": {"name": "\u0401\u0448\u043b\u0435\u043d\u0438\u043d\u0447\u04e3", "name:uk": "\u0419\u043e\u0448\u043b\u0435\u043d\u0456\u043d\u0447\u0438", "place": "village", "population": "1848", "population:date": "2017", "wikidata": "Q65297277", "wikipedia": "tg:\u0401\u0448\u043b\u0435\u043d\u0438\u043d\u0447\u04e3"}}, {"type": "node", "id": 10978469274, "lat": 37.5952555, "lon": 68.6709846, "tags": {"name": "\u0492\u0430\u043b\u0430\u0431\u0430", "name:uk": "\u0490\u0430\u043b\u0430\u0431\u0430", "place": "village", "population": "1668", "population:date": "2017", "wikidata": "Q65298170", "wikipedia": "tg:\u0492\u0430\u043b\u0430\u0431\u0430 (\u0434\u0435\u04b3\u0430, \u043d. \u0411\u0430\u043b\u0445\u04e3)"}}, {"type": "node", "id": 10978469275, "lat": 37.5842886, "lon": 68.6500633, "tags": {"name": "\u0422\u0438\u043c\u043e\u0448\u0435\u043d\u043a\u043e", "name:uk": "\u0422\u0438\u043c\u043e\u0448\u0435\u043d\u043a\u043e", "old_name": "\u0438\u043c.\u041a\u0438\u0440\u043e\u0432\u0430", "place": "village", "population": "2282", "population:date": "2017", "wikidata": "Q65298017", "wikipedia": "tg:\u0422\u0438\u043c\u043e\u0448\u0435\u043d\u043a\u043e (\u0434\u0435\u04b3\u0430, \u043d. \u0411\u0430\u043b\u0445\u04e3)"}}, {"type": "node", "id": 10978469276, "lat": 37.5601046, "lon": 68.6584318, "tags": {"name": "\u041b\u0435\u043d\u0438\u043d\u0433\u0440\u0430\u0434", "name:uk": "\u041b\u0435\u043d\u0456\u043d\u0433\u0440\u0430\u0434", "place": "village", "population": "4418", "population:date": "2017", "wikidata": "Q65297698", "wikipedia": "tg:\u041b\u0435\u043d\u0438\u043d\u0433\u0440\u0430\u0434 (\u0434\u0435\u04b3\u0430, \u043d. \u0411\u0430\u043b\u0445\u04e3)"}}, {"type": "node", "id": 10978469277, "lat": 37.6135132, "lon": 68.6450852, "tags": {"name": "\u041a\u043e\u043c\u043c\u0443\u043d\u0438\u0441\u0442", "name:uk": "\u041a\u043e\u043c\u0443\u043d\u0456\u0441\u0442", "place": "village", "population": "2375", "population:date": "2017", "wikidata": "Q65297680", "wikipedia": "tg:\u041a\u043e\u043c\u043c\u0443\u043d\u0438\u0441\u0442 (\u0434\u0435\u04b3\u0430, \u043d. \u0411\u0430\u043b\u0445\u04e3)"}}, {"type": "node", "id": 10978469278, "lat": 37.6169466, "lon": 68.640858, "tags": {"name": "\u041b\u0435\u043d\u0438\u043d", "name:uk": "\u041b\u0435\u043d\u0456\u043d", "place": "village", "population": "2196", "population:date": "2017", "wikidata": "Q65297695", "wikipedia": "tg:\u041b\u0435\u043d\u0438\u043d (\u0434\u0435\u04b3\u0430, \u043d. \u0411\u0430\u043b\u0445\u04e3)"}}, {"type": "node", "id": 10978469279, "lat": 37.5510038, "lon": 68.6711562, "tags": {"name": "\u0413\u0430\u0433\u0430\u0440\u0438\u043d", "name:uk": "\u0413\u0430\u0433\u0430\u0440\u0456\u043d", "place": "village", "population": "1371", "population:date": "2017", "wikidata": "Q31459101", "wikipedia": "tg:\u0413\u0430\u0433\u0430\u0440\u0438\u043d (\u0434\u0435\u04b3\u0430, \u043d. \u0411\u0430\u043b\u0445\u04e3)"}}, {"type": "node", "id": 10978469280, "lat": 37.6132582, "lon": 68.671521, "tags": {"name": "\u041a\u0438\u0440\u043e\u0432", "name:uk": "\u041a\u0456\u0440\u043e\u0432", "place": "village", "population": "1172", "population:date": "2017", "wikidata": "Q65297668", "wikipedia": "tg:\u041a\u0438\u0440\u043e\u0432 (\u0434\u0435\u04b3\u0430, \u04b7. \u04b2\u0430\u043b\u0435\u0432\u0430\u0440\u0434, \u043d. \u0411\u0430\u043b\u0445\u04e3)"}}, {"type": "node", "id": 10978469281, "lat": 37.5966327, "lon": 68.6349786, "tags": {"name": "\u041c\u0430\u043a\u0441\u0438\u043c \u0413\u043e\u0440\u043a\u0438\u0439", "name:uk": "\u041c\u0430\u043a\u0441\u0438\u043c \u0413\u043e\u0440\u044c\u043a\u0438\u0439", "old_name": "\u041c\u0430\u043a\u0441\u0438\u043c \u0413\u043e\u0440\u044c\u043a\u0438\u0439", "place": "village", "population": "4504", "population:date": "2017", "wikidata": "Q65297728", "wikipedia": "tg:\u041c\u0430\u043a\u0441\u0438\u043c \u0413\u043e\u0440\u043a\u0438\u0439 (\u0434\u0435\u04b3\u0430, \u04b7. \u04b2\u0430\u043b\u0435\u0432\u0430\u0440\u0434, \u043d. \u0411\u0430\u043b\u0445\u04e3)"}}, {"type": "node", "id": 10978469282, "lat": 37.5856659, "lon": 68.6256445, "tags": {"name": "\u0423\u04b7\u049b\u0443\u043d", "name:uk": "\u0423\u0447\u043a\u0443\u043d", "place": "village", "population": "1332", "population:date": "2017", "wikidata": "Q65298045", "wikipedia": "tg:\u0423\u04b7\u049b\u0443\u043d (\u0434\u0435\u04b3\u0430, \u043d. \u0411\u0430\u043b\u0445\u04e3)"}}, {"type": "node", "id": 10978469283, "lat": 37.6347742, "lon": 68.6676157, "tags": {"name": "\u0410\u0431\u0434\u0443\u043b\u0444\u0430\u0451\u0437 \u0414\u04ef\u0441\u0442\u043e\u0432", "name:uk": "\u0410\u0431\u0434\u0443\u043b\u0444\u0430\u0439\u043e\u0437\u0430 \u0414\u0443\u0441\u0442\u043e\u0432\u0430", "old_name": "2-\u044f \u041f\u044f\u0442\u0438\u043b\u0435\u0442\u043a\u0430", "place": "village", "population": "3352", "population:date": "2017", "wikidata": "Q60333502", "wikipedia": "tg:\u0410\u0431\u0434\u0443\u043b\u0444\u0430\u0451\u0437 \u0414\u04ef\u0441\u0442\u043e\u0432 (\u0434\u0435\u04b3\u0430, \u043d. \u0411\u0430\u043b\u0445\u04e3)"}}, {"type": "node", "id": 10978469284, "lat": 37.5634724, "lon": 68.6036933, "tags": {"name": "\u0428\u0430\u0445\u0442\u0451\u0440", "name:uk": "\u0428\u0430\u0445\u0442\u0430\u0440", "place": "village", "population": "2203", "population:date": "2017", "wikidata": "Q65298132", "wikipedia": "tg:\u0428\u0430\u0445\u0442\u0451\u0440 (\u0434\u0435\u04b3\u0430, \u043d. \u0411\u0430\u043b\u0445\u04e3)"}}, {"type": "node", "id": 10978563474, "lat": 37.5013482, "lon": 68.602446, "tags": {"name": "\u041a\u0438\u0448\u043e\u0432\u0430\u0440\u0437\u043e\u043d", "name:uk": "\u041a\u0456\u0448\u043e\u0432\u0430\u0440\u0437\u043e\u043d", "old_name": "\u041d\u043e\u0432\u0430\u0431\u0430\u0434", "place": "village", "population": "1137", "population:date": "2017", "wikidata": "Q65297671", "wikipedia": "tg:\u041a\u0438\u0448\u043e\u0432\u0430\u0440\u0437\u043e\u043d (\u0434\u0435\u04b3\u0430, \u043d. \u0411\u0430\u043b\u0445\u04e3)"}}, {"type": "node", "id": 10978563475, "lat": 37.5010248, "lon": 68.6428937, "tags": {"name": "\u0414\u043e\u043a\u0443\u0447\u0430\u0435\u0432", "name:uk": "\u0414\u043e\u043a\u0443\u0447\u0430\u0454\u0432", "old_name": "\u0414\u043e\u043a\u0443\u0447\u0430\u0435\u0432\u043e", "place": "village", "population": "464", "population:date": "2017", "wikidata": "Q65297586", "wikipedia": "tg:\u0414\u043e\u043a\u0443\u0447\u0430\u0435\u0432 (\u0434\u0435\u04b3\u0430, \u043d. \u0411\u0430\u043b\u0445\u04e3)"}}, {"type": "node", "id": 10978563476, "lat": 37.513655, "lon": 68.6477646, "tags": {"name": "\u041c\u0438\u0447\u0443\u0440\u0438\u043d", "name:uk": "\u041c\u0456\u0447\u0443\u0440\u0456\u043d", "place": "village", "population": "1021", "population:date": "2017", "wikidata": "Q65297767", "wikipedia": "tg:\u041c\u0438\u0447\u0443\u0440\u0438\u043d (\u0434\u0435\u04b3\u0430, \u043d. \u0411\u0430\u043b\u0445\u04e3)"}}, {"type": "node", "id": 10978563477, "lat": 37.5304012, "lon": 68.6479577, "tags": {"name": "\u041a\u043e\u043c\u043c\u0443\u043d\u0430\u0440", "name:uk": "\u041a\u043e\u043c\u043c\u0443\u043d\u0430\u0440", "old_name": "\u0417\u043e\u043d\u0430\u043b\u044c\u043d\u044b\u0439", "place": "village", "population": "1498", "population:date": "2017", "wikidata": "Q65297676", "wikipedia": "tg:\u041a\u043e\u043c\u043c\u0443\u043d\u0430\u0440 (\u0434\u0435\u04b3\u0430, \u043d. \u0411\u0430\u043b\u0445\u04e3)"}}, {"type": "node", "id": 10978563478, "lat": 37.5152039, "lon": 68.6655101, "tags": {"name": "\u0420\u043e\u04b3\u0438 \u041b\u0435\u043d\u0438\u043d", "name:uk": "\u0420\u043e\u0445\u0456-\u041b\u0435\u043d\u0456\u043d", "old_name": "\u0420\u043e\u0445\u0438-\u041b\u0435\u043d\u0438\u043d", "place": "village", "population": "5891", "population:date": "2017", "wikidata": "Q65297926", "wikipedia": "tg:\u0420\u043e\u04b3\u0438 \u041b\u0435\u043d\u0438\u043d (\u0434\u0435\u04b3\u0430, \u043d. \u0411\u0430\u043b\u0445\u04e3)"}}, {"type": "node", "id": 10978563479, "lat": 37.5430945, "lon": 68.6586651, "tags": {"name": "\u041a\u043e\u043c\u043c\u0443\u043d\u0430", "name:uk": "\u041a\u043e\u043c\u0443\u043d\u0430", "place": "village", "population": "218", "population:date": "2017", "wikidata": "Q65297673", "wikipedia": "tg:\u041a\u043e\u043c\u043c\u0443\u043d\u0430 (\u0434\u0435\u04b3\u0430, \u043d. \u0411\u0430\u043b\u0445\u04e3)"}}, {"type": "node", "id": 10978563480, "lat": 37.5524767, "lon": 68.595693, "tags": {"name": "\u0411\u0443\u0434\u0451\u043d\u0438\u0439", "name:uk": "\u0411\u0443\u0434\u044c\u043e\u043d\u043d\u0438\u0439", "old_name": "\u041a\u0430\u0440\u043b \u041c\u0430\u0440\u043a\u0441", "place": "village", "population": "1013", "population:date": "2017", "wikidata": "Q65297449", "wikipedia": "tg:\u0411\u0443\u0434\u0451\u043d\u0438\u0439 (\u0434\u0435\u04b3\u0430, \u043d. \u0411\u0430\u043b\u0445\u04e3)"}}, {"type": "node", "id": 10978563481, "lat": 37.5502977, "lon": 68.6385175, "tags": {"name": "\u0401\u0432\u043e\u043d\u043e\u0431\u043e\u0434", "name:uk": "\u0419\u043e\u0432\u043e\u043d\u043e\u0431\u043e\u0434", "old_name": "\u042f\u0432\u0430\u043d\u0430\u0431\u0430\u0434", "place": "village", "population": "1120", "population:date": "2017", "wikidata": "Q65297276", "wikipedia": "tg:\u0401\u0432\u043e\u043d\u043e\u0431\u043e\u0434"}}, {"type": "node", "id": 10978568686, "lat": 37.4874387, "lon": 68.6300897, "tags": {"name": "\u0414\u0435\u04b3\u049b\u043e\u043d\u043e\u0431\u043e\u0434", "name:uk": "\u0414\u0435\u0445\u043a\u043e\u043d\u043e\u0431\u043e\u0434", "old_name": "\u0438\u043c.\u041c\u0430\u043a\u0441\u0438\u043c\u0430 \u0413\u043e\u0440\u044c\u043a\u043e\u0433\u043e", "place": "village", "population": "2413", "population:date": "2017", "wikidata": "Q65297574", "wikipedia": "tg:\u0414\u0435\u04b3\u049b\u043e\u043d\u043e\u0431\u043e\u0434 (\u0434\u0435\u04b3\u0430, \u043d. \u0411\u0430\u043b\u0445\u04e3)"}}, {"type": "node", "id": 10978568687, "lat": 37.4672162, "lon": 68.6114594, "tags": {"name": "\u04b2\u0430\u0437\u043e\u0440\u0447\u0430\u0448\u043c\u0430", "name:uk": "\u0425\u0430\u0437\u043e\u0440\u0447\u0430\u0448\u043c\u0430", "old_name": "\u0438\u043c.\u042d\u043d\u0433\u0435\u043b\u044c\u0441\u0430", "place": "village", "population": "2078", "population:date": "2017", "wikidata": "Q65298202", "wikipedia": "tg:\u04b2\u0430\u0437\u043e\u0440\u0447\u0430\u0448\u043c\u0430 (\u0434\u0435\u04b3\u0430, \u043d. \u0411\u0430\u043b\u0445\u04e3)"}}, {"type": "node", "id": 10978568688, "lat": 37.499551, "lon": 68.6209223, "tags": {"name": "\u041e\u0440\u04b7\u043e\u043d\u0438\u043a\u0438\u0434\u0437\u0435", "name:uk": "\u041e\u0440\u0434\u0436\u043e\u043d\u0456\u043a\u0456\u0434\u0437\u0435", "old_name": "\u0424\u0440\u0443\u043d\u0437\u0435;\u0438\u043c.\u041e\u0440\u0434\u0436\u043e\u043d\u0438\u043a\u0438\u0434\u0437\u0435", "place": "village", "population": "2381", "population:date": "2017", "wikidata": "Q65297870", "wikipedia": "tg:\u041e\u0440\u04b7\u043e\u043d\u0438\u043a\u0438\u0434\u0437\u0435 (\u0434\u0435\u04b3\u0430, \u043d. \u0411\u0430\u043b\u0445\u04e3)"}}, {"type": "node", "id": 10978613773, "lat": 37.6372324, "lon": 68.6197357, "tags": {"name": "\u041f\u0430\u043d\u04b7\u0441\u043e\u043b\u0430", "name:uk": "\u041f\u0430\u043d\u0434\u0436\u0441\u043e\u043b\u0430", "place": "village", "population": "766", "population:date": "2017", "wikidata": "Q115445850", "wikipedia": "tg:\u041f\u0430\u043d\u04b7\u0441\u043e\u043b\u0430"}}, {"type": "node", "id": 10978613774, "lat": 37.5992111, "lon": 68.6118393, "tags": {"name": "\u04b2\u0430\u049b\u0438\u049b\u0430\u0442", "name:uk": "\u0425\u0430\u043a\u0456\u043a\u0430\u0442", "old_name": "\u0438\u043c.\u0424\u0440\u0443\u043d\u0437\u0435", "place": "village", "population": "1141", "population:date": "2017", "wikidata": "Q65298218", "wikipedia": "tg:\u04b2\u0430\u049b\u0438\u049b\u0430\u0442 (\u0434\u0435\u04b3\u0430, \u043d. \u0411\u0430\u043b\u0445\u04e3)"}}, {"type": "node", "id": 10978613775, "lat": 37.6142044, "lon": 68.6283831, "tags": {"name": "\u0418\u0441\u0442\u0433\u043e\u04b3\u0438 \u0420\u043e\u04b3\u0438 \u041e\u04b3\u0430\u043d", "name:uk": "\u0406\u0441\u0442\u0433\u043e\u0445\u0456-\u0420\u043e\u0445\u0456-\u041e\u0445\u0430\u043d", "place": "village", "population": "186", "population:date": "2017", "wikidata": "Q65297627", "wikipedia": "tg:\u0418\u0441\u0442\u0433\u043e\u04b3\u0438 \u0420\u043e\u04b3\u0438 \u041e\u04b3\u0430\u043d (\u0434\u0435\u04b3\u0430, \u043d. \u0411\u0430\u043b\u0445\u04e3)"}}, {"type": "node", "id": 10978613777, "lat": 37.5982752, "lon": 68.7617524, "tags": {"name": "\u041c\u0435\u04b3\u043d\u0430\u0442", "name:uk": "\u041c\u0435\u0445\u043d\u0430\u0442", "old_name": "\u0422\u043e\u0448\u0440\u0430\u0431\u043e\u0442", "place": "village", "population": "833", "population:date": "2017", "wikidata": "Q65297747", "wikipedia": "tg:\u041c\u0435\u04b3\u043d\u0430\u0442 (\u0434\u0435\u04b3\u0430, \u043d. \u0411\u0430\u043b\u0445\u04e3)"}}, {"type": "node", "id": 10978613778, "lat": 37.5833455, "lon": 68.7613673, "tags": {"name": "\u0428\u043c\u0438\u0434\u0442", "name:uk": "\u0428\u043c\u0456\u0434\u0442", "old_name": "\u0422\u043e\u0448\u0440\u0430\u0431\u043e\u0442;\u041d\u0430\u0441\u043e\u0441\u043d\u0430\u044f", "place": "village", "population": "1258", "population:date": "2017", "wikidata": "Q65298142", "wikipedia": "tg:\u0428\u043c\u0438\u0434\u0442 (\u0434\u0435\u04b3\u0430, \u043d. \u0411\u0430\u043b\u0445\u04e3)"}}, {"type": "node", "id": 10978613779, "lat": 37.5647841, "lon": 68.795501, "tags": {"name": "\u04b2\u0430\u0432\u0434\u0430\u043a\u0441\u043e\u0439", "name:uk": "\u0425\u0430\u0432\u0434\u0430\u043a\u0441\u043e\u0439", "old_name": "\u041a\u044b\u0437\u044b\u043b-\u041e\u043a\u0442\u044f\u0431\u0440\u044c", "place": "village", "population": "2064", "population:date": "2017", "wikidata": "Q65298200", "wikipedia": "tg:\u04b2\u0430\u0432\u0434\u0430\u043a\u0441\u043e\u0439"}}, {"type": "node", "id": 10978645415, "lat": 37.5193845, "lon": 68.8356423, "tags": {"name": "\u0411\u04ef\u0441\u0442\u043e\u043d", "name:uk": "\u0411\u0443\u0441\u0442\u043e\u043d", "old_name": "\u043e\u0442\u0434.\u0438\u043c.\u041b\u0435\u043d\u0438\u043d\u0430 \u0441\u0432\u0445.\u0413\u0443\u043b\u0438\u0441\u0442\u043e\u043d", "place": "village", "population": "4338", "population:date": "2017", "wikidata": "Q60336521", "wikipedia": "tg:\u0411\u04ef\u0441\u0442\u043e\u043d (\u0434\u0435\u04b3\u0430, \u043d. \u0411\u0430\u043b\u0445\u04e3)"}}, {"type": "node", "id": 10978645416, "lat": 37.5424134, "lon": 68.841831, "tags": {"name": "\u041a\u0430\u0439\u04b3\u043e\u043d\u04e3", "name:uk": "\u041a\u0430\u0439\u0445\u043e\u043d\u0456", "old_name": "\u043e\u0442\u0434.\u0441\u0432\u0445.\u0413\u0443\u043b\u0438\u0441\u0442\u043e\u043d", "place": "village", "population": "3892", "population:date": "2017", "wikidata": "Q65297642", "wikipedia": "tg:\u041a\u0430\u0439\u04b3\u043e\u043d\u04e3 (\u0434\u0435\u04b3\u0430, \u043d. \u0411\u0430\u043b\u0445\u04e3)"}}, {"type": "node", "id": 10978645417, "lat": 37.4982504, "lon": 68.7775056, "tags": {"name": "\u0414\u0430\u0448\u0442\u043e\u0431\u043e\u0434", "name:uk": "\u0414\u0430\u0448\u0442\u043e\u0431\u043e\u0434", "old_name": "\u0438\u043c.\u041a\u0438\u0440\u043e\u0432\u0430;\u041a\u0438\u0440\u043e\u0432", "place": "village", "population": "1862", "population:date": "2017", "wikidata": "Q65297664", "wikipedia": "tg:\u0414\u0430\u0448\u0442\u043e\u0431\u043e\u0434"}}, {"type": "node", "id": 10978645418, "lat": 37.5730308, "lon": 68.8341077, "tags": {"name": "\u0417\u0430\u0440\u0437\u0430\u043c\u0438\u043d", "name:uk": "\u0417\u0430\u0440\u0437\u0430\u043c\u0456\u043d", "old_name": "\u041c\u043e\u0441\u043a\u0432\u0430", "place": "village", "population": "2531", "population:date": "2017", "wikidata": "Q65297770", "wikipedia": "tg:\u0417\u0430\u0440\u0437\u0430\u043c\u0438\u043d (\u0434\u0435\u04b3\u0430, \u043d. \u0411\u0430\u043b\u0445\u04e3)"}}, {"type": "node", "id": 10978645419, "lat": 37.5747878, "lon": 68.8540644, "tags": {"name": "\u0421\u0430\u0431\u0437\u0434\u0430\u0448\u0442", "name:uk": "\u0421\u0430\u0431\u0437\u0434\u0430\u0448\u0442", "old_name": "\u0422\u043e\u0448\u0440\u0430\u0431\u043e\u0442", "place": "village", "population": "3322", "population:date": "2017", "wikidata": "Q65298024", "wikipedia": "tg:\u0421\u0430\u0431\u0437\u0434\u0430\u0448\u0442"}}]}