{"version": 0.6, "generator": "Overpass API 0.7.61.5 4133829e", "osm3s": {"timestamp_osm_base": "2024-03-06T11:16:45Z", "copyright": "The data included in this document is from www.openstreetmap.org. The data is made available under ODbL."}, "elements": [{"type": "node", "id": 248421092, "lat": 31.9853304, "lon": 44.9236266, "tags": {"ISO3166-2": "IQ-QA", "alt_name:en": "Al Diwaniyah;Al Diwaniyah;Diwaniya;Diwaniyah", "capital": "4", "default_language": "ar", "int_name": "Ad Diwaniyah - \u0627\u0644\u062f\u064a\u0648\u0627\u0646\u064a\u0629", "license_plate_code": "16", "name": "\u0627\u0644\u062f\u064a\u0648\u0627\u0646\u064a\u0629", "name:ar": "\u0627\u0644\u062f\u064a\u0648\u0627\u0646\u064a\u0629", "name:ckb": "\u062f\u06cc\u0648\u0627\u0646\u06cc\u06d5", "name:cs": "D\u00edv\u00e1n\u00edja", "name:de": "Diwaniyya", "name:en": "Ad Diwaniyah", "name:es": "Diwaniya", "name:et": "Ad-D\u012bw\u0101n\u012byah", "name:eu": "Diwaniya", "name:fr": "Diwaniya", "name:he": "\u05d0\u05dc \u05d3\u05d9\u05d5\u05d5\u05d0\u05e0\u05d9\u05d4", "name:hr": "Divanija", "name:ja": "\u30c7\u30a3\u30fc\u30ef\u30fc\u30cb\u30fc\u30e4", "name:ku": "D\u00eewaniye", "name:ml": "\u0d05\u0d7d-\u0d26\u0d3f\u0d35\u0d3e\u0d28\u0d3f\u0d2f", "name:pl": "Ad-Diwanijja", "name:ru": "\u042d\u0434-\u0414\u0438\u0432\u0430\u043d\u0438\u044f", "name:tr": "Ed-Divaniye", "name:uk": "\u0415\u0434-\u0414\u0456\u0432\u0430\u043d\u0456\u044f", "place": "city", "population": "650927", "population:date": "2012", "source:population": "https://en.wikipedia.org/wiki/Al_Diwaniyah", "wikidata": "Q694939", "wikipedia": "ar:\u0627\u0644\u062f\u064a\u0648\u0627\u0646\u064a\u0629 (\u0645\u062f\u064a\u0646\u0629)"}}, {"type": "node", "id": 2479219147, "lat": 31.990649, "lon": 44.905786, "tags": {"alt_name": "\u062d\u064a \u0627\u0644\u0625\u062f\u0627\u0631\u0629 \u0627\u0644\u0645\u062d\u0644\u064a\u0629", "int_name": "\u1e28ayy al Id\u0101rah al Ma\u1e29al\u012byah, \u062d\u064a \u0627\u0644\u0627\u062f\u0627\u0631\u0629 \u0627\u0644\u0645\u062d\u0644\u064a\u0629, Hayy al Idarah al Mahaliyah, \u062d\u064a \u0627\u0644\u0627\u062f\u0627\u0631\u0629 \u0627\u0644\u0645\u062d\u0644\u064a\u0629", "is_in": "Iraq , \u062c\u0645\u0647\u0648\u0631\u064a\u0629 \u0627\u0644\u0639\u0631\u0627\u0642", "name": "\u062d\u064a \u0627\u0644\u0625\u062f\u0627\u0631\u0629 \u0627\u0644\u0645\u062d\u0644\u064a\u0629", "name:ar": "\u062d\u064a \u0627\u0644\u062c\u0632\u0627\u0626\u0631", "name:ar1": "\u062d\u064a \u0627\u0644\u0625\u062f\u0627\u0631\u0629 \u0627\u0644\u0645\u062d\u0644\u064a\u0629", "name:de": "Hayy al Idarah al Mahaliyah", "name:en": "Hayy al Idarah al Mahaliyah", "name:fr": "Hayy al Idarah al Mahaliyah", "place": "hamlet"}}, {"type": "node", "id": 2479222588, "lat": 32.007113, "lon": 44.868408, "tags": {"alt_name": "\u0622\u0644 \u0628\u0648 \u0635\u0627\u0644\u062d", "int_name": "\u0100lb\u016b \u015e\u0101li\u1e29, \u0627\u0644\u0628\u0648 \u0635\u0627\u0644\u062d, Albu Salih, \u0627\u0644\u0628\u0648 \u0635\u0627\u0644\u062d", "is_in": "Iraq , \u062c\u0645\u0647\u0648\u0631\u064a\u0629 \u0627\u0644\u0639\u0631\u0627\u0642", "name": "\u0622\u0644 \u0628\u0648 \u0635\u0627\u0644\u062d", "name:ar": "\u0627\u0644\u0628\u0648\u062d\u0633\u0646 \u0642\u0631\u064a\u0629 \u0627\u0645 \u0637\u0628\u0627\u0634\u064a", "name:ar1": "\u0622\u0644 \u0628\u0648 \u0635\u0627\u0644\u062d", "name:de": "Albu hesan", "name:en": "Albu hesan", "name:fr": "Albu hesan", "place": "village"}}, {"type": "node", "id": 2479229873, "lat": 32.060136, "lon": 44.772238, "tags": {"alt_name": "\u0627\u0644\u0633\u0646\u064a\u0629", "capital": "7", "int_name": "As San\u012byah, As Sinn\u012byah, Siniya, \u0627\u0644\u0633\u0646\u064a\u0629, As Saniyah, As Sinniyah, Siniya, \u0627\u0644\u0633\u0646\u064a\u0629", "is_in": "Iraq , \u062c\u0645\u0647\u0648\u0631\u064a\u0629 \u0627\u0644\u0639\u0631\u0627\u0642", "name": "\u0627\u0644\u0633\u0646\u064a\u0629", "name:ar": "\u0627\u0644\u0633\u0646\u064a\u0629", "name:ar1": "\u0627\u0644\u0633\u0646\u064a\u0629", "name:de": "As Saniyah", "name:en": "As Saniyah", "name:fr": "As Saniyah", "place": "town", "wikidata": "Q20419412"}}, {"type": "node", "id": 2479285739, "lat": 32.0652825, "lon": 44.7066379, "tags": {"alt_name": "\u0639\u0628\u062f \u0627\u0644\u0631\u0636\u0627 \u0631\u062d\u0645\u0627\u0646", "int_name": "Abd ar Ri\u1e11\u0101 Ra\u1e29man, Abd ar Rida Rahman", "is_in": "Iraq , \u062c\u0645\u0647\u0648\u0631\u064a\u0629 \u0627\u0644\u0639\u0631\u0627\u0642", "name": "\u0639\u0628\u062f \u0627\u0644\u0631\u0636\u0627 \u0631\u062d\u0645\u0627\u0646", "name:ar": "\u0639\u0628\u062f \u0627\u0644\u0631\u0636\u0627 \u0631\u062d\u0645\u0646", "name:ar1": "\u0639\u0628\u062f \u0627\u0644\u0631\u0636\u0627 \u0631\u062d\u0645\u0627\u0646", "name:de": "Abd ar Rida Rahman", "name:en": "Abd ar Rida Rahman", "name:fr": "Abd ar Rida Rahman", "place": "village"}}, {"type": "node", "id": 2480220817, "lat": 32.0848905, "lon": 44.5892053, "tags": {"alt_name": "\u0627\u0634\u0644\u0627\u0643\u0629 \u0639\u0628\u062f \u0627\u0644\u0633\u0627\u062f\u0629", "int_name": "\u0627\u0634\u0644\u0627\u0643\u0629 \u0639\u0628\u062f \u0627\u0644\u0633\u0627\u062f\u0629, \u0627\u0634\u0644\u0627\u0643\u0629 \u0639\u0628\u062f \u0627\u0644\u0633\u0627\u062f\u0629", "is_in": "Iraq , \u062c\u0645\u0647\u0648\u0631\u064a\u0629 \u0627\u0644\u0639\u0631\u0627\u0642", "name": "\u0627\u0634\u0644\u0627\u0643\u0629 \u0639\u0628\u062f \u0627\u0644\u0633\u0627\u062f\u0629", "name:ar": "\u0627\u0634\u0644\u0627\u0643\u0629 \u0639\u0628\u062f \u0627\u0644\u0633\u0627\u062f\u0629", "name:ar1": "\u0627\u0634\u0644\u0627\u0643\u0629 \u0639\u0628\u062f \u0627\u0644\u0633\u0627\u062f\u0629", "name:de": "\u0627\u0634\u0644\u0627\u0643\u0629 \u0639\u0628\u062f \u0627\u0644\u0633\u0627\u062f\u0629", "name:en": "Ashlakah Abdul Sada", "name:fr": "\u0627\u0634\u0644\u0627\u0643\u0629 \u0639\u0628\u062f \u0627\u0644\u0633\u0627\u062f\u0629", "place": "village"}}, {"type": "node", "id": 2480220920, "lat": 32.132266, "lon": 44.576153, "tags": {"alt_name": "\u0639\u0628\u0648\u062f \u062d\u0633\u064a\u0646", "int_name": "Abb\u016bd \u1e28usayn, \u0639\u0628\u0648\u062f \u062d\u0633\u064a\u0646, Abbud Husayn, \u0639\u0628\u0648\u062f \u062d\u0633\u064a\u0646", "is_in": "Iraq , \u062c\u0645\u0647\u0648\u0631\u064a\u0629 \u0627\u0644\u0639\u0631\u0627\u0642", "name": "\u0639\u0628\u0648\u062f \u062d\u0633\u064a\u0646", "name:ar": "\u0639\u0628\u0648\u062f \u062d\u0633\u064a\u0646", "name:ar1": "\u0639\u0628\u0648\u062f \u062d\u0633\u064a\u0646", "name:de": "Abbud Husayn", "name:en": "Abbud Husayn", "name:fr": "Abbud Husayn", "place": "hamlet"}}, {"type": "node", "id": 2480220936, "lat": 32.107674, "lon": 44.578358, "tags": {"alt_name": "\u062c\u0648\u0627\u062f \u0643\u0627\u0638\u0645", "int_name": "Jaw\u0101d K\u0101z\u0327im, \u062c\u0648\u0627\u062f \u0643\u0627\u0638\u0645, Jawad Kazim, \u062c\u0648\u0627\u062f \u0643\u0627\u0638\u0645", "is_in": "Iraq , \u062c\u0645\u0647\u0648\u0631\u064a\u0629 \u0627\u0644\u0639\u0631\u0627\u0642", "name": "\u062c\u0648\u0627\u062f \u0643\u0627\u0638\u0645", "name:ar": "\u062c\u0648\u0627\u062f \u0643\u0627\u0638\u0645", "name:ar1": "\u062c\u0648\u0627\u062f \u0643\u0627\u0638\u0645", "name:de": "Jawad Kazim", "name:en": "Jawad Kazim", "name:fr": "Jawad Kazim", "place": "hamlet"}}, {"type": "node", "id": 2480220945, "lat": 32.110003, "lon": 44.579105, "tags": {"alt_name": "\u0642\u0631\u064a\u0629 \u0623\u0628\u0648 \u062d\u0644\u0627\u0646", "int_name": "Qaryat Ab\u016b \u1e28ill\u0101n, \u0642\u0631\u064a\u0629 \u0623\u0628\u0648 \u062d\u0644\u0627\u0646, Qaryat Abu Hillan, \u0642\u0631\u064a\u0629 \u0623\u0628\u0648 \u062d\u0644\u0627\u0646", "name": "\u0642\u0631\u064a\u0629 \u0623\u0628\u0648 \u062d\u0644\u0627\u0646", "name:ar": "\u0642\u0631\u064a\u0629 \u0623\u0628\u0648 \u062d\u0644\u0627\u0646", "name:ar1": "\u0642\u0631\u064a\u0629 \u0623\u0628\u0648 \u062d\u0644\u0627\u0646", "name:de": "Qaryat Abu Hillan", "name:en": "Qaryat Abu Hillan", "name:fr": "Qaryat Abu Hillan", "place": "hamlet"}}, {"type": "node", "id": 2480220979, "lat": 32.125165, "lon": 44.622489, "tags": {"alt_name": "\u0627\u0644\u0639\u0631\u062c\u0629", "int_name": "Al Arjah, \u0627\u0644\u0639\u0631\u062c\u0629, Al Arjah, \u0627\u0644\u0639\u0631\u062c\u0629", "is_in": "Iraq , \u062c\u0645\u0647\u0648\u0631\u064a\u0629 \u0627\u0644\u0639\u0631\u0627\u0642", "name": "\u0627\u0644\u0639\u0631\u062c\u0629", "name:ar": "\u0627\u0644\u0639\u0631\u062c\u0629", "name:ar1": "\u0627\u0644\u0639\u0631\u062c\u0629", "name:de": "Al Arjah", "name:en": "Al Arjah", "name:fr": "Al Arjah", "place": "hamlet"}}, {"type": "node", "id": 2480221566, "lat": 31.9801635, "lon": 44.6986818, "tags": {"alt_name": "\u0627\u0644\u0633\u0627\u062f\u0629 \u0627\u0644 \u0628\u0637\u0629", "int_name": "\u0627\u0644\u0633\u0627\u062f\u0629 \u0627\u0644 \u0628\u0637\u0629, \u0627\u0644\u0633\u0627\u062f\u0629 \u0627\u0644 \u0628\u0637\u0629", "is_in": "Iraq , \u062c\u0645\u0647\u0648\u0631\u064a\u0629 \u0627\u0644\u0639\u0631\u0627\u0642", "name": "\u0627\u0644\u0633\u0627\u062f\u0629 \u0627\u0644 \u0628\u0637\u0629", "name:ar": "\u0627\u0644\u0633\u0627\u062f\u0629 \u0627\u0644 \u0628\u0637\u0629", "name:ar1": "\u0627\u0644\u0633\u0627\u062f\u0629 \u0627\u0644 \u0628\u0637\u0629", "name:de": "\u0627\u0644\u0633\u0627\u062f\u0629 \u0627\u0644 \u0628\u0637\u0629", "name:fr": "\u0627\u0644\u0633\u0627\u062f\u0629 \u0627\u0644 \u0628\u0637\u0629", "place": "village"}}, {"type": "node", "id": 2480228187, "lat": 31.7, "lon": 44.95, "tags": {"alt_name": "\u0631\u064a\u0643\u0627\u0646", "int_name": "Raik\u0101n, R\u012bk\u0101n, Raikan, Rikan", "is_in": "Iraq , \u062c\u0645\u0647\u0648\u0631\u064a\u0629 \u0627\u0644\u0639\u0631\u0627\u0642", "name": "\u0631\u064a\u0643\u0627\u0646", "name:ar": "\u0631\u064a\u0643\u0627\u0646 \u0628\u0646\u064a \u0639\u0627\u0631\u0636", "name:ar1": "\u0631\u064a\u0643\u0627\u0646", "name:de": "Raikan", "name:en": "Raikan", "name:fr": "Raikan", "place": "village"}}, {"type": "node", "id": 2482253870, "lat": 32.053353, "lon": 44.562152, "tags": {"alt_name": "Al Mah\u0101w\u012bya, Al Mahn\u0101w\u012bya, Al Mahn\u0101w\u012byah, Al Mhnaweyah, Al Mihnaw\u012byah, Muhann\u0101w\u012bya, N\u0101\u1e29iyat al Mihn\u0101w\u012byah", "capital": "7", "int_name": "Al Mahawiya - \u0627\u0644\u0645\u0647\u0646\u0627\u0648\u064a\u0629", "is_in": "Iraq , \u062c\u0645\u0647\u0648\u0631\u064a\u0629 \u0627\u0644\u0639\u0631\u0627\u0642", "name": "\u0627\u0644\u0645\u0647\u0646\u0627\u0648\u064a\u0629", "name:ar": "\u0627\u0644\u0645\u0647\u0646\u0627\u0648\u064a\u0629", "name:de": "Al Mahnawiya", "name:en": "Al Mahnawiya", "name:fr": "Al Mahnawiya", "place": "town", "wikidata": "Q12194031"}}, {"type": "node", "id": 2482253871, "lat": 32.057222, "lon": 44.568348, "tags": {"alt_name": "\u0642\u0631\u064a\u0629 \u0627\u0644\u0635\u0643\u064a\u0627\u0646", "int_name": "Qaryat a\u015f \u015eaky\u0101n, \u0642\u0631\u064a\u0629 \u0627\u0644\u0635\u0643\u064a\u0627\u0646, Qaryat as Sakyan, \u0642\u0631\u064a\u0629 \u0627\u0644\u0635\u0643\u064a\u0627\u0646", "name": "\u0642\u0631\u064a\u0629 \u0627\u0644\u0635\u0643\u064a\u0627\u0646", "name:ar": "\u0642\u0631\u064a\u0629 \u0627\u0644 \u0635\u0643\u0628\u0627\u0646", "name:ar1": "\u0642\u0631\u064a\u0629 \u0627\u0644\u0635\u0643\u064a\u0627\u0646", "name:de": "Qaryat as Sakyan", "name:en": "Qaryat as Sakyan", "name:fr": "Qaryat as Sakyan", "place": "village"}}, {"type": "node", "id": 2482326803, "lat": 32.130186, "lon": 44.696256, "tags": {"alt_name": "\u0643\u0627\u0645\u0644 \u062d\u0644\u064a\u0641", "int_name": "K\u0101mil \u1e28al\u012bf, \u0643\u0627\u0645\u0644 \u062d\u0644\u064a\u0641, Kamil Halif, \u0643\u0627\u0645\u0644 \u062d\u0644\u064a\u0641", "is_in": "Iraq , \u062c\u0645\u0647\u0648\u0631\u064a\u0629 \u0627\u0644\u0639\u0631\u0627\u0642", "name": "\u0643\u0627\u0645\u0644 \u062d\u0644\u064a\u0641", "name:ar": "\u0643\u0627\u0645\u0644 \u062d\u0644\u064a\u0641 \u0627\u0644\u0628\u062f\u0648\u064a", "name:ar1": "\u0643\u0627\u0645\u0644 \u062d\u0644\u064a\u0641", "name:de": "Kamil Halif", "name:en": "Kamil Halif", "name:fr": "Kamil Halif", "place": "village"}}, {"type": "node", "id": 2482326809, "lat": 32.134327, "lon": 44.707384, "tags": {"alt_name": "\u0642\u0631\u064a\u0629 \u0639\u0628\u062f \u0627\u0644\u0633\u0627\u062f\u0629 \u0622\u0644 \u062d\u0645\u0632\u0629", "int_name": "Qaryat Abd as S\u0101dah \u0100l \u1e28amzah, \u0642\u0631\u064a\u0629 \u0639\u0628\u062f \u0627\u0644\u0633\u0627\u062f\u0629 \u0622\u0644 \u062d\u0645\u0632\u0629, Qaryat Abd as Sadah Al Hamzah, \u0642\u0631\u064a\u0629 \u0639\u0628\u062f \u0627\u0644\u0633\u0627\u062f\u0629 \u0622\u0644 \u062d\u0645\u0632\u0629", "name": "\u0642\u0631\u064a\u0629 \u0639\u0628\u062f \u0627\u0644\u0633\u0627\u062f\u0629 \u0622\u0644 \u062d\u0645\u0632\u0629", "name:ar": "\u0642\u0631\u064a\u0629 \u0639\u0628\u062f \u0627\u0644\u0633\u0627\u062f\u0629 \u0622\u0644 \u062d\u0645\u0632\u0629 \u0623\u0628\u0648 \u0645\u0644\u064a\u062d\u0647", "name:ar1": "\u0642\u0631\u064a\u0629 \u0639\u0628\u062f \u0627\u0644\u0633\u0627\u062f\u0629 \u0622\u0644 \u062d\u0645\u0632\u0629", "name:de": "Qaryat Abd as Sadah Al Hamzah", "name:en": "Qaryat Abd as Sadah Al Hamzah", "name:fr": "Qaryat Abd as Sadah Al Hamzah", "place": "village"}}, {"type": "node", "id": 2482326810, "lat": 32.128472, "lon": 44.716603, "tags": {"alt_name": "\u0642\u0631\u064a\u0629 \u062c\u0628\u0631 \u062f\u062e\u064a\u0644", "int_name": "Qaryat Jabr Dakh\u012bl, \u0642\u0631\u064a\u0629 \u062c\u0628\u0631 \u062f\u062e\u064a\u0644, Qaryat Jabr Dakhil, \u0642\u0631\u064a\u0629 \u062c\u0628\u0631 \u062f\u062e\u064a\u0644", "name": "\u0642\u0631\u064a\u0629 \u062c\u0628\u0631 \u062f\u062e\u064a\u0644", "name:ar": "\u0642\u0631\u064a\u0629 \u0627\u0644\u0634\u064a\u062e \u062c\u0628\u0631 \u062f\u062e\u064a\u0644 \u0627\u0644\u062f\u0645\u0627\u063a \u0627\u0644\u0639\u0635\u064a\u0628\u064a", "name:ar1": "\u0642\u0631\u064a\u0629 \u062c\u0628\u0631 \u062f\u062e\u064a\u0644", "name:de": "Qaryat Jabr Dakhil", "name:en": "Qaryat Jabr Dakhil", "name:fr": "Qaryat Jabr Dakhil", "place": "village"}}, {"type": "node", "id": 2482326905, "lat": 32.131247, "lon": 44.755614, "tags": {"alt_name": "\u0643\u0631\u064a\u0645 \u0643\u0634\u0627\u0634", "int_name": "Kar\u012bm Kash\u0101sh, \u0643\u0631\u064a\u0645 \u0643\u0634\u0627\u0634, Karim Kashash, \u0643\u0631\u064a\u0645 \u0643\u0634\u0627\u0634", "is_in": "Iraq , \u062c\u0645\u0647\u0648\u0631\u064a\u0629 \u0627\u0644\u0639\u0631\u0627\u0642", "name": "\u0643\u0631\u064a\u0645 \u0643\u0634\u0627\u0634", "name:ar": "\u0627\u0644\u0634\u064a\u062e \u0643\u0631\u064a\u0645 \u0643\u0634\u0627\u0634", "name:ar1": "\u0643\u0631\u064a\u0645 \u0643\u0634\u0627\u0634", "name:de": "Karim Kashash", "name:en": "Karim Kashash", "name:fr": "Karim Kashash", "place": "village"}}, {"type": "node", "id": 2482326920, "lat": 32.107449, "lon": 44.745907, "tags": {"alt_name": "\u0642\u0631\u064a\u0629 \u0622\u0644 \u0647\u062f\u0647\u0648\u062f", "int_name": "Qaryat \u0100l Hadh\u016bd, \u0642\u0631\u064a\u0629 \u0622\u0644 \u0647\u062f\u0647\u0648\u062f, Qaryat Al Hadhud, \u0642\u0631\u064a\u0629 \u0622\u0644 \u0647\u062f\u0647\u0648\u062f", "name": "\u0642\u0631\u064a\u0629 \u0622\u0644 \u0647\u062f\u0647\u0648\u062f", "name:ar": "\u0642\u0631\u064a\u0629 \u0627\u0644\u062e\u0632\u0627\u0639\u0644 \u0622\u0644 \u0647\u062f\u0647\u0648\u062f", "name:ar1": "\u0642\u0631\u064a\u0629 \u0622\u0644 \u0647\u062f\u0647\u0648\u062f", "name:de": "Qaryat Al Hadhud", "name:en": "Qaryat Al Hadhud", "name:fr": "Qaryat Al Hadhud", "place": "village"}}, {"type": "node", "id": 2482326921, "lat": 32.130724, "lon": 44.74316, "tags": {"alt_name": "\u0642\u0631\u064a\u0629 \u0643\u0634\u0629", "int_name": "Qaryat Kashshah, \u0642\u0631\u064a\u0629 \u0643\u0634\u0629, Qaryat Kashshah, \u0642\u0631\u064a\u0629 \u0643\u0634\u0629", "name": "\u0642\u0631\u064a\u0629 \u0643\u0634\u0629", "name:ar": "\u0642\u0631\u064a\u0629 \u0643\u0634\u0631", "name:ar1": "\u0642\u0631\u064a\u0629 \u0643\u0634\u0629", "name:de": "Qaryat Kashshah", "name:en": "Qaryat Kashr", "name:fr": "Qaryat Kashshah", "place": "village"}}, {"type": "node", "id": 2482328216, "lat": 32.136076, "lon": 44.96468, "tags": {"alt_name": "\u062d\u0645\u0627\u062f \u0627\u0644\u0634\u0647\u064a\u0628", "int_name": "\u1e28am\u0101d ash Shuhayb, \u062d\u0645\u0627\u062f \u0627\u0644\u0634\u0647\u064a\u0628, Hamad ash Shuhayb, \u062d\u0645\u0627\u062f \u0627\u0644\u0634\u0647\u064a\u0628", "is_in": "Iraq , \u062c\u0645\u0647\u0648\u0631\u064a\u0629 \u0627\u0644\u0639\u0631\u0627\u0642", "name": "\u062d\u0645\u0627\u062f \u0627\u0644\u0634\u0647\u064a\u0628", "name:ar": "\u0642\u0631\u064a\u0629 \u0622\u0644 \u062e\u0644\u0627\u0637", "name:ar1": "\u062d\u0645\u0627\u062f \u0627\u0644\u0634\u0647\u064a\u0628", "name:de": "Hamad ash Shuhayb", "name:en": "Hamad ash Shuhayb", "name:fr": "Hamad ash Shuhayb", "place": "village"}}, {"type": "node", "id": 2482328220, "lat": 32.123184, "lon": 44.939686, "tags": {"alt_name": "\u062d\u0633\u064a\u0646 \u0627\u0644\u062d\u0633\u0646", "int_name": "Alhilalat", "is_in": "Iraq , \u062c\u0645\u0647\u0648\u0631\u064a\u0629 \u0627\u0644\u0639\u0631\u0627\u0642", "name": "\u062d\u0633\u064a\u0646 \u0627\u0644\u062d\u0633\u0646", "name:ar": "\u0627\u0644\u0647\u0644\u0627\u0644\u0627\u062a", "name:ar1": "\u062d\u0633\u064a\u0646 \u0627\u0644\u062d\u0633\u0646", "name:de": "Alhilalat", "name:en": "Alhilalat", "name:fr": "Alhilalat", "place": "village"}}, {"type": "node", "id": 2482338531, "lat": 32.0927464, "lon": 45.0066203, "tags": {"alt_name": "\u0642\u0631\u064a\u0629 \u0622\u0644 \u0632\u064a\u0628\u0627\u062f", "int_name": "Qaryat \u0100l Z\u012bb\u0101d, Qaryat Al Zibad", "name": "\u0642\u0631\u064a\u0629 \u0622\u0644 \u0632\u064a\u0628\u0627\u062f", "name:ar": "\u0642\u0631\u064a\u0629 \u0622\u0644 \u0632\u064a\u0627\u062f", "name:ar1": "\u0642\u0631\u064a\u0629 \u0622\u0644 \u0632\u064a\u0628\u0627\u062f", "name:de": "Qaryat Al Zibad", "name:en": "Qaryat Al Ziad", "name:fr": "Qaryat Al Zibad", "place": "village"}}, {"type": "node", "id": 2482345835, "lat": 31.9116003, "lon": 44.7864376, "tags": {"alt_name": "\u062d\u0645\u062f\u0627\u0644\u0644\u0647 \u0627\u0644\u0639\u0635\u0641\u0648\u0631", "int_name": "\u062d\u0645\u062f\u0627\u0644\u0644\u0647 \u0627\u0644\u0639\u0635\u0641\u0648\u0631, \u062d\u0645\u062f\u0627\u0644\u0644\u0647 \u0627\u0644\u0639\u0635\u0641\u0648\u0631", "is_in": "Iraq , \u062c\u0645\u0647\u0648\u0631\u064a\u0629 \u0627\u0644\u0639\u0631\u0627\u0642", "name": "\u062d\u0645\u062f\u0627\u0644\u0644\u0647 \u0627\u0644\u0639\u0635\u0641\u0648\u0631", "name:ar": "\u062d\u0645\u062f\u0627\u0644\u0644\u0647 \u0627\u0644\u0639\u0635\u0641\u0648\u0631", "name:ar1": "\u062d\u0645\u062f\u0627\u0644\u0644\u0647 \u0627\u0644\u0639\u0635\u0641\u0648\u0631", "place": "village"}}, {"type": "node", "id": 2482471079, "lat": 31.7784512, "lon": 44.9707432, "tags": {"alt_name": "\u0627\u0644 \u0628\u0648 \u0627\u0644\u0643\u0648\u0633", "int_name": "\u0627\u0644 \u0628\u0648 \u0627\u0644\u0643\u0648\u0633, \u0627\u0644 \u0628\u0648 \u0627\u0644\u0643\u0648\u0633", "is_in": "Iraq , \u062c\u0645\u0647\u0648\u0631\u064a\u0629 \u0627\u0644\u0639\u0631\u0627\u0642", "name": "\u0627\u0644 \u0628\u0648 \u0627\u0644\u0643\u0648\u0633", "name:ar": "\u0627\u0644 \u0628\u0648 \u0627\u0644\u0643\u0648\u0633", "name:ar1": "\u0627\u0644 \u0628\u0648 \u0627\u0644\u0643\u0648\u0633", "name:de": "\u0627\u0644 \u0628\u0648 \u0627\u0644\u0643\u0648\u0633", "name:fr": "\u0627\u0644 \u0628\u0648 \u0627\u0644\u0643\u0648\u0633", "place": "village"}}, {"type": "node", "id": 2483751127, "lat": 31.7233192, "lon": 44.9770983, "tags": {"alt_name": "Al \u1e28amzah, \u0627\u0644\u062d\u0645\u0632\u0629, Al Hamzah, \u0627\u0644\u062d\u0645\u0632\u0629", "capital": "6", "int_name": "Al Hamzah - \u0627\u0644\u062d\u0645\u0632\u0629", "name": "\u0627\u0644\u062d\u0645\u0632\u0629", "name:ar": "\u0627\u0644\u062d\u0645\u0632\u0629", "name:de": "Al Hamzah", "name:en": "Al Hamzah", "name:fr": "Al Hamzah", "name:ru": "\u0418\u043c\u0430\u043c-\u044d\u043b\u044c-\u0425\u0430\u043c\u0437\u0430", "place": "town", "wikidata": "Q4164784"}}, {"type": "node", "id": 2483751159, "lat": 31.7619416, "lon": 44.930053, "tags": {"alt_name": "\u0627\u0644 \u0643\u0631\u064a\u062f\u064a", "int_name": "\u0627\u0644 \u0643\u0631\u064a\u062f\u064a, \u0627\u0644 \u0643\u0631\u064a\u062f\u064a", "is_in": "Iraq , \u062c\u0645\u0647\u0648\u0631\u064a\u0629 \u0627\u0644\u0639\u0631\u0627\u0642", "name": "\u0627\u0644 \u0643\u0631\u064a\u062f\u064a", "name:ar": "\u0627\u0644 \u0643\u0631\u064a\u062f\u064a", "name:ar1": "\u0627\u0644 \u0643\u0631\u064a\u062f\u064a", "name:de": "\u0627\u0644 \u0643\u0631\u064a\u062f\u064a", "name:en": "Al Creedy", "name:fr": "\u0627\u0644 \u0643\u0631\u064a\u062f\u064a", "place": "village"}}, {"type": "node", "id": 2483753434, "lat": 31.8202653, "lon": 44.9142569, "tags": {"alt_name": "\u0639\u064a\u0633\u0649 \u0627\u0644 \u0635\u0628\u0627\u062d", "int_name": "\u0639\u064a\u0633\u0649 \u0627\u0644 \u0635\u0628\u0627\u062d, \u0639\u064a\u0633\u0649 \u0627\u0644 \u0635\u0628\u0627\u062d", "is_in": "Iraq , \u062c\u0645\u0647\u0648\u0631\u064a\u0629 \u0627\u0644\u0639\u0631\u0627\u0642", "name": "\u0639\u064a\u0633\u0649 \u0627\u0644 \u0635\u0628\u0627\u062d", "name:ar": "\u0639\u064a\u0633\u0649 \u0627\u0644 \u0635\u0628\u0627\u062d", "name:ar1": "\u0639\u064a\u0633\u0649 \u0627\u0644 \u0635\u0628\u0627\u062d", "place": "village"}}, {"type": "node", "id": 2483756516, "lat": 31.839227, "lon": 44.783488, "tags": {"alt_name": "\u0627\u0644\u062c\u0648\u0627\u0633\u0645", "int_name": "Al Jaw\u0101sim, \u0627\u0644\u062c\u0648\u0627\u0633\u0645, Al Jawasim, \u0627\u0644\u062c\u0648\u0627\u0633\u0645", "is_in": "Iraq , \u062c\u0645\u0647\u0648\u0631\u064a\u0629 \u0627\u0644\u0639\u0631\u0627\u0642", "name": "\u0627\u0644\u062c\u0648\u0627\u0633\u0645", "name:ar": "\u0627\u0644\u062c\u0648\u0627\u0633\u0645 \u0622\u0644 \u063a\u0644\u0627\u0628", "name:ar1": "\u0627\u0644\u062c\u0648\u0627\u0633\u0645", "name:de": "Al Jawasim", "name:en": "Al Jawasim Algalab", "name:fr": "Al Jawasim", "place": "village"}}, {"type": "node", "id": 2483757119, "lat": 31.7783952, "lon": 44.820615, "tags": {"alt_name": "\u0639\u0631\u0643\u0648\u0628 \u0627\u0644 \u0627\u0644\u062d\u064a\u0629", "int_name": "\u0639\u0631\u0643\u0648\u0628 \u0627\u0644 \u0627\u0644\u062d\u064a\u0629, \u0639\u0631\u0643\u0648\u0628 \u0627\u0644 \u0627\u0644\u062d\u064a\u0629", "is_in": "Iraq , \u062c\u0645\u0647\u0648\u0631\u064a\u0629 \u0627\u0644\u0639\u0631\u0627\u0642", "name": "\u0639\u0631\u0643\u0648\u0628 \u0627\u0644 \u0627\u0644\u062d\u064a\u0629", "name:ar": "\u0639\u0631\u0643\u0648\u0628 \u0627\u0644 \u0627\u0644\u062d\u064a\u0629", "name:ar1": "\u0639\u0631\u0643\u0648\u0628 \u0627\u0644 \u0627\u0644\u062d\u064a\u0629", "name:de": "\u0639\u0631\u0643\u0648\u0628 \u0627\u0644 \u0627\u0644\u062d\u064a\u0629", "name:fr": "\u0639\u0631\u0643\u0648\u0628 \u0627\u0644 \u0627\u0644\u062d\u064a\u0629", "place": "village"}}, {"type": "node", "id": 2483758227, "lat": 31.8226716, "lon": 44.8100338, "tags": {"alt_name": "\u062c\u0639\u0628 \u0639\u0628\u062f \u0627\u0644 \u062c\u0628\u0627\u0631", "int_name": "\u062c\u0639\u0628 \u0639\u0628\u062f \u0627\u0644 \u062c\u0628\u0627\u0631, \u062c\u0639\u0628 \u0639\u0628\u062f \u0627\u0644 \u062c\u0628\u0627\u0631", "is_in": "Iraq , \u062c\u0645\u0647\u0648\u0631\u064a\u0629 \u0627\u0644\u0639\u0631\u0627\u0642", "name": "\u062c\u0639\u0628 \u0639\u0628\u062f \u0627\u0644 \u062c\u0628\u0627\u0631", "name:ar": "\u062c\u0639\u0628 \u0639\u0628\u062f \u0627\u0644 \u062c\u0628\u0627\u0631", "name:ar1": "\u062c\u0639\u0628 \u0639\u0628\u062f \u0627\u0644 \u062c\u0628\u0627\u0631", "place": "village"}}, {"type": "node", "id": 2483760434, "lat": 31.8387218, "lon": 44.6088864, "tags": {"alt_name": "\u0623\u0645 \u0634\u0631\u0627\u0634\u064a\u062a", "int_name": "Umm Shar\u0101sh\u012bt, Umm Sharashit", "is_in": "Iraq , \u062c\u0645\u0647\u0648\u0631\u064a\u0629 \u0627\u0644\u0639\u0631\u0627\u0642", "name": "\u0623\u0645 \u0634\u0631\u0627\u0634\u064a\u062a", "name:ar": "\u0623\u0645 \u0634\u0648\u0627\u0631\u064a\u0641", "name:ar1": "\u0623\u0645 \u0634\u0631\u0627\u0634\u064a\u062a", "name:de": "Umm Sharashit", "name:en": "Umm Sharashit", "name:fr": "Umm Sharashit", "place": "village"}}, {"type": "node", "id": 2483761578, "lat": 31.8328784, "lon": 44.5743413, "tags": {"alt_name": "\u062d\u0632\u064a\u0631\u0627\u0646 \u0627\u0644 \u0633\u064a\u062d\u0627\u0646", "int_name": "\u062d\u0632\u064a\u0631\u0627\u0646 \u0627\u0644 \u0633\u064a\u062d\u0627\u0646, \u062d\u0632\u064a\u0631\u0627\u0646 \u0627\u0644 \u0633\u064a\u062d\u0627\u0646", "name": "\u062d\u0632\u064a\u0631\u0627\u0646 \u0627\u0644 \u0633\u064a\u062d\u0627\u0646", "name:ar": "\u062d\u0632\u064a\u0631\u0627\u0646 \u0627\u0644 \u0633\u064a\u062d\u0627\u0646", "name:ar1": "\u062d\u0632\u064a\u0631\u0627\u0646 \u0627\u0644 \u0633\u064a\u062d\u0627\u0646", "name:de": "\u062d\u0632\u064a\u0631\u0627\u0646 \u0627\u0644 \u0633\u064a\u062d\u0627\u0646", "name:en": "June the Sehan", "name:fr": "\u062d\u0632\u064a\u0631\u0627\u0646 \u0627\u0644 \u0633\u064a\u062d\u0627\u0646", "place": "village"}}, {"type": "node", "id": 2485415829, "lat": 31.7423412, "lon": 44.6101976, "tags": {"alt_name": "N\u0101\u1e29iyat Ghamm\u0101s, \u0646\u0627\u062d\u064a\u0629 \u063a\u0645\u0627\u0633, Nahiyat Ghammas, \u0646\u0627\u062d\u064a\u0629 \u063a\u0645\u0627\u0633", "capital": "7", "int_name": "Ghammas - \u063a\u0645\u0627\u0633", "is_in": "Iraq , \u062c\u0645\u0647\u0648\u0631\u064a\u0629 \u0627\u0644\u0639\u0631\u0627\u0642", "is_in:country": "Iraq", "is_in:country_code": "IQ", "name": "\u063a\u0645\u0627\u0633", "name:ar": "\u063a\u0645\u0627\u0633", "name:de": "Ghammas", "name:en": "Ghammas", "name:fr": "Ghammas", "place": "town", "population": "30909", "population:date": "2006", "source:population": "http://www.geonames.org/99434/nahiyat-ghammas.html", "wikidata": "Q4133105"}}, {"type": "node", "id": 2485417688, "lat": 31.756816, "lon": 44.671735, "tags": {"alt_name": "\u0646\u0627\u064a\u0641 \u0634\u0648\u064a\u062e", "int_name": "N\u0101yif Shuwaykh, \u0646\u0627\u064a\u0641 \u0634\u0648\u064a\u062e, Nayif Shuwaykh, \u0646\u0627\u064a\u0641 \u0634\u0648\u064a\u062e", "is_in": "Iraq , \u062c\u0645\u0647\u0648\u0631\u064a\u0629 \u0627\u0644\u0639\u0631\u0627\u0642", "name": "\u0637\u0627\u0631\u0634 \u0627\u0644\u0628\u063a\u062f\u0627\u062f\u064a", "name:ar": "\u0637\u0627\u0631\u0634 \u0627\u0644\u0628\u063a\u062f\u0627\u062f\u064a", "name:ar1": "\u0646\u0627\u064a\u0641 \u0634\u0648\u064a\u062e", "name:de": "Tarish al Baghdadi", "name:en": "Tarish al Baghdadi", "name:fr": "Tarish al Baghdadi", "name:ru": "\u0422\u0430\u0440\u0438\u0448-\u044d\u043b\u044c-\u0411\u0430\u0433\u0434\u0430\u0434\u0438", "place": "village"}}, {"type": "node", "id": 2485418646, "lat": 31.760982, "lon": 44.621216, "tags": {"alt_name": "\u0625\u064a\u0634\u0627\u0646 \u0627\u0644\u0635\u0641\u062d\u064a\u0629", "int_name": "\u0627\u064a\u0634\u0627\u0646 \u0627\u0644\u0635\u0641\u062d\u064a\u0629, \u0627\u064a\u0634\u0627\u0646 \u0627\u0644\u0635\u0641\u062d\u064a\u0629", "is_in": "Iraq , \u062c\u0645\u0647\u0648\u0631\u064a\u0629 \u0627\u0644\u0639\u0631\u0627\u0642", "name": "\u0625\u064a\u0634\u0627\u0646 \u0627\u0644\u0635\u0641\u062d\u064a\u0629", "name:ar": "\u0625\u064a\u0634\u0627\u0646 \u0627\u0644\u0635\u0641\u062d\u064a\u0629", "name:ar1": "\u0625\u064a\u0634\u0627\u0646 \u0627\u0644\u0635\u0641\u062d\u064a\u0629", "name:de": "\u0627\u064a\u0634\u0627\u0646 \u0627\u0644\u0635\u0641\u062d\u064a\u0629", "name:en": "Ishaan Al-Sahih", "name:fr": "\u0627\u064a\u0634\u0627\u0646 \u0627\u0644\u0635\u0641\u062d\u064a\u0629", "place": "village"}}, {"type": "node", "id": 2485418651, "lat": 31.7577412, "lon": 44.6170261, "tags": {"alt_name": "\u0639\u0628\u062f\u0627\u0644\u0647\u0627\u062f\u064a \u0639\u0637\u064a\u0629", "int_name": "\u0639\u0628\u062f\u0627\u0644\u0647\u0627\u062f\u064a \u0639\u0637\u064a\u0629, \u0639\u0628\u062f\u0627\u0644\u0647\u0627\u062f\u064a \u0639\u0637\u064a\u0629", "is_in": "Iraq , \u062c\u0645\u0647\u0648\u0631\u064a\u0629 \u0627\u0644\u0639\u0631\u0627\u0642", "name": "\u0639\u0628\u062f\u0627\u0644\u0647\u0627\u062f\u064a \u0639\u0637\u064a\u0629", "name:ar": "\u0639\u0628\u062f\u0627\u0644\u0647\u0627\u062f\u064a \u0639\u0637\u064a\u0629", "name:ar1": "\u0639\u0628\u062f\u0627\u0644\u0647\u0627\u062f\u064a \u0639\u0637\u064a\u0629", "name:de": "\u0639\u0628\u062f\u0627\u0644\u0647\u0627\u062f\u064a \u0639\u0637\u064a\u0629", "name:fr": "\u0639\u0628\u062f\u0627\u0644\u0647\u0627\u062f\u064a \u0639\u0637\u064a\u0629", "place": "village"}}, {"type": "node", "id": 2485433817, "lat": 32.0328884, "lon": 44.6161609, "tags": {"alt_name": "\u0645\u0647\u062f\u064a \u0647\u0627\u062f\u064a", "int_name": "Mahd\u012b H\u0101d\u012b, \u0645\u0647\u062f\u064a \u0647\u0627\u062f\u064a, Mahdi Hadi, \u0645\u0647\u062f\u064a \u0647\u0627\u062f\u064a", "is_in": "Iraq , \u062c\u0645\u0647\u0648\u0631\u064a\u0629 \u0627\u0644\u0639\u0631\u0627\u0642", "name": "\u0645\u0647\u062f\u064a \u0647\u0627\u062f\u064a", "name:ar": "\u0645\u0647\u062f\u064a \u0647\u0627\u062f\u064a", "name:ar1": "\u0645\u0647\u062f\u064a \u0647\u0627\u062f\u064a", "name:de": "Mahdi Hadi", "name:en": "Mahdi Hadi", "name:fr": "Mahdi Hadi", "place": "village"}}, {"type": "node", "id": 2485441799, "lat": 31.9954048, "lon": 44.5621075, "tags": {"alt_name": "\u0643\u0627\u0638\u0645 \u0627\u0644\u0633\u0644\u0627\u0645\u0629", "int_name": "K\u0101z\u0327im as Sal\u0101mah, \u0643\u0627\u0638\u0645 \u0627\u0644\u0633\u0644\u0627\u0645\u0629, Kazim as Salamah, \u0643\u0627\u0638\u0645 \u0627\u0644\u0633\u0644\u0627\u0645\u0629", "is_in": "Iraq , \u062c\u0645\u0647\u0648\u0631\u064a\u0629 \u0627\u0644\u0639\u0631\u0627\u0642", "name": "\u0643\u0627\u0638\u0645 \u0627\u0644\u0633\u0644\u0627\u0645\u0629", "name:ar": "\u0643\u0627\u0638\u0645 \u0627\u0644\u0633\u0644\u0627\u0645\u0629", "name:ar1": "\u0643\u0627\u0638\u0645 \u0627\u0644\u0633\u0644\u0627\u0645\u0629", "name:de": "Kazim as Salamah", "name:en": "Kazim as Salamah", "name:fr": "Kazim as Salamah", "place": "hamlet"}}, {"type": "node", "id": 2485457849, "lat": 32.001227, "lon": 44.602271, "tags": {"alt_name": "\u0637\u0644\u0627\u0628 \u0632\u063a\u064a\u0631 \u0633\u0644\u0645\u0627\u0646", "int_name": "\u0162ull\u0101b Zagh\u012br Salm\u0101n, \u0637\u0644\u0627\u0628 \u0632\u063a\u064a\u0631 \u0633\u0644\u0645\u0627\u0646, Tullab Zaghir Salman, \u0637\u0644\u0627\u0628 \u0632\u063a\u064a\u0631 \u0633\u0644\u0645\u0627\u0646", "is_in": "Iraq , \u062c\u0645\u0647\u0648\u0631\u064a\u0629 \u0627\u0644\u0639\u0631\u0627\u0642", "name": "\u0637\u0644\u0627\u0628 \u0632\u063a\u064a\u0631 \u0633\u0644\u0645\u0627\u0646", "name:ar": "\u0637\u0644\u0627\u0628 \u0632\u063a\u064a\u0631 \u0633\u0644\u0645\u0627\u0646", "name:ar1": "\u0637\u0644\u0627\u0628 \u0632\u063a\u064a\u0631 \u0633\u0644\u0645\u0627\u0646", "name:de": "Tullab Zaghir Salman", "name:en": "Tullab Zaghir Salman", "name:fr": "Tullab Zaghir Salman", "place": "hamlet"}}, {"type": "node", "id": 2485457884, "lat": 32.001657, "lon": 44.598342, "tags": {"alt_name": "\u064a\u0627\u0633\u0631 \u0639\u0628\u062f \u0634\u0644\u0627\u0644", "int_name": "Y\u0101sir Abd Shal\u0101l, \u064a\u0627\u0633\u0631 \u0639\u0628\u062f \u0634\u0644\u0627\u0644, Yasir Abd Shalal, \u064a\u0627\u0633\u0631 \u0639\u0628\u062f \u0634\u0644\u0627\u0644", "is_in": "Iraq , \u062c\u0645\u0647\u0648\u0631\u064a\u0629 \u0627\u0644\u0639\u0631\u0627\u0642", "name": "\u064a\u0627\u0633\u0631 \u0639\u0628\u062f \u0634\u0644\u0627\u0644", "name:ar": "\u064a\u0627\u0633\u0631 \u0639\u0628\u062f \u0634\u0644\u0627\u0644", "name:ar1": "\u064a\u0627\u0633\u0631 \u0639\u0628\u062f \u0634\u0644\u0627\u0644", "name:de": "Yasir Abd Shalal", "name:en": "Yasir Abd Shalal", "name:fr": "Yasir Abd Shalal", "place": "hamlet"}}, {"type": "node", "id": 2485461509, "lat": 31.978406, "lon": 44.597698, "tags": {"alt_name": "\u0639\u062c\u0645\u064a \u0631\u062d\u064a\u0645", "int_name": "Ajam\u012b Ra\u1e29\u012bm, \u0639\u062c\u0645\u064a \u0631\u062d\u064a\u0645, Ajami Rahim, \u0639\u062c\u0645\u064a \u0631\u062d\u064a\u0645", "is_in": "Iraq , \u062c\u0645\u0647\u0648\u0631\u064a\u0629 \u0627\u0644\u0639\u0631\u0627\u0642", "name": "\u0642\u0631\u06cc\u0647 \u0639\u062c\u0645\u064a \u0631\u062d\u064a\u0645", "name:ar": "\u0639\u062c\u0645\u064a \u0631\u062d\u064a\u0645", "name:ar1": "\u0639\u062c\u0645\u064a \u0631\u062d\u064a\u0645", "name:de": "Ajami Rahim", "name:en": "Ajami Rahim", "name:fr": "Ajami Rahim", "place": "hamlet"}}, {"type": "node", "id": 2485461582, "lat": 31.959913, "lon": 44.5920048, "tags": {"alt_name": "Ash Sh\u0101m\u012bya, Ash Sh\u0101m\u012byah, Shamiya, \u0627\u0644\u0634\u0627\u0645\u064a\u0629, Ash Shamiya, Ash Shamiyah, Shamiya, \u0627\u0644\u0634\u0627\u0645\u064a\u0629", "capital": "6", "int_name": "Ash Shamiya - \u0627\u0644\u0634\u0627\u0645\u064a\u0629", "is_in": "Iraq , \u062c\u0645\u0647\u0648\u0631\u064a\u0629 \u0627\u0644\u0639\u0631\u0627\u0642", "name": "\u0627\u0644\u0634\u0627\u0645\u064a\u0629", "name:ar": "\u0627\u0644\u0634\u0627\u0645\u064a\u0629", "name:de": "Ash Shamiya", "name:en": "Ash Shamiya", "name:fr": "Ash Shamiya", "name:ru": "\u042d\u0448-\u0428\u0430\u043c\u0438\u044f", "place": "town", "wikidata": "Q26840693"}}, {"type": "node", "id": 2485461627, "lat": 31.97627, "lon": 44.573352, "tags": {"alt_name": "\u0647\u0627\u062f\u064a \u062c\u0648\u0627\u062f", "int_name": "H\u0101d\u012b Jaw\u0101d, \u0647\u0627\u062f\u064a \u062c\u0648\u0627\u062f, Hadi Jawad, \u0647\u0627\u062f\u064a \u062c\u0648\u0627\u062f", "is_in": "Iraq , \u062c\u0645\u0647\u0648\u0631\u064a\u0629 \u0627\u0644\u0639\u0631\u0627\u0642", "name": "\u0642\u0631\u06cc\u0647 \u0647\u0627\u062f\u064a \u062c\u0648\u0627\u062f", "name:ar": "\u0647\u0627\u062f\u064a \u062c\u0648\u0627\u062f", "name:ar1": "\u0647\u0627\u062f\u064a \u062c\u0648\u0627\u062f", "name:de": "Hadi Jawad", "name:en": "Hadi Jawad", "name:fr": "Hadi Jawad", "place": "hamlet"}}, {"type": "node", "id": 2485461675, "lat": 31.979924, "lon": 44.5718146, "tags": {"alt_name": "\u062c\u0648\u0627\u062f \u0647\u0627\u0634\u0645", "int_name": "Jaw\u0101d H\u0101shim, \u062c\u0648\u0627\u062f \u0647\u0627\u0634\u0645, Jawad Hashim, \u062c\u0648\u0627\u062f \u0647\u0627\u0634\u0645", "is_in": "Iraq , \u062c\u0645\u0647\u0648\u0631\u064a\u0629 \u0627\u0644\u0639\u0631\u0627\u0642", "name": "\u062c\u0648\u0627\u062f \u0647\u0627\u0634\u0645", "name:ar": "\u062c\u0648\u0627\u062f \u0647\u0627\u0634\u0645", "name:ar1": "\u062c\u0648\u0627\u062f \u0647\u0627\u0634\u0645", "name:de": "Jawad Hashim", "name:en": "Jawad Hashim", "name:fr": "Jawad Hashim", "place": "hamlet"}}, {"type": "node", "id": 2485461698, "lat": 31.968164, "lon": 44.589258, "tags": {"alt_name": "\u0643\u0627\u0638\u0645", "int_name": "K\u0101z\u0327im, \u0643\u0627\u0638\u0645, Kazim, \u0643\u0627\u0638\u0645", "is_in": "Iraq , \u062c\u0645\u0647\u0648\u0631\u064a\u0629 \u0627\u0644\u0639\u0631\u0627\u0642", "name": "\u0642\u0631\u06cc\u0647 \u0643\u0627\u0638\u0645", "name:ar": "\u0643\u0627\u0638\u0645", "name:ar1": "\u0643\u0627\u0638\u0645", "name:de": "Kazim", "name:en": "Kazim", "name:fr": "Kazim", "place": "hamlet"}}, {"type": "node", "id": 2485461723, "lat": 31.974743, "lon": 44.593999, "tags": {"alt_name": "\u0645\u0644\u0627 \u0633\u0644\u0637\u0627\u0646", "int_name": "Mull\u0101 Sul\u0163\u0101n, \u0645\u0644\u0627 \u0633\u0644\u0637\u0627\u0646, Mulla Sultan, \u0645\u0644\u0627 \u0633\u0644\u0637\u0627\u0646", "is_in": "Iraq , \u062c\u0645\u0647\u0648\u0631\u064a\u0629 \u0627\u0644\u0639\u0631\u0627\u0642", "name": "\u0642\u0631\u06cc\u0647 \u0645\u0644\u0627 \u0633\u0644\u0637\u0627\u0646", "name:ar": "\u0645\u0644\u0627 \u0633\u0644\u0637\u0627\u0646", "name:ar1": "\u0645\u0644\u0627 \u0633\u0644\u0637\u0627\u0646", "name:de": "Mulla Sultan", "name:en": "Mulla Sultan", "name:fr": "Mulla Sultan", "place": "hamlet"}}, {"type": "node", "id": 2485466134, "lat": 31.87232, "lon": 44.616749, "tags": {"alt_name": "\u0627\u0644\u0633\u0627\u062f\u0629 \u0622\u0644 \u062d\u0631\u064a\u062c", "int_name": "As S\u0101dah \u0100l \u1e28urayj, \u0627\u0644\u0633\u0627\u062f\u0629 \u0627\u0644 \u062d\u0631\u064a\u062c, As Sadah Al Hurayj, \u0627\u0644\u0633\u0627\u062f\u0629 \u0627\u0644 \u062d\u0631\u064a\u062c", "is_in": "Iraq , \u062c\u0645\u0647\u0648\u0631\u064a\u0629 \u0627\u0644\u0639\u0631\u0627\u0642", "name": "\u0627\u0644\u0633\u0627\u062f\u0629 \u0622\u0644 \u062d\u0631\u064a\u062c", "name:ar": "\u0627\u0644\u0633\u0627\u062f\u0629 \u0622\u0644 \u0635\u0631\u064a\u0639", "name:ar1": "\u0627\u0644\u0633\u0627\u062f\u0629 \u0622\u0644 \u062d\u0631\u064a\u062c", "name:de": "As Sadah Al Hurayj", "name:en": "As Sadah Al Hurayj", "name:fr": "As Sadah Al Hurayj", "place": "village"}}, {"type": "node", "id": 2486527831, "lat": 31.956203, "lon": 44.960689, "tags": {"alt_name": "\u0622\u0644 \u0627\u0644\u0639\u0641\u0627\u0644\u062c\u0629", "int_name": "\u0100l al Af\u0101lijah, Al al Afalijah", "is_in": "Iraq , \u062c\u0645\u0647\u0648\u0631\u064a\u0629 \u0627\u0644\u0639\u0631\u0627\u0642", "name": "\u0622\u0644 \u0627\u0644\u0639\u0641\u0627\u0644\u062c\u0629", "name:ar": "\u0627\u0644\u0639\u0641\u0627\u0644\u062c\u0629", "name:ar1": "\u0622\u0644 \u0627\u0644\u0639\u0641\u0627\u0644\u062c\u0629", "name:de": "Al al Afalijah", "name:en": "Al Afalijah", "name:fr": "Al al Afalijah", "place": "hamlet"}}, {"type": "node", "id": 2486527843, "lat": 31.945702, "lon": 44.958042, "tags": {"alt_name": "\u0622\u0644 \u0628\u0648 \u0648\u0644\u0639", "int_name": "\u0100lb\u016b Wala, \u0627\u0644\u0628\u0648 \u0648\u0644\u0639, Albu Wala, \u0627\u0644\u0628\u0648 \u0648\u0644\u0639", "is_in": "Iraq , \u062c\u0645\u0647\u0648\u0631\u064a\u0629 \u0627\u0644\u0639\u0631\u0627\u0642", "name": "\u0622\u0644 \u0628\u0648 \u0648\u0644\u0639", "name:ar": "\u0642\u0631\u064a\u0629 \u0627\u0645 20 \u0627\u0648 \u0642\u0631\u064a\u0629 \u0627\u0644\u0635\u06af\u0648\u0631", "name:ar1": "\u0622\u0644 \u0628\u0648 \u0648\u0644\u0639", "name:de": "Albu Wala", "name:en": "Albu Wala", "name:fr": "Albu Wala", "place": "village"}}, {"type": "node", "id": 2486527866, "lat": 31.970618, "lon": 44.950404, "tags": {"alt_name": "\u062f\u0648\u0631 \u0627\u0644\u0646\u0633\u064a\u062c", "int_name": "D\u016br an Nas\u012bj, \u062f\u0648\u0631 \u0627\u0644\u0646\u0633\u064a\u062c, Dur an Nasij, \u062f\u0648\u0631 \u0627\u0644\u0646\u0633\u064a\u062c", "is_in": "Iraq , \u062c\u0645\u0647\u0648\u0631\u064a\u0629 \u0627\u0644\u0639\u0631\u0627\u0642", "name": "\u062f\u0648\u0631 \u0627\u0644\u0646\u0633\u064a\u062c", "name:ar": "\u062d\u064a \u0627\u0644\u063a\u062f\u064a\u0631", "name:ar1": "\u062f\u0648\u0631 \u0627\u0644\u0646\u0633\u064a\u062c", "name:de": "Dur an Nasij", "name:en": "Al-Ghadeer DIS.", "name:fr": "Dur an Nasij", "place": "hamlet"}}, {"type": "node", "id": 2486527951, "lat": 31.959345, "lon": 44.959255, "tags": {"alt_name": "\u0634\u0639\u0644\u0627\u0646 \u0641\u0644\u064a\u062d", "int_name": "Shal\u0101n Fulay\u1e29, \u0634\u0639\u0644\u0627\u0646 \u0641\u0644\u064a\u062d, Shalan Fulayh, \u0634\u0639\u0644\u0627\u0646 \u0641\u0644\u064a\u062d", "is_in": "Iraq , \u062c\u0645\u0647\u0648\u0631\u064a\u0629 \u0627\u0644\u0639\u0631\u0627\u0642", "name": "\u0634\u0639\u0644\u0627\u0646 \u0641\u0644\u064a\u062d", "name:ar": "\u0628\u064a\u062a \u0628\u062a \u0627\u0645 \u0627\u0645\u064a\u0631", "name:ar1": "\u0634\u0639\u0644\u0627\u0646 \u0641\u0644\u064a\u062d", "name:de": "Shalan Fulayh", "name:en": "Shalan Fulayh", "name:fr": "Shalan Fulayh", "place": "village"}}, {"type": "node", "id": 2486529226, "lat": 31.921982, "lon": 44.969538, "tags": {"alt_name": "\u062d\u0645\u0632\u0629 \u0622\u0644 \u0641\u0631\u062d\u0627\u0646", "int_name": "\u1e28amzah \u0100l Far\u1e29\u0101n, \u1e28amzat \u0100l Far\u1e29\u0101n, Hamzah Al Farhan, Hamzat Al Farhan", "is_in": "Iraq , \u062c\u0645\u0647\u0648\u0631\u064a\u0629 \u0627\u0644\u0639\u0631\u0627\u0642", "name": "\u062d\u0645\u0632\u0629 \u0622\u0644 \u0641\u0631\u062d\u0627\u0646", "name:ar": "\u0642\u0631\u064a\u0629 \u0627\u0644\u0634\u064a\u062e \u062d\u0645\u0632\u0629 \u0622\u0644 \u0641\u0631\u062d\u0627\u0646 \u0627\u0644\u0635\u0642\u0631\u064a", "name:ar1": "\u062d\u0645\u0632\u0629 \u0622\u0644 \u0641\u0631\u062d\u0627\u0646", "name:de": "Hamzah Al Farhan", "name:en": "Hamzah Al Farhan", "name:fr": "Hamzah Al Farhan", "place": "village"}}, {"type": "node", "id": 2486529285, "lat": 31.974322, "lon": 44.930667, "tags": {"alt_name": "\u062d\u064a \u0631\u0641\u0639\u062a", "int_name": "\u1e28ayy Rifat, \u062d\u064a \u0631\u0641\u0639\u062a, Hayy Rifat, \u062d\u064a \u0631\u0641\u0639\u062a", "is_in": "Iraq , \u062c\u0645\u0647\u0648\u0631\u064a\u0629 \u0627\u0644\u0639\u0631\u0627\u0642", "name": "\u062d\u064a \u0631\u0641\u0639\u062a", "name:ar": "\u0628\u064a\u062a \u0627\u0628\u0648 \u0631\u0627\u0645\u064a \u062f\u064a\u0648\u0627\u0646\u064a\u0629", "name:ar1": "\u062d\u064a \u0631\u0641\u0639\u062a", "name:de": "Hayy Rifat", "name:en": "Hayy Rifat", "name:fr": "Hayy Rifat", "place": "hamlet"}}, {"type": "node", "id": 2486529293, "lat": 31.985467, "lon": 44.937122, "tags": {"alt_name": "\u062d\u064a \u0627\u0644\u0639\u0635\u0631\u064a", "int_name": "\u1e28ayy al A\u015fr\u012b, \u062d\u064a \u0627\u0644\u0639\u0635\u0631\u064a, Hayy al Asri, \u062d\u064a \u0627\u0644\u0639\u0635\u0631\u064a", "is_in": "Iraq , \u062c\u0645\u0647\u0648\u0631\u064a\u0629 \u0627\u0644\u0639\u0631\u0627\u0642", "name": "\u062d\u064a \u0627\u0644\u0639\u0635\u0631\u064a", "name:ar": "\u062d\u064a \u0627\u0644\u0646\u0647\u0636\u0647", "name:ar1": "\u062d\u064a \u0627\u0644\u0639\u0635\u0631\u064a", "name:de": "Hayy al Asri", "name:en": "Hayy alnahdha", "name:fr": "Hayy al Asri", "place": "hamlet"}}, {"type": "node", "id": 2486529324, "lat": 31.994419, "lon": 44.94511, "tags": {"alt_name": "\u062d\u064a \u0627\u0644\u0648\u062d\u062f\u0629", "int_name": "\u1e28ayy al Wa\u1e29dah, \u062d\u064a \u0627\u0644\u0648\u062d\u062f\u0629, Hayy al Wahdah, \u062d\u064a \u0627\u0644\u0648\u062d\u062f\u0629", "is_in": "Iraq , \u062c\u0645\u0647\u0648\u0631\u064a\u0629 \u0627\u0644\u0639\u0631\u0627\u0642", "name": "\u062d\u064a \u0627\u0644\u0648\u062d\u062f\u0629", "name:ar": "\u0627\u0628\u0648 \u063a\u0627\u0632\u064a\u0629", "name:ar1": "\u062d\u064a \u0627\u0644\u0648\u062d\u062f\u0629", "name:de": "Hayy al Wahdah", "name:en": "Hayy al Wahdah", "name:fr": "Hayy al Wahdah", "place": "hamlet"}}, {"type": "node", "id": 2486531195, "lat": 32.022289, "lon": 45.033117, "tags": {"alt_name": "\u0627\u0644\u064a\u0648\u0633\u0641\u064a\u0629", "int_name": "Al Y\u016bsuf\u012byah, \u0627\u0644\u064a\u0648\u0633\u0641\u064a\u0629, Al Yusufiyah, \u0627\u0644\u064a\u0648\u0633\u0641\u064a\u0629", "is_in": "Iraq , \u062c\u0645\u0647\u0648\u0631\u064a\u0629 \u0627\u0644\u0639\u0631\u0627\u0642", "name": "\u0627\u0644\u064a\u0648\u0633\u0641\u064a\u0629", "name:ar": "\u0628\u062f\u0627\u064a\u0629 \u0627\u0644\u062f\u064a\u0648\u0627\u0646\u064a\u0647 \u0627\u0644\u064a\u0648\u0633\u0641\u064a\u0647", "name:ar1": "\u0627\u0644\u064a\u0648\u0633\u0641\u064a\u0629", "name:de": "Al Yusufiyah", "name:en": "Al Yusufiyah", "name:fr": "Al Yusufiyah", "name:ku-Arab": "\u0627\u0644\u062f\u064a\u0648\u0627\u0646\u064a\u0647", "place": "village"}}, {"type": "node", "id": 2486534209, "lat": 31.825039, "lon": 44.948215, "tags": {"alt_name": "As Sudayr, As Sudayr, N\u0101h\u012byah as Sudayr, N\u0101\u1e29iyat as Sudayr, Sideer, Sidiyr, \u0627\u0644\u0633\u062f\u064a\u0631, \u0646\u0627\u062d\u064a\u0629 \u0627\u0644\u0633\u062f\u064a\u0631, As Sudayr, As Sudayr, Nahiyah as Sudayr, Nahiyat as Sudayr, Sideer, Sidiyr, \u0627\u0644\u0633\u062f\u064a\u0631, \u0646\u0627\u062d\u064a\u0629 \u0627\u0644\u0633\u062f\u064a\u0631", "capital": "7", "int_name": "As Sudayr - \u0627\u0644\u0633\u062f\u064a\u0631", "is_in": "Iraq , \u062c\u0645\u0647\u0648\u0631\u064a\u0629 \u0627\u0644\u0639\u0631\u0627\u0642", "name": "\u0627\u0644\u0633\u062f\u064a\u0631", "name:ar": "\u0627\u0644\u0633\u062f\u064a\u0631", "name:de": "As Sudayr", "name:en": "As Sudayr", "name:fr": "As Sudayr", "place": "town"}}, {"type": "node", "id": 2486537033, "lat": 31.9, "lon": 44.883333, "tags": {"alt_name": "\u0642\u0644\u0639\u0629 \u0641\u0631\u062d\u0627\u0646 \u0627\u0644\u062e\u0636\u0631", "int_name": "Qalat Farh\u0101n al Kha\u1e11ir, Qalat Farhan al Khadir", "is_in": "Iraq , \u062c\u0645\u0647\u0648\u0631\u064a\u0629 \u0627\u0644\u0639\u0631\u0627\u0642", "name": "\u0642\u0644\u0639\u0629 \u0641\u0631\u062d\u0627\u0646 \u0627\u0644\u062e\u0636\u0631", "name:ar": "\u0642\u0644\u0639\u0629 \u0627\u0644\u0634\u064a\u062e \u0641\u0631\u062d\u0627\u0646 \u0622\u0644 \u062e\u0636\u064a\u0631 \u0627\u0644\u062c\u0627\u0633\u0645\u064a", "name:ar1": "\u0642\u0644\u0639\u0629 \u0641\u0631\u062d\u0627\u0646 \u0627\u0644\u062e\u0636\u0631", "name:de": "Qalat Farhan al Khadir", "name:en": "Qalat Farhan al Khadir Al gasmay", "name:fr": "Qalat Farhan al Khadir", "place": "village"}}, {"type": "node", "id": 2486537495, "lat": 31.948929, "lon": 44.843987, "tags": {"alt_name": "\u0646\u0627\u062d\u064a\u0629 \u0627\u0644\u0634\u0627\u0641\u0639\u064a\u0629", "capital": "7", "int_name": "Ash Sh\u0101f\u012byah, Ash Sh\u0101fi\u012byah, N\u0101\u1e29iyat ash Sh\u0101fi\u012byah, Sh\u0101f\u012bya, Sh\u0101f\u012byah, \u0646\u0627\u062d\u064a\u0629 \u0627\u0644\u0634\u0627\u0641\u0639\u064a\u0629, Ash Shafiyah, Ash Shafiiyah, Nahiyat ash Shafiiyah, Shafiya, Shafiyah, \u0646\u0627\u062d\u064a\u0629 \u0627\u0644\u0634\u0627\u0641\u0639\u064a\u0629", "is_in": "Iraq , \u062c\u0645\u0647\u0648\u0631\u064a\u0629 \u0627\u0644\u0639\u0631\u0627\u0642", "name": "\u0646\u0627\u062d\u064a\u0629 \u0627\u0644\u0634\u0627\u0641\u0639\u064a\u0629", "name:ar": "\u0646\u0627\u062d\u064a\u0629 \u0627\u0644\u0634\u0627\u0641\u0639\u064a\u0629", "name:ar1": "\u0646\u0627\u062d\u064a\u0629 \u0627\u0644\u0634\u0627\u0641\u0639\u064a\u0629", "name:de": "Ash Shafiyah", "name:en": "Ash Shafiyah", "name:fr": "Ash Shafiyah", "place": "town"}}, {"type": "node", "id": 2486538829, "lat": 31.745784, "lon": 44.714703, "tags": {"alt_name": "\u062d\u0633\u064a\u0646 \u0632\u063a\u064a\u0631", "int_name": "\u1e28usayn Zughayr, \u062d\u0633\u064a\u0646 \u0632\u063a\u064a\u0631, Husayn Zughayr, \u062d\u0633\u064a\u0646 \u0632\u063a\u064a\u0631", "is_in": "Iraq , \u062c\u0645\u0647\u0648\u0631\u064a\u0629 \u0627\u0644\u0639\u0631\u0627\u0642", "name": "\u062d\u0633\u064a\u0646 \u0632\u063a\u064a\u0631", "name:ar": "\u0627\u0628\u0648 \u0639\u0644\u0627\u0621 \u062d\u0633\u0646 \u0627\u0644\u0634\u0628\u0644\u0627\u0648\u064a", "name:ar1": "\u062d\u0633\u064a\u0646 \u0632\u063a\u064a\u0631", "name:de": "Husayn Zughayr", "name:en": "Husayn Zughayr", "name:fr": "Husayn Zughayr", "place": "village"}}, {"type": "node", "id": 11240438627, "lat": 31.9612707, "lon": 44.7386601}, {"type": "node", "id": 11240438628, "lat": 31.9605812, "lon": 44.7381498}, {"type": "node", "id": 11240438629, "lat": 31.9601202, "lon": 44.7377246}, {"type": "node", "id": 11240438630, "lat": 31.9597314, "lon": 44.7372757}, {"type": "node", "id": 11240438631, "lat": 31.9594427, "lon": 44.736756}, {"type": "node", "id": 11240438632, "lat": 31.9588815, "lon": 44.7367607}, {"type": "node", "id": 11240438633, "lat": 31.9587212, "lon": 44.737323}, {"type": "node", "id": 11240438634, "lat": 31.9579354, "lon": 44.7385987}, {"type": "node", "id": 11240438635, "lat": 31.9571096, "lon": 44.7393925}, {"type": "node", "id": 11240438636, "lat": 31.9573094, "lon": 44.7397978}, {"type": "node", "id": 11240449637, "lat": 31.9575802, "lon": 44.7400403}, {"type": "node", "id": 11240449638, "lat": 31.9572261, "lon": 44.7405558}, {"type": "node", "id": 11240449639, "lat": 31.9570829, "lon": 44.7408473}, {"type": "node", "id": 11240449640, "lat": 31.9575184, "lon": 44.7413495}, {"type": "node", "id": 11240449641, "lat": 31.9572768, "lon": 44.7420024}, {"type": "node", "id": 11240449642, "lat": 31.9571769, "lon": 44.7425977}, {"type": "node", "id": 11240449643, "lat": 31.9565513, "lon": 44.7426566}, {"type": "node", "id": 11240449644, "lat": 31.9557692, "lon": 44.7429516}, {"type": "node", "id": 11240449645, "lat": 31.9554189, "lon": 44.7432392}, {"type": "node", "id": 11240449646, "lat": 31.9553, "lon": 44.7441462}, {"type": "node", "id": 11240449647, "lat": 31.9550873, "lon": 44.7451564}, {"type": "node", "id": 11240449648, "lat": 31.9549058, "lon": 44.7457979}, {"type": "node", "id": 11240449649, "lat": 31.9548245, "lon": 44.7468598}, {"type": "node", "id": 11240449650, "lat": 31.9549246, "lon": 44.7474866}, {"type": "node", "id": 11240449651, "lat": 31.9552312, "lon": 44.7481723}, {"type": "node", "id": 11240449652, "lat": 31.9554376, "lon": 44.7489466}, {"type": "node", "id": 11240449653, "lat": 31.9558318, "lon": 44.749507}, {"type": "node", "id": 11240449654, "lat": 31.9558193, "lon": 44.7505541}, {"type": "node", "id": 11240449655, "lat": 31.955763, "lon": 44.7513063}, {"type": "node", "id": 11240449656, "lat": 31.9552437, "lon": 44.7526557}, {"type": "node", "id": 11240449657, "lat": 31.9549121, "lon": 44.7535111}, {"type": "node", "id": 11240449658, "lat": 31.9564825, "lon": 44.7545065}, {"type": "node", "id": 11240449659, "lat": 31.9577525, "lon": 44.7550227}, {"type": "node", "id": 11240449660, "lat": 31.9580215, "lon": 44.7549858}, {"type": "node", "id": 11240449661, "lat": 31.9584094, "lon": 44.7532087}, {"type": "node", "id": 11240449662, "lat": 31.9588098, "lon": 44.7511072}, {"type": "node", "id": 11240449663, "lat": 31.9591468, "lon": 44.7496012}, {"type": "node", "id": 11240449664, "lat": 31.9595081, "lon": 44.7477947}, {"type": "node", "id": 11240449665, "lat": 31.9599497, "lon": 44.7455882}, {"type": "node", "id": 11240449666, "lat": 31.9603803, "lon": 44.7433646}, {"type": "way", "id": 1213218551, "nodes": [11240438627, 11240438628, 11240438629, 11240438630, 11240438631, 11240438632, 11240438633, 11240438634, 11240438635, 11240438636, 11240449637, 11240449638, 11240449639, 11240449640, 11240449641, 11240449642, 11240449643, 11240449644, 11240449645, 11240449646, 11240449647, 11240449648, 11240449649, 11240449650, 11240449651, 11240449652, 11240449653, 11240449654, 11240449655, 11240449656, 11240449657, 11240449658, 11240449659, 11240449660, 11240449661, 11240449662, 11240449663, 11240449664, 11240449665, 11240449666, 11240438627], "tags": {"name": "\u0642\u0631\u064a\u0629 \u0633\u064a\u062f \u0637\u0627\u0644\u0628", "place": "village"}}]}