{"version": 0.6, "generator": "Overpass API 0.7.61.5 4133829e", "osm3s": {"timestamp_osm_base": "2024-02-29T13:48:25Z", "copyright": "The data included in this document is from www.openstreetmap.org. The data is made available under ODbL."}, "elements": [{"type": "node", "id": 9328008997, "lat": 6.7474961, "lon": 1.0977724, "tags": {"amenity": "school", "name": "EPP Kplaba"}}, {"type": "node", "id": 9727585287, "lat": 6.7542163, "lon": 1.070343, "tags": {"amenity": "school"}}, {"type": "node", "id": 9727716218, "lat": 6.7505112, "lon": 1.0747952, "tags": {"amenity": "school"}}, {"type": "node", "id": 10196892341, "lat": 6.7740418, "lon": 0.894158, "tags": {"amenity": "school", "name": "EPP DEVELEBE"}}, {"type": "node", "id": 10196892825, "lat": 6.7702236, "lon": 0.8696876, "tags": {"amenity": "school", "name": "EPP FOKPO"}}, {"type": "node", "id": 10196892919, "lat": 6.8188024, "lon": 0.882572, "tags": {"amenity": "school", "name": "EPP MESSIOBE"}}, {"type": "node", "id": 10196893322, "lat": 6.8119364, "lon": 0.8749852, "tags": {"amenity": "school", "name": "EPP KPOVENOU"}}, {"type": "node", "id": 10196893324, "lat": 6.8170599, "lon": 0.9105196, "tags": {"amenity": "school", "name": "EPP MISSAHOME"}}, {"type": "node", "id": 11571221275, "lat": 6.7559423, "lon": 0.9621647, "tags": {"amenity": "school"}}, {"type": "node", "id": 11571224614, "lat": 6.7464955, "lon": 0.9038127, "tags": {"amenity": "school", "name": "Lyc\u00e9e Wounougba"}}, {"type": "node", "id": 11571227265, "lat": 6.7490043, "lon": 0.905181, "tags": {"amenity": "school", "name": "EPP Gap\u00e9 Wounougba"}}]}