{"version": 0.6, "generator": "Overpass API 0.7.61.5 4133829e", "osm3s": {"timestamp_osm_base": "2024-03-05T15:08:58Z", "copyright": "The data included in this document is from www.openstreetmap.org. The data is made available under ODbL."}, "elements": [{"type": "node", "id": 2657730257, "lat": 66.1485472, "lon": 18.0134398, "tags": {"name": "Galtisjaur", "name:sje": "G\u00e1ldesj\u00e1vrre", "name:sv": "Galtisjaur", "place": "hamlet"}}, {"type": "node", "id": 2659166946, "lat": 66.0532224, "lon": 18.3766972, "tags": {"name": "Svann\u00e4s", "name:sje": "Gubbleh\u00e1vrre", "name:sv": "Svann\u00e4s", "place": "hamlet"}}, {"type": "node", "id": 3390979403, "lat": 66.3199116, "lon": 19.0039029, "tags": {"name": "Udtja", "name:smj": "Udtj\u00e1", "name:sv": "Udtja", "place": "hamlet"}}, {"type": "node", "id": 9113352394, "lat": 66.3840528, "lon": 18.2096672, "tags": {"name": "Bergn\u00e4sviken", "place": "hamlet"}}, {"type": "node", "id": 9114735405, "lat": 66.1028759, "lon": 18.0283498, "tags": {"name": "Revi", "name:sje": "R\u00e4vve", "place": "hamlet"}}, {"type": "node", "id": 9118040152, "lat": 66.0586278, "lon": 18.140316, "tags": {"name": "Stensund", "name:sje": "S\u00e4jddetj\u00e5lbme", "place": "hamlet"}}, {"type": "node", "id": 9118102767, "lat": 66.0698667, "lon": 17.9829025, "tags": {"name": "N\u00e5tti", "name:sje": "N\u00e5devieraga", "place": "hamlet"}}, {"type": "node", "id": 11384339068, "lat": 66.3927332, "lon": 18.2211095, "tags": {"name": "Norra Bergn\u00e4s", "place": "hamlet"}}]}