{"version": 0.6, "generator": "Overpass API 0.7.61.5 4133829e", "osm3s": {"timestamp_osm_base": "2024-03-06T11:30:59Z", "copyright": "The data included in this document is from www.openstreetmap.org. The data is made available under ODbL."}, "elements": [{"type": "node", "id": 11290358688, "lat": -3.0764178, "lon": 39.4815906, "tags": {"amenity": "pharmacy", "evacuation_center": "no", "flood_prone": "no", "name": "Baraka Chemist", "opening_hours": "sunrise-sunset", "operational_status": "operational", "operator": "Jackson Baraka Karisa", "operator:type": "private", "phone": "+254 729 824 356", "source": "KRCS2023", "storage_area": "yes"}}, {"type": "node", "id": 11290358694, "lat": -3.1116436, "lon": 39.5512605, "tags": {"amenity": "clinic", "evacuation_center": "no", "flood_prone": "no", "name": "Bamba Clinic", "opening_hours": "24/7", "operational_status": "operational", "operator": "Joseph Karisa Gonzi", "operator:type": "private", "phone": "+254 715 314 612", "source": "KRCS2023", "storage_area": "no"}}, {"type": "node", "id": 11290358697, "lat": -3.1122001, "lon": 39.5513698, "tags": {"amenity": "clinic", "evacuation_center": "no", "flood_prone": "no", "name": "Jida Nursing Home", "opening_hours": "24/7", "operational_status": "operational", "operator": "Private Clinical officer", "operator:type": "private", "phone": "+254 742 930 245", "source": "KRCS2023", "storage_area": "yes"}}, {"type": "node", "id": 11290358704, "lat": -3.1109833, "lon": 39.5501171, "tags": {"amenity": "clinic", "evacuation_center": "no", "flood_prone": "no", "name": "Shakahola Mana Medical Clinic", "opening_hours": "sunrise-sunset", "operational_status": "operational", "operator": "Solomon Chea Thoya", "operator:type": "private", "phone": "+254 715 371 370", "source": "KRCS2023", "storage_area": "no"}}]}