{"version": 0.6, "generator": "Overpass API 0.7.61.5 4133829e", "osm3s": {"timestamp_osm_base": "2024-03-05T13:45:00Z", "copyright": "The data included in this document is from www.openstreetmap.org. The data is made available under ODbL."}, "elements": [{"type": "node", "id": 318090711, "lat": 36.8178142, "lon": 70.1013801, "tags": {"alt_name": "\u06a9\u0634\u0645;Kesem;Kishm;Kishma", "ele": "1200", "int_name": "Keshem", "is_in:country": "Afghanistan", "is_in:county": "Kishim District", "is_in:state": "Badakhshan Province", "name": "\u06a9\u0634\u0645", "name:ar": "\u0643\u0634\u0645", "name:en": "Kishim", "name:ml": "\u0d15\u0d3f\u0d37\u0d3f\u0d02", "name:ps": "\u06a9\u0634\u0645", "name:ru": "\u041a\u0438\u0448\u0438\u043c", "place": "town", "source": "landsat", "source:name": "GNS"}}, {"type": "node", "id": 3983793673, "lat": 36.866194, "lon": 70.4876439, "tags": {"name": "Toot Dara", "place": "village"}}, {"type": "node", "id": 4386769863, "lat": 36.842145, "lon": 70.3021225, "tags": {"name": "\u0627\u0631\u063a\u0646\u062f\u06a9\u0627\u0646", "name:en": "Arghandakan", "name:ps": "\u0627\u0631\u063a\u0646\u062f\u06a9\u0627\u0646", "place": "village", "source:name": "GNS"}}, {"type": "node", "id": 4386769864, "lat": 36.89071, "lon": 70.267265, "tags": {"name": "\u0628\u0627\u063a \u0627\u0631\u0627\u0645", "name:en": "Bagh-i-Aram;Bagh-e Aram", "name:ps": "\u0628\u0627\u063a \u0627\u0631\u0627\u0645", "place": "village", "source:name": "GNS"}}, {"type": "node", "id": 4386769865, "lat": 36.877946, "lon": 70.290694, "tags": {"name": "\u06af\u0632 \u062f\u0631\u0647", "name:en": "Gaz Darrah;Gaz Darah;Gaz Darreh", "name:ps": "\u06af\u0632 \u062f\u0631\u0647", "place": "village", "source:name": "GNS"}}, {"type": "node", "id": 4386769866, "lat": 36.868639, "lon": 70.280121, "tags": {"alt_name": "Khaneqah", "name": "\u062e\u0627\u0646\u0642\u0627\u0647", "name:en": "Khanaqah", "name:ps": "\u062e\u0627\u0646\u0642\u0627\u0647", "place": "village", "source:name": "GNS"}}, {"type": "node", "id": 4386769867, "lat": 36.884523, "lon": 70.261765, "tags": {"name": "\u062e\u0648\u0627\u062c\u0647 \u0627\u0641\u063a\u0627\u0646\u06cc", "name:en": "Khwaja Afghani;Khvajeh Afghani;Khwajah Afghani", "name:ps": "\u062e\u0648\u0627\u062c\u0647 \u0627\u0641\u063a\u0627\u0646\u06cc", "place": "village", "source:name": "GNS"}}, {"type": "node", "id": 4386769868, "lat": 36.855918, "lon": 70.301691, "tags": {"alt_name": "Qer Misi;Qir Mishi", "name": "\u0642\u0631 \u0645\u06cc\u0634\u06cc", "name:en": "Qer Mishi", "name:ps": "\u0642\u0631 \u0645\u06cc\u0634\u06cc", "place": "village", "source:name": "GNS"}}, {"type": "node", "id": 4386769873, "lat": 36.881678, "lon": 70.276738, "tags": {"alt_name": "\u062a\u0634\u06a9\u0627\u0646;Bazar-e Tashgan;Bazar-e Tagan;Taskan;Tashkan;Bazar-e Tashkan;Bazar-i-Teskan", "name": "\u0628\u0627\u0632\u0627\u0631 \u062a\u0634\u06a9\u0627\u0646", "name:ar": "\u0628\u0627\u0632\u0627\u0631 \u062a\u064a\u0634\u0643\u0627\u0646", "name:en": "Teshkan", "name:ps": "\u0628\u0627\u0632\u0627\u0631 \u062a\u0634\u06a9\u0627\u0646", "name:ru": "\u0422\u0435\u0448\u043a\u0430\u043d", "place": "town", "source:name": "GNS"}}, {"type": "node", "id": 4386791245, "lat": 36.9111458, "lon": 70.3685584, "tags": {"alt_name": "Daraim", "name": "\u062f\u0631\u0627\u064a\u0645", "name:ar": "\u062f\u0631\u0627\u064a\u0645", "name:en": "Darayim", "name:ps": "\u062f\u0631\u0627\u064a\u0645", "place": "town", "source:name": "GNS"}}, {"type": "node", "id": 4387225319, "lat": 37.1236, "lon": 70.177081, "tags": {"name": "\u0628\u0631\u0644\u0627\u0633", "name:en": "Barlas", "name:ps": "\u0628\u0631\u0644\u0627\u0633", "place": "village", "source:name": "GNS"}}]}