{"version": 0.6, "generator": "Overpass API 0.7.61.5 4133829e", "osm3s": {"timestamp_osm_base": "2024-02-29T13:47:24Z", "copyright": "The data included in this document is from www.openstreetmap.org. The data is made available under ODbL."}, "elements": [{"type": "node", "id": 5126035427, "lat": 6.273051, "lon": -2.3181189, "tags": {"amenity": "school", "name": "Chirano DA Primary School"}}, {"type": "node", "id": 5126547836, "lat": 6.2028312, "lon": -2.3150322}, {"type": "node", "id": 7302555004, "lat": 6.1952691, "lon": -2.3207026}, {"type": "node", "id": 7302555005, "lat": 6.1950591, "lon": -2.3199686}, {"type": "node", "id": 7302555006, "lat": 6.1945831, "lon": -2.3202235}, {"type": "node", "id": 7302555007, "lat": 6.1943645, "lon": -2.3205373}, {"type": "node", "id": 7302555008, "lat": 6.1947831, "lon": -2.3211689}, {"type": "node", "id": 7472790922, "lat": 6.1881425, "lon": -2.3248964}, {"type": "node", "id": 7472790923, "lat": 6.1883185, "lon": -2.3247703}, {"type": "node", "id": 7472790924, "lat": 6.1884251, "lon": -2.3247328}, {"type": "node", "id": 7472790925, "lat": 6.1884881, "lon": -2.3248054}, {"type": "node", "id": 7472790926, "lat": 6.1886411, "lon": -2.3246952}, {"type": "node", "id": 7472790927, "lat": 6.1886918, "lon": -2.3245852}, {"type": "node", "id": 7472790928, "lat": 6.1885931, "lon": -2.3241695}, {"type": "node", "id": 7472790929, "lat": 6.1885398, "lon": -2.3241346}, {"type": "node", "id": 7472790930, "lat": 6.1879531, "lon": -2.3244726}, {"type": "node", "id": 7472790931, "lat": 6.1879398, "lon": -2.3244967}, {"type": "node", "id": 8718284167, "lat": 6.1595742, "lon": -2.1519041}, {"type": "node", "id": 8718284168, "lat": 6.1601876, "lon": -2.1508312}, {"type": "node", "id": 8718284169, "lat": 6.1604742, "lon": -2.1497946}, {"type": "node", "id": 8718284170, "lat": 6.1595902, "lon": -2.1496135}, {"type": "node", "id": 8718284171, "lat": 6.1590889, "lon": -2.1495706}, {"type": "node", "id": 8718284172, "lat": 6.1587795, "lon": -2.1495679}, {"type": "node", "id": 8718284173, "lat": 6.1581955, "lon": -2.1494767}, {"type": "node", "id": 8718284174, "lat": 6.1577102, "lon": -2.1494231}, {"type": "node", "id": 8718284175, "lat": 6.1569328, "lon": -2.1494445}, {"type": "node", "id": 8718284176, "lat": 6.1569475, "lon": -2.1498737}, {"type": "node", "id": 8718284177, "lat": 6.1569168, "lon": -2.1499568}, {"type": "node", "id": 8718284178, "lat": 6.1567875, "lon": -2.1503685}, {"type": "node", "id": 9251009273, "lat": 6.0444126, "lon": -2.3769351, "tags": {"amenity": "school", "name": "Samfifire D/A Basic School"}}, {"type": "node", "id": 9501906948, "lat": 6.065896, "lon": -2.3661515, "tags": {"amenity": "school"}}, {"type": "node", "id": 9838948473, "lat": 6.2652396, "lon": -2.3227312}, {"type": "node", "id": 9838948474, "lat": 6.263722, "lon": -2.3221651}, {"type": "node", "id": 9838948475, "lat": 6.2642498, "lon": -2.3207332}, {"type": "node", "id": 9838948476, "lat": 6.2657673, "lon": -2.3212993}, {"type": "node", "id": 9847863896, "lat": 6.2042744, "lon": -2.3104562}, {"type": "node", "id": 9847863897, "lat": 6.2034288, "lon": -2.3104222}, {"type": "node", "id": 9847863898, "lat": 6.201157, "lon": -2.3116187}, {"type": "node", "id": 9847863899, "lat": 6.2056949, "lon": -2.3134559}, {"type": "node", "id": 11116458510, "lat": 6.3042923, "lon": -2.2463956, "tags": {"amenity": "school"}}, {"type": "way", "id": 782142820, "nodes": [7302555008, 7302555007, 7302555006, 7302555005, 7302555004, 7302555008], "tags": {"addr:city": "Sefwi Bekwai", "amenity": "school", "name": "Roman Cathiloc School"}}, {"type": "way", "id": 799014475, "nodes": [7472790922, 7472790923, 7472790924, 7472790925, 7472790926, 7472790927, 7472790928, 7472790929, 7472790930, 7472790931, 7472790922], "tags": {"addr:city": "Sefwi Bekwai", "amenity": "school", "name": "Nana Atta Agyeman Royal School", "operator": "private", "phone": "+233 24 286 0240;+233 20 309 9647", "website": "www.nanaattaroyals.org", "wheelchair": "yes"}}, {"type": "way", "id": 941420240, "nodes": [8718284178, 8718284177, 8718284176, 8718284175, 8718284174, 8718284173, 8718284172, 8718284171, 8718284170, 8718284169, 8718284168, 8718284167, 8718284178], "tags": {"addr:country": "GH", "addr:district": "Upper Denkyira West", "addr:place": "Diaso", "addr:region": "Central", "amenity": "school", "description": "Diaso Senior High is a well-resourced public second cycle institution which was established in 1991.", "email": "diasoshs@ges.gov.gh", "isced:level": "3", "name": "Diaso Senior High School", "operator": "Ghana Education Service", "operator:short": "GES", "operator:type": "public", "operator:wikidata": "Q30263788", "phone": "+233 24 422 5675", "start_date": "1991"}}, {"type": "way", "id": 1072328590, "nodes": [9838948476, 9838948475, 9838948474, 9838948473, 9838948476], "tags": {"addr:country": "GH", "addr:district": "Bibiani Anhwiaso Bekwai", "addr:place": "Chirano", "addr:region": "Western North", "amenity": "school", "description": "Chirano Senior High was established in October 2016. The school was adjudged the best in the District in the 2019 WASSCE Exams.", "email": "chiranocommshs@ges.gov.gh", "isced:level": "3", "name": "Chirano Community Senior High School", "operator": "Ghana Education Service", "operator:short": "GES", "operator:type": "public", "operator:wikidata": "Q30263788", "phone": "+233 24 212 1935", "start_date": "2016-10"}}, {"type": "way", "id": 1073531600, "nodes": [9847863899, 5126547836, 9847863898, 9847863897, 9847863896, 9847863899], "tags": {"addr:country": "GH", "addr:district": "Bibiani Anhwiaso Bekwai", "addr:place": "Sefwi Bekwai", "addr:region": "Western North", "amenity": "school", "description": "The school was established in 1991 with fifty students and five masters. This school though young has chopped some successes, including placing 3rd in the National league WASSCE in 2004.", "email": "sefwibekwaishs@ges.gov.gh", "isced:level": "3", "name": "Sefwi Bekwai Senior High School", "operator": "Ghana Education Service", "operator:short": "GES", "operator:type": "public", "operator:wikidata": "Q30263788", "phone": "+233 24 365 2013;+233 50 390 7770", "start_date": "1991"}}]}