{"version": 0.6, "generator": "Overpass API 0.7.61.5 4133829e", "osm3s": {"timestamp_osm_base": "2024-03-06T11:17:45Z", "copyright": "The data included in this document is from www.openstreetmap.org. The data is made available under ODbL."}, "elements": [{"type": "node", "id": 2488371303, "lat": 34.315728, "lon": 43.168756, "tags": {"alt_name": "\u0639\u0631\u0628 \u062d\u0645\u064a\u062f \u0628\u0634\u064a\u0631", "int_name": "Arab \u1e28am\u012bd Bash\u012br, \u0639\u0631\u0628 \u062d\u0645\u064a\u062f \u0628\u0634\u064a\u0631, Arab Hamid Bashir, \u0639\u0631\u0628 \u062d\u0645\u064a\u062f \u0628\u0634\u064a\u0631", "name": "\u0639\u0631\u0628 \u062d\u0645\u064a\u062f \u0628\u0634\u064a\u0631", "name:ar": "\u0639\u0631\u0628 \u062d\u0645\u064a\u062f \u0628\u0634\u064a\u0631", "name:ar1": "\u0639\u0631\u0628 \u062d\u0645\u064a\u062f \u0628\u0634\u064a\u0631", "name:de": "Arab Hamid Bashir", "name:en": "Arab Hamid Bashir", "name:fr": "Arab Hamid Bashir", "place": "village"}}, {"type": "node", "id": 2488374099, "lat": 34.298499, "lon": 43.337145, "tags": {"alt_name": "\u0639\u0631\u0628 \u062c\u062f\u064a\u0639 \u062d\u0627\u0645\u062f", "int_name": "Arab Jad\u012b \u1e28\u0101mid, \u0639\u0631\u0628 \u062c\u062f\u064a\u0639 \u062d\u0627\u0645\u062f, Arab Jadi Hamid, \u0639\u0631\u0628 \u062c\u062f\u064a\u0639 \u062d\u0627\u0645\u062f", "name": "\u0639\u0631\u0628 \u062c\u062f\u064a\u0639 \u062d\u0627\u0645\u062f", "name:ar": "\u0639\u0631\u0628 \u062c\u062f\u064a\u0639 \u062d\u0627\u0645\u062f", "name:ar1": "\u0639\u0631\u0628 \u062c\u062f\u064a\u0639 \u062d\u0627\u0645\u062f", "name:de": "Arab Jadi Hamid", "name:en": "Arab Jadi Hamid", "name:fr": "Arab Jadi Hamid", "place": "village"}}, {"type": "node", "id": 2488374104, "lat": 34.304372, "lon": 43.439937, "tags": {"alt_name": "\u0639\u0637\u064a\u0629 \u062d\u0633\u0646", "int_name": "A\u0163\u012byat \u1e28asan, \u0639\u0637\u064a\u0629 \u062d\u0633\u0646, Atiyat Hasan, \u0639\u0637\u064a\u0629 \u062d\u0633\u0646", "name": "\u0639\u0637\u064a\u0629 \u062d\u0633\u0646", "name:ar": "\u0639\u0637\u064a\u0629 \u062d\u0633\u0646", "name:ar1": "\u0639\u0637\u064a\u0629 \u062d\u0633\u0646", "name:de": "Atiyat Hasan", "name:en": "Atiyat Hasan", "name:fr": "Atiyat Hasan", "place": "village"}}, {"type": "node", "id": 2488374105, "lat": 34.290617, "lon": 43.417641, "tags": {"alt_name": "\u0639\u0637\u064a\u0629 \u062c\u0627\u0633\u0645", "int_name": "A\u0163\u012byat J\u0101sim, \u0639\u0637\u064a\u0629 \u062c\u0627\u0633\u0645, Atiyat Jasim, \u0639\u0637\u064a\u0629 \u062c\u0627\u0633\u0645", "name": "\u0639\u0637\u064a\u0629 \u062c\u0627\u0633\u0645", "name:ar": "\u0639\u0637\u064a\u0629 \u062c\u0627\u0633\u0645", "name:ar1": "\u0639\u0637\u064a\u0629 \u062c\u0627\u0633\u0645", "name:de": "Atiyat Jasim", "name:en": "Atiyat Jasim", "name:fr": "Atiyat Jasim", "place": "village"}}, {"type": "node", "id": 2488374107, "lat": 34.309565, "lon": 43.345283, "tags": {"alt_name": "\u0639\u0648\u062f\u0629 \u062c\u062f\u064a\u0639", "int_name": "Awdat Juday, \u0639\u0648\u062f\u0629 \u062c\u062f\u064a\u0639, Awdat Juday, \u0639\u0648\u062f\u0629 \u062c\u062f\u064a\u0639", "name": "\u0639\u0648\u062f\u0629 \u062c\u062f\u064a\u0639", "name:ar": "\u0639\u0648\u062f\u0629 \u062c\u062f\u064a\u0639", "name:ar1": "\u0639\u0648\u062f\u0629 \u062c\u062f\u064a\u0639", "name:de": "Awdat Juday", "name:en": "Awdat Juday", "name:fr": "Awdat Juday", "place": "village"}}, {"type": "node", "id": 2488374110, "lat": 34.29499, "lon": 43.407189, "tags": {"alt_name": "\u062d\u0645\u064a\u062f \u0646\u0635\u064a\u0641", "int_name": "\u1e28am\u012bd Na\u015f\u012bf, \u062d\u0645\u064a\u062f \u0646\u0635\u064a\u0641, Hamid Nasif, \u062d\u0645\u064a\u062f \u0646\u0635\u064a\u0641", "name": "\u062d\u0645\u064a\u062f \u0646\u0635\u064a\u0641", "name:ar": "\u062d\u0645\u064a\u062f \u0646\u0635\u064a\u0641", "name:ar1": "\u062d\u0645\u064a\u062f \u0646\u0635\u064a\u0641", "name:de": "Hamid Nasif", "name:en": "Hamid Nasif", "name:fr": "Hamid Nasif", "place": "village"}}, {"type": "node", "id": 2488374114, "lat": 34.314258, "lon": 43.450124, "tags": {"alt_name": "\u062d\u0633\u064a\u0646 \u0623\u062d\u0645\u062f", "int_name": "\u1e28usayn A\u1e29mad, \u062d\u0633\u064a\u0646 \u0627\u062d\u0645\u062f, Husayn Ahmad, \u062d\u0633\u064a\u0646 \u0627\u062d\u0645\u062f", "name": "\u062d\u0633\u064a\u0646 \u0623\u062d\u0645\u062f", "name:ar": "\u062d\u0633\u064a\u0646 \u0623\u062d\u0645\u062f", "name:ar1": "\u062d\u0633\u064a\u0646 \u0623\u062d\u0645\u062f", "name:de": "Husayn Ahmad", "name:en": "Husayn Ahmad", "name:fr": "Husayn Ahmad", "place": "village"}}, {"type": "node", "id": 2488374126, "lat": 34.319139, "lon": 43.393228, "tags": {"alt_name": "\u0631\u0634\u064a\u062f \u062e\u0644\u0641", "int_name": "Rash\u012bd Khalaf, \u0631\u0634\u064a\u062f \u062e\u0644\u0641, Rashid Khalaf, \u0631\u0634\u064a\u062f \u062e\u0644\u0641", "name": "\u0631\u0634\u064a\u062f \u062e\u0644\u0641", "name:ar": "\u0631\u0634\u064a\u062f \u062e\u0644\u0641", "name:ar1": "\u0631\u0634\u064a\u062f \u062e\u0644\u0641", "name:de": "Rashid Khalaf", "name:en": "Rashid Khalaf", "name:fr": "Rashid Khalaf", "place": "village"}}, {"type": "node", "id": 2488374127, "lat": 34.319107, "lon": 43.364071, "tags": {"alt_name": "\u0633\u0628\u0639 \u0641\u0631\u062c", "int_name": "Sab Faraj, \u0633\u0628\u0639 \u0641\u0631\u062c, Sab Faraj, \u0633\u0628\u0639 \u0641\u0631\u062c", "name": "\u0633\u0628\u0639 \u0641\u0631\u062c", "name:ar": "\u0633\u0628\u0639 \u0641\u0631\u062c", "name:ar1": "\u0633\u0628\u0639 \u0641\u0631\u062c", "name:de": "Sab Faraj", "name:en": "Sab Faraj", "name:fr": "Sab Faraj", "place": "village"}}, {"type": "node", "id": 2488374132, "lat": 34.293597, "lon": 43.447419, "tags": {"alt_name": "\u0639\u0644\u064a\u0648\u064a \u0645\u062d\u0645\u0648\u062f", "int_name": "Ulayw\u012b Ma\u1e29m\u016bd, \u0639\u0644\u064a\u0648\u064a \u0645\u062d\u0645\u0648\u062f, Ulaywi Mahmud, \u0639\u0644\u064a\u0648\u064a \u0645\u062d\u0645\u0648\u062f", "name": "\u0639\u0644\u064a\u0648\u064a \u0645\u062d\u0645\u0648\u062f", "name:ar": "\u0639\u0644\u064a\u0648\u064a \u0645\u062d\u0645\u0648\u062f", "name:ar1": "\u0639\u0644\u064a\u0648\u064a \u0645\u062d\u0645\u0648\u062f", "name:de": "Ulaywi Mahmud", "name:en": "Ulaywi Mahmud", "name:fr": "Ulaywi Mahmud", "place": "village"}}, {"type": "node", "id": 2488374899, "lat": 34.212123, "lon": 43.464619, "tags": {"alt_name": "\u0639\u0628\u062f \u062e\u0644\u064a\u0641\u0629 \u0639\u0628\u0627\u0633", "int_name": "Abd Khal\u012bfat Abb\u0101s, \u0639\u0628\u062f \u062e\u0644\u064a\u0641\u0629 \u0639\u0628\u0627\u0633, Abd Khalifat Abbas, \u0639\u0628\u062f \u062e\u0644\u064a\u0641\u0629 \u0639\u0628\u0627\u0633", "name": "\u0639\u0628\u062f \u062e\u0644\u064a\u0641\u0629 \u0639\u0628\u0627\u0633", "name:ar": "\u0639\u0628\u062f \u062e\u0644\u064a\u0641\u0629 \u0639\u0628\u0627\u0633", "name:ar1": "\u0639\u0628\u062f \u062e\u0644\u064a\u0641\u0629 \u0639\u0628\u0627\u0633", "name:de": "Abd Khalifat Abbas", "name:en": "Abd Khalifat Abbas", "name:fr": "Abd Khalifat Abbas", "place": "village"}}, {"type": "node", "id": 2488374908, "lat": 34.196167, "lon": 43.480489, "tags": {"alt_name": "\u0639\u0644\u064a \u062d\u0633\u064a\u0646", "int_name": "Al\u012b \u1e28usayn, \u0639\u0644\u064a \u062d\u0633\u064a\u0646, Ali Husayn, \u0639\u0644\u064a \u062d\u0633\u064a\u0646", "name": "\u0639\u0644\u064a \u062d\u0633\u064a\u0646", "name:ar": "\u0639\u0644\u064a \u062d\u0633\u064a\u0646", "name:ar1": "\u0639\u0644\u064a \u062d\u0633\u064a\u0646", "name:de": "Ali Husayn", "name:en": "Ali Husayn", "name:fr": "Ali Husayn", "place": "village"}}, {"type": "node", "id": 2488374935, "lat": 34.228664, "lon": 43.427601, "tags": {"alt_name": "\u0639\u0631\u0628 \u0645\u0647\u062f\u064a \u0635\u0627\u0644\u062d \u0639\u0637\u064a\u0629", "int_name": "Arab Mahd\u012b \u015e\u0101li\u1e29 A\u0163\u012byah, \u0639\u0631\u0628 \u0645\u0647\u062f\u064a \u0635\u0627\u0644\u062d \u0639\u0637\u064a\u0629, Arab Mahdi Salih Atiyah, \u0639\u0631\u0628 \u0645\u0647\u062f\u064a \u0635\u0627\u0644\u062d \u0639\u0637\u064a\u0629", "name": "\u0639\u0631\u0628 \u0645\u0647\u062f\u064a \u0635\u0627\u0644\u062d \u0639\u0637\u064a\u0629", "name:ar": "\u0639\u0631\u0628 \u0645\u0647\u062f\u064a \u0635\u0627\u0644\u062d \u0639\u0637\u064a\u0629", "name:ar1": "\u0639\u0631\u0628 \u0645\u0647\u062f\u064a \u0635\u0627\u0644\u062d \u0639\u0637\u064a\u0629", "name:de": "Arab Mahdi Salih Atiyah", "name:en": "Arab Mahdi Salih Atiyah", "name:fr": "Arab Mahdi Salih Atiyah", "place": "village"}}, {"type": "node", "id": 2488374955, "lat": 34.235289, "lon": 43.429404, "tags": {"alt_name": "\u0639\u0631\u0628 \u0633\u064a\u0631\u0627\u0646 \u0643\u0631\u062d\u0648\u0646 \u062e\u0644\u0641", "int_name": "Arab Sayr\u0101n Kar\u1e29\u016bn Khalaf, \u0639\u0631\u0628 \u0633\u064a\u0631\u0627\u0646 \u0643\u0631\u062d\u0648\u0646 \u062e\u0644\u0641, Arab Sayran Karhun Khalaf, \u0639\u0631\u0628 \u0633\u064a\u0631\u0627\u0646 \u0643\u0631\u062d\u0648\u0646 \u062e\u0644\u0641", "name": "\u0639\u0631\u0628 \u0633\u064a\u0631\u0627\u0646 \u0643\u0631\u062d\u0648\u0646 \u062e\u0644\u0641", "name:ar": "\u0639\u0631\u0628 \u0633\u064a\u0631\u0627\u0646 \u0643\u0631\u062d\u0648\u0646 \u062e\u0644\u0641", "name:ar1": "\u0639\u0631\u0628 \u0633\u064a\u0631\u0627\u0646 \u0643\u0631\u062d\u0648\u0646 \u062e\u0644\u0641", "name:de": "Arab Sayran Karhun Khalaf", "name:en": "Arab Sayran Karhun Khalaf", "name:fr": "Arab Sayran Karhun Khalaf", "place": "village"}}, {"type": "node", "id": 2488374961, "lat": 34.268524, "lon": 43.427258, "tags": {"alt_name": "\u0639\u0637\u064a\u0629 \u0627\u0644\u0646\u0633\u0627\u0641\u064a", "int_name": "A\u0163\u012byat an Nas\u0101f\u012b, \u0639\u0637\u064a\u0629 \u0627\u0644\u0646\u0633\u0627\u0641\u064a, Atiyat an Nasafi, \u0639\u0637\u064a\u0629 \u0627\u0644\u0646\u0633\u0627\u0641\u064a", "name": "\u0639\u0637\u064a\u0629 \u0627\u0644\u0646\u0633\u0627\u0641\u064a", "name:ar": "\u0639\u0637\u064a\u0629 \u0627\u0644\u0646\u0633\u0627\u0641\u064a", "name:ar1": "\u0639\u0637\u064a\u0629 \u0627\u0644\u0646\u0633\u0627\u0641\u064a", "name:de": "Atiyat an Nasafi", "name:en": "Atiyat an Nasafi", "name:fr": "Atiyat an Nasafi", "place": "village"}}, {"type": "node", "id": 2488374972, "lat": 34.231663, "lon": 43.474128, "tags": {"alt_name": "\u062d\u0628\u064a\u0628 \u062c\u064a\u0627\u062f \u062e\u0644\u0641", "int_name": "\u1e28ab\u012bb Jiy\u0101d Khalaf, \u062d\u0628\u064a\u0628 \u062c\u064a\u0627\u062f \u062e\u0644\u0641, Habib Jiyad Khalaf, \u062d\u0628\u064a\u0628 \u062c\u064a\u0627\u062f \u062e\u0644\u0641", "name": "\u062d\u0628\u064a\u0628 \u062c\u064a\u0627\u062f \u062e\u0644\u0641", "name:ar": "\u062d\u0628\u064a\u0628 \u062c\u064a\u0627\u062f \u062e\u0644\u0641", "name:ar1": "\u062d\u0628\u064a\u0628 \u062c\u064a\u0627\u062f \u062e\u0644\u0641", "name:de": "Habib Jiyad Khalaf", "name:en": "Habib Jiyad Khalaf", "name:fr": "Habib Jiyad Khalaf", "place": "village"}}, {"type": "node", "id": 2488375015, "lat": 34.269874, "lon": 43.46696, "tags": {"alt_name": "\u062d\u0645\u064a\u062f \u0645\u0647\u062f\u064a", "int_name": "\u1e28am\u012bd Mahd\u012b, \u062d\u0645\u064a\u062f \u0645\u0647\u062f\u064a, Hamid Mahdi, \u062d\u0645\u064a\u062f \u0645\u0647\u062f\u064a", "name": "\u062d\u0645\u064a\u062f \u0645\u0647\u062f\u064a", "name:ar": "\u062d\u0645\u064a\u062f \u0645\u0647\u062f\u064a", "name:ar1": "\u062d\u0645\u064a\u062f \u0645\u0647\u062f\u064a", "name:de": "Hamid Mahdi", "name:en": "Hamid Mahdi", "name:fr": "Hamid Mahdi", "place": "village"}}, {"type": "node", "id": 2488375051, "lat": 34.268173, "lon": 43.485072, "tags": {"alt_name": "\u062d\u0633\u0627\u0646 \u0639\u0644\u064a\u0648\u064a", "int_name": "\u1e28as\u0101n Ulayw\u012b, \u062d\u0633\u0627\u0646 \u0639\u0644\u064a\u0648\u064a, Hasan Ulaywi, \u062d\u0633\u0627\u0646 \u0639\u0644\u064a\u0648\u064a", "name": "\u062d\u0633\u0627\u0646 \u0639\u0644\u064a\u0648\u064a", "name:ar": "\u062d\u0633\u0627\u0646 \u0639\u0644\u064a\u0648\u064a", "name:ar1": "\u062d\u0633\u0627\u0646 \u0639\u0644\u064a\u0648\u064a", "name:de": "Hasan Ulaywi", "name:en": "Hasan Ulaywi", "name:fr": "Hasan Ulaywi", "place": "village"}}, {"type": "node", "id": 2488375101, "lat": 34.220138, "lon": 43.427524, "tags": {"alt_name": "\u062d\u0633\u064a\u0646 \u0645\u0631\u0627\u0637", "int_name": "\u1e28usayn Mar\u0101\u0163, \u062d\u0633\u064a\u0646 \u0645\u0631\u0627\u0637, Husayn Marat, \u062d\u0633\u064a\u0646 \u0645\u0631\u0627\u0637", "name": "\u062d\u0633\u064a\u0646 \u0645\u0631\u0627\u0637", "name:ar": "\u062d\u0633\u064a\u0646 \u0645\u0631\u0627\u0637", "name:ar1": "\u062d\u0633\u064a\u0646 \u0645\u0631\u0627\u0637", "name:de": "Husayn Marat", "name:en": "Husayn Marat", "name:fr": "Husayn Marat", "place": "village"}}, {"type": "node", "id": 2488375182, "lat": 34.2136, "lon": 43.487698, "tags": {"alt_name": "\u0643\u0631\u064a\u0645 \u0645\u062a\u0639\u0628 \u0630\u064a\u0627\u0628", "int_name": "Kar\u012bm Mutab Dhiy\u0101b, \u0643\u0631\u064a\u0645 \u0645\u062a\u0639\u0628 \u0630\u064a\u0627\u0628, Karim Mutab Dhiyab, \u0643\u0631\u064a\u0645 \u0645\u062a\u0639\u0628 \u0630\u064a\u0627\u0628", "name": "\u0643\u0631\u064a\u0645 \u0645\u062a\u0639\u0628 \u0630\u064a\u0627\u0628", "name:ar": "\u0643\u0631\u064a\u0645 \u0645\u062a\u0639\u0628 \u0630\u064a\u0627\u0628", "name:ar1": "\u0643\u0631\u064a\u0645 \u0645\u062a\u0639\u0628 \u0630\u064a\u0627\u0628", "name:de": "Karim Mutab Dhiyab", "name:en": "Karim Mutab Dhiyab", "name:fr": "Karim Mutab Dhiyab", "place": "village"}}, {"type": "node", "id": 2488375190, "lat": 34.227102, "lon": 43.489696, "tags": {"alt_name": "\u062e\u0636\u064a\u0631 \u0639\u0628\u0627\u0633 \u064a\u0627\u0633", "int_name": "Kha\u1e11\u012br Abb\u0101s Y\u0101s, \u062e\u0636\u064a\u0631 \u0639\u0628\u0627\u0633 \u064a\u0627\u0633, Khadir Abbas Yas, \u062e\u0636\u064a\u0631 \u0639\u0628\u0627\u0633 \u064a\u0627\u0633", "name": "\u062e\u0636\u064a\u0631 \u0639\u0628\u0627\u0633 \u064a\u0627\u0633", "name:ar": "\u062e\u0636\u064a\u0631 \u0639\u0628\u0627\u0633 \u064a\u0627\u0633", "name:ar1": "\u062e\u0636\u064a\u0631 \u0639\u0628\u0627\u0633 \u064a\u0627\u0633", "name:de": "Khadir Abbas Yas", "name:en": "Khadir Abbas Yas", "name:fr": "Khadir Abbas Yas", "place": "village"}}, {"type": "node", "id": 2488375203, "lat": 34.260761, "lon": 43.430341, "tags": {"alt_name": "\u062e\u0644\u0641 \u0645\u062e\u0644\u0641 \u0641\u062a\u0634", "int_name": "Khalaf Makhlaf Fatash, \u062e\u0644\u0641 \u0645\u062e\u0644\u0641 \u0641\u062a\u0634, Khalaf Makhlaf Fatash, \u062e\u0644\u0641 \u0645\u062e\u0644\u0641 \u0641\u062a\u0634", "name": "\u062e\u0644\u0641 \u0645\u062e\u0644\u0641 \u0641\u062a\u0634", "name:ar": "\u062e\u0644\u0641 \u0645\u062e\u0644\u0641 \u0641\u062a\u0634", "name:ar1": "\u062e\u0644\u0641 \u0645\u062e\u0644\u0641 \u0641\u062a\u0634", "name:de": "Khalaf Makhlaf Fatash", "name:en": "Khalaf Makhlaf Fatash", "name:fr": "Khalaf Makhlaf Fatash", "place": "village"}}, {"type": "node", "id": 2488375210, "lat": 34.26354, "lon": 43.451906, "tags": {"alt_name": "\u062e\u0645\u064a\u0633 \u0641\u0631\u062d\u0627\u0646", "int_name": "Kham\u012bs Far\u1e29\u0101n, \u062e\u0645\u064a\u0633 \u0641\u0631\u062d\u0627\u0646, Khamis Farhan, \u062e\u0645\u064a\u0633 \u0641\u0631\u062d\u0627\u0646", "name": "\u062e\u0645\u064a\u0633 \u0641\u0631\u062d\u0627\u0646", "name:ar": "\u062e\u0645\u064a\u0633 \u0641\u0631\u062d\u0627\u0646", "name:ar1": "\u062e\u0645\u064a\u0633 \u0641\u0631\u062d\u0627\u0646", "name:de": "Khamis Farhan", "name:en": "Khamis Farhan", "name:fr": "Khamis Farhan", "place": "village"}}, {"type": "node", "id": 2488375225, "lat": 34.2543966, "lon": 43.4626737, "tags": {"alt_name": "\u0645\u0637\u0627\u0631 \u0639\u0631\u0645\u0648\u0646 \u062e\u0644\u0641", "int_name": "Ma\u0163ar Arm\u016bn Khalaf, Matar Armun Khalaf", "name": "\u0645\u0637\u0627\u0631 \u0639\u0631\u0645\u0648\u0646 \u062e\u0644\u0641", "name:ar": "\u0645\u0637\u0627\u0631 \u0639\u0631\u0645\u0648\u0646 \u062e\u0644\u0641", "name:ar1": "\u0645\u0637\u0627\u0631 \u0639\u0631\u0645\u0648\u0646 \u062e\u0644\u0641", "name:de": "Matar Armun Khalaf", "name:en": "Matar Armun Khalaf", "name:fr": "Matar Armun Khalaf", "place": "village"}}, {"type": "node", "id": 2488375245, "lat": 34.251777, "lon": 43.471804, "tags": {"alt_name": "\u0645\u062d\u0645\u062f \u062c\u0628\u0627\u0631", "int_name": "Mu\u1e29ammad Jabb\u0101r, \u0645\u062d\u0645\u062f \u062c\u0628\u0627\u0631, Muhammad Jabbar, \u0645\u062d\u0645\u062f \u062c\u0628\u0627\u0631", "name": "\u0645\u062d\u0645\u062f \u062c\u0628\u0627\u0631", "name:ar": "\u0645\u062d\u0645\u062f \u062c\u0628\u0627\u0631", "name:ar1": "\u0645\u062d\u0645\u062f \u062c\u0628\u0627\u0631", "name:de": "Muhammad Jabbar", "name:en": "Muhammad Jabbar", "name:fr": "Muhammad Jabbar", "place": "village"}}, {"type": "node", "id": 2488375257, "lat": 34.241719, "lon": 43.467691, "tags": {"alt_name": "\u0645\u062d\u0645\u062f \u0645\u0636\u0639\u0646", "int_name": "Mu\u1e29ammad Mu\u1e11an, \u0645\u062d\u0645\u062f \u0645\u0636\u0639\u0646, Muhammad Mudan, \u0645\u062d\u0645\u062f \u0645\u0636\u0639\u0646", "name": "\u0645\u062d\u0645\u062f \u0645\u0636\u0639\u0646", "name:ar": "\u0645\u062d\u0645\u062f \u0645\u0636\u0639\u0646", "name:ar1": "\u0645\u062d\u0645\u062f \u0645\u0636\u0639\u0646", "name:de": "Muhammad Mudan", "name:en": "Muhammad Mudan", "name:fr": "Muhammad Mudan", "place": "village"}}, {"type": "node", "id": 2488375291, "lat": 34.297731, "lon": 43.472899, "tags": {"alt_name": "\u0631\u0634\u064a\u062f \u0639\u0644\u064a\u0648\u064a", "int_name": "Rash\u012bd Ulayw\u012b, \u0631\u0634\u064a\u062f \u0639\u0644\u064a\u0648\u064a, Rashid Ulaywi, \u0631\u0634\u064a\u062f \u0639\u0644\u064a\u0648\u064a", "name": "\u0631\u0634\u064a\u062f \u0639\u0644\u064a\u0648\u064a", "name:ar": "\u0631\u0634\u064a\u062f \u0639\u0644\u064a\u0648\u064a", "name:ar1": "\u0631\u0634\u064a\u062f \u0639\u0644\u064a\u0648\u064a", "name:de": "Rashid Ulaywi", "name:en": "Rashid Ulaywi", "name:fr": "Rashid Ulaywi", "place": "village"}}, {"type": "node", "id": 2488375303, "lat": 34.283487, "lon": 43.468803, "tags": {"alt_name": "\u0631\u0624\u0648\u0641 \u062c\u0627\u0633\u0645", "int_name": "Ra\u016bwf J\u0101sim, \u0631\u0624\u0648\u0641 \u062c\u0627\u0633\u0645, Rauwf Jasim, \u0631\u0624\u0648\u0641 \u062c\u0627\u0633\u0645", "name": "\u0631\u0624\u0648\u0641 \u062c\u0627\u0633\u0645", "name:ar": "\u0631\u0624\u0648\u0641 \u062c\u0627\u0633\u0645", "name:ar1": "\u0631\u0624\u0648\u0641 \u062c\u0627\u0633\u0645", "name:de": "Rauwf Jasim", "name:en": "Rauwf Jasim", "name:fr": "Rauwf Jasim", "place": "village"}}, {"type": "node", "id": 2488375374, "lat": 34.246344, "lon": 43.439559, "tags": {"alt_name": "\u0633\u0644\u0645\u0627\u0646 \u0633\u0639\u0648\u062f", "int_name": "Salm\u0101n Sa\u016bd, \u0633\u0644\u0645\u0627\u0646 \u0633\u0639\u0648\u062f, Salman Saud, \u0633\u0644\u0645\u0627\u0646 \u0633\u0639\u0648\u062f", "name": "\u0633\u0644\u0645\u0627\u0646 \u0633\u0639\u0648\u062f", "name:ar": "\u0633\u0644\u0645\u0627\u0646 \u0633\u0639\u0648\u062f", "name:ar1": "\u0633\u0644\u0645\u0627\u0646 \u0633\u0639\u0648\u062f", "name:de": "Salman Saud", "name:en": "Salman Saud", "name:fr": "Salman Saud", "place": "village"}}, {"type": "node", "id": 2488375382, "lat": 34.246788, "lon": 43.490093, "tags": {"alt_name": "\u0634\u0627\u0647\u064a\u0646 \u062d\u0645\u0648\u062f", "int_name": "Sh\u0101h\u012bn \u1e28am\u016bd, \u0634\u0627\u0647\u064a\u0646 \u062d\u0645\u0648\u062f, Shahin Hamud, \u0634\u0627\u0647\u064a\u0646 \u062d\u0645\u0648\u062f", "name": "\u0634\u0627\u0647\u064a\u0646 \u062d\u0645\u0648\u062f", "name:ar": "\u0634\u0627\u0647\u064a\u0646 \u062d\u0645\u0648\u062f", "name:ar1": "\u0634\u0627\u0647\u064a\u0646 \u062d\u0645\u0648\u062f", "name:de": "Shahin Hamud", "name:en": "Shahin Hamud", "name:fr": "Shahin Hamud", "place": "village"}}, {"type": "node", "id": 2488375403, "lat": 34.2556189, "lon": 43.4626913, "tags": {"alt_name": "\u0645\u0637\u0631 \u0639\u0631\u0645\u0648\u0646 \u062e\u0644\u0641", "int_name": "\u0645\u0637\u0631 \u0639\u0631\u0645\u0648\u0646 \u062e\u0644\u0641, \u0645\u0637\u0631 \u0639\u0631\u0645\u0648\u0646 \u062e\u0644\u0641", "name": "\u0645\u0637\u0631 \u0639\u0631\u0645\u0648\u0646 \u062e\u0644\u0641", "name:ar": "\u0645\u0637\u0631 \u0639\u0631\u0645\u0648\u0646 \u062e\u0644\u0641", "name:ar1": "\u0645\u0637\u0631 \u0639\u0631\u0645\u0648\u0646 \u062e\u0644\u0641", "name:de": "\u0645\u0637\u0631 \u0639\u0631\u0645\u0648\u0646 \u062e\u0644\u0641", "name:fr": "\u0645\u0637\u0631 \u0639\u0631\u0645\u0648\u0646 \u062e\u0644\u0641", "place": "village"}}, {"type": "node", "id": 2488375967, "lat": 34.170764, "lon": 43.484217, "tags": {"alt_name": "\u0639\u0644\u064a \u062e\u0644\u0641 \u0645\u0646\u0627\u062e\u0631", "int_name": "Al\u012b Khalaf Mun\u0101khir, \u0639\u0644\u064a \u062e\u0644\u0641 \u0645\u0646\u0627\u062e\u0631, Ali Khalaf Munakhir, \u0639\u0644\u064a \u062e\u0644\u0641 \u0645\u0646\u0627\u062e\u0631", "name": "\u0639\u0644\u064a \u062e\u0644\u0641 \u0645\u0646\u0627\u062e\u0631", "name:ar": "\u0639\u0644\u064a \u062e\u0644\u0641 \u0645\u0646\u0627\u062e\u0631", "name:ar1": "\u0639\u0644\u064a \u062e\u0644\u0641 \u0645\u0646\u0627\u062e\u0631", "name:de": "Ali Khalaf Munakhir", "name:en": "Ali Khalaf Munakhir", "name:fr": "Ali Khalaf Munakhir", "place": "village"}}, {"type": "node", "id": 2488376105, "lat": 34.093035, "lon": 43.486526, "tags": {"alt_name": "\u062d\u0645\u0627\u062f \u0631\u0634\u064a\u062f \u062d\u0633\u064a\u0646", "int_name": "\u1e28am\u0101d Rash\u012bd \u1e28usayn, \u062d\u0645\u0627\u062f \u0631\u0634\u064a\u062f \u062d\u0633\u064a\u0646, Hamad Rashid Husayn, \u062d\u0645\u0627\u062f \u0631\u0634\u064a\u062f \u062d\u0633\u064a\u0646", "name": "\u062d\u0645\u0627\u062f \u0631\u0634\u064a\u062f \u062d\u0633\u064a\u0646", "name:ar": "\u062d\u0645\u0627\u062f \u0631\u0634\u064a\u062f \u062d\u0633\u064a\u0646", "name:ar1": "\u062d\u0645\u0627\u062f \u0631\u0634\u064a\u062f \u062d\u0633\u064a\u0646", "name:de": "Hamad Rashid Husayn", "name:en": "Hamad Rashid Husayn", "name:fr": "Hamad Rashid Husayn", "place": "village"}}, {"type": "node", "id": 2488376174, "lat": 34.132093, "lon": 43.484115, "tags": {"alt_name": "\u0625\u0628\u0631\u0627\u0647\u064a\u0645 \u0645\u062e\u0644\u0641 \u062c\u0627\u0633\u0645", "int_name": "Ibr\u0101h\u012bm Makhlaf J\u0101sim, \u0627\u0628\u0631\u0627\u0647\u064a\u0645 \u0645\u062e\u0644\u0641 \u062c\u0627\u0633\u0645, Ibrahim Makhlaf Jasim, \u0627\u0628\u0631\u0627\u0647\u064a\u0645 \u0645\u062e\u0644\u0641 \u062c\u0627\u0633\u0645", "name": "\u0625\u0628\u0631\u0627\u0647\u064a\u0645 \u0645\u062e\u0644\u0641 \u062c\u0627\u0633\u0645", "name:ar": "\u0625\u0628\u0631\u0627\u0647\u064a\u0645 \u0645\u062e\u0644\u0641 \u062c\u0627\u0633\u0645", "name:ar1": "\u0625\u0628\u0631\u0627\u0647\u064a\u0645 \u0645\u062e\u0644\u0641 \u062c\u0627\u0633\u0645", "name:de": "Ibrahim Makhlaf Jasim", "name:en": "Ibrahim Makhlaf Jasim", "name:fr": "Ibrahim Makhlaf Jasim", "place": "village"}}, {"type": "node", "id": 2488376200, "lat": 34.127009, "lon": 43.489207, "tags": {"alt_name": "\u062c\u0627\u0628\u0631 \u0645\u062e\u0644\u0641", "int_name": "J\u0101bir Makhlaf, \u062c\u0627\u0628\u0631 \u0645\u062e\u0644\u0641, Jabir Makhlaf, \u062c\u0627\u0628\u0631 \u0645\u062e\u0644\u0641", "name": "\u062c\u0627\u0628\u0631 \u0645\u062e\u0644\u0641", "name:ar": "\u062c\u0627\u0628\u0631 \u0645\u062e\u0644\u0641", "name:ar1": "\u062c\u0627\u0628\u0631 \u0645\u062e\u0644\u0641", "name:de": "Jabir Makhlaf", "name:en": "Jabir Makhlaf", "name:fr": "Jabir Makhlaf", "place": "village"}}, {"type": "node", "id": 2488376350, "lat": 34.119062, "lon": 43.490969, "tags": {"alt_name": "\u0645\u0647\u062f\u064a \u0635\u0627\u0644\u062d \u0645\u062e\u0644\u0641", "int_name": "Mahd\u012b \u015e\u0101li\u1e29 Makhlaf, \u0645\u0647\u062f\u064a \u0635\u0627\u0644\u062d \u0645\u062e\u0644\u0641, Mahdi Salih Makhlaf, \u0645\u0647\u062f\u064a \u0635\u0627\u0644\u062d \u0645\u062e\u0644\u0641", "name": "\u0645\u0647\u062f\u064a \u0635\u0627\u0644\u062d \u0645\u062e\u0644\u0641", "name:ar": "\u0645\u0647\u062f\u064a \u0635\u0627\u0644\u062d \u0645\u062e\u0644\u0641", "name:ar1": "\u0645\u0647\u062f\u064a \u0635\u0627\u0644\u062d \u0645\u062e\u0644\u0641", "name:de": "Mahdi Salih Makhlaf", "name:en": "Mahdi Salih Makhlaf", "name:fr": "Mahdi Salih Makhlaf", "place": "village"}}, {"type": "node", "id": 2488376373, "lat": 34.136666, "lon": 43.490581, "tags": {"alt_name": "\u0645\u062e\u0644\u0641 \u062d\u0645\u062f", "int_name": "Makhlaf \u1e28amad, \u0645\u062e\u0644\u0641 \u062d\u0645\u062f, Makhlaf Hamad, \u0645\u062e\u0644\u0641 \u062d\u0645\u062f", "name": "\u0645\u062e\u0644\u0641 \u062d\u0645\u062f", "name:ar": "\u0645\u062e\u0644\u0641 \u062d\u0645\u062f", "name:ar1": "\u0645\u062e\u0644\u0641 \u062d\u0645\u062f", "name:de": "Makhlaf Hamad", "name:en": "Makhlaf Hamad", "name:fr": "Makhlaf Hamad", "place": "village"}}, {"type": "node", "id": 2488376395, "lat": 34.16542, "lon": 43.491423, "tags": {"alt_name": "\u0631\u0634\u064a\u062f \u0641\u0631\u062d\u0627\u0646", "int_name": "Rash\u012bd Far\u1e29\u0101n, \u0631\u0634\u064a\u062f \u0641\u0631\u062d\u0627\u0646, Rashid Farhan, \u0631\u0634\u064a\u062f \u0641\u0631\u062d\u0627\u0646", "name": "\u0631\u0634\u064a\u062f \u0641\u0631\u062d\u0627\u0646", "name:ar": "\u0631\u0634\u064a\u062f \u0641\u0631\u062d\u0627\u0646", "name:ar1": "\u0631\u0634\u064a\u062f \u0641\u0631\u062d\u0627\u0646", "name:de": "Rashid Farhan", "name:en": "Rashid Farhan", "name:fr": "Rashid Farhan", "place": "village"}}, {"type": "node", "id": 2488421029, "lat": 34.101469, "lon": 43.030926, "tags": {"alt_name": "\u0622\u0644 \u0628\u0648 \u063a\u0633\u0627\u0641", "int_name": "\u0100lb\u016b Ghass\u0101f, \u0627\u0644\u0628\u0648 \u063a\u0633\u0627\u0641, Albu Ghassaf, \u0627\u0644\u0628\u0648 \u063a\u0633\u0627\u0641", "name": "\u0622\u0644 \u0628\u0648 \u063a\u0633\u0627\u0641", "name:ar": "\u0622\u0644 \u0628\u0648 \u063a\u0633\u0627\u0641", "name:ar1": "\u0622\u0644 \u0628\u0648 \u063a\u0633\u0627\u0641", "name:de": "Albu Ghassaf", "name:en": "Albu Ghassaf", "name:fr": "Albu Ghassaf", "place": "village"}}, {"type": "node", "id": 2488421087, "lat": 34.2013863, "lon": 43.0087088, "tags": {"alt_name": "\u0642\u0631\u064a\u0629 \u0627\u0644\u0634\u0637\u064a\u062d\u064a\u0629 \u0627\u0644\u0634\u0631\u0642\u064a\u0629", "int_name": "Qaryat ash Sha\u0163\u012b\u1e29\u012byah ash Sharq\u012byah, \u0642\u0631\u064a\u0629 \u0627\u0644\u0634\u0637\u064a\u062d\u064a\u0629 \u0627\u0644\u0634\u0631\u0642\u064a\u0629, Qaryat ash Shatihiyah ash Sharqiyah, \u0642\u0631\u064a\u0629 \u0627\u0644\u0634\u0637\u064a\u062d\u064a\u0629 \u0627\u0644\u0634\u0631\u0642\u064a\u0629", "name": "\u0642\u0631\u064a\u0629 \u0627\u0644\u0634\u0637\u064a\u062d\u064a\u0629 \u0627\u0644\u0634\u0631\u0642\u064a\u0629", "name:ar": "\u0642\u0631\u064a\u0629 \u0627\u0644\u0634\u0637\u064a\u062d\u064a\u0629 \u0627\u0644\u0634\u0631\u0642\u064a\u0629", "name:ar1": "\u0642\u0631\u064a\u0629 \u0627\u0644\u0634\u0637\u064a\u062d\u064a\u0629 \u0627\u0644\u0634\u0631\u0642\u064a\u0629", "name:de": "Qaryat ash Shatihiyah ash Sharqiyah", "name:en": "Qaryat ash Shatihiyah ash Sharqiyah", "name:fr": "Qaryat ash Shatihiyah ash Sharqiyah", "place": "village"}}, {"type": "node", "id": 2488421105, "lat": 34.2020942, "lon": 43.0082764, "tags": {"alt_name": "\u0634\u064a\u062e \u0639\u0628\u062f \u0627\u0644\u0644\u0647 \u0627\u0644\u0639\u0641\u064a\u0646", "int_name": "Shaykh Abd All\u0101h al Af\u012bn, \u0634\u064a\u062e \u0639\u0628\u062f \ufdf2 \u0627\u0644\u0639\u0641\u064a\u0646, Shaykh Abd Allah al Afin, \u0634\u064a\u062e \u0639\u0628\u062f \ufdf2 \u0627\u0644\u0639\u0641\u064a\u0646", "name": "\u0634\u064a\u062e \u0639\u0628\u062f \u0627\u0644\u0644\u0647 \u0627\u0644\u0639\u0641\u064a\u0646", "name:ar": "\u0634\u064a\u062e \u0639\u0628\u062f \u0627\u0644\u0644\u0647 \u0627\u0644\u0639\u0641\u064a\u0646", "name:ar1": "\u0634\u064a\u062e \u0639\u0628\u062f \u0627\u0644\u0644\u0647 \u0627\u0644\u0639\u0641\u064a\u0646", "name:de": "Shaykh Abd Allah al Afin", "name:en": "Shaykh Abd Allah al Afin", "name:fr": "Shaykh Abd Allah al Afin", "place": "village"}}, {"type": "node", "id": 2489241172, "lat": 34.288255, "lon": 43.003695, "tags": {"alt_name": "\u0642\u0631\u064a\u0629 \u0645\u0647\u062f\u064a \u062c\u0648\u0627\u062f", "int_name": "Qaryat Mahd\u012b Jaww\u0101d, \u0642\u0631\u064a\u0629 \u0645\u0647\u062f\u064a \u062c\u0648\u0627\u062f, Qaryat Mahdi Jawwad, \u0642\u0631\u064a\u0629 \u0645\u0647\u062f\u064a \u062c\u0648\u0627\u062f", "name": "\u0642\u0631\u064a\u0629 \u0645\u0647\u062f\u064a \u062c\u0648\u0627\u062f", "name:ar": "\u0642\u0631\u064a\u0629 \u0645\u0647\u062f\u064a \u062c\u0648\u0627\u062f", "name:ar1": "\u0642\u0631\u064a\u0629 \u0645\u0647\u062f\u064a \u062c\u0648\u0627\u062f", "name:de": "Qaryat Mahdi Jawwad", "name:en": "Qaryat Mahdi Jawwad", "name:fr": "Qaryat Mahdi Jawwad", "place": "village"}}, {"type": "node", "id": 2489268282, "lat": 34.195909, "lon": 43.357072, "tags": {"alt_name": "\u0639\u0628\u062f \u0635\u0628\u0627\u062d \u062d\u0645\u062f", "int_name": "Abd \u015eab\u0101\u1e29 \u1e28amad, \u0639\u0628\u062f \u0635\u0628\u0627\u062d \u062d\u0645\u062f, Abd Sabah Hamad, \u0639\u0628\u062f \u0635\u0628\u0627\u062d \u062d\u0645\u062f", "name": "\u0639\u0628\u062f \u0635\u0628\u0627\u062d \u062d\u0645\u062f", "name:ar": "\u0639\u0628\u062f \u0635\u0628\u0627\u062d \u062d\u0645\u062f", "name:ar1": "\u0639\u0628\u062f \u0635\u0628\u0627\u062d \u062d\u0645\u062f", "name:de": "Abd Sabah Hamad", "name:en": "Abd Sabah Hamad", "name:fr": "Abd Sabah Hamad", "place": "village"}}, {"type": "node", "id": 2489268294, "lat": 34.307657, "lon": 43.280255, "tags": {"alt_name": "\u0639\u0631\u0628 \u0639\u0644\u064a \u0628\u0634\u064a\u0631", "int_name": "Arab Al\u012b Bash\u012br, \u0639\u0631\u0628 \u0639\u0644\u064a \u0628\u0634\u064a\u0631, Arab Ali Bashir, \u0639\u0631\u0628 \u0639\u0644\u064a \u0628\u0634\u064a\u0631", "name": "\u0639\u0631\u0628 \u0639\u0644\u064a \u0628\u0634\u064a\u0631", "name:ar": "\u0639\u0631\u0628 \u0639\u0644\u064a \u0628\u0634\u064a\u0631", "name:ar1": "\u0639\u0631\u0628 \u0639\u0644\u064a \u0628\u0634\u064a\u0631", "name:de": "Arab Ali Bashir", "name:en": "Arab Ali Bashir", "name:fr": "Arab Ali Bashir", "place": "village"}}, {"type": "node", "id": 2489268297, "lat": 34.239887, "lon": 43.013942, "tags": {"alt_name": "\u0639\u0631\u0628 \u0645\u062d\u0645\u062f \u0641\u0631\u062c", "int_name": "Arab Mu\u1e29ammad Faraj, \u0639\u0631\u0628 \u0645\u062d\u0645\u062f \u0641\u0631\u062c, Arab Muhammad Faraj, \u0639\u0631\u0628 \u0645\u062d\u0645\u062f \u0641\u0631\u062c", "name": "\u0639\u0631\u0628 \u0645\u062d\u0645\u062f \u0641\u0631\u062c", "name:ar": "\u0639\u0631\u0628 \u0645\u062d\u0645\u062f \u0641\u0631\u062c", "name:ar1": "\u0639\u0631\u0628 \u0645\u062d\u0645\u062f \u0641\u0631\u062c", "name:de": "Arab Muhammad Faraj", "name:en": "Arab Muhammad Faraj", "name:fr": "Arab Muhammad Faraj", "place": "village"}}, {"type": "node", "id": 2489268323, "lat": 34.273315, "lon": 43.206792, "tags": {"alt_name": "\u0639\u064a\u0646 \u0627\u0644\u0641\u0631\u0633", "int_name": "Ayn al Faras, Ain al Faras, \u0639\u064a\u0646 \u0627\u0644\u0641\u0631\u0633, Ayn al Faras, Ain al Faras, \u0639\u064a\u0646 \u0627\u0644\u0641\u0631\u0633", "name": "\u0639\u064a\u0646 \u0627\u0644\u0641\u0631\u0633", "name:ar": "\u0639\u064a\u0646 \u0627\u0644\u0641\u0631\u0633", "name:ar1": "\u0639\u064a\u0646 \u0627\u0644\u0641\u0631\u0633", "name:de": "Ayn al Faras", "name:en": "Ayn al Faras", "name:fr": "Ayn al Faras", "place": "village"}}, {"type": "node", "id": 2489268388, "lat": 34.289657, "lon": 43.395451, "tags": {"alt_name": "\u0641\u0627\u0631\u0648\u0642 \u0644\u0641\u062a\u0629", "int_name": "F\u0101r\u016bq Laftah, \u0641\u0627\u0631\u0648\u0642 \u0644\u0641\u062a\u0629, Faruq Laftah, \u0641\u0627\u0631\u0648\u0642 \u0644\u0641\u062a\u0629", "name": "\u0641\u0627\u0631\u0648\u0642 \u0644\u0641\u062a\u0629", "name:ar": "\u0641\u0627\u0631\u0648\u0642 \u0644\u0641\u062a\u0629", "name:ar1": "\u0641\u0627\u0631\u0648\u0642 \u0644\u0641\u062a\u0629", "name:de": "Faruq Laftah", "name:en": "Faruq Laftah", "name:fr": "Faruq Laftah", "place": "village"}}, {"type": "node", "id": 2489268402, "lat": 34.26525, "lon": 43.366319, "tags": {"alt_name": "\u0625\u0633\u0645\u0627\u0639\u064a\u0644 \u0636\u064a\u0627\u0646", "int_name": "Ism\u0101\u012bl \u1e10iy\u0101n, \u0627\u0633\u0645\u0627\u0639\u064a\u0644 \u0636\u064a\u0627\u0646, Ismail Diyan, \u0627\u0633\u0645\u0627\u0639\u064a\u0644 \u0636\u064a\u0627\u0646", "name": "\u0625\u0633\u0645\u0627\u0639\u064a\u0644 \u0636\u064a\u0627\u0646", "name:ar": "\u0625\u0633\u0645\u0627\u0639\u064a\u0644 \u0636\u064a\u0627\u0646", "name:ar1": "\u0625\u0633\u0645\u0627\u0639\u064a\u0644 \u0636\u064a\u0627\u0646", "name:de": "Ismail Diyan", "name:en": "Ismail Diyan", "name:fr": "Ismail Diyan", "place": "village"}}, {"type": "node", "id": 2489268459, "lat": 34.27559, "lon": 43.375753, "tags": {"alt_name": "\u0645\u062d\u0645\u062f \u0641\u0627\u0636\u0644", "int_name": "Mu\u1e29ammad F\u0101\u1e11il, \u0645\u062d\u0645\u062f \u0641\u0627\u0636\u0644, Muhammad Fadil, \u0645\u062d\u0645\u062f \u0641\u0627\u0636\u0644", "name": "\u0645\u062d\u0645\u062f \u0641\u0627\u0636\u0644", "name:ar": "\u0645\u062d\u0645\u062f \u0641\u0627\u0636\u0644", "name:ar1": "\u0645\u062d\u0645\u062f \u0641\u0627\u0636\u0644", "name:de": "Muhammad Fadil", "name:en": "Muhammad Fadil", "name:fr": "Muhammad Fadil", "place": "village"}}, {"type": "node", "id": 2489268537, "lat": 34.280488, "lon": 43.362066, "tags": {"alt_name": "\u0634\u0644\u0627\u0644 \u0641\u0627\u0636\u0644", "int_name": "Shall\u0101l F\u0101\u1e11il, \u0634\u0644\u0627\u0644 \u0641\u0627\u0636\u0644, Shallal Fadil, \u0634\u0644\u0627\u0644 \u0641\u0627\u0636\u0644", "name": "\u0634\u0644\u0627\u0644 \u0641\u0627\u0636\u0644", "name:ar": "\u0634\u0644\u0627\u0644 \u0641\u0627\u0636\u0644", "name:ar1": "\u0634\u0644\u0627\u0644 \u0641\u0627\u0636\u0644", "name:de": "Shallal Fadil", "name:en": "Shallal Fadil", "name:fr": "Shallal Fadil", "place": "village"}}, {"type": "node", "id": 2489268539, "lat": 34.191135, "lon": 43.366451, "tags": {"alt_name": "\u0633\u0647\u064a\u0644 \u0639\u0628\u062f \u0635\u0628\u0627\u062d", "int_name": "Suhayl Abd \u015eab\u0101\u1e29, \u0633\u0647\u064a\u0644 \u0639\u0628\u062f \u0635\u0628\u0627\u062d, Suhayl Abd Sabah, \u0633\u0647\u064a\u0644 \u0639\u0628\u062f \u0635\u0628\u0627\u062d", "name": "\u0633\u0647\u064a\u0644 \u0639\u0628\u062f \u0635\u0628\u0627\u062d", "name:ar": "\u0633\u0647\u064a\u0644 \u0639\u0628\u062f \u0635\u0628\u0627\u062d", "name:ar1": "\u0633\u0647\u064a\u0644 \u0639\u0628\u062f \u0635\u0628\u0627\u062d", "name:de": "Suhayl Abd Sabah", "name:en": "Suhayl Abd Sabah", "name:fr": "Suhayl Abd Sabah", "place": "village"}}, {"type": "node", "id": 2489268546, "lat": 34.319111, "lon": 43.268085, "tags": {"alt_name": "\u062a\u0627\u064a\u0629 \u0645\u062d\u0645\u062f", "int_name": "T\u0101yat Mu\u1e29ammad, \u062a\u0627\u064a\u0629 \u0645\u062d\u0645\u062f, Tayat Muhammad, \u062a\u0627\u064a\u0629 \u0645\u062d\u0645\u062f", "name": "\u062a\u0627\u064a\u0629 \u0645\u062d\u0645\u062f", "name:ar": "\u062a\u0627\u064a\u0629 \u0645\u062d\u0645\u062f", "name:ar1": "\u062a\u0627\u064a\u0629 \u0645\u062d\u0645\u062f", "name:de": "Tayat Muhammad", "name:en": "Tayat Muhammad", "name:fr": "Tayat Muhammad", "place": "village"}}, {"type": "node", "id": 2489268625, "lat": 34.214823, "lon": 43.348402, "tags": {"alt_name": "\u0648\u062d\u064a\u062f \u0639\u0628\u062f \u0635\u0628\u0627\u062d \u062d\u0645\u062f", "int_name": "Wa\u1e29\u012bd Abd \u015eab\u0101\u1e29 \u1e28amad, \u0648\u062d\u064a\u062f \u0639\u0628\u062f \u0635\u0628\u0627\u062d \u062d\u0645\u062f, Wahid Abd Sabah Hamad, \u0648\u062d\u064a\u062f \u0639\u0628\u062f \u0635\u0628\u0627\u062d \u062d\u0645\u062f", "name": "\u0648\u062d\u064a\u062f \u0639\u0628\u062f \u0635\u0628\u0627\u062d \u062d\u0645\u062f", "name:ar": "\u0648\u062d\u064a\u062f \u0639\u0628\u062f \u0635\u0628\u0627\u062d \u062d\u0645\u062f", "name:ar1": "\u0648\u062d\u064a\u062f \u0639\u0628\u062f \u0635\u0628\u0627\u062d \u062d\u0645\u062f", "name:de": "Wahid Abd Sabah Hamad", "name:en": "Wahid Abd Sabah Hamad", "name:fr": "Wahid Abd Sabah Hamad", "place": "village"}}, {"type": "node", "id": 2489273068, "lat": 34.080739, "lon": 43.480417, "tags": {"alt_name": "\u062d\u0645\u062f \u0631\u0634\u064a\u062f \u062d\u0633\u064a\u0646", "int_name": "\u1e28amd Rash\u012bd \u1e28usayn, \u062d\u0645\u062f \u0631\u0634\u064a\u062f \u062d\u0633\u064a\u0646, Hamd Rashid Husayn, \u062d\u0645\u062f \u0631\u0634\u064a\u062f \u062d\u0633\u064a\u0646", "name": "\u062d\u0645\u062f \u0631\u0634\u064a\u062f \u062d\u0633\u064a\u0646", "name:ar": "\u062d\u0645\u062f \u0631\u0634\u064a\u062f \u062d\u0633\u064a\u0646", "name:ar1": "\u062d\u0645\u062f \u0631\u0634\u064a\u062f \u062d\u0633\u064a\u0646", "name:de": "Hamd Rashid Husayn", "name:en": "Hamd Rashid Husayn", "name:fr": "Hamd Rashid Husayn", "place": "village"}}]}