{"version": 0.6, "generator": "Overpass API 0.7.61.5 4133829e", "osm3s": {"timestamp_osm_base": "2024-03-05T14:53:32Z", "copyright": "The data included in this document is from www.openstreetmap.org. The data is made available under ODbL."}, "elements": [{"type": "node", "id": 570583774, "lat": 63.6743122, "lon": 22.7025462, "tags": {"addr:city": "Jakobstad", "addr:housenumber": "2", "addr:postcode": "68600", "addr:street": "Salutorget", "amenity": "bank", "name": "Andelsbanken", "name:fi": "Osuuspankki", "name:sv": "Andelsbanken", "opening_hours": "Mo-Fr 10:00-16:30", "phone": "(06) 785 4111"}}, {"type": "node", "id": 570583780, "lat": 63.6737985, "lon": 22.7054752, "tags": {"addr:city": "Jakobstad", "addr:housenumber": "10", "addr:postcode": "68600", "addr:street": "K\u00f6pmansgatan", "amenity": "bank", "name": "Aktia", "phone": "010 247 5020"}}, {"type": "node", "id": 570583786, "lat": 63.675498, "lon": 22.7033296, "tags": {"addr:city": "Jakobstad", "addr:housenumber": "14", "addr:postcode": "68600", "addr:street": "Storgatan", "amenity": "bank", "name": "Nordea", "opening_hours": "Mo-Fr 10:00-16:30"}}, {"type": "node", "id": 571345440, "lat": 63.6739356, "lon": 22.7064947, "tags": {"addr:city": "Jakobstad", "addr:housenumber": "8", "addr:postcode": "68600", "addr:street": "K\u00f6pmansgatan", "amenity": "bank", "brand": "Handelsbanken", "brand:wikidata": "Q1421630", "fax": "010 444 3370", "name": "Handelsbanken", "opening_hours": "Mo 10:00-17:30; Tu-Th 10:00-16:30; Fr 10:00-16:00", "phone": "010 444 3360"}}, {"type": "node", "id": 619074552, "lat": 63.5217162, "lon": 22.5294165, "tags": {"addr:city": "Nykarleby", "addr:housenumber": "9", "addr:postcode": "66900", "addr:street": "Sollefte\u00e5gatan", "amenity": "bank", "brand": "Osuuspankki", "brand:wikidata": "Q4045597", "name": "Osuuspankki", "name:fi": "Osuuspankki", "name:sv": "Andelsbanken", "phone": "(06) 722 0366", "wheelchair": "limited"}}]}