{"version": 0.6, "generator": "Overpass API 0.7.61.5 4133829e", "osm3s": {"timestamp_osm_base": "2024-03-05T11:24:46Z", "copyright": "The data included in this document is from www.openstreetmap.org. The data is made available under ODbL."}, "elements": [{"type": "node", "id": 901049331, "lat": 5.897135, "lon": 0.5225149, "tags": {"amenity": "bank", "name": "Ghana Commercial Bank LTD."}}, {"type": "node", "id": 3688144287, "lat": 6.0003549, "lon": 0.5976562, "tags": {"alt_name": "ADB", "amenity": "bank", "name": "Agricultural Development Bank", "source": "survey; MapBox"}}, {"type": "node", "id": 4685816202, "lat": 6.0007203, "lon": 0.5923174, "tags": {"amenity": "bank", "name": "Ghana Commercial Bank"}}, {"type": "node", "id": 4846044850, "lat": 6.0646144, "lon": 0.8611836, "tags": {"amenity": "bank", "atm": "yes", "brand": "GCB Bank", "brand:wikidata": "Q1521346", "brand:wikipedia": "en:GCB Bank", "name": "GCB Bank"}}, {"type": "node", "id": 5002534366, "lat": 6.0654931, "lon": 0.8608286, "tags": {"amenity": "bank", "name": "Anlo Rural Bank"}}, {"type": "node", "id": 5298614714, "lat": 6.1270925, "lon": 0.8018564, "tags": {"amenity": "bank", "atm": "yes", "name": "GCB Bank, Akatsi", "opening_hours": "Mo-Sa 08:30-16:30"}}, {"type": "node", "id": 5331113473, "lat": 5.8964586, "lon": 0.516428, "tags": {"amenity": "bank", "name": "Ada Rural Bank"}}, {"type": "node", "id": 6032339449, "lat": 5.9822705, "lon": 0.6749077, "tags": {"amenity": "bank", "name": "GN Bank"}}, {"type": "node", "id": 6104167653, "lat": 5.9978859, "lon": 0.5935319, "tags": {"amenity": "bank", "brand": "GCB Bank", "brand:wikidata": "Q1521346", "brand:wikipedia": "en:GCB Bank", "name": "GCB Bank"}}, {"type": "node", "id": 8968985701, "lat": 6.2714823, "lon": 0.5684832, "tags": {"amenity": "bank", "name": "August Rural Bank"}}, {"type": "node", "id": 8979633076, "lat": 6.0735697, "lon": 0.5043991, "tags": {"amenity": "bank", "name": "Amuga Rural Bank"}}]}