{"version": 0.6, "generator": "Overpass API 0.7.61.5 4133829e", "osm3s": {"timestamp_osm_base": "2024-03-06T11:16:45Z", "copyright": "The data included in this document is from www.openstreetmap.org. The data is made available under ODbL."}, "elements": [{"type": "node", "id": 2482454903, "lat": 31.1708952, "lon": 45.7442726, "tags": {"alt_name": "\u062c\u0628\u0644", "int_name": "Jabal, Jabal", "is_in": "Iraq , \u062c\u0645\u0647\u0648\u0631\u064a\u0629 \u0627\u0644\u0639\u0631\u0627\u0642", "name": "\u062c\u0628\u0644", "name:ar": "\u062c\u0628\u0644", "name:ar1": "\u062c\u0628\u0644", "name:de": "Jabal", "name:en": "Jabal", "name:fr": "Jabal", "place": "village"}}, {"type": "node", "id": 2482454905, "lat": 31.1700786, "lon": 45.744764, "tags": {"alt_name": "\u062c\u0628\u0631 \u0627\u0644\u062f\u0627\u0648\u0648\u062f", "int_name": "Jabr ad D\u0101w\u016bd, Jabr ad Dawud", "is_in": "Iraq , \u062c\u0645\u0647\u0648\u0631\u064a\u0629 \u0627\u0644\u0639\u0631\u0627\u0642", "name": "\u062c\u0628\u0631 \u0627\u0644\u062f\u0627\u0648\u0648\u062f", "name:ar": "\u062c\u0628\u0631 \u0627\u0644\u062f\u0627\u0648\u0648\u062f", "name:ar1": "\u062c\u0628\u0631 \u0627\u0644\u062f\u0627\u0648\u0648\u062f", "name:de": "Jabr ad Dawud", "name:en": "Jabr ad Dawud", "name:fr": "Jabr ad Dawud", "place": "village"}}, {"type": "node", "id": 2482455011, "lat": 31.1754574, "lon": 45.7197327, "tags": {"alt_name": "\u0627\u0644\u062f\u0631\u0627\u062c\u064a\u0629", "int_name": "Ad Darr\u0101j\u012b, Ad Darr\u0101j\u012byah, Darr\u0101ji, Duradji, Durraji, \u0627\u0644\u062f\u0631\u0627\u062c\u064a\u0629, Ad Darraji, Ad Darrajiyah, Darraji, Duradji, Durraji, \u0627\u0644\u062f\u0631\u0627\u062c\u064a\u0629", "is_in": "Iraq , \u062c\u0645\u0647\u0648\u0631\u064a\u0629 \u0627\u0644\u0639\u0631\u0627\u0642", "name": "\u0627\u0644\u062f\u0631\u0627\u062c\u064a\u0629", "name:ar": "\u0627\u0644\u062f\u0631\u0627\u062c\u064a\u0629", "name:ar1": "\u0627\u0644\u062f\u0631\u0627\u062c\u064a\u0629", "name:de": "Ad Darraji", "name:en": "Ad Darraji", "name:fr": "Ad Darraji", "name:ru": "\u042d\u0434-\u0414\u0430\u0440\u0440\u0430\u0434\u0436\u0438", "place": "village"}}, {"type": "node", "id": 2482457533, "lat": 31.160952, "lon": 45.830443, "tags": {"alt_name": "\u0627\u0644\u062e\u0636\u0631 \u062f\u0631\u0648\u0634", "int_name": "Al Khi\u1e11r Dar\u016bsh, Bust\u0101n Khi\u1e11r Dar\u016bsh, Khidhr Dar\u016bsh, Khi\u1e11r ad D\u0101d\u016bsh, Khidr ad Dard\u0101sh, Khi\u1e11r Dardash, Khi\u1e11r Dar\u016bsh", "is_in": "Iraq , \u062c\u0645\u0647\u0648\u0631\u064a\u0629 \u0627\u0644\u0639\u0631\u0627\u0642", "name": "\u0627\u0644\u062e\u0636\u0631 \u062f\u0631\u0648\u0634", "name:ar": "\u0627\u0644\u062e\u0636\u0631 \u062f\u0631\u0648\u0634", "name:ar1": "\u0627\u0644\u062e\u0636\u0631 \u062f\u0631\u0648\u0634", "name:de": "Al Khidr Darush", "name:en": "Al Khidr Darush", "name:fr": "Al Khidr Darush", "name:ru": "\u0425\u0438\u0434\u0440-\u0414\u0430\u0440\u0434\u0430\u0448", "place": "village"}}, {"type": "node", "id": 2482457536, "lat": 31.150833, "lon": 45.847778, "tags": {"alt_name": "\u0643\u0627\u0638\u0645", "int_name": "K\u0101dhim al Hajpal, K\u0101z\u0327im, Kadhim al Hajpal, Kazim", "is_in": "Iraq , \u062c\u0645\u0647\u0648\u0631\u064a\u0629 \u0627\u0644\u0639\u0631\u0627\u0642", "name": "\u0643\u0627\u0638\u0645", "name:ar": "\u0645\u0636\u064a\u0641 \u0627\u0644\u0634\u064a\u062e \u0639\u0628\u062f \u0639\u0644\u064a \u0627\u0644\u0635\u064a\u0647\u0648\u062f", "name:ar1": "\u0643\u0627\u0638\u0645", "name:de": "Kadhim al Hajpal", "name:en": "Kadhim al Hajpal", "name:fr": "Kadhim al Hajpal", "place": "village"}}, {"type": "node", "id": 2482457574, "lat": 31.148695, "lon": 45.854607, "tags": {"alt_name": "\u0627\u0644\u0632\u0648\u064a\u0629", "int_name": "Az Zaw\u012byah, \u0627\u0644\u0632\u0648\u064a\u0629, Az Zawiyah, \u0627\u0644\u0632\u0648\u064a\u0629", "is_in": "Iraq , \u062c\u0645\u0647\u0648\u0631\u064a\u0629 \u0627\u0644\u0639\u0631\u0627\u0642", "name": "\u0627\u0644\u0632\u0648\u064a\u0629", "name:ar": "\u0627\u0644\u0632\u0648\u064a\u0629 \u0627\u0644 \u062d\u0631\u0629", "name:ar1": "\u0627\u0644\u0632\u0648\u064a\u0629", "name:de": "Az Zawiyah", "name:en": "Az Zawiyah", "name:fr": "Az Zawiyah", "place": "village"}}, {"type": "node", "id": 2482457576, "lat": 31.153241, "lon": 45.857328, "tags": {"alt_name": "\u063a\u0627\u0644\u064a \u0627\u0644\u0628\u0637\u0648\u0634", "int_name": "Ch\u0101li al Bat\u012bsh, Gh\u0101l\u012b, Gh\u0101li al Bat\u012bsh, Gh\u0101l\u012b al Ba\u0163\u016bsh, \u063a\u0627\u0644\u064a \u0627\u0644\u0628\u0637\u0648\u0634, Chali al Batish, Ghali, Ghali al Batish, Ghali al Batush, \u063a\u0627\u0644\u064a \u0627\u0644\u0628\u0637\u0648\u0634", "is_in": "Iraq , \u062c\u0645\u0647\u0648\u0631\u064a\u0629 \u0627\u0644\u0639\u0631\u0627\u0642", "name": "\u063a\u0627\u0644\u064a \u0627\u0644\u0628\u0637\u0648\u0634", "name:ar": "\u0635\u0648\u0631 \u0627\u0644\u062c\u0632\u064a\u0631\u0629", "name:ar1": "\u063a\u0627\u0644\u064a \u0627\u0644\u0628\u0637\u0648\u0634", "name:de": "Chali al Batish", "name:en": "Chali al Batish", "name:fr": "Chali al Batish", "place": "village"}}, {"type": "node", "id": 2482458121, "lat": 31.1193989, "lon": 45.8757273, "tags": {"alt_name": "Al Ba\u0163\u1e29\u0101, Al Ba\u0163\u1e29ah, Bat ha, \u0627\u0644\u0628\u0637\u062d\u0629, Al Batha, Al Bathah, Bat ha, \u0627\u0644\u0628\u0637\u062d\u0629", "capital": "7", "int_name": "Al Batha", "is_in": "Iraq , \u062c\u0645\u0647\u0648\u0631\u064a\u0629 \u0627\u0644\u0639\u0631\u0627\u0642", "is_in:country": "Iraq", "is_in:country_code": "IQ", "name": "\u0627\u0644\u0628\u0637\u062d\u0627\u0621", "name:ar": "\u0627\u0644\u0628\u0637\u062d\u0627\u0621", "name:de": "Al Batha", "name:en": "Al Batha", "name:fr": "Al Batha", "name:ru": "\u042d\u043b\u044c-\u0411\u0430\u0442\u0445\u0430", "nat_name": "\u0627\u0644\u0628\u0637\u062d\u0627", "place": "town"}}, {"type": "node", "id": 2482458129, "lat": 31.124954, "lon": 45.827025, "tags": {"alt_name": "\u0623\u0645 \u0627\u0644\u0638\u0631\u064a\u0637\u0629", "int_name": "Umm az\u0327 Z\u0327uray\u0163ah, \u0627\u0645 \u0627\u0644\u0638\u0631\u064a\u0637\u0629, Umm az Zuraytah, \u0627\u0645 \u0627\u0644\u0638\u0631\u064a\u0637\u0629", "is_in": "Iraq , \u062c\u0645\u0647\u0648\u0631\u064a\u0629 \u0627\u0644\u0639\u0631\u0627\u0642", "name": "\u0623\u0645 \u0627\u0644\u0638\u0631\u064a\u0637\u0629", "name:ar": "\u0627\u0644\u0634\u0645\u062e\u0627\u0646\u064a\u0647", "name:ar1": "\u0623\u0645 \u0627\u0644\u0638\u0631\u064a\u0637\u0629", "name:de": "Umm az Zuraytah", "name:en": "Umm az Zuraytah", "name:fr": "Umm az Zuraytah", "place": "village"}}, {"type": "node", "id": 2482458779, "lat": 31.112459, "lon": 45.909405, "tags": {"alt_name": "\u0641\u0631\u062d\u0627\u0646 \u062c\u062c\u0627\u064a", "int_name": "Far\u1e29\u0101n Jij\u0101y, \u0641\u0631\u062d\u0627\u0646 \u062c\u062c\u0627\u064a, Farhan Jijay, \u0641\u0631\u062d\u0627\u0646 \u062c\u062c\u0627\u064a", "is_in": "Iraq , \u062c\u0645\u0647\u0648\u0631\u064a\u0629 \u0627\u0644\u0639\u0631\u0627\u0642", "name": "\u0641\u0631\u062d\u0627\u0646 \u0628\u062c\u0627\u064a", "name:ar": "\u0641\u0631\u062d\u0627\u0646 \u062c\u062c\u0627\u064a", "name:ar1": "\u0641\u0631\u062d\u0627\u0646 \u062c\u062c\u0627\u064a", "name:de": "Farhan Jijay", "name:en": "Farhan Jijay", "name:fr": "Farhan Jijay", "place": "village"}}, {"type": "node", "id": 2482465541, "lat": 31.096781, "lon": 46.091256, "tags": {"alt_name": "\u0627\u0644\u0628\u062f\u0648\u0631", "int_name": "Al Bud\u016br, \u0627\u0644\u0628\u062f\u0648\u0631, Al Budur, \u0627\u0644\u0628\u062f\u0648\u0631", "is_in": "Iraq , \u062c\u0645\u0647\u0648\u0631\u064a\u0629 \u0627\u0644\u0639\u0631\u0627\u0642", "name": "\u0627\u0644\u0628\u062f\u0648\u0631", "name:ar": "\u0642\u0628\u064a\u0644\u0629 \u0627\u0644\u0628\u062f\u0648\u0631", "name:ar1": "\u0627\u0644\u0628\u062f\u0648\u0631", "name:de": "Al Budur", "name:en": "Al Budur", "name:fr": "Al Budur", "place": "village"}}, {"type": "node", "id": 2487757283, "lat": 31.190826, "lon": 45.593672, "tags": {"alt_name": "\u0623\u0628\u0648 \u062f\u064a\u0634\u0629", "int_name": "Ab\u016b D\u012bshah, \u0627\u0628\u0648 \u062f\u064a\u0634\u0629, Abu Dishah, \u0627\u0628\u0648 \u062f\u064a\u0634\u0629", "is_in": "Iraq , \u062c\u0645\u0647\u0648\u0631\u064a\u0629 \u0627\u0644\u0639\u0631\u0627\u0642", "name": "\u0623\u0628\u0648 \u062f\u064a\u0634\u0629", "name:ar": "\u0623\u0628\u0648 \u0631\u064a\u0634\u0629", "name:ar1": "\u0623\u0628\u0648 \u062f\u064a\u0634\u0629", "name:de": "Abu Dishah", "name:en": "Abu Dishah", "name:fr": "Abu Dishah", "place": "village"}}]}