{"version": 0.6, "generator": "Overpass API 0.7.61.5 4133829e", "osm3s": {"timestamp_osm_base": "2024-03-06T11:10:29Z", "copyright": "The data included in this document is from www.openstreetmap.org. The data is made available under ODbL."}, "elements": [{"type": "node", "id": 4591129990, "lat": 35.0287106, "lon": 40.4357986, "tags": {"amenity": "pharmacy", "name": "\u0627\u0644\u062a\u0642\u0648\u0649 \u0645\u064a\u0627\u062f\u064a\u0646", "name:ar": "\u0627\u0644\u062a\u0642\u0648\u0649 \u0645\u064a\u0627\u062f\u064a\u0646"}}, {"type": "node", "id": 5866213986, "lat": 34.7789959, "lon": 40.7217991, "tags": {"addr:street": "\u0634\u0627\u0631\u0639 \u0627\u0644\u0639\u0627\u0645 \u060c \u0628\u0646\u0635\u0641 \u0627\u0644\u0633\u0648\u0642", "amenity": "pharmacy", "name": "\u0635\u064a\u062f\u0644\u064a\u0629 \u063a\u0631\u0627\u0646\u064a\u062c", "opening_hours": "24/7"}}, {"type": "node", "id": 6545480586, "lat": 34.7754618, "lon": 40.7241923, "tags": {"amenity": "doctors", "name": "\u0637\u0628\u064a\u0628", "name:en": "Doktor"}}, {"type": "node", "id": 7131174385, "lat": 34.8374065, "lon": 40.6524625, "tags": {"addr:street": "\u0627\u0644\u0635\u0646\u0648\u0631", "amenity": "pharmacy", "email": "kabel.4156@gmail.com", "name": "\u0645\u0633\u062a\u0648\u062f\u0639 \u0627\u0644\u0631\u0633\u0627\u0644\u0629 \u0644\u0644\u0627\u0643\u0633\u0633\u0648\u0627\u0631\u0627\u062a \u0648\u0627\u0644\u062a\u062c\u0647\u064a\u0632\u0627\u062a \u0627\u0644\u0637\u0628\u064a\u0629", "opening_hours": "Sa-Th 09:00-18:00", "phone": "+963998170023", "website": "https://alrsala0.blogspot.com/"}}, {"type": "node", "id": 8325079758, "lat": 35.1042584, "lon": 40.4548883, "tags": {"amenity": "clinic"}}, {"type": "node", "id": 10103705076, "lat": 34.8673764, "lon": 40.5623483, "tags": {"amenity": "pharmacy", "dispensing": "yes", "drive_through": "no", "healthcare": "pharmacy", "name": "Dablan"}}, {"type": "node", "id": 10659761605, "lat": 34.8495391, "lon": 40.6009794, "tags": {"amenity": "clinic", "name": "\u0645\u0633\u062a\u0634\u0641\u0649 \u0645\u062f\u064a\u0646\u0629 \u0635\u0628\u064a\u062e\u0627\u0646", "name:en": "Subaykhan Hospital"}}]}