{"version": 0.6, "generator": "Overpass API 0.7.61.5 4133829e", "osm3s": {"timestamp_osm_base": "2024-03-06T10:45:02Z", "copyright": "The data included in this document is from www.openstreetmap.org. The data is made available under ODbL."}, "elements": [{"type": "node", "id": 348119666, "lat": 32.0165761, "lon": 44.3857998, "tags": {"amenity": "school", "name": "kifaah", "name:ar": "\u0645\u062f\u0631\u0633\u0629 \u0627\u0644\u0643\u0641\u0627\u062d"}}, {"type": "node", "id": 2479289198, "lat": 32.125227, "lon": 44.546668, "tags": {"alt_name": "\u0645\u062f\u0631\u0633\u0629 \u0627\u0644\u063a\u0632\u0627\u0644\u064a", "amenity": "school", "int_name": "Madrasat al Ghaz\u0101l\u012b, \u0645\u062f\u0631\u0633\u0629 \u0627\u0644\u063a\u0632\u0627\u0644\u064a, Madrasat al Ghazali, \u0645\u062f\u0631\u0633\u0629 \u0627\u0644\u063a\u0632\u0627\u0644\u064a", "name": "\u0645\u062f\u0631\u0633\u0629 \u0627\u0644\u063a\u0632\u0627\u0644\u064a", "name:ar": "\u0645\u062f\u0631\u0633\u0629 \u0627\u0644\u063a\u0632\u0627\u0644\u064a", "name:ar1": "\u0645\u062f\u0631\u0633\u0629 \u0627\u0644\u063a\u0632\u0627\u0644\u064a", "name:de": "Madrasat al Ghazali", "name:en": "Madrasat al Ghazali", "name:fr": "Madrasat al Ghazali"}}, {"type": "node", "id": 2479289201, "lat": 32.116138, "lon": 44.552215, "tags": {"alt_name": "\u0645\u062f\u0631\u0633\u0629 \u0627\u0644\u0645\u0633\u062a\u0642\u0628\u0644 \u0627\u0644\u0625\u0628\u062a\u062f\u0627\u0626\u064a\u0629", "amenity": "school", "int_name": "Madrasat al Mustaqbal al Ibtid\u0101\u012byah, \u0645\u062f\u0631\u0633\u0629 \u0627\u0644\u0645\u0633\u062a\u0642\u0628\u0644 \u0627\u0644\u0627\u0628\u062a\u062f\u0627\u0626\u064a\u0629, Madrasat al Mustaqbal al Ibtidaiyah, \u0645\u062f\u0631\u0633\u0629 \u0627\u0644\u0645\u0633\u062a\u0642\u0628\u0644 \u0627\u0644\u0627\u0628\u062a\u062f\u0627\u0626\u064a\u0629", "name": "\u0645\u062f\u0631\u0633\u0629 \u0627\u0644\u0645\u0633\u062a\u0642\u0628\u0644 \u0627\u0644\u0625\u0628\u062a\u062f\u0627\u0626\u064a\u0629", "name:ar": "\u0645\u062f\u0631\u0633\u0629 \u0627\u0644\u0645\u0633\u062a\u0642\u0628\u0644 \u0627\u0644\u0625\u0628\u062a\u062f\u0627\u0626\u064a\u0629", "name:ar1": "\u0645\u062f\u0631\u0633\u0629 \u0627\u0644\u0645\u0633\u062a\u0642\u0628\u0644 \u0627\u0644\u0625\u0628\u062a\u062f\u0627\u0626\u064a\u0629", "name:de": "Madrasat al Mustaqbal al Ibtidaiyah", "name:en": "Madrasat al Mustaqbal al Ibtidaiyah", "name:fr": "Madrasat al Mustaqbal al Ibtidaiyah"}}, {"type": "node", "id": 2479293278, "lat": 32.118573, "lon": 44.532622, "tags": {"alt_name": "\u0645\u062f\u0631\u0633\u0629 \u0627\u0644\u0639\u064a\u0648\u0646", "amenity": "school", "int_name": "Madrasat al Uy\u016bn, \u0645\u062f\u0631\u0633\u0629 \u0627\u0644\u0639\u064a\u0648\u0646, Madrasat al Uyun, \u0645\u062f\u0631\u0633\u0629 \u0627\u0644\u0639\u064a\u0648\u0646", "name": "\u0645\u062f\u0631\u0633\u0629 \u0627\u0644\u0639\u064a\u0648\u0646", "name:ar": "\u0645\u062f\u0631\u0633\u0629 \u0627\u0644\u0639\u064a\u0648\u0646", "name:ar1": "\u0645\u062f\u0631\u0633\u0629 \u0627\u0644\u0639\u064a\u0648\u0646", "name:de": "Madrasat al Uyun", "name:en": "Madrasat al Uyun", "name:fr": "Madrasat al Uyun"}}, {"type": "node", "id": 2485431141, "lat": 32.042802, "lon": 44.538596, "tags": {"alt_name": "\u0645\u062f\u0631\u0633\u0629 \u0637\u0648\u0644 \u0643\u0631\u0645", "amenity": "school", "int_name": "Madrasat \u0162\u016bl Karam, \u0645\u062f\u0631\u0633\u0629 \u0637\u0648\u0644 \u0643\u0631\u0645, Madrasat Tul Karam, \u0645\u062f\u0631\u0633\u0629 \u0637\u0648\u0644 \u0643\u0631\u0645", "name": "\u0645\u062f\u0631\u0633\u0629 \u0637\u0648\u0644 \u0643\u0631\u0645", "name:ar": "\u0645\u062f\u0631\u0633\u0629 \u0637\u0648\u0644 \u0643\u0631\u0645", "name:ar1": "\u0645\u062f\u0631\u0633\u0629 \u0637\u0648\u0644 \u0643\u0631\u0645", "name:de": "Madrasat Tul Karam", "name:en": "Madrasat Tul Karam", "name:fr": "Madrasat Tul Karam"}}, {"type": "node", "id": 2485436975, "lat": 32.054912, "lon": 44.513515, "tags": {"alt_name": "\u0645\u062f\u0631\u0633\u0629 \u0627\u0644\u0645\u0639\u0631\u064a \u0627\u0644\u0625\u0628\u062a\u062f\u0627\u0626\u064a\u0629", "amenity": "school", "int_name": "Madrasat al Maarr\u012b al Ibtid\u0101\u012byah, \u0645\u062f\u0631\u0633\u0629 \u0627\u0644\u0645\u0639\u0631\u064a \u0627\u0644\u0627\u0628\u062a\u062f\u0627\u0626\u064a\u0629, Madrasat al Maarri al Ibtidaiyah, \u0645\u062f\u0631\u0633\u0629 \u0627\u0644\u0645\u0639\u0631\u064a \u0627\u0644\u0627\u0628\u062a\u062f\u0627\u0626\u064a\u0629", "name": "\u0645\u062f\u0631\u0633\u0629 \u0627\u0644\u0645\u0639\u0631\u064a \u0627\u0644\u0625\u0628\u062a\u062f\u0627\u0626\u064a\u0629", "name:ar": "\u0645\u062f\u0631\u0633\u0629 \u0627\u0644\u0645\u0639\u0631\u064a \u0627\u0644\u0625\u0628\u062a\u062f\u0627\u0626\u064a\u0629", "name:ar1": "\u0645\u062f\u0631\u0633\u0629 \u0627\u0644\u0645\u0639\u0631\u064a \u0627\u0644\u0625\u0628\u062a\u062f\u0627\u0626\u064a\u0629", "name:de": "Madrasat al Maarri al Ibtidaiyah", "name:en": "Madrasat al Maarri al Ibtidaiyah", "name:fr": "Madrasat al Maarri al Ibtidaiyah"}}, {"type": "node", "id": 2485438339, "lat": 32.024896, "lon": 44.520399, "tags": {"alt_name": "\u0645\u062f\u0631\u0633\u0629 \u0627\u0644\u0631\u062d\u064a\u0644\u0629", "amenity": "school", "int_name": "Madrasat ar Ra\u1e29\u012blah, \u0645\u062f\u0631\u0633\u0629 \u0627\u0644\u0631\u062d\u064a\u0644\u0629, Madrasat ar Rahilah, \u0645\u062f\u0631\u0633\u0629 \u0627\u0644\u0631\u062d\u064a\u0644\u0629", "name": "\u0645\u062f\u0631\u0633\u0629 \u0627\u0644\u0631\u062d\u064a\u0644\u0629", "name:ar": "\u0645\u062f\u0631\u0633\u0629 \u0627\u0644\u0631\u062d\u064a\u0644\u0629", "name:ar1": "\u0645\u062f\u0631\u0633\u0629 \u0627\u0644\u0631\u062d\u064a\u0644\u0629", "name:de": "Madrasat ar Rahilah", "name:en": "Madrasat ar Rahilah", "name:fr": "Madrasat ar Rahilah"}}, {"type": "node", "id": 2485441048, "lat": 32.074683, "lon": 44.541079, "tags": {"alt_name": "\u0645\u062f\u0631\u0633\u0629 \u062d\u0632\u064a\u0631\u0627\u0646", "amenity": "school", "int_name": "Madrasat \u1e28uzayr\u0101n, \u0645\u062f\u0631\u0633\u0629 \u062d\u0632\u064a\u0631\u0627\u0646, Madrasat Huzayran, \u0645\u062f\u0631\u0633\u0629 \u062d\u0632\u064a\u0631\u0627\u0646", "name": "\u0645\u062f\u0631\u0633\u0629 \u062d\u0632\u064a\u0631\u0627\u0646", "name:ar": "\u0645\u062f\u0631\u0633\u0629 \u062d\u0632\u064a\u0631\u0627\u0646", "name:ar1": "\u0645\u062f\u0631\u0633\u0629 \u062d\u0632\u064a\u0631\u0627\u0646", "name:de": "Madrasat Huzayran", "name:en": "Madrasat Huzayran", "name:fr": "Madrasat Huzayran"}}, {"type": "node", "id": 2485441049, "lat": 32.086119, "lon": 44.539588, "tags": {"alt_name": "\u0645\u062f\u0631\u0633\u0629 \u0627\u0644\u062e\u0627\u0641\u0642\u064a", "amenity": "school", "int_name": "Madrasat al Kh\u0101fiq\u012b, \u0645\u062f\u0631\u0633\u0629 \u0627\u0644\u062e\u0627\u0641\u0642\u064a, Madrasat al Khafiqi, \u0645\u062f\u0631\u0633\u0629 \u0627\u0644\u062e\u0627\u0641\u0642\u064a", "name": "\u0645\u062f\u0631\u0633\u0629 \u0627\u0644\u062e\u0627\u0641\u0642\u064a", "name:ar": "\u0645\u062f\u0631\u0633\u0629 \u0627\u0644\u062e\u0627\u0641\u0642\u064a", "name:ar1": "\u0645\u062f\u0631\u0633\u0629 \u0627\u0644\u062e\u0627\u0641\u0642\u064a", "name:de": "Madrasat al Khafiqi", "name:en": "Madrasat al Khafiqi", "name:fr": "Madrasat al Khafiqi"}}, {"type": "node", "id": 3937798486, "lat": 32.0302362, "lon": 44.3812682, "tags": {"amenity": "school", "name": "\u062b\u0627\u0646\u0648\u064a\u0629 \u0634\u0637 \u0627\u0644\u0639\u0631\u0628"}}, {"type": "node", "id": 3937812505, "lat": 32.03065, "lon": 44.3822928, "tags": {"amenity": "school", "name": "\u0645\u062a\u0648\u0633\u0637\u0629 \u0627\u0644\u0633\u0647\u0644\u0629"}}, {"type": "node", "id": 3937842343, "lat": 32.0422955, "lon": 44.4127145, "tags": {"amenity": "school", "name": "Hammurabi secondary school"}}, {"type": "node", "id": 4127280690, "lat": 31.9898073, "lon": 44.321411, "tags": {"amenity": "school", "name": "\u0627\u0644\u0645\u062f\u0631\u0633\u0629 \u0627\u0644\u0627\u062d\u0633\u0627\u0626\u064a\u0629"}}, {"type": "node", "id": 4138054696, "lat": 32.0094412, "lon": 44.3327394, "tags": {"amenity": "school", "name": "\u062d\u0648\u0632\u0629 \u0628\u0646\u062a \u0627\u0644\u0647\u062f\u0649"}}, {"type": "node", "id": 4374474405, "lat": 32.002339, "lon": 44.3360284, "tags": {"amenity": "school", "name": "\u062c\u0627\u0645\u0639\u0629 \u0627\u0644\u0646\u062c\u0641 \u0627\u0644\u0627\u0634\u0631\u0641 \u0627\u0644\u062f\u064a\u0646\u064a\u0629", "name:ar": "\u062c\u0627\u0645\u0639\u0629 \u0627\u0644\u0646\u062c\u0641 \u0627\u0644\u0627\u0634\u0631\u0641 \u0627\u0644\u062f\u064a\u0646\u064a\u0629", "name:en": "Najaf Al-Ashraf Religious University", "name:ru": "\u0420\u0435\u043b\u0438\u0433\u0438\u043e\u0437\u043d\u044b\u0439 \u0443\u043d\u0438\u0432\u0435\u0440\u0441\u0438\u0442\u0435\u0442 \u041d\u0430\u0434\u0436\u0430\u0444\u0430 \u0410\u043b\u044c-\u0410\u0448\u0440\u0430\u0444\u0430"}}, {"type": "node", "id": 4403802894, "lat": 32.0138513, "lon": 44.3433834, "tags": {"amenity": "school", "name": "\u0645\u062f\u0631\u0633\u0629 \u0627\u0644\u0642\u062d\u0637\u0627\u0646\u064a\u0629-\u0627\u0644\u062a\u064a\u0633\u064a\u0631", "name:ar": "\u0645\u062f\u0631\u0633\u0629 \u0627\u0644\u0642\u062d\u0637\u0627\u0646\u064a\u0629-\u0627\u0644\u062a\u064a\u0633\u064a\u0631"}}, {"type": "node", "id": 4403806694, "lat": 32.0134779, "lon": 44.3460216, "tags": {"amenity": "school", "name": "\u0645\u062f\u0631\u0633\u0629 \u0645\u0635\u0637\u0641\u0649 \u062c\u0645\u0627\u0644 \u0627\u0644\u062f\u064a\u0646", "name:ar": "\u0645\u062f\u0631\u0633\u0629 \u0645\u0635\u0637\u0641\u0649 \u062c\u0645\u0627\u0644 \u0627\u0644\u062f\u064a\u0646"}}, {"type": "node", "id": 4403806793, "lat": 32.013849, "lon": 44.3467752, "tags": {"amenity": "school", "name": "\u0627\u0639\u062f\u0627\u062f\u064a\u0629 \u0627\u0644\u0627\u0645\u0627\u0645 \u0627\u0644\u062d\u0633\u064a\u0646", "name:ar": "\u0627\u0639\u062f\u0627\u062f\u064a\u0629 \u0627\u0644\u0627\u0645\u0627\u0645 \u0627\u0644\u062d\u0633\u064a\u0646"}}, {"type": "node", "id": 4403826589, "lat": 32.0124929, "lon": 44.347489, "tags": {"amenity": "school", "name": "\u0645\u0639\u0647\u062f \u0627\u0644\u0645\u0639\u0644\u0645\u064a\u0646 \u0648\u0627\u0644\u0643\u0644\u064a\u0629 \u0627\u0644\u0645\u0641\u062a\u0648\u062d\u0629", "name:ar": "\u0645\u0639\u0647\u062f \u0627\u0644\u0641\u0646\u0648\u0646 \u0627\u0644\u062c\u0645\u064a\u0644\u0629 \u0644\u0644\u0628\u0646\u064a\u0646/ \u0627\u0644\u0646\u062c\u0641 \u0627\u0644\u0623\u0634\u0631\u0641"}}, {"type": "node", "id": 4408499718, "lat": 32.0196396, "lon": 44.3952249, "tags": {"amenity": "school", "name": "\u0645\u062f\u0631\u0633\u0629 \u0645\u0643\u0629 \u0627\u0644\u0645\u0643\u0631\u0645\u0629", "name:ar": "\u0645\u062f\u0631\u0633\u0629 \u0645\u0643\u0629 \u0627\u0644\u0645\u0643\u0631\u0645\u0629"}}, {"type": "node", "id": 4423311889, "lat": 32.0181258, "lon": 44.3457936, "tags": {"amenity": "school", "name": "\u062b\u0627\u0646\u0648\u064a\u0629 \u0627\u0628\u0646 \u0633\u064a\u0646\u0627 \u0627\u0644\u0627\u0647\u0644\u064a\u0629", "name:ar": "\u062b\u0627\u0646\u0648\u064a\u0629 \u0627\u0628\u0646 \u0633\u064a\u0646\u0627 \u0627\u0644\u0627\u0647\u0644\u064a\u0629"}}, {"type": "node", "id": 4423311892, "lat": 32.0176402, "lon": 44.3418379, "tags": {"amenity": "school", "name": "\u0645\u062f\u0631\u0633\u0629 \u0627\u0644\u0627\u062c\u064a\u0627\u0644", "name:ar": "\u0645\u062f\u0631\u0633\u0629 \u0627\u0644\u0627\u062c\u064a\u0627\u0644"}}, {"type": "node", "id": 4438340790, "lat": 32.0371978, "lon": 44.3298533, "tags": {"amenity": "school", "name": "\u0627\u0644\u0645\u062a\u0645\u064a\u0632\u064a\u0646", "name:ar": "\u062b\u0627\u0646\u0648\u064a\u0629 \u0627\u0644\u0645\u062a\u0645\u064a\u0632\u064a\u0646 \u0644\u0644\u0628\u0646\u064a\u0646", "name:en": "AlMutamayzeen High school", "opening_hours": "Su-Th 08:00-13:00"}}, {"type": "node", "id": 4439781091, "lat": 32.0275868, "lon": 44.3936123, "tags": {"addr:street": "25", "amenity": "school", "name": "\u062b\u0627\u0646\u0648\u064a\u0629 \u0627\u0644\u0646\u062c\u0648\u0645 \u0627\u0644\u0627\u0647\u0644\u064a\u0629", "name:ar": "\u0645\u062f\u0627\u0631\u0633 \u0627\u0644\u0646\u062c\u0648\u0645 \u0627\u0644\u0627\u0647\u0644\u064a\u0629", "name:en": "Al-Noujoum private school"}}, {"type": "node", "id": 4446306889, "lat": 32.042657, "lon": 44.4099993, "tags": {"amenity": "school", "name": "\u0645\u062f\u0631\u0633\u0629 \u0639\u0645\u0627\u0631 \u0628\u0646 \u064a\u0627\u0633\u0631 \u0627\u0644\u0627\u0628\u062a\u062f\u0627\u0626\u064a\u0629", "name:ar": "\u0645\u062f\u0631\u0633\u0629 \u0639\u0645\u0627\u0631 \u0628\u0646 \u064a\u0627\u0633\u0631 \u0627\u0644\u0627\u0628\u062a\u062f\u0627\u0626\u064a\u0629"}}, {"type": "node", "id": 4446834889, "lat": 32.0073, "lon": 44.3432274, "tags": {"amenity": "school", "name": "\u0645\u0631\u0643\u0632 \u0627\u0642\u0631\u0623", "name:ar": "\u0645\u0631\u0643\u0632 \u0627\u0642\u0631\u0623", "name:en": "markaz iqra", "name:ku": "\u0645\u0631\u0643\u0632 \u0627\u0642\u0631\u0623", "opening_hours": "Fr-We 08:00-12:00, 15:00-21:00"}}, {"type": "node", "id": 4446838990, "lat": 32.0010815, "lon": 44.3444198, "tags": {"amenity": "school", "name": "\u0627\u0644\u0641\u0631\u0627\u0647\u064a\u062f\u064a \u0627\u0644\u0627\u0647\u0644\u064a\u0629", "name:ar": "\u0627\u0644\u0641\u0631\u0627\u0647\u064a\u062f\u064a \u0627\u0644\u0627\u0647\u0644\u064a\u0629", "name:ku": "\u0627\u0644\u0641\u0631\u0627\u0647\u064a\u062f\u064a \u0627\u0644\u0627\u0647\u0644\u064a\u0629"}}, {"type": "node", "id": 4446920496, "lat": 32.0263718, "lon": 44.3310292, "tags": {"amenity": "school", "name": "future", "name:ar": "future", "name:en": "\u0627\u0644\u0645\u0633\u062a\u0642\u0628\u0644"}}, {"type": "node", "id": 4500123891, "lat": 32.0259576, "lon": 44.3427145, "tags": {"amenity": "school", "name": "\u062b\u0627\u0646\u0648\u064a\u0629 \u0627\u0644\u0627\u0645\u0627\u0645 \u0639\u0644\u064a \u0627\u0644\u0627\u0647\u0644\u064a\u0629 \u0644\u0644\u0628\u0646\u064a\u0646", "name:ar": "\u062b\u0627\u0646\u0648\u064a\u0629 \u0627\u0644\u0627\u0645\u0627\u0645 \u0639\u0644\u064a \u0627\u0644\u0627\u0647\u0644\u064a\u0629 \u0644\u0644\u0628\u0646\u064a\u0646", "name:en": "Al Imam Ali Private Schools"}}, {"type": "node", "id": 4500123892, "lat": 32.0334568, "lon": 44.3786815, "tags": {"amenity": "school", "name": "\u0645\u062a\u0648\u0633\u0637\u0629 \u0627\u0644\u0627\u0645\u0627\u0645 \u0632\u064a\u0646 \u0627\u0644\u0639\u0627\u0628\u062f\u064a\u0646 \u0639\u0644\u064a\u0647 \u0627\u0644\u0633\u0644\u0627\u0645", "name:ar": "\u0645\u062a\u0648\u0633\u0637\u0629 \u0627\u0644\u0627\u0645\u0627\u0645 \u0632\u064a\u0646 \u0627\u0644\u0639\u0627\u0628\u062f\u064a\u0646 \u0639\u0644\u064a\u0647 \u0627\u0644\u0633\u0644\u0627\u0645", "name:en": "Al Imam Zain Al Abedeen Intermediate school"}}, {"type": "node", "id": 4518973090, "lat": 31.9932335, "lon": 44.3412941, "tags": {"amenity": "school", "name": "\u0645\u062f\u0631\u0633\u0629 \u062f\u0639\u0628\u0644 \u0627\u0644\u062e\u064f\u0632\u0627\u0639\u064a \u0627\u0644\u0627\u0628\u062a\u062f\u0627\u0626\u064a\u0647", "name:ar": "\u0645\u062f\u0631\u0633\u0629 \u062f\u0639\u0628\u0644 \u0627\u0644\u062e\u064f\u0632\u0627\u0639\u064a \u0627\u0644\u0627\u0628\u062a\u062f\u0627\u0626\u064a\u0647"}}, {"type": "node", "id": 4541761391, "lat": 31.9827177, "lon": 44.3433915, "tags": {"amenity": "school", "name:en": "Imam Ali school \u0645\u062f\u0631\u0633\u0629 \u0627\u0644\u0627\u0645\u0627\u0645 \u0639\u0644\u064a \u0639\u0644\u064a\u0647 \u0627\u0644\u0633\u0644\u0627\u0645 \u0627\u0644\u062f\u064a\u0646\u064a\u0629"}}, {"type": "node", "id": 4548159702, "lat": 32.0696243, "lon": 44.3401195, "tags": {"amenity": "school", "name": "\u0645\u062f\u0631\u0633\u0629 \u0630\u0627\u062a \u0627\u0644\u0633\u0644\u0627\u0633\u0644", "name:ar": "\u0645\u062f\u0631\u0633\u0629 \u0630\u0627\u062a \u0627\u0644\u0633\u0644\u0627\u0633\u0644"}}, {"type": "node", "id": 4548159703, "lat": 32.0696866, "lon": 44.3400869, "tags": {"amenity": "school", "name": "\u0645\u062f\u0631\u0633\u0629 \u0627\u0644\u0645\u0646\u0630\u0631\u064a\u0629", "name:ar": "\u0645\u062f\u0631\u0633\u0629 \u0627\u0644\u0645\u0646\u0630\u0631\u064a\u0629"}}, {"type": "node", "id": 4703846283, "lat": 31.8024, "lon": 44.48786, "tags": {"amenity": "school", "name": "\u0645\u062a\u0648\u0633\u0637\u0629 \u0627\u0644\u0645\u0634\u062e\u0627\u0628 \u0644\u0644\u0628\u0646\u064a\u0646"}}, {"type": "node", "id": 4703935618, "lat": 31.8019092, "lon": 44.4885099, "tags": {"amenity": "school", "name": "\u0645\u062f\u0631\u0633\u0629 \u0627\u0644\u0642\u0628\u0633 \u0648\u0627\u0644\u0645\u0646\u0627\u0631 \u0627\u0644\u0623\u0628\u062a\u062f\u0627\u0626\u064a\u0629 \u0644\u0644\u0628\u0646\u0627\u062a"}}, {"type": "node", "id": 4723670593, "lat": 32.0131959, "lon": 44.3673231, "tags": {"amenity": "school", "name": "\u062b\u0627\u0646\u0648\u064a\u0629 \u0627\u0644\u0648\u0627\u062f\u064a \u0627\u0644\u0645\u0642\u062f\u0633", "name:ar": "\u062b\u0627\u0646\u0648\u064a\u0629 \u0627\u0644\u0648\u0627\u062f\u064a \u0627\u0644\u0645\u0642\u062f\u0633"}}, {"type": "node", "id": 4746284527, "lat": 32.0492964, "lon": 44.3625064, "tags": {"amenity": "school", "name": "\u0645\u062f\u0631\u0633\u0629 \u0631\u0634\u064a\u062f \u0627\u0644\u0647\u062c\u0631\u064a", "name:ar": "\u0645\u062f\u0631\u0633\u0629 \u0631\u0634\u064a\u062f \u0627\u0644\u0647\u062c\u0631\u064a"}}, {"type": "node", "id": 4746294522, "lat": 32.061, "lon": 44.3602, "tags": {"amenity": "school", "name": "\u0645\u062f\u0631\u0633\u0629 \u0637\u0648\u0639\u0629 \u0644\u0644\u0628\u0646\u0627\u062a", "name:ar": "\u0645\u062f\u0631\u0633\u0629 \u0637\u0648\u0639\u0629 \u0644\u0644\u0628\u0646\u0627\u062a"}}, {"type": "node", "id": 4746848725, "lat": 32.0489781, "lon": 44.3765165, "tags": {"amenity": "school", "name": "\u0645\u062f\u0631\u0633\u0629 \u0627\u0644\u0646\u0639\u064a\u0645", "name:ar": "\u0645\u062f\u0631\u0633\u0629 \u0627\u0644\u0646\u0639\u064a\u0645"}}, {"type": "node", "id": 4746868221, "lat": 32.0498627, "lon": 44.3680025, "tags": {"amenity": "school", "name": "\u0627\u0639\u062f\u0627\u062f\u064a\u0629 \u0645\u064a\u0633\u0627\u0646 \u0644\u0644\u0628\u0646\u064a\u0646", "name:ar": "\u0627\u0639\u062f\u0627\u062f\u064a\u0629 \u0645\u064a\u0633\u0627\u0646 \u0644\u0644\u0628\u0646\u064a\u0646"}}, {"type": "node", "id": 4797003940, "lat": 32.0202541, "lon": 44.3899381, "tags": {"amenity": "school", "name": "\u0645\u062a\u0648\u0633\u0637\u0629 \u0645\u0638\u0631 \u0627\u0644\u062c\u0646\u0627\u0628\u064a \u0644\u0644\u0628\u0646\u0627\u062a"}}, {"type": "node", "id": 4797003941, "lat": 32.0201231, "lon": 44.3895478, "tags": {"amenity": "school", "name": "\u0645\u062f\u0631\u0633\u0629 \u0641\u0636\u0629 \u0644\u0644\u0628\u0646\u0627\u062a"}}, {"type": "node", "id": 4797003942, "lat": 32.0211779, "lon": 44.39167, "tags": {"amenity": "school", "name": "\u0631\u0648\u0636\u0629 \u0627\u0644\u0632\u0647\u0648\u0631"}}, {"type": "node", "id": 4797003943, "lat": 32.0218052, "lon": 44.3935889, "tags": {"amenity": "school", "name": "\u0645\u062f\u0631\u0633\u0629 \u062e\u062f \u0627\u0644\u0639\u0630\u0631\u0627\u0621 \u0644\u0644\u0628\u0646\u0627\u062a"}}, {"type": "node", "id": 4797003947, "lat": 32.0194406, "lon": 44.3953777, "tags": {"amenity": "school", "name": "\u0645\u062f\u0631\u0633\u0629 \u0627\u0644\u0645\u0632\u062f\u0644\u0641\u0629 \u0644\u0644\u0628\u0646\u064a\u0646"}}, {"type": "node", "id": 4797293327, "lat": 32.0291529, "lon": 44.3865762}, {"type": "node", "id": 4797293328, "lat": 32.0287809, "lon": 44.385837}, {"type": "node", "id": 4797293329, "lat": 32.0279986, "lon": 44.3863847}, {"type": "node", "id": 4797293330, "lat": 32.0283706, "lon": 44.3871239}, {"type": "node", "id": 4797293331, "lat": 32.0239707, "lon": 44.3827294}, {"type": "node", "id": 4797293332, "lat": 32.0239479, "lon": 44.3822392}, {"type": "node", "id": 4797293333, "lat": 32.0234547, "lon": 44.382271}, {"type": "node", "id": 4797293334, "lat": 32.0234774, "lon": 44.3827613}, {"type": "node", "id": 4809596222, "lat": 32.023498, "lon": 44.337093, "tags": {"amenity": "school", "name": "\u0625\u0639\u062f\u0627\u062f\u064a\u0629 \u0627\u0644\u062a\u062d\u0631\u064a\u0631 \u0644\u0644\u0628\u0646\u064a\u0646", "name:ar": "\u0625\u0639\u062f\u0627\u062f\u064a\u0629 \u0627\u0644\u062a\u062d\u0631\u064a\u0631 \u0644\u0644\u0628\u0646\u064a\u0646"}}, {"type": "node", "id": 4836608321, "lat": 31.992545, "lon": 44.3146903, "tags": {"amenity": "school", "name": "\u0645\u062f\u0631\u0633\u0629 \u0627\u0644\u0631\u0633\u0648\u0644 \u0627\u0644\u0627\u0639\u0638\u0645", "name:ar": "\u0645\u062f\u0631\u0633\u0629 \u0627\u0644\u0631\u0633\u0648\u0644 \u0627\u0644\u0627\u0639\u0638\u0645"}}, {"type": "node", "id": 4867464323, "lat": 32.0202205, "lon": 44.3910007, "tags": {"amenity": "school", "name": "\u0645\u062a\u0648\u0633\u0637\u0629 \u0622\u062f\u0645 \u0644\u0644\u0628\u0646\u064a\u0646", "name:ar": "\u0645\u062a\u0648\u0633\u0637\u0629 \u0622\u062f\u0645 \u0644\u0644\u0628\u0646\u064a\u0646"}}, {"type": "node", "id": 4872966923, "lat": 32.0083765, "lon": 44.3669479, "tags": {"amenity": "school", "name": "\u0645\u062f\u0631\u0633\u0629 \u0627\u0644\u063a\u0631\u064a \u0627\u0644\u0645\u0647\u0646\u064a\u0629 \u0644\u0644\u0628\u0646\u0627\u062a", "name:ar": "\u0645\u062f\u0631\u0633\u0629 \u0627\u0644\u063a\u0631\u064a \u0627\u0644\u0645\u0647\u0646\u064a\u0629 \u0644\u0644\u0628\u0646\u0627\u062a"}}, {"type": "node", "id": 4874655422, "lat": 32.0316201, "lon": 44.4063425, "tags": {"addr:street": "\u0634\u0627\u0631\u0639 \u0627\u0644\u062c\u0645\u0647\u0648\u0631\u064a\u0629", "amenity": "school", "name": "\u0627\u0644\u0633\u0648\u064a\u0633 \u0645\u062f\u0631\u0633\u0629", "name:ar": "\u0645\u062f\u0631\u0633\u0629 \u0627\u0644\u0633\u0648\u064a\u0633", "name:en": "Alsoeas shcoll", "name:ku": "\u0627\u0644\u0633\u0648\u064a\u0633 \u0645\u062f\u0631\u0633\u0629"}}, {"type": "node", "id": 4891169921, "lat": 32.0349499, "lon": 44.3993816, "tags": {"amenity": "school", "name": "\u0645\u062f\u0631\u0633\u0629 \u0627\u0644\u0641\u0631\u0627\u062a \u0644\u0644\u0628\u0646\u064a\u0646", "name:ar": "\u0645\u062f\u0631\u0633\u0629 \u0627\u0644\u0641\u0631\u0627\u062a \u0644\u0644\u0628\u0646\u064a\u0646"}}, {"type": "node", "id": 4900115727, "lat": 32.0370076, "lon": 44.4031077, "tags": {"amenity": "school", "name": "\u0645\u062d\u0644\u0629 \u0627\u0644\u0633\u0631\u0627\u064a", "name:ar": "\u0627\u0639\u062f\u062f\u064a\u0629 \u0627\u0644\u0645\u0634\u0643\u0627\u0629 \u0648\u0627\u0628\u062a\u062f\u0627\u0626\u064a\u0629 \u0639\u0628\u062f \u0627\u0644\u0645\u0646\u0639\u0645"}}, {"type": "node", "id": 4900115728, "lat": 32.0348351, "lon": 44.4026262, "tags": {"amenity": "school", "name": "\u0645\u062f\u0631\u0633\u0629 \u0628\u0637\u0644 \u062e\u064e\u064a\u0652\u0628\u064e\u0631 /\u0645\u062d\u0644\u0629 \u0627\u0644\u0633\u0631\u0627\u064a", "name:ar": "\u0645\u062f\u0631\u0633\u0629 \u0628\u0637\u0644 \u062e\u064e\u064a\u0652\u0628\u064e\u0631", "name:en": "Battal Khaibar primary school"}}, {"type": "node", "id": 4931184332, "lat": 32.0704691, "lon": 44.3373762, "tags": {"amenity": "school", "name": "\u0645\u062f\u0631\u0633\u0647 \u0627\u0644\u062c\u0646\u0627\u0646 \u0644\u0644\u0628\u0646\u0627\u062a", "name:ar": "\u0645\u062f\u0631\u0633\u0647 \u0627\u0644\u062c\u0646\u0627\u0646 \u0644\u0644\u0628\u0646\u0627\u062a"}}, {"type": "node", "id": 4947843021, "lat": 32.0437946, "lon": 44.347272, "tags": {"addr:housenumber": "20", "addr:postcode": "5006", "addr:street": "\u0637\u0631\u064a\u0642 \u0627\u0644\u0645\u0637\u0627\u0631 \u0627\u0644\u062d\u0648\u0644\u064a \u0627\u0644\u0633\u0631\u064a\u0639", "amenity": "school", "name": "\u062b\u0627\u0646\u0648\u064a\u0629 \u0627\u0644\u0634\u0641\u0642 \u0644\u0644\u0628\u0646\u0627\u062a \u0634\u0627\u0631\u0639 20 \u062d\u064a \u0627\u0644\u0648\u0641\u0627\u0621", "name:ar": "\u062b\u0627\u0646\u0648\u064a\u0629 \u0627\u0644\u0634\u0641\u0642 \u0644\u0644\u0628\u0646\u0627\u062a \u0634\u0627\u0631\u0639 20 \u062d\u064a \u0627\u0644\u0648\u0641\u0627\u0621"}}, {"type": "node", "id": 4995790221, "lat": 32.0893453, "lon": 44.3308913, "tags": {"amenity": "school", "name": "\u0645\u062f\u0631\u0633\u0629 \u0627\u0644\u0627\u062f\u0631\u064a\u0633\u064a", "name:ar": "\u0645\u062f\u0631\u0633\u0629 \u0627\u0644\u0627\u062f\u0631\u064a\u0633\u064a", "name:en": "Al Idreesy School"}}, {"type": "node", "id": 5057831232, "lat": 32.0536811, "lon": 44.3114154, "tags": {"amenity": "school", "name": "\u0645\u062f\u0631\u0633\u0629 \u0627\u0644\u064a\u0639\u0642\u0648\u0628\u064a \u0627\u0644\u0627\u0628\u062a\u062f\u0627\u0626\u064a\u0629", "name:ar": "\u0645\u062f\u0631\u0633\u0629 \u0627\u0644\u064a\u0639\u0642\u0648\u0628\u064a \u0627\u0644\u0627\u0628\u062a\u062f\u0627\u0626\u064a\u0629"}}, {"type": "node", "id": 5065194922, "lat": 32.004259, "lon": 44.3296628, "tags": {"addr:street": "\u0634\u0627\u0631\u0639 \u0627\u0644\u0628\u0631\u064a\u062f", "amenity": "school", "name": "\u0645\u062f\u0627\u0631\u0633 \u0628\u0644\u0627\u062f \u0627\u0644\u0627\u0645\u064a\u0631", "name:ar": "\u0645\u062f\u0627\u0631\u0633 \u0628\u0644\u0627\u062f \u0627\u0644\u0627\u0645\u064a\u0631"}}, {"type": "node", "id": 5091011321, "lat": 32.043128, "lon": 44.327394, "tags": {"amenity": "school"}}, {"type": "node", "id": 5094555722, "lat": 32.0147972, "lon": 44.3747568, "tags": {"addr:street": "\u0637\u0631\u064a\u0642 \u0627\u0644\u0635\u0646\u0627\u0639\u064a", "amenity": "school", "name": "\u0627\u0639\u062f\u0627\u062f\u064a\u0647 \u0627\u0644\u0646\u062c\u0641 \u0627\u0644\u0645\u0647\u0646\u064a\u0647", "opening_hours": "Su-Th 07:00-14:00"}}, {"type": "node", "id": 5107194827, "lat": 32.0100401, "lon": 44.3659377, "tags": {"addr:street": "\u062d\u064a \u0627\u0644\u0627\u0645\u064a\u0631", "amenity": "school", "name": "\u0645\u062f\u0631\u0633\u0629 \u0627\u0644\u0627\u0645\u0627\u0645 \u0627\u0644\u0647\u0627\u062f\u064a \u0639", "name:ar": "\u0645\u062f\u0631\u0633\u0629 \u0627\u0644\u0627\u0645\u0627\u0645 \u0627\u0644\u0647\u0627\u062f\u064a \u0639"}}, {"type": "node", "id": 5107194828, "lat": 32.1175541, "lon": 44.3613309, "tags": {"addr:street": "\u0634\u0627\u0631\u0639 \u0627\u0644 \u0628\u0648\u062d\u062f\u0627\u0631\u064a", "amenity": "school", "name": "\u0645\u062f\u0631\u0633\u0629 \u0627\u0644\u0645\u062b\u0646\u0649", "name:ar": "\u0645\u062f\u0631\u0633\u0629 \u0627\u0644\u0645\u062b\u0646\u0649"}}, {"type": "node", "id": 5107194829, "lat": 32.0713215, "lon": 44.3956052, "tags": {"amenity": "school", "name": "\u0645\u062f\u0631\u0633\u0629 \u0627\u0644\u0643\u0645\u064a\u062a \u0627\u0644\u0627\u0628\u062a\u062f\u0627\u0626\u064a\u0629 \u0644\u0628\u0646\u064a\u0646", "name:ar": "\u0645\u062f\u0631\u0633\u0629 \u0627\u0644\u0643\u0645\u064a\u062a \u0627\u0644\u0627\u0628\u062a\u062f\u0627\u0626\u064a\u0629 \u0644\u0628\u0646\u064a\u0646"}}, {"type": "node", "id": 5107199828, "lat": 31.9979276, "lon": 44.331441, "tags": {"addr:street": "\u0645\u062c\u0633\u0631\u0627\u062a \u062b\u0648\u0631\u0629 \u0627\u0644\u0639\u0634\u0631\u064a\u0646", "amenity": "school", "name": "\u0627\u0644\u0645\u062f\u0631\u0633\u0629 \u0627\u0644\u0642\u0631\u0622\u0646\u064a\u0629", "name:ar": "\u0627\u0644\u0645\u062f\u0631\u0633\u0629 \u0627\u0644\u0642\u0631\u0622\u0646\u064a\u0629"}}, {"type": "node", "id": 5107199829, "lat": 32.0653083, "lon": 44.3084885, "tags": {"addr:street": "\u062d\u064a \u0627\u0644\u0646\u062f\u0627\u0621", "amenity": "school", "name": "\u0645\u062f\u0631\u0633\u0629 \u0646\u0632\u0647\u0627\u0646 \u0627\u0644\u062c\u0628\u0648\u0631\u064a", "name:ar": "\u0645\u062f\u0631\u0633\u0629 \u0646\u0632\u0647\u0627\u0646 \u0627\u0644\u062c\u0628\u0648\u0631\u064a"}}, {"type": "node", "id": 5107199830, "lat": 31.9856753, "lon": 44.3567214, "tags": {"addr:street": "\u062a\u0642\u0627\u0637\u0639 \u0627\u0644\u0627\u0646\u0635\u0627\u0631", "amenity": "school", "name": "\u0645\u062f\u0631\u0633\u0629 \u0627\u0644\u0637\u0627\u0626\u0641 \u0644\u0644\u0628\u0646\u0627\u062a", "name:ar": "\u0645\u062f\u0631\u0633\u0629 \u0627\u0644\u0637\u0627\u0626\u0641 \u0644\u0644\u0628\u0646\u0627\u062a"}}, {"type": "node", "id": 5108702629, "lat": 32.0678216, "lon": 44.333634, "tags": {"amenity": "school", "name": "\u0645\u0631\u0633\u0629 \u0627\u0644\u0641\u062f\u0627\u0621 \u0644\u0644\u0628\u0646\u064a\u0646"}}, {"type": "node", "id": 5194083523, "lat": 31.806773, "lon": 44.4920132, "tags": {"amenity": "school", "name": "\u0627\u0639\u062f\u0627\u062f\u064a\u0629 \u0627\u0644\u0639\u0632\u0629", "name:ar": "\u0627\u0639\u062f\u0627\u062f\u064a\u0629 \u0627\u0644\u0639\u0632\u0629"}}, {"type": "node", "id": 5194083524, "lat": 31.8062054, "lon": 44.4924956, "tags": {"amenity": "school", "name": "\u0627\u0644\u0639\u0632\u0629 \u0627\u0644\u0627\u0628\u062a\u062f\u0627\u0626\u064a\u0629", "name:ar": "\u0627\u0644\u0639\u0632\u0629 \u0627\u0644\u0627\u0628\u062a\u062f\u0627\u0626\u064a\u0629"}}, {"type": "node", "id": 5198106822, "lat": 31.9950414, "lon": 44.35705, "tags": {"amenity": "school", "name": "\u0627\u0639\u062f\u0627\u062f\u064a\u0629 \u0627\u0644\u0646\u062c\u0641 \u0627\u0644\u062a\u062c\u0627\u0631\u064a\u0629", "name:ar": "\u0627\u0639\u062f\u0627\u062f\u064a\u0629 \u0627\u0644\u0646\u062c\u0641 \u0627\u0644\u062a\u062c\u0627\u0631\u064a\u0629"}}, {"type": "node", "id": 5212760648, "lat": 32.0321206, "lon": 44.3521204, "tags": {"addr:street": "\u0634\u0627\u0631\u0639 \u0627\u0644\u0645\u0633\u062a\u0648\u0635\u0641 \u062d\u064a \u0627\u0644\u062c\u0627\u0645\u0639\u0629", "amenity": "school", "name": "\u062b. \u0627\u0644\u0627\u064a\u0645\u0627\u0646 \u0644\u0644\u0628\u0646\u0627\u062a / \u0645. \u0639\u0644\u064a \u062c\u0648\u0627\u062f \u0637\u0627\u0647\u0631", "name:en": "Faith (Iman ) high school / Ali Jawad Taher"}}, {"type": "node", "id": 5212892821, "lat": 32.0291171, "lon": 44.3509708, "tags": {"amenity": "school", "name": "\u0627\u0644\u0646\u062c\u0641", "name:en": "Najaf"}}, {"type": "node", "id": 5213020122, "lat": 32.0455953, "lon": 44.3359851, "tags": {"amenity": "school", "name": "\u0627\u0639\u062f\u0627\u062f\u064a\u0629"}}, {"type": "node", "id": 5214025321, "lat": 32.0077598, "lon": 44.3596907, "tags": {"amenity": "school", "name": "\u0627\u0644\u0647\u0644\u0627\u0644 \u0627\u0644\u062e\u0635\u064a\u0628"}}, {"type": "node", "id": 5216213222, "lat": 32.0387201, "lon": 44.3288761, "tags": {"amenity": "school", "name": "\u0645\u062f\u0631\u0633\u0629 \u0627\u0644\u0631\u0627\u0632\u064a \u0627\u0644\u0627\u0628\u062a\u062f\u0627\u0626\u064a\u0629"}}, {"type": "node", "id": 5216213223, "lat": 32.0382558, "lon": 44.3290106, "tags": {"amenity": "school", "name": "\u0645\u062f\u0631\u0633\u0629 \u0627\u0644\u0645\u062a\u0645\u064a\u0632\u064a\u0646 \u0644\u0644\u0628\u0646\u064a\u0646"}}, {"type": "node", "id": 5216213224, "lat": 32.0376832, "lon": 44.3292756, "tags": {"amenity": "school", "name": "\u0645\u062f\u0631\u0633\u0629 \u0646\u0627\u0632\u0643 \u0627\u0644\u0645\u0644\u0627\u0626\u0643\u0629"}}, {"type": "node", "id": 5216231121, "lat": 32.0399342, "lon": 44.3248099, "tags": {"amenity": "school", "name": "\u0645\u062f\u0631\u0633\u0629 \u0627\u0644\u0627\u0628\u0631\u0627\u0631 \u0627\u0644\u0627\u0628\u062a\u062f\u0627\u0626\u064a\u0629"}}, {"type": "node", "id": 5225622621, "lat": 32.0041217, "lon": 44.3377314, "tags": {"amenity": "school", "name": "\u0645\u062f\u0627\u0631\u0633 \u0628\u0631\u0627\u062b\u0627 \u0627\u0644\u0627\u0647\u0644\u064a\u0629", "name:en": "Buratha schools"}}, {"type": "node", "id": 5232171323, "lat": 31.8065011, "lon": 44.4845331, "tags": {"amenity": "school", "name": "\u0645\u062f\u0631\u0633\u0629 \u0625\u0642\u0631\u0623 \u0627\u0644\u0627\u0628\u062a\u062f\u0627\u0626\u064a\u0629 \u0627\u0644\u0627\u0647\u0644\u064a\u0629"}}, {"type": "node", "id": 5253392808, "lat": 32.0298358, "lon": 44.3528668}, {"type": "node", "id": 5253392809, "lat": 32.0306296, "lon": 44.3524823}, {"type": "node", "id": 5253392810, "lat": 32.0304294, "lon": 44.3518954}, {"type": "node", "id": 5253392811, "lat": 32.0296214, "lon": 44.3522764}, {"type": "node", "id": 5253392812, "lat": 32.0297447, "lon": 44.3526158}, {"type": "node", "id": 5290061921, "lat": 32.0198137, "lon": 44.4155113, "tags": {"addr:street": "\u0634\u0627\u0631\u0639 \u0645\u0639\u0645\u0644 \u0627\u0633\u0645\u0646\u062a \u0627\u0644\u0643\u0648\u0641\u0629", "amenity": "school", "name": "\u0645\u062f\u0631\u0633\u0629 \u0647\u0627\u0646\u064a \u0628\u0646 \u0639\u0631\u0648\u0629 \u0627\u0644\u0627\u0628\u062a\u062f\u0627\u0626\u064a\u0629 \u0644\u0644\u0628\u0646\u064a\u0646"}}, {"type": "node", "id": 5300654321, "lat": 32.014779, "lon": 44.3277752, "tags": {"amenity": "school", "name": "\u0645\u062f\u0631\u0633\u0629 \u0645\u0635\u0637\u0641\u064a \u062c\u0648\u0627\u062f \u0627\u0644\u0627\u0628\u062a\u062f\u0627\u0626\u064a\u0629"}}, {"type": "node", "id": 5314516926, "lat": 32.0314474, "lon": 44.4083553, "tags": {"addr:street": "\u0634\u0627\u0631\u0639 \u0627\u0644\u0643\u0648\u0641\u0629", "amenity": "school", "name": "\u0625\u0639\u062f\u0627\u062f\u064a\u0629 \u0627\u0644\u0643\u0648\u0641\u0629 \u0627\u0644\u0645\u0631\u0643\u0632\u064a\u0629"}}, {"type": "node", "id": 5405504624, "lat": 32.0091967, "lon": 44.3316519, "tags": {"amenity": "school", "name": "\u062b\u0627\u0646\u0648\u064a\u0629 \u0627\u0644\u0642\u0627\u0633\u0645 \u0627\u0644\u0627\u0647\u0644\u064a\u0629 \u0627\u0644\u062e\u064a\u0631\u064a\u0629"}}, {"type": "node", "id": 5429388907, "lat": 32.0260894, "lon": 44.3592795, "tags": {"addr:city": "\u0627\u0644\u0646\u062c\u0641", "addr:country": "IQ", "amenity": "school", "facebook": "https://www.facebook.com/\u0645\u0624\u0633\u0633\u0629-\u0627\u0644\u0639\u0642\u064a\u0644\u0629-\u0644\u0631\u0639\u0627\u064a\u0629-\u0627\u0644\u0623\u064a\u062a\u0627\u0645-\u0627\u0644\u0646\u062c\u0641-\u0627\u0644\u0623\u0634\u0631\u0641--431119823609615/", "name": "\u0645\u062f\u0631\u0633\u0629 \u0627\u0644\u0639\u0642\u064a\u0644\u0629"}}, {"type": "node", "id": 5515944822, "lat": 31.9959164, "lon": 44.3565517, "tags": {"amenity": "school", "name": "\u062b\u0627\u0646\u0648\u064a\u0629 \u0627\u0644\u0643\u0646\u062f\u064a \u0644\u0644\u0628\u0646\u064a\u0646"}}, {"type": "node", "id": 5577202122, "lat": 31.992528, "lon": 44.3208503, "tags": {"amenity": "school", "name": "\u0645\u062f\u0631\u0633\u0629 \u0627\u0644\u0627\u0645\u0627\u0645 \u0627\u0644\u062c\u0648\u0627\u062f \u0639\u0644\u064a\u0647 \u0627\u0644\u0633\u0644\u0627\u0645"}}, {"type": "node", "id": 5683587222, "lat": 32.0279864, "lon": 44.3932912, "tags": {"amenity": "school", "name": "\u0645\u062f\u0631\u0633\u0629 \u0627\u0644\u0627\u0641\u0642 \u0627\u0644\u062c\u062f\u064a\u062f \u0627\u0644\u0627\u0628\u062a\u062f\u0627\u0626\u064a\u0629 \u0627\u0644\u0645\u062e\u062a\u0644\u0637\u0629 \u0627\u0644\u0627\u0647\u0644\u064a\u0629"}}, {"type": "node", "id": 5781859371, "lat": 32.0103892, "lon": 44.3675243, "tags": {"amenity": "school", "name": "\u0645\u062f\u0627\u0631\u0633 \u0625\u0644\u064a\u0627 \u0627\u0644\u0627\u0647\u0644\u064a\u0629", "name:en": "Elia schools"}}, {"type": "node", "id": 5826313853, "lat": 32.0247917, "lon": 44.3622325, "tags": {"amenity": "school", "name": "\u062b\u0627\u0646\u0648\u064a\u0629 \u0627\u0644\u0645\u062a\u0645\u064a\u0632\u0627\u062a-\u0627\u0644\u0646\u062c\u0641"}}, {"type": "node", "id": 5853423286, "lat": 32.0386037, "lon": 44.3132082, "tags": {"amenity": "school", "name": "\u0627\u0639\u062f\u0627\u062f\u064a\u0629 \u0627\u0644\u0648\u062d\u062f\u0629 \u0644\u0644\u0628\u0646\u064a\u0646"}}, {"type": "node", "id": 5890466287, "lat": 31.9901138, "lon": 44.3273979, "tags": {"amenity": "school", "name": "\u0645\u062f\u0631\u0633\u0629 \u0627\u0644\u0646\u0647\u0636\u0629 \u0648\u062d\u0648\u0631 \u0627\u0644\u0639\u064a\u0646"}}, {"type": "node", "id": 5890466288, "lat": 31.9908144, "lon": 44.3267904, "tags": {"amenity": "school", "name": "\u0645\u062f\u0631\u0633\u0629 \u0627\u0644\u0635\u062d\u0648\u0629 \u0648\u0627\u0635\u062d\u0627\u0628 \u0627\u0644\u0643\u0633\u0627\u0621"}}, {"type": "node", "id": 5890466289, "lat": 31.9912656, "lon": 44.3278263, "tags": {"amenity": "school", "name": "\u062b\u0627\u0646\u0648\u064a\u0629 \u0627\u0644\u0642\u0628\u0629 \u0627\u0644\u0630\u0647\u0628\u064a\u0629 \u0644\u0644\u0628\u0646\u0627\u062a"}}, {"type": "node", "id": 5890467588, "lat": 31.9911834, "lon": 44.326549, "tags": {"amenity": "school", "name": "\u0627\u0639\u062f\u0627\u062f\u064a\u0629 \u0627\u0644\u062c\u0645\u0647\u0648\u0631\u064a\u0629 \u0644\u0644\u0628\u0646\u064a\u0646"}}, {"type": "node", "id": 5904719085, "lat": 32.0378693, "lon": 44.3134052, "tags": {"addr:city": "\u0627\u0644\u0646\u062c\u0641", "addr:city:ar": "\u0627\u0644\u0646\u062c\u0641", "amenity": "school", "name": "\u0625\u0639\u062f\u0627\u062f\u064a\u0629 \u0627\u0644\u0641\u0631\u0632\u062f\u0642 \u0644\u0644\u0628\u0646\u0627\u062a", "name:ar": "\u0625\u0639\u062f\u0627\u062f\u064a\u0629 \u0627\u0644\u0641\u0631\u0632\u062f\u0642 \u0644\u0644\u0628\u0646\u0627\u062a"}}, {"type": "node", "id": 5920042686, "lat": 31.8078922, "lon": 44.4926048, "tags": {"amenity": "school", "name": "\u0645\u062f\u0631\u0633\u0629 \u0627\u0644\u064a\u0631\u0645\u0648\u0643 \u0627\u0644\u0627\u0628\u062a\u062f\u0627\u0626\u064a\u0629 \u0644\u0644\u0628\u0646\u0627\u062a", "name:en": "Alyarmook primary school"}}, {"type": "node", "id": 5942061385, "lat": 32.0532673, "lon": 44.3384376, "tags": {"addr:street": "\u062f\u0648\u0631 \u0627\u0644\u0647\u0646\u062f\u064a\u0647", "amenity": "school", "name": "\u0645\u062f\u0631\u0633\u0647 \u0641\u062a\u0649 \u0627\u0644\u0627\u0633\u0644\u0627\u0645"}}, {"type": "node", "id": 6014597485, "lat": 32.0121762, "lon": 44.5267152, "tags": {"amenity": "school", "name": "\u0637\u0631\u064a\u0642 \u0627\u0644\u0645\u0634\u0627\u064a\u064a\u0647 \u0627\u0644\u0627\u0635\u0645\u0639\u064a"}}, {"type": "node", "id": 6025470663, "lat": 31.9862563, "lon": 44.3603731, "tags": {"addr:city": "\u0627\u0644\u0646\u062c\u0641", "addr:country": "IQ", "addr:state": "\u0645\u062d\u0627\u0641\u0638\u0629 \u0627\u0644\u0646\u062c\u0641", "addr:street": "\u0634\u0627\u0631\u0639 \u0627\u0644\u0645\u062f\u0627\u0631\u0633", "amenity": "school", "name": "\u0645\u062f\u0631\u0633\u0647 \u0627\u0644\u062c\u0632\u0627\u0626\u0631 \u0644\u0644\u0628\u0646\u0627\u062a", "name:en": "Algeria School for Girls"}}, {"type": "node", "id": 6043722821, "lat": 31.997273, "lon": 44.3314343, "tags": {"amenity": "school", "name": "\u0645\u062f\u0631\u0633\u0629 \u0627\u0644\u0633\u062f\u064a\u0631 \u0627\u0644\u0645\u062a\u0648\u0633\u0637\u0629"}}, {"type": "node", "id": 6072730726, "lat": 32.0505571, "lon": 44.3351385, "tags": {"addr:city": "\u0627\u0644\u0646\u062c\u0641 \u0627\u0644\u0627\u0634\u0631\u0641 TheHoly Najaf", "amenity": "school", "name": "\u0627\u0639\u062f\u0627\u062f\u064a\u0629 \u0627\u0644\u0628\u0646\u0627\u062a girls high school"}}, {"type": "node", "id": 6072809262, "lat": 32.044447, "lon": 44.3397877, "tags": {"addr:city": "\u0627\u0644\u0646\u062c\u0641 \u0627\u0644\u0627\u0634\u0631\u0641 The Holy Najaf", "amenity": "school", "name": "\u0627\u0644\u0645\u062f\u0631\u0633\u0629 \u0627\u0644\u0627\u0628\u062a\u062f\u0627\u0626\u064a\u0629 Elementry school"}}, {"type": "node", "id": 6103869585, "lat": 32.0544462, "lon": 44.3432851, "tags": {"amenity": "school", "name": "\u0645\u062f\u0631\u0633\u0647 \u0628\u0644\u0627\u0644"}}, {"type": "node", "id": 6312028595, "lat": 32.0198787, "lon": 44.3156963, "tags": {"amenity": "school", "name": "\u0645\u062f\u0631\u0633\u0629"}}, {"type": "node", "id": 6312028598, "lat": 32.0161774, "lon": 44.3089817, "tags": {"amenity": "school", "name": "\u0645\u062f\u0631\u0633\u0629"}}, {"type": "node", "id": 6321976850, "lat": 32.0404939, "lon": 44.3201331, "tags": {"amenity": "school", "email": "jawwadjanaby@gmail.com", "name": "\u0645\u062f\u0627\u0631\u0633 \u0639\u0627\u0635\u0645\u0629 \u0627\u0644\u062b\u0642\u0627\u0641\u0629 \u0627\u0644\u0627\u0647\u0644\u064a\u0629", "name:en": "School for the Capital of Civil Culture", "phone": "+964 780 012 2123"}}, {"type": "node", "id": 6366101785, "lat": 31.9901639, "lon": 44.3196726, "tags": {"amenity": "school", "name": "\u0645\u062f\u0631\u0633\u0629 \u0627\u0644\u0627\u0645\u0627\u0645 \u0627\u0644\u062c\u0648\u0627\u062f \u0639\u0644\u064a\u0647 \u0627\u0644\u0633\u0644\u0627\u0645"}}, {"type": "node", "id": 6366101786, "lat": 31.9899204, "lon": 44.3190944, "tags": {"amenity": "school", "name": "\u0645\u062f\u0631\u0633\u0629 \u0627\u0644\u0627\u0645\u0627\u0645 \u0645\u062d\u0645\u062f \u0627\u0644\u062c\u0648\u0627\u062f \u0639\u0644\u064a\u0647 \u0627\u0644\u0633\u0644\u0627\u0645"}}, {"type": "node", "id": 6370421695, "lat": 31.986031, "lon": 44.3470252, "tags": {"amenity": "school", "name": "\u0645\u062f\u0631\u0633\u0629"}}, {"type": "node", "id": 6370433792, "lat": 31.9843712, "lon": 44.3640443, "tags": {"amenity": "school", "name": "\u0645\u062f\u0631\u0633\u0629\u0627\u0644\u0645\u0639\u0631\u0641\u0629"}}, {"type": "node", "id": 6370433793, "lat": 31.9906523, "lon": 44.35495, "tags": {"amenity": "school", "name": "\u0627\u0639\u062f\u0627\u062f\u064a\u0629\u0627\u0644\u0635\u0646\u0627\u0639\u0629"}}, {"type": "node", "id": 6370448386, "lat": 31.9853745, "lon": 44.3598445, "tags": {"amenity": "school", "name": "\u0645\u062f\u0631\u0633\u0629\u0627\u0644\u0627\u0642\u062f\u0627\u0645"}}, {"type": "node", "id": 6390783588, "lat": 31.9905373, "lon": 44.3358045, "tags": {"addr:street": "\u0634\u0627\u0631\u0639 \u0627\u0628\u0648 \u0635\u062e\u064a\u0631", "amenity": "school", "name": "\u0645\u062a\u0648\u0633\u0637\u0647 \u0627\u0644\u062e\u0646\u0633\u0627\u0621", "opening_hours": "Su-Th 07:00-13:00"}}, {"type": "node", "id": 6423209587, "lat": 32.0773467, "lon": 44.4368374, "tags": {"amenity": "school", "name": "\u0645\u062f\u0631\u0633\u0629 \u0627\u0644\u0639\u0644\u0648\u064a\u064a\u0646 \u0627\u0644\u0627\u0628\u062a\u062f\u0627\u0626\u064a\u0629"}}, {"type": "node", "id": 6423209588, "lat": 32.0774624, "lon": 44.4385752, "tags": {"amenity": "school", "name": "\u0627\u0639\u062f\u0627\u062f\u064a\u0629 \u0627\u0644\u0645\u0631\u0628\u0650\u062f \u0627\u0644\u0645\u0631\u0643\u0632\u064a\u0647"}}, {"type": "node", "id": 6467533985, "lat": 31.8033932, "lon": 44.4848645, "tags": {"addr:street": "\u0634\u0627\u0631\u0639 \u0627\u0644\u0642\u0627\u062f\u0633\u064a\u0629", "amenity": "school", "name": "\u0645\u062f\u0631\u0633 \u0627\u0644\u0631\u064a\u0627\u0636\u0627\u062a \u0645\u062d\u0645\u062f \u0645\u0627\u0644\u0643 \u062e\u062f\u0627\u0645"}}, {"type": "node", "id": 6536438885, "lat": 32.0200503, "lon": 44.3161228, "tags": {"amenity": "school", "name": "\u0645\u062f\u0631\u0633\u0629 \u0633\u064a\u0641 \u0627\u0644\u062d\u0642 \u0648\u0627\u0644\u0643\u0639\u0628\u0629 \u0627\u0644\u0645\u0634\u0631\u0641\u0629"}}, {"type": "node", "id": 6590876085, "lat": 32.0877789, "lon": 44.3291187, "tags": {"amenity": "school", "name": "\u0645\u062f\u0631\u0633\u0629 \u0639\u0637\u0627\u0621 \u0627\u0644\u0646\u062c\u0641 \u0627\u0644\u0627\u0628\u062a\u062f\u0627\u0626\u064a\u0629 \u0644\u0644\u0628\u0646\u064a\u0646"}}, {"type": "node", "id": 6591254085, "lat": 32.042937, "lon": 44.3527629, "tags": {"amenity": "school", "name": "\u0645\u062f\u0631\u0633\u0629 \u0632\u064a\u0646 \u0627\u0644\u0639\u0627\u0628\u062f\u064a\u0646 \u0627\u0644\u0627\u0628\u062a\u062f\u0627\u0626\u064a\u0629 \u0644\u0644\u0628\u0646\u0627\u062a"}}, {"type": "node", "id": 6638790186, "lat": 32.0473974, "lon": 44.3233323, "tags": {"addr:street": "\u0634\u0627\u0631\u0639 \u0627\u0644\u062c\u0645\u0639\u064a\u0629", "amenity": "school", "name": "\u062b\u0627\u0646\u0648\u064a\u0629 \u0627\u0644\u0627\u0635\u064a\u0644 \u0627\u0644\u0645\u0631\u0643\u0632\u064a\u0629 \u0644\u0644\u0628\u0646\u0627\u062a", "name:en": "Al - Aseel Central School for Girls"}}, {"type": "node", "id": 6703531787, "lat": 32.0189508, "lon": 44.3877295, "tags": {"amenity": "school", "name": "\u062b\u0627\u0646\u0648\u064a\u0629 \u0627\u0644\u062d\u0643\u064a\u0645 \u0627\u0644\u0645\u0633\u0627\u0626\u064a\u0629 \u0644\u0644\u0628\u0646\u064a\u0646"}}, {"type": "node", "id": 6703536786, "lat": 32.0191088, "lon": 44.3875977, "tags": {"amenity": "school", "name": "\u0645\u062a\u0648\u0633\u0637\u0629 \u0627\u0644\u0645\u0635\u0637\u0641\u0649 \u0644\u0644\u0628\u0646\u064a\u0646"}}, {"type": "node", "id": 6762632486, "lat": 32.0444265, "lon": 44.3257521, "tags": {"amenity": "school", "name": "\u0645\u062a\u0648\u0633\u0637\u0629 \u0628\u0644\u0627\u062f \u0627\u0644\u0646\u0647\u0631\u064a\u0646 \u0644\u0644\u0628\u0646\u064a\u0646 \u0627\u0644\u0635\u0628\u0627\u062d\u064a", "opening_hours": "Su-Th 08:00-13:00"}}, {"type": "node", "id": 6764146786, "lat": 32.0018886, "lon": 44.3711385, "tags": {"amenity": "school", "name": "\u062b\u0627\u0646\u0648\u064a\u0629 \u0627\u0644\u0628\u0633\u0645\u0644\u0629"}}, {"type": "node", "id": 6786072686, "lat": 32.0357762, "lon": 44.4007712, "tags": {"amenity": "school", "name": "\u0645\u062a\u0648\u0633\u0637\u0629 \u0639\u0628\u062f \u0627\u0644\u0645\u0646\u0639\u0645 /\u0627\u0639\u062f\u0627\u062f\u064a\u0629 \u0627\u0644\u0645\u0634\u0643\u0627\u0629"}}, {"type": "node", "id": 6804962786, "lat": 32.0469537, "lon": 44.5597837, "tags": {"amenity": "school", "name": "\u0645\u062a\u0648\u0633\u0637\u0629 \u0627\u0644\u0645\u0647\u0646\u0627\u0648\u064a\u0629 \u0644\u0644\u0628\u0646\u064a\u0646"}}, {"type": "node", "id": 6859333085, "lat": 32.006851, "lon": 44.3612666, "tags": {"addr:housenumber": "55", "addr:postcode": "1977", "addr:street": "\u0634\u0627\u0631\u0639 \u0627\u0644\u062a\u0631\u0628\u064a\u0629", "amenity": "school", "name": "\u0645\u062a\u0648\u0633\u0637\u0629 \u0623\u0645 \u0639\u0645\u0627\u0631\u0647 \u0627\u0644\u0645\u0633\u0627\u0626\u064a\u0647", "opening_hours": "Mo-Su 02:00-18:00", "website": "http://yacoubalbachtere.com"}}, {"type": "node", "id": 6865664587, "lat": 32.1359758, "lon": 44.3818139, "tags": {"addr:street": "\u0634\u0627\u0631\u0639 \u0627\u0644\u062c\u0632\u0631\u0629", "amenity": "school", "name": "\u0645\u062f\u0631\u0633\u0629 \u0627\u0644\u0641\u0627\u0626\u0632\u064a\u0646 \u0627\u0644\u0627\u0628\u062a\u062f\u0627\u0626\u064a\u0629 \u0627\u0644\u0645\u062e\u062a\u0644\u0637\u0629", "opening_hours": "Su-Th 08:00-13:00", "phone": "07804414464"}}, {"type": "node", "id": 6917239885, "lat": 32.0175981, "lon": 44.3850458, "tags": {"amenity": "school", "name": "\u062b\u0627\u0646\u0648\u064a\u0629 \u0627\u0644\u0632\u0627\u0643\u064a\u0627\u062a \u0644\u0644\u0628\u0646\u0627\u062a"}}, {"type": "node", "id": 6917239985, "lat": 32.0223977, "lon": 44.3929032, "tags": {"amenity": "school", "name": "\u0646\u0628\u0644\u0633 \u0627\u0644\u0627\u0628\u062a\u062f\u0627\u0626\u064a\u0629 \u0644\u0644\u0628\u0646\u0627\u062a"}}, {"type": "node", "id": 7014662087, "lat": 32.0016523, "lon": 44.4150682, "tags": {"addr:street": "\u0634\u0627\u0631\u0639 \u0627\u0644\u0645\u062e\u062a\u0627\u0631 \u0627\u0644\u062b\u0642\u0641\u064a( \u0627\u0644\u0645\u0637\u0627\u0631 \u0627\u0644\u0642\u062f\u064a\u0645)", "amenity": "school", "name": "\u0645\u062f\u0631\u0633\u0647 \u0642\u062f\u0645 \u0635\u062f\u0642 \u0627\u0644\u062f\u064a\u0646\u064a\u0647", "name:en": "kadam sidq aldinia", "phone": "07713167025"}}, {"type": "node", "id": 7073910887, "lat": 31.8040668, "lon": 44.484953, "tags": {"addr:street": "\u062d\u064a \u0627\u0644\u0634\u0647\u064a\u062f \u0627\u0644\u0635\u062f\u0631", "amenity": "school", "name": "\u0645\u062f\u0631\u0633\u0629 \u0627\u0644\u0634\u064a\u062e \u0631\u062d\u064a\u0645 \u0627\u0644\u062d\u0633\u0646\u0627\u0648\u064a"}}, {"type": "node", "id": 7073915985, "lat": 31.8042695, "lon": 44.4852163, "tags": {"addr:street": "\u062d\u064a \u0627\u0644\u0634\u0647\u064a\u062f \u0627\u0644\u0635\u062f\u0631", "amenity": "school", "name": "\u0645\u062f\u0631\u0633\u0629 \u0627\u0644\u0634\u064a\u062e \u0639\u0628\u062f \u0627\u0644\u0623\u0645\u064a\u0631 \u0627\u0644\u0641\u062a\u0644\u0627\u0648\u064a"}}, {"type": "node", "id": 7179391885, "lat": 32.0454455, "lon": 44.3312795, "tags": {"addr:street": "\u062c\u0632\u064a\u0631\u0629_\u062c\u0645\u0639\u064a\u0629", "amenity": "school", "name": "\u0627\u0639\u062f\u0627\u062f\u064a\u0629 \u0627\u0644\u062f\u0643\u062a\u0648\u0631 \u0639\u0646\u0627\u062f \u063a\u0632\u0648\u0627\u0646 \u0644\u0644\u0628\u0646\u064a\u0646", "opening_hours": "Su-Th 08:00-13:00"}}, {"type": "node", "id": 7203635885, "lat": 32.0193082, "lon": 44.5467019, "tags": {"amenity": "school", "name": "\u062b\u0627\u0646\u0648\u064a\u0629 \u0627\u0644\u0635\u0644\u0627\u062d\u064a\u0629 \u0644\u0644\u0628\u0646\u064a\u0646"}}, {"type": "node", "id": 7485432685, "lat": 32.1285564, "lon": 44.4273315, "tags": {"amenity": "school", "name": "\u0645\u062f\u0631\u0633\u0629 \u0627\u0644\u0627\u062d\u0633\u0627\u0646"}}, {"type": "node", "id": 7485888987, "lat": 32.0490607, "lon": 44.3447943, "tags": {"amenity": "school", "name": "\u0645\u062d\u0645\u062f \u0627\u0644\u062c\u0648\u0627\u062f \u0645\u063a\u0646\u064a\u0629"}}, {"type": "node", "id": 7485888988, "lat": 32.0391901, "lon": 44.3131081, "tags": {"amenity": "school", "name": "\u0627\u0639\u062f\u0627\u062f\u064a\u0629 \u0627\u0644\u0646\u0635\u0631 \u0627\u0644\u0645\u0631\u0643\u0632\u064a\u0629 \u0644\u0644\u0628\u0646\u064a\u0646"}}, {"type": "node", "id": 7485889185, "lat": 32.0529223, "lon": 44.338181, "tags": {"amenity": "school", "name": "\u0645\u062f\u0631\u0633\u0629 \u0622\u0645\u0631\u0644\u064a \u0644\u0644\u0628\u0646\u0627\u062a"}}, {"type": "node", "id": 7485889385, "lat": 32.0506219, "lon": 44.3423673, "tags": {"amenity": "school", "name": "\u0645\u062a\u0648\u0633\u0637\u0629 \u0632\u0647\u0631\u0629 \u0627\u0644\u0648\u0627\u062f\u064a / \u0627\u0639\u062f\u0627\u062f\u064a\u0629 \u0646\u0648\u0631 \u0627\u0644\u062d\u0633\u064a\u0646 \u0644\u0644\u0628\u0646\u0627\u062a"}}, {"type": "node", "id": 7574282585, "lat": 32.0257288, "lon": 44.3119739, "tags": {"amenity": "school", "name": "\u062b\u0627\u0646\u0648\u064a\u0629 \u0645\u0647\u062f\u064a \u0627\u0644\u0645\u062e\u0632\u0648\u0645\u064a \u0644\u0644\u0628\u0646\u0627\u062a", "name:ar": "\u062b\u0627\u0646\u0648\u064a\u0629\u0627\u0644\u062f\u0643\u062a\u0648\u0631 \u0645\u0647\u062f\u064a \u0627\u0644\u0645\u062e\u0632\u0648\u0645\u064a \u0644\u0644\u0628\u0646\u0627\u062a", "name:en": "Dr.Mahdi Almakhzomi secondary school"}}, {"type": "node", "id": 7574282685, "lat": 32.0258548, "lon": 44.3128693, "tags": {"amenity": "school", "name": "\u0627\u0644\u0627\u0639\u062a\u0645\u0627\u062f", "name:en": "Ale3tmaad primary school"}}, {"type": "node", "id": 7574294385, "lat": 32.0204503, "lon": 44.3262325, "tags": {"amenity": "school", "name": "\u0645\u062f\u0631\u0633\u0629 \u062a\u0628\u0648\u0643 \u0644\u0644\u0628\u0646\u0627\u062a", "name:en": "Tabouk primary school"}}, {"type": "node", "id": 7657523385, "lat": 31.9857283, "lon": 44.3137734, "tags": {"addr:street": "\u0634\u0627\u0631\u0639 \u0627\u0644\u062d\u062c\u0631", "amenity": "school", "name": "\u0645\u062f\u0631\u0633\u0647 \u0631\u0633\u0648\u0644 \u0627\u06a9\u0631\u0645 \u0635 \u0627\u0644\u062f\u06cc\u0646\u06cc\u0647", "name:ar": "\u0645\u062f\u0631\u0633\u0647 \u0627\u0644\u0631\u0633\u0648\u0644 \u0627\u0644\u0627\u06a9\u0631\u0645 \u0635 \u0627\u0644\u062f\u06cc\u0646\u06cc\u0647 (\u0634\u06cc\u062e \u0645\u062c\u0627\u0647\u062f)", "name:en": "Al-Rasool Al-Akram (Mujahed)", "opening_hours": "Sa-Th 00:00-24:00", "operator": "\u0634\u06cc\u062e \u0645\u062c\u0627\u0647\u062f"}}, {"type": "node", "id": 7660108685, "lat": 31.9907887, "lon": 44.3416009, "tags": {"amenity": "school", "name": "\u0645\u062f\u0631\u0633\u0629 \u0627\u0644\u0628\u064a\u0627\u0631\u0642"}}, {"type": "node", "id": 7798038485, "lat": 32.0653494, "lon": 44.3212566, "tags": {"amenity": "school", "name": "\u0645\u062f\u0631\u0633\u0647 \u0636\u064a\u0648\u0641 \u0627\u0644\u0631\u062d\u0645\u0646"}}, {"type": "node", "id": 7878198085, "lat": 31.801133, "lon": 44.4872546, "tags": {"addr:street": "\u0634\u0627\u0631\u0639 \u0627\u0644\u0642\u0627\u062f\u0633\u064a\u0629", "amenity": "school", "name": "\u0645\u0639\u0647\u062f \u0627\u0644\u062c\u0648\u0627\u062f\u064a\u064a\u0646"}}, {"type": "node", "id": 7892228385, "lat": 32.0045748, "lon": 44.3304305, "tags": {"addr:housenumber": "40", "addr:postcode": "00964", "addr:street": "\u062d\u06cc \u0627\u0644\u062d\u0646\u0627\u0646\u0647", "amenity": "school", "email": "momiraq28@gmail.com", "name": "\u0645\u062f\u0627\u0631\u0633 \u0628\u0644\u0627\u062f \u0627\u0644\u0627\u0645\u064a\u0631 \u0627\u0644\u0627\u0647\u0644\u064a\u0629", "name:en": "bilad-alameer schools", "opening_hours": "Sa-Th 08:00-17:00", "phone": "07808074531"}}, {"type": "node", "id": 7968889890, "lat": 31.9974229, "lon": 44.3141805, "tags": {"amenity": "school", "name": "\u0627\u0644\u0645\u062f\u0631\u0633\u0629 \u0627\u0644\u0647\u0646\u062f\u064a\u0629(\u0627\u0644\u0628\u0627\u0642\u0631) \u0639"}}, {"type": "node", "id": 8100421917, "lat": 32.0487816, "lon": 44.368441, "tags": {"amenity": "school", "name": "\u0625\u0639\u062f\u0627\u062f\u064a\u0629 \u0645\u064a\u0633\u0627\u0646 \u0644\u0644\u0628\u0646\u064a\u0646"}}, {"type": "node", "id": 8212048817, "lat": 32.0079701, "lon": 44.3601899, "tags": {"amenity": "school", "name": "\u0627\u0639\u062f\u0627\u062f\u064a\u0647 \u0627\u0644\u0633\u0627\u062c\u062f\u0627\u062a \u0644\u0644\u0628\u0646\u0627\u062a"}}, {"type": "node", "id": 8260361517, "lat": 31.9950526, "lon": 44.3570628, "tags": {"addr:street": "\u062d\u064a \u0627\u0644\u0633\u0648\u0627\u0642", "amenity": "school", "name": "\u0627\u0639\u062f\u0627\u062f\u064a\u0629 \u0627\u0644\u0646\u062c\u0641 \u0627\u0644\u062a\u062c\u0627\u0631\u064a\u0629"}}, {"type": "node", "id": 8317934817, "lat": 32.024194, "lon": 44.3355639, "tags": {"amenity": "school", "name": "\u0645\u062f\u0631\u0633\u0629 \u0627\u0647\u0644\u064a\u0629"}}, {"type": "node", "id": 8442368517, "lat": 32.0354496, "lon": 44.3816896, "tags": {"amenity": "school", "name": "\u0645\u062f\u0631\u0633\u0629 \u0627\u0644\u0633\u064a\u0627\u0628 \u0627\u0644\u0623\u0628\u062a\u062f\u0627\u0626\u064a\u0629"}}, {"type": "node", "id": 8568583117, "lat": 31.7019365, "lon": 44.4767923, "tags": {"addr:street": "\u062d\u064a \u0627\u0644\u0642\u0627\u062f\u0633\u064a\u0629", "amenity": "school", "name": "\u0645\u062f\u0631\u0633\u0629 \u064a\u0627\u0641\u0627 \u0627\u0644\u0627\u0628\u062a\u062f\u0627\u0626\u064a\u0629", "opening_hours": "Su-Th 08:00-15:00"}}, {"type": "node", "id": 8571035617, "lat": 32.0147921, "lon": 44.3747793, "tags": {"amenity": "school"}}, {"type": "node", "id": 8579782918, "lat": 32.0141088, "lon": 44.3511857, "tags": {"amenity": "school", "name": "\u0643\u0644\u064a\u0629 \u0627\u0644\u0627\u062f\u0627\u0631\u0629 \u0648\u0627\u0644\u0627\u0642\u062a\u0635\u0627\u062f"}}, {"type": "node", "id": 8627919617, "lat": 32.0011258, "lon": 44.373349, "tags": {"addr:street": "\u0634\u0627\u0631\u0639 \u062b\u0627\u0628\u062a", "amenity": "school", "name": "\u0645\u062a\u0648\u0633\u0637 \u0631\u0642\u064a\u0647", "name:ar": "\u0645\u062a\u0648\u0633\u0637\u0629 \u0631\u0642\u064a\u0647 \u0644\u0644\u0628\u0646\u0627\u062a"}}, {"type": "node", "id": 8649111117, "lat": 32.0324279, "lon": 44.387047, "tags": {"addr:street": "\u062d\u064a \u0627\u0644\u0645\u062a\u0646\u0628\u064a", "amenity": "school", "name": "\u0645\u062f\u0631\u0633\u0629 \u0627\u0644\u0628\u0648\u064a\u0628 \u0627\u0644\u0627\u0628\u062a\u062f\u0627\u0626\u064a\u0629"}}, {"type": "node", "id": 8777609617, "lat": 32.0780624, "lon": 44.2978484, "tags": {"amenity": "school", "name": "\u0645\u062f\u0631\u0633\u0629 \u0627\u0647\u0644\u064a\u0629 \u0627\u0644\u0642\u0637\u0639\u0629 (3/134891)"}}, {"type": "node", "id": 8889077717, "lat": 31.9911054, "lon": 44.3230188, "tags": {"addr:street": "\u0634\u0627\u0631\u0639 \u0627\u0644\u0645\u062f\u064a\u0646\u0629", "amenity": "school", "name": "\u0627\u0639\u062f\u0627\u062f\u064a\u0629 \u0627\u0644\u0643\u0648\u062b\u0631 \u0627\u0644\u0645\u0647\u0646\u064a\u0629", "opening_hours": "Su-Th 08:00-12:00"}}, {"type": "node", "id": 8957692217, "lat": 32.0598688, "lon": 44.350498, "tags": {"amenity": "school", "name": "\u062b\u0627\u0646\u0648\u064a\u0629 \u0627\u0644\u062e\u0648\u0631\u0646\u0642 \u0627\u0644\u0627\u0647\u0644\u064a\u0629 \u0644\u0644\u0628\u0646\u064a\u0646"}}, {"type": "node", "id": 9038731517, "lat": 32.0582477, "lon": 44.3118877, "tags": {"amenity": "school", "name": "\u0645\u062f\u0631\u0633\u0629\u0627\u0644\u0645\u0633\u062a\u062c\u0627\u0628 \u0627\u0644\u0627\u0628\u062a\u062f\u0627\u0626\u064a\u0629"}}, {"type": "node", "id": 9038731518, "lat": 32.0574746, "lon": 44.3119359, "tags": {"amenity": "school", "name": "\u0645\u062f\u0631\u0633\u0629\u0627\u0644\u0639\u0627\u062f\u064a\u0627\u062a"}}, {"type": "node", "id": 9148844851, "lat": 32.0318607, "lon": 44.355}, {"type": "node", "id": 9148844852, "lat": 32.0327728, "lon": 44.354547}, {"type": "node", "id": 9148844853, "lat": 32.0324267, "lon": 44.3535695}, {"type": "node", "id": 9148844854, "lat": 32.0316485, "lon": 44.3532119}, {"type": "node", "id": 9148844855, "lat": 32.0313979, "lon": 44.3537229}, {"type": "node", "id": 9148844871, "lat": 32.0322743, "lon": 44.3547946, "tags": {"barrier": "gate"}}, {"type": "node", "id": 9148844907, "lat": 32.031657, "lon": 44.3544379, "tags": {"barrier": "gate"}}, {"type": "node", "id": 9149215224, "lat": 32.031806, "lon": 44.3548492, "tags": {"barrier": "gate"}}, {"type": "node", "id": 9149264992, "lat": 32.0323686, "lon": 44.3547477}, {"type": "node", "id": 9149264993, "lat": 32.032011, "lon": 44.3549254}, {"type": "node", "id": 9160295017, "lat": 32.0808612, "lon": 44.3775219, "tags": {"amenity": "school", "name": "\u0645\u062f\u0631\u0633\u0629 \u062e\u062f\u064a\u062c\u0629 \u0627\u0644\u0627\u0628\u062a\u062f\u0627\u0626\u064a\u0629", "name:ar": "\u0645\u062f\u0631\u0633\u0629 \u062e\u062f\u064a\u062c\u0629 \u0627\u0644\u0627\u0628\u062a\u062f\u0627\u0626\u064a\u0629 \u0627\u0644\u0645\u062e\u062a\u0644\u0637\u0629"}}, {"type": "node", "id": 9214708117, "lat": 31.9992495, "lon": 44.3652844, "tags": {"amenity": "school", "name": "\u0645\u062f\u0631\u0633\u0629 \u0627\u0644\u062d\u0648\u0631\u0627\u0621 \u0627\u0644\u0627\u0628\u062a\u062f\u0627\u0626\u064a\u0629"}}, {"type": "node", "id": 9334861627, "lat": 32.0364244, "lon": 44.4108283, "tags": {"amenity": "school", "name": "\u0643\u0644\u064a\u0629 \u0627\u0644\u0642\u0627\u0646\u0648\u0646"}}, {"type": "node", "id": 9393950051, "lat": 31.9044114, "lon": 44.4910163, "tags": {"amenity": "school", "name": "\u0631\u0641\u062d \u0627\u0644\u0627\u0628\u062a\u062f\u0627\u0626\u064a\u0629", "opening_hours": "Su-Th 00:00-24:00"}}, {"type": "node", "id": 9393950052, "lat": 31.9144629, "lon": 44.4831403, "tags": {"amenity": "school", "name": "\u0627\u062d\u0628\u0627\u0628 \u0627\u0644\u0639\u0631\u0627\u0642 \u0645\u062a\u0648\u0633\u0637\u0629 \u0628\u0646\u0627\u062a"}}, {"type": "node", "id": 9393950053, "lat": 31.9112012, "lon": 44.4868575, "tags": {"amenity": "school", "name": "\u0645\u062f\u0631\u0633\u0629 \u0627\u0628\u0646 \u0632\u064a\u062f\u0648\u0646 \u0644\u0644\u0628\u0646\u064a\u0646"}}, {"type": "node", "id": 9393950119, "lat": 31.9066212, "lon": 44.4859732, "tags": {"amenity": "school", "name": "\u0635\u0646\u0639\u0627\u0621 \u0644\u0644\u0628\u0646\u0627\u062a", "opening_hours": "Su-Th 08:00-16:00"}}, {"type": "node", "id": 9393950120, "lat": 31.9068787, "lon": 44.4854462, "tags": {"amenity": "school", "name": "\u0627\u0644\u0647\u062f\u0649 \u0627\u0644\u0627\u0628\u062a\u062f\u0627\u0626\u064a\u0629"}}, {"type": "node", "id": 9393959131, "lat": 31.9142043, "lon": 44.4829404, "tags": {"amenity": "school", "name": "\u0627\u0644\u062f\u0631\u0629 \u0627\u0644\u0628\u064a\u0636\u0627\u0621 \u0644\u0644\u0628\u0646\u0627\u062a"}}, {"type": "node", "id": 9393969918, "lat": 31.9076072, "lon": 44.4916539, "tags": {"amenity": "school", "name": "\u0627\u0644\u0645\u0646\u0627\u0630\u0631\u0629 \u0627\u0644\u0627\u0628\u062a\u062f\u0627\u0626\u064a\u0629"}}, {"type": "node", "id": 9460075817, "lat": 32.0315048, "lon": 44.3545728, "tags": {"amenity": "school", "name": "\u0645\u062f\u0631\u0633\u0629 \u0628\u064a\u062a \u0627\u0644\u062d\u0643\u0645\u0647 \u0627\u0644\u0627\u0647\u0644\u064a\u0647"}}, {"type": "node", "id": 9858253717, "lat": 32.0168937, "lon": 44.3340335, "tags": {"amenity": "school", "name": "\u062b\u0627\u0646\u0648\u064a\u0629 \u0627\u0644\u0641\u0631\u0627\u0647\u064a\u062f\u064a \u0644\u0644\u0628\u0646\u064a\u0646"}}, {"type": "node", "id": 9922757717, "lat": 32.0782004, "lon": 44.4443664, "tags": {"amenity": "school", "name": "\u0645\u062a\u0648\u0633\u0637\u0629 \u0627\u0644\u0639\u0628\u0627\u0633\u064a\u0629 \u0644\u0644\u0628\u0646\u064a\u0646", "opening_hours": "Sa-Th 08:00-20:00"}}, {"type": "node", "id": 9922757817, "lat": 32.0784306, "lon": 44.4461471, "tags": {"amenity": "school", "name": "\u0645\u062f\u0631\u0633\u0629 \u0627\u0644\u0639\u0628\u0627\u0633\u064a\u0629 \u0627\u0644\u0627\u0628\u062a\u062f\u0627\u0626\u064a\u0629 \u0644\u0644\u0628\u0646\u064a\u0646"}}, {"type": "node", "id": 9938123817, "lat": 32.0783489, "lon": 44.44473, "tags": {"amenity": "school", "name": "\u062b\u0627\u0646\u0648\u064a\u0629 \u0627\u0644\u0645\u0631\u062a\u0636\u0649 \u0627\u0644\u0627\u0647\u0644\u064a\u0629 \u0644\u0644\u0628\u0646\u064a\u0646"}}, {"type": "node", "id": 10000844284, "lat": 32.0630786, "lon": 44.3589565}, {"type": "node", "id": 10000844285, "lat": 32.0633927, "lon": 44.3598347}, {"type": "node", "id": 10000844286, "lat": 32.0642216, "lon": 44.3594084}, {"type": "node", "id": 10000844287, "lat": 32.0639066, "lon": 44.3585377}, {"type": "node", "id": 10082411052, "lat": 32.0591345, "lon": 44.2957024, "tags": {"addr:city": "\u0645\u062c\u0645\u0639 \u0645\u062f\u064a\u0646\u0629 \u0627\u0644\u0633\u0644\u0627\u0645 \u0627\u0644\u0633\u0643\u0646\u064a", "addr:housenumber": "270", "addr:street": "\u0634\u0627\u0631\u0639 \u0627\u0644\u0633\u0644\u0627\u0645 \u0627\u0644\u0631\u0626\u064a\u0633\u064a", "amenity": "school", "name": "\u0645\u062f\u0627\u0631\u0633 \u0627\u0644\u0637\u0648\u0631 \u0627\u0644\u0623\u0647\u0644\u064a\u0629", "religion": "muslim"}}, {"type": "node", "id": 10098347876, "lat": 32.0831734, "lon": 44.332421, "tags": {"amenity": "school", "name": "SAMA ALIRAQ PRIVATE SCHOOLS", "name:ar": "\u0645\u062f\u0627\u0631\u0633 \u0633\u0645\u0627 \u0627\u0644\u0639\u0631\u0627\u0642 \u0627\u0644\u0627\u0647\u0644\u064a\u0629", "operator": "\u0627\u0644\u0627\u0633\u062a\u0627\u0630 \u0635\u0644\u0627\u062d \u0627\u0644\u0645\u0648\u0644\u0649"}}, {"type": "node", "id": 10101174722, "lat": 32.0290668, "lon": 44.3420133, "tags": {"amenity": "school", "name": "\u0645\u062f\u0631\u0633\u0629\u0627\u0644\u0634\u0631\u064a\u0639\u0629\u0644\u0644\u0628\u0646\u0627\u062a"}}, {"type": "node", "id": 10111167317, "lat": 32.0579979, "lon": 44.3102094, "tags": {"amenity": "school", "name": "\u0627\u0644\u0645\u0633\u062a\u0686\u0627\u0631"}}, {"type": "node", "id": 10292515714, "lat": 32.0023095, "lon": 44.3370525, "tags": {"amenity": "school"}}, {"type": "node", "id": 10650346705, "lat": 32.0283778, "lon": 44.3460216, "tags": {"amenity": "school", "name": "\u062b\u0627\u0646\u0648\u064a\u0629 \u0627\u0644\u0645\u062a\u0641\u0648\u0642\u0627\u062a"}}, {"type": "node", "id": 10650346805, "lat": 32.0276978, "lon": 44.346557, "tags": {"amenity": "school", "name": "\u062b\u0627\u0646\u0648\u064a\u0629 \u0627\u0644\u0645\u062a\u0641\u0648\u0642\u0627\u062a"}}, {"type": "node", "id": 10650347105, "lat": 32.027915, "lon": 44.3464967, "tags": {"amenity": "school", "name": "\u062b\u0627\u0646\u0648\u064a\u0629 \u0627\u0644\u0645\u062a\u0641\u0648\u0642\u0627\u062a"}}, {"type": "node", "id": 10991388405, "lat": 31.976958, "lon": 44.3517072, "tags": {"amenity": "school", "name": "\u0645\u062f\u0627\u0631\u0633 \u0627\u0644\u0632\u0647\u0631\u0627\u0621 \u0627\u0644\u0627\u0647\u0644\u064a\u0629"}}, {"type": "node", "id": 11055850905, "lat": 32.074834, "lon": 44.5427829, "tags": {"amenity": "school", "name": "\u0645\u062f\u0631\u0633\u0629 \u0627\u0644\u062d\u0633\u0646\u064a\u0646 \u0627\u0644\u0627\u0628\u062a\u062f\u0627\u0626\u064a\u0629"}}, {"type": "node", "id": 11055851005, "lat": 32.0745329, "lon": 44.5425455, "tags": {"amenity": "school", "name": "\u0645\u062f\u0631\u0633\u0629 \u0627\u0644\u062d\u0633\u0646\u064a\u0646 \u0627\u0644\u0627\u0628\u062a\u062f\u0627\u0626\u064a\u0629"}}, {"type": "node", "id": 11078303405, "lat": 32.0325652, "lon": 44.3938787, "tags": {"amenity": "school"}}, {"type": "node", "id": 11200010737, "lat": 32.0367546, "lon": 44.3546628, "tags": {"amenity": "school", "name": "\u0645\u062a\u0648\u0633\u0637\u0629\u0646\u0627\u0635\u0631\u062d\u0633\u064a\u0646 \u0627\u0644\u0639\u0646\u0643\u0648\u0634\u064a \u0644\u0644\u0628\u0646\u064a\u0646"}}, {"type": "node", "id": 11344976969, "lat": 31.9893872, "lon": 44.3425713, "tags": {"amenity": "school", "name": "\u0645\u062a\u0648\u0633\u0637\u0647 \u0628\u063a\u062f\u0627\u062f \u0644\u0644\u0628\u0646\u064a\u0646"}}, {"type": "node", "id": 11359582069, "lat": 31.9810462, "lon": 44.536741, "tags": {"addr:housenumber": "1452", "addr:postcode": "25455", "amenity": "school", "email": "hamzasahi2@gmail.com", "name": "\u0645\u062f\u0631\u0633\u0629 \u0627\u0644\u0641\u0644\u0627\u062d", "phone": "+9647819149402", "website": "https://www.facebook.com/hamza.sahi.1966?mibextid=JRoKGi"}}, {"type": "node", "id": 11412675156, "lat": 32.0641402, "lon": 44.3591807}, {"type": "node", "id": 11412675159, "lat": 32.0640113, "lon": 44.358826}, {"type": "node", "id": 11412675160, "lat": 32.0639493, "lon": 44.3586487}, {"type": "node", "id": 11412675163, "lat": 32.0640096, "lon": 44.358811}, {"type": "node", "id": 11412675164, "lat": 32.0641526, "lon": 44.3592163}, {"type": "node", "id": 11412675166, "lat": 32.0640031, "lon": 44.3595176}, {"type": "node", "id": 11412776082, "lat": 32.0635218, "lon": 44.3587367}, {"type": "node", "id": 11412776083, "lat": 32.0630843, "lon": 44.3589954}, {"type": "node", "id": 11412776093, "lat": 32.0632841, "lon": 44.3595217}, {"type": "node", "id": 11412776096, "lat": 32.0631562, "lon": 44.3591811}, {"type": "node", "id": 11412776098, "lat": 32.063523, "lon": 44.359773}, {"type": "node", "id": 11412776102, "lat": 32.0633269, "lon": 44.3596415}, {"type": "node", "id": 11434220769, "lat": 32.0264333, "lon": 44.3438741, "tags": {"addr:street": "\u0645\u062f\u0627\u0631\u0633 \u0628\u0627\u0646\u064a\u0642\u064a\u0627 \u0627\u0644\u0646\u062c\u0641", "amenity": "school"}}, {"type": "node", "id": 11659933999, "lat": 31.9823949, "lon": 44.3263241, "tags": {"amenity": "school", "name": "\u0627\u0639\u062f\u0627\u062f\u064a\u0629 \u0627\u0644\u0643\u0631\u0627\u0645\u0629 \u0627\u0644\u0646\u0645\u0648\u0630\u062c\u064a\u0629 \u0644\u0644\u0628\u0646\u0627\u062a"}}, {"type": "node", "id": 11659934000, "lat": 31.9828641, "lon": 44.3274985, "tags": {"amenity": "school", "name": "\u0645\u062f\u0631\u0633\u0647 \u0627\u0644\u062c\u0648\u0644\u0627\u0646 \u0627\u0644\u0627\u0628\u062a\u062f\u0627\u0626\u064a\u0647 \u0644\u0644\u0628\u0646\u064a\u0646"}}, {"type": "node", "id": 11659934001, "lat": 31.9830886, "lon": 44.3282783, "tags": {"amenity": "school", "name": "\u0645\u062a\u0648\u0633\u0637 \u0639\u0643\u0627\u0638 \u0644\u0644\u0628\u0646\u064a\u0646"}}, {"type": "node", "id": 11659937488, "lat": 31.9800832, "lon": 44.3562787, "tags": {"amenity": "school", "name": "\u062b\u0627\u0646\u0648\u064a\u0629 \u0627\u0644\u0623\u0635\u0641\u064a\u0627\u0621 \u0644\u0644\u0628\u0646\u064a\u0646"}}, {"type": "node", "id": 11662176884, "lat": 31.9824466, "lon": 44.3240686, "tags": {"amenity": "school", "name": "\u0645\u062f\u0631\u0633\u0629 \u0627\u0644\u0627\u0633\u0643\u0646\u062f\u0631\u064a\u0629 \u0644\u0644\u0628\u0646\u0627\u062a"}}, {"type": "node", "id": 11662176885, "lat": 31.9817245, "lon": 44.3245371, "tags": {"amenity": "school", "name": "\u0645\u062f\u0631\u0633\u0629 \u0627\u0644\u0627\u0646\u062a\u0635\u0627\u0631 \u0627\u0644\u0627\u0628\u062a\u062f\u0627\u0626\u064a\u0629"}}, {"type": "node", "id": 11662176886, "lat": 31.9823525, "lon": 44.3253239, "tags": {"amenity": "school", "name": "\u0645\u062f\u0631\u0633\u0629 \u0627\u0644\u0642\u0627\u0647\u0631\u0629 \u0627\u0644\u0627\u0628\u062a\u062f\u0627\u0626\u064a\u0629"}}, {"type": "node", "id": 11662176887, "lat": 31.9828528, "lon": 44.325507, "tags": {"amenity": "school", "name": "\u062b\u0627\u0646\u0648\u064a\u0629 \u0627\u0644\u0645\u0631\u0641\u0623 \u0644\u0644\u0628\u0646\u0627\u062a"}}, {"type": "node", "id": 11662176891, "lat": 31.985305, "lon": 44.323154, "tags": {"amenity": "school", "name": "\u0645\u062f\u0631\u0633\u0629 \u062d\u0633\u0646 \u0627\u0628\u0646 \u0639\u0644\u064a \u0633\u064a\u062f \u0639\u0648\u0636"}}, {"type": "node", "id": 11662176893, "lat": 31.9867408, "lon": 44.3220263, "tags": {"amenity": "school", "name": "\u0645\u062f\u0631\u0633\u0629 \u0627\u0644\u062a\u0647\u0630\u064a\u0628 \u0627\u0644\u0627\u0628\u062a\u062f\u0627\u0626\u064a\u0629 \u0644\u0644\u0628\u0646\u064a\u0646"}}, {"type": "node", "id": 11662176894, "lat": 31.9876006, "lon": 44.322492, "tags": {"amenity": "school", "name": "\u0645\u062f\u0631\u0633\u0629 \u0627\u0644\u062f\u062c\u0644\u0629 \u0627\u0644\u0627\u0628\u062a\u062f\u0627\u0626\u064a\u0629 \u0644\u0644\u0628\u0646\u0627\u062a"}}, {"type": "node", "id": 11662176895, "lat": 31.9882053, "lon": 44.3221348, "tags": {"amenity": "school", "name": "\u0645\u062a\u0648\u0633\u0637\u0629 \u0627\u0644\u0646\u0647\u0631\u0648\u0627\u0646 \u0644\u0644\u0628\u0646\u064a\u0646"}}, {"type": "node", "id": 11662176896, "lat": 31.9886384, "lon": 44.3218756, "tags": {"amenity": "school", "name": "\u0645\u062f\u0631\u0633\u0629 \u0627\u0644\u0623\u0645\u064a\u0631 \u0627\u0644\u0627\u0628\u062a\u062f\u0627\u0626\u064a\u0629"}}, {"type": "node", "id": 11662176900, "lat": 31.9902239, "lon": 44.3229933, "tags": {"amenity": "school", "name": "\u0627\u0639\u062f\u0627\u062f\u064a\u0629 \u0627\u0644\u0635\u0646\u0627\u0639\u064a \u0627\u0644\u0645\u0647\u0646\u064a\u0629"}}, {"type": "node", "id": 11668986974, "lat": 32.0198841, "lon": 44.3280069, "tags": {"amenity": "school", "name": "\u0645\u062f\u0631\u0633\u0629 \u062f\u0627\u0631 \u0627\u0644\u0639\u0644\u0645 \u0627\u0644\u0646\u0633\u0648\u064a\u0629"}}, {"type": "node", "id": 11668986977, "lat": 32.0173898, "lon": 44.3262229, "tags": {"amenity": "school", "name": "\u0645\u062f\u0631\u0633\u0629 \u0646\u0628\u0631\u0627\u0633 \u0627\u0644\u0639\u0644\u0645 \u0627\u0644\u0627\u0647\u0627\u064a\u0629"}}, {"type": "node", "id": 11668986987, "lat": 32.013211, "lon": 44.3300286, "tags": {"amenity": "school", "name": "\u0627\u0639\u062f\u0627\u062f\u064a\u0629 \u062e\u0648\u0644\u0629 \u0628\u0646\u062a \u0627\u0644\u0627\u0632\u0648\u0631 \u0644\u0644\u0628\u0646\u0627\u062a"}}, {"type": "node", "id": 11668986988, "lat": 32.0102582, "lon": 44.3306021, "tags": {"amenity": "school", "name": "\u0645\u062f\u0627\u0631\u0633 \u0627\u0644\u0645\u064a\u0627\u0631 \u0627\u0644\u0623\u0633\u0627\u0633\u064a\u0629 \u0627\u0644\u0623\u0647\u0644\u064a\u0629"}}, {"type": "node", "id": 11668986989, "lat": 32.0095575, "lon": 44.3310472, "tags": {"amenity": "school", "name": "\u0645\u062f\u0631\u0633\u0629 \u0639\u0628\u062f \u0627\u0644\u0644\u0647 \u0627\u0644\u0631\u0636\u064a\u0639 \u0627\u0644\u0627\u0647\u0644\u064a\u0629"}}, {"type": "node", "id": 11668986990, "lat": 32.0090523, "lon": 44.3314012, "tags": {"amenity": "school", "name": "\u062b\u0627\u0646\u0648\u064a\u0629 \u0627\u0644\u0642\u0627\u0633\u0645 \u0627\u0644\u0627\u0647\u0644\u064a\u0647"}}, {"type": "node", "id": 11668986991, "lat": 32.0093273, "lon": 44.3323342, "tags": {"amenity": "school", "name": "\u0645\u062f\u0631\u0633\u0629 \u0627\u0644\u0631\u0628\u0627\u0628"}}, {"type": "node", "id": 11668986992, "lat": 32.0094249, "lon": 44.3326254, "tags": {"amenity": "school", "name": "\u0645\u062f\u0631\u0633\u0629 \u062f\u0645\u0634\u0642 \u0627\u0644\u0627\u0628\u062a\u062f\u0627\u0626\u064a\u0629"}}, {"type": "node", "id": 11668986993, "lat": 32.0096276, "lon": 44.3325397, "tags": {"amenity": "school", "name": "\u0645\u062f\u0631\u0633\u0629 \u0627\u0644\u0643\u0648\u062b\u0631 \u0627\u0644\u0627\u0628\u062a\u062f\u0627\u0626\u064a\u0629"}}, {"type": "node", "id": 11668986994, "lat": 32.0094524, "lon": 44.3340268, "tags": {"amenity": "school", "name": "\u0645\u062f\u0631\u0633\u0629 \u0641\u062a\u062d \u0627\u0644\u0627\u0628\u062a\u062f\u0627\u0626\u064a\u0647 \u0644\u0644\u0628\u0646\u0627\u062a"}}, {"type": "node", "id": 11668987000, "lat": 32.0066828, "lon": 44.3290063, "tags": {"amenity": "school", "name": "\u0645\u062f\u0631\u0633\u0629 \u0627\u0644\u0645\u062d\u0642\u0642 \u0627\u0644\u0634\u064a\u062e \u062d\u0633\u064a\u0646 \u0627\u0644\u062d\u0644\u064a"}}, {"type": "node", "id": 11668987007, "lat": 31.9968276, "lon": 44.3255263, "tags": {"amenity": "school", "name": "\u0627\u0639\u062f\u0627\u062f\u064a\u0629 \u0627\u0644\u062d\u0628\u0648\u0628\u064a \u0627\u0644\u0645\u0633\u0627\u0626\u064a\u0629"}}, {"type": "node", "id": 11668987008, "lat": 31.9967152, "lon": 44.3253043, "tags": {"amenity": "school", "name": "\u0623\u0639\u062f\u0627\u062f\u064a\u0629 \u062c\u0648\u0627\u062f \u0633\u0644\u064a\u0645 \u0644\u0644\u0628\u0646\u064a\u0646"}}, {"type": "node", "id": 11668987009, "lat": 31.9968635, "lon": 44.3246248, "tags": {"amenity": "school", "name": "\u0645\u062a\u0648\u0633\u0637\u0629 \u0627\u0644\u062e\u0644\u064a\u0644 \u0644\u0644\u0628\u0646\u064a\u0646"}}, {"type": "node", "id": 11668987010, "lat": 31.9961563, "lon": 44.3250403, "tags": {"amenity": "school", "name": "\u0645\u062f\u0631\u0633\u0629 \u0627\u0644\u062d\u064a\u062f\u0631\u064a\u0629 \u0627\u0644\u0623\u0628\u062a\u062f\u0627\u0626\u064a\u0629"}}, {"type": "node", "id": 11669070753, "lat": 31.9938238, "lon": 44.3116807, "tags": {"amenity": "school", "name": "\u0627\u0644\u0645\u062f\u0631\u0633\u0647 \u0627\u0644\u0639\u0644\u0645\u06cc\u0647 \u0627\u0644\u0645\u062d\u0645\u062f\u06cc\u0647"}}, {"type": "node", "id": 11669070766, "lat": 31.9873853, "lon": 44.3111987, "tags": {"amenity": "school", "name": "\u0645\u062f\u0631\u0633\u0647 \u0635\u062d\u0627\u0628\u06cc \u0627\u0644\u062c\u0644\u06cc\u0644 \u0627\u0628\u0648\u0635\u0644\u062a \u0647\u0631\u0648\u06cc"}}, {"type": "node", "id": 11669139069, "lat": 31.9846485, "lon": 44.313513, "tags": {"amenity": "school", "name": "\u0645\u062f\u0631\u0633\u0629 \u0627\u0644\u0635\u0627\u062f\u0642\u064a\u0646 \u0627\u0644\u062f\u064a\u0646\u064a\u0629"}}, {"type": "node", "id": 11669193709, "lat": 32.0144357, "lon": 44.3705109, "tags": {"amenity": "school", "name": "\u0645\u0639\u0647\u062f \u062f\u0628\u064a \u0644\u0644\u063a\u0627\u062a \u0648 \u0627\u0644\u062d\u0627\u0633\u0628\u0627\u062a"}}, {"type": "node", "id": 11669193716, "lat": 32.012709, "lon": 44.3664111, "tags": {"amenity": "school", "name": "\u0645\u062f\u0627\u0631\u0633 \u0627\u0644\u0645\u062a\u0646\u0628\u064a \u0644\u0644\u0628\u0646\u0627\u062a"}}, {"type": "node", "id": 11669193718, "lat": 32.012797, "lon": 44.3652218, "tags": {"amenity": "school", "name": "\u062b\u0627\u0646\u0648\u064a\u0629 \u0627\u0644\u0639\u064a\u0646 \u0627\u0644\u0623\u0647\u0644\u064a\u0629"}}, {"type": "way", "id": 487218666, "nodes": [4797293327, 4797293328, 4797293329, 4797293330, 4797293327], "tags": {"amenity": "school", "name": "\u0645\u062a\u0648\u0633\u0637\u0629 \u062d\u0644\u0628 \u0644\u0644\u0628\u0646\u064a\u0646"}}, {"type": "way", "id": 487218667, "nodes": [4797293331, 4797293332, 4797293333, 4797293334, 4797293331], "tags": {"amenity": "school", "name": "\u0627\u0639\u062f\u0627\u062f\u064a\u0629 \u0627\u0644\u062d\u062f\u0628\u0627\u0621 \u0644\u0644\u0628\u0646\u0627\u062a"}}, {"type": "way", "id": 989894274, "nodes": [5253392810, 5253392809, 5253392808, 5253392812, 5253392811, 5253392810], "tags": {"amenity": "school", "name": "\u0645\u062f\u0631\u0633\u0629 \u0627\u0644\u062a\u0648\u062d\u064a\u062f"}}, {"type": "way", "id": 990047139, "nodes": [9148844851, 9149264993, 9148844871, 9149264992, 9148844852, 9148844853, 9148844854, 9148844855, 9148844907, 9149215224, 9148844851], "tags": {"amenity": "school", "name": "\u062b\u0627\u0646\u0648\u064a\u0629 \u062d\u0633\u064a\u0646 \u0639\u0644\u064a \u0645\u062d\u0641\u0648\u0638"}}, {"type": "way", "id": 1091985315, "nodes": [10000844284, 11412776083, 11412776096, 11412776093, 11412776102, 10000844285, 11412776098, 11412675166, 10000844286, 11412675164, 11412675156, 11412675159, 11412675163, 11412675160, 10000844287, 11412776082, 10000844284], "tags": {"amenity": "school"}}]}