{"version": 0.6, "generator": "Overpass API 0.7.61.5 4133829e", "osm3s": {"timestamp_osm_base": "2024-03-05T14:53:32Z", "copyright": "The data included in this document is from www.openstreetmap.org. The data is made available under ODbL."}, "elements": [{"type": "node", "id": 529639106, "lat": 65.8458572, "lon": 24.1488631, "tags": {"addr:housenumber": "12", "addr:street": "Hallituskatu", "amenity": "bank", "brand": "Nordea", "brand:wikidata": "Q1123823", "brand:wikipedia": "en:Nordea", "name": "Nordea", "opening_hours": "Mo-Fr 10:00-16:30", "operator": "Nordea", "phone": "+358-20-030-00"}}, {"type": "node", "id": 538062224, "lat": 65.8461281, "lon": 24.1495047, "tags": {"addr:housenumber": "14", "addr:street": "Hallituskatu", "amenity": "bank", "name": "Osuuspankki", "operator": "Osuuspankki", "phone": "+358-10-257-6801"}}, {"type": "node", "id": 581976826, "lat": 65.8453719, "lon": 24.14806, "tags": {"addr:housenumber": "10", "addr:street": "Hallituskatu", "amenity": "bank", "brand": "Handelsbanken", "brand:wikidata": "Q1421630", "fax": "+358-10-444-3291", "name": "Handelsbanken Tornio", "opening_hours": "Mo-Fr 10:00-16:30", "operator": "Handelsbanken", "phone": "+358-10-444-3290"}}, {"type": "node", "id": 581976831, "lat": 65.8466295, "lon": 24.1504212, "tags": {"addr:housenumber": "16", "addr:postcode": "95400", "addr:street": "Hallituskatu", "amenity": "bank", "name": "Sampo Pankki", "operator": "Sampo Pankki", "phone": "+358-10-512-5380"}}, {"type": "node", "id": 614553325, "lat": 65.8438449, "lon": 24.145342, "tags": {"amenity": "bank", "name": "S\u00e4\u00e4st\u00f6pankki Optia"}}, {"type": "node", "id": 660974611, "lat": 65.8459634, "lon": 24.1466215, "tags": {"addr:housenumber": "12", "addr:street": "Kauppakatu", "amenity": "bank", "name": "Suupohjan Osuuspankki"}}, {"type": "node", "id": 2883780331, "lat": 65.8356147, "lon": 24.1377504, "tags": {"amenity": "bank", "brand": "Handelsbanken", "brand:wikidata": "Q1421630", "brand:wikipedia": "en:Handelsbanken", "name": "Handelsbanken"}}, {"type": "node", "id": 2883780333, "lat": 65.8354539, "lon": 24.1385583, "tags": {"amenity": "bank", "brand": "Swedbank", "brand:wikidata": "Q1145493", "brand:wikipedia": "en:Swedbank", "name": "Swedbank"}}, {"type": "node", "id": 4193939099, "lat": 66.0405837, "lon": 24.0188067, "tags": {"amenity": "bank", "atm": "yes", "name": "Osuuspankki"}}]}