{"version": 0.6, "generator": "Overpass API 0.7.61.5 4133829e", "osm3s": {"timestamp_osm_base": "2024-03-05T14:58:45Z", "copyright": "The data included in this document is from www.openstreetmap.org. The data is made available under ODbL."}, "elements": [{"type": "node", "id": 2380635558, "lat": 58.9387462, "lon": 11.1707416, "tags": {"amenity": "pharmacy"}}, {"type": "node", "id": 3210613939, "lat": 58.9411111, "lon": 11.1697474}, {"type": "node", "id": 3210613940, "lat": 58.9413588, "lon": 11.169632}, {"type": "node", "id": 3210613941, "lat": 58.9413491, "lon": 11.1702516}, {"type": "node", "id": 3210613943, "lat": 58.9413795, "lon": 11.1698466}, {"type": "node", "id": 3210613944, "lat": 58.9411553, "lon": 11.1693155}, {"type": "node", "id": 3210613946, "lat": 58.9420714, "lon": 11.1696669}, {"type": "node", "id": 3210613947, "lat": 58.9417227, "lon": 11.1695033}, {"type": "node", "id": 3210613948, "lat": 58.9412107, "lon": 11.1695328}, {"type": "node", "id": 3210613949, "lat": 58.942124, "lon": 11.1696267}, {"type": "node", "id": 3210613950, "lat": 58.9417158, "lon": 11.169404}, {"type": "node", "id": 3210613951, "lat": 58.9412356, "lon": 11.1696535}, {"type": "node", "id": 3210613952, "lat": 58.9419856, "lon": 11.1693048}, {"type": "node", "id": 3210613954, "lat": 58.9411731, "lon": 11.1694036}, {"type": "node", "id": 3210613955, "lat": 58.9412577, "lon": 11.169345}, {"type": "node", "id": 3210613956, "lat": 58.9412771, "lon": 11.1698842}, {"type": "node", "id": 3210613957, "lat": 58.9412716, "lon": 11.1694791}, {"type": "node", "id": 3210613960, "lat": 58.9414487, "lon": 11.1701738}, {"type": "node", "id": 3210613961, "lat": 58.942023, "lon": 11.1696723}, {"type": "node", "id": 3210613962, "lat": 58.9411581, "lon": 11.1699727}, {"type": "node", "id": 3210613963, "lat": 58.9422458, "lon": 11.1692163}, {"type": "node", "id": 3210613965, "lat": 58.9417434, "lon": 11.1685377}, {"type": "node", "id": 3210613966, "lat": 58.9422167, "lon": 11.1689293}, {"type": "node", "id": 3210613967, "lat": 58.9417988, "lon": 11.1690795}, {"type": "node", "id": 3210613973, "lat": 58.9411996, "lon": 11.1687388}, {"type": "node", "id": 3210613974, "lat": 58.9420878, "lon": 11.1692695}, {"type": "node", "id": 3210613979, "lat": 58.9412494, "lon": 11.1692458}, {"type": "node", "id": 3228760003, "lat": 58.9412365, "lon": 11.1691145}, {"type": "node", "id": 3228760004, "lat": 58.9412217, "lon": 11.1689641}, {"type": "node", "id": 3729526397, "lat": 58.6915516, "lon": 11.2548755, "tags": {"addr:city": "Grebbestad", "addr:country": "SE", "addr:housenumber": "4", "addr:postcode": "457 72", "addr:street": "Tage Wikstr\u00f6ms gata", "amenity": "pharmacy", "brand": "Apoteksgruppen", "contact:phone": "+46771450450", "contact:website": "www.apoteksgruppen.se", "name": "Apoteket Ostronet", "opening_hours": "Mo-Fr 10:00-14:00", "operator": "Apoteksgruppen i Sverige AB"}}, {"type": "node", "id": 4323004794, "lat": 58.7234063, "lon": 11.3233282, "tags": {"addr:country": "SE", "addr:housenumber": "1", "addr:postcode": "457 30", "addr:street": "Aff\u00e4rsv\u00e4gen", "amenity": "pharmacy", "contact:phone": "+46 771-760 760"}}, {"type": "node", "id": 4323047889, "lat": 58.7241841, "lon": 11.3225122, "tags": {"addr:city": "Tanumshede", "addr:country": "SE", "addr:housenumber": "1A", "addr:postcode": "457 30", "addr:street": "Ringv\u00e4gen", "amenity": "clinic", "contact:phone": "+46 10 441 51 00", "healthcare": "clinic", "name": "N\u00e4rh\u00e4lsan Tanumshede v\u00e5rdcentral", "network": "V\u00e4stra G\u00f6talandsregionen", "official_name": "N\u00e4rh\u00e4lsan Tanumshede v\u00e5rdcentral", "operator": "V\u00e4stra G\u00f6talandsregionen", "website": "https://www.narhalsan.se/hitta-mottagning/tanum/narhalsan-tanumshede-vardcentral/"}}, {"type": "node", "id": 4712922398, "lat": 58.885569, "lon": 11.0289222, "tags": {"amenity": "pharmacy"}}, {"type": "node", "id": 5921084607, "lat": 59.0258401, "lon": 11.0371661, "tags": {"amenity": "doctors", "healthcare:service": "fastlege", "healthcare:speciality": "general", "name": "Skj\u00e6rhalden legekontor", "ref:nhn": "990087288"}}, {"type": "node", "id": 6432519863, "lat": 58.9449334, "lon": 11.1860937, "tags": {"addr:city": "Str\u00f6mstad", "addr:country": "SE", "addr:housenumber": "44", "addr:postcode": "452 35", "addr:street": "Oslov\u00e4gen", "alt_name": "Barnav\u00e5rdscentral Capio V\u00e5rdcentral Str\u00f6mstad", "amenity": "clinic", "contact:phone": "+46 526 79 90 00", "healthcare": "clinic", "name": "Capio V\u00e5rdcentral", "network": "V\u00e4stra G\u00f6talandsregionen", "official_name": "Capio V\u00e5rdcentral Str\u00f6mstad", "operator": "Capio", "ownership": "private"}}, {"type": "node", "id": 6432519864, "lat": 58.9314042, "lon": 11.1706978, "tags": {"addr:city": "Str\u00f6mstad", "addr:country": "SE", "addr:housenumber": "3", "addr:postcode": "452 31", "addr:street": "Uddevallav\u00e4gen", "amenity": "clinic", "contact:phone": "+46 526 187 87", "healthcare": "clinic", "name": "V\u00e5rdcentralen Bohuslinden", "network": "V\u00e4stra G\u00f6talandsregionen", "operator": "Praktikertj\u00e4nst"}}, {"type": "node", "id": 6432519865, "lat": 58.9423265, "lon": 11.1707622, "tags": {"addr:city": "Str\u00f6mstad", "addr:country": "SE", "addr:housenumber": "2", "addr:postcode": "452 37", "addr:street": "Brunnsgatan", "amenity": "clinic", "contact:phone": "+46 10 441 67 20", "healthcare": "midwife", "name": "Str\u00f6mstad barnmorskemottagning", "network": "V\u00e4stra G\u00f6talandsregionen", "official_name": "N\u00e4rh\u00e4lsan Str\u00f6mstad barnmorskemottagning", "operator": "V\u00e4stra G\u00f6talandsregionen"}}, {"type": "node", "id": 6432565059, "lat": 58.6928161, "lon": 11.2534735, "tags": {"addr:city": "Grebbestad", "addr:country": "SE", "addr:housenumber": "3", "addr:postcode": "457 72", "addr:street": "T\u00e4rnegatan", "amenity": "clinic", "contact:phone": "+46 525 102 37", "healthcare": "clinic", "name": "V\u00e5rdcentralen Grebbestad", "network": "V\u00e4stra G\u00f6talandsregionen", "official_name": "N\u00e4rh\u00e4lsan Tanumshede v\u00e5rdcentral Grebbestad", "operator": "V\u00e4stra G\u00f6talandsregionen"}}, {"type": "node", "id": 7966320353, "lat": 58.5979845, "lon": 11.288012, "tags": {"amenity": "pharmacy", "name": "Apoteksgruppen"}}, {"type": "node", "id": 9025996964, "lat": 58.7242427, "lon": 11.3224666, "tags": {"addr:city": "Tanumshede", "addr:country": "SE", "addr:housenumber": "1A", "addr:postcode": "457 30", "addr:street": "Ringv\u00e4gen", "amenity": "clinic", "name": "Tanumshede jourcentral", "official_name": "N\u00e4rh\u00e4lsan Tanumshede jourcentral", "operator": "V\u00e4stra G\u00f6talandsregionen", "phone": "+46 70 020 66 50", "website": "https://www.narhalsan.se/hitta-mottagning/tanum/narhalsan-tanumshede-jourcentral/"}}, {"type": "node", "id": 9026030517, "lat": 58.7262123, "lon": 11.3161734, "tags": {"addr:city": "Tanumshede", "addr:country": "SE", "addr:housenumber": "10", "addr:postcode": "457 31", "addr:street": "Bj\u00f6rnb\u00e4rsv\u00e4gen", "amenity": "clinic", "name": "Tanumshede barnav\u00e5rdscentral", "official_name": "N\u00e4rh\u00e4lsan Tanumshede barnav\u00e5rdscentral", "operator": "V\u00e4stra G\u00f6talandsregionen", "phone": "+46 10 441 51 21", "website": "https://www.narhalsan.se/hitta-mottagning/tanum/narhalsan-tanumshede-barnavardscentral/"}}, {"type": "node", "id": 9026034760, "lat": 58.7236753, "lon": 11.3230741, "tags": {"addr:city": "Tanumshede", "addr:country": "SE", "addr:housenumber": "4A", "addr:postcode": "457 30", "addr:street": "Aff\u00e4rsv\u00e4gen", "amenity": "clinic", "name": "Tanumshede rehabmottagning", "official_name": "N\u00e4rh\u00e4lsan Tanumshede rehabmottagning", "operator": "V\u00e4stra G\u00f6talandsregionen", "phone": "+46 10 441 51 27", "website": "https://www.narhalsan.se/hitta-mottagning/tanum/narhalsan-tanumshede-rehabmottagning/"}}, {"type": "node", "id": 9039077197, "lat": 58.9413208, "lon": 11.1689698, "tags": {"addr:city": "Str\u00f6mstad", "addr:country": "SE", "addr:housenumber": "10", "addr:postcode": "452 37", "addr:street": "V\u00e4stra Hamngatan", "amenity": "clinic", "name": "Str\u00f6mstad rehabmottagning", "official_name": "N\u00e4rh\u00e4lsan Str\u00f6mstad rehabmottagning", "operator": "V\u00e4stra G\u00f6talandsregionen", "phone": "+46 10 441 68 50", "website": "https://www.narhalsan.se/hitta-mottagning/stromstad/narhalsan-stromstad-rehabmottagning/"}}, {"type": "node", "id": 9039077198, "lat": 58.9412183, "lon": 11.168929, "tags": {"entrance": "yes"}}, {"type": "node", "id": 11505546493, "lat": 58.7246727, "lon": 11.3248666, "tags": {"amenity": "clinic", "healthcare": "clinic", "name": "Kvarterskliniken Tanum"}}, {"type": "way", "id": 314977827, "nodes": [3210613944, 3210613954, 3210613955, 3210613957, 3210613948, 3210613951, 3210613939, 3210613962, 3210613956, 3210613941, 3210613960, 3210613943, 3210613940, 3210613947, 3210613950, 3210613952, 3210613961, 3210613946, 3210613949, 3210613974, 3210613963, 3210613966, 3210613967, 3210613965, 3210613973, 9039077198, 3228760004, 3228760003, 3210613979, 3210613944], "tags": {"addr:city": "Str\u00f6mstad", "addr:country": "SE", "addr:housenumber": "10-12", "addr:postcode": "452 37", "addr:street": "V\u00e4stra Hamngatan", "amenity": "hospital", "brand": "V\u00e4stra G\u00f6talandsregionen", "building": "yes", "contact:phone": "+46 10 167 39 00", "contact:website": "https://www.narsjukhusvast.se/Start/Stromstad/", "healthcare": "hospital", "name": "Praktikertj\u00e4nst N\u00e4rsjukhus Str\u00f6mstad", "operator": "Praktikertj\u00e4nst N\u00e4rsjukhus", "ownership": "private"}}]}