{"version": 0.6, "generator": "Overpass API 0.7.61.5 4133829e", "osm3s": {"timestamp_osm_base": "2024-03-05T14:44:30Z", "copyright": "The data included in this document is from www.openstreetmap.org. The data is made available under ODbL."}, "elements": [{"type": "node", "id": 322838404, "lat": 57.1633691, "lon": 16.0281378, "tags": {"amenity": "bank", "atm": "yes", "name": "H\u00f6gsby sparbank"}}, {"type": "node", "id": 2239794513, "lat": 57.3195389, "lon": 15.5810869, "tags": {"amenity": "bank", "atm": "yes", "name": "Virserums Sparbank"}}, {"type": "node", "id": 3063848781, "lat": 57.1665706, "lon": 16.0252098, "tags": {"amenity": "bank", "brand": "Handelsbanken", "brand:wikidata": "Q1421630", "brand:wikipedia": "sv:Handelsbanken", "name": "Handelsbanken"}}, {"type": "node", "id": 4868682879, "lat": 56.9762895, "lon": 15.651604, "tags": {"amenity": "bank", "brand": "Swedbank", "brand:wikidata": "Q1145493", "brand:wikipedia": "sv:Swedbank", "name": "Swedbank"}}, {"type": "node", "id": 5364417494, "lat": 56.981493, "lon": 16.3321992, "tags": {"amenity": "bank", "atm": "yes", "name": "\u00c5lems Sparbank", "opening_hours": "Mo-We,Fr 09:30-15:00; Th 09:30-18:00", "wheelchair": "yes"}}, {"type": "node", "id": 6744107296, "lat": 57.3187764, "lon": 15.5832445, "tags": {"amenity": "bank", "atm": "yes", "brand": "Handelsbanken", "level": "0", "name": "Handelsbanken", "opening_hours": "Mo,We,Fr 10:00-13:00; PH closed", "wheelchair": "designated"}}]}