{"version": 0.6, "generator": "Overpass API 0.7.61.5 4133829e", "osm3s": {"timestamp_osm_base": "2024-03-05T13:45:00Z", "copyright": "The data included in this document is from www.openstreetmap.org. The data is made available under ODbL."}, "elements": [{"type": "node", "id": 926754945, "lat": 33.6118418, "lon": 69.2181649}, {"type": "node", "id": 994060706, "lat": 33.6014533, "lon": 69.2235518, "tags": {"alt_name": "\u06ab\u0631\u062f\u06d0\u0632\u069a\u0627\u0631", "name:ar": "\u063a\u0631\u062f\u064a\u0632", "name:az-Arab": "\u06af\u0631\u062f\u06cc\u0632", "name:azb": "\u06af\u0631\u062f\u06cc\u0632", "name:cs": "Gard\u00e9z", "name:de": "Gardez", "name:el": "\u0393\u03ba\u03b1\u03c1\u03bd\u03c4\u03ad\u03b6", "name:en": "Gardez", "name:es": "Gard\u00e9z", "name:fa": "\u06af\u0631\u062f\u06cc\u0632", "name:fr": "Gard\u00eaz", "name:hi": "\u0917\u0930\u0926\u0947\u091c\u093c", "name:ja": "\u30ac\u30eb\u30c7\u30fc\u30ba", "name:ko": "\uac00\ub974\ub370\uc988", "name:ks": "\u06af\u0631\u062f\u06cc\u0632", "name:lt": "GardezasGardezas", "name:ml": "\u0d17\u0d7c\u0d26\u0d47\u0d38\u0d4d", "name:pnb": "\u06af\u0631\u062f\u06cc\u0632", "name:ps": "\u06af\u0631\u062f\u06d0\u0632", "name:ru": "\u0413\u0430\u0440\u0434\u0435\u0437", "name:uk": "\u0413\u0430\u0440\u0434\u0435\u0437", "name:ur": "\u06af\u0631\u062f\u06cc\u0632", "place": "city", "wikidata": "Q467632", "wikipedia": "ps:\u06af\u0631\u062f\u06d0\u0632", "wikipedia:ar": "\u063a\u0631\u062f\u064a\u0632", "wikipedia:es": "Gardez", "wikipedia:fa": "\u06af\u0631\u062f\u06cc\u0632", "wikipedia:ps": "\u06af\u0631\u062f\u06d0\u0632", "wikipedia:ur": "\u06af\u0631\u062f\u06cc\u0632"}}, {"type": "node", "id": 3496091315, "lat": 33.6185496, "lon": 69.2300707}, {"type": "node", "id": 3496091316, "lat": 33.6184692, "lon": 69.2267555}, {"type": "node", "id": 3496091317, "lat": 33.6154761, "lon": 69.2261118}, {"type": "node", "id": 3496091318, "lat": 33.6125466, "lon": 69.2260836}, {"type": "node", "id": 3496091319, "lat": 33.6115894, "lon": 69.2245561}, {"type": "node", "id": 3496091320, "lat": 33.6106423, "lon": 69.2219275}, {"type": "node", "id": 3496091321, "lat": 33.6129654, "lon": 69.2211014}, {"type": "node", "id": 3496091322, "lat": 33.612474, "lon": 69.2179793}, {"type": "node", "id": 3496091323, "lat": 33.6064784, "lon": 69.217872}, {"type": "node", "id": 3496091324, "lat": 33.603342, "lon": 69.2176896}, {"type": "node", "id": 3496091325, "lat": 33.6038223, "lon": 69.2149618}, {"type": "node", "id": 3496091326, "lat": 33.6033665, "lon": 69.212301}, {"type": "node", "id": 3496091327, "lat": 33.6051828, "lon": 69.212411}, {"type": "node", "id": 3496091328, "lat": 33.6046243, "lon": 69.2062125}, {"type": "node", "id": 3496091329, "lat": 33.6018318, "lon": 69.2020255}, {"type": "node", "id": 3496091330, "lat": 33.5937303, "lon": 69.2017209}, {"type": "node", "id": 3496091331, "lat": 33.5932432, "lon": 69.2050817}, {"type": "node", "id": 3496091332, "lat": 33.5917056, "lon": 69.2047627}, {"type": "node", "id": 3496091333, "lat": 33.5914117, "lon": 69.2031521}, {"type": "node", "id": 3496091334, "lat": 33.5891237, "lon": 69.202283}, {"type": "node", "id": 3496091335, "lat": 33.5885964, "lon": 69.2053622}, {"type": "node", "id": 3496091336, "lat": 33.5905001, "lon": 69.2110485}, {"type": "node", "id": 3496091337, "lat": 33.5915547, "lon": 69.2159516}, {"type": "node", "id": 3496091338, "lat": 33.5910363, "lon": 69.2185694}, {"type": "node", "id": 3496091339, "lat": 33.5918228, "lon": 69.222936}, {"type": "node", "id": 3496091340, "lat": 33.5942, "lon": 69.2284506}, {"type": "node", "id": 3496091341, "lat": 33.5947362, "lon": 69.2301351}, {"type": "node", "id": 3496091342, "lat": 33.5949239, "lon": 69.2321736}, {"type": "node", "id": 3496091343, "lat": 33.5961214, "lon": 69.2351776}, {"type": "node", "id": 3496091344, "lat": 33.5969436, "lon": 69.2402202}, {"type": "node", "id": 3496091345, "lat": 33.6000535, "lon": 69.2382246}, {"type": "node", "id": 3496091346, "lat": 33.6020909, "lon": 69.2382568}, {"type": "node", "id": 3496091347, "lat": 33.6040568, "lon": 69.2380637}, {"type": "node", "id": 3496091348, "lat": 33.6041641, "lon": 69.232828}, {"type": "node", "id": 3496091349, "lat": 33.609034, "lon": 69.2320019}, {"type": "node", "id": 3496091350, "lat": 33.6119915, "lon": 69.2314333}, {"type": "node", "id": 3496091351, "lat": 33.6133318, "lon": 69.2322594}, {"type": "node", "id": 3496091352, "lat": 33.614806, "lon": 69.2306501}, {"type": "node", "id": 3559272359, "lat": 33.7115998, "lon": 69.407483, "tags": {"name": "\u062e\u06bc\u062e\u06cc\u0644", "name:en": "Khand Khil", "place": "village"}}, {"type": "node", "id": 4411278113, "lat": 33.4336268, "lon": 69.3773009, "tags": {"alt_name": "\u0634\u0648\u0627\u0643;Swak;Shwak", "name": "\u069a\u0648\u0627\u06a9", "name:en": "Shavak", "name:ps": "\u069a\u0648\u0627\u06a9", "name:ru": "\u0428\u0443\u0430\u043a", "place": "town", "source:name": "GNS"}}, {"type": "node", "id": 4416378480, "lat": 33.674513, "lon": 68.911128, "tags": {"alt_name": "Bakhsi Qal`a;Bakhshi Qal`eh;Bakhshi Qal`ah", "name": "\u0628\u062e\u0634\u06cc \u0642\u0644\u0639\u0647", "name:en": "Bakhsi Qal`eh", "name:ps": "\u0628\u062e\u0634\u06cc \u0642\u0644\u0639\u0647", "name:ru": "Bakhshikala", "place": "village", "source:name": "GNS"}}, {"type": "node", "id": 4416378481, "lat": 33.664482, "lon": 68.923439, "tags": {"alt_name": "Haji Buzurg Kala;Haji Bozurg Kala", "name": "\u062d\u0627\u062c\u06cc \u0628\u0632\u0631\u06af \u06a9\u0644\u0627", "name:en": "Hajji Bozorg Kala", "name:ps": "\u062d\u0627\u062c\u06cc \u0628\u0632\u0631\u06af \u06a9\u0644\u0627", "name:ru": "Khadzhi-Buzurg-Kala", "place": "village", "source:name": "GNS"}}, {"type": "node", "id": 4416378482, "lat": 33.66563, "lon": 68.928719, "tags": {"alt_name": "Jowzi Kala", "name": "\u062c\u0648\u0632\u06cc \u06a9\u0644\u0627", "name:en": "Jawzi Kala", "name:ps": "\u062c\u0648\u0632\u06cc \u06a9\u0644\u0627", "name:ru": "Dzhauzkala", "place": "village", "source:name": "GNS"}}, {"type": "node", "id": 4416378483, "lat": 33.674289, "lon": 68.9937, "tags": {"alt_name": "Jawzay", "name": "\u062c\u0648\u0632\u06cc", "name:en": "Jowzay", "name:ps": "\u062c\u0648\u0632\u06cc", "name:ru": "Dzhauzay", "place": "village", "source:name": "GNS"}}, {"type": "node", "id": 4416378484, "lat": 33.698471, "lon": 69.034889, "tags": {"alt_name": "Khvajeh Angur;Khwajah Angur", "name": "\u062e\u0648\u0627\u062c\u0647 \u0627\u0646\u06af\u0648\u0631", "name:en": "Khwajaangur", "name:ps": "\u062e\u0648\u0627\u062c\u0647 \u0627\u0646\u06af\u0648\u0631", "name:ru": "Khodzhaangur", "place": "village", "source:name": "GNS"}}, {"type": "node", "id": 4416378485, "lat": 33.678474, "lon": 68.897561, "tags": {"alt_name": "Mango Khel;Mangow Kheyl", "name": "\u0645\u0646\u06af\u0648 \u062e\u06d0\u0644", "name:en": "Mangokhel", "name:ps": "\u0645\u0646\u06af\u0648 \u062e\u06d0\u0644", "place": "village", "source:name": "GNS"}}, {"type": "node", "id": 4416378486, "lat": 33.671688, "lon": 68.899099, "tags": {"alt_name": "Piro Khel", "name": "\u067e\u064a\u0631\u0648 \u062e\u06d0\u0644", "name:en": "Pirokhel", "name:ps": "\u067e\u064a\u0631\u0648 \u062e\u06d0\u0644", "name:ru": "Pirokheyl'", "place": "village", "source:name": "GNS"}}, {"type": "node", "id": 4416378487, "lat": 33.665646, "lon": 68.918404, "tags": {"alt_name": "Yargol Kala;Yar Gul Kala", "name": "\u06cc\u0627\u0631 \u06af\u0644 \u06a9\u0644\u0627", "name:en": "Yargul Kala", "name:ps": "\u06cc\u0627\u0631 \u06af\u0644 \u06a9\u0644\u0627", "name:ru": "Yargul'kala", "place": "village", "source:name": "GNS"}}, {"type": "node", "id": 5394985225, "lat": 33.6942556, "lon": 69.3668746, "tags": {"name": "\u06a9\u0646\u062f\u0631 \u062e\u06cc\u0644", "name:en": "Kunder Khil", "place": "village"}}, {"type": "node", "id": 5394985839, "lat": 33.6894006, "lon": 69.387031, "tags": {"name": "\u062e\u0648\u0634\u062d\u0627\u0644 \u062e\u06cc\u0644", "name:en": "Khoshal Khil", "place": "village"}}, {"type": "node", "id": 7187285126, "lat": 33.6119629, "lon": 69.2181157}, {"type": "node", "id": 7187473331, "lat": 33.6398434, "lon": 69.2041713, "tags": {"place": "village"}}, {"type": "node", "id": 7187473332, "lat": 33.646988, "lon": 69.2030021, "tags": {"place": "village"}}, {"type": "node", "id": 7187473333, "lat": 33.6313144, "lon": 69.1873862, "tags": {"place": "village"}}, {"type": "node", "id": 7850132322, "lat": 33.436035, "lon": 69.0323827, "tags": {"name": "\u0632\u0631\u0645\u062a", "name:af": "Zurmat", "name:ar": "\u0632\u0631\u0645\u062a", "name:az-Arab": "\u0632\u0631\u0645\u062a", "name:azb": "\u0632\u0631\u0645\u062a", "name:de": "Zurmat", "name:en": "Zurmat", "name:es": "Zurmat", "name:fa": "\u0632\u0631\u0645\u062a", "name:ks": "\u0632\u0631\u0645\u062a", "name:nl": "Zurmat", "name:ota": "\u0632\u0631\u0645\u062a", "name:pnb": "\u0632\u0631\u0645\u062a", "name:ps": "\u0632\u0631\u0645\u062a", "name:sv": "Zurmat", "name:ur": "\u0632\u0631\u0645\u062a", "place": "town"}}, {"type": "node", "id": 8149457553, "lat": 33.4781723, "lon": 68.9067969, "tags": {"place": "village"}}, {"type": "node", "id": 8154967468, "lat": 33.6938956, "lon": 68.8882481, "tags": {"place": "village"}}, {"type": "node", "id": 8258880891, "lat": 33.6038757, "lon": 69.2136285}, {"type": "node", "id": 8258889540, "lat": 33.6036746, "lon": 69.2163764}, {"type": "node", "id": 8258903546, "lat": 33.6122911, "lon": 69.2256759}, {"type": "node", "id": 8259998248, "lat": 33.603364, "lon": 69.2130954}, {"type": "node", "id": 8264587662, "lat": 33.5948762, "lon": 69.2311755}, {"type": "node", "id": 8525703545, "lat": 33.6921591, "lon": 69.3484925, "tags": {"description": "Goud Qala Mangal (\u06ab\u0689 \u0642\u0644\u0639\u0647 \u0645\u0646\u06ab\u0644) is a Village in the district of Sayed Karam District '''Paktia Province''' '''Afghanistan'''. It is located 16 km to the northeast of Gardez (capital of paktia) and 3 km from Sayed karam District. The Village is within", "name": "Goud Qala Mangal \u06ab\u0689 \u0642\u0644\u0639\u0647 \u0645\u0646\u06ab\u0644", "place": "village"}}, {"type": "node", "id": 10248779554, "lat": 33.599184, "lon": 69.2304068, "tags": {"place": "town"}}, {"type": "way", "id": 342640046, "nodes": [3496091315, 3496091316, 3496091317, 3496091318, 8258903546, 3496091319, 3496091320, 3496091321, 3496091322, 7187285126, 926754945, 3496091323, 3496091324, 8258889540, 3496091325, 8258880891, 8259998248, 3496091326, 3496091327, 3496091328, 3496091329, 3496091330, 3496091331, 3496091332, 3496091333, 3496091334, 3496091335, 3496091336, 3496091337, 3496091338, 3496091339, 3496091340, 3496091341, 8264587662, 3496091342, 3496091343, 3496091344, 3496091345, 3496091346, 3496091347, 3496091348, 3496091349, 3496091350, 3496091351, 3496091352, 3496091315], "tags": {"is_in:country": "Afghanistan", "is_in:country_code": "AF", "name": "\u06ab\u0631\u062f\u06d0\u0632\u069a\u0627\u0631", "name:cs": "Gard\u00e9z", "name:de": "Gardez", "name:el": "\u0393\u03ba\u03b1\u03c1\u03bd\u03c4\u03ad\u03b6", "name:en": "Gardez", "name:es": "Gardez", "name:fa": "\u06af\u0631\u062f\u06cc\u0632", "name:fr": "Gard\u00eaz", "name:ja": "\u30ac\u30eb\u30c7\u30fc\u30ba", "name:lt": "GardezasGardezas", "name:ps": "\u06ab\u0631\u062f\u06d0\u0632", "name:ru": "\u0413\u0430\u0440\u0434\u0435\u0437", "name:uk": "\u0413\u0430\u0440\u0434\u0435\u0437", "place": "city", "wikidata": "Q467632", "wikipedia": "en:Gardez"}}]}