{"version": 0.6, "generator": "Overpass API 0.7.61.5 4133829e", "osm3s": {"timestamp_osm_base": "2024-03-05T13:51:03Z", "copyright": "The data included in this document is from www.openstreetmap.org. The data is made available under ODbL."}, "elements": [{"type": "node", "id": 4385592161, "lat": 34.890865, "lon": 63.414978, "tags": {"alt_name": "Chahkhamideh;Chakhamida;Chakhamidah", "name": "\u0686\u062e\u0645\u06cc\u062f\u0647", "name:en": "Cakhamida", "name:ps": "\u0686\u062e\u0645\u06cc\u062f\u0647", "name:ru": "Chakhamida", "place": "village", "source:name": "GNS"}}, {"type": "node", "id": 4385592162, "lat": 34.793355, "lon": 63.467722, "tags": {"alt_name": "Cadariti `Abdul Qayum;Chadariti `Abdul Qayyum;Chadaritt `Adbul Qayum", "name": "\u0686\u0627\u062f\u0631\u062a\u06cc \u0639\u0628\u062f\u0644 \u0642\u06cc\u0648\u0645", "name:en": "Chadarit-e `Adbol Qayum", "name:ps": "\u0686\u0627\u062f\u0631\u062a\u06cc \u0639\u0628\u062f\u0644 \u0642\u06cc\u0648\u0645", "name:ru": "Chadariti-Abdul'kayum", "place": "village", "source:name": "GNS"}}, {"type": "node", "id": 4385592164, "lat": 34.8803946, "lon": 63.3418983, "tags": {"alt_name": "Gharcaghay;Gharchahghay", "name": "\u063a\u0631\u0686\u0647 \u063a\u06cc", "name:en": "Gharchaghay", "name:ps": "\u063a\u0631\u0686\u0647 \u063a\u06cc", "name:ru": "Garchagay", "place": "village", "source:name": "GNS"}}, {"type": "node", "id": 4385592169, "lat": 34.8044809, "lon": 63.4384502, "tags": {"alt_name": "Qaddis;Qades", "name": "\u0642\u0627\u062f\u0633", "name:ar": "\u0642\u0627\u062f\u0633", "name:en": "Qadis", "name:ps": "\u0642\u0627\u062f\u0633", "name:ru": "Kadis", "place": "town", "source:name": "GNS"}}, {"type": "node", "id": 4385592171, "lat": 34.898308, "lon": 63.390537, "tags": {"alt_name": "\u0642\u06cc\u0628\u0647;Qaybah", "name": "\u0642\u06cc\u06d0\u0644\u06cc", "name:en": "Qaybeli", "name:ps": "\u0642\u06cc\u06d0\u0644\u06cc", "name:ru": "Kaybeli", "place": "village", "source:name": "GNS"}}, {"type": "node", "id": 4385592173, "lat": 34.82637, "lon": 63.411569, "tags": {"alt_name": "Zay Salih", "name": "\u0632\u0627\u06cc \u0635\u0627\u0644\u062d", "name:en": "Zay Saleh", "name:ps": "\u0632\u0627\u06cc \u0635\u0627\u0644\u062d", "name:ru": "Zaysalekh", "place": "village", "source:name": "GNS"}}, {"type": "node", "id": 4385592174, "lat": 34.80128, "lon": 63.456023, "tags": {"alt_name": "Omar Bek;`Omar Beka;`Omar Bayka", "name": "\u0639\u0645\u0631 \u0628\u06cc\u06a9\u0627", "name:en": "`Omar Beyg", "name:ps": "\u0639\u0645\u0631 \u0628\u06cc\u06a9\u0627", "name:ru": "Umarbeka", "place": "village", "source:name": "GNS"}}]}