{"version": 0.6, "generator": "Overpass API 0.7.61.5 4133829e", "osm3s": {"timestamp_osm_base": "2024-03-06T10:46:01Z", "copyright": "The data included in this document is from www.openstreetmap.org. The data is made available under ODbL."}, "elements": [{"type": "node", "id": 4502159289, "lat": 32.560389, "lon": 44.034389, "tags": {"amenity": "school", "name": "\u0645\u062a\u0648\u0633\u0637\u0629 \u0627\u0644\u0634\u0630\u0631\u0627\u062a", "name:ar": "\u0645\u062a\u0648\u0633\u0637\u0629 \u0627\u0644\u0634\u0630\u0631\u0627\u062a", "name:en": "Al-shatharaat"}}, {"type": "node", "id": 4502164090, "lat": 32.571944, "lon": 44.018278, "tags": {"amenity": "school", "name": "\u0627\u0628\u062a\u062f\u0627\u0626\u064a\u0629 \u0627\u0644\u062d\u0645\u0627\u0626\u0645", "name:ar": "\u0627\u0628\u062a\u062f\u0627\u0626\u064a\u0629 \u0627\u0644\u062d\u0645\u0627\u0626\u0645", "name:en": "Al-Hamaeim"}}, {"type": "node", "id": 4502175990, "lat": 32.562556, "lon": 44.016806, "tags": {"amenity": "school", "name": "\u0645\u062f\u0631\u0633\u0629 \u0627\u0644\u0645\u0634\u0643\u0627\u0629", "name:ar": "\u0627\u0644\u0645\u0634\u0643\u0627\u0629", "name:en": "Almishkat"}}, {"type": "node", "id": 4502224889, "lat": 32.565333, "lon": 44.030694, "tags": {"amenity": "school", "name": "\u062b\u0627\u0646\u0648\u064a\u0629 \u0627\u0644\u0634\u0647\u0628\u0627\u0621", "name:ar": "\u062b\u0627\u0646\u0648\u064a\u0629 \u0627\u0644\u0634\u0647\u0628\u0627\u0621", "name:en": "Al-shahbaa"}}, {"type": "node", "id": 4502224890, "lat": 32.560389, "lon": 44.012417, "tags": {"amenity": "school", "name": "\u0645\u062f\u0631\u0633\u0629 \u0627\u0644\u0627\u0646\u0628\u0627\u0631", "name:ar": "\u0645\u062f\u0631\u0633\u0629 \u0627\u0644\u0627\u0646\u0628\u0627\u0631", "name:en": "Alanbar"}}, {"type": "node", "id": 4502224989, "lat": 32.563278, "lon": 44.027139, "tags": {"amenity": "school", "name": "\u0645\u062f\u0631\u0633\u0629 \u0627\u0644\u0627\u0628\u0631\u0627\u0631", "name:ar": "\u0645\u062f\u0631\u0633\u0629 \u0627\u0644\u0627\u0628\u0631\u0627\u0631", "name:en": "al abraar"}}, {"type": "node", "id": 4502225089, "lat": 32.562972, "lon": 44.027778, "tags": {"amenity": "school", "name": "\u0645\u062f\u0631\u0633\u0629 \u0627\u0644\u0645\u0633\u062a\u0642\u0628\u0644 \u0644\u0644\u0628\u0646\u0627\u062a", "name:ar": "\u0645\u062f\u0631\u0633\u0629 \u0627\u0644\u0645\u0633\u062a\u0642\u0628\u0644 \u0644\u0644\u0628\u0646\u0627\u062a", "name:en": "Al-mustaqbal"}}, {"type": "node", "id": 4502281891, "lat": 32.5686589, "lon": 44.0194095, "tags": {"addr:city": "\u0643\u0631\u0628\u0644\u0627\u0621", "addr:postcode": "56001", "amenity": "school", "name": "\u062b\u0627\u0646\u0648\u064a\u0629 \u0627\u0644\u0637\u064a\u0628\u0627\u062a \u0644\u0644\u0628\u0646\u0627\u062a", "name:ar": "\u062b\u0627\u0646\u0648\u064a\u0629 \u0627\u0644\u0637\u064a\u0628\u0627\u062a \u0644\u0644\u0628\u0646\u0627\u062a", "name:en": "Al-Taybat Secondary School for Girls"}}, {"type": "node", "id": 4502281893, "lat": 32.553889, "lon": 44.022417, "tags": {"amenity": "school", "name": "\u0627\u0628\u062a\u062f\u0627\u0626\u064a\u0629 \u0627\u0644\u0627\u0646\u0635\u0627\u0641", "name:ar": "\u0627\u0628\u062a\u062f\u0627\u0626\u064a\u0629 \u0627\u0644\u0627\u0646\u0635\u0627\u0641", "name:en": "Al-ensaaf"}}, {"type": "node", "id": 4502314090, "lat": 32.5611819, "lon": 44.0343011, "tags": {"amenity": "school", "name": "\u0645\u062a\u0648\u0633\u0637\u0629 \u0627\u0644\u0645\u064a\u0644\u0627\u062f", "name:ar": "\u0645\u062a\u0648\u0633\u0637\u0629 \u0627\u0644\u0645\u064a\u0644\u0627\u062f", "name:en": "Al-milad"}}, {"type": "node", "id": 4502728998, "lat": 32.556528, "lon": 44.034556, "tags": {"amenity": "school", "name": "\u0627\u0628\u062a\u062f\u0627\u0626\u064a\u0629 \u0627\u0644\u0631\u062d\u0627\u0628", "name:ar": "\u0627\u0628\u062a\u062f\u0627\u0626\u064a\u0629 \u0627\u0644\u0631\u062d\u0627\u0628 + \u0627\u0644\u062a\u0637\u0648\u0631", "name:en": "Al-rehaab"}}, {"type": "node", "id": 4503897693, "lat": 32.571889, "lon": 44.018417, "tags": {"amenity": "school", "name": "\u0627\u0628\u062a\u062f\u0627\u0626\u064a\u0629 \u0627\u0644\u0627\u0648\u0644\u064a\u0627\u0621", "name:ar": "\u0627\u0628\u062a\u062f\u0627\u0626\u064a\u0629 \u0627\u0644\u0627\u0648\u0644\u064a\u0627\u0621", "name:en": "Al-Aouleeya'"}}, {"type": "node", "id": 4503922389, "lat": 32.566889, "lon": 44.027028, "tags": {"amenity": "school", "name": "\u0645\u062a\u0648\u0633\u0637\u0629 \u0635\u0647\u064a\u0628 \u0627\u0644\u0631\u0648\u0645\u064a", "name:ar": "\u0645\u062a\u0648\u0633\u0637\u0629 \u0635\u0647\u064a\u0628 \u0627\u0644\u0631\u0648\u0645\u064a", "name:en": "sohaeib al roomie"}}, {"type": "node", "id": 4505622990, "lat": 32.5720382, "lon": 44.0181656, "tags": {"amenity": "school", "name": "\u0627\u0628\u062a\u062f\u0627\u0626\u064a\u0629 \u0627\u0644\u062c\u0647\u0627\u062f", "name:ar": "\u0627\u0628\u062a\u062f\u0627\u0626\u064a\u0629 \u0627\u0644\u062c\u0647\u0627\u062f", "name:en": "Al-Jeihad"}}, {"type": "node", "id": 4505636189, "lat": 32.5718328, "lon": 44.0185001, "tags": {"amenity": "school", "name": "\u0627\u0628\u062a\u062f\u0627\u0626\u064a\u0629 \u062f\u064a\u0631 \u064a\u0627\u0633\u064a\u0646", "name:ar": "\u0627\u0628\u062a\u062f\u0627\u0626\u064a\u0629 \u062f\u064a\u0631 \u064a\u0627\u0633\u064a\u0646", "name:en": "Deer Yaseen"}}, {"type": "node", "id": 5596666128, "lat": 32.5603801, "lon": 44.0343926, "tags": {"amenity": "school", "name": "\u0645\u062f\u0631\u0633\u0629 \u0627\u0644\u0645\u064a\u0644\u0627\u062f \u0644\u0644\u0628\u0646\u0627\u062a"}}, {"type": "node", "id": 6117690388, "lat": 32.5683807, "lon": 44.0191533, "tags": {"amenity": "school", "name": "\u062b\u0627\u0646\u0648\u064a\u0629 \u0628\u063a\u062f\u0627\u062f", "name:en": "Baghdad Secondary School"}}, {"type": "node", "id": 6634696138, "lat": 32.559934, "lon": 44.0125997}, {"type": "node", "id": 6634696142, "lat": 32.5602601, "lon": 44.0120673}, {"type": "node", "id": 6634696145, "lat": 32.5609139, "lon": 44.012631}, {"type": "node", "id": 6634696150, "lat": 32.5605878, "lon": 44.0131634}, {"type": "node", "id": 7323871390, "lat": 32.5611896, "lon": 43.5180956}, {"type": "node", "id": 7323871391, "lat": 32.5608663, "lon": 43.5183263}, {"type": "node", "id": 7323871392, "lat": 32.5604458, "lon": 43.5190988}, {"type": "node", "id": 7323871393, "lat": 32.5611059, "lon": 43.5196111}, {"type": "node", "id": 7323871394, "lat": 32.5617547, "lon": 43.5184121}, {"type": "node", "id": 9605069609, "lat": 32.5686104, "lon": 43.9965095}, {"type": "node", "id": 9605069610, "lat": 32.5690804, "lon": 43.9968995}, {"type": "node", "id": 9605069611, "lat": 32.5695926, "lon": 43.9960304}, {"type": "node", "id": 9605069612, "lat": 32.5691225, "lon": 43.9956404}, {"type": "node", "id": 9605114040, "lat": 32.5706246, "lon": 44.0044192}, {"type": "node", "id": 9605114041, "lat": 32.5709862, "lon": 44.003813}, {"type": "node", "id": 9605114042, "lat": 32.5702087, "lon": 44.0031639}, {"type": "node", "id": 9605114043, "lat": 32.5698425, "lon": 44.0037808}, {"type": "node", "id": 9868395617, "lat": 32.556814, "lon": 44.0250609, "tags": {"addr:street": "\u062d\u064a \u0627\u0644\u0625\u0637\u0627\u0631\u0627\u062a", "amenity": "school", "name": "\u0645\u062f\u0631\u0633\u0629 \u0627\u0644\u0646\u0633\u0645\u0627\u062a \u0627\u0644\u0627\u0628\u062a\u062f\u0627\u0626\u064a\u0629 \u0644\u0644\u0628\u0646\u0627\u062a", "opening_hours": "Su-Th 08:00-12:30"}}, {"type": "node", "id": 11034210690, "lat": 32.5691598, "lon": 44.0197345, "tags": {"amenity": "school", "name": "\u0627\u0639\u062f\u0627\u062f\u064a\u0629 \u0627\u0644\u0628\u0644\u063a\u0627\u0621"}}, {"type": "node", "id": 11034247401, "lat": 32.568988, "lon": 44.0200325, "tags": {"amenity": "school", "name": "\u0645\u062f\u0631\u0633\u0629 \u0627\u0644\u0642\u0645\u0645"}}, {"type": "node", "id": 11055789559, "lat": 32.5686609, "lon": 43.9964239}, {"type": "node", "id": 11055789560, "lat": 32.5688023, "lon": 43.9966688}, {"type": "node", "id": 11232709737, "lat": 32.5681464, "lon": 44.0195213, "tags": {"amenity": "school", "name": "\u0645\u062f\u0631\u0633\u0629 \u0627\u0644\u0627\u0632\u0643\u064a\u0627\u0621 \u0627\u0644\u0627\u0628\u062a\u062f\u0627\u0626\u064a\u0629 \u0644\u0644\u0628\u0646\u064a\u0646", "name:en": "Al-Azkiaa Primary School"}}, {"type": "node", "id": 11232709937, "lat": 32.5684207, "lon": 44.0197738, "tags": {"amenity": "school", "name": "\u0645\u062f\u0631\u0633\u0629 \u0627\u0644\u0628\u0633\u0645\u0629 \u0627\u0644\u0627\u0628\u062a\u062f\u0627\u0626\u064a\u0629 \u0644\u0644\u0628\u0646\u0627\u062a", "name:ar": "\u0645\u062f\u0631\u0633\u0629 \u0627\u0644\u0628\u0633\u0645\u0629 \u0627\u0644\u0627\u0628\u062a\u062f\u0627\u0626\u064a\u0629 \u0644\u0644\u0628\u0646\u0627\u062a", "name:en": "Al-Bassma Primary School for Girls"}}, {"type": "way", "id": 706103078, "nodes": [6634696138, 6634696142, 6634696145, 6634696150, 6634696138], "tags": {"amenity": "school"}}, {"type": "way", "id": 784053105, "nodes": [7323871394, 7323871393, 7323871392, 7323871391, 7323871390, 7323871394], "tags": {"amenity": "school", "barrier": "wall"}}, {"type": "way", "id": 1043674660, "nodes": [9605069609, 11055789560, 9605069610, 9605069611, 9605069612, 11055789559, 9605069609], "tags": {"amenity": "school"}}, {"type": "way", "id": 1043674769, "nodes": [9605114040, 9605114041, 9605114042, 9605114043, 9605114040], "tags": {"amenity": "school"}}]}