{"version": 0.6, "generator": "Overpass API 0.7.61.5 4133829e", "osm3s": {"timestamp_osm_base": "2024-02-29T13:48:25Z", "copyright": "The data included in this document is from www.openstreetmap.org. The data is made available under ODbL."}, "elements": [{"type": "node", "id": 6545499165, "lat": 10.29697, "lon": -0.0907052, "tags": {"amenity": "school", "name": "God's Hands Senior High School"}}, {"type": "node", "id": 9064057708, "lat": 10.6339467, "lon": -0.02266, "tags": {"amenity": "school", "name": "EPP Tangbamong"}}, {"type": "node", "id": 9064102564, "lat": 10.6388372, "lon": -0.043303, "tags": {"amenity": "school", "name": "EPP Tambimong"}}, {"type": "node", "id": 9325546693, "lat": 10.6228191, "lon": -0.1910981}, {"type": "node", "id": 9325546694, "lat": 10.6221513, "lon": -0.1878749}, {"type": "node", "id": 9325546695, "lat": 10.6240959, "lon": -0.1865269}, {"type": "node", "id": 9325546696, "lat": 10.6262701, "lon": -0.1869998}, {"type": "node", "id": 9325546697, "lat": 10.6268578, "lon": -0.189924}, {"type": "node", "id": 9327500782, "lat": 10.5822796, "lon": -0.2633232}, {"type": "node", "id": 9327500783, "lat": 10.5824536, "lon": -0.26416}, {"type": "node", "id": 9327500784, "lat": 10.5824642, "lon": -0.2650183}, {"type": "node", "id": 9327500785, "lat": 10.5839565, "lon": -0.2648842}, {"type": "node", "id": 9327500786, "lat": 10.5838299, "lon": -0.2631676}, {"type": "node", "id": 10959776305, "lat": 10.688255, "lon": 0.0434997, "tags": {"amenity": "school", "name": "EPP BAGOU"}}, {"type": "node", "id": 10965170285, "lat": 10.6631666, "lon": 0.0683293, "tags": {"amenity": "school", "name": "EPP Malagou"}}, {"type": "node", "id": 10976925075, "lat": 10.6513783, "lon": 0.041598, "tags": {"amenity": "school", "name": "EPP Liek"}}, {"type": "way", "id": 1010792705, "nodes": [9325546697, 9325546696, 9325546695, 9325546694, 9325546693, 9325546697], "tags": {"addr:country": "GH", "addr:district": "Bunkpurugu-Yunyoo", "addr:place": "Nakpanduri", "addr:region": "North East", "amenity": "school", "description": "Nakpanduri Business Senior High School (NABSS) was established in 1996 to provide second cycle education for pupils in Bunkpurugu\u2013 akpanduri District.", "email": "nakpandurishs@ges.gov.gh", "isced:level": "3", "name": "Nakpanduri Senior High School", "operator": "Ghana Education Service", "operator:short": "GES", "operator:type": "public", "operator:wikidata": "Q30263788", "phone": "+233 24 152 2213;+233 20 741 6538", "start_date": "1996"}}, {"type": "way", "id": 1011006408, "nodes": [9327500786, 9327500785, 9327500784, 9327500783, 9327500782, 9327500786], "tags": {"addr:country": "GH", "addr:district": "East Mamprusi", "addr:place": "Sakogu", "addr:region": "North East", "amenity": "school", "description": "To provide access and quality second cycle level education to all students irrespective of their sex, gender and cultural inclination through effective teaching and learning processes.", "email": "sakogushst@ges.gov.gh", "isced:level": "3", "name": "Sakogu Senior High/Technical School", "operator": "Ghana Education Service", "operator:short": "GES", "operator:type": "public", "operator:wikidata": "Q30263788", "phone": "+233 24 163 3443", "start_date": "2018"}}]}