{"version": 0.6, "generator": "Overpass API 0.7.61.5 4133829e", "osm3s": {"timestamp_osm_base": "2024-03-06T11:11:30Z", "copyright": "The data included in this document is from www.openstreetmap.org. The data is made available under ODbL."}, "elements": [{"type": "node", "id": 2262959131, "lat": 32.4809, "lon": 45.9099282, "tags": {"amenity": "hospital", "name": "\u0627\u0644\u0645\u0631\u0643\u0632 \u0627\u0644\u0635\u062d\u064a \u0627\u0644\u0648\u0627\u0641\u062f\u064a\u0646"}}, {"type": "node", "id": 2263244322, "lat": 32.4555228, "lon": 46.0781043, "tags": {"amenity": "hospital", "name": "\u0627\u0644\u0645\u0631\u0643\u0632 \u0627\u0644\u0635\u062d\u064a \u0639\u0628\u062f \u0627\u0644\u0644\u0647 \u0628\u0646 \u0631\u0648\u0627\u062d\u0647"}}, {"type": "node", "id": 3077180367, "lat": 32.5111522, "lon": 45.8272847, "tags": {"addr:city": "\u0648\u0627\u0633\u0637", "amenity": "hospital", "healthcare": "hospital", "name": "\u062f\u0627\u0626\u0631\u0629 \u0635\u062d\u0629 \u0648\u0627\u0633\u0637"}}, {"type": "node", "id": 3086015904, "lat": 32.370189, "lon": 45.9475332, "tags": {"amenity": "hospital", "name": "\u0627\u0644\u0645\u0631\u0643\u0632 \u0627\u0644\u0635\u062d\u064a \u0627\u0644\u0637\u0648\u064a\u0633\u0627\u062a"}}, {"type": "node", "id": 3086030274, "lat": 32.5220083, "lon": 45.604258, "tags": {"amenity": "hospital", "name": "\u0627\u0644\u0645\u0631\u0643\u0632 \u0627\u0644\u0635\u062d\u064a \u0627\u0644\u0627\u062d\u0631\u0627\u0631"}}, {"type": "node", "id": 4392452493, "lat": 32.524654, "lon": 45.804915, "tags": {"amenity": "hospital", "name": "\u0645\u0633\u062a\u0634\u0641\u0649 \u0627\u0644\u0632\u0647\u0631\u0627\u0621 \u0627\u0644\u062a\u0639\u0644\u064a\u0645\u064a", "name:ar": "\u0645\u0633\u062a\u0634\u0641\u0649 \u0627\u0644\u0632\u0647\u0631\u0627\u0621 \u0627\u0644\u062a\u0639\u0644\u064a\u0645\u064a", "name:en": "AL ZAHRAA HOSPITAL"}}, {"type": "node", "id": 4726342890, "lat": 32.5159882, "lon": 45.8502344, "tags": {"amenity": "hospital", "healthcare": "hospital", "name": "\u0645\u0633\u062a\u0634\u0641\u0649 \u0627\u0644\u0643\u0631\u0627\u0645\u0629 \u0627\u0644\u062a\u0639\u0644\u064a\u0645\u064a", "name:en": "Al Karama Teaching Hospital"}}, {"type": "node", "id": 4937282221, "lat": 32.5264494, "lon": 45.7999507, "tags": {"addr:city": "\u0627\u0644\u0643\u0648\u062a", "addr:city:ar": "\u0627\u0644\u0643\u0648\u062a", "amenity": "hospital", "healthcare": "hospital", "name": "\u0645\u062f\u064a\u0631\u064a\u0629 \u0627\u0644\u0631\u0642\u0627\u0628\u0629 \u0627\u0644\u0645\u0627\u0644\u064a\u0629", "name:ar": "\u0645\u062f\u064a\u0631\u064a\u0629 \u0627\u0644\u0631\u0642\u0627\u0628\u0629 \u0627\u0644\u0645\u0627\u0644\u064a\u0629", "name:ku": "Rehabilitation Center"}}, {"type": "node", "id": 4937290121, "lat": 32.521161, "lon": 45.809553, "tags": {"amenity": "hospital", "name": "\u0645\u0631\u0643\u0632 \u062a\u0623\u0647\u064a\u0644 \u0627\u0644\u0639\u0627\u0642\u064a\u0646 \u0648\u0648\u0631\u0634\u0629 \u0627\u0644\u0627\u0637\u0631\u0627\u0641 \u0627\u0644\u0635\u0646\u0627\u0639\u064a\u0629 \u0648\u0627\u0633\u0637", "name:ar": "\u0645\u0631\u0643\u0632 \u062a\u0623\u0647\u064a\u0644 \u0627\u0644\u0639\u0627\u0642\u064a\u0646 \u0648\u0648\u0631\u0634\u0629 \u0627\u0644\u0627\u0637\u0631\u0627\u0641 \u0627\u0644\u0635\u0646\u0627\u0639\u064a\u0629 \u0648\u0627\u0633\u0637", "name:en": "rehabilitation center", "name:ku": "\u0645\u0631\u0643\u0632 \u062a\u0623\u0647\u064a\u0644 \u0627\u0644\u0639\u0627\u0642\u064a\u0646 \u0648\u0648\u0631\u0634\u0629 \u0627\u0644\u0627\u0637\u0631\u0627\u0641 \u0627\u0644\u0635\u0646\u0627\u0639\u064a\u0629 \u0648\u0627\u0633\u0637"}}, {"type": "node", "id": 4940187721, "lat": 32.4997199, "lon": 45.8214849, "tags": {"addr:city": "\u0627\u0644\u0643\u0648\u062a", "addr:country": "IQ", "addr:postcode": "52001", "amenity": "hospital", "name": "\u0645\u0633\u062a\u0634\u0641\u0649 \u0627\u0644\u0647\u0644\u0627\u0644 \u0627\u0644\u0623\u062d\u0645\u0631", "name:en": "Red Crescent Hospital", "website": "https://en.ircs.org.iq/"}}, {"type": "node", "id": 5120238022, "lat": 32.1791836, "lon": 46.0283855, "tags": {"addr:city": "\u0627\u0644\u062d\u064a", "amenity": "hospital", "healthcare": "hospital", "name": "\u0645\u0633\u062a\u0634\u0641\u0649 \u0627\u0644\u0634\u0647\u064a\u062f \u0641\u064a\u0631\u0648\u0632 \u0627\u0644\u0639\u0627\u0645", "name:ar": "\u0645\u0633\u062a\u0634\u0641\u0649 \u0627\u0644\u0634\u0647\u064a\u062f \u0641\u064a\u0631\u0648\u0632 \u0627\u0644\u0639\u0627\u0645", "name:en": "Ash Shahid Fayruz Public Hospital"}}, {"type": "node", "id": 5150990722, "lat": 32.1788712, "lon": 46.0274942}, {"type": "node", "id": 5150990723, "lat": 32.18007, "lon": 46.0283287}, {"type": "node", "id": 5150990724, "lat": 32.1794515, "lon": 46.0295151}, {"type": "node", "id": 5150990725, "lat": 32.1782527, "lon": 46.0287663}, {"type": "node", "id": 5720763326, "lat": 32.5123067, "lon": 45.8195204, "tags": {"amenity": "hospital", "name": "\u0641\u0646\u062f\u0642 \u0627\u0644\u0623\u0639\u0631\u0627\u0633  \u0648\u0627\u0633\u0637"}}, {"type": "node", "id": 6843973887, "lat": 32.5283436, "lon": 45.7914448}, {"type": "node", "id": 6843973888, "lat": 32.529004, "lon": 45.7918256}, {"type": "node", "id": 6843973889, "lat": 32.5294264, "lon": 45.7908452}, {"type": "node", "id": 6843973890, "lat": 32.5287237, "lon": 45.7904395}, {"type": "node", "id": 7198598287, "lat": 32.4994477, "lon": 45.8260381, "tags": {"amenity": "hospital", "name": "\u0635\u064a\u062f\u0644\u064a\u0629 \u0627\u0644\u0628\u0644\u0633\u0645"}}, {"type": "node", "id": 8343398522, "lat": 32.1607299, "lon": 46.0465317, "tags": {"amenity": "hospital", "internet_access": "wlan", "name": "\u0645\u062e\u0628\u0632 \u062d\u064a \u0627\u0644\u0648\u062d\u062f\u0647", "phone": "11796769"}}, {"type": "node", "id": 8922549716, "lat": 32.5160044, "lon": 45.8497774, "tags": {"amenity": "hospital", "name:en": "AL KUT HOSPITAL MILITARY"}}, {"type": "node", "id": 10283938809, "lat": 32.5189055, "lon": 45.6071469, "tags": {"addr:street": "\u0634\u0627\u0631\u0639 \u0627\u0644\u0648\u0633\u0637", "amenity": "hospital", "name": "\u0645\u0631\u0643\u0632 \u0635\u062d\u064a \u0627\u0644\u0627\u062d\u0631\u0627\u0631", "name:en": "Al-Ahrar Hospital", "opening_hours": "24/7"}}, {"type": "node", "id": 10980525679, "lat": 32.1791528, "lon": 46.0283417, "tags": {"amenity": "hospital", "name": "\u0645\u0633\u062a\u0634\u0641\u0649 \u0627\u0644\u0634\u0647\u064a\u062f \u0641\u064a\u0631\u0648\u0632 \u0627\u0644\u0639\u0627\u0645"}}, {"type": "node", "id": 10980553782, "lat": 32.5287932, "lon": 45.7911772, "tags": {"amenity": "hospital", "name": "\u0645\u0633\u062a\u0634\u0641\u0649 \u0627\u0644\u0628\u064a\u0637\u0631\u064a"}}, {"type": "node", "id": 10980553801, "lat": 32.5161611, "lon": 45.8502167, "tags": {"amenity": "hospital", "name": "\u0645\u0633\u062a\u0634\u0641\u0649 \u0627\u0644\u0643\u0631\u0627\u0645\u0629 \u0627\u0644\u062a\u0639\u0644\u064a\u0645\u064a"}}, {"type": "way", "id": 530455344, "nodes": [5150990722, 5150990723, 5150990724, 5150990725, 5150990722], "tags": {"addr:city": "\u0627\u0644\u062d\u064a", "amenity": "hospital", "healthcare": "hospital"}}, {"type": "way", "id": 730667961, "nodes": [6843973890, 6843973889, 6843973888, 6843973887, 6843973890], "tags": {"amenity": "hospital"}}]}