{"version": 0.6, "generator": "Overpass API 0.7.61.5 4133829e", "osm3s": {"timestamp_osm_base": "2024-03-05T14:33:06Z", "copyright": "The data included in this document is from www.openstreetmap.org. The data is made available under ODbL."}, "elements": [{"type": "node", "id": 16864088, "lat": 59.3156252, "lon": 17.9881616, "tags": {"amenity": "ferry_terminal", "ferry": "yes", "name": "Ekensberg", "network": "SL", "network:wikidata": "Q970452", "public_transport": "station", "ref": "8018", "route_ref": "89", "source": "PGS"}}, {"type": "node", "id": 29761139, "lat": 59.3244822, "lon": 18.0616372, "tags": {"amenity": "ferry_terminal", "ferry": "yes", "name": "Riddarholmen", "network": "E/S Movitz", "operator": "E/S Movitz", "public_transport": "station"}}, {"type": "node", "id": 35120411, "lat": 59.3151329, "lon": 18.1103205, "tags": {"amenity": "ferry_terminal", "ferry": "yes", "name": "Saltsj\u00f6qvarn", "network": "SL", "public_transport": "stop_position", "route_ref": "80"}}, {"type": "node", "id": 35977847, "lat": 59.3314444, "lon": 18.076492, "tags": {"amenity": "ferry_terminal", "ferry": "yes", "local_ref": "Kajplats 9", "name": "Nybrokajen", "operator": "Str\u00f6mma Kanalbolaget", "public_transport": "stop_position", "tourism": "sightseeing"}}, {"type": "node", "id": 35977848, "lat": 59.3316818, "lon": 18.0763364, "tags": {"amenity": "ferry_terminal", "ferry": "yes", "local_ref": "Kajplats 10", "name": "Nybrokajen", "operator": "Str\u00f6mma Kanalbolaget", "public_transport": "stop_position", "tourism": "sightseeing"}}, {"type": "node", "id": 35977851, "lat": 59.3319039, "lon": 18.0763928, "tags": {"amenity": "ferry_terminal", "ferry": "yes", "name": "Nybroplan", "public_transport": "stop_position", "tourism": "sightseeing"}}, {"type": "node", "id": 35977856, "lat": 59.3322312, "lon": 18.0770666, "tags": {"amenity": "ferry_terminal", "ferry": "yes", "name": "Nybroplan", "public_transport": "stop_position"}}, {"type": "node", "id": 115116510, "lat": 59.2576502, "lon": 17.8699083, "tags": {"amenity": "ferry_terminal", "ferry": "yes", "name": "Slagsta", "operator": "Trafikverket", "public_transport": "station", "website": "https://www.trafikverket.se/resa-och-trafik/trafikinformation/farjetrafik/ekeroleden/"}}, {"type": "node", "id": 130071152, "lat": 59.2711885, "lon": 17.8462802, "tags": {"amenity": "ferry_terminal", "enforcement": "toll", "ferry": "yes", "name": "Eker\u00f6", "operator": "Trafikverket", "public_transport": "station", "toll": "yes", "toll:bicycle": "no", "website": "https://www.trafikverket.se/resa-och-trafik/trafikinformation/farjetrafik/ekeroleden/"}}, {"type": "node", "id": 160010639, "lat": 59.3167764, "lon": 18.0958655, "tags": {"amenity": "ferry_terminal", "ferry": "yes", "name": "Viking Line: Stadsg\u00e5rden, Stockholm", "name:fi": "Viking Line: Stadsg\u00e5rden, Tukholma", "name:sv": "Viking Line: Stadsg\u00e5rden, Stockholm", "public_transport": "stop_position"}}, {"type": "node", "id": 246525140, "lat": 59.3058155, "lon": 18.0993318, "tags": {"amenity": "ferry_terminal", "ferry": "yes", "name": "Lumabryggan", "public_transport": "stop_position", "shelter": "yes", "website": "https://ressel.se/", "wheelchair": "yes"}}, {"type": "node", "id": 255852543, "lat": 59.324008, "lon": 18.0945212, "tags": {"amenity": "ferry_terminal", "name": "Allm\u00e4nna gr\u00e4nd", "route_ref": "82"}}, {"type": "node", "id": 271316742, "lat": 59.3161825, "lon": 18.0959742}, {"type": "node", "id": 271316744, "lat": 59.3162225, "lon": 18.0960185}, {"type": "node", "id": 271316745, "lat": 59.3162533, "lon": 18.0958788}, {"type": "node", "id": 271316747, "lat": 59.316381, "lon": 18.096}, {"type": "node", "id": 271316749, "lat": 59.3163342, "lon": 18.0962149}, {"type": "node", "id": 271316751, "lat": 59.3163859, "lon": 18.0962696}, {"type": "node", "id": 271316769, "lat": 59.3160122, "lon": 18.0980631}, {"type": "node", "id": 271316771, "lat": 59.3161466, "lon": 18.0971509}, {"type": "node", "id": 271316772, "lat": 59.3161104, "lon": 18.0971208}, {"type": "node", "id": 271316774, "lat": 59.3158731, "lon": 18.0971259}, {"type": "node", "id": 271325222, "lat": 59.3249862, "lon": 18.0892022, "tags": {"amenity": "ferry_terminal", "name": "Skeppsholmen", "network": "SL", "route_ref": "82", "wheelchair": "yes"}}, {"type": "node", "id": 281206466, "lat": 59.3612894, "lon": 17.5385405, "tags": {"amenity": "ferry_terminal", "ferry": "yes", "name": "Hovg\u00e5rden", "public_transport": "stop_position"}}, {"type": "node", "id": 281206468, "lat": 59.2032064, "lon": 17.6241108, "tags": {"amenity": "ferry_terminal", "ferry": "yes", "name": "M\u00e4larehamnen", "public_transport": "stop_position"}}, {"type": "node", "id": 355654016, "lat": 59.3313412, "lon": 18.0805439, "tags": {"amenity": "ferry_terminal", "ferry": "yes", "local_ref": "Kajplats 16", "name": "Strandv\u00e4gen", "operator": "Str\u00f6mma Kanalbolaget", "public_transport": "stop_position", "tourism": "sightseeing"}}, {"type": "node", "id": 410634528, "lat": 59.3279998, "lon": 18.0576975, "tags": {"amenity": "ferry_terminal", "ferry": "yes", "public_transport": "station", "source": "survey"}}, {"type": "node", "id": 410634533, "lat": 59.3279429, "lon": 18.0577318, "tags": {"amenity": "ferry_terminal", "ferry": "yes", "public_transport": "station", "ref": "10", "source": "survey"}}, {"type": "node", "id": 410634537, "lat": 59.3278509, "lon": 18.0578262, "tags": {"amenity": "ferry_terminal", "ferry": "yes", "public_transport": "station", "ref": "9", "source": "survey"}}, {"type": "node", "id": 410634785, "lat": 59.3277196, "lon": 18.0581266, "tags": {"amenity": "ferry_terminal", "ferry": "yes", "public_transport": "station", "ref": "8", "source": "survey"}}, {"type": "node", "id": 410634797, "lat": 59.3277196, "lon": 18.0582983, "tags": {"amenity": "ferry_terminal", "ferry": "yes", "public_transport": "station", "ref": "7", "source": "survey"}}, {"type": "node", "id": 410634798, "lat": 59.3277809, "lon": 18.0587961, "tags": {"amenity": "ferry_terminal", "ferry": "yes", "public_transport": "station", "ref": "6", "source": "survey"}}, {"type": "node", "id": 410634799, "lat": 59.3278071, "lon": 18.059045, "tags": {"amenity": "ferry_terminal", "ferry": "yes", "name": "Drottingholm, M\u00e4larlunch", "public_transport": "station", "ref": "5", "source": "survey"}}, {"type": "node", "id": 410634819, "lat": 59.3278397, "lon": 18.0593041, "tags": {"amenity": "ferry_terminal", "ferry": "yes", "name": "Drottingholm, M\u00e4larlunch", "public_transport": "station", "ref": "4", "source": "survey"}}, {"type": "node", "id": 410634843, "lat": 59.3278676, "lon": 18.0595342, "tags": {"amenity": "ferry_terminal", "ferry": "yes", "name": "Birka, M\u00e4larparty", "public_transport": "station", "ref": "3", "source": "survey"}}, {"type": "node", "id": 410634860, "lat": 59.3278818, "lon": 18.0598031, "tags": {"amenity": "ferry_terminal", "ferry": "yes", "name": "Birka skoltrafik", "public_transport": "station", "ref": "2", "source": "survey"}}, {"type": "node", "id": 435174540, "lat": 59.2730802, "lon": 17.5130153, "tags": {"amenity": "ferry_terminal", "ferry": "yes", "name": "Sandviken", "public_transport": "station"}}, {"type": "node", "id": 470300804, "lat": 59.2713771, "lon": 17.8463723, "tags": {"amenity": "ferry_terminal", "ferry": "yes", "name": "Jungfrusund", "network": "SL", "network:wikidata": "Q970452", "public_transport": "station", "route_ref": "89"}}, {"type": "node", "id": 485965863, "lat": 59.3294883, "lon": 18.0746517}, {"type": "node", "id": 485965869, "lat": 59.3295333, "lon": 18.0747526}, {"type": "node", "id": 485965878, "lat": 59.3294426, "lon": 18.0750276}, {"type": "node", "id": 485965881, "lat": 59.3294028, "lon": 18.0750141}, {"type": "node", "id": 485967116, "lat": 59.3294226, "lon": 18.0739291, "tags": {"amenity": "ferry_terminal", "ferry": "yes", "local_ref": "Gate 3", "name": "Str\u00f6mkajen", "public_transport": "stop_position", "wheelchair": "yes"}}, {"type": "node", "id": 485995815, "lat": 59.3291747, "lon": 18.0752382, "tags": {"amenity": "ferry_terminal", "ferry": "yes", "name": "Str\u00f6mkajen", "public_transport": "stop_position"}}, {"type": "node", "id": 486034379, "lat": 59.3281071, "lon": 18.077214, "tags": {"amenity": "ferry_terminal"}}, {"type": "node", "id": 486061809, "lat": 59.3308056, "lon": 18.0778161, "tags": {"amenity": "ferry_terminal", "ferry": "yes", "local_ref": "Kajplats 6", "name": "Nybrokajen", "operator": "Str\u00f6mma Kanalbolaget", "public_transport": "stop_position", "tourism": "sightseeing"}}, {"type": "node", "id": 486067046, "lat": 59.3309812, "lon": 18.0774294, "tags": {"amenity": "ferry_terminal", "ferry": "yes", "local_ref": "Kajplats 7", "name": "Nybrokajen", "operator": "Str\u00f6mma Kanalbolaget", "public_transport": "stop_position", "tourism": "sightseeing"}}, {"type": "node", "id": 486068299, "lat": 59.3311554, "lon": 18.0770476, "tags": {"amenity": "ferry_terminal", "ferry": "yes", "local_ref": "Kajplats 8", "name": "Nybrokajen", "operator": "Str\u00f6mma Kanalbolaget", "public_transport": "stop_position", "tourism": "sightseeing"}}, {"type": "node", "id": 486078674, "lat": 59.3320532, "lon": 18.0783041, "tags": {"amenity": "ferry_terminal", "ferry": "yes", "local_ref": "Kajplats 13", "name": "Strandv\u00e4gen", "operator": "Str\u00f6mma Kanalbolaget", "public_transport": "stop_position", "tourism": "sightseeing"}}, {"type": "node", "id": 596498652, "lat": 59.3303575, "lon": 17.538623, "tags": {"amenity": "ferry_terminal", "name": "Birka Bj\u00f6rk\u00f6", "source": "PGS"}}, {"type": "node", "id": 810671304, "lat": 59.4032434, "lon": 18.1539631, "tags": {"amenity": "ferry_terminal", "ferry": "yes", "name": "Fr\u00f6svik", "public_transport": "stop_position"}}, {"type": "node", "id": 863443820, "lat": 59.3181168, "lon": 18.1570049, "tags": {"amenity": "ferry_terminal", "description": "Several ferries per hour to Str\u00f6mkajen, just in front of the Grand Hotel in central Stockholm", "ferry": "yes", "name": "Nacka strand", "operator": "Waxholmsbolaget", "public_transport": "stop_position"}}, {"type": "node", "id": 1143110463, "lat": 59.3270825, "lon": 18.0748531, "tags": {"amenity": "ferry_terminal", "ferry": "yes", "name": "Hop-on Hop-off", "public_transport": "station", "tourism": "sightseeing"}}, {"type": "node", "id": 1184732659, "lat": 59.3848585, "lon": 17.5259525, "tags": {"amenity": "ferry_terminal"}}, {"type": "node", "id": 1305968326, "lat": 59.3321868, "lon": 18.076856, "tags": {"amenity": "ferry_terminal", "ferry": "yes", "name": "Nybroplan", "network": "SL", "public_transport": "stop_position", "route_ref": "80"}}, {"type": "node", "id": 1345009516, "lat": 59.3047834, "lon": 17.9022254, "tags": {"amenity": "ferry_terminal", "name": "Kungsh\u00e4ttan", "network": "SL", "route_ref": "89"}}, {"type": "node", "id": 1345027624, "lat": 59.3231805, "lon": 17.8909153, "tags": {"amenity": "ferry_terminal", "ferry": "yes", "name": "Drottningholm", "operator": "Str\u00f6mma Kanalbolaget", "public_transport": "stop_position"}}, {"type": "node", "id": 1377839891, "lat": 59.3009983, "lon": 17.9273622, "tags": {"amenity": "ferry_terminal", "name": "M\u00e4larh\u00f6jdsbadet", "operator": "Str\u00f6mma Kanalbolaget"}}, {"type": "node", "id": 1378015001, "lat": 59.3158823, "lon": 18.0971836, "tags": {"entrance": "main"}}, {"type": "node", "id": 1386448414, "lat": 59.3434204, "lon": 18.1191381, "tags": {"amenity": "ferry_terminal", "cargo": "passengers", "ferry": "yes", "name": "Frihamnsterminalen", "operator": "Tallink Silja AB", "public_transport": "station"}}, {"type": "node", "id": 1388609772, "lat": 59.3969394, "lon": 18.1446531, "tags": {"amenity": "ferry_terminal", "ferry": "yes", "name": "Storholmen \u00f6stra", "public_transport": "stop_position"}}, {"type": "node", "id": 1501888033, "lat": 59.3036068, "lon": 17.9500573, "tags": {"amenity": "ferry_terminal", "name": "Fridhem", "wikidata": "Q10499027", "wikipedia": "sv:Fridhemsbryggan"}}, {"type": "node", "id": 1539476819, "lat": 59.3506036, "lon": 18.115094, "tags": {"amenity": "ferry_terminal", "cargo": "passengers;vehicle", "ferry": "yes", "name": "V\u00e4rtahamnen, Stockholm", "name:fi": "V\u00e4rtahamnen, Tukholma", "public_transport": "stop_position"}}, {"type": "node", "id": 1550340367, "lat": 59.3161315, "lon": 18.0990844, "tags": {"amenity": "ferry_terminal", "ferry": "yes", "name": "Viking Line: Stadsg\u00e5rden, Stockholm", "name:fi": "Viking Line: Stadsg\u00e5rden, Tukholma", "name:sv": "Viking Line: Stadsg\u00e5rden, Stockholm", "public_transport": "stop_position"}}, {"type": "node", "id": 1550340457, "lat": 59.3177003, "lon": 18.0887506, "tags": {"amenity": "ferry_terminal", "ferry": "yes", "name": "Viking Line Stockholm", "name:en": "Viking Line Stockholm", "name:fi": "Viking Line Tukholma", "name:sv": "Viking Line Stockholm", "public_transport": "station"}}, {"type": "node", "id": 1617791905, "lat": 59.3321107, "lon": 18.0766612, "tags": {"amenity": "ferry_terminal", "ferry": "yes", "name": "Nybroplan", "public_transport": "stop_position"}}, {"type": "node", "id": 1706948603, "lat": 59.3159671, "lon": 18.0973226}, {"type": "node", "id": 1706948607, "lat": 59.3162487, "lon": 18.0968957}, {"type": "node", "id": 1746028195, "lat": 59.3160822, "lon": 18.1242317, "tags": {"amenity": "ferry_terminal", "ferry": "yes", "name": "Finnboda hamn", "network": "SL", "public_transport": "stop_position", "route_ref": "80"}}, {"type": "node", "id": 1752867076, "lat": 59.3080273, "lon": 18.097532, "tags": {"amenity": "ferry_terminal", "ferry": "yes", "name": "Barn\u00e4ngsbryggan", "public_transport": "stop_position", "shelter": "yes", "website": "https://ressel.se/", "wheelchair": "yes"}}, {"type": "node", "id": 1806455598, "lat": 59.309209, "lon": 18.1012638, "tags": {"amenity": "ferry_terminal", "ferry": "yes", "name": "Henriksdal", "public_transport": "stop_position", "shelter": "yes", "website": "https://ressel.se/", "wheelchair": "yes"}}, {"type": "node", "id": 2302339559, "lat": 59.34315, "lon": 18.1519526, "tags": {"amenity": "ferry_terminal", "ferry": "yes", "name": "Dal\u00e9num", "network": "SL", "public_transport": "stop_position", "route_ref": "80"}}, {"type": "node", "id": 2622730794, "lat": 59.3175983, "lon": 18.1365162, "tags": {"amenity": "ferry_terminal", "ferry": "yes", "name": "Kvarnholmen", "network": "SL", "public_transport": "stop_position", "route_ref": "80"}}, {"type": "node", "id": 3520614506, "lat": 59.3316316, "lon": 18.0796169, "tags": {"amenity": "ferry_terminal", "ferry": "yes", "local_ref": "Kajplats 14", "name": "Strandv\u00e4gen", "operator": "Str\u00f6mma Kanalbolaget", "public_transport": "stop_position", "tourism": "sightseeing"}}, {"type": "node", "id": 3672291787, "lat": 59.3584147, "lon": 18.1062326, "tags": {"amenity": "ferry_terminal", "ferry": "yes", "name": "Ropsten", "public_transport": "stop_position"}}, {"type": "node", "id": 3672291804, "lat": 59.3765192, "lon": 18.092034, "tags": {"amenity": "ferry_terminal", "ferry": "yes", "name": "Tranholmen", "public_transport": "stop_position"}}, {"type": "node", "id": 3672291806, "lat": 59.3899537, "lon": 18.0910041, "tags": {"amenity": "ferry_terminal", "ferry": "yes", "name": "Ekudden", "public_transport": "stop_position", "toilets:wheelchair": "no", "wheelchair": "yes", "wheelchair:description": "Step free access to ferry from here"}}, {"type": "node", "id": 3672291814, "lat": 59.3904703, "lon": 18.1096072, "tags": {"amenity": "ferry_terminal", "ferry": "yes", "name": "Sticklinge brygga", "public_transport": "stop_position"}}, {"type": "node", "id": 3672314530, "lat": 59.3897657, "lon": 18.1381837, "tags": {"amenity": "ferry_terminal", "ferry": "yes", "name": "Mor Annas brygga", "public_transport": "stop_position"}}, {"type": "node", "id": 3672314531, "lat": 59.3933557, "lon": 18.1342098, "tags": {"amenity": "ferry_terminal", "ferry": "yes", "name": "Storholmen s\u00f6dra", "public_transport": "stop_position"}}, {"type": "node", "id": 3672314547, "lat": 59.3987166, "lon": 18.1354138, "tags": {"amenity": "ferry_terminal", "ferry": "yes", "name": "Storholmen norra", "public_transport": "stop_position"}}, {"type": "node", "id": 4009662202, "lat": 59.3158117, "lon": 18.1068031, "tags": {"amenity": "ferry_terminal", "ferry": "yes", "name": "Masthamnen", "public_transport": "stop_position"}}, {"type": "node", "id": 4041775250, "lat": 59.3511479, "lon": 18.1138514, "tags": {"entrance": "exit", "layer": "1", "level": "1"}}, {"type": "node", "id": 4158908415, "lat": 59.3526186, "lon": 18.1173289, "tags": {"amenity": "ferry_terminal", "cargo": "passengers;vehicle", "ferry": "yes", "name": "V\u00e4rtahamnen, Stockholm", "name:fi": "V\u00e4rtahamnen, Tukholma", "public_transport": "stop_position"}}, {"type": "node", "id": 4158971114, "lat": 59.3515811, "lon": 18.1096973}, {"type": "node", "id": 4158971117, "lat": 59.3526563, "lon": 18.1125245, "tags": {"amenity": "ferry_terminal", "ferry": "yes", "public_transport": "stop_position"}}, {"type": "node", "id": 4628097508, "lat": 59.3207593, "lon": 18.1518674, "tags": {"amenity": "ferry_terminal", "ferry": "yes", "name": "Blockhusudden", "network": "SL", "public_transport": "stop_position", "route_ref": "80"}}, {"type": "node", "id": 4781752014, "lat": 59.3912332, "lon": 17.5354944, "tags": {"amenity": "ferry_terminal"}}, {"type": "node", "id": 4852111884, "lat": 59.3159762, "lon": 18.0980363}, {"type": "node", "id": 4906350757, "lat": 59.3293786, "lon": 18.0748343}, {"type": "node", "id": 4906350758, "lat": 59.3295048, "lon": 18.0748392}, {"type": "node", "id": 4906350762, "lat": 59.3294586, "lon": 18.0747163}, {"type": "node", "id": 4906350771, "lat": 59.3294906, "lon": 18.0747979}, {"type": "node", "id": 4906350789, "lat": 59.3294436, "lon": 18.0746819}, {"type": "node", "id": 4906350794, "lat": 59.3294656, "lon": 18.0749121}, {"type": "node", "id": 4906350797, "lat": 59.329477, "lon": 18.0749175}, {"type": "node", "id": 4906350798, "lat": 59.3293968, "lon": 18.0748545}, {"type": "node", "id": 4993327848, "lat": 59.3458399, "lon": 18.1314401, "tags": {"amenity": "ferry_terminal", "ferry": "yes", "name": "Frihamnen", "network": "SL", "public_transport": "stop_position", "route_ref": "80"}}, {"type": "node", "id": 4995171106, "lat": 59.316067, "lon": 18.0964113}, {"type": "node", "id": 5056024976, "lat": 59.3165431, "lon": 17.9845687, "tags": {"amenity": "ferry_terminal", "ferry": "yes", "name": "Stora Essingen", "public_transport": "station"}}, {"type": "node", "id": 5061941784, "lat": 59.3086755, "lon": 18.0414434, "tags": {"amenity": "ferry_terminal", "seasonal": "yes", "website": "https://parker.stockholm/parker/arsta-holmar"}}, {"type": "node", "id": 5147750225, "lat": 59.324222, "lon": 18.0942741, "tags": {"amenity": "ferry_terminal", "name": "Allm\u00e4nna gr\u00e4nd", "route_ref": "80", "wheelchair": "yes"}}, {"type": "node", "id": 5177837655, "lat": 59.3512578, "lon": 18.1096647}, {"type": "node", "id": 5177837656, "lat": 59.3514763, "lon": 18.113704}, {"type": "node", "id": 5177837657, "lat": 59.3514101, "lon": 18.1096801, "tags": {"layer": "1", "level": "1"}}, {"type": "node", "id": 5177837658, "lat": 59.3511433, "lon": 18.114025}, {"type": "node", "id": 5262521844, "lat": 59.3277368, "lon": 18.0580091, "tags": {"amenity": "ferry_terminal", "name": "Klara M\u00e4larstrand", "name:ru": "\u041f\u0440\u0438\u0447\u0430\u043b", "name:sv": "Klara M\u00e4larstrand", "network": "SL", "route_ref": "89"}}, {"type": "node", "id": 5262521850, "lat": 59.2925594, "lon": 17.8114355, "tags": {"amenity": "ferry_terminal", "name": "Tappstr\u00f6m", "network": "SL", "route_ref": "89"}}, {"type": "node", "id": 5262521858, "lat": 59.3231203, "lon": 18.0086478, "tags": {"addr:city": "Stockholm", "addr:postcode": "112 67", "amenity": "ferry_terminal", "ferry": "yes", "name": "Lilla Essingen", "network": "SL", "network:wikidata": "Q970452", "operator": "SL", "public_transport": "station", "route_ref": "89"}}, {"type": "node", "id": 5899360819, "lat": 59.3511655, "lon": 18.1131813}, {"type": "node", "id": 5899360820, "lat": 59.3515426, "lon": 18.1111685}, {"type": "node", "id": 5899360829, "lat": 59.3512048, "lon": 18.1116828}, {"type": "node", "id": 5899360830, "lat": 59.3515466, "lon": 18.1110174}, {"type": "node", "id": 5899360869, "lat": 59.3515787, "lon": 18.10979}, {"type": "node", "id": 5899360872, "lat": 59.3512126, "lon": 18.1113857}, {"type": "node", "id": 5899361295, "lat": 59.3504686, "lon": 18.1101658, "tags": {"amenity": "ferry_terminal", "cargo": "passengers;vehicle", "ferry": "yes", "name": "V\u00e4rtahamnen, Stockholm", "name:fi": "V\u00e4rtahamnen, Tukholma", "public_transport": "stop_position"}}, {"type": "node", "id": 6190265288, "lat": 59.349645, "lon": 18.1100799, "tags": {"amenity": "ferry_terminal", "cargo": "passengers;vehicle", "ferry": "yes", "name": "V\u00e4rtahamnen, Stockholm", "name:fi": "V\u00e4rtahamnen, Tukholma", "public_transport": "stop_position"}}, {"type": "node", "id": 6641553893, "lat": 59.3515072, "lon": 18.1128764, "tags": {"entrance": "yes", "layer": "0", "level": "0"}}, {"type": "node", "id": 7161105018, "lat": 59.3229762, "lon": 18.0761288, "tags": {"amenity": "ferry_terminal", "ferry": "yes", "name": "Slussen", "network": "SL", "public_transport": "stop_position", "route_ref": "82", "wheelchair": "yes"}}, {"type": "node", "id": 7255728121, "lat": 59.3454401, "lon": 18.1245522, "tags": {"amenity": "ferry_terminal", "ferry": "yes", "name": "Frihamnen, Stockholm", "public_transport": "stop_position"}}, {"type": "node", "id": 7593157345, "lat": 59.3288104, "lon": 17.9855322, "tags": {"addr:city": "Bromma", "addr:postcode": "167 51", "amenity": "ferry_terminal", "ferry": "yes", "name": "Alviks Strand", "network": "E/S Movitz", "operator": "E/S Movitz", "public_transport": "station"}}, {"type": "node", "id": 7593182562, "lat": 59.3539218, "lon": 17.9691441, "tags": {"addr:city": "Solna", "addr:postcode": "171 54", "amenity": "ferry_terminal", "ferry": "yes", "name": "Solna Strand", "network": "E/S Movitz", "operator": "E/S Movitz", "public_transport": "station"}}, {"type": "node", "id": 7593206974, "lat": 59.339977, "lon": 18.004668, "tags": {"amenity": "ferry_terminal", "name": "Hornsbergs Strand", "network": "E/S Movitz", "operator": "E/S Movitz"}}, {"type": "node", "id": 7597797021, "lat": 59.3232809, "lon": 18.0088856, "tags": {"addr:city": "Stockholm", "addr:postcode": "112 67", "amenity": "ferry_terminal", "ferry": "yes", "name": "Lilla Essingen", "network": "E/S Movitz", "operator": "E/S Movitz", "public_transport": "station"}}, {"type": "node", "id": 7816288901, "lat": 59.3235899, "lon": 18.0761765, "tags": {"amenity": "ferry_terminal", "ferry": "yes", "name": "Slussen", "public_transport": "stop_position"}}, {"type": "node", "id": 7837932953, "lat": 59.3294315, "lon": 18.0742384, "tags": {"amenity": "ferry_terminal", "ferry": "yes", "local_ref": "Gate 1", "name": "Str\u00f6mkajen", "public_transport": "stop_position", "wheelchair": "yes"}}, {"type": "node", "id": 7837932954, "lat": 59.3294253, "lon": 18.0740827, "tags": {"amenity": "ferry_terminal", "ferry": "yes", "local_ref": "Gate 2", "name": "Str\u00f6mkajen", "public_transport": "stop_position", "wheelchair": "yes"}}, {"type": "node", "id": 7837932955, "lat": 59.3294181, "lon": 18.0737815, "tags": {"amenity": "ferry_terminal", "ferry": "yes", "local_ref": "Gate 4", "name": "Str\u00f6mkajen", "public_transport": "stop_position", "wheelchair": "yes"}}, {"type": "node", "id": 8515293226, "lat": 59.3512604, "lon": 18.1139121}, {"type": "node", "id": 8515293245, "lat": 59.3513204, "lon": 18.113854}, {"type": "node", "id": 8515293269, "lat": 59.3514135, "lon": 18.1137645}, {"type": "node", "id": 8515293270, "lat": 59.3512082, "lon": 18.1139625}, {"type": "node", "id": 8515293271, "lat": 59.3514484, "lon": 18.1137309}, {"type": "node", "id": 8515293274, "lat": 59.351474, "lon": 18.1137062}, {"type": "node", "id": 8515293275, "lat": 59.351287, "lon": 18.1138865}, {"type": "node", "id": 8540998196, "lat": 59.3163756, "lon": 18.0962586}, {"type": "node", "id": 8540998204, "lat": 59.3162789, "lon": 18.0959045}, {"type": "node", "id": 8540998205, "lat": 59.3161323, "lon": 18.09747}, {"type": "node", "id": 8540998207, "lat": 59.3160837, "lon": 18.0977103}, {"type": "node", "id": 8540998209, "lat": 59.3160499, "lon": 18.0973759}, {"type": "node", "id": 8540998216, "lat": 59.3160091, "lon": 18.0973496, "tags": {"entrance": "exit"}}, {"type": "node", "id": 8541040218, "lat": 59.3158983, "lon": 18.0972566}, {"type": "node", "id": 8541040219, "lat": 59.3159221, "lon": 18.0972744, "tags": {"entrance": "service"}}, {"type": "node", "id": 9167180324, "lat": 59.2628274, "lon": 17.8750218, "tags": {"amenity": "ferry_terminal", "name": "V\u00e5rby brygga"}}, {"type": "node", "id": 9879424706, "lat": 59.3078377, "lon": 17.408215, "tags": {"amenity": "ferry_terminal", "ferry": "yes", "internet_access": "no", "name": "Enh\u00f6rna-Ekensberg", "operator": "Gripsholms -Mariefreds \u00c5ngfartygs AB", "public_transport": "station", "website": "http://www.mariefred.info/turlista-och-priser/"}}, {"type": "node", "id": 10126712868, "lat": 59.3099581, "lon": 18.0443489, "tags": {"amenity": "ferry_terminal", "seasonal": "yes", "website": "https://parker.stockholm/parker/arsta-holmar"}}, {"type": "node", "id": 10151488182, "lat": 59.3169172, "lon": 18.0951941, "tags": {"amenity": "ferry_terminal", "ferry": "yes", "name": "Viking Line: Stadsg\u00e5rden, Stockholm", "name:fi": "Viking Line: Stadsg\u00e5rden, Tukholma", "name:sv": "Viking Line: Stadsg\u00e5rden, Stockholm", "public_transport": "stop_position"}}, {"type": "node", "id": 10925853658, "lat": 59.3135608, "lon": 17.9799923, "tags": {"amenity": "ferry_terminal", "name": "Lindholmen"}}, {"type": "node", "id": 11436946066, "lat": 59.3261849, "lon": 18.0440806, "tags": {"amenity": "ferry_terminal", "cargo": "passengers"}}, {"type": "node", "id": 11437420087, "lat": 59.3213637, "lon": 18.0504352, "tags": {"amenity": "ferry_terminal", "cargo": "passengers"}}, {"type": "way", "id": 24967536, "nodes": [271316742, 271316744, 271316745, 8540998204, 271316747, 271316749, 8540998196, 271316751, 1706948607, 8540998205, 8540998207, 271316769, 4852111884, 271316771, 271316772, 8540998209, 8540998216, 1706948603, 8541040219, 8541040218, 1378015001, 271316774, 4995171106, 271316742], "tags": {"addr:city": "Stockholm", "addr:postcode": "116 45", "addr:street": "Tegelvikshamn", "amenity": "ferry_terminal", "building": "transportation", "building:levels": "2", "ferry": "yes", "internet_access": "wlan", "name": "Viking Line terminal", "name:en": "Viking Line Terminal", "name:fi": "Viking Linen terminaali", "name:sv": "Viking Line terminal", "operator": "Viking Line", "public_transport": "station"}}, {"type": "way", "id": 40285329, "nodes": [485965863, 485965869, 4906350771, 4906350758, 4906350797, 4906350794, 485965878, 485965881, 4906350798, 4906350757, 4906350789, 4906350762, 485965863], "tags": {"amenity": "ferry_terminal", "building": "yes", "ferry": "yes", "layer": "1", "name": "Waxholmsbolaget", "operator": "Waxholmsbolaget", "payment:cash": "no", "public_transport": "station"}}, {"type": "way", "id": 533755501, "nodes": [4041775250, 5177837658, 8515293270, 8515293226, 8515293275, 8515293245, 8515293269, 8515293271, 8515293274, 5177837656, 6641553893, 5899360820, 5899360830, 5899360869, 4158971114, 5177837657, 5177837655, 5899360872, 5899360829, 5899360819, 4041775250], "tags": {"addr:city": "Stockholm", "addr:country": "SE", "addr:housenumber": "10", "addr:postcode": "115 41", "addr:street": "Hamnpirsv\u00e4gen", "amenity": "ferry_terminal", "building": "yes", "building:levels": "4", "ferry": "yes", "name": "V\u00e4rtaterminalen", "opening_hours": "08:30-17:30; May 01-Sep 03 05:45-17:30", "operator": "Stockholms Hamnar / Tallink-Silja Line", "public_transport": "station", "start_date": "2016-10-18", "website": "https://www.tallinksilja.com/", "wikidata": "Q5604889", "wikimedia_commons": "Category:V\u00e4rtahamnen", "wikipedia": "sv:V\u00e4rtahamnen"}}]}