{"version": 0.6, "generator": "Overpass API 0.7.61.5 4133829e", "osm3s": {"timestamp_osm_base": "2024-02-29T13:47:24Z", "copyright": "The data included in this document is from www.openstreetmap.org. The data is made available under ODbL."}, "elements": [{"type": "node", "id": 4851957894, "lat": 5.5735659, "lon": -2.0076737, "tags": {"amenity": "school", "name": "Purity School"}}, {"type": "node", "id": 4851957896, "lat": 5.5705146, "lon": -2.0108897, "tags": {"amenity": "school", "name": "D/A School"}}, {"type": "node", "id": 4851990398, "lat": 5.5668627, "lon": -2.0080197}, {"type": "node", "id": 4851999167, "lat": 5.5689876, "lon": -2.0126975, "tags": {"amenity": "school", "name": "Methodist Basic Schools"}}, {"type": "node", "id": 4910912024, "lat": 5.8474773, "lon": -2.0170715, "tags": {"amenity": "school", "name": "St. Francis Memorial School"}}, {"type": "node", "id": 4919821037, "lat": 5.4556517, "lon": -1.9883269, "tags": {"amenity": "school"}}, {"type": "node", "id": 5207579309, "lat": 5.6843154, "lon": -2.0231339, "tags": {"amenity": "school", "name": "Wassa Dawurampong English and Arabic J.H.S."}}, {"type": "node", "id": 5207579311, "lat": 5.6886993, "lon": -2.0221952, "tags": {"amenity": "school", "name": "Wassa Dawurampong District Assembly J.H.S"}}, {"type": "node", "id": 5207579312, "lat": 5.687657, "lon": -2.0216855, "tags": {"amenity": "school", "name": "Ox-Bridge Preparatory / J.H.S"}}, {"type": "node", "id": 5311756337, "lat": 5.5047374, "lon": -1.8795215, "tags": {"amenity": "school", "name": "Kyekyewere A.M.E. Zion Basic School"}}, {"type": "node", "id": 5311758644, "lat": 5.4699356, "lon": -1.9125305, "tags": {"amenity": "school", "name": "Huni Valley Basic School"}}, {"type": "node", "id": 5312267450, "lat": 5.4699551, "lon": -1.910111}, {"type": "node", "id": 5312267451, "lat": 5.4725129, "lon": -1.9069863}, {"type": "node", "id": 5312267452, "lat": 5.4709777, "lon": -1.905283}, {"type": "node", "id": 5312267453, "lat": 5.4704223, "lon": -1.9046474}, {"type": "node", "id": 5312267454, "lat": 5.4694211, "lon": -1.9048727}, {"type": "node", "id": 5312267455, "lat": 5.4692449, "lon": -1.9054037}, {"type": "node", "id": 5312267456, "lat": 5.4687055, "lon": -1.9065624}, {"type": "node", "id": 5312267457, "lat": 5.4683264, "lon": -1.9073671}, {"type": "node", "id": 5312267458, "lat": 5.4677497, "lon": -1.9085205}, {"type": "node", "id": 5312267459, "lat": 5.4688337, "lon": -1.9100493}, {"type": "node", "id": 5535643660, "lat": 5.450396, "lon": -1.9882394, "tags": {"amenity": "school"}}, {"type": "node", "id": 9595225503, "lat": 5.5233339, "lon": -1.8172757}, {"type": "node", "id": 9595225504, "lat": 5.5225356, "lon": -1.8171309}, {"type": "node", "id": 9595225505, "lat": 5.5220137, "lon": -1.8179476}, {"type": "node", "id": 9595225506, "lat": 5.5230028, "lon": -1.8184344}, {"type": "node", "id": 9595225644, "lat": 5.5390393, "lon": -1.7627521, "tags": {"amenity": "school"}}, {"type": "node", "id": 9595225646, "lat": 5.54451, "lon": -1.7654254, "tags": {"amenity": "school", "fixme": "node position", "name": "Subri T.I. Ahmadiyya Basic Schools"}}, {"type": "node", "id": 9595225647, "lat": 5.5369266, "lon": -1.8006554, "tags": {"amenity": "school"}}, {"type": "node", "id": 9875951410, "lat": 5.5631947, "lon": -2.003932}, {"type": "node", "id": 9875951411, "lat": 5.5629491, "lon": -2.0046723}, {"type": "node", "id": 9875951412, "lat": 5.5627836, "lon": -2.0066088}, {"type": "node", "id": 9875951413, "lat": 5.5624579, "lon": -2.008009}, {"type": "node", "id": 9875951414, "lat": 5.5622283, "lon": -2.00876}, {"type": "node", "id": 9875951415, "lat": 5.5623297, "lon": -2.0091516}, {"type": "node", "id": 9875951416, "lat": 5.5629491, "lon": -2.0096451}, {"type": "node", "id": 9876007017, "lat": 5.5634403, "lon": -2.0098275}, {"type": "node", "id": 9876007018, "lat": 5.5638354, "lon": -2.0099348}, {"type": "node", "id": 9876007019, "lat": 5.5641237, "lon": -2.0097739}, {"type": "node", "id": 9876007020, "lat": 5.5644387, "lon": -2.0097685}, {"type": "node", "id": 9876007021, "lat": 5.5649085, "lon": -2.0097685}, {"type": "node", "id": 9876007022, "lat": 5.5651168, "lon": -2.0095164}, {"type": "node", "id": 9876007023, "lat": 5.5660351, "lon": -2.0090497}, {"type": "node", "id": 9876007024, "lat": 5.5669988, "lon": -2.0075583}, {"type": "node", "id": 9876007025, "lat": 5.5669561, "lon": -2.0066893}, {"type": "node", "id": 9876007026, "lat": 5.5672631, "lon": -2.0055909}, {"type": "node", "id": 9876007027, "lat": 5.5671616, "lon": -2.0055547}, {"type": "node", "id": 9876007028, "lat": 5.5672751, "lon": -2.0052228}, {"type": "node", "id": 10278965668, "lat": 5.4999117, "lon": -1.6233158, "tags": {"amenity": "school"}}, {"type": "node", "id": 10280598630, "lat": 5.5788969, "lon": -1.6540432, "tags": {"amenity": "school"}}, {"type": "node", "id": 10280599587, "lat": 5.5787248, "lon": -1.6631734, "tags": {"amenity": "school", "name": "Sarponso NO.2 Primary School", "operator": "GES"}}, {"type": "node", "id": 10280599590, "lat": 5.5772178, "lon": -1.657801, "tags": {"amenity": "school", "name": "Sarponso NO.1 Junior High School", "operator": "GES"}}, {"type": "node", "id": 10309960729, "lat": 5.5872244, "lon": -1.6213752, "tags": {"amenity": "school", "name": "Abaasa D/A Basic School", "operator": "GES"}}, {"type": "node", "id": 11004092418, "lat": 5.4880363, "lon": -2.0008029, "tags": {"amenity": "school"}}, {"type": "node", "id": 11004092736, "lat": 5.868235, "lon": -2.0015158, "tags": {"amenity": "school"}}, {"type": "way", "id": 549943844, "nodes": [5312267459, 5312267458, 5312267457, 5312267456, 5312267455, 5312267454, 5312267453, 5312267452, 5312267451, 5312267450, 5312267459], "tags": {"addr:country": "GH", "addr:district": "Prestea-Huni Valley", "addr:place": "Huni Valley", "addr:region": "Western", "amenity": "school", "description": "Huni Valley Senior High School was established in November, 1975 to serve the people of Huni Valley and its settler communities, who are mostly engaged in farming and mining activities in the Prestea/Huni Valley District", "email": "hunivalleyshs@ges.gov.gh", "isced:level": "3", "name": "Huni Valley Senior High School", "operator": "Ghana Education Service", "operator:short": "GES", "operator:type": "public", "operator:wikidata": "Q30263788", "phone": "+233 24 211 0672", "short_name": "Hunivas", "start_date": "1975"}}, {"type": "way", "id": 1042354674, "nodes": [9595225506, 9595225505, 9595225504, 9595225503, 9595225506], "tags": {"amenity": "school"}}, {"type": "way", "id": 1077049463, "nodes": [9876007028, 9876007027, 9876007026, 9876007025, 9876007024, 4851990398, 9876007023, 9876007022, 9876007021, 9876007020, 9876007019, 9876007018, 9876007017, 9875951416, 9875951415, 9875951414, 9875951413, 9875951412, 9875951411, 9875951410, 9876007028], "tags": {"addr:country": "GH", "addr:district": "Prestea-Huni Valley", "addr:place": "Bogoso", "addr:region": "Western", "amenity": "school", "denomination": "roman_catholic", "description": "St Augustine\u2019s school used to be an integral part of St. Augustine\u2019s College, Cape Coast, which offered simultaneously two different courses namely the Secondary School course and the Teacher Training course.", "email": "staugustinesbogososhs@ges.gov.gh", "isced:level": "3", "name": "St. Augustine's Senior High School", "operator": "Ghana Education Service", "operator:short": "GES", "operator:type": "public", "operator:wikidata": "Q30263788", "phone": "+233 20 815 4310", "religion": "christian", "start_date": "1973"}}]}