{"version": 0.6, "generator": "Overpass API 0.7.61.5 4133829e", "osm3s": {"timestamp_osm_base": "2024-03-06T10:44:02Z", "copyright": "The data included in this document is from www.openstreetmap.org. The data is made available under ODbL."}, "elements": [{"type": "node", "id": 2485442511, "lat": 31.863203, "lon": 47.040903, "tags": {"alt_name": "\u0645\u062f\u0631\u0633\u0629 \u0627\u0644\u0625\u0645\u0627\u0645 \u0627\u0644\u062c\u0648\u0627\u062f", "amenity": "school", "int_name": "Madrasat al Im\u0101m al Jaw\u0101d, \u0645\u062f\u0631\u0633\u0629 \u0627\u0644\u0627\u0645\u0627\u0645 \u0627\u0644\u062c\u0648\u0627\u062f, Madrasat al Imam al Jawad, \u0645\u062f\u0631\u0633\u0629 \u0627\u0644\u0627\u0645\u0627\u0645 \u0627\u0644\u062c\u0648\u0627\u062f", "name": "\u0645\u062f\u0631\u0633\u0629 \u0627\u0644\u0625\u0645\u0627\u0645 \u0627\u0644\u062c\u0648\u0627\u062f", "name:ar": "\u0645\u062f\u0631\u0633\u0629 \u0627\u0644\u0625\u0645\u0627\u0645 \u0627\u0644\u062c\u0648\u0627\u062f", "name:ar1": "\u0645\u062f\u0631\u0633\u0629 \u0627\u0644\u0625\u0645\u0627\u0645 \u0627\u0644\u062c\u0648\u0627\u062f", "name:de": "Madrasat al Imam al Jawad", "name:en": "Madrasat al Imam al Jawad", "name:fr": "Madrasat al Imam al Jawad"}}, {"type": "node", "id": 2485442519, "lat": 32.060764, "lon": 46.847349, "tags": {"alt_name": "\u0645\u062f\u0631\u0633\u0629 \u0627\u0644\u0639\u0635\u0645\u0629", "amenity": "school", "int_name": "Madrasat al I\u015fmah, \u0645\u062f\u0631\u0633\u0629 \u0627\u0644\u0639\u0635\u0645\u0629, Madrasat al Ismah, \u0645\u062f\u0631\u0633\u0629 \u0627\u0644\u0639\u0635\u0645\u0629", "name": "\u0645\u062f\u0631\u0633\u0629 \u0627\u0644\u0639\u0635\u0645\u0629", "name:ar": "\u0645\u062f\u0631\u0633\u0629 \u0627\u0644\u0639\u0635\u0645\u0629", "name:ar1": "\u0645\u062f\u0631\u0633\u0629 \u0627\u0644\u0639\u0635\u0645\u0629", "name:de": "Madrasat al Ismah", "name:en": "Madrasat al Ismah", "name:fr": "Madrasat al Ismah"}}, {"type": "node", "id": 4336798693, "lat": 32.0274767, "lon": 46.8097782, "tags": {"addr:street": "\u0633\u0644\u0641 \u0627\u0644\u0628\u062b\u0646\u0648\u0627\u0646", "amenity": "school", "name": "\u0627\u0644\u062f\u0631\u0627\u062c\u064a\u0647"}}, {"type": "node", "id": 4695385691, "lat": 31.8289729, "lon": 47.1358236, "tags": {"amenity": "school"}}, {"type": "node", "id": 4794160721, "lat": 31.8418332, "lon": 47.1337614, "tags": {"amenity": "school", "name": "\u0645\u062f\u0631\u0633\u0629 \u0627\u0644\u0645\u0634\u0643\u0627\u0629 \u0627\u0644\u0623\u0647\u0644\u064a\u0629", "name:ar": "\u0645\u062f\u0631\u0633\u0629 \u0627\u0644\u0645\u0634\u0643\u0627\u0629 \u0627\u0644\u0623\u0647\u0644\u064a\u0629", "name:en": "Al - Mashkat Private School"}}, {"type": "node", "id": 4798953224, "lat": 31.8502132, "lon": 47.1355408, "tags": {"addr:street": "\u0634\u0627\u0631\u0639 \u0646\u0639\u0645\u0629 \u0627\u0644\u0631\u064a\u0641\u064a", "amenity": "school", "name": "\u0645\u062f\u0631\u0633\u0629 \u0627\u0644\u0633\u0647\u0648\u0644 \u0627\u0644\u0627\u0628\u062a\u062f\u0627\u0626\u064a\u0629", "name:ar": "\u0645\u062f\u0631\u0633\u0629 \u0627\u0644\u0633\u0647\u0648\u0644 \u0627\u0644\u0627\u0628\u062a\u062f\u0627\u0626\u064a\u0629"}}, {"type": "node", "id": 4798962824, "lat": 31.8502187, "lon": 47.1352563, "tags": {"addr:street": "\u0634\u0627\u0631\u0639 \u0646\u0639\u0645\u0629 \u0627\u0644\u0631\u064a\u0641\u064a", "amenity": "school", "name": "\u0645\u062f\u0631\u0633\u0629 \u0627\u0644\u0646\u0627\u0628\u063a\u0629 \u0627\u0644\u0630\u0628\u064a\u0627\u0646\u064a", "name:ar": "\u0645\u062f\u0631\u0633\u0629 \u0627\u0644\u0646\u0627\u0628\u063a\u0629 \u0627\u0644\u0630\u0628\u064a\u0627\u0646\u064a"}}, {"type": "node", "id": 4823031623, "lat": 31.8252941, "lon": 47.1366089, "tags": {"amenity": "school", "name": "\u0645\u062f\u0631\u0633\u0647 \u0648\u0631\u0643\u0627\u0621", "name:ar": "@\u0645\u062f\u0631\u0633\u0647 \u0648\u0631\u0643\u0627\u0621"}}, {"type": "node", "id": 4906912621, "lat": 31.850716, "lon": 47.118373, "tags": {"amenity": "school", "name": "\u0645\u062f\u0631\u0633\u0629 \u0646\u0648\u062d \u0639\u0644\u064a\u0647 \u0627\u0644\u0633\u0644\u0627\u0645", "name:ar": "\u0645\u062f\u0631\u0633\u0629 \u0646\u0648\u062d \u0639\u0644\u064a\u0647 \u0627\u0644\u0633\u0644\u0627\u0645"}}, {"type": "node", "id": 5130829241, "lat": 31.8288108, "lon": 47.1183066, "tags": {"amenity": "school", "name": "\u0645\u062f\u0631\u0633\u0629 \u0627\u0644\u0642\u062f\u0648\u0629 \u0627\u0644\u0627\u0628\u062a\u062f\u0627\u0626\u064a\u0629", "name:en": "Al Qudua primary school"}}, {"type": "node", "id": 5165657222, "lat": 31.8656313, "lon": 47.1381784, "tags": {"amenity": "school", "name": "\u0645\u062f\u0631\u0633\u0629 \u0637\u0631\u0627\u0628\u0644\u0633 \u0627\u0644\u0627\u0628\u062a\u062f\u0627\u0626\u064a\u0629"}}, {"type": "node", "id": 5165663731, "lat": 31.8660246, "lon": 47.1376481, "tags": {"amenity": "school", "name": "\u0645\u062f\u0631\u0633\u0629 \u0639\u0631\u0641\u0627\u062a \u0627\u0644\u0627\u0628\u062a\u062f\u0627\u0626\u064a\u0629"}}, {"type": "node", "id": 5165664825, "lat": 31.8646852, "lon": 47.1358887, "tags": {"amenity": "school", "name": "\u0645\u062a\u0648\u0633\u0637\u0629 \u0627\u0644\u062c\u0648\u0627\u0647\u0631\u064a", "name:ar": "\u0645\u062a\u0648\u0633\u0637\u0629 \u0645\u062d\u0645\u062f \u0645\u0647\u062f\u064a \u0627\u0644\u062c\u0648\u0627\u0647\u0631\u064a"}}, {"type": "node", "id": 5226273122, "lat": 31.8252697, "lon": 47.1370421, "tags": {"amenity": "school", "name": "@ \u0645\u062f\u0631\u0633"}}, {"type": "node", "id": 5226276325, "lat": 31.8268839, "lon": 47.1370383, "tags": {"amenity": "school", "name": "@\u0645\u062f\u0631\u0633"}}, {"type": "node", "id": 5349892221, "lat": 31.8652934, "lon": 47.133189, "tags": {"amenity": "school", "name": "\u062b\u0627\u0646\u0648\u064a\u0629 \u062f\u062c\u0644\u0629 \u0644\u0644\u0628\u0646\u064a\u0646"}}, {"type": "node", "id": 5467886421, "lat": 31.8688855, "lon": 47.130988, "tags": {"amenity": "school", "name": "\u0645\u062f\u0631\u0633\u0629 \u0633\u064a\u062f \u0627\u0644\u0634\u0647\u062f\u0627\u0621 \u0627\u0644\u0627\u0628\u062a\u062f\u0627\u0626\u064a\u0647"}}, {"type": "node", "id": 5656614224, "lat": 31.8344892, "lon": 47.1326071, "tags": {"addr:street": "\u0634\u0627\u0631\u0639 \u0627\u0644\u0645\u0635\u0644\u062d\u0629", "amenity": "school", "name": "\u0645\u062a\u0648\u0633\u0637\u0629 \u0627\u0644\u0643\u0631\u0627\u0631"}}, {"type": "node", "id": 5656614225, "lat": 31.8343772, "lon": 47.1349807, "tags": {"amenity": "school", "name": "\u0645\u062f\u0631\u0633\u0629 \u0645\u064a\u0633\u0627\u0646"}}, {"type": "node", "id": 6341068787, "lat": 31.8280082, "lon": 47.1170234, "tags": {"amenity": "school", "name": "\u0645\u062f\u0631\u0633\u0629 \u0627\u0644\u0631\u0628\u064a\u0639 \u0627\u0644\u0627\u0628\u062a\u062f\u0627\u0626\u064a\u0629"}}, {"type": "node", "id": 6376176085, "lat": 31.8930527, "lon": 47.1262175, "tags": {"addr:street": "\u062d\u064a \u0627\u0644\u0631\u062d\u0645\u0629", "amenity": "school", "name": "\u0645\u062a\u0648\u0633\u0637\u0629 \u0634\u0647\u064a\u062f \u0627\u0644\u0641\u0643\u0631 \u0627\u0644\u0645\u062e\u062a\u0644\u0637\u0629", "opening_hours": "Su-Th 00:00-24:00"}}, {"type": "node", "id": 6397907488, "lat": 31.8255623, "lon": 47.1340704, "tags": {"amenity": "school", "name": "\u0645\u062a\u0648\u0633\u0637\u0629 \u0627\u0644\u0627\u0632\u0647\u0631"}}, {"type": "node", "id": 6544671486, "lat": 31.8446281, "lon": 47.1363337, "tags": {"amenity": "school", "name": "\u0627\u0639\u062f\u0627\u062f\u064a\u0629 \u0627\u0644\u064a\u0645\u0627\u0645\u0629 \u0644\u0644\u0628\u0646\u0627\u062a"}}, {"type": "node", "id": 6910287186, "lat": 31.8226274, "lon": 47.1269594, "tags": {"amenity": "school", "name": "\u0631\u0648\u0636\u0629 \u0627\u0637\u0641\u0627\u0644"}}, {"type": "node", "id": 6910287588, "lat": 31.8210303, "lon": 47.1199204, "tags": {"amenity": "school", "name": "\u0645\u062f\u0631\u0633\u0629 \u0627\u0644\u063a\u062f\u064a\u0631 \u0627\u0644\u0627\u0628\u062a\u062f\u0627\u0626\u064a\u0629"}}, {"type": "node", "id": 6910287589, "lat": 31.8218815, "lon": 47.1252777, "tags": {"amenity": "school", "name": "\u0645\u062f\u0631\u0633\u0629 \u0628\u0627\u0628\u0644 \u0627\u0644\u0627\u0628\u062a\u062f\u0627\u0626\u064a\u0629"}}, {"type": "node", "id": 6910287590, "lat": 31.8202937, "lon": 47.1251236, "tags": {"amenity": "school", "name": "\u0645\u062f\u0631\u0633\u0629"}}, {"type": "node", "id": 7504737185, "lat": 31.843208, "lon": 46.9592357, "tags": {"amenity": "school", "name": "\u0627\u0644\u0646\u0627\u0635\u0631\u0647 \u0627\u0644\u0645\u062e\u062a\u0644\u0637\u0647"}}, {"type": "node", "id": 7526814691, "lat": 31.8339737, "lon": 47.1370314, "tags": {"amenity": "school", "name": "\u0627\u0644\u0632\u0648\u0631\u0627\u0621"}}, {"type": "node", "id": 7526814696, "lat": 31.826822, "lon": 47.1373286, "tags": {"amenity": "school", "name": "\u0627\u0644\u0627\u0645\u0627\u0645 \u0627\u0644\u062d\u0633\u0646 \u0639"}}, {"type": "node", "id": 7526815389, "lat": 31.8338348, "lon": 47.1370302, "tags": {"amenity": "school", "name": "\u0645\u062a\u0648\u0633\u0637\u0647 \u062d\u064a \u0627\u0644\u0645\u0639\u0644\u0645\u064a\u0646"}}, {"type": "node", "id": 7526815393, "lat": 31.8304897, "lon": 47.1338613, "tags": {"amenity": "school", "name": "\u0627\u0644\u0632\u0647\u0631\u0627\u0621"}}, {"type": "node", "id": 7526815399, "lat": 31.8344357, "lon": 47.1365602, "tags": {"amenity": "school", "name": "\u064a\u062b\u0631\u0628 \u0644\u0644\u0628\u0646\u0627\u062a"}}, {"type": "node", "id": 7526817688, "lat": 31.8302549, "lon": 47.1338382, "tags": {"amenity": "school", "name": "\u0627\u0628\u0648 \u0627\u0644\u0641\u0636\u0644 \u0627\u0644\u0639\u0628\u0627\u0633 \u0639"}}, {"type": "node", "id": 7526817886, "lat": 31.8296938, "lon": 47.1342095, "tags": {"amenity": "school", "name": "\u0645\u062f\u0627\u0631\u0633"}}, {"type": "node", "id": 7526827991, "lat": 31.8313749, "lon": 47.1338613, "tags": {"amenity": "school", "name": "\u0627\u0645\u0646\u0647 \u0628\u0646\u062a \u0648\u0647\u0628"}}, {"type": "node", "id": 7977800086, "lat": 31.8217809, "lon": 47.1251055, "tags": {"amenity": "school", "name": "\u0645\u062f\u0631\u0633\u0629 \u0628\u0627\u0628\u0644 \u0627\u0644\u0627\u0628\u062a\u062f\u0627\u0626\u064a\u0647"}}, {"type": "node", "id": 7977800087, "lat": 31.8261295, "lon": 47.1252535, "tags": {"amenity": "school", "name": "\u0627\u0639\u062f\u0627\u062f\u064a\u0629 \u062d\u0633\u0627\u0646 \u0628\u0646 \u062b\u0627\u0628\u062a"}}, {"type": "node", "id": 7977800885, "lat": 31.8210238, "lon": 47.1200067, "tags": {"amenity": "school", "name": "\u0645\u062f\u0631\u0633\u0629 \u0627\u0644\u063a\u062f\u064a\u0631 \u0627\u0644\u0627\u0628\u062a\u062f\u0627\u0626\u064a\u0647"}}, {"type": "node", "id": 8004621885, "lat": 31.8543134, "lon": 47.1086467, "tags": {"amenity": "school", "name": "\u0645\u062f\u0631\u0633\u0629 \u0627\u0644\u0639\u0632\u0647 \u0627\u0644\u0623\u0628\u062a\u062f\u0627\u0626\u064a\u0647"}}, {"type": "node", "id": 8083093617, "lat": 31.8242532, "lon": 47.1331421, "tags": {"amenity": "school", "name": "\u0645\u062f\u0631\u0633\u0629 \u0627\u0644\u0627\u0645\u0627\u0646\u064a"}}, {"type": "node", "id": 8546522917, "lat": 31.9133389, "lon": 46.9268634, "tags": {"amenity": "school", "name": "\u0627\u0628\u062a\u062f\u0627\u0626\u064a\u0647"}}, {"type": "node", "id": 8850984817, "lat": 31.8346361, "lon": 47.132619, "tags": {"amenity": "school", "name": "\u0645\u062a\u0648\u0633\u0637\u0647 \u0628\u0637\u0644 \u062e\u064a\u0628\u0631"}}, {"type": "node", "id": 9521000117, "lat": 31.844664, "lon": 47.1208339, "tags": {"amenity": "school", "name": "\u0645\u062f\u0631\u0633\u0629 \u0627\u0644\u0627\u0645\u0627\u0645 \u0627\u0644\u0642\u0627\u0626\u0645 \u0627\u0644\u0627\u0628\u062a\u062f\u0627\u0626\u064a\u0629"}}, {"type": "node", "id": 9521000217, "lat": 31.8448302, "lon": 47.1211327, "tags": {"amenity": "school", "name": "\u0645\u062f\u0631\u0633\u0629 \u0627\u0646\u062a\u0641\u0627\u0636\u0629 \u0627\u0644\u0627\u0642\u0635\u0649 \u0627\u0644\u0627\u0628\u062a\u062f\u0627\u0626\u064a\u0629"}}, {"type": "node", "id": 10023946517, "lat": 31.8174822, "lon": 47.134881, "tags": {"amenity": "school", "name": "\u0627\u0639\u062f\u0627\u062f\u064a\u0629 \u0645\u064a\u062b\u0645 \u0627\u0644\u062a\u0645\u0627\u0631 \u0644\u0644\u0628\u0646\u064a\u0646", "name:en": "maithm atmar"}}, {"type": "node", "id": 10722855005, "lat": 32.1238926, "lon": 46.7312425, "tags": {"amenity": "school", "name": "\u0645\u062f\u0631\u0633\u0629 \u0627\u0644\u0634\u0647\u064a\u062f \u0633\u062a\u0627\u0631 \u0627\u0644\u0643\u0639\u0628\u064a \u0627\u0644\u0627\u0628\u062a\u062f\u0627\u0626\u064a\u0629"}}, {"type": "node", "id": 10752383412, "lat": 32.0365406, "lon": 46.8744375, "tags": {"amenity": "school", "name": "\u062b\u0627\u0646\u0648\u064a\u0629 \u0643\u0645\u064a\u062a \u0644\u0644\u0628\u0646\u0627\u062a"}}, {"type": "node", "id": 10804454905, "lat": 31.847085, "lon": 47.0044457, "tags": {"amenity": "school", "name": "\u0645\u062a\u0648\u0633\u0637\u0629 \u0633\u0644\u064a\u0645 \u0628\u0646 \u0642\u064a\u0633 \u0627\u0644\u0647\u0644\u0627\u0644\u064a", "name:en": "school salim ben kais alhlaly"}}, {"type": "node", "id": 11035275105, "lat": 31.8313613, "lon": 47.1180838, "tags": {"amenity": "school", "name": "\u0645\u062f\u0631\u0633\u0647 \u0627\u0644\u0641\u0627\u0637\u0645\u064a\u0647"}}, {"type": "node", "id": 11556500669, "lat": 31.8507534, "lon": 47.1333466, "tags": {"amenity": "school", "name": "\u062d\u0648\u0632\u0629 \u0627\u0644\u0625\u0645\u0627\u0645 \u0627\u0644\u062e\u0645\u064a\u0646\u064a \u0644\u0644\u0639\u0644\u0648\u0645 \u0627\u0644\u0625\u0633\u0644\u0627\u0645\u064a\u0629", "opening_hours": "24/7"}}]}