{"version": 0.6, "generator": "Overpass API 0.7.61.5 4133829e", "osm3s": {"timestamp_osm_base": "2024-03-06T10:45:02Z", "copyright": "The data included in this document is from www.openstreetmap.org. The data is made available under ODbL."}, "elements": [{"type": "node", "id": 2670802833, "lat": 35.6234237, "lon": 45.941835}, {"type": "node", "id": 2670802834, "lat": 35.6226799, "lon": 45.9415539}, {"type": "node", "id": 2670802835, "lat": 35.6225004, "lon": 45.9422903}, {"type": "node", "id": 2670802846, "lat": 35.6232389, "lon": 45.9425454}, {"type": "node", "id": 3285678089, "lat": 35.6276176, "lon": 45.949051}, {"type": "node", "id": 3285678109, "lat": 35.6268943, "lon": 45.9474876}, {"type": "node", "id": 3285678164, "lat": 35.627728, "lon": 45.9475824}, {"type": "node", "id": 3285678215, "lat": 35.6267839, "lon": 45.9489562}, {"type": "node", "id": 3754917051, "lat": 35.3513054, "lon": 45.8807134}, {"type": "node", "id": 3754917052, "lat": 35.3499968, "lon": 45.88077}, {"type": "node", "id": 3754917053, "lat": 35.3513394, "lon": 45.8819309}, {"type": "node", "id": 3754917054, "lat": 35.350021, "lon": 45.8820019}, {"type": "node", "id": 3754917077, "lat": 35.3513191, "lon": 45.8812044}, {"type": "node", "id": 4472518689, "lat": 35.3239056, "lon": 45.6864687, "tags": {"addr:city": "\u0647\u06d5\u06b5\u06d5\u0628\u062c\u06d5\u06cc \u062a\u0627\u0632\u06d5", "amenity": "school", "grades": "1-6", "name": "\u0642\u0648\u062a\u0627\u0628\u062e\u0627\u0646\u06d5\u06cc \u0626\u06d5\u062d\u0645\u06d5\u062f \u0645\u0648\u062e\u062a\u0627\u0631\u062c\u0627\u0641", "name:en": "ahmadmwxtar School", "website": "https://ckb.wikipedia.org/wiki/%D9%82%DB%95%D8%B2%D8%A7%DB%8C_%D8%B4%D8%A7%D8%B1%DB%95%D8%B2%D9%88%D9%88%D8%B1"}}, {"type": "node", "id": 4523835489, "lat": 35.3604065, "lon": 45.8646931, "tags": {"amenity": "school", "name": "Siad Sadq High School", "name:ku": "\u0626\u0627\u0645\u0627\u062f\u06d5\u06cc\u06cc \u0633\u06cc\u062f\u0635\u0627\u062f\u0642\u06cc \u062a\u06ce\u06a9\u06d5\u06b5\u0627\u0648"}}, {"type": "node", "id": 4523835589, "lat": 35.3606575, "lon": 45.8645203, "tags": {"amenity": "school", "name": "\u0642\u0648\u062a\u0627\u0628\u062e\u0627\u0646\u06d5\u06cc \u0686\u0646\u0627\u0631\u06cc \u0628\u0646\u06d5\u0695\u06d5\u062a\u06cc", "name:en": "Chnar Primary School", "name:ku": "\u0642\u0648\u062a\u0627\u0628\u062e\u0627\u0646\u06d5\u06cc \u0686\u0646\u0627\u0631\u06cc \u0628\u0646\u06d5\u0695\u06d5\u062a\u06cc"}}, {"type": "node", "id": 4583745989, "lat": 35.3725826, "lon": 45.8847445, "tags": {"amenity": "school", "name": "\u0632\u0627\u0646\u06a9\u06c6\u06cc \u0633\u06cc\u062f\u0635\u0627\u062f\u0642", "name:ku": "\u0632\u0627\u0646\u06a9\u06c6\u06cc \u0633\u06cc\u062f\u0635\u0627\u062f\u0642"}}, {"type": "node", "id": 4600798489, "lat": 35.3534059, "lon": 45.8596793, "tags": {"amenity": "school", "name": "\u0642\u0648\u062a\u0627\u0628\u062e\u0627\u0646\u06d5\u06cc \u0648\u06d5\u0644\u06cc\u062f\u06ce\u0648\u0627\u0646\u06d5", "name:ar": "\u0627\u0644\u0645\u062f\u0631\u0633\u0629 \u0648\u0644\u064a \u062f\u06cc\u0648\u0627\u0646\u0629", "name:en": "walidewana school", "name:ku": "\u0642\u0648\u062a\u0627\u0628\u062e\u0627\u0646\u06d5\u06cc \u0648\u06d5\u0644\u06cc\u062f\u06ce\u0648\u0627\u0646\u06d5"}}, {"type": "node", "id": 4739154524, "lat": 35.3118999, "lon": 45.6720953, "tags": {"addr:street": "\u0695\u06ce\u06af\u0627\u06cc \u0632\u06d5\u0695\u0627\u06cc\u06d5\u0646 - \u0639\u06d5\u0631\u0628\u06d5\u062a", "amenity": "school", "grades": "1-7", "name": "\u0642\u0648\u062a\u0627\u0628\u062e\u0627\u0646\u06d5\u06cc \u06a9\u0627\u0646\u06cc \u0645\u06cc\u0644 \u0628\u0646\u06d5\u0695\u06d5\u062a\u06cc", "name:en": "kanemel shool", "name:ku": "\u0642\u0648\u062a\u0627\u0628\u062e\u0627\u0646\u06d5\u06cc \u06a9\u0627\u0646\u06cc \u0645\u06cc\u0644 \u0628\u0646\u06d5\u0695\u06d5\u062a\u06cc", "website": "https://zarayannews.blogspot.com/"}}, {"type": "node", "id": 4806262121, "lat": 35.3509409, "lon": 45.8812369, "tags": {"amenity": "school", "name": "\u0626\u0627\u0645\u0627\u062f\u06d5\u06cc\u06cc \u06a9\u0648\u0631\u062f\u0633\u062a\u0627\u0646\u06cc \u062a\u06ce\u06a9\u06d5\u06b5\u0627\u0648", "name:ar": "\u0626\u0627\u0645\u0627\u062f\u06d5\u06cc\u06cc \u06a9\u0648\u0631\u062f\u0633\u062a\u0627\u0646\u06cc \u062a\u06ce\u06a9\u06d5\u06b5\u0627\u0648", "name:en": "amaday kurdistany tekalaw", "name:ku": "\u0626\u0627\u0645\u0627\u062f\u06d5\u06cc\u06cc \u06a9\u0648\u0631\u062f\u0633\u062a\u0627\u0646\u06cc \u062a\u06ce\u06a9\u06d5\u06b5\u0627\u0648"}}, {"type": "node", "id": 4993265321, "lat": 35.3505883, "lon": 45.8725922, "tags": {"amenity": "school", "name": "\u0643\u0648\u062a\u0627\u0628\u062e\u0627\u0646\u0629\u0649 \u0643\u0624\u0631\u0629\u0648", "name:en": "Koraw School", "name:ku": "\u0642\u0648\u062a\u0627\u0628\u062e\u0627\u0646\u06d5\u06cc \u06a9\u06c6\u0695\u06d5\u0648"}}, {"type": "node", "id": 4993265422, "lat": 35.3567499, "lon": 45.8691735, "tags": {"amenity": "school", "name": "\u0631\u064a\u0643\u062e\u0631\u0627\u0648\u0649 \u0634\u0627\u0641\u0639\u0649 \u0628\u0648 \u0632\u0627\u0646\u0633\u062a\u0649 \u0634\u0631\u0639\u0649", "name:ku": "\u0631\u064a\u0643\u062e\u0631\u0627\u0648\u0649 \u0634\u0627\u0641\u0639\u0649 \u0628\u0648 \u0632\u0627\u0646\u0633\u062a\u0649 \u0634\u0631\u0639\u0649"}}, {"type": "node", "id": 5153240621, "lat": 35.3691043, "lon": 45.8843756, "tags": {"amenity": "school", "name": "\u0626\u0627\u0645\u0627\u062f\u06d5\u06cc\u06cc \u0628\u06d5\u062e\u062a\u06cc\u0627\u0631\u06cc \u062a\u06ce\u06a9\u06d5\u06b5\u0627\u0648", "name:en": "amaday baxtiary tekalaw_\u0626\u0627\u0645\u0627\u062f\u06d5\u06cc\u06cc \u0628\u06d5\u062e\u062a\u06cc\u0627\u0631\u06cc \u062a\u06ce\u06a9\u06d5\u06b5\u0627\u0648", "website": "https://www.facebook.com/amaday.baxtiary"}}, {"type": "node", "id": 5357358021, "lat": 35.3573419, "lon": 45.8736716, "tags": {"addr:street": "\u0628\u0647 \u0631\u06a9\u06cc\u0648", "amenity": "school", "name": "\u0642\u0648\u062a\u0627\u0628\u062e\u0627\u0646\u06d5\u06cc \u0628\u06d5\u0631\u06a9\u06ce\u0648", "name:en": "Barkew school"}}, {"type": "node", "id": 5360786921, "lat": 35.3567686, "lon": 45.8695774, "tags": {"amenity": "school", "name": "\u0695\u06ce\u06a9\u062e\u0631\u0627\u0648\u06cc \u0634\u0627\u0641\u06cc\u0639\u06cc \u0628\u06c6 \u0632\u0627\u0646\u0633\u062a\u06cc \u0634\u06d5\u0631\u0639\u06cc"}}, {"type": "node", "id": 5485417122, "lat": 35.3548961, "lon": 45.8631034, "tags": {"amenity": "school", "name": "\u0642\u0648\u062a\u0627\u0628\u062e\u0627\u0646\u06d5\u06cc (\u0626\u06d5\u0634\u06a9\u0627\u0646 )", "name:ar": "\u0645\u062f\u0631\u0633\u06d5 (\u0626\u0634\u0643\u0627\u0646)", "name:en": "school(Ashkan)"}}, {"type": "node", "id": 5485425521, "lat": 35.3563649, "lon": 45.8610966, "tags": {"amenity": "school", "name": "\u0642\u0648\u062a\u0627\u0628\u062e\u0627\u0646\u06d5\u06cc (\u0633\u0648\u0631\u06ce\u0646 )", "name:ar": "\u0645\u062f\u0631\u0633\u06d5 (\u0633\u0648\u0631\u064a\u0646 )", "name:en": "school (suren)"}}, {"type": "node", "id": 5849345186, "lat": 35.2482473, "lon": 45.9457059, "tags": {"amenity": "school", "name": "\u0642\u0648\u062a\u0627\u0628\u062e\u0627\u0646\u06d5\u06cc \u06be\u06d5\u0631\u06ce\u0632", "name:en": "harez", "opening_hours": "Sa-Th 00:00-24:00"}}, {"type": "node", "id": 5989283687, "lat": 35.3806134, "lon": 45.703441, "tags": {"amenity": "school", "name": "\u062e\u06d5 \u0631\u0645\u0627\u0646\u0627\u0646\u06cc \u0628\u0646\u06d5\u0631\u06d5\u062a\u06cc", "name:en": "Xarmanan y bnaraty"}}, {"type": "node", "id": 6206296586, "lat": 35.300292, "lon": 45.6812317, "tags": {"addr:street": "\u0646\u0627\u062d\u06cc\u06d5\u06cc \u0632\u06d5\u0695\u0627\u06cc\u06d5\u0646 - \u06af\u0648\u0646\u062f\u06cc \u0632\u06d5\u0695\u0627\u06cc\u06d5\u0646\u06cc \u06a9\u06c6\u0646", "amenity": "school", "grades": "1-6", "name": "\u0642\u0648\u062a\u0627\u0628\u062e\u0627\u0646\u06d5\u06cc \u0632\u06d5\u0695\u0627\u06cc\u06d5\u0646\u06cc \u0628\u0646\u06d5\u0695\u06d5\u062a\u06cc", "name:en": "zarayan school", "name:ku": "\u0642\u0648\u062a\u0627\u0628\u062e\u0627\u0646\u06d5\u06cc \u0632\u06d5\u0695\u0627\u06cc\u06d5\u0646\u06cc \u0628\u0646\u06d5\u0695\u06d5\u062a\u06cc", "website": "http://zarayannews.blogspot.com/"}}, {"type": "node", "id": 6206320791, "lat": 35.3181435, "lon": 45.6665097, "tags": {"addr:city": "\u0632\u06d5\u0695\u0627\u06cc\u06d5\u0646", "addr:street": "\u0695\u06ce\u06af\u0627\u06cc \u0632\u06d5\u0695\u0627\u06cc\u06d5\u0646 - \u0639\u06d5\u0631\u0628\u06d5\u062a", "amenity": "school", "grades": "1-7", "name": "\u0642\u0648\u062a\u0627\u0628\u062e\u0627\u0646\u06d5\u06cc \u06a9\u0627\u0631\u0648\u0627\u0646\u06cc \u0628\u0646\u06d5\u0695\u06d5\u062a\u06cc", "name:en": "karwan school", "website": "https://ckb.wikipedia.org/wiki/%D8%B2%DB%95%DA%95%D8%A7%DB%8C%DB%95%D9%86"}}, {"type": "node", "id": 6210628485, "lat": 35.3176655, "lon": 45.6655556, "tags": {"addr:city": "\u0632\u06d5\u0695\u0627\u06cc\u06d5\u0646", "addr:street": "\u06af\u06d5\u0695\u06d5\u06a9\u06cc \u0695\u0627\u067e\u06d5\u0695\u06cc\u0646", "amenity": "school", "grades": "10-12", "name": "\u0626\u0627\u0645\u0627\u062f\u06d5\u06cc\u06cc \u0634\u06d5\u0647\u06cc\u062f \u0633\u06d5\u0631\u0686\u06b5\u06cc \u06a9\u0648\u0695\u0627\u0646", "name:en": "shahed sarchl high school", "religion": "muslim", "website": "https://ckb.wikipedia.org/wiki/%D8%B2%DB%95%DA%95%D8%A7%DB%8C%DB%95%D9%86"}}, {"type": "node", "id": 6213269985, "lat": 35.3000709, "lon": 45.6855712, "tags": {"addr:street": "\u0695\u06cc\u06af\u0627\u06cc \u0632\u06d5\u0695\u0627\u06cc\u06d5\u0646- \u062f\u06d5\u0631\u0628\u06d5\u0646\u062f\u06cc\u062e\u0627\u0646", "amenity": "school", "grades": "10-12", "name": "\u0626\u0627\u0645\u0627\u062f\u06d5\u06cc\u06cc \u0634\u06d5\u0647\u06cc\u062f \u0645\u0627\u0645\u06c6\u0633\u062a\u0627 \u0628\u06d5\u062e\u062a\u06cc\u0627\u0631", "name:en": "shahed mamosta baxtyar high school", "website": "https://www.facebook.com/shahedbaxtiar/"}}, {"type": "node", "id": 6325441885, "lat": 35.3647613, "lon": 45.8473651, "tags": {"amenity": "school", "name": "\u0634\u0647 \u0647\u064a\u062f\u0627\u0646", "name:en": "shahidan"}}, {"type": "node", "id": 6697174985, "lat": 35.3111433, "lon": 45.6712512, "tags": {"amenity": "school", "name": "\u0642\u0648\u062a\u0627\u0628\u062e\u0627\u0646\u06d5\u06cc \u0647\u06d5\u0648\u0627\u0631\u0627\u0646\u06cc \u0628\u0646\u06d5\u0695\u06d5\u062a\u06cc", "name:en": "hawaran school", "website": "http://zarayannews.blogspot.com/?m=1"}}, {"type": "node", "id": 6709356286, "lat": 35.3158511, "lon": 45.6725447, "tags": {"addr:city": "\u0632\u06d5\u0695\u0627\u06cc\u06d5\u0646", "addr:street": "Arbat Zarayan Road", "amenity": "school", "email": "younissleman@gmail.com", "name": "\u0642\u0648\u062a\u0627\u0628\u062e\u0627\u0646\u06d5\u06cc \u062f\u0627\u0646\u0627\u06cc \u0628\u0646\u06d5\u0695\u06d5\u062a\u06cc", "name:en": "dana school", "website": "http://zarayannews.blogspot.com/?m=1"}}, {"type": "node", "id": 6709376998, "lat": 35.3167489, "lon": 45.6729862, "tags": {"addr:city": "\u0632\u06d5\u0695\u0627\u06cc\u06d5\u0646", "addr:street": "\u0632\u06d5\u0695\u0627\u06cc\u06d5\u0646", "amenity": "school", "email": "younissleman@gmail.com", "name": "\u0642\u0648\u062a\u0627\u0628\u062e\u0627\u0646\u06d5\u06cc \u06a9\u0648\u0631\u062f\u06c6\u0649 \u0628\u0646\u06d5\u0695\u06d5\u062a\u06cc", "name:en": "kurdo school", "name:ku": "\u0642\u0648\u062a\u0627\u0628\u062e\u0627\u0646\u06d5\u06cc \u06a9\u0648\u0631\u062f\u06c6\u06cc \u0628\u0646\u06d5\u0695\u06d5\u062a\u06cc", "website": "http://zarayannews.blogspot.com/?m=1"}}, {"type": "node", "id": 6709396285, "lat": 35.3164256, "lon": 45.6775358, "tags": {"addr:street": "\u0632\u06d5\u0695\u0627\u06cc\u06d5\u0646", "amenity": "school", "grades": "10-12", "name": "\u0626\u0627\u0645\u0627\u062f\u06d5\u06cc\u06cc \u0646\u06cc\u0634\u062a\u06cc\u0645\u0627\u0646\u06cc \u06a9\u0686\u0627\u0646", "name:en": "neshtimane kchan high school", "religion": "muslim", "website": "http://zarayannews.blogspot.com/?m=1"}}, {"type": "node", "id": 6723651889, "lat": 35.3165792, "lon": 45.6773132, "tags": {"addr:street": "\u0634\u06d5\u0642\u0627\u0645\u06cc \u0633\u06cc \u0632\u06d5\u0695\u0627\u06cc\u06d5\u0646", "amenity": "school", "grades": "6-8", "name": "\u0642\u0648\u062a\u0627\u0628\u062e\u0627\u0646\u06d5\u06cc \u0634\u06d5\u0647\u06cc\u062f \u0633\u062a\u0627\u0631", "name:en": "shahid star school", "name:ku": "\u0642\u0648\u062a\u0627\u0628\u062e\u0627\u0646\u06d5\u06cc \u0634\u06d5\u0647\u06cc\u062f \u0633\u062a\u0627\u0631\u06cc \u0628\u0646\u06d5\u0695\u06d5\u062a\u06cc \u06a9\u0686\u0627\u0646", "website": "http://zarayannews.blogspot.com/?m=1"}}, {"type": "node", "id": 6764519685, "lat": 35.305309, "lon": 45.6752859, "tags": {"addr:housenumber": "302", "addr:street": "\u06af\u0648\u0646\u062f\u06cc \u0628\u0627\u06cc\u0632\u0626\u0627\u0648\u0627", "amenity": "school", "grades": "1-9", "name": "\u0642\u0648\u062a\u0627\u0628\u062e\u0627\u0646\u06d5\u06cc \u0628\u0627\u06cc\u0632\u0626\u0627\u0648\u0627\u06cc \u0628\u0646\u06d5\u0695\u06d5\u062a\u06cc", "name:en": "baizawa school"}}, {"type": "node", "id": 6815893960, "lat": 35.3161583, "lon": 45.67305, "tags": {"addr:street": "\u0632\u06d5\u0695\u0627\u06cc\u06d5\u0646", "amenity": "school", "email": "younissleman@gmail.com", "name": "\u0626\u0627\u0645\u0627\u062f\u06d5\u06cc\u06cc \u0686\u0648\u0627\u0631\u0686\u0631\u0627\u06cc \u0626\u06ce\u0648\u0627\u0631\u0627\u0646\u06cc \u06a9\u0686\u0627\u0646"}}, {"type": "node", "id": 6820845186, "lat": 35.3170737, "lon": 45.6784646, "tags": {"addr:street": "\u0632\u06d5\u0695\u0627\u06cc\u06d5\u0646", "amenity": "school", "name": "\u0628\u0627\u062e\u0686\u06d5\u06cc \u0633\u0627\u0648\u0627\u06cc\u0627\u0646\u06cc \u0645\u06d5\u0633\u062a\u0627\u0646", "name:en": "baxche sawayane mastan", "name:ku": "\u0628\u0627\u062e\u0686\u06d5\u06cc \u0645\u0646\u062f\u0627\u06b5\u0627\u0646\u06cc \u0645\u06d5\u0633\u062a\u0627\u0646"}}, {"type": "node", "id": 6981257838, "lat": 35.3186279, "lon": 45.6865253, "tags": {"addr:street": "\u0642\u06d5\u0632\u0627\u06cc \u0634\u0627\u0631\u06d5\u0632\u0648\u0648\u0631- \u0633\u06cc\u0631\u0648\u0627\u0646\u06cc\u06cc\u06d5\u06a9\u0627\u0646", "amenity": "school", "name": "\u0626\u0627\u0645\u0627\u062f\u06d5\u06cc\u06cc \u0634\u06d5\u0647\u06cc\u062f \u062f\u0627\u0646\u0627\u06cc \u06a9\u0648\u0695\u0627\u0646", "name:en": "amade shahed dane kwran", "website": "https://ckb.wikipedia.org/wiki/%D9%82%DB%95%D8%B2%D8%A7%DB%8C_%D8%B4%D8%A7%D8%B1%DB%95%D8%B2%D9%88%D9%88%D8%B1"}}, {"type": "node", "id": 6981299646, "lat": 35.321752, "lon": 45.6905783, "tags": {"addr:city": "\u0647\u06d5\u06b5\u06d5\u0628\u062c\u06d5\u06cc \u062a\u0627\u0632\u06d5", "addr:street": "\u0642\u06d5\u0632\u0627\u06cc \u0634\u0627\u0631\u06d5\u0632\u0648\u0648\u0631", "amenity": "school", "grades": "10-12", "name": "\u0626\u0627\u0645\u0627\u062f\u06d5\u06cc\u06cc \u0634\u06d5\u0645\u06ce\u0631\u0627\u0646\u06cc \u06a9\u0686\u0627\u0646", "name:en": "shameran high school", "religion": "muslim", "website": "https://ckb.wikipedia.org/wiki/%D9%82%DB%95%D8%B2%D8%A7%DB%8C_%D8%B4%D8%A7%D8%B1%DB%95%D8%B2%D9%88%D9%88%D8%B1"}}, {"type": "node", "id": 7052355587, "lat": 35.322523, "lon": 45.6994125, "tags": {"addr:street": "\u0642\u06d5\u0632\u0627\u06cc \u0634\u0627\u0631\u06d5\u0632\u0648\u0648\u0631 - \u0633\u06cc\u0631\u0648\u0627\u0646\u06cc\u06cc\u06d5\u06a9\u0627\u0646", "amenity": "school", "grades": "1-6", "name": "\u0642\u0648\u062a\u0627\u0628\u062e\u0627\u0646\u06d5\u06cc \u0628\u0646\u06d5\u0695\u06d5\u062a\u06cc \u0647\u06d5\u062a\u0627\u0648", "name:en": "hatawe school", "website": "https://ckb.wikipedia.org/wiki/%D9%82%DB%95%D8%B2%D8%A7%DB%8C_%D8%B4%D8%A7%D8%B1%DB%95%D8%B2%D9%88%D9%88%D8%B1"}}, {"type": "node", "id": 7141022437, "lat": 35.531446, "lon": 45.6656135, "tags": {"addr:city": "\u06af\u06ce\u06b5\u062f\u06d5\u0631\u06d5", "addr:street": "\u0695\u06ce\u06af\u0627\u06cc \u0628\u06d5\u0631\u0632\u0646\u062c\u06d5-\u062a\u06d5\u06af\u06d5\u0631\u0627\u0646", "amenity": "school", "name": "\u062e\u0648\u06ce\u0646\u062f\u0646\u06af\u06d5\u06cc \u06af\u06ce\u06b5\u062f\u06d5\u0631\u06d5", "name:en": "Geldara School", "religion": "muslim"}}, {"type": "node", "id": 7172639301, "lat": 35.2143428, "lon": 46.0098948, "tags": {"amenity": "school", "name": "\u0642\u0648\u062a\u0627\u0628\u062e\u0627\u0646\u0647"}}, {"type": "node", "id": 7231295614, "lat": 35.6276975, "lon": 45.9475789}, {"type": "node", "id": 7231295615, "lat": 35.6275907, "lon": 45.9490479}, {"type": "node", "id": 7231295616, "lat": 35.6268169, "lon": 45.94896}, {"type": "node", "id": 7233647008, "lat": 35.3656055, "lon": 45.8804762}, {"type": "node", "id": 7233647009, "lat": 35.3658505, "lon": 45.8797681}, {"type": "node", "id": 7233647010, "lat": 35.3650674, "lon": 45.8793711}, {"type": "node", "id": 7233647011, "lat": 35.3648312, "lon": 45.880106}, {"type": "node", "id": 7233663251, "lat": 35.3666291, "lon": 45.8614137}, {"type": "node", "id": 7233663252, "lat": 35.3664717, "lon": 45.8604186}, {"type": "node", "id": 7233663253, "lat": 35.3655749, "lon": 45.8606171}, {"type": "node", "id": 7233663254, "lat": 35.3657367, "lon": 45.861631}, {"type": "node", "id": 7233998231, "lat": 35.3495583, "lon": 45.8585547, "tags": {"addr:city": "\u0633\u06d5\u06cc\u062f\u0633\u0627\u062f\u0642", "amenity": "school", "name": "\u0642\u0648\u062a\u0627\u0628\u062e\u0627\u0646\u06d5\u06cc \u0622\u0633\u06c6 \u06a9\u0686\u0627\u0646", "name:en": "aso school", "name:ku": "\u0642\u0648\u062a\u0627\u0628\u062e\u0627\u0646\u06d5\u06cc \u0622\u0633\u0624 \u06a9\u0686\u0627\u0646"}}, {"type": "node", "id": 7233998232, "lat": 35.3508824, "lon": 45.9048813, "tags": {"amenity": "school", "grades": "1-6", "name": "\u0642\u0648\u062a\u0627\u0628\u062e\u0627\u0646\u06d5\u06cc \u0634\u06d5\u0647\u06cc\u062f \u0634\u06d5\u0648\u06a9\u06d5\u062a", "name:en": "shahed shawkat school"}}, {"type": "node", "id": 7233998233, "lat": 35.3423011, "lon": 45.9262364, "tags": {"amenity": "school", "name": "\u0642\u0648\u062a\u0627\u0628\u062e\u0627\u0646\u06d5\u06cc \u06af\u0631\u062f\u06d5\u0646\u0627\u0632\u064a", "name:ar": "\u0627\u0644\u0645\u062f\u0631\u0633\u0629 \u06a9\u0631\u062f\u0646\u0632\u064a", "name:en": "grdanaze school", "name:ku": "\u0642\u0648\u062a\u0627\u0628\u062e\u0627\u0646\u06d5\u06cc \u06af\u0631\u062f\u06d5\u0646\u0627\u0632\u064a"}}, {"type": "node", "id": 7235308776, "lat": 35.6294535, "lon": 45.9335672}, {"type": "node", "id": 7235308777, "lat": 35.6292919, "lon": 45.9342953}, {"type": "node", "id": 7235308778, "lat": 35.6284955, "lon": 45.9340031}, {"type": "node", "id": 7235308779, "lat": 35.6286683, "lon": 45.9332725}, {"type": "node", "id": 7235489450, "lat": 35.6273661, "lon": 45.9365622}, {"type": "node", "id": 7235489451, "lat": 35.627253, "lon": 45.9370261}, {"type": "node", "id": 7235489452, "lat": 35.6267781, "lon": 45.9368697}, {"type": "node", "id": 7235489453, "lat": 35.6268904, "lon": 45.9363874}, {"type": "node", "id": 7235651595, "lat": 35.2535834, "lon": 45.9369966, "tags": {"amenity": "school", "description": "\u0642\u0648\u062a\u0627\u0628\u062e\u0627\u0646\u06cc \u0631\u06d5\u0646\u06af\u06cc\u0646\u06cc \u06a9\u062c\u0627\u0646", "name": "\u0642\u0648\u062a\u0627\u0628\u062e\u0627\u0646\u06cc \u0631\u06d5\u0646\u06af\u06cc\u0646\u06cc \u06a9\u062c\u0627\u0646"}}, {"type": "node", "id": 7235651596, "lat": 35.2562268, "lon": 45.9408094, "tags": {"amenity": "school", "description": "qwtabxanay sharay kchan \nqwtabxanay swreny koran", "name": "qwtabxanay sharay kchan"}}, {"type": "node", "id": 7237608394, "lat": 35.3228841, "lon": 45.6809826}, {"type": "node", "id": 7237608395, "lat": 35.3222888, "lon": 45.6816183}, {"type": "node", "id": 7237608396, "lat": 35.3225755, "lon": 45.6820609}, {"type": "node", "id": 7237608397, "lat": 35.3231773, "lon": 45.681452}, {"type": "node", "id": 7237615049, "lat": 35.3107288, "lon": 45.6885676}, {"type": "node", "id": 7237615050, "lat": 35.3101379, "lon": 45.6877361}, {"type": "node", "id": 7237615051, "lat": 35.309525, "lon": 45.6884764}, {"type": "node", "id": 7237615052, "lat": 35.3100985, "lon": 45.6892542}, {"type": "node", "id": 7239599718, "lat": 35.4158081, "lon": 45.8929216}, {"type": "node", "id": 7239599719, "lat": 35.4157246, "lon": 45.8926169}, {"type": "node", "id": 7239599720, "lat": 35.4154527, "lon": 45.8927291}, {"type": "node", "id": 7239599721, "lat": 35.4155362, "lon": 45.8930337}, {"type": "node", "id": 7239648059, "lat": 35.3855124, "lon": 45.8898412}, {"type": "node", "id": 7239648060, "lat": 35.385379, "lon": 45.8904126}, {"type": "node", "id": 7239648061, "lat": 35.3849176, "lon": 45.89024}, {"type": "node", "id": 7239648064, "lat": 35.3850544, "lon": 45.8896742}, {"type": "node", "id": 7239648065, "lat": 35.3854387, "lon": 45.8901572}, {"type": "node", "id": 7259502455, "lat": 35.3502036, "lon": 45.8585037}, {"type": "node", "id": 7259502456, "lat": 35.349567, "lon": 45.8592266}, {"type": "node", "id": 7259502457, "lat": 35.3493996, "lon": 45.8590925}, {"type": "node", "id": 7259502458, "lat": 35.3493296, "lon": 45.8590026}, {"type": "node", "id": 7259502459, "lat": 35.3489479, "lon": 45.8586874}, {"type": "node", "id": 7259502460, "lat": 35.3494269, "lon": 45.8581055}, {"type": "node", "id": 7259502461, "lat": 35.3495156, "lon": 45.8579968}, {"type": "node", "id": 7259502462, "lat": 35.3496446, "lon": 45.8578642}, {"type": "node", "id": 7259502463, "lat": 35.3497967, "lon": 45.8580491}, {"type": "node", "id": 7259502464, "lat": 35.3498623, "lon": 45.8581242}, {"type": "node", "id": 7259502465, "lat": 35.3499837, "lon": 45.8582556}, {"type": "node", "id": 7259502466, "lat": 35.3512092, "lon": 45.9047612}, {"type": "node", "id": 7259502467, "lat": 35.3511816, "lon": 45.9052902}, {"type": "node", "id": 7259502468, "lat": 35.3506545, "lon": 45.905296}, {"type": "node", "id": 7259502469, "lat": 35.3506566, "lon": 45.9049656}, {"type": "node", "id": 7259502470, "lat": 35.3506593, "lon": 45.9046319}, {"type": "node", "id": 7259502471, "lat": 35.3507467, "lon": 45.9046431}, {"type": "node", "id": 7259502472, "lat": 35.3508136, "lon": 45.9046471}, {"type": "node", "id": 7259502473, "lat": 35.350882, "lon": 45.9046499}, {"type": "node", "id": 7259502474, "lat": 35.3509489, "lon": 45.9046554}, {"type": "node", "id": 7259502475, "lat": 35.3510069, "lon": 45.9046508}, {"type": "node", "id": 7259502476, "lat": 35.3511981, "lon": 45.9046605}, {"type": "node", "id": 7259502477, "lat": 35.3424563, "lon": 45.925994}, {"type": "node", "id": 7259502478, "lat": 35.3424769, "lon": 45.9263699}, {"type": "node", "id": 7259502479, "lat": 35.3422998, "lon": 45.9263886}, {"type": "node", "id": 7259502480, "lat": 35.3422863, "lon": 45.9263038}, {"type": "node", "id": 7259502481, "lat": 35.3422877, "lon": 45.9262113}, {"type": "node", "id": 7259502482, "lat": 35.3422735, "lon": 45.9260555}, {"type": "node", "id": 7259502483, "lat": 35.3422689, "lon": 45.925995}, {"type": "node", "id": 7259502484, "lat": 35.3422813, "lon": 45.9259964}, {"type": "node", "id": 7259517685, "lat": 35.3423292, "lon": 45.9259932}, {"type": "node", "id": 7259517686, "lat": 35.3424004, "lon": 45.9259873}, {"type": "node", "id": 7259517687, "lat": 35.3424541, "lon": 45.9259825}, {"type": "node", "id": 7368736330, "lat": 35.3210767, "lon": 45.6838565, "tags": {"addr:city": "\u0642\u06d5\u0632\u0627\u06cc \u0634\u0627\u0631\u06d5\u0632\u0648\u0648\u0631", "addr:housenumber": "103", "addr:street": "\u0633\u06d5\u0646\u062a\u06d5\u0631\u06cc \u0642\u06d5\u0632\u0627\u06cc \u0634\u0627\u0631\u06d5\u0632\u0648\u0648\u0631", "amenity": "school", "denomination": "sunni", "grades": "10-12", "name": "\u0626\u0627\u0645\u0627\u062f\u06d5\u06cc\u06cc \u0634\u06d5\u0647\u06cc\u062f \u0633\u06cc\u0631\u0648\u0627\u0646\u06cc \u06a9\u0686\u0627\u0646", "name:en": "shahed serwan high school", "religion": "muslim", "website": "https://ckb.wikipedia.org/wiki/%D9%82%DB%95%D8%B2%D8%A7%DB%8C_%D8%B4%D8%A7%D8%B1%DB%95%D8%B2%D9%88%D9%88%D8%B1"}}, {"type": "node", "id": 7875381680, "lat": 35.3279298, "lon": 45.6890227, "tags": {"addr:city": "\u0642\u06d5\u0632\u0627\u06cc \u0634\u0627\u0631\u06d5\u0632\u0648\u0648\u0631", "addr:street": "\u0642\u06d5\u0632\u0627\u06cc \u0634\u0627\u0631\u06d5\u0632\u0648\u0648\u0631", "amenity": "school", "name": "\u0642\u0648\u062a\u0627\u0628\u062e\u0627\u0646\u06d5\u06cc \u0628\u0646\u06d5\u0695\u06d5\u062a\u06cc \u0633\u06d5\u0631\u062f\u06d5\u0645", "name:en": "sardam school", "website": "https://ckb.wikipedia.org/wiki/%D9%82%DB%95%D8%B2%D8%A7%DB%8C_%D8%B4%D8%A7%D8%B1%DB%95%D8%B2%D9%88%D9%88%D8%B1"}}, {"type": "node", "id": 8341288117, "lat": 35.2371693, "lon": 45.690639, "tags": {"amenity": "school", "name": "\u0627\u0644\u0627\u0639\u062f\u0627\u062f\u064a\u0629 \u0645\u064a\u0631\u062f\u064a", "name:en": "Mirade primary school", "name:ku": "\u0642\u0648\u062a\u0627\u0628\u062e\u0627\u0646\u06d5\u06cc \u0626\u0627\u0645\u0627\u062f\u06d5\u06cc\u06cc \u0645\u06cc\u0631\u06d5\u062f\u06ce"}}, {"type": "node", "id": 8441333994, "lat": 35.3187507, "lon": 45.6928692}, {"type": "node", "id": 8441333995, "lat": 35.318414, "lon": 45.6923958}, {"type": "node", "id": 8441333996, "lat": 35.3179187, "lon": 45.6929359}, {"type": "node", "id": 8441333997, "lat": 35.3182703, "lon": 45.6934397}, {"type": "node", "id": 8441333998, "lat": 35.3182703, "lon": 45.6933729}, {"type": "node", "id": 8770140680, "lat": 35.3230655, "lon": 45.6997498, "tags": {"addr:city": "\u0633\u06d5\u0646\u062a\u06d5\u0631\u06cc \u0642\u06d5\u0632\u0627\u06cc \u0634\u0627\u0631\u06d5\u0632\u0648\u0648\u0631", "addr:street": "201", "amenity": "school", "grades": "6-8", "name": "\u0642\u0648\u062a\u0627\u0628\u062e\u0627\u0646\u06d5\u06cc \u0628\u0646\u06d5\u0695\u06d5\u062a\u06cc \u0647\u06d5\u0648\u0631\u0627\u0645\u0627\u0646", "name:en": "hawraman school", "website": "https://ckb.wikipedia.org/wiki/%D9%82%DB%95%D8%B2%D8%A7%DB%8C_%D8%B4%D8%A7%D8%B1%DB%95%D8%B2%D9%88%D9%88%D8%B1"}}, {"type": "node", "id": 8771292755, "lat": 35.3239581, "lon": 45.6936772, "tags": {"addr:street": "\u0633\u06d5\u0646\u062a\u06d5\u0631\u06cc \u0642\u06d5\u0632\u0627\u06cc \u0634\u0627\u0631\u06d5\u0632\u0648\u0648\u0631", "amenity": "school", "grades": "10-12", "name": "\u062e\u0648\u06ce\u0646\u062f\u06af\u0627\u06cc \u0626\u0627\u0645\u0627\u062f\u06d5\u06cc\u06cc \u0632\u0627\u0646\u0627\u06cc\u06cc \u06a9\u0648\u0695\u0627\u0646", "name:en": "zana high school", "religion": "muslim", "website": "https://ckb.wikipedia.org/wiki/%D9%82%DB%95%D8%B2%D8%A7%DB%8C_%D8%B4%D8%A7%D8%B1%DB%95%D8%B2%D9%88%D9%88%D8%B1"}}, {"type": "node", "id": 8771354021, "lat": 35.3164253, "lon": 45.688404, "tags": {"addr:street": "\u0633\u06d5\u0646\u062a\u06d5\u0631\u06cc \u0642\u06d5\u0632\u0627\u06cc \u0634\u0627\u0631\u06d5\u0632\u0648\u0648\u0631", "amenity": "school", "grades": "10-12", "name": "\u0626\u0627\u0645\u0627\u062f\u06d5\u06cc\u06cc \u0634\u06d5\u0647\u06cc\u062f \u062f\u0627\u0646\u0627\u06cc \u06a9\u0648\u0695\u0627\u0646", "name:en": "shahed dana high school", "religion": "muslim", "website": "https://ckb.wikipedia.org/wiki/%D9%82%DB%95%D8%B2%D8%A7%DB%8C_%D8%B4%D8%A7%D8%B1%DB%95%D8%B2%D9%88%D9%88%D8%B1"}}, {"type": "node", "id": 8806719883, "lat": 35.289833, "lon": 46.1100611, "tags": {"amenity": "school", "name": "\u0647\u0627\u0646\u06d5\u06cc\u062f\u0646"}}, {"type": "node", "id": 8820996378, "lat": 35.3216768, "lon": 45.6905607, "tags": {"addr:city": "\u0647\u06d5\u06b5\u06d5\u0628\u062c\u06d5\u06cc \u062a\u0627\u0632\u06d5", "addr:street": "\u0633\u06d5\u0646\u062a\u06d5\u0631\u06cc \u0642\u06d5\u0632\u0627\u06cc \u0634\u0627\u0631\u06d5\u0632\u0648\u0648\u0631", "amenity": "school", "grades": "6-8", "name": "\u0642\u0648\u062a\u0627\u0628\u062e\u0627\u0646\u06d5\u06cc \u0628\u06ce\u0631\u06cc\u06a4\u0627\u0646\u06cc \u0628\u0646\u06d5\u0695\u06d5\u062a\u06cc", "name:en": "berivan school", "website": "https://zarayannews.blogspot.com/"}}, {"type": "node", "id": 8905553333, "lat": 35.3105801, "lon": 45.6875867, "tags": {"addr:city": "\u0647\u06d5\u0644\u06d5\u0628\u062c\u0627\u06cc \u062a\u0627\u0632\u06d5", "addr:street": "\u0633\u06d5\u0646\u062a\u06d5\u0631\u06cc \u0642\u06d5\u0632\u0627\u06cc \u0634\u0627\u0631\u06d5\u0632\u0648\u0648\u0631", "amenity": "school", "grades": "1-7", "name": "nale school"}}, {"type": "node", "id": 9134497218, "lat": 35.3000765, "lon": 46.0371928, "tags": {"amenity": "school", "name:en": "Brsarani Elementary School"}}, {"type": "node", "id": 9134617717, "lat": 35.2975874, "lon": 46.0654289, "tags": {"amenity": "school", "name": "\u0642\u0648\u062a\u0627\u0628\u062e\u0627\u0646\u06d5\u06cc \u0626\u06d5\u062d\u0645\u06d5\u062f \u0626\u0627\u0648\u06d5\u06cc \u0628\u0646\u06d5\u0695\u06d5\u062a\u06cc"}}, {"type": "node", "id": 9135005617, "lat": 35.2278838, "lon": 46.1142788, "tags": {"amenity": "school", "name": "\u0642\u0648\u062a\u0627\u0628\u062e\u0627\u0646\u06d5\u06cc \u062f\u0648\u0627\u0646\u0627\u0648\u06d5\u0646\u062f\u06cc \u0628\u06cc\u0627\u0631\u06d5\u06cc\u06cc \u0634\u06d5\u0631\u06cc\u0641"}}, {"type": "node", "id": 9135456718, "lat": 35.2604877, "lon": 45.9347445, "tags": {"amenity": "school", "name": "\u0642\u0648\u062a\u0627\u0628\u062e\u0627\u0646\u06d5\u06cc \u0695\u06d5\u0646\u06af\u06cc\u0646\u06cc \u0628\u0646\u06d5\u0695\u06d5\u062a\u06cc"}}, {"type": "node", "id": 9738140222, "lat": 35.3538174, "lon": 45.8517194, "tags": {"amenity": "school", "name": "\u0642\u0648\u062a\u0627\u0628\u062e\u0627\u0646\u06d5\u06cc \u0626\u0627\u0645\u0627\u062f\u06d5\u06cc\u06cc \u0632\u06d5\u0646\u062f", "name:en": "Zand High School"}}, {"type": "node", "id": 9934959521, "lat": 35.3547899, "lon": 45.6264851, "tags": {"amenity": "school", "name": "\u0626\u0627\u0645\u0627\u062f\u06d5\u06cc\u06cc \u0642\u06d5\u0631\u06d5\u06af\u06c6\u0644\u06cc \u062a\u06ce\u06a9\u06d5\u06b5\u0627\u0648"}}, {"type": "node", "id": 10993161805, "lat": 35.3444396, "lon": 45.6314554, "tags": {"amenity": "school", "name:en": "Begard School"}}, {"type": "node", "id": 10993163205, "lat": 35.3333529, "lon": 45.6330437, "tags": {"amenity": "school", "name:en": "\u0626\u0627\u0645\u0627\u062f\u06d5\u06cc \u0642\u0627\u0646\u0639"}}, {"type": "node", "id": 11001296005, "lat": 35.3478435, "lon": 45.6177216, "tags": {"amenity": "school", "name:en": "\u0642\u0648\u062a\u0627\u0628\u062e\u0627\u0646\u06d5\u06cc \u0634\u06cc\u062e \u0633\u06d5\u0644\u0627\u0645\u06cc \u0628\u0646\u06d5\u0695\u06d5\u062a\u06cc"}}, {"type": "node", "id": 11001296006, "lat": 35.3536852, "lon": 45.6245368, "tags": {"amenity": "school", "name:en": "\u0642\u0648\u062a\u0627\u0628\u062e\u0627\u0646\u06d5\u06cc \u062e\u0627\u06a9\u06cc \u0628\u0646\u06d5\u0695\u06d5\u062a\u06cc \u062a\u06ce\u06a9\u06d5\u06b5\u0627\u0648"}}, {"type": "node", "id": 11037035661, "lat": 35.4192218, "lon": 45.8054368}, {"type": "node", "id": 11037035662, "lat": 35.4184292, "lon": 45.8049361}, {"type": "node", "id": 11037035663, "lat": 35.4186138, "lon": 45.8045076}, {"type": "node", "id": 11037035664, "lat": 35.4194086, "lon": 45.8050056}, {"type": "node", "id": 11047309308, "lat": 35.3511849, "lon": 45.6304935, "tags": {"amenity": "school", "name:en": "\u0642\u0648\u062a\u0627\u0628\u062e\u0627\u0646\u06d5\u06cc \u0642\u06d5\u0631\u06d5\u06af\u06c6\u0644\u06cc \u0633\u06d5\u0631\u06d5\u062a\u0627\u06cc"}}, {"type": "node", "id": 11469902029, "lat": 35.6224911, "lon": 45.9496126}, {"type": "node", "id": 11469902030, "lat": 35.6220341, "lon": 45.9504364}, {"type": "node", "id": 11469902031, "lat": 35.6215338, "lon": 45.9500252}, {"type": "node", "id": 11469902032, "lat": 35.6219992, "lon": 45.9492017}, {"type": "node", "id": 11470011530, "lat": 35.6206535, "lon": 45.9562367}, {"type": "node", "id": 11470011531, "lat": 35.6206777, "lon": 45.9555713}, {"type": "node", "id": 11470011532, "lat": 35.6197732, "lon": 45.9555105}, {"type": "node", "id": 11470011533, "lat": 35.6196673, "lon": 45.9561659}, {"type": "node", "id": 11470078817, "lat": 35.6113705, "lon": 45.9617727}, {"type": "node", "id": 11470078818, "lat": 35.6116626, "lon": 45.9613126}, {"type": "node", "id": 11470078819, "lat": 35.6113774, "lon": 45.9610394}, {"type": "node", "id": 11470078820, "lat": 35.6110977, "lon": 45.9614995}, {"type": "node", "id": 11472530705, "lat": 35.6304214, "lon": 45.9451031}, {"type": "node", "id": 11472530706, "lat": 35.6297726, "lon": 45.9447855}, {"type": "node", "id": 11472530707, "lat": 35.6301127, "lon": 45.9437512}, {"type": "node", "id": 11472530708, "lat": 35.6307633, "lon": 45.9440795}, {"type": "node", "id": 11472612226, "lat": 35.6179418, "lon": 45.9544253}, {"type": "node", "id": 11472612227, "lat": 35.6183273, "lon": 45.953842}, {"type": "node", "id": 11472612228, "lat": 35.6176484, "lon": 45.9531625}, {"type": "node", "id": 11472612229, "lat": 35.6172559, "lon": 45.95375}, {"type": "node", "id": 11472612670, "lat": 35.6159946, "lon": 45.9555931}, {"type": "node", "id": 11472612671, "lat": 35.615736, "lon": 45.9559762}, {"type": "node", "id": 11472612672, "lat": 35.6154652, "lon": 45.9557335}, {"type": "node", "id": 11472612673, "lat": 35.6157179, "lon": 45.9553362}, {"type": "node", "id": 11472729366, "lat": 35.6167046, "lon": 45.9521512}, {"type": "node", "id": 11472729367, "lat": 35.6163156, "lon": 45.9518282}, {"type": "node", "id": 11472729368, "lat": 35.6166686, "lon": 45.9511814}, {"type": "node", "id": 11472745369, "lat": 35.6171085, "lon": 45.9514476}, {"type": "node", "id": 11472745370, "lat": 35.6171116, "lon": 45.9515078}, {"type": "node", "id": 11472745426, "lat": 35.6240687, "lon": 45.9382452}, {"type": "node", "id": 11472745427, "lat": 35.6235601, "lon": 45.937914}, {"type": "node", "id": 11472745428, "lat": 35.6233162, "lon": 45.9388964}, {"type": "node", "id": 11472745429, "lat": 35.6237765, "lon": 45.9391484}, {"type": "way", "id": 261462631, "nodes": [2670802834, 2670802835, 2670802846, 2670802833, 2670802834], "tags": {"amenity": "school", "name": "\u062e\u0648\u06ce\u0646\u062f\u0646\u06af\u06d5\u06cc \u0628\u0646\u06d5\u0695\u06d5\u062a\u06cc \u0642\u06d5\u06b5\u0627\u062f\u06ce"}}, {"type": "way", "id": 775101300, "nodes": [3285678164, 3285678089, 7231295615, 7231295616, 3285678215, 3285678109, 7231295614, 3285678164], "tags": {"addr:city": "\u067e\u06ce\u0646\u062c\u0648\u06ce\u0646", "amenity": "school", "name": "\u0642\u0648\u062a\u0627\u0628\u062e\u0627\u0646\u06d5\u06cc \u0645\u0648\u0641\u062a\u06cc \u067e\u06ce\u0646\u062c\u0648\u06ce\u0646\u06cc \u0628\u0646\u06d5\u0631\u06d5\u062a\u06cc"}}, {"type": "way", "id": 775343420, "nodes": [3754917053, 3754917077, 3754917051, 3754917052, 3754917054, 3754917053], "tags": {"amenity": "school", "name": "\u0626\u0627\u0645\u0627\u062f\u06d5\u06cc\u06cc \u06a9\u0648\u0631\u062f\u0633\u062a\u0627\u0646\u06cc \u0646\u0648\u06ce"}}, {"type": "way", "id": 775347606, "nodes": [7233647008, 7233647009, 7233647010, 7233647011, 7233647008], "tags": {"amenity": "school", "name": "(\u0642\u0648\u062a\u0627\u0628\u062e\u0627\u0646\u06d5\u06cc \u0647\u06d5\u0631\u0633\u06cc\u0646 (\u0628\u0646\u06d5\u0695\u06d5\u062a\u06cc"}}, {"type": "way", "id": 775349112, "nodes": [7233663251, 7233663252, 7233663253, 7233663254, 7233663251], "tags": {"amenity": "school", "name": "\u0626\u0627\u0645\u0627\u062f\u06d5\u06cc \u0633\u06d5\u06cc\u062f\u0633\u0627\u062f\u0642"}}, {"type": "way", "id": 775571674, "nodes": [7235308776, 7235308777, 7235308778, 7235308779, 7235308776], "tags": {"addr:city": "\u067e\u06ce\u0646\u062c\u0648\u06ce\u0646", "amenity": "school", "name": "\u0626\u0627\u0645\u0627\u062f\u06d5\u06cc\u06cc \u0644\u06d5\u0631\u06ce\u06cc \u06a9\u0648\u0695\u0627\u0646"}}, {"type": "way", "id": 775592200, "nodes": [7235489450, 7235489451, 7235489452, 7235489453, 7235489450], "tags": {"addr:city": "\u067e\u06ce\u0646\u062c\u0648\u06ce\u0646", "amenity": "school", "name": "\u0642\u0648\u062a\u0627\u0628\u062e\u0627\u0646\u06d5\u06cc \u0646\u0627\u0648\u0634\u0627\u062e\u0627\u0646\u06cc \u0628\u0646\u06d5\u0631\u06d5\u062a\u06cc", "name:ckb": "\u0642\u0648\u062a\u0627\u0628\u062e\u0627\u0646\u06d5\u06cc \u0646\u0627\u0648\u0634\u0627\u062e\u0627\u0646\u06cc \u0628\u0646\u06d5\u0631\u06d5\u062a\u06cc"}}, {"type": "way", "id": 775821923, "nodes": [7237608394, 7237608395, 7237608396, 7237608397, 7237608394], "tags": {"addr:city": "\u0642\u06d5\u0632\u0627\u06cc \u0634\u0627\u0631\u06d5\u0632\u0648\u0648\u0631", "addr:street": "103", "amenity": "school", "grades": "1-6", "name": "\u0642\u0648\u062a\u0627\u0628\u062e\u0627\u0646\u06d5\u06cc \u0634\u0627\u0631\u06d5\u0632\u0648\u0648\u0631\u06cc \u0628\u0646\u06d5\u0695\u06d5\u062a\u06cc", "name:en": "sharazoor school", "website": "https://ckb.wikipedia.org/wiki/%D9%82%DB%95%D8%B2%D8%A7%DB%8C_%D8%B4%D8%A7%D8%B1%DB%95%D8%B2%D9%88%D9%88%D8%B1"}}, {"type": "way", "id": 775826210, "nodes": [7237615049, 7237615050, 7237615051, 7237615052, 7237615049], "tags": {"addr:city": "\u0647\u06d5\u0644\u06d5\u0628\u062c\u0627\u06cc \u062a\u0627\u0632\u06d5", "addr:street": "\u0695\u06ce\u06af\u0627\u06cc \u0634\u0627\u0631\u06d5\u0632\u0648\u0648\u0631 - \u0633\u06d5\u06cc\u062f\u0633\u0627\u062f\u0642", "amenity": "school", "name": "\u0628\u06cc\u0646\u0627\u06cc \u062f\u0648\u0627\u0646\u0627\u0648\u06d5\u0646\u062f\u06cc \u0626\u0627\u0644\u0627\u0646\u06cc \u06a9\u0648\u0695\u0627\u0646\u06cc \u067e\u06ce\u0634\u0648\u0648"}}, {"type": "way", "id": 776026193, "nodes": [7239599718, 7239599719, 7239599720, 7239599721, 7239599718], "tags": {"amenity": "school", "denomination": "sunni", "description": "\u0642\u0648\u062a\u0627\u0628\u062e\u0627\u0646\u06d5\u06cc \u0634\u0627\u0646\u06d5\u062f\u06d5\u0631\u06cc \u0642\u06c6\u0646\u0627\u063a\u06cc \u0661-\u0666", "name": "\u0642\u0648\u062a\u0627\u0628\u062e\u0627\u0646\u06d5\u06cc \u0634\u0627\u0646\u06d5\u062f\u06d5\u0631\u06cc \u06a9\u06c6\u0646", "religion": "muslim"}}, {"type": "way", "id": 776029534, "nodes": [7239648059, 7239648065, 7239648060, 7239648061, 7239648064, 7239648059], "tags": {"amenity": "school", "denomination": "sunni", "description": "\u0641\u06cc\u062f\u0631\u0627\u0644\u06cc \u0628\u0646\u06d5\u0631\u06d5\u062a\u06cc", "name": "\u0642\u0648\u062a\u0627\u0628\u062e\u0627\u0646\u06d5\u06cc \u0641\u06cc\u062f\u0631\u0627\u0644\u06cc \u0628\u0646\u06d5\u0631\u06d5\u062a\u06cc", "religion": "muslim"}}, {"type": "way", "id": 777858789, "nodes": [7259502455, 7259502456, 7259502457, 7259502458, 7259502459, 7259502460, 7259502461, 7259502462, 7259502463, 7259502464, 7259502465, 7259502455], "tags": {"addr:city": "\u0633\u06d5\u06cc\u062f\u0633\u0627\u062f\u0642", "amenity": "school", "name": "\u0642\u0648\u062a\u0627\u0628\u062e\u0627\u0646\u06d5\u06cc \u0622\u0633\u0624"}}, {"type": "way", "id": 777858790, "nodes": [7259502466, 7259502467, 7259502468, 7259502469, 7259502470, 7259502471, 7259502472, 7259502473, 7259502474, 7259502475, 7259502476, 7259502466], "tags": {"addr:city": "\u0633\u06d5\u06cc\u062f\u0633\u0627\u062f\u0642", "amenity": "school", "name": "\u0642\u0648\u062a\u0627\u0628\u062e\u0627\u0646\u06d5\u06cc \u0634\u06d5\u06cc\u062f \u0634\u06d5\u0648\u06a9\u06d5\u062a"}}, {"type": "way", "id": 777858791, "nodes": [7259502477, 7259502478, 7259502479, 7259502480, 7259502481, 7259502482, 7259502483, 7259502484, 7259517685, 7259517686, 7259517687, 7259502477], "tags": {"amenity": "school", "name": "\u0642\u0648\u062a\u0627\u0628\u062e\u0627\u0646\u06d5\u06cc \u06af\u0631\u062f\u06d5\u0646\u0627\u0632\u064a"}}, {"type": "way", "id": 909138360, "nodes": [8441333994, 8441333995, 8441333996, 8441333997, 8441333998, 8441333994], "tags": {"amenity": "school", "grades": "1-6", "name": "\u0642\u0648\u062a\u0627\u0628\u062e\u0627\u0646\u06d5\u06cc \u0628\u0646\u06d5\u0695\u06d5\u062a\u06cc \u0647\u06cc\u0648\u0627", "name:en": "hiwa school", "website": "https://ckb.wikipedia.org/wiki/%D9%82%DB%95%D8%B2%D8%A7%DB%8C_%D8%B4%D8%A7%D8%B1%DB%95%D8%B2%D9%88%D9%88%D8%B1"}}, {"type": "way", "id": 1188613619, "nodes": [11037035661, 11037035662, 11037035663, 11037035664, 11037035661], "tags": {"amenity": "school"}}, {"type": "way", "id": 1235545091, "nodes": [11469902029, 11469902030, 11469902031, 11469902032, 11469902029], "tags": {"amenity": "school", "name": "\u0626\u0627\u0645\u0627\u062f\u06d5\u06cc\u06cc \u067e\u06ce\u0646\u062c\u0648\u06ce\u0646 - \u06a9\u0648\u0695\u0627\u0646"}}, {"type": "way", "id": 1235561705, "nodes": [11470011530, 11470011531, 11470011532, 11470011533, 11470011530], "tags": {"amenity": "school"}}, {"type": "way", "id": 1235562971, "nodes": [11470078817, 11470078818, 11470078819, 11470078820, 11470078817], "tags": {"amenity": "school", "name": "\u062e\u0648\u06ce\u0646\u062f\u0646\u06af\u06d5\u06cc \u0628\u0646\u06d5\u0695\u06d5\u062a\u06cc \u067e\u06ce\u0646\u062c\u0648\u06ce\u0646", "name:ckb": "\u062e\u0648\u06ce\u0646\u062f\u0646\u06af\u06d5\u06cc \u0628\u0646\u06d5\u0695\u06d5\u062a\u06cc \u067e\u06ce\u0646\u062c\u0648\u06ce\u0646"}}, {"type": "way", "id": 1235782362, "nodes": [11472530705, 11472530706, 11472530707, 11472530708, 11472530705], "tags": {"amenity": "school"}}, {"type": "way", "id": 1235787431, "nodes": [11472612226, 11472612227, 11472612228, 11472612229, 11472612226], "tags": {"amenity": "school", "name": "\u062e\u0648\u06ce\u0646\u062f\u0646\u06af\u06d5\u06cc \u0634\u0644\u06ce\u0631"}}, {"type": "way", "id": 1235787434, "nodes": [11472612670, 11472612671, 11472612672, 11472612673, 11472612670], "tags": {"amenity": "school", "name": "\u062e\u0648\u06ce\u0646\u062f\u0646\u06af\u06d5\u06cc \u0634\u06c6\u0695\u0634\u06cc \u0646\u0648\u06ce", "name:ckb": "\u062e\u0648\u06ce\u0646\u062f\u0646\u06af\u06d5\u06cc \u0634\u06c6\u0695\u0634\u06cc \u0646\u0648\u06ce"}}, {"type": "way", "id": 1235801285, "nodes": [11472729366, 11472729367, 11472729368, 11472745369, 11472745370, 11472729366], "tags": {"amenity": "school", "name": "\u062e\u0648\u06ce\u0646\u062f\u0646\u06af\u06d5\u06cc \u062c\u06d5\u06b5\u0627\u0644 \u0645\u06d5\u062d\u0645\u0648\u0648\u062f", "name:ckb": "\u062e\u0648\u06ce\u0646\u062f\u0646\u06af\u06d5\u06cc \u062c\u06d5\u06b5\u0627\u0644 \u0645\u06d5\u062d\u0645\u0648\u0648\u062f"}}, {"type": "way", "id": 1235801307, "nodes": [11472745426, 11472745427, 11472745428, 11472745429, 11472745426], "tags": {"amenity": "school", "name": "\u062e\u0648\u06ce\u0646\u062f\u0646\u06af\u06d5\u06cc \u0634\u06d5\u0647\u06cc\u062f \u0645\u062d\u06d5\u0645\u06d5\u062f \u0633\u062f\u06cc\u0642", "name:ckb": "\u062e\u0648\u06ce\u0646\u062f\u0646\u06af\u06d5\u06cc \u0634\u06d5\u0647\u06cc\u062f \u0645\u062d\u06d5\u0645\u06d5\u062f \u0633\u062f\u06cc\u0642"}}]}