{"version": 0.6, "generator": "Overpass API 0.7.61.5 4133829e", "osm3s": {"timestamp_osm_base": "2024-03-05T13:48:00Z", "copyright": "The data included in this document is from www.openstreetmap.org. The data is made available under ODbL."}, "elements": [{"type": "node", "id": 3467550820, "lat": 37.6989295, "lon": 72.4503305, "tags": {"name": "Mor\u00e7", "name:en": "Morj", "name:tg": "\u041c\u043e\u0440\u04b7", "name:uk": "\u041c\u043e\u0440\u0434\u0436", "place": "hamlet", "source": "https://tg.wikipedia.org/w/index.php?title=%D0%94%D0%B5%D2%B3%D0%BE%D1%82%D0%B8_%D0%92%D0%B0%D0%BD%D2%9B%D0%B0%D0%BB%D1%8A%D0%B0&variant=tg-latn"}}, {"type": "node", "id": 3467550835, "lat": 37.6868032, "lon": 72.4819546, "tags": {"name": "\u041a\u0443\u0440\u0493\u0430\u043d-\u0422\u0443\u049b\u0430\u0439", "name:en": "Qurghan-Tuqay", "name:tg": "\u041a\u0443\u0440\u0493\u0430\u043d-\u0422\u0443\u049b\u0430\u0439", "place": "hamlet", "source": "https://ru.wikipedia.org/wiki/\u0412\u0430\u043d\u043a\u0430\u043b\u0430"}}, {"type": "node", "id": 3467550836, "lat": 37.7020303, "lon": 72.3704914, "tags": {"name": "Miyonakuh", "name:tg_cyr": "\u041c\u0438\u0451\u043d\u0430\u043a\u04ef\u04b3", "name:tg_latn": "Mijonak\u016bh", "name:uk": "\u041c\u0456\u0439\u043e\u043d\u0430\u043a\u0443\u0445", "old_name:uk": "\u041c\u0456\u044f\u043d\u043a\u0443\u0445", "place": "hamlet", "source": "https://tg.wikipedia.org/w/index.php?title=%D0%94%D0%B5%D2%B3%D0%BE%D1%82%D0%B8_%D0%92%D0%B0%D0%BD%D2%9B%D0%B0%D0%BB%D1%8A%D0%B0&variant=tg-latn"}}, {"type": "node", "id": 3467550837, "lat": 37.702036, "lon": 72.3465769, "tags": {"name": "\u0412\u0430\u0440\u0448\u0435\u0437", "name:en": "Varshez", "name:ru": "\u0412\u0430\u0440\u0448\u0435\u0437", "name:tg": "\u0412\u0430\u0440\u0448\u0435\u0437", "name:tg_cyr": "\u0412\u0430\u0440\u0448\u0435\u0437", "name:tg_latn": "Var\u015fez", "name:uk": "\u0412\u0430\u0440\u0448\u0435\u0437", "name:zh": "\u4e07\u79d1\u52d2", "place": "hamlet", "source": "https://tg.wikipedia.org/w/index.php?title=%D0%94%D0%B5%D2%B3%D0%BE%D1%82%D0%B8_%D0%92%D0%B0%D0%BD%D2%9B%D0%B0%D0%BB%D1%8A%D0%B0&variant=tg-latn"}}, {"type": "node", "id": 4150302298, "lat": 37.7249111, "lon": 72.2502131, "tags": {"name": "\u041c\u0438\u0451\u043d\u0430\u0448\u0430\u04b3\u0440", "name:en": "Miyonashahr", "name:ru": "\u041c\u0438\u044f\u043d\u0448\u0430\u0445\u0440", "name:tg": "\u041c\u0438\u0451\u043d\u0430\u0448\u0430\u04b3\u0440", "place": "village", "source": "https://tg.wikipedia.org/w/index.php?title=%D0%94%D0%B5%D2%B3%D0%BE%D1%82%D0%B8_%D0%92%D0%B0%D0%BD%D2%9B%D0%B0%D0%BB%D1%8A%D0%B0&variant=tg-latn"}}, {"type": "node", "id": 4150302299, "lat": 37.6942092, "lon": 72.1931567, "tags": {"name": "Oqmamad", "name:tg": "\u041e\u049b\u043c\u0430\u043c\u0430\u0434", "name:uk": "\u041e\u043a\u043c\u0430\u043c\u0430\u0431\u0430\u0434", "place": "village"}}, {"type": "node", "id": 4150302300, "lat": 37.705692, "lon": 72.2035306, "tags": {"name": "Patxur", "name:en": "Patkhur", "name:tg": "\u041f\u0430\u0442\u0445\u0443\u0440", "name:uk": "\u041f\u0430\u0442\u0445\u0443\u0440", "place": "village", "source": "https://tg.wikipedia.org/w/index.php?title=%D0%94%D0%B5%D2%B3%D0%BE%D1%82%D0%B8_%D0%92%D0%B0%D0%BD%D2%9B%D0%B0%D0%BB%D1%8A%D0%B0&variant=tg-latn"}}, {"type": "node", "id": 4150302301, "lat": 37.7067056, "lon": 72.3105093, "tags": {"name": "Pi\u015f", "name:en": "Pish", "name:ru": "\u041f\u0438\u0448", "name:tg": "\u041f\u0438\u0448", "name:uk": "\u041f\u0456\u0448", "place": "village", "source": "https://tg.wikipedia.org/w/index.php?title=%D0%94%D0%B5%D2%B3%D0%BE%D1%82%D0%B8_%D0%92%D0%B0%D0%BD%D2%9B%D0%B0%D0%BB%D1%8A%D0%B0&variant=tg-latn"}}, {"type": "node", "id": 4150302302, "lat": 37.7008386, "lon": 72.3994071, "tags": {"name": "Rohinav", "name:en": "Rohinav (Duzakhdara)", "name:tg": "\u0420\u043e\u04b3\u0438 \u043d\u0430\u0432", "name:uk": "\u0420\u043e\u0445\u0456-\u041d\u0430\u0432", "note": "\u043f\u043e \u0441\u043e\u0432\u0440\u0435\u043c\u0435\u043d\u043d\u044c\u0456\u043c \u043f\u0440\u0430\u0432\u0438\u043b\u0430\u043c \u0430\u0434\u0430\u043f\u0442\u0430\u0446\u0438\u0438 \u043d\u0430\u0437\u0432\u0430\u043d\u0438\u0439 \u0438\u043d\u044c\u0456\u0445 \u044f\u0437\u044c\u0456\u043a\u043e\u0432 \u0441\u0442\u0430\u0432\u0438\u0442\u044c\u0441\u044f \u0434\u0435\u0444\u0438\u0441 \u043a\u043e\u0433\u0434\u0430 \u0434\u0432\u0430 \u0441\u043b\u043e\u0432\u0430 \u0441 \u043f\u0440\u043e\u0431\u0435\u043b\u043e\u043c (\u0432 \u0443\u043a\u0440 \u044f\u0437\u044c\u0456\u043a\u0435)", "place": "hamlet", "source": "https://ru.wikipedia.org/wiki/\u0412\u0430\u043d\u043a\u0430\u043b\u0430"}}, {"type": "node", "id": 4150302303, "lat": 37.7137688, "lon": 72.3323042, "tags": {"name": "Sardem", "name:en": "Sardem", "name:ru": "\u0421\u0430\u0440\u0434\u0435\u043c", "name:tg_cyr": "\u0421\u0430\u0440\u0434\u0435\u043c", "name:tg_latn": "Sardem", "name:uk": "\u0421\u0430\u0440\u0434\u0435\u043c", "place": "village", "source": "https://tg.wikipedia.org/w/index.php?title=%D0%94%D0%B5%D2%B3%D0%BE%D1%82%D0%B8_%D0%92%D0%B0%D0%BD%D2%9B%D0%B0%D0%BB%D1%8A%D0%B0&variant=tg-latn"}}, {"type": "node", "id": 4150302304, "lat": 37.7148097, "lon": 72.3621069, "tags": {"name": "\u015eazud", "name:en": "Shazud", "name:tg_cyr": "\u0428\u0430\u0437\u0443\u0434", "name:uk": "\u0428\u0430\u0437\u0443\u0434", "name:zh": "\u6c99\u7956\u5fb7", "place": "hamlet", "source": "https://tg.wikipedia.org/w/index.php?title=%D0%94%D0%B5%D2%B3%D0%BE%D1%82%D0%B8_%D0%92%D0%B0%D0%BD%D2%9B%D0%B0%D0%BB%D1%8A%D0%B0&variant=tg-latn"}}, {"type": "node", "id": 4150302305, "lat": 37.7171247, "lon": 72.2773269, "tags": {"name": "\u0412\u0430\u043d\u049b\u0430\u043b\u044a\u0430", "name:en": "Vankala", "name:ru": "\u0412\u0430\u043d\u043a\u0430\u043b\u0430", "name:tg": "\u0412\u0430\u043d\u049b\u0430\u043b\u044a\u0430", "name:tg_latn": "Vanqal'a", "place": "village", "source": "https://tg.wikipedia.org/w/index.php?title=%D0%94%D0%B5%D2%B3%D0%BE%D1%82%D0%B8_%D0%92%D0%B0%D0%BD%D2%9B%D0%B0%D0%BB%D1%8A%D0%B0&variant=tg-latn", "wikidata": "Q6397986", "wikipedia": "tg:\u0412\u0430\u043d\u049b\u0430\u043b\u044a\u0430"}}, {"type": "node", "id": 4401967889, "lat": 37.7383306, "lon": 72.5394353, "tags": {"name": "\u0411\u0430\u0447\u043e\u0440", "name:en": "Bachor", "name:tg": "\u0411\u0430\u0447\u043e\u0440", "name:uk": "\u0411\u0430\u0447\u043e\u0440", "place": "village", "source": "https://tg.wikipedia.org/w/index.php?title=%D0%94%D0%B5%D2%B3%D0%BE%D1%82%D0%B8_%D0%92%D0%B0%D0%BD%D2%9B%D0%B0%D0%BB%D1%8A%D0%B0&variant=tg-latn"}}, {"type": "node", "id": 5938666437, "lat": 37.7006897, "lon": 72.3385807, "tags": {"name": "Abual\u012b Sino", "name:en": "Abuali Sino", "name:tg_cyr": "\u0410\u0431\u0443\u0430\u043b\u04e3 \u0421\u0438\u043d\u043e", "place": "hamlet", "population": "323", "population:date": "2009", "source": "https://www.geonames.org/8426912/abuali-sino.html", "source:name:tg": "https://tg.wikipedia.org/w/index.php?title=%D0%90%D0%B1%D1%83%D0%B0%D0%BB%D3%A3_%D0%A1%D0%B8%D0%BD%D0%BE_(%D0%B4%D0%B5%D2%B3%D0%B0,_%D0%BD._%D0%A8%D1%83%D2%93%D0%BD%D0%BE%D0%BD)&variant=tg-latn"}}, {"type": "node", "id": 10599861579, "lat": 37.6626754, "lon": 72.5100945, "tags": {"place": "hamlet"}}]}