{"version": 0.6, "generator": "Overpass API 0.7.61.5 4133829e", "osm3s": {"timestamp_osm_base": "2024-03-05T14:53:32Z", "copyright": "The data included in this document is from www.openstreetmap.org. The data is made available under ODbL."}, "elements": [{"type": "node", "id": 1937331570, "lat": 60.3919234, "lon": 11.5426749, "tags": {"amenity": "bank", "atm": "yes", "branch": "Hovedkontor", "brand": "Odal Sparebank", "name": "Odal Sparebank Hovedkontor", "ref:bankorg": "973125559"}}, {"type": "node", "id": 9254444370, "lat": 60.456316, "lon": 12.0579288, "tags": {"amenity": "bank", "brand": "Grue Sparebank", "name": "Grue Sparebank", "ref:bankorg": "971696117"}}, {"type": "node", "id": 9258404474, "lat": 60.6738386, "lon": 11.8326076, "tags": {"amenity": "bank", "branch": "Sol\u00f8r, V\u00e5ler", "brand": "Sparebank 1 \u00d8stlandet", "name": "Sparebank 1 \u00d8stlandet Sol\u00f8r, V\u00e5ler", "ref:bankorg": "973123912"}}, {"type": "node", "id": 9258404478, "lat": 60.4566882, "lon": 12.0587071, "tags": {"amenity": "bank", "branch": "Sol\u00f8r, Kirken\u00e6r", "brand": "Sparebank 1 \u00d8stlandet", "name": "Sparebank 1 \u00d8stlandet Sol\u00f8r, Kirken\u00e6r", "ref:bankorg": "994554417"}}, {"type": "node", "id": 9258404479, "lat": 60.6127675, "lon": 12.0117034, "tags": {"amenity": "bank", "branch": "Sol\u00f8r, Flisa", "brand": "Sparebank 1 \u00d8stlandet", "name": "Sparebank 1 \u00d8stlandet Sol\u00f8r, Flisa", "ref:bankorg": "973123904"}}]}