{"version": 0.6, "generator": "Overpass API 0.7.61.5 4133829e", "osm3s": {"timestamp_osm_base": "2024-03-05T11:10:29Z", "copyright": "The data included in this document is from www.openstreetmap.org. The data is made available under ODbL."}, "elements": [{"type": "node", "id": 2026025143, "lat": 7.3340233, "lon": -2.3288509, "tags": {"amenity": "bank", "name": "Ghana Bank"}}, {"type": "node", "id": 2199502854, "lat": 7.3353148, "lon": -2.3265993, "tags": {"addr:city": "Sunyani", "addr:country": "GH", "addr:region": "Bono", "alt_name": "Absa - Sunyani Branch", "amenity": "bank", "branch": "Sunyani", "brand": "Absa", "brand:wikidata": "Q58641733", "brand:wikipedia": "en:Absa Group Limited", "contact:instagram": "absaghana", "contact:linkedin": "absa-ghana", "contact:twitter": "AbsaGhana", "contact:whatsapp": "+233 50 164 4644", "contact:youtube": "https://www.youtube.com/channel/UCKpKPyfJ69tf7lnxudpzKJQ", "email": "service.excellence.GH@absa.africa", "facebook": "AbsaGhana", "name": "Absa", "old_name": "Barclays Bank", "opening_hours": "Mo-Fr 08:30-16:30; PH off", "operator": "Absa Bank Ghana Limited", "operator:type": "public", "operator:wikidata": "Q96371413", "operator:wikipedia": "en:Absa Bank Ghana", "phone": "+233 57 766 9244", "website": "https://www.absa.com.gh"}}, {"type": "node", "id": 2199502891, "lat": 7.3336108, "lon": -2.3233775, "tags": {"amenity": "bank"}}, {"type": "node", "id": 2211467484, "lat": 7.3340031, "lon": -2.3264582, "tags": {"amenity": "bank", "name": "National Investment Bank Ltd"}}, {"type": "node", "id": 2289261418, "lat": 7.334432, "lon": -2.3293058, "tags": {"amenity": "bank", "atm": "yes", "name": "SG-SSB", "operator": "SG-SSB"}}, {"type": "node", "id": 5308353639, "lat": 7.3343313, "lon": -2.3269122, "tags": {"amenity": "bank", "brand": "Zenith Bank", "brand:wikidata": "Q5978240", "brand:wikipedia": "en:Zenith Bank", "name": "Zenith Bank"}}, {"type": "node", "id": 5308353645, "lat": 7.3338499, "lon": -2.3232932, "tags": {"amenity": "bank", "atm": "yes", "brand": "Stanbic Bank", "brand:wikidata": "Q7597999", "brand:wikipedia": "en:Stanbic Bank", "name": "Stanbic Bank"}}, {"type": "node", "id": 5308353647, "lat": 7.3361463, "lon": -2.3275287, "tags": {"addr:city": "Sunyani", "addr:country": "GH", "addr:region": "Bono", "alt_name": "Ecobank - Sunyani Branch", "amenity": "bank", "atm": "yes", "branch": "Sunyani", "brand": "Ecobank", "brand:wikidata": "Q930225", "brand:wikipedia": "en:Ecobank", "contact:facebook": "EcobankGhanaPLC", "contact:instagram": "ecobankghanaplc", "contact:linkedin": "ecobankghanaplc", "contact:twitter": "EcobankGhanaPLC", "contact:youtube": "ecobanktv", "email": "ecobankenquiries@ecobank.com", "facebook": "https://www.facebook.com/EcobankGhanaPLC/", "name": "Ecobank", "opening_hours": "Mo-Fr 08:30-16:00; Sa 09:00-14:00; PH off", "operator": "Ecobank Ghana PLC", "operator:type": "public", "operator:wikidata": "Q5333155", "operator:wikipedia": "en:Ecobank Ghana", "phone": "+233 35 202 5498;+233 35 202 5495", "website": "https://ecobank.com/gh/personal-banking"}}, {"type": "node", "id": 5330094433, "lat": 7.3613773, "lon": -2.3469189, "tags": {"amenity": "bank", "fixme": "conflicting duplicates, please fix", "name": "Capital Rural Bank"}}, {"type": "node", "id": 5330094444, "lat": 7.3647156, "lon": -2.3463891, "tags": {"amenity": "bank", "atm": "no", "name": "GN Bank", "opening_hours": "Mo-Fr 08:00-17:00"}}, {"type": "node", "id": 5538057947, "lat": 7.3332708, "lon": -2.3208426}, {"type": "node", "id": 5538057948, "lat": 7.3330912, "lon": -2.3209204}, {"type": "node", "id": 5538057949, "lat": 7.3331517, "lon": -2.3210623}, {"type": "node", "id": 5538057950, "lat": 7.3333312, "lon": -2.3209845}, {"type": "node", "id": 5538057951, "lat": 7.3331598, "lon": -2.3210756}, {"type": "node", "id": 5538057952, "lat": 7.333338, "lon": -2.3209978}, {"type": "node", "id": 5538057953, "lat": 7.3333844, "lon": -2.3211059}, {"type": "node", "id": 5538057954, "lat": 7.3332062, "lon": -2.3211837}, {"type": "node", "id": 5552088925, "lat": 7.334216, "lon": -2.3302411, "tags": {"addr:street": "Sunyani - Bechem", "amenity": "bank", "name": "ADB", "opening_hours": "Mo-Fr 08:00-16:30"}}, {"type": "node", "id": 6091147588, "lat": 7.3354504, "lon": -2.3317968, "tags": {"amenity": "bank", "name": "Bank of Ghana", "name:ar": "\u0628\u0646\u0643 \u063a\u0627\u0646\u0627"}}, {"type": "node", "id": 6503789713, "lat": 7.3335507, "lon": -2.3274493, "tags": {"amenity": "bank", "atm": "yes", "name": "Abosomakotre Credit Union"}}, {"type": "node", "id": 6503826670, "lat": 7.3343513, "lon": -2.3253392, "tags": {"amenity": "bank", "atm": "yes", "name": "Kaaseman Rural Bank ltd"}}, {"type": "node", "id": 6503866984, "lat": 7.3324269, "lon": -2.3276811, "tags": {"amenity": "bank", "atm": "yes", "name": "Best Point Savings and Loans"}}, {"type": "node", "id": 6503866992, "lat": 7.3336539, "lon": -2.3261654, "tags": {"amenity": "bank", "atm": "yes", "name": "Opportunity savings and Loans"}}, {"type": "node", "id": 6503866998, "lat": 7.3333829, "lon": -2.3271764, "tags": {"amenity": "bank", "atm": "yes", "name": "Capital Rural Bank"}}, {"type": "node", "id": 6640076020, "lat": 7.3347792, "lon": -2.3252108, "tags": {"amenity": "bank", "name": "Sahel Sahara Bank"}}, {"type": "node", "id": 6643353296, "lat": 7.3286447, "lon": -2.3222864, "tags": {"amenity": "bank", "name": "Golden Pride Savings and Loans"}}, {"type": "node", "id": 7048425736, "lat": 7.2931049, "lon": -2.272723, "tags": {"amenity": "bank", "name": "Capital Rural Bank"}}, {"type": "node", "id": 7121556761, "lat": 7.3337448, "lon": -2.3295581, "tags": {"amenity": "bank", "atm": "yes", "brand": "Fidelity Bank", "brand:wikidata": "Q5446778", "brand:wikipedia": "en:Fidelity Bank Ghana", "name": "Fidelity Bank"}}, {"type": "node", "id": 10069624867, "lat": 7.361556, "lon": -2.3471429, "tags": {"addr:city": "Sunyani", "addr:street": "Sunyani - Berekum Road", "amenity": "bank", "drive_through": "yes", "name": "Capital Rural Bank"}}, {"type": "node", "id": 10069640824, "lat": 7.3608281, "lon": -2.347254, "tags": {"addr:city": "Sunyani", "addr:street": "Sunyani - Berekum Road", "amenity": "bank", "atm": "yes", "name": "Drobo Community Bank", "opening_hours": "Mo-Sa 08:00-16:00"}}, {"type": "node", "id": 11080402931, "lat": 7.3293129, "lon": -2.3228721, "tags": {"amenity": "bank", "check_date": "2023-08-01", "name": "Baccsod Cathedral", "opening_hours": "Mo-Fr 08:30-16:00; Su off", "phone": "+233 20 911 9505"}}, {"type": "node", "id": 11080470139, "lat": 7.3306291, "lon": -2.325221, "tags": {"amenity": "bank", "check_date": "2023-08-01", "name": "iZwe Savings & Loans"}}, {"type": "way", "id": 577781611, "nodes": [5538057950, 5538057947, 5538057948, 5538057949, 5538057950], "tags": {"amenity": "bank", "brand": "Fidelity Bank", "brand:wikidata": "Q5446778", "brand:wikipedia": "en:Fidelity Bank Ghana", "building": "commercial", "name": "Fidelity Bank"}}, {"type": "way", "id": 577781612, "nodes": [5538057954, 5538057953, 5538057952, 5538057951, 5538057954], "tags": {"amenity": "bank", "building": "commercial", "name": "GCB"}}]}