{"version": 0.6, "generator": "Overpass API 0.7.61.5 4133829e", "osm3s": {"timestamp_osm_base": "2024-03-05T11:08:29Z", "copyright": "The data included in this document is from www.openstreetmap.org. The data is made available under ODbL."}, "elements": [{"type": "node", "id": 2403593036, "lat": 6.1846018, "lon": 1.1675687, "tags": {"amenity": "atm", "name": "ECOBANK", "operator": "Ecobank", "source": "Bing and survey"}}, {"type": "node", "id": 2603678820, "lat": 6.210642, "lon": 1.198362, "tags": {"amenity": "atm", "name": "Western Union"}}, {"type": "node", "id": 3101753245, "lat": 6.1416053, "lon": 1.2078217, "tags": {"amenity": "atm", "brand": "GAB", "opening_hours": "24/7", "operator": "Ecobank"}}, {"type": "node", "id": 3594797383, "lat": 6.1794217, "lon": 1.2132654, "tags": {"amenity": "atm", "brand": "Banque Atlantique", "brand:wikidata": "Q2882890", "name": "Banque Atlantique", "operator": "Banque Atlantique", "operator:wikidata": "Q2882890"}}, {"type": "node", "id": 3822301445, "lat": 6.1705997, "lon": 1.1915574, "tags": {"amenity": "atm", "name": "BTCI"}}, {"type": "node", "id": 4148024143, "lat": 6.1757859, "lon": 1.1813686, "tags": {"amenity": "atm"}}, {"type": "node", "id": 5002716929, "lat": 6.1871127, "lon": 1.2098057, "tags": {"amenity": "atm", "brand": "Ecobank", "wheelchair": "yes"}}, {"type": "node", "id": 5017200543, "lat": 6.1707633, "lon": 1.1928589, "tags": {"amenity": "atm", "name": "Guichet Automatique Ecobank", "opening_hours": "Mo-Su 00:00-23:59"}}, {"type": "node", "id": 5152164123, "lat": 6.1307848, "lon": 1.2122834, "tags": {"amenity": "atm", "source": "Knowledge;Survey"}}, {"type": "node", "id": 5346828403, "lat": 6.1693888, "lon": 1.2031722, "tags": {"amenity": "atm", "name": "Atm Banque Atlantique"}}, {"type": "node", "id": 6697051986, "lat": 6.1359905, "lon": 1.2254218, "tags": {"amenity": "atm", "operator": "BTCI"}}, {"type": "node", "id": 8651488381, "lat": 6.1122859, "lon": 1.1980377, "tags": {"amenity": "atm", "brand": "GT Bank", "brand:wikidata": "Q579747", "brand:wikipedia": "en:Guaranty Trust Holding Company PLC", "name": "GT Bank", "official_name": "Guaranty Trust Bank", "opening_hours": "24/7", "operator": "GT Bank", "operator:wikidata": "Q579747", "operator:wikipedia": "en:Guaranty Trust Holding Company PLC"}}, {"type": "node", "id": 8699114717, "lat": 6.1898597, "lon": 1.1539995, "tags": {"amenity": "atm", "operator": "ORABANK"}}, {"type": "node", "id": 8866689540, "lat": 6.175689, "lon": 1.1815909, "tags": {"amenity": "atm", "source": "Bing;Survey"}}, {"type": "node", "id": 9363321638, "lat": 6.1934891, "lon": 1.1898722, "tags": {"amenity": "atm", "name": "Guichet Automatique Orabank"}}, {"type": "node", "id": 9738093447, "lat": 6.1995286, "lon": 1.188543, "tags": {"amenity": "atm"}}]}