{"version": 0.6, "generator": "Overpass API 0.7.61.5 4133829e", "osm3s": {"timestamp_osm_base": "2024-03-05T14:58:45Z", "copyright": "The data included in this document is from www.openstreetmap.org. The data is made available under ODbL."}, "elements": [{"type": "node", "id": 1264227343, "lat": 59.4810424, "lon": 11.6584199, "tags": {"amenity": "pharmacy", "dispensing": "yes", "healthcare": "pharmacy", "name": "\u00d8rje Apotek", "wheelchair": "yes"}}, {"type": "node", "id": 3703338931, "lat": 59.3917688, "lon": 12.1331956, "tags": {"amenity": "pharmacy", "app:apk": "se.apoteket.recept", "app:apple": "https://itunes.apple.com/se/app/mitt-apotek/id1053398061", "brand": "Apoteket", "name": "Apoteket", "operator": "Apoteket AB (556138-6532)", "owner": "Svenska Staten", "ownership": "national", "phone": "+46771450450", "website:stock": "https://www.fass.se/"}}, {"type": "node", "id": 4471348020, "lat": 59.3884637, "lon": 12.1301539, "tags": {"amenity": "clinic", "name": "V\u00e5rdcentralen \u00c5rj\u00e4ng"}}, {"type": "node", "id": 5921084024, "lat": 59.4805385, "lon": 11.6580609, "tags": {"amenity": "doctors", "healthcare": "doctor", "healthcare:service": "fastlege", "healthcare:speciality": "general", "name": "Sentrumsg\u00e5rden legekontor", "ref:nhn": "913691113"}}, {"type": "node", "id": 5921084047, "lat": 59.225165, "lon": 11.6988035, "tags": {"amenity": "doctors", "healthcare:service": "fastlege", "healthcare:speciality": "general", "name": "Aremark legekontor", "ref:nhn": "974570467"}}, {"type": "node", "id": 5921084049, "lat": 59.1273152, "lon": 11.443378, "tags": {"amenity": "doctors", "healthcare:service": "fastlege", "healthcare:speciality": "general", "name": "Afrah Medical legekontor", "ref:nhn": "914961734"}}, {"type": "node", "id": 5921084051, "lat": 59.1273579, "lon": 11.4433914, "tags": {"amenity": "doctors", "healthcare:service": "fastlege", "healthcare:speciality": "general", "name": "Lege Fredrik B. Knutsen", "ref:nhn": "874804452"}}, {"type": "node", "id": 5921084065, "lat": 59.1251511, "lon": 11.396727, "tags": {"amenity": "doctors", "healthcare:service": "fastlege", "healthcare:speciality": "general", "name": "Dr. Haneviks kontor", "ref:nhn": "981739426"}}, {"type": "node", "id": 6255745828, "lat": 59.4745167, "lon": 11.6459944, "tags": {"alt_name": "\u00d8rjetun", "amenity": "hospital", "name": "\u00d8rje kursted", "ssr:stedsnr": "670556"}}, {"type": "node", "id": 6821136612, "lat": 59.4805876, "lon": 11.661748, "tags": {"amenity": "pharmacy", "branch": "\u00d8rje", "brand": "Vitusapotek", "email": "orje@vitusapotek.no", "healthcare": "pharmacy", "name": "Vitusapotek \u00d8rje", "opening_hours": "Mo-Fr 09:00-17:00, Sa 10:00-14:00", "phone": "+47 69811130", "ref:nmd": "1186"}}]}