{"version": 0.6, "generator": "Overpass API 0.7.61.5 4133829e", "osm3s": {"timestamp_osm_base": "2024-03-06T11:04:23Z", "copyright": "The data included in this document is from www.openstreetmap.org. The data is made available under ODbL."}, "elements": [{"type": "node", "id": 3858779854, "lat": 1.3468447, "lon": 34.3997547}, {"type": "node", "id": 3858780160, "lat": 1.3468865, "lon": 34.3997632}, {"type": "node", "id": 3858780161, "lat": 1.3468866, "lon": 34.3994631}, {"type": "node", "id": 3858780164, "lat": 1.3469062, "lon": 34.399186}, {"type": "node", "id": 3858780166, "lat": 1.3469328, "lon": 34.3989448}, {"type": "node", "id": 3858780169, "lat": 1.3469481, "lon": 34.3987566}, {"type": "node", "id": 3858780174, "lat": 1.3469763, "lon": 34.3987582}, {"type": "node", "id": 3858780176, "lat": 1.3470243, "lon": 34.3996689}, {"type": "node", "id": 3858780185, "lat": 1.3471057, "lon": 34.3988053}, {"type": "node", "id": 3858780204, "lat": 1.3472202, "lon": 34.3996543}, {"type": "node", "id": 3858780228, "lat": 1.3473088, "lon": 34.3987533}, {"type": "node", "id": 3858780248, "lat": 1.3474016, "lon": 34.3996543}, {"type": "node", "id": 3858780255, "lat": 1.3474321, "lon": 34.3986882}, {"type": "node", "id": 3858780461, "lat": 1.347462, "lon": 34.3994186}, {"type": "node", "id": 3858780464, "lat": 1.3474708, "lon": 34.3988682}, {"type": "node", "id": 3858780474, "lat": 1.3474988, "lon": 34.399363}, {"type": "node", "id": 3858780476, "lat": 1.3475071, "lon": 34.3991404}, {"type": "node", "id": 3858780477, "lat": 1.3475095, "lon": 34.3996274}, {"type": "node", "id": 3858780479, "lat": 1.3475193, "lon": 34.3993365}, {"type": "node", "id": 3953636045, "lat": 1.1924884, "lon": 34.3529606, "tags": {"addr:city": "Bukyabo", "addr:street": "Mutufu", "amenity": "school", "isced:level": "1", "name": "Bukyabo Primary School", "opening_hours": "Mo-Sa 09:00-18:00", "wikidata": "Q22680455"}}, {"type": "node", "id": 3953637060, "lat": 1.1809466, "lon": 34.3605995, "tags": {"addr:city": "Buhugu", "addr:street": "Kisikisi Road", "amenity": "school", "name": "Kisikisi Primary School", "opening_hours": "Mo-Sa 09:00-18:00"}}, {"type": "node", "id": 3955147852, "lat": 1.177089, "lon": 34.37908, "tags": {"addr:city": "Bumasifwa", "addr:street": "Bumasifwa Road", "amenity": "school", "name": "Bumasifwa Primary School", "opening_hours": "Mo-Sa 09:00-18:00"}}, {"type": "node", "id": 3955147853, "lat": 1.1724877, "lon": 34.3911655, "tags": {"addr:city": "Bumasifwa", "addr:street": "Bumasifwa Road", "amenity": "school", "isced:level": "2;3;4", "name": "Bumasifwa Seed Secondary School", "opening_hours": "Mo-Sa 09:00-18:00", "wikidata": "Q22680468"}}, {"type": "node", "id": 3955147957, "lat": 1.2140331, "lon": 34.3574342, "tags": {"addr:city": "Butandiga", "amenity": "school", "isced:level": "1", "name": "Butandiga Primary School", "wikidata": "Q22680453"}}, {"type": "node", "id": 3955147958, "lat": 1.1817041, "lon": 34.3533457, "tags": {"addr:city": "Buhugu", "addr:street": "Bunaseke Road", "amenity": "school", "name": "Buzerobe Primary School", "opening_hours": "Mo-Sa 09:00-18:00"}}, {"type": "node", "id": 3955215562, "lat": 1.1592993, "lon": 34.3909119, "tags": {"addr:city": "Bugitimwa Sub County", "addr:street": "Nabaatu Road", "amenity": "school", "name": "Saint Aggrey Primary School", "opening_hours": "Mo-Fr 09:00-17:00"}}, {"type": "node", "id": 3958349266, "lat": 1.3893595, "lon": 34.4200296, "tags": {"addr:city": "Kapteret", "amenity": "school", "isced:level": "2;3;4", "name": "Duban Secondary School", "opening_hours": "Mo-Fr 09:00-17:00", "wikidata": "Q23131908"}}, {"type": "node", "id": 3958349275, "lat": 1.4086753, "lon": 34.4854288, "tags": {"addr:city": "Kaptanya", "amenity": "school", "isced:level": "1", "name": "Siron Primary School", "opening_hours": "Mo-Fr 09:00-17:00", "wikidata": "Q22931013"}}, {"type": "node", "id": 3958413648, "lat": 1.3278186, "lon": 34.352639, "tags": {"addr:city": "Kapchemwania", "addr:county": "Tingey", "addr:district": "Kapchorwa", "addr:parish": "Amukol", "addr:subcounty": "Amukol", "amenity": "school", "isced:level": "1", "name": "Amukol Primary School", "source": "www.ubos.org", "source:date": "2010..2014", "wikidata": "Q23133074"}}, {"type": "node", "id": 3958413650, "lat": 1.3202618, "lon": 34.3666204, "tags": {"addr:city": "Boron", "addr:county": "Tingey", "addr:district": "Kapchorwa", "addr:parish": "Boron", "addr:subcounty": "Amukol", "amenity": "school", "isced:level": "1", "name": "Boron Primary School", "source": "www.ubos.org", "source:date": "2010..2014", "wikidata": "Q23132381"}}, {"type": "node", "id": 3958420785, "lat": 1.4545023, "lon": 34.4133854, "tags": {"addr:city": "Bunambutye", "addr:street": "Moroto Road", "amenity": "school", "isced:level": "1", "name": "Atari Primary", "opening_hours": "Mo-Sa 08:00-18:00", "wikidata": "Q23069684"}}, {"type": "node", "id": 3958420786, "lat": 1.4597858, "lon": 34.4000866, "tags": {"addr:city": "Bunambutye", "addr:street": "Moroto Road", "amenity": "school", "name": "Baraka Academy", "opening_hours": "Mo-Sa 08:00-18:00", "wikidata": "Q23069685"}}, {"type": "node", "id": 3958420789, "lat": 1.4186086, "lon": 34.3556381, "tags": {"addr:city": "Bunambutye", "addr:street": "Moroto Road", "amenity": "school", "isced:level": "1", "name": "King's Primary", "opening_hours": "Mo-Sa 09:00-17:00", "wikidata": "Q23069686"}}, {"type": "node", "id": 3958420791, "lat": 1.4545023, "lon": 34.4083643, "tags": {"addr:city": "Bunambutye", "addr:street": "Moroto Road", "amenity": "school", "isced:level": "0;1", "name": "Saint Jude Nursery and Primary", "opening_hours": "Mo-Sa 09:00-17:00", "wikidata": "Q23069688"}}, {"type": "node", "id": 3958420792, "lat": 1.4548278, "lon": 34.4050945, "tags": {"addr:city": "Bunambutye", "addr:street": "Moroto Road", "amenity": "school", "isced:level": "1", "name": "Tabakonyi Primary", "opening_hours": "Mo-Sa 09:00-17:00", "wikidata": "Q23069689"}}, {"type": "node", "id": 3958420793, "lat": 1.4160654, "lon": 34.3537108, "tags": {"addr:city": "Bunambutye", "addr:street": "Moroto Road", "amenity": "school", "isced:level": "0;1", "name": "Winny and Joan Nursery & Primary", "opening_hours": "Mo-Fr 09:00-17:00", "wikidata": "Q23069690"}}, {"type": "node", "id": 3959779038, "lat": 1.2400386, "lon": 34.3677473, "tags": {"addr:city": "Simu", "amenity": "school", "isced:level": "1", "name": "Bugibologoto Primary School", "opening_hours": "Mo-Fr 08:00-17:00", "wikidata": "Q23133400"}}, {"type": "node", "id": 3959779040, "lat": 1.2263601, "lon": 34.3614672, "tags": {"addr:city": "Buluganya", "amenity": "school", "isced:level": "0;1", "name": "Canaan Parents Nursery and Primary School", "opening_hours": "Mo-Fr 08:00-17:00", "wikidata": "Q22680454"}}, {"type": "node", "id": 3959779041, "lat": 1.2370021, "lon": 34.3707549, "tags": {"addr:city": "Simu", "amenity": "school", "isced:level": "1", "name": "Simu Primary School", "opening_hours": "Mo-Fr 08:00-17:00", "wikidata": "Q23133409"}}, {"type": "node", "id": 3959785078, "lat": 1.2871665, "lon": 34.3779955, "tags": {"addr:city": "Masiira", "amenity": "school", "isced:level": "0;1", "name": "Arise Nursery and Primary School", "opening_hours": "Mo-Fr 09:00-17:00", "wikidata": "Q23132728"}}, {"type": "node", "id": 3959785079, "lat": 1.2680625, "lon": 34.3621924, "tags": {"addr:city": "Buginyaya", "addr:district": "Bulambuli", "amenity": "school", "isced:level": "2;3;4", "name": "Buginyanya Comprehensive Secondary School", "source": "www.ubos.org", "source:date": "2010..2014", "wikidata": "Q23132797"}}, {"type": "node", "id": 3959785084, "lat": 1.2862873, "lon": 34.3752605, "tags": {"addr:city": "Masiira", "addr:county": "Bulambuli", "addr:district": "Bulambuli", "addr:parish": "Kikobero", "addr:subcounty": "Masiira", "amenity": "school", "isced:level": "1", "name": "Masiira Primary School", "opening_hours": "Mo-Fr 08:00-17:00", "operator:type": "public", "source": "www.ubos.org", "source:date": "2010..2014", "wikidata": "Q23133065"}}, {"type": "node", "id": 3959785085, "lat": 1.2860657, "lon": 34.3766502, "tags": {"addr:city": "Masiira", "addr:county": "Bulambuli", "addr:district": "Bulambuli", "addr:parish": "Kikobero", "addr:subcounty": "Masiira", "amenity": "school", "isced:level": "2;3;4", "name": "Masiira Secondary School", "opening_hours": "Mo-Fr 08:00-17:00", "operator:type": "private", "source": "www.ubos.org", "source:date": "2010..2014", "wikidata": "Q23132929"}}, {"type": "node", "id": 3959785086, "lat": 1.292249, "lon": 34.3581262, "tags": {"addr:city": "Namisuni", "addr:county": "Bulambuli", "addr:district": "Bulambuli", "addr:parish": "Nambekye", "addr:subcounty": "Namisuni", "amenity": "school", "isced:level": "1", "name": "Nambekye Primary School", "opening_hours": "Mo-Sa 08:00-18:00", "operator:type": "public", "source": "www.ubos.org", "source:date": "2010..2014", "wikidata": "Q23132900"}}, {"type": "node", "id": 3959785087, "lat": 1.296097, "lon": 34.3572623, "tags": {"addr:city": "Namisuni", "addr:county": "Bulambuli", "addr:district": "Bulambuli", "addr:parish": "Nambekye", "addr:subcounty": "Namisuni", "amenity": "school", "isced:level": "1", "name": "Namisuni Primary School", "opening_hours": "Mo-Fr 08:00-17:00", "source": "www.ubos.org", "source:date": "2010..2014", "wikidata": "Q23132989"}}, {"type": "node", "id": 3959785088, "lat": 1.2937812, "lon": 34.3720579, "tags": {"addr:city": "Makuyu", "addr:county": "Bulambuli", "addr:district": "Bulambuli", "addr:parish": "Namudongo", "addr:subcounty": "Namisuni", "amenity": "school", "name": "Namudongo Primary School", "opening_hours": "Mo-Fr 08:00-17:00", "source": "www.ubos.org", "source:date": "2010..2014"}}, {"type": "node", "id": 3960967519, "lat": 1.3766407, "lon": 34.403048}, {"type": "node", "id": 3960967530, "lat": 1.3766828, "lon": 34.4033453}, {"type": "node", "id": 3960967537, "lat": 1.3767167, "lon": 34.4024722}, {"type": "node", "id": 3960967541, "lat": 1.3767276, "lon": 34.4033779}, {"type": "node", "id": 3960967544, "lat": 1.376752, "lon": 34.4022495}, {"type": "node", "id": 3960967569, "lat": 1.3768796, "lon": 34.4018897}, {"type": "node", "id": 3960967608, "lat": 1.3770154, "lon": 34.4031539}, {"type": "node", "id": 3960967624, "lat": 1.3771063, "lon": 34.4014036}, {"type": "node", "id": 3960967628, "lat": 1.3771376, "lon": 34.4028714}, {"type": "node", "id": 3960967658, "lat": 1.3773371, "lon": 34.4029828}, {"type": "node", "id": 3960967698, "lat": 1.3775244, "lon": 34.4032136}, {"type": "node", "id": 3960967742, "lat": 1.3776452, "lon": 34.4031036}, {"type": "node", "id": 3960967768, "lat": 1.3777952, "lon": 34.4031884}, {"type": "node", "id": 3960967793, "lat": 1.377914, "lon": 34.4018232}, {"type": "node", "id": 3960967839, "lat": 1.3780872, "lon": 34.4029002}, {"type": "node", "id": 3960967856, "lat": 1.3782358, "lon": 34.4019902}, {"type": "node", "id": 3960967867, "lat": 1.3783031, "lon": 34.4020251}, {"type": "node", "id": 3960967884, "lat": 1.3784483, "lon": 34.4021435}, {"type": "node", "id": 3960967903, "lat": 1.3785789, "lon": 34.4022631}, {"type": "node", "id": 3983115829, "lat": 1.271538, "lon": 34.7516833, "tags": {"addr:city": "Chemuron", "addr:county": "Kongasis", "addr:district": "Bukwo", "addr:parish": "Kululu", "addr:subcounty": "Bukwo", "amenity": "school", "isced:level": "1", "name": "Amananga Primary", "operator:type": "government", "source": "www.ubos.org", "source:date": "2010..2014", "wikidata": "Q22575607"}}, {"type": "node", "id": 3983115830, "lat": 1.3896163, "lon": 34.765724, "tags": {"addr:city": "Aralam", "addr:county": "Kongasis", "addr:district": "Bukwo", "addr:parish": "Aralam", "addr:subcounty": "Riwo", "amenity": "school", "isced:level": "1", "name": "Aralam Primary School", "operator:type": "government", "source": "www.ubos.org", "source:date": "2010..2014", "wikidata": "Q22575606"}}, {"type": "node", "id": 3983115831, "lat": 1.383952, "lon": 34.7017767, "tags": {"addr:city": "Aryowet", "addr:county": "Kongasis", "addr:district": "Bukwo", "addr:parish": "Kapswama", "addr:subcounty": "Tulel", "amenity": "school", "fixme": "Please, check the position of the node", "isced:level": "1", "name": "Aryowet Primary School", "source": "www.ubos.org", "source:date": "2010..2014", "wikidata": "Q22575609"}}, {"type": "node", "id": 3983115832, "lat": 1.2959267, "lon": 34.7485873, "tags": {"addr:city": "Lamaywo", "addr:county": "Kongasis", "addr:district": "Bukwo", "addr:parish": "Torasis Ward", "addr:subcounty": "Bukwo Town Council", "amenity": "school", "isced:level": "2;3;4", "name": "Boarder College Academy Secondary School", "source": "www.ubos.org", "source:date": "2010..2014", "wikidata": "Q22575608"}}, {"type": "node", "id": 3983115834, "lat": 1.3333003, "lon": 34.7581278, "tags": {"addr:city": "Brim", "addr:county": "Kongasis", "addr:district": "Bukwo", "addr:parish": "Brim", "addr:subcounty": "Riwo", "amenity": "school", "isced:level": "1", "name": "Brim Primary School", "operator:type": "public", "source": "www.ubos.org", "source:date": "2010..2014", "wikidata": "Q22575594"}}, {"type": "node", "id": 3983115835, "lat": 1.2944404, "lon": 34.7480583, "tags": {"addr:city": "Esso", "addr:county": "Kongasis", "addr:district": "Bukwo", "addr:parish": "Torasis Ward", "addr:subcounty": "Bukwo Town Council", "amenity": "school", "isced:level": "1", "name": "Bukwo Primary School", "operator:type": "government", "source": "www.ubos.org", "source:date": "2010..2014", "wikidata": "Q22575597"}}, {"type": "node", "id": 3983115836, "lat": 1.2862077, "lon": 34.7522428, "tags": {"addr:city": "Chelelechbei", "addr:county": "Kongasis", "addr:district": "Bukwo", "addr:parish": "Torasis Ward", "addr:subcounty": "Bukwo Town Council", "amenity": "school", "fixme": "Please, check the position of the node", "isced:level": "1", "name": "Bukwo Town View Primary School", "operator:type": "private", "source": "www.ubos.org", "source:date": "2010..2014", "wikidata": "Q22575596"}}, {"type": "node", "id": 3983115838, "lat": 1.2585224, "lon": 34.7268522, "tags": {"addr:city": "Chebombei", "addr:county": "Kongasis", "addr:district": "Bukwo", "addr:parish": "Cheboi", "addr:subcounty": "Bukwo", "amenity": "school", "isced:level": "1", "name": "Chebiribei Primary School", "operator:type": "private", "source": "www.ubos.org", "source:date": "2010..2014", "wikidata": "Q22575598"}}, {"type": "node", "id": 3983115839, "lat": 1.2597814, "lon": 34.7280149, "tags": {"addr:city": "Chebombei", "addr:county": "Kongasis", "addr:district": "Bukwo", "addr:parish": "Cheboi", "addr:subcounty": "Bukwo", "amenity": "school", "isced:level": "1", "name": "Cheboi Primary School", "operator:type": "government", "source": "www.ubos.org", "source:date": "2010..2014", "wikidata": "Q22575604"}}, {"type": "node", "id": 3983115840, "lat": 1.3377018, "lon": 34.6902824, "tags": {"addr:city": "Chekwir", "addr:county": "Kongasis", "addr:district": "Bukwo", "addr:parish": "Kapkumolon", "addr:subcounty": "Kamet", "amenity": "school", "isced:level": "1", "name": "Chekwir Primary School", "operator:type": "public", "source": "www.ubos.org", "source:date": "2010..2014", "wikidata": "Q22575602"}}, {"type": "node", "id": 3983115841, "lat": 1.3532085, "lon": 34.6821165, "tags": {"addr:city": "Chemuron", "addr:county": "Kongasis", "addr:district": "Bukwo", "addr:parish": "Burkeywo", "addr:subcounty": "Tulel", "amenity": "school", "isced:level": "1", "name": "Chemoron Primary School", "operator:type": "public", "source": "www.ubos.org", "source:date": "2010..2014", "wikidata": "Q22575567"}}, {"type": "node", "id": 3983115843, "lat": 1.2571277, "lon": 34.7559743, "tags": {"addr:city": "Koroshondet", "addr:county": "Kongasis", "addr:district": "Bukwo", "addr:parish": "Rwanda", "addr:subcounty": "Senendet", "amenity": "school", "isced:level": "1", "name": "Chemwabit Primary School", "operator:type": "public", "source": "www.ubos.org", "source:date": "2010..2014", "wikidata": "Q22575570"}}, {"type": "node", "id": 3983115844, "lat": 1.2680322, "lon": 34.7038227, "tags": {"addr:city": "Mutorokwo", "addr:county": "Kongasis", "addr:district": "Bukwo", "addr:parish": "Kapsabit", "addr:subcounty": "Chepkwasta", "amenity": "school", "isced:level": "1", "name": "Chepkwasta Academy Primary School", "operator:type": "private", "source": "www.ubos.org", "source:date": "2010..2014", "wikidata": "Q22575569"}}, {"type": "node", "id": 3983115846, "lat": 1.2678307, "lon": 34.7046312, "tags": {"addr:city": "Kween", "addr:county": "Kongasis", "addr:district": "Bukwo", "addr:parish": "Chepkwasta", "addr:subcounty": "Chepkwasta", "amenity": "school", "isced:level": "1", "name": "Chepkwasta Primary School", "operator:type": "government", "source": "www.ubos.org", "source:date": "2010..2014", "wikidata": "Q22575572"}}, {"type": "node", "id": 3983115847, "lat": 1.2688295, "lon": 34.7048272, "tags": {"addr:city": "Kween", "addr:county": "Kongasis", "addr:district": "Bukwo", "addr:parish": "Chepkwasta", "addr:subcounty": "Chepkwasta", "amenity": "school", "isced:level": "2;3;4", "name": "Chepkwasta Secondary School", "operator:type": "government", "source": "www.ubos.org", "source:date": "2010..2014", "wikidata": "Q22575578"}}, {"type": "node", "id": 3983115848, "lat": 1.2882878, "lon": 34.6791026, "tags": {"addr:city": "Chesimat", "addr:county": "Kongasis", "addr:district": "Bukwo", "addr:parish": "Chesimat", "addr:subcounty": "Kortek", "amenity": "school", "isced:level": "1", "name": "Chesimat Primary School", "source": "www.ubos.org", "source:date": "2010..2014", "wikidata": "Q22575577"}}, {"type": "node", "id": 3983115850, "lat": 1.340041, "lon": 34.6540743, "tags": {"addr:city": "Bumotoi", "addr:county": "Kongasis", "addr:district": "Bukwo", "addr:parish": "Chesower", "addr:subcounty": "Chesower", "amenity": "school", "isced:level": "1", "name": "Chesower Primary School", "operator:type": "government", "source": "www.ubos.org", "source:date": "2010..2014", "wikidata": "Q22575548"}}, {"type": "node", "id": 3983115851, "lat": 1.3419549, "lon": 34.6575049, "tags": {"addr:city": "Bisho", "addr:county": "Kongasis", "addr:district": "Bukwo", "addr:parish": "Bisho", "addr:subcounty": "Chesower", "amenity": "school", "isced:level": "2;3;4", "name": "Chesower Secondary School", "operator:type": "public", "source": "www.ubos.org", "source:date": "2010..2014", "wikidata": "Q22575554"}}, {"type": "node", "id": 3983115854, "lat": 1.2456583, "lon": 34.7724068, "tags": {"addr:city": "Kapkirwok", "addr:county": "Kongasis", "addr:district": "Bukwo", "addr:parish": "Kapkoroswo", "addr:subcounty": "Kaptererwo", "amenity": "school", "isced:level": "1", "name": "Elgon View Primary School", "source": "www.ubos.org", "source:date": "2010..2014", "wikidata": "Q22575556"}}, {"type": "node", "id": 3983115855, "lat": 1.2405003, "lon": 34.7899659, "tags": {"addr:city": "Kabaraka", "addr:county": "Kongasis", "addr:district": "Bukwo", "addr:parish": "Chebinyinyi", "addr:subcounty": "Kaptererwo", "amenity": "school", "isced:level": "1", "name": "Future Harvest Primary School", "source": "www.ubos.org", "source:date": "2010..2014", "wikidata": "Q22575563"}}, {"type": "node", "id": 3983117757, "lat": 1.2705608, "lon": 34.7193106, "tags": {"addr:city": "Lwogon", "addr:county": "Kongasis", "addr:district": "Bukwo", "addr:parish": "Sosho", "addr:subcounty": "Bukwo", "amenity": "school", "isced:level": "1", "name": "Green Field Primary School", "operator:type": "private", "source": "www.ubos.org", "source:date": "2010..2014", "wikidata": "Q22575601"}}, {"type": "node", "id": 3983117758, "lat": 1.3105376, "lon": 34.7215006, "tags": {"addr:city": "Kutung", "addr:county": "Kongasis", "addr:district": "Bukwo", "addr:parish": "Kabei", "addr:subcounty": "Kabei", "amenity": "school", "isced:level": "2;3;4", "name": "Kabei Secondary School", "operator:type": "public", "source": "www.ubos.org", "source:date": "2010..2014", "wikidata": "Q22575599"}}, {"type": "node", "id": 3983117759, "lat": 1.3404019, "lon": 34.6716648, "tags": {"addr:city": "Kapswayoy", "addr:county": "Kongasis", "addr:district": "Bukwo", "addr:parish": "Nyalit", "addr:subcounty": "Chesower", "amenity": "school", "fixme": "Please, check the position of the node", "isced:level": "1", "name": "Kabukwo Primary School", "operator:type": "public", "source": "www.ubos.org", "source:date": "2010..2014", "wikidata": "Q22575605"}}, {"type": "node", "id": 3983117760, "lat": 1.2442441, "lon": 34.769691, "tags": {"addr:city": "Tulwo", "addr:county": "Kongasis", "addr:district": "Bukwo", "addr:parish": "Matimbei", "addr:subcounty": "Suam", "amenity": "school", "isced:level": "2;3;4", "name": "Kabyoyoh High Secondary School", "operator:type": "public", "source": "www.ubos.org", "source:date": "2010..2014", "wikidata": "Q22575603"}}, {"type": "node", "id": 3983117761, "lat": 1.2443321, "lon": 34.7665237, "tags": {"addr:city": "Tulwo", "addr:county": "Kongasis", "addr:district": "Bukwo", "addr:parish": "Matimbei", "addr:subcounty": "Suam", "amenity": "school", "isced:level": "1", "name": "Kabyoyon Primary School", "source": "www.ubos.org", "source:date": "2010..2014", "wikidata": "Q22575566"}}, {"type": "node", "id": 3983117762, "lat": 1.3458338, "lon": 34.7034678, "tags": {"addr:city": "Moson", "addr:county": "Kongasis", "addr:district": "Bukwo", "addr:parish": "Kamet", "addr:subcounty": "Kamet", "amenity": "school", "isced:level": "0;1", "name": "Kamet Christian Academy Nursery And Primary School", "source": "www.ubos.org", "source:date": "2010..2014", "wikidata": "Q22575565"}}, {"type": "node", "id": 3983117763, "lat": 1.3472047, "lon": 34.7035221, "tags": {"addr:city": "Tesheni", "addr:county": "Kongasis", "addr:district": "Bukwo", "addr:parish": "Kamet", "addr:subcounty": "Kamet", "amenity": "school", "fixme": "Please, check the position of the node", "isced:level": "1", "name": "Kamet Primary School", "operator:type": "government", "source": "www.ubos.org", "source:date": "2010..2014", "wikidata": "Q22575571"}}, {"type": "node", "id": 3983117764, "lat": 1.3474648, "lon": 34.6486061, "tags": {"addr:city": "Nambuya", "addr:county": "Kongasis", "addr:district": "Bukwo", "addr:parish": "Siit", "addr:subcounty": "Chesower", "amenity": "school", "fixme": "Please, check the position of the node", "isced:level": "1", "name": "Kamunjan Primary School", "operator:type": "public", "source": "www.ubos.org", "source:date": "2010..2014", "wikidata": "Q22575568"}}, {"type": "node", "id": 3983117765, "lat": 1.2675255, "lon": 34.7357928, "tags": {"addr:city": "Kaworyo", "addr:county": "Kongasis", "addr:district": "Bukwo", "addr:parish": "Amanang", "addr:subcounty": "Bukwo", "amenity": "school", "isced:level": "1", "name": "Kapchesoyprid Academy Primary School", "operator:type": "private", "source": "www.ubos.org", "source:date": "2010..2014", "wikidata": "Q22575575"}}, {"type": "node", "id": 3983117766, "lat": 1.2480293, "lon": 34.7360177, "tags": {"addr:city": "Ngeny", "addr:county": "Kongasis", "addr:district": "Bukwo", "addr:parish": "Kapkoros", "addr:subcounty": "Senendet", "amenity": "school", "isced:level": "1", "name": "Kapkoros Primary School", "operator:type": "public", "source": "www.ubos.org", "source:date": "2010..2014", "wikidata": "Q22575573"}}, {"type": "node", "id": 3983117767, "lat": 1.2593224, "lon": 34.7356563, "tags": {"addr:city": "Kakawa", "addr:county": "Kongasis", "addr:district": "Bukwo", "addr:parish": "Kapkoros", "addr:subcounty": "Senendet", "amenity": "school", "name": "Kapkoros Primary School", "operator:type": "public", "source": "www.ubos.org", "source:date": "2010..2014"}}, {"type": "node", "id": 3983117768, "lat": 1.3679577, "lon": 34.6443259, "tags": {"addr:city": "Rwanda", "addr:county": "Kween", "addr:district": "Kween", "addr:parish": "Nyimei", "addr:subcounty": "Kwanyiy", "amenity": "school", "isced:level": "1", "name": "Kapkwata Primary School", "operator:type": "government", "source": "www.ubos.org", "source:date": "2010..2014", "wikidata": "Q22575576"}}, {"type": "node", "id": 3983117769, "lat": 1.3686657, "lon": 34.6442118, "tags": {"addr:city": "Rwanda", "addr:county": "Kween", "addr:district": "Kween", "addr:parish": "Nyimei", "addr:subcounty": "Kwanyiy", "amenity": "school", "isced:level": "2;3;4", "name": "Kapkwata Secondary School", "operator:type": "government", "source": "www.ubos.org", "source:date": "2010..2014", "wikidata": "Q22575551"}}, {"type": "node", "id": 3983117770, "lat": 1.3765702, "lon": 34.6345691, "tags": {"addr:city": "Kaplegep", "addr:county": "Kween", "addr:district": "Kween", "addr:parish": "Kaplegep", "addr:subcounty": "Kwanyiy", "amenity": "school", "isced:level": "1", "name": "Kaplegep Primary School", "source": "www.ubos.org", "source:date": "2010..2014", "wikidata": "Q22575549"}}, {"type": "node", "id": 3983117771, "lat": 1.3103002, "lon": 34.7501301, "tags": {"addr:city": "Kapngokin", "addr:county": "Kongasis", "addr:district": "Bukwo", "addr:parish": "Kabasken Ward", "addr:subcounty": "Bukwo Town Council", "amenity": "school", "isced:level": "1", "name": "Kapngokin Primary School", "operator:type": "government", "source": "www.ubos.org", "source:date": "2010..2014", "wikidata": "Q22575555"}}, {"type": "node", "id": 3983117772, "lat": 1.2721997, "lon": 34.6773894, "tags": {"addr:city": "Chemweyet", "addr:county": "Kongasis", "addr:district": "Bukwo", "addr:parish": "Kapsarur", "addr:subcounty": "Chepkwasta", "amenity": "school", "isced:level": "1", "name": "Kapsarur Primary School", "operator:type": "government", "source": "www.ubos.org", "source:date": "2010..2014", "wikidata": "Q22575553"}}, {"type": "node", "id": 3983117773, "lat": 1.2563949, "lon": 34.7019122, "tags": {"addr:city": "Centre", "addr:county": "Kongasis", "addr:district": "Bukwo", "addr:parish": "Kapsekek", "addr:subcounty": "Chepkwasta", "amenity": "school", "fixme": "Please, check the position of the node", "isced:level": "1", "name": "Kapsekek Primary School", "operator:type": "public", "source": "www.ubos.org", "source:date": "2010..2014", "wikidata": "Q22575559"}}, {"type": "node", "id": 3983117774, "lat": 1.3273055, "lon": 34.670359, "tags": {"addr:city": "Chekwatyit", "addr:county": "Kongasis", "addr:district": "Bukwo", "addr:parish": "Nyalit", "addr:subcounty": "Chesower", "amenity": "school", "isced:level": "1", "name": "Kapsiywo Primary School", "operator:type": "public", "source": "www.ubos.org", "source:date": "2010..2014", "wikidata": "Q22575557"}}, {"type": "node", "id": 3983117777, "lat": 1.2375284, "lon": 34.7502543, "tags": {"addr:city": "Korosyo", "addr:county": "Kongasis", "addr:district": "Bukwo", "addr:parish": "Kapkweno", "addr:subcounty": "Suam", "amenity": "school", "fixme": "Please, check the position of the node", "isced:level": "1", "name": "Kings Academy Kapkweno Primary School", "source": "www.ubos.org", "source:date": "2010..2014", "wikidata": "Q22575587"}}, {"type": "node", "id": 3983117778, "lat": 1.3521088, "lon": 34.6724851, "tags": {"addr:city": "Koikoi", "addr:county": "Kongasis", "addr:district": "Bukwo", "addr:parish": "Mayak", "addr:subcounty": "Tulel", "amenity": "school", "fixme": "Please, check the position of the node", "isced:level": "1", "name": "Koikoi Primary School", "operator:type": "government", "source": "www.ubos.org", "source:date": "2010..2014", "wikidata": "Q22575586"}}, {"type": "node", "id": 3983117779, "lat": 1.3483533, "lon": 34.682479, "tags": {"addr:city": "Loch", "addr:county": "Kongasis", "addr:district": "Bukwo", "addr:parish": "Tulel", "addr:subcounty": "Tulel", "amenity": "school", "isced:level": "1", "name": "Komokoyon Primary School", "operator:type": "private", "source": "www.ubos.org", "source:date": "2010..2014", "wikidata": "Q22575589"}}, {"type": "node", "id": 3983117780, "lat": 1.2672168, "lon": 34.7654498, "tags": {"addr:city": "Munda", "addr:county": "Kongasis", "addr:district": "Bukwo", "addr:parish": "Rwanda", "addr:subcounty": "Senendet", "amenity": "school", "fixme": "Please, check the position of the node", "isced:level": "1", "name": "Kongasis Standard Academy Primary School", "source": "www.ubos.org", "source:date": "2010..2014", "wikidata": "Q22575588"}}, {"type": "node", "id": 3983117781, "lat": 1.2943705, "lon": 34.71389, "tags": {"addr:city": "Kubobei", "addr:county": "Kongasis", "addr:district": "Bukwo", "addr:parish": "Kubobei", "addr:subcounty": "Kortek", "amenity": "school", "isced:level": "1", "name": "Kortek Primary School", "source": "www.ubos.org", "source:date": "2010..2014", "wikidata": "Q22575591"}}, {"type": "node", "id": 3983117782, "lat": 1.3776503, "lon": 34.6528132, "tags": {"addr:city": "Kwanyiy", "addr:county": "Kween", "addr:district": "Kween", "addr:parish": "Nyimei", "addr:subcounty": "Kwanyiy", "amenity": "school", "isced:level": "1", "name": "Kwanyiy Primary School", "operator:type": "public", "source": "www.ubos.org", "source:date": "2010..2014", "wikidata": "Q22575590"}}, {"type": "node", "id": 3983117783, "lat": 1.2361203, "lon": 34.7389704, "tags": {"addr:city": "Loch", "addr:county": "Kongasis", "addr:district": "Bukwo", "addr:parish": "Chepkusawar", "addr:subcounty": "Suam", "amenity": "school", "isced:level": "1", "name": "Kwirwo Primary School", "operator:type": "public", "source": "www.ubos.org", "source:date": "2010..2014", "wikidata": "Q22575593"}}, {"type": "node", "id": 3983117784, "lat": 1.3621904, "lon": 34.6552212, "tags": {"addr:city": "Sismach", "addr:county": "Kween", "addr:district": "Kween", "addr:parish": "Kapkwata", "addr:subcounty": "Kwanyiy", "amenity": "school", "isced:level": "1", "name": "Kworus Primary School", "operator:type": "government", "source": "www.ubos.org", "source:date": "2010..2014", "wikidata": "Q22575592"}}, {"type": "node", "id": 3983117785, "lat": 1.3625454, "lon": 34.6548028, "tags": {"addr:city": "Tulwo", "addr:county": "Kween", "addr:district": "Kween", "addr:parish": "Kapkwata", "addr:subcounty": "Kwanyiy", "amenity": "school", "isced:level": "2;3;4", "name": "Kworus Secondary School", "operator:type": "community", "source": "www.ubos.org", "source:date": "2010..2014", "wikidata": "Q22575580"}}, {"type": "node", "id": 3983117786, "lat": 1.2964872, "lon": 34.7349835, "tags": {"addr:city": "Mokoyon Cell", "addr:county": "Kongasis", "addr:district": "Bukwo", "addr:parish": "Kapkureson Ward", "addr:subcounty": "Bukwo Town Council", "amenity": "school", "isced:level": "1", "name": "Mokoyon Primary School", "operator:type": "public", "source": "www.ubos.org", "source:date": "2010..2014", "wikidata": "Q22575579"}}, {"type": "node", "id": 3983117788, "lat": 1.4010177, "lon": 34.6328262, "tags": {"addr:city": "Tayeko", "addr:county": "Kween", "addr:district": "Kween", "addr:parish": "Moyok", "addr:subcounty": "Moyok", "amenity": "school", "isced:level": "2;3;4", "name": "Moyok Secondary School", "source": "www.ubos.org", "source:date": "2010..2014", "wikidata": "Q22575581"}}, {"type": "node", "id": 3983117789, "lat": 1.2865555, "lon": 34.7706035, "tags": {"addr:city": "Barkoyoy", "addr:county": "Kongasis", "addr:district": "Bukwo", "addr:parish": "Muimet", "addr:subcounty": "Bukwo", "amenity": "school", "isced:level": "1", "name": "Muimet Primary School", "operator:type": "government", "source": "www.ubos.org", "source:date": "2010..2014", "wikidata": "Q22575583"}}, {"type": "node", "id": 3983117790, "lat": 1.2870867, "lon": 34.6916391, "tags": {"addr:city": "Muton", "addr:county": "Kongasis", "addr:district": "Bukwo", "addr:parish": "Chemwaisus", "addr:subcounty": "Kortek", "amenity": "school", "isced:level": "1", "name": "Muton Primary School", "operator:type": "private", "source": "www.ubos.org", "source:date": "2010..2014", "wikidata": "Q22575582"}}, {"type": "node", "id": 3983117791, "lat": 1.3188038, "lon": 34.7129984, "tags": {"addr:city": "Lamoywo", "addr:county": "Kongasis", "addr:district": "Bukwo", "addr:parish": "Mutusyet", "addr:subcounty": "Kabei", "amenity": "school", "isced:level": "1", "name": "Mutushet Primary School", "operator:type": "public", "source": "www.ubos.org", "source:date": "2010..2014", "wikidata": "Q22575585"}}, {"type": "node", "id": 3983117792, "lat": 1.3926315, "lon": 34.6414207, "tags": {"addr:city": "Muyesa", "addr:county": "Kween", "addr:district": "Kween", "addr:parish": "Kabelyo", "addr:subcounty": "Moyok", "amenity": "school", "fixme": "Please, check the position of the node", "isced:level": "1", "name": "Muyesa Primary School", "source": "www.ubos.org", "source:date": "2010..2014", "wikidata": "Q22575584"}}, {"type": "node", "id": 3983117793, "lat": 1.2739508, "lon": 34.7879068, "tags": {"addr:city": "Kolongey", "addr:county": "Kongasis", "addr:district": "Bukwo", "addr:parish": "Chemwabit", "addr:subcounty": "Senendet", "amenity": "school", "isced:level": "0;1", "name": "Nakewa Nursery and Primary School", "source": "www.ubos.org", "source:date": "2010..2014", "wikidata": "Q22575619"}}, {"type": "node", "id": 3983117794, "lat": 1.2723103, "lon": 34.6983507, "tags": {"addr:city": "Centre", "addr:county": "Kongasis", "addr:district": "Bukwo", "addr:parish": "Kapsabit", "addr:subcounty": "Chepkwasta", "amenity": "school", "fixme": "Please, check the position of the node", "isced:level": "1", "name": "Rise And Shine Primary School", "operator:type": "private", "source": "www.ubos.org", "source:date": "2010..2014", "wikidata": "Q22575618"}}, {"type": "node", "id": 3983117795, "lat": 1.3221336, "lon": 34.7756812, "tags": {"addr:city": "Kapkware", "addr:county": "Kongasis", "addr:district": "Bukwo", "addr:parish": "Kapkware", "addr:subcounty": "Riwo", "amenity": "school", "isced:level": "1", "name": "Riwo Primary School", "operator:type": "public", "source": "www.ubos.org", "source:date": "2010..2014", "wikidata": "Q22575621"}}, {"type": "node", "id": 3983117796, "lat": 1.2788792, "lon": 34.7239157, "tags": {"addr:city": "Sosho", "addr:county": "Kongasis", "addr:district": "Bukwo", "addr:parish": "Sosho", "addr:subcounty": "Bukwo", "amenity": "school", "isced:level": "1", "name": "Rwandet Primary School", "operator:type": "government", "source": "www.ubos.org", "source:date": "2010..2014", "wikidata": "Q22575620"}}, {"type": "node", "id": 3983117797, "lat": 1.2331871, "lon": 34.7527113, "tags": {"addr:city": "Kongta", "addr:county": "Kongasis", "addr:district": "Bukwo", "addr:parish": "Matimbei", "addr:subcounty": "Suam", "amenity": "school", "isced:level": "0", "name": "Saint Ar Academy Nursery School", "source": "www.ubos.org", "source:date": "2010..2014", "wikidata": "Q22575623"}}, {"type": "node", "id": 3983117798, "lat": 1.3363411, "lon": 34.6540698, "tags": {"addr:city": "Kapchuniany", "addr:county": "Kongasis", "addr:district": "Bukwo", "addr:parish": "Chesower", "addr:subcounty": "Chesower", "amenity": "school", "isced:level": "1", "name": "Saint Augustin Primary School", "operator:type": "public", "source": "www.ubos.org", "source:date": "2010..2014", "wikidata": "Q22575622"}}, {"type": "node", "id": 3983117799, "lat": 1.2963965, "lon": 34.7474292, "tags": {"addr:city": "Esso", "addr:county": "Kongasis", "addr:district": "Bukwo", "addr:parish": "Torasis Ward", "addr:subcounty": "Bukwo Town Council", "amenity": "school", "isced:level": "2;3;4", "name": "Saint Joseph Secondary School Bukwo", "source": "www.ubos.org", "source:date": "2010..2014", "wikidata": "Q22575625"}}, {"type": "node", "id": 3983117800, "lat": 1.3104758, "lon": 34.7071356, "tags": {"addr:city": "Kongta", "addr:county": "Kongasis", "addr:district": "Bukwo", "addr:parish": "Kapterit", "addr:subcounty": "Kabei", "amenity": "school", "isced:level": "1", "name": "Saint Paul Primary School", "operator:type": "public", "source": "www.ubos.org", "source:date": "2010..2014", "wikidata": "Q22575624"}}, {"type": "node", "id": 3983117801, "lat": 1.3239846, "lon": 34.7928306, "tags": {"addr:city": "Rorok", "addr:county": "Kongasis", "addr:district": "Bukwo", "addr:parish": "Kapkware", "addr:subcounty": "Riwo", "amenity": "school", "fixme": "Please, check the position of the node", "isced:level": "1", "name": "Saint Peter's Primary School", "operator:type": "public", "source": "www.ubos.org", "source:date": "2010..2014", "wikidata": "Q22575611"}}, {"type": "node", "id": 3983117802, "lat": 1.2768878, "lon": 34.7758007, "tags": {"addr:city": "Kapkomboloi", "addr:county": "Kongasis", "addr:district": "Bukwo", "addr:parish": "Chemwabit", "addr:subcounty": "Senendet", "amenity": "school", "isced:level": "1", "name": "Senedet Primary School", "operator:type": "public", "source": "www.ubos.org", "source:date": "2010..2014", "wikidata": "Q22575610"}}, {"type": "node", "id": 3983117803, "lat": 1.2834311, "lon": 34.7144326, "tags": {"addr:city": "Siron", "addr:county": "Kongasis", "addr:district": "Bukwo", "addr:parish": "Kapkokoyo", "addr:subcounty": "Kortek", "amenity": "school", "isced:level": "1", "name": "Sosho Primary School", "operator:type": "government", "source": "www.ubos.org", "source:date": "2010..2014", "wikidata": "Q22575613"}}, {"type": "node", "id": 3983117804, "lat": 1.2783851, "lon": 34.7098349, "tags": {"addr:city": "Sungora", "addr:county": "Kongasis", "addr:district": "Bukwo", "addr:parish": "Sungora", "addr:subcounty": "Chepkwasta", "amenity": "school", "fixme": "Please, check the position of the node", "isced:level": "2;3;4", "name": "Sungora Community School", "source": "www.ubos.org", "source:date": "2010..2014", "wikidata": "Q22575612"}}, {"type": "node", "id": 3983117805, "lat": 1.3403929, "lon": 34.6548931, "tags": {"addr:city": "Bumotoi", "addr:county": "Kongasis", "addr:district": "Bukwo", "addr:parish": "Chesower", "addr:subcounty": "Chesower", "amenity": "school", "isced:level": "2;3;4", "name": "Teacher's Resource Centre", "source": "www.ubos.org", "source:date": "2010..2014", "wikidata": "Q22575615"}}, {"type": "node", "id": 3983117806, "lat": 1.2830615, "lon": 34.6747577, "tags": {"addr:city": "Koriri", "addr:county": "Kongasis", "addr:district": "Bukwo", "addr:parish": "Kapsarur", "addr:subcounty": "Chepkwasta", "amenity": "school", "fixme": "Please, check the position of the node", "isced:level": "1", "name": "Titach Primary School", "source": "www.ubos.org", "source:date": "2010..2014", "wikidata": "Q22575614"}}, {"type": "node", "id": 3983117807, "lat": 1.3424856, "lon": 34.6772464, "tags": {"addr:city": "Tulel", "addr:county": "Kongasis", "addr:district": "Bukwo", "addr:parish": "Tulel", "addr:subcounty": "Tulel", "amenity": "school", "isced:level": "1", "name": "Tulel Primary School", "operator:type": "public", "source": "www.ubos.org", "source:date": "2010..2014", "wikidata": "Q22575617"}}, {"type": "node", "id": 3983117808, "lat": 1.3406608, "lon": 34.6770192, "tags": {"addr:city": "Tulwo", "addr:county": "Kongasis", "addr:district": "Bukwo", "addr:parish": "Kabokwo", "addr:subcounty": "Tulel", "amenity": "school", "isced:level": "2;3;4", "name": "Tulel Secondary School", "operator:type": "government", "source": "www.ubos.org", "source:date": "2010..2014", "wikidata": "Q22575616"}}, {"type": "node", "id": 3983117810, "lat": 1.3357297, "lon": 34.7059005, "tags": {"addr:city": "Chemotow", "addr:county": "Kongasis", "addr:district": "Bukwo", "addr:parish": "Yemitek", "addr:subcounty": "Kamet", "amenity": "school", "isced:level": "1", "name": "Yemitek Primary School", "operator:type": "public", "source": "www.ubos.org", "source:date": "2010..2014", "wikidata": "Q22575626"}}, {"type": "node", "id": 3987096067, "lat": 1.2937129, "lon": 34.7137733}, {"type": "node", "id": 3987096071, "lat": 1.2941061, "lon": 34.713272}, {"type": "node", "id": 3987096076, "lat": 1.2941754, "lon": 34.7143011}, {"type": "node", "id": 3987096101, "lat": 1.2946643, "lon": 34.7145803}, {"type": "node", "id": 3987096103, "lat": 1.2947397, "lon": 34.7137203}, {"type": "node", "id": 3991861302, "lat": 1.4283317, "lon": 34.7282338, "tags": {"addr:city": "Chekwir", "addr:county": "Kongasis", "addr:district": "Bukwo", "addr:parish": "Mokoyon", "addr:subcounty": "Kamet", "amenity": "school", "fixme": "Please, check the position of the node", "isced:level": "1", "name": "Aryawet Primary School", "operator": "public", "source": "www.ubos.org", "source:date": "2010..2014", "wikidata": "Q22666433"}}, {"type": "node", "id": 3991861303, "lat": 1.4572326, "lon": 34.7100221, "tags": {"addr:city": "Kamabati", "addr:county": "Kween", "addr:district": "Kween", "addr:parish": "Kiriki", "addr:subcounty": "Kiriki", "amenity": "school", "isced:level": "1", "name": "Greek River Primary School", "operator": "ngo", "source": "www.ubos.org", "source:date": "2010..2014", "wikidata": "Q22666431"}}, {"type": "node", "id": 3991861305, "lat": 1.4500634, "lon": 34.7282243, "tags": {"addr:city": "Lokales", "addr:county": "Pokot", "addr:district": "Amudat", "addr:parish": "Lokales", "addr:subcounty": "Karita", "amenity": "school", "isced:level": "1", "name": "Lokales Primary School", "source": "www.ubos.org", "source:date": "2010..2014", "wikidata": "Q22666429"}}, {"type": "node", "id": 3992021635, "lat": 1.4968859, "lon": 34.4406257, "tags": {"addr:city": "Busangayi", "addr:county": "Bulambuli", "addr:district": "Bulambuli", "addr:parish": "Buwebere", "addr:subcounty": "Bunambutye", "amenity": "school", "isced:level": "1", "name": "Atari Primary School", "operator:type": "public", "source": "www.ubos.org", "source:date": "2010..2014", "wikidata": "Q23069692"}}, {"type": "node", "id": 3992021636, "lat": 1.4192248, "lon": 34.4493516, "tags": {"addr:city": "Mokotu", "addr:county": "Tingey", "addr:district": "Kapchorwa", "addr:parish": "Kaptokwoi", "addr:subcounty": "Kaptanya", "amenity": "school", "isced:level": "1", "name": "Chaptokwoi Primary School", "operator:type": "public", "source": "www.ubos.org", "source:date": "2010..2014", "wikidata": "Q23069691"}}, {"type": "node", "id": 3992021637, "lat": 1.4104245, "lon": 34.4222422, "tags": {"addr:city": "Malat", "addr:county": "Tingey", "addr:district": "Kapchorwa", "addr:parish": "Ngatangata", "addr:subcounty": "Kaptanya", "amenity": "school", "isced:level": "1", "name": "Chebore Memorial Primary School", "operator:type": "private", "source": "www.ubos.org", "source:date": "2010..2014", "wikidata": "Q23069694"}}, {"type": "node", "id": 3992021640, "lat": 1.4178799, "lon": 34.4253902, "tags": {"addr:city": "Ngatangata", "addr:county": "Tingey", "addr:district": "Kapchorwa", "addr:parish": "Ngatangata", "addr:subcounty": "Kaptanya", "amenity": "school", "isced:level": "1", "name": "Ngatangata Primary School", "operator": "Government", "operator:type": "public", "source": "www.ubos.org", "source:date": "2010..2014", "wikidata": "Q23069695"}}, {"type": "node", "id": 3992021641, "lat": 1.4805717, "lon": 34.4168577, "tags": {"addr:city": "Bubulo", "addr:county": "Bulambuli", "addr:district": "Bulambuli", "addr:parish": "Bumufuni", "addr:subcounty": "Bunambutye", "amenity": "school", "fixme": "please, check the position of this node", "name": "Nile Ply Uganda Limited", "operator:type": "private", "source": "www.ubos.org", "source:date": "2010..2014", "wikidata": "Q23069698"}}, {"type": "node", "id": 3992021642, "lat": 1.5015812, "lon": 34.451529, "tags": {"addr:city": "Sikwa", "addr:county": "Kween", "addr:district": "Kween", "addr:parish": "Sikwa", "addr:subcounty": "Ngenge", "amenity": "school", "isced:level": "1", "name": "Sikwa Primary School", "source": "www.ubos.org", "source:date": "2010..2014", "wikidata": "Q23069697"}}, {"type": "node", "id": 3992021643, "lat": 1.4566917, "lon": 34.3870135, "tags": {"addr:city": "Buwala", "addr:county": "Bulambuli", "addr:district": "Bulambuli", "addr:parish": "Bumufuni", "addr:subcounty": "Bunambutye", "amenity": "school", "isced:level": "1", "name": "Tabagonyi Primary School", "operator:type": "public", "source": "www.ubos.org", "source:date": "2010..2014", "wikidata": "Q23069699"}}, {"type": "node", "id": 3998799109, "lat": 1.204341, "lon": 34.3999956, "tags": {"addr:city": "Bugimwera Trc", "addr:county": "Bulambuli", "addr:district": "Bulambuli", "addr:parish": "Bugimwera", "addr:subcounty": "Bumasobo", "amenity": "school", "name": "Bugimwera Primary School", "operator": "Public", "source": "www.ubos.org", "source:date": "2010..2014"}}, {"type": "node", "id": 3998799110, "lat": 1.2092904, "lon": 34.3787167, "tags": {"addr:city": "Mawululu", "addr:county": "Bulambuli", "addr:district": "Bulambuli", "addr:parish": "Bushunu", "addr:subcounty": "Bumasobo", "amenity": "school", "name": "Bumasobo Senior Secondary School", "source": "www.ubos.org", "source:date": "2010..2014"}}, {"type": "node", "id": 3998799111, "lat": 1.2232618, "lon": 34.3735769, "tags": {"addr:city": "Napiila", "addr:county": "Bulambuli", "addr:district": "Bulambuli", "addr:parish": "Bunasufwa", "addr:subcounty": "Bulaago", "amenity": "school", "name": "Bumusamali Primary School", "source": "www.ubos.org", "source:date": "2010..2014"}}, {"type": "node", "id": 3998799112, "lat": 1.2071565, "lon": 34.3923519, "tags": {"addr:city": "Nambusi", "addr:county": "Bulambuli", "addr:district": "Bulambuli", "addr:parish": "Nazwazwa", "addr:subcounty": "Bumasobo", "amenity": "school", "isced:level": "1", "name": "Bunabuso Primary School", "source": "www.ubos.org", "source:date": "2010..2014", "wikidata": "Q22680477"}}, {"type": "node", "id": 3998799113, "lat": 1.2137177, "lon": 34.3918217, "tags": {"addr:city": "Kyebofu", "addr:county": "Bulambuli", "addr:district": "Bulambuli", "addr:parish": "Buwokadala", "addr:subcounty": "Bumasobo", "amenity": "school", "isced:level": "1", "name": "Buwokadala Primary School", "operator": "Public", "source": "www.ubos.org", "source:date": "2010..2014", "wikidata": "Q22680465"}}, {"type": "node", "id": 3998799115, "lat": 1.2216851, "lon": 34.3815449, "tags": {"addr:city": "Lungo", "addr:county": "Bulambuli", "addr:district": "Bulambuli", "addr:parish": "Mubugu", "addr:subcounty": "Buluganya", "amenity": "school", "isced:level": "1", "name": "Mabugu Primary School", "operator": "Public", "source": "www.ubos.org", "source:date": "2010..2014", "wikidata": "Q22680467"}}, {"type": "node", "id": 3998799116, "lat": 1.21012, "lon": 34.3784607, "tags": {"addr:city": "Mawululu", "addr:county": "Bulambuli", "addr:district": "Bulambuli", "addr:parish": "Bushunu", "addr:subcounty": "Bumasobo", "amenity": "school", "isced:level": "1", "name": "Mawalulu Primary School", "operator": "Public", "source": "www.ubos.org", "source:date": "2010..2014", "wikidata": "Q22680469"}}, {"type": "node", "id": 4000184890, "lat": 1.2186115, "lon": 34.3650002, "tags": {"addr:city": "Masugu", "addr:county": "Bulambuli", "addr:district": "Bulambuli", "addr:parish": "Buluganya", "addr:subcounty": "Buluganya", "amenity": "school", "isced:level": "1", "name": "Masungu Primary School", "note:code": "Primary School", "note:remarks": "Govt Aided", "source": "www.ubos.org", "source:date": "2010..2014", "wikidata": "Q22680449"}}, {"type": "node", "id": 4000184891, "lat": 1.2239141, "lon": 34.3565973, "tags": {"addr:city": "Birinda", "addr:county": "Bulambuli", "addr:district": "Bulambuli", "addr:parish": "Bunamunane", "addr:subcounty": "Buluganya", "amenity": "school", "isced:level": "1", "name": "Namunani Primary School", "note:code": "Primary School", "source": "www.ubos.org", "source:date": "2010..2014", "wikidata": "Q22680456"}}, {"type": "node", "id": 4015591495, "lat": 1.4155948, "lon": 34.523727, "tags": {"addr:city": "Binyiny", "addr:county": "Kween", "addr:district": "Kween", "addr:parish": "Kisongi", "addr:subcounty": "Binyiny Town Council", "amenity": "school", "isced:level": "1", "name": "Binyiny Primary School", "operator:type": "public", "source": "www.ubos.org", "source:date": "2010..2014", "wikidata": "Q22931088"}}, {"type": "node", "id": 4015591496, "lat": 1.4166615, "lon": 34.5256339, "tags": {"addr:city": "Binyiny", "addr:county": "Kween", "addr:district": "Kween", "addr:parish": "Kisongi", "addr:subcounty": "Binyiny Town Council", "amenity": "school", "isced:level": "2;3;4", "name": "Binyiny Secondary School", "operator:type": "public", "source": "www.ubos.org", "source:date": "2010..2014", "wikidata": "Q22931087"}}, {"type": "node", "id": 4015591497, "lat": 1.4172735, "lon": 34.5938611, "tags": {"addr:city": "Kaplakatet", "addr:county": "Kween", "addr:district": "Kween", "addr:parish": "Chebinyiny", "addr:subcounty": "Kaptum", "amenity": "school", "isced:level": "0;1", "name": "Cheminy Christian Nursery and Primary School", "operator:type": "private", "source": "www.ubos.org", "source:date": "2010..2014", "wikidata": "Q22931075"}}, {"type": "node", "id": 4015591498, "lat": 1.413481, "lon": 34.5863646, "tags": {"addr:city": "Cheminy", "addr:county": "Kween", "addr:district": "Kween", "addr:parish": "Cheminy", "addr:subcounty": "Kaptum", "amenity": "school", "fixme": "please fix the position of this node", "isced:level": "1", "name": "Cheminy Primary School", "operator:type": "public", "source": "www.ubos.org", "source:date": "2010..2014", "wikidata": "Q22931073"}}, {"type": "node", "id": 4015591499, "lat": 1.4139536, "lon": 34.5960699, "tags": {"addr:city": "Kwenut", "addr:county": "Kween", "addr:district": "Kween", "addr:parish": "Kapsomo", "addr:subcounty": "Kaptum", "amenity": "school", "isced:level": "1", "name": "Cheminy Primary School", "operator:type": "private", "source": "www.ubos.org", "source:date": "2010..2014", "wikidata": "Q22931078"}}, {"type": "node", "id": 4015591500, "lat": 1.4123275, "lon": 34.594545, "tags": {"addr:city": "Kapkwobor", "addr:county": "Kween", "addr:district": "Kween", "addr:parish": "Kapsomo", "addr:subcounty": "Kaptum", "amenity": "school", "isced:level": "2;3;4", "name": "Cheminy Standard Secondary School", "operator:type": "private", "source": "www.ubos.org", "source:date": "2010..2014", "wikidata": "Q22931077"}}, {"type": "node", "id": 4015591502, "lat": 1.4216656, "lon": 34.5993371, "tags": {"addr:city": "Chemwania", "addr:county": "Kween", "addr:district": "Kween", "addr:parish": "Chemwania", "addr:subcounty": "Kaproron", "amenity": "school", "fixme": "please fix the position of this node", "isced:level": "2;3;4", "name": "Chemwania High School", "operator:type": "public", "source": "www.ubos.org", "source:date": "2010..2014", "wikidata": "Q22931080"}}, {"type": "node", "id": 4015591503, "lat": 1.423247, "lon": 34.6012252, "tags": {"addr:city": "Chemwania", "addr:county": "Kween", "addr:district": "Kween", "addr:parish": "Chemwania", "addr:subcounty": "Kaproron", "amenity": "school", "isced:level": "1", "name": "Chemwania Primary School", "operator:type": "public", "source": "www.ubos.org", "source:date": "2010..2014", "wikidata": "Q22931086"}}, {"type": "node", "id": 4015591504, "lat": 1.4216571, "lon": 34.5986452, "tags": {"addr:city": "Chemwania", "addr:county": "Kween", "addr:district": "Kween", "addr:parish": "Chemwania", "addr:subcounty": "Kaproron", "amenity": "school", "fixme": "please fix the position of this node", "name": "Chemwania Techincal School", "operator:type": "religious", "source": "www.ubos.org", "source:date": "2010..2014", "wikidata": "Q22931084"}}, {"type": "node", "id": 4015591505, "lat": 1.4196332, "lon": 34.5394626, "tags": {"addr:city": "Kapkworos", "addr:county": "Kween", "addr:district": "Kween", "addr:parish": "Kapkworos", "addr:subcounty": "Binyiny Town Council", "amenity": "school", "fixme": "please fix the position of this node", "isced:level": "1", "name": "Chepkoson Primary School", "operator:type": "public", "source": "www.ubos.org", "source:date": "2010..2014", "wikidata": "Q22931063"}}, {"type": "node", "id": 4015591506, "lat": 1.5716396, "lon": 34.5255386, "tags": {"addr:city": "Chepsikunya", "addr:county": "Kween", "addr:district": "Kween", "addr:parish": "Chepsikunya Town Board", "addr:subcounty": "Ngenge", "amenity": "school", "isced:level": "1", "name": "Chepusikunya Primary School", "operator:type": "public", "source": "www.ubos.org", "source:date": "2010..2014", "wikidata": "Q22931062"}}, {"type": "node", "id": 4015591507, "lat": 1.4155604, "lon": 34.5587496, "tags": {"addr:city": "Cheptantan", "addr:county": "Kween", "addr:district": "Kween", "addr:parish": "Tabagon", "addr:subcounty": "Binyiny", "amenity": "school", "isced:level": "1", "name": "Chepyakaniet Primary School", "source": "www.ubos.org", "source:date": "2010..2014", "wikidata": "Q22931065"}}, {"type": "node", "id": 4015591509, "lat": 1.4171784, "lon": 34.540494, "tags": {"addr:city": "Kapkworos", "addr:county": "Kween", "addr:district": "Kween", "addr:parish": "Kapkworos", "addr:subcounty": "Binyiny Town Council", "amenity": "school", "isced:level": "0;1", "name": "Good Foundation Nursery and Primary School", "operator:type": "private", "source": "www.ubos.org", "source:date": "2010..2014", "wikidata": "Q22931068"}}, {"type": "node", "id": 4015591510, "lat": 1.4207354, "lon": 34.4809373, "tags": {"addr:city": "Kamukes", "addr:county": "Tingey", "addr:district": "Kapchorwa", "addr:parish": "Kirwoko", "addr:subcounty": "Kaptanya", "amenity": "school", "isced:level": "1", "name": "Kamukes Primary School", "operator:type": "private", "source": "www.ubos.org", "source:date": "2010..2014", "wikidata": "Q22931067"}}, {"type": "node", "id": 4015591511, "lat": 1.4201941, "lon": 34.5693945, "tags": {"addr:city": "Kapkwere", "addr:county": "Kween", "addr:district": "Kween", "addr:parish": "Aloman", "addr:subcounty": "Kaptum", "amenity": "school", "isced:level": "1", "name": "Kapkwere Primary School", "operator:type": "public", "source": "www.ubos.org", "source:date": "2010..2014", "wikidata": "Q22931071"}}, {"type": "node", "id": 4015591512, "lat": 1.4428162, "lon": 34.5384012, "tags": {"addr:city": "Kapkunero", "addr:county": "Kween", "addr:district": "Kween", "addr:parish": "Kitany", "addr:subcounty": "Benet", "amenity": "school", "isced:level": "1", "name": "Kapnarkut Primary School", "operator:type": "public", "source": "www.ubos.org", "source:date": "2010..2014", "wikidata": "Q22931070"}}, {"type": "node", "id": 4015591513, "lat": 1.423763, "lon": 34.6133567, "tags": {"addr:city": "St.michael", "addr:county": "Kween", "addr:district": "Kween", "addr:parish": "Kaproron Town Board", "addr:subcounty": "Kaproron", "amenity": "school", "isced:level": "1", "name": "Kaproron Primary School", "operator:type": "public", "source": "www.ubos.org", "source:date": "2010..2014", "wikidata": "Q22931043"}}, {"type": "node", "id": 4015591514, "lat": 1.42195, "lon": 34.6176435, "tags": {"addr:city": "Kaproron", "addr:county": "Kween", "addr:district": "Kween", "addr:parish": "Kaproron Town Board", "addr:subcounty": "Kaproron", "amenity": "school", "isced:level": "2;3;4", "name": "Kaproron Secondary School", "operator:type": "private", "source": "www.ubos.org", "source:date": "2010..2014", "wikidata": "Q22931041"}}, {"type": "node", "id": 4015591515, "lat": 1.410587, "lon": 34.5060904, "tags": {"addr:city": "Kapteror", "addr:county": "Kween", "addr:district": "Kween", "addr:parish": "Kerop", "addr:subcounty": "Kaptoyoy", "amenity": "school", "isced:level": "1", "name": "Kapteror Primary School", "operator:type": "public", "source": "www.ubos.org", "source:date": "2010..2014", "wikidata": "Q22931049"}}, {"type": "node", "id": 4015591516, "lat": 1.4274821, "lon": 34.5826449, "tags": {"addr:city": "Kaptoburwo", "addr:county": "Kween", "addr:district": "Kween", "addr:parish": "Kaptum", "addr:subcounty": "Kaptum", "amenity": "school", "isced:level": "1", "name": "Kaptum Primary School", "operator:type": "public", "source": "www.ubos.org", "source:date": "2010..2014", "wikidata": "Q22931044"}}, {"type": "node", "id": 4015591517, "lat": 1.4282713, "lon": 34.5810819, "tags": {"addr:city": "Kakwirok", "addr:county": "Kween", "addr:district": "Kween", "addr:parish": "Kaptum", "addr:subcounty": "Kaptum", "amenity": "school", "fixme": "please fix the position of this node", "isced:level": "2;3;4", "name": "Kaptum Secondary School", "operator:type": "private", "source": "www.ubos.org", "source:date": "2010..2014", "wikidata": "Q22931053"}}, {"type": "node", "id": 4015591518, "lat": 1.4256597, "lon": 34.6168895, "tags": {"addr:city": "Kaproron", "addr:county": "Kween", "addr:district": "Kween", "addr:parish": "Kaproron Town Board", "addr:subcounty": "Kaproron", "amenity": "school", "fixme": "please fix the position of this node", "isced:level": "1", "name": "Kawuswo Primary School", "operator:type": "public", "source": "www.ubos.org", "source:date": "2010..2014", "wikidata": "Q22931050"}}, {"type": "node", "id": 4015591519, "lat": 1.4137407, "lon": 34.5094069, "tags": {"addr:city": "Chemakalel", "addr:county": "Kween", "addr:district": "Kween", "addr:parish": "Kerop", "addr:subcounty": "Kaptoyoy", "amenity": "school", "isced:level": "1", "name": "Kerop Primary School", "source": "www.ubos.org", "source:date": "2010..2014", "wikidata": "Q22931060"}}, {"type": "node", "id": 4015591520, "lat": 1.4141385, "lon": 34.5096857, "tags": {"addr:city": "Chemakalel", "addr:county": "Kween", "addr:district": "Kween", "addr:parish": "Kerop", "addr:subcounty": "Kaptoyoy", "amenity": "school", "name": "Kerop Technical School", "operator:type": "private", "source": "www.ubos.org", "source:date": "2010..2014", "wikidata": "Q22931055"}}, {"type": "node", "id": 4015591521, "lat": 1.4133435, "lon": 34.6020092, "tags": {"addr:city": "Koros", "addr:county": "Kween", "addr:district": "Kween", "addr:parish": "Kamwam", "addr:subcounty": "Kaproron", "amenity": "school", "isced:level": "1", "name": "Korosi Primary School", "operator:type": "public", "source": "www.ubos.org", "source:date": "2010..2014", "wikidata": "Q22931023"}}, {"type": "node", "id": 4015591522, "lat": 1.412141, "lon": 34.5715491, "tags": {"addr:city": "Serere", "addr:county": "Kween", "addr:district": "Kween", "addr:parish": "Serere", "addr:subcounty": "Kaptum", "amenity": "school", "isced:level": "1", "name": "Mukut Parents Primary School", "operator:type": "private", "source": "www.ubos.org", "source:date": "2010..2014", "wikidata": "Q22931022"}}, {"type": "node", "id": 4015591523, "lat": 1.4319065, "lon": 34.4794368, "tags": {"addr:city": "Matingot", "addr:county": "Tingey", "addr:district": "Kapchorwa", "addr:parish": "Kirwoko", "addr:subcounty": "Kaptanya", "amenity": "school", "isced:level": "1", "name": "Ngenbram Primary School", "source": "www.ubos.org", "source:date": "2010..2014", "wikidata": "Q22931028"}}, {"type": "node", "id": 4015591524, "lat": 1.5066327, "lon": 34.4988403, "tags": {"addr:city": "Cheringir", "addr:county": "Kween", "addr:district": "Kween", "addr:parish": "Kapkwot", "addr:subcounty": "Ngenge", "amenity": "school", "isced:level": "1", "name": "Ngenge Primary School", "operator:type": "public", "source": "www.ubos.org", "source:date": "2010..2014", "wikidata": "Q22931026"}}, {"type": "node", "id": 4015591525, "lat": 1.5054708, "lon": 34.4980271, "tags": {"addr:city": "Cheringir", "addr:county": "Kween", "addr:district": "Kween", "addr:parish": "Kapkwot", "addr:subcounty": "Ngenge", "amenity": "school", "isced:level": "2;3;4", "name": "Ngenge Secondary School", "operator:type": "public", "source": "www.ubos.org", "source:date": "2010..2014", "wikidata": "Q22931031"}}, {"type": "node", "id": 4015591526, "lat": 1.4111947, "lon": 34.4871991, "tags": {"addr:city": "Chesimwo", "addr:county": "Kween", "addr:district": "Kween", "addr:parish": "Toswo", "addr:subcounty": "Kaptoyoy", "amenity": "school", "isced:level": "1", "name": "North Road Primary School", "source": "www.ubos.org", "source:date": "2010..2014", "wikidata": "Q22931029"}}, {"type": "node", "id": 4015591527, "lat": 1.409954, "lon": 34.599338, "tags": {"addr:city": "Kapswayoy", "addr:county": "Kween", "addr:district": "Kween", "addr:parish": "Kamwam", "addr:subcounty": "Kaproron", "amenity": "school", "fixme": "please fix the position of this node", "isced:level": "1", "name": "Posha Ariba's Primary School", "operator:type": "public", "source": "www.ubos.org", "source:date": "2010..2014", "wikidata": "Q22931040"}}, {"type": "node", "id": 4015591528, "lat": 1.4262975, "lon": 34.6101325, "tags": {"addr:city": "Kululu", "addr:county": "Kween", "addr:district": "Kween", "addr:parish": "Chemwania", "addr:subcounty": "Kaproron", "amenity": "school", "fixme": "please fix the position of this node", "isced:level": "1", "name": "Posha Primary School", "operator:type": "public", "source": "www.ubos.org", "source:date": "2010..2014", "wikidata": "Q22931035"}}, {"type": "node", "id": 4015591529, "lat": 1.4265186, "lon": 34.6043726, "tags": {"addr:city": "Chemwania", "addr:county": "Kween", "addr:district": "Kween", "addr:parish": "Chemwania", "addr:subcounty": "Kaproron", "amenity": "school", "fixme": "please fix the position of this node", "isced:level": "1", "name": "Pundere Primary School", "operator:type": "private", "source": "www.ubos.org", "source:date": "2010..2014", "wikidata": "Q22931005"}}, {"type": "node", "id": 4015591530, "lat": 1.4162173, "lon": 34.5254312, "tags": {"addr:city": "Binyiny", "addr:county": "Kween", "addr:district": "Kween", "addr:parish": "Kisongi", "addr:subcounty": "Binyiny Town Council", "amenity": "school", "isced:level": "0;1", "name": "Relation Nursery and Primary School", "operator:type": "private", "source": "www.ubos.org", "source:date": "2010..2014", "wikidata": "Q22931004"}}, {"type": "node", "id": 4015591531, "lat": 1.4231752, "lon": 34.6132754, "tags": {"addr:city": "St.michael", "addr:county": "Kween", "addr:district": "Kween", "addr:parish": "Kaproron Town Board", "addr:subcounty": "Kaproron", "amenity": "school", "name": "Saint Michael Girl's School", "operator:type": "private", "source": "www.ubos.org", "source:date": "2010..2014", "wikidata": "Q22931010"}}, {"type": "node", "id": 4015591532, "lat": 1.5606847, "lon": 34.5023702, "tags": {"addr:city": "Cheptarre", "addr:county": "Kween", "addr:district": "Kween", "addr:parish": "Cheptarre", "addr:subcounty": "Ngenge", "amenity": "school", "isced:level": "1", "name": "Senetyo Primary School", "operator:type": "public", "source": "www.ubos.org", "source:date": "2010..2014", "wikidata": "Q22931007"}}, {"type": "node", "id": 4015591533, "lat": 1.4179171, "lon": 34.4629113, "tags": {"addr:city": "Chemuron", "addr:county": "Tingey", "addr:district": "Kapchorwa", "addr:parish": "Siron", "addr:subcounty": "Kaptanya", "amenity": "school", "isced:level": "1", "name": "Siron Primary School", "operator:type": "public", "source": "www.ubos.org", "source:date": "2010..2014", "wikidata": "Q22931017"}}, {"type": "node", "id": 4015591534, "lat": 1.4287948, "lon": 34.4918582, "tags": {"addr:city": "Kapchebor", "addr:county": "Kween", "addr:district": "Kween", "addr:parish": "Ngoryemwo", "addr:subcounty": "Kaptoyoy", "amenity": "school", "isced:level": "1", "name": "Songenwo Primary School", "source": "www.ubos.org", "source:date": "2010..2014", "wikidata": "Q22931011"}}, {"type": "node", "id": 4015591535, "lat": 1.4146959, "lon": 34.6048657, "tags": {"addr:city": "Koros", "addr:county": "Kween", "addr:district": "Kween", "addr:parish": "Kamwam", "addr:subcounty": "Kaproron", "amenity": "school", "isced:level": "1", "name": "Sunshine Primary School", "operator:type": "private", "source": "www.ubos.org", "source:date": "2010..2014", "wikidata": "Q22931021"}}, {"type": "node", "id": 4015591536, "lat": 1.4082567, "lon": 34.4842471, "tags": {"addr:city": "Chesimwo", "addr:county": "Kween", "addr:district": "Kween", "addr:parish": "Toswo", "addr:subcounty": "Kaptoyoy", "amenity": "school", "isced:level": "2;3;4", "name": "Toswo Secondary School", "operator:type": "public", "source": "www.ubos.org", "source:date": "2010..2014", "wikidata": "Q22931019"}}, {"type": "node", "id": 4015591537, "lat": 1.4330668, "lon": 34.5201728, "tags": {"addr:city": "Tugumo", "addr:county": "Kween", "addr:district": "Kween", "addr:parish": "Tugumo", "addr:subcounty": "Binyiny", "amenity": "school", "isced:level": "1", "name": "Tukumo Primary School", "operator:type": "public", "source": "www.ubos.org", "source:date": "2010..2014", "wikidata": "Q22931001"}}, {"type": "node", "id": 4015591539, "lat": 1.431679, "lon": 34.4648367, "tags": {"addr:city": "Swesat", "addr:county": "Tingey", "addr:district": "Kapchorwa", "addr:parish": "Tumboboi", "addr:subcounty": "Kaptanya", "amenity": "school", "isced:level": "1", "name": "Tumboboi Primary School", "source": "www.ubos.org", "source:date": "2010..2014", "wikidata": "Q22931002"}}, {"type": "node", "id": 4032202993, "lat": 1.2208201, "lon": 34.7454926, "tags": {"addr:city": "Kwirot", "addr:county": "Kongasis", "addr:district": "Bukwo", "addr:parish": "Kwirot", "addr:subcounty": "Suam", "amenity": "school", "name": "Hope Academy Kwirwot Primary School", "operator:type": "private", "source": "www.ubos.org", "source:date": "2010..2014"}}, {"type": "node", "id": 4032212250, "lat": 1.3970758, "lon": 34.5737479, "tags": {"addr:city": "Tulolwo", "addr:county": "Kween", "addr:district": "Kween", "addr:parish": "Kapngotiny", "addr:subcounty": "Kwosir", "amenity": "school", "isced:level": "1", "name": "Benet Primary School", "operator:type": "public", "source": "www.ubos.org", "source:date": "2010..2014", "wikidata": "Q22976811"}}, {"type": "node", "id": 4032212251, "lat": 1.3991108, "lon": 34.5743997, "tags": {"addr:city": "Sinoptumbo", "addr:county": "Kween", "addr:district": "Kween", "addr:parish": "Kapngotiny", "addr:subcounty": "Kwosir", "amenity": "school", "isced:level": "2;3;4", "name": "Benet Senior Secondary School", "operator:type": "public", "source": "www.ubos.org", "source:date": "2010..2014", "wikidata": "Q22976809"}}, {"type": "node", "id": 4032212252, "lat": 1.3996892, "lon": 34.4602472, "tags": {"addr:city": "Kokwomurya", "addr:county": "Tingey", "addr:district": "Kapchorwa", "addr:parish": "Kakwomurya", "addr:subcounty": "Town Council", "amenity": "school", "isced:level": "0;1", "name": "Blossom Nursery and Primary School", "operator:type": "private", "source": "www.ubos.org", "source:date": "2010..2014", "wikidata": "Q22976810"}}, {"type": "node", "id": 4032212253, "lat": 1.378442, "lon": 34.5026581, "tags": {"addr:city": "Chemanga", "addr:county": "Kween", "addr:district": "Kween", "addr:parish": "Kaseko", "addr:subcounty": "Benet", "amenity": "school", "isced:level": "1", "name": "Chemanga Primary School", "operator:type": "public", "source": "www.ubos.org", "source:date": "2010..2014", "wikidata": "Q22976806"}}, {"type": "node", "id": 4032212254, "lat": 1.3801085, "lon": 34.5040344, "tags": {"addr:city": "Chemanga", "addr:county": "Kween", "addr:district": "Kween", "addr:parish": "Kaseko", "addr:subcounty": "Benet", "amenity": "school", "isced:level": "2;3;4", "name": "Chemanga Secondary School", "operator:type": "public", "source": "www.ubos.org", "source:date": "2010..2014", "wikidata": "Q22976807"}}, {"type": "node", "id": 4032212255, "lat": 1.3860931, "lon": 34.5031347, "tags": {"addr:city": "Chemukangoi", "addr:county": "Kween", "addr:district": "Kween", "addr:parish": "Kapnarkut", "addr:subcounty": "Benet", "amenity": "school", "isced:level": "1", "name": "Ebenezer Primary School", "operator:type": "private", "source": "www.ubos.org", "source:date": "2010..2014", "wikidata": "Q22976804"}}, {"type": "node", "id": 4032212256, "lat": 1.4047328, "lon": 34.5002687, "tags": {"addr:city": "Kapchekwoi", "addr:county": "Kween", "addr:district": "Kween", "addr:parish": "Kaptoyoy", "addr:subcounty": "Kaptoyoy", "amenity": "school", "isced:level": "1", "name": "Generation Primary School", "operator:type": "private", "source": "www.ubos.org", "source:date": "2010..2014", "wikidata": "Q22976805"}}, {"type": "node", "id": 4032212257, "lat": 1.4037988, "lon": 34.5156607, "tags": {"addr:city": "Kapkure", "addr:county": "Kween", "addr:district": "Kween", "addr:parish": "Kerop", "addr:subcounty": "Kaptoyoy", "amenity": "school", "isced:level": "1", "name": "Kapcheropta Primary School", "operator:type": "private", "source": "www.ubos.org", "source:date": "2010..2014", "wikidata": "Q22976789"}}, {"type": "node", "id": 4032212258, "lat": 1.3853403, "lon": 34.4729395, "tags": {"addr:city": "Mutyoro A", "addr:county": "Tingey", "addr:district": "Kapchorwa", "addr:parish": "Kapchesombe", "addr:subcounty": "Kapchesombe", "amenity": "school", "isced:level": "1", "name": "Kapchesombe Primary School", "operator:type": "public", "source": "www.ubos.org", "source:date": "2010..2014", "wikidata": "Q22976790"}}, {"type": "node", "id": 4032212259, "lat": 1.3870265, "lon": 34.4734373, "tags": {"addr:city": "Mutyoro A", "addr:county": "Tingey", "addr:district": "Kapchorwa", "addr:parish": "Kapchesombe", "addr:subcounty": "Kapchesombe", "amenity": "school", "isced:level": "2;3;4", "name": "Kapchesombe Secondary School", "operator:type": "public", "source": "www.ubos.org", "source:date": "2010..2014", "wikidata": "Q22976786"}}, {"type": "node", "id": 4032212260, "lat": 1.3983039, "lon": 34.4595642, "tags": {"addr:city": "T.t.c", "addr:county": "Tingey", "addr:district": "Kapchorwa", "addr:parish": "Kakwomurya", "addr:subcounty": "Town Council", "amenity": "school", "isced:level": "1", "name": "Kapchorwa Primary Teachers College", "source": "www.ubos.org", "source:date": "2010..2014", "wikidata": "Q22976787"}}, {"type": "node", "id": 4032212261, "lat": 1.4007502, "lon": 34.4561427, "tags": {"addr:city": "Kupilat", "addr:county": "Tingey", "addr:district": "Kapchorwa", "addr:parish": "Kapsinda", "addr:subcounty": "Kapchorwa Town Council", "amenity": "school", "isced:level": "2;3;4", "name": "Kapcworwa Parents Secondary School", "operator:type": "private", "source": "www.ubos.org", "source:date": "2010..2014", "wikidata": "Q22976783"}}, {"type": "node", "id": 4032212262, "lat": 1.3894492, "lon": 34.4860869, "tags": {"addr:city": "Kapkoch", "addr:county": "Kween", "addr:district": "Kween", "addr:parish": "Kapkoch", "addr:subcounty": "Kaptoyoy", "amenity": "school", "isced:level": "1", "name": "Kapkoch Primary School", "source": "www.ubos.org", "source:date": "2010..2014", "wikidata": "Q22976784"}}, {"type": "node", "id": 4032212263, "lat": 1.3894255, "lon": 34.4849864, "tags": {"addr:city": "Kapkoch", "addr:county": "Kween", "addr:district": "Kween", "addr:parish": "Kapkoch", "addr:subcounty": "Kaptoyoy", "amenity": "school", "isced:level": "2;3;4", "name": "Kapkoch Secondary School", "operator:type": "public", "source": "www.ubos.org", "source:date": "2010..2014", "wikidata": "Q22976781"}}, {"type": "node", "id": 4032212264, "lat": 1.3890293, "lon": 34.4921792, "tags": {"addr:city": "Sererwo", "addr:county": "Kween", "addr:district": "Kween", "addr:parish": "Kapkoch", "addr:subcounty": "Kaptoyoy", "amenity": "school", "isced:level": "1", "name": "Kapkoch Valley Primary School", "operator:type": "public", "source": "www.ubos.org", "source:date": "2010..2014", "wikidata": "Q22976782"}}, {"type": "node", "id": 4032212265, "lat": 1.402763, "lon": 34.5052408, "tags": {"addr:city": "Kaporotwo", "addr:county": "Kween", "addr:district": "Kween", "addr:parish": "Kapkworos", "addr:subcounty": "Kwanyiy", "amenity": "school", "isced:level": "1", "name": "Kaporotwo Primary School", "operator:type": "public", "source": "www.ubos.org", "source:date": "2010..2014", "wikidata": "Q22976801"}}, {"type": "node", "id": 4032212266, "lat": 1.392308, "lon": 34.5063737, "tags": {"addr:city": "Kapteng", "addr:county": "Kween", "addr:district": "Kween", "addr:parish": "Kapteng", "addr:subcounty": "Kaptoyoy", "amenity": "school", "isced:level": "1", "name": "Kapteng Primary School", "source": "www.ubos.org", "source:date": "2010..2014", "wikidata": "Q22976802"}}, {"type": "node", "id": 4032212267, "lat": 1.3421941, "lon": 34.499376, "tags": {"addr:city": "Mulungwa", "addr:county": "Kween", "addr:district": "Kween", "addr:parish": "Mulungwa", "addr:subcounty": "Benet", "amenity": "school", "isced:level": "1", "name": "Kapwoch Primary School", "operator:type": "public", "source": "www.ubos.org", "source:date": "2010..2014", "wikidata": "Q22976799"}}, {"type": "node", "id": 4032212268, "lat": 1.3628738, "lon": 34.4962288, "tags": {"addr:city": "Kaseko", "addr:county": "Kween", "addr:district": "Kween", "addr:parish": "Kaseko", "addr:subcounty": "Benet", "amenity": "school", "isced:level": "1", "name": "Kaseko Primary School", "operator:type": "private", "source": "www.ubos.org", "source:date": "2010..2014", "wikidata": "Q22976800"}}, {"type": "node", "id": 4032212269, "lat": 1.3689902, "lon": 34.5796578, "tags": {"addr:city": "Mukuliet", "addr:county": "Kween", "addr:district": "Kween", "addr:parish": "Kere", "addr:subcounty": "Kwosir", "amenity": "school", "isced:level": "1", "name": "Kere Primary School", "operator:type": "public", "source": "www.ubos.org", "source:date": "2010..2014", "wikidata": "Q22976796"}}, {"type": "node", "id": 4032212270, "lat": 1.4055689, "lon": 34.4881222, "tags": {"addr:city": "Kapchesikor", "addr:county": "Kween", "addr:district": "Kween", "addr:parish": "Toswo", "addr:subcounty": "Kaptoyoy", "amenity": "school", "isced:level": "1", "name": "Kirwoko Primary School", "source": "www.ubos.org", "source:date": "2010..2014", "wikidata": "Q22976798"}}, {"type": "node", "id": 4032212271, "lat": 1.3829161, "lon": 34.5154787, "tags": {"addr:city": "Kitany", "addr:county": "Kween", "addr:district": "Kween", "addr:parish": "Kitany", "addr:subcounty": "Benet", "amenity": "school", "isced:level": "1", "name": "Kitany Primary School", "operator:type": "public", "source": "www.ubos.org", "source:date": "2010..2014", "wikidata": "Q22976792"}}, {"type": "node", "id": 4032212272, "lat": 1.366395, "lon": 34.552593, "tags": {"addr:city": "Terenpoy", "addr:county": "Kween", "addr:district": "Kween", "addr:parish": "Terenpoy", "addr:subcounty": "Kitawoi", "amenity": "school", "isced:level": "1", "name": "Kitawoi Elgon Primary School", "operator:type": "private", "source": "www.ubos.org", "source:date": "2010..2014", "wikidata": "Q22976794"}}, {"type": "node", "id": 4032212273, "lat": 1.3747732, "lon": 34.5588988, "tags": {"addr:city": "Kitawoi", "addr:county": "Kween", "addr:district": "Kween", "addr:parish": "Kitawoi", "addr:subcounty": "Kitawoi", "amenity": "school", "isced:level": "1", "name": "Kitawoi Primary School", "operator:type": "private", "source": "www.ubos.org", "source:date": "2010..2014", "wikidata": "Q22976768"}}, {"type": "node", "id": 4032212275, "lat": 1.3780969, "lon": 34.5733191, "tags": {"addr:city": "Chepkube", "addr:county": "Kween", "addr:district": "Kween", "addr:parish": "Kwosir", "addr:subcounty": "Kwosir", "amenity": "school", "isced:level": "0;1", "name": "Kwosir Nursery and Primary School", "source": "www.ubos.org", "source:date": "2010..2014", "wikidata": "Q22976765"}}, {"type": "node", "id": 4032212276, "lat": 1.3641725, "lon": 34.5631036, "tags": {"addr:city": "Tekantent", "addr:county": "Kween", "addr:district": "Kween", "addr:parish": "Kwosir", "addr:subcounty": "Kwosir", "amenity": "school", "isced:level": "1", "name": "Kwosir Primary School", "operator:type": "public", "source": "www.ubos.org", "source:date": "2010..2014", "wikidata": "Q22976766"}}, {"type": "node", "id": 4032212277, "lat": 1.3617954, "lon": 34.471332, "tags": {"addr:city": "Chepchabai", "addr:county": "Tingey", "addr:district": "Kapchorwa", "addr:parish": "Kwoti", "addr:subcounty": "Kapchesombe", "amenity": "school", "isced:level": "1", "name": "Kwoti Primary School", "operator:type": "public", "source": "www.ubos.org", "source:date": "2010..2014", "wikidata": "Q22976763"}}, {"type": "node", "id": 4032212278, "lat": 1.3580057, "lon": 34.5185379, "tags": {"addr:city": "Likil", "addr:county": "Kween", "addr:district": "Kween", "addr:parish": "Likil", "addr:subcounty": "Benet", "amenity": "school", "isced:level": "1", "name": "Likil Primary School", "operator:type": "public", "source": "www.ubos.org", "source:date": "2010..2014", "wikidata": "Q22976764"}}, {"type": "node", "id": 4032212279, "lat": 1.3635457, "lon": 34.5305434, "tags": {"addr:city": "Mengya", "addr:county": "Kween", "addr:district": "Kween", "addr:parish": "Mengya", "addr:subcounty": "Benet", "amenity": "school", "isced:level": "1", "name": "Mengya Primary School", "operator:type": "private", "source": "www.ubos.org", "source:date": "2010..2014", "wikidata": "Q22976761"}}, {"type": "node", "id": 4032212280, "lat": 1.3571923, "lon": 34.5403066, "tags": {"addr:city": "Kaboritin", "addr:county": "Kween", "addr:district": "Kween", "addr:parish": "Mengya", "addr:subcounty": "Benet", "amenity": "school", "isced:level": "1", "name": "Menya Primary School", "operator:type": "public", "source": "www.ubos.org", "source:date": "2010..2014", "wikidata": "Q22976762"}}, {"type": "node", "id": 4032212281, "lat": 1.3888078, "lon": 34.5688031, "tags": {"addr:city": "Benet West", "addr:county": "Kween", "addr:district": "Kween", "addr:parish": "Kwosir", "addr:subcounty": "Kwosir", "amenity": "school", "isced:level": "0;1", "name": "Mosop Highland Nursery and Primary School", "operator:type": "private", "source": "www.ubos.org", "source:date": "2010..2014", "wikidata": "Q22976779"}}, {"type": "node", "id": 4032212282, "lat": 1.398445, "lon": 34.6232515, "tags": {"addr:city": "Kapchesimet", "addr:county": "Kween", "addr:district": "Kween", "addr:parish": "Kapchesimet", "addr:subcounty": "Moyok", "amenity": "school", "isced:level": "1", "name": "Parent Bring Primary School", "operator:type": "public", "source": "www.ubos.org", "source:date": "2010..2014", "wikidata": "Q22976780"}}, {"type": "node", "id": 4032212283, "lat": 1.3469751, "lon": 34.4980661, "tags": {"addr:city": "Mulungwa", "addr:county": "Kween", "addr:district": "Kween", "addr:parish": "Mulungwa", "addr:subcounty": "Benet", "amenity": "school", "isced:level": "1", "name": "Parents Mulungwa Primary School", "operator:type": "private", "source": "www.ubos.org", "source:date": "2010..2014", "wikidata": "Q22976777"}}, {"type": "node", "id": 4032212284, "lat": 1.3659083, "lon": 34.5263211, "tags": {"addr:city": "Kapkureson", "addr:county": "Kween", "addr:district": "Kween", "addr:parish": "Piswa", "addr:subcounty": "Benet", "amenity": "school", "isced:level": "1", "name": "Piswa Primary School", "operator:type": "public", "source": "www.ubos.org", "source:date": "2010..2014", "wikidata": "Q22976778"}}, {"type": "node", "id": 4032212285, "lat": 1.3980267, "lon": 34.5415462, "tags": {"addr:city": "Tabagon", "addr:county": "Kween", "addr:district": "Kween", "addr:parish": "Tabagon", "addr:subcounty": "Kitawoi", "amenity": "school", "isced:level": "1", "name": "Rock View Parents Primary School", "operator:type": "private", "source": "www.ubos.org", "source:date": "2010..2014", "wikidata": "Q22976775"}}, {"type": "node", "id": 4032212286, "lat": 1.4011169, "lon": 34.4598457, "tags": {"addr:city": "T.t.c", "addr:county": "Tingey", "addr:district": "Kapchorwa", "addr:parish": "Kakwomurya", "addr:subcounty": "Town Council", "amenity": "school", "isced:level": "2;3;4", "name": "Saint Peter's Girls Secondary School", "operator:type": "private", "source": "www.ubos.org", "source:date": "2010..2014", "wikidata": "Q22976776"}}, {"type": "node", "id": 4032212287, "lat": 1.3936967, "lon": 34.5271291, "tags": {"addr:city": "Sumaton", "addr:county": "Kween", "addr:district": "Kween", "addr:parish": "Sumaton", "addr:subcounty": "Kitawoi", "amenity": "school", "isced:level": "1", "name": "Sumaton Primary School", "source": "www.ubos.org", "source:date": "2010..2014", "wikidata": "Q22976772"}}, {"type": "node", "id": 4032212288, "lat": 1.3745846, "lon": 34.5070222, "tags": {"addr:city": "Taragon Lower", "addr:county": "Kween", "addr:district": "Kween", "addr:parish": "Taragon", "addr:subcounty": "Benet", "amenity": "school", "isced:level": "1", "name": "Taragon Primary School", "operator:type": "public", "source": "www.ubos.org", "source:date": "2010..2014", "wikidata": "Q22976773"}}, {"type": "node", "id": 4032212589, "lat": 1.3991255, "lon": 34.5518943, "tags": {"addr:city": "Tarak Upper", "addr:county": "Kween", "addr:district": "Kween", "addr:parish": "Tarak", "addr:subcounty": "Kitawoi", "amenity": "school", "isced:level": "1", "name": "Tarak Primary School", "operator:type": "public", "source": "www.ubos.org", "source:date": "2010..2014", "wikidata": "Q22976795"}}, {"type": "node", "id": 4032212590, "lat": 1.3694384, "lon": 34.5437529, "tags": {"addr:city": "Chekwotok", "addr:county": "Kween", "addr:district": "Kween", "addr:parish": "Terenpoy", "addr:subcounty": "Kitawoi", "amenity": "school", "isced:level": "1", "name": "Terenpoy Primary School", "operator:type": "public", "source": "www.ubos.org", "source:date": "2010..2014", "wikidata": "Q22976797"}}, {"type": "node", "id": 4032212592, "lat": 1.3728843, "lon": 34.586092, "tags": {"addr:city": "Kere", "addr:county": "Kween", "addr:district": "Kween", "addr:parish": "Kere", "addr:subcounty": "Kwosir", "amenity": "school", "isced:level": "1", "name": "Tuikat Progressive Primary School", "operator:type": "private", "source": "www.ubos.org", "source:date": "2010..2014", "wikidata": "Q22976793"}}, {"type": "node", "id": 4032212593, "lat": 1.387713, "lon": 34.5903149, "tags": {"addr:city": "Sukut", "addr:county": "Kween", "addr:district": "Kween", "addr:parish": "Tuikat", "addr:subcounty": "Kwosir", "amenity": "school", "isced:level": "0;1", "name": "Tukat Hill Nursery and Primary School", "operator:type": "private", "source": "www.ubos.org", "source:date": "2010..2014", "wikidata": "Q22976767"}}, {"type": "node", "id": 4032212594, "lat": 1.3523514, "lon": 34.5805766, "tags": {"addr:city": "Mutuswa", "addr:county": "Kween", "addr:district": "Kween", "addr:parish": "Yatui", "addr:subcounty": "Kwosir", "amenity": "school", "fixme": "please fix the position of this node", "isced:level": "1", "name": "Yatui Primary School", "operator:type": "public", "source": "www.ubos.org", "source:date": "2010..2014", "wikidata": "Q22976769"}}, {"type": "node", "id": 4032963052, "lat": 1.2208276, "lon": 34.7454091, "tags": {"addr:city": "Kwirot", "addr:county": "Kongasis", "addr:district": "Bukwo", "addr:parish": "Kwirot", "addr:subcounty": "Suam", "amenity": "school", "isced:level": "1", "name": "Hope Academy Kwirwot Primary School", "note:remarks": "Private Aided", "source": "www.ubos.org", "source:date": "2010..2014", "wikidata": "Q22976737"}}, {"type": "node", "id": 4032963054, "lat": 1.2203219, "lon": 34.7357121, "tags": {"addr:city": "Kongasis", "addr:county": "Kongasis", "addr:district": "Bukwo", "addr:parish": "Suam Town Board", "addr:subcounty": "Suam", "amenity": "school", "isced:level": "1", "name": "Suam Junior Primary School", "source": "www.ubos.org", "source:date": "2010..2014", "wikidata": "Q22976739"}}, {"type": "node", "id": 4032963055, "lat": 1.2283395, "lon": 34.7460467, "tags": {"addr:city": "Kwirot", "addr:county": "Kongasis", "addr:district": "Bukwo", "addr:parish": "Kwirot", "addr:subcounty": "Suam", "amenity": "school", "isced:level": "1", "name": "Suam Primary School", "operator:type": "public", "source": "www.ubos.org", "source:date": "2010..2014", "wikidata": "Q22976741"}}, {"type": "node", "id": 4035651340, "lat": 1.3718973, "lon": 34.3606361, "tags": {"addr:city": "Kapteka", "addr:county": "Tingey", "addr:district": "Kapchorwa", "addr:parish": "Cheptuya", "addr:subcounty": "Kapsinda", "amenity": "school", "isced:level": "1", "name": "Kapteka Primary School", "operator:type": "public", "source": "www.ubos.org", "source:date": "2010..2014", "wikidata": "Q23134492"}}, {"type": "node", "id": 4035682789, "lat": 1.3958131, "lon": 34.4457118, "tags": {"addr:city": "Burkoyen", "addr:county": "Tingey", "addr:district": "Kapchorwa", "addr:parish": "Barawa", "addr:subcounty": "Town Council", "amenity": "school", "isced:level": "1", "name": "All Saint Primary School", "operator:type": "private", "source": "www.ubos.org", "source:date": "2010..2014", "wikidata": "Q23132701"}}, {"type": "node", "id": 4035682790, "lat": 1.3990101, "lon": 34.4442579, "tags": {"addr:city": "Senior Quarters", "addr:county": "Tingey", "addr:district": "Kapchorwa", "addr:parish": "Chepsikiroi", "addr:subcounty": "Kapchorwa Town Council", "amenity": "school", "isced:level": "1", "name": "Alpha Primary School", "operator:type": "private", "source": "www.ubos.org", "source:date": "2010..2014", "wikidata": "Q23132679"}}, {"type": "node", "id": 4035682791, "lat": 1.3940033, "lon": 34.4395424, "tags": {"addr:city": "Burkolen", "addr:county": "Tingey", "addr:district": "Kapchorwa", "addr:parish": "Kapteret", "addr:subcounty": "Kapteret", "amenity": "school", "isced:level": "1", "name": "Arokwo Parents Primary School", "operator:type": "private", "source": "www.ubos.org", "source:date": "2010..2014", "wikidata": "Q23132651"}}, {"type": "node", "id": 4035682793, "lat": 1.3619252, "lon": 34.3870334, "tags": {"addr:city": "Tulolwo", "addr:county": "Tingey", "addr:district": "Kapchorwa", "addr:parish": "Kabore", "addr:subcounty": "Chema", "amenity": "school", "isced:level": "1", "name": "Chema Primary School", "operator:type": "public", "source": "www.ubos.org", "source:date": "2010..2014", "wikidata": "Q23132446"}}, {"type": "node", "id": 4035682794, "lat": 1.3786303, "lon": 34.3915316, "tags": {"addr:city": "Kwobut", "addr:county": "Tingey", "addr:district": "Kapchorwa", "addr:parish": "Chemosong", "addr:subcounty": "Chema", "amenity": "school", "isced:level": "1", "name": "Chemosong Primary School", "source": "www.ubos.org", "source:date": "2010..2014", "wikidata": "Q23132426"}}, {"type": "node", "id": 4035682795, "lat": 1.3714468, "lon": 34.3954591, "tags": {"addr:city": "Kamasitarit", "addr:county": "Tingey", "addr:district": "Kapchorwa", "addr:parish": "Kwomo", "addr:subcounty": "Chema", "amenity": "school", "isced:level": "1", "name": "Chesiyo Primary School", "operator:type": "private", "source": "www.ubos.org", "source:date": "2010..2014", "wikidata": "Q23132392"}}, {"type": "node", "id": 4035682796, "lat": 1.3269707, "lon": 34.3844169, "tags": {"addr:city": "Gamatui", "addr:county": "Tingey", "addr:district": "Kapchorwa", "addr:parish": "Gamatui", "addr:subcounty": "Sipi", "amenity": "school", "name": "Convent", "operator:type": "religious", "source": "www.ubos.org", "source:date": "2010..2014"}}, {"type": "node", "id": 4035682797, "lat": 1.3786632, "lon": 34.451416, "tags": {"addr:city": "Kutung", "addr:county": "Tingey", "addr:district": "Kapchorwa", "addr:parish": "Kutung", "addr:subcounty": "Tegeres", "amenity": "school", "isced:level": "1", "name": "Ebenezer Susho Primary School", "operator:type": "private", "source": "www.ubos.org", "source:date": "2010..2014", "wikidata": "Q23132551"}}, {"type": "node", "id": 4035682798, "lat": 1.3902186, "lon": 34.4498053, "tags": {"addr:city": "Elgon", "addr:county": "Tingey", "addr:district": "Kapchorwa", "addr:parish": "Chemonges", "addr:subcounty": "Kapchorwa Town Council", "amenity": "school", "isced:level": "1", "name": "Elgon Primary School", "operator:type": "public", "source": "www.ubos.org", "source:date": "2010..2014", "wikidata": "Q23132523"}}, {"type": "node", "id": 4035682799, "lat": 1.3943485, "lon": 34.4478109, "tags": {"addr:city": "Rwanda", "addr:county": "Tingey", "addr:district": "Kapchorwa", "addr:parish": "Barawa", "addr:subcounty": "Town Council", "amenity": "school", "isced:level": "1", "name": "Faith Howes Primary School", "source": "www.ubos.org", "source:date": "2010..2014", "wikidata": "Q23132501"}}, {"type": "node", "id": 4035682800, "lat": 1.3272885, "lon": 34.3836171, "tags": {"addr:city": "Gamatui", "addr:county": "Tingey", "addr:district": "Kapchorwa", "addr:parish": "Gamatui", "addr:subcounty": "Sipi", "amenity": "school", "isced:level": "1", "name": "Gamatui Boys Primary School", "operator:type": "public", "source": "www.ubos.org", "source:date": "2010..2014", "wikidata": "Q23132472"}}, {"type": "node", "id": 4035682801, "lat": 1.3284887, "lon": 34.3830275, "tags": {"addr:city": "Chemenden", "addr:county": "Tingey", "addr:district": "Kapchorwa", "addr:parish": "Gamatui", "addr:subcounty": "Sipi", "amenity": "school", "isced:level": "1", "name": "Gamatui Girls Primary School", "operator:type": "public", "source": "www.ubos.org", "source:date": "2010..2014", "wikidata": "Q23132970"}}, {"type": "node", "id": 4035682802, "lat": 1.3282878, "lon": 34.3847478, "tags": {"addr:city": "Cheptunoi", "addr:county": "Tingey", "addr:district": "Kapchorwa", "addr:parish": "Gamatui", "addr:subcounty": "Sipi", "amenity": "school", "isced:level": "2;3;4", "name": "Gamatui Secondary School", "operator:type": "public", "source": "www.ubos.org", "source:date": "2010..2014", "wikidata": "Q23132952"}}, {"type": "node", "id": 4035682803, "lat": 1.347644, "lon": 34.3830004, "tags": {"addr:city": "Kapkweiminy", "addr:county": "Tingey", "addr:district": "Kapchorwa", "addr:parish": "Rakon", "addr:subcounty": "Munarya", "amenity": "school", "isced:level": "1", "name": "Green Light Primary School", "operator:type": "private", "source": "www.ubos.org", "source:date": "2010..2014", "wikidata": "Q23132920"}}, {"type": "node", "id": 4035682804, "lat": 1.3872641, "lon": 34.3969148, "tags": {"addr:city": "Cheptilyal", "addr:county": "Tingey", "addr:district": "Kapchorwa", "addr:parish": "Kabat", "addr:subcounty": "Tegeres", "amenity": "school", "isced:level": "1", "name": "Kabat Primary School", "operator:type": "private", "source": "www.ubos.org", "source:date": "2010..2014", "wikidata": "Q23132892"}}, {"type": "node", "id": 4035682805, "lat": 1.3648534, "lon": 34.3909145, "tags": {"addr:city": "Sisimwo", "addr:county": "Tingey", "addr:district": "Kapchorwa", "addr:parish": "Kabore", "addr:subcounty": "Chema", "amenity": "school", "isced:level": "1", "name": "Kabore View Primary School", "source": "www.ubos.org", "source:date": "2010..2014", "wikidata": "Q23133084"}}, {"type": "node", "id": 4035682806, "lat": 1.357651, "lon": 34.4182575, "tags": {"addr:city": "Kapchebut", "addr:county": "Tingey", "addr:district": "Kapchorwa", "addr:parish": "Tegeres", "addr:subcounty": "Tegeres", "amenity": "school", "isced:level": "1", "name": "Kaminy Primary School", "operator:type": "public", "source": "www.ubos.org", "source:date": "2010..2014", "wikidata": "Q23133047"}}, {"type": "node", "id": 4035682807, "lat": 1.3944829, "lon": 34.3915696, "tags": {"addr:city": "Chesse", "addr:county": "Tingey", "addr:district": "Kapchorwa", "addr:parish": "Kapnyikew", "addr:subcounty": "Tegeres", "amenity": "school", "isced:level": "1", "name": "Kamnyikew Primary School", "operator:type": "public", "source": "www.ubos.org", "source:date": "2010..2014", "wikidata": "Q23133024"}}, {"type": "node", "id": 4035682808, "lat": 1.3964184, "lon": 34.4445581, "tags": {"addr:city": "Senior Quarters", "addr:county": "Tingey", "addr:district": "Kapchorwa", "addr:parish": "Chepsikiroi", "addr:subcounty": "Kapchorwa Town Council", "amenity": "school", "isced:level": "1", "name": "Kapchorwa Primary School", "operator:type": "public", "source": "www.ubos.org", "source:date": "2010..2014", "wikidata": "Q23133006"}}, {"type": "node", "id": 4035682809, "lat": 1.3999746, "lon": 34.4506169, "tags": {"addr:city": "Kisenyi", "addr:county": "Tingey", "addr:district": "Kapchorwa", "addr:parish": "Kawowo", "addr:subcounty": "Town Council", "amenity": "school", "isced:level": "2;3;4", "name": "Kapchorwa Senior Secondary School", "operator:type": "private", "source": "www.ubos.org", "source:date": "2010..2014", "wikidata": "Q23132805"}}, {"type": "node", "id": 4035682810, "lat": 1.395497, "lon": 34.4384368, "tags": {"addr:city": "Arokwo", "addr:county": "Tingey", "addr:district": "Kapchorwa", "addr:parish": "Tongwo", "addr:subcounty": "Kapteret", "amenity": "school", "isced:level": "2;3;4", "name": "Kapchorwa Standard Secondary School", "operator:type": "private", "source": "www.ubos.org", "source:date": "2010..2014", "wikidata": "Q23132779"}}, {"type": "node", "id": 4035682812, "lat": 1.3702574, "lon": 34.4349799, "tags": {"addr:city": "Kapchepkwarai", "addr:county": "Tingey", "addr:district": "Kapchorwa", "addr:parish": "Kapenguria", "addr:subcounty": "Kapteret", "amenity": "school", "isced:level": "1", "name": "Kapenguria Primary School", "operator:type": "public", "source": "www.ubos.org", "source:date": "2010..2014", "wikidata": "Q23132737"}}, {"type": "node", "id": 4035682814, "lat": 1.3809796, "lon": 34.3909932, "tags": {"addr:city": "Kapkwata", "addr:county": "Tingey", "addr:district": "Kapchorwa", "addr:parish": "Chemosong", "addr:subcounty": "Chema", "amenity": "school", "isced:level": "1", "name": "Kapkwata Bright Primary School", "operator:type": "private", "source": "www.ubos.org", "source:date": "2010..2014", "wikidata": "Q23132863"}}, {"type": "node", "id": 4035682815, "lat": 1.335586, "lon": 34.3786443, "tags": {"addr:city": "Pilat", "addr:county": "Tingey", "addr:district": "Kapchorwa", "addr:parish": "Sipi Town Board (kapkwirwok Town Board)", "addr:subcounty": "Sipi", "amenity": "school", "isced:level": "1", "name": "Kapkwirwok Primary School", "operator:type": "public", "source": "www.ubos.org", "source:date": "2010..2014", "wikidata": "Q23132840"}}, {"type": "node", "id": 4035682816, "lat": 1.4044631, "lon": 34.4079822, "tags": {"addr:city": "Kaplelko", "addr:county": "Tingey", "addr:district": "Kapchorwa", "addr:parish": "Kaplelko", "addr:subcounty": "Kapteret", "amenity": "school", "isced:level": "1", "name": "Kaplelko Primary School", "operator:type": "private", "source": "www.ubos.org", "source:date": "2010..2014", "wikidata": "Q23132822"}}, {"type": "node", "id": 4035682817, "lat": 1.3846459, "lon": 34.4246794, "tags": {"addr:city": "Chaber", "addr:county": "Tingey", "addr:district": "Kapchorwa", "addr:parish": "Kapteret", "addr:subcounty": "Kapteret", "amenity": "school", "isced:level": "1", "name": "Kapteret Primary School", "operator:type": "public", "source": "www.ubos.org", "source:date": "2010..2014", "wikidata": "Q23133217"}}, {"type": "node", "id": 4035682818, "lat": 1.3944248, "lon": 34.4040461, "tags": {"addr:city": "Mokoyo", "addr:county": "Tingey", "addr:district": "Kapchorwa", "addr:parish": "Kaptol", "addr:subcounty": "Kapteret", "amenity": "school", "isced:level": "1", "name": "Kaptul Primary School", "operator:type": "public", "source": "www.ubos.org", "source:date": "2010..2014", "wikidata": "Q23133194"}}, {"type": "node", "id": 4035682819, "lat": 1.3829855, "lon": 34.3701503, "tags": {"addr:city": "Kurumbowo", "addr:county": "Tingey", "addr:district": "Kapchorwa", "addr:parish": "Kiring", "addr:subcounty": "Kapsinda", "amenity": "school", "isced:level": "1", "name": "Kiring Hope Primary School", "source": "www.ubos.org", "source:date": "2010..2014", "wikidata": "Q23133187"}}, {"type": "node", "id": 4035682820, "lat": 1.3936034, "lon": 34.4371055, "tags": {"addr:city": "Arokwo", "addr:county": "Tingey", "addr:district": "Kapchorwa", "addr:parish": "Tongwo", "addr:subcounty": "Kapteret", "amenity": "school", "isced:level": "1", "name": "Kofanat Primary School", "operator:type": "private", "source": "www.ubos.org", "source:date": "2010..2014", "wikidata": "Q23133177"}}, {"type": "node", "id": 4035682821, "lat": 1.3787557, "lon": 34.4107044, "tags": {"addr:city": "Kutung", "addr:county": "Tingey", "addr:district": "Kapchorwa", "addr:parish": "Kutung", "addr:subcounty": "Tegeres", "amenity": "school", "name": "Kutung Child Development Centre", "operator:type": "N.G.O", "source": "www.ubos.org", "source:date": "2010..2014", "wikidata": "Q23133284"}}, {"type": "node", "id": 4035682822, "lat": 1.3912402, "lon": 34.4502618, "tags": {"addr:city": "Elgon", "addr:county": "Tingey", "addr:district": "Kapchorwa", "addr:parish": "Chemonges", "addr:subcounty": "Kapchorwa Town Council", "amenity": "school", "isced:level": "1", "name": "Modern Primary School", "operator:type": "private", "source": "www.ubos.org", "source:date": "2010..2014", "wikidata": "Q23133275"}}, {"type": "node", "id": 4035682823, "lat": 1.3992392, "lon": 34.4505305, "tags": {"addr:city": "Kisenyi", "addr:county": "Tingey", "addr:district": "Kapchorwa", "addr:parish": "Kawowo", "addr:subcounty": "Town Council", "amenity": "school", "isced:level": "1", "name": "Mountain Primary School", "operator:type": "public", "source": "www.ubos.org", "source:date": "2010..2014", "wikidata": "Q23133254"}}, {"type": "node", "id": 4035682824, "lat": 1.3445326, "lon": 34.3901095, "tags": {"addr:city": "Kamengong", "addr:county": "Tingey", "addr:district": "Kapchorwa", "addr:parish": "Kapkwateny", "addr:subcounty": "Munarya", "amenity": "school", "isced:level": "1", "name": "Ngasire Parents Primary School", "operator:type": "private", "source": "www.ubos.org", "source:date": "2010..2014", "wikidata": "Q23133235"}}, {"type": "node", "id": 4035682825, "lat": 1.332538, "lon": 34.4030377, "tags": {"addr:city": "Kaptobomwo", "addr:county": "Tingey", "addr:district": "Kapchorwa", "addr:parish": "Kapkwateny", "addr:subcounty": "Munarya", "amenity": "school", "isced:level": "1", "name": "Ngasire Primary School", "operator:type": "public", "source": "www.ubos.org", "source:date": "2010..2014", "wikidata": "Q23133131"}}, {"type": "node", "id": 4035682826, "lat": 1.3810894, "lon": 34.4047538, "tags": {"addr:city": "Kwoti", "addr:county": "Tingey", "addr:district": "Kapchorwa", "addr:parish": "Kabat", "addr:subcounty": "Tegeres", "amenity": "school", "isced:level": "1", "name": "Rock Progressive Primary School", "operator:type": "private", "source": "www.ubos.org", "source:date": "2010..2014", "wikidata": "Q23133124"}}, {"type": "node", "id": 4035682827, "lat": 1.3939344, "lon": 34.4402028, "tags": {"addr:city": "Arokwo", "addr:county": "Tingey", "addr:district": "Kapchorwa", "addr:parish": "Tongwo", "addr:subcounty": "Kapteret", "amenity": "school", "isced:level": "1", "name": "Saint James Primary School", "operator:type": "private", "source": "www.ubos.org", "source:date": "2010..2014", "wikidata": "Q23133110"}}, {"type": "node", "id": 4035682828, "lat": 1.3838302, "lon": 34.4241954, "tags": {"addr:city": "Chaber", "addr:county": "Tingey", "addr:district": "Kapchorwa", "addr:parish": "Kapteret", "addr:subcounty": "Kapteret", "amenity": "school", "name": "Saint Mary's Secondary School", "operator:type": "public", "source": "www.ubos.org", "source:date": "2010..2014"}}, {"type": "node", "id": 4035682830, "lat": 1.3444003, "lon": 34.3844709, "tags": {"addr:city": "Sosur", "addr:county": "Tingey", "addr:district": "Kapchorwa", "addr:parish": "Munarya", "addr:subcounty": "Munarya", "amenity": "school", "isced:level": "1", "name": "Sipi Primary School", "operator:type": "public", "source": "www.ubos.org", "source:date": "2010..2014", "wikidata": "Q23133167"}}, {"type": "node", "id": 4035682831, "lat": 1.3461998, "lon": 34.3839584, "tags": {"addr:city": "Sosur", "addr:county": "Tingey", "addr:district": "Kapchorwa", "addr:parish": "Munarya", "addr:subcounty": "Munarya", "amenity": "school", "isced:level": "2;3;4", "name": "Sipi Secondary School", "operator:type": "public", "source": "www.ubos.org", "source:date": "2010..2014", "wikidata": "Q23133150"}}, {"type": "node", "id": 4035682832, "lat": 1.3644953, "lon": 34.4112611, "tags": {"addr:city": "Chebungai", "addr:county": "Tingey", "addr:district": "Kapchorwa", "addr:parish": "Tegeres", "addr:subcounty": "Tegeres", "amenity": "school", "isced:level": "0", "name": "Tegeres Christian Nursery School", "operator:type": "private", "religion": "christian", "source": "www.ubos.org", "source:date": "2010..2014", "wikidata": "Q23133141"}}, {"type": "node", "id": 4035682833, "lat": 1.3795217, "lon": 34.4112031, "tags": {"addr:city": "Kutung", "addr:county": "Tingey", "addr:district": "Kapchorwa", "addr:parish": "Kutung", "addr:subcounty": "Tegeres", "amenity": "school", "isced:level": "1", "name": "Tegeres Primary School", "operator:type": "public", "source": "www.ubos.org", "source:date": "2010..2014", "wikidata": "Q23133324"}}, {"type": "node", "id": 4035682834, "lat": 1.3928804, "lon": 34.4456585, "tags": {"addr:city": "Kwengwa", "addr:county": "Tingey", "addr:district": "Kapchorwa", "addr:parish": "Barawa", "addr:subcounty": "Town Council", "amenity": "school", "isced:level": "0", "name": "Testimony Nursery School", "source": "www.ubos.org", "source:date": "2010..2014", "wikidata": "Q23133314"}}, {"type": "node", "id": 4035682835, "lat": 1.3930621, "lon": 34.4463904, "tags": {"addr:city": "Rwanda", "addr:county": "Tingey", "addr:district": "Kapchorwa", "addr:parish": "Barawa", "addr:subcounty": "Town Council", "amenity": "school", "isced:level": "1", "name": "Testimony Primary School", "operator:type": "private", "source": "www.ubos.org", "source:date": "2010..2014", "wikidata": "Q23133306"}}, {"type": "node", "id": 4035682836, "lat": 1.3748553, "lon": 34.4392303, "tags": {"addr:city": "Chepkwutar", "addr:county": "Tingey", "addr:district": "Kapchorwa", "addr:parish": "Kapenguria", "addr:subcounty": "Kapteret", "amenity": "school", "isced:level": "1", "name": "Top Hills Primary School", "operator:type": "private", "source": "www.ubos.org", "source:date": "2010..2014", "wikidata": "Q23133295"}}, {"type": "node", "id": 4035682837, "lat": 1.3888405, "lon": 34.4527098, "tags": {"addr:city": "Kaptobomwo", "addr:county": "Tingey", "addr:district": "Kapchorwa", "addr:parish": "Chemonges", "addr:subcounty": "Kapchorwa Town Council", "amenity": "school", "isced:level": "2;3;4", "name": "Town View Secondary School", "operator:type": "private", "source": "www.ubos.org", "source:date": "2010..2014", "wikidata": "Q23133356"}}, {"type": "node", "id": 4035682838, "lat": 1.3946218, "lon": 34.4110411, "tags": {"addr:city": "Kaptul", "addr:county": "Tingey", "addr:district": "Kapchorwa", "addr:parish": "Tuban", "addr:subcounty": "Kapteret", "amenity": "school", "isced:level": "1", "name": "Tuban Bright Day and Boarding Primary School", "operator:type": "public", "source": "www.ubos.org", "source:date": "2010..2014", "wikidata": "Q23133347"}}, {"type": "node", "id": 4035682839, "lat": 1.3927619, "lon": 34.4222687, "tags": {"addr:city": "Chelabei", "addr:county": "Tingey", "addr:district": "Kapchorwa", "addr:parish": "Tongwo", "addr:subcounty": "Kapteret", "amenity": "school", "isced:level": "1", "name": "Tuban Primary School", "operator:type": "public", "source": "www.ubos.org", "source:date": "2010..2014", "wikidata": "Q23133339"}}, {"type": "node", "id": 4035682840, "lat": 1.3588761, "lon": 34.4259387, "tags": {"addr:city": "Mokotu", "addr:county": "Tingey", "addr:district": "Kapchorwa", "addr:parish": "Tegeres", "addr:subcounty": "Tegeres", "amenity": "school", "isced:level": "0", "name": "Vision Nursery School", "operator:type": "private", "source": "www.ubos.org", "source:date": "2010..2014", "wikidata": "Q23133331"}}, {"type": "node", "id": 4035704289, "lat": 1.3084064, "lon": 34.3821709, "tags": {"addr:city": "Chemuron", "addr:county": "Tingey", "addr:district": "Kapchorwa", "addr:parish": "Kabeywa", "addr:subcounty": "Kabeywa", "amenity": "school", "isced:level": "1", "name": "Bugimotwa Primary School", "source": "www.ubos.org", "source:date": "2010..2014", "wikidata": "Q23132616"}}, {"type": "node", "id": 4035704290, "lat": 1.2804478, "lon": 34.3721936, "tags": {"addr:city": "Research Station", "addr:county": "Bulambuli", "addr:district": "Bulambuli", "addr:parish": "Kikobero", "addr:subcounty": "Masiira", "amenity": "school", "name": "Buginyanya Zonal Agricultural Research $ Devt Ins", "source": "www.ubos.org", "source:date": "2010..2014", "wikidata": "Q23132608"}}, {"type": "node", "id": 4035704291, "lat": 1.2498278, "lon": 34.3654222, "tags": {"addr:city": "Suguta", "addr:county": "Bulambuli", "addr:district": "Bulambuli", "addr:parish": "Busiya", "addr:subcounty": "Bulaago", "amenity": "school", "isced:level": "2;3;4", "name": "Bulaago Senior Secondary School", "source": "www.ubos.org", "source:date": "2010..2014", "wikidata": "Q23132587"}}, {"type": "node", "id": 4035704292, "lat": 1.2630941, "lon": 34.3761184, "tags": {"addr:city": "Gibole", "addr:county": "Bulambuli", "addr:district": "Bulambuli", "addr:parish": "Bumasifwa", "addr:subcounty": "Bumugibole", "amenity": "school", "isced:level": "1", "name": "Bumugibole Primary School", "operator:type": "public", "source": "www.ubos.org", "source:date": "2010..2014", "wikidata": "Q23132575"}}, {"type": "node", "id": 4035704293, "lat": 1.2512114, "lon": 34.378646, "tags": {"addr:city": "Nagabita B", "addr:county": "Bulambuli", "addr:district": "Bulambuli", "addr:parish": "Bunabudde", "addr:subcounty": "Lusha", "amenity": "school", "isced:level": "1", "name": "Bunabude Primary School", "operator:type": "public", "source": "www.ubos.org", "source:date": "2010..2014", "wikidata": "Q23132710"}}, {"type": "node", "id": 4035704294, "lat": 1.2848503, "lon": 34.3880503, "tags": {"addr:city": "Nakitembe Upper", "addr:county": "Bulambuli", "addr:district": "Bulambuli", "addr:parish": "Gabugoto", "addr:subcounty": "Masiira", "amenity": "school", "isced:level": "1", "name": "Gabugoto Primary School", "source": "www.ubos.org", "source:date": "2010..2014", "wikidata": "Q23132692"}}, {"type": "node", "id": 4035704295, "lat": 1.2738531, "lon": 34.3778034, "tags": {"addr:city": "Magumba Trc", "addr:county": "Bulambuli", "addr:district": "Bulambuli", "addr:parish": "Suguta", "addr:subcounty": "Bumugibole", "amenity": "school", "isced:level": "1", "name": "Gibuzela Primary School", "operator:type": "public", "source": "www.ubos.org", "source:date": "2010..2014", "wikidata": "Q23132670"}}, {"type": "node", "id": 4035704297, "lat": 1.3086328, "lon": 34.3850201, "tags": {"addr:city": "Chemuron", "addr:county": "Tingey", "addr:district": "Kapchorwa", "addr:parish": "Kabeywa", "addr:subcounty": "Kabeywa", "amenity": "school", "isced:level": "0;1", "name": "Kabeywa Nursery and Primary School", "operator:type": "private", "source": "www.ubos.org", "source:date": "2010..2014", "wikidata": "Q23132457"}}, {"type": "node", "id": 4035704298, "lat": 1.2715903, "lon": 34.3886178, "tags": {"addr:city": "Matunda", "addr:county": "Bulambuli", "addr:district": "Bulambuli", "addr:parish": "Mayiyi", "addr:subcounty": "Bumugibole", "amenity": "school", "isced:level": "1", "name": "Mayiyi Primary School", "source": "www.ubos.org", "source:date": "2010..2014", "wikidata": "Q23132439"}}, {"type": "node", "id": 4035704299, "lat": 1.289083, "lon": 34.4011671, "tags": {"addr:city": "Kitondwani", "addr:county": "Bulambuli", "addr:district": "Bulambuli", "addr:parish": "Mbigi", "addr:subcounty": "Masiira", "amenity": "school", "name": "Mbigi Community School", "operator:type": "private", "source": "www.ubos.org", "source:date": "2010..2014", "wikidata": "Q23132416"}}, {"type": "node", "id": 4035704301, "lat": 1.3179209, "lon": 34.3958809, "tags": {"addr:city": "Tangwen", "addr:county": "Tingey", "addr:district": "Kapchorwa", "addr:parish": "Tangwen", "addr:subcounty": "Kabeywa", "amenity": "school", "fixme": "please, check the position of this node", "isced:level": "1", "name": "Tangwen Primary School", "source": "www.ubos.org", "source:date": "2010..2014", "wikidata": "Q23132568"}}, {"type": "node", "id": 4035704302, "lat": 1.2881624, "lon": 34.3956531, "tags": {"addr:city": "Womunga", "addr:county": "Bulambuli", "addr:district": "Bulambuli", "addr:parish": "Bufumbo", "addr:subcounty": "Masiira", "amenity": "school", "isced:level": "1", "name": "Womuga Primary School", "operator:type": "public", "source": "www.ubos.org", "source:date": "2010..2014", "wikidata": "Q23132541"}}, {"type": "node", "id": 4035724491, "lat": 1.2750242, "lon": 34.3586826, "tags": {"addr:city": "Ligombe", "addr:county": "Bulambuli", "addr:district": "Bulambuli", "addr:parish": "Tabali", "addr:subcounty": "Buginyanya", "amenity": "school", "isced:level": "1", "name": "Buginyanya Primary School", "operator:type": "public", "source": "www.ubos.org", "source:date": "2010..2014", "wikidata": "Q23132124"}}, {"type": "node", "id": 4035724493, "lat": 1.2475496, "lon": 34.36095, "tags": {"addr:city": "Bulaago Corner Cell", "addr:county": "Bulambuli", "addr:district": "Bulambuli", "addr:parish": "Busiya", "addr:subcounty": "Bulaago", "amenity": "school", "isced:level": "1", "name": "Bulaago Primary School", "operator:type": "public", "source": "www.ubos.org", "source:date": "2010..2014", "wikidata": "Q23132019"}}, {"type": "node", "id": 4035724500, "lat": 1.302419, "lon": 34.3629632, "tags": {"addr:city": "Suguta", "addr:county": "Tingey", "addr:district": "Kapchorwa", "addr:parish": "Chebalat", "addr:subcounty": "Gamogo", "amenity": "school", "isced:level": "1", "name": "Chebalat Primary School", "source": "www.ubos.org", "source:date": "2010..2014", "wikidata": "Q23132356"}}, {"type": "node", "id": 4035724503, "lat": 1.293916, "lon": 34.3643612, "tags": {"addr:city": "Matugutu", "addr:county": "Bulambuli", "addr:district": "Bulambuli", "addr:parish": "Namezi", "addr:subcounty": "Namisuni", "amenity": "school", "isced:level": "0;1", "name": "Elgon View Nursery and Primary School", "operator:type": "private", "source": "www.ubos.org", "source:date": "2010..2014", "wikidata": "Q23132311"}}, {"type": "node", "id": 4035724504, "lat": 1.3075959, "lon": 34.3528568, "tags": {"addr:city": "Kaplabala", "addr:county": "Tingey", "addr:district": "Kapchorwa", "addr:parish": "Chesoyen", "addr:subcounty": "Chepterech", "amenity": "school", "isced:level": "1", "name": "Gamogo Primary School", "operator:type": "public", "source": "www.ubos.org", "source:date": "2010..2014", "wikidata": "Q23132320"}}, {"type": "node", "id": 4035724512, "lat": 1.3033964, "lon": 34.3569631, "tags": {"addr:city": "Kamakoyon", "addr:county": "Tingey", "addr:district": "Kapchorwa", "addr:parish": "Kortow", "addr:subcounty": "Gamogo", "amenity": "school", "isced:level": "0", "name": "Lwandn Nursery School", "source": "www.ubos.org", "source:date": "2010..2014", "wikidata": "Q23132262"}}, {"type": "node", "id": 4035724514, "lat": 1.2725223, "lon": 34.3564402, "tags": {"addr:city": "Makyere", "addr:county": "Bulambuli", "addr:district": "Bulambuli", "addr:parish": "Sisiyi", "addr:subcounty": "Buginyanya", "amenity": "school", "isced:level": "1", "name": "Minirova Primary School", "operator:type": "private", "source": "www.ubos.org", "source:date": "2010..2014", "wikidata": "Q23134461"}}, {"type": "node", "id": 4035724516, "lat": 1.2306876, "lon": 34.3599554, "tags": {"addr:city": "Nabiwutulu", "addr:county": "Bulambuli", "addr:district": "Bulambuli", "addr:parish": "Dooba", "addr:subcounty": "Bulaago", "amenity": "school", "isced:level": "1", "name": "Nabiwutulu Primary School", "operator:type": "public", "source": "www.ubos.org", "source:date": "2010..2014", "wikidata": "Q23134481"}}, {"type": "node", "id": 4035724522, "lat": 1.2305686, "lon": 34.3610358, "tags": {"addr:city": "Nabiwutulu", "addr:county": "Bulambuli", "addr:district": "Bulambuli", "addr:parish": "Dooba", "addr:subcounty": "Bulaago", "amenity": "school", "name": "Technical School", "source": "www.ubos.org", "source:date": "2010..2014"}}, {"type": "node", "id": 4863093895, "lat": 1.2292421, "lon": 34.7457657}, {"type": "node", "id": 4863093903, "lat": 1.2290833, "lon": 34.745691}, {"type": "node", "id": 4863093908, "lat": 1.228788, "lon": 34.7452802}, {"type": "node", "id": 4863093909, "lat": 1.2276733, "lon": 34.7457937}, {"type": "node", "id": 4863093910, "lat": 1.228411, "lon": 34.7468024}, {"type": "node", "id": 4863093911, "lat": 1.2289806, "lon": 34.7461113}, {"type": "node", "id": 4863093918, "lat": 1.2202071, "lon": 34.7350768}, {"type": "node", "id": 4863093919, "lat": 1.2198366, "lon": 34.735312}, {"type": "node", "id": 4863093920, "lat": 1.2200676, "lon": 34.7356416}, {"type": "node", "id": 4863093921, "lat": 1.2198101, "lon": 34.7358175}, {"type": "node", "id": 4863093922, "lat": 1.2200306, "lon": 34.7361519}, {"type": "node", "id": 4863093923, "lat": 1.2206733, "lon": 34.7357904}, {"type": "node", "id": 6300889947, "lat": 1.5659413, "lon": 34.5009935, "tags": {"amenity": "school"}}, {"type": "node", "id": 6335962516, "lat": 1.2672671, "lon": 34.7654831}, {"type": "node", "id": 6335962517, "lat": 1.2672429, "lon": 34.7655171}, {"type": "node", "id": 6335962518, "lat": 1.2672025, "lon": 34.7654883}, {"type": "node", "id": 6335962519, "lat": 1.2672266, "lon": 34.7654543}, {"type": "node", "id": 6338825712, "lat": 1.2446959, "lon": 34.7662708}, {"type": "node", "id": 6338825713, "lat": 1.2447721, "lon": 34.7663227}, {"type": "node", "id": 6338825714, "lat": 1.2446577, "lon": 34.7664906}, {"type": "node", "id": 6338825715, "lat": 1.2445815, "lon": 34.7664387}, {"type": "node", "id": 6338825716, "lat": 1.2445061, "lon": 34.7663647}, {"type": "node", "id": 6338825717, "lat": 1.2445689, "lon": 34.7664091}, {"type": "node", "id": 6338825718, "lat": 1.2444842, "lon": 34.7665288}, {"type": "node", "id": 6338825719, "lat": 1.2444215, "lon": 34.7664844}, {"type": "node", "id": 6338825720, "lat": 1.244452, "lon": 34.7665517}, {"type": "node", "id": 6338825721, "lat": 1.2445197, "lon": 34.7666003}, {"type": "node", "id": 6338825722, "lat": 1.2444284, "lon": 34.7667275}, {"type": "node", "id": 6338825723, "lat": 1.2443607, "lon": 34.7666788}, {"type": "node", "id": 6338825724, "lat": 1.2442817, "lon": 34.7666098}, {"type": "node", "id": 6338825725, "lat": 1.2443495, "lon": 34.766656}, {"type": "node", "id": 6338825726, "lat": 1.2442295, "lon": 34.766824}, {"type": "node", "id": 6338825727, "lat": 1.2441652, "lon": 34.7667851}, {"type": "node", "id": 6338825728, "lat": 1.244224, "lon": 34.7668404}, {"type": "node", "id": 6338825729, "lat": 1.24429, "lon": 34.7668888}, {"type": "node", "id": 6338825730, "lat": 1.2441911, "lon": 34.7670237}, {"type": "node", "id": 6338825731, "lat": 1.2441251, "lon": 34.7669753}, {"type": "node", "id": 6338825732, "lat": 1.2439747, "lon": 34.7663848}, {"type": "node", "id": 6338825733, "lat": 1.2440389, "lon": 34.7664095}, {"type": "node", "id": 6338825734, "lat": 1.2439772, "lon": 34.7665699}, {"type": "node", "id": 6338825735, "lat": 1.2439129, "lon": 34.7665452}, {"type": "node", "id": 6338825798, "lat": 1.2445176, "lon": 34.7693002}, {"type": "node", "id": 6338825799, "lat": 1.2444572, "lon": 34.7693143}, {"type": "node", "id": 6338825800, "lat": 1.24449, "lon": 34.7694558}, {"type": "node", "id": 6338825801, "lat": 1.2445504, "lon": 34.7694418}, {"type": "node", "id": 6338825802, "lat": 1.2441964, "lon": 34.7693602}, {"type": "node", "id": 6338825803, "lat": 1.2442384, "lon": 34.7695423}, {"type": "node", "id": 6338825804, "lat": 1.2441557, "lon": 34.7695614}, {"type": "node", "id": 6338825805, "lat": 1.2441137, "lon": 34.7693792}, {"type": "node", "id": 6338825806, "lat": 1.2446094, "lon": 34.7694693}, {"type": "node", "id": 6338825807, "lat": 1.2446396, "lon": 34.7695985}, {"type": "node", "id": 6338825808, "lat": 1.2445711, "lon": 34.7696146}, {"type": "node", "id": 6338825809, "lat": 1.2445409, "lon": 34.7694853}, {"type": "node", "id": 6338825810, "lat": 1.2445965, "lon": 34.7696511}, {"type": "node", "id": 6338825811, "lat": 1.2446252, "lon": 34.7698052}, {"type": "node", "id": 6338825812, "lat": 1.2445419, "lon": 34.7698207}, {"type": "node", "id": 6338825813, "lat": 1.2445132, "lon": 34.7696666}, {"type": "node", "id": 6338825814, "lat": 1.2446119, "lon": 34.7698326}, {"type": "node", "id": 6338825815, "lat": 1.244526, "lon": 34.769846}, {"type": "node", "id": 6338825816, "lat": 1.2445509, "lon": 34.7700061}, {"type": "node", "id": 6338825817, "lat": 1.2446367, "lon": 34.7699927}, {"type": "node", "id": 6338825826, "lat": 1.245511, "lon": 34.7722323}, {"type": "node", "id": 6338825827, "lat": 1.2455782, "lon": 34.7723222}, {"type": "node", "id": 6338825828, "lat": 1.2455333, "lon": 34.7723557}, {"type": "node", "id": 6338825829, "lat": 1.2454661, "lon": 34.7722658}, {"type": "node", "id": 6338825830, "lat": 1.2455872, "lon": 34.7723346}, {"type": "node", "id": 6338825831, "lat": 1.2455621, "lon": 34.7723525}, {"type": "node", "id": 6338825832, "lat": 1.2456039, "lon": 34.772411}, {"type": "node", "id": 6338825833, "lat": 1.245629, "lon": 34.772393}, {"type": "node", "id": 6338825834, "lat": 1.245946, "lon": 34.7721401}, {"type": "node", "id": 6338825835, "lat": 1.2459716, "lon": 34.7721787}, {"type": "node", "id": 6338825836, "lat": 1.245819, "lon": 34.7722799}, {"type": "node", "id": 6338825837, "lat": 1.2457934, "lon": 34.7722413}, {"type": "node", "id": 6386276232, "lat": 1.3361886, "lon": 34.4844443}, {"type": "node", "id": 6386276233, "lat": 1.3357241, "lon": 34.484494}, {"type": "node", "id": 6386276234, "lat": 1.3355302, "lon": 34.4856487}, {"type": "node", "id": 6386276235, "lat": 1.3359631, "lon": 34.4856713}, {"type": "node", "id": 6389295761, "lat": 1.3458943, "lon": 34.7033138}, {"type": "node", "id": 6389295762, "lat": 1.3457951, "lon": 34.7033192}, {"type": "node", "id": 6389295763, "lat": 1.345771, "lon": 34.7035445}, {"type": "node", "id": 6389295764, "lat": 1.3458621, "lon": 34.7035498}, {"type": "node", "id": 6389295769, "lat": 1.345836, "lon": 34.7035483}, {"type": "node", "id": 6389295917, "lat": 1.3471553, "lon": 34.7034772}, {"type": "node", "id": 6389295918, "lat": 1.3470804, "lon": 34.7034449}, {"type": "node", "id": 6389295919, "lat": 1.3469768, "lon": 34.7036855}, {"type": "node", "id": 6389295920, "lat": 1.3470516, "lon": 34.7037177}, {"type": "node", "id": 6389295921, "lat": 1.3474791, "lon": 34.7035364}, {"type": "node", "id": 6389295922, "lat": 1.3474094, "lon": 34.7034989}, {"type": "node", "id": 6389295923, "lat": 1.3472431, "lon": 34.7037644}, {"type": "node", "id": 6389295924, "lat": 1.3473102, "lon": 34.7038073}, {"type": "node", "id": 6389295925, "lat": 1.3472807, "lon": 34.70381}, {"type": "node", "id": 6389295926, "lat": 1.347227, "lon": 34.7038931}, {"type": "node", "id": 6389295927, "lat": 1.3470769, "lon": 34.7037805}, {"type": "node", "id": 6389295928, "lat": 1.3471251, "lon": 34.7037027}, {"type": "node", "id": 6390461123, "lat": 1.2862933, "lon": 34.7523095}, {"type": "node", "id": 6390461124, "lat": 1.2862323, "lon": 34.7523307}, {"type": "node", "id": 6390461125, "lat": 1.2862529, "lon": 34.7523902}, {"type": "node", "id": 6390461126, "lat": 1.2863139, "lon": 34.752369}, {"type": "node", "id": 7810317659, "lat": 1.2864226, "lon": 34.7704498}, {"type": "node", "id": 7810317660, "lat": 1.2867149, "lon": 34.7706295}, {"type": "node", "id": 7810317661, "lat": 1.286754, "lon": 34.7705658}, {"type": "node", "id": 7810317662, "lat": 1.2864617, "lon": 34.7703861}, {"type": "node", "id": 7810812199, "lat": 1.2770027, "lon": 34.7755774}, {"type": "node", "id": 7810812200, "lat": 1.2768606, "lon": 34.7756995}, {"type": "node", "id": 7810812201, "lat": 1.2769181, "lon": 34.7757666}, {"type": "node", "id": 7810812202, "lat": 1.2770603, "lon": 34.7756445}, {"type": "node", "id": 7812416489, "lat": 1.2204268, "lon": 34.7358076}, {"type": "node", "id": 7812416490, "lat": 1.2202884, "lon": 34.7355993}, {"type": "node", "id": 7812416491, "lat": 1.2202902, "lon": 34.7358984}, {"type": "node", "id": 7812416492, "lat": 1.220323, "lon": 34.7359477}, {"type": "node", "id": 7812416493, "lat": 1.2205082, "lon": 34.7358245}, {"type": "node", "id": 7812416494, "lat": 1.220337, "lon": 34.735567}, {"type": "node", "id": 7934560330, "lat": 1.3787406, "lon": 34.4513303}, {"type": "node", "id": 7934560331, "lat": 1.3786563, "lon": 34.4513252}, {"type": "node", "id": 7934560332, "lat": 1.3786475, "lon": 34.4514694}, {"type": "node", "id": 7934560333, "lat": 1.3787761, "lon": 34.4514773}, {"type": "node", "id": 7934560334, "lat": 1.3787801, "lon": 34.4514117}, {"type": "node", "id": 7934560335, "lat": 1.3787358, "lon": 34.451409}, {"type": "way", "id": 382657152, "nodes": [3858780169, 3858780174, 3858780185, 3858780228, 3858780255, 3858780464, 3858780476, 3858780479, 3858780474, 3858780461, 3858780477, 3858780248, 3858780204, 3858780176, 3858780160, 3858779854, 3858780161, 3858780164, 3858780166, 3858780169], "tags": {"addr:city": "Chepwutwo", "addr:county": "Tingey", "addr:district": "Kapchorwa", "addr:parish": "Chemanagang", "addr:subcounty": "Chema", "amenity": "school", "isced:level": "1", "name": "Kapkwai Primary School", "operator:type": "public", "source": "www.ubos.org", "source:date": "2010..2014", "wikidata": "Q23131979"}}, {"type": "way", "id": 392901230, "nodes": [3960967793, 3960967856, 3960967867, 3960967884, 3960967903, 3960967839, 3960967768, 3960967742, 3960967698, 3960967658, 3960967628, 3960967608, 3960967541, 3960967530, 3960967519, 3960967537, 3960967544, 3960967569, 3960967624, 3960967793], "tags": {"addr:city": "Cheptilyal", "addr:county": "Tingey", "addr:district": "Kapchorwa", "addr:parish": "Kabat", "addr:subcounty": "Tegeres", "amenity": "school", "name": "Sebei College School", "operator:type": "public", "source": "www.ubos.org", "source:date": "2010..2014"}}, {"type": "way", "id": 395909517, "nodes": [3987096071, 3987096103, 3987096101, 3987096076, 3987096067, 3987096071], "tags": {"amenity": "school"}}, {"type": "way", "id": 494556708, "nodes": [4863093908, 4863093909, 4863093910, 4863093911, 4863093895, 4863093903, 4863093908], "tags": {"amenity": "school"}}, {"type": "way", "id": 494556711, "nodes": [4863093918, 4863093919, 4863093920, 4863093921, 4863093922, 4863093923, 4863093918], "tags": {"amenity": "school"}}, {"type": "way", "id": 676602721, "nodes": [6335962516, 6335962517, 6335962518, 6335962519, 6335962516], "tags": {"amenity": "school", "building": "yes", "name": "Kongasis Standard Academy Primary School"}}, {"type": "way", "id": 676938503, "nodes": [6338825712, 6338825713, 6338825714, 6338825715, 6338825712], "tags": {"amenity": "school"}}, {"type": "way", "id": 676938504, "nodes": [6338825716, 6338825717, 6338825718, 6338825719, 6338825716], "tags": {"amenity": "school"}}, {"type": "way", "id": 676938505, "nodes": [6338825720, 6338825721, 6338825722, 6338825723, 6338825720], "tags": {"amenity": "school"}}, {"type": "way", "id": 676938506, "nodes": [6338825724, 6338825725, 6338825726, 6338825727, 6338825724], "tags": {"amenity": "school"}}, {"type": "way", "id": 676938507, "nodes": [6338825728, 6338825729, 6338825730, 6338825731, 6338825728], "tags": {"amenity": "school"}}, {"type": "way", "id": 676938508, "nodes": [6338825732, 6338825733, 6338825734, 6338825735, 6338825732], "tags": {"amenity": "school"}}, {"type": "way", "id": 676938517, "nodes": [6338825798, 6338825799, 6338825800, 6338825801, 6338825798], "tags": {"amenity": "school"}}, {"type": "way", "id": 676938518, "nodes": [6338825802, 6338825803, 6338825804, 6338825805, 6338825802], "tags": {"amenity": "school"}}, {"type": "way", "id": 676938519, "nodes": [6338825806, 6338825807, 6338825808, 6338825809, 6338825806], "tags": {"amenity": "school"}}, {"type": "way", "id": 676938520, "nodes": [6338825810, 6338825811, 6338825812, 6338825813, 6338825810], "tags": {"amenity": "school"}}, {"type": "way", "id": 676938521, "nodes": [6338825814, 6338825815, 6338825816, 6338825817, 6338825814], "tags": {"amenity": "school"}}, {"type": "way", "id": 676938524, "nodes": [6338825826, 6338825827, 6338825828, 6338825829, 6338825826], "tags": {"amenity": "school"}}, {"type": "way", "id": 676938525, "nodes": [6338825830, 6338825831, 6338825832, 6338825833, 6338825830], "tags": {"amenity": "school"}}, {"type": "way", "id": 676938526, "nodes": [6338825834, 6338825835, 6338825836, 6338825837, 6338825834], "tags": {"amenity": "school"}}, {"type": "way", "id": 681932028, "nodes": [6386276232, 6386276233, 6386276234, 6386276235, 6386276232], "tags": {"amenity": "school"}}, {"type": "way", "id": 682274792, "nodes": [6389295761, 6389295762, 6389295763, 6389295769, 6389295764, 6389295761], "tags": {"amenity": "school", "building": "yes", "landuse": "school"}}, {"type": "way", "id": 682274806, "nodes": [6389295917, 6389295918, 6389295919, 6389295920, 6389295917], "tags": {"amenity": "school", "building": "yes"}}, {"type": "way", "id": 682274807, "nodes": [6389295921, 6389295922, 6389295923, 6389295924, 6389295921], "tags": {"amenity": "school", "building": "yes"}}, {"type": "way", "id": 682274808, "nodes": [6389295925, 6389295926, 6389295927, 6389295928, 6389295925], "tags": {"amenity": "school", "building": "yes"}}, {"type": "way", "id": 682387492, "nodes": [6390461126, 6390461125, 6390461124, 6390461123, 6390461126], "tags": {"amenity": "school", "building": "yes"}}, {"type": "way", "id": 836838096, "nodes": [7810317662, 7810317661, 7810317660, 7810317659, 7810317662], "tags": {"amenity": "school", "building": "yes", "name": "Muimet Primary School"}}, {"type": "way", "id": 836901371, "nodes": [7810812202, 7810812201, 7810812200, 7810812199, 7810812202], "tags": {"amenity": "school", "building": "yes", "name": "Senedet Primary School"}}, {"type": "way", "id": 837071305, "nodes": [7812416494, 7812416493, 7812416492, 7812416491, 7812416489, 7812416490, 7812416494], "tags": {"amenity": "school", "building": "yes", "name": "Suam Junior Primary School"}}, {"type": "way", "id": 850497942, "nodes": [7934560330, 7934560331, 7934560332, 7934560333, 7934560334, 7934560335, 7934560330], "tags": {"amenity": "school"}}]}