{"version": 0.6, "generator": "Overpass API 0.7.61.5 4133829e", "osm3s": {"timestamp_osm_base": "2024-03-06T11:16:45Z", "copyright": "The data included in this document is from www.openstreetmap.org. The data is made available under ODbL."}, "elements": [{"type": "node", "id": 2134274091, "lat": 36.0726, "lon": 45.5488, "tags": {"is_in:country": "Iran", "name": "\u0648\u0631\u0686\u06a9", "name:en": "Varchak", "name:ku": "Wir\u00e7ek", "place": "village", "source:name": "GNS", "wikidata": "Q5706773"}}, {"type": "node", "id": 2488283553, "lat": 35.6503367, "lon": 45.0839972, "tags": {"name": "\u06a9\u0648\u067e\u06d5\u06b5\u06d5", "name:ar": "\u06a9\u0648\u0628\u0629\u0644\u0629", "name:en": "Kupala", "place": "village", "wikidata": "Q61383829", "wikipedia": "ckb:\u06a9\u0648\u067e\u06d5\u06b5\u06d5"}}, {"type": "node", "id": 2488283572, "lat": 35.8523915, "lon": 45.0841347, "tags": {"is_in": "Iraq , \u062c\u0645\u0647\u0648\u0631\u064a\u0629 \u0627\u0644\u0639\u0631\u0627\u0642", "name": "\u062e\u0648\u0631\u062f\u06d5\u0644\u0648\u06a9", "name:ar": "\u062e\u0631\u062f\u0644\u0648\u0643", "name:ar1": "\u062e\u0631\u062f\u0644\u0648\u0643 \u0633\u0631\u0648 \u0627\u0644\u0639\u0644\u064a\u0627", "name:de": "Khurdaluk", "name:en": "Khurdaluk", "name:fr": "Khurdaluk", "place": "village"}}, {"type": "node", "id": 2488283590, "lat": 35.9679778, "lon": 45.0838127, "tags": {"name": "\u0633\u06ce\u062f\u06d5\u0631\u06d5", "name:ar": "\u0633\u064a\u062f\u0631\u0629", "name:ckb": "\u0633\u06ce\u062f\u06d5\u0631\u06d5", "name:en": "Sedara", "name:ku": "S\u00eadere", "place": "village", "wikidata": "Q61388625", "wikipedia": "ckb:\u0633\u06ce\u062f\u06d5\u0631\u06d5"}}, {"type": "node", "id": 2488285707, "lat": 35.6612711, "lon": 45.56777, "tags": {"is_in": "Iraq , \u062c\u0645\u0647\u0648\u0631\u064a\u0629 \u0627\u0644\u0639\u0631\u0627\u0642", "name": "\u0626\u06d5\u062d\u0645\u06d5\u062f\u0627\u0648\u06d5", "name:ar": "\u0623\u062d\u0645\u062f \u0622\u0648\u0629", "name:de": "Ahmad Awa", "name:en": "Ahmad Awa", "name:fr": "Ahmad Awa", "place": "village", "wikidata": "Q61382083", "wikipedia": "ckb:\u0626\u06d5\u062d\u0645\u06d5\u062f\u0626\u0627\u0648\u0627\u060c \u0686\u0648\u0627\u0631\u062a\u0627"}}, {"type": "node", "id": 2488285709, "lat": 35.7577769, "lon": 45.6177953, "tags": {"name": "\u0626\u0627\u06b5\u06d5\u06a9", "name:ar": "\u0622\u0644\u0643", "name:ckb": "\u0626\u0627\u06b5\u06d5\u06a9", "name:de": "Alak", "name:en": "Alak", "name:fr": "Alak", "name:ku": "Allek", "place": "village", "wikidata": "Q61382448", "wikipedia": "ckb:\u0626\u0627\u06b5\u06d5\u06a9"}}, {"type": "node", "id": 2488285720, "lat": 35.7775, "lon": 45.588333, "tags": {"is_in": "Iraq , \u062c\u0645\u0647\u0648\u0631\u064a\u0629 \u0627\u0644\u0639\u0631\u0627\u0642", "name": "\u0628\u06d5\u06cc\u0627\u0646\u0627\u0646", "name:ar": "\u0628\u064a\u064a\u0627\u0646\u0627\u0646", "name:ar1": "\u0628\u064a\u064a\u0627\u0646\u0627\u0646", "name:de": "Bayanan", "name:en": "Bayanan", "name:fr": "Bayanan", "place": "village", "wikidata": "Q61381858", "wikipedia": "ckb:\u0628\u06d5\u06cc\u0627\u0646\u0627\u0646"}}, {"type": "node", "id": 2488285723, "lat": 35.8554329, "lon": 45.5952138, "tags": {"is_in": "Iraq , \u062c\u0645\u0647\u0648\u0631\u064a\u0629 \u0627\u0644\u0639\u0631\u0627\u0642", "name": "\u0628\u06ce\u0648\u0631\u06ce", "name:ar": "\u0628\u064a\u0648\u0631\u064a", "name:ar1": "\u0628\u064a\u0648\u0631\u0629", "name:de": "Baywirah", "name:en": "Bewrei", "name:fr": "Baywirah", "place": "village", "wikidata": "Q61382743", "wikipedia": "ckb:\u0628\u06ce\u0648\u0631\u06ce"}}, {"type": "node", "id": 2488285732, "lat": 35.6973594, "lon": 45.5927167, "tags": {"alt_name": "\u0628\u0646\u0627\u0648\u064a\u0644\u0629", "int_name": "Bin\u0101f\u012bl\u0101, Bin\u0101f\u012blah, Binavila, Bin\u0101w\u012bla, Bnaweela, Bn\u0101w\u012blah, \u0628\u0646\u0627\u0648\u064a\u0644\u0629, Binafila, Binafilah, Binavila, Binawila, Bnaweela, Bnawilah, \u0628\u0646\u0627\u0648\u064a\u0644\u0629", "is_in": "Iraq , \u062c\u0645\u0647\u0648\u0631\u064a\u0629 \u0627\u0644\u0639\u0631\u0627\u0642", "name": "\u0628\u0646\u0627\u0648\u06cc\u0644\u06d5\u06cc \u0686\u0648\u0627\u0631\u062a\u0627", "name:ar": "\u0628\u0646\u0627\u0648\u064a\u0644\u0629", "name:ar1": "\u0628\u0646\u0627\u0648\u064a\u0644\u0629", "name:de": "Bnawila", "name:en": "Bnawila", "name:fr": "Bnawila", "place": "village", "wikidata": "Q61381855", "wikipedia": "ckb:\u0628\u0646\u0627\u0648\u06cc\u0644\u06d5\u06cc \u0686\u0648\u0627\u0631\u062a\u0627"}}, {"type": "node", "id": 2488285789, "lat": 35.7379121, "lon": 45.6072149, "tags": {"alt_name": "\u0642\u0648\u062e\u064a \u0645\u062d\u064a \u0627\u0644\u062f\u064a\u0646", "int_name": "Qokhe Mhedin, Q\u016bkh\u012b Mu\u1e29\u012b ad D\u012bn, \u0642\u0648\u062e\u064a \u0645\u062d\u064a \u0627\u0644\u062f\u064a\u0646, Qokhe Mhedin, Qukhi Muhi ad Din, \u0642\u0648\u062e\u064a \u0645\u062d\u064a \u0627\u0644\u062f\u064a\u0646", "is_in": "Iraq , \u062c\u0645\u0647\u0648\u0631\u064a\u0629 \u0627\u0644\u0639\u0631\u0627\u0642", "name": "\u0686\u0646\u0627\u0631\u06d5", "name:ar": "\u062c\u0646\u0627\u0631\u0629", "name:ar1": "\u062c\u0646\u0627\u0631\u0629;\u0642\u0648\u062e\u064a \u0645\u062d\u064a \u0627\u0644\u062f\u064a\u0646", "name:de": "Chnara", "name:en": "Chnara", "name:fr": "Chnara", "place": "village", "wikidata": "Q61381892", "wikipedia": "ckb:\u0686\u0646\u0627\u0631\u06d5\u06cc \u0686\u0648\u0627\u0631\u062a\u0627"}}, {"type": "node", "id": 2488285794, "lat": 35.6522694, "lon": 45.6179422, "tags": {"is_in": "Iraq , \u062c\u0645\u0647\u0648\u0631\u064a\u0629 \u0627\u0644\u0639\u0631\u0627\u0642", "name": "\u062f\u06c6\u06b5\u06d5\u062a\u0648\u0648", "name:ar": "\u062f\u0648\u0644\u0629 \u062a\u0648", "name:ar1": "\u062f\u0648\u0644\u0629 \u062a\u0648", "name:de": "Dola Tu", "name:en": "Dola Tu", "name:fr": "Dola Tu", "place": "village", "wikidata": "Q61382084", "wikipedia": "ckb:\u062f\u06c6\u06b5\u06d5\u062a\u0648\u0648"}}, {"type": "node", "id": 2488285801, "lat": 35.750208, "lon": 45.5833843, "tags": {"is_in": "Iraq , \u062c\u0645\u0647\u0648\u0631\u064a\u0629 \u0627\u0644\u0639\u0631\u0627\u0642", "name": "\u06af\u06d5\u0646\u06a9\u06ce", "name:ar": "\u0643\u0627\u0646\u0643\u064a", "name:ar1": "\u0643\u0627\u0646\u0643\u0629", "name:de": "Ganke", "name:en": "Ganke", "name:fr": "Ganke", "place": "village", "wikidata": "Q61382011", "wikipedia": "ckb:\u06af\u06d5\u0646\u06a9\u06ce"}}, {"type": "node", "id": 2488285812, "lat": 35.6798071, "lon": 45.5803174, "tags": {"alt_name": "\u064a\u0627\u0648\u064a\u0644\u0629", "int_name": "Y\u0101w\u012blah, \u064a\u0627\u0648\u064a\u0644\u0629, Yawilah, \u064a\u0627\u0648\u064a\u0644\u0629", "is_in": "Iraq , \u062c\u0645\u0647\u0648\u0631\u064a\u0629 \u0627\u0644\u0639\u0631\u0627\u0642", "name": "\u06be\u06d5\u0631\u0645\u0646", "name:ar": "\u06be\u0631\u0645\u0646", "name:ar1": "\u0647\u0631\u0645\u0646;\u064a\u0627\u0648\u064a\u0644\u0629", "name:de": "Harmn", "name:en": "Harmn", "name:fr": "Harmn", "place": "village", "wikidata": "Q61382274", "wikipedia": "ckb:\u06be\u06d5\u0631\u0645\u0646"}}, {"type": "node", "id": 2488285815, "lat": 35.7881733, "lon": 45.5795509, "tags": {"is_in": "Iraq , \u062c\u0645\u0647\u0648\u0631\u064a\u0629 \u0627\u0644\u0639\u0631\u0627\u0642", "name": "\u06a9\u06d5\u0646\u0627\u0631\u0648\u06ce", "name:ar": "\u0643\u0646\u0627\u0631\u0648", "name:ar1": "\u0643\u0646\u0627\u0631\u0648", "name:de": "Kanaru", "name:en": "Kanaru", "name:fr": "Kanaru", "name:ku": "\u06a9\u06d5\u0646\u0627\u0631\u0648", "place": "village", "wikidata": "Q61381996", "wikipedia": "ckb:\u06a9\u06d5\u0646\u0627\u0631\u0648\u06ce"}}, {"type": "node", "id": 2488285844, "lat": 35.6718691, "lon": 45.5548944, "tags": {"is_in": "Iraq , \u062c\u0645\u0647\u0648\u0631\u064a\u0629 \u0627\u0644\u0639\u0631\u0627\u0642", "name": "\u06a9\u0627\u0646\u06cc \u0648\u06d5\u06cc\u0633\u06d5", "name:ar": "\u0643\u0627\u0646\u064a \u0648\u064a\u0633\u0629", "name:ar1": "\u0643\u0627\u0646\u064a \u0648\u064a\u0633\u0629", "name:de": "Kani Waisa", "name:en": "Kani Waisa", "name:fr": "Kani Waisa", "place": "village", "wikidata": "Q61382242", "wikipedia": "ckb:\u06a9\u0627\u0646\u06cc \u0648\u06d5\u06cc\u0633\u06d5"}}, {"type": "node", "id": 2488285904, "lat": 35.7649464, "lon": 45.5688628, "tags": {"is_in": "Iraq , \u062c\u0645\u0647\u0648\u0631\u064a\u0629 \u0627\u0644\u0639\u0631\u0627\u0642", "name": "\u06a9\u06cc\u0633\u06d5\u06b5\u0627\u0648\u06d5", "name:ar": "\u0643\u064a\u0633\u0644\u0627\u0648\u0629", "name:ar1": "\u0643\u064a\u0633\u0644\u0627\u0648\u0629", "name:de": "Kisalawa", "name:en": "Kisalawa", "name:fr": "Kisalawa", "place": "village", "wikidata": "Q61382005", "wikipedia": "ckb:\u06a9\u06cc\u0633\u06d5\u06b5\u0627\u0648\u0627"}}, {"type": "node", "id": 2488285918, "lat": 35.7400919, "lon": 45.6171618, "tags": {"alt_name": "\u0643\u0648\u062e \u0645\u062d\u064a\u062f", "int_name": "K\u014dkh i Mu\u1e29\u012bad, Kokh i Muhiad", "is_in": "Iraq, \u062c\u0645\u0647\u0648\u0631\u064a\u0629 \u0627\u0644\u0639\u0631\u0627\u0642", "name": "\u0642\u06c6\u062e\u06cc \u0645\u062d\u06ce\u062f\u06cc\u0646", "name:ar": "\u0643\u0648\u062e\u06cc \u0645\u062d\u064a \u0627\u0644\u062f\u064a\u0646 ( \u0686\u0646\u0627\u0631\u06ce)", "name:ar1": "\u0643\u0648\u062e \u0645\u062d\u064a\u062f", "name:de": "Kokh i Muhiad", "name:en": "Kokh i Muhiad", "name:fr": "Kokh i Muhiad", "place": "village"}}, {"type": "node", "id": 2488285927, "lat": 35.7407938, "lon": 45.5499295, "tags": {"alt_name": "\u0645\u064a\u0643\u0648\u0643\u0627\u0646", "int_name": "Mekukah, M\u0113k\u016bk\u0101n, Mekwkan, M\u012bk\u016bk\u0101n, \u0645\u064a\u0643\u0648\u0643\u0627\u0646, Mekukah, Mekukan, Mekwkan, Mikukan, \u0645\u064a\u0643\u0648\u0643\u0627\u0646", "is_in": "Iraq , \u062c\u0645\u0647\u0648\u0631\u064a\u0629 \u0627\u0644\u0639\u0631\u0627\u0642", "name": "\u0645\u06ce\u06a9\u06c6\u06a9\u0627\u0646", "name:ar": "\u0645\u064a\u0643\u0648\u0643\u0627\u0646", "name:ar1": "\u0645\u064a\u0643\u0648\u0643\u0627\u0646", "name:de": "Mekukah", "name:en": "Mekukah", "name:fr": "Mekukah", "place": "village", "wikidata": "Q61382050", "wikipedia": "ckb:\u0645\u06ce\u06a9\u06c6\u06a9\u0627\u0646"}}, {"type": "node", "id": 2488285937, "lat": 35.8184244, "lon": 45.6188342, "tags": {"is_in": "Iraq , \u062c\u0645\u0647\u0648\u0631\u064a\u0629 \u0627\u0644\u0639\u0631\u0627\u0642", "name": "\u067e\u06cc\u0631\u06ce\u0633\u06a9", "name:ar": "\u0628\u064a\u0631 \u064a\u0633\u0643", "name:ar1": "\u0628\u064a\u0631 \u0628\u064a\u0633\u0643", "name:de": "Piresk", "name:en": "Piresk", "name:fr": "Piresk", "place": "village", "wikidata": "Q61382944", "wikipedia": "ckb:\u067e\u06cc\u0631\u06ce\u0633\u06a9"}}, {"type": "node", "id": 2488285939, "lat": 35.6985692, "lon": 45.5423233, "tags": {"name": "\u0642\u06d5\u06b5\u0627\u0686\u0648\u0627\u0644\u0627\u0646", "name:ar": "\u0642\u0644\u0627\u062c\u0648\u0627\u0644\u0627\u0646", "name:ckb": "\u0642\u06d5\u06b5\u0627\u0686\u0648\u0627\u0644\u0627\u0646", "name:de": "Qalachwalan", "name:en": "Qalachwalan", "name:fr": "Qalachwalan", "name:ku": "Qella\u00e7iwalan", "place": "village", "wikidata": "Q21609144", "wikipedia": "ckb:\u0642\u06d5\u06b5\u0627\u0686\u0648\u0627\u0644\u0627\u0646"}}, {"type": "node", "id": 2488285944, "lat": 35.7719243, "lon": 45.6165473, "tags": {"is_in": "Iraq , \u062c\u0645\u0647\u0648\u0631\u064a\u0629 \u0627\u0644\u0639\u0631\u0627\u0642", "name": "\u0642\u06c6\u062e\u06cc \u0628\u0627\u0628\u06d5 \u0634\u06ce\u062e", "name:ar": "\u0642\u0648\u062e\u064a \u0628\u0627\u0628\u0629 \u0634\u064a\u062e\u064a", "name:ar1": "\u0642\u0648\u062e\u064a \u0634\u064a\u062e\u064a", "name:de": "Qokhi Baba Shekh", "name:en": "Qokhi Baba Shekh", "name:fr": "Qokhi Baba Shekh", "place": "village", "wikidata": "Q61383062", "wikipedia": "ckb:\u0642\u06c6\u062e\u06cc \u0628\u0627\u0628\u06d5\u0634\u06ce\u062e"}}, {"type": "node", "id": 2488285971, "lat": 35.6906846, "lon": 45.5720485, "tags": {"alt_name": "\u0633\u0627\u0645\u0627\u0646", "int_name": "S\u0101m\u0101n, \u0633\u0627\u0645\u0627\u0646, Saman, \u0633\u0627\u0645\u0627\u0646", "is_in": "Iraq , \u062c\u0645\u0647\u0648\u0631\u064a\u0629 \u0627\u0644\u0639\u0631\u0627\u0642", "name": "\u0633\u0627\u0645\u0627\u0646", "name:ar": "\u0633\u0627\u0645\u0627\u0646", "name:ar1": "\u0633\u0627\u0645\u0627\u0646", "name:de": "Saman", "name:en": "Saman", "name:fr": "Saman", "place": "village", "wikidata": "Q61381940", "wikipedia": "ckb:\u0633\u0627\u0645\u0627\u0646\u060c \u0634\u0627\u0631\u0628\u0627\u0698\u06ce\u0695"}}, {"type": "node", "id": 2488285978, "lat": 35.8152698, "lon": 45.5836138, "tags": {"alt_name": "\u0633\u0631\u0645\u0627\u0646\u062f;\u0643\u0627\u0646\u064a \u0634\u0648\u0627\u0646;\u0643\u0627\u0646\u064a \u0634\u0648\u0646", "int_name": "Sarm\u0101nd, \u0633\u0631\u0645\u0627\u0646\u062f, Sarmand, \u0633\u0631\u0645\u0627\u0646\u062f;K\u0101n\u012b Shuw\u0101n, \u0643\u0627\u0646\u064a \u0634\u0648\u0627\u0646, Kani Shuwan, \u0643\u0627\u0646\u064a \u0634\u0648\u0627\u0646;Kani Shwan, Kani Shwan", "is_in": "Iraq , \u062c\u0645\u0647\u0648\u0631\u064a\u0629 \u0627\u0644\u0639\u0631\u0627\u0642", "name": "\u06a9\u0627\u0646\u06cc \u0634\u0648\u0627\u0646", "name:ar": "\u06a9\u0627\u0646\u06cc \u0634\u0648\u0627\u0646", "name:ar1": "\u0633\u0631\u0645\u0627\u0646\u062f;\u0643\u0627\u0646\u064a \u0634\u0648\u0627\u0646;\u0643\u0627\u0646\u064a \u0634\u0648\u0646", "name:de": "Kani Shwan", "name:en": "Kani Shwan", "name:fr": "Kani Shwan", "place": "village", "wikidata": "Q61382828", "wikipedia": "ckb:\u06a9\u0627\u0646\u06cc \u0634\u0648\u0627\u0646"}}, {"type": "node", "id": 2488285980, "lat": 35.828116, "lon": 45.6032033, "tags": {"alt_name": "\u0633\u064a\u0648\u0646\u0643", "int_name": "Saywak, Saywang, Sewang, \u0633\u064a\u0648\u0643, \u0633\u064a\u0648\u0646\u06af, Saywak, Saywang, Sewang, \u0633\u064a\u0648\u0643, \u0633\u064a\u0648\u0646\u06af", "is_in": "Iraq , \u062c\u0645\u0647\u0648\u0631\u064a\u0629 \u0627\u0644\u0639\u0631\u0627\u0642", "name": "\u0633\u06ce\u0648\u0646\u06af", "name:ar": "\u0633\u064a\u0648\u0646\u0643", "name:ar1": "\u0633\u064a\u0648\u0646\u0643", "name:de": "Sewng", "name:en": "Sewng", "name:fr": "Sewng", "place": "village"}}, {"type": "node", "id": 2488285987, "lat": 35.6851224, "lon": 45.6072567, "tags": {"alt_name": "\u0634\u064a\u0631\u0648\u064a\u0632\u0629", "int_name": "Sherawazha, Sh\u0113raw\u0113za, Sh\u012brawayzah, \u0634\u064a\u0631\u0648\u064a\u0632\u0647, Sherawazha, Sheraweza, Shirawayzah, \u0634\u064a\u0631\u0648\u064a\u0632\u0647", "is_in": "Iraq , \u062c\u0645\u0647\u0648\u0631\u064a\u0629 \u0627\u0644\u0639\u0631\u0627\u0642", "name": "\u0634\u06cc\u0631\u0627\u0648\u06ce\u0698\u06d5", "name:ar": "\u0634\u064a\u0631\u0648\u064a\u0632\u0629", "name:ar1": "\u0634\u064a\u0631\u0648\u064a\u0632\u0629", "name:de": "Sherawazha", "name:en": "Sherawazha", "name:fr": "Sherawazha", "place": "village", "wikidata": "Q61382118", "wikipedia": "ckb:\u0634\u06cc\u0631\u0627\u0648\u06ce\u0698\u06d5"}}, {"type": "node", "id": 2488285994, "lat": 35.7670951, "lon": 45.5923654, "tags": {"is_in": "Iraq , \u062c\u0645\u0647\u0648\u0631\u064a\u0629 \u0627\u0644\u0639\u0631\u0627\u0642", "name": "\u0633\u0646\u062c\u06d5\u06b5\u06ce", "name:ar": "\u0633\u0646\u062c\u0644\u0629", "name:ar1": "\u0633\u0646\u062c\u0644\u0629", "name:de": "Sinjala", "name:en": "Sinjala", "name:fr": "Sinjala", "place": "village", "wikidata": "Q61381957", "wikipedia": "ckb:\u0633\u0646\u062c\u06d5\u06b5\u06ce"}}, {"type": "node", "id": 2488285995, "lat": 35.776548, "lon": 45.6033584, "tags": {"is_in": "Iraq , \u062c\u0645\u0647\u0648\u0631\u064a\u0629 \u0627\u0644\u0639\u0631\u0627\u0642", "name": "\u0633\u06cc\u0627\u0648\u06d5\u0634\u0627\u0646", "name:ar": "\u0633\u064a\u0629 \u0648\u0647\u0634", "name:ar1": "\u0633\u064a\u0629 \u0648\u0647\u0634", "name:de": "Siya Wahash", "name:en": "Siya Wahash", "name:fr": "Siya Wahash", "place": "village", "wikidata": "Q61383045", "wikipedia": "ckb:\u0633\u06cc\u0627\u0648\u06d5\u0634\u0627\u0646"}}, {"type": "node", "id": 2488290558, "lat": 35.6821808, "lon": 45.5089205, "tags": {"is_in": "Iraq , \u062c\u0645\u0647\u0648\u0631\u064a\u0629 \u0627\u0644\u0639\u0631\u0627\u0642", "name": "\u0628\u0627\u0632\u06d5\u06af\u06cc\u0631", "name:ar": "\u0628\u0627\u0632\u06a9\u06cc\u0631", "name:ar1": "\u0628\u0627\u0632\u062c\u064a", "name:de": "Baza Geer", "name:en": "Baza Geer", "name:fr": "Baza Geer", "place": "village", "wikidata": "Q61382090", "wikipedia": "ckb:\u0628\u0627\u0632\u06d5\u06af\u06cc\u0631"}}, {"type": "node", "id": 2488290688, "lat": 35.7184694, "lon": 45.5087114, "tags": {"is_in": "Iraq , \u062c\u0645\u0647\u0648\u0631\u064a\u0629 \u0627\u0644\u0639\u0631\u0627\u0642", "name": "\u062f\u0695\u06d5\u06b5\u06d5\u06cc \u062d\u0627\u062c\u06cc", "name:ar": "\u062f\u0631\u0644\u0629 \u062d\u0627\u062c\u064a", "name:ar1": "\u062f\u0631\u0644\u0629", "name:de": "Darala Haji", "name:en": "Darala Haji", "name:fr": "Darala Haji", "place": "village", "wikidata": "Q61381929", "wikipedia": "ckb:\u062f\u0695\u06d5\u06b5\u06d5\u06cc \u062d\u0627\u062c\u06cc"}}, {"type": "node", "id": 2488290709, "lat": 35.7008549, "lon": 45.4994651, "tags": {"is_in": "Iraq , \u062c\u0645\u0647\u0648\u0631\u064a\u0629 \u0627\u0644\u0639\u0631\u0627\u0642", "name": "\u06af\u06d5\u0646\u06a9\u0627\u0648\u06d5", "name:ar": "\u0643\u0646\u0643\u0627\u0648\u0629", "name:ar1": "\u0643\u0646\u0643\u0627\u0648\u0629", "name:de": "Gankaw", "name:en": "Gankaw", "name:fr": "Gankaw", "place": "village", "wikidata": "Q61382269", "wikipedia": "ckb:\u06af\u06d5\u0646\u06a9\u0627\u0648\u0627"}}, {"type": "node", "id": 2488290826, "lat": 35.7116567, "lon": 45.5321657, "tags": {"alt_name": "\u0634\u0645\u0633 \u0627\u0648\u0629 \u0627\u0644\u0642\u062f\u064a\u0645", "ele": "920", "int_name": "Shams \u0100wah al Qad\u012bm, Shamsawa, Shams\u0101wa, Shams\u0101wah, \u0634\u0645\u0633 \u0627\u0648\u0629 \u0627\u0644\u0642\u062f\u064a\u0645, Shams Awah al Qadim, Shamsawa, Shamsawa, Shamsawah, \u0634\u0645\u0633 \u0627\u0648\u0629 \u0627\u0644\u0642\u062f\u064a\u0645", "is_in": "Iraq , \u062c\u0645\u0647\u0648\u0631\u064a\u0629 \u0627\u0644\u0639\u0631\u0627\u0642", "name": "\u0634\u06d5\u0645\u0633\u0627\u0648\u0627", "name:ar": "\u0634\u0645\u0633 \u0627\u0648\u0629", "name:ar1": "\u0634\u0645\u0633 \u0627\u0648\u0629 \u0627\u0644\u0642\u062f\u064a\u0645", "name:de": "Shamsawa", "name:en": "Shamsawa", "name:fr": "Shamsawa", "place": "village", "wikidata": "Q61381973", "wikipedia": "ckb:\u0634\u06d5\u0645\u0633\u0627\u0648\u0627"}}, {"type": "node", "id": 2488290839, "lat": 35.6744489, "lon": 45.5303903, "tags": {"is_in": "Iraq , \u062c\u0645\u0647\u0648\u0631\u064a\u0629 \u0627\u0644\u0639\u0631\u0627\u0642", "name": "\u062a\u06d5\u06af\u06d5\u0631\u0627\u0646", "name:ar": "\u062a\u0643\u062f\u0631\u0627\u0646", "name:ar1": "\u062a\u0643\u062f\u0631\u0627\u0646", "name:de": "Tagaran", "name:en": "Tagaran", "name:fr": "Tagaran", "place": "village"}}, {"type": "node", "id": 2488291473, "lat": 35.8355423, "lon": 45.4680188, "tags": {"alt_name": "\u0623\u0645\u0627\u062f\u064a\u0646;\u0645\u0627\u0648\u064a\u0646", "int_name": "Amadin, \u0100mad\u012bn, Amadin, Amadin;M\u0101w\u012bn, \u0645\u0627\u0648\u064a\u0646, Mawin, \u0645\u0627\u0648\u064a\u0646", "is_in": "Iraq , \u062c\u0645\u0647\u0648\u0631\u064a\u0629 \u0627\u0644\u0639\u0631\u0627\u0642", "name": "\u0626\u0627\u0645\u0627\u062f\u06cc\u0646", "name:ar": "\u0623\u0645\u0627\u062f\u064a\u0646", "name:ar1": "\u0623\u0645\u0627\u062f\u064a\u0646;\u0645\u0627\u0648\u064a\u0646", "name:de": "Amadin", "name:en": "Amadin", "name:fr": "Amadin", "place": "village", "wikidata": "Q61381075", "wikipedia": "ckb:\u0626\u0627\u0645\u0627\u062f\u06cc\u0646"}}, {"type": "node", "id": 2488291496, "lat": 35.75, "lon": 45.531111, "tags": {"is_in": "Iraq , \u062c\u0645\u0647\u0648\u0631\u064a\u0629 \u0627\u0644\u0639\u0631\u0627\u0642", "name": "\u0628\u06d5\u0631\u062f\u06d5 \u0632\u06d5\u0631\u062f", "name:ar": "\u0628\u0631\u062f\u0629 \u0632\u0631\u062f", "name:ar1": "\u0628\u0631\u062f\u0629 \u0632\u0631\u062f", "name:de": "Barda Zard", "name:en": "Barda Zard", "name:fr": "Barda Zard", "place": "village", "wikidata": "Q61381850", "wikipedia": "ckb:\u0628\u06d5\u0631\u062f\u06d5\u0632\u06d5\u0631\u062f\u060c \u0634\u0627\u0631\u0628\u0627\u0698\u06ce\u0695"}}, {"type": "node", "id": 2488291509, "lat": 35.7850795, "lon": 45.4877496, "tags": {"alt_name": "\u0628\u062a\u0648\u0627\u062a\u0627", "int_name": "Betwata, B\u0113tw\u0101tah, Bitw\u0101t\u0101, \u0628\u062a\u0648\u0627\u062a\u0627, Betwata, Betwatah, Bitwata, \u0628\u062a\u0648\u0627\u062a\u0627", "is_in": "Iraq , \u062c\u0645\u0647\u0648\u0631\u064a\u0629 \u0627\u0644\u0639\u0631\u0627\u0642", "name": "\u0628\u06ce\u062a\u0648\u0627\u062a", "name:ar": "\u0628\u06cc\u062a\u0648\u0627\u062a", "name:ar1": "\u0628\u062a\u0648\u0627\u062a\u0627", "name:de": "Betwat", "name:en": "Betwat", "name:fr": "Betwat", "place": "village", "wikidata": "Q61381880", "wikipedia": "ckb:\u0628\u06ce\u062a\u0648\u0627\u062a"}}, {"type": "node", "id": 2488291532, "lat": 35.7976872, "lon": 45.4819791, "tags": {"alt_name": "\u062f\u0627\u0631 \u0645\u062d\u0645\u062f \u0639\u0632\u064a\u0632", "int_name": "D\u0101r Mu\u1e29ammad Az\u012bz, \u062f\u0627\u0631 \u0645\u062d\u0645\u062f \u0639\u0632\u064a\u0632, Dar Muhammad Aziz, \u062f\u0627\u0631 \u0645\u062d\u0645\u062f \u0639\u0632\u064a\u0632", "is_in": "Iraq , \u062c\u0645\u0647\u0648\u0631\u064a\u0629 \u0627\u0644\u0639\u0631\u0627\u0642", "name": "\u0633\u06d5\u0631\u06a9\u06d5\u0646\u062f", "name:ar": "\u0633\u0631\u06a9\u0646\u062f", "name:ar1": "\u062f\u0627\u0631 \u0645\u062d\u0645\u062f \u0639\u0632\u064a\u0632", "name:de": "Sarkand", "name:en": "Sarkand", "name:fr": "Sarkand", "place": "village", "wikidata": "Q61381327", "wikipedia": "ckb:\u0633\u06d5\u0631\u06a9\u06d5\u0646\u062f"}}, {"type": "node", "id": 2488291533, "lat": 35.871658, "lon": 45.5280336, "tags": {"alt_name": "\u062f\u0631\u0629 \u0628\u0646;\u062f\u0631\u0628\u0646", "int_name": "Dara Ban, Dara Ban;Daraban, Daraban", "is_in": "Iraq , \u062c\u0645\u0647\u0648\u0631\u064a\u0629 \u0627\u0644\u0639\u0631\u0627\u0642", "name": "\u062f\u0627\u0631\u06d5\u0628\u06d5\u0646", "name:ar": "\u062f\u0627\u0631\u0629\u0628\u0646", "name:ar1": "\u062f\u0631\u0629 \u0628\u0646;\u062f\u0631\u0628\u0646", "name:de": "Dara Ban", "name:en": "Dara Ban", "name:fr": "Dara Ban", "place": "village", "wikidata": "Q61381212", "wikipedia": "ckb:\u062f\u0627\u0631\u06d5\u0628\u06d5\u0646\u060c \u0645\u0627\u0648\u06d5\u062a"}}, {"type": "node", "id": 2488291537, "lat": 35.9933896, "lon": 45.4869605, "tags": {"alt_name": "\u062f\u0634\u062a\u06cc", "int_name": "Dasht\u012b, Dashty, \u062f\u0634\u062a\u064a, Dashti, Dashty, \u062f\u0634\u062a\u064a", "is_in": "Iraq , \u062c\u0645\u0647\u0648\u0631\u064a\u0629 \u0627\u0644\u0639\u0631\u0627\u0642", "name": "\u062f\u06d5\u0634\u062a\u06ce", "name:ar": "\u062f\u0634\u062a\u064a", "name:ar1": "\u062f\u0634\u062a\u064a", "name:de": "Dashti", "name:en": "Dashti", "name:fr": "Dashti", "place": "village", "wikidata": "Q61381613", "wikipedia": "ckb:\u062f\u06d5\u0634\u062a\u06ce"}}, {"type": "node", "id": 2488291541, "lat": 35.8718247, "lon": 45.5801641, "tags": {"alt_name": "\u0643\u0648\u0645\u0644\u064a", "int_name": "\u06af\u0648\u0645\u0644\u064a, \u06af\u0648\u0645\u0644\u064a", "is_in": "Iraq , \u062c\u0645\u0647\u0648\u0631\u064a\u0629 \u0627\u0644\u0639\u0631\u0627\u0642", "name": "\u06af\u06c6\u0645\u06b5\u06ce", "name:ar": "\u06a9\u0648\u0645\u0644\u06cc", "name:ar1": "\u0643\u0648\u0645\u0627\u0644\u064a;\u0643\u0648\u0645\u0644\u064a", "name:de": "Gomle", "name:en": "Gomle", "name:fr": "Gomle", "place": "village", "tourism": "viewpoint", "wikidata": "Q61382853", "wikipedia": "ckb:\u06af\u06c6\u0645\u06b5\u06ce"}}, {"type": "node", "id": 2488291542, "lat": 35.8158298, "lon": 45.5316183, "tags": {"alt_name": "\u0643\u0648\u0631\u0646\u0643\u0629", "int_name": "Gawr\u0101ngah, Goranga, G\u014dr\u0101ng\u0101, Kawrankah, \u0643\u0648\u0631\u0646\u0643\u0629, \u06af\u0648\u0631\u0627\u0646\u06af\u0629, Gawrangah, Goranga, Goranga, Kawrankah, \u0643\u0648\u0631\u0646\u0643\u0629, \u06af\u0648\u0631\u0627\u0646\u06af\u0629", "is_in": "Iraq , \u062c\u0645\u0647\u0648\u0631\u064a\u0629 \u0627\u0644\u0639\u0631\u0627\u0642", "name": "\u06af\u06c6\u0695\u0627\u0646\u06af\u06d5", "name:ar": "\u0643\u0648\u0631\u0646\u0643\u0629", "name:ar1": "\u0643\u0648\u0631\u0646\u0643\u0629", "name:de": "Goranka", "name:en": "Goranka", "name:fr": "Goranka", "place": "village", "wikidata": "Q61382046", "wikipedia": "ckb:\u06af\u06c6\u0695\u0627\u0646\u06af\u06d5"}}, {"type": "node", "id": 2488291543, "lat": 35.8085066, "lon": 45.5231175, "tags": {"alt_name": "\u0643\u0631\u062f\u0629 \u0632\u0628\u064a\u0631", "int_name": "Girda Zubayr, Grda Zubair, Girda Zubayr, Grda Zubair", "is_in": "Iraq , \u062c\u0645\u0647\u0648\u0631\u064a\u0629 \u0627\u0644\u0639\u0631\u0627\u0642", "name": "\u06af\u0631\u062f\u06d5\u0632\u0628\u06ce\u0631", "name:ar": "\u0643\u0631\u062f\u0629 \u0632\u0628\u064a\u0631", "name:ar1": "\u0643\u0631\u062f\u0629 \u0632\u0628\u064a\u0631", "name:de": "Girda Zubayr", "name:en": "Girda Zubayr", "name:fr": "Girda Zubayr", "place": "village", "wikidata": "Q61382020", "wikipedia": "ckb:\u06af\u0631\u062f\u06d5\u0632\u0628\u06ce\u0631"}}, {"type": "node", "id": 2488291544, "lat": 35.9838228, "lon": 45.4858272, "tags": {"name": "\u06a9\u0627\u0646\u06cc \u062e\u06ce\u06b5", "name:ar": "\u06a9\u0627\u0646\u064a \u062e\u06cc\u0644", "name:en": "Kani Khel", "place": "village", "wikidata": "Q61381617", "wikipedia": "ckb:\u06a9\u0627\u0646\u06cc \u062e\u06ce\u06b5"}}, {"type": "node", "id": 2488291545, "lat": 35.9933143, "lon": 45.5032346, "tags": {"name": "\u06af\u0631\u06af\u0627\u0634\u06ce", "place": "village"}}, {"type": "node", "id": 2488291546, "lat": 35.7063443, "lon": 45.4828275, "tags": {"is_in": "Iraq , \u062c\u0645\u0647\u0648\u0631\u064a\u0629 \u0627\u0644\u0639\u0631\u0627\u0642", "name": "\u0647\u06c6\u0645\u0631\u0627\u062e", "name:ar": "\u0647\u0648\u0645\u0631\u0627\u063a", "name:ar1": "\u0647\u0648\u0645\u0631\u0627\u063a", "name:de": "Hawmragh", "name:en": "Hawmragh", "name:fr": "Hawmragh", "place": "village"}}, {"type": "node", "id": 2488291553, "lat": 35.9315159, "lon": 45.4748583, "tags": {"name": "\u062e\u0645\u0627\u0646\u06d5", "name:ar": "\u062e\u0645\u0627\u0646\u0629", "name:en": "Khmana", "place": "village", "wikidata": "Q61381197", "wikipedia": "ckb:\u062e\u0645\u0627\u0646\u06d5"}}, {"type": "node", "id": 2488291555, "lat": 35.905794, "lon": 45.5311023, "tags": {"alt_name": "\u0643\u0631\u0634\u0643\u0631\u0629", "int_name": "Kirshakrah, Krshakra, \u0643\u0631\u0634\u0643\u0631\u0647, Kirshakrah, Krshakra, \u0643\u0631\u0634\u0643\u0631\u0647", "is_in": "Iraq , \u062c\u0645\u0647\u0648\u0631\u064a\u0629 \u0627\u0644\u0639\u0631\u0627\u0642", "name": "\u0634\u06d5\u06a9\u0631\u0627\u0648", "name:ar": "\u0634\u06a9\u0631\u0627\u0648", "name:ar1": "\u0643\u0631\u0634\u0643\u0631\u0629", "name:de": "Shakraw", "name:en": "Shakraw", "name:fr": "Shakraw", "place": "village", "wikidata": "Q61381370", "wikipedia": "ckb:\u0634\u06d5\u06a9\u0631\u0627\u0648\u060c \u0645\u0627\u0648\u06d5\u062a"}}, {"type": "node", "id": 2488291557, "lat": 35.8146747, "lon": 45.4852419, "tags": {"alt_name": "\u0643\u0648\u062c\u0631\u064a\u0646;\u0643\u0648\u0646\u062c\u0631\u064a\u0646", "int_name": "K\u016bjir\u012bn, \u0643\u0648\u062c\u0631\u064a\u0646, Kujirin, \u0643\u0648\u062c\u0631\u064a\u0646;K\u016bnjir\u012bn, \u0643\u0648\u0646\u062c\u0631\u064a\u0646, Kunjirin, \u0643\u0648\u0646\u062c\u0631\u064a\u0646", "is_in": "Iraq , \u062c\u0645\u0647\u0648\u0631\u064a\u0629 \u0627\u0644\u0639\u0631\u0627\u0642", "name": "\u06a9\u0648\u0646\u062c\u0631\u06cc\u0646", "name:ar": "\u06a9\u0648\u0646\u062c\u0631\u06cc\u0646", "name:ar1": "\u0643\u0648\u062c\u0631\u064a\u0646;\u0643\u0648\u0646\u062c\u0631\u064a\u0646", "name:de": "Kunjrin", "name:en": "Kunjrin", "name:fr": "Kunjrin", "place": "village", "wikidata": "Q61381485", "wikipedia": "ckb:\u06a9\u0648\u0646\u062c\u0631\u06cc\u0646"}}, {"type": "node", "id": 2488291558, "lat": 35.8999384, "lon": 45.5295538, "tags": {"alt_name": "\u0642\u0648\u0644\u0629 \u0643\u0646;\u0642\u0648\u0644\u0629 \u0643\u0627\u0646\u064a", "int_name": "Kula Kani, Q\u016blah Kan, \u0642\u0648\u0644\u0629 \u0643\u0646, Kula Kani, Qulah Kan, \u0642\u0648\u0644\u0629 \u0643\u0646;Q\u016blah K\u0101n\u012b, \u0642\u0648\u0644\u0629 \u0643\u0627\u0646\u064a, Qulah Kani, \u0642\u0648\u0644\u0629 \u0643\u0627\u0646\u064a", "is_in": "Iraq , \u062c\u0645\u0647\u0648\u0631\u064a\u0629 \u0627\u0644\u0639\u0631\u0627\u0642", "name": "\u0642\u0648\u06b5\u06d5\u06a9\u0627\u0646\u06cc", "name:ar": "\u0642\u0648\u0644\u0629 \u0643\u0627\u0646\u064a", "name:ar1": "\u0642\u0648\u0644\u0629 \u0643\u0646;\u0642\u0648\u0644\u0629 \u0643\u0627\u0646\u064a", "name:de": "Kula Kani", "name:en": "Kula Kan", "name:fr": "Kula Kani", "place": "village"}}, {"type": "node", "id": 2488291560, "lat": 35.8359532, "lon": 45.4967895, "tags": {"name": "\u06a9\u0648\u0695\u06d5\u062f\u0627\u0648\u06ce\u06cc \u06af\u06d5\u0648\u0631\u06d5", "name:ar": "\u06a9\u0648\u0631\u062f\u0627\u0648\u064a \u06a9\u0628\u0631\u06cc", "name:en": "Kuradawei Big", "place": "village", "wikidata": "Q61381463", "wikipedia": "ckb:\u06a9\u0648\u0695\u06d5\u062f\u0627\u0648\u06ce\u06cc \u06af\u06d5\u0648\u0631\u06d5"}}, {"type": "node", "id": 2488291561, "lat": 35.918165, "lon": 45.476468, "tags": {"name": "\u06af\u06c6\u0695\u06ce\u0646", "name:ar": "\u06a9\u0648\u0631\u06cc\u0646", "name:en": "Goren", "place": "village", "wikidata": "Q61381540", "wikipedia": "ckb:\u06af\u06c6\u0695\u06ce\u0646"}}, {"type": "node", "id": 2488291565, "lat": 35.9876003, "lon": 45.5523506, "tags": {"is_in": "Iraq , \u062c\u0645\u0647\u0648\u0631\u064a\u0629 \u0627\u0644\u0639\u0631\u0627\u0642", "name": "\u0645\u06d5\u0631\u0648\u06ce", "name:ar": "\u0645\u0631\u0648\u064a", "name:ar1": "\u0645\u0631\u0648\u064a", "name:de": "Marwah", "name:en": "Marwah", "name:fr": "Marwah", "place": "village", "wikidata": "Q61382856", "wikipedia": "ckb:\u0645\u06d5\u0631\u0648\u06ce"}}, {"type": "node", "id": 2488291575, "lat": 35.9863128, "lon": 45.5161848, "tags": {"name": "\u0645\u0627\u0634\u0627\u0646", "name:ar": "\u0645\u0627\u0634\u0627\u0646", "name:en": "Mashan", "place": "village", "wikidata": "Q61381645", "wikipedia": "ckb:\u0645\u0627\u0634\u0627\u0646"}}, {"type": "node", "id": 2488291585, "lat": 35.8710841, "lon": 45.4846069, "tags": {"alt_name": "\u0645\u064a\u0631\u0627\u0648\u0627", "int_name": "M\u012br\u0101w\u0101, \u0645\u064a\u0631\u0627\u0648\u0627, Mirawa, \u0645\u064a\u0631\u0627\u0648\u0627", "is_in": "Iraq , \u062c\u0645\u0647\u0648\u0631\u064a\u0629 \u0627\u0644\u0639\u0631\u0627\u0642", "name": "\u0645\u064a\u0631\u0627\u0648\u0627", "name:ar": "\u0645\u064a\u0631\u0627\u0648\u0627", "name:ar1": "\u0645\u064a\u0631\u0627\u0648\u0627", "name:de": "Mirawa", "name:en": "Mirawa", "name:fr": "Mirawa", "place": "village"}}, {"type": "node", "id": 2488291606, "lat": 35.9700559, "lon": 45.4807831, "tags": {"alt_name": "\u0645\u0648\u0632\u0644;\u0643\u064a\u0648\u0632\u0629 \u0628\u064a", "int_name": "M\u016bzil, \u0645\u0648\u0632\u0644, Muzil, \u0645\u0648\u0632\u0644;Kiywzah B\u012b, \u0643\u064a\u0648\u0632\u0629 \u0628\u064a, Kiywzah Bi, \u0643\u064a\u0648\u0632\u0629 \u0628\u064a", "name": "\u06af\u0648\u06ce\u0632\u06b5\u06ce", "name:ar": "\u06a9\u0648\u06cc\u0632\u0644\u06cc", "name:ar1": "\u0645\u0648\u0632\u0644;\u0643\u064a\u0648\u0632\u0629 \u0628\u064a", "name:de": "Gwezle", "name:en": "Gwezle", "name:fr": "Gwezle", "place": "village", "wikidata": "Q61382848", "wikipedia": "ckb:\u06af\u0648\u06ce\u0632\u06b5\u06ce\u060c \u0645\u0627\u0648\u06d5\u062a"}}, {"type": "node", "id": 2488291627, "lat": 35.7504879, "lon": 45.5230504, "tags": {"alt_name": "\u0642\u0646\u0627\u0628\u064a\u0627\u0646;\u0642\u0648\u062a\u0627\u0628\u064a\u0627\u0646", "int_name": "Qan\u0101b\u012bya, Qun\u0101biy\u0101n, Qutabiyan, \u0642\u0646\u0627\u0628\u064a\u0627\u0646, Qanabiya, Qunabiyan, Qutabiyan, \u0642\u0646\u0627\u0628\u064a\u0627\u0646;Q\u016bt\u0101byan, \u0642\u0648\u062a\u0627\u0628\u064a\u0627\u0646, Qutabyan, \u0642\u0648\u062a\u0627\u0628\u064a\u0627\u0646", "is_in": "Iraq , \u062c\u0645\u0647\u0648\u0631\u064a\u0629 \u0627\u0644\u0639\u0631\u0627\u0642", "name": "\u0642\u0648\u062a\u0627\u0628\u06cc\u0627\u0646", "name:ar": "\u0642\u0648\u062a\u0627\u0628\u06cc\u0627\u0646", "name:ar1": "\u0642\u0646\u0627\u0628\u064a\u0627\u0646;\u0642\u0648\u062a\u0627\u0628\u064a\u0627\u0646", "name:de": "Qutabyan", "name:en": "Qutabyan", "name:fr": "Qutabyan", "place": "village", "wikidata": "Q61381995", "wikipedia": "ckb:\u0642\u0648\u062a\u0627\u0628\u06cc\u0627\u0646"}}, {"type": "node", "id": 2488291634, "lat": 35.9599119, "lon": 45.5827309, "tags": {"alt_name": "\u0642\u0648\u062e\u064a \u0642\u0641\u064a \u0633\u0639\u064a\u062f", "int_name": "Qawkh\u012b Qaf\u012b Sa\u012bd, \u0642\u0648\u062e\u064a \u0642\u0641\u064a \u0633\u0639\u064a\u062f, Qawkhi Qafi Said, \u0642\u0648\u062e\u064a \u0642\u0641\u064a \u0633\u0639\u064a\u062f", "is_in": "Iraq , \u062c\u0645\u0647\u0648\u0631\u064a\u0629 \u0627\u0644\u0639\u0631\u0627\u0642", "name": "\u0642\u06c6\u062e\u06cc \u0641\u06d5\u0642\u06ce \u0633\u06d5\u0639\u06cc\u062f", "name:ar": "\u0642\u0648\u062e\u064a \u0641\u0642\u064a \u0633\u0639\u064a\u062f", "name:ar1": "\u0642\u0648\u062e\u064a \u0642\u0641\u064a \u0633\u0639\u064a\u062f;\u0642\u0648\u062e\u064a \u0641\u0642\u064a \u0633\u0639\u064a\u062f", "name:de": "Qawkhi Qafi Said", "name:en": "Qawkhi Qafi Said", "name:fr": "Qawkhi Qafi Said", "place": "village", "wikidata": "Q61383108", "wikipedia": "ckb:\u0642\u06c6\u062e\u06cc \u0641\u06d5\u0642\u06ce \u0633\u06d5\u0639\u06cc\u062f"}}, {"type": "node", "id": 2488291653, "lat": 35.8821917, "lon": 45.562164, "tags": {"is_in": "Iraq , \u062c\u0645\u0647\u0648\u0631\u064a\u0629 \u0627\u0644\u0639\u0631\u0627\u0642", "name": "\u0695\u06d5\u0634\u06d5\u06a9\u0627\u0646\u06cc", "name:ar": "\u0631\u0634\u0629 \u0643\u0627\u0646\u064a", "name:ar1": "\u0631\u0634\u0629 \u0643\u0627\u0646\u064a", "name:de": "Rasha Kani", "name:en": "Rasha Kani", "name:fr": "Rasha Kani", "place": "village", "wikidata": "Q61382781", "wikipedia": "ckb:\u0695\u06d5\u0634\u06d5\u06a9\u0627\u0646\u06cc"}}, {"type": "node", "id": 2488291660, "lat": 35.8891836, "lon": 45.5087942, "tags": {"alt_name": "\u0633\u0631\u0627\u0648", "int_name": "Saraw, Sar\u0101w, \u0633\u0631\u0627\u0648, Saraw, Saraw, \u0633\u0631\u0627\u0648", "is_in": "Iraq , \u062c\u0645\u0647\u0648\u0631\u064a\u0629 \u0627\u0644\u0639\u0631\u0627\u0642", "name": "\u0633\u06d5\u0631\u0627\u0648", "name:ar": "\u0633\u0631\u0627\u0648", "name:ar1": "\u0633\u0631\u0627\u0648", "name:de": "Saraw", "name:en": "Saraw", "name:fr": "Saraw", "place": "village", "wikidata": "Q61381329", "wikipedia": "ckb:\u0633\u06d5\u0631\u0627\u0648\u060c \u0645\u0627\u0648\u06d5\u062a"}}, {"type": "node", "id": 2488291666, "lat": 35.6858315, "lon": 45.4853845, "tags": {"is_in": "Iraq , \u062c\u0645\u0647\u0648\u0631\u064a\u0629 \u0627\u0644\u0639\u0631\u0627\u0642", "name": "\u0633\u06cc\u0631\u06d5\u0645\u06ce\u0631\u06af", "name:ar": "\u0633\u064a\u0631\u0645\u064a\u0631\u0643", "name:ar1": "\u0633\u064a\u0631\u0645\u064a\u0631\u0643", "name:de": "Seramerg", "name:en": "Seramerg", "name:fr": "Seramerg", "place": "village", "wikidata": "Q61382119", "wikipedia": "ckb:\u0633\u06cc\u0631\u06d5\u0645\u06ce\u0631\u06af\u06cc \u0634\u0627\u0631\u0628\u0627\u0698\u06ce\u0695"}}, {"type": "node", "id": 2488291673, "lat": 35.9325303, "lon": 45.6147609, "tags": {"is_in": "Iraq , \u062c\u0645\u0647\u0648\u0631\u064a\u0629 \u0627\u0644\u0639\u0631\u0627\u0642", "name": "\u0634\u0627\u0628\u06d5\u062f\u06cc\u0646", "name:ar": "\u0634\u0647\u0627\u0628 \u0627\u0644\u062f\u064a\u0646", "name:ar1": "\u0634\u0647\u0627\u0628 \u0627\u0644\u062f\u064a\u0646", "name:de": "Shabuddin", "name:en": "Shabuddin", "name:fr": "Shabuddin", "name:ku": "\u0634\u0627\u0628\u06d5\u062f\u06cc\u0646", "place": "village", "wikidata": "Q61383027", "wikipedia": "ckb:\u0634\u06d5\u06be\u0627\u0628\u06d5\u062f\u06cc\u0646"}}, {"type": "node", "id": 2488291679, "lat": 35.977832, "lon": 45.5220534, "tags": {"alt_name": "\u0634\u0627\u0646\u062e\u0633\u064a", "int_name": "\u0634\u0627\u0646\u062e\u0633\u064a, \u0634\u0627\u0646\u062e\u0633\u064a", "is_in": "Iraq , \u062c\u0645\u0647\u0648\u0631\u064a\u0629 \u0627\u0644\u0639\u0631\u0627\u0642", "name": "\u0634\u0627\u0646\u0627\u062e\u0633\u06ce", "name:ar": "\u0634\u0627\u0646\u062e\u0633\u064a", "name:ar1": "\u0634\u0627\u0646\u062e\u0633\u064a", "name:de": "Shanakhse", "name:en": "Shanakhse", "name:fr": "Shanakhse", "place": "village", "wikidata": "Q61381590", "wikipedia": "ckb:\u0634\u0627\u0646\u0627\u062e\u0633\u06ce"}}, {"type": "node", "id": 2488291712, "lat": 35.7574277, "lon": 45.494928, "tags": {"alt_name": "\u0633\u0646\u0643\u06ce", "int_name": "Sinka, Sink\u00e1, Sinkay, Sinke, Sinka, Sinka, Sinkay, Sinke", "is_in": "Iraq , \u062c\u0645\u0647\u0648\u0631\u064a\u0629 \u0627\u0644\u0639\u0631\u0627\u0642", "name": "\u0633\u0646\u0643\u06ce", "name:ar": "\u0633\u0646\u0643\u06cc", "name:en": "Sinke", "place": "village", "wikidata": "Q5988529", "wikipedia": "ckb:\u0633\u0646\u06a9\u06ce"}}, {"type": "node", "id": 2488291726, "lat": 35.9376767, "lon": 45.5795351, "tags": {"alt_name": "\u0633\u0648\u0631\u0629 \u062f\u0632\u0629", "int_name": "S\u016brah Dizah, \u0633\u0648\u0631\u0647 \u062f\u0632\u0647, Surah Dizah, \u0633\u0648\u0631\u0647 \u062f\u0632\u0647", "is_in": "Iraq , \u062c\u0645\u0647\u0648\u0631\u064a\u0629 \u0627\u0644\u0639\u0631\u0627\u0642", "name": "\u0633\u0648\u0631\u06d5\u062f\u0632\u06ce", "name:ar": "\u0633\u0648\u0631\u0629\u062f\u0632\u0629", "name:ar1": "\u0633\u0648\u0631\u0629 \u062f\u0632\u0629;\u0633\u0648\u0627\u0631\u0647 \u062f\u0632\u0647", "name:de": "Surah Dizah", "name:en": "Surah Dizah", "name:fr": "Surah Dizah", "place": "village", "wikipedia": "ckb:\u0633\u0648\u0631\u06d5\u062f\u0632\u06ce"}}, {"type": "node", "id": 2488291769, "lat": 35.7461689, "lon": 45.5019869, "tags": {"alt_name": "\u0648\u0627\u062d\u0629", "int_name": "Wazha", "is_in": "Iraq , \u062c\u0645\u0647\u0648\u0631\u064a\u0629 \u0627\u0644\u0639\u0631\u0627\u0642", "name": "\u0648\u0627\u0698\u06d5", "name:ar": "\u0648\u0627\u0632\u0629", "name:ar1": "\u0648\u0627\u062d\u0629", "name:ckb": "\u0648\u0627\u0698\u06d5", "name:en": "Wazha", "place": "village", "wikidata": "Q61382031", "wikipedia": "ckb:\u0648\u0627\u0698\u06d5"}}, {"type": "node", "id": 2488291770, "lat": 35.7846733, "lon": 45.5113697, "tags": {"alt_name": "\u0648\u0631\u0627\u0632", "int_name": "W\u0101ras, Waraz, War\u0101z, Waras, Waraz, Waraz", "is_in": "Iraq , \u062c\u0645\u0647\u0648\u0631\u064a\u0629 \u0627\u0644\u0639\u0631\u0627\u0642", "name": "\u0648\u06d5\u0695\u0627\u0632", "name:ar": "\u0648\u0631\u0627\u0633", "name:ar1": "\u0648\u0631\u0627\u0632", "name:de": "Waras", "name:en": "Waras", "name:fr": "Waras", "place": "village", "wikidata": "Q61382040", "wikipedia": "ckb:\u0648\u06d5\u0695\u0627\u0632"}}, {"type": "node", "id": 2488291774, "lat": 35.9364293, "lon": 45.5665023, "tags": {"alt_name": "\u062f\u064a\u0631\u064a \u0627\u0644\u0633\u0641\u0644\u0649;\u062f\u0631\u0629 \u0627\u0644\u0633\u0641\u0644\u0649", "int_name": "\u062f\u064a\u0631\u064a \u0627\u0644\u0633\u0641\u0644\u0649, \u062f\u064a\u0631\u064a \u0627\u0644\u0633\u0641\u0644\u0649;Daray Khuaro, Dayray as Sufl\u00e1, Dere i Khuw\u0101ru, Dere \u012b Khw\u0101ru, Dirrah as Sufl\u00e1, \u062f\u0631\u0647 \u0627\u0644\u0633\u0641\u0644\u0649, Daray Khuaro, Dayray as Sufla, Dere i Khuwaru, Dere i Khwaru, Dirrah as Sufla, \u062f\u0631\u0647 \u0627\u0644\u0633\u0641\u0644\u0649", "is_in": "Iraq , \u062c\u0645\u0647\u0648\u0631\u064a\u0629 \u0627\u0644\u0639\u0631\u0627\u0642", "name": "\u062f\u06ce\u0631\u06ce\u06cc \u062e\u0648\u0627\u0631\u0648\u0648", "name:ar": "\u062f\u064a\u0631\u064a \u0627\u0644\u0633\u0641\u0644\u0649", "name:ar1": "\u062f\u064a\u0631\u064a \u0627\u0644\u0633\u0641\u0644\u0649;\u062f\u0631\u0629 \u0627\u0644\u0633\u0641\u0644\u0649", "name:de": "Dere Lower", "name:en": "Dere Lower", "name:fr": "Dere Lower", "place": "village", "wikidata": "Q61382778", "wikipedia": "ckb:\u062f\u06ce\u0631\u06ce\u06cc \u062e\u0648\u0627\u0631\u0648\u0648"}}, {"type": "node", "id": 2488291775, "lat": 35.9366883, "lon": 45.5530986, "tags": {"alt_name": "\u062f\u064a\u0631\u064a \u0627\u0644\u0639\u0644\u064a\u0627;\u062f\u0631\u0629 \u0627\u0644\u0639\u0644\u064a\u0627", "int_name": "\u062f\u064a\u0631\u064a \u0627\u0644\u0639\u0644\u064a\u0627, \u062f\u064a\u0631\u064a \u0627\u0644\u0639\u0644\u064a\u0627;Darrah \u012b Zh\u016br\u016b, Dayray al Uly\u0101, Deray Saroo, Dere i Zh\u016bru, Dirrah al Uly\u0101, \u062f\u0631\u0647 \u0627\u0644\u0639\u0644\u064a\u0627, Darrah i Zhuru, Dayray al Ulya, Deray Saroo, Dere i Zhuru, Dirrah al Ulya, \u062f\u0631\u0647 \u0627\u0644\u0639\u0644\u064a\u0627", "is_in": "Iraq , \u062c\u0645\u0647\u0648\u0631\u064a\u0629 \u0627\u0644\u0639\u0631\u0627\u0642", "name": "\u062f\u06ce\u0631\u06ce\u06cc \u0633\u06d5\u0631\u0648\u0648", "name:ar": "\u062f\u0631\u0629 \u0627\u0644\u0639\u0644\u064a\u0627", "name:ar1": "\u062f\u064a\u0631\u064a \u0627\u0644\u0639\u0644\u064a\u0627;\u062f\u0631\u0629 \u0627\u0644\u0639\u0644\u064a\u0627", "name:de": "Darrah Upper", "name:en": "Darrah Upper", "name:fr": "DarrahUpper", "place": "village", "wikidata": "Q61382758", "wikipedia": "ckb:\u062f\u06ce\u0631\u06ce\u06cc \u0633\u06d5\u0631\u0648\u0648"}}, {"type": "node", "id": 2488293471, "lat": 35.9583637, "lon": 45.4204356, "tags": {"name": "\u0626\u0627\u0648\u06d5\u06a9\u0648\u0631\u062a\u06ce", "name:ar": "\u0622\u0648\u06a9\u0648\u0631\u062a\u064a", "name:en": "Awakurte", "place": "village", "wikidata": "Q61381095", "wikipedia": "ckb:\u0626\u0627\u0648\u06d5\u06a9\u0648\u0631\u062a\u06ce"}}, {"type": "node", "id": 2488293477, "lat": 35.9571671, "lon": 45.4512043, "tags": {"name": "\u0645\u06c6\u06b5\u0627\u0646", "name:en": "Molan", "place": "village", "wikidata": "Q61381552", "wikipedia": "ckb:\u0645\u06c6\u06b5\u0627\u0646\u060c \u0645\u0627\u0648\u06d5\u062a"}}, {"type": "node", "id": 2488293484, "lat": 35.96132, "lon": 45.449333, "tags": {"alt_name": "\u0623\u0632\u0645\u0643 \u0639\u0644\u064a\u0627", "int_name": "Azmak, Azmak Uliy\u0101, \u0627\u0632\u0645\u0643 \u0639\u0644\u064a\u0627, Azmak, Azmak Uliya, \u0627\u0632\u0645\u0643 \u0639\u0644\u064a\u0627", "name": "\u0626\u06d5\u0632\u0645\u06d5\u06a9", "name:ar": "\u0623\u0632\u0645\u0643", "name:ar1": "\u0623\u0632\u0645\u0643 \u0639\u0644\u064a\u0627", "name:de": "Azmak", "name:en": "Azmak", "name:fr": "Azmak", "place": "village", "wikidata": "Q61381098", "wikipedia": "ckb:\u0626\u06d5\u0632\u0645\u06d5\u06a9"}}, {"type": "node", "id": 2488293491, "lat": 35.7705282, "lon": 45.4082277, "tags": {"alt_name": "\u0628\u0627\u06cc\u0632 \u0626\u0627\u0648\u0627", "int_name": "Baizawa, B\u0101yz\u0101w\u0101, \u0628\u0627\u064a\u0632\u0627\u0648\u0627, Baizawa, Bayzawa, \u0628\u0627\u064a\u0632\u0627\u0648\u0627", "name": "\u0628\u0627\u064a\u0632\u0627\u0648\u0627", "name:ar": "\u0628\u0627\u064a\u0632\u0627\u0648\u0627", "name:ckb": "\u0628\u0627\u06cc\u0632\u0627\u0648\u0627", "name:de": "Baizawa", "name:en": "Baizawa", "name:fr": "Baizawa", "name:ku": "Bayizawa", "place": "village", "wikidata": "Q61381675", "wikipedia": "ckb:\u0628\u0627\u06cc\u0632\u0627\u0648\u0627\u060c \u06af\u0627\u067e\u06cc\u06b5\u06c6\u0646"}}, {"type": "node", "id": 2488293511, "lat": 35.8406157, "lon": 45.4297508, "tags": {"alt_name": "\u0628\u0627\u0646\u0627\u0644\u064a;\u0628\u0627\u0646\u0627\u0644\u0629", "int_name": "B\u0101n\u0101lay, Banale, \u0628\u0627\u0646\u0627\u0644\u064a, Banalay, Banale, \u0628\u0627\u0646\u0627\u0644\u064a;B\u0101n\u0101la, B\u0101n\u0101lah, Banala, Banalah", "is_in": "Iraq , \u062c\u0645\u0647\u0648\u0631\u064a\u0629 \u0627\u0644\u0639\u0631\u0627\u0642", "name": "\u0628\u0627\u0646\u0627\u06b5\u06ce", "name:ar": "\u0628\u0627\u0646\u0627\u0644\u064a", "name:ar1": "\u0628\u0627\u0646\u0627\u0644\u064a;\u0628\u0627\u0646\u0627\u0644\u0629", "name:de": "Banale", "name:en": "Banale", "name:fr": "Banale", "place": "village", "wikidata": "Q61381118", "wikipedia": "ckb:\u0628\u0627\u0646\u0627\u06b5\u06ce"}}, {"type": "node", "id": 2488293518, "lat": 35.7867157, "lon": 45.427107, "tags": {"alt_name": "\u0628\u0631\u062f\u0629 \u0634\u064a\u0646", "int_name": "Barda Shin, Barda Shin;Bardah Sh\u012bn, Bardash\u012bn, \u0628\u0631\u062f\u0647 \u0634\u064a\u0646, Bardah Shin, Bardashin, \u0628\u0631\u062f\u0647 \u0634\u064a\u0646", "is_in": "Iraq , \u062c\u0645\u0647\u0648\u0631\u064a\u0629 \u0627\u0644\u0639\u0631\u0627\u0642", "name": "\u0628\u06d5\u0631\u062f\u06d5\u0634\u06cc\u0646\u06cc \u062e\u0648\u0627\u0631\u0648\u0648", "name:ar": "\u0628\u0631\u062f\u0629 \u0634\u064a\u0646 \u0633\u0641\u0644\u06cc", "name:ar1": "\u0628\u0631\u062f\u0629 \u0634\u064a\u0646", "name:de": "Barda Shin Lower", "name:en": "Barda Shin Lower", "name:fr": "Barda Shin Lower", "place": "village"}}, {"type": "node", "id": 2488293536, "lat": 35.9787265, "lon": 45.4220674, "tags": {"name": "\u062f\u06d5\u0634\u062a\u06cc \u062e\u0627\u0646\u06ce", "name:ar": "\u062f\u0634\u062a\u064a \u062e\u0627\u0646\u064a", "name:en": "Dashty Khane", "place": "village", "wikidata": "Q61381222", "wikipedia": "ckb:\u062f\u06d5\u0634\u062a\u06cc \u062e\u0627\u0646\u06ce"}}, {"type": "node", "id": 2488293538, "lat": 35.8214337, "lon": 45.411064, "tags": {"alt_name": "\u062f\u06c6\u06b5\u0628\u06ce\u0634\u06a9\u06cc \u0634\u06ce\u062e \u062d\u0633\u06ce\u0646", "name": "\u062f\u06c6\u06b5\u0628\u06ce\u0634\u06a9\u06cc \u0634\u06ce\u062e \u062d\u0648\u0633\u06ce\u0646", "name:ckb": "\u062f\u06c6\u06b5\u0628\u06ce\u0634\u06a9\u06cc \u0634\u06ce\u062e \u062d\u0648\u0633\u06ce\u0646", "name:en": "Dolbeshki Shekh Husen", "name:ku": "Dollb\u00ea\u015fk\u00ee \u015e\u00eax Hus\u00ean", "place": "village", "wikidata": "Q61381694", "wikipedia": "ckb:\u062f\u06c6\u06b5\u0628\u06ce\u0634\u06a9\u06cc \u0634\u06ce\u062e \u062d\u0633\u06ce\u0646"}}, {"type": "node", "id": 2488293539, "lat": 35.8315343, "lon": 45.4069667, "tags": {"name": "\u062f\u06c6\u06b5\u0628\u06ce\u0634\u06a9\u06cc \u0645\u0627\u0645 \u062e\u06c6\u0634\u06cc", "name:ckb": "\u062f\u06c6\u06b5\u0628\u06ce\u0634\u06a9\u06cc \u0645\u0627\u0645 \u062e\u06c6\u0634\u06cc", "name:en": "Dolbeshki Mam Khoshi", "name:ku": "Dollb\u00ea\u015fk\u00ee Mam Xo\u015f\u00ee", "place": "village", "wikidata": "Q61381679", "wikipedia": "ckb:\u062f\u06c6\u06b5\u0628\u06ce\u0634\u06a9\u06cc \u0645\u0627\u0645 \u062e\u06c6\u0634\u06cc"}}, {"type": "node", "id": 2488293540, "lat": 35.8112798, "lon": 45.4228359, "tags": {"name": "\u062f\u06c6\u06b5\u0628\u06ce\u0634\u06a9\u06cc \u0634\u06ce\u062e\u0627\u0646", "name:ar": "\u062f\u0648\u0644\u0628\u06cc\u0634\u06a9\u064a \u0634\u06cc\u062e\u0627\u0646", "name:ckb": "\u062f\u06c6\u06b5\u0628\u06ce\u0634\u06a9\u06cc \u0634\u06ce\u062e\u0627\u0646", "name:en": "Dolbeshki Shekhan", "name:ku": "Dollb\u00ea\u015fk\u00ee \u015e\u00eaxan", "place": "village", "wikidata": "Q61381706", "wikipedia": "ckb:\u062f\u06c6\u06b5\u0628\u06ce\u0634\u06a9\u06cc \u0634\u06ce\u062e\u0627\u0646"}}, {"type": "node", "id": 2488293541, "lat": 35.8386711, "lon": 45.4033935, "tags": {"name": "\u062f\u06c6\u06b5\u0628\u06ce\u0634\u06a9\u06cc \u062f\u0695\u06cc", "name:en": "Dolbeshki Dri", "place": "village"}}, {"type": "node", "id": 2488293542, "lat": 35.6577606, "lon": 45.4147845, "tags": {"alt_name": "\u062f\u064a\u0643\u0648\u0646", "int_name": "De Kon, D\u0113k\u014dn, De Kon, Dekon", "is_in": "Iraq , \u062c\u0645\u0647\u0648\u0631\u064a\u0629 \u0627\u0644\u0639\u0631\u0627\u0642", "name": "\u062f\u06ce\u06a9\u06c6\u0646\u06cc \u0639\u06d5\u0644\u06cc \u0626\u06d5\u0641\u06d5\u0646\u062f\u06cc", "name:ar": "\u062f\u064a\u0643\u0648\u0646 \u0639\u0644\u06cc \u0622\u0641\u0646\u062f\u06cc", "name:ar1": "\u062f\u064a\u0643\u0648\u0646", "name:de": "Dekon Ali Afandy", "name:en": "Dekon Ali Afandy", "name:fr": "Dekon Ali Afandy", "place": "village"}}, {"type": "node", "id": 2488293543, "lat": 35.9466912, "lon": 45.4065783, "tags": {"name": "\u0647\u06d5\u0646\u062c\u06cc\u0631\u06d5 \u0633\u0648\u0648\u0631\u06d5", "name:ar": "\u0647\u0646\u062c\u064a\u0631\u0629 \u0633\u0648\u0631\u0629", "name:de": "Hanjirah Surah", "name:en": "Hanjirah Surah", "name:fr": "Hanjirah Surah", "place": "village", "wikipedia": "ckb:\u0647\u06d5\u0646\u062c\u06cc\u0631\u06d5 \u0633\u0648\u0648\u0631\u06d5"}}, {"type": "node", "id": 2488293547, "lat": 35.955295, "lon": 45.3997481, "tags": {"name": "\u0639\u06cc\u0633\u0627\u0648\u06ce", "name:ar": "\u0639\u06cc\u0633\u0627\u0648\u064a", "name:en": "Isawe", "place": "village", "wikidata": "Q61381389", "wikipedia": "ckb:\u0639\u06cc\u0633\u0627\u0648\u06ce"}}, {"type": "node", "id": 2488293548, "lat": 35.9506431, "lon": 45.4026288, "tags": {"name": "\u06af\u06b5\u06c6\u0645\u0627\u0646", "name:ar": "\u06a9\u0644\u0648\u0645\u0627\u0646", "name:en": "Gloman", "place": "village", "wikidata": "Q61381520", "wikipedia": "ckb:\u06af\u06b5\u06c6\u0645\u0627\u0646"}}, {"type": "node", "id": 2488293550, "lat": 35.883303, "lon": 45.44151, "tags": {"name": "\u06af\u0627\u0628\u0695\u0648\u0627", "name:ar": "\u06a9\u0627\u0628\u0631\u0648\u0627", "name:en": "Gabrwa", "place": "village", "wikidata": "Q61381510", "wikipedia": "ckb:\u06af\u0627\u0628\u0695\u0648\u0627"}}, {"type": "node", "id": 2488293552, "lat": 35.9293461, "lon": 45.4262299, "tags": {"alt_name": "\u0643\u0647\u0631\u064a\u0632 \u0645\u0634\u062a\u0627\u062e\u0627\u0646;\u0643\u0648\u0646\u064a", "int_name": "Kahr\u012bz Musht\u0101kh\u0101n, Kahriz Mushtakhan;K\u016bn\u012b, \u0643\u0648\u0646\u064a, Kuni, \u0643\u0648\u0646\u064a", "name": "\u06af\u0648\u06b5\u06ce", "name:ar": "\u06a9\u0648\u0644\u06cc", "name:ar1": "\u0643\u0647\u0631\u064a\u0632 \u0645\u0634\u062a\u0627\u062e\u0627\u0646;\u0643\u0648\u0646\u064a", "name:de": "Gule", "name:en": "Gule", "name:fr": "Gule", "place": "village"}}, {"type": "node", "id": 2488293558, "lat": 35.6487722, "lon": 45.4229998, "tags": {"name": "\u06a9\u0627\u0646\u06cc \u067e\u06cc\u0631\u06d5", "name:ar": "\u0643\u0627\u0646\u064a \u0628\u064a\u0631\u0629", "place": "village"}}, {"type": "node", "id": 2488293559, "lat": 35.673544, "lon": 45.40329, "tags": {"name": "\u06a9\u0627\u0646\u06cc \u06af\u06c6\u0631\u0627\u0646", "name:en": "Kani Goran", "place": "village"}}, {"type": "node", "id": 2488293560, "lat": 35.64861, "lon": 45.403509, "tags": {"name": "\u06a9\u0627\u0646\u06cc \u0645\u06a9\u0627\u06cc\u0644", "place": "village"}}, {"type": "node", "id": 2488293563, "lat": 35.7793515, "lon": 45.4112075, "tags": {"name": "\u06a9\u0627\u0631\u06ce\u0632\u06d5", "name:ar": "\u06a9\u0627\u0631\u06cc\u0632\u0629", "name:ckb": "\u06a9\u0627\u0631\u06ce\u0632\u06d5", "name:en": "Kareza", "name:ku": "Kar\u00eaze", "place": "village", "wikidata": "Q61381717", "wikipedia": "ckb:\u06a9\u0627\u0631\u06ce\u0632\u06d5\u060c \u06af\u0627\u067e\u06cc\u06b5\u06c6\u0646"}}, {"type": "node", "id": 2488293564, "lat": 35.8012469, "lon": 45.4574685, "tags": {"alt_name": "\u0643\u064a\u0644\u064a", "int_name": "K\u0113le, K\u012bl\u012b, \u0643\u064a\u0644\u064a, Kele, Kili, \u0643\u064a\u0644\u064a", "is_in": "Iraq , \u062c\u0645\u0647\u0648\u0631\u064a\u0629 \u0627\u0644\u0639\u0631\u0627\u0642", "name": "\u06a9\u06ce\u0644\u06ce", "name:ar": "\u0643\u064a\u0644\u064a", "name:ar1": "\u0643\u064a\u0644\u064a", "name:de": "Kele", "name:en": "Kele", "name:fr": "Kele", "place": "village", "wikidata": "Q61381487", "wikipedia": "ckb:\u06a9\u06ce\u0644\u06ce"}}, {"type": "node", "id": 2488293566, "lat": 35.6710681, "lon": 45.4480836, "tags": {"alt_name": "\u062e\u0645\u0632\u0629;\u062e\u0645\u0631\u0629", "int_name": "Khamzah, \u062e\u0645\u0632\u0629, Khamzah, \u062e\u0645\u0632\u0629;Khamrah, Khamza, Khamza, \u062e\u0645\u0631\u0629, Khamrah, Khamza, Khamza, \u062e\u0645\u0631\u0629", "is_in": "Iraq , \u062c\u0645\u0647\u0648\u0631\u064a\u0629 \u0627\u0644\u0639\u0631\u0627\u0642", "name": "\u062e\u06d5\u0645\u0632\u06d5", "name:ar": "\u062e\u0645\u0632\u0629", "name:ar1": "\u062e\u0645\u0632\u0629;\u062e\u0645\u0631\u0629", "name:de": "Khamzah", "name:en": "Khamzah", "name:fr": "Khamzah", "place": "village"}}, {"type": "node", "id": 2488293569, "lat": 35.9459386, "lon": 45.4177184, "tags": {"alt_name": "\u0643\u0648\u0644\u0643\u0629", "int_name": "K\u016blkah, \u0643\u0648\u0644\u0643\u0629, Kulkah, \u0643\u0648\u0644\u0643\u0629", "name": "\u0643\u06c6\u0644\u06a9\u06d5", "name:ar": "\u0643\u0648\u0644\u0643\u0629", "name:ar1": "\u0643\u0648\u0644\u0643\u0629", "name:de": "Kulkah", "name:en": "Kulkah", "name:fr": "Kulkah", "place": "village", "wikidata": "Q61381479", "wikipedia": "ckb:\u06a9\u06c6\u0644\u06a9\u06d5\u060c \u0645\u0627\u0648\u06d5\u062a"}}, {"type": "node", "id": 2488293570, "lat": 35.7977879, "lon": 45.4144889, "tags": {"name": "\u06a9\u0648\u0646\u06d5\u0645\u0627\u0633\u06cc", "name:ar": "\u06a9\u0648\u0646\u0629\u0645\u0627\u0633\u064a", "name:ckb": "\u06a9\u0648\u0646\u06d5\u0645\u0627\u0633\u06cc", "name:en": "Kunamasi", "name:ku": "Kunemas\u00ee", "place": "village", "wikidata": "Q61381735", "wikipedia": "ckb:\u06a9\u0648\u0646\u06d5\u0645\u0627\u0633\u06cc"}}, {"type": "node", "id": 2488293575, "lat": 35.9021869, "lon": 45.4141144, "tags": {"alt_name": "\u0645\u0627\u0648\u062a", "capital": "6", "int_name": "M\u0101wat, Mawet, Mawat, \u0645\u0627\u0648\u06d5\u062a", "name": "\u0645\u0627\u0648\u06d5\u062a", "name:ar": "\u0645\u0627\u0648\u062a", "name:ckb": "\u0645\u0627\u0648\u06d5\u062a", "name:de": "Mawat", "name:en": "Mawat", "name:fr": "Mawat", "name:ku": "Mawet", "name:ru": "\u041c\u0430\u0432\u0430\u0442", "place": "town", "wikidata": "Q6794371", "wikipedia": "ckb:\u0645\u0627\u0648\u06d5\u062a"}}, {"type": "node", "id": 2488293578, "lat": 35.7516323, "lon": 45.4334195, "tags": {"name": "\u0645\u06c6\u06a9\u06d5\u0628\u06d5", "name:en": "Mokaba", "place": "village"}}, {"type": "node", "id": 2488293583, "lat": 35.7170963, "lon": 45.4355631, "tags": {"is_in": "Iraq , \u062c\u0645\u0647\u0648\u0631\u064a\u0629 \u0627\u0644\u0639\u0631\u0627\u0642", "name": "\u0642\u06d5\u06cc\u0648\u0627\u0646 \u0628\u0686\u0648\u0648\u06a9", "name:ar": "\u0642\u064a\u0648\u0627\u0646 \u0628\u062c\u0648\u0643", "name:en": "Qaiwan Little", "place": "village"}}, {"type": "node", "id": 2488293585, "lat": 35.9528494, "lon": 45.4457092, "tags": {"name": "\u0642\u06d5\u06b5\u0627\u062a\u06d5", "name:ar": "\u0642\u0644\u0627\u062a\u0629", "name:en": "Qalata", "place": "village", "wikidata": "Q61381405", "wikipedia": "ckb:\u0642\u06d5\u06b5\u0627\u062a\u06d5\u060c \u0645\u0627\u0648\u06d5\u062a"}}, {"type": "node", "id": 2488293586, "lat": 35.8759437, "lon": 45.4176623, "tags": {"int_name": "Qash\u0101n, \u0642\u0634\u0627\u0646, Qashan, \u0642\u0634\u0627\u0646", "name": "\u0642\u06d5\u0634\u0627\u0646", "name:ar": "\u0642\u0634\u0627\u0646", "name:de": "Qashan", "name:en": "Qashan", "name:fr": "Qashan", "place": "village", "wikidata": "Q61381406", "wikipedia": "ckb:\u0642\u06d5\u0634\u0627\u0646"}}, {"type": "node", "id": 2488293589, "lat": 35.6555954, "lon": 45.4625926, "tags": {"name": "\u0642\u0648\u0644\u06d5\u0695\u06d5\u0634", "name:ar": "\u0642\u0648\u0644\u0629\u0631\u0634", "name:en": "Qula Rash", "place": "village"}}, {"type": "node", "id": 2488293590, "lat": 35.9587658, "lon": 45.4620365, "tags": {"alt_name": "\u0633\u0647\u0631 \u0643\u0644\u0648", "int_name": "Sahr Kal\u016b, \u0633\u0647 \u0631 \u0643\u0644\u0648, Sahr Kalu, \u0633\u0647 \u0631 \u0643\u0644\u0648", "name": "\u0633\u06d5\u0631\u06af\u06d5\u06b5\u0648", "name:ar": "\u0633\u0647\u0631 \u0643\u0644\u0648", "name:ar1": "\u0633\u0647\u0631 \u0643\u0644\u0648", "name:de": "Sargalu", "name:en": "Sargalu", "name:fr": "Sargalu", "place": "village", "wikidata": "Q61381321", "wikipedia": "ckb:\u0633\u06d5\u0631\u06af\u06d5\u06b5\u0648\u060c \u0645\u0627\u0648\u06d5\u062a"}}, {"type": "node", "id": 2488293607, "lat": 35.9173288, "lon": 45.4514068, "tags": {"name": "\u0633\u067e\u06cc\u062f\u0627\u0631\u06d5", "name:ar": "\u0633\u0628\u06cc\u062f\u0627\u0631\u0629", "name:en": "Spidara", "place": "village"}}, {"type": "node", "id": 2488293614, "lat": 35.7779877, "lon": 45.4565153, "tags": {"alt_name": "\u0633\u0648\u0631\u0629 \u0642\u0644\u0627\u062a", "int_name": "S\u016brah Qal\u0101t, S\u016braqal\u0101t, Surah Qalat, Suraqalat", "is_in": "Iraq , \u062c\u0645\u0647\u0648\u0631\u064a\u0629 \u0627\u0644\u0639\u0631\u0627\u0642", "name": "\u0633\u0648\u0648\u0631\u06d5 \u0642\u06d5\u06b5\u0627", "name:ar": "\u0633\u0648\u0631\u0629 \u0642\u0644\u0627\u062a", "name:ar1": "\u0633\u0648\u0631\u0629 \u0642\u0644\u0627\u062a", "name:de": "Surah Qalat", "name:en": "Surah Qalat", "name:fr": "Surah Qalat", "place": "village"}}, {"type": "node", "id": 2488293618, "lat": 35.6611158, "lon": 45.4060514, "tags": {"alt_name": "\u062a\u0648\u0629 \u0633\u0628\u064a", "int_name": "T\u016bwa Sp\u012b, Twa Spi, Tuwa Spi, Twa Spi", "is_in": "Iraq , \u062c\u0645\u0647\u0648\u0631\u064a\u0629 \u0627\u0644\u0639\u0631\u0627\u0642", "name": "\u062a\u0648\u0648\u06d5\u0633\u067e\u06cc", "name:ar": "\u062a\u0648\u0629 \u0633\u0628\u064a", "name:ar1": "\u062a\u0648\u0629 \u0633\u0628\u064a", "name:de": "Tuwa Spi", "name:en": "Tuwa Spi", "name:fr": "Tuwa Spi", "place": "village"}}, {"type": "node", "id": 2488293638, "lat": 35.8610549, "lon": 45.4371781, "tags": {"alt_name": "\u0648\u0634\u062a \u062a\u0644\u064a", "int_name": "Washit Tal\u012b, \u0648\u0634\u062a \u062a\u0644\u064a, Washit Tali, \u0648\u0634\u062a \u062a\u0644\u064a", "is_in": "Iraq , \u062c\u0645\u0647\u0648\u0631\u064a\u0629 \u0627\u0644\u0639\u0631\u0627\u0642", "name": "\u0628\u06d5\u0631\u062f\u06d5\u067e\u0627\u0646", "name:ar": "\u0628\u0631\u062f\u0629\u0628\u0627\u0646", "name:ar1": "\u0648\u0634\u062a \u062a\u0644\u064a", "name:de": "Bardapan", "name:en": "Bardapan", "name:fr": "Bardapan", "place": "village", "wikidata": "Q61381136", "wikipedia": "ckb:\u0628\u06d5\u0631\u062f\u06d5\u067e\u0627\u0646"}}, {"type": "node", "id": 2488293640, "lat": 35.931114, "lon": 45.39911, "tags": {"name": "\u0698\u0627\u0698\u06b5\u06d5", "name:ar": "\u0632\u0627\u0632\u0644\u0629", "name:en": "Zhazhla", "place": "village", "wikidata": "Q61381296", "wikipedia": "ckb:\u0698\u0627\u0698\u06b5\u06d5"}}, {"type": "node", "id": 2488293641, "lat": 35.7735496, "lon": 45.4249994, "tags": {"alt_name": "\u0632\u064a\u0631\u062a\u0648\u0643", "int_name": "Z\u0113m\u016bk, Z\u0113rt\u016bk, Z\u012brt\u016bk, \u0632\u064a\u0631\u062a\u0648\u0643, Zemuk, Zertuk, Zirtuk, \u0632\u064a\u0631\u062a\u0648\u0643", "is_in": "Iraq , \u062c\u0645\u0647\u0648\u0631\u064a\u0629 \u0627\u0644\u0639\u0631\u0627\u0642", "name": "\u0626\u06c6\u0631\u062f\u0648\u06af\u0627\u06cc \u06a9\u0627\u0631\u06ce\u0632\u06d5", "name:ar": "\u0645\u062c\u0645\u0639 \u06a9\u0627\u0631\u06cc\u0632\u0629", "name:ar1": "\u0632\u064a\u0631\u062a\u0648\u0643", "name:de": "Collectivet Kareza", "name:en": "Collectivet Kareza", "name:fr": "Collectivet Kareza", "place": "village"}}, {"type": "node", "id": 2488293644, "lat": 35.7781629, "lon": 45.45654, "tags": {"alt_name": "\u0633\u0648\u0631\u0647 \u0642\u0644\u0627\u062a", "int_name": "\u0633\u0648\u0631\u0647 \u0642\u0644\u0627\u062a, \u0633\u0648\u0631\u0647 \u0642\u0644\u0627\u062a", "is_in": "Iraq , \u062c\u0645\u0647\u0648\u0631\u064a\u0629 \u0627\u0644\u0639\u0631\u0627\u0642", "name": "\u0633\u0648\u0631\u0647 \u0642\u0644\u0627\u062a", "name:ar": "\u0633\u0648\u0631\u0647 \u0642\u0644\u0627\u062a", "name:ar1": "\u0633\u0648\u0631\u0647 \u0642\u0644\u0627\u062a", "name:de": "\u0633\u0648\u0631\u0647 \u0642\u0644\u0627\u062a", "name:en": "\u0633\u0648\u0631\u0647 \u0642\u0644\u0627\u062a", "name:fr": "\u0633\u0648\u0631\u0647 \u0642\u0644\u0627\u062a", "place": "village"}}, {"type": "node", "id": 2488309519, "lat": 36.072, "lon": 45.228111, "tags": {"alt_name": "\u0644\u0628\u0627\u0646\u0629", "int_name": "Albana, Libana, Lib\u0101na, Lib\u0101nah, \u0644\u0628\u0627\u0646\u0629, Albana, Libana, Libana, Libanah, \u0644\u0628\u0627\u0646\u0629", "name": "\u0626\u06d5\u0644\u0628\u0627\u0646\u06d5", "name:de": "Lbana", "name:en": "Lbana", "name:fr": "Lbana", "place": "village"}}, {"type": "node", "id": 2488309520, "lat": 36.0674153, "lon": 45.275365, "tags": {"name": "\u0626\u0627\u06b5\u06d5\u067e\u06cc\u0631", "name:ar": "\u0622\u0644\u0628\u064a\u0631", "name:ckb": "\u0626\u0627\u06b5\u06d5\u067e\u06cc\u0631", "name:de": "Alapir", "name:en": "Alapir", "name:fr": "Alapir", "name:ku": "Allep\u00eer", "place": "village", "wikidata": "Q61389582", "wikipedia": "ckb:\u0626\u0627\u06b5\u06d5\u067e\u06cc\u0631"}}, {"type": "node", "id": 2488309521, "lat": 36.0700005, "lon": 45.3111373, "tags": {"name": "\u0626\u06d5\u0634\u06a9\u06d5\u0646\u06d5", "name:ar": "\u0627\u0634\u0643\u0646\u0629", "name:ckb": "\u0626\u06d5\u0634\u06a9\u06d5\u0646\u06d5", "name:de": "Ashkana", "name:en": "Ashkana", "name:fr": "Ashkana", "name:ku": "E\u015fkene", "place": "village", "wikidata": "Q61389680", "wikipedia": "ckb:\u0626\u06d5\u0634\u06a9\u06d5\u0646\u06d5"}}, {"type": "node", "id": 2488309522, "lat": 36.0471615, "lon": 45.3249883, "tags": {"name": "\u0628\u0627\u06b5\u06ce\u06b5\u0627\u0646", "name:ar": "\u0628\u0627\u0644\u064a\u0644\u0627\u0646", "name:ckb": "\u0628\u0627\u06b5\u06ce\u06b5\u0627\u0646", "name:de": "Balelan", "name:en": "Balelan", "name:fr": "Balelan", "name:ku": "Ball\u00eallan", "place": "village", "wikidata": "Q61389585", "wikipedia": "ckb:\u0628\u0627\u06b5\u06ce\u06b5\u0627\u0646"}}, {"type": "node", "id": 2488309523, "lat": 36.0834976, "lon": 45.2600157, "tags": {"alt_name": "\u0628\u0631\u0634\u064a\u0631", "int_name": "Barsh\u012br, \u0628\u0631\u0634\u064a\u0631, Barshir, \u0628\u0631\u0634\u064a\u0631", "name": "\u0628\u06d5\u0631\u0634\u06ce\u0631\u0627\u0646", "name:ar": "\u0628\u0631\u0634\u064a\u0631\u0627\u0646", "name:ckb": "\u0628\u06d5\u0631\u0634\u06ce\u0631\u0627\u0646", "name:de": "Barsheran", "name:en": "Barsheran", "name:fr": "Barsheran", "name:ku": "Ber\u015f\u00earan", "place": "village", "wikidata": "Q61389592", "wikipedia": "ckb:\u0628\u06d5\u0631\u0634\u06ce\u0631\u0627\u0646"}}, {"type": "node", "id": 2488309527, "lat": 36.062138, "lon": 45.2908177, "tags": {"name": "\u0686\u06d5\u06a9\u0648\u0627\u0646", "name:ar": "\u062c\u0643\u0648\u0627\u0646", "name:ckb": "\u0686\u06d5\u06a9\u0648\u0627\u0646", "name:de": "Chakwan", "name:en": "Chakwan", "name:fr": "Chakwan", "name:ku": "\u00c7ekwan", "place": "village", "wikidata": "Q61389605", "wikipedia": "ckb:\u0686\u06d5\u06a9\u0648\u0627\u0646"}}, {"type": "node", "id": 2488309530, "lat": 36.0435607, "lon": 45.3190275, "tags": {"alt_name": "\u062c\u0645 \u0643\u0627\u0648\u064a", "int_name": "Chamkaw\u012b, Jam K\u0101w\u012b, \u062c\u0645 \u0643\u0627\u0648\u064a, Chamkawi, Jam Kawi, \u062c\u0645 \u0643\u0627\u0648\u064a", "name": "\u06a9\u06c6\u0646\u06d5\u06af\u06d5\u0646\u0627\u0648", "name:ar": "\u0643\u0648\u0646\u064e\u0643\u0646\u0627\u0648", "name:ckb": "\u06a9\u06c6\u0646\u06d5\u06af\u06d5\u0646\u0627\u0648", "name:de": "Konaganaw", "name:en": "Konaganaw", "name:fr": "Konaganaw", "name:ku": "Konegenaw", "place": "village", "wikidata": "Q61389663", "wikipedia": "ckb:\u06a9\u06c6\u0646\u06d5\u06af\u06d5\u0646\u0627\u0648"}}, {"type": "node", "id": 2488309541, "lat": 36.0461049, "lon": 45.328412, "tags": {"name": "\u06af\u06d5\u0646\u0627\u0648", "name:ar": "\u0643\u0646\u0627\u0648", "name:ckb": "\u06af\u06d5\u0646\u0627\u0648", "name:de": "Ganaw", "name:en": "Ganaw", "name:fr": "Ganaw", "name:ku": "Genaw", "place": "village", "wikidata": "Q61389698", "wikipedia": "ckb:\u06af\u06d5\u0646\u0627\u0648"}}, {"type": "node", "id": 2488309544, "lat": 36.0660199, "lon": 45.2847098, "tags": {"alt_name": "\u0622\u0628\u064a\u0648\u0629", "int_name": "\u0100b\u012bwah, \u0622\u0628\u064a\u0648\u0647, Abiwah, \u0622\u0628\u064a\u0648\u0647", "name": "\u0626\u06cc\u0633\u06ce\u0648\u06ce", "name:de": "Isewe", "name:en": "Isewe", "name:fr": "Isewe", "name:ku": "\u00ces\u00eaw\u00ea", "place": "town", "source": "http://wikimapia.org/#lang=en&lat=36.066723&lon=45.287790&z=15&m=bs&show=/21748197/%D9%86%D8%A7%D8%AD%DB%8C%D9%87%E2%80%8C%DB%8C-%D8%A6%DB%8C%D8%B3%DB%8E%D9%88%D9%87%E2%80%8C", "wikidata": "Q61389571", "wikipedia": "ckb:\u0626\u06cc\u0633\u06ce\u0648\u06ce"}}, {"type": "node", "id": 2488309549, "lat": 36.0575759, "lon": 45.3229689, "tags": {"name": "\u0632\u0646\u062c\u06d5\u06b5\u06d5", "name:ar": "\u0632\u0646\u062c\u0644\u0629", "name:ckb": "\u0632\u0646\u062c\u06d5\u06b5\u06d5", "name:de": "Znjala", "name:en": "Znjala", "name:fr": "Znjala", "name:ku": "Zincelle", "place": "village", "wikidata": "Q61389626", "wikipedia": "ckb:\u0632\u0646\u062c\u06d5\u06b5\u06d5"}}, {"type": "node", "id": 2488309556, "lat": 36.062606, "lon": 45.2049915, "tags": {"alt_name": "\u0648\u0627\u062f\u064a \u0634\u0644\u0627\u0646\u0629", "int_name": "W\u0101d\u012b Shil\u0101nah, \u0648\u0627\u062f\u064a \u0634\u0644\u0627\u0646\u0629, Wadi Shilanah, \u0648\u0627\u062f\u064a \u0634\u0644\u0627\u0646\u0629", "is_in": "Iraq , \u062c\u0645\u0647\u0648\u0631\u064a\u0629 \u0627\u0644\u0639\u0631\u0627\u0642", "name": "\u0633\u06d5\u0631\u062a\u06d5\u0646\u06af", "name:ar": "\u0633\u0631\u062a\u0646\u06a9", "name:ar1": "\u0648\u0627\u062f\u064a \u0634\u0644\u0627\u0646\u0629", "name:de": "Sartang", "name:en": "Sartang", "name:fr": "Sartang", "place": "village"}}, {"type": "node", "id": 2488312899, "lat": 36.066111, "lon": 45.165278, "tags": {"is_in": "Iraq , \u062c\u0645\u0647\u0648\u0631\u064a\u0629 \u0627\u0644\u0639\u0631\u0627\u0642", "name": "\u062f\u06c6\u06b5\u06d5\u06af\u06c6\u0645", "name:ar": "\u062f\u0648\u0644\u0643\u0648\u0645", "name:ar1": "\u062f\u0648\u0644\u0643\u0648\u0645", "name:de": "Dola Gom", "name:en": "Dola Gom", "name:fr": "Dola Gom", "place": "village"}}, {"type": "node", "id": 2488312914, "lat": 36.053892, "lon": 45.095608, "tags": {"name": "\u0645\u06d5\u0631\u06af\u06d5", "name:ar": "\u0645\u0631\u06a9\u0629", "name:de": "Marga", "name:en": "Marga", "name:fr": "Marga", "place": "village", "wikidata": "Q61388685", "wikipedia": "ckb:\u0645\u06d5\u0631\u06af\u06d5"}}, {"type": "node", "id": 2488312918, "lat": 36.0765253, "lon": 45.3586228, "tags": {"name": "\u0633\u06d5\u0631\u0634\u06cc\u0648", "name:ar": "\u0633\u0631\u0634\u064a\u0648", "name:ckb": "\u0633\u06d5\u0631\u0634\u06cc\u0648", "name:de": "Sarshiw", "name:en": "Sarshiw", "name:fr": "Sarshiw", "name:ku": "Ser\u015f\u00eew", "place": "village", "wikidata": "Q61389696", "wikipedia": "ckb:\u0633\u06d5\u0631\u0634\u06cc\u0648\u060c \u0626\u06cc\u0633\u06ce\u0648\u06ce"}}, {"type": "node", "id": 2488312922, "lat": 36.0695, "lon": 45.115272, "tags": {"is_in": "Iraq , \u062c\u0645\u0647\u0648\u0631\u064a\u0629 \u0627\u0644\u0639\u0631\u0627\u0642", "name": "\u0633\u06c6\u0641\u06cc\u0627\u0646", "name:ar": "\u0633\u0641\u064a\u0627\u0646", "name:ar1": "\u0633\u0641\u064a\u0627\u0646", "name:de": "Sofiyan", "name:en": "Sofiyan", "name:fr": "Sofiyan", "place": "village"}}, {"type": "node", "id": 2488317373, "lat": 36.025694, "lon": 45.159889, "tags": {"name": "\u0626\u0627\u0648\u06d5\u0698\u06ce", "name:de": "Awaza", "name:en": "Awaza", "name:fr": "Awaza", "place": "village"}}, {"type": "node", "id": 2488317379, "lat": 35.94543, "lon": 45.175502, "tags": {"alt_name": "\u064a\u0627\u062e\u064a\u0627\u0646", "int_name": "B\u0101khiy\u0101n, Yakhiy\u0101n, Yakhyan, Y\u0101khy\u0101n, \u0628\u0627\u062e\u064a\u0627\u0646, \u064a\u0627\u062e\u064a\u0627\u0646, Bakhiyan, Yakhiyan, Yakhyan, Yakhyan, \u0628\u0627\u062e\u064a\u0627\u0646, \u064a\u0627\u062e\u064a\u0627\u0646", "is_in": "Iraq , \u062c\u0645\u0647\u0648\u0631\u064a\u0629 \u0627\u0644\u0639\u0631\u0627\u0642", "name": "\u064a\u0627\u062e\u064a\u0627\u0646", "name:ar": "\u064a\u0627\u062e\u064a\u0627\u0646", "name:ar1": "\u064a\u0627\u062e\u064a\u0627\u0646", "name:de": "Bakhiyan", "name:en": "Bakhiyan", "name:fr": "Bakhiyan", "place": "village"}}, {"type": "node", "id": 2488317389, "lat": 36.0425158, "lon": 45.3434268, "tags": {"name": "\u0628\u06d5\u0631\u062f\u06a9\u06ce\u0634\u0627\u0646", "name:ar": "\u0628\u0631\u062f\u06a9\u064a\u0634\u0627\u0646", "name:ckb": "\u200e\u0628\u06d5\u0631\u062f\u06a9\u06ce\u0634\u0627\u0646", "name:de": "Bardkeshan", "name:en": "Bardkeshan", "name:fr": "Bardkeshan", "name:ku": "Berdk\u00ea\u015fan", "place": "village", "wikidata": "Q61389589", "wikipedia": "ckb:\u0628\u06d5\u0631\u062f\u06a9\u06ce\u0634\u0627\u0646"}}, {"type": "node", "id": 2488317390, "lat": 36.0312522, "lon": 45.285522, "tags": {"alt_name": "\u0628\u0627\u0631\u062e\u0629", "int_name": "B\u0101rkhah, Bilkha, \u0628\u0627\u0631\u062e\u0647, Barkhah, Bilkha, \u0628\u0627\u0631\u062e\u0647", "is_in": "Iraq , \u062c\u0645\u0647\u0648\u0631\u064a\u0629 \u0627\u0644\u0639\u0631\u0627\u0642", "name": "\u0628\u06ce\u062a\u0631\u062e\u06ce", "name:ar": "\u0628\u06cc\u062a\u0631\u062e\u0629", "name:ar1": "\u0628\u0627\u0631\u062e\u0629", "name:de": "Betrkha", "name:en": "Betrkha", "name:fr": "Betrkha", "place": "village", "wikidata": "Q61388514", "wikipedia": "ckb:\u0628\u06ce\u062a\u0631\u062e\u06d5"}}, {"type": "node", "id": 2488317392, "lat": 36.0354188, "lon": 45.0872409, "tags": {"name": "\u067e\u0627\u0634\u06a9\u06ce\u0634", "name:ar": "\u0628\u0627\u0634\u0643\u064a\u0634", "name:ckb": "\u067e\u0627\u0634\u06a9\u06ce\u0634", "name:en": "Pashkesh", "name:ku": "Pa\u015fk\u00ea\u015f", "place": "village", "wikidata": "Q61388585", "wikipedia": "ckb:\u067e\u0627\u0634\u06a9\u06ce\u0634"}}, {"type": "node", "id": 2488317394, "lat": 36.011222, "lon": 45.098444, "tags": {"is_in": "Iraq , \u062c\u0645\u0647\u0648\u0631\u064a\u0629 \u0627\u0644\u0639\u0631\u0627\u0642", "name": "\u0628\u06ce\u06af\u0645\u06d5", "name:ar": "\u0628\u064a\u0643\u0645\u0629", "name:ar1": "\u0628\u064a\u0643\u0645\u0629", "name:de": "Baygimah", "name:en": "Baykimah", "name:fr": "Baykimah", "place": "village", "wikidata": "Q61388513", "wikipedia": "ckb:\u0628\u06ce\u06af\u0645\u06d5"}}, {"type": "node", "id": 2488317395, "lat": 36.031222, "lon": 45.126611, "tags": {"name": "\u0628\u06ce\u0648\u06d5\u06a9\u06d5", "name:de": "Baywaka", "name:en": "Baywaka", "name:fr": "Baywaka", "place": "village"}}, {"type": "node", "id": 2488317397, "lat": 35.7733404, "lon": 45.1855039, "tags": {"is_in": "Iraq , \u062c\u0645\u0647\u0648\u0631\u064a\u0629 \u0627\u0644\u0639\u0631\u0627\u0642", "name": "\u0628\u06cc\u0631\u0627\u0646\u06cc \u06a9\u0627\u0646\u06cc \u0642\u0627\u0632", "name:ar": "\u0628\u06cc\u0631\u0627\u0646\u06cc \u06a9\u0627\u0646\u06cc \u0642\u0627\u0632", "name:ar1": "\u0628\u064a\u0631\u0627\u0646", "name:de": "Birany Kani Qaz", "name:en": "Birany Kani Qaz", "name:fr": "Birany Kani Qaz", "place": "village"}}, {"type": "node", "id": 2488317400, "lat": 35.694694, "lon": 45.2547988, "tags": {"name": "\u067e\u06cc\u0633\u06a9\u06d5\u0646\u062f\u06cc", "name:ar": "\u0628\u064a\u0633\u0643\u0646\u062f\u064a", "name:ckb": "\u067e\u06cc\u0633\u06a9\u06d5\u0646\u062f\u06cc", "name:en": "Piskandi", "name:fr": "P\u00eeskend\u00ee", "place": "village", "wikidata": "Q61388380", "wikipedia": "ckb:\u067e\u06cc\u0633\u06a9\u06d5\u0646\u062f\u06cc"}}, {"type": "node", "id": 2488317401, "lat": 35.8165144, "lon": 45.101215, "tags": {"is_in": "Iraq , \u062c\u0645\u0647\u0648\u0631\u064a\u0629 \u0627\u0644\u0639\u0631\u0627\u0642", "name": "\u0686\u0627\u06b5\u0627\u063a", "name:ar": "\u062c\u0627\u0644\u0627\u062e", "name:ar1": "\u062c\u0627\u0644\u0627\u062e", "name:de": "Chalagh", "name:en": "Chalagh", "name:fr": "Chalagh", "place": "village", "wikidata": "Q61388395", "wikipedia": "ckb:\u0686\u0627\u06b5\u0627\u063a"}}, {"type": "node", "id": 2488317402, "lat": 35.884206, "lon": 45.206286, "tags": {"is_in": "Iraq , \u062c\u0645\u0647\u0648\u0631\u064a\u0629 \u0627\u0644\u0639\u0631\u0627\u0642", "name": "\u0686\u0627\u06b5\u0627\u0648\u06d5", "name:ar": "\u062c\u0627\u0644\u0627\u0648\u0627", "name:de": "Chalawa", "name:en": "Chalawa", "name:fr": "Chalawa", "place": "village"}}, {"type": "node", "id": 2488317403, "lat": 35.6924397, "lon": 45.3953619, "tags": {"name": "\u0686\u0627\u06b5\u06af\u06d5", "name:de": "Chalga", "name:en": "Chalga", "name:fr": "Chalga", "place": "village"}}, {"type": "node", "id": 2488317495, "lat": 36.0176507, "lon": 45.1785062, "tags": {"int_name": "Chin\u0101rna, Chinarna", "name": "\u0686\u0646\u0627\u0631\u0646\u06d5", "name:de": "Chnarna", "name:en": "Chnarna", "name:fr": "Chnarna", "name:ku": "\u0686\u0646\u0627\u0631\u0646\u06d5", "place": "village"}}, {"type": "node", "id": 2488317496, "lat": 35.648259, "lon": 45.386791, "tags": {"name": "\u0686\u06d5\u0642\u0686\u06d5\u0642", "place": "village"}}, {"type": "node", "id": 2488317500, "lat": 35.7900478, "lon": 45.3035276, "tags": {"name": "\u0686\u06c6\u062e\u0645\u0627\u062e", "name:ckb": "\u0686\u06c6\u062e\u0645\u0627\u062e", "name:en": "Chokhmakh", "name:ku": "\u00c7oxmax", "place": "village", "wikidata": "Q61381647", "wikipedia": "ckb:\u0686\u06c6\u062e\u0645\u0627\u062e"}}, {"type": "node", "id": 2488317508, "lat": 35.9533995, "lon": 45.1316975, "tags": {"name": "\u062f\u06c6\u06b5\u06d5\u0628\u06cc", "name:ar": "\u062f\u0648\u0644\u0628\u064a", "name:ckb": "\u062f\u06c6\u06b5\u06d5\u0628\u06cc", "name:en": "Dolabi", "name:ku": "Doleb\u00ee", "place": "village", "wikidata": "Q31794137", "wikipedia": "ckb:\u062f\u06c6\u06b5\u06d5\u0628\u06cc\u060c \u0645\u06d5\u0631\u06af\u06d5"}}, {"type": "node", "id": 2488317509, "lat": 35.8186189, "lon": 45.0894925, "tags": {"alt_name": "\u062f\u0648\u0644\u0643\u0627\u0646", "int_name": "Dawlk\u0101n, \u062f\u0648\u0644\u0643\u0627\u0646, Dawlkan, \u062f\u0648\u0644\u0643\u0627\u0646", "is_in": "Iraq , \u062c\u0645\u0647\u0648\u0631\u064a\u0629 \u0627\u0644\u0639\u0631\u0627\u0642", "name": "\u062f\u0648\u0644\u0643\u0627\u0646", "name:ar": "\u062f\u0648\u0644\u0643\u0627\u0646", "name:ar1": "\u062f\u0648\u0644\u0643\u0627\u0646", "name:de": "Dawlkan", "name:en": "Dawlkan", "name:fr": "Dawlkan", "place": "village", "wikidata": "Q61388215", "wikipedia": "ckb:\u062f\u0648\u0644\u06a9\u0627\u0646"}}, {"type": "node", "id": 2488317510, "lat": 36.0460143, "lon": 45.3497331, "tags": {"name": "\u062f\u06d5\u0648\u0698\u0627\u0646", "name:ar": "\u062f\u0648\u0632\u0627\u0646", "name:ckb": "\u062f\u06d5\u0648\u0698\u0627\u0646", "name:de": "Dawzhan", "name:en": "Dawzhan", "name:fr": "Dawzhan", "name:ku": "Dewjan", "place": "village", "wikidata": "Q61389685", "wikipedia": "ckb:\u062f\u06d5\u0648\u0698\u0627\u0646"}}, {"type": "node", "id": 2488317511, "lat": 35.8595724, "lon": 45.3917115, "tags": {"name": "\u062f\u0695\u06cc", "name:ar": "\u062f\u0631\u064a", "name:en": "Dri", "place": "village", "wikidata": "Q61381250", "wikipedia": "ckb:\u062f\u0695\u06cc\u060c \u0645\u0627\u0648\u06d5\u062a"}}, {"type": "node", "id": 2488317516, "lat": 35.6584215, "lon": 45.3937478, "tags": {"name": "\u0641\u06d5\u06cc\u0627\u06b5", "name:ckb": "\u0641\u06d5\u06cc\u0627\u06b5", "name:en": "Fayal", "place": "village"}}, {"type": "node", "id": 2488317518, "lat": 35.9718617, "lon": 45.3802234, "tags": {"name": "\u06a9\u06d5\u0645\u0627\u06b5\u0627\u0646\u06cc \u062e\u0648\u0627\u0631\u0648\u0648", "name:ar": "\u06a9\u0645\u0627\u0644\u0627\u0646 \u0633\u0641\u0644\u06cc", "name:en": "Kamalan Lower", "place": "village", "wikidata": "Q61384157", "wikipedia": "ckb:\u06a9\u06d5\u0645\u0627\u06b5\u0627\u0646\u06cc \u062e\u0648\u0627\u0631\u0648\u0648"}}, {"type": "node", "id": 2488317519, "lat": 35.9680896, "lon": 45.3750722, "tags": {"name": "\u06a9\u06d5\u0645\u0627\u06b5\u0627\u0646\u06cc \u0633\u06d5\u0631\u0648\u0648", "name:ar": "\u06a9\u0645\u0627\u0644\u0627\u0646 \u0639\u0644\u06cc\u0627", "name:en": "Kamalan Upper", "place": "village", "wikidata": "Q61384162", "wikipedia": "ckb:\u06a9\u06d5\u0645\u0627\u06b5\u0627\u0646\u06cc \u0633\u06d5\u0631\u0648\u0648"}}, {"type": "node", "id": 2488317520, "lat": 35.7984421, "lon": 45.3524315, "tags": {"alt_name": "\u06af\u0627\u067e\u06cc\u06b5\u06c6\u0646", "capital": "7", "name": "\u06af\u0627\u067e\u06cc\u0644\u06c6\u0646", "name:ar": "\u0643\u0627\u0628\u064a\u0644\u0648\u0646", "name:ckb": "\u06af\u0627\u067e\u06cc\u0644\u06c6\u0646", "name:de": "Gapelon", "name:en": "Gapilon", "name:fr": "Gapelon", "name:ku": "Gap\u00eelon", "place": "town", "wikidata": "Q21666196", "wikipedia": "ckb:\u06af\u0627\u067e\u06cc\u0644\u06c6\u0646"}}, {"type": "node", "id": 2488317521, "lat": 35.8229666, "lon": 45.3327118, "tags": {"name": "\u06af\u06d5\u0695\u06d5\u062f\u06ce", "name:ckb": "\u06af\u06d5\u0695\u06d5\u062f\u06ce", "name:en": "Garade", "name:ku": "Gerred\u00ea", "place": "village", "wikidata": "Q61381750", "wikipedia": "ckb:\u06af\u06d5\u0695\u06d5\u062f\u06ce\u060c \u06af\u0627\u067e\u06cc\u06b5\u06c6\u0646"}}, {"type": "node", "id": 2488317523, "lat": 35.701389, "lon": 45.198889, "tags": {"name": "\u06af\u0631\u062f\u06d5\u0628\u06c6\u0631", "name:ar": "\u06a9\u0631\u062f\u0629\u0628\u0648\u0631", "name:en": "Grdabor", "place": "village"}}, {"type": "node", "id": 2488317524, "lat": 35.732533, "lon": 45.119681, "tags": {"name": "\u06a9\u0631\u0698\u06d5", "name:ar": "\u0643\u0631\u0632\u0629", "name:ckb": "\u0643\u0631\u0698\u06d5", "name:en": "Krzha", "name:ku": "Kirje", "place": "village", "wikidata": "Q61388472", "wikipedia": "ckb:\u06a9\u0631\u0698\u06d5"}}, {"type": "node", "id": 2488317525, "lat": 35.9249731, "lon": 45.1998652, "tags": {"name": "\u06af\u06c6\u0645\u06d5\u0632\u0627\u06b5", "name:ckb": "\u06af\u06c6\u0645\u06d5\u0632\u0627\u06b5", "name:en": "Gomazal", "name:ku": "Gomezal", "place": "village", "wikidata": "Q61388668", "wikipedia": "ckb:\u06af\u06c6\u0645\u06d5\u0632\u0627\u06b5"}}, {"type": "node", "id": 2488317526, "lat": 35.8567523, "lon": 45.3107677, "tags": {"name": "\u06af\u06d5\u0648\u0631\u06d5\u062f\u06ce", "name:ckb": "\u06af\u06d5\u0648\u0631\u06d5\u062f\u06ce", "name:en": "Gawrade", "name:ku": "Gewred\u00ea", "place": "village", "wikidata": "Q61381668", "wikipedia": "ckb:\u06af\u06d5\u0648\u0631\u06d5\u062f\u06ce\u060c \u06af\u0627\u067e\u06cc\u06b5\u06c6\u0646"}}, {"type": "node", "id": 2488317527, "lat": 35.855001, "lon": 45.268122, "tags": {"is_in": "Iraq , \u062c\u0645\u0647\u0648\u0631\u064a\u0629 \u0627\u0644\u0639\u0631\u0627\u0642", "name": "\u06af\u0648\u06ce\u0632\u06cc\u0644\u06d5", "name:ar": "\u0643\u0648\u064a\u0632\u064a\u0644\u0627", "name:ar1": "\u0643\u0648\u064a\u0632\u064a\u0644\u0627", "name:de": "Gozila", "name:en": "Gozila", "name:fr": "Gozila", "place": "village"}}, {"type": "node", "id": 2488317531, "lat": 35.8233967, "lon": 45.101004, "tags": {"alt_name": "\u062d\u0627\u062c\u064a \u0622\u0648\u0627;\u062d\u0627\u062c\u064a\u0627\u0648\u0627", "int_name": "\u1e28\u0101j\u012b \u0100w\u0101, \u062d\u0627\u062c\u064a \u0622\u0648\u0627, Haji Awa, \u062d\u0627\u062c\u064a \u0622\u0648\u0627;H\u0101j\u012b\u0101w\u0101, Hajiawa", "is_in": "Iraq , \u062c\u0645\u0647\u0648\u0631\u064a\u0629 \u0627\u0644\u0639\u0631\u0627\u0642", "name": "\u06a9\u06d5\u0646\u062f\u06d5\u0634\u06cc\u0646", "name:ar": "\u06a9\u0646\u062f\u0629\u0634\u06cc\u0646", "name:ar1": "\u062d\u0627\u062c\u064a \u0622\u0648\u0627;\u062d\u0627\u062c\u064a\u0627\u0648\u0627", "name:de": "Kandashin", "name:en": "Kandashin", "name:fr": "Kandashin", "place": "village", "wikidata": "Q61388484", "wikipedia": "ckb:\u06a9\u06d5\u0646\u062f\u06d5\u0634\u06cc\u0646"}}, {"type": "node", "id": 2488317532, "lat": 35.8197853, "lon": 45.1158052, "tags": {"alt_name": "\u062d\u0627\u062c\u064a \u062a\u0627\u0646", "int_name": "\u1e28\u0101j\u012b T\u0101n, \u1e28\u0101jj\u012b T\u0101n, \u062d\u0627\u062c\u064a \u062a\u0627\u0646, Haji Tan, Hajji Tan, \u062d\u0627\u062c\u064a \u062a\u0627\u0646", "is_in": "Iraq , \u062c\u0645\u0647\u0648\u0631\u064a\u0629 \u0627\u0644\u0639\u0631\u0627\u0642", "name": "\u062d\u0627\u062c\u06cc\u062a\u0627\u0646\u06cc \u0633\u06d5\u0631\u0648\u0648", "name:ar": "\u062d\u0627\u062c\u06cc\u062a\u0627\u0646 \u0627\u0644\u0633\u0641\u0644\u06cc", "name:ar1": "\u062d\u0627\u062c\u064a \u062a\u0627\u0646", "name:de": "Hajitan Upper", "name:en": "Hajitan Upper", "name:fr": "Hajitan Upper", "place": "village", "wikidata": "Q61388406", "wikipedia": "ckb:\u062d\u0627\u062c\u06cc\u062a\u0627\u0646\u06cc \u0633\u06d5\u0631\u0648\u0648"}}, {"type": "node", "id": 2488317534, "lat": 35.8464856, "lon": 45.2153033, "tags": {"alt_name": "\u0647\u06d5\u06b5\u06d5\u062f\u0646", "name": "\u06be\u06d5\u06b5\u06d5\u062f\u0646", "name:ar": "\u0647\u0644\u062f\u0646", "name:ckb": "\u06be\u06d5\u06b5\u06d5\u062f\u0646", "name:en": "Haladn", "name:ku": "Helledin", "place": "village", "wikidata": "Q61388319", "wikipedia": "ckb:\u06be\u06d5\u06b5\u06d5\u062f\u0646"}}, {"type": "node", "id": 2488317535, "lat": 36.0487359, "lon": 45.1162263, "tags": {"name": "\u0647\u06d5\u06b5\u06c6\u0646\u06d5", "name:de": "Hallawnah", "name:en": "Hallawnah", "name:fr": "Hallawnah", "place": "village"}}, {"type": "node", "id": 2488317536, "lat": 35.6744861, "lon": 45.3773816, "tags": {"alt_name": "\u0647\u0646\u0627\u0631\u0627\u0646 \u062e\u0648\u0627\u0631\u0648;\u0647\u0646\u0627\u0631\u0627\u062a", "int_name": "Han\u0101r\u0101n Khuw\u0101r\u016b, \u0647\u0646\u0627\u0631\u0627\u0646 \u062e\u0648\u0627\u0631\u0648, Hanaran Khuwaru, \u0647\u0646\u0627\u0631\u0627\u0646 \u062e\u0648\u0627\u0631\u0648;Hanaran Khwaro, Han\u0101r\u0101t, \u0647\u0646\u0627\u0631\u0627\u062a, Hanaran Khwaro, Hanarat, \u0647\u0646\u0627\u0631\u0627\u062a", "name": "\u06be\u06d5\u0646\u0627\u0631\u0627\u0646\u06cc \u062e\u0648\u0627\u0631\u0648\u0648", "name:ar": "\u06be\u0646\u0627\u0631\u0627\u0646 \u0633\u0641\u0644\u06cc", "name:ar1": "\u0647\u0646\u0627\u0631\u0627\u0646 \u062e\u0648\u0627\u0631\u0648;\u0647\u0646\u0627\u0631\u0627\u062a", "name:de": "Hanaran Lower", "name:en": "Hanaran Lower", "name:fr": "Hanaran Lower", "place": "village"}}, {"type": "node", "id": 2488317538, "lat": 35.7150061, "lon": 45.3462384, "tags": {"is_in": "Iraq , \u062c\u0645\u0647\u0648\u0631\u064a\u0629 \u0627\u0644\u0639\u0631\u0627\u0642", "name": "\u0647\u06d5\u0646\u0627\u0631\u0627\u0646\u06cc \u0633\u06d5\u0631\u0648\u0648", "name:ar": "\u0647\u0646\u0627\u0631\u0627\u0646 \u0633\u0631\u0648", "name:ar1": "\u0647\u0646\u0627\u0631\u0627\u0646 \u0633\u0631\u0648", "name:de": "Hanaran i Saru", "name:en": "Hanaran i Saru", "name:fr": "Hanaran i Saru", "place": "village"}}, {"type": "node", "id": 2488317540, "lat": 35.925822, "lon": 45.169289, "tags": {"is_in": "Iraq , \u062c\u0645\u0647\u0648\u0631\u064a\u0629 \u0627\u0644\u0639\u0631\u0627\u0642", "name": "\u0647\u06d5\u0646\u062c\u06cc\u0631\u06d5", "name:ar": "\u0647\u0646\u062c\u064a\u0644\u0648", "name:ar1": "\u0647\u0646\u062c\u064a\u0644\u0648", "name:de": "Hangira", "name:en": "Hangira", "name:fr": "Hangira", "place": "village"}}, {"type": "node", "id": 2488317542, "lat": 35.6999392, "lon": 45.1663314, "tags": {"is_in": "Iraq , \u062c\u0645\u0647\u0648\u0631\u064a\u0629 \u0627\u0644\u0639\u0631\u0627\u0642", "name": "\u0642\u0627\u0632\u06cc\u0627\u0648\u06d5", "name:ar": "\u0642\u0627\u0632\u06cc\u0627\u0648\u0627", "name:de": "Qazyawa", "name:en": "Qazyawa", "name:fr": "Qazyawa", "place": "village"}}, {"type": "node", "id": 2488317545, "lat": 35.9307, "lon": 45.3537, "tags": {"alt_name": "\u0639\u064a\u0633\u0627\u0648\u0629;\u0628\u0627\u0633\u0627\u0648\u0627", "int_name": "\u012as\u0101wah, \u012asa\u0101wa, \u012as\u0101wa, Isawah, Isaawa, Isawa;Basawa, B\u0101s\u0101w\u0101, \u0628\u0627\u0633\u0627\u0648\u0627, Basawa, Basawa, \u0628\u0627\u0633\u0627\u0648\u0627", "name": "\u0628\u0627\u0633\u0627\u0648\u06ce", "name:ar": "\u0628\u0627\u0633\u0627\u0648\u0627", "name:ar1": "\u0628\u0627\u0633\u0627\u0648\u0627", "name:de": "Basawe", "name:en": "Basawe", "name:fr": "Basawe", "place": "village", "wikidata": "Q61381115", "wikipedia": "ckb:\u0628\u0627\u0633\u0627\u0648\u06ce"}}, {"type": "node", "id": 2488317560, "lat": 35.9364748, "lon": 45.3933689, "tags": {"name": "\u06a9\u0627\u0646\u06cc \u0628\u06cc", "name:ar": "\u0643\u0627\u0646\u064a \u0628\u064a", "name:ar1": "\u0643\u0627\u0646\u064a \u0628\u064a", "name:de": "Kani Bi", "name:en": "Kani Bi", "name:fr": "Kani Bi", "place": "village", "wikidata": "Q61381445", "wikipedia": "ckb:\u06a9\u0627\u0646\u06cc \u0628\u06cc\u060c \u0645\u0627\u0648\u06d5\u062a"}}, {"type": "node", "id": 2488317561, "lat": 35.916131, "lon": 45.3943446, "tags": {"name": "\u06a9\u0627\u0646\u06cc \u0628\u06ce\u0648\u06a9\u06d5", "name:ar": "\u06a9\u0627\u0646\u064a \u0628\u06cc\u0648\u06a9\u0629", "name:en": "Kani Bewka", "place": "village"}}, {"type": "node", "id": 2488317563, "lat": 36.0143356, "lon": 45.2469397, "tags": {"alt_name": "\u062c\u0648\u064a\u0632\u064a\u0629", "int_name": "Juezia, Juwayziyah, \u062c\u0648\u064a\u0632\u064a\u0629, Juezia, Juwayziyah, \u062c\u0648\u064a\u0632\u064a\u0629", "is_in": "Iraq , \u062c\u0645\u0647\u0648\u0631\u064a\u0629 \u0627\u0644\u0639\u0631\u0627\u0642", "name": "\u06a9\u0627\u0646\u06cc \u06a9\u06cc\u0698", "name:ar": "\u06a9\u0627\u0646\u06cc \u06a9\u06cc\u0632", "name:ar1": "\u062c\u0648\u064a\u0632\u064a\u0629", "name:de": "Kani Kizh", "name:en": "Kani Kizh", "name:fr": "Kani Kizh", "place": "village", "wikidata": "Q61388534", "wikipedia": "ckb:\u06a9\u0627\u0646\u06cc \u06a9\u06cc\u0698"}}, {"type": "node", "id": 2488317564, "lat": 35.6691088, "lon": 45.2744379, "tags": {"name": "\u06a9\u0627\u0646\u06cc \u0645\u06d5\u0646\u0645", "name:de": "Kani Manim", "name:en": "Kani Manim", "name:fr": "Kani Manim", "place": "village"}}, {"type": "node", "id": 2488317565, "lat": 35.8337498, "lon": 45.3205483, "tags": {"int_name": "K\u0101n\u012b Mew, K\u0101n\u012b M\u012bw, \u0643\u0627\u0646\u064a \u0645\u064a\u0648, Kani Mew, Kani Miw, \u0643\u0627\u0646\u064a \u0645\u064a\u0648", "name": "\u06a9\u0627\u0646\u06cc \u0645\u06ce\u0648", "name:ar": "\u0643\u0627\u0646\u064a \u0645\u064a\u0648", "name:ckb": "\u06a9\u0627\u0646\u06cc \u0645\u06ce\u0648", "name:de": "Kani Mew", "name:en": "Kani Mew", "name:fr": "Kani Mew", "name:ku": "Kan\u00ee M\u00eaw", "place": "village", "wikidata": "Q61381728", "wikipedia": "ckb:\u06a9\u0627\u0646\u06cc \u0645\u06ce\u0648"}}, {"type": "node", "id": 2488317566, "lat": 35.796383, "lon": 45.1101682, "tags": {"alt_name": "\u0643\u0627\u0646\u064a \u0645\u064a\u0631\u0627\u0646", "int_name": "K\u0101n\u012b M\u012br\u0101n, \u0643\u0627\u0646\u064a \u0645\u064a\u0631\u0627\u0646, Kani Miran, \u0643\u0627\u0646\u064a \u0645\u064a\u0631\u0627\u0646", "name": "\u0643\u0627\u0646\u064a \u0645\u064a\u0631\u0627\u0646", "name:ar": "\u0643\u0627\u0646\u064a \u0645\u064a\u0631\u0627\u0646", "name:ar1": "\u0643\u0627\u0646\u064a \u0645\u064a\u0631\u0627\u0646", "name:de": "Kani Miran", "name:en": "Kani Miran", "name:fr": "Kani Miran", "place": "village", "wikidata": "Q61388466", "wikipedia": "ckb:\u06a9\u0627\u0646\u06cc \u0645\u06cc\u0631\u0627\u0646"}}, {"type": "node", "id": 2488317568, "lat": 35.999028, "lon": 45.192583, "tags": {"name": "\u06a9\u0627\u0646\u06cc \u062a\u0648\u0648", "name:de": "Kani Too", "name:en": "Kani Too", "name:fr": "Kani Too", "place": "village"}}, {"type": "node", "id": 2488317569, "lat": 35.7607974, "lon": 45.1410505, "tags": {"is_in": "Iraq , \u062c\u0645\u0647\u0648\u0631\u064a\u0629 \u0627\u0644\u0639\u0631\u0627\u0642", "name": "\u06a9\u0627\u0631\u06ce\u0632\u06cc \u0633\u06d5\u0639\u06cc\u062f", "name:ar": "\u0643\u0627\u0631\u064a\u0632\u064a \u0633\u0639\u064a\u062f", "name:ar1": "\u0643\u0627\u0631\u064a\u0632\u064a \u0633\u0639\u064a\u062f", "name:de": "Karayzi Said", "name:en": "Karayzi Said", "name:fr": "Karayzi Said", "place": "village", "wikidata": "Q61388460", "wikipedia": "ckb:\u06a9\u0627\u0631\u06ce\u0632\u06cc \u0633\u06d5\u0639\u06cc\u062f"}}, {"type": "node", "id": 2488317590, "lat": 35.9530963, "lon": 45.3861198, "tags": {"name": "\u062e\u06d5\u0632\u06ce\u0646\u06d5", "name:ar": "\u062e\u0632\u06cc\u0646\u0629", "name:en": "Khazena", "place": "village", "wikidata": "Q61381188", "wikipedia": "ckb:\u062e\u06d5\u0632\u06ce\u0646\u06d5\u060c \u0645\u0627\u0648\u06d5\u062a"}}, {"type": "node", "id": 2488317673, "lat": 35.9669305, "lon": 45.1505453, "tags": {"name": "\u062e\u0648\u0695\u062e\u0648\u0695\u06d5", "name:ar": "\u062e\u0631\u062e\u0631\u0629", "name:ckb": "\u062e\u0648\u0695\u062e\u0648\u0695\u06d5", "name:en": "Khurkhura", "name:ku": "Xurxure", "place": "village", "wikidata": "Q61388601", "wikipedia": "ckb:\u062e\u0648\u0695\u062e\u0648\u0695\u06d5\u060c \u0645\u06d5\u0631\u06af\u06d5"}}, {"type": "node", "id": 2488317715, "lat": 35.7440599, "lon": 45.1154609, "tags": {"name": "\u06a9\u06c6\u06a9\u06d5", "name:ar": "\u0643\u0648\u0643\u0629", "name:ckb": "\u06a9\u06c6\u06a9\u06d5", "name:en": "Koka", "name:ku": "Koke", "place": "village", "wikidata": "Q61388486", "wikipedia": "ckb:\u06a9\u06c6\u06a9\u06d5\u060c \u067e\u06cc\u0631\u06d5\u0645\u06d5\u06af\u0631\u0648\u0646"}}, {"type": "node", "id": 2488317744, "lat": 36.0379365, "lon": 45.1391526, "tags": {"name": "\u0644\u06c6\u062a\u06d5\u0631", "name:de": "Lotar", "name:en": "Lotar", "name:fr": "Lotar", "place": "village"}}, {"type": "node", "id": 2488317789, "lat": 35.86941, "lon": 45.162285, "tags": {"is_in": "Iraq , \u062c\u0645\u0647\u0648\u0631\u064a\u0629 \u0627\u0644\u0639\u0631\u0627\u0642", "name": "\u0633\u06d5\u0631\u06af\u06d5\u06b5\u0648\u0648", "name:ar": "\u0633\u0631\u0643\u0644\u0648", "name:en": "Sargalu", "name:ku": "sergell\u00fb", "place": "village"}}, {"type": "node", "id": 2488317803, "lat": 36.0217083, "lon": 45.0952944, "tags": {"is_in": "Iraq , \u062c\u0645\u0647\u0648\u0631\u064a\u0629 \u0627\u0644\u0639\u0631\u0627\u0642", "name": "\u0645\u06d5\u0644\u0627 \u0633\u0627\u0641\u06cc", "name:ar": "\u0645\u06d5\u0644\u0627 \u0633\u0627\u0641\u06cc", "name:ar1": "\u0645\u0644\u0627 \u0635\u0641\u064a", "name:de": "Mala Safi", "name:en": "Mala Safi", "name:fr": "Mala Safi", "place": "village", "wikidata": "Q61388543", "wikipedia": "ckb:\u0645\u06d5\u0644\u0627\u0633\u0627\u0641\u06cc"}}, {"type": "node", "id": 2488317811, "lat": 35.829258, "lon": 45.295462, "tags": {"alt_name": "\u0645\u0627\u0644\u0648\u0645\u06d5", "alt_name:ku": "Malume", "int_name": "Maluma, M\u0101l\u016bma, M\u0101l\u016bmah, \u0645\u0627\u0644\u0648\u0645\u0629, Maluma, Maluma, Malumah, \u0645\u0627\u0644\u0648\u0645\u0629", "name": "\u0645\u0627\u0644\u0648\u0648\u0645\u06d5", "name:ar": "\u0645\u0627\u0644\u0648\u0645\u0629", "name:ckb": "\u0645\u0627\u0644\u0648\u0648\u0645\u06d5", "name:de": "Maluma", "name:en": "Maluma", "name:fr": "Maluma", "name:ku": "Mal\u00fbme", "place": "village", "wikidata": "Q61381785", "wikipedia": "ckb:\u0645\u0627\u0644\u0648\u0645\u06d5"}}, {"type": "node", "id": 2488317842, "lat": 35.913082, "lon": 45.1365566, "tags": {"alt_name": "\u0645\u0648\u0644\u0627\u0646", "int_name": "Mawlan, Mawl\u0101n, \u0645\u0648\u0644\u0627\u0646, Mawlan, Mawlan, \u0645\u0648\u0644\u0627\u0646", "is_in": "Iraq , \u062c\u0645\u0647\u0648\u0631\u064a\u0629 \u0627\u0644\u0639\u0631\u0627\u0642", "name": "\u0645\u06d5\u0648\u0644\u0627\u0646", "name:ar1": "\u0645\u0648\u0644\u0627\u0646", "name:de": "Mawlan", "name:en": "Mawlan", "name:fr": "Mawlan", "place": "village", "wikidata": "Q61388265", "wikipedia": "ckb:\u0645\u06d5\u0648\u0644\u0627\u0646"}}, {"type": "node", "id": 2488317856, "lat": 35.768112, "lon": 45.340093, "tags": {"name": "\u0645\u06ce\u0648\u06b5\u0627\u06a9\u06d5", "name:ckb": "\u0645\u06ce\u0648\u06b5\u0627\u06a9\u06d5", "name:en": "Mewlaka", "name:ku": "M\u00eawllake", "place": "village", "wikidata": "Q61381788", "wikipedia": "ckb:\u0645\u06ce\u0648\u06b5\u0627\u06a9\u06d5"}}, {"type": "node", "id": 2488317863, "lat": 35.7830819, "lon": 45.1114614, "tags": {"name": "\u0645\u0648\u063a\u0627\u063a", "name:ar": "\u0645\u063a\u0627\u063a", "name:ckb": "\u0645\u0648\u063a\u0627\u063a", "name:en": "Mughagh", "name:ku": "Muxax", "place": "village", "wikidata": "Q61388496", "wikipedia": "ckb:\u0645\u0648\u063a\u0627\u063a"}}, {"type": "node", "id": 2488317907, "lat": 36.0450771, "lon": 45.1262603, "tags": {"alt_name": "\u0646\u0648\u0644 \u062c\u0648\u0643\u0629", "int_name": "Nawl\u014dchka, N\u016bl J\u016bkah, \u0646\u0648\u0644 \u062c\u0648\u0643\u0629, Nawlochka, Nul Jukah, \u0646\u0648\u0644 \u062c\u0648\u0643\u0629", "is_in": "Iraq , \u062c\u0645\u0647\u0648\u0631\u064a\u0629 \u0627\u0644\u0639\u0631\u0627\u0642", "name": "\u0646\u06c6\u06b5\u0686\u06a9\u06d5", "name:ar1": "\u0646\u0648\u0644 \u062c\u0648\u0643\u0629", "name:de": "Nolchka", "name:en": "Nolchka", "name:fr": "Nolchka", "place": "village"}}, {"type": "node", "id": 2488317922, "lat": 35.6602682, "lon": 45.2857355, "tags": {"name": "\u0642\u06d5\u0645\u06d5\u0631\u062a\u0644\u06cc", "name:ar": "\u0642\u0645\u0631\u062a\u0644\u064a", "name:en": "Qamartly", "place": "village"}}, {"type": "node", "id": 2488317929, "lat": 35.8770664, "lon": 45.3598697, "tags": {"name": "\u0642\u0627\u0645\u06cc\u0634", "place": "village"}}, {"type": "node", "id": 2488317937, "lat": 35.877728, "lon": 45.3575367, "tags": {"alt_name": "\u0642\u0645\u0634", "int_name": "Qamish, Qamish", "is_in": "Iraq , \u062c\u0645\u0647\u0648\u0631\u064a\u0629 \u0627\u0644\u0639\u0631\u0627\u0642", "name": "\u0642\u0645\u0634", "name:ar": "\u0642\u0645\u0634", "name:ar1": "\u0642\u0645\u0634", "name:de": "Qamish", "name:en": "Qamish", "name:fr": "Qamish", "place": "village"}}, {"type": "node", "id": 2488317943, "lat": 35.8774985, "lon": 45.3584012, "tags": {"alt_name": "\u0642\u0627\u0645\u064a\u0633\u064a", "int_name": "Qamishi", "is_in": "Iraq , \u062c\u0645\u0647\u0648\u0631\u064a\u0629 \u0627\u0644\u0639\u0631\u0627\u0642", "name": "\u0642\u0627\u0645\u06cc\u0634", "name:ar": "\u0642\u0627\u0645\u06cc\u0634", "name:ar1": "\u0642\u0627\u0645\u064a\u0633\u064a", "name:de": "Qamishi", "name:en": "Qamish \u0642\u0627\u0645\u06cc\u0634", "name:fr": "Qamishi", "name:ku": "\u0642\u0627\u0645\u06cc\u0634", "place": "village"}}, {"type": "node", "id": 2488317968, "lat": 36.0351325, "lon": 45.3362622, "tags": {"name": "\u0642\u0646\u062f\u06c6\u06b5", "name:ar": "\u0642\u0646\u062f\u0648\u0644", "name:ckb": "\u200e\u0642\u0646\u062f\u06c6\u06b5", "name:de": "Qndol", "name:en": "Qndol", "name:fr": "Qndol", "name:ku": "Qindoll", "place": "village", "wikidata": "Q61389697", "wikipedia": "ckb:\u0642\u0646\u062f\u06c6\u06b5"}}, {"type": "node", "id": 2488317975, "lat": 35.9166133, "lon": 45.1053653, "tags": {"is_in": "Iraq , \u062c\u0645\u0647\u0648\u0631\u064a\u0629 \u0627\u0644\u0639\u0631\u0627\u0642", "name": "\u0642\u06d5\u0631\u06d5\u0646\u06af\u0648\u06ce", "name:ar": "\u0642\u0631\u0629 \u0623\u0646\u0643\u0648\u064a\u0629", "name:ar1": "\u0642\u0631\u0629 \u0623\u0646\u0643\u0648\u064a\u0629", "name:de": "Qara Ango", "name:en": "Qara Ango", "name:fr": "Qara Ango", "place": "village", "wikidata": "Q61388300", "wikipedia": "ckb:\u0642\u06d5\u0631\u06d5\u0646\u06af\u0648\u06ce"}}, {"type": "node", "id": 2488317982, "lat": 35.7446501, "lon": 45.1949776, "tags": {"name": "\u0642\u06d5\u0631\u06d5\u0686\u06d5\u062a\u0627\u0646", "name:ar": "\u0642\u0631\u062c\u062a\u0627\u0646", "name:ckb": "\u0642\u06d5\u0631\u06d5\u0686\u06d5\u062a\u0627\u0646", "name:en": "Qarachatan", "name:ku": "Qere\u00e7etan", "place": "village", "wikidata": "Q61388379", "wikipedia": "ckb:\u0642\u06d5\u0631\u06d5\u0686\u06d5\u062a\u0627\u0646"}}, {"type": "node", "id": 2488318003, "lat": 35.7039607, "lon": 45.089746, "tags": {"alt_name": "\u0642\u0627\u0632\u0627\u0646", "int_name": "Q\u0101z\u0101n, \u0642\u0627\u0632\u0627\u0646, Qazan, \u0642\u0627\u0632\u0627\u0646", "is_in": "Iraq , \u062c\u0645\u0647\u0648\u0631\u064a\u0629 \u0627\u0644\u0639\u0631\u0627\u0642", "name": "\u0642\u0627\u0632\u0627\u0646", "name:ar": "\u0642\u0627\u0632\u0627\u0646", "name:ar1": "\u0642\u0627\u0632\u0627\u0646", "name:de": "Qazan", "name:en": "Qazan", "name:fr": "Qazan", "place": "village"}}, {"type": "node", "id": 2488318009, "lat": 35.7677675, "lon": 45.2942169, "tags": {"name": "\u0642\u0632\u0644\u06d5\u0631", "name:ar": "\u0642\u0632\u0644\u0631", "name:ckb": "\u0642\u0632\u0644\u06d5\u0631", "name:en": "Qzlar", "name:ku": "Qizler", "place": "village", "wikidata": "Q5989160", "wikipedia": "ckb:\u0642\u0632\u0644\u06d5\u0631"}}, {"type": "node", "id": 2488318015, "lat": 35.777488, "lon": 45.36998, "tags": {"name": "\u0642\u0648\u06b5\u06d5\u0686\u0627\u062e", "name:ckb": "\u0642\u0648\u06b5\u06d5\u0686\u0627\u062e", "name:en": "Qulachakh", "name:ku": "Qulle\u00e7ax", "place": "village", "wikidata": "Q61381775", "wikipedia": "ckb:\u0642\u0648\u06b5\u06d5\u0686\u0627\u062e"}}, {"type": "node", "id": 2488318022, "lat": 35.9191257, "lon": 45.1260407, "tags": {"alt_name": "\u0642\u0645\u0631 \u0639\u0627\u0646", "int_name": "Qomirgh\u0101n, Qumar \u0100n, \u0642\u0645\u0631 \u0639\u0627\u0646, Qomirghan, Qumar An, \u0642\u0645\u0631 \u0639\u0627\u0646", "is_in": "Iraq , \u062c\u0645\u0647\u0648\u0631\u064a\u0629 \u0627\u0644\u0639\u0631\u0627\u0642", "name": "\u0642\u06c6\u0645\u06d5\u0631\u063a\u0627\u0646", "name:ar1": "\u0642\u0645\u0631 \u0639\u0627\u0646", "name:de": "Qomirghan", "name:en": "Qomirghan", "name:fr": "Qomirghan", "place": "village", "wikidata": "Q61388248", "wikipedia": "ckb:\u0642\u0648\u0645\u06d5\u0631\u063a\u0627\u0646"}}, {"type": "node", "id": 2488318028, "lat": 35.9452007, "lon": 45.3876357, "tags": {"alt_name": "\u0642\u0648\u0644\u0629 \u0628\u0644\u0643", "int_name": "Q\u016blah Palk, Q\u016blapalk, \u0642\u0648\u0644\u0629 \u067e\u0644\u0643, Qulah Palk, Qulapalk, \u0642\u0648\u0644\u0629 \u067e\u0644\u0643", "name": "\u062f\u0631\u06d5\u0648\u0634\u0627\u0648\u06ce", "name:ar": "\u062f\u0631\u0648\u0634\u0627\u0648\u06cc", "name:ar1": "\u0642\u0648\u0644\u0629 \u0628\u0644\u0643", "name:de": "Drawshawe", "name:en": "Drawshawe", "name:fr": "Drawshawe", "place": "village", "wikidata": "Q61381239", "wikipedia": "ckb:\u062f\u0631\u06d5\u0648\u0634\u0627\u0648\u06ce"}}, {"type": "node", "id": 2488318034, "lat": 35.70181, "lon": 45.3876473, "tags": {"alt_name": "\u0642\u0644\u0642\u0644\u0629", "int_name": "Qulqla, Qulqula, Qulqulah, \u0642\u0644\u0642\u0644\u0629, Qulqla, Qulqula, Qulqulah, \u0642\u0644\u0642\u0644\u0629", "is_in": "Iraq , \u062c\u0645\u0647\u0648\u0631\u064a\u0629 \u0627\u0644\u0639\u0631\u0627\u0642", "name": "\u0642\u0648\u06b5\u0642\u0648\u06b5\u06d5", "name:ar": "\u0642\u0648\u0644\u0642\u0648\u0644\u0629", "name:ar1": "\u0642\u0644\u0642\u0644\u0629", "name:de": "Qulqla", "name:en": "Qulqula", "name:fr": "Qulqla", "place": "village"}}, {"type": "node", "id": 2488318041, "lat": 36.0197722, "lon": 45.2399838, "tags": {"name": "\u0695\u06d5\u0628\u06d5\u0646", "name:ar": "\u0631\u0628\u0646", "name:en": "Raban", "place": "village", "wikidata": "Q61388531", "wikipedia": "ckb:\u0695\u06d5\u0628\u06d5\u0646\u060c \u0645\u06d5\u0631\u06af\u06d5"}}, {"type": "node", "id": 2488318105, "lat": 35.8099896, "lon": 45.1064228, "tags": {"alt_name": "\u0635\u0627\u0628\u0648\u0631 \u0622\u0648\u0627;\u0635\u0627\u0628\u0648\u0631 \u0622\u0648\u0629", "int_name": "\u015e\u0101bur \u0100w\u0101, \u015e\u0101b\u016br \u0100wah, S\u0101bur\u0101w\u0101, \u0635\u0627\u0628\u0631 \u0627\u0648\u0627, Sabur Awa, Sabur Awah, Saburawa, \u0635\u0627\u0628\u0631 \u0627\u0648\u0627;\u0635\u0627\u0628\u0648\u0631 \u0622\u0648\u0629, \u0635\u0627\u0628\u0648\u0631 \u0622\u0648\u0629", "is_in": "Iraq , \u062c\u0645\u0647\u0648\u0631\u064a\u0629 \u0627\u0644\u0639\u0631\u0627\u0642", "name": "\u0633\u0627\u0628\u0648\u0631\u0627\u0648\u0627", "name:ar": "\u0633\u0627\u0628\u0648\u0631\u0627\u0648\u0627", "name:ar1": "\u0635\u0627\u0628\u0648\u0631 \u0622\u0648\u0627;\u0635\u0627\u0628\u0648\u0631 \u0622\u0648\u0629", "name:de": "Saburawa", "name:en": "Saburawa", "name:fr": "Saburawa", "place": "village", "wikidata": "Q61388425", "wikipedia": "ckb:\u0633\u0627\u0628\u0648\u0631\u0627\u0648\u0627"}}, {"type": "node", "id": 2488318112, "lat": 35.9488007, "lon": 45.336948, "tags": {"alt_name": "\u0633\u0641\u0631;\u0633\u0641\u0631\u0627", "int_name": "Safr, Safr\u0101, \u0633\u0641\u0631, Safr, Safra, \u0633\u0641\u0631;\u0633\u0641\u0631\u0627, \u0633\u0641\u0631\u0627", "name": "\u0633\u06d5\u0641\u0631\u06d5", "name:ar": "\u0633\u0641\u0631\u0629", "name:ar1": "\u0633\u0641\u0631;\u0633\u0641\u0631\u0627", "name:de": "Safra", "name:en": "Safra", "name:fr": "Safra", "place": "village", "wikidata": "Q61381352", "wikipedia": "ckb:\u0633\u06d5\u0641\u0631\u06d5"}}, {"type": "node", "id": 2488318126, "lat": 35.8299252, "lon": 45.0979634, "tags": {"is_in": "Iraq , \u062c\u0645\u0647\u0648\u0631\u064a\u0629 \u0627\u0644\u0639\u0631\u0627\u0642", "name": "\u06a9\u0627\u0646\u06cc \u0634\u06c6\u06a9", "name:ar": "\u06a9\u0627\u0646\u064a \u0634\u0648\u06a9", "name:ar1": "\u0633\u0631\u062c\u0627\u0648", "name:de": "Kani Shok", "name:en": "Kani Shok", "name:fr": "Kani Shok", "place": "village", "wikidata": "Q61388302", "wikipedia": "ckb:\u06a9\u0627\u0646\u06cc \u0634\u06c6\u06a9"}}, {"type": "node", "id": 2488318140, "lat": 35.8809321, "lon": 45.13526, "tags": {"alt_name": "\u0633\u064a \u0643\u0627\u0646\u064a\u0627\u0646", "int_name": "Say K\u0101ny\u0101n, Seh K\u0101n\u012b\u0101n, Sehk\u0101niy\u0101n, Sekanian, Sekanian Shekh Bakh, S\u0113k\u0101n\u012by\u0101n, \u0633\u064a \u0643\u0627\u0646\u064a\u0627\u0646, Say Kanyan, Seh Kanian, Sehkaniyan, Sekanian, Sekanian Shekh Bakh, Sekaniyan, \u0633\u064a \u0643\u0627\u0646\u064a\u0627\u0646", "is_in": "Iraq , \u062c\u0645\u0647\u0648\u0631\u064a\u0629 \u0627\u0644\u0639\u0631\u0627\u0642", "name": "\u0633\u06ce\u06a9\u0627\u0646\u06cc\u0627\u0646", "name:ar": "\u0633\u064a \u0643\u0627\u0646\u064a\u0627\u0646", "name:ar1": "\u0633\u064a \u0643\u0627\u0646\u064a\u0627\u0646", "name:de": "Say Kanyan", "name:en": "Say Kanyan", "name:fr": "Say Kanyan", "place": "village", "wikidata": "Q61388232", "wikipedia": "ckb:\u0633\u06ce\u06a9\u0627\u0646\u06cc\u0627\u0646\u06cc \u0634\u06ce\u062e \u0628\u0627\u062e"}}, {"type": "node", "id": 2488318167, "lat": 35.8616544, "lon": 45.1033419, "tags": {"name": "\u0633\u0648\u0631\u062f\u0627\u0634", "name:ar": "\u0633\u0648\u0631\u062f\u0627\u0634", "name:ckb": "\u0633\u0648\u0631\u062f\u0627\u0634", "name:en": "Surdash", "name:ku": "Surda\u015f", "place": "town", "wikidata": "Q61388192", "wikipedia": "ckb:\u0633\u0648\u0631\u062f\u0627\u0634"}}, {"type": "node", "id": 2488318180, "lat": 35.8356815, "lon": 45.1602782, "tags": {"name": "\u0634\u06d5\u062f\u06d5\u06b5\u06d5", "name:ckb": "\u0634\u06d5\u062f\u06d5\u06b5\u06d5\u06cc \u0633\u06d5\u0631\u0648\u0648", "name:de": "Shadahla", "name:en": "Shadahla", "name:fr": "Shadahla", "name:ku": "\u015fedele'y ser\u00fb", "place": "village"}}, {"type": "node", "id": 2488318233, "lat": 35.989944, "lon": 45.101517, "tags": {"alt_name": "\u0634\u0627\u0631\u0633\u062a\u064a\u0646", "int_name": "Sharisten, Sh\u0101rist\u012bn, Sh\u0101rist\u012bnah, \u0634\u0627\u0631\u0633\u062a\u064a\u0646, Sharisten, Sharistin, Sharistinah, \u0634\u0627\u0631\u0633\u062a\u064a\u0646", "name": "\u0634\u0627\u0631\u0633\u062a\u06ce\u0646", "name:de": "Sharisten", "name:en": "Sharisten", "name:fr": "Sharisten", "place": "village"}}, {"type": "node", "id": 2488318239, "lat": 35.8874709, "lon": 45.1035365, "tags": {"alt_name": "\u0634\u06ce\u062e \u0628\u0627\u063a", "name": "\u0634\u06ce\u062e \u0628\u0627\u062e", "name:ar": "\u0634\u064a\u062e \u0628\u0627\u062e", "name:ckb": "\u0634\u06ce\u062e \u0628\u0627\u062e", "name:en": "Shekh Bakh", "name:fr": "\u015e\u00eax Bax", "place": "village", "wikidata": "Q61388244", "wikipedia": "ckb:\u0634\u06ce\u062e \u0628\u0627\u062e"}}, {"type": "node", "id": 2488318264, "lat": 35.9180608, "lon": 45.3520517, "tags": {"alt_name": "\u0634\u064a\u0646\u0643\u064a", "int_name": "Sh\u012bnk\u012b, \u0634\u064a\u0646\u0643\u064a, Shinki, \u0634\u064a\u0646\u0643\u064a", "name": "\u0634\u06cc\u0646\u06a9\u06cc", "name:ar": "\u0634\u064a\u0646\u0643\u064a", "name:ar1": "\u0634\u064a\u0646\u0643\u064a", "name:de": "Shinki", "name:en": "Shinki", "name:fr": "Shinki", "place": "village", "wikidata": "Q61381360", "wikipedia": "ckb:\u0634\u06cc\u0646\u06a9\u06cc"}}, {"type": "node", "id": 2488318353, "lat": 35.7318994, "lon": 45.2225829, "tags": {"alt_name": "\u0634\u064a\u0648\u064a \u0643\u0627\u0632\u064a\u0631", "int_name": "Sh\u012bw\u012b K\u0101z\u012br, \u0634\u064a\u0648\u064a \u0643\u0627\u0632\u064a\u0631, Shiwi Kazir, \u0634\u064a\u0648\u064a \u0643\u0627\u0632\u064a\u0631", "is_in": "Iraq , \u062c\u0645\u0647\u0648\u0631\u064a\u0629 \u0627\u0644\u0639\u0631\u0627\u0642", "name": "\u0634\u06cc\u0648\u06cc \u06a9\u0627\u0632\u06ce\u0631", "name:ar": "\u0634\u064a\u0648\u064a \u0643\u0627\u0632\u064a\u0631", "name:ar1": "\u0634\u064a\u0648\u064a \u0643\u0627\u0632\u064a\u0631", "name:de": "Shiwi Kazir", "name:en": "Shiwi Kazir", "name:fr": "Shiwi Kazir", "place": "village"}}, {"type": "node", "id": 2488318444, "lat": 35.783514, "lon": 45.154546, "tags": {"is_in": "Iraq , \u062c\u0645\u0647\u0648\u0631\u064a\u0629 \u0627\u0644\u0639\u0631\u0627\u0642", "name": "\u0633\u0648\u0648\u0633\u06ce\u06cc \u0626\u0627\u06b5\u06d5\u0645\u06d5\u0631\u06d5", "name:ar": "\u0633\u0648\u0633\u064a \u0622\u0644\u0645\u0631\u0629", "name:ar1": "\u0633\u0648\u0633\u064a \u0627\u0644\u0647\u0645\u0631\u064a", "name:de": "Susei Alamara", "name:en": "Susei Alamara", "name:fr": "Susei Alamara", "place": "village"}}, {"type": "node", "id": 2488318451, "lat": 35.7790739, "lon": 45.1381362, "tags": {"is_in": "Iraq , \u062c\u0645\u0647\u0648\u0631\u064a\u0629 \u0627\u0644\u0639\u0631\u0627\u0642", "name": "\u0633\u0648\u0648\u0633\u06ce\u06cc \u0633\u06d5\u06cc\u062f\u0627\u0646", "name:ar": "\u0633\u0648\u0633\u064a \u0633\u064a\u062f\u0627\u0646", "name:de": "Susay Saydan", "name:en": "Susay Saydan", "name:fr": "Susay Saydan", "place": "village"}}, {"type": "node", "id": 2488318457, "lat": 35.7667792, "lon": 45.1072856, "tags": {"is_in": "Iraq , \u062c\u0645\u0647\u0648\u0631\u064a\u0629 \u0627\u0644\u0639\u0631\u0627\u0642", "name": "\u0633\u0648\u0648\u0633\u06ce\u06cc \u06a9\u06c6\u0646", "name:ar": "\u0633\u0648\u0633\u064a \u0643\u0648\u0646", "name:ar1": "\u0633\u0648\u0633\u064a \u0643\u0648\u0646", "name:de": "Suse i Kon", "name:en": "Suse i Kon", "name:fr": "Suse i Kon", "place": "village", "wikidata": "Q61388429", "wikipedia": "ckb:\u0633\u0648\u0633\u06ce\u06cc \u06a9\u06c6\u0646"}}, {"type": "node", "id": 2488318463, "lat": 35.6730055, "lon": 45.1053799, "tags": {"name": "\u062a\u06d5\u0695\u06d5\u0645\u0627\u0631\u06cc \u0633\u06d5\u0631\u0648\u0648", "name:ar": "\u062a\u0631\u0645\u0627\u0631 \u0627\u0644\u0639\u0644\u06cc\u0627", "name:en": "Taramar Upper", "place": "village", "wikidata": "Q61388332", "wikipedia": "ckb:\u062a\u06d5\u0695\u06d5\u0645\u0627\u0631\u06cc \u0633\u06d5\u0631\u0648\u0648"}}, {"type": "node", "id": 2488318469, "lat": 35.6794866, "lon": 45.1342534, "tags": {"name": "\u062a\u06d5\u0695\u06d5\u0645\u0627\u0631\u06cc \u0646\u0627\u0648\u06d5\u0695\u0627\u0633\u062a", "name:ar": "\u062a\u0631\u0645\u0627\u0631 \u0627\u0644\u0648\u0633\u0637\u06cc", "name:en": "Taramar Middle", "place": "village"}}, {"type": "node", "id": 2488318514, "lat": 35.7006481, "lon": 45.1348352, "tags": {"name": "\u062a\u06d5\u0695\u06d5\u0645\u0627\u0631\u06cc \u062e\u0648\u0627\u0631\u0648\u0648", "name:ar": "\u062a\u0631\u0645\u0627\u0631 \u0627\u0644\u0633\u0641\u0644\u06cc", "name:en": "Taramar Lower", "place": "village"}}, {"type": "node", "id": 2488318519, "lat": 35.832242, "lon": 45.369558, "tags": {"name": "\u0648\u06b5\u0627\u063a\u0644\u0648\u0648", "name:ar": "\u0648\u0644\u0627\u063a\u0644\u0648", "name:en": "Wlaghlu", "place": "village", "wikidata": "Q61381794", "wikipedia": "ckb:\u0648\u0648\u06b5\u0627\u063a\u0644\u0648"}}, {"type": "node", "id": 2488318526, "lat": 35.855291, "lon": 45.128597, "tags": {"alt_name": "\u0647\u0648\u0645\u0631 \u0642\u0648\u0645", "int_name": "Umar Qawn, Hamar Qawm, Hawmar Qaw, Hawmar Qawm, Homar Qawm, H\u014dmarq\u014dm, \u0647\u0648\u0645\u0631 \u0642\u0648, \u0647\u0648\u0645\u0631 \u0642\u0648\u0645, Umar Qawn, Hamar Qawm, Hawmar Qaw, Hawmar Qawm, Homar Qawm, Homarqom, \u0647\u0648\u0645\u0631 \u0642\u0648, \u0647\u0648\u0645\u0631 \u0642\u0648\u0645", "is_in": "Iraq , \u062c\u0645\u0647\u0648\u0631\u064a\u0629 \u0627\u0644\u0639\u0631\u0627\u0642", "name": "\u0647\u06c6\u0645\u06d5\u0631 \u0642\u06d5\u0648\u0645", "name:ar": "\u0647\u0648\u0645\u0631 \u0642\u0648\u0645", "name:ar1": "\u0647\u0648\u0645\u0631 \u0642\u0648\u0645", "name:de": "Umar Qawn", "name:en": "Umar Qawn", "name:fr": "Umar Qawn", "place": "village"}}, {"type": "node", "id": 2488318634, "lat": 35.9013599, "lon": 45.1481931, "tags": {"alt_name": "\u0648\u0627\u062f\u064a \u062f\u0631\u0627\u0648", "int_name": "W\u0101d\u012b Dir\u0101w, \u0648\u0627\u062f\u064a \u062f\u0631\u0627\u0648, Wadi Diraw, \u0648\u0627\u062f\u064a \u062f\u0631\u0627\u0648", "is_in": "Iraq , \u062c\u0645\u0647\u0648\u0631\u064a\u0629 \u0627\u0644\u0639\u0631\u0627\u0642", "name": "\u0634\u0627\u0642\u0648\u06b5\u06cc", "name:ar1": "\u0648\u0627\u062f\u064a \u062f\u0631\u0627\u0648", "name:de": "Shaquly", "name:en": "Shaquly", "name:fr": "Shaquly", "place": "village"}}, {"type": "node", "id": 2488318762, "lat": 36.0234057, "lon": 45.311997, "tags": {"alt_name": "\u0648\u064a\u0633\u064a", "int_name": "Ways\u012b, W\u0113sa, \u0648\u064a\u0633\u064a, Waysi, Wesa, \u0648\u064a\u0633\u064a", "is_in": "Iraq , \u062c\u0645\u0647\u0648\u0631\u064a\u0629 \u0627\u0644\u0639\u0631\u0627\u0642", "name": "\u0648\u06ce\u0633\u06ce", "name:ar": "\u0648\u064a\u0633\u064a", "name:ar1": "\u0648\u064a\u0633\u064a", "name:de": "Wese", "name:en": "Wese", "name:fr": "Wese", "place": "village", "wikidata": "Q61388693", "wikipedia": "ckb:\u0648\u06ce\u0633\u06ce"}}, {"type": "node", "id": 2488318766, "lat": 35.8305672, "lon": 45.2475767, "tags": {"name": "\u06cc\u0627\u062e\u0633\u06d5\u0645\u06d5\u0631", "name:ar": "\u064a\u0627\u062e\u0633\u0645\u0631", "name:ckb": "\u06cc\u0627\u062e\u0633\u06d5\u0645\u06d5\u0631", "name:en": "Yakhsamar", "name:ku": "Yaxsemer", "place": "village", "wikidata": "Q61388321", "wikipedia": "ckb:\u06cc\u0627\u062e\u0633\u06d5\u0645\u06d5\u0631"}}, {"type": "node", "id": 2488318769, "lat": 35.7093814, "lon": 45.2247895, "tags": {"name": "\u06cc\u0627\u06b5\u0627\u0646\u0642\u06c6\u0632", "name:ar": "\u06cc\u0627\u0644\u0627\u0646\u0642\u0648\u0632", "name:en": "yalanqoz", "place": "village"}}, {"type": "node", "id": 2488318771, "lat": 35.752192, "lon": 45.1194603, "tags": {"is_in": "Iraq , \u062c\u0645\u0647\u0648\u0631\u064a\u0629 \u0627\u0644\u0639\u0631\u0627\u0642", "name": "\u06cc\u0627\u0631\u0627\u0646\u0628\u06d5\u06af\u06cc", "name:ar": "\u064a\u0627\u0631\u0645 \u0628\u0643\u064a", "name:ar1": "\u064a\u0627\u0631\u0645 \u0628\u0643\u064a", "name:de": "Yaram Baji", "name:en": "Yaram Baji", "name:fr": "Yaram Baji", "place": "village", "wikidata": "Q61388503", "wikipedia": "ckb:\u06cc\u0627\u0631\u0627\u0646\u0628\u06d5\u06af\u06cc"}}, {"type": "node", "id": 2488318773, "lat": 35.9888581, "lon": 45.3118595, "tags": {"name": "\u0632\u06d5\u0631\u0648\u0648\u0646", "name:ar": "\u0632\u0631\u0648\u0646", "name:ckb": "\u0632\u06d5\u0631\u0648\u0648\u0646", "name:en": "Zarun", "name:ku": "Zer\u00fbn", "place": "village", "wikidata": "Q61381290", "wikipedia": "ckb:\u0632\u06d5\u0631\u0648\u0648\u0646"}}, {"type": "node", "id": 2488318776, "lat": 35.748973, "lon": 45.248797, "tags": {"name": "\u0632\u06ce\u0648\u06ce", "name:ar": "\u0632\u064a\u0648\u064a", "name:ckb": "\u0632\u06ce\u0648\u06ce", "name:en": "Zewe", "name:ku": "Z\u00eaw\u00ea", "place": "village", "wikidata": "Q61388339", "wikipedia": "ckb:\u0632\u06ce\u0648\u06ce"}}, {"type": "node", "id": 2488318791, "lat": 36.0001761, "lon": 45.1387041, "tags": {"name": "\u06be\u06d5\u0648\u0627\u0631\u06d5\u0628\u06d5\u0631\u0632\u06d5", "name:ar": "\u0647\u0648\u0627\u0631\u0628\u0631\u0632\u0629", "name:ckb": "\u06be\u06d5\u0648\u0627\u0631\u06d5\u0628\u06d5\u0631\u0632\u06d5", "name:en": "Hawarabarza", "name:ku": "Hewareberze", "place": "village", "wikidata": "Q61388550", "wikipedia": "ckb:\u06be\u06d5\u0648\u0627\u0631\u06d5\u0628\u06d5\u0631\u0632\u06d5\u060c \u0645\u06d5\u0631\u06af\u06d5"}}, {"type": "node", "id": 2704260492, "lat": 35.7927277, "lon": 45.3864741}, {"type": "node", "id": 2704260493, "lat": 35.7934108, "lon": 45.3894352}, {"type": "node", "id": 2704260494, "lat": 35.7914136, "lon": 45.3909909}, {"type": "node", "id": 2704260495, "lat": 35.7917356, "lon": 45.3884428}, {"type": "node", "id": 2704260496, "lat": 35.7928321, "lon": 45.3903579}, {"type": "node", "id": 2704260497, "lat": 35.7924318, "lon": 45.3889846}, {"type": "node", "id": 2704260498, "lat": 35.7932542, "lon": 45.3898161}, {"type": "node", "id": 2704260499, "lat": 35.7927568, "lon": 45.3896251}, {"type": "node", "id": 2704260500, "lat": 35.7918095, "lon": 45.3876381}, {"type": "node", "id": 2704260501, "lat": 35.7935705, "lon": 45.3878441}, {"type": "node", "id": 2704260502, "lat": 35.7924753, "lon": 45.3904491}, {"type": "node", "id": 2704260503, "lat": 35.7940939, "lon": 45.3868818}, {"type": "node", "id": 2704260504, "lat": 35.7932803, "lon": 45.3872519}, {"type": "node", "id": 2704260505, "lat": 35.7934704, "lon": 45.3883484}, {"type": "node", "id": 2704260506, "lat": 35.7929496, "lon": 45.3870642}, {"type": "node", "id": 2704260507, "lat": 35.7922664, "lon": 45.3867906}, {"type": "node", "id": 2704260508, "lat": 35.793205, "lon": 45.3885898}, {"type": "node", "id": 2704260509, "lat": 35.7917791, "lon": 45.3888827}, {"type": "node", "id": 2704260510, "lat": 35.7943246, "lon": 45.3870963}, {"type": "node", "id": 2704260511, "lat": 35.7916659, "lon": 45.3898644}, {"type": "node", "id": 2907322853, "lat": 35.985707, "lon": 45.6060403, "tags": {"is_in:country": "Iran", "name": "\u06a9\u06cc\u0648\u0647 \u0631\u0648\u062f", "place": "village"}}, {"type": "node", "id": 2907325216, "lat": 36.0212, "lon": 45.5763, "tags": {"is_in:country": "Iran", "name": "\u0622\u0644\u0648\u062a", "name:en": "Alut", "place": "village", "source:name": "GNS", "wikidata": "Q6419324"}}, {"type": "node", "id": 3275106640, "lat": 36.0842933, "lon": 45.5011806, "tags": {"is_in:country": "Iran", "name": "\u0634\u0644\u0645\u0627\u0634", "place": "village", "wikidata": "Q5706982"}}, {"type": "node", "id": 3286943524, "lat": 35.8533528, "lon": 45.2678138}, {"type": "node", "id": 3286943554, "lat": 35.8530563, "lon": 45.2685895}, {"type": "node", "id": 3286944067, "lat": 35.8518919, "lon": 45.2679211}, {"type": "node", "id": 3286944068, "lat": 35.8530745, "lon": 45.2695518}, {"type": "node", "id": 3286944110, "lat": 35.8549346, "lon": 45.2691688}, {"type": "node", "id": 3286944122, "lat": 35.855805, "lon": 45.2680069}, {"type": "node", "id": 3286944167, "lat": 35.8542572, "lon": 45.2669769}, {"type": "node", "id": 3286944186, "lat": 35.8521867, "lon": 45.268568}, {"type": "node", "id": 3286944198, "lat": 35.8539963, "lon": 45.2686506}, {"type": "node", "id": 3286944212, "lat": 35.8531441, "lon": 45.2671271}, {"type": "node", "id": 3287008833, "lat": 35.7901256, "lon": 45.2999788}, {"type": "node", "id": 3287008911, "lat": 35.7924057, "lon": 45.3001934}, {"type": "node", "id": 3287008988, "lat": 35.7884547, "lon": 45.3066951}, {"type": "node", "id": 3287009100, "lat": 35.7871492, "lon": 45.3033048}, {"type": "node", "id": 3287009127, "lat": 35.7913257, "lon": 45.305046}, {"type": "node", "id": 3287009150, "lat": 35.7892379, "lon": 45.3013736}, {"type": "node", "id": 3287009176, "lat": 35.7923709, "lon": 45.302661}, {"type": "node", "id": 3501098258, "lat": 35.6694759, "lon": 45.1978921}, {"type": "node", "id": 3519102889, "lat": 36.0598, "lon": 45.585, "tags": {"is_in:country": "Iran", "name": "\u0631\u0634\u06a9\u06cc", "name:en": "Rashki", "place": "village", "source:name": "GNS", "wikidata": "Q6411134"}}, {"type": "node", "id": 3519103405, "lat": 36.07, "lon": 45.6155, "tags": {"is_in:country": "Iran", "name": "\u0628\u0646\u062f\u0647 \u0698\u0627\u0698", "name:en": "Bandeh Zhazh", "place": "village", "source:name": "GNS", "wikidata": "Q6416398"}}, {"type": "node", "id": 3519103406, "lat": 35.966667, "lon": 45.6, "tags": {"fixme": "no place found here on satellite images", "name": "\u0628\u0631\u0627\u0628\u0631", "name:en": "Barabar", "place": "village", "source:name": "GNS"}}, {"type": "node", "id": 3519103408, "lat": 35.9893, "lon": 45.5895, "tags": {"is_in:country": "Iran", "name": "\u0628\u0631\u062f\u0647 \u0631\u0634", "name:en": "Bardeh Rash", "place": "village", "source:name": "GNS"}}, {"type": "node", "id": 3519103409, "lat": 35.9942, "lon": 45.5779, "tags": {"alt_name": "\u0628\u0631\u062f\u0647 \u0631\u0634", "is_in:country": "Iran", "name": "\u0628\u0631\u062f\u0647 \u0631\u0634", "name:en": "Bardeh Rash", "place": "village", "source:name": "GNS"}}, {"type": "node", "id": 3519103413, "lat": 36.0419, "lon": 45.6138, "tags": {"is_in:country": "Iran", "name": "\u0628\u0627\u06cc\u0632\u06cc", "name:en": "Bayezi", "place": "village", "source:name": "GNS"}}, {"type": "node", "id": 3519103438, "lat": 35.9767, "lon": 45.6034, "tags": {"alt_name": "\u06af\u0644\u0647 \u0633\u0648\u0631\u0647", "alt_name:en": "Geleh Sureh", "is_in:country": "Iran", "name": "\u06af\u0644\u0647 \u0633\u0648\u0631", "name:en": "Geleh Sur", "place": "village", "source:name": "GNS", "wikidata": "Q6390905"}}, {"type": "node", "id": 3519103440, "lat": 35.9859, "lon": 45.6062, "tags": {"alt_name": "\u06af\u06cc\u0648\u0647\u0631\u0648\u062f", "alt_name:en": "Givehrud", "is_in:country": "Iran", "name": "\u06af\u06cc\u0648\u0647 \u0631\u0648\u062f \u06a9\u0648\u062e", "name:en": "Givehrud-e Kukh", "place": "village", "source:name": "GNS"}}, {"type": "node", "id": 3519103444, "lat": 35.9938, "lon": 45.6024, "tags": {"alt_name": "\u0647\u0645\u0647 \u0631\u0633\u06cc\u062f", "alt_name:en": "`Amreh Sit", "is_in:country": "Iran", "name": "\u0647\u0645\u0647 \u0631\u0633\u06cc\u062f", "name:en": "Hameh Resid", "place": "village", "source:name": "GNS", "wikidata": "Q6405816"}}, {"type": "node", "id": 3519103450, "lat": 36.0513, "lon": 45.6118, "tags": {"is_in:country": "Iran", "name": "\u06a9\u0646\u062f\u0633\u0647", "name:en": "Kandeseh", "place": "village", "source:name": "GNS"}}, {"type": "node", "id": 3519103479, "lat": 35.9855, "lon": 45.6176, "tags": {"is_in:country": "Iran", "name": "\u06a9\u0648\u062e \u062a\u0627\u0648\u06cc", "name:en": "Kukh-e Tavi", "place": "village", "source:name": "GNS"}}, {"type": "node", "id": 3519103483, "lat": 35.9734, "lon": 45.6023, "tags": {"alt_name": "\u0645\u0627\u0644\u062a\u0647", "is_in:country": "Iran", "name": "\u0645\u0627\u0644\u062a\u0647", "name:en": "Malateh", "place": "village", "source:name": "GNS"}}, {"type": "node", "id": 3519103693, "lat": 35.989, "lon": 45.6028, "tags": {"alt_name": "\u0635\u0627\u0644\u062d", "is_in:country": "Iran", "name": "\u0635\u0627\u0644\u062d", "name:en": "Saleh", "place": "village", "source:name": "GNS", "wikidata": "Q6407167"}}, {"type": "node", "id": 3519103698, "lat": 36.0569, "lon": 45.5967, "tags": {"is_in:country": "Iran", "name": "\u0633\u0627\u0631\u062f\u06a9\u0647 \u067e\u0627\u06cc\u06cc\u0646", "name:en": "Sardekeh-ye Pa`in", "place": "village", "source:name": "GNS", "wikidata": "Q6410402"}}, {"type": "node", "id": 3519103700, "lat": 35.9974, "lon": 45.5714, "tags": {"alt_name": "\u0633\u0631\u0633\u0648\u0644", "alt_name:en": "Sarsu", "is_in:country": "Iran", "name": "\u0633\u0631\u0633\u0648\u0644", "name:en": "Sarsul", "place": "village", "source:name": "GNS", "wikidata": "Q6409868"}}, {"type": "node", "id": 3519103724, "lat": 35.997, "lon": 45.5638, "tags": {"alt_name": "\u0632\u0627\u0644\u0647;\u0632\u0627\u0644\u06cc", "alt_name:en": "Zali;Zaleh", "is_in:country": "Iran", "name": "\u0632\u0644\u06cc", "name:en": "Zali", "place": "village", "source:name": "GNS", "wikidata": "Q6410669"}}, {"type": "node", "id": 4382514783, "lat": 35.7317627, "lon": 45.1438616, "tags": {"capital": "7", "name": "\u067e\u06cc\u0631\u06d5\u0645\u06d5\u06af\u0631\u0648\u0648\u0646", "name:ar": "\u0628\u064a\u0631\u0645\u0643\u0631\u0648\u0646", "name:ckb": "\u067e\u06cc\u0631\u06d5\u0645\u06d5\u06af\u0631\u0648\u0648\u0646", "name:en": "Piramagroon", "name:ku": "P\u00eeremegr\u00fbn", "place": "town", "wikidata": "Q61388326", "wikipedia": "ckb:\u067e\u06cc\u0631\u06d5\u0645\u06d5\u06af\u0631\u0648\u0646"}}, {"type": "node", "id": 4424745292, "lat": 35.7630256, "lon": 45.5796909, "tags": {"name": "\u062a\u0627\u0632\u06d5\u062f\u06ce", "name:ar": "\u062a\u0627\u0632\u0627\u062f\u064a", "name:en": "Tazade", "name:ku": "\u062a\u0627\u0632\u0629\u062f\u06cc", "place": "village", "wikidata": "Q61381891", "wikipedia": "ckb:\u062a\u0627\u0632\u06d5\u062f\u06ce\u060c \u0686\u0648\u0627\u0631\u062a\u0627"}}, {"type": "node", "id": 4442286790, "lat": 35.8401758, "lon": 45.443404, "tags": {"name": "\u0632\u06d5\u064a\u0646\u06d5\u06b5", "name:ar": "\u0632\u06cc\u0646\u0629\u0644", "name:en": "Zainal", "place": "village", "wikidata": "Q61381294", "wikipedia": "ckb:\u0632\u06d5\u06cc\u0646\u06d5\u06b5\u060c \u0645\u0627\u0648\u06d5\u062a"}}, {"type": "node", "id": 4451491703, "lat": 36.0226617, "lon": 45.4504431, "tags": {"is_in:country": "Iran", "name": "\u0628\u0646\u0627\u0648\u0647", "name:ku": "Binaw\u00ea", "place": "village", "wikidata": "Q5705571"}}, {"type": "node", "id": 4451547849, "lat": 36.0462651, "lon": 45.3829848, "tags": {"is_in:country": "Iran", "is_in:ku": "Iran", "name": "\u0628\u06cc\u0637\u0648\u0634", "name:ku": "B\u00eat\u00fb\u015f", "place": "village", "wikidata": "Q5714770"}}, {"type": "node", "id": 4451970737, "lat": 36.0172847, "lon": 45.4306146, "tags": {"is_in:country": "Iran", "name": "\u062f\u06af\u0647", "name:ku": "D\u00eage", "place": "village", "wikidata": "Q6463869"}}, {"type": "node", "id": 4451970738, "lat": 36.015441, "lon": 45.447202, "tags": {"is_in:country": "Iran", "name": "\u062f\u06cc\u0646\u0627\u0631\u0627\u0646", "name:ku": "D\u00eenaran", "place": "village", "wikidata": "Q5707485"}}, {"type": "node", "id": 4493294031, "lat": 35.9866746, "lon": 45.5941861, "tags": {"is_in:country": "Iran", "is_in:state": "Kurdistan", "name": "\u0628\u0631\u062f\u0647 \u0631\u0634", "place": "village"}}, {"type": "node", "id": 4497368447, "lat": 36.0144752, "lon": 45.3900266, "tags": {"is_in:country": "Iran", "is_in:state": "West Azerbaijan", "name": "\u0645\u0632\u0646 \u0622\u0628\u0627\u062f", "place": "village", "wikidata": "Q5576401"}}, {"type": "node", "id": 4497368448, "lat": 36.0362795, "lon": 45.3810661, "tags": {"is_in:country": "Iran", "is_in:state": "West Azerbaijan", "name": "\u0645\u0632\u0631\u0639\u0647", "place": "village"}}, {"type": "node", "id": 4497368449, "lat": 36.0421458, "lon": 45.4331341, "tags": {"is_in:country": "Iran", "is_in:state": "West Azerbaijan", "name": "\u062f\u0648\u0644\u06a9\u0627\u0646", "place": "village", "wikidata": "Q6464152"}}, {"type": "node", "id": 4497368450, "lat": 36.0143515, "lon": 45.4898076, "tags": {"is_in:country": "Iran", "is_in:state": "West Azerbaijan", "name": "\u0633\u0646\u062c\u0648\u0647", "place": "village", "wikidata": "Q5705756"}}, {"type": "node", "id": 4497368605, "lat": 36.0594889, "lon": 45.5125255, "tags": {"is_in:country": "Iran", "is_in:state": "West Azerbaijan", "name": "\u0631\u0627\u0632\u06af\u0627\u0647", "place": "village", "wikidata": "Q5705967"}}, {"type": "node", "id": 4497368606, "lat": 36.0196553, "lon": 45.5172261, "tags": {"is_in:country": "Iran", "is_in:state": "West Azerbaijan", "name": "\u06af\u0631\u0648\u06cc\u0633", "place": "village", "wikidata": "Q5717065"}}, {"type": "node", "id": 4497369069, "lat": 36.0303631, "lon": 45.4720921, "tags": {"is_in:country": "Iran", "is_in:state": "West Azerbaijan", "name": "\u0627\u0633\u0644\u0627\u0645 \u0622\u0628\u0627\u062f \u0628\u0698\u0648\u0647", "place": "village"}}, {"type": "node", "id": 4810240918, "lat": 35.6699506, "lon": 45.2755484}, {"type": "node", "id": 4810240919, "lat": 35.6700285, "lon": 45.2735092}, {"type": "node", "id": 4810240920, "lat": 35.6694692, "lon": 45.2722717}, {"type": "node", "id": 4810240921, "lat": 35.66794, "lon": 45.2728469}, {"type": "node", "id": 4810240922, "lat": 35.6667364, "lon": 45.2737532}, {"type": "node", "id": 4810240923, "lat": 35.6668356, "lon": 45.2749035}, {"type": "node", "id": 4810240924, "lat": 35.6679754, "lon": 45.2749035}, {"type": "node", "id": 4810240925, "lat": 35.6685984, "lon": 45.2762455}, {"type": "node", "id": 4810240941, "lat": 35.6610369, "lon": 45.28252}, {"type": "node", "id": 4810240942, "lat": 35.6596209, "lon": 45.28374}, {"type": "node", "id": 4810240943, "lat": 35.6590261, "lon": 45.2860407}, {"type": "node", "id": 4810240944, "lat": 35.6603147, "lon": 45.288289}, {"type": "node", "id": 4810240945, "lat": 35.6618016, "lon": 45.2857792}, {"type": "node", "id": 4810241503, "lat": 35.6958609, "lon": 45.2553838}, {"type": "node", "id": 4810241504, "lat": 35.6944842, "lon": 45.254334}, {"type": "node", "id": 4810241505, "lat": 35.6938275, "lon": 45.2547029}, {"type": "node", "id": 4810241506, "lat": 35.693695, "lon": 45.2555114}, {"type": "node", "id": 4810241507, "lat": 35.6948817, "lon": 45.25632}, {"type": "node", "id": 4810241512, "lat": 35.6880765, "lon": 45.2385543}, {"type": "node", "id": 4810241513, "lat": 35.6871279, "lon": 45.2385596}, {"type": "node", "id": 4810241514, "lat": 35.687174, "lon": 45.2396093}, {"type": "node", "id": 4810241515, "lat": 35.6879034, "lon": 45.2403675}, {"type": "node", "id": 4810241516, "lat": 35.6888056, "lon": 45.2397801}, {"type": "node", "id": 4810241663, "lat": 35.7028363, "lon": 45.1958324}, {"type": "node", "id": 4810241664, "lat": 35.7022278, "lon": 45.1950202}, {"type": "node", "id": 4810241665, "lat": 35.7008549, "lon": 45.1961728}, {"type": "node", "id": 4810241666, "lat": 35.7003135, "lon": 45.19718}, {"type": "node", "id": 4810241667, "lat": 35.6991999, "lon": 45.1978705}, {"type": "node", "id": 4810241668, "lat": 35.6980885, "lon": 45.1988456}, {"type": "node", "id": 4810241669, "lat": 35.6984615, "lon": 45.2008635}, {"type": "node", "id": 4810241670, "lat": 35.699327, "lon": 45.2015037}, {"type": "node", "id": 4810241671, "lat": 35.7002323, "lon": 45.2014895}, {"type": "node", "id": 4810241672, "lat": 35.7012178, "lon": 45.2025392}, {"type": "node", "id": 4810241673, "lat": 35.7019598, "lon": 45.2008424}, {"type": "node", "id": 4810241674, "lat": 35.7022526, "lon": 45.2018377}, {"type": "node", "id": 4810241675, "lat": 35.7019594, "lon": 45.202164}, {"type": "node", "id": 4810241676, "lat": 35.7019064, "lon": 45.2034347}, {"type": "node", "id": 4810241677, "lat": 35.7036925, "lon": 45.2026088}, {"type": "node", "id": 4810241678, "lat": 35.703001, "lon": 45.2003925}, {"type": "node", "id": 4810241679, "lat": 35.7032874, "lon": 45.1993865}, {"type": "node", "id": 4810241680, "lat": 35.7036928, "lon": 45.1968709}, {"type": "node", "id": 4810241689, "lat": 35.7099054, "lon": 45.2216322}, {"type": "node", "id": 4810241690, "lat": 35.7114885, "lon": 45.2224211}, {"type": "node", "id": 4810241691, "lat": 35.7124386, "lon": 45.2261331}, {"type": "node", "id": 4810241692, "lat": 35.7118056, "lon": 45.2270868}, {"type": "node", "id": 4810241693, "lat": 35.7102961, "lon": 45.2263392}, {"type": "node", "id": 4810241694, "lat": 35.7105171, "lon": 45.2283986}, {"type": "node", "id": 4810241695, "lat": 35.7091123, "lon": 45.2298317}, {"type": "node", "id": 4810241696, "lat": 35.7084192, "lon": 45.2270847}, {"type": "node", "id": 4810241697, "lat": 35.7066431, "lon": 45.2248157}, {"type": "node", "id": 4810241698, "lat": 35.7079363, "lon": 45.223473}, {"type": "node", "id": 4810241699, "lat": 35.7085117, "lon": 45.2226956}, {"type": "node", "id": 5385920057, "lat": 35.8355595, "lon": 45.158156}, {"type": "node", "id": 5385920058, "lat": 35.8326195, "lon": 45.156654}, {"type": "node", "id": 5385920059, "lat": 35.8319933, "lon": 45.1589929}, {"type": "node", "id": 5385920060, "lat": 35.8354725, "lon": 45.1606237}, {"type": "node", "id": 5385920069, "lat": 35.8384123, "lon": 45.1608382}, {"type": "node", "id": 5385920070, "lat": 35.834881, "lon": 45.1618467}, {"type": "node", "id": 5385920071, "lat": 35.8340982, "lon": 45.1631342}, {"type": "node", "id": 5385920072, "lat": 35.8351246, "lon": 45.1648937}, {"type": "node", "id": 5385920073, "lat": 35.8362553, "lon": 45.1630269}, {"type": "node", "id": 5385920074, "lat": 35.8390907, "lon": 45.1637136}, {"type": "node", "id": 6297489988, "lat": 35.8890685, "lon": 45.5826601, "tags": {"name": "\u0628\u0627\u0633\u0646\u06ce", "name:ar": "\u0628\u0627\u0633\u0646\u064a", "name:ckb": "\u0628\u0627\u0633\u0646\u06ce", "name:en": "Basne", "name:ku": "Basn\u00ea", "place": "town", "wikidata": "Q61382705", "wikipedia": "ckb:\u0628\u0627\u0633\u0646\u06ce"}}, {"type": "node", "id": 6700426439, "lat": 35.9100237, "lon": 45.5787547}, {"type": "node", "id": 6700426440, "lat": 35.9100713, "lon": 45.5792784}, {"type": "node", "id": 6700426441, "lat": 35.9104453, "lon": 45.5792668}, {"type": "node", "id": 6700426442, "lat": 35.9107232, "lon": 45.5798136}, {"type": "node", "id": 6700426443, "lat": 35.9113716, "lon": 45.5800133}, {"type": "node", "id": 6700426444, "lat": 35.9116529, "lon": 45.578207}, {"type": "node", "id": 6700426445, "lat": 35.9116979, "lon": 45.5792345}, {"type": "node", "id": 6700426446, "lat": 35.9133388, "lon": 45.5790814}, {"type": "node", "id": 6700426447, "lat": 35.9126637, "lon": 45.5808583}, {"type": "node", "id": 6700426448, "lat": 35.9120798, "lon": 45.5804045}, {"type": "node", "id": 7124605572, "lat": 35.8380906, "lon": 45.5815611, "tags": {"name": "\u0645\u0695\u0627\u0646\u06d5", "name:ar": "\u0645\u0631\u0627\u0646\u0629", "name:en": "Mrana", "place": "village", "wikidata": "Q6401650", "wikipedia": "ckb:\u0645\u0695\u0627\u0646\u06d5"}}, {"type": "node", "id": 7124648421, "lat": 35.7527639, "lon": 45.5784044, "tags": {"name": "\u0633\u0627\u06b5\u0627\u0646\u0627\u0646", "name:ar": "\u0633\u0627\u0644\u0627\u0646\u0627\u0646", "name:en": "Salanan", "place": "village", "wikidata": "Q61381954", "wikipedia": "ckb:\u0633\u0627\u06b5\u0627\u0646\u0627\u0646"}}, {"type": "node", "id": 7126262116, "lat": 35.9675832, "lon": 45.4430764, "tags": {"name": "\u0628\u06c6\u0633\u06a9\u06ce\u0646", "name:en": "Bosken", "place": "village", "wikidata": "Q61381153", "wikipedia": "ckb:\u0628\u06c6\u0633\u06a9\u06ce\u0646\u060c \u0645\u0627\u0648\u06d5\u062a"}}, {"type": "node", "id": 7126337074, "lat": 35.9486101, "lon": 45.4372139, "tags": {"name": "\u0628\u06d5\u0631\u062a\u06d5\u0646\u06af", "name:ar": "\u0628\u0631\u062a\u0646\u06a9", "name:en": "Bartang", "place": "village", "wikidata": "Q61381110", "wikipedia": "ckb:\u0628\u06d5\u0631\u062a\u06d5\u0646\u06af\u060c \u0645\u0627\u0648\u06d5\u062a"}}, {"type": "node", "id": 7126521840, "lat": 35.9522664, "lon": 45.4379883, "tags": {"name": "\u0628\u06b5\u062e\u0648\u0627\u0646", "name:ar": "\u0628\u0644\u062e\u0648\u0627\u0646", "name:en": "Blkhwan", "place": "village", "wikidata": "Q61381207", "wikipedia": "ckb:\u0628\u06b5\u062e\u0648\u0627\u0646"}}, {"type": "node", "id": 7126532313, "lat": 35.9603252, "lon": 45.3931644, "tags": {"name": "\u062f\u0632\u06af\u0627\u0646", "name:ar": "\u062f\u0632\u06a9\u0627\u0646", "name:en": "Dzgan", "place": "village", "wikidata": "Q61381249", "wikipedia": "ckb:\u062f\u0632\u06af\u0627\u0646"}}, {"type": "node", "id": 7126541412, "lat": 35.9441866, "lon": 45.4405639, "tags": {"name": "\u0628\u0646\u0686\u0695\u06d5", "name:ar": "\u0628\u0646\u062c\u0631\u0629", "name:en": "Bnchra", "place": "village", "wikidata": "Q61381602", "wikipedia": "ckb:\u0628\u0646\u0686\u0695"}}, {"type": "node", "id": 7126549517, "lat": 35.9312723, "lon": 45.4119399, "tags": {"name": "\u062f\u0648\u06ce\u06b5\u06d5\u06a9\u0627\u0646", "name:ar": "\u062f\u0648\u06cc\u0644\u0629\u06a9\u0627\u0646", "name:en": "Dwelakan", "place": "village", "wikidata": "Q61381258", "wikipedia": "ckb:\u062f\u0648\u06ce\u06b5\u06d5\u06a9\u0627\u0646"}}, {"type": "node", "id": 7126552979, "lat": 35.9172196, "lon": 45.3675666, "tags": {"name": "\u0628\u06d5\u0631\u062f\u0628\u06d5\u0631\u062f", "name:ar": "\u0628\u0631\u062f\u0628\u0631\u062f", "name:en": "Bard Bard", "place": "village", "wikidata": "Q61381134", "wikipedia": "ckb:\u0628\u06d5\u0631\u062f\u0628\u06d5\u0631\u062f\u060c \u0645\u0627\u0648\u06d5\u062a"}}, {"type": "node", "id": 7126565863, "lat": 36.0106102, "lon": 45.3112473, "tags": {"name": "\u0648\u06d5\u06cc\u0633\u06d5", "name:ar": "\u0648\u06cc\u0633\u0629", "name:en": "Waisa", "place": "village", "wikidata": "Q61388552", "wikipedia": "ckb:\u0648\u06d5\u06cc\u0633\u06d5\u060c \u0645\u06d5\u0631\u06af\u06d5"}}, {"type": "node", "id": 7126582477, "lat": 35.9476415, "lon": 45.3924195, "tags": {"name": "\u06a9\u0627\u0646\u06cc \u0686\u0646\u0627\u0631", "name:ar": "\u06a9\u0627\u0646\u064a \u062c\u0646\u0627\u0631", "name:en": "Kani Chnar", "place": "village", "wikidata": "Q61381441", "wikipedia": "ckb:\u06a9\u0627\u0646\u06cc \u0686\u0646\u0627\u0631"}}, {"type": "node", "id": 7126670438, "lat": 36.0071191, "lon": 45.1965268, "tags": {"name": "\u06a9\u0627\u0646\u06cc \u0634\u06cc\u0646\u06a9\u06d5", "name:en": "Kani Shinka", "place": "village"}}, {"type": "node", "id": 7149546856, "lat": 35.6659766, "lon": 45.3996225, "tags": {"name": "\u062c\u06c6\u06af\u06d5\u06cc \u06af\u06d5\u0648\u0631\u06d5", "name:en": "Gogay Gawra", "place": "village"}}, {"type": "node", "id": 7149579921, "lat": 35.7352543, "lon": 45.3411903, "tags": {"name": "\u0642\u0627\u0644\u0627\u0648\u0627", "name:en": "Qalawa", "place": "village"}}, {"type": "node", "id": 7149589623, "lat": 35.6627721, "lon": 45.5238889, "tags": {"name": "\u0632\u06d5\u0631\u062f\u06d5\u0628\u06cc", "name:ar": "\u0632\u0631\u062f\u0628\u064a", "name:en": "Zardabi", "place": "village", "wikidata": "Q61382109", "wikipedia": "ckb:\u0632\u06d5\u0631\u062f\u06d5\u0628\u06cc"}}, {"type": "node", "id": 7149596521, "lat": 35.7321016, "lon": 45.3457823, "tags": {"name": "\u0633\u0645\u0627\u0642\u0627\u0646", "name:en": "Smaqan", "place": "village"}}, {"type": "node", "id": 7149597740, "lat": 35.7348014, "lon": 45.3267493, "tags": {"name": "\u06be\u06d5\u0646\u0627\u0631\u0627\u0646\u06cc \u06a9\u06c6\u0646", "name:en": "Hanaran Kon", "place": "village"}}, {"type": "node", "id": 7149618824, "lat": 35.7601137, "lon": 45.4433294, "tags": {"name": "\u062f\u0648\u0648\u0686\u06c6\u0645\u0627\u0646", "name:ar": "\u062f\u0648\u062c\u0648\u0645\u0627\u0646", "name:en": "Du Choman", "place": "village", "wikidata": "Q61382210", "wikipedia": "ckb:\u062f\u0648\u0648\u0686\u06c6\u0645\u0627\u0646"}}, {"type": "node", "id": 7149661194, "lat": 35.7148746, "lon": 45.4676821, "tags": {"name": "\u0628\u0627\u0628\u06d5\u06a9\u0631\u0627\u0648\u0627", "name:en": "Babakrawa", "place": "village"}}, {"type": "node", "id": 7149672110, "lat": 35.7589628, "lon": 45.470974, "tags": {"name": "\u062e\u06ce\u0648\u06d5\u062a\u06d5", "name:ar": "\u062e\u06cc\u0648\u062a\u0629", "name:en": "Khewata", "place": "village", "wikidata": "Q61381919", "wikipedia": "ckb:\u062e\u06ce\u0648\u06d5\u062a\u06d5\u060c \u0634\u0627\u0631\u0628\u0627\u0698\u06ce\u0695"}}, {"type": "node", "id": 7149672591, "lat": 35.7304144, "lon": 45.4588536, "tags": {"name": "\u0645\u0627\u0631\u06d5\u0695\u06d5\u0634", "name:en": "Mara Rash", "place": "village"}}, {"type": "node", "id": 7149676034, "lat": 35.7602513, "lon": 45.5076525, "tags": {"name": "\u0628\u0627\u062e\u06cc \u0626\u0627\u0634\u06ce", "name:ar": "\u0628\u0627\u062e\u064a \u0622\u0634\u064a", "name:en": "Bakhi Ashe", "place": "village", "wikidata": "Q61381828", "wikipedia": "ckb:\u0628\u0627\u062e\u06cc \u0626\u0627\u0634\u06cc"}}, {"type": "node", "id": 7149676063, "lat": 35.8005366, "lon": 45.4516217, "tags": {"name": "\u0628\u06d5\u0631\u062f\u06d5\u0634\u06cc\u0646\u06cc \u0633\u06d5\u0631\u0648\u0648", "name:ar": "\u0628\u0631\u062f\u0634\u06cc\u0646\u064a \u0633\u0641\u0644\u06cc", "name:en": "Barda Shin Upper", "place": "village", "wikidata": "Q61381151", "wikipedia": "ckb:\u0628\u06d5\u0631\u062f\u06d5\u0634\u06cc\u0646\u06cc \u0633\u06d5\u0631\u0648\u0648"}}, {"type": "node", "id": 7149676959, "lat": 35.7931368, "lon": 45.4799989, "tags": {"name": "\u0634\u06cc\u0648\u06d5\u06a9\u0648\u06ce\u0631", "name:ar": "\u0634\u06cc\u0648\u06a9\u0648\u06cc\u0631", "name:en": "Shywa Kwer", "place": "village", "wikidata": "Q61381366", "wikipedia": "ckb:\u0634\u06cc\u0648\u06d5\u06a9\u0648\u06ce\u0631"}}, {"type": "node", "id": 7149705306, "lat": 35.7956809, "lon": 45.4678222, "tags": {"name": "\u0633\u0627\u06a9\u06d5\u06b5", "name:ar": "\u0633\u0627\u06a9\u0629\u0644", "name:en": "Sakal", "place": "village"}}, {"type": "node", "id": 7149713706, "lat": 35.8323089, "lon": 45.4998156, "tags": {"name": "\u06a9\u0648\u0695\u06d5\u062f\u0627\u0648\u06ce\u06cc \u0628\u0686\u0648\u0648\u06a9", "name:ar": "\u06a9\u0648\u0631\u062f\u0627\u0648\u064a \u0635\u063a\u0631\u06cc", "name:en": "Kuradawei Little", "place": "village", "wikidata": "Q61381468", "wikipedia": "ckb:\u06a9\u0648\u0695\u06d5\u062f\u0627\u0648\u06ce\u06cc \u0628\u0686\u0648\u0648\u06a9"}}, {"type": "node", "id": 7149725658, "lat": 35.7848776, "lon": 45.5641561, "tags": {"name": "\u062c\u0648\u0628\u0631\u06d5\u0626\u06cc\u0644", "name:ar": "\u062c\u0628\u0631\u0626\u06cc\u0644", "name:en": "Jubrail", "place": "village", "wikidata": "Q61381901", "wikipedia": "ckb:\u062c\u0648\u0628\u0631\u06d5\u0626\u06cc\u0644\u060c \u0634\u0627\u0631\u0628\u0627\u0698\u06ce\u0695"}}, {"type": "node", "id": 7149726344, "lat": 35.8254795, "lon": 45.4470292, "tags": {"name": "\u0628\u06d5\u0632\u06d5\u0695\u0648\u0648", "name:ar": "\u0628\u0632\u0631\u0648", "place": "village", "wikidata": "Q61381172", "wikipedia": "ckb:\u0628\u06d5\u0632\u06d5\u0695\u0648"}}, {"type": "node", "id": 7149726737, "lat": 35.7952467, "lon": 45.5458773, "tags": {"name": "\u062f\u06ce\u06af\u06d5\u06b5", "name:ar": "\u062f\u06cc\u06a9\u0644", "name:en": "Degal", "place": "village", "wikidata": "Q61381932", "wikipedia": "ckb:\u062f\u06ce\u06af\u06d5\u06b5"}}, {"type": "node", "id": 7149730921, "lat": 35.8390294, "lon": 45.4225413, "tags": {"name": "\u062f\u06ce\u06a9\u06c6\u0646", "name:ar": "\u062f\u06cc\u06a9\u0648\u0646", "name:en": "Dekon", "place": "village", "wikidata": "Q61381283", "wikipedia": "ckb:\u062f\u06ce\u06a9\u06c6\u0646\u060c \u0645\u0627\u0648\u06d5\u062a"}}, {"type": "node", "id": 7149737590, "lat": 35.8428335, "lon": 45.4476802, "tags": {"name": "\u0642\u06d5\u0631\u06d5\u0628\u0627\u0628\u0627", "name:ar": "\u0642\u0631\u0629\u0628\u0627\u0628\u0627", "name:en": "Qarababa", "place": "village", "wikidata": "Q61381404", "wikipedia": "ckb:\u0642\u06d5\u0631\u06d5\u0628\u0627\u0628\u0627"}}, {"type": "node", "id": 7149737848, "lat": 35.8443695, "lon": 45.4376153, "tags": {"name": "\u0626\u0627\u0642\u0648\u0686\u0627\u0646", "name:ar": "\u0622\u0642\u0648\u062c\u0627\u0646", "name:en": "Aquchan", "place": "village", "wikidata": "Q61381081", "wikipedia": "ckb:\u0626\u0627\u0642\u0648\u0686\u0627\u0646"}}, {"type": "node", "id": 7149740512, "lat": 35.8558485, "lon": 45.4302446, "tags": {"name": "\u062f\u06d5\u0634\u062a\u06cc \u062a\u0644\u06ce", "name:ar": "\u062f\u0634\u062a\u06cc \u062a\u0644\u064a", "name:en": "Dashty Tle", "place": "village", "wikidata": "Q61381232", "wikipedia": "ckb:\u062f\u06d5\u0634\u062a\u06cc \u062a\u0644\u06ce"}}, {"type": "node", "id": 7149745640, "lat": 35.869343, "lon": 45.4141943, "tags": {"name": "\u0628\u06d5\u0631\u0633\u0645\u0627\u0642", "name:ar": "\u0628\u0631\u0633\u0645\u0627\u0642", "name:en": "Barsmaq", "place": "village", "wikidata": "Q61381594", "wikipedia": "ckb:\u0628\u06d5\u0631\u0633\u0645\u0627\u0642\u060c \u0645\u0627\u0648\u06d5\u062a"}}, {"type": "node", "id": 7149747396, "lat": 35.8620606, "lon": 45.4059043, "tags": {"name": "\u0626\u0627\u06b5\u0627\u0646\u0642\u06c6\u0632", "name:ar": "\u0626\u0627\u0644\u0627\u0646\u0642\u0648\u0632", "name:en": "Alanqoz", "place": "village", "wikidata": "Q61381573", "wikipedia": "ckb:\u06cc\u0627\u06b5\u0627\u0646\u0642\u06c6\u0632"}}, {"type": "node", "id": 7149766685, "lat": 35.8261205, "lon": 45.4093123, "tags": {"name": "\u062f\u06c6\u06b5\u0628\u06ce\u0634\u06a9\u06cc \u0645\u0627\u0645 \u0639\u06d5\u0628\u0627\u0633", "name:ckb": "\u062f\u06c6\u06b5\u0628\u06ce\u0634\u06a9\u06cc \u0645\u0627\u0645 \u0639\u06d5\u0628\u0627\u0633", "name:en": "Dolbeshki Mam Abas", "name:ku": "Dollb\u00ea\u015fk\u00ee Mam 'Ebas", "place": "village", "wikidata": "Q61381686", "wikipedia": "ckb:\u062f\u06c6\u06b5\u0628\u06ce\u0634\u06a9\u06cc \u0645\u0627\u0645 \u0639\u06d5\u0628\u0627\u0633"}}, {"type": "node", "id": 7200812864, "lat": 35.972451, "lon": 45.5157069, "tags": {"name": "\u0633\u0627\u0631\u06a9\u06ce", "name:ar": "\u0633\u0627\u0631\u06a9\u064a", "name:en": "Sarke", "place": "village"}}, {"type": "node", "id": 7203152328, "lat": 35.88799, "lon": 45.5831604}, {"type": "node", "id": 7203152329, "lat": 35.8879637, "lon": 45.5829165}, {"type": "node", "id": 7203152330, "lat": 35.888214, "lon": 45.5828352}, {"type": "node", "id": 7203152331, "lat": 35.8882272, "lon": 45.5824287}, {"type": "node", "id": 7203152332, "lat": 35.8882535, "lon": 45.581827}, {"type": "node", "id": 7203152333, "lat": 35.8882535, "lon": 45.581583}, {"type": "node", "id": 7203152334, "lat": 35.8885038, "lon": 45.5812578}, {"type": "node", "id": 7203152335, "lat": 35.8887673, "lon": 45.5812253}, {"type": "node", "id": 7203152336, "lat": 35.8890177, "lon": 45.5810789}, {"type": "node", "id": 7203152337, "lat": 35.889347, "lon": 45.5808187}, {"type": "node", "id": 7203152338, "lat": 35.8895315, "lon": 45.5806561}, {"type": "node", "id": 7203152339, "lat": 35.8899004, "lon": 45.5805423}, {"type": "node", "id": 7203152340, "lat": 35.889874, "lon": 45.5808513}, {"type": "node", "id": 7203152341, "lat": 35.8900321, "lon": 45.5813066}, {"type": "node", "id": 7203152342, "lat": 35.8902297, "lon": 45.5818107}, {"type": "node", "id": 7203152343, "lat": 35.8902692, "lon": 45.5821522}, {"type": "node", "id": 7203152344, "lat": 35.8902429, "lon": 45.5823799}, {"type": "node", "id": 7203152345, "lat": 35.8905854, "lon": 45.5822823}, {"type": "node", "id": 7203152346, "lat": 35.8905332, "lon": 45.5825803}, {"type": "node", "id": 7203152347, "lat": 35.8900611, "lon": 45.5825718}, {"type": "node", "id": 7203152348, "lat": 35.8898583, "lon": 45.5829241}, {"type": "node", "id": 7203152349, "lat": 35.8894773, "lon": 45.5836151}, {"type": "node", "id": 7203152350, "lat": 35.8895578, "lon": 45.583941}, {"type": "node", "id": 7203152351, "lat": 35.8897423, "lon": 45.5844614}, {"type": "node", "id": 7203152352, "lat": 35.889537, "lon": 45.5850761}, {"type": "node", "id": 7203152353, "lat": 35.8892859, "lon": 45.5851831}, {"type": "node", "id": 7203152354, "lat": 35.8891099, "lon": 45.5862665}, {"type": "node", "id": 7203152355, "lat": 35.8885565, "lon": 45.5860225}, {"type": "node", "id": 7203152356, "lat": 35.88882, "lon": 45.5849005}, {"type": "node", "id": 7203152357, "lat": 35.888135, "lon": 45.5843963}, {"type": "node", "id": 7203152358, "lat": 35.8878319, "lon": 45.5840386}, {"type": "node", "id": 7203152359, "lat": 35.8875157, "lon": 45.5837947}, {"type": "node", "id": 7203152360, "lat": 35.8877924, "lon": 45.5834044}, {"type": "node", "id": 7203357773, "lat": 35.9727433, "lon": 45.5508276, "tags": {"name": "\u0633\u06d5\u0631\u0628\u06d5\u0633\u062a\u0627\u0646", "name:ar": "\u0633\u0631\u0628\u0633\u062a\u0627\u0646", "name:en": "Sarbastan", "place": "village", "wikidata": "Q61383037", "wikipedia": "ckb:\u0633\u06d5\u0631\u0628\u0633\u062a\u0627\u0646"}}, {"type": "node", "id": 7203371571, "lat": 35.9863718, "lon": 45.5333656, "tags": {"name": "\u06a9\u0627\u0648\u06b5\u0627\u0646", "name:ar": "\u06a9\u0627\u0648\u0644\u0627\u0646", "name:en": "Kawlan", "place": "village", "wikidata": "Q61381448", "wikipedia": "ckb:\u06a9\u0627\u0648\u06b5\u0627\u0646\u060c \u0645\u0627\u0648\u06d5\u062a"}}, {"type": "node", "id": 7203401022, "lat": 35.9710406, "lon": 45.57899, "tags": {"name": "\u0686\u06c6\u0645\u0627\u0646", "name:ar": "\u062c\u0648\u0645\u0627\u0646", "name:en": "Choman", "place": "village", "wikidata": "Q61382749", "wikipedia": "ckb:\u0686\u06c6\u0645\u0627\u0646\u06cc \u0634\u0627\u0631\u0628\u0627\u0698\u06ce\u0695"}}, {"type": "node", "id": 7203403681, "lat": 35.92317, "lon": 45.5695498, "tags": {"name": "\u0642\u06d5\u06b5\u0627\u062a\u06d5\u0634\u06cc\u0646", "name:ar": "\u0642\u0644\u0627\u062a\u0629\u0634\u06cc\u0646", "name:en": "Qalatashin", "place": "village", "wikidata": "Q61383114", "wikipedia": "ckb:\u0642\u06d5\u06b5\u0627\u062a\u06d5\u0634\u06cc\u0646"}}, {"type": "node", "id": 7203412583, "lat": 35.9539217, "lon": 45.6136334, "tags": {"name": "\u0642\u06c6\u062e\u06cc \u062a\u0627\u0644\u0648\u0646", "name:ar": "\u0642\u0648\u062e\u064a \u062a\u0627\u0644\u0648\u0646", "name:en": "Qokhi Talun", "place": "village"}}, {"type": "node", "id": 7203412935, "lat": 35.9553281, "lon": 45.5641307, "tags": {"name": "\u062c\u0627\u0641\u0631\u06cc", "name:ar": "\u062c\u0627\u0641\u0631\u06cc", "name:en": "Jafry", "place": "village", "wikidata": "Q61382982", "wikipedia": "ckb:\u062c\u0627\u0641\u0631\u06cc"}}, {"type": "node", "id": 7203419748, "lat": 35.9489565, "lon": 45.5992037, "tags": {"name": "\u0642\u06c6\u062e\u06cc \u063a\u06d5\u0641\u0627\u0631", "name:ar": "\u0642\u0648\u062e\u064a \u063a\u0641\u0627\u0631", "name:en": "Qokhi Ghafar", "place": "village", "wikidata": "Q61383095", "wikipedia": "ckb:\u0642\u06c6\u062e\u06cc \u063a\u06d5\u0641\u0627\u0631"}}, {"type": "node", "id": 7203425176, "lat": 35.9736758, "lon": 45.5719515, "tags": {"name": "\u06af\u06c6\u0645\u0627\u0648\u0627\u0646", "name:ar": "\u06a9\u0648\u0645\u0627\u0648\u0627\u0646", "name:en": "Gomawan", "place": "village", "wikidata": "Q61383147", "wikipedia": "ckb:\u06af\u06c6\u0645\u0627\u0648\u0627\u0646"}}, {"type": "node", "id": 7203428804, "lat": 35.9461941, "lon": 45.5780185, "tags": {"name": "\u0626\u0627\u0648\u06d5\u0632\u06ce", "name:ar": "\u0626\u0627\u0648\u0632\u064a", "name:en": "Awaze", "place": "village", "wikidata": "Q61382717", "wikipedia": "ckb:\u0626\u0627\u0648\u06d5\u0632\u06ce"}}, {"type": "node", "id": 7203432553, "lat": 35.9571002, "lon": 45.5861573, "tags": {"name": "\u0633\u0648\u0648\u0631\u06d5\u0628\u0627\u0646", "name:ar": "\u0633\u0648\u0631\u0629\u0628\u0627\u0646", "name:en": "Suraban", "place": "village", "wikidata": "Q61383018", "wikipedia": "ckb:\u0633\u0648\u0648\u0631\u06d5\u0628\u0627\u0646\u06cc \u0626\u0627\u0644\u0627\u0646"}}, {"type": "node", "id": 7203439921, "lat": 35.9327432, "lon": 45.6015559, "tags": {"name": "\u06a9\u0627\u0646\u06cc \u06af\u0648\u06ce\u0632", "name:ar": "\u06a9\u0627\u0646\u064a \u06a9\u0648\u06cc\u0632", "name:en": "Kani Gwez", "place": "village", "wikidata": "Q61383132", "wikipedia": "ckb:\u06a9\u0627\u0646\u06cc \u06af\u0648\u06ce\u0632\u060c \u0634\u0627\u0631\u0628\u0627\u0698\u06ce\u0695"}}, {"type": "node", "id": 7203447621, "lat": 35.9341474, "lon": 45.582768, "tags": {"name": "\u0628\u0648\u062a\u0631\u06d5\u06a9\u06ce\u0646", "name:ar": "\u0628\u0648\u062a\u0631\u06a9\u06cc\u0646", "name:en": "Butraken", "place": "village", "wikidata": "Q61382939", "wikipedia": "ckb:\u0628\u0648\u062a\u0631\u06d5\u06a9\u06ce\u0646"}}, {"type": "node", "id": 7203472172, "lat": 35.9093884, "lon": 45.6182631, "tags": {"name": "\u0642\u06c6\u062e\u06cc \u062d\u06d5\u0633\u06d5\u0646 \u0646\u0627\u06b5\u06cc", "name:ar": "\u0642\u0648\u062e\u064a \u062d\u0633\u0646 \u0646\u0627\u0644\u06cc", "name:en": "Qokhi Hasan Nali", "place": "village"}}, {"type": "node", "id": 7203486357, "lat": 35.8137587, "lon": 45.5909029, "tags": {"name": "\u0633\u0645\u0627\u0642\u06d5\u0634\u0627\u06b5\u06cc", "name:ar": "\u0633\u0645\u0627\u0642\u0629\u0634\u0627\u0644\u064a", "name:en": "Smaqa Shaly", "place": "village", "wikidata": "Q61383010", "wikipedia": "ckb:\u0633\u0645\u0627\u0642\u06d5\u0634\u0627\u06b5\u06cc"}}, {"type": "node", "id": 7203490963, "lat": 35.8046592, "lon": 45.5991272, "tags": {"name": "\u06af\u0648\u06ce\u0632\u06d5\u0642\u0648\u067e\u0627\u0648", "name:ar": "\u06a9\u0648\u06cc\u0632\u0629\u0642\u0648\u0628\u0627\u0648", "name:en": "Gweza Qupaw", "place": "village", "wikidata": "Q61383148", "wikipedia": "ckb:\u06af\u0648\u06ce\u0632\u06d5\u0642\u0648\u067e\u0627\u0648"}}, {"type": "node", "id": 7203506921, "lat": 35.7991882, "lon": 45.5979651, "tags": {"name": "\u0626\u0627\u0698\u06af\u06d5", "name:ar": "\u0626\u0627\u0632\u06a9\u0629", "name:en": "Azhga", "place": "village", "wikidata": "Q61381813", "wikipedia": "ckb:\u0626\u0627\u0698\u06af\u06d5"}}, {"type": "node", "id": 7231362478, "lat": 35.6881046, "lon": 45.2396387, "tags": {"name": "\u062f\u0627\u0631\u0628\u06d5\u0695\u0648\u0648\u0644\u06d5", "name:ar": "\u062f\u0627\u0631\u0628\u0629\u0631\u0648\u0648\u0644\u0629", "name:en": "Darbarula", "place": "village"}}, {"type": "node", "id": 7231386742, "lat": 35.6743066, "lon": 45.2584107, "tags": {"name": "\u062f\u0627\u0631\u062a\u0648\u0648\u06cc \u0645\u06d5\u0648\u0644\u0627\u0646\u06d5", "name:ar": "\u062f\u0627\u0631\u062a\u0648\u064a \u0645\u0648\u0644\u0627\u0646\u0629", "name:en": "Dartuy Mawlana", "place": "village"}}, {"type": "node", "id": 7231386743, "lat": 35.673438, "lon": 45.2577498}, {"type": "node", "id": 7231386746, "lat": 35.6731335, "lon": 45.2587826}, {"type": "node", "id": 7231386747, "lat": 35.673145, "lon": 45.2593913}, {"type": "node", "id": 7231386749, "lat": 35.6738908, "lon": 45.2616132}, {"type": "node", "id": 7231386753, "lat": 35.6741661, "lon": 45.2618428}, {"type": "node", "id": 7231386754, "lat": 35.6767104, "lon": 45.2630564}, {"type": "node", "id": 7231386755, "lat": 35.677056, "lon": 45.2626938}, {"type": "node", "id": 7231386756, "lat": 35.6779395, "lon": 45.2610208}, {"type": "node", "id": 7231386757, "lat": 35.6778331, "lon": 45.2605003}, {"type": "node", "id": 7231386758, "lat": 35.6769347, "lon": 45.2577269}, {"type": "node", "id": 7231386759, "lat": 35.67667, "lon": 45.2573502}, {"type": "node", "id": 7231386762, "lat": 35.6737146, "lon": 45.2573514}, {"type": "node", "id": 7231429816, "lat": 35.6524501, "lon": 45.3372954}, {"type": "node", "id": 7231429817, "lat": 35.6519899, "lon": 45.3374228}, {"type": "node", "id": 7231429818, "lat": 35.6518979, "lon": 45.33789}, {"type": "node", "id": 7231429819, "lat": 35.6522315, "lon": 45.338343}, {"type": "node", "id": 7231429820, "lat": 35.6525766, "lon": 45.3388527}, {"type": "node", "id": 7231429821, "lat": 35.6525881, "lon": 45.3394331}, {"type": "node", "id": 7231429822, "lat": 35.6524846, "lon": 45.3400702}, {"type": "node", "id": 7231429823, "lat": 35.6530827, "lon": 45.34024}, {"type": "node", "id": 7231429824, "lat": 35.6531978, "lon": 45.3409903}, {"type": "node", "id": 7231429825, "lat": 35.6539225, "lon": 45.3408205}, {"type": "node", "id": 7231429826, "lat": 35.6542216, "lon": 45.3412169}, {"type": "node", "id": 7231429827, "lat": 35.6547737, "lon": 45.3408488}, {"type": "node", "id": 7231429828, "lat": 35.6552338, "lon": 45.3414434}, {"type": "node", "id": 7231429829, "lat": 35.6558665, "lon": 45.3413726}, {"type": "node", "id": 7231429830, "lat": 35.6564646, "lon": 45.3406223}, {"type": "node", "id": 7231429831, "lat": 35.6568557, "lon": 45.3408205}, {"type": "node", "id": 7231429832, "lat": 35.6571433, "lon": 45.3401693}, {"type": "node", "id": 7231429833, "lat": 35.6569592, "lon": 45.3399144}, {"type": "node", "id": 7231429834, "lat": 35.6571318, "lon": 45.3395464}, {"type": "node", "id": 7231429835, "lat": 35.6571433, "lon": 45.3389235}, {"type": "node", "id": 7231429836, "lat": 35.6568097, "lon": 45.3382156}, {"type": "node", "id": 7231429837, "lat": 35.6571663, "lon": 45.3380457}, {"type": "node", "id": 7231429838, "lat": 35.6580175, "lon": 45.338428}, {"type": "node", "id": 7231429839, "lat": 35.658282, "lon": 45.3380599}, {"type": "node", "id": 7231429840, "lat": 35.6574539, "lon": 45.3367292}, {"type": "node", "id": 7231429841, "lat": 35.6569362, "lon": 45.3364319}, {"type": "node", "id": 7231429842, "lat": 35.6564186, "lon": 45.3364602}, {"type": "node", "id": 7231429843, "lat": 35.655924, "lon": 45.3367858}, {"type": "node", "id": 7231429844, "lat": 35.6556249, "lon": 45.3364602}, {"type": "node", "id": 7231429845, "lat": 35.6545091, "lon": 45.3369981}, {"type": "node", "id": 7231429846, "lat": 35.6544056, "lon": 45.3364319}, {"type": "node", "id": 7231429847, "lat": 35.6534048, "lon": 45.3351861}, {"type": "node", "id": 7231429848, "lat": 35.6527722, "lon": 45.3358514}, {"type": "node", "id": 7231429849, "lat": 35.6534163, "lon": 45.3369273}, {"type": "node", "id": 7231429850, "lat": 35.6528297, "lon": 45.3368424}, {"type": "node", "id": 7231429851, "lat": 35.6526341, "lon": 45.3368707}, {"type": "node", "id": 7231450431, "lat": 35.7081385, "lon": 45.2289625}, {"type": "node", "id": 7231450587, "lat": 35.701158, "lon": 45.194867}, {"type": "node", "id": 7235359589, "lat": 35.8069636, "lon": 45.1084002, "tags": {"name": "\u062d\u0627\u062c\u06cc\u062a\u0627\u0646\u06cc \u062e\u0648\u0627\u0631\u0648\u0648", "name:ar": "\u062d\u0627\u062c\u064a\u062a\u0627\u0646\u064a \u0627\u0644\u0633\u0641\u0644\u06cc", "name:en": "Hajitan Lower", "place": "village", "wikidata": "Q61388400", "wikipedia": "ckb:\u062d\u0627\u062c\u06cc\u062a\u0627\u0646\u06cc \u062e\u0648\u0627\u0631\u0648\u0648"}}, {"type": "node", "id": 7243414316, "lat": 35.7791534, "lon": 45.083265, "tags": {"name": "\u0628\u0627\u0648\u06d5\u0645\u06d5\u0646\u062f\u0627\u0646\u06cc \u062e\u0648\u0627\u0631\u0648\u0648", "name:ar": "\u0628\u0627\u0648\u0645\u0646\u062f\u0627\u0646 \u0627\u0644\u0633\u0641\u0644\u06cc", "name:en": "Bawamandan Lower", "place": "village"}}, {"type": "node", "id": 7243471597, "lat": 35.6976807, "lon": 45.1103056, "tags": {"name": "\u06a9\u0627\u0646\u06cc \u0686\u0646\u0627\u0631", "name:ar": "\u06a9\u0627\u0646\u064a \u062c\u0646\u0627\u0631", "name:en": "Kani Chnar", "place": "village", "wikidata": "Q61388350", "wikipedia": "ckb:\u06a9\u0627\u0646\u06cc \u0686\u0646\u0627\u0631\u060c \u067e\u06cc\u0631\u06d5\u0645\u06d5\u06af\u0631\u0648\u0646"}}, {"type": "node", "id": 7267200259, "lat": 35.6791946, "lon": 45.1763804, "tags": {"name": "\u062d\u06d5\u0633\u06d5\u0646 \u062a\u06d5\u067e\u06d5\u06cc \u0633\u06d5\u0631\u0648\u0648", "name:ar": "\u062d\u0633\u0646 \u062a\u0628\u0629 \u0627\u0644\u0639\u0644\u06cc\u0627", "name:en": "Hassan Tapa Upper", "place": "village"}}, {"type": "node", "id": 7267214142, "lat": 35.6904514, "lon": 45.1817039, "tags": {"name": "\u0642\u0627\u0644\u0627\u0648\u06d5", "name:ar": "\u0642\u0627\u0644\u0627\u0648\u0627", "name:en": "Qalawa", "place": "village"}}, {"type": "node", "id": 7267220166, "lat": 35.6692774, "lon": 45.1946641, "tags": {"name": "\u062d\u06d5\u0633\u06d5\u0646 \u062a\u06d5\u067e\u06d5\u06cc \u062e\u0648\u0627\u0631\u0648\u0648", "name:ar": "\u062d\u0633\u0646 \u062a\u0628\u0629 \u0627\u0644\u0633\u0641\u0644\u06cc", "name:en": "Hassan Tapa Lower", "place": "village"}}, {"type": "node", "id": 7267220167, "lat": 35.6683916, "lon": 45.1938523}, {"type": "node", "id": 7267220168, "lat": 35.6683057, "lon": 45.1939824}, {"type": "node", "id": 7267220169, "lat": 35.6681868, "lon": 45.1941044}, {"type": "node", "id": 7267220170, "lat": 35.6679755, "lon": 45.1937791}, {"type": "node", "id": 7267220171, "lat": 35.667883, "lon": 45.1936653}, {"type": "node", "id": 7267220172, "lat": 35.6677178, "lon": 45.193836}, {"type": "node", "id": 7267220173, "lat": 35.6677377, "lon": 45.194145}, {"type": "node", "id": 7267220174, "lat": 35.6678037, "lon": 45.1944133}, {"type": "node", "id": 7267220175, "lat": 35.6677707, "lon": 45.1946573}, {"type": "node", "id": 7267220176, "lat": 35.6678367, "lon": 45.19495}, {"type": "node", "id": 7267220177, "lat": 35.6679226, "lon": 45.1952996}, {"type": "node", "id": 7267220178, "lat": 35.6680547, "lon": 45.1955679}, {"type": "node", "id": 7267220179, "lat": 35.6675131, "lon": 45.1958769}, {"type": "node", "id": 7267220180, "lat": 35.6676188, "lon": 45.1961777}, {"type": "node", "id": 7267220181, "lat": 35.6680745, "lon": 45.1962021}, {"type": "node", "id": 7267220182, "lat": 35.6682529, "lon": 45.1966087}, {"type": "node", "id": 7267220183, "lat": 35.6687219, "lon": 45.1975681}, {"type": "node", "id": 7267220184, "lat": 35.669039, "lon": 45.1972998}, {"type": "node", "id": 7267227285, "lat": 35.6692636, "lon": 45.1975112}, {"type": "node", "id": 7267227286, "lat": 35.6692305, "lon": 45.1977226}, {"type": "node", "id": 7267227287, "lat": 35.6698779, "lon": 45.1987146}, {"type": "node", "id": 7267227288, "lat": 35.6695212, "lon": 45.1992675}, {"type": "node", "id": 7267227289, "lat": 35.6697325, "lon": 45.1996659}, {"type": "node", "id": 7267227290, "lat": 35.6698977, "lon": 45.1994057}, {"type": "node", "id": 7267227291, "lat": 35.6701685, "lon": 45.1987146}, {"type": "node", "id": 7267227292, "lat": 35.6700232, "lon": 45.198056}, {"type": "node", "id": 7267227293, "lat": 35.6702478, "lon": 45.1978527}, {"type": "node", "id": 7267227294, "lat": 35.6703667, "lon": 45.1971372}, {"type": "node", "id": 7267227295, "lat": 35.6704856, "lon": 45.1968282}, {"type": "node", "id": 7267227296, "lat": 35.67073, "lon": 45.1965111}, {"type": "node", "id": 7267227297, "lat": 35.6708489, "lon": 45.1964054}, {"type": "node", "id": 7267227298, "lat": 35.6709017, "lon": 45.1965924}, {"type": "node", "id": 7267227299, "lat": 35.6712716, "lon": 45.1964217}, {"type": "node", "id": 7267227300, "lat": 35.6711593, "lon": 45.1958606}, {"type": "node", "id": 7267227301, "lat": 35.6714235, "lon": 45.195698}, {"type": "node", "id": 7267227302, "lat": 35.6722624, "lon": 45.19495}, {"type": "node", "id": 7267227303, "lat": 35.6721303, "lon": 45.1946329}, {"type": "node", "id": 7267227304, "lat": 35.6718067, "lon": 45.1947304}, {"type": "node", "id": 7267227305, "lat": 35.6716944, "lon": 45.1944215}, {"type": "node", "id": 7267227306, "lat": 35.6718529, "lon": 45.1940718}, {"type": "node", "id": 7267227307, "lat": 35.6717934, "lon": 45.193771}, {"type": "node", "id": 7267227308, "lat": 35.671516, "lon": 45.1930961}, {"type": "node", "id": 7267227309, "lat": 35.6717604, "lon": 45.1928928}, {"type": "node", "id": 7267227310, "lat": 35.6716415, "lon": 45.1925513}, {"type": "node", "id": 7267227311, "lat": 35.6712914, "lon": 45.1927221}, {"type": "node", "id": 7267227312, "lat": 35.6710074, "lon": 45.1927465}, {"type": "node", "id": 7267227313, "lat": 35.6712452, "lon": 45.1922342}, {"type": "node", "id": 7267227314, "lat": 35.6709744, "lon": 45.1918846}, {"type": "node", "id": 7267227315, "lat": 35.6707498, "lon": 45.1920635}, {"type": "node", "id": 7267227316, "lat": 35.670545, "lon": 45.1916732}, {"type": "node", "id": 7267227317, "lat": 35.6703138, "lon": 45.1919334}, {"type": "node", "id": 7267227318, "lat": 35.670512, "lon": 45.1923969}, {"type": "node", "id": 7267227319, "lat": 35.6700959, "lon": 45.192901}, {"type": "node", "id": 7267227320, "lat": 35.6699307, "lon": 45.1928522}, {"type": "node", "id": 7267227321, "lat": 35.6698514, "lon": 45.1931124}, {"type": "node", "id": 7267227322, "lat": 35.669574, "lon": 45.1930717}, {"type": "node", "id": 7267227323, "lat": 35.6694749, "lon": 45.1933157}, {"type": "node", "id": 7267227324, "lat": 35.66929, "lon": 45.1938442}, {"type": "node", "id": 7267227325, "lat": 35.6691975, "lon": 45.1941613}, {"type": "node", "id": 7267227326, "lat": 35.6688144, "lon": 45.193771}, {"type": "node", "id": 7267227327, "lat": 35.6685105, "lon": 45.1939743}, {"type": "node", "id": 7267385680, "lat": 35.8700294, "lon": 45.4642406, "tags": {"name": "\u0686\u0646\u0627\u0631\u06d5", "name:ar": "\u062c\u0646\u0627\u0631\u0629", "name:ckb": "\u0686\u0646\u0627\u0631\u06d5", "name:en": "Chnara", "place": "village", "wikidata": "Q61381201", "wikipedia": "ckb:\u0686\u0646\u0627\u0631\u06d5\u060c \u0645\u0627\u0648\u06d5\u062a"}}, {"type": "node", "id": 7267408322, "lat": 35.8879601, "lon": 45.4611557, "tags": {"name": "\u0646\u0627\u0648\u0631", "name:ar": "\u0646\u0627\u0648\u0631", "name:en": "Nawr", "place": "village", "wikidata": "Q61381579", "wikipedia": "ckb:\u0646\u0627\u0648\u0631"}}, {"type": "node", "id": 7267436178, "lat": 35.9289758, "lon": 45.4590479, "tags": {"name": "\u0634\u06d5\u0634\u06c6", "name:ar": "\u0634\u06d5\u0634\u0648", "name:en": "Shasho", "place": "village", "wikidata": "Q61381350", "wikipedia": "ckb:\u0634\u06d5\u0634\u06c6"}}, {"type": "node", "id": 7267449014, "lat": 35.9309046, "lon": 45.4743948}, {"type": "node", "id": 7267449015, "lat": 35.9308702, "lon": 45.4746638}, {"type": "node", "id": 7267449016, "lat": 35.9305034, "lon": 45.4746638}, {"type": "node", "id": 7267449017, "lat": 35.930492, "lon": 45.4748125}, {"type": "node", "id": 7267449018, "lat": 35.9309218, "lon": 45.4750602}, {"type": "node", "id": 7267449019, "lat": 35.9309849, "lon": 45.475315}, {"type": "node", "id": 7267449020, "lat": 35.9312199, "lon": 45.4755274}, {"type": "node", "id": 7267449021, "lat": 35.9316268, "lon": 45.4755698}, {"type": "node", "id": 7267449022, "lat": 35.9318675, "lon": 45.4755628}, {"type": "node", "id": 7267449023, "lat": 35.9320165, "lon": 45.4757326}, {"type": "node", "id": 7267449024, "lat": 35.9321312, "lon": 45.4755345}, {"type": "node", "id": 7267449025, "lat": 35.9322974, "lon": 45.4754566}, {"type": "node", "id": 7267449026, "lat": 35.932349, "lon": 45.4751947}, {"type": "node", "id": 7267449027, "lat": 35.9320853, "lon": 45.4750673}, {"type": "node", "id": 7267449028, "lat": 35.9318503, "lon": 45.4748478}, {"type": "node", "id": 7267449029, "lat": 35.9319019, "lon": 45.4745222}, {"type": "node", "id": 7267449030, "lat": 35.9316612, "lon": 45.474501}, {"type": "node", "id": 7267449031, "lat": 35.9316153, "lon": 45.4744515}, {"type": "node", "id": 7267449032, "lat": 35.9316325, "lon": 45.4742179}, {"type": "node", "id": 7267449033, "lat": 35.9313804, "lon": 45.4740126}, {"type": "node", "id": 7267449034, "lat": 35.9311683, "lon": 45.4742603}, {"type": "node", "id": 7267449035, "lat": 35.930939, "lon": 45.4743028}, {"type": "node", "id": 7267520110, "lat": 35.9358031, "lon": 45.4860654, "tags": {"name": "\u062a\u06c6\u06b5\u062f\u06ce", "name:ar": "\u062a\u0648\u0644\u062f\u064a", "name:en": "Tol De", "place": "village", "wikipedia": "ckb:\u062a\u0648\u06b5\u062f\u06ce"}}, {"type": "node", "id": 7335774006, "lat": 36.0736854, "lon": 45.2558781, "tags": {"name": "\u06af\u0648\u0627\u0631\u0627\u0646", "name:ar": "\u0643\u0648\u0627\u0631\u0627\u0646", "name:ckb": "\u06af\u0648\u0627\u0631\u0627\u0646", "name:en": "Gwaran", "name:ku": "Giwaran", "place": "village", "wikidata": "Q61389671", "wikipedia": "ckb:\u06af\u0648\u0627\u0631\u0627\u0646"}}, {"type": "node", "id": 7335786407, "lat": 36.0783337, "lon": 45.2484108, "tags": {"name": "\u062e\u06d5\u0646\u062f\u06d5\u06a9\u0648\u0631\u0644\u06d5", "name:ar": "\u062e\u0646\u062f\u0629\u0643\u0648\u0631\u0644\u0629", "name:ckb": "\u062e\u06d5\u0646\u062f\u06d5\u06a9\u0648\u0631\u0644\u06d5", "name:en": "Khandakurla", "name:ku": "Xendekurle", "place": "village", "wikidata": "Q61389616", "wikipedia": "ckb:\u062e\u06d5\u0646\u062f\u06d5\u06a9\u0648\u0631\u0644\u06d5"}}, {"type": "node", "id": 7335790610, "lat": 36.069252, "lon": 45.2584096, "tags": {"name": "\u067e\u06ce\u0631\u06cc\u0633\u06a9\u06d5", "name:ar": "\u0628\u064a\u0631\u064a\u0633\u0643\u0629", "name:ckb": "\u067e\u06ce\u0631\u06cc\u0633\u06a9\u06d5", "name:en": "Periska", "name:ku": "P\u00ear\u00eeske", "place": "village", "wikidata": "Q61389604", "wikipedia": "ckb:\u067e\u06ce\u0631\u06cc\u0633\u06a9\u06d5"}}, {"type": "node", "id": 7336335672, "lat": 36.0696429, "lon": 45.3051341, "tags": {"name": "\u0628\u06d5\u0631\u0695\u06c6\u0698", "name:ar": "\u0628\u0631\u0631\u0648\u0632", "name:ckb": "\u0628\u06d5\u0631\u0695\u06c6\u0698", "name:en": "Barrozh", "name:ku": "Berroj", "place": "village", "wikidata": "Q61389587", "wikipedia": "ckb:\u0628\u06d5\u0631\u0695\u06c6\u0698"}}, {"type": "node", "id": 7336419057, "lat": 36.0709274, "lon": 45.3228252, "tags": {"name": "\u06a9\u0627\u0646\u06cc \u0645\u06d5\u0632\u0646", "name:ar": "\u0643\u0627\u0646\u064a \u0645\u0632\u0646", "name:ckb": "\u06a9\u0627\u0646\u06cc \u0645\u06d5\u0632\u0646", "name:en": "Kani Mazn", "name:ku": "Kan\u00ee Mezin", "place": "village", "wikidata": "Q61389660", "wikipedia": "ckb:\u06a9\u0627\u0646\u06cc \u0645\u06d5\u0632\u0646"}}, {"type": "node", "id": 7336546159, "lat": 36.0846715, "lon": 45.3081161, "tags": {"name": "\u0645\u06ce\u0631\u06af\u06cc \u0628\u0627\u062f\u06cc\u0646", "name:ar": "\u0645\u06cc\u0631\u0643\u064a \u0628\u0627\u062f\u06cc\u0646", "name:ckb": "\u0645\u06ce\u0631\u06af\u06cc \u0628\u0627\u062f\u06cc\u0646", "name:en": "Mergi Badin", "name:ku": "M\u00earg\u00ee Bad\u00een", "place": "village", "wikidata": "Q61389678", "wikipedia": "ckb:\u0645\u06ce\u0631\u06af\u06cc \u0628\u0627\u062f\u06cc\u0646"}}, {"type": "node", "id": 7336935668, "lat": 36.0565373, "lon": 45.3457785, "tags": {"name": "\u06a9\u06d5\u0644\u0648 \u0648\u0634\u06a9\u06d5", "name:ar": "\u0643\u0644\u0648 \u0648\u0634\u06a9\u0629", "name:ckb": "\u06a9\u06d5\u0644\u0648 \u0648\u0634\u06a9\u06d5", "name:en": "Kalu Wshka", "name:ku": "Kelu Wi\u015fke", "place": "village", "wikidata": "Q61389661", "wikipedia": "ckb:\u06a9\u06d5\u0644\u0648 \u0648\u0634\u06a9\u06d5"}}, {"type": "node", "id": 7337161042, "lat": 36.0695847, "lon": 45.3592892, "tags": {"name": "\u0642\u0632\u06b5 \u0628\u06d5\u06af", "name:ar": "\u0642\u0632\u0644 \u0628\u0643", "name:ckb": "\u0642\u0632\u06b5 \u0628\u06d5\u06af", "name:en": "Qzl Bag", "name:ku": "Qizill Beg", "place": "village", "wikidata": "Q61389649", "wikipedia": "ckb:\u0642\u0632\u06b5 \u0628\u06d5\u06af"}}, {"type": "node", "id": 7337187575, "lat": 36.0768242, "lon": 45.3653717, "tags": {"name": "\u06a9\u0648\u06ce\u0631\u06d5\u0645\u06cc\u0631\u0627\u0646", "name:ar": "\u06a9\u0648\u064a\u0631\u064e\u0645\u064a\u0631\u0627\u0646", "name:ckb": "\u06a9\u0648\u06ce\u0631\u06d5\u0645\u06cc\u0631\u0627\u0646", "name:en": "Kweramiran", "name:ku": "Kw\u00earem\u00eeran", "place": "village", "wikidata": "Q61389667", "wikipedia": "ckb:\u06a9\u0648\u06ce\u0631\u06d5\u0645\u06cc\u0631\u0627\u0646"}}, {"type": "node", "id": 7337187765, "lat": 36.0634342, "lon": 45.3522636, "tags": {"name": "\u0686\u06c6\u0645\u06d5", "name:ar": "\u062c\u0648\u0645\u0629", "name:ckb": "\u0686\u06c6\u0645\u06d5", "name:en": "Choma", "name:ku": "\u00c7ome", "place": "village", "wikidata": "Q61389613", "wikipedia": "ckb:\u0686\u06c6\u0645\u06d5\u060c \u0626\u06cc\u0633\u06ce\u0648\u06ce"}}, {"type": "node", "id": 7337196223, "lat": 36.0725831, "lon": 45.3479266, "tags": {"name": "\u0628\u06c6\u0631\u06ce", "name:ar": "\u0628\u0648\u0631\u064a", "name:ckb": "\u0628\u06c6\u0631\u06ce", "name:en": "Bore", "name:ku": "Bor\u00ea", "place": "village", "wikidata": "Q61389599", "wikipedia": "ckb:\u0628\u06c6\u0631\u06ce"}}, {"type": "node", "id": 7337204134, "lat": 36.060478, "lon": 45.355884, "tags": {"name": "\u0633\u06d5\u0631\u062f\u06d5\u0648\u0631\u0627\u0646", "name:ar": "\u0633\u0631\u062f\u0648\u0631\u0627\u0646", "name:ckb": "\u0633\u06d5\u0631\u062f\u06d5\u0648\u0631\u0627\u0646", "name:en": "Sardawran", "name:ku": "Serdewran", "place": "village", "wikidata": "Q61389643", "wikipedia": "ckb:\u0633\u06d5\u0631\u062f\u06d5\u0648\u0631\u0627\u0646"}}, {"type": "node", "id": 7337216497, "lat": 36.0599258, "lon": 45.351388, "tags": {"name": "\u062e\u0648\u06ce\u0628\u06cc\u0627\u0646", "name:ar": "\u062e\u0648\u064a\u0628\u064a\u0627\u0646", "name:ckb": "\u062e\u0648\u06ce\u0628\u06cc\u0627\u0646", "name:en": "Khwebyan", "name:ku": "Xw\u00eabiyan", "place": "village", "wikidata": "Q61389624", "wikipedia": "ckb:\u062e\u0648\u06ce\u0628\u06cc\u0627\u0646"}}, {"type": "node", "id": 7337221513, "lat": 36.0341361, "lon": 45.3415949, "tags": {"name": "\u0633\u06d5\u0631\u0646\u06ce\u06b5", "name:ar": "\u0633\u0631\u0646\u064a\u0644", "name:ckb": "\u0633\u06d5\u0631\u0646\u06ce\u06b5", "name:en": "Sarnel", "name:ku": "Sern\u00eall", "place": "village", "wikidata": "Q61389641", "wikipedia": "ckb:\u0633\u06d5\u0631\u0646\u06ce\u06b5\u060c \u0626\u06cc\u0633\u06ce\u0648\u06ce"}}, {"type": "node", "id": 7337228112, "lat": 36.0526313, "lon": 45.3537522, "tags": {"name": "\u06a9\u0627\u0646\u06cc \u0628\u06d5\u062f\u0627\u0631", "name:ar": "\u0643\u0627\u0646\u064a \u0628\u062f\u0627\u0631", "name:ckb": "\u06a9\u0627\u0646\u06cc \u0628\u06d5\u062f\u0627\u0631", "name:en": "Kani Badar", "name:ku": "Kan\u00ee Bedar", "place": "village", "wikidata": "Q61389654", "wikipedia": "ckb:\u06a9\u0627\u0646\u06cc \u0628\u06d5\u062f\u0627\u0631"}}, {"type": "node", "id": 7337266899, "lat": 36.0400778, "lon": 45.329234, "tags": {"name": "\u0686\u0645\u06a9\u0627\u0648\u06d5", "name:ar": "\u062c\u0645\u0643\u0627\u0648\u0629", "name:ckb": "\u0686\u0645\u06a9\u0627\u0648\u06d5", "name:en": "Chmkawa", "name:ku": "\u00c7imkawe", "place": "village", "wikidata": "Q61389606", "wikipedia": "ckb:\u0686\u0645\u06a9\u0627\u0648\u06d5"}}, {"type": "node", "id": 7371010354, "lat": 35.6843855, "lon": 45.3994678}, {"type": "node", "id": 7371010355, "lat": 35.6818235, "lon": 45.4018711}, {"type": "node", "id": 7371010356, "lat": 35.6797668, "lon": 45.3980516}, {"type": "node", "id": 7371010357, "lat": 35.6805685, "lon": 45.395584}, {"type": "node", "id": 7371010358, "lat": 35.6830261, "lon": 45.3945969}, {"type": "node", "id": 7371053684, "lat": 35.7175812, "lon": 45.3667363}, {"type": "node", "id": 7371057885, "lat": 35.7174561, "lon": 45.3680735}, {"type": "node", "id": 7371057886, "lat": 35.7170409, "lon": 45.3683631}, {"type": "node", "id": 7371057887, "lat": 35.715685, "lon": 45.3671615}, {"type": "node", "id": 7371057888, "lat": 35.7165343, "lon": 45.365881}, {"type": "node", "id": 7371057994, "lat": 35.7590026, "lon": 45.3529095}, {"type": "node", "id": 7371057995, "lat": 35.7587222, "lon": 45.3564213}, {"type": "node", "id": 7371057996, "lat": 35.7552584, "lon": 45.3560103}, {"type": "node", "id": 7371057997, "lat": 35.7550821, "lon": 45.3547279}, {"type": "node", "id": 7371057998, "lat": 35.7568048, "lon": 45.353152}, {"type": "node", "id": 7373252128, "lat": 35.7175666, "lon": 45.5702447, "tags": {"name": "\u0686\u0648\u0627\u0631\u062a\u0627", "name:ar": "\u062c\u0648\u0627\u0631\u062a\u0627", "name:ckb": "\u0686\u0648\u0627\u0631\u062a\u0627", "name:en": "Chwarta", "name:ku": "\u00c7warta", "place": "town", "wikidata": "Q25630636", "wikipedia": "ckb:\u0686\u0648\u0627\u0631\u062a\u0627"}}, {"type": "node", "id": 7416500141, "lat": 35.9352399, "lon": 45.484265}, {"type": "node", "id": 7416500142, "lat": 35.9351601, "lon": 45.4844992}, {"type": "node", "id": 7416500143, "lat": 35.9353497, "lon": 45.4845485}, {"type": "node", "id": 7416500144, "lat": 35.9354644, "lon": 45.4847025}, {"type": "node", "id": 7416500145, "lat": 35.9355443, "lon": 45.4849182}, {"type": "node", "id": 7416500146, "lat": 35.9355043, "lon": 45.485023}, {"type": "node", "id": 7416500147, "lat": 35.9353397, "lon": 45.4852078}, {"type": "node", "id": 7416500148, "lat": 35.9356141, "lon": 45.4853434}, {"type": "node", "id": 7416500149, "lat": 35.9358286, "lon": 45.4855714}, {"type": "node", "id": 7416500150, "lat": 35.9358885, "lon": 45.4857624}, {"type": "node", "id": 7416500151, "lat": 35.9360482, "lon": 45.4859473}, {"type": "node", "id": 7416500152, "lat": 35.9356263, "lon": 45.4839742}, {"type": "node", "id": 7416500153, "lat": 35.9354794, "lon": 45.4838029}, {"type": "node", "id": 7416500154, "lat": 35.9353447, "lon": 45.4836118}, {"type": "node", "id": 7416509512, "lat": 35.9350457, "lon": 45.4841237}, {"type": "node", "id": 7416509513, "lat": 35.9350532, "lon": 45.4836194}, {"type": "node", "id": 7416509514, "lat": 35.935265, "lon": 45.4835914}, {"type": "node", "id": 7416509518, "lat": 35.9355221, "lon": 45.484432}, {"type": "node", "id": 7416509519, "lat": 35.9357414, "lon": 45.4846374}, {"type": "node", "id": 7416509520, "lat": 35.9358624, "lon": 45.4851325}, {"type": "node", "id": 7416509521, "lat": 35.9360968, "lon": 45.4854874}, {"type": "node", "id": 7416509522, "lat": 35.9361347, "lon": 45.485861}, {"type": "node", "id": 7430462877, "lat": 35.7999892, "lon": 45.5898321, "tags": {"name": "\u0626\u06d5\u0633\u062a\u06ce\u0631\u06a9", "name:ar": "\u0626\u0633\u062a\u06cc\u0631\u06a9", "name:en": "Asterk", "place": "village", "wikidata": "Q61381823", "wikipedia": "ckb:\u0626\u06d5\u0633\u062a\u06ce\u0631\u06a9"}}, {"type": "node", "id": 7438629930, "lat": 35.7265965, "lon": 45.4833333, "tags": {"name": "\u0642\u0634\u06b5\u0627\u063a", "name:ar": "\u0642\u0634\u0644\u0627\u063a", "name:en": "Qshlagh", "place": "village", "wikidata": "Q61381982"}}, {"type": "node", "id": 7438708911, "lat": 35.7294814, "lon": 45.4745144, "tags": {"alt_name": "\u0647\u06d5\u0628\u0627\u0633\u06d5 \u06af\u0648\u06b5\u06d5", "name": "\u06be\u06d5\u0628\u0627\u0633\u06d5 \u0686\u06d5\u0642\u06d5\u06b5", "name:ar": "\u06be\u0628\u0627\u0633\u0629\u06a9\u0648\u0644\u0629", "name:en": "Habasa Gula", "place": "village", "wikidata": "Q61382157", "wikipedia": "ckb:\u06be\u06d5\u0628\u0627\u0633\u06d5\u0686\u06d5\u0642\u06d5\u06b5"}}, {"type": "node", "id": 7440883617, "lat": 35.8902972, "lon": 45.5827155}, {"type": "node", "id": 7440901428, "lat": 35.8896193, "lon": 45.5848295}, {"type": "node", "id": 7440922050, "lat": 35.8888184, "lon": 45.586138}, {"type": "node", "id": 8008704844, "lat": 35.8181686, "lon": 45.2026405, "tags": {"name": "\u0645\u06ce\u0631\u06af\u06d5\u067e\u0627\u0646", "place": "village"}}, {"type": "node", "id": 8034608277, "lat": 35.9112126, "lon": 45.5782375}, {"type": "node", "id": 8034608278, "lat": 35.911225, "lon": 45.5787586}, {"type": "node", "id": 8034608279, "lat": 35.910245, "lon": 45.5792343}, {"type": "node", "id": 8034608280, "lat": 35.9107371, "lon": 45.5795128}, {"type": "node", "id": 8034608281, "lat": 35.9123368, "lon": 45.579292}, {"type": "node", "id": 8034608282, "lat": 35.9124878, "lon": 45.5785687}, {"type": "node", "id": 8237718433, "lat": 35.9311449, "lon": 45.3164372, "tags": {"name": "\u06af\u06d5\u06b5\u0627\u06b5\u06d5", "name:ar": "\u06a9\u0644\u0627\u0644\u0629", "name:en": "Galala", "place": "village", "wikidata": "Q61381513", "wikipedia": "ckb:\u06af\u06d5\u06b5\u0627\u06b5\u06d5\u060c \u0645\u0627\u0648\u06d5\u062a"}}, {"type": "node", "id": 9706371909, "lat": 35.7979959, "lon": 45.3116039, "tags": {"name": "\u062f\u06ce", "place": "village"}}, {"type": "node", "id": 9730738081, "lat": 35.7926991, "lon": 45.3883657, "tags": {"name": "\u0628\u0627\u06b5\u062e", "name:ckb": "\u0628\u0627\u06b5\u062e", "name:en": "Balkh", "name:ku": "Ballix", "place": "village", "wikidata": "Q5988369", "wikipedia": "ckb:\u0628\u0627\u06b5\u062e"}}, {"type": "node", "id": 9730770782, "lat": 35.7574446, "lon": 45.3550892, "tags": {"name": "\u0633\u06cc\u0646\u06af\u0631", "name:ckb": "\u0633\u06cc\u0646\u06af\u0631", "name:en": "Singr", "name:ku": "S\u00eengir", "place": "village", "wikidata": "Q61381711", "wikipedia": "ckb:\u0633\u06cc\u0646\u06af\u0631"}}, {"type": "node", "id": 9730811788, "lat": 35.7489732, "lon": 45.3876313, "tags": {"name": "\u06a9\u06c6\u06b5\u06d5\u0631\u062f", "name:ckb": "\u06a9\u06c6\u06b5\u06d5\u0631\u062f", "name:en": "Kolard", "name:ku": "Kollerd", "place": "village", "wikidata": "Q61381745", "wikipedia": "ckb:\u06a9\u06c6\u06b5\u06d5\u0631\u062f"}}, {"type": "node", "id": 10067590178, "lat": 35.9747192, "lon": 45.3400508, "tags": {"name": "\u0628\u06d5\u0631\u06af\u0648\u0631\u062f", "name:ar": "\u0628\u0631\u06a9\u0648\u0631\u062f", "name:en": "Bargurd", "place": "village", "wikidata": "Q61381168", "wikipedia": "ckb:\u0628\u06d5\u0631\u06af\u0648\u0631\u062f"}}, {"type": "node", "id": 10074916316, "lat": 35.912259, "lon": 45.5796451, "tags": {"name": "\u0633\u06cc\u0631\u06ce", "name:en": "Sir\u00ea", "place": "village", "wikidata": "Q61382816", "wikipedia": "ckb:\u0633\u06cc\u0631\u06ce\u06cc \u0628\u0627\u0628\u06d5\u0634\u06ce\u062e"}}, {"type": "node", "id": 10739986699, "lat": 35.723041, "lon": 45.1360883, "tags": {"name": "\u0686\u06d5\u0631\u0645\u06d5\u06af\u0627", "name:ar": "\u062c\u0631\u0645\u06a9\u0627", "name:en": "Carmaga", "place": "village", "wikidata": "Q61388337", "wikipedia": "ckb:\u0686\u06d5\u0631\u0645\u06d5\u06af\u0627\u060c \u067e\u06cc\u0631\u06d5\u0645\u06d5\u06af\u0631\u0648\u0646"}}, {"type": "node", "id": 10740017599, "lat": 35.6558264, "lon": 45.1536293, "tags": {"name": "\u062d\u0627\u062c\u06cc\u0626\u0627\u0648\u0627", "name:ar": "\u062d\u0627\u062c\u06cc\u0627\u0648\u0627", "name:en": "Hajiawa", "place": "village", "wikidata": "Q61388397", "wikipedia": "ckb:\u062d\u0627\u062c\u06cc \u0626\u0627\u0648\u0627"}}, {"type": "node", "id": 10764176683, "lat": 35.9356472, "lon": 45.4873298}, {"type": "node", "id": 10764176684, "lat": 35.9356419, "lon": 45.4877177}, {"type": "node", "id": 10764176685, "lat": 35.93594, "lon": 45.4880399}, {"type": "node", "id": 10764176686, "lat": 35.9362754, "lon": 45.4882569}, {"type": "node", "id": 10764176687, "lat": 35.936491, "lon": 45.4878996}, {"type": "node", "id": 10764176688, "lat": 35.9365682, "lon": 45.4876513}, {"type": "node", "id": 10764176689, "lat": 35.9364793, "lon": 45.4872731}, {"type": "node", "id": 10764176690, "lat": 35.9362759, "lon": 45.4871864}, {"type": "node", "id": 10768396043, "lat": 35.8286247, "lon": 45.3674146}, {"type": "node", "id": 10768396044, "lat": 35.828328, "lon": 45.3681988}, {"type": "node", "id": 10768396045, "lat": 35.8290909, "lon": 45.3688}, {"type": "node", "id": 10768396046, "lat": 35.8296738, "lon": 45.369179}, {"type": "node", "id": 10768396047, "lat": 35.8292989, "lon": 45.3695506}, {"type": "node", "id": 10768396048, "lat": 35.8291265, "lon": 45.3694906}, {"type": "node", "id": 10768396049, "lat": 35.8290248, "lon": 45.3696705}, {"type": "node", "id": 10768396050, "lat": 35.8291044, "lon": 45.3701503}, {"type": "node", "id": 10768396051, "lat": 35.828627, "lon": 45.3701285}, {"type": "node", "id": 10768396052, "lat": 35.8285696, "lon": 45.3705046}, {"type": "node", "id": 10768396053, "lat": 35.8286447, "lon": 45.371028}, {"type": "node", "id": 10768396054, "lat": 35.8290735, "lon": 45.3711806}, {"type": "node", "id": 10768396055, "lat": 35.8292016, "lon": 45.371535}, {"type": "node", "id": 10768396056, "lat": 35.829511, "lon": 45.3715786}, {"type": "node", "id": 10768396057, "lat": 35.8297497, "lon": 45.3713224}, {"type": "node", "id": 10768396058, "lat": 35.8303111, "lon": 45.371475}, {"type": "node", "id": 10768396059, "lat": 35.8307796, "lon": 45.3714641}, {"type": "node", "id": 10768396060, "lat": 35.830647, "lon": 45.3705373}, {"type": "node", "id": 10768396061, "lat": 35.830974, "lon": 45.3704774}, {"type": "node", "id": 10768396062, "lat": 35.8311066, "lon": 45.370352}, {"type": "node", "id": 10768396063, "lat": 35.8314028, "lon": 45.3703084}, {"type": "node", "id": 10768396064, "lat": 35.8317475, "lon": 45.3699158}, {"type": "node", "id": 10768396065, "lat": 35.8321276, "lon": 45.3698559}, {"type": "node", "id": 10768396066, "lat": 35.832468, "lon": 45.3697196}, {"type": "node", "id": 10768396067, "lat": 35.8328348, "lon": 45.3695778}, {"type": "node", "id": 10768396068, "lat": 35.8330911, "lon": 45.3694088}, {"type": "node", "id": 10768396069, "lat": 35.8334138, "lon": 45.3692398}, {"type": "node", "id": 10768396070, "lat": 35.8336834, "lon": 45.3690163}, {"type": "node", "id": 10768396071, "lat": 35.8334933, "lon": 45.3687437}, {"type": "node", "id": 10768396072, "lat": 35.8328436, "lon": 45.3684821}, {"type": "node", "id": 10768396073, "lat": 35.832742, "lon": 45.3682858}, {"type": "node", "id": 10768396074, "lat": 35.8325166, "lon": 45.3682422}, {"type": "node", "id": 10768396075, "lat": 35.8322735, "lon": 45.3682913}, {"type": "node", "id": 10768396076, "lat": 35.8320613, "lon": 45.3681986}, {"type": "node", "id": 10768396077, "lat": 35.8319729, "lon": 45.3683948}, {"type": "node", "id": 10768396078, "lat": 35.8317166, "lon": 45.3685529}, {"type": "node", "id": 10768396079, "lat": 35.8312879, "lon": 45.368542}, {"type": "node", "id": 10768396080, "lat": 35.8307486, "lon": 45.368433}, {"type": "node", "id": 10768396081, "lat": 35.8301387, "lon": 45.3681986}, {"type": "node", "id": 10768396082, "lat": 35.8298735, "lon": 45.367986}, {"type": "node", "id": 10768396083, "lat": 35.829374, "lon": 45.3677025}, {"type": "node", "id": 10778690865, "lat": 35.7170672, "lon": 45.6030488, "tags": {"name": "\u062e\u0645\u0627\u0646\u06ce", "name:ar": "\u062e\u0645\u0627\u0646\u064a", "name:en": "Khman\u00ea", "place": "village", "wikidata": "Q61381913", "wikipedia": "ckb:\u062e\u0645\u0627\u0646\u06ce"}}, {"type": "node", "id": 10781660771, "lat": 35.9753187, "lon": 45.5819475, "tags": {"name": "\u0686\u06c6\u0645\u0627\u0646", "name:en": "Choman", "name:fa": "\u0686\u0648\u0645\u0627\u0646", "place": "village", "wikidata": "Q6394218", "wikipedia": "ckb:\u0686\u06c6\u0645\u0627\u0646\u060c \u0628\u0627\u0646\u06d5"}}, {"type": "node", "id": 10782770055, "lat": 35.7738165, "lon": 45.5962267, "tags": {"name": "\u0628\u0632\u0648\u0631\u06af\u06cc", "name:ar": "\u0628\u0632\u0648\u0631\u06a9\u064a", "name:en": "Bzurgi", "place": "village", "wikidata": "Q61381869", "wikipedia": "ckb:\u0628\u0632\u0648\u0631\u06af\u06cc"}}, {"type": "node", "id": 10819225955, "lat": 35.7296296, "lon": 45.4131941, "tags": {"name": "\u0642\u06d5\u06cc\u0648\u0627\u0646\u06cc \u06af\u06d5\u0648\u0631\u06d5", "name:ar": "\u0642\u06cc\u0648\u0627\u0646 \u06a9\u0628\u0631\u06cc", "name:en": "Qaiwani Gawra", "place": "village", "wikidata": "Q61381765", "wikipedia": "ckb:\u0642\u06d5\u06cc\u0648\u0627\u0646\u06cc \u06af\u06d5\u0648\u0631\u06d5"}}, {"type": "node", "id": 11224436514, "lat": 35.6545977, "lon": 45.3383905, "tags": {"name": "\u0633\u06c6\u062a\u06a9\u06d5", "name:ar": "\u0633\u0648\u062a\u06a9\u0629", "name:en": "Sotke", "place": "village", "wikidata": "Q61383264", "wikipedia": "ckb:\u0633\u06c6\u062a\u06a9\u06d5"}}, {"type": "way", "id": 264779042, "nodes": [2704260492, 2704260507, 2704260500, 2704260495, 2704260509, 2704260497, 2704260511, 2704260494, 2704260502, 2704260496, 2704260499, 2704260498, 2704260493, 2704260508, 2704260505, 2704260501, 2704260510, 2704260503, 2704260504, 2704260506, 2704260492], "tags": {"place": "village"}}, {"type": "way", "id": 321927874, "nodes": [3286943524, 3286944067, 3286944186, 3286943554, 3286944068, 3286944198, 3286944110, 3286944122, 3286944167, 3286944212, 3286943524], "tags": {"place": "village"}}, {"type": "way", "id": 321934576, "nodes": [3287009100, 3287008988, 3287009127, 3287009176, 3287008911, 3287008833, 3287009150, 3287009100], "tags": {"place": "village"}}, {"type": "way", "id": 488736239, "nodes": [4810240918, 4810240919, 4810240920, 4810240921, 4810240922, 4810240923, 4810240924, 4810240925, 4810240918], "tags": {"name": "\u06a9\u0627\u0646\u06cc \u0645\u06d5\u0646\u0645", "place": "village", "residential": "rural"}}, {"type": "way", "id": 488736242, "nodes": [4810240941, 4810240942, 4810240943, 4810240944, 4810240945, 4810240941], "tags": {"name": "\u0642\u06d5\u0645\u06d5\u0631\u062a\u0644\u06cc", "place": "village", "residential": "rural"}}, {"type": "way", "id": 488736306, "nodes": [4810241503, 4810241504, 4810241505, 4810241506, 4810241507, 4810241503], "tags": {"name": "\u067e\u06cc\u0633\u06a9\u06d5\u0646\u062f\u06cc", "place": "village", "residential": "urban"}}, {"type": "way", "id": 488736308, "nodes": [4810241512, 4810241513, 4810241514, 4810241515, 4810241516, 4810241512], "tags": {"name": "\u062f\u0627\u0631\u0628\u06d5\u0695\u0648\u0648\u0644\u06d5", "place": "village", "residential": "rural"}}, {"type": "way", "id": 488736317, "nodes": [4810241663, 4810241664, 7231450587, 4810241665, 4810241666, 4810241667, 4810241668, 4810241669, 4810241670, 4810241671, 4810241672, 4810241673, 4810241674, 4810241675, 4810241676, 4810241677, 4810241678, 4810241679, 4810241680, 4810241663], "tags": {"name": "\u06af\u0631\u062f\u06d5\u0628\u06c6\u0631", "place": "village", "residential": "rural"}}, {"type": "way", "id": 488736319, "nodes": [4810241689, 4810241690, 4810241691, 4810241692, 4810241693, 4810241694, 4810241695, 7231450431, 4810241696, 4810241697, 4810241698, 4810241699, 4810241689], "tags": {"name": "\u06cc\u0627\u06b5\u0627\u0646\u0642\u06c6\u0632", "place": "village", "residential": "rural"}}, {"type": "way", "id": 558490265, "nodes": [5385920057, 5385920058, 5385920059, 5385920060, 5385920057], "tags": {"place": "village"}}, {"type": "way", "id": 558490266, "nodes": [5385920069, 5385920070, 5385920071, 5385920072, 5385920073, 5385920074, 5385920069], "tags": {"place": "village"}}, {"type": "way", "id": 712652550, "nodes": [6700426439, 6700426440, 8034608279, 6700426441, 8034608280, 6700426442, 6700426443, 6700426448, 6700426447, 6700426446, 8034608282, 8034608281, 6700426445, 6700426444, 8034608277, 8034608278, 6700426439], "tags": {"landuse": "residential", "name": "\u0633\u06cc\u0631\u06ce", "name:de": "Sire", "name:fr": "Sire", "place": "village"}}, {"type": "way", "id": 771600139, "nodes": [7203152328, 7203152329, 7203152330, 7203152331, 7203152332, 7203152333, 7203152334, 7203152335, 7203152336, 7203152337, 7203152338, 7203152339, 7203152340, 7203152341, 7203152342, 7203152343, 7203152344, 7203152345, 7203152346, 7440883617, 7203152347, 7203152348, 7203152349, 7203152350, 7203152351, 7440901428, 7203152352, 7203152353, 7203152354, 7440922050, 7203152355, 7203152356, 7203152357, 7203152358, 7203152359, 7203152360, 7203152328], "tags": {"name": "\u0628\u0627\u0633\u0646\u06ce", "name:ckb": "\u0628\u0627\u0633\u0646\u06ce", "place": "village", "residential": "rural"}}, {"type": "way", "id": 775116916, "nodes": [7231429816, 7231429817, 7231429818, 7231429819, 7231429820, 7231429821, 7231429822, 7231429823, 7231429824, 7231429825, 7231429826, 7231429827, 7231429828, 7231429829, 7231429830, 7231429831, 7231429832, 7231429833, 7231429834, 7231429835, 7231429836, 7231429837, 7231429838, 7231429839, 7231429840, 7231429841, 7231429842, 7231429843, 7231429844, 7231429845, 7231429846, 7231429847, 7231429848, 7231429849, 7231429850, 7231429851, 7231429816], "tags": {"name": "\u0633\u06c6\u062a\u06a9\u06d5", "place": "village", "residential": "rural", "wikidata": "Q61383264", "wikipedia": "ckb:\u0633\u06c6\u062a\u06a9\u06d5"}}, {"type": "way", "id": 775118011, "nodes": [7231386743, 7231386746, 7231386747, 7231386749, 7231386753, 7231386754, 7231386755, 7231386756, 7231386757, 7231386758, 7231386759, 7231386762, 7231386743], "tags": {"name": "\u062f\u0627\u0631\u062a\u0648\u0648\u06cc \u0645\u06d5\u0648\u0644\u0627\u0646\u06d5", "place": "village", "residential": "rural"}}, {"type": "way", "id": 778636784, "nodes": [7267220167, 7267220168, 7267220169, 7267220170, 7267220171, 7267220172, 7267220173, 7267220174, 7267220175, 7267220176, 7267220177, 7267220178, 7267220179, 7267220180, 7267220181, 7267220182, 7267220183, 7267220184, 7267227285, 7267227286, 3501098258, 7267227287, 7267227288, 7267227289, 7267227290, 7267227291, 7267227292, 7267227293, 7267227294, 7267227295, 7267227296, 7267227297, 7267227298, 7267227299, 7267227300, 7267227301, 7267227302, 7267227303, 7267227304, 7267227305, 7267227306, 7267227307, 7267227308, 7267227309, 7267227310, 7267227311, 7267227312, 7267227313, 7267227314, 7267227315, 7267227316, 7267227317, 7267227318, 7267227319, 7267227320, 7267227321, 7267227322, 7267227323, 7267227324, 7267227325, 7267227326, 7267227327, 7267220167], "tags": {"name": "\u062d\u06d5\u0633\u06d5\u0646 \u062a\u06d5\u067e\u06d5\u06cc \u062e\u0648\u0627\u0631\u0648\u0648", "place": "village", "residential": "rural"}}, {"type": "way", "id": 778658519, "nodes": [7267449014, 7267449015, 7267449016, 7267449017, 7267449018, 7267449019, 7267449020, 7267449021, 7267449022, 7267449023, 7267449024, 7267449025, 7267449026, 7267449027, 7267449028, 7267449029, 7267449030, 7267449031, 7267449032, 7267449033, 7267449034, 7267449035, 7267449014], "tags": {"name": "\u062e\u0645\u0627\u0646\u06d5", "name:ckb": "\u062e\u0645\u0627\u0646\u06d5", "place": "village", "residential": "rural"}}, {"type": "way", "id": 788401885, "nodes": [7371053684, 7371057885, 7371057886, 7371057887, 7371057888, 7371053684], "tags": {"name": "\u067e\u06cc\u0631\u06a9\u06d5", "place": "village"}}, {"type": "way", "id": 788401886, "nodes": [7371057994, 7371057995, 7371057996, 7371057997, 7371057998, 7371057994], "tags": {"place": "village"}}, {"type": "way", "id": 788403295, "nodes": [7371010354, 7371010355, 7371010356, 7371010357, 7371010358, 7371010354], "tags": {"name": "\u06a9\u0627\u0631\u06ce\u0632 \u06a9\u06b5\u0627\u0648", "place": "village"}}, {"type": "way", "id": 793144324, "nodes": [7416509512, 7416500141, 7416500142, 7416500143, 7416500144, 7416500145, 7416500146, 7416500147, 7416500148, 7416500149, 7416500150, 7416500151, 7416509522, 7416509521, 7416509520, 7416509519, 7416509518, 7416500152, 7416500153, 7416500154, 7416509514, 7416509513, 7416509512], "tags": {"name": "\u062a\u06c6\u06b5\u062f\u06ce", "place": "village", "residential": "rural"}}, {"type": "way", "id": 1157473945, "nodes": [10764176683, 10764176684, 10764176685, 10764176686, 10764176687, 10764176688, 10764176689, 10764176690, 10764176683], "tags": {"place": "village"}}, {"type": "way", "id": 1157896959, "nodes": [10768396043, 10768396044, 10768396045, 10768396046, 10768396047, 10768396048, 10768396049, 10768396050, 10768396051, 10768396052, 10768396053, 10768396054, 10768396055, 10768396056, 10768396057, 10768396058, 10768396059, 10768396060, 10768396061, 10768396062, 10768396063, 10768396064, 10768396065, 10768396066, 10768396067, 10768396068, 10768396069, 10768396070, 10768396071, 10768396072, 10768396073, 10768396074, 10768396075, 10768396076, 10768396077, 10768396078, 10768396079, 10768396080, 10768396081, 10768396082, 10768396083, 10768396043], "tags": {"name": "\u0648\u06b5\u0627\u063a\u0644\u0648\u0648", "place": "village", "residential": "rural"}}]}