{"version": 0.6, "generator": "Overpass API 0.7.61.5 4133829e", "osm3s": {"timestamp_osm_base": "2024-03-06T10:45:02Z", "copyright": "The data included in this document is from www.openstreetmap.org. The data is made available under ODbL."}, "elements": [{"type": "node", "id": 2479288789, "lat": 32.066067, "lon": 44.621366, "tags": {"alt_name": "\u0645\u062f\u0631\u0633\u0629 \u0646\u0627\u0628\u0644\u0633 \u0627\u0644\u0625\u0628\u062a\u062f\u0627\u0626\u064a\u0629", "amenity": "school", "int_name": "Madrasat N\u0101bulus al Ibtid\u0101\u012byah, \u0645\u062f\u0631\u0633\u0629 \u0646\u0627\u0628\u0644\u0633 \u0627\u0644\u0627\u0628\u062a\u062f\u0627\u0626\u064a\u0629, Madrasat Nabulus al Ibtidaiyah, \u0645\u062f\u0631\u0633\u0629 \u0646\u0627\u0628\u0644\u0633 \u0627\u0644\u0627\u0628\u062a\u062f\u0627\u0626\u064a\u0629", "name": "\u0645\u062f\u0631\u0633\u0629 \u0646\u0627\u0628\u0644\u0633 \u0627\u0644\u0625\u0628\u062a\u062f\u0627\u0626\u064a\u0629", "name:ar": "\u0645\u062f\u0631\u0633\u0629 \u0646\u0627\u0628\u0644\u0633 \u0627\u0644\u0625\u0628\u062a\u062f\u0627\u0626\u064a\u0629", "name:ar1": "\u0645\u062f\u0631\u0633\u0629 \u0646\u0627\u0628\u0644\u0633 \u0627\u0644\u0625\u0628\u062a\u062f\u0627\u0626\u064a\u0629", "name:de": "Madrasat Nabulus al Ibtidaiyah", "name:en": "Madrasat Nabulus al Ibtidaiyah", "name:fr": "Madrasat Nabulus al Ibtidaiyah"}}, {"type": "node", "id": 2479289160, "lat": 32.0951616, "lon": 44.575274}, {"type": "node", "id": 2479289161, "lat": 32.121117, "lon": 44.575767, "tags": {"alt_name": "\u0645\u062f\u0631\u0633\u0629 \u0644\u0628\u0646\u0627\u0646 \u0627\u0644\u0639\u0631\u0628\u064a", "amenity": "school", "int_name": "Madrasat Lubn\u0101n al Arab\u012b, \u0645\u062f\u0631\u0633\u0629 \u0644\u0628\u0646\u0627\u0646 \u0627\u0644\u0639\u0631\u0628\u064a, Madrasat Lubnan al Arabi, \u0645\u062f\u0631\u0633\u0629 \u0644\u0628\u0646\u0627\u0646 \u0627\u0644\u0639\u0631\u0628\u064a", "name": "\u0645\u062f\u0631\u0633\u0629 \u0644\u0628\u0646\u0627\u0646 \u0627\u0644\u0639\u0631\u0628\u064a", "name:ar": "\u0645\u062f\u0631\u0633\u0629 \u0644\u0628\u0646\u0627\u0646 \u0627\u0644\u0639\u0631\u0628\u064a", "name:ar1": "\u0645\u062f\u0631\u0633\u0629 \u0644\u0628\u0646\u0627\u0646 \u0627\u0644\u0639\u0631\u0628\u064a", "name:de": "Madrasat Lubnan al Arabi", "name:en": "Madrasat Lubnan al Arabi", "name:fr": "Madrasat Lubnan al Arabi"}}, {"type": "node", "id": 2480220251, "lat": 32.044783, "lon": 44.589289, "tags": {"alt_name": "\u0645\u062f\u0631\u0633\u0629 \u0627\u0644\u062e\u0627\u0644\u062f\u064a\u0629", "amenity": "school", "int_name": "Madrasat al Kh\u0101lid\u012byah, \u0645\u062f\u0631\u0633\u0629 \u0627\u0644\u062e\u0627\u0644\u062f\u064a\u0629, Madrasat al Khalidiyah, \u0645\u062f\u0631\u0633\u0629 \u0627\u0644\u062e\u0627\u0644\u062f\u064a\u0629", "name": "\u0645\u062f\u0631\u0633\u0629 \u0627\u0644\u062e\u0627\u0644\u062f\u064a\u0629", "name:ar": "\u0645\u062f\u0631\u0633\u0629 \u0627\u0644\u062e\u0627\u0644\u062f\u064a\u0629", "name:ar1": "\u0645\u062f\u0631\u0633\u0629 \u0627\u0644\u062e\u0627\u0644\u062f\u064a\u0629", "name:de": "Madrasat al Khalidiyah", "name:en": "Madrasat al Khalidiyah", "name:fr": "Madrasat al Khalidiyah"}}, {"type": "node", "id": 2480220809, "lat": 32.080389, "lon": 44.600421, "tags": {"alt_name": "\u0645\u062f\u0631\u0633\u0629 \u0627\u0644\u0642\u0646\u064a\u0637\u0631\u0629", "amenity": "school", "int_name": "Madrasat al Qunay\u0163rah, \u0645\u062f\u0631\u0633\u0629 \u0627\u0644\u0642\u0646\u064a\u0637\u0631\u0629, Madrasat al Qunaytrah, \u0645\u062f\u0631\u0633\u0629 \u0627\u0644\u0642\u0646\u064a\u0637\u0631\u0629", "name": "\u0645\u062f\u0631\u0633\u0629 \u0627\u0644\u0642\u0646\u064a\u0637\u0631\u0629", "name:ar": "\u0645\u062f\u0631\u0633\u0629 \u0627\u0644\u0642\u0646\u064a\u0637\u0631\u0629", "name:ar1": "\u0645\u062f\u0631\u0633\u0629 \u0627\u0644\u0642\u0646\u064a\u0637\u0631\u0629", "name:de": "Madrasat al Qunaytrah", "name:en": "Madrasat al Qunaytrah", "name:fr": "Madrasat al Qunaytrah"}}, {"type": "node", "id": 2480220810, "lat": 32.072971, "lon": 44.597708, "tags": {"alt_name": "\u0645\u062f\u0631\u0633\u0629 \u0627\u0644\u0635\u0627\u062f\u0642 \u0627\u0644\u0625\u0628\u062a\u062f\u0627\u0626\u064a\u0629", "amenity": "school", "int_name": "Madrasat a\u015f \u015e\u0101diq al Ibtid\u0101\u012byah, \u0645\u062f\u0631\u0633\u0629 \u0627\u0644\u0635\u0627\u062f\u0642 \u0627\u0644\u0627\u0628\u062a\u062f\u0627\u0626\u064a\u0629, Madrasat as Sadiq al Ibtidaiyah, \u0645\u062f\u0631\u0633\u0629 \u0627\u0644\u0635\u0627\u062f\u0642 \u0627\u0644\u0627\u0628\u062a\u062f\u0627\u0626\u064a\u0629", "name": "\u0645\u062f\u0631\u0633\u0629 \u0627\u0644\u0635\u0627\u062f\u0642 \u0627\u0644\u0625\u0628\u062a\u062f\u0627\u0626\u064a\u0629", "name:ar": "\u0645\u062f\u0631\u0633\u0629 \u0627\u0644\u0635\u0627\u062f\u0642 \u0627\u0644\u0625\u0628\u062a\u062f\u0627\u0626\u064a\u0629", "name:ar1": "\u0645\u062f\u0631\u0633\u0629 \u0627\u0644\u0635\u0627\u062f\u0642 \u0627\u0644\u0625\u0628\u062a\u062f\u0627\u0626\u064a\u0629", "name:de": "Madrasat as Sadiq al Ibtidaiyah", "name:en": "Madrasat as Sadiq al Ibtidaiyah", "name:fr": "Madrasat as Sadiq al Ibtidaiyah"}}, {"type": "node", "id": 2480221040, "lat": 32.119535, "lon": 44.622785, "tags": {"alt_name": "\u0645\u062f\u0631\u0633\u0629 \u0625\u0628\u0646 \u0633\u064a\u0646\u0627\u0621", "amenity": "school", "int_name": "Madrasat Ibn S\u012bn\u0101, \u0645\u062f\u0631\u0633\u0629 \u0627\u0628\u0646 \u0633\u064a\u0646\u0627\u0621, Madrasat Ibn Sina, \u0645\u062f\u0631\u0633\u0629 \u0627\u0628\u0646 \u0633\u064a\u0646\u0627\u0621", "name": "\u0645\u062f\u0631\u0633\u0629 \u0625\u0628\u0646 \u0633\u064a\u0646\u0627\u0621", "name:ar": "\u0645\u062f\u0631\u0633\u0629 \u0625\u0628\u0646 \u0633\u064a\u0646\u0627\u0621", "name:ar1": "\u0645\u062f\u0631\u0633\u0629 \u0625\u0628\u0646 \u0633\u064a\u0646\u0627\u0621", "name:de": "Madrasat Ibn Sina", "name:en": "Madrasat Ibn Sina", "name:fr": "Madrasat Ibn Sina"}}, {"type": "node", "id": 2480221535, "lat": 32.045988, "lon": 44.65944, "tags": {"alt_name": "\u0645\u062f\u0631\u0633\u0629 \u0627\u0644\u0639\u0642\u064a\u062f\u0629", "amenity": "school", "int_name": "Madrasat al Aq\u012bdah, \u0645\u062f\u0631\u0633\u0629 \u0627\u0644\u0639\u0642\u064a\u062f\u0629, Madrasat al Aqidah, \u0645\u062f\u0631\u0633\u0629 \u0627\u0644\u0639\u0642\u064a\u062f\u0629", "name": "\u0645\u062f\u0631\u0633\u0629 \u0627\u0644\u0639\u0642\u064a\u062f\u0629", "name:ar": "\u0645\u062f\u0631\u0633\u0629 \u0627\u0644\u0639\u0642\u064a\u062f\u0629", "name:ar1": "\u0645\u062f\u0631\u0633\u0629 \u0627\u0644\u0639\u0642\u064a\u062f\u0629", "name:de": "Madrasat al Aqidah", "name:en": "Madrasat al Aqidah", "name:fr": "Madrasat al Aqidah"}}, {"type": "node", "id": 2480228167, "lat": 31.706991, "lon": 44.935336, "tags": {"alt_name": "\u0645\u062f\u0631\u0633\u0629 \u0627\u0644\u0637\u0644\u0627\u0626\u0639", "amenity": "school", "int_name": "Madrasat a\u0163 \u0162al\u0101i, \u0645\u062f\u0631\u0633\u0629 \u0627\u0644\u0637\u0644\u0627\u0626\u0639, Madrasat at Talai, \u0645\u062f\u0631\u0633\u0629 \u0627\u0644\u0637\u0644\u0627\u0626\u0639", "name": "\u0645\u062f\u0631\u0633\u0629 \u0627\u0644\u0637\u0644\u0627\u0626\u0639", "name:ar": "\u0645\u062f\u0631\u0633\u0629 \u0627\u0644\u0637\u0644\u0627\u0626\u0639", "name:ar1": "\u0645\u062f\u0631\u0633\u0629 \u0627\u0644\u0637\u0644\u0627\u0626\u0639", "name:de": "Madrasat at Talai", "name:en": "Madrasat at Talai", "name:fr": "Madrasat at Talai"}}, {"type": "node", "id": 2482326915, "lat": 32.136918, "lon": 44.746294, "tags": {"alt_name": "\u0645\u062f\u0631\u0633\u0629 \u0627\u0644\u062d\u0648\u062f\u0631", "amenity": "school", "int_name": "Madrasat al \u1e28awdar, \u0645\u062f\u0631\u0633\u0629 \u0627\u0644\u062d\u0648\u062f\u0631, Madrasat al Hawdar, \u0645\u062f\u0631\u0633\u0629 \u0627\u0644\u062d\u0648\u062f\u0631", "name": "\u0645\u062f\u0631\u0633\u0629 \u0627\u0644\u062d\u0648\u062f\u0631", "name:ar": "\u0645\u062f\u0631\u0633\u0629 \u0627\u0644\u062d\u0648\u062f\u0631", "name:ar1": "\u0645\u062f\u0631\u0633\u0629 \u0627\u0644\u062d\u0648\u062f\u0631", "name:de": "Madrasat al Hawdar", "name:en": "Madrasat al Hawdar", "name:fr": "Madrasat al Hawdar"}}, {"type": "node", "id": 2482326916, "lat": 32.125798, "lon": 44.746016, "tags": {"alt_name": "\u0645\u062f\u0631\u0633\u0629 \u0627\u0644\u062d\u0648\u0630\u0631", "amenity": "school", "int_name": "Madrasat al \u1e28awdhar, \u0645\u062f\u0631\u0633\u0629 \u0627\u0644\u062d\u0648\u0630\u0631, Madrasat al Hawdhar, \u0645\u062f\u0631\u0633\u0629 \u0627\u0644\u062d\u0648\u0630\u0631", "name": "\u0645\u062f\u0631\u0633\u0629 \u0627\u0644\u062d\u0648\u0630\u0631", "name:ar": "\u0645\u062f\u0631\u0633\u0629 \u0627\u0644\u062d\u0648\u0630\u0631", "name:ar1": "\u0645\u062f\u0631\u0633\u0629 \u0627\u0644\u062d\u0648\u0630\u0631", "name:de": "Madrasat al Hawdhar", "name:en": "Madrasat al Hawdhar", "name:fr": "Madrasat al Hawdhar"}}, {"type": "node", "id": 2485430726, "lat": 32.037035, "lon": 44.56133, "tags": {"alt_name": "\u0645\u062f\u0631\u0633\u0629 \u0627\u0644\u0645\u0627\u0631\u062f \u0627\u0644\u0639\u0631\u0628\u064a", "amenity": "school", "int_name": "Madrasat al M\u0101rid al Arab\u012b, \u0645\u062f\u0631\u0633\u0629 \u0627\u0644\u0645\u0627\u0631\u062f \u0627\u0644\u0639\u0631\u0628\u064a, Madrasat al Marid al Arabi, \u0645\u062f\u0631\u0633\u0629 \u0627\u0644\u0645\u0627\u0631\u062f \u0627\u0644\u0639\u0631\u0628\u064a", "name": "\u0645\u062f\u0631\u0633\u0629 \u0627\u0644\u0645\u0627\u0631\u062f \u0627\u0644\u0639\u0631\u0628\u064a", "name:ar": "\u0645\u062f\u0631\u0633\u0629 \u0627\u0644\u0645\u0627\u0631\u062f \u0627\u0644\u0639\u0631\u0628\u064a", "name:ar1": "\u0645\u062f\u0631\u0633\u0629 \u0627\u0644\u0645\u0627\u0631\u062f \u0627\u0644\u0639\u0631\u0628\u064a", "name:de": "Madrasat al Marid al Arabi", "name:en": "Madrasat al Marid al Arabi", "name:fr": "Madrasat al Marid al Arabi"}}, {"type": "node", "id": 2485433814, "lat": 32.029798, "lon": 44.632774, "tags": {"alt_name": "\u0645\u062f\u0631\u0633\u0629 \u0622\u0644 \u062f\u0647\u0648", "amenity": "school", "int_name": "Madrasat \u0100l Dah\u016b, \u0645\u062f\u0631\u0633\u0629 \u0622\u0644 \u062f\u0647\u0648, Madrasat Al Dahu, \u0645\u062f\u0631\u0633\u0629 \u0622\u0644 \u062f\u0647\u0648", "name": "\u0645\u062f\u0631\u0633\u0629 \u0622\u0644 \u062f\u0647\u0648", "name:ar": "\u0645\u062f\u0631\u0633\u0629 \u0622\u0644 \u062f\u0647\u0648", "name:ar1": "\u0645\u062f\u0631\u0633\u0629 \u0622\u0644 \u062f\u0647\u0648", "name:de": "Madrasat Al Dahu", "name:en": "Madrasat Al Dahu", "name:fr": "Madrasat Al Dahu"}}, {"type": "node", "id": 2485433815, "lat": 32.0536247, "lon": 44.6070812, "tags": {"alt_name": "\u0645\u062f\u0631\u0633\u0629 \u0633\u0639\u062f\u0648\u0646 \u0639\u0627\u0634\u0648\u0631", "amenity": "school", "int_name": "Madrasat Sad\u016bn \u0100sh\u016br, Madrasat Sadun Ashur", "name": "\u0645\u062f\u0631\u0633\u0629 \u0633\u0639\u062f\u0648\u0646 \u0639\u0627\u0634\u0648\u0631", "name:ar": "\u0645\u062f\u0631\u0633\u0629 \u0633\u0639\u062f\u0648\u0646 \u0639\u0627\u0634\u0648\u0631", "name:ar1": "\u0645\u062f\u0631\u0633\u0629 \u0633\u0639\u062f\u0648\u0646 \u0639\u0627\u0634\u0648\u0631", "name:de": "Madrasat Sadun Ashur", "name:en": "Madrasat Sadun Ashur", "name:fr": "Madrasat Sadun Ashur"}}, {"type": "node", "id": 2485433816, "lat": 32.055072, "lon": 44.623868, "tags": {"alt_name": "\u0645\u062f\u0631\u0633\u0629 \u0634\u0631\u062c\u064a\u0644 \u0628\u0646 \u062d\u0645\u0644\u0646\u0629", "amenity": "school", "int_name": "Madrasat Shurjayl Bin \u1e28amlanah, \u0645\u062f\u0631\u0633\u0629 \u0634\u0631\u062c\u064a\u0644 \u0628\u0646 \u062d\u0645\u0644\u0646\u0629, Madrasat Shurjayl Bin Hamlanah, \u0645\u062f\u0631\u0633\u0629 \u0634\u0631\u062c\u064a\u0644 \u0628\u0646 \u062d\u0645\u0644\u0646\u0629", "name": "\u0645\u062f\u0631\u0633\u0629 \u0634\u0631\u062c\u064a\u0644 \u0628\u0646 \u062d\u0645\u0644\u0646\u0629", "name:ar": "\u0645\u062f\u0631\u0633\u0629 \u0634\u0631\u062c\u064a\u0644 \u0628\u0646 \u062d\u0645\u0644\u0646\u0629", "name:ar1": "\u0645\u062f\u0631\u0633\u0629 \u0634\u0631\u062c\u064a\u0644 \u0628\u0646 \u062d\u0645\u0644\u0646\u0629", "name:de": "Madrasat Shurjayl Bin Hamlanah", "name:en": "Madrasat Shurjayl Bin Hamlanah", "name:fr": "Madrasat Shurjayl Bin Hamlanah"}}, {"type": "node", "id": 2485433833, "lat": 32.053798, "lon": 44.6071393, "tags": {"alt_name": "\u0645\u062f\u0631\u0633\u0629 \u0633\u0639\u062f\u0648\u0646 \u063a\u0627\u0634\u0648\u0631", "amenity": "school", "int_name": "\u0645\u062f\u0631\u0633\u0629 \u0633\u0639\u062f\u0648\u0646 \u063a\u0627\u0634\u0648\u0631, \u0645\u062f\u0631\u0633\u0629 \u0633\u0639\u062f\u0648\u0646 \u063a\u0627\u0634\u0648\u0631", "name": "\u0645\u062f\u0631\u0633\u0629 \u0633\u0639\u062f\u0648\u0646 \u063a\u0627\u0634\u0648\u0631", "name:ar": "\u0645\u062f\u0631\u0633\u0629 \u0633\u0639\u062f\u0648\u0646 \u063a\u0627\u0634\u0648\u0631", "name:ar1": "\u0645\u062f\u0631\u0633\u0629 \u0633\u0639\u062f\u0648\u0646 \u063a\u0627\u0634\u0648\u0631", "name:de": "\u0645\u062f\u0631\u0633\u0629 \u0633\u0639\u062f\u0648\u0646 \u063a\u0627\u0634\u0648\u0631", "name:en": "\u0645\u062f\u0631\u0633\u0629 \u0633\u0639\u062f\u0648\u0646 \u063a\u0627\u0634\u0648\u0631", "name:fr": "\u0645\u062f\u0631\u0633\u0629 \u0633\u0639\u062f\u0648\u0646 \u063a\u0627\u0634\u0648\u0631"}}, {"type": "node", "id": 2485442476, "lat": 32.0775249, "lon": 44.6465582, "tags": {"alt_name": "\u0645\u062f\u0631\u0633\u0629 \u0623\u0628\u064a \u0637\u0627\u0644\u0628", "amenity": "school", "int_name": "Madrasat Ab\u012b \u0162\u0101lib, Madrasat Abi Talib", "name": "\u0645\u062f\u0631\u0633\u0629 \u0623\u0628\u064a \u0637\u0627\u0644\u0628", "name:ar": "\u0645\u062f\u0631\u0633\u0629 \u0623\u0628\u064a \u0637\u0627\u0644\u0628", "name:ar1": "\u0645\u062f\u0631\u0633\u0629 \u0623\u0628\u064a \u0637\u0627\u0644\u0628", "name:de": "Madrasat Abi Talib", "name:en": "Madrasat Abi Talib", "name:fr": "Madrasat Abi Talib"}}, {"type": "node", "id": 2485442525, "lat": 32.011771, "lon": 44.585033, "tags": {"alt_name": "\u0645\u062f\u0631\u0633\u0629 \u0627\u0644\u062c\u0627\u062d\u0638", "amenity": "school", "int_name": "Madrasat al J\u0101\u1e29iz\u0327, \u0645\u062f\u0631\u0633\u0629 \u0627\u0644\u062c\u0627\u062d\u0638, Madrasat al Jahiz, \u0645\u062f\u0631\u0633\u0629 \u0627\u0644\u062c\u0627\u062d\u0638", "name": "\u0645\u062f\u0631\u0633\u0629 \u0627\u0644\u062c\u0627\u062d\u0638", "name:ar": "\u0645\u062f\u0631\u0633\u0629 \u0627\u0644\u062c\u0627\u062d\u0638", "name:ar1": "\u0645\u062f\u0631\u0633\u0629 \u0627\u0644\u062c\u0627\u062d\u0638", "name:de": "Madrasat al Jahiz", "name:en": "Madrasat al Jahiz", "name:fr": "Madrasat al Jahiz"}}, {"type": "node", "id": 2485442527, "lat": 32.059822, "lon": 44.641013, "tags": {"alt_name": "\u0645\u062f\u0631\u0633\u0629 \u0627\u0644\u0642\u062f\u0648\u0629 \u0645\u062a\u0648\u0633\u0637\u0629 \u062b\u0644\u0627\u062b\u064a\u0646 \u062a\u0645\u0648\u0632", "amenity": "school", "int_name": "Madrasat al Qadwat Mutawassi\u0163at Thal\u0101th\u012bn Tamm\u016bz, \u0645\u062f\u0631\u0633\u0629 \u0627\u0644\u0642\u062f\u0648\u0629 \u0645\u062a\u0648\u0633\u0637\u0629 \u062b\u0644\u0627\u062b\u064a\u0646 \u062a\u0645\u0648\u0632, Madrasat al Qadwat Mutawassitat Thalathin Tammuz, \u0645\u062f\u0631\u0633\u0629 \u0627\u0644\u0642\u062f\u0648\u0629 \u0645\u062a\u0648\u0633\u0637\u0629 \u062b\u0644\u0627\u062b\u064a\u0646 \u062a\u0645\u0648\u0632", "name": "\u0645\u062f\u0631\u0633\u0629 \u0627\u0644\u0642\u062f\u0648\u0629 \u0645\u062a\u0648\u0633\u0637\u0629 \u062b\u0644\u0627\u062b\u064a\u0646 \u062a\u0645\u0648\u0632", "name:ar": "\u0645\u062f\u0631\u0633\u0629 \u0627\u0644\u0642\u062f\u0648\u0629 \u0645\u062a\u0648\u0633\u0637\u0629 \u062b\u0644\u0627\u062b\u064a\u0646 \u062a\u0645\u0648\u0632", "name:ar1": "\u0645\u062f\u0631\u0633\u0629 \u0627\u0644\u0642\u062f\u0648\u0629 \u0645\u062a\u0648\u0633\u0637\u0629 \u062b\u0644\u0627\u062b\u064a\u0646 \u062a\u0645\u0648\u0632", "name:de": "Madrasat al Qadwat Mutawassitat Thalathin Tammuz", "name:en": "Madrasat al Qadwat Mutawassitat Thalathin Tammuz", "name:fr": "Madrasat al Qadwat Mutawassitat Thalathin Tammuz"}}, {"type": "node", "id": 2485442529, "lat": 32.077721, "lon": 44.646613, "tags": {"alt_name": "\u0645\u062f\u0631\u0633\u0629 \u0627\u0628\u064a \u0637\u0627\u0644\u0628", "amenity": "school", "int_name": "\u0645\u062f\u0631\u0633\u0629 \u0627\u0628\u064a \u0637\u0627\u0644\u0628, \u0645\u062f\u0631\u0633\u0629 \u0627\u0628\u064a \u0637\u0627\u0644\u0628", "name": "\u0645\u062f\u0631\u0633\u0629 \u0627\u0628\u064a \u0637\u0627\u0644\u0628", "name:ar": "\u0645\u062f\u0631\u0633\u0629 \u0627\u0628\u064a \u0637\u0627\u0644\u0628", "name:ar1": "\u0645\u062f\u0631\u0633\u0629 \u0627\u0628\u064a \u0637\u0627\u0644\u0628", "name:de": "\u0645\u062f\u0631\u0633\u0629 \u0627\u0628\u064a \u0637\u0627\u0644\u0628", "name:en": "\u0645\u062f\u0631\u0633\u0629 \u0627\u0628\u064a \u0637\u0627\u0644\u0628", "name:fr": "\u0645\u062f\u0631\u0633\u0629 \u0627\u0628\u064a \u0637\u0627\u0644\u0628"}}, {"type": "node", "id": 4370586995, "lat": 31.9933258, "lon": 44.9204291, "tags": {"amenity": "school", "name": "\u0627\u0639\u062f\u0627\u062f\u064a\u0629 \u0627\u0644\u0645\u0631\u0643\u0632\u064a\u0629", "name:ar": "\u0627\u0639\u062f\u0627\u062f\u064a\u0629 \u0627\u0644\u0645\u0631\u0643\u0632\u064a\u0629"}}, {"type": "node", "id": 4420105998, "lat": 32.0141984, "lon": 44.9094011, "tags": {"amenity": "school", "name": "\u0645\u062a\u0648\u0633\u0637\u0629 \u0627\u0644\u0627\u0642\u0635\u0649 \u0644\u0644\u0628\u0646\u064a\u0646", "name:ar": "\u0645\u062a\u0648\u0633\u0637\u0629 \u0627\u0644\u0627\u0642\u0635\u0649 \u0644\u0644\u0628\u0646\u064a\u0646"}}, {"type": "node", "id": 4420151092, "lat": 32.0121223, "lon": 44.9094022, "tags": {"amenity": "school", "name": "\u0645\u062f\u0631\u0633\u0629 \u0627\u0644\u0646\u0648\u0627\u0631\u0633 \u0627\u0644\u0627\u0647\u0644\u064a\u0629", "name:ar": "\u0645\u062f\u0631\u0633\u0629 \u0627\u0644\u0646\u0648\u0627\u0631\u0633 \u0627\u0644\u0627\u0647\u0644\u064a\u0629"}}, {"type": "node", "id": 4448734005, "lat": 31.9973515, "lon": 44.919511, "tags": {"addr:street": "\u0634\u0627\u0631\u0639 \u0627\u0644\u0645\u062a\u0642\u0627\u0639\u062f\u064a\u0646", "amenity": "school", "name": "\u0645\u062f\u0631\u0633\u0629 \u0627\u0644\u062c\u0646\u0627\u0646 \u0627\u0644\u0627\u0628\u062a\u062f\u0627\u0626\u064a\u0629", "name:ar": "\u0645\u062f\u0631\u0633\u0629 \u0627\u0644\u062c\u0646\u0627\u0646 \u0627\u0644\u0627\u0628\u062a\u062f\u0627\u0626\u064a\u0629", "name:en": "Al jenan Primary school", "opening_hours": "Su-Th 08:00-13:00"}}, {"type": "node", "id": 4466589391, "lat": 31.9644968, "lon": 44.6031708, "tags": {"amenity": "school", "name": "\u062b\u0627\u0646\u0648\u064a\u0629 \u0627\u0644\u0647\u0627\u062f\u064a \u0644\u0644\u0645\u062a\u0645\u064a\u0632\u064a\u0646", "name:ar": "\u062b\u0627\u0646\u0648\u064a\u0629 \u0627\u0644\u0647\u0627\u062f\u064a \u0644\u0644\u0645\u062a\u0645\u064a\u0632\u064a\u0646"}}, {"type": "node", "id": 4504515591, "lat": 31.9855456, "lon": 44.9517664, "tags": {"addr:street": "\u062d\u064a \u0627\u0644\u0646\u0647\u0636\u0629", "amenity": "school", "name": "\u0645\u062f\u0631\u0633\u0629 \u0627\u0644\u0627\u0643\u0631\u0645\u064a\u0646", "name:ar": "\u0645\u062f\u0631\u0633\u0629 \u0627\u0644\u0627\u0643\u0631\u0645\u064a\u0646"}}, {"type": "node", "id": 4571908731, "lat": 32.0951064, "lon": 44.5745733}, {"type": "node", "id": 4571908732, "lat": 32.0946503, "lon": 44.5746082}, {"type": "node", "id": 4571908733, "lat": 32.0946706, "lon": 44.5752603}, {"type": "node", "id": 4640830889, "lat": 31.9666391, "lon": 44.6065393, "tags": {"amenity": "school", "name": "\u0645\u062f\u0631\u0633\u0629 \u0627\u0644\u0634\u0639\u0644\u0629 \u0627\u0644\u0627\u0628\u062a\u062f\u0627\u0626\u064a\u0629 \u0644\u0644\u0628\u0646\u0627\u062a", "name:ar": "\u0645\u062f\u0631\u0633\u0629 \u0627\u0644\u0634\u0639\u0644\u0629 \u0627\u0644\u0627\u0628\u062a\u062f\u0627\u0626\u064a\u0629 \u0644\u0644\u0628\u0646\u0627\u062a"}}, {"type": "node", "id": 4678508696, "lat": 31.9984206, "lon": 44.9014126, "tags": {"amenity": "school", "name": "\u0625\u0639\u062f\u0627\u062f\u064a\u0629 \u062f\u0645\u0634\u0642 \u0627\u0644\u0628\u0646\u0627\u062a", "name:ar": "\u0639\u062f\u0627\u062f\u064a\u0629 \u062f\u0645\u0634\u0642 \u0627\u0644\u0628\u0646\u0627\u062a"}}, {"type": "node", "id": 4678509394, "lat": 31.9963135, "lon": 44.8901507, "tags": {"amenity": "school", "name": "\u0643\u0644\u064a\u0629 \u0627\u0644\u0627\u062f\u0627\u0628", "name:ar": "\u0643\u0644\u064a\u0629 \u0627\u0644\u0627\u062f\u0627\u0628"}}, {"type": "node", "id": 4678535290, "lat": 31.9978385, "lon": 44.9031089, "tags": {"amenity": "school", "name": "\u0645\u062a\u0648\u0633\u0637\u0629 \u0627\u0644\u0641\u0627\u0631\u0633 \u0627\u0644\u0628\u0646\u0627\u062a", "name:ar": "\u0645\u062a\u0648\u0633\u0637\u0629 \u0627\u0644\u0641\u0627\u0631\u0633 \u0627\u0644\u0628\u0646\u0627\u062a"}}, {"type": "node", "id": 4679009890, "lat": 31.9879191, "lon": 44.8969869, "tags": {"amenity": "school", "name": "\u0645\u062f\u0631\u0633\u0629 \u0627\u0644\u062c\u064a\u0644 \u0627\u0644\u062c\u062f\u064a\u062f \u0627\u0644\u0627\u0628\u062a\u062f\u0627\u0626\u064a\u0629", "name:ar": "\u0645\u062f\u0631\u0633\u0629 \u062c\u064a\u0644 \u0627\u0644\u062c\u062f\u064a\u062f \u0627\u0644\u0627\u0628\u062a\u062f\u0627\u0626\u064a\u0629"}}, {"type": "node", "id": 4679023593, "lat": 31.9879946, "lon": 44.9068878, "tags": {"amenity": "school", "name": "\u062f\u0627\u0631 \u0627\u0644\u0633\u0644\u0627\u0645 \u0627\u0644\u0627\u0628\u062a\u062f\u0627\u0626\u064a\u0629", "name:ar": "\u062f\u0627\u0631 \u0627\u0644\u0633\u0644\u0627\u0645 \u0627\u0644\u0627\u0628\u062a\u062f\u0627\u0626\u064a\u0629"}}, {"type": "node", "id": 4679023594, "lat": 31.9841288, "lon": 44.9012733, "tags": {"amenity": "school", "name": "\u0645\u062f\u0631\u0633\u0629 \u0628\u0646\u063a\u0627\u0632\u064a \u0627\u0644\u0646\u0645\u0648\u0630\u062c\u064a\u0629", "name:ar": "\u0645\u062f\u0631\u0633\u0629 \u0628\u0646\u063a\u0627\u0632\u064a \u0627\u0644\u0646\u0645\u0648\u0630\u062c\u064a\u0629"}}, {"type": "node", "id": 4679495191, "lat": 31.9955267, "lon": 44.9099205, "tags": {"amenity": "school", "name": "\u0639\u062f\u0627\u062f\u064a\u0629 \u0627\u0644\u0639\u0631\u0648\u0628\u0647", "name:ar": "\u0639\u062f\u0627\u062f\u064a\u0629 \u0627\u0644\u0639\u0631\u0648\u0628\u0647"}}, {"type": "node", "id": 4679683890, "lat": 31.982591, "lon": 44.9396758, "tags": {"amenity": "school", "name": "\u0645\u062f\u0631\u0633\u0629 \u0627\u0644\u0631\u0648\u0627\u062f Alrawad", "name:ar": "\u0645\u062f\u0631\u0633\u0629 \u0627\u0644\u0631\u0648\u0627\u062f Alrawad"}}, {"type": "node", "id": 4680015797, "lat": 31.9945951, "lon": 44.9119723, "tags": {"amenity": "school", "name": "\u0627\u0628\u062a\u062f\u0627\u0626\u064a\u0629 \u0627\u0644\u0642\u0627\u062f\u0633\u064a\u0629 \u0644\u0644\u0628\u0646\u064a\u0646", "name:ar": "\u0627\u0628\u062a\u062f\u0627\u0626\u064a\u0629 \u0627\u0644\u0642\u0627\u062f\u0633\u064a\u0629 \u0644\u0644\u0628\u0646\u064a\u0646"}}, {"type": "node", "id": 4680038391, "lat": 32.0015303, "lon": 44.9222669, "tags": {"amenity": "school", "name": "\u062b\u0627\u0646\u0648\u064a\u0629 \u0627\u0644\u0645\u062a\u0645\u064a\u0632\u0627\u062a \u0641\u064a \u0627\u0644\u062f\u064a\u0648\u0627\u0646\u064a\u0629", "name:ar": "\u062b\u0627\u0646\u0648\u064a\u0629 \u0627\u0644\u0645\u062a\u0645\u064a\u0632\u0627\u062a \u0641\u064a \u0627\u0644\u062f\u064a\u0648\u0627\u0646\u064a\u0629"}}, {"type": "node", "id": 4680057094, "lat": 32.0023101, "lon": 44.9187795, "tags": {"amenity": "school", "name": "\u0645\u062f\u0631\u0633\u0629 \u0627\u0644\u0639\u0641\u0629 \u0627\u0644\u0627\u0628\u062a\u062f\u0627\u0626\u064a\u0629", "name:ar": "\u0645\u062f\u0631\u0633\u0629 \u0627\u0644\u0639\u0641\u0629 \u0627\u0644\u0627\u0628\u062a\u062f\u0627\u0626\u064a\u0629"}}, {"type": "node", "id": 4680057194, "lat": 31.9966259, "lon": 44.9097071, "tags": {"amenity": "school", "name": "\u0645\u062f\u0631\u0633\u0629 \u062f\u062c\u0644\u0629 \u0644\u0644\u0628\u0646\u064a\u0646", "name:ar": "\u0645\u062f\u0631\u0633\u0629 \u062f\u062c\u0644\u0629 \u0644\u0644\u0628\u0646\u064a\u0646"}}, {"type": "node", "id": 4680083089, "lat": 31.9992002, "lon": 44.9158314, "tags": {"amenity": "school", "name": "\u0645\u062f\u0631\u0633\u0629 \u0630\u0627\u062a \u0627\u0644\u0635\u0648\u0627\u0631\u064a \u0627\u0644\u0627\u0628\u062a\u062f\u0627\u0626\u064a\u0629 \u0644\u0644\u0628\u0646\u0627\u062a", "name:ar": "\u0645\u062f\u0631\u0633\u0629 \u0630\u0627\u062a \u0627\u0644\u0635\u0648\u0627\u0631\u064a \u0627\u0644\u0627\u0628\u062a\u062f\u0627\u0626\u064a\u0629 \u0644\u0644\u0628\u0646\u0627\u062a"}}, {"type": "node", "id": 4680084391, "lat": 31.9944004, "lon": 44.9081503, "tags": {"amenity": "school", "name": "\u0625\u0639\u062f\u0627\u062f\u064a\u0629 \u062a\u062c\u0627\u0631\u0629  \u0627\u0644\u062f\u064a\u0648\u0627\u0646\u064a\u0629 \u0627\u0644\u0645\u0647\u0646\u064a\u0629 \u0644\u0644\u0628\u0646\u0627\u062a", "name:ar": "\u0625\u0639\u062f\u0627\u062f\u064a\u0629 \u062a\u062c\u0627\u0631\u0629  \u0627\u0644\u062f\u064a\u0648\u0627\u0646\u064a\u0629 \u0627\u0644\u0645\u0647\u0646\u064a\u0629 \u0644\u0644\u0628\u0646\u0627\u062a"}}, {"type": "node", "id": 4680104289, "lat": 31.9959047, "lon": 44.9092779, "tags": {"amenity": "school", "name": "\u0645\u062a\u0648\u0633\u0637\u0629 \u0627\u0644\u0642\u0648\u0627\u0631\u064a\u0631 \u0644\u0644\u0628\u0646\u0627\u062a", "name:ar": "\u0645\u062a\u0648\u0633\u0637\u0629 \u0627\u0644\u0642\u0648\u0627\u0631\u064a\u0631 \u0644\u0644\u0628\u0646\u0627\u062a"}}, {"type": "node", "id": 4680109490, "lat": 32.0039606, "lon": 44.8972905, "tags": {"amenity": "school", "name": "\u0645\u062f\u0631\u0633\u0629 \u0627\u0644\u0630\u0631\u0649 \u0627\u0644\u0627\u0628\u062a\u062f\u0627\u0626\u064a\u0629", "name:ar": "\u0645\u062f\u0631\u0633\u0629 \u0627\u0644\u0630\u0631\u0649 \u0627\u0644\u0627\u0628\u062a\u062f\u0627\u0626\u064a\u0629"}}, {"type": "node", "id": 4681307489, "lat": 31.9876894, "lon": 44.9059901, "tags": {"amenity": "school", "name": "\u0645\u0639\u0647\u062f \u0627\u0628\u0646 \u0631\u0634\u062f \u0627\u0644\u0645\u0631\u0643\u0632\u064a", "name:ar": "\u0645\u0639\u0647\u062f \u0627\u0628\u0646 \u0631\u0634\u062f \u0627\u0644\u0645\u0631\u0643\u0632\u064a"}}, {"type": "node", "id": 4682089494, "lat": 31.9873699, "lon": 44.9266623, "tags": {"amenity": "school", "name": "\u0645\u062f\u0631\u0633\u0629 \u0627\u0644\u0637\u0644\u064a\u0639\u0629 \u0644\u0644\u0628\u0646\u0627\u062a", "name:ar": "\u0645\u062f\u0631\u0633\u0629 \u0627\u0644\u0637\u0644\u064a\u0639\u0629 \u0644\u0644\u0628\u0646\u0627\u062a"}}, {"type": "node", "id": 4682151190, "lat": 31.9887679, "lon": 44.9276667, "tags": {"amenity": "school", "name": "\u0645\u062f\u0631\u0633\u0629 \u0627\u0644\u062d\u0633\u064a\u0646", "name:ar": "\u0645\u062f\u0631\u0633\u0629 \u0627\u0644\u062d\u0633\u064a\u0646"}}, {"type": "node", "id": 4682199190, "lat": 31.9905544, "lon": 44.9244518, "tags": {"amenity": "school", "name": "\u0645\u062f\u0631\u0633\u0629 \u0627\u0644\u0645\u062a\u0646\u0628\u064a", "name:ar": "\u0645\u062f\u0631\u0633\u0629 \u0627\u0644\u0645\u062a\u0646\u0628\u064a"}}, {"type": "node", "id": 4682199390, "lat": 31.9702401, "lon": 44.9593512, "tags": {"amenity": "school", "name": "\u0645\u062f\u0631\u0633\u0629 \u0627\u0644\u0632\u064a\u062a\u0648\u0646", "name:ar": "\u0645\u062f\u0631\u0633\u0629 \u0627\u0644\u0632\u064a\u062a\u0648\u0646"}}, {"type": "node", "id": 4683194215, "lat": 32.0122491, "lon": 44.9229577, "tags": {"amenity": "school", "name": "\u0645\u062f\u0631\u0633\u0629 \u0627\u0644\u062c\u0645\u0647\u0648\u0631\u064a\u0629 \u0644\u0644\u0628\u0646\u064a\u0646", "name:ar": "\u0645\u062f\u0631\u0633\u0629 \u0627\u0644\u062c\u0645\u0647\u0648\u0631\u064a\u0629 \u0644\u0644\u0628\u0646\u064a\u0646"}}, {"type": "node", "id": 4683196298, "lat": 31.9990366, "lon": 44.9076505, "tags": {"amenity": "school", "name": "\u0645\u062f\u0631\u0633\u0629 \u0637\u064a\u0628\u0629 \u0627\u0644\u0627\u0647\u0644\u064a\u0629", "name:ar": "\u0645\u062f\u0631\u0633\u0629 \u0637\u064a\u0628\u0629 \u0627\u0644\u0627\u0647\u0644\u064a\u0629"}}, {"type": "node", "id": 4683202701, "lat": 32.0120629, "lon": 44.9286127, "tags": {"amenity": "school", "name": "\u0645\u062f\u0631\u0633\u0629 \u0631\u0642\u064a\u0629 \u0644\u0644\u0628\u0646\u0627\u062a", "name:ar": "\u0645\u062f\u0631\u0633\u0629 \u0631\u0642\u064a\u0629 \u0644\u0644\u0628\u0646\u0627\u062a"}}, {"type": "node", "id": 4683245996, "lat": 32.0092781, "lon": 44.925157, "tags": {"amenity": "school", "name": "\u0645\u062f\u0631\u0633\u0629 \u0627\u0644\u062a\u0639\u0627\u0648\u0646 \u0627\u0644\u0639\u0631\u0628\u064a\u0629", "name:ar": "\u0645\u062f\u0631\u0633\u0629 \u0627\u0644\u062a\u0639\u0627\u0648\u0646 \u0627\u0644\u0639\u0631\u0628\u064a\u0629"}}, {"type": "node", "id": 4731950021, "lat": 31.9725355, "lon": 44.9538446, "tags": {"addr:street": "\u0634\u0627\u0631\u0639 \u0627\u0644\u0632\u064a\u062a\u0648\u0646", "amenity": "school", "name": "\u0627\u0644\u0645\u0639\u0647\u062f \u0627\u0644\u062a\u0642\u0646\u064a \u0641\u064a \u0627\u0644\u062f\u064a\u0648\u0627\u0646\u064a\u0629", "name:ar": "\u0627\u0644\u0645\u0639\u0647\u062f \u0627\u0644\u062a\u0642\u0646\u064a \u0641\u064a \u0627\u0644\u062f\u064a\u0648\u0627\u0646\u064a\u0629", "opening_hours": "Su-Th 07:00-19:00"}}, {"type": "node", "id": 4755271822, "lat": 31.9607218, "lon": 44.5930434, "tags": {"amenity": "school", "name": "\u0645\u062f\u0631\u0633\u0629 \u0627\u0644\u0641\u0631\u0627\u062a \u0644\u0644\u0628\u0646\u064a\u0646", "name:ar": "\u0645\u062a\u0648\u0633\u0637\u0629 \u0627\u0644\u0641\u0631\u0627\u062a \u0644\u0644\u0628\u0646\u064a\u0646"}}, {"type": "node", "id": 4759497141, "lat": 31.9799915, "lon": 44.904983, "tags": {"amenity": "school", "name": "\u0645\u062f\u0631\u0633\u0629 \u0648\u0647\u0631\u0627\u0646 \u0627\u0644\u0625\u0628\u062a\u062f\u0627\u0626\u064a\u0629", "name:ar": "\u0645\u062f\u0631\u0633\u0629 \u0648\u0647\u0631\u0627\u0646 \u0627\u0644\u0625\u0628\u062a\u062f\u0627\u0626\u064a\u0629"}}, {"type": "node", "id": 4759497566, "lat": 31.9802246, "lon": 44.904612, "tags": {"amenity": "school", "name": "\u0645\u062f\u0631\u0633\u0629 \u0627\u0644\u0641\u064a\u062d\u0627\u0621 \u0627\u0644\u0627\u0628\u062a\u062f\u0627\u0626\u064a\u0629 \u0644\u0644\u0628\u0646\u0627\u062a", "name:ar": "\u0645\u062f\u0631\u0633\u0629 \u0627\u0644\u0641\u064a\u062d\u0627\u0621 \u0627\u0644\u0627\u0628\u062a\u062f\u0627\u0626\u064a\u0629 \u0644\u0644\u0628\u0646\u0627\u062a"}}, {"type": "node", "id": 4777659848, "lat": 31.9196493, "lon": 44.7859211, "tags": {"addr:street": "\u0627\u0644\u0646\u0648\u0631\u064a\u0629", "amenity": "school", "name": "\u0645\u062f\u0631\u0633\u0629 \u0627\u0644\u0645\u0631\u0628\u062f", "name:ar": "\u0645\u062f\u0631\u0633\u0629 \u0627\u0644\u0645\u0631\u0628\u062f", "opening_hours": "Su-Th 07:00-13:00"}}, {"type": "node", "id": 4777659849, "lat": 31.9658718, "lon": 44.8854655, "tags": {"addr:street": "\u0634\u0627\u0631\u0639 \u0627\u0644\u0643\u0631\u0627\u062c \u0627\u0644\u0645\u0648\u062d\u062f", "amenity": "school", "name": "\u0645\u062f\u0631\u0633\u0629 \u0627\u0645 \u0633\u0644\u0645\u0629", "name:ar": "\u0645\u062f\u0631\u0633\u0629 \u0627\u0645 \u0633\u0644\u0645\u0629", "opening_hours": "Su-Th 07:00-18:00"}}, {"type": "node", "id": 4834127621, "lat": 32.0006091, "lon": 44.9187818, "tags": {"amenity": "school", "name": "\u0645\u062a\u0648\u0633\u0637\u0629 \u062d\u0628\u064a\u0628 \u0628\u0646 \u0645\u0638\u0627\u0647\u0631 \u0644\u0628\u0646\u064a\u0646", "name:ar": "\u0645\u062a\u0648\u0633\u0637\u0629 \u062d\u0628\u064a\u0628 \u0628\u0646 \u0645\u0638\u0627\u0647\u0631 \u0644\u0628\u0646\u064a\u0646", "name:en": "Habeeb bin Mudhir intermediate school"}}, {"type": "node", "id": 5123168325, "lat": 31.9864105, "lon": 44.8995054, "tags": {"amenity": "school", "name": "\u0645\u062f\u0631\u0633\u0629 \u0627\u0644\u0631\u0633\u0648\u0644 \u0627\u0644\u0627\u0628\u062a\u062f\u0627\u0626\u064a\u0629"}}, {"type": "node", "id": 5123173421, "lat": 31.9919297, "lon": 44.9029895, "tags": {"amenity": "school", "name": "\u0627\u0639\u062f\u0627\u062f\u064a\u0629 \u0642\u062a\u064a\u0628\u0629 \u0644\u0644\u0628\u0646\u064a\u0646", "name:en": "Qutaiba School for boys"}}, {"type": "node", "id": 5200463521, "lat": 31.9923361, "lon": 44.9106382, "tags": {"addr:housenumber": "724", "addr:street": "\u0639\u0631\u0648\u0628\u0629 \u0627\u0644\u0627\u0648\u0644\u0649", "amenity": "school", "name": "\u0645\u0631\u0643\u0632 \u0627\u0644\u0645\u0635\u0637\u0641\u0649 \u0627\u0644\u062f\u0648\u0644\u064a \u0644\u0644\u063a\u0627\u062a \u0648\u0627\u0644\u062d\u0627\u0633\u0628\u0627\u062a", "name:ar": "\u0645\u0631\u0643\u0632 \u0627\u0644\u0645\u0635\u0637\u0641\u0649 \u0627\u0644\u062f\u0648\u0644\u064a \u0644\u0644\u063a\u0627\u062a \u0648\u0627\u0644\u062d\u0627\u0633\u0628\u0627\u062a", "name:en": "Al-Mustafa International Institute", "opening_hours": "Sa-Th 09:00-20:00", "operator": "hamed.alipour20@gmail.com", "phone": "07813169666"}}, {"type": "node", "id": 5215720822, "lat": 31.957009, "lon": 44.5907813, "tags": {"amenity": "school", "name": "\u0645\u062f\u0631\u0633\u0629 \u062d\u064a \u0627\u0644\u062d\u0633\u064a\u0646 6 \u0635\u0641"}}, {"type": "node", "id": 5218484122, "lat": 31.9569528, "lon": 44.5892178, "tags": {"amenity": "school"}}, {"type": "node", "id": 5247831421, "lat": 31.9937164, "lon": 44.9158497, "tags": {"addr:street": "\u0627\u0644\u0639\u0631\u0648\u0628\u0647", "amenity": "school", "name": "\u062b\u0627\u0646\u0648\u064a\u0647 \u0627\u0644\u0645\u0639\u0627\u0631\u0641 \u0627\u0644\u0627\u0647\u0644\u064a\u0647", "name:en": "al-maref High school", "opening_hours": "Mo-Su 06:00-18:00"}}, {"type": "node", "id": 5300432026, "lat": 32.001146, "lon": 44.9141518, "tags": {"addr:street": "\u0634\u0627\u0631\u0639 \u0627\u0644\u06af\u0648\u0627\u0645", "amenity": "school", "name": "\u0627\u0639\u062f\u0627\u062f\u064a\u0629 \u0627\u0644\u062a\u0641\u0648\u0642 \u0644\u0644\u0628\u0646\u064a\u0646", "name:en": "Preparatory for excellence for boys", "opening_hours": "Su-Th 07:00-12:00"}}, {"type": "node", "id": 5372901124, "lat": 32.0208556, "lon": 44.9017748, "tags": {"addr:street": "\u062d\u064a \u0627\u0644\u0641\u0631\u0627\u062a \u0634\u0627\u0631\u0639 \u0627\u0644\u0645\u0634\u062a\u0644 / \u0634\u0627\u0631\u0639 \u062b\u0627\u0646\u0648\u064a\u0629 \u0627\u0644\u0633\u0646\u0628\u0644\u0629", "amenity": "school", "name": "\u062b\u0627\u0646\u0648\u064a\u0629 \u0627\u0644\u0633\u0646\u0628\u0644\u0629"}}, {"type": "node", "id": 5382634766, "lat": 31.725735, "lon": 44.9730555}, {"type": "node", "id": 5382634767, "lat": 31.7260381, "lon": 44.9737411}, {"type": "node", "id": 5382634768, "lat": 31.7257388, "lon": 44.974499}, {"type": "node", "id": 5382634769, "lat": 31.7252132, "lon": 44.9733351}, {"type": "node", "id": 5382639138, "lat": 31.7247968, "lon": 44.9844302}, {"type": "node", "id": 5382639139, "lat": 31.7255527, "lon": 44.9850031}, {"type": "node", "id": 5382639140, "lat": 31.7250923, "lon": 44.9858827}, {"type": "node", "id": 5382639141, "lat": 31.7243095, "lon": 44.9852872}, {"type": "node", "id": 5382639430, "lat": 31.7247892, "lon": 44.9864646}, {"type": "node", "id": 5382639431, "lat": 31.7243287, "lon": 44.9861579}, {"type": "node", "id": 5382639432, "lat": 31.723945, "lon": 44.9868435}, {"type": "node", "id": 5382639433, "lat": 31.7244208, "lon": 44.9871773}, {"type": "node", "id": 5382642942, "lat": 31.7208008, "lon": 44.9862758}, {"type": "node", "id": 5382642943, "lat": 31.7205179, "lon": 44.9868766}, {"type": "node", "id": 5382642944, "lat": 31.7198197, "lon": 44.9863992}, {"type": "node", "id": 5382642945, "lat": 31.7200844, "lon": 44.9857984}, {"type": "node", "id": 5435851026, "lat": 31.9956733, "lon": 44.9216049, "tags": {"amenity": "school", "name": "\u0645\u0639\u0647\u062f \u0627\u0644\u062a\u0641\u0648\u0642 \u0627\u0644\u0645\u0631\u0643\u0632\u064a \u0628\u0623\u062f\u0627\u0631\u0629 \u0627\u0644\u0627\u0633\u062a\u0627\u0630 \u0639\u0644\u064a \u0627\u0633\u0639\u064a\u062f"}}, {"type": "node", "id": 5437720223, "lat": 31.9555916, "lon": 44.9744148, "tags": {"addr:street": "\u0642\u0631\u064a\u0629 \u062e\u064a\u0631\u064a", "amenity": "school", "name": "\u0645\u062f\u0631\u0633\u0629 \u0627\u0628\u0646 \u0627\u0644\u0633\u0643\u064a\u062a \u0627\u0644\u0627\u0628\u062a\u062f\u0627\u0626\u064a\u0647", "name:en": "eben alskeet school"}}, {"type": "node", "id": 5440640423, "lat": 31.963784, "lon": 44.685951, "tags": {"amenity": "school", "name": "\u0645\u062f\u0631\u0633\u0629 \u0645\u0647\u062f \u0627\u0644\u062d\u0636\u0627\u0631\u0627\u062a"}}, {"type": "node", "id": 5440640522, "lat": 31.96379, "lon": 44.6855186, "tags": {"amenity": "school", "name": "\u0645\u062f\u0631\u0633\u0629 \u062d\u0633\u0627\u0646 \u0628\u0646 \u062b\u0627\u0628\u062a"}}, {"type": "node", "id": 5456910929, "lat": 31.997232, "lon": 44.9341725, "tags": {"addr:street": "\u0634\u0627\u0631\u0639 \u0633\u0627\u0644\u0645", "amenity": "school", "name": "\u062b\u0627\u0646\u0648\u064a\u0629 \u0627\u0644\u0631\u0633\u0627\u0644\u0629 \u0627\u0644\u0627\u0647\u0644\u064a\u0629 Hassan Hayawi\u0634\u0627\u0631\u0639 \u0633\u0627\u0644\u0645"}}, {"type": "node", "id": 5529968320, "lat": 31.9942122, "lon": 44.9492294}, {"type": "node", "id": 5529968420, "lat": 31.9951176, "lon": 44.9483603}, {"type": "node", "id": 5529968421, "lat": 31.9945261, "lon": 44.9502164}, {"type": "node", "id": 5529968422, "lat": 31.9938938, "lon": 44.9510425}, {"type": "node", "id": 5529968423, "lat": 31.993316, "lon": 44.9497068}, {"type": "node", "id": 5529969521, "lat": 31.9953496, "lon": 44.9490094}, {"type": "node", "id": 5529969522, "lat": 31.9949083, "lon": 44.9496585}, {"type": "node", "id": 5529969523, "lat": 31.9945625, "lon": 44.9486768}, {"type": "node", "id": 5529971752, "lat": 31.9948082, "lon": 44.9475181}, {"type": "node", "id": 5529971753, "lat": 31.995063, "lon": 44.9482423}, {"type": "node", "id": 5529971754, "lat": 31.9945261, "lon": 44.9485481}, {"type": "node", "id": 5529971755, "lat": 31.9942623, "lon": 44.9478132}, {"type": "node", "id": 5529979201, "lat": 31.99575, "lon": 44.9437878}, {"type": "node", "id": 5529979202, "lat": 31.9962778, "lon": 44.9446998}, {"type": "node", "id": 5529979203, "lat": 31.9954862, "lon": 44.9453489}, {"type": "node", "id": 5529979204, "lat": 31.9952905, "lon": 44.9450324}, {"type": "node", "id": 5529979205, "lat": 31.9951268, "lon": 44.943922}, {"type": "node", "id": 5529979418, "lat": 31.996114, "lon": 44.9431495}, {"type": "node", "id": 5529979419, "lat": 31.9967873, "lon": 44.9442599}, {"type": "node", "id": 5529979420, "lat": 31.9963187, "lon": 44.9446569}, {"type": "node", "id": 5529979421, "lat": 31.9954816, "lon": 44.9432299}, {"type": "node", "id": 5529984236, "lat": 31.9931666, "lon": 44.9417987}, {"type": "node", "id": 5529984237, "lat": 31.9932316, "lon": 44.942331}, {"type": "node", "id": 5529984238, "lat": 31.9926922, "lon": 44.9423941}, {"type": "node", "id": 5529984239, "lat": 31.9926233, "lon": 44.9418889}, {"type": "node", "id": 5544612957, "lat": 31.9919671, "lon": 44.875801}, {"type": "node", "id": 5544612958, "lat": 31.9917706, "lon": 44.8763824}, {"type": "node", "id": 5544612959, "lat": 31.9909327, "lon": 44.8760165}, {"type": "node", "id": 5544612960, "lat": 31.9911362, "lon": 44.875427}, {"type": "node", "id": 5544612961, "lat": 31.9957347, "lon": 44.872181}, {"type": "node", "id": 5544612962, "lat": 31.9961403, "lon": 44.8723855}, {"type": "node", "id": 5544612963, "lat": 31.9962829, "lon": 44.8719867}, {"type": "node", "id": 5544612964, "lat": 31.9958675, "lon": 44.8717763}, {"type": "node", "id": 5563595021, "lat": 32.0190262, "lon": 44.9061831, "tags": {"addr:street": "\u0634\u0627\u0631\u0639 \u0627\u0644\u0645\u0633\u062a\u0648\u0635\u0641", "amenity": "school", "name": "\u062b\u0627\u0646\u0648\u064a\u0629 \u0627\u0644\u0645\u062a\u0645\u064a\u0632\u0627\u062a", "name:ar": "\u062b\u0627\u0646\u0648\u064a\u0629 \u0627\u0644\u0645\u062a\u0645\u064a\u0632\u0627\u062a  \u0644\u0644\u0628\u0646\u0627\u062a", "opening_hours": "Su-Th 08:00-13:00", "phone": "0781 014 8613"}}, {"type": "node", "id": 5564071722, "lat": 32.0174233, "lon": 44.9056738, "tags": {"amenity": "school", "name": "\u0645\u062a\u0648\u0633\u0637\u0629 \u0627\u0644\u0645\u0639\u0631\u0641\u0629 \u0644\u0644\u0628\u0646\u064a\u0646"}}, {"type": "node", "id": 5579260022, "lat": 31.7241806, "lon": 44.9719131, "tags": {"amenity": "school", "name": "\u0645\u062a\u0648\u0633\u0637\u0629 \u0645\u0631\u064a\u0645 \u0627\u0644\u0639\u0630\u0631\u0627\u0621 \u0644\u0644\u0628\u0646\u0627\u062a"}}, {"type": "node", "id": 5579260121, "lat": 31.7261523, "lon": 44.9730761, "tags": {"amenity": "school", "name": "\u0645\u062f\u0631\u0633\u0629 \u0627\u0644\u0631\u0627\u0632\u064a \u0627\u0644\u0627\u0628\u062a\u062f\u0627\u0626\u064a\u0629 \u0644\u0644\u0628\u0646\u064a\u0646"}}, {"type": "node", "id": 5582144822, "lat": 31.7258279, "lon": 44.9716303, "tags": {"amenity": "school", "name": "\u0645\u062f\u064a\u0631\u064a\u0629 \u062a\u0631\u0628\u064a\u0629 \u0627\u0644\u062d\u0645\u0632\u0629"}}, {"type": "node", "id": 5592675145, "lat": 31.9654597, "lon": 44.6867914, "tags": {"addr:city": "\u0627\u0644\u0642\u0627\u062f\u0633\u064a\u0629", "addr:country": "IQ", "amenity": "school", "name": "\u0645\u062f\u0631\u0633\u0629 \u062d\u0633\u0627\u0646 \u0628\u0646 \u062b\u0627\u0628\u062a \u0627\u0644\u0625\u0628\u062a\u062f\u0627\u0626\u064a\u0629"}}, {"type": "node", "id": 5695904221, "lat": 32.005277, "lon": 44.9393322, "tags": {"amenity": "school", "name": "\u0645\u062f\u0631\u0633\u0629 \u0627\u0644\u062e\u0648\u0627\u0631\u0632\u0645\u064a"}}, {"type": "node", "id": 5940425385, "lat": 32.0629434, "lon": 44.7980579, "tags": {"amenity": "school", "name": "\u0645\u062f\u0631\u0633\u0629 \u0645\u0631\u062c \u0627\u0644\u0628\u062d\u0631\u064a\u0646"}}, {"type": "node", "id": 6111759285, "lat": 31.9904537, "lon": 44.9026246, "tags": {"amenity": "school", "name": "\u062b\u0627\u0646\u0648\u064a\u0629 \u0627\u0644\u0627\u0645\u0631\u0627\u0621 \u0648 \u0627\u0644\u0627\u0645\u064a\u0631\u0627\u062a", "name:ar": "\u062b\u0627\u0646\u0648\u064a\u0629 \u0627\u0644\u0627\u0645\u0631\u0627\u0621 \u0648\u0627\u0644\u0644\u0645\u064a\u0631\u0627\u062a"}}, {"type": "node", "id": 6142815185, "lat": 31.7625762, "lon": 44.9286293, "tags": {"addr:housenumber": "568", "addr:street": "\u0627\u0644\u0637\u0631\u064a\u0642 \u0627\u0644\u0639\u0627\u0645 \u0627\u0644\u062f\u064a\u0648\u0627\u0646\u064a\u0629 \u0627\u0644\u062d\u0645\u0632\u0629", "amenity": "school", "email": "hamza_sahi@yahoo.com", "name": "\u0645\u062f\u0631\u0633\u0629 \u0627\u0644\u0642\u0633\u064a\u0645", "name:en": "Alqassin\u0637\u0631\u064a\u0642 \u062f\u064a\u0648\u0627\u0646\u064a\u0629 \u0627\u0644\u062d\u0645\u0632\u0629", "name:ku": "\u0627\u0644\u0642\u0633\u064a\u0645", "phone": "07016040292"}}, {"type": "node", "id": 6142815186, "lat": 31.8621252, "lon": 44.9439097, "tags": {"amenity": "school", "name": "\u0645\u062f\u0631\u0633\u0629 \u0627\u0644\u0645\u0634\u0627\u0639\u0644"}}, {"type": "node", "id": 6142827885, "lat": 31.8621276, "lon": 44.9439355, "tags": {"addr:housenumber": "78", "addr:postcode": "1989", "addr:street": "\u0627\u0644\u0633\u062f\u064a\u0631 \u0627\u0644\u062d\u0645\u0632\u0629 \u0627\u0644\u0633\u064a\u0627\u062d\u064a", "amenity": "school", "email": "hamza_sahi@yahoo.com", "name": "\u0645\u062f\u0631\u0633\u0629 \u0633\u0645\u0627 \u0627\u0644\u0639\u0644\u0645 \u0644\u0644\u0628\u0646\u0627\u062a", "opening_hours": "Su-Fr 08:00-16:36", "phone": "009647816040292", "website": "http://www.hamzasahi.com"}}, {"type": "node", "id": 6290463186, "lat": 31.9949534, "lon": 44.9203738, "tags": {"amenity": "school", "name": "\u0645\u062a\u0648\u0633\u0637\u0629 \u062d\u0628\u064a\u0628 \u0628\u0646 \u0645\u0638\u0627\u0647\u0631", "name:en": "Habeeb bin Mudahir school"}}, {"type": "node", "id": 6325610487, "lat": 31.7350439, "lon": 44.600165, "tags": {"amenity": "school", "name": "\u062b\u0627\u0646\u0648\u064a\u0629 \u063a\u0645\u0627\u0633 \u0627\u0644\u0645\u0633\u0627\u0626\u064a\u0629 \u0644\u0644\u0628\u0646\u064a\u0646"}}, {"type": "node", "id": 6325632386, "lat": 31.7367349, "lon": 44.6042306, "tags": {"amenity": "school", "name": "\u0645\u062f\u0631\u0633\u0629 \u063a\u0645\u0627\u0633 \u0627\u0644\u0625\u0628\u062a\u062f\u0627\u0626\u064a\u0629"}}, {"type": "node", "id": 6336183088, "lat": 31.7169496, "lon": 44.9673879, "tags": {"amenity": "school", "name": "\u0645\u062f\u0631\u0633\u0629 \u0627\u0644\u0648\u0631\u0643\u0627\u0621 \u0627\u0644\u0627\u0628\u062a\u062f\u0627\u0626\u064a\u0647", "name:ar": "\u0645\u062f\u0631\u0633\u0629 \u0627\u0644\u0648\u0631\u0643\u0627\u0621"}}, {"type": "node", "id": 6336193785, "lat": 31.7184191, "lon": 44.9670306, "tags": {"amenity": "school", "name": "\u062b\u0627\u0646\u0648\u064a\u0629 \u0627\u0644\u0631\u0633\u0648\u0644 \u0644\u0644\u0628\u0646\u064a\u0646", "name:ar": "\u062b\u0627\u0646\u0648\u064a\u0629 \u0627\u0644\u0631\u0633\u0648\u0644"}}, {"type": "node", "id": 6336193786, "lat": 31.716647, "lon": 44.9677829, "tags": {"amenity": "school", "name": "\u0645\u062f\u0631\u0633\u0629 \u0627\u0644\u0648\u0631\u0643\u0627\u0621"}}, {"type": "node", "id": 6376109485, "lat": 31.7334368, "lon": 44.6023131, "tags": {"amenity": "school", "name": "\u063a\u0645\u0627\u0633 \u0627\u0644\u062a\u0639\u0644\u064a\u0645 \u0627\u0644\u0645\u0633\u0631\u0639"}}, {"type": "node", "id": 6402703686, "lat": 31.7345365, "lon": 44.6023995, "tags": {"amenity": "school", "name": "\u0645\u062f\u0631\u0633\u0629 \u0632\u0646\u0648\u0628\u064a\u0627 \u0627\u0644\u0627\u0628\u062a\u062f\u0627\u0626\u064a\u0629 \u0644\u0644\u0628\u0646\u0627\u062a/\u062b\u0627\u0646\u0648\u064a\u0629 \u0646\u0647\u062c \u0627\u0644\u0628\u0644\u0627\u063a\u0629 \u0644\u0644\u0628\u0646\u0627\u062a", "toilets:wheelchair": "yes", "wheelchair": "no"}}, {"type": "node", "id": 6402704185, "lat": 31.7346894, "lon": 44.5999198, "tags": {"amenity": "school", "name": "\u0645\u062f\u0627\u0631\u0633 \u0627\u0628\u0646 \u0639\u0642\u064a\u0644 \u0627\u0644\u0627\u0647\u0644\u064a\u0629"}}, {"type": "node", "id": 6414264297, "lat": 31.7413673, "lon": 44.8820859, "tags": {"addr:housenumber": "354", "addr:postcode": "1575", "addr:street": "\u0634\u0627\u0631\u0639 \u0632\u0631\u0627\u0639\u064a", "amenity": "school", "email": "hamza_sahi@yahoo.com", "name": "\u0645\u062f\u0631\u0633\u0629 \u062a\u062f\u0645\u0631 \u0627\u0644\u0627\u0628\u062a\u062f\u0627\u0626\u064a\u0629", "opening_hours": "Mo-Su 01:30-20:00", "phone": "07816040292"}}, {"type": "node", "id": 6414307986, "lat": 31.7333404, "lon": 44.9831922, "tags": {"amenity": "school", "name": "\u0645\u062f\u0631\u0633\u0629 \u0627\u0644\u0645\u0639\u0631\u0627\u062c"}}, {"type": "node", "id": 6414309889, "lat": 31.7856774, "lon": 44.8549705, "tags": {"addr:street": "\u0627\u0644\u062d\u0645\u0632\u0629 \u0627\u0644\u062f\u064a\u0648\u0627\u0646\u064a\u0629", "amenity": "school", "email": "hamza_sahi@yahoo.com", "phone": "07816040292"}}, {"type": "node", "id": 6414309890, "lat": 31.7649616, "lon": 45.0442566, "tags": {"addr:street": "\u0627\u0644\u062d\u0645\u0632\u0629 \u0627\u0644\u0633\u062f\u064a\u0631 \u0627\u0644\u0633\u064a\u0627\u062d\u064a", "amenity": "school", "email": "hamza_sahi@yahoo.com", "opening_hours": "Mo-Su 08:00-13:00", "operator": "\u0627\u0644\u0633\u062f\u064a\u0631", "phone": "07816040292"}}, {"type": "node", "id": 6414310186, "lat": 31.7228065, "lon": 44.98522, "tags": {"amenity": "school", "name": "\u0627\u0639\u062f\u0627\u062f\u064a\u0629 \u0627\u0633\u0645\u0627\u0621 \u0644\u0644\u0628\u0646\u0627\u062a", "opening_hours": "Mo-Su 08:00-13:00", "phone": "07816040292"}}, {"type": "node", "id": 6416665224, "lat": 31.7165135, "lon": 45.0637109, "tags": {"addr:housenumber": "354", "addr:postcode": "1754", "addr:street": "\u0634\u0627\u0631\u0639 \u0627\u0628\u0648 \u0635\u062e\u0631\u0629", "amenity": "school", "email": "hamza_sahi@yahoo.com", "opening_hours": "Mo-Su 08:00-13:30", "phone": "07816040292"}}, {"type": "node", "id": 6416665405, "lat": 32.0560627, "lon": 44.9656901, "tags": {"addr:street": "\u0627\u0644\u062f\u064a\u0648\u0627\u0646\u064a\u0629 \u0627\u0644\u062f\u063a\u0627\u0631\u0629", "amenity": "school", "email": "hamza_sahi@yahoo.com", "opening_hours": "Mo-Su 08:00-13:00", "operator": "\u0642\u0631\u0628 \u0645\u0639\u0645\u0644 \u0637\u0627\u0628\u0648\u0642 \u0627\u0644\u062f\u063a\u0627\u0631\u0629", "phone": "07816040292"}}, {"type": "node", "id": 6433934486, "lat": 32.0644755, "lon": 45.0014262, "tags": {"addr:street": "\u0627\u0644\u0634\u0627\u0631\u0639 \u0627\u0644\u062f\u0648\u0644\u064a", "amenity": "school", "email": "hamza_sahi@yahoo.com", "name": "\u0645\u062f\u0631\u0633\u0629 \u0628\u0642\u064a\u0629 \u0627\u0644\u0644\u0647", "phone": "009647816040292"}}, {"type": "node", "id": 6759017886, "lat": 31.7280115, "lon": 44.9825649, "tags": {"addr:street": "\u0634\u0627\u0631\u0639 \u0627\u0644\u0635\u0646\u0627\u0639\u0629", "amenity": "school", "name": "\u0627\u0639\u062f\u0627\u062f\u064a\u0629 \u0627\u0644\u0635\u0646\u0627\u0639\u0629", "opening_hours": "Su-Th 08:00-16:00"}}, {"type": "node", "id": 6876290185, "lat": 31.99634, "lon": 44.9574521, "tags": {"amenity": "school", "name": "\u0645\u062f\u0631\u0633\u0629 \u0627\u0644\u0639\u0631\u0627\u0642 \u0627\u0644\u0627\u0628\u062a\u062f\u0627\u0626\u064a\u0629"}}, {"type": "node", "id": 6906690385, "lat": 31.7227809, "lon": 44.9650178, "tags": {"amenity": "school", "name": "\u0627\u0639\u062f\u0627\u062f\u064a\u0629 \u0627\u0644\u0631\u0633\u0648\u0644 \u0644\u0644\u0628\u0646\u064a\u0646"}}, {"type": "node", "id": 6938401985, "lat": 31.9997506, "lon": 44.8959307, "tags": {"amenity": "school", "name": "\u0645\u062f\u0631\u0633\u0629 \u0627\u0644\u0634\u0647\u064a\u062f \u0639\u0628\u062f \u0627\u0644\u0635\u0627\u062d\u0628 \u0627\u0644\u064a\u0627\u0633\u0631\u064a"}}, {"type": "node", "id": 6983270685, "lat": 31.7289526, "lon": 44.9892832, "tags": {"addr:street": "\u0646\u0647\u0627\u064a\u0629 \u0627\u0644\u0634\u0627\u0631\u0639  \u0627\u0644\u0627\u0639\u0648\u062c", "amenity": "school", "name": "\u0627\u0639\u062f\u0627\u062f\u064a\u0629 \u0627\u0644\u0646\u062c\u062f\u064a\u0646"}}, {"type": "node", "id": 6983287889, "lat": 31.7281263, "lon": 44.9886856, "tags": {"amenity": "school", "name": "\u0627\u0639\u062f\u0627\u062f\u064a\u0629 \u0627\u0644\u0646\u0635\u0631"}}, {"type": "node", "id": 6983293285, "lat": 31.7287328, "lon": 44.9891778, "tags": {"amenity": "school", "name": "\u0645\u062f\u0631\u0633\u0629 \u0627\u0644\u0634\u0647\u064a\u062f \u0643\u0627\u0638\u0645 \u0639\u0628\u062f \u0639\u0644\u0649 \u062f\u0627\u0646\u0647"}}, {"type": "node", "id": 6985454986, "lat": 31.9961934, "lon": 44.9437429, "tags": {"amenity": "school", "name": "\u0627\u0639\u062f\u0627\u062f\u064a\u0629 \u0627\u0644\u0635\u062f\u0631\u064a\u0646 \u0644\u0644\u0628\u0646\u064a\u0646"}}, {"type": "node", "id": 7092987685, "lat": 32.000769, "lon": 44.9201621, "tags": {"amenity": "school", "name": "\u0645\u062a\u0648\u0633\u0637\u0629 \u0627\u0644\u0646\u0647\u0636\u0629 \u0644\u0644\u0628\u0646\u064a\u0646"}}, {"type": "node", "id": 7093689086, "lat": 32.0008531, "lon": 44.9140079, "tags": {"amenity": "school", "name": "\u0645\u062a\u0648\u0633\u0637\u0629 \u0627\u0644\u0646\u0647\u0636\u0629 \u0644\u0644\u0628\u0646\u064a\u0646"}}, {"type": "node", "id": 7130556689, "lat": 32.1374928, "lon": 44.9341846, "tags": {"amenity": "school", "name": "\u0627\u0644\u0631\u0643\u0646 \u0627\u0644\u0639\u0631\u0627\u0642\u064a"}}, {"type": "node", "id": 7238903685, "lat": 31.7222424, "lon": 44.8369447, "tags": {"addr:housenumber": "45", "amenity": "school", "email": "hamza_sahi@yahoo.com", "name": "\u0645\u062f\u0631\u0633\u0629 \u0647\u0627\u0646\u064a \u0628\u0646 \u0639\u0631\u0648\u0629", "phone": "+9647816040292"}}, {"type": "node", "id": 7594449285, "lat": 31.9938159, "lon": 44.9114305, "tags": {"amenity": "school", "name": "\u0645\u062f\u0631\u0633\u0629 \u062e\u062f\u064a\u062c\u0629 \u0627\u0644\u0643\u0628\u0631\u0649"}}, {"type": "node", "id": 7723663085, "lat": 31.7217961, "lon": 44.9846856, "tags": {"addr:housenumber": "452", "addr:street": "\u0634\u0627\u0631\u0639 \u0645\u062f\u0631\u0633\u0629 \u0627\u062d\u0645\u062f \u0627\u0644\u0648\u0627\u0626\u0644\u064a", "amenity": "school", "name": "\u0627\u0639\u062f\u0627\u062f\u064a\u0629 \u0627\u0633\u0645\u0627\u0621 \u0644\u0644\u0628\u0646\u0627\u062a", "name:en": "Asmaa", "opening_hours": "Mo-Su 07:00-07:00, 15:00-15:00", "phone": "009647816040292"}}, {"type": "node", "id": 7728509386, "lat": 31.9670957, "lon": 44.605871, "tags": {"addr:street": "\u0634\u0627\u0631\u0639 \u0627\u0644\u062f\u0644\u0627\u0644", "amenity": "school", "name": "\u0625\u0639\u062f\u0627\u062f\u064a\u0629 \u0627\u0644\u0634\u0627\u0645\u064a\u0629 \u0644\u0644\u0628\u0646\u064a\u0646", "name:en": "Shamiya prep for boys", "name:fa": "\u0622\u0645\u0627\u062f\u06af\u06cc \u0634\u0627\u0645\u06cc\u0627 \u0628\u0631\u0627\u06cc \u067e\u0633\u0631\u0627\u0646", "name:ku": "Shamiya ji bo kuran amade dike", "opening_hours": "Mo-Su 08:00-13:00"}}, {"type": "node", "id": 7811057285, "lat": 31.9835501, "lon": 44.902751, "tags": {"addr:street": "\u0634\u0627\u0631\u0639 \u0627\u0644\u0645\u0637\u0627\u0639\u0645", "amenity": "school", "name": "\u0645\u062a\u0648\u0633\u0637\u0629 \u062d\u0645\u0648\u0631\u0627\u0628\u064a \u0644\u0644\u0628\u0646\u064a\u0646"}}, {"type": "node", "id": 7991381786, "lat": 31.9958892, "lon": 44.9174918, "tags": {"amenity": "school", "name": "\u0645\u0639\u0647\u062f \u0627\u0644\u0647\u062f\u0649 \u0627\u0644\u0645\u0631\u0643\u0632\u064a"}}, {"type": "node", "id": 8244411618, "lat": 31.9484176, "lon": 44.8395407, "tags": {"amenity": "school", "name": "\u0645\u062f\u0631\u0633\u0629 \u0627\u0644\u0634\u0647\u0628\u0627\u0621"}}, {"type": "node", "id": 8244411619, "lat": 31.9479069, "lon": 44.8395461, "tags": {"amenity": "school", "name": "\u062b\u0627\u0646\u0648\u064a\u0647 \u0627\u0628\u0646 \u0627\u0644\u0647\u064a\u062b\u0645"}}, {"type": "node", "id": 8253100073, "lat": 31.9879613, "lon": 44.8969712, "tags": {"amenity": "school", "name": "\u0645\u062f\u0631\u0633\u0629 \u0627\u0644\u062c\u064a\u0644 \u0627\u0644\u062c\u062f\u064a\u062f \u0627\u0644\u0627\u0628\u062a\u062f\u0627\u0626\u064a\u0629 \u0644\u0644\u0628\u0646\u064a\u0646"}}, {"type": "node", "id": 8253165018, "lat": 31.9890521, "lon": 44.8975701, "tags": {"amenity": "school", "name": "\u0645\u062f\u0631\u0633\u0629 \u0645\u062a\u0648\u0633\u0637\u0629 \u0627\u0644\u062c\u0632\u0627\u0626\u0631 \u0644\u0644\u0628\u0646\u064a\u0646"}}, {"type": "node", "id": 8253165020, "lat": 32.0023569, "lon": 44.9139301, "tags": {"amenity": "school", "name": "\u0645\u062f\u0631\u0633\u0629 \u0628\u0631\u0627\u0639\u0645 \u0627\u0644\u0623\u0645\u0644 \u0627\u0644\u0627\u0647\u0644\u064a\u0629"}}, {"type": "node", "id": 8319670725, "lat": 31.9838067, "lon": 44.9042623, "tags": {"amenity": "school", "name": "\u0645\u062a\u0648\u0633\u0637\u0629 \u0645\u064a\u0633\u0644\u0648\u0646 \u0644\u0644\u0628\u0646\u0627\u062a", "opening_hours": "Mo-Th, Su 08:00-12:00"}}, {"type": "node", "id": 8324936319, "lat": 31.9794972, "lon": 44.9486209, "tags": {"amenity": "school", "name": "\u0645\u062a\u0648\u0633\u0637\u0629 \u0627\u0644\u062a\u062d\u062f\u064a \u0644\u0644\u0628\u0646\u0627\u062a"}}, {"type": "node", "id": 8324936517, "lat": 31.9818031, "lon": 44.9417223, "tags": {"amenity": "school", "name": "\u0645\u062f\u0631\u0633\u0629 \u0637\u0627\u0631\u0642 \u0628\u0646 \u0632\u064a\u0627\u062f \u0627\u0644\u0627\u0628\u062a\u062f\u0627\u0626\u064a\u0629"}}, {"type": "node", "id": 8329880318, "lat": 31.7234328, "lon": 45.0184552, "tags": {"addr:housenumber": "357", "addr:postcode": "15273", "addr:street": "\u0634\u0627\u0631\u0639 \u0627\u0644\u0634\u0648\u0641\u0629", "amenity": "school", "name": "\u0645\u062f\u0631\u0633\u0629 \u0627\u0644\u062b\u0628\u0627\u062a \u0627\u0644\u0627\u0628\u062a\u062f\u0627\u0626\u064a\u0629", "opening_hours": "Mo-Su 01:30-20:00", "phone": "07816040292"}}, {"type": "node", "id": 8329900018, "lat": 31.785627, "lon": 44.8549691, "tags": {"addr:housenumber": "357", "addr:postcode": "1575", "addr:street": "\u0634\u0627\u0631\u0639 \u0632\u0631\u0627\u0639\u064a", "amenity": "school", "email": "hamza_sahi@yahoo.com", "name": "\u0645\u062f\u0631\u0633\u0629 \u0627\u0644\u062d\u0636\u0631 \u0627\u0644\u0627\u0628\u062a\u062f\u0627\u0626\u064a\u0629", "phone": "07816040295"}}, {"type": "node", "id": 8332275917, "lat": 31.7649492, "lon": 45.0442271, "tags": {"addr:housenumber": "754", "addr:postcode": "1574", "addr:street": "\u0634\u0627\u0631\u0639 \u0632\u0631\u0627\u0639\u064a", "amenity": "school", "email": "hamza_sahi@yahoo.com", "name": "\u0645\u062f\u0631\u0633\u0629 \u0627\u0644\u0633\u062c\u0627\u062f \u0627\u0644\u0627\u0628\u062a\u062f\u0627\u0626\u064a\u0629", "opening_hours": "Mo-Su 08:00-13:29", "phone": "07816040292"}}, {"type": "node", "id": 8337949617, "lat": 31.9787321, "lon": 44.9481051, "tags": {"amenity": "school", "name": "\u0645\u062f\u0631\u0633\u0629 \u0627\u0644\u0627\u064a\u0645\u0627\u0646 \u0627\u0644\u0627\u0628\u062a\u062f\u0627\u0626\u064a\u0629 \u0644\u0644\u0628\u0646\u0627\u062a"}}, {"type": "node", "id": 8337949618, "lat": 31.9793328, "lon": 44.9485319, "tags": {"amenity": "school", "name": "\u0627\u0639\u062f\u0627\u062f\u064a\u0629 \u0627\u0644\u062d\u0648\u0631\u0627\u0621 \u0644\u0644\u0628\u0646\u0627\u062a"}}, {"type": "node", "id": 8360160117, "lat": 31.788321, "lon": 44.9296225, "tags": {"addr:housenumber": "452", "addr:postcode": "1754", "amenity": "school", "name": "\u0645\u062f\u0631\u0633\u0629 \u062c\u0646\u0627\u062a \u0639\u062f\u0646", "opening_hours": "Mo-Su 08:00-14:00", "phone": "009647816040292"}}, {"type": "node", "id": 8393558917, "lat": 31.8967779, "lon": 45.0726006, "tags": {"amenity": "school", "email": "hamza_sahi@yahoo.com", "name": "\u0645\u062f\u0631\u0633\u0629 \u0633\u0644\u0633\u0628\u064a\u0644", "phone": "07816040292"}}, {"type": "node", "id": 8393559017, "lat": 31.996636, "lon": 44.9568741, "tags": {"addr:housenumber": "1557", "addr:postcode": "8578", "addr:street": "\u0634\u0627\u0631\u0639 \u0645\u062f\u0631\u0633\u0629 \u0627\u0644\u0639\u0631\u0627\u0642", "amenity": "school", "email": "hamza_sahi@yahoo.com", "name": "\u0645\u062f\u0631\u0633\u0629 \u0627\u0644\u0639\u0631\u0627\u0642", "phone": "07816040292"}}, {"type": "node", "id": 8563075717, "lat": 31.8665643, "lon": 44.6262719, "tags": {"amenity": "school", "name": "\u0645\u062f\u0631\u0633\u0629 \u0639\u0645\u0627\u0631 \u0627\u0628\u0646 \u064a\u0627\u0633\u0631", "name:ku": "\u0627\u0644 \u0635\u0631\u064a\u0639"}}, {"type": "node", "id": 8868898317, "lat": 32.017354, "lon": 44.9208691, "tags": {"addr:housenumber": "1754", "addr:postcode": "1755", "amenity": "school", "name": "\u0645\u062f\u0631\u0633\u0629 \u0627\u0644\u0639\u0628\u064a\u0631 \u0627\u0644\u0627\u0628\u062a\u062f\u0627\u0626\u064a\u0629", "opening_hours": "Mo-Su 08:00-13:00", "phone": "07816040292"}}, {"type": "node", "id": 8868898318, "lat": 32.0164502, "lon": 44.9207521, "tags": {"addr:housenumber": "1754", "addr:postcode": "1755", "addr:street": "\u0634\u0627\u0631\u0639 \u0627\u0644\u062f\u0639\u0627\u0631\u0629", "amenity": "school", "email": "hamza_sahi@yahoo.com", "name": "\u0645\u062a\u0648\u0633\u0637\u0629 \u0627\u0644\u0622\u064a\u0627\u062a \u0644\u0644\u0628\u0646\u0627\u062a", "opening_hours": "Mo-Su 00:00-18:00", "phone": "07816040292"}}, {"type": "node", "id": 8882588217, "lat": 32.0009539, "lon": 44.9936786, "tags": {"addr:housenumber": "1457", "addr:postcode": "1574", "amenity": "school", "name": "\u0645\u062a\u0648\u0633\u0637\u0629 \u0645\u0643\u0629 \u0627\u0644\u0645\u0643\u0631\u0645\u0629", "opening_hours": "We-Mo 08:00-13:00; Tu 00:00-24:00", "phone": "07804364770"}}, {"type": "node", "id": 8882672817, "lat": 32.0560575, "lon": 44.9656756, "tags": {"addr:housenumber": "1457", "addr:postcode": "1574", "amenity": "school", "email": "hamza_sahi@yahoo.com", "name": "\u0645\u062f\u0631\u0633\u0629 \u0627\u0644\u0639\u0632", "opening_hours": "Fr-We 08:00-13:05; Th 00:00-24:00", "phone": "07816040292"}}, {"type": "node", "id": 9262567317, "lat": 31.7784164, "lon": 44.6131343, "tags": {"addr:postcode": "1754", "addr:street": "\u0634\u0627\u0631\u0639 \u0627\u0644\u0645\u062f\u062d\u064a\u0629", "amenity": "school", "name": "\u0645\u062f\u0631\u0633\u0629 \u0627\u0644\u0645\u0631\u062a\u0636\u0649 \u0627\u0644\u0627\u0628\u062a\u062f\u0627\u0626\u064a\u0629", "opening_hours": "24/7", "phone": "07816040292"}}, {"type": "node", "id": 9276861617, "lat": 32.0035024, "lon": 44.946886, "tags": {"amenity": "school", "email": "hamza_sahi@yahoo.com", "name": "\u0645\u062f\u0631\u0633\u0629 \u0627\u0644\u0634\u0647\u064a\u062f \u0641\u0627\u0644\u062d \u0645\u0648\u0627\u062a", "phone": "07816040292"}}, {"type": "node", "id": 9283292817, "lat": 31.7400297, "lon": 45.0093215, "tags": {"addr:housenumber": "1575", "addr:postcode": "1575", "amenity": "school", "email": "hamza_sahi@yahoo.com", "name": "\u0645\u062f\u0631\u0633\u0629 \u0627\u0644\u0628\u0648\u0627\u062f\u064a", "phone": "07816040292"}}, {"type": "node", "id": 9307083817, "lat": 31.7667906, "lon": 44.7702144, "tags": {"addr:housenumber": "1584", "addr:postcode": "1554", "amenity": "school", "email": "hamza_sahi@yahoo.com", "name": "\u0645\u062f\u0631\u0633\u0629 \u0627\u0644\u0628\u0633\u0645\u0644\u0629", "phone": "07816040292"}}, {"type": "node", "id": 9331342517, "lat": 31.7855656, "lon": 44.854927, "tags": {"addr:housenumber": "1574", "addr:postcode": "154542", "amenity": "school", "name": "\u0645\u062f\u0631\u0633\u0629 \u0627\u0644\u062d\u0636\u0631", "phone": "07816040292"}}, {"type": "node", "id": 9559086417, "lat": 32.0120557, "lon": 44.9237461, "tags": {"amenity": "school", "name": "\u0645\u062f\u0631\u0633\u0629 \u0627\u0644\u0622\u062f\u0627\u0628"}}, {"type": "node", "id": 9649792917, "lat": 31.9935617, "lon": 44.9199178, "tags": {"addr:street": "\u0634\u0627\u0631\u0639 \u0627\u0644\u0639\u0631\u0648\u0628\u0647", "amenity": "school", "email": "hamza_sahi@yahoo.com", "name": "\u0645\u062f\u0631\u0633\u0629 \u0627\u0644\u062b\u0642\u0627\u0641\u0629", "phone": "07816040292"}}, {"type": "node", "id": 9658491917, "lat": 31.8702464, "lon": 44.9700719, "tags": {"addr:housenumber": "1454", "addr:postcode": "1522", "amenity": "school", "name": "\u0645\u062f\u0631\u0633\u0629 \u0627\u0644\u0641\u062a\u0648\u0649 \u0627\u0644\u062c\u0647\u0627\u062f\u064a\u0629", "phone": "07816040292"}}, {"type": "node", "id": 9674792417, "lat": 32.0054939, "lon": 44.8938266, "tags": {"amenity": "school", "name": "\u0645\u062f\u0631\u0633\u0629 \u0627\u0644\u0625\u0634\u0639\u0627\u0639"}}, {"type": "node", "id": 9697319417, "lat": 31.724292, "lon": 44.5931175, "tags": {"addr:housenumber": "1452", "addr:postcode": "1465", "addr:street": "\u0634\u0627\u0631\u0639  \u063a\u0645\u0627\u0633", "amenity": "school", "email": "hamza_sahi@yahoo.com", "name": "\u0645\u062f\u0631\u0633\u0629 \u0627\u0644\u0645\u0643\u0627\u0631\u0645", "phone": "07816040292"}}, {"type": "node", "id": 9697319418, "lat": 31.7427235, "lon": 44.6184886, "tags": {"addr:street": "\u063a\u0645\u0627\u0633", "amenity": "school", "email": "hamza_sahi@yahoo.com", "name": "\u0645\u062f\u0631\u0633\u0629 \u0627\u0644\u0634\u0647\u064a\u062f \u0641\u064a\u0635\u0644 \u062f\u0644\u0648\u0644", "phone": "07816040292"}}, {"type": "node", "id": 9904823617, "lat": 32.0011174, "lon": 44.8931231, "tags": {"amenity": "school", "name": "\u0645\u062f\u0631\u0633\u0629 \u0627\u0644\u0627\u0644\u0642 \u0627\u0644\u0627\u0647\u0644\u064a\u0629 \u0627\u0644\u0645\u062e\u062a\u0644\u0637\u0629"}}, {"type": "node", "id": 9904830117, "lat": 32.0021327, "lon": 44.8923574, "tags": {"amenity": "school", "name": "\u0645\u062f\u0631\u0633\u0629 \u0627\u0644\u0627\u0644\u0642 \u0627\u0644\u0627\u0647\u0644\u064a\u0629 \u0627\u0644\u0645\u062e\u062a\u0644\u0637\u0629"}}, {"type": "node", "id": 10043414717, "lat": 31.7348318, "lon": 44.6010327, "tags": {"addr:housenumber": "1455", "addr:postcode": "1452", "addr:street": "\u0634\u0627\u0631\u0639 \u0632\u0648\u0628\u0639", "amenity": "school", "email": "hamza_sahi@yahoo.com", "name": "\u0645\u062a\u0648\u0633\u0637\u0629 \u0630\u0648 \u0627\u0644\u0641\u0642\u0627\u0631 \u0644\u0644\u0628\u0646\u064a\u0646", "opening_hours": "Mo-Su 08:00-13:00", "phone": "07819149402"}}, {"type": "node", "id": 10155950617, "lat": 31.9996898, "lon": 44.9872623, "tags": {"addr:housenumber": "1456", "addr:postcode": "1524", "amenity": "school", "name": "\u0645\u062a\u0648\u0633\u0637\u0629 \u0645\u0643\u0629 \u0644\u0644\u0628\u0646\u064a\u0646", "phone": "009647819149402"}}, {"type": "node", "id": 10213633017, "lat": 31.7318072, "lon": 44.96593, "tags": {"addr:housenumber": "1554", "addr:postcode": "1452", "amenity": "school", "email": "hamzasahi2@gmail.com", "name": "\u0645\u062f\u0631\u0633\u0629 \u0627\u0644\u0625\u0633\u0631\u0627\u0621 \u0644\u0644\u0628\u0646\u0627\u062a", "phone": "07819149402"}}, {"type": "node", "id": 10232201289, "lat": 31.9870466, "lon": 44.9181867, "tags": {"amenity": "school", "name": "\u0645\u062f\u0631\u0633\u0629 \u0627\u0644\u0646\u0647\u0631\u064a\u0646 \u0627\u0644\u0627\u0628\u062a\u062f\u0627\u0626\u064a\u0629"}}, {"type": "node", "id": 10246187109, "lat": 31.8998867, "lon": 45.0433388, "tags": {"amenity": "school", "email": "hamzasahi2@gmail.com", "name": "\u0645\u062f\u0631\u0633\u0629 \u0627\u0644\u062d\u0636\u0627\u0631\u0629 \u0627\u0644\u0627\u0628\u062a\u062f\u0627\u0626\u064a\u0629", "phone": "07819149402"}}, {"type": "node", "id": 10246198910, "lat": 31.9055101, "lon": 45.0094138, "tags": {"amenity": "school", "email": "hamza_sahi@yahoo.com", "name": "\u0645\u062f\u0631\u0633\u0629 \u062f\u064a\u0631 \u064a\u0627\u0633\u064a\u0646 \u0627\u0644\u0627\u0628\u062a\u062f\u0627\u0626\u064a\u0629", "phone": "07811332279"}}, {"type": "node", "id": 10251472210, "lat": 31.9937593, "lon": 44.9359125, "tags": {"amenity": "school", "email": "hamza_sahi@yahoo.com", "name": "\u0645\u062f\u0631\u0633\u0629 \u0627\u0644\u0641\u062a\u0648\u0629 \u0627\u0644\u0627\u0628\u062a\u062f\u0627\u0626\u064a\u0629", "phone": "7819149402"}}, {"type": "node", "id": 10316225409, "lat": 31.9955507, "lon": 44.9208838, "tags": {"addr:housenumber": "1542", "addr:postcode": "1452", "amenity": "school", "email": "hamza_sahi@yahoo.com", "name": "\u0645\u062f\u0631\u0633\u0629 \u0627\u0644\u062f\u064a\u0648\u0627\u0646\u064a\u0629 \u0627\u0644\u0627\u0628\u062a\u062f\u0627\u0626\u064a\u0629", "phone": "07819149402"}}, {"type": "node", "id": 10316225609, "lat": 31.8621168, "lon": 44.9438709, "tags": {"amenity": "school", "email": "hamza_sahi@yahoo.com", "name": "\u0645\u062f\u0631\u0633\u0629 \u0627\u0644\u0645\u0634\u0627\u0639\u0644 \u0627\u0644\u0627\u0628\u062a\u062f\u0627\u0626\u064a\u0629", "phone": "07819149402"}}, {"type": "node", "id": 10742913007, "lat": 32.0014481, "lon": 44.9020747, "tags": {"addr:housenumber": "23", "addr:street": "\u0634\u0627\u0631\u0639 \u0627\u0645 \u0627\u0644\u062e\u064a\u0644", "amenity": "school", "name": "\u0645\u0639\u0647\u062f \u0627\u0644\u062a\u0645\u064a\u0632"}}, {"type": "node", "id": 11086143605, "lat": 31.9949276, "lon": 44.9199933, "tags": {"amenity": "school", "name": "\u062b\u0627\u0646\u0648\u064a\u0629 \u0627\u0644\u0645\u062a\u0641\u0648\u0642\u064a\u0646 \u0627\u0644\u062b\u0627\u0646\u064a\u0629"}}, {"type": "node", "id": 11107070375, "lat": 31.9744723, "lon": 44.9690671}, {"type": "node", "id": 11107070385, "lat": 31.9734843, "lon": 44.9709463}, {"type": "node", "id": 11107101808, "lat": 31.972574, "lon": 44.970269}, {"type": "node", "id": 11107101824, "lat": 31.9736203, "lon": 44.9683698}, {"type": "node", "id": 11173687637, "lat": 31.988701, "lon": 44.9489098, "tags": {"amenity": "school", "name": "\u0645\u062f\u0631\u0633\u0629 \u0627\u0644\u0641\u062c\u0631 \u0627\u0644\u062c\u062f\u064a\u062f"}}, {"type": "node", "id": 11176714048, "lat": 31.983031, "lon": 44.9728658}, {"type": "node", "id": 11176714049, "lat": 31.9826521, "lon": 44.9735716}, {"type": "node", "id": 11176714050, "lat": 31.9820796, "lon": 44.9731578}, {"type": "node", "id": 11176714051, "lat": 31.9823257, "lon": 44.9726415}, {"type": "node", "id": 11236760637, "lat": 31.7505939, "lon": 44.9742693, "tags": {"addr:housenumber": "1543", "addr:postcode": "1254", "amenity": "school", "email": "hamzasahi2@gmail.com", "name": "\u0645\u062f\u0631\u0633\u0629 \u0627\u0644\u0645\u0639\u0627\u0644\u064a \u0627\u0644\u0627\u0628\u062a\u062f\u0627\u0626\u064a\u0629", "phone": "07819149402"}}, {"type": "node", "id": 11236771338, "lat": 31.7205443, "lon": 44.9781052, "tags": {"amenity": "school", "name": "\u0645\u062f\u0631\u0633\u0629 \u0627\u0644\u0645\u0633\u062a\u0646\u0635\u0631\u064a\u0629 \u0644\u0644\u0628\u0646\u064a\u0646"}}, {"type": "node", "id": 11236906037, "lat": 31.7231345, "lon": 44.9823023, "tags": {"amenity": "school", "name": "\u0645\u062f\u0631\u0633\u0629 \u0645\u0624\u062a\u0629"}}, {"type": "node", "id": 11238426237, "lat": 31.7102513, "lon": 44.9340124, "tags": {"addr:housenumber": "1542", "addr:postcode": "1546", "amenity": "school", "email": "hamzasahi2@gmail.com", "name": "\u0645\u062f\u0631\u0633\u0629 \u0627\u0644\u0632\u064a\u0627\u062a", "phone": "07819149402"}}, {"type": "node", "id": 11238612791, "lat": 31.9695404, "lon": 44.9668544}, {"type": "node", "id": 11238612792, "lat": 31.9690776, "lon": 44.9664932}, {"type": "node", "id": 11238612793, "lat": 31.9685989, "lon": 44.9673415}, {"type": "node", "id": 11238612794, "lat": 31.9690728, "lon": 44.9677064}, {"type": "node", "id": 11238612795, "lat": 31.9688549, "lon": 44.965956}, {"type": "node", "id": 11238612796, "lat": 31.9683471, "lon": 44.9655585}, {"type": "node", "id": 11238612797, "lat": 31.9677225, "lon": 44.9666629}, {"type": "node", "id": 11238612798, "lat": 31.9682532, "lon": 44.9670672}, {"type": "node", "id": 11238627016, "lat": 31.9709115, "lon": 44.9643655}, {"type": "node", "id": 11238627017, "lat": 31.9704478, "lon": 44.9652102}, {"type": "node", "id": 11238627018, "lat": 31.9699515, "lon": 44.9648511}, {"type": "node", "id": 11238627019, "lat": 31.970442, "lon": 44.9639996}, {"type": "node", "id": 11288402669, "lat": 31.9862852, "lon": 44.930168, "tags": {"addr:housenumber": "1452", "addr:postcode": "1254", "addr:street": "\u0634\u0627\u0631\u0639 \u0627\u0644\u0625\u0637\u0641\u0627\u0621", "amenity": "school", "email": "hamzasahi2@gmail.com", "name": "\u0645\u062f\u0631\u0633\u0629 \u0627\u0644\u062b\u0642\u0627\u0641\u0629", "phone": "07819149402"}}, {"type": "node", "id": 11393577870, "lat": 32.0057562, "lon": 44.8599673, "tags": {"addr:street": "\u0634\u0627\u0631\u0639 \u0627\u0644\u0633\u0646\u064a\u0629", "amenity": "school", "email": "hamzasahi2@gmail.com", "name": "\u0645\u062f\u0631\u0633\u0629 14 \u062a\u0645\u0648\u0632", "phone": "07819149402"}}, {"type": "node", "id": 11393577871, "lat": 32.0094434, "lon": 44.8459817, "tags": {"amenity": "school", "name": "\u0645\u062f\u0631\u0633\u0629 \u0627\u0644\u0645\u0646\u0627\u0644 \u0627\u0644\u0627\u0628\u062a\u062f\u0627\u0626\u064a\u0629 \u0644\u0644\u0628\u0646\u0627\u062a"}}, {"type": "node", "id": 11393582869, "lat": 32.0109102, "lon": 44.8466885, "tags": {"addr:housenumber": "1452", "amenity": "school", "email": "hamzasahi2@gmail.com", "name": "\u0645\u062f\u0631\u0633\u0629 \u0627\u0644\u062e\u0644\u064a\u062c \u0627\u0644\u0639\u0631\u0628\u064a", "phone": "07819149402"}}, {"type": "node", "id": 11393582969, "lat": 31.9876347, "lon": 44.8515804, "tags": {"amenity": "school", "email": "hamzasahi2@gmail.com", "name": "\u0645\u062f\u0631\u0633\u0629 \u0627\u0644\u0633\u0628\u0637\u064a\u0646 \u0627\u0644\u0627\u0628\u062a\u062f\u0627\u0626\u064a\u0629", "phone": "07819149402"}}, {"type": "node", "id": 11393582970, "lat": 31.9974584, "lon": 44.8587204, "tags": {"amenity": "school", "email": "hamzasahi2@gmail.com", "name": "\u0645\u062f\u0631\u0633\u0629  \u0627\u0644\u0635\u0627\u062f\u0642 \u0627\u0644\u0623\u0645\u064a\u0646", "phone": "07819149402"}}, {"type": "node", "id": 11397539770, "lat": 31.7623154, "lon": 44.7183365, "tags": {"amenity": "school", "name": "\u0645\u062f\u0631\u0633\u0629 \u0627\u0628\u0648 \u0628\u0635\u064a\u0631 \u0627\u0644\u0627\u0628\u062a\u062f\u0627\u0626\u064a\u0629"}}, {"type": "node", "id": 11398057769, "lat": 31.9785529, "lon": 45.0244018, "tags": {"amenity": "school", "email": "hamzasahi2@gmail.com", "name": "\u0645\u062f\u0631\u0633\u0629 \u0627\u0644\u0637\u0628\u0631\u064a", "phone": "07819149402"}}, {"type": "node", "id": 11398071969, "lat": 31.9945584, "lon": 44.9260679, "tags": {"addr:street": "\u0634\u0627\u0631\u0639 \u0627\u0644\u0639\u0631\u0648\u0628\u0647", "amenity": "school", "email": "hamzasahi2@gmail.com", "name": "\u0645\u062f\u0631\u0633\u0629 \u0627\u062d\u062f \u0627\u0644\u0627\u0628\u062a\u062f\u0627\u0626\u064a\u0629", "phone": "07819149402"}}, {"type": "node", "id": 11445798369, "lat": 31.7654894, "lon": 44.9883695, "tags": {"addr:street": "\u0627\u0644\u0634\u0627\u0631\u0639 \u0627\u0644\u0633\u064a\u0627\u062d\u064a", "amenity": "school", "email": "hamzasahi2@gmail.com", "name": "\u0645\u062f\u0631\u0633\u0629 \u0627\u0644\u0633\u0645\u0648", "phone": "07819149402"}}, {"type": "node", "id": 11691266969, "lat": 31.9783301, "lon": 44.9531408, "tags": {"amenity": "school", "name": "\u0645\u062f\u0631\u0633\u0629 \u0627\u0644\u0627\u0645\u0644"}}, {"type": "way", "id": 461727365, "nodes": [2479289160, 4571908731, 4571908732, 4571908733, 2479289160], "tags": {"alt_name": "\u0645\u062f\u0631\u0633\u0629 \u062d\u064a\u0627\u0646", "amenity": "school", "int_name": "Madrasat \u1e28ayy\u0101n, \u0645\u062f\u0631\u0633\u0629 \u062d\u064a\u0627\u0646, Madrasat Hayyan, \u0645\u062f\u0631\u0633\u0629 \u062d\u064a\u0627\u0646", "name": "\u0645\u062f\u0631\u0633\u0647 \u0627\u0644\u0627\u0635\u0644\u0627\u062d;\u0645\u062f\u0631\u0633\u0629 \u062d\u064a\u0627\u0646", "name:ar": "\u0645\u062f\u0631\u0633\u0629 \u062d\u064a\u0627\u0646", "name:ar1": "\u0645\u062f\u0631\u0633\u0629 \u062d\u064a\u0627\u0646", "name:de": "Madrasat Hayyan", "name:en": "Madrasat Hayyan", "name:fr": "Madrasat Hayyan"}}, {"type": "way", "id": 558213330, "nodes": [5382634766, 5382634767, 5382634768, 5382634769, 5382634766], "tags": {"amenity": "school", "name": "\u0627\u0639\u062f\u0627\u062f\u064a\u0629 \u0633\u0643\u064a\u0646\u0629 \u0644\u0644\u0628\u0646\u0627\u062a"}}, {"type": "way", "id": 558214146, "nodes": [5382639138, 5382639139, 5382639140, 5382639141, 5382639138], "tags": {"amenity": "school", "name": "\u0627\u0639\u062f\u0627\u062f\u064a\u0629 \u0627\u0644\u062d\u0645\u0632\u0629 \u0644\u0644\u0628\u0646\u064a\u0646"}}, {"type": "way", "id": 558214243, "nodes": [5382639430, 5382639431, 5382639432, 5382639433, 5382639430], "tags": {"amenity": "school", "name": "\u0645\u062a\u0648\u0633\u0637\u0629 \u0627\u0644\u0646\u0635\u0631 \u0648\u062b\u0627\u0646\u0648\u064a\u0629 \u0627\u0644\u0645\u0635\u0637\u0641\u0649"}}, {"type": "way", "id": 558214676, "nodes": [5382642942, 5382642943, 5382642944, 5382642945, 5382642942], "tags": {"amenity": "school", "name": "\u0645\u062f\u0631\u0633\u0629 \u0627\u062d\u0645\u062f \u0627\u0644\u0648\u0627\u0626\u0644\u064a"}}, {"type": "way", "id": 576586048, "nodes": [5529968320, 5529968421, 5529968422, 5529968423, 5529968320], "tags": {"amenity": "school", "name": "\u0645\u062a\u0648\u0633\u0637\u0629 \u0627\u0644\u062d\u0633\u0646 -\u0639- \u0644\u0644\u0628\u0646\u064a\u0646"}}, {"type": "way", "id": 576586174, "nodes": [5529968420, 5529969521, 5529969522, 5529969523, 5529968420], "tags": {"amenity": "school", "name": "\u0627\u0639\u062f\u0627\u062f\u064a\u0629 \u0627\u0644\u0646\u0648\u0631 \u0644\u0644\u0628\u0646\u0627\u062a"}}, {"type": "way", "id": 576586563, "nodes": [5529971752, 5529971753, 5529971754, 5529971755, 5529971752], "tags": {"amenity": "school", "name": "\u0645\u062f\u0631\u0633\u0629 \u0627\u0644\u063a\u0635\u0648\u0646 \u0627\u0644\u0627\u0628\u062a\u062f\u0627\u0626\u064a\u0629 \u0644\u0644\u0628\u0646\u0627\u062a"}}, {"type": "way", "id": 576587777, "nodes": [5529979418, 5529979419, 5529979420, 5529979421, 5529979418], "tags": {"amenity": "school", "name": "\u062b\u0627\u0646\u0648\u064a\u0629 \u0627\u0644\u062c\u0645\u0627\u0647\u064a\u0631"}}, {"type": "way", "id": 576588051, "nodes": [5529979201, 5529979202, 5529979203, 5529979204, 5529979205, 5529979201], "tags": {"amenity": "school", "name": "\u0645\u062f\u0631\u0633\u0629 \u0632\u064a\u062f \u0628\u0646 \u0639\u0644\u064a"}}, {"type": "way", "id": 576588742, "nodes": [5529984236, 5529984237, 5529984238, 5529984239, 5529984236], "tags": {"amenity": "school", "name": "\u0645\u062f\u0631\u0633\u0629 \u0645\u0627\u0644\u0643 \u0627\u0644\u0627\u0634\u062a\u0631"}}, {"type": "way", "id": 578763922, "nodes": [5544612957, 5544612958, 5544612959, 5544612960, 5544612957], "tags": {"amenity": "school", "name": "\u0645\u062f\u0631\u0633\u0629 \u0627\u0644\u062c\u0627\u0645\u0639\u0629"}}, {"type": "way", "id": 578763923, "nodes": [5544612961, 5544612962, 5544612963, 5544612964, 5544612961], "tags": {"amenity": "school", "name": "\u0627\u0644\u0633\u062c\u0649", "religion": "muslim"}}, {"type": "way", "id": 1206136375, "nodes": [11176714048, 11176714049, 11176714050, 11176714051, 11176714048], "tags": {"amenity": "school"}}, {"type": "way", "id": 1206164415, "nodes": [11107070375, 11107070385, 11107101808, 11107101824, 11107070375], "tags": {"amenity": "school"}}, {"type": "way", "id": 1213070732, "nodes": [11238612791, 11238612792, 11238612793, 11238612794, 11238612791], "tags": {"alt_name:ar": "\u0645\u062f\u0631\u0633\u0629 \u0627\u0644\u0628\u0648\u0631\u0648\u062c", "amenity": "school"}}, {"type": "way", "id": 1213070733, "nodes": [11238612795, 11238612796, 11238612797, 11238612798, 11238612795], "tags": {"alt_name:ar": "\u0627\u0639\u062f\u0627\u062f\u064a\u0629 \u0627\u0644\u0635\u0642\u0648\u0631 \u0644\u0644\u0628\u0646\u064a\u0646", "amenity": "school", "building": "\u0645\u062a\u0648\u0633\u0637\u0629 \u0627\u0644\u0631\u0627\u0632\u064a \u0644\u0644\u0628\u0646\u064a\u0646"}}, {"type": "way", "id": 1213076979, "nodes": [11238627016, 11238627017, 11238627018, 11238627019, 11238627016], "tags": {"amenity": "school"}}]}