{"version": 0.6, "generator": "Overpass API 0.7.61.5 4133829e", "osm3s": {"timestamp_osm_base": "2024-03-06T11:00:15Z", "copyright": "The data included in this document is from www.openstreetmap.org. The data is made available under ODbL."}, "elements": [{"type": "node", "id": 4003734187, "lat": 36.2110542, "lon": 43.9900621}, {"type": "node", "id": 4003734489, "lat": 36.2111391, "lon": 43.9901765}, {"type": "node", "id": 4003734491, "lat": 36.2111809, "lon": 43.9899023}, {"type": "node", "id": 4003734494, "lat": 36.2112788, "lon": 43.990014}, {"type": "node", "id": 4526581195, "lat": 36.1624628, "lon": 43.9685224, "tags": {"amenity": "bank", "name": "\u0628\u0627\u0646\u06a9\u06cc \u0642\u06d5\u06b5\u0627", "name:ar": "\u0645\u0635\u0631\u0641 \u0627\u0644\u0642\u0644\u0639\u0629", "name:ckb": "\u0628\u0627\u0646\u06a9\u06cc \u0642\u06d5\u06b5\u0627", "name:en": "Qala Bank", "name:ku": "\u0628\u0627\u0646\u06a9\u06cc \u062e\u0627\u0646\u0648\u0648\u0628\u06d5\u0631\u06d5"}}, {"type": "node", "id": 4757512726, "lat": 36.2093626, "lon": 43.9888564, "tags": {"addr:city": "\u0623\u0631\u0628\u064a\u0644", "addr:country": "IQ", "addr:district": "\u0642\u0636\u0627\u0621 \u0623\u0631\u0628\u064a\u0644", "addr:postcode": "44001", "addr:state": "\u0645\u062d\u0627\u0641\u0638\u0629 \u0623\u0631\u0628\u064a\u0644", "amenity": "bank", "name": "\u0628\u0627\u0646\u06a9\u06cc \u0626\u06cc\u0634", "name:en": "Ish Bank-Turkish", "name:ku": "Bank\u00ee \u00ce\u015f", "name:tr": "T\u00fcrkiye i\u015f bankas\u0131"}}, {"type": "node", "id": 5047918621, "lat": 36.26845, "lon": 43.66288, "tags": {"addr:city": "\u0647\u06d5\u0648\u0644\u06ce\u0631", "addr:street": "Khabat Street", "amenity": "bank", "name": "\u0628\u0627\u0646\u06a9\u06cc \u06af\u0648\u06b5\u0627\u0646", "name:ar": "\u0645\u0635\u0631\u0641 \u0643\u0648\u0644\u0627\u0646", "name:en": "Gulan Bank", "name:ku": "\u0628\u0627\u0646\u06a9\u06cc \u06af\u0648\u06b5\u0627\u0646"}}, {"type": "node", "id": 5108748725, "lat": 36.1678181, "lon": 43.9897842, "tags": {"addr:street": "Alban", "amenity": "bank", "name": "\u0628\u0627\u0646\u06a9\u06cc \u0633\u06d5\u0631\u0648\u06d5\u0631\u0627\u0646", "name:en": "\u0628\u0627\u0646\u06a9\u06cc \u0633\u06d5\u0631\u0648\u06d5\u0631\u0627\u0646"}}, {"type": "node", "id": 5360799324, "lat": 36.1976034, "lon": 43.9915973, "tags": {"addr:city": "\u0623\u0631\u0628\u064a\u0644", "addr:country": "IQ", "addr:district": "\u0642\u0636\u0627\u0621 \u0623\u0631\u0628\u064a\u0644", "addr:postcode": "44001", "addr:state": "\u0645\u062d\u0627\u0641\u0638\u0629 \u0623\u0631\u0628\u064a\u0644", "addr:street": "\u0634\u06d5\u0642\u0627\u0645\u06cc \u0626\u06d5\u062d\u0645\u06d5\u062f \u0695\u06c6\u0698\u0628\u06d5\u06cc\u0627\u0646\u06cc", "amenity": "bank", "email": "info@3.69.144.30", "name": "\u0628\u0627\u0646\u06a9\u06cc \u0628\u0627\u0632\u0631\u06af\u0627\u0646\u06cc \u0626\u06ce\u0631\u0627\u0642\u06cc", "name:ar": "\u0627\u0644\u0645\u0635\u0631\u0641 \u0627\u0644\u0639\u0631\u0627\u0642\u064a \u0644\u0644\u062a\u062c\u0627\u0631\u0629", "name:ckb": "\u0628\u0627\u0646\u06a9\u06cc \u0628\u0627\u0632\u0631\u06af\u0627\u0646\u06cc \u0626\u06ce\u0631\u0627\u0642\u06cc", "name:en": "Trade Bank Of Iraq", "opening_hours": "24/7", "phone": "+964 790 194 4250", "website": "https://tbi.com.iq/"}}, {"type": "node", "id": 5604914322, "lat": 36.2688486, "lon": 43.6322285, "tags": {"amenity": "bank", "name": "Samr muhamad"}}, {"type": "node", "id": 6218496185, "lat": 36.2305136, "lon": 43.9896363, "tags": {"addr:city": "\u0623\u0631\u0628\u064a\u0644", "addr:country": "IQ", "addr:district": "\u0642\u0636\u0627\u0621 \u0623\u0631\u0628\u064a\u0644", "addr:postcode": "44003", "addr:state": "\u0645\u062d\u0627\u0641\u0638\u0629 \u0623\u0631\u0628\u064a\u0644", "addr:street": "\u0634\u06d5\u0642\u0627\u0645\u06cc \u06a9\u0627\u0646\u06cc", "addr:subdistrict": "\u0646\u0627\u062d\u064a\u0629 \u0639\u0646\u0643\u0627\u0648\u0627", "addr:town": "\u0639\u0646\u0643\u0627\u0648\u0627", "amenity": "bank", "name": "\u0628\u0627\u0646\u06a9\u06cc \u0639\u06d5\u0646\u06a9\u0627\u0648\u06d5", "name:ar": "Ankawa Bank", "name:en": "Ankawa Bank"}}, {"type": "node", "id": 6370333385, "lat": 36.5055715, "lon": 43.5954657, "tags": {"amenity": "bank", "name": "\u0628\u0627\u0646\u06a9\u0627 \u0628\u06d5\u0631\u062f\u06d5\u0695\u06d5\u0634", "name:en": "Bardarash Bank"}}, {"type": "node", "id": 6423683185, "lat": 36.4704574, "lon": 43.7240859, "tags": {"amenity": "bank"}}, {"type": "node", "id": 6654442685, "lat": 36.231055, "lon": 43.9883545, "tags": {"addr:city": "\u0623\u0631\u0628\u064a\u0644", "addr:country": "IQ", "addr:district": "\u0642\u0636\u0627\u0621 \u0623\u0631\u0628\u064a\u0644", "addr:postcode": "44003", "addr:state": "\u0645\u062d\u0627\u0641\u0638\u0629 \u0623\u0631\u0628\u064a\u0644", "addr:subdistrict": "\u0646\u0627\u062d\u064a\u0629 \u0639\u0646\u0643\u0627\u0648\u0627", "addr:town": "\u0639\u0646\u0643\u0627\u0648\u0627", "amenity": "bank", "name": "FastPay \u0628\u0631\u06cc \u0643\u0627\u0631\u06cc"}}, {"type": "node", "id": 6654442785, "lat": 36.228214, "lon": 43.9916691, "tags": {"addr:city": "\u0623\u0631\u0628\u064a\u0644", "addr:country": "IQ", "addr:district": "\u0642\u0636\u0627\u0621 \u0623\u0631\u0628\u064a\u0644", "addr:postcode": "44003", "addr:state": "\u0645\u062d\u0627\u0641\u0638\u0629 \u0623\u0631\u0628\u064a\u0644", "addr:subdistrict": "\u0646\u0627\u062d\u064a\u0629 \u0639\u0646\u0643\u0627\u0648\u0627", "addr:town": "\u0639\u0646\u0643\u0627\u0648\u0627", "amenity": "bank", "name": "\u0628\u0631\u06cc\u06a9\u0627\u0631\u06cc \u0641\u0627\u0633\u062a\u067e\u06d5\u06cc"}}, {"type": "node", "id": 6918914086, "lat": 36.1766739, "lon": 43.9879063, "tags": {"amenity": "bank", "name:en": "Iraqi Ihtimad Bank"}}, {"type": "node", "id": 7178547285, "lat": 36.4566204, "lon": 43.5582285, "tags": {"addr:street": "Duhok-Hawler road", "amenity": "bank", "name:en": "speed camera 90 kmp"}}, {"type": "node", "id": 7470415588, "lat": 36.160712, "lon": 43.9623304, "tags": {"amenity": "bank", "name": "Al Bilad Islamic Bank"}}, {"type": "node", "id": 8260343517, "lat": 36.2201423, "lon": 43.9908937, "tags": {"addr:city": "\u0623\u0631\u0628\u064a\u0644", "addr:country": "IQ", "addr:district": "\u0642\u0636\u0627\u0621 \u0623\u0631\u0628\u064a\u0644", "addr:postcode": "44001", "addr:state": "\u0645\u062d\u0627\u0641\u0638\u0629 \u0623\u0631\u0628\u064a\u0644", "addr:street": "\u0634\u06d5\u0642\u0627\u0645\u06cc \u067e\u06ce\u0634\u06d5\u0648\u0627 \u0642\u0627\u0632\u06cc", "amenity": "bank", "name": "\u0627\u0644\u0645\u064e\u0635\u0631\u0650\u0641 \u0627\u0644\u0623\u0647\u0644\u064a \u0627\u0644\u0639\u0650\u0631\u0627\u0642\u0650\u064a", "name:en": "National Bank of Iraq", "opening_hours": "Su-Th 08:30-14:00", "phone": "+964 770 445 9088", "website": "https://www.nbi.iq/"}}, {"type": "node", "id": 10594718211, "lat": 36.1212049, "lon": 43.698178, "tags": {"amenity": "bank"}}, {"type": "node", "id": 10816818284, "lat": 36.1664278, "lon": 43.9714658, "tags": {"amenity": "bank", "name": "Nawroz Bank"}}, {"type": "way", "id": 397585963, "nodes": [4003734491, 4003734494, 4003734489, 4003734187, 4003734491], "tags": {"addr:city": "\u0623\u0631\u0628\u064a\u0644", "addr:country": "IQ", "addr:district": "\u0642\u0636\u0627\u0621 \u0623\u0631\u0628\u064a\u0644", "addr:postcode": "44001", "addr:state": "\u0645\u062d\u0627\u0641\u0638\u0629 \u0623\u0631\u0628\u064a\u0644", "addr:street": "\u0634\u06d5\u0642\u0627\u0645\u06cc \u06af\u0648\u06b5\u0627\u0646", "amenity": "bank", "building": "yes", "name": "Kaka banq - erbil"}}]}