{"version": 0.6, "generator": "Overpass API 0.7.61.5 4133829e", "osm3s": {"timestamp_osm_base": "2024-03-05T14:32:01Z", "copyright": "The data included in this document is from www.openstreetmap.org. The data is made available under ODbL."}, "elements": [{"type": "node", "id": 25085073, "lat": 56.1683199, "lon": 15.2850817, "tags": {"amenity": "ferry_terminal", "name": "Eken\u00e4s"}}, {"type": "node", "id": 250998985, "lat": 56.1600311, "lon": 14.8168148, "tags": {"amenity": "ferry_terminal", "ferry": "yes", "name": "Stillerydshamnen", "name:ru": "\u041f\u0430\u0440\u043e\u043c \u043d\u0430 \u041a\u043b\u0430\u0439\u043f\u0435\u0434\u0443", "public_transport": "station"}}, {"type": "node", "id": 281193933, "lat": 56.1242616, "lon": 15.5504671, "tags": {"amenity": "ferry_terminal", "ferry": "yes", "name": "V\u00e4gf\u00e4rja till Karlskrona", "public_transport": "station"}}, {"type": "node", "id": 544563197, "lat": 56.1934207, "lon": 15.5401322, "tags": {"amenity": "ferry_terminal", "ferry": "yes", "name": "\u00c5sl\u00e4tten", "public_transport": "stop_position"}}, {"type": "node", "id": 544567172, "lat": 56.1943767, "lon": 15.5399683, "tags": {"amenity": "ferry_terminal", "ferry": "yes", "name": "Wr\u00e4ng\u00f6", "public_transport": "stop_position"}}, {"type": "node", "id": 559951877, "lat": 56.1660523, "lon": 15.2854416, "tags": {"amenity": "ferry_terminal", "name": "Kar\u00f6n"}}, {"type": "node", "id": 866553013, "lat": 56.1814791, "lon": 15.0727379, "tags": {"amenity": "ferry_terminal", "ferry": "yes", "name": "F\u00e4rja till Tj\u00e4r\u00f6", "public_transport": "station"}}, {"type": "node", "id": 1416335278, "lat": 56.2006223, "lon": 15.5364758, "tags": {"amenity": "ferry_terminal", "ferry": "yes", "name": "N\u00e4ttraby", "public_transport": "stop_position"}}, {"type": "node", "id": 1416335288, "lat": 56.18568, "lon": 15.5604509, "tags": {"amenity": "ferry_terminal", "ferry": "yes", "name": "Sjuhalla", "public_transport": "stop_position"}}, {"type": "node", "id": 4066896345, "lat": 56.1605371, "lon": 14.8640112, "tags": {"amenity": "ferry_terminal", "ferry": "yes", "name": "Kastellet", "public_transport": "station"}}, {"type": "node", "id": 4226406587, "lat": 56.1212869, "lon": 14.9636899, "tags": {"amenity": "ferry_terminal"}}, {"type": "node", "id": 5766052521, "lat": 56.1668564, "lon": 14.9701007, "tags": {"amenity": "ferry_terminal"}}, {"type": "node", "id": 5766064505, "lat": 56.1674907, "lon": 14.8622281, "tags": {"amenity": "ferry_terminal"}}, {"type": "node", "id": 10044348553, "lat": 56.1024673, "lon": 15.4746794, "tags": {"amenity": "ferry_terminal", "ferry": "yes", "name": "Garpahamnen", "public_transport": "stop_position"}}, {"type": "node", "id": 10621526333, "lat": 56.1588031, "lon": 14.819064, "tags": {"amenity": "ferry_terminal", "ferry": "yes", "public_transport": "station"}}, {"type": "node", "id": 10642662552, "lat": 56.1592451, "lon": 14.8173101, "tags": {"amenity": "ferry_terminal", "ferry": "yes", "public_transport": "station"}}]}