{"version": 0.6, "generator": "Overpass API 0.7.61.5 4133829e", "osm3s": {"timestamp_osm_base": "2024-03-06T11:17:45Z", "copyright": "The data included in this document is from www.openstreetmap.org. The data is made available under ODbL."}, "elements": [{"type": "node", "id": 2482620209, "lat": 35.414232, "lon": 43.1164346, "tags": {"alt_name": "\u0642\u0631\u064a\u0629 \u062a\u0644\u0648\u0644 \u0627\u0644\u0628\u0627\u062c", "int_name": "Qaryat Tul\u016bl al B\u0101j, \u0642\u0631\u064a\u0629 \u062a\u0644\u0648\u0644 \u0627\u0644\u0628\u0627\u062c, Qaryat Tulul al Baj, \u0642\u0631\u064a\u0629 \u062a\u0644\u0648\u0644 \u0627\u0644\u0628\u0627\u062c", "name": "\u0642\u0631\u064a\u0629 \u062a\u0644\u0648\u0644 \u0627\u0644\u0628\u0627\u062c", "name:ar": "\u0642\u0631\u064a\u0629 \u062a\u0644\u0648\u0644 \u0627\u0644\u0628\u0627\u062c", "name:ar1": "\u0642\u0631\u064a\u0629 \u062a\u0644\u0648\u0644 \u0627\u0644\u0628\u0627\u062c", "name:de": "Qaryat Tulul al Baj", "name:en": "Tulul Al Baj Village", "name:fr": "Qaryat Tulul al Baj", "place": "village"}}, {"type": "node", "id": 2482620221, "lat": 35.4170133, "lon": 43.1132497, "tags": {"alt_name": "\u062a\u0644\u0648\u0644 \u0627\u0644\u0628\u0642", "int_name": "Tul\u016bl al Baqq, Tul\u016bl al Bug, Tul\u016bl al Buq, Tulul el Baq, Tulul al Baqq, Tulul al Bug, Tulul al Buq, Tulul el Baq", "name": "\u062a\u0644\u0648\u0644 \u0627\u0644\u0628\u0627\u062c", "name:ar": "\u0642\u0631\u064a\u0629 \u062a\u0644\u0648\u0644 \u0627\u0644\u0628\u0627\u062c", "name:ar1": "\u062a\u0644\u0648\u0644 \u0627\u0644\u0628\u0642", "name:de": "Tulul al Baqq", "name:en": "Tulul Al Baj Village", "name:fr": "Tulul al Baqq", "place": "village"}}, {"type": "node", "id": 2482621183, "lat": 35.392984, "lon": 43.264254, "tags": {"alt_name": "\u0627\u0644\u062e\u0627\u0646\u0648\u0643\u064a\u0629", "int_name": "Al Kh\u0101n\u016bg\u012byah, Al Kh\u0101n\u016bk\u012byah, \u0627\u0644\u062e\u0627\u0646\u0648\u0643\u064a\u0629, \u0627\u0644\u062e\u0627\u0646\u0648\u06af\u064a\u0629, Al Khanugiyah, Al Khanukiyah, \u0627\u0644\u062e\u0627\u0646\u0648\u0643\u064a\u0629, \u0627\u0644\u062e\u0627\u0646\u0648\u06af\u064a\u0629", "name": "\u0627\u0644\u062e\u0627\u0646\u0648\u0643\u0629", "name:ar": "\u0627\u0644\u062e\u0627\u0646\u0648\u0643\u064a\u0629", "name:ar1": "\u0627\u0644\u062e\u0627\u0646\u0648\u0643\u064a\u0629", "name:de": "Al Khanugiyah", "name:en": "Al Khanugiyah", "name:fr": "Al Khanugiyah", "place": "village"}}, {"type": "node", "id": 2482622114, "lat": 35.501896, "lon": 43.422024, "tags": {"alt_name": "\u0623\u0645 \u0643\u0647\u0648\u0629", "int_name": "Umm Gahwah, \u0627\u0645 \u06af\u0647\u0648\u0629, Umm Gahwah, \u0627\u0645 \u06af\u0647\u0648\u0629", "name": "\u0623\u0645 \u0643\u0647\u0648\u0629", "name:ar": "\u0623\u0645 \u0642\u0647\u0648\u0629", "name:ar1": "\u0623\u0645 \u0643\u0647\u0648\u0629", "name:de": "Umm Gahwah", "name:en": "Umm Gahwah", "name:fr": "Umm Gahwah", "place": "village"}}, {"type": "node", "id": 2482622221, "lat": 35.541896, "lon": 43.426557, "tags": {"alt_name": "\u0639\u0632\u064a\u0632 \u0639\u0628\u062f\u0629", "int_name": "Az\u012bz Abdah, \u0639\u0632\u064a\u0632 \u0639\u0628\u062f\u0629, Aziz Abdah, \u0639\u0632\u064a\u0632 \u0639\u0628\u062f\u0629", "name": "\u0639\u0632\u064a\u0632 \u0639\u0628\u062f\u0629", "name:de": "Aziz Abdah", "name:en": "Aziz Abdah", "name:fr": "Aziz Abdah", "place": "village"}}, {"type": "node", "id": 2482622222, "lat": 35.5406163, "lon": 43.427096, "tags": {"alt_name": "\u0639\u0632\u064a\u0632 \u0639\u0628\u064a\u062f\u0629", "int_name": "Az\u012bz Ubaydah, Aziz Ubaydah", "name": "\u0639\u0632\u064a\u0632 \u0639\u0628\u064a\u062f\u0629", "name:de": "Aziz Ubaydah", "name:en": "Aziz Ubaydah", "name:fr": "Aziz Ubaydah", "place": "village"}}, {"type": "node", "id": 2482622292, "lat": 35.5284872, "lon": 43.4115992, "tags": {"alt_name": "\u0642\u0631\u064a\u0629 \u062e\u0631\u0628\u0629 \u0634\u0646\u0627\u062a", "name": "\u0642\u0631\u064a\u0629 \u062e\u0631\u0628\u0629 \u0634\u0646\u0627\u062a", "name:ar": "\u0642\u0631\u064a\u0629 \u062e\u0631\u0628\u0629 \u0634\u0646\u0627\u062a", "name:de": "Qaryat Khirbat Shinat", "name:en": "Qaryat Khirbat Shinat", "name:fr": "Qaryat Khirbat Shinat", "place": "village"}}, {"type": "node", "id": 2482622297, "lat": 35.521354, "lon": 43.378301, "tags": {"name": "\u0642\u0631\u064a\u0629 \u0627\u0644\u0627\u0643\u0631\u062d", "place": "village"}}, {"type": "node", "id": 2482622958, "lat": 35.494261, "lon": 43.446961, "tags": {"admin_level": "9", "alt_name": "\u062d\u06d5\u0631\u0641\u0648\u0634\u06cc\u06d5", "name": "\u062d\u06d5\u0631\u0641\u0648\u0634\u06cc\u06d5", "name:ckb": "\u062d\u06d5\u0631\u0641\u0648\u0634\u06cc\u06d5", "name:de": "Harfushiya", "name:en": "Harfushiya", "name:fr": "Harfushiya", "place": "village"}}, {"type": "node", "id": 2482622959, "lat": 35.54076, "lon": 43.462924, "tags": {"alt_name": "\u0642\u0631\u064a\u0629 \u0627\u0644\u062e\u0636\u0631\u0629", "name": "\u0642\u0631\u064a\u0629 \u0627\u0644\u062e\u0636\u0631\u0629", "name:ar": "\u0642\u0631\u064a\u0629 \u0627\u0644\u062e\u0636\u0631\u0629", "name:de": "Qaryat al Khudrah", "name:en": "Qaryat al Khudrah", "name:fr": "Qaryat al Khudrah", "place": "village"}}, {"type": "node", "id": 2482624895, "lat": 35.5688152, "lon": 43.4279516, "tags": {"alt_name": "\u0642\u0631\u064a\u0629 \u0639\u062f\u0644\u0629", "int_name": "Adala, Qaryat Adlah, \u0642\u0631\u064a\u0629 \u0639\u062f\u0644\u0629, Adala, Qaryat Adlah, \u0642\u0631\u064a\u0629 \u0639\u062f\u0644\u0629", "name": "\u0642\u0631\u064a\u0629 \u0639\u062f\u0644\u0629", "name:ar": "\u0642\u0631\u064a\u0629 \u0639\u062f\u0644\u0629", "name:ar1": "\u0642\u0631\u064a\u0629 \u0639\u062f\u0644\u0629", "name:de": "Adala", "name:en": "Adala", "name:fr": "Adala", "place": "village"}}, {"type": "node", "id": 2482642272, "lat": 35.622368, "lon": 43.427277, "tags": {"alt_name": "\u0633\u0631\u0646\u0627\u062d \u0635\u063a\u0631\u06cc", "int_name": "Sarn\u0101\u1e29 \u015eughr\u00e1, Sarn\u0101j \u015eagh\u012br, Srnaj, \u0633\u0631\u0646\u0627\u062d \u0635\u063a\u0631\u0649, Sarnah Sughra, Sarnaj Saghir, Srnaj, \u0633\u0631\u0646\u0627\u062d \u0635\u063a\u0631\u0649", "name": "\u0633\u0631\u0646\u0627\u062d \u0635\u063a\u0631\u0649", "name:de": "Sarnah Sughra", "name:en": "Sarnah Sughra", "name:fr": "Sarnah Sughra", "place": "village"}}, {"type": "node", "id": 2482642895, "lat": 35.543777, "lon": 43.270206, "tags": {"alt_name": "\u0642\u0631\u064a\u0629 \u0639\u0648\u064a\u062c\u0644\u0629 \u062c\u0646\u0648\u0628\u064a", "int_name": "Qaryat Uwayjilah Jan\u016bb\u012b, \u0642\u0631\u064a\u0629 \u0639\u0648\u064a\u062c\u0644\u0629 \u062c\u0646\u0648\u0628\u064a, Qaryat Uwayjilah Janubi, \u0642\u0631\u064a\u0629 \u0639\u0648\u064a\u062c\u0644\u0629 \u062c\u0646\u0648\u0628\u064a", "name": "\u0642\u0631\u064a\u0629 \u0639\u0648\u064a\u062c\u0644\u0629 \u062c\u0646\u0648\u0628\u064a", "name:ar": "\u0627\u0644\u0647\u064a\u062c\u0644", "name:ar1": "\u0642\u0631\u064a\u0629 \u0639\u0648\u064a\u062c\u0644\u0629 \u062c\u0646\u0648\u0628\u064a", "name:de": "Qaryat Uwayjilah Janubi", "name:en": "Qaryat Uwayjilah Janubi", "name:fr": "Qaryat Uwayjilah Janubi", "place": "village"}}, {"type": "node", "id": 2482642898, "lat": 35.5523035, "lon": 43.2662442, "tags": {"alt_name": "\u0627\u0644\u062d\u0627\u062c \u062e\u0636\u064a\u0631 \u0645\u062d\u0645\u062f\u0627\u0644\u062c\u0627\u0633\u0645", "int_name": "\u0627\u0644\u062d\u0627\u062c \u062e\u0636\u064a\u0631 \u0645\u062d\u0645\u062f\u0627\u0644\u062c\u0627\u0633\u0645, \u0627\u0644\u062d\u0627\u062c \u062e\u0636\u064a\u0631 \u0645\u062d\u0645\u062f\u0627\u0644\u062c\u0627\u0633\u0645", "name": "\u0627\u0644\u062d\u0627\u062c \u062e\u0636\u064a\u0631 \u0645\u062d\u0645\u062f\u0627\u0644\u062c\u0627\u0633\u0645", "name:ar": "\u0627\u0644\u062d\u0627\u062c \u062e\u0636\u064a\u0631 \u0645\u062d\u0645\u062f\u0627\u0644\u062c\u0627\u0633\u0645", "name:ar1": "\u0627\u0644\u062d\u0627\u062c \u062e\u0636\u064a\u0631 \u0645\u062d\u0645\u062f\u0627\u0644\u062c\u0627\u0633\u0645", "name:de": "\u0627\u0644\u062d\u0627\u062c \u062e\u0636\u064a\u0631 \u0645\u062d\u0645\u062f\u0627\u0644\u062c\u0627\u0633\u0645", "name:en": "Hajj Khadir Muhammad Al-Jassem", "name:fr": "\u0627\u0644\u062d\u0627\u062c \u062e\u0636\u064a\u0631 \u0645\u062d\u0645\u062f\u0627\u0644\u062c\u0627\u0633\u0645", "place": "village"}}, {"type": "node", "id": 2482643716, "lat": 35.6242547, "lon": 43.2657791, "tags": {"alt_name": "\u0642\u0631\u064a\u0629 \u0625\u0643\u0646\u064a\u0637\u0631\u0629", "int_name": "Ignay\u0163irah, Qaryat Iknay\u0163irah, \u0642\u0631\u064a\u0629 \u0627\u0643\u0646\u064a\u0637\u0631\u0647, Ignaytirah, Qaryat Iknaytirah, \u0642\u0631\u064a\u0629 \u0627\u0643\u0646\u064a\u0637\u0631\u0647", "name": "\u0642\u0631\u064a\u0629 \u0625\u0643\u0646\u064a\u0637\u0631\u0629", "name:ar": "\u0642\u0631\u064a\u0629 \u0625\u0643\u0646\u064a\u0637\u0631\u0629", "name:ar1": "\u0642\u0631\u064a\u0629 \u0625\u0643\u0646\u064a\u0637\u0631\u0629", "name:de": "Ignaytirah", "name:en": "Ignaytirah", "name:fr": "Ignaytirah", "place": "village"}}, {"type": "node", "id": 2482643719, "lat": 35.6003778, "lon": 43.2674994, "tags": {"alt_name": "\u0642\u0631\u064a\u0629 \u0627\u0644\u062d\u0645\u064a\u0631", "int_name": "Qaryat al \u1e28umayr, \u0642\u0631\u064a\u0629 \u0627\u0644\u062d\u0645\u064a\u0631, Qaryat al Humayr, \u0642\u0631\u064a\u0629 \u0627\u0644\u062d\u0645\u064a\u0631", "name": "\u0642\u0631\u064a\u0629 \u0627\u0644\u062d\u0645\u064a\u0631", "name:ar": "\u0642\u0631\u064a\u0629 \u0627\u0644\u062d\u0645\u064a\u0631", "name:ar1": "\u0642\u0631\u064a\u0629 \u0627\u0644\u062d\u0645\u064a\u0631", "name:de": "Qaryat al Humayr", "name:en": "Qaryat al Humayr", "name:fr": "Qaryat al Humayr", "place": "village"}}, {"type": "node", "id": 2482644052, "lat": 35.497347, "lon": 43.235115, "tags": {"alt_name": "\u0623\u062c\u0645\u064a\u0644\u0647", "int_name": "Hon, Hun\u012b, Jam\u012blah H\u016bn, \u062c\u0645\u064a\u0644\u0647 \u0647\u0648\u0646, Hon, Huni, Jamilah Hun, \u062c\u0645\u064a\u0644\u0647 \u0647\u0648\u0646", "name": "\u0623\u062c\u0645\u064a\u0644\u0647", "name:ar": "\u0623\u062c\u0645\u064a\u0644\u0647", "name:ar1": "\u0623\u062c\u0645\u064a\u0644\u0647", "name:de": "Ejumailah", "name:en": "Ejumailah", "name:fr": "Ejumailah", "place": "village"}}, {"type": "node", "id": 2482644188, "lat": 35.497952, "lon": 43.276886, "tags": {"alt_name": "\u0643\u0633\u0628\u062f\u0631\u0629", "int_name": "Kasbadrah, \u0643\u0633\u0628\u062f\u0631\u0647, Kasbadrah, \u0643\u0633\u0628\u062f\u0631\u0647", "name": "\u0643\u0633\u0628\u062f\u0631\u0629", "name:ar": "\u0642\u0631\u064a\u0629 \u0627\u0644\u0646\u0627\u064a\u0641\u0647", "name:ar1": "\u0643\u0633\u0628\u062f\u0631\u0629", "name:de": "Kasbadrah", "name:en": "Kasbadrah", "name:fr": "Kasbadrah", "place": "village"}}, {"type": "node", "id": 2482644190, "lat": 35.5074, "lon": 43.271788, "tags": {"alt_name": "\u0645\u062d\u0645\u062f \u062d\u0645\u0648\u062f", "int_name": "Mu\u1e29ammad \u1e28am\u016bd, \u0645\u062d\u0645\u062f \u062d\u0645\u0648\u062f, Muhammad Hamud, \u0645\u062d\u0645\u062f \u062d\u0645\u0648\u062f", "name": "\u0645\u062d\u0645\u062f \u062d\u0645\u0648\u062f", "name:ar": "\u0642\u0631\u064a\u0629 \u0627\u0644\u062d\u0645\u0648\u062f", "name:ar1": "\u0645\u062d\u0645\u062f \u062d\u0645\u0648\u062f", "name:de": "Muhammad Hamud", "name:en": "Muhammad Hamud", "name:fr": "Muhammad Hamud", "place": "village"}}, {"type": "node", "id": 2482644192, "lat": 35.5378891, "lon": 43.2244724, "tags": {"alt_name": "\u0642\u0631\u064a\u0629 \u064a\u0639\u0627\u062c\u0629", "int_name": "Qaryat Ya\u0101jah, \u0642\u0631\u064a\u0629 \u064a\u0639\u0627\u062c\u0629, Qaryat Yaajah, \u0642\u0631\u064a\u0629 \u064a\u0639\u0627\u062c\u0629", "name": "\u0642\u0631\u064a\u0629 \u064a\u0639\u0627\u062c\u0629", "name:ar": "\u0642\u0631\u064a\u0629 \u0628\u0639\u0627\u062c\u0647", "name:ar1": "\u0642\u0631\u064a\u0629 \u064a\u0639\u0627\u062c\u0629", "name:de": "Qaryat Baajah", "name:en": "Qaryat Yaajah", "name:fr": "Qaryat Yaajah", "place": "village"}}, {"type": "node", "id": 2482644198, "lat": 35.5183136, "lon": 43.2338281, "tags": {"alt_name:en": "Sharq\u0101t, Sharqat, Shirqat", "alt_name:ko": "\uc2dc\ub974\uae4c\ub728;\uc2dc\ub974\uce74\ud2b8;\uc557 \uc2dc\ub974\uae4c\ub728;\uc557 \uc2dc\ub974\uce74\ud2b8;\uc0e4\ub974\uae4c\ub728;\uc26c\ub974\uae4c\ub728;\uc557 \uc26c\ub974\uae4c\ub728", "capital": "6", "int_name": "Sharqat - \u0627\u0644\u0634\u0631\u0642\u0627\u0637", "name": "\u0627\u0644\u0634\u0631\u0642\u0627\u0637", "name:ar": "\u0627\u0644\u0634\u0631\u0642\u0627\u0637", "name:ckb": "\u0634\u0631\u06af\u0627\u062a", "name:de": "Sharqat", "name:en": "Sharqat", "name:fr": "Al Charkat", "name:ko": "\uc557 \uc0e4\ub974\uae4c\ub728", "place": "town", "wikidata": "Q4523051", "wikipedia": "en:Al-Shirqat"}}, {"type": "node", "id": 2482644199, "lat": 35.466905, "lon": 43.282839, "tags": {"alt_name": "\u0635\u062f\u064a\u0631\u0629", "int_name": "\u015eudayrah, \u0633\u062f\u064a\u0631\u0629, Sudayrah,\u0633\u062f\u064a\u0631\u0629", "name": "\u0635\u062f\u064a\u0631\u0629", "name:ar": "\u0633\u062f\u064a\u0631\u0629", "name:ar1": "\u0635\u062f\u064a\u0631\u0629", "name:de": "Sudayrah", "name:en": "Sudayrah", "name:fr": "Sudayrah", "place": "village"}}, {"type": "node", "id": 2482644397, "lat": 35.5859455, "lon": 43.2342698, "tags": {"alt_name": "\u0642\u0631\u064a\u0629 \u0627\u0644\u062d\u0648\u0631\u064a\u0629 \u0627\u0644\u0642\u062f\u064a\u0645\u0647", "int_name": "\u0642\u0631\u064a\u0629 \u0627\u0644\u062d\u0648\u0631\u064a\u0629 \u0627\u0644\u0642\u062f\u064a\u0645\u0647, \u0642\u0631\u064a\u0629 \u0627\u0644\u062d\u0648\u0631\u064a\u0629 \u0627\u0644\u0642\u062f\u064a\u0645\u0647", "name": "\u0642\u0631\u064a\u0629 \u0627\u0644\u062d\u0648\u0631\u064a\u0629 \u0627\u0644\u0642\u062f\u064a\u0645\u0647", "name:ar": "\u0642\u0631\u064a\u0629 \u0627\u0644\u062d\u0648\u0631\u064a\u0629 \u0627\u0644\u0642\u062f\u064a\u0645\u0647", "name:ar1": "\u0642\u0631\u064a\u0629 \u0627\u0644\u062d\u0648\u0631\u064a\u0629 \u0627\u0644\u0642\u062f\u064a\u0645\u0647", "place": "village"}}, {"type": "node", "id": 2482644840, "lat": 35.622338, "lon": 43.22887, "tags": {"alt_name": "\u0642\u0631\u064a\u0629 \u0627\u0644\u0639\u064a\u062b\u0629", "int_name": "Qaryat al Aythah, \u0642\u0631\u064a\u0629 \u0627\u0644\u0639\u064a\u062b\u0629, Qaryat al Aythah, \u0642\u0631\u064a\u0629 \u0627\u0644\u0639\u064a\u062b\u0629", "name": "\u0642\u0631\u064a\u0629 \u0627\u0644\u0639\u064a\u062b\u0629", "name:ar": "\u0642\u0631\u064a\u0629 \u0627\u0644\u0639\u064a\u062b\u0629", "name:ar1": "\u0642\u0631\u064a\u0629 \u0627\u0644\u0639\u064a\u062b\u0629", "name:de": "Qaryat al Aythah", "name:en": "Qaryat al Aythah", "name:fr": "Qaryat al Aythah", "place": "village"}}, {"type": "node", "id": 2482644843, "lat": 35.40784, "lon": 43.291074, "tags": {"alt_name": "\u0635\u062f\u064a\u0631\u0629", "int_name": "Sudairah, \u015eudayrah, \u0633\u062f\u064a\u0631\u0629, Sudairah, Sudayrah, \u0635\u062f\u064a\u0631\u0629", "name": "\u0635\u062f\u064a\u0631\u0629", "name:ar": "\u0633\u062f\u064a\u0631\u0629", "name:ar1": "\u0635\u062f\u064a\u0631\u0629", "name:de": "Sudairah", "name:en": "Sudairah", "name:fr": "Sudairah", "place": "village"}}, {"type": "node", "id": 2482644914, "lat": 35.4390273, "lon": 43.384957, "tags": {"alt_name": "\u062e\u0631\u0628\u0647 \u0637\u0644\u0628", "name": "\u062e\u0631\u0628\u0629 \u0637\u0644\u0628", "name:ar1": "\u062e\u0631\u0628\u0647 \u0637\u0644\u0628", "name:ckb": "\u062e\u0631\u0628\u06d5 \u062a\u06d5\u06b5\u06d5\u0628", "name:en": "Khrba Talab", "place": "village"}}, {"type": "node", "id": 2488246703, "lat": 35.45389, "lon": 43.4348527, "tags": {"alt_name": "\u0627\u0644\u0634\u0648\u0643", "name": "\u0627\u0644\u0634\u0648\u0643", "name:ar": "\u0627\u0644\u0634\u0648\u0643", "name:de": "Ash Shawk", "name:en": "Ash Shawk", "name:fr": "Ash Shawk", "place": "village"}}, {"type": "node", "id": 2488246886, "lat": 35.4502124, "lon": 43.4125423, "tags": {"alt_name": "\u063a\u062f\u064a\u0631", "name": "\u063a\u062f\u064a\u0631", "name:ar": "\u063a\u062f\u064a\u0631", "name:de": "Ghadir", "name:en": "Ghadir", "name:fr": "Ghadir", "place": "village"}}, {"type": "node", "id": 2489244148, "lat": 35.2874695, "lon": 43.1111554, "tags": {"alt_name": "\u0627\u0644\u0646\u0627\u064a\u0641\u0629", "int_name": "An N\u0101yfah, \u0627\u0644\u0646\u0627\u064a\u0641\u0629, An Nayfah, \u0627\u0644\u0646\u0627\u064a\u0641\u0629", "name": "\u0627\u0644\u0646\u0627\u064a\u0641\u0629", "name:ar": "\u0627\u0644\u0646\u0627\u064a\u0641\u0629", "name:ar1": "\u0627\u0644\u0646\u0627\u064a\u0641\u0629", "name:de": "An Nayfah", "name:en": "An Nayfah", "name:fr": "An Nayfah", "place": "village"}}, {"type": "node", "id": 2489244149, "lat": 35.342088, "lon": 43.121743, "tags": {"alt_name": "\u0639\u0631\u0628 \u0641\u0631\u064a\u062c \u0646\u0632\u0627\u0644", "int_name": "Arab Furayj Naz\u0101l, \u0639\u0631\u0628 \u0641\u0631\u064a\u062c \u0646\u0632\u0627\u0644, Arab Furayj Nazal, \u0639\u0631\u0628 \u0641\u0631\u064a\u062c \u0646\u0632\u0627\u0644", "name": "\u0639\u0631\u0628 \u0641\u0631\u064a\u062c \u0646\u0632\u0627\u0644", "name:ar": "\u0639\u0631\u0628 \u0641\u0631\u064a\u062c \u0646\u0632\u0627\u0644", "name:ar1": "\u0639\u0631\u0628 \u0641\u0631\u064a\u062c \u0646\u0632\u0627\u0644", "name:de": "Arab Furayj Nazal", "name:en": "Arab Furayj Nazal", "name:fr": "Arab Furayj Nazal", "place": "village"}}, {"type": "node", "id": 2489244150, "lat": 35.32931, "lon": 43.122864, "tags": {"alt_name": "\u0639\u0631\u0628 \u062d\u062f\u064a\u0628 \u0646\u0632\u0627\u0644", "int_name": "Arab \u1e28udayb Naz\u0101l, \u0639\u0631\u0628 \u062d\u062f\u064a\u0628 \u0646\u0632\u0627\u0644, Arab Hudayb Nazal, \u0639\u0631\u0628 \u062d\u062f\u064a\u0628 \u0646\u0632\u0627\u0644", "name": "\u0639\u0631\u0628 \u062d\u062f\u064a\u0628 \u0646\u0632\u0627\u0644", "name:ar": "\u0639\u0631\u0628 \u062d\u062f\u064a\u0628 \u0646\u0632\u0627\u0644", "name:ar1": "\u0639\u0631\u0628 \u062d\u062f\u064a\u0628 \u0646\u0632\u0627\u0644", "name:de": "Arab Hudayb Nazal", "name:en": "Arab Hudayb Nazal", "name:fr": "Arab Hudayb Nazal", "place": "village"}}, {"type": "node", "id": 2489244151, "lat": 35.313608, "lon": 43.1590479, "tags": {"alt_name": "\u063a\u062f\u064a\u0631 \u0634\u0627\u0637\u0626", "int_name": "Ghad\u012br Sh\u0101\u0163i, \u063a\u062f\u064a\u0631 \u0634\u0627\u0637\u0626, Ghadir Shati, \u063a\u062f\u064a\u0631 \u0634\u0627\u0637\u0626", "name": "\u063a\u062f\u064a\u0631 \u0634\u0627\u0637\u0626", "name:ar": "\u063a\u062f\u064a\u0631 \u0634\u0627\u0637\u0626", "name:ar1": "\u063a\u062f\u064a\u0631 \u0634\u0627\u0637\u0626", "name:de": "Ghadir Shati", "name:en": "Ghadir Shati", "name:fr": "Ghadir Shati", "place": "village"}}, {"type": "node", "id": 2489244152, "lat": 35.306307, "lon": 43.110173, "tags": {"alt_name": "\u063a\u064a\u0633", "int_name": "Ghays, \u063a\u064a\u0633, Ghays, \u063a\u064a\u0633", "name": "\u063a\u064a\u0633", "name:ar": "\u063a\u064a\u0633", "name:ar1": "\u063a\u064a\u0633", "name:de": "Ghays", "name:en": "Ghays", "name:fr": "Ghays", "place": "village"}}, {"type": "node", "id": 2489244153, "lat": 35.34099, "lon": 43.166395, "tags": {"alt_name": "\u062d\u0645\u062f \u0627\u0644\u0637\u064a\u0644\u0648\u064a", "int_name": "Awad Altaiawy Village \u0639\u0648\u0627\u062f \u0627\u0644\u0637\u064a\u0627\u0648\u064a", "name": "\u062d\u0645\u062f \u0627\u0644\u0637\u064a\u0644\u0648\u064a", "name:ar": "\u0642\u0631\u064a\u0629 \u0639\u0648\u0627\u062f \u0627\u0644\u0637\u064a\u0627\u0648\u064a", "name:ar1": "\u062d\u0645\u062f \u0627\u0644\u0637\u064a\u0644\u0648\u064a", "name:de": "Awad Altaiawy Village", "name:en": "Awad Altaiawy Village", "name:fr": "Awad Altaiawy Village", "name:ku": "\u0639\u0648\u0627\u062f \u0637\u064a\u0627\u0648\u064a", "place": "village"}}, {"type": "node", "id": 2489244156, "lat": 35.2932, "lon": 43.187889, "tags": {"alt_name": "\u0645\u062d\u0644 \u062e\u0644\u064a\u0641", "int_name": "Ma\u1e29al Khulayf, \u0645\u062d\u0644 \u062e\u0644\u064a\u0641, Mahal Khulayf, \u0645\u062d\u0644 \u062e\u0644\u064a\u0641", "name": "\u0645\u062d\u0644 \u062e\u0644\u064a\u0641", "name:ar": "\u0645\u062d\u0644 \u062e\u0644\u064a\u0641", "name:ar1": "\u0645\u062d\u0644 \u062e\u0644\u064a\u0641", "name:de": "Mahal Khulayf", "name:en": "Mahal Khulayf", "name:fr": "Mahal Khulayf", "place": "village"}}, {"type": "node", "id": 2489244158, "lat": 35.339319, "lon": 43.175424, "tags": {"alt_name": "\u0645\u0634\u064a\u062a", "int_name": "Mushayt, \u0645\u064f\u0634\u064a\u062a, Mushayt, \u0645\u0634\u064a\u062a", "name": "\u0645\u0634\u064a\u062a", "name:ar": "\u0645\u0634\u064a\u062a", "name:ar1": "\u0645\u0634\u064a\u062a", "name:de": "Mushayt", "name:en": "Mushayt", "name:fr": "Mushayt", "place": "village"}}, {"type": "node", "id": 2489244159, "lat": 35.282401, "lon": 43.166835, "tags": {"alt_name": "\u0642\u0631\u064a\u0629 \u0623\u0631\u0648\u0646\u064a\u0646 \u0647\u0627\u062f\u064a", "int_name": "Qaryat Ar\u016bn\u012bn H\u0101d\u012b, \u0642\u0631\u064a\u0629 \u0627\u0631\u0648\u0646\u064a\u0646 \u0647\u0627\u062f\u064a, Qaryat Arunin Hadi, \u0642\u0631\u064a\u0629 \u0627\u0631\u0648\u0646\u064a\u0646 \u0647\u0627\u062f\u064a", "name": "\u0642\u0631\u064a\u0629 \u0623\u0631\u0648\u0646\u064a\u0646 \u0647\u0627\u062f\u064a", "name:ar": "\u0642\u0631\u064a\u0629 \u0623\u0631\u0648\u0646\u064a\u0646 \u0647\u0627\u062f\u064a", "name:ar1": "\u0642\u0631\u064a\u0629 \u0623\u0631\u0648\u0646\u064a\u0646 \u0647\u0627\u062f\u064a", "name:de": "Qaryat Arunin Hadi", "name:en": "Qaryat Arunin Hadi", "name:fr": "Qaryat Arunin Hadi", "place": "village"}}, {"type": "node", "id": 2489244160, "lat": 35.346343, "lon": 43.119294, "tags": {"alt_name": "\u0642\u0631\u064a\u0629 \u0641\u0631\u064a\u062c \u0646\u0632\u0627\u0644", "int_name": "Qaryat Furayj Naz\u0101l, \u0642\u0631\u064a\u0629 \u0641\u0631\u064a\u062c \u0646\u0632\u0627\u0644, Qaryat Furayj Nazal, \u0642\u0631\u064a\u0629 \u0641\u0631\u064a\u062c \u0646\u0632\u0627\u0644", "name": "\u0642\u0631\u064a\u0629 \u0641\u0631\u064a\u062c \u0646\u0632\u0627\u0644", "name:ar": "\u0642\u0631\u064a\u0629 \u0641\u0631\u064a\u062c \u0646\u0632\u0627\u0644", "name:ar1": "\u0642\u0631\u064a\u0629 \u0641\u0631\u064a\u062c \u0646\u0632\u0627\u0644", "name:de": "Qaryat Furayj Nazal", "name:en": "Qaryat Furayj Nazal", "name:fr": "Qaryat Furayj Nazal", "place": "village"}}, {"type": "node", "id": 2489244161, "lat": 35.292957, "lon": 43.163516, "tags": {"alt_name": "\u0642\u0631\u064a\u0629 \u0645\u0633\u0647\u0648\u062c", "int_name": "Qaryat Masih\u016bj, \u0642\u0631\u064a\u0629 \u0645\u0633\u0647\u0648\u062c, Qaryat Masihuj, \u0642\u0631\u064a\u0629 \u0645\u0633\u0647\u0648\u062c", "name": "\u0642\u0631\u064a\u0629 \u0645\u0633\u0647\u0648\u062c", "name:ar": "\u0642\u0631\u064a\u0629 \u0645\u0633\u0647\u0648\u062c", "name:ar1": "\u0642\u0631\u064a\u0629 \u0645\u0633\u0647\u0648\u062c", "name:de": "Qaryat Masihuj", "name:en": "Qaryat Masihuj", "name:fr": "Qaryat Masihuj", "place": "village"}}, {"type": "node", "id": 2489244162, "lat": 35.341358, "lon": 43.153443, "tags": {"alt_name": "\u0642\u0631\u064a\u0629 \u0646\u0635\u064a\u0641 \u062c\u0627\u0633\u0645", "int_name": "Qaryat Na\u015f\u012bf J\u0101sim, \u0642\u0631\u064a\u0629 \u0646\u0635\u064a\u0641 \u062c\u0627\u0633\u0645, Qaryat Nasif Jasim, \u0642\u0631\u064a\u0629 \u0646\u0635\u064a\u0641 \u062c\u0627\u0633\u0645", "name": "\u0642\u0631\u064a\u0629 \u0646\u0635\u064a\u0641 \u062c\u0627\u0633\u0645", "name:ar": "\u0642\u0631\u064a\u0629 \u0646\u0635\u064a\u0641 \u062c\u0627\u0633\u0645", "name:ar1": "\u0642\u0631\u064a\u0629 \u0646\u0635\u064a\u0641 \u062c\u0627\u0633\u0645", "name:de": "Qaryat Nasif Jasim", "name:en": "Qaryat Nasif Jasim", "name:fr": "Qaryat Nasif Jasim", "place": "village"}}, {"type": "node", "id": 2489244163, "lat": 35.320435, "lon": 43.189551, "tags": {"alt_name": "\u0642\u0631\u064a\u0629 \u0633\u0639\u0648\u062f \u062d\u0633\u064a\u0646", "int_name": "Qaryat Su\u016bd \u1e28usayn, \u0642\u0631\u064a\u0629 \u0633\u0639\u0648\u062f \u062d\u0633\u064a\u0646, Qaryat Suud Husayn, \u0642\u0631\u064a\u0629 \u0633\u0639\u0648\u062f \u062d\u0633\u064a\u0646", "name": "\u0642\u0631\u064a\u0629 \u0633\u0639\u0648\u062f \u062d\u0633\u064a\u0646", "name:ar": "\u0642\u0631\u064a\u0629 \u0633\u0639\u0648\u062f \u062d\u0633\u064a\u0646", "name:ar1": "\u0642\u0631\u064a\u0629 \u0633\u0639\u0648\u062f \u062d\u0633\u064a\u0646", "name:de": "Qaryat Suud Husayn", "name:en": "Qaryat Suud Husayn", "name:fr": "Qaryat Suud Husayn", "place": "village"}}, {"type": "node", "id": 2489244164, "lat": 35.289616, "lon": 43.149085, "tags": {"alt_name": "\u0642\u0631\u064a\u0629 \u0623\u0645 \u063a\u0631\u0628\u0629", "int_name": "Qaryat Umm Ghurbah, \u0642\u0631\u064a\u0629 \u0627\u0645 \u063a\u0631\u0628\u0629, Qaryat Umm Ghurbah, \u0642\u0631\u064a\u0629 \u0627\u0645 \u063a\u0631\u0628\u0629", "name": "\u0642\u0631\u064a\u0629 \u0623\u0645 \u063a\u0631\u0628\u0629", "name:ar": "\u0642\u0631\u064a\u0629 \u0623\u0645 \u063a\u0631\u0628\u0629", "name:ar1": "\u0642\u0631\u064a\u0629 \u0623\u0645 \u063a\u0631\u0628\u0629", "name:de": "Qaryat Umm Ghurbah", "name:en": "Qaryat Umm Ghurbah", "name:fr": "Qaryat Umm Ghurbah", "place": "village"}}, {"type": "node", "id": 2489244165, "lat": 35.3132055, "lon": 43.1588898, "tags": {"alt_name": "\u0642\u0631\u064a\u0629 \u0623\u0645 \u063a\u0631\u0628\u0629", "int_name": "Qaryat Umm Ghurbah, \u0642\u0631\u064a\u0629 \u0627\u0645 \u063a\u0631\u0628\u0629, Qaryat Umm Ghurbah, \u0642\u0631\u064a\u0629 \u0627\u0645 \u063a\u0631\u0628\u0629", "name": "\u0642\u0631\u064a\u0629 \u0623\u0645 \u063a\u0631\u0628\u0629", "name:ar": "\u0642\u0631\u064a\u0629 \u0623\u0645 \u063a\u0631\u0628\u0629", "name:ar1": "\u0642\u0631\u064a\u0629 \u0623\u0645 \u063a\u0631\u0628\u0629", "name:de": "Qaryat Umm Ghurbah", "name:en": "Qaryat Umm Ghurbah", "name:fr": "Qaryat Umm Ghurbah", "place": "village"}}, {"type": "node", "id": 2489244166, "lat": 35.3168968, "lon": 43.1267414, "tags": {"alt_name": "\u0642\u0631\u064a\u0629 \u0623\u0645 \u063a\u0631\u0628\u0629", "int_name": "Qaryat Umm Ghurbah, \u0642\u0631\u064a\u0629 \u0627\u0645 \u063a\u0631\u0628\u0629, Qaryat Umm Ghurbah, \u0642\u0631\u064a\u0629 \u0627\u0645 \u063a\u0631\u0628\u0629", "name": "\u0642\u0631\u064a\u0629 \u0623\u0645 \u063a\u0631\u0628\u0629", "name:ar": "\u0642\u0631\u064a\u0629 \u0623\u0645 \u063a\u0631\u0628\u0629", "name:ar1": "\u0642\u0631\u064a\u0629 \u0623\u0645 \u063a\u0631\u0628\u0629", "name:de": "Qaryat Umm Ghurbah", "name:en": "Qaryat Umm Ghurbah", "name:fr": "Qaryat Umm Ghurbah", "place": "village"}}, {"type": "node", "id": 2489244167, "lat": 35.2885428, "lon": 43.1111301, "tags": {"alt_name": "\u0642\u0631\u064a\u0629 \u0627\u0644\u0646\u0627\u064a\u0641\u0629", "int_name": "Qaryat an N\u0101yfah, \u0642\u0631\u064a\u0629 \u0627\u0644\u0646\u0627\u064a\u0641\u0629, Qaryat an Nayfah, \u0642\u0631\u064a\u0629 \u0627\u0644\u0646\u0627\u064a\u0641\u0629", "name": "\u0642\u0631\u064a\u0629 \u0627\u0644\u0646\u0627\u064a\u0641\u0629", "name:ar": "\u0642\u0631\u064a\u0629 \u0627\u0644\u0646\u0627\u064a\u0641\u0629", "name:ar1": "\u0642\u0631\u064a\u0629 \u0627\u0644\u0646\u0627\u064a\u0641\u0629", "name:de": "Qaryat an Nayfah", "name:en": "Qaryat an Nayfah", "name:fr": "Qaryat an Nayfah", "place": "village"}}, {"type": "node", "id": 2489244168, "lat": 35.318716, "lon": 43.119897, "tags": {"alt_name": "\u0635\u064a\u0647\u0648\u062f", "int_name": "\u015eayh\u016bd, \u0635\u064a\u0647\u0648\u062f, Sayhud, \u0635\u064a\u0647\u0648\u062f", "name": "\u0635\u064a\u0647\u0648\u062f", "name:ar": "\u0635\u064a\u0647\u0648\u062f", "name:ar1": "\u0635\u064a\u0647\u0648\u062f", "name:de": "Sayhud", "name:en": "Sayhud", "name:fr": "Sayhud", "place": "village"}}, {"type": "node", "id": 2489244169, "lat": 35.328596, "lon": 43.142699, "tags": {"alt_name": "\u0634\u0643\u064a\u0631 \u0648\u0631\u062b\u0629", "int_name": "Shukayr Warathah, \u0634\u0643\u064a\u0631 \u0648\u0631\u062b\u0629, Shukayr Warathah, \u0634\u0643\u064a\u0631 \u0648\u0631\u062b\u0629", "name": "\u0634\u0643\u064a\u0631 \u0648\u0631\u062b\u0629", "name:ar": "\u0634\u0643\u064a\u0631 \u0648\u0631\u062b\u0629", "name:ar1": "\u0634\u0643\u064a\u0631 \u0648\u0631\u062b\u0629", "name:de": "Shukayr Warathah", "name:en": "Shukayr Warathah", "name:fr": "Shukayr Warathah", "place": "village"}}, {"type": "node", "id": 2489244171, "lat": 35.281887, "lon": 43.160775, "tags": {"alt_name": "\u062a\u0644 \u0623\u0628\u0648 \u0631\u0623\u0633\u064a\u0646", "int_name": "Tall Ab\u016b R\u0101s\u012bn, \u062a\u0644 \u0627\u0628\u0648 \u0631\u0627\u0633\u064a\u0646, Tall Abu Rasin, \u062a\u0644 \u0627\u0628\u0648 \u0631\u0627\u0633\u064a\u0646", "name": "\u062a\u0644 \u0623\u0628\u0648 \u0631\u0623\u0633\u064a\u0646", "name:ar": "\u062a\u0644 \u0623\u0628\u0648 \u0631\u0623\u0633\u064a\u0646", "name:ar1": "\u062a\u0644 \u0623\u0628\u0648 \u0631\u0623\u0633\u064a\u0646", "name:de": "Tall Abu Rasin", "name:en": "Tall Abu Rasin", "name:fr": "Tall Abu Rasin", "place": "village"}}, {"type": "node", "id": 2489244174, "lat": 35.304762, "lon": 43.112742, "tags": {"alt_name": "\u0623\u0645\u0628\u064a\u0631\u062f \u0633\u0648\u064a\u062f", "int_name": "Umbayrad Suwayd, \u0627\u0645\u0628\u064a\u0631\u062f \u0633\u0648\u064a\u062f, Umbayrad Suwayd, \u0627\u0645\u0628\u064a\u0631\u062f \u0633\u0648\u064a\u062f", "name": "\u0623\u0645\u0628\u064a\u0631\u062f \u0633\u0648\u064a\u062f", "name:ar": "\u0623\u0645\u0628\u064a\u0631\u062f \u0633\u0648\u064a\u062f", "name:ar1": "\u0623\u0645\u0628\u064a\u0631\u062f \u0633\u0648\u064a\u062f", "name:de": "Umbayrad Suwayd", "name:en": "Umbayrad Suwayd", "name:fr": "Umbayrad Suwayd", "place": "village"}}, {"type": "node", "id": 2489244175, "lat": 35.3164504, "lon": 43.1273168, "tags": {"alt_name": "\u0623\u0645 \u063a\u0631\u0628\u0629", "int_name": "Umm Ghurbah, Umm Ghurbah", "name": "\u0623\u0645 \u063a\u0631\u0628\u0629", "name:ar": "\u0623\u0645 \u063a\u0631\u0628\u0629", "name:ar1": "\u0623\u0645 \u063a\u0631\u0628\u0629", "name:de": "Umm Ghurbah", "name:en": "Umm Ghurbah", "name:fr": "Umm Ghurbah", "place": "village"}}, {"type": "node", "id": 2489244177, "lat": 35.345669, "lon": 43.115884, "tags": {"alt_name": "\u0623\u0645 \u063a\u0631\u0628\u0629", "int_name": "Umm Ghurbah, \u0627\u0645 \u063a\u0631\u0628\u0629, Umm Ghurbah, \u0627\u0645 \u063a\u0631\u0628\u0629", "name": "\u0623\u0645 \u063a\u0631\u0628\u0629", "name:ar": "\u0623\u0645 \u063a\u0631\u0628\u0629", "name:ar1": "\u0623\u0645 \u063a\u0631\u0628\u0629", "name:de": "Umm Ghurbah", "name:en": "Umm Ghurbah", "name:fr": "Umm Ghurbah", "place": "village"}}, {"type": "node", "id": 2489244178, "lat": 35.3164221, "lon": 43.1285247, "tags": {"alt_name": "\u0627\u0645 \u063a\u0631\u0628\u0629", "int_name": "\u0627\u0645 \u063a\u0631\u0628\u0629, \u0627\u0645 \u063a\u0631\u0628\u0629", "name": "\u0627\u0645 \u063a\u0631\u0628\u0629", "name:ar": "\u0627\u0645 \u063a\u0631\u0628\u0629", "name:ar1": "\u0627\u0645 \u063a\u0631\u0628\u0629", "name:de": "\u0627\u0645 \u063a\u0631\u0628\u0629", "name:fr": "\u0627\u0645 \u063a\u0631\u0628\u0629", "place": "village"}}, {"type": "node", "id": 2489244180, "lat": 35.302217, "lon": 43.093474, "tags": {"alt_name": "\u0639\u0628\u062f \u0627\u0644\u0644\u0647 \u0635\u0627\u0644\u062d", "int_name": "Abd All\u0101h \u015e\u0101li\u1e29, \u0639\u0628\u062f\ufdf2 \u0635\u0627\u0644\u062d, Abd Allah Salih, \u0639\u0628\u062f\ufdf2 \u0635\u0627\u0644\u062d", "name": "\u0639\u0628\u062f \u0627\u0644\u0644\u0647 \u0635\u0627\u0644\u062d", "name:ar": "\u0639\u0628\u062f \u0627\u0644\u0644\u0647 \u0635\u0627\u0644\u062d", "name:ar1": "\u0639\u0628\u062f \u0627\u0644\u0644\u0647 \u0635\u0627\u0644\u062d", "name:de": "Abd Allah Salih", "name:en": "Abd Allah Salih", "name:fr": "Abd Allah Salih", "place": "village"}}, {"type": "node", "id": 2489244181, "lat": 35.299863, "lon": 43.196353, "tags": {"alt_name": "\u0623\u062d\u0645\u062f \u062e\u0644\u0641", "int_name": "A\u1e29mad Khalaf, \u0627\u062d\u0645\u062f \u062e\u0644\u0641, Ahmad Khalaf, \u0627\u062d\u0645\u062f \u062e\u0644\u0641", "name": "\u0623\u062d\u0645\u062f \u062e\u0644\u0641", "name:ar": "\u0623\u062d\u0645\u062f \u062e\u0644\u0641", "name:ar1": "\u0623\u062d\u0645\u062f \u062e\u0644\u0641", "name:de": "Ahmad Khalaf", "name:en": "Ahmad Khalaf", "name:fr": "Ahmad Khalaf", "place": "village"}}, {"type": "node", "id": 2489244182, "lat": 35.274169, "lon": 43.14445, "tags": {"alt_name": "\u0639\u0631\u0628 \u0639\u0628\u062f \u0627\u0644\u0639\u0644\u0648\u0627\u0646 \u0627\u0644\u0641\u0631\u064a\u062c\u064a", "int_name": "Arab Abd al Alw\u0101n al Furayj\u012b, \u0639\u0631\u0628 \u0639\u0628\u062f \u0627\u0644\u0639\u0644\u0648\u0627\u0646 \u0627\u0644\u0641\u0631\u064a\u062c\u064a, Arab Abd al Alwan al Furayji, \u0639\u0631\u0628 \u0639\u0628\u062f \u0627\u0644\u0639\u0644\u0648\u0627\u0646 \u0627\u0644\u0641\u0631\u064a\u062c\u064a", "name": "\u0639\u0631\u0628 \u0639\u0628\u062f \u0627\u0644\u0639\u0644\u0648\u0627\u0646 \u0627\u0644\u0641\u0631\u064a\u062c\u064a", "name:ar": "\u0639\u0631\u0628 \u0639\u0628\u062f \u0627\u0644\u0639\u0644\u0648\u0627\u0646 \u0627\u0644\u0641\u0631\u064a\u062c\u064a", "name:ar1": "\u0639\u0631\u0628 \u0639\u0628\u062f \u0627\u0644\u0639\u0644\u0648\u0627\u0646 \u0627\u0644\u0641\u0631\u064a\u062c\u064a", "name:de": "Arab Abd al Alwan al Furayji", "name:en": "Arab Abd al Alwan al Furayji", "name:fr": "Arab Abd al Alwan al Furayji", "place": "village"}}, {"type": "node", "id": 2489244183, "lat": 35.27382, "lon": 43.098952, "tags": {"alt_name": "\u0639\u0631\u0628 \u0639\u0648\u0627\u062f \u0645\u0631\u0627\u062f", "int_name": "Arab Aw\u0101d Mur\u0101d, \u0639\u0631\u0628 \u0639\u0648\u0627\u062f \u0645\u0631\u0627\u062f, Arab Awad Murad, \u0639\u0631\u0628 \u0639\u0648\u0627\u062f \u0645\u0631\u0627\u062f", "name": "\u0639\u0631\u0628 \u0639\u0648\u0627\u062f \u0645\u0631\u0627\u062f", "name:ar": "\u0639\u0631\u0628 \u0639\u0648\u0627\u062f \u0645\u0631\u0627\u062f", "name:ar1": "\u0639\u0631\u0628 \u0639\u0648\u0627\u062f \u0645\u0631\u0627\u062f", "name:de": "Arab Awad Murad", "name:en": "Arab Awad Murad", "name:fr": "Arab Awad Murad", "place": "village"}}, {"type": "node", "id": 2489244184, "lat": 35.277947, "lon": 43.152779, "tags": {"alt_name": "\u0639\u0631\u0628 \u0633\u0627\u064a\u0631 \u0627\u0644\u0645\u0639\u064a\u0648\u0641", "int_name": "Arab S\u0101yir al May\u016bf, \u0639\u0631\u0628 \u0633\u0627\u064a\u0631 \u0627\u0644\u0645\u0639\u064a\u0648\u0641, Arab Sayir al Mayuf, \u0639\u0631\u0628 \u0633\u0627\u064a\u0631 \u0627\u0644\u0645\u0639\u064a\u0648\u0641", "name": "\u0639\u0631\u0628 \u0633\u0627\u064a\u0631 \u0627\u0644\u0645\u0639\u064a\u0648\u0641", "name:ar": "\u0639\u0631\u0628 \u0633\u0627\u064a\u0631 \u0627\u0644\u0645\u0639\u064a\u0648\u0641", "name:ar1": "\u0639\u0631\u0628 \u0633\u0627\u064a\u0631 \u0627\u0644\u0645\u0639\u064a\u0648\u0641", "name:de": "Arab Sayir al Mayuf", "name:en": "Arab Sayir al Mayuf", "name:fr": "Arab Sayir al Mayuf", "place": "village"}}, {"type": "node", "id": 2489244185, "lat": 35.306165, "lon": 43.203862, "tags": {"alt_name": "\u0642\u0631\u064a\u0629 \u0627\u0644\u0628\u0644\u0627\u0644\u064a\u062c", "int_name": "Balalij, Qaryat al Bal\u0101l\u012bj, \u0628\u0644\u0627\u0644\u064a\u062c, \u0642\u0631\u064a\u0629 \u0627\u0644\u0628\u0644\u0627\u0644\u064a\u062c, Balalij, Qaryat al Balalij, \u0628\u0644\u0627\u0644\u064a\u062c, \u0642\u0631\u064a\u0629 \u0627\u0644\u0628\u0644\u0627\u0644\u064a\u062c", "name": "\u0642\u0631\u064a\u0629 \u0627\u0644\u0628\u0644\u0627\u0644\u064a\u062c", "name:ar": "\u0642\u0631\u064a\u0629 \u0627\u0644\u0628\u0644\u0627\u0644\u064a\u062c", "name:ar1": "\u0642\u0631\u064a\u0629 \u0627\u0644\u0628\u0644\u0627\u0644\u064a\u062c", "name:de": "Balalij", "name:en": "Balalij", "name:fr": "Balalij", "place": "village"}}, {"type": "node", "id": 2489244186, "lat": 35.265719, "lon": 43.195183, "tags": {"alt_name": "\u062d\u0645\u062f \u0627\u0644\u0637\u064a\u0627\u0648\u064a", "int_name": "\u1e28amad a\u0163 \u0162ay\u0101w\u012b, \u062d\u0645\u062f \u0627\u0644\u0637\u064a\u0627\u0648\u064a, Hamad at Tayawi, \u062d\u0645\u062f \u0627\u0644\u0637\u064a\u0627\u0648\u064a", "name": "\u062d\u0645\u062f \u0627\u0644\u0637\u064a\u0627\u0648\u064a", "name:ar": "\u062d\u0645\u062f \u0627\u0644\u0637\u064a\u0627\u0648\u064a", "name:ar1": "\u062d\u0645\u062f \u0627\u0644\u0637\u064a\u0627\u0648\u064a", "name:de": "Hamad at Tayawi", "name:en": "Hamad at Tayawi", "name:fr": "Hamad at Tayawi", "place": "village"}}, {"type": "node", "id": 2489244187, "lat": 35.270047, "lon": 43.201572, "tags": {"alt_name": "\u062d\u0633\u0646 \u062d\u0633\u0648\u0646", "int_name": "\u1e28asan \u1e28as\u016bn, \u062d\u0633\u0646 \u062d\u0633\u0648\u0646, Hasan Hasun, \u062d\u0633\u0646 \u062d\u0633\u0648\u0646", "name": "\u062d\u0633\u0646 \u062d\u0633\u0648\u0646", "name:ar": "\u062d\u0633\u0646 \u062d\u0633\u0648\u0646", "name:ar1": "\u062d\u0633\u0646 \u062d\u0633\u0648\u0646", "name:de": "Hasan Hasun", "name:en": "Hasan Hasun", "name:fr": "Hasan Hasun", "place": "village"}}, {"type": "node", "id": 2489244188, "lat": 35.273895, "lon": 43.140636, "tags": {"alt_name": "\u062c\u062f\u064a\u062f\u0629", "int_name": "Judaydah, \u062c\u062f\u064a\u062f\u0629, Judaydah, \u062c\u062f\u064a\u062f\u0629", "name": "\u062c\u062f\u064a\u062f\u0629", "name:ar": "\u062c\u062f\u064a\u062f\u0629", "name:ar1": "\u062c\u062f\u064a\u062f\u0629", "name:de": "Judaydah", "name:en": "Judaydah", "name:fr": "Judaydah", "place": "village"}}, {"type": "node", "id": 2489244189, "lat": 35.287142, "lon": 43.193214, "tags": {"alt_name": "\u0645\u062d\u0645\u062f \u0627\u0644\u064a\u0627\u0633\u064a\u0646", "int_name": "Mu\u1e29ammad al Y\u0101s\u012bn, \u0645\u062d\u0645\u062f \u0627\u0644\u064a\u0627\u0633\u064a\u0646, Muhammad al Yasin, \u0645\u062d\u0645\u062f \u0627\u0644\u064a\u0627\u0633\u064a\u0646", "name": "\u0645\u062d\u0645\u062f \u0627\u0644\u064a\u0627\u0633\u064a\u0646", "name:ar": "\u0645\u062d\u0645\u062f \u0627\u0644\u064a\u0627\u0633\u064a\u0646", "name:ar1": "\u0645\u062d\u0645\u062f \u0627\u0644\u064a\u0627\u0633\u064a\u0646", "name:de": "Muhammad al Yasin", "name:en": "Muhammad al Yasin", "name:fr": "Muhammad al Yasin", "place": "village"}}, {"type": "node", "id": 2489244190, "lat": 35.277469, "lon": 43.220231, "tags": {"alt_name": "\u0642\u0631\u064a\u0629 \u0639\u064a\u0646 \u0627\u0644\u0628\u064a\u0636\u0629", "int_name": "Qaryat Ayn al Bay\u1e11ah, \u0642\u0631\u064a\u0629 \u0639\u064a\u0646 \u0627\u0644\u0628\u064a\u0636\u0629, Qaryat Ayn al Baydah, \u0642\u0631\u064a\u0629 \u0639\u064a\u0646 \u0627\u0644\u0628\u064a\u0636\u0629", "name": "\u0642\u0631\u064a\u0629 \u0639\u064a\u0646 \u0627\u0644\u0628\u064a\u0636\u0629", "name:ar": "\u0642\u0631\u064a\u0629 \u0639\u064a\u0646 \u0627\u0644\u0628\u064a\u0636\u0629", "name:ar1": "\u0642\u0631\u064a\u0629 \u0639\u064a\u0646 \u0627\u0644\u0628\u064a\u0636\u0629", "name:de": "Qaryat Ayn al Baydah", "name:en": "Qaryat Ayn al Baydah", "name:fr": "Qaryat Ayn al Baydah", "place": "village"}}, {"type": "node", "id": 2489244191, "lat": 35.298544, "lon": 43.226181, "tags": {"alt_name": "\u0642\u0631\u064a\u0629 \u0644\u0627\u0641\u064a \u0639\u0648\u0627\u062f", "int_name": "Qaryat L\u0101f\u012b Aw\u0101d, \u0642\u0631\u064a\u0629 \u0644\u0627\u0641\u064a \u0639\u0648\u0627\u062f, Qaryat Lafi Awad, \u0642\u0631\u064a\u0629 \u0644\u0627\u0641\u064a \u0639\u0648\u0627\u062f", "name": "\u0642\u0631\u064a\u0629 \u0644\u0627\u0641\u064a \u0639\u0648\u0627\u062f", "name:ar": "\u0642\u0631\u064a\u0629 \u0644\u0627\u0641\u064a \u0639\u0648\u0627\u062f", "name:ar1": "\u0642\u0631\u064a\u0629 \u0644\u0627\u0641\u064a \u0639\u0648\u0627\u062f", "name:de": "Qaryat Lafi Awad", "name:en": "Qaryat Lafi Awad", "name:fr": "Qaryat Lafi Awad", "place": "village"}}, {"type": "node", "id": 2489244192, "lat": 35.272222, "lon": 43.198351, "tags": {"alt_name": "\u0642\u0631\u064a\u0629 \u0645\u0646\u062c\u0648\u0631", "int_name": "Qaryat Manj\u016br, \u0642\u0631\u064a\u0629 \u0645\u0646\u062c\u0648\u0631, Qaryat Manjur, \u0642\u0631\u064a\u0629 \u0645\u0646\u062c\u0648\u0631", "name": "\u0642\u0631\u064a\u0629 \u0645\u0646\u062c\u0648\u0631", "name:ar": "\u0642\u0631\u064a\u0629 \u0645\u0646\u062c\u0648\u0631", "name:ar1": "\u0642\u0631\u064a\u0629 \u0645\u0646\u062c\u0648\u0631", "name:de": "Qaryat Manjur", "name:en": "Qaryat Manjur", "name:fr": "Qaryat Manjur", "place": "village"}}, {"type": "node", "id": 2489244193, "lat": 35.270334, "lon": 43.093904, "tags": {"alt_name": "\u0642\u0631\u064a\u0629 \u0627\u0644\u0648\u064a\u0628\u062f\u0629", "int_name": "Qaryat al Waybidah, \u0642\u0631\u064a\u0629 \u0627\u0644\u0648\u064a\u0628\u062f\u0629, Qaryat al Waybidah, \u0642\u0631\u064a\u0629 \u0627\u0644\u0648\u064a\u0628\u062f\u0629", "name": "\u0642\u0631\u064a\u0629 \u0627\u0644\u0648\u064a\u0628\u062f\u0629", "name:ar": "\u0642\u0631\u064a\u0629 \u0627\u0644\u0648\u064a\u0628\u062f\u0629", "name:ar1": "\u0642\u0631\u064a\u0629 \u0627\u0644\u0648\u064a\u0628\u062f\u0629", "name:de": "Qaryat al Waybidah", "name:en": "Qaryat al Waybidah", "name:fr": "Qaryat al Waybidah", "place": "village"}}, {"type": "node", "id": 2489244196, "lat": 35.269328, "lon": 43.227712, "tags": {"alt_name": "\u0639\u0628\u064a\u062f \u0627\u0644\u0631\u063a\u0644", "int_name": "Ubayd ar Raghal, \u0639\u0628\u064a\u062f \u0627\u0644\u0631\u063a\u0644, Ubayd ar Raghal, \u0639\u0628\u064a\u062f \u0627\u0644\u0631\u063a\u0644", "name": "\u0639\u0628\u064a\u062f \u0627\u0644\u0631\u063a\u0644", "name:ar": "\u0639\u0628\u064a\u062f \u0627\u0644\u0631\u063a\u0644", "name:ar1": "\u0639\u0628\u064a\u062f \u0627\u0644\u0631\u063a\u0644", "name:de": "Ubayd ar Raghal", "name:en": "Ubayd ar Raghal", "name:fr": "Ubayd ar Raghal", "place": "village"}}, {"type": "node", "id": 2489244214, "lat": 35.233165, "lon": 43.14426, "tags": {"alt_name": "\u0639\u0628 \u0627\u0644\u0639\u0644\u064a", "int_name": "Ab al Al\u012b, \u0639\u0628 \u0627\u0644\u0639\u0644\u064a, Ab al Ali, \u0639\u0628 \u0627\u0644\u0639\u0644\u064a", "name": "\u0639\u0628 \u0627\u0644\u0639\u0644\u064a", "name:ar": "\u0639\u0628 \u0627\u0644\u0639\u0644\u064a", "name:ar1": "\u0639\u0628 \u0627\u0644\u0639\u0644\u064a", "name:de": "Ab al Ali", "name:en": "Ab al Ali", "name:fr": "Ab al Ali", "place": "village"}}, {"type": "node", "id": 2489244215, "lat": 35.247502, "lon": 43.202933, "tags": {"alt_name": "\u0627\u0644\u0645\u0646\u0628\u064a", "int_name": "Al Munab\u012b, \u0627\u0644\u0645\u0646\u0628\u064a, Al Munabi, \u0627\u0644\u0645\u0646\u0628\u064a", "name": "\u0627\u0644\u0645\u0646\u0628\u064a", "name:ar": "\u0627\u0644\u0645\u0646\u0628\u064a", "name:ar1": "\u0627\u0644\u0645\u0646\u0628\u064a", "name:de": "Al Munabi", "name:en": "Al Munabi", "name:fr": "Al Munabi", "place": "village"}}, {"type": "node", "id": 2489244216, "lat": 35.25, "lon": 43.283333, "tags": {"alt_name": "\u0627\u0644\u0634\u0643\u0643", "int_name": "Ash Shakk, Shak, Ash Shakk, Shak", "name": "\u0627\u0644\u0634\u0643\u0643", "name:ar": "\u0627\u0644\u0634\u0643\u0643", "name:ar1": "\u0627\u0644\u0634\u0643\u0643", "name:de": "Ash Shakk", "name:en": "Ash Shakk", "name:fr": "Ash Shakk", "place": "village"}}, {"type": "node", "id": 2489244217, "lat": 35.232551, "lon": 43.282674, "tags": {"alt_name": "\u062d\u0645\u062f \u0627\u0644\u062d\u0633\u064a\u0646 \u0627\u0644\u062c\u0631\u064a", "int_name": "\u1e28amad al \u1e28usayn al Jir\u012b, \u062d\u0645\u062f \u0627\u0644\u062d\u0633\u064a\u0646 \u0627\u0644\u062c\u0631\u064a, Hamad al Husayn al Jiri, \u062d\u0645\u062f \u0627\u0644\u062d\u0633\u064a\u0646 \u0627\u0644\u062c\u0631\u064a", "name": "\u062d\u0645\u062f \u0627\u0644\u062d\u0633\u064a\u0646 \u0627\u0644\u062c\u0631\u064a", "name:ar": "\u062d\u0645\u062f \u0627\u0644\u062d\u0633\u064a\u0646 \u0627\u0644\u062c\u0631\u064a", "name:ar1": "\u062d\u0645\u062f \u0627\u0644\u062d\u0633\u064a\u0646 \u0627\u0644\u062c\u0631\u064a", "name:de": "Hamad al Husayn al Jiri", "name:en": "Hamad al Husayn al Jiri", "name:fr": "Hamad al Husayn al Jiri", "place": "village"}}, {"type": "node", "id": 2489244218, "lat": 35.24097, "lon": 43.288407, "tags": {"alt_name": "\u062e\u0644\u0641 \u062d\u0645\u064a\u062f", "int_name": "Khalaf \u1e28am\u012bd, \u062e\u0644\u0641 \u062d\u0645\u064a\u062f, Khalaf Hamid, \u062e\u0644\u0641 \u062d\u0645\u064a\u062f", "name": "\u062e\u0644\u0641 \u062d\u0645\u064a\u062f", "name:ar": "\u062e\u0644\u0641 \u062d\u0645\u064a\u062f", "name:ar1": "\u062e\u0644\u0641 \u062d\u0645\u064a\u062f", "name:de": "Khalaf Hamid", "name:en": "Khalaf Hamid", "name:fr": "Khalaf Hamid", "place": "village"}}, {"type": "node", "id": 2489244219, "lat": 35.240179, "lon": 43.282382, "tags": {"alt_name": "\u062e\u0644\u0641 \u0627\u0644\u0639\u0644\u064a", "int_name": "Khalaf al Al\u012b, \u062e\u0644\u0641 \u0627\u0644\u0639\u0644\u064a, Khalaf al Ali, \u062e\u0644\u0641 \u0627\u0644\u0639\u0644\u064a", "name": "\u062e\u0644\u0641 \u0627\u0644\u0639\u0644\u064a", "name:ar": "\u062e\u0644\u0641 \u0627\u0644\u0639\u0644\u064a", "name:ar1": "\u062e\u0644\u0641 \u0627\u0644\u0639\u0644\u064a", "name:de": "Khalaf al Ali", "name:en": "Khalaf al Ali", "name:fr": "Khalaf al Ali", "place": "village"}}, {"type": "node", "id": 2489244220, "lat": 35.320937, "lon": 43.307128, "tags": {"alt_name": "\u0645\u0627\u062c\u062f", "int_name": "M\u0101jid, \u0645\u0627\u062c\u062f, Majid, \u0645\u0627\u062c\u062f", "name": "\u0645\u0627\u062c\u062f", "name:ar": "\u0645\u0627\u062c\u062f", "name:ar1": "\u0645\u0627\u062c\u062f", "name:de": "Majid", "name:en": "Majid", "name:fr": "Majid", "place": "village"}}, {"type": "node", "id": 2489244222, "lat": 35.241801, "lon": 43.085544, "tags": {"alt_name": "\u0642\u0631\u064a\u0629 \u0633\u064a\u0627\u062d \u0627\u0644\u0630\u064a\u0628", "int_name": "Qaryat Siy\u0101\u1e29 adh Dh\u012bb, \u0642\u0631\u064a\u0629 \u0633\u064a\u0627\u062d \u0627\u0644\u0630\u064a\u0628, Qaryat Siyah adh Dhib, \u0642\u0631\u064a\u0629 \u0633\u064a\u0627\u062d \u0627\u0644\u0630\u064a\u0628", "name": "\u0642\u0631\u064a\u0629 \u0633\u064a\u0627\u062d \u0627\u0644\u0630\u064a\u0628", "name:ar": "\u0642\u0631\u064a\u0629 \u0633\u064a\u0627\u062d \u0627\u0644\u0630\u064a\u0628", "name:ar1": "\u0642\u0631\u064a\u0629 \u0633\u064a\u0627\u062d \u0627\u0644\u0630\u064a\u0628", "name:de": "Qaryat Siyah adh Dhib", "name:en": "Qaryat Siyah adh Dhib", "name:fr": "Qaryat Siyah adh Dhib", "place": "village"}}, {"type": "node", "id": 2489244223, "lat": 35.300237, "lon": 43.064544, "tags": {"alt_name": "\u0633\u0644\u0645\u0627\u0646", "int_name": "Salm\u0101n, \u0633\u0644\u0645\u0627\u0646, Salman, \u0633\u0644\u0645\u0627\u0646", "name": "\u0633\u0644\u0645\u0627\u0646", "name:ar": "\u0633\u0644\u0645\u0627\u0646", "name:ar1": "\u0633\u0644\u0645\u0627\u0646", "name:de": "Salman", "name:en": "Salman", "name:fr": "Salman", "place": "village"}}, {"type": "node", "id": 2489244580, "lat": 35.209714, "lon": 43.245922, "tags": {"alt_name": "\u0639\u0631\u0628 \u0631\u0634\u064a\u062f \u062d\u0645\u0648\u062f", "int_name": "Arab Rash\u012bd \u1e28am\u016bd, \u0639\u0631\u0628 \u0631\u0634\u064a\u062f \u062d\u0645\u0648\u062f, Arab Rashid Hamud, \u0639\u0631\u0628 \u0631\u0634\u064a\u062f \u062d\u0645\u0648\u062f", "name": "\u0639\u0631\u0628 \u0631\u0634\u064a\u062f \u062d\u0645\u0648\u062f", "name:ar": "\u0639\u0631\u0628 \u0631\u0634\u064a\u062f \u062d\u0645\u0648\u062f", "name:ar1": "\u0639\u0631\u0628 \u0631\u0634\u064a\u062f \u062d\u0645\u0648\u062f", "name:de": "Arab Rashid Hamud", "name:en": "Arab Rashid Hamud", "name:fr": "Arab Rashid Hamud", "place": "village"}}, {"type": "node", "id": 2489244581, "lat": 35.218041, "lon": 43.296608, "tags": {"alt_name": "\u0639\u064a\u0646 \u0623\u0646\u062c\u0627\u0628", "int_name": "Ayn Anj\u0101b, \u0639\u064a\u0646 \u0627\u0646\u062c\u0627\u0628, Ayn Anjab, \u0639\u064a\u0646 \u0627\u0646\u062c\u0627\u0628", "name": "\u0639\u064a\u0646 \u0623\u0646\u062c\u0627\u0628", "name:ar": "\u0639\u064a\u0646 \u0623\u0646\u062c\u0627\u0628", "name:ar1": "\u0639\u064a\u0646 \u0623\u0646\u062c\u0627\u0628", "name:de": "Ayn Anjab", "name:en": "Ayn Anjab", "name:fr": "Ayn Anjab", "place": "village"}}, {"type": "node", "id": 2489244582, "lat": 35.201985, "lon": 43.272333, "tags": {"alt_name": "\u0627\u0644\u062f\u0628\u0633", "int_name": "ad Dibs, \u0627\u0644\u062f\u0628\u0633, ad Dibs, \u0627\u0644\u062f\u0628\u0633", "name": "\u0627\u0644\u062f\u0628\u0633", "name:ar": "\u0627\u0644\u062f\u0628\u0633", "name:ar1": "\u0627\u0644\u062f\u0628\u0633", "name:de": "ad Dibs", "name:en": "ad Dibs", "name:fr": "ad Dibs", "place": "village"}}, {"type": "node", "id": 2489244585, "lat": 35.211435, "lon": 43.265712, "tags": {"alt_name": "\u0625\u0628\u0631\u0627\u0647\u064a\u0645 \u0627\u0644\u062d\u0645\u0627\u062f", "int_name": "Ibr\u0101h\u012bm al \u1e28amm\u0101d, \u0627\u0628\u0631\u0627\u0647\u064a\u0645 \u0627\u0644\u062d\u0645\u0627\u062f, Ibrahim al Hammad, \u0627\u0628\u0631\u0627\u0647\u064a\u0645 \u0627\u0644\u062d\u0645\u0627\u062f", "name": "\u0625\u0628\u0631\u0627\u0647\u064a\u0645 \u0627\u0644\u062d\u0645\u0627\u062f", "name:ar": "\u0625\u0628\u0631\u0627\u0647\u064a\u0645 \u0627\u0644\u062d\u0645\u0627\u062f", "name:ar1": "\u0625\u0628\u0631\u0627\u0647\u064a\u0645 \u0627\u0644\u062d\u0645\u0627\u062f", "name:de": "Ibrahim al Hammad", "name:en": "Ibrahim al Hammad", "name:fr": "Ibrahim al Hammad", "place": "village"}}, {"type": "node", "id": 2489244588, "lat": 35.2179791, "lon": 43.2962985, "tags": {"alt_name": "\u0642\u0631\u064a\u0629 \u0639\u064a\u0646 \u0623\u0631\u062c\u0627\u0628", "int_name": "Qaryat Ayn Arj\u0101b, \u0642\u0631\u064a\u0629 \u0639\u064a\u0646 \u0627\u0631\u062c\u0627\u0628, Qaryat Ayn Arjab, \u0642\u0631\u064a\u0629 \u0639\u064a\u0646 \u0627\u0631\u062c\u0627\u0628", "name": "\u0642\u0631\u064a\u0629 \u0639\u064a\u0646 \u0623\u0631\u062c\u0627\u0628", "name:ar": "\u0642\u0631\u064a\u0629 \u0639\u064a\u0646 \u0623\u0631\u062c\u0627\u0628", "name:ar1": "\u0642\u0631\u064a\u0629 \u0639\u064a\u0646 \u0623\u0631\u062c\u0627\u0628", "name:de": "Qaryat Ayn Arjab", "name:en": "Qaryat Ayn Arjab", "name:fr": "Qaryat Ayn Arjab", "place": "village"}}, {"type": "node", "id": 2489244597, "lat": 35.222147, "lon": 43.217701, "tags": {"alt_name": "\u0645\u062d\u0645\u062f \u0627\u0644\u0639\u0648\u0627\u062f", "int_name": "Mu\u1e29ammad al Aww\u0101d, \u0645\u062d\u0645\u062f \u0627\u0644\u0639\u0648\u0627\u062f, Muhammad al Awwad, \u0645\u062d\u0645\u062f \u0627\u0644\u0639\u0648\u0627\u062f", "name": "\u0645\u062d\u0645\u062f \u0627\u0644\u0639\u0648\u0627\u062f", "name:ar": "\u0645\u062d\u0645\u062f \u0627\u0644\u0639\u0648\u0627\u062f", "name:ar1": "\u0645\u062d\u0645\u062f \u0627\u0644\u0639\u0648\u0627\u062f", "name:de": "Muhammad al Awwad", "name:en": "Muhammad al Awwad", "name:fr": "Muhammad al Awwad", "place": "village"}}, {"type": "node", "id": 2489252831, "lat": 35.227769, "lon": 43.4456576, "tags": {"alt_name": "\u0627\u0644\u063a\u0631\u064a\u0628", "int_name": "Al Ghar\u012bb, \u0627\u0644\u063a\u0631\u064a\u0628, Al Gharib, \u0627\u0644\u063a\u0631\u064a\u0628", "name": "\u0627\u0644\u063a\u0631\u064a\u0628", "name:ar1": "\u0627\u0644\u063a\u0631\u064a\u0628", "name:ckb": "\u063a\u06d5\u0631\u06cc\u0628", "name:de": "Al Gharib", "name:en": "Al Gharib", "name:fr": "Al Gharib", "place": "village"}}, {"type": "node", "id": 2489252860, "lat": 35.333637, "lon": 43.351843, "tags": {"alt_name": "\u0627\u0644\u0646\u0645\u0644", "int_name": "An Naml, Namal, \u0627\u0644\u0646\u0645\u0644, An Naml, Namal, \u0627\u0644\u0646\u0645\u0644", "name": "\u0627\u0644\u0646\u0645\u0644", "name:ar": "\u0627\u0644\u0646\u0645\u0644", "name:ar1": "\u0627\u0644\u0646\u0645\u0644", "name:de": "An Naml", "name:en": "An Naml", "name:fr": "An Naml", "place": "village"}}, {"type": "node", "id": 2489252877, "lat": 35.2784378, "lon": 43.3920764, "tags": {"alt_name": "\u0642\u0631\u064a\u0629 \u0627\u0644\u0631\u0648\u0627\u0628\u064a\u0646", "int_name": "Ar R\u0101wab\u012bn, Qaryat ar Raw\u0101b\u012bn, \u0627\u0644\u0631\u0627\u0648\u0628\u064a\u0646, \u0642\u0631\u064a\u0629 \u0627\u0644\u0631\u0648\u0627\u0628\u064a\u0646, Ar Rawabin, Qaryat ar Rawabin, \u0627\u0644\u0631\u0627\u0648\u0628\u064a\u0646, \u0642\u0631\u064a\u0629 \u0627\u0644\u0631\u0648\u0627\u0628\u064a\u0646", "name": "\u0627\u0644\u0631\u0627\u0648\u064a\u064a\u0646", "name:ar1": "\u0642\u0631\u064a\u0629 \u0627\u0644\u0631\u0648\u0627\u0628\u064a\u0646", "name:ckb": "\u0695\u0627\u0648\u06cc\u0646", "name:en": "Rawin", "place": "village"}}, {"type": "node", "id": 2489252942, "lat": 35.2136592, "lon": 43.4105257, "tags": {"alt_name": "\u0642\u0631\u064a\u0629 \u0627\u0644\u0634\u062c\u0631\u0629", "int_name": "Ash Shajarah, Qaryat ash Shajarah, Shaj\u0101rah, \u0627\u0644\u0634\u062c\u0631\u0629, \u0642\u0631\u064a\u0629 \u0627\u0644\u0634\u062c\u0631\u0629, Ash Shajarah, Qaryat ash Shajarah, Shajarah, \u0627\u0644\u0634\u062c\u0631\u0629, \u0642\u0631\u064a\u0629 \u0627\u0644\u0634\u062c\u0631\u0629", "name": "\u0634\u062c\u0631\u0629", "name:ar1": "\u0642\u0631\u064a\u0629 \u0627\u0644\u0634\u062c\u0631\u0629", "name:ckb": "\u0634\u06d5\u062c\u06d5\u0631\u06d5", "name:de": "Shajarah", "name:en": "Shajarah", "name:fr": "Shajarah", "place": "village"}}, {"type": "node", "id": 2489253103, "lat": 35.249247, "lon": 43.422117, "tags": {"alt_name": "\u0625\u0633\u0645\u0627\u0639\u064a\u0644 \u062c\u0647\u0641", "int_name": "Ism\u0101\u012bl Jahaf, \u0627\u0633\u0645\u0627\u0639\u064a\u0644 \u062c\u0647\u0641, Ismail Jahaf, \u0627\u0633\u0645\u0627\u0639\u064a\u0644 \u062c\u0647\u0641", "name": "\u0625\u0633\u0645\u0627\u0639\u064a\u0644 \u062c\u0647\u0641", "name:ar": "\u0625\u0633\u0645\u0627\u0639\u064a\u0644 \u062c\u0647\u0641", "name:ar1": "\u0625\u0633\u0645\u0627\u0639\u064a\u0644 \u062c\u0647\u0641", "name:de": "Ismail Jahaf", "name:en": "Ismail Jahaf", "name:fr": "Ismail Jahaf", "place": "village"}}, {"type": "node", "id": 2489253196, "lat": 35.2673004, "lon": 43.4499751, "tags": {"alt_name": "\u0627\u0644\u0632\u0627\u0628", "capital": "7", "int_name": "N\u0101\u1e29\u012byat az Z\u0101b, \u0646\u0627\u062d\u064a\u0629 \u0627\u0644\u0632\u0627\u0628, Nahiyat az Zab, \u0646\u0627\u062d\u064a\u0629 \u0627\u0644\u0632\u0627\u0628", "name": "\u0627\u0644\u0632\u0627\u0628", "name:ar": "\u0627\u0644\u0632\u0627\u0628", "name:de": "Az Zab", "name:en": "Az Zab", "name:fr": "Az Zab", "place": "town", "wikidata": "Q28195248"}}, {"type": "node", "id": 2489253217, "lat": 35.30919, "lon": 43.351529, "tags": {"alt_name": "\u0646\u0645\u064a\u0644", "int_name": "Numayl, \u0646\u0645\u064a\u0644, Numayl, \u0646\u0645\u064a\u0644", "name": "\u0646\u0645\u064a\u0644", "name:ar": "\u0646\u0645\u064a\u0644", "name:ar1": "\u0646\u0645\u064a\u0644", "name:de": "Numayl", "name:en": "Numayl", "name:fr": "Numayl", "place": "village"}}, {"type": "node", "id": 2489253332, "lat": 35.3287963, "lon": 43.4428307, "tags": {"alt_name": "\u0642\u0631\u064a\u0629 \u0623\u0631\u062d\u0645\u0629", "int_name": "Qaryat Ar\u1e29imah, \u0642\u0631\u064a\u0629 \u0627\u0631\u062d\u0645\u0647, Qaryat Arhimah, \u0642\u0631\u064a\u0629 \u0627\u0631\u062d\u0645\u0647", "name": "\u0623\u0631\u062d\u0645\u0629", "name:ar1": "\u0642\u0631\u064a\u0629 \u0623\u0631\u062d\u0645\u0629", "name:ckb": "\u0626\u06d5\u0631\u062d\u0645\u06d5", "name:de": "Arhimah", "name:en": "Arhimah", "name:fr": "Arhimah", "place": "village"}}, {"type": "node", "id": 2489253367, "lat": 35.274625, "lon": 43.4127314, "tags": {"alt_name": "\u0642\u0631\u064a\u0629 \u0625\u062f\u0628\u064a\u0633", "int_name": "Qaryat Idb\u012bs, \u0642\u0631\u064a\u0629 \u0627\u062f\u0628\u064a\u0633, Qaryat Idbis, \u0642\u0631\u064a\u0629 \u0627\u062f\u0628\u064a\u0633", "name": "\u0625\u062f\u0628\u064a\u0633", "name:ar1": "\u0642\u0631\u064a\u0629 \u0625\u062f\u0628\u064a\u0633", "name:ckb": "\u0626\u06cc\u062f\u0628\u06cc\u0633", "name:de": "Idbis", "name:en": "Idbis", "name:fr": "Idbis", "place": "village"}}, {"type": "node", "id": 2489253450, "lat": 35.268932, "lon": 43.448365, "tags": {"alt_name": "\u0642\u0627\u0637\u0639 \u0627\u0644\u062d\u064a \u0627\u0644\u0634\u0631\u0642\u064a", "int_name": "Q\u0101\u0163i al \u1e28ayy ash Sharq\u012b, \u0642\u0627\u0637\u0639 \u0627\u0644\u062d\u064a \u0627\u0644\u0634\u0631\u0642\u064a, Qati al Hayy ash Sharqi, \u0642\u0627\u0637\u0639 \u0627\u0644\u062d\u064a \u0627\u0644\u0634\u0631\u0642\u064a", "name": "\u0642\u0627\u0637\u0639 \u0627\u0644\u062d\u064a \u0627\u0644\u0634\u0631\u0642\u064a", "name:ar": "\u0642\u0627\u0637\u0639 \u0627\u0644\u062d\u064a \u0627\u0644\u0634\u0631\u0642\u064a", "name:ar1": "\u0642\u0627\u0637\u0639 \u0627\u0644\u062d\u064a \u0627\u0644\u0634\u0631\u0642\u064a", "name:de": "Qati al Hayy ash Sharqi", "name:en": "Qati al Hayy ash Sharqi", "name:fr": "Qati al Hayy ash Sharqi", "place": "hamlet"}}, {"type": "node", "id": 2489253500, "lat": 35.3088731, "lon": 43.3711184, "tags": {"alt_name": "\u0635\u0628\u064a\u062d", "int_name": "\u015eab\u0101\u1e29, Sub\u0101h, \u015eubay\u1e29, \u0635\u0628\u064a\u062d, Sabah, Subah, Subayh, \u0635\u0628\u064a\u062d", "name": "\u0627\u0635\u0628\u06cc\u062d \u062a\u062d\u062a\u0627\u0646\u064a", "name:ar1": "\u0635\u0628\u064a\u062d", "name:ckb": "\u0626\u06d5\u0633\u0628\u06cc\u062d \u062a\u06d5\u062d\u062a\u0627\u0646\u06cc", "name:de": "Asbih Tahtany", "name:en": "Asbih Tahtany", "name:fr": "Asbih Tahtany", "place": "village"}}, {"type": "node", "id": 2489253520, "lat": 35.3264516, "lon": 43.3657098, "tags": {"alt_name": "\u0635\u0628\u064a\u062d", "int_name": "\u015eubay\u1e29, \u0635\u0628\u064a\u062d, Subayh, \u0635\u0628\u064a\u062d", "name": "\u0627\u0635\u0628\u064a\u062d \u0641\u0648\u0642\u0627\u0646\u064a", "name:ar1": "\u0635\u0628\u064a\u062d", "name:ckb": "\u0626\u06d5\u0633\u0628\u06cc\u062d \u0641\u06d5\u0648\u0642\u0627\u0646\u06cc", "name:de": "Asbih Fawqany", "name:en": "Asbih Fawqany", "name:fr": "Asbih Fawqany", "place": "village"}}, {"type": "node", "id": 2489253546, "lat": 35.2359181, "lon": 43.4664636, "tags": {"alt_name": "\u0637\u0648\u064a\u0631\u064a\u0629", "int_name": "\u0162uwayr\u012byah, \u0637\u0648\u064a\u0631\u064a\u0647, Tuwayriyah, \u0637\u0648\u064a\u0631\u064a\u0647", "name": "\u0637\u0648\u064a\u0631\u064a\u0629", "name:ar1": "\u0637\u0648\u064a\u0631\u064a\u0629", "name:ckb": "\u062a\u0648\u06d5\u06cc\u0631\u06cc\u06d5", "name:de": "Tuwayriyah", "name:en": "Tuwayriyah", "name:fr": "Tuwayriyah", "place": "village"}}, {"type": "node", "id": 2489254645, "lat": 35.232203, "lon": 43.132763, "tags": {"alt_name": "\u0639\u0644\u064a \u0641\u0631\u0627\u064a\u062c", "int_name": "Al\u012b Far\u0101yij, \u0639\u0644\u064a \u0641\u0631\u0627\u064a\u062c, Ali Farayij, \u0639\u0644\u064a \u0641\u0631\u0627\u064a\u062c", "name": "\u0639\u0644\u064a \u0641\u0631\u0627\u064a\u062c", "name:ar": "\u0639\u0644\u064a \u0641\u0631\u0627\u064a\u062c", "name:ar1": "\u0639\u0644\u064a \u0641\u0631\u0627\u064a\u062c", "name:de": "Ali Farayij", "name:en": "Ali Farayij", "name:fr": "Ali Farayij", "place": "village"}}, {"type": "node", "id": 2489254650, "lat": 35.231203, "lon": 43.149468, "tags": {"alt_name": "\u0639\u0631\u0628 \u0639\u0628\u062f \u0627\u0644\u0641\u0631\u064a\u062c\u064a", "int_name": "Arab Abd al Furayj\u012b, \u0639\u0631\u0628 \u0639\u0628\u062f \u0627\u0644\u0641\u0631\u064a\u062c\u064a, Arab Abd al Furayji, \u0639\u0631\u0628 \u0639\u0628\u062f \u0627\u0644\u0641\u0631\u064a\u062c\u064a", "name": "\u0639\u0631\u0628 \u0639\u0628\u062f \u0627\u0644\u0641\u0631\u064a\u062c\u064a", "name:ar": "\u0639\u0631\u0628 \u0639\u0628\u062f \u0627\u0644\u0641\u0631\u064a\u062c\u064a", "name:ar1": "\u0639\u0631\u0628 \u0639\u0628\u062f \u0627\u0644\u0641\u0631\u064a\u062c\u064a", "name:de": "Arab Abd al Furayji", "name:en": "Arab Abd al Furayji", "name:fr": "Arab Abd al Furayji", "place": "village"}}, {"type": "node", "id": 2489254655, "lat": 35.226526, "lon": 43.107346, "tags": {"alt_name": "\u0639\u0631\u0628 \u062c\u0631\u062f\u064a \u0637\u0639\u064a\u0633\u0627\u0646", "int_name": "Arab Jurd\u012b \u0162uays\u0101n, \u0639\u0631\u0628 \u062c\u0631\u062f\u064a \u0637\u0639\u064a\u0633\u0627\u0646, Arab Jurdi Tuaysan, \u0639\u0631\u0628 \u062c\u0631\u062f\u064a \u0637\u0639\u064a\u0633\u0627\u0646", "name": "\u0639\u0631\u0628 \u062c\u0631\u062f\u064a \u0637\u0639\u064a\u0633\u0627\u0646", "name:ar": "\u0639\u0631\u0628 \u062c\u0631\u062f\u064a \u0637\u0639\u064a\u0633\u0627\u0646", "name:ar1": "\u0639\u0631\u0628 \u062c\u0631\u062f\u064a \u0637\u0639\u064a\u0633\u0627\u0646", "name:de": "Arab Jurdi Tuaysan", "name:en": "Arab Jurdi Tuaysan", "name:fr": "Arab Jurdi Tuaysan", "place": "village"}}, {"type": "node", "id": 2489254664, "lat": 35.23154, "lon": 43.171374, "tags": {"alt_name": "\u0639\u0631\u0628 \u0633\u0627\u064a\u0631 \u0645\u0639\u064a\u0648\u0641", "int_name": "Arab S\u0101yir May\u016bf, \u0639\u0631\u0628 \u0633\u0627\u064a\u0631 \u0645\u0639\u064a\u0648\u0641, Arab Sayir Mayuf, \u0639\u0631\u0628 \u0633\u0627\u064a\u0631 \u0645\u0639\u064a\u0648\u0641", "name": "\u0639\u0631\u0628 \u0633\u0627\u064a\u0631 \u0645\u0639\u064a\u0648\u0641", "name:ar": "\u0639\u0631\u0628 \u0633\u0627\u064a\u0631 \u0645\u0639\u064a\u0648\u0641", "name:ar1": "\u0639\u0631\u0628 \u0633\u0627\u064a\u0631 \u0645\u0639\u064a\u0648\u0641", "name:de": "Arab Sayir Mayuf", "name:en": "Arab Sayir Mayuf", "name:fr": "Arab Sayir Mayuf", "place": "village"}}, {"type": "node", "id": 2489254668, "lat": 35.326594, "lon": 43.030415, "tags": {"alt_name": "\u0639\u0631\u0628 \u0634\u062d\u0627\u0630 \u0633\u0644\u0645\u0627\u0646", "int_name": "Arab Sha\u1e29adh Salm\u0101n, \u0639\u0631\u0628 \u0634\u062d\u0627\u0630 \u0633\u0644\u0645\u0627\u0646, Arab Shahadh Salman, \u0639\u0631\u0628 \u0634\u062d\u0627\u0630 \u0633\u0644\u0645\u0627\u0646", "name": "\u0639\u0631\u0628 \u0634\u062d\u0627\u0630 \u0633\u0644\u0645\u0627\u0646", "name:ar": "\u0639\u0631\u0628 \u0634\u062d\u0627\u0630 \u0633\u0644\u0645\u0627\u0646", "name:ar1": "\u0639\u0631\u0628 \u0634\u062d\u0627\u0630 \u0633\u0644\u0645\u0627\u0646", "name:de": "Arab Shahadh Salman", "name:en": "Arab Shahadh Salman", "name:fr": "Arab Shahadh Salman", "place": "village"}}, {"type": "node", "id": 2489254672, "lat": 35.32266, "lon": 43.01942, "tags": {"alt_name": "\u0639\u0631\u0628 \u0639\u062c\u064a\u0644 \u0627\u0644\u062d\u0628\u064a\u0628\u0627\u062a", "int_name": "Arab Ujayl al \u1e28ab\u012bb\u0101t, \u0639\u0631\u0628 \u0639\u062c\u064a\u0644 \u0627\u0644\u062d\u0628\u064a\u0628\u0627\u062a, Arab Ujayl al Habibat, \u0639\u0631\u0628 \u0639\u062c\u064a\u0644 \u0627\u0644\u062d\u0628\u064a\u0628\u0627\u062a", "name": "\u0639\u0631\u0628 \u0639\u062c\u064a\u0644 \u0627\u0644\u062d\u0628\u064a\u0628\u0627\u062a", "name:ar": "\u0639\u0631\u0628 \u0639\u062c\u064a\u0644 \u0627\u0644\u062d\u0628\u064a\u0628\u0627\u062a", "name:ar1": "\u0639\u0631\u0628 \u0639\u062c\u064a\u0644 \u0627\u0644\u062d\u0628\u064a\u0628\u0627\u062a", "name:de": "Arab Ujayl al Habibat", "name:en": "Arab Ujayl al Habibat", "name:fr": "Arab Ujayl al Habibat", "place": "village"}}, {"type": "node", "id": 2489254685, "lat": 35.194103, "lon": 43.012393, "tags": {"alt_name": "\u062f\u0648\u0645 \u0631\u062c\u064a\u0644", "int_name": "Dawm Rujayl, \u062f\u0648\u0645 \u0631\u062c\u064a\u0644, Dawm Rujayl, \u062f\u0648\u0645 \u0631\u062c\u064a\u0644", "name": "\u062f\u0648\u0645 \u0631\u062c\u064a\u0644", "name:ar": "\u062f\u0648\u0645 \u0631\u062c\u064a\u0644", "name:ar1": "\u062f\u0648\u0645 \u0631\u062c\u064a\u0644", "name:de": "Dawm Rujayl", "name:en": "Dawm Rujayl", "name:fr": "Dawm Rujayl", "place": "village"}}, {"type": "node", "id": 2489254690, "lat": 35.324851, "lon": 43.025591, "tags": {"alt_name": "\u0643\u0628\u0627\u062a\u0629", "int_name": "Gab\u0101tah, \u06af\u0628\u0627\u062a\u0629, Gabatah, \u06af\u0628\u0627\u062a\u0629", "name": "\u0643\u0628\u0627\u062a\u0629", "name:ar": "\u0643\u0628\u0627\u062a\u0629", "name:ar1": "\u0643\u0628\u0627\u062a\u0629", "name:de": "Gabatah", "name:en": "Gabatah", "name:fr": "Gabatah", "place": "village"}}, {"type": "node", "id": 2489254723, "lat": 35.236322, "lon": 43.016117, "tags": {"alt_name": "\u0642\u0631\u064a\u0629 \u0633\u0631\u062c\u064a\u0645\u0629 \u0639\u0648\u062f \u0627\u0644\u0646\u062f\u0627", "int_name": "Qaryat Sarch\u012bmah \u016ad An Nad\u0101, \u0642\u0631\u064a\u0629 \u0633\u0631\u0686\u064a\u0645\u0629 \u0639\u0648\u062f \u0627\u0644\u0646\u062f\u0627, Qaryat Sarchimah Ud An Nada, \u0642\u0631\u064a\u0629 \u0633\u0631\u0686\u064a\u0645\u0629 \u0639\u0648\u062f \u0627\u0644\u0646\u062f\u0627", "name": "\u0642\u0631\u064a\u0629 \u0633\u0631\u062c\u064a\u0645\u0629 \u0639\u0648\u062f \u0627\u0644\u0646\u062f\u0627", "name:ar": "\u0642\u0631\u064a\u0629 \u0633\u0631\u062c\u064a\u0645\u0629 \u0639\u0648\u062f \u0627\u0644\u0646\u062f\u0627", "name:ar1": "\u0642\u0631\u064a\u0629 \u0633\u0631\u062c\u064a\u0645\u0629 \u0639\u0648\u062f \u0627\u0644\u0646\u062f\u0627", "name:de": "Qaryat Sarchimah Ud An Nada", "name:en": "Qaryat Sarchimah Ud An Nada", "name:fr": "Qaryat Sarchimah Ud An Nada", "place": "village"}}, {"type": "node", "id": 2489254729, "lat": 35.22874, "lon": 43.0430374, "tags": {"alt_name": "\u0642\u0631\u064a\u0629 \u0633\u0631\u062c\u064a\u0645\u0629", "int_name": "Qaryat Sarj\u012bmah, \u0642\u0631\u064a\u0629 \u0633\u0631\u062c\u064a\u0645\u0629, Qaryat Sarjimah, \u0642\u0631\u064a\u0629 \u0633\u0631\u062c\u064a\u0645\u0629", "name": "\u0642\u0631\u064a\u0629 \u0633\u0631\u062c\u064a\u0645\u0629", "name:ar": "\u0642\u0631\u064a\u0629 \u0633\u0631\u062c\u064a\u0645\u0629", "name:ar1": "\u0642\u0631\u064a\u0629 \u0633\u0631\u062c\u064a\u0645\u0629", "name:de": "Qaryat Sarjimah", "name:en": "Qaryat Sarjimah", "name:fr": "Qaryat Sarjimah", "place": "village"}}, {"type": "node", "id": 2489254750, "lat": 35.3500277, "lon": 43.4486502, "tags": {"alt_name": "\u0642\u0631\u064a\u0629 \u0627\u0644\u0633\u0631\u0648\u062f\u0629", "int_name": "Qaryat as Sar\u016bdah, \u0642\u0631\u064a\u0629 \u0627\u0644\u0633\u0631\u0648\u062f\u0647, Qaryat as Sarudah, \u0642\u0631\u064a\u0629 \u0627\u0644\u0633\u0631\u0648\u062f\u0647", "name": "\u0627\u0644\u0633\u0631\u0648\u062f\u0629", "name:ar1": "\u0642\u0631\u064a\u0629 \u0627\u0644\u0633\u0631\u0648\u062f\u0629", "name:ckb": "\u0633\u06d5\u0631\u0648\u062f\u06d5", "name:de": "Sarudah", "name:en": "Sarudah", "name:fr": "Sarudah", "place": "village"}}, {"type": "node", "id": 2489254798, "lat": 35.2305425, "lon": 43.0432965, "tags": {"alt_name": "\u0637\u0631\u062c\u0645 \u063a\u062f\u064a\u0631", "int_name": "\u0162arjam Ghad\u012br, \u0637\u0631\u062c\u0645 \u063a\u062f\u064a\u0631, Tarjam Ghadir, \u0637\u0631\u062c\u0645 \u063a\u062f\u064a\u0631", "name": "\u0637\u0631\u062c\u0645 \u063a\u062f\u064a\u0631", "name:ar": "\u0637\u0631\u062c\u0645 \u063a\u062f\u064a\u0631", "name:ar1": "\u0637\u0631\u062c\u0645 \u063a\u062f\u064a\u0631", "name:de": "Tarjam Ghadir", "name:en": "Tarjam Ghadir", "name:fr": "Tarjam Ghadir", "place": "village"}}, {"type": "node", "id": 2489268131, "lat": 35.250435, "lon": 42.961169, "tags": {"alt_name": "\u062f\u0648\u0645 \u0633\u0647\u0644 \u0627\u0644\u062e\u0648\u0627\u0646", "int_name": "Dawm Sahl al Khaw\u0101n, \u062f\u0648\u0645 \u0633\u0647\u0644 \u0627\u0644\u062e\u0648\u0627\u0646, Dawm Sahl al Khawan, \u062f\u0648\u0645 \u0633\u0647\u0644 \u0627\u0644\u062e\u0648\u0627\u0646", "name": "\u062f\u0648\u0645 \u0633\u0647\u0644 \u0627\u0644\u062e\u0648\u0627\u0646", "name:ar": "\u062f\u0648\u0645 \u0633\u0647\u0644 \u0627\u0644\u062e\u0648\u0627\u0646", "name:ar1": "\u062f\u0648\u0645 \u0633\u0647\u0644 \u0627\u0644\u062e\u0648\u0627\u0646", "name:de": "Dawm Sahl al Khawan", "name:en": "Dawm Sahl al Khawan", "name:fr": "Dawm Sahl al Khawan", "place": "village"}}, {"type": "node", "id": 2489268532, "lat": 35.245962, "lon": 42.999557, "tags": {"alt_name": "\u0642\u0631\u064a\u0629 \u0633\u0631\u062c\u064a\u0645\u0629", "int_name": "Qaryat Sarj\u012bmah, \u0642\u0631\u064a\u0629 \u0633\u0631\u062c\u064a\u0645\u0629, Qaryat Sarjimah, \u0642\u0631\u064a\u0629 \u0633\u0631\u062c\u064a\u0645\u0629", "name": "\u0642\u0631\u064a\u0629 \u0633\u0631\u062c\u064a\u0645\u0629", "name:ar": "\u0642\u0631\u064a\u0629 \u0633\u0631\u062c\u064a\u0645\u0629", "name:ar1": "\u0642\u0631\u064a\u0629 \u0633\u0631\u062c\u064a\u0645\u0629", "name:de": "Qaryat Sarjimah", "name:en": "Qaryat Sarjimah", "name:fr": "Qaryat Sarjimah", "place": "village"}}, {"type": "node", "id": 2932479372, "lat": 35.2178367, "lon": 43.2735243}, {"type": "node", "id": 2932479373, "lat": 35.2041462, "lon": 43.2708142}, {"type": "node", "id": 2932479383, "lat": 35.1999031, "lon": 43.2702563}, {"type": "node", "id": 2932479386, "lat": 35.2149108, "lon": 43.2647202}, {"type": "node", "id": 2932479393, "lat": 35.2044425, "lon": 43.2843819}, {"type": "node", "id": 2932479396, "lat": 35.1958, "lon": 43.2759211}, {"type": "node", "id": 2932479397, "lat": 35.2124723, "lon": 43.2786741}, {"type": "node", "id": 2932479398, "lat": 35.201006, "lon": 43.2805624}, {"type": "node", "id": 2932479400, "lat": 35.2130333, "lon": 43.2768717}, {"type": "node", "id": 4414849890, "lat": 35.4653859, "lon": 43.2497535, "tags": {"name": "\u0627\u0644\u0635\u0628\u062e\u0629", "place": "village"}}, {"type": "node", "id": 4558266172, "lat": 35.5676097, "lon": 43.3287221, "tags": {"name": "Sisabanah", "place": "village"}}, {"type": "node", "id": 4742219140, "lat": 35.269388, "lon": 43.3885119}, {"type": "node", "id": 4742219141, "lat": 35.2701764, "lon": 43.3890697}, {"type": "node", "id": 4742219142, "lat": 35.2686522, "lon": 43.3954641}, {"type": "node", "id": 4742219143, "lat": 35.2670659, "lon": 43.4024334}, {"type": "node", "id": 4742219146, "lat": 35.265454, "lon": 43.3902454}, {"type": "node", "id": 4742219147, "lat": 35.2662074, "lon": 43.4088921}, {"type": "node", "id": 4742219148, "lat": 35.2618624, "lon": 43.4102654}, {"type": "node", "id": 4742219149, "lat": 35.2594095, "lon": 43.4123683}, {"type": "node", "id": 4742219150, "lat": 35.258739, "lon": 43.413681}, {"type": "node", "id": 4742219151, "lat": 35.257029, "lon": 43.4103071}, {"type": "node", "id": 4742219152, "lat": 35.2545417, "lon": 43.4076724}, {"type": "node", "id": 4742219153, "lat": 35.2519164, "lon": 43.4042773}, {"type": "node", "id": 4742219154, "lat": 35.2510339, "lon": 43.400867}, {"type": "node", "id": 4742219155, "lat": 35.2495274, "lon": 43.3972729}, {"type": "node", "id": 4742219156, "lat": 35.251245, "lon": 43.396174}, {"type": "node", "id": 4742219157, "lat": 35.254223, "lon": 43.3940649}, {"type": "node", "id": 4742219158, "lat": 35.2571317, "lon": 43.394022}, {"type": "node", "id": 4742219159, "lat": 35.2614469, "lon": 43.3928907}, {"type": "node", "id": 4742219160, "lat": 35.2641824, "lon": 43.3911143}, {"type": "node", "id": 5128322211, "lat": 35.2679418, "lon": 43.4009743}, {"type": "node", "id": 5128322212, "lat": 35.2661899, "lon": 43.4045362}, {"type": "node", "id": 5128322213, "lat": 35.2671359, "lon": 43.4059953}, {"type": "node", "id": 5128322214, "lat": 35.2529965, "lon": 43.3943224}, {"type": "node", "id": 5128322215, "lat": 35.2491063, "lon": 43.3988285}, {"type": "node", "id": 8726998290, "lat": 35.6201908, "lon": 43.2579106}, {"type": "node", "id": 8726998363, "lat": 35.6112683, "lon": 43.2643801}, {"type": "node", "id": 8726998372, "lat": 35.6074217, "lon": 43.265689}, {"type": "node", "id": 8726998379, "lat": 35.602323, "lon": 43.264879}, {"type": "node", "id": 8802280982, "lat": 35.4578963, "lon": 43.2632339, "tags": {"name": "Tabira Gate of Aashoor", "name:ar": "\u062e\u0631\u0627\u0626\u0628 \u0637\u0628\u064a\u0631\u0629 \u0627\u0644\u0627\u0634\u0648\u0631\u064a\u0629", "place": "village"}}, {"type": "node", "id": 11032214372, "lat": 35.5978631, "lon": 43.1802615}, {"type": "node", "id": 11032214373, "lat": 35.5978631, "lon": 43.1630646}, {"type": "node", "id": 11032214374, "lat": 35.5924423, "lon": 43.1639175}, {"type": "node", "id": 11032214375, "lat": 35.5922212, "lon": 43.179123}, {"type": "node", "id": 11044136536, "lat": 35.6194143, "lon": 43.2299455}, {"type": "node", "id": 11044136537, "lat": 35.6154511, "lon": 43.2087281}, {"type": "node", "id": 11044136538, "lat": 35.5978285, "lon": 43.2076066}, {"type": "node", "id": 11044136539, "lat": 35.5932873, "lon": 43.2081788}, {"type": "node", "id": 11044136540, "lat": 35.5875733, "lon": 43.209987}, {"type": "node", "id": 11044136541, "lat": 35.5870521, "lon": 43.2189591}, {"type": "node", "id": 11044136542, "lat": 35.5875547, "lon": 43.2314332}, {"type": "node", "id": 11044136543, "lat": 35.5928034, "lon": 43.2343629}, {"type": "node", "id": 11044136544, "lat": 35.5982194, "lon": 43.235164}, {"type": "node", "id": 11044136545, "lat": 35.5994663, "lon": 43.2452119}, {"type": "node", "id": 11044136546, "lat": 35.6172409, "lon": 43.2603427}, {"type": "node", "id": 11202847287, "lat": 35.1963652, "lon": 43.2764249}, {"type": "node", "id": 11202847291, "lat": 35.2096037, "lon": 43.2677247}, {"type": "node", "id": 11364315726, "lat": 35.4320037, "lon": 43.42924, "tags": {"name": "\u062a\u0644 \u0627\u0644\u0633\u0639\u06cc\u062f", "name:ckb": "\u062a\u06d5\u0644 \u0633\u06d5\u0639\u06cc\u062f", "name:en": "Tal Al-Sayd", "place": "village"}}, {"type": "node", "id": 11364571982, "lat": 35.3865281, "lon": 43.4311558, "tags": {"name": "\u0627\u0644\u0627\u0646\u0648\u0627\u0631", "name:ckb": "\u0626\u06d5\u0646\u0648\u0627\u0631", "name:en": "Al-Aanwar", "place": "village"}}, {"type": "node", "id": 11365009047, "lat": 35.34605, "lon": 43.3748965, "tags": {"name": "\u0627\u0644\u0633\u062f\u0631", "name:ckb": "\u0633\u06d5\u062f\u0631", "name:en": "Sadr", "place": "village"}}, {"type": "node", "id": 11365556765, "lat": 35.3965939, "lon": 43.3868871, "tags": {"name": "\u0627\u0644\u062d\u0633\u062c", "name:ckb": "\u062d\u06d5\u0633\u06d5\u062c", "name:en": "Hasaj", "place": "village"}}, {"type": "node", "id": 11365675861, "lat": 35.2580607, "lon": 43.4363941, "tags": {"name": "\u0627\u0644\u0634\u0643", "name:ckb": "\u0634\u06d5\u06a9", "name:en": "Shak", "place": "village"}}, {"type": "way", "id": 289698438, "nodes": [2932479386, 2932479372, 2932479400, 2932479397, 2932479393, 2932479398, 11202847287, 2932479396, 2932479383, 2932479373, 11202847291, 2932479386], "tags": {"name": "\u0645\u0643\u062d\u0648\u0644", "place": "village"}}, {"type": "way", "id": 481284060, "nodes": [4742219140, 4742219141, 4742219142, 5128322211, 4742219143, 5128322212, 5128322213, 4742219147, 4742219148, 4742219149, 4742219150, 4742219151, 4742219152, 4742219153, 4742219154, 5128322215, 4742219155, 4742219156, 5128322214, 4742219157, 4742219158, 4742219159, 4742219160, 4742219146, 4742219140], "tags": {"landuse": "residential", "name": "\u0627\u0644\u0632\u0648\u064a\u0629", "name:en": "Azwai", "place": "town", "source": "DigitalGlobePremiumImagery"}}, {"type": "way", "id": 1188070623, "nodes": [11032214372, 11032214373, 11032214374, 11032214375, 11032214372], "tags": {"name": "\u0642\u0631\u064a\u0629 \u0632\u0646\u0627\u0648\u064a\u0631 \u0627\u0644\u0639\u062c\u0627\u0646", "place": "village", "population": "1000", "population:date": "2019/01/01"}}, {"type": "way", "id": 1189393339, "nodes": [8726998290, 11044136536, 11044136537, 11044136538, 11044136539, 11044136540, 11044136541, 11044136542, 11044136543, 11044136544, 11044136545, 8726998379, 8726998372, 8726998363, 11044136546, 8726998290], "tags": {"name": "\u0627\u0644\u062e\u0636\u0631\u0627\u0646\u064a\u0647", "place": "village", "population": "32000"}}]}