{"version": 0.6, "generator": "Overpass API 0.7.61.5 4133829e", "osm3s": {"timestamp_osm_base": "2024-03-05T11:24:46Z", "copyright": "The data included in this document is from www.openstreetmap.org. The data is made available under ODbL."}, "elements": [{"type": "node", "id": 3915305271, "lat": 6.4607865, "lon": 0.9085845, "tags": {"amenity": "pharmacy", "name": "Dieu source de vie", "operator": "Pharmacop\u00e9", "source": "survey"}}, {"type": "node", "id": 3915338198, "lat": 6.460098, "lon": 0.9100624, "tags": {"amenity": "clinic", "name": "Clinique BETHEL", "operator": "Clinique"}}, {"type": "node", "id": 3915392857, "lat": 6.4555075, "lon": 0.9097333, "tags": {"amenity": "pharmacy", "name": "depot de pharmacie"}}, {"type": "node", "id": 3916155895, "lat": 6.4505564, "lon": 0.916786, "tags": {"amenity": "doctors", "name": "centre de sant\u00e9 chinois Ning-Hong"}}, {"type": "node", "id": 3916710869, "lat": 6.448672, "lon": 0.9068577, "tags": {"amenity": "pharmacy", "description": "vente de produits traditionnels", "dispensing": "yes", "healthcare": "pharmacy", "name": "Dogop\u00e9-n\u00e9va\u00e9m\u00e9", "source": "Survey"}}, {"type": "node", "id": 3917431774, "lat": 6.4477542, "lon": 0.9156511, "tags": {"amenity": "pharmacy", "name": "Pharmacop\u00e9"}}, {"type": "node", "id": 4160139089, "lat": 6.4319204, "lon": 0.9275299, "tags": {"amenity": "hospital", "disused": "no", "name": "Centre M\u00e9dico-Social de K2v\u00e9", "operator:type": "public", "source": "Survey"}}, {"type": "node", "id": 4351615282, "lat": 6.5507303, "lon": 0.8686804, "tags": {"amenity": "hospital", "name": "usp Atti Tovou"}}, {"type": "node", "id": 5217024470, "lat": 6.4554035, "lon": 0.9141277, "tags": {"amenity": "doctors", "name": "Infirmerie Saint Michel", "wheelchair": "limited"}}, {"type": "node", "id": 8429820017, "lat": 6.3427514, "lon": 1.1128147, "tags": {"amenity": "pharmacy", "name": "D\u00e9p\u00f4t de pharmacie Dieu nous aime"}}, {"type": "node", "id": 8430049309, "lat": 6.3397459, "lon": 1.1074828, "tags": {"amenity": "hospital", "name": "CMS Kovi\u00e9"}}, {"type": "node", "id": 8570246809, "lat": 6.3879481, "lon": 0.870291, "tags": {"amenity": "hospital", "name": "CMS D'EDZI"}}, {"type": "node", "id": 8570257220, "lat": 6.3754238, "lon": 0.8879399, "tags": {"amenity": "hospital", "name": "CMS"}}, {"type": "node", "id": 8570257243, "lat": 6.4463471, "lon": 0.9170204, "tags": {"amenity": "clinic", "name": "Ophtamologiste les Cieux Optiques"}}, {"type": "node", "id": 8570257247, "lat": 6.4428636, "lon": 0.8972526, "tags": {"amenity": "hospital", "name": "CMS Apedokoe"}}, {"type": "node", "id": 8570331519, "lat": 6.4328421, "lon": 0.926384, "tags": {"amenity": "pharmacy", "name": "D\u00e9p\u00f4t de pharmacie"}}, {"type": "node", "id": 8570340976, "lat": 6.4475964, "lon": 0.9157621, "tags": {"amenity": "pharmacy", "name": "D\u00e9p\u00f4t de pharmacie"}}, {"type": "node", "id": 8570340980, "lat": 6.4445507, "lon": 0.9188282, "tags": {"amenity": "clinic"}}, {"type": "node", "id": 8872015393, "lat": 6.4033229, "lon": 1.1126767, "tags": {"amenity": "hospital", "name": "Dispensaire"}}, {"type": "node", "id": 8872015408, "lat": 6.4091974, "lon": 1.1628368, "tags": {"amenity": "hospital", "name": "Dispensaire saint Savin de wli centre"}}, {"type": "node", "id": 8872050241, "lat": 6.4429129, "lon": 1.0864858, "tags": {"amenity": "hospital", "name": "Dispensaire d'Alokoegbe"}}, {"type": "node", "id": 8872050254, "lat": 6.410237, "lon": 1.0937351, "tags": {"amenity": "hospital", "name": "Case de Sant\u00e9 de meduim\u00e9"}}, {"type": "node", "id": 8872050275, "lat": 6.4780352, "lon": 1.06835, "tags": {"amenity": "hospital", "name": "Case de Sant\u00e9"}}, {"type": "node", "id": 9051879093, "lat": 6.2980446, "lon": 1.0693654, "tags": {"amenity": "hospital", "name": "Case de sant\u00e9 d' Atid\u00e8"}}, {"type": "node", "id": 9053186915, "lat": 6.4814312, "lon": 1.0072607, "tags": {"amenity": "hospital", "name": "USP WOMETCHIN"}}, {"type": "node", "id": 9053199519, "lat": 6.4650754, "lon": 0.9802669, "tags": {"amenity": "hospital", "name": "Case de sant\u00e9"}}, {"type": "node", "id": 9053199527, "lat": 6.4463191, "lon": 0.9810823, "tags": {"amenity": "hospital", "name": "USP ZOGBEPIME"}}, {"type": "node", "id": 9743635884, "lat": 6.3719528, "lon": 0.8888628, "tags": {"amenity": "hospital", "name": "CMS Dzolo"}}, {"type": "node", "id": 10199494145, "lat": 6.4427153, "lon": 1.0870255, "tags": {"amenity": "hospital", "name": "Dispensaire d'Aloko\u00e8gb\u00e9"}}, {"type": "node", "id": 10290127255, "lat": 6.3560617, "lon": 1.1499676, "tags": {"amenity": "clinic"}}, {"type": "node", "id": 11571249140, "lat": 6.4543096, "lon": 0.9112696, "tags": {"amenity": "hospital"}}]}