{"version": 0.6, "generator": "Overpass API 0.7.61.5 4133829e", "osm3s": {"timestamp_osm_base": "2024-03-06T10:48:03Z", "copyright": "The data included in this document is from www.openstreetmap.org. The data is made available under ODbL."}, "elements": [{"type": "node", "id": 10553730709, "lat": 35.7597809, "lon": 44.157898, "tags": {"amenity": "university", "name": "\u062c\u0627\u0645\u0639\u0629 \u0627\u0644\u0643\u062a\u0627\u0628", "name:ar": "\u062c\u0627\u0645\u0639\u0629 \u0627\u0644\u0643\u062a\u0627\u0628", "name:ckb": "\u0632\u0627\u0646\u06a9\u06c6\u06cc \u06a9\u06cc\u062a\u0627\u0628", "name:en": "Al-Kitab University", "name:ku": "Zan\u00eengeha K\u00eetab"}}, {"type": "node", "id": 11062527106, "lat": 35.7599405, "lon": 44.1571193, "tags": {"addr:street": "\u0634\u06d5\u0642\u0627\u0645\u06cc \u0633\u06d5\u0631\u06d5\u06a9\u06cc \u067e\u0631\u062f\u06ce", "amenity": "college", "email": "dentistry.alkitab.iq@gmail.com", "name": "\u062c\u0627\u0645\u0639\u0629 \u0627\u0644\u0643\u062a\u0627\u0628 \u0643\u0644\u064a\u0629 \u0637\u0628 \u0627\u0644\u0627\u0633\u0646\u0627\u0646", "name:en": "Al-Kitab University College of Dentistry", "name:ku": "\u06a9\u06c6\u0644\u06ce\u0698\u06cc \u067e\u0632\u06cc\u0634\u06a9\u06cc \u062f\u062f\u0627\u0646 \u0632\u0627\u0646\u06a9\u06c6\u06cc \u0626\u06d5\u0644\u06a9\u06cc\u062a\u0627\u0628", "opening_hours": "Mo-Fr,Su,Sa 08:00-16:00", "phone": "+964 751 182 8985"}}]}