{"version": 0.6, "generator": "Overpass API 0.7.61.5 4133829e", "osm3s": {"timestamp_osm_base": "2024-03-05T14:34:07Z", "copyright": "The data included in this document is from www.openstreetmap.org. The data is made available under ODbL."}, "elements": [{"type": "node", "id": 148814410, "lat": 57.8179492, "lon": 11.8800396, "tags": {"amenity": "ferry_terminal", "cargo": "passengers;vehicle;motor_vehicle", "ferry": "yes", "name": "Gunnesby", "network": "V\u00e4sttrafik", "public_transport": "stop_position"}}, {"type": "node", "id": 171357825, "lat": 57.7442203, "lon": 11.6417533, "tags": {"amenity": "ferry_terminal"}}, {"type": "node", "id": 173818323, "lat": 57.7442504, "lon": 11.6420312, "tags": {"amenity": "ferry_terminal"}}, {"type": "node", "id": 245793815, "lat": 58.1385489, "lon": 11.8325222, "tags": {"amenity": "ferry_terminal", "bus": "yes", "fee": "no", "ferry": "yes", "local_ref": "C", "name": "Svanesunds f\u00e4rjel\u00e4ge", "public_transport": "stop_position", "ref": "C"}}, {"type": "node", "id": 263045247, "lat": 57.7582761, "lon": 11.6163817, "tags": {"amenity": "ferry_terminal", "cargo": "passengers;vehicle", "name": "Hyppeln"}}, {"type": "node", "id": 293798517, "lat": 58.1343685, "lon": 11.8431406, "tags": {"amenity": "ferry_terminal", "bus": "yes", "fee": "no", "ferry": "yes", "local_ref": "C", "name": "Kolh\u00e4ttans f\u00e4rjel\u00e4ge", "operator": "Trafikverket F\u00e4rjerederiet", "public_transport": "stop_position"}}, {"type": "node", "id": 340472630, "lat": 57.8856952, "lon": 11.5851629, "tags": {"amenity": "ferry_terminal", "cargo": "passengers", "ferry": "yes", "name": "Marstrands\u00f6n", "network": "V\u00e4sttrafik", "public_transport": "stop_position", "ref": "A"}}, {"type": "node", "id": 471960572, "lat": 57.748475, "lon": 11.6549394, "tags": {"amenity": "ferry_terminal"}}, {"type": "node", "id": 478213370, "lat": 57.7714322, "lon": 11.6210087, "tags": {"amenity": "ferry_terminal", "cargo": "passengers;vehicle", "name": "R\u00f6r\u00f6"}}, {"type": "node", "id": 481406555, "lat": 57.8188568, "lon": 11.8770687, "tags": {"amenity": "ferry_terminal", "cargo": "passengers;vehicle;motor_vehicle", "ferry": "yes", "name": "Kornhall", "network": "V\u00e4sttrafik", "public_transport": "stop_position"}}, {"type": "node", "id": 495493973, "lat": 57.9241447, "lon": 11.5890916, "tags": {"amenity": "ferry_terminal", "ferry": "footway", "name": "\u00c5stol", "network": "V\u00e4sttrafik", "operator": "V\u00e4sttrafik", "public_transport": "stop_position", "ref": "A"}}, {"type": "node", "id": 495493998, "lat": 57.9358986, "lon": 11.5715664, "tags": {"amenity": "ferry_terminal", "ferry": "footway", "name": "Tj\u00f6rnekalv", "network": "V\u00e4sttrafik", "operator": "V\u00e4sttrafik", "public_transport": "stop_position"}}, {"type": "node", "id": 659541478, "lat": 58.0904087, "lon": 11.5277106, "tags": {"amenity": "ferry_terminal", "ferry": "yes", "name": "Lyr", "public_transport": "stop_position"}}, {"type": "node", "id": 1595423529, "lat": 58.0918323, "lon": 11.5287642, "tags": {"amenity": "ferry_terminal", "ferry": "yes", "name": "Lyresten", "public_transport": "stop_position"}}, {"type": "node", "id": 2859608779, "lat": 57.9355253, "lon": 11.5754058, "tags": {"amenity": "ferry_terminal", "cargo": "passengers", "ferry": "footway", "name": "R\u00f6nn\u00e4ngs brygga", "network": "V\u00e4sttrafik", "operator": "V\u00e4sttrafik", "public_transport": "stop_position", "ref": "B"}}, {"type": "node", "id": 3031737170, "lat": 58.015074, "lon": 11.5142124, "tags": {"amenity": "ferry_terminal", "cargo": "passengers", "ferry": "footway", "name": "Kyrkesunds brygga", "network": "V\u00e4sttrafik", "public_transport": "stop_position", "ref": "B", "wheelchair": "yes"}}, {"type": "node", "id": 3031737182, "lat": 58.0159125, "lon": 11.5133501, "tags": {"amenity": "ferry_terminal", "cargo": "passengers", "fee": "45 SKR", "ferry": "footway", "name": "H\u00e4r\u00f6n", "network": "V\u00e4sttrafik", "public_transport": "stop_position", "ref": "A", "wheelchair": "yes"}}, {"type": "node", "id": 3424978991, "lat": 57.9295964, "lon": 11.6019154, "tags": {"alt_name": "Dyr\u00f6n", "amenity": "ferry_terminal", "ferry": "footway", "name": "Dyr\u00f6n norra", "network": "V\u00e4sttrafik", "operator": "V\u00e4sttrafik", "public_transport": "stop_position"}}, {"type": "node", "id": 3507091970, "lat": 57.890065, "lon": 11.6657663, "tags": {"amenity": "ferry_terminal", "cargo": "passengers", "name": "R\u00f6kan", "network": "V\u00e4sttrafik", "operator": "Gunnars B\u00e5tturer"}}, {"type": "node", "id": 4705867797, "lat": 57.8867088, "lon": 11.5882258, "tags": {"amenity": "ferry_terminal", "ferry": "yes", "name": "Marstrands f\u00e4rjel\u00e4ge", "network": "V\u00e4sttrafik", "public_transport": "stop_position", "ref": "D"}}, {"type": "node", "id": 5862899012, "lat": 57.9211085, "lon": 11.7257126, "tags": {"amenity": "ferry_terminal", "ferry": "yes", "name": "Bratt\u00f6n v\u00e4stra", "public_transport": "station"}}, {"type": "node", "id": 9920969777, "lat": 57.9255552, "lon": 11.6180621, "tags": {"amenity": "ferry_terminal", "cargo": "passengers"}}]}