{"version": 0.6, "generator": "Overpass API 0.7.61.5 4133829e", "osm3s": {"timestamp_osm_base": "2024-03-06T11:04:23Z", "copyright": "The data included in this document is from www.openstreetmap.org. The data is made available under ODbL."}, "elements": [{"type": "node", "id": 4425904491, "lat": 31.8266004, "lon": 47.1508134, "tags": {"amenity": "bank", "name": "\u0645\u0635\u0631\u0641 \u0639\u0648\u0627\u0634\u0629", "name:ar": "\u0645\u0635\u0631\u0641 \u0627\u0644\u0631\u0634\u064a\u062f \u0641\u0631\u0639 \u0627\u0644\u0648\u0641\u0627\u0621"}}, {"type": "node", "id": 4588931267, "lat": 31.8482365, "lon": 47.150497}, {"type": "node", "id": 4588931268, "lat": 31.8482167, "lon": 47.1502728}, {"type": "node", "id": 4588931269, "lat": 31.8480481, "lon": 47.1502705}, {"type": "node", "id": 4588931270, "lat": 31.8480501, "lon": 47.1504993}, {"type": "node", "id": 4824207122, "lat": 31.835829, "lon": 47.1497698, "tags": {"amenity": "bank", "name": "\u0635\u0646\u062f\u0648\u0642 \u0627\u0644\u0633\u0643\u0627\u0646", "name:ar": "@\u0635\u0646\u062f\u0648\u0642 \u0627\u0644\u0633\u0643\u0627\u0646"}}, {"type": "node", "id": 4907401721, "lat": 31.8267628, "lon": 47.1508071, "tags": {"addr:street": "\u064dShuhdya Bridge", "amenity": "bank", "name": "\u0645\u0635\u0631\u0641 \u0627\u0644\u062e\u0644\u064a\u062c \u0627\u0644\u0627\u0647\u0644\u064a", "name:ar": "\u0645\u0635\u0631\u0641 \u0627\u0644\u062e\u0644\u064a\u062c \u0627\u0644\u0627\u0647\u0644\u064a"}}, {"type": "node", "id": 5660706429, "lat": 32.0493353, "lon": 47.4764234, "tags": {"amenity": "bank", "name": "\u0645\u062f\u062e\u0644 \u0633\u0627\u062d\u0629 109"}}, {"type": "node", "id": 5660706524, "lat": 32.1085447, "lon": 47.4053082, "tags": {"amenity": "bank", "name": "\u0633\u0627\u062d\u0629 149 \u0628\u0632\u0631\u0643\u0627\u0646"}}, {"type": "node", "id": 5895048085, "lat": 31.8037952, "lon": 47.2918744, "tags": {"amenity": "bank"}}, {"type": "node", "id": 6451225285, "lat": 31.8478946, "lon": 47.1431883, "tags": {"amenity": "bank", "name": "\u0645\u0635\u0631\u0641 \u0627\u0644\u0631\u0634\u064a\u062f \u0641\u0631\u0639 \u0627\u0644\u0647\u0627\u062f\u064a"}}, {"type": "node", "id": 6451225387, "lat": 31.8493648, "lon": 47.1421247, "tags": {"amenity": "bank", "name": "\u0645\u0635\u0631\u0641 \u0627\u0644\u0639\u0631\u0627\u0642\u064a \u0644\u0644\u062a\u062c\u0627\u0631\u0629", "name:ar": "\u0645\u0635\u0631\u0641 \u0627\u0644\u0639\u0631\u0627\u0642\u064a \u0644\u0644\u062a\u062c\u0627\u0631\u0629 TPI"}}, {"type": "node", "id": 7077584885, "lat": 31.835116, "lon": 47.1583079, "tags": {"addr:street": "\u0634\u0627\u0631\u0639 \u0627\u0644\u0633\u0648\u0642 \u062d\u064a \u0627\u0644\u062d\u0633\u064a\u0646 \u0627\u0644\u0642\u062f\u064a\u0645", "amenity": "bank", "name": "\u0645\u0635\u0631\u0641 \u0627\u0644\u062a\u0646\u0645\u064a\u0629 \u0627\u0644\u062f\u0648\u0644\u064a \u0627\u0644\u0641\u0631\u0639 \u0627\u0644\u0639\u0645\u0627\u0631\u0629", "opening_hours": "Su-Th 09:00-14:00"}}, {"type": "node", "id": 8083093618, "lat": 31.8370563, "lon": 47.1457979, "tags": {"amenity": "bank", "name": "\u0627\u0644\u0645\u0635\u0631\u0641 \u0627\u0644\u0632\u0631\u0627\u0639\u064a"}}, {"type": "node", "id": 8083093717, "lat": 31.8370469, "lon": 47.1462364, "tags": {"amenity": "bank", "name": "\u0627\u0644\u0645\u0635\u0631\u0641 \u0627\u0644\u0639\u0642\u0627\u0631\u064a"}}, {"type": "node", "id": 9384284164, "lat": 31.8524204, "lon": 47.14166, "tags": {"addr:full": "ATM-AMARA-ALSADER H. AMMARA", "amenity": "atm", "atm": "yes", "cash_out": "yes", "currency:IQD": "yes", "language:ar": "yes", "language:en": "yes", "name": "\u0635\u0631\u0627\u0641 \u0622\u0644\u064a - \u0627\u0644\u0645\u0635\u0631\u0641 \u0627\u0644\u0639\u0631\u0627\u0642\u064a \u0644\u0644\u062a\u062c\u0627\u0631\u0629", "name:en": "TBI ATM", "operator": "Trade Bank of Iraq", "website": "https://tbi.com.iq/"}}, {"type": "node", "id": 9384284168, "lat": 31.8315181, "lon": 47.1463073, "tags": {"addr:full": "ATM-OMARAH-IHEC-OMARAH", "amenity": "atm", "atm": "yes", "cash_out": "yes", "currency:IQD": "yes", "language:ar": "yes", "language:en": "yes", "name": "\u0635\u0631\u0627\u0641 \u0622\u0644\u064a - \u0627\u0644\u0645\u0635\u0631\u0641 \u0627\u0644\u0639\u0631\u0627\u0642\u064a \u0644\u0644\u062a\u062c\u0627\u0631\u0629", "name:en": "TBI ATM", "operator": "Trade Bank of Iraq", "website": "https://tbi.com.iq/"}}, {"type": "node", "id": 9384284188, "lat": 31.8334511, "lon": 47.155024, "tags": {"addr:full": "ATM - AMARAH - ZAD ALKHAIR CENTER", "amenity": "atm", "atm": "yes", "cash_out": "yes", "currency:IQD": "yes", "language:ar": "yes", "language:en": "yes", "name": "\u0635\u0631\u0627\u0641 \u0622\u0644\u064a - \u0627\u0644\u0645\u0635\u0631\u0641 \u0627\u0644\u0639\u0631\u0627\u0642\u064a \u0644\u0644\u062a\u062c\u0627\u0631\u0629", "name:en": "TBI ATM", "operator": "Trade Bank of Iraq", "website": "https://tbi.com.iq/"}}, {"type": "node", "id": 9384284191, "lat": 31.8694556, "lon": 47.1474096, "tags": {"addr:full": "ATM - Ammara - Syed Baqir Mall", "amenity": "atm", "atm": "yes", "cash_out": "yes", "currency:IQD": "yes", "language:ar": "yes", "language:en": "yes", "name": "\u0635\u0631\u0627\u0641 \u0622\u0644\u064a - \u0627\u0644\u0645\u0635\u0631\u0641 \u0627\u0644\u0639\u0631\u0627\u0642\u064a \u0644\u0644\u062a\u062c\u0627\u0631\u0629", "name:en": "TBI ATM", "operator": "Trade Bank of Iraq", "website": "https://tbi.com.iq/"}}, {"type": "node", "id": 9384316643, "lat": 31.8386711, "lon": 47.1464879, "tags": {"addr:full": "ATM-MESSAN-Oil Pro. Dis. Comp", "amenity": "atm", "atm": "yes", "cash_out": "yes", "currency:IQD": "yes", "language:ar": "yes", "language:en": "yes", "name": "\u0635\u0631\u0627\u0641 \u0622\u0644\u064a - \u0627\u0644\u0645\u0635\u0631\u0641 \u0627\u0644\u0639\u0631\u0627\u0642\u064a \u0644\u0644\u062a\u062c\u0627\u0631\u0629", "name:en": "TBI ATM", "operator": "Trade Bank of Iraq", "website": "https://tbi.com.iq/"}}, {"type": "node", "id": 9384316649, "lat": 31.838762, "lon": 47.3146261, "tags": {"addr:full": "ATM- Amarah-\u00a0Oil Pro. Dis. Comp.", "amenity": "atm", "atm": "yes", "cash_out": "yes", "currency:IQD": "yes", "language:ar": "yes", "language:en": "yes", "name": "\u0635\u0631\u0627\u0641 \u0622\u0644\u064a - \u0627\u0644\u0645\u0635\u0631\u0641 \u0627\u0644\u0639\u0631\u0627\u0642\u064a \u0644\u0644\u062a\u062c\u0627\u0631\u0629", "name:en": "TBI ATM", "operator": "Trade Bank of Iraq", "website": "https://tbi.com.iq/"}}, {"type": "node", "id": 9384316650, "lat": 31.8212181, "lon": 47.1605301, "tags": {"addr:full": "Branch - Amarah - Messan Oil Company", "amenity": "bank", "name": "\u0627\u0644\u0645\u0635\u0631\u0641 \u0627\u0644\u0639\u0631\u0627\u0642\u064a \u0644\u0644\u062a\u062c\u0627\u0631\u0629", "name:en": "Trade Bank of Iraq Branch", "operator": "Trade Bank of Iraq", "website": "https://tbi.com.iq/"}}, {"type": "node", "id": 9384316662, "lat": 31.8397394, "lon": 47.1500218, "tags": {"addr:full": "ATM-Baghdad-ALZAHRAWI HOSP", "amenity": "atm", "atm": "yes", "cash_out": "yes", "currency:IQD": "yes", "language:ar": "yes", "language:en": "yes", "name": "\u0635\u0631\u0627\u0641 \u0622\u0644\u064a - \u0627\u0644\u0645\u0635\u0631\u0641 \u0627\u0644\u0639\u0631\u0627\u0642\u064a \u0644\u0644\u062a\u062c\u0627\u0631\u0629", "name:en": "TBI ATM", "operator": "Trade Bank of Iraq", "website": "https://tbi.com.iq/"}}, {"type": "node", "id": 9384316669, "lat": 31.8285486, "lon": 47.150893, "tags": {"addr:full": "ATM - AMMARAH - SECURITY ADVISORY", "amenity": "atm", "atm": "yes", "cash_out": "yes", "currency:IQD": "yes", "language:ar": "yes", "language:en": "yes", "name": "\u0635\u0631\u0627\u0641 \u0622\u0644\u064a - \u0627\u0644\u0645\u0635\u0631\u0641 \u0627\u0644\u0639\u0631\u0627\u0642\u064a \u0644\u0644\u062a\u062c\u0627\u0631\u0629", "name:en": "TBI ATM", "operator": "Trade Bank of Iraq", "website": "https://tbi.com.iq/"}}, {"type": "node", "id": 9384316730, "lat": 31.8164734, "lon": 47.1731993, "tags": {"addr:full": "ATM- Amarah- Maisan College", "amenity": "atm", "atm": "yes", "cash_out": "yes", "currency:IQD": "yes", "language:ar": "yes", "language:en": "yes", "name": "\u0635\u0631\u0627\u0641 \u0622\u0644\u064a - \u0627\u0644\u0645\u0635\u0631\u0641 \u0627\u0644\u0639\u0631\u0627\u0642\u064a \u0644\u0644\u062a\u062c\u0627\u0631\u0629", "name:en": "TBI ATM", "operator": "Trade Bank of Iraq", "website": "https://tbi.com.iq/"}}, {"type": "node", "id": 9384316731, "lat": 31.8206854, "lon": 47.1613855, "tags": {"addr:full": "ATM - Amarah - Maysan Oil Company R3", "amenity": "atm", "atm": "yes", "cash_out": "yes", "currency:IQD": "yes", "language:ar": "yes", "language:en": "yes", "name": "\u0635\u0631\u0627\u0641 \u0622\u0644\u064a - \u0627\u0644\u0645\u0635\u0631\u0641 \u0627\u0644\u0639\u0631\u0627\u0642\u064a \u0644\u0644\u062a\u062c\u0627\u0631\u0629", "name:en": "TBI ATM", "operator": "Trade Bank of Iraq", "website": "https://tbi.com.iq/"}}, {"type": "node", "id": 9384316732, "lat": 31.8200603, "lon": 47.1618283, "tags": {"addr:full": "ATM - Amarah - Maysan Oil Company 4", "amenity": "atm", "atm": "yes", "cash_out": "yes", "currency:IQD": "yes", "language:ar": "yes", "language:en": "yes", "name": "\u0635\u0631\u0627\u0641 \u0622\u0644\u064a - \u0627\u0644\u0645\u0635\u0631\u0641 \u0627\u0644\u0639\u0631\u0627\u0642\u064a \u0644\u0644\u062a\u062c\u0627\u0631\u0629", "name:en": "TBI ATM", "operator": "Trade Bank of Iraq", "website": "https://tbi.com.iq/"}}, {"type": "node", "id": 9384316733, "lat": 31.8219656, "lon": 47.1620965, "tags": {"addr:full": "ATM - Amarah - Maysan Oil Company 6", "amenity": "atm", "atm": "yes", "cash_out": "yes", "currency:IQD": "yes", "language:ar": "yes", "language:en": "yes", "name": "\u0635\u0631\u0627\u0641 \u0622\u0644\u064a - \u0627\u0644\u0645\u0635\u0631\u0641 \u0627\u0644\u0639\u0631\u0627\u0642\u064a \u0644\u0644\u062a\u062c\u0627\u0631\u0629", "name:en": "TBI ATM", "operator": "Trade Bank of Iraq", "website": "https://tbi.com.iq/"}}, {"type": "node", "id": 9384316734, "lat": 31.8200558, "lon": 47.1618283, "tags": {"addr:full": "ATM - Amarah - Maysan Oil Company", "amenity": "atm", "atm": "yes", "cash_out": "yes", "currency:IQD": "yes", "language:ar": "yes", "language:en": "yes", "name": "\u0635\u0631\u0627\u0641 \u0622\u0644\u064a - \u0627\u0644\u0645\u0635\u0631\u0641 \u0627\u0644\u0639\u0631\u0627\u0642\u064a \u0644\u0644\u062a\u062c\u0627\u0631\u0629", "name:en": "TBI ATM", "operator": "Trade Bank of Iraq", "website": "https://tbi.com.iq/"}}, {"type": "node", "id": 9384316735, "lat": 31.8224214, "lon": 47.1606374, "tags": {"addr:full": "ATM - Amarah - Maysan Oil Company 2", "amenity": "atm", "atm": "yes", "cash_out": "yes", "currency:IQD": "yes", "language:ar": "yes", "language:en": "yes", "name": "\u0635\u0631\u0627\u0641 \u0622\u0644\u064a - \u0627\u0644\u0645\u0635\u0631\u0641 \u0627\u0644\u0639\u0631\u0627\u0642\u064a \u0644\u0644\u062a\u062c\u0627\u0631\u0629", "name:en": "TBI ATM", "operator": "Trade Bank of Iraq", "website": "https://tbi.com.iq/"}}, {"type": "node", "id": 9384316785, "lat": 31.8490687, "lon": 47.1420121, "tags": {"addr:full": "Branch - Amarah", "amenity": "bank", "name": "\u0627\u0644\u0645\u0635\u0631\u0641 \u0627\u0644\u0639\u0631\u0627\u0642\u064a \u0644\u0644\u062a\u062c\u0627\u0631\u0629", "name:en": "Trade Bank of Iraq Branch", "operator": "Trade Bank of Iraq", "website": "https://tbi.com.iq/"}}, {"type": "node", "id": 9384316786, "lat": 31.8490141, "lon": 47.1420953, "tags": {"addr:full": "Branch - AMARAH 2", "amenity": "bank", "name": "\u0627\u0644\u0645\u0635\u0631\u0641 \u0627\u0644\u0639\u0631\u0627\u0642\u064a \u0644\u0644\u062a\u062c\u0627\u0631\u0629", "name:en": "Trade Bank of Iraq Branch", "operator": "Trade Bank of Iraq", "website": "https://tbi.com.iq/"}}, {"type": "node", "id": 9821591717, "lat": 31.8384679, "lon": 47.1532139, "tags": {"amenity": "bank", "name": "\u0645\u0635\u0631\u0641 \u0627\u0644\u0631\u0634\u064a\u062f .\u0639\u0645\u0627\u0631\u0629"}}, {"type": "node", "id": 9821625417, "lat": 31.8266822, "lon": 47.1514707, "tags": {"amenity": "bank", "name": "\u0645\u0635\u0631\u0641 \u0627\u0644\u0631\u0634\u064a\u062f \u0627\u0644\u0643\u0631\u0627\u0645\u0629 ..\u0634\u0627\u0631\u0639 \u0627\u0644\u0645\u0635\u0631\u0641"}}, {"type": "way", "id": 463638052, "nodes": [4588931267, 4588931268, 4588931269, 4588931270, 4588931267], "tags": {"amenity": "bank", "atm": "no", "building": "yes", "drive_through": "no", "name": "Raifedaieen Bank", "name:ar": "\u0645\u0635\u0631\u0641 \u0627\u0644\u0631\u0627\u0641\u062f\u064a\u0646", "opening_hours": "08:00+", "operator": "Goverment"}}]}