{"version": 0.6, "generator": "Overpass API 0.7.61.5 4133829e", "osm3s": {"timestamp_osm_base": "2024-03-05T18:56:41Z", "copyright": "The data included in this document is from www.openstreetmap.org. The data is made available under ODbL."}, "elements": [{"type": "node", "id": 312274999, "lat": 58.7223938, "lon": 11.3206222, "tags": {"amenity": "bus_station", "name": "Tanumshede centrum", "operator": "V\u00e4sttrafik", "public_transport": "station"}}, {"type": "node", "id": 312591220, "lat": 58.6919583, "lon": 11.2539317, "tags": {"amenity": "bus_station", "name": "Grebbestads busstation", "operator": "V\u00e4sttrafik", "public_transport": "station"}}, {"type": "node", "id": 505207256, "lat": 58.9366843, "lon": 11.1739125, "tags": {"amenity": "bus_station", "name": "Str\u00f6mstad station", "operator": "V\u00e4sttrafik", "public_transport": "station", "wheelchair": "yes"}}, {"type": "node", "id": 1649252094, "lat": 58.9223774, "lon": 11.2629426, "tags": {"amenity": "bus_station", "name": "Skee", "official_name": "Skee station", "public_transport": "station", "railway": "station", "railway:ref": "Ske", "ref": "Skee", "train": "yes"}}, {"type": "node", "id": 1871130226, "lat": 59.02465, "lon": 11.0374249, "tags": {"amenity": "ferry_terminal", "ferry": "yes", "name": "Skj\u00e6rhalden", "public_transport": "station"}}, {"type": "node", "id": 1871130363, "lat": 59.0243901, "lon": 11.037282, "tags": {"amenity": "ferry_terminal", "ferry": "yes", "name": "Skj\u00e6rhalden", "operator": "Nadir Hvaler Fjordcruise", "public_transport": "station"}}, {"type": "node", "id": 9467961969, "lat": 58.9363137, "lon": 11.1733371, "tags": {"name": "Str\u00f6mstad", "official_name": "Str\u00f6mstad station", "public_transport": "station", "railway": "station", "train": "yes"}}]}