{"version": 0.6, "generator": "Overpass API 0.7.61.5 4133829e", "osm3s": {"timestamp_osm_base": "2024-02-29T13:47:24Z", "copyright": "The data included in this document is from www.openstreetmap.org. The data is made available under ODbL."}, "elements": [{"type": "node", "id": 6881453685, "lat": 7.8588725, "lon": -2.3493178, "tags": {"amenity": "school", "name": "Njau Tano so R", "name:en": "Njau Tanoso RC"}}, {"type": "node", "id": 6881715785, "lat": 8.0697327, "lon": -2.3507855, "tags": {"amenity": "school", "name": "Sabiye Presbyterian Basic"}}, {"type": "node", "id": 7051674309, "lat": 7.8672955, "lon": -2.3047337}, {"type": "node", "id": 7197776785, "lat": 7.6697321, "lon": -2.1460194, "tags": {"amenity": "school", "name": "Boasu MA Basic"}}, {"type": "node", "id": 7198169491, "lat": 7.7209305, "lon": -2.0558427, "tags": {"amenity": "school", "name": "Kokoago DA Basic"}}, {"type": "node", "id": 7198169586, "lat": 7.7602037, "lon": -2.0378836, "tags": {"amenity": "school", "name": "Issakrom DA Basic School"}}, {"type": "node", "id": 7198188085, "lat": 7.7451187, "lon": -2.0307507, "tags": {"amenity": "school", "name": "Ampenkrom DA Basic School"}}, {"type": "node", "id": 7251005291, "lat": 7.6527539, "lon": -2.3925864, "tags": {"amenity": "school", "name": "Soulag\u00e9 DA Basic"}}, {"type": "node", "id": 7251005292, "lat": 7.67126, "lon": -2.4091778, "tags": {"amenity": "school", "name": "Tiadene DA Basic"}}, {"type": "node", "id": 7251295186, "lat": 7.8345136, "lon": -2.2345862, "tags": {"amenity": "school", "name": "Yabraso RC Basic School"}}, {"type": "node", "id": 7251394685, "lat": 7.8586275, "lon": -2.3505441, "tags": {"amenity": "school", "name": "Njau Tanoso DA Basic School"}}, {"type": "node", "id": 7252644985, "lat": 7.8187338, "lon": -2.0366903, "tags": {"amenity": "school", "name": "Nwoase MA Basic"}}, {"type": "node", "id": 7252645085, "lat": 7.8142557, "lon": -2.0431926, "tags": {"amenity": "school", "name": "Nwoase RC Basic"}}, {"type": "node", "id": 7252647785, "lat": 7.8005982, "lon": -2.0625631, "tags": {"amenity": "school", "name": "Akete MA Basic"}}, {"type": "node", "id": 7252754686, "lat": 7.9809775, "lon": -2.0650416, "tags": {"amenity": "school", "name": "Branham basis school"}}, {"type": "node", "id": 7905445387, "lat": 7.7111724, "lon": -2.2283793}, {"type": "node", "id": 7905445388, "lat": 7.7131021, "lon": -2.2271991}, {"type": "node", "id": 7905445389, "lat": 7.7144789, "lon": -2.2259492}, {"type": "node", "id": 7905445390, "lat": 7.7135114, "lon": -2.2239161}, {"type": "node", "id": 7905445391, "lat": 7.7122568, "lon": -2.2246081}, {"type": "node", "id": 7905445392, "lat": 7.7098275, "lon": -2.2259599}, {"type": "node", "id": 8176436426, "lat": 7.6784783, "lon": -2.1098632}, {"type": "node", "id": 8176436427, "lat": 7.6783614, "lon": -2.1100617}, {"type": "node", "id": 8176436428, "lat": 7.6764687, "lon": -2.1094608}, {"type": "node", "id": 8176436429, "lat": 7.6757298, "lon": -2.1090467}, {"type": "node", "id": 8176436430, "lat": 7.6766662, "lon": -2.1053321}, {"type": "node", "id": 8176436431, "lat": 7.6772396, "lon": -2.1056145}, {"type": "node", "id": 8176436432, "lat": 7.6785208, "lon": -2.1063387}, {"type": "node", "id": 8176436433, "lat": 7.679515, "lon": -2.1067357}, {"type": "node", "id": 8437123726, "lat": 7.8004347, "lon": -2.064017}, {"type": "node", "id": 8437123727, "lat": 7.8013636, "lon": -2.0634144}, {"type": "node", "id": 8437123728, "lat": 7.8014673, "lon": -2.0619489}, {"type": "node", "id": 8437123729, "lat": 7.8008693, "lon": -2.0618058}, {"type": "node", "id": 8437123730, "lat": 7.7999927, "lon": -2.0635842}, {"type": "node", "id": 8437123958, "lat": 7.8146196, "lon": -2.0441653}, {"type": "node", "id": 8437123959, "lat": 7.8139904, "lon": -2.0440431}, {"type": "node", "id": 8437123960, "lat": 7.8140769, "lon": -2.0434848}, {"type": "node", "id": 8437123961, "lat": 7.8136862, "lon": -2.0425323}, {"type": "node", "id": 8437123962, "lat": 7.8138833, "lon": -2.041953}, {"type": "node", "id": 8437123963, "lat": 7.8143292, "lon": -2.0420228}, {"type": "node", "id": 8437123964, "lat": 7.8148443, "lon": -2.0422601}, {"type": "node", "id": 8437123965, "lat": 7.8152177, "lon": -2.0424729}, {"type": "node", "id": 8437123966, "lat": 7.8153801, "lon": -2.042773}, {"type": "node", "id": 8437123967, "lat": 7.8153836, "lon": -2.0429928}, {"type": "node", "id": 8458622189, "lat": 7.924488, "lon": -2.3796505}, {"type": "node", "id": 8458622190, "lat": 7.9239833, "lon": -2.379511}, {"type": "node", "id": 8458622191, "lat": 7.9235529, "lon": -2.3791462}, {"type": "node", "id": 8458622192, "lat": 7.9230216, "lon": -2.3790336}, {"type": "node", "id": 8458622193, "lat": 7.9226125, "lon": -2.3792321}, {"type": "node", "id": 8458622194, "lat": 7.9220227, "lon": -2.3793769}, {"type": "node", "id": 8458622195, "lat": 7.9218686, "lon": -2.3783577}, {"type": "node", "id": 8458622196, "lat": 7.9221343, "lon": -2.3764694}, {"type": "node", "id": 8458622197, "lat": 7.9230853, "lon": -2.3757291}, {"type": "node", "id": 8458622198, "lat": 7.9252797, "lon": -2.3793608}, {"type": "node", "id": 8486706269, "lat": 7.8666313, "lon": -2.3042241}, {"type": "node", "id": 8486706270, "lat": 7.8646784, "lon": -2.3021346}, {"type": "node", "id": 8486706271, "lat": 7.8618726, "lon": -2.3043394}, {"type": "node", "id": 8486706272, "lat": 7.8619258, "lon": -2.3054552}, {"type": "node", "id": 8486706273, "lat": 7.8631799, "lon": -2.3075366}, {"type": "node", "id": 8486706274, "lat": 7.86606, "lon": -2.3091728}, {"type": "node", "id": 8486706275, "lat": 7.8680182, "lon": -2.3051602}, {"type": "node", "id": 8629629086, "lat": 7.6587277, "lon": -2.1002501}, {"type": "node", "id": 8629629087, "lat": 7.657372, "lon": -2.0998693}, {"type": "node", "id": 8629629088, "lat": 7.6571912, "lon": -2.1005613}, {"type": "node", "id": 8629629089, "lat": 7.6551071, "lon": -2.100116}, {"type": "node", "id": 8629629090, "lat": 7.6558355, "lon": -2.0974445}, {"type": "node", "id": 8629629091, "lat": 7.6574677, "lon": -2.0980829}, {"type": "node", "id": 8629629092, "lat": 7.659068, "lon": -2.0985201}, {"type": "node", "id": 8636209892, "lat": 7.7517175, "lon": -2.1030396}, {"type": "node", "id": 8636209893, "lat": 7.7514597, "lon": -2.1031469}, {"type": "node", "id": 8636209894, "lat": 7.7527248, "lon": -2.1061912}, {"type": "node", "id": 8636209895, "lat": 7.7539341, "lon": -2.1064702}, {"type": "node", "id": 8636209896, "lat": 7.7552762, "lon": -2.1068376}, {"type": "node", "id": 8636209897, "lat": 7.7553984, "lon": -2.1050566}, {"type": "node", "id": 8636209898, "lat": 7.7580614, "lon": -2.1049064}, {"type": "node", "id": 8636209899, "lat": 7.7579817, "lon": -2.1041286}, {"type": "node", "id": 8636209900, "lat": 7.7573173, "lon": -2.1005452}, {"type": "node", "id": 8636209901, "lat": 7.7516272, "lon": -2.102817}, {"type": "way", "id": 847191123, "nodes": [7905445392, 7905445391, 7905445390, 7905445389, 7905445388, 7905445387, 7905445392], "tags": {"addr:country": "GH", "addr:district": "Tain", "addr:place": "Badu", "addr:region": "Bono", "amenity": "school", "description": "The school is located off the Badu \u2013Wenchi Road. It has a functional Board of Governors and an efficient management team that sees to the day- to- day running of the school.", "email": "badushst@ges.gov.gh", "isced:level": "3", "name": "Badu Senior High/Technical School", "operator": "Ghana Education Service", "operator:short": "GES", "operator:type": "public", "operator:wikidata": "Q30263788", "phone": "+233 20 823 7325", "start_date": "1991"}}, {"type": "way", "id": 878905105, "nodes": [8176436433, 8176436432, 8176436431, 8176436430, 8176436429, 8176436428, 8176436427, 8176436426, 8176436433], "tags": {"addr:country": "GH", "addr:district": "Wenchi Municipal", "addr:place": "Koase", "addr:region": "Bono", "amenity": "school", "description": "The school, established on 28th January, 1991, is located at Koase, in the Wenchi Municipality of the Brong Ahafo Region of Ghana. It is 5 kilometres off the Wenchi- Techiman road.", "email": "koaseshst@ges.gov.gh", "isced:level": "3", "name": "Koase Senior High/Technical School", "operator": "Ghana Education Service", "operator:short": "GES", "operator:type": "public", "operator:wikidata": "Q30263788", "phone": "+233 20 245 0094", "start_date": "28/01/1991"}}, {"type": "way", "id": 908652500, "nodes": [8437123726, 8437123727, 8437123728, 8437123729, 8437123730, 8437123726], "tags": {"amenity": "school"}}, {"type": "way", "id": 908652520, "nodes": [8437123958, 8437123959, 8437123960, 8437123961, 8437123962, 8437123963, 8437123964, 8437123965, 8437123966, 8437123967, 8437123958], "tags": {"amenity": "school"}}, {"type": "way", "id": 910942006, "nodes": [8458622198, 8458622197, 8458622196, 8458622195, 8458622194, 8458622193, 8458622192, 8458622191, 8458622190, 8458622189, 8458622198], "tags": {"addr:country": "GH", "addr:district": "Tain", "addr:place": "Menji", "addr:region": "Bono", "amenity": "school", "description": "Menji Agricultural Senior High School is located in Menji, a small rural town in Tain District in the Bono Region of Ghana.", "email": "menjishs@ges.gov.gh", "isced:level": "3", "name": "Menji Agricultural Senior High School", "operator": "Ghana Education Service", "operator:short": "GES", "operator:type": "public", "operator:wikidata": "Q30263788", "phone": "+233 24 642 8917", "start_date": "1993"}}, {"type": "way", "id": 913603248, "nodes": [8486706275, 8486706274, 8486706273, 8486706272, 8486706271, 8486706270, 8486706269, 7051674309, 8486706275], "tags": {"addr:country": "GH", "addr:district": "Tain", "addr:place": "Tain", "addr:region": "Bono", "amenity": "school", "description": "The school was founded on 18th October, 2008 as a community senior high school. The school is located in a nice serene environment on the Nsawkaw-Wenchi road adjacent the New Tain District Hospital.", "email": "nsawkawstateshs@ges.gov.gh", "isced:level": "3", "name": "Nsawkaw State Senior High School", "operator": "Ghana Education Service", "operator:short": "GES", "operator:type": "public", "operator:wikidata": "Q30263788", "phone": "+233 24 622 7442", "start_date": "18/10/2008"}}, {"type": "way", "id": 930715044, "nodes": [8629629092, 8629629091, 8629629090, 8629629089, 8629629088, 8629629087, 8629629086, 8629629092], "tags": {"addr:country": "GH", "addr:district": "Wenchi Municipal", "addr:place": "Wenchi", "addr:region": "Bono", "amenity": "school", "description": "Istiquaama Senior High School is an Islamic institution which is located off the Wenchi\u2013Techiman road. It is one of the fastest growing Senior High Schools in the Municipality.", "email": "istiquaamashs@ges.gov.gh", "isced:level": "3", "name": "Istiqaama Senior High School", "operator": "Ghana Education Service", "operator:short": "GES", "operator:type": "public", "operator:wikidata": "Q30263788", "phone": "+233 20 916 4808", "religion": "muslim", "start_date": "2006"}}, {"type": "way", "id": 931541846, "nodes": [8636209901, 8636209900, 8636209899, 8636209898, 8636209897, 8636209896, 8636209895, 8636209894, 8636209893, 8636209892, 8636209901], "tags": {"addr:country": "GH", "addr:district": "Wenchi Municipal", "addr:place": "Wenchi", "addr:region": "Bono", "amenity": "school", "denomination": "methodist", "description": "Wenchi Methodist Senior High School (WESS) is one of the few good schools in the Bono Region of Ghana, with an improvement in academics and sports.", "email": "wenchimethshs@ges.gov.gh", "isced:level": "3", "name": "Wenchi Methodist Senior High School", "operator": "Ghana Education Service", "operator:short": "GES", "operator:type": "public", "operator:wikidata": "Q30263788", "phone": "+233 24 320 3477", "religion": "christian", "start_date": "1963"}}]}