{"version": 0.6, "generator": "Overpass API 0.7.61.5 4133829e", "osm3s": {"timestamp_osm_base": "2024-03-06T10:56:14Z", "copyright": "The data included in this document is from www.openstreetmap.org. The data is made available under ODbL."}, "elements": [{"type": "node", "id": 2291409890, "lat": 29.6848391, "lon": 48.8051955, "tags": {"industrial": "oil", "landuse": "industrial", "man_made": "oil_terminal", "name": "\u0645\u064a\u0646\u0627\u0621 \u0627\u0644\u0628\u0635\u0631\u0629 \u0627\u0644\u0646\u0641\u0637\u064a", "name:ar": "\u0645\u064a\u0646\u0627\u0621 \u0627\u0644\u0628\u0635\u0631\u0629 \u0627\u0644\u0646\u0641\u0637\u064a", "name:en": "Al Basrah Oil Terminal", "name:id": "Terminal Minyak Al Ba\u015frah", "name:it": "Al Ba\u015frah Oil Terminal", "old_name": "\u0645\u064a\u0646\u0627\u0621 \u0627\u0644\u0628\u0643\u0631", "seamark:platform:category": "oil", "wikidata": "Q4703575", "wikipedia": "ar:\u0645\u064a\u0646\u0627\u0621 \u0627\u0644\u0628\u0635\u0631\u0629 \u0627\u0644\u0646\u0641\u0637\u064a"}}, {"type": "node", "id": 2291409926, "lat": 29.7822207, "lon": 48.8083144, "tags": {"alt_name": "\u0645\u06cc\u0646\u0627\u0621 \u062e\u0648\u0631 \u0627\u0644\u0639\u0645\u06cc\u0629", "industrial": "oil", "int_name": "Khawr al Amay\u0101h, Khawr al Amaya, Khor al Amaya Terminal, Khor al Amaja, Khor al Amaya, Khor Al Amiyah, Khor Al Ummayya, Mena al Amaya, M\u012bn\u0101 Khawr al Am\u012byah, \u0645\u064a\u0646\u0627\u0621 \u062e\u0648\u0631 \u0627\u0644\u0639\u0645\u064a\u0629, Khawr al Amayah, Khawr al Amaya, Khor al Amaya Terminal", "landuse": "industrial", "man_made": "oil_terminal", "name": "\u0645\u06cc\u0646\u0627\u0621 \u062e\u0648\u0631 \u0627\u0644\u0639\u0645\u06cc\u0629", "name:ar": "\u0645\u064a\u0646\u0627\u0621 \u062e\u0648\u0631 \u0627\u0644\u0639\u0645\u064a\u0629", "name:de": "Khawr al Amayah", "name:en": "Khor Al Amaya Oil Terminal", "name:fr": "Khawr al Amayah", "name:it": "Khor Al Amaya Oil Terminal", "seamark:platform:category": "oil", "wikidata": "Q620329", "wikipedia": "ar:\u062e\u0648\u0631 \u0627\u0644\u0639\u0645\u064a\u0629"}}]}