{"version": 0.6, "generator": "Overpass API 0.7.61.5 4133829e", "osm3s": {"timestamp_osm_base": "2024-03-06T11:15:40Z", "copyright": "The data included in this document is from www.openstreetmap.org. The data is made available under ODbL."}, "elements": [{"type": "node", "id": 2487820003, "lat": 31.5770728, "lon": 47.1645744, "tags": {"alt_name": "\u0627\u0644\u0639\u064a\u0644\u0629", "int_name": "Al Aylah, Al Ailah, Al Aylah, Al Ailah", "is_in": "Iraq , \u062c\u0645\u0647\u0648\u0631\u064a\u0629 \u0627\u0644\u0639\u0631\u0627\u0642", "name": "\u0627\u0644\u0639\u064a\u0644\u0629", "name:ar": "\u062d\u064a 14 \u0631\u0645\u0636\u0627\u0646", "name:ar1": "\u0627\u0644\u0639\u064a\u0644\u0629", "name:de": "Al Aylah", "name:en": "Al Aylah", "name:fr": "Al Aylah", "place": "village"}}, {"type": "node", "id": 2487820008, "lat": 31.5835198, "lon": 47.1687919, "tags": {"alt_name": "Al Majar al Kab\u012br, Al Majarr al Kab\u012br, Al Mijar al Kab\u012br, \u0627\u0644\u0645\u062c\u0631 \u0627\u0644\u0643\u0628\u064a\u0631, Al Majar al Kabir, Al Majarr al Kabir, Al Mijar al Kabir, \u0627\u0644\u0645\u062c\u0631 \u0627\u0644\u0643\u0628\u064a\u0631", "capital": "6", "int_name": "Al Majar al Kabir - \u0627\u0644\u0645\u062c\u0631 \u0627\u0644\u0643\u0628\u064a\u0631", "is_in": "Iraq , \u062c\u0645\u0647\u0648\u0631\u064a\u0629 \u0627\u0644\u0639\u0631\u0627\u0642", "is_in:country": "Iraq", "is_in:country_code": "IQ", "name": "\u0627\u0644\u0645\u062c\u0631 \u0627\u0644\u0643\u0628\u064a\u0631", "name:ar": "\u0627\u0644\u0645\u062c\u0631 \u0627\u0644\u0643\u0628\u064a\u0631", "name:de": "Al Majar al Kabir", "name:en": "Al Majar al Kabir", "name:fr": "Al Majar al Kabir", "name:ru": "\u042d\u043b\u044c-\u041c\u0430\u0434\u0436\u0430\u0440\u0440-\u044d\u043b\u044c-\u041a\u0430\u0431\u0438\u0440", "place": "town", "population": "46182", "population:date": "2012", "source:population": "https://ru.wikipedia.org/wiki/%D0%AD%D0%BB%D1%8C-%D0%9C%D0%B0%D0%B4%D0%B6%D0%B0%D1%80%D1%80-%D1%8D%D0%BB%D1%8C-%D0%9A%D0%B0%D0%B1%D0%B8%D1%80", "wikidata": "Q4120217"}}, {"type": "node", "id": 2487820014, "lat": 31.586667, "lon": 47.168056, "tags": {"alt_name": "\u0627\u0644\u0648\u0627\u0648\u064a", "int_name": "Al W\u0101w\u012b, Al Wawi", "is_in": "Iraq , \u062c\u0645\u0647\u0648\u0631\u064a\u0629 \u0627\u0644\u0639\u0631\u0627\u0642", "name": "\u0627\u0644\u0648\u0627\u0648\u064a", "name:ar": "\u0645\u0646\u0637\u0642\u0647 \u0627\u0644\u0633\u0643\u0631", "name:ar1": "\u0627\u0644\u0648\u0627\u0648\u064a", "name:de": "Al Wawi", "name:en": "Al Wawi", "name:fr": "Al Wawi", "place": "village"}}, {"type": "node", "id": 2487850200, "lat": 31.5667173, "lon": 47.2497699, "tags": {"alt_name": "\u0645\u0648\u0632\u0627\u0646\u064a\u0629", "int_name": "M\u016bz\u0101n\u012bya, M\u016bz\u0101n\u012byah, Muzaniyeh, Muzaniya, Muzaniyah, Muzaniyeh", "is_in": "Iraq , \u062c\u0645\u0647\u0648\u0631\u064a\u0629 \u0627\u0644\u0639\u0631\u0627\u0642", "name": "\u0645\u0648\u0632\u0627\u0646\u064a\u0629", "name:ar": "\u0645\u0648\u0632\u0627\u0646\u064a\u0629", "name:ar1": "\u0645\u0648\u0632\u0627\u0646\u064a\u0629", "name:de": "Muzaniya", "name:en": "Muzaniya", "name:fr": "Muzaniya", "place": "village"}}, {"type": "node", "id": 2487857137, "lat": 31.5282721, "lon": 47.2935304, "tags": {"alt_name": "\u0642\u0644\u0639\u0629 \u0635\u0627\u0644\u062d", "alt_name:en": "Qalat Saleh", "capital": "6", "int_name": "Kala Salih - \u0642\u0644\u0639\u0629 \u0635\u0627\u0644\u062d", "is_in": "Iraq , \u062c\u0645\u0647\u0648\u0631\u064a\u0629 \u0627\u0644\u0639\u0631\u0627\u0642", "name": "\u0642\u0644\u0639\u0629 \u0635\u0627\u0644\u062d", "name:ar": "\u0642\u0644\u0639\u0629 \u0635\u0627\u0644\u062d", "name:de": "Qalat Saleh", "name:en": "Qalat Saleh", "name:fr": "Qalat Saleh", "name:ml": "\u0d16\u0d32\u0d3e\u0d24\u0d4d \u0d38\u0d3e\u0d32\u0d3f\u0d39\u0d4d", "name:ru": "\u041a\u0430\u043b\u044a\u0430\u0442-\u0421\u0430\u043b\u0438\u0445", "place": "city"}}, {"type": "node", "id": 2487857171, "lat": 31.549339, "lon": 47.286175, "tags": {"alt_name": "\u0633\u0644\u0641 \u0627\u0644\u0634\u0648\u064a\u0644\u0627\u062a", "int_name": "Salaf ash Shuwayl\u0101t, \u0633\u0644\u0641 \u0627\u0644\u0634\u0648\u064a\u0644\u0627\u062a, Salaf ash Shuwaylat, \u0633\u0644\u0641 \u0627\u0644\u0634\u0648\u064a\u0644\u0627\u062a", "is_in": "Iraq , \u062c\u0645\u0647\u0648\u0631\u064a\u0629 \u0627\u0644\u0639\u0631\u0627\u0642", "name": "\u0633\u0644\u0641 \u0627\u0644\u0634\u0648\u064a\u0644\u0627\u062a", "name:ar": "\u0642\u0631\u064a\u0629 \u0627\u0644\u0645\u062c\u0631\u064a\u0629", "name:ar1": "\u0633\u0644\u0641 \u0627\u0644\u0634\u0648\u064a\u0644\u0627\u062a", "name:de": "Salaf ash Shuwaylat", "name:en": "Salaf ash Shuwaylat", "name:fr": "Salaf ash Shuwaylat", "name:ku-Arab": "\u0633\u0644\u0641 \u0627\u0644\u0634\u0648\u064a\u0644\u0627\u062a", "place": "village"}}, {"type": "node", "id": 2487867970, "lat": 31.6684231, "lon": 47.2945795, "tags": {"alt_name": "Al Ka\u1e29l\u0101, Kahla, \u0627\u0644\u0643\u062d\u0644\u0627\u0621, Al Kahla, Kahla, \u0627\u0644\u0643\u062d\u0644\u0627\u0621", "capital": "6", "int_name": "Al Kahla - \u0627\u0644\u0643\u062d\u0644\u0627\u0621", "is_in": "Iraq , \u062c\u0645\u0647\u0648\u0631\u064a\u0629 \u0627\u0644\u0639\u0631\u0627\u0642", "name": "\u0627\u0644\u0643\u062d\u0644\u0627\u0621", "name:ar": "\u0627\u0644\u0643\u062d\u0644\u0627\u0621", "name:de": "Al Kahla", "name:en": "Al Kahla", "name:fr": "Al Kahla", "place": "town", "wikidata": "Q4702654", "wikipedia": "en:Al-Kahla District"}}, {"type": "node", "id": 2487867977, "lat": 31.651389, "lon": 47.29, "tags": {"alt_name": "\u0643\u0631\u064a\u0645", "int_name": "Kar\u012bm, Karim", "is_in": "Iraq , \u062c\u0645\u0647\u0648\u0631\u064a\u0629 \u0627\u0644\u0639\u0631\u0627\u0642", "name": "\u0643\u0631\u064a\u0645", "name:ar": "\u0643\u0627\u0637\u0639 \u0644\u0648\u0627\u062d", "name:ar1": "\u0643\u0631\u064a\u0645", "name:de": "Karim", "name:en": "Katea", "name:fr": "Karim", "place": "village"}}, {"type": "node", "id": 2487875707, "lat": 31.4819807, "lon": 47.3843786, "tags": {"alt_name": "\u0633\u0644\u0641 \u0627\u0644\u0643\u0648\u0627\u0645", "int_name": "Salaf al Kuw\u0101m, \u0633\u0644\u0641 \u0627\u0644\u0643\u0648\u0627\u0645, Salaf al Kuwam, \u0633\u0644\u0641 \u0627\u0644\u0643\u0648\u0627\u0645", "is_in": "Iraq , \u062c\u0645\u0647\u0648\u0631\u064a\u0629 \u0627\u0644\u0639\u0631\u0627\u0642", "name": "\u0633\u0644\u0641 \u0627\u0644\u0643\u0648\u0627\u0645", "name:ar": "\u0633\u0644\u0641 \u0627\u0644\u0643\u0648\u0627\u0645", "name:ar1": "\u0633\u0644\u0641 \u0627\u0644\u0643\u0648\u0627\u0645", "name:de": "Salaf al Kuwam", "name:en": "Salaf al Kuwam", "name:fr": "Salaf al Kuwam", "place": "village"}}, {"type": "node", "id": 2487876533, "lat": 31.4029182, "lon": 47.3786251, "tags": {"alt_name": "\u0627\u0644\u062c\u0648\u0647\u0631\u064a", "int_name": "Al Jawhar\u012b, \u0627\u0644\u062c\u0648\u0647\u0631\u064a, Al Jawhari, \u0627\u0644\u062c\u0648\u0647\u0631\u064a", "is_in": "Iraq , \u062c\u0645\u0647\u0648\u0631\u064a\u0629 \u0627\u0644\u0639\u0631\u0627\u0642", "name": "\u0627\u0644\u062c\u0648\u0647\u0631\u064a", "name:ar": "\u0627\u0644\u062c\u0648\u0647\u0631\u064a", "name:ar1": "\u0627\u0644\u062c\u0648\u0647\u0631\u064a", "name:de": "Al Jawhari", "name:en": "Al Jawhari", "name:fr": "Al Jawhari", "place": "village"}}, {"type": "node", "id": 2487879661, "lat": 31.3576289, "lon": 47.4442241, "tags": {"alt_name": "\u0627\u0644\u062d\u0645\u0631\u0627\u0646", "int_name": "Al \u1e28amr\u0101n, \u0627\u0644\u062d\u0645\u0631\u0627\u0646, Al Hamran, \u0627\u0644\u062d\u0645\u0631\u0627\u0646", "is_in": "Iraq , \u062c\u0645\u0647\u0648\u0631\u064a\u0629 \u0627\u0644\u0639\u0631\u0627\u0642", "name": "\u0627\u0644\u062d\u0645\u0631\u0627\u0646", "name:ar": "\u0627\u0644\u062d\u0645\u0631\u0627\u0646", "name:ar1": "\u0627\u0644\u062d\u0645\u0631\u0627\u0646", "name:de": "Al Hamran", "name:en": "Al Hamran", "name:fr": "Al Hamran", "place": "village"}}, {"type": "node", "id": 2487879684, "lat": 31.3585616, "lon": 47.4416789, "tags": {"alt_name": "\u0643\u0633\u0627\u0631\u0629", "int_name": "Kassarah, Kass\u0101rah, Khass\u0101rah, \u0643\u0633\u0627\u0631\u0647, Kassarah, Kassarah, Khassarah, \u0643\u0633\u0627\u0631\u0647", "is_in": "Iraq , \u062c\u0645\u0647\u0648\u0631\u064a\u0629 \u0627\u0644\u0639\u0631\u0627\u0642", "name": "\u0643\u0633\u0627\u0631\u0629", "name:ar": "\u0643\u0633\u0627\u0631\u0629", "name:ar1": "\u0643\u0633\u0627\u0631\u0629", "name:de": "Kassarah", "name:en": "Kassarah", "name:fr": "Kassarah", "place": "village"}}, {"type": "node", "id": 2487884617, "lat": 31.4667219, "lon": 47.3500912, "tags": {"alt_name": "\u0627\u0644\u0639\u0644\u0648\u0629", "int_name": "Al Alwah, Al Alwah", "is_in": "Iraq , \u062c\u0645\u0647\u0648\u0631\u064a\u0629 \u0627\u0644\u0639\u0631\u0627\u0642", "name": "\u0627\u0644\u0639\u0644\u0648\u0629", "name:ar": "\u0627\u0644\u0639\u0644\u0648\u0629", "name:ar1": "\u0627\u0644\u0639\u0644\u0648\u0629", "name:de": "Al Alwah", "name:en": "Al Alwah", "name:fr": "Al Alwah", "place": "village"}}, {"type": "node", "id": 2487890698, "lat": 31.516667, "lon": 47.2, "tags": {"alt_name": "\u0639\u0644\u064a\u0648\u064a", "int_name": "Ulayw\u012b, Alaiwi, Ulaywi, Alaiwi", "is_in": "Iraq , \u062c\u0645\u0647\u0648\u0631\u064a\u0629 \u0627\u0644\u0639\u0631\u0627\u0642", "name": "\u0639\u0644\u064a\u0648\u064a", "name:ar": "\u062d\u0633\u064a\u0646 \u0627\u0628\u0648 \u0639\u0644\u064a\u0648", "name:ar1": "\u0639\u0644\u064a\u0648\u064a", "name:de": "Ulaywi", "name:en": "Ulaywi", "name:fr": "Ulaywi", "place": "village"}}, {"type": "node", "id": 2487891204, "lat": 31.5523511, "lon": 47.3627271, "tags": {"alt_name": "\u0625\u064a\u0634\u0627\u0646 \u0627\u0644\u0648\u0627\u062f\u064a", "int_name": "\u012ash\u0101n al W\u0101d\u012b, Ishan al Wadi", "is_in": "Iraq , \u062c\u0645\u0647\u0648\u0631\u064a\u0629 \u0627\u0644\u0639\u0631\u0627\u0642", "name": "\u0625\u064a\u0634\u0627\u0646 \u0627\u0644\u0648\u0627\u062f\u064a", "name:ar": "\u0625\u064a\u0634\u0627\u0646 \u0627\u0644\u0648\u0627\u0648\u064a", "name:ar1": "\u0625\u064a\u0634\u0627\u0646 \u0627\u0644\u0648\u0627\u062f\u064a", "name:de": "Ishan al Wadi", "name:en": "Ishan al Wadi", "name:fr": "Ishan al Wadi", "place": "village"}}, {"type": "node", "id": 2487891210, "lat": 31.5530517, "lon": 47.3633094, "tags": {"alt_name": "\u0623\u064a\u0634\u0627\u0646 \u0627\u0644\u0648\u0627\u062f\u064a", "int_name": "\u0623\u064a\u0634\u0627\u0646 \u0627\u0644\u0648\u0627\u062f\u064a, \u0623\u064a\u0634\u0627\u0646 \u0627\u0644\u0648\u0627\u062f\u064a", "is_in": "Iraq , \u062c\u0645\u0647\u0648\u0631\u064a\u0629 \u0627\u0644\u0639\u0631\u0627\u0642", "name": "\u0623\u064a\u0634\u0627\u0646 \u0627\u0644\u0648\u0627\u062f\u064a", "name:ar": "\u0623\u064a\u0634\u0627\u0646 \u0627\u0644\u0648\u0627\u062f\u064a", "name:ar1": "\u0623\u064a\u0634\u0627\u0646 \u0627\u0644\u0648\u0627\u062f\u064a", "place": "village"}}, {"type": "node", "id": 2487891790, "lat": 31.659481, "lon": 47.559134, "tags": {"alt_name": "\u0625\u064a\u0634\u0627\u0646 \u0648\u0633\u0644\u0629 \u0627\u0644\u0646\u0639\u0628", "int_name": "\u012ash\u0101n Waslat an Nab, \u0627\u064a\u0634\u0627\u0646 \u0648\u0633\u0644\u0629 \u0627\u0644\u0646\u0639\u0628, Ishan Waslat an Nab, \u0627\u064a\u0634\u0627\u0646 \u0648\u0633\u0644\u0629 \u0627\u0644\u0646\u0639\u0628", "is_in": "Iraq , \u062c\u0645\u0647\u0648\u0631\u064a\u0629 \u0627\u0644\u0639\u0631\u0627\u0642", "name": "\u0625\u064a\u0634\u0627\u0646 \u0648\u0633\u0644\u0629 \u0627\u0644\u0646\u0639\u0628", "name:ar": "\u0625\u064a\u0634\u0627\u0646 \u0648\u0633\u0644\u0641 \u0627\u0644\u0646\u0639\u0628", "name:ar1": "\u0625\u064a\u0634\u0627\u0646 \u0648\u0633\u0644\u0629 \u0627\u0644\u0646\u0639\u0628", "name:de": "Ishan Waslat an Nab", "name:en": "Ishan Waslat an Nab", "name:fr": "Ishan Waslat an Nab", "place": "village"}}, {"type": "node", "id": 2487891814, "lat": 31.625278, "lon": 47.278889, "tags": {"alt_name": "\u062c\u0628\u0631\u0627\u0621\u064a\u0644", "int_name": "Jibr\u0101\u012bl, Jibrail", "is_in": "Iraq , \u062c\u0645\u0647\u0648\u0631\u064a\u0629 \u0627\u0644\u0639\u0631\u0627\u0642", "name": "\u062c\u0628\u0631\u0627\u0621\u064a\u0644", "name:ar": "\u062c\u0628\u0631\u0627\u0621\u064a\u0644", "name:ar1": "\u062c\u0628\u0631\u0627\u0621\u064a\u0644", "name:de": "Jibrail", "name:en": "Gabriel", "name:fr": "Jibrail", "place": "village"}}, {"type": "node", "id": 2487891820, "lat": 31.633333, "lon": 47.283333, "tags": {"alt_name": "\u0646\u062e\u0644\u0629 \u062c\u0628\u0631\u0627\u0626\u064a\u0644", "int_name": "Jibrail, Jubr\u0101il, Nakhla Jibr\u0101il, Nakhlat Jabr\u0101\u012bl, Nakhlat Jibr\u012bl, Jibrail, Jubrail, Nakhla Jibrail, Nakhlat Jabrail, Nakhlat Jibril", "is_in": "Iraq , \u062c\u0645\u0647\u0648\u0631\u064a\u0629 \u0627\u0644\u0639\u0631\u0627\u0642", "name": "\u0646\u062e\u0644\u0629 \u062c\u0628\u0631\u0627\u0626\u064a\u0644", "name:ar": "\u0646\u062e\u0644\u0629 \u062c\u0628\u0631\u0627\u0626\u064a\u0644", "name:ar1": "\u0646\u062e\u0644\u0629 \u062c\u0628\u0631\u0627\u0626\u064a\u0644", "name:de": "Jibrail", "name:en": "Gabriel", "name:fr": "Jibrail", "place": "village"}}, {"type": "node", "id": 2487892084, "lat": 31.5667564, "lon": 47.1666713, "tags": {"alt_name": "\u0646\u0632\u0644 \u0645\u062c\u064a\u062f", "int_name": "Nazil Majid, Nazl Maj\u012bd, Nazil Majid, Nazl Majid", "is_in": "Iraq , \u062c\u0645\u0647\u0648\u0631\u064a\u0629 \u0627\u0644\u0639\u0631\u0627\u0642", "name": "\u0646\u0632\u0644 \u0645\u062c\u064a\u062f", "name:ar": "\u0646\u0632\u0644 \u0645\u062c\u064a\u062f", "name:ar1": "\u0646\u0632\u0644 \u0645\u062c\u064a\u062f", "name:de": "Nazil Majid", "name:en": "Nazil Majid", "name:fr": "Nazil Majid", "place": "village"}}, {"type": "node", "id": 2487892154, "lat": 31.565621, "lon": 47.163312, "tags": {"alt_name": "\u0633\u0627\u0631\u0641 \u0645\u062d\u0645\u062f", "int_name": "S\u0101rf Mu\u1e29ammad, \u0633\u0627\u0631\u0641 \u0645\u062d\u0645\u062f, Sarf Muhammad, \u0633\u0627\u0631\u0641 \u0645\u062d\u0645\u062f", "is_in": "Iraq , \u062c\u0645\u0647\u0648\u0631\u064a\u0629 \u0627\u0644\u0639\u0631\u0627\u0642", "name": "\u0633\u0627\u0631\u0641 \u0645\u062d\u0645\u062f", "name:ar": "\u0633\u0627\u0631\u0641 \u0645\u062d\u0645\u062f", "name:ar1": "\u0633\u0627\u0631\u0641 \u0645\u062d\u0645\u062f", "name:de": "Sarf Muhammad", "name:en": "Sarf Muhammad", "name:fr": "Sarf Muhammad", "place": "village"}}, {"type": "node", "id": 2487896166, "lat": 31.280517, "lon": 47.427555, "tags": {"alt_name": "\u0627\u0644\u0643\u0631\u064a\u0645\u0627\u062a", "int_name": "Al Kar\u012bm\u0101t, \u0627\u0644\u0643\u0631\u064a\u0645\u0627\u062a, Al Karimat, \u0627\u0644\u0643\u0631\u064a\u0645\u0627\u062a", "is_in": "Iraq , \u062c\u0645\u0647\u0648\u0631\u064a\u0629 \u0627\u0644\u0639\u0631\u0627\u0642", "name": "\u0627\u0644\u0643\u0631\u064a\u0645\u0627\u062a", "name:ar": "\u0646\u0627\u062d\u064a\u0629 \u0627\u0644\u062b\u063a\u0631 - \u0627\u0644\u0628\u0648 \u0645\u0633\u0627\u0639\u062f", "name:ar1": "\u0627\u0644\u0643\u0631\u064a\u0645\u0627\u062a", "name:de": "Al Karimat", "name:en": "Albo Mosaed", "name:fr": "Al Karimat", "place": "village"}}, {"type": "node", "id": 2487896244, "lat": 31.25, "lon": 47.45, "tags": {"alt_name": "\u062d\u0648\u0628\u064a\u062a\u0631", "int_name": "Hubaitar, \u1e28\u016bbaytar, Hubaitar, Hubaytar", "name": "\u062d\u0648\u0628\u064a\u062a\u0631", "name:ar": "\u062d\u0648\u0628\u064a\u062a\u0631", "name:ar1": "\u062d\u0648\u0628\u064a\u062a\u0631", "name:de": "Hubaitar", "name:en": "Hubaitar", "name:fr": "Hubaitar", "name:ru": "\u0425\u0443\u0431\u0430\u0439\u0442\u0430\u0440", "place": "village"}}, {"type": "node", "id": 2487896304, "lat": 31.3248659, "lon": 47.4149081, "tags": {"alt_name": "Ozeir, Uzayr, Al Az\u012br, Al Uzayr, Al Azair, Al Uzair, El Ozair, Ozier, \u0627\u0644\u0639\u0632\u064a\u0631, Ozeir, Uzayr, Al Azir, Al Uzayr, Al Azair, Al Uzair, El Ozair, Ozier, \u0627\u0644\u0639\u0632\u064a\u0631", "capital": "7", "int_name": "Uzayr - \u0627\u0644\u0639\u0632\u064a\u0631", "is_in": "Iraq , \u062c\u0645\u0647\u0648\u0631\u064a\u0629 \u0627\u0644\u0639\u0631\u0627\u0642", "name": "\u0627\u0644\u0639\u0632\u064a\u0631", "name:ar": "\u0627\u0644\u0639\u0632\u064a\u0631", "name:de": "Uzayr", "name:en": "Uzayr", "name:fr": "Uzayr", "place": "town", "wikidata": "Q12247076"}}, {"type": "node", "id": 4108407426, "lat": 31.5984321, "lon": 47.4247846}, {"type": "node", "id": 6698890390, "lat": 31.6422296, "lon": 47.2791266, "tags": {"place": "village"}}, {"type": "node", "id": 7997213333, "lat": 31.600728, "lon": 47.4248149}, {"type": "node", "id": 7997213334, "lat": 31.6010204, "lon": 47.4198367}, {"type": "node", "id": 7997213335, "lat": 31.6008011, "lon": 47.4196436}, {"type": "node", "id": 7997213336, "lat": 31.6006914, "lon": 47.4192359}, {"type": "node", "id": 7997213337, "lat": 31.6007097, "lon": 47.418442}, {"type": "node", "id": 7997213338, "lat": 31.6008376, "lon": 47.4178197}, {"type": "node", "id": 7997213339, "lat": 31.6002528, "lon": 47.4176695}, {"type": "node", "id": 7997213340, "lat": 31.6001066, "lon": 47.4175622}, {"type": "node", "id": 7997213341, "lat": 31.6002528, "lon": 47.4161675}, {"type": "node", "id": 7997213342, "lat": 31.5990648, "lon": 47.4164249}, {"type": "node", "id": 7997213343, "lat": 31.5984617, "lon": 47.4165966}, {"type": "way", "id": 857804480, "nodes": [7997213333, 7997213334, 7997213335, 7997213336, 7997213337, 7997213338, 7997213339, 7997213340, 7997213341, 7997213342, 7997213343, 4108407426, 7997213333], "tags": {"name": "\u0646\u0627\u062d\u064a\u0629 \u0628\u0646\u064a \u0647\u0627\u0634\u0645", "place": "village"}}]}