{"version": 0.6, "generator": "Overpass API 0.7.61.5 4133829e", "osm3s": {"timestamp_osm_base": "2024-03-05T13:37:45Z", "copyright": "The data included in this document is from www.openstreetmap.org. The data is made available under ODbL."}, "elements": [{"type": "node", "id": 4375854826, "lat": 32.922015, "lon": 65.555677, "tags": {"alt_name": "Botaw", "name": "\u0628\u062a\u0648", "name:en": "Butow", "name:ps": "\u0628\u062a\u0648", "name:ru": "Butau", "place": "village", "source:name": "GNS"}}, {"type": "node", "id": 4375854827, "lat": 32.895629, "lon": 65.547456, "tags": {"alt_name": "Cenar;Chenar", "name": "\u0686\u0646\u0627\u0631", "name:en": "Chinar", "name:ps": "\u0686\u0646\u0627\u0631", "name:ru": "Chinar", "place": "village", "source:name": "GNS"}}, {"type": "node", "id": 4375854828, "lat": 32.889118, "lon": 65.558237, "tags": {"name": "\u06af\u0631\u0645\u0627\u0628", "name:en": "Garm Ab", "name:ps": "\u06af\u0631\u0645\u0627\u0628", "name:ru": "Garmab", "place": "village", "source:name": "GNS"}}, {"type": "node", "id": 4375854830, "lat": 32.903099, "lon": 65.551171, "tags": {"alt_name": "\u062c\u0646\u06af\u0644\u0643", "name": "\u062c\u0646\u06af\u0644\u06a9", "name:en": "Jangalak", "name:ps": "\u062c\u0646\u06af\u0644\u06a9", "name:ru": "Dzhangalak", "place": "village", "source:name": "GNS"}}, {"type": "node", "id": 4375854831, "lat": 32.939311, "lon": 65.57339, "tags": {"alt_name": "Lwar Owshay;Lwar Osay;Lowar Owshay;\u0644\u0648\u0631 \u0627\u0648\u0634\u06cc", "name": "\u0644\u0648\u0693 \u0627\u0648\u069a\u06cc", "name:en": "Lwar Oshay", "name:ps": "\u0644\u0648\u0693 \u0627\u0648\u069a\u06cc", "name:ru": "L'varoshay", "place": "village", "source:name": "GNS"}}, {"type": "node", "id": 4375854833, "lat": 32.953941, "lon": 65.540016, "tags": {"alt_name": "\u0633\u0646\u06af\u0631;Sakhir;Sakhar", "name": "\u0633\u0627\u062e\u0631", "name:en": "Sakher", "name:ps": "\u0633\u0627\u062e\u0631", "name:ru": "Sakhar", "place": "village", "source:name": "GNS"}}, {"type": "node", "id": 4375854834, "lat": 32.97441, "lon": 65.480998, "tags": {"name": "\u0633\u0646\u06af\u0646\u062f\u0627\u0632", "name:en": "Sangandaz", "name:ps": "\u0633\u0646\u06af\u0646\u062f\u0627\u0632", "name:ru": "Sangandaz", "place": "village", "source:name": "GNS"}}, {"type": "node", "id": 4375854835, "lat": 32.921369, "lon": 65.5397503, "tags": {"name": "\u0634\u0627\u0647 \u0645\u0634\u0647\u062f", "name:en": "Shah Mashhad;Sahmashad", "name:ps": "\u0634\u0627\u0647 \u0645\u0634\u0647\u062f", "name:ru": "Shakhmashkhad", "place": "village", "source:name": "GNS"}}, {"type": "node", "id": 4375854837, "lat": 32.966622, "lon": 65.491157, "tags": {"name": "\u06cc\u062e\u062f\u0627\u0646", "name:ar": "\u064a\u062e\u062f\u0627\u0646", "name:en": "Yakhdan", "name:ps": "\u06cc\u062e\u062f\u0627\u0646", "name:ru": "Yakhdan", "place": "village", "source:name": "GNS"}}, {"type": "node", "id": 4375886916, "lat": 33.150769, "lon": 65.573006, "tags": {"alt_name": "Baladast;Bala Dasht", "name": "\u0628\u0627\u0644\u0627\u062f\u0634\u067c", "name:en": "Baladasht", "name:ps": "\u0628\u0627\u0644\u0627\u062f\u0634\u067c", "place": "village", "source:name": "GNS"}}, {"type": "node", "id": 4375886917, "lat": 32.950075, "lon": 65.602383, "tags": {"alt_name": "\u062f\u0633\u0646\u06af;Du Sang", "name": "\u062f\u0648 \u0633\u0646\u06af", "name:en": "Dosang", "name:ps": "\u062f\u0648 \u0633\u0646\u06af", "name:ru": "Dusang", "place": "village", "source:name": "GNS"}}, {"type": "node", "id": 4375886918, "lat": 33.2072688, "lon": 65.469442, "tags": {"alt_name": "\u041c\u0430\u0440\u043a\u0430\u0437\u0438-\u041a\u0430\u0434\u0436\u0438\u0440\u0430\u043d;\u06a9\u062c\u06cc\u0631\u0627\u0646;\u0645\u0631\u06a9\u0632 \u06a9\u062c\u0631\u0627\u0646;Markazi-Kadzhiran;Markaz-e Kajiran;Markaz-e Kajran;Kajiran", "name": "\u0645\u0631\u06a9\u0632 \u06a9\u062c\u06cc\u0631\u0627\u0646", "name:en": "Kajran", "name:ps": "\u0645\u0631\u06a9\u0632 \u06a9\u062c\u06cc\u0631\u0627\u0646", "place": "town", "source:name": "GNS"}}, {"type": "node", "id": 4375886919, "lat": 32.94554, "lon": 65.591799, "tags": {"name": "\u067e\u0633\u0627\u0648", "name:en": "Pasaw", "name:ps": "\u067e\u0633\u0627\u0648", "name:ru": "Pasau", "place": "village", "source:name": "GNS"}}, {"type": "node", "id": 4375899357, "lat": 33.212687, "lon": 65.536022, "tags": {"alt_name": "Karez", "name": "\u06a9\u0627\u0631\u06d0\u0632", "name:en": "Kariz", "name:ps": "\u06a9\u0627\u0631\u06d0\u0632", "place": "village", "source:name": "GNS"}}, {"type": "node", "id": 4375899358, "lat": 33.209633, "lon": 65.524144, "tags": {"alt_name": "Sowf", "name": "\u0635\u0648\u0641", "name:en": "Suf", "name:ps": "\u0635\u0648\u0641", "place": "village", "source:name": "GNS"}}, {"type": "node", "id": 4375899359, "lat": 33.206263, "lon": 65.510797, "tags": {"alt_name": "Zardsang", "name": "\u0632\u0631\u062f \u0633\u0646\u06af", "name:en": "Zard Sang", "name:ps": "\u0632\u0631\u062f \u0633\u0646\u06af", "place": "village", "source:name": "GNS"}}, {"type": "node", "id": 4376976379, "lat": 33.2426959, "lon": 65.4631166, "tags": {"alt_name": "Barghanajuy;Barghanajoy;Barghanah Joy", "name": "\u0628\u0631\u063a\u0646\u0647 \u062c\u0648\u06cc", "name:en": "Barghanehjuy", "name:ps": "\u0628\u0631\u063a\u0646\u0647 \u062c\u0648\u06cc", "place": "village", "source:name": "GNS"}}, {"type": "node", "id": 4376976380, "lat": 33.246611, "lon": 65.479444, "tags": {"alt_name": "Boka;Bukah;\u0411\u043e\u043a\u0430;\u0628\u0648\u0643\u0647", "name": "\u0628\u0648\u06a9\u0647", "name:en": "Bokah", "name:ps": "\u0628\u0648\u06a9\u0647", "place": "village", "source:name": "GNS"}}, {"type": "node", "id": 4376976381, "lat": 33.223631, "lon": 65.468082, "tags": {"alt_name": "\u062f\u0647\u0646 \u062a\u0627\u062e\u0647;\u0414\u0430\u0445\u0430\u043d\u0438-\u0422\u0430\u0445\u0430;Dahaneh Takhah;Dahaneh-ye Takhah;Dahan-e Takhah;Dakhani-Takha", "name": "\u062f\u0647\u0627\u0646 \u062a\u0627\u062e\u0647", "name:en": "Dahane Takha", "name:ps": "\u062f\u0647\u0627\u0646 \u062a\u0627\u062e\u0647", "place": "village", "source:name": "GNS"}}, {"type": "node", "id": 4376976382, "lat": 33.26662, "lon": 65.472893, "tags": {"alt_name": "Durfishanak;Durfesanak;\u0414\u0443\u0440\u0444\u0438\u0448\u0430\u043d\u0430\u043a;\u062f\u0631\u0641\u0634\u0627\u0646\u0643", "name": "\u062f\u0631\u0641\u0634\u0627\u0646\u06a9", "name:en": "Dorfeshanak", "name:ps": "\u062f\u0631\u0641\u0634\u0627\u0646\u06a9", "place": "village", "source:name": "GNS"}}, {"type": "node", "id": 4376976384, "lat": 33.262411, "lon": 65.488342, "tags": {"alt_name": "\u0413\u0438\u0440\u043d\u0430\u0439;Girnay;Gernay", "name": "\u06af\u0631\u0646\u06cc", "name:en": "Gerney", "name:ps": "\u06af\u0631\u0646\u06cc", "place": "village", "source:name": "GNS"}}, {"type": "node", "id": 5943423453, "lat": 33.21763, "lon": 65.2636719}, {"type": "node", "id": 5943423454, "lat": 33.2173222, "lon": 65.2634535}, {"type": "node", "id": 5943423455, "lat": 33.2162447, "lon": 65.2644309}, {"type": "node", "id": 5943423456, "lat": 33.2162063, "lon": 65.2652358}, {"type": "node", "id": 5943423457, "lat": 33.2169278, "lon": 65.2651323}, {"type": "node", "id": 5943423458, "lat": 33.2174088, "lon": 65.2641894}, {"type": "node", "id": 8130779134, "lat": 33.1743239, "lon": 65.5320278, "tags": {"place": "hamlet"}}, {"type": "node", "id": 8946116562, "lat": 33.2250746, "lon": 65.4443567, "tags": {"place": "hamlet"}}, {"type": "way", "id": 629555297, "nodes": [5943423453, 5943423454, 5943423455, 5943423456, 5943423457, 5943423458, 5943423453], "tags": {"place": "hamlet"}}]}