{"version": 0.6, "generator": "Overpass API 0.7.61.5 4133829e", "osm3s": {"timestamp_osm_base": "2024-03-06T11:17:45Z", "copyright": "The data included in this document is from www.openstreetmap.org. The data is made available under ODbL."}, "elements": [{"type": "node", "id": 348089814, "lat": 32.03444, "lon": 44.4031125, "tags": {"alt_name:tr": "Kufe", "capital": "6", "int_name": "Al Kufa - \u0627\u0644\u0643\u0648\u0641\u0629", "name": "\u0627\u0644\u0643\u0648\u0641\u0629", "name:ar": "\u0627\u0644\u0643\u0648\u0641\u0629", "name:ckb": "\u06a9\u0648\u0648\u0641\u06d5", "name:de": "Al Kufa", "name:en": "Al Kufa", "name:es": "Kufa", "name:et": "Al-K\u016bfah", "name:fr": "Koufa", "name:hr": "Al-Kufa", "name:ja": "\u30af\u30fc\u30d5\u30a1", "name:ku": "K\u00fbfe", "name:ml": "\u0d05\u0d7d \u0d15\u0d42\u0d2b", "name:ru": "\u042d\u043b\u044c-\u041a\u0443\u0444\u0430", "name:tr": "K\u00fbfe", "place": "city", "population": "230000", "population:date": "2014", "source:population": "https://ar.wikipedia.org/wiki/%D8%A7%D9%84%D9%83%D9%88%D9%81%D8%A9", "wikidata": "Q186234", "wikipedia": "en:Kufa"}}, {"type": "node", "id": 348117530, "lat": 32.0010227, "lon": 44.3299926, "tags": {"alt_name": "\u0628\u0627\u0646\u064a\u0642\u064a\u0627", "alt_name:en": "Najaf;An-Najaf;Baniqia", "capital": "4", "int_name": "Al-Najaf", "name": "\u0627\u0644\u0646\u062c\u0641", "name:ar": "\u0627\u0644\u0646\u062c\u0641", "name:ckb": "\u0646\u06d5\u062c\u06d5\u0641", "name:cs": "Al-Nad\u017eaf", "name:de": "Al-Nadschaf", "name:el": "\u039d\u03b1\u03c4\u03b6\u03ac\u03c6", "name:en": "Al-Najaf", "name:es": "Al-Nayaf", "name:et": "Al-Najaf", "name:eu": "Al-Najaf", "name:fa": "\u0646\u062c\u0641", "name:fi": "Al-Najaf", "name:fr": "Al-Nadjaf", "name:hi": "\u0928\u091c\u092b\u093c", "name:hr": "Al-Nad\u017eaf", "name:ja": "\u30ca\u30b8\u30e3\u30d5", "name:ku": "Al-Necef", "name:ml": "\u0d28\u0d1c\u0d2b\u0d4d", "name:pl": "Al-Nad\u017caf", "name:pt": "Al-Najaf", "name:ru": "\u0410\u043d-\u041d\u0430\u0434\u0436\u0430\u0444", "name:te": "\u0c28\u0c1c\u0c3e\u0c2b\u0c4d", "name:tr": "Al-Necef", "name:tt": "\u041d\u04d9\u0497\u04d9\u0444", "name:uk": "\u0410\u043d-\u041d\u0430\u0434\u0436\u0430\u0444", "place": "city", "population": "1221248", "population:date": "2011", "source:population": "https://ar.wikipedia.org/wiki/%D8%A7%D9%84%D9%86%D8%AC%D9%81", "wikidata": "Q168193", "wikipedia": "ar:\u0627\u0644\u0646\u062c\u0641"}}, {"type": "node", "id": 2479193460, "lat": 31.957915, "lon": 44.10275, "tags": {"alt_name": "\u0639\u0631\u0628 \u0627\u0644\u0631\u062d\u064a\u0645\u0629", "int_name": "Arab ar Ruhaima, Arab ar Ru\u1e29aymah, Ar Ru\u1e29aymah, Ruhaima, \u0639\u0631\u0628 \u0627\u0644\u0631\u062d\u064a\u0645\u0647, Arab ar Ruhaima, Arab ar Ruhaymah, Ar Ruhaymah, Ruhaima, \u0639\u0631\u0628 \u0627\u0644\u0631\u062d\u064a\u0645\u0647", "is_in": "Iraq , \u062c\u0645\u0647\u0648\u0631\u064a\u0629 \u0627\u0644\u0639\u0631\u0627\u0642", "name": "\u0639\u0631\u0628 \u0627\u0644\u0631\u062d\u064a\u0645\u0629", "name:ar": "\u0627\u0644\u0631\u0647\u064a\u0645\u0629", "name:ar1": "\u0639\u0631\u0628 \u0627\u0644\u0631\u062d\u064a\u0645\u0629", "name:de": "Arab ar Ruhaima", "name:en": "Arab ar Ruhaima", "name:fr": "Arab ar Ruhaima", "place": "village"}}, {"type": "node", "id": 2479199291, "lat": 31.765463, "lon": 44.505727, "tags": {"alt_name": "\u0639\u0628\u062f \u0627\u0644\u062d\u0633\u0646 \u062c\u0627\u0628\u0631", "int_name": "Abd al \u1e28asan J\u0101bir, \u0639\u0628\u062f \u0627\u0644\u062d\u0633\u0646 \u062c\u0627\u0628\u0631, Abd al Hasan Jabir, \u0639\u0628\u062f \u0627\u0644\u062d\u0633\u0646 \u062c\u0627\u0628\u0631", "is_in": "Iraq , \u062c\u0645\u0647\u0648\u0631\u064a\u0629 \u0627\u0644\u0639\u0631\u0627\u0642", "name": "\u0639\u0628\u062f \u0627\u0644\u062d\u0633\u0646 \u062c\u0627\u0628\u0631", "name:ar": "\u0639\u0628\u062f \u0627\u0644\u062d\u0633\u0646 \u062c\u0628\u0627\u0631", "name:ar1": "\u0639\u0628\u062f \u0627\u0644\u062d\u0633\u0646 \u062c\u0627\u0628\u0631", "name:de": "Abd al Hasan Jabir", "name:en": "al Hasan alJabar", "name:fr": "Abd al Hasan Jabir", "place": "village"}}, {"type": "node", "id": 2479199297, "lat": 31.8047191, "lon": 44.4905908, "tags": {"alt_name": "\u0627\u0644\u0645\u0634\u062e\u0627\u0628", "capital": "6", "int_name": "Al Mishkh\u0101b, \u0627\u0644\u0645\u0634\u062e\u0627\u0628, Al Mishkhab, \u0627\u0644\u0645\u0634\u062e\u0627\u0628", "is_in": "Iraq , \u062c\u0645\u0647\u0648\u0631\u064a\u0629 \u0627\u0644\u0639\u0631\u0627\u0642", "name": "\u0627\u0644\u0645\u0634\u062e\u0627\u0628", "name:ar": "\u0627\u0644\u0645\u0634\u062e\u0627\u0628", "name:ar1": "\u0645\u0631\u0643\u0632 \u0642\u0636\u0627\u0621 \u0627\u0644\u0645\u0634\u062e\u0627\u0628", "name:de": "Al Mishkhab", "name:en": "Al Mishkhab", "name:en1": "Al-Mishkhab \u064e Qada Center", "name:fr": "Al Mishkhab", "name:ml": "\u0d05\u0d7d-\u0d2e\u0d3f\u0d37\u0d4d\u0d15\u0d3e\u0d2c\u0d4d", "place": "town", "wikidata": "Q4166184", "wikipedia": "en:Al-Meshkhab"}}, {"type": "node", "id": 2479202097, "lat": 31.834459, "lon": 44.463409, "tags": {"alt_name": "\u0622\u0644 \u0641\u062a\u0644\u0647", "is_in": "Iraq , \u062c\u0645\u0647\u0648\u0631\u064a\u0629 \u0627\u0644\u0639\u0631\u0627\u0642", "name": "\u0622\u0644 \u0641\u062a\u0644\u0647", "name:ar": "\u0622\u0644 \u0641\u062a\u0644\u0647", "name:ar1": "\u0622\u0644 \u0641\u062a\u0644\u0647", "place": "hamlet"}}, {"type": "node", "id": 2479202103, "lat": 31.8372574, "lon": 44.4337217, "tags": {"alt_name": "\u0627\u0644 \u0639\u064a\u0633\u0649", "is_in": "Iraq , \u062c\u0645\u0647\u0648\u0631\u064a\u0629 \u0627\u0644\u0639\u0631\u0627\u0642", "name": "\u0627\u0644 \u0639\u064a\u0633\u0649", "name:ar": "\u0627\u0644 \u0639\u064a\u0633\u0649", "name:ar1": "\u0627\u0644 \u0639\u064a\u0633\u0649", "place": "hamlet"}}, {"type": "node", "id": 2479295400, "lat": 32.096944, "lon": 44.439444, "tags": {"alt_name": "\u0643\u0627\u0636\u0645 \u0627\u0644\u0633\u0644\u0645\u0627\u0646", "int_name": "K\u0101\u1e11im as Salm\u0101n, Kadim as Salman", "is_in": "Iraq , \u062c\u0645\u0647\u0648\u0631\u064a\u0629 \u0627\u0644\u0639\u0631\u0627\u0642", "name": "\u0642\u0631\u06cc\u0647 \u0643\u0627\u0636\u0645 \u0627\u0644\u0633\u0644\u0645\u0627\u0646", "name:ar": "\u0643\u0627\u0636\u0645 \u0627\u0644\u0633\u0644\u0645\u0627\u0646", "name:ar1": "\u0643\u0627\u0636\u0645 \u0627\u0644\u0633\u0644\u0645\u0627\u0646", "name:de": "Kadim as Salman", "name:en": "Kadim as Salman", "name:fr": "Kadim as Salman", "place": "hamlet"}}, {"type": "node", "id": 2479296648, "lat": 32.1223302, "lon": 44.353276, "tags": {"alt_name": "\u0622\u0644 \u0639\u0627\u0628\u0631;\u0627\u0644 \u0639\u0627\u0628\u0631", "int_name": "\u0100l \u0100bir, Al Abir;\u0627\u0644 \u0639\u0627\u0628\u0631, \u0627\u0644 \u0639\u0627\u0628\u0631", "is_in": "Iraq , \u062c\u0645\u0647\u0648\u0631\u064a\u0629 \u0627\u0644\u0639\u0631\u0627\u0642", "name": "\u0622\u0644 \u0639\u0627\u0628\u0631;\u0627\u0644 \u0639\u0627\u0628\u0631", "name:ar": "\u0622\u0644 \u0639\u0627\u0628\u0631;\u0627\u0644 \u0639\u0627\u0628\u0631", "name:ar1": "\u0622\u0644 \u0639\u0627\u0628\u0631;\u0627\u0644 \u0639\u0627\u0628\u0631", "name:de": "Al Abir;\u0627\u0644 \u0639\u0627\u0628\u0631", "name:en": "Al Abir;\u0627\u0644 \u0639\u0627\u0628\u0631", "name:fr": "Al Abir;\u0627\u0644 \u0639\u0627\u0628\u0631", "place": "village"}}, {"type": "node", "id": 2479299551, "lat": 32.1186715, "lon": 44.3985313, "tags": {"alt_name": "\u062f\u0628\u0639\u0648\u0646", "int_name": "Dab\u016bn, Dabun", "is_in": "Iraq , \u062c\u0645\u0647\u0648\u0631\u064a\u0629 \u0627\u0644\u0639\u0631\u0627\u0642", "name": "\u062f\u0628\u0639\u0648\u0646", "name:ar": "\u062f\u0628\u0639\u0648\u0646", "name:ar1": "\u062f\u0628\u0639\u0648\u0646", "name:de": "Dabun", "name:en": "Dabun", "name:fr": "Dabun", "place": "village"}}, {"type": "node", "id": 2479299557, "lat": 32.1267375, "lon": 44.4187154, "tags": {"alt_name": "\u0645\u062d\u0633\u0646 \u0627\u0644\u062e\u0631\u064a\u0637", "int_name": "Mu\u1e29sin al Khuray\u0163, Muhsin al Khurayt", "is_in": "Iraq , \u062c\u0645\u0647\u0648\u0631\u064a\u0629 \u0627\u0644\u0639\u0631\u0627\u0642", "name": "\u0645\u062d\u0633\u0646 \u0627\u0644\u062e\u0631\u064a\u0637", "name:ar": "\u0645\u062d\u0633\u0646 \u0627\u0644\u062e\u0631\u064a\u0637", "name:ar1": "\u0645\u062d\u0633\u0646 \u0627\u0644\u062e\u0631\u064a\u0637", "name:de": "Muhsin al Khurayt", "name:en": "Muhsin al Khurayt", "name:fr": "Muhsin al Khurayt", "place": "hamlet"}}, {"type": "node", "id": 2479299562, "lat": 32.129519, "lon": 44.431316, "tags": {"alt_name": "\u0642\u0631\u064a\u0629 \u0623\u0628\u0648 \u0639\u0631\u0628", "int_name": "Qaryat Ab\u016b Arab, \u0642\u0631\u064a\u0629 \u0627\u0628\u0648 \u0639\u0631\u0628, Qaryat Abu Arab, \u0642\u0631\u064a\u0629 \u0627\u0628\u0648 \u0639\u0631\u0628", "name": "\u0642\u0631\u064a\u0629 \u0623\u0628\u0648 \u0639\u0631\u0628", "name:ar": "\u0642\u0631\u064a\u0629 \u0623\u0628\u0648 \u0639\u0631\u0628", "name:ar1": "\u0642\u0631\u064a\u0629 \u0623\u0628\u0648 \u0639\u0631\u0628", "name:de": "Qaryat Abu Arab", "name:en": "Qaryat Abu Arab", "name:fr": "Qaryat Abu Arab", "place": "village"}}, {"type": "node", "id": 2479299567, "lat": 32.1179005, "lon": 44.4016078, "tags": {"alt_name": "\u0633\u064a\u062f \u0635\u0627\u0644\u062d", "int_name": "Saiyid S\u0101lih, Sayyid \u015e\u0101li\u1e29, Saiyid Salih, Sayyid Salih", "is_in": "Iraq , \u062c\u0645\u0647\u0648\u0631\u064a\u0629 \u0627\u0644\u0639\u0631\u0627\u0642", "name": "\u0633\u064a\u062f \u0635\u0627\u0644\u062d", "name:ar": "\u0633\u064a\u062f \u0635\u0627\u0644\u062d", "name:ar1": "\u0633\u064a\u062f \u0635\u0627\u0644\u062d", "name:de": "Saiyid Salih", "name:en": "Saiyid Salih", "name:fr": "Saiyid Salih", "place": "village"}}, {"type": "node", "id": 2480215962, "lat": 31.9080774, "lon": 44.5282898, "tags": {"alt_name": "\u0634\u0646\u0634\u0648\u0644 \u0627\u0644 \u0639\u0628\u0648\u062f", "int_name": "\u0634\u0646\u0634\u0648\u0644 \u0627\u0644 \u0639\u0628\u0648\u062f, \u0634\u0646\u0634\u0648\u0644 \u0627\u0644 \u0639\u0628\u0648\u062f", "is_in": "Iraq , \u062c\u0645\u0647\u0648\u0631\u064a\u0629 \u0627\u0644\u0639\u0631\u0627\u0642", "name": "\u0634\u0646\u0634\u0648\u0644 \u0627\u0644 \u0639\u0628\u0648\u062f", "name:ar": "\u0634\u0646\u0634\u0648\u0644 \u0627\u0644 \u0639\u0628\u0648\u062f", "name:ar1": "\u0634\u0646\u0634\u0648\u0644 \u0627\u0644 \u0639\u0628\u0648\u062f", "name:de": "\u0634\u0646\u0634\u0648\u0644 \u0627\u0644 \u0639\u0628\u0648\u062f", "name:en": "Shinchul Al Aboud", "name:fr": "\u0634\u0646\u0634\u0648\u0644 \u0627\u0644 \u0639\u0628\u0648\u062f", "place": "village"}}, {"type": "node", "id": 2480215965, "lat": 31.9046533, "lon": 44.5021865, "tags": {"alt_name": "\u0639\u0646\u0627\u062f \u0627\u0644 \u0633\u062d\u0648\u064a\u0631", "int_name": "\u0639\u0646\u0627\u062f \u0627\u0644 \u0633\u062d\u0648\u064a\u0631, \u0639\u0646\u0627\u062f \u0627\u0644 \u0633\u062d\u0648\u064a\u0631", "is_in": "Iraq , \u062c\u0645\u0647\u0648\u0631\u064a\u0629 \u0627\u0644\u0639\u0631\u0627\u0642", "name": "\u0639\u0646\u0627\u062f \u0627\u0644 \u0633\u062d\u0648\u064a\u0631", "name:ar": "\u0639\u0646\u0627\u062f \u0627\u0644 \u0633\u062d\u0648\u064a\u0631", "name:ar1": "\u0639\u0646\u0627\u062f \u0627\u0644 \u0633\u062d\u0648\u064a\u0631", "place": "village"}}, {"type": "node", "id": 2482254410, "lat": 32.0246311, "lon": 44.5355683, "tags": {"alt_name": "\u062c\u062f\u0627\u0645 \u0633\u0639\u062f\u0648\u0646 \u0647\u0627\u062f\u064a", "int_name": "\u062c\u062f\u0627\u0645 \u0633\u0639\u062f\u0648\u0646 \u0647\u0627\u062f\u064a, \u062c\u062f\u0627\u0645 \u0633\u0639\u062f\u0648\u0646 \u0647\u0627\u062f\u064a", "is_in": "Iraq , \u062c\u0645\u0647\u0648\u0631\u064a\u0629 \u0627\u0644\u0639\u0631\u0627\u0642", "name": "\u062c\u062f\u0627\u0645 \u0633\u0639\u062f\u0648\u0646 \u0647\u0627\u062f\u064a", "name:ar": "\u062c\u062f\u0627\u0645 \u0633\u0639\u062f\u0648\u0646 \u0647\u0627\u062f\u064a", "name:ar1": "\u062c\u062f\u0627\u0645 \u0633\u0639\u062f\u0648\u0646 \u0647\u0627\u062f\u064a", "place": "village"}}, {"type": "node", "id": 2483895889, "lat": 31.747817, "lon": 44.448836, "tags": {"alt_name": "\u0627\u0644\u062d\u0627\u062c \u0631\u0648\u0624\u0641 \u0634\u0644\u0634", "is_in": "Iraq , \u062c\u0645\u0647\u0648\u0631\u064a\u0629 \u0627\u0644\u0639\u0631\u0627\u0642", "name": "\u0627\u0644\u062d\u0627\u062c \u0631\u0648\u0624\u0641 \u0634\u0644\u0634", "name:ar": "\u0627\u0644\u062d\u0627\u062c \u0631\u0648\u0624\u0641 \u0634\u0644\u0634", "name:ar1": "\u0627\u0644\u062d\u0627\u062c \u0631\u0648\u0624\u0641 \u0634\u0644\u0634", "place": "hamlet"}}, {"type": "node", "id": 2483896699, "lat": 31.788192, "lon": 44.519163, "tags": {"alt_name": "\u0623\u0628\u0648 \u0627\u0644\u062c\u0647\u064a\u0644\u0629", "int_name": "Ab\u016b al Juhaydah, \u0627\u0628\u0648 \u0627\u0644\u062c\u0647\u064a\u0644\u0629, Abu al Juhaydah, \u0627\u0628\u0648 \u0627\u0644\u062c\u0647\u064a\u0644\u0629", "is_in": "Iraq , \u062c\u0645\u0647\u0648\u0631\u064a\u0629 \u0627\u0644\u0639\u0631\u0627\u0642", "name": "\u0623\u0628\u0648 \u0627\u0644\u062c\u0647\u064a\u0644\u0629", "name:ar": "\u0627\u0644\u0645\u062c\u064a\u0647\u064a\u0644\u0629", "name:ar1": "\u0623\u0628\u0648 \u0627\u0644\u062c\u0647\u064a\u0644\u0629", "name:de": "Abu al Juhaydah", "name:en": "alme Juhaydah", "name:fr": "Abu al Juhaydah", "place": "village"}}, {"type": "node", "id": 2484314899, "lat": 32.078196, "lon": 44.441441, "tags": {"alt_name": "\u0627\u0644\u0639\u0628\u0627\u0633\u064a\u0629", "capital": "7", "int_name": "Al Abbasiyah - \u0627\u0644\u0639\u0628\u0627\u0633\u064a\u0629", "is_in": "Iraq , \u062c\u0645\u0647\u0648\u0631\u064a\u0629 \u0627\u0644\u0639\u0631\u0627\u0642", "is_in:country": "Iraq", "is_in:country_code": "IQ", "name": "\u0627\u0644\u0639\u0628\u0627\u0633\u064a\u0629", "name:ar": "\u0627\u0644\u0639\u0628\u0627\u0633\u064a\u0629", "name:de": "Al Abbasiyah", "name:en": "Al Abbasiyah", "name:fr": "Al Abbasiyah", "place": "town"}}, {"type": "node", "id": 2484314901, "lat": 32.0976476, "lon": 44.423955, "tags": {"alt_name": "\u0622\u0644 \u0628\u0648 \u0641\u0627\u0631\u0633", "int_name": "\u0100lb\u016b F\u0101ris, \u0627\u0644\u0628\u0648 \u0641\u0627\u0631\u0633, Albu Faris, \u0627\u0644\u0628\u0648 \u0641\u0627\u0631\u0633", "is_in": "Iraq , \u062c\u0645\u0647\u0648\u0631\u064a\u0629 \u0627\u0644\u0639\u0631\u0627\u0642", "name": "\u0642\u0631\u06cc\u0647 \u0622\u0644 \u0628\u0648 \u0641\u0627\u0631\u0633", "name:ar": "\u0622\u0644 \u0628\u0648 \u0641\u0627\u0631\u0633", "name:ar1": "\u0622\u0644 \u0628\u0648 \u0641\u0627\u0631\u0633", "name:de": "Albu Faris", "name:en": "Albu Faris", "name:fr": "Albu Faris", "place": "hamlet"}}, {"type": "node", "id": 2484314908, "lat": 32.081876, "lon": 44.423197, "tags": {"alt_name": "\u0642\u0631\u064a\u0629 \u0645\u062c\u064a\u0644\u0639", "int_name": "Qaryat Mujayla, \u0642\u0631\u064a\u0629 \u0645\u062c\u064a\u0644\u0639, Qaryat Mujayla, \u0642\u0631\u064a\u0629 \u0645\u062c\u064a\u0644\u0639", "name": "\u0642\u0631\u064a\u0629 \u0645\u062c\u064a\u0644\u0639", "name:ar": "\u0642\u0631\u064a\u0629 \u0645\u062c\u064a\u0644\u0639", "name:ar1": "\u0642\u0631\u064a\u0629 \u0645\u062c\u064a\u0644\u0639", "name:de": "Qaryat Mujayla", "name:en": "Qaryat Mujayla", "name:fr": "Qaryat Mujayla", "place": "hamlet"}}, {"type": "node", "id": 2484314910, "lat": 32.094507, "lon": 44.4250693, "tags": {"alt_name": "\u0642\u0631\u064a\u0629 \u0627\u0644\u0632\u0645\u0627\u0646", "int_name": "Qaryat az Zam\u0101n, \u0642\u0631\u064a\u0629 \u0627\u0644\u0632\u0645\u0627\u0646, Qaryat az Zaman, \u0642\u0631\u064a\u0629 \u0627\u0644\u0632\u0645\u0627\u0646", "name": "\u0642\u0631\u064a\u0629 \u0627\u0644\u0632\u0645\u0627\u0646", "name:ar": "\u0642\u0631\u064a\u0629 \u0627\u0644\u0632\u0645\u0627\u0646", "name:ar1": "\u0642\u0631\u064a\u0629 \u0627\u0644\u0632\u0645\u0627\u0646", "name:de": "Qaryat az Zaman", "name:en": "Qaryat az Zaman", "name:fr": "Qaryat az Zaman", "place": "village"}}, {"type": "node", "id": 2484317524, "lat": 31.834376, "lon": 44.510189, "tags": {"alt_name": "\u0627\u0644\u062d\u0641\u0644\u0627\u0648\u064a\u0629", "int_name": "Al \u1e28afl\u0101w\u012byah, Al Haflawiyah", "is_in": "Iraq , \u062c\u0645\u0647\u0648\u0631\u064a\u0629 \u0627\u0644\u0639\u0631\u0627\u0642", "name": "\u0627\u0644\u062d\u0641\u0644\u0627\u0648\u064a\u0629", "name:ar": "\u0627\u0644\u062c\u0641\u0644\u0627\u0648\u064a\u0629", "name:ar1": "\u0627\u0644\u062d\u0641\u0644\u0627\u0648\u064a\u0629", "name:de": "Al Haflawiyah", "name:en": "Al Haflawiyah", "name:fr": "Al Haflawiyah", "place": "village"}}, {"type": "node", "id": 2484317595, "lat": 31.82833, "lon": 44.505914, "tags": {"alt_name": "\u0631\u0627\u0643 \u0627\u0644\u0647\u0648\u0629", "int_name": "R\u0101k al Hawwah, \u0631\u0627\u0643 \u0627\u0644\u0647\u0648\u0629, Rak al Hawwah, \u0631\u0627\u0643 \u0627\u0644\u0647\u0648\u0629", "is_in": "Iraq , \u062c\u0645\u0647\u0648\u0631\u064a\u0629 \u0627\u0644\u0639\u0631\u0627\u0642", "name": "\u0631\u0627\u0643 \u0627\u0644\u0647\u0648\u0629", "name:ar": "\u0631\u0627\u0643 \u0627\u0644\u062d\u0635\u0648\u0629", "name:ar1": "\u0631\u0627\u0643 \u0627\u0644\u0647\u0648\u0629", "name:de": "Rak al Hawwah", "name:en": "Rak al Haswah", "name:fr": "Rak al Hawwah", "place": "village"}}, {"type": "node", "id": 2484317644, "lat": 31.8621825, "lon": 44.5150756, "tags": {"alt_name": "\u0639\u0628\u062f \u0627\u0644\u0648\u0627\u062d\u062f \u0627\u0644 \u0633\u0643\u0631", "int_name": "\u0639\u0628\u062f \u0627\u0644\u0648\u0627\u062d\u062f \u0627\u0644 \u0633\u0643\u0631, \u0639\u0628\u062f \u0627\u0644\u0648\u0627\u062d\u062f \u0627\u0644 \u0633\u0643\u0631", "is_in": "Iraq , \u062c\u0645\u0647\u0648\u0631\u064a\u0629 \u0627\u0644\u0639\u0631\u0627\u0642", "name": "\u0639\u0628\u062f \u0627\u0644\u0648\u0627\u062d\u062f \u0627\u0644 \u0633\u0643\u0631", "name:ar": "\u0639\u0628\u062f \u0627\u0644\u0648\u0627\u062d\u062f \u0627\u0644 \u0633\u0643\u0631", "name:ar1": "\u0639\u0628\u062f \u0627\u0644\u0648\u0627\u062d\u062f \u0627\u0644 \u0633\u0643\u0631", "place": "village"}}, {"type": "node", "id": 2485426189, "lat": 31.984603, "lon": 44.535767, "tags": {"alt_name": "\u0639\u0628\u062f \u0622\u0644 \u0646\u0639\u0645\u0629", "int_name": "Abd \u0100l Nimah, Abd \u0100l Numah, \u0639\u0628\u062f \u0627\u0644 \u0646\u0639\u0645\u0629, Abd Al Nimah, Abd Al Numah, \u0639\u0628\u062f \u0627\u0644 \u0646\u0639\u0645\u0629", "is_in": "Iraq , \u062c\u0645\u0647\u0648\u0631\u064a\u0629 \u0627\u0644\u0639\u0631\u0627\u0642", "name": "\u0639\u0628\u062f \u0622\u0644 \u0646\u0639\u0645\u0629", "name:ar": "\u0639\u0628\u062f \u0622\u0644 \u0646\u0639\u0645\u0629", "name:ar1": "\u0639\u0628\u062f \u0622\u0644 \u0646\u0639\u0645\u0629", "name:de": "Abd Al Nimah", "name:en": "Abd Al Nimah", "name:fr": "Abd Al Nimah", "place": "hamlet"}}, {"type": "node", "id": 2485426195, "lat": 31.982479, "lon": 44.551597, "tags": {"alt_name": "\u0627\u0644\u0639\u0646\u0643\u0648\u0634\u064a", "int_name": "Al Ank\u016bsh\u012b, \u0627\u0644\u0639\u0646\u0643\u0648\u0634\u064a, Al Ankushi, \u0627\u0644\u0639\u0646\u0643\u0648\u0634\u064a", "is_in": "Iraq , \u062c\u0645\u0647\u0648\u0631\u064a\u0629 \u0627\u0644\u0639\u0631\u0627\u0642", "name": "\u0627\u0644\u0639\u0646\u0643\u0648\u0634\u064a", "name:ar": "\u0627\u0644\u0639\u0646\u0643\u0648\u0634\u064a", "name:ar1": "\u0627\u0644\u0639\u0646\u0643\u0648\u0634\u064a", "name:de": "Al Ankushi", "name:en": "Al Ankushi", "name:fr": "Al Ankushi", "place": "hamlet"}}, {"type": "node", "id": 2485426225, "lat": 31.978945, "lon": 44.536612, "tags": {"alt_name": "\u062d\u0633\u0646 \u0627\u0644\u062d\u0627\u062c \u0641\u0637\u0631", "int_name": "\u1e28asan al \u1e28\u0101j Fu\u0163r, \u062d\u0633\u0646 \u0627\u0644\u062d\u0627\u062c \u0641\u0637\u0631, Hasan al Haj Futr, \u062d\u0633\u0646 \u0627\u0644\u062d\u0627\u062c \u0641\u0637\u0631", "is_in": "Iraq , \u062c\u0645\u0647\u0648\u0631\u064a\u0629 \u0627\u0644\u0639\u0631\u0627\u0642", "name": "\u062d\u0633\u0646 \u0627\u0644\u062d\u0627\u062c \u0641\u0637\u0631", "name:ar": "\u062d\u0633\u0646 \u0627\u0644\u062d\u0627\u062c \u0641\u0637\u0631", "name:ar1": "\u062d\u0633\u0646 \u0627\u0644\u062d\u0627\u062c \u0641\u0637\u0631", "name:de": "Hasan al Haj Futr", "name:en": "Hasan al Haj Futr", "name:fr": "Hasan al Haj Futr", "place": "hamlet"}}, {"type": "node", "id": 2485426230, "lat": 31.997527, "lon": 44.548949, "tags": {"alt_name": "\u062d\u0627\u062a\u0645 \u062c\u0628\u0631", "int_name": "\u1e28\u0101tim Jabr, \u062d\u0627\u062a\u0645 \u062c\u0628\u0631, Hatim Jabr, \u062d\u0627\u062a\u0645 \u062c\u0628\u0631", "is_in": "Iraq , \u062c\u0645\u0647\u0648\u0631\u064a\u0629 \u0627\u0644\u0639\u0631\u0627\u0642", "name": "\u062d\u0627\u062a\u0645 \u062c\u0628\u0631", "name:ar": "\u062d\u0627\u062a\u0645 \u062c\u0628\u0631", "name:ar1": "\u062d\u0627\u062a\u0645 \u062c\u0628\u0631", "name:de": "Hatim Jabr", "name:en": "Hatim Jabr", "name:fr": "Hatim Jabr", "place": "hamlet"}}, {"type": "node", "id": 2485426248, "lat": 32.000874, "lon": 44.5405, "tags": {"alt_name": "\u0642\u0631\u064a\u0629 \u0627\u0644\u0637\u0646\u0637\u0648\u0631", "int_name": "Qaryat a\u0163 \u0162an\u0163\u016br, \u0642\u0631\u064a\u0629 \u0627\u0644\u0637\u0646\u0637\u0648\u0631, Qaryat at Tantur, \u0642\u0631\u064a\u0629 \u0627\u0644\u0637\u0646\u0637\u0648\u0631", "name": "\u0642\u0631\u064a\u0629 \u0627\u0644\u0637\u0646\u0637\u0648\u0631", "name:ar": "\u0642\u0631\u064a\u0629 \u0627\u0644\u0637\u0646\u0637\u0648\u0631", "name:ar1": "\u0642\u0631\u064a\u0629 \u0627\u0644\u0637\u0646\u0637\u0648\u0631", "name:de": "Qaryat at Tantur", "name:en": "Qaryat at Tantur", "name:fr": "Qaryat at Tantur", "place": "hamlet"}}, {"type": "node", "id": 2485427767, "lat": 32.01727, "lon": 44.547549, "tags": {"alt_name": "Al Salaheyah, A\u015f \u015eal\u0101\u1e29\u012byah, A\u015f \u015eal\u012bj\u012byah, N\u0101\u1e29iyat a\u015f \u015eal\u0101\u1e29\u012byah, Sal\u0101j\u012byah, \u015eal\u012bch\u012byah, Sil\u012bk\u012bya, Sil\u012bk\u012byah, Sulaichiya", "capital": "7", "int_name": "Al Salaheyah - \u0627\u0644\u0635\u0644\u0627\u062d\u064a\u0629", "is_in": "Iraq , \u062c\u0645\u0647\u0648\u0631\u064a\u0629 \u0627\u0644\u0639\u0631\u0627\u0642", "name": "\u0627\u0644\u0635\u0644\u0627\u062d\u064a\u0629", "name:ar": "\u0627\u0644\u0635\u0644\u0627\u062d\u064a\u0629", "name:de": "Al Salaheyah", "name:en": "Al Salaheyah", "name:fr": "Al Salaheyah", "place": "town", "wikidata": "Q20416432"}}, {"type": "node", "id": 2485427768, "lat": 32.008877, "lon": 44.543503, "tags": {"alt_name": "\u0641\u062e\u0631\u064a \u0639\u064a\u0633\u0649", "int_name": "Fakhr\u012b \u012as\u00e1, \u0641\u062e\u0631\u064a \u0639\u064a\u0633\u0649, Fakhri Isa, \u0641\u062e\u0631\u064a \u0639\u064a\u0633\u0649", "is_in": "Iraq , \u062c\u0645\u0647\u0648\u0631\u064a\u0629 \u0627\u0644\u0639\u0631\u0627\u0642", "name": "\u0641\u062e\u0631\u064a \u0639\u064a\u0633\u0649", "name:ar": "\u0641\u062e\u0631\u064a \u0639\u064a\u0633\u0649", "name:ar1": "\u0641\u062e\u0631\u064a \u0639\u064a\u0633\u0649", "name:de": "Fakhri Isa", "name:en": "Fakhri Isa", "name:fr": "Fakhri Isa", "place": "hamlet"}}, {"type": "node", "id": 2485427769, "lat": 32.007742, "lon": 44.543195, "tags": {"alt_name": "\u062d\u0633\u064a\u0646 \u0639\u0628\u0648\u062f", "int_name": "\u1e28usayn Abb\u016bd, \u062d\u0633\u064a\u0646 \u0639\u0628\u0648\u062f, Husayn Abbud, \u062d\u0633\u064a\u0646 \u0639\u0628\u0648\u062f", "is_in": "Iraq , \u062c\u0645\u0647\u0648\u0631\u064a\u0629 \u0627\u0644\u0639\u0631\u0627\u0642", "name": "\u062d\u0633\u064a\u0646 \u0639\u0628\u0648\u062f", "name:ar": "\u062d\u0633\u064a\u0646 \u0639\u0628\u0648\u062f", "name:ar1": "\u062d\u0633\u064a\u0646 \u0639\u0628\u0648\u062f", "name:de": "Husayn Abbud", "name:en": "Husayn Abbud", "name:fr": "Husayn Abbud", "place": "hamlet"}}, {"type": "node", "id": 2485427778, "lat": 32.009995, "lon": 44.544458, "tags": {"alt_name": "\u0643\u0631\u064a\u0645 \u0633\u064a\u062f \u0634\u0627\u0643\u0631", "int_name": "Kar\u012bm Sayyid Sh\u0101kir, \u0643\u0631\u064a\u0645 \u0633\u064a\u062f \u0634\u0627\u0643\u0631, Karim Sayyid Shakir, \u0643\u0631\u064a\u0645 \u0633\u064a\u062f \u0634\u0627\u0643\u0631", "is_in": "Iraq , \u062c\u0645\u0647\u0648\u0631\u064a\u0629 \u0627\u0644\u0639\u0631\u0627\u0642", "name": "\u0643\u0631\u064a\u0645 \u0633\u064a\u062f \u0634\u0627\u0643\u0631", "name:ar": "\u0643\u0631\u064a\u0645 \u0633\u064a\u062f \u0634\u0627\u0643\u0631", "name:ar1": "\u0643\u0631\u064a\u0645 \u0633\u064a\u062f \u0634\u0627\u0643\u0631", "name:de": "Karim Sayyid Shakir", "name:en": "Karim Sayyid Shakir", "name:fr": "Karim Sayyid Shakir", "place": "hamlet"}}, {"type": "node", "id": 2485427784, "lat": 32.024527, "lon": 44.544649, "tags": {"alt_name": "\u0645\u0648\u0633\u0649 \u0643\u0627\u0638\u0645", "int_name": "M\u016bs\u00e1 K\u0101z\u0327im, \u0645\u0648\u0633\u0649 \u0643\u0627\u0638\u0645, Musa Kazim, \u0645\u0648\u0633\u0649 \u0643\u0627\u0638\u0645", "is_in": "Iraq , \u062c\u0645\u0647\u0648\u0631\u064a\u0629 \u0627\u0644\u0639\u0631\u0627\u0642", "name": "\u0645\u0648\u0633\u0649 \u0643\u0627\u0638\u0645", "name:ar": "\u0645\u0648\u0633\u0649 \u0643\u0627\u0638\u0645", "name:ar1": "\u0645\u0648\u0633\u0649 \u0643\u0627\u0638\u0645", "name:de": "Musa Kazim", "name:en": "Musa Kazim", "name:fr": "Musa Kazim", "place": "hamlet"}}, {"type": "node", "id": 2485427822, "lat": 32.017434, "lon": 44.5436, "tags": {"alt_name": "\u0642\u0631\u064a\u0629 \u0627\u0644\u0648\u0631\u062f", "int_name": "Qaryat al Warid, \u0642\u0631\u064a\u0629 \u0627\u0644\u0648\u0631\u062f, Qaryat al Warid, \u0642\u0631\u064a\u0629 \u0627\u0644\u0648\u0631\u062f", "name": "\u0642\u0631\u064a\u0629 \u0627\u0644\u0648\u0631\u062f", "name:ar": "\u0642\u0631\u064a\u0629 \u0627\u0644\u0648\u0631\u062f", "name:ar1": "\u0642\u0631\u064a\u0629 \u0627\u0644\u0648\u0631\u062f", "name:de": "Qaryat al Warid", "name:en": "Qaryat al Warid", "name:fr": "Qaryat al Warid", "place": "hamlet"}}, {"type": "node", "id": 2485427826, "lat": 32.019678, "lon": 44.542852, "tags": {"alt_name": "\u0639\u0645\u0631\u0627\u0646 \u0645\u0648\u0633\u0649", "int_name": "Umr\u0101n M\u016bs\u00e1, \u0639\u0645\u0631\u0627\u0646 \u0645\u0648\u0633\u0649, Umran Musa, \u0639\u0645\u0631\u0627\u0646 \u0645\u0648\u0633\u0649", "is_in": "Iraq , \u062c\u0645\u0647\u0648\u0631\u064a\u0629 \u0627\u0644\u0639\u0631\u0627\u0642", "name": "\u0639\u0645\u0631\u0627\u0646 \u0645\u0648\u0633\u0649", "name:ar": "\u0639\u0645\u0631\u0627\u0646 \u0645\u0648\u0633\u0649", "name:ar1": "\u0639\u0645\u0631\u0627\u0646 \u0645\u0648\u0633\u0649", "name:de": "Umran Musa", "name:en": "Umran Musa", "name:fr": "Umran Musa", "place": "hamlet"}}, {"type": "node", "id": 2485430657, "lat": 32.029095, "lon": 44.544571, "tags": {"alt_name": "\u0627\u0644\u0639\u0648\u0627\u0628\u062f", "int_name": "Al Aw\u0101bid, \u0627\u0644\u0639\u0648\u0627\u0628\u062f, Al Awabid, \u0627\u0644\u0639\u0648\u0627\u0628\u062f", "is_in": "Iraq , \u062c\u0645\u0647\u0648\u0631\u064a\u0629 \u0627\u0644\u0639\u0631\u0627\u0642", "name": "\u0627\u0644\u0639\u0648\u0627\u0628\u062f", "name:ar": "\u0627\u0644\u0639\u0648\u0627\u0628\u062f", "name:ar1": "\u0627\u0644\u0639\u0648\u0627\u0628\u062f", "name:de": "Al Awabid", "name:en": "Al Awabid", "name:fr": "Al Awabid", "place": "hamlet"}}, {"type": "node", "id": 2485430669, "lat": 32.034165, "lon": 44.545169, "tags": {"alt_name": "\u0627\u0644\u0635\u0644\u0627\u062d\u064a\u0629", "int_name": "A\u015f \u015eal\u0101\u1e29\u012byah, \u0627\u0644\u0635\u0644\u0627\u062d\u064a\u0629, As Salahiyah, \u0627\u0644\u0635\u0644\u0627\u062d\u064a\u0629", "is_in": "Iraq , \u062c\u0645\u0647\u0648\u0631\u064a\u0629 \u0627\u0644\u0639\u0631\u0627\u0642", "name": "\u0627\u0644\u0635\u0644\u0627\u062d\u064a\u0629", "name:ar": "\u0627\u0644\u0635\u0644\u0627\u062d\u064a\u0629", "name:ar1": "\u0627\u0644\u0635\u0644\u0627\u062d\u064a\u0629", "name:de": "As Salahiyah", "name:en": "As Salahiyah", "name:fr": "As Salahiyah", "place": "hamlet"}}, {"type": "node", "id": 2485430699, "lat": 32.032527, "lon": 44.544963, "tags": {"alt_name": "\u0641\u0631\u062d\u0627\u0646 \u062d\u0645\u0632\u0629", "int_name": "Far\u1e29\u0101n \u1e28amzah, \u0641\u0631\u062d\u0627\u0646 \u062d\u0645\u0632\u0629, Farhan Hamzah, \u0641\u0631\u062d\u0627\u0646 \u062d\u0645\u0632\u0629", "is_in": "Iraq , \u062c\u0645\u0647\u0648\u0631\u064a\u0629 \u0627\u0644\u0639\u0631\u0627\u0642", "name": "\u0641\u0631\u062d\u0627\u0646 \u062d\u0645\u0632\u0629", "name:ar": "\u0641\u0631\u062d\u0627\u0646 \u062d\u0645\u0632\u0629", "name:ar1": "\u0641\u0631\u062d\u0627\u0646 \u062d\u0645\u0632\u0629", "name:de": "Farhan Hamzah", "name:en": "Farhan Hamzah", "name:fr": "Farhan Hamzah", "place": "hamlet"}}, {"type": "node", "id": 2485430712, "lat": 32.031006, "lon": 44.544444, "tags": {"alt_name": "\u062d\u0645\u0632\u0629 \u0643\u0635\u0627\u062f", "int_name": "\u1e28amzat Ka\u015f\u015f\u0101d, \u062d\u0645\u0632\u0629 \u0643\u0635\u0627\u062f, Hamzat Kassad, \u062d\u0645\u0632\u0629 \u0643\u0635\u0627\u062f", "is_in": "Iraq , \u062c\u0645\u0647\u0648\u0631\u064a\u0629 \u0627\u0644\u0639\u0631\u0627\u0642", "name": "\u062d\u0645\u0632\u0629 \u0643\u0635\u0627\u062f", "name:ar": "\u062d\u0645\u0632\u0629 \u0643\u0635\u0627\u062f", "name:ar1": "\u062d\u0645\u0632\u0629 \u0643\u0635\u0627\u062f", "name:de": "Hamzat Kassad", "name:en": "Hamzat Kassad", "name:fr": "Hamzat Kassad", "place": "hamlet"}}, {"type": "node", "id": 2485430756, "lat": 32.026909, "lon": 44.542319, "tags": {"alt_name": "\u0633\u064a\u062f \u0646\u0627\u0635\u0631", "int_name": "Sayyid N\u0101\u015fir, \u0633\u064a\u062f \u0646\u0627\u0635\u0631, Sayyid Nasir, \u0633\u064a\u062f \u0646\u0627\u0635\u0631", "is_in": "Iraq , \u062c\u0645\u0647\u0648\u0631\u064a\u0629 \u0627\u0644\u0639\u0631\u0627\u0642", "name": "\u0633\u064a\u062f \u0646\u0627\u0635\u0631", "name:ar": "\u0633\u064a\u062f \u0646\u0627\u0635\u0631", "name:ar1": "\u0633\u064a\u062f \u0646\u0627\u0635\u0631", "name:de": "Sayyid Nasir", "name:en": "Sayyid Nasir", "name:fr": "Sayyid Nasir", "place": "hamlet"}}, {"type": "node", "id": 2485430777, "lat": 32.034396, "lon": 44.542419, "tags": {"alt_name": "\u0634\u0648\u0627\u062f\u064a \u0643\u0631\u064a\u0645", "int_name": "Shaw\u0101d\u012b Kar\u012bm, \u0634\u0648\u0627\u062f\u064a \u0643\u0631\u064a\u0645, Shawadi Karim, \u0634\u0648\u0627\u062f\u064a \u0643\u0631\u064a\u0645", "is_in": "Iraq , \u062c\u0645\u0647\u0648\u0631\u064a\u0629 \u0627\u0644\u0639\u0631\u0627\u0642", "name": "\u0634\u0648\u0627\u062f\u064a \u0643\u0631\u064a\u0645", "name:ar": "\u0634\u0648\u0627\u062f\u064a \u0643\u0631\u064a\u0645", "name:ar1": "\u0634\u0648\u0627\u062f\u064a \u0643\u0631\u064a\u0645", "name:de": "Shawadi Karim", "name:en": "Shawadi Karim", "name:fr": "Shawadi Karim", "place": "hamlet"}}, {"type": "node", "id": 2485431139, "lat": 32.037419, "lon": 44.547152, "tags": {"alt_name": "\u062d\u0633\u064a\u0646 \u064a\u0627\u0633\u064a\u0646", "int_name": "\u1e28usayn Y\u0101s\u012bn, \u062d\u0633\u064a\u0646 \u064a\u0627\u0633\u064a\u0646, Husayn Yasin, \u062d\u0633\u064a\u0646 \u064a\u0627\u0633\u064a\u0646", "is_in": "Iraq , \u062c\u0645\u0647\u0648\u0631\u064a\u0629 \u0627\u0644\u0639\u0631\u0627\u0642", "name": "\u062d\u0633\u064a\u0646 \u064a\u0627\u0633\u064a\u0646", "name:ar": "\u062d\u0633\u064a\u0646 \u064a\u0627\u0633\u064a\u0646", "name:ar1": "\u062d\u0633\u064a\u0646 \u064a\u0627\u0633\u064a\u0646", "name:de": "Husayn Yasin", "name:en": "Husayn Yasin", "name:fr": "Husayn Yasin", "place": "hamlet"}}, {"type": "node", "id": 2485431140, "lat": 32.039594, "lon": 44.539764, "tags": {"alt_name": "\u062c\u0627\u0633\u0645 \u0646\u0639\u0645\u0629", "int_name": "J\u0101sim Nimah, \u062c\u0627\u0633\u0645 \u0646\u0639\u0645\u0629, Jasim Nimah, \u062c\u0627\u0633\u0645 \u0646\u0639\u0645\u0629", "is_in": "Iraq , \u062c\u0645\u0647\u0648\u0631\u064a\u0629 \u0627\u0644\u0639\u0631\u0627\u0642", "name": "\u062c\u0627\u0633\u0645 \u0646\u0639\u0645\u0629", "name:ar": "\u062c\u0627\u0633\u0645 \u0646\u0639\u0645\u0629", "name:ar1": "\u062c\u0627\u0633\u0645 \u0646\u0639\u0645\u0629", "name:de": "Jasim Nimah", "name:en": "Jasim Nimah", "name:fr": "Jasim Nimah", "place": "hamlet"}}, {"type": "node", "id": 2485431142, "lat": 32.040314, "lon": 44.543032, "tags": {"alt_name": "\u0645\u0647\u062f\u064a \u0647\u0627\u062f\u064a", "int_name": "Mahd\u012b H\u0101d\u012b, \u0645\u0647\u062f\u064a \u0647\u0627\u062f\u064a, Mahdi Hadi, \u0645\u0647\u062f\u064a \u0647\u0627\u062f\u064a", "is_in": "Iraq , \u062c\u0645\u0647\u0648\u0631\u064a\u0629 \u0627\u0644\u0639\u0631\u0627\u0642", "name": "\u0642\u0631\u06cc\u0647 \u0645\u0647\u062f\u064a \u0647\u0627\u062f\u064a", "name:ar": "\u0645\u0647\u062f\u064a \u0647\u0627\u062f\u064a", "name:ar1": "\u0645\u0647\u062f\u064a \u0647\u0627\u062f\u064a", "name:de": "Mahdi Hadi", "name:en": "Mahdi Hadi", "name:fr": "Mahdi Hadi", "place": "village"}}, {"type": "node", "id": 2485431157, "lat": 32.037404, "lon": 44.538547, "tags": {"alt_name": "\u0634\u0646\u062a\u0648\u0644 \u062d\u0633\u064a\u0646", "int_name": "Shant\u016bl \u1e28usayn, \u0634\u0646\u062a\u0648\u0644 \u062d\u0633\u064a\u0646, Shantul Husayn, \u0634\u0646\u062a\u0648\u0644 \u062d\u0633\u064a\u0646", "is_in": "Iraq , \u062c\u0645\u0647\u0648\u0631\u064a\u0629 \u0627\u0644\u0639\u0631\u0627\u0642", "name": "\u0634\u0646\u062a\u0648\u0644 \u062d\u0633\u064a\u0646", "name:ar": "\u0634\u0646\u062a\u0648\u0644 \u062d\u0633\u064a\u0646", "name:ar1": "\u0634\u0646\u062a\u0648\u0644 \u062d\u0633\u064a\u0646", "name:de": "Shantul Husayn", "name:en": "Shantul Husayn", "name:fr": "Shantul Husayn", "place": "hamlet"}}, {"type": "node", "id": 2485432576, "lat": 32.0570972, "lon": 44.5408364, "tags": {"alt_name": "\u0639\u0628\u062f \u0632\u064a\u062f \u0639\u0648\u062f\u0629", "int_name": "Abd Zayd Awdah, \u0639\u0628\u062f \u0632\u064a\u062f \u0639\u0648\u062f\u0629, Abd Zayd Awdah, \u0639\u0628\u062f \u0632\u064a\u062f \u0639\u0648\u062f\u0629", "is_in": "Iraq , \u062c\u0645\u0647\u0648\u0631\u064a\u0629 \u0627\u0644\u0639\u0631\u0627\u0642", "name": "\u0639\u0628\u062f \u0632\u064a\u062f \u0639\u0648\u062f\u0629", "name:ar": "\u0639\u0628\u062f \u0632\u064a\u062f \u0639\u0648\u062f\u0629", "name:ar1": "\u0639\u0628\u062f \u0632\u064a\u062f \u0639\u0648\u062f\u0629", "name:de": "Abd Zayd Awdah", "name:en": "Abd Zayd Awdah", "name:fr": "Abd Zayd Awdah", "place": "hamlet"}}, {"type": "node", "id": 2485432635, "lat": 32.0536889, "lon": 44.5426519, "tags": {"alt_name": "\u0647\u0646\u0627\u0648\u064a \u0645\u062d\u0645\u062f", "int_name": "Han\u0101w\u012b Mu\u1e29ammad, \u0647\u0646\u0627\u0648\u064a \u0645\u062d\u0645\u062f, Hanawi Muhammad, \u0647\u0646\u0627\u0648\u064a \u0645\u062d\u0645\u062f", "is_in": "Iraq , \u062c\u0645\u0647\u0648\u0631\u064a\u0629 \u0627\u0644\u0639\u0631\u0627\u0642", "name": "\u0647\u0646\u0627\u0648\u064a \u0645\u062d\u0645\u062f", "name:ar": "\u0647\u0646\u0627\u0648\u064a \u0645\u062d\u0645\u062f", "name:ar1": "\u0647\u0646\u0627\u0648\u064a \u0645\u062d\u0645\u062f", "name:de": "Hanawi Muhammad", "name:en": "Hanawi Muhammad", "name:fr": "Hanawi Muhammad", "place": "hamlet"}}, {"type": "node", "id": 2485435138, "lat": 32.0576659, "lon": 44.5341585, "tags": {"alt_name": "\u0627\u0644\u0641\u062a\u0644\u0629", "int_name": "Al Fatlah, \u0627\u0644\u0641\u062a\u0644\u0629, Al Fatlah, \u0627\u0644\u0641\u062a\u0644\u0629", "is_in": "Iraq , \u062c\u0645\u0647\u0648\u0631\u064a\u0629 \u0627\u0644\u0639\u0631\u0627\u0642", "name": "\u0627\u0644\u0641\u062a\u0644\u0629", "name:ar": "\u0627\u0644\u0641\u062a\u0644\u0629", "name:ar1": "\u0627\u0644\u0641\u062a\u0644\u0629", "name:de": "Al Fatlah", "name:en": "Al Fatlah", "name:fr": "Al Fatlah", "place": "hamlet"}}, {"type": "node", "id": 2485435176, "lat": 32.059111, "lon": 44.533521, "tags": {"alt_name": "\u062c\u0627\u0633\u0645 \u0645\u062c\u0647\u0648\u0644", "int_name": "J\u0101sim Majh\u016bl, \u062c\u0627\u0633\u0645 \u0645\u062c\u0647\u0648\u0644, Jasim Majhul, \u062c\u0627\u0633\u0645 \u0645\u062c\u0647\u0648\u0644", "is_in": "Iraq , \u062c\u0645\u0647\u0648\u0631\u064a\u0629 \u0627\u0644\u0639\u0631\u0627\u0642", "name": "\u062c\u0627\u0633\u0645 \u0645\u062c\u0647\u0648\u0644", "name:ar": "\u062c\u0627\u0633\u0645 \u0645\u062c\u0647\u0648\u0644", "name:ar1": "\u062c\u0627\u0633\u0645 \u0645\u062c\u0647\u0648\u0644", "name:de": "Jasim Majhul", "name:en": "Jasim Majhul", "name:fr": "Jasim Majhul", "place": "hamlet"}}, {"type": "node", "id": 2485435178, "lat": 32.0569019, "lon": 44.5223951, "tags": {"alt_name": "\u0645\u062d\u0645\u062f \u0643\u0627\u0638\u0645 \u0648\u0646\u0627\u0633", "int_name": "Mu\u1e29ammad K\u0101z\u0327im Win\u0101s, \u0645\u062d\u0645\u062f \u0643\u0627\u0638\u0645 \u0648\u0646\u0627\u0633, Muhammad Kazim Winas, \u0645\u062d\u0645\u062f \u0643\u0627\u0638\u0645 \u0648\u0646\u0627\u0633", "is_in": "Iraq , \u062c\u0645\u0647\u0648\u0631\u064a\u0629 \u0627\u0644\u0639\u0631\u0627\u0642", "name": "\u0645\u062d\u0645\u062f \u0643\u0627\u0638\u0645 \u0648\u0646\u0627\u0633", "name:ar": "\u0645\u062d\u0645\u062f \u0643\u0627\u0638\u0645 \u0648\u0646\u0627\u0633", "name:ar1": "\u0645\u062d\u0645\u062f \u0643\u0627\u0638\u0645 \u0648\u0646\u0627\u0633", "name:de": "Muhammad Kazim Winas", "name:en": "Muhammad Kazim Winas", "name:fr": "Muhammad Kazim Winas", "place": "hamlet"}}, {"type": "node", "id": 2485435179, "lat": 32.059708, "lon": 44.534822, "tags": {"alt_name": "\u0645\u062d\u0633\u0646 \u0627\u0644\u0645\u064a\u0629", "int_name": "Mu\u1e29sin al Miyyah, \u0645\u062d\u0633\u0646 \u0627\u0644\u0645\u064a\u0629, Muhsin al Miyyah, \u0645\u062d\u0633\u0646 \u0627\u0644\u0645\u064a\u0629", "is_in": "Iraq , \u062c\u0645\u0647\u0648\u0631\u064a\u0629 \u0627\u0644\u0639\u0631\u0627\u0642", "name": "\u0645\u062d\u0633\u0646 \u0627\u0644\u0645\u064a\u0629", "name:ar": "\u0645\u062d\u0633\u0646 \u0627\u0644\u0645\u064a\u0629", "name:ar1": "\u0645\u062d\u0633\u0646 \u0627\u0644\u0645\u064a\u0629", "name:de": "Muhsin al Miyyah", "name:en": "Muhsin al Miyyah", "name:fr": "Muhsin al Miyyah", "place": "hamlet"}}, {"type": "node", "id": 2485435187, "lat": 32.052226, "lon": 44.5305913, "tags": {"alt_name": "\u0642\u0631\u064a\u0629 \u0627\u0644\u0633\u0627\u062f\u0629", "int_name": "Qaryat as S\u0101dah, \u0642\u0631\u064a\u0629 \u0627\u0644\u0633\u0627\u062f\u0629, Qaryat as Sadah, \u0642\u0631\u064a\u0629 \u0627\u0644\u0633\u0627\u062f\u0629", "name": "\u0642\u0631\u064a\u0629 \u0627\u0644\u0633\u0627\u062f\u0629", "name:ar": "\u0642\u0631\u064a\u0629 \u0627\u0644\u0633\u0627\u062f\u0629", "name:ar1": "\u0642\u0631\u064a\u0629 \u0627\u0644\u0633\u0627\u062f\u0629", "name:de": "Qaryat as Sadah", "name:en": "Qaryat as Sadah", "name:fr": "Qaryat as Sadah", "place": "hamlet"}}, {"type": "node", "id": 2485436924, "lat": 32.049627, "lon": 44.528811, "tags": {"alt_name": "\u0639\u0628\u062f \u0627\u0644\u062d\u0633\u064a\u0646 \u0633\u0644\u0645\u0627\u0646", "int_name": "Abd al \u1e28usayn Salm\u0101n, \u0639\u0628\u062f \u0627\u0644\u062d\u0633\u064a\u0646 \u0633\u0644\u0645\u0627\u0646, Abd al Husayn Salman, \u0639\u0628\u062f \u0627\u0644\u062d\u0633\u064a\u0646 \u0633\u0644\u0645\u0627\u0646", "is_in": "Iraq , \u062c\u0645\u0647\u0648\u0631\u064a\u0629 \u0627\u0644\u0639\u0631\u0627\u0642", "name": "\u0642\u0631\u06cc\u0647 \u0639\u0628\u062f \u0627\u0644\u062d\u0633\u064a\u0646 \u0633\u0644\u0645\u0627\u0646", "name:ar": "\u0639\u0628\u062f \u0627\u0644\u062d\u0633\u064a\u0646 \u0633\u0644\u0645\u0627\u0646", "name:ar1": "\u0639\u0628\u062f \u0627\u0644\u062d\u0633\u064a\u0646 \u0633\u0644\u0645\u0627\u0646", "name:de": "Abd al Husayn Salman", "name:en": "Abd al Husayn Salman", "name:fr": "Abd al Husayn Salman", "place": "village"}}, {"type": "node", "id": 2485436938, "lat": 32.048542, "lon": 44.506735, "tags": {"alt_name": "\u0639\u0632\u064a\u0632 \u0631\u0627\u0636\u064a", "int_name": "Az\u012bz R\u0101\u1e11\u012b, \u0639\u0632\u064a\u0632 \u0631\u0627\u0636\u064a, Aziz Radi, \u0639\u0632\u064a\u0632 \u0631\u0627\u0636\u064a", "is_in": "Iraq , \u062c\u0645\u0647\u0648\u0631\u064a\u0629 \u0627\u0644\u0639\u0631\u0627\u0642", "name": "\u0642\u0631\u06cc\u0647 \u0639\u0632\u064a\u0632 \u0631\u0627\u0636\u064a", "name:ar": "\u0639\u0632\u064a\u0632 \u0631\u0627\u0636\u064a", "name:ar1": "\u0639\u0632\u064a\u0632 \u0631\u0627\u0636\u064a", "name:de": "Aziz Radi", "name:en": "Aziz Radi", "name:fr": "Aziz Radi", "place": "hamlet"}}, {"type": "node", "id": 2485436969, "lat": 32.0463983, "lon": 44.5330425, "tags": {"alt_name": "\u0643\u0627\u0638\u0645 \u0647\u0646\u062f\u064a", "int_name": "K\u0101z\u0327im Hind\u012b, \u0643\u0627\u0638\u0645 \u0647\u0646\u062f\u064a, Kazim Hindi, \u0643\u0627\u0638\u0645 \u0647\u0646\u062f\u064a", "is_in": "Iraq , \u062c\u0645\u0647\u0648\u0631\u064a\u0629 \u0627\u0644\u0639\u0631\u0627\u0642", "name": "\u0643\u0627\u0638\u0645 \u0647\u0646\u062f\u064a", "name:ar": "\u0643\u0627\u0638\u0645 \u0647\u0646\u062f\u064a", "name:ar1": "\u0643\u0627\u0638\u0645 \u0647\u0646\u062f\u064a", "name:de": "Kazim Hindi", "name:en": "Kazim Hindi", "name:fr": "Kazim Hindi", "place": "hamlet"}}, {"type": "node", "id": 2485438310, "lat": 32.058505, "lon": 44.5118772, "tags": {"alt_name": "\u0639\u0628\u062f \u0627\u0644\u062d\u0633\u0646", "int_name": "Abd al \u1e28asan, Abd al Hasan", "is_in": "Iraq , \u062c\u0645\u0647\u0648\u0631\u064a\u0629 \u0627\u0644\u0639\u0631\u0627\u0642", "name": "\u0642\u0631\u06cc\u0647 \u0639\u0628\u062f \u0627\u0644\u062d\u0633\u0646", "name:ar": "\u0639\u0628\u062f \u0627\u0644\u062d\u0633\u0646", "name:ar1": "\u0639\u0628\u062f \u0627\u0644\u062d\u0633\u0646", "name:de": "Abd al Hasan", "name:en": "Abd al Hasan", "name:fr": "Abd al Hasan", "place": "hamlet"}}, {"type": "node", "id": 2485438399, "lat": 32.0571521, "lon": 44.5160803, "tags": {"alt_name": "\u0633\u064a\u062f \u062e\u0644\u064a\u0644", "int_name": "Sayyid Khal\u012bl, \u0633\u064a\u062f \u062e\u0644\u064a\u0644, Sayyid Khalil, \u0633\u064a\u062f \u062e\u0644\u064a\u0644", "is_in": "Iraq , \u062c\u0645\u0647\u0648\u0631\u064a\u0629 \u0627\u0644\u0639\u0631\u0627\u0642", "name": "\u0633\u064a\u062f \u062e\u0644\u064a\u0644", "name:ar": "\u0633\u064a\u062f \u062e\u0644\u064a\u0644", "name:ar1": "\u0633\u064a\u062f \u062e\u0644\u064a\u0644", "name:de": "Sayyid Khalil", "name:en": "Sayyid Khalil", "name:fr": "Sayyid Khalil", "place": "hamlet"}}, {"type": "node", "id": 2485441059, "lat": 32.082479, "lon": 44.53683, "tags": {"alt_name": "\u0642\u0631\u064a\u0629 \u0627\u0644\u0633\u0631\u064a\u062f\u0627\u062a", "int_name": "Qaryat as Surayd\u0101t, \u0642\u0631\u064a\u0629 \u0627\u0644\u0633\u0631\u064a\u062f\u0627\u062a, Qaryat as Suraydat, \u0642\u0631\u064a\u0629 \u0627\u0644\u0633\u0631\u064a\u062f\u0627\u062a", "name": "\u0642\u0631\u064a\u0629 \u0627\u0644\u0633\u0631\u064a\u062f\u0627\u062a", "name:ar": "\u0642\u0631\u064a\u0629 \u0627\u0644\u0633\u0631\u064a\u062f\u0627\u062a", "name:ar1": "\u0642\u0631\u064a\u0629 \u0627\u0644\u0633\u0631\u064a\u062f\u0627\u062a", "name:de": "Qaryat as Suraydat", "name:en": "Qaryat as Suraydat", "name:fr": "Qaryat as Suraydat", "place": "hamlet"}}, {"type": "node", "id": 2485441185, "lat": 32.102678, "lon": 44.543213, "tags": {"alt_name": "\u0627\u0644\u0635\u0644\u064a\u062c\u064a\u0629", "int_name": "A\u015f \u015eulayj\u012byah, \u0627\u0644\u0635\u0644\u064a\u062c\u064a\u0629, As Sulayjiyah, \u0627\u0644\u0635\u0644\u064a\u062c\u064a\u0629", "is_in": "Iraq , \u062c\u0645\u0647\u0648\u0631\u064a\u0629 \u0627\u0644\u0639\u0631\u0627\u0642", "name": "\u0627\u0644\u0635\u0644\u064a\u062c\u064a\u0629", "name:ar": "\u0627\u0644\u0635\u0644\u064a\u062c\u064a\u0629", "name:ar1": "\u0627\u0644\u0635\u0644\u064a\u062c\u064a\u0629", "name:de": "As Sulayjiyah", "name:en": "As Sulayjiyah", "name:fr": "As Sulayjiyah", "place": "town"}}, {"type": "node", "id": 2485441186, "lat": 32.1032563, "lon": 44.5429847, "tags": {"alt_name": "\u0646\u0627\u062d\u064a\u0629 \u0627\u0644\u062d\u0631\u064a\u0629", "capital": "7", "int_name": "N\u0101\u1e29iyat al \u1e28urr\u012byah, \u0646\u0627\u062d\u064a\u0629 \u0627\u0644\u062d\u0631\u064a\u0629, Nahiyat al Hurriyah, \u0646\u0627\u062d\u064a\u0629 \u0627\u0644\u062d\u0631\u064a\u0629", "is_in": "Iraq , \u062c\u0645\u0647\u0648\u0631\u064a\u0629 \u0627\u0644\u0639\u0631\u0627\u0642", "is_in:country": "Iraq", "is_in:country_code": "IQ", "name": "\u0627\u0644\u062d\u0631\u064a\u0629", "name:ar": "\u0627\u0644\u062d\u0631\u064a\u0629", "name:ar1": "\u0646\u0627\u062d\u064a\u0629 \u0627\u0644\u062d\u0631\u064a\u0629", "name:de": "Nahiyat al Hurriyah", "name:en": "Al-Huriya", "name:en1": "Nahya Al-Huriya", "name:fr": "Nahiyat al Hurriyah", "place": "town", "population": "30000", "population:date": "2014", "source:population": "https://ar.wikipedia.org/wiki/%D9%86%D8%A7%D8%AD%D9%8A%D8%A9_%D8%A7%D9%84%D8%AD%D8%B1%D9%8A%D8%A9"}}, {"type": "node", "id": 2485461528, "lat": 31.9551129, "lon": 44.5271271, "tags": {"alt_name": "\u0627\u0644\u063a\u0627\u062f\u0648\u0631\u064a", "int_name": "Al Gh\u0101d\u016br\u012b, \u0627\u0644\u063a\u0627\u062f\u0648\u0631\u064a, Al Ghaduri, \u0627\u0644\u063a\u0627\u062f\u0648\u0631\u064a", "is_in": "Iraq , \u062c\u0645\u0647\u0648\u0631\u064a\u0629 \u0627\u0644\u0639\u0631\u0627\u0642", "name": "\u0627\u0644\u063a\u0627\u062f\u0648\u0631\u064a", "name:ar": "\u0627\u0644\u0633\u064a\u062f \u062d\u0633\u064a\u0646 \u0627\u0644 \u0628\u0648\u0641\u0631\u064a\u062d\u0647 \u0627\u0644\u0634\u0627\u0645\u064a\u0647", "name:ar1": "\u0627\u0644\u063a\u0627\u062f\u0648\u0631\u064a", "name:de": "Al Ghaduri", "name:en": "Al Ghaduri", "name:fr": "Al Ghaduri", "place": "hamlet"}}, {"type": "node", "id": 2485461716, "lat": 31.9761884, "lon": 44.5592368, "tags": {"alt_name": "\u0645\u0631\u0632\u0648\u0643 \u0622\u0644 \u0639\u0648\u0627\u062f", "int_name": "Marz\u016bk \u0100l Aww\u0101d, \u0645\u0631\u0632\u0648\u0643 \u0627\u0644 \u0639\u0648\u0627\u062f, Marzuk Al Awwad, \u0645\u0631\u0632\u0648\u0643 \u0627\u0644 \u0639\u0648\u0627\u062f", "is_in": "Iraq , \u062c\u0645\u0647\u0648\u0631\u064a\u0629 \u0627\u0644\u0639\u0631\u0627\u0642", "name": "\u0642\u0631\u06cc\u0647 \u0645\u0631\u0632\u0648\u0643 \u0622\u0644 \u0639\u0648\u0627\u062f", "name:ar": "\u0645\u0631\u0632\u0648\u0643 \u0622\u0644 \u0639\u0648\u0627\u062f", "name:ar1": "\u0645\u0631\u0632\u0648\u0643 \u0622\u0644 \u0639\u0648\u0627\u062f", "name:de": "Marzuk Al Awwad", "name:en": "Marzuk Al Awwad", "name:fr": "Marzuk Al Awwad", "place": "hamlet"}}, {"type": "node", "id": 2485461842, "lat": 31.963018, "lon": 44.527688, "tags": {"alt_name": "\u0631\u062f\u0627\u0645 \u0622\u0644 \u0645\u0631\u0632\u0648\u0643", "int_name": "Rid\u0101m \u0100l Marz\u016bk, Ridam Al Marzuk", "is_in": "Iraq , \u062c\u0645\u0647\u0648\u0631\u064a\u0629 \u0627\u0644\u0639\u0631\u0627\u0642", "name": "\u0631\u062f\u0627\u0645 \u0622\u0644 \u0645\u0631\u0632\u0648\u0643", "name:ar": "\u0631\u062f\u0627\u0645 \u0622\u0644 \u0645\u0631\u0632\u0648\u0643", "name:ar1": "\u0631\u062f\u0627\u0645 \u0622\u0644 \u0645\u0631\u0632\u0648\u0643", "name:de": "Ridam Al Marzuk", "name:en": "Ridam Al Marzuk", "name:fr": "Ridam Al Marzuk", "place": "hamlet"}}, {"type": "node", "id": 2485461885, "lat": 31.970215, "lon": 44.550461, "tags": {"alt_name": "\u0631\u062f\u0627\u0645 \u0645\u0631\u0632\u0648\u0643", "int_name": "\u0631\u062f\u0627\u0645 \u0645\u0631\u0632\u0648\u0643, \u0631\u062f\u0627\u0645 \u0645\u0631\u0632\u0648\u0643", "is_in": "Iraq , \u062c\u0645\u0647\u0648\u0631\u064a\u0629 \u0627\u0644\u0639\u0631\u0627\u0642", "name": "\u0642\u0631\u06cc\u0647 \u0631\u062f\u0627\u0645 \u0645\u0631\u0632\u0648\u0643", "name:ar": "\u0631\u062f\u0627\u0645 \u0645\u0631\u0632\u0648\u0643", "name:ar1": "\u0631\u062f\u0627\u0645 \u0645\u0631\u0632\u0648\u0643", "place": "hamlet"}}, {"type": "node", "id": 2485464114, "lat": 31.9444755, "lon": 44.5211668, "tags": {"alt_name": "\u0623\u0646\u062f\u064a\u0628\u0627\u0646", "int_name": "Andayb\u0101n, Andayban", "is_in": "Iraq , \u062c\u0645\u0647\u0648\u0631\u064a\u0629 \u0627\u0644\u0639\u0631\u0627\u0642", "name": "\u0623\u0646\u062f\u064a\u0628\u0627\u0646", "name:ar": "\u0623\u0646\u062f\u064a\u0628\u0627\u0646", "name:ar1": "\u0623\u0646\u062f\u064a\u0628\u0627\u0646", "name:de": "Andayban", "name:en": "Andayban", "name:fr": "Andayban", "place": "hamlet"}}, {"type": "node", "id": 2485464979, "lat": 31.889933, "lon": 44.486745, "tags": {"capital": "7", "int_name": "Al Hirah - \u0627\u0644\u062d\u064a\u0631\u0629", "is_in": "Iraq , \u062c\u0645\u0647\u0648\u0631\u064a\u0629 \u0627\u0644\u0639\u0631\u0627\u0642", "is_in:country": "Iraq", "is_in:country_code": "IQ", "name": "\u0627\u0644\u062d\u064a\u0631\u0629", "name:ar": "\u0627\u0644\u062d\u064a\u0631\u0629", "name:de": "Al-Hira", "name:en": "Al-Hirah", "name:fr": "Al-Hira", "place": "town", "wikidata": "Q310799"}}, {"type": "node", "id": 2485465671, "lat": 31.955925, "lon": 44.464853, "tags": {"alt_name": "\u0639\u0645\u0631\u0627\u0646 \u0627\u0644\u062d\u0633\u064a\u0646", "int_name": "Umr\u0101n al \u1e28usayn, \u0639\u0645\u0631\u0627\u0646 \u0627\u0644\u062d\u0633\u064a\u0646, Umran al Husayn, \u0639\u0645\u0631\u0627\u0646 \u0627\u0644\u062d\u0633\u064a\u0646", "is_in": "Iraq , \u062c\u0645\u0647\u0648\u0631\u064a\u0629 \u0627\u0644\u0639\u0631\u0627\u0642", "name": "\u0639\u0645\u0631\u0627\u0646 \u0627\u0644\u062d\u0633\u064a\u0646", "name:ar": "\u0627\u0644\u0643\u0641\u0644", "name:ar1": "\u0639\u0645\u0631\u0627\u0646 \u0627\u0644\u062d\u0633\u064a\u0646", "name:de": "Umran al Husayn", "name:en": "Umran al Husayn", "name:fr": "Umran al Husayn", "place": "village"}}, {"type": "node", "id": 2485466432, "lat": 31.7915444, "lon": 44.5374527, "tags": {"alt_name": "\u062c\u0648\u062f\u0629 \u0627\u0644 \u0639\u0628\u0627\u0633", "int_name": "\u062c\u0648\u062f\u0629 \u0627\u0644 \u0639\u0628\u0627\u0633, \u062c\u0648\u062f\u0629 \u0627\u0644 \u0639\u0628\u0627\u0633", "is_in": "Iraq , \u062c\u0645\u0647\u0648\u0631\u064a\u0629 \u0627\u0644\u0639\u0631\u0627\u0642", "name": "\u062c\u0648\u062f\u0629 \u0627\u0644 \u0639\u0628\u0627\u0633", "name:ar": "\u062c\u0648\u062f\u0629 \u0627\u0644 \u0639\u0628\u0627\u0633", "name:ar1": "\u062c\u0648\u062f\u0629 \u0627\u0644 \u0639\u0628\u0627\u0633", "name:de": "\u062c\u0648\u062f\u0629 \u0627\u0644 \u0639\u0628\u0627\u0633", "name:fr": "\u062c\u0648\u062f\u0629 \u0627\u0644 \u0639\u0628\u0627\u0633", "place": "village"}}, {"type": "node", "id": 2485466434, "lat": 31.8033625, "lon": 44.5555179, "tags": {"alt_name": "\u0636\u0639\u064a\u0641 \u0627\u0644 \u0639\u0637\u064a\u0631\u064a", "int_name": "\u0636\u0639\u064a\u0641 \u0627\u0644 \u0639\u0637\u064a\u0631\u064a, \u0636\u0639\u064a\u0641 \u0627\u0644 \u0639\u0637\u064a\u0631\u064a", "is_in": "Iraq , \u062c\u0645\u0647\u0648\u0631\u064a\u0629 \u0627\u0644\u0639\u0631\u0627\u0642", "name": "\u0636\u0639\u064a\u0641 \u0627\u0644 \u0639\u0637\u064a\u0631\u064a", "name:ar": "\u0636\u0639\u064a\u0641 \u0627\u0644 \u0639\u0637\u064a\u0631\u064a", "name:ar1": "\u0636\u0639\u064a\u0641 \u0627\u0644 \u0639\u0637\u064a\u0631\u064a", "name:de": "\u0636\u0639\u064a\u0641 \u0627\u0644 \u0639\u0637\u064a\u0631\u064a", "name:fr": "\u0636\u0639\u064a\u0641 \u0627\u0644 \u0639\u0637\u064a\u0631\u064a", "place": "village"}}, {"type": "node", "id": 2486549854, "lat": 31.699016, "lon": 44.4771069, "tags": {"alt_name": "\u0627\u0644\u0642\u0627\u062f\u0633\u064a\u0629", "capital": "7", "int_name": "Al Qadisiyah - \u0627\u0644\u0642\u0627\u062f\u0633\u064a\u0629", "is_in": "Iraq , \u062c\u0645\u0647\u0648\u0631\u064a\u0629 \u0627\u0644\u0639\u0631\u0627\u0642", "is_in:country": "Iraq", "is_in:country_code": "IQ", "name": "\u0627\u0644\u0642\u0627\u062f\u0633\u064a\u0629", "name:ar": "\u0627\u0644\u0642\u0627\u062f\u0633\u064a\u0629", "name:ar1": "\u0627\u0644\u0642\u0627\u062f\u0633\u064a\u0629", "name:ckb": "\u0642\u0627\u062f\u0633\u06cc\u06d5", "name:de": "Al Qadisiyah", "name:en": "Al Qadisiyah", "name:fr": "Al Qadisiyah", "name:ku": "Qadisiye", "name:ml": "\u0d05\u0d7d-\u0d16\u0d3e\u0d26\u0d3f\u0d38\u0d3f\u0d2f", "place": "city", "wikidata": "Q49003946"}}, {"type": "node", "id": 2487775064, "lat": 32.054116, "lon": 44.338973, "tags": {"alt_name": "\u062d\u064a \u0627\u0644\u0639\u0631\u0648\u0628\u0629", "int_name": "\u1e28ayy al Ur\u016bbah, \u062d\u064a \u0627\u0644\u0639\u0631\u0648\u0628\u0629, Hayy al Urubah, \u062d\u064a \u0627\u0644\u0639\u0631\u0648\u0628\u0629", "is_in": "Iraq , \u062c\u0645\u0647\u0648\u0631\u064a\u0629 \u0627\u0644\u0639\u0631\u0627\u0642", "name": "\u062d\u064a \u0627\u0644\u0639\u0631\u0648\u0628\u0629", "name:de": "Hayy al Urubah", "name:en": "Hayy al Urubah", "name:fr": "Hayy al Urubah", "place": "hamlet"}}, {"type": "node", "id": 2487775219, "lat": 32.023017, "lon": 44.38758, "tags": {"alt_name": "\u062d\u064a \u0643\u0646\u062f\u0629", "int_name": "\u1e28ayy Kandah, \u1e28ayy Kanrah, \u062d\u064a \u0643\u0646\u062f\u0647, Hayy Kandah, Hayy Kanrah, \u062d\u064a \u0643\u0646\u062f\u0647", "name": "\u062d\u064a \u0643\u0646\u062f\u0629", "name:ar": "\u062d\u064a \u0643\u0646\u062f\u0629", "name:ar1": "\u062d\u064a \u0643\u0646\u062f\u0629", "name:de": "Hayy Kandah", "name:en": "Hayy Kandah", "name:fr": "Hayy Kandah", "place": "hamlet"}}, {"type": "node", "id": 2487775224, "lat": 32.016286, "lon": 44.339309, "tags": {"alt_name": "\u062d\u064a \u0627\u0644\u0636\u0628\u0627\u0637", "int_name": "\u1e28ayy a\u1e11 \u1e10ubb\u0101\u0163, \u062d\u064a \u0627\u0644\u0636\u0628\u0627\u0637, Hayy ad Dubbat, \u062d\u064a \u0627\u0644\u0636\u0628\u0627\u0637", "is_in": "Iraq , \u062c\u0645\u0647\u0648\u0631\u064a\u0629 \u0627\u0644\u0639\u0631\u0627\u0642", "name": "\u062d\u064a \u0627\u0644\u0627\u0637\u0628\u0627\u0621", "name:ar": "\u062d\u064a \u0627\u0644\u0636\u0628\u0627\u0637", "name:ar1": "\u062d\u064a \u0627\u0644\u0636\u0628\u0627\u0637", "name:de": "Hayy ad Dubbat", "name:en": "Hay Alatbaa", "name:fr": "Hayy ad Dubbat", "place": "hamlet"}}, {"type": "node", "id": 2487775238, "lat": 32.01761, "lon": 44.34744, "tags": {"alt_name": "\u062d\u064a \u0627\u0644\u063a\u062f\u064a\u0631", "int_name": "\u1e28ayy al Ghad\u012br, \u062d\u064a \u0627\u0644\u063a\u062f\u064a\u0631, Hayy al Ghadir, \u062d\u064a \u0627\u0644\u063a\u062f\u064a\u0631", "name": "\u062d\u064a \u0627\u0644\u063a\u062f\u064a\u0631", "name:ar": "\u062d\u064a \u0627\u0644\u063a\u062f\u064a\u0631", "name:ar1": "\u062d\u064a \u0627\u0644\u063a\u062f\u064a\u0631", "name:de": "Hayy al Ghadir", "name:en": "Hayy alghadeer", "name:fr": "Hayy al Ghadir", "place": "hamlet"}}, {"type": "node", "id": 2487775244, "lat": 31.999902, "lon": 44.367759, "tags": {"alt_name": "\u062d\u064a \u0627\u0644\u0642\u0627\u062f\u0633\u064a\u0629", "int_name": "\u1e28ayy al Q\u0101dis\u012byah, \u062d\u064a \u0627\u0644\u0642\u0627\u062f\u0633\u064a\u0629, Hayy al Qadisiyah, \u062d\u064a \u0627\u0644\u0642\u0627\u062f\u0633\u064a\u0629", "is_in": "Iraq , \u062c\u0645\u0647\u0648\u0631\u064a\u0629 \u0627\u0644\u0639\u0631\u0627\u0642", "name": "\u062d\u064a \u0627\u0644\u0642\u0627\u062f\u0633\u064a\u0629", "name:ar": "\u062d\u064a \u0627\u0644\u0642\u0627\u062f\u0633\u064a\u0629", "name:ar1": "\u062d\u064a \u0627\u0644\u0642\u0627\u062f\u0633\u064a\u0629", "name:de": "Hayy al Qadisiyah", "name:en": "Hayy al Qadisiyah", "name:fr": "Hayy al Qadisiyah", "place": "hamlet"}}, {"type": "node", "id": 2487775245, "lat": 32.021438, "lon": 44.326115, "tags": {"alt_name": "\u062d\u064a \u0627\u0644\u0646\u0641\u0637", "int_name": "\u1e28ayy an Naf\u0163, \u062d\u064a \u0627\u0644\u0646\u0641\u0637, Hayy an Naft, \u062d\u064a \u0627\u0644\u0646\u0641\u0637", "name": "\u062d\u064a \u0627\u0644\u0646\u0641\u0637", "name:ar": "\u0627\u0644\u063a\u0631\u064a \u0627\u0644\u0623\u0648\u0644", "name:ar1": "\u062d\u064a \u0627\u0644\u0646\u0641\u0637", "name:de": "Hayy an Naft", "name:en": "First Ghari", "name:fr": "Hayy an Naft", "name:ku": "\u063a\u0631\u064a \u0661", "place": "hamlet"}}, {"type": "node", "id": 2870177478, "lat": 31.7910588, "lon": 44.4974399}, {"type": "node", "id": 2870177479, "lat": 31.791394, "lon": 44.4967975}, {"type": "node", "id": 2870177483, "lat": 31.7929479, "lon": 44.4955421}, {"type": "node", "id": 2870177484, "lat": 31.7934391, "lon": 44.4953738}, {"type": "node", "id": 2870177486, "lat": 31.7962717, "lon": 44.4943975}, {"type": "node", "id": 2870177487, "lat": 31.7968106, "lon": 44.4940328}, {"type": "node", "id": 2870177488, "lat": 31.7971634, "lon": 44.4935952}, {"type": "node", "id": 2870177489, "lat": 31.7974591, "lon": 44.4931239}, {"type": "node", "id": 2870177492, "lat": 31.7980313, "lon": 44.4911714}, {"type": "node", "id": 2870177494, "lat": 31.7986207, "lon": 44.4885443}, {"type": "node", "id": 2870177497, "lat": 31.7995952, "lon": 44.4857382}, {"type": "node", "id": 2870177498, "lat": 31.7998577, "lon": 44.4850781}, {"type": "node", "id": 2870177500, "lat": 31.8002509, "lon": 44.484332}, {"type": "node", "id": 2870177801, "lat": 31.8006779, "lon": 44.4838213}, {"type": "node", "id": 2870177803, "lat": 31.801428, "lon": 44.4832604}, {"type": "node", "id": 2870177805, "lat": 31.8019367, "lon": 44.4830358}, {"type": "node", "id": 2870177806, "lat": 31.8022304, "lon": 44.4829479}, {"type": "node", "id": 2870177807, "lat": 31.8025851, "lon": 44.4828927}, {"type": "node", "id": 2870177808, "lat": 31.8031194, "lon": 44.4828808}, {"type": "node", "id": 2870177809, "lat": 31.803639, "lon": 44.4829629}, {"type": "node", "id": 2870177810, "lat": 31.8041133, "lon": 44.4831477}, {"type": "node", "id": 2870177814, "lat": 31.8101993, "lon": 44.4866064}, {"type": "node", "id": 2870177816, "lat": 31.8107064, "lon": 44.487116}, {"type": "node", "id": 2870177819, "lat": 31.8113776, "lon": 44.4883884}, {"type": "node", "id": 4384954502, "lat": 31.904603, "lon": 44.4888967, "tags": {"capital": "6", "name": "\u0627\u0644\u0645\u0646\u0627\u0630\u0631\u0629", "name:ar": "\u0627\u0644\u0645\u0646\u0627\u0630\u0631\u0629", "name:ar-Latn": "Al-Manathera", "name:en": "Al-Manathera", "name:fr": "Al-Manathera", "name:ml": "\u0d05\u0d7d-\u0d2e\u0d28\u0d3e\u0d26\u0d3f\u0d31", "place": "town", "wikidata": "Q4702797"}}, {"type": "node", "id": 4703873315, "lat": 31.8119907, "lon": 44.4909079}, {"type": "node", "id": 4703873316, "lat": 31.811975, "lon": 44.4904992}, {"type": "node", "id": 4703873317, "lat": 31.8118357, "lon": 44.4898757}, {"type": "node", "id": 4703873318, "lat": 31.8120164, "lon": 44.4907159}, {"type": "node", "id": 4703873319, "lat": 31.8120164, "lon": 44.4908113}, {"type": "node", "id": 4703873320, "lat": 31.8120084, "lon": 44.4907754}, {"type": "node", "id": 4703873321, "lat": 31.8120102, "lon": 44.4907385}, {"type": "node", "id": 4703873322, "lat": 31.8120333, "lon": 44.4908425}, {"type": "node", "id": 4703873324, "lat": 31.8120575, "lon": 44.4908661}, {"type": "node", "id": 4703873326, "lat": 31.8120867, "lon": 44.4908799}, {"type": "node", "id": 4703878164, "lat": 31.799255, "lon": 44.4866576}, {"type": "node", "id": 4709192282, "lat": 31.794385, "lon": 44.4950929}, {"type": "node", "id": 4709192285, "lat": 31.7969772, "lon": 44.4938262}, {"type": "node", "id": 4709192490, "lat": 31.7973019, "lon": 44.4933744}, {"type": "node", "id": 4709192667, "lat": 31.8115436, "lon": 44.4917192}, {"type": "node", "id": 4709192668, "lat": 31.8114136, "lon": 44.4921755}, {"type": "node", "id": 4709192669, "lat": 31.8117677, "lon": 44.4909322}, {"type": "node", "id": 4709192689, "lat": 31.8116155, "lon": 44.4891141}, {"type": "node", "id": 4709192692, "lat": 31.8110803, "lon": 44.4877397}, {"type": "node", "id": 4709192701, "lat": 31.8105674, "lon": 44.4869578}, {"type": "node", "id": 4709192720, "lat": 31.8096457, "lon": 44.4862017}, {"type": "node", "id": 4709192806, "lat": 31.8034138, "lon": 44.4829012}, {"type": "node", "id": 4709192831, "lat": 31.8024458, "lon": 44.4829077}, {"type": "node", "id": 4710794345, "lat": 31.8016241, "lon": 44.4831558}, {"type": "node", "id": 4710794666, "lat": 31.8034908, "lon": 44.4829223}, {"type": "node", "id": 4710794863, "lat": 31.7984315, "lon": 44.4892672}, {"type": "node", "id": 4710794907, "lat": 31.7963703, "lon": 44.4943308}, {"type": "node", "id": 4710794935, "lat": 31.7925155, "lon": 44.4957349}, {"type": "node", "id": 4710794964, "lat": 31.7952411, "lon": 44.4948259}, {"type": "node", "id": 4710794965, "lat": 31.7957103, "lon": 44.4946808}, {"type": "node", "id": 4710795038, "lat": 31.7977447, "lon": 44.4923808}, {"type": "node", "id": 4710795042, "lat": 31.7976937, "lon": 44.4925599}, {"type": "node", "id": 4710795047, "lat": 31.7978454, "lon": 44.4919214}, {"type": "node", "id": 4710795071, "lat": 31.7977806, "lon": 44.4922548}, {"type": "node", "id": 4710795200, "lat": 31.7907757, "lon": 44.4984147}, {"type": "node", "id": 4710795202, "lat": 31.7915179, "lon": 44.4995571}, {"type": "node", "id": 4904790134, "lat": 32.0910982, "lon": 44.328329, "tags": {"name": "\u0642\u0631\u064a\u0629 \u0627\u0644\u063a\u062f\u064a\u0631 \u0628\u0648\u0643", "name:ar": "\u0642\u0631\u064a\u0629 \u0627\u0644\u063a\u062f\u064a\u0631 \u0627\u0644\u0633\u0643\u0646\u064a\u0629", "name:en": "Al Ghadeer Residential Village", "place": "village"}}, {"type": "node", "id": 6603393821, "lat": 31.811135, "lon": 44.4923034}, {"type": "node", "id": 6603393822, "lat": 31.8103121, "lon": 44.4924697}, {"type": "node", "id": 6603393823, "lat": 31.8095531, "lon": 44.4927379}, {"type": "node", "id": 6603393824, "lat": 31.8083496, "lon": 44.4933736}, {"type": "node", "id": 6603393825, "lat": 31.8077775, "lon": 44.4936633}, {"type": "node", "id": 6603393826, "lat": 31.8073831, "lon": 44.4938591}, {"type": "node", "id": 6603393827, "lat": 31.8067563, "lon": 44.4941917}, {"type": "node", "id": 6603393828, "lat": 31.8065033, "lon": 44.494366}, {"type": "node", "id": 6603393829, "lat": 31.8061454, "lon": 44.4945887}, {"type": "node", "id": 6603393830, "lat": 31.8059539, "lon": 44.4946799}, {"type": "node", "id": 6603393831, "lat": 31.8056394, "lon": 44.4948783}, {"type": "node", "id": 6603393832, "lat": 31.8044426, "lon": 44.4956052}, {"type": "node", "id": 6605631488, "lat": 31.8039434, "lon": 44.4958788}, {"type": "node", "id": 6605631489, "lat": 31.8036243, "lon": 44.4960317}, {"type": "node", "id": 6605631490, "lat": 31.8028675, "lon": 44.4964796}, {"type": "node", "id": 6605631491, "lat": 31.8027399, "lon": 44.496544}, {"type": "node", "id": 6605631492, "lat": 31.8023546, "lon": 44.496595}, {"type": "node", "id": 6605631493, "lat": 31.8020241, "lon": 44.4965896}, {"type": "node", "id": 6605631494, "lat": 31.8017961, "lon": 44.4965762}, {"type": "node", "id": 6605631495, "lat": 31.8017095, "lon": 44.4965413}, {"type": "node", "id": 6605631496, "lat": 31.8016502, "lon": 44.4964769}, {"type": "node", "id": 6605631497, "lat": 31.8015955, "lon": 44.4963321}, {"type": "node", "id": 6605631500, "lat": 31.8013448, "lon": 44.4965896}, {"type": "node", "id": 6605631501, "lat": 31.8013402, "lon": 44.496654}, {"type": "node", "id": 6605631502, "lat": 31.8013732, "lon": 44.4960851}, {"type": "node", "id": 6605631503, "lat": 31.8014723, "lon": 44.4960489}, {"type": "node", "id": 6605631504, "lat": 31.8013106, "lon": 44.4967049}, {"type": "node", "id": 6605631505, "lat": 31.8012308, "lon": 44.4967371}, {"type": "node", "id": 6605631506, "lat": 31.8011282, "lon": 44.4967693}, {"type": "node", "id": 6605631507, "lat": 31.8010416, "lon": 44.4967881}, {"type": "node", "id": 6605631511, "lat": 31.8009732, "lon": 44.4968176}, {"type": "node", "id": 6605631512, "lat": 31.8009208, "lon": 44.4968793}, {"type": "node", "id": 6605631513, "lat": 31.8008638, "lon": 44.496949}, {"type": "node", "id": 6605631514, "lat": 31.8007863, "lon": 44.497}, {"type": "node", "id": 6605631515, "lat": 31.800629, "lon": 44.4970509}, {"type": "node", "id": 6605631516, "lat": 31.8004216, "lon": 44.4971395}, {"type": "node", "id": 6605631517, "lat": 31.8002164, "lon": 44.4972199}, {"type": "node", "id": 6605631518, "lat": 31.7998631, "lon": 44.4973567}, {"type": "node", "id": 6605631519, "lat": 31.7994869, "lon": 44.4975096}, {"type": "node", "id": 6605631520, "lat": 31.7991359, "lon": 44.4976786}, {"type": "node", "id": 6605631521, "lat": 31.7983973, "lon": 44.4980165}, {"type": "node", "id": 6605631719, "lat": 31.7982719, "lon": 44.4980595}, {"type": "node", "id": 6605631720, "lat": 31.798224, "lon": 44.498038}, {"type": "node", "id": 6605631721, "lat": 31.7981192, "lon": 44.4978958}, {"type": "node", "id": 6605631722, "lat": 31.7980701, "lon": 44.4978569}, {"type": "node", "id": 6605631723, "lat": 31.798004, "lon": 44.4978274}, {"type": "node", "id": 6605631733, "lat": 31.7979434, "lon": 44.4977383}, {"type": "node", "id": 6605631734, "lat": 31.7978225, "lon": 44.4975559}, {"type": "node", "id": 6605631735, "lat": 31.7976926, "lon": 44.4974272}, {"type": "node", "id": 6605631736, "lat": 31.7975809, "lon": 44.4973789}, {"type": "node", "id": 6605631737, "lat": 31.7973962, "lon": 44.4973038}, {"type": "node", "id": 6605631738, "lat": 31.7971683, "lon": 44.4973092}, {"type": "node", "id": 6605631739, "lat": 31.7970178, "lon": 44.4973119}, {"type": "node", "id": 6605631740, "lat": 31.7969198, "lon": 44.4973279}, {"type": "node", "id": 6605631741, "lat": 31.7968195, "lon": 44.4973977}, {"type": "node", "id": 6605631742, "lat": 31.7967488, "lon": 44.4974916}, {"type": "node", "id": 6605631743, "lat": 31.7965824, "lon": 44.4975318}, {"type": "node", "id": 6605631744, "lat": 31.796359, "lon": 44.4976605}, {"type": "node", "id": 6605631745, "lat": 31.7961789, "lon": 44.4977464}, {"type": "node", "id": 6605631746, "lat": 31.7960398, "lon": 44.4978724}, {"type": "node", "id": 6605631747, "lat": 31.7957275, "lon": 44.4980843}, {"type": "node", "id": 6605631748, "lat": 31.7953149, "lon": 44.4983311}, {"type": "node", "id": 6605631749, "lat": 31.7951644, "lon": 44.4984223}, {"type": "node", "id": 6605631750, "lat": 31.7949228, "lon": 44.4985054}, {"type": "node", "id": 6605631751, "lat": 31.7947632, "lon": 44.4986154}, {"type": "node", "id": 6605631752, "lat": 31.7945626, "lon": 44.4986932}, {"type": "node", "id": 6605631753, "lat": 31.7943802, "lon": 44.4987388}, {"type": "node", "id": 6605631754, "lat": 31.794207, "lon": 44.4988085}, {"type": "node", "id": 6605631755, "lat": 31.7940611, "lon": 44.4988649}, {"type": "node", "id": 6605631756, "lat": 31.793865, "lon": 44.4989078}, {"type": "node", "id": 6605631757, "lat": 31.7937054, "lon": 44.4989641}, {"type": "node", "id": 6605631758, "lat": 31.7934159, "lon": 44.4990472}, {"type": "node", "id": 6605631759, "lat": 31.7932563, "lon": 44.4990982}, {"type": "node", "id": 6605631760, "lat": 31.7930853, "lon": 44.499117}, {"type": "node", "id": 6605631761, "lat": 31.7929326, "lon": 44.4991921}, {"type": "node", "id": 6605631762, "lat": 31.7923991, "lon": 44.4993557}, {"type": "node", "id": 6605631763, "lat": 31.7919773, "lon": 44.4995247}, {"type": "node", "id": 6605631764, "lat": 31.7917015, "lon": 44.4997419}, {"type": "node", "id": 6605632581, "lat": 31.8042398, "lon": 44.495734}, {"type": "node", "id": 6605632592, "lat": 31.8014186, "lon": 44.4960685}, {"type": "node", "id": 7087414011, "lat": 31.7919126, "lon": 44.4961779}, {"type": "node", "id": 7087414012, "lat": 31.7981739, "lon": 44.490562}, {"type": "node", "id": 7087414013, "lat": 31.801118, "lon": 44.4834669}, {"type": "node", "id": 7087414014, "lat": 31.8043241, "lon": 44.4832443}, {"type": "node", "id": 8766706139, "lat": 31.7987574, "lon": 44.4978261}, {"type": "node", "id": 8766706140, "lat": 31.7985329, "lon": 44.4979589}, {"type": "node", "id": 8766706141, "lat": 31.7983141, "lon": 44.4980554}, {"type": "node", "id": 8766706142, "lat": 31.7981682, "lon": 44.4979736}, {"type": "node", "id": 8766977230, "lat": 31.8107384, "lon": 44.4923839}, {"type": "node", "id": 8766977231, "lat": 31.8100774, "lon": 44.4925314}, {"type": "node", "id": 8766977232, "lat": 31.8098449, "lon": 44.4926092}, {"type": "node", "id": 8766977233, "lat": 31.8089947, "lon": 44.4930464}, {"type": "node", "id": 8766977234, "lat": 31.8071734, "lon": 44.4939503}, {"type": "node", "id": 8766977235, "lat": 31.8069569, "lon": 44.494063}, {"type": "node", "id": 8766977236, "lat": 31.804951, "lon": 44.4952941}, {"type": "node", "id": 8766977237, "lat": 31.8032778, "lon": 44.4961604}, {"type": "node", "id": 8766977238, "lat": 31.8031342, "lon": 44.4962195}, {"type": "node", "id": 8766977239, "lat": 31.8030453, "lon": 44.4962865}, {"type": "node", "id": 8766977240, "lat": 31.8029633, "lon": 44.4963831}, {"type": "node", "id": 11205004898, "lat": 31.8113914, "lon": 44.4922408}, {"type": "node", "id": 11205004899, "lat": 31.798275, "lon": 44.4900281}, {"type": "node", "id": 11205004900, "lat": 31.7908918, "lon": 44.4979211}, {"type": "node", "id": 11332541931, "lat": 31.8585155, "lon": 44.2313164, "tags": {"place": "hamlet"}}, {"type": "way", "id": 1209370013, "nodes": [4710795200, 4710795202, 6605631764, 6605631763, 6605631762, 6605631761, 6605631760, 6605631759, 6605631758, 6605631757, 6605631756, 6605631755, 6605631754, 6605631753, 6605631752, 6605631751, 6605631750, 6605631749, 6605631748, 6605631747, 6605631746, 6605631745, 6605631744, 6605631743, 6605631742, 6605631741, 6605631740, 6605631739, 6605631738, 6605631737, 6605631736, 6605631735, 6605631734, 6605631733, 6605631723, 6605631722, 6605631721, 8766706142, 6605631720, 6605631719, 8766706141, 6605631521, 8766706140, 8766706139, 6605631520, 6605631519, 6605631518, 6605631517, 6605631516, 6605631515, 6605631514, 6605631513, 6605631512, 6605631511, 6605631507, 6605631506, 6605631505, 6605631504, 6605631501, 6605631500, 6605631502, 6605632592, 6605631503, 6605631497, 6605631496, 6605631495, 6605631494, 6605631493, 6605631492, 6605631491, 6605631490, 8766977240, 8766977239, 8766977238, 8766977237, 6605631489, 6605631488, 6605632581, 6603393832, 8766977236, 6603393831, 6603393830, 6603393829, 6603393828, 6603393827, 8766977235, 8766977234, 6603393826, 6603393825, 6603393824, 8766977233, 6603393823, 8766977232, 8766977231, 6603393822, 8766977230, 6603393821, 11205004898, 4709192668, 4709192667, 4709192669, 4703873315, 4703873326, 4703873324, 4703873322, 4703873319, 4703873320, 4703873321, 4703873318, 4703873316, 4703873317, 4709192689, 2870177819, 4709192692, 2870177816, 4709192701, 2870177814, 4709192720, 7087414014, 2870177810, 2870177809, 4710794666, 4709192806, 2870177808, 2870177807, 4709192831, 2870177806, 2870177805, 4710794345, 2870177803, 7087414013, 2870177801, 2870177500, 2870177498, 2870177497, 4703878164, 2870177494, 4710794863, 11205004899, 7087414012, 2870177492, 4710795047, 4710795071, 4710795038, 4710795042, 2870177489, 4709192490, 2870177488, 4709192285, 2870177487, 4710794907, 2870177486, 4710794965, 4710794964, 4709192282, 2870177484, 2870177483, 4710794935, 7087414011, 2870177479, 2870177478, 11205004900, 4710795200], "tags": {"name": "\u0628\u0644\u062f\u064a\u0629 \u0627\u0644\u0645\u0634\u062e\u0627\u0637", "name:en": "Meshkab municipality", "place": "city"}}]}