{"version": 0.6, "generator": "Overpass API 0.7.61.5 4133829e", "osm3s": {"timestamp_osm_base": "2024-03-05T13:51:03Z", "copyright": "The data included in this document is from www.openstreetmap.org. The data is made available under ODbL."}, "elements": [{"type": "node", "id": 313315461, "lat": 34.491346, "lon": 62.5918615, "tags": {"ele": "1320", "is_in:country": "Afghanistan", "is_in:state": "Karukh Province", "name": "\u06a9\u0631\u062e", "name:en": "Karukh", "place": "town", "population": "18800", "wikidata": "Q6373621", "wikipedia": "en:Karukh"}}, {"type": "node", "id": 3506947853, "lat": 34.8706638, "lon": 62.547461, "tags": {"alt_name": "Koshk-e Kohneh;Kuske Kuhna;Kusk;Koshk;Kushk;Kushk-e Kuhnah", "name": "\u06a9\u0634\u06a9 \u06a9\u0647\u0646\u0647", "name:en": "Kusk-i-Kohna", "name:ja": "\u30ab\u30c3\u30b7\u30e5\u30af\u30fb\u30a4\u30fc\u30fb\u30ab\u30ca", "name:ps": "\u06a9\u0634\u06a9 \u06a9\u0647\u0646\u0647", "name:ru": "\u041a\u0443\u0448\u043a\u0438-\u041a\u0443\u0445\u043d\u0430", "place": "town", "source:name": "GNS", "wikidata": "Q6448061"}}, {"type": "node", "id": 4383545368, "lat": 34.497573, "lon": 62.610386, "tags": {"alt_name": "Qal`ah-ye Bala;Qal`eh-ye Bala", "name": "\u0642\u0644\u0639\u06c0 \u0628\u0627\u0644\u0627", "name:en": "Qal`a-i-Bala", "name:ps": "\u0642\u0644\u0639\u06c0 \u0628\u0627\u0644\u0627", "name:ru": "Kalayi-Bala", "place": "village", "source:name": "GNS"}}, {"type": "node", "id": 4383545369, "lat": 34.6369462, "lon": 62.835356, "tags": {"name:en": "Tagab Robat", "place": "village", "wikidata": "Q7675120", "wikipedia": "en:Tagab Robat"}}, {"type": "node", "id": 4386043945, "lat": 34.515379, "lon": 62.834919, "tags": {"name": "\u0645\u06cc\u0631\u0632\u0627 \u0628\u0647\u0627\u0631", "name:en": "Mirza Bahar", "name:ps": "\u0645\u06cc\u0631\u0632\u0627 \u0628\u0647\u0627\u0631", "place": "village", "source:name": "GNS"}}]}