{"version": 0.6, "generator": "Overpass API 0.7.61.5 4133829e", "osm3s": {"timestamp_osm_base": "2024-03-06T11:04:23Z", "copyright": "The data included in this document is from www.openstreetmap.org. The data is made available under ODbL."}, "elements": [{"type": "node", "id": 2117924768, "lat": 2.5335118, "lon": 34.6574217}, {"type": "node", "id": 2117924769, "lat": 2.5336875, "lon": 34.657724}, {"type": "node", "id": 2117924770, "lat": 2.5337506, "lon": 34.6574602}, {"type": "node", "id": 2117924772, "lat": 2.5338028, "lon": 34.656317}, {"type": "node", "id": 2117924788, "lat": 2.5340581, "lon": 34.6563747}, {"type": "node", "id": 2117924797, "lat": 2.5342199, "lon": 34.654901}, {"type": "node", "id": 2117924804, "lat": 2.5344024, "lon": 34.6546562}, {"type": "node", "id": 2117924844, "lat": 2.5346154, "lon": 34.6579384}, {"type": "node", "id": 2117924938, "lat": 2.5353661, "lon": 34.6559104}, {"type": "node", "id": 2117924946, "lat": 2.5353846, "lon": 34.655788}, {"type": "node", "id": 2117924955, "lat": 2.5354379, "lon": 34.6559212}, {"type": "node", "id": 2117924959, "lat": 2.5354563, "lon": 34.6557988}, {"type": "node", "id": 2117925005, "lat": 2.535753, "lon": 34.6567684}, {"type": "node", "id": 2117925011, "lat": 2.5359069, "lon": 34.6567995}, {"type": "node", "id": 2117925020, "lat": 2.5362447, "lon": 34.6548136}, {"type": "node", "id": 3998773452, "lat": 2.5825877, "lon": 34.7439496, "tags": {"addr:city": "Logurepe", "addr:county": "Matheniko", "addr:district": "Moroto", "addr:parish": "Kakingol", "addr:subcounty": "Katikekile", "amenity": "school", "name": "Abec (Adult Education Centre)", "source": "www.ubos.org", "source:date": "2010..2014", "wikidata": "Q22678976"}}, {"type": "node", "id": 3998773453, "lat": 2.4980872, "lon": 34.6756326, "tags": {"addr:city": "Nadiket", "addr:county": "Matheniko", "addr:district": "Moroto", "addr:parish": "Loputuk", "addr:subcounty": "Nadunget", "amenity": "school", "name": "Apostles Of Jesus Senior Secondary School", "source": "www.ubos.org", "source:date": "2010..2014", "wikidata": "Q22678978"}}, {"type": "node", "id": 3998773454, "lat": 2.5187668, "lon": 34.6570859, "tags": {"addr:city": "Kambizi", "addr:county": "Matheniko", "addr:district": "Moroto", "addr:parish": "Loputuk", "addr:subcounty": "Nadunget", "amenity": "school", "name": "Kasemeri Primary School", "source": "www.ubos.org", "source:date": "2010..2014", "wikidata": "Q22678981"}}, {"type": "node", "id": 3998773455, "lat": 2.4751976, "lon": 34.7232815, "tags": {"addr:city": "Ogolot", "addr:county": "Matheniko", "addr:district": "Moroto", "addr:parish": "Kodonyo", "addr:subcounty": "Tapac", "amenity": "school", "name": "Kodonyo Primary School", "source": "www.ubos.org", "source:date": "2010..2014", "wikidata": "Q22678983"}}, {"type": "node", "id": 3998773456, "lat": 2.5303063, "lon": 34.6818942, "tags": {"addr:city": "Nabuin", "addr:county": "Matheniko", "addr:district": "Moroto", "addr:parish": "Lia", "addr:subcounty": "Katikekile", "amenity": "school", "name": "Lia Primary School", "source": "www.ubos.org", "source:date": "2010..2014", "wikidata": "Q22678985"}}, {"type": "node", "id": 3998774857, "lat": 2.4981721, "lon": 34.6455989, "tags": {"addr:city": "Apetaoi", "addr:county": "Matheniko", "addr:district": "Moroto", "addr:parish": "Loputuk", "addr:subcounty": "Nadunget", "amenity": "school", "name": "Loputuk Primary School", "source": "www.ubos.org", "source:date": "2010..2014", "wikidata": "Q22678971"}}, {"type": "node", "id": 3998774859, "lat": 2.5348615, "lon": 34.6505777, "tags": {"addr:city": "Natumukasikou", "addr:county": "Matheniko", "addr:district": "Moroto", "addr:parish": "Nakadeli", "addr:subcounty": "Rupa", "amenity": "school", "name": "Moroto Kda Primary School", "source": "www.ubos.org", "source:date": "2010..2014", "wikidata": "Q22678974"}}, {"type": "node", "id": 3998774860, "lat": 2.4834338, "lon": 34.694696, "tags": {"addr:city": "Akimabul", "addr:county": "Matheniko", "addr:district": "Moroto", "addr:parish": "Musas", "addr:subcounty": "Katikekile", "amenity": "school", "name": "Musas Primary School", "source": "www.ubos.org", "source:date": "2010..2014", "wikidata": "Q22678975"}}, {"type": "node", "id": 3998774861, "lat": 2.562092, "lon": 34.6840592, "tags": {"addr:city": "Musupo", "addr:county": "Matheniko", "addr:district": "Moroto", "addr:parish": "Musupo", "addr:subcounty": "Katikekile", "amenity": "school", "name": "Musupo Primary School", "source": "www.ubos.org", "source:date": "2010..2014", "wikidata": "Q22678977"}}, {"type": "node", "id": 3998774862, "lat": 2.5249304, "lon": 34.6372403, "tags": {"addr:city": "Katanga", "addr:county": "Matheniko", "addr:district": "Moroto", "addr:parish": "Naitakwae", "addr:subcounty": "Nadunget", "amenity": "school", "name": "Naitakwe Primary School", "source": "www.ubos.org", "source:date": "2010..2014"}}, {"type": "node", "id": 3998774863, "lat": 2.5399247, "lon": 34.6539761, "tags": {"addr:city": "Acholi - Inn", "addr:county": "Matheniko", "addr:district": "Moroto", "addr:parish": "Rupa", "addr:subcounty": "Rupa", "amenity": "school", "name": "Rainbow Primary School", "source": "www.ubos.org", "source:date": "2010..2014", "wikidata": "Q22678982"}}, {"type": "node", "id": 3998774864, "lat": 2.5729631, "lon": 34.6458178, "tags": {"addr:city": "Looi", "addr:county": "Matheniko", "addr:district": "Moroto", "addr:parish": "Lobuneit", "addr:subcounty": "Rupa", "amenity": "school", "name": "Rupa Primary School", "source": "www.ubos.org", "source:date": "2010..2014", "wikidata": "Q22678984"}}, {"type": "node", "id": 3998774865, "lat": 2.495278, "lon": 34.667973, "tags": {"addr:city": "Nadiket", "addr:county": "Matheniko", "addr:district": "Moroto", "addr:parish": "Loputuk", "addr:subcounty": "Nadunget", "amenity": "school", "name": "Saint Marys Minor Seminary", "source": "www.ubos.org", "source:date": "2010..2014", "wikidata": "Q22678969"}}, {"type": "node", "id": 3998774866, "lat": 2.4623395, "lon": 34.7837691, "tags": {"addr:city": "Akariwon", "addr:county": "Matheniko", "addr:district": "Moroto", "addr:parish": "Tapac", "addr:subcounty": "Tapac", "amenity": "school", "name": "Tapac Primary School", "source": "www.ubos.org", "source:date": "2010..2014", "wikidata": "Q22678970"}}, {"type": "node", "id": 3999013257, "lat": 2.5816913, "lon": 34.594762, "tags": {"addr:city": "Atedeoi", "addr:county": "Matheniko", "addr:district": "Moroto", "addr:parish": "Mogoth", "addr:subcounty": "Rupa", "amenity": "school", "isced:level": "1", "name": "Atedeoi Community Primary School", "source": "www.ubos.org", "source:date": "2010..2014", "wikidata": "Q22807584"}}, {"type": "node", "id": 3999013258, "lat": 2.5143863, "lon": 34.5755129, "tags": {"addr:city": "Lokilala", "addr:county": "Matheniko", "addr:district": "Moroto", "addr:parish": "Nadunget", "addr:subcounty": "Nadunget", "amenity": "school", "name": "Feeding Centre/Adult Education Centre", "note:code": "Please, check if amenity school is ok", "source": "www.ubos.org", "source:date": "2010..2014", "wikidata": "Q22807585"}}, {"type": "node", "id": 3999013259, "lat": 2.5506364, "lon": 34.6205976, "tags": {"addr:city": "Kaloi", "addr:county": "Matheniko", "addr:district": "Moroto", "addr:parish": "Nakadeli", "addr:subcounty": "Rupa", "amenity": "school", "isced:level": "1", "name": "Kaloi Primary School", "source": "www.ubos.org", "source:date": "2010..2014", "wikidata": "Q22807586"}}, {"type": "node", "id": 3999013260, "lat": 2.5679282, "lon": 34.6267191, "tags": {"addr:city": "Kidepo", "addr:county": "Matheniko", "addr:district": "Moroto", "addr:parish": "Pupu", "addr:subcounty": "Rupa", "amenity": "school", "name": "Kidepo Pupu Community School", "note:code": "Please, check if amenity school is ok", "source": "www.ubos.org", "source:date": "2010..2014", "wikidata": "Q22807587"}}, {"type": "node", "id": 3999013261, "lat": 2.5405454, "lon": 34.5742722, "tags": {"addr:city": "Nakamisitae", "addr:county": "Matheniko", "addr:district": "Moroto", "addr:parish": "Nadunget", "addr:subcounty": "Nadunget", "amenity": "school", "name": "Learning Centre", "source": "www.ubos.org", "source:date": "2010..2014", "wikidata": "Q22807580"}}, {"type": "node", "id": 3999013262, "lat": 2.4799892, "lon": 34.4573455, "tags": {"addr:city": "Lokodiokodo", "addr:county": "Bokora", "addr:district": "Napak", "addr:parish": "Naitakwae", "addr:subcounty": "Ngoleriet", "amenity": "school", "isced:level": "1", "name": "Lokodiokodo Primary School", "source": "www.ubos.org", "source:date": "2010..2014", "wikidata": "Q22807581"}}, {"type": "node", "id": 3999013263, "lat": 2.5531635, "lon": 34.5752875, "tags": {"addr:city": "Loletekia", "addr:county": "Matheniko", "addr:district": "Moroto", "addr:parish": "Nadunget", "addr:subcounty": "Nadunget", "amenity": "school", "fixme": "Please, check the position of the node", "name": "Loletekia", "source": "www.ubos.org", "source:date": "2010..2014", "wikidata": "Q22807582"}}, {"type": "node", "id": 3999013264, "lat": 2.4773536, "lon": 34.4881395, "tags": {"addr:city": "Nawaikorot .a", "addr:county": "Bokora", "addr:district": "Napak", "addr:parish": "Nawaikorot", "addr:subcounty": "Ngoleriet", "amenity": "school", "isced:level": "1", "name": "Lomerimong Primary School", "source": "www.ubos.org", "source:date": "2010..2014", "wikidata": "Q22807583"}}, {"type": "node", "id": 3999013265, "lat": 2.5141452, "lon": 34.5814037, "tags": {"addr:city": "Nakapelimen", "addr:county": "Matheniko", "addr:district": "Moroto", "addr:parish": "Nadunget", "addr:subcounty": "Nadunget", "amenity": "school", "isced:level": "1", "name": "Nadunget Primary School", "source": "www.ubos.org", "source:date": "2010..2014", "wikidata": "Q22807588"}}, {"type": "node", "id": 3999013266, "lat": 2.5050229, "lon": 34.564589, "tags": {"addr:city": "Lokilala", "addr:county": "Matheniko", "addr:district": "Moroto", "addr:parish": "Nadunget", "addr:subcounty": "Nadunget", "amenity": "school", "isced:level": "2;3;4", "name": "Nadunget Senior Secondary School", "source": "www.ubos.org", "source:date": "2010..2014", "wikidata": "Q22807589"}}, {"type": "node", "id": 3999013267, "lat": 2.4710506, "lon": 34.474912, "tags": {"addr:city": "Nawaikorot .a", "addr:county": "Bokora", "addr:district": "Napak", "addr:parish": "Nawaikorot", "addr:subcounty": "Ngoleriet", "amenity": "school", "name": "Nawaikorot Techical School", "source": "www.ubos.org", "source:date": "2010..2014", "wikidata": "Q22807590"}}, {"type": "node", "id": 3999013268, "lat": 2.4807733, "lon": 34.6112168, "tags": {"addr:city": "Nachuka", "addr:county": "Matheniko", "addr:district": "Moroto", "addr:parish": "Lotirir", "addr:subcounty": "Nadunget", "amenity": "school", "isced:level": "1", "name": "Nawanatawu Primary School", "source": "www.ubos.org", "source:date": "2010..2014", "wikidata": "Q22807591"}}, {"type": "node", "id": 3999054814, "lat": 2.4583895, "lon": 34.5178984, "tags": {"addr:city": "Lobur-apaese", "addr:county": "Bokora", "addr:district": "Napak", "addr:parish": "Narengemoru", "addr:subcounty": "Ngoleriet", "amenity": "school", "isced:level": "1", "name": "Kautakou Primary School", "source": "www.ubos.org", "source:date": "2010..2014", "wikidata": "Q22681085"}}, {"type": "node", "id": 3999088049, "lat": 2.4548541, "lon": 34.3904091, "tags": {"addr:city": "Logolei", "addr:county": "Bokora", "addr:district": "Napak", "addr:parish": "Lokuwas", "addr:subcounty": "Matany", "amenity": "school", "isced:level": "2;3;4", "name": "Saint Daniel Comboni Senior Secondary School", "source": "www.ubos.org", "source:date": "2010..2014", "wikidata": "Q22678807"}}, {"type": "node", "id": 4455195046, "lat": 2.5341861, "lon": 34.657215, "tags": {"amenity": "school", "name": "Municipal Primary School"}}, {"type": "node", "id": 4471565721, "lat": 2.5346604, "lon": 34.6546782}, {"type": "node", "id": 4471565722, "lat": 2.5340608, "lon": 34.6563504}, {"type": "node", "id": 4471565759, "lat": 2.5337066, "lon": 34.6566821}, {"type": "node", "id": 4471565760, "lat": 2.5335907, "lon": 34.657122}, {"type": "node", "id": 4471626294, "lat": 2.5354116, "lon": 34.6581527}, {"type": "node", "id": 4471628307, "lat": 2.5361438, "lon": 34.6554068}, {"type": "node", "id": 4471628311, "lat": 2.5338763, "lon": 34.6577676}, {"type": "node", "id": 4471880294, "lat": 2.4753209, "lon": 34.7226879}, {"type": "node", "id": 4471880295, "lat": 2.4745893, "lon": 34.7231841}, {"type": "node", "id": 4471880296, "lat": 2.475085, "lon": 34.7239002}, {"type": "node", "id": 4471880297, "lat": 2.4757603, "lon": 34.7233477}, {"type": "node", "id": 4471880657, "lat": 2.474926, "lon": 34.7229557}, {"type": "node", "id": 4471880659, "lat": 2.4747505, "lon": 34.723417}, {"type": "node", "id": 4471880668, "lat": 2.4754345, "lon": 34.7236143}, {"type": "node", "id": 4471880876, "lat": 2.4754787, "lon": 34.7235781}, {"type": "node", "id": 4472005440, "lat": 2.474998, "lon": 34.7229069}, {"type": "node", "id": 7791310497, "lat": 2.524994, "lon": 34.6373034}, {"type": "node", "id": 7791310498, "lat": 2.5250328, "lon": 34.6374065}, {"type": "node", "id": 7791310499, "lat": 2.5250771, "lon": 34.6372721}, {"type": "node", "id": 7791310500, "lat": 2.524813, "lon": 34.6374892}, {"type": "node", "id": 7791310501, "lat": 2.5248403, "lon": 34.6375617}, {"type": "node", "id": 7791310502, "lat": 2.5251431, "lon": 34.6374477}, {"type": "node", "id": 7791579384, "lat": 2.5346893, "lon": 34.6587387}, {"type": "node", "id": 7791620085, "lat": 2.5346835, "lon": 34.6591417}, {"type": "node", "id": 7791620086, "lat": 2.5350052, "lon": 34.6591184}, {"type": "node", "id": 7791620087, "lat": 2.5350124, "lon": 34.658745}, {"type": "way", "id": 201778869, "nodes": [2117924959, 2117924955, 2117924938, 2117924946, 2117924959], "tags": {"amenity": "school", "building": "yes", "name": "Teachers Quarters of Municipal Primary School"}}, {"type": "way", "id": 448504298, "nodes": [2117925005, 2117924772, 4471565759, 4471565760, 2117924768, 2117924770, 2117924769, 4471628311, 2117924844, 4471626294, 2117925005], "tags": {"amenity": "school"}}, {"type": "way", "id": 448512588, "nodes": [2117925020, 4471628307, 2117925011, 2117924788, 4471565722, 2117924797, 2117924804, 4471565721, 2117925020], "tags": {"amenity": "school"}}, {"type": "way", "id": 450266267, "nodes": [4471880294, 4472005440, 4471880657, 4471880295, 4471880659, 4471880296, 4471880668, 4471880876, 4471880297, 4471880294], "tags": {"amenity": "school"}}, {"type": "way", "id": 834642288, "nodes": [7791310502, 7791310501, 7791310500, 7791310498, 7791310497, 7791310499, 7791310502], "tags": {"amenity": "school", "building": "yes", "name": "Naitakwe Primary School"}}, {"type": "way", "id": 834674049, "nodes": [7791620087, 7791620086, 7791620085, 7791579384, 7791620087], "tags": {"amenity": "school", "building": "yes", "name": "Moroto Rural Training Centre"}}]}