{"version": 0.6, "generator": "Overpass API 0.7.61.5 4133829e", "osm3s": {"timestamp_osm_base": "2024-02-29T13:47:24Z", "copyright": "The data included in this document is from www.openstreetmap.org. The data is made available under ODbL."}, "elements": [{"type": "node", "id": 6053134892, "lat": 8.1269926, "lon": -2.3603278}, {"type": "node", "id": 6053134893, "lat": 8.1267217, "lon": -2.3620713}, {"type": "node", "id": 6053134894, "lat": 8.126127, "lon": -2.3621571}, {"type": "node", "id": 6053134896, "lat": 8.1252879, "lon": -2.3621196}, {"type": "node", "id": 6053134897, "lat": 8.1239071, "lon": -2.3615456}, {"type": "node", "id": 6053134898, "lat": 8.1241249, "lon": -2.3598772}, {"type": "node", "id": 8125767452, "lat": 8.1356965, "lon": -2.0319933}, {"type": "node", "id": 8125767453, "lat": 8.1335218, "lon": -2.0337394}, {"type": "node", "id": 8125767454, "lat": 8.1344751, "lon": -2.0350671}, {"type": "node", "id": 8125767455, "lat": 8.1366948, "lon": -2.0333344}, {"type": "node", "id": 9524961944, "lat": 8.174928, "lon": -2.0229167}, {"type": "node", "id": 9524961945, "lat": 8.1737996, "lon": -2.0239225}, {"type": "node", "id": 9524961946, "lat": 8.1745589, "lon": -2.0249176}, {"type": "node", "id": 9524961947, "lat": 8.1759183, "lon": -2.0239037}, {"type": "node", "id": 9529616874, "lat": 8.1757032, "lon": -2.0263875}, {"type": "node", "id": 9529616875, "lat": 8.1733456, "lon": -2.0293915}, {"type": "node", "id": 9529616876, "lat": 8.1707703, "lon": -2.0261461}, {"type": "node", "id": 9529616877, "lat": 8.1725438, "lon": -2.0250839}, {"type": "node", "id": 9529616878, "lat": 8.1737903, "lon": -2.0239493}, {"type": "way", "id": 643156934, "nodes": [6053134892, 6053134898, 6053134897, 6053134896, 6053134894, 6053134893, 6053134892], "tags": {"addr:country": "GH", "addr:district": "Banda", "addr:place": "Banda Ahenkro", "addr:region": "Bono", "amenity": "school", "description": "Bandaman Senior High Technical School was founded in 1991, through the initiative of the local people of Banda Ahenkro.", "email": "bandamanshs@ges.gov.gh", "isced:level": "3", "name": "Bandaman Senior High/Technical School", "operator": "Ghana Education Service", "operator:short": "GES", "operator:type": "public", "operator:wikidata": "Q30263788", "phone": "+233 54 614 8216", "start_date": "1991"}}, {"type": "way", "id": 872501514, "nodes": [8125767455, 8125767454, 8125767453, 8125767452, 8125767455], "tags": {"addr:country": "GH", "addr:district": "Kintampo North Municipal", "addr:place": "New Longoro", "addr:region": "Bono East", "amenity": "school", "description": "New Longoro Community Senior High School was established by the New Longoro Community and Emmy Smith of Massachusetts Institute of Technology, USA in collaboration with the Kintampo Municipal Directorate of Education.", "email": "newlongorocommshs@ges.gov.gh", "isced:level": "3", "name": "New Longoro Community Senior High School", "old_name": "Dega Community Day Senior High School", "operator": "Ghana Education Service", "operator:short": "GES", "operator:type": "public", "operator:wikidata": "Q30263788", "phone": "+233 50 309 6751", "start_date": "2016"}}, {"type": "way", "id": 1033906733, "nodes": [9524961947, 9524961946, 9524961945, 9524961944, 9524961947], "tags": {"addr:country": "GH", "addr:district": "Bole", "addr:place": "Bamboi", "addr:region": "Savannah", "amenity": "school", "description": "The school is one of the E-schools constructed by the Government of Ghana. Classes commenced in the 2016/2017academic year.", "email": "bamboicommshs@ges.gov.gh", "isced:level": "3", "name": "Bamboi Community Day Senior High School", "operator": "Ghana Education Service", "operator:short": "GES", "operator:type": "public", "operator:wikidata": "Q30263788", "phone": "+233 24 497 9385;+233 50 846 3344", "start_date": "2016"}}, {"type": "way", "id": 1034455511, "nodes": [9529616878, 9529616877, 9529616876, 9529616875, 9529616874, 9529616878], "tags": {"addr:country": "GH", "addr:district": "Bole", "addr:place": "Bamboi", "addr:region": "Savannah", "amenity": "school", "denomination": "catholic", "description": "The school was initially established by the Catholic Diocese of Damango to cater for school dropout girls within Bamboi and its environs.", "email": "stanthonyofpaduashs@ges.gov.gh", "isced:level": "3", "name": "St. Anthony of Padua Senior High/Technical School", "operator": "Ghana Education Service", "operator:short": "GES", "operator:type": "public", "operator:wikidata": "Q30263788", "phone": "+233 24 213 2681", "religion": "christian", "start_date": "2005"}}]}