{"version": 0.6, "generator": "Overpass API 0.7.61.5 4133829e", "osm3s": {"timestamp_osm_base": "2024-03-06T11:22:45Z", "copyright": "The data included in this document is from www.openstreetmap.org. The data is made available under ODbL."}, "elements": [{"type": "node", "id": 3813717476, "lat": -0.5047642, "lon": 34.7371831, "tags": {"addr:city": "Oyugis", "addr:street": "Rongo-Kisii Road", "amenity": "bank", "atm": "yes", "brand": "Equity Bank", "brand:wikidata": "Q5384664", "brand:wikipedia": "en:Equity Bank Kenya Limited", "name": "Equity Bank", "operator": "Equity Bank"}}, {"type": "node", "id": 6076313287, "lat": -0.526438, "lon": 34.4573669, "tags": {"addr:city": "Homa Bay", "addr:street": "C19", "amenity": "bank", "name": "Equity Bank Homabay"}}, {"type": "node", "id": 6076313288, "lat": -0.5267843, "lon": 34.4573115, "tags": {"addr:city": "Homa Bay", "addr:street": "Homa Bay", "amenity": "bank", "name": "Barclays Bank, Homa Bay"}}, {"type": "node", "id": 6976663160, "lat": -0.511748, "lon": 34.7343803, "tags": {"addr:city": "Oyugis", "addr:street": "Rongo-Kisii Road", "amenity": "bank", "name": "Postbank"}}, {"type": "node", "id": 6976663161, "lat": -0.5131761, "lon": 34.7334787, "tags": {"addr:city": "Oyugis", "addr:street": "Rongo-Kisii Road", "amenity": "bank", "name": "KCB Oyugis"}}]}