{"version": 0.6, "generator": "Overpass API 0.7.61.5 4133829e", "osm3s": {"timestamp_osm_base": "2024-03-05T14:43:30Z", "copyright": "The data included in this document is from www.openstreetmap.org. The data is made available under ODbL."}, "elements": [{"type": "node", "id": 471352024, "lat": 56.1558621, "lon": 13.7667056, "tags": {"amenity": "bank", "atm": "yes", "name": "L\u00e4nsf\u00f6rs\u00e4kringar G\u00f6inge-Kristianstad", "operator": "L\u00e4nsf\u00f6rs\u00e4kringar Bank", "toilets:wheelchair": "no", "wheelchair": "yes"}}, {"type": "node", "id": 2421924214, "lat": 56.0747383, "lon": 13.2336911, "tags": {"amenity": "bank", "atm": "no", "brand": "Handelsbanken", "brand:wikidata": "Q1421630", "brand:wikipedia": "sv:Handelsbanken", "name": "Handelsbanken"}}, {"type": "node", "id": 5714913185, "lat": 56.1588682, "lon": 13.7660113, "tags": {"amenity": "bank", "check_date": "2023-04-29", "name": "Sparbanken Sk\u00e5ne", "opening_hours": "Mo-We,Fr 10:00-13:00; Th 10:00-18:00"}}, {"type": "node", "id": 5740909071, "lat": 56.2916253, "lon": 13.7105244, "tags": {"amenity": "bank", "name": "Snapphanebygdens Sparbank", "website": "https://www.snapphanebygdenssparbank.se/"}}, {"type": "node", "id": 5810128790, "lat": 56.1379399, "lon": 13.3955261, "tags": {"amenity": "bank"}}, {"type": "node", "id": 6651983936, "lat": 56.3400241, "lon": 13.6640377, "tags": {"amenity": "bank", "name": "Snapphanebygdens Sparbank"}}, {"type": "node", "id": 6697457216, "lat": 56.2345086, "lon": 13.5209884, "tags": {"amenity": "bank", "name": "Sparbanken G\u00f6inge"}}, {"type": "node", "id": 6698016687, "lat": 56.2834419, "lon": 13.2764921, "tags": {"amenity": "bank", "brand": "Swedbank", "brand:wikidata": "Q1145493", "brand:wikipedia": "sv:Swedbank", "name": "Swedbank"}}, {"type": "node", "id": 9457579445, "lat": 56.1035161, "lon": 13.9160168}, {"type": "node", "id": 9457579448, "lat": 56.1035898, "lon": 13.9156935}, {"type": "node", "id": 9457579449, "lat": 56.1034633, "lon": 13.9162485}, {"type": "node", "id": 9457579450, "lat": 56.1036009, "lon": 13.915645}, {"type": "node", "id": 9457579451, "lat": 56.1037125, "lon": 13.9157268}, {"type": "node", "id": 9457579452, "lat": 56.1035749, "lon": 13.9163303}, {"type": "way", "id": 1025776641, "nodes": [9457579452, 9457579449, 9457579445, 9457579448, 9457579450, 9457579451, 9457579452], "tags": {"amenity": "bank", "atm": "yes", "building": "yes", "name": "Sparbanken G\u00f6inge"}}]}