{"version": 0.6, "generator": "Overpass API 0.7.61.5 4133829e", "osm3s": {"timestamp_osm_base": "2024-03-05T11:07:26Z", "copyright": "The data included in this document is from www.openstreetmap.org. The data is made available under ODbL."}, "elements": [{"type": "node", "id": 567464504, "lat": 5.6423906, "lon": -0.1518119, "tags": {"amenity": "atm"}}, {"type": "node", "id": 1207720467, "lat": 5.5916743, "lon": -0.1810114, "tags": {"amenity": "atm", "check_date": "2023-09-15", "covered": "yes", "currency:GHS": "yes", "indoor": "no", "name": "SG-SSB", "opening_hours": "24/7", "operator": "SG-SSB"}}, {"type": "node", "id": 1207720484, "lat": 5.6158087, "lon": -0.1754817, "tags": {"amenity": "atm", "currency:ghs": "yes", "name": "SG-SSB (Societe Generale)", "operator": "SG-SSB"}}, {"type": "node", "id": 1280783185, "lat": 5.6007158, "lon": -0.1974268, "tags": {"amenity": "atm", "operator": "SG-SSB"}}, {"type": "node", "id": 1356985956, "lat": 5.6877914, "lon": -0.0147341, "tags": {"amenity": "atm", "name": "SG-SSB", "operator": "SG-SSB"}}, {"type": "node", "id": 1508412431, "lat": 5.6478457, "lon": -0.1789641, "tags": {"amenity": "atm", "name": "SG-SSB", "operator": "SG-SSB"}}, {"type": "node", "id": 1535421290, "lat": 5.6002874, "lon": -0.1783876, "tags": {"amenity": "atm", "brand": "Stanbic Bank", "brand:wikidata": "Q7597999", "check_date": "2022-05-22", "name": "Stanbic Bank", "operator": "Stanbic Bank", "operator:wikidata": "Q7597999"}}, {"type": "node", "id": 1535421291, "lat": 5.6000298, "lon": -0.1783058, "tags": {"amenity": "atm", "brand": "Ecobank", "brand:wikidata": "Q930225", "check_date": "2022-04-17", "name": "Ecobank", "opening_hours": "24/7", "operator": "Ecobank", "operator:wikidata": "Q930225"}}, {"type": "node", "id": 1540112617, "lat": 5.5636221, "lon": -0.1403213, "tags": {"amenity": "atm", "opening_hours": "24/7", "operator": "SG-SSB"}}, {"type": "node", "id": 1607961519, "lat": 5.6084433, "lon": -0.2095812, "tags": {"amenity": "atm", "brand": "GCB Bank", "brand:wikidata": "Q1521346", "brand:wikipedia": "en:GCB Bank", "name": "GCB Bank", "operator": "GCB Bank", "operator:wikidata": "Q1521346", "operator:wikipedia": "en:GCB Bank"}}, {"type": "node", "id": 1692468982, "lat": 5.5602172, "lon": -0.2021078, "tags": {"amenity": "atm", "brand": "Ecobank", "brand:wikidata": "Q930225", "name": "Ecobank", "operator": "Ecobank", "operator:wikidata": "Q930225"}}, {"type": "node", "id": 1749654666, "lat": 5.5933823, "lon": -0.1809338, "tags": {"amenity": "atm", "opening_hours": "24/7", "operator": "GCB"}}, {"type": "node", "id": 1749654667, "lat": 5.5933967, "lon": -0.1809973, "tags": {"amenity": "atm", "opening_hours": "24/7", "operator": "Zenith"}}, {"type": "node", "id": 2446527083, "lat": 5.6078559, "lon": -0.2073811, "tags": {"amenity": "atm", "name": "Stanbic", "operator": "Stanbic"}}, {"type": "node", "id": 2606139912, "lat": 5.6138343, "lon": -0.1864895, "tags": {"amenity": "atm", "brand": "Access Bank", "brand:wikidata": "Q4672418", "name": "Access Bank", "operator": "Access Bank", "operator:wikidata": "Q4672418"}}, {"type": "node", "id": 2644149772, "lat": 5.5657164, "lon": -0.1810146, "tags": {"amenity": "atm", "brand": "Fidelity Bank", "brand:wikidata": "Q5446778", "name": "Fidelity Bank", "operator": "Fidelity Bank", "operator:wikidata": "Q5446778"}}, {"type": "node", "id": 2644149776, "lat": 5.5657313, "lon": -0.1810587, "tags": {"amenity": "atm", "brand": "SG-SSB", "operator": "SG-SSB"}}, {"type": "node", "id": 3046100328, "lat": 5.5682472, "lon": -0.2198294, "tags": {"amenity": "atm", "operator": "CAL Bank"}}, {"type": "node", "id": 3046109689, "lat": 5.5689107, "lon": -0.2221403, "tags": {"amenity": "atm", "operator": "SCB"}}, {"type": "node", "id": 3073599633, "lat": 5.5660796, "lon": -0.2358127, "tags": {"amenity": "atm", "brand": "GCB Bank", "brand:wikidata": "Q1521346", "check_date": "2023-01-13", "operator": "GCB Bank", "operator:wikidata": "Q1521346"}}, {"type": "node", "id": 3097151616, "lat": 5.5684837, "lon": -0.1682024, "tags": {"amenity": "atm", "brand": "Stanbic Bank", "brand:wikidata": "Q7597999", "brand:wikipedia": "en:Stanbic Bank", "name": "Stanbic Bank", "opening_hours": "24/7", "operator": "Stanbic Bank", "operator:wikidata": "Q7597999", "operator:wikipedia": "en:Stanbic Bank"}}, {"type": "node", "id": 3102654813, "lat": 5.5981666, "lon": -0.233036, "tags": {"amenity": "atm", "name": "Stanbic"}}, {"type": "node", "id": 3359885816, "lat": 5.5902667, "lon": -0.18105, "tags": {"amenity": "atm", "brand": "CAL Bank", "check_date": "2022-03-27", "opening_hours": "24/7"}}, {"type": "node", "id": 3473053004, "lat": 5.5661966, "lon": -0.1700406, "tags": {"amenity": "atm", "name": "Republic Bank"}}, {"type": "node", "id": 3688650361, "lat": 5.6176973, "lon": -0.1921497, "tags": {"amenity": "atm", "brand": "Stanbic Bank", "brand:wikidata": "Q7597999", "name": "Stanbic Bank", "operator": "Stanbic Bank", "operator:wikidata": "Q7597999"}}, {"type": "node", "id": 3797252668, "lat": 5.6043256, "lon": -0.1837383, "tags": {"amenity": "atm", "brand": "Ecobank", "brand:wikidata": "Q930225", "brand:wikipedia": "en:Ecobank", "name": "Ecobank", "operator": "Ecobank", "operator:wikidata": "Q930225", "operator:wikipedia": "en:Ecobank"}}, {"type": "node", "id": 4229925896, "lat": 5.6613395, "lon": -0.0164985, "tags": {"addr:city": "Tema", "addr:country": "GH", "addr:region": "Greater Accra", "addr:suburb": "Community 10", "amenity": "atm", "brand": "Absa", "brand:wikidata": "Q58641733", "brand:wikipedia": "en:Absa Group Limited", "contact:instagram": "absaghana", "contact:linkedin": "absa-ghana", "contact:twitter": "AbsaGhana", "contact:whatsapp": "+233 50 164 4644", "contact:youtube": "https://www.youtube.com/channel/UCKpKPyfJ69tf7lnxudpzKJQ", "email": "service.excellence.GH@absa.africa", "facebook": "AbsaGhana", "name": "Absa ATM", "opening_hours": "24/7", "operator": "Absa Bank Ghana Limited", "operator:type": "public", "operator:wikidata": "Q96371413", "operator:wikipedia": "en:Absa Bank Ghana", "phone": "+233 30 242 9150", "website": "https://www.absa.com.gh"}}, {"type": "node", "id": 4270124274, "lat": 5.5998852, "lon": -0.1896081, "tags": {"amenity": "atm", "brand": "UBA"}}, {"type": "node", "id": 4327081893, "lat": 5.6690866, "lon": -0.0191756, "tags": {"amenity": "atm", "operator": "Fidelity Bank"}}, {"type": "node", "id": 4423394337, "lat": 5.8494413, "lon": -0.1737123, "tags": {"amenity": "atm"}}, {"type": "node", "id": 4451500937, "lat": 5.6493371, "lon": -0.1870528, "tags": {"amenity": "atm", "name": "Republic Bank", "old_name": "hfc bank", "operator": "Republic Bank (Ghana) Limited"}}, {"type": "node", "id": 4492831390, "lat": 5.6507859, "lon": -0.1890544, "tags": {"amenity": "atm", "opening_hours": "24/7", "operator": "CAL BANK"}}, {"type": "node", "id": 4518650090, "lat": 5.6469774, "lon": -0.1865162, "tags": {"amenity": "atm", "opening_hours": "24/7", "operator": "All Banks"}}, {"type": "node", "id": 4555865891, "lat": 5.66297, "lon": -0.0098469, "tags": {"amenity": "atm", "operator": "Barclay's Bank"}}, {"type": "node", "id": 4620513245, "lat": 5.6185056, "lon": -0.1924774, "tags": {"amenity": "atm", "brand": "Ecobank", "brand:wikidata": "Q930225", "brand:wikipedia": "en:Ecobank", "name": "Ecobank", "operator": "Ecobank", "operator:wikidata": "Q930225", "operator:wikipedia": "en:Ecobank"}}, {"type": "node", "id": 4972575279, "lat": 5.6519994, "lon": -0.188485, "tags": {"amenity": "atm", "brand": "Ecobank", "brand:wikidata": "Q930225", "brand:wikipedia": "en:Ecobank", "name": "Ecobank", "operator": "Ecobank", "operator:wikidata": "Q930225", "operator:wikipedia": "en:Ecobank"}}, {"type": "node", "id": 4987994167, "lat": 5.5357511, "lon": -0.2290899, "tags": {"amenity": "atm", "brand": "GCB Bank", "brand:wikidata": "Q1521346", "brand:wikipedia": "en:GCB Bank", "name": "GCB Bank", "operator": "GCB Bank", "operator:wikidata": "Q1521346", "operator:wikipedia": "en:GCB Bank"}}, {"type": "node", "id": 5016916435, "lat": 5.5636408, "lon": -0.1724314, "tags": {"addr:city": "Accra", "addr:country": "GH", "addr:region": "Greater Accra", "addr:street": "Ndabaningi Sithole", "addr:suburb": "Labone", "amenity": "atm", "brand": "Absa", "brand:wikidata": "Q58641733", "brand:wikipedia": "en:Absa Group Limited", "contact:instagram": "absaghana", "contact:linkedin": "absa-ghana", "contact:twitter": "AbsaGhana", "contact:whatsapp": "+233 50 164 4644", "contact:youtube": "https://www.youtube.com/channel/UCKpKPyfJ69tf7lnxudpzKJQ", "email": "service.excellence.GH@absa.africa", "facebook": "AbsaGhana", "name": "Absa ATM", "old_name": "Barclays", "opening_hours": "24/7", "operator": "Absa Bank Ghana Limited", "operator:type": "public", "operator:wikidata": "Q96371413", "operator:wikipedia": "en:Absa Bank Ghana", "phone": "+233 30 242 9150", "website": "https://www.absa.com.gh"}}, {"type": "node", "id": 5017200541, "lat": 5.5678403, "lon": -0.1692712, "tags": {"amenity": "atm", "brand": "CalBank", "contact:linkedin": "calbank-plc", "contact:twitter": "CalBankPLC", "contact:whatsapp": "+233 24 242 6398", "contact:youtube": "https://www.youtube.com/channel/UCzczU8uI8AFTaXfM-2GDhYQ", "email": "customercare@calbank.net", "facebook": "CalBankPLC", "name": "CalBank ATM", "opening_hours": "24/7", "operator": "CalBank PLC", "operator:type": "public", "operator:wikidata": "Q4035559", "operator:wikipedia": "en:CalBank", "website": "https://calbank.net"}}, {"type": "node", "id": 5029455807, "lat": 5.68599, "lon": -0.1432509, "tags": {"amenity": "atm", "name": "Stanbic"}}, {"type": "node", "id": 5078026279, "lat": 5.5451641, "lon": -0.2066448, "tags": {"amenity": "atm", "name": "Best Point"}}, {"type": "node", "id": 5084500028, "lat": 5.6381547, "lon": -0.1261119, "tags": {"amenity": "atm", "opening_hours": "24/7", "operator": "Sahel Sahara"}}, {"type": "node", "id": 5084500031, "lat": 5.6304929, "lon": -0.144815, "tags": {"amenity": "atm", "operator": "Consolidated"}}, {"type": "node", "id": 5084505521, "lat": 5.63282, "lon": -0.1392107, "tags": {"amenity": "atm", "name": "FBN Bank", "opening_hours": "24/7", "operator": "Fbn"}}, {"type": "node", "id": 5086960822, "lat": 5.6328593, "lon": -0.1391059, "tags": {"amenity": "atm", "operator": "Stanbic"}}, {"type": "node", "id": 5086960922, "lat": 5.6292201, "lon": -0.1465303, "tags": {"amenity": "atm", "opening_hours": "24/7", "operator": "GT Bank"}}, {"type": "node", "id": 5088548223, "lat": 5.63427, "lon": -0.1343161, "tags": {"addr:city": "Accra", "addr:country": "GH", "addr:region": "Greater Accra", "addr:street": "Spintex Road", "addr:suburb": "Spintex", "amenity": "atm", "brand": "Absa", "brand:wikidata": "Q58641733", "brand:wikipedia": "en:Absa Group Limited", "contact:instagram": "absaghana", "contact:linkedin": "absa-ghana", "contact:twitter": "AbsaGhana", "contact:whatsapp": "+233 50 164 4644", "contact:youtube": "https://www.youtube.com/channel/UCKpKPyfJ69tf7lnxudpzKJQ", "email": "service.excellence.GH@absa.africa", "facebook": "AbsaGhana", "name": "Absa ATM", "opening_hours": "24/7", "operator": "Absa Bank Ghana Limited", "operator:type": "public", "operator:wikidata": "Q96371413", "operator:wikipedia": "en:Absa Bank Ghana", "phone": "+233 30 242 9150", "website": "https://www.absa.com.gh"}}, {"type": "node", "id": 5088569324, "lat": 5.6324496, "lon": -0.1391051, "tags": {"amenity": "atm", "brand": "GCB Bank", "brand:wikidata": "Q1521346", "brand:wikipedia": "en:GCB Bank", "name": "GCB Bank", "opening_hours": "24/7", "operator": "GCB Bank", "operator:wikidata": "Q1521346", "operator:wikipedia": "en:GCB Bank"}}, {"type": "node", "id": 5139471416, "lat": 5.5546911, "lon": -0.2168483, "tags": {"amenity": "atm", "name": "GCB"}}, {"type": "node", "id": 5150562245, "lat": 5.5546241, "lon": -0.2163015, "tags": {"amenity": "atm", "opening_hours": "24/7", "operator": "Stanbic"}}, {"type": "node", "id": 5207970184, "lat": 5.5737554, "lon": -0.19122, "tags": {"amenity": "atm", "name": "Republic Bank", "old_name": "hfc bank", "opening_hours": "24/7", "operator": "Republic"}}, {"type": "node", "id": 5208673721, "lat": 5.6699089, "lon": -0.014219, "tags": {"amenity": "atm", "operator": "Stanbic"}}, {"type": "node", "id": 5220423604, "lat": 5.6424837, "lon": -0.1520444, "tags": {"amenity": "atm", "operator": "The Royal Bank"}}, {"type": "node", "id": 5220423605, "lat": 5.642473, "lon": -0.15209, "tags": {"amenity": "atm", "operator": "Stanbic Bank"}}, {"type": "node", "id": 5220423606, "lat": 5.6424577, "lon": -0.1521382, "tags": {"amenity": "atm", "operator": "GCB Bank"}}, {"type": "node", "id": 5235963355, "lat": 5.5736093, "lon": -0.19778, "tags": {"amenity": "atm", "brand": "Soci\u00e9t\u00e9 G\u00e9n\u00e9rale", "brand:wikidata": "Q270363", "check_date": "2024-01-08", "currency:EUR": "yes", "currency:GHS": "yes", "currency:USD": "yes", "drive_through": "no", "name": "Societe Generale Ghana", "name:en": "Societe Generale Ghana", "name:fr": "Soci\u00e9t\u00e9 G\u00e9n\u00e9rale Ghana", "old_name": "SGSSB", "opening_hours": "24/7", "operator": "Soci\u00e9t\u00e9 G\u00e9n\u00e9rale", "operator:wikidata": "Q270363", "website": "https://societegenerale.com.gh/"}}, {"type": "node", "id": 5287599430, "lat": 5.5581841, "lon": -0.2655051, "tags": {"amenity": "atm", "name": "Republic Bank", "old_name": "hfc Bank", "operator": "Republic Bank (Ghana) Limited"}}, {"type": "node", "id": 5287626003, "lat": 5.5581833, "lon": -0.2654807, "tags": {"amenity": "atm", "name": "GCBBank"}}, {"type": "node", "id": 5287627472, "lat": 5.5581851, "lon": -0.2654507, "tags": {"amenity": "atm", "name": "GTBank"}}, {"type": "node", "id": 5287627473, "lat": 5.5581872, "lon": -0.2655389, "tags": {"amenity": "atm", "name": "umb"}}, {"type": "node", "id": 5301563453, "lat": 5.6754228, "lon": -0.1263866, "tags": {"amenity": "atm", "name": "CAL Bank"}}, {"type": "node", "id": 5301957462, "lat": 5.5902626, "lon": -0.1809489, "tags": {"addr:city": "Accra", "addr:country": "GH", "addr:region": "Greater Accra", "addr:street": "Liberation Road", "addr:suburb": "Cantoments", "amenity": "atm", "brand": "Absa", "brand:wikidata": "Q58641733", "brand:wikipedia": "en:Absa Group Limited", "check_date": "2022-04-17", "contact:instagram": "absaghana", "contact:linkedin": "absa-ghana", "contact:twitter": "AbsaGhana", "contact:whatsapp": "+233 50 164 4644", "contact:youtube": "https://www.youtube.com/channel/UCKpKPyfJ69tf7lnxudpzKJQ", "email": "service.excellence.GH@absa.africa", "facebook": "AbsaGhana", "name": "Absa ATM", "old_name": "Barclays Bank", "opening_hours": "24/7", "operator": "Absa Bank Ghana Limited", "operator:type": "public", "operator:wikidata": "Q96371413", "operator:wikipedia": "en:Absa Bank Ghana", "phone": "+233 30 242 9150", "website": "https://www.absa.com.gh"}}, {"type": "node", "id": 5301961660, "lat": 5.5902134, "lon": -0.1809902, "tags": {"amenity": "atm", "brand": "Ecobank", "brand:wikidata": "Q930225", "brand:wikipedia": "en:Ecobank", "name": "Ecobank", "opening_hours": "24/7", "operator": "Ecobank", "operator:wikidata": "Q930225", "operator:wikipedia": "en:Ecobank"}}, {"type": "node", "id": 5331313633, "lat": 5.5646586, "lon": -0.2257313, "tags": {"amenity": "atm", "name": "Republic Bank", "old_name": "hfc bank", "operator": "Republic Bank (Ghana) Limited"}}, {"type": "node", "id": 5464042122, "lat": 5.6595586, "lon": -0.168203, "tags": {"amenity": "atm"}}, {"type": "node", "id": 5464042123, "lat": 5.6595372, "lon": -0.1676129, "tags": {"amenity": "atm", "brand": "Ecobank", "brand:wikidata": "Q930225", "brand:wikipedia": "en:Ecobank", "name": "Ecobank", "operator": "Ecobank", "operator:wikidata": "Q930225", "operator:wikipedia": "en:Ecobank"}}, {"type": "node", "id": 5464042126, "lat": 5.6600823, "lon": -0.1774304, "tags": {"amenity": "atm", "name": "Stanbic"}}, {"type": "node", "id": 5498277535, "lat": 5.5734982, "lon": -0.1911386, "tags": {"amenity": "atm", "cash_in": "yes", "check_date": "2023-06-05", "currency:GHS": "yes", "opening_hours": "24/7", "operator": "Republic", "source": "local knowledge", "wheelchair": "limited"}}, {"type": "node", "id": 5540927822, "lat": 5.5903839, "lon": -0.1814732, "tags": {"amenity": "atm", "check_date": "2023-06-23", "opening_hours": "24/7", "operator": "Energy"}}, {"type": "node", "id": 5548656722, "lat": 5.5794815, "lon": -0.1557095, "tags": {"amenity": "atm", "brand": "GCB Bank", "brand:wikidata": "Q1521346", "brand:wikipedia": "en:GCB Bank", "name": "GCB Bank", "operator": "GCB", "operator:wikidata": "Q1521346", "operator:wikipedia": "en:GCB Bank"}}, {"type": "node", "id": 5548656723, "lat": 5.5795357, "lon": -0.1556823, "tags": {"amenity": "atm", "brand": "UBA", "brand:wikidata": "Q513457", "brand:wikipedia": "en:United Bank for Africa", "name": "UBA", "official_name": "United Bank for Africa", "operator": "UBA", "operator:wikidata": "Q513457", "operator:wikipedia": "en:United Bank for Africa"}}, {"type": "node", "id": 5548656724, "lat": 5.5796388, "lon": -0.1556299, "tags": {"amenity": "atm", "brand": "Access Bank", "brand:wikidata": "Q4672418", "brand:wikipedia": "en:Access Bank plc", "name": "Access Bank", "operator": "Access Bank", "operator:wikidata": "Q4672418", "operator:wikipedia": "en:Access Bank plc"}}, {"type": "node", "id": 5548656821, "lat": 5.5792282, "lon": -0.154983, "tags": {"amenity": "atm"}}, {"type": "node", "id": 5548748021, "lat": 5.5795848, "lon": -0.1556571, "tags": {"amenity": "atm", "name": "NIB"}}, {"type": "node", "id": 5577297470, "lat": 5.563196, "lon": -0.1913609, "tags": {"amenity": "atm", "brand": "ADB", "operator": "ADB"}}, {"type": "node", "id": 5629497739, "lat": 5.5620861, "lon": -0.181603, "tags": {"amenity": "atm", "brand": "GCB Bank", "brand:wikidata": "Q1521346", "brand:wikipedia": "en:GCB Bank", "name": "GCB Bank", "operator": "GCB Bank", "operator:wikidata": "Q1521346", "operator:wikipedia": "en:GCB Bank"}}, {"type": "node", "id": 5629497740, "lat": 5.5620909, "lon": -0.1816222, "tags": {"amenity": "atm", "brand": "Stanbic Bank", "brand:wikidata": "Q7597999", "brand:wikipedia": "en:Stanbic Bank", "name": "Stanbic Bank", "operator": "Stanbic Bank", "operator:wikidata": "Q7597999", "operator:wikipedia": "en:Stanbic Bank"}}, {"type": "node", "id": 5629497741, "lat": 5.5620968, "lon": -0.181646, "tags": {"amenity": "atm"}}, {"type": "node", "id": 5629497742, "lat": 5.562087, "lon": -0.1816749, "tags": {"amenity": "atm", "name": "Prudential"}}, {"type": "node", "id": 5629497743, "lat": 5.5621102, "lon": -0.1816962, "tags": {"amenity": "atm", "name": "OmniBank"}}, {"type": "node", "id": 5705901823, "lat": 5.6288707, "lon": -0.1481053, "tags": {"amenity": "atm", "brand": "Ecobank", "brand:wikidata": "Q930225", "brand:wikipedia": "en:Ecobank", "currency:others": "no", "name": "Ecobank", "opening_hours": "24/7", "operator": "Eco Bank", "operator:wikidata": "Q930225", "operator:wikipedia": "en:Ecobank"}}, {"type": "node", "id": 5705919124, "lat": 5.6375726, "lon": -0.1261746, "tags": {"amenity": "atm", "opening_hours": "24/7", "operator": "Cal Bank"}}, {"type": "node", "id": 5705923222, "lat": 5.6409722, "lon": -0.1196189, "tags": {"amenity": "atm", "opening_hours": "24/7", "operator": "UBA"}}, {"type": "node", "id": 5705935921, "lat": 5.63514, "lon": -0.1009113, "tags": {"amenity": "atm", "opening_hours": "24/7", "operator": "Barclays Bank"}}, {"type": "node", "id": 5706054114, "lat": 5.6084785, "lon": -0.2094508, "tags": {"amenity": "atm", "name": "Prudential Bank ATM", "opening_hours": "24/7"}}, {"type": "node", "id": 5706054115, "lat": 5.5717914, "lon": -0.2158832, "tags": {"amenity": "atm", "brand": "Ecobank", "brand:wikidata": "Q930225", "brand:wikipedia": "en:Ecobank", "cash_in": "yes", "check_date": "2023-05-03", "currency:EUR": "yes", "currency:GHS": "yes", "currency:USD": "yes", "drive_through": "no", "name": "Ecobank", "opening_hours": "Mo-Fr 08:30-16:00; Sa-Su,PH off", "operator": "Ecobank", "operator:wikidata": "Q930225", "operator:wikipedia": "en:Ecobank", "source": "local knowledge", "wheelchair": "limited"}}, {"type": "node", "id": 5708770822, "lat": 5.6053527, "lon": -0.083697, "tags": {"amenity": "atm", "brand": "GCB Bank", "brand:wikidata": "Q1521346", "brand:wikipedia": "en:GCB Bank", "name": "GCB Bank", "opening_hours": "24/7", "operator": "GBC", "operator:wikidata": "Q1521346", "operator:wikipedia": "en:GCB Bank"}}, {"type": "node", "id": 5715583721, "lat": 5.706115, "lon": -0.1703616, "tags": {"amenity": "atm", "check_date": "2021-04-30", "opening_hours": "24/7", "operator": "Prudential"}}, {"type": "node", "id": 5720517422, "lat": 5.6059674, "lon": -0.1157602, "tags": {"amenity": "atm", "brand": "Stanbic Bank", "brand:wikidata": "Q7597999", "brand:wikipedia": "en:Stanbic Bank", "name": "Stanbic Bank", "opening_hours": "24/7", "operator": "Stanbic Bank", "operator:wikidata": "Q7597999", "operator:wikipedia": "en:Stanbic Bank"}}, {"type": "node", "id": 5723393022, "lat": 5.6448341, "lon": 0.0091973, "tags": {"amenity": "atm", "opening_hours": "24/7", "operator": "Stanbic"}}, {"type": "node", "id": 5724150675, "lat": 5.6678814, "lon": -0.1881261, "tags": {"amenity": "atm", "brand": "Ecobank", "brand:wikidata": "Q930225", "brand:wikipedia": "en:Ecobank", "name": "Ecobank", "operator": "Ecobank", "operator:wikidata": "Q930225", "operator:wikipedia": "en:Ecobank"}}, {"type": "node", "id": 5724150676, "lat": 5.6678701, "lon": -0.1881448, "tags": {"addr:city": "Accra", "addr:country": "GH", "addr:region": "Greater Accra", "addr:street": "Agbogba Ashongman Road", "addr:suburb": "Haatso", "alt_name": "Standard Chartered ATM", "amenity": "atm", "brand": "Standard Chartered", "brand:wikidata": "Q548278", "brand:wikipedia": "en:Standard Chartered", "cash_in": "no", "contact:instagram": "stanchartgh", "contact:linkedin": "standardchartered", "contact:twitter": "StanChartGH", "description": "Haatso Shell Service Station, Opposite Legon Botanical Gardens, Accra", "email": "feedback.ghana@sc.com", "facebook": "StandardCharteredGH", "name": "Standard Chartered ATM", "opening_hours": "24/7", "operator": "Standard Chartered Ghana", "operator:type": "public", "operator:wikidata": "Q7598195", "operator:wikipedia": "en:Standard Chartered Ghana", "phone": "+233 30 263 3428; +233 30 274 0100", "website": "https://www.sc.com/gh"}}, {"type": "node", "id": 5724150677, "lat": 5.6678601, "lon": -0.1881616, "tags": {"amenity": "atm", "cash_in": "no", "currency:GHC": "yes", "drive_through": "no", "name": "First National Bank", "operator": "First National Bank"}}, {"type": "node", "id": 5726059622, "lat": 5.7413465, "lon": -0.1537452, "tags": {"addr:city": "Accra", "addr:country": "GH", "addr:region": "Greater Accra", "addr:street": "Adenta Dodowa Road", "addr:suburb": "Ashiyie", "amenity": "atm", "brand": "Absa", "brand:wikidata": "Q58641733", "brand:wikipedia": "en:Absa Group Limited", "contact:instagram": "absaghana", "contact:linkedin": "absa-ghana", "contact:twitter": "AbsaGhana", "contact:whatsapp": "+233 50 164 4644", "contact:youtube": "https://www.youtube.com/channel/UCKpKPyfJ69tf7lnxudpzKJQ", "email": "service.excellence.GH@absa.africa", "facebook": "AbsaGhana", "name": "Absa ATM", "old_name": "Barclays", "opening_hours": "24/7", "operator": "Absa Bank Ghana Limited", "operator:type": "public", "operator:wikidata": "Q96371413", "operator:wikipedia": "en:Absa Bank Ghana", "phone": "+233 30 242 9150", "website": "https://www.absa.com.gh"}}, {"type": "node", "id": 5729391191, "lat": 5.6222362, "lon": -0.1731901, "tags": {"amenity": "atm"}}, {"type": "node", "id": 5729391192, "lat": 5.6222474, "lon": -0.1731936, "tags": {"amenity": "atm", "brand": "GT Bank", "brand:wikidata": "Q579747", "brand:wikipedia": "en:Guaranty Trust Bank", "name": "GT Bank", "official_name": "Guaranty Trust Bank", "operator": "GT Bank", "operator:wikidata": "Q579747", "operator:wikipedia": "en:Guaranty Trust Bank"}}, {"type": "node", "id": 5729391193, "lat": 5.6222537, "lon": -0.1731993, "tags": {"amenity": "atm", "brand": "UBA", "brand:wikidata": "Q513457", "brand:wikipedia": "en:United Bank for Africa", "name": "UBA", "official_name": "United Bank for Africa", "operator": "UBA", "operator:wikidata": "Q513457", "operator:wikipedia": "en:United Bank for Africa"}}, {"type": "node", "id": 5729391194, "lat": 5.6222561, "lon": -0.1732067, "tags": {"addr:city": "Accra", "addr:country": "GH", "addr:region": "Greater Accra", "addr:street": "Tetteh Quarshie Interchange", "addr:suburb": "Airport City", "amenity": "atm", "brand": "Absa", "brand:wikidata": "Q58641733", "brand:wikipedia": "en:Absa Group Limited", "contact:instagram": "absaghana", "contact:linkedin": "absa-ghana", "contact:twitter": "AbsaGhana", "contact:whatsapp": "+233 50 164 4644", "contact:youtube": "https://www.youtube.com/channel/UCKpKPyfJ69tf7lnxudpzKJQ", "email": "service.excellence.GH@absa.africa", "facebook": "AbsaGhana", "name": "Absa ATM", "old_name": "Barclays", "opening_hours": "24/7", "operator": "Absa Bank Ghana Limited", "operator:type": "public", "operator:wikidata": "Q96371413", "operator:wikipedia": "en:Absa Bank Ghana", "phone": "+233 30 242 9150", "website": "https://www.absa.com.gh"}}, {"type": "node", "id": 5729391195, "lat": 5.6222564, "lon": -0.1732157, "tags": {"addr:city": "Accra", "addr:country": "GH", "addr:region": "Greater Accra", "addr:street": "Tetteh Quarshie Interchange", "addr:suburb": "Airport City", "alt_name": "Standard Chartered Accra Mall ATM", "amenity": "atm", "brand": "Standard Chartered", "brand:wikidata": "Q548278", "brand:wikipedia": "en:Standard Chartered", "cash_in": "no", "contact:instagram": "stanchartgh", "contact:linkedin": "standardchartered", "contact:twitter": "StanChartGH", "email": "feedback.ghana@sc.com", "facebook": "StandardCharteredGH", "name": "Standard Chartered ATM", "opening_hours": "24/7", "operator": "Standard Chartered Ghana", "operator:type": "public", "operator:wikidata": "Q7598195", "operator:wikipedia": "en:Standard Chartered Ghana", "phone": "+233 30 263 3428; +233 30 274 0100", "website": "https://www.sc.com/gh"}}, {"type": "node", "id": 5732865837, "lat": 5.6034285, "lon": -0.1765168, "tags": {"amenity": "atm", "branch": "Airport City", "check_date": "2023-04-28", "name": "CalBank ATM", "opening_hours": "24/7", "source": "local knowledge", "wheelchair": "limited"}}, {"type": "node", "id": 5732865838, "lat": 5.6034177, "lon": -0.1765319, "tags": {"amenity": "atm", "branch": "Airport City", "check_date": "2023-04-28", "currency:EUR": "yes", "currency:USD": "yes", "drive_through": "no", "name": "Heritage Bank", "opening_hours": "24/7", "source": "local knowledge"}}, {"type": "node", "id": 5732865839, "lat": 5.6034078, "lon": -0.1765457, "tags": {"amenity": "atm", "branch": "Airport City", "brand": "Soci\u00e9t\u00e9 G\u00e9n\u00e9rale", "brand:wikidata": "Q270363", "check_date": "2023-04-28", "name": "Soci\u00e9t\u00e9 G\u00e9n\u00e9rale", "name:en": "Societe Generale Ghana", "name:fr": "Soci\u00e9t\u00e9 G\u00e9n\u00e9rale Ghana", "old_name": "SGSSB", "opening_hours": "24/7", "operator": "Soci\u00e9t\u00e9 G\u00e9n\u00e9rale", "operator:wikidata": "Q270363", "source": "local knowledge", "website": "https://societegenerale.com.gh/"}}, {"type": "node", "id": 5744469515, "lat": 5.6516214, "lon": -0.1891882, "tags": {"amenity": "atm", "name": "Zenith"}}, {"type": "node", "id": 5746072943, "lat": 5.6414988, "lon": -0.1090781, "tags": {"amenity": "atm", "brand": "Fidelity Bank", "brand:wikidata": "Q5446778", "brand:wikipedia": "en:Fidelity Bank Ghana", "name": "Fidelity Bank", "operator": "Fidelity Bank", "operator:wikidata": "Q5446778", "operator:wikipedia": "en:Fidelity Bank Ghana"}}, {"type": "node", "id": 5746072946, "lat": 5.6408591, "lon": -0.1189885, "tags": {"amenity": "atm", "fixme": "First National Bank", "name": "First National Bank"}}, {"type": "node", "id": 5746103118, "lat": 5.6084882, "lon": -0.2094147, "tags": {"amenity": "atm", "brand": "Ecobank", "brand:wikidata": "Q930225", "brand:wikipedia": "en:Ecobank", "name": "Ecobank ATM", "opening_hours": "24/7", "operator": "Ecobank", "operator:wikidata": "Q930225", "operator:wikipedia": "en:Ecobank"}}, {"type": "node", "id": 5746104167, "lat": 5.6084986, "lon": -0.2093858, "tags": {"amenity": "atm", "name": "Stanbic ATM", "opening_hours": "24/7"}}, {"type": "node", "id": 5751941730, "lat": 5.6366501, "lon": -0.103939, "tags": {"amenity": "atm", "brand": "Bank of Africa", "brand:wikidata": "Q2882627", "brand:wikipedia": "en:Bank of Africa Group", "name": "Bank of Africa", "operator": "Bank of Africa", "operator:wikidata": "Q2882627", "operator:wikipedia": "en:Bank of Africa Group", "short_name": "BOA"}}, {"type": "node", "id": 5754683874, "lat": 5.6673956, "lon": -0.1775753, "tags": {"amenity": "atm", "check_date": "2021-04-30", "operator": "Cal Bank"}}, {"type": "node", "id": 5755661744, "lat": 5.5629673, "lon": -0.2033677, "tags": {"amenity": "atm", "brand": "Absa", "brand:wikidata": "Q58641733", "brand:wikipedia": "en:Absa Group Limited", "drive_through": "no", "name": "Absa", "old_name": "Barclays", "operator": "Absa Group Limited"}}, {"type": "node", "id": 5756419405, "lat": 5.6458832, "lon": -0.1388881, "tags": {"amenity": "atm", "brand": "Ecobank", "brand:wikidata": "Q930225", "brand:wikipedia": "en:Ecobank", "name": "Ecobank", "operator": "Ecobank", "operator:wikidata": "Q930225", "operator:wikipedia": "en:Ecobank"}}, {"type": "node", "id": 5759571681, "lat": 5.5506328, "lon": -0.1997875, "tags": {"amenity": "atm", "name": "Fidelity"}}, {"type": "node", "id": 5775969334, "lat": 5.5982104, "lon": -0.2330592, "tags": {"addr:city": "Accra", "addr:country": "GH", "addr:region": "Greater Accra", "addr:street": "Abeka Road", "addr:suburb": "Tesano", "amenity": "atm", "brand": "Absa", "brand:wikidata": "Q58641733", "brand:wikipedia": "en:Absa Group Limited", "contact:instagram": "absaghana", "contact:linkedin": "absa-ghana", "contact:twitter": "AbsaGhana", "contact:whatsapp": "+233 50 164 4644", "contact:youtube": "https://www.youtube.com/channel/UCKpKPyfJ69tf7lnxudpzKJQ", "email": "service.excellence.GH@absa.africa", "facebook": "AbsaGhana", "name": "Absa ATM", "opening_hours": "24/7", "operator": "Absa Bank Ghana Limited", "operator:type": "public", "operator:wikidata": "Q96371413", "operator:wikipedia": "en:Absa Bank Ghana", "website": "https://www.absa.com.gh"}}, {"type": "node", "id": 5776851159, "lat": 5.591362, "lon": -0.180519, "tags": {"amenity": "atm", "branch": "37", "cash_in": "yes", "check_date": "2023-09-15", "covered": "yes", "currency:GHS": "yes", "indoor": "no", "name": "Access", "opening_hours": "24/7", "source": "local knowledge", "wheelchair": "limited"}}, {"type": "node", "id": 5776851160, "lat": 5.5913764, "lon": -0.1805127, "tags": {"amenity": "atm", "branch": "37", "check_date": "2023-09-15", "description": "Wine and liquor shop", "indoor": "yes", "name": "First Atlantic", "wheelchair": "limited"}}, {"type": "node", "id": 5778972255, "lat": 5.6508028, "lon": -0.1890253, "tags": {"amenity": "atm", "opening_hours": "24/7", "operator": "Fidelity Bank"}}, {"type": "node", "id": 5779017654, "lat": 5.6508039, "lon": -0.1889738, "tags": {"amenity": "atm", "opening_hours": "24/7", "operator": "Prudential Bank"}}, {"type": "node", "id": 5801074477, "lat": 5.6427018, "lon": -0.2380985}, {"type": "node", "id": 5808035307, "lat": 5.646781, "lon": -0.1875734, "tags": {"amenity": "atm", "brand": "GCB Bank", "brand:wikidata": "Q1521346", "brand:wikipedia": "en:GCB Bank", "name": "GCB Bank", "operator": "GCB Bank", "operator:wikidata": "Q1521346", "operator:wikipedia": "en:GCB Bank"}}, {"type": "node", "id": 5808039515, "lat": 5.6468339, "lon": -0.1875034, "tags": {"amenity": "atm", "brand": "Zenith Bank", "brand:wikidata": "Q5978240", "brand:wikipedia": "en:Zenith Bank", "name": "Zenith Bank", "operator": "Zenith Bank", "operator:wikidata": "Q5978240", "operator:wikipedia": "en:Zenith Bank"}}, {"type": "node", "id": 5810720358, "lat": 5.6471783, "lon": -0.1875033, "tags": {"amenity": "atm", "brand": "Access Bank", "brand:wikidata": "Q4672418", "brand:wikipedia": "en:Access Bank plc", "name": "Access Bank", "operator": "Access Bank", "operator:wikidata": "Q4672418", "operator:wikipedia": "en:Access Bank plc"}}, {"type": "node", "id": 5824299775, "lat": 5.6427437, "lon": -0.2380824}, {"type": "node", "id": 5824299777, "lat": 5.6426972, "lon": -0.2380852}, {"type": "node", "id": 5824299778, "lat": 5.6427402, "lon": -0.2380697}, {"type": "node", "id": 5832133685, "lat": 5.6648217, "lon": 0.0010575, "tags": {"amenity": "atm", "opening_hours": "24/7", "operator": "Fidelity Bank"}}, {"type": "node", "id": 5894676835, "lat": 5.5550374, "lon": -0.2011401, "tags": {"amenity": "atm", "name": "First National Bank"}}, {"type": "node", "id": 6016629524, "lat": 5.7269601, "lon": -0.1600729, "tags": {"amenity": "atm", "brand": "Fidelity Bank", "brand:wikidata": "Q5446778", "brand:wikipedia": "en:Fidelity Bank Ghana", "name": "Fidelity Bank", "operator": "Fidelity Bank", "operator:wikidata": "Q5446778", "operator:wikipedia": "en:Fidelity Bank Ghana"}}, {"type": "node", "id": 6016629687, "lat": 5.7269847, "lon": -0.1601217, "tags": {"amenity": "atm", "brand": "Ecobank", "brand:wikidata": "Q930225", "brand:wikipedia": "en:Ecobank", "name": "Ecobank", "operator": "Ecobank", "operator:wikidata": "Q930225", "operator:wikipedia": "en:Ecobank"}}, {"type": "node", "id": 6021414866, "lat": 5.5578034, "lon": -0.2053675, "tags": {"amenity": "atm", "brand": "Ecobank", "brand:wikidata": "Q930225", "brand:wikipedia": "en:Ecobank", "name": "Ecobank", "operator": "Ecobank", "operator:wikidata": "Q930225", "operator:wikipedia": "en:Ecobank"}}, {"type": "node", "id": 6100969251, "lat": 5.5769876, "lon": -0.2279777, "tags": {"amenity": "atm", "name": "Stanbic"}}, {"type": "node", "id": 6124930118, "lat": 5.5588577, "lon": -0.2004381, "tags": {"addr:city": "Accra", "addr:country": "GH", "addr:region": "Greater Accra", "addr:street": "Cruickshank Road", "addr:suburb": "Ridge", "amenity": "atm", "brand": "Absa", "brand:wikidata": "Q58641733", "brand:wikipedia": "en:Absa Group Limited", "contact:instagram": "absaghana", "contact:linkedin": "absa-ghana", "contact:twitter": "AbsaGhana", "contact:whatsapp": "+233 50 164 4644", "contact:youtube": "https://www.youtube.com/channel/UCKpKPyfJ69tf7lnxudpzKJQ", "email": "service.excellence.GH@absa.africa", "facebook": "AbsaGhana", "name": "Absa ATM", "opening_hours": "24/7", "operator": "Absa Bank Ghana Limited", "operator:type": "public", "operator:wikidata": "Q96371413", "operator:wikipedia": "en:Absa Bank Ghana", "phone": "+233 30 242 9150", "website": "https://www.absa.com.gh"}}, {"type": "node", "id": 6233792657, "lat": 5.7211964, "lon": -0.1724533, "tags": {"addr:city": "Accra", "addr:country": "GH", "addr:region": "Greater Accra", "addr:street": "Aburi Road", "addr:suburb": "Frafraha", "amenity": "atm", "brand": "Absa", "brand:wikidata": "Q58641733", "brand:wikipedia": "en:Absa Group Limited", "contact:instagram": "absaghana", "contact:linkedin": "absa-ghana", "contact:twitter": "AbsaGhana", "contact:whatsapp": "+233 50 164 4644", "contact:youtube": "https://www.youtube.com/channel/UCKpKPyfJ69tf7lnxudpzKJQ", "email": "service.excellence.GH@absa.africa", "facebook": "AbsaGhana", "name": "Absa ATM", "old_name": "Barclays Bank", "opening_hours": "24/7", "operator": "Absa Bank Ghana Limited", "operator:type": "public", "operator:wikidata": "Q96371413", "operator:wikipedia": "en:Absa Bank Ghana", "phone": "+233 30 242 9150", "website": "https://www.absa.com.gh"}}, {"type": "node", "id": 6261964109, "lat": 5.5713162, "lon": -0.2545749, "tags": {"addr:city": "Accra", "addr:country": "GH", "addr:region": "Greater Accra", "addr:street": "Dansoman Road", "addr:suburb": "Mataheko", "amenity": "atm", "brand": "Absa", "brand:wikidata": "Q58641733", "brand:wikipedia": "en:Absa Group Limited", "contact:instagram": "absaghana", "contact:linkedin": "absa-ghana", "contact:twitter": "AbsaGhana", "contact:whatsapp": "+233 50 164 4644", "contact:youtube": "https://www.youtube.com/channel/UCKpKPyfJ69tf7lnxudpzKJQ", "email": "service.excellence.GH@absa.africa", "facebook": "AbsaGhana", "name": "Absa ATM", "old_name": "Barclays Bank", "opening_hours": "24/7", "operator": "Absa Bank Ghana Limited", "operator:type": "public", "operator:wikidata": "Q96371413", "operator:wikipedia": "en:Absa Bank Ghana", "phone": "+233 30 242 9150", "website": "https://www.absa.com.gh"}}, {"type": "node", "id": 6264082642, "lat": 5.5510052, "lon": -0.1963491, "tags": {"amenity": "atm", "name": "Access ATM"}}, {"type": "node", "id": 6283465056, "lat": 5.6104784, "lon": -0.2353942, "tags": {"addr:city": "Accra", "addr:suburb": "Akweteyman", "amenity": "atm", "brand": "Ecobank", "brand:wikidata": "Q930225", "brand:wikipedia": "en:Ecobank", "name": "Ecobank", "network": "MasterCard", "operator": "Ecobank", "operator:wikidata": "Q930225", "operator:wikipedia": "en:Ecobank", "source": "Open Cities Accra / GARID- Field Survey"}}, {"type": "node", "id": 6283965165, "lat": 5.588014, "lon": -0.1831925, "tags": {"amenity": "atm", "brand": "GCB Bank", "brand:wikidata": "Q1521346", "brand:wikipedia": "en:GCB Bank", "check_date": "2023-12-11", "currency:GHS": "yes", "name": "GCB Bank", "opening_hours": "24/7", "operator": "GCB Bank", "operator:wikidata": "Q1521346", "operator:wikipedia": "en:GCB Bank", "wheelchair": "limited"}}, {"type": "node", "id": 6283965460, "lat": 5.5880999, "lon": -0.1832954, "tags": {"addr:city": "Accra", "addr:country": "GH", "addr:region": "Greater Accra", "addr:street": "RSM Sefordzi Drive", "addr:suburb": "Kanda", "alt_name": "Standard Chartered 37 ATM", "amenity": "atm", "branch": "37 Military Hospital", "brand": "Standard Chartered", "brand:wikidata": "Q548278", "brand:wikipedia": "en:Standard Chartered", "check_date": "2023-12-11", "contact:instagram": "stanchartgh", "contact:linkedin": "standardchartered", "contact:twitter": "StanChartGH", "email": "feedback.ghana@sc.com", "facebook": "StandardCharteredGH", "name": "Standard Chartered", "opening_hours": "24/7", "operator": "Standard Chartered Ghana", "operator:type": "public", "operator:wikidata": "Q7598195", "operator:wikipedia": "en:Standard Chartered Ghana", "phone": "+233 30 263 3428; +233 30 274 0100", "website": "https://www.sc.com/gh"}}, {"type": "node", "id": 6283965461, "lat": 5.5880835, "lon": -0.1832875, "tags": {"amenity": "atm", "check_date": "2023-12-11", "currency:GHS": "yes", "name": "FBN Bank", "opening_hours": "24/7"}}, {"type": "node", "id": 6283966268, "lat": 5.5880325, "lon": -0.1832388, "tags": {"amenity": "atm", "brand": "UBA", "brand:wikidata": "Q513457", "brand:wikipedia": "en:United Bank for Africa", "check_date": "2023-12-11", "name": "UBA", "official_name": "United Bank for Africa", "opening_hours": "24/7", "operator": "UBA", "operator:wikidata": "Q513457", "operator:wikipedia": "en:United Bank for Africa"}}, {"type": "node", "id": 6290688885, "lat": 5.6265079, "lon": -0.1545004, "tags": {"amenity": "atm", "brand": "Ecobank", "brand:wikidata": "Q930225", "brand:wikipedia": "en:Ecobank", "name": "Ecobank", "opening_hours": "24/7", "operator": "Ecobank", "operator:wikidata": "Q930225", "operator:wikipedia": "en:Ecobank"}}, {"type": "node", "id": 6293326229, "lat": 5.7063182, "lon": -0.1650662, "tags": {"amenity": "atm", "name": "CAL Bank"}}, {"type": "node", "id": 6296308187, "lat": 5.5987065, "lon": -0.1796262, "tags": {"addr:city": "Accra", "addr:country": "GH", "addr:region": "Greater Accra", "addr:street": "Liberation Road", "addr:suburb": "Airport City", "alt_name": "Standard Chartered Opeibea ATM", "amenity": "atm", "branch": "Airport City", "brand": "Standard Chartered", "brand:wikidata": "Q548278", "brand:wikipedia": "en:Standard Chartered", "cash_in": "yes", "check_date": "2023-04-28", "contact:instagram": "stanchartgh", "contact:linkedin": "standardchartered", "contact:twitter": "StanChartGH", "currency:EUR": "yes", "currency:USD": "yes", "description": "Ground Floor, Opeibea House", "drive_through": "no", "email": "feedback.ghana@sc.com", "facebook": "StandardCharteredGH", "name": "Standard Chartered ATM", "opening_hours": "24/7", "operator": "Standard Chartered Ghana", "operator:type": "public", "operator:wikidata": "Q7598195", "operator:wikipedia": "en:Standard Chartered Ghana", "phone": "+233 30 263 3428; +233 30 274 0100", "source": "local knowledge", "website": "https://www.sc.com/gh", "wheelchair": "limited"}}, {"type": "node", "id": 6378125338, "lat": 5.5640165, "lon": -0.1950795, "tags": {"amenity": "atm", "brand": "CalBank", "contact:linkedin": "calbank-plc", "contact:twitter": "CalBankPLC", "contact:whatsapp": "+233 24 242 6398", "contact:youtube": "https://www.youtube.com/channel/UCzczU8uI8AFTaXfM-2GDhYQ", "email": "customercare@calbank.net", "facebook": "CalBankPLC", "name": "CalBank ATM", "operator": "CalBank PLC", "operator:type": "public", "operator:wikidata": "Q4035559", "operator:wikipedia": "en:CalBank", "website": "https://calbank.net"}}, {"type": "node", "id": 6417660845, "lat": 5.5546656, "lon": -0.211362, "tags": {"amenity": "atm", "brand": "GCB Bank", "brand:wikidata": "Q1521346", "brand:wikipedia": "en:GCB Bank", "name": "GCB Bank", "opening_hours": "24/7", "operator": "GCB Bank", "operator:wikidata": "Q1521346", "operator:wikipedia": "en:GCB Bank"}}, {"type": "node", "id": 6433578485, "lat": 5.5636037, "lon": -0.140297, "tags": {"amenity": "atm", "opening_hours": "24/7", "operator": "GCB"}}, {"type": "node", "id": 6433598685, "lat": 5.5770984, "lon": -0.1103071, "tags": {"amenity": "atm", "opening_hours": "24/7", "operator": "UBA"}}, {"type": "node", "id": 6433598687, "lat": 5.5859838, "lon": -0.1011137, "tags": {"amenity": "atm", "opening_hours": "24/7", "operator": "ADB"}}, {"type": "node", "id": 6433613785, "lat": 5.6003389, "lon": -0.0799334, "tags": {"amenity": "atm", "check_date": "2024-02-02", "currency:GHS": "yes", "opening_hours": "24/7", "operator": "ADB"}}, {"type": "node", "id": 6435419284, "lat": 5.5895836, "lon": -0.0963644, "tags": {"amenity": "atm", "brand": "Stanbic Bank", "brand:wikidata": "Q7597999", "brand:wikipedia": "en:Stanbic Bank", "currency:others": "no", "drive_through": "no", "name": "Stanbic Bank", "operator": "Stanbic Bank", "operator:wikidata": "Q7597999", "operator:wikipedia": "en:Stanbic Bank"}}, {"type": "node", "id": 6442309464, "lat": 5.6004372, "lon": -0.1972839, "tags": {"amenity": "atm", "name": "Societe General", "opening_hours": "24/7"}}, {"type": "node", "id": 6448342772, "lat": 5.564095, "lon": -0.1422342, "tags": {"amenity": "atm", "brand": "Fidelity Bank", "brand:wikidata": "Q5446778", "brand:wikipedia": "en:Fidelity Bank Ghana", "drive_through": "no", "name": "Fidelity Bank", "operator": "Fidelity Bank", "operator:wikidata": "Q5446778", "operator:wikipedia": "en:Fidelity Bank Ghana"}}, {"type": "node", "id": 6448690885, "lat": 5.5719027, "lon": -0.1909575, "tags": {"addr:city": "Accra", "addr:country": "GH", "addr:region": "Greater Accra", "addr:street": "Independence Avenue", "addr:suburb": "North Ridge", "alt_name": "Standard Chartered Head Office ATM", "amenity": "atm", "brand": "Standard Chartered", "brand:wikidata": "Q548278", "brand:wikipedia": "en:Standard Chartered", "cash_in": "yes", "check_date": "2024-02-05", "contact:instagram": "stanchartgh", "contact:linkedin": "standardchartered", "contact:twitter": "StanChartGH", "covered": "yes", "currency:GHS": "yes", "description": "Head Office Building, Ground Floor", "drive_through": "no", "email": "feedback.ghana@sc.com", "facebook": "StandardCharteredGH", "lit": "yes", "name": "Standard Chartered ATM", "opening_hours": "24/7", "operator": "Standard Chartered Ghana", "operator:type": "public", "operator:wikidata": "Q7598195", "operator:wikipedia": "en:Standard Chartered Ghana", "phone": "+233 30 263 3428; +233 30 274 0100", "source": "local knowledge", "website": "https://www.sc.com/gh", "wheelchair": "limited"}}, {"type": "node", "id": 6453278436, "lat": 5.6132308, "lon": -0.0744553, "tags": {"amenity": "atm", "name": "Fidelity"}}, {"type": "node", "id": 6470841386, "lat": 5.5762849, "lon": -0.1525486, "tags": {"amenity": "atm", "opening_hours": "24/7", "operator": "Cal Bank"}}, {"type": "node", "id": 6474879775, "lat": 5.5726143, "lon": -0.2022744, "tags": {"amenity": "atm", "brand": "Ecobank", "brand:wikidata": "Q930225", "brand:wikipedia": "en:Ecobank", "name": "Ecobank", "operator": "Ecobank", "operator:wikidata": "Q930225", "operator:wikipedia": "en:Ecobank"}}, {"type": "node", "id": 6476613981, "lat": 5.6723813, "lon": -0.2045345, "tags": {"amenity": "atm", "name": "CAL Bank"}}, {"type": "node", "id": 6478470985, "lat": 5.5976642, "lon": -0.082194, "tags": {"amenity": "atm", "opening_hours": "24/7", "operator": "Access Bank"}}, {"type": "node", "id": 6502572230, "lat": 5.6287044, "lon": -0.0900894, "tags": {"amenity": "atm", "brand": "Ecobank", "brand:wikidata": "Q930225", "brand:wikipedia": "en:Ecobank", "name": "Ecobank", "opening_hours": "24/7", "operator": "Ecobank", "operator:wikidata": "Q930225", "operator:wikipedia": "en:Ecobank"}}, {"type": "node", "id": 6504992214, "lat": 5.6388567, "lon": -0.2094688, "tags": {"amenity": "atm", "brand": "Stanbic Bank", "brand:wikidata": "Q7597999", "brand:wikipedia": "en:Stanbic Bank", "name": "Stanbic Bank", "operator": "Stanbic Bank", "operator:wikidata": "Q7597999", "operator:wikipedia": "en:Stanbic Bank"}}, {"type": "node", "id": 6504993550, "lat": 5.6388272, "lon": -0.2094948, "tags": {"amenity": "atm", "name": "UMB"}}, {"type": "node", "id": 6525743269, "lat": 5.5964793, "lon": -0.2229653, "tags": {"amenity": "atm", "brand": "Ecobank", "brand:wikidata": "Q930225", "name": "Ecobank", "operator": "Ecobank", "operator:wikidata": "Q930225"}}, {"type": "node", "id": 6564975812, "lat": 5.5573157, "lon": -0.2394712, "tags": {"addr:city": "Accra", "addr:country": "GH", "addr:region": "Greater Accra", "addr:suburb": "Larterbiokorshie", "amenity": "atm", "brand": "Absa", "brand:wikidata": "Q58641733", "brand:wikipedia": "en:Absa Group Limited", "contact:instagram": "absaghana", "contact:linkedin": "absa-ghana", "contact:twitter": "AbsaGhana", "contact:whatsapp": "+233 50 164 4644", "contact:youtube": "https://www.youtube.com/channel/UCKpKPyfJ69tf7lnxudpzKJQ", "email": "service.excellence.GH@absa.africa", "facebook": "AbsaGhana", "name": "Absa ATM", "opening_hours": "24/7", "operator": "Absa Bank Ghana Limited", "operator:type": "public", "operator:wikidata": "Q96371413", "operator:wikipedia": "en:Absa Bank Ghana", "phone": "+233 30 242 9150", "website": "https://www.absa.com.gh"}}, {"type": "node", "id": 6631517887, "lat": 5.5908865, "lon": -0.1807567, "tags": {"amenity": "atm", "cash_in": "yes", "check_date": "2023-06-05", "covered": "no", "currency:GHS": "yes", "indoor": "no", "opening_hours": "24/7", "operator": "CalBank", "source": "local knowledge", "wheelchair": "limited"}}, {"type": "node", "id": 6643148917, "lat": 5.6066217, "lon": -0.2471498, "tags": {"amenity": "atm", "ezwich": "yes", "name": "Prudential Bank", "opening_hours": "24/7"}}, {"type": "node", "id": 6700350653, "lat": 5.587739, "lon": -0.0993451, "tags": {"amenity": "atm", "name": "CAL Bank"}}, {"type": "node", "id": 6709980885, "lat": 5.5664049, "lon": -0.1896394, "tags": {"amenity": "atm", "brand": "Absa", "brand:wikidata": "Q58641733", "brand:wikipedia": "en:Absa Group Limited", "name": "Absa", "old_name": "Barclays", "operator": "Absa Group Limited"}}, {"type": "node", "id": 6727526673, "lat": 5.5596958, "lon": -0.1977227, "tags": {"amenity": "atm", "brand": "GT Bank", "brand:wikidata": "Q579747", "name": "GT Bank", "official_name": "Guaranty Trust Bank", "operator": "GT Bank", "operator:wikidata": "Q579747"}}, {"type": "node", "id": 6746309392, "lat": 5.6259665, "lon": -0.0826842, "tags": {"amenity": "atm", "brand": "Fidelity Bank", "brand:wikidata": "Q5446778", "brand:wikipedia": "en:Fidelity Bank Ghana", "name": "Fidelity Bank", "operator": "Fidelity Bank", "operator:wikidata": "Q5446778", "operator:wikipedia": "en:Fidelity Bank Ghana"}}, {"type": "node", "id": 6755642418, "lat": 5.6378009, "lon": -0.1714665, "tags": {"amenity": "atm", "brand": "Ecobank", "brand:wikidata": "Q930225", "brand:wikipedia": "en:Ecobank", "name": "Ecobank", "operator": "Ecobank", "operator:wikidata": "Q930225", "operator:wikipedia": "en:Ecobank"}}, {"type": "node", "id": 6755673228, "lat": 5.6301937, "lon": -0.1746693, "tags": {"amenity": "atm", "name": "UMB"}}, {"type": "node", "id": 6795168751, "lat": 5.565334, "lon": -0.1816294, "tags": {"amenity": "atm", "name": "First National Bank"}}, {"type": "node", "id": 6917975842, "lat": 5.5570551, "lon": -0.1661134, "tags": {"amenity": "atm", "brand": "Standard Chartered", "brand:wikidata": "Q548278", "brand:wikipedia": "en:Standard Chartered", "name": "Standard Chartered", "operator": "Standard Chartered", "operator:wikidata": "Q548278", "operator:wikipedia": "en:Standard Chartered"}}, {"type": "node", "id": 7158356786, "lat": 5.7222706, "lon": 0.0189667, "tags": {"amenity": "atm", "brand": "CalBank", "contact:linkedin": "calbank-plc", "contact:twitter": "CalBankPLC", "contact:whatsapp": "+233 24 242 6398", "contact:youtube": "https://www.youtube.com/channel/UCzczU8uI8AFTaXfM-2GDhYQ", "email": "customercare@calbank.net", "facebook": "CalBankPLC", "name": "CalBank ATM", "operator": "CalBank PLC", "operator:type": "public", "operator:wikidata": "Q4035559", "operator:wikipedia": "en:CalBank", "website": "https://calbank.net"}}, {"type": "node", "id": 7167386131, "lat": 5.5722805, "lon": -0.2033363, "tags": {"amenity": "atm", "brand": "GT Bank", "brand:wikidata": "Q579747", "brand:wikipedia": "en:Guaranty Trust Bank", "cash_in": "yes", "check_date": "2023-04-28", "currency:EUR": "yes", "currency:USD": "yes", "drive_through": "no", "name": "GT Bank", "official_name": "Guaranty Trust Bank", "operator": "GT Bank", "operator:wikidata": "Q579747", "operator:wikipedia": "en:Guaranty Trust Bank", "source": "local knowledge", "wheelchair": "limited"}}, {"type": "node", "id": 7167386132, "lat": 5.5720783, "lon": -0.2035086, "tags": {"amenity": "atm", "cash_in": "yes", "check_date": "2023-06-05", "currency:GHS": "yes", "drive_through": "no", "operator": "Absa", "source": "local knowledge", "wheelchair": "limited"}}, {"type": "node", "id": 7168959221, "lat": 5.5935477, "lon": -0.2209864, "tags": {"amenity": "atm", "name": "CBG"}}, {"type": "node", "id": 7168961009, "lat": 5.5935345, "lon": -0.2210124, "tags": {"amenity": "atm", "brand": "GCB Bank", "brand:wikidata": "Q1521346", "brand:wikipedia": "en:GCB Bank", "name": "GCB Bank", "operator": "GCB Bank", "operator:wikidata": "Q1521346", "operator:wikipedia": "en:GCB Bank"}}, {"type": "node", "id": 7184096307, "lat": 5.6002475, "lon": -0.1879708, "tags": {"amenity": "atm", "name": "GCB"}}, {"type": "node", "id": 7238982603, "lat": 5.5874418, "lon": -0.099916, "tags": {"amenity": "atm", "drive_through": "no", "name": "UMB", "operator": "UMB"}}, {"type": "node", "id": 7277097285, "lat": 5.582585, "lon": -0.2084917, "tags": {"amenity": "atm", "operator": "Access bank Ghana"}}, {"type": "node", "id": 7335463318, "lat": 5.6377978, "lon": -0.241022, "tags": {"amenity": "atm", "brand": "Zenith Bank", "brand:wikidata": "Q5978240", "brand:wikipedia": "en:Guaranty Trust Bank", "name": "Zenith Bank", "official_name": "Guaranty Trust Bank", "operator": "Zenith Bank", "operator:wikidata": "Q5978240", "operator:wikipedia": "en:Guaranty Trust Bank"}}, {"type": "node", "id": 7344680315, "lat": 5.6383364, "lon": -0.2414706, "tags": {"amenity": "atm", "level": "1", "name": "First National Bank"}}, {"type": "node", "id": 7344680330, "lat": 5.6384652, "lon": -0.2416194, "tags": {"amenity": "atm", "name": "CBG"}}, {"type": "node", "id": 7344680356, "lat": 5.637948, "lon": -0.2411259, "tags": {"amenity": "atm", "brand": "Stanbic Bank", "brand:wikidata": "Q7597999", "brand:wikipedia": "en:Stanbic Bank", "name": "Stanbic Bank", "operator": "Stanbic Bank", "operator:wikidata": "Q7597999", "operator:wikipedia": "en:Stanbic Bank"}}, {"type": "node", "id": 7344680357, "lat": 5.6378049, "lon": -0.2410253, "tags": {"amenity": "atm", "brand": "UBA", "brand:wikidata": "Q513457", "brand:wikipedia": "en:United Bank for Africa", "name": "UBA", "official_name": "United Bank for Africa", "operator": "UBA", "operator:wikidata": "Q513457", "operator:wikipedia": "en:United Bank for Africa"}}, {"type": "node", "id": 7526151278, "lat": 5.6446099, "lon": -0.2473942, "tags": {"amenity": "atm", "name": "UMB"}}, {"type": "node", "id": 7526172658, "lat": 5.6446213, "lon": -0.247402, "tags": {"amenity": "atm", "name": "Stanbic"}}, {"type": "node", "id": 7526185331, "lat": 5.6446005, "lon": -0.2473878, "tags": {"amenity": "atm", "name": "Access"}}, {"type": "node", "id": 7792453245, "lat": 5.6576255, "lon": -0.2075617, "tags": {"addr:city": "Accra", "addr:country": "GH", "addr:region": "Greater Accra", "addr:street": "Westland Avenue", "addr:suburb": "Westland", "alt_name": "Standard Chartered Westland Digital Hub", "amenity": "atm", "atm": "yes", "brand": "Standard Chartered", "brand:wikidata": "Q548278", "brand:wikipedia": "en:Standard Chartered", "cash_in": "yes", "check_date": "2022-08-24", "contact:instagram": "stanchartgh", "contact:linkedin": "standardchartered", "contact:twitter": "StanChartGH", "description": "Westlands Avenue, near Westlands Police Station", "email": "feedback.ghana@sc.com", "facebook": "StandardCharteredGH", "name": "Standard Chartered Digital Hub", "opening_hours": "24/7", "operator": "Standard Chartered Ghana", "operator:type": "public", "operator:wikidata": "Q7598195", "operator:wikipedia": "en:Standard Chartered Ghana", "phone": "+233 30 263 3428; +233 30 274 0100", "website": "https://www.sc.com/gh"}}, {"type": "node", "id": 7852458060, "lat": 5.6388537, "lon": -0.209461, "tags": {"amenity": "atm", "name": "UMB"}}, {"type": "node", "id": 7883330982, "lat": 5.6356798, "lon": -0.2147771, "tags": {"amenity": "atm", "brand": "Fidelity Bank", "brand:wikidata": "Q5446778", "brand:wikipedia": "en:Fidelity Bank Ghana", "name": "Fidelity Bank", "operator": "Fidelity Bank", "operator:wikidata": "Q5446778", "operator:wikipedia": "en:Fidelity Bank Ghana"}}, {"type": "node", "id": 7944446309, "lat": 5.5796374, "lon": -0.1554638, "tags": {"addr:city": "Accra", "addr:country": "GH", "addr:region": "Greater Accra", "addr:street": "Giffard Road", "addr:suburb": "Burma Camp", "amenity": "atm", "brand": "Absa", "brand:wikidata": "Q58641733", "brand:wikipedia": "en:Absa Group Limited", "contact:instagram": "absaghana", "contact:linkedin": "absa-ghana", "contact:twitter": "AbsaGhana", "contact:whatsapp": "+233 50 164 4644", "contact:youtube": "https://www.youtube.com/channel/UCKpKPyfJ69tf7lnxudpzKJQ", "email": "service.excellence.GH@absa.africa", "facebook": "AbsaGhana", "name": "Absa ATM", "opening_hours": "24/7", "operator": "Absa Bank Ghana Limited", "operator:type": "public", "operator:wikidata": "Q96371413", "operator:wikipedia": "en:Absa Bank Ghana", "phone": "+233 30 242 9150", "website": "https://www.absa.com.gh"}}, {"type": "node", "id": 7973230055, "lat": 5.7043594, "lon": -0.0145374, "tags": {"amenity": "atm", "brand": "Standard Chartered", "brand:wikidata": "Q548278", "brand:wikipedia": "en:Standard Chartered", "name": "Standard Chartered", "operator": "Standard Chartered", "operator:wikidata": "Q548278", "operator:wikipedia": "en:Standard Chartered"}}, {"type": "node", "id": 8066858085, "lat": 5.6217584, "lon": -0.0706745, "tags": {"amenity": "atm", "opening_hours": "24/7", "operator": "Stanbic Bank"}}, {"type": "node", "id": 8380205785, "lat": 5.5722104, "lon": -0.2033577, "tags": {"amenity": "atm", "brand": "GT Bank", "brand:wikidata": "Q579747", "cash_in": "yes", "check_date": "2024-01-08", "currency:EUR": "yes", "currency:USD": "yes", "drive_through": "no", "fixme": "exact position", "official_name": "Guaranty Trust Bank", "opening_hours": "Mo-Fr 08:30-16:00; Sa-Su,PH off", "operator": "GT Bank", "operator:wikidata": "Q579747", "wheelchair": "limited"}}, {"type": "node", "id": 8461297717, "lat": 5.6217246, "lon": -0.0706904, "tags": {"amenity": "atm", "opening_hours": "24/7", "operator": "Ecobank"}}, {"type": "node", "id": 8461324417, "lat": 5.5629541, "lon": -0.2285526, "tags": {"amenity": "atm", "opening_hours": "24/7", "operator": "GCB"}}, {"type": "node", "id": 8461324517, "lat": 5.5628883, "lon": -0.2286085, "tags": {"amenity": "atm", "brand": "Fidelity Bank", "brand:wikidata": "Q5446778", "cash_in": "yes", "check_date": "2023-06-05", "currency:GHS": "yes", "drive_through": "no", "opening_hours": "24/7", "operator": "Fidelity Bank", "operator:wikidata": "Q5446778", "source": "local knowledge"}}, {"type": "node", "id": 8567023017, "lat": 5.5851027, "lon": -0.2081516, "tags": {"amenity": "atm", "opening_hours": "24/7", "operator": "GCB"}}, {"type": "node", "id": 8571994217, "lat": 5.6807893, "lon": -0.1281047, "tags": {"amenity": "atm", "operator": "UBA"}}, {"type": "node", "id": 8572227019, "lat": 5.6424479, "lon": -0.1520891, "tags": {"amenity": "atm", "opening_hours": "24/7", "operator": "First Bank"}}, {"type": "node", "id": 8572227020, "lat": 5.6424305, "lon": -0.1521246, "tags": {"amenity": "atm", "opening_hours": "24/7", "operator": "SG Ghana"}}, {"type": "node", "id": 8572227118, "lat": 5.6424621, "lon": -0.1520491, "tags": {"amenity": "atm", "opening_hours": "24/7", "operator": "CGB"}}, {"type": "node", "id": 8598911618, "lat": 5.7091864, "lon": -0.0150366, "tags": {"amenity": "atm", "opening_hours": "24/7", "operator": "EcoBank"}}, {"type": "node", "id": 8888236202, "lat": 5.5986827, "lon": -0.1807506, "tags": {"addr:city": "Accra", "addr:country": "GH", "addr:region": "Greater Accra", "addr:street": "Casely Hayford Road", "addr:suburb": "Airport City", "amenity": "atm", "brand": "Absa", "brand:wikidata": "Q58641733", "brand:wikipedia": "en:Absa Group Limited", "contact:instagram": "absaghana", "contact:linkedin": "absa-ghana", "contact:twitter": "AbsaGhana", "contact:whatsapp": "+233 50 164 4644", "contact:youtube": "https://www.youtube.com/channel/UCKpKPyfJ69tf7lnxudpzKJQ", "email": "service.excellence.GH@absa.africa", "facebook": "AbsaGhana", "name": "Absa ATM", "opening_hours": "24/7", "operator": "Absa Bank Ghana Limited", "operator:type": "public", "operator:wikidata": "Q96371413", "operator:wikipedia": "en:Absa Bank Ghana", "phone": "+233 30 242 9150", "website": "https://www.absa.com.gh"}}, {"type": "node", "id": 9246147717, "lat": 5.6686399, "lon": -0.1884872, "tags": {"amenity": "atm", "opening_hours": "24/7", "operator": "ADB"}}, {"type": "node", "id": 9404588796, "lat": 5.6842419, "lon": -0.1937605, "tags": {"amenity": "atm", "name": "Ecobank ATM"}}, {"type": "node", "id": 9659870417, "lat": 5.6565539, "lon": -0.1815048, "tags": {"amenity": "atm", "currency:GHS": "yes", "operator": "ECOBANK"}}, {"type": "node", "id": 9738264576, "lat": 5.5526861, "lon": -0.3265549, "tags": {"amenity": "atm", "operator": "Prudential Bank"}}, {"type": "node", "id": 9863763489, "lat": 5.5677335, "lon": -0.2148393, "tags": {"amenity": "atm", "brand": "CalBank", "contact:linkedin": "calbank-plc", "contact:twitter": "CalBankPLC", "contact:whatsapp": "+233 24 242 6398", "contact:youtube": "https://www.youtube.com/channel/UCzczU8uI8AFTaXfM-2GDhYQ", "email": "customercare@calbank.net", "facebook": "CalBankPLC", "name": "CalBank ATM", "operator": "CalBank PLC", "operator:type": "public", "operator:wikidata": "Q4035559", "operator:wikipedia": "en:CalBank", "website": "https://calbank.net"}}, {"type": "node", "id": 10218497822, "lat": 5.5620709, "lon": -0.1816359, "tags": {"amenity": "atm", "operator": "UBA"}}, {"type": "node", "id": 10246594296, "lat": 5.717652, "lon": -0.1749372, "tags": {"amenity": "atm", "name": "umb"}}, {"type": "node", "id": 10283059257, "lat": 5.6669887, "lon": -0.1861754, "tags": {"amenity": "atm", "currency:GHS": "yes", "drive_through": "no", "operator": "UMB(Universal Merchant Bank)"}}, {"type": "node", "id": 10284273404, "lat": 5.5478881, "lon": -0.3478572, "tags": {"amenity": "atm", "brand": "UBA", "brand:wikidata": "Q513457", "name": "UBA", "official_name": "United Bank for Africa", "operator": "UBA", "operator:wikidata": "Q513457"}}, {"type": "node", "id": 10284303741, "lat": 5.5751658, "lon": -0.2772137, "tags": {"amenity": "atm", "brand": "Zenith Bank", "brand:wikidata": "Q5978240", "name": "Zenith Bank", "operator": "Zenith Bank", "operator:wikidata": "Q5978240"}}, {"type": "node", "id": 10296827010, "lat": 5.6669675, "lon": -0.1861759, "tags": {"amenity": "atm", "operator": "GCB (Ghana Commercial Bank)"}}, {"type": "node", "id": 10296827011, "lat": 5.6669368, "lon": -0.1861759, "tags": {"amenity": "atm", "brand": "Access Bank", "brand:wikidata": "Q4672418", "operator": "Access Bank", "operator:wikidata": "Q4672418"}}, {"type": "node", "id": 10623187222, "lat": 5.6034747, "lon": -0.1752817, "tags": {"amenity": "atm", "name": "umb"}}, {"type": "node", "id": 10623187223, "lat": 5.6034745, "lon": -0.1752616, "tags": {"addr:city": "Accra", "addr:country": "GH", "addr:region": "Greater Accra", "addr:street": "Airport By-Pass", "addr:suburb": "Airport City", "alt_name": "Standard Chartered Airport Shell ATM", "amenity": "atm", "brand": "Standard Chartered", "brand:wikidata": "Q548278", "brand:wikipedia": "en:Standard Chartered", "cash_in": "no", "contact:instagram": "stanchartgh", "contact:linkedin": "standardchartered", "contact:twitter": "StanChartGH", "description": "Airport Shell Service Statioin, near Airport roundabout, Airport, Accra", "email": "feedback.ghana@sc.com", "facebook": "StandardCharteredGH", "name": "Standard Chartered ATM", "opening_hours": "24/7", "operator": "Standard Chartered Ghana", "operator:type": "public", "operator:wikidata": "Q7598195", "operator:wikipedia": "en:Standard Chartered Ghana", "phone": "+233 30 263 3428; +233 30 274 0100", "website": "https://www.sc.com/gh"}}, {"type": "node", "id": 10623187224, "lat": 5.603475, "lon": -0.1753025, "tags": {"addr:city": "Accra", "addr:country": "GH", "addr:region": "Greater Accra", "addr:street": "Airport By-Pass", "addr:suburb": "Airport City", "amenity": "atm", "brand": "Absa", "brand:wikidata": "Q58641733", "brand:wikipedia": "en:Absa Group Limited", "contact:instagram": "absaghana", "contact:linkedin": "absa-ghana", "contact:twitter": "AbsaGhana", "contact:whatsapp": "+233 50 164 4644", "contact:youtube": "https://www.youtube.com/channel/UCKpKPyfJ69tf7lnxudpzKJQ", "email": "service.excellence.GH@absa.africa", "facebook": "AbsaGhana", "name": "Absa ATM", "opening_hours": "24/7", "operator": "Absa Bank Ghana Limited", "operator:type": "public", "operator:wikidata": "Q96371413", "operator:wikipedia": "en:Absa Bank Ghana", "website": "https://www.absa.com.gh"}}, {"type": "node", "id": 10623187225, "lat": 5.6034752, "lon": -0.1753239, "tags": {"amenity": "atm", "name": "Fidelity Bank"}}, {"type": "node", "id": 11059484705, "lat": 5.5503338, "lon": -0.2035362, "tags": {"amenity": "atm"}}, {"type": "node", "id": 11059509005, "lat": 5.5454321, "lon": -0.2066077, "tags": {"amenity": "atm"}}, {"type": "node", "id": 11066096742, "lat": 5.6510275, "lon": -0.1875888, "tags": {"amenity": "atm", "brand": "GCB Bank", "brand:wikidata": "Q1521346", "check_date": "2023-07-25", "description": "An ATM Machine", "internet_access": "no", "name": "GCB Bank ATM", "operator": "GCB Bank", "operator:wikidata": "Q1521346"}}, {"type": "node", "id": 11216929537, "lat": 5.6859255, "lon": -0.032484, "tags": {"amenity": "atm", "operator": "Cal Bank"}}, {"type": "node", "id": 11242001222, "lat": 5.705818, "lon": -0.1483852, "tags": {"addr:city": "Accra", "addr:country": "GH", "addr:region": "Greater Accra", "addr:suburb": "Adenta", "amenity": "atm", "brand": "Absa", "brand:wikidata": "Q58641733", "brand:wikipedia": "en:Absa Group Limited", "contact:instagram": "absaghana", "contact:linkedin": "absa-ghana", "contact:twitter": "AbsaGhana", "contact:whatsapp": "+233 50 164 4644", "contact:youtube": "https://www.youtube.com/channel/UCKpKPyfJ69tf7lnxudpzKJQ", "email": "service.excellence.GH@absa.africa", "facebook": "AbsaGhana", "name": "Absa ATM", "opening_hours": "24/7", "operator": "Absa Bank Ghana Limited", "operator:type": "public", "operator:wikidata": "Q96371413", "operator:wikipedia": "en:Absa Bank Ghana", "phone": "+233 30 242 9150", "website": "https://www.absa.com.gh"}}, {"type": "node", "id": 11242001952, "lat": 5.5791385, "lon": -0.2282593, "tags": {"addr:city": "Accra", "addr:country": "GH", "addr:region": "Greater Accra", "addr:street": "Palace Street", "addr:suburb": "North Kaneshie", "amenity": "atm", "brand": "Absa", "brand:wikidata": "Q58641733", "brand:wikipedia": "en:Absa Group Limited", "contact:instagram": "absaghana", "contact:linkedin": "absa-ghana", "contact:twitter": "AbsaGhana", "contact:whatsapp": "+233 50 164 4644", "contact:youtube": "https://www.youtube.com/channel/UCKpKPyfJ69tf7lnxudpzKJQ", "email": "service.excellence.GH@absa.africa", "facebook": "AbsaGhana", "name": "Absa ATM", "opening_hours": "24/7", "operator": "Absa Bank Ghana Limited", "operator:type": "public", "operator:wikidata": "Q96371413", "operator:wikipedia": "en:Absa Bank Ghana", "phone": "+233 30 242 9150", "website": "https://www.absa.com.gh"}}, {"type": "node", "id": 11242004729, "lat": 5.6204162, "lon": -0.2272455, "tags": {"addr:city": "Accra", "addr:country": "GH", "addr:region": "Greater Accra", "addr:street": "Achimota Forest Road", "addr:suburb": "Achimota", "amenity": "atm", "brand": "Absa", "brand:wikidata": "Q58641733", "brand:wikipedia": "en:Absa Group Limited", "contact:instagram": "absaghana", "contact:linkedin": "absa-ghana", "contact:twitter": "AbsaGhana", "contact:whatsapp": "+233 50 164 4644", "contact:youtube": "https://www.youtube.com/channel/UCKpKPyfJ69tf7lnxudpzKJQ", "email": "service.excellence.GH@absa.africa", "facebook": "AbsaGhana", "name": "Absa ATM", "opening_hours": "24/7", "operator": "Absa Bank Ghana Limited", "operator:type": "public", "operator:wikidata": "Q96371413", "operator:wikipedia": "en:Absa Bank Ghana", "phone": "+233 30 242 9150", "website": "https://www.absa.com.gh"}}, {"type": "node", "id": 11242004892, "lat": 5.8096972, "lon": -0.3486248, "tags": {"addr:country": "GH", "addr:region": "Eastern", "addr:street": "IR1", "addr:town": "Nsawam", "amenity": "atm", "brand": "Absa", "brand:wikidata": "Q58641733", "brand:wikipedia": "en:Absa Group Limited", "contact:instagram": "absaghana", "contact:linkedin": "absa-ghana", "contact:twitter": "AbsaGhana", "contact:whatsapp": "+233 50 164 4644", "contact:youtube": "https://www.youtube.com/channel/UCKpKPyfJ69tf7lnxudpzKJQ", "email": "service.excellence.GH@absa.africa", "facebook": "AbsaGhana", "name": "Absa ATM", "opening_hours": "24/7", "operator": "Absa Bank Ghana Limited", "operator:type": "public", "operator:wikidata": "Q96371413", "operator:wikipedia": "en:Absa Bank Ghana", "phone": "+233 30 242 9150", "website": "https://www.absa.com.gh"}}, {"type": "node", "id": 11242010223, "lat": 5.6373841, "lon": -0.2169994, "tags": {"addr:city": "Accra", "addr:country": "GH", "addr:region": "Greater Accra", "addr:street": "Dome Pillar Two Road", "addr:suburb": "Kissiman", "amenity": "atm", "brand": "Absa", "brand:wikidata": "Q58641733", "brand:wikipedia": "en:Absa Group Limited", "contact:instagram": "absaghana", "contact:linkedin": "absa-ghana", "contact:twitter": "AbsaGhana", "contact:whatsapp": "+233 50 164 4644", "contact:youtube": "https://www.youtube.com/channel/UCKpKPyfJ69tf7lnxudpzKJQ", "email": "service.excellence.GH@absa.africa", "facebook": "AbsaGhana", "name": "Absa ATM", "opening_hours": "24/7", "operator": "Absa Bank Ghana Limited", "operator:type": "public", "operator:wikidata": "Q96371413", "operator:wikipedia": "en:Absa Bank Ghana", "phone": "+233 30 242 9150", "website": "https://www.absa.com.gh"}}, {"type": "node", "id": 11242041290, "lat": 5.6084629, "lon": -0.2094775, "tags": {"addr:city": "Accra", "addr:country": "GH", "addr:region": "Greater Accra", "addr:street": "Olusegun Obasanjo High Street", "addr:suburb": "Abelempke", "amenity": "atm", "brand": "Absa", "brand:wikidata": "Q58641733", "brand:wikipedia": "en:Absa Group Limited", "contact:instagram": "absaghana", "contact:linkedin": "absa-ghana", "contact:twitter": "AbsaGhana", "contact:whatsapp": "+233 50 164 4644", "contact:youtube": "https://www.youtube.com/channel/UCKpKPyfJ69tf7lnxudpzKJQ", "email": "service.excellence.GH@absa.africa", "facebook": "AbsaGhana", "name": "Absa ATM", "opening_hours": "24/7", "operator": "Absa Bank Ghana Limited", "operator:type": "public", "operator:wikidata": "Q96371413", "operator:wikipedia": "en:Absa Bank Ghana", "phone": "+233 30 242 9150", "website": "https://www.absa.com.gh"}}, {"type": "node", "id": 11243652744, "lat": 5.5522693, "lon": -0.3278357, "tags": {"addr:city": "Accra", "addr:country": "GH", "addr:region": "Greater Accra", "addr:street": "Winneba Road", "addr:suburb": "Weija", "amenity": "atm", "brand": "Absa", "brand:wikidata": "Q58641733", "brand:wikipedia": "en:Absa Group Limited", "contact:instagram": "absaghana", "contact:linkedin": "absa-ghana", "contact:twitter": "AbsaGhana", "contact:whatsapp": "+233 50 164 4644", "contact:youtube": "https://www.youtube.com/channel/UCKpKPyfJ69tf7lnxudpzKJQ", "email": "service.excellence.GH@absa.africa", "facebook": "AbsaGhana", "name": "Absa ATM", "opening_hours": "24/7", "operator": "Absa Bank Ghana Limited", "operator:type": "public", "operator:wikidata": "Q96371413", "operator:wikipedia": "en:Absa Bank Ghana", "phone": "+233 30 242 9150", "website": "https://www.absa.com.gh"}}, {"type": "node", "id": 11243662166, "lat": 5.5445728, "lon": -0.3443353, "tags": {"addr:city": "Accra", "addr:country": "GH", "addr:region": "Greater Accra", "addr:street": "Winneba Road", "addr:suburb": "New Weija", "amenity": "atm", "brand": "Absa", "brand:wikidata": "Q58641733", "brand:wikipedia": "en:Absa Group Limited", "contact:instagram": "absaghana", "contact:linkedin": "absa-ghana", "contact:twitter": "AbsaGhana", "contact:whatsapp": "+233 50 164 4644", "contact:youtube": "https://www.youtube.com/channel/UCKpKPyfJ69tf7lnxudpzKJQ", "email": "service.excellence.GH@absa.africa", "facebook": "AbsaGhana", "name": "Absa ATM", "opening_hours": "24/7", "operator": "Absa Bank Ghana Limited", "operator:type": "public", "operator:wikidata": "Q96371413", "operator:wikipedia": "en:Absa Bank Ghana", "phone": "+233 30 242 9150", "website": "https://www.absa.com.gh"}}, {"type": "node", "id": 11245587506, "lat": 5.6673602, "lon": -0.2386509, "tags": {"addr:city": "Accra", "addr:country": "GH", "addr:region": "Greater Accra", "addr:street": "Atomic Roundabout", "addr:suburb": "Kwabenya", "amenity": "atm", "brand": "Absa", "brand:wikidata": "Q58641733", "brand:wikipedia": "en:Absa Group Limited", "contact:instagram": "absaghana", "contact:linkedin": "absa-ghana", "contact:twitter": "AbsaGhana", "contact:whatsapp": "+233 50 164 4644", "contact:youtube": "https://www.youtube.com/channel/UCKpKPyfJ69tf7lnxudpzKJQ", "email": "service.excellence.GH@absa.africa", "facebook": "AbsaGhana", "name": "Absa ATM", "opening_hours": "24/7", "operator": "Absa Bank Ghana Limited", "operator:type": "public", "operator:wikidata": "Q96371413", "operator:wikipedia": "en:Absa Bank Ghana", "phone": "+233 30 242 9150", "website": "https://www.absa.com.gh"}}, {"type": "node", "id": 11245588927, "lat": 5.6669959, "lon": -0.1869312, "tags": {"addr:city": "Accra", "addr:country": "GH", "addr:region": "Greater Accra", "addr:street": "Haatso-Atomic Road", "addr:suburb": "Haatso", "amenity": "atm", "brand": "Absa", "brand:wikidata": "Q58641733", "brand:wikipedia": "en:Absa Group Limited", "contact:instagram": "absaghana", "contact:linkedin": "absa-ghana", "contact:twitter": "AbsaGhana", "contact:whatsapp": "+233 50 164 4644", "contact:youtube": "https://www.youtube.com/channel/UCKpKPyfJ69tf7lnxudpzKJQ", "email": "service.excellence.GH@absa.africa", "facebook": "AbsaGhana", "name": "Absa ATM", "opening_hours": "24/7", "operator": "Absa Bank Ghana Limited", "operator:type": "public", "operator:wikidata": "Q96371413", "operator:wikipedia": "en:Absa Bank Ghana", "phone": "+233 30 242 9150", "website": "https://www.absa.com.gh"}}, {"type": "node", "id": 11245683561, "lat": 5.6027564, "lon": -0.1727852, "tags": {"addr:city": "Accra", "addr:country": "GH", "addr:region": "Greater Accra", "addr:suburb": "Airport City", "amenity": "atm", "brand": "Absa", "brand:wikidata": "Q58641733", "brand:wikipedia": "en:Absa Group Limited", "contact:instagram": "absaghana", "contact:linkedin": "absa-ghana", "contact:twitter": "AbsaGhana", "contact:whatsapp": "+233 50 164 4644", "contact:youtube": "https://www.youtube.com/channel/UCKpKPyfJ69tf7lnxudpzKJQ", "description": "Terminal 3 Arrival Hall, Kotoka International Airport", "email": "service.excellence.GH@absa.africa", "facebook": "AbsaGhana", "name": "Absa ATM", "opening_hours": "24/7", "operator": "Absa Bank Ghana Limited", "operator:type": "public", "operator:wikidata": "Q96371413", "operator:wikipedia": "en:Absa Bank Ghana", "phone": "+233 30 242 9150", "website": "https://www.absa.com.gh"}}, {"type": "node", "id": 11252979229, "lat": 5.5364943, "lon": -0.2267111, "tags": {"addr:city": "Accra", "addr:country": "GH", "addr:region": "Greater Accra", "addr:street": "Harley Street", "addr:suburb": "Korle Bu", "amenity": "atm", "brand": "Absa", "brand:wikidata": "Q58641733", "brand:wikipedia": "en:Absa Group Limited", "contact:instagram": "absaghana", "contact:linkedin": "absa-ghana", "contact:twitter": "AbsaGhana", "contact:whatsapp": "+233 50 164 4644", "contact:youtube": "https://www.youtube.com/channel/UCKpKPyfJ69tf7lnxudpzKJQ", "email": "service.excellence.GH@absa.africa", "facebook": "AbsaGhana", "name": "Absa ATM", "opening_hours": "24/7", "operator": "Absa Bank Ghana Limited", "operator:type": "public", "operator:wikidata": "Q96371413", "operator:wikipedia": "en:Absa Bank Ghana", "phone": "+233 30 242 9150", "website": "https://www.absa.com.gh"}}, {"type": "node", "id": 11253008048, "lat": 5.5573549, "lon": -0.1651986, "tags": {"addr:city": "Accra", "addr:country": "GH", "addr:region": "Greater Accra", "addr:street": "La Road", "addr:suburb": "Labadi", "amenity": "atm", "brand": "Absa", "brand:wikidata": "Q58641733", "brand:wikipedia": "en:Absa Group Limited", "contact:instagram": "absaghana", "contact:linkedin": "absa-ghana", "contact:twitter": "AbsaGhana", "contact:whatsapp": "+233 50 164 4644", "contact:youtube": "https://www.youtube.com/channel/UCKpKPyfJ69tf7lnxudpzKJQ", "email": "service.excellence.GH@absa.africa", "facebook": "AbsaGhana", "name": "Absa ATM", "opening_hours": "24/7", "operator": "Absa Bank Ghana Limited", "operator:type": "public", "operator:wikidata": "Q96371413", "operator:wikipedia": "en:Absa Bank Ghana", "phone": "+233 30 242 9150", "website": "https://www.absa.com.gh"}}, {"type": "node", "id": 11253012524, "lat": 5.5541835, "lon": -0.1977217, "tags": {"addr:city": "Accra", "addr:country": "GH", "addr:region": "Greater Accra", "addr:street": "Gamel Abdul Nasser Avenue", "addr:suburb": "Ridge", "amenity": "atm", "brand": "Absa", "brand:wikidata": "Q58641733", "brand:wikipedia": "en:Absa Group Limited", "contact:instagram": "absaghana", "contact:linkedin": "absa-ghana", "contact:twitter": "AbsaGhana", "contact:whatsapp": "+233 50 164 4644", "contact:youtube": "https://www.youtube.com/channel/UCKpKPyfJ69tf7lnxudpzKJQ", "email": "service.excellence.GH@absa.africa", "facebook": "AbsaGhana", "name": "Absa ATM", "opening_hours": "24/7", "operator": "Absa Bank Ghana Limited", "operator:type": "public", "operator:wikidata": "Q96371413", "operator:wikipedia": "en:Absa Bank Ghana", "phone": "+233 30 242 9150", "website": "https://www.absa.com.gh"}}, {"type": "node", "id": 11253017774, "lat": 5.5767152, "lon": -0.2542265, "tags": {"addr:city": "Accra", "addr:country": "GH", "addr:region": "Greater Accra", "addr:street": "Dr. Busia Highway", "addr:suburb": "Darkuman Junction", "amenity": "atm", "brand": "Absa", "brand:wikidata": "Q58641733", "brand:wikipedia": "en:Absa Group Limited", "contact:instagram": "absaghana", "contact:linkedin": "absa-ghana", "contact:twitter": "AbsaGhana", "contact:whatsapp": "+233 50 164 4644", "contact:youtube": "https://www.youtube.com/channel/UCKpKPyfJ69tf7lnxudpzKJQ", "email": "service.excellence.GH@absa.africa", "facebook": "AbsaGhana", "name": "Absa ATM", "opening_hours": "24/7", "operator": "Absa Bank Ghana Limited", "operator:type": "public", "operator:wikidata": "Q96371413", "operator:wikipedia": "en:Absa Bank Ghana", "phone": "+233 30 242 9150", "website": "https://www.absa.com.gh"}}, {"type": "node", "id": 11253053982, "lat": 5.616541, "lon": -0.1925799, "tags": {"addr:city": "Accra", "addr:country": "GH", "addr:region": "Greater Accra", "addr:street": "Nii Nortey Nyanchi Street", "addr:suburb": "Dzorwulu", "amenity": "atm", "brand": "Absa", "brand:wikidata": "Q58641733", "brand:wikipedia": "en:Absa Group Limited", "contact:instagram": "absaghana", "contact:linkedin": "absa-ghana", "contact:twitter": "AbsaGhana", "contact:whatsapp": "+233 50 164 4644", "contact:youtube": "https://www.youtube.com/channel/UCKpKPyfJ69tf7lnxudpzKJQ", "email": "service.excellence.GH@absa.africa", "facebook": "AbsaGhana", "name": "Absa ATM", "opening_hours": "24/7", "operator": "Absa Bank Ghana Limited", "operator:type": "public", "operator:wikidata": "Q96371413", "operator:wikipedia": "en:Absa Bank Ghana", "phone": "+233 30 242 9150", "website": "https://www.absa.com.gh"}}, {"type": "node", "id": 11256127715, "lat": 5.7061363, "lon": -0.1704222, "tags": {"addr:city": "Accra", "addr:country": "GH", "addr:region": "Greater Accra", "addr:street": "Lame Dwaahe", "addr:suburb": "Adenta", "amenity": "atm", "brand": "Absa", "brand:wikidata": "Q58641733", "brand:wikipedia": "en:Absa Group Limited", "contact:instagram": "absaghana", "contact:linkedin": "absa-ghana", "contact:twitter": "AbsaGhana", "contact:whatsapp": "+233 50 164 4644", "contact:youtube": "https://www.youtube.com/channel/UCKpKPyfJ69tf7lnxudpzKJQ", "email": "service.excellence.GH@absa.africa", "facebook": "AbsaGhana", "name": "Absa ATM", "opening_hours": "24/7", "operator": "Absa Bank Ghana Limited", "operator:type": "public", "operator:wikidata": "Q96371413", "operator:wikipedia": "en:Absa Bank Ghana", "phone": "+233 30 242 9150", "website": "https://www.absa.com.gh"}}, {"type": "node", "id": 11256186100, "lat": 5.5976345, "lon": -0.0821728, "tags": {"addr:city": "Accra", "addr:country": "GH", "addr:region": "Greater Accra", "addr:street": "Accra-Ashaiman Road", "addr:suburb": "Teshie Nungua", "amenity": "atm", "brand": "Absa", "brand:wikidata": "Q58641733", "brand:wikipedia": "en:Absa Group Limited", "contact:instagram": "absaghana", "contact:linkedin": "absa-ghana", "contact:twitter": "AbsaGhana", "contact:whatsapp": "+233 50 164 4644", "contact:youtube": "https://www.youtube.com/channel/UCKpKPyfJ69tf7lnxudpzKJQ", "email": "service.excellence.GH@absa.africa", "facebook": "AbsaGhana", "name": "Absa ATM", "opening_hours": "24/7", "operator": "Absa Bank Ghana Limited", "operator:type": "public", "operator:wikidata": "Q96371413", "operator:wikipedia": "en:Absa Bank Ghana", "phone": "+233 30 242 9150", "website": "https://www.absa.com.gh"}}, {"type": "node", "id": 11256203242, "lat": 5.6133478, "lon": -0.071567, "tags": {"addr:city": "Accra", "addr:country": "GH", "addr:region": "Greater Accra", "addr:street": "Accra-Tema Beach Road", "addr:suburb": "Teshie", "amenity": "atm", "brand": "Absa", "brand:wikidata": "Q58641733", "brand:wikipedia": "en:Absa Group Limited", "contact:instagram": "absaghana", "contact:linkedin": "absa-ghana", "contact:twitter": "AbsaGhana", "contact:whatsapp": "+233 50 164 4644", "contact:youtube": "https://www.youtube.com/channel/UCKpKPyfJ69tf7lnxudpzKJQ", "email": "service.excellence.GH@absa.africa", "facebook": "AbsaGhana", "name": "Absa ATM", "opening_hours": "24/7", "operator": "Absa Bank Ghana Limited", "operator:type": "public", "operator:wikidata": "Q96371413", "operator:wikipedia": "en:Absa Bank Ghana", "phone": "+233 30 242 9150", "website": "https://www.absa.com.gh"}}, {"type": "node", "id": 11262014518, "lat": 5.6879893, "lon": -0.0148715, "tags": {"addr:city": "Tema", "addr:country": "GH", "addr:region": "Greater Accra", "addr:street": "N1", "addr:suburb": "Ashaiman", "amenity": "atm", "brand": "Absa", "brand:wikidata": "Q58641733", "brand:wikipedia": "en:Absa Group Limited", "contact:instagram": "absaghana", "contact:linkedin": "absa-ghana", "contact:twitter": "AbsaGhana", "contact:whatsapp": "+233 50 164 4644", "contact:youtube": "https://www.youtube.com/channel/UCKpKPyfJ69tf7lnxudpzKJQ", "email": "service.excellence.GH@absa.africa", "facebook": "AbsaGhana", "name": "Absa ATM", "opening_hours": "24/7", "operator": "Absa Bank Ghana Limited", "operator:type": "public", "operator:wikidata": "Q96371413", "operator:wikipedia": "en:Absa Bank Ghana", "phone": "+233 30 242 9150", "website": "https://www.absa.com.gh"}}, {"type": "node", "id": 11262016515, "lat": 5.6250982, "lon": -0.0683635, "tags": {"addr:city": "Tema", "addr:country": "GH", "addr:region": "Greater Accra", "addr:street": "Nungua Ashaiman Road", "addr:suburb": "Sakumono", "amenity": "atm", "brand": "Absa", "brand:wikidata": "Q58641733", "brand:wikipedia": "en:Absa Group Limited", "contact:instagram": "absaghana", "contact:linkedin": "absa-ghana", "contact:twitter": "AbsaGhana", "contact:whatsapp": "+233 50 164 4644", "contact:youtube": "https://www.youtube.com/channel/UCKpKPyfJ69tf7lnxudpzKJQ", "email": "service.excellence.GH@absa.africa", "facebook": "AbsaGhana", "name": "Absa ATM", "opening_hours": "24/7", "operator": "Absa Bank Ghana Limited", "operator:type": "public", "operator:wikidata": "Q96371413", "operator:wikipedia": "en:Absa Bank Ghana", "phone": "+233 30 242 9150", "website": "https://www.absa.com.gh"}}, {"type": "node", "id": 11262031088, "lat": 5.7379736, "lon": 0.0332399, "tags": {"addr:city": "Tema", "addr:country": "GH", "addr:region": "Greater Accra", "addr:street": "Aflao Road", "addr:suburb": "Community 25", "amenity": "atm", "brand": "Absa", "brand:wikidata": "Q58641733", "brand:wikipedia": "en:Absa Group Limited", "contact:instagram": "absaghana", "contact:linkedin": "absa-ghana", "contact:twitter": "AbsaGhana", "contact:whatsapp": "+233 50 164 4644", "contact:youtube": "https://www.youtube.com/channel/UCKpKPyfJ69tf7lnxudpzKJQ", "email": "service.excellence.GH@absa.africa", "facebook": "AbsaGhana", "name": "Absa ATM", "opening_hours": "24/7", "operator": "Absa Bank Ghana Limited", "operator:type": "public", "operator:wikidata": "Q96371413", "operator:wikipedia": "en:Absa Bank Ghana", "phone": "+233 30 242 9150", "website": "https://www.absa.com.gh"}}, {"type": "node", "id": 11373301727, "lat": 5.5364422, "lon": -0.2267151, "tags": {"addr:city": "Accra", "addr:country": "GH", "addr:region": "Greater Accra", "addr:street": "Harley Street", "addr:suburb": "Korle Bu", "alt_name": "Standard Chartered Korle Bu ATM", "amenity": "atm", "brand": "Standard Chartered", "brand:wikidata": "Q548278", "brand:wikipedia": "en:Standard Chartered", "cash_in": "no", "contact:instagram": "stanchartgh", "contact:linkedin": "standardchartered", "contact:twitter": "StanChartGH", "description": "Main entrance, Korle Bu Teaching Hospital, Accra", "email": "feedback.ghana@sc.com", "facebook": "StandardCharteredGH", "name": "Standard Chartered ATM", "opening_hours": "24/7", "operator": "Standard Chartered Ghana", "operator:type": "public", "operator:wikidata": "Q7598195", "operator:wikipedia": "en:Standard Chartered Ghana", "phone": "+233 30 263 3428; +233 30 274 0100", "website": "https://www.sc.com/gh"}}, {"type": "node", "id": 11373328146, "lat": 5.6061566, "lon": -0.2490968, "tags": {"addr:city": "Accra", "addr:country": "GH", "addr:region": "Greater Accra", "addr:street": "George Walker Bush Highway", "addr:suburb": "Lapaz", "alt_name": "Standard Chartered Abeka ATM", "amenity": "atm", "brand": "Standard Chartered", "brand:wikidata": "Q548278", "brand:wikipedia": "en:Standard Chartered", "cash_in": "no", "contact:instagram": "stanchartgh", "contact:linkedin": "standardchartered", "contact:twitter": "StanChartGH", "description": "Meacham House, Opposite Las Palmas Restaurant", "email": "feedback.ghana@sc.com", "facebook": "StandardCharteredGH", "name": "Standard Chartered ATM", "opening_hours": "24/7", "operator": "Standard Chartered Ghana", "operator:type": "public", "operator:wikidata": "Q7598195", "operator:wikipedia": "en:Standard Chartered Ghana", "phone": "+233 30 263 3428; +233 30 274 0100", "website": "https://www.sc.com/gh"}}, {"type": "node", "id": 11373329239, "lat": 5.5517541, "lon": -0.2397962, "tags": {"addr:city": "Accra", "addr:country": "GH", "addr:region": "Greater Accra", "addr:street": "Eduardo Mohdlana Road", "addr:suburb": "Laterbiokoshie", "alt_name": "Standard Chartered Laterbiokoshie ATM", "amenity": "atm", "brand": "Standard Chartered", "brand:wikidata": "Q548278", "brand:wikipedia": "en:Standard Chartered", "cash_in": "no", "contact:instagram": "stanchartgh", "contact:linkedin": "standardchartered", "contact:twitter": "StanChartGH", "email": "feedback.ghana@sc.com", "facebook": "StandardCharteredGH", "name": "Standard Chartered ATM", "opening_hours": "24/7", "operator": "Standard Chartered Ghana", "operator:type": "public", "operator:wikidata": "Q7598195", "operator:wikipedia": "en:Standard Chartered Ghana", "phone": "+233 30 263 3428; +233 30 274 0100", "website": "https://www.sc.com/gh"}}, {"type": "node", "id": 11373346841, "lat": 5.5420352, "lon": -0.2644893, "tags": {"addr:city": "Accra", "addr:country": "GH", "addr:region": "Greater Accra", "addr:suburb": "Dansoman", "alt_name": "Standard Chartered Dansoman ATM", "amenity": "atm", "brand": "Standard Chartered", "brand:wikidata": "Q548278", "brand:wikipedia": "en:Standard Chartered", "cash_in": "no", "contact:instagram": "stanchartgh", "contact:linkedin": "standardchartered", "contact:twitter": "StanChartGH", "email": "feedback.ghana@sc.com", "facebook": "StandardCharteredGH", "name": "Standard Chartered ATM", "opening_hours": "24/7", "operator": "Standard Chartered Ghana", "operator:type": "public", "operator:wikidata": "Q7598195", "operator:wikipedia": "en:Standard Chartered Ghana", "phone": "+233 30 263 3428; +233 30 274 0100", "website": "https://www.sc.com/gh"}}, {"type": "node", "id": 11373349245, "lat": 5.5737908, "lon": -0.2793065, "tags": {"addr:city": "Accra", "addr:country": "GH", "addr:region": "Greater Accra", "addr:street": "Dr. Busia Highway", "addr:suburb": "Mallam", "alt_name": "Standard Chartered ATM", "amenity": "atm", "brand": "Standard Chartered", "brand:wikidata": "Q548278", "brand:wikipedia": "en:Standard Chartered", "cash_in": "no", "contact:instagram": "stanchartgh", "contact:linkedin": "standardchartered", "contact:twitter": "StanChartGH", "description": "Goil Service Station, Opposite Mallam Market, Accra", "email": "feedback.ghana@sc.com", "facebook": "StandardCharteredGH", "name": "Standard Chartered ATM", "opening_hours": "24/7", "operator": "Standard Chartered Ghana", "operator:type": "public", "operator:wikidata": "Q7598195", "operator:wikipedia": "en:Standard Chartered Ghana", "phone": "+233 30 263 3428; +233 30 274 0100", "website": "https://www.sc.com/gh"}}, {"type": "node", "id": 11373361136, "lat": 5.5735552, "lon": -0.2536324, "tags": {"addr:city": "Accra", "addr:country": "GH", "addr:region": "Greater Accra", "addr:suburb": "Mataheko", "alt_name": "Standard Chartered Hansonic ATM", "amenity": "atm", "brand": "Standard Chartered", "brand:wikidata": "Q548278", "brand:wikipedia": "en:Standard Chartered", "cash_in": "no", "contact:instagram": "stanchartgh", "contact:linkedin": "standardchartered", "contact:twitter": "StanChartGH", "description": "Hansonic Hotel Entrance, Mataheko, Accra", "email": "feedback.ghana@sc.com", "facebook": "StandardCharteredGH", "name": "Standard Chartered ATM", "opening_hours": "24/7", "operator": "Standard Chartered Ghana", "operator:type": "public", "operator:wikidata": "Q7598195", "operator:wikipedia": "en:Standard Chartered Ghana", "phone": "+233 30 263 3428; +233 30 274 0100", "website": "https://www.sc.com/gh"}}, {"type": "node", "id": 11375674915, "lat": 5.5685491, "lon": -0.2220768, "tags": {"addr:city": "Accra", "addr:country": "GH", "addr:region": "Greater Accra", "addr:street": "Ring Road Central", "addr:suburb": "North Industrial Area", "alt_name": "Standard Chartered NIA ATM", "amenity": "atm", "brand": "Standard Chartered", "brand:wikidata": "Q548278", "brand:wikipedia": "en:Standard Chartered", "cash_in": "no", "contact:instagram": "stanchartgh", "contact:linkedin": "standardchartered", "contact:twitter": "StanChartGH", "description": "SSNIT Premises, North Industrial Area", "email": "feedback.ghana@sc.com", "facebook": "StandardCharteredGH", "name": "Standard Chartered ATM", "opening_hours": "24/7", "operator": "Standard Chartered Ghana", "operator:type": "public", "operator:wikidata": "Q7598195", "operator:wikipedia": "en:Standard Chartered Ghana", "phone": "+233 30 263 3428; +233 30 274 0100", "website": "https://www.sc.com/gh"}}, {"type": "node", "id": 11375681506, "lat": 5.5562084, "lon": -0.2048416, "tags": {"addr:city": "Accra", "addr:country": "GH", "addr:region": "Greater Accra", "addr:street": "Liberia Avenue", "addr:suburb": "West Ridge", "alt_name": "Standard Chartered Liberia Road ATM", "amenity": "atm", "brand": "Standard Chartered", "brand:wikidata": "Q548278", "brand:wikipedia": "en:Standard Chartered", "cash_in": "yes", "contact:instagram": "stanchartgh", "contact:linkedin": "standardchartered", "contact:twitter": "StanChartGH", "description": "Opp. TUC Building, Ridge", "email": "feedback.ghana@sc.com", "facebook": "StandardCharteredGH", "name": "Standard Chartered ATM", "opening_hours": "24/7", "operator": "Standard Chartered Ghana", "operator:type": "public", "operator:wikidata": "Q7598195", "operator:wikipedia": "en:Standard Chartered Ghana", "phone": "+233 30 263 3428; +233 30 274 0100", "website": "https://www.sc.com/gh"}}, {"type": "node", "id": 11375731703, "lat": 5.6146185, "lon": -0.1853292, "tags": {"addr:city": "Accra", "addr:country": "GH", "addr:region": "Greater Accra", "addr:street": "Kofi Atta Annan Street", "addr:suburb": "Airport Residential Area", "alt_name": "Standard Chartered Nyaho Clinic ATM", "amenity": "atm", "brand": "Standard Chartered", "brand:wikidata": "Q548278", "brand:wikipedia": "en:Standard Chartered", "cash_in": "no", "contact:instagram": "stanchartgh", "contact:linkedin": "standardchartered", "contact:twitter": "StanChartGH", "description": "Nyaho Medical Centre, Airport Residential Area, Accra", "email": "feedback.ghana@sc.com", "facebook": "StandardCharteredGH", "name": "Standard Chartered ATM", "opening_hours": "24/7", "operator": "Standard Chartered Ghana", "operator:type": "public", "operator:wikidata": "Q7598195", "operator:wikipedia": "en:Standard Chartered Ghana", "phone": "+233 30 263 3428; +233 30 274 0100", "website": "https://www.sc.com/gh"}}, {"type": "node", "id": 11380139337, "lat": 5.5449866, "lon": -0.3448167, "tags": {"addr:city": "Accra", "addr:country": "GH", "addr:region": "Greater Accra", "addr:street": "Winneba Road", "addr:suburb": "Weija", "alt_name": "Standard Chartered Westhills ATM", "amenity": "atm", "brand": "Standard Chartered", "brand:wikidata": "Q548278", "brand:wikipedia": "en:Standard Chartered", "cash_in": "yes", "contact:instagram": "stanchartgh", "contact:linkedin": "standardchartered", "contact:twitter": "StanChartGH", "description": "Inside Westhills Mall", "email": "feedback.ghana@sc.com", "facebook": "StandardCharteredGH", "name": "Standard Chartered ATM", "opening_hours": "24/7", "operator": "Standard Chartered Ghana", "operator:type": "public", "operator:wikidata": "Q7598195", "operator:wikipedia": "en:Standard Chartered Ghana", "phone": "+233 30 263 3428; +233 30 274 0100", "website": "https://www.sc.com/gh"}}, {"type": "node", "id": 11380172515, "lat": 5.6384395, "lon": -0.241438, "tags": {"addr:city": "Accra", "addr:country": "GH", "addr:region": "Greater Accra", "addr:street": "J.A. Kuffour Avenue", "addr:suburb": "Alogboshie", "alt_name": "Standard Chartered Achimota Mall ATM", "amenity": "atm", "brand": "Standard Chartered", "brand:wikidata": "Q548278", "brand:wikipedia": "en:Standard Chartered", "cash_in": "yes", "contact:instagram": "stanchartgh", "contact:linkedin": "standardchartered", "contact:twitter": "StanChartGH", "description": "Inside Achimota Mall", "email": "feedback.ghana@sc.com", "facebook": "StandardCharteredGH", "name": "Standard Chartered ATM", "opening_hours": "24/7", "operator": "Standard Chartered Ghana", "operator:type": "public", "operator:wikidata": "Q7598195", "operator:wikipedia": "en:Standard Chartered Ghana", "phone": "+233 30 263 3428; +233 30 274 0100", "website": "https://www.sc.com/gh"}}, {"type": "node", "id": 11380245455, "lat": 5.6536936, "lon": -0.2084881, "tags": {"addr:city": "Accra", "addr:country": "GH", "addr:region": "Greater Accra", "addr:street": "Westland Avenue", "addr:suburb": "Westland", "alt_name": "Standard Chartered Westland ATM", "amenity": "atm", "brand": "Standard Chartered", "brand:wikidata": "Q548278", "brand:wikipedia": "en:Standard Chartered", "cash_in": "yes", "contact:instagram": "stanchartgh", "contact:linkedin": "standardchartered", "contact:twitter": "StanChartGH", "email": "feedback.ghana@sc.com", "facebook": "StandardCharteredGH", "name": "Standard Chartered ATM", "opening_hours": "24/7", "operator": "Standard Chartered Ghana", "operator:type": "public", "operator:wikidata": "Q7598195", "operator:wikipedia": "en:Standard Chartered Ghana", "phone": "+233 30 263 3428; +233 30 274 0100", "website": "https://www.sc.com/gh"}}, {"type": "node", "id": 11380277242, "lat": 5.6508426, "lon": -0.1864967, "tags": {"addr:city": "Accra", "addr:country": "GH", "addr:region": "Greater Accra", "addr:street": "Dr. J.B. Danquah Avenue", "addr:suburb": "Legon", "alt_name": "Standard Chartered Legon ATM", "amenity": "atm", "brand": "Standard Chartered", "brand:wikidata": "Q548278", "brand:wikipedia": "en:Standard Chartered", "cash_in": "no", "contact:instagram": "stanchartgh", "contact:linkedin": "standardchartered", "contact:twitter": "StanChartGH", "description": "Near Kingdom Bookshop Legon Campus", "email": "feedback.ghana@sc.com", "facebook": "StandardCharteredGH", "name": "Standard Chartered ATM", "opening_hours": "24/7", "operator": "Standard Chartered Ghana", "operator:type": "public", "operator:wikidata": "Q7598195", "operator:wikipedia": "en:Standard Chartered Ghana", "phone": "+233 30 263 3428; +233 30 274 0100", "website": "https://www.sc.com/gh"}}, {"type": "node", "id": 11380282488, "lat": 5.6601153, "lon": -0.1774151, "tags": {"addr:city": "Accra", "addr:country": "GH", "addr:region": "Greater Accra", "addr:street": "IPS Road", "addr:suburb": "Legon", "alt_name": "Standard Chartered Presec Junction ATM", "amenity": "atm", "brand": "Standard Chartered", "brand:wikidata": "Q548278", "brand:wikipedia": "en:Standard Chartered", "cash_in": "no", "contact:instagram": "stanchartgh", "contact:linkedin": "standardchartered", "contact:twitter": "StanChartGH", "description": "Goil Service Station, Presec Junction, Accra", "email": "feedback.ghana@sc.com", "facebook": "StandardCharteredGH", "name": "Standard Chartered ATM", "opening_hours": "24/7", "operator": "Standard Chartered Ghana", "operator:type": "public", "operator:wikidata": "Q7598195", "operator:wikipedia": "en:Standard Chartered Ghana", "phone": "+233 30 263 3428; +233 30 274 0100", "website": "https://www.sc.com/gh"}}, {"type": "node", "id": 11381761436, "lat": 5.6352271, "lon": -0.1722159, "tags": {"addr:city": "Accra", "addr:country": "GH", "addr:region": "Greater Accra", "addr:street": "Lagos Avenue", "addr:suburb": "East Legon", "alt_name": "Standard Chartered East Legon ATM", "amenity": "atm", "brand": "Standard Chartered", "brand:wikidata": "Q548278", "brand:wikipedia": "en:Standard Chartered", "cash_in": "no", "contact:instagram": "stanchartgh", "contact:linkedin": "standardchartered", "contact:twitter": "StanChartGH", "description": "Delino Plaza, Near Mensvic Hotel, Lagos Avenue, East Legon, Accra", "email": "feedback.ghana@sc.com", "facebook": "StandardCharteredGH", "name": "Standard Chartered ATM", "opening_hours": "24/7", "operator": "Standard Chartered Ghana", "operator:type": "public", "operator:wikidata": "Q7598195", "operator:wikipedia": "en:Standard Chartered Ghana", "phone": "+233 30 263 3428; +233 30 274 0100", "website": "https://www.sc.com/gh"}}, {"type": "node", "id": 11381911423, "lat": 5.6220605, "lon": -0.1811631, "tags": {"addr:city": "Accra", "addr:country": "GH", "addr:region": "Greater Accra", "addr:street": "George Bush Highway", "addr:suburb": "Airport Residential Area", "alt_name": "Standard Chartered Tullow ATM", "amenity": "atm", "brand": "Standard Chartered", "brand:wikidata": "Q548278", "brand:wikipedia": "en:Standard Chartered", "cash_in": "no", "contact:instagram": "stanchartgh", "contact:linkedin": "standardchartered", "contact:twitter": "StanChartGH", "description": "After Motorway Extension, Accra", "email": "feedback.ghana@sc.com", "facebook": "StandardCharteredGH", "name": "Standard Chartered ATM", "opening_hours": "24/7", "operator": "Standard Chartered Ghana", "operator:type": "public", "operator:wikidata": "Q7598195", "operator:wikipedia": "en:Standard Chartered Ghana", "phone": "+233 30 263 3428; +233 30 274 0100", "website": "https://www.sc.com/gh"}}, {"type": "node", "id": 11381934041, "lat": 5.6436695, "lon": -0.15209, "tags": {"addr:city": "Accra", "addr:country": "GH", "addr:region": "Greater Accra", "addr:street": "Aluguingtugui Street", "addr:suburb": "East Legon", "alt_name": "Standard Chartered Lizzy Sports ATM", "amenity": "atm", "brand": "Standard Chartered", "brand:wikidata": "Q548278", "brand:wikipedia": "en:Standard Chartered", "cash_in": "no", "contact:instagram": "stanchartgh", "contact:linkedin": "standardchartered", "contact:twitter": "StanChartGH", "description": "Lizzy Sports Complex, Adjacent A&C Mall, East Legon, Accra", "email": "feedback.ghana@sc.com", "facebook": "StandardCharteredGH", "name": "Standard Chartered ATM", "opening_hours": "24/7", "operator": "Standard Chartered Ghana", "operator:type": "public", "operator:wikidata": "Q7598195", "operator:wikipedia": "en:Standard Chartered Ghana", "phone": "+233 30 263 3428; +233 30 274 0100", "website": "https://www.sc.com/gh"}}, {"type": "node", "id": 11381938431, "lat": 5.6392119, "lon": -0.1059452, "tags": {"addr:city": "Accra", "addr:country": "GH", "addr:region": "Greater Accra", "addr:street": "Spintex Road", "addr:suburb": "Spintex", "alt_name": "Standard Chartered Spintex ATM", "amenity": "atm", "brand": "Standard Chartered", "brand:wikidata": "Q548278", "brand:wikipedia": "en:Standard Chartered", "cash_in": "no", "contact:instagram": "stanchartgh", "contact:linkedin": "standardchartered", "contact:twitter": "StanChartGH", "description": "Close to Coca Cola Roundabout,Spintex Road", "email": "feedback.ghana@sc.com", "facebook": "StandardCharteredGH", "name": "Standard Chartered ATM", "opening_hours": "24/7", "operator": "Standard Chartered Ghana", "operator:type": "public", "operator:wikidata": "Q7598195", "operator:wikipedia": "en:Standard Chartered Ghana", "phone": "+233 30 263 3428; +233 30 274 0100", "website": "https://www.sc.com/gh"}}, {"type": "node", "id": 11383547039, "lat": 5.5761326, "lon": -0.1524306, "tags": {"addr:city": "Accra", "addr:country": "GH", "addr:region": "Greater Accra", "addr:street": "Giffard Road", "addr:suburb": "La", "alt_name": "Standard Chartered Palmwine Junction ATM", "amenity": "atm", "brand": "Standard Chartered", "brand:wikidata": "Q548278", "brand:wikipedia": "en:Standard Chartered", "cash_in": "no", "contact:instagram": "stanchartgh", "contact:linkedin": "standardchartered", "contact:twitter": "StanChartGH", "description": "Labadi Shell Service Station, Palmwine junction, Accra", "email": "feedback.ghana@sc.com", "facebook": "StandardCharteredGH", "name": "Standard Chartered ATM", "opening_hours": "24/7", "operator": "Standard Chartered Ghana", "operator:type": "public", "operator:wikidata": "Q7598195", "operator:wikipedia": "en:Standard Chartered Ghana", "phone": "+233 30 263 3428; +233 30 274 0100", "website": "https://www.sc.com/gh"}}, {"type": "node", "id": 11383576147, "lat": 5.5610684, "lon": -0.1815695, "tags": {"addr:city": "Accra", "addr:country": "GH", "addr:region": "Greater Accra", "addr:street": "Oxford Street", "addr:suburb": "Osu", "alt_name": "Standard Chartered Osu ATM", "amenity": "atm", "brand": "Standard Chartered", "brand:wikidata": "Q548278", "brand:wikipedia": "en:Standard Chartered", "cash_in": "no", "contact:instagram": "stanchartgh", "contact:linkedin": "standardchartered", "contact:twitter": "StanChartGH", "description": "Ground Floor, Alpha One Building, Opposite Frankies Hotel, Osu Oxford Street", "email": "feedback.ghana@sc.com", "facebook": "StandardCharteredGH", "name": "Standard Chartered ATM", "opening_hours": "24/7", "operator": "Standard Chartered Ghana", "operator:type": "public", "operator:wikidata": "Q7598195", "operator:wikipedia": "en:Standard Chartered Ghana", "phone": "+233 30 261 0750; +233 30 263 3428; +233 30 274 0100", "website": "https://www.sc.com/gh"}}, {"type": "node", "id": 11383592071, "lat": 5.5710939, "lon": -0.2082521, "tags": {"addr:city": "Accra", "addr:country": "GH", "addr:region": "Greater Accra", "addr:street": "Ring Road Central", "addr:suburb": "Asylum Down", "alt_name": "Standard Chartered Ring Road ATM", "amenity": "atm", "brand": "Standard Chartered", "brand:wikidata": "Q548278", "brand:wikipedia": "en:Standard Chartered", "cash_in": "yes", "contact:instagram": "stanchartgh", "contact:linkedin": "standardchartered", "contact:twitter": "StanChartGH", "email": "feedback.ghana@sc.com", "facebook": "StandardCharteredGH", "name": "Standard Chartered ATM", "opening_hours": "24/7", "operator": "Standard Chartered Ghana", "operator:type": "public", "operator:wikidata": "Q7598195", "operator:wikipedia": "en:Standard Chartered Ghana", "phone": "+233 30 263 3428; +233 30 274 0100", "website": "https://www.sc.com/gh"}}, {"type": "node", "id": 11383604704, "lat": 5.6129308, "lon": -0.0716914, "tags": {"addr:city": "Accra", "addr:country": "GH", "addr:region": "Greater Accra", "addr:street": "Accra-Tema Beach Road", "addr:suburb": "Nungua", "alt_name": "Standard Chartered Junction Mall ATM", "amenity": "atm", "brand": "Standard Chartered", "brand:wikidata": "Q548278", "brand:wikipedia": "en:Standard Chartered", "cash_in": "no", "contact:instagram": "stanchartgh", "contact:linkedin": "standardchartered", "contact:twitter": "StanChartGH", "email": "feedback.ghana@sc.com", "facebook": "StandardCharteredGH", "name": "Standard Chartered ATM", "opening_hours": "24/7", "operator": "Standard Chartered Ghana", "operator:type": "public", "operator:wikidata": "Q7598195", "operator:wikipedia": "en:Standard Chartered Ghana", "phone": "+233 30 263 3428; +233 30 274 0100", "website": "https://www.sc.com/gh"}}, {"type": "node", "id": 11383605762, "lat": 5.6434279, "lon": -0.0598113, "tags": {"addr:city": "Tema", "addr:country": "GH", "addr:region": "Greater Accra", "addr:street": "Nungua Ashaiman Road", "addr:suburb": "Lashibi", "alt_name": "Standard Chartered Lashibi Total ATM", "amenity": "atm", "brand": "Standard Chartered", "brand:wikidata": "Q548278", "brand:wikipedia": "en:Standard Chartered", "cash_in": "no", "contact:instagram": "stanchartgh", "contact:linkedin": "standardchartered", "contact:twitter": "StanChartGH", "description": "Lashibi Total Service Station, Emefs Junction, Tema", "email": "feedback.ghana@sc.com", "facebook": "StandardCharteredGH", "name": "Standard Chartered ATM", "opening_hours": "24/7", "operator": "Standard Chartered Ghana", "operator:type": "public", "operator:wikidata": "Q7598195", "operator:wikipedia": "en:Standard Chartered Ghana", "phone": "+233 30 263 3428; +233 30 274 0100", "website": "https://www.sc.com/gh"}}, {"type": "node", "id": 11383630846, "lat": 5.6702348, "lon": -0.0139448, "tags": {"addr:city": "Tema", "addr:country": "GH", "addr:region": "Greater Accra", "addr:suburb": "Community 8", "alt_name": "Standard Chartered Community 8 Shell ATM", "amenity": "atm", "brand": "Standard Chartered", "brand:wikidata": "Q548278", "brand:wikipedia": "en:Standard Chartered", "cash_in": "no", "contact:instagram": "stanchartgh", "contact:linkedin": "standardchartered", "contact:twitter": "StanChartGH", "description": "Community 8 Shell Service Station, Opposite Vienna City, Tema", "email": "feedback.ghana@sc.com", "facebook": "StandardCharteredGH", "name": "Standard Chartered ATM", "opening_hours": "24/7", "operator": "Standard Chartered Ghana", "operator:type": "public", "operator:wikidata": "Q7598195", "operator:wikipedia": "en:Standard Chartered Ghana", "phone": "+233 30 263 3428; +233 30 274 0100", "website": "https://www.sc.com/gh"}}, {"type": "node", "id": 11383649738, "lat": 5.6470387, "lon": -0.0013069, "tags": {"addr:city": "Tema", "addr:country": "GH", "addr:region": "Greater Accra", "addr:street": "John Saba Street", "addr:suburb": "Community 1", "alt_name": "Standard Chartered Tema Community 1 ATM", "amenity": "atm", "brand": "Standard Chartered", "brand:wikidata": "Q548278", "brand:wikipedia": "en:Standard Chartered", "cash_in": "yes", "contact:instagram": "stanchartgh", "contact:linkedin": "standardchartered", "contact:twitter": "StanChartGH", "description": "Opposite Tema Community Centre", "email": "feedback.ghana@sc.com", "facebook": "StandardCharteredGH", "name": "Standard Chartered ATM", "opening_hours": "24/7", "operator": "Standard Chartered", "operator:type": "public", "operator:wikidata": "Q548278", "operator:wikipedia": "en:Standard Chartered Ghana", "phone": "+233 30 263 3428; +233 30 274 0100", "website": "https://www.sc.com/gh"}}, {"type": "node", "id": 11412485924, "lat": 5.5880215, "lon": -0.1832171, "tags": {"amenity": "atm", "check_date": "2023-12-11", "currency:GHS": "yes", "name": "Republic Bank", "opening_hours": "24/7"}}, {"type": "node", "id": 11412485925, "lat": 5.5880473, "lon": -0.1832585, "tags": {"amenity": "atm", "check_date": "2023-12-11", "currency:GHS": "yes", "name": "CBG", "opening_hours": "24/7"}}, {"type": "node", "id": 11412485926, "lat": 5.5880648, "lon": -0.183275, "tags": {"amenity": "atm", "check_date": "2023-12-11", "currency:GHS": "yes", "name": "Stanbic Bank", "opening_hours": "24/7"}}, {"type": "node", "id": 11463547636, "lat": 5.6519751, "lon": -0.1797098, "tags": {"amenity": "atm"}}, {"type": "node", "id": 11685488606, "lat": 5.5810664, "lon": -0.2166071, "tags": {"amenity": "atm", "name": "Stanbic"}}, {"type": "way", "id": 615986366, "nodes": [5824299775, 5801074477, 5824299777, 5824299778, 5824299775], "tags": {"addr:city": "Accra", "addr:community": "Heavy- Do", "addr:suburb": "Dome", "amenity": "atm", "brand": "Ecobank", "brand:wikidata": "Q930225", "brand:wikipedia": "en:Ecobank", "generator:source": "solar", "name": "Ecobank", "operator": "Ecobank", "operator:wikidata": "Q930225", "operator:wikipedia": "en:Ecobank", "power": "generator", "source": "Open Cities Accra - Field Survey"}}]}