{"version": 0.6, "generator": "Overpass API 0.7.61.5 4133829e", "osm3s": {"timestamp_osm_base": "2024-02-29T13:48:25Z", "copyright": "The data included in this document is from www.openstreetmap.org. The data is made available under ODbL."}, "elements": [{"type": "node", "id": 7191135386, "lat": 7.7319644, "lon": -0.7049264, "tags": {"amenity": "school", "name": "Wiase DA Basic"}}, {"type": "node", "id": 7191325485, "lat": 7.7737471, "lon": -0.5415658, "tags": {"amenity": "school", "name": "Kofi Djan DA Basic"}}, {"type": "node", "id": 7191409085, "lat": 7.8255702, "lon": -0.531577, "tags": {"amenity": "school", "name": "Kakraka Akura DA Basic"}}, {"type": "node", "id": 7191634585, "lat": 7.6766462, "lon": -0.6682883, "tags": {"amenity": "school", "name": "Lassi DA Basic"}}, {"type": "node", "id": 7191657485, "lat": 7.6760485, "lon": -0.6351048, "tags": {"amenity": "school", "name": "Menko DA Basic School"}}, {"type": "node", "id": 7192547485, "lat": 7.7890552, "lon": -0.391413, "tags": {"amenity": "school", "name": "Bodinko DA Basic"}}, {"type": "node", "id": 7192724485, "lat": 7.6653624, "lon": -0.3864728, "tags": {"amenity": "school", "name": "Quarters DA Basic"}}, {"type": "node", "id": 7193647985, "lat": 7.6503459, "lon": -0.714536, "tags": {"amenity": "school", "name": "Mframa DA basic"}}, {"type": "node", "id": 8231107569, "lat": 7.7357046, "lon": -0.6707186}, {"type": "node", "id": 8231107570, "lat": 7.7360289, "lon": -0.6702519}, {"type": "node", "id": 8231107571, "lat": 7.7363903, "lon": -0.6679559}, {"type": "node", "id": 8231107572, "lat": 7.7360501, "lon": -0.6667543}, {"type": "node", "id": 8231107573, "lat": 7.7342907, "lon": -0.6660354}, {"type": "node", "id": 8231107574, "lat": 7.7326588, "lon": -0.6699139}, {"type": "way", "id": 885115732, "nodes": [8231107574, 8231107573, 8231107572, 8231107571, 8231107570, 8231107569, 8231107574], "tags": {"addr:country": "GH", "addr:district": "Sene West", "addr:place": "Kwame Danso", "addr:region": "Bono East", "amenity": "school", "description": "Kwame Danso Senior High Technical school was established by the Government of Ghana, Ministry of Education and Ghana Education Service on the 28th of January 1991 as a Day and Mixed School.", "email": "kwamedansoshst@ges.gov.gh", "isced:level": "3", "name": "Kwame Danso Senior High/Technical School", "operator": "Ghana Education Service", "operator:short": "GES", "operator:type": "public", "operator:wikidata": "Q30263788", "phone": "+233 24 323 4505", "start_date": "28/01/1991"}}]}