{"version": 0.6, "generator": "Overpass API 0.7.61.5 4133829e", "osm3s": {"timestamp_osm_base": "2024-03-05T13:48:58Z", "copyright": "The data included in this document is from www.openstreetmap.org. The data is made available under ODbL."}, "elements": [{"type": "node", "id": 583343337, "lat": 37.7522878, "lon": 73.2629987, "tags": {"elevation": "3991", "name": "\u0410\u043b\u0438\u0447\u0443\u0440", "name:en": "Alichur", "name:fa": "\u0627\u0644\u06cc\u0686\u0648\u0631", "name:ur": "\u0627\u0644\u06cc\u0686\u0648\u0631", "name:zh": "\u963f\u5c14\u695a\u5c14", "place": "village", "population": "1788", "wikidata": "Q6417871", "wikipedia": "en:Alichur"}}, {"type": "node", "id": 3467432273, "lat": 37.7041971, "lon": 72.9451105, "tags": {"name": "\u0411\u0443\u043b\u0443\u043d\u043a\u0443\u043b", "name:en": "Bulunkul", "name:fa": "\u0628\u0648\u0644\u0648\u0646\u200c\u06a9\u0648\u0644", "name:ky": "\u0411\u0443\u043b\u0443\u04a3\u043a\u04e9\u043b", "name:ru": "\u0411\u0443\u043b\u0443\u043d\u043a\u0443\u043b\u044c", "name:tg": "\u0411\u0443\u043b\u0443\u043d\u043a\u0443\u043b", "name:zh": "\u5e03\u4f26\u5e93\u5c14", "place": "village"}}, {"type": "node", "id": 5613822397, "lat": 37.7245888, "lon": 73.1484145, "tags": {"name": "Ak Jar", "name:zh": "\u963f\u514b\u624e\u5c14", "place": "hamlet"}}]}