{"version": 0.6, "generator": "Overpass API 0.7.61.5 4133829e", "osm3s": {"timestamp_osm_base": "2024-03-05T15:08:58Z", "copyright": "The data included in this document is from www.openstreetmap.org. The data is made available under ODbL."}, "elements": [{"type": "node", "id": 20853389, "lat": 59.1772398, "lon": 17.431243, "tags": {"name": "Nykvarn", "name:ru": "\u041d\u044e\u043a\u0432\u0430\u0440\u043d", "name:sv": "Nykvarn", "place": "town", "population": "6497", "population:date": "2009-12-31", "ref:se:pts:postort": "NYKVARN", "ref:se:scb": "0260"}}, {"type": "node", "id": 25929985, "lat": 59.3251172, "lon": 18.0710935, "tags": {"admin_level": "2", "alt_name:fit": "Tokholmi", "alt_name:gl": "Stockholm", "alt_name:he": "\u05e9\u05d8\u05d5\u05e7\u05d4\u05d5\u05dc\u05dd", "capital": "yes", "name": "Stockholm", "name:am": "\u1235\u1276\u12ae\u120d\u121d", "name:an": "Estocolmo", "name:ang": "Stoccholm", "name:ar": "\u0633\u062a\u0648\u0643\u0647\u0648\u0644\u0645", "name:arc": "\u0723\u071b\u0718\u0729\u0717\u0718\u0720\u0721", "name:arz": "\u0633\u062a\u0648\u0643\u0647\u0648\u0644\u0645", "name:ast": "Estocolmu", "name:az": "Stokholm", "name:bat-smg": "Stuokhuolms", "name:be": "\u0421\u0442\u0430\u043a\u0433\u043e\u043b\u044c\u043c", "name:be-tarask": "\u0421\u0442\u0430\u043a\u0433\u043e\u043b\u044c\u043c", "name:bg": "\u0421\u0442\u043e\u043a\u0445\u043e\u043b\u043c", "name:bn": "\u09b8\u09cd\u099f\u0995\u09b9\u09cb\u09ae", "name:bo": "\u0f66\u0f72\u0f0b\u0f4f\u0f7c\u0f42\u0f0b\u0f67\u0f7c\u0f0b\u0f63\u0f72\u0f58\u0f0d", "name:br": "Stockholm", "name:ca": "Estocolm", "name:ckb": "\u0633\u062a\u06c6\u06a9\u06be\u06c6\u06b5\u0645", "name:co": "Stoccolma", "name:cs": "Stockholm", "name:csb": "Sztokh\u00f2lm", "name:cv": "\u0421\u0442\u043e\u043a\u0433\u043e\u043b\u044c\u043c", "name:da": "Stockholm", "name:de": "Stockholm", "name:diq": "Stokholm", "name:el": "\u03a3\u03c4\u03bf\u03ba\u03c7\u03cc\u03bb\u03bc\u03b7", "name:en": "Stockholm", "name:eo": "Stokholmo", "name:es": "Estocolmo", "name:et": "Stockholm", "name:eu": "Stockholm", "name:ext": "Estocolmu", "name:fa": "\u0627\u0633\u062a\u06a9\u0647\u0644\u0645", "name:fi": "Tukholma", "name:fit": "Stokholmi", "name:fo": "Stokkh\u00f3lmur", "name:fr": "Stockholm", "name:fy": "Stokholm", "name:ga": "St\u00f3c\u00f3lm", "name:gl": "Estocolmo", "name:he": "\u05e1\u05d8\u05d5\u05e7\u05d4\u05d5\u05dc\u05dd", "name:hi": "\u0938\u094d\u091f\u0949\u0915\u0939\u094b\u092e", "name:hr": "Stockholm", "name:ht": "Stokolm", "name:hu": "Stockholm", "name:hy": "\u054d\u057f\u0578\u0584\u0570\u0578\u056c\u0574", "name:is": "Stokkh\u00f3lmur", "name:it": "Stoccolma", "name:iu": "\u1505\u1451\u1483\u14f1\u14ea\u14bb", "name:ja": "\u30b9\u30c8\u30c3\u30af\u30db\u30eb\u30e0", "name:ka": "\u10e1\u10e2\u10dd\u10d9\u10f0\u10dd\u10da\u10db\u10d8", "name:kab": "Stukulm", "name:kk": "\u0421\u0442\u043e\u043a\u0433\u043e\u043b\u044c\u043c", "name:ko": "\uc2a4\ud1a1\ud640\ub984", "name:koi": "\u0421\u0442\u0451\u043a\u043e\u043b\u043d\u0430", "name:ku": "Stokholm", "name:kv": "\u0421\u0442\u043e\u043a\u0433\u043e\u043b\u044c\u043c", "name:la": "Holmia", "name:lad": "Estokolma", "name:lij": "Stoccolma", "name:lmo": "Stuculma", "name:lt": "Stokholmas", "name:lv": "Stokholma", "name:lzh": "\u65af\u5fb7\u54e5\u723e\u6469", "name:mdf": "\u0421\u0442\u043e\u043a\u043e\u043b\u044c\u043c\u0430", "name:mhr": "\u0421\u0442\u043e\u043a\u0433\u043e\u043b\u044c\u043c", "name:mk": "\u0421\u0442\u043e\u043a\u0445\u043e\u043b\u043c", "name:ml": "\u0d38\u0d4d\u0d31\u0d4d\u0d31\u0d4b\u0d15\u0d4d\u0d15\u0d4d\u200c\u0d39\u0d4b\u0d02", "name:mr": "\u0938\u094d\u091f\u0949\u0915\u0939\u094b\u092e", "name:mrj": "\u0421\u0442\u043e\u043a\u0433\u043e\u043b\u044c\u043c", "name:mt": "Stokkolma", "name:my": "\u1005\u1010\u1031\u102c\u1037\u101f\u102f\u1019\u103a\u1038\u1019\u103c\u102d\u102f\u1037", "name:myv": "\u0421\u0442\u043e\u043a\u0433\u043e\u043b\u044c\u043c \u043e\u0448", "name:mzn": "\u0627\u0633\u062a\u06a9\u0647\u0644\u0645", "name:nah": "Estocolmo", "name:nds": "Stockholm", "name:nl": "Stockholm", "name:no": "Stockholm", "name:oc": "Estoc\u00f2lme", "name:os": "\u0421\u0442\u043e\u043a\u0433\u043e\u043b\u044c\u043c", "name:pl": "Sztokholm", "name:pms": "Stoc\u00f2lma", "name:pnb": "\u0633\u0679\u0627\u06a9\u06c1\u0648\u0645", "name:pt": "Estocolmo", "name:ru": "\u0421\u0442\u043e\u043a\u0433\u043e\u043b\u044c\u043c", "name:sah": "\u0421\u0442\u043e\u043ah\u043e\u043b\u044c\u043c", "name:sc": "Stoccolma", "name:se": "Stockholbma", "name:sju": "Tj\u00e5sskasulla", "name:sk": "\u0160tokholm", "name:sma": "Stuehkie", "name:smj": "Stockhoalmma", "name:smn": "Tukholma", "name:sq": "Stokholmi", "name:sr": "\u0421\u0442\u043e\u043a\u0445\u043e\u043b\u043c", "name:sv": "Stockholm", "name:szl": "Sztokholm", "name:ta": "\u0bb8\u0bcd\u0b9f\u0bbe\u0b95\u0bcd\u0bb9\u0bcb\u0bae\u0bcd", "name:tg": "\u0421\u0442\u043e\u043a\u04b3\u043e\u043b\u043c", "name:th": "\u0e2a\u0e15\u0e2d\u0e01\u0e42\u0e2e\u0e25\u0e4c\u0e21", "name:tt": "\u0421\u0442\u043e\u043a\u04bb\u043e\u043b\u043c", "name:udm": "\u0421\u0442\u043e\u043a\u0433\u043e\u043b\u044c\u043c", "name:ug": "Stokgolm", "name:uk": "\u0421\u0442\u043e\u043a\u0433\u043e\u043b\u044c\u043c", "name:ur": "\u0633\u0679\u0627\u06a9\u06c1\u0648\u0645", "name:uz": "Stokgolm", "name:vec": "Stoc\u00f3lma", "name:vro": "Stokholm", "name:wo": "Stokolm", "name:yi": "\u05e9\u05d8\u05d0\u05e7\u05d4\u05d0\u05dc\u05dd", "name:yue": "\u65af\u5fb7\u54e5\u723e\u6469", "name:zh": "\u65af\u5fb7\u54e5\u723e\u6469", "name:zh-Hans": "\u65af\u5fb7\u54e5\u5c14\u6469", "place": "city", "population": "984748", "population:date": "2022", "ref:se:pts:postort": "STOCKHOLM", "ref:se:scb": "0336", "short_name": "Sthlm", "source:name:br": "ofis publik ar brezhoneg", "source:population": "https://citypopulation.de/en/sweden/admin/01__stockholm/", "wikidata": "Q1754", "wikipedia": "sv:Stockholm"}}, {"type": "node", "id": 29756716, "lat": 59.3643845, "lon": 18.133142, "tags": {"gns_classification": "PPL", "gns_populated_place_classification": "3", "gns_uni": "-3437720", "name": "Liding\u00f6", "name:ru": "\u041b\u0438\u0434\u0438\u043d\u0433\u0451", "name:sv": "Liding\u00f6", "place": "town", "population": "31561", "population:date": "2009-12-31", "ref:se:pts:postort": "LIDING\u00d6", "ref:se:scb": "0228", "website": "https://www.lidingo.se/", "wikidata": "Q54349", "wikipedia": "sv:Liding\u00f6"}}, {"type": "node", "id": 30097620, "lat": 59.43674, "lon": 18.05614, "tags": {"name": "T\u00e4by", "name:he": "\u05d8\u05d1\u05d9", "name:sv": "T\u00e4by", "place": "town", "population": "75 137", "population:date": "2022-12-31", "ref:se:pts:postort": "T\u00c4BY", "ref:se:scb": "0288", "source:population": "https://kommunsiffror.scb.se/?id1=0160&id2=null", "wikidata": "Q54337", "wikipedia": "sv:T\u00e4by (t\u00e4tort)"}}, {"type": "node", "id": 30097996, "lat": 59.1964289, "lon": 17.6271663, "tags": {"capital": "municipality", "name": "S\u00f6dert\u00e4lje", "name:la": "Telga australis", "name:lt": "Siodertelj\u0117", "name:ru": "\u0421\u0451\u0434\u0435\u0440\u0442\u0435\u043b\u044c\u0435", "name:sv": "S\u00f6dert\u00e4lje", "name:zh": "\u5357\u6cf0\u5229\u8036", "old_name": "Telje", "place": "town", "population": "64619", "ref:se:pts:postort": "S\u00d6DERT\u00c4LJE", "ref:se:scb": "0356", "wikidata": "Q26518", "wikipedia": "sv:S\u00f6dert\u00e4lje"}}, {"type": "node", "id": 30895850, "lat": 59.3806804, "lon": 18.0358388, "tags": {"name": "Bergshamra", "place": "village", "wikidata": "Q15075055", "wikimedia_commons": "Category:Bergshamra", "wikipedia": "sv:Bergshamra, Solna kommun"}}, {"type": "node", "id": 30904223, "lat": 59.3754045, "lon": 18.0395025, "tags": {"name": "Tivoli", "place": "hamlet"}}, {"type": "node", "id": 31014648, "lat": 59.4204736, "lon": 17.8285472, "tags": {"name": "J\u00e4rf\u00e4lla", "name:sv": "J\u00e4rf\u00e4lla", "place": "town", "population": "65295", "population:date": "2009-12-31", "ref:se:pts:postort": "J\u00c4RF\u00c4LLA", "wikidata": "Q301259", "wikipedia": "sv:J\u00e4rf\u00e4lla kommun"}}, {"type": "node", "id": 31066580, "lat": 59.4293164, "lon": 17.9500556, "tags": {"name": "Sollentuna", "name:ru": "\u0421\u043e\u043b\u043b\u0435\u043d\u0442\u0443\u043d\u0430", "name:sv": "Sollentuna", "place": "town", "population": "73660", "population:date": "2019-09-30", "ref:se:pts:postort": "SOLLENTUNA", "wikidata": "Q503746", "wikipedia": "sv:Sollentuna kommun"}}, {"type": "node", "id": 31110308, "lat": 59.4043647, "lon": 18.0358505, "tags": {"name": "Danderyd", "name:sv": "Danderyd", "note": "This is not really a town but a municipality/kommun", "place": "town", "population": "31150", "population:date": "2009-12-31", "ref:se:pts:postort": "DANDERYD", "wikidata": "Q113679", "wikipedia": "sv:Danderyds kommun"}}, {"type": "node", "id": 31580818, "lat": 59.3792107, "lon": 18.1571139, "tags": {"gns_classification": "PPL", "gns_uni": "-3419619", "name": "Gr\u00f6nsta", "place": "hamlet"}}, {"type": "node", "id": 33014695, "lat": 59.3973535, "lon": 18.0880625, "tags": {"name": "Djursholm", "place": "town", "ref:se:pts:postort": "DJURSHOLM", "wikidata": "Q990076", "wikipedia": "sv:Djursholm"}}, {"type": "node", "id": 33014697, "lat": 59.3845769, "lon": 18.0571915, "tags": {"name": "Stocksund", "place": "village", "ref:se:pts:postort": "STOCKSUND", "source": "survey", "wikidata": "Q2943721", "wikimedia_commons": "Category:Stocksund", "wikipedia": "en:Stocksund"}}, {"type": "node", "id": 33907673, "lat": 59.4312339, "lon": 18.0395789, "tags": {"name": "Enebyberg", "place": "village", "ref:se:pts:postort": "ENEBYBERG", "wikidata": "Q5376722", "wikipedia": "sv:Enebyberg"}}, {"type": "node", "id": 35195366, "lat": 59.0774984, "lon": 17.5862156, "tags": {"name": "Sk\u00e4ve", "place": "hamlet"}}, {"type": "node", "id": 35527185, "lat": 59.0821359, "lon": 17.5987931, "tags": {"name": "Salt\u00e5", "place": "hamlet"}}, {"type": "node", "id": 35729508, "lat": 59.2005555, "lon": 17.8343123, "tags": {"name": "Tumba", "name:ru": "\u0422\u0443\u043c\u0431\u0430", "name:sv": "Tumba", "place": "town", "population": "42344", "population:date": "2018-12-31", "ref:se:pts:postort": "TUMBA", "ref:se:scb": "0372", "source": "local knowledge", "wikidata": "Q83715", "wikipedia": "sv:Tumba"}}, {"type": "node", "id": 35787479, "lat": 59.2047414, "lon": 17.820179}, {"type": "node", "id": 35968310, "lat": 59.4260518, "lon": 17.9947221, "tags": {"name": "Sj\u00f6berg", "place": "village", "population": "4627", "ref:se:scb": "0304", "wikidata": "Q2325498", "wikipedia": "sv:Sj\u00f6berg, Sollentuna kommun"}}, {"type": "node", "id": 36189702, "lat": 59.0855191, "lon": 17.5418747, "tags": {"name": "Mora", "place": "hamlet"}}, {"type": "node", "id": 36191855, "lat": 59.095069, "lon": 17.5340298}, {"type": "node", "id": 36191856, "lat": 59.0947268, "lon": 17.5344814}, {"type": "node", "id": 36736328, "lat": 59.4928802, "lon": 17.9239048, "tags": {"created_by": "Potlatch 0.6", "description": "Industrial park", "name": "Bredden", "place": "hamlet"}}, {"type": "node", "id": 38433727, "lat": 59.0949806, "lon": 17.5341415}, {"type": "node", "id": 38434175, "lat": 59.0949824, "lon": 17.533086}, {"type": "node", "id": 38434176, "lat": 59.0949214, "lon": 17.5327697}, {"type": "node", "id": 38434177, "lat": 59.0949722, "lon": 17.5323584}, {"type": "node", "id": 38434178, "lat": 59.0950819, "lon": 17.5321053}, {"type": "node", "id": 38434179, "lat": 59.0952848, "lon": 17.5318756}, {"type": "node", "id": 38434180, "lat": 59.0959867, "lon": 17.5316426}, {"type": "node", "id": 38435595, "lat": 59.0641917, "lon": 17.6241006, "tags": {"name": "Nibble", "place": "hamlet"}}, {"type": "node", "id": 38458123, "lat": 59.4399797, "lon": 17.8986205}, {"type": "node", "id": 38458124, "lat": 59.4401349, "lon": 17.899572}, {"type": "node", "id": 38458125, "lat": 59.4402838, "lon": 17.901142}, {"type": "node", "id": 39519623, "lat": 59.0913404, "lon": 17.5651066, "tags": {"name": "J\u00e4rna", "place": "village", "population": "1413", "ref:se:pts:postort": "J\u00c4RNA", "ref:se:scb": "0204", "wikidata": "Q1456393"}}, {"type": "node", "id": 42191503, "lat": 59.3793215, "lon": 18.0449496, "tags": {"created_by": "Potlatch 0.4a", "name": "Stocksundstorp", "place": "hamlet"}}, {"type": "node", "id": 46419409, "lat": 59.4853367, "lon": 17.9277183, "tags": {"created_by": "Potlatch 0.10f", "name": "Rotsunda G\u00e5rd", "place": "hamlet"}}, {"type": "node", "id": 51222563, "lat": 59.3727538, "lon": 17.9317636}, {"type": "node", "id": 51222565, "lat": 59.3732042, "lon": 17.9308108}, {"type": "node", "id": 54519667, "lat": 59.361367, "lon": 18.0013693, "tags": {"name": "Solna", "name:sv": "Solna", "place": "town", "population": "74790", "population:date": "2009-12-31", "ref:se:pts:postort": "SOLNA", "wikidata": "Q28476747", "wikipedia": "sv:Solna"}}, {"type": "node", "id": 54522077, "lat": 59.3628802, "lon": 17.9681359, "tags": {"name": "Sundbyberg", "name:sv": "Sundbyberg", "place": "town", "population": "39224", "ref:se:pts:postort": "SUNDBYBERG", "wikidata": "Q972564", "wikipedia": "sv:Sundbybergs kommun"}}, {"type": "node", "id": 56520072, "lat": 59.2904595, "lon": 17.813072, "tags": {"name": "Eker\u00f6", "name:sv": "Eker\u00f6", "place": "town", "population": "10907", "population:date": "2010-12-31", "ref:se:pts:postort": "EKER\u00d6", "ref:se:scb": "0150", "wikidata": "Q492614", "wikipedia": "sv:Eker\u00f6 kommun"}}, {"type": "node", "id": 73567698, "lat": 59.2046756, "lon": 17.8182025}, {"type": "node", "id": 150528634, "lat": 59.4786336, "lon": 17.7509445, "tags": {"name": "Kungs\u00e4ngen", "name:ru": "\u041a\u0443\u043d\u0441\u0435\u043d\u0433\u0435\u043d", "name:sv": "Kungs\u00e4ngen", "place": "town", "ref:se:pts:postort": "KUNGS\u00c4NGEN", "ref:se:scb": "0220", "website": "https://www.upplands-bro.se/"}}, {"type": "node", "id": 169259690, "lat": 59.1058506, "lon": 17.730964, "tags": {"created_by": "JOSM", "name": "Eldtomta", "place": "hamlet", "source": "yahoo + survey"}}, {"type": "node", "id": 169262158, "lat": 59.1128675, "lon": 17.7449282, "tags": {"name": "Sibble", "place": "village", "ref:se:scb": "0298", "source": "yahoo + survey", "wikidata": "Q3327958"}}, {"type": "node", "id": 175445310, "lat": 59.1653304, "lon": 17.7959288, "tags": {"name": "V\u00e5rsta", "place": "village", "population": "2396", "ref:se:scb": "0396", "source": "local knowledge", "wikidata": "Q2117458"}}, {"type": "node", "id": 221606587, "lat": 59.2067468, "lon": 17.9051873, "tags": {"name": "Tullinge", "place": "village", "population": "16894", "ref:se:pts:postort": "TULLINGE", "source": "local knowledge", "wikidata": "Q3622685", "wikipedia": "sv:Tullinge"}}, {"type": "node", "id": 247432386, "lat": 59.2624622, "lon": 17.9833486}, {"type": "node", "id": 247432387, "lat": 59.2623499, "lon": 17.9854189}, {"type": "node", "id": 247432389, "lat": 59.2608477, "lon": 17.9937917}, {"type": "node", "id": 248087933, "lat": 59.4559984, "lon": 18.1138025, "tags": {"description": "Agricultural and cultural village with pony rides, petting zoo, museum and 2 caf\u00e9s.", "name": "R\u00f6nninge By", "place": "hamlet", "tourism": "attraction", "website": "http://www.ronningeby.com", "wikidata": "Q18332368", "wikipedia": "sv:R\u00f6nninge by"}}, {"type": "node", "id": 251295429, "lat": 59.1094605, "lon": 17.6242611, "tags": {"name": "Mikaelg\u00e5rden", "place": "hamlet"}}, {"type": "node", "id": 251295510, "lat": 59.1073208, "lon": 17.629786, "tags": {"created_by": "JOSM", "name": "Brog\u00e4rde", "place": "hamlet"}}, {"type": "node", "id": 253263650, "lat": 59.1921285, "lon": 17.8052198, "tags": {"name": "Uttran", "place": "hamlet", "ref:se:pts:postort": "UTTRAN", "source": "local knowledge", "wikidata": "Q1448843"}}, {"type": "node", "id": 254738014, "lat": 59.3297313, "lon": 17.8125999, "tags": {"name": "Str\u00f6mdal", "place": "hamlet"}}, {"type": "node", "id": 254745542, "lat": 59.3106239, "lon": 17.8254831, "tags": {"created_by": "Potlatch 0.8", "name": "Lunda", "place": "hamlet"}}, {"type": "node", "id": 255590211, "lat": 59.4730055, "lon": 18.0206479, "tags": {"name": "Hagby", "place": "hamlet"}}, {"type": "node", "id": 257365213, "lat": 59.4040789, "lon": 17.5592724, "tags": {"name": "Lilla Norrby", "place": "hamlet"}}, {"type": "node", "id": 257368245, "lat": 59.4203131, "lon": 17.5566546, "tags": {"name": "Sluts hage", "place": "hamlet"}}, {"type": "node", "id": 257377343, "lat": 59.3847641, "lon": 17.5246397, "tags": {"name": "Lilla Stenby", "place": "village", "population": "244", "ref:se:pts:postort": "ADELS\u00d6", "ref:se:scb": "0230", "wikidata": "Q3543034"}}, {"type": "node", "id": 257383424, "lat": 59.3624948, "lon": 17.5986687, "tags": {"name": "Ekeby", "place": "village", "wikidata": "Q10480516"}}, {"type": "node", "id": 257504111, "lat": 59.3250922, "lon": 17.8084965, "tags": {"alt_name": "Lov\u00f6 Pr\u00e4stvik", "name": "Pr\u00e4stvik", "place": "hamlet"}}, {"type": "node", "id": 259230734, "lat": 59.23406, "lon": 18.122891}, {"type": "node", "id": 259230735, "lat": 59.2335514, "lon": 18.1199197}, {"type": "node", "id": 259230736, "lat": 59.2333426, "lon": 18.1200839}, {"type": "node", "id": 259230737, "lat": 59.2329438, "lon": 18.1198007}, {"type": "node", "id": 259230738, "lat": 59.2323101, "lon": 18.1195172}, {"type": "node", "id": 259230739, "lat": 59.2317071, "lon": 18.1171265}, {"type": "node", "id": 259231608, "lat": 59.2410932, "lon": 18.1236562}, {"type": "node", "id": 259231609, "lat": 59.2381731, "lon": 18.1218696}, {"type": "node", "id": 259231610, "lat": 59.2367455, "lon": 18.1227783}, {"type": "node", "id": 259231611, "lat": 59.2366297, "lon": 18.1230806}, {"type": "node", "id": 259231612, "lat": 59.2349673, "lon": 18.1240496}, {"type": "node", "id": 259231921, "lat": 59.2424058, "lon": 18.1336815}, {"type": "node", "id": 259231922, "lat": 59.2409381, "lon": 18.1293403}, {"type": "node", "id": 259231923, "lat": 59.241247, "lon": 18.1286312}, {"type": "node", "id": 259231924, "lat": 59.2407014, "lon": 18.1277387}, {"type": "node", "id": 259231925, "lat": 59.240578, "lon": 18.128274}, {"type": "node", "id": 259231926, "lat": 59.2404832, "lon": 18.1280362}, {"type": "node", "id": 259231927, "lat": 59.2405756, "lon": 18.127626}, {"type": "node", "id": 259231928, "lat": 59.240307, "lon": 18.1273339}, {"type": "node", "id": 259231929, "lat": 59.240583, "lon": 18.125834}, {"type": "node", "id": 259231931, "lat": 59.2406632, "lon": 18.125884}, {"type": "node", "id": 259231932, "lat": 59.240855, "lon": 18.1247965}, {"type": "node", "id": 259232035, "lat": 59.2475283, "lon": 18.1964584}, {"type": "node", "id": 259232036, "lat": 59.2474935, "lon": 18.2000673}, {"type": "node", "id": 259232037, "lat": 59.2450743, "lon": 18.1966002}, {"type": "node", "id": 259232038, "lat": 59.2319201, "lon": 18.1945493}, {"type": "node", "id": 259232039, "lat": 59.2302265, "lon": 18.1937425}, {"type": "node", "id": 259233334, "lat": 59.2691049, "lon": 18.1497944}, {"type": "node", "id": 259233337, "lat": 59.2656649, "lon": 18.1503291}, {"type": "node", "id": 259233340, "lat": 59.2554852, "lon": 18.170392}, {"type": "node", "id": 259233341, "lat": 59.254555, "lon": 18.1703785}, {"type": "node", "id": 259233342, "lat": 59.2521171, "lon": 18.1707162}, {"type": "node", "id": 259233345, "lat": 59.2463157, "lon": 18.1806015}, {"type": "node", "id": 259233346, "lat": 59.2461725, "lon": 18.1835758}, {"type": "node", "id": 259233485, "lat": 59.2796515, "lon": 18.1429601}, {"type": "node", "id": 259233759, "lat": 59.3012303, "lon": 18.1203632}, {"type": "node", "id": 259233761, "lat": 59.3014869, "lon": 18.123336}, {"type": "node", "id": 259233794, "lat": 59.3017552, "lon": 18.1122663}, {"type": "node", "id": 259233795, "lat": 59.3015359, "lon": 18.1136576}, {"type": "node", "id": 259234106, "lat": 59.3113644, "lon": 18.1094686}, {"type": "node", "id": 259234107, "lat": 59.3089357, "lon": 18.1130848}, {"type": "node", "id": 259234108, "lat": 59.3089531, "lon": 18.1126112}, {"type": "node", "id": 259234109, "lat": 59.3074277, "lon": 18.1127941}, {"type": "node", "id": 259234110, "lat": 59.3060626, "lon": 18.1129202}, {"type": "node", "id": 259234111, "lat": 59.3060375, "lon": 18.1132366}, {"type": "node", "id": 259234112, "lat": 59.3052474, "lon": 18.1133555}, {"type": "node", "id": 259234113, "lat": 59.3049056, "lon": 18.1134671}, {"type": "node", "id": 259234114, "lat": 59.3045934, "lon": 18.1138601}, {"type": "node", "id": 259234115, "lat": 59.3043119, "lon": 18.1142259}, {"type": "node", "id": 259234116, "lat": 59.3040525, "lon": 18.1141774}, {"type": "node", "id": 259234117, "lat": 59.302901, "lon": 18.1120436}, {"type": "node", "id": 259234118, "lat": 59.3023801, "lon": 18.1119506}, {"type": "node", "id": 259234119, "lat": 59.301839, "lon": 18.1109236}, {"type": "node", "id": 259234242, "lat": 59.2296093, "lon": 18.1081198}, {"type": "node", "id": 259234243, "lat": 59.2272559, "lon": 18.1080225}, {"type": "node", "id": 259234244, "lat": 59.2316624, "lon": 18.087322}, {"type": "node", "id": 259234353, "lat": 59.3176937, "lon": 18.1093091}, {"type": "node", "id": 259234355, "lat": 59.3151099, "lon": 18.1085598}, {"type": "node", "id": 259234357, "lat": 59.3150348, "lon": 18.1080813}, {"type": "node", "id": 259234359, "lat": 59.3151651, "lon": 18.1078053}, {"type": "node", "id": 259234361, "lat": 59.3137199, "lon": 18.1053536}, {"type": "node", "id": 259234364, "lat": 59.313352, "lon": 18.1061952}, {"type": "node", "id": 259234368, "lat": 59.3123558, "lon": 18.1075414}, {"type": "node", "id": 259234370, "lat": 59.3114686, "lon": 18.1086552}, {"type": "node", "id": 259234867, "lat": 59.3477037, "lon": 18.126095}, {"type": "node", "id": 259234868, "lat": 59.3442495, "lon": 18.1383309}, {"type": "node", "id": 259234869, "lat": 59.3346051, "lon": 18.1605081}, {"type": "node", "id": 259234870, "lat": 59.3282298, "lon": 18.1603462}, {"type": "node", "id": 259234872, "lat": 59.3208429, "lon": 18.1603107}, {"type": "node", "id": 259234873, "lat": 59.3186732, "lon": 18.149239}, {"type": "node", "id": 259234874, "lat": 59.3202468, "lon": 18.1386415}, {"type": "node", "id": 259234876, "lat": 59.3196573, "lon": 18.1294773}, {"type": "node", "id": 259234877, "lat": 59.3184507, "lon": 18.126797}, {"type": "node", "id": 259234878, "lat": 59.3180279, "lon": 18.1243445}, {"type": "node", "id": 259234879, "lat": 59.3185291, "lon": 18.1203442}, {"type": "node", "id": 259234880, "lat": 59.3178677, "lon": 18.1164182}, {"type": "node", "id": 259234881, "lat": 59.3175193, "lon": 18.1123076}, {"type": "node", "id": 259234887, "lat": 59.3654238, "lon": 18.102508}, {"type": "node", "id": 259234888, "lat": 59.3600711, "lon": 18.1111755}, {"type": "node", "id": 259234889, "lat": 59.3530638, "lon": 18.1189186}, {"type": "node", "id": 259235139, "lat": 59.3753445, "lon": 18.0617461}, {"type": "node", "id": 259235141, "lat": 59.3714289, "lon": 18.0812549}, {"type": "node", "id": 259235691, "lat": 59.3758167, "lon": 18.048478}, {"type": "node", "id": 259236131, "lat": 59.3571337, "lon": 18.0490305}, {"type": "node", "id": 259236132, "lat": 59.3655082, "lon": 18.043548}, {"type": "node", "id": 259236133, "lat": 59.3685186, "lon": 18.0387922}, {"type": "node", "id": 259236134, "lat": 59.3697881, "lon": 18.0371213}, {"type": "node", "id": 259236135, "lat": 59.3708552, "lon": 18.0369268}, {"type": "node", "id": 259236137, "lat": 59.3722395, "lon": 18.0430314}, {"type": "node", "id": 259236138, "lat": 59.3725804, "lon": 18.0434807}, {"type": "node", "id": 259236139, "lat": 59.3736345, "lon": 18.0428998}, {"type": "node", "id": 259236140, "lat": 59.3743412, "lon": 18.0429387}, {"type": "node", "id": 259236141, "lat": 59.3750346, "lon": 18.0437514}, {"type": "node", "id": 259236409, "lat": 59.3546819, "lon": 18.0453298}, {"type": "node", "id": 259236410, "lat": 59.3564219, "lon": 18.0487143}, {"type": "node", "id": 259236412, "lat": 59.3565516, "lon": 18.0488353}, {"type": "node", "id": 259238839, "lat": 59.3501758, "lon": 18.0432912}, {"type": "node", "id": 259238840, "lat": 59.351517, "lon": 18.0445389}, {"type": "node", "id": 259238841, "lat": 59.3535756, "lon": 18.0447711}, {"type": "node", "id": 259238901, "lat": 59.3468394, "lon": 18.0296595}, {"type": "node", "id": 259238904, "lat": 59.348528, "lon": 18.0322813}, {"type": "node", "id": 259238906, "lat": 59.3486582, "lon": 18.0340548}, {"type": "node", "id": 259238907, "lat": 59.3507535, "lon": 18.039313}, {"type": "node", "id": 259238908, "lat": 59.3508222, "lon": 18.040509}, {"type": "node", "id": 259238909, "lat": 59.3510977, "lon": 18.0418601}, {"type": "node", "id": 259238910, "lat": 59.3500556, "lon": 18.0428365}, {"type": "node", "id": 259239114, "lat": 59.3427074, "lon": 18.0254139}, {"type": "node", "id": 259239115, "lat": 59.3432403, "lon": 18.0256149}, {"type": "node", "id": 259239116, "lat": 59.3438747, "lon": 18.0259786}, {"type": "node", "id": 259239117, "lat": 59.3443996, "lon": 18.0253156}, {"type": "node", "id": 259239118, "lat": 59.3445683, "lon": 18.0261412}, {"type": "node", "id": 259239119, "lat": 59.3446948, "lon": 18.0264649}, {"type": "node", "id": 259239120, "lat": 59.3454261, "lon": 18.0276967}, {"type": "node", "id": 259239121, "lat": 59.3459261, "lon": 18.0283274}, {"type": "node", "id": 259239155, "lat": 59.3399383, "lon": 18.0168021}, {"type": "node", "id": 259239156, "lat": 59.339688, "lon": 18.0183854}, {"type": "node", "id": 259239157, "lat": 59.3395959, "lon": 18.0234982}, {"type": "node", "id": 259239158, "lat": 59.339345, "lon": 18.0247713}, {"type": "node", "id": 259239159, "lat": 59.34111, "lon": 18.0254568}, {"type": "node", "id": 259242021, "lat": 59.3621616, "lon": 17.9587745}, {"type": "node", "id": 259242022, "lat": 59.3711228, "lon": 17.9399776}, {"type": "node", "id": 259242023, "lat": 59.3708954, "lon": 17.9406985}, {"type": "node", "id": 259242024, "lat": 59.3705149, "lon": 17.9417113}, {"type": "node", "id": 259242025, "lat": 59.3699333, "lon": 17.9428443}, {"type": "node", "id": 259242026, "lat": 59.3692817, "lon": 17.9439858}, {"type": "node", "id": 259242027, "lat": 59.3684902, "lon": 17.9447326}, {"type": "node", "id": 259242028, "lat": 59.3676812, "lon": 17.9451188}, {"type": "node", "id": 259242029, "lat": 59.3672657, "lon": 17.9467839}, {"type": "node", "id": 259242030, "lat": 59.366859, "lon": 17.9484233}, {"type": "node", "id": 259242031, "lat": 59.3662117, "lon": 17.951024}, {"type": "node", "id": 259242032, "lat": 59.3657219, "lon": 17.9503888}, {"type": "node", "id": 259242033, "lat": 59.3651489, "lon": 17.9521913}, {"type": "node", "id": 259242034, "lat": 59.3647072, "lon": 17.9528693}, {"type": "node", "id": 259242035, "lat": 59.3641298, "lon": 17.9543885}, {"type": "node", "id": 259242036, "lat": 59.3631501, "lon": 17.9565772}, {"type": "node", "id": 259242037, "lat": 59.362026, "lon": 17.9588861}, {"type": "node", "id": 259242038, "lat": 59.3610681, "lon": 17.9601134}, {"type": "node", "id": 259242039, "lat": 59.3606, "lon": 17.9603881}, {"type": "node", "id": 259242040, "lat": 59.3595633, "lon": 17.9613408}, {"type": "node", "id": 259242041, "lat": 59.3589115, "lon": 17.9622506}, {"type": "node", "id": 259242042, "lat": 59.3573892, "lon": 17.9637956}, {"type": "node", "id": 259242043, "lat": 59.3561643, "lon": 17.9649114}, {"type": "node", "id": 259242044, "lat": 59.3538876, "lon": 17.966062}, {"type": "node", "id": 259242045, "lat": 59.3517, "lon": 17.9699673}, {"type": "node", "id": 259242046, "lat": 59.3498623, "lon": 17.9739584}, {"type": "node", "id": 259242047, "lat": 59.3483308, "lon": 17.9779495}, {"type": "node", "id": 259242049, "lat": 59.3450674, "lon": 17.9813762}, {"type": "node", "id": 259242050, "lat": 59.3441303, "lon": 17.9870946}, {"type": "node", "id": 259242051, "lat": 59.3407838, "lon": 17.9982215}, {"type": "node", "id": 259242052, "lat": 59.341825, "lon": 18.0047573}, {"type": "node", "id": 259242053, "lat": 59.341285, "lon": 18.0076778}, {"type": "node", "id": 259242054, "lat": 59.3408468, "lon": 18.0114804}, {"type": "node", "id": 259242055, "lat": 59.3406609, "lon": 18.0137004}, {"type": "node", "id": 259242056, "lat": 59.3403912, "lon": 18.0152112}, {"type": "node", "id": 259242057, "lat": 59.3402269, "lon": 18.0155306}, {"type": "node", "id": 259481914, "lat": 59.3812138, "lon": 17.9354543}, {"type": "node", "id": 259481915, "lat": 59.3808335, "lon": 17.9351024}, {"type": "node", "id": 259481916, "lat": 59.3804444, "lon": 17.9345788}, {"type": "node", "id": 259481917, "lat": 59.3801209, "lon": 17.9340295}, {"type": "node", "id": 259481918, "lat": 59.3798236, "lon": 17.9332484}, {"type": "node", "id": 259481919, "lat": 59.3794258, "lon": 17.9320039}, {"type": "node", "id": 259481920, "lat": 59.3788881, "lon": 17.9304503}, {"type": "node", "id": 259481921, "lat": 59.3783897, "lon": 17.9294547}, {"type": "node", "id": 259481922, "lat": 59.377817, "lon": 17.9287252}, {"type": "node", "id": 259481923, "lat": 59.3772879, "lon": 17.9281501}, {"type": "node", "id": 259481924, "lat": 59.376877, "lon": 17.9279183}, {"type": "node", "id": 259481925, "lat": 59.3764441, "lon": 17.9278325}, {"type": "node", "id": 259481926, "lat": 59.376208, "lon": 17.9278754}, {"type": "node", "id": 259481927, "lat": 59.3760156, "lon": 17.9280213}, {"type": "node", "id": 259481928, "lat": 59.3758757, "lon": 17.9282273}, {"type": "node", "id": 259481929, "lat": 59.3757795, "lon": 17.9285707}, {"type": "node", "id": 259481930, "lat": 59.3755828, "lon": 17.9288281}, {"type": "node", "id": 259481931, "lat": 59.3754822, "lon": 17.9288539}, {"type": "node", "id": 259481932, "lat": 59.3752811, "lon": 17.9286994}, {"type": "node", "id": 259481933, "lat": 59.3751893, "lon": 17.9285106}, {"type": "node", "id": 259481934, "lat": 59.3749925, "lon": 17.9283132}, {"type": "node", "id": 259481935, "lat": 59.3748089, "lon": 17.9280385}, {"type": "node", "id": 259481936, "lat": 59.3747127, "lon": 17.9280299}, {"type": "node", "id": 259481937, "lat": 59.3746296, "lon": 17.9276523}, {"type": "node", "id": 259481938, "lat": 59.3744241, "lon": 17.9277553}, {"type": "node", "id": 259481939, "lat": 59.3744941, "lon": 17.9281158}, {"type": "node", "id": 259481940, "lat": 59.374413, "lon": 17.9282163}, {"type": "node", "id": 259481942, "lat": 59.3733075, "lon": 17.9302057}, {"type": "node", "id": 259481944, "lat": 59.3724914, "lon": 17.9328879}, {"type": "node", "id": 259481945, "lat": 59.3723646, "lon": 17.9341497}, {"type": "node", "id": 259481946, "lat": 59.3722903, "lon": 17.9351367}, {"type": "node", "id": 259481947, "lat": 59.372076, "lon": 17.9363555}, {"type": "node", "id": 259481948, "lat": 59.3716956, "lon": 17.9381923}, {"type": "node", "id": 259481949, "lat": 59.3713545, "lon": 17.939042}, {"type": "node", "id": 259490559, "lat": 59.3860382, "lon": 17.9393543}, {"type": "node", "id": 259490560, "lat": 59.3850383, "lon": 17.9383902}, {"type": "node", "id": 259490561, "lat": 59.3840476, "lon": 17.9370035}, {"type": "node", "id": 259490562, "lat": 59.3834279, "lon": 17.9364283}, {"type": "node", "id": 259490563, "lat": 59.3820237, "lon": 17.9360116}, {"type": "node", "id": 259491030, "lat": 59.426931, "lon": 17.9151256}, {"type": "node", "id": 259491031, "lat": 59.4245948, "lon": 17.9200001}, {"type": "node", "id": 259491032, "lat": 59.4235102, "lon": 17.91999}, {"type": "node", "id": 259491034, "lat": 59.4203342, "lon": 17.9247254}, {"type": "node", "id": 259491035, "lat": 59.4202469, "lon": 17.9243564}, {"type": "node", "id": 259491036, "lat": 59.4191683, "lon": 17.9266051}, {"type": "node", "id": 259491037, "lat": 59.4180766, "lon": 17.9287166}, {"type": "node", "id": 259491038, "lat": 59.4187971, "lon": 17.9298495}, {"type": "node", "id": 259491039, "lat": 59.4180111, "lon": 17.931755}, {"type": "node", "id": 259491040, "lat": 59.4162993, "lon": 17.9359178}, {"type": "node", "id": 259491041, "lat": 59.4142642, "lon": 17.9408788}, {"type": "node", "id": 259491042, "lat": 59.4127531, "lon": 17.9451961}, {"type": "node", "id": 259491043, "lat": 59.4115913, "lon": 17.9491271}, {"type": "node", "id": 259491044, "lat": 59.4101718, "lon": 17.9531096}, {"type": "node", "id": 259491045, "lat": 59.4068521, "lon": 17.9614781}, {"type": "node", "id": 259491046, "lat": 59.4040885, "lon": 17.9681283}, {"type": "node", "id": 259491047, "lat": 59.4022706, "lon": 17.9721486}, {"type": "node", "id": 259491048, "lat": 59.3996192, "lon": 17.9759995}, {"type": "node", "id": 259491049, "lat": 59.4007173, "lon": 17.9735252}, {"type": "node", "id": 259491050, "lat": 59.4004525, "lon": 17.9726672}, {"type": "node", "id": 259491051, "lat": 59.4014278, "lon": 17.9709569}, {"type": "node", "id": 259491052, "lat": 59.4014481, "lon": 17.9686622}, {"type": "node", "id": 259491053, "lat": 59.3993331, "lon": 17.9645378}, {"type": "node", "id": 259491054, "lat": 59.3994041, "lon": 17.9637544}, {"type": "node", "id": 259491055, "lat": 59.3991849, "lon": 17.9628257}, {"type": "node", "id": 259491056, "lat": 59.39952, "lon": 17.9601652}, {"type": "node", "id": 259491057, "lat": 59.3988245, "lon": 17.9573879}, {"type": "node", "id": 259491058, "lat": 59.3979663, "lon": 17.9547315}, {"type": "node", "id": 259491059, "lat": 59.3970818, "lon": 17.9532096}, {"type": "node", "id": 259491060, "lat": 59.395851, "lon": 17.9515904}, {"type": "node", "id": 259491061, "lat": 59.3940004, "lon": 17.9498199}, {"type": "node", "id": 259491062, "lat": 59.3918569, "lon": 17.9485606}, {"type": "node", "id": 259491063, "lat": 59.3898895, "lon": 17.9469735}, {"type": "node", "id": 259491064, "lat": 59.3892066, "lon": 17.9456642}, {"type": "node", "id": 259491065, "lat": 59.3878666, "lon": 17.9414918}, {"type": "node", "id": 259492106, "lat": 59.4118359, "lon": 17.896161}, {"type": "node", "id": 259492431, "lat": 59.3936035, "lon": 17.8675383}, {"type": "node", "id": 259492432, "lat": 59.3964276, "lon": 17.8693863}, {"type": "node", "id": 259492433, "lat": 59.3956227, "lon": 17.8721259}, {"type": "node", "id": 259492434, "lat": 59.3984734, "lon": 17.8773807}, {"type": "node", "id": 259492435, "lat": 59.3996655, "lon": 17.8750638}, {"type": "node", "id": 259492436, "lat": 59.4003952, "lon": 17.873433}, {"type": "node", "id": 259492437, "lat": 59.400701, "lon": 17.8729009}, {"type": "node", "id": 259492438, "lat": 59.4011073, "lon": 17.8721284}, {"type": "node", "id": 259492439, "lat": 59.4015093, "lon": 17.8716306}, {"type": "node", "id": 259492440, "lat": 59.4020991, "lon": 17.8713731}, {"type": "node", "id": 259492441, "lat": 59.4036281, "lon": 17.8749608}, {"type": "node", "id": 259492442, "lat": 59.4031956, "lon": 17.876377}, {"type": "node", "id": 259492443, "lat": 59.40365, "lon": 17.8787803}, {"type": "node", "id": 259492444, "lat": 59.4047334, "lon": 17.8834409}, {"type": "node", "id": 259492445, "lat": 59.4050829, "lon": 17.8846768}, {"type": "node", "id": 259492446, "lat": 59.4060964, "lon": 17.8877324}, {"type": "node", "id": 259492447, "lat": 59.4072146, "lon": 17.8899983}, {"type": "node", "id": 259492448, "lat": 59.4077607, "lon": 17.8909682}, {"type": "node", "id": 259492449, "lat": 59.409783, "lon": 17.893114}, {"type": "node", "id": 259492843, "lat": 59.3810918, "lon": 17.8308461}, {"type": "node", "id": 259492844, "lat": 59.381319, "lon": 17.8399355}, {"type": "node", "id": 259492845, "lat": 59.3839678, "lon": 17.8438043}, {"type": "node", "id": 259492846, "lat": 59.3857191, "lon": 17.8465361}, {"type": "node", "id": 259492847, "lat": 59.3866715, "lon": 17.8489048}, {"type": "node", "id": 259492848, "lat": 59.38922, "lon": 17.8552455}, {"type": "node", "id": 259492849, "lat": 59.3897463, "lon": 17.8613613}, {"type": "node", "id": 259492850, "lat": 59.3911487, "lon": 17.8630382}, {"type": "node", "id": 259492851, "lat": 59.3916027, "lon": 17.8643658}, {"type": "node", "id": 259494419, "lat": 59.2731887, "lon": 17.8721487}, {"type": "node", "id": 259494420, "lat": 59.2745482, "lon": 17.8634369}, {"type": "node", "id": 259494421, "lat": 59.279563, "lon": 17.8677939}, {"type": "node", "id": 259494422, "lat": 59.2861831, "lon": 17.8665065}, {"type": "node", "id": 259494423, "lat": 59.2880243, "lon": 17.886505}, {"type": "node", "id": 259494424, "lat": 59.2912241, "lon": 17.8892516}, {"type": "node", "id": 259494425, "lat": 59.2928897, "lon": 17.891569}, {"type": "node", "id": 259494426, "lat": 59.2936786, "lon": 17.8958606}, {"type": "node", "id": 259494427, "lat": 59.2959576, "lon": 17.904787}, {"type": "node", "id": 259494428, "lat": 59.2984556, "lon": 17.9078769}, {"type": "node", "id": 259494429, "lat": 59.2997264, "lon": 17.9116534}, {"type": "node", "id": 259494430, "lat": 59.3001646, "lon": 17.9160308}, {"type": "node", "id": 259494431, "lat": 59.3018297, "lon": 17.9235839}, {"type": "node", "id": 259494432, "lat": 59.3031004, "lon": 17.927103}, {"type": "node", "id": 259494441, "lat": 59.3179947, "lon": 17.9398059}, {"type": "node", "id": 259494443, "lat": 59.3218486, "lon": 17.9263305}, {"type": "node", "id": 259494448, "lat": 59.3342833, "lon": 17.8933715}, {"type": "node", "id": 259494449, "lat": 59.3334515, "lon": 17.8882216}, {"type": "node", "id": 259494450, "lat": 59.3348061, "lon": 17.8846815}, {"type": "node", "id": 259494451, "lat": 59.3362094, "lon": 17.8798961}, {"type": "node", "id": 259494454, "lat": 59.344994, "lon": 17.8583584}, {"type": "node", "id": 259494455, "lat": 59.3523143, "lon": 17.8408431}, {"type": "node", "id": 259494456, "lat": 59.3508266, "lon": 17.8310584}, {"type": "node", "id": 259494458, "lat": 59.3549017, "lon": 17.8242614}, {"type": "node", "id": 259494462, "lat": 59.3667059, "lon": 17.7880572}, {"type": "node", "id": 259494463, "lat": 59.3703356, "lon": 17.7884864}, {"type": "node", "id": 259494464, "lat": 59.3835394, "lon": 17.7750968}, {"type": "node", "id": 259494465, "lat": 59.3887845, "lon": 17.762308}, {"type": "node", "id": 259494466, "lat": 59.3917673, "lon": 17.7606917}, {"type": "node", "id": 259494468, "lat": 59.3905063, "lon": 17.7986875}, {"type": "node", "id": 259494470, "lat": 59.3949734, "lon": 17.8094739}, {"type": "node", "id": 259494471, "lat": 59.3956893, "lon": 17.8110427}, {"type": "node", "id": 259494472, "lat": 59.3964147, "lon": 17.8122872}, {"type": "node", "id": 259494473, "lat": 59.3974241, "lon": 17.814021}, {"type": "node", "id": 259494474, "lat": 59.3978086, "lon": 17.8147334}, {"type": "node", "id": 259494475, "lat": 59.3979047, "lon": 17.8152827}, {"type": "node", "id": 259494476, "lat": 59.3979615, "lon": 17.8160209}, {"type": "node", "id": 259494477, "lat": 59.3985295, "lon": 17.8165359}, {"type": "node", "id": 259494478, "lat": 59.3989665, "lon": 17.8171968}, {"type": "node", "id": 259494479, "lat": 59.3983548, "lon": 17.8180551}, {"type": "node", "id": 259494480, "lat": 59.3981669, "lon": 17.8185271}, {"type": "node", "id": 259494481, "lat": 59.3977736, "lon": 17.8189305}, {"type": "node", "id": 259494482, "lat": 59.3972755, "lon": 17.8197888}, {"type": "node", "id": 259494483, "lat": 59.3964628, "lon": 17.8199605}, {"type": "node", "id": 259494484, "lat": 59.3938628, "lon": 17.8239688}, {"type": "node", "id": 259494485, "lat": 59.3915474, "lon": 17.8272038}, {"type": "node", "id": 259494486, "lat": 59.3876976, "lon": 17.8262901}, {"type": "node", "id": 259494487, "lat": 59.3817034, "lon": 17.824664}, {"type": "node", "id": 259494945, "lat": 59.2702898, "lon": 17.8877665}, {"type": "node", "id": 259495470, "lat": 59.2691714, "lon": 17.8875949}, {"type": "node", "id": 259495471, "lat": 59.2690179, "lon": 17.8878095}, {"type": "node", "id": 259495472, "lat": 59.2689345, "lon": 17.892319}, {"type": "node", "id": 259495473, "lat": 59.2679915, "lon": 17.8924638}, {"type": "node", "id": 259495474, "lat": 59.2673446, "lon": 17.8937674}, {"type": "node", "id": 259495475, "lat": 59.2673199, "lon": 17.8953338}, {"type": "node", "id": 259495476, "lat": 59.2674844, "lon": 17.8969163}, {"type": "node", "id": 259495477, "lat": 59.2673994, "lon": 17.8978282}, {"type": "node", "id": 259495478, "lat": 59.2678337, "lon": 17.8985383}, {"type": "node", "id": 259495479, "lat": 59.2680926, "lon": 17.8995119}, {"type": "node", "id": 259495481, "lat": 59.2683426, "lon": 17.9010397}, {"type": "node", "id": 259495482, "lat": 59.2683997, "lon": 17.9027392}, {"type": "node", "id": 259495483, "lat": 59.2684172, "lon": 17.9040781}, {"type": "node", "id": 259495484, "lat": 59.2684916, "lon": 17.9053189}, {"type": "node", "id": 259495486, "lat": 59.2687418, "lon": 17.9068075}, {"type": "node", "id": 259495487, "lat": 59.2692944, "lon": 17.9081637}, {"type": "node", "id": 259495489, "lat": 59.2700486, "lon": 17.9091813}, {"type": "node", "id": 259495490, "lat": 59.2709696, "lon": 17.9100825}, {"type": "node", "id": 259495491, "lat": 59.272395, "lon": 17.9113271}, {"type": "node", "id": 259495492, "lat": 59.2734037, "lon": 17.911885}, {"type": "node", "id": 259495493, "lat": 59.2774545, "lon": 17.9142668}, {"type": "node", "id": 259495494, "lat": 59.27897, "lon": 17.9152699}, {"type": "node", "id": 259495495, "lat": 59.280332, "lon": 17.9202964}, {"type": "node", "id": 259495496, "lat": 59.2814719, "lon": 17.9228284}, {"type": "node", "id": 259495497, "lat": 59.2822173, "lon": 17.924545}, {"type": "node", "id": 259495498, "lat": 59.2828749, "lon": 17.9267766}, {"type": "node", "id": 259495499, "lat": 59.2860095, "lon": 17.9403808}, {"type": "node", "id": 259495500, "lat": 59.2877599, "lon": 17.9479198}, {"type": "node", "id": 259495501, "lat": 59.28738, "lon": 17.9482874}, {"type": "node", "id": 259495502, "lat": 59.2871054, "lon": 17.9472043}, {"type": "node", "id": 259495503, "lat": 59.286976, "lon": 17.946889}, {"type": "node", "id": 259495504, "lat": 59.286482, "lon": 17.9466055}, {"type": "node", "id": 259495506, "lat": 59.2863193, "lon": 17.9467665}, {"type": "node", "id": 259495507, "lat": 59.2861196, "lon": 17.9471771}, {"type": "node", "id": 259495508, "lat": 59.2859876, "lon": 17.9479768}, {"type": "node", "id": 259495509, "lat": 59.2860558, "lon": 17.9488984}, {"type": "node", "id": 259495510, "lat": 59.2861289, "lon": 17.9499412}, {"type": "node", "id": 259495511, "lat": 59.2858122, "lon": 17.9499509}, {"type": "node", "id": 259495513, "lat": 59.2854177, "lon": 17.9497363}, {"type": "node", "id": 259495514, "lat": 59.2851262, "lon": 17.9493785}, {"type": "node", "id": 259495515, "lat": 59.2843436, "lon": 17.9508092}, {"type": "node", "id": 259495517, "lat": 59.2702229, "lon": 17.8815955}, {"type": "node", "id": 259495518, "lat": 59.2681396, "lon": 17.8778994}, {"type": "node", "id": 259495519, "lat": 59.2690552, "lon": 17.8752601}, {"type": "node", "id": 259495956, "lat": 59.283307, "lon": 17.9528747}, {"type": "node", "id": 259495957, "lat": 59.2823074, "lon": 17.9559978}, {"type": "node", "id": 259495958, "lat": 59.2798348, "lon": 17.9568468}, {"type": "node", "id": 259495965, "lat": 59.2719651, "lon": 17.958944}, {"type": "node", "id": 259495966, "lat": 59.2708786, "lon": 17.9602095}, {"type": "node", "id": 259495967, "lat": 59.2693481, "lon": 17.9615474}, {"type": "node", "id": 259495968, "lat": 59.2690623, "lon": 17.9627559}, {"type": "node", "id": 259495969, "lat": 59.268486, "lon": 17.963408}, {"type": "node", "id": 259495971, "lat": 59.2677815, "lon": 17.9669594}, {"type": "node", "id": 259495972, "lat": 59.266992, "lon": 17.9683969}, {"type": "node", "id": 259495973, "lat": 59.2665858, "lon": 17.9707966}, {"type": "node", "id": 259495975, "lat": 59.2654212, "lon": 17.9723956}, {"type": "node", "id": 259495976, "lat": 59.2645439, "lon": 17.9743697}, {"type": "node", "id": 259495977, "lat": 59.2640805, "lon": 17.9758682}, {"type": "node", "id": 259495978, "lat": 59.2638962, "lon": 17.9775201}, {"type": "node", "id": 259495979, "lat": 59.2629959, "lon": 17.9802993}, {"type": "node", "id": 259495980, "lat": 59.2625742, "lon": 17.9802418}, {"type": "node", "id": 259495982, "lat": 59.2624767, "lon": 17.9826559}, {"type": "node", "id": 259496126, "lat": 59.2586528, "lon": 18.004884}, {"type": "node", "id": 259496250, "lat": 59.2567013, "lon": 18.0099722}, {"type": "node", "id": 259496339, "lat": 59.2561105, "lon": 18.0154142}, {"type": "node", "id": 259496340, "lat": 59.2553072, "lon": 18.016675}, {"type": "node", "id": 259496341, "lat": 59.2554068, "lon": 18.0181192}, {"type": "node", "id": 259496631, "lat": 59.2530177, "lon": 18.020793}, {"type": "node", "id": 259496632, "lat": 59.2518472, "lon": 18.0235619}, {"type": "node", "id": 259496633, "lat": 59.2513596, "lon": 18.0251214}, {"type": "node", "id": 259496634, "lat": 59.2512577, "lon": 18.025674}, {"type": "node", "id": 259496635, "lat": 59.2497946, "lon": 18.0283429}, {"type": "node", "id": 259496636, "lat": 59.2449334, "lon": 18.049988}, {"type": "node", "id": 259496637, "lat": 59.2467736, "lon": 18.0521752}, {"type": "node", "id": 259496638, "lat": 59.2408727, "lon": 18.0627068}, {"type": "node", "id": 259496640, "lat": 59.2406205, "lon": 18.0622359}, {"type": "node", "id": 259496641, "lat": 59.2392817, "lon": 18.0617042}, {"type": "node", "id": 259496642, "lat": 59.2388017, "lon": 18.0612382}, {"type": "node", "id": 259496643, "lat": 59.2381649, "lon": 18.0612185}, {"type": "node", "id": 259496644, "lat": 59.237772, "lon": 18.0629761}, {"type": "node", "id": 259496645, "lat": 59.2380495, "lon": 18.0634796}, {"type": "node", "id": 259496646, "lat": 59.2382529, "lon": 18.0644866}, {"type": "node", "id": 259496647, "lat": 59.2387171, "lon": 18.0653445}, {"type": "node", "id": 259496648, "lat": 59.2393544, "lon": 18.0652532}, {"type": "node", "id": 259496649, "lat": 59.2386678, "lon": 18.0664828}, {"type": "node", "id": 259496650, "lat": 59.2339085, "lon": 18.0736834}, {"type": "node", "id": 259496746, "lat": 59.2317356, "lon": 18.0813758}, {"type": "node", "id": 259504642, "lat": 59.2339312, "lon": 18.1223005}, {"type": "node", "id": 260044598, "lat": 59.2502861, "lon": 18.1753868}, {"type": "node", "id": 260044600, "lat": 59.2512021, "lon": 18.1747544}, {"type": "node", "id": 261024019, "lat": 59.3932622, "lon": 17.8671834}, {"type": "node", "id": 265058125, "lat": 59.2623832, "lon": 17.9843878}, {"type": "node", "id": 272655087, "lat": 59.1397739, "lon": 17.8334224, "tags": {"name": "Rosenhill", "place": "hamlet"}}, {"type": "node", "id": 274663105, "lat": 59.1204157, "lon": 17.7521312, "tags": {"name": "Sn\u00e4ckstavik", "place": "hamlet", "source": "survey"}}, {"type": "node", "id": 280248782, "lat": 59.3847364, "lon": 17.8451589}, {"type": "node", "id": 282590557, "lat": 59.2850093, "lon": 17.9361301}, {"type": "node", "id": 294078837, "lat": 59.4212424, "lon": 17.9230517}, {"type": "node", "id": 299795114, "lat": 59.0960233, "lon": 18.0436508, "tags": {"name": "Lillg\u00e5rden", "place": "village"}}, {"type": "node", "id": 304051622, "lat": 59.1423991, "lon": 18.1317918, "tags": {"name": "Jordbro", "name:sv": "Jordbro", "place": "town", "population": "10291", "ref:se:pts:postort": "JORDBRO", "ref:se:scb": "0200", "wikidata": "Q1703720"}}, {"type": "node", "id": 304950828, "lat": 59.4999692, "lon": 17.5667362, "tags": {"created_by": "Potlatch 0.10e", "name": "S\u00e4byholm", "place": "hamlet"}}, {"type": "node", "id": 322329736, "lat": 59.1676451, "lon": 18.1409008, "tags": {"name": "Handen", "name:ru": "\u0425\u0430\u043d\u0434\u0435\u043d", "name:sv": "Handen", "place": "town", "population": "12233", "population:date": "2009-12-31", "ref:se:pts:postort": "HANDEN", "wikidata": "Q1574991", "wikipedia": "sv:Handen"}}, {"type": "node", "id": 332040843, "lat": 59.3493442, "lon": 18.0351826}, {"type": "node", "id": 332333143, "lat": 59.1787546, "lon": 18.1372258, "tags": {"name": "Mellanberg", "place": "hamlet"}}, {"type": "node", "id": 334076843, "lat": 59.3651614, "lon": 17.952152}, {"type": "node", "id": 337541585, "lat": 59.4801496, "lon": 17.7199533, "tags": {"created_by": "Potlatch 0.10f", "name": "Sylta", "place": "village", "wikidata": "Q1780980"}}, {"type": "node", "id": 337546905, "lat": 59.3758519, "lon": 18.086003, "tags": {"name": "Tranholmen", "place": "village", "ref:se:scb": "0368"}}, {"type": "node", "id": 337560426, "lat": 59.3347494, "lon": 17.6873646, "tags": {"name": "Stenhamra", "place": "village", "ref:se:pts:postort": "STENHAMRA", "ref:se:scb": "0328"}}, {"type": "node", "id": 337562444, "lat": 59.4059677, "lon": 17.6279524, "tags": {"name": "Kungsberga", "place": "village", "population": "382", "ref:se:scb": "0218", "wikidata": "Q2626626"}}, {"type": "node", "id": 337565332, "lat": 59.2884738, "lon": 17.763994, "tags": {"name": "\u00c4lvn\u00e4s", "place": "village", "population": "517", "ref:se:scb": "0414", "wikidata": "Q2224680"}}, {"type": "node", "id": 337567754, "lat": 59.2748822, "lon": 17.7324083, "tags": {"name": "Eker\u00f6 sommarstad", "place": "village", "population": "544", "ref:se:scb": "0151"}}, {"type": "node", "id": 337571382, "lat": 59.3159412, "lon": 17.7264626, "tags": {"name": "Tureholm", "place": "village", "population": "260", "ref:se:scb": "0378", "wikidata": "Q1865068"}}, {"type": "node", "id": 337576269, "lat": 59.324925, "lon": 17.8873327, "tags": {"name": "Drottningholm", "place": "village", "population": "398", "ref:se:pts:postort": "DROTTNINGHOLM", "ref:se:scb": "0140", "wikidata": "Q910007"}}, {"type": "node", "id": 337578753, "lat": 59.2884766, "lon": 17.7192745, "tags": {"name": "Sundby", "place": "village", "population": "270", "ref:se:scb": "0266", "wikidata": "Q2519632"}}, {"type": "node", "id": 337587059, "lat": 59.2792672, "lon": 17.8530863, "tags": {"name": "Solsidan", "place": "village", "ref:se:scb": "0318", "wikidata": "Q1800816"}}, {"type": "node", "id": 337587089, "lat": 59.2842215, "lon": 17.8465631, "tags": {"name": "Parksidan", "place": "village", "ref:se:scb": "0182", "wikidata": "Q2667062"}}, {"type": "node", "id": 337607656, "lat": 59.2988624, "lon": 18.1567308, "tags": {"name": "H\u00e4sthagen", "place": "village", "population": "472", "ref:se:scb": "0192", "wikidata": "Q3352829", "wikipedia": "sv:H\u00e4sthagen, Nacka kommun"}}, {"type": "node", "id": 337617821, "lat": 59.2248387, "lon": 17.3082384, "tags": {"name": "Finkarby", "place": "village", "ref:se:scb": "0158", "wikidata": "Q1951912"}}, {"type": "node", "id": 337856801, "lat": 59.112957, "lon": 17.987988, "tags": {"name": "V\u00e4l\u00e4ndan", "place": "village", "ref:se:scb": "0402", "wikidata": "Q596192"}}, {"type": "node", "id": 337865041, "lat": 59.1941928, "lon": 17.9854914, "tags": {"name": "Glad\u00f6 kvarn", "place": "village", "ref:se:scb": "0178"}}, {"type": "node", "id": 337881285, "lat": 59.1527988, "lon": 17.6563315, "tags": {"name": "Pershagen", "place": "village", "ref:se:scb": "0272"}}, {"type": "node", "id": 337889591, "lat": 59.2547514, "lon": 17.5200234, "tags": {"name": "Ekeby", "place": "village", "ref:se:scb": "0148", "wikidata": "Q2648960"}}, {"type": "node", "id": 337890161, "lat": 59.2438678, "lon": 17.5828515, "tags": {"name": "Vattubrinken", "place": "village", "ref:se:scb": "0390"}}, {"type": "node", "id": 337892387, "lat": 59.2338589, "lon": 17.5165902, "tags": {"name": "Tuna", "place": "village", "ref:se:scb": "0374"}}, {"type": "node", "id": 337893190, "lat": 59.2719475, "lon": 17.5098954, "tags": {"name": "Sandviken", "place": "village", "ref:se:scb": "0310", "wikidata": "Q2144643"}}, {"type": "node", "id": 343387994, "lat": 59.3189864, "lon": 17.8695136, "tags": {"name": "Kanton", "name:en": "Canton village", "place": "hamlet"}}, {"type": "node", "id": 345548729, "lat": 59.3883876, "lon": 17.8532236}, {"type": "node", "id": 367976363, "lat": 59.0942823, "lon": 17.5326186}, {"type": "node", "id": 367976364, "lat": 59.0941336, "lon": 17.5327057}, {"type": "node", "id": 370055317, "lat": 59.3816389, "lon": 17.8253442}, {"type": "node", "id": 370055320, "lat": 59.3813542, "lon": 17.8281878}, {"type": "node", "id": 370088893, "lat": 59.3811248, "lon": 17.8303797}, {"type": "node", "id": 392841003, "lat": 59.3831153, "lon": 17.8426091}, {"type": "node", "id": 393333883, "lat": 59.3833489, "lon": 17.8252234}, {"type": "node", "id": 402318220, "lat": 59.3138504, "lon": 17.7769064}, {"type": "node", "id": 402318221, "lat": 59.3152703, "lon": 17.7756361}, {"type": "node", "id": 402318222, "lat": 59.3153816, "lon": 17.7760274}, {"type": "node", "id": 402318223, "lat": 59.3163709, "lon": 17.7752688}, {"type": "node", "id": 414203231, "lat": 59.116062, "lon": 18.1241747, "tags": {"name": "Bl\u00e5kulla", "place": "hamlet"}}, {"type": "node", "id": 414237266, "lat": 59.1025993, "lon": 18.0601912, "tags": {"name": "Mulsta", "place": "hamlet"}}, {"type": "node", "id": 414237267, "lat": 59.1058386, "lon": 18.0683022, "tags": {"name": "V\u00e4lsta", "place": "hamlet"}}, {"type": "node", "id": 418174562, "lat": 59.1267525, "lon": 18.1335891, "tags": {"name": "Sn\u00f6rom", "place": "hamlet"}}, {"type": "node", "id": 426887377, "lat": 59.0724885, "lon": 17.5051095, "tags": {"name": "Snorp", "place": "hamlet"}}, {"type": "node", "id": 434448545, "lat": 59.3033277, "lon": 18.1130042}, {"type": "node", "id": 434448546, "lat": 59.3038747, "lon": 18.1139914}, {"type": "node", "id": 434448548, "lat": 59.304125, "lon": 18.114211}, {"type": "node", "id": 442688099, "lat": 59.2223899, "lon": 17.9398948, "tags": {"name": "Flemingsberg", "name:sv": "Flemingsberg", "place": "town", "population": "15558", "source": "local knowledge", "source:population": "https://www.huddinge.se/organisation-och-styrning/statistik-och-fakta/korta-fakta-om-huddinge/", "wikidata": "Q4117115", "wikipedia": "sv:Flemingsberg"}}, {"type": "node", "id": 474437359, "lat": 59.2900775, "lon": 17.8789141, "tags": {"name": "Nya Kungshatt", "place": "village"}}, {"type": "node", "id": 494484620, "lat": 59.2475035, "lon": 18.1993724}, {"type": "node", "id": 559959822, "lat": 59.2431062, "lon": 17.3064679, "tags": {"name": "Taxinge", "place": "hamlet"}}, {"type": "node", "id": 561176401, "lat": 59.4805567, "lon": 17.3435664, "tags": {"name": "Torsviby", "place": "hamlet", "source": "historical", "source_ref": "ekonomiska kartan"}}, {"type": "node", "id": 561176402, "lat": 59.4521693, "lon": 17.3666549, "tags": {"name": "Slaktebo", "place": "hamlet", "source": "historical", "source_ref": "ekonomiska kartan"}}, {"type": "node", "id": 561176410, "lat": 59.4893602, "lon": 17.3223662, "tags": {"name": "Torsvi", "place": "hamlet", "source": "historical", "source_ref": "ekonomiska kartan"}}, {"type": "node", "id": 623174169, "lat": 59.3253682, "lon": 18.1638873}, {"type": "node", "id": 623174539, "lat": 59.3747772, "lon": 18.0711031}, {"type": "node", "id": 623174926, "lat": 59.3755103, "lon": 18.058733}, {"type": "node", "id": 623174935, "lat": 59.3550306, "lon": 17.9654799}, {"type": "node", "id": 674510831, "lat": 59.2054705, "lon": 17.8188159}, {"type": "node", "id": 765919520, "lat": 59.4634236, "lon": 17.8690123, "tags": {"name": "F\u00e4boda", "place": "hamlet", "wikidata": "Q26256623", "wikipedia": "sv:F\u00e4boda, Sollentuna"}}, {"type": "node", "id": 766013033, "lat": 59.1145752, "lon": 18.0393583, "tags": {"name": "Skogs Ekeby", "place": "hamlet"}}, {"type": "node", "id": 769381315, "lat": 59.4416964, "lon": 17.8634875, "tags": {"name": "Rocksta", "place": "hamlet"}}, {"type": "node", "id": 769420770, "lat": 59.433891, "lon": 17.7784664, "tags": {"name": "Bruket", "place": "hamlet"}}, {"type": "node", "id": 769846221, "lat": 59.4339543, "lon": 17.8464571, "tags": {"name": "T\u00e5ngl\u00f6t", "place": "hamlet"}}, {"type": "node", "id": 769846222, "lat": 59.4453199, "lon": 17.8472027, "tags": {"name": "Granskog", "place": "hamlet"}}, {"type": "node", "id": 769846224, "lat": 59.4419518, "lon": 17.793242, "tags": {"name": "Dikartorp", "place": "hamlet"}}, {"type": "node", "id": 769847942, "lat": 59.4352816, "lon": 17.7858749, "tags": {"name": "G\u00f6rv\u00e4ln", "place": "hamlet"}}, {"type": "node", "id": 794221963, "lat": 59.0742982, "lon": 17.4860288, "tags": {"name": "Sofielund", "place": "hamlet"}}, {"type": "node", "id": 933796084, "lat": 59.4880683, "lon": 17.9583551, "tags": {"name": "Emmylund", "place": "hamlet", "source": "survey"}}, {"type": "node", "id": 933797428, "lat": 59.4909389, "lon": 17.957014, "tags": {"name": "Sk\u00f6ldnora", "place": "hamlet", "source": "survey"}}, {"type": "node", "id": 958185148, "lat": 59.459557, "lon": 17.9407837, "tags": {"name": "Vaxmora", "place": "village", "population": "2517", "wikidata": "Q10713499", "wikipedia": "sv:Vaxmora"}}, {"type": "node", "id": 994982380, "lat": 59.0975805, "lon": 17.7135453}, {"type": "node", "id": 994982394, "lat": 59.0981205, "lon": 17.7132449}, {"type": "node", "id": 994982397, "lat": 59.0981315, "lon": 17.7129123}, {"type": "node", "id": 1072535616, "lat": 59.1567953, "lon": 17.597486, "tags": {"name": "Tveta", "place": "hamlet"}}, {"type": "node", "id": 1072535621, "lat": 59.1573014, "lon": 17.6040521, "tags": {"name": "Tvetaberg", "place": "hamlet"}}, {"type": "node", "id": 1111811861, "lat": 59.3142618, "lon": 17.7741797}, {"type": "node", "id": 1111811924, "lat": 59.3144933, "lon": 17.7736629}, {"type": "node", "id": 1111812290, "lat": 59.3140842, "lon": 17.7753715}, {"type": "node", "id": 1111812350, "lat": 59.3146144, "lon": 17.7727032}, {"type": "node", "id": 1111812430, "lat": 59.3137962, "lon": 17.7725555}, {"type": "node", "id": 1111812593, "lat": 59.3146924, "lon": 17.7735258}, {"type": "node", "id": 1111812749, "lat": 59.3146628, "lon": 17.772835}, {"type": "node", "id": 1112077620, "lat": 59.2532237, "lon": 17.9850911, "tags": {"name": "Stuvsta-Sn\u00e4ttringe", "name:sv": "Stuvsta-Sn\u00e4ttringe", "place": "town", "population": "15847", "wikidata": "Q10682494", "wikipedia": "sv:Stuvsta-Sn\u00e4ttringe"}}, {"type": "node", "id": 1127625924, "lat": 59.0970108, "lon": 17.7123319}, {"type": "node", "id": 1127625926, "lat": 59.0971216, "lon": 17.7114024}, {"type": "node", "id": 1127625935, "lat": 59.0969254, "lon": 17.7139458}, {"type": "node", "id": 1127625936, "lat": 59.0966943, "lon": 17.7121069}, {"type": "node", "id": 1127625939, "lat": 59.0978347, "lon": 17.7120775}, {"type": "node", "id": 1127625942, "lat": 59.0971163, "lon": 17.7126644}, {"type": "node", "id": 1127625944, "lat": 59.0966893, "lon": 17.7124884}, {"type": "node", "id": 1127625946, "lat": 59.0974328, "lon": 17.7114124}, {"type": "node", "id": 1127625949, "lat": 59.097886, "lon": 17.7133666}, {"type": "node", "id": 1127625955, "lat": 59.0967697, "lon": 17.7133785}, {"type": "node", "id": 1127625957, "lat": 59.0967094, "lon": 17.7114906}, {"type": "node", "id": 1127625958, "lat": 59.0970761, "lon": 17.7125079}, {"type": "node", "id": 1127625959, "lat": 59.0972721, "lon": 17.714161}, {"type": "node", "id": 1127625960, "lat": 59.0967144, "lon": 17.7123123}, {"type": "node", "id": 1127625962, "lat": 59.0977795, "lon": 17.7118134}, {"type": "node", "id": 1127625964, "lat": 59.0976237, "lon": 17.7115395}, {"type": "node", "id": 1127625966, "lat": 59.0968652, "lon": 17.7132318}, {"type": "node", "id": 1127625975, "lat": 59.0966477, "lon": 17.7116792}, {"type": "node", "id": 1127625978, "lat": 59.0980306, "lon": 17.7120678}, {"type": "node", "id": 1127625979, "lat": 59.096825, "lon": 17.7114711}, {"type": "node", "id": 1129623673, "lat": 59.0980378, "lon": 17.7127175}, {"type": "node", "id": 1142137687, "lat": 59.3798436, "lon": 17.933301}, {"type": "node", "id": 1142399720, "lat": 59.2632739, "lon": 17.7105599, "tags": {"name": "V\u00e4llinge", "place": "hamlet"}}, {"type": "node", "id": 1142405397, "lat": 59.2488604, "lon": 17.6615506, "tags": {"name": "Persboda", "place": "hamlet"}}, {"type": "node", "id": 1191626422, "lat": 59.421659, "lon": 17.8948556}, {"type": "node", "id": 1191627891, "lat": 59.2626986, "lon": 18.1703409}, {"type": "node", "id": 1191628127, "lat": 59.3005566, "lon": 18.129196}, {"type": "node", "id": 1191630420, "lat": 59.2883678, "lon": 18.1233051}, {"type": "node", "id": 1191634029, "lat": 59.4254167, "lon": 17.8911856}, {"type": "node", "id": 1191635592, "lat": 59.2781507, "lon": 18.1452856}, {"type": "node", "id": 1191635866, "lat": 59.2699349, "lon": 18.1500961}, {"type": "node", "id": 1191639200, "lat": 59.437962, "lon": 17.9073382}, {"type": "node", "id": 1191639334, "lat": 59.2601324, "lon": 18.170002}, {"type": "node", "id": 1191640445, "lat": 59.4357098, "lon": 17.9136746}, {"type": "node", "id": 1191641079, "lat": 59.4316337, "lon": 17.8891825}, {"type": "node", "id": 1191642834, "lat": 59.2716383, "lon": 18.1505281}, {"type": "node", "id": 1191646690, "lat": 59.4321529, "lon": 17.9184468}, {"type": "node", "id": 1191648570, "lat": 59.4369355, "lon": 17.8936501}, {"type": "node", "id": 1191652402, "lat": 59.2386155, "lon": 18.1467807}, {"type": "node", "id": 1191655692, "lat": 59.2565135, "lon": 18.1698403}, {"type": "node", "id": 1191658056, "lat": 59.4329644, "lon": 17.8909381}, {"type": "node", "id": 1191661080, "lat": 59.4203489, "lon": 17.8952441}, {"type": "node", "id": 1191663365, "lat": 59.2725544, "lon": 18.1510943}, {"type": "node", "id": 1191664689, "lat": 59.2313954, "lon": 18.1823585}, {"type": "node", "id": 1191666068, "lat": 59.2895116, "lon": 18.1222924}, {"type": "node", "id": 1191667034, "lat": 59.4388297, "lon": 17.8967427}, {"type": "node", "id": 1191668312, "lat": 59.4245746, "lon": 17.8919211}, {"type": "node", "id": 1191669281, "lat": 59.2695321, "lon": 18.1496761}, {"type": "node", "id": 1191669863, "lat": 59.2362184, "lon": 18.1622054}, {"type": "node", "id": 1191670188, "lat": 59.3013488, "lon": 18.1186914}, {"type": "node", "id": 1191670858, "lat": 59.4373875, "lon": 17.906391}, {"type": "node", "id": 1191670907, "lat": 59.2657541, "lon": 18.1497274}, {"type": "node", "id": 1191671061, "lat": 59.2931435, "lon": 18.1197314}, {"type": "node", "id": 1191671277, "lat": 59.4357892, "lon": 17.9125283}, {"type": "node", "id": 1191671513, "lat": 59.4301965, "lon": 17.8884495}, {"type": "node", "id": 1191672261, "lat": 59.2721664, "lon": 18.1508337}, {"type": "node", "id": 1191672403, "lat": 59.2938373, "lon": 18.1192795}, {"type": "node", "id": 1191672706, "lat": 59.3521086, "lon": 17.8280669}, {"type": "node", "id": 1191673821, "lat": 59.3012532, "lon": 18.1282173}, {"type": "node", "id": 1191677429, "lat": 59.4351018, "lon": 17.8916677}, {"type": "node", "id": 1191678761, "lat": 59.2706452, "lon": 18.1502815}, {"type": "node", "id": 1191678846, "lat": 59.4226864, "lon": 17.8945373}, {"type": "node", "id": 1191680976, "lat": 59.2680118, "lon": 18.1497422}, {"type": "node", "id": 1191681937, "lat": 59.229629, "lon": 18.1922741}, {"type": "node", "id": 1191684499, "lat": 59.4396222, "lon": 17.9033833}, {"type": "node", "id": 1191687191, "lat": 59.23108, "lon": 18.1839396}, {"type": "node", "id": 1191689457, "lat": 59.4378322, "lon": 17.9079551}, {"type": "node", "id": 1191690595, "lat": 59.4353703, "lon": 17.916231}, {"type": "node", "id": 1191691070, "lat": 59.4239011, "lon": 17.8932808}, {"type": "node", "id": 1191691994, "lat": 59.2712386, "lon": 18.15027}, {"type": "node", "id": 1191692242, "lat": 59.2941689, "lon": 18.1205058}, {"type": "node", "id": 1191693087, "lat": 59.3013361, "lon": 18.1154765}, {"type": "node", "id": 1191694115, "lat": 59.437828, "lon": 17.9043437}, {"type": "node", "id": 1191695390, "lat": 59.4366867, "lon": 17.9120924}, {"type": "node", "id": 1191695779, "lat": 59.4288346, "lon": 17.8904817}, {"type": "node", "id": 1191697573, "lat": 59.3515315, "lon": 17.8294136}, {"type": "node", "id": 1191698051, "lat": 59.3010939, "lon": 18.1267726}, {"type": "node", "id": 1191698243, "lat": 59.2302433, "lon": 18.1880904}, {"type": "node", "id": 1191700047, "lat": 59.4335242, "lon": 17.8911292}, {"type": "node", "id": 1191700854, "lat": 59.4208882, "lon": 17.8950943}, {"type": "node", "id": 1191702088, "lat": 59.2960711, "lon": 18.1232395}, {"type": "node", "id": 1191704754, "lat": 59.4400811, "lon": 17.9028214}, {"type": "node", "id": 1191705873, "lat": 59.4276127, "lon": 17.8921362}, {"type": "node", "id": 1191706826, "lat": 59.2738143, "lon": 18.1520193}, {"type": "node", "id": 1191707693, "lat": 59.2368989, "lon": 18.1577781}, {"type": "node", "id": 1191709463, "lat": 59.4378312, "lon": 17.9071224}, {"type": "node", "id": 1191710099, "lat": 59.435765, "lon": 17.913259}, {"type": "node", "id": 1191710379, "lat": 59.4306276, "lon": 17.8886694}, {"type": "node", "id": 1191711962, "lat": 59.2949738, "lon": 18.1217828}, {"type": "node", "id": 1191714125, "lat": 59.2877625, "lon": 18.1246438}, {"type": "node", "id": 1191717035, "lat": 59.4285566, "lon": 17.8905116}, {"type": "node", "id": 1191721441, "lat": 59.2296258, "lon": 18.1908675}, {"type": "node", "id": 1191723557, "lat": 59.4324249, "lon": 17.8902264}, {"type": "node", "id": 1191725209, "lat": 59.4198645, "lon": 17.8955487}, {"type": "node", "id": 1191727545, "lat": 59.2730021, "lon": 18.1513779}, {"type": "node", "id": 1191728326, "lat": 59.2994231, "lon": 18.1276907}, {"type": "node", "id": 1191729749, "lat": 59.2322667, "lon": 18.1779886}, {"type": "node", "id": 1191734961, "lat": 59.4266235, "lon": 17.8938387}, {"type": "node", "id": 1191735846, "lat": 59.2750701, "lon": 18.1500784}, {"type": "node", "id": 1191736164, "lat": 59.355337, "lon": 17.8231912}, {"type": "node", "id": 1191738711, "lat": 59.3011991, "lon": 18.1163142}, {"type": "node", "id": 1191740685, "lat": 59.4376179, "lon": 17.9043963}, {"type": "node", "id": 1191740790, "lat": 59.256964, "lon": 18.1695829}, {"type": "node", "id": 1191741360, "lat": 59.4198519, "lon": 17.8955562}, {"type": "node", "id": 1191742182, "lat": 59.4360421, "lon": 17.9124054}, {"type": "node", "id": 1191742626, "lat": 59.4291265, "lon": 17.8905867}, {"type": "node", "id": 1191745611, "lat": 59.2724301, "lon": 18.1510869}, {"type": "node", "id": 1191746048, "lat": 59.2905789, "lon": 18.1214202}, {"type": "node", "id": 1191751649, "lat": 59.437817, "lon": 17.8950892}, {"type": "node", "id": 1191756272, "lat": 59.2806182, "lon": 18.1407383}, {"type": "node", "id": 1191757575, "lat": 59.2297854, "lon": 18.1937166}, {"type": "node", "id": 1191761068, "lat": 59.4397575, "lon": 17.9032723}, {"type": "node", "id": 1191767821, "lat": 59.2878976, "lon": 18.124345}, {"type": "node", "id": 1191768344, "lat": 59.3012811, "lon": 18.1300753}, {"type": "node", "id": 1191774467, "lat": 59.4396158, "lon": 17.8980264}, {"type": "node", "id": 1191777097, "lat": 59.4252451, "lon": 17.8913354}, {"type": "node", "id": 1191781223, "lat": 59.438726, "lon": 17.9041192}, {"type": "node", "id": 1191782088, "lat": 59.437282, "lon": 17.9105686}, {"type": "node", "id": 1191782307, "lat": 59.4286191, "lon": 17.8904042}, {"type": "node", "id": 1191787873, "lat": 59.2304052, "lon": 18.1873216}, {"type": "node", "id": 1191791203, "lat": 59.43393, "lon": 17.9198023}, {"type": "node", "id": 1191791661, "lat": 59.4360186, "lon": 17.8926589}, {"type": "node", "id": 1191792738, "lat": 59.2702091, "lon": 18.1504289}, {"type": "node", "id": 1191792851, "lat": 59.4234529, "lon": 17.8937445}, {"type": "node", "id": 1191795160, "lat": 59.2686212, "lon": 18.1499089}, {"type": "node", "id": 1191795400, "lat": 59.2972948, "lon": 18.1248644}, {"type": "node", "id": 1191796125, "lat": 59.2324263, "lon": 18.1771877}, {"type": "node", "id": 1191798161, "lat": 59.4401343, "lon": 17.9023803}, {"type": "node", "id": 1191801377, "lat": 59.4270426, "lon": 17.8931174}, {"type": "node", "id": 1191805300, "lat": 59.2311497, "lon": 18.1835899}, {"type": "node", "id": 1191807879, "lat": 59.4378171, "lon": 17.9080266}, {"type": "node", "id": 1191809271, "lat": 59.4345416, "lon": 17.9175731}, {"type": "node", "id": 1191809915, "lat": 59.4236722, "lon": 17.8919116}, {"type": "node", "id": 1191811380, "lat": 59.2710882, "lon": 18.1503344}, {"type": "node", "id": 1191811837, "lat": 59.2952168, "lon": 18.1221055}, {"type": "node", "id": 1191812395, "lat": 59.233938, "lon": 18.1757123}, {"type": "node", "id": 1191821916, "lat": 59.4281828, "lon": 17.891155}, {"type": "node", "id": 1191827010, "lat": 59.3517597, "lon": 17.828881}, {"type": "node", "id": 1191829152, "lat": 59.301175, "lon": 18.1276687}, {"type": "node", "id": 1191830329, "lat": 59.230326, "lon": 18.1877185}, {"type": "node", "id": 1191834054, "lat": 59.4342217, "lon": 17.8913673}, {"type": "node", "id": 1192193034, "lat": 59.3974221, "lon": 17.7766276}, {"type": "node", "id": 1192193290, "lat": 59.3981223, "lon": 17.7786021}, {"type": "node", "id": 1192193421, "lat": 59.3927028, "lon": 17.7633117}, {"type": "node", "id": 1192193683, "lat": 59.3954703, "lon": 17.7711265}, {"type": "node", "id": 1192193817, "lat": 59.3915586, "lon": 17.8012271}, {"type": "node", "id": 1192193963, "lat": 59.3969488, "lon": 17.7752928}, {"type": "node", "id": 1192194074, "lat": 59.3934811, "lon": 17.8058681}, {"type": "node", "id": 1192194239, "lat": 59.3978054, "lon": 17.777711}, {"type": "node", "id": 1192194811, "lat": 59.3964477, "lon": 17.7738834}, {"type": "node", "id": 1192194930, "lat": 59.3921213, "lon": 17.8025798}, {"type": "node", "id": 1192195079, "lat": 59.3973121, "lon": 17.7763179}, {"type": "node", "id": 1192195401, "lat": 59.3921637, "lon": 17.7617994}, {"type": "node", "id": 1192195650, "lat": 59.3962081, "lon": 17.7732073}, {"type": "node", "id": 1192195723, "lat": 59.3915632, "lon": 17.8012271}, {"type": "node", "id": 1192195840, "lat": 59.3968173, "lon": 17.7749231}, {"type": "node", "id": 1192195934, "lat": 59.394438, "lon": 17.8081769}, {"type": "node", "id": 1192196081, "lat": 59.3980951, "lon": 17.778528}, {"type": "node", "id": 1192196452, "lat": 59.395223, "lon": 17.7704281}, {"type": "node", "id": 1192196694, "lat": 59.3963349, "lon": 17.7735659}, {"type": "node", "id": 1192196817, "lat": 59.3931291, "lon": 17.8050196}, {"type": "node", "id": 1192196948, "lat": 59.397695, "lon": 17.7773978}, {"type": "node", "id": 1192197283, "lat": 59.3944123, "lon": 17.7681079}, {"type": "node", "id": 1192197381, "lat": 59.3984294, "lon": 17.779472}, {"type": "node", "id": 1192197501, "lat": 59.3961452, "lon": 17.7730298}, {"type": "node", "id": 1192197609, "lat": 59.3918162, "lon": 17.8018459}, {"type": "node", "id": 1192197768, "lat": 59.397209, "lon": 17.7760289}, {"type": "node", "id": 1192197876, "lat": 59.39422, "lon": 17.8076517}, {"type": "node", "id": 1192198023, "lat": 59.3980118, "lon": 17.7782922}, {"type": "node", "id": 1192198426, "lat": 59.3945134, "lon": 17.7684242}, {"type": "node", "id": 1192198534, "lat": 59.3909847, "lon": 17.7998436}, {"type": "node", "id": 1192198665, "lat": 59.3966816, "lon": 17.7745399}, {"type": "node", "id": 1192198769, "lat": 59.3927885, "lon": 17.8041886}, {"type": "node", "id": 1192198867, "lat": 59.397582, "lon": 17.7770795}, {"type": "node", "id": 1192199254, "lat": 59.394165, "lon": 17.7674142}, {"type": "node", "id": 1192199530, "lat": 59.396316, "lon": 17.7735122}, {"type": "node", "id": 1192199648, "lat": 59.3916391, "lon": 17.8014185}, {"type": "node", "id": 1192199779, "lat": 59.3970693, "lon": 17.775631}, {"type": "node", "id": 1192199906, "lat": 59.3945922, "lon": 17.8085498}, {"type": "node", "id": 1192200052, "lat": 59.3981379, "lon": 17.7786459}, {"type": "node", "id": 1192200335, "lat": 59.3954862, "lon": 17.7711716}, {"type": "node", "id": 1192200598, "lat": 59.396575, "lon": 17.7742415}, {"type": "node", "id": 1192200699, "lat": 59.3938857, "lon": 17.8068416}, {"type": "node", "id": 1192200852, "lat": 59.3979277, "lon": 17.778053}, {"type": "node", "id": 1192201181, "lat": 59.3945094, "lon": 17.7684123}, {"type": "node", "id": 1192201531, "lat": 59.3962719, "lon": 17.7733857}, {"type": "node", "id": 1192201674, "lat": 59.3924915, "lon": 17.8034664}, {"type": "node", "id": 1227253306, "lat": 59.2952451, "lon": 17.8909157, "tags": {"name": "Eriksberg", "place": "village"}}, {"type": "node", "id": 1227253683, "lat": 59.3035425, "lon": 17.901117, "tags": {"name": "Kungsh\u00e4ttan", "place": "village"}}, {"type": "node", "id": 1227254139, "lat": 59.2998091, "lon": 17.8802828, "tags": {"name": "Kungsborg", "place": "village"}}, {"type": "node", "id": 1330066456, "lat": 59.4400671, "lon": 17.8988571}, {"type": "node", "id": 1330066587, "lat": 59.4398943, "lon": 17.8984811}, {"type": "node", "id": 1349320764, "lat": 59.4408976, "lon": 18.0979093, "tags": {"name": "Viggby kulle 1", "place": "hamlet", "source": "Bing"}}, {"type": "node", "id": 1349320811, "lat": 59.4418215, "lon": 18.0985672, "tags": {"name": "Viggby kulle 2", "place": "hamlet", "source": "Bing"}}, {"type": "node", "id": 1354118658, "lat": 59.446755, "lon": 18.0982261, "tags": {"name": "Viggbyg\u00e4rdet", "place": "hamlet", "source": "survey"}}, {"type": "node", "id": 1432008347, "lat": 59.099486, "lon": 18.037885, "tags": {"name": "Storg\u00e5rden", "place": "hamlet"}}, {"type": "node", "id": 1448876484, "lat": 59.270299, "lon": 17.885957}, {"type": "node", "id": 1455834877, "lat": 59.4253639, "lon": 17.8137409, "tags": {"name": "V\u00e4stra Jakobsberg", "place": "village"}}, {"type": "node", "id": 1477950868, "lat": 59.440848, "lon": 17.9111102, "tags": {"name": "B\u00f6gs g\u00e5rd", "place": "hamlet", "website": "https://www.bogsgard.se/", "wikidata": "Q15233310", "wikipedia": "sv:B\u00f6gs g\u00e5rd"}}, {"type": "node", "id": 1477950882, "lat": 59.441675, "lon": 17.8966651, "tags": {"name": "V\u00e4sby g\u00e5rd", "place": "hamlet", "short_name": "V\u00e4sby", "source": "survey"}}, {"type": "node", "id": 1496353481, "lat": 59.4692418, "lon": 17.7798275, "tags": {"name": "Almare-St\u00e4ket", "place": "hamlet", "source": "survey"}}, {"type": "node", "id": 1497329924, "lat": 59.2689785, "lon": 17.8896544}, {"type": "node", "id": 1514005248, "lat": 59.4035364, "lon": 17.9694657}, {"type": "node", "id": 1521549388, "lat": 59.3965026, "lon": 17.9524839}, {"type": "node", "id": 1542061709, "lat": 59.3975652, "lon": 17.9539393}, {"type": "node", "id": 1585170822, "lat": 59.4472916, "lon": 17.7975554, "tags": {"name": "Slammertorp", "place": "hamlet"}}, {"type": "node", "id": 1726372091, "lat": 59.2619508, "lon": 17.9885578}, {"type": "node", "id": 1726372169, "lat": 59.2606368, "lon": 17.9946422}, {"type": "node", "id": 1726372177, "lat": 59.2622818, "lon": 17.9863768}, {"type": "node", "id": 1726372217, "lat": 59.2613842, "lon": 17.9911216}, {"type": "node", "id": 1726372223, "lat": 59.2620532, "lon": 17.9880771}, {"type": "node", "id": 1726372306, "lat": 59.2616215, "lon": 17.9901399}, {"type": "node", "id": 1751630403, "lat": 59.1177484, "lon": 17.9807124, "tags": {"name": "H\u00e5lls\u00e4ttra", "place": "hamlet"}}, {"type": "node", "id": 1751630407, "lat": 59.1249275, "lon": 17.9940591, "tags": {"name": "Pr\u00e4sttorp", "place": "hamlet"}}, {"type": "node", "id": 1751655054, "lat": 59.1235518, "lon": 17.9990652, "tags": {"name": "Blomhill", "place": "hamlet"}}, {"type": "node", "id": 1751655079, "lat": 59.1289857, "lon": 17.9999986, "tags": {"name": "Pr\u00e4stholmen", "place": "hamlet"}}, {"type": "node", "id": 1751655153, "lat": 59.1304558, "lon": 17.9865127, "tags": {"name": "Sadelmakartorp", "place": "hamlet"}}, {"type": "node", "id": 1751655226, "lat": 59.1211457, "lon": 17.9992797, "tags": {"name": "Ekeberget", "place": "hamlet"}}, {"type": "node", "id": 1751655299, "lat": 59.131953, "lon": 17.9878803, "tags": {"name": "Smedjan", "place": "hamlet"}}, {"type": "node", "id": 1752866144, "lat": 59.0938002, "lon": 17.5327713}, {"type": "node", "id": 1752866146, "lat": 59.093826, "lon": 17.5331665}, {"type": "node", "id": 1752866152, "lat": 59.0939847, "lon": 17.5326636}, {"type": "node", "id": 1752866155, "lat": 59.0940179, "lon": 17.5333605}, {"type": "node", "id": 1752866198, "lat": 59.0941508, "lon": 17.5336694}, {"type": "node", "id": 1752866203, "lat": 59.0942025, "lon": 17.5339712}, {"type": "node", "id": 1752866208, "lat": 59.0942098, "lon": 17.5343735}, {"type": "node", "id": 1752866212, "lat": 59.0943132, "lon": 17.5346609}, {"type": "node", "id": 1752866222, "lat": 59.0945604, "lon": 17.5343951}, {"type": "node", "id": 1752866285, "lat": 59.0954078, "lon": 17.5318137}, {"type": "node", "id": 1752866287, "lat": 59.0956348, "lon": 17.5317454}, {"type": "node", "id": 1752866288, "lat": 59.0957436, "lon": 17.5317023}, {"type": "node", "id": 1752939612, "lat": 59.2055357, "lon": 18.005738, "tags": {"name": "Bj\u00f6rklund", "place": "hamlet"}}, {"type": "node", "id": 1758966287, "lat": 59.3508559, "lon": 17.8146047, "tags": {"name": "Lambarudd", "place": "hamlet"}}, {"type": "node", "id": 1760641831, "lat": 59.4939995, "lon": 17.8806375, "tags": {"name": "Bisslinge", "place": "hamlet", "source": "survey"}}, {"type": "node", "id": 1770651239, "lat": 59.0945436, "lon": 17.533466}, {"type": "node", "id": 1770651241, "lat": 59.0948686, "lon": 17.5331068}, {"type": "node", "id": 1770651243, "lat": 59.0948842, "lon": 17.5331866}, {"type": "node", "id": 1770651245, "lat": 59.095258, "lon": 17.5338448}, {"type": "node", "id": 1770651256, "lat": 59.0955103, "lon": 17.5341359}, {"type": "node", "id": 1770651260, "lat": 59.0957326, "lon": 17.5341245}, {"type": "node", "id": 1770651264, "lat": 59.0958594, "lon": 17.5344017}, {"type": "node", "id": 1770651267, "lat": 59.0960953, "lon": 17.5316677}, {"type": "node", "id": 1770651268, "lat": 59.0962124, "lon": 17.5319297}, {"type": "node", "id": 1770651271, "lat": 59.096421, "lon": 17.532522}, {"type": "node", "id": 1770651273, "lat": 59.0964347, "lon": 17.5330916}, {"type": "node", "id": 1770651275, "lat": 59.0964425, "lon": 17.5340827}, {"type": "node", "id": 1831897783, "lat": 59.3450233, "lon": 18.0270605}, {"type": "node", "id": 1958791443, "lat": 59.2461584, "lon": 18.1356697, "tags": {"name": "Geber", "note": "Sm\u00e5ort", "place": "hamlet", "population": "69", "wikidata": "Q10503520", "wikipedia": "sv:Geber (sm\u00e5ort)"}}, {"type": "node", "id": 1966529755, "lat": 59.3400671, "lon": 18.016038}, {"type": "node", "id": 1966561008, "lat": 59.3019792, "lon": 18.1105718}, {"type": "node", "id": 1966561208, "lat": 59.3052985, "lon": 18.1133609}, {"type": "node", "id": 2009024809, "lat": 59.4796306, "lon": 17.6933748, "tags": {"name": "Aspvik", "place": "hamlet"}}, {"type": "node", "id": 2009024812, "lat": 59.4733794, "lon": 17.7014836, "tags": {"name": "\u00c5lsta", "place": "hamlet"}}, {"type": "node", "id": 2009024817, "lat": 59.469801, "lon": 17.7085668, "tags": {"name": "Sk\u00e4lby", "place": "hamlet"}}, {"type": "node", "id": 2009024828, "lat": 59.450876, "lon": 17.7374038, "tags": {"name": "Lennartsn\u00e4s", "place": "hamlet"}}, {"type": "node", "id": 2009024838, "lat": 59.4611058, "lon": 17.7094659, "tags": {"name": "Fr\u00f6lunda", "place": "hamlet"}}, {"type": "node", "id": 2009024843, "lat": 59.4623879, "lon": 17.7413112, "tags": {"name": "\u00d6r\u00e5ker", "place": "hamlet"}}, {"type": "node", "id": 2009024849, "lat": 59.4768844, "lon": 17.711013, "tags": {"name": "Ensta", "place": "hamlet"}}, {"type": "node", "id": 2022692055, "lat": 59.2362466, "lon": 17.9761219, "tags": {"name": "Sj\u00f6dalen-Fullersta", "name:sv": "Sj\u00f6dalen-Fullersta", "place": "town", "population": "22304", "wikidata": "Q10669406", "wikipedia": "sv:Sj\u00f6dalen-Fullersta"}}, {"type": "node", "id": 2057537180, "lat": 59.1905586, "lon": 18.1304276, "tags": {"name": "Vega", "place": "village", "population": "3665", "population:date": "2009-12-31", "ref:se:pts:postort": "VEGA", "wikidata": "Q129176"}}, {"type": "node", "id": 2058669553, "lat": 59.2787249, "lon": 17.956574}, {"type": "node", "id": 2058669554, "lat": 59.2780322, "lon": 17.9564586}, {"type": "node", "id": 2058669555, "lat": 59.2770427, "lon": 17.9561005}, {"type": "node", "id": 2058669557, "lat": 59.2759054, "lon": 17.9557542}, {"type": "node", "id": 2058669559, "lat": 59.2750963, "lon": 17.9554796}, {"type": "node", "id": 2058669562, "lat": 59.2746249, "lon": 17.9553723}, {"type": "node", "id": 2058669564, "lat": 59.2743388, "lon": 17.955223}, {"type": "node", "id": 2058669568, "lat": 59.2733802, "lon": 17.9562896}, {"type": "node", "id": 2058669572, "lat": 59.2725384, "lon": 17.9569005}, {"type": "node", "id": 2101409049, "lat": 59.3511524, "lon": 18.0442048}, {"type": "node", "id": 2102145599, "lat": 59.2853429, "lon": 17.937376}, {"type": "node", "id": 2235762175, "lat": 59.3656462, "lon": 17.7377585, "tags": {"name": "Svartsj\u00f6", "place": "hamlet", "ref:se:pts:postort": "SVARTSJ\u00d6", "wikidata": "Q10684534"}}, {"type": "node", "id": 2236313278, "lat": 59.2293827, "lon": 17.9748815, "tags": {"name": "Huddinge", "name:sv": "Huddinge", "place": "town", "population": "95234", "population:note": "folkm\u00e4ngden avser delen av stockholms t\u00e4tort som ligger i huddinge kommun, d\u00e5 huddinge inte \u00e4r n\u00e5gon egen t\u00e4tort", "ref:se:pts:postort": "HUDDINGE", "wikidata": "Q21667231", "wikipedia": "sv:Huddinge kommun", "wikipedia:en": "Huddinge Municipality#Huddinge"}}, {"type": "node", "id": 2277476635, "lat": 59.390223, "lon": 17.704201, "tags": {"name": "Hillesh\u00f6g", "place": "hamlet", "population": "143", "wikidata": "Q2186545"}}, {"type": "node", "id": 2281924727, "lat": 59.0890234, "lon": 17.6161704, "tags": {"name": "H\u00e5kn\u00e4s", "place": "hamlet"}}, {"type": "node", "id": 2281924735, "lat": 59.1107758, "lon": 17.6605663, "tags": {"name": "Brandalsund", "place": "hamlet"}}, {"type": "node", "id": 2281924742, "lat": 59.0991856, "lon": 17.6319428, "tags": {"name": "Farsta", "place": "hamlet"}}, {"type": "node", "id": 2290250144, "lat": 59.2659028, "lon": 17.9714746}, {"type": "node", "id": 2293336731, "lat": 59.2746859, "lon": 17.7082601, "tags": {"name": "Lurudden", "place": "village", "population": "205", "ref:se:scb": "0246", "wikidata": "Q3543398"}}, {"type": "node", "id": 2293336732, "lat": 59.3824153, "lon": 17.5803028, "tags": {"name": "S\u00f6derby", "place": "village", "population": "250", "ref:se:scb": "0362"}}, {"type": "node", "id": 2293336734, "lat": 59.4001485, "lon": 17.6551599, "tags": {"name": "\u00d6lsta", "place": "village", "population": "267", "ref:se:scb": "0424"}}, {"type": "node", "id": 2378146411, "lat": 59.1971651, "lon": 18.0596931, "tags": {"name": "Vidja", "place": "village", "population": "682", "ref:se:scb": "0394", "wikidata": "Q2867859"}}, {"type": "node", "id": 2378150121, "lat": 59.2397245, "lon": 17.6203818, "tags": {"name": "Viks\u00e4ter", "place": "village", "population": "459", "ref:se:scb": "0398"}}, {"type": "node", "id": 2378172240, "lat": 59.1575321, "lon": 18.0088039, "tags": {"name": "\u00d6storp", "place": "village"}}, {"type": "node", "id": 2381456581, "lat": 59.1104951, "lon": 17.5602155, "tags": {"name": "\u00d6stra Kallfors", "place": "village", "population": "386", "ref:se:scb": "0428", "wikidata": "Q3473978"}}, {"type": "node", "id": 2384902930, "lat": 59.2047298, "lon": 17.819462}, {"type": "node", "id": 2385914048, "lat": 59.4401252, "lon": 17.8411209, "tags": {"name": "Kolboda", "place": "hamlet"}}, {"type": "node", "id": 2428604904, "lat": 59.2918234, "lon": 17.7796438, "tags": {"name": "Tranholmen", "place": "hamlet"}}, {"type": "node", "id": 2489485957, "lat": 59.3044057, "lon": 18.1141714}, {"type": "node", "id": 2563405336, "lat": 59.204682, "lon": 17.8192224}, {"type": "node", "id": 2563405337, "lat": 59.2047683, "lon": 17.8198887}, {"type": "node", "id": 2563405339, "lat": 59.2047952, "lon": 17.8203228}, {"type": "node", "id": 2563405340, "lat": 59.2048929, "lon": 17.8202868}, {"type": "node", "id": 2563405341, "lat": 59.204992, "lon": 17.8201762}, {"type": "node", "id": 2563405343, "lat": 59.2051233, "lon": 17.8201764}, {"type": "node", "id": 2563405344, "lat": 59.2053189, "lon": 17.8184068}, {"type": "node", "id": 2563405348, "lat": 59.2056134, "lon": 17.8188913}, {"type": "node", "id": 2563405349, "lat": 59.205666, "lon": 17.8201123}, {"type": "node", "id": 2563405350, "lat": 59.205731, "lon": 17.8189533}, {"type": "node", "id": 2563405351, "lat": 59.2057705, "lon": 17.8201672}, {"type": "node", "id": 2563405352, "lat": 59.2058081, "lon": 17.8189941}, {"type": "node", "id": 2623646128, "lat": 59.0778967, "lon": 17.5748577, "tags": {"name": "Ramsta", "place": "hamlet"}}, {"type": "node", "id": 2667125374, "lat": 59.2849759, "lon": 17.9359836}, {"type": "node", "id": 2684681115, "lat": 59.1158148, "lon": 17.5998391, "tags": {"name": "Gerstaberg", "place": "hamlet"}}, {"type": "node", "id": 2688043769, "lat": 59.0664421, "lon": 17.5999027, "tags": {"name": "Stensta", "place": "hamlet"}}, {"type": "node", "id": 2688044225, "lat": 59.0709857, "lon": 17.5935727, "tags": {"name": "Slota", "place": "hamlet"}}, {"type": "node", "id": 2690915746, "lat": 59.0824316, "lon": 17.5852568, "tags": {"name": "Norrbyv\u00e4lle", "place": "hamlet"}}, {"type": "node", "id": 2768849898, "lat": 59.4099348, "lon": 17.706163}, {"type": "node", "id": 2768849901, "lat": 59.4098583, "lon": 17.7062811}, {"type": "node", "id": 2768849904, "lat": 59.4103279, "lon": 17.7095265}, {"type": "node", "id": 2768849905, "lat": 59.409372, "lon": 17.7070954}, {"type": "node", "id": 2768849907, "lat": 59.4105977, "lon": 17.7061781}, {"type": "node", "id": 2768849908, "lat": 59.4101968, "lon": 17.7055783}, {"type": "node", "id": 2768849909, "lat": 59.4097382, "lon": 17.7091457}, {"type": "node", "id": 2768849910, "lat": 59.410003, "lon": 17.7056802}, {"type": "node", "id": 2768849911, "lat": 59.4104425, "lon": 17.7096928}, {"type": "node", "id": 2768849912, "lat": 59.4099675, "lon": 17.7090545}, {"type": "node", "id": 2768849915, "lat": 59.4103438, "lon": 17.7092197}, {"type": "node", "id": 2768849916, "lat": 59.4098965, "lon": 17.7092959}, {"type": "node", "id": 2768849918, "lat": 59.4095471, "lon": 17.7061791}, {"type": "node", "id": 2768849921, "lat": 59.4105381, "lon": 17.7069355}, {"type": "node", "id": 2768849928, "lat": 59.4103793, "lon": 17.7060171}, {"type": "node", "id": 2768849931, "lat": 59.4107592, "lon": 17.7086951}, {"type": "node", "id": 2768849936, "lat": 59.4097405, "lon": 17.7062532}, {"type": "node", "id": 2768849939, "lat": 59.4109499, "lon": 17.7078679}, {"type": "node", "id": 2768849941, "lat": 59.4098417, "lon": 17.7084507}, {"type": "node", "id": 2768849947, "lat": 59.4091998, "lon": 17.7082351}, {"type": "node", "id": 2768849953, "lat": 59.4098283, "lon": 17.7087809}, {"type": "node", "id": 2768856339, "lat": 59.4104739, "lon": 17.7060868}, {"type": "node", "id": 2768927465, "lat": 59.4093508, "lon": 17.7072358}, {"type": "node", "id": 2772680278, "lat": 59.4943145, "lon": 17.8058942, "tags": {"name": "Lund", "place": "hamlet"}}, {"type": "node", "id": 2772680285, "lat": 59.4892358, "lon": 17.7974006, "tags": {"name": "Uddn\u00e4s", "place": "hamlet"}}, {"type": "node", "id": 2772680286, "lat": 59.4724721, "lon": 17.7951325, "tags": {"name": "St\u00e4ket", "place": "village"}}, {"type": "node", "id": 2820713422, "lat": 59.176311, "lon": 18.1266612, "tags": {"name": "Kolartorp", "place": "hamlet", "wikidata": "Q10547043", "wikipedia": "sv:Kolartorp, Haninge kommun"}}, {"type": "node", "id": 3003815417, "lat": 59.5049094, "lon": 17.3313488}, {"type": "node", "id": 3003815429, "lat": 59.505176, "lon": 17.3317669}, {"type": "node", "id": 3003815432, "lat": 59.5052233, "lon": 17.3308443}, {"type": "node", "id": 3003815478, "lat": 59.5048621, "lon": 17.3309168}, {"type": "node", "id": 3003815635, "lat": 59.5054232, "lon": 17.3318706}, {"type": "node", "id": 3003815642, "lat": 59.5056073, "lon": 17.3307648}, {"type": "node", "id": 3003815646, "lat": 59.505688, "lon": 17.3311967}, {"type": "node", "id": 3003815651, "lat": 59.5057441, "lon": 17.3309583}, {"type": "node", "id": 3042012246, "lat": 59.2057169, "lon": 17.8203321}, {"type": "node", "id": 3042012249, "lat": 59.2052632, "lon": 17.8199922}, {"type": "node", "id": 3061748988, "lat": 59.2491088, "lon": 18.1763757}, {"type": "node", "id": 3061803392, "lat": 59.2488318, "lon": 18.1768179}, {"type": "node", "id": 3218223972, "lat": 59.3349867, "lon": 17.7372776, "tags": {"name": "V\u00e4sbylund", "place": "hamlet"}}, {"type": "node", "id": 3218240892, "lat": 59.345901, "lon": 17.696205, "tags": {"name": "Skoghem", "place": "hamlet"}}, {"type": "node", "id": 3218240893, "lat": 59.343783, "lon": 17.7039387, "tags": {"name": "Sockarby", "place": "village"}}, {"type": "node", "id": 3218240894, "lat": 59.3530114, "lon": 17.7119498, "tags": {"name": "Sundby", "place": "village"}}, {"type": "node", "id": 3219264011, "lat": 59.3031707, "lon": 17.7883164, "tags": {"name": "Lullehov", "place": "hamlet"}}, {"type": "node", "id": 3219623768, "lat": 59.3071747, "lon": 17.7523731, "tags": {"name": "Ek\u00e4ngen", "place": "hamlet"}}, {"type": "node", "id": 3220274932, "lat": 59.3275003, "lon": 17.7721004, "tags": {"name": "M\u00f6rby", "place": "hamlet", "wikidata": "Q10593588"}}, {"type": "node", "id": 3220274933, "lat": 59.3219043, "lon": 17.7656517, "tags": {"name": "Orrburren", "place": "hamlet"}}, {"type": "node", "id": 3220288690, "lat": 59.3071955, "lon": 17.7445236, "tags": {"name": "Landholmen", "place": "hamlet"}}, {"type": "node", "id": 3220498407, "lat": 59.3136597, "lon": 17.7763234}, {"type": "node", "id": 3220498408, "lat": 59.3136923, "lon": 17.7761263}, {"type": "node", "id": 3220498409, "lat": 59.3137127, "lon": 17.7765818}, {"type": "node", "id": 3220498411, "lat": 59.3137535, "lon": 17.7758733}, {"type": "node", "id": 3220498412, "lat": 59.3137943, "lon": 17.7767842}, {"type": "node", "id": 3220498413, "lat": 59.3138178, "lon": 17.7756068}, {"type": "node", "id": 3220498414, "lat": 59.3138419, "lon": 17.7757135}, {"type": "node", "id": 3220498419, "lat": 59.3153546, "lon": 17.7715526}, {"type": "node", "id": 3220498420, "lat": 59.3153853, "lon": 17.7732476}, {"type": "node", "id": 3220498421, "lat": 59.3153892, "lon": 17.7727692}, {"type": "node", "id": 3220498422, "lat": 59.3154122, "lon": 17.7734774}, {"type": "node", "id": 3220498423, "lat": 59.3154257, "lon": 17.7715526}, {"type": "node", "id": 3220498424, "lat": 59.3154737, "lon": 17.7723662}, {"type": "node", "id": 3220498425, "lat": 59.3155699, "lon": 17.7722005}, {"type": "node", "id": 3220498426, "lat": 59.3155833, "lon": 17.7714358}, {"type": "node", "id": 3220498427, "lat": 59.315691, "lon": 17.7725056}, {"type": "node", "id": 3220498429, "lat": 59.3163209, "lon": 17.7712884}, {"type": "node", "id": 3220498430, "lat": 59.3158832, "lon": 17.7732175}, {"type": "node", "id": 3220498431, "lat": 59.3163942, "lon": 17.7716401}, {"type": "node", "id": 3220498432, "lat": 59.3159774, "lon": 17.7732664}, {"type": "node", "id": 3220498433, "lat": 59.3160626, "lon": 17.773654}, {"type": "node", "id": 3220498434, "lat": 59.3160869, "lon": 17.7722909}, {"type": "node", "id": 3220498435, "lat": 59.3161185, "lon": 17.7738252}, {"type": "node", "id": 3220498436, "lat": 59.3163587, "lon": 17.7720548}, {"type": "node", "id": 3220498437, "lat": 59.3162184, "lon": 17.7741266}, {"type": "node", "id": 3220498438, "lat": 59.3163107, "lon": 17.774782}, {"type": "node", "id": 3220547268, "lat": 59.3161475, "lon": 17.7720482}, {"type": "node", "id": 3222085997, "lat": 59.328332, "lon": 17.7584709, "tags": {"name": "Berga", "place": "hamlet"}}, {"type": "node", "id": 3222273193, "lat": 59.3162566, "lon": 17.7709637}, {"type": "node", "id": 3225855635, "lat": 59.3496717, "lon": 17.7634004, "tags": {"name": "Kumla by", "place": "village"}}, {"type": "node", "id": 3225957061, "lat": 59.3415417, "lon": 17.7634852, "tags": {"name": "Sk\u00e5-Edeby", "place": "hamlet", "population": "50", "wikidata": "Q18332645", "wikipedia": "sv:Sk\u00e5-Edeby (ort)"}}, {"type": "node", "id": 3256911780, "lat": 59.3254867, "lon": 17.7301982, "tags": {"name": "T\u00f6rnby", "place": "hamlet", "wikidata": "Q10708198"}}, {"type": "node", "id": 3328528018, "lat": 59.3973674, "lon": 17.8196304}, {"type": "node", "id": 3472522125, "lat": 59.2376586, "lon": 17.7836352, "tags": {"name": "Fiskarhagen", "place": "village", "wikidata": "Q1449195", "wikipedia": "sv:Fiskarhagen"}}, {"type": "node", "id": 3472522126, "lat": 59.2427507, "lon": 17.7871007, "tags": {"name": "Kullen", "place": "hamlet"}}, {"type": "node", "id": 3487420029, "lat": 59.2433407, "lon": 17.7847244, "tags": {"name": "Draget", "place": "hamlet"}}, {"type": "node", "id": 3687931264, "lat": 59.2604512, "lon": 17.9955919}, {"type": "node", "id": 3687931265, "lat": 59.2610949, "lon": 17.9924645}, {"type": "node", "id": 3687937225, "lat": 59.2617929, "lon": 17.9893785}, {"type": "node", "id": 3812135253, "lat": 59.2295309, "lon": 18.1181287, "tags": {"name": "F\u00e5llan", "place": "village"}}, {"type": "node", "id": 3814472713, "lat": 59.3012413, "lon": 18.1253525}, {"type": "node", "id": 3814480595, "lat": 59.2570377, "lon": 18.1695927}, {"type": "node", "id": 3856697173, "lat": 59.3425167, "lon": 17.8637932}, {"type": "node", "id": 3856735846, "lat": 59.3396207, "lon": 18.0208476}, {"type": "node", "id": 3856735847, "lat": 59.341205, "lon": 18.0014922}, {"type": "node", "id": 3856902577, "lat": 59.3212628, "lon": 17.9284781}, {"type": "node", "id": 3857365362, "lat": 59.3582406, "lon": 17.9629211}, {"type": "node", "id": 3857367852, "lat": 59.3674118, "lon": 17.9461983}, {"type": "node", "id": 3857389498, "lat": 59.3337831, "lon": 17.8902747}, {"type": "node", "id": 3857511659, "lat": 59.3877312, "lon": 17.8516397}, {"type": "node", "id": 3857519362, "lat": 59.3816752, "lon": 17.9356161}, {"type": "node", "id": 3857519370, "lat": 59.4119948, "lon": 17.8962676}, {"type": "node", "id": 3857814957, "lat": 59.3018237, "lon": 18.1117098}, {"type": "node", "id": 3857905158, "lat": 59.2598601, "lon": 17.9984696}, {"type": "node", "id": 3859860796, "lat": 59.3073047, "lon": 17.94981}, {"type": "node", "id": 3859870790, "lat": 59.2846446, "lon": 17.9345319}, {"type": "node", "id": 3859870796, "lat": 59.2994655, "lon": 17.9108782}, {"type": "node", "id": 3859874799, "lat": 59.2790812, "lon": 17.916137}, {"type": "node", "id": 3859891303, "lat": 59.3608084, "lon": 18.1100173}, {"type": "node", "id": 3859891304, "lat": 59.3630221, "lon": 18.106404}, {"type": "node", "id": 3859922225, "lat": 59.2874805, "lon": 18.1252722}, {"type": "node", "id": 3859930670, "lat": 59.2838277, "lon": 18.1334293}, {"type": "node", "id": 3859936579, "lat": 59.2474972, "lon": 18.1786994}, {"type": "node", "id": 3864279557, "lat": 59.2560954, "lon": 18.0114892}, {"type": "node", "id": 3866407562, "lat": 59.2289642, "lon": 18.0976067}, {"type": "node", "id": 3885240622, "lat": 59.3748269, "lon": 17.7218353, "tags": {"name": "Bredl\u00f6t", "place": "hamlet"}}, {"type": "node", "id": 3885240623, "lat": 59.3866321, "lon": 17.7051881, "tags": {"name": "Dalfrid", "place": "hamlet"}}, {"type": "node", "id": 3885240624, "lat": 59.357204, "lon": 17.6865389, "tags": {"name": "Hagaberg", "place": "hamlet"}}, {"type": "node", "id": 3885240625, "lat": 59.3639014, "lon": 17.7185143, "tags": {"name": "Hammarlotten", "place": "hamlet"}}, {"type": "node", "id": 3885240626, "lat": 59.3476406, "lon": 17.6934147, "tags": {"name": "Karbytorp", "place": "hamlet"}}, {"type": "node", "id": 3885240627, "lat": 59.3560691, "lon": 17.700607, "tags": {"name": "Kristineberg", "place": "hamlet"}}, {"type": "node", "id": 3885240628, "lat": 59.3468801, "lon": 17.7018084, "tags": {"name": "Norrhem", "place": "hamlet"}}, {"type": "node", "id": 3885240629, "lat": 59.3846298, "lon": 17.7097339, "tags": {"name": "Rosenhill", "place": "hamlet"}}, {"type": "node", "id": 3885240630, "lat": 59.3521634, "lon": 17.7035628, "tags": {"name": "Skillinge", "place": "hamlet"}}, {"type": "node", "id": 3885240631, "lat": 59.3584223, "lon": 17.7096077, "tags": {"name": "S\u00e5nga", "place": "village"}}, {"type": "node", "id": 3885240632, "lat": 59.3558857, "lon": 17.6921841, "tags": {"name": "Torslunda", "place": "hamlet"}}, {"type": "node", "id": 3885240634, "lat": 59.3835272, "lon": 17.7162833, "tags": {"name": "Viksund", "place": "hamlet"}}, {"type": "node", "id": 3885446284, "lat": 59.1007493, "lon": 17.8353228, "tags": {"name": "L\u00f6vvreten", "place": "hamlet"}}, {"type": "node", "id": 3885446285, "lat": 59.0644848, "lon": 17.7812843, "tags": {"name": "Ovelund", "place": "village"}}, {"type": "node", "id": 3888211016, "lat": 59.0640906, "lon": 17.7697529, "tags": {"name": "Sj\u00f6\u00e4ngen", "place": "hamlet"}}, {"type": "node", "id": 3974485503, "lat": 59.0587901, "lon": 18.0669518, "tags": {"name": "S\u00f6derby", "place": "hamlet"}}, {"type": "node", "id": 4010787723, "lat": 59.2580534, "lon": 18.0064347}, {"type": "node", "id": 4029757200, "lat": 59.2409919, "lon": 18.1294755}, {"type": "node", "id": 4137298009, "lat": 59.1221593, "lon": 18.1085969, "tags": {"name": "V\u00e4sterhaninge", "name:sv": "V\u00e4sterhaninge", "place": "town", "population": "15134", "ref:se:pts:postort": "V\u00c4STERHANINGE", "ref:se:scb": "0404", "wikidata": "Q1544751", "wikipedia": "sv:V\u00e4sterhaninge"}}, {"type": "node", "id": 4180973144, "lat": 59.2783764, "lon": 17.9565159}, {"type": "node", "id": 4180973498, "lat": 59.2791832, "lon": 17.9567227}, {"type": "node", "id": 4197258051, "lat": 59.3375263, "lon": 18.1538577}, {"type": "node", "id": 4197258059, "lat": 59.3455148, "lon": 18.1338034}, {"type": "node", "id": 4332033429, "lat": 59.1595592, "lon": 18.0977373, "tags": {"name": "Djupdalen", "place": "hamlet"}}, {"type": "node", "id": 4335597003, "lat": 59.439293, "lon": 18.1630256, "tags": {"name": "F\u00e5geln\u00e4s", "place": "hamlet"}}, {"type": "node", "id": 4345132045, "lat": 59.0980993, "lon": 17.7126216}, {"type": "node", "id": 4347328383, "lat": 59.1094817, "lon": 17.718346, "tags": {"alt_name": "Viad", "name": "Wiad", "place": "hamlet", "source": "survey"}}, {"type": "node", "id": 4347334193, "lat": 59.1127403, "lon": 17.7232025, "tags": {"name": "Oxhagen", "place": "hamlet", "source": "survey"}}, {"type": "node", "id": 4470041713, "lat": 59.3474628, "lon": 18.0308667}, {"type": "node", "id": 4484543450, "lat": 59.3903111, "lon": 17.6617698, "tags": {"name": "F\u00e4rentuna", "place": "hamlet"}}, {"type": "node", "id": 4879406516, "lat": 59.4030627, "lon": 17.9705307}, {"type": "node", "id": 4879406517, "lat": 59.401429, "lon": 17.9735269}, {"type": "node", "id": 4879406518, "lat": 59.4006635, "lon": 17.974662}, {"type": "node", "id": 4879406519, "lat": 59.4014928, "lon": 17.9697089}, {"type": "node", "id": 4879406520, "lat": 59.4010814, "lon": 17.9678796}, {"type": "node", "id": 4879407921, "lat": 59.4007681, "lon": 17.9674671}, {"type": "node", "id": 4879407922, "lat": 59.4004577, "lon": 17.9670597}, {"type": "node", "id": 4879407923, "lat": 59.3993975, "lon": 17.9652382}, {"type": "node", "id": 4879407924, "lat": 59.3995484, "lon": 17.9657563}, {"type": "node", "id": 4879407925, "lat": 59.3997717, "lon": 17.9662211}, {"type": "node", "id": 4879407926, "lat": 59.4000425, "lon": 17.9665657}, {"type": "node", "id": 4879407927, "lat": 59.3994103, "lon": 17.9613413}, {"type": "node", "id": 4879407928, "lat": 59.398481, "lon": 17.9560658}, {"type": "node", "id": 4879407929, "lat": 59.396664, "lon": 17.9529995}, {"type": "node", "id": 4879407930, "lat": 59.3969336, "lon": 17.95318}, {"type": "node", "id": 4879407931, "lat": 59.3968044, "lon": 17.9531466}, {"type": "node", "id": 4879407932, "lat": 59.3965886, "lon": 17.9527925}, {"type": "node", "id": 4879407933, "lat": 59.3930256, "lon": 17.9491697}, {"type": "node", "id": 4879407934, "lat": 59.3914988, "lon": 17.9483479}, {"type": "node", "id": 4879407935, "lat": 59.3904229, "lon": 17.9475902}, {"type": "node", "id": 4879407936, "lat": 59.3894987, "lon": 17.9463627}, {"type": "node", "id": 4879407937, "lat": 59.3885182, "lon": 17.9435422}, {"type": "node", "id": 4879407938, "lat": 59.3871654, "lon": 17.9403274}, {"type": "node", "id": 4879407939, "lat": 59.3875581, "lon": 17.9408545}, {"type": "node", "id": 4879407940, "lat": 59.3864797, "lon": 17.9397373}, {"type": "node", "id": 4879407941, "lat": 59.3827614, "lon": 17.9362374}, {"type": "node", "id": 4879407942, "lat": 59.383102, "lon": 17.9363086}, {"type": "node", "id": 4879407943, "lat": 59.3825353, "lon": 17.9362669}, {"type": "node", "id": 4879407944, "lat": 59.3821842, "lon": 17.9362187}, {"type": "node", "id": 4879407945, "lat": 59.3819076, "lon": 17.9357488}, {"type": "node", "id": 4879407946, "lat": 59.3823989, "lon": 17.9362873}, {"type": "node", "id": 5111501337, "lat": 59.485597, "lon": 17.8571552, "tags": {"name": "V\u00e4llsta", "place": "hamlet"}}, {"type": "node", "id": 5141619927, "lat": 59.3776191, "lon": 17.9285101}, {"type": "node", "id": 5141627058, "lat": 59.3740566, "lon": 17.9287127}, {"type": "node", "id": 5141627059, "lat": 59.3735553, "lon": 17.9296188}, {"type": "node", "id": 5201466224, "lat": 59.4398169, "lon": 17.8983547}, {"type": "node", "id": 5201466225, "lat": 59.4400566, "lon": 17.8987461}, {"type": "node", "id": 5234480521, "lat": 59.4860982, "lon": 17.8725564, "tags": {"name": "Svartinge", "place": "hamlet"}}, {"type": "node", "id": 5234480527, "lat": 59.4661243, "lon": 17.8811556, "tags": {"name": "Evelund", "place": "hamlet"}}, {"type": "node", "id": 5234480528, "lat": 59.474106, "lon": 17.8836876, "tags": {"name": "Gillbergs", "place": "hamlet"}}, {"type": "node", "id": 5234480550, "lat": 59.4559244, "lon": 17.8189659, "tags": {"name": "Lilla Ulvs\u00e4ttra", "place": "hamlet"}}, {"type": "node", "id": 5234480564, "lat": 59.4663505, "lon": 17.8294909, "tags": {"name": "Villastaden", "place": "village"}}, {"type": "node", "id": 5586880665, "lat": 59.1953941, "lon": 17.8119265, "tags": {"name": "Segersj\u00f6", "place": "hamlet", "source": "local knowledge", "wikidata": "Q1448799"}}, {"type": "node", "id": 5777760554, "lat": 59.3056066, "lon": 17.9381433}, {"type": "node", "id": 5777760563, "lat": 59.3107006, "lon": 17.9548266}, {"type": "node", "id": 5777760586, "lat": 59.3538669, "lon": 17.8254513}, {"type": "node", "id": 5777760618, "lat": 59.3528821, "lon": 17.8269276}, {"type": "node", "id": 5777760635, "lat": 59.3274238, "lon": 17.908457}, {"type": "node", "id": 5777760888, "lat": 59.339347, "lon": 17.8701277}, {"type": "node", "id": 5777760918, "lat": 59.3135205, "lon": 17.9494605}, {"type": "node", "id": 5777760940, "lat": 59.3483075, "lon": 17.85082}, {"type": "node", "id": 5777761081, "lat": 59.3022643, "lon": 17.9247874}, {"type": "node", "id": 5777761110, "lat": 59.3365825, "lon": 17.878246}, {"type": "node", "id": 5777761259, "lat": 59.3259357, "lon": 17.9131796}, {"type": "node", "id": 5777761261, "lat": 59.3545883, "lon": 17.8250321}, {"type": "node", "id": 5777761343, "lat": 59.3249937, "lon": 17.9167297}, {"type": "node", "id": 5777761453, "lat": 59.302917, "lon": 17.9333408}, {"type": "node", "id": 5777761466, "lat": 59.338649, "lon": 17.8746052}, {"type": "node", "id": 5777761487, "lat": 59.354133, "lon": 17.8252496}, {"type": "node", "id": 5777761519, "lat": 59.3432428, "lon": 17.862342}, {"type": "node", "id": 5777761536, "lat": 59.3300908, "lon": 17.9017063}, {"type": "node", "id": 5777761545, "lat": 59.3551189, "lon": 17.7962864}, {"type": "node", "id": 5777761562, "lat": 59.3010129, "lon": 17.9198786}, {"type": "node", "id": 5777761637, "lat": 59.3544618, "lon": 17.8250544}, {"type": "node", "id": 5777761856, "lat": 59.3540321, "lon": 17.8253273}, {"type": "node", "id": 5777761892, "lat": 59.3581764, "lon": 17.8162086}, {"type": "node", "id": 5777761909, "lat": 59.3277921, "lon": 17.9068153}, {"type": "node", "id": 5777762060, "lat": 59.3236415, "lon": 17.9196923}, {"type": "node", "id": 5777762066, "lat": 59.3355941, "lon": 17.8826219}, {"type": "node", "id": 5777762262, "lat": 59.3331329, "lon": 17.8960319}, {"type": "node", "id": 5777762282, "lat": 59.353149, "lon": 17.8264165}, {"type": "node", "id": 5777762329, "lat": 59.353941, "lon": 17.8253709}, {"type": "node", "id": 5777762412, "lat": 59.3037837, "lon": 17.9371391}, {"type": "node", "id": 5777762418, "lat": 59.3087579, "lon": 17.9530364}, {"type": "node", "id": 5777762445, "lat": 59.3063671, "lon": 17.9474736}, {"type": "node", "id": 5777762555, "lat": 59.3150488, "lon": 17.9456911}, {"type": "node", "id": 5777762580, "lat": 59.3542241, "lon": 17.8252061}, {"type": "node", "id": 5777762610, "lat": 59.3198832, "lon": 17.9335354}, {"type": "node", "id": 5777762756, "lat": 59.3530264, "lon": 17.8266329}, {"type": "node", "id": 5777879884, "lat": 59.3017873, "lon": 17.9233917}, {"type": "node", "id": 5847404376, "lat": 59.4063612, "lon": 18.1549716, "tags": {"name": "F\u00e5gels\u00e5ngen", "place": "hamlet"}}, {"type": "node", "id": 5931119766, "lat": 59.152707, "lon": 18.0085159, "tags": {"name": "\u00c5dran", "place": "village"}}, {"type": "node", "id": 6010203685, "lat": 59.2624667, "lon": 17.9831839}, {"type": "node", "id": 6058197961, "lat": 59.1707551, "lon": 17.5249252, "tags": {"name": "Almn\u00e4s", "place": "village"}}, {"type": "node", "id": 6247514760, "lat": 59.3711999, "lon": 17.5297594, "tags": {"name": "Stenby", "place": "hamlet"}}, {"type": "node", "id": 6247514762, "lat": 59.3630654, "lon": 17.5001263, "tags": {"name": "Pr\u00e4stg\u00e5rden", "place": "hamlet"}}, {"type": "node", "id": 6247514763, "lat": 59.363623, "lon": 17.5082588, "tags": {"name": "Lundkulla", "place": "hamlet", "wikidata": "Q10570798"}}, {"type": "node", "id": 6247514764, "lat": 59.3561649, "lon": 17.4945259, "tags": {"name": "Hallsta", "place": "hamlet"}}, {"type": "node", "id": 6247514766, "lat": 59.3526648, "lon": 17.5231075, "tags": {"name": "Gredby", "place": "hamlet"}}, {"type": "node", "id": 6247514768, "lat": 59.3475454, "lon": 17.5137519, "tags": {"name": "M\u00e4lby", "place": "hamlet", "wikidata": "Q10593165"}}, {"type": "node", "id": 6247514769, "lat": 59.3432568, "lon": 17.5252962, "tags": {"name": "Lindby", "place": "hamlet", "wikidata": "Q10562470"}}, {"type": "node", "id": 6247514771, "lat": 59.4099321, "lon": 17.4644851, "tags": {"name": "S\u00e4ttra", "place": "hamlet", "wikidata": "Q10688214"}}, {"type": "node", "id": 6247514773, "lat": 59.3994039, "lon": 17.4961138, "tags": {"name": "Kunsta", "place": "hamlet"}}, {"type": "node", "id": 6247514776, "lat": 59.3925873, "lon": 17.4951911, "tags": {"name": "Dalby", "place": "hamlet"}}, {"type": "node", "id": 6247515283, "lat": 59.3871024, "lon": 17.4734545, "tags": {"name": "Tofta", "place": "hamlet"}}, {"type": "node", "id": 6247515385, "lat": 59.3732824, "lon": 17.4786579, "tags": {"name": "Hanmora", "place": "hamlet"}}, {"type": "node", "id": 6250362213, "lat": 59.4185029, "lon": 17.6591277, "tags": {"name": "\u00d6lstaholm", "place": "hamlet"}}, {"type": "node", "id": 6250362214, "lat": 59.4156426, "lon": 17.6359963, "tags": {"name": "V\u00e4stertorp", "place": "hamlet"}}, {"type": "node", "id": 6250362215, "lat": 59.4133552, "lon": 17.6467895, "tags": {"name": "\u00d6stertorp", "place": "hamlet"}}, {"type": "node", "id": 6325738479, "lat": 59.2627197, "lon": 17.9801345}, {"type": "node", "id": 6498859453, "lat": 59.3161737, "lon": 17.7719281}, {"type": "node", "id": 6638276781, "lat": 59.0984965, "lon": 17.9762399, "tags": {"name": "Norrudden", "place": "village"}}, {"type": "node", "id": 6654026348, "lat": 59.3503061, "lon": 17.9729946}, {"type": "node", "id": 6654026349, "lat": 59.3409713, "lon": 18.010782}, {"type": "node", "id": 6660535757, "lat": 59.2847437, "lon": 17.9349663}, {"type": "node", "id": 6899076407, "lat": 59.1454228, "lon": 18.082568, "tags": {"name": "Riddartorp", "place": "hamlet"}}, {"type": "node", "id": 6939327079, "lat": 59.2650062, "lon": 18.1548607}, {"type": "node", "id": 7058794196, "lat": 59.3500698, "lon": 18.0369596}, {"type": "node", "id": 7058794197, "lat": 59.349652, "lon": 18.0353514}, {"type": "node", "id": 7058794198, "lat": 59.3494364, "lon": 18.0355676}, {"type": "node", "id": 7058794199, "lat": 59.3489453, "lon": 18.0337531}, {"type": "node", "id": 7061613368, "lat": 59.350602, "lon": 18.0387879}, {"type": "node", "id": 7061613369, "lat": 59.3509501, "lon": 18.0399963}, {"type": "node", "id": 7061613370, "lat": 59.3511488, "lon": 18.0406958}, {"type": "node", "id": 7061613371, "lat": 59.3509423, "lon": 18.0414183}, {"type": "node", "id": 7061613372, "lat": 59.346281, "lon": 18.0288174}, {"type": "node", "id": 7061613373, "lat": 59.3435203, "lon": 18.0257198}, {"type": "node", "id": 7061613374, "lat": 59.3430086, "lon": 18.0254656}, {"type": "node", "id": 7061613375, "lat": 59.3406305, "lon": 18.0255138}, {"type": "node", "id": 7061613377, "lat": 59.3425824, "lon": 17.9929548}, {"type": "node", "id": 7061613378, "lat": 59.3521152, "lon": 18.044935}, {"type": "node", "id": 7061613379, "lat": 59.3543367, "lon": 18.0449312}, {"type": "node", "id": 7061613380, "lat": 59.3551285, "lon": 18.0464868}, {"type": "node", "id": 7061613381, "lat": 59.3568441, "lon": 18.0490092}, {"type": "node", "id": 7061613382, "lat": 59.3714356, "lon": 18.0363707}, {"type": "node", "id": 7061613383, "lat": 59.3754676, "lon": 18.0554923}, {"type": "node", "id": 7061613384, "lat": 59.3718816, "lon": 18.0779951}, {"type": "node", "id": 7061683685, "lat": 59.3697578, "lon": 18.0954694}, {"type": "node", "id": 7061683686, "lat": 59.3578057, "lon": 18.1125306}, {"type": "node", "id": 7061683689, "lat": 59.3197937, "lon": 18.1571525}, {"type": "node", "id": 7061767833, "lat": 59.3192521, "lon": 18.1459594}, {"type": "node", "id": 7061767834, "lat": 59.3197087, "lon": 18.1430347}, {"type": "node", "id": 7061767835, "lat": 59.3195623, "lon": 18.1332793}, {"type": "node", "id": 7061767836, "lat": 59.3175472, "lon": 18.1101655}, {"type": "node", "id": 7061767838, "lat": 59.313486, "lon": 18.1059265}, {"type": "node", "id": 7061767839, "lat": 59.3129444, "lon": 18.1070223}, {"type": "node", "id": 7061767840, "lat": 59.3126245, "lon": 18.1077571}, {"type": "node", "id": 7061767841, "lat": 59.3120796, "lon": 18.1076619}, {"type": "node", "id": 7061767842, "lat": 59.3113581, "lon": 18.1090359}, {"type": "node", "id": 7061767843, "lat": 59.3090158, "lon": 18.1129584}, {"type": "node", "id": 7061767844, "lat": 59.309031, "lon": 18.1130064}, {"type": "node", "id": 7061767845, "lat": 59.3085913, "lon": 18.1125584}, {"type": "node", "id": 7061767846, "lat": 59.3047152, "lon": 18.1136782}, {"type": "node", "id": 7061767847, "lat": 59.3042242, "lon": 18.1142368}, {"type": "node", "id": 7061767848, "lat": 59.3016312, "lon": 18.1128373}, {"type": "node", "id": 7061767852, "lat": 59.2652239, "lon": 18.153186}, {"type": "node", "id": 7061767853, "lat": 59.2638188, "lon": 18.1628264}, {"type": "node", "id": 7061767854, "lat": 59.2509909, "lon": 18.1748175}, {"type": "node", "id": 7061767855, "lat": 59.2467242, "lon": 18.1860324}, {"type": "node", "id": 7061767856, "lat": 59.2469256, "lon": 18.1882436}, {"type": "node", "id": 7061767857, "lat": 59.2471781, "lon": 18.1917591}, {"type": "node", "id": 7061767858, "lat": 59.2473675, "lon": 18.1943871}, {"type": "node", "id": 7061767859, "lat": 59.2460685, "lon": 18.1980434}, {"type": "node", "id": 7061767860, "lat": 59.2421786, "lon": 18.1961822}, {"type": "node", "id": 7061767861, "lat": 59.2377192, "lon": 18.1525089}, {"type": "node", "id": 7061767862, "lat": 59.2402445, "lon": 18.141117}, {"type": "node", "id": 7061767863, "lat": 59.2404279, "lon": 18.1269123}, {"type": "node", "id": 7061767864, "lat": 59.2403699, "lon": 18.1268491}, {"type": "node", "id": 7061767865, "lat": 59.2407296, "lon": 18.1246983}, {"type": "node", "id": 7061767866, "lat": 59.2408866, "lon": 18.1242184}, {"type": "node", "id": 7061767867, "lat": 59.2409894, "lon": 18.1243045}, {"type": "node", "id": 7061767868, "lat": 59.2393945, "lon": 18.1225798}, {"type": "node", "id": 7061767869, "lat": 59.2373251, "lon": 18.1223313}, {"type": "node", "id": 7061767870, "lat": 59.2341446, "lon": 18.1234438}, {"type": "node", "id": 7061767871, "lat": 59.2336061, "lon": 18.1204325}, {"type": "node", "id": 7061767872, "lat": 59.2362293, "lon": 18.0700741}, {"type": "node", "id": 7061767873, "lat": 59.2385027, "lon": 18.0651422}, {"type": "node", "id": 7061767874, "lat": 59.2396881, "lon": 18.0620523}, {"type": "node", "id": 7061767875, "lat": 59.2406317, "lon": 18.0631211}, {"type": "node", "id": 7061767876, "lat": 59.2452147, "lon": 18.0549781}, {"type": "node", "id": 7061767877, "lat": 59.2499599, "lon": 18.0279332}, {"type": "node", "id": 7061767878, "lat": 59.252328, "lon": 18.0222852}, {"type": "node", "id": 7061767879, "lat": 59.2536425, "lon": 18.0196181}, {"type": "node", "id": 7061767880, "lat": 59.2540586, "lon": 18.0186999}, {"type": "node", "id": 7061767882, "lat": 59.2592234, "lon": 18.0018158}, {"type": "node", "id": 7061767884, "lat": 59.2560991, "lon": 18.0143545}, {"type": "node", "id": 7061777735, "lat": 59.2603043, "lon": 17.9961593}, {"type": "node", "id": 7061777736, "lat": 59.2599113, "lon": 17.9981903}, {"type": "node", "id": 7061777738, "lat": 59.2620832, "lon": 17.987742}, {"type": "node", "id": 7061777740, "lat": 59.2625013, "lon": 17.9818714}, {"type": "node", "id": 7061777742, "lat": 59.2625714, "lon": 17.9806439}, {"type": "node", "id": 7061777746, "lat": 59.2634337, "lon": 17.9791677}, {"type": "node", "id": 7061777747, "lat": 59.264326, "lon": 17.9753789}, {"type": "node", "id": 7061777748, "lat": 59.2805822, "lon": 17.9566111}, {"type": "node", "id": 7061777749, "lat": 59.2814451, "lon": 17.9563564}, {"type": "node", "id": 7061777750, "lat": 59.2821349, "lon": 17.95618}, {"type": "node", "id": 7061777751, "lat": 59.2830103, "lon": 17.9537661}, {"type": "node", "id": 7061777752, "lat": 59.2853141, "lon": 17.9496501}, {"type": "node", "id": 7061777753, "lat": 59.2855823, "lon": 17.9498925}, {"type": "node", "id": 7061777754, "lat": 59.2860144, "lon": 17.9484803}, {"type": "node", "id": 7061777755, "lat": 59.2860321, "lon": 17.9475767}, {"type": "node", "id": 7061777756, "lat": 59.2867981, "lon": 17.9466402}, {"type": "node", "id": 7098519739, "lat": 59.4178657, "lon": 17.896854}, {"type": "node", "id": 7098519740, "lat": 59.416436, "lon": 17.8983144}, {"type": "node", "id": 7098519741, "lat": 59.4162573, "lon": 17.8986718}, {"type": "node", "id": 7098519742, "lat": 59.4157588, "lon": 17.8990415}, {"type": "node", "id": 7098519743, "lat": 59.4153794, "lon": 17.8983205}, {"type": "node", "id": 7098519744, "lat": 59.4147304, "lon": 17.8973531}, {"type": "node", "id": 7098519745, "lat": 59.41442, "lon": 17.8970758}, {"type": "node", "id": 7098519746, "lat": 59.4136832, "lon": 17.896971}, {"type": "node", "id": 7098519747, "lat": 59.413147, "lon": 17.896854}, {"type": "node", "id": 7098519748, "lat": 59.4125857, "lon": 17.8965952}, {"type": "node", "id": 7098519749, "lat": 59.4119617, "lon": 17.8962501}, {"type": "node", "id": 7161313270, "lat": 59.2794566, "lon": 17.9192001}, {"type": "node", "id": 7161313271, "lat": 59.2676379, "lon": 17.8971791}, {"type": "node", "id": 7161313272, "lat": 59.2676406, "lon": 17.8926194}, {"type": "node", "id": 7161313273, "lat": 59.2688249, "lon": 17.8924745}, {"type": "node", "id": 7161313274, "lat": 59.273556, "lon": 17.8709471}, {"type": "node", "id": 7416363334, "lat": 59.4488827, "lon": 17.387968, "tags": {"name": "Brandholmssund", "place": "hamlet"}}, {"type": "node", "id": 7416408278, "lat": 59.4855095, "lon": 17.3560737, "tags": {"name": "Nyg\u00e5rd", "place": "hamlet"}}, {"type": "node", "id": 7416413326, "lat": 59.4716002, "lon": 17.3600065, "tags": {"name": "Hovg\u00e5rden", "place": "hamlet"}}, {"type": "node", "id": 7442139415, "lat": 59.1012468, "lon": 17.3061478, "tags": {"name": "Hedetorp", "place": "hamlet"}}, {"type": "node", "id": 7472890376, "lat": 59.0567098, "lon": 17.8709298, "tags": {"name": "Kristinelund", "place": "hamlet"}}, {"type": "node", "id": 7472893383, "lat": 59.2009639, "lon": 17.3253979, "tags": {"name": "Bj\u00f6rkbro", "place": "hamlet"}}, {"type": "node", "id": 7472896402, "lat": 59.0847119, "lon": 17.3464902, "tags": {"name": "Sjunda", "place": "hamlet"}}, {"type": "node", "id": 7472896406, "lat": 59.0744403, "lon": 17.3328459, "tags": {"name": "Sundby", "place": "hamlet"}}, {"type": "node", "id": 7472896432, "lat": 59.1412084, "lon": 17.4564892, "tags": {"name": "S\u00e4travik", "place": "hamlet"}}, {"type": "node", "id": 7472896435, "lat": 59.1284962, "lon": 17.4529372, "tags": {"name": "Bommersvik", "place": "hamlet"}}, {"type": "node", "id": 7472896439, "lat": 59.1542917, "lon": 17.4412149, "tags": {"name": "Rimsj\u00f6borg", "place": "hamlet"}}, {"type": "node", "id": 7472896440, "lat": 59.1579871, "lon": 17.4381892, "tags": {"name": "Ladvreta", "place": "hamlet"}}, {"type": "node", "id": 7472896442, "lat": 59.1624782, "lon": 17.4157016, "tags": {"name": "Adolfsro", "place": "hamlet"}}, {"type": "node", "id": 7472900353, "lat": 59.0625483, "lon": 17.6939681, "tags": {"name": "H\u00f6rningsn\u00e4s", "place": "hamlet"}}, {"type": "node", "id": 7472900373, "lat": 59.0991135, "lon": 17.4595621, "tags": {"name": "\u00d6vra Ogan", "place": "hamlet"}}, {"type": "node", "id": 7472900380, "lat": 59.1028993, "lon": 17.437822, "tags": {"name": "Almvik", "place": "hamlet"}}, {"type": "node", "id": 7472900382, "lat": 59.1087431, "lon": 17.430052, "tags": {"name": "Ensta", "place": "hamlet"}}, {"type": "node", "id": 7472926504, "lat": 59.119902, "lon": 18.0519047, "tags": {"name": "Skogsdal", "place": "hamlet"}}, {"type": "node", "id": 7472926510, "lat": 59.1029174, "lon": 18.011949, "tags": {"name": "Skogstorp", "place": "hamlet"}}, {"type": "node", "id": 7472926517, "lat": 59.0849149, "lon": 18.0210531, "tags": {"name": "Skogs\u00e4ng", "place": "hamlet"}}, {"type": "node", "id": 7472926519, "lat": 59.0758486, "lon": 18.0402146, "tags": {"name": "Ekeby", "place": "hamlet"}}, {"type": "node", "id": 7472926522, "lat": 59.059571, "lon": 18.0478223, "tags": {"name": "\u00d6stnora", "place": "hamlet"}}, {"type": "node", "id": 7472926527, "lat": 59.0680974, "lon": 18.0796428, "tags": {"name": "N\u00e4ringsberg", "place": "hamlet"}}, {"type": "node", "id": 7472926531, "lat": 59.0646261, "lon": 18.067002, "tags": {"name": "Gansta", "place": "hamlet"}}, {"type": "node", "id": 7472926534, "lat": 59.070254, "lon": 18.0542394, "tags": {"name": "Utlida", "place": "hamlet"}}, {"type": "node", "id": 7472926536, "lat": 59.1303912, "lon": 18.0714573, "tags": {"name": "S\u00e5gen", "place": "hamlet"}}, {"type": "node", "id": 7472926538, "lat": 59.1217956, "lon": 18.0813893, "tags": {"name": "Lida", "place": "hamlet"}}, {"type": "node", "id": 7472926542, "lat": 59.1153085, "lon": 18.0686153, "tags": {"name": "Krigslida", "place": "village"}}, {"type": "node", "id": 7472926543, "lat": 59.1079514, "lon": 18.0836657, "tags": {"name": "N\u00f6desta", "place": "hamlet"}}, {"type": "node", "id": 7472926546, "lat": 59.0945922, "lon": 18.1109317, "tags": {"name": "Berga", "place": "hamlet"}}, {"type": "node", "id": 7472926550, "lat": 59.0837163, "lon": 18.0526436, "tags": {"name": "Mildensborg", "place": "hamlet"}}, {"type": "node", "id": 7472926553, "lat": 59.1024832, "lon": 18.118073, "tags": {"name": "Fors", "place": "hamlet"}}, {"type": "node", "id": 7472928487, "lat": 59.0619906, "lon": 17.8042539, "tags": {"name": "Fr\u00f6lunda", "place": "hamlet"}}, {"type": "node", "id": 7472928493, "lat": 59.0588393, "lon": 17.869897, "tags": {"name": "Valsta", "place": "hamlet"}}, {"type": "node", "id": 7472928499, "lat": 59.0597276, "lon": 18.0359342, "tags": {"name": "V\u00e4stnora", "place": "hamlet"}}, {"type": "node", "id": 7472928500, "lat": 59.057358, "lon": 18.0171261, "tags": {"name": "V\u00e4stervreten", "place": "hamlet"}}, {"type": "node", "id": 7472928501, "lat": 59.0547378, "lon": 18.0216791, "tags": {"name": "Kyrkbacken", "place": "hamlet"}}, {"type": "node", "id": 7472929397, "lat": 59.1069605, "lon": 17.482655, "tags": {"name": "Orrs\u00e4ttra", "place": "hamlet"}}, {"type": "node", "id": 7472929430, "lat": 59.0716808, "lon": 17.5996528, "tags": {"name": "Kumla", "place": "hamlet"}}, {"type": "node", "id": 7473471147, "lat": 59.0963398, "lon": 17.9586203, "tags": {"name": "Ekhamra", "place": "hamlet"}}, {"type": "node", "id": 7473471149, "lat": 59.1086143, "lon": 17.9471565, "tags": {"name": "Kungstorp", "place": "hamlet"}}, {"type": "node", "id": 7473471153, "lat": 59.1048645, "lon": 17.9275368, "tags": {"name": "Pipartorp", "place": "hamlet"}}, {"type": "node", "id": 7473471155, "lat": 59.1118288, "lon": 17.9219862, "tags": {"name": "L\u00f6vtorp", "place": "hamlet"}}, {"type": "node", "id": 7473471159, "lat": 59.1095558, "lon": 17.8971231, "tags": {"name": "R\u00e5dala", "place": "hamlet"}}, {"type": "node", "id": 7473471162, "lat": 59.168579, "lon": 17.9210173, "tags": {"name": "Riksten", "place": "hamlet"}}, {"type": "node", "id": 7473471163, "lat": 59.140315, "lon": 17.9633087, "tags": {"name": "Ektorp", "place": "hamlet"}}, {"type": "node", "id": 7473471168, "lat": 59.1224909, "lon": 17.9305909, "tags": {"name": "Runsten", "place": "hamlet"}}, {"type": "node", "id": 7473471171, "lat": 59.1169077, "lon": 17.9292343, "tags": {"name": "Vretendal", "place": "hamlet"}}, {"type": "node", "id": 7473471172, "lat": 59.1427962, "lon": 17.911018, "tags": {"name": "P\u00e5lamalm", "place": "hamlet"}}, {"type": "node", "id": 7473471176, "lat": 59.0912511, "lon": 17.9165503, "tags": {"name": "Rydsberg", "place": "hamlet"}}, {"type": "node", "id": 7473471177, "lat": 59.0770465, "lon": 17.9128324, "tags": {"name": "\u00d6vre S\u00f6derby", "place": "hamlet"}}, {"type": "node", "id": 7473482241, "lat": 59.1047564, "lon": 17.8455697, "tags": {"name": "V\u00e4stra Br\u00f6ta", "place": "hamlet"}}, {"type": "node", "id": 7473482246, "lat": 59.1057904, "lon": 17.8636021, "tags": {"name": "\u00d6stra Br\u00f6ta", "place": "hamlet"}}, {"type": "node", "id": 7473482257, "lat": 59.0767064, "lon": 17.6856928, "tags": {"name": "Gr\u00f6nsl\u00e4tt", "place": "hamlet"}}, {"type": "node", "id": 7473482264, "lat": 59.0974208, "lon": 17.7287074, "tags": {"name": "H\u00e4sthagen", "place": "hamlet"}}, {"type": "node", "id": 7473482266, "lat": 59.0747594, "lon": 17.8185928, "tags": {"name": "Skogstorp", "place": "hamlet"}}, {"type": "node", "id": 7473482267, "lat": 59.0813185, "lon": 17.8155145, "tags": {"name": "Stutby", "place": "hamlet"}}, {"type": "node", "id": 7473482273, "lat": 59.0910687, "lon": 17.7750945, "tags": {"name": "S\u00f6der\u00e4ngstorp", "place": "hamlet"}}, {"type": "node", "id": 7473482280, "lat": 59.1339475, "lon": 17.8452499, "tags": {"name": "Iselsta", "place": "hamlet"}}, {"type": "node", "id": 7473482281, "lat": 59.1409471, "lon": 17.8406641, "tags": {"name": "Norrga", "place": "hamlet"}}, {"type": "node", "id": 7473482283, "lat": 59.1346194, "lon": 17.8311556, "tags": {"name": "L\u00f6vlund", "place": "hamlet"}}, {"type": "node", "id": 7473494743, "lat": 59.205524, "lon": 17.4008925, "tags": {"name": "V\u00e4stra Kumla", "place": "hamlet"}}, {"type": "node", "id": 7473494754, "lat": 59.1811784, "lon": 17.4517418, "tags": {"name": "Str\u00f6psta", "place": "hamlet"}}, {"type": "node", "id": 7473494760, "lat": 59.1993627, "lon": 17.416669, "tags": {"name": "Marsta", "place": "hamlet"}}, {"type": "node", "id": 7473494775, "lat": 59.2532826, "lon": 17.4564651, "tags": {"name": "Aska", "place": "hamlet"}}, {"type": "node", "id": 7473494778, "lat": 59.2320388, "lon": 17.4313951, "tags": {"name": "Sundsvik", "place": "hamlet"}}, {"type": "node", "id": 7473494784, "lat": 59.1406136, "lon": 17.5019615, "tags": {"name": "Vackstan\u00e4s", "place": "hamlet"}}, {"type": "node", "id": 7473501436, "lat": 59.2097569, "lon": 18.0038962, "tags": {"name": "Stens\u00e4ttra", "place": "hamlet"}}, {"type": "node", "id": 7473501443, "lat": 59.1737098, "lon": 18.0401771, "tags": {"name": "Ekedal", "place": "hamlet"}}, {"type": "node", "id": 7473501446, "lat": 59.1659445, "lon": 18.0279697, "tags": {"name": "Bruket", "place": "hamlet"}}, {"type": "node", "id": 7473501448, "lat": 59.1636159, "lon": 18.0078307, "tags": {"name": "S\u00e5gar\u00e4ng", "place": "hamlet"}}, {"type": "node", "id": 7473501451, "lat": 59.1585257, "lon": 18.0256882, "tags": {"name": "\u00c5rtorp", "place": "hamlet"}}, {"type": "node", "id": 7473501455, "lat": 59.2286362, "lon": 18.0382013, "tags": {"name": "Solbacken", "place": "hamlet"}}, {"type": "node", "id": 7473501469, "lat": 59.1739021, "lon": 18.1086066, "tags": {"name": "Bj\u00f6rkdalen", "place": "hamlet"}}, {"type": "node", "id": 7473501472, "lat": 59.1492524, "lon": 18.0948358, "tags": {"name": "D\u00e5ntorp", "place": "hamlet"}}, {"type": "node", "id": 7473501473, "lat": 59.1751053, "lon": 18.0759811, "tags": {"alt_name": "Lissma g\u00e5rd", "name": "Lissma", "place": "hamlet"}}, {"type": "node", "id": 7473501480, "lat": 59.1786487, "lon": 18.1128525, "tags": {"name": "Sols\u00e4tra", "place": "hamlet"}}, {"type": "node", "id": 7473501482, "lat": 59.1821229, "lon": 18.0944974, "tags": {"name": "Hjorthagen", "place": "hamlet"}}, {"type": "node", "id": 7473522685, "lat": 59.1837586, "lon": 18.0690533, "tags": {"name": "Kvarntorp", "place": "hamlet"}}, {"type": "node", "id": 7473523313, "lat": 59.2469062, "lon": 17.7939795, "tags": {"name": "Karlberg", "place": "hamlet"}}, {"type": "node", "id": 7473523314, "lat": 59.2349419, "lon": 17.7985578, "tags": {"name": "N\u00e4sby", "place": "hamlet"}}, {"type": "node", "id": 7473523316, "lat": 59.2305252, "lon": 17.7310119, "tags": {"name": "Sk\u00e5rby", "place": "hamlet"}}, {"type": "node", "id": 7473523325, "lat": 59.1811564, "lon": 17.84668, "tags": {"name": "L\u00f6vholmen", "place": "hamlet"}}, {"type": "node", "id": 7473523331, "lat": 59.2172421, "lon": 17.8086412, "tags": {"name": "Sk\u00e5rdal", "place": "hamlet"}}, {"type": "node", "id": 7473523488, "lat": 59.0870423, "lon": 17.922837, "tags": {"name": "Lundby", "place": "hamlet"}}, {"type": "node", "id": 7473523489, "lat": 59.0814594, "lon": 17.9214244, "tags": {"name": "\u00d6sterby", "place": "hamlet"}}, {"type": "node", "id": 7473523492, "lat": 59.0676407, "lon": 17.9754661, "tags": {"name": "Hemfosa", "place": "hamlet", "population": "108", "wikidata": "Q2193230", "wikipedia": "sv:Hemfosa"}}, {"type": "node", "id": 7473523519, "lat": 59.2046453, "lon": 17.564214, "tags": {"name": "Torsj\u00f6dal", "place": "hamlet"}}, {"type": "node", "id": 7473523528, "lat": 59.1631766, "lon": 17.5839302, "tags": {"name": "Stadan", "place": "hamlet"}}, {"type": "node", "id": 7473523529, "lat": 59.1606814, "lon": 17.5884515, "tags": {"name": "Nabben", "place": "hamlet"}}, {"type": "node", "id": 7473523533, "lat": 59.220826, "lon": 17.6167209, "tags": {"name": "Ragnhildsborg", "place": "hamlet"}}, {"type": "node", "id": 7473523534, "lat": 59.2209169, "lon": 17.6049906, "tags": {"name": "Linan\u00e4s", "place": "hamlet"}}, {"type": "node", "id": 7473523541, "lat": 59.2460055, "lon": 17.6392991, "tags": {"name": "Ekbacken", "place": "hamlet"}}, {"type": "node", "id": 7473523551, "lat": 59.2329784, "lon": 17.6337649, "tags": {"name": "Hj\u00e4lms\u00e4ttra", "place": "hamlet"}}, {"type": "node", "id": 7473523552, "lat": 59.2311448, "lon": 17.667464, "tags": {"name": "Talby", "place": "hamlet"}}, {"type": "node", "id": 7473523559, "lat": 59.2114759, "lon": 17.6627859, "tags": {"name": "Listonhill", "place": "hamlet"}}, {"type": "node", "id": 7473523566, "lat": 59.2337287, "lon": 17.6863358, "tags": {"name": "Oxelby", "place": "hamlet"}}, {"type": "node", "id": 7473523569, "lat": 59.2195241, "lon": 17.7226157, "tags": {"name": "Hallinge", "place": "hamlet"}}, {"type": "node", "id": 7473523574, "lat": 59.2485821, "lon": 17.6598952, "tags": {"name": "Berg\u00e5sa", "place": "hamlet"}}, {"type": "node", "id": 7473524185, "lat": 59.1389724, "lon": 17.8275579, "tags": {"name": "Uppinge", "place": "hamlet"}}, {"type": "node", "id": 7473524186, "lat": 59.1413561, "lon": 17.818362, "tags": {"name": "Husby", "place": "hamlet"}}, {"type": "node", "id": 7473524187, "lat": 59.1379015, "lon": 17.8137538, "tags": {"name": "\u00c5vinge", "place": "hamlet"}}, {"type": "node", "id": 7473524191, "lat": 59.1198085, "lon": 17.8189731, "tags": {"name": "K\u00e4rrhagen", "place": "hamlet"}}, {"type": "node", "id": 7473524192, "lat": 59.1129731, "lon": 17.8219767, "tags": {"name": "Byrsta", "place": "hamlet"}}, {"type": "node", "id": 7473524193, "lat": 59.0975013, "lon": 17.8166973, "tags": {"name": "Tegelvreten", "place": "hamlet"}}, {"type": "node", "id": 7473524194, "lat": 59.1120081, "lon": 17.8067817, "tags": {"name": "Kvarnbacken", "place": "hamlet"}}, {"type": "node", "id": 7473524195, "lat": 59.1069731, "lon": 17.8041442, "tags": {"name": "Brink", "place": "hamlet", "wikidata": "Q1448373"}}, {"type": "node", "id": 7473524205, "lat": 59.1554787, "lon": 17.8034686, "tags": {"name": "Korsn\u00e4s", "place": "hamlet"}}, {"type": "node", "id": 7473524208, "lat": 59.1066368, "lon": 17.8869917, "tags": {"name": "Boda", "place": "hamlet"}}, {"type": "node", "id": 7473524210, "lat": 59.103651, "lon": 17.8817857, "tags": {"name": "Br\u00f6thagen", "place": "hamlet"}}, {"type": "node", "id": 7473524219, "lat": 59.1180749, "lon": 17.8959417, "tags": {"name": "Hummeltorp", "place": "hamlet"}}, {"type": "node", "id": 7473524220, "lat": 59.1373217, "lon": 17.8577517, "tags": {"name": "R\u00e5by", "place": "hamlet"}}, {"type": "node", "id": 7473524221, "lat": 59.0841857, "lon": 17.8909892, "tags": {"name": "V\u00e4sterby", "place": "hamlet"}}, {"type": "node", "id": 7473524223, "lat": 59.0767002, "lon": 17.8799219, "tags": {"name": "Vinaren", "place": "hamlet"}}, {"type": "node", "id": 7473538599, "lat": 59.0984556, "lon": 17.617142, "tags": {"name": "Sol\u00e5krabyn", "place": "hamlet"}}, {"type": "node", "id": 7473538600, "lat": 59.1493083, "lon": 17.5545289, "tags": {"name": "Jumsta", "place": "hamlet"}}, {"type": "node", "id": 7473538612, "lat": 59.1544661, "lon": 17.5701753, "tags": {"name": "Valsta", "place": "hamlet"}}, {"type": "node", "id": 7473538619, "lat": 59.140973, "lon": 17.5956223, "tags": {"name": "Lerhaga", "place": "hamlet"}}, {"type": "node", "id": 7473538622, "lat": 59.0954343, "lon": 17.6146151, "tags": {"name": "Solberga", "place": "hamlet"}}, {"type": "node", "id": 7473538623, "lat": 59.0907167, "lon": 17.6400805, "tags": {"name": "N\u00e4st\u00e4ppan", "place": "hamlet"}}, {"type": "node", "id": 7473538627, "lat": 59.1606611, "lon": 17.6362412, "tags": {"name": "Gl\u00e4ntan", "place": "hamlet"}}, {"type": "node", "id": 7473538629, "lat": 59.1449471, "lon": 17.6268124, "tags": {"name": "Kvedesta", "place": "hamlet"}}, {"type": "node", "id": 7473538633, "lat": 59.1355185, "lon": 17.6108523, "tags": {"name": "Glibotorp", "place": "hamlet"}}, {"type": "node", "id": 7473538636, "lat": 59.1473926, "lon": 17.6066886, "tags": {"name": "\u00c5l\u00f6str\u00f6m", "place": "hamlet"}}, {"type": "node", "id": 7473538642, "lat": 59.1290943, "lon": 17.6926569, "tags": {"name": "Kungsdalen", "place": "hamlet"}}, {"type": "node", "id": 7473538648, "lat": 59.1780535, "lon": 17.7027651, "tags": {"name": "G\u00e4rtuna", "place": "hamlet"}}, {"type": "node", "id": 7473538649, "lat": 59.1749788, "lon": 17.7120474, "tags": {"name": "T\u00f6rnebacka", "place": "hamlet"}}, {"type": "node", "id": 7473538652, "lat": 59.1622674, "lon": 17.7125698, "tags": {"name": "H\u00e5ga", "place": "hamlet"}}, {"type": "node", "id": 7473538653, "lat": 59.1598104, "lon": 17.6606433, "tags": {"name": "N\u00e4set", "place": "hamlet"}}, {"type": "node", "id": 7473538659, "lat": 59.1405312, "lon": 17.758017, "tags": {"name": "Klippsta", "place": "hamlet"}}, {"type": "node", "id": 7473538669, "lat": 59.1865719, "lon": 17.7732528, "tags": {"name": "Norrbyvret", "place": "hamlet", "wikidata": "Q1449235"}}, {"type": "node", "id": 7473538671, "lat": 59.1762658, "lon": 17.7497865, "tags": {"name": "Vretaberg", "place": "hamlet"}}, {"type": "node", "id": 7473538673, "lat": 59.1589762, "lon": 17.7444752, "tags": {"name": "Tyttinge", "place": "hamlet"}}, {"type": "node", "id": 7473538676, "lat": 59.167312, "lon": 17.7267761, "tags": {"name": "Tysslinge", "place": "hamlet"}}, {"type": "node", "id": 7473539443, "lat": 59.2541553, "lon": 17.4757338, "tags": {"name": "Stora V\u00e4sby", "place": "hamlet"}}, {"type": "node", "id": 7473539447, "lat": 59.2929988, "lon": 17.4649391, "tags": {"name": "Hammarby strand", "place": "hamlet"}}, {"type": "node", "id": 7473539451, "lat": 59.2681932, "lon": 17.4351706, "tags": {"name": "\u00c5rby", "place": "hamlet"}}, {"type": "node", "id": 7473539455, "lat": 59.261585, "lon": 17.4327952, "tags": {"name": "Lida", "place": "hamlet"}}, {"type": "node", "id": 7473539457, "lat": 59.2584074, "lon": 17.4470389, "tags": {"name": "R\u00f6sta", "place": "hamlet"}}, {"type": "node", "id": 7473539462, "lat": 59.2705652, "lon": 17.4619041, "tags": {"name": "Varneby", "place": "hamlet"}}, {"type": "node", "id": 7473539472, "lat": 59.2569769, "lon": 17.4572093, "tags": {"name": "Vinberga", "place": "hamlet"}}, {"type": "node", "id": 7473539473, "lat": 59.254271, "lon": 17.4906091, "tags": {"name": "Tuna", "place": "hamlet"}}, {"type": "node", "id": 7473543885, "lat": 59.1234322, "lon": 17.8107559, "tags": {"name": "L\u00e5ng\u00e4ngen", "place": "hamlet"}}, {"type": "node", "id": 7473549786, "lat": 59.12721, "lon": 17.4997793, "tags": {"name": "Borg", "place": "hamlet"}}, {"type": "node", "id": 7473549799, "lat": 59.1824072, "lon": 17.4681423, "tags": {"name": "M\u00f6rby", "place": "hamlet"}}, {"type": "node", "id": 7473549806, "lat": 59.2070263, "lon": 17.5083174, "tags": {"name": "K\u00e4msta", "place": "hamlet"}}, {"type": "node", "id": 7473549809, "lat": 59.2267718, "lon": 17.5292234, "tags": {"name": "Fur\u00e5s", "place": "hamlet"}}, {"type": "node", "id": 7473549832, "lat": 59.2353355, "lon": 17.4373342, "tags": {"name": "Pommern", "place": "hamlet"}}, {"type": "node", "id": 7473549833, "lat": 59.2510236, "lon": 17.4671413, "tags": {"name": "Stj\u00e4rna", "place": "hamlet"}}, {"type": "node", "id": 7473550190, "lat": 59.2571846, "lon": 17.5638304, "tags": {"name": "Bastmora", "place": "hamlet"}}, {"type": "node", "id": 7473550193, "lat": 59.2802904, "lon": 17.4539342, "tags": {"name": "Hammarby", "place": "hamlet"}}, {"type": "node", "id": 7473550203, "lat": 59.3012608, "lon": 17.4022639, "tags": {"name": "\u00d6verenh\u00f6rna", "place": "hamlet"}}, {"type": "node", "id": 7473550215, "lat": 59.282676, "lon": 17.4027053, "tags": {"name": "N\u00f6ttesta", "place": "hamlet"}}, {"type": "node", "id": 7473550236, "lat": 59.3275735, "lon": 17.5709695, "tags": {"name": "Skogalund", "place": "hamlet"}}, {"type": "node", "id": 7473565577, "lat": 59.272681, "lon": 17.7509195, "tags": {"name": "Askn\u00e4s", "place": "hamlet"}}, {"type": "node", "id": 7473567290, "lat": 59.3014838, "lon": 17.6719727, "tags": {"name": "Bergvik", "place": "hamlet", "wikidata": "Q2245686"}}, {"type": "node", "id": 7473567296, "lat": 59.2942894, "lon": 17.6538677, "tags": {"name": "Sj\u00f6\u00e4ngen", "place": "hamlet"}}, {"type": "node", "id": 7473567302, "lat": 59.3118412, "lon": 17.617829, "tags": {"name": "Rasta", "place": "hamlet"}}, {"type": "node", "id": 7473567313, "lat": 59.300671, "lon": 17.7646447, "tags": {"name": "Stj\u00e4rtn\u00e4s", "place": "hamlet"}}, {"type": "node", "id": 7473567314, "lat": 59.2913292, "lon": 17.7390436, "tags": {"name": "Liljedal", "place": "hamlet"}}, {"type": "node", "id": 7473567318, "lat": 59.2810098, "lon": 17.7121063, "tags": {"name": "\u00c4lby", "place": "hamlet"}}, {"type": "node", "id": 7473567319, "lat": 59.2874498, "lon": 17.7061327, "tags": {"name": "Nyckelby", "place": "hamlet"}}, {"type": "node", "id": 7473567359, "lat": 59.4163073, "lon": 17.6089758, "tags": {"name": "Skogsbacken", "place": "hamlet"}}, {"type": "node", "id": 7473567360, "lat": 59.3982989, "lon": 17.6392621, "tags": {"name": "Bj\u00f6rkhagen", "place": "hamlet"}}, {"type": "node", "id": 7473567361, "lat": 59.4311265, "lon": 17.6384995, "tags": {"name": "Skarnholmen", "place": "hamlet"}}, {"type": "node", "id": 7473567364, "lat": 59.4214623, "lon": 17.6090649, "tags": {"name": "Karlh\u00e4ll", "place": "hamlet"}}, {"type": "node", "id": 7473567365, "lat": 59.4206999, "lon": 17.5995545, "tags": {"name": "Vendeludd", "place": "hamlet"}}, {"type": "node", "id": 7473567366, "lat": 59.4195889, "lon": 17.6020329, "tags": {"name": "Enebyholme", "place": "hamlet"}}, {"type": "node", "id": 7473567370, "lat": 59.4201931, "lon": 17.6744311, "tags": {"name": "H\u00f6gbysk\u00e4r", "place": "hamlet"}}, {"type": "node", "id": 7473567371, "lat": 59.4109489, "lon": 17.6666123, "tags": {"name": "Ekberga", "place": "hamlet"}}, {"type": "node", "id": 7473567373, "lat": 59.3993025, "lon": 17.6483312, "tags": {"name": "Storg\u00e4rdet", "place": "hamlet"}}, {"type": "node", "id": 7473567377, "lat": 59.4175161, "lon": 17.6199728, "tags": {"name": "Lunda", "place": "hamlet", "wikidata": "Q10570707"}}, {"type": "node", "id": 7473567378, "lat": 59.406146, "lon": 17.6174735, "tags": {"name": "Ringn\u00e4s", "place": "hamlet"}}, {"type": "node", "id": 7473567379, "lat": 59.4344929, "lon": 17.6474767, "tags": {"name": "Eldgarns\u00f6", "place": "hamlet"}}, {"type": "node", "id": 7473567380, "lat": 59.426634, "lon": 17.6258864, "tags": {"name": "Stj\u00e4rtn\u00e4s", "place": "hamlet"}}, {"type": "node", "id": 7473569230, "lat": 59.3616546, "lon": 17.5910304, "tags": {"name": "Ekeby tomtomr\u00e5de", "place": "hamlet"}}, {"type": "node", "id": 7473569231, "lat": 59.3553912, "lon": 17.6397966, "tags": {"name": "\u00d6ster\u00e5s", "place": "hamlet"}}, {"type": "node", "id": 7473569249, "lat": 59.3804212, "lon": 17.5920864, "tags": {"name": "S\u00e4ttra", "place": "hamlet"}}, {"type": "node", "id": 7473569255, "lat": 59.3814955, "lon": 17.5705174, "tags": {"name": "Furulid", "place": "hamlet"}}, {"type": "node", "id": 7473569264, "lat": 59.4118712, "lon": 17.5863092, "tags": {"name": "L\u00f6ten", "place": "hamlet"}}, {"type": "node", "id": 7473569275, "lat": 59.4223699, "lon": 17.5370313, "tags": {"name": "Pr\u00e4st-Utholmen", "place": "hamlet"}}, {"type": "node", "id": 7473576452, "lat": 59.3594488, "lon": 17.5277158, "tags": {"name": "Hovg\u00e5rden", "place": "hamlet", "wikidata": "Q1916655"}}, {"type": "node", "id": 7473576459, "lat": 59.3918075, "lon": 17.5226465, "tags": {"name": "Sandudden", "place": "hamlet"}}, {"type": "node", "id": 7473576460, "lat": 59.3745434, "lon": 17.5099652, "tags": {"name": "Grindby", "place": "hamlet"}}, {"type": "node", "id": 7473576461, "lat": 59.3820879, "lon": 17.5099157, "tags": {"name": "Norr\u00e4ngen", "place": "hamlet"}}, {"type": "node", "id": 7473591089, "lat": 59.3166321, "lon": 17.7626404, "tags": {"name": "Jakobsberg", "place": "hamlet"}}, {"type": "node", "id": 7473591090, "lat": 59.3865303, "lon": 17.744844, "tags": {"name": "Stora \u00c5ttan", "place": "hamlet"}}, {"type": "node", "id": 7473591094, "lat": 59.3591154, "lon": 17.6564584, "tags": {"name": "Alby", "place": "hamlet"}}, {"type": "node", "id": 7473591102, "lat": 59.3930605, "lon": 17.6899608, "tags": {"name": "Tallg\u00e5rden", "place": "hamlet"}}, {"type": "node", "id": 7473591103, "lat": 59.3919872, "lon": 17.7345445, "tags": {"name": "Ricks\u00e4ttra", "place": "hamlet", "wikidata": "Q10654921"}}, {"type": "node", "id": 7473591105, "lat": 59.3847744, "lon": 17.6923522, "tags": {"name": "Vif\u00e4rna", "place": "hamlet"}}, {"type": "node", "id": 7473591113, "lat": 59.3690818, "lon": 17.7082636, "tags": {"name": "Degerby", "place": "hamlet"}}, {"type": "node", "id": 7473591114, "lat": 59.3677215, "lon": 17.7472863, "tags": {"name": "Svartsj\u00f6 kungsg\u00e5rd", "place": "hamlet"}}, {"type": "node", "id": 7473591115, "lat": 59.3654851, "lon": 17.7614309, "tags": {"name": "Nibbla", "place": "hamlet"}}, {"type": "node", "id": 7473591116, "lat": 59.361887, "lon": 17.6910243, "tags": {"name": "Plogen", "place": "hamlet"}}, {"type": "node", "id": 7473591117, "lat": 59.3609505, "lon": 17.6987685, "tags": {"name": "Viggeby", "place": "hamlet"}}, {"type": "node", "id": 7473591118, "lat": 59.3962297, "lon": 17.6874958, "tags": {"name": "Pr\u00e4stnibbla", "place": "hamlet"}}, {"type": "node", "id": 7473591119, "lat": 59.3759445, "lon": 17.6832754, "tags": {"name": "Degerby", "place": "hamlet"}}, {"type": "node", "id": 7473591120, "lat": 59.3703143, "lon": 17.6776865, "tags": {"name": "Tingsstaden", "place": "hamlet"}}, {"type": "node", "id": 7473591121, "lat": 59.3872526, "lon": 17.6755047, "tags": {"name": "Kvarsta", "place": "hamlet"}}, {"type": "node", "id": 7473591122, "lat": 59.3794961, "lon": 17.6735468, "tags": {"name": "Lisselby", "place": "hamlet"}}, {"type": "node", "id": 7473591126, "lat": 59.3889866, "lon": 17.6628563, "tags": {"name": "H\u00f6gby", "place": "hamlet"}}, {"type": "node", "id": 7473591128, "lat": 59.3944773, "lon": 17.6549352, "tags": {"name": "R\u00f6dbacka", "place": "hamlet"}}, {"type": "node", "id": 7473591130, "lat": 59.3792417, "lon": 17.6516774, "tags": {"name": "Nora", "place": "hamlet"}}, {"type": "node", "id": 7473591132, "lat": 59.3714994, "lon": 17.640402, "tags": {"name": "Nora bruk", "place": "hamlet"}}, {"type": "node", "id": 7473591134, "lat": 59.385895, "lon": 17.6363748, "tags": {"name": "S\u00e4tuna", "place": "hamlet"}}, {"type": "node", "id": 7473591135, "lat": 59.3759198, "lon": 17.6341932, "tags": {"name": "L\u00e5ngsk\u00e4r", "place": "hamlet"}}, {"type": "node", "id": 7473591142, "lat": 59.4284802, "lon": 17.6146907, "tags": {"name": "Kungsh\u00e4ll", "place": "hamlet"}}, {"type": "node", "id": 7473591144, "lat": 59.3203245, "lon": 17.7307946, "tags": {"name": "Skogby", "place": "hamlet"}}, {"type": "node", "id": 7473591146, "lat": 59.3203927, "lon": 17.7001027, "tags": {"name": "Eriksberg", "place": "hamlet"}}, {"type": "node", "id": 7473591148, "lat": 59.3335239, "lon": 17.7473449, "tags": {"name": "Tuna", "place": "hamlet"}}, {"type": "node", "id": 7473591150, "lat": 59.3763076, "lon": 17.7672271, "tags": {"name": "F\u00e4rjestaden", "place": "hamlet", "wikidata": "Q2994551"}}, {"type": "node", "id": 7473591151, "lat": 59.37214, "lon": 17.7720887, "tags": {"name": "Nibblen\u00e4s", "place": "hamlet"}}, {"type": "node", "id": 7473591152, "lat": 59.36858, "lon": 17.7753484, "tags": {"name": "\u00d6sterby", "place": "hamlet"}}, {"type": "node", "id": 7473591153, "lat": 59.3614546, "lon": 17.7766847, "tags": {"name": "Kungsbryggan", "place": "hamlet"}}, {"type": "node", "id": 7473591155, "lat": 59.3218496, "lon": 17.7755194, "tags": {"name": "F\u00e5gel\u00e4ngen", "place": "hamlet"}}, {"type": "node", "id": 7473598153, "lat": 59.3406496, "lon": 17.8158997, "tags": {"name": "Dyviken", "place": "hamlet"}}, {"type": "node", "id": 7473598157, "lat": 59.3250286, "lon": 17.8639918, "tags": {"name": "Vilan", "place": "hamlet"}}, {"type": "node", "id": 7473598161, "lat": 59.3105355, "lon": 17.8662382, "tags": {"name": "Edeby", "place": "hamlet"}}, {"type": "node", "id": 7473598165, "lat": 59.3262932, "lon": 17.895692, "tags": {"name": "\u00c4ngsholm", "place": "hamlet"}}, {"type": "node", "id": 7473598170, "lat": 59.3346419, "lon": 17.8474972, "tags": {"name": "Hogsta", "place": "hamlet"}}, {"type": "node", "id": 7473598172, "lat": 59.327476, "lon": 17.8418968, "tags": {"name": "Barkarby", "place": "hamlet"}}, {"type": "node", "id": 7473598173, "lat": 59.332498, "lon": 17.8260829, "tags": {"name": "Norrby", "place": "hamlet"}}, {"type": "node", "id": 7473615445, "lat": 59.4947116, "lon": 17.6145379, "tags": {"name": "Tegelbruket", "place": "hamlet"}}, {"type": "node", "id": 7473615454, "lat": 59.4962209, "lon": 17.5282067, "tags": {"name": "Saltvik", "place": "hamlet"}}, {"type": "node", "id": 7473615460, "lat": 59.4865245, "lon": 17.5491956, "tags": {"name": "Skarpsk\u00e4r", "place": "hamlet"}}, {"type": "node", "id": 7473615462, "lat": 59.4817333, "lon": 17.6551922, "tags": {"name": "Laggarudden", "place": "hamlet"}}, {"type": "node", "id": 7473615465, "lat": 59.4886378, "lon": 17.6065958, "tags": {"name": "M\u00e4larland", "place": "hamlet"}}, {"type": "node", "id": 7473615466, "lat": 59.4828968, "lon": 17.6019515, "tags": {"name": "\u00c5d\u00f6 skog", "place": "hamlet"}}, {"type": "node", "id": 7473615469, "lat": 59.4928555, "lon": 17.5995581, "tags": {"name": "S\u00e5gbacken", "place": "hamlet"}}, {"type": "node", "id": 7473615471, "lat": 59.4893097, "lon": 17.5949213, "tags": {"name": "Verkaviken", "place": "hamlet"}}, {"type": "node", "id": 7473625246, "lat": 59.3875077, "lon": 17.7925342, "tags": {"name": "L\u00f6vsta", "place": "hamlet"}}, {"type": "node", "id": 7473627970, "lat": 59.4891618, "lon": 17.7277421, "tags": {"name": "Tibble", "place": "hamlet"}}, {"type": "node", "id": 7473654424, "lat": 59.4789798, "lon": 18.0435054, "tags": {"name": "Broby", "place": "hamlet"}}, {"type": "node", "id": 7473654425, "lat": 59.4815211, "lon": 18.0350946, "tags": {"name": "S\u00e5sta", "place": "hamlet"}}, {"type": "node", "id": 7473661818, "lat": 59.486143, "lon": 18.1272152, "tags": {"name": "V\u00e5gsj\u00f6", "place": "hamlet"}}, {"type": "node", "id": 7473767961, "lat": 59.4741056, "lon": 18.1562501, "tags": {"name": "Deglinge", "place": "hamlet"}}, {"type": "node", "id": 7473767962, "lat": 59.4662478, "lon": 18.1534712, "tags": {"name": "Ullna", "place": "hamlet"}}, {"type": "node", "id": 7542429706, "lat": 59.3475271, "lon": 18.0310011}, {"type": "node", "id": 7542429710, "lat": 59.3510882, "lon": 18.0404823}, {"type": "node", "id": 7542429716, "lat": 59.3514814, "lon": 18.0445063}, {"type": "node", "id": 7987359500, "lat": 59.2474299, "lon": 18.1951913}, {"type": "node", "id": 7991364326, "lat": 59.2475243, "lon": 18.1969236}, {"type": "node", "id": 8112240787, "lat": 59.105912, "lon": 18.0170202, "tags": {"name": "Bj\u00e4lkenstorp", "place": "hamlet"}}, {"type": "node", "id": 8112542589, "lat": 59.1069614, "lon": 17.8779316, "tags": {"alt_name": "Hagalund", "name": "Haga", "place": "hamlet"}}, {"type": "node", "id": 8155718202, "lat": 59.3965535, "lon": 17.9526223}, {"type": "node", "id": 8179072471, "lat": 59.2434087, "lon": 18.1963598}, {"type": "node", "id": 8179072477, "lat": 59.2436275, "lon": 18.1963874}, {"type": "node", "id": 8268291709, "lat": 59.2846425, "lon": 17.9502237}, {"type": "node", "id": 8355502556, "lat": 59.3479412, "lon": 18.0302347}, {"type": "node", "id": 8355502557, "lat": 59.3482598, "lon": 18.0325623}, {"type": "node", "id": 8355502558, "lat": 59.3498236, "lon": 18.0359445}, {"type": "node", "id": 8355502559, "lat": 59.3502416, "lon": 18.0374537}, {"type": "node", "id": 8355502560, "lat": 59.3509484, "lon": 18.0409338}, {"type": "node", "id": 8355502561, "lat": 59.3508553, "lon": 18.040942}, {"type": "node", "id": 9144178738, "lat": 59.4270561, "lon": 17.5945889, "tags": {"name": "G\u00f6holmen", "place": "hamlet"}}, {"type": "node", "id": 9366953455, "lat": 59.2478723, "lon": 18.0369028}, {"type": "node", "id": 9513493245, "lat": 59.4217934, "lon": 17.922041}, {"type": "node", "id": 10042530065, "lat": 59.3233387, "lon": 17.4973957, "tags": {"place": "village"}}, {"type": "node", "id": 10202182483, "lat": 59.1592159, "lon": 17.6781419, "tags": {"name": "Halldalen", "place": "hamlet"}}, {"type": "node", "id": 10983112106, "lat": 59.2833607, "lon": 17.9527676}, {"type": "node", "id": 10983112107, "lat": 59.2834607, "lon": 17.9525684}, {"type": "node", "id": 10983112108, "lat": 59.2835692, "lon": 17.9523523}, {"type": "node", "id": 10983112109, "lat": 59.2837953, "lon": 17.9519016}, {"type": "node", "id": 11145765236, "lat": 59.4813258, "lon": 17.6586556, "tags": {"name": "\u00c4ngsudden", "place": "hamlet"}}, {"type": "node", "id": 11169166773, "lat": 59.3428464, "lon": 18.0254378}, {"type": "node", "id": 11268620456, "lat": 59.4374375, "lon": 17.9059577}, {"type": "node", "id": 11526102764, "lat": 59.3484564, "lon": 18.0332963}, {"type": "node", "id": 11526148775, "lat": 59.3493786, "lon": 18.0353264}, {"type": "way", "id": 24340681, "nodes": [259230736, 259230735, 7061767871, 259504642, 259230734, 7061767870, 259231612, 259231611, 259231610, 7061767869, 259231609, 7061767868, 259231608, 7061767867, 7061767866, 7061767865, 259231932, 259231931, 259231929, 7061767864, 7061767863, 259231928, 259231927, 259231926, 259231925, 259231924, 259231923, 259231922, 4029757200, 259231921]}, {"type": "way", "id": 49135178, "nodes": [3856697173, 5777760888, 5777761466, 5777761110, 259494451, 5777762066, 259494450, 259494449, 3857389498]}, {"type": "way", "id": 49135180, "nodes": [7098519749, 259492106, 259492449, 259492448, 259492447, 259492446, 259492445, 259492444, 259492443, 259492442, 259492441, 259492440, 259492439, 259492438, 259492437, 259492436, 259492435, 259492434, 259492433, 259492432, 259492431, 261024019, 259492851, 259492850, 259492849, 259492848, 345548729, 3857511659]}, {"type": "way", "id": 49135270, "nodes": [259491050, 259491049, 259491048, 4879406518, 4879406517, 259491047, 4879406516, 1514005248, 259491046, 259491045, 259491044, 259491043, 259491042, 259491041, 259491040, 259491039, 259491038, 259491037, 259491036, 259491035, 259491034, 294078837, 9513493245, 259491032, 259491031, 259491030]}, {"type": "way", "id": 49137043, "nodes": [3857814957, 259234119, 1966561008, 259234118, 259234117, 434448545, 434448546, 259234116, 434448548, 7061767847, 259234115, 2489485957, 259234114, 7061767846, 259234113, 259234112, 1966561208, 259234111, 259234110, 259234109, 7061767845, 259234108, 259234107, 7061767843, 7061767844, 259234106, 7061767842, 259234370, 7061767841, 259234368, 7061767840, 7061767839, 259234364, 7061767838, 259234361]}, {"type": "way", "id": 49137065, "nodes": [4197258059, 259234867, 259234889, 7061683686, 259234888, 3859891303], "tags": {"maritime": "yes"}}, {"type": "way", "id": 49137091, "nodes": [259234887, 7061683685, 259235141, 7061613384, 623174539, 259235139, 623174926], "tags": {"maritime": "yes"}}, {"type": "way", "id": 49137092, "nodes": [259236412, 259236410, 7061613380, 259236409, 7061613379, 259238841, 7061613378, 259238840, 7542429716, 2101409049, 259238839, 259238910, 259238909, 7061613371, 8355502561, 259238908, 8355502560, 7061613370, 7542429710, 7061613369, 259238907, 7061613368, 8355502559, 7058794196, 8355502558, 7058794197, 7058794198, 11526148775, 332040843, 7058794199, 259238906, 11526102764, 8355502557, 259238904, 8355502556, 7542429706, 4470041713, 259238901, 7061613372, 259239121, 259239120, 1831897783, 259239119, 259239118, 259239117, 259239116, 7061613373, 259239115, 7061613374, 11169166773]}, {"type": "way", "id": 49137099, "nodes": [259242028, 259242027, 259242026, 259242025, 259242024, 259242023, 259242022, 259481949, 259481948, 259481947, 259481946, 259481945, 259481944, 51222563, 51222565, 259481942, 5141627059, 5141627058, 259481940, 259481939, 259481938, 259481937, 259481936, 259481935, 259481934, 259481933, 259481932, 259481931, 259481930, 259481929, 259481928, 259481927, 259481926, 259481925, 259481924, 259481923, 5141619927, 259481922, 259481921, 259481920, 259481919, 259481918, 1142137687, 259481917, 259481916, 259481915, 259481914, 3857519362]}, {"type": "way", "id": 49180457, "nodes": [1191796125, 1191729749, 1191664689, 1191805300, 1191687191, 1191787873, 1191830329, 1191698243, 1191721441, 1191681937, 1191757575, 259232039, 259232038]}, {"type": "way", "id": 97353133, "nodes": [1127625978, 1127625939, 1127625962, 1127625964, 1127625946, 1127625926, 1127625979, 1127625957, 1127625975, 1127625936, 1127625960, 1127625944, 1127625924, 1127625958, 1127625942, 1127625966, 1127625955, 1127625935, 1127625959, 994982380, 1127625949, 994982394, 994982397, 1129623673, 4345132045, 1127625978], "tags": {"name": "N\u00e4s By", "place": "hamlet"}}, {"type": "way", "id": 103224735, "nodes": [1191634029, 1191734961, 1191801377, 1191705873, 1191821916, 1191717035, 1191782307, 1191695779, 1191742626, 1191671513, 1191710379, 1191641079, 1191723557, 1191658056, 1191700047, 1191834054, 1191677429, 1191791661, 1191648570, 1191751649, 1191667034, 1191774467, 5201466224, 1330066587, 38458123, 5201466225, 1330066456, 38458124, 38458125, 1191798161, 1191704754, 1191761068, 1191684499, 1191781223, 1191694115, 1191740685, 11268620456, 1191670858, 1191709463, 1191639200, 1191689457, 1191807879, 1191782088, 1191695390, 1191742182, 1191671277, 1191710099, 1191640445, 1191690595, 1191809271, 1191791203], "tags": {"source": "L\u00e4nsstyrelsen i Stockholms l\u00e4n (gis.lst.se)"}}, {"type": "way", "id": 163620388, "nodes": [367976363, 367976364, 1752866152, 1752866144, 1752866146, 1752866155, 1752866198, 1752866203, 1752866208, 1752866212, 1752866222, 36191856]}, {"type": "way", "id": 165524747, "nodes": [1770651245, 36191855], "tags": {"highway": "unclassified"}}, {"type": "way", "id": 165524748, "nodes": [1770651239, 367976363], "tags": {"highway": "unclassified"}}, {"type": "way", "id": 165524750, "nodes": [36191855, 38433727, 36191856], "tags": {"highway": "unclassified"}}, {"type": "way", "id": 165524752, "nodes": [38434175, 38434176, 38434177, 38434178, 38434179, 1752866285, 1752866287, 1752866288, 38434180], "tags": {"highway": "unclassified"}}, {"type": "way", "id": 165524753, "nodes": [1770651245, 1770651256, 1770651260, 1770651264, 1770651275, 1770651273, 1770651271, 1770651268, 1770651267, 38434180]}, {"type": "way", "id": 165524757, "nodes": [38434175, 1770651243, 1770651241, 1770651239]}, {"type": "way", "id": 249783547, "nodes": [73567698, 2563405336, 2384902930, 2563405337, 35787479, 2563405339, 2563405340, 2563405341, 2563405343, 3042012249, 3042012246, 2563405351, 2563405349, 2563405352, 2563405350, 2563405348, 674510831, 2563405344, 73567698], "tags": {"landuse": "farmyard", "name": "Lill-Tumba", "place": "hamlet", "source": "bing"}}, {"type": "way", "id": 271954226, "nodes": [2768849908, 2768849928, 2768856339, 2768849907, 2768849921, 2768849939, 2768849931, 2768849911, 2768849904, 2768849915, 2768849912, 2768849916, 2768849909, 2768849953, 2768849941, 2768849947, 2768927465, 2768849905, 2768849918, 2768849936, 2768849901, 2768849898, 2768849910, 2768849908], "tags": {"landuse": "farmyard", "name": "V\u00e4ntholmen", "place": "hamlet"}}, {"type": "way", "id": 296584877, "nodes": [3003815646, 3003815651, 3003815642, 3003815432, 3003815478, 3003815417, 3003815429, 3003815635, 3003815646], "tags": {"landuse": "residential", "name": "F\u00e5gels\u00e5ngen", "place": "hamlet"}}, {"type": "way", "id": 307577117, "nodes": [259234353, 7061767836, 259234881, 259234880, 259234879, 259234878, 259234877, 259234876, 7061767835, 259234874], "tags": {"maritime": "yes", "source": "historical", "source_ref": "ekonomiska kartan"}}, {"type": "way", "id": 307580712, "nodes": [259494423, 259494424, 259494425, 259494426, 259494427, 259494428, 3859870796], "tags": {"maritime": "yes", "source": "historical", "source_ref": "ekonomiska kartan"}}, {"type": "way", "id": 315926189, "nodes": [3220498412, 402318220, 402318221, 402318222, 402318223, 3220498438, 3220498437, 3220498435, 3220498433, 3220498432, 3220498430, 3220498422, 3220498420, 3220498421, 3220498424, 3220498425, 3220498427, 3220498434, 3220547268, 6498859453, 3220498436, 3220498431, 3220498429, 3222273193, 3220498426, 3220498423, 3220498419, 1111812430, 1111812350, 1111812749, 1111812593, 1111811924, 1111811861, 1111812290, 3220498413, 3220498414, 3220498411, 3220498408, 3220498407, 3220498409, 3220498412], "tags": {"landuse": "residential", "name": "Troxhammar", "place": "village"}}, {"type": "way", "id": 377688129, "nodes": [259234872, 623174169], "tags": {"maritime": "yes", "source": "historical", "source_ref": "ekonomiska kartan"}}, {"type": "way", "id": 377688133, "nodes": [259234873, 7061683689, 259234872], "tags": {"maritime": "yes", "source": "historical", "source_ref": "ekonomiska kartan"}}, {"type": "way", "id": 378032490, "nodes": [1191635866, 1191792738, 1191678761, 1191811380, 1191691994, 1191642834, 1191672261, 1191745611, 1191663365, 1191727545, 1191706826], "tags": {"source": "L\u00e4nsstyrelsen i Stockholms l\u00e4n (gis.lst.se)"}}, {"type": "way", "id": 378032492, "nodes": [3859922225, 1191714125], "tags": {"source": "L\u00e4nsstyrelsen i Stockholms l\u00e4n (gis.lst.se)"}}, {"type": "way", "id": 378032493, "nodes": [3859936579, 3061803392, 3061748988, 260044598, 7061767854, 260044600, 259233342, 259233341, 259233340, 1191655692]}, {"type": "way", "id": 378032503, "nodes": [259232036, 494484620, 7991364326, 259232035]}, {"type": "way", "id": 378032506, "nodes": [259232035, 7987359500, 7061767858, 7061767857, 7061767856, 7061767855, 259233346]}, {"type": "way", "id": 382470322, "nodes": [259494466, 259494465, 259494464, 259494463, 259494462, 5777761545]}, {"type": "way", "id": 382470325, "nodes": [3857365362, 259242041, 259242040, 259242039, 259242038, 259242037, 259242021, 259242036, 259242035, 259242034, 259242033, 334076843, 259242032, 259242031, 259242030, 259242029, 3857367852]}, {"type": "way", "id": 382470334, "nodes": [259242049, 259242047, 259242046, 6654026348]}, {"type": "way", "id": 382474230, "nodes": [3856735846, 259239156, 259239155, 1966529755, 259242057, 259242056, 259242055, 259242054, 6654026349]}, {"type": "way", "id": 382474236, "nodes": [3856735847, 259242051]}, {"type": "way", "id": 382474242, "nodes": [259239158, 259239157, 3856735846]}, {"type": "way", "id": 382481371, "nodes": [259242051, 7061613377, 259242050, 259242049]}, {"type": "way", "id": 382489228, "nodes": [3856902577, 5777762610, 259494441]}, {"type": "way", "id": 382489229, "nodes": [259494441, 5777762555, 5777760918, 5777760563]}, {"type": "way", "id": 382496157, "nodes": [5777760635, 5777761259, 5777761343, 5777762060, 259494443, 3856902577]}, {"type": "way", "id": 382497448, "nodes": [259494448, 5777762262, 5777761536, 5777761909, 5777760635]}, {"type": "way", "id": 382531919, "nodes": [623174935, 259242043, 259242042, 3857365362]}, {"type": "way", "id": 382532229, "nodes": [3857367852, 259242028]}, {"type": "way", "id": 382534246, "nodes": [3857389498, 259494448]}, {"type": "way", "id": 382543865, "nodes": [259492844, 259492843, 370088893, 370055320, 370055317, 259494487, 393333883, 259494486, 259494485, 259494484, 259494483, 259494482, 3328528018, 259494481, 259494480, 259494479, 259494478, 259494477, 259494476, 259494475, 259494474, 259494473, 259494472, 259494471, 259494470]}, {"type": "way", "id": 382544892, "nodes": [3857519362, 4879407945, 259490563, 4879407944, 4879407946, 4879407943, 4879407941, 4879407942, 259490562, 259490561, 259490560, 259490559, 4879407940, 4879407938, 4879407939, 259491065, 4879407937, 259491064, 4879407936, 259491063, 4879407935, 4879407934, 259491062, 4879407933, 259491061, 259491060, 1521549388, 8155718202, 4879407932, 4879407929, 4879407931, 4879407930, 259491059, 1542061709, 259491058, 4879407928, 259491057, 259491056, 4879407927, 259491055, 259491054, 259491053, 4879407923, 4879407924, 4879407925, 4879407926, 4879407922, 4879407921, 4879406520, 259491052, 4879406519, 259491051, 259491050]}, {"type": "way", "id": 382576456, "nodes": [3814472713, 259233761, 259233759, 1191670188, 1191738711, 1191693087, 259233795, 7061767848, 259233794, 3857814957], "tags": {"source": "L\u00e4nsstyrelsen i Stockholms l\u00e4n (gis.lst.se)"}}, {"type": "way", "id": 382581231, "nodes": [259495500, 259495501, 259495502, 259495503, 7061777756, 259495504, 259495506, 259495507, 7061777755, 259495508, 7061777754, 259495509, 259495510, 259495511, 7061777753, 259495513, 7061777752, 259495514, 8268291709, 259495515, 10983112109, 10983112108, 10983112107, 10983112106, 259495956, 7061777751, 259495957, 7061777750, 7061777749, 7061777748, 259495958]}, {"type": "way", "id": 382581243, "nodes": [3859874799, 259495494, 259495493, 259495492, 259495491, 259495490, 259495489, 259495487, 259495486, 259495484, 259495483, 259495482, 259495481, 259495479, 259495478, 259495477, 7161313271, 259495476, 259495475, 259495474, 7161313272, 259495473, 7161313273, 259495472]}, {"type": "way", "id": 382581247, "nodes": [3859860796, 5777762445, 5777760554, 5777762412], "tags": {"maritime": "yes", "source": "historical", "source_ref": "ekonomiska kartan"}}, {"type": "way", "id": 382585720, "nodes": [6010203685, 247432386, 265058125, 247432387, 1726372177, 7061777738, 1726372223, 1726372091, 3687937225, 1726372306, 1726372217, 3687931265, 247432389, 1726372169, 3687931264, 7061777735, 7061777736]}, {"type": "way", "id": 382585721, "nodes": [4180973144, 2058669554, 2058669555, 2058669557, 2058669559, 2058669562, 2058669564, 2058669568, 2058669572, 259495965, 259495966, 259495967, 259495968, 259495969, 259495971]}, {"type": "way", "id": 382587458, "nodes": [259495971, 259495972, 259495973, 2290250144, 259495975, 259495976, 7061777747, 259495977, 259495978, 7061777746, 259495979]}, {"type": "way", "id": 382714930, "nodes": [3857511659, 259492847, 259492846, 280248782, 259492845, 392841003, 259492844]}, {"type": "way", "id": 382714933, "nodes": [1191736164, 259494458, 5777761261, 5777761637, 5777762580, 5777761487, 5777761856, 5777762329, 5777760586, 5777762282, 5777762756, 5777760618, 1191672706, 1191827010, 1191697573]}, {"type": "way", "id": 382717314, "nodes": [259494455, 5777760940, 259494454, 5777761519, 3856697173], "tags": {"boundary": "administrative"}}, {"type": "way", "id": 382766371, "nodes": [5777760563, 5777762418, 3859860796], "tags": {"maritime": "yes", "source": "historical", "source_ref": "ekonomiska kartan"}}, {"type": "way", "id": 382767574, "nodes": [259495472, 1497329924, 259495471, 259495470, 259494945, 1448876484, 259495517, 259495518, 259495519, 259494419, 7161313274, 259494420]}, {"type": "way", "id": 382767577, "nodes": [259494420, 259494421, 259494422, 259494423], "tags": {"maritime": "yes", "source": "historical", "source_ref": "ekonomiska kartan"}}, {"type": "way", "id": 382767578, "nodes": [259495500, 259495499, 2102145599, 282590557, 2667125374, 6660535757]}, {"type": "way", "id": 382767579, "nodes": [3859870790, 259495498, 259495497, 259495496, 259495495, 7161313270, 3859874799]}, {"type": "way", "id": 382767581, "nodes": [5777761562, 5777879884, 259494431, 5777761081, 259494432, 5777761453, 5777762412], "tags": {"maritime": "yes", "source": "historical", "source_ref": "ekonomiska kartan"}}, {"type": "way", "id": 382769092, "nodes": [623174926, 7061613383, 259235691, 259236141, 259236140, 259236139, 259236138, 259236137, 7061613382, 259236135, 259236134, 259236133, 259236132, 259236131, 7061613381, 259236412]}, {"type": "way", "id": 382770489, "nodes": [259234361, 259234359, 259234357, 259234355, 259234353]}, {"type": "way", "id": 382772064, "nodes": [3859891304, 259234887], "tags": {"maritime": "yes"}}, {"type": "way", "id": 382772065, "nodes": [3859891303, 3859891304], "tags": {"maritime": "yes"}}, {"type": "way", "id": 382773308, "nodes": [259231921, 7061767862, 1191652402, 7061767861, 1191707693, 1191669863]}, {"type": "way", "id": 382773309, "nodes": [1191706826, 1191735846, 1191635592, 259233485, 1191756272, 3859930670], "tags": {"source": "L\u00e4nsstyrelsen i Stockholms l\u00e4n (gis.lst.se)"}}, {"type": "way", "id": 382774128, "nodes": [3859930670, 3859922225], "tags": {"source": "L\u00e4nsstyrelsen i Stockholms l\u00e4n (gis.lst.se)"}}, {"type": "way", "id": 382774981, "nodes": [1191627891, 7061767853, 6939327079, 7061767852, 259233337]}, {"type": "way", "id": 382774984, "nodes": [1191669863, 1191812395, 1191796125]}, {"type": "way", "id": 382774987, "nodes": [259233346, 259233345, 3859936579]}, {"type": "way", "id": 382774989, "nodes": [1191670907, 1191680976, 1191795160, 259233334]}, {"type": "way", "id": 382806280, "nodes": [7061767884, 259496339, 259496340, 259496341, 7061767880, 7061767879, 259496631, 7061767878, 259496632, 259496633, 259496634, 7061767877, 259496635, 9366953455, 259496636, 259496637]}, {"type": "way", "id": 383212156, "nodes": [3857905158, 7061767882, 259496126, 4010787723, 259496250, 3864279557]}, {"type": "way", "id": 383212585, "nodes": [259496637, 7061767876, 259496638]}, {"type": "way", "id": 383387365, "nodes": [259496746, 259234244, 3866407562, 259234243, 259234242, 259230739, 259230738, 259230737, 259230736]}, {"type": "way", "id": 383387368, "nodes": [259496638, 7061767875, 259496640, 7061767874, 259496641, 259496642, 259496643, 259496644, 259496645, 259496646, 7061767873, 259496647, 259496648, 259496649, 7061767872, 259496650, 259496746]}, {"type": "way", "id": 417568112, "nodes": [259495958, 4180973498]}, {"type": "way", "id": 417568113, "nodes": [4180973498, 2058669553, 4180973144]}, {"type": "way", "id": 419718863, "nodes": [4197258051, 259234868, 4197258059], "tags": {"maritime": "yes"}}, {"type": "way", "id": 419718865, "nodes": [259234874, 7061767834, 7061767833, 259234873], "tags": {"maritime": "yes", "source": "historical", "source_ref": "ekonomiska kartan"}}, {"type": "way", "id": 419718869, "nodes": [623174169, 259234870, 259234869, 4197258051], "tags": {"maritime": "yes"}}, {"type": "way", "id": 708137594, "nodes": [6654026348, 259242045, 259242044, 623174935]}, {"type": "way", "id": 708137595, "nodes": [6654026349, 259242053, 259242052, 3856735847]}, {"type": "way", "id": 708806621, "nodes": [6660535757, 3859870790]}, {"type": "way", "id": 766556959, "nodes": [1191697573, 259494456, 259494455]}, {"type": "way", "id": 766556960, "nodes": [5777761892, 1191736164]}, {"type": "way", "id": 766556963, "nodes": [5777761545, 5777761892]}, {"type": "way", "id": 766556964, "nodes": [3859870796, 259494429, 259494430, 5777761562], "tags": {"maritime": "yes", "source": "historical", "source_ref": "ekonomiska kartan"}}, {"type": "way", "id": 766556965, "nodes": [259494468, 1192197381]}, {"type": "way", "id": 766556968, "nodes": [1192197381, 1192200052, 1192193290, 1192196081, 1192198023, 1192200852, 1192194239, 1192196948, 1192198867, 1192193034, 1192195079, 1192197768, 1192199779, 1192193963, 1192195840, 1192198665, 1192200598, 1192194811, 1192196694, 1192199530, 1192201531, 1192195650, 1192197501, 1192200335, 1192193683, 1192196452, 1192198426, 1192201181, 1192197283, 1192199254, 1192193421, 1192195401, 259494466]}, {"type": "way", "id": 766556970, "nodes": [259494470, 1192199906, 1192195934, 1192197876, 1192200699, 1192194074, 1192196817, 1192198769, 1192201674, 1192194930, 1192197609, 1192199648, 1192193817, 1192195723, 1192198534, 259494468]}, {"type": "way", "id": 766631155, "nodes": [1191791203, 1191646690, 259491030], "tags": {"source": "L\u00e4nsstyrelsen i Stockholms l\u00e4n (gis.lst.se)"}}, {"type": "way", "id": 766631158, "nodes": [1191634029, 1191777097, 1191668312, 1191809915, 1191691070, 1191792851, 1191678846, 1191626422, 1191700854, 1191661080, 1191725209, 1191741360], "tags": {"source": "L\u00e4nsstyrelsen i Stockholms l\u00e4n (gis.lst.se)"}}, {"type": "way", "id": 766631159, "nodes": [3857519370, 7098519749]}, {"type": "way", "id": 766631160, "nodes": [1191741360, 7098519739, 7098519740, 7098519741, 7098519742, 7098519743, 7098519744, 7098519745, 7098519746, 7098519747, 7098519748, 3857519370]}, {"type": "way", "id": 766772495, "nodes": [259232038, 7061767860, 8179072471, 8179072477, 259232037, 7061767859, 259232036]}, {"type": "way", "id": 766772496, "nodes": [1191714125, 1191767821]}, {"type": "way", "id": 766772497, "nodes": [259233334, 1191669281, 1191635866]}, {"type": "way", "id": 766772498, "nodes": [1191666068, 1191746048]}, {"type": "way", "id": 766772499, "nodes": [1191767821, 1191630420, 1191666068], "tags": {"source": "L\u00e4nsstyrelsen i Stockholms l\u00e4n (gis.lst.se)"}}, {"type": "way", "id": 766772500, "nodes": [1191671061, 1191672403, 1191692242]}, {"type": "way", "id": 766772501, "nodes": [1191746048, 1191671061], "tags": {"source": "L\u00e4nsstyrelsen i Stockholms l\u00e4n (gis.lst.se)"}}, {"type": "way", "id": 766772503, "nodes": [1191768344, 1191628127, 1191728326, 1191795400, 1191702088, 1191811837, 1191711962, 1191692242], "tags": {"source": "L\u00e4nsstyrelsen i Stockholms l\u00e4n (gis.lst.se)"}}, {"type": "way", "id": 766772504, "nodes": [3814472713, 1191698051, 1191829152, 1191673821, 1191768344], "tags": {"source": "L\u00e4nsstyrelsen i Stockholms l\u00e4n (gis.lst.se)"}}, {"type": "way", "id": 766772505, "nodes": [1191655692, 1191740790, 3814480595, 1191639334, 1191627891]}, {"type": "way", "id": 766772506, "nodes": [259233337, 1191670907]}, {"type": "way", "id": 766785125, "nodes": [3864279557, 7061767884]}, {"type": "way", "id": 766785127, "nodes": [259495979, 6325738479, 259495980, 7061777742, 7061777740, 259495982, 6010203685]}, {"type": "way", "id": 766785128, "nodes": [7061777736, 3857905158]}, {"type": "way", "id": 1205156366, "nodes": [11169166773, 259239114, 259239159, 7061613375, 259239158]}, {"type": "relation", "id": 398021, "members": [{"type": "node", "ref": 25929985, "role": "admin_centre"}, {"type": "way", "ref": 766556970, "role": "outer"}, {"type": "way", "ref": 766556965, "role": "outer"}, {"type": "way", "ref": 766556968, "role": "outer"}, {"type": "way", "ref": 382470322, "role": "outer"}, {"type": "way", "ref": 766556963, "role": "outer"}, {"type": "way", "ref": 766556960, "role": "outer"}, {"type": "way", "ref": 382714933, "role": "outer"}, {"type": "way", "ref": 766556959, "role": "outer"}, {"type": "way", "ref": 382717314, "role": "outer"}, {"type": "way", "ref": 49135178, "role": "outer"}, {"type": "way", "ref": 382534246, "role": "outer"}, {"type": "way", "ref": 382497448, "role": "outer"}, {"type": "way", "ref": 382496157, "role": "outer"}, {"type": "way", "ref": 382489228, "role": "outer"}, {"type": "way", "ref": 382489229, "role": "outer"}, {"type": "way", "ref": 382766371, "role": "outer"}, {"type": "way", "ref": 382581247, "role": "outer"}, {"type": "way", "ref": 382767581, "role": "outer"}, {"type": "way", "ref": 766556964, "role": "outer"}, {"type": "way", "ref": 307580712, "role": "outer"}, {"type": "way", "ref": 382767577, "role": "outer"}, {"type": "way", "ref": 382767574, "role": "outer"}, {"type": "way", "ref": 382581243, "role": "outer"}, {"type": "way", "ref": 382767579, "role": "outer"}, {"type": "way", "ref": 708806621, "role": "outer"}, {"type": "way", "ref": 382767578, "role": "outer"}, {"type": "way", "ref": 382581231, "role": "outer"}, {"type": "way", "ref": 417568112, "role": "outer"}, {"type": "way", "ref": 417568113, "role": "outer"}, {"type": "way", "ref": 382585721, "role": "outer"}, {"type": "way", "ref": 382587458, "role": "outer"}, {"type": "way", "ref": 766785127, "role": "outer"}, {"type": "way", "ref": 382585720, "role": "outer"}, {"type": "way", "ref": 766785128, "role": "outer"}, {"type": "way", "ref": 383212156, "role": "outer"}, {"type": "way", "ref": 766785125, "role": "outer"}, {"type": "way", "ref": 382806280, "role": "outer"}, {"type": "way", "ref": 383212585, "role": "outer"}, {"type": "way", "ref": 383387368, "role": "outer"}, {"type": "way", "ref": 383387365, "role": "outer"}, {"type": "way", "ref": 24340681, "role": "outer"}, {"type": "way", "ref": 382773308, "role": "outer"}, {"type": "way", "ref": 382774984, "role": "outer"}, {"type": "way", "ref": 49180457, "role": "outer"}, {"type": "way", "ref": 766772495, "role": "outer"}, {"type": "way", "ref": 378032503, "role": "outer"}, {"type": "way", "ref": 378032506, "role": "outer"}, {"type": "way", "ref": 382774987, "role": "outer"}, {"type": "way", "ref": 378032493, "role": "outer"}, {"type": "way", "ref": 766772505, "role": "outer"}, {"type": "way", "ref": 382774981, "role": "outer"}, {"type": "way", "ref": 766772506, "role": "outer"}, {"type": "way", "ref": 382774989, "role": "outer"}, {"type": "way", "ref": 766772497, "role": "outer"}, {"type": "way", "ref": 378032490, "role": "outer"}, {"type": "way", "ref": 382773309, "role": "outer"}, {"type": "way", "ref": 382774128, "role": "outer"}, {"type": "way", "ref": 378032492, "role": "outer"}, {"type": "way", "ref": 766772496, "role": "outer"}, {"type": "way", "ref": 766772499, "role": "outer"}, {"type": "way", "ref": 766772498, "role": "outer"}, {"type": "way", "ref": 766772501, "role": "outer"}, {"type": "way", "ref": 766772500, "role": "outer"}, {"type": "way", "ref": 766772503, "role": "outer"}, {"type": "way", "ref": 766772504, "role": "outer"}, {"type": "way", "ref": 382576456, "role": "outer"}, {"type": "way", "ref": 49137043, "role": "outer"}, {"type": "way", "ref": 382770489, "role": "outer"}, {"type": "way", "ref": 307577117, "role": "outer"}, {"type": "way", "ref": 419718865, "role": "outer"}, {"type": "way", "ref": 377688133, "role": "outer"}, {"type": "way", "ref": 377688129, "role": "outer"}, {"type": "way", "ref": 419718869, "role": "outer"}, {"type": "way", "ref": 419718863, "role": "outer"}, {"type": "way", "ref": 49137065, "role": "outer"}, {"type": "way", "ref": 382772065, "role": "outer"}, {"type": "way", "ref": 382772064, "role": "outer"}, {"type": "way", "ref": 49137091, "role": "outer"}, {"type": "way", "ref": 382769092, "role": "outer"}, {"type": "way", "ref": 49137092, "role": "outer"}, {"type": "way", "ref": 1205156366, "role": "outer"}, {"type": "way", "ref": 382474242, "role": "outer"}, {"type": "way", "ref": 382474230, "role": "outer"}, {"type": "way", "ref": 708137595, "role": "outer"}, {"type": "way", "ref": 382474236, "role": "outer"}, {"type": "way", "ref": 382481371, "role": "outer"}, {"type": "way", "ref": 382470334, "role": "outer"}, {"type": "way", "ref": 708137594, "role": "outer"}, {"type": "way", "ref": 382531919, "role": "outer"}, {"type": "way", "ref": 382470325, "role": "outer"}, {"type": "way", "ref": 382532229, "role": "outer"}, {"type": "way", "ref": 49137099, "role": "outer"}, {"type": "way", "ref": 382544892, "role": "outer"}, {"type": "way", "ref": 49135270, "role": "outer"}, {"type": "way", "ref": 766631155, "role": "outer"}, {"type": "way", "ref": 103224735, "role": "outer"}, {"type": "way", "ref": 766631158, "role": "outer"}, {"type": "way", "ref": 766631160, "role": "outer"}, {"type": "way", "ref": 766631159, "role": "outer"}, {"type": "way", "ref": 49135180, "role": "outer"}, {"type": "way", "ref": 382714930, "role": "outer"}, {"type": "way", "ref": 382543865, "role": "outer"}], "tags": {"KNKOD": "0180", "admin_level": "7", "boundary": "administrative", "name": "Stockholms kommun", "name:eo": "Stokholmo", "name:es": "Estocolmo", "name:fi": "Tukholman kunta", "name:gl": "Estocolmo", "name:ru": "\u0421\u0442\u043e\u043a\u0433\u043e\u043b\u044c\u043c", "name:sk": "\u0160tokholm", "name:sv": "Stockholms kommun", "official_name": "Stockholms kommun", "place": "city", "population": "984685", "population:date": "2022-11-01", "ref": "0180", "ref:scb": "0180", "short_name": "Stockholm", "source:population": "SCB 2022", "type": "boundary", "wikidata": "Q506250", "wikipedia": "sv:Stockholms kommun"}}, {"type": "relation", "id": 2205373, "members": [{"type": "way", "ref": 165524757, "role": "outer"}, {"type": "way", "ref": 165524748, "role": "outer"}, {"type": "way", "ref": 163620388, "role": "outer"}, {"type": "way", "ref": 165524750, "role": "outer"}, {"type": "way", "ref": 165524747, "role": "outer"}, {"type": "way", "ref": 165524753, "role": "outer"}, {"type": "way", "ref": 165524752, "role": "outer"}], "tags": {"landuse": "residential", "name": "Risbro", "place": "hamlet", "type": "multipolygon"}}]}