{"version": 0.6, "generator": "Overpass API 0.7.61.5 4133829e", "osm3s": {"timestamp_osm_base": "2024-03-06T11:03:20Z", "copyright": "The data included in this document is from www.openstreetmap.org. The data is made available under ODbL."}, "elements": [{"type": "node", "id": 817149046, "lat": -2.5460635, "lon": 36.8095855}, {"type": "node", "id": 817149061, "lat": -2.5460133, "lon": 36.8096718}, {"type": "node", "id": 817149063, "lat": -2.5461105, "lon": 36.8096106}, {"type": "node", "id": 817149078, "lat": -2.5460635, "lon": 36.8097063}, {"type": "node", "id": 817157433, "lat": -2.5448381, "lon": 36.7852711}, {"type": "node", "id": 817157448, "lat": -2.5438608, "lon": 36.7856189}, {"type": "node", "id": 817157456, "lat": -2.544396, "lon": 36.7859621}, {"type": "node", "id": 817157457, "lat": -2.5443029, "lon": 36.784928}, {"type": "node", "id": 817163357, "lat": -2.3884051, "lon": 36.7981192}, {"type": "node", "id": 817163362, "lat": -2.5012327, "lon": 36.7232785}, {"type": "node", "id": 817163368, "lat": -2.3885732, "lon": 36.7979801}, {"type": "node", "id": 817163373, "lat": -2.5042406, "lon": 36.7243422}, {"type": "node", "id": 817163378, "lat": -2.3886088, "lon": 36.7981192}, {"type": "node", "id": 817163408, "lat": -2.5014891, "lon": 36.7220238}, {"type": "node", "id": 817163412, "lat": -2.3884148, "lon": 36.797951}, {"type": "node", "id": 817163413, "lat": -2.5043873, "lon": 36.722985}, {"type": "node", "id": 817165201, "lat": -2.4114732, "lon": 36.8679868}, {"type": "node", "id": 817165204, "lat": -2.4096566, "lon": 36.8660618}, {"type": "node", "id": 817165208, "lat": -2.4096566, "lon": 36.868041}, {"type": "node", "id": 817165210, "lat": -2.4114732, "lon": 36.8660075}, {"type": "node", "id": 817200437, "lat": -2.4336809, "lon": 36.8438378}, {"type": "node", "id": 817200439, "lat": -2.4336809, "lon": 36.8437292}, {"type": "node", "id": 817200442, "lat": -2.433576, "lon": 36.8438341}, {"type": "node", "id": 817200444, "lat": -2.4335723, "lon": 36.8437147}, {"type": "node", "id": 817204215, "lat": -2.4469782, "lon": 36.8109292}, {"type": "node", "id": 817204216, "lat": -2.4470635, "lon": 36.8108237}, {"type": "node", "id": 817204218, "lat": -2.4470703, "lon": 36.8109202}, {"type": "node", "id": 817204219, "lat": -2.446976, "lon": 36.8108237}, {"type": "node", "id": 817206294, "lat": -2.4762184, "lon": 36.8329827}, {"type": "node", "id": 817206295, "lat": -2.4761368, "lon": 36.8328926}, {"type": "node", "id": 817206296, "lat": -2.4761368, "lon": 36.8329812}, {"type": "node", "id": 817206298, "lat": -2.4762161, "lon": 36.8328949}, {"type": "node", "id": 1243465206, "lat": -2.5267091, "lon": 36.8284287, "tags": {"addr:city": "Namanga", "addr:street": "Athi River-Namanga Road", "alt_name": "Inaaro Lukuny Primay School", "amenity": "school", "name": "Ebirika primary school"}}, {"type": "node", "id": 1243472816, "lat": -2.3885021, "lon": 36.7980409, "tags": {"alt_name": "Butterfly school", "amenity": "school", "name": "Enoosampurumpurr"}}, {"type": "node", "id": 6232984101, "lat": -2.5442137, "lon": 36.7902681, "tags": {"addr:city": "Namanga", "addr:street": "Athi River-Namanga  Road", "amenity": "school", "name": "Namanga Islamic Center Primary School"}}, {"type": "node", "id": 6232984102, "lat": -2.5431684, "lon": 36.7922371, "tags": {"addr:city": "Namanga", "addr:street": "Athi River-Namanga  Road", "amenity": "school", "name": "Namanga Mountainview Primary School"}}, {"type": "node", "id": 6232984120, "lat": -2.5383077, "lon": 36.8006655, "tags": {"addr:city": "Namanga", "addr:street": "Athi River-Namanga Road", "amenity": "school", "name": "Rockyn Hills Academy Primary School"}}, {"type": "node", "id": 6232984419, "lat": -2.5253871, "lon": 36.8271825}, {"type": "node", "id": 6232984420, "lat": -2.5262892, "lon": 36.8259847}, {"type": "node", "id": 6232984421, "lat": -2.5272979, "lon": 36.8267561}, {"type": "node", "id": 6232984422, "lat": -2.5267967, "lon": 36.8277343}, {"type": "node", "id": 6232984423, "lat": -2.5260318, "lon": 36.8275209}, {"type": "node", "id": 10837136424, "lat": -2.5408819, "lon": 36.7242699, "tags": {"addr:city": "Arusha", "addr:district": "Longido District Council", "addr:subward": "Eorendeke", "addr:ward": "Kimokouwa", "amenity": "school", "isced:level": "1", "name": "Shule ya Msingi Skarda", "name:en": "Skarda Primary School", "name:sw": "Shule ya Msingi Skarda", "operator:type": "government", "source": "WFP Primary Schools Feeding Program Survey, 2023 by OMDTZ"}}, {"type": "node", "id": 10837136426, "lat": -2.5019929, "lon": 36.5792244, "tags": {"addr:city": "Arusha", "addr:district": "Longido District Council", "addr:subward": "Sinonik", "addr:ward": "Engarenaibor", "amenity": "school", "isced:level": "1", "name": "Shule ya Msingi Sinonik", "name:en": "Sinonik Primary School", "name:sw": "Shule ya Msingi Sinonik", "operator:type": "government", "source": "WFP Primary Schools Feeding Program Survey, 2023 by OMDTZ"}}, {"type": "node", "id": 10837136428, "lat": -2.5582937, "lon": 36.7791887, "tags": {"addr:city": "Arusha", "addr:district": "Longido District Council", "addr:subward": "Eorendeke", "addr:ward": "Kimokouwa", "amenity": "school", "isced:level": "1", "name": "Shule ya Msingi Orendeke", "name:en": "Orendeke Primary School", "name:sw": "Shule ya Msingi Orendeke", "operator:type": "government", "source": "WFP Primary Schools Feeding Program Survey, 2023 by OMDTZ"}}, {"type": "node", "id": 10837136429, "lat": -2.7314619, "lon": 36.6802207, "tags": {"addr:city": "Arusha", "addr:district": "Longido District Council", "addr:subward": "Kijiji Cha Orbomba", "addr:ward": "Orbomba", "amenity": "school", "isced:level": "1", "name": "Shule ya Msingi Orbomba", "name:en": "Orbomba Primary School", "name:sw": "Shule ya Msingi Orbomba", "operator:type": "government", "source": "WFP Primary Schools Feeding Program Survey, 2023 by OMDTZ"}}, {"type": "node", "id": 10837136432, "lat": -2.6944202, "lon": 36.6564366, "tags": {"addr:city": "Arusha", "addr:district": "Longido District Council", "addr:subward": "Oldorko", "addr:ward": "Orbomba", "amenity": "school", "isced:level": "1", "name": "Shule ya Msingi Oldoko", "name:en": "Oldoko Primary School", "name:sw": "Shule ya Msingi Oldoko", "operator:type": "government", "source": "WFP Primary Schools Feeding Program Survey, 2023 by OMDTZ"}}, {"type": "node", "id": 10837136437, "lat": -2.5520746, "lon": 36.7877365, "tags": {"addr:city": "Arusha", "addr:district": "Longido District Council", "addr:subward": "Namanga", "addr:ward": "Namanga", "amenity": "school", "isced:level": "1", "name": "Shule ya Msingi Namanga", "name:en": "Namanga Primary School", "name:sw": "Shule ya Msingi Namanga", "operator:type": "government", "source": "WFP Primary Schools Feeding Program Survey, 2023 by OMDTZ"}}, {"type": "node", "id": 10837136447, "lat": -2.7253856, "lon": 36.699574, "tags": {"addr:city": "Arusha", "addr:district": "Longido District Council", "addr:subward": "Longido", "addr:ward": "Longido", "amenity": "school", "isced:level": "1", "name": "Shule ya Msingi Longido", "name:en": "Longido Primary School", "name:sw": "Shule ya Msingi Longido", "operator:type": "government", "source": "WFP Primary Schools Feeding Program Survey, 2023 by OMDTZ"}}, {"type": "node", "id": 10837136454, "lat": -2.6402395, "lon": 36.7018146, "tags": {"addr:city": "Arusha", "addr:district": "Longido District Council", "addr:subward": "Kimokouwa", "addr:ward": "Kimokouwa", "amenity": "school", "isced:level": "1", "name": "Shule ya Msingi Kimokouwa", "name:en": "Kimokouwa Primary School", "name:sw": "Shule ya Msingi Kimokouwa", "operator:type": "government", "source": "WFP Primary Schools Feeding Program Survey, 2023 by OMDTZ"}}, {"type": "node", "id": 10837136458, "lat": -2.5987123, "lon": 36.8204655, "tags": {"addr:city": "Arusha", "addr:district": "Longido District Council", "addr:subward": "Eorendeke", "addr:ward": "Kimokouwa", "amenity": "school", "isced:level": "1", "name": "Shule ya Msingi Jeonding Imatian", "name:en": "Jeonding Imatian Primary School", "name:sw": "Shule ya Msingi Jeonding Imatian", "operator:type": "government", "source": "WFP Primary Schools Feeding Program Survey, 2023 by OMDTZ"}}, {"type": "node", "id": 10837136474, "lat": -2.5595535, "lon": 36.7925331, "tags": {"addr:city": "Arusha", "addr:district": "Longido District Council", "addr:subward": "Buguruni", "addr:ward": "Namanga", "amenity": "school", "isced:level": "1", "name": "Shule ya Msingi Buguruni", "name:en": "Buguruni Primary School", "name:sw": "Shule ya Msingi Buguruni", "operator:type": "government", "source": "WFP Primary Schools Feeding Program Survey, 2023 by OMDTZ"}}, {"type": "way", "id": 67628648, "nodes": [817149046, 817149061, 817149078, 817149063, 817149046], "tags": {"amenity": "school", "name": "AIC primary school"}}, {"type": "way", "id": 67628786, "nodes": [817157448, 817157456, 817157433, 817157457, 817157448], "tags": {"amenity": "school", "name": "Namanga primary school"}}, {"type": "way", "id": 67628835, "nodes": [817163408, 817163413, 817163373, 817163362, 817163408], "tags": {"amenity": "school", "name": "Olmanie"}}, {"type": "way", "id": 67628837, "nodes": [817163412, 817163357, 817163378, 817163368, 817163412], "tags": {"amenity": "school", "name": "Enoosampurrumpurr primary school"}}, {"type": "way", "id": 67628862, "nodes": [817165204, 817165208, 817165201, 817165210, 817165204], "tags": {"amenity": "school", "name": "Noosikitok"}}, {"type": "way", "id": 67630424, "nodes": [817200444, 817200442, 817200437, 817200439, 817200444], "tags": {"amenity": "school", "name": "Engaboli"}}, {"type": "way", "id": 67631442, "nodes": [817204219, 817204215, 817204218, 817204216, 817204219], "tags": {"amenity": "school", "name": "Noontoto"}}, {"type": "way", "id": 67632119, "nodes": [817206295, 817206296, 817206294, 817206298, 817206295], "tags": {"amenity": "school", "name": "Inkati"}}, {"type": "way", "id": 665851892, "nodes": [6232984419, 6232984420, 6232984421, 6232984422, 6232984423, 6232984419], "tags": {"addr:city": "Namanga", "addr:street": "Athi River-Namanga Road", "amenity": "school", "name": "Namanga Border Secondary School"}}]}