{"version": 0.6, "generator": "Overpass API 0.7.61.5 4133829e", "osm3s": {"timestamp_osm_base": "2024-03-05T13:52:05Z", "copyright": "The data included in this document is from www.openstreetmap.org. The data is made available under ODbL."}, "elements": [{"type": "node", "id": 4382432306, "lat": 33.0296103, "lon": 62.1406298, "tags": {"name": "\u062f\u0647\u0627\u0646\u0647", "name:en": "Dahaneh;Dahana;Dahanah", "name:ps": "\u062f\u0647\u0627\u0646\u0647", "name:ru": "Dakhana", "place": "village", "source:name": "GNS"}}, {"type": "node", "id": 4405961086, "lat": 32.839626, "lon": 61.985546, "tags": {"alt_name": "Jijah;Jija;Jijeh", "name": "\u062c\u06cc\u062c\u0647", "name:en": "Jija Sarai", "name:ps": "\u062c\u06cc\u062c\u0647", "place": "village", "source:name": "GNS"}}, {"type": "node", "id": 4405961087, "lat": 32.849983, "lon": 61.956638, "tags": {"alt_name": "Najo", "name": "\u0646\u0627\u062c\u0648", "name:en": "Naju", "name:ps": "\u0646\u0627\u062c\u0648", "place": "village", "source:name": "GNS"}}, {"type": "node", "id": 4406702091, "lat": 32.758698, "lon": 61.653969, "tags": {"alt_name": "\u0634\u06cc\u062e \u0622\u0628\u0627\u062f;Anardarra;Anar Darrah;Anardara;Anar Darreh;Anar Darah;Saykh Abad", "name": "\u0627\u0646\u0627\u0631 \u062f\u0631\u0647", "name:en": "Anar Darah", "name:fa": "\u0627\u0646\u0627\u0631\u062f\u0631\u0647", "name:ps": "\u0627\u0646\u0627\u0631 \u062f\u0631\u0647", "place": "town", "source:name": "GNS", "wikidata": "Q21764905"}}]}