{"version": 0.6, "generator": "Overpass API 0.7.61.5 4133829e", "osm3s": {"timestamp_osm_base": "2024-03-06T11:04:23Z", "copyright": "The data included in this document is from www.openstreetmap.org. The data is made available under ODbL."}, "elements": [{"type": "node", "id": 2438804405, "lat": 2.4114045, "lon": 34.3979176}, {"type": "node", "id": 2438804407, "lat": 2.4116096, "lon": 34.3964949}, {"type": "node", "id": 2438804409, "lat": 2.4117228, "lon": 34.3955747}, {"type": "node", "id": 2438804411, "lat": 2.4099618, "lon": 34.395695}, {"type": "node", "id": 2438804413, "lat": 2.4102376, "lon": 34.3978185}, {"type": "node", "id": 3999054809, "lat": 2.446662, "lon": 34.6071298, "tags": {"addr:city": "Simon", "addr:county": "Matheniko", "addr:district": "Moroto", "addr:parish": "Acherer", "addr:subcounty": "Nadunget", "amenity": "school", "isced:level": "1", "name": "Acheper Primary School", "source": "www.ubos.org", "source:date": "2010..2014", "wikidata": "Q22681088"}}, {"type": "node", "id": 3999054810, "lat": 2.3506797, "lon": 34.5199799, "tags": {"addr:city": "Lobeei", "addr:county": "Bokora", "addr:district": "Napak", "addr:parish": "Kalokengel West", "addr:subcounty": "Lotome", "amenity": "school", "isced:level": "1", "name": "Kalokengel Primary School", "source": "www.ubos.org", "source:date": "2010..2014", "wikidata": "Q22681089"}}, {"type": "node", "id": 3999054811, "lat": 2.3601384, "lon": 34.5886513, "tags": {"addr:city": "Naapong", "addr:county": "Pian", "addr:district": "Nakapiripirit", "addr:parish": "Kamaturu", "addr:subcounty": "Lorengedwat", "amenity": "school", "isced:level": "1", "name": "Kamaturu Primary School", "operator:type": "public", "source": "www.ubos.org", "source:date": "2010..2014", "wikidata": "Q22681090"}}, {"type": "node", "id": 3999054812, "lat": 2.4389179, "lon": 34.4856435, "tags": {"addr:city": "Kangole Complex", "addr:county": "Bokora", "addr:district": "Napak", "addr:parish": "Lokoreto", "addr:subcounty": "Ngoleriet", "amenity": "school", "isced:level": "1", "name": "Kangole Boys Primary School", "source": "www.ubos.org", "source:date": "2010..2014", "wikidata": "Q22681091"}}, {"type": "node", "id": 3999054813, "lat": 2.4386625, "lon": 34.4872483, "tags": {"addr:city": "Kangole Complex", "addr:county": "Bokora", "addr:district": "Napak", "addr:parish": "Lokoreto", "addr:subcounty": "Ngoleriet", "amenity": "school", "isced:level": "2;3;4", "name": "Kangole Girls Senior Secondary School", "source": "www.ubos.org", "source:date": "2010..2014", "wikidata": "Q22681084"}}, {"type": "node", "id": 3999054815, "lat": 2.4525185, "lon": 34.471833, "tags": {"addr:city": "Kangole Middle", "addr:county": "Bokora", "addr:district": "Napak", "addr:parish": "Nagule-angolol", "addr:subcounty": "Ngoleriet", "amenity": "school", "isced:level": "1", "name": "Kolotom Primary School", "source": "www.ubos.org", "source:date": "2010..2014", "wikidata": "Q22681086"}}, {"type": "node", "id": 3999054816, "lat": 2.4424627, "lon": 34.4609872, "tags": {"addr:city": "Lokitela", "addr:county": "Bokora", "addr:district": "Napak", "addr:parish": "Lokupoi", "addr:subcounty": "Matany", "amenity": "school", "isced:level": "1", "name": "Lokupoi Primary School", "source": "www.ubos.org", "source:date": "2010..2014", "wikidata": "Q22681087"}}, {"type": "node", "id": 3999054817, "lat": 2.3856041, "lon": 34.5074584, "tags": {"addr:city": "Naoyaminit", "addr:county": "Bokora", "addr:district": "Napak", "addr:parish": "Lomuno", "addr:subcounty": "Lotome", "amenity": "school", "isced:level": "1", "name": "Lomuno Primary School", "operator:type": "private", "source": "www.ubos.org", "source:date": "2010..2014", "wikidata": "Q22681101"}}, {"type": "node", "id": 3999054818, "lat": 2.3486131, "lon": 34.5892795, "tags": {"addr:city": "Longoleyek", "addr:county": "Pian", "addr:district": "Nakapiripirit", "addr:parish": "Nathinyonoit", "addr:subcounty": "Lorengedwat", "amenity": "school", "name": "Longoleyek Learning Centre", "operator:type": "private", "source": "www.ubos.org", "source:date": "2010..2014", "wikidata": "Q22681102"}}, {"type": "node", "id": 3999054819, "lat": 2.3468763, "lon": 34.5802355, "tags": {"addr:city": "Lokwamoru", "addr:county": "Pian", "addr:district": "Nakapiripirit", "addr:parish": "Narisae", "addr:subcounty": "Lorengedwat", "amenity": "school", "isced:level": "1", "name": "Lorengedwat Primary School", "source": "www.ubos.org", "source:date": "2010..2014", "wikidata": "Q22681103"}}, {"type": "node", "id": 3999054820, "lat": 2.3596677, "lon": 34.5368628, "tags": {"addr:city": "Naitakosowan", "addr:county": "Bokora", "addr:district": "Napak", "addr:parish": "Moruongor", "addr:subcounty": "Lotome", "amenity": "school", "isced:level": "1", "name": "Lotome Boys Primary School", "source": "www.ubos.org", "source:date": "2010..2014", "wikidata": "Q22681104"}}, {"type": "node", "id": 3999054821, "lat": 2.3583956, "lon": 34.5415395, "tags": {"addr:city": "Naooi", "addr:county": "Bokora", "addr:district": "Napak", "addr:parish": "Moruongor", "addr:subcounty": "Lotome", "amenity": "school", "name": "Lotome Girls Primary School", "source": "www.ubos.org", "source:date": "2010..2014"}}, {"type": "node", "id": 3999054822, "lat": 2.4171077, "lon": 34.4657528, "tags": {"addr:city": "Kogete", "addr:county": "Bokora", "addr:district": "Napak", "addr:parish": "Morulinga", "addr:subcounty": "Matany", "amenity": "school", "name": "Morulinga Primary School", "source": "www.ubos.org", "source:date": "2010..2014"}}, {"type": "node", "id": 3999054823, "lat": 2.3809734, "lon": 34.5851327, "tags": {"addr:city": "Lorukumo", "addr:county": "Pian", "addr:district": "Nakapiripirit", "addr:parish": "Kamaturu", "addr:subcounty": "Lorengedwat", "amenity": "school", "fixme": "Please, check the position of the node", "name": "Nabuin Zonal Agri Institute", "source": "www.ubos.org", "source:date": "2010..2014"}}, {"type": "node", "id": 3999054824, "lat": 2.3429623, "lon": 34.5971389, "tags": {"addr:city": "Naweet", "addr:county": "Pian", "addr:district": "Nakapiripirit", "addr:parish": "Nathinyonoit", "addr:subcounty": "Lorengedwat", "amenity": "school", "name": "Naweet Primary School", "operator:type": "public", "source": "www.ubos.org", "source:date": "2010..2014"}}, {"type": "node", "id": 3999054825, "lat": 2.3651296, "lon": 34.5396491, "tags": {"addr:city": "Naooi", "addr:county": "Bokora", "addr:district": "Napak", "addr:parish": "Moruongor", "addr:subcounty": "Lotome", "amenity": "school", "fixme": "Please, check the position of the node", "name": "Saint Andrews Diocese Training Centre", "source": "www.ubos.org", "source:date": "2010..2014"}}, {"type": "node", "id": 3999054826, "lat": 2.360674, "lon": 34.536839, "tags": {"addr:city": "Naitakosowan", "addr:county": "Bokora", "addr:district": "Napak", "addr:parish": "Moruongor", "addr:subcounty": "Lotome", "amenity": "school", "name": "Saint Andrews School", "source": "www.ubos.org", "source:date": "2010..2014"}}, {"type": "node", "id": 3999054827, "lat": 2.4383749, "lon": 34.4889845, "tags": {"addr:city": "Kangole Complex", "addr:county": "Bokora", "addr:district": "Napak", "addr:parish": "Lokoreto", "addr:subcounty": "Ngoleriet", "amenity": "school", "name": "Saint Mathias Mulumba Catechists Training Centre", "source": "www.ubos.org", "source:date": "2010..2014"}}, {"type": "node", "id": 3999054828, "lat": 2.4389629, "lon": 34.4883891, "tags": {"addr:city": "Kangole Complex", "addr:county": "Bokora", "addr:district": "Napak", "addr:parish": "Lokoreto", "addr:subcounty": "Ngoleriet", "amenity": "school", "name": "Saint Theresa Kangole Girls Primary School", "source": "www.ubos.org", "source:date": "2010..2014"}}, {"type": "node", "id": 3999088045, "lat": 2.4232708, "lon": 34.4253674, "tags": {"addr:city": "Namoruongora", "addr:county": "Bokora", "addr:district": "Napak", "addr:parish": "Lokupoi", "addr:subcounty": "Matany", "amenity": "school", "isced:level": "1", "name": "Lodooi Primary School", "source": "www.ubos.org", "source:date": "2010..2014", "wikidata": "Q22678804"}}, {"type": "node", "id": 3999088046, "lat": 2.4304076, "lon": 34.3794499, "tags": {"addr:city": "Nangatunyo", "addr:county": "Bokora", "addr:district": "Napak", "addr:parish": "Lokali", "addr:subcounty": "Matany", "amenity": "school", "isced:level": "1", "name": "Lokali Community Primary School", "source": "www.ubos.org", "source:date": "2010..2014", "wikidata": "Q22678803"}}, {"type": "node", "id": 3999088047, "lat": 2.4111646, "lon": 34.3974627, "tags": {"addr:city": "Kalopajak", "addr:county": "Bokora", "addr:district": "Napak", "addr:parish": "Lokuwas", "addr:subcounty": "Matany", "amenity": "school", "isced:level": "1", "name": "Matany Primary School", "source": "www.ubos.org", "source:date": "2010..2014", "wikidata": "Q22678806"}}, {"type": "node", "id": 4010792858, "lat": 2.0676674, "lon": 34.5862397, "tags": {"addr:city": "Lotede", "addr:county": "Pian", "addr:district": "Nakapiripirit", "addr:parish": "Acegeretolim", "addr:subcounty": "Nabilatuk", "amenity": "school", "isced:level": "1", "name": "Acegeratoum Primary School", "source": "www.ubos.org", "source:date": "2010..2014", "wikidata": "Q22811657"}}, {"type": "node", "id": 4010792859, "lat": 2.0676792, "lon": 34.5786032, "tags": {"addr:city": "Arengesiep", "addr:county": "Pian", "addr:district": "Nakapiripirit", "addr:parish": "Acegeretolim", "addr:subcounty": "Nabilatuk", "amenity": "school", "isced:level": "2;3;4", "name": "Arengesiep Secondary School", "source": "www.ubos.org", "source:date": "2010..2014", "wikidata": "Q22811656"}}, {"type": "node", "id": 4010792860, "lat": 2.0644937, "lon": 34.566222, "tags": {"addr:city": "Cucu", "addr:county": "Pian", "addr:district": "Nakapiripirit", "addr:parish": "Acegeretolim", "addr:subcounty": "Nabilatuk", "amenity": "school", "isced:level": "1", "name": "Cucu Primary School", "source": "www.ubos.org", "source:date": "2010..2014", "wikidata": "Q22811655"}}, {"type": "node", "id": 4010792863, "lat": 2.0363322, "lon": 34.5589272, "tags": {"addr:city": "Nathinyonoit", "addr:county": "Pian", "addr:district": "Nakapiripirit", "addr:parish": "Lokaala", "addr:subcounty": "Nabilatuk", "amenity": "school", "isced:level": "1", "name": "Lokaala Primary School", "source": "www.ubos.org", "source:date": "2010..2014", "wikidata": "Q22811652"}}, {"type": "node", "id": 4010792869, "lat": 2.0469003, "lon": 34.524727, "tags": {"addr:city": "Nayonaiangikalio", "addr:county": "Pian", "addr:district": "Nakapiripirit", "addr:parish": "Kothike", "addr:subcounty": "Nabilatuk", "amenity": "school", "isced:level": "1", "name": "Nayonaingaikalyo Primary School", "source": "www.ubos.org", "source:date": "2010..2014", "wikidata": "Q22811646"}}, {"type": "node", "id": 4010792871, "lat": 2.0533822, "lon": 34.5724469, "tags": {"addr:city": "Trading Centre", "addr:county": "Pian", "addr:district": "Nakapiripirit", "addr:parish": "Moruangibuin", "addr:subcounty": "Nabilatuk", "amenity": "school", "isced:level": "1", "name": "Township Primary School", "source": "www.ubos.org", "source:date": "2010..2014", "wikidata": "Q22811643"}}, {"type": "way", "id": 235799763, "nodes": [2438804405, 2438804407, 2438804409, 2438804411, 2438804413, 2438804405], "tags": {"amenity": "school"}}]}