{"version": 0.6, "generator": "Overpass API 0.7.61.5 4133829e", "osm3s": {"timestamp_osm_base": "2024-03-06T11:04:23Z", "copyright": "The data included in this document is from www.openstreetmap.org. The data is made available under ODbL."}, "elements": [{"type": "node", "id": 2154067057, "lat": -0.3012798, "lon": 35.5047279, "tags": {"NOTE": "The school has eight teachers", "amenity": "school", "capacity": "238", "name": "Taragonik Primary School", "operational_status": "open", "operator": "District Education Board", "operator_type": "government", "project:eurosha_2012": "yes", "school:fondamental_third_cycle": "yes", "source": "Field survey", "source:date": "2013-02-13"}}, {"type": "node", "id": 2154095153, "lat": -0.3016123, "lon": 35.5185792, "tags": {"NOTE": "pupils: 656, girls: 320, boys: 336, teachers: 10", "amenity": "school", "capacity": "656", "name": "Mwaragania Primary School", "operational_status": "open", "operator": "Mwaragania Primary School", "operator_type": "government", "project:eurosha_2012": "yes", "school:fondamental_first_cycle": "yes", "source": "Field Survey", "source:date": "2013-02-13"}}, {"type": "node", "id": 2154175621, "lat": -0.3012938, "lon": 35.5194075, "tags": {"NOTE": "Pupils:126,Girls: 66,Boys:60,Teachers: 6.", "amenity": "school", "capacity": "126", "name": "Mwaragania Secondary School", "operational_status": "open", "operator_type": "government", "project:eurosha_2012": "yes", "school:fondamental_second_cycle": "yes", "source": "Field Survey", "source:date": "2013-02-13"}}, {"type": "node", "id": 2165227855, "lat": -0.3049667, "lon": 35.5504687, "tags": {"amenity": "school", "name": "Mkulima Primary", "operational_status": "open", "operator_type": "government", "project:eurosha_2012": "yes", "school:fondamental_first_cycle": "yes", "school:fondamental_second_cycle": "yes", "school:fondamental_third_cycle": "yes", "source": "survey", "source:date": "2013-01-14"}}, {"type": "node", "id": 2165227870, "lat": -0.3062006, "lon": 35.5493128, "tags": {"amenity": "school", "name": "Mkulima Secondary", "operational_status": "open", "operator_type": "government", "project:eurosha_2012": "yes", "school:secondary": "yes", "source": "survey", "source:date": "2013-01-14"}}, {"type": "node", "id": 2165227876, "lat": -0.3198384, "lon": 35.5452211, "tags": {"amenity": "school", "capacity": "60", "name": "Ruret Primary", "operational_status": "open", "project:eurosha_2012": "yes", "school:fondamental_first_cycle": "yes", "school:fondamental_second_cycle": "yes", "school:fondamental_third_cycle": "yes", "source": "survey", "source:date": "2013-01-14"}}, {"type": "node", "id": 2166578021, "lat": -0.3033901, "lon": 35.5309627, "tags": {"amenity": "school", "education:students": "313", "name": "Kuresoi junior academy", "operational_status": "open", "operator_type": "private", "project:eurosha_2012": "yes", "school:fondamental_first_cycle": "yes", "school:fondamental_second_cycle": "yes", "school:fondamental_third_cycle": "yes", "source": "Field Survey", "source:date": "2013-02-13"}}, {"type": "node", "id": 2166929764, "lat": -0.3225386, "lon": 35.5346886, "tags": {"amenity": "school", "name": "EKLC Kongoi Secondary", "operational_status": "open", "operator_type": "government", "project:eurosha_2012": "yes", "school:secondary": "yes", "source": "survey", "source:date": "2013-02-14"}}, {"type": "node", "id": 2393778889, "lat": -0.3708588, "lon": 35.2809224, "tags": {"amenity": "school", "name": "Highlands Primary School", "operator": "Goverment of Kenya"}}, {"type": "node", "id": 2393778893, "lat": -0.3666498, "lon": 35.27022, "tags": {"amenity": "school", "name": "KERICHO HIGH SCHOOL"}}, {"type": "node", "id": 2393778894, "lat": -0.3688571, "lon": 35.2715479, "tags": {"amenity": "school", "name": "kERICHO REHABILITATION CENTRE"}}, {"type": "node", "id": 2393783103, "lat": -0.3645919, "lon": 35.2720557, "tags": {"amenity": "school", "name": "KERICHO BOYS BOARDING PRIMARY SCHOOL"}}, {"type": "node", "id": 2394915025, "lat": -0.3773689, "lon": 35.2789447, "tags": {"amenity": "school", "name": "KERICHO TEA BOYS HIGH SCHOOL"}}, {"type": "node", "id": 6620504150, "lat": -0.5254987, "lon": 35.6312375, "tags": {"amenity": "school", "name": "Kapkeet Primary School", "religion": "christian"}}, {"type": "node", "id": 6620504151, "lat": -0.4697055, "lon": 35.6785946, "tags": {"amenity": "school", "name": "Chebaraa Primary School", "operator": "government", "religion": "christian"}}, {"type": "node", "id": 7003271787, "lat": -0.3709992, "lon": 35.2805374}, {"type": "node", "id": 7003271788, "lat": -0.3716533, "lon": 35.2811411}, {"type": "node", "id": 7003271789, "lat": -0.3709658, "lon": 35.2818858}, {"type": "node", "id": 7003271790, "lat": -0.3703118, "lon": 35.281282}, {"type": "node", "id": 10055555839, "lat": -0.3613472, "lon": 35.2880685}, {"type": "node", "id": 10055555840, "lat": -0.3616387, "lon": 35.2882845}, {"type": "node", "id": 10055555841, "lat": -0.3616842, "lon": 35.2882231}, {"type": "node", "id": 10055555842, "lat": -0.3617551, "lon": 35.2882415}, {"type": "node", "id": 10055555843, "lat": -0.3618891, "lon": 35.2883413}, {"type": "node", "id": 10055555844, "lat": -0.3618629, "lon": 35.2884596}, {"type": "node", "id": 10055555845, "lat": -0.3618786, "lon": 35.2885542}, {"type": "node", "id": 10055555846, "lat": -0.361763, "lon": 35.2887696}, {"type": "node", "id": 10055555847, "lat": -0.3617, "lon": 35.2888195}, {"type": "node", "id": 10055555848, "lat": -0.3616658, "lon": 35.2888327}, {"type": "node", "id": 10055555849, "lat": -0.3617762, "lon": 35.2889145}, {"type": "node", "id": 10055555850, "lat": -0.3616443, "lon": 35.2890924}, {"type": "node", "id": 10055555851, "lat": -0.3609627, "lon": 35.2885873}, {"type": "node", "id": 10216897520, "lat": -0.4909187, "lon": 35.5852747, "tags": {"amenity": "school", "name": "Kaprengero pri"}}, {"type": "node", "id": 10216897521, "lat": -0.4819712, "lon": 35.6420785, "tags": {"amenity": "school", "name": "Kamnanda pri"}}, {"type": "node", "id": 10216897522, "lat": -0.4814857, "lon": 35.6432936, "tags": {"amenity": "school", "name": "Koite pri"}}, {"type": "node", "id": 10216897523, "lat": -0.4427317, "lon": 35.5663437, "tags": {"amenity": "school", "name": "Kepticha pri"}}, {"type": "node", "id": 10216897801, "lat": -0.5615276, "lon": 35.6313711, "tags": {"amenity": "school", "name": "Saoset pri"}}, {"type": "node", "id": 10216898291, "lat": -0.5675783, "lon": 35.6790876, "tags": {"amenity": "school", "name": "Kiptaragon secondary"}}, {"type": "node", "id": 10223314873, "lat": -0.5676791, "lon": 35.6559808, "tags": {"amenity": "school", "name": "Irongo secondary"}}, {"type": "node", "id": 10223314875, "lat": -0.5469246, "lon": 35.6606555, "tags": {"amenity": "school", "name": "Ainamoi primary"}}, {"type": "node", "id": 10223314876, "lat": -0.5537181, "lon": 35.6364097, "tags": {"amenity": "school", "name": "Chepotoi primary"}}, {"type": "node", "id": 10223314878, "lat": -0.5676791, "lon": 35.610668, "tags": {"amenity": "school", "name": "Kiptagich girls secondary"}}, {"type": "node", "id": 10223314879, "lat": -0.568427, "lon": 35.6112912, "tags": {"amenity": "school", "name": "Kiptagich primary"}}, {"type": "node", "id": 10223314884, "lat": -0.5370148, "lon": 35.5780077, "tags": {"amenity": "school", "name": "Kiplemeiywo primary"}}, {"type": "node", "id": 10223424616, "lat": -0.4884565, "lon": 35.6414079, "tags": {"amenity": "school", "name": "Ogiek kwanza secondary"}}, {"type": "node", "id": 10223442917, "lat": -0.489186, "lon": 35.6402492, "tags": {"amenity": "school", "name": "Ogiek primary"}}, {"type": "node", "id": 10223442918, "lat": -0.4529436, "lon": 35.5429287, "tags": {"amenity": "school", "name": "Rwanget primary"}}, {"type": "node", "id": 10223442919, "lat": -0.4529614, "lon": 35.5429159, "tags": {"amenity": "school", "name": "Barau primary"}}, {"type": "node", "id": 10223442920, "lat": -0.4799166, "lon": 35.5415439, "tags": {"amenity": "school", "name": "Kabongoi secondary"}}, {"type": "node", "id": 10223442921, "lat": -0.4783288, "lon": 35.5428314, "tags": {"amenity": "school", "name": "Kabongoi primary"}}, {"type": "node", "id": 10223442922, "lat": -0.4561852, "lon": 35.547552, "tags": {"amenity": "school", "name": "Makicheit primary"}}, {"type": "node", "id": 10223442923, "lat": -0.4510355, "lon": 35.5533027, "tags": {"amenity": "school", "name": "Kapngorot primary"}}, {"type": "node", "id": 10223442925, "lat": -0.4679436, "lon": 35.5635165, "tags": {"amenity": "school", "name": "Tilindi primary"}}, {"type": "node", "id": 10223442926, "lat": -0.505107, "lon": 35.553646, "tags": {"amenity": "school", "name": "Tirigoi primary"}}, {"type": "node", "id": 10223442927, "lat": -0.5414118, "lon": 35.6146716, "tags": {"amenity": "school", "name": "Timbwalo primary"}}, {"type": "node", "id": 10223442928, "lat": -0.5302543, "lon": 35.6084918, "tags": {"amenity": "school", "name": "Sibo primary"}}, {"type": "node", "id": 10223442929, "lat": -0.5237744, "lon": 35.6025695, "tags": {"amenity": "school", "name": "Kimororoch primary"}}, {"type": "node", "id": 10223442930, "lat": -0.5080413, "lon": 35.5728131, "tags": {"amenity": "school", "name": "Kapkoi primary"}}, {"type": "node", "id": 10223442931, "lat": -0.5152775, "lon": 35.5870771, "tags": {"amenity": "school", "name": "Aoon primary"}}, {"type": "node", "id": 10223442932, "lat": -0.5256412, "lon": 35.5718851, "tags": {"amenity": "school", "name": "Cheram primary"}}, {"type": "node", "id": 10223442934, "lat": -0.5082492, "lon": 35.5729715, "tags": {"amenity": "school", "name": "Kapkoi secondary"}}, {"type": "node", "id": 10223442935, "lat": -0.5260597, "lon": 35.632442, "tags": {"amenity": "school", "name": "Kapkeet primary"}}, {"type": "node", "id": 10223442936, "lat": -0.5254827, "lon": 35.6315231, "tags": {"amenity": "school", "name": "Kapkeet secondary"}}, {"type": "node", "id": 10223442939, "lat": -0.5004603, "lon": 35.6640042, "tags": {"amenity": "school", "name": "Kipsotet primary"}}, {"type": "node", "id": 10223442940, "lat": -0.5179824, "lon": 35.6640042, "tags": {"amenity": "school", "name": "Chepkesigen primary"}}, {"type": "node", "id": 10223442942, "lat": -0.4997765, "lon": 35.6774241, "tags": {"amenity": "school", "name": "Cherokiet primary"}}, {"type": "node", "id": 10223442944, "lat": -0.5314017, "lon": 35.6628075, "tags": {"amenity": "school", "name": "Kaber primary"}}, {"type": "node", "id": 10223442945, "lat": -0.5423422, "lon": 35.6799029, "tags": {"amenity": "school", "name": "Ogiek sotiki secondary"}}, {"type": "way", "id": 748867895, "nodes": [7003271787, 7003271788, 7003271789, 7003271790, 7003271787], "tags": {"amenity": "school", "name": "Highlands Primary School"}}, {"type": "way", "id": 1098212439, "nodes": [10055555839, 10055555840, 10055555841, 10055555842, 10055555843, 10055555844, 10055555845, 10055555846, 10055555847, 10055555848, 10055555849, 10055555850, 10055555851, 10055555839], "tags": {"amenity": "school", "name": "Eland Academy"}}]}