{"version": 0.6, "generator": "Overpass API 0.7.61.5 4133829e", "osm3s": {"timestamp_osm_base": "2024-03-06T10:45:02Z", "copyright": "The data included in this document is from www.openstreetmap.org. The data is made available under ODbL."}, "elements": [{"type": "node", "id": 3351628984, "lat": 36.647703, "lon": 44.5581535, "tags": {"amenity": "school", "name": "shahidan"}}, {"type": "node", "id": 3352480660, "lat": 36.6616563, "lon": 44.5566877}, {"type": "node", "id": 3352480661, "lat": 36.661635, "lon": 44.5560017}, {"type": "node", "id": 3352480662, "lat": 36.6613785, "lon": 44.5564276}, {"type": "node", "id": 3352480663, "lat": 36.6619129, "lon": 44.5562618}, {"type": "node", "id": 3352529758, "lat": 36.6575882, "lon": 44.5560587}, {"type": "node", "id": 3352529759, "lat": 36.6569092, "lon": 44.5557628}, {"type": "node", "id": 3352529760, "lat": 36.6565256, "lon": 44.5569154}, {"type": "node", "id": 3352529761, "lat": 36.6571991, "lon": 44.5572491}, {"type": "node", "id": 3352672475, "lat": 36.655927, "lon": 44.5625495}, {"type": "node", "id": 3352672476, "lat": 36.6555587, "lon": 44.5625388}, {"type": "node", "id": 3352672477, "lat": 36.6555672, "lon": 44.5620847}, {"type": "node", "id": 3352672478, "lat": 36.6559355, "lon": 44.5620955}, {"type": "node", "id": 3476540154, "lat": 36.6402632, "lon": 44.5487207}, {"type": "node", "id": 3476540155, "lat": 36.6404353, "lon": 44.5482676}, {"type": "node", "id": 3476540158, "lat": 36.6407108, "lon": 44.5489847}, {"type": "node", "id": 3476540161, "lat": 36.6408829, "lon": 44.5485316}, {"type": "node", "id": 3476540348, "lat": 36.6487626, "lon": 44.5511456, "tags": {"amenity": "school", "name": "\u0642\u0648\u062a\u0627\u0628\u062e\u0627\u0646\u06d5\u06cc \u0633\u06d5\u0631\u06a9\u06d5\u0648\u062a", "name:en": "Sarkawt school"}}, {"type": "node", "id": 3476540353, "lat": 36.6489943, "lon": 44.5513392, "tags": {"amenity": "school", "name": "\u0642\u0648\u062a\u0627\u0628\u062e\u0627\u0646\u06d5\u06cc \u0628\u06ce\u0698\u06d5\u0646", "name:en": "Bezhan school"}}, {"type": "node", "id": 3476540520, "lat": 36.6532623, "lon": 44.5517921}, {"type": "node", "id": 3476540522, "lat": 36.653381, "lon": 44.5515644}, {"type": "node", "id": 3476540542, "lat": 36.6536194, "lon": 44.5520816}, {"type": "node", "id": 3476540549, "lat": 36.6537382, "lon": 44.5518539}, {"type": "node", "id": 3476540888, "lat": 36.6643037, "lon": 44.5504315}, {"type": "node", "id": 3476540889, "lat": 36.6643135, "lon": 44.5506583}, {"type": "node", "id": 3476540891, "lat": 36.6643579, "lon": 44.5505619}, {"type": "node", "id": 3476540892, "lat": 36.6643932, "lon": 44.5505872}, {"type": "node", "id": 3476540893, "lat": 36.6644052, "lon": 44.5502108}, {"type": "node", "id": 3476540894, "lat": 36.6644249, "lon": 44.5505182}, {"type": "node", "id": 3476540895, "lat": 36.6644312, "lon": 44.5507424}, {"type": "node", "id": 3476540896, "lat": 36.6644471, "lon": 44.5506295}, {"type": "node", "id": 3476540897, "lat": 36.6644742, "lon": 44.5506489}, {"type": "node", "id": 3476540898, "lat": 36.6644809, "lon": 44.5505561}, {"type": "node", "id": 3476540899, "lat": 36.6645119, "lon": 44.550287}, {"type": "node", "id": 3476540900, "lat": 36.6645645, "lon": 44.5501726}, {"type": "node", "id": 3476540901, "lat": 36.6645843, "lon": 44.5503334}, {"type": "node", "id": 3476540902, "lat": 36.6645874, "lon": 44.5506323}, {"type": "node", "id": 3476540904, "lat": 36.664635, "lon": 44.5502231}, {"type": "node", "id": 3476540906, "lat": 36.6646901, "lon": 44.5504091}, {"type": "node", "id": 4428414391, "lat": 36.6431814, "lon": 44.8947706, "tags": {"addr:city": "\u0686\u06c6\u0645\u0627\u0646", "addr:country": "IQ", "addr:state": "\u0645\u062d\u0627\u0641\u0638\u0629 \u0623\u0631\u0628\u064a\u0644", "amenity": "school", "name": "\u0642\u0648\u062a\u0627\u0628\u062e\u0627\u0646\u06d5\u06cc \u0628\u06ce\u062e\u06c6\u06b5\u0627\u0646\u06cc \u0628\u0646\u06d5\u0695\u06d5\u062a\u06cc \u062a\u06ce\u06a9\u06d5\u06b5\u0627\u0648", "name:ar": "\u0645\u062f\u0631\u0633\u0629 \u0628\u064a\u062e\u0648\u0644\u0627\u0646", "name:en": "qutabxaney Bexolan", "name:ku-Arab": "\u0642\u0648\u062a\u0627\u0628\u062e\u0627\u0646\u06d5\u06cc \u0628\u06ce\u062e\u06c6\u06b5\u0627\u0646\u06cc \u0628\u0646\u06d5\u0695\u06d5\u062a\u06cc \u062a\u06ce\u06a9\u06d5\u06b5\u0627\u0648"}}, {"type": "node", "id": 4428428889, "lat": 36.6365475, "lon": 44.8880696, "tags": {"addr:city": "\u0686\u06c6\u0645\u0627\u0646", "addr:country": "IQ", "addr:state": "\u0645\u062d\u0627\u0641\u0638\u0629 \u0623\u0631\u0628\u064a\u0644", "amenity": "school", "grades": "10-12", "name": "\u0642\u0648\u062a\u0627\u0628\u062e\u0627\u0646\u06d5\u06cc \u0626\u0627\u0645\u0627\u062f\u06d5\u06cc\u06cc \u0641\u06cc\u062f\u0695\u0627\u0644\u06cc \u06a9\u0686\u0627\u0646", "name:ar": "\u0645\u062f\u0631\u0633\u0629 \u0641\u064a\u062f\u0631\u0627\u0644\u064a \u0644\u0644\u0628\u0646\u0627\u062a", "name:ckb": "\u0642\u0648\u062a\u0627\u0628\u062e\u0627\u0646\u06d5\u06cc \u0626\u0627\u0645\u0627\u062f\u06d5\u06cc\u06cc \u0641\u06cc\u062f\u0695\u0627\u0644\u06cc \u06a9\u0686\u0627\u0646", "name:en": "amadayi Fidrali kchan", "name:ku": "Qutabxaney amadey\u00ee F\u00eed\u0159al\u00ee ki\u00e7an"}}, {"type": "node", "id": 4428429191, "lat": 36.6221629, "lon": 44.8849097, "tags": {"addr:city": "\u0686\u06c6\u0645\u0627\u0646", "addr:country": "IQ", "addr:state": "\u0645\u062d\u0627\u0641\u0638\u0629 \u0623\u0631\u0628\u064a\u0644", "amenity": "school", "grades": "10-12", "name": "\u0626\u0627\u0645\u0627\u062f\u06d5\u06cc\u06cc \u0686\u06c6\u0645\u0627\u0646\u06cc \u06a9\u0648\u0695\u0627\u0646", "name:ar": "\u0645\u062f\u0631\u0633\u0629 \u0627\u0644\u0625\u0639\u062f\u0627\u062f\u064a\u0629 \u062c\u0648\u0645\u0627\u0646 \u0644\u0641\u062a\u0627\u0629", "name:en": "amadayi Chomani kuran", "name:ku-Arab": "\u0626\u0627\u0645\u0627\u062f\u06d5\u06cc\u06cc \u0686\u06c6\u0645\u0627\u0646\u06cc \u06a9\u0648\u0695\u0627\u0646"}}, {"type": "node", "id": 4428429193, "lat": 36.6369632, "lon": 44.8877715, "tags": {"addr:city": "\u0686\u06c6\u0645\u0627\u0646", "addr:country": "IQ", "addr:state": "\u0645\u062d\u0627\u0641\u0638\u0629 \u0623\u0631\u0628\u064a\u0644", "amenity": "school", "name": "\u0642\u0648\u062a\u0627\u0628\u062e\u0627\u0646\u06d5\u06cc \u0628\u0646\u06d5\u0695\u06d5\u062a\u06cc \u0633\u06cc\u0627\u06a9\u06c6\u06cc \u06a9\u0648\u0695\u0627\u0646", "name:ar": "\u0645\u062f\u0631\u0633\u0629 \u0633\u064a\u0627\u0643\u0648", "name:ckb": "\u0642\u0648\u062a\u0627\u0628\u062e\u0627\u0646\u06d5\u06cc \u0628\u0646\u06d5\u0695\u06d5\u062a\u06cc \u0633\u06cc\u0627\u06a9\u06c6\u06cc \u06a9\u0648\u0695\u0627\u0646", "name:en": "qutabxanay siyako", "name:ku": "Qutabxaney bine\u0159et\u00ee Syakoy ku\u0159an"}}, {"type": "node", "id": 4536971395, "lat": 36.6376484, "lon": 44.8903656, "tags": {"addr:city": "\u0686\u06c6\u0645\u0627\u0646", "addr:country": "IQ", "addr:state": "\u0645\u062d\u0627\u0641\u0638\u0629 \u0623\u0631\u0628\u064a\u0644", "amenity": "school", "name": "\u0642\u0648\u062a\u0627\u0628\u062e\u0627\u0646\u06d5\u06cc \u0628\u0627\u06b5\u06d5\u06a9", "name:ckb": "\u0642\u0648\u062a\u0627\u0628\u062e\u0627\u0646\u06d5\u06cc \u0628\u0627\u06b5\u06d5\u06a9", "name:en": "qutabxanay balak"}}, {"type": "node", "id": 4730599621, "lat": 36.636361, "lon": 44.8840878, "tags": {"addr:city": "\u0686\u06c6\u0645\u0627\u0646", "amenity": "school"}}, {"type": "node", "id": 4902126721, "lat": 36.6672903, "lon": 44.5570014, "tags": {"amenity": "school", "description": "Added By Mustafa S. Ballak", "grades": "1-9", "name": "Shahla School for Girls", "name:ar": "\u0645\u062f\u0631\u0633\u0629 \u0634\u0647\u0644\u0627 \u0644\u0644\u0628\u0646\u0627\u062a", "name:ckb": "\u0642\u0648\u062a\u0627\u0628\u062e\u0627\u0646\u06d5\u06cc \u0634\u06d5\u0647\u0644\u0627\u06cc \u0647\u0627\u0648\u0695\u06ce\u06cc \u0628\u0646\u06d5\u0695\u06d5\u062a\u06cc \u06a9\u0686\u0627\u0646", "name:en": "Shahla School for Girls", "religion": "muslim", "website": "https://mustafaballak.tk/"}}, {"type": "node", "id": 5124333224, "lat": 36.6639034, "lon": 44.5493512, "tags": {"amenity": "school", "name": "\u0642\u0648\u062a\u0627\u0628\u062e\u0627\u0646\u06d5\u06cc \u06af\u0648\u06b5\u06cc \u0632\u06d5\u0631\u062f\u06cc \u06a9\u0686\u0627\u0646", "name:en": "Yellow Flower School for Girls"}}, {"type": "node", "id": 5126746421, "lat": 36.6463427, "lon": 44.5489345, "tags": {"amenity": "school", "name": "\u0645\u062f\u0631\u0633\u0629"}}, {"type": "node", "id": 5131476133, "lat": 36.6542623, "lon": 44.5403067, "tags": {"amenity": "school", "name": "\u0642\u0648\u062a\u0627\u0628\u062e\u0627\u0646\u06d5\u06cc \u0647\u06d5\u06b5\u06af\u06c6\u0631\u062f\u06cc \u0628\u0646\u06d5\u0695\u06d5\u062a\u06cc", "name:ckb": "\u0642\u0648\u062a\u0627\u0628\u062e\u0627\u0646\u06d5\u06cc \u0647\u06d5\u06b5\u06af\u06c6\u0631\u062f\u06cc \u0628\u0646\u06d5\u0695\u06d5\u062a\u06cc", "name:en": "Qutabxanai Halgurdi bnarati"}}, {"type": "node", "id": 5131615463, "lat": 36.6404404, "lon": 44.5488252, "tags": {"amenity": "school", "name": "\u0626\u0627\u0645\u0627\u062f\u06d5\u06cc\u06cc \u0633\u06c6\u0631\u0627\u0646\u06cc \u0646\u0645\u0648\u0646\u06d5\u06cc\u06cc", "name:en": "Soran Tepical school"}}, {"type": "node", "id": 5143709124, "lat": 36.6706612, "lon": 44.5359418}, {"type": "node", "id": 5143709125, "lat": 36.6701761, "lon": 44.5351974}, {"type": "node", "id": 5143709126, "lat": 36.6699827, "lon": 44.5353877}, {"type": "node", "id": 5143709127, "lat": 36.6704067, "lon": 44.5360517}, {"type": "node", "id": 5143709128, "lat": 36.6704848, "lon": 44.5359714}, {"type": "node", "id": 5143709129, "lat": 36.6705628, "lon": 44.5360644}, {"type": "node", "id": 5145359552, "lat": 36.6426239, "lon": 44.5401318, "tags": {"amenity": "school", "name": "Aylan School/\u0642\u0648\u062a\u0627\u0628\u062e\u0627\u0646\u06d5\u06cc \u0626\u0627\u06cc\u0644\u0627\u0646"}}, {"type": "node", "id": 5150802491, "lat": 36.6215934, "lon": 44.540623, "tags": {"amenity": "school"}}, {"type": "node", "id": 5154103853, "lat": 36.6602792, "lon": 44.5407054}, {"type": "node", "id": 5154103854, "lat": 36.659764, "lon": 44.5405781}, {"type": "node", "id": 5154103855, "lat": 36.659804, "lon": 44.5403179}, {"type": "node", "id": 5154103856, "lat": 36.6600216, "lon": 44.540365}, {"type": "node", "id": 5154103857, "lat": 36.6600283, "lon": 44.5402903}, {"type": "node", "id": 5154103858, "lat": 36.659975, "lon": 44.5402764}, {"type": "node", "id": 5154103859, "lat": 36.6600416, "lon": 44.5400384}, {"type": "node", "id": 5154103860, "lat": 36.6602503, "lon": 44.5401187}, {"type": "node", "id": 5154103861, "lat": 36.6602236, "lon": 44.5402128}, {"type": "node", "id": 5154103862, "lat": 36.6602947, "lon": 44.5402294}, {"type": "node", "id": 5154103863, "lat": 36.6603191, "lon": 44.5401685}, {"type": "node", "id": 5154103864, "lat": 36.6604879, "lon": 44.5402294}, {"type": "node", "id": 5154103865, "lat": 36.6604479, "lon": 44.5404563}, {"type": "node", "id": 5154103866, "lat": 36.660308, "lon": 44.5404397}, {"type": "node", "id": 5154103867, "lat": 36.6600793, "lon": 44.5405006, "tags": {"amenity": "school", "name": "\u0642\u0648\u062a\u0627\u0628\u062e\u0627\u0646\u06d5\u06cc \u0628\u0646\u06d5\u0695\u06d5\u062a\u06cc \u0632\u06ce\u0695\u06cc\u0646", "name:en": "Zerin Elementary School"}}, {"type": "node", "id": 5161292655, "lat": 36.6397421, "lon": 44.560297}, {"type": "node", "id": 5161292656, "lat": 36.6396159, "lon": 44.5600452}, {"type": "node", "id": 5161292657, "lat": 36.6395937, "lon": 44.5600622}, {"type": "node", "id": 5161292658, "lat": 36.6395072, "lon": 44.5599076}, {"type": "node", "id": 5161292659, "lat": 36.6394348, "lon": 44.5599622}, {"type": "node", "id": 5161292660, "lat": 36.6396523, "lon": 44.560368}, {"type": "node", "id": 5161292661, "lat": 36.6398145, "lon": 44.5603144}, {"type": "node", "id": 5161292662, "lat": 36.6396546, "lon": 44.5600145}, {"type": "node", "id": 5161292663, "lat": 36.6398323, "lon": 44.5598635}, {"type": "node", "id": 5161292664, "lat": 36.6399905, "lon": 44.5601695}, {"type": "node", "id": 5161303269, "lat": 36.6399568, "lon": 44.5563297}, {"type": "node", "id": 5161303270, "lat": 36.6401451, "lon": 44.556488}, {"type": "node", "id": 5161303271, "lat": 36.6402728, "lon": 44.5562377}, {"type": "node", "id": 5161303272, "lat": 36.6400845, "lon": 44.5560777}, {"type": "node", "id": 5180640235, "lat": 36.6531199, "lon": 44.5493367}, {"type": "node", "id": 5180640236, "lat": 36.6528359, "lon": 44.5496882}, {"type": "node", "id": 5180640238, "lat": 36.65312, "lon": 44.5499981}, {"type": "node", "id": 5180640239, "lat": 36.6532688, "lon": 44.5497951}, {"type": "node", "id": 5180640240, "lat": 36.653077, "lon": 44.5495391}, {"type": "node", "id": 5180640241, "lat": 36.6531804, "lon": 44.5494046}, {"type": "node", "id": 5420165222, "lat": 36.7034276, "lon": 44.6234474, "tags": {"amenity": "school", "name": "\u0625\u0639\u062f\u0627\u062f\u064a\u0629 \u062d\u0633\u0646 \u0628\u0643 \u0627\u0644\u0645\u062e\u062a\u0644\u0637\u0629", "name:en": "Hassan bag school"}}, {"type": "node", "id": 5437522538, "lat": 36.6558508, "lon": 44.5542765, "tags": {"addr:street": "Spirez Street", "amenity": "school", "name": "\u0642\u0648\u062a\u0627\u0628\u062e\u0627\u0646\u06d5\u06cc \u0628\u0646\u06d5\u0695\u06d5\u062a\u06cc \u0695\u0627\u067e\u06d5\u0631\u06cc\u0646", "name:en": "Raparin Elementary School"}}, {"type": "node", "id": 5519936621, "lat": 36.7034925, "lon": 44.6235031, "tags": {"amenity": "school", "email": "hawre.hasnany@gmail.com", "name": "\u062f\u0648\u0627\u0646\u0627\u0648\u06d5\u0646\u062f\u06cc \u062d\u06d5\u0633\u06d5\u0646 \u0628\u06d5\u06af\u06cc \u062a\u06ce\u06a9\u06d5\u06b5\u0627\u0648", "name:en": "Hasan bag school", "website": "http://hawre.hasnany@gmail.com"}}, {"type": "node", "id": 5578483293, "lat": 36.6503592, "lon": 44.5402491, "tags": {"amenity": "school", "name": "\u0642\u0648\u062a\u0627\u0628\u062e\u0627\u0646\u06d5\u06cc \u0633\u06c6\u0631\u0627\u0646"}}, {"type": "node", "id": 5642325281, "lat": 36.6424089, "lon": 44.5400167, "tags": {"amenity": "school", "name": "\u0642\u0648\u062a\u0627\u0628\u062e\u0627\u0646\u06d5\u06cc \u062f\u06cc\u0644\u0645\u0627\u0646\u06cc \u06a9\u0686\u0627\u0646/dilman girl school"}}, {"type": "node", "id": 5770731154, "lat": 36.5474229, "lon": 44.7595264, "tags": {"amenity": "school", "name:en": "Sranaws Elementary School"}}, {"type": "node", "id": 5797653855, "lat": 36.6425426, "lon": 44.5395439, "tags": {"amenity": "school", "name": "\u0642\u0648\u062a\u0627\u0628\u062e\u0627\u0646\u0647 \u064a \u0626\u0647 \u0633\u062a\u0626\u0631\u0647", "name:en": "Astera school", "name:ku": "Qotabxanai astera"}}, {"type": "node", "id": 6118843373, "lat": 36.6113687, "lon": 44.8230297}, {"type": "node", "id": 6118843374, "lat": 36.6113645, "lon": 44.8232682}, {"type": "node", "id": 6118843375, "lat": 36.6113473, "lon": 44.8232602}, {"type": "node", "id": 6118843376, "lat": 36.6113422, "lon": 44.8235769}, {"type": "node", "id": 6118843377, "lat": 36.6111546, "lon": 44.8235718}, {"type": "node", "id": 6118843378, "lat": 36.6111567, "lon": 44.8234536}, {"type": "node", "id": 6118843379, "lat": 36.6112129, "lon": 44.8230255}, {"type": "node", "id": 6118843380, "lat": 36.6112104, "lon": 44.8231687}, {"type": "node", "id": 6118843381, "lat": 36.6111707, "lon": 44.8231676}, {"type": "node", "id": 6118843382, "lat": 36.6111697, "lon": 44.8232219}, {"type": "node", "id": 6118843383, "lat": 36.6110754, "lon": 44.8232193}, {"type": "node", "id": 6118843384, "lat": 36.6110713, "lon": 44.8234513}, {"type": "node", "id": 6313140087, "lat": 36.8041198, "lon": 44.6376416, "tags": {"amenity": "school", "name": "Mjesar Primary School", "name:ar": "\u0645\u062f\u0631\u0633\u0629 \u0645\u062c\u0633\u0631", "name:ckb": "\u0642\u0648\u062a\u0627\u0628\u062e\u0627\u0646\u06d5\u06cc \u0645\u062c\u06ce\u0633\u06d5\u0631\u06cc \u0628\u0646\u06d5\u0695\u06d5\u062a\u06cc"}}, {"type": "node", "id": 6552550786, "lat": 36.6818139, "lon": 44.9846838, "tags": {"amenity": "school", "name:en": "Azadi  Elementary School"}}, {"type": "node", "id": 6754995619, "lat": 36.5545316, "lon": 44.7483668}, {"type": "node", "id": 6754995620, "lat": 36.5542297, "lon": 44.7485625}, {"type": "node", "id": 6754995621, "lat": 36.5541583, "lon": 44.7483916}, {"type": "node", "id": 6754995622, "lat": 36.5544602, "lon": 44.7481959}, {"type": "node", "id": 6870859085, "lat": 36.6073694, "lon": 44.7553153, "tags": {"amenity": "school", "name:en": "Dar u Salam Primary School"}}, {"type": "node", "id": 6961636794, "lat": 36.6386986, "lon": 44.882753, "tags": {"addr:city": "\u0686\u06c6\u0645\u0627\u0646", "amenity": "school", "grades": "1-9", "name": "\u0642\u0648\u062a\u0627\u0628\u062e\u0627\u0646\u06d5\u06cc \u062f\u06ce\u0645\u0627\u0646\u06cc \u0628\u0646\u06d5\u0695\u06d5\u062a\u06cc \u062a\u06ce\u06a9\u06d5\u06b5\u0627\u0648", "name:en": "qutabxanay demani bnarati tekalaw"}}, {"type": "node", "id": 7238558811, "lat": 36.7854743, "lon": 44.6282566, "tags": {"amenity": "school", "name": "Hawelan Primary School"}}, {"type": "node", "id": 7406237186, "lat": 36.554091, "lon": 44.8218861, "tags": {"addr:city": "\u0686\u06c6\u0645\u0627\u0646", "amenity": "school", "name": "\u062e\u0648\u06ce\u0646\u062f\u0646\u06af\u06d5\u06cc \u0628\u06d5\u0631\u06cc\u0645\u06d5\u06cc\u062f\u0627\u0646", "name:ar": "\u0645\u062f\u0631\u0633\u0629 \u0628\u0631\u064a\u0645\u064a\u062f\u0627\u0646", "name:ckb": "\u062e\u0648\u06ce\u0646\u062f\u0646\u06af\u06d5\u06cc \u0628\u06d5\u0631\u06cc\u0645\u06d5\u06cc\u062f\u0627\u0646", "name:en": "Barimaydan School", "name:ku": "Xwendingeha Ber\u00eemeydan"}}, {"type": "node", "id": 7594956185, "lat": 36.7653683, "lon": 44.638824, "tags": {"amenity": "school", "name:en": "Kazhak Elementary school"}}, {"type": "node", "id": 8575836920, "lat": 36.6364892, "lon": 44.8880598, "tags": {"addr:city": "\u0686\u06c6\u0645\u0627\u0646", "amenity": "school", "grades": "1-9", "name": "\u0642\u0648\u062a\u0627\u0628\u062e\u0627\u0646\u06d5\u06cc \u0628\u0646\u06d5\u0695\u06d5\u062a\u06cc \u067e\u0631\u0698\u06d5\u06cc \u06a9\u0686\u0627\u0646", "name:ar": "\u0645\u062f\u0631\u0633\u0629 \u067e\u0631\u0698\u0647 \u0627\u0644\u0627\u0633\u0627\u0633\u06cc \u0644\u0644\u0628\u0646\u0627\u062a", "name:ckb": "\u0642\u0648\u062a\u0627\u0628\u062e\u0627\u0646\u06d5\u06cc \u0628\u0646\u06d5\u0695\u06d5\u062a\u06cc \u067e\u0631\u0698\u06d5\u06cc \u06a9\u0686\u0627\u0646", "name:en": "Przha Basic School for Girls", "name:ku": "Qutabxaney bine\u0159et\u00ee Pirjey ki\u00e7an"}}, {"type": "node", "id": 8791549025, "lat": 36.6126024, "lon": 44.9208497, "tags": {"addr:city": "\u0686\u06c6\u0645\u0627\u0646", "amenity": "school", "name": "\u0642\u0648\u062a\u0627\u0628\u062e\u0627\u0646\u06d5\u06cc \u0628\u0646\u06d5\u0695\u06d5\u062a\u06cc \u0628\u0646\u062f\u0627\u06cc\u0632\u0627\u0646", "name:ckb": "\u0642\u0648\u062a\u0627\u0628\u062e\u0627\u0646\u06d5\u06cc \u0628\u0646\u06d5\u0695\u06d5\u062a\u06cc \u0628\u0646\u062f\u0627\u06cc\u0632\u0627\u0646", "name:en": "Bndayzan school"}}, {"type": "node", "id": 8791558321, "lat": 36.6086882, "lon": 44.9273647, "tags": {"addr:city": "\u0686\u0624\u0645\u0627\u0646", "amenity": "school", "name": "\u0642\u0648\u062a\u0627\u0628\u062e\u0627\u0646\u06d5\u06cc \u0628\u0646\u06d5\u0695\u06d5\u062a\u06cc \u062e\u06c6\u0634\u06a9\u0627\u0646", "name:en": "Khoshkan elementary school"}}, {"type": "node", "id": 8792143851, "lat": 36.6243766, "lon": 44.6604895, "tags": {"amenity": "school", "name:en": "Barsrin elementary school"}}, {"type": "node", "id": 8914367517, "lat": 36.6729779, "lon": 45.0492056, "tags": {"addr:street": "\u0695\u06ce\u06af\u0627\u06cc \u06a9\u0627\u0646\u06cc\u06cc \u0634\u06ce\u062e\u06cc \u0628\u0627\u06b5\u06d5\u06a9", "amenity": "school", "name": "\u0645\u062f\u0631\u0633\u0629 \u0628\u0631\u062f\u0646\u0627\u0632", "name:en": "Bardanaz School", "name:ku": "\u0642\u0648\u062a\u0627\u0628\u062e\u0627\u0646\u06d5\u06cc \u0628\u06d5\u0631\u062f\u06d5\u0646\u0627\u0632", "opening_hours": "Mo-Su 08:00-17:30"}}, {"type": "node", "id": 8946602218, "lat": 36.6406327, "lon": 44.548594, "tags": {"addr:street": "Wasta Rajab", "amenity": "school", "name": "\u0642\u0648\u062a\u0627\u0628\u062e\u0627\u0646\u06d5\u06cc \u062f\u0648\u0627\u0646\u0627\u0648\u06d5\u0646\u062f\u06cc \u0686\u06d5\u067e\u06a9\u06cc \u0632\u0627\u0646\u0633\u062a\u06cc \u06a9\u0686\u0627\u0646", "name:en": "Chapk High Scinece School For Girls"}}, {"type": "node", "id": 10091985817, "lat": 36.6697079, "lon": 44.5397626, "tags": {"amenity": "school", "name:en": "Chavar High School"}}, {"type": "node", "id": 10092439419, "lat": 36.6699082, "lon": 44.5399319, "tags": {"amenity": "school", "name:en": "Kelashin Elementary School"}}, {"type": "node", "id": 10107266697, "lat": 36.6641589, "lon": 44.5490505, "tags": {"amenity": "school", "name": "\u0642\u0648\u062a\u0627\u0628\u062e\u0627\u0646\u06d5\u06cc \u0634\u0627\u06a9\u06ce\u0648\u06cc \u0628\u0646\u06d5\u0695\u06d5\u062a\u06cc \u062a\u06ce\u06a9\u06d5\u06b5\u0627\u0648", "name:en": "Shakew Primary School"}}, {"type": "node", "id": 11494602993, "lat": 36.8067576, "lon": 44.6660379}, {"type": "node", "id": 11494602994, "lat": 36.8062353, "lon": 44.6662524}, {"type": "node", "id": 11494602995, "lat": 36.8059776, "lon": 44.6651538}, {"type": "node", "id": 11494602996, "lat": 36.8065068, "lon": 44.6649628}, {"type": "node", "id": 11494611846, "lat": 36.8072593, "lon": 44.6663597}, {"type": "node", "id": 11494611847, "lat": 36.8071837, "lon": 44.6659563}, {"type": "node", "id": 11494611848, "lat": 36.8069981, "lon": 44.665907}, {"type": "node", "id": 11494611849, "lat": 36.8068126, "lon": 44.6659327}, {"type": "node", "id": 11494611850, "lat": 36.8068332, "lon": 44.666364}, {"type": "node", "id": 11494611851, "lat": 36.8068985, "lon": 44.6664284}, {"type": "node", "id": 11522986935, "lat": 36.8407488, "lon": 44.5891258, "tags": {"addr:city": "sidakan", "addr:postcode": "40001", "addr:street": "sidakan", "amenity": "school", "name": "\u0642\u0648\u062a\u0627\u0628\u062e\u0627\u0646\u06d5\u06cc \u06af\u06c6\u0695\u06d5\u067e\u06d5\u062a\u06d5\u0695\u0627\u0634"}}, {"type": "node", "id": 11522986945, "lat": 36.8976722, "lon": 44.6330067, "tags": {"amenity": "school", "name": "\u0642\u0648\u062a\u0627\u0628\u062e\u0627\u0646\u06d5\u06cc \u0633\u06d5\u0631\u0648\u0648"}}, {"type": "node", "id": 11522986946, "lat": 36.8879728, "lon": 44.6240245, "tags": {"amenity": "school", "name": "\u0642\u0648\u062a\u0627\u0628\u062e\u0627\u0646\u06d5\u06cc \u0628\u06d5\u0646\u0627\u0646"}}, {"type": "node", "id": 11522986968, "lat": 36.8656176, "lon": 44.5597352, "tags": {"amenity": "school", "name": "\u0642\u0648\u062a\u0627\u0628\u062e\u0627\u0646\u06d5\u06cc \u0646\u0632\u0627\u0631\u06cc"}}, {"type": "way", "id": 328425866, "nodes": [3352480660, 3352480663, 3352480661, 3352480662, 3352480660], "tags": {"addr:city": "\u0633\u0648\u0631\u0627\u0646", "addr:country": "IQ", "addr:district": "\u0642\u0636\u0627\u0621 \u0633\u0648\u0631\u0627\u0646", "addr:housename": "dildar school", "addr:housenumber": "DILDAR", "addr:postcode": "44008", "addr:state": "\u0645\u062d\u0627\u0641\u0638\u0629 \u0623\u0631\u0628\u064a\u0644", "addr:street": "NAHRI", "addr:subdistrict": "\u0646\u0627\u062d\u064a\u0629 \u0645\u0631\u0643\u0632 \u0642\u0636\u0627\u0621 \u0633\u0648\u0631\u0627\u0646", "amenity": "school", "name": "Dldar School", "name:ckb": "\u0642\u0648\u062a\u0627\u0628\u062e\u0627\u0646\u06d5\u06cc \u062f\u06b5\u062f\u0627\u0631"}}, {"type": "way", "id": 328431031, "nodes": [3352529760, 3352529759, 3352529758, 3352529761, 3352529760], "tags": {"amenity": "school"}}, {"type": "way", "id": 328446820, "nodes": [3352672478, 3352672475, 3352672476, 3352672477, 3352672478], "tags": {"amenity": "school", "barrier": "wall", "name": "o level school of gulan", "source": "gulan school1981"}}, {"type": "way", "id": 340428722, "nodes": [3476540901, 3476540906, 3476540902, 3476540898, 3476540896, 3476540897, 3476540895, 3476540889, 3476540891, 3476540892, 3476540894, 3476540888, 3476540893, 3476540899, 3476540900, 3476540904, 3476540901], "tags": {"amenity": "school", "grades": "1-9", "name": "\u0642\u0648\u062a\u0627\u0628\u062e\u0627\u0646\u06d5\u06cc \u0628\u0646\u0627\u0631\u06cc \u0632\u06c6\u0632\u06a9\u06cc \u06a9\u0648\u0695\u0627\u0646", "religion": "muslim"}}, {"type": "way", "id": 340428730, "nodes": [3476540549, 3476540542, 3476540520, 3476540522, 3476540549], "tags": {"amenity": "school"}}, {"type": "way", "id": 340428736, "nodes": [3476540161, 3476540158, 3476540154, 3476540155, 3476540161], "tags": {"amenity": "school"}}, {"type": "way", "id": 529537982, "nodes": [5143709124, 5143709125, 5143709126, 5143709127, 5143709128, 5143709129, 5143709124], "tags": {"amenity": "school", "building:levels": "3"}}, {"type": "way", "id": 530878274, "nodes": [5154103853, 5154103854, 5154103855, 5154103856, 5154103857, 5154103858, 5154103859, 5154103860, 5154103861, 5154103862, 5154103863, 5154103864, 5154103865, 5154103866, 5154103853], "tags": {"amenity": "school"}}, {"type": "way", "id": 531739753, "nodes": [5161292655, 5161292656, 5161292657, 5161292658, 5161292659, 5161292660, 5161292655], "tags": {"amenity": "school"}}, {"type": "way", "id": 531739754, "nodes": [5161292661, 5161292662, 5161292663, 5161292664, 5161292661], "tags": {"amenity": "school"}}, {"type": "way", "id": 531741204, "nodes": [5161303269, 5161303270, 5161303271, 5161303272, 5161303269], "tags": {"amenity": "school"}}, {"type": "way", "id": 534119930, "nodes": [5180640235, 5180640236, 5180640238, 5180640239, 5180640240, 5180640241, 5180640235], "tags": {"amenity": "school"}}, {"type": "way", "id": 652764647, "nodes": [6118843373, 6118843374, 6118843375, 6118843376, 6118843377, 6118843378, 6118843384, 6118843383, 6118843382, 6118843381, 6118843380, 6118843379, 6118843373], "tags": {"amenity": "school"}}, {"type": "way", "id": 719567982, "nodes": [6754995619, 6754995620, 6754995621, 6754995622, 6754995619], "tags": {"amenity": "school"}}, {"type": "way", "id": 1237546464, "nodes": [11494602993, 11494602994, 11494602995, 11494602996, 11494602993], "tags": {"addr:postcode": "40001", "amenity": "school", "denomination": "sunni", "grades": "7-12", "name": "\u0642\u0648\u062a\u0627\u0628\u062e\u0627\u0646\u06d5\u06cc \u062f\u0648\u0627\u0646\u0627\u0648\u06d5\u0646\u062f\u06cc \u0633\u06cc\u062f\u06d5\u06a9\u0627\u0646", "name:ckb": "\u0642\u0648\u062a\u0627\u0628\u062e\u0627\u0646\u06d5\u06cc \u062f\u0648\u0627\u0646\u0627\u0648\u06d5\u0646\u062f\u06cc \u0633\u06cc\u062f\u06d5\u06a9\u0627\u0646", "religion": "muslim"}}, {"type": "way", "id": 1237547387, "nodes": [11494611846, 11494611847, 11494611848, 11494611849, 11494611850, 11494611851, 11494611846], "tags": {"addr:city": "Sidakan", "addr:postcode": "40001", "addr:street": "Sidakan", "amenity": "school", "building": "school", "denomination": "sunni", "grades": "0-6", "name": "\u0642\u0648\u062a\u0627\u0628\u062e\u0627\u0646\u06d5\u06cc \u06af\u06c6\u0634\u06cc\u0646\u06d5", "religion": "muslim"}}]}