{"version": 0.6, "generator": "Overpass API 0.7.61.5 4133829e", "osm3s": {"timestamp_osm_base": "2024-03-05T15:10:00Z", "copyright": "The data included in this document is from www.openstreetmap.org. The data is made available under ODbL."}, "elements": [{"type": "node", "id": 27290738, "lat": 63.2138908, "lon": 22.2409464, "tags": {"name": "Bertby", "name:ru": "\u0411\u0435\u0440\u0442\u0431\u044e", "place": "village"}}, {"type": "node", "id": 27290739, "lat": 63.1304959, "lon": 22.250699, "tags": {"name": "V\u00f6r\u00e5", "name:fi": "V\u00f6yri", "name:sv": "V\u00f6r\u00e5", "place": "town", "population": "6720", "wikidata": "Q2156306", "wikipedia": "sv:V\u00f6r\u00e5"}}, {"type": "node", "id": 30969586, "lat": 63.0, "lon": 22.316667, "tags": {"alt_name": "Storkyro", "gns:ufi": "-1366778", "name": "Isokyr\u00f6", "name:fi": "Isokyr\u00f6", "name:ru": "\u0418\u0441\u043e\u043a\u044e\u0440\u0451", "name:sv": "Storkyro", "place": "town", "population": "4891", "source": "gns", "wikidata": "Q571384", "wikipedia": "fi:Isokyr\u00f6"}}, {"type": "node", "id": 30969688, "lat": 62.9761064, "lon": 22.0122155, "tags": {"gns:ufi": "-1373957", "name": "Laihia", "name:fi": "Laihia", "name:ru": "\u041b\u0430\u0439\u0445\u0438\u0430", "name:sv": "Laihela", "place": "town", "source": "gnssssLandsat", "website": "https://www.laihia.fi/"}}, {"type": "node", "id": 30969713, "lat": 62.9332091, "lon": 21.5667698, "tags": {"gns:ufi": "-1376444", "name": "Malax", "name:fi": "Maalahti", "name:ru": "\u041c\u0430\u043b\u0430\u043a\u0441", "name:sv": "Malax", "place": "town", "population": "5618", "source": "gns"}}, {"type": "node", "id": 30969813, "lat": 63.0560665, "lon": 22.1083711, "tags": {"gns:ufi": "-1390587", "name": "V\u00e4h\u00e4kyr\u00f6", "name:fi": "V\u00e4h\u00e4kyr\u00f6", "name:ru": "\u0412\u044f\u0445\u044f\u043a\u044e\u0440\u0451", "name:sv": "Lillkyro", "place": "town", "population": "4782", "source": "gns", "wikidata": "Q1542740", "wikipedia": "fi:V\u00e4h\u00e4kyr\u00f6"}}, {"type": "node", "id": 88507118, "lat": 63.0334362, "lon": 21.5478356, "tags": {"name": "Sundom", "name:fi": "Sundom", "name:ru": "\u0421\u0443\u043d\u0434\u043e\u043c", "name:sv": "Sundom", "place": "town", "population": "2530", "wikidata": "Q10683791", "wikipedia": "fi:Sundom"}}, {"type": "node", "id": 247009293, "lat": 63.1601789, "lon": 21.8371083, "tags": {"name": "Kvevlax", "name:fi": "Koivulahti", "name:ru": "\u041a\u0432\u0435\u0432\u043b\u0430\u043a\u0441", "name:sv": "Kvevlax", "place": "town"}}, {"type": "node", "id": 247479867, "lat": 63.0728054, "lon": 21.9464808, "tags": {"name": "Merikaarto", "name:fi": "Merikaarto", "name:sv": "Merikart", "place": "village", "wikidata": "Q11882111", "wikipedia": "fi:Merikaarto"}}, {"type": "node", "id": 247480149, "lat": 63.0819541, "lon": 21.9475321, "tags": {"name": "Kolkki", "place": "village"}}, {"type": "node", "id": 247480220, "lat": 63.0856801, "lon": 21.8862112, "tags": {"name": "Veikars", "name:fi": "Veikkaala", "name:ru": "\u0412\u0435\u0438\u043a\u0430\u0440\u0441", "name:sv": "Veikars", "place": "village"}}, {"type": "node", "id": 247480386, "lat": 63.0719766, "lon": 21.7641801, "tags": {"name": "H\u00f6stvesi", "name:fi": "H\u00f6stvesi", "name:sv": "H\u00f6stves", "place": "village"}}, {"type": "node", "id": 247480670, "lat": 63.0237517, "lon": 21.8167597, "tags": {"name": "Helsingby", "name:ru": "\u0425\u0435\u043b\u0441\u0438\u043d\u0433\u0431\u044e", "place": "village"}}, {"type": "node", "id": 247480738, "lat": 63.0332815, "lon": 21.8163769, "tags": {"name": "Toby", "name:fi": "Tuovila", "name:ru": "\u0422\u0443\u0431\u044e", "name:sv": "Toby", "place": "village"}}, {"type": "node", "id": 247480917, "lat": 63.0309342, "lon": 21.8674388, "tags": {"created_by": "Potlatch 0.7a", "name": "Karkmo", "name:fi": "Karkkimala", "name:sv": "Karkmo", "place": "village"}}, {"type": "node", "id": 247481031, "lat": 63.0747833, "lon": 21.8751476, "tags": {"name": "Martois", "name:fi": "Martoinen", "name:ru": "\u041c\u0430\u0440\u0442\u043e\u0438\u0441", "name:sv": "Martois", "place": "village"}}, {"type": "node", "id": 247481123, "lat": 63.1839603, "lon": 22.0091734, "tags": {"created_by": "Potlatch 0.7b", "name": "Vassor", "place": "village"}}, {"type": "node", "id": 247481223, "lat": 63.1048038, "lon": 22.2789396, "tags": {"name": "Rejpelt", "name:fi": "Rekipelto", "name:ru": "\u0420\u0435\u0439\u043f\u0435\u043b\u044c\u0442", "name:sv": "Rejpelt", "place": "village"}}, {"type": "node", "id": 247481859, "lat": 63.2532775, "lon": 22.2759928, "tags": {"name": "Kaitsor", "name:fi": "Kaitasaari", "name:sv": "Kaitsor", "place": "village"}}, {"type": "node", "id": 247482101, "lat": 63.2141342, "lon": 22.0556108, "tags": {"name": "Maxmo", "name:fi": "Maksamaa", "name:sv": "Maxmo", "place": "town", "wikidata": "Q1914328", "wikipedia": "sv:Maxmo"}}, {"type": "node", "id": 249890847, "lat": 63.0280355, "lon": 21.740288, "tags": {"name": "Vikby", "name:ru": "\u0412\u0438\u043a\u0431\u044e", "name:sv": "Vikby", "place": "village"}}, {"type": "node", "id": 251156240, "lat": 63.1536903, "lon": 21.9597002, "tags": {"name": "Kuni", "name:ru": "\u041a\u0443\u043d\u0438", "place": "village"}}, {"type": "node", "id": 251203895, "lat": 63.0130226, "lon": 21.6491188, "tags": {"name": "Solf", "name:fi": "Sulva", "name:sv": "Solf", "place": "town", "population": "2498"}}, {"type": "node", "id": 251285939, "lat": 63.2015029, "lon": 22.1160132, "tags": {"name": "K\u00e4rklax", "name:fi": "K\u00e4rkilahti", "name:sv": "K\u00e4rklax", "old_name:fi": "K\u00e4rkilaksi", "old_name:sv": "Kerklax", "place": "village"}}, {"type": "node", "id": 251286004, "lat": 63.124226, "lon": 22.0456395, "tags": {"name": "Mullola", "place": "village"}}, {"type": "node", "id": 267411775, "lat": 63.1626064, "lon": 21.6568279, "tags": {"name": "Singsby", "place": "village"}}, {"type": "node", "id": 267411779, "lat": 63.156825, "lon": 21.6918126, "tags": {"name": "Karper\u00f6", "place": "village"}}, {"type": "node", "id": 270311319, "lat": 62.9550485, "lon": 21.6925475, "tags": {"name": "L\u00e5ngmossen", "place": "village"}}, {"type": "node", "id": 277066699, "lat": 63.0157241, "lon": 21.6937815, "tags": {"name": "T\u00f6lby", "name:sv": "T\u00f6lby", "place": "village"}}, {"type": "node", "id": 277078248, "lat": 63.0327228, "lon": 21.6314763, "tags": {"name": "Munsmo", "name:sv": "Munsmo", "place": "village"}}, {"type": "node", "id": 288301867, "lat": 63.0144063, "lon": 22.2637212, "tags": {"name": "Tuurala", "place": "village"}}, {"type": "node", "id": 288711968, "lat": 63.0149651, "lon": 22.2094757, "tags": {"name": "Palhojainen", "name:ru": "\u041f\u0430\u043b\u0445\u043e\u044f\u0439\u043d\u0435\u043d", "place": "village"}}, {"type": "node", "id": 321772147, "lat": 63.1779651, "lon": 22.3980762, "tags": {"name": "Kalap\u00e4\u00e4", "name:fi": "Kalap\u00e4\u00e4", "name:sv": "Kalap\u00e4\u00e4", "place": "village", "source": "survey"}}, {"type": "node", "id": 321772148, "lat": 63.1645727, "lon": 22.3969139, "tags": {"name": "S\u00f6der\u00e4ndan", "name:fi": "S\u00f6der\u00e4ndan", "name:sv": "S\u00f6der\u00e4ndan", "place": "hamlet", "source": "survey"}}, {"type": "node", "id": 321772150, "lat": 63.1512663, "lon": 22.2676732, "tags": {"name": "R\u00f6ki\u00f6", "name:fi": "R\u00f6ki\u00f6", "name:sv": "R\u00f6ki\u00f6", "place": "village", "source": "survey"}}, {"type": "node", "id": 321772151, "lat": 63.1367966, "lon": 22.3135808, "tags": {"name": "Bjurb\u00e4cken", "name:fi": "Bjurb\u00e4cken", "name:sv": "Bjurb\u00e4cken", "place": "hamlet", "source": "survey"}}, {"type": "node", "id": 322016190, "lat": 63.125345, "lon": 22.2365203, "tags": {"name": "Paulam\u00e4ki", "name:fi": "Paulam\u00e4ki", "name:sv": "Paulam\u00e4ki", "place": "hamlet", "source": "knowledge"}}, {"type": "node", "id": 563859290, "lat": 63.0019615, "lon": 21.9364043, "tags": {"name": "Tulisaari", "place": "village"}}, {"type": "node", "id": 563859388, "lat": 62.9959994, "lon": 21.9064494, "tags": {"name": "Ruto", "place": "village"}}, {"type": "node", "id": 563859907, "lat": 62.9985324, "lon": 21.9674751, "tags": {"name": "Potila", "place": "village"}}, {"type": "node", "id": 563860100, "lat": 62.9905039, "lon": 21.9618102, "tags": {"name": "Hulmi", "place": "village"}}, {"type": "node", "id": 563860306, "lat": 62.9864108, "lon": 21.9667884, "tags": {"name": "Kuppaala", "place": "village"}}, {"type": "node", "id": 563861405, "lat": 62.9813034, "lon": 21.991851, "tags": {"name": "Yrj\u00e4\u00e4l\u00e4", "name:ru": "\u042e\u0440\u044f\u0430\u043b\u044f", "place": "village"}}, {"type": "node", "id": 563861937, "lat": 62.9714759, "lon": 21.9871303, "tags": {"name": "Santaloukko", "place": "village"}}, {"type": "node", "id": 563862256, "lat": 62.9387329, "lon": 21.8790694, "tags": {"name": "Tyllijoki", "place": "village"}}, {"type": "node", "id": 563862434, "lat": 62.9373662, "lon": 21.9314262, "tags": {"name": "P\u00e4kki", "place": "village"}}, {"type": "node", "id": 563862663, "lat": 62.9423251, "lon": 21.9691058, "tags": {"name": "Aronkyl\u00e4", "name:ru": "\u0410\u0440\u043e\u043d\u043a\u044e\u043b\u044f", "place": "village"}}, {"type": "node", "id": 563863836, "lat": 62.8653479, "lon": 21.8678256, "tags": {"name": "Poola", "place": "village"}}, {"type": "node", "id": 563864602, "lat": 62.8501162, "lon": 22.1318408, "tags": {"name": "Jokisalo", "place": "village"}}, {"type": "node", "id": 563864715, "lat": 62.8677357, "lon": 22.1848842, "tags": {"name": "Jokikyl\u00e4", "place": "village"}}, {"type": "node", "id": 563865074, "lat": 62.8541109, "lon": 22.2226497, "tags": {"name": "Kasinkyl\u00e4", "place": "village"}}, {"type": "node", "id": 563866502, "lat": 62.8989941, "lon": 22.0691844, "tags": {"name": "Kyl\u00e4np\u00e4\u00e4", "place": "village"}}, {"type": "node", "id": 563867668, "lat": 62.9054451, "lon": 22.0479842, "tags": {"name": "Keskikyl\u00e4", "place": "village"}}, {"type": "node", "id": 563867903, "lat": 62.9179911, "lon": 22.0776817, "tags": {"name": "Torstila", "place": "village"}}, {"type": "node", "id": 563868089, "lat": 62.9165843, "lon": 22.0578548, "tags": {"name": "Pukkala", "place": "village"}}, {"type": "node", "id": 563868379, "lat": 62.9325868, "lon": 22.052485, "tags": {"name": "Isokyl\u00e4", "place": "village"}}, {"type": "node", "id": 563868619, "lat": 62.9471661, "lon": 22.0541641, "tags": {"name": "K\u00e4ypp\u00e4l\u00e4", "place": "village"}}, {"type": "node", "id": 563869290, "lat": 62.9435355, "lon": 22.1546718, "tags": {"name": "Allinen", "name:ru": "\u0410\u043b\u043b\u0438\u043d\u0435\u043d", "place": "village"}}, {"type": "node", "id": 563869619, "lat": 62.9471661, "lon": 22.0433494, "tags": {"name": "Miettyll\u00e4", "place": "village"}}, {"type": "node", "id": 563869711, "lat": 62.9569627, "lon": 22.029874, "tags": {"name": "Kumaala", "place": "village"}}, {"type": "node", "id": 563869874, "lat": 62.9684334, "lon": 22.0268699, "tags": {"name": "Lyyskil\u00e4", "place": "village"}}, {"type": "node", "id": 563869995, "lat": 62.9603186, "lon": 22.0523616, "tags": {"name": "Suorttila", "place": "village"}}, {"type": "node", "id": 563870300, "lat": 62.9648835, "lon": 22.0407745, "tags": {"name": "Per\u00e4l\u00e4", "place": "village"}}, {"type": "node", "id": 563870506, "lat": 62.9900361, "lon": 22.061288, "tags": {"name": "Vedenoja", "name:ru": "\u0412\u0435\u0434\u0435\u043d\u043e\u044f", "place": "village"}}, {"type": "node", "id": 563871214, "lat": 62.9851243, "lon": 21.9931384, "tags": {"name": "Maunula", "place": "village"}}, {"type": "node", "id": 563881482, "lat": 62.935795, "lon": 22.0662822, "tags": {"name": "Jakkula", "place": "village"}}, {"type": "node", "id": 563883510, "lat": 63.0054636, "lon": 22.140901, "tags": {"name": "Tervajoki", "name:fi": "Tervajoki", "place": "town", "population": "1027", "wikidata": "Q11896999", "wikipedia": "fi:Tervajoki"}}, {"type": "node", "id": 563883591, "lat": 63.0075674, "lon": 22.1489261, "tags": {"name": "Hiiripelto", "place": "village"}}, {"type": "node", "id": 563883670, "lat": 62.9981969, "lon": 22.1618007, "tags": {"name": "Peippoonen", "place": "village"}}, {"type": "node", "id": 563884144, "lat": 63.0162533, "lon": 22.1181558, "tags": {"name": "Kuuttila", "name:ru": "\u041a\u0443\u0443\u0442\u0442\u0438\u043b\u0430", "place": "village"}}, {"type": "node", "id": 563884589, "lat": 63.0513991, "lon": 22.128713, "tags": {"name": "Selk\u00e4m\u00e4ki", "place": "village"}}, {"type": "node", "id": 563887149, "lat": 63.040817, "lon": 22.1131776, "tags": {"name": "Krekil\u00e4", "name:sv": "Greggil\u00e4", "place": "village"}}, {"type": "node", "id": 563887818, "lat": 63.0649067, "lon": 22.0261824, "tags": {"name": "Torkkola", "place": "village"}}, {"type": "node", "id": 563890576, "lat": 62.9340229, "lon": 22.2051023, "tags": {"name": "Naarajoki", "place": "village"}}, {"type": "node", "id": 563891083, "lat": 62.9716471, "lon": 22.3504995, "tags": {"name": "Napue", "name:fi": "Napue", "name:sv": "Napo", "place": "village"}}, {"type": "node", "id": 564005854, "lat": 62.8953624, "lon": 21.9580065, "tags": {"name": "Peltomaa", "place": "village"}}, {"type": "node", "id": 842385403, "lat": 63.1857256, "lon": 21.7257919, "tags": {"name": "Kosk\u00f6", "place": "village"}}, {"type": "node", "id": 1026928424, "lat": 63.1157992, "lon": 21.6188039, "tags": {"name": "Pukinkulma", "name:da": "Bockska h\u00f6rnet", "name:is": "Bockska h\u00f6rnet", "name:nn": "Bockska h\u00f6rnet", "name:no": "Bockska h\u00f6rnet", "name:sv": "Bockska h\u00f6rnet", "place": "hamlet", "source": "knowledge"}}, {"type": "node", "id": 1495390269, "lat": 63.211139, "lon": 22.1712752, "tags": {"name": "Palvis", "name:fi": "Palvis", "name:sv": "Palvis", "place": "village"}}, {"type": "node", "id": 1501759038, "lat": 63.1748727, "lon": 22.2044288, "tags": {"name": "Lotlax", "name:fi": "Lotlahti", "name:sv": "Lotlax", "place": "village", "source": "survey"}}, {"type": "node", "id": 1501759054, "lat": 63.1944279, "lon": 22.2893583, "tags": {"name": "Tuckur", "name:sv": "Tuckur", "place": "village", "source": "knowledge"}}, {"type": "node", "id": 1501765306, "lat": 63.129341, "lon": 22.2635783, "tags": {"name": "Tunis", "name:sv": "Tunis", "place": "hamlet"}}, {"type": "node", "id": 1506519459, "lat": 63.2176416, "lon": 22.4153534, "tags": {"name": "Kuckus", "name:sv": "Kuckus", "place": "village", "source": "knowledge"}}, {"type": "node", "id": 1560332793, "lat": 63.129753, "lon": 22.2802373, "tags": {"name": "Ojasen", "place": "hamlet", "source": "knowledge"}}, {"type": "node", "id": 1637607582, "lat": 63.0957722, "lon": 21.6159187, "tags": {"capital": "4", "gns:ufi": "-1390532", "name": "Vaasa", "name:be": "\u0412\u0430\u0301\u0441\u0430", "name:fi": "Vaasa", "name:lt": "Vasa", "name:no": "Vasa", "name:ru": "\u0412\u0430\u0430\u0441\u0430", "name:sr": "\u0412\u0430\u0441\u0430", "name:sv": "Vasa", "name:uk": "\u0412\u0430\u0430\u0441\u0430", "name:vep": "Vas", "place": "city", "population": "67486", "population:date": "2021-01", "postal_code": "65100", "source": "gns", "source:population": "Tilastokeskus", "url": "www.vaasa.fi", "wikidata": "Q125080", "wikipedia": "fi:Vaasa"}}, {"type": "node", "id": 1637700174, "lat": 63.1040492, "lon": 21.8853152, "tags": {"name": "Voitby", "name:ru": "\u0412\u043e\u0438\u0442\u0431\u044e", "place": "village", "source": "survey"}}, {"type": "node", "id": 1638837663, "lat": 63.0548022, "lon": 21.5972689, "tags": {"name": "N\u00e4set", "place": "village", "source": "knowledge"}}, {"type": "node", "id": 1668137014, "lat": 63.1247621, "lon": 21.6941345, "tags": {"gns:ufi": "-1371990", "name": "Korsholm", "name:be": "\u041a\u043e\u0440\u0441\u0433\u043e\u043b\u044c\u043c", "name:fi": "Mustasaari", "name:ru": "\u041a\u043e\u0440\u0441\u0433\u043e\u043b\u044c\u043c", "name:sv": "Korsholm", "place": "town", "population": "19477", "population:date": "2021-01", "source": "gns", "source:population": "Tilastokeskus", "wikidata": "Q1784789"}}, {"type": "node", "id": 2061784558, "lat": 63.0699791, "lon": 21.9372544, "tags": {"name": "Holttila", "place": "hamlet", "source": "MML2012"}}, {"type": "node", "id": 2061801267, "lat": 63.0628922, "lon": 21.9729138, "tags": {"name": "Sausolannurkka", "place": "hamlet", "source": "MML2012"}}, {"type": "node", "id": 2061802392, "lat": 63.0703946, "lon": 21.9646268, "tags": {"name": "Alainenp\u00e4\u00e4", "place": "hamlet", "source": "MML2012"}}, {"type": "node", "id": 2061834660, "lat": 63.0701934, "lon": 21.9198533, "tags": {"name": "V\u00e4h\u00e4joki", "place": "hamlet", "source": "MML2012"}}, {"type": "node", "id": 2061862334, "lat": 63.065957, "lon": 22.07649, "tags": {"name": "Rintakyl\u00e4", "place": "hamlet", "source": "MML2012"}}, {"type": "node", "id": 2061862337, "lat": 63.0645855, "lon": 22.0944887, "tags": {"name": "Hyyri\u00e4", "place": "village", "source": "MML2012"}}, {"type": "node", "id": 2255172723, "lat": 63.2052789, "lon": 21.5226212, "tags": {"name": "Alskat", "place": "village"}}, {"type": "node", "id": 2255172728, "lat": 63.1932002, "lon": 21.5600696, "tags": {"name": "Gr\u00f6nvik", "place": "village"}}, {"type": "node", "id": 2255172734, "lat": 63.2026177, "lon": 21.6034668, "tags": {"name": "Iskmo", "place": "village"}}, {"type": "node", "id": 2421866777, "lat": 63.1269847, "lon": 22.2503019, "tags": {"name": "Koskeby", "name:fi": "Koskenkyl\u00e4", "name:sv": "Koskeby", "place": "village"}}, {"type": "node", "id": 2493721365, "lat": 62.8933954, "lon": 21.727481, "tags": {"name": "L\u00e5ng\u00e5minne", "place": "village"}}, {"type": "node", "id": 2493722816, "lat": 62.9197403, "lon": 21.627608, "tags": {"name": "\u00d6vermalax", "place": "village", "postal_code": "66140", "website": "https://www.malax.fi/"}}, {"type": "node", "id": 2493729608, "lat": 62.9439724, "lon": 21.5498357, "tags": {"name": "K\u00f6pings", "place": "village"}}, {"type": "node", "id": 2493729609, "lat": 62.8897221, "lon": 21.7881997, "tags": {"name": "Nikkari", "place": "village"}}, {"type": "node", "id": 2493730108, "lat": 62.9657681, "lon": 21.4952863, "tags": {"name": "\u00c5minne", "place": "village"}}, {"type": "node", "id": 2535293024, "lat": 63.0562768, "lon": 21.5233799, "tags": {"name": "Kronvik", "place": "village"}}, {"type": "node", "id": 2600506069, "lat": 63.220743, "lon": 21.789304, "tags": {"name": "Petsmo", "place": "village"}}, {"type": "node", "id": 2600514595, "lat": 63.218235, "lon": 21.8476295, "tags": {"name": "V\u00e4sterhankmo", "place": "village"}}, {"type": "node", "id": 2600514659, "lat": 63.2302403, "lon": 21.9286445, "tags": {"name": "\u00d6sterhankmo", "place": "village"}}, {"type": "node", "id": 2661089945, "lat": 63.0328415, "lon": 21.8264131, "tags": {"name": "Hagn\u00e4sbacken", "place": "hamlet", "source": "nls.fi"}}, {"type": "node", "id": 2661089948, "lat": 63.0254854, "lon": 21.8257361, "tags": {"name": "Holmbacken", "place": "hamlet", "source": "nls.fi"}}, {"type": "node", "id": 2661089952, "lat": 63.0178943, "lon": 21.8164494, "tags": {"name": "Kantbacken", "place": "hamlet", "source": "nls.fi"}}, {"type": "node", "id": 2661089955, "lat": 63.0225852, "lon": 21.8178235, "tags": {"name": "Kullen", "place": "hamlet", "source": "nls.fi"}}, {"type": "node", "id": 2661089959, "lat": 63.033085, "lon": 21.7767047, "tags": {"name": "Marasbacken", "place": "hamlet", "source": "nls.fi"}}, {"type": "node", "id": 2661089963, "lat": 63.0210919, "lon": 21.8262425, "tags": {"name": "Nyg\u00e5rdsbacken", "place": "hamlet", "source": "nls.fi"}}, {"type": "node", "id": 2661089966, "lat": 63.0239469, "lon": 21.8071786, "tags": {"name": "Sand\u00e5sbacken", "place": "hamlet", "source": "nls.fi"}}, {"type": "node", "id": 2661089969, "lat": 63.0318438, "lon": 21.8095685, "tags": {"name": "Skurasbacken", "place": "hamlet", "source": "nls.fi"}}, {"type": "node", "id": 2661089972, "lat": 63.0291694, "lon": 21.8236523, "tags": {"name": "Smedisbacken", "place": "hamlet", "source": "nls.fi"}}, {"type": "node", "id": 2661089975, "lat": 63.0250164, "lon": 21.8152281, "tags": {"name": "Stegarsbacken", "place": "hamlet", "source": "nls.fi"}}, {"type": "node", "id": 2661089978, "lat": 63.0340789, "lon": 21.81323, "tags": {"name": "Stenisbacken", "place": "hamlet", "source": "nls.fi"}}, {"type": "node", "id": 2661089982, "lat": 63.0277116, "lon": 21.8216537, "tags": {"name": "Stor\u00e5kersbacken", "place": "hamlet", "source": "nls.fi"}}, {"type": "node", "id": 2661089988, "lat": 63.0327287, "lon": 21.8023663, "tags": {"name": "\u00c5kern\u00e4sbacken", "place": "hamlet", "source": "nls.fi"}}, {"type": "node", "id": 2661094153, "lat": 63.0674457, "lon": 21.7759268, "tags": {"name": "Sabelsbacken", "place": "hamlet", "source": "nls.fi"}}, {"type": "node", "id": 2661114673, "lat": 63.0443252, "lon": 21.6752749, "tags": {"name": "Bolot", "place": "hamlet", "source": "nls.fi"}}, {"type": "node", "id": 2661114682, "lat": 63.0666745, "lon": 21.6563698, "tags": {"name": "Pikisaaret", "name:fi": "Pikisaaret", "name:sv": "Beckbruksholmarna", "place": "hamlet", "source": "nls.fi"}}, {"type": "node", "id": 2661120519, "lat": 63.1403561, "lon": 21.6472659, "tags": {"name": "Maraholmen", "name:sv": "Maraholmen", "place": "hamlet", "source": "nls.fi"}}, {"type": "node", "id": 2661120527, "lat": 63.1240221, "lon": 21.5729603, "tags": {"name": "Passk\u00e4ret", "place": "hamlet", "source": "nls.fi"}}, {"type": "node", "id": 2661120540, "lat": 63.1326627, "lon": 21.6790838, "tags": {"name": "Skr\u00e4ddarisback", "place": "hamlet", "source": "nls.fi"}}, {"type": "node", "id": 2661130485, "lat": 63.1297389, "lon": 21.6946903, "tags": {"name": "\u00d6n", "place": "hamlet", "source": "nls.fi"}}, {"type": "node", "id": 3094289278, "lat": 63.2799522, "lon": 21.671347, "tags": {"name": "K\u00f6klot", "name:fi": "Kaukaluoto", "name:sv": "K\u00f6klot", "place": "village"}}, {"type": "node", "id": 3232799450, "lat": 63.2715464, "lon": 22.1258139, "tags": {"name": "Kvimo", "place": "village"}}, {"type": "node", "id": 3293034382, "lat": 63.0434174, "lon": 21.6258592, "tags": {"name": "Holmen", "place": "hamlet"}}, {"type": "node", "id": 3293079161, "lat": 63.047989, "lon": 21.5394535, "tags": {"name": "V\u00e4stergr\u00e4nden", "place": "hamlet"}}, {"type": "node", "id": 4706253672, "lat": 63.186044, "lon": 21.6309644, "tags": {"name": "Jungsund", "name:sv": "Jungsund", "place": "village"}}, {"type": "node", "id": 10148002670, "lat": 62.9071816, "lon": 21.6431522, "tags": {"name": "Kopparbacken", "place": "village"}}, {"type": "node", "id": 10149213038, "lat": 62.9187672, "lon": 21.6401109, "tags": {"name": "Paxal", "place": "village"}}, {"type": "node", "id": 10152959070, "lat": 62.9526075, "lon": 21.5625849, "tags": {"name": "Klockarbacken", "place": "village"}}, {"type": "node", "id": 10152959071, "lat": 62.9343448, "lon": 21.5426527, "tags": {"name": "Kopparby", "place": "hamlet"}}, {"type": "node", "id": 10152959072, "lat": 62.9334747, "lon": 21.5796456, "tags": {"name": "Mattlars", "place": "village"}}]}