{"version": 0.6, "generator": "Overpass API 0.7.61.5 4133829e", "osm3s": {"timestamp_osm_base": "2024-03-05T14:54:41Z", "copyright": "The data included in this document is from www.openstreetmap.org. The data is made available under ODbL."}, "elements": [{"type": "node", "id": 2078834992, "lat": 59.8365429, "lon": 13.1442756, "tags": {"addr:city": "Sunne", "addr:housenumber": "17", "addr:postcode": "686 30", "addr:street": "Kvarngatan", "amenity": "pharmacy", "brand": "Apoteket", "brand:wikidata": "Q1785637", "healthcare": "pharmacy", "name": "Apoteket", "source": "survey", "website:stock": "https://www.fass.se/"}}, {"type": "node", "id": 2785917267, "lat": 59.8436503, "lon": 13.1409595}, {"type": "node", "id": 2785917270, "lat": 59.8436729, "lon": 13.1419214}, {"type": "node", "id": 2785917366, "lat": 59.8437063, "lon": 13.1406022}, {"type": "node", "id": 2785917457, "lat": 59.8438084, "lon": 13.1410577}, {"type": "node", "id": 2785917541, "lat": 59.8438501, "lon": 13.1418267}, {"type": "node", "id": 2785917568, "lat": 59.8438692, "lon": 13.1407034}, {"type": "node", "id": 2785917664, "lat": 59.8440969, "lon": 13.1411283}, {"type": "node", "id": 2785917683, "lat": 59.8439764, "lon": 13.140234}, {"type": "node", "id": 2785917689, "lat": 59.843993, "lon": 13.1407733}, {"type": "node", "id": 2785917739, "lat": 59.8440556, "lon": 13.1422271}, {"type": "node", "id": 2785917782, "lat": 59.8440799, "lon": 13.1402984}, {"type": "node", "id": 2785917786, "lat": 59.8440945, "lon": 13.1419786}, {"type": "node", "id": 2785918021, "lat": 59.8443557, "lon": 13.1405954}, {"type": "node", "id": 2785918124, "lat": 59.8444358, "lon": 13.1400842}, {"type": "node", "id": 2785918204, "lat": 59.8444862, "lon": 13.1400454}, {"type": "node", "id": 2785918250, "lat": 59.8445259, "lon": 13.1397924}, {"type": "node", "id": 2785918275, "lat": 59.8445477, "lon": 13.1403925}, {"type": "node", "id": 2785918278, "lat": 59.8445598, "lon": 13.1416075}, {"type": "node", "id": 2785918312, "lat": 59.8445818, "lon": 13.1401749}, {"type": "node", "id": 2785918316, "lat": 59.8445944, "lon": 13.1413868}, {"type": "node", "id": 2785918375, "lat": 59.8446251, "lon": 13.1411939}, {"type": "node", "id": 2785918404, "lat": 59.8446825, "lon": 13.1416837}, {"type": "node", "id": 2785918426, "lat": 59.8446802, "lon": 13.1408421}, {"type": "node", "id": 2785918440, "lat": 59.8447131, "lon": 13.1414887}, {"type": "node", "id": 2785918451, "lat": 59.8447074, "lon": 13.1405277}, {"type": "node", "id": 2785918470, "lat": 59.8447268, "lon": 13.141139}, {"type": "node", "id": 2785918495, "lat": 59.8447567, "lon": 13.1402135}, {"type": "node", "id": 2785918516, "lat": 59.8447717, "lon": 13.1408524}, {"type": "node", "id": 2785918520, "lat": 59.8448072, "lon": 13.1405586}, {"type": "node", "id": 2785918562, "lat": 59.8448583, "lon": 13.1402327}, {"type": "node", "id": 2785918582, "lat": 59.8449038, "lon": 13.1412491}, {"type": "node", "id": 2785918624, "lat": 59.8449391, "lon": 13.1410243}, {"type": "node", "id": 2785918646, "lat": 59.8449669, "lon": 13.1406206}, {"type": "node", "id": 2785918671, "lat": 59.8450106, "lon": 13.1416194}, {"type": "node", "id": 2785918687, "lat": 59.8450013, "lon": 13.1404015}, {"type": "node", "id": 2785918767, "lat": 59.8450893, "lon": 13.1411177}, {"type": "node", "id": 2785918777, "lat": 59.8450789, "lon": 13.1409945}, {"type": "node", "id": 2785918802, "lat": 59.8451273, "lon": 13.1403999}, {"type": "node", "id": 2785918854, "lat": 59.8451683, "lon": 13.1401387}, {"type": "node", "id": 2785918856, "lat": 59.8451567, "lon": 13.1404981}, {"type": "node", "id": 2942587712, "lat": 59.5280228, "lon": 13.4845444, "tags": {"amenity": "clinic", "healthcare": "clinic", "name": "Forshaga v\u00e5rdcentral", "opening_hours": "Mo-Fr 08:00-17:00", "operator": "Region V\u00e4rmland", "phone": "+46108318900", "wheelchair": "yes"}}, {"type": "node", "id": 2979923926, "lat": 59.8444513, "lon": 13.1413485}, {"type": "node", "id": 2979923927, "lat": 59.8444585, "lon": 13.1413024}, {"type": "node", "id": 2979923928, "lat": 59.8447843, "lon": 13.1399}, {"type": "node", "id": 2979923929, "lat": 59.8441354, "lon": 13.140907}, {"type": "node", "id": 2979923930, "lat": 59.843759, "lon": 13.1420428}, {"type": "node", "id": 2979923931, "lat": 59.844494, "lon": 13.1411124}, {"type": "node", "id": 2979923932, "lat": 59.8437687, "lon": 13.141981}, {"type": "node", "id": 2979926933, "lat": 59.8449381, "lon": 13.1415744}, {"type": "node", "id": 2979926934, "lat": 59.8439588, "lon": 13.1411334}, {"type": "node", "id": 2979926935, "lat": 59.8447767, "lon": 13.1399483}, {"type": "node", "id": 2979926936, "lat": 59.8444018, "lon": 13.1410726}, {"type": "node", "id": 2979926937, "lat": 59.8445016, "lon": 13.1410637}, {"type": "node", "id": 2979926938, "lat": 59.8441418, "lon": 13.1408658}, {"type": "node", "id": 2979926939, "lat": 59.8440839, "lon": 13.1412111}, {"type": "node", "id": 2979926940, "lat": 59.8444119, "lon": 13.141008}, {"type": "node", "id": 2979926941, "lat": 59.8449303, "lon": 13.1416237}, {"type": "node", "id": 2981502167, "lat": 59.8438916, "lon": 13.14056}, {"type": "node", "id": 2981502168, "lat": 59.8439223, "lon": 13.1405791}, {"type": "node", "id": 2981502169, "lat": 59.8440158, "lon": 13.1406279}, {"type": "node", "id": 2981502170, "lat": 59.8440271, "lon": 13.140635}, {"type": "node", "id": 2981502171, "lat": 59.84442, "lon": 13.1406804}, {"type": "node", "id": 2981502172, "lat": 59.8444264, "lon": 13.1406394}, {"type": "node", "id": 2981502173, "lat": 59.8446098, "lon": 13.140467}, {"type": "node", "id": 2981502174, "lat": 59.8446149, "lon": 13.1404343}, {"type": "node", "id": 2981502175, "lat": 59.8449055, "lon": 13.1406197}, {"type": "node", "id": 2981502176, "lat": 59.8449108, "lon": 13.1405857}, {"type": "node", "id": 2981502177, "lat": 59.845006, "lon": 13.140998}, {"type": "node", "id": 2981502178, "lat": 59.845013, "lon": 13.1409535}, {"type": "node", "id": 3850093557, "lat": 59.8319955, "lon": 13.5431301, "tags": {"addr:city": "Munkfors", "addr:country": "SE", "addr:housenumber": "6", "addr:postcode": "68430", "addr:street": "Tall\u00e5sv\u00e4gen", "amenity": "clinic", "name": "V\u00e5rdcentralen Munkfors"}}, {"type": "node", "id": 3873400045, "lat": 59.8356268, "lon": 13.5436191, "tags": {"addr:city": "Munkfors", "addr:country": "SE", "addr:housenumber": "2B", "addr:postcode": "68430", "addr:street": "Torget", "amenity": "pharmacy", "app:apple": "https://itunes.apple.com/se/app/apotek-hj%C3%A4rtat-n%C3%A4ra-dig/id1150817089", "app:google": "https://play.google.com/store/apps/details?id=com.presencekit.apotek.se&hl=en_US", "brand": "Apotek Hj\u00e4rtat", "name": "Apotek Hj\u00e4rtat", "operator": "Apotek Hj\u00e4rtat Retail AB", "owner": "ICA Gruppen AB", "ownership": "private", "phone": "+46771405405", "website": "https://www.apotekhjartat.se/hitta-apotek-hjartat/varmland/apotek_hjartat_torget_2_b_munkfors/", "website:stock": "https://www.fass.se/"}}, {"type": "node", "id": 5018211924, "lat": 59.599322, "lon": 13.7220863, "tags": {"addr:country": "SE", "addr:housenumber": "3A", "addr:street": "Skolgatan", "amenity": "pharmacy", "brand": "Apoteksgruppen", "brand:wikidata": "Q10416129", "brand:wikipedia": "sv:Apoteksgruppen", "dispensing": "yes", "drive_through": "no", "healthcare": "pharmacy", "name": "Apoteksgruppen", "name:sv": "Apoteksgruppen", "opening_hours": "Mo-Fr 09:00-12:30,13:30-17:30", "website": "https://www.apoteksgruppen.se/apotek/molkom/apoteksgruppen-molkom-skolgatan/", "website:stock": "https://www.fass.se/"}}, {"type": "node", "id": 6151296974, "lat": 59.5322948, "lon": 13.480371, "tags": {"amenity": "pharmacy", "dispensing": "yes", "healthcare": "pharmacy", "name": "Apotek"}}, {"type": "node", "id": 9297262297, "lat": 59.5994293, "lon": 13.7216554, "tags": {"addr:city": "Molkom", "addr:country": "SE", "addr:housenumber": "3A", "addr:postcode": "65560", "addr:street": "Skolgatan", "amenity": "clinic", "healthcare": "clinic", "healthcare:speciality": "general", "name": "V\u00e5rdcentralen Molkom", "opening_hours": "Mo-Fr 08:00-12:00,13:00-16:00", "operator": "Region V\u00e4rmland", "operator:type": "government", "phone": "010-8341900", "website": "https://www.1177.se/Varmland/hitta-vard/kontaktkort/Vardcentralen-Molkom/"}}, {"type": "node", "id": 9297262298, "lat": 59.5993438, "lon": 13.7216125, "tags": {"addr:city": "Molkom", "addr:country": "SE", "addr:housenumber": "3A", "addr:postcode": "65560", "addr:street": "Skolgatan", "amenity": "clinic", "healthcare": "clinic", "healthcare:speciality": "paediatrics", "name": "Barnav\u00e5rdscentralen Molkom", "operator": "Region V\u00e4rmland", "operator:type": "government", "phone": "010-8341906", "website": "https://www.1177.se/Varmland/hitta-vard/kontaktkort/Barnavardscentralen-vardcentralen-Molkom/"}}, {"type": "node", "id": 11261450690, "lat": 59.8437234, "lon": 13.1407631, "tags": {"addr:city": "Sunne", "addr:housenumber": "12", "addr:postcode": "686 31", "addr:street": "\u00c5mbergsv\u00e4gen", "amenity": "clinic", "healthcare": "clinic", "name": "Sunne V\u00e5rdcentral"}}, {"type": "way", "id": 273773298, "nodes": [2785918854, 2979923928, 2979926935, 2785918250, 2785918204, 2785918495, 2785918451, 2981502173, 2981502174, 2785918275, 2785918312, 2785918124, 2785918021, 2981502172, 2981502171, 2785918426, 2785918375, 2979923931, 2979926937, 2979926940, 2979926936, 2979923929, 2979926938, 2785917689, 2981502169, 2981502170, 2785917782, 2785917683, 2981502168, 2981502167, 2785917568, 2785917366, 2785917267, 2785917457, 2785917270, 2979923932, 2979923930, 2785917739, 2785917786, 2785917541, 2979926934, 2979926939, 2785917664, 2979923926, 2979923927, 2785918316, 2785918278, 2785918404, 2785918440, 2979926941, 2979926933, 2785918671, 2785918767, 2785918624, 2785918582, 2785918470, 2785918516, 2981502177, 2981502178, 2785918777, 2785918856, 2785918687, 2785918646, 2981502176, 2981502175, 2785918520, 2785918562, 2785918802, 2785918854], "tags": {"amenity": "clinic", "building": "public", "name": "Sunne v\u00e5rdcentral"}}]}