{"version": 0.6, "generator": "Overpass API 0.7.61.5 4133829e", "osm3s": {"timestamp_osm_base": "2024-03-06T10:47:03Z", "copyright": "The data included in this document is from www.openstreetmap.org. The data is made available under ODbL."}, "elements": [{"type": "node", "id": 5082533923, "lat": 31.7158978, "lon": 46.11044, "tags": {"amenity": "college"}}, {"type": "node", "id": 6224848189, "lat": 31.712639, "lon": 46.1117219, "tags": {"addr:street": "\u064a\u0627\u0633", "amenity": "college", "name": "\u0643\u0644\u064a\u0629 \u0627\u0644\u062a\u0631\u0628\u064a\u0629 \u0627\u0644\u0627\u0633\u0627\u0633\u064a\u0629", "name:ar": "\u0643\u0644\u064a\u0629 \u0627\u0644\u062a\u0631\u0628\u064a\u0629 \u0627\u0644\u0623\u0633\u0627\u0633\u064a\u0629/\u062c\u0627\u0645\u0639\u0629 \u0633\u0648\u0645\u0631", "opening_hours": "Su-Th 08:30-14:00"}}, {"type": "node", "id": 8228934917, "lat": 31.7108348, "lon": 46.1118829, "tags": {"amenity": "college", "name": "\u062c\u0627\u0645\u0639\u0629 \u0633\u0648\u0645\u0631/ \u0643\u0644\u064a\u0629 \u0627\u0644\u062a\u0631\u0628\u064a\u0629 \u0627\u0644\u0623\u0633\u0627\u0633\u064a\u0629", "name:ar": "\u0645\u062f\u0631\u0633\u0629 \u0627\u0644\u0648\u0631\u0648\u062f", "opening_hours": "Su-Th 08:00-17:00"}}, {"type": "node", "id": 8329752317, "lat": 31.7225253, "lon": 46.1119474, "tags": {"amenity": "college", "name": "\u062c\u0627\u0645\u0639\u0629 \u0633\u0648\u0645\u0631 \u0643\u0644\u064a\u0629 \u0627\u0644\u0637\u0628"}}]}