{"version": 0.6, "generator": "Overpass API 0.7.61.5 4133829e", "osm3s": {"timestamp_osm_base": "2024-03-06T11:10:29Z", "copyright": "The data included in this document is from www.openstreetmap.org. The data is made available under ODbL."}, "elements": [{"type": "node", "id": 4574058887, "lat": 31.4152959, "lon": 46.1780321, "tags": {"amenity": "hospital", "name": "\u0645\u0631\u0643\u0632 \u0627\u0644\u0631\u0639\u0627\u064a\u0629 \u0627\u0644\u0635\u062d\u064a\u0629  \u0641\u064a \u0627\u0644\u0641\u062a\u0627\u062d\u064a\u0629", "name:en": "Al-Fatahiya health care center"}}, {"type": "node", "id": 4574058888, "lat": 31.4060134, "lon": 46.1759266, "tags": {"amenity": "hospital", "name": "\u0645\u0631\u0643\u0632 \u0627\u0644\u0642\u062f\u0633 \u0644\u0644\u0631\u0639\u0627\u064a\u0629 \u0627\u0644\u0635\u062d\u064a\u0629", "name:en": "Al-Quddes Health Care Center"}}, {"type": "node", "id": 4574060989, "lat": 31.4019568, "lon": 46.1559763, "tags": {"amenity": "hospital", "healthcare": "hospital", "name": "\u0645\u0631\u0643\u0632 \u0627\u0644\u0632\u0647\u0648\u0631 \u0644\u0644\u0631\u0639\u0627\u064a\u0629 \u0627\u0644\u0635\u062d\u064a\u0629", "name:en": "Al-Zohour Health Care Center"}}, {"type": "node", "id": 4574060990, "lat": 31.4026905, "lon": 46.1684406, "tags": {"amenity": "hospital", "name": "\u0645\u0631\u0643\u0632 \u062d\u064a \u0627\u0644\u0645\u0639\u0644\u0645\u064a\u0646 \u0644\u0644\u0631\u0639\u0627\u064a\u0629 \u0627\u0644\u0635\u062d\u064a\u0629"}}, {"type": "node", "id": 4574060991, "lat": 31.3958749, "lon": 46.1753982, "tags": {"amenity": "hospital", "name": "\u0645\u0631\u0643\u0632 \u0627\u0644\u0632\u0647\u0648\u0631 \u0644\u0644\u0631\u0639\u0627\u064a\u0629 \u0627\u0644\u0635\u062d\u064a\u0629", "name:en": "Al-Zohour Health Care Center"}}, {"type": "node", "id": 4574060992, "lat": 31.4066924, "lon": 46.1611369, "tags": {"amenity": "hospital", "name": "\u0645\u0631\u0643\u0632 \u0627\u0644\u0639\u0631\u0648\u0628\u0629 \u0644\u0644\u0631\u0639\u0627\u064a\u0629 \u0627\u0644\u0635\u062d\u064a\u0629", "name:en": "Al-Orouba Health Care Center"}}, {"type": "node", "id": 4574060993, "lat": 31.4148439, "lon": 46.1653291, "tags": {"amenity": "hospital", "name": "\u0645\u0631\u0643\u0632 \u0627\u0644\u062e\u0627\u0644\u0635\u0629 \u0644\u0644\u0631\u0639\u0627\u064a\u0629 \u0627\u0644\u0635\u062d\u064a\u0629 \u0627\u0644\u0627\u0648\u0644\u064a\u0629"}}, {"type": "node", "id": 4869158922, "lat": 31.4131988, "lon": 46.168733, "tags": {"amenity": "hospital", "email": "alaa_hasan89@mail.ru", "name": "\u0645\u0633\u062a\u0634\u0641\u0649 \u0627\u0644\u0634\u0637\u0631\u0629 \u0627\u0644\u0639\u0627\u0645", "name:ar": "\u0645\u0633\u062a\u0634\u0641\u0649 \u0627\u0644\u0634\u0637\u0631\u0629 \u0627\u0644\u0639\u0627\u0645", "name:en": "General hospital of Shatra"}}, {"type": "node", "id": 6212860385, "lat": 31.413214, "lon": 46.1830224, "tags": {"amenity": "hospital", "name": "\u0645\u0633\u062a\u0634\u0641\u0649 \u0627\u0644\u062d\u0648\u0631\u0627\u0621"}}, {"type": "node", "id": 6411643085, "lat": 31.4983827, "lon": 46.3742716, "tags": {"amenity": "hospital", "name": "\u0645\u0631\u0643\u0632 \u0627\u0644\u0634\u0647\u064a\u062f \u0645\u062d\u0645\u062f \u063a\u064a\u0627\u0636", "name:ar": "\u0645\u0631\u0643\u0632 \u0627\u0644\u0634\u0647\u064a\u062f \u0645\u062d\u0645\u062f \u063a\u064a\u0627\u0636 \u0627\u0644\u0635\u062d\u064a", "name:en": "Health center of Mohammed ghayath"}}]}