{"version": 0.6, "generator": "Overpass API 0.7.61.5 4133829e", "osm3s": {"timestamp_osm_base": "2024-02-29T13:47:24Z", "copyright": "The data included in this document is from www.openstreetmap.org. The data is made available under ODbL."}, "elements": [{"type": "node", "id": 7180623085, "lat": 7.856108, "lon": -0.9554386, "tags": {"amenity": "school", "name": "Prapraboho RC Basic"}}, {"type": "node", "id": 7181539186, "lat": 8.0670909, "lon": -0.8423966, "tags": {"addr:street": "Ejura - Yeji", "amenity": "school", "name": "Labo DA Primary"}}, {"type": "node", "id": 7182394685, "lat": 8.0470409, "lon": -0.855664, "tags": {"amenity": "school", "name": "Labon Quaters DA Basic"}}, {"type": "node", "id": 7183493985, "lat": 8.0223518, "lon": -0.9987193, "tags": {"amenity": "school", "name": "Baya DA Basic School"}}, {"type": "node", "id": 7183494085, "lat": 8.0207491, "lon": -1.0241269, "tags": {"amenity": "school", "name": "Fawoman DA Basic"}}, {"type": "node", "id": 7183538485, "lat": 7.9579552, "lon": -1.1800381, "tags": {"amenity": "school", "name": "\u00c0 ease Presbyterian Basic"}}, {"type": "node", "id": 7184010385, "lat": 8.02337, "lon": -0.9818041, "tags": {"amenity": "school", "name": "Asunbende DA Basic"}}, {"type": "node", "id": 7184158186, "lat": 8.0387769, "lon": -0.8151903, "tags": {"amenity": "school", "name": "Nakpan Beposo DA Basic School"}}, {"type": "node", "id": 7184907886, "lat": 7.9223597, "lon": -0.9180512, "tags": {"amenity": "school", "name": "Bolga Nkwanta MA Basic"}}, {"type": "node", "id": 7189814788, "lat": 7.7532715, "lon": -1.1277255, "tags": {"amenity": "school", "name": "Adensi MA Basic"}}, {"type": "node", "id": 7189908485, "lat": 7.7691658, "lon": -1.1564941, "tags": {"amenity": "school", "name": "Sabidi MA Basic"}}, {"type": "node", "id": 7190537786, "lat": 7.7198083, "lon": -0.8793105, "tags": {"amenity": "school", "name": "Kokofu RC Basic"}}, {"type": "node", "id": 7862194065, "lat": 7.9555, "lon": -1.1648727}, {"type": "node", "id": 7862194066, "lat": 7.952902, "lon": -1.1661065}, {"type": "node", "id": 7862194067, "lat": 7.9535023, "lon": -1.1680108}, {"type": "node", "id": 7862194068, "lat": 7.9539752, "lon": -1.1684024}, {"type": "node", "id": 7862194069, "lat": 7.9548837, "lon": -1.1674422}, {"type": "node", "id": 7862194070, "lat": 7.9548146, "lon": -1.1670506}, {"type": "node", "id": 7862194071, "lat": 7.9559622, "lon": -1.1663801}, {"type": "node", "id": 7905384231, "lat": 7.7407743, "lon": -0.9709717}, {"type": "node", "id": 7905384232, "lat": 7.7406733, "lon": -0.9707746}, {"type": "node", "id": 7905384233, "lat": 7.7407225, "lon": -0.9707397}, {"type": "node", "id": 7905384234, "lat": 7.7385803, "lon": -0.9657347}, {"type": "node", "id": 7905384235, "lat": 7.7336156, "lon": -0.9676337}, {"type": "node", "id": 7905384236, "lat": 7.7378308, "lon": -0.9786362}, {"type": "node", "id": 7905384237, "lat": 7.7384813, "lon": -0.9785517}, {"type": "node", "id": 7905384238, "lat": 7.7384182, "lon": -0.9780192}, {"type": "node", "id": 7905384239, "lat": 7.7395956, "lon": -0.9777229}, {"type": "node", "id": 7905384240, "lat": 7.7396076, "lon": -0.9777792}, {"type": "node", "id": 7905384241, "lat": 7.7406959, "lon": -0.9773085}, {"type": "node", "id": 7905384242, "lat": 7.7434228, "lon": -0.976013}, {"type": "node", "id": 7905384243, "lat": 7.7431304, "lon": -0.9754336}, {"type": "node", "id": 7905384244, "lat": 7.7408195, "lon": -0.9709516}, {"type": "node", "id": 7905384245, "lat": 7.7407215, "lon": -0.9709587}, {"type": "node", "id": 7905384246, "lat": 7.7406571, "lon": -0.9708373}, {"type": "node", "id": 8173659717, "lat": 7.6629469, "lon": -0.9910713, "tags": {"amenity": "school", "name": "Old konkonpe DA"}}, {"type": "node", "id": 8437046029, "lat": 8.0668917, "lon": -0.8420478}, {"type": "node", "id": 8437046030, "lat": 8.0661351, "lon": -0.8425433}, {"type": "node", "id": 8437046031, "lat": 8.0658173, "lon": -0.8419431}, {"type": "node", "id": 8437046032, "lat": 8.0666983, "lon": -0.8413673}, {"type": "node", "id": 8511893861, "lat": 7.998696, "lon": -0.8831388}, {"type": "node", "id": 8511893862, "lat": 7.9999815, "lon": -0.8832836}, {"type": "node", "id": 8511893863, "lat": 7.9997637, "lon": -0.8846086}, {"type": "node", "id": 8511893864, "lat": 7.9972617, "lon": -0.8841527}, {"type": "node", "id": 8511893865, "lat": 7.9958619, "lon": -0.8835089}, {"type": "node", "id": 8511893866, "lat": 7.9953174, "lon": -0.8831441}, {"type": "node", "id": 8511893867, "lat": 7.9954768, "lon": -0.882782}, {"type": "node", "id": 8511893868, "lat": 7.9952404, "lon": -0.8820874}, {"type": "node", "id": 8511893869, "lat": 7.9953838, "lon": -0.8815804}, {"type": "node", "id": 8511893870, "lat": 7.9983613, "lon": -0.8813712}, {"type": "node", "id": 8647910311, "lat": 7.7054312, "lon": -1.0067403}, {"type": "node", "id": 8647910312, "lat": 7.7040065, "lon": -1.0074699}, {"type": "node", "id": 8647910313, "lat": 7.7053514, "lon": -1.0097283}, {"type": "node", "id": 8647910314, "lat": 7.7066751, "lon": -1.0089237}, {"type": "node", "id": 8810020079, "lat": 7.7470639, "lon": -0.9868839, "tags": {"amenity": "school"}}, {"type": "way", "id": 842779559, "nodes": [7862194071, 7862194070, 7862194069, 7862194068, 7862194067, 7862194066, 7862194065, 7862194071], "tags": {"addr:country": "GH", "addr:district": "Pru", "addr:place": "Abease", "addr:region": "Bono East", "amenity": "school", "description": "The School started as private Senior High School, ran by the Abeaseman Community and was absorbed by the Government in April 2016, when an E-block was constructed by the then Government.", "email": "abeasemancommshs@ges.gov.gh", "isced:level": "3", "name": "Abeaseman Community Day Senior High School", "operator": "Ghana Education Service", "operator:short": "GES", "operator:type": "public", "operator:wikidata": "Q30263788", "phone": "+233 27 545 9058", "start_date": "2016"}}, {"type": "way", "id": 847182776, "nodes": [7905384244, 7905384243, 7905384242, 7905384241, 7905384240, 7905384239, 7905384238, 7905384237, 7905384236, 7905384235, 7905384234, 7905384233, 7905384232, 7905384246, 7905384245, 7905384231, 7905384244], "tags": {"addr:country": "GH", "addr:district": "Atebubu-Amantin", "addr:place": "Atebubu", "addr:region": "Bono East", "amenity": "school", "description": "The Atebubu Senior High School is located at the outskirt of the town, 2 kilometers from the Krachi junction on the Atebubu /Kwame Danso road. The school was established on the 14th October, 1978", "email": "atebubushs@ges.gov.gh", "isced:level": "3", "name": "Atebubu Senior High School", "operator": "Ghana Education Service", "operator:short": "GES", "operator:type": "public", "operator:wikidata": "Q30263788", "phone": "+233 20 996 6403", "start_date": "14/10/1978"}}, {"type": "way", "id": 908644969, "nodes": [8437046029, 8437046030, 8437046031, 8437046032, 8437046029], "tags": {"amenity": "school"}}, {"type": "way", "id": 916458624, "nodes": [8511893870, 8511893869, 8511893868, 8511893867, 8511893866, 8511893865, 8511893864, 8511893863, 8511893862, 8511893861, 8511893870], "tags": {"addr:country": "GH", "addr:district": "Pru", "addr:place": "Prang", "addr:region": "Bono East", "amenity": "school", "description": "Prang Senior High School is located in the Pru West district of Brong Ahafo Region of Ghana, about 32 kilometres east of Atebubu and about 34 kilometres to Yeji.", "email": "prangshs@ges.gov.gh", "isced:level": "3", "name": "Prang Senior High School", "operator": "Ghana Education Service", "operator:short": "GES", "operator:type": "public", "operator:wikidata": "Q30263788", "phone": "+233 24 268 2648", "start_date": "1992"}}, {"type": "way", "id": 932925833, "nodes": [8647910314, 8647910313, 8647910312, 8647910311, 8647910314], "tags": {"addr:country": "GH", "addr:district": "Atebubu-Amantin", "addr:place": "New Krokompe", "addr:region": "Bono East", "amenity": "school", "description": "The School was established on 20th September, 2019 and is sited in New Krokompe, a suburb of Atebubu Municipality in the Bono East Region.", "email": "newkrokompecommshs@ges.gov.gh", "isced:level": "3", "name": "New Krokompe Community Senior High School", "operator": "Ghana Education Service", "operator:short": "GES", "operator:type": "public", "operator:wikidata": "Q30263788", "phone": "+233 24 215 2364", "start_date": "20/09/2019"}}]}