{"version": 0.6, "generator": "Overpass API 0.7.61.5 4133829e", "osm3s": {"timestamp_osm_base": "2024-03-05T14:44:30Z", "copyright": "The data included in this document is from www.openstreetmap.org. The data is made available under ODbL."}, "elements": [{"type": "node", "id": 946957012, "lat": 57.2380669, "lon": 14.5733267, "tags": {"amenity": "bank", "brand": "Handelsbanken", "brand:wikidata": "Q1421630", "brand:wikipedia": "sv:Handelsbanken", "ele": "253.0", "name": "Handelsbanken"}}, {"type": "node", "id": 1801786964, "lat": 57.1699354, "lon": 14.5806395, "tags": {"amenity": "bank", "brand": "Swedbank", "brand:wikidata": "Q1145493", "brand:wikipedia": "sv:Swedbank", "name": "Swedbank"}}, {"type": "node", "id": 9476218862, "lat": 57.1845255, "lon": 14.0422098, "tags": {"addr:city": "V\u00e4rnamo", "addr:country": "SE", "addr:housenumber": "24", "addr:postcode": "331 25", "addr:street": "Storgatan", "amenity": "bank", "brand": "Nordea", "brand:wikidata": "Q1123823", "brand:wikipedia": "sv:Nordea", "name": "Nordea", "opening_hours": "Mo-Fr 10:00-13:00; Th 10:00-13:00,14:00-17:30; PH off"}}, {"type": "node", "id": 9476218863, "lat": 57.1854674, "lon": 14.0380342, "tags": {"addr:city": "V\u00e4rnamo", "addr:country": "SE", "addr:housenumber": "9", "addr:postcode": "331 37", "addr:street": "Myntgatan", "amenity": "bank", "brand": "Handelsbanken", "brand:wikidata": "Q1421630", "brand:wikipedia": "sv:Handelsbanken", "contact:facebook": "handelsbanken.varnamo", "email": "varnamo@handelsbanken.se", "name": "Handelsbanken", "opening_hours": "Mo-Fr 10:00-14:00; Th 10:00-17:30; PH off", "phone": "+46 370-33 22 70", "website": "https://www.handelsbanken.se/sv/hitta-bankkontor/varnamo"}}, {"type": "node", "id": 9476218864, "lat": 57.1842275, "lon": 14.0465784, "tags": {"addr:city": "V\u00e4rnamo", "addr:country": "SE", "addr:housenumber": "37", "addr:postcode": "331 31", "addr:street": "Storgatan", "amenity": "bank", "brand": "L\u00e4nsf\u00f6rs\u00e4kringar", "brand:wikidata": "Q6710869", "brand:wikipedia": "sv:L\u00e4nsf\u00e4rs\u00e4kringar Bank", "email": "varnamo@lfj.se", "name": "L\u00e4nsf\u00f6rs\u00e4kringar", "opening_hours": "Mo-Fr 09:00-13:00; PH off", "phone": "+46 370-34 43 00", "website": "https://www.lansforsakringar.se/jonkoping/privat/om-oss/kontakta-oss/66257/"}}, {"type": "node", "id": 9476218865, "lat": 57.1851036, "lon": 14.0411087, "tags": {"addr:city": "V\u00e4rnamo", "addr:country": "SE", "addr:housenumber": "23", "addr:postbox": "223", "addr:postcode": "331 22", "addr:street": "Storgatsbacken", "amenity": "bank", "brand": "Swedbank", "brand:wikidata": "Q1145493", "brand:wikipedia": "sv:Swedbank", "name": "Swedbank", "opening_hours": "Mo-Fr 10:00-13:00; Th 10:00-18:00; PH off", "website": "https://www.swedbank.se/om-oss/kontakta-oss/kontor/varnamo.html"}}, {"type": "node", "id": 9476218866, "lat": 57.1854194, "lon": 14.0403181, "tags": {"addr:city": "V\u00e4rnamo", "addr:country": "SE", "addr:housenumber": "17", "addr:postbox": "245", "addr:postcode": "331 22", "addr:street": "Storgatsbacken", "amenity": "bank", "brand": "SEB", "brand:wikidata": "Q975655", "brand:wikipedia": "sv:Skandinaviska Enskilda Banken", "name": "SEB", "phone": "0370-78 05 30", "website": "https://seb.se/hitta-bankkontor/kontorsinformation/seb-i-varnamo"}}, {"type": "node", "id": 11051312649, "lat": 56.9000062, "lon": 14.5564778, "tags": {"amenity": "bank", "brand": "Swedbank", "brand:wikidata": "Q1145493", "name": "Swedbank"}}]}