{"version": 0.6, "generator": "Overpass API 0.7.61.5 4133829e", "osm3s": {"timestamp_osm_base": "2024-03-06T11:08:30Z", "copyright": "The data included in this document is from www.openstreetmap.org. The data is made available under ODbL."}, "elements": [{"type": "node", "id": 2486359355, "lat": 33.7161766, "lon": 44.6121534, "tags": {"alt_name": "\u0645\u0633\u062a\u0634\u0641\u0649 \u0627\u0644\u0623\u0645\u0631\u0627\u0636 \u0627\u0644\u0635\u062f\u0631\u064a\u0629", "amenity": "hospital", "int_name": "Mustashf\u00e1 al Amr\u0101\u1e11 a\u015f \u015eadr\u012byah, \u0645\u0633\u062a\u0634\u0641\u0649 \u0627\u0644\u0627\u0645\u0631\u0627\u0636 \u0627\u0644\u0635\u062f\u0631\u064a\u0629, Mustashfa al Amrad as Sadriyah, \u0645\u0633\u062a\u0634\u0641\u0649 \u0627\u0644\u0627\u0645\u0631\u0627\u0636 \u0627\u0644\u0635\u062f\u0631\u064a\u0629", "name": "\u0645\u0633\u062a\u0634\u0641\u0649 \u0627\u0644\u0623\u0645\u0631\u0627\u0636 \u0627\u0644\u0635\u062f\u0631\u064a\u0629", "name:ar": "\u0645\u0633\u062a\u0634\u0641\u0649 \u0627\u0644\u0623\u0645\u0631\u0627\u0636 \u0627\u0644\u0635\u062f\u0631\u064a\u0629", "name:ar1": "\u0645\u0633\u062a\u0634\u0641\u0649 \u0627\u0644\u0623\u0645\u0631\u0627\u0636 \u0627\u0644\u0635\u062f\u0631\u064a\u0629", "name:de": "Mustashfa al Amrad as Sadriyah", "name:en": "Mustashfa al Amrad as Sadriyah", "name:fr": "Mustashfa al Amrad as Sadriyah"}}, {"type": "node", "id": 3902830006, "lat": 33.7171391, "lon": 44.6130368}, {"type": "node", "id": 3902830007, "lat": 33.7171631, "lon": 44.6129888}, {"type": "node", "id": 3902830008, "lat": 33.717207, "lon": 44.6123886}, {"type": "node", "id": 3902830009, "lat": 33.7169993, "lon": 44.6122062}, {"type": "node", "id": 3902830010, "lat": 33.7170393, "lon": 44.6112507}, {"type": "node", "id": 3902830011, "lat": 33.7156934, "lon": 44.6112027}, {"type": "node", "id": 3902830012, "lat": 33.7155856, "lon": 44.6129024}, {"type": "node", "id": 3902830013, "lat": 33.7155975, "lon": 44.6129648}, {"type": "node", "id": 4381244092, "lat": 33.748138, "lon": 44.6213871, "tags": {"addr:street": "\u0634\u0627\u0631\u0639 \u0627\u0644\u0645\u0633\u062a\u0634\u0641\u0649", "amenity": "hospital", "name": "\u0645\u0633\u062a\u0634\u0641\u0649 \u0628\u0639\u0642\u0648\u0628\u0629 \u0627\u0644\u0639\u0627\u0645", "name:ar": "\u0645\u0633\u062a\u0634\u0641\u0649 \u0628\u0639\u0642\u0648\u0628\u0629 \u0627\u0644\u0639\u0627\u0645", "name:en": "Baqubah Public Hospital", "opening_hours": "24/7"}}, {"type": "node", "id": 4508457189, "lat": 33.6951115, "lon": 45.0722348, "tags": {"amenity": "hospital"}}, {"type": "node", "id": 4515516189, "lat": 33.7487441, "lon": 44.6216418, "tags": {"addr:street": "\u0634\u0627\u0631\u0639 \u0627\u0644\u0645\u0633\u062a\u0634\u0641\u0649", "amenity": "clinic", "name": "\u062f.\u0641\u0631\u0627\u0633 \u062c\u0627\u0633\u0645 \u0627\u062e\u062a\u0635\u0627\u0635 \u0627\u0646\u0641 \u0648\u0625\u0630\u0646 \u0648\u062d\u0646\u062c\u0631\u0629", "name:ar": "\u062f.\u0641\u0631\u0627\u0633 \u062c\u0627\u0633\u0645 \u0627\u062e\u062a\u0635\u0627\u0635 \u0627\u0646\u0641 \u0648\u0625\u0630\u0646 \u0648\u062d\u0646\u062c\u0631\u0629", "name:en": "Dr.Firas Jasim (otolaryngologist)", "phone": "07815408179"}}, {"type": "node", "id": 4524971720, "lat": 33.7519954, "lon": 44.6236817, "tags": {"addr:street": "Al Tapo street", "amenity": "clinic", "name": "\u0645\u0631\u0643\u0632 \u0628\u0631\u0627\u064a\u062a \u0644\u0637\u0628 \u0627\u0644\u0623\u0633\u0646\u0627\u0646", "name:ar": "\u0645\u0631\u0643\u0632 \u0628\u0631\u0627\u064a\u062a \u0644\u0637\u0628 \u0627\u0644\u0623\u0633\u0646\u0627\u0646", "phone": "07735715000"}}, {"type": "node", "id": 4527460310, "lat": 33.6930927, "lon": 45.0703678, "tags": {"addr:city": "\u062f\u064a\u0627\u0644\u0649", "addr:country": "IQ", "amenity": "hospital", "name": "\u0645\u0633\u062a\u0634\u0641\u0649 \u0628\u0644\u062f\u0631\u0648\u0632 \u0627\u0644\u0639\u0627\u0645", "name:en": "Baladruz General Hospital"}}, {"type": "node", "id": 4527460311, "lat": 33.7493097, "lon": 44.6298438, "tags": {"amenity": "clinic", "name": "\u0645\u0633\u062a\u0634\u0641\u0649 \u0627\u0644\u0628\u062a\u0648\u0644 \u0627\u0644\u062a\u0639\u0644\u064a\u0645\u064a", "name:ar": "\u0645\u0633\u062a\u0634\u0641\u0649 \u0627\u0644\u0628\u062a\u0648\u0644 \u0627\u0644\u062a\u0639\u0644\u064a\u0645\u064a"}}, {"type": "node", "id": 4535242396, "lat": 33.7473787, "lon": 44.6299315, "tags": {"addr:street": "Al Tapo street", "amenity": "hospital", "name": "\u0645\u0633\u062a\u0634\u0641\u0649 \u0627\u0644\u0628\u062a\u0648\u0644", "name:ar": "\u0645\u0633\u062a\u0634\u0641\u0649 \u0627\u0644\u0628\u062a\u0648\u0644", "opening_hours": "24/7"}}, {"type": "node", "id": 4550958390, "lat": 33.7704904, "lon": 44.6241525, "tags": {"amenity": "clinic", "name": "\u0639\u064a\u0627\u062f\u0629 \u062f.\u0639\u0644\u064a \u0627\u0644\u0633\u0627\u0631\u0647", "name:ar": "\u0639\u064a\u0627\u062f\u0629 \u062f.\u0639\u0644\u064a \u0627\u0644\u0633\u0627\u0631\u0647"}}, {"type": "node", "id": 4550966197, "lat": 33.7153468, "lon": 44.6462623, "tags": {"amenity": "clinic", "name": "\u0645\u062e\u062a\u0628\u0631 \u0646\u0633\u0631\u064a\u0646 \u0644\u0644\u062a\u062d\u0644\u064a\u0644\u0627\u062a \u0627\u0644\u0645\u0631\u0636\u064a\u0647", "name:ar": "\u0645\u062e\u062a\u0628\u0631 \u0646\u0633\u0631\u064a\u0646 \u0644\u0644\u062a\u062d\u0644\u064a\u0644\u0627\u062a \u0627\u0644\u0645\u0631\u0636\u064a\u0647"}}, {"type": "node", "id": 4586832589, "lat": 33.7541465, "lon": 44.6393731, "tags": {"addr:street": "\u0634\u0627\u0631\u0639 \u062e\u0631\u064a\u0633\u0627\u0646", "amenity": "clinic", "name": "\u0627\u0644\u0639\u064a\u0627\u062f\u0629 \u0627\u0644\u0627\u0633\u062a\u0634\u0627\u0631\u064a\u0629 \u0641\u064a \u0628\u0639\u0642\u0648\u0628\u0629 \u0627\u0644\u0645\u0631\u0643\u0632", "name:ar": "\u0627\u0644\u0639\u064a\u0627\u062f\u0629 \u0627\u0644\u0627\u0633\u062a\u0634\u0627\u0631\u064a\u0629 \u0641\u064a \u0628\u0639\u0642\u0648\u0628\u0629 \u0627\u0644\u0645\u0631\u0643\u0632", "opening_hours": "Su-Th 08:00-13:00"}}, {"type": "node", "id": 4793485621, "lat": 33.7283935, "lon": 44.611982, "tags": {"amenity": "pharmacy", "name": "\u0635\u064a\u062f\u0644\u064a\u0629 \u0632\u0645\u0632\u0645", "name:ar": "\u0635\u064a\u062f\u0644\u064a\u0629 \u0632\u0645\u0632\u0645", "name:en": "Zamzam pharmacy"}}, {"type": "node", "id": 5226431222, "lat": 33.7530186, "lon": 44.6237988, "tags": {"amenity": "clinic", "name": "\u0645\u0633\u062a\u0634\u0641\u0649 \u0627\u0644\u0627\u0645\u0644 \u0627\u0644\u062c\u0631\u0627\u062d\u064a\u0629", "phone": "07737905666"}}, {"type": "node", "id": 5226431223, "lat": 33.7528912, "lon": 44.6240086, "tags": {"amenity": "hospital", "name": "\u0639\u064a\u0627\u062f\u0629 \u0627\u0644\u0627\u0645\u0644 \u0627\u0644\u062c\u0631\u0627\u062d\u064a\u0629", "phone": "07737905666"}}, {"type": "node", "id": 5830969587, "lat": 33.7527621, "lon": 44.6416538, "tags": {"amenity": "doctors", "name": "\u062f \u0647\u0627\u0644\u0629 \u062d\u0645\u064a\u062f \u0647\u062f\u0648"}}, {"type": "node", "id": 5859074287, "lat": 33.7355551, "lon": 44.64261, "tags": {"amenity": "hospital", "name": "\u0645\u0633\u062a\u0634\u0641\u0649 \u0627\u0644\u062d\u064a\u0627\u0629 \u0627\u0644\u0627\u0647\u0644\u064a"}}, {"type": "node", "id": 5898438885, "lat": 33.7515914, "lon": 44.6233003, "tags": {"addr:street": "Al Tapo street", "amenity": "pharmacy", "name": "\u0645\u0630\u062e\u0631 \u0623\u062f\u0648\u064a\u0629 \u0623\u0644\u0647\u0644\u0627\u0644", "name:ar": "Alhilal medicines store", "name:en": "Alhilal Medicines Store", "name:ku": "Store Alhilal Medicines", "opening_hours": "Sa-Th 08:00-16:00", "phone": "07717015002"}}, {"type": "node", "id": 5973148385, "lat": 33.6960967, "lon": 44.7971789, "tags": {"amenity": "clinic", "name": "\u0627\u0644\u0645\u0631\u0643\u0632 \u0627\u0644\u0635\u062d\u064a / \u062d\u064a \u0627\u0644\u062e\u0636\u0631\u0627\u0621"}}, {"type": "node", "id": 6106829885, "lat": 33.74877, "lon": 44.6216278, "tags": {"amenity": "hospital", "name": "\u0639\u064a\u0627\u062f\u0629 \u0627\u0644\u062f\u0643\u062a\u0648\u0631 \u0641\u0631\u0627\u0633 \u062c\u0627\u0633\u0645 \u0627\u0644\u0639\u0628\u064a\u062f\u064a \u0627\u062e\u062a\u0635\u0627\u0635 \u0627\u0644\u0623\u0646\u0641 \u0648\u0627\u0644\u0623\u0630\u0646 \u0648\u0627\u0644\u062d\u0646\u062c\u0631\u0629 \u0648\u062c\u0631\u0627\u062d\u0629 \u0627\u0644\u062c\u064a\u0648\u0628 \u0627\u0644\u0645\u0646\u0638\u0627\u0631\u064a\u0629", "opening_hours": "Mo-Su 15:00-19:00", "phone": "07815408179"}}, {"type": "node", "id": 6179195789, "lat": 33.7400584, "lon": 44.611067, "tags": {"amenity": "pharmacy", "name": "\u0635\u064a\u062f\u0644\u064a\u0629 \u0627\u064a\u0629 \u0636\u064a\u0627\u0621", "name:en": "Aya Diaa Pharmacy"}}, {"type": "node", "id": 6360243988, "lat": 33.7523683, "lon": 44.6409052, "tags": {"addr:street": "\u0634\u0627\u0631\u0639 \u0627\u0644\u0627\u0637\u0628\u0627\u0621", "amenity": "clinic", "name": "\u062f\u0643\u062a\u0648\u0631\u0629 \u0633\u0627\u0631\u0629"}}, {"type": "node", "id": 6423368185, "lat": 33.7301439, "lon": 44.8848544, "tags": {"amenity": "hospital", "name": "\u0645\u0631\u0643\u0632 \u0635\u062d\u064a \u0627\u0644\u0627\u0645\u0627\u0645 \u0639\u0648\u0646 \u0628\u0646 \u0639\u0628\u062f \u0627\u0644\u0644\u0647"}}, {"type": "node", "id": 6501854887, "lat": 33.7516766, "lon": 44.6417739, "tags": {"addr:street": "\u0634\u0627\u0631\u0639 \u062e\u0631\u064a\u0633\u0627\u0646", "amenity": "pharmacy", "name": "\u0645\u0630\u062e\u0631 \u0623\u062f\u0648\u064a\u0629 \u062f\u0628\u064a", "name:ar": "\u0645\u0630\u062e\u0631 \u0627\u062f\u0648\u064a\u0629 \u062f\u0628\u064a", "name:en": "dubai medicines store", "opening_hours": "Sa-Th 09:00-18:00", "phone": "07717015002"}}, {"type": "node", "id": 6779982885, "lat": 33.7793704, "lon": 44.5904035, "tags": {"amenity": "pharmacy", "name": "\u0635\u064a\u062f\u0644\u064a\u0629 \u0634\u0647\u062f \u062c\u0627\u0628\u0631 \u0639\u0628\u0627\u0633", "name:en": "Shahad Jabeer pharmacy", "opening_hours": "Mo-Su 15:00-22:00", "operator": "Pharmacist Shahad Jabeer", "phone": "07713933055", "website": "https://m.facebook.com/%D8%B5%D9%8A%D8%AF%D9%84%D9%8A%D8%A9-%D8%B4%D9%87%D8%AF-%D8%AC%D8%A7%D8%A8%D8%B1-%D8%B9%D8%A8%D8%A7%D8%B3-102261304496936/"}}, {"type": "node", "id": 7027181285, "lat": 33.6931125, "lon": 45.0703303, "tags": {"amenity": "hospital", "name": "\u0645\u0633\u062a\u0634\u0641\u0649 \u0628\u0644\u062f\u0631\u0648\u0632 \u0627\u0644\u0639\u0627\u0645", "name:en": "Baladruz General Hospital", "opening_hours": "24/7"}}, {"type": "node", "id": 7093212985, "lat": 33.7458339, "lon": 44.6277717, "tags": {"amenity": "doctors", "name": "\u0627\u0644\u062f\u0643\u062a\u0648\u0631 \u0639\u0644\u064a \u0645\u0648\u0633\u0649"}}, {"type": "node", "id": 7611493586, "lat": 33.7513933, "lon": 44.6255867, "tags": {"addr:street": "\u0634\u0627\u0631\u0639 \u0627\u0644\u0637\u0627\u0628\u0648", "amenity": "clinic", "name": "\u0639\u064a\u0627\u062f\u0629 \u0632\u0647\u0649 \u0644\u0637\u0628 \u0627\u0644\u0627\u0633\u0646\u0627\u0646", "name:en": "Zuha dental clinic", "name:ku": "Zuha dental clinic", "opening_hours": "Mo-Su 09:00-09:00"}}, {"type": "node", "id": 7812718202, "lat": 33.771196, "lon": 44.5548875, "tags": {"amenity": "hospital", "healthcare": "hospital", "name": "\u0627\u0644\u0645\u0631\u0643\u0632 \u0627\u0644\u0635\u062d\u064a \u0641\u064a \u0627\u0644\u062d\u062f\u064a\u062f"}}, {"type": "node", "id": 7884440085, "lat": 33.7460466, "lon": 44.6435351, "tags": {"amenity": "doctors", "name": "\u0645\u0633\u062a\u0634\u0641\u0649 \u062f\u064a\u0627\u0644\u0649 \u0627\u0644\u0627\u0647\u0644\u064a"}}, {"type": "node", "id": 8049094785, "lat": 33.7484469, "lon": 44.6181192, "tags": {"addr:street": "\u0646\u0647\u0631 \u0627\u0644\u062d\u062c\u064a\u0629", "amenity": "clinic", "internet_access": "wlan", "name": "\u0645\u0635\u0631\u0641 \u0627\u0644\u062f\u0645 \u0627\u0644\u0631\u0626\u064a\u0633\u064a \u0628\u0639\u0642\u0648\u0628\u0629", "opening_hours": "24/7"}}, {"type": "node", "id": 8219291317, "lat": 33.7482812, "lon": 44.6177938, "tags": {"addr:street": "\u0634\u0627\u0631\u0639 \u0627\u0644\u0637\u0627\u0628\u0648", "amenity": "doctors", "name": "\u0639\u064a\u0627\u062f\u0629 \u062f\u0643\u062a\u0648\u0631 \u0645\u0635\u0637\u0641\u0649 \u063a\u0646\u064a"}}, {"type": "node", "id": 8579151218, "lat": 33.6927335, "lon": 45.0677472, "tags": {"amenity": "clinic", "name": "\u0645\u062e\u062a\u0628\u0631", "name:ar": "\u0645\u062e\u062a\u0628\u0631 \u0634\u0631\u0642 \u0627\u0644\u0627\u0648\u0633\u0637 \u0627\u0644\u062a\u062e\u0635\u0635\u064a"}}, {"type": "node", "id": 8579749918, "lat": 33.6927397, "lon": 45.0678193, "tags": {"amenity": "clinic", "name": "\u0645\u062e\u062a\u0628\u0631 \u0634\u0631\u0642 \u0627\u0644\u0627\u0648\u0633\u0637 \u0627\u0644\u062a\u062e\u0635\u0635\u064a"}}, {"type": "node", "id": 8894977918, "lat": 33.7451759, "lon": 44.6369122, "tags": {"amenity": "pharmacy", "name": "\u0635\u064a\u062f\u0644\u064a\u0629 \u0627\u0644\u0634\u0627\u0645\u064a"}}, {"type": "node", "id": 8918746004, "lat": 33.7500753, "lon": 44.6335083, "tags": {"amenity": "hospital", "name:en": "BAQUBAH HOSPITAL CHEST DISEASES"}}, {"type": "node", "id": 8918746006, "lat": 33.7611942, "lon": 44.6895745, "tags": {"amenity": "hospital", "name:en": "BAQUBAH HOSPITAL MILITARY"}}, {"type": "node", "id": 8918746007, "lat": 33.7482376, "lon": 44.629882, "tags": {"amenity": "hospital", "name:en": "BAQUBAH HOSPITAL GENERAL"}}, {"type": "node", "id": 9218152517, "lat": 33.7452855, "lon": 44.6443962, "tags": {"amenity": "hospital", "name": "\u0645\u0633\u062a\u0634\u0641\u0649 \u0627\u0644\u0634\u0641\u0627\u0621 \u0627\u0644\u0627\u0647\u0644\u064a", "name:en": "Al shafa hospital"}}, {"type": "node", "id": 9384594083, "lat": 33.716183, "lon": 44.612874, "tags": {"amenity": "clinic", "description": "\u0645\u0631\u0643\u0632 \u0627\u0635\u062f\u0627\u0631 \u0628\u0637\u0627\u0642\u0629 \u0627\u0644\u0644\u0642\u0627\u062d \u0627\u0644\u062f\u0648\u0644\u064a\u0629", "healthcare": "clinic", "name": "\u0634\u0639\u0628\u0629 \u0627\u0644\u0632\u0627\u0626\u0631 \u0627\u0644\u0635\u062d\u064a"}}, {"type": "node", "id": 9885651937, "lat": 33.7489988, "lon": 44.6403786}, {"type": "node", "id": 9885651938, "lat": 33.7490668, "lon": 44.6403751}, {"type": "node", "id": 9885651939, "lat": 33.7490628, "lon": 44.6403114}, {"type": "node", "id": 9885651940, "lat": 33.7489936, "lon": 44.6403171}, {"type": "node", "id": 9979002319, "lat": 33.7570176, "lon": 44.5927657, "tags": {"addr:street": "\u0634\u0627\u0631\u0639 \u0627\u0644\u0645\u0633\u062a\u0648\u0635\u0641", "amenity": "doctors", "name": "\u0645\u0631\u0643\u0632 \u0635\u062d\u064a \u0627\u0644\u0643\u0627\u0637\u0648\u0646", "opening_hours": "24/7"}}, {"type": "node", "id": 9981494818, "lat": 33.7502158, "lon": 44.6223081, "tags": {"amenity": "clinic", "name": "\u0627\u0644\u062f\u0643\u062a\u0648\u0631 \u0623\u0646\u0648\u0631 \u0646\u0648\u0631\u064a \u0627\u0644\u0642\u064a\u0645", "name:en": "Dr. Anwar Alqaeem"}}, {"type": "node", "id": 11396422470, "lat": 33.7453589, "lon": 44.6191888, "tags": {"amenity": "doctors", "name": "\u0645\u0631\u0643\u0632 \u0627\u0644\u0627\u0648\u0631\u0627\u0645 \u0627\u0644\u062a\u0639\u0644\u064a\u0645\u064a"}}, {"type": "node", "id": 11693492174, "lat": 33.7452224, "lon": 44.6251976, "tags": {"amenity": "clinic", "healthcare": "clinic", "name": "\u0645\u062c\u0645\u0639 \u0627\u0644\u0645\u062a\u062d\u062f\u0629 \u0627\u0644\u0637\u0628\u064a"}}, {"type": "node", "id": 11693549403, "lat": 33.7458063, "lon": 44.6369285, "tags": {"amenity": "doctors", "healthcare": "doctor", "name": "\u062f\u0643\u062a\u0648\u0631\u0629 \u0631\u0627\u0628\u062d\u0629 \u0627\u0644\u0631\u0628\u064a\u0639\u064a"}}, {"type": "node", "id": 11693549406, "lat": 33.7453351, "lon": 44.6372181, "tags": {"amenity": "clinic", "healthcare": "clinic", "name": "\u0645\u0631\u0643\u0632 \u062f\u0631\u0645\u0627\u0644\u0627\u064a\u062a \u0644\u0644\u062a\u062c\u0645\u064a\u0644 \u0648\u0627\u0644\u0644\u064a\u0632\u0631"}}, {"type": "node", "id": 11693549421, "lat": 33.7505863, "lon": 44.6401145, "tags": {"amenity": "doctors", "healthcare": "doctor", "name": "\u0639\u064a\u0627\u062f\u0629 \u0627\u0644\u062c\u0631\u0627\u062d\u0629 \u0627\u0644\u062f\u0642\u064a\u0642\u0629"}}, {"type": "node", "id": 11693549427, "lat": 33.7523704, "lon": 44.6408226, "tags": {"amenity": "clinic", "healthcare": "clinic", "name": "\u0645\u0631\u0643\u0632 \u0627\u0644\u0634\u0641\u0627\u0621 \u0644\u0644\u0639\u0644\u0627\u062c \u0627\u0644\u0637\u0628\u064a\u0639\u064a"}}, {"type": "way", "id": 386931134, "nodes": [3902830006, 3902830007, 3902830008, 3902830009, 3902830010, 3902830011, 3902830012, 3902830013, 3902830006], "tags": {"amenity": "hospital"}}, {"type": "way", "id": 1078279619, "nodes": [9885651937, 9885651938, 9885651939, 9885651940, 9885651937], "tags": {"addr:city": "DIYALA", "addr:housenumber": "101", "addr:postcode": "00964", "addr:street": "\u0634\u0627\u0631\u0639 \u062e\u0631\u064a\u0633\u0627\u0646", "amenity": "pharmacy", "building": "yes", "dispensing": "yes", "drive_through": "yes", "healthcare": "pharmacy", "image": "https://imgur.com/lIZpDWU", "name": "\u0635\u064a\u062f\u0644\u064a\u0629 \u0627\u0648\u0631\u0643\u064a\u062f - orchid pharmacy", "name:ar": "\u0635\u064a\u062f\u0644\u064a\u0629 \u0627\u0648\u0631\u0643\u064a\u062f", "name:en": "Orchid pharmacy", "opening_hours": "sunrise-sunset", "operator": "Abdullah", "phone": "+9647716282866"}}]}