{"version": 0.6, "generator": "Overpass API 0.7.61.5 4133829e", "osm3s": {"timestamp_osm_base": "2024-03-06T10:49:05Z", "copyright": "The data included in this document is from www.openstreetmap.org. The data is made available under ODbL."}, "elements": [{"type": "node", "id": 2480255330, "lat": 34.618999, "lon": 43.71298, "tags": {"alt_name": "\u062b\u0627\u0646\u0648\u064a\u0629 \u0627\u0644\u062d\u0636\u0627\u0631\u0629", "amenity": "university", "int_name": "Th\u0101naw\u012byat al \u1e28a\u1e11\u0101rah, \u062b\u0627\u0646\u0648\u064a\u0629 \u0627\u0644\u062d\u0636\u0627\u0631\u0629, Thanawiyat al Hadarah, \u062b\u0627\u0646\u0648\u064a\u0629 \u0627\u0644\u062d\u0636\u0627\u0631\u0629", "name": "\u062b\u0627\u0646\u0648\u064a\u0629 \u0627\u0644\u062d\u0636\u0627\u0631\u0629", "name:ar": "\u062b\u0627\u0646\u0648\u064a\u0629 \u0627\u0644\u062d\u0636\u0627\u0631\u0629", "name:ar1": "\u062b\u0627\u0646\u0648\u064a\u0629 \u0627\u0644\u062d\u0636\u0627\u0631\u0629", "name:de": "Thanawiyat al Hadarah", "name:en": "Thanawiyat al Hadarah", "name:fr": "Thanawiyat al Hadarah"}}, {"type": "node", "id": 3596035251, "lat": 34.6777232, "lon": 43.6610681}, {"type": "node", "id": 3596035252, "lat": 34.6739557, "lon": 43.6536169}, {"type": "node", "id": 3596035253, "lat": 34.6726322, "lon": 43.6510205}, {"type": "node", "id": 3596035254, "lat": 34.6707262, "lon": 43.6472225}, {"type": "node", "id": 3596035255, "lat": 34.6805995, "lon": 43.6294556}, {"type": "node", "id": 3596035256, "lat": 34.6867222, "lon": 43.6575383}, {"type": "node", "id": 5091683123, "lat": 34.6786541, "lon": 43.6592039, "tags": {"addr:street": "\u0635\u0644\u0627\u062d \u0627\u0644\u062f\u064a\u0646 - \u062a\u0643\u0631\u064a\u062a", "amenity": "college", "email": "tu@mohesr.gov.iq", "name": "Zan\u00eengeha Perwerdehiya Pure Sciences - Dibistana Physics", "name:ar": "\u0643\u0644\u064a\u0629 \u0627\u0644\u062a\u0631\u0628\u064a\u0629 \u0644\u0644\u0639\u0644\u0648\u0645 \u0627\u0644\u0635\u0631\u0641\u0629 - \u0642\u0633\u0645 \u0627\u0644\u0641\u064a\u0632\u064a\u0627\u0621", "name:en": "College of Education for Pure Sciences - Physics Department", "name:ku": "Zan\u00eengeha Perwerdehiya Pure Sciences - Dibistana Physics", "opening_hours": "Su-Th 09:00-18:00", "website": "https://ceps.tu.edu.iq/"}}, {"type": "node", "id": 5091685821, "lat": 34.6786475, "lon": 43.658448, "tags": {"addr:street": "\u0627\u0644\u0642\u0627\u062f\u0633\u064a\u0629", "amenity": "college", "email": "tu@mohesr.gov.iq", "name": "Zan\u00eengeha Perwerdehiya Pure Sciences - Da\u00eereya Chemistry", "name:ar": "\u0643\u0644\u064a\u0629 \u0627\u0644\u062a\u0631\u0628\u064a\u0629 \u0644\u0644\u0639\u0644\u0648\u0645 \u0627\u0644\u0635\u0631\u0641\u0629 - \u0642\u0633\u0645 \u0627\u0644\u0643\u064a\u0645\u064a\u0627\u0621", "name:en": "College of Education for Pure Sciences - Department of Chemistry", "name:ku": "Zan\u00eengeha Perwerdehiya Pure Sciences - Da\u00eereya Chemistry", "opening_hours": "Su-Th 09:00-18:00", "website": "https://ceps.tu.edu.iq/"}}, {"type": "node", "id": 5091697822, "lat": 34.679072, "lon": 43.6593176, "tags": {"addr:street": "\u0635\u0644\u0627\u062d \u0627\u0644\u062f\u064a\u0646 - \u062a\u0643\u0631\u064a\u062a", "amenity": "college", "email": "tu@mohesr.gov.iq", "name": "Zan\u00eengeha Perwerdehiya Pure Sciences - Da\u00eereya Biyolojiy\u00ea", "name:ar": "\u0643\u0644\u064a\u0629 \u0627\u0644\u062a\u0631\u0628\u064a\u0629 \u0644\u0644\u0639\u0644\u0648\u0645 \u0627\u0644\u0635\u0631\u0641\u0629 - \u0642\u0633\u0645 \u0627\u0644\u0627\u062d\u064a\u0627\u0621", "name:en": "College of Education for Pure Sciences - Department of Biology", "name:ku": "Zan\u00eengeha Perwerdehiya Pure Sciences - Da\u00eereya Biyolojiy\u00ea", "opening_hours": "Su-Th 09:00-18:00", "website": "https://ceps.tu.edu.iq/"}}, {"type": "node", "id": 5694316924, "lat": 34.6756866, "lon": 43.6454075, "tags": {"amenity": "college", "name": "\u0627\u0644\u0639\u0644\u0648\u0645 \u0627\u0644\u0633\u064a\u0627\u0633\u064a\u0629"}}, {"type": "node", "id": 6189996487, "lat": 34.6809904, "lon": 43.657158, "tags": {"amenity": "college", "name": "\u0627\u0644\u0647\u0646\u062f\u0633\u0629 \u0627\u0644\u0645\u064a\u0643\u0627\u0646\u064a\u0643\u064a\u0629", "name:ar": "\u0643\u0644\u064a\u0629 \u0627\u0644\u0647\u0646\u062f\u0633\u0629 \u0627\u0644\u0645\u064a\u0643\u0627\u0646\u064a\u0643\u064a\u0629", "name:en": "Mechanical Engineering College", "opening_hours": "Sa-Th 08:00-16:00"}}, {"type": "node", "id": 6780614489, "lat": 34.5809639, "lon": 43.6940861, "tags": {"amenity": "college", "name": "\u0639\u0645\u0627\u062f\u0629 \u0643\u0644\u064a\u0629 \u0637\u0628 \u062a\u0643\u0631\u064a\u062a", "name:en": "Tikrit university college of medicine"}}, {"type": "node", "id": 6780614495, "lat": 34.5820825, "lon": 43.6946766, "tags": {"amenity": "college", "name": "\u0643\u0644\u064a\u0629 \u0627\u0644\u062a\u0645\u0631\u064a\u0636", "name:en": "college of nursing"}}, {"type": "node", "id": 7198114786, "lat": 34.6788035, "lon": 43.6565669, "tags": {"amenity": "college", "name": "\u0642\u0633\u0645 \u0627\u0644\u0634\u0624\u0648\u0646 \u0627\u0644\u0645\u0627\u0644\u064a\u0629"}}, {"type": "node", "id": 8648957818, "lat": 34.6815541, "lon": 43.6571205, "tags": {"amenity": "college", "name": "\u0643\u0644\u064a\u0629 \u0627\u0644\u0647\u0646\u062f\u0633\u0629 \u0627\u0644\u0645\u062f\u0646\u064a\u0629", "name:en": "Civil Engineering College", "opening_hours": "Sa-Th 08:00-16:00"}}, {"type": "node", "id": 8648957819, "lat": 34.6801862, "lon": 43.6571737, "tags": {"amenity": "college", "name": "\u0643\u0644\u064a\u0629 \u0627\u0644\u0647\u0646\u062f\u0633\u0629 \u0627\u0644\u0643\u0647\u0631\u0628\u0627\u0626\u064a\u0629", "name:en": "Electrical Engineering College", "opening_hours": "Sa-Th 08:00-16:00"}}, {"type": "node", "id": 8648957820, "lat": 34.6801616, "lon": 43.6579896, "tags": {"amenity": "college", "name": "\u0643\u0644\u064a\u0629 \u0647\u0646\u062f\u0633\u0629 \u0627\u0644\u0646\u0641\u0637 \u0648 \u0627\u0644\u0645\u0639\u0627\u062f\u0646", "name:en": "Oil and Minerals Engineering College"}}, {"type": "node", "id": 8648957917, "lat": 34.6813549, "lon": 43.6577372, "tags": {"amenity": "college", "name": "\u0643\u0644\u064a\u0629 \u0627\u0644\u0647\u0646\u062f\u0633\u0629 \u0627\u0644\u0643\u064a\u0645\u064a\u0627\u0648\u064a\u0629", "name:ar": "\u0643\u0644\u064a\u0629 \u0627\u0644\u0647\u0646\u062f\u0633\u0629 \u0627\u0644\u0643\u064a\u0645\u064a\u0627\u0626\u064a\u0629", "name:en": "Chemical Engineering College", "opening_hours": "Sa-Th 07:30-16:00"}}, {"type": "node", "id": 9179542241, "lat": 34.6786562, "lon": 43.6604995}, {"type": "node", "id": 9179542242, "lat": 34.6790356, "lon": 43.6602406}, {"type": "node", "id": 9179542243, "lat": 34.6798716, "lon": 43.6596733}, {"type": "node", "id": 9179542244, "lat": 34.6808222, "lon": 43.658933}, {"type": "node", "id": 9179542245, "lat": 34.6808641, "lon": 43.6590189}, {"type": "node", "id": 9179542246, "lat": 34.6830069, "lon": 43.659448}, {"type": "node", "id": 9179542247, "lat": 34.6829253, "lon": 43.6595111}, {"type": "node", "id": 9179542248, "lat": 34.6828216, "lon": 43.6593206}, {"type": "node", "id": 9179542249, "lat": 34.6827069, "lon": 43.6594065}, {"type": "node", "id": 9179542250, "lat": 34.6826441, "lon": 43.6593984}, {"type": "node", "id": 9179542251, "lat": 34.6833124, "lon": 43.6600381}, {"type": "node", "id": 9179542252, "lat": 34.6838219, "lon": 43.6596572}, {"type": "node", "id": 9179542253, "lat": 34.6844461, "lon": 43.6596787}, {"type": "node", "id": 9179542254, "lat": 34.6840777, "lon": 43.6600167}, {"type": "node", "id": 9179542255, "lat": 34.684574, "lon": 43.6591959}, {"type": "node", "id": 9179542256, "lat": 34.686162, "lon": 43.6582947}, {"type": "node", "id": 9179542257, "lat": 34.6860495, "lon": 43.6577502}, {"type": "node", "id": 9179542258, "lat": 34.681672, "lon": 43.6586098}, {"type": "node", "id": 9179542259, "lat": 34.6816924, "lon": 43.6585683}, {"type": "node", "id": 9179542260, "lat": 34.6817442, "lon": 43.6585736}, {"type": "node", "id": 9179542261, "lat": 34.6820839, "lon": 43.6582813}, {"type": "node", "id": 9179542262, "lat": 34.6819603, "lon": 43.6588284}, {"type": "node", "id": 9179542263, "lat": 34.6815148, "lon": 43.6591718}, {"type": "node", "id": 9179542264, "lat": 34.6817574, "lon": 43.6592898}, {"type": "node", "id": 9179542265, "lat": 34.6812016, "lon": 43.6588418}, {"type": "node", "id": 9179542266, "lat": 34.6780342, "lon": 43.6607891}, {"type": "node", "id": 9179542267, "lat": 34.6666187, "lon": 43.639192}, {"type": "node", "id": 9179542268, "lat": 34.6693475, "lon": 43.6373332}, {"type": "node", "id": 9179542269, "lat": 34.6696696, "lon": 43.6374056}, {"type": "node", "id": 9179542270, "lat": 34.6700645, "lon": 43.6371294}, {"type": "node", "id": 9179542271, "lat": 34.670188, "lon": 43.6367726}, {"type": "node", "id": 9179542272, "lat": 34.6840579, "lon": 43.647244}, {"type": "node", "id": 9179542273, "lat": 34.6828801, "lon": 43.6425555}, {"type": "node", "id": 9179542274, "lat": 34.6811288, "lon": 43.6324918}, {"type": "node", "id": 10747803808, "lat": 34.467958, "lon": 43.8094578, "tags": {"amenity": "college", "name": "\u0627\u0644\u0645\u0639\u0647\u062f \u0627\u0644\u062a\u0642\u0646\u064a \u0641\u064a \u0627\u0644\u062f\u0648\u0631", "name:en": "Technical Institute in the role", "website": "https://www.facebook.com/profile.php?id=100064550685563&mibextid=ZbWKwL"}}, {"type": "node", "id": 10958870605, "lat": 34.6763425, "lon": 43.6563586, "tags": {"amenity": "college", "email": "cade@tu.edu.iq", "name": "\u0643\u0644\u064a\u0629 \u0627\u0644\u0627\u062f\u0627\u0631\u0629 \u0648\u0627\u0644\u0627\u0642\u062a\u0635\u0627\u062f/\u062c\u0627\u0645\u0639\u0629 \u062a\u0643\u0631\u064a\u062a", "opening_hours": "Sa-We 08:00-06:00", "website": "https://www.facebook.com/cade.tu.edu.iq?mibextid=ZbWKwL"}}, {"type": "node", "id": 10982204055, "lat": 34.581517, "lon": 43.694182, "tags": {"amenity": "college", "name": "College of Medicine, Tikrit University"}}, {"type": "node", "id": 11111209908, "lat": 34.6760272, "lon": 43.6556282, "tags": {"amenity": "college", "name": "\u0642\u0633\u0645 \u0627\u062f\u0627\u0631\u0629 \u0627\u0644\u0627\u0639\u0645\u0627\u0644", "name:en": "Business Administration Department", "website": "https://www.facebook.com/Business.Vips?mibextid=ZbWKwL"}}, {"type": "node", "id": 11111223605, "lat": 34.6765852, "lon": 43.6556471, "tags": {"amenity": "college", "name": "\u0643\u0644\u064a\u0629 \u0627\u0644\u062d\u0642\u0648\u0642/\u062c\u0627\u0645\u0639\u0629 \u062a\u0643\u0631\u064a\u062a"}}, {"type": "node", "id": 11391987972, "lat": 34.5824352, "lon": 43.6744726, "tags": {"amenity": "college", "name": "\u062a\u0631\u0628\u064a\u0629 \u0628\u0646\u0627\u062a"}}, {"type": "way", "id": 353797142, "nodes": [3596035251, 3596035252, 3596035253, 3596035254, 9179542267, 9179542268, 9179542269, 9179542270, 9179542271, 3596035255, 9179542274, 9179542273, 9179542272, 3596035256, 9179542257, 9179542256, 9179542255, 9179542253, 9179542254, 9179542252, 9179542251, 9179542246, 9179542247, 9179542248, 9179542249, 9179542250, 9179542261, 9179542260, 9179542259, 9179542258, 9179542262, 9179542264, 9179542263, 9179542265, 9179542245, 9179542244, 9179542243, 9179542242, 9179542241, 9179542266, 3596035251], "tags": {"addr:street": "\u0635\u0644\u0627\u062d \u0627\u0644\u062f\u064a\u0646 - \u062a\u0643\u0631\u064a\u062a", "amenity": "university", "email": "tu@mohesr.gov.iq", "name": "\u062c\u0627\u0645\u0639\u0629 \u062a\u0643\u0631\u064a\u062a", "name:ar": "\u062c\u0627\u0645\u0639\u0629 \u062a\u0643\u0631\u064a\u062a", "name:en": "University Tikrit", "opening_hours": "Su-Th 09:00-18:00", "website": "https://www.tu.edu.iq/"}}]}