{"version": 0.6, "generator": "Overpass API 0.7.61.5 4133829e", "osm3s": {"timestamp_osm_base": "2024-03-06T11:35:00Z", "copyright": "The data included in this document is from www.openstreetmap.org. The data is made available under ODbL."}, "elements": [{"type": "node", "id": 10864747444, "lat": 3.7744317, "lon": 34.7308655, "tags": {"amenity": "hospital", "name": "Natukobenyo Health Centre", "operator": "Kenya Red Cross", "operator:type": "ngo", "phone": "+254707173515"}}, {"type": "node", "id": 10864747453, "lat": 3.7743965, "lon": 34.6261937, "tags": {"amenity": "clinic", "name": "Kalobeyei Dispensary", "operator": "Turkana County Govt", "operator:type": "public"}}, {"type": "node", "id": 10864747462, "lat": 3.7551695, "lon": 34.7503434, "tags": {"amenity": "hospital", "name": "AIC", "operator": "UNHCR", "operator:type": "ngo", "phone": "+254702241131"}}, {"type": "node", "id": 10864747465, "lat": 3.7696051, "lon": 34.7292905, "tags": {"amenity": "hospital", "name": "Kalobeyei Main Medical Centre", "operator": "Robert Wabwire", "operator:type": "private", "phone": "707125622"}}, {"type": "node", "id": 10997045190, "lat": 3.7673532, "lon": 34.6231972, "tags": {"amenity": "pharmacy", "name": "Chemist Agrovet"}}, {"type": "node", "id": 10997119774, "lat": 3.767915, "lon": 34.6231259, "tags": {"amenity": "pharmacy", "name": "Racine Healthcare"}}]}