{"version": 0.6, "generator": "Overpass API 0.7.61.5 4133829e", "osm3s": {"timestamp_osm_base": "2024-03-06T11:09:29Z", "copyright": "The data included in this document is from www.openstreetmap.org. The data is made available under ODbL."}, "elements": [{"type": "node", "id": 4376178493, "lat": 36.8573909, "lon": 42.7580691, "tags": {"amenity": "hospital", "healthcare": "hospital", "name": "Gr\u00ea Gawre", "name:ar": "\u06af\u0631\u064a\u06af\u0648\u0631", "name:ku": "Gr\u00ea Gawre"}}, {"type": "node", "id": 4386858104, "lat": 36.8597978, "lon": 42.8441003, "tags": {"addr:postcode": "42003", "amenity": "pharmacy", "healthcare": "pharmacy", "name": "duban pharmacy", "name:ar": "\u0635\u064a\u062f\u0644\u064a\u0629 \u062f\u0648\u0628\u0627\u0646", "name:en": "Duban Pharmacy", "name:ku": "\u062f\u06d5\u0631\u0645\u0627\u0646\u062e\u0627\u0646\u0627 \u062f\u0648\u0628\u0627\u0646"}}, {"type": "node", "id": 4386869312, "lat": 36.8577506, "lon": 42.8395145, "tags": {"addr:postcode": "42003", "amenity": "doctors", "healthcare": "doctor", "name": "\u0645\u062c\u0645\u0639 \u0633\u064a\u0645\u064a\u0644 \u0627\u0644\u0637\u0628\u064a", "name:ar": "\u0645\u062c\u0645\u0639 \u0633\u064a\u0645\u064a\u0644 \u0627\u0644\u0637\u0628\u064a"}}, {"type": "node", "id": 4407857111, "lat": 36.8603114, "lon": 42.8437089, "tags": {"addr:postcode": "42003", "amenity": "doctors", "healthcare": "doctor", "name": "\u0646\u0648\u0698\u062f\u0627\u0631", "name:ar": "\u0645\u062d\u0644 \u0637\u0628\u064a\u0628", "name:ku": "\u0646\u0648\u0698\u062f\u0627\u0631"}}, {"type": "node", "id": 4428426191, "lat": 36.8606602, "lon": 42.7629799, "tags": {"amenity": "doctors", "healthcare": "doctor", "name": "\u062f\u062e\u062a\u0648\u0631", "name:ar": "\u062f\u062e\u062a\u0648\u0631", "name:en": "Doctor", "name:ku": "\u0646\u0648\u0698\u062f\u0627\u0631"}}, {"type": "node", "id": 4496778598, "lat": 36.6557679, "lon": 42.6028699, "tags": {"amenity": "clinic", "name": "\u0645\u062c\u0645\u0639 \u0633\u0631\u0647\u0644\u062f\u0627\u0646 \u0627\u0644\u0637\u0628\u064a", "name:ar": "\u0645\u062c\u0645\u0639 \u0633\u0631\u0647\u0644\u062f\u0627\u0646 \u0627\u0644\u0637\u0628\u064a"}}, {"type": "node", "id": 4549157992, "lat": 36.6561273, "lon": 42.6006785, "tags": {"amenity": "clinic", "name": "\u0635\u064a\u062f\u0644\u064a\u0629", "name:ar": "\u0635\u064a\u062f\u0644\u064a\u0629", "name:en": "Pharmacy"}}, {"type": "node", "id": 4599445090, "lat": 36.6558606, "lon": 42.6023622, "tags": {"amenity": "hospital", "name": "\u0645\u062c\u0645\u0639 \u0627\u0632\u0627\u062f\u064a \u0627\u0644\u0637\u0628\u064a", "name:ar": "\u0645\u062c\u0645\u0639 \u0627\u0632\u0627\u062f\u064a \u0627\u0644\u0637\u0628\u064a", "opening_hours": "Sa-Th 09:00-16:00", "phone": "07508234365"}}, {"type": "node", "id": 4695081500, "lat": 36.7101214, "lon": 42.6163624, "tags": {"amenity": "clinic", "name": "\u0639\u064a\u0627\u062f\u0629 \u0645\u0633\u0639\u0648\u062f \u062e\u0644\u064a", "name:ar": "\u0639\u064a\u0627\u062f\u0629 \u0627\u062d\u0645\u062f \u0627\u0644 \u062f\u0628\u064a\u0633"}}, {"type": "node", "id": 4784525158, "lat": 36.7115074, "lon": 42.613538, "tags": {"amenity": "hospital", "name": "\u0645\u0633\u062a\u0648\u0635\u0641"}}, {"type": "node", "id": 4916125121, "lat": 36.6543865, "lon": 42.5998585, "tags": {"amenity": "doctors", "name": "\u062d\u062c\u0627\u0645\u0629 \u0646\u0633\u0627\u0621", "name:ar": "\u062d\u062c\u0627\u0645\u0629 \u0646\u0633\u0627\u0621"}}, {"type": "node", "id": 4987682450, "lat": 36.6886358, "lon": 42.5941293}, {"type": "node", "id": 4987682451, "lat": 36.6886003, "lon": 42.5939712}, {"type": "node", "id": 4987682452, "lat": 36.6885154, "lon": 42.5941729}, {"type": "node", "id": 4987682453, "lat": 36.6884892, "lon": 42.5940141}, {"type": "node", "id": 4987754724, "lat": 36.7139234, "lon": 42.6118944}, {"type": "node", "id": 4987754725, "lat": 36.7139122, "lon": 42.6119406}, {"type": "node", "id": 4987754726, "lat": 36.7139721, "lon": 42.6119663}, {"type": "node", "id": 4987754727, "lat": 36.713982, "lon": 42.6119225}, {"type": "node", "id": 4987754747, "lat": 36.7115625, "lon": 42.6136643}, {"type": "node", "id": 4987754748, "lat": 36.7116519, "lon": 42.6134767}, {"type": "node", "id": 4987754749, "lat": 36.7113582, "lon": 42.6133121}, {"type": "node", "id": 4987754750, "lat": 36.7112859, "lon": 42.6134873}, {"type": "node", "id": 4987754751, "lat": 36.7113274, "lon": 42.6133867}, {"type": "node", "id": 5006442821, "lat": 36.7096602, "lon": 42.6162834, "tags": {"amenity": "clinic", "name": "\u0627\u062d\u0645\u062f \u0643\u0631\u062d\u064a", "name:ar": "\u0627\u062d\u0645\u062f \u0643\u0631\u062d\u064a"}}, {"type": "node", "id": 5006761302, "lat": 36.7343889, "lon": 42.5967574}, {"type": "node", "id": 5006761303, "lat": 36.7344087, "lon": 42.5965698}, {"type": "node", "id": 5006761304, "lat": 36.7346697, "lon": 42.5966088}, {"type": "node", "id": 5006761305, "lat": 36.734647, "lon": 42.5968034}, {"type": "node", "id": 5006761307, "lat": 36.7345322, "lon": 42.596783}, {"type": "node", "id": 5006761309, "lat": 36.7344222, "lon": 42.5967634}, {"type": "node", "id": 5200413236, "lat": 36.6335569, "lon": 42.592088, "tags": {"amenity": "clinic", "name": "\u0639\u064a\u0627\u062f\u0629 \u0627\u0644\u062f\u0643\u062a\u0648\u0631 \u0639\u0628\u062f \u0627\u0644\u0631\u0632\u0627\u0642"}}, {"type": "node", "id": 5286129722, "lat": 36.7811055, "lon": 42.8850922, "tags": {"addr:city": "\u062f\u0647\u06c6\u06a9", "amenity": "doctors", "healthcare": "doctor", "name": "\u0646\u0647 \u062e\u0648\u0634\u062e\u0627\u0646\u0627 \u0626\u0647 \u0644\u0645\u0627\u0646\u064a", "name:en": "Germany Hospital", "opening_hours": "24/7"}}, {"type": "node", "id": 5325166625, "lat": 36.7087873, "lon": 42.6163523, "tags": {"amenity": "doctors", "name": "\u0639\u064a\u0627\u062f\u0647 \u0627\u0644\u062d\u062c\u0627\u0645\u0647 \u0633\u064a\u062f.\u0627\u0633\u0645\u0627\u0639\u064a\u0644"}}, {"type": "node", "id": 5377758021, "lat": 36.7106353, "lon": 42.6182999, "tags": {"amenity": "clinic", "name": "\u0645\u062e\u062a\u0628\u0631 \u062d\u062c\u064a \u062d\u0627\u0632\u0645"}}, {"type": "node", "id": 5377758121, "lat": 36.6561583, "lon": 42.6008584, "tags": {"amenity": "doctors", "name": "\u0645\u062c\u0645\u0639 \u0637\u0628\u064a"}}, {"type": "node", "id": 5409706524, "lat": 36.6561667, "lon": 42.6044562, "tags": {"addr:street": "\u0634\u0627\u0631\u0639 \u0627\u0644\u0648\u0643\u0644\u0627\u0621", "amenity": "clinic", "name": "\u0645\u062c\u0645\u0639 \u0637\u0628\u064a", "operator": "\u062f. \u064a\u062d\u064a\u0649 / \u062f. \u0645\u0631\u0648\u0629 / \u062f. \u0632\u0628\u064a\u0631"}}, {"type": "node", "id": 5542780122, "lat": 36.7812635, "lon": 42.8845828, "tags": {"addr:city": "\u062f\u0647\u06c6\u06a9", "amenity": "hospital", "healthcare": "hospital", "name": "\u0645\u0633\u062a\u0648\u0635\u0641 \u0643\u0627\u0645\u0628 \u062f\u0648\u0645\u064a\u0632", "name:ar": "\u0645\u0633\u062a\u0634\u0641\u0649 \u0643\u0627\u0645\u0628 \u062f\u0648\u0645\u064a\u0632", "name:en": "Camp Domiz Hospital", "name:ku": "Nexwe\u015fxana Kempa Dom\u00eez", "name:ku-Arab": "\u0646\u0647\u200c\u062e\u0648\u0647\u200c\u0634\u062e\u0627\u0646\u0627 \u0643\u0647\u200c\u0645\u067e\u0627 \u062f\u06c6\u0645\u06cc\u0632", "opening_hours": "24/7"}}, {"type": "node", "id": 5641863123, "lat": 36.656696, "lon": 42.594385, "tags": {"amenity": "hospital", "name": "\u0645\u062c\u0645\u0639 \u0637\u0628\u064a", "name:ar": "\u0645\u062c\u0645\u0639 \u0627\u0643\u0631\u0645 \u0627\u0644\u0637\u0628\u064a", "name:en": "medical complex", "name:ku": "\u0643\u0648\u0645\u0644\u06af\u0629\u0647\u0627 \u067e\u0632\u064a\u0634\u0643\u0649"}}, {"type": "node", "id": 5840178186, "lat": 36.7127209, "lon": 42.6177461, "tags": {"amenity": "clinic", "name": "\u0627\u0644\u0642\u0627\u0628\u0644\u0629 \u0627\u0645 \u0646\u0627\u0635\u0631"}}, {"type": "node", "id": 6326977289, "lat": 36.5620954, "lon": 42.558438, "tags": {"amenity": "clinic", "name": "\u0645\u0631\u0643\u0632 \u0635\u062d\u064a \u062d\u0643\u0646\u0629", "name:ar": "\u0645\u0631\u0643\u0632 \u0635\u062d\u064a \u062d\u0643\u0646\u0647", "name:en": "Hukna PHCC", "opening_hours": "Sa-Th 08:00-14:00"}}, {"type": "node", "id": 6333980585, "lat": 36.8509321, "lon": 42.8599215, "tags": {"addr:postcode": "42003", "amenity": "clinic", "healthcare": "clinic", "name": "\u0639\u064a\u0627\u062f\u0629 \u0637\u0628\u064a\u0629", "name:en": "Medical Clinic", "name:ku": "\u0643\u0644\u064a\u0646\u064a\u0643\u0627 \u062a\u0647 \u0646\u062f\u0631\u0648\u0633\u062a\u064a", "opening_hours": "Mo-Su 16:00-00:00", "phone": "07507471993"}}, {"type": "node", "id": 6419109085, "lat": 36.8606154, "lon": 42.835743, "tags": {"addr:city": "Semel", "addr:postcode": "42003", "addr:street": "\u0631\u06ce\u06a9\u0627 \u0645\u0633\u06ce\u0631\u06cc\u06a9\u06ce", "amenity": "pharmacy", "healthcare": "pharmacy", "name": "\u0635\u064a\u062f\u0644\u064a\u0629 \u06af\u0648\u0644\u0627\u0646", "name:en": "Gulan Pharmacy", "name:ku": "\u062f\u0647 \u0631\u0645\u0627\u0646\u062e\u0627\u0646\u0627 \u06af\u0648\u0644\u0627\u0646", "opening_hours:covid19": "15:00-23:00"}}, {"type": "node", "id": 6419109185, "lat": 36.8603477, "lon": 42.8353835, "tags": {"addr:postcode": "42003", "amenity": "pharmacy", "healthcare": "pharmacy", "name": "\u0635\u064a\u062f\u0644\u064a\u0629 \u0626\u0647 \u0634\u0646\u06af\u0627\u0644\u0649", "name:ar": "\u0635\u064a\u062f\u0644\u064a\u0629 \u0627\u0634\u0646\u06af\u0627\u0644\u0649 \u0662", "name:en": "Ashngali Pharmacy 2", "name:ku": "\u062f\u0647 \u0631\u0645\u0627\u0646\u062e\u0627\u0646\u0627 \u0626\u0647 \u0634\u0646\u06af\u0627\u0644\u0649 2"}}, {"type": "node", "id": 6422991487, "lat": 36.8603225, "lon": 42.8352978, "tags": {"addr:postcode": "42003", "amenity": "clinic", "healthcare": "clinic", "name": "\u0639\u064a\u0627\u062f\u0627\u062a \u0643\u0648\u0631\u062f\u0633\u062a\u0627\u0646 \u0662 \u062e\u0635\u0648\u0635\u064a\u0629", "name:en": "Kurdistan Clinic 2", "name:ku": "\u0643\u0644\u064a\u0646\u064a\u0643\u0627 \u0643\u0648\u0631\u062f\u0633\u062a\u0627\u0646 \u0662 \u064a\u0627 \u062a\u0627\u064a\u0628\u0647 \u062a", "opening_hours": "Sa-Th 15:00-22:00"}}, {"type": "node", "id": 6423043685, "lat": 36.8606742, "lon": 42.8358515, "tags": {"addr:postcode": "42003", "amenity": "clinic", "healthcare": "clinic", "name": "\u0643\u0644\u064a\u0646\u064a\u0643\u064a\u062a \u0645\u0627\u0631\u0648\u0646\u0633 \u064a\u064a\u062a \u062a\u0627\u064a\u0628\u0647 \u062a", "name:ar": "\u0639\u064a\u0627\u062f\u0627\u062a \u0645\u0627\u0631\u0648\u0646\u0633 \u0627\u0644\u062e\u0635\u0648\u0635\u064a\u0629", "name:en": "Maronis Clinic"}}, {"type": "node", "id": 6738206385, "lat": 36.8580485, "lon": 42.8526577, "tags": {"addr:city": "Semel", "addr:street": "\u062c\u0627\u062f\u0627 \u0633\u06ce\u0645\u06ce\u0644", "amenity": "hospital", "healthcare": "hospital", "name": "\u0646\u06d5\u062e\u0648\u0634\u062e\u0627\u0646\u0627 \u062f\u0648\u0628\u0627\u0646", "name:ar": "\u0645\u0633\u062a\u0634\u0641\u06cc \u062f\u0648\u0628\u0627\u0646", "name:en": "Duban Hospital", "opening_hours": "Sa-Th 08:00-14:00"}}, {"type": "node", "id": 6964161785, "lat": 36.8602163, "lon": 42.7603047, "tags": {"amenity": "clinic", "healthcare": "clinic", "name": "\u0639\u064a\u0627\u062f\u0629", "name:ku": "\u06a9\u0644\u06cc\u0646\u0643"}}, {"type": "node", "id": 7138801785, "lat": 36.8623058, "lon": 42.8131006, "tags": {"amenity": "clinic", "healthcare": "clinic", "name": "\u0645\u064a\u0631", "name:en": "meer", "name:ku": "m\u00eer"}}, {"type": "node", "id": 7799649532, "lat": 36.7771625, "lon": 42.8800351}, {"type": "node", "id": 7799649533, "lat": 36.7767024, "lon": 42.8801239}, {"type": "node", "id": 7799649534, "lat": 36.7766632, "lon": 42.8796102}, {"type": "node", "id": 7799649535, "lat": 36.7771214, "lon": 42.8795448}, {"type": "node", "id": 7799649540, "lat": 36.7814603, "lon": 42.885392}, {"type": "node", "id": 7799649541, "lat": 36.7814319, "lon": 42.8851531}, {"type": "node", "id": 7799649542, "lat": 36.7817494, "lon": 42.8850646}, {"type": "node", "id": 7799649543, "lat": 36.7815836, "lon": 42.8842188}, {"type": "node", "id": 7799649544, "lat": 36.7809684, "lon": 42.8843603}, {"type": "node", "id": 7799649545, "lat": 36.7809684, "lon": 42.8844506}, {"type": "node", "id": 7799649546, "lat": 36.7809826, "lon": 42.8845125}, {"type": "node", "id": 7799649547, "lat": 36.7810053, "lon": 42.8849107}, {"type": "node", "id": 7799649548, "lat": 36.7810365, "lon": 42.8852115}, {"type": "node", "id": 7799649549, "lat": 36.7810606, "lon": 42.8854752}, {"type": "node", "id": 7799649550, "lat": 36.7811059, "lon": 42.8854822}, {"type": "node", "id": 7799649551, "lat": 36.7813072, "lon": 42.8854469}, {"type": "node", "id": 7799649552, "lat": 36.7814432, "lon": 42.885415}, {"type": "node", "id": 8021314485, "lat": 36.8633497, "lon": 42.8339124, "tags": {"addr:city": "Simele", "addr:postcode": "42003", "addr:street": "\u062c\u0627\u062f\u0627 \u06af\u0648\u0644\u0627\u0646", "amenity": "pharmacy", "healthcare": "pharmacy", "name": "Daik Pharmacy", "name:ku": "\u062f\u06d5\u0631\u0645\u0627\u0646\u062e\u0627\u0646\u0627 \u062f\u0627\u06cc\u0643", "opening_hours": "Sa-Th 17:00-24:00"}}, {"type": "node", "id": 8297132854, "lat": 36.8610847, "lon": 42.8377527}, {"type": "node", "id": 8297132855, "lat": 36.8613032, "lon": 42.8373283}, {"type": "node", "id": 8297132856, "lat": 36.8612416, "lon": 42.8372297}, {"type": "node", "id": 8297132857, "lat": 36.861005, "lon": 42.8368708}, {"type": "node", "id": 8297132858, "lat": 36.8609569, "lon": 42.8368631}, {"type": "node", "id": 8297132859, "lat": 36.8609199, "lon": 42.83684}, {"type": "node", "id": 8297132860, "lat": 36.8608916, "lon": 42.8368091}, {"type": "node", "id": 8297132861, "lat": 36.8608657, "lon": 42.8367383}, {"type": "node", "id": 8297132862, "lat": 36.8608681, "lon": 42.8366951}, {"type": "node", "id": 8297132863, "lat": 36.8608151, "lon": 42.8366951}, {"type": "node", "id": 8297132864, "lat": 36.8606253, "lon": 42.8366243}, {"type": "node", "id": 8297132865, "lat": 36.8605538, "lon": 42.8365935}, {"type": "node", "id": 8297132866, "lat": 36.8605551, "lon": 42.8365734}, {"type": "node", "id": 8297132867, "lat": 36.8605082, "lon": 42.8365627}, {"type": "node", "id": 8297132868, "lat": 36.8604996, "lon": 42.8365688}, {"type": "node", "id": 8297132869, "lat": 36.8601039, "lon": 42.8364163}, {"type": "node", "id": 8297132870, "lat": 36.8600953, "lon": 42.8369555}, {"type": "node", "id": 8297132952, "lat": 36.8594768, "lon": 42.8440671}, {"type": "node", "id": 8297132953, "lat": 36.8589702, "lon": 42.8435612}, {"type": "node", "id": 8297132954, "lat": 36.8595061, "lon": 42.8428759}, {"type": "node", "id": 8297132955, "lat": 36.860399, "lon": 42.8430003}, {"type": "node", "id": 8297133052, "lat": 36.8611456, "lon": 42.8376344}, {"type": "node", "id": 8297133059, "lat": 36.8611683, "lon": 42.8371185}, {"type": "node", "id": 8297133109, "lat": 36.8525917, "lon": 42.8491602}, {"type": "node", "id": 8297133110, "lat": 36.8521545, "lon": 42.8490668}, {"type": "node", "id": 8297133111, "lat": 36.8522853, "lon": 42.8473809}, {"type": "node", "id": 8297133112, "lat": 36.8523151, "lon": 42.8473156}, {"type": "node", "id": 8297133113, "lat": 36.8523675, "lon": 42.8472922}, {"type": "node", "id": 8297133114, "lat": 36.8527785, "lon": 42.8473529}, {"type": "node", "id": 8297133115, "lat": 36.8528346, "lon": 42.8473903}, {"type": "node", "id": 8297133116, "lat": 36.852842, "lon": 42.8474416}, {"type": "node", "id": 8297307088, "lat": 36.8605947, "lon": 42.8373579}, {"type": "node", "id": 8507987797, "lat": 36.864258, "lon": 42.8298874, "tags": {"addr:city": "Simele", "amenity": "pharmacy", "dispensing": "yes", "healthcare": "pharmacy", "name": "\u0647\u0648\u0632\u0627\u0646", "name:en": "Hozan", "opening_hours": "Mo-Su 08:00-18:00"}}, {"type": "node", "id": 8671768917, "lat": 36.8585815, "lon": 42.8466468, "tags": {"addr:postcode": "42003", "addr:street": "Duhok-Zakho Road", "amenity": "pharmacy", "healthcare": "pharmacy", "name": "\u0647\u064a\u0644\u0628", "name:en": "Help", "name:ku": "\u0647\u06ce\u0644\u067e", "phone": "07514048219"}}, {"type": "node", "id": 8687617160, "lat": 36.7908129, "lon": 42.8561949}, {"type": "node", "id": 8687617166, "lat": 36.791085, "lon": 42.8561832}, {"type": "node", "id": 8687617167, "lat": 36.7910813, "lon": 42.855881}, {"type": "node", "id": 8687617168, "lat": 36.7908083, "lon": 42.8558903}, {"type": "node", "id": 8737227018, "lat": 36.6573485, "lon": 42.600368, "tags": {"amenity": "doctors", "name": "\u0645\u062d\u0645\u062f \u0645\u062d\u0645\u0648\u062f \u0639\u064a\u0633\u0649 \u0645\u062d\u062a\u0631\u0634"}}, {"type": "node", "id": 9091727917, "lat": 36.8600945, "lon": 42.8418402, "tags": {"addr:postcode": "42003", "amenity": "pharmacy", "healthcare": "pharmacy", "name": "\u0635\u064a\u062f\u0644\u064a\u0629 \u0646\u0627\u0632", "name:en": "Naz Pharmacy", "name:ku": "\u062f\u06d5\u0631\u0645\u0627\u0646\u062e\u0627\u0646\u0627 \u0646\u0627\u0632"}}, {"type": "node", "id": 9823095183, "lat": 36.8606958, "lon": 42.8369617, "tags": {"addr:city": "Semel", "addr:postcode": "42003", "addr:street": "\u0631\u06ce\u06a9\u0627 \u062e\u0627\u0646\u06a9\u06ce", "amenity": "hospital", "email": "info@semel-hospital.com", "emergency": "yes", "government": "hos", "healthcare": "hospital", "healthcare:speciality": "general;dentist;chiropractic;biology;ophthalmology;dermatology;gynaecology;paediatrics;vaccination;radiology;covid19;surgery;physiotherapy", "name": "Semel General Hospital", "website": "http://www.semel-hospital.com"}}, {"type": "node", "id": 9871307117, "lat": 36.8592227, "lon": 42.8441615, "tags": {"addr:postcode": "42003", "addr:street": "Semel Road", "amenity": "clinic", "internet_access": "wlan", "name": "\u06a9\u0644\u06cc\u0646\u06cc\u06a9\u0627 \u0647\u06cc\u0648\u0627 \u06cc\u0627 \u0646\u0648\u0698\u062f\u0627\u0631\u06cc", "name:en": "Hiwa Medical Clinic"}}, {"type": "node", "id": 9906456480, "lat": 36.8590625, "lon": 42.8436534}, {"type": "node", "id": 9906456482, "lat": 36.8590869, "lon": 42.8436777, "tags": {"entrance": "yes"}}, {"type": "node", "id": 9906456483, "lat": 36.8598434, "lon": 42.8436407, "tags": {"entrance": "yes"}}, {"type": "node", "id": 9906456490, "lat": 36.8598591, "lon": 42.8424127}, {"type": "node", "id": 9906456491, "lat": 36.8600094, "lon": 42.8434494}, {"type": "node", "id": 9906456492, "lat": 36.8597107, "lon": 42.8426073}, {"type": "node", "id": 9906456495, "lat": 36.8601764, "lon": 42.842764}, {"type": "node", "id": 9906456499, "lat": 36.8599746, "lon": 42.8425417}, {"type": "node", "id": 9906456501, "lat": 36.859946, "lon": 42.8440112, "tags": {"addr:city": "Semel", "addr:postcode": "42003", "addr:street": "Semel Road", "amenity": "pharmacy", "dispensing": "yes", "healthcare": "pharmacy", "name": "Parwar Pharmacy"}}, {"type": "way", "id": 509546991, "nodes": [4987682452, 4987682453, 4987682451, 4987682450, 4987682452], "tags": {"amenity": "clinic", "building": "yes"}}, {"type": "way", "id": 509556723, "nodes": [4987754724, 4987754725, 4987754726, 4987754727, 4987754724], "tags": {"amenity": "clinic", "building": "yes"}}, {"type": "way", "id": 509556733, "nodes": [4987754747, 4987754748, 4987754749, 4987754751, 4987754750, 4987754747], "tags": {"amenity": "clinic", "building": "yes"}}, {"type": "way", "id": 511961853, "nodes": [5006761302, 5006761303, 5006761304, 5006761305, 5006761307, 5006761309, 5006761302], "tags": {"amenity": "clinic", "building": "yes", "name": "\u0645\u0631\u0643\u0632 \u0639\u064a\u0646 \u0632\u0627\u0644\u0629 \u0627\u0644\u0635\u062d\u064a"}}, {"type": "way", "id": 835620145, "nodes": [7799649532, 7799649533, 7799649534, 7799649535, 7799649532], "tags": {"addr:city": "\u062f\u0647\u06c6\u06a9", "amenity": "hospital", "healthcare": "hospital", "name": "\u0646\u0647 \u062e\u0648\u0634\u062e\u0627\u0646\u0627 \u0632\u0627\u0631\u0648\u0643\u0628\u0648\u0646\u0649 \u0643\u0647 \u0645\u0628\u0627 \u062f\u0648\u0645\u064a\u0632 1", "name:ar": "\u0645\u0633\u062a\u0634\u0641\u0649 \u0648\u064a\u0644\u0627\u062f\u0629 \u0643\u0645\u0628 \u062f\u0648\u0645\u064a\u0632 1", "name:en": "Maternity Hospital Camp Domiz 1"}}, {"type": "way", "id": 835620147, "nodes": [7799649540, 7799649541, 7799649542, 7799649543, 7799649544, 7799649545, 7799649546, 7799649547, 7799649548, 7799649549, 7799649550, 7799649551, 7799649552, 7799649540], "tags": {"amenity": "hospital", "healthcare": "hospital", "name": "Nexwe\u015fxana Kempa Dom\u00eez 1", "name:ar": "\u0645\u0633\u062a\u0634\u0641\u0649 \u0643\u0645\u0628 \u062f\u0648\u0645\u064a\u06321", "name:en": "Camp Dumiz 1 Hospital"}}, {"type": "way", "id": 892719457, "nodes": [8297132854, 8297133052, 8297132855, 8297132856, 8297133059, 8297132857, 8297132858, 8297132859, 8297132860, 8297132861, 8297132862, 8297132863, 8297132864, 8297132865, 8297132866, 8297132867, 8297132868, 8297132869, 8297132870, 8297307088, 8297132854], "tags": {"addr:city": "Simele", "addr:street": "\u0631\u06ce\u06a9\u0627 \u062e\u0627\u0646\u06a9\u06ce", "amenity": "hospital", "emergency": "yes", "healthcare": "hospital", "opening_hours": "24/7", "website": "http://www.semel-hospital.com"}}, {"type": "way", "id": 892719470, "nodes": [8297132952, 9906456482, 9906456480, 8297132953, 8297132954, 9906456492, 9906456490, 9906456499, 9906456495, 8297132955, 9906456491, 9906456483, 8297132952], "tags": {"amenity": "hospital", "healthcare": "hospital", "name": "\u0645\u0633\u062a\u0634\u0641\u0649 \u0642\u062f\u064a\u0645", "name:ckb": "\u0646\u06d5\u062e\u0648\u0634\u062e\u0627\u0646\u0627 \u0643\u06d5\u06a4\u0646", "name:en": "old hospital"}}, {"type": "way", "id": 892719495, "nodes": [8297133109, 8297133110, 8297133111, 8297133112, 8297133113, 8297133114, 8297133115, 8297133116, 8297133109], "tags": {"addr:city": "\u062f\u0647\u06c6\u06a9", "addr:street": "\u062c\u0627\u062f\u0627 \u0634\u06d5\u0647\u06cc\u062f\u0627\u0646", "amenity": "hospital", "healthcare": "hospital"}}, {"type": "way", "id": 937708227, "nodes": [8687617166, 8687617167, 8687617168, 8687617160, 8687617166], "tags": {"addr:city": "Kabarto 1", "amenity": "doctors", "building": "yes", "healthcare": "doctor"}}]}