{"version": 0.6, "generator": "Overpass API 0.7.61.5 4133829e", "osm3s": {"timestamp_osm_base": "2024-03-06T11:34:00Z", "copyright": "The data included in this document is from www.openstreetmap.org. The data is made available under ODbL."}, "elements": [{"type": "node", "id": 1989486232, "lat": 1.402078, "lon": 34.4424622}, {"type": "node", "id": 2389551974, "lat": 1.402241, "lon": 34.4423301}, {"type": "node", "id": 2389551993, "lat": 1.4028518, "lon": 34.4433368}, {"type": "node", "id": 2389552000, "lat": 1.4029346, "lon": 34.4434236}, {"type": "node", "id": 2389552047, "lat": 1.4037294, "lon": 34.4433664}, {"type": "node", "id": 2389552052, "lat": 1.403763, "lon": 34.4408884}, {"type": "node", "id": 2389552070, "lat": 1.4038872, "lon": 34.4435222}, {"type": "node", "id": 2389552088, "lat": 1.4051219, "lon": 34.4421886}, {"type": "node", "id": 3858770515, "lat": 1.3333839, "lon": 34.3744778}, {"type": "node", "id": 3858770852, "lat": 1.3334796, "lon": 34.3746985}, {"type": "node", "id": 3858771067, "lat": 1.3334945, "lon": 34.37445}, {"type": "node", "id": 3858771155, "lat": 1.333584, "lon": 34.3746677}, {"type": "node", "id": 3858771312, "lat": 1.3336951, "lon": 34.3750166}, {"type": "node", "id": 3858772215, "lat": 1.3343141, "lon": 34.3742897}, {"type": "node", "id": 3858772567, "lat": 1.3345313, "lon": 34.3749072}, {"type": "node", "id": 3953636049, "lat": 1.2004836, "lon": 34.3671006, "tags": {"addr:city": "Bukyabo", "amenity": "clinic"}}, {"type": "node", "id": 3955147851, "lat": 1.1685267, "lon": 34.4003296}, {"type": "node", "id": 3955147959, "lat": 1.1731371, "lon": 34.3637684, "tags": {"addr:city": "Buhugu", "addr:street": "Bumasifwa Road", "amenity": "clinic", "name": "Mahapa Clinic"}}, {"type": "node", "id": 3955147960, "lat": 1.1706384, "lon": 34.3866491, "tags": {"addr:city": "Bumasifwa", "addr:street": "Bumasifwa Road", "amenity": "clinic", "name": "Manda Drug Clinic"}}, {"type": "node", "id": 3955147964, "lat": 1.1766564, "lon": 34.3690354, "tags": {"addr:city": "Bumasifwa", "addr:street": "Bunaseke Road", "amenity": "clinic"}}, {"type": "node", "id": 3958349270, "lat": 1.4017721, "lon": 34.4589937}, {"type": "node", "id": 3958349277, "lat": 1.3903983, "lon": 34.4189262, "tags": {"addr:city": "Kapteret", "amenity": "hospital", "bed_count": "3", "name": "Sumaya Health Centre"}}, {"type": "node", "id": 3958420784, "lat": 1.4545023, "lon": 34.4220757, "tags": {"addr:city": "Bunambutye", "addr:street": "Moroto Road", "amenity": "doctors", "bed_count": "0", "name": "Atari Health Centre 2"}}, {"type": "node", "id": 3958420787, "lat": 1.4214601, "lon": 34.3524003, "tags": {"addr:city": "Bunambutye", "addr:street": "Moroto Road", "amenity": "doctors", "bed_count": "4", "name": "Bunabutye Health centre"}}, {"type": "node", "id": 3958420794, "lat": 1.4435529, "lon": 34.3988536, "tags": {"addr:city": "Bunambutye", "addr:street": "Moroto Road", "amenity": "clinic", "bed_count": "13", "name": "kata health centre"}}, {"type": "node", "id": 3958426987, "lat": 1.397439, "lon": 34.4514838, "tags": {"addr:city": "Kapchorwa Town Council", "addr:street": "Kapchorwa Road", "amenity": "doctors", "bed_count": "0", "name": "Abacus Pharmaceuticals Dreams Shop"}}, {"type": "node", "id": 3958426989, "lat": 1.3964558, "lon": 34.4511509, "tags": {"addr:city": "Kapchorwa Town Council", "addr:street": "Administration Road", "amenity": "clinic", "bed_count": "5", "name": "Divine Drug Shop"}}, {"type": "node", "id": 3958426991, "lat": 1.397298, "lon": 34.4510143, "tags": {"addr:city": "Kapchorwa Town Council", "addr:street": "Kapchorwa Road", "amenity": "doctors", "name": "Jupiter Drug Shop"}}, {"type": "node", "id": 3958427003, "lat": 1.3958828, "lon": 34.4504995, "tags": {"addr:city": "Kapchorwa Town Council", "addr:street": "Kapchorwa Stage", "amenity": "clinic", "bed_count": "6", "name": "Rock Drug Shop"}}, {"type": "node", "id": 3959779039, "lat": 1.226244, "lon": 34.3613351, "tags": {"addr:city": "Buluganya", "amenity": "doctors", "bed_count": "8", "name": "Buluganya Health Centre"}}, {"type": "node", "id": 3959785081, "lat": 1.293678, "lon": 34.3518505, "tags": {"addr:city": "Namisuni", "amenity": "doctors", "healthcare": "doctor", "name": "Gamatimbei"}}, {"type": "node", "id": 3959785083, "lat": 1.2861066, "lon": 34.3777555, "tags": {"addr:city": "Masiira", "amenity": "doctors", "bed_count": "3", "healthcare": "doctor", "name": "Masiira Health Centre"}}, {"type": "node", "id": 6300881260, "lat": 1.5734502, "lon": 34.5340848}, {"type": "node", "id": 6308836179, "lat": 1.4124532, "lon": 34.5160175}, {"type": "node", "id": 6314918992, "lat": 1.5734754, "lon": 34.5342266}, {"type": "node", "id": 6314918993, "lat": 1.5734151, "lon": 34.5342373}, {"type": "node", "id": 6314918994, "lat": 1.5733899, "lon": 34.5340955}, {"type": "node", "id": 6463456606, "lat": 1.3339109, "lon": 34.3743455}, {"type": "node", "id": 7496776379, "lat": 1.1684911, "lon": 34.4004365}, {"type": "node", "id": 7496776380, "lat": 1.1686628, "lon": 34.4004938}, {"type": "node", "id": 7496776381, "lat": 1.1686985, "lon": 34.4003868}, {"type": "node", "id": 7496827239, "lat": 1.4015845, "lon": 34.4591207}, {"type": "node", "id": 7496827240, "lat": 1.4016788, "lon": 34.4593499}, {"type": "node", "id": 7496827241, "lat": 1.401917, "lon": 34.459178}, {"type": "node", "id": 7505774830, "lat": 1.412413, "lon": 34.5162441}, {"type": "node", "id": 7505774831, "lat": 1.4121328, "lon": 34.5161972}, {"type": "node", "id": 7505774832, "lat": 1.4121449, "lon": 34.5159544}, {"type": "node", "id": 10077657107, "lat": 1.4011596, "lon": 34.4433791, "tags": {"addr:street": "Sironko Rd", "amenity": "clinic", "name": "Shiva Clinic"}}, {"type": "node", "id": 10077679989, "lat": 1.4004129, "lon": 34.4424003, "tags": {"amenity": "clinic", "name": "Mandela Medical Center"}}, {"type": "node", "id": 10212558551, "lat": 1.4008068, "lon": 34.4424648, "tags": {"amenity": "clinic", "name": "Masha Clinic", "phone": "0772568286"}}, {"type": "node", "id": 10212571107, "lat": 1.4015397, "lon": 34.4430888, "tags": {"amenity": "clinic", "name": "Town Medical Centre"}}, {"type": "node", "id": 10212577741, "lat": 1.4009229, "lon": 34.4432946, "tags": {"amenity": "pharmacy", "name": "Arapsorowen Pharmacy"}}, {"type": "node", "id": 10212577742, "lat": 1.4007479, "lon": 34.4425016, "tags": {"amenity": "clinic", "name": "Welfare Medical Clinic", "phone": "0754089144"}}, {"type": "node", "id": 11056451852, "lat": 1.4980487, "lon": 34.4434062, "tags": {"amenity": "clinic", "name": "ATARI H/UNIT II"}}, {"type": "node", "id": 11056451897, "lat": 1.2265878, "lon": 34.3614706, "tags": {"amenity": "hospital", "name": "HEALTH CENTRE III"}}, {"type": "node", "id": 11056451918, "lat": 1.1722534, "lon": 34.3849422, "tags": {"amenity": "hospital", "name": "BUMASEKE H/L III"}}, {"type": "node", "id": 11056451956, "lat": 1.4942248, "lon": 34.4405818, "tags": {"amenity": "clinic", "name": "CATTLE CRASH"}}, {"type": "node", "id": 11056451998, "lat": 1.2080092, "lon": 34.3805479, "tags": {"amenity": "hospital", "name": "BUMASOBO HEALTH CENTRE III"}}, {"type": "node", "id": 11056452073, "lat": 1.1990145, "lon": 34.3890082, "tags": {"amenity": "clinic", "name": "BUNAGAMI H/L III"}}, {"type": "node", "id": 11056452100, "lat": 1.18157, "lon": 34.3656177, "tags": {"amenity": "clinic", "name": "BUGIBUGI HEALTH CENTRE I"}}, {"type": "node", "id": 11056452175, "lat": 1.1680244, "lon": 34.35862, "tags": {"amenity": "hospital", "name": "HEALTH CENTRE IV"}}, {"type": "node", "id": 11056452264, "lat": 1.2761413, "lon": 34.3663758, "tags": {"amenity": "hospital", "name": "BUGINYANYA HEALTH CENTRE III"}}, {"type": "node", "id": 11056452438, "lat": 1.2311174, "lon": 34.3648697, "tags": {"amenity": "clinic", "description": "NON FUNCTIONAL", "name": "AID POST B"}}, {"type": "way", "id": 382657086, "nodes": [3858772215, 3858772567, 3858771312, 3858771155, 3858770852, 3858770515, 3858771067, 6463456606, 3858772215], "tags": {"amenity": "hospital"}}, {"type": "way", "id": 674303182, "nodes": [6300881260, 6314918992, 6314918993, 6314918994, 6300881260], "tags": {"amenity": "hospital", "building": "hospital", "healthcare": "hospital", "name": "Hospital"}}, {"type": "way", "id": 800990240, "nodes": [2389552088, 2389552052, 2389551974, 1989486232, 2389551993, 2389552000, 2389552047, 2389552070, 2389552088], "tags": {"amenity": "hospital", "healthcare": "hospital", "name": "Kapchorwa Hospital"}}, {"type": "way", "id": 801522788, "nodes": [3955147851, 7496776379, 7496776380, 7496776381, 3955147851], "tags": {"addr:city": "Bugitimwa Sub County", "addr:street": "Bumasifwa Road", "amenity": "hospital", "bed_count": "4", "healthcare": "hospital", "name": "Bulwala Health Centre"}}, {"type": "way", "id": 801525071, "nodes": [3958349270, 7496827239, 7496827240, 7496827241, 3958349270], "tags": {"addr:city": "Kaptanya", "amenity": "hospital", "bed_count": "5", "healthcare": "hospital", "name": "Kokwomurya Health Center II"}}, {"type": "way", "id": 802413430, "nodes": [6308836179, 7505774830, 7505774831, 7505774832, 6308836179], "tags": {"amenity": "hospital", "healthcare": "hospital"}}]}