{"version": 0.6, "generator": "Overpass API 0.7.61.5 4133829e", "osm3s": {"timestamp_osm_base": "2024-03-05T14:57:45Z", "copyright": "The data included in this document is from www.openstreetmap.org. The data is made available under ODbL."}, "elements": [{"type": "node", "id": 36249762, "lat": 65.8543994, "lon": 23.1605373}, {"type": "node", "id": 54563232, "lat": 65.8550885, "lon": 23.1584379, "tags": {"amenity": "pharmacy", "dispensing": "yes", "fixme": "vilken kedja tillh\u00f6r detta apotek?", "name": "Kalix Apotek", "website:stock": "https://www.fass.se/"}}, {"type": "node", "id": 939239931, "lat": 65.6146327, "lon": 22.1726241}, {"type": "node", "id": 939239935, "lat": 65.6133774, "lon": 22.1685748}, {"type": "node", "id": 939239958, "lat": 65.6155075, "lon": 22.1681912}, {"type": "node", "id": 939239985, "lat": 65.6136857, "lon": 22.1685981}, {"type": "node", "id": 939240002, "lat": 65.6141139, "lon": 22.1726863}, {"type": "node", "id": 939240058, "lat": 65.6135468, "lon": 22.1728798}, {"type": "node", "id": 939240065, "lat": 65.6146971, "lon": 22.1683765}, {"type": "node", "id": 939240130, "lat": 65.6156605, "lon": 22.1722609}, {"type": "node", "id": 939240140, "lat": 65.6150872, "lon": 22.1682482}, {"type": "node", "id": 1003648714, "lat": 65.6010046, "lon": 22.1296616}, {"type": "node", "id": 1003648732, "lat": 65.6013969, "lon": 22.1299945}, {"type": "node", "id": 1003648776, "lat": 65.6011443, "lon": 22.1293377}, {"type": "node", "id": 1003648997, "lat": 65.6012471, "lon": 22.1303318}, {"type": "node", "id": 1003658971, "lat": 65.5915558, "lon": 22.153083, "tags": {"addr:city": "Lule\u00e5", "addr:country": "SE", "addr:housenumber": "9", "addr:postcode": "97241", "addr:street": "Robertsviksgatan", "amenity": "doctors", "healthcare": "doctor", "name": "Stadsvikens h\u00e4lsocentral", "website": "http://www.nll.se/sv/Halsa-och-sjukvard/Vardcentraler1/Lulea/Lulea-Stadsvikens-halsocentral/"}}, {"type": "node", "id": 1198463642, "lat": 65.8531009, "lon": 23.1579642}, {"type": "node", "id": 1198464614, "lat": 65.8542689, "lon": 23.1542119}, {"type": "node", "id": 1198464991, "lat": 65.8557585, "lon": 23.1592538}, {"type": "node", "id": 1198466257, "lat": 65.8548973, "lon": 23.1602403}, {"type": "node", "id": 1198466693, "lat": 65.8561266, "lon": 23.1574931}, {"type": "node", "id": 1198467576, "lat": 65.8559222, "lon": 23.1587533}, {"type": "node", "id": 1308031541, "lat": 65.8578396, "lon": 22.2982565}, {"type": "node", "id": 1308031579, "lat": 65.8576816, "lon": 22.2974626}, {"type": "node", "id": 1308031592, "lat": 65.8579844, "lon": 22.2970012}, {"type": "node", "id": 2314448230, "lat": 65.8586558, "lon": 22.2975377}, {"type": "node", "id": 2314448232, "lat": 65.8591253, "lon": 22.2969476}, {"type": "node", "id": 2314448235, "lat": 65.8590068, "lon": 22.2979776}, {"type": "node", "id": 2314448238, "lat": 65.8584671, "lon": 22.2968832}, {"type": "node", "id": 2314448240, "lat": 65.8584188, "lon": 22.295467}, {"type": "node", "id": 2314448242, "lat": 65.8585592, "lon": 22.2974519}, {"type": "node", "id": 2314448244, "lat": 65.8588181, "lon": 22.2984282}, {"type": "node", "id": 2314448246, "lat": 65.8585329, "lon": 22.2982136}, {"type": "node", "id": 2314448249, "lat": 65.8578791, "lon": 22.2960464}, {"type": "node", "id": 2314448251, "lat": 65.8587479, "lon": 22.2954134}, {"type": "node", "id": 2314448253, "lat": 65.8590068, "lon": 22.2959713}, {"type": "node", "id": 2480127923, "lat": 65.8539013, "lon": 23.1550519}, {"type": "node", "id": 2480127945, "lat": 65.8536147, "lon": 23.1559026}, {"type": "node", "id": 2480127947, "lat": 65.8536922, "lon": 23.1557234}, {"type": "node", "id": 2983978100, "lat": 65.58204, "lon": 22.1985553, "tags": {"amenity": "clinic", "healthcare": "clinic", "name": "\u00d6rn\u00e4sets h\u00e4lsocentral"}}, {"type": "node", "id": 3005809157, "lat": 65.5821686, "lon": 22.1986035, "tags": {"addr:city": "Lule\u00e5", "addr:country": "SE", "addr:housenumber": "26", "addr:postcode": "97432", "addr:street": "Storstigen", "amenity": "pharmacy", "app:apple": "https://itunes.apple.com/se/app/apotek-hj%C3%A4rtat-n%C3%A4ra-dig/id1150817089", "app:google": "https://play.google.com/store/apps/details?id=com.presencekit.apotek.se&hl=en_US", "brand": "Apotek Hj\u00e4rtat Skurholmen", "name": "Apotek Hj\u00e4rtat", "opening_hours": "Mo-Fr 08:30-17:00;Sa-Su off", "operator": "Apotek Hj\u00e4rtat Retail AB", "owner": "ICA Gruppen AB", "ownership": "private", "phone": "+46771405405", "website": "https://www.apotekhjartat.se/hitta-apotek-hjartat/norrbotten/apotek_hjartat_skurholmen_lulea/", "website:stock": "https://www.fass.se/"}}, {"type": "node", "id": 3136564762, "lat": 65.5838327, "lon": 22.1534625, "tags": {"addr:city": "Lule\u00e5", "addr:country": "SE", "addr:housenumber": "36", "addr:postcode": "972 31", "addr:street": "Storgatan", "amenity": "pharmacy", "app:apk": "se.apoteket.recept", "app:apple": "https://itunes.apple.com/se/app/mitt-apotek/id1053398061", "branch": "Apoteket Smedjan", "brand": "Apoteket", "healthcare": "pharmacy", "name": "Apoteket", "opening_hours": "Mo-Fr 10:00-19:00;Sa 10:00-16:00;Su 12:00-16:00;Nov 1 12:00-16:00;Dec 25 off", "operator": "Apoteket AB (556138-6532)", "owner": "Svenska Staten", "ownership": "national", "phone": "+46771450450", "website": "http://www.apoteket.se/privatpersoner/common/apotek.aspx?sq=Lule%u00e5&pi=&tab=Ha&menu=Ha&sortcolumn=namn&sortorder=asc&id=a12920301&proximity=false&vo=", "website:stock": "https://www.fass.se/"}}, {"type": "node", "id": 3138919083, "lat": 65.5844587, "lon": 22.1558083, "tags": {"addr:city": "Lule\u00e5", "addr:country": "SE", "addr:housenumber": "44", "addr:postcode": "972 31", "addr:street": "Storgatan", "amenity": "pharmacy", "app:apk": "se.apoteket.recept", "app:apple": "https://itunes.apple.com/se/app/mitt-apotek/id1053398061", "branch": "Apoteket Lejonet", "brand": "Apoteket", "healthcare": "pharmacy", "name": "Apoteket", "opening_hours": "Mo-Fr 08:00-20:00; Sa 10:00-16:00; Su 10:00-16:00", "operator": "Apoteket AB (556138-6532)", "owner": "Svenska Staten", "ownership": "national", "phone": "+46771450450", "website": "http://www.apoteket.se/privatpersoner/common/apotek.aspx?sq=Lule%u00e5&pi=&tab=Ha&menu=Ha&sortcolumn=namn&sortorder=asc&id=a20560001&proximity=false&vo=", "website:stock": "https://www.fass.se/", "wheelchair": "yes"}}, {"type": "node", "id": 3173172237, "lat": 65.5852797, "lon": 22.1548768, "tags": {"addr:city": "Lule\u00e5", "addr:country": "SE", "addr:housenumber": "51", "addr:postcode": "972 31", "addr:street": "Storgatan", "amenity": "pharmacy", "app:apk": "se.apoteket.recept", "app:apple": "https://itunes.apple.com/se/app/mitt-apotek/id1053398061", "branch": "Apoteket Shopping", "brand": "Apoteket", "healthcare": "pharmacy", "name": "Apoteket", "opening_hours": "Mo-Fr 10:00-18:00;Sa 10:00-16:00;Su 12:00-16:00", "operator": "Apoteket AB (556138-6532)", "owner": "Svenska Staten", "ownership": "national", "phone": "+46771450450", "website": "http://www.apoteket.se/privatpersoner/common/apotek.aspx?sq=Lule%u00e5&pi=&tab=Ha&menu=Ha&sortcolumn=namn&sortorder=asc&id=a18040001&proximity=false&vo=", "website:stock": "https://www.fass.se/"}}, {"type": "node", "id": 3175312659, "lat": 65.5741679, "lon": 22.1066232, "tags": {"addr:city": "Lule\u00e5", "addr:country": "SE", "addr:housenumber": "4", "addr:postcode": "97251", "addr:street": "Producentv\u00e4gen", "amenity": "pharmacy", "app:apple": "https://itunes.apple.com/se/app/kronans-apotek/id1129771604?l=en", "app:google": "https://play.google.com/store/apps/details?id=se.kronansapotek.kronan", "brand": "Kronans Apotek", "dispensing": "yes", "name": "Kronans Apotek", "opening_hours": "Mo-Fr 08:30-17:00;Sa-Su off", "operator": "Kronans Droghandel Apotek AB", "phone": "+46771612612", "website": "http://www.kdapotek.se/Valj-Apotek/Norrbottens-lan/Humlan/", "website:stock": "https://www.fass.se/"}}, {"type": "node", "id": 3175317262, "lat": 65.5744856, "lon": 22.1069063, "tags": {"addr:city": "Lule\u00e5", "addr:country": "SE", "addr:housenumber": "10", "addr:postcode": "97251", "addr:street": "Producentv\u00e4gen", "amenity": "clinic", "name": "Bergn\u00e4sets h\u00e4lsocentral", "website": "http://www.nll.se/bergnasetshc"}}, {"type": "node", "id": 3175602670, "lat": 65.6009392, "lon": 22.1301562, "tags": {"addr:city": "Lule\u00e5", "addr:country": "SE", "addr:housenumber": "73", "addr:postcode": "97341", "addr:street": "Mj\u00f6lkuddsv\u00e4gen", "amenity": "pharmacy", "app:apple": "https://itunes.apple.com/se/app/apotek-hj%C3%A4rtat-n%C3%A4ra-dig/id1150817089", "app:google": "https://play.google.com/store/apps/details?id=com.presencekit.apotek.se&hl=en_US", "brand": "Apotek Hj\u00e4rtat", "brand:wikidata": "Q10416114", "brand:wikipedia": "sv:Apotek Hj\u00e4rtat", "healthcare": "pharmacy", "name": "Apotek Hj\u00e4rtat", "opening_hours": "Mo-Fr 09:00-18:00;Sa-Su off", "operator": "Apotek Hj\u00e4rtat Retail AB", "owner": "ICA Gruppen AB", "ownership": "private", "phone": "+46771405405", "website": "https://www.apotekhjartat.se/hitta-apotek-hjartat/norrbotten/apotek_hjartat_mjolkudden_lulea/", "website:stock": "https://www.fass.se/"}}, {"type": "node", "id": 3182018696, "lat": 65.5848123, "lon": 22.1593511, "tags": {"addr:city": "Lule\u00e5", "addr:country": "SE", "addr:housenumber": "52", "addr:postcode": "972 31", "addr:street": "Storgatan", "amenity": "pharmacy", "app:apple": "https://itunes.apple.com/se/app/apotek-hj%C3%A4rtat-n%C3%A4ra-dig/id1150817089", "app:google": "https://play.google.com/store/apps/details?id=com.presencekit.apotek.se&hl=en_US", "brand": "Apotek Hj\u00e4rtat", "brand:wikidata": "Q10416114", "brand:wikipedia": "sv:Apotek Hj\u00e4rtat", "healthcare": "pharmacy", "name": "Apotek Hj\u00e4rtat", "opening_hours": "Mo-Fr 09:00-18:00;Sa 10:00-15:00;Su off", "operator": "Apotek Hj\u00e4rtat Retail AB", "owner": "ICA Gruppen AB", "ownership": "private", "phone": "+46771405405", "website": "https://www.apotekhjartat.se/hitta-apotek-hjartat/norrbotten/apotek_hjartat_storgatan_lulea/", "website:stock": "https://www.fass.se/"}}, {"type": "node", "id": 3230658011, "lat": 65.5887972, "lon": 22.2287814, "tags": {"addr:city": "Lule\u00e5", "addr:country": "SE", "addr:housenumber": "2", "addr:postcode": "97451", "addr:street": "Lillstrandsv\u00e4gen", "amenity": "clinic", "name": "Herts\u00f6ns h\u00e4lsocentral"}}, {"type": "node", "id": 3281788749, "lat": 65.614438, "lon": 22.1712845, "tags": {"addr:city": "Lule\u00e5", "addr:country": "SE", "addr:housenumber": "7", "addr:postcode": "976 33", "addr:street": "H\u00f6stv\u00e4gen", "amenity": "pharmacy", "app:apple": "https://itunes.apple.com/se/app/apotek-hj%C3%A4rtat-n%C3%A4ra-dig/id1150817089", "app:google": "https://play.google.com/store/apps/details?id=com.presencekit.apotek.se&hl=en_US", "brand": "Apotek Hj\u00e4rtat Bj\u00f6rkskatan", "name": "Apotek Hj\u00e4rtat", "opening_hours": "Mo-Fr 09:00-17:00;Sa-Su off", "operator": "Apotek Hj\u00e4rtat Retail AB", "owner": "ICA Gruppen AB", "ownership": "private", "phone": "+46771405405", "website:stock": "https://www.fass.se/"}}, {"type": "node", "id": 3281809008, "lat": 65.5915288, "lon": 22.1532738, "tags": {"addr:city": "Lule\u00e5", "addr:country": "SE", "addr:housenumber": "9", "addr:postcode": "97241", "addr:street": "Robertsviksgatan", "amenity": "pharmacy", "app:apk": "se.apoteket.recept", "app:apple": "https://itunes.apple.com/se/app/mitt-apotek/id1053398061", "branch": "Apoteket Viken", "brand": "Apoteket", "healthcare": "pharmacy", "name": "Apoteket", "opening_hours": "Mo-Fr 08:30-17:30;Sa-Su off", "operator": "Apoteket AB (556138-6532)", "owner": "Svenska Staten", "ownership": "national", "phone": "+46771450450", "website": "http://www.apoteket.se/privatpersoner/common/apotek.aspx?sq=Lule%u00e5&pi=&tab=Ha&menu=Ha&sortcolumn=namn&sortorder=asc&id=a11250001&proximity=false&vo=", "website:stock": "https://www.fass.se/"}}, {"type": "node", "id": 3865324301, "lat": 65.5846819, "lon": 22.1321406, "tags": {"addr:city": "Lule\u00e5", "addr:country": "SE", "addr:housenumber": "3", "addr:postcode": "97239", "addr:street": "Fredsgatan", "amenity": "doctors", "healthcare": "doctor", "name": "Doktorerna Hassler", "opening_hours": "Mo-Fr 07:30-12:00, 13:00-16:00; Sa-Su off", "website": "http://www.doktorerna-hassler.se/"}}, {"type": "node", "id": 3981622290, "lat": 65.8534794, "lon": 23.1562492}, {"type": "node", "id": 3981622292, "lat": 65.853647, "lon": 23.1593176}, {"type": "node", "id": 5286982447, "lat": 65.6133593, "lon": 22.1695411}, {"type": "node", "id": 5286982448, "lat": 65.6134235, "lon": 22.171306}, {"type": "node", "id": 5286982449, "lat": 65.6146439, "lon": 22.1724486}, {"type": "node", "id": 5286982451, "lat": 65.6155963, "lon": 22.17107}, {"type": "node", "id": 5286982452, "lat": 65.6155741, "lon": 22.1693909}, {"type": "node", "id": 9718032309, "lat": 65.8583345, "lon": 22.2977031}, {"type": "node", "id": 10586408203, "lat": 65.5949978, "lon": 22.1480998, "tags": {"amenity": "pharmacy", "brand": "Apotek Hj\u00e4rtat", "brand:wikidata": "Q10416114", "healthcare": "pharmacy", "name": "Apotek Hj\u00e4rtat"}}, {"type": "node", "id": 11091713772, "lat": 65.8555302, "lon": 23.1591259}, {"type": "node", "id": 11091713773, "lat": 65.8556444, "lon": 23.159226}, {"type": "node", "id": 11091713774, "lat": 65.8552886, "lon": 23.1589265}, {"type": "node", "id": 11091713775, "lat": 65.855426, "lon": 23.1588952}, {"type": "node", "id": 11091713776, "lat": 65.8551881, "lon": 23.1592378}, {"type": "node", "id": 11091713778, "lat": 65.8553518, "lon": 23.1588566}, {"type": "node", "id": 11091713812, "lat": 65.8561538, "lon": 23.1579001}, {"type": "node", "id": 11091713820, "lat": 65.8553747, "lon": 23.1558604}, {"type": "node", "id": 11091713821, "lat": 65.8547662, "lon": 23.1545089}, {"type": "node", "id": 11091713822, "lat": 65.8551601, "lon": 23.1549245}, {"type": "way", "id": 86384974, "nodes": [1003648776, 1003648732, 1003648997, 1003648714, 1003648776], "tags": {"addr:city": "Lule\u00e5", "addr:country": "SE", "addr:housenumber": "75", "addr:postcode": "97341", "addr:street": "Mj\u00f6lkuddsv\u00e4gen", "amenity": "clinic", "building": "yes", "check_date:opening_hours": "2023-09-10", "healthcare": "clinic", "name": "Kommunh\u00e4lsan", "opening_hours:signed": "no", "source": "bing"}}, {"type": "way", "id": 103818571, "nodes": [1198464614, 2480127923, 2480127947, 2480127945, 3981622290, 1198463642, 3981622292, 36249762, 1198466257, 11091713776, 11091713774, 11091713778, 11091713775, 11091713772, 11091713773, 1198464991, 1198467576, 11091713812, 1198466693, 11091713820, 11091713822, 11091713821, 1198464614], "tags": {"amenity": "hospital", "emergency": "yes", "health_specialty:emergency_medicine": "yes", "health_specialty:family_medicine": "yes", "health_specialty:intensive_care_medicine": "yes", "health_specialty:paediatrics": "yes", "health_specialty:radiology": "yes", "health_specialty:surgery": "yes", "name": "Kalix sjukhus", "opening_hours": "Mo-Su 06:00-20:00", "opening_hours:emergency": "24/7", "opening_hours:surgery": "Mo-Th 08:00-15:00; Fr 08:00-11:00", "operator": "Norrbottens l\u00e4ns landsting", "source": "Bing", "wikidata": "Q18291116", "wikipedia": "sv:Kalix sjukhus"}}, {"type": "way", "id": 222474682, "nodes": [2314448238, 2314448242, 9718032309, 1308031541, 1308031579, 1308031592, 2314448249, 2314448240, 2314448251, 2314448253, 2314448232, 2314448235, 2314448244, 2314448246, 2314448230, 2314448238], "tags": {"amenity": "clinic", "emergency": "yes", "name": "R\u00e5ne\u00e5 Vardcentral", "source": "local_knowledge"}}, {"type": "way", "id": 547177502, "nodes": [939239958, 5286982452, 5286982451, 939240130, 5286982449, 939239931, 939240002, 939240058, 5286982448, 5286982447, 939239935, 939239985, 939240065, 939240140, 939239958], "tags": {"addr:city": "Lule\u00e5", "addr:country": "SE", "addr:housenumber": "7", "addr:postcode": "976 33", "addr:street": "H\u00f6stv\u00e4gen", "amenity": "clinic", "name": "Bj\u00f6rkskatans h\u00e4lsocentral", "website": "http://www.nll.se/sv/Halsa-och-sjukvard/Vardcentraler1/Lulea/Lulea-Bjorkskatans-halsocentral/"}}]}