{"version": 0.6, "generator": "Overpass API 0.7.61.5 4133829e", "osm3s": {"timestamp_osm_base": "2024-03-05T14:33:06Z", "copyright": "The data included in this document is from www.openstreetmap.org. The data is made available under ODbL."}, "elements": [{"type": "node", "id": 295294, "lat": 58.4420046, "lon": 16.5992945, "tags": {"amenity": "ferry_terminal"}}, {"type": "node", "id": 13871568, "lat": 58.6378412, "lon": 16.5962527, "tags": {"amenity": "ferry_terminal", "name": "S\u00e4ter", "website": "https://www.trafikverket.se/resa-och-trafik/farjetrafik/skenasleden/"}}, {"type": "node", "id": 13871569, "lat": 58.6285596, "lon": 16.5946834, "tags": {"amenity": "ferry_terminal", "name": "Sken\u00e4s", "website": "https://www.trafikverket.se/resa-och-trafik/farjetrafik/skenasleden/"}}, {"type": "node", "id": 391007848, "lat": 58.4438947, "lon": 16.5973967, "tags": {"amenity": "ferry_terminal"}}, {"type": "node", "id": 2071184348, "lat": 58.3213336, "lon": 16.896912, "tags": {"amenity": "ferry_terminal", "ferry": "yes", "name": "Tyrisl\u00f6t", "operator": "Sk\u00e4rg\u00e5rdslinjen", "public_transport": "stop_position"}}, {"type": "node", "id": 4170548483, "lat": 58.4888796, "lon": 16.9424113, "tags": {"amenity": "ferry_terminal", "ferry": "yes", "name": "Ark\u00f6sund", "operator": "\u00d6stg\u00f6tatrafiken", "operator2": "Sk\u00e4rg\u00e5rdslinjen", "public_transport": "stop_position"}}, {"type": "node", "id": 4729923680, "lat": 58.4724921, "lon": 16.9661708, "tags": {"amenity": "ferry_terminal", "ferry": "yes", "name": "Kopparholmarna", "operator": "Sk\u00e4rg\u00e5rdslinjen", "public_transport": "stop_position"}}, {"type": "node", "id": 4729925201, "lat": 58.270969, "lon": 16.9710408, "tags": {"amenity": "ferry_terminal", "ferry": "yes", "name": "Gr\u00e4smar\u00f6", "operator": "Sk\u00e4rg\u00e5rdslinjen", "public_transport": "stop_position"}}, {"type": "node", "id": 4729926033, "lat": 58.2564553, "lon": 17.0045358, "tags": {"amenity": "ferry_terminal", "ferry": "yes", "name": "Harstena", "operator": "Sk\u00e4rg\u00e5rdslinjen", "public_transport": "stop_position"}}, {"type": "node", "id": 6660065068, "lat": 58.2550061, "lon": 16.8966779, "tags": {"amenity": "ferry_terminal", "ferry": "yes", "name": "\u00c4mt\u00f6", "operator": "Sk\u00e4rg\u00e5rdslinjen", "public_transport": "stop_position"}}]}