{"version": 0.6, "generator": "Overpass API 0.7.61.5 4133829e", "osm3s": {"timestamp_osm_base": "2024-03-06T11:04:23Z", "copyright": "The data included in this document is from www.openstreetmap.org. The data is made available under ODbL."}, "elements": [{"type": "node", "id": 4000048658, "lat": 1.9490664, "lon": 34.9452573, "tags": {"addr:district": "Amudat", "amenity": "school", "name": "Primary School", "source": "www.ubos.org", "source:date": "2010..2014"}}, {"type": "node", "id": 4000049057, "lat": 1.9493576, "lon": 34.9444561, "tags": {"addr:district": "Amudat", "amenity": "school", "name": "Primary School", "source": "www.ubos.org", "source:date": "2010..2014"}}, {"type": "node", "id": 4000049058, "lat": 1.9399153, "lon": 34.9493715, "tags": {"addr:district": "Amudat", "amenity": "school", "name": "Secondary School", "source": "www.ubos.org", "source:date": "2010..2014"}}, {"type": "node", "id": 4010670823, "lat": 1.7636942, "lon": 34.8558555, "tags": {"addr:city": "Katabok", "addr:county": "Pokot", "addr:district": "Amudat", "addr:parish": "Katabok", "addr:subcounty": "Amudat", "amenity": "school", "fixme": "Please, check the position of the node", "isced:level": "1", "name": "Kataabok Primary School", "source": "www.ubos.org", "source:date": "2010..2014", "wikidata": "Q22811279"}}, {"type": "node", "id": 4010670824, "lat": 1.7639633, "lon": 34.8100964, "tags": {"addr:district": "Nakapiripirit", "amenity": "school", "fixme": "Please, check the position of the node", "name": "Primary School", "source": "www.ubos.org", "source:date": "2010..2014"}}, {"type": "node", "id": 4010670825, "lat": 1.8670367, "lon": 34.9755882, "tags": {"addr:district": "Amudat", "amenity": "school", "fixme": "Please, check the position of the node", "name": "Primary School", "source": "www.ubos.org", "source:date": "2010..2014"}}, {"type": "node", "id": 4010670826, "lat": 1.9120791, "lon": 34.9701457, "tags": {"addr:district": "Amudat", "amenity": "school", "fixme": "Please, check the position of the node", "name": "Primary School", "source": "www.ubos.org", "source:date": "2010..2014"}}, {"type": "node", "id": 4010758017, "lat": 1.6600817, "lon": 34.9458022, "tags": {"addr:city": "Cheptapoyo", "addr:county": "Pokot", "addr:district": "Amudat", "addr:parish": "Losidok", "addr:subcounty": "Karita", "amenity": "school", "isced:level": "1", "name": "Cheptakoyo Primary School", "source": "www.ubos.org", "source:date": "2010..2014", "wikidata": "Q22811490"}}, {"type": "node", "id": 4010758018, "lat": 1.6926883, "lon": 34.9661667, "tags": {"addr:city": "Ding-ding", "addr:county": "Pokot", "addr:district": "Amudat", "addr:parish": "Katabok", "addr:subcounty": "Amudat", "amenity": "school", "isced:level": "1", "name": "Ding Ding Primary School", "source": "www.ubos.org", "source:date": "2010..2014", "wikidata": "Q22811489"}}, {"type": "node", "id": 4010758019, "lat": 1.6363298, "lon": 34.8884146, "tags": {"addr:city": "Kalokotyo", "addr:county": "Pokot", "addr:district": "Amudat", "addr:parish": "Losidok", "addr:subcounty": "Karita", "amenity": "school", "isced:level": "1", "name": "Kalokotyo Primary School", "source": "www.ubos.org", "source:date": "2010..2014", "wikidata": "Q22811488"}}, {"type": "node", "id": 4010758020, "lat": 1.7306075, "lon": 34.8642661, "tags": {"addr:district": "Amudat", "amenity": "school", "name": "Primary School", "source": "www.ubos.org", "source:date": "2010..2014"}}]}