{"version": 0.6, "generator": "Overpass API 0.7.61.5 4133829e", "osm3s": {"timestamp_osm_base": "2024-03-06T11:45:15Z", "copyright": "The data included in this document is from www.openstreetmap.org. The data is made available under ODbL."}, "elements": [{"type": "node", "id": 4957282322, "lat": 36.8631278, "lon": 42.988464, "tags": {"amenity": "bus_station", "bus": "yes", "name": "\u06af\u06d5\u0631\u0627\u062c \u0647\u06d5\u0648\u0644\u06ce\u0631", "name:ar": "\u0643\u0631\u0627\u062c \u0647\u0648\u0644\u064a\u0631", "name:en": "Hawler Garage", "name:ku": "\u06af\u06d5\u0631\u0627\u062c \u0647\u06d5\u0648\u0644\u06ce\u0631", "public_transport": "station"}}, {"type": "node", "id": 5359437821, "lat": 36.8612922, "lon": 42.9957691, "tags": {"amenity": "bus_station", "bus": "yes", "name": "\u0648\u064a\u0633\u062a\u06af\u0647 \u0647\u0627 \u067e\u0627\u0633\u064a\u0646 \u0628\u0627\u0632\u0627\u0631\u064a \u062f\u0647\u0648\u0643", "name:en": "Duhok Bus Station", "public_transport": "station"}}, {"type": "node", "id": 5396164827, "lat": 36.8604544, "lon": 43.0018018, "tags": {"amenity": "bus_station", "bus": "yes", "name": "\u0648\u064a\u0633\u062a\u06af\u0647 \u0647\u0627 \u067e\u0627\u0633\u064a\u062a \u0628\u0647 \u0631\u0648\u0634\u0643\u064a", "name:en": "Baroshke Bus Station", "public_transport": "station"}}, {"type": "node", "id": 6008164886, "lat": 36.8622046, "lon": 42.9955473, "tags": {"amenity": "bus_station", "bus": "yes", "name": "\u0643\u0631\u0627\u062c \u0645\u0648\u0635\u0644 \u062f\u0647\u0648\u0643", "public_transport": "station"}}, {"type": "node", "id": 8121049817, "lat": 36.862856, "lon": 42.9891274, "tags": {"addr:postcode": "42001", "addr:street": "\u0637\u0631\u064a\u0642 \u0622\u0632\u0627\u062f\u064a", "amenity": "bus_station", "bus": "yes", "email": "ismail.kochar12@gmail.com", "internet_access": "wlan", "name": "\u0645\u0643\u062a\u0628 \u0639\u0634\u062a\u0627\u0631", "opening_hours": "24/7", "phone": "07503203133", "public_transport": "station", "website": "https://ashtarduhok.business.site/"}}, {"type": "node", "id": 8828422942, "lat": 36.8469125, "lon": 42.9742126, "tags": {"addr:city": "Duhok", "addr:street": "\u062c\u0627\u062f\u06d5\u06cc\u0627 \u0628\u0627\u0631\u0632\u0627\u0646\u06cc", "aerialway": "station", "aerialway:access": "entry", "aerialway:summer:access": "entry", "internet_access": "wlan", "name": "\u062a\u06d5\u0644\u06d5\u0641\u0631\u06cc\u06a9\u0627 \u0632\u0627\u0648\u0627", "name:ar": "\u0632\u0627\u0648\u0629 \u062a\u0644\u0641\u0631\u064a\u0643", "name:ckb": "\u062a\u06d5\u0644\u06d5\u0641\u0631\u06cc\u06a9\u06cc \u0632\u0627\u0648\u0627", "name:en": "Zawa Cable Car", "name:ku": "Telefer\u00eeka Zawa", "name:tr": "Zawa Teleferik", "operator": "Happy Park - Duhok", "public_transport": "station"}}, {"type": "node", "id": 8828422944, "lat": 36.8346571, "lon": 42.9774991, "tags": {"addr:city": "Zawa Mountain, Duhok", "addr:street": "Zawa Road", "aerialway": "station", "aerialway:access": "exit", "aerialway:summer:access": "exit", "name": "\u062a\u06d5\u0644\u06d5\u0641\u0631\u06cc\u06a9\u0627 \u0632\u0627\u0648\u0627", "name:ar": "\u0632\u0627\u0648\u0629 \u062a\u0644\u0641\u0631\u064a\u0643", "name:ckb": "\u062a\u06d5\u0644\u06d5\u0641\u0631\u06cc\u06a9\u06cc \u0632\u0627\u0648\u0627", "name:en": "Zawa Cable Car", "name:ku": "Telefer\u00eeka Zawa", "name:tr": "Zawa Teleferik", "operator": "Happy Park - Duhok", "public_transport": "station"}}, {"type": "node", "id": 8828422946, "lat": 36.8349327, "lon": 42.9669634, "tags": {"aerialway": "station", "name": "\u062a\u06d5\u0644\u06d5\u0641\u0631\u06cc\u06a9\u0627 \u0632\u0627\u0648\u0627", "name:ar": "\u0632\u0627\u0648\u0629 \u062a\u0644\u0641\u0631\u064a\u0643", "name:ckb": "\u062a\u06d5\u0644\u06d5\u0641\u0631\u06cc\u06a9\u06cc \u0632\u0627\u0648\u0627", "name:en": "Zawa Cable Car", "name:ku": "Telefer\u00eeka Zawa", "name:tr": "Zawa Teleferik", "public_transport": "station"}}, {"type": "node", "id": 9543395263, "lat": 36.8512711, "lon": 42.9030822, "tags": {"addr:city": "Dohuk Terminal", "addr:street": "Dohuk Terminal", "amenity": "bus_station", "bus": "yes", "name": "International Passenger Terminal", "operator": "Kavin Group", "public_transport": "station"}}, {"type": "node", "id": 9842779206, "lat": 36.8833172, "lon": 43.1302898, "tags": {"addr:city": "Bablo Tourism Village", "addr:street": "Bablo Village Street", "aerialway": "station", "aerialway:access": "both", "aerialway:summer:access": "both", "air_conditioning": "yes", "internet_access": "yes", "public_transport": "station"}}]}