{"version": 0.6, "generator": "Overpass API 0.7.61.5 4133829e", "osm3s": {"timestamp_osm_base": "2024-03-06T11:26:46Z", "copyright": "The data included in this document is from www.openstreetmap.org. The data is made available under ODbL."}, "elements": [{"type": "node", "id": 3986140440, "lat": 0.694147, "lon": 34.1814546, "tags": {"addr:city": "Tororo", "addr:street": "Tororo Mbale Road", "amenity": "atm", "network": "Interswitch", "opening_hours": "24/7", "operator": "DFCU Bank"}}, {"type": "node", "id": 3986140441, "lat": 0.6943431, "lon": 34.1815664, "tags": {"addr:city": "Tororo", "addr:street": "Mbale-Tororo Road", "amenity": "atm", "network": "SwiftCash", "opening_hours": "24/7", "operator": "Housing Finance Bank"}}, {"type": "node", "id": 3987410925, "lat": 0.6935537, "lon": 34.1809778, "tags": {"addr:city": "Tororo", "addr:street": "Mbale road", "amenity": "atm", "network": "Visa;MasterCard", "opening_hours": "24/7", "operator": "Barclays Bank of Uganda"}}, {"type": "node", "id": 3990323922, "lat": 0.6427159, "lon": 34.2631648, "tags": {"addr:city": "Malaba Town Council", "amenity": "atm", "name": "Diamond Trust Bank Malaba Branch", "opening_hours": "24/7", "operator": "Diamond Trust Bank Uganda"}}, {"type": "node", "id": 3995426894, "lat": 0.6589643, "lon": 34.1601612, "tags": {"addr:city": "Osukuru", "addr:street": "Kampala Road", "amenity": "atm", "name": "Stanbic Bank Uganda ATM", "opening_hours": "24/7", "operator": "Stanbic Bank Uganda"}}, {"type": "node", "id": 3997644183, "lat": 0.6924337, "lon": 34.1815932, "tags": {"addr:city": "Tororo", "addr:street": "Uhuru Road", "amenity": "atm", "network": "Interswitch", "opening_hours": "24/7", "operator": "Centenary Rural Development Bank"}}, {"type": "node", "id": 3997644184, "lat": 0.6926012, "lon": 34.1812624, "tags": {"addr:city": "Tororo", "addr:street": "Uhuru Road", "amenity": "atm", "network": "Visa", "opening_hours": "24/7", "operator": "Stanbic Bank Uganda"}}, {"type": "node", "id": 3997880262, "lat": 0.4666979, "lon": 34.0885109, "tags": {"addr:city": "Western Division", "addr:street": "Jinja Road", "amenity": "atm", "network": "Visa", "opening_hours": "24/7", "operator": "Stanbic Bank Uganda"}}, {"type": "node", "id": 3997958534, "lat": 0.4658272, "lon": 34.0899661, "tags": {"amenity": "atm", "name": "Barclays Bank Busia Branch", "opening_hours": "24/7", "operator": "Barclays Bank of Uganda"}}, {"type": "node", "id": 3997958556, "lat": 0.4658042, "lon": 34.0972756, "tags": {"amenity": "atm", "name": "DFCU Busia Branch", "network": "Visa", "opening_hours": "24/7", "operator": "DFCU"}}, {"type": "node", "id": 3997958667, "lat": 0.4660941, "lon": 34.0934147, "tags": {"amenity": "atm", "name": "Equity Bank Busia Branch", "network": "Visa", "opening_hours": "24/7", "operator": "Equity Bank Uganda"}}, {"type": "node", "id": 7524107885, "lat": 0.4658751, "lon": 34.0962788, "tags": {"amenity": "atm", "opening_hours": "24/7", "operator": "Centenary Bank"}}, {"type": "node", "id": 11283416069, "lat": 0.6382945, "lon": 34.2636447, "tags": {"amenity": "atm", "operator": "Diamond Trust Bank"}}]}