{"version": 0.6, "generator": "Overpass API 0.7.61.5 4133829e", "osm3s": {"timestamp_osm_base": "2024-03-05T14:52:35Z", "copyright": "The data included in this document is from www.openstreetmap.org. The data is made available under ODbL."}, "elements": [{"type": "node", "id": 29827641, "lat": 59.345326, "lon": 18.0391349, "tags": {"amenity": "bank", "atm": "yes", "brand": "Handelsbanken", "brand:wikidata": "Q1421630", "brand:wikipedia": "en:Handelsbanken", "check_date": "2020-01-21", "check_date:opening_hours": "2022-11-23", "name": "Handelsbanken", "opening_hours": "Tu-Fr 10:00-15:00, Mo 10:00-18:00", "operator": "Handelsbanken", "website": "http://handelsbanken.se", "wheelchair": "yes"}}, {"type": "node", "id": 29898146, "lat": 59.3370036, "lon": 18.0898209, "tags": {"amenity": "bank", "brand": "Handelsbanken", "brand:wikidata": "Q1421630", "brand:wikipedia": "en:Handelsbanken", "name": "Handelsbanken", "opening_hours": "Mo-Fr 10:00-15:00", "operator": "Handelsbanken", "website": "http://handelsbanken.se"}}, {"type": "node", "id": 29898148, "lat": 59.3371069, "lon": 18.0908824, "tags": {"amenity": "bank", "atm": "no", "brand": "SEB", "brand:wikidata": "Q975655", "brand:wikipedia": "en:SEB Group", "check_date": "2023-07-15", "name": "SEB", "wheelchair": "yes"}}, {"type": "node", "id": 30049149, "lat": 59.366553, "lon": 18.1340388, "tags": {"amenity": "bank", "atm": "yes", "brand": "Handelsbanken", "brand:wikidata": "Q1421630", "brand:wikipedia": "en:Handelsbanken", "name": "Handelsbanken", "operator": "Handelsbanken", "source": "survey", "website": "http://handelsbanken.se"}}, {"type": "node", "id": 30067822, "lat": 59.365485, "lon": 18.13349, "tags": {"amenity": "bank", "atm": "yes", "brand": "SEB", "brand:wikidata": "Q975655", "brand:wikipedia": "en:SEB Group", "name": "SEB", "source": "survey"}}, {"type": "node", "id": 38427811, "lat": 59.4289, "lon": 17.949396, "tags": {"amenity": "bank", "atm": "yes", "brand": "SEB", "brand:wikidata": "Q975655", "brand:wikipedia": "en:SEB Group", "name": "SEB", "wheelchair": "yes"}}, {"type": "node", "id": 152252911, "lat": 59.4117701, "lon": 17.8017137}, {"type": "node", "id": 152252913, "lat": 59.4119666, "lon": 17.8018786}, {"type": "node", "id": 152252919, "lat": 59.411332, "lon": 17.8021773}, {"type": "node", "id": 152252921, "lat": 59.4112557, "lon": 17.8021133}, {"type": "node", "id": 152252922, "lat": 59.4114085, "lon": 17.8014102}, {"type": "node", "id": 152252923, "lat": 59.4115661, "lon": 17.8015425}, {"type": "node", "id": 298076009, "lat": 59.4117309, "lon": 17.8029631}, {"type": "node", "id": 298076069, "lat": 59.4112491, "lon": 17.8025588}, {"type": "node", "id": 299718698, "lat": 59.3648848, "lon": 18.1270852, "tags": {"amenity": "bank", "brand": "Nordea", "brand:wikidata": "Q1123823", "brand:wikipedia": "en:Nordea", "created_by": "Potlatch 0.10b", "name": "Nordea"}}, {"type": "node", "id": 318315593, "lat": 59.3289608, "lon": 18.0427047, "tags": {"amenity": "bank", "atm": "yes", "brand": "Handelsbanken", "brand:wikidata": "Q1421630", "brand:wikipedia": "en:Handelsbanken", "name": "Handelsbanken", "opening_hours": "Mo-We 09:30-16:00;Th 09:30-19:00;Fr 09:30-15:00;Sa-Su off", "operator": "Handelsbanken", "phone": "+46-8-54551780", "website": "http://handelsbanken.se"}}, {"type": "node", "id": 320966409, "lat": 59.3333396, "lon": 18.0322136, "tags": {"amenity": "bank", "brand": "SEB", "brand:wikidata": "Q975655", "brand:wikipedia": "en:SEB Group", "name": "SEB", "operator": "SEB"}}, {"type": "node", "id": 322623974, "lat": 59.335126, "lon": 18.0287698, "tags": {"amenity": "bank", "brand": "Handelsbanken", "brand:wikidata": "Q1421630", "brand:wikipedia": "en:Handelsbanken", "name": "Handelsbanken", "opening_hours": "Mo-Tu 09:30-16:00;We 09:30-19:00;Th-Fr 09:30-16:00;Sa-Su off", "operator": "Handelsbanken", "phone": "+46-8-54551360", "website": "http://handelsbanken.se"}}, {"type": "node", "id": 369973036, "lat": 59.3322637, "lon": 18.0793595, "tags": {"amenity": "bank", "atm": "yes", "brand": "Handelsbanken", "brand:wikidata": "Q1421630", "brand:wikipedia": "en:Handelsbanken", "name": "Handelsbanken", "opening_hours": "Mo 09:30-18:00;Tu 09:30-16:00;We 09:30-18:00;Th 09:30-16:00;Fr 09:30-15:00;Sa-Su off", "operator": "Handelsbanken", "phone": "+46854585800", "website": "http://handelsbanken.se"}}, {"type": "node", "id": 373453628, "lat": 59.3410007, "lon": 18.0909493, "tags": {"amenity": "bank", "atm": "yes", "brand": "Handelsbanken", "brand:wikidata": "Q1421630", "brand:wikipedia": "en:Handelsbanken", "name": "Handelsbanken", "operator": "Handelsbanken", "source": "survey", "website": "http://handelsbanken.se"}}, {"type": "node", "id": 410521358, "lat": 59.340236, "lon": 18.0764225, "tags": {"amenity": "bank", "atm": "yes", "brand": "Handelsbanken", "brand:wikidata": "Q1421630", "brand:wikipedia": "en:Handelsbanken", "name": "Handelsbanken", "operator": "Handelsbanken", "source": "survey", "website": "http://handelsbanken.se"}}, {"type": "node", "id": 410543908, "lat": 59.3359313, "lon": 18.0722899, "tags": {"amenity": "bank", "check_date": "2022-07-14", "name": "\u00c5landsbanken", "opening_hours": "Mo-Fr 10:00-15:00; Sa,Su off", "phone": "+46-771-415415", "website": "http://\u00e5landsbanken.se/"}}, {"type": "node", "id": 415280440, "lat": 59.3163815, "lon": 18.0410486, "tags": {"amenity": "bank", "atm": "yes", "brand": "Handelsbanken", "brand:wikidata": "Q1421630", "brand:wikipedia": "en:Handelsbanken", "name": "Handelsbanken H\u00f6galid", "opening_hours": "Sa,Su off; Mo-Fr 10:00-15:00", "operator": "Handelsbanken", "phone": "+46-8-4551930", "source": "photograph", "website": "http://handelsbanken.se", "wheelchair": "limited"}}, {"type": "node", "id": 415981782, "lat": 59.3328412, "lon": 18.0568843, "tags": {"amenity": "bank", "atm": "yes", "brand": "Handelsbanken", "brand:wikidata": "Q1421630", "brand:wikipedia": "en:Handelsbanken", "check_date": "2023-10-01", "name": "Handelsbanken", "opening_hours": "Mo 09:30-18:00;Tu-Th 09:30-16:00;Fr 09:30-15:00;Sa-Su off", "operator": "Handelsbanken", "phone": "+46-8-54521470", "website": "http://handelsbanken.se"}}, {"type": "node", "id": 466524079, "lat": 59.346649, "lon": 18.1001204, "tags": {"atm": "yes", "brand": "ICA N\u00e4ra", "brand:wikidata": "Q1663776", "brand:wikipedia": "sv:Ica", "name": "ICA N\u00e4ra G\u00e4rdet", "opening_hours": "Mo-Su 07:00-23:00", "shop": "convenience", "source": "survey", "website": "https://www.ica.se/butiker/nara/stockholm/ica-gardet-stockholm-1228/start/"}}, {"type": "node", "id": 483644586, "lat": 59.3325053, "lon": 18.0693901, "tags": {"amenity": "bank", "brand": "Swedbank", "brand:wikidata": "Q1145493", "brand:wikipedia": "en:Swedbank", "name": "Swedbank", "opening_hours": "Mo,We-Fr 10:00-16:00; Tu 10:00-18:00", "operator": "Swedbank", "wheelchair": "yes"}}, {"type": "node", "id": 486129645, "lat": 59.3337592, "lon": 18.0736957, "tags": {"amenity": "bank", "brand": "Handelsbanken", "brand:wikidata": "Q1421630", "brand:wikipedia": "en:Handelsbanken", "name": "Handelsbanken", "operator": "Handelsbanken", "website": "http://handelsbanken.se"}}, {"type": "node", "id": 489898954, "lat": 59.3329452, "lon": 18.0707291, "tags": {"amenity": "bank", "atm": "yes", "brand": "Nordea", "brand:wikidata": "Q1123823", "brand:wikipedia": "en:Nordea", "name": "Nordea", "opening_hours": "Mo-Th 10:00-16:00; Fr 10:00-15:00", "operator": "Nordea", "wheelchair": "yes"}}, {"type": "node", "id": 491495379, "lat": 59.4016365, "lon": 17.9467927, "tags": {"amenity": "bank", "atm": "yes", "brand": "Handelsbanken", "brand:wikidata": "Q1421630", "brand:wikipedia": "en:Handelsbanken", "name": "Handelsbanken", "operator": "Handelsbanken"}}, {"type": "node", "id": 496130653, "lat": 59.236876, "lon": 17.9814281, "tags": {"amenity": "bank", "atm": "yes", "brand": "Nordea", "brand:wikidata": "Q1123823", "brand:wikipedia": "en:Nordea", "name": "Nordea", "operator": "Nordea"}}, {"type": "node", "id": 496130659, "lat": 59.2364255, "lon": 17.9805562, "tags": {"amenity": "bank", "atm": "yes", "brand": "Swedbank", "brand:wikidata": "Q1145493", "brand:wikipedia": "en:Swedbank", "name": "Swedbank", "opening_hours": "Mo-We,Fr 10:00-15:00; Th 10:00-18:00", "operator": "Swedbank"}}, {"type": "node", "id": 496130661, "lat": 59.2365581, "lon": 17.982895, "tags": {"amenity": "bank", "atm": "yes", "brand": "SEB", "brand:wikidata": "Q975655", "brand:wikipedia": "en:SEB Group", "name": "SEB", "operator": "SEB"}}, {"type": "node", "id": 496130663, "lat": 59.2365644, "lon": 17.9832458, "tags": {"amenity": "bank", "atm": "yes", "brand": "Handelsbanken", "brand:wikidata": "Q1421630", "brand:wikipedia": "en:Handelsbanken", "name": "Handelsbanken", "operator": "Handelsbanken"}}, {"type": "node", "id": 503503178, "lat": 59.339717, "lon": 18.0361503, "tags": {"amenity": "bank", "brand": "Handelsbanken", "brand:wikidata": "Q1421630", "brand:wikipedia": "en:Handelsbanken", "check_date": "2023-08-27", "email": "st.eriksplan@handelsbanken.se", "name": "Handelsbanken", "opening_hours": "Mo-Fr 10:00-15:00", "operator": "Handelsbanken", "phone": "08-30 18 30", "website": "https://www.handelsbanken.se/sv/hitta-bankkontor/st-eriksplan", "wheelchair": "yes"}}, {"type": "node", "id": 552457309, "lat": 59.3078043, "lon": 18.0748987, "tags": {"amenity": "bank", "atm": "yes", "brand": "Swedbank", "brand:wikidata": "Q1145493", "brand:wikipedia": "en:Swedbank", "name": "Swedbank", "operator": "Swedbank", "wheelchair": "yes"}}, {"type": "node", "id": 566438137, "lat": 59.3386859, "lon": 17.9395303, "tags": {"amenity": "bank", "atm": "yes", "brand": "SEB", "brand:wikidata": "Q975655", "brand:wikipedia": "en:SEB Group", "name": "SEB", "opening_hours": "\"Endast tidsbokning\""}}, {"type": "node", "id": 677103708, "lat": 59.3176963, "lon": 18.0571716, "tags": {"atm": "yes", "brand": "ICA Supermarket", "brand:wikidata": "Q1663776", "check_date": "2022-06-21", "check_date:opening_hours": "2021-10-31", "name": "ICA Supermarket Aptiten", "opening_hours": "Mo-Su 08:00-22:00", "shop": "supermarket", "website": "https://www.ica.se/butiker/supermarket/stockholm/ica-supermarket-aptiten-1258/start/", "wheelchair": "yes"}}, {"type": "node", "id": 687035013, "lat": 59.2971133, "lon": 17.982747, "tags": {"addr:city": "H\u00e4gersten", "addr:street": "Sparbanksv\u00e4gen", "atm": "yes", "brand": "ICA Supermarket", "brand:wikidata": "Q1663776", "brand:wikipedia": "sv:Ica", "name": "Ica", "opening_hours": "Mo-Su 9:00-21:00", "shop": "supermarket"}}, {"type": "node", "id": 735442437, "lat": 59.2940285, "lon": 18.0320259, "tags": {"addr:country": "SE", "addr:housenumber": "11", "addr:street": "Brunnbyv\u00e4gen", "amenity": "bank", "brand": "Handelsbanken", "brand:wikidata": "Q1421630", "brand:wikipedia": "en:Handelsbanken", "name": "Handelsbanken"}}, {"type": "node", "id": 736797470, "lat": 59.2942604, "lon": 18.0803557, "tags": {"addr:country": "SE", "addr:housenumber": "47", "addr:street": "Arenav\u00e4gen", "amenity": "bank", "atm": "yes", "brand": "SEB", "brand:wikidata": "Q975655", "name": "SEB", "operator": "SEB", "wheelchair": "yes"}}, {"type": "node", "id": 918532200, "lat": 59.3975556, "lon": 18.0892749, "tags": {"addr:city": "Djursholm", "addr:country": "SE", "addr:housenumber": "10", "addr:street": "Vendev\u00e4gen", "amenity": "bank", "atm": "yes", "brand": "Handelsbanken", "brand:wikidata": "Q1421630", "brand:wikipedia": "en:Handelsbanken", "name": "Handelsbanken", "operator": "Handelsbanken", "source": "survey"}}, {"type": "node", "id": 918591706, "lat": 59.3971481, "lon": 18.0371599, "tags": {"amenity": "bank", "atm": "yes", "brand": "Swedbank", "brand:wikidata": "Q1145493", "brand:wikipedia": "en:Swedbank", "name": "Swedbank", "source": "survey"}}, {"type": "node", "id": 1090537316, "lat": 59.3365356, "lon": 18.0785816, "tags": {"amenity": "bank", "atm": "yes", "brand": "SEB", "brand:wikidata": "Q975655", "brand:wikipedia": "en:SEB Group", "name": "SEB", "operator": "SEB"}}, {"type": "node", "id": 1096531579, "lat": 59.1959743, "lon": 17.6272338, "tags": {"amenity": "bank", "atm": "yes", "brand": "Swedbank", "brand:wikidata": "Q1145493", "brand:wikipedia": "en:Swedbank", "check_date": "2023-10-01", "name": "Swedbank", "operator": "Swedbank"}}, {"type": "node", "id": 1193160099, "lat": 59.2423997, "lon": 18.0929269, "tags": {"addr:country": "SE", "addr:housenumber": "46", "addr:street": "Storforsplan", "amenity": "bank", "brand": "Handelsbanken", "brand:wikidata": "Q1421630", "brand:wikipedia": "en:Handelsbanken", "name": "Handelsbanken"}}, {"type": "node", "id": 1204403063, "lat": 59.3486543, "lon": 18.101006, "tags": {"amenity": "bank", "atm": "yes", "brand": "Handelsbanken", "brand:wikidata": "Q1421630", "brand:wikipedia": "en:Handelsbanken", "currency:EUR": "no", "name": "Handelsbanken", "operator": "Handelsbanken", "website": "http://handelsbanken.se"}}, {"type": "node", "id": 1213866497, "lat": 59.2429703, "lon": 18.0892349, "tags": {"addr:country": "SE", "addr:housenumber": "12", "addr:street": "Farstaplan", "amenity": "bank", "atm": "yes", "brand": "SEB", "brand:wikidata": "Q975655", "brand:wikipedia": "en:SEB Group", "name": "SEB", "opening_hours": "Mo-Th 10:00-18:00; Fr 10:00-15:00"}}, {"type": "node", "id": 1233864683, "lat": 59.2418004, "lon": 18.0904104, "tags": {"addr:country": "SE", "addr:housenumber": "28", "addr:street": "Farstag\u00e5ngen", "amenity": "bank", "atm": "yes", "brand": "Nordea", "brand:wikidata": "Q1123823", "brand:wikipedia": "en:Nordea", "name": "Nordea", "opening_hours": "Mo-Fr 10:00-15:00"}}, {"type": "node", "id": 1246189039, "lat": 59.3192854, "lon": 18.0709193, "tags": {"amenity": "bank", "atm": "yes", "brand": "Handelsbanken", "brand:wikidata": "Q1421630", "brand:wikipedia": "en:Handelsbanken", "name": "Handelsbanken", "opening_hours": "Mo-We 09:30-16:00;Th 09:30-18:00;Fr 09:30-15:00;Sa-Su off", "operator": "Handelsbanken", "phone": "+46-8-4522980", "website": "http://handelsbanken.se"}}, {"type": "node", "id": 1256871364, "lat": 59.3085154, "lon": 18.0764943, "tags": {"amenity": "bank", "brand": "Handelsbanken", "brand:wikidata": "Q1421630", "brand:wikipedia": "en:Handelsbanken", "name": "Handelsbanken", "opening_hours": "Mo 09:30-18:00; Tu 09:30-16:00; We 09:30-18:00; Th 09:30-16:00; Fr 09:30-15:00; Sa 10:00-14:00; Su off", "operator": "Handelsbanken", "phone": "+46-8-452 00 00", "website": "http://handelsbanken.se", "wheelchair": "yes"}}, {"type": "node", "id": 1278506327, "lat": 59.2978693, "lon": 18.0794082, "tags": {"amenity": "bank", "brand": "Swedbank", "brand:wikidata": "Q1145493", "brand:wikipedia": "en:Swedbank", "name": "Swedbank", "opening_hours": "Mo 10:00-18:00; Tu-Fr 10:00-15:00", "wheelchair": "yes"}}, {"type": "node", "id": 1278519621, "lat": 59.2953021, "lon": 18.0804303, "tags": {"addr:country": "SE", "addr:housenumber": "33", "addr:street": "Arenav\u00e4gen", "amenity": "bank", "brand": "Nordea", "brand:wikidata": "Q1123823", "brand:wikipedia": "en:Nordea", "name": "Nordea"}}, {"type": "node", "id": 1278519624, "lat": 59.2957965, "lon": 18.0804062, "tags": {"addr:country": "SE", "addr:housenumber": "27", "addr:street": "Arenav\u00e4gen", "amenity": "bank", "brand": "Danske Bank", "brand:wikidata": "Q1636974", "brand:wikipedia": "en:Danske Bank", "name": "Danske Bank", "operator": "Danske Bank"}}, {"type": "node", "id": 1278525429, "lat": 59.2945568, "lon": 18.08036, "tags": {"addr:country": "SE", "addr:housenumber": "41", "addr:street": "Arenav\u00e4gen", "amenity": "bank", "brand": "Handelsbanken", "brand:wikidata": "Q1421630", "brand:wikipedia": "en:Handelsbanken", "name": "Handelsbanken"}}, {"type": "node", "id": 1450512290, "lat": 59.3437772, "lon": 18.0539082, "tags": {"atm": "yes", "brand": "Nordea", "brand:wikidata": "Q1123823", "brand:wikipedia": "en:Nordea", "check_date": "2022-07-06", "disused:amenity": "bank", "name": "Nordea", "opening_hours": "Mo-Fr 10:00-16:00", "operator": "Nordea"}}, {"type": "node", "id": 1515233553, "lat": 59.3403795, "lon": 17.9388389, "tags": {"amenity": "bank", "brand": "Nordea", "brand:wikidata": "Q1123823", "brand:wikipedia": "en:Nordea", "name": "Nordea"}}, {"type": "node", "id": 1515234755, "lat": 59.3395657, "lon": 17.9382381, "tags": {"amenity": "bank", "brand": "Handelsbanken", "brand:wikidata": "Q1421630", "brand:wikipedia": "en:Handelsbanken", "name": "Handelsbanken"}}, {"type": "node", "id": 1547109965, "lat": 59.3375581, "lon": 17.9374742, "tags": {"amenity": "bank", "atm": "yes", "brand": "Swedbank", "brand:wikidata": "Q1145493", "brand:wikipedia": "en:Swedbank", "name": "Swedbank"}}, {"type": "node", "id": 1557691525, "lat": 59.2931824, "lon": 17.9672305, "tags": {"amenity": "bank", "brand": "Handelsbanken", "brand:wikidata": "Q1421630", "brand:wikipedia": "en:Handelsbanken", "name": "Handelsbanken"}}, {"type": "node", "id": 1571408961, "lat": 59.4794003, "lon": 17.7500728, "tags": {"amenity": "bank", "brand": "Handelsbanken", "brand:wikidata": "Q1421630", "brand:wikipedia": "en:Handelsbanken", "name": "Handelsbanken"}}, {"type": "node", "id": 1571408966, "lat": 59.4790466, "lon": 17.7502259, "tags": {"amenity": "bank", "name": "Sparbanken i Enk\u00f6ping"}}, {"type": "node", "id": 1634583230, "lat": 59.2898786, "lon": 17.8113634, "tags": {"amenity": "bank", "atm": "yes", "name": "Swedbank Eker\u00f6"}}, {"type": "node", "id": 1710047644, "lat": 59.4229867, "lon": 17.8351505, "tags": {"amenity": "bank", "atm": "yes", "brand": "Nordea", "brand:wikidata": "Q1123823", "brand:wikipedia": "en:Nordea", "name": "Nordea", "wheelchair": "yes"}}, {"type": "node", "id": 1753672110, "lat": 59.2018605, "lon": 17.7668199, "tags": {"amenity": "bank", "atm": "no", "brand": "Handelsbanken", "brand:wikidata": "Q1421630", "brand:wikipedia": "en:Handelsbanken", "name": "Handelsbanken"}}, {"type": "node", "id": 1753672111, "lat": 59.2016765, "lon": 17.7673724, "tags": {"amenity": "bank", "atm": "yes", "brand": "Swedbank", "brand:wikidata": "Q1145493", "brand:wikipedia": "en:Swedbank", "name": "Swedbank"}}, {"type": "node", "id": 1767975830, "lat": 59.3394125, "lon": 18.0052293, "tags": {"amenity": "bank", "brand": "Handelsbanken", "brand:wikidata": "Q1421630", "brand:wikipedia": "en:Handelsbanken", "name": "Handelsbanken", "opening_hours": "Mo-Tu 09:30-16:00;We 09:30-18:30;Th 09:30-16:00;Fr 09:30-15:00;Sa-Su off", "operator": "Handelsbanken", "phone": "+46-8-6664100", "website": "http://handelsbanken.se"}}, {"type": "node", "id": 1778361712, "lat": 59.3228756, "lon": 18.0714956, "tags": {"amenity": "bank", "atm": "yes", "brand": "Handelsbanken", "brand:wikidata": "Q1421630", "brand:wikipedia": "en:Handelsbanken", "name": "Handelsbanken", "opening_hours": "Mo 09:30-18:00;Tu-Th 09:30-16:00;Fr 09:30-15:00;Sa-Su off", "operator": "Handelsbanken", "phone": "+46-8-54521340", "website": "http://handelsbanken.se"}}, {"type": "node", "id": 1914071632, "lat": 59.2793412, "lon": 18.0089327, "tags": {"addr:city": "\u00c4lvsj\u00f6", "addr:country": "SE", "addr:housenumber": "220", "addr:postcode": "12544", "addr:street": "G\u00f6talandsv\u00e4gen", "amenity": "bank", "brand": "Handelsbanken", "brand:wikidata": "Q1421630", "brand:wikipedia": "en:Handelsbanken", "internet_access": "yes", "name": "Handelsbanken", "opening_hours": "Mo-Fr 10:00-15:00", "payment:cash": "no", "phone": "+46 8 556 205 20", "website": "https://www.handelsbanken.se/sv/hitta-bankkontor/alvsjo"}}, {"type": "node", "id": 1951128816, "lat": 59.342569, "lon": 18.1128653, "tags": {"amenity": "bank", "brand": "Handelsbanken", "brand:wikidata": "Q1421630", "brand:wikipedia": "en:Handelsbanken", "name": "Handelsbanken", "opening_hours": "Mo 09:30-16:30;Tu-Th 09:00-16:30;Fr 09:00-16:00", "operator": "Handelsbanken", "phone": "+46854583480", "website": "http://handelsbanken.se"}}, {"type": "node", "id": 1968682205, "lat": 59.274273, "lon": 18.0580019, "tags": {"addr:country": "SE", "addr:housenumber": "244", "addr:street": "Sk\u00f6nviksv\u00e4gen", "amenity": "bank", "brand": "Handelsbanken", "brand:wikidata": "Q1421630", "brand:wikipedia": "en:Handelsbanken", "name": "Handelsbanken", "opening_hours": "Mo-Th 16:00-19:00", "operator": "Handelsbanken"}}, {"type": "node", "id": 1983296343, "lat": 59.255711, "lon": 18.1144856, "tags": {"addr:country": "SE", "addr:housenumber": "89", "addr:street": "Sk\u00f6ndalsv\u00e4gen", "amenity": "bank", "brand": "Handelsbanken", "brand:wikidata": "Q1421630", "brand:wikipedia": "en:Handelsbanken", "name": "Handelsbanken", "opening_hours": "Mo-Tu,Th 10:00-16:00; We 10:00-19:00; Fr 10:00-14:00", "url": "http://www.handelsbanken.se/skondal"}}, {"type": "node", "id": 2015566397, "lat": 59.3298824, "lon": 18.0736659, "tags": {"amenity": "bank", "brand": "Handelsbanken", "brand:wikidata": "Q1421630", "brand:wikipedia": "en:Handelsbanken", "name": "Handelsbanken", "operator": "Handelsbanken", "website": "http://handelsbanken.se"}}, {"type": "node", "id": 2105619157, "lat": 59.4032675, "lon": 17.9471934, "tags": {"amenity": "bank", "atm": "yes", "brand": "SEB", "brand:wikidata": "Q975655", "brand:wikipedia": "en:SEB Group", "name": "SEB", "operator": "SEB", "source": "local_knowledge", "wheelchair": "yes"}}, {"type": "node", "id": 2105619163, "lat": 59.4034216, "lon": 17.94763, "tags": {"amenity": "bank", "atm": "yes", "brand": "Nordea", "brand:wikidata": "Q1123823", "brand:wikipedia": "en:Nordea", "name": "Nordea", "operator": "Nordea", "source": "local_knowledge"}}, {"type": "node", "id": 2105619167, "lat": 59.4037291, "lon": 17.9485121, "tags": {"amenity": "bank", "atm": "yes", "operator": "Swedbank", "source": "local_knowledge"}}, {"type": "node", "id": 2380152304, "lat": 59.4451767, "lon": 18.069491, "tags": {"amenity": "bank", "brand": "SEB", "brand:wikidata": "Q975655", "brand:wikipedia": "en:SEB Group", "name": "SEB", "opening_hours": "\"by appointment\"", "operator": "SEB", "wheelchair": "no"}}, {"type": "node", "id": 2415637911, "lat": 59.3053987, "lon": 18.1278259, "tags": {"addr:city": "Nacka", "addr:country": "SE", "addr:housenumber": "6", "addr:street": "Siroccogatan", "amenity": "bank", "name": "L\u00e4nsf\u00f6rs\u00e4kringar"}}, {"type": "node", "id": 2428944142, "lat": 59.1781003, "lon": 17.4305346, "tags": {"amenity": "bank", "brand": "Swedbank", "brand:wikidata": "Q1145493", "brand:wikipedia": "en:Swedbank", "name": "Swedbank"}}, {"type": "node", "id": 2504993313, "lat": 59.3055703, "lon": 18.128093, "tags": {"addr:country": "SE", "addr:housenumber": "4", "addr:street": "Siroccogatan", "amenity": "bank", "atm": "no", "drive_through": "no", "name": "Change Money", "operator": "ChangeGroup", "website": "https://se.changegroup.com/se/"}}, {"type": "node", "id": 2507156919, "lat": 59.359462, "lon": 17.9736605}, {"type": "node", "id": 2507156920, "lat": 59.3597903, "lon": 17.9738313}, {"type": "node", "id": 2507156923, "lat": 59.358672, "lon": 17.9759449}, {"type": "node", "id": 2507156924, "lat": 59.3585285, "lon": 17.9749498}, {"type": "node", "id": 2507156927, "lat": 59.3586693, "lon": 17.9748653}, {"type": "node", "id": 2507156929, "lat": 59.358927, "lon": 17.9744455}, {"type": "node", "id": 2507156930, "lat": 59.3591259, "lon": 17.9743785}, {"type": "node", "id": 2523168800, "lat": 59.3056751, "lon": 18.1226532, "tags": {"addr:city": "Nacka", "addr:country": "SE", "addr:housenumber": "2C", "addr:street": "Smedjegatan", "amenity": "bank", "brand": "Swedbank", "brand:wikidata": "Q1145493", "brand:wikipedia": "en:Swedbank", "name": "Swedbank", "opening_hours": "Mo-Fr 10:00-15:00", "postal_code": "13154", "website": "https://www.swedbank.se/"}}, {"type": "node", "id": 2554667726, "lat": 59.3431756, "lon": 18.0495781, "tags": {"amenity": "bank", "atm": "yes", "brand": "Swedbank", "brand:wikidata": "Q1145493", "brand:wikipedia": "en:Swedbank", "check_date": "2022-07-05", "name": "Swedbank", "operator": "Swedbank"}}, {"type": "node", "id": 2571793095, "lat": 59.332741, "lon": 17.9826197, "tags": {"amenity": "bank", "atm": "yes", "brand": "Handelsbanken", "brand:wikidata": "Q1421630", "brand:wikipedia": "en:Handelsbanken", "name": "Handelsbanken", "operator": "Handelsbanken", "website": "http://handelsbanken.se"}}, {"type": "node", "id": 2571793116, "lat": 59.3330379, "lon": 17.9807006, "tags": {"amenity": "bank", "atm": "yes", "brand": "Swedbank", "brand:wikidata": "Q1145493", "brand:wikipedia": "en:Swedbank", "name": "Swedbank"}}, {"type": "node", "id": 2637644590, "lat": 59.4268634, "lon": 17.9525197, "tags": {"amenity": "bank", "atm": "yes", "brand": "Handelsbanken", "brand:wikidata": "Q1421630", "brand:wikipedia": "en:Handelsbanken", "name": "Handelsbanken"}}, {"type": "node", "id": 3402753473, "lat": 59.3540947, "lon": 18.0874924, "tags": {"amenity": "bank", "brand": "Handelsbanken", "brand:wikidata": "Q1421630", "brand:wikipedia": "en:Handelsbanken", "name": "Handelsbanken", "operator": "Handelsbanken", "website": "http://handelsbanken.se", "wheelchair": "yes"}}, {"type": "node", "id": 3471937519, "lat": 59.2740518, "lon": 17.9068213, "tags": {"amenity": "bank", "atm": "yes", "brand": "Nordea", "brand:wikidata": "Q1123823", "brand:wikipedia": "en:Nordea", "name": "Nordea", "operator": "Nordea"}}, {"type": "node", "id": 3594312609, "lat": 59.0900098, "lon": 17.565027, "tags": {"addr:city": "J\u00e4rna", "addr:country": "SE", "addr:housenumber": "6", "addr:postcode": "153 30", "addr:street": "Storgatan", "amenity": "bank", "brand": "Handelsbanken", "opening_hours": "Mo-We 10:00-15:30; Th 10:00-17:30; Fr 10:00-15:30", "operator": "Handelsbanken", "phone": "+4686332890"}}, {"type": "node", "id": 3599738969, "lat": 59.4307297, "lon": 17.9501644, "tags": {"amenity": "bank", "brand": "Swedbank", "brand:wikidata": "Q1145493", "brand:wikipedia": "en:Swedbank", "name": "Swedbank"}}, {"type": "node", "id": 3704238727, "lat": 59.3490579, "lon": 18.1456588, "tags": {"addr:city": "Liding\u00f6", "addr:country": "SE", "addr:housenumber": "5", "addr:postcode": "18104", "addr:street": "Larsbergstorget", "amenity": "bank", "atm": "yes", "brand": "Handelsbanken", "brand:wikidata": "Q1421630", "brand:wikipedia": "en:Handelsbanken", "name": "Handelsbanken", "opening_hours": "Mo-Tu 9:30-16:00,We 09:30-19:00; Th-Fr 09:30-16:00", "operator": "Handelsbanken", "website": "http://handelsbanken.se"}}, {"type": "node", "id": 3717518575, "lat": 59.27412, "lon": 17.908302, "tags": {"amenity": "bank", "atm": "yes", "brand": "Swedbank", "brand:wikidata": "Q1145493", "brand:wikipedia": "en:Swedbank", "name": "Swedbank"}}, {"type": "node", "id": 3723792936, "lat": 59.2834, "lon": 18.114234, "tags": {"amenity": "atm", "atm": "yes"}}, {"type": "node", "id": 3764249692, "lat": 59.3328198, "lon": 18.0723754, "tags": {"amenity": "bank", "name": "SEB"}}, {"type": "node", "id": 3771989175, "lat": 59.3504228, "lon": 17.9599532, "tags": {"amenity": "bank", "atm": "no", "brand": "Handelsbanken", "brand:wikidata": "Q1421630", "brand:wikipedia": "en:Handelsbanken", "name": "Handelsbanken", "operator": "Handelsbanken", "website": "http://handelsbanken.se"}}, {"type": "node", "id": 3888791925, "lat": 59.4280337, "lon": 17.9447245, "tags": {"addr:city": "Sollentuna", "addr:country": "SE", "addr:housenumber": "12B", "addr:postcode": "191 60", "addr:street": "Tusbystr\u00e5ket", "amenity": "bank", "name": "Galaxy Level", "opening_hours": "Mo-Su 10:00-20:00", "operator": "Small World / Ria Money Transfer"}}, {"type": "node", "id": 4140924941, "lat": 59.2278225, "lon": 18.1319756, "tags": {"amenity": "bank", "brand": "Handelsbanken", "brand:wikidata": "Q1421630", "brand:wikipedia": "en:Handelsbanken", "name": "Handelsbanken"}}, {"type": "node", "id": 5245925650, "lat": 59.3100024, "lon": 18.0285804, "tags": {"amenity": "bank", "brand": "Handelsbanken", "brand:wikidata": "Q1421630", "brand:wikipedia": "en:Handelsbanken", "name": "Handelsbanken"}}, {"type": "node", "id": 5248382079, "lat": 59.3095461, "lon": 18.0281876, "tags": {"amenity": "bank", "brand": "Danske Bank", "brand:wikidata": "Q1636974", "brand:wikipedia": "en:Danske Bank", "name": "Danske Bank", "operator": "Danske Bank"}}, {"type": "node", "id": 5309130724, "lat": 59.1953161, "lon": 17.6283024, "tags": {"amenity": "bank", "brand": "Nordea", "brand:wikidata": "Q1123823", "brand:wikipedia": "en:Nordea", "check_date": "2023-06-11", "name": "Nordea", "opening_hours": "Mo-Fr 10:00-13:00; Sa-Su off"}}, {"type": "node", "id": 6680289213, "lat": 59.3690755, "lon": 18.0180791, "tags": {"amenity": "bank", "name": "L\u00e4nsf\u00f6rs\u00e4kringar Stockholm", "opening_hours": "Mo-Fr 10:00-14:00", "phone": "+46 8-562 830 00", "website": "https://www.lansforsakringar.se/stockholm/om-oss/kontakta-oss/123842/"}}, {"type": "node", "id": 6864114953, "lat": 59.2938521, "lon": 18.0807534, "tags": {"amenity": "bank", "name": "Svenska Spel"}}, {"type": "node", "id": 6864114958, "lat": 59.2957782, "lon": 18.0804151, "tags": {"amenity": "bank", "name": "L\u00e4nsf\u00f6rs\u00e4kringar Stockholm"}}, {"type": "node", "id": 7040473211, "lat": 59.3612546, "lon": 17.9664038, "tags": {"amenity": "bank", "brand": "Handelsbanken", "brand:wikidata": "Q1421630", "brand:wikipedia": "en:Handelsbanken", "check_date": "2023-04-12", "name": "Handelsbanken"}}, {"type": "node", "id": 7040554329, "lat": 59.3591641, "lon": 18.0000302, "tags": {"amenity": "bank", "atm": "yes", "brand": "Swedbank", "brand:wikidata": "Q1145493", "brand:wikipedia": "en:Swedbank", "check_date:opening_hours": "2022-12-05", "level": "0", "name": "Swedbank", "opening_hours": "Mo 10:00-18:00; Tu-Fr 10:00-15:00", "wheelchair": "yes"}}, {"type": "node", "id": 7089844644, "lat": 59.3425726, "lon": 18.0510792, "tags": {"amenity": "bank", "brand": "SEB", "brand:wikidata": "Q975655", "brand:wikipedia": "en:SEB Group", "check_date": "2022-06-30", "name": "SEB", "opening_hours": "\"Endast \u00f6ppet f\u00f6r tidsbokade m\u00f6ten\""}}, {"type": "node", "id": 7162230637, "lat": 59.3596782, "lon": 17.9740807}, {"type": "node", "id": 7162230638, "lat": 59.3596522, "lon": 17.9740727}, {"type": "node", "id": 7162230639, "lat": 59.3595059, "lon": 17.974357}, {"type": "node", "id": 7162230640, "lat": 59.3595114, "lon": 17.9744294}, {"type": "node", "id": 7162230641, "lat": 59.3593432, "lon": 17.9747567}, {"type": "node", "id": 7162230642, "lat": 59.3593077, "lon": 17.9747432}, {"type": "node", "id": 7162230643, "lat": 59.3591587, "lon": 17.9750383}, {"type": "node", "id": 7162230644, "lat": 59.3591655, "lon": 17.9751107}, {"type": "node", "id": 7162230645, "lat": 59.3590521, "lon": 17.9753387}, {"type": "node", "id": 7162230646, "lat": 59.3589591, "lon": 17.9752824}, {"type": "node", "id": 7162230647, "lat": 59.3587814, "lon": 17.9756337}, {"type": "node", "id": 7162230648, "lat": 59.3587896, "lon": 17.9757142}, {"type": "node", "id": 7162230649, "lat": 59.3592906, "lon": 17.9741062}, {"type": "node", "id": 7162230650, "lat": 59.3592954, "lon": 17.9740164}, {"type": "node", "id": 7162230651, "lat": 59.3591614, "lon": 17.9743999}, {"type": "node", "id": 7162230652, "lat": 59.3587096, "lon": 17.9748881}, {"type": "node", "id": 7162230653, "lat": 59.3589215, "lon": 17.9747647}, {"type": "node", "id": 8022388023, "lat": 59.2062311, "lon": 17.9031254, "tags": {"amenity": "bank", "brand": "Handelsbanken", "brand:wikidata": "Q1421630", "brand:wikipedia": "en:Handelsbanken", "name": "Handelsbanken"}}, {"type": "node", "id": 8306041732, "lat": 59.1681003, "lon": 18.136347, "tags": {"amenity": "bank", "operator": "Nordea"}}, {"type": "node", "id": 8592119000, "lat": 59.3590518, "lon": 17.9744035}, {"type": "node", "id": 8592119001, "lat": 59.358924, "lon": 17.9746189}, {"type": "node", "id": 8622427647, "lat": 59.3623405, "lon": 17.8718852, "tags": {"addr:city": "V\u00e4llingby", "addr:country": "SE", "addr:housenumber": "23", "addr:postcode": "162 65", "addr:street": "V\u00e4llingby torg", "amenity": "bank", "atm": "yes", "brand": "Handelsbanken", "brand:wikidata": "Q1421630", "brand:wikipedia": "en:Handelsbanken", "drive_through": "no", "name": "Handelsbanken", "phone": "+46 8 633 28 30", "website": "https://www.handelsbanken.se/sv/hitta-bankkontor/vallingby"}}, {"type": "node", "id": 9050827715, "lat": 59.3587573, "lon": 18.091529, "tags": {"addr:city": "Stockholm", "addr:country": "SE", "addr:housenumber": "55", "addr:postcode": "115 47", "addr:street": "Bobergsgatan", "amenity": "bank", "brand": "Swedbank", "brand:wikidata": "Q1145493", "brand:wikipedia": "en:Swedbank", "name": "Swedbank"}}, {"type": "node", "id": 9417754817, "lat": 59.3683695, "lon": 18.0061105, "tags": {"addr:country": "SE", "addr:housenumber": "4", "addr:street": "Stj\u00e4rntorget", "amenity": "bank", "name": "SEB"}}, {"type": "node", "id": 10018517772, "lat": 59.3586419, "lon": 17.9757308}, {"type": "node", "id": 10018517773, "lat": 59.3585648, "lon": 17.9751955}, {"type": "node", "id": 10018517774, "lat": 59.3584808, "lon": 17.9753707}, {"type": "node", "id": 10018517775, "lat": 59.3585307, "lon": 17.975674}, {"type": "node", "id": 11167608269, "lat": 59.3340513, "lon": 18.066867, "tags": {"amenity": "bank", "brand": "SEB", "brand:wikidata": "Q975655", "name": "SEB", "opening_hours": "\"They have open for booked meetings.\""}}, {"type": "way", "id": 27167216, "nodes": [152252923, 152252911, 152252913, 298076009, 298076069, 152252919, 152252921, 152252922, 152252923], "tags": {"atm": "yes", "brand": "ICA Kvantum", "brand:wikidata": "Q1663776", "brand:wikipedia": "sv:Ica", "building": "retail", "delivery": "no", "email": "info@viksjohallen.se", "name": "ICA Kvantum Viksj\u00f6", "opening_hours": "Mo-Su 08:00-21:00", "phone": "+46 8-584 305 00", "shop": "supermarket", "website": "https://www.ica.se/butiker/kvantum/jarfalla/ica-kvantum-viksjo-1159/start/", "wheelchair": "yes"}}, {"type": "way", "id": 243284895, "nodes": [2507156919, 2507156920, 7162230637, 7162230638, 7162230639, 7162230640, 7162230641, 7162230642, 7162230643, 7162230644, 7162230645, 7162230646, 7162230647, 7162230648, 2507156923, 10018517772, 10018517775, 10018517774, 10018517773, 2507156924, 2507156927, 7162230652, 7162230653, 8592119001, 2507156929, 8592119000, 2507156930, 7162230651, 7162230649, 7162230650, 2507156919], "tags": {"amenity": "bank", "brand": "Swedbank", "brand:wikidata": "Q1145493", "brand:wikipedia": "en:Swedbank", "building": "yes", "check_date": "2024-01-07", "name": "Swedbank", "opening_hours:signed": "no"}}]}