{"version": 0.6, "generator": "Overpass API 0.7.61.5 4133829e", "osm3s": {"timestamp_osm_base": "2024-03-06T11:02:15Z", "copyright": "The data included in this document is from www.openstreetmap.org. The data is made available under ODbL."}, "elements": [{"type": "node", "id": 5559914421, "lat": 34.9017506, "lon": 44.6297468, "tags": {"amenity": "atm", "name:en": "mzgawti star", "tourism": "attraction"}}, {"type": "node", "id": 8499675517, "lat": 34.7923319, "lon": 45.0558267, "tags": {"amenity": "atm"}}, {"type": "node", "id": 9932730217, "lat": 34.9053715, "lon": 44.6257003, "tags": {"amenity": "atm", "name": "\u0645\u0648\u0644\u062f\u0647 : \u0646\u0627\u0635\u062d \u0641\u0627\u062a\u062d"}}, {"type": "node", "id": 9932739817, "lat": 34.9017439, "lon": 44.6296762, "tags": {"amenity": "atm"}}, {"type": "node", "id": 9932740417, "lat": 34.890237, "lon": 44.6184643, "tags": {"amenity": "atm", "name": "\u0633\u0627\u0626\u064a\u0644\u0648 \u0637\u0648\u0632 \u062e\u0648\u0631\u0645\u0627\u062a\u0648"}}]}