{"version": 0.6, "generator": "Overpass API 0.7.61.5 4133829e", "osm3s": {"timestamp_osm_base": "2024-03-05T15:08:58Z", "copyright": "The data included in this document is from www.openstreetmap.org. The data is made available under ODbL."}, "elements": [{"type": "node", "id": 34002096, "lat": 67.848889, "lon": 20.302778, "tags": {"ele": "530", "name": "Kiruna", "name:en": "Kiruna", "name:fi": "Kiiruna", "name:fit": "Kieruna", "name:he": "\u05e7\u05d9\u05e8\u05d5\u05e0\u05d4", "name:lt": "Kiruna", "name:ru": "\u041a\u0438\u0440\u0443\u043d\u0430", "name:se": "Giron", "name:sv": "Kiruna", "name:uk": "\u041a\u0456\u0440\u0443\u043d\u0430", "place": "town", "population": "23001", "ref:se:pts:postort": "KIRUNA", "ref:se:scb": "8676", "wikidata": "Q83232", "wikipedia": "en:Kiruna"}}, {"type": "node", "id": 520326295, "lat": 67.9408085, "lon": 20.3981546, "tags": {"name": "Kallovaara", "place": "hamlet"}}, {"type": "node", "id": 520440636, "lat": 67.9619037, "lon": 20.0912927, "tags": {"comment": "according to the book \"Kirunas byar\", this village is called \"K\u00e4yrivuopio\" and not \"K\u00e4yravuopio\" as most maps say", "name": "K\u00e4yr\u00e4vuopio", "name:se": "Geavruvuohppi", "place": "hamlet", "snowmobile": "yes"}}, {"type": "node", "id": 883376432, "lat": 67.8293086, "lon": 19.6318824, "tags": {"name": "Laukkuluspa", "name:fit": "Laukkuluspa", "name:se": "L\u00e1vkaluspi", "place": "hamlet"}}, {"type": "node", "id": 883376487, "lat": 67.815185, "lon": 19.7932812, "tags": {"name": "Holmaj\u00e4rvi", "place": "hamlet"}}, {"type": "node", "id": 883376515, "lat": 67.8677567, "lon": 19.3582934, "tags": {"name": "\u00c5rosjokk", "name:se": "Orusjohka", "name:sv": "\u00c5rosj\u00e5kk", "place": "hamlet"}}, {"type": "node", "id": 883376588, "lat": 67.7993996, "lon": 19.8574622, "tags": {"name": "Puoltsa", "name:fit": "Puoltsa", "name:se": "Buolz\u030ca", "place": "hamlet"}}, {"type": "node", "id": 883376617, "lat": 67.8627942, "lon": 19.4340146, "tags": {"name": "Akkar", "name:se": "\u00c1hkkar", "name:sv": "Akkar", "place": "hamlet"}}, {"type": "node", "id": 1721148183, "lat": 67.9440206, "lon": 20.3571617, "tags": {"name": "Kurravaara", "name:fit": "Kurravaara", "name:se": "Gurrav\u00e1rri", "place": "village", "population": "70", "ref:se:pts:postort": "KURRAVAARA", "wikidata": "Q1995016", "wikipedia": "sv:Kurravaara"}}, {"type": "node", "id": 2397276215, "lat": 67.9312212, "lon": 20.0614839, "tags": {"addr:city": "Kiruna", "name": "Krokvik", "place": "hamlet", "postal_code": "98195"}}, {"type": "node", "id": 2397276220, "lat": 68.0702099, "lon": 19.8305127, "tags": {"name": "Rensj\u00f6n", "place": "hamlet"}}, {"type": "node", "id": 3472091122, "lat": 67.99242, "lon": 19.8987951, "tags": {"name": "Rautas", "name:fit": "Rautas", "name:se": "R\u00e1vttas", "place": "hamlet"}}, {"type": "node", "id": 3736199436, "lat": 67.9542455, "lon": 20.3855109, "tags": {"name": "Rotivaara", "place": "hamlet"}}]}