{"version": 0.6, "generator": "Overpass API 0.7.61.5 4133829e", "osm3s": {"timestamp_osm_base": "2024-02-29T13:47:24Z", "copyright": "The data included in this document is from www.openstreetmap.org. The data is made available under ODbL."}, "elements": [{"type": "node", "id": 6535944739, "lat": 8.258731, "lon": -1.6091304, "tags": {"amenity": "school"}}, {"type": "node", "id": 6810813461, "lat": 8.2488873, "lon": -1.6186684, "tags": {"amenity": "school"}}, {"type": "node", "id": 6991166640, "lat": 8.1753065, "lon": -1.683821, "tags": {"amenity": "school"}}, {"type": "node", "id": 7201326585, "lat": 8.0927318, "lon": -1.7839091, "tags": {"amenity": "school", "name": "Techira No 2 MA Basic school"}}, {"type": "node", "id": 7201326586, "lat": 8.1666342, "lon": -1.8602121, "tags": {"amenity": "school", "name": "Ahenakom MA Basic school"}}, {"type": "node", "id": 7201326686, "lat": 8.1636352, "lon": -1.8487492, "tags": {"amenity": "school", "name": "Sogliboi MA Basic school"}}, {"type": "node", "id": 7201326689, "lat": 8.1600538, "lon": -1.9437553, "tags": {"amenity": "school", "name": "Dwere MA Basic school"}}, {"type": "node", "id": 7201326690, "lat": 8.1011981, "lon": -1.9748439, "tags": {"amenity": "school", "name": "Weila MA Basic school"}}, {"type": "node", "id": 7201326691, "lat": 8.0995337, "lon": -1.9255892, "tags": {"amenity": "school", "name": "Bug Nkwanta MA Basic school"}}, {"type": "node", "id": 7201326692, "lat": 8.0892624, "lon": -1.8785389, "tags": {"amenity": "school", "name": "Nyabea MA Basic School"}}]}