{"version": 0.6, "generator": "Overpass API 0.7.61.5 4133829e", "osm3s": {"timestamp_osm_base": "2024-03-06T11:38:08Z", "copyright": "The data included in this document is from www.openstreetmap.org. The data is made available under ODbL."}, "elements": [{"type": "node", "id": 11151161535, "lat": 1.8553061, "lon": 34.6154968, "tags": {"amenity": "hospital", "name": "PRESBITAREAN MISSION CLINIC"}}, {"type": "node", "id": 11151161540, "lat": 1.8821475, "lon": 34.7548936, "tags": {"amenity": "hospital", "name": "MORUITA HC II"}}, {"type": "node", "id": 11151161545, "lat": 1.9391322, "lon": 34.5574195, "tags": {"amenity": "hospital", "name": "LOLACHAT HEALTH CENTRE II"}}, {"type": "node", "id": 11151161549, "lat": 1.8927486, "lon": 34.7611595, "tags": {"amenity": "hospital", "grade": "HC II", "name": "LEMUSUI HC II"}}, {"type": "node", "id": 11151161551, "lat": 1.8532084, "lon": 34.7198773, "tags": {"amenity": "hospital", "name": "NAKAPIRIPIRIT HC III"}}, {"type": "node", "id": 11151161562, "lat": 1.754758, "lon": 34.6163156, "tags": {"amenity": "hospital", "name": "KAIKU HEALTH CENTRE III"}}, {"type": "node", "id": 11151161568, "lat": 1.844488, "lon": 34.7227178, "tags": {"amenity": "hospital", "grade": "HC III", "name": "NAKAPRIPITI HC III"}}, {"type": "node", "id": 11151161577, "lat": 1.915546, "lon": 34.5171294, "tags": {"amenity": "hospital", "name": "NATIRAE HC II"}}, {"type": "node", "id": 11151161599, "lat": 1.8626902, "lon": 34.5403451, "tags": {"amenity": "hospital", "grade": "HC III", "name": "NABULENGER HEALTH CENTRE III"}}, {"type": "node", "id": 11151230007, "lat": 1.8973675, "lon": 34.6446926, "tags": {"amenity": "hospital", "grade": "HC IV", "name": "TOKORA HC IV"}}, {"type": "node", "id": 11151230012, "lat": 1.8410842, "lon": 34.6659212, "tags": {"amenity": "hospital", "name": "TOKORA HEALTH CENTRE IV"}}, {"type": "node", "id": 11151230021, "lat": 1.622502, "lon": 34.5956353, "tags": {"amenity": "hospital", "name": "NAMALU HEALTH CENTRE III"}}, {"type": "node", "id": 11151230031, "lat": 1.8401108, "lon": 34.7415509, "tags": {"amenity": "hospital", "name": "KARITA HC II"}}, {"type": "node", "id": 11151230036, "lat": 1.7931007, "lon": 34.5882806, "tags": {"amenity": "hospital", "grade": "HC III", "name": "AMALER HC III"}}]}