{"version": 0.6, "generator": "Overpass API 0.7.61.5 4133829e", "osm3s": {"timestamp_osm_base": "2024-03-05T13:42:59Z", "copyright": "The data included in this document is from www.openstreetmap.org. The data is made available under ODbL."}, "elements": [{"type": "node", "id": 312781018, "lat": 36.2674938, "lon": 68.0215374, "tags": {"alt_name:cs": "Ajbak", "alt_name:en": "Aybak;Aibak", "int_name": "Samangan", "is_in:country": "Afghanistan", "name": "\u0633\u0645\u0646\u06af\u0627\u0646\u200e", "name:ar": "\u0633\u0645\u0646\u0643\u0627\u0646", "name:cs": "Samang\u00e1n", "name:de": "Samangan", "name:el": "\u03a3\u03b1\u03bc\u03b1\u03bd\u03b3\u03ba\u03ac\u03bd", "name:en": "Samangan", "name:es": "Samangan", "name:fa": "\u0633\u0645\u0646\u06af\u0627\u0646", "name:fr": "Aybak", "name:ja": "\u30b5\u30de\u30f3\u30ac\u30fc\u30f3", "name:ko": "\uc0ac\ub9dd\uac04", "name:ml": "\u0d38\u0d2e\u0d7b\u0d17\u0d3e\u0d7b", "name:ps": "\u0633\u0645\u0646\u06af\u0627\u0646", "name:ru": "\u0410\u0439\u0431\u0430\u043a", "name:uk": "\u0410\u0439\u0431\u0430\u043a", "name:zh": "\u8428\u66fc\u7518/\u85a9\u66fc\u7518", "name:zh-Hans": "\u8428\u66fc\u7518", "name:zh-Hant": "\u85a9\u66fc\u7518", "old_name": "Eukratidia, Aybak, Aibak", "place": "city", "source": "http://en.wikipedia.org/wiki/Samangan", "wikidata": "Q1020649", "wikipedia": "en:Samangan"}}, {"type": "node", "id": 3977602201, "lat": 35.983303, "lon": 68.2859339, "tags": {"alt_name": "Now Bolaq;Nawbolaq", "name": "\u0646\u0627\u0648 \u0628\u0648\u0644\u0627\u0642", "name:en": "Naw Bulaq", "name:ps": "\u0646\u0627\u0648 \u0628\u0648\u0644\u0627\u0642", "place": "village", "source:name": "GNS"}}, {"type": "node", "id": 3977602213, "lat": 36.024359, "lon": 68.2316547, "tags": {"name": "Khuja-e-Noor", "place": "village"}}, {"type": "node", "id": 3977602215, "lat": 36.010332, "lon": 68.2836142, "tags": {"name": "Mankabot", "place": "village"}}, {"type": "node", "id": 3977602219, "lat": 35.9275972, "lon": 68.3012021, "tags": {"name": "Pudina Bolagh", "place": "village"}}, {"type": "node", "id": 3977602227, "lat": 35.9389168, "lon": 68.2143548, "tags": {"alt_name": "Shakh-e Safid-e Gharbi;Sakhe Safede Gharbi;Shakh-e Safed-e Gharbi;Shakh-e Safayd-e Gharbi", "name": "\u0634\u0627\u062e \u0633\u0641\u06d0\u062f \u063a\u0631\u0628\u06cc", "name:en": "Shakh-e Sefid-e Gharbi", "name:ps": "\u0634\u0627\u062e \u0633\u0641\u06d0\u062f \u063a\u0631\u0628\u06cc", "place": "village", "source:name": "GNS"}}, {"type": "node", "id": 4398526519, "lat": 35.994741, "lon": 68.050808, "tags": {"alt_name": "\u0642\u0631\u064a\u0647 \u0644\u0646\u06af\u0631;Qaryah-ye Langar", "name": "\u062e\u0631\u0645 \u0648 \u0633\u0627\u0631\u0628\u0627\u063a", "name:en": "khuram-o Sarbagh", "place": "town", "source:name": "GNS"}}, {"type": "node", "id": 8226810303, "lat": 36.2730673, "lon": 68.0218455, "tags": {"name": "\u0627\u06cc\u0628\u06a9", "name:en": "Aybak", "name:hi": "\u0905\u092f\u092c\u0915", "place": "city"}}]}