{"version": 0.6, "generator": "Overpass API 0.7.61.5 4133829e", "osm3s": {"timestamp_osm_base": "2024-03-05T13:42:59Z", "copyright": "The data included in this document is from www.openstreetmap.org. The data is made available under ODbL."}, "elements": [{"type": "node", "id": 4413371357, "lat": 32.983333, "lon": 67.966667, "tags": {"alt_name": "Ow Band;Awband", "name": "\u0622\u0628 \u0628\u0646\u062f", "name:en": "Ab Band", "name:ps": "Ow Band;Awband;Ab Band", "name:ru": "\u0410\u0431\u0431\u0430\u043d\u0434", "place": "town", "source:name": "GNS", "wikidata": "Q8079587", "wikipedia": "en:\u0100b Band, Ghazni"}}, {"type": "node", "id": 4413371360, "lat": 33.007537, "lon": 67.994495, "tags": {"alt_name": "\u0627\u0637\u0643;\u0410\u0442\u0430\u043a", "name": "\u0627\u067c\u06a9", "name:en": "Atak", "name:ps": "\u0627\u067c\u06a9", "place": "village", "source:name": "GNS"}}, {"type": "node", "id": 4414330476, "lat": 33.100337, "lon": 68.311612, "tags": {"alt_name": "\u067e\u0646\u0627\u0647;Panah;Pana;Pannak", "name": "\u067e\u0646\u0627", "name:en": "Pannah", "name:ps": "\u067e\u0646\u0627", "name:ru": "Pana", "place": "village", "source:name": "GNS"}}, {"type": "node", "id": 4414474632, "lat": 33.198014, "lon": 68.107977, "tags": {"alt_name": "Qarah Bagh;Qarehbagh", "name": "\u0642\u0631\u0647 \u0628\u0627\u063a", "name:en": "Qarabagh", "name:ml": "\u0d16\u0d30\u0d3e\u0d2c\u0d3e\u0d17\u0d4d", "name:ps": "\u0642\u0631\u0647 \u0628\u0627\u063a", "name:ru": "\u041a\u0430\u0440\u0430\u0431\u0430\u0433", "place": "town", "source:name": "GNS"}}, {"type": "node", "id": 5320084639, "lat": 33.2659771, "lon": 68.1170897, "tags": {"alt_name": "Ahyen", "name": "A'in", "place": "village"}}, {"type": "node", "id": 7644594271, "lat": 33.3359706, "lon": 67.8624039, "tags": {"place": "hamlet"}}, {"type": "node", "id": 7644594835, "lat": 33.2649141, "lon": 67.9080858, "tags": {"place": "town"}}, {"type": "node", "id": 7644594977, "lat": 33.2882621, "lon": 67.9663434, "tags": {"place": "hamlet"}}, {"type": "node", "id": 7644595151, "lat": 33.2171851, "lon": 67.994292, "tags": {"place": "hamlet"}}, {"type": "node", "id": 7731944689, "lat": 33.3273179, "lon": 68.2673488, "tags": {"name": "\u0646\u064a\u0627\u0632 \u0627\u0644\u0644\u0647", "name:en": "Niy\u0101zull\u0101h", "name:ru": "\u041d\u0438\u0443\u0434\u0437\u0438\u043b\u0430\u0445", "place": "hamlet"}}, {"type": "node", "id": 7731950747, "lat": 33.2381314, "lon": 68.2102684, "tags": {"name": "\u0645\u0648\u0634\u0643\u06cc", "name:en": "M\u016bshaka\u012b", "name:ru": "\u041c\u0443\u0448\u0430\u043a\u0430\u0439", "place": "hamlet"}}, {"type": "node", "id": 7731950783, "lat": 33.2245874, "lon": 68.1940703, "tags": {"name": "\u0633\u0641\u0631\u0647", "name:en": "Sufrah", "name:ru": "\u0421\u0443\u0444\u0440\u0430", "place": "hamlet"}}, {"type": "node", "id": 7731965487, "lat": 33.2370582, "lon": 68.1676466, "tags": {"name": "\u0645\u0648\u0686\u06cc", "name:en": "M\u016bchay", "name:ru": "\u041c\u0443\u0447\u0430\u0439", "place": "hamlet"}}, {"type": "node", "id": 7731965512, "lat": 33.2303453, "lon": 68.1392217, "tags": {"name": "\u0643\u062f\u06cc", "name:en": "Ka\u1e0fay", "name:ru": "\u041a\u0430\u0434\u0430\u0439", "place": "hamlet"}}, {"type": "node", "id": 7731965513, "lat": 33.2175001, "lon": 68.1191931, "tags": {"name": "\u0648\u0644\u06cc \u062f\u0627\u062f", "name:en": "Wal\u012bd\u0101d", "name:ru": "\u0412\u0430\u043b\u0438\u0434\u0430\u0434", "place": "hamlet"}}, {"type": "node", "id": 7731965514, "lat": 33.2135433, "lon": 68.1101821, "tags": {"name": "\u0642\u0627\u0631\u0686\u0647", "name:en": "Karcha", "name:ru": "\u041a\u0430\u0440\u0447\u0430", "place": "hamlet"}}, {"type": "node", "id": 7733859568, "lat": 33.1863334, "lon": 68.1126085, "tags": {"name": "\u0644\u0627\u064a\u063a", "name:en": "Layig", "name:ru": "\u041b\u0430\u0439\u0438\u0434\u0436", "place": "hamlet"}}, {"type": "node", "id": 7733859579, "lat": 33.1936822, "lon": 68.0968141, "tags": {"name": "\u062f\u0641\u062a\u0627\u0646\u06cc", "name:en": "Daftani", "name:ru": "\u0414\u0430\u0444\u0442\u0430\u043d\u0438", "place": "hamlet"}}, {"type": "node", "id": 7733859580, "lat": 33.1841781, "lon": 68.1013145, "tags": {"name": "\u0646\u0633\u0648 \u062e\u064a\u0644", "name:en": "Nas\u014d Kh\u0113l", "name:ru": "\u041d\u0430\u0441\u043e\u043a\u0445\u0435\u0439\u043b", "place": "hamlet"}}, {"type": "node", "id": 7733899907, "lat": 33.1680884, "lon": 68.0976797, "tags": {"name": "\u0646\u0648 \u062f\u0647", "name:en": "Nauda", "name:ru": "\u041d\u0430\u0443\u0434\u0430", "place": "hamlet"}}, {"type": "node", "id": 7733899993, "lat": 33.1492808, "lon": 68.0887782, "tags": {"name": "\u0647\u0627\u0631\u0648\u0646 \u062e\u064a\u0644", "name:en": "H\u0101r\u016bn Kh\u0113l", "name:ru": "\u0425\u0430\u0440\u0443\u043d \u041a\u0445\u0435\u0439\u043b", "place": "hamlet"}}, {"type": "node", "id": 7733899994, "lat": 33.1442189, "lon": 68.0930142, "tags": {"name": "\u0628\u0631 \u0646\u0648\u0631\u0648\u0632 \u062e\u06d0\u0644", "name:en": "Bar Nowr\u014dz Kh\u0113l", "name:ru": "\u0411\u0430\u0440 \u041d\u0430\u0440\u0443\u0437 \u041a\u0445\u0435\u0439\u043b", "place": "hamlet"}}, {"type": "node", "id": 7733899995, "lat": 33.1351106, "lon": 68.0724803, "tags": {"name": "\u062e\u0627\u0644\u0648 \u062e\u064a\u0644\u0654\u0654 \u0633\u0641\u0644\u0649", "name:en": "Khalokheyli-Sufla", "name:ru": "\u041a\u0445\u0430\u043b\u043e\u043a\u0445\u0435\u0439\u043b\u0438 \u0421\u0443\u0444\u043b\u0430", "place": "hamlet"}}, {"type": "node", "id": 7814146108, "lat": 32.9860467, "lon": 67.8525613, "tags": {"name": "\u0633\u0647 \u06a9\u06cc\u0686\u0647", "name:en": "Seh Kichah", "name:ru": "\u0421\u0435\u0445 \u041a\u0438\u0447\u0430\u0445", "place": "hamlet"}}, {"type": "node", "id": 7814146172, "lat": 32.9779584, "lon": 67.8802378, "tags": {"name": "\u06af\u0627\u0631\u0647", "name:en": "G\u0101rah", "name:ru": "\u0413\u0430\u0440\u0430\u0445", "place": "hamlet"}}, {"type": "node", "id": 7814146173, "lat": 32.9538217, "lon": 67.90541, "tags": {"name": "\u0628\u0632\u06a9", "name:en": "Buzak", "name:ru": "\u0411\u0443\u0437\u0430\u043a", "place": "hamlet"}}, {"type": "node", "id": 7814146174, "lat": 32.9949566, "lon": 67.9081742, "tags": {"name": "\u0635\u062f\u0648\u0632\u06cc", "name:en": "\u015ead\u014dza\u012b", "name:ru": "\u0421\u0430\u0434\u043e\u0437\u0430\u0439", "place": "hamlet"}}, {"type": "node", "id": 7814146175, "lat": 32.9834803, "lon": 67.927936, "tags": {"name": "\u0644\u0646\u0689\u0647 \u062e\u06d0\u0644", "name:en": "Landah Kheyl", "name:ru": "\u041b\u0430\u043d\u0434\u0430\u0445 \u0425\u0435\u0439\u043b", "place": "hamlet"}}, {"type": "node", "id": 7959883847, "lat": 33.2997649, "lon": 67.9638076, "tags": {"place": "hamlet"}}, {"type": "node", "id": 7959884235, "lat": 33.2796813, "lon": 68.0196321, "tags": {"place": "hamlet"}}, {"type": "node", "id": 7959924908, "lat": 33.3346477, "lon": 67.9627382, "tags": {"place": "hamlet"}}, {"type": "node", "id": 7959925089, "lat": 33.3266237, "lon": 67.9698383, "tags": {"place": "hamlet"}}, {"type": "node", "id": 7959925115, "lat": 33.3316168, "lon": 67.9673171, "tags": {"place": "hamlet"}}, {"type": "node", "id": 7959925146, "lat": 33.3299898, "lon": 67.9651606, "tags": {"place": "hamlet"}}, {"type": "node", "id": 8003010584, "lat": 33.1897486, "lon": 68.0654346, "tags": {"name": "Sherang Abad", "place": "village", "population": "800-1000"}}, {"type": "node", "id": 8003198732, "lat": 33.2019046, "lon": 68.0696182, "tags": {"name": "Daraz Chambar", "place": "village"}}, {"type": "node", "id": 8003200681, "lat": 33.1891442, "lon": 68.0778937, "tags": {"name": "Chergi Bala", "place": "village"}}, {"type": "node", "id": 8003213306, "lat": 33.1976756, "lon": 68.0681883, "tags": {"name": "Khan Qala", "place": "village"}}, {"type": "node", "id": 8003221300, "lat": 33.1902072, "lon": 68.0836098, "tags": {"name": "Chergi Payeen", "place": "village"}}, {"type": "node", "id": 8003223367, "lat": 33.1873324, "lon": 68.0527851, "tags": {"name": "Bacho", "place": "village"}}, {"type": "node", "id": 8003228466, "lat": 33.1954557, "lon": 68.0630337, "tags": {"name": "Panah Geer", "place": "village"}}, {"type": "node", "id": 8003231845, "lat": 33.1843412, "lon": 68.071146, "tags": {"name": "Mazdoor Gay", "place": "village"}}, {"type": "node", "id": 10709980778, "lat": 33.1483699, "lon": 67.8741005, "tags": {"name": "\u0628\u0631\u0644\u0647", "place": "village"}}, {"type": "node", "id": 10710018957, "lat": 33.161255, "lon": 67.9174967, "tags": {"name": "\u06af\u0627\u0648 \u0645\u06cc\u0634\u06a9", "place": "village"}}]}