{"version": 0.6, "generator": "Overpass API 0.7.61.5 4133829e", "osm3s": {"timestamp_osm_base": "2024-03-06T11:02:15Z", "copyright": "The data included in this document is from www.openstreetmap.org. The data is made available under ODbL."}, "elements": [{"type": "node", "id": 1784771057, "lat": 29.3263185, "lon": 48.073779, "tags": {"amenity": "atm", "operator": "NBK"}}, {"type": "node", "id": 1788358812, "lat": 29.3285184, "lon": 48.0558456, "tags": {"amenity": "atm"}}, {"type": "node", "id": 1789075783, "lat": 29.2744273, "lon": 47.9273626, "tags": {"amenity": "atm"}}, {"type": "node", "id": 2088196666, "lat": 29.3251594, "lon": 48.0314446, "tags": {"amenity": "atm", "currency:KWD": "yes", "currency:USD": "no", "drive_through": "yes"}}, {"type": "node", "id": 2088196667, "lat": 29.3251972, "lon": 48.0312464, "tags": {"amenity": "atm", "currency:KWD": "yes", "currency:USD": "no", "drive_through": "no"}}, {"type": "node", "id": 3439418758, "lat": 29.3420285, "lon": 48.0759115, "tags": {"amenity": "atm", "name": "Kuwait International Bank ATM", "name:en": "Kuwait International Bank ATM", "operator": "Kuwait International Bank"}}, {"type": "node", "id": 3439418763, "lat": 29.3422249, "lon": 48.0770675, "tags": {"amenity": "atm", "name": "\u062c\u0647\u0627\u0632 \u0627\u0644\u0633\u062d\u0628 \u0627\u0644\u0622\u0644\u064a \u0628\u0646\u0643 \u0648\u0631\u0628\u0629", "name:ar": "\u062c\u0647\u0627\u0632 \u0627\u0644\u0633\u062d\u0628 \u0627\u0644\u0622\u0644\u064a \u0628\u0646\u0643 \u0648\u0631\u0628\u0629", "name:en": "Warba Bank ATM", "operator": "Warba Bank"}}, {"type": "node", "id": 3566355608, "lat": 29.3161002, "lon": 47.9472714, "tags": {"amenity": "atm", "name": "\u0627\u0644\u0633\u062d\u0628 \u0627\u0644\u0622\u0644\u064a \u0644\u0628\u0646\u0643 \u0627\u0644\u062e\u0644\u064a\u062c", "name:ar": "\u0627\u0644\u0633\u062d\u0628 \u0627\u0644\u0622\u0644\u064a \u0644\u0628\u0646\u0643 \u0627\u0644\u062e\u0644\u064a\u062c", "name:en": "Gulf Bank ATM", "operator": "Gulf Bank", "phone": "+965 2482 7467", "website": "https://www.e-gulfbank.com/eng/personal/index.jsp"}}, {"type": "node", "id": 4089436354, "lat": 29.2978115, "lon": 47.915185, "tags": {"amenity": "atm", "name": "NBK", "name:en": "NBK", "operator": "NBK"}}, {"type": "node", "id": 4097313773, "lat": 29.3379315, "lon": 48.0798927, "tags": {"amenity": "atm", "name": "Gulf Bank", "name:en": "Gulf Bank", "operator": "Gulf Bank"}}, {"type": "node", "id": 4198369383, "lat": 29.3138478, "lon": 48.0033942, "tags": {"amenity": "atm", "name": "\u0628\u0646\u0643 \u0627\u0644\u062e\u0644\u064a\u062c", "name:ar": "\u0628\u0646\u0643 \u0627\u0644\u062e\u0644\u064a\u062c", "name:en": "Gulf Bank"}}, {"type": "node", "id": 4235276996, "lat": 29.3414321, "lon": 48.0302148, "tags": {"amenity": "atm"}}, {"type": "node", "id": 4339115223, "lat": 29.3162584, "lon": 48.0464494, "tags": {"amenity": "atm", "currency:KWD": "yes", "drive_through": "no", "level": "1", "operator": "\u0628\u0646\u0643 \u0627\u0644\u062e\u0644\u064a\u062c"}}, {"type": "node", "id": 4358795596, "lat": 29.2873805, "lon": 48.0843937, "tags": {"amenity": "atm"}}, {"type": "node", "id": 4481672021, "lat": 29.3358954, "lon": 48.0630573, "tags": {"amenity": "atm", "operator": "NBK"}}, {"type": "node", "id": 4501297019, "lat": 29.3323244, "lon": 48.0480684, "tags": {"amenity": "atm", "name": "NBK", "name:en": "NBK", "source": "KG Ground Survey 2016"}}, {"type": "node", "id": 4507346634, "lat": 29.3361248, "lon": 47.6980581, "tags": {"amenity": "atm", "source": "KG Ground Survey 2016"}}, {"type": "node", "id": 4546049789, "lat": 29.3428409, "lon": 48.0785911, "tags": {"amenity": "atm", "name": "ATM Boubyan Bank", "name:en": "ATM Boubyan Bank"}}, {"type": "node", "id": 5815252656, "lat": 29.3250903, "lon": 48.0311319, "tags": {"amenity": "atm", "currency:KWD": "yes", "drive_through": "yes"}}, {"type": "node", "id": 6199245886, "lat": 29.3367652, "lon": 48.0647302, "tags": {"amenity": "atm"}}, {"type": "node", "id": 6986285141, "lat": 29.3390342, "lon": 47.7710792, "tags": {"amenity": "atm", "name": "ATM KFH", "operator": "KFH"}}, {"type": "node", "id": 8485984217, "lat": 29.3511442, "lon": 47.6664886, "tags": {"amenity": "atm", "opening_hours": "24/7", "operator": "\u0628\u064a\u062a \u0627\u0644\u062a\u0645\u0648\u064a\u0644 \u0627\u0644\u0643\u0648\u064a\u062a\u064a"}}, {"type": "node", "id": 8485984317, "lat": 29.3516211, "lon": 47.6657671, "tags": {"amenity": "atm", "opening_hours": "24/7", "operator": "\u0628\u0646\u0643 \u0627\u0644\u062e\u0644\u064a\u062c"}}, {"type": "node", "id": 8718378217, "lat": 29.3026417, "lon": 47.9342425, "tags": {"amenity": "atm", "operator": "\u0628\u0646\u0643 \u0627\u0644\u0643\u0648\u064a\u062a \u0627\u0644\u0648\u0637\u0646\u064a"}}, {"type": "node", "id": 8730564117, "lat": 29.3637573, "lon": 47.6515617, "tags": {"amenity": "atm", "name:en": "burgan bank", "operator": "\u0628\u0646\u0643 \u0628\u0631\u0642\u0627\u0646"}}, {"type": "node", "id": 8745786418, "lat": 29.3117488, "lon": 47.8635921, "tags": {"amenity": "atm", "operator": "\u0628\u0646\u0643 \u0628\u0648\u0628\u064a\u0627\u0646"}}, {"type": "node", "id": 8816888415, "lat": 29.3857719, "lon": 47.9868153, "tags": {"amenity": "atm", "operator": "\u0628\u0646\u0643 \u0648\u0631\u0628\u0629", "operator:en": "Warba Bank"}}, {"type": "node", "id": 8862890717, "lat": 29.3120942, "lon": 47.8113706, "tags": {"amenity": "atm", "operator": "KFH"}}, {"type": "node", "id": 8888233340, "lat": 29.301557, "lon": 47.9007946, "tags": {"amenity": "atm", "operator": "\u0628\u064a\u062a \u0627\u0644\u062a\u0645\u0648\u064a\u0644 \u0627\u0644\u0643\u0648\u064a\u062a\u064a", "operator:en": "KFH"}}, {"type": "node", "id": 8919854547, "lat": 29.3407475, "lon": 47.9981534, "tags": {"amenity": "atm", "operator": "\u0627\u0644\u0623\u0647\u0644\u064a"}}, {"type": "node", "id": 9015425275, "lat": 29.3049687, "lon": 48.0445613, "tags": {"amenity": "atm", "level": "1", "operator": "\u0628\u0646\u0643 \u0628\u0648\u0628\u064a\u0627\u0646"}}, {"type": "node", "id": 9066740596, "lat": 29.3027838, "lon": 47.9310205, "tags": {"amenity": "atm", "brand": "\u0628\u064a\u062a \u0627\u0644\u062a\u0645\u0648\u064a\u0644 \u0627\u0644\u0643\u0648\u064a\u062a\u064a", "indoor": "yes", "level": "2"}}, {"type": "node", "id": 9066740612, "lat": 29.3023538, "lon": 47.9302761, "tags": {"amenity": "atm", "brand": "\u0628\u0646\u0643 \u0628\u0648\u0628\u064a\u0627\u0646", "indoor": "yes", "level": "2"}}, {"type": "node", "id": 9339487769, "lat": 29.3899745, "lon": 47.9824239, "tags": {"amenity": "atm", "indoor": "yes", "name": "NBK ATM", "operator": "\u0628\u0646\u0643 \u0627\u0644\u0643\u0648\u064a\u062a \u0627\u0644\u0648\u0637\u0646\u064a"}}, {"type": "node", "id": 9930942094, "lat": 29.3156789, "lon": 48.0643963, "tags": {"amenity": "atm", "name": "\u0627\u0644\u0628\u0646\u0643 \u0627\u0644\u0623\u0647\u0644\u064a \u0627\u0644\u0645\u062a\u062d\u062f"}}, {"type": "node", "id": 9952211080, "lat": 29.3283343, "lon": 47.8085822, "tags": {"amenity": "atm", "name": "\u0635\u0631\u0627\u0641 \u0628\u0646\u0643 \u0628\u0648\u0628\u064a\u0627\u0646", "name:en": "Boubyan Bank ATM"}}, {"type": "node", "id": 10185709788, "lat": 29.386729, "lon": 47.9789477, "tags": {"amenity": "atm", "name": "Gulf Bank"}}, {"type": "node", "id": 10311420868, "lat": 29.3618758, "lon": 47.649016, "tags": {"amenity": "atm", "name": "\u0628\u0648\u0628\u064a\u0627\u0646"}}, {"type": "node", "id": 10809005105, "lat": 29.3101973, "lon": 48.0102242, "tags": {"amenity": "atm"}}, {"type": "node", "id": 10980676764, "lat": 29.328372, "lon": 47.8057189, "tags": {"amenity": "atm", "drive_through": "no", "operator": "\u0628\u0646\u0643 \u0627\u0644\u0643\u0648\u064a\u062a \u0627\u0644\u0648\u0637\u0646\u064a", "operator:en": "National Bank of Kuwait", "operator:type": "private"}}, {"type": "node", "id": 11101391805, "lat": 29.3747733, "lon": 47.9734106, "tags": {"amenity": "atm"}}, {"type": "node", "id": 11355213381, "lat": 29.3243272, "lon": 47.8046279, "tags": {"amenity": "atm", "brand": "\u0628\u0646\u0643 \u0627\u0644\u0643\u0648\u064a\u062a \u0627\u0644\u062f\u0648\u0644\u064a", "brand:en": "Kuwait International Bank (KIB)"}}, {"type": "node", "id": 11520378914, "lat": 29.3423857, "lon": 47.9427966, "tags": {"amenity": "atm", "operator": "NBK"}}, {"type": "node", "id": 11663366206, "lat": 29.3555809, "lon": 47.9665337, "tags": {"amenity": "atm", "operator": "KIB"}}, {"type": "node", "id": 11663366216, "lat": 29.3555777, "lon": 47.9665519, "tags": {"amenity": "atm", "operator": "Boubyan"}}]}