{"version": 0.6, "generator": "Overpass API 0.7.61.5 4133829e", "osm3s": {"timestamp_osm_base": "2024-03-06T11:22:45Z", "copyright": "The data included in this document is from www.openstreetmap.org. The data is made available under ODbL."}, "elements": [{"type": "node", "id": 1401393604, "lat": -1.0604943, "lon": 34.4742526, "tags": {"addr:city": "Migori", "amenity": "bank", "atm": "yes", "name": "National Bank-Migori"}}, {"type": "node", "id": 4401265399, "lat": -1.0696125, "lon": 34.4695434}, {"type": "node", "id": 4401265426, "lat": -1.0696768, "lon": 34.4695097}, {"type": "node", "id": 4401265431, "lat": -1.0696862, "lon": 34.4696842}, {"type": "node", "id": 4401265442, "lat": -1.0697505, "lon": 34.4696505}, {"type": "node", "id": 4406669344, "lat": -1.0670743, "lon": 34.4707554}, {"type": "node", "id": 4406669361, "lat": -1.0671141, "lon": 34.4708505}, {"type": "node", "id": 4406669373, "lat": -1.0671382, "lon": 34.4707286}, {"type": "node", "id": 4406669391, "lat": -1.067178, "lon": 34.4708238}, {"type": "node", "id": 4406693999, "lat": -1.0686423, "lon": 34.4705219}, {"type": "node", "id": 4406694008, "lat": -1.0686906, "lon": 34.4706232}, {"type": "node", "id": 4406694011, "lat": -1.0686996, "lon": 34.4704946}, {"type": "node", "id": 4406694019, "lat": -1.0687479, "lon": 34.4705958}, {"type": "node", "id": 4406759555, "lat": -1.0714401, "lon": 34.4684866}, {"type": "node", "id": 4406759567, "lat": -1.0714851, "lon": 34.4685806}, {"type": "node", "id": 4406759571, "lat": -1.0715123, "lon": 34.4686407}, {"type": "node", "id": 4406759585, "lat": -1.0715599, "lon": 34.4687401}, {"type": "node", "id": 4406759587, "lat": -1.0715626, "lon": 34.4685434}, {"type": "node", "id": 4406759594, "lat": -1.0715911, "lon": 34.4686029}, {"type": "node", "id": 4406759607, "lat": -1.0716216, "lon": 34.4683996}, {"type": "node", "id": 4406759636, "lat": -1.0717427, "lon": 34.4686524}, {"type": "node", "id": 4408518582, "lat": -1.0626781, "lon": 34.4731012}, {"type": "node", "id": 4408518624, "lat": -1.0627175, "lon": 34.4731771}, {"type": "node", "id": 4408518728, "lat": -1.0628048, "lon": 34.4730354}, {"type": "node", "id": 4408518743, "lat": -1.0628442, "lon": 34.4731114}, {"type": "node", "id": 4409715731, "lat": -1.0616321, "lon": 34.4736897}, {"type": "node", "id": 4409715745, "lat": -1.0616611, "lon": 34.4737577}, {"type": "node", "id": 4409715764, "lat": -1.0617514, "lon": 34.4736388}, {"type": "node", "id": 4409715768, "lat": -1.0617804, "lon": 34.4737067}, {"type": "node", "id": 4409715957, "lat": -1.0632247, "lon": 34.4741374}, {"type": "node", "id": 4409715959, "lat": -1.0632549, "lon": 34.4741137}, {"type": "node", "id": 4409715960, "lat": -1.0632589, "lon": 34.4741236}, {"type": "node", "id": 4409715962, "lat": -1.0632895, "lon": 34.4742979}, {"type": "node", "id": 4409715964, "lat": -1.0633041, "lon": 34.4740938}, {"type": "node", "id": 4409715965, "lat": -1.0633528, "lon": 34.4742574}, {"type": "node", "id": 4409715966, "lat": -1.063358, "lon": 34.4742702}, {"type": "node", "id": 4409715967, "lat": -1.0633678, "lon": 34.4742514}, {"type": "node", "id": 4566727829, "lat": -1.2414968, "lon": 34.4776171}, {"type": "node", "id": 4566727830, "lat": -1.2416812, "lon": 34.4778693}, {"type": "node", "id": 4566727831, "lat": -1.2415684, "lon": 34.4779446}, {"type": "node", "id": 4566727832, "lat": -1.2413941, "lon": 34.4776952}, {"type": "node", "id": 6247000539, "lat": -1.0674169, "lon": 34.4707867, "tags": {"addr:city": "Migori", "amenity": "bank", "atm": "yes", "name": "Family Bank"}}, {"type": "way", "id": 442443099, "nodes": [4401265426, 4401265399, 4401265431, 4401265442, 4401265426], "tags": {"addr:city": "Migori", "amenity": "bank", "atm": "yes", "building": "yes", "name": "Post Bank Migori"}}, {"type": "way", "id": 443019173, "nodes": [4406669373, 4406669344, 4406669361, 4406669391, 4406669373], "tags": {"addr:city": "Migori", "amenity": "bank", "atm": "yes", "building": "yes", "name": "Diamond Trust Bank"}}, {"type": "way", "id": 443022107, "nodes": [4406694011, 4406693999, 4406694008, 4406694019, 4406694011], "tags": {"addr:city": "Migori", "amenity": "bank", "atm": "yes", "building": "yes", "name": "Equity Bank Migori Branch"}}, {"type": "way", "id": 443030181, "nodes": [4406759555, 4406759567, 4406759587, 4406759594, 4406759571, 4406759585, 4406759636, 4406759607, 4406759555], "tags": {"addr:city": "Migori", "amenity": "bank", "atm": "yes", "brand": "Barclays", "brand:wikidata": "Q245343", "building": "yes", "name": "Barclays"}}, {"type": "way", "id": 443236209, "nodes": [4408518624, 4408518743, 4408518728, 4408518582, 4408518624], "tags": {"addr:city": "Migori", "addr:street": "A1", "amenity": "bank", "atm": "yes", "building": "yes", "name": "Kenya Women Finance Trust -Migori"}}, {"type": "way", "id": 443386303, "nodes": [4409715731, 4409715745, 4409715768, 4409715764, 4409715731], "tags": {"addr:city": "Migori", "addr:street": "A1", "amenity": "bank", "building": "yes", "name": "Cooperative Bank Migori Branch"}}, {"type": "way", "id": 443386414, "nodes": [4409715964, 4409715959, 4409715960, 4409715957, 4409715962, 4409715966, 4409715965, 4409715967, 4409715964], "tags": {"addr:city": "Migori", "addr:street": "A1", "amenity": "bank", "building": "yes", "name": "Kenya Commercial Bank ATM"}}, {"type": "way", "id": 461130346, "nodes": [4566727829, 4566727830, 4566727831, 4566727832, 4566727829], "tags": {"amenity": "bank", "building": "yes", "name": "Kenya Commercial Bank"}}]}