{"version": 0.6, "generator": "Overpass API 0.7.61.5 4133829e", "osm3s": {"timestamp_osm_base": "2024-03-06T11:05:25Z", "copyright": "The data included in this document is from www.openstreetmap.org. The data is made available under ODbL."}, "elements": [{"type": "node", "id": 1811813985, "lat": 3.7333983, "lon": 34.2491938, "tags": {"addr:city": "Morua Tap", "addr:county": "Dodoth", "addr:district": "Kaabong", "addr:parish": "Kamion", "addr:subcounty": "Kamion", "amenity": "school", "isced:level": "1", "name": "Kamion Primary School", "source": "www.ubos.org", "source:date": "2010..2014", "wikidata": "Q22808896"}}, {"type": "node", "id": 1811814002, "lat": 3.6234925, "lon": 34.1553594, "tags": {"addr:city": "Morukori Centre", "addr:county": "Dodoth", "addr:district": "Kaabong", "addr:parish": "Morukori", "addr:subcounty": "Kalapata", "amenity": "school", "isced:level": "1", "name": "Morukori Primary School", "operator:type": "public", "source": "www.ubos.org", "source:date": "2010..2014", "wikidata": "Q22810580"}}, {"type": "node", "id": 3965152639, "lat": 3.3278018, "lon": 34.2395944, "tags": {"addr:city": "Toroi West", "addr:county": "Dodoth", "addr:district": "Kaabong", "addr:parish": "Toroi", "addr:subcounty": "Loyoro", "amenity": "school", "isced:level": "1", "name": "Toroi Primary Centre", "source": "www.ubos.org", "source:date": "2010..2014", "wikidata": "Q22639339"}}, {"type": "node", "id": 3999206671, "lat": 3.5217843, "lon": 34.0793459, "tags": {"addr:city": "Kachikor", "addr:county": "Dodoth", "addr:district": "Kaabong", "addr:parish": "Lomeris", "addr:subcounty": "Kaabong West", "amenity": "school", "name": "Kachikor Primary School", "operator": "public", "source": "www.ubos.org", "source:date": "2010..2014"}}, {"type": "node", "id": 3999206673, "lat": 3.6334583, "lon": 34.0491492, "tags": {"addr:city": "Lemugete", "addr:county": "Dodoth", "addr:district": "Kaabong", "addr:parish": "Lemugete", "addr:subcounty": "Kathile", "amenity": "school", "name": "Lemugete Adult Education School", "operator": "community", "source": "www.ubos.org", "source:date": "2010..2014"}}, {"type": "node", "id": 3999206674, "lat": 3.5936336, "lon": 34.0647542, "tags": {"addr:city": "Tulelo North", "addr:county": "Dodoth", "addr:district": "Kaabong", "addr:parish": "Lois", "addr:subcounty": "Kathile", "amenity": "school", "name": "Lois Primary School", "operator": "public", "source": "www.ubos.org", "source:date": "2010..2014"}}, {"type": "node", "id": 3999206675, "lat": 3.5520199, "lon": 34.0825287, "tags": {"addr:city": "Lokerui", "addr:county": "Dodoth", "addr:district": "Kaabong", "addr:parish": "Lokerui", "addr:subcounty": "Kaabong West", "amenity": "school", "name": "Lokerui Primary School", "operator": "public", "source": "www.ubos.org", "source:date": "2010..2014"}}, {"type": "node", "id": 3999206676, "lat": 3.5659025, "lon": 34.0294853, "tags": {"addr:city": "Kailob", "addr:county": "Dodoth", "addr:district": "Kaabong", "addr:parish": "Kaimese", "addr:subcounty": "Lolelia", "amenity": "school", "name": "Lomodoch Primary School", "operator": "public", "source": "www.ubos.org", "source:date": "2010..2014"}}, {"type": "node", "id": 3999206678, "lat": 3.5308959, "lon": 34.0458395, "tags": {"addr:city": "Lolelia Centre", "addr:county": "Dodoth", "addr:district": "Kaabong", "addr:parish": "Lolelia", "addr:subcounty": "Lolelia", "amenity": "school", "isced:level": "1", "name": "Nachakunet Primary School", "operator": "public", "source": "www.ubos.org", "source:date": "2010..2014", "wikidata": "Q22680567"}}, {"type": "node", "id": 3999206682, "lat": 3.6704624, "lon": 34.0167811, "tags": {"addr:city": "Nakoree", "addr:county": "Dodoth", "addr:district": "Kaabong", "addr:parish": "Narengepak", "addr:subcounty": "Kathile", "amenity": "school", "isced:level": "1", "name": "Narengepak Primary School", "operator": "public", "source": "www.ubos.org", "source:date": "2010..2014", "wikidata": "Q22680563"}}, {"type": "node", "id": 3999206683, "lat": 3.6793395, "lon": 34.0360929, "tags": {"addr:city": "Usake", "addr:county": "Dodoth", "addr:district": "Kaabong", "addr:parish": "Narube", "addr:subcounty": "Kathile", "amenity": "school", "isced:level": "1", "name": "Narube Primary School", "operator": "public", "source": "www.ubos.org", "source:date": "2010..2014", "wikidata": "Q22680562"}}, {"type": "node", "id": 3999206684, "lat": 3.6158345, "lon": 34.0463021, "tags": {"addr:city": "Naryamoi North", "addr:county": "Dodoth", "addr:district": "Kaabong", "addr:parish": "Naryamoi", "addr:subcounty": "Kathile", "amenity": "school", "isced:level": "1", "name": "Naryamoi Primary School", "operator": "public", "source": "www.ubos.org", "source:date": "2010..2014", "wikidata": "Q22680561"}}, {"type": "node", "id": 4008955734, "lat": 3.6531431, "lon": 34.3185731, "tags": {"addr:city": "Kapalu", "addr:county": "Dodoth", "addr:district": "Kaabong", "addr:parish": "Timu", "addr:subcounty": "Kamion", "amenity": "school", "name": "Alternative Basic Education For Karamoja", "source": "www.ubos.org", "source:date": "2010..2014", "wikidata": "Q22808875"}}, {"type": "node", "id": 4008955735, "lat": 3.6585264, "lon": 34.2779873, "tags": {"addr:city": "Lokinene", "addr:county": "Dodoth", "addr:district": "Kaabong", "addr:parish": "Timu", "addr:subcounty": "Kamion", "amenity": "school", "name": "Sil International", "source": "www.ubos.org", "source:date": "2010..2014", "wikidata": "Q22808874"}}, {"type": "node", "id": 4009025499, "lat": 3.7167227, "lon": 34.1259829, "tags": {"addr:city": "Lokwakaramoe Centre", "addr:county": "Dodoth", "addr:district": "Kaabong", "addr:parish": "Lokwakaranoe", "addr:subcounty": "Kamion", "amenity": "school", "isced:level": "1", "name": "Lokwakaramoe Primary School", "operator": "public", "source": "www.ubos.org", "source:date": "2010..2014", "wikidata": "Q22808895"}}, {"type": "node", "id": 4009062029, "lat": 3.7034976, "lon": 33.984462, "tags": {"addr:city": "Lobeluna", "addr:county": "Dodoth", "addr:district": "Kaabong", "addr:parish": "Komolicher", "addr:subcounty": "Kapedo", "amenity": "school", "isced:level": "1", "name": "Komolicher Primary School", "operator:type": "public", "source": "www.ubos.org", "source:date": "2010..2014", "wikidata": "Q22808897"}}, {"type": "node", "id": 4010222000, "lat": 3.5944303, "lon": 34.1057532, "tags": {"addr:city": "Nachukul East", "addr:county": "Dodoth", "addr:district": "Kaabong", "addr:parish": "Nachukul", "addr:subcounty": "Kathile", "amenity": "school", "name": "Adult Education School", "operator:type": "public", "source": "www.ubos.org", "source:date": "2010..2014", "wikidata": "Q22810579"}}, {"type": "node", "id": 4010222001, "lat": 3.6638476, "lon": 34.1905414, "tags": {"addr:city": "Kalapata Centre", "addr:county": "Dodoth", "addr:district": "Kaabong", "addr:parish": "Kalapata", "addr:subcounty": "Kalapata", "amenity": "school", "isced:level": "1", "name": "Kalapata Primary School", "operator:type": "public", "source": "www.ubos.org", "source:date": "2010..2014", "wikidata": "Q22810588"}}, {"type": "node", "id": 4010222003, "lat": 3.6041553, "lon": 34.1418259, "tags": {"addr:city": "Kamakarikol", "addr:county": "Dodoth", "addr:district": "Kaabong", "addr:parish": "Kamacarikol", "addr:subcounty": "Kathile", "amenity": "school", "fixme": "Please, check the position of this node", "isced:level": "1", "name": "Kamacarikol Primary School", "operator:type": "public", "source": "www.ubos.org", "source:date": "2010..2014", "wikidata": "Q22810586"}}, {"type": "node", "id": 4010222004, "lat": 3.5350686, "lon": 34.1639332, "tags": {"addr:city": "Kangios Centre", "addr:county": "Dodoth", "addr:district": "Kaabong", "addr:parish": "Kangios", "addr:subcounty": "Lodiko", "amenity": "school", "isced:level": "1", "name": "Kangios Primary School", "source": "www.ubos.org", "source:date": "2010..2014", "wikidata": "Q22810585"}}, {"type": "node", "id": 4010222005, "lat": 3.5541977, "lon": 34.1746015, "tags": {"addr:city": "Kotome", "addr:county": "Dodoth", "addr:district": "Kaabong", "addr:parish": "Kotome", "addr:subcounty": "Lodiko", "amenity": "school", "isced:level": "1", "name": "Kotome Primary School", "source": "www.ubos.org", "source:date": "2010..2014", "wikidata": "Q22810584"}}, {"type": "node", "id": 4010222006, "lat": 3.5957336, "lon": 34.1884926, "tags": {"addr:city": "Lodwar West", "addr:county": "Dodoth", "addr:district": "Kaabong", "addr:parish": "Morulem", "addr:subcounty": "Kaabong East", "amenity": "school", "isced:level": "1", "name": "Lodwar Primary School", "operator:type": "public", "source": "www.ubos.org", "source:date": "2010..2014", "wikidata": "Q22810583"}}, {"type": "node", "id": 4010222007, "lat": 3.5137648, "lon": 34.1380077, "tags": {"addr:city": "Campswahili North", "addr:county": "Dodoth", "addr:district": "Kaabong", "addr:parish": "Campswahili Ward", "addr:subcounty": "Kaabong Town Council", "amenity": "school", "isced:level": "1", "name": "Loiki Primary School", "source": "www.ubos.org", "source:date": "2010..2014", "wikidata": "Q22810582"}}, {"type": "node", "id": 4010222008, "lat": 3.5319892, "lon": 34.2681615, "tags": {"addr:city": "Kakuta", "addr:county": "Dodoth", "addr:district": "Kaabong", "addr:parish": "Lopedo", "addr:subcounty": "Lodiko", "amenity": "school", "isced:level": "1", "name": "Lopedo Primary School", "source": "www.ubos.org", "source:date": "2010..2014", "wikidata": "Q22810581"}}, {"type": "node", "id": 4010222009, "lat": 3.6581583, "lon": 34.1141384, "tags": {"addr:city": "Lotim Centre", "addr:county": "Dodoth", "addr:district": "Kaabong", "addr:parish": "Lotim", "addr:subcounty": "Kalapata", "amenity": "school", "isced:level": "1", "name": "Lotim Primary School", "source": "www.ubos.org", "source:date": "2010..2014", "wikidata": "Q22810594"}}, {"type": "node", "id": 4010222010, "lat": 3.6388664, "lon": 34.1749002, "tags": {"addr:city": "Meus Centre", "addr:county": "Dodoth", "addr:district": "Kaabong", "addr:parish": "Meus", "addr:subcounty": "Kalapata", "amenity": "school", "isced:level": "1", "name": "Meus Primary School", "operator:type": "public", "source": "www.ubos.org", "source:date": "2010..2014", "wikidata": "Q22810593"}}, {"type": "node", "id": 4010222011, "lat": 3.6137975, "lon": 34.1532795, "tags": {"addr:city": "Moroto West", "addr:county": "Dodoth", "addr:district": "Kaabong", "addr:parish": "Moroto", "addr:subcounty": "Kalapata", "amenity": "school", "name": "Moroto West Early Child Development Centre", "source": "www.ubos.org", "source:date": "2010..2014", "wikidata": "Q22810591"}}, {"type": "node", "id": 4010222012, "lat": 3.5170511, "lon": 34.1327733, "tags": {"addr:city": "Nadiirikitoe", "addr:county": "Dodoth", "addr:district": "Kaabong", "addr:parish": "Kapilan-bar East Ward", "addr:subcounty": "Kaabong Town Council", "amenity": "school", "isced:level": "1", "name": "Police Primary School", "source": "www.ubos.org", "source:date": "2010..2014", "wikidata": "Q22810590"}}, {"type": "node", "id": 4010222013, "lat": 3.6544614, "lon": 34.2754688, "tags": {"addr:city": "Lokinene", "addr:county": "Dodoth", "addr:district": "Kaabong", "addr:parish": "Timu", "addr:subcounty": "Kamion", "amenity": "school", "isced:level": "1", "name": "Timu Primary School", "operator:type": "public", "source": "www.ubos.org", "source:date": "2010..2014", "wikidata": "Q22810589"}}, {"type": "node", "id": 4010256507, "lat": 3.6387813, "lon": 34.1743564, "tags": {"addr:city": "Meus Centre", "addr:county": "Dodoth", "addr:district": "Kaabong", "addr:parish": "Meus", "addr:subcounty": "Kalapata", "amenity": "school", "isced:level": "1", "name": "Lomunyen Primary School", "operator:type": "Public", "source": "www.ubos.org", "source:date": "2010..2014", "wikidata": "Q22810592"}}, {"type": "node", "id": 4010278268, "lat": 3.5040123, "lon": 34.1189973, "tags": {"addr:city": "Kayokong", "addr:county": "Dodoth", "addr:district": "Kaabong", "addr:parish": "Kakamar", "addr:subcounty": "Sidok", "amenity": "school", "isced:level": "1", "name": "Kakamar Primary School", "operator:type": "public", "source": "www.ubos.org", "source:date": "2010..2014", "wikidata": "Q22810488"}}, {"type": "node", "id": 4010278270, "lat": 3.3774995, "lon": 34.1503652, "tags": {"addr:city": "Narwarot", "addr:county": "Dodoth", "addr:district": "Kaabong", "addr:parish": "Locherep", "addr:subcounty": "Sidok", "amenity": "school", "isced:level": "1", "name": "Locherep Primary School", "operator:type": "public", "source": "www.ubos.org", "source:date": "2010..2014", "wikidata": "Q22810486"}}, {"type": "node", "id": 4010278271, "lat": 3.4195886, "lon": 34.1465862, "tags": {"addr:city": "Lochom", "addr:county": "Dodoth", "addr:district": "Kaabong", "addr:parish": "Kasimeri", "addr:subcounty": "Sidok", "amenity": "school", "isced:level": "1", "name": "Lochom Primary School", "operator:type": "public", "source": "www.ubos.org", "source:date": "2010..2014", "wikidata": "Q22810485"}}, {"type": "node", "id": 4010278272, "lat": 3.3752912, "lon": 34.2322124, "tags": {"addr:city": "Loleokot", "addr:county": "Dodoth", "addr:district": "Kaabong", "addr:parish": "Lukanayana", "addr:subcounty": "Loyoro", "amenity": "school", "isced:level": "1", "name": "Loleokot Primary School", "source": "www.ubos.org", "source:date": "2010..2014", "wikidata": "Q22810484"}}, {"type": "node", "id": 4010278273, "lat": 3.4952644, "lon": 34.1534804, "tags": {"addr:city": "Namworukwook", "addr:county": "Dodoth", "addr:district": "Kaabong", "addr:parish": "Lobongia", "addr:subcounty": "Kaabong West", "amenity": "school", "isced:level": "1", "name": "Lomusen Primary School", "operator:type": "public", "source": "www.ubos.org", "source:date": "2010..2014", "wikidata": "Q22810483"}}, {"type": "node", "id": 4010278274, "lat": 3.5121091, "lon": 34.1556675, "tags": {"addr:city": "Nagaala", "addr:county": "Dodoth", "addr:district": "Kaabong", "addr:parish": "Lobongia", "addr:subcounty": "Kaabong West", "amenity": "school", "name": "Nagaala Polytechnic School", "operator:type": "public", "source": "www.ubos.org", "source:date": "2010..2014", "wikidata": "Q22810481"}}, {"type": "node", "id": 4010278275, "lat": 3.5031269, "lon": 34.1402385, "tags": {"addr:city": "Pajar", "addr:county": "Dodoth", "addr:district": "Kaabong", "addr:parish": "Pajar Ward", "addr:subcounty": "Kaabong Town Council", "amenity": "school", "isced:level": "1", "name": "Pajar Primary School", "source": "www.ubos.org", "source:date": "2010..2014", "wikidata": "Q22810480"}}, {"type": "node", "id": 4010297488, "lat": 3.5016831, "lon": 34.0851807, "tags": {"addr:city": "Kotirae", "addr:county": "Dodoth", "addr:district": "Kaabong", "addr:parish": "Morunyang", "addr:subcounty": "Sidok", "amenity": "school", "isced:level": "1", "name": "Kotirae Primary School", "operator:type": "public", "source": "www.ubos.org", "source:date": "2010..2014", "wikidata": "Q22810577"}}, {"type": "node", "id": 4506183450, "lat": 3.5783813, "lon": 34.1281006}, {"type": "node", "id": 4506183451, "lat": 3.5781725, "lon": 34.1287175}, {"type": "node", "id": 4506183452, "lat": 3.578135, "lon": 34.1288811}, {"type": "node", "id": 4506183453, "lat": 3.5782742, "lon": 34.1295034}, {"type": "node", "id": 4506183454, "lat": 3.5793718, "lon": 34.1294846}, {"type": "node", "id": 4506183455, "lat": 3.5794039, "lon": 34.1288194}, {"type": "node", "id": 4506183456, "lat": 3.5793236, "lon": 34.1278779}, {"type": "node", "id": 4506183457, "lat": 3.5789756, "lon": 34.1278565}, {"type": "node", "id": 4506183458, "lat": 3.5785606, "lon": 34.1278216}, {"type": "node", "id": 4506183459, "lat": 3.5784161, "lon": 34.1279396}, {"type": "node", "id": 8809336809, "lat": 3.5958554, "lon": 34.1886431}, {"type": "node", "id": 8809336810, "lat": 3.5956707, "lon": 34.1885895}, {"type": "node", "id": 8809336811, "lat": 3.5956975, "lon": 34.1883239}, {"type": "node", "id": 8809336812, "lat": 3.5953976, "lon": 34.1881898}, {"type": "node", "id": 8809336813, "lat": 3.59532, "lon": 34.1876614}, {"type": "node", "id": 8809336814, "lat": 3.5946936, "lon": 34.1879001}, {"type": "node", "id": 8809336815, "lat": 3.5948542, "lon": 34.1885787}, {"type": "node", "id": 8809336816, "lat": 3.5944045, "lon": 34.1888094}, {"type": "node", "id": 8809341090, "lat": 3.554512, "lon": 34.1760635}, {"type": "node", "id": 8809341091, "lat": 3.5554704, "lon": 34.1745561}, {"type": "node", "id": 8809341092, "lat": 3.5552803, "lon": 34.1752294}, {"type": "node", "id": 8809341093, "lat": 3.5549564, "lon": 34.1751543}, {"type": "node", "id": 8809341094, "lat": 3.5548065, "lon": 34.1759187}, {"type": "node", "id": 8809341095, "lat": 3.5540007, "lon": 34.1760045}, {"type": "node", "id": 8809341096, "lat": 3.5542871, "lon": 34.1744435}, {"type": "node", "id": 8809341097, "lat": 3.554097, "lon": 34.174414}, {"type": "node", "id": 8809341098, "lat": 3.554346, "lon": 34.1736495}, {"type": "node", "id": 8809341099, "lat": 3.554504, "lon": 34.1736147}, {"type": "node", "id": 8809341100, "lat": 3.5555962, "lon": 34.1738373}, {"type": "node", "id": 8809396617, "lat": 3.5941422, "lon": 34.1891152}, {"type": "node", "id": 8809396618, "lat": 3.5942091, "lon": 34.1892788}, {"type": "node", "id": 8809396619, "lat": 3.5947177, "lon": 34.1891393}, {"type": "node", "id": 8809396620, "lat": 3.5949292, "lon": 34.1894853}, {"type": "node", "id": 8809396621, "lat": 3.5958688, "lon": 34.1888443}, {"type": "node", "id": 8809396622, "lat": 3.6382208, "lon": 34.1737863}, {"type": "node", "id": 8809396623, "lat": 3.6379371, "lon": 34.1746393}, {"type": "node", "id": 8809396624, "lat": 3.6385768, "lon": 34.1748418}, {"type": "node", "id": 8809396625, "lat": 3.6388539, "lon": 34.1739701}, {"type": "node", "id": 8809396628, "lat": 3.6392661, "lon": 34.1748592}, {"type": "node", "id": 8809396629, "lat": 3.6393866, "lon": 34.1751623}, {"type": "node", "id": 8809396630, "lat": 3.6394963, "lon": 34.1756934}, {"type": "node", "id": 8809396631, "lat": 3.6387281, "lon": 34.1759187}, {"type": "node", "id": 8809396632, "lat": 3.6384497, "lon": 34.1754466}, {"type": "node", "id": 8809396633, "lat": 3.6387281, "lon": 34.1751248}, {"type": "node", "id": 8809396634, "lat": 3.6390573, "lon": 34.1748995}, {"type": "node", "id": 8809448499, "lat": 3.5173538, "lon": 34.1327915}, {"type": "node", "id": 8809448500, "lat": 3.5176135, "lon": 34.1337597}, {"type": "node", "id": 8809448501, "lat": 3.516904, "lon": 34.1338912}, {"type": "node", "id": 8809448502, "lat": 3.516722, "lon": 34.1330972}, {"type": "node", "id": 8809448503, "lat": 3.5167621, "lon": 34.132829}, {"type": "node", "id": 8809448508, "lat": 3.5336763, "lon": 34.1632372}, {"type": "node", "id": 8809448509, "lat": 3.5326643, "lon": 34.1636074}, {"type": "node", "id": 8809448510, "lat": 3.5326456, "lon": 34.165206}, {"type": "node", "id": 8809448511, "lat": 3.5333979, "lon": 34.1653535}, {"type": "node", "id": 8809448512, "lat": 3.5333764, "lon": 34.1656163}, {"type": "node", "id": 8809448513, "lat": 3.5342679, "lon": 34.1657639}, {"type": "node", "id": 8809448514, "lat": 3.5354619, "lon": 34.1656673}, {"type": "node", "id": 8809448515, "lat": 3.5347819, "lon": 34.1630548}, {"type": "node", "id": 8809829848, "lat": 3.5140448, "lon": 34.1376597}, {"type": "node", "id": 8809829849, "lat": 3.5135736, "lon": 34.1386896}, {"type": "node", "id": 8809829850, "lat": 3.5138387, "lon": 34.1397545}, {"type": "node", "id": 8809829851, "lat": 3.5151719, "lon": 34.139623}, {"type": "node", "id": 8809829852, "lat": 3.5150461, "lon": 34.1376597}, {"type": "node", "id": 8864147701, "lat": 3.5938414, "lon": 34.0641568}, {"type": "node", "id": 8864147702, "lat": 3.5931519, "lon": 34.0644435}, {"type": "node", "id": 8864147703, "lat": 3.5932126, "lon": 34.0647629}, {"type": "node", "id": 8864147704, "lat": 3.5933167, "lon": 34.0651735}, {"type": "node", "id": 8864147705, "lat": 3.5939672, "lon": 34.0649802}, {"type": "node", "id": 8871871711, "lat": 3.5947049, "lon": 34.1057741}, {"type": "node", "id": 8871871712, "lat": 3.5939686, "lon": 34.106026}, {"type": "node", "id": 8871871713, "lat": 3.5938304, "lon": 34.1057345}, {"type": "node", "id": 8871871714, "lat": 3.5938358, "lon": 34.1056859}, {"type": "node", "id": 8871871715, "lat": 3.5941105, "lon": 34.105524}, {"type": "node", "id": 8871871716, "lat": 3.5940907, "lon": 34.1054862}, {"type": "node", "id": 8871871717, "lat": 3.5942919, "lon": 34.1053261}, {"type": "node", "id": 8871871718, "lat": 3.5945092, "lon": 34.1052865}, {"type": "node", "id": 8871871719, "lat": 3.5946043, "lon": 34.1054682}, {"type": "node", "id": 8871871720, "lat": 3.5946726, "lon": 34.1055384}, {"type": "node", "id": 8871871721, "lat": 3.5947211, "lon": 34.1057093}, {"type": "node", "id": 9252682263, "lat": 3.419262, "lon": 34.1460211}, {"type": "node", "id": 9252682264, "lat": 3.4188391, "lon": 34.1472882}, {"type": "node", "id": 9252682265, "lat": 3.4198714, "lon": 34.1474491}, {"type": "node", "id": 9252682266, "lat": 3.4200985, "lon": 34.1468276}, {"type": "node", "id": 9252682267, "lat": 3.4201921, "lon": 34.1465494}, {"type": "node", "id": 9252682268, "lat": 3.4201816, "lon": 34.1460432}, {"type": "node", "id": 9252682274, "lat": 3.4189146, "lon": 34.1470622}, {"type": "node", "id": 9252682275, "lat": 3.4184327, "lon": 34.1462384}, {"type": "node", "id": 9252682276, "lat": 3.4183972, "lon": 34.147022}, {"type": "way", "id": 453969739, "nodes": [4506183459, 4506183458]}, {"type": "way", "id": 453969740, "nodes": [4506183458, 4506183457, 4506183456, 4506183455, 4506183454, 4506183453, 4506183452, 4506183451, 4506183450, 4506183459], "tags": {"barrier": "hedge"}}, {"type": "way", "id": 951739223, "nodes": [8809341100, 8809341099, 8809341098, 8809341097, 8809341096, 8809341095, 8809341090, 8809341094, 8809341093, 8809341092, 8809341091, 8809341100], "tags": {"amenity": "school", "landuse": "education", "name": "Kotome Primary School"}}, {"type": "way", "id": 951746908, "nodes": [8809396621, 8809396620, 8809396619, 8809396618, 8809396617, 8809336816, 8809336815, 8809336814, 8809336813, 8809336812, 8809336811, 8809336810, 8809336809, 8809396621], "tags": {"amenity": "school", "landuse": "education", "name": "Lodwar Primary School"}}, {"type": "way", "id": 951746909, "nodes": [8809396625, 8809396624, 8809396623, 8809396622, 8809396625], "tags": {"amenity": "school", "landuse": "education", "name": "Lomunyen Primary School"}}, {"type": "way", "id": 951746912, "nodes": [8809396634, 8809396633, 8809396632, 8809396631, 8809396630, 8809396629, 8809396628, 8809396634], "tags": {"amenity": "school", "landuse": "education", "name": "Meus Primary School"}}, {"type": "way", "id": 951753909, "nodes": [8809448503, 8809448502, 8809448501, 8809448500, 8809448499, 8809448503], "tags": {"amenity": "school", "landuse": "education", "name": "Police Primary School"}}, {"type": "way", "id": 951753911, "nodes": [8809448515, 8809448514, 8809448513, 8809448512, 8809448511, 8809448510, 8809448509, 8809448508, 8809448515], "tags": {"amenity": "school", "landuse": "education", "name": "Kangios Primary School"}}, {"type": "way", "id": 951800329, "nodes": [8809829852, 8809829851, 8809829850, 8809829849, 8809829848, 8809829852], "tags": {"amenity": "school", "landuse": "education", "name": "Loiki Primary School"}}, {"type": "way", "id": 957993020, "nodes": [8864147701, 8864147702, 8864147703, 8864147704, 8864147705, 8864147701], "tags": {"amenity": "school"}}, {"type": "way", "id": 958814883, "nodes": [8871871711, 8871871712, 8871871713, 8871871714, 8871871715, 8871871716, 8871871717, 8871871718, 8871871719, 8871871720, 8871871721, 8871871711], "tags": {"amenity": "school"}}, {"type": "way", "id": 1002562444, "nodes": [9252682263, 9252682275, 9252682276, 9252682274, 9252682264, 9252682265, 9252682266, 9252682267, 9252682268, 9252682263], "tags": {"amenity": "school"}}, {"type": "relation", "id": 6717386, "members": [{"type": "way", "ref": 453969740, "role": "outer"}, {"type": "way", "ref": 453969739, "role": "outer"}], "tags": {"addr:city": "Kalongor", "addr:county": "Dodoth", "addr:district": "Kaabong", "addr:parish": "Kalongor", "addr:subcounty": "Kaabong East", "amenity": "school", "isced:level": "1", "name": "Kalongor Primary School", "operator:type": "public", "source": "www.ubos.org", "source:date": "2010..2014", "type": "multipolygon", "wikidata": "Q22810587"}}]}