{"version": 0.6, "generator": "Overpass API 0.7.61.5 4133829e", "osm3s": {"timestamp_osm_base": "2024-03-06T11:09:29Z", "copyright": "The data included in this document is from www.openstreetmap.org. The data is made available under ODbL."}, "elements": [{"type": "node", "id": 4319958390, "lat": 36.499549, "lon": 41.8661889, "tags": {"addr:street": "\u0628\u0648\u0631\u0643", "amenity": "hospital", "name": "\u0645\u0633\u062a\u0634\u0641\u0649 \u0628\u0648\u0631\u0643", "name:ar": "\u0645\u0633\u062a\u0634\u0641\u0649 \u0628\u0648\u0631\u0643", "name:en": "Bork hospital", "name:ku": "\u0646\u0629\u062e\u0648\u0634\u062e\u0627\u0646\u0647 \u0628\u0648\u0631\u0643"}}, {"type": "node", "id": 4375805413, "lat": 36.7433419, "lon": 42.0845253}, {"type": "node", "id": 4375805414, "lat": 36.7432484, "lon": 42.084474}, {"type": "node", "id": 4375805415, "lat": 36.7431997, "lon": 42.0846328}, {"type": "node", "id": 4375805416, "lat": 36.743312, "lon": 42.0846841}, {"type": "node", "id": 4550798495, "lat": 36.4961298, "lon": 41.8696845, "tags": {"amenity": "clinic", "name": "Jangoo A clinic", "name:ar": "Jangoo A clinic", "name:en": "Jangoo A clinic", "opening_hours": "Sa-Th 03:00-21:00"}}, {"type": "node", "id": 4580689989, "lat": 36.4960966, "lon": 41.8691949, "tags": {"addr:street": "\u0645\u0631\u0643\u0632 \u0628\u0648\u0631\u0643", "amenity": "hospital", "name": "\u0646\u0647 \u062e\u0648\u0634 \u062e\u0627\u0646\u0647 \u0628\u0648\u0631\u0643", "name:ar": "\u0645\u0633\u062a\u0634\u0641\u0649 \u0628\u0648\u0631\u0643", "name:en": "Borek hospital", "name:ku": "\u0646\u0647 \u062e\u0648\u0634 \u062e\u0627\u0646\u0647 \u0628\u0648\u0631\u0643", "opening_hours": "24/7"}}, {"type": "node", "id": 4779499622, "lat": 36.5141762, "lon": 41.962377, "tags": {"amenity": "hospital"}}, {"type": "node", "id": 4796988221, "lat": 36.5143448, "lon": 41.9626758, "tags": {"amenity": "hospital"}}, {"type": "node", "id": 5413775821, "lat": 36.8064066, "lon": 42.0701822, "tags": {"addr:city": "\u0627\u0644\u064a\u0639\u0631\u0628\u064a\u0629", "addr:city:ar": "\u0627\u0644\u064a\u0639\u0631\u0628\u064a\u0629", "amenity": "clinic", "healthcare": "clinic", "name": "\u0645\u0631\u0643\u0632 \u0627\u0644\u062a\u0648\u0644\u064a\u062f \u0627\u0644\u0637\u0628\u064a\u0639\u064a - \u0623\u0637\u0628\u0627\u0621 \u0628\u0644\u0627 \u062d\u062f\u0648\u062f", "name:ar": "\u0645\u0631\u0643\u0632 \u0627\u0644\u062a\u0648\u0644\u064a\u062f \u0627\u0644\u0637\u0628\u064a\u0639\u064a - \u0623\u0637\u0628\u0627\u0621 \u0628\u0644\u0627 \u062d\u062f\u0648\u062f", "name:en": "MSF poly clinics", "opening_hours": "24/7", "operator": "M\u00e9decins sans fronti\u00e8res", "operator:ar": "\u0623\u0637\u0628\u0627\u0621 \u0628\u0644\u0627 \u062d\u062f\u0648\u062f", "operator:short": "MSF", "operator:wikidata": "Q49330", "operator:wikipedia": "ar:\u0623\u0637\u0628\u0627\u0621 \u0628\u0644\u0627 \u062d\u062f\u0648\u062f"}}, {"type": "node", "id": 6462854885, "lat": 36.8028169, "lon": 42.0935205, "tags": {"addr:street": "\u0634\u0627\u0631\u0639 \u0627\u0644\u0627\u0637\u0628\u0627\u0621", "amenity": "clinic", "name": "\u0645\u062e\u062a\u0628\u0631 \u0627\u062d\u0645\u062f \u0627\u0644\u0639\u0648\u062c\u0627\u0646", "name:en": "Ahmed AlOjan lab", "phone": "+9647507034433"}}, {"type": "node", "id": 6474160587, "lat": 36.8011228, "lon": 42.0924135, "tags": {"amenity": "clinic", "name": "\u0645\u0631\u0643\u0632 \u0631\u0628\u064a\u0639\u0629 \u0627\u0644\u0635\u062d\u064a"}}, {"type": "node", "id": 8222956417, "lat": 36.802588, "lon": 42.0942505, "tags": {"amenity": "clinic", "name": "\u0645\u062c\u0645\u0639 \u0627\u0644\u062f\u0648\u0627\u0621 \u0627\u0644\u0634\u0627\u0641\u064a \u0645\u062e\u062a\u0628\u0631 \u0627\u062d\u0645\u062f \u0627\u0644\u0639\u0648\u062c\u0627\u0646", "name:en": "Ahmed Alaojan Lab"}}, {"type": "node", "id": 8908959878, "lat": 36.5551067, "lon": 42.3537962, "tags": {"amenity": "hospital", "healthcare": "hospital", "name": "\u0645\u0633\u062a\u0648\u0635\u0641 \u0643\u0627\u062e\u0631\u062a\u0629 \u0627\u0644\u0635\u062d\u064a", "operator": "\u0643\u0627\u062e\u0631\u062a\u0629"}}, {"type": "node", "id": 10982698905, "lat": 36.7608158, "lon": 42.0640026, "tags": {"addr:housenumber": "f16", "addr:street": "\u0645\u0634\u064a\u0631\u0641\u0629 \u0627\u0644\u0631\u0626\u064a\u0633\u064a", "amenity": "pharmacy", "name": "\u0635\u064a\u062f\u0644\u064a\u0629 \u0645\u0634\u064a\u0631\u0641\u0629", "opening_hours": "24/7"}}, {"type": "way", "id": 439902615, "nodes": [4375805413, 4375805414, 4375805415, 4375805416, 4375805413], "tags": {"amenity": "hospital", "name": "Medical Center"}}]}