{"version": 0.6, "generator": "Overpass API 0.7.61.5 4133829e", "osm3s": {"timestamp_osm_base": "2024-03-06T11:35:00Z", "copyright": "The data included in this document is from www.openstreetmap.org. The data is made available under ODbL."}, "elements": [{"type": "node", "id": 11151161570, "lat": 2.1179481, "lon": 34.227497, "tags": {"amenity": "hospital", "name": "IRIRI HC III"}}, {"type": "node", "id": 11151161574, "lat": 2.1285548, "lon": 34.0493274, "tags": {"amenity": "hospital", "name": "OKOCHO HEALTH CENTRE II"}}, {"type": "node", "id": 11151161575, "lat": 2.172547, "lon": 33.9641779, "tags": {"amenity": "hospital", "grade": "HC II", "name": "KATEBA HC II"}}, {"type": "node", "id": 11151161589, "lat": 2.0562893, "lon": 33.977584, "tags": {"amenity": "hospital", "name": "TASO HEALTH UNIT"}}, {"type": "node", "id": 11151161593, "lat": 2.1235731, "lon": 34.2287781, "tags": {"amenity": "hospital", "grade": "HC III", "name": "IRIRI HC III"}}, {"type": "node", "id": 11151230005, "lat": 2.2017974, "lon": 33.9704641, "tags": {"amenity": "hospital", "name": "ONGONGOJA HEALTH CENTRE II"}}, {"type": "node", "id": 11151230008, "lat": 2.1122332, "lon": 33.9512528, "tags": {"amenity": "hospital", "name": "AKETA HEALTH CENTRE III"}}, {"type": "node", "id": 11151230027, "lat": 2.0283963, "lon": 33.9848319, "tags": {"amenity": "hospital", "name": "KORITOK HEALTH CENTRE II"}}, {"type": "node", "id": 11151230029, "lat": 2.2193027, "lon": 34.2551823, "tags": {"amenity": "hospital", "name": "LORENGECHORA HC III"}}, {"type": "node", "id": 11151230042, "lat": 2.0224215, "lon": 34.1165979, "tags": {"amenity": "hospital", "name": "OLILIM HEALTH CENTRE II"}}]}