{"version": 0.6, "generator": "Overpass API 0.7.61.5 4133829e", "osm3s": {"timestamp_osm_base": "2024-03-06T11:15:40Z", "copyright": "The data included in this document is from www.openstreetmap.org. The data is made available under ODbL."}, "elements": [{"type": "node", "id": 2479485263, "lat": 31.883774, "lon": 47.11926, "tags": {"alt_name": "\u0627\u0644\u0634\u0627\u062e\u0629", "int_name": "Ash Sh\u0101khah, \u0627\u0644\u0634\u0627\u062e\u0647, Ash Shakhah, \u0627\u0644\u0634\u0627\u062e\u0647", "is_in": "Iraq , \u062c\u0645\u0647\u0648\u0631\u064a\u0629 \u0627\u0644\u0639\u0631\u0627\u0642", "name": "\u0627\u0644\u0634\u0627\u062e\u0629", "name:ar": "\u0639\u0644\u0648\u0629 \u0627\u0644\u0639\u0645\u0627\u0631\u0629 \u0627\u0644\u0631\u0626\u064a\u0633\u064a\u0629", "name:ar1": "\u0627\u0644\u0634\u0627\u062e\u0629", "name:de": "Ash Shakhah", "name:en": "Ash Shakhah", "name:fr": "Ash Shakhah", "place": "village"}}, {"type": "node", "id": 2487793175, "lat": 32.1213346, "lon": 46.7336746, "tags": {"alt_name": "\u0646\u0627\u062d\u064a\u0629 \u0639\u0644\u064a \u0627\u0644\u0634\u0631\u0642\u064a", "capital": "7", "int_name": "Ali ash Sharqi - \u0639\u0644\u064a \u0627\u0644\u0634\u0631\u0642\u064a", "is_in": "Iraq , \u062c\u0645\u0647\u0648\u0631\u064a\u0629 \u0627\u0644\u0639\u0631\u0627\u0642", "is_in:country": "Iraq", "is_in:country_code": "IQ", "name": "\u0639\u0644\u064a \u0627\u0644\u0634\u0631\u0642\u064a", "name:ar": "\u0639\u0644\u064a \u0627\u0644\u0634\u0631\u0642\u064a", "name:de": "Ali ash Sharqi", "name:en": "Ali ash Sharqi", "name:fr": "Ali ash Sharqi", "place": "town", "wikidata": "Q4118073", "wikipedia": "en:Ali Al Sharqi"}}, {"type": "node", "id": 2487795367, "lat": 32.033673, "lon": 46.87468, "tags": {"alt_name": "Markaz N\u0101\u1e29iyat Kumayt, Markaz Nahiyat Kumayt", "capital": "7", "int_name": "Kumayt - \u0643\u0645\u064a\u062a", "is_in": "Iraq , \u062c\u0645\u0647\u0648\u0631\u064a\u0629 \u0627\u0644\u0639\u0631\u0627\u0642", "name": "\u0643\u0645\u064a\u062a", "name:ar": "\u0643\u0645\u064a\u062a", "name:de": "Kumayt", "name:en": "Kumayt", "name:fr": "Kumayt", "place": "town"}}, {"type": "node", "id": 2487800115, "lat": 32.020505, "lon": 46.8881438, "tags": {"alt_name": "\u0634\u064a\u062e \u0646\u0639\u064a\u0645", "int_name": "Shaykh Na\u012bm, Shaykh Naim", "is_in": "Iraq , \u062c\u0645\u0647\u0648\u0631\u064a\u0629 \u0627\u0644\u0639\u0631\u0627\u0642", "name": "\u0634\u064a\u062e \u0646\u0639\u064a\u0645", "name:ar": "\u0634\u064a\u062e \u0646\u0639\u064a\u0645", "name:ar1": "\u0634\u064a\u062e \u0646\u0639\u064a\u0645", "name:de": "Shaykh Naim", "name:en": "Shaykh Naim", "name:fr": "Shaykh Naim", "place": "village"}}, {"type": "node", "id": 2487801667, "lat": 32.0725, "lon": 46.876111, "tags": {"alt_name": "\u0634\u064a\u062e \u062c\u0648\u064a", "int_name": "Shaykh J\u016bw\u012b, Sheykh Dzhuvi, Shaykh Juwi, Sheykh Dzhuvi", "is_in": "Iraq , \u062c\u0645\u0647\u0648\u0631\u064a\u0629 \u0627\u0644\u0639\u0631\u0627\u0642", "name": "\u0634\u064a\u062e \u062c\u0648\u064a", "name:ar": "\u0634\u064a\u062e \u062c\u0648\u064a", "name:ar1": "\u0634\u064a\u062e \u062c\u0648\u064a", "name:de": "Shaykh Juwi", "name:en": "Shaykh Juwi", "name:fr": "Shaykh Juwi", "name:uk": "\u0428\u0430\u0439\u0445-\u0414\u0436\u0443\u0432\u0456", "place": "village"}}, {"type": "node", "id": 2487803935, "lat": 31.956389, "lon": 46.928333, "tags": {"alt_name": "\u0639\u0628\u062f \u0627\u0644\u0631\u0636\u0649", "int_name": "Abd ar Ri\u1e11\u00e1, Abdur Radha, Abd ar Rida, Abdur Radha", "is_in": "Iraq , \u062c\u0645\u0647\u0648\u0631\u064a\u0629 \u0627\u0644\u0639\u0631\u0627\u0642", "name": "\u0639\u0628\u062f \u0627\u0644\u0631\u0636\u0649", "name:ar": "\u0639\u0628\u062f \u0627\u0644\u0631\u0636\u0627", "name:ar1": "\u0639\u0628\u062f \u0627\u0644\u0631\u0636\u0649", "name:de": "Abd ar Rida", "name:en": "Abd ar Rida", "name:fr": "Abd ar Rida", "place": "village"}}, {"type": "node", "id": 2487803980, "lat": 32.065756, "lon": 46.824698, "tags": {"alt_name": "\u0627\u0644\u062e\u064a\u062a\u0629", "int_name": "Al Khaytah, \u0627\u0644\u062e\u064a\u062a\u0629, Al Khaytah, \u0627\u0644\u062e\u064a\u062a\u0629", "is_in": "Iraq , \u062c\u0645\u0647\u0648\u0631\u064a\u0629 \u0627\u0644\u0639\u0631\u0627\u0642", "name": "\u0627\u0644\u062e\u064a\u062a\u0629", "name:ar": "\u0627\u0644\u062e\u0628\u0646\u0647", "name:ar1": "\u0627\u0644\u062e\u064a\u062a\u0629", "name:de": "Al Khaytah", "name:en": "Al Khaytah", "name:fr": "Al Khaytah", "place": "village"}}, {"type": "node", "id": 2487804086, "lat": 31.9835519, "lon": 46.833361, "tags": {"alt_name": "\u0645\u0627\u0634\u064a", "int_name": "M\u0101sh\u012b, Moshi, Mashi, Moshi", "is_in": "Iraq , \u062c\u0645\u0647\u0648\u0631\u064a\u0629 \u0627\u0644\u0639\u0631\u0627\u0642", "name": "\u0645\u0627\u0634\u064a", "name:ar": "\u0628\u064a\u062a \u0645\u0634\u0631\u062a\u064a", "name:ar1": "\u0645\u0627\u0634\u064a", "name:de": "Mashi", "name:en": "Mashi", "name:fr": "Mashi", "place": "village"}}, {"type": "node", "id": 2487804162, "lat": 32.0176449, "lon": 46.8163055, "tags": {"alt_name": "\u0633\u062d\u0627\u0631", "int_name": "Sa\u1e29\u0101r, Sahar", "is_in": "Iraq , \u062c\u0645\u0647\u0648\u0631\u064a\u0629 \u0627\u0644\u0639\u0631\u0627\u0642", "name": "\u0633\u062d\u0627\u0631", "name:ar": "\u0642\u0631\u064a\u0629 \u0627\u0644\u0628\u0648\u062b\u0646\u0648\u0627\u0646", "name:ar1": "\u0633\u062d\u0627\u0631", "name:de": "Sahar", "name:en": "Sahar", "name:fr": "Sahar", "place": "village"}}, {"type": "node", "id": 2487804196, "lat": 31.991879, "lon": 46.820678, "tags": {"alt_name": "\u0633\u0644\u0641 \u062d\u0646\u062c\u0648\u0631", "int_name": "Salaf \u1e28anj\u016br, Salaf Hanjur", "is_in": "Iraq , \u062c\u0645\u0647\u0648\u0631\u064a\u0629 \u0627\u0644\u0639\u0631\u0627\u0642", "name": "\u0633\u0644\u0641 \u062d\u0646\u062c\u0648\u0631", "name:ar": "\u0633\u0644\u0641 \u0627\u0644\u0628\u063a\u064a\u062b", "name:ar1": "\u0633\u0644\u0641 \u062d\u0646\u062c\u0648\u0631", "name:de": "Salaf Hanjur", "name:en": "Salaf Hanjur", "name:fr": "Salaf Hanjur", "place": "hamlet"}}, {"type": "node", "id": 2487804298, "lat": 32.0243712, "lon": 46.8123536, "tags": {"alt_name": "\u0633\u064a\u062e\u064a\u0631", "int_name": "Sekher, Sekher", "is_in": "Iraq , \u062c\u0645\u0647\u0648\u0631\u064a\u0629 \u0627\u0644\u0639\u0631\u0627\u0642", "name": "\u0633\u064a\u062e\u064a\u0631", "name:ar": "\u0633\u0644\u0641  \u0627\u0644\u0628\u0648\u062b\u0646\u0648\u0627\u0646", "name:ar1": "\u0633\u064a\u062e\u064a\u0631", "name:de": "Sekher", "name:en": "Sekher", "name:fr": "Sekher", "place": "village"}}, {"type": "node", "id": 2487804337, "lat": 31.9614974, "lon": 46.7898882, "tags": {"alt_name": "\u0633\u0644\u0641 \u0627\u0644\u0643\u0648\u0644\u064a\u0647", "int_name": "\u0633\u0644\u0641 \u0627\u0644\u0643\u0648\u0644\u064a\u0647, \u0633\u0644\u0641 \u0627\u0644\u0643\u0648\u0644\u064a\u0647", "is_in": "Iraq , \u062c\u0645\u0647\u0648\u0631\u064a\u0629 \u0627\u0644\u0639\u0631\u0627\u0642", "name": "\u0633\u0644\u0641 \u0627\u0644\u0643\u0648\u0644\u064a\u0647", "name:ar": "\u0633\u0644\u0641 \u0627\u0644\u0643\u0648\u0644\u064a\u0647", "name:ar1": "\u0633\u0644\u0641 \u0627\u0644\u0643\u0648\u0644\u064a\u0647", "name:de": "\u0633\u0644\u0641 \u0627\u0644\u0643\u0648\u0644\u064a\u0647", "name:en": "The predecessor of the collegiate", "name:fr": "\u0633\u0644\u0641 \u0627\u0644\u0643\u0648\u0644\u064a\u0647", "place": "village"}}, {"type": "node", "id": 2487813584, "lat": 31.8489365, "lon": 46.9622076, "tags": {"alt_name": "\u0627\u0627\u0644\u0635\u0643\u0644\u0627\u0648\u064a\u0629", "int_name": "A\u015f \u015eagl\u0101w\u012byah, \u0627\u0627\u0644\u0635\u06af\u0644\u0627\u0648\u064a\u0647, As Saglawiyah, \u0627\u0627\u0644\u0635\u06af\u0644\u0627\u0648\u064a\u0647", "is_in": "Iraq , \u062c\u0645\u0647\u0648\u0631\u064a\u0629 \u0627\u0644\u0639\u0631\u0627\u0642", "name": "\u0627\u0627\u0644\u0635\u0643\u0644\u0627\u0648\u064a\u0629", "name:ar": "\u0642\u0631\u064a\u0647 \u0627\u0644\u0633\u0641\u064a\u062d\u0647", "name:ar1": "\u0627\u0627\u0644\u0635\u0643\u0644\u0627\u0648\u064a\u0629", "name:de": "As Saglawiyah", "name:en": "As Saglawiyah", "name:fr": "As Saglawiyah", "place": "village"}}, {"type": "node", "id": 2487813590, "lat": 31.8608321, "lon": 46.9569921, "tags": {"alt_name": "\u062d\u0627\u062c \u0646\u0639\u064a\u0645\u0629", "int_name": "H\u0101jj Nuaymah, Hajj Nuaymah", "is_in": "Iraq , \u062c\u0645\u0647\u0648\u0631\u064a\u0629 \u0627\u0644\u0639\u0631\u0627\u0642", "name": "\u062d\u0627\u062c \u0646\u0639\u064a\u0645\u0629", "name:ar": "\u062d\u0627\u062c \u062d\u0645\u064a\u062f", "name:ar1": "\u062d\u0627\u062c \u0646\u0639\u064a\u0645\u0629", "name:de": "Hajj Nuaymah", "name:en": "Hajj hmeed", "name:fr": "Hajj Nuaymah", "place": "village"}}, {"type": "node", "id": 2487813713, "lat": 31.8636079, "lon": 46.9571327, "tags": {"alt_name": "\u0633\u0644\u0641 \u0622\u0644 \u0628\u0648 \u062e\u0636\u064a\u0631", "int_name": "Salaf \u0100lb\u016b Khu\u1e11ayr, \u0633\u0644\u0641 \u0627\u0644\u0628\u0648 \u062e\u0636\u064a\u0631, Salaf Albu Khudayr, \u0633\u0644\u0641 \u0627\u0644\u0628\u0648 \u062e\u0636\u064a\u0631", "is_in": "Iraq , \u062c\u0645\u0647\u0648\u0631\u064a\u0629 \u0627\u0644\u0639\u0631\u0627\u0642", "name": "\u0633\u0644\u0641 \u0622\u0644 \u0628\u0648 \u062e\u0636\u064a\u0631", "name:ar": "\u0633\u0644\u0641 \u0622\u0644 \u0628\u0648 \u062e\u0636\u064a\u0631", "name:ar1": "\u0633\u0644\u0641 \u0622\u0644 \u0628\u0648 \u062e\u0636\u064a\u0631", "name:de": "Salaf Albu Khudayr", "name:en": "Salaf Albu Khudayr", "name:fr": "Salaf Albu Khudayr", "place": "village"}}, {"type": "node", "id": 2487814388, "lat": 31.826401, "lon": 47.116737, "tags": {"alt_name": "\u0627\u0644\u0645\u0627\u0635\u062e", "int_name": "Al M\u0101\u015fikh, \u0627\u0644\u0645\u0627\u0635\u062e, Al Masikh, \u0627\u0644\u0645\u0627\u0635\u062e", "is_in": "Iraq , \u062c\u0645\u0647\u0648\u0631\u064a\u0629 \u0627\u0644\u0639\u0631\u0627\u0642", "name": "\u0627\u0644\u0645\u0627\u0635\u062e", "name:ar": "\u062d\u064a \u0627\u0644\u0628\u0627\u0642\u0631", "name:ar1": "\u0627\u0644\u0645\u0627\u0635\u062e", "name:de": "albaqer", "name:en": "Al baqer", "name:fr": "Albaqer", "place": "village"}}, {"type": "node", "id": 2487814395, "lat": 31.8198417, "lon": 46.8992704, "tags": {"alt_name": "\u0627\u0644\u0648\u0637\u064a\u0629", "int_name": "Al Watiya, Al Wa\u0163\u012byah, Al Watiya, Al Watiyah", "is_in": "Iraq , \u062c\u0645\u0647\u0648\u0631\u064a\u0629 \u0627\u0644\u0639\u0631\u0627\u0642", "name": "\u0627\u0644\u0648\u0637\u064a\u0629", "name:ar": "\u0627\u0644\u0648\u0637\u064a\u0629", "name:ar1": "\u0627\u0644\u0648\u0637\u064a\u0629", "name:de": "Al Watiya", "name:en": "Al Watiya", "name:fr": "Al Watiya", "place": "village"}}, {"type": "node", "id": 2487814401, "lat": 31.7993031, "lon": 47.0835391, "tags": {"alt_name": "\u0622\u0644 \u0628\u0648 \u0633\u0646\u0648\u0627\u0646", "int_name": "Albu thanw\u0101n, Albu thanwan", "is_in": "Iraq , \u062c\u0645\u0647\u0648\u0631\u064a\u0629 \u0627\u0644\u0639\u0631\u0627\u0642", "name": "\u0622\u0644 \u0628\u0648 \u062b\u0646\u0648\u0627\u0646", "name:ar": "\u0622\u0644 \u0628\u0648 \u062b\u0646\u0648\u0627\u0646", "name:ar1": "\u0622\u0644 \u0628\u0648 \u0633\u0646\u0648\u0627\u0646", "name:de": "Albu thanwan", "name:en": "Albu thanwan", "name:fr": "Albu thanwan", "place": "village"}}, {"type": "node", "id": 2487814409, "lat": 31.8, "lon": 47.083333, "tags": {"alt_name": "\u0622\u0644 \u0628\u0648 \u0635\u0646\u0648\u0627\u0646", "int_name": "\u0100lb\u016b \u015einw\u0101n, Albu Sinwan", "is_in": "Iraq , \u062c\u0645\u0647\u0648\u0631\u064a\u0629 \u0627\u0644\u0639\u0631\u0627\u0642", "name": "\u0622\u0644 \u0628\u0648 \u0635\u0646\u0648\u0627\u0646", "name:ar": "\u0622\u0644 \u0628\u0648 \u062b\u0646\u0648\u0627\u0646", "name:ar1": "\u0622\u0644 \u0628\u0648 \u0635\u0646\u0648\u0627\u0646", "name:de": "Albu Sinwan", "name:en": "Albu Sinwan", "name:fr": "Albu Sinwan", "place": "village"}}, {"type": "node", "id": 2487814415, "lat": 31.835238, "lon": 46.9614206, "tags": {"alt_name": "\u062f\u064a\u0634\u0627\u0646", "int_name": "Daish\u0101n, D\u012bsh\u0101n, Daishan, Dishan", "is_in": "Iraq , \u062c\u0645\u0647\u0648\u0631\u064a\u0629 \u0627\u0644\u0639\u0631\u0627\u0642", "name": "\u062f\u064a\u0634\u0627\u0646", "name:ar": "\u0642\u0631\u064a\u0647 \u0627\u0644\u0639\u0646\u064a\u062c \u0648\u0627\u0644\u0628\u064a\u0636", "name:ar1": "\u062f\u064a\u0634\u0627\u0646", "name:de": "Daishan", "name:en": "Daishan", "name:fr": "Daishan", "place": "village"}}, {"type": "node", "id": 2487891706, "lat": 31.747222, "lon": 47.111667, "tags": {"alt_name": "\u0627\u0644\u0639\u062f\u0644", "int_name": "Al Adl, Al Adl", "is_in": "Iraq , \u062c\u0645\u0647\u0648\u0631\u064a\u0629 \u0627\u0644\u0639\u0631\u0627\u0642", "name": "\u0627\u0644\u0639\u062f\u0644", "name:ar": "\u0627\u0644\u0637\u0628\u0631", "name:ar1": "\u0627\u0644\u0639\u062f\u0644", "name:de": "Al Adl", "name:en": "Al Taber", "name:fr": "Al Adl", "place": "village"}}, {"type": "node", "id": 2487892151, "lat": 31.7298604, "lon": 47.0718868, "tags": {"alt_name": "\u0633\u0644\u0641 \u0627\u0644\u0632\u0639\u0644\u064a\u0629", "int_name": "Salaf az Zal\u012byah, \u0633\u0644\u0641 \u0627\u0644\u0632\u0639\u0644\u064a\u0629, Salaf az Zaliyah, \u0633\u0644\u0641 \u0627\u0644\u0632\u0639\u0644\u064a\u0629", "is_in": "Iraq , \u062c\u0645\u0647\u0648\u0631\u064a\u0629 \u0627\u0644\u0639\u0631\u0627\u0642", "name": "\u0633\u0644\u0641 \u0627\u0644\u0632\u0639\u0644\u064a\u0629", "name:ar": "\u0642\u0631\u064a\u0629 \u0627\u0644\u062d\u0627\u062c \u0643\u0627\u0638\u0645 \u064a\u0627\u0633\u0631", "name:ar1": "\u0633\u0644\u0641 \u0627\u0644\u0632\u0639\u0644\u064a\u0629", "name:de": "Salaf az Zaliyah", "name:en": "Salaf az Zaliyah", "name:fr": "Salaf az Zaliyah", "place": "village"}}, {"type": "node", "id": 2487981629, "lat": 31.695312, "lon": 46.672985, "tags": {"alt_name": "\u0645\u0631\u0643\u0632 \u0646\u0627\u062d\u064a\u0629 \u0623\u0645 \u0639\u0628\u064a\u062f\u0629", "building": "yes", "int_name": "Markaz N\u0101\u1e29iyat Umm Ubaydah, \u0645\u0631\u0643\u0632 \u0646\u0627\u062d\u064a\u0629 \u0627\u0645 \u0639\u0628\u064a\u062f\u0629, Markaz Nahiyat Umm Ubaydah, \u0645\u0631\u0643\u0632 \u0646\u0627\u062d\u064a\u0629 \u0627\u0645 \u0639\u0628\u064a\u062f\u0629", "is_in": "Iraq , \u062c\u0645\u0647\u0648\u0631\u064a\u0629 \u0627\u0644\u0639\u0631\u0627\u0642", "name": "\u0645\u0631\u0643\u0632 \u0646\u0627\u062d\u064a\u0629 \u0623\u0645 \u0639\u0628\u064a\u062f\u0629", "name:ar": "\u0645\u0631\u0643\u0632 \u0646\u0627\u062d\u064a\u0629 \u0623\u0645 \u0639\u0628\u064a\u062f\u0629", "name:ar1": "\u0645\u0631\u0643\u0632 \u0646\u0627\u062d\u064a\u0629 \u0623\u0645 \u0639\u0628\u064a\u062f\u0629", "name:de": "Markaz Nahiyat Umm Ubaydah", "name:en": "Markaz Nahiyat Umm Ubaydah", "name:fr": "Markaz Nahiyat Umm Ubaydah", "place": "village"}}, {"type": "node", "id": 2487982362, "lat": 31.68807, "lon": 46.913631, "tags": {"alt_name": "\u062a\u0644 \u0627\u0644\u0634\u0632\u064a\u0631\u064a\u0629", "int_name": "Tall ash Shaz\u012br\u012byah, \u062a\u0644 \u0627\u0644\u0634\u0632\u064a\u0631\u064a\u0647, Tall ash Shaziriyah, \u062a\u0644 \u0627\u0644\u0634\u0632\u064a\u0631\u064a\u0647", "is_in": "Iraq , \u062c\u0645\u0647\u0648\u0631\u064a\u0629 \u0627\u0644\u0639\u0631\u0627\u0642", "name": "\u062a\u0644 \u0627\u0644\u0634\u0632\u064a\u0631\u064a\u0629", "name:ar": "\u062a\u0644 \u0627\u0644\u0634\u0630\u064a\u0631\u064a\u0629", "name:ar1": "\u062a\u0644 \u0627\u0644\u0634\u0632\u064a\u0631\u064a\u0629", "name:de": "Tall ash Shaziriyah", "name:en": "Tall ash Shaziriyah", "name:fr": "Tall ash Shaziriyah", "place": "village"}}, {"type": "node", "id": 4391387323, "lat": 31.7227516, "lon": 46.7281582, "tags": {"alt_name:en": "Nahya Said Ahmed Al-Rifaai", "capital": "7", "name": "\u0633\u064a\u062f \u0627\u062d\u0645\u062f \u0627\u0644\u0631\u0641\u0627\u0639\u064a", "name:ar": "\u0627\u0644\u0631\u0641\u0627\u0639\u064a", "name:en": "Said Ahmed Al-Rifaai", "place": "village", "wikidata": "Q12247214"}}, {"type": "node", "id": 6698853660, "lat": 31.7664313, "lon": 47.0735568, "tags": {"place": "hamlet"}}, {"type": "node", "id": 6698853706, "lat": 31.7590014, "lon": 47.0872092, "tags": {"place": "hamlet"}}, {"type": "node", "id": 6698871264, "lat": 31.7462064, "lon": 47.0561868, "tags": {"place": "hamlet"}}, {"type": "node", "id": 6850969314, "lat": 31.870123, "lon": 46.9590747, "tags": {"place": "village"}}, {"type": "node", "id": 6898525359, "lat": 31.8585918, "lon": 46.7602533, "tags": {"place": "hamlet"}}, {"type": "node", "id": 6898603884, "lat": 31.9063339, "lon": 46.8810868, "tags": {"place": "hamlet"}}, {"type": "node", "id": 6898902548, "lat": 31.929219, "lon": 46.9125652, "tags": {"place": "village"}}, {"type": "node", "id": 7869211013, "lat": 31.7097867, "lon": 46.7681336, "tags": {"place": "village"}}]}