{"version": 0.6, "generator": "Overpass API 0.7.61.5 4133829e", "osm3s": {"timestamp_osm_base": "2024-03-05T14:56:44Z", "copyright": "The data included in this document is from www.openstreetmap.org. The data is made available under ODbL."}, "elements": [{"type": "node", "id": 2494455558, "lat": 59.7579938, "lon": 18.6919721}, {"type": "node", "id": 2496046546, "lat": 59.7517278, "lon": 18.6946329, "tags": {"addr:city": "Norrt\u00e4lje", "addr:country": "SE", "addr:housenumber": "9N", "addr:postcode": "761 42", "addr:street": "Radarv\u00e4gen", "amenity": "pharmacy", "app:apple": "https://itunes.apple.com/se/app/apotek-hj%C3%A4rtat-n%C3%A4ra-dig/id1150817089", "app:google": "https://play.google.com/store/apps/details?id=com.presencekit.apotek.se&hl=en_US", "brand": "Apotek Hj\u00e4rtat", "name": "Apotek Hj\u00e4rtat", "operator": "Apotek Hj\u00e4rtat Retail AB", "owner": "ICA Gruppen AB", "ownership": "private", "phone": "+46771405405", "website:stock": "https://www.fass.se/"}}, {"type": "node", "id": 2523347553, "lat": 59.7576108, "lon": 18.6904518}, {"type": "node", "id": 2523347600, "lat": 59.7575104, "lon": 18.6904968}, {"type": "node", "id": 2523347623, "lat": 59.7571548, "lon": 18.6905084}, {"type": "node", "id": 2523347657, "lat": 59.7576921, "lon": 18.6904491}, {"type": "node", "id": 2523347677, "lat": 59.7571225, "lon": 18.6902611}, {"type": "node", "id": 2523347690, "lat": 59.7571536, "lon": 18.6903633}, {"type": "node", "id": 2523347696, "lat": 59.757542, "lon": 18.6906223}, {"type": "node", "id": 2523347716, "lat": 59.7571233, "lon": 18.6903643}, {"type": "node", "id": 2523347960, "lat": 59.7575197, "lon": 18.6902481}, {"type": "node", "id": 2523347982, "lat": 59.75757, "lon": 18.690405}, {"type": "node", "id": 2523347984, "lat": 59.7576104, "lon": 18.6904037}, {"type": "node", "id": 2523348000, "lat": 59.7575115, "lon": 18.6906233}, {"type": "node", "id": 2523348079, "lat": 59.7575404, "lon": 18.6904383}, {"type": "node", "id": 2523348093, "lat": 59.7575703, "lon": 18.6904373}, {"type": "node", "id": 2523348228, "lat": 59.7575188, "lon": 18.6901418}, {"type": "node", "id": 2523348250, "lat": 59.7576894, "lon": 18.6901362}, {"type": "node", "id": 2529027443, "lat": 59.7572934, "lon": 18.6862448}, {"type": "node", "id": 2529027445, "lat": 59.7572704, "lon": 18.6860276}, {"type": "node", "id": 2529027446, "lat": 59.7571271, "lon": 18.6860666}, {"type": "node", "id": 2529027449, "lat": 59.7571245, "lon": 18.685695}, {"type": "node", "id": 2529027452, "lat": 59.7570043, "lon": 18.6856923}, {"type": "node", "id": 2623406281, "lat": 59.759284, "lon": 18.702841, "tags": {"addr:city": "Norrt\u00e4lje", "addr:country": "SE", "addr:housenumber": "12", "addr:street": "Stora Brogatan", "amenity": "doctors", "name": "Husl\u00e4karmottagningen Lugn och Ro AB"}}, {"type": "node", "id": 2689236628, "lat": 59.7414257, "lon": 18.3704119}, {"type": "node", "id": 2689236629, "lat": 59.7414381, "lon": 18.3710684}, {"type": "node", "id": 2689236630, "lat": 59.7411342, "lon": 18.3710848}, {"type": "node", "id": 2689236631, "lat": 59.7411259, "lon": 18.3708181}, {"type": "node", "id": 2689236632, "lat": 59.7412686, "lon": 18.3708038}, {"type": "node", "id": 2689236633, "lat": 59.7412613, "lon": 18.3704263}, {"type": "node", "id": 3087158737, "lat": 59.7582823, "lon": 18.6929557}, {"type": "node", "id": 3087173803, "lat": 59.7577933, "lon": 18.6872721}, {"type": "node", "id": 3087173806, "lat": 59.757823, "lon": 18.687535}, {"type": "node", "id": 3087173808, "lat": 59.7581972, "lon": 18.6889029}, {"type": "node", "id": 3087173810, "lat": 59.7582857, "lon": 18.6893232}, {"type": "node", "id": 3087173811, "lat": 59.7575488, "lon": 18.6864218}, {"type": "node", "id": 3087173812, "lat": 59.7587645, "lon": 18.6915771}, {"type": "node", "id": 3087173813, "lat": 59.7587356, "lon": 18.6907528}, {"type": "node", "id": 3087173815, "lat": 59.7587888, "lon": 18.6918614}, {"type": "node", "id": 3087173816, "lat": 59.7588131, "lon": 18.691223}, {"type": "node", "id": 3087173817, "lat": 59.7587848, "lon": 18.6916387}, {"type": "node", "id": 3087173818, "lat": 59.7587942, "lon": 18.6910192}, {"type": "node", "id": 3087173819, "lat": 59.7587942, "lon": 18.6914751}, {"type": "node", "id": 3087173820, "lat": 59.7586862, "lon": 18.6918131}, {"type": "node", "id": 3087173821, "lat": 59.7587564, "lon": 18.6917031}, {"type": "node", "id": 3087173824, "lat": 59.7586483, "lon": 18.6918131}, {"type": "node", "id": 3087173828, "lat": 59.7576859, "lon": 18.686936}, {"type": "node", "id": 3087173830, "lat": 59.7587375, "lon": 18.6919338}, {"type": "node", "id": 3087173832, "lat": 59.7583607, "lon": 18.6925078}, {"type": "node", "id": 3087173837, "lat": 59.7585605, "lon": 18.6920384}, {"type": "node", "id": 3087173840, "lat": 59.7583917, "lon": 18.6923951}, {"type": "node", "id": 3087173841, "lat": 59.7575717, "lon": 18.6865935}, {"type": "node", "id": 3087173842, "lat": 59.7582904, "lon": 18.6928913}, {"type": "node", "id": 3087173843, "lat": 59.7583391, "lon": 18.692588}, {"type": "node", "id": 3087199218, "lat": 59.7575055, "lon": 18.686336}, {"type": "node", "id": 3087199224, "lat": 59.7573637, "lon": 18.6862716}, {"type": "node", "id": 3087201283, "lat": 59.7569732, "lon": 18.6869476}, {"type": "node", "id": 3087201285, "lat": 59.7569787, "lon": 18.6857083}, {"type": "node", "id": 3087255403, "lat": 59.7592097, "lon": 18.7023076, "tags": {"amenity": "pharmacy", "name": "LloydsApotek", "operator": "LloydsApotek AB", "owner": "Admenta Sweden AB", "ownership": "private", "source": "survey", "website:stock": "https://www.fass.se/", "wikipedia": "sv:LloydsApotek"}}, {"type": "node", "id": 3450706912, "lat": 59.7619071, "lon": 18.7138968}, {"type": "node", "id": 3450706913, "lat": 59.7619465, "lon": 18.7141825}, {"type": "node", "id": 3450706914, "lat": 59.7619509, "lon": 18.7155615}, {"type": "node", "id": 3450706915, "lat": 59.7619826, "lon": 18.7154358}, {"type": "node", "id": 3450706916, "lat": 59.762131, "lon": 18.7140804}, {"type": "node", "id": 3450706917, "lat": 59.7621347, "lon": 18.7153126}, {"type": "node", "id": 3450706918, "lat": 59.7621456, "lon": 18.7144984}, {"type": "node", "id": 3450706919, "lat": 59.7621736, "lon": 18.7141771}, {"type": "node", "id": 3450706920, "lat": 59.762187, "lon": 18.7143244}, {"type": "node", "id": 3450706921, "lat": 59.7622004, "lon": 18.715042}, {"type": "node", "id": 3450706922, "lat": 59.7623245, "lon": 18.7136793}, {"type": "node", "id": 3450706923, "lat": 59.7623573, "lon": 18.7134329}, {"type": "node", "id": 3450706924, "lat": 59.7628304, "lon": 18.7138096}, {"type": "node", "id": 3450706925, "lat": 59.7628918, "lon": 18.7163599}, {"type": "node", "id": 3450706926, "lat": 59.7633105, "lon": 18.7141001}, {"type": "node", "id": 3450706927, "lat": 59.7633271, "lon": 18.7142012}, {"type": "node", "id": 4171764396, "lat": 59.7438568, "lon": 18.3662056, "tags": {"amenity": "pharmacy", "app:apk": "se.apoteket.recept", "app:apple": "https://itunes.apple.com/se/app/mitt-apotek/id1053398061", "brand": "Apoteket", "fixme": "branch - vad heter detta apotek mera \u00e4n apoteket?", "name": "Apoteket", "opening_hours": "Mo-Fr 09:00-18:00; Sa 09:30-14:00", "operator": "Apoteket AB (556138-6532)", "owner": "Svenska Staten", "ownership": "national", "phone": "+46771450450", "source": "survey", "website:stock": "https://www.fass.se/"}}, {"type": "node", "id": 4967920169, "lat": 59.7463295, "lon": 18.6760277, "tags": {"addr:city": "Norrt\u00e4lje", "addr:country": "SE", "addr:housenumber": "9", "addr:postcode": "761 46", "addr:street": "August Strindbergs gata", "amenity": "pharmacy", "app:apple": "https://itunes.apple.com/se/app/apotek-hj%C3%A4rtat-n%C3%A4ra-dig/id1150817089", "app:google": "https://play.google.com/store/apps/details?id=com.presencekit.apotek.se&hl=en_US", "brand": "Apotek Hj\u00e4rtat", "check_date": "2023-05-19", "drive_through": "no", "name": "Apotek Hj\u00e4rtat", "opening_hours": "Mo-Fr 09:00-19:00; Sa 10:00-17:00; Su 11:00-17:00", "operator": "Apotek Hj\u00e4rtat Retail AB", "owner": "ICA Gruppen AB", "ownership": "private", "phone": "+46771405405", "website:stock": "https://www.fass.se/"}}, {"type": "node", "id": 5135012060, "lat": 59.7587767, "lon": 18.7036619, "tags": {"addr:city": "Norrt\u00e4lje", "addr:country": "SE", "addr:housenumber": "11", "addr:postcode": "761 30", "addr:street": "Kyrkogatan", "amenity": "clinic", "email": "centrum@lugn-och-ro.se", "fax": "+46 176-190 24", "name": "Husl\u00e4karen Lugn&Ro", "opening_hours": "Mo-Fr 08:00-17:00", "phone": "+46 20 118 118", "phone_1": "+46 176-190 20", "website": "https://www.lugn-och-ro.se/vard"}}, {"type": "node", "id": 6547820674, "lat": 59.4872907, "lon": 18.2733812, "tags": {"addr:city": "\u00c5kersberga", "addr:country": "SE", "addr:housenumber": "4", "addr:postcode": "184 40", "addr:street": "Pilstugetorget", "amenity": "pharmacy", "branch": "\u00c5kersberga", "name": "LloydsApotek", "source": "survey", "website": "https://www.lloydsapotek.se/"}}, {"type": "node", "id": 6975288164, "lat": 59.7569814, "lon": 18.687433}, {"type": "node", "id": 6975288165, "lat": 59.7570733, "lon": 18.6920092}, {"type": "node", "id": 6975288166, "lat": 59.7581513, "lon": 18.6920437}, {"type": "node", "id": 7683635512, "lat": 59.7569802, "lon": 18.6870174}, {"type": "node", "id": 8871331114, "lat": 59.7627217, "lon": 18.7162155}, {"type": "node", "id": 8871375935, "lat": 59.7620631, "lon": 18.7156567}, {"type": "node", "id": 8871375944, "lat": 59.7624489, "lon": 18.7135058}, {"type": "node", "id": 8871375955, "lat": 59.7631237, "lon": 18.7152101}, {"type": "node", "id": 8871376015, "lat": 59.7621785, "lon": 18.7148246}, {"type": "node", "id": 8871376034, "lat": 59.7628564, "lon": 18.7163298}, {"type": "way", "id": 245082073, "nodes": [2523348250, 2523347657, 2523347553, 2523347984, 2523347982, 2523348093, 2523348079, 2523347696, 2523348000, 2523347600, 2523347623, 2523347690, 2523347716, 2523347677, 2523347960, 2523348228, 2523348250], "tags": {"amenity": "doctors", "building": "yes", "healthcare": "doctor", "healthcare:speciality": "general", "name": "S\u00f6dra v\u00e5rdcentral", "source": "Bing"}}, {"type": "way", "id": 263299632, "nodes": [2689236628, 2689236629, 2689236630, 2689236631, 2689236632, 2689236633, 2689236628], "tags": {"addr:country": "SE", "addr:housenumber": "11", "addr:street": "V\u00e4stra Stockholmsv\u00e4gen", "amenity": "clinic", "building": "hospital", "building:levels": "3", "healthcare": "clinic"}}, {"type": "way", "id": 338003906, "nodes": [3450706926, 3450706924, 8871375944, 3450706923, 3450706922, 3450706912, 3450706913, 3450706916, 3450706919, 3450706920, 3450706918, 8871376015, 3450706921, 3450706917, 3450706915, 3450706914, 8871375935, 8871331114, 8871376034, 3450706925, 8871375955, 3450706927, 3450706926], "tags": {"addr:city": "Norrt\u00e4lje", "addr:country": "SE", "addr:housenumber": "12", "addr:street": "Hamnv\u00e4gen", "alt_name": "ROS", "amenity": "hospital", "emergency": "no", "health_specialty:emergency_medicine": "no", "name": "Roslagens Sjukhus"}}, {"type": "way", "id": 745153976, "nodes": [2529027446, 2529027445, 2529027443, 3087199224, 3087199218, 3087173811, 3087173841, 3087173828, 3087173803, 3087173806, 3087173808, 3087173810, 3087173813, 3087173818, 3087173816, 3087173819, 3087173812, 3087173817, 3087173821, 3087173815, 3087173830, 3087173820, 3087173824, 3087173837, 3087173840, 3087173832, 3087173843, 3087173842, 3087158737, 6975288166, 2494455558, 6975288165, 6975288164, 7683635512, 3087201283, 3087201285, 2529027452, 2529027449, 2529027446], "tags": {"amenity": "hospital", "contact:phone": "+46 176 10 100", "description": "ett litet sjukhus, men kan erbjuda all basal akutsjukv\u00e5rd utom f\u00f6rlossning. intensivv\u00e5rdsavdelning, r\u00f6ntgenklinik, egen helikopterplatta och operationsavdelning.", "description:en": "small hospital, but can offer all basic emergency care except childbirth. ICU, X-Ray clinic, helipad", "emergency": "yes", "health_specialty:emergency_medicine": "yes", "health_specialty:family_medicine": "yes", "health_specialty:intensive_care_medicine": "yes", "health_specialty:orthopaedics": "yes", "health_specialty:paediatrics": "yes", "health_specialty:surgery": "yes", "healthcare": "hospital", "name": "Norrt\u00e4lje Sjukhus", "opening_hours": "24/7", "website": "https://www.tiohundra.se/norrtaljesjukhus"}}]}