{"version": 0.6, "generator": "Overpass API 0.7.61.5 4133829e", "osm3s": {"timestamp_osm_base": "2024-03-05T14:58:45Z", "copyright": "The data included in this document is from www.openstreetmap.org. The data is made available under ODbL."}, "elements": [{"type": "node", "id": 619245236, "lat": 60.7176716, "lon": 11.1917045, "tags": {"amenity": "pharmacy", "branch": "Stange", "brand": "Apotek 1", "brand:wikidata": "Q4581428", "email": "stange@apotek1.no", "healthcare": "pharmacy", "name": "Apotek 1 Stange", "opening_hours": "Mo-Fr 09:00-17:00, Sa 09:00-14:00", "phone": "+47 62 58 51 50", "ref:apotek1": "491"}}, {"type": "node", "id": 689457886, "lat": 60.720306, "lon": 11.195326, "tags": {"amenity": "pharmacy", "branch": "Stange bruk", "brand": "Boots", "email": "stange.bruk.apotek@boots.no", "healthcare": "pharmacy", "name": "Boots Stange bruk", "opening_hours": "Mo-Fr 09:00-17:00, Sa 10:00-15:00", "phone": "+47 62 57 45 45", "ref:boots": "1233406"}}, {"type": "node", "id": 3123118632, "lat": 60.426896, "lon": 11.066991, "tags": {"amenity": "doctors", "healthcare:service": "fastlege", "healthcare:speciality": "general", "name": "Hurdal legesenter", "ref:nhn": "974634015"}}, {"type": "node", "id": 5921083817, "lat": 60.719476, "lon": 11.1819965, "tags": {"amenity": "doctors", "healthcare:service": "fastlege", "healthcare:speciality": "general", "name": "Stange legesenter", "ref:nhn": "984086997"}}, {"type": "node", "id": 11033712694, "lat": 60.4344736, "lon": 11.0704223, "tags": {"amenity": "pharmacy", "branch": "Hurdal", "brand": "Vitusapotek", "email": "hurdal@vitusapotek.no", "name": "Vitusapotek Hurdal", "opening_hours": "Mo-Fr 09:00-18:00, Sa 10:00-16:00", "phone": "+47 63002060", "ref:nmd": "2282"}}]}