{"version": 0.6, "generator": "Overpass API 0.7.61.5 4133829e", "osm3s": {"timestamp_osm_base": "2024-03-06T11:17:45Z", "copyright": "The data included in this document is from www.openstreetmap.org. The data is made available under ODbL."}, "elements": [{"type": "node", "id": 21034458, "lat": 33.3061701, "lon": 44.3872213, "tags": {"admin_level": "2", "alt_name": "\u0628\u063a\u062f\u0627\u062f \u0627\u0644\u0631\u0634\u064a\u062f", "alt_name:en": "Bagdad", "alt_name:he": "\u05d1\u05d2\u05d3\u05d3", "alt_name:vi": "B\u00e1t-\u0111a", "capital": "yes", "capital_ISO3166-1": "yes", "is_capital": "country", "name": "\u0628\u063a\u062f\u0627\u062f", "name:ace": "Baghdad", "name:ady": "\u0411\u0430\u0433\u0434\u0430\u0434", "name:af": "Bagdad", "name:als": "Bagdad", "name:am": "\u1263\u130d\u12f3\u12f5", "name:an": "Bagdad", "name:ar": "\u0628\u063a\u062f\u0627\u062f", "name:arc": "\u0712\u0713\u0715\u0710\u0715", "name:ary": "\u0628\u063a\u062f\u0627\u062f", "name:arz": "\u0628\u063a\u062f\u0627\u062f", "name:as": "\u09ac\u09be\u0997\u09a6\u09be\u09a6", "name:ast": "Bagdag", "name:av": "\u0411\u0430\u0433\u044a\u0434\u0430\u0434", "name:az": "Ba\u011fdad", "name:azb": "\u0628\u063a\u062f\u0627\u062f", "name:ba": "\u0411\u0430\u0493\u0434\u0430\u0434", "name:ban": "Baghdad", "name:bat-smg": "Bagdads", "name:bcl": "Baghdad", "name:be": "\u0411\u0430\u0433\u0434\u0430\u0434", "name:be_x_old": "\u0411\u0430\u0433\u0434\u0430\u0434", "name:bg": "\u0411\u0430\u0433\u0434\u0430\u0434", "name:bm": "Baghdad", "name:bn": "\u09ac\u09be\u0997\u09a6\u09be\u09a6", "name:bo": "\u0f54\u0f0b\u0f42\u0f0b\u0f4f", "name:br": "Baghdad", "name:bs": "Bagdad", "name:bxr": "\u0411\u0430\u0433\u0434\u0430\u0434", "name:ca": "Bagdad", "name:cdo": "Baghdad", "name:ce": "\u0411\u0430\u0433\u04c0\u0434\u0430\u0434", "name:ceb": "Baghdad", "name:ckb": "\u0628\u06d5\u063a\u062f\u0627", "name:co": "Baghdad", "name:crh": "Ba\u011fdad", "name:cs": "Bagd\u00e1d", "name:cv": "\u041f\u0430\u0445\u0442\u0430\u0442", "name:cy": "Baghdad", "name:da": "Bagdad", "name:de": "Bagdad", "name:diq": "Be\u011fdad", "name:dty": "\u092c\u0917\u0926\u093e\u0926", "name:dv": "\u0784\u07a6\u07a3\u07aa\u078b\u07a7\u078b\u07aa", "name:el": "\u0392\u03b1\u03b3\u03b4\u03ac\u03c4\u03b7", "name:en": "Baghdad", "name:eo": "Bagdado", "name:es": "Bagdad", "name:et": "Bagdad", "name:eu": "Bagdad", "name:ext": "Bagdad", "name:fa": "\u0628\u063a\u062f\u0627\u062f", "name:fi": "Bagdad", "name:fo": "Bagdad", "name:fr": "Bagdad", "name:frp": "Bagdad", "name:frr": "Bagdad", "name:fy": "Bagdad", "name:ga": "Bagdad", "name:gd": "Baghdad", "name:gl": "Bagdad", "name:glk": "\u0628\u063a\u062f\u0627\u062f", "name:gn": "Bagdad", "name:ha": "Bagdaza", "name:hak": "Baghdad", "name:he": "\u05d1\u05d2\u05d3\u05d3", "name:hi": "\u092c\u0917\u093c\u0926\u093e\u0926", "name:hif": "Baghdad", "name:hr": "Bagdad", "name:hsb": "Bagdad", "name:ht": "Bagdad", "name:hu": "Bagdad", "name:hy": "\u0532\u0561\u0572\u0564\u0561\u0564", "name:hyw": "\u054a\u0561\u0572\u057f\u0561\u057f", "name:ia": "Bagdad", "name:id": "Bagdad", "name:ie": "Bagdad", "name:ilo": "Baghdad", "name:inh": "\u0411\u0430\u0433\u04c0\u0434\u0430\u0434", "name:io": "Bagdad", "name:is": "Bagdad", "name:it": "Bagdad", "name:ja": "\u30d0\u30b0\u30c0\u30fc\u30c9", "name:jbo": "bagdad", "name:jv": "Bagdad", "name:ka": "\u10d1\u10d0\u10e6\u10d3\u10d0\u10d3\u10d8", "name:kaa": "Bag'dad", "name:kab": "Be\u0263dad", "name:kbd": "\u0411\u0430\u0433\u0434\u0430\u0434", "name:kbp": "Pagidaad\u0269", "name:ki": "Baghdad", "name:kk": "\u0411\u0430\u0493\u0434\u0430\u0442", "name:kl": "Baghdad", "name:kn": "\u0cac\u0cbe\u0c97\u0ccd\u0ca6\u0cbe\u0ca6\u0ccd", "name:ko": "\ubc14\uadf8\ub2e4\ub4dc", "name:ks": "\u0628\u063a\u062f\u0627\u062f", "name:ku": "Bexda", "name:kw": "Baldak", "name:ky": "\u0411\u0430\u0433\u0434\u0430\u0434", "name:la": "Bagdatum", "name:lad": "Bagdad", "name:lb": "Bagdad", "name:lez": "\u0411\u0430\u0433\u044a\u0434\u0430\u0434", "name:lfn": "Baghdad", "name:li": "Bagdad", "name:lij": "Baghdad", "name:lmo": "Baghdad", "name:lrc": "\u0628\u0671\u063a\u062f\u0627\u062f", "name:lt": "Bagdadas", "name:lv": "Bagd\u0101de", "name:mai": "\u092c\u0917\u0926\u093e\u0926", "name:mg": "Bagdad", "name:mhr": "\u0411\u0430\u0433\u0434\u0430\u0434", "name:mi": "Baghdad", "name:min": "Bagdad", "name:mk": "\u0411\u0430\u0433\u0434\u0430\u0434", "name:ml": "\u0d2c\u0d3e\u0d17\u0d4d\u0d26\u0d3e\u0d26\u0d4d", "name:mn": "\u0411\u0430\u0433\u0434\u0430\u0434", "name:mr": "\u092c\u0917\u0926\u093e\u0926", "name:ms": "Baghdad", "name:mwl": "Bagdade", "name:my": "\u1018\u1002\u1039\u1002\u1012\u1000\u103a\u1019\u103c\u102d\u102f\u1037", "name:myv": "\u0411\u0430\u0433\u0434\u0430\u0434 \u043e\u0448", "name:mzn": "\u0628\u0642\u062f\u0627\u062a\u06cc", "name:na": "Baghdad", "name:nah": "Bagd\u0101d", "name:nan": "Baghdad", "name:nds": "Bagdad", "name:ne": "\u092c\u0917\u0926\u093e\u0926", "name:new": "\u092c\u0917\u094d\u0926\u093e\u0926", "name:nl": "Bagdad", "name:nn": "Bagdad", "name:no": "Bagdad", "name:ny": "Baghdad", "name:oc": "Bagdad", "name:olo": "Bagdad", "name:or": "\u0b2c\u0b3e\u0b17\u0b26\u0b3e\u0b26", "name:os": "\u0411\u0430\u0433\u0434\u0430\u0434", "name:pa": "\u0a2c\u0a17\u0a3c\u0a26\u0a3e\u0a26", "name:pap": "Bagdad", "name:pcd": "Bagdad", "name:pih": "Baagdad", "name:pl": "Bagdad", "name:pms": "Baghdad", "name:pnb": "\u0628\u063a\u062f\u0627\u062f", "name:ps": "\u0628\u063a\u062f\u0627\u062f", "name:pt": "Bagd\u00e1", "name:qu": "Bagdad", "name:ro": "Bagdad", "name:roa-tara": "Baghdad", "name:ru": "\u0411\u0430\u0433\u0434\u0430\u0434", "name:rue": "\u0411\u0430\u0491\u0434\u0430\u0434", "name:sah": "\u0411\u0430\u0433\u0434\u0430\u0434", "name:sat": "\u1c75\u1c5f\u1c5c\u1c7d\u1c6b\u1c5f\u1c6b\u1c7d", "name:sc": "Bagdad", "name:scn": "Baghdad", "name:sco": "Baghdad", "name:sd": "\u0628\u063a\u062f\u0627\u062f", "name:sh": "Bagdad", "name:si": "\u0db6\u0dd0\u0d9c\u0dca\u0da9\u0dd1\u0da9\u0dca", "name:simple": "Baghdad", "name:sk": "Bagdad", "name:skr": "\u0628\u063a\u062f\u0627\u062f", "name:sl": "Bagdad", "name:smn": "Bagdad", "name:sn": "Baghdad", "name:so": "Baqdaad", "name:sq": "Bagdadi", "name:sr": "\u0411\u0430\u0433\u0434\u0430\u0434", "name:stq": "Bagdad", "name:sv": "Bagdad", "name:sw": "Baghdad", "name:szl": "Bagdad", "name:ta": "\u0baa\u0b95\u0bcd\u0ba4\u0bbe\u0ba4\u0bcd", "name:te": "\u0c2c\u0c3e\u0c17\u0c4d\u0c26\u0c3e\u0c26\u0c4d", "name:tg": "\u0411\u0430\u0493\u0434\u043e\u0434", "name:th": "\u0e41\u0e1a\u0e01\u0e41\u0e14\u0e14", "name:tk": "Bagdat", "name:tl": "Baghdad", "name:tpi": "Bagdad", "name:tr": "Ba\u011fdat", "name:tt": "\u0411\u04d9\u0433\u044a\u0434\u0430\u0442", "name:tw": "Baghdad", "name:tzl": "Baghdad", "name:udm": "\u0411\u0430\u0433\u0434\u0430\u0434", "name:ug": "\u0628\u0627\u063a\u062f\u0627\u062f", "name:uk": "\u0411\u0430\u0433\u0434\u0430\u0434", "name:ur": "\u0628\u063a\u062f\u0627\u062f", "name:uz": "Baghdad", "name:vec": "Bagdad", "name:vep": "Bagdad", "name:vi": "Bagdad", "name:vo": "Bagdad", "name:vro": "Bagdad", "name:wa": "Bagdet", "name:war": "Baghdad", "name:wo": "Bagdad", "name:wuu": "\u5df4\u683c\u8fbe", "name:xmf": "\u10d1\u10d0\u10e6\u10d3\u10d0\u10d3\u10d8", "name:yi": "\u05d1\u05d0\u05d2\u05d3\u05d0\u05d3", "name:yo": "Baghdad", "name:yue": "\u5df4\u683c\u9054", "name:zea": "Bagdad", "name:zh": "\u5df4\u683c\u9054/\u5df4\u683c\u8fbe", "name:zh-Hans": "\u5df4\u683c\u8fbe", "place": "city", "population": "7216040", "postal_code": "10001", "wikidata": "Q1530", "wikipedia": "ar:\u0628\u063a\u062f\u0627\u062f"}}, {"type": "node", "id": 25447756, "lat": 33.3619829, "lon": 44.2349147, "tags": {"railway": "level_crossing"}}, {"type": "node", "id": 25752416, "lat": 33.4695505, "lon": 44.2955886}, {"type": "node", "id": 2323406559, "lat": 33.1797569, "lon": 44.4065598}, {"type": "node", "id": 2323406560, "lat": 33.1826609, "lon": 44.3981332}, {"type": "node", "id": 2323406561, "lat": 33.1831587, "lon": 44.4081459}, {"type": "node", "id": 2323406562, "lat": 33.1860626, "lon": 44.4306498}, {"type": "node", "id": 2323406563, "lat": 33.187556, "lon": 44.4204388}, {"type": "node", "id": 2323406564, "lat": 33.187556, "lon": 44.4269818}, {"type": "node", "id": 2323406565, "lat": 33.1878878, "lon": 44.3914911}, {"type": "node", "id": 2323406566, "lat": 33.1882725, "lon": 44.2723014}, {"type": "node", "id": 2323406567, "lat": 33.1883026, "lon": 44.4318394}, {"type": "node", "id": 2323406568, "lat": 33.1873065, "lon": 44.2465274}, {"type": "node", "id": 2323406569, "lat": 33.1904597, "lon": 44.4360031}, {"type": "node", "id": 2323406570, "lat": 33.1906256, "lon": 44.327251}, {"type": "node", "id": 2323406571, "lat": 33.1926467, "lon": 44.2490973}, {"type": "node", "id": 2323406572, "lat": 33.1923678, "lon": 44.328044}, {"type": "node", "id": 2323406573, "lat": 33.1924508, "lon": 44.3445006}, {"type": "node", "id": 2323406574, "lat": 33.1945248, "lon": 44.4372919}, {"type": "node", "id": 2323406575, "lat": 33.1956032, "lon": 44.3734483}, {"type": "node", "id": 2323406576, "lat": 33.192686, "lon": 44.4805337}, {"type": "node", "id": 2323406577, "lat": 33.1968476, "lon": 44.4849763}, {"type": "node", "id": 2323406578, "lat": 33.1972624, "lon": 44.4411582}, {"type": "node", "id": 2323406579, "lat": 33.1978431, "lon": 44.4508735}, {"type": "node", "id": 2323406582, "lat": 33.1982578, "lon": 44.4455202}, {"type": "node", "id": 2323406583, "lat": 33.1984237, "lon": 44.4717912}, {"type": "node", "id": 2323406584, "lat": 33.1992533, "lon": 44.3872282}, {"type": "node", "id": 2323406586, "lat": 33.1955043, "lon": 44.4728718}, {"type": "node", "id": 2323406589, "lat": 33.2004146, "lon": 44.4549381}, {"type": "node", "id": 2323406590, "lat": 33.201493, "lon": 44.4897348}, {"type": "node", "id": 2323406591, "lat": 33.2034009, "lon": 44.3769181}, {"type": "node", "id": 2323406592, "lat": 33.2035668, "lon": 44.373944}, {"type": "node", "id": 2323406593, "lat": 33.2035668, "lon": 44.4513692}, {"type": "node", "id": 2323406595, "lat": 33.2049769, "lon": 44.4677267}, {"type": "node", "id": 2323406596, "lat": 33.207963, "lon": 44.4939977}, {"type": "node", "id": 2323406597, "lat": 33.2087925, "lon": 44.4615802}, {"type": "node", "id": 2323406599, "lat": 33.2106173, "lon": 44.454145}, {"type": "node", "id": 2323406600, "lat": 33.210949, "lon": 44.4566234}, {"type": "node", "id": 2323406603, "lat": 33.2129397, "lon": 44.4557312}, {"type": "node", "id": 2323406605, "lat": 33.2144326, "lon": 44.5001441}, {"type": "node", "id": 2323406617, "lat": 33.2204011, "lon": 44.5054428}, {"type": "node", "id": 2323406618, "lat": 33.2216711, "lon": 44.506977}, {"type": "node", "id": 2323406623, "lat": 33.2254629, "lon": 44.5086698}, {"type": "node", "id": 2323406627, "lat": 33.2292027, "lon": 44.5124469}, {"type": "node", "id": 2323406640, "lat": 33.2308002, "lon": 44.5134034}, {"type": "node", "id": 2323406641, "lat": 33.231605, "lon": 44.5144198}, {"type": "node", "id": 2323406643, "lat": 33.2329432, "lon": 44.5165849}, {"type": "node", "id": 2323406649, "lat": 33.2203846, "lon": 44.1846152}, {"type": "node", "id": 2323406650, "lat": 33.2355797, "lon": 44.5206653}, {"type": "node", "id": 2323406666, "lat": 33.2396426, "lon": 44.5251264}, {"type": "node", "id": 2323406694, "lat": 33.2481826, "lon": 44.5288936}, {"type": "node", "id": 2323406715, "lat": 33.2563099, "lon": 44.5287062}, {"type": "node", "id": 2323406721, "lat": 33.2575767, "lon": 44.5269845}, {"type": "node", "id": 2323406723, "lat": 33.2581309, "lon": 44.521161}, {"type": "node", "id": 2323406728, "lat": 33.2606178, "lon": 44.5179886}, {"type": "node", "id": 2323406735, "lat": 33.2624554, "lon": 44.5266136}, {"type": "node", "id": 2323406739, "lat": 33.2632161, "lon": 44.5215085}, {"type": "node", "id": 2323406741, "lat": 33.2633238, "lon": 44.5183275}, {"type": "node", "id": 2323406752, "lat": 33.2669177, "lon": 44.5360314}, {"type": "node", "id": 2323406753, "lat": 33.2664928, "lon": 44.5234624}, {"type": "node", "id": 2323406762, "lat": 33.2695242, "lon": 44.5291822}, {"type": "node", "id": 2323406768, "lat": 33.2725399, "lon": 44.5290624}, {"type": "node", "id": 2323406770, "lat": 33.2727198, "lon": 44.5375184}, {"type": "node", "id": 2323406775, "lat": 33.2723154, "lon": 44.5203122}, {"type": "node", "id": 2323406777, "lat": 33.2748766, "lon": 44.5278257}, {"type": "node", "id": 2323406781, "lat": 33.2766153, "lon": 44.5232428}, {"type": "node", "id": 2323406785, "lat": 33.2784394, "lon": 44.5282707}, {"type": "node", "id": 2323406787, "lat": 33.2791846, "lon": 44.540889}, {"type": "node", "id": 2323406790, "lat": 33.2796524, "lon": 44.526893}, {"type": "node", "id": 2323406815, "lat": 33.2869748, "lon": 44.5383115}, {"type": "node", "id": 2323406848, "lat": 33.2970016, "lon": 44.5374193}, {"type": "node", "id": 2323406870, "lat": 33.3039617, "lon": 44.5357339}, {"type": "node", "id": 2323406890, "lat": 33.3103413, "lon": 44.5375184}, {"type": "node", "id": 2323406909, "lat": 33.3172174, "lon": 44.5370227}, {"type": "node", "id": 2323406932, "lat": 33.3239938, "lon": 44.5300942}, {"type": "node", "id": 2323406939, "lat": 33.325192, "lon": 44.5298973}, {"type": "node", "id": 2323406941, "lat": 33.3259317, "lon": 44.5302984}, {"type": "node", "id": 2323406967, "lat": 33.331599, "lon": 44.5369543}, {"type": "node", "id": 2323406979, "lat": 33.3344378, "lon": 44.5372418}, {"type": "node", "id": 2323407003, "lat": 33.3408356, "lon": 44.5332604}, {"type": "node", "id": 2323407008, "lat": 33.342757, "lon": 44.5334695}, {"type": "node", "id": 2323407012, "lat": 33.3429767, "lon": 44.5341149}, {"type": "node", "id": 2323407017, "lat": 33.3451548, "lon": 44.5384209}, {"type": "node", "id": 2323407034, "lat": 33.3484282, "lon": 44.541407}, {"type": "node", "id": 2323407076, "lat": 33.3610372, "lon": 44.2225874}, {"type": "node", "id": 2323407077, "lat": 33.3610957, "lon": 44.2184515}, {"type": "node", "id": 2323407081, "lat": 33.3616226, "lon": 44.2238491}, {"type": "node", "id": 2323407084, "lat": 33.3618568, "lon": 44.2347146}, {"type": "node", "id": 2323407090, "lat": 33.36329, "lon": 44.5419787}, {"type": "node", "id": 2323407096, "lat": 33.3655325, "lon": 44.5437481}, {"type": "node", "id": 2323407097, "lat": 33.3656061, "lon": 44.5445559}, {"type": "node", "id": 2323407099, "lat": 33.3670675, "lon": 44.2429864}, {"type": "node", "id": 2482528388, "lat": 33.3000333, "lon": 44.6384365, "tags": {"alt_name": "\u0642\u0631\u064a\u0629 \u0631\u0642\u0645 \u0668", "int_name": "\u0642\u0631\u064a\u0629 \u0631\u0642\u0645 \u0668, \u0642\u0631\u064a\u0629 \u0631\u0642\u0645 \u0668", "name": "\u0642\u0631\u064a\u0629 \u0631\u0642\u0645 \u0668", "name:ar": "\u0642\u0631\u064a\u0629 \u0631\u0642\u0645 \u0668", "name:ar1": "\u0642\u0631\u064a\u0629 \u0631\u0642\u0645 \u0668", "place": "village"}}, {"type": "node", "id": 2482532355, "lat": 33.2134226, "lon": 44.602429, "tags": {"alt_name": "\u062a\u0644 \u0623\u0628\u0648 \u062b\u064a\u0644\u0629", "int_name": "Tall Ab\u016b Thaylah, \u062a\u0644 \u0627\u0628\u0648 \u062b\u064a\u0644\u0629, Tall Abu Thaylah, \u062a\u0644 \u0627\u0628\u0648 \u062b\u064a\u0644\u0629", "name": "\u062a\u0644 \u0623\u0628\u0648 \u062b\u064a\u0644\u0629", "name:ar": "\u062a\u0644 \u0623\u0628\u0648 \u062b\u064a\u0644\u0629", "name:ar1": "\u062a\u0644 \u0623\u0628\u0648 \u062b\u064a\u0644\u0629", "name:de": "Tall Abu Thaylah", "name:en": "Tall Abu Thaylah", "name:fr": "Tall Abu Thaylah", "place": "village"}}, {"type": "node", "id": 2482534039, "lat": 33.441366, "lon": 44.895881, "tags": {"alt_name": "\u0642\u0631\u064a\u0629 \u0627\u0644\u0627\u062d\u0631\u0627\u0631", "int_name": "\u0642\u0631\u064a\u0629 \u0627\u0644\u0627\u062d\u0631\u0627\u0631, \u0642\u0631\u064a\u0629 \u0627\u0644\u0627\u062d\u0631\u0627\u0631", "is_in": "Iraq , \u062c\u0645\u0647\u0648\u0631\u064a\u0629 \u0627\u0644\u0639\u0631\u0627\u0642", "name": "\u0642\u0631\u064a\u0629 \u0627\u0644\u0627\u062d\u0631\u0627\u0631", "name:ar": "\u0642\u0631\u064a\u0629 \u0628\u064a\u062a \u0633\u0628\u0639", "name:ar1": "\u0642\u0631\u064a\u0629 \u0627\u0644\u0627\u062d\u0631\u0627\u0631", "name:de": "\u0642\u0631\u064a\u0629 \u0627\u0644\u0627\u062d\u0631\u0627\u0631", "name:fr": "\u0642\u0631\u064a\u0629 \u0627\u0644\u0627\u062d\u0631\u0627\u0631", "place": "village"}}, {"type": "node", "id": 2483915389, "lat": 33.083333, "lon": 44.566667, "tags": {"alt_name": "\u062a\u0644 \u0639\u0645\u0631", "int_name": "Al\u012b an Nad\u012b, Ali an Nadi", "is_in": "Iraq , \u062c\u0645\u0647\u0648\u0631\u064a\u0629 \u0627\u0644\u0639\u0631\u0627\u0642", "name": "\u062a\u0644 \u0639\u0645\u0631", "name:ar": "\u062a\u0644 \u0639\u0644\u064a \u0639", "name:ar1": "\u062a\u0644 \u0639\u0645\u0631", "name:de": "Ali an Nadi", "name:en": "Ali an Nadi", "name:fr": "Ali an Nadi", "place": "village"}}, {"type": "node", "id": 2483915629, "lat": 33.0605181, "lon": 44.5677164, "tags": {"alt_name": "\u0634\u064a\u062e \u0645\u0637\u0644\u0642 \u0627\u0644\u063a\u0636\u064a\u0628", "int_name": "Shaikh Mutlaq al Ghidhaib, Shaykh Mu\u0163laq al Ghu\u1e11ayb, Shaikh Mutlaq al Ghidhaib, Shaykh Mutlaq al Ghudayb", "is_in": "Iraq , \u062c\u0645\u0647\u0648\u0631\u064a\u0629 \u0627\u0644\u0639\u0631\u0627\u0642", "name": "\u0634\u064a\u062e \u0645\u0637\u0644\u0642 \u0627\u0644\u063a\u0636\u064a\u0628", "name:ar": "\u0634\u064a\u062e \u0645\u0637\u0644\u0642 \u0627\u0644\u063a\u0636\u064a\u0628", "name:ar1": "\u0634\u064a\u062e \u0645\u0637\u0644\u0642 \u0627\u0644\u063a\u0636\u064a\u0628", "name:de": "Shaikh Mutlaq al Ghidhaib", "name:en": "Shaikh Mutlaq al Ghidhaib", "name:fr": "Shaikh Mutlaq al Ghidhaib", "place": "village"}}, {"type": "node", "id": 2486292444, "lat": 33.4305337, "lon": 44.5685556, "tags": {"alt_name": "\u0628\u064a\u0648\u062a \u0627\u0644\u0627\u0635\u0644\u0627\u062d \u0642\u0631\u064a\u0629", "int_name": "\u0628\u064a\u0648\u062a \u0627\u0644\u0627\u0635\u0644\u0627\u062d \u0642\u0631\u064a\u0629, \u0628\u064a\u0648\u062a \u0627\u0644\u0627\u0635\u0644\u0627\u062d \u0642\u0631\u064a\u0629", "name": "\u0628\u064a\u0648\u062a \u0627\u0644\u0627\u0635\u0644\u0627\u062d \u0642\u0631\u064a\u0629", "name:ar": "\u0628\u064a\u0648\u062a \u0627\u0644\u0627\u0635\u0644\u0627\u062d \u0642\u0631\u064a\u0629", "name:ar1": "\u0628\u064a\u0648\u062a \u0627\u0644\u0627\u0635\u0644\u0627\u062d \u0642\u0631\u064a\u0629", "name:de": "\u0628\u064a\u0648\u062a \u0627\u0644\u0627\u0635\u0644\u0627\u062d \u0642\u0631\u064a\u0629", "name:fr": "\u0628\u064a\u0648\u062a \u0627\u0644\u0627\u0635\u0644\u0627\u062d \u0642\u0631\u064a\u0629", "place": "village"}}, {"type": "node", "id": 2486302504, "lat": 33.437446, "lon": 44.860077, "tags": {"alt_name": "\u0642\u0631\u064a\u0629 \u0627\u0644\u0628\u0639\u062b", "int_name": "Qaryat al Bath, \u0642\u0631\u064a\u0629 \u0627\u0644\u0628\u0639\u062b, Qaryat al Bath, \u0642\u0631\u064a\u0629 \u0627\u0644\u0628\u0639\u062b", "is_in": "Iraq , \u062c\u0645\u0647\u0648\u0631\u064a\u0629 \u0627\u0644\u0639\u0631\u0627\u0642", "name": "\u0642\u0631\u064a\u0629 \u0633\u0643\u0648\u0643", "name:ar": "\u0642\u0631\u064a\u0629 \u0627\u0644\u0628\u0639\u062b", "name:ar1": "\u0642\u0631\u064a\u0629 \u0627\u0644\u0628\u0639\u062b", "name:de": "Qaryat al Bath", "name:en": "Qaryat al Bath", "name:fr": "Qaryat al Bath", "place": "village"}}, {"type": "node", "id": 2486324382, "lat": 33.0984118, "lon": 44.5832332, "tags": {"alt_name": "\u0645\u062f\u0627\u0626\u0646", "capital": "6", "int_name": "Al Mad\u0101in, Mad\u0101in, Al Madain, Madain", "is_in": "Iraq , \u062c\u0645\u0647\u0648\u0631\u064a\u0629 \u0627\u0644\u0639\u0631\u0627\u0642", "name": "\u0627\u0644\u0645\u062f\u0627\u0626\u0646", "name:ar": "\u0645\u062f\u0627\u0626\u0646", "name:de": "Al Madain", "name:en": "Al Madain", "name:fa": "\u0645\u062f\u0627\u0626\u0646", "name:fr": "Al Madain", "name:it": "Ctesifonte", "name:la": "Ctesiphonia", "name:tr": "El Medain", "place": "town"}}, {"type": "node", "id": 2486324430, "lat": 33.1493724, "lon": 44.6000349, "tags": {"alt_name": "\u0633\u0644\u0645\u0627\u0646 \u0627\u0644\u0642\u0645\u0631;\u0633\u0644\u0645\u0627\u0646 \u0627\u0644\u0643\u0645\u0631", "int_name": "Salman al Kamar, Salman al Kamar;Salm\u0101n al Qamar, Salman al Qamar", "name": "\u0633\u0644\u0645\u0627\u0646 \u0627\u0644\u0643\u0645\u0631", "name:ar": "\u0633\u0644\u0645\u0627\u0646 \u0627\u0644\u0643\u0645\u0631", "name:de": "Salman al Kamar", "name:en": "Salman al Kamar", "name:fr": "Salman al Kamar", "place": "village"}}, {"type": "node", "id": 2486324524, "lat": 33.0543814, "lon": 44.5665418, "tags": {"alt_name": "\u0634\u064a\u062e \u0633\u0644\u0645\u0627\u0646 \u0627\u0644\u0643\u0645\u0631", "int_name": "Shaikh Salman al Gumar, Shaikh Salman al Gumar", "is_in": "Iraq , \u062c\u0645\u0647\u0648\u0631\u064a\u0629 \u0627\u0644\u0639\u0631\u0627\u0642", "name": "\u0634\u064a\u062e \u0633\u0644\u0645\u0627\u0646 \u0627\u0644\u0643\u0645\u0631", "name:ar": "\u0634\u064a\u062e \u0633\u0644\u0645\u0627\u0646 \u0627\u0644\u0643\u0645\u0631", "name:ar1": "\u0634\u064a\u062e \u0633\u0644\u0645\u0627\u0646 \u0627\u0644\u0643\u0645\u0631", "name:de": "Shaikh Salman al Gumar", "name:en": "Shaikh Salman al Gumar", "name:fr": "Shaikh Salman al Gumar", "place": "village"}}, {"type": "node", "id": 2486324529, "lat": 33.0540555, "lon": 44.5662237, "tags": {"alt_name": "\u0634\u064a\u062e \u0633\u0644\u0645\u0627\u0646 \u0627\u0644\u0642\u0645\u0631", "int_name": "Shaykh Salm\u0101n al Qamar, Shaykh Salman al Qamar", "is_in": "Iraq , \u062c\u0645\u0647\u0648\u0631\u064a\u0629 \u0627\u0644\u0639\u0631\u0627\u0642", "name": "\u0634\u064a\u062e \u0633\u0644\u0645\u0627\u0646 \u0627\u0644\u0642\u0645\u0631", "name:ar": "\u0634\u064a\u062e \u0633\u0644\u0645\u0627\u0646 \u0627\u0644\u0642\u0645\u0631", "name:ar1": "\u0634\u064a\u062e \u0633\u0644\u0645\u0627\u0646 \u0627\u0644\u0642\u0645\u0631", "name:de": "Shaykh Salman al Qamar", "name:en": "Shaykh Salman al Qamar", "name:fr": "Shaykh Salman al Qamar", "place": "village"}}, {"type": "node", "id": 2486324599, "lat": 33.124611, "lon": 44.6881964, "tags": {"alt_name": "\u0642\u0631\u064a\u0629 \u0627\u0644\u0642\u0627\u062f\u0633\u064a\u0629", "int_name": "Qaryat al Q\u0101dis\u012byah, \u0642\u0631\u064a\u0629 \u0627\u0644\u0642\u0627\u062f\u0633\u064a\u0629, Qaryat al Qadisiyah, \u0642\u0631\u064a\u0629 \u0627\u0644\u0642\u0627\u062f\u0633\u064a\u0629", "is_in": "Iraq , \u062c\u0645\u0647\u0648\u0631\u064a\u0629 \u0627\u0644\u0639\u0631\u0627\u0642", "name": "\u0646\u0627\u062d\u064a\u0629 \u0627\u0644\u0648\u062d\u062f\u0629", "name:ar": "\u0627\u0644\u062e\u0627\u0644\u0635\u0629", "name:ar1": "\u0642\u0631\u064a\u0629 \u0627\u0644\u0642\u0627\u062f\u0633\u064a\u0629", "name:de": "Qaryat al Qadisiyah", "name:en": "AL-kalsha", "name:fr": "Qaryat al Qadisiyah", "place": "village"}}, {"type": "node", "id": 2488000734, "lat": 33.026918, "lon": 44.885876, "tags": {"alt_name": "\u0639\u0631\u0628 \u0647\u0631\u064a\u0646 \u062d\u0633\u064a\u0646", "int_name": "Arab Harayn \u1e28usayn, \u0639\u0631\u0628 \u0647\u0631\u064a\u0646 \u062d\u0633\u064a\u0646, Arab Harayn Husayn, \u0639\u0631\u0628 \u0647\u0631\u064a\u0646 \u062d\u0633\u064a\u0646", "is_in": "Iraq , \u062c\u0645\u0647\u0648\u0631\u064a\u0629 \u0627\u0644\u0639\u0631\u0627\u0642", "name": "\u0639\u0631\u0628 \u0647\u0631\u064a\u0646 \u062d\u0633\u064a\u0646", "name:ar": "\u0639\u0631\u0628 \u0647\u0631\u064a", "name:ar1": "\u0639\u0631\u0628 \u0647\u0631\u064a\u0646 \u062d\u0633\u064a\u0646", "name:de": "Arab Harayn Husayn", "name:en": "Arab Haray Husayn", "name:fr": "Arab Harayn Husayn", "place": "village"}}, {"type": "node", "id": 2488000903, "lat": 33.018002, "lon": 44.869558, "tags": {"alt_name": "\u062d\u0633\u0648\u0646 \u0635\u0628\u064a\u062d", "int_name": "\u1e28as\u016bn \u015eab\u012b\u1e29, \u062d\u0633\u0648\u0646 \u0635\u0628\u064a\u062d, Hasun Sabih, \u062d\u0633\u0648\u0646 \u0635\u0628\u064a\u062d", "is_in": "Iraq , \u062c\u0645\u0647\u0648\u0631\u064a\u0629 \u0627\u0644\u0639\u0631\u0627\u0642", "name": "\u062d\u0633\u0648\u0646 \u0635\u0628\u064a\u062d", "name:ar": "\u062d\u0633\u0648\u0646 \u0635\u0628\u062d", "name:ar1": "\u062d\u0633\u0648\u0646 \u0635\u0628\u064a\u062d", "name:de": "Hasun Sabih", "name:en": "Hasun Sabih", "name:fr": "Hasun Sabih", "place": "village"}}, {"type": "node", "id": 2488001258, "lat": 33.026323, "lon": 44.8076701, "tags": {"alt_name": "\u0642\u0631\u064a\u0629 \u0627\u0644\u062a\u0646\u0645\u064a\u0629", "int_name": "Qaryat at Tanm\u012byah, \u0642\u0631\u064a\u0629 \u0627\u0644\u062a\u0646\u0645\u064a\u0629, Qaryat at Tanmiyah, \u0642\u0631\u064a\u0629 \u0627\u0644\u062a\u0646\u0645\u064a\u0629", "is_in": "Iraq , \u062c\u0645\u0647\u0648\u0631\u064a\u0629 \u0627\u0644\u0639\u0631\u0627\u0642", "name": "\u0627\u0644\u062a\u0646\u0645\u064a\u0629", "name:ar": "\u0642\u0631\u064a\u0629 \u0627\u0644\u062a\u0646\u0645\u064a\u0629", "name:ar1": "\u0642\u0631\u064a\u0629 \u0627\u0644\u062a\u0646\u0645\u064a\u0629", "name:de": "Qaryat at Tanmiyah", "name:en": "Qaryat at Tanmiyah", "name:fr": "Qaryat at Tanmiyah", "place": "town"}}, {"type": "node", "id": 2488001315, "lat": 33.023611, "lon": 44.798889, "tags": {"alt_name": "\u0633\u0631\u0628\u0627\u062f\u064a", "int_name": "Sarab\u0101d\u012b, Sarabadi", "is_in": "Iraq , \u062c\u0645\u0647\u0648\u0631\u064a\u0629 \u0627\u0644\u0639\u0631\u0627\u0642", "name": "\u0633\u0631\u0628\u0627\u062f\u064a", "name:ar": "\u0633\u0631\u0628\u0627\u062f\u064a", "name:ar1": "\u0633\u0631\u0628\u0627\u062f\u064a", "name:de": "Sarabadi", "name:en": "Sarabadi", "name:fr": "Sarabadi", "name:ru": "\u0421\u0430\u0440\u0430\u0431\u0430\u0434\u0438", "place": "village"}}, {"type": "node", "id": 2582615726, "lat": 33.2298351, "lon": 44.2239596}, {"type": "node", "id": 2582615769, "lat": 33.2569184, "lon": 44.2058724}, {"type": "node", "id": 2582615773, "lat": 33.2576946, "lon": 44.2052865}, {"type": "node", "id": 2582615786, "lat": 33.2626212, "lon": 44.2015671}, {"type": "node", "id": 2582615876, "lat": 33.2804725, "lon": 44.1888291}, {"type": "node", "id": 2582615879, "lat": 33.2805919, "lon": 44.1884349}, {"type": "node", "id": 2582615882, "lat": 33.280726, "lon": 44.188685}, {"type": "node", "id": 2582615885, "lat": 33.2832257, "lon": 44.1869378}, {"type": "node", "id": 2582615888, "lat": 33.2839838, "lon": 44.1864887}, {"type": "node", "id": 2582615891, "lat": 33.2840112, "lon": 44.1864914}, {"type": "node", "id": 2582615894, "lat": 33.2840299, "lon": 44.1864808}, {"type": "node", "id": 2582615897, "lat": 33.2869146, "lon": 44.1867769}, {"type": "node", "id": 2582615900, "lat": 33.2984985, "lon": 44.1879164}, {"type": "node", "id": 2582615902, "lat": 33.3056369, "lon": 44.1910097}, {"type": "node", "id": 2582615905, "lat": 33.305798, "lon": 44.1909896}, {"type": "node", "id": 2582615916, "lat": 33.3081526, "lon": 44.206404}, {"type": "node", "id": 2582615921, "lat": 33.3201516, "lon": 44.2043346}, {"type": "node", "id": 2582615924, "lat": 33.3237208, "lon": 44.2052864}, {"type": "node", "id": 2582615928, "lat": 33.3251485, "lon": 44.1993378}, {"type": "node", "id": 2582615932, "lat": 33.3251949, "lon": 44.2044441}, {"type": "node", "id": 2582615940, "lat": 33.3253861, "lon": 44.2043289}, {"type": "node", "id": 2582615952, "lat": 33.3379976, "lon": 44.2002896}, {"type": "node", "id": 2582615955, "lat": 33.3422338, "lon": 44.2025191}, {"type": "node", "id": 2582615958, "lat": 33.3425232, "lon": 44.2026479}, {"type": "node", "id": 2582615964, "lat": 33.3435511, "lon": 44.2025266}, {"type": "node", "id": 2582615969, "lat": 33.3493065, "lon": 44.2015476}, {"type": "node", "id": 2582615990, "lat": 33.3611523, "lon": 44.5494525}, {"type": "node", "id": 2582615994, "lat": 33.361698, "lon": 44.2088891}, {"type": "node", "id": 2582615997, "lat": 33.361501, "lon": 44.5518422}, {"type": "node", "id": 2582616000, "lat": 33.3630468, "lon": 44.5528665}, {"type": "node", "id": 2582616003, "lat": 33.3636328, "lon": 44.54764}, {"type": "node", "id": 2582616006, "lat": 33.3649411, "lon": 44.5461594}, {"type": "node", "id": 2582616007, "lat": 33.3650527, "lon": 44.5536281}, {"type": "node", "id": 2582616011, "lat": 33.3658585, "lon": 44.2012348}, {"type": "node", "id": 2582616013, "lat": 33.366982, "lon": 44.5550442}, {"type": "node", "id": 2582616016, "lat": 33.3678148, "lon": 44.5556391}, {"type": "node", "id": 2582616022, "lat": 33.3704322, "lon": 44.5587324}, {"type": "node", "id": 2582616028, "lat": 33.3716219, "lon": 44.5592083}, {"type": "node", "id": 2582616032, "lat": 33.3737635, "lon": 44.5589704}, {"type": "node", "id": 2582616037, "lat": 33.3752349, "lon": 44.5584613}, {"type": "node", "id": 2582616040, "lat": 33.3765294, "lon": 44.5579082}, {"type": "node", "id": 2582616042, "lat": 33.3784072, "lon": 44.556591}, {"type": "node", "id": 2582616045, "lat": 33.3799629, "lon": 44.555594}, {"type": "node", "id": 2582616049, "lat": 33.3816921, "lon": 44.5546196}, {"type": "node", "id": 2582616051, "lat": 33.3835337, "lon": 44.5555591}, {"type": "node", "id": 2582616053, "lat": 33.3851, "lon": 44.5573108}, {"type": "node", "id": 2582616055, "lat": 33.3877571, "lon": 44.56073}, {"type": "node", "id": 2582616057, "lat": 33.3919094, "lon": 44.5600867}, {"type": "node", "id": 2582616061, "lat": 33.3940699, "lon": 44.5600217}, {"type": "node", "id": 2582616063, "lat": 33.3961896, "lon": 44.5615003}, {"type": "node", "id": 2582616065, "lat": 33.3968003, "lon": 44.5633022}, {"type": "node", "id": 2582616067, "lat": 33.3973868, "lon": 44.5646605}, {"type": "node", "id": 2582616074, "lat": 33.3982862, "lon": 44.5662597}, {"type": "node", "id": 2582616075, "lat": 33.4005936, "lon": 44.5689729}, {"type": "node", "id": 2582616082, "lat": 33.4025576, "lon": 44.5702931}, {"type": "node", "id": 2582616101, "lat": 33.4070759, "lon": 44.565157}, {"type": "node", "id": 2582616102, "lat": 33.4086545, "lon": 44.5628675}, {"type": "node", "id": 2582616106, "lat": 33.4117049, "lon": 44.5593816}, {"type": "node", "id": 2582616111, "lat": 33.415523, "lon": 44.5599221}, {"type": "node", "id": 2582616114, "lat": 33.4172482, "lon": 44.562467}, {"type": "node", "id": 2582616123, "lat": 33.4181503, "lon": 44.5664373}, {"type": "node", "id": 2582616139, "lat": 33.4205203, "lon": 44.4594286}, {"type": "node", "id": 2582616142, "lat": 33.4207153, "lon": 44.4592896}, {"type": "node", "id": 2582616148, "lat": 33.4245493, "lon": 44.5603421}, {"type": "node", "id": 2582616152, "lat": 33.4254761, "lon": 44.4584961}, {"type": "node", "id": 2582616164, "lat": 33.427673, "lon": 44.5157327}, {"type": "node", "id": 2582616182, "lat": 33.4304238, "lon": 44.5265402}, {"type": "node", "id": 2582616186, "lat": 33.4362464, "lon": 44.547627}, {"type": "node", "id": 2582616187, "lat": 33.4344874, "lon": 44.5417752}, {"type": "node", "id": 2582616188, "lat": 33.4359917, "lon": 44.5467108}, {"type": "node", "id": 2582616190, "lat": 33.4367536, "lon": 44.5476664}, {"type": "node", "id": 2582616191, "lat": 33.4417199, "lon": 44.4861139}, {"type": "node", "id": 2582616194, "lat": 33.4479916, "lon": 44.380579}, {"type": "node", "id": 2582616195, "lat": 33.4483032, "lon": 44.4545288}, {"type": "node", "id": 2582616204, "lat": 33.4633179, "lon": 44.378479}, {"type": "node", "id": 2582616209, "lat": 33.4707031, "lon": 44.2996826}, {"type": "node", "id": 2582616219, "lat": 33.4780884, "lon": 44.300293}, {"type": "node", "id": 2582616226, "lat": 33.4835205, "lon": 44.3035278}, {"type": "node", "id": 3817102124, "lat": 33.1957282, "lon": 44.4775795}, {"type": "node", "id": 3891971892, "lat": 33.2208005, "lon": 44.5061831}, {"type": "node", "id": 3891971893, "lat": 33.2210922, "lon": 44.5065854}, {"type": "node", "id": 3892055802, "lat": 33.3257879, "lon": 44.5301593}, {"type": "node", "id": 3892055803, "lat": 33.3256116, "lon": 44.5300428}, {"type": "node", "id": 3892055804, "lat": 33.3254352, "lon": 44.5299628}, {"type": "node", "id": 3892055805, "lat": 33.3249937, "lon": 44.5298757}, {"type": "node", "id": 3892055806, "lat": 33.3248614, "lon": 44.5298824}, {"type": "node", "id": 3892055807, "lat": 33.3246961, "lon": 44.5298977}, {"type": "node", "id": 3892055808, "lat": 33.323784, "lon": 44.5301779}, {"type": "node", "id": 3892055809, "lat": 33.3235864, "lon": 44.5302834}, {"type": "node", "id": 3892055810, "lat": 33.3232854, "lon": 44.5305308}, {"type": "node", "id": 3892055811, "lat": 33.3226742, "lon": 44.5310803}, {"type": "node", "id": 3892055812, "lat": 33.322279, "lon": 44.5314915}, {"type": "node", "id": 3892055813, "lat": 33.3219263, "lon": 44.531859}, {"type": "node", "id": 3892055814, "lat": 33.320224, "lon": 44.5337258}, {"type": "node", "id": 3892055815, "lat": 33.3208317, "lon": 44.5331034}, {"type": "node", "id": 3892055816, "lat": 33.321562, "lon": 44.532198}, {"type": "node", "id": 3892090602, "lat": 33.3425314, "lon": 44.5332866}, {"type": "node", "id": 3892090603, "lat": 33.3422257, "lon": 44.533182}, {"type": "node", "id": 3892090604, "lat": 33.3417745, "lon": 44.5331559}, {"type": "node", "id": 3892090605, "lat": 33.3402606, "lon": 44.5333824}, {"type": "node", "id": 3892090606, "lat": 33.3397584, "lon": 44.5335392}, {"type": "node", "id": 3892090607, "lat": 33.3388122, "lon": 44.5340706}, {"type": "node", "id": 3892090608, "lat": 33.3378515, "lon": 44.5347153}, {"type": "node", "id": 3892090609, "lat": 33.3372182, "lon": 44.5350812}, {"type": "node", "id": 3892090610, "lat": 33.3361847, "lon": 44.5358479}, {"type": "node", "id": 3892090611, "lat": 33.3347653, "lon": 44.5370066}, {"type": "node", "id": 3892090612, "lat": 33.3338846, "lon": 44.5375642}, {"type": "node", "id": 3892090613, "lat": 33.3333533, "lon": 44.5376426}, {"type": "node", "id": 3892090614, "lat": 33.3328801, "lon": 44.5375468}, {"type": "node", "id": 3892090615, "lat": 33.3323706, "lon": 44.5373812}, {"type": "node", "id": 3892090616, "lat": 33.330842, "lon": 44.5363532}, {"type": "node", "id": 3892090617, "lat": 33.3295391, "lon": 44.5349593}, {"type": "node", "id": 3892090618, "lat": 33.3284472, "lon": 44.5336002}, {"type": "node", "id": 3892090619, "lat": 33.3261906, "lon": 44.5305858}, {"type": "node", "id": 3892090620, "lat": 33.333643, "lon": 44.5376302}, {"type": "node", "id": 3892090621, "lat": 33.3341633, "lon": 44.5374331}, {"type": "node", "id": 3892090622, "lat": 33.3432544, "lon": 44.5348682}, {"type": "node", "id": 3892090623, "lat": 33.343748, "lon": 44.5360943}, {"type": "node", "id": 3892090624, "lat": 33.344291, "lon": 44.5370545}, {"type": "node", "id": 3892090625, "lat": 33.3448339, "lon": 44.5379556}, {"type": "node", "id": 3892090626, "lat": 33.3455743, "lon": 44.5390265}, {"type": "node", "id": 3892090627, "lat": 33.3461605, "lon": 44.5397282}, {"type": "node", "id": 3892090628, "lat": 33.3465492, "lon": 44.5400901}, {"type": "node", "id": 3892090629, "lat": 33.3473213, "lon": 44.5406721}, {"type": "node", "id": 3892091567, "lat": 33.3655549, "lon": 44.5448022}, {"type": "node", "id": 3892091568, "lat": 33.3654474, "lon": 44.5451563}, {"type": "node", "id": 3892091569, "lat": 33.3653131, "lon": 44.5455354}, {"type": "node", "id": 3892091570, "lat": 33.3651517, "lon": 44.5458751}, {"type": "node", "id": 3892091571, "lat": 33.3646723, "lon": 44.5464759}, {"type": "node", "id": 3892091572, "lat": 33.3643049, "lon": 44.5469265}, {"type": "node", "id": 3892091573, "lat": 33.3633237, "lon": 44.5479136}, {"type": "node", "id": 3892091574, "lat": 33.3656042, "lon": 44.5442765}, {"type": "node", "id": 3892091575, "lat": 33.3655773, "lon": 44.5439466}, {"type": "node", "id": 3892091576, "lat": 33.3654563, "lon": 44.5435872}, {"type": "node", "id": 3892091577, "lat": 33.3653533, "lon": 44.5434102}, {"type": "node", "id": 3892091578, "lat": 33.365248, "lon": 44.5432465}, {"type": "node", "id": 3892091579, "lat": 33.3651158, "lon": 44.5430588}, {"type": "node", "id": 3892091580, "lat": 33.3649993, "lon": 44.5429247}, {"type": "node", "id": 3892091581, "lat": 33.3645535, "lon": 44.5425143}, {"type": "node", "id": 3892091582, "lat": 33.3643945, "lon": 44.5423909}, {"type": "node", "id": 3892091583, "lat": 33.3642825, "lon": 44.5423346}, {"type": "node", "id": 3892091584, "lat": 33.3640059, "lon": 44.5422217}, {"type": "node", "id": 3892091585, "lat": 33.3628583, "lon": 44.5418418}, {"type": "node", "id": 3892091586, "lat": 33.3624745, "lon": 44.5417888}, {"type": "node", "id": 3892091587, "lat": 33.3612162, "lon": 44.5417446}, {"type": "node", "id": 3892091588, "lat": 33.3604524, "lon": 44.5417004}, {"type": "node", "id": 3892091589, "lat": 33.3597291, "lon": 44.5416341}, {"type": "node", "id": 3892091590, "lat": 33.3587771, "lon": 44.541612}, {"type": "node", "id": 3892091591, "lat": 33.3566146, "lon": 44.5416297}, {"type": "node", "id": 3892091592, "lat": 33.3546403, "lon": 44.5416916}, {"type": "node", "id": 3892091593, "lat": 33.3541052, "lon": 44.5416164}, {"type": "node", "id": 3892091594, "lat": 33.3532748, "lon": 44.541696}, {"type": "node", "id": 3892091608, "lat": 33.3610458, "lon": 44.5497145}, {"type": "node", "id": 3892091609, "lat": 33.3609833, "lon": 44.5499343}, {"type": "node", "id": 3892091610, "lat": 33.3609613, "lon": 44.5501893}, {"type": "node", "id": 3892091611, "lat": 33.3609613, "lon": 44.5504135}, {"type": "node", "id": 3892091612, "lat": 33.3609907, "lon": 44.5507212}, {"type": "node", "id": 3892091613, "lat": 33.3610384, "lon": 44.5510114}, {"type": "node", "id": 3892091614, "lat": 33.3610972, "lon": 44.5511696}, {"type": "node", "id": 3892091615, "lat": 33.361189, "lon": 44.5513631}, {"type": "node", "id": 3892091616, "lat": 33.3612991, "lon": 44.5515653}, {"type": "node", "id": 3892091617, "lat": 33.3616222, "lon": 44.5519653}, {"type": "node", "id": 3892091618, "lat": 33.3618278, "lon": 44.5521719}, {"type": "node", "id": 3892091619, "lat": 33.3621179, "lon": 44.5523961}, {"type": "node", "id": 3892091620, "lat": 33.3624043, "lon": 44.552572}, {"type": "node", "id": 3892091621, "lat": 33.3613007, "lon": 44.5492943}, {"type": "node", "id": 3892091622, "lat": 33.36151, "lon": 44.549136}, {"type": "node", "id": 3892091623, "lat": 33.3591517, "lon": 44.5551091}, {"type": "node", "id": 3892091624, "lat": 33.3592613, "lon": 44.555455}, {"type": "node", "id": 3892091625, "lat": 33.3596598, "lon": 44.5554908}, {"type": "node", "id": 3892091626, "lat": 33.360148, "lon": 44.5548705}, {"type": "node", "id": 3892091627, "lat": 33.3607058, "lon": 44.553642}, {"type": "node", "id": 3892091628, "lat": 33.3609848, "lon": 44.5528667}, {"type": "node", "id": 3892091629, "lat": 33.3608154, "lon": 44.5524135}, {"type": "node", "id": 3892091630, "lat": 33.3604767, "lon": 44.5522704}, {"type": "node", "id": 3892091631, "lat": 33.3599188, "lon": 44.552819}, {"type": "node", "id": 3892091632, "lat": 33.3594307, "lon": 44.5529264}, {"type": "node", "id": 3892091633, "lat": 33.3592015, "lon": 44.5532126}, {"type": "node", "id": 3892091634, "lat": 33.3592912, "lon": 44.5536659}, {"type": "node", "id": 3892091635, "lat": 33.359351, "lon": 44.5540118}, {"type": "node", "id": 3892091636, "lat": 33.3591916, "lon": 44.5547155}, {"type": "node", "id": 3892186788, "lat": 33.3708693, "lon": 44.5589073}, {"type": "node", "id": 3892203138, "lat": 33.3803883, "lon": 44.5552301}, {"type": "node", "id": 3892203139, "lat": 33.3809534, "lon": 44.5547644}, {"type": "node", "id": 3892203140, "lat": 33.3814592, "lon": 44.5546088}, {"type": "node", "id": 3892203141, "lat": 33.381177, "lon": 44.5546571}, {"type": "node", "id": 3892203142, "lat": 33.3819675, "lon": 44.5546571}, {"type": "node", "id": 3892203143, "lat": 33.3823063, "lon": 44.5547764}, {"type": "node", "id": 3892203144, "lat": 33.3827128, "lon": 44.5549768}, {"type": "node", "id": 3892203145, "lat": 33.3832827, "lon": 44.55533}, {"type": "node", "id": 3892203146, "lat": 33.3839403, "lon": 44.5559219}, {"type": "node", "id": 3892203147, "lat": 33.3844583, "lon": 44.5565662}, {"type": "node", "id": 3892203148, "lat": 33.3855686, "lon": 44.5579032}, {"type": "node", "id": 3892203149, "lat": 33.3857718, "lon": 44.5582325}, {"type": "node", "id": 3892203150, "lat": 33.3863696, "lon": 44.5593923}, {"type": "node", "id": 3892203151, "lat": 33.3865131, "lon": 44.5597025}, {"type": "node", "id": 3892203152, "lat": 33.3866514, "lon": 44.5599298}, {"type": "node", "id": 3892203153, "lat": 33.3868413, "lon": 44.560137}, {"type": "node", "id": 3892203154, "lat": 33.3872144, "lon": 44.5604782}, {"type": "node", "id": 3892203155, "lat": 33.3873501, "lon": 44.5605757}, {"type": "node", "id": 3892203156, "lat": 33.3882727, "lon": 44.5608357}, {"type": "node", "id": 3892203157, "lat": 33.3879776, "lon": 44.5608032}, {"type": "node", "id": 3892203158, "lat": 33.3886559, "lon": 44.5608641}, {"type": "node", "id": 3892203159, "lat": 33.3890392, "lon": 44.5608478}, {"type": "node", "id": 3892203178, "lat": 33.3959895, "lon": 44.561086}, {"type": "node", "id": 3892203179, "lat": 33.3958199, "lon": 44.560826}, {"type": "node", "id": 3892203180, "lat": 33.3955723, "lon": 44.5605416}, {"type": "node", "id": 3892203181, "lat": 33.3952365, "lon": 44.5602735}, {"type": "node", "id": 3892203182, "lat": 33.3948669, "lon": 44.5600907}, {"type": "node", "id": 3892203183, "lat": 33.3944531, "lon": 44.5600298}, {"type": "node", "id": 3892203184, "lat": 33.397722, "lon": 44.5654099}, {"type": "node", "id": 3892203185, "lat": 33.398923, "lon": 44.5671697}, {"type": "node", "id": 3892203186, "lat": 33.399426, "lon": 44.5677815}, {"type": "node", "id": 3892203187, "lat": 33.4009968, "lon": 44.5693539}, {"type": "node", "id": 3892203188, "lat": 33.4012187, "lon": 44.5696817}, {"type": "node", "id": 3892203189, "lat": 33.4015257, "lon": 44.5699121}, {"type": "node", "id": 3892203190, "lat": 33.4018475, "lon": 44.5701292}, {"type": "node", "id": 3892203191, "lat": 33.402258, "lon": 44.5702887}, {"type": "node", "id": 3892203192, "lat": 33.4028017, "lon": 44.5702089}, {"type": "node", "id": 3892203193, "lat": 33.4030865, "lon": 44.5700317}, {"type": "node", "id": 3892203194, "lat": 33.41027, "lon": 44.5606437}, {"type": "node", "id": 3892203195, "lat": 33.4107717, "lon": 44.5601148}, {"type": "node", "id": 3892203196, "lat": 33.4127484, "lon": 44.5591291}, {"type": "node", "id": 3892203197, "lat": 33.4134708, "lon": 44.5592253}, {"type": "node", "id": 3892203198, "lat": 33.4121436, "lon": 44.5592123}, {"type": "node", "id": 3892203199, "lat": 33.4112725, "lon": 44.5596793}, {"type": "node", "id": 3892203200, "lat": 33.4170045, "lon": 44.5619562}, {"type": "node", "id": 3892203201, "lat": 33.4166878, "lon": 44.5613286}, {"type": "node", "id": 3892203202, "lat": 33.4164807, "lon": 44.5609418}, {"type": "node", "id": 3892203203, "lat": 33.416237, "lon": 44.5605185}, {"type": "node", "id": 3892203204, "lat": 33.4159751, "lon": 44.5602339}, {"type": "node", "id": 3892203205, "lat": 33.4174857, "lon": 44.5631457}, {"type": "node", "id": 3906585030, "lat": 33.2662007, "lon": 44.5352518}, {"type": "node", "id": 3906585031, "lat": 33.2654888, "lon": 44.5343676}, {"type": "node", "id": 3906585032, "lat": 33.2646643, "lon": 44.532632}, {"type": "node", "id": 3906585033, "lat": 33.2638489, "lon": 44.53094}, {"type": "node", "id": 3906585034, "lat": 33.2629392, "lon": 44.5284838}, {"type": "node", "id": 3906585035, "lat": 33.2625832, "lon": 44.5271448}, {"type": "node", "id": 3906585036, "lat": 33.2623915, "lon": 44.5261551}, {"type": "node", "id": 3906585037, "lat": 33.2622212, "lon": 44.5246778}, {"type": "node", "id": 3906585038, "lat": 33.262209, "lon": 44.523739}, {"type": "node", "id": 3906585039, "lat": 33.2622364, "lon": 44.5230695}, {"type": "node", "id": 3906585040, "lat": 33.2623581, "lon": 44.5226947}, {"type": "node", "id": 3906585041, "lat": 33.2624859, "lon": 44.5223854}, {"type": "node", "id": 3906585042, "lat": 33.2626836, "lon": 44.5219779}, {"type": "node", "id": 3906585043, "lat": 33.2628996, "lon": 44.5217486}, {"type": "node", "id": 3906585044, "lat": 33.263429, "lon": 44.5214539}, {"type": "node", "id": 3906585045, "lat": 33.2636816, "lon": 44.5214684}, {"type": "node", "id": 3906585046, "lat": 33.2642688, "lon": 44.5216431}, {"type": "node", "id": 3906585047, "lat": 33.2646004, "lon": 44.5218141}, {"type": "node", "id": 3906585048, "lat": 33.2651298, "lon": 44.5221598}, {"type": "node", "id": 3906585049, "lat": 33.265644, "lon": 44.52256}, {"type": "node", "id": 3906585050, "lat": 33.2659087, "lon": 44.5228439}, {"type": "node", "id": 3906585051, "lat": 33.2682787, "lon": 44.5275123}, {"type": "node", "id": 3906585052, "lat": 33.2678771, "lon": 44.526428}, {"type": "node", "id": 3906585053, "lat": 33.2675181, "lon": 44.5255365}, {"type": "node", "id": 3906585054, "lat": 33.2670678, "lon": 44.5244158}, {"type": "node", "id": 3906731768, "lat": 33.2556784, "lon": 44.5289459}, {"type": "node", "id": 3906731769, "lat": 33.2547913, "lon": 44.5292097}, {"type": "node", "id": 3906731770, "lat": 33.2538089, "lon": 44.5295093}, {"type": "node", "id": 3906731771, "lat": 33.2529819, "lon": 44.5296712}, {"type": "node", "id": 3906731772, "lat": 33.2520997, "lon": 44.5296592}, {"type": "node", "id": 3906731773, "lat": 33.2567916, "lon": 44.528331}, {"type": "node", "id": 3906731774, "lat": 33.2571191, "lon": 44.5278375}, {"type": "node", "id": 3906731775, "lat": 33.2576978, "lon": 44.526314}, {"type": "node", "id": 3906731776, "lat": 33.2578054, "lon": 44.5245759}, {"type": "node", "id": 3906731777, "lat": 33.25794, "lon": 44.5225911}, {"type": "node", "id": 3906731778, "lat": 33.2583617, "lon": 44.5204292}, {"type": "node", "id": 3906731779, "lat": 33.2586846, "lon": 44.5196138}, {"type": "node", "id": 3906731781, "lat": 33.2590457, "lon": 44.5190318}, {"type": "node", "id": 3906731782, "lat": 33.2593485, "lon": 44.5186295}, {"type": "node", "id": 3906731783, "lat": 33.2596782, "lon": 44.5183693}, {"type": "node", "id": 3906731784, "lat": 33.260064, "lon": 44.5180957}, {"type": "node", "id": 3906731785, "lat": 33.2603825, "lon": 44.5180206}, {"type": "node", "id": 3906731786, "lat": 33.2613769, "lon": 44.5180006}, {"type": "node", "id": 3906731962, "lat": 33.2786663, "lon": 44.5282008}, {"type": "node", "id": 3906731963, "lat": 33.2789728, "lon": 44.5280152}, {"type": "node", "id": 3906731964, "lat": 33.2792609, "lon": 44.5277722}, {"type": "node", "id": 3906731965, "lat": 33.2794345, "lon": 44.5276176}, {"type": "node", "id": 3906731966, "lat": 33.2795675, "lon": 44.5274099}, {"type": "node", "id": 3906731967, "lat": 33.2796155, "lon": 44.5271935}, {"type": "node", "id": 3906731968, "lat": 33.2796192, "lon": 44.5267251}, {"type": "node", "id": 3906731969, "lat": 33.2794751, "lon": 44.5264733}, {"type": "node", "id": 3906731970, "lat": 33.278031, "lon": 44.5247591}, {"type": "node", "id": 3906731971, "lat": 33.2776431, "lon": 44.5242112}, {"type": "node", "id": 3906731972, "lat": 33.2747126, "lon": 44.5216149}, {"type": "node", "id": 3906731973, "lat": 33.2733862, "lon": 44.520778}, {"type": "node", "id": 3906731974, "lat": 33.2711898, "lon": 44.5198538}, {"type": "node", "id": 3906731975, "lat": 33.2741525, "lon": 44.5279421}, {"type": "node", "id": 3906731976, "lat": 33.2755945, "lon": 44.5278621}, {"type": "node", "id": 3906731977, "lat": 33.2719865, "lon": 44.5293103}, {"type": "node", "id": 3906731978, "lat": 33.2713415, "lon": 44.5294631}, {"type": "node", "id": 3906731979, "lat": 33.2709156, "lon": 44.529514}, {"type": "node", "id": 3906731980, "lat": 33.2704349, "lon": 44.5294704}, {"type": "node", "id": 3906731981, "lat": 33.2698651, "lon": 44.529311}, {"type": "node", "id": 3906731982, "lat": 33.2691565, "lon": 44.5289086}, {"type": "node", "id": 3906731983, "lat": 33.2687214, "lon": 44.5284634}, {"type": "node", "id": 3906731984, "lat": 33.2684343, "lon": 44.5279538}, {"type": "node", "id": 6991303365, "lat": 33.1953206, "lon": 44.370853}, {"type": "node", "id": 7499422439, "lat": 33.1892757, "lon": 44.2957273}, {"type": "node", "id": 7499422440, "lat": 33.192416, "lon": 44.3375911}, {"type": "node", "id": 7499933889, "lat": 33.4868251, "lon": 44.305053}, {"type": "node", "id": 7499933890, "lat": 33.4832118, "lon": 44.3097642}, {"type": "node", "id": 7499933891, "lat": 33.4833013, "lon": 44.3190125}, {"type": "node", "id": 7499933892, "lat": 33.4833728, "lon": 44.3319729}, {"type": "node", "id": 7499933893, "lat": 33.4817442, "lon": 44.3417791}, {"type": "node", "id": 7499933894, "lat": 33.4818337, "lon": 44.3525723}, {"type": "node", "id": 7499933895, "lat": 33.4792923, "lon": 44.369202}, {"type": "node", "id": 7499933896, "lat": 33.4776478, "lon": 44.3816109}, {"type": "node", "id": 7499933903, "lat": 33.4795612, "lon": 44.3674422}, {"type": "node", "id": 7499933919, "lat": 33.2231485, "lon": 44.2104639}, {"type": "node", "id": 7499933920, "lat": 33.2191781, "lon": 44.1986176}, {"type": "node", "id": 7499933922, "lat": 33.2079174, "lon": 44.1999703}, {"type": "node", "id": 7499933923, "lat": 33.2132755, "lon": 44.2177896}, {"type": "node", "id": 7499933924, "lat": 33.2244415, "lon": 44.2326745}, {"type": "node", "id": 7499933925, "lat": 33.2132855, "lon": 44.1926526}, {"type": "node", "id": 7499933926, "lat": 33.2207475, "lon": 44.2409613}, {"type": "node", "id": 7499933927, "lat": 33.1880415, "lon": 44.2395807}, {"type": "node", "id": 7499933928, "lat": 33.1816592, "lon": 44.2409535}, {"type": "node", "id": 7499933929, "lat": 33.1920922, "lon": 44.2571472}, {"type": "node", "id": 7499933930, "lat": 33.1821898, "lon": 44.2480316}, {"type": "node", "id": 7499933931, "lat": 33.3683257, "lon": 44.2416759}, {"type": "node", "id": 7499933932, "lat": 33.3802957, "lon": 44.2383928}, {"type": "node", "id": 7499933933, "lat": 33.3902038, "lon": 44.2378564}, {"type": "node", "id": 7499933934, "lat": 33.396295, "lon": 44.2369938}, {"type": "node", "id": 7499933935, "lat": 33.4090313, "lon": 44.2362857}, {"type": "node", "id": 7499933936, "lat": 33.4236463, "lon": 44.2327666}, {"type": "node", "id": 7499933937, "lat": 33.4307022, "lon": 44.2338824}, {"type": "node", "id": 7499933938, "lat": 33.436128, "lon": 44.2352986}, {"type": "node", "id": 7499933939, "lat": 33.4403001, "lon": 44.2402983}, {"type": "node", "id": 7499933940, "lat": 33.4487869, "lon": 44.2601466}, {"type": "node", "id": 7499933941, "lat": 33.450067, "lon": 44.2628932}, {"type": "node", "id": 7499933962, "lat": 33.4642588, "lon": 44.2540054}, {"type": "node", "id": 7499933963, "lat": 33.462952, "lon": 44.2612795}, {"type": "node", "id": 7499933964, "lat": 33.4602311, "lon": 44.265335}, {"type": "node", "id": 7499933965, "lat": 33.4599088, "lon": 44.2672233}, {"type": "node", "id": 7499933966, "lat": 33.4610545, "lon": 44.272931}, {"type": "node", "id": 7499933967, "lat": 33.460965, "lon": 44.2785315}, {"type": "node", "id": 7499933968, "lat": 33.4634175, "lon": 44.2824368}, {"type": "node", "id": 7499933969, "lat": 33.4663531, "lon": 44.2902259}, {"type": "node", "id": 7499933970, "lat": 33.4690023, "lon": 44.2934017}, {"type": "node", "id": 7499933971, "lat": 33.4698794, "lon": 44.2968134}, {"type": "node", "id": 7502171819, "lat": 33.2685017, "lon": 44.5193322}, {"type": "node", "id": 7502171840, "lat": 33.4310574, "lon": 44.5107254}, {"type": "node", "id": 7502171841, "lat": 33.4336539, "lon": 44.5410563}, {"type": "node", "id": 7502171842, "lat": 33.4325577, "lon": 44.5362027}, {"type": "node", "id": 7502171845, "lat": 33.4305665, "lon": 44.5271864}, {"type": "node", "id": 7502472432, "lat": 33.4353129, "lon": 44.5004233}, {"type": "node", "id": 7502472433, "lat": 33.4324708, "lon": 44.4732392}, {"type": "node", "id": 7502472434, "lat": 33.4361914, "lon": 44.4781527}, {"type": "node", "id": 7855725421, "lat": 33.2447064, "lon": 44.2140921}, {"type": "node", "id": 8403517094, "lat": 33.3580264, "lon": 44.2014646}, {"type": "node", "id": 8403517095, "lat": 33.3527434, "lon": 44.1957288}, {"type": "node", "id": 8403539842, "lat": 33.3496054, "lon": 44.2013814}, {"type": "node", "id": 8403539843, "lat": 33.3488818, "lon": 44.2017913}, {"type": "node", "id": 8709591952, "lat": 33.2328126, "lon": 44.516122}, {"type": "node", "id": 8709591953, "lat": 33.2320869, "lon": 44.5150573}, {"type": "node", "id": 9669139568, "lat": 33.1924368, "lon": 44.3417165}, {"type": "node", "id": 9926278290, "lat": 33.2025757, "lon": 44.3785735}, {"type": "node", "id": 9926278301, "lat": 33.2021283, "lon": 44.3794566}, {"type": "node", "id": 10010899825, "lat": 33.3766767, "lon": 44.6960199, "tags": {"name": "\u0627\u0644\u0646\u0647\u0631\u0648\u0627\u0646", "name:ar": "\u0627\u0644\u0646\u0647\u0631\u0648\u0627\u0646", "name:en": "Nahrawan", "place": "town", "wikidata": "Q22686267", "wikipedia": "ar:\u0627\u0644\u0646\u0647\u0631\u0648\u0627\u0646 (\u0628\u063a\u062f\u0627\u062f)"}}, {"type": "node", "id": 10695354769, "lat": 33.4247485, "lon": 44.4643146}, {"type": "node", "id": 10726404261, "lat": 33.4381221, "lon": 44.4562984, "tags": {"name": "To Kirkuk", "railway": "proposed"}}, {"type": "node", "id": 10833588217, "lat": 33.2385976, "lon": 44.523979}, {"type": "node", "id": 10833588222, "lat": 33.2595599, "lon": 44.5184627}, {"type": "node", "id": 10845928116, "lat": 33.42909, "lon": 44.5554064}, {"type": "node", "id": 10845928121, "lat": 33.3998719, "lon": 44.5682365}, {"type": "node", "id": 10845928127, "lat": 33.3830813, "lon": 44.5552052}, {"type": "node", "id": 10845928167, "lat": 33.3513234, "lon": 44.5419544}, {"type": "node", "id": 10845928170, "lat": 33.3495122, "lon": 44.5418358}, {"type": "node", "id": 10845928171, "lat": 33.3520036, "lon": 44.5419431}, {"type": "node", "id": 10845928172, "lat": 33.3507131, "lon": 44.5419645}, {"type": "node", "id": 10845928204, "lat": 33.3155362, "lon": 44.5371439}, {"type": "node", "id": 10845928206, "lat": 33.3276981, "lon": 44.5325995}, {"type": "node", "id": 10845928213, "lat": 33.299583, "lon": 44.5367942}, {"type": "node", "id": 10845928220, "lat": 33.312319, "lon": 44.5373758}, {"type": "node", "id": 10845928246, "lat": 33.277043, "lon": 44.5397724}, {"type": "node", "id": 10945633889, "lat": 33.448595, "lon": 44.4136476}, {"type": "node", "id": 10945633890, "lat": 33.4515312, "lon": 44.4052362}, {"type": "node", "id": 11373976667, "lat": 33.4485234, "lon": 44.4047212}, {"type": "node", "id": 11501562181, "lat": 33.357145, "lon": 44.5416202}, {"type": "way", "id": 223454403, "nodes": [11501562181, 3892091590, 3892091589, 3892091588, 3892091587, 3892091586, 3892091585, 2323407090, 3892091584, 3892091583], "tags": {"admin_level": "5", "boundary": "administrative", "source": "Empirical Studies of Conflict (ESOC)"}}, {"type": "way", "id": 223454409, "nodes": [2323406790, 3906731967, 3906731966, 3906731965, 3906731964, 3906731963, 3906731962, 2323406785, 3906731976, 2323406777, 3906731975, 2323406768, 3906731977, 3906731978, 3906731979, 3906731980, 3906731981, 2323406762, 3906731982, 3906731983, 3906731984, 3906585051, 3906585052, 3906585053, 3906585054, 2323406753, 3906585050, 3906585049, 3906585048, 3906585047, 3906585046, 3906585045, 3906585044, 2323406739, 3906585043, 3906585042, 3906585041, 3906585040, 3906585039, 3906585038, 3906585037, 3906585036, 2323406735, 3906585035, 3906585034, 3906585033, 3906585032, 3906585031, 3906585030, 2323406752, 2323406770, 10845928246], "tags": {"admin_level": "5", "boundary": "administrative", "source": "Empirical Studies of Conflict (ESOC)"}}, {"type": "way", "id": 223455092, "nodes": [10845928206, 3892090618, 3892090617, 3892090616, 2323406967, 3892090615, 3892090614, 3892090613, 3892090620, 3892090612, 3892090621, 2323406979, 3892090611, 3892090610, 3892090609, 3892090608, 3892090607, 3892090606, 3892090605, 2323407003, 3892090604, 3892090603, 3892090602, 2323407008], "tags": {"admin_level": "5", "boundary": "administrative", "source": "Empirical Studies of Conflict (ESOC)"}}, {"type": "way", "id": 223462614, "nodes": [2323406640, 2323406641, 8709591953, 8709591952, 2323406643], "tags": {"admin_level": "5", "boundary": "administrative", "source": "Empirical Studies of Conflict (ESOC)"}}, {"type": "way", "id": 223462619, "nodes": [2323406741, 7502171819], "tags": {"admin_level": "5", "boundary": "administrative", "source": "Empirical Studies of Conflict (ESOC)"}}, {"type": "way", "id": 223462622, "nodes": [2323406617, 3891971892, 3891971893, 2323406618, 2323406623, 2323406627, 2323406640], "tags": {"admin_level": "5", "boundary": "administrative", "source": "Empirical Studies of Conflict (ESOC)"}}, {"type": "way", "id": 223462625, "nodes": [3906731774, 2323406721, 3906731775, 3906731776, 3906731777, 2323406723, 3906731778, 3906731779, 3906731781, 3906731782, 10833588222], "tags": {"admin_level": "5", "boundary": "administrative", "source": "Empirical Studies of Conflict (ESOC)"}}, {"type": "way", "id": 223470369, "nodes": [9926278301, 2323406584, 2323406565, 2323406560, 2323406559, 2323406561, 2323406563, 2323406564, 2323406562, 2323406567, 2323406569, 2323406574], "tags": {"admin_level": "5", "boundary": "administrative", "source": "Empirical Studies of Conflict (ESOC)"}}, {"type": "way", "id": 223470370, "nodes": [2323406574, 2323406578, 2323406582, 2323406579, 2323406589, 2323406593, 2323406599, 2323406603, 2323406600, 2323406597, 2323406595, 2323406583, 2323406586, 3817102124, 2323406576], "tags": {"admin_level": "5", "boundary": "administrative", "source": "Empirical Studies of Conflict (ESOC)"}}, {"type": "way", "id": 223470375, "nodes": [2323406573, 6991303365, 2323406575, 2323406592], "tags": {"admin_level": "5", "boundary": "administrative", "source": "Empirical Studies of Conflict (ESOC)"}}, {"type": "way", "id": 223470387, "nodes": [2323406571, 2323406568, 7499933927, 7499933928, 7499933930, 7499933929, 2323406566], "tags": {"admin_level": "5", "boundary": "administrative", "source": "Empirical Studies of Conflict (ESOC)"}}, {"type": "way", "id": 223474709, "nodes": [2323406566, 7499422439], "tags": {"admin_level": "5", "boundary": "administrative", "source": "Empirical Studies of Conflict (ESOC)"}}, {"type": "way", "id": 252160386, "nodes": [2582616139, 10695354769, 7502472433, 7502472434, 2582616191], "tags": {"admin_level": "4", "boundary": "administrative", "source": "Empirical Studies of Conflict (ESOC)"}}, {"type": "way", "id": 252160393, "nodes": [2582616011, 8403517094, 8403517095, 8403539842, 2582615969, 8403539843, 2582615964, 2582615958, 2582615955, 2582615952, 2582615928, 2582615940, 2582615932, 2582615924, 2582615921, 2582615916, 2582615905, 2582615902, 2582615900, 2582615897, 2582615894, 2582615891, 2582615888, 2582615885, 2582615879], "tags": {"admin_level": "5", "boundary": "administrative"}}, {"type": "way", "id": 252160400, "nodes": [3892091570, 2582616006, 3892091571, 3892091572, 2582616003, 3892091573, 3892091622, 3892091621, 2582615990, 3892091608, 3892091609, 3892091610, 3892091611, 3892091612, 3892091613, 3892091614, 3892091615, 3892091616, 2582615997, 3892091617, 3892091618, 3892091619, 3892091620, 2582616000, 2582616007, 2582616013, 2582616016, 2582616022, 3892186788, 2582616028, 2582616032, 2582616037, 2582616040, 2582616042, 2582616045, 3892203138, 3892203139, 3892203141, 3892203140, 2582616049, 3892203142, 3892203143, 3892203144, 10845928127], "tags": {"admin_level": "5", "boundary": "administrative"}}, {"type": "way", "id": 252160409, "nodes": [2323406576, 2323406577, 2323406590, 2323406596, 2323406605, 2323406617], "tags": {"admin_level": "5", "boundary": "administrative", "source": "Empirical Studies of Conflict (ESOC)"}}, {"type": "way", "id": 252160411, "nodes": [2582615879, 2582615882, 2582615876, 2582615786, 2582615773, 2582615769, 7855725421], "tags": {"admin_level": "5", "boundary": "administrative"}}, {"type": "way", "id": 378308436, "nodes": [2323406649, 7499933925, 7499933922, 7499933923, 7499933924, 7499933926, 2323406571], "tags": {"admin_level": "5", "boundary": "administrative", "source": "Empirical Studies of Conflict (ESOC)"}}, {"type": "way", "id": 385873227, "nodes": [3892091623, 3892091624, 3892091625, 3892091626, 3892091627, 3892091628, 3892091629, 3892091630, 3892091631, 3892091632, 3892091633, 3892091634, 3892091635, 3892091636, 3892091623], "tags": {"description": "\u0642\u0631\u064a\u0629 \u0627\u0644\u0633\u0639\u064a\u062f", "name": "\u0627\u0644\u0634\u064a\u062e \u0645\u062d\u0645\u0648\u062f \u0627\u0644\u062e\u0644\u064a\u0641 \u0627\u0644\u0633\u0639\u064a\u062f\u064a", "place": "village", "population": "569"}}, {"type": "way", "id": 801776025, "nodes": [7499422439, 2323406570, 2323406572, 7499422440], "tags": {"admin_level": "5", "boundary": "administrative", "source": "Empirical Studies of Conflict (ESOC)"}}, {"type": "way", "id": 801776027, "nodes": [7499422440, 9669139568, 2323406573], "tags": {"admin_level": "5", "boundary": "administrative", "source": "Empirical Studies of Conflict (ESOC)"}}, {"type": "way", "id": 801826309, "nodes": [7499933889, 7499933890, 7499933891, 7499933892, 7499933893, 7499933894, 7499933903], "tags": {"admin_level": "5", "boundary": "administrative"}}, {"type": "way", "id": 801826310, "nodes": [10945633889, 2582616195, 10726404261, 2582616152, 2582616142, 2582616139], "tags": {"admin_level": "4", "boundary": "administrative", "source": "Empirical Studies of Conflict (ESOC)"}}, {"type": "way", "id": 801826311, "nodes": [7499933889, 2582616226, 2582616219, 2582616209], "tags": {"admin_level": "5", "boundary": "administrative"}}, {"type": "way", "id": 801826314, "nodes": [7499933903, 7499933895, 7499933896], "tags": {"admin_level": "5", "boundary": "administrative"}}, {"type": "way", "id": 801826319, "nodes": [2323407099, 25447756, 2323407084, 2323407081, 2323407076, 2323407077, 2582615994, 2582616011], "tags": {"admin_level": "5", "boundary": "administrative", "source": "Empirical Studies of Conflict (ESOC)"}}, {"type": "way", "id": 801826320, "nodes": [2323407099, 7499933931, 7499933932, 7499933933, 7499933934, 7499933935, 7499933936, 7499933937, 7499933938, 7499933939, 7499933940, 7499933941], "tags": {"admin_level": "5", "boundary": "administrative"}}, {"type": "way", "id": 801826322, "nodes": [7499933941, 7499933962], "tags": {"admin_level": "5", "boundary": "administrative"}}, {"type": "way", "id": 802058104, "nodes": [2582616164, 2582616182, 7502171845], "tags": {"admin_level": "5", "boundary": "administrative", "source": "Empirical Studies of Conflict (ESOC)"}}, {"type": "way", "id": 802058105, "nodes": [7502171819, 3906731974, 2323406775, 3906731973, 3906731972, 2323406781, 3906731971, 3906731970, 3906731969, 3906731968, 2323406790], "tags": {"admin_level": "5", "boundary": "administrative", "source": "Empirical Studies of Conflict (ESOC)"}}, {"type": "way", "id": 802058108, "nodes": [7502171840, 2582616164], "tags": {"admin_level": "5", "boundary": "administrative", "source": "Empirical Studies of Conflict (ESOC)"}}, {"type": "way", "id": 802058110, "nodes": [7502171845, 7502171842, 7502171841, 2582616187, 2582616188, 2582616190, 2582616186, 10845928116], "tags": {"admin_level": "5", "boundary": "administrative", "source": "Empirical Studies of Conflict (ESOC)"}}, {"type": "way", "id": 802083051, "nodes": [7502472432, 7502171840], "tags": {"admin_level": "5", "boundary": "administrative", "source": "Empirical Studies of Conflict (ESOC)"}}, {"type": "way", "id": 802083058, "nodes": [7499933962, 7499933963, 7499933964, 7499933965, 7499933966, 7499933967, 7499933968, 7499933969, 7499933970, 25752416, 7499933971, 2582616209], "tags": {"admin_level": "5", "boundary": "administrative"}}, {"type": "way", "id": 842044901, "nodes": [2582615726, 7499933919, 7499933920, 2323406649], "tags": {"admin_level": "5", "boundary": "administrative"}}, {"type": "way", "id": 915970440, "nodes": [7855725421, 2582615726], "tags": {"admin_level": "5", "boundary": "administrative"}}, {"type": "way", "id": 1163830230, "nodes": [9926278290, 9926278301], "tags": {"admin_level": "5", "boundary": "administrative", "source": "Empirical Studies of Conflict (ESOC)"}}, {"type": "way", "id": 1163830231, "nodes": [2323406592, 2323406591, 9926278290], "tags": {"admin_level": "5", "boundary": "administrative", "source": "Empirical Studies of Conflict (ESOC)"}}, {"type": "way", "id": 1164813826, "nodes": [10833588222, 3906731783, 3906731784, 3906731785, 2323406728, 3906731786, 2323406741], "tags": {"admin_level": "5", "boundary": "administrative", "source": "Empirical Studies of Conflict (ESOC)"}}, {"type": "way", "id": 1164813827, "nodes": [10833588217, 2323406666, 2323406694, 3906731772, 3906731771, 3906731770, 3906731769, 3906731768, 2323406715, 3906731773, 3906731774], "tags": {"admin_level": "5", "boundary": "administrative", "source": "Empirical Studies of Conflict (ESOC)"}}, {"type": "way", "id": 1164813828, "nodes": [2323406643, 2323406650, 10833588217], "tags": {"admin_level": "5", "boundary": "administrative", "source": "Empirical Studies of Conflict (ESOC)"}}, {"type": "way", "id": 1166093020, "nodes": [10845928127, 3892203145, 2582616051, 3892203146, 3892203147, 2582616053, 3892203148, 3892203149, 3892203150, 3892203151, 3892203152, 3892203153, 3892203154, 3892203155, 2582616055, 3892203157, 3892203156, 3892203158, 3892203159, 2582616057, 2582616061, 3892203183, 3892203182, 3892203181, 3892203180, 3892203179, 3892203178, 2582616063, 2582616065, 2582616067, 3892203184, 2582616074, 3892203185, 3892203186, 10845928121], "tags": {"admin_level": "5", "boundary": "administrative"}}, {"type": "way", "id": 1166093022, "nodes": [10845928121, 2582616075, 3892203187, 3892203188, 3892203189, 3892203190, 3892203191, 2582616082, 3892203192, 3892203193, 2582616101, 2582616102, 3892203194, 3892203195, 3892203199, 2582616106, 3892203198, 3892203196, 3892203197, 2582616111, 3892203204, 3892203203], "tags": {"admin_level": "5", "boundary": "administrative"}}, {"type": "way", "id": 1166093024, "nodes": [3892203203, 3892203202, 3892203201, 3892203200, 2582616114, 3892203205, 2582616123], "tags": {"admin_level": "5", "boundary": "administrative"}}, {"type": "way", "id": 1166093026, "nodes": [10845928116, 2582616148, 2582616123], "tags": {"admin_level": "5", "boundary": "administrative", "source": "Empirical Studies of Conflict (ESOC)"}}, {"type": "way", "id": 1166093036, "nodes": [2323407034, 10845928170, 10845928172, 10845928167], "tags": {"admin_level": "5", "boundary": "administrative", "source": "Empirical Studies of Conflict (ESOC)"}}, {"type": "way", "id": 1166093038, "nodes": [3892091583, 3892091582, 3892091581, 3892091580, 3892091579, 3892091578, 3892091577, 3892091576, 2323407096, 3892091575, 3892091574, 2323407097], "tags": {"admin_level": "5", "boundary": "administrative", "source": "Empirical Studies of Conflict (ESOC)"}}, {"type": "way", "id": 1166093039, "nodes": [2323407097, 3892091567, 3892091568, 3892091569, 3892091570], "tags": {"admin_level": "5", "boundary": "administrative"}}, {"type": "way", "id": 1166093066, "nodes": [2323406939, 3892055804, 3892055803, 3892055802, 2323406941, 3892090619, 10845928206], "tags": {"admin_level": "5", "boundary": "administrative", "source": "Empirical Studies of Conflict (ESOC)"}}, {"type": "way", "id": 1166093071, "nodes": [2323407008, 2323407012, 3892090622, 3892090623, 3892090624, 3892090625, 2323407017, 3892090626, 3892090627, 3892090628, 3892090629, 2323407034], "tags": {"admin_level": "5", "boundary": "administrative", "source": "Empirical Studies of Conflict (ESOC)"}}, {"type": "way", "id": 1166093076, "nodes": [10845928213, 2323406870, 2323406890, 10845928220], "tags": {"admin_level": "5", "boundary": "administrative", "source": "Empirical Studies of Conflict (ESOC)"}}, {"type": "way", "id": 1166093080, "nodes": [10845928220, 10845928204], "tags": {"admin_level": "5", "boundary": "administrative", "source": "Empirical Studies of Conflict (ESOC)"}}, {"type": "way", "id": 1166093081, "nodes": [10845928246, 2323406787, 2323406815, 2323406848, 10845928213], "tags": {"admin_level": "5", "boundary": "administrative", "source": "Empirical Studies of Conflict (ESOC)"}}, {"type": "way", "id": 1166093108, "nodes": [10845928204, 2323406909, 3892055814, 3892055815, 3892055816, 3892055813, 3892055812, 3892055811, 3892055810, 3892055809, 3892055808, 2323406932, 3892055807, 3892055806, 3892055805, 2323406939], "tags": {"admin_level": "5", "boundary": "administrative", "source": "Empirical Studies of Conflict (ESOC)"}}, {"type": "way", "id": 1178250352, "nodes": [11373976667, 10945633890, 10945633889], "tags": {"admin_level": "4", "boundary": "administrative"}}, {"type": "way", "id": 1226430731, "nodes": [2582616191, 7502472432], "tags": {"admin_level": "5", "boundary": "administrative", "source": "Empirical Studies of Conflict (ESOC)"}}, {"type": "way", "id": 1226566337, "nodes": [7499933896, 2582616204, 2582616194, 11373976667], "tags": {"admin_level": "4", "boundary": "administrative", "source": "Empirical Studies of Conflict (ESOC)"}}, {"type": "way", "id": 1238186220, "nodes": [10845928167, 10845928171, 3892091594, 3892091593, 3892091592, 3892091591, 11501562181], "tags": {"admin_level": "5", "boundary": "administrative", "source": "Empirical Studies of Conflict (ESOC)"}}, {"type": "relation", "id": 5638803, "members": [{"type": "way", "ref": 1178250352, "role": "outer"}, {"type": "way", "ref": 801826310, "role": "outer"}, {"type": "way", "ref": 252160386, "role": "outer"}, {"type": "way", "ref": 1226430731, "role": "outer"}, {"type": "way", "ref": 802083051, "role": "outer"}, {"type": "way", "ref": 802058108, "role": "outer"}, {"type": "way", "ref": 802058104, "role": "outer"}, {"type": "way", "ref": 802058110, "role": "outer"}, {"type": "way", "ref": 1166093026, "role": "outer"}, {"type": "way", "ref": 1166093024, "role": "outer"}, {"type": "way", "ref": 1166093022, "role": "outer"}, {"type": "way", "ref": 1166093020, "role": "outer"}, {"type": "way", "ref": 252160400, "role": "outer"}, {"type": "way", "ref": 1166093039, "role": "outer"}, {"type": "way", "ref": 1166093038, "role": "outer"}, {"type": "way", "ref": 223454403, "role": "outer"}, {"type": "way", "ref": 1238186220, "role": "outer"}, {"type": "way", "ref": 1166093036, "role": "outer"}, {"type": "way", "ref": 1166093071, "role": "outer"}, {"type": "way", "ref": 223455092, "role": "outer"}, {"type": "way", "ref": 1166093066, "role": "outer"}, {"type": "way", "ref": 1166093108, "role": "outer"}, {"type": "way", "ref": 1166093080, "role": "outer"}, {"type": "way", "ref": 1166093076, "role": "outer"}, {"type": "way", "ref": 1166093081, "role": "outer"}, {"type": "way", "ref": 223454409, "role": "outer"}, {"type": "way", "ref": 802058105, "role": "outer"}, {"type": "way", "ref": 223462619, "role": "outer"}, {"type": "way", "ref": 1164813826, "role": "outer"}, {"type": "way", "ref": 223462625, "role": "outer"}, {"type": "way", "ref": 1164813827, "role": "outer"}, {"type": "way", "ref": 1164813828, "role": "outer"}, {"type": "way", "ref": 223462614, "role": "outer"}, {"type": "way", "ref": 223462622, "role": "outer"}, {"type": "way", "ref": 252160409, "role": "outer"}, {"type": "way", "ref": 223470370, "role": "outer"}, {"type": "way", "ref": 223470369, "role": "outer"}, {"type": "way", "ref": 1163830230, "role": "outer"}, {"type": "way", "ref": 1163830231, "role": "outer"}, {"type": "way", "ref": 223470375, "role": "outer"}, {"type": "way", "ref": 801776027, "role": "outer"}, {"type": "way", "ref": 801776025, "role": "outer"}, {"type": "way", "ref": 223474709, "role": "outer"}, {"type": "way", "ref": 223470387, "role": "outer"}, {"type": "way", "ref": 378308436, "role": "outer"}, {"type": "way", "ref": 842044901, "role": "outer"}, {"type": "way", "ref": 915970440, "role": "outer"}, {"type": "way", "ref": 252160411, "role": "outer"}, {"type": "way", "ref": 252160393, "role": "outer"}, {"type": "way", "ref": 801826319, "role": "outer"}, {"type": "way", "ref": 801826320, "role": "outer"}, {"type": "way", "ref": 801826322, "role": "outer"}, {"type": "way", "ref": 802083058, "role": "outer"}, {"type": "way", "ref": 801826311, "role": "outer"}, {"type": "way", "ref": 801826309, "role": "outer"}, {"type": "way", "ref": 801826314, "role": "outer"}, {"type": "way", "ref": 1226566337, "role": "outer"}, {"type": "node", "ref": 21034458, "role": "admin_centre"}, {"type": "relation", "ref": 11083459, "role": "subarea"}, {"type": "relation", "ref": 11083460, "role": "subarea"}, {"type": "relation", "ref": 11083532, "role": "subarea"}, {"type": "relation", "ref": 2964760, "role": "subarea"}, {"type": "relation", "ref": 11083534, "role": "subarea"}, {"type": "relation", "ref": 2964753, "role": "subarea"}, {"type": "relation", "ref": 11083933, "role": "subarea"}, {"type": "relation", "ref": 11083935, "role": "subarea"}, {"type": "relation", "ref": 11085612, "role": "subarea"}, {"type": "relation", "ref": 2964527, "role": "subarea"}, {"type": "relation", "ref": 2964418, "role": "subarea"}, {"type": "relation", "ref": 2964655, "role": "subarea"}, {"type": "relation", "ref": 11085944, "role": "subarea"}], "tags": {"admin_level": "5", "alt_name": "\u0628\u063a\u062f\u0627\u062f \u0627\u0644\u0631\u0634\u064a\u062f", "alt_name:en": "Bagdad", "alt_name:he": "\u05d1\u05d2\u05d3\u05d3", "alt_name:vi": "B\u00e1t-\u0111a", "boundary": "administrative", "capital": "4", "is_in:country_code": "IQ", "name": "\u0628\u063a\u062f\u0627\u062f", "name:ace": "Baghdad", "name:ady": "\u0411\u0430\u0433\u0434\u0430\u0434", "name:af": "Bagdad", "name:als": "Bagdad", "name:am": "\u1263\u130d\u12f3\u12f5", "name:an": "Bagdad", "name:ar": "\u0628\u063a\u062f\u0627\u062f", "name:arc": "\u0712\u0713\u0715\u0710\u0715", "name:ary": "\u0628\u063a\u062f\u0627\u062f", "name:arz": "\u0628\u063a\u062f\u0627\u062f", "name:as": "\u09ac\u09be\u0997\u09a6\u09be\u09a6", "name:ast": "Bagdag", "name:av": "\u0411\u0430\u0433\u044a\u0434\u0430\u0434", "name:az": "Ba\u011fdad", "name:azb": "\u0628\u063a\u062f\u0627\u062f", "name:ba": "\u0411\u0430\u0493\u0434\u0430\u0434", "name:ban": "Baghdad", "name:bat-smg": "Bagdads", "name:bcl": "Baghdad", "name:be": "\u0411\u0430\u0433\u0434\u0430\u0434", "name:be_x_old": "\u0411\u0430\u0433\u0434\u0430\u0434", "name:bg": "\u0411\u0430\u0433\u0434\u0430\u0434", "name:bm": "Baghdad", "name:bn": "\u09ac\u09be\u0997\u09a6\u09be\u09a6", "name:bo": "\u0f54\u0f0b\u0f42\u0f0b\u0f4f", "name:br": "Baghdad", "name:bs": "Bagdad", "name:bxr": "\u0411\u0430\u0433\u0434\u0430\u0434", "name:ca": "Bagdad", "name:cdo": "Baghdad", "name:ce": "\u0411\u0430\u0433\u04c0\u0434\u0430\u0434", "name:ceb": "Baghdad", "name:ckb": "\u0628\u06d5\u063a\u062f\u0627", "name:co": "Baghdad", "name:crh": "Ba\u011fdad", "name:cs": "Bagd\u00e1d", "name:cv": "\u041f\u0430\u0445\u0442\u0430\u0442", "name:cy": "Baghdad", "name:da": "Bagdad", "name:de": "Bagdad", "name:diq": "Be\u011fdad", "name:dty": "\u092c\u0917\u0926\u093e\u0926", "name:dv": "\u0784\u07a6\u07a3\u07aa\u078b\u07a7\u078b\u07aa", "name:el": "\u0392\u03b1\u03b3\u03b4\u03ac\u03c4\u03b7", "name:en": "Baghdad", "name:eo": "Bagdado", "name:es": "Bagdad", "name:et": "Bagdad", "name:eu": "Bagdad", "name:ext": "Bagdad", "name:fa": "\u0628\u063a\u062f\u0627\u062f", "name:fi": "Bagdad", "name:fo": "Bagdad", "name:fr": "Bagdad", "name:frp": "Bagdad", "name:frr": "Bagdad", "name:fy": "Bagdad", "name:ga": "Bagdad", "name:gd": "Baghdad", "name:gl": "Bagdad", "name:glk": "\u0628\u063a\u062f\u0627\u062f", "name:gn": "Bagdad", "name:ha": "Bagdaza", "name:hak": "Baghdad", "name:he": "\u05d1\u05d2\u05d3\u05d3", "name:hi": "\u092c\u0917\u093c\u0926\u093e\u0926", "name:hif": "Baghdad", "name:hr": "Bagdad", "name:hsb": "Bagdad", "name:ht": "Bagdad", "name:hu": "Bagdad", "name:hy": "\u0532\u0561\u0572\u0564\u0561\u0564", "name:hyw": "\u054a\u0561\u0572\u057f\u0561\u057f", "name:ia": "Bagdad", "name:id": "Bagdad", "name:ie": "Bagdad", "name:ilo": "Baghdad", "name:inh": "\u0411\u0430\u0433\u04c0\u0434\u0430\u0434", "name:io": "Bagdad", "name:is": "Bagdad", "name:it": "Bagdad", "name:ja": "\u30d0\u30b0\u30c0\u30fc\u30c9", "name:jbo": "bagdad", "name:jv": "Bagdad", "name:ka": "\u10d1\u10d0\u10e6\u10d3\u10d0\u10d3\u10d8", "name:kaa": "Bag'dad", "name:kab": "Be\u0263dad", "name:kbd": "\u0411\u0430\u0433\u0434\u0430\u0434", "name:kbp": "Pagidaad\u0269", "name:ki": "Baghdad", "name:kk": "\u0411\u0430\u0493\u0434\u0430\u0442", "name:kl": "Baghdad", "name:kn": "\u0cac\u0cbe\u0c97\u0ccd\u0ca6\u0cbe\u0ca6\u0ccd", "name:ko": "\ubc14\uadf8\ub2e4\ub4dc", "name:ks": "\u0628\u063a\u062f\u0627\u062f", "name:ku": "Bexda", "name:kw": "Baldak", "name:ky": "\u0411\u0430\u0433\u0434\u0430\u0434", "name:la": "Bagdatum", "name:lad": "Bagdad", "name:lb": "Bagdad", "name:lez": "\u0411\u0430\u0433\u044a\u0434\u0430\u0434", "name:lfn": "Baghdad", "name:li": "Bagdad", "name:lij": "Baghdad", "name:lmo": "Baghdad", "name:lrc": "\u0628\u0671\u063a\u062f\u0627\u062f", "name:lt": "Bagdadas", "name:lv": "Bagd\u0101de", "name:mai": "\u092c\u0917\u0926\u093e\u0926", "name:mg": "Bagdad", "name:mhr": "\u0411\u0430\u0433\u0434\u0430\u0434", "name:mi": "Baghdad", "name:min": "Bagdad", "name:mk": "\u0411\u0430\u0433\u0434\u0430\u0434", "name:ml": "\u0d2c\u0d3e\u0d17\u0d4d\u0d26\u0d3e\u0d26\u0d4d", "name:mn": "\u0411\u0430\u0433\u0434\u0430\u0434", "name:mr": "\u092c\u0917\u0926\u093e\u0926", "name:ms": "Baghdad", "name:mwl": "Bagdade", "name:my": "\u1018\u1002\u1039\u1002\u1012\u1000\u103a\u1019\u103c\u102d\u102f\u1037", "name:myv": "\u0411\u0430\u0433\u0434\u0430\u0434 \u043e\u0448", "name:mzn": "\u0628\u0642\u062f\u0627\u062a\u06cc", "name:na": "Baghdad", "name:nah": "Bagd\u0101d", "name:nan": "Baghdad", "name:nds": "Bagdad", "name:ne": "\u092c\u0917\u0926\u093e\u0926", "name:new": "\u092c\u0917\u094d\u0926\u093e\u0926", "name:nl": "Bagdad", "name:nn": "Bagdad", "name:no": "Bagdad", "name:ny": "Baghdad", "name:oc": "Bagdad", "name:olo": "Bagdad", "name:or": "\u0b2c\u0b3e\u0b17\u0b26\u0b3e\u0b26", "name:os": "\u0411\u0430\u0433\u0434\u0430\u0434", "name:pa": "\u0a2c\u0a17\u0a3c\u0a26\u0a3e\u0a26", "name:pap": "Bagdad", "name:pcd": "Bagdad", "name:pih": "Baagdad", "name:pl": "Bagdad", "name:pms": "Baghdad", "name:pnb": "\u0628\u063a\u062f\u0627\u062f", "name:ps": "\u0628\u063a\u062f\u0627\u062f", "name:pt": "Bagdade", "name:qu": "Bagdad", "name:ro": "Bagdad", "name:roa-tara": "Baghdad", "name:ru": "\u0411\u0430\u0433\u0434\u0430\u0434", "name:rue": "\u0411\u0430\u0491\u0434\u0430\u0434", "name:sah": "\u0411\u0430\u0433\u0434\u0430\u0434", "name:sat": "\u1c75\u1c5f\u1c5c\u1c7d\u1c6b\u1c5f\u1c6b\u1c7d", "name:sc": "Bagdad", "name:scn": "Baghdad", "name:sco": "Baghdad", "name:sd": "\u0628\u063a\u062f\u0627\u062f", "name:sh": "Bagdad", "name:si": "\u0db6\u0dd0\u0d9c\u0dca\u0da9\u0dd1\u0da9\u0dca", "name:simple": "Baghdad", "name:sk": "Bagdad", "name:skr": "\u0628\u063a\u062f\u0627\u062f", "name:sl": "Bagdad", "name:smn": "Bagdad", "name:sn": "Baghdad", "name:so": "Baqdaad", "name:sq": "Bagdadi", "name:sr": "\u0411\u0430\u0433\u0434\u0430\u0434", "name:stq": "Bagdad", "name:sv": "Bagdad", "name:sw": "Baghdad", "name:szl": "Bagdad", "name:ta": "\u0baa\u0b95\u0bcd\u0ba4\u0bbe\u0ba4\u0bcd", "name:te": "\u0c2c\u0c3e\u0c17\u0c4d\u0c26\u0c3e\u0c26\u0c4d", "name:tg": "\u0411\u0430\u0493\u0434\u043e\u0434", "name:th": "\u0e41\u0e1a\u0e01\u0e41\u0e14\u0e14", "name:tk": "Bagdat", "name:tl": "Baghdad", "name:tpi": "Bagdad", "name:tr": "Ba\u011fdat", "name:tt": "\u0411\u0430\u0433\u0434\u0430\u0434", "name:tw": "Baghdad", "name:tzl": "Baghdad", "name:udm": "\u0411\u0430\u0433\u0434\u0430\u0434", "name:ug": "\u0628\u0627\u063a\u062f\u0627\u062f", "name:uk": "\u0411\u0430\u0433\u0434\u0430\u0434", "name:ur": "\u0628\u063a\u062f\u0627\u062f", "name:uz": "Baghdad", "name:vec": "Bagdad", "name:vep": "Bagdad", "name:vi": "Bagdad", "name:vo": "Bagdad", "name:vro": "Bagdad", "name:wa": "Bagdet", "name:war": "Baghdad", "name:wo": "Bagdad", "name:wuu": "\u5df4\u683c\u8fbe", "name:xmf": "\u10d1\u10d0\u10e6\u10d3\u10d0\u10d3\u10d8", "name:yi": "\u05d1\u05d0\u05d2\u05d3\u05d0\u05d3", "name:yo": "Baghdad", "name:yue": "\u5df4\u683c\u9054", "name:zea": "Bagdad", "name:zh": "\u5df4\u683c\u9054", "name:zh-Hans": "\u5df4\u683c\u8fbe", "note": "\u062d\u062f\u0648\u062f \u0627\u0645\u0627\u0646\u0629 \u0628\u063a\u062f\u0627\u062f", "place": "city", "source": "https://2.bp.blogspot.com/-5x3NgrZGFGU/WKSXR3Hy09I/AAAAAAAAAV4/muiu9mtvax8ixXcGpJCvV-PizibLmquVACLcB/s1600/%25D9%2585%25D8%25AD%25D9%2584%25D8%25A7%25D8%25AA%2B%25D8%25A8%25D8%25BA%25D8%25AF%25D8%25A7%25D8%25AF.jpg", "type": "boundary", "wikidata": "Q1530", "wikipedia": "ar:\u0628\u063a\u062f\u0627\u062f"}}]}