{"version": 0.6, "generator": "Overpass API 0.7.61.5 4133829e", "osm3s": {"timestamp_osm_base": "2024-03-06T11:04:23Z", "copyright": "The data included in this document is from www.openstreetmap.org. The data is made available under ODbL."}, "elements": [{"type": "node", "id": 10829777190, "lat": -2.0544579, "lon": 35.5645905, "tags": {"addr:city": "Arusha", "addr:district": "Ngorongoro District Council", "addr:subward": "Wasso", "addr:ward": "Orgosorok", "amenity": "school", "isced:level": "1", "name": "Shule ya Msingi Wasso", "name:en": "Wasso Primary School", "name:sw": "Shule ya Msingi Wasso", "operator:type": "government", "source": "WFP Primary Schools Feeding Program Survey, 2023 by OMDTZ"}}, {"type": "node", "id": 10829777193, "lat": -1.9583325, "lon": 35.5124584, "tags": {"addr:city": "Arusha", "addr:district": "Ngorongoro District Council", "addr:subward": "Sukenya", "addr:ward": "Oloipiri", "amenity": "school", "isced:level": "1", "name": "Shule ya Msingi Sukenya", "name:en": "Sukenya Primary School", "name:sw": "Shule ya Msingi Sukenya", "operator:type": "government", "source": "WFP Primary Schools Feeding Program Survey, 2023 by OMDTZ"}}, {"type": "node", "id": 10829777194, "lat": -1.9081159, "lon": 35.4230396, "tags": {"addr:city": "Arusha", "addr:district": "Ngorongoro District Council", "addr:subward": "Soitsambu", "addr:ward": "Soitsambu", "amenity": "school", "isced:level": "1", "name": "Shule ya Msingi Soitsambu", "name:en": "Soitsambu Primary School", "name:sw": "Shule ya Msingi Soitsambu", "operator:type": "government", "source": "WFP Primary Schools Feeding Program Survey, 2023 by OMDTZ"}}, {"type": "node", "id": 10829777198, "lat": -2.0609769, "lon": 35.6052011, "tags": {"addr:city": "Arusha", "addr:district": "Ngorongoro District Council", "addr:subward": "Sakala", "addr:ward": "Orgosorok", "amenity": "school", "isced:level": "1", "name": "Shule ya Msingi Sakala", "name:en": "Sakala Primary School", "name:sw": "Shule ya Msingi Sakala", "operator:type": "government", "source": "WFP Primary Schools Feeding Program Survey, 2023 by OMDTZ"}}, {"type": "node", "id": 10829777204, "lat": -2.0234973, "lon": 35.6210252, "tags": {"addr:city": "Arusha", "addr:district": "Ngorongoro District Council", "addr:subward": "Orkiu Juu", "addr:ward": "Enguserosambu", "amenity": "school", "isced:level": "1", "name": "Shule ya Msingi Orkiu", "name:en": "Orkiu Primary School", "name:sw": "Shule ya Msingi Orkiu", "operator:type": "government", "source": "WFP Primary Schools Feeding Program Survey, 2023 by OMDTZ"}}, {"type": "node", "id": 10829777206, "lat": -1.8751066, "lon": 35.33758, "tags": {"addr:city": "Arusha", "addr:district": "Ngorongoro District Council", "addr:subward": "Ololosokwani", "addr:ward": "Ololosokwan", "amenity": "school", "isced:level": "1", "name": "Shule ya Msingi Ololosokwani", "name:en": "Ololosokwani Primary School", "name:sw": "Shule ya Msingi Ololosokwani", "operator:type": "government", "source": "WFP Primary Schools Feeding Program Survey, 2023 by OMDTZ"}}, {"type": "node", "id": 10829777208, "lat": -2.0450686, "lon": 35.4358936, "tags": {"addr:city": "Arusha", "addr:district": "Ngorongoro District Council", "addr:subward": "Oloipiri", "addr:ward": "Oloipiri", "amenity": "school", "isced:level": "1", "name": "Shule ya Msingi Oloipiri", "name:en": "Oloipiri Primary School", "name:sw": "Shule ya Msingi Oloipiri", "operator:type": "government", "source": "WFP Primary Schools Feeding Program Survey, 2023 by OMDTZ"}}, {"type": "node", "id": 10829777216, "lat": -2.0590579, "lon": 35.6565871, "tags": {"addr:city": "Arusha", "addr:district": "Ngorongoro District Council", "addr:subward": "Ng'Arwa", "addr:ward": "Enguserosambu", "amenity": "school", "isced:level": "1", "name": "Shule ya Msingi Ng'arwa", "name:en": "Ng'arwa Primary School", "name:sw": "Shule ya Msingi Ng'arwa", "operator:type": "government", "source": "WFP Primary Schools Feeding Program Survey, 2023 by OMDTZ"}}, {"type": "node", "id": 10829777223, "lat": -1.8993057, "lon": 35.4915504, "tags": {"addr:city": "Arusha", "addr:district": "Ngorongoro District Council", "addr:subward": "Mondorosi", "addr:ward": "Soitsambu", "amenity": "school", "isced:level": "1", "name": "Shule ya Msingi Mondorosi", "name:en": "Mondorosi Primary School", "name:sw": "Shule ya Msingi Mondorosi", "operator:type": "government", "source": "WFP Primary Schools Feeding Program Survey, 2023 by OMDTZ"}}, {"type": "node", "id": 10829777226, "lat": -2.1609748, "lon": 35.6687855, "tags": {"addr:city": "Arusha", "addr:district": "Ngorongoro District Council", "addr:subward": "Mgongo", "addr:ward": "Samunge", "amenity": "school", "isced:level": "1", "name": "Shule ya Msingi Mgongo", "name:en": "Mgongo Primary School", "name:sw": "Shule ya Msingi Mgongo", "operator:type": "government", "source": "WFP Primary Schools Feeding Program Survey, 2023 by OMDTZ"}}, {"type": "node", "id": 10829777227, "lat": -2.2240913, "lon": 35.6785468, "tags": {"addr:city": "Arusha", "addr:district": "Ngorongoro District Council", "addr:subward": "Yasimdito", "addr:ward": "Samunge", "amenity": "school", "isced:level": "1", "name": "Shule ya Msingi Mdito", "name:en": "Mdito Primary School", "name:sw": "Shule ya Msingi Mdito", "operator:type": "government", "source": "WFP Primary Schools Feeding Program Survey, 2023 by OMDTZ"}}, {"type": "node", "id": 10829777230, "lat": -2.0841273, "lon": 35.5424685, "tags": {"addr:city": "Arusha", "addr:district": "Ngorongoro District Council", "addr:subward": "Lopolon", "addr:ward": "Olorien/Magaiduru", "amenity": "school", "isced:level": "1", "name": "Shule ya Msingi Mama Sara", "name:en": "Mama Sara Primary School", "name:sw": "Shule ya Msingi Mama Sara", "operator:type": "government", "source": "WFP Primary Schools Feeding Program Survey, 2023 by OMDTZ"}}, {"type": "node", "id": 10829777233, "lat": -1.8702476, "lon": 35.3701957, "tags": {"addr:city": "Arusha", "addr:district": "Ngorongoro District Council", "addr:subward": "Ololosokwani", "addr:ward": "Ololosokwan", "amenity": "school", "isced:level": "1", "name": "Shule ya Msingi Mairowa", "name:en": "Mairowa Primary School", "name:sw": "Shule ya Msingi Mairowa", "operator:type": "government", "source": "WFP Primary Schools Feeding Program Survey, 2023 by OMDTZ"}}, {"type": "node", "id": 10829777238, "lat": -2.0527553, "lon": 35.6239591, "tags": {"addr:city": "Arusha", "addr:district": "Ngorongoro District Council", "addr:subward": "Loliondo", "addr:ward": "Orgosorok", "amenity": "school", "isced:level": "1", "name": "Shule ya Msingi Loliondo", "name:en": "Loliondo Primary School", "name:sw": "Shule ya Msingi Loliondo", "operator:type": "government", "source": "WFP Primary Schools Feeding Program Survey, 2023 by OMDTZ"}}, {"type": "node", "id": 10829777239, "lat": -2.0946275, "lon": 35.6325661, "tags": {"addr:city": "Arusha", "addr:district": "Ngorongoro District Council", "addr:subward": "Magaiduru", "addr:ward": "Olorien/Magaiduru", "amenity": "school", "isced:level": "1", "name": "Shule ya Msingi Loirien", "name:en": "Loirien Primary School", "name:sw": "Shule ya Msingi Loirien", "operator:type": "government", "source": "WFP Primary Schools Feeding Program Survey, 2023 by OMDTZ"}}, {"type": "node", "id": 10829777240, "lat": -2.1299294, "lon": 35.5786119, "tags": {"addr:city": "Arusha", "addr:district": "Ngorongoro District Council", "addr:subward": "Oloirien", "addr:ward": "Olorien/Magaiduru", "amenity": "school", "isced:level": "1", "name": "Shule ya Msingi Lemishiri", "name:en": "Lemishiri Primary School", "name:sw": "Shule ya Msingi Lemishiri", "operator:type": "government", "source": "WFP Primary Schools Feeding Program Survey, 2023 by OMDTZ"}}, {"type": "node", "id": 10829777242, "lat": -1.960629, "lon": 35.3634118, "tags": {"addr:city": "Arusha", "addr:district": "Ngorongoro District Council", "addr:subward": "Kirtalo", "addr:ward": "Soitsambu", "amenity": "school", "isced:level": "1", "name": "Shule ya Msingi Kirtalo", "name:en": "Kirtalo Primary School", "name:sw": "Shule ya Msingi Kirtalo", "operator:type": "government", "source": "WFP Primary Schools Feeding Program Survey, 2023 by OMDTZ"}}, {"type": "node", "id": 10829777252, "lat": -1.982381, "lon": 35.6653681, "tags": {"addr:city": "Arusha", "addr:district": "Ngorongoro District Council", "addr:subward": "Enguserosambu", "addr:ward": "Enguserosambu", "amenity": "school", "isced:level": "1", "name": "Shule ya Msingi Enguserosambu", "name:en": "Enguserosambu Primary School", "name:sw": "Shule ya Msingi Enguserosambu", "operator:type": "government", "source": "WFP Primary Schools Feeding Program Survey, 2023 by OMDTZ"}}, {"type": "node", "id": 10829777257, "lat": -2.0270533, "lon": 35.4819832, "tags": {"addr:city": "Arusha", "addr:district": "Ngorongoro District Council", "addr:subward": "Orkuyaine", "addr:ward": "Oloipiri", "amenity": "school", "isced:level": "1", "name": "Shule ya Msingi Christopher Halollan", "name:en": "Christopher Halollan Primary School", "name:sw": "Shule ya Msingi Christopher Halollan", "operator:type": "government", "source": "WFP Primary Schools Feeding Program Survey, 2023 by OMDTZ"}}]}