{"version": 0.6, "generator": "Overpass API 0.7.61.5 4133829e", "osm3s": {"timestamp_osm_base": "2024-02-29T13:47:24Z", "copyright": "The data included in this document is from www.openstreetmap.org. The data is made available under ODbL."}, "elements": [{"type": "node", "id": 6535915961, "lat": 8.6571209, "lon": -1.5247632, "tags": {"amenity": "school", "name": "Kadelso L.A School"}}, {"type": "node", "id": 6535929428, "lat": 8.8106824, "lon": -1.4660903, "tags": {"amenity": "school"}}, {"type": "node", "id": 6535958165, "lat": 8.5901416, "lon": -1.5561125, "tags": {"amenity": "school"}}, {"type": "node", "id": 9524975121, "lat": 8.8223774, "lon": -1.4487469}, {"type": "node", "id": 9524975122, "lat": 8.8191756, "lon": -1.450882}, {"type": "node", "id": 9524975123, "lat": 8.8182532, "lon": -1.4531994}, {"type": "node", "id": 9524975124, "lat": 8.8190696, "lon": -1.4540577}, {"type": "node", "id": 9524975125, "lat": 8.8217413, "lon": -1.4550769}, {"type": "node", "id": 9524975126, "lat": 8.824996, "lon": -1.4530921}, {"type": "node", "id": 9525357997, "lat": 8.8036434, "lon": -1.4881861}, {"type": "node", "id": 9525357998, "lat": 8.8043961, "lon": -1.4870381}, {"type": "node", "id": 9525357999, "lat": 8.8041417, "lon": -1.4811909}, {"type": "node", "id": 9525358000, "lat": 8.8026944, "lon": -1.4812177}, {"type": "node", "id": 9525358001, "lat": 8.8000199, "lon": -1.4818883}, {"type": "node", "id": 9525358002, "lat": 8.8001551, "lon": -1.4822423}, {"type": "node", "id": 9525358003, "lat": 8.8006853, "lon": -1.4862067}, {"type": "node", "id": 9525358004, "lat": 8.8005898, "lon": -1.4866144}, {"type": "node", "id": 9525358005, "lat": 8.7998477, "lon": -1.4875853}, {"type": "way", "id": 1033909311, "nodes": [9524975126, 9524975125, 9524975124, 9524975123, 9524975122, 9524975121, 9524975126], "tags": {"addr:country": "GH", "addr:district": "Central Gonja", "addr:place": "Buipe", "addr:region": "Savannah", "amenity": "school", "description": "The school was established in 2011 through the efforts of the Central Gonja District Assembly, the Traditional Authority, and the District Education Directorate. It was absorbed by Government as a Public school in the 2015/2016 academic year.", "email": "buipeshs@ges.gov.gh", "isced:level": "3", "name": "Buipe Senior High School", "operator": "Ghana Education Service", "operator:short": "GES", "operator:type": "public", "operator:wikidata": "Q30263788", "phone": "+233 24 561 3701;+233 50 520 2416", "start_date": "2011"}}, {"type": "way", "id": 1033956524, "nodes": [9525358005, 9525358004, 9525358003, 9525358002, 9525358001, 9525358000, 9525357999, 9525357998, 9525357997, 9525358005], "tags": {"addr:country": "GH", "addr:district": "Central Gonja", "addr:place": "Buipe", "addr:region": "Savannah", "alt_name": "Buipe Technical/Vocational Institute", "amenity": "school", "description": "It is a mixed school that runs both Vocational and Technical courses.", "email": "buipetechvocinst@ges.gov.gh", "isced:level": "3", "name": "Buipe Technical/Vocational Senior High School", "operator": "Ghana Education Service", "operator:short": "GES", "operator:type": "public", "operator:wikidata": "Q30263788", "phone": "+233 50 596 0821", "start_date": "2012"}}]}