{"version": 0.6, "generator": "Overpass API 0.7.61.5 4133829e", "osm3s": {"timestamp_osm_base": "2024-03-06T11:11:30Z", "copyright": "The data included in this document is from www.openstreetmap.org. The data is made available under ODbL."}, "elements": [{"type": "node", "id": 2486359355, "lat": 33.7161766, "lon": 44.6121534, "tags": {"alt_name": "\u0645\u0633\u062a\u0634\u0641\u0649 \u0627\u0644\u0623\u0645\u0631\u0627\u0636 \u0627\u0644\u0635\u062f\u0631\u064a\u0629", "amenity": "hospital", "int_name": "Mustashf\u00e1 al Amr\u0101\u1e11 a\u015f \u015eadr\u012byah, \u0645\u0633\u062a\u0634\u0641\u0649 \u0627\u0644\u0627\u0645\u0631\u0627\u0636 \u0627\u0644\u0635\u062f\u0631\u064a\u0629, Mustashfa al Amrad as Sadriyah, \u0645\u0633\u062a\u0634\u0641\u0649 \u0627\u0644\u0627\u0645\u0631\u0627\u0636 \u0627\u0644\u0635\u062f\u0631\u064a\u0629", "name": "\u0645\u0633\u062a\u0634\u0641\u0649 \u0627\u0644\u0623\u0645\u0631\u0627\u0636 \u0627\u0644\u0635\u062f\u0631\u064a\u0629", "name:ar": "\u0645\u0633\u062a\u0634\u0641\u0649 \u0627\u0644\u0623\u0645\u0631\u0627\u0636 \u0627\u0644\u0635\u062f\u0631\u064a\u0629", "name:ar1": "\u0645\u0633\u062a\u0634\u0641\u0649 \u0627\u0644\u0623\u0645\u0631\u0627\u0636 \u0627\u0644\u0635\u062f\u0631\u064a\u0629", "name:de": "Mustashfa al Amrad as Sadriyah", "name:en": "Mustashfa al Amrad as Sadriyah", "name:fr": "Mustashfa al Amrad as Sadriyah"}}, {"type": "node", "id": 3902830006, "lat": 33.7171391, "lon": 44.6130368}, {"type": "node", "id": 3902830007, "lat": 33.7171631, "lon": 44.6129888}, {"type": "node", "id": 3902830008, "lat": 33.717207, "lon": 44.6123886}, {"type": "node", "id": 3902830009, "lat": 33.7169993, "lon": 44.6122062}, {"type": "node", "id": 3902830010, "lat": 33.7170393, "lon": 44.6112507}, {"type": "node", "id": 3902830011, "lat": 33.7156934, "lon": 44.6112027}, {"type": "node", "id": 3902830012, "lat": 33.7155856, "lon": 44.6129024}, {"type": "node", "id": 3902830013, "lat": 33.7155975, "lon": 44.6129648}, {"type": "node", "id": 4381244092, "lat": 33.748138, "lon": 44.6213871, "tags": {"addr:street": "\u0634\u0627\u0631\u0639 \u0627\u0644\u0645\u0633\u062a\u0634\u0641\u0649", "amenity": "hospital", "name": "\u0645\u0633\u062a\u0634\u0641\u0649 \u0628\u0639\u0642\u0648\u0628\u0629 \u0627\u0644\u0639\u0627\u0645", "name:ar": "\u0645\u0633\u062a\u0634\u0641\u0649 \u0628\u0639\u0642\u0648\u0628\u0629 \u0627\u0644\u0639\u0627\u0645", "name:en": "Baqubah Public Hospital", "opening_hours": "24/7"}}, {"type": "node", "id": 4508457189, "lat": 33.6951115, "lon": 45.0722348, "tags": {"amenity": "hospital"}}, {"type": "node", "id": 4527460310, "lat": 33.6930927, "lon": 45.0703678, "tags": {"addr:city": "\u062f\u064a\u0627\u0644\u0649", "addr:country": "IQ", "amenity": "hospital", "name": "\u0645\u0633\u062a\u0634\u0641\u0649 \u0628\u0644\u062f\u0631\u0648\u0632 \u0627\u0644\u0639\u0627\u0645", "name:en": "Baladruz General Hospital"}}, {"type": "node", "id": 4535242396, "lat": 33.7473787, "lon": 44.6299315, "tags": {"addr:street": "Al Tapo street", "amenity": "hospital", "name": "\u0645\u0633\u062a\u0634\u0641\u0649 \u0627\u0644\u0628\u062a\u0648\u0644", "name:ar": "\u0645\u0633\u062a\u0634\u0641\u0649 \u0627\u0644\u0628\u062a\u0648\u0644", "opening_hours": "24/7"}}, {"type": "node", "id": 5226431223, "lat": 33.7528912, "lon": 44.6240086, "tags": {"amenity": "hospital", "name": "\u0639\u064a\u0627\u062f\u0629 \u0627\u0644\u0627\u0645\u0644 \u0627\u0644\u062c\u0631\u0627\u062d\u064a\u0629", "phone": "07737905666"}}, {"type": "node", "id": 5859074287, "lat": 33.7355551, "lon": 44.64261, "tags": {"amenity": "hospital", "name": "\u0645\u0633\u062a\u0634\u0641\u0649 \u0627\u0644\u062d\u064a\u0627\u0629 \u0627\u0644\u0627\u0647\u0644\u064a"}}, {"type": "node", "id": 6106829885, "lat": 33.74877, "lon": 44.6216278, "tags": {"amenity": "hospital", "name": "\u0639\u064a\u0627\u062f\u0629 \u0627\u0644\u062f\u0643\u062a\u0648\u0631 \u0641\u0631\u0627\u0633 \u062c\u0627\u0633\u0645 \u0627\u0644\u0639\u0628\u064a\u062f\u064a \u0627\u062e\u062a\u0635\u0627\u0635 \u0627\u0644\u0623\u0646\u0641 \u0648\u0627\u0644\u0623\u0630\u0646 \u0648\u0627\u0644\u062d\u0646\u062c\u0631\u0629 \u0648\u062c\u0631\u0627\u062d\u0629 \u0627\u0644\u062c\u064a\u0648\u0628 \u0627\u0644\u0645\u0646\u0638\u0627\u0631\u064a\u0629", "opening_hours": "Mo-Su 15:00-19:00", "phone": "07815408179"}}, {"type": "node", "id": 6423368185, "lat": 33.7301439, "lon": 44.8848544, "tags": {"amenity": "hospital", "name": "\u0645\u0631\u0643\u0632 \u0635\u062d\u064a \u0627\u0644\u0627\u0645\u0627\u0645 \u0639\u0648\u0646 \u0628\u0646 \u0639\u0628\u062f \u0627\u0644\u0644\u0647"}}, {"type": "node", "id": 7027181285, "lat": 33.6931125, "lon": 45.0703303, "tags": {"amenity": "hospital", "name": "\u0645\u0633\u062a\u0634\u0641\u0649 \u0628\u0644\u062f\u0631\u0648\u0632 \u0627\u0644\u0639\u0627\u0645", "name:en": "Baladruz General Hospital", "opening_hours": "24/7"}}, {"type": "node", "id": 7812718202, "lat": 33.771196, "lon": 44.5548875, "tags": {"amenity": "hospital", "healthcare": "hospital", "name": "\u0627\u0644\u0645\u0631\u0643\u0632 \u0627\u0644\u0635\u062d\u064a \u0641\u064a \u0627\u0644\u062d\u062f\u064a\u062f"}}, {"type": "node", "id": 8918746004, "lat": 33.7500753, "lon": 44.6335083, "tags": {"amenity": "hospital", "name:en": "BAQUBAH HOSPITAL CHEST DISEASES"}}, {"type": "node", "id": 8918746006, "lat": 33.7611942, "lon": 44.6895745, "tags": {"amenity": "hospital", "name:en": "BAQUBAH HOSPITAL MILITARY"}}, {"type": "node", "id": 8918746007, "lat": 33.7482376, "lon": 44.629882, "tags": {"amenity": "hospital", "name:en": "BAQUBAH HOSPITAL GENERAL"}}, {"type": "node", "id": 9218152517, "lat": 33.7452855, "lon": 44.6443962, "tags": {"amenity": "hospital", "name": "\u0645\u0633\u062a\u0634\u0641\u0649 \u0627\u0644\u0634\u0641\u0627\u0621 \u0627\u0644\u0627\u0647\u0644\u064a", "name:en": "Al shafa hospital"}}, {"type": "way", "id": 386931134, "nodes": [3902830006, 3902830007, 3902830008, 3902830009, 3902830010, 3902830011, 3902830012, 3902830013, 3902830006], "tags": {"amenity": "hospital"}}]}