{"version": 0.6, "generator": "Overpass API 0.7.61.5 4133829e", "osm3s": {"timestamp_osm_base": "2024-03-06T11:08:30Z", "copyright": "The data included in this document is from www.openstreetmap.org. The data is made available under ODbL."}, "elements": [{"type": "node", "id": 2483751029, "lat": 31.7260603, "lon": 44.9602092, "tags": {"alt_name": "\u0625\u0645\u0627\u0645 \u0627\u0644\u062d\u0645\u0632\u0629", "amenity": "doctors", "int_name": "Im\u0101m al \u1e28amzah, \u0627\u0645\u0627\u0645 \u0627\u0644\u062d\u0645\u0632\u0629, Imam al Hamzah, \u0627\u0645\u0627\u0645 \u0627\u0644\u062d\u0645\u0632\u0629", "is_in": "Iraq , \u062c\u0645\u0647\u0648\u0631\u064a\u0629 \u0627\u0644\u0639\u0631\u0627\u0642", "name": "\u0627\u0644\u062d\u0645\u0632\u0629 \u0627\u0644\u0634\u0631\u0642\u064a", "name:ar": "\u0625\u0645\u0627\u0645 \u0627\u0644\u062d\u0645\u0632\u0629", "name:ar1": "\u0625\u0645\u0627\u0645 \u0627\u0644\u062d\u0645\u0632\u0629", "name:de": "Imam al Hamzah", "name:en": "Imam al Hamzah", "name:fr": "Imam al Hamzah"}}, {"type": "node", "id": 2485433819, "lat": 32.030246, "lon": 44.629664, "tags": {"alt_name": "\u0645\u0633\u062a\u0648\u0635\u0641 \u0627\u0644\u0637\u062d\u064a\u0646\u064a\u0629", "amenity": "hospital", "int_name": "Mustaw\u015faf a\u0163 \u0162a\u1e29\u012bn\u012byah, \u0645\u0633\u062a\u0648\u0635\u0641 \u0627\u0644\u0637\u062d\u064a\u0646\u064a\u0629, Mustawsaf at Tahiniyah, \u0645\u0633\u062a\u0648\u0635\u0641 \u0627\u0644\u0637\u062d\u064a\u0646\u064a\u0629", "is_in": "Iraq , \u062c\u0645\u0647\u0648\u0631\u064a\u0629 \u0627\u0644\u0639\u0631\u0627\u0642", "name": "\u0645\u0633\u062a\u0648\u0635\u0641 \u0627\u0644\u0637\u062d\u064a\u0646\u064a\u0629", "name:ar": "\u0645\u0633\u062a\u0648\u0635\u0641 \u0627\u0644\u0637\u062d\u064a\u0646\u064a\u0629", "name:ar1": "\u0645\u0633\u062a\u0648\u0635\u0641 \u0627\u0644\u0637\u062d\u064a\u0646\u064a\u0629", "name:de": "Mustawsaf at Tahiniyah", "name:en": "Mustawsaf at Tahiniyah", "name:fr": "Mustawsaf at Tahiniyah"}}, {"type": "node", "id": 2485457661, "lat": 32.011855, "lon": 44.583708, "tags": {"alt_name": "\u0645\u0633\u062a\u0648\u0635\u0641 \u0627\u0644\u062d\u062c\u0627\u0632\u064a\u0629", "amenity": "hospital", "int_name": "Mustaw\u015faf al \u1e28ij\u0101z\u012byah, \u0645\u0633\u062a\u0648\u0635\u0641 \u0627\u0644\u062d\u062c\u0627\u0632\u064a\u0629, Mustawsaf al Hijaziyah, \u0645\u0633\u062a\u0648\u0635\u0641 \u0627\u0644\u062d\u062c\u0627\u0632\u064a\u0629", "is_in": "Iraq , \u062c\u0645\u0647\u0648\u0631\u064a\u0629 \u0627\u0644\u0639\u0631\u0627\u0642", "name": "\u0645\u0633\u062a\u0648\u0635\u0641 \u0627\u0644\u062d\u062c\u0627\u0632\u064a\u0629", "name:ar": "\u0645\u0633\u062a\u0648\u0635\u0641 \u0627\u0644\u062d\u062c\u0627\u0632\u064a\u0629", "name:ar1": "\u0645\u0633\u062a\u0648\u0635\u0641 \u0627\u0644\u062d\u062c\u0627\u0632\u064a\u0629", "name:de": "Mustawsaf al Hijaziyah", "name:en": "Mustawsaf al Hijaziyah", "name:fr": "Mustawsaf al Hijaziyah"}}, {"type": "node", "id": 2485457666, "lat": 32.085525, "lon": 44.623489, "tags": {"alt_name": "\u0645\u0633\u062a\u0648\u0635\u0641 \u0627\u0644\u0635\u0644\u064a\u062c\u064a\u0629 \u0627\u0644\u062c\u0645\u0647\u0648\u0631\u064a", "amenity": "hospital", "int_name": "Mustaw\u015faf a\u015f \u015eal\u012bj\u012byah al Jumh\u016br\u012b, \u0645\u0633\u062a\u0648\u0635\u0641 \u0627\u0644\u0635\u0644\u064a\u062c\u064a\u0629 \u0627\u0644\u062c\u0645\u0647\u0648\u0631\u064a, Mustawsaf as Salijiyah al Jumhuri, \u0645\u0633\u062a\u0648\u0635\u0641 \u0627\u0644\u0635\u0644\u064a\u062c\u064a\u0629 \u0627\u0644\u062c\u0645\u0647\u0648\u0631\u064a", "is_in": "Iraq , \u062c\u0645\u0647\u0648\u0631\u064a\u0629 \u0627\u0644\u0639\u0631\u0627\u0642", "name": "\u0645\u0633\u062a\u0648\u0635\u0641 \u0627\u0644\u0635\u0644\u064a\u062c\u064a\u0629 \u0627\u0644\u062c\u0645\u0647\u0648\u0631\u064a", "name:ar": "\u0645\u0633\u062a\u0648\u0635\u0641 \u0627\u0644\u0635\u0644\u064a\u062c\u064a\u0629 \u0627\u0644\u062c\u0645\u0647\u0648\u0631\u064a", "name:ar1": "\u0645\u0633\u062a\u0648\u0635\u0641 \u0627\u0644\u0635\u0644\u064a\u062c\u064a\u0629 \u0627\u0644\u062c\u0645\u0647\u0648\u0631\u064a", "name:de": "Mustawsaf as Salijiyah al Jumhuri", "name:en": "Mustawsaf as Salijiyah al Jumhuri", "name:fr": "Mustawsaf as Salijiyah al Jumhuri"}}, {"type": "node", "id": 2485461729, "lat": 31.95226, "lon": 44.581917, "tags": {"alt_name": "\u0645\u0633\u062a\u0634\u0641\u0649 \u0627\u0644\u0634\u0627\u0645\u064a\u0629", "amenity": "hospital", "int_name": "Mustashf\u00e1 ash Sh\u0101m\u012byah, \u0645\u0633\u062a\u0634\u0641\u0649 \u0627\u0644\u0634\u0627\u0645\u064a\u0629, Mustashfa ash Shamiyah, \u0645\u0633\u062a\u0634\u0641\u0649 \u0627\u0644\u0634\u0627\u0645\u064a\u0629", "is_in": "Iraq , \u062c\u0645\u0647\u0648\u0631\u064a\u0629 \u0627\u0644\u0639\u0631\u0627\u0642", "name": "\u0645\u0633\u062a\u0634\u0641\u0649 \u0627\u0644\u0634\u0627\u0645\u064a\u0629", "name:ar": "\u0645\u0633\u062a\u0634\u0641\u0649 \u0627\u0644\u0634\u0627\u0645\u064a\u0629", "name:ar1": "\u0645\u0633\u062a\u0634\u0641\u0649 \u0627\u0644\u0634\u0627\u0645\u064a\u0629", "name:de": "Mustashfa ash Shamiyah", "name:en": "Mustashfa ash Shamiyah", "name:fr": "Mustashfa ash Shamiyah"}}, {"type": "node", "id": 4420124691, "lat": 32.0093504, "lon": 44.9154149, "tags": {"amenity": "hospital", "name": "\u0645\u0633\u062a\u0634\u0641\u0649 \u0627\u0644\u062f\u064a\u0648\u0627\u0646\u064a\u0629 \u0627\u0644\u062a\u0639\u0644\u064a\u0645\u064a", "name:ar": "\u0645\u0633\u062a\u0634\u0641\u0649 \u0627\u0644\u062f\u064a\u0648\u0627\u0646\u064a\u0629 \u0627\u0644\u062a\u0639\u0644\u064a\u0645\u064a"}}, {"type": "node", "id": 4420899490, "lat": 32.0170914, "lon": 44.9069805, "tags": {"amenity": "hospital", "name": "\u0645\u0633\u062a\u0648\u0635\u0641 \u062d\u064a \u0627\u0644\u0641\u0631\u0627\u062a", "name:ar": "\u0645\u0633\u062a\u0648\u0635\u0641 \u062d\u064a \u0627\u0644\u0641\u0631\u0627\u062a"}}, {"type": "node", "id": 4448581990, "lat": 32.0068274, "lon": 44.9154291, "tags": {"addr:city": "\u0627\u0644\u062f\u064a\u0648\u0627\u0646\u064a\u0629", "addr:country": "IQ", "addr:street": "\u0627\u0628\u0646 \u0627\u0644\u0643\u0627\u0638\u0645", "amenity": "hospital", "name": "\u0645\u0633\u062a\u0634\u0641\u0649 \u0627\u0644\u062f\u064a\u0648\u0627\u0646\u064a\u0629 \u0627\u0644\u0639\u0627\u0645", "name:en": "Al-Dewaniyah Hospital"}}, {"type": "node", "id": 4448987193, "lat": 31.996757, "lon": 44.9249092, "tags": {"addr:street": "\u0634\u0627\u0631\u0639 \u0627\u0644\u0648\u0643\u0641\u0647 \u0627\u0644\u0642\u062f\u064a\u0645\u0647", "amenity": "doctors", "name": "\u0645\u0633\u0648\u0635\u0641 \u062d\u064a \u0627\u0644\u062c\u0645\u0647\u0648\u0631\u064a", "name:ar": "\u0645\u0633\u0648\u0635\u0641 \u062d\u064a \u0627\u0644\u062c\u0645\u0647\u0648\u0631\u064a", "name:en": "Al jomhury clinic", "opening_hours": "Sa-Th 08:00-14:00"}}, {"type": "node", "id": 4449012493, "lat": 31.9954356, "lon": 44.909077, "tags": {"addr:street": "\u0634\u0627\u0631\u0639 \u0627\u0644\u0643\u0648\u0631\u0646\u064a\u0634", "amenity": "hospital", "name": "\u0645\u0633\u062a\u0634\u0641\u0649 \u0627\u0644\u0641\u0631\u0627\u062a \u0627\u0644\u0623\u0648\u0633\u0637", "name:ar": "\u0645\u0633\u062a\u0634\u0641\u0649 \u0627\u0644\u0641\u0631\u0627\u062a \u0627\u0644\u0623\u0648\u0633\u0637", "name:en": "Middle Euphrates hospital"}}, {"type": "node", "id": 4488395134, "lat": 31.9897333, "lon": 44.9265957, "tags": {"amenity": "doctors", "name": "\u0643\u0644\u064a\u0647 \u0627\u0644\u0637\u0628 \u0627\u0644\u0642\u0627\u062f\u0633\u064a\u0647", "name:ar": "\u0634\u0627\u0631\u0639 \u0627\u0644\u062a\u0627\u064a\u0631\u0627\u062a"}}, {"type": "node", "id": 4676678891, "lat": 31.983458, "lon": 44.9205136, "tags": {"amenity": "clinic", "name": "\u0634\u0627\u0631\u0639 \u0627\u0644\u0627\u0637\u0628\u0627\u0621", "name:ar": "\u0634\u0627\u0631\u0639 \u0627\u0644\u0627\u0637\u0628\u0627\u0621"}}, {"type": "node", "id": 4678490103, "lat": 31.9947276, "lon": 44.9013513, "tags": {"amenity": "pharmacy", "name": "\u0631\u0648\u0636\u0629 \u0627\u0644\u062f\u064a\u0648\u0627\u0646\u064a\u0629", "name:ar": "\u0631\u0648\u0636\u0629 \u0627\u0644\u062f\u064a\u0648\u0627\u0646\u064a\u0629"}}, {"type": "node", "id": 4678535298, "lat": 32.0008442, "lon": 44.901798, "tags": {"amenity": "pharmacy", "name": "\u0635\u064a\u062f\u0644\u064a\u0629", "name:ar": "\u0635\u064a\u062f\u0644\u064a\u0629"}}, {"type": "node", "id": 4678543089, "lat": 31.9953266, "lon": 44.9085168, "tags": {"amenity": "pharmacy", "name": "\u0635\u064a\u062f\u0644\u064a\u0629 \u0627\u0644\u0641\u0631\u0627\u062a", "name:ar": "\u0635\u064a\u062f\u0644\u064a\u0629 \u0627\u0644\u0641\u0631\u0627\u062a"}}, {"type": "node", "id": 4678591189, "lat": 31.9801266, "lon": 44.9028855, "tags": {"amenity": "pharmacy", "name": "\u0635\u064a\u062f\u0644\u064a\u0629 \u062d\u062c\u064a \u0627\u0645\u064a\u0646", "name:ar": "\u0635\u064a\u062f\u0644\u064a\u0629 \u062d\u062c\u064a \u0627\u0645\u064a\u0646"}}, {"type": "node", "id": 4679018589, "lat": 31.9931918, "lon": 44.9117466, "tags": {"amenity": "hospital", "name": "\u0645\u0635\u0631\u0641 \u0627\u0644\u062f\u0645", "name:ar": "\u0645\u0635\u0631\u0641 \u0627\u0644\u062f\u0645"}}, {"type": "node", "id": 4679023491, "lat": 31.9888943, "lon": 44.9054284, "tags": {"amenity": "pharmacy", "name": "\u0635\u064a\u062f\u0644\u064a\u0629 \u0639\u0627\u0644\u0645 \u0627\u0644\u062f\u0648\u0627\u0621", "name:ar": "\u0635\u064a\u062f\u0644\u064a\u0629 \u0639\u0627\u0644\u0645 \u0627\u0644\u062f\u0648\u0627\u0621"}}, {"type": "node", "id": 4679139303, "lat": 31.9957387, "lon": 44.9017559, "tags": {"amenity": "pharmacy", "name": "\u0635\u064a\u062f\u0644\u064a\u0629 \u0628\u062d\u0631 \u0627\u0644\u062f\u0648\u0627\u0621", "name:ar": "\u0635\u064a\u062f\u0644\u064a\u0629 \u0628\u062d\u0631 \u0627\u0644\u062f\u0648\u0627\u0621"}}, {"type": "node", "id": 4679495291, "lat": 31.9908001, "lon": 44.8986171, "tags": {"amenity": "pharmacy", "name": "\u0635\u064a\u062f\u0644\u064a\u0629 \u0631\u064a\u062d\u0627\u0646\u0629", "name:ar": "\u0635\u064a\u062f\u0644\u064a\u0629 \u0631\u064a\u062d\u0627\u0646\u0629"}}, {"type": "node", "id": 4679742889, "lat": 31.9803706, "lon": 44.9298113, "tags": {"amenity": "hospital", "name": "\u0645\u0633\u062a\u0634\u0641\u0649 \u0627\u0644\u062d\u0631\u0648\u0642", "name:ar": "\u0645\u0633\u062a\u0634\u0641\u0649 \u0627\u0644\u062d\u0631\u0648\u0642"}}, {"type": "node", "id": 4679755089, "lat": 31.9781267, "lon": 44.9277808, "tags": {"amenity": "hospital", "name": "\u0645\u0631\u0643\u0632 \u0642\u0633\u0637\u0631\u0629 \u0648\u062c\u0631\u0627\u062d\u0629 \u0627\u0644\u0642\u0644\u0628 \u0641\u064a \u0627\u0644\u062f\u064a\u0648\u0627\u0646\u064a\u0629", "name:ar": "\u0645\u0631\u0643\u0632 \u0642\u0633\u0637\u0631\u0629 \u0648\u062c\u0631\u0627\u062d\u0629 \u0627\u0644\u0642\u0644\u0628 \u0641\u064a \u0627\u0644\u062f\u064a\u0648\u0627\u0646\u064a\u0629"}}, {"type": "node", "id": 4680083090, "lat": 31.991547, "lon": 44.9138532, "tags": {"amenity": "clinic", "name": "\u0627\u0644\u0633\u0648\u0646\u0627\u0631 \u0648\u0627\u0644\u0631\u0646\u064a\u0646 \u0645\u0633\u062a\u0634\u0641\u0649 \u0627\u0644\u0648\u0644\u0627\u062f\u0629 \u0648\u0627\u0644\u0627\u0637\u0641\u0627\u0644", "name:ar": "\u0627\u0644\u0633\u0648\u0646\u0627\u0631 \u0648\u0627\u0644\u0631\u0646\u064a\u0646 \u0645\u0633\u062a\u0634\u0641\u0649 \u0627\u0644\u0648\u0644\u0627\u062f\u0629 \u0648\u0627\u0644\u0627\u0637\u0641\u0627\u0644"}}, {"type": "node", "id": 4683228391, "lat": 32.008108, "lon": 44.9300844, "tags": {"amenity": "pharmacy", "name": "\u0635\u064a\u062f\u0644\u064a\u0629 \u0627\u0628\u0646 \u0627\u0644\u0628\u062f\u0648\u064a", "name:ar": "\u0635\u064a\u062f\u0644\u064a\u0629 \u0627\u0628\u0646 \u0627\u0644\u0628\u062f\u0648\u064a"}}, {"type": "node", "id": 4759470050, "lat": 31.9793795, "lon": 44.9032631, "tags": {"amenity": "pharmacy", "name": "\u0635\u064a\u062f\u0644\u064a\u0629 \u0646\u0648\u0631 \u0627\u0644\u0645\u0646\u062a\u0638\u0631", "name:ar": "\u0635\u064a\u062f\u0644\u064a\u0629 \u0646\u0648\u0631 \u0627\u0644\u0645\u0646\u062a\u0638\u0631"}}, {"type": "node", "id": 5149079122, "lat": 31.9841775, "lon": 44.9212581, "tags": {"amenity": "clinic", "name": "\u062f. \u062b\u0627\u0626\u0631 \u0627\u0644\u062e\u0632\u0627\u0639\u064a"}}, {"type": "node", "id": 5161422024, "lat": 31.9873161, "lon": 44.9047591, "tags": {"amenity": "pharmacy", "name": "\u0635\u064a\u062f\u0644\u064a\u0629 \u0627\u0644\u062d\u0627\u0631\u062b\u064a\u0629"}}, {"type": "node", "id": 5313814623, "lat": 31.725175, "lon": 44.9807582, "tags": {"amenity": "clinic", "email": "slamyairaq@yahoo.com", "internet_access": "wlan", "name": "\u0645\u0633\u062a\u0634\u0641\u0649 \u0627\u0644\u062d\u0645\u0632\u0629 \u0627\u0644\u0639\u0627\u0645", "phone": "009647814510104"}}, {"type": "node", "id": 5315142421, "lat": 31.9967352, "lon": 44.8986081, "tags": {"addr:street": "\u0634\u0627\u0631\u0639 \u0627\u0645 \u0627\u0644\u062e\u064a\u0644", "amenity": "pharmacy", "name": "\u0635\u064a\u062f\u0644\u064a\u0629 \u062f\u0627\u0646\u064a\u0647", "opening_hours": "Mo-Su 08:00-23:00"}}, {"type": "node", "id": 5515481921, "lat": 31.9951479, "lon": 44.9153, "tags": {"amenity": "clinic", "name": "\u0639\u064a\u0627\u062f\u0629 \u0627\u0644\u062f\u0643\u062a\u0648\u0631\u0629 \u0631\u0648\u0627\u0621 \u062d\u0628\u064a\u0628"}}, {"type": "node", "id": 5564332521, "lat": 32.0025711, "lon": 44.9028979, "tags": {"amenity": "pharmacy", "name": "\u0635\u064a\u062f\u0644\u064a\u0629", "name:ar": "\u0635\u064a\u062f\u0644\u064a\u0629 \u0627\u0644\u0636\u0631\u063a\u0627\u0645"}}, {"type": "node", "id": 5564344121, "lat": 32.0021969, "lon": 44.9026731, "tags": {"amenity": "pharmacy", "name": "\u0627\u0644\u0635\u064a\u062f\u0644\u064a\u0629 \u0627\u0644\u062f\u0648\u0644\u064a\u0629"}}, {"type": "node", "id": 5571517321, "lat": 31.9838465, "lon": 44.9201566, "tags": {"amenity": "doctors", "name": "\u0639\u064a\u0627\u062f\u0629 \u0627\u0644\u0627\u0645\u064a\u0631  \u0644\u0644\u0633\u0648\u0646\u0627\u0631"}}, {"type": "node", "id": 5714870821, "lat": 32.0047632, "lon": 44.9100857, "tags": {"amenity": "clinic", "name": "\u0627\u0644\u0639\u064a\u0627\u062f\u0629 \u0627\u0644\u0637\u0628\u064a\u0629 \u0641\u064a \u0627\u0644\u0639\u0631\u0648\u0628\u0629", "name:en": "Medical Clinic in Orouba", "name:ku": "Orouba nexwe\u015fxaneya tendurustiy\u00ea"}}, {"type": "node", "id": 6227294085, "lat": 31.9829613, "lon": 44.9204444, "tags": {"amenity": "clinic", "name": "\u0639\u0628\u062f \u0627\u0644\u0647\u0627\u062f\u064a \u0627\u0644\u0645\u0627\u0644\u0643\u064a/\u062f\u0643\u062a\u0648\u0631 \u0627\u0633\u0646\u0627\u0646"}}, {"type": "node", "id": 6287221759, "lat": 31.9938618, "lon": 44.9089017, "tags": {"amenity": "doctors", "contact:facebook": "https://www.facebook.com/diwaniya.doctors.association/", "name": "\u0646\u0642\u0627\u0628\u0629 \u0627\u0637\u0628\u0627\u0621 \u0627\u0644\u062f\u064a\u0648\u0627\u0646\u064a\u0629", "name:en": "Diwaniyah Doctor's Association"}}, {"type": "node", "id": 6361127286, "lat": 31.9817688, "lon": 44.9193677, "tags": {"amenity": "hospital", "name": "\u062f. \u062d\u0645\u064a\u062f \u0627\u0644\u0645\u0648\u0633\u0648\u064a \u0642\u0644\u0628\u064a\u0629"}}, {"type": "node", "id": 6376109286, "lat": 31.7356335, "lon": 44.5969097, "tags": {"amenity": "hospital", "name": "\u0645\u0633\u062a\u0634\u0641\u0649 \u063a\u0645\u0627\u0633 \u0627\u0644\u0639\u0627\u0645"}}, {"type": "node", "id": 6385858286, "lat": 31.9757473, "lon": 44.935395, "tags": {"addr:street": "\u0634\u0627\u0631\u0639 \u0627\u0644\u062e\u0635\u064a\u0645\u0629 \u0627\u0644\u062d\u0648\u0644\u064a", "amenity": "doctors", "internet_access": "wlan", "name": "\u062f. \u0627\u0633\u0646\u0627\u0646 \u0633\u062d\u0631 \u0627\u0644\u0639\u0645\u0631\u064a", "opening_hours": "Mo-Su 09:00-20:00"}}, {"type": "node", "id": 6402738088, "lat": 31.7349791, "lon": 44.6046429, "tags": {"amenity": "pharmacy", "name": "\u0635\u064a\u062f\u0644\u064a\u0629 \u0627\u0644\u062d\u0643\u0645\u0629"}}, {"type": "node", "id": 6402738685, "lat": 31.7353189, "lon": 44.6048713, "tags": {"amenity": "pharmacy", "name": "\u0635\u064a\u062f\u0644\u064a\u0629 \u0647\u062f\u0649 \u0627\u0644\u062e\u0641\u0627\u062c\u064a"}}, {"type": "node", "id": 6434595985, "lat": 31.7237746, "lon": 44.976516, "tags": {"amenity": "pharmacy", "email": "kaiser.asim.1991@gmail.com", "name": "\u0635\u064a\u062f\u0644\u064a\u0629 \u0627\u0644\u062b\u0642\u0629", "name:en": "Al-Thiqa pharmacy", "phone": "07818240902"}}, {"type": "node", "id": 6521594385, "lat": 31.9823944, "lon": 44.9198092, "tags": {"addr:street": "\u0634\u0627\u0631\u0639 \u0627\u0644\u0627\u0637\u0628\u0627\u0621", "amenity": "doctors", "name": "\u062f . \u0623\u062d\u0645\u062f \u062e\u064a\u0648\u0646 \u0627\u0644\u0635\u06af\u0628\u0627\u0646", "opening_hours": "Su-Fr 03:00-21:00"}}, {"type": "node", "id": 6632184085, "lat": 31.9892777, "lon": 44.9059115, "tags": {"amenity": "hospital", "name": "\u0645\u0631\u0643\u0632 \u0635\u062d\u064a \u0627\u0644\u062c\u0632\u0627\u0626\u0631 \u0644\u0644\u0631\u0639\u0627\u064a\u0629 \u0627\u0644\u0627\u0648\u0644\u064a\u0629", "opening_hours": "Sa-Th 08:30-14:30"}}, {"type": "node", "id": 6640088195, "lat": 31.9792333, "lon": 44.9307634}, {"type": "node", "id": 6640088200, "lat": 31.9793311, "lon": 44.930345}, {"type": "node", "id": 6640088201, "lat": 31.9789803, "lon": 44.9451245}, {"type": "node", "id": 6640088208, "lat": 31.9808957, "lon": 44.9286433}, {"type": "node", "id": 6640088209, "lat": 31.9817107, "lon": 44.9308922}, {"type": "node", "id": 6640088212, "lat": 31.9804412, "lon": 44.9312945}, {"type": "node", "id": 6640088213, "lat": 31.9788363, "lon": 44.9454394}, {"type": "node", "id": 6640088216, "lat": 31.9790257, "lon": 44.9455659}, {"type": "node", "id": 6640088217, "lat": 31.9792856, "lon": 44.9309539}, {"type": "node", "id": 6640088218, "lat": 31.9799657, "lon": 44.9290818}, {"type": "node", "id": 6640088220, "lat": 31.9810623, "lon": 44.9311818}, {"type": "node", "id": 6640088222, "lat": 31.9796268, "lon": 44.9311523}, {"type": "node", "id": 6640088224, "lat": 31.9805799, "lon": 44.9289316}, {"type": "node", "id": 6640088226, "lat": 31.9791776, "lon": 44.9452323}, {"type": "node", "id": 6640088229, "lat": 31.9796927, "lon": 44.9291811}, {"type": "node", "id": 6640099703, "lat": 31.9908803, "lon": 44.9133604}, {"type": "node", "id": 6640099704, "lat": 31.9930593, "lon": 44.9125103}, {"type": "node", "id": 6640099705, "lat": 31.992079, "lon": 44.9144735}, {"type": "node", "id": 6640099706, "lat": 31.99184, "lon": 44.9119283}, {"type": "node", "id": 6640101045, "lat": 32.0088924, "lon": 44.9134997}, {"type": "node", "id": 6640101046, "lat": 32.0095028, "lon": 44.9155809}, {"type": "node", "id": 6640101050, "lat": 32.0097779, "lon": 44.9131402}, {"type": "node", "id": 6640101058, "lat": 32.0066483, "lon": 44.9129635}, {"type": "node", "id": 6640101063, "lat": 32.0056535, "lon": 44.9153629}, {"type": "node", "id": 6640101076, "lat": 32.0076156, "lon": 44.9121518}, {"type": "node", "id": 6640101078, "lat": 32.0057992, "lon": 44.9138646}, {"type": "node", "id": 6640101080, "lat": 32.0084346, "lon": 44.9122625}, {"type": "node", "id": 6640101081, "lat": 32.0070239, "lon": 44.9157739}, {"type": "node", "id": 6640101082, "lat": 32.0085801, "lon": 44.9131064}, {"type": "node", "id": 6640101084, "lat": 32.0102419, "lon": 44.9135077}, {"type": "node", "id": 6640102085, "lat": 32.0056525, "lon": 44.9158356}, {"type": "node", "id": 6876290085, "lat": 31.9980002, "lon": 44.9499934, "tags": {"amenity": "pharmacy", "name": "\u0635\u064a\u062f\u0644\u064a\u0629"}}, {"type": "node", "id": 6876290186, "lat": 31.9967738, "lon": 44.9581269, "tags": {"amenity": "pharmacy", "name": "\u0627\u0644\u0645\u0631\u0643\u0632 \u0627\u0644\u0635\u062d\u064a"}}, {"type": "node", "id": 6876996285, "lat": 32.0039041, "lon": 44.9472581, "tags": {"amenity": "pharmacy", "name": "\u0627\u0644\u0645\u0631\u0643\u0632 \u0627\u0644\u0635\u062d\u064a \u0634\u0627\u0631\u0639 \u0663\u0660"}}, {"type": "node", "id": 7044691685, "lat": 31.9829515, "lon": 44.9181813, "tags": {"amenity": "clinic", "name": "\u0645\u0631\u0643\u0632  \u0627\u0644\u062f\u064a\u0648\u0627\u0646\u064a\u0629 \u0627\u0644\u062a\u0634\u062e\u064a\u0635\u064a"}}, {"type": "node", "id": 7049314493, "lat": 31.9829107, "lon": 44.918137, "tags": {"amenity": "clinic", "name": "\u0645\u0631\u0643\u0632 \u0627\u0644\u062f\u064a\u0648\u0627\u0646\u064a\u0629 \u0627\u0644\u062a\u0634\u062e\u064a\u0635\u064a", "name:en": "Open MRI"}}, {"type": "node", "id": 7128345488, "lat": 31.9999919, "lon": 44.9081025, "tags": {"amenity": "pharmacy", "name": "\u0646\u0642\u0627\u0628\u0629 \u0627\u0644\u0635\u064a\u062f\u0644\u0629"}}, {"type": "node", "id": 7130556585, "lat": 32.1367319, "lon": 44.933587, "tags": {"amenity": "hospital", "name": "\u0645\u0633\u062a\u0634\u0641\u0649 \u0627\u0644\u062f\u063a\u0627\u0631\u0629"}}, {"type": "node", "id": 7174221885, "lat": 31.9905475, "lon": 44.9216875, "tags": {"addr:street": "\u0634\u0627\u0631\u0639 \u0627\u0644\u062f\u063a\u0627\u0631\u0629", "amenity": "pharmacy", "name": "\u0635\u064a\u062f\u0644\u064a\u0629 \u0634\u0631\u0648\u0642", "opening_hours": "Mo-Su 15:00-21:00"}}, {"type": "node", "id": 7213735887, "lat": 31.983215, "lon": 44.9210828, "tags": {"amenity": "doctors", "name": "\u0639\u064a\u0627\u062f\u0629 \u0627\u0644\u062f\u0643\u062a\u0648\u0631 \u0633\u0645\u064a\u0631 \u0643\u062a\u0627\u0628 \u0627\u0644\u062f\u064a\u0648\u0627\u0646\u064a\u0647"}}, {"type": "node", "id": 7262756486, "lat": 32.0002246, "lon": 44.910316, "tags": {"amenity": "pharmacy", "name": "\u0646\u0642\u0627\u0628\u0629 \u0627\u0644\u0635\u064a\u0627\u062f\u0644\u0629 \u0641\u064a \u0627\u0644\u062f\u064a\u0648\u0627\u0646\u064a\u0629"}}, {"type": "node", "id": 7574138085, "lat": 31.7232863, "lon": 44.9772413, "tags": {"addr:street": "\u0641\u0644\u0643\u0647 \u0627\u0644\u062c\u0628\u0648\u0631", "amenity": "pharmacy", "name": "\u0635\u064a\u062f\u0644\u064a\u0647 \u0627\u062d\u0645\u062f \u0627\u0644\u0637\u0627\u0644\u0642\u0627\u0646\u064a"}}, {"type": "node", "id": 7691848387, "lat": 31.995251, "lon": 44.9147712, "tags": {"amenity": "hospital", "name": "\u0627\u0644\u062f\u0643\u062a\u0648\u0631 \u0645\u062d\u0645\u062f \u062c\u0648\u062f\u064a \u0627\u0644\u0639\u0628\u0648\u062f\u064a"}}, {"type": "node", "id": 7803743285, "lat": 32.0068617, "lon": 44.9356097, "tags": {"amenity": "doctors", "internet_access": "wlan", "name": "\u0645\u0633\u062a\u0648\u0635\u0641 \u062d\u064a \u0627\u0644\u0635\u062f\u0631 \u0627\u0644\u062b\u0627\u0646\u064a", "opening_hours": "Mo-Su 08:00-15:00"}}, {"type": "node", "id": 8075059417, "lat": 31.9845609, "lon": 44.9203487, "tags": {"amenity": "clinic", "name": "\u0645\u0631\u0643\u0632 \u0627\u0644\u0637\u0628\u064a \u0627\u0644\u062f\u0648\u0644\u064a \u0644\u0636\u0645\u0627\u0646 \u0627\u0644\u0635\u062d\u064a"}}, {"type": "node", "id": 8227214717, "lat": 31.9487425, "lon": 44.843144, "tags": {"amenity": "doctors", "name": "\u0645\u0633\u062a\u0648\u0635\u0641 \u0627\u0644\u0634\u0627\u0641\u0639\u064a\u0629"}}, {"type": "node", "id": 8253167720, "lat": 31.9778322, "lon": 44.9285998, "tags": {"amenity": "clinic", "name": "\u0645\u0633\u062a\u0634\u0641\u0649 \u0627\u0644\u062d\u0631\u0648\u0642 \u0641\u064a \u0627\u0644\u062f\u064a\u0648\u0627\u0646\u064a\u0629"}}, {"type": "node", "id": 8259649935, "lat": 31.9830031, "lon": 44.9233591, "tags": {"amenity": "clinic", "name": "\u0627\u0644\u062f\u0643\u062a\u0648\u0631 \u0633\u0645\u064a\u0631 \u0639\u0628\u062f\u0627\u0644\u0627\u0645\u064a\u0631 \u0643\u062a\u0627\u0628"}}, {"type": "node", "id": 8263120517, "lat": 31.9820141, "lon": 44.9196773, "tags": {"amenity": "doctors", "name": "\u062f\u0643\u062a\u0648\u0631\u0647 \u0644\u064a\u0646\u0627 \u0645\u062d\u0633\u0646 \u0627\u0644\u0634\u0628\u0644\u064a"}}, {"type": "node", "id": 8302651518, "lat": 31.9842718, "lon": 44.9213058, "tags": {"amenity": "doctors", "name": "\u062f\u0643\u062a\u0648\u0631\u0647 \u062a\u063a\u0631\u064a\u062f \u0627\u0644\u0642\u0632\u0648\u064a\u0646\u064a"}}, {"type": "node", "id": 8331032724, "lat": 31.9824616, "lon": 44.9208114, "tags": {"addr:street": "\u0634\u0627\u0631\u0639 \u0627\u0644\u0627\u0637\u0628\u0627\u0621", "amenity": "hospital", "name": "\u0645\u0633\u062a\u0634\u0641\u0649 \u0627\u0644\u062f\u064a\u0648\u0627\u0646\u064a\u0629 \u0627\u0644\u0623\u0647\u0644\u064a", "opening_hours": "24/7"}}, {"type": "node", "id": 8331076217, "lat": 31.9960859, "lon": 44.9134459, "tags": {"amenity": "pharmacy", "name": "\u0635\u064a\u062f\u0644\u064a\u0629 \u0627\u0644\u0648\u0631\u0648\u062f"}}, {"type": "node", "id": 8361251717, "lat": 31.9844091, "lon": 44.9204979, "tags": {"amenity": "doctors", "name": "\u0627\u0644\u0645\u0631\u0643\u0632 \u0627\u0644\u0637\u0628\u064a \u0627\u0644\u0636\u0645\u0627\u0646 \u0627\u0644\u0635\u062d\u064a"}}, {"type": "node", "id": 8425685217, "lat": 32.0022709, "lon": 44.9027606, "tags": {"addr:street": "\u0634\u0627\u0631\u0639 \u0627\u0644\u0639\u0631\u0648\u0628\u0647", "amenity": "doctors", "name": "\u0627\u0644\u062f\u0643\u062a\u0648\u0631 \u0639\u0644\u064a \u0633\u0639\u062f \u0627\u0644\u062f\u064a\u0646", "name:en": "D. Ali sad Aldeen"}}, {"type": "node", "id": 8473621467, "lat": 31.9836468, "lon": 44.9196235, "tags": {"amenity": "clinic", "name": "Dr.Raheem Ghadhab"}}, {"type": "node", "id": 8842146140, "lat": 31.9918714, "lon": 44.9131232, "tags": {"amenity": "hospital", "name": "\u0645\u0633\u062a\u0634\u0641\u0649 \u0627\u0644\u0648\u0644\u0627\u062f\u0629 \u0648\u0627\u0644\u0623\u0637\u0641\u0627\u0644", "name:en": "AD DIWANIYAH HOSPITAL GENERAL"}}, {"type": "node", "id": 9015996617, "lat": 31.9832156, "lon": 44.9191382, "tags": {"amenity": "doctors", "name": "\u062f\u0643\u062a\u0648\u0631 \u0639\u0644\u064a \u0641\u0648\u0632\u064a \u0627\u0644\u062e\u0632\u0639\u0644\u064a"}}, {"type": "node", "id": 9051933717, "lat": 32.0060657, "lon": 44.9289848, "tags": {"amenity": "pharmacy", "name": "\u0635\u064a\u062f\u0644\u064a\u0629 \u0627\u0644\u062b\u0642\u0629", "name:en": "althiqa pharmacy", "phone": "07818240902", "website": "https://www.facebook.com/\u0635\u064a\u062f\u0644\u064a\u0629-\u0627\u0644\u062b\u0642\u0629-328367677808506/"}}, {"type": "node", "id": 9341247473, "lat": 31.9785308, "lon": 44.9449745, "tags": {"amenity": "hospital", "name": "\u0645\u0633\u062a\u0634\u0641\u0649 \u0627\u0644\u0637\u0641\u0644", "name:en": "Childern hostpital"}}, {"type": "node", "id": 9384594053, "lat": 31.987857, "lon": 44.917728, "tags": {"amenity": "clinic", "description": "\u0645\u0631\u0643\u0632 \u0627\u0635\u062f\u0627\u0631 \u0628\u0637\u0627\u0642\u0629 \u0627\u0644\u0644\u0642\u0627\u062d \u0627\u0644\u062f\u0648\u0644\u064a\u0629", "healthcare": "clinic", "name": "\u0642\u0633\u0645 \u0627\u0644\u0635\u062d\u0629 \u0627\u0644\u0639\u0627\u0645\u0629"}}, {"type": "node", "id": 9669098422, "lat": 31.9623588, "lon": 44.598798, "tags": {"amenity": "pharmacy", "name": "\u0635\u064a\u062f\u0644\u064a\u0629 \u062d\u0648\u0631\u0627\u0621 \u0642\u0627\u0633\u0645", "name:ku": "\u0627\u0644\u0634\u0627\u0645\u064a\u0629"}}, {"type": "node", "id": 9669098425, "lat": 31.9844923, "lon": 44.9200482, "tags": {"amenity": "pharmacy", "name": "\u0645\u0630\u062e\u0631 \u0627\u0644\u0641\u0631\u0627\u062a \u0627\u0644\u0627\u0648\u0633\u0637", "name:ku": "\u062f\u064a\u0648\u0627\u0646\u064a\u0629"}}, {"type": "node", "id": 9776429317, "lat": 31.983872, "lon": 44.918451, "tags": {"addr:street": "\u0634\u0627\u0631\u0639 \u0627\u0644\u062b\u0648\u0631\u0629 \u0641\u0631\u0639 \u0645\u0637\u0639\u0645 \u0643\u0627\u0637\u0639", "amenity": "clinic", "name": "\u0639\u0644\u064a \u0631\u064a\u0627\u0636 \u0627\u0644\u062e\u0641\u0627\u062c\u064a", "name:en": "Ali Read", "opening_hours": "Mo-Su 12:00-16:00"}}, {"type": "node", "id": 9805542697, "lat": 31.9964073, "lon": 44.8774775, "tags": {"amenity": "health_post", "name": "\u0627\u0644\u0645\u0631\u0643\u0632 \u0627\u0644\u0635\u062d\u064a \u0627\u0644\u0631\u0626\u064a\u0633\u064a \u0641\u064a \u062d\u064a \u0627\u0644\u062c\u0627\u0645\u0639\u0629"}}, {"type": "node", "id": 9809105017, "lat": 31.7341416, "lon": 44.60479, "tags": {"addr:street": "\u0633\u0648\u0642 \u063a\u0645\u0627\u0633", "amenity": "pharmacy", "name": "\u0635\u064a\u062f\u0644\u064a\u0629 \u0627\u0644\u0627\u0621 \u062d\u0633\u064a\u0646 \u0627\u0644\u0645\u064a\u0627\u0644\u064a", "opening_hours": "24/7"}}, {"type": "node", "id": 9879083617, "lat": 31.9977199, "lon": 44.877989, "tags": {"amenity": "pharmacy", "email": "orchidsbureau@gmail.com", "name": "\u0645\u0643\u062a\u0628 \u0632\u0647\u0631\u0629 \u0627\u0644\u0627\u0648\u0631\u0643\u064a\u062f \u0627\u0644\u0639\u0644\u0645\u064a", "name:en": "Orchid Flower scientific bureau", "name:ku": "\u0641\u06d5\u0631\u0645\u0627\u0646\u06af\u06d5\u06cc \u0632\u0627\u0646\u0633\u062a\u06cc \u0626\u06c6\u0631\u06a9\u06cc\u062f", "opening_hours": "Sa-Th 08:30-18:00", "phone": "07803000600"}}, {"type": "node", "id": 10212213617, "lat": 32.0027603, "lon": 44.9274182, "tags": {"amenity": "clinic", "name": "\u0639\u064a\u0627\u062f\u0629 \u0627\u0644\u062d\u0648\u0631\u0627\u0621"}}, {"type": "node", "id": 10674910807, "lat": 32.1027986, "lon": 44.9961971, "tags": {"amenity": "doctors", "name": "\u0645\u0631\u0642\u062f \u0627\u0644\u0641\u0638\u0644 \u0627\u0628\u0646 \u0627\u0644\u0627\u0645\u0627\u0645 \u0627\u0644\u0639\u0628\u0627\u0633 (\u0639) \u0627\u0644\u062f\u064a\u0648\u0627\u0646\u064a\u0647"}}, {"type": "node", "id": 10707443605, "lat": 31.9702492, "lon": 44.9533892, "tags": {"amenity": "clinic", "name": "\u0639\u0632\u064a\u0632 \u0627\u0644\u0639\u0646\u0643\u0648\u0634\u064a", "name:en": "Aziz Al-Ankoshi"}}, {"type": "node", "id": 10959709206, "lat": 31.9841882, "lon": 44.9195876, "tags": {"amenity": "doctors", "name": "\u0639\u0628\u0627\u0633 \u0627\u0644\u0634\u064a\u0628\u0627\u0646\u064a \u0637\u0628\u064a\u0628 \u0623\u0637\u0641\u0627\u0644"}}, {"type": "node", "id": 11010428706, "lat": 31.9973453, "lon": 44.9128951, "tags": {"addr:street": "\u0634\u0627\u0631\u0639 \u0627\u0644\u0639\u0631\u0648\u0628\u0647", "amenity": "hospital", "internet_access": "wlan", "name": "\u0639\u064a\u0627\u062f\u0629 \u062f\u0643\u062a\u0648\u0631 \u0627\u064a\u0627\u062f \u0627\u062d\u0645\u062f \u0627\u0644\u0639\u0632\u0627\u0648\u064a", "opening_hours": "24/7"}}, {"type": "node", "id": 11125069805, "lat": 31.9966777, "lon": 44.9184314, "tags": {"amenity": "clinic", "internet_access": "wlan"}}, {"type": "node", "id": 11162384307, "lat": 32.0007796, "lon": 44.901724, "tags": {"amenity": "doctors", "name": "\u062f.\u0639\u0644\u064a \u0637\u0627\u0644\u0628 \u0627\u0644\u062f\u0627\u0645\u0631\u0686\u064a"}}, {"type": "node", "id": 11234590237, "lat": 31.9842078, "lon": 44.919844, "tags": {"addr:street": "\u0634\u0627\u0631\u0639 \u0627\u0644\u0627\u0637\u0628\u0627\u0621", "amenity": "clinic", "name": "\u0627\u0644\u062f\u064a\u0648\u0627\u0646\u064a\u0647", "name:ar": "\u0639\u064a\u0627\u062f\u0647 \u0627\u0644\u062f\u0643\u062a\u0648\u0631\u0629 \u062d\u064a\u0627\u0629 \u0627\u0644\u0647\u0644\u0627\u0644\u064a", "name:ku": "\u0634\u0627\u0631\u0639 \u0627\u0644\u0627\u0637\u0628\u0627\u0621"}}, {"type": "node", "id": 11389298269, "lat": 31.9829205, "lon": 44.9194059, "tags": {"addr:street": "\u0634\u0627\u0631\u0639 \u0627\u0644\u0627\u0637\u0628\u0627\u0621", "amenity": "pharmacy", "name": "\u0645\u0630\u062e\u0631 \u0627\u0644\u0646\u062e\u0628\u0629 \u0627\u0644\u0645\u0631\u0643\u0632\u064a", "opening_hours": "24/7"}}, {"type": "node", "id": 11517399372, "lat": 31.9831071, "lon": 44.918308, "tags": {"amenity": "hospital", "name": "\u0627\u0644\u0645\u062c\u0645\u0639 \u0627\u0644\u0627\u0633\u062a\u0634\u0627\u0631\u064a \u0627\u0644\u0637\u0628\u064a"}}, {"type": "way", "id": 706622631, "nodes": [6640088213, 6640088216, 6640088226, 6640088201, 6640088213], "tags": {"amenity": "clinic", "healthcare": "clinic"}}, {"type": "way", "id": 706622633, "nodes": [6640088208, 6640088209, 6640088220, 6640088212, 6640088222, 6640088217, 6640088195, 6640088200, 6640088229, 6640088218, 6640088224, 6640088208], "tags": {"amenity": "hospital", "healthcare": "hospital"}}, {"type": "way", "id": 706623535, "nodes": [6640102085, 6640101081, 6640101046, 6640101084, 6640101050, 6640101045, 6640101082, 6640101080, 6640101076, 6640101058, 6640101078, 6640101063, 6640102085], "tags": {"amenity": "hospital", "healthcare": "hospital"}}, {"type": "way", "id": 706624013, "nodes": [6640099703, 6640099705, 6640099704, 6640099706, 6640099703], "tags": {"amenity": "hospital", "healthcare": "hospital", "name": "\u0645\u0633\u062a\u0634\u0641\u0649 \u0627\u0644\u0637\u0641\u0644 \u0648\u0627\u0644\u0648\u0644\u0627\u062f\u0647"}}]}