{"version": 0.6, "generator": "Overpass API 0.7.61.5 4133829e", "osm3s": {"timestamp_osm_base": "2024-03-06T11:09:29Z", "copyright": "The data included in this document is from www.openstreetmap.org. The data is made available under ODbL."}, "elements": [{"type": "node", "id": 4931184221, "lat": 35.3235895, "lon": 43.7757145, "tags": {"amenity": "pharmacy", "name": "\u062d\u062c\u064a \u062d\u0645\u064a\u062f \u0627\u0644\u0632\u0645\u0643\u0627\u0648\u064a", "name:ar": "\u062d\u062c\u064a \u062d\u0645\u064a\u062f \u0627\u0644\u0632\u0645\u0643\u0627\u0648\u064a"}}, {"type": "node", "id": 4931184228, "lat": 35.3209608, "lon": 43.7595829, "tags": {"amenity": "hospital", "name": "\u0645\u0633\u062a\u0648\u0635\u0641 \u0627\u0644\u0639\u0633\u0643\u0631\u064a"}}, {"type": "node", "id": 4931184321, "lat": 35.324857, "lon": 43.776157, "tags": {"amenity": "pharmacy", "name": "\u0635\u064a\u062f\u0644\u064a\u0629 \u062a\u0633\u0646\u064a\u0645 \u062f. \u0632\u064a\u0627\u062f \u0627\u0644\u0645\u062f\u064a\u062f", "name:ar": "\u0635\u064a\u062f\u0644\u064a\u0629 \u062a\u0633\u0646\u064a\u0645 \u062f. \u0632\u064a\u0627\u062f \u0627\u0644\u0645\u062f\u064a\u062f"}}, {"type": "node", "id": 5058776726, "lat": 35.3284588, "lon": 43.7776619, "tags": {"amenity": "hospital", "name": "\u0627\u0644\u0639\u064a\u0627\u062f\u0647 \u0627\u0644\u062e\u0627\u0631\u062c\u064a\u0647"}}, {"type": "node", "id": 5058779129, "lat": 35.3392561, "lon": 43.76857, "tags": {"amenity": "hospital", "name": "\u0627\u0644\u0645\u0633\u062a\u0634\u0641\u0649 \u0627\u0644\u062c\u062f\u064a\u062f", "name:ar": "\u0627\u0644\u0645\u0633\u062a\u0634\u0641\u0649 \u0627\u0644\u062c\u062f\u064a\u062f"}}, {"type": "node", "id": 5058801421, "lat": 35.3273624, "lon": 43.7763136, "tags": {"amenity": "hospital", "name": "\u0627\u0644\u0645\u0633\u062a\u0634\u0641\u0649"}}, {"type": "node", "id": 5465325722, "lat": 35.2924077, "lon": 43.5253269, "tags": {"amenity": "clinic", "name": "\u0645\u0631\u0643\u0632 \u0634\u0645\u064a\u0637 \u0627\u0644\u0635\u062d\u064a", "name:en": "Shumait Primary Health Care Center"}}, {"type": "node", "id": 8319893717, "lat": 35.2666539, "lon": 43.9103559, "tags": {"amenity": "clinic", "email": "dr.ayid@gmail.com", "name": "\u0645\u062c\u0645\u0639 \u0627\u0644\u062d\u0627\u0631\u062b \u0627\u0644\u0637\u0628\u064a", "name:en": "Al-Harith medical complex", "name:ku": "\u0643\u0648\u0645\u0644\u064a\u0643\u0627\u0646\u064a \u0628\u0632\u064a\u0634\u0643\u064a \u0626\u0647 \u0627\u0644\u062d\u0627\u0631\u062b", "opening_hours": "Mo-Su 08:00-21:00", "phone": "009647701758300"}}, {"type": "node", "id": 8335778817, "lat": 35.3232227, "lon": 43.7777728, "tags": {"amenity": "hospital", "name": "\u0645\u062c\u0645\u0639 \u0628\u064a\u0631\u0648\u062a \u0627\u0644\u0637\u0628\u064a", "name:en": "Beirut medical center", "name:ku": "Beirut Medical complex"}}]}