{"version": 0.6, "generator": "Overpass API 0.7.61.5 4133829e", "osm3s": {"timestamp_osm_base": "2024-03-06T11:12:35Z", "copyright": "The data included in this document is from www.openstreetmap.org. The data is made available under ODbL."}, "elements": [{"type": "node", "id": 2033097498, "lat": 36.8706787, "lon": 42.9644218, "tags": {"addr:city": "\u062f\u0647\u06c6\u06a9", "amenity": "hospital", "healthcare": "hospital", "name": "\u0645\u0631\u0643\u0632 \u0627\u062f\u0627\u0631 \u0627\u0644\u0635\u062d\u064a", "name:en": "Adar care center"}}, {"type": "node", "id": 2033097504, "lat": 36.8694717, "lon": 42.9559799, "tags": {"addr:city": "\u062f\u0647\u06c6\u06a9", "addr:street": "\u062c\u0627\u062f\u0627 \u0626\u0627\u0645\u06d5\u062f", "amenity": "hospital", "healthcare": "hospital", "name": "\u06a9\u06c6\u0645\u0647\u200c\u0644\u06af\u0647\u200c\u0647\u0627 \u0632\u0647\u200c\u0631\u06cc \u0644\u0627\u0646\u062f \u06cc\u06ce \u067e\u0632\u06cc\u0634\u06a9\u06cc", "name:ar": "\u0645\u062c\u0645\u0639 \u0632\u0631\u064a \u0644\u0627\u0646\u062f \u0627\u0644\u0637\u0628\u064a", "name:en": "Zer\u00ee land medical complex", "name:ku": "\u06a9\u06c6\u0645\u06d5\u0644\u06af\u06d5\u0647\u0627 \u0632\u06d5\u0631\u06cc \u0644\u0627\u0646\u062f \u06cc\u0627 \u067e\u0632\u06cc\u0634\u06a9\u06cc"}}, {"type": "node", "id": 2380763992, "lat": 36.8506939, "lon": 43.0022103}, {"type": "node", "id": 2380763993, "lat": 36.8489618, "lon": 43.0056274}, {"type": "node", "id": 2380763995, "lat": 36.8488824, "lon": 43.0022639}, {"type": "node", "id": 2380786399, "lat": 36.8498514, "lon": 43.0013151}, {"type": "node", "id": 2380786400, "lat": 36.8505071, "lon": 43.0016436}, {"type": "node", "id": 2380786401, "lat": 36.8497586, "lon": 43.0020819}, {"type": "node", "id": 2380786402, "lat": 36.8504809, "lon": 43.0020523}, {"type": "node", "id": 2549370821, "lat": 36.8538948, "lon": 43.0011418, "tags": {"addr:street": "Silav road", "amenity": "hospital", "healthcare": "hospital", "internet_access": "wlan", "name": "Nexwe\u015fxaneya Vej\u00een\u00ea ya Taybet", "name:ar": "\u0645\u0633\u062a\u0634\u0641\u0649 \u0641\u0632\u064a\u0646 \u0627\u0644\u0627\u0647\u0644\u064a", "name:en": "Vajeen Private Hospital", "name:ku": "\u0646\u06d5\u062e\u0648\u0634\u062e\u0627\u0646\u0627 \u06a4\u06d5\u0698\u064a\u0646 \u064a\u0627 \u0626\u06d5\u0647\u0644\u064a"}}, {"type": "node", "id": 2941930974, "lat": 36.8476604, "lon": 43.0008772}, {"type": "node", "id": 2941930976, "lat": 36.8476111, "lon": 43.0015593}, {"type": "node", "id": 3250571936, "lat": 36.8708924, "lon": 42.9645521}, {"type": "node", "id": 4149919110, "lat": 36.6289364, "lon": 42.9838204, "tags": {"addr:street": "Babirah", "amenity": "hospital", "name": "Babirah Hospital"}}, {"type": "node", "id": 4245041184, "lat": 36.8594117, "lon": 42.9962425, "tags": {"addr:street": "Raza Road", "amenity": "hospital", "healthcare": "hospital", "name": "Dr. Saleem Andraws", "operator": "Dentist"}}, {"type": "node", "id": 4283441293, "lat": 36.8573542, "lon": 43.0071491, "tags": {"addr:city": "\u062f\u0647\u06c6\u06a9", "amenity": "hospital", "healthcare": "hospital", "name": "\u0637\u0648\u0627\u0631\u0626", "name:ar": "\u0645\u0633\u062a\u0634\u0641\u0649 \u0627\u0644\u0637\u0648\u0627\u0631\u0626", "name:en": "Emergency Hospital"}}, {"type": "node", "id": 4317593190, "lat": 36.8500874, "lon": 43.0058146, "tags": {"addr:street": "Silav road", "amenity": "hospital", "healthcare": "hospital", "name": "Nexo\u015fxana H\u00eev\u00ee ya Zarokan - \u0646\u0647\u200c\u062e\u06c6\u0634\u062e\u0627\u0646\u0627 \u0647\u064a\u06a4\u064a \u064a\u0627 \u0632\u0627\u0631\u06c6\u0643\u0627\u0646", "name:ar": "\u0645\u0633\u062a\u0634\u0641\u06cc \u0647\u06cc\u0641\u064a \u0644\u0644\u0623\u0637\u0641\u0627\u0644", "name:en": "Hivi Children's Hospital", "name:ku": "\u0646\u06d5\u062e\u0648\u0634\u062e\u0627\u0646\u0627 \u0647\u06cc\u06a4\u06cc \u06cc\u0627 \u0632\u0627\u0631\u0648\u06a9\u0627\u0646", "opening_hours": "24/7"}}, {"type": "node", "id": 4459275494, "lat": 36.8690301, "lon": 42.9451612, "tags": {"addr:city": "\u062f\u0647\u06c6\u06a9", "addr:housenumber": "\u0645\u0633\u062a\u0634\u0641\u0649 \u0634\u0631\u064a\u0627\u0646 \u0627\u0644\u0627\u0647\u0644\u064a", "addr:postcode": "42001", "addr:street": "\u062c\u0627\u062f\u0627 \u0642\u0627\u0632\u06cc \u0645\u0648\u062d\u06d5\u0645\u06d5\u062f", "amenity": "hospital", "healthcare": "hospital", "healthcare:speciality": "\u0637\u0628\u064a\u0628_\u0627\u062e\u062a\u0635\u0627\u0635\u064a_\u0627\u0644\u0627\u0645\u0631\u0627\u0636_\u0627\u0644\u0628\u0627\u0637\u0646\u064a\u0629_\u0648\u0639\u0644\u0627\u062c_\u0627\u0645\u0631\u0627\u0636_\u0627\u0644\u063a\u062f\u0629_\u0627\u0644\u062f\u0631\u0642\u064a\u0629_\u0648\u0627\u0644\u0627\u0648\u0631\u0627\u0645_\u0627\u0644\u062e\u0628\u064a\u062b\u0629", "name": "\u0639\u064a\u0627\u062f\u0629 \u062f \u0644\u0624\u064a \u0639\u0635\u0627\u0645 \u0627\u0644\u0633\u0627\u0639\u0648\u0631", "operator": "\u0645\u0633\u062a\u0634\u0641\u0649 \u0634\u0631\u064a\u0627\u0646 \u0627\u0644\u0627\u0647\u0644\u064a", "operator:type": "private"}}, {"type": "node", "id": 4475574492, "lat": 36.8670288, "lon": 42.998686, "tags": {"addr:city": "\u062f\u0647\u06c6\u06a9", "amenity": "hospital", "healthcare": "hospital", "name": "Wan Global", "name:ar": "\u0648\u0627\u0646 \u0643\u0644\u0648\u0628\u0627\u0644", "name:en": "Wan Globalization", "name:ku": "Wan Global"}}, {"type": "node", "id": 4475613589, "lat": 36.8636772, "lon": 42.9869742, "tags": {"addr:city": "\u062f\u0647\u06c6\u06a9", "amenity": "hospital", "healthcare": "hospital", "name": "\u0646\u0647 \u062e\u0648\u0634 \u062e\u0627\u0646\u0627 \u0628\u062c\u064a\u0643 \u0628\u0648\u0646\u0649\u064e", "name:ar": "\u0645\u0633\u062a\u0634\u0641\u0649 \u0627\u0644\u0648\u0644\u0627\u062f\u0629 \u0641\u064a \u062f\u0647\u0648\u0643", "name:en": "Birth Hospital", "name:ku": "\u0645\u0633\u062a\u0634\u0641\u0649"}}, {"type": "node", "id": 4537313691, "lat": 36.8597542, "lon": 42.9524884, "tags": {"addr:city": "\u062f\u0647\u06c6\u06a9", "amenity": "hospital", "healthcare": "hospital", "name": "\u06a9\u0648\u0645\u06d5\u0644\u06af\u06d5\u0647\u0627 \u06a4\u06cc\u0646 \u06cc\u0627 \u0646\u0648\u0698\u062f\u0627\u0631\u06cc", "name:ar": "\u0645\u062c\u0645\u0639 \u0641\u064a\u0646 \u0627\u0644\u0637\u0628\u064a\u0629", "name:en": "Vin Medical Complex", "name:ku": "\u06a9\u0648\u0645\u06d5\u0644\u06af\u06d5\u0647\u0627 \u06a4\u06cc\u0646 \u06cc\u0627 \u0646\u0648\u0698\u062f\u0627\u0631\u06cc", "website": "http://www.vinmedlab.com"}}, {"type": "node", "id": 4570366389, "lat": 36.6411943, "lon": 43.0060597, "tags": {"amenity": "hospital", "name": "\u062e\u0633\u062a\u062e\u0627\u0646\u0629 \u0637\u0648\u0627\u0631\u0649", "name:ar": "\u0648\u062d\u062f\u0629 \u062c\u0631\u0627\u062d\u064a\u0629 \u0645\u064a\u062f\u0627\u0646\u064a\u0629", "name:en": "field surgicul unit", "name:ku": "\u062e\u0633\u062a\u062e\u0627\u0646\u0629 \u0637\u0648\u0627\u0631\u0649", "opening_hours": "24/7"}}, {"type": "node", "id": 4632628299, "lat": 36.8601096, "lon": 42.952394, "tags": {"addr:city": "\u062f\u0647\u06c6\u06a9", "amenity": "hospital", "healthcare": "hospital", "name": "\u0645\u0633\u062a\u0634\u0641\u0649 \u06a4\u064a\u0646", "name:ar": "\u0645\u0633\u062a\u0634\u0641\u0649 \u06a4\u064a\u0646", "name:de": "private Klinik vin", "name:en": "Vin private hospital", "name:ku": "Xestexana v\u00een"}}, {"type": "node", "id": 4632667707, "lat": 36.8597651, "lon": 42.9548988, "tags": {"addr:city": "\u062f\u0647\u06c6\u06a9", "amenity": "hospital", "healthcare": "hospital", "name": "\u0645\u062c\u0645\u0639 \u0646\u0648\u0631\u0648\u0632 \u0627\u0644\u0637\u0628\u064a", "name:ar": "\u0645\u062c\u0645\u0639 \u0646\u0648\u0631\u0648\u0632 \u0627\u0644\u0637\u0628\u064a", "name:en": "Nawroz Medical Complex", "name:ku": "\u06a9\u06c6\u0645\u06d5\u0644\u06af\u0627\u06cc \u0646\u06d5\u0648\u0631\u06c6\u0632\u06cc \u067e\u0632\u06cc\u0634\u06a9\u06cc"}}, {"type": "node", "id": 4641914691, "lat": 36.857241, "lon": 43.0088403, "tags": {"addr:city": "\u062f\u0647\u06c6\u06a9", "amenity": "hospital", "healthcare": "hospital", "name": "\u0637\u0648\u0627\u0631\u0626 \u0628\u0631\u0648\u0634\u0643\u0649", "name:ar": "\u0637\u0648\u0627\u0631\u0626 \u0628\u0631\u0648\u0634\u0643\u0649", "name:en": "Emergency Hospital of Baroshk\u00e8"}}, {"type": "node", "id": 4709826790, "lat": 36.8679312, "lon": 42.9879893, "tags": {"addr:city": "\u062f\u0647\u06c6\u06a9", "amenity": "hospital", "healthcare": "hospital", "name": "\u0643\u0644\u064a\u0646\u064a\u0643\u0627 \u0628\u0647 \u0647\u062f\u064a\u0646\u0627\u0646", "name:ar": "\u0639\u064a\u0627\u062f\u0629 \u0628\u0647\u062f\u064a\u0646\u0627\u0646", "name:en": "Bhedian Clinic", "phone": "+964122"}}, {"type": "node", "id": 4750383522, "lat": 36.8509248, "lon": 43.0119102, "tags": {"addr:street": "Barzan Road", "amenity": "hospital", "healthcare": "hospital", "internet_access": "wlan", "name": "\u0646\u06d5\u062e\u0648\u0634\u062e\u0627\u0646\u0627 \u062a\u0627\u06cc\u0628\u0647\u200c\u062a\u0645\u0647\u200c\u0646\u062f \u06cc\u0627 \u0633\u06c6\u062a\u0646\u06ce \u0648 \u0646\u0647\u200c\u0634\u062a\u0647\u200c\u0631\u06af\u0647\u200c\u0631\u06cc\u06cc\u0627 \u062c\u0648\u0627\u0646\u06a9\u0627\u0631\u06cc", "name:ar": "\u0645\u0633\u062a\u0634\u0641\u06cc \u0627\u0644\u062d\u0631\u0648\u0642 \u0648 \u0627\u0644\u062a\u062c\u0645\u064a\u0644", "name:en": "Burn and plastic surgery hospital", "name:ku": "Nexo\u015fxana Taybetmend ya Sotin\u00ea \u00fb Ne\u015ftergeriya Ciwankar\u00ee", "opening_hours": "24/7", "phone": "07504977048", "website": "http://dilwar.govey@gmail.com"}}, {"type": "node", "id": 4810652821, "lat": 36.8672711, "lon": 42.9761365, "tags": {"amenity": "hospital", "healthcare": "hospital", "name": "\u0646\u0647 \u062e\u0648\u0634\u062e\u0627\u0646\u0627 \u0633\u064a\u0644\u0627\u0646", "name:ar": "\u0645\u0633\u062a\u0634\u0641\u0649 \u0634\u0644\u0627\u0646 \u0627\u0647\u0644\u06cc", "name:en": "Shelan Private Hospital", "name:ku": "\u0646\u06d5\u062e\u0648\u0634\u062e\u0627\u0646\u0627 \u0634\u064a\u0644\u0627\u0646 \u06cc\u0627 \u062a\u0627\u06cc\u0628\u06d5\u062a"}}, {"type": "node", "id": 4848069523, "lat": 36.8517056, "lon": 43.0091124, "tags": {"amenity": "hospital", "healthcare": "hospital", "name": "\u0645\u0633\u062a\u0634\u0641\u0649 \u0647\u064a\u06a4\u064a", "name:ar": "Duhok", "name:en": "Hevi Hospital", "name:ku": "gahen barwary"}}, {"type": "node", "id": 4875516821, "lat": 36.8626877, "lon": 42.9869904, "tags": {"addr:city": "\u062f\u0647\u06c6\u06a9", "amenity": "hospital", "healthcare": "hospital", "name": "\u0627\u0644\u0648\u0642\u0627\u06cc\u0629 \u0635\u062d\u06cc\u0629", "name:ar": "\u0627\u0644\u0648\u0642\u0627\u06cc\u0629 \u0635\u062d\u06cc\u0629", "name:en": "Preventive Health \u0627\u0644\u0648\u0642\u0627\u06cc\u0629 \u0635\u062d\u06cc\u0629"}}, {"type": "node", "id": 4993324621, "lat": 36.8572168, "lon": 43.0089636, "tags": {"addr:city": "\u062f\u0647\u06c6\u06a9", "addr:street": "Shemk Zara Road", "amenity": "hospital", "healthcare": "hospital", "name": "Nexo\u015fxana Tengaviyan - \u0646\u0647\u200c\u062e\u06c6\u0634\u062e\u0627\u0646\u0627 \u062a\u0647\u200c\u0646\u06af\u0627\u06a4\u06cc\u0627\u0646", "name:ar": "\u0645\u0633\u062a\u0634\u0641\u0649 \u0637\u0648\u0627\u0631\u0626 \u062f\u0647\u0648\u0643", "name:en": "Duhok emergency hospital", "name:ku": "Xestexana Duhok ya tengavya"}}, {"type": "node", "id": 5110441530, "lat": 36.8453838, "lon": 43.0078641, "tags": {"amenity": "hospital", "healthcare": "hospital", "name": "\u0628\u0646\u0643\u0647 \u0647\u0649 \u0628\u0627\u0631\u0632\u0627\u0646\u064a", "name:en": "Barzan"}}, {"type": "node", "id": 5140735321, "lat": 36.86486, "lon": 42.90403, "tags": {"amenity": "hospital", "healthcare": "hospital", "name": "\u0628\u0646\u06a9\u06d5\u06cc \u062a\u06d5\u0646\u062f\u0631\u0648\u0633\u062a\u06cc \u062a\u06d5\u0646\u0627\u0647\u06cc", "name:en": "Tanahy Health Center"}}, {"type": "node", "id": 5142483223, "lat": 36.8415978, "lon": 42.9349563, "tags": {"amenity": "hospital", "healthcare": "hospital", "name": "\u0628\u0646\u06a9\u06d5\u06cc \u062a\u06d5\u0646\u062f\u0631\u0648\u0633\u062a\u06cc \u0642\u06d5\u0633\u0627\u0648\u06d5", "name:en": "Qasawa Health Center"}}, {"type": "node", "id": 5177650821, "lat": 36.85835, "lon": 42.99423, "tags": {"addr:street": "Raza Road", "amenity": "hospital", "healthcare": "hospital", "name": "\u0646\u06d5\u062e\u06c6\u0634\u062e\u0627\u0646\u0627 16 \u062a\u06d5\u0628\u0627\u062e\u06ce", "name:en": "16 August Hospital"}}, {"type": "node", "id": 5208998478, "lat": 36.8579346, "lon": 42.9072466}, {"type": "node", "id": 5208998479, "lat": 36.8579184, "lon": 42.9073328}, {"type": "node", "id": 5208998480, "lat": 36.8579264, "lon": 42.9073849}, {"type": "node", "id": 5208998481, "lat": 36.857833, "lon": 42.9074526}, {"type": "node", "id": 5208998482, "lat": 36.857833, "lon": 42.9074059}, {"type": "node", "id": 5208998483, "lat": 36.8577714, "lon": 42.9074059}, {"type": "node", "id": 5208998484, "lat": 36.8577676, "lon": 42.9074713}, {"type": "node", "id": 5208998485, "lat": 36.8577135, "lon": 42.907469}, {"type": "node", "id": 5208998486, "lat": 36.8577209, "lon": 42.9073966}, {"type": "node", "id": 5208998487, "lat": 36.8576966, "lon": 42.9073896}, {"type": "node", "id": 5208998488, "lat": 36.8577041, "lon": 42.9073476}, {"type": "node", "id": 5208998489, "lat": 36.8576817, "lon": 42.9073499}, {"type": "node", "id": 5208998490, "lat": 36.8576929, "lon": 42.9072261}, {"type": "node", "id": 5237029722, "lat": 36.6889735, "lon": 43.3490506, "tags": {"amenity": "hospital", "name": "\u0645\u0633\u062a\u0634\u0641\u0649 \u0627\u0644\u0634\u064a\u062e\u0627\u0646 \u0627\u0644\u0639\u0627\u0645", "name:en": "Shekhan General Hospital"}}, {"type": "node", "id": 5313938622, "lat": 36.8611047, "lon": 42.9513895, "tags": {"amenity": "hospital", "healthcare": "hospital", "name": "\u0643\u0648\u0645\u0647 \u0644\u06af\u0647 \u0647\u0627 \u0648\u0627\u0631\u06a4\u064a\u0646 \u064a\u0627 \u067e\u0632\u064a\u0634\u0643\u064a", "name:en": "WarVin Complex"}}, {"type": "node", "id": 5333159725, "lat": 36.84977, "lon": 43.02615, "tags": {"amenity": "hospital", "healthcare": "hospital", "name:en": "German Private Hospital"}}, {"type": "node", "id": 5369849322, "lat": 36.84436, "lon": 42.97939, "tags": {"amenity": "hospital", "healthcare": "hospital", "name": "\u0628\u0646\u06a9\u06d5\u06cc \u062a\u06d5\u0646\u062f\u0631\u0648\u0633\u062a\u06cc \u0634\u06d5\u0646\u062f\u0648\u062e\u0627", "name:en": "Shandokha Health Center"}}, {"type": "node", "id": 5369849522, "lat": 36.845922, "lon": 42.9928507, "tags": {"amenity": "hospital", "healthcare": "hospital", "name:en": "Shahidan Health Center"}}, {"type": "node", "id": 5377175922, "lat": 36.85776, "lon": 43.00863, "tags": {"addr:city": "\u062f\u0647\u06c6\u06a9", "addr:street": "Cadeya \u015eimik Zera", "amenity": "hospital", "healthcare": "hospital", "name": "Bingeh\u00ea Xebat y\u00ea Saxlem\u00ee - \u0628\u0646\u06af\u0647\u200c\u0647\u06ce \u062e\u0647\u200c\u0628\u0627\u062a \u06cc\u06ce \u0633\u0627\u062e\u0644\u0647\u200c\u0645\u06cc", "name:en": "Khabat Health Center"}}, {"type": "node", "id": 5377175925, "lat": 36.8566596, "lon": 43.0099412, "tags": {"addr:city": "\u062f\u0647\u06c6\u06a9", "addr:street": "Cadeya \u015eimik Zera", "amenity": "hospital", "healthcare": "hospital", "name:en": "Duhok Private Hospital"}}, {"type": "node", "id": 5377175928, "lat": 36.85925, "lon": 42.99519, "tags": {"amenity": "hospital", "healthcare": "hospital", "name:en": "Kurdistan Surgical Hospital"}}, {"type": "node", "id": 5385518722, "lat": 36.86327, "lon": 43.00334, "tags": {"addr:city": "\u062f\u0647\u06c6\u06a9", "addr:street": "Sindore Way", "amenity": "hospital", "healthcare": "hospital", "name:en": "Galy Health Center"}}, {"type": "node", "id": 5409426124, "lat": 36.8486456, "lon": 43.0071373, "tags": {"addr:street": "Kolana Nexo\u015fxane - \u0643\u06c6\u0644\u0627\u0646\u0627 \u0646\u0647\u200c\u062e\u06c6\u0634\u062e\u0627\u0646\u0647\u200c", "amenity": "hospital", "healthcare": "hospital", "name": "\u0628\u06d5\u0646\u06a9\u0627 \u062e\u0648\u06cc\u0646\u06ce", "name:ar": "\u0628\u0646\u0643 \u0627\u0644\u062f\u0645", "name:en": "Blood Bank"}}, {"type": "node", "id": 5409442923, "lat": 36.84775, "lon": 43.00417, "tags": {"addr:street": "\u062c\u0627\u062f\u06d5\u06cc\u0627 \u0628\u0627\u0631\u0632\u0627\u0646\u06cc", "amenity": "hospital", "healthcare": "hospital", "name:en": "Diabetes Hospital"}}, {"type": "node", "id": 5409442924, "lat": 36.8483846, "lon": 43.0041319, "tags": {"addr:street": "\u062c\u0627\u062f\u06d5\u06cc\u0627 \u0628\u0627\u0631\u0632\u0627\u0646\u06cc", "amenity": "hospital", "healthcare": "hospital", "name": "\u0646\u06d5\u062e\u06c6\u0634\u062e\u0627\u0646\u06d5\u06cc \u0686\u0627\u0648", "name:en": "Eye Hospital"}}, {"type": "node", "id": 5409443023, "lat": 36.84866, "lon": 43.00622, "tags": {"amenity": "hospital", "healthcare": "hospital", "name:en": "Public Health Laboratory"}}, {"type": "node", "id": 5409443024, "lat": 36.8494706, "lon": 43.0072436, "tags": {"addr:street": "Nakhoshkhana S", "amenity": "hospital", "healthcare": "hospital", "name:en": "Thalassemia Health Center"}}, {"type": "node", "id": 5409445421, "lat": 36.847989, "lon": 43.005112, "tags": {"addr:street": "\u062c\u0627\u062f\u06d5\u06cc\u0627 \u0628\u0627\u0631\u0632\u0627\u0646\u06cc", "amenity": "hospital", "healthcare": "hospital", "name": "Nexo\u015fxana Kemendaman - \u0646\u06d5\u062e\u06c6\u0634\u062e\u0627\u0646\u0627 \u06a9\u06d5\u0645\u06d5\u0646\u062f\u0627\u0645\u0627\u0646", "name:en": "Disable Hospital"}}, {"type": "node", "id": 5409447021, "lat": 36.8485654, "lon": 43.0056805, "tags": {"addr:street": "\u062c\u0627\u062f\u06d5\u06cc\u0627 \u0628\u0627\u0631\u0632\u0627\u0646\u06cc", "amenity": "hospital", "healthcare": "hospital", "name:en": "Health Center for Children"}}, {"type": "node", "id": 5413493321, "lat": 36.8484332, "lon": 43.0048441, "tags": {"addr:street": "\u062c\u0627\u062f\u06d5\u06cc\u0627 \u0628\u0627\u0631\u0632\u0627\u0646\u06cc", "amenity": "hospital", "healthcare": "hospital", "name:en": "Schools Health Center"}}, {"type": "node", "id": 5417153822, "lat": 36.86311, "lon": 42.98704, "tags": {"addr:city": "\u062f\u0647\u06c6\u06a9", "addr:street": "\u0637\u0631\u064a\u0642 \u0632\u0627\u062e\u0648", "amenity": "hospital", "healthcare": "hospital", "name:en": "Emergency Hospital"}}, {"type": "node", "id": 5417154423, "lat": 36.86438, "lon": 42.98912, "tags": {"addr:city": "\u062f\u0647\u06c6\u06a9", "addr:street": "\u0637\u0631\u064a\u0642 \u0632\u0627\u062e\u0648", "amenity": "hospital", "healthcare": "hospital", "name": "\u0628\u0646\u06a9\u06d5\u06cc \u062a\u06d5\u0646\u062f\u0631\u0648\u0633\u062a\u06cc \u0645\u06ce\u0646\u062a\u0627\u0644", "name:en": "Mental Health Center"}}, {"type": "node", "id": 5736141423, "lat": 36.6640231, "lon": 43.3415831, "tags": {"addr:street": "100 Street, 44001 irbil, Iraq", "amenity": "hospital", "name:en": "Shar private hospital"}}, {"type": "node", "id": 5968276485, "lat": 36.8685524, "lon": 42.9876752, "tags": {"addr:city": "\u062f\u0647\u06c6\u06a9", "amenity": "hospital", "healthcare": "hospital", "name": "\u0645\u0631\u0643\u0632 \u0635\u062d\u064a \u0628\u0647\u062f\u064a\u0646\u0627\u0646", "name:en": "Bahdinan health center", "name:ku": "\u0628\u0646\u06af\u06d5\u0647\u06ce \u0633\u0627\u062e\u0644\u06d5\u0645\u06cc\u0627 \u0628\u06d5\u0647\u062f\u06cc\u0646\u0627\u0646"}}, {"type": "node", "id": 6230938185, "lat": 36.8691958, "lon": 42.9559643, "tags": {"addr:city": "\u062f\u0647\u06c6\u06a9", "amenity": "hospital", "healthcare": "hospital", "name": "\u062f. \u0639\u0628\u062f \u0627\u0644\u0633\u0644\u0627\u0645"}}, {"type": "node", "id": 6270340788, "lat": 36.8562676, "lon": 42.9358908, "tags": {"addr:street": "\u062c\u0627\u062f\u06d5\u06cc\u0627 \u0632\u0627\u062e\u06c6", "amenity": "hospital", "healthcare": "hospital", "name": "\u0646\u0647 \u062e\u0648\u0634\u062e\u0627\u0646\u0647", "name:ar": "\u0646\u06d5\u062e\u0648\u0634\u062e\u0627\u0646\u0627 \u0645\u0627\u0644\u062a\u0627\u06cc\u06ce", "name:en": "malta hospital"}}, {"type": "node", "id": 6394216585, "lat": 36.728705, "lon": 43.0965802, "tags": {"amenity": "hospital", "name": "\u0627\u0644\u0645\u0631\u0643\u0632 \u0627\u0644\u0635\u062d\u064a \u0627\u0644\u0646\u0645\u0648\u0630\u062c\u064a \u0627\u0644\u0642\u0648\u0634", "name:en": "Health Center"}}, {"type": "node", "id": 6763564586, "lat": 36.6837737, "lon": 43.3354179, "tags": {"amenity": "hospital", "name": "\u0639\u064a\u0627\u062f\u0629 \u062f \u0633\u0639\u064a\u062f"}}, {"type": "node", "id": 6768721885, "lat": 36.8578798, "lon": 42.9074054, "tags": {"amenity": "hospital", "healthcare": "hospital"}}, {"type": "node", "id": 7180601986, "lat": 36.8629291, "lon": 42.9868638, "tags": {"addr:city": "\u062f\u0647\u06c6\u06a9", "amenity": "hospital", "healthcare": "hospital", "name": "\u0641\u062d\u0635 \u0627\u0644\u062f\u0645 \u0642\u0628\u0644 \u0627\u0644\u0632\u0648\u0627\u062c \u0645\u062d\u0627\u0641\u0638 \u062f\u0647\u0648\u0643\u066a"}}, {"type": "node", "id": 7377383851, "lat": 36.8671806, "lon": 42.976017}, {"type": "node", "id": 7377383852, "lat": 36.8671806, "lon": 42.976296}, {"type": "node", "id": 7377383853, "lat": 36.8670647, "lon": 42.9763603}, {"type": "node", "id": 7377383854, "lat": 36.8669574, "lon": 42.9762584}, {"type": "node", "id": 7377383855, "lat": 36.8670175, "lon": 42.9760116}, {"type": "node", "id": 7664012425, "lat": 36.8547321, "lon": 43.0265794, "tags": {"addr:city": "\u062f\u0647\u06c6\u06a9", "amenity": "hospital", "healthcare": "hospital", "name": "Qazi Muhammad Health Center", "name:ckb": "\u0628\u0646\u06a9\u06d5\u06cc \u062a\u06d5\u0646\u062f\u0631\u0648\u0633\u062a\u06cc \u0642\u0627\u0632\u06cc \u0645\u062d\u0645\u062f"}}, {"type": "node", "id": 7666841531, "lat": 36.8566221, "lon": 43.0092041, "tags": {"addr:city": "\u062f\u0647\u06c6\u06a9", "amenity": "hospital", "healthcare": "hospital", "name": "Emergency Teaching Hospital"}}, {"type": "node", "id": 7671675664, "lat": 36.8584565, "lon": 42.9945804, "tags": {"amenity": "hospital", "healthcare": "hospital", "name": "Mateen Health Center"}}, {"type": "node", "id": 7856671285, "lat": 36.8678356, "lon": 42.9369679, "tags": {"addr:city": "\u062f\u0647\u06c6\u06a9", "amenity": "hospital", "healthcare": "hospital", "internet_access": "yes", "name": "\u0643\u0644\u064a\u0646\u064a\u0643\u064a\u0646 \u0698\u064a\u0646"}}, {"type": "node", "id": 7924965685, "lat": 36.8755626, "lon": 42.9452517, "tags": {"amenity": "hospital", "healthcare": "hospital", "name": "\u0645\u0631\u0643\u0632 \u0635\u062d\u064a", "name:en": "Medical Center"}}, {"type": "node", "id": 8040158640, "lat": 36.8507536, "lon": 43.005556}, {"type": "node", "id": 8040158641, "lat": 36.8494959, "lon": 43.0056118}, {"type": "node", "id": 8040158642, "lat": 36.8495152, "lon": 43.0068082}, {"type": "node", "id": 8040158643, "lat": 36.8489812, "lon": 43.0068503}, {"type": "node", "id": 8040158644, "lat": 36.8489908, "lon": 43.0075296}, {"type": "node", "id": 8040158645, "lat": 36.8493035, "lon": 43.0074274}, {"type": "node", "id": 8040158646, "lat": 36.8495729, "lon": 43.0073132}, {"type": "node", "id": 8040158647, "lat": 36.8497557, "lon": 43.0071328}, {"type": "node", "id": 8040158648, "lat": 36.8499337, "lon": 43.0068683}, {"type": "node", "id": 8040158649, "lat": 36.8501358, "lon": 43.0064896}, {"type": "node", "id": 8040158650, "lat": 36.8503571, "lon": 43.0060627}, {"type": "node", "id": 8040158651, "lat": 36.8488753, "lon": 43.0075416}, {"type": "node", "id": 8040158652, "lat": 36.8488224, "lon": 43.0046259}, {"type": "node", "id": 8040158653, "lat": 36.8477833, "lon": 43.0046439}, {"type": "node", "id": 8040158654, "lat": 36.8479036, "lon": 43.0074334}, {"type": "node", "id": 8040158655, "lat": 36.8482066, "lon": 43.0075176}, {"type": "node", "id": 8040158656, "lat": 36.8477977, "lon": 43.0044516}, {"type": "node", "id": 8040158657, "lat": 36.8477929, "lon": 43.0037121}, {"type": "node", "id": 8040158658, "lat": 36.8486637, "lon": 43.003658}, {"type": "node", "id": 8040158659, "lat": 36.8486589, "lon": 43.0035317}, {"type": "node", "id": 8040158660, "lat": 36.8488272, "lon": 43.0035257}, {"type": "node", "id": 8040158661, "lat": 36.8488272, "lon": 43.0044395}, {"type": "node", "id": 8040158663, "lat": 36.8476417, "lon": 43.0021959}, {"type": "node", "id": 8040158664, "lat": 36.8481024, "lon": 43.0009043}, {"type": "node", "id": 8040158665, "lat": 36.848093, "lon": 43.0006113}, {"type": "node", "id": 8040158671, "lat": 36.8512278, "lon": 43.0129042}, {"type": "node", "id": 8040158672, "lat": 36.8510354, "lon": 43.0115996}, {"type": "node", "id": 8040158673, "lat": 36.8503763, "lon": 43.011762}, {"type": "node", "id": 8040158674, "lat": 36.8505062, "lon": 43.0131206}, {"type": "node", "id": 8040158675, "lat": 36.8571336, "lon": 43.0096387}, {"type": "node", "id": 8040158676, "lat": 36.857183, "lon": 43.0088099}, {"type": "node", "id": 8040158677, "lat": 36.8573439, "lon": 43.0081715}, {"type": "node", "id": 8040158678, "lat": 36.8574362, "lon": 43.0077236}, {"type": "node", "id": 8040158679, "lat": 36.8568954, "lon": 43.0074902}, {"type": "node", "id": 8040158680, "lat": 36.8568439, "lon": 43.00756}, {"type": "node", "id": 8040158681, "lat": 36.8567709, "lon": 43.007678}, {"type": "node", "id": 8040158682, "lat": 36.8566207, "lon": 43.0077933}, {"type": "node", "id": 8040158683, "lat": 36.8560756, "lon": 43.0080159}, {"type": "node", "id": 8040158684, "lat": 36.8560348, "lon": 43.008142}, {"type": "node", "id": 8040184385, "lat": 36.8559447, "lon": 43.0085926}, {"type": "node", "id": 8040184386, "lat": 36.8558781, "lon": 43.0093517}, {"type": "node", "id": 8040184387, "lat": 36.8561614, "lon": 43.0095233}, {"type": "node", "id": 8040184388, "lat": 36.8564018, "lon": 43.0096655}, {"type": "node", "id": 8040184389, "lat": 36.8566894, "lon": 43.0096628}, {"type": "node", "id": 8040184390, "lat": 36.8567237, "lon": 43.0100517}, {"type": "node", "id": 8040184391, "lat": 36.8567237, "lon": 43.0097862}, {"type": "node", "id": 8040184392, "lat": 36.856449, "lon": 43.0097889}, {"type": "node", "id": 8040184393, "lat": 36.8564555, "lon": 43.0100464}, {"type": "node", "id": 8040184394, "lat": 36.8537148, "lon": 43.001415}, {"type": "node", "id": 8040184395, "lat": 36.853659, "lon": 43.0005567}, {"type": "node", "id": 8040184396, "lat": 36.8538393, "lon": 43.0005433}, {"type": "node", "id": 8040184397, "lat": 36.854247, "lon": 43.0012112}, {"type": "node", "id": 8044972059, "lat": 36.8631703, "lon": 42.9878033}, {"type": "node", "id": 8044972060, "lat": 36.8623595, "lon": 42.9867572}, {"type": "node", "id": 8044972061, "lat": 36.8629386, "lon": 42.9866218}, {"type": "node", "id": 8044972062, "lat": 36.8633459, "lon": 42.9866732}, {"type": "node", "id": 8044972063, "lat": 36.8634318, "lon": 42.986477}, {"type": "node", "id": 8044972064, "lat": 36.8636523, "lon": 42.9865237}, {"type": "node", "id": 8044972065, "lat": 36.8636859, "lon": 42.9866218}, {"type": "node", "id": 8044972066, "lat": 36.864265, "lon": 42.9867572}, {"type": "node", "id": 8044972067, "lat": 36.8641455, "lon": 42.9875792}, {"type": "node", "id": 8078756617, "lat": 36.8498242, "lon": 43.0028873, "tags": {"amenity": "hospital", "healthcare": "hospital", "name": "\u0645\u0633\u062a\u0634\u0641\u0649 \u0627\u0632\u0627\u062f\u064a \u0642\u0633\u0645 \u0627\u0644\u0637\u0648\u0627\u0631\u064a", "name:en": "ATH emergency department", "name:ku": "\u0646\u06d5\u062e\u0648\u0634\u062e\u0627\u0646\u0627 \u0626\u0627\u0632\u0627\u062f\u06cc \u0628\u06d5\u0634\u06ce \u062a\u06d5\u0646\u06af\u0627\u06a4\u06cc\u0627"}}, {"type": "node", "id": 8082902163, "lat": 36.8669104, "lon": 42.957013}, {"type": "node", "id": 8082902164, "lat": 36.8669809, "lon": 42.9569212}, {"type": "node", "id": 8082902165, "lat": 36.8670241, "lon": 42.956806}, {"type": "node", "id": 8082902166, "lat": 36.8670352, "lon": 42.9566795}, {"type": "node", "id": 8082902167, "lat": 36.8670131, "lon": 42.9565553}, {"type": "node", "id": 8082902168, "lat": 36.8669603, "lon": 42.9564466}, {"type": "node", "id": 8082902169, "lat": 36.8668822, "lon": 42.956365}, {"type": "node", "id": 8082902170, "lat": 36.8667872, "lon": 42.9563191}, {"type": "node", "id": 8082902171, "lat": 36.8666855, "lon": 42.956314}, {"type": "node", "id": 8082902172, "lat": 36.866445, "lon": 42.9565265}, {"type": "node", "id": 8082902173, "lat": 36.8664164, "lon": 42.9566363}, {"type": "node", "id": 8082902174, "lat": 36.8664148, "lon": 42.9567517}, {"type": "node", "id": 8082902175, "lat": 36.8664403, "lon": 42.9568626}, {"type": "node", "id": 8082902176, "lat": 36.8664907, "lon": 42.9569593}, {"type": "node", "id": 8082902177, "lat": 36.8665615, "lon": 42.9570334}, {"type": "node", "id": 8082902178, "lat": 36.8666466, "lon": 42.9570782}, {"type": "node", "id": 8082902179, "lat": 36.8667384, "lon": 42.95709}, {"type": "node", "id": 8082902180, "lat": 36.866829, "lon": 42.9570676}, {"type": "node", "id": 8082902181, "lat": 36.8665879, "lon": 42.9563501}, {"type": "node", "id": 8082902182, "lat": 36.8665048, "lon": 42.9564235}, {"type": "node", "id": 8082902183, "lat": 36.8609452, "lon": 42.9525878}, {"type": "node", "id": 8082902184, "lat": 36.8609575, "lon": 42.9532009}, {"type": "node", "id": 8082902185, "lat": 36.8609328, "lon": 42.9532595}, {"type": "node", "id": 8082902186, "lat": 36.8608613, "lon": 42.9532779}, {"type": "node", "id": 8082902187, "lat": 36.8607899, "lon": 42.9532779}, {"type": "node", "id": 8082902188, "lat": 36.8605285, "lon": 42.9531948}, {"type": "node", "id": 8082902189, "lat": 36.8596855, "lon": 42.952936}, {"type": "node", "id": 8082902190, "lat": 36.8594143, "lon": 42.9528312}, {"type": "node", "id": 8082902191, "lat": 36.8592368, "lon": 42.9518668}, {"type": "node", "id": 8082902192, "lat": 36.8597003, "lon": 42.9519284}, {"type": "node", "id": 8082902193, "lat": 36.8600922, "lon": 42.9519685}, {"type": "node", "id": 8082902194, "lat": 36.8603461, "lon": 42.9519993}, {"type": "node", "id": 8082902195, "lat": 36.8603511, "lon": 42.9526001}, {"type": "node", "id": 8177520404, "lat": 36.8867177, "lon": 42.9216821}, {"type": "node", "id": 8177520405, "lat": 36.886855, "lon": 42.9211189}, {"type": "node", "id": 8177520406, "lat": 36.8863316, "lon": 42.9210491}, {"type": "node", "id": 8177520407, "lat": 36.8862115, "lon": 42.921666}, {"type": "node", "id": 8177542073, "lat": 36.8680441, "lon": 42.9370374}, {"type": "node", "id": 8177542074, "lat": 36.8680015, "lon": 42.9367242}, {"type": "node", "id": 8177542075, "lat": 36.8676209, "lon": 42.936805}, {"type": "node", "id": 8177542076, "lat": 36.8676634, "lon": 42.9371182}, {"type": "node", "id": 8635183475, "lat": 36.8483525, "lon": 43.0008907}, {"type": "node", "id": 8635183476, "lat": 36.8486973, "lon": 43.0011269}, {"type": "node", "id": 8635183477, "lat": 36.8487058, "lon": 43.002132}, {"type": "node", "id": 8635183478, "lat": 36.8475918, "lon": 43.0012701}, {"type": "node", "id": 8635183479, "lat": 36.8477172, "lon": 43.0007946}, {"type": "node", "id": 8635183480, "lat": 36.8479195, "lon": 43.0006191}, {"type": "node", "id": 8635183481, "lat": 36.8479762, "lon": 43.0005991}, {"type": "node", "id": 8635183482, "lat": 36.8480346, "lon": 43.0005959}, {"type": "node", "id": 8635183483, "lat": 36.847784, "lon": 43.0007162}, {"type": "node", "id": 8635183484, "lat": 36.8478416, "lon": 43.0006624}, {"type": "node", "id": 8635183485, "lat": 36.8475861, "lon": 43.001088}, {"type": "node", "id": 8635183486, "lat": 36.8475864, "lon": 43.0011308}, {"type": "node", "id": 8635183487, "lat": 36.8476345, "lon": 43.0009317}, {"type": "node", "id": 8635183488, "lat": 36.847615, "lon": 43.0009888}, {"type": "node", "id": 8635183489, "lat": 36.8475943, "lon": 43.0010452}, {"type": "node", "id": 8647780617, "lat": 36.8456102, "lon": 43.048311, "tags": {"amenity": "hospital", "healthcare": "hospital", "name": "\u0645\u0633\u062a\u0634\u0641\u0649 \u0646\u0632\u0627\u0631\u0643\u064a", "name:en": "Nzarke Hospital", "name:ku": "\u0646\u06d5\u062e\u0648\u0634\u062e\u0627\u0646\u0627 \u0646\u0632\u0627\u0631\u06a9\u06ce"}}, {"type": "node", "id": 8918746011, "lat": 36.8500307, "lon": 43.0044258, "tags": {"amenity": "hospital", "healthcare": "hospital", "name": "Azadi Hospital", "name:en": "Azadi Hospital"}}, {"type": "node", "id": 9169137126, "lat": 36.8497409, "lon": 43.0022284}, {"type": "node", "id": 9169137127, "lat": 36.8505318, "lon": 43.0022022}, {"type": "node", "id": 9169137128, "lat": 36.8505876, "lon": 43.0022036}, {"type": "node", "id": 9169137129, "lat": 36.850476, "lon": 43.0022009}, {"type": "node", "id": 9850810356, "lat": 36.7663423, "lon": 42.924087}, {"type": "node", "id": 9850810357, "lat": 36.7662983, "lon": 42.9235654}, {"type": "node", "id": 9850810358, "lat": 36.7647146, "lon": 42.9233045}, {"type": "node", "id": 9850810359, "lat": 36.7646707, "lon": 42.9244486}, {"type": "node", "id": 9850810360, "lat": 36.7650812, "lon": 42.9252951}, {"type": "node", "id": 9850810361, "lat": 36.7660637, "lon": 42.9245172}, {"type": "node", "id": 9850810391, "lat": 36.7649027, "lon": 42.9249271}, {"type": "node", "id": 9850810400, "lat": 36.7646732, "lon": 42.9243818}, {"type": "node", "id": 9850810401, "lat": 36.7649515, "lon": 42.9233435}, {"type": "node", "id": 9850810444, "lat": 36.765932, "lon": 42.9246215}, {"type": "node", "id": 9850810448, "lat": 36.7657509, "lon": 42.9247649}, {"type": "node", "id": 9850810466, "lat": 36.764803, "lon": 42.9247215}, {"type": "node", "id": 10095942918, "lat": 36.8666768, "lon": 42.9769756, "tags": {"amenity": "hospital", "name": "\u0645\u062c\u0645\u0639 \u0628\u0647\u062f\u0646\u0627\u0646 \u0627\u0644\u0637\u0628\u064a", "name:en": "bahdinan health center"}}, {"type": "node", "id": 10124896657, "lat": 36.8708523, "lon": 42.9649146}, {"type": "node", "id": 10124896658, "lat": 36.8709973, "lon": 42.9633714}, {"type": "node", "id": 10124896659, "lat": 36.8708412, "lon": 42.9633485}, {"type": "node", "id": 10124896660, "lat": 36.8705917, "lon": 42.9640329}, {"type": "node", "id": 10124896661, "lat": 36.8706485, "lon": 42.9640397}, {"type": "node", "id": 10124896662, "lat": 36.8705914, "lon": 42.964788}, {"type": "node", "id": 10124896663, "lat": 36.8705848, "lon": 42.9648976}, {"type": "node", "id": 10265751610, "lat": 36.6941901, "lon": 43.3544411, "tags": {"addr:postcode": "42012", "addr:street": "\u0634\u0627\u0631\u0639 \u0627\u0644\u0639\u0627\u0645", "amenity": "hospital", "name": "\u0645\u0631\u0643\u0632 \u0635\u062d\u064a \u0627\u0644\u0634\u064a\u062e\u0627\u0646", "opening_hours": "Mo-Fr,Su 09:00-18:00; Sa 09:00-18:00"}}, {"type": "node", "id": 10265751709, "lat": 36.6941111, "lon": 43.3546576, "tags": {"addr:postcode": "42012", "amenity": "hospital", "name": "\u0645\u0631\u0643\u0632 \u0635\u062d\u064a \u0627\u0644\u0634\u064a\u062e\u0627\u0646", "shop": "bakery"}}, {"type": "node", "id": 11084736505, "lat": 36.8603072, "lon": 42.952996, "tags": {"amenity": "hospital", "name": "\u0639\u064a\u0627\u062f\u0629 \u0639\u0627\u0644\u064a\u0629", "name:en": "high clinic"}}, {"type": "node", "id": 11109393805, "lat": 36.5951811, "lon": 43.1109738, "tags": {"amenity": "hospital", "name:ar": "\u0645\u0631\u0643\u0632 \u0627\u0644\u0631\u0639\u0627\u064a\u0629 \u0627\u0644\u0635\u062d\u064a\u0629 \u0627\u0644\u0627\u0648\u0644\u064a\u0629 \u0641\u064a \u062a\u0644\u0644\u0633\u0642\u0641", "name:en": "Telskuf Health Center"}}, {"type": "node", "id": 11387312879, "lat": 36.848842, "lon": 43.0057077}, {"type": "node", "id": 11416788371, "lat": 36.869088, "lon": 42.9455951, "tags": {"addr:street": "\u062c\u0627\u062f\u0627 \u0642\u0627\u0632\u06cc \u0645\u0648\u062d\u06d5\u0645\u06d5\u062f", "amenity": "hospital", "name": "\u0645\u0633\u062a\u0634\u0641\u064a \u0634\u0631\u064a\u0627\u0646", "name:en": "Shreyan hospital", "name:ku": "\u0646\u0647 \u062e\u0648\u0634\u062e\u0627\u0646\u0627 \u0634\u0631\u064a\u0627\u0646"}}, {"type": "way", "id": 229482459, "nodes": [2380763992, 8040158640, 8040158641, 2380763993, 2380763995, 9169137126, 2380786401, 2380786399, 2380786400, 2380786402, 9169137129, 9169137127, 9169137128, 2380763992], "tags": {"amenity": "hospital", "healthcare": "hospital", "name": "\u0646\u0647\u200c\u062e\u06c6\u0634\u062e\u0627\u0646\u0627 \u0626\u0627\u0632\u0627\u062f\u06cc - Nexo\u015fxana Azad\u00ee", "name:ar": "\u0645\u0633\u062a\u0634\u0641\u06cc \u0627\u0632\u0627\u062f\u06cc", "name:en": "Azadi Hospital", "name:ku": "\u0646\u06d5\u062e\u0648\u0634\u062e\u0627\u0646\u0627 \u0626\u0627\u0632\u0627\u062f\u06cc", "source": "GPS"}}, {"type": "way", "id": 318685084, "nodes": [10124896658, 10124896659, 10124896660, 10124896661, 10124896662, 10124896663, 10124896657, 3250571936, 10124896658], "tags": {"addr:city": "\u062f\u0647\u06c6\u06a9", "amenity": "hospital", "healthcare": "hospital", "name": "\u0627\u0644\u0645\u0633\u062a\u0634\u0641\u0649 \u0627\u0644\u0627\u0645\u0631\u064a\u0643\u064a", "name:en": "American hospital"}}, {"type": "way", "id": 538074322, "nodes": [5208998478, 5208998479, 5208998480, 5208998481, 5208998482, 5208998483, 5208998484, 5208998485, 5208998486, 5208998487, 5208998488, 5208998489, 5208998490, 5208998478], "tags": {"addr:city": "\u062f\u0647\u06c6\u06a9", "amenity": "hospital", "healthcare": "Health Centre"}}, {"type": "way", "id": 789113759, "nodes": [7377383851, 7377383852, 7377383853, 7377383854, 7377383855, 7377383851], "tags": {"addr:city": "\u062f\u0647\u06c6\u06a9", "addr:street": "Mohabad Road", "amenity": "hospital", "healthcare": "hospital", "name": "Shilan Hospital"}}, {"type": "way", "id": 863060213, "nodes": [8040158640, 8040158641, 8040158642, 8040158643, 8040158644, 8040158645, 8040158646, 8040158647, 8040158648, 8040158649, 8040158650, 8040158640], "tags": {"amenity": "hospital", "healthcare": "hospital"}}, {"type": "way", "id": 863060214, "nodes": [8040158651, 11387312879, 8040158652, 8040158653, 8040158654, 8040158655, 8040158651], "tags": {"amenity": "hospital", "healthcare": "hospital"}}, {"type": "way", "id": 863060215, "nodes": [8040158656, 8040158657, 8040158658, 8040158659, 8040158660, 8040158661, 8040158656], "tags": {"amenity": "hospital", "healthcare": "hospital"}}, {"type": "way", "id": 863060216, "nodes": [2941930976, 8040158663, 8635183477, 8635183476, 8635183475, 8040158664, 8040158665, 8635183482, 8635183481, 8635183480, 8635183484, 8635183483, 8635183479, 2941930974, 8635183487, 8635183488, 8635183489, 8635183485, 8635183486, 8635183478, 2941930976], "tags": {"amenity": "hospital", "healthcare": "hospital"}}, {"type": "way", "id": 863060217, "nodes": [8040158671, 8040158672, 8040158673, 8040158674, 8040158671], "tags": {"amenity": "hospital", "healthcare": "hospital", "name": "\u0646\u06d5\u062e\u0648\u0634\u062e\u0627\u0646\u0627 \u062a\u0627\u06cc\u0628\u0647\u200c\u062a\u0645\u0647\u200c\u0646\u062f \u06cc\u0627 \u0633\u06c6\u062a\u0646\u06ce \u0648 \u0646\u0647\u200c\u0634\u062a\u0647\u200c\u0631\u06af\u0647\u200c\u0631\u06cc\u06cc\u0627 \u062c\u0648\u0627\u0646\u06a9\u0627\u0631\u06cc"}}, {"type": "way", "id": 863060218, "nodes": [8040158675, 8040158676, 8040158677, 8040158678, 8040158679, 8040158680, 8040158681, 8040158682, 8040158683, 8040158684, 8040184385, 8040184386, 8040184387, 8040184388, 8040184389, 8040158675], "tags": {"addr:city": "\u062f\u0647\u06c6\u06a9", "amenity": "hospital", "healthcare": "hospital", "name": "Emergency Teaching Hospital", "name:ckb": "Nexo\u015fxana Tengaviyan - \u0646\u0647\u200c\u062e\u06c6\u0634\u062e\u0627\u0646\u0627 \u062a\u0647\u200c\u0646\u06af\u0627\u06a4\u06cc\u0627\u0646"}}, {"type": "way", "id": 863060219, "nodes": [8040184390, 8040184391, 8040184392, 8040184393, 8040184390], "tags": {"amenity": "hospital", "healthcare": "hospital", "name": "Duhok Private Hospital"}}, {"type": "way", "id": 863060220, "nodes": [8040184394, 8040184395, 8040184396, 8040184397, 8040184394], "tags": {"amenity": "hospital", "healthcare": "hospital", "name": "\u0646\u06d5\u062e\u0648\u0634\u062e\u0627\u0646\u0627 \u06a4\u06d5\u0698\u064a\u0646 \u064a\u0627 \u062a\u0627\u06cc\u0628\u0647\u200c\u062a"}}, {"type": "way", "id": 863607641, "nodes": [8044972059, 8044972060, 8044972061, 8044972062, 8044972063, 8044972064, 8044972065, 8044972066, 8044972067, 8044972059], "tags": {"addr:city": "\u062f\u0647\u06c6\u06a9", "amenity": "hospital", "healthcare": "hospital"}}, {"type": "way", "id": 867146813, "nodes": [8082902163, 8082902164, 8082902165, 8082902166, 8082902167, 8082902168, 8082902169, 8082902170, 8082902171, 8082902181, 8082902182, 8082902172, 8082902173, 8082902174, 8082902175, 8082902176, 8082902177, 8082902178, 8082902179, 8082902180, 8082902163], "tags": {"addr:city": "\u062f\u0647\u06c6\u06a9", "amenity": "hospital", "healthcare": "hospital"}}, {"type": "way", "id": 867146814, "nodes": [8082902183, 8082902184, 8082902185, 8082902186, 8082902187, 8082902188, 8082902189, 8082902190, 8082902191, 8082902192, 8082902193, 8082902194, 8082902195, 8082902183], "tags": {"addr:city": "\u062f\u0647\u06c6\u06a9", "amenity": "hospital", "healthcare": "hospital"}}, {"type": "way", "id": 879027037, "nodes": [8177520404, 8177520405, 8177520406, 8177520407, 8177520404], "tags": {"amenity": "hospital", "healthcare": "hospital", "name": "\u0646\u06d5\u062e\u06c6\u0634\u062e\u0627\u0646\u0627 \u0643\u0648\u0631\u062f\u0633\u062a\u0627\u0646 \u064a\u0627 \u0632\u0627\u0631\u06c6\u0643 \u0628\u0648\u0648\u0646\u06ce", "name:ar": "\u0645\u0633\u062a\u0634\u0641\u0649 \u0643\u0648\u0631\u062f\u0633\u062a\u0627\u0646 \u0627\u0644\u0648\u0644\u0627\u062f\u0629", "name:en": "Kurdistan Birth Hospital", "name:ku": "Nexo\u015fxana Kurdistan ya Zarok B\u00fbn\u00ea"}}, {"type": "way", "id": 879028587, "nodes": [8177542073, 8177542074, 8177542075, 8177542076, 8177542073], "tags": {"addr:city": "\u062f\u0647\u06c6\u06a9", "amenity": "hospital", "healthcare": "hospital"}}, {"type": "way", "id": 1073909683, "nodes": [9850810356, 9850810357, 9850810401, 9850810358, 9850810400, 9850810359, 9850810466, 9850810391, 9850810360, 9850810448, 9850810444, 9850810361, 9850810356], "tags": {"amenity": "hospital", "healthcare": "hospital"}}]}