{"version": 0.6, "generator": "Overpass API 0.7.61.5 4133829e", "osm3s": {"timestamp_osm_base": "2024-03-06T11:04:23Z", "copyright": "The data included in this document is from www.openstreetmap.org. The data is made available under ODbL."}, "elements": [{"type": "node", "id": 4059405503, "lat": -1.0062248, "lon": 34.1121751, "tags": {"amenity": "school", "name": "Rabwao Secondary School"}}, {"type": "node", "id": 4114901945, "lat": -1.1719481, "lon": 34.2391199}, {"type": "node", "id": 4114901946, "lat": -1.1717279, "lon": 34.2402086}, {"type": "node", "id": 4114901948, "lat": -1.1726722, "lon": 34.2393154}, {"type": "node", "id": 4114901949, "lat": -1.1725674, "lon": 34.2402352}, {"type": "node", "id": 4114903726, "lat": -1.091794, "lon": 34.0957061}, {"type": "node", "id": 4114903727, "lat": -1.0919234, "lon": 34.0960302}, {"type": "node", "id": 4114903728, "lat": -1.0922106, "lon": 34.0959155}, {"type": "node", "id": 4114903729, "lat": -1.0920812, "lon": 34.0955914}, {"type": "node", "id": 4114903730, "lat": -1.091969, "lon": 34.0958262, "tags": {"amenity": "school", "name": "BUKURA SECONDARY SCHOOL"}}, {"type": "node", "id": 4114925762, "lat": -1.1481388, "lon": 34.1880496}, {"type": "node", "id": 4114925763, "lat": -1.1481989, "lon": 34.1889529}, {"type": "node", "id": 4114925764, "lat": -1.148788, "lon": 34.1889137}, {"type": "node", "id": 4114925765, "lat": -1.1487279, "lon": 34.1880104}, {"type": "node", "id": 4114942072, "lat": -1.1027605, "lon": 34.1904368}, {"type": "node", "id": 4114942073, "lat": -1.1033823, "lon": 34.1902305}, {"type": "node", "id": 4114942074, "lat": -1.1036679, "lon": 34.1910915}, {"type": "node", "id": 4114942075, "lat": -1.1030461, "lon": 34.1912978}, {"type": "node", "id": 4114942076, "lat": -1.1031167, "lon": 34.1906187, "tags": {"amenity": "school", "name": "ROCHE SECONDARY SCHOOL"}}, {"type": "node", "id": 4527806940, "lat": -1.045502, "lon": 34.0919813}, {"type": "node", "id": 4527806941, "lat": -1.0436766, "lon": 34.0913528}, {"type": "node", "id": 4527806942, "lat": -1.0436724, "lon": 34.0920686}, {"type": "node", "id": 4541797755, "lat": -1.0153185, "lon": 34.1282545}, {"type": "node", "id": 4541797756, "lat": -1.0151898, "lon": 34.1291235}, {"type": "node", "id": 4541797757, "lat": -1.0151844, "lon": 34.1294776}, {"type": "node", "id": 4541797758, "lat": -1.0155706, "lon": 34.1296814}, {"type": "node", "id": 4541797759, "lat": -1.0158012, "lon": 34.1296895}, {"type": "node", "id": 4541797760, "lat": -1.0158307, "lon": 34.129601}, {"type": "node", "id": 4541797761, "lat": -1.0159487, "lon": 34.1296358}, {"type": "node", "id": 4541797762, "lat": -1.0162578, "lon": 34.1288602}, {"type": "node", "id": 4541797763, "lat": -1.0156511, "lon": 34.1286139}, {"type": "node", "id": 4541797764, "lat": -1.0156725, "lon": 34.1283162}, {"type": "node", "id": 4547333696, "lat": -1.1730774, "lon": 34.3036348}, {"type": "node", "id": 4547333697, "lat": -1.1732358, "lon": 34.304053}, {"type": "node", "id": 4547333698, "lat": -1.1743847, "lon": 34.3043532}, {"type": "node", "id": 4547333699, "lat": -1.1739297, "lon": 34.3026841}, {"type": "node", "id": 8624413111, "lat": -1.0442093, "lon": 34.0928426}, {"type": "node", "id": 8624413112, "lat": -1.0447162, "lon": 34.091354}, {"type": "node", "id": 8629551039, "lat": -1.1747655, "lon": 34.3037769}, {"type": "node", "id": 8842226249, "lat": -1.1737545, "lon": 34.3047854}, {"type": "node", "id": 10281177967, "lat": -1.0464781, "lon": 34.1576958}, {"type": "node", "id": 10281177968, "lat": -1.0453786, "lon": 34.1593346}, {"type": "node", "id": 10281177969, "lat": -1.045156, "lon": 34.1589671}, {"type": "node", "id": 10281177970, "lat": -1.0448797, "lon": 34.1586184}, {"type": "node", "id": 10281177971, "lat": -1.0459605, "lon": 34.157331}, {"type": "node", "id": 10864858290, "lat": -1.2553682, "lon": 34.3017181, "tags": {"addr:city": "Mara", "addr:district": "Tarime District Council", "addr:subward": "Kwisarara", "addr:ward": "Bumera", "amenity": "school", "isced:level": "1", "name": "Shule ya Msingi Taisi", "name:en": "Taisi Primary School", "name:sw": "Shule ya Msingi Taisi", "operator:type": "government", "source": "WFP Primary Schools Feeding Program Survey, 2023 by OMDTZ"}}, {"type": "node", "id": 10864858331, "lat": -1.2180307, "lon": 34.3227105, "tags": {"addr:city": "Mara", "addr:district": "Tarime District Council", "addr:subward": "Nyabirongo", "addr:ward": "Susuni", "amenity": "school", "isced:level": "1", "name": "Shule ya Msingi Nyabirongo", "name:en": "Nyabirongo Primary School", "name:sw": "Shule ya Msingi Nyabirongo", "operator:type": "government", "source": "WFP Primary Schools Feeding Program Survey, 2023 by OMDTZ"}}, {"type": "node", "id": 10864858343, "lat": -1.2210994, "lon": 34.3029096, "tags": {"addr:city": "Mara", "addr:district": "Tarime District Council", "addr:subward": "Nyabirongo", "addr:ward": "Susuni", "amenity": "school", "isced:level": "1", "name": "Shule ya Msingi Mgwera", "name:en": "Mgwera Primary School", "name:sw": "Shule ya Msingi Mgwera", "operator:type": "government", "source": "WFP Primary Schools Feeding Program Survey, 2023 by OMDTZ"}}, {"type": "node", "id": 10864858346, "lat": -1.2386815, "lon": 34.3276838, "tags": {"addr:city": "Mara", "addr:district": "Tarime District Council", "addr:subward": "Matamankwe", "addr:ward": "Susuni", "amenity": "school", "isced:level": "1", "name": "Shule ya Msingi Matamankwe", "name:en": "Matamankwe Primary School", "name:sw": "Shule ya Msingi Matamankwe", "operator:type": "government", "source": "WFP Primary Schools Feeding Program Survey, 2023 by OMDTZ"}}, {"type": "node", "id": 10867893336, "lat": -1.1034002, "lon": 34.1267564, "tags": {"addr:city": "Mara", "addr:district": "Rorya District Council", "addr:subward": "Thabache", "addr:ward": "Bukura", "amenity": "school", "isced:level": "1", "name": "Shule ya Msingi Thabache", "name:en": "Thabache Primary School", "name:sw": "Shule ya Msingi Thabache", "operator:type": "government", "source": "WFP Primary Schools Feeding Program Survey, 2023 by OMDTZ"}}, {"type": "node", "id": 10867893337, "lat": -1.2059929, "lon": 34.2548829, "tags": {"addr:city": "Mara", "addr:district": "Rorya District Council", "addr:subward": "Tatwe", "addr:ward": "Goribe", "amenity": "school", "isced:level": "1", "name": "Shule ya Msingi Tatwe", "name:en": "Tatwe Primary School", "name:sw": "Shule ya Msingi Tatwe", "operator:type": "government", "source": "WFP Primary Schools Feeding Program Survey, 2023 by OMDTZ"}}, {"type": "node", "id": 10867893349, "lat": -1.0972078, "lon": 34.177361, "tags": {"addr:city": "Mara", "addr:district": "Rorya District Council", "addr:subward": "Roche", "addr:ward": "Roche", "amenity": "school", "isced:level": "1", "name": "Shule ya Msingi Roche", "name:en": "Roche Primary School", "name:sw": "Shule ya Msingi Roche", "operator:type": "government", "source": "WFP Primary Schools Feeding Program Survey, 2023 by OMDTZ"}}, {"type": "node", "id": 10867893350, "lat": -1.1910552, "lon": 34.2488658, "tags": {"addr:city": "Mara", "addr:district": "Rorya District Council", "addr:subward": "Tatwe", "addr:ward": "Goribe", "amenity": "school", "isced:level": "1", "name": "Shule ya Msingi Rayudhi", "name:en": "Rayudhi Primary School", "name:sw": "Shule ya Msingi Rayudhi", "operator:type": "government", "source": "WFP Primary Schools Feeding Program Survey, 2023 by OMDTZ"}}, {"type": "node", "id": 10867893351, "lat": -1.1006783, "lon": 34.1889656, "tags": {"addr:city": "Mara", "addr:district": "Rorya District Council", "addr:subward": "Ratia", "addr:ward": "Roche", "amenity": "school", "isced:level": "1", "name": "Shule ya Msingi Ratia", "name:en": "Ratia Primary School", "name:sw": "Shule ya Msingi Ratia", "operator:type": "government", "source": "WFP Primary Schools Feeding Program Survey, 2023 by OMDTZ"}}, {"type": "node", "id": 10867893355, "lat": -1.137146, "lon": 34.2254632, "tags": {"addr:city": "Mara", "addr:district": "Rorya District Council", "addr:subward": "Panyakoo", "addr:ward": "Goribe", "amenity": "school", "isced:level": "1", "name": "Shule ya Msingi Panyakoo", "name:en": "Panyakoo Primary School", "name:sw": "Shule ya Msingi Panyakoo", "operator:type": "government", "source": "WFP Primary Schools Feeding Program Survey, 2023 by OMDTZ"}}, {"type": "node", "id": 10867893356, "lat": -1.1317441, "lon": 34.1586409, "tags": {"addr:city": "Mara", "addr:district": "Rorya District Council", "addr:subward": "Osiri", "addr:ward": "Roche", "amenity": "school", "isced:level": "1", "name": "Shule ya Msingi Osiri", "name:en": "Osiri Primary School", "name:sw": "Shule ya Msingi Osiri", "operator:type": "government", "source": "WFP Primary Schools Feeding Program Survey, 2023 by OMDTZ"}}, {"type": "node", "id": 10867893369, "lat": -1.2167856, "lon": 34.2782162, "tags": {"addr:city": "Mara", "addr:district": "Rorya District Council", "addr:subward": "Tatwe", "addr:ward": "Goribe", "amenity": "school", "isced:level": "1", "name": "Shule ya Msingi Nyanjogu", "name:en": "Nyanjogu Primary School", "name:sw": "Shule ya Msingi Nyanjogu", "operator:type": "government", "source": "WFP Primary Schools Feeding Program Survey, 2023 by OMDTZ"}}, {"type": "node", "id": 10867893372, "lat": -1.15464, "lon": 34.262415, "tags": {"addr:city": "Mara", "addr:district": "Rorya District Council", "addr:subward": "Nyamusi", "addr:ward": "Goribe", "amenity": "school", "isced:level": "1", "name": "Shule ya Msingi Nyamusi", "name:en": "Nyamusi Primary School", "name:sw": "Shule ya Msingi Nyamusi", "operator:type": "government", "source": "WFP Primary Schools Feeding Program Survey, 2023 by OMDTZ"}}, {"type": "node", "id": 10867893374, "lat": -1.1334805, "lon": 34.1233188, "tags": {"addr:city": "Mara", "addr:district": "Rorya District Council", "addr:subward": "Nyambori", "addr:ward": "Bukura", "amenity": "school", "isced:level": "1", "name": "Shule ya Msingi Nyambori", "name:en": "Nyambori Primary School", "name:sw": "Shule ya Msingi Nyambori", "operator:type": "government", "source": "WFP Primary Schools Feeding Program Survey, 2023 by OMDTZ"}}, {"type": "node", "id": 10867893377, "lat": -1.1863675, "lon": 34.287272, "tags": {"addr:city": "Mara", "addr:district": "Rorya District Council", "addr:subward": "Nyamasanda", "addr:ward": "Ikoma", "amenity": "school", "isced:level": "1", "name": "Shule ya Msingi Nyamasanda", "name:en": "Nyamasanda Primary School", "name:sw": "Shule ya Msingi Nyamasanda", "operator:type": "government", "source": "WFP Primary Schools Feeding Program Survey, 2023 by OMDTZ"}}, {"type": "node", "id": 10867893386, "lat": -1.1193248, "lon": 34.2108311, "tags": {"addr:city": "Mara", "addr:district": "Rorya District Council", "addr:subward": "Ng'Ope", "addr:ward": "Roche", "amenity": "school", "isced:level": "1", "name": "Shule ya Msingi Ng'ope", "name:en": "Ng'ope Primary School", "name:sw": "Shule ya Msingi Ng'ope", "operator:type": "government", "source": "WFP Primary Schools Feeding Program Survey, 2023 by OMDTZ"}}, {"type": "node", "id": 10867893396, "lat": -1.0770261, "lon": 34.1496896, "tags": {"addr:city": "Mara", "addr:district": "Rorya District Council", "addr:subward": "Roche", "addr:ward": "Roche", "amenity": "school", "isced:level": "1", "name": "Shule ya Msingi Migeko", "name:en": "Migeko Primary School", "name:sw": "Shule ya Msingi Migeko", "operator:type": "government", "source": "WFP Primary Schools Feeding Program Survey, 2023 by OMDTZ"}}, {"type": "node", "id": 10867893409, "lat": -1.1808705, "lon": 34.2070388, "tags": {"addr:city": "Mara", "addr:district": "Rorya District Council", "addr:subward": "Sakawa", "addr:ward": "Kitembe", "amenity": "school", "isced:level": "1", "name": "Shule ya Msingi Luandasimbiri", "name:en": "Luandasimbiri Primary School", "name:sw": "Shule ya Msingi Luandasimbiri", "operator:type": "government", "source": "WFP Primary Schools Feeding Program Survey, 2023 by OMDTZ"}}, {"type": "node", "id": 10867893427, "lat": -1.1737382, "lon": 34.3037788, "tags": {"addr:city": "Mara", "addr:district": "Rorya District Council", "addr:subward": "Kogaja", "addr:ward": "Ikoma", "amenity": "school", "isced:level": "1", "name": "Shule ya Msingi Kogaja", "name:en": "Kogaja Primary School", "name:sw": "Shule ya Msingi Kogaja", "operator:type": "government", "source": "WFP Primary Schools Feeding Program Survey, 2023 by OMDTZ"}}, {"type": "node", "id": 10867893430, "lat": -1.0448255, "lon": 34.0919886, "tags": {"addr:city": "Mara", "addr:district": "Rorya District Council", "addr:subward": "Kirongwe", "addr:ward": "Bukura", "amenity": "school", "isced:level": "1", "name": "Shule ya Msingi Kirongwe", "name:en": "Kirongwe Primary School", "name:sw": "Shule ya Msingi Kirongwe", "operator:type": "government", "source": "WFP Primary Schools Feeding Program Survey, 2023 by OMDTZ"}}, {"type": "node", "id": 10867893443, "lat": -1.0879995, "lon": 34.0953999, "tags": {"addr:city": "Mara", "addr:district": "Rorya District Council", "addr:subward": "Bubombi", "addr:ward": "Bukura", "amenity": "school", "isced:level": "1", "name": "Shule ya Msingi Gibeni", "name:en": "Gibeni Primary School", "name:sw": "Shule ya Msingi Gibeni", "operator:type": "government", "source": "WFP Primary Schools Feeding Program Survey, 2023 by OMDTZ"}}, {"type": "node", "id": 10867893448, "lat": -1.152823, "lon": 34.1892384, "tags": {"addr:city": "Mara", "addr:district": "Rorya District Council", "addr:subward": "Charya", "addr:ward": "Kitembe", "amenity": "school", "isced:level": "1", "name": "Shule ya Msingi Charya", "name:en": "Charya Primary School", "name:sw": "Shule ya Msingi Charya", "operator:type": "government", "source": "WFP Primary Schools Feeding Program Survey, 2023 by OMDTZ"}}, {"type": "node", "id": 10867893457, "lat": -1.137132, "lon": 34.225919, "tags": {"addr:city": "Mara", "addr:district": "Rorya District Council", "addr:subward": "Ikoma", "addr:ward": "Ikoma", "amenity": "school", "isced:level": "1", "name": "Shule ya Msingi Bugire", "name:en": "Bugire Primary School", "name:sw": "Shule ya Msingi Bugire", "operator:type": "government", "source": "WFP Primary Schools Feeding Program Survey, 2023 by OMDTZ"}}, {"type": "node", "id": 10867893459, "lat": -1.0746789, "lon": 34.076081, "tags": {"addr:city": "Mara", "addr:district": "Rorya District Council", "addr:subward": "Bubombi", "addr:ward": "Bukura", "amenity": "school", "isced:level": "1", "name": "Shule ya Msingi Bubombi", "name:en": "Bubombi Primary School", "name:sw": "Shule ya Msingi Bubombi", "operator:type": "government", "source": "WFP Primary Schools Feeding Program Survey, 2023 by OMDTZ"}}, {"type": "way", "id": 409597330, "nodes": [4114903726, 4114903727, 4114903728, 4114903729, 4114903726], "tags": {"amenity": "school", "name": "BUKURA SECONDARY SCHOOL"}}, {"type": "way", "id": 409597640, "nodes": [4114901945, 4114901946, 4114901949, 4114901948, 4114901945], "tags": {"amenity": "school", "name": "GORIBE SECONDARY SCHOOL"}}, {"type": "way", "id": 409599186, "nodes": [4114925762, 4114925763, 4114925764, 4114925765, 4114925762], "tags": {"amenity": "school", "name": "Charya Secondary School"}}, {"type": "way", "id": 409603006, "nodes": [4114942072, 4114942073, 4114942074, 4114942075, 4114942072], "tags": {"amenity": "school", "name": "ROCHE SECONDARY SCHOOL"}}, {"type": "way", "id": 458134383, "nodes": [4541797755, 4541797756, 4541797757, 4541797758, 4541797759, 4541797760, 4541797761, 4541797762, 4541797763, 4541797764, 4541797755], "tags": {"amenity": "school"}}, {"type": "way", "id": 458783344, "nodes": [4547333696, 4547333697, 8842226249, 4547333698, 8629551039, 4547333699, 4547333696], "tags": {"amenity": "school", "name": "Bugire Primary School"}}, {"type": "way", "id": 930045691, "nodes": [8624413111, 4527806940, 8624413112, 4527806941, 4527806942, 8624413111], "tags": {"amenity": "school", "name": "Kirongwe Primary School"}}, {"type": "way", "id": 1124287631, "nodes": [10281177971, 10281177970, 10281177969, 10281177968, 10281177967, 10281177971], "tags": {"amenity": "school", "grades": "7-12", "name": "St. Marys Winjo Mixed Secondary School", "operator": "Ministry of Education", "operator:type": "government", "website": "https://education.go.ke"}}]}