{"version": 0.6, "generator": "Overpass API 0.7.61.5 4133829e", "osm3s": {"timestamp_osm_base": "2024-03-06T11:19:43Z", "copyright": "The data included in this document is from www.openstreetmap.org. The data is made available under ODbL."}, "elements": [{"type": "node", "id": 1315243396, "lat": -3.2109843, "lon": 40.117286, "tags": {"addr:city": "Malindi", "addr:street": "B8", "amenity": "bank", "brand": "Barclays", "brand:wikidata": "Q245343", "brand:wikipedia": "en:Barclays", "name": "Barclays", "operator": "Barclay"}}, {"type": "node", "id": 1315243402, "lat": -3.211713, "lon": 40.1178603, "tags": {"addr:city": "Malindi", "addr:street": "B8", "amenity": "bank", "atm": "yes", "name": "Diamond Trust Bank", "operator": "Diamond Trust Bank"}}, {"type": "node", "id": 1315243406, "lat": -3.2173865, "lon": 40.1205666, "tags": {"addr:city": "Malindi", "addr:street": "Jamhuri Street", "amenity": "bank", "brand": "Equity Bank", "brand:wikidata": "Q5384664", "brand:wikipedia": "en:Equity Bank Kenya Limited", "internet_access": "yes", "name": "Equity Bank"}}, {"type": "node", "id": 1315243409, "lat": -3.2129442, "lon": 40.1186145, "tags": {"amenity": "bank", "brand": "Standard Chartered", "brand:wikidata": "Q548278", "brand:wikipedia": "en:Standard Chartered", "name": "Standard Chartered"}}, {"type": "node", "id": 1315243422, "lat": -3.2102874, "lon": 40.1174923, "tags": {"addr:city": "Malindi", "addr:street": "B8", "amenity": "bank", "atm": "yes", "name": "KCB", "operator": "KCB"}}, {"type": "node", "id": 1315243434, "lat": -3.2109813, "lon": 40.1176366, "tags": {"amenity": "bank", "name": "Gulf of Africa", "operator": "Gulf of Africa"}}, {"type": "node", "id": 5801168318, "lat": -3.3509807, "lon": 40.018522, "tags": {"amenity": "bank", "name": "KCB Bank"}}, {"type": "node", "id": 6635142568, "lat": -3.3523744, "lon": 40.0145971, "tags": {"amenity": "bank", "name": "Barclays watamu"}}, {"type": "node", "id": 6793044097, "lat": -3.2154112, "lon": 40.1175003, "tags": {"addr:city": "Malindi", "addr:street": "B8", "amenity": "bank", "name": "Co-operative Bank of Kenya"}}, {"type": "node", "id": 11287568967, "lat": -3.1713464, "lon": 39.861953, "tags": {"amenity": "bank", "flood_prone": "no", "name": "Kakoneni Equity Agent", "opening_hours": "sunrise-sunset", "operator": "William Thethe", "source": "KRCS2023"}}]}