{"version": 0.6, "generator": "Overpass API 0.7.61.5 4133829e", "osm3s": {"timestamp_osm_base": "2024-03-06T13:34:01Z", "copyright": "The data included in this document is from www.openstreetmap.org. The data is made available under ODbL."}, "elements": [{"type": "node", "id": 408800062, "lat": -0.100756, "lon": 34.7592378, "tags": {"amenity": "bus_station", "bus": "yes", "public_transport": "station"}}, {"type": "node", "id": 1864848434, "lat": 0.2193121, "lon": 34.5028408, "tags": {"name": "Butere", "public_transport": "station", "railway": "station"}}, {"type": "node", "id": 1864848641, "lat": 0.0984534, "lon": 34.536488, "tags": {"name": "Yala", "public_transport": "station", "railway": "station"}}, {"type": "node", "id": 1864848854, "lat": 0.125034, "lon": 34.5391327, "tags": {"name": "Namasoli", "public_transport": "station", "railway": "station"}}, {"type": "node", "id": 1864872277, "lat": 0.0345389, "lon": 34.5755276, "tags": {"name": "Luanda", "public_transport": "station", "railway": "station"}}, {"type": "node", "id": 2473332762, "lat": -0.1041126, "lon": 34.7437973, "tags": {"amenity": "ferry_terminal", "ferry": "yes", "name": "Railway Ferry Terminal", "public_transport": "station"}}, {"type": "node", "id": 3264455328, "lat": -0.0986073, "lon": 34.7627536, "tags": {"amenity": "bus_station", "bus": "yes", "internet_access": "wired", "name": "Easycoach Kisumu", "operator": "Easycoach", "phone": "+254738200307", "public_transport": "station"}}, {"type": "node", "id": 3291256562, "lat": -0.1030142, "lon": 34.7514754, "tags": {"addr:city": "Kisumu", "addr:street": "Oginga Odinga Road", "amenity": "bus_station", "bus": "yes", "name": "The Guardian Angel", "public_transport": "station"}}, {"type": "node", "id": 3330568037, "lat": -0.0863839, "lon": 34.7581385}, {"type": "node", "id": 3330568038, "lat": -0.0864892, "lon": 34.7584086}, {"type": "node", "id": 3330568039, "lat": -0.0876522, "lon": 34.7579512}, {"type": "node", "id": 3330568040, "lat": -0.0875451, "lon": 34.7576917}, {"type": "node", "id": 6018946685, "lat": -0.1031613, "lon": 34.7562016, "tags": {"amenity": "bus_station", "bus": "yes", "name": "Acacia to Busia", "public_transport": "station"}}, {"type": "node", "id": 6244083574, "lat": 0.2882052, "lon": 34.7557351}, {"type": "node", "id": 6244083575, "lat": 0.2878914, "lon": 34.7553167}, {"type": "node", "id": 6244083576, "lat": 0.2875602, "lon": 34.7556828}, {"type": "node", "id": 6244083577, "lat": 0.2879292, "lon": 34.7560953}, {"type": "node", "id": 7229869120, "lat": -0.1012535, "lon": 34.7612166, "tags": {"addr:city": "Kisumu", "addr:street": "Gumbi Road", "amenity": "bus_station", "bus": "yes", "name": "Modern Coast", "public_transport": "station"}}, {"type": "node", "id": 9928099799, "lat": -0.0875507, "lon": 34.7577051}, {"type": "node", "id": 9928099802, "lat": -0.0875937, "lon": 34.7578094}, {"type": "node", "id": 9928099803, "lat": -0.0863994, "lon": 34.7581782}, {"type": "node", "id": 9928099804, "lat": -0.0864084, "lon": 34.7582058}, {"type": "node", "id": 9928099805, "lat": -0.0864693, "lon": 34.7583565}, {"type": "node", "id": 10926187050, "lat": -0.1010056, "lon": 34.7590763, "tags": {"amenity": "bus_station", "bus": "yes", "name": "Mololine Prestige Shuttle", "public_transport": "station"}}, {"type": "node", "id": 10926187051, "lat": -0.1011674, "lon": 34.7592393, "tags": {"amenity": "bus_station", "bus": "yes", "name": "Western Express Shuttle", "public_transport": "station"}}, {"type": "node", "id": 10926187052, "lat": -0.1007792, "lon": 34.759678, "tags": {"amenity": "bus_station", "bus": "yes", "name": "Dreamline", "public_transport": "station"}}, {"type": "node", "id": 10926187053, "lat": -0.1008662, "lon": 34.7597553, "tags": {"amenity": "bus_station", "bus": "yes", "name": "Tahmeed", "public_transport": "station"}}, {"type": "node", "id": 10926187054, "lat": -0.1009644, "lon": 34.7610565, "tags": {"amenity": "bus_station", "bus": "yes", "name": "Samper Travel & Tours", "public_transport": "station"}}, {"type": "node", "id": 10943820685, "lat": -0.1009176, "lon": 34.7598347, "tags": {"amenity": "bus_station", "bus": "yes", "name": "Coast Bus", "public_transport": "station"}}, {"type": "node", "id": 10978530358, "lat": -0.1029204, "lon": 34.7515945, "tags": {"amenity": "bus_station", "bus": "yes", "name": "Ena Coach", "public_transport": "station"}}, {"type": "way", "id": 326419029, "nodes": [3330568037, 9928099803, 9928099804, 9928099805, 3330568038, 3330568039, 9928099802, 9928099799, 3330568040, 3330568037], "tags": {"name": "Kisumu Railway Station", "name:de": "Bahn of Kisumu", "name:fr": "Gare de Kisumu", "operator": "Kenya Railways", "public_transport": "station", "railway": "station", "train": "yes", "website": "https://krc.co.ke"}}, {"type": "way", "id": 666885782, "nodes": [6244083574, 6244083575, 6244083576, 6244083577, 6244083574], "tags": {"addr:city": "Kakamega", "amenity": "bus_station", "bus": "yes", "name": "Ingotse-Navakholo Bus Park", "public_transport": "station"}}]}