{"version": 0.6, "generator": "Overpass API 0.7.61.5 4133829e", "osm3s": {"timestamp_osm_base": "2024-02-29T13:48:25Z", "copyright": "The data included in this document is from www.openstreetmap.org. The data is made available under ODbL."}, "elements": [{"type": "node", "id": 3915241838, "lat": 6.4614251, "lon": 0.9135529, "tags": {"amenity": "school", "name": "CEG NOURRY"}}, {"type": "node", "id": 3915305274, "lat": 6.4612394, "lon": 0.9070754, "tags": {"amenity": "school", "name": "Lyc\u00e9e moderne d'Assahoun", "operator": "Ecole"}}, {"type": "node", "id": 3915323553, "lat": 6.4556021, "lon": 0.9090755, "tags": {"amenity": "school", "name": "Ecole primaire evangelique"}}, {"type": "node", "id": 3915390655, "lat": 6.4520371, "lon": 0.9092636, "tags": {"amenity": "school", "name": "Ecole publique d'Assahoun", "note": "Cette \u00e9cole a \u00e9t\u00e9 cr\u00e9\u00e9e en 1965"}}, {"type": "node", "id": 3915414023, "lat": 6.4589759, "lon": 0.9164168, "tags": {"amenity": "school", "name": "EPP Assahoun B2"}}, {"type": "node", "id": 3915458071, "lat": 6.4456111, "lon": 0.898961, "tags": {"amenity": "school", "name": "EPP APEDOKOE"}}, {"type": "node", "id": 3915474798, "lat": 6.459762, "lon": 0.9132496, "tags": {"amenity": "school", "name": "EPP ASSAHOUN G/F", "operator": "Ecole"}}, {"type": "node", "id": 3915479806, "lat": 6.4409838, "lon": 0.9216557, "tags": {"amenity": "school", "name": "EPP APEYEME"}}, {"type": "node", "id": 3915479807, "lat": 6.4392652, "lon": 0.920918, "tags": {"amenity": "school", "name": "Lyc\u00e9e d'Ap\u00e9y\u00e9m\u00e9"}}, {"type": "node", "id": 3915488358, "lat": 6.4599028, "lon": 0.9132948, "tags": {"amenity": "school", "name": "EPP Assahoun D/G"}}, {"type": "node", "id": 3915488359, "lat": 6.4591895, "lon": 0.9162166, "tags": {"amenity": "school", "name": "EPP Dounass\u00e9"}}, {"type": "node", "id": 3915536333, "lat": 6.448121, "lon": 0.917936, "tags": {"amenity": "school", "name": "Primaire priv\u00e9e Mill\u00e9nium"}}, {"type": "node", "id": 3915610990, "lat": 6.453572, "lon": 0.9119613, "tags": {"amenity": "school", "name": "EPC ASSAHOUN"}}, {"type": "node", "id": 3915611011, "lat": 6.4569834, "lon": 0.9070924, "tags": {"amenity": "school"}}, {"type": "node", "id": 3917290401, "lat": 6.4508004, "lon": 0.9091679}, {"type": "node", "id": 3917290402, "lat": 6.4511633, "lon": 0.9096036}, {"type": "node", "id": 3917290404, "lat": 6.4515093, "lon": 0.9084906}, {"type": "node", "id": 3917290408, "lat": 6.4518633, "lon": 0.90888}, {"type": "node", "id": 3917746968, "lat": 6.4606059, "lon": 0.9045052, "tags": {"amenity": "school", "name": "Ecole primaire publique d'Assahoun B"}}, {"type": "node", "id": 3935743483, "lat": 6.3725787, "lon": 0.9863236, "tags": {"amenity": "school", "name": "Lyc\u00e9e de Badja"}}, {"type": "node", "id": 5756243966, "lat": 6.4287748, "lon": 0.9304744, "tags": {"amenity": "school", "name": "Ecole Primaire Publique Centrale de KEVE"}}, {"type": "node", "id": 5756243968, "lat": 6.436824, "lon": 0.9233236, "tags": {"amenity": "school", "name": "CEG de KEVE"}}, {"type": "node", "id": 6564882281, "lat": 6.3598068, "lon": 0.8651065, "tags": {"amenity": "school", "name": "Ave-Dakpa Basic Schools"}}, {"type": "node", "id": 6564887708, "lat": 6.3287833, "lon": 0.8814693, "tags": {"amenity": "school"}}, {"type": "node", "id": 6564919325, "lat": 6.3034699, "lon": 0.9029986, "tags": {"amenity": "school", "name": "Ave Xevi Basic Schools"}}, {"type": "node", "id": 6701023157, "lat": 6.501204, "lon": 0.9698565, "tags": {"amenity": "school"}}, {"type": "node", "id": 6701023283, "lat": 6.4878091, "lon": 0.949882, "tags": {"amenity": "school"}}, {"type": "node", "id": 6918543886, "lat": 6.6742747, "lon": 0.979134, "tags": {"amenity": "school", "name": "CEG GAP\u00c9 KPODZI FELL BACK"}}, {"type": "node", "id": 8430049313, "lat": 6.3391448, "lon": 1.1061913, "tags": {"amenity": "school", "name": "Ecole \u00c9vangelique Ap\u00e9doko\u00e8"}}, {"type": "node", "id": 8430102328, "lat": 6.3405256, "lon": 1.111545, "tags": {"amenity": "school", "name": "EPP Kovi\u00e9"}}, {"type": "node", "id": 8570246802, "lat": 6.4453423, "lon": 0.8995217, "tags": {"amenity": "school", "name": "EPP D'Atti Ap\u00e9doko\u00e8"}}, {"type": "node", "id": 8570246804, "lat": 6.4333778, "lon": 0.8847897, "tags": {"amenity": "school", "name": "Ecole catholique"}}, {"type": "node", "id": 8570246805, "lat": 6.4325875, "lon": 0.8837838, "tags": {"amenity": "school", "name": "EPP Ando centre"}}, {"type": "node", "id": 8570246807, "lat": 6.4286548, "lon": 0.8801266, "tags": {"amenity": "school", "name": "EPP"}}, {"type": "node", "id": 8570246813, "lat": 6.3838484, "lon": 0.8715945, "tags": {"amenity": "school", "name": "EPP EDZI"}}, {"type": "node", "id": 8570246815, "lat": 6.3781147, "lon": 0.8804432, "tags": {"amenity": "school", "name": "EPP Alawogb\u00e9"}}, {"type": "node", "id": 8570257219, "lat": 6.3748814, "lon": 0.8873123, "tags": {"amenity": "school", "name": "Lyc\u00e9e de Dzolo"}}, {"type": "node", "id": 8570257224, "lat": 6.3750046, "lon": 0.8902929, "tags": {"amenity": "school", "name": "EPP Dzololo A"}}, {"type": "node", "id": 8570257227, "lat": 6.3795462, "lon": 0.8939749, "tags": {"amenity": "school", "name": "Ecole Primaire Dzololo B"}}, {"type": "node", "id": 8570257231, "lat": 6.4108527, "lon": 0.9178278, "tags": {"amenity": "school", "name": "Ecole Evangelique"}}, {"type": "node", "id": 8570257235, "lat": 6.4152693, "lon": 0.9203705, "tags": {"amenity": "school", "name": "EPP Yope"}}, {"type": "node", "id": 8570314307, "lat": 6.4325169, "lon": 0.9232539, "tags": {"amenity": "school", "name": "Ecole catholique"}}, {"type": "node", "id": 8570314309, "lat": 6.4329567, "lon": 0.9234135, "tags": {"amenity": "school", "name": "Eglise Catholique"}}, {"type": "node", "id": 8570314310, "lat": 6.4337303, "lon": 0.9236716, "tags": {"amenity": "school", "name": "Oll\u00e8ge Technique"}}, {"type": "node", "id": 8570331523, "lat": 6.4350529, "lon": 0.938462, "tags": {"amenity": "school", "name": "EPP"}}, {"type": "node", "id": 8570340981, "lat": 6.4443854, "lon": 0.9185982, "tags": {"amenity": "school", "name": "Complexe scolaire technique Caplan"}}, {"type": "node", "id": 8570340988, "lat": 6.4427903, "lon": 0.9200124, "tags": {"amenity": "school", "name": "CEG Christ roi"}}, {"type": "node", "id": 8606855372, "lat": 6.3867354, "lon": 0.941489, "tags": {"amenity": "school", "name": "Epp Yoti"}}, {"type": "node", "id": 8625027005, "lat": 6.3337411, "lon": 1.1147958, "tags": {"amenity": "school", "name": "Lyc\u00e9e de Mission - Tov\u00e9"}}, {"type": "node", "id": 8625027007, "lat": 6.3299636, "lon": 1.1157158, "tags": {"amenity": "school", "name": "Complexe Scolaire La Gloire"}}, {"type": "node", "id": 8872015392, "lat": 6.4018301, "lon": 1.1151123, "tags": {"amenity": "school", "name": "\u00c9cole Priv\u00e9e de wli - Mivakpo"}}, {"type": "node", "id": 8872015404, "lat": 6.4034534, "lon": 1.1588699, "tags": {"amenity": "school", "name": "CEG Wli centre"}}, {"type": "node", "id": 8872015407, "lat": 6.41093, "lon": 1.1604014, "tags": {"amenity": "school", "name": "\u00c9cole primaire catholique de Wli centre"}}, {"type": "node", "id": 8872015409, "lat": 6.4104502, "lon": 1.1648887, "tags": {"amenity": "school", "name": "Ecole primaire \u00c9vang\u00e9lique"}}, {"type": "node", "id": 8872015410, "lat": 6.4114524, "lon": 1.1635825, "tags": {"amenity": "school", "name": "Ecole primaire Evangelique"}}, {"type": "node", "id": 8872050219, "lat": 6.4526877, "lon": 1.1284938, "tags": {"amenity": "school", "name": "EPP Ayivi Kope"}}, {"type": "node", "id": 8872050221, "lat": 6.4297023, "lon": 1.1087555, "tags": {"amenity": "school", "name": "EEP Bolou Ativime"}}, {"type": "node", "id": 8872050232, "lat": 6.4359698, "lon": 1.0848127, "tags": {"amenity": "school", "name": "EPP Agbadome"}}, {"type": "node", "id": 8872050240, "lat": 6.4430008, "lon": 1.0873085, "tags": {"amenity": "school", "name": "Ecole primaire catholique d'Alokoegbe"}}, {"type": "node", "id": 8872050245, "lat": 6.4396666, "lon": 1.0922613, "tags": {"amenity": "school", "name": "EEP Alokoegbe"}}, {"type": "node", "id": 8872050247, "lat": 6.4383539, "lon": 1.0937566, "tags": {"amenity": "school", "name": "Lycee et CEG Alokoegbe"}}, {"type": "node", "id": 8872050248, "lat": 6.4475944, "lon": 1.0938625, "tags": {"amenity": "school", "name": "Ecole Evangelique"}}, {"type": "node", "id": 8872050257, "lat": 6.4113458, "lon": 1.0917154, "tags": {"amenity": "school", "name": "EPP Medium\u00e9"}}, {"type": "node", "id": 8872050258, "lat": 6.418817, "lon": 1.0782078, "tags": {"amenity": "school", "name": "EPP Gatigble"}}, {"type": "node", "id": 8872050264, "lat": 6.4589855, "lon": 1.0770732, "tags": {"amenity": "school", "name": "EPP Bolou Dekpo"}}, {"type": "node", "id": 8872050269, "lat": 6.4703311, "lon": 1.0933167, "tags": {"amenity": "school", "name": "EPP"}}, {"type": "node", "id": 8872050271, "lat": 6.4757599, "lon": 1.0721406, "tags": {"amenity": "school", "name": "Ecole Primaire Catholique"}}, {"type": "node", "id": 8872050272, "lat": 6.4758425, "lon": 1.0715479, "tags": {"amenity": "school", "name": "Jardin d'Enfants Catholique"}}, {"type": "node", "id": 8872050273, "lat": 6.4757013, "lon": 1.0705796, "tags": {"amenity": "school", "name": "CEG Klokpoe"}}, {"type": "node", "id": 8872050277, "lat": 6.4801293, "lon": 1.0680583, "tags": {"amenity": "school", "name": "EPP Klokpoe"}}, {"type": "node", "id": 8972075306, "lat": 6.332661, "lon": 1.0246293, "tags": {"amenity": "school", "name": "EPP Gbav\u00e9"}}, {"type": "node", "id": 8985312164, "lat": 6.320175, "lon": 1.052112, "tags": {"amenity": "school", "description": "lyc\u00e9e et coll\u00e8ge", "name": "Lyc\u00e9e Dzimeke"}}, {"type": "node", "id": 9010449875, "lat": 6.3336535, "lon": 1.0436548, "tags": {"amenity": "school", "name": "EPP Alagbadja - Bam\u00e9"}}, {"type": "node", "id": 9010638287, "lat": 6.3166115, "lon": 1.0551048, "tags": {"amenity": "school", "name": "EPP koepedo"}}, {"type": "node", "id": 9033524114, "lat": 6.3026703, "lon": 1.0814021, "tags": {"amenity": "school", "name": "CEG Sevagbleta"}}, {"type": "node", "id": 9033534831, "lat": 6.30892, "lon": 1.0798281, "tags": {"amenity": "school", "name": "\u00c9cole internationale Nelson Mandela"}}, {"type": "node", "id": 9033535414, "lat": 6.3340018, "lon": 1.1017483, "tags": {"amenity": "school", "name": "\u00c9cole primaire saint esprit de sevagbleta"}}, {"type": "node", "id": 9051901248, "lat": 6.2984344, "lon": 1.0679566, "tags": {"amenity": "school", "name": "EPP Atid\u00e8"}}, {"type": "node", "id": 9053186905, "lat": 6.5021437, "lon": 1.0277273, "tags": {"amenity": "school", "name": "EPP AVEVOIN"}}, {"type": "node", "id": 9053186909, "lat": 6.485718, "lon": 1.013706, "tags": {"amenity": "school", "name": "EPP WOMETCHIN GB"}}, {"type": "node", "id": 9053186914, "lat": 6.4819509, "lon": 1.0076295, "tags": {"amenity": "school", "name": "EPP WOMETCHIN GA"}}, {"type": "node", "id": 9053199517, "lat": 6.4563523, "lon": 0.9648979, "tags": {"amenity": "school", "name": "EPP AWATOME"}}, {"type": "node", "id": 9053199521, "lat": 6.46402, "lon": 0.9807336, "tags": {"amenity": "school", "name": "EPP APEDOME"}}, {"type": "node", "id": 9053199523, "lat": 6.4503103, "lon": 0.978447, "tags": {"amenity": "school", "name": "EPP ZOGBEPIME GB"}}, {"type": "node", "id": 9053199528, "lat": 6.4462005, "lon": 0.9804064, "tags": {"amenity": "school", "name": "EPP ZOGBEPIME GA"}}, {"type": "node", "id": 9053199533, "lat": 6.4421986, "lon": 0.9744197, "tags": {"amenity": "school", "name": "CEG ZOGBEPIME"}}, {"type": "node", "id": 9053227988, "lat": 6.4463211, "lon": 1.0408265, "tags": {"amenity": "school", "name": "EPP"}}, {"type": "node", "id": 9053227990, "lat": 6.4503449, "lon": 1.0004801, "tags": {"amenity": "school", "name": "ECOLE DE VETERINAIRE"}}, {"type": "node", "id": 9053227991, "lat": 6.4482127, "lon": 0.9838235, "tags": {"amenity": "school", "name": "EPC"}}, {"type": "node", "id": 9053230418, "lat": 6.4796163, "lon": 1.0044202, "tags": {"amenity": "school", "name": "CEG WOMETCHIN"}}, {"type": "node", "id": 9053230419, "lat": 6.4702511, "lon": 0.9954402, "tags": {"amenity": "school", "name": "EPP AGBOZOME"}}, {"type": "node", "id": 9053230421, "lat": 6.467085, "lon": 0.9897217, "tags": {"amenity": "school", "name": "CEG ATCHAVE"}}, {"type": "node", "id": 9053230422, "lat": 6.4668025, "lon": 0.9893006, "tags": {"amenity": "school", "name": "EPP ATCHAVE"}}, {"type": "node", "id": 9071291757, "lat": 6.330838, "lon": 1.0811733, "tags": {"amenity": "school", "name": "EPP Tsiv\u00e9"}}, {"type": "node", "id": 9089284307, "lat": 6.3335266, "lon": 1.0830264, "tags": {"amenity": "school", "name": "\u00c9cole priv\u00e9 la\u00efque bonne esp\u00e9rance de Tsiv\u00e9"}}, {"type": "node", "id": 9089292472, "lat": 6.3340964, "lon": 1.0849403, "tags": {"amenity": "school", "name": "Complexe scolaire islamique de Tsiv\u00e9"}}, {"type": "node", "id": 9115284977, "lat": 6.3347087, "lon": 1.1011761, "tags": {"amenity": "school", "name": "CEG kovi\u00e9"}}, {"type": "node", "id": 9165481517, "lat": 6.6884611, "lon": 0.9041412, "tags": {"amenity": "school", "name": "EPP BANIKOPE"}}, {"type": "node", "id": 9275680609, "lat": 6.3115799, "lon": 1.1296125, "tags": {"amenity": "school", "name": "CS la sainte amiti\u00e9s"}}, {"type": "node", "id": 9275690237, "lat": 6.5702892, "lon": 1.0509289, "tags": {"amenity": "school", "name": "Epp Nyassive"}}, {"type": "node", "id": 9275699090, "lat": 6.3167862, "lon": 1.1274658, "tags": {"amenity": "school", "name": "EPE MISSION TOVE KPEME"}}, {"type": "node", "id": 9275708051, "lat": 6.5708666, "lon": 1.0500745, "tags": {"amenity": "school", "name": "CEG nyassive"}}, {"type": "node", "id": 9316366274, "lat": 6.5970682, "lon": 1.1200458, "tags": {"amenity": "school", "name": "EPP NYANETSI", "office": "educational_institution"}}, {"type": "node", "id": 9328027983, "lat": 6.726191, "lon": 1.0959314, "tags": {"amenity": "school", "name": "EPP TSITO"}}, {"type": "node", "id": 9328030340, "lat": 6.7288806, "lon": 1.0950355, "tags": {"amenity": "school", "name": "CEG TSITO"}}, {"type": "node", "id": 9726111898, "lat": 6.4002834, "lon": 1.1116279, "tags": {"amenity": "school", "name": "EPP Wli mivakpo"}}, {"type": "node", "id": 9796628353, "lat": 6.3034723, "lon": 1.1578989, "tags": {"amenity": "school"}}, {"type": "node", "id": 10239929753, "lat": 6.6204804, "lon": 0.9217465, "tags": {"amenity": "school"}}, {"type": "node", "id": 10239929754, "lat": 6.6195772, "lon": 0.9237474, "tags": {"amenity": "school", "name": "CEG H\u00e9kp\u00e9"}}, {"type": "node", "id": 10913791405, "lat": 6.4705012, "lon": 0.8720643, "tags": {"amenity": "school", "name": "EPP DZEGBAKONDJI"}}, {"type": "node", "id": 11150167605, "lat": 6.4804233, "lon": 1.045055, "tags": {"amenity": "school", "name": "TOYYIB"}}, {"type": "node", "id": 11557848567, "lat": 6.3395214, "lon": 0.9993693, "tags": {"amenity": "school", "name": "EPP Bagbe"}}, {"type": "node", "id": 11571215203, "lat": 6.5654835, "lon": 0.891482, "tags": {"amenity": "school", "name": "Lyc\u00e9e Tovegan"}}, {"type": "node", "id": 11571215204, "lat": 6.679106, "lon": 1.0233115, "tags": {"amenity": "school"}}, {"type": "node", "id": 11571215205, "lat": 6.6990378, "lon": 0.9884101, "tags": {"amenity": "school", "name": "EPP GAKPE"}}, {"type": "node", "id": 11571217253, "lat": 6.7258101, "lon": 1.0189068, "tags": {"amenity": "school", "name": "CEG Kodje"}}, {"type": "node", "id": 11571221277, "lat": 6.6621051, "lon": 1.0306658, "tags": {"amenity": "school"}}, {"type": "node", "id": 11571223064, "lat": 6.4920057, "lon": 0.8983863, "tags": {"amenity": "school"}}, {"type": "node", "id": 11571225978, "lat": 6.6702061, "lon": 1.0255026, "tags": {"amenity": "school"}}, {"type": "node", "id": 11571227913, "lat": 6.6538311, "lon": 1.0236438, "tags": {"amenity": "school", "name": "EPC"}}, {"type": "node", "id": 11571238266, "lat": 6.6589427, "lon": 1.0244312, "tags": {"amenity": "school"}}, {"type": "node", "id": 11571305543, "lat": 6.6903534, "lon": 1.0027345, "tags": {"amenity": "school", "name": "EPP gape tsoeta"}}, {"type": "node", "id": 11571307306, "lat": 6.5642323, "lon": 0.8901437, "tags": {"amenity": "school", "name": "EPP TOVEGAN"}}, {"type": "node", "id": 11580345160, "lat": 6.3748948, "lon": 1.1760456, "tags": {"amenity": "school"}}, {"type": "way", "id": 388539096, "nodes": [3917290402, 3917290401, 3917290404, 3917290408, 3917290402], "tags": {"amenity": "school", "name": "EPP ASSAHOUN"}}]}