{"version": 0.6, "generator": "Overpass API 0.7.61.5 4133829e", "osm3s": {"timestamp_osm_base": "2024-03-06T11:06:30Z", "copyright": "The data included in this document is from www.openstreetmap.org. The data is made available under ODbL."}, "elements": [{"type": "node", "id": 4516116890, "lat": 37.1604293, "lon": 42.6772583, "tags": {"amenity": "bank"}}, {"type": "node", "id": 4811166021, "lat": 37.161617, "lon": 42.6790307, "tags": {"amenity": "bank", "name": "\u0628\u0627\u0646\u06a9\u0627 \u0647\u06cc\u0632\u0644", "name:ar": "\u0628\u0646\u0643 \u0647\u064a\u0632\u0644", "name:en": "Hizel bank", "name:ku": "\u0628\u0627\u0646\u06a9\u0627 \u0647\u06cc\u0632\u0644"}}, {"type": "node", "id": 5134536922, "lat": 37.14342, "lon": 42.67962, "tags": {"addr:postcode": "964", "amenity": "bank", "name": "\u0628\u0627\u0646\u0643\u0627 \u062e\u0627\u0628\u0648\u0631", "name:en": "Khabir Bank", "name:ku": "\u0628\u0627\u0646\u0643 \u062e\u0627\u0628\u064a\u0631"}}, {"type": "node", "id": 9349974818, "lat": 37.1595161, "lon": 42.6667649, "tags": {"amenity": "bank", "name": "Kurdistan Bank"}}]}