{"version": 0.6, "generator": "Overpass API 0.7.61.5 4133829e", "osm3s": {"timestamp_osm_base": "2024-03-06T11:30:59Z", "copyright": "The data included in this document is from www.openstreetmap.org. The data is made available under ODbL."}, "elements": [{"type": "node", "id": 3680029606, "lat": 1.7488267, "lon": 40.0587079}, {"type": "node", "id": 3683457946, "lat": 1.7465305, "lon": 40.0592444, "tags": {"amenity": "pharmacy", "name": "Ladnan Pharmacy"}}, {"type": "node", "id": 3683520805, "lat": 1.7415482, "lon": 40.0360241, "tags": {"amenity": "clinic", "name": "Barwaqo Dispensary"}}, {"type": "node", "id": 3683621144, "lat": 1.7542999, "lon": 40.0813793, "tags": {"amenity": "clinic", "name": "Waberi Health Center"}}, {"type": "node", "id": 3689545199, "lat": 1.7614214, "lon": 40.0222015, "tags": {"amenity": "clinic", "name": "Makoror Dispensary"}}, {"type": "node", "id": 3689569333, "lat": 1.783257, "lon": 39.9429117, "tags": {"amenity": "clinic", "name": "Wagalla Health Center"}}, {"type": "node", "id": 3689589880, "lat": 1.8886213, "lon": 39.8266712, "tags": {"amenity": "clinic", "name": "Tulatula Dispensary"}}, {"type": "node", "id": 3689589882, "lat": 1.8940839, "lon": 39.8230762, "tags": {"amenity": "pharmacy", "name": "Tulatula Pharmacy"}}, {"type": "node", "id": 3693558404, "lat": 1.996963, "lon": 39.7550069}, {"type": "node", "id": 3702818291, "lat": 1.8323706, "lon": 39.9970681, "tags": {"amenity": "clinic", "name": "Elnur Dispensary"}}, {"type": "node", "id": 3702818300, "lat": 1.9014688, "lon": 40.0099163, "tags": {"amenity": "clinic", "name": "Katote Dispensary"}}, {"type": "node", "id": 3702840524, "lat": 1.7836745, "lon": 40.10339, "tags": {"amenity": "pharmacy", "healthcare": "pharmacy", "name": "Johar Dispensary"}}, {"type": "node", "id": 3713167013, "lat": 1.6285297, "lon": 40.0098868, "tags": {"amenity": "hospital", "healthcare": "hospital", "name": "Leheley Health Center"}}, {"type": "node", "id": 3713167017, "lat": 1.6276279, "lon": 40.0073865, "tags": {"amenity": "pharmacy", "healthcare": "pharmacy", "name": "Lehely District Hospital"}}, {"type": "node", "id": 3713284433, "lat": 1.6830067, "lon": 39.8944408}, {"type": "node", "id": 3713284435, "lat": 1.683207, "lon": 39.8947913}, {"type": "node", "id": 3713284439, "lat": 1.6835619, "lon": 39.8941722}, {"type": "node", "id": 3713284441, "lat": 1.6836529, "lon": 39.8952375}, {"type": "node", "id": 3713284442, "lat": 1.6836984, "lon": 39.8937397}, {"type": "node", "id": 3713284443, "lat": 1.6837576, "lon": 39.8939309}, {"type": "node", "id": 3713284444, "lat": 1.6838668, "lon": 39.8935803}, {"type": "node", "id": 3713284445, "lat": 1.6839123, "lon": 39.8953786}, {"type": "node", "id": 3713284448, "lat": 1.6842127, "lon": 39.8933163}, {"type": "node", "id": 3713284449, "lat": 1.6842172, "lon": 39.8945637}, {"type": "node", "id": 3713284452, "lat": 1.6844083, "lon": 39.8935211}, {"type": "node", "id": 3713284453, "lat": 1.6844584, "lon": 39.8940902}, {"type": "node", "id": 3713284454, "lat": 1.6846131, "lon": 39.8938717}, {"type": "node", "id": 3713284593, "lat": 1.7132907, "lon": 39.9409021}, {"type": "node", "id": 3713284595, "lat": 1.7135281, "lon": 39.9431627}, {"type": "node", "id": 3713284602, "lat": 1.7149964, "lon": 39.9407613}, {"type": "node", "id": 3713284605, "lat": 1.7160954, "lon": 39.940559}, {"type": "node", "id": 3713284607, "lat": 1.7164559, "lon": 39.9422919}, {"type": "node", "id": 6967815299, "lat": 1.9962593, "lon": 39.7551703}, {"type": "node", "id": 6967856820, "lat": 1.9962452, "lon": 39.7551343}, {"type": "node", "id": 6967856821, "lat": 1.9961364, "lon": 39.7551378}, {"type": "node", "id": 6967856822, "lat": 1.9961244, "lon": 39.7549205}, {"type": "node", "id": 6967856823, "lat": 1.9962365, "lon": 39.7549161}, {"type": "node", "id": 6977337206, "lat": 1.7488193, "lon": 40.058856}, {"type": "node", "id": 6977337207, "lat": 1.7487893, "lon": 40.0589979}, {"type": "node", "id": 6977337208, "lat": 1.7484863, "lon": 40.0587231}, {"type": "node", "id": 6977337209, "lat": 1.7485466, "lon": 40.0585786}, {"type": "node", "id": 7009771604, "lat": 1.996183, "lon": 39.755136}, {"type": "node", "id": 7009771605, "lat": 1.9962141, "lon": 39.7551356}, {"type": "node", "id": 7009771606, "lat": 1.9962143, "lon": 39.7551399}, {"type": "node", "id": 7009771608, "lat": 1.9961845, "lon": 39.7551732}, {"type": "node", "id": 7009771610, "lat": 1.9969913, "lon": 39.7551682}, {"type": "node", "id": 7300686163, "lat": 1.996258, "lon": 39.7553306}, {"type": "node", "id": 7300686164, "lat": 1.9962526, "lon": 39.7551829}, {"type": "node", "id": 7300686165, "lat": 1.9962556, "lon": 39.7552702}, {"type": "node", "id": 7300686166, "lat": 1.9962552, "lon": 39.7552483}, {"type": "node", "id": 7300686167, "lat": 1.9961112, "lon": 39.7551886}, {"type": "node", "id": 7300686168, "lat": 1.9962624, "lon": 39.755248}, {"type": "node", "id": 7300686169, "lat": 1.9961171, "lon": 39.7553362}, {"type": "node", "id": 7300686170, "lat": 1.996283, "lon": 39.7552691}, {"type": "node", "id": 7300686171, "lat": 1.9962789, "lon": 39.7551649}, {"type": "node", "id": 7300686172, "lat": 1.996133, "lon": 39.755138}, {"type": "node", "id": 10000055289, "lat": 1.7484578, "lon": 40.0588292}, {"type": "node", "id": 10000055290, "lat": 1.7487165, "lon": 40.0589539}, {"type": "node", "id": 10000055291, "lat": 1.7487125, "lon": 40.0589794}, {"type": "node", "id": 10000055292, "lat": 1.7488438, "lon": 40.058742}, {"type": "node", "id": 10008079117, "lat": 1.7509352, "lon": 40.0601, "tags": {"addr:housenumber": "7", "addr:street": "Bardere Road", "amenity": "hospital", "name": "Liban pharmacy"}}, {"type": "node", "id": 10008147517, "lat": 1.7508246, "lon": 40.0593115, "tags": {"addr:postcode": "70200", "amenity": "pharmacy", "name": "Somcare Hospital", "tourism": "guest_house"}}, {"type": "node", "id": 10008160818, "lat": 1.7499475, "lon": 40.0591691, "tags": {"amenity": "hospital", "name": "bayaan nursing home"}}, {"type": "node", "id": 10008170517, "lat": 1.7517403, "lon": 40.05198, "tags": {"amenity": "hospital", "name": "Samad hospital"}}, {"type": "node", "id": 10008199618, "lat": 1.7507887, "lon": 40.0593145, "tags": {"addr:postcode": "70200", "addr:street": "Isiolo-Mandera Road", "amenity": "pharmacy", "name": "SOMCARE HOSTIPAL"}}, {"type": "node", "id": 10008213717, "lat": 1.752054, "lon": 40.0492834, "tags": {"addr:street": "Mayalo Road", "amenity": "hospital", "name": "Albushra hospital"}}, {"type": "node", "id": 10008225618, "lat": 1.7413572, "lon": 40.0553779, "tags": {"addr:street": "Isiolo-Mandera Road", "amenity": "hospital", "healthcare": "hospital", "name": "Al Amannah"}}, {"type": "node", "id": 10008232418, "lat": 1.7507734, "lon": 40.0594099, "tags": {"amenity": "hospital", "name": "jeddah hospital", "tourism": "hotel"}}, {"type": "node", "id": 10008236618, "lat": 1.737892, "lon": 40.0537809, "tags": {"addr:street": "Isiolo-Mandera Road", "amenity": "hospital", "healthcare": "hospital", "name": "Wajir Catholic Mission Dispensary", "name:en": "Wajir Catholic Mission Dispensary"}}, {"type": "node", "id": 10008257217, "lat": 1.740842, "lon": 40.049532, "tags": {"amenity": "hospital", "name": "Wajir maternity and nursing home"}}, {"type": "node", "id": 10008264918, "lat": 1.7494243, "lon": 40.0582334, "tags": {"amenity": "pharmacy", "name": "al maaruf pharmacy"}}, {"type": "node", "id": 10008275917, "lat": 1.7477533, "lon": 40.0618683, "tags": {"amenity": "hospital", "name": "Wajir referral Hospital-Main gate"}}, {"type": "node", "id": 10008279719, "lat": 1.7479521, "lon": 40.0583017, "tags": {"addr:postcode": "70200", "addr:street": "Isiolo-Mandera Road", "amenity": "pharmacy", "healthcare": "pharmacy", "name": "Madina Pharmarcy", "name:en": "Madina Pharmarcy"}}, {"type": "node", "id": 10008300119, "lat": 1.7491847, "lon": 40.0585766, "tags": {"addr:postcode": "70200", "addr:street": "Wajir Town road", "amenity": "clinic", "healthcare": "clinic", "name": "Al maaruf"}}, {"type": "node", "id": 10008301317, "lat": 1.7442789, "lon": 40.0569316, "tags": {"addr:street": "Isiolo-Mandera Road", "amenity": "clinic", "healthcare": "clinic", "name": "Al hayat Medical Centre"}}, {"type": "node", "id": 10008301417, "lat": 1.7445661, "lon": 40.0570068, "tags": {"addr:street": "Isiolo-Mandera Road", "amenity": "hospital", "healthcare": "hospital", "name": "Afya Medical Clinic and Nursing Home"}}, {"type": "node", "id": 10008317517, "lat": 1.7506055, "lon": 40.0591945, "tags": {"addr:street": "Isiolo-Mandera Road", "amenity": "pharmacy", "highway": "bus_stop", "name": "SOMCARE HOSPITAL", "name:en": "SOMCARE HOSPITAL & PHARMACY", "opening_hours": "24/7"}}, {"type": "node", "id": 10008317518, "lat": 1.7504849, "lon": 40.06418, "tags": {"amenity": "hospital", "healthcare": "hospital", "name": "Jeddah Hospital - Wagberi branch", "opening_hours": "24/7"}}, {"type": "node", "id": 10008341118, "lat": 1.7541264, "lon": 40.0593366, "tags": {"addr:street": "Wajir-Moyale Road", "amenity": "hospital"}}, {"type": "node", "id": 10153702232, "lat": 1.7477146, "lon": 40.0624084, "tags": {"amenity": "hospital", "emergency": "yes", "healthcare": "hospital", "healthcare:speciality": "general;biology", "name": "Wajir County Referal Hospital", "operator": "Wajir County Government", "operator:type": "government"}}, {"type": "node", "id": 11099213203, "lat": 1.7357215, "lon": 40.0597997, "tags": {"addr:street": "Manyalo Ganyure Highway", "amenity": "clinic", "name": "Ilhad Medical Care", "source": "KRCS"}}, {"type": "node", "id": 11099213204, "lat": 1.7488652, "lon": 40.0810346, "tags": {"addr:street": "Orahey", "amenity": "pharmacy", "name": "Safa Pharmacy", "source": "KRCS"}}, {"type": "node", "id": 11099271105, "lat": 1.7412557, "lon": 40.0722268, "tags": {"addr:street": "Mayako Road", "amenity": "clinic", "name": "Milan Medical Center", "source": "KRCS"}}, {"type": "node", "id": 11099271106, "lat": 1.739516, "lon": 40.0738309, "tags": {"addr:street": "Chuma Mrefu/Keynan Junction", "amenity": "pharmacy", "name": "Township Late Night Chemist", "source": "KRCS"}}, {"type": "node", "id": 11099271107, "lat": 1.7378539, "lon": 40.0635709, "tags": {"addr:street": "Manyalo Ganyure Highway", "amenity": "clinic", "name": "Manyalo Roadside Medical Clinic", "source": "KRCS"}}, {"type": "node", "id": 11099271109, "lat": 1.7371504, "lon": 40.0627419, "tags": {"addr:street": "Ganyure Highway", "amenity": "clinic", "name": "Afya Medical Clinic", "source": "KRCS"}}, {"type": "node", "id": 11099271110, "lat": 1.7396312, "lon": 40.0743662, "tags": {"addr:street": "Township Road", "amenity": "hospital", "name": "The Aga Khan University Hospital", "source": "KRCS"}}, {"type": "node", "id": 11099271111, "lat": 1.7357718, "lon": 40.0683047, "tags": {"addr:street": "Barwaqo", "amenity": "clinic", "name": "Tamam Medical Clinic", "source": "KRCS"}}, {"type": "node", "id": 11099271112, "lat": 1.7448975, "lon": 40.076256, "tags": {"addr:street": "Morale Road", "amenity": "pharmacy", "name": "Jeddah Pharmacy Limited", "source": "KRCS"}}, {"type": "node", "id": 11099271115, "lat": 1.7509041, "lon": 40.0768948, "tags": {"addr:street": "County Commissioners Road", "amenity": "pharmacy", "name": "Keystone Pharmacy", "source": "KRCS"}}, {"type": "node", "id": 11099271116, "lat": 1.7370133, "lon": 40.0619925, "tags": {"addr:street": "Manyalo Ganyure Highway", "amenity": "clinic", "name": "Tawakal Medical Care", "source": "KRCS"}}, {"type": "node", "id": 11099271117, "lat": 1.7369751, "lon": 40.0622478, "tags": {"addr:street": "Manyalo Road", "amenity": "clinic", "name": "Umma Medical Centre", "source": "KRCS"}}, {"type": "node", "id": 11099271118, "lat": 1.7411492, "lon": 40.0794988, "tags": {"addr:street": "Army Road", "amenity": "pharmacy", "name": "Bahrain Care Pharmacy", "source": "KRCS"}}, {"type": "node", "id": 11099271120, "lat": 1.7448402, "lon": 40.0834079, "tags": {"addr:street": "Wajirbor Road", "amenity": "hospital", "name": "Jeddah Hospital", "source": "KRCS"}}, {"type": "node", "id": 11099271121, "lat": 1.738066, "lon": 40.064437, "tags": {"addr:street": "Ganyure Highway", "amenity": "clinic", "name": "Bariyo Medical Clinic", "source": "KRCS"}}, {"type": "node", "id": 11099271122, "lat": 1.7484982, "lon": 40.0828679, "tags": {"addr:street": "Gajaja Road", "amenity": "clinic", "name": "Waberi Medical Clinic And Laboratory", "source": "KRCS"}}, {"type": "node", "id": 11176242643, "lat": 1.9971006, "lon": 39.7550602}, {"type": "node", "id": 11176242644, "lat": 1.9970996, "lon": 39.7550348}, {"type": "node", "id": 11176242645, "lat": 1.9969654, "lon": 39.7550656}, {"type": "node", "id": 11176242646, "lat": 1.9969643, "lon": 39.7550402}, {"type": "node", "id": 11176242647, "lat": 1.9969396, "lon": 39.7550078}, {"type": "node", "id": 11176242648, "lat": 1.9969437, "lon": 39.7551108}, {"type": "node", "id": 11176242649, "lat": 1.9969902, "lon": 39.7551409}, {"type": "node", "id": 11176242650, "lat": 1.9969684, "lon": 39.7551418}, {"type": "node", "id": 11176242651, "lat": 1.996948, "lon": 39.7551699}, {"type": "node", "id": 11176242652, "lat": 1.9969468, "lon": 39.7551383}, {"type": "way", "id": 367403164, "nodes": [3713284595, 3713284607, 3713284605, 3713284602, 3713284593, 3713284595], "tags": {"amenity": "hospital", "name": "Ganyure Dispensary"}}, {"type": "way", "id": 367403167, "nodes": [3713284452, 3713284448, 3713284444, 3713284442, 3713284443, 3713284439, 3713284433, 3713284435, 3713284441, 3713284445, 3713284449, 3713284453, 3713284454, 3713284452], "tags": {"amenity": "pharmacy", "name": "Shanta-abaq Dispensary"}}, {"type": "way", "id": 744500278, "nodes": [3693558404, 11176242646, 11176242644, 11176242643, 11176242645, 11176242650, 11176242649, 7009771610, 11176242651, 11176242652, 7300686171, 7300686170, 7300686165, 7300686163, 7300686169, 7300686167, 7300686164, 7300686166, 7300686168, 6967815299, 7009771608, 7009771604, 6967856821, 7300686172, 6967856822, 6967856823, 6967856820, 7009771605, 7009771606, 11176242648, 11176242647, 3693558404], "tags": {"amenity": "hospital", "building": "yes", "healthcare": "hospital", "name": "Giriftu Hospital"}}, {"type": "way", "id": 745378276, "nodes": [3680029606, 10000055292, 6977337206, 6977337207, 10000055291, 10000055290, 10000055289, 6977337208, 6977337209, 3680029606], "tags": {"addr:city": "Wajir", "addr:street": "Wajir-Moyale road", "amenity": "hospital", "building": "yes", "healthcare": "hospital", "name": "Alfurqan hospital", "operator": "private", "operator:type": "private"}}]}