{"version": 0.6, "generator": "Overpass API 0.7.61.5 4133829e", "osm3s": {"timestamp_osm_base": "2024-03-06T10:46:01Z", "copyright": "The data included in this document is from www.openstreetmap.org. The data is made available under ODbL."}, "elements": [{"type": "node", "id": 2385861247, "lat": 36.3323985, "lon": 43.1331995, "tags": {"amenity": "school", "name": "\u0645\u062f\u0631\u0633\u0629 \u0627\u0644\u0648\u0637\u0646 \u0627\u0644\u0625\u0628\u062a\u062f\u0627\u0626\u064a\u0629 \u0644\u0644\u0628\u0646\u064a\u0646", "name:en": "Al-Watan Primary School for boys"}}, {"type": "node", "id": 2484143811, "lat": 36.07829, "lon": 43.333148, "tags": {"alt_name": "\u0645\u062f\u0631\u0633\u0629 \u0627\u0644\u0645\u0641\u062a\u064a\u0627\u062a \u0627\u0644\u0625\u0628\u062a\u062f\u0627\u0626\u064a\u0629", "amenity": "school", "int_name": "Madrasat Muftiy\u0101t al Ibtid\u0101\u012byah, \u0645\u062f\u0631\u0633\u0629 \u0627\u0644\u0645\u0641\u062a\u064a\u0627\u062a \u0627\u0644\u0627\u0628\u062a\u062f\u0627\u0626\u064a\u0629, Madrasat Muftiyat al Ibtidaiyah, \u0645\u062f\u0631\u0633\u0629 \u0627\u0644\u0645\u0641\u062a\u064a\u0627\u062a \u0627\u0644\u0627\u0628\u062a\u062f\u0627\u0626\u064a\u0629", "name": "\u0645\u062f\u0631\u0633\u0629 \u0627\u0644\u0645\u0641\u062a\u064a\u0627\u062a \u0627\u0644\u0625\u0628\u062a\u062f\u0627\u0626\u064a\u0629", "name:ar": "\u0645\u062f\u0631\u0633\u0629 \u0627\u0644\u0645\u0641\u062a\u064a\u0627\u062a \u0627\u0644\u0625\u0628\u062a\u062f\u0627\u0626\u064a\u0629", "name:ar1": "\u0645\u062f\u0631\u0633\u0629 \u0627\u0644\u0645\u0641\u062a\u064a\u0627\u062a \u0627\u0644\u0625\u0628\u062a\u062f\u0627\u0626\u064a\u0629", "name:de": "Madrasat Muftiyat al Ibtidaiyah", "name:en": "Madrasat Muftiyat al Ibtidaiyah", "name:fr": "Madrasat Muftiyat al Ibtidaiyah"}}, {"type": "node", "id": 2484293330, "lat": 36.490519, "lon": 43.116078, "tags": {"addr:city": "\u062a\u0644\u0643\u064a\u0641", "alt_name": "\u0645\u062f\u0631\u0633\u0629 \u062a\u0644\u064a\u0643\u0641 \u0627\u0644\u0625\u0628\u062a\u062f\u0627\u0626\u064a\u0629", "amenity": "school", "int_name": "Madrasat Talk\u012bf al Ibtid\u0101\u012byah, \u0645\u062f\u0631\u0633\u0629 \u062a\u0644\u0643\u064a\u0641 \u0627\u0644\u0627\u0628\u062a\u062f\u0627\u0626\u064a\u0629, Madrasat Talkif al Ibtidaiyah, \u0645\u062f\u0631\u0633\u0629 \u062a\u0644\u0643\u064a\u0641 \u0627\u0644\u0627\u0628\u062a\u062f\u0627\u0626\u064a\u0629", "is_in": "Iraq , \u062c\u0645\u0647\u0648\u0631\u064a\u0629 \u0627\u0644\u0639\u0631\u0627\u0642", "name": "\u0645\u062f\u0631\u0633\u0629 \u062a\u0644\u064a\u0643\u0641 \u0627\u0644\u0625\u0628\u062a\u062f\u0627\u0626\u064a\u0629", "name:ar": "\u0645\u062f\u0631\u0633\u0629 \u062a\u0644\u064a\u0643\u0641 \u0627\u0644\u0625\u0628\u062a\u062f\u0627\u0626\u064a\u0629", "name:ar1": "\u0645\u062f\u0631\u0633\u0629 \u062a\u0644\u064a\u0643\u0641 \u0627\u0644\u0625\u0628\u062a\u062f\u0627\u0626\u064a\u0629", "name:de": "Madrasat Talkif al Ibtidaiyah", "name:en": "Madrasat Talkif al Ibtidaiyah", "name:fr": "Madrasat Talkif al Ibtidaiyah"}}, {"type": "node", "id": 2484293338, "lat": 36.493842, "lon": 43.116158, "tags": {"addr:city": "\u062a\u0644\u0643\u064a\u0641", "alt_name": "\u062b\u0627\u0646\u0648\u064a\u0629 \u062a\u0644\u0643\u064a\u0641", "amenity": "school", "int_name": "Th\u0101naw\u012byat Talk\u012bf, \u062b\u0627\u0646\u0648\u064a\u0629 \u062a\u0644\u0643\u064a\u0641, Thanawiyat Talkif, \u062b\u0627\u0646\u0648\u064a\u0629 \u062a\u0644\u0643\u064a\u0641", "is_in": "Iraq , \u062c\u0645\u0647\u0648\u0631\u064a\u0629 \u0627\u0644\u0639\u0631\u0627\u0642", "name": "\u062b\u0627\u0646\u0648\u064a\u0629 \u062a\u0644\u0643\u064a\u0641", "name:ar": "\u062b\u0627\u0646\u0648\u064a\u0629 \u062a\u0644\u0643\u064a\u0641", "name:ar1": "\u062b\u0627\u0646\u0648\u064a\u0629 \u062a\u0644\u0643\u064a\u0641", "name:de": "Thanawiyat Talkif", "name:en": "Thanawiyat Talkif", "name:fr": "Thanawiyat Talkif"}}, {"type": "node", "id": 2485312601, "lat": 36.301645, "lon": 43.111714, "tags": {"alt_name": "\u0645\u062f\u0631\u0633\u0629 \u0636\u0628\u0627\u0637 \u0635\u0641 \u0627\u0644\u0645\u0634\u0627\u0629", "amenity": "school", "int_name": "Madrasat \u1e10ub\u0101\u0163 \u015eaff al Mush\u0101t, \u0645\u062f\u0631\u0633\u0629 \u0636\u0628\u0627\u0637 \u0635\u0641 \u0627\u0644\u0645\u0634\u0627\u0629, Madrasat Dubat Saff al Mushat, \u0645\u062f\u0631\u0633\u0629 \u0636\u0628\u0627\u0637 \u0635\u0641 \u0627\u0644\u0645\u0634\u0627\u0629", "name": "\u0645\u062f\u0631\u0633\u0629 \u0636\u0628\u0627\u0637 \u0635\u0641 \u0627\u0644\u0645\u0634\u0627\u0629", "name:ar": "\u0645\u062f\u0631\u0633\u0629 \u0636\u0628\u0627\u0637 \u0635\u0641 \u0627\u0644\u0645\u0634\u0627\u0629", "name:ar1": "\u0645\u062f\u0631\u0633\u0629 \u0636\u0628\u0627\u0637 \u0635\u0641 \u0627\u0644\u0645\u0634\u0627\u0629", "name:de": "Madrasat Dubat Saff al Mushat", "name:en": "Madrasat Dubat Saff al Mushat", "name:fr": "Madrasat Dubat Saff al Mushat"}}, {"type": "node", "id": 2485312615, "lat": 36.422104, "lon": 43.235605, "tags": {"alt_name": "\u0645\u062f\u0631\u0633\u0629 \u0623\u0648\u0631\u0637\u0629 \u062e\u0631\u0627\u0628 \u0627\u0644\u0625\u0628\u062a\u062f\u0627\u0626\u064a\u0629", "amenity": "school", "int_name": "Madrasat \u016ar\u0163at Khar\u0101b al Ibtid\u0101\u012byah, \u0645\u062f\u0631\u0633\u0629 \u0627\u0648\u0631\u0637\u0629 \u062e\u0631\u0627\u0628 \u0627\u0644\u0627\u0628\u062a\u062f\u0627\u0626\u064a\u0629, Madrasat Urtat Kharab al Ibtidaiyah, \u0645\u062f\u0631\u0633\u0629 \u0627\u0648\u0631\u0637\u0629 \u062e\u0631\u0627\u0628 \u0627\u0644\u0627\u0628\u062a\u062f\u0627\u0626\u064a\u0629", "is_in": "Iraq , \u062c\u0645\u0647\u0648\u0631\u064a\u0629 \u0627\u0644\u0639\u0631\u0627\u0642", "name": "\u0645\u062f\u0631\u0633\u0629 \u0623\u0648\u0631\u0637\u0629 \u062e\u0631\u0627\u0628 \u0627\u0644\u0625\u0628\u062a\u062f\u0627\u0626\u064a\u0629", "name:ar": "\u0645\u062f\u0631\u0633\u0629 \u0623\u0648\u0631\u0637\u0629 \u062e\u0631\u0627\u0628 \u0627\u0644\u0625\u0628\u062a\u062f\u0627\u0626\u064a\u0629", "name:ar1": "\u0645\u062f\u0631\u0633\u0629 \u0623\u0648\u0631\u0637\u0629 \u062e\u0631\u0627\u0628 \u0627\u0644\u0625\u0628\u062a\u062f\u0627\u0626\u064a\u0629", "name:de": "Madrasat Urtat Kharab al Ibtidaiyah", "name:en": "Madrasat Urtat Kharab al Ibtidaiyah", "name:fr": "Madrasat Urtat Kharab al Ibtidaiyah"}}, {"type": "node", "id": 2485312620, "lat": 36.423058, "lon": 43.296815, "tags": {"alt_name": "\u0645\u062f\u0631\u0633\u0629 \u0627\u0644\u062f\u0631\u0627\u0648\u064a\u0634 \u0627\u0644\u0625\u0628\u062a\u062f\u0627\u0626\u064a\u0629", "amenity": "school", "int_name": "Madrasat ad Dar\u0101w\u012bsh al Ibtid\u0101\u012byah, \u0645\u062f\u0631\u0633\u0629 \u0627\u0644\u062f\u0631\u0627\u0648\u064a\u0634 \u0627\u0644\u0627\u0628\u062a\u062f\u0627\u0626\u064a\u0629, Madrasat ad Darawish al Ibtidaiyah, \u0645\u062f\u0631\u0633\u0629 \u0627\u0644\u062f\u0631\u0627\u0648\u064a\u0634 \u0627\u0644\u0627\u0628\u062a\u062f\u0627\u0626\u064a\u0629", "is_in": "Iraq , \u062c\u0645\u0647\u0648\u0631\u064a\u0629 \u0627\u0644\u0639\u0631\u0627\u0642", "name": "\u0645\u062f\u0631\u0633\u0629 \u0627\u0644\u062f\u0631\u0627\u0648\u064a\u0634 \u0627\u0644\u0625\u0628\u062a\u062f\u0627\u0626\u064a\u0629", "name:ar": "\u0645\u062f\u0631\u0633\u0629 \u0627\u0644\u062f\u0631\u0627\u0648\u064a\u0634 \u0627\u0644\u0625\u0628\u062a\u062f\u0627\u0626\u064a\u0629", "name:ar1": "\u0645\u062f\u0631\u0633\u0629 \u0627\u0644\u062f\u0631\u0627\u0648\u064a\u0634 \u0627\u0644\u0625\u0628\u062a\u062f\u0627\u0626\u064a\u0629", "name:de": "Madrasat ad Darawish al Ibtidaiyah", "name:en": "Madrasat ad Darawish al Ibtidaiyah", "name:fr": "Madrasat ad Darawish al Ibtidaiyah"}}, {"type": "node", "id": 3122352903, "lat": 36.3908146, "lon": 43.1991385}, {"type": "node", "id": 3122352906, "lat": 36.3912422, "lon": 43.1986605}, {"type": "node", "id": 3122352908, "lat": 36.3913295, "lon": 43.1998995}, {"type": "node", "id": 3122352910, "lat": 36.391761, "lon": 43.1994569}, {"type": "node", "id": 3123917763, "lat": 36.2607153, "lon": 43.3797875}, {"type": "node", "id": 3123917764, "lat": 36.2611067, "lon": 43.3809408}, {"type": "node", "id": 3123917765, "lat": 36.2605552, "lon": 43.3812493}, {"type": "node", "id": 3123917766, "lat": 36.2603433, "lon": 43.380745}, {"type": "node", "id": 3123917767, "lat": 36.2602157, "lon": 43.3798036}, {"type": "node", "id": 3219628881, "lat": 36.1596042, "lon": 43.2453549}, {"type": "node", "id": 3219628882, "lat": 36.1590854, "lon": 43.245861}, {"type": "node", "id": 3219628883, "lat": 36.1594071, "lon": 43.2463669}, {"type": "node", "id": 3219628884, "lat": 36.1599259, "lon": 43.2458607}, {"type": "node", "id": 4138007195, "lat": 36.3704822, "lon": 43.2939567, "tags": {"amenity": "school", "name": "\u0645\u062f\u0631\u0633\u0629 \u0628\u0627\u0632\u0648\u0627\u064a\u0627 \u0627\u0644\u0627\u0648\u0644\u0649"}}, {"type": "node", "id": 4138068796, "lat": 36.3682332, "lon": 43.2939439, "tags": {"amenity": "school", "name": "\u0645\u0643\u0627\u0646 \u0645\u062f\u0631\u0633\u0629 \u0628\u0627\u0632\u0648\u0627\u064a\u0627 \u0627\u0644\u0642\u062f\u064a\u0645\u0629", "name:ar": "\u0645\u062f\u0631\u0633\u0629 \u0628\u0627\u0632\u0648\u0627\u064a\u0627 \u0627\u0644\u0642\u062f\u064a\u0645\u0629", "name:en": "Bazwaya school", "name:ku": "\u0642\u0648\u062a\u0627\u0628\u062e\u0627\u0646\u064a \u0628\u0627\u0632\u0648\u0627\u064a\u0627"}}, {"type": "node", "id": 4245171189, "lat": 36.3700472, "lon": 43.1724909, "tags": {"addr:street": "\u0634\u0627\u0631\u0639 \u0627\u0644\u0645\u062b\u0646\u0649", "amenity": "school", "name": "\u0627\u0639\u062f\u0627\u062f\u064a\u0629 \u0627\u0644\u0631\u0633\u0627\u0644\u0629", "name:en": "AL Risala High School"}}, {"type": "node", "id": 4245171289, "lat": 36.3699088, "lon": 43.1753374, "tags": {"amenity": "school", "name": "\u0627\u0639\u062f\u0627\u062f\u064a\u0629 \u0627\u0644\u062a\u062d\u0631\u064a\u0631 \u0644\u0644\u0628\u0646\u0627\u062a"}}, {"type": "node", "id": 4245171489, "lat": 36.3705183, "lon": 43.1754656, "tags": {"amenity": "school", "name": "\u0627\u0628\u062a\u062f\u0627\u0626\u064a\u0629 \u0627\u0644\u0645\u062b\u0646\u0649"}}, {"type": "node", "id": 4297750091, "lat": 36.3504601, "lon": 43.1572695, "tags": {"amenity": "school", "name": "\u062b\u0627\u0646\u0648\u064a\u0629 \u0627\u0644\u0645\u062a\u0645\u064a\u0632\u064a\u0646"}}, {"type": "node", "id": 4297800391, "lat": 36.3467007, "lon": 43.1551546, "tags": {"amenity": "school", "name": "\u062b\u0627\u0646\u0648\u064a\u0629 \u0627\u0644\u0645\u062a\u0645\u064a\u0632\u0627\u062a"}}, {"type": "node", "id": 4297812191, "lat": 36.3697021, "lon": 43.1724772, "tags": {"amenity": "school", "name": "\u0625\u0639\u062f\u0627\u062f\u064a\u0629 \u0627\u0644\u0631\u0633\u0627\u0644\u0629"}}, {"type": "node", "id": 4297822589, "lat": 36.3549326, "lon": 43.2092755, "tags": {"amenity": "school", "name": "\u0639\u0628\u062f \u0627\u0644\u0648\u0647\u0627\u0628 \u0627\u0644\u0634\u0648\u0627\u0641"}}, {"type": "node", "id": 4299358193, "lat": 36.3390984, "lon": 43.1396064, "tags": {"amenity": "school", "name": "\u0627\u0644\u0625\u0639\u062f\u0627\u062f\u064a\u0629 \u0627\u0644\u0634\u0631\u0642\u064a\u0629"}}, {"type": "node", "id": 4299358194, "lat": 36.3343378, "lon": 43.1315584, "tags": {"amenity": "school", "name": "\u0627\u0644\u0625\u0639\u062f\u0627\u062f\u064a\u0629 \u0627\u0644\u063a\u0631\u0628\u064a\u0629"}}, {"type": "node", "id": 4299358195, "lat": 36.347893, "lon": 43.1166872, "tags": {"amenity": "school", "name": "\u0627\u0644\u0625\u0639\u062f\u0627\u062f\u064a\u0629 \u0627\u0644\u0645\u0631\u0643\u0632\u064a\u0629"}}, {"type": "node", "id": 4299366092, "lat": 36.4078773, "lon": 43.0907036, "tags": {"amenity": "school", "name": "\u0627\u0639\u062f\u0627\u062f\u064a\u0629 \u0627\u0644\u0631\u0634\u064a\u062f\u064a\u0629"}}, {"type": "node", "id": 4326494790, "lat": 36.3761079, "lon": 43.1499071, "tags": {"amenity": "school", "name": "\u0643\u0644\u064a\u0629 \u0647\u0646\u062f\u0633\u0629 \u0627\u0644\u062d\u0627\u0633\u0628\u0627\u062a"}}, {"type": "node", "id": 4376059703, "lat": 36.3537309, "lon": 43.1685881, "tags": {"amenity": "school", "name": "\u0625\u0639\u062f\u0627\u062f\u064a\u0629 \u0627\u0644\u0643\u0646\u062f\u064a"}}, {"type": "node", "id": 4376098590, "lat": 36.3200436, "lon": 43.1252392, "tags": {"amenity": "school", "name": "\u0634\u0637 \u0627\u0644\u0639\u0631\u0628 \u0644\u0644\u0628\u0646\u0627\u062a"}}, {"type": "node", "id": 4376113390, "lat": 36.3800287, "lon": 43.2129539, "tags": {"amenity": "school", "name": "\u0645\u062f\u0631\u0633\u0629 \u0627\u0644\u0628\u0648\u0627\u0633\u0644"}}, {"type": "node", "id": 4376119589, "lat": 36.3150922, "lon": 43.1202764, "tags": {"amenity": "school", "name": "\u0645\u062f\u0631\u0633\u0629 \u0627\u0644\u0637\u0644\u064a\u0639\u0629"}}, {"type": "node", "id": 4470700762, "lat": 36.2716985, "lon": 43.3774321, "tags": {"amenity": "school", "name": "First Qaraqosh Primary School"}}, {"type": "node", "id": 4470710643, "lat": 36.2713352, "lon": 43.3786445, "tags": {"amenity": "school", "name": "Dominican Sisters Primary School"}}, {"type": "node", "id": 4470741260, "lat": 36.2791968, "lon": 43.378849, "tags": {"amenity": "school"}}, {"type": "node", "id": 4470773764, "lat": 36.2728143, "lon": 43.3851498, "tags": {"amenity": "school", "name": "Qaraqosh Secondary School"}}, {"type": "node", "id": 4505909161, "lat": 36.3533852, "lon": 43.1451497, "tags": {"amenity": "school", "name": "\u0645\u062f\u0631\u0633\u0629 \u0627\u0644\u062e\u0645\u0627\u0626\u0644"}}, {"type": "node", "id": 4525357389, "lat": 36.3631511, "lon": 43.2950608, "tags": {"amenity": "school", "name": "\u062b\u0627\u0646\u0648\u064a\u0629 \u0628\u0627\u0632\u0648\u0627\u064a\u0627", "name:ar": "\u062b\u0627\u0646\u0648\u064a\u0629 \u0628\u0627\u0632\u0648\u0627\u064a\u0627"}}, {"type": "node", "id": 4526610789, "lat": 36.3802168, "lon": 43.1451911, "tags": {"amenity": "school", "name": "\u0643\u0644\u064a\u0629 \u0627\u0644\u0627\u062f\u0627\u0628", "name:ar": "\u0643\u0644\u064a\u0629 \u0627\u0644\u0627\u062f\u0627\u0628", "name:en": "College of Arts"}}, {"type": "node", "id": 4582621793, "lat": 36.3738209, "lon": 43.1722885, "tags": {"amenity": "school", "name": "\u0645\u062a\u0648\u0633\u0637\u0629 \u0627\u0644\u0645\u062b\u0646\u0649 \u0644\u0644\u0628\u0646\u0627\u062a", "name:ar": "\u0645\u062a\u0648\u0633\u0637\u0629 \u0627\u0644\u0645\u062b\u0646\u0649 \u0644\u0644\u0628\u0646\u0627\u062a"}}, {"type": "node", "id": 4582621794, "lat": 36.3742008, "lon": 43.1716402, "tags": {"amenity": "school", "name": "\u0631\u0648\u0636\u0629 \u0627\u0644\u0646\u0633\u0627\u0626\u0645", "name:ar": "\u0631\u0648\u0636\u0629 \u0627\u0644\u0646\u0633\u0627\u0626\u0645", "name:en": "al nasaam nursery"}}, {"type": "node", "id": 4681609504, "lat": 36.2644401, "lon": 43.3605854, "tags": {"amenity": "school", "name": "\u0627\u0639\u062f\u0627\u062f\u064a\u0629 \u0627\u0634\u0648\u0631 \u0644\u0644\u0628\u0646\u064a\u0646", "name:ar": "\u0627\u0639\u062f\u0627\u062f\u064a\u0629 \u0627\u0634\u0648\u0631 \u0644\u0644\u0628\u0646\u064a\u0646"}}, {"type": "node", "id": 4698165489, "lat": 36.3234723, "lon": 43.0856076, "tags": {"amenity": "school", "name": "\u0645\u0639\u0647\u062f \u0627\u0644\u062a\u0623\u0647\u064a\u0644 \u0627\u0644\u0645\u0647\u0646\u064a", "name:ar": "\u0645\u0639\u0647\u062f \u0627\u0644\u062a\u0623\u0647\u064a\u0644 \u0627\u0644\u0645\u0647\u0646\u064a"}}, {"type": "node", "id": 4702901892, "lat": 36.3449354, "lon": 43.1607052, "tags": {"amenity": "school", "name": "\u0645\u062f\u0631\u0633\u0629 \u0627\u0644\u0642\u0628\u0633 \u0627\u0644\u0627\u0628\u062a\u062f\u0627\u0626\u064a\u0629", "name:ar": "\u0645\u062f\u0631\u0633\u0629 \u0627\u0644\u0642\u0628\u0633 \u0627\u0644\u0627\u0628\u062a\u062f\u0627\u0626\u064a\u0629"}}, {"type": "node", "id": 4702901893, "lat": 36.3431186, "lon": 43.1624764, "tags": {"amenity": "school", "name": "\u0645\u062a\u0648\u0633\u0637\u0629 \u0628\u063a\u062f\u0627\u062f \u0644\u0644\u0628\u0646\u0627\u062a", "name:ar": "\u0645\u062a\u0648\u0633\u0637\u0629 \u0628\u063a\u062f\u0627\u062f \u0644\u0644\u0628\u0646\u0627\u062a"}}, {"type": "node", "id": 4702924589, "lat": 36.3415686, "lon": 43.1586099, "tags": {"addr:city": "Qaryat ash Shahid Yunis as Sabawi", "addr:street": "\u0634\u0627\u0631\u0639 30", "amenity": "school", "name": "\u0627\u0639\u062f\u0627\u062f\u064a\u0629 \u062e\u062f\u064a\u062c\u0629 \u0627\u0644\u0643\u0628\u0631\u0649 \u0644\u0644\u0628\u0646\u0627\u062a", "name:ar": "\u0627\u0639\u062f\u0627\u062f\u064a\u0629 \u062e\u062f\u064a\u062c\u0629 \u0627\u0644\u0643\u0628\u0631\u0649 \u0644\u0644\u0628\u0646\u0627\u062a"}}, {"type": "node", "id": 4713191992, "lat": 36.3335025, "lon": 43.2038155, "tags": {"amenity": "school", "name": "\u063a\u0632\u0629 \u0627\u0644\u0639\u0631\u0628\u064a\u0629", "name:ar": "\u063a\u0632\u0629 \u0627\u0644\u0639\u0631\u0628\u064a\u0629"}}, {"type": "node", "id": 4714907594, "lat": 36.3562041, "lon": 43.3818901, "tags": {"amenity": "school", "name": "\u062b\u0627\u0646\u0648\u064a\u0629 \u0628\u0631\u0637\u0644\u0629 \u0644\u0644\u0628\u0646\u0627\u062a", "name:ar": "\u062b\u0627\u0646\u0648\u064a\u0629 \u0628\u0631\u0637\u0644\u0629 \u0644\u0644\u0628\u0646\u0627\u062a"}}, {"type": "node", "id": 4714940989, "lat": 36.3551557, "lon": 43.3844798, "tags": {"amenity": "school", "name": "\u0645\u062f\u0631\u0633\u0629 \u0627\u0644\u0645\u0633\u0627\u0648\u0627\u0629 \u0644\u0644\u0628\u0646\u0627\u062a", "name:ar": "\u0645\u062f\u0631\u0633\u0629 \u0627\u0644\u0645\u0633\u0627\u0648\u0627\u0629 \u0644\u0644\u0628\u0646\u0627\u062a", "name:en": "Al Mswat basic school for girls"}}, {"type": "node", "id": 4714940990, "lat": 36.3761137, "lon": 43.1682645, "tags": {"amenity": "school", "name": "\u0645\u062f\u0631\u0633\u0629 \u064a\u0627\u0641\u0627 \u0627\u0644\u0627\u0628\u062a\u062f\u0627\u0626\u064a\u0629", "name:ar": "\u0645\u062f\u0631\u0633\u0629 \u064a\u0627\u0641\u0627 \u0627\u0644\u0627\u0628\u062a\u062f\u0627\u0626\u064a\u0629"}}, {"type": "node", "id": 4714941089, "lat": 36.3505591, "lon": 43.3700079, "tags": {"addr:city": "\u0628\u0631\u0637\u0644\u0629", "amenity": "school", "name": "\u0643\u0644\u064a\u0629 \u0627\u0644\u0646\u0648\u0631 \u0627\u0644\u062c\u0627\u0645\u0639\u0629", "name:ar": "\u0645\u062f\u0631\u0633\u0629 \u0627\u0644\u0627\u062c\u064a\u0627\u0644 \u0627\u0644\u0645\u0633\u062a\u0642\u0628\u0644 \u0627\u0644\u0627\u0647\u0644\u064a\u0629", "name:en": "al'ajyal almustaqbal al'ahlia school"}}, {"type": "node", "id": 4714941389, "lat": 36.3679752, "lon": 43.1710137, "tags": {"amenity": "school", "name": "\u0645\u062a\u0648\u0633\u0637\u0629 \u0639\u062b\u0645\u0627\u0646 \u0628\u0646 \u0639\u0641\u0627\u0646 \u0644\u0644\u0628\u0646\u064a\u0646", "name:ar": "\u0645\u062a\u0648\u0633\u0637\u0629 \u0639\u062b\u0645\u0627\u0646 \u0628\u0646 \u0639\u0641\u0627\u0646 \u0644\u0644\u0628\u0646\u064a\u0646"}}, {"type": "node", "id": 4717392492, "lat": 36.3828035, "lon": 43.1615313, "tags": {"amenity": "school", "name": "\u0645\u062a\u0648\u0633\u0637\u0629 \u0627\u0644\u0646\u0636\u0627\u0644 \u0644\u0644\u0628\u0646\u064a\u0646", "name:ar": "\u0645\u062a\u0648\u0633\u0637\u0629 \u0627\u0644\u0646\u0636\u0627\u0644 \u0644\u0644\u0628\u0646\u064a\u0646"}}, {"type": "node", "id": 4717394693, "lat": 36.3481802, "lon": 43.1021574, "tags": {"amenity": "school", "name": "\u0645\u062f\u0631\u0633\u0629 \u0633\u064a\u0646\u0627\u0621 \u0627\u0644\u0627\u0628\u062a\u062f\u0627\u0626\u064a\u0629", "name:ar": "\u0645\u062f\u0631\u0633\u0629 \u0633\u064a\u0646\u0627\u0621 \u0627\u0644\u0627\u0628\u062a\u062f\u0627\u0626\u064a\u0629"}}, {"type": "node", "id": 4717396691, "lat": 36.3860666, "lon": 43.1576462, "tags": {"amenity": "school", "name": "\u0645\u062f\u0631\u0633\u0629 \u0627\u0644\u0627\u0632\u062f \u0627\u0644\u0627\u0628\u062a\u062f\u0627\u0626\u064a\u0629", "name:ar": "\u0645\u062f\u0631\u0633\u0629 \u0627\u0644\u0627\u0632\u062f \u0627\u0644\u0627\u0628\u062a\u062f\u0627\u0626\u064a\u0629"}}, {"type": "node", "id": 4717463391, "lat": 36.3822031, "lon": 43.160879, "tags": {"amenity": "school", "name": "\u0627\u0628\u062a\u062f\u0627\u0626\u064a\u0629 \u0627\u0628\u0646 \u062d\u0632\u0645", "name:ar": "\u0627\u0628\u062a\u062f\u0627\u0626\u064a\u0629 \u0627\u0628\u0646 \u062d\u0632\u0645"}}, {"type": "node", "id": 4717465789, "lat": 36.3510935, "lon": 43.1169986, "tags": {"amenity": "school", "name": "\u0627\u0639\u062f\u0627\u062f\u064a\u0629 \u0627\u0644\u064a\u0642\u0638\u0629 \u0644\u0644\u0628\u0646\u0627\u062a", "name:ar": "\u0627\u0639\u062f\u0627\u062f\u064a\u0629 \u0627\u0644\u064a\u0642\u0638\u0629 \u0644\u0644\u0628\u0646\u0627\u062a"}}, {"type": "node", "id": 4731901723, "lat": 36.3525005, "lon": 43.1648, "tags": {"amenity": "school", "name": "\u0645\u062f\u0631\u0633\u0629 \u062c\u0646\u064a\u0646 \u0627\u0644\u0627\u0628\u062a\u062f\u0627\u0626\u064a\u0629", "name:ar": "\u0645\u062f\u0631\u0633\u0629 \u062c\u0646\u064a\u0646 \u0627\u0644\u0627\u0628\u062a\u062f\u0627\u0626\u064a\u0629"}}, {"type": "node", "id": 4737492922, "lat": 36.3232915, "lon": 43.1184239, "tags": {"addr:street": "\u062d\u064a \u0627\u0644\u0645\u0646\u0635\u0648\u0631", "amenity": "school", "name": "\u0645\u062f\u0631\u0633\u0629 \u0627\u0628\u0646 \u0632\u064a\u062f\u0648\u0646 \u0627\u0644\u0627\u0628\u062a\u062f\u0627\u0626\u064a\u0629", "name:ar": "\u0645\u062f\u0631\u0633\u0629 \u0627\u0628\u0646 \u0632\u064a\u062f\u0648\u0646 \u0627\u0644\u0627\u0628\u062a\u062f\u0627\u0626\u064a\u0629", "operator": "\u0648\u0632\u0627\u0631\u0629 \u0627\u0644\u062a\u0631\u0628\u064a\u0629"}}, {"type": "node", "id": 4738093525, "lat": 36.3171581, "lon": 43.1192167, "tags": {"addr:street": "\u062d\u064a \u0627\u0644\u0645\u0646\u0635\u0648\u0631", "amenity": "school", "name": "\u0645\u062a\u0648\u0633\u0637\u0629 \u0627\u0644\u0627\u0645\u0644 \u0644\u0644\u0628\u0646\u064a\u0646", "name:ar": "\u0645\u062a\u0648\u0633\u0637\u0629 \u0627\u0644\u0627\u0645\u0644 \u0644\u0644\u0628\u0646\u064a\u0646", "name:en": "al amal m.school for boys", "operator": "\u0648\u0632\u0627\u0631\u0629 \u0627\u0644\u062a\u0631\u0628\u064a\u0629 \u0627\u0644\u0639\u0631\u0627\u0642\u064a\u0629"}}, {"type": "node", "id": 4738093526, "lat": 36.3219901, "lon": 43.1121639, "tags": {"addr:street": "\u062d\u064a \u0627\u0644\u0645\u0646\u0635\u0648\u0631", "amenity": "school", "name": "\u0645\u062a\u0648\u0633\u0637\u0629 \u0627\u0644\u0645\u0646\u0635\u0648\u0631 \u0644\u0644\u0628\u0646\u064a\u0646", "name:ar": "\u0645\u062a\u0648\u0633\u0637\u0629 \u0627\u0644\u0645\u0646\u0635\u0648\u0631 \u0644\u0644\u0628\u0646\u064a\u0646", "operator": "\u0648\u0632\u0627\u0631\u0629 \u0627\u0644\u062a\u0631\u0628\u064a\u0629 \u0627\u0644\u0639\u0631\u0627\u0642\u064a\u0629"}}, {"type": "node", "id": 4738093527, "lat": 36.3227422, "lon": 43.1114728, "tags": {"addr:street": "\u062d\u064a \u0627\u0644\u0645\u0646\u0635\u0648\u0631", "amenity": "school", "name": "\u0645\u062a\u0648\u0633\u0637\u0629 \u0627\u0644\u0645\u0646\u0635\u0648\u0631 \u0644\u0644\u0628\u0646\u064a\u0646", "name:ar": "\u0645\u062a\u0648\u0633\u0637\u0629 \u0627\u0644\u0645\u0646\u0635\u0648\u0631 \u0644\u0644\u0628\u0646\u064a\u0646", "operator": "\u0648\u0632\u0627\u0631\u0629 \u0627\u0644\u062a\u0631\u0628\u064a\u0629 \u0627\u0644\u0639\u0631\u0627\u0642\u064a\u0629"}}, {"type": "node", "id": 4738093623, "lat": 36.3218569, "lon": 43.1099657, "tags": {"amenity": "school", "name": "\u0645\u062f\u0631\u0633\u0629 \u0627\u0644\u0645\u0646\u0635\u0648\u0631 \u0627\u0644\u0627\u0628\u062a\u062f\u0627\u0626\u064a\u0629 \u0644\u0644\u0628\u0646\u0627\u062a", "name:ar": "\u0645\u062f\u0631\u0633\u0629 \u0627\u0644\u0645\u0646\u0635\u0648\u0631 \u0627\u0644\u0627\u0628\u062a\u062f\u0627\u0626\u064a\u0629 \u0644\u0644\u0628\u0646\u0627\u062a", "operator": "\u0648\u0632\u0627\u0631\u0629 \u0627\u0644\u062a\u0631\u0628\u064a\u0629 \u0627\u0644\u0639\u0631\u0627\u0642\u064a\u0629"}}, {"type": "node", "id": 4738093624, "lat": 36.319355, "lon": 43.1127111, "tags": {"addr:street": "\u062d\u064a \u0627\u0644\u0645\u0646\u0635\u0648\u0631", "amenity": "school", "name": "\u0645\u062f\u0631\u0633\u0629 \u0627\u0644\u0645\u0646\u0635\u0648\u0631 \u0627\u0644\u0627\u0628\u062a\u062f\u0627\u0626\u064a\u0629 \u0644\u0644\u0628\u0646\u064a\u0646", "name:ar": "\u0645\u062f\u0631\u0633\u0629 \u0627\u0644\u0645\u0646\u0635\u0648\u0631 \u0627\u0644\u0627\u0628\u062a\u062f\u0627\u0626\u064a\u0629 \u0644\u0644\u0628\u0646\u064a\u0646", "operator": "\u0648\u0632\u0627\u0631\u0629 \u0627\u0644\u062a\u0631\u0628\u064a\u0629 \u0627\u0644\u0639\u0631\u0627\u0642\u064a\u0629"}}, {"type": "node", "id": 4738093625, "lat": 36.3222966, "lon": 43.1172399, "tags": {"amenity": "school", "name": "\u0634\u0639\u0628\u0629 \u0627\u0644\u0645\u062e\u062a\u0628\u0631\u0627\u062a \u0627\u0644\u0639\u0644\u0645\u064a\u0629", "name:ar": "\u0634\u0639\u0628\u0629 \u0627\u0644\u0645\u062e\u062a\u0628\u0631\u0627\u062a \u0627\u0644\u0639\u0644\u0645\u064a\u0629", "operator": "\u0648\u0632\u0627\u0631\u0629 \u0627\u0644\u062a\u0631\u0628\u064a\u0629 \u0627\u0644\u0639\u0631\u0627\u0642\u064a\u0629"}}, {"type": "node", "id": 4738093626, "lat": 36.3241608, "lon": 43.1205401, "tags": {"amenity": "school", "name": "\u0645\u0639\u0647\u062f \u0627\u0639\u062f\u0627\u062f \u0627\u0644\u0645\u0639\u0644\u0645\u064a\u0646", "name:ar": "\u0645\u0639\u0647\u062f \u0627\u0639\u062f\u0627\u062f \u0627\u0644\u0645\u0639\u0644\u0645\u064a\u0646", "operator": "\u0648\u0632\u0627\u0631\u0629 \u0627\u0644\u062a\u0631\u0628\u064a\u0629 \u0627\u0644\u0639\u0631\u0627\u0642\u064a\u0629"}}, {"type": "node", "id": 4738093722, "lat": 36.3167333, "lon": 43.120081, "tags": {"addr:street": "\u062d\u064a \u0627\u0644\u0645\u0646\u0635\u0648\u0631 ..\u0642\u0631\u0628 \u0645\u0639\u0645\u0644 \u0627\u0644\u0645\u0634\u0631\u0648\u0628\u0627\u062a \u0627\u0644\u063a\u0627\u0632\u064a\u0629 \u0645\u0634\u0646", "amenity": "school", "name": "\u0627\u0639\u062f\u0627\u062f\u064a\u0629 \u0627\u0644\u062d\u0643\u0645\u0629 \u0644\u0644\u0628\u0646\u064a\u0646", "name:ar": "\u0627\u0639\u062f\u0627\u062f\u064a\u0629 \u0627\u0644\u062d\u0643\u0645\u0629 \u0644\u0644\u0628\u0646\u064a\u0646", "name:en": "alhekma high school for male", "operator": "\u0648\u0632\u0627\u0631\u0629 \u0627\u0644\u062a\u0631\u0628\u064a\u0629 \u0627\u0644\u0639\u0631\u0627\u0642\u064a\u0629"}}, {"type": "node", "id": 4738103221, "lat": 36.3229185, "lon": 43.1136624, "tags": {"addr:street": "\u062d\u064a \u0627\u0644\u0645\u0646\u0635\u0648\u0631 \u0642\u0631\u0628 \u062c\u0627\u0645\u0639 \u0627\u0644\u062d\u0642", "amenity": "school", "name": "\u062b\u0627\u0646\u0648\u064a\u0629 \u0627\u0644\u0641\u0636\u064a\u0644\u0629 \u0644\u0644\u0628\u0646\u0627\u062a", "name:ar": "\u062b\u0627\u0646\u0648\u064a\u0629 \u0627\u0644\u0641\u0636\u064a\u0644\u0629 \u0644\u0644\u0628\u0646\u0627\u062a", "name:en": "alfadhila school", "operator": "\u0648\u0632\u0627\u0631\u0629 \u0627\u0644\u062a\u0631\u0628\u064a\u0629 \u0627\u0644\u0639\u0631\u0627\u0642\u064a\u0629"}}, {"type": "node", "id": 4746662430, "lat": 36.4161342, "lon": 43.1174329, "tags": {"addr:street": "\u0633\u0627\u064a\u062f\u064a\u0646 \u0643\u0646\u064a\u0633\u0629 \u0645\u0627\u0631\u0643\u0648\u0631\u0643\u064a\u0633", "amenity": "school", "name": "\u062b\u0627\u0646\u0648\u064a\u0629 \u0627\u0644\u0627\u0648\u0627\u0626\u0644 \u0627\u0644\u0627\u0647\u0644\u064a\u0629", "name:ar": "\u062b\u0627\u0646\u0648\u064a\u0629 \u0627\u0644\u0627\u0648\u0627\u0626\u0644 \u0627\u0644\u0627\u0647\u0644\u064a\u0629", "name:en": "Al-awayl private school"}}, {"type": "node", "id": 4747789821, "lat": 36.3388391, "lon": 43.1537815, "tags": {"amenity": "school", "name": "\u062b\u0627\u0646\u0648\u064a\u0629 \u0623\u064a\u0634\u0642 \u0646\u064a\u0646\u0648\u0649 \u0627\u0644\u0627\u0647\u0644\u064a\u0629", "name:ar": "\u062b\u0627\u0646\u0648\u064a\u0629 \u0627\u0644\u0645\u062a\u0641\u0648\u0642\u064a\u0646 \u0646\u064a\u0646\u0648\u0649 \u0627\u0644\u0627\u0647\u0644\u064a\u0629", "name:en": "privet ishik college"}}, {"type": "node", "id": 4749010122, "lat": 36.3384171, "lon": 43.1045775, "tags": {"amenity": "school", "name": "\u0627\u0639\u062f\u0627\u062f\u064a\u0629 \u0627\u0644\u0627\u0646\u062a\u0635\u0627\u0631 \u0627\u0644\u0635\u0646\u0627\u0639\u064a\u0629", "name:ar": "\u0627\u0639\u062f\u0627\u062f\u064a\u0629 \u0627\u0644\u0627\u0646\u062a\u0635\u0627\u0631 \u0627\u0644\u0635\u0646\u0627\u0639\u064a\u0629"}}, {"type": "node", "id": 4749062421, "lat": 36.3390771, "lon": 43.1043235, "tags": {"amenity": "school", "name": "\u0645\u062a\u0648\u0633\u0637\u0629 \u0627\u0644\u0628\u062d\u0631\u064a\u0646 \u0644\u0644\u0628\u0646\u064a\u0646", "name:ar": "\u0645\u062a\u0648\u0633\u0637\u0629 \u0627\u0644\u0628\u062d\u0631\u064a\u0646 \u0644\u0644\u0628\u0646\u064a\u0646"}}, {"type": "node", "id": 4749069321, "lat": 36.3358087, "lon": 43.1057058, "tags": {"amenity": "school", "name": "\u0646\u0639\u064a\u0645 \u0627\u0628\u0646 \u0627\u0644\u0645\u0633\u0639\u0648\u062f", "name:ar": "\u0645\u062f\u0631\u0633\u0629 \u0646\u0639\u064a\u0645 \u0627\u0628\u0646 \u0627\u0644\u0645\u0633\u0639\u0648\u062f", "name:en": "Naeem Ebn Masoud School"}}, {"type": "node", "id": 4763069021, "lat": 36.4121058, "lon": 43.1135401, "tags": {"amenity": "school", "name": "\u0627\u0639\u062f\u0627\u062f\u064a\u0629 \u0627\u0628\u064a \u062a\u0645\u0627\u0645 \u0644\u0644\u0628\u0646\u064a\u0646", "name:ar": "\u0627\u0639\u062f\u0627\u062f\u064a\u0629 \u0627\u0628\u064a \u062a\u0645\u0627\u0645 \u0644\u0644\u0628\u0646\u064a\u0646"}}, {"type": "node", "id": 4768366522, "lat": 36.374644, "lon": 43.1469392, "tags": {"amenity": "school", "name": "\u0627\u0639\u062f\u0627\u062f\u064a\u0629 \u0627\u0644\u0635\u0646\u0627\u0639\u0629", "name:ar": "\u0627\u0639\u062f\u0627\u062f\u064a\u0629 \u0627\u0644\u0635\u0646\u0627\u0639\u0629"}}, {"type": "node", "id": 4774573635, "lat": 36.3605183, "lon": 43.1870915, "tags": {"amenity": "school", "name": "\u0645/\u0627\u0644\u0645\u0633\u0639\u0648\u062f\u064a \u0644\u0644\u0628\u0646\u064a\u0646"}}, {"type": "node", "id": 4774573636, "lat": 36.3629966, "lon": 43.1917755, "tags": {"amenity": "school", "name": "\u0627\u0639\u062f\u0627\u062f\u064a\u0629 \u0639\u0628\u062f \u0627\u0644\u0639\u0632\u064a\u0632 \u0639\u0628\u062f \u0627\u0644\u0644\u0647", "name:ar": "\u0627\u0639\u062f\u0627\u062f\u064a\u0629 \u0639\u0628\u062f \u0627\u0644\u0639\u0632\u064a\u0632 \u0639\u0628\u062f \u0627\u0644\u0644\u0647"}}, {"type": "node", "id": 4774582626, "lat": 36.3717271, "lon": 43.1868311, "tags": {"amenity": "school", "name": "\u0627\u0639\u062f\u0627\u062f\u064a\u0629 \u0627\u0628\u064a \u062d\u0646\u064a\u0641\u0629", "name:ar": "\u0627\u0639\u062f\u0627\u062f\u064a\u0629 \u0627\u0628\u064a \u062d\u0646\u064a\u0641\u0629"}}, {"type": "node", "id": 4774583322, "lat": 36.3586619, "lon": 43.1899324, "tags": {"amenity": "school", "name": "\u0645\u062f\u0631\u0633\u0629 \u0627\u0644\u0627\u0628\u0631\u0627\u0631 \u0627\u0644\u0627\u0628\u062a\u062f\u0627\u0626\u064a\u0629", "name:ar": "\u0645\u062f\u0631\u0633\u0629 \u0627\u0644\u0627\u0628\u0631\u0627\u0631 \u0627\u0644\u0627\u0628\u062a\u062f\u0627\u0626\u064a\u0629"}}, {"type": "node", "id": 4775862521, "lat": 36.343179, "lon": 43.1625183, "tags": {"amenity": "school", "name": "\u0645\u062a\u0648\u0633\u0637\u0629 \u0628\u063a\u062f\u0627\u062f \u0644\u0644\u0628\u0646\u0627\u062a", "name:ar": "\u0645\u062a\u0648\u0633\u0637\u0629 \u0628\u063a\u062f\u0627\u062f \u0644\u0644\u0628\u0646\u0627\u062a"}}, {"type": "node", "id": 4775862621, "lat": 36.3452413, "lon": 43.1608105, "tags": {"amenity": "school", "name": "\u0627\u0628\u062a\u062f\u0627\u0626\u064a\u0629 \u0627\u0644\u0642\u0628\u0633", "name:ar": "\u0627\u0628\u062a\u062f\u0627\u0626\u064a\u0629 \u0627\u0644\u0642\u0628\u0633"}}, {"type": "node", "id": 4781845923, "lat": 36.3398029, "lon": 43.1387852, "tags": {"amenity": "school", "man_made": "water_tap", "name": "\u0645\u062f\u0631\u0633\u0629 \u0627\u0644\u0634\u0631\u0642\u064a\u0629", "name:ar": "\u0627\u0644\u0627\u0639\u062f\u0627\u062f\u064a\u0629 \u0627\u0644\u0634\u0631\u0642\u064a\u0629 \u0644\u0644\u0628\u0646\u064a\u0646"}}, {"type": "node", "id": 4787990224, "lat": 36.3678445, "lon": 43.1885082, "tags": {"amenity": "school", "name": "\u0645\u062f\u0631\u0633\u0629 \u0642\u0637\u0631 \u0627\u0644\u0646\u062f\u0649", "name:ar": "\u0645\u062f\u0631\u0633\u0629 \u0642\u0637\u0631 \u0627\u0644\u0646\u062f\u0649", "name:en": "Qatar Alnada basic school", "name:ku": "\u0642\u0648\u062a\u0627\u0628\u062e\u0627\u0646\u0647 \u0642\u062a\u0631 \u0646\u062f\u0647"}}, {"type": "node", "id": 4788010525, "lat": 36.36285, "lon": 43.1875382, "tags": {"amenity": "school", "name": "\u0645\u062a\u0648\u0633\u0637\u0629 \u0627\u0644\u0646\u0648\u0631 \u0644\u0644\u0628\u0646\u064a\u0646", "name:ar": "\u0645\u062a\u0648\u0633\u0637\u0629 \u0627\u0644\u0646\u0648\u0631 \u0644\u0644\u0628\u0646\u064a\u0646", "name:en": "Al-Noor Intermediate School for Boys"}}, {"type": "node", "id": 4788558621, "lat": 36.3764252, "lon": 43.1342296, "tags": {"amenity": "school", "name": "\u0627\u0644\u0645\u0648\u0647\u0648\u0628\u064a\u0646", "name:ar": "\u0627\u0644\u0645\u0648\u0647\u0648\u0628\u064a\u0646"}}, {"type": "node", "id": 4816800127, "lat": 36.323211, "lon": 43.1184551, "tags": {"addr:street": "\u062d\u064a \u0627\u0644\u0645\u0646\u0635\u0648\u0631", "amenity": "school", "name": "\u0645\u062f\u0631\u0633\u0629 \u0627\u0628\u0646 \u0632\u064a\u062f\u0648\u0646 \u0627\u0644\u0627\u0628\u062a\u062f\u0627\u0626\u064a\u0629\u0644\u0644\u0628\u0646\u064a\u0646", "name:ar": "\u0645\u062f\u0631\u0633\u0629 \u0627\u0628\u0646 \u0632\u064a\u062f\u0648\u0646 \u0627\u0644\u0627\u0628\u062a\u062f\u0627\u0626\u064a\u0629\u0644\u0644\u0628\u0646\u064a\u0646", "name:en": "ibn zaydoon p.school for boys", "operator": "\u0648\u0632\u0627\u0631\u0629 \u0627\u0644\u062a\u0631\u0628\u064a\u0629 \u0627\u0644\u0639\u0631\u0627\u0642\u064a\u0629-\u062a\u0631\u0628\u064a\u0629 \u0645\u062d\u0627\u0641\u0638\u0629 \u0646\u064a\u0646\u0648\u0649"}}, {"type": "node", "id": 4816800129, "lat": 36.324218, "lon": 43.115692, "tags": {"amenity": "school", "name": "\u0645\u062f\u0631\u0633\u0629 \u0627\u0644\u0645\u064a\u0633\u0644\u0648\u0646 \u0627\u0644\u0627\u0628\u062a\u062f\u0627\u0626\u064a\u0629 \u0644\u0644\u0628\u0646\u0627\u062a", "name:ar": "\u0645\u062f\u0631\u0633\u0629 \u0627\u0644\u0645\u064a\u0633\u0644\u0648\u0646 \u0627\u0644\u0627\u0628\u062a\u062f\u0627\u0626\u064a\u0629 \u0644\u0644\u0628\u0646\u0627\u062a"}}, {"type": "node", "id": 4816800130, "lat": 36.3238807, "lon": 43.1124039, "tags": {"amenity": "school", "name": "\u0631\u0648\u0636\u0629 \u0627\u0644\u0634\u0639\u0644\u0629", "name:ar": "\u0631\u0648\u0636\u0629 \u0627\u0644\u0634\u0639\u0644\u0629"}}, {"type": "node", "id": 4816800131, "lat": 36.3229937, "lon": 43.1115853, "tags": {"amenity": "school", "name": "\u0645\u062a\u0648\u0633\u0637\u0629 \u0627\u0644\u0645\u0646\u0635\u0648\u0631 \u0644\u0644\u0628\u0646\u064a\u0646", "name:ar": "\u0645\u062a\u0648\u0633\u0637\u0629 \u0627\u0644\u0645\u0646\u0635\u0648\u0631 \u0644\u0644\u0628\u0646\u064a\u0646"}}, {"type": "node", "id": 4816800132, "lat": 36.3193799, "lon": 43.1128205, "tags": {"amenity": "school", "name": "\u0645\u062f\u0631\u0633\u0629 \u0627\u0644\u0645\u0646\u0635\u0648\u0631 \u0644\u0644\u0628\u0646\u064a\u0646", "name:ar": "\u0645\u062f\u0631\u0633\u0629 \u0627\u0644\u0645\u0646\u0635\u0648\u0631 \u0644\u0644\u0628\u0646\u064a\u0646"}}, {"type": "node", "id": 4816800423, "lat": 36.3217824, "lon": 43.109883, "tags": {"amenity": "school", "name": "\u0645\u062f\u0631\u0633\u0629 \u0627\u0644\u0645\u0646\u0635\u0648\u0631 \u0644\u0644\u0628\u0646\u0627\u062a", "name:ar": "\u0645\u062f\u0631\u0633\u0629 \u0627\u0644\u0645\u0646\u0635\u0648\u0631 \u0644\u0644\u0628\u0646\u0627\u062a"}}, {"type": "node", "id": 4816800425, "lat": 36.3158618, "lon": 43.1131198, "tags": {"amenity": "school", "name": "\u0645\u062a\u0648\u0633\u0637\u0629 \u0627\u0644\u0645\u0627\u0645\u0648\u0646 \u0644\u0644\u0628\u0646\u0627\u062a", "name:ar": "\u0645\u062a\u0648\u0633\u0637\u0629 \u0627\u0644\u0645\u0627\u0645\u0648\u0646 \u0644\u0644\u0628\u0646\u0627\u062a"}}, {"type": "node", "id": 4816811121, "lat": 36.3246164, "lon": 43.1204136, "tags": {"amenity": "school", "name": "\u0645\u0639\u0647\u062f \u0627\u0639\u062f\u0627\u062f \u0627\u0644\u0645\u0639\u0644\u0645\u064a\u0646", "name:ar": "\u0645\u0639\u0647\u062f \u0627\u0639\u062f\u0627\u062f \u0627\u0644\u0645\u0639\u0644\u0645\u064a\u0646"}}, {"type": "node", "id": 4818122922, "lat": 36.3800023, "lon": 43.1354257, "tags": {"amenity": "school", "name": "\u0625\u0639\u062f\u0627\u062f\u064a\u0629 \u0639\u0628\u062f \u0627\u0644\u0631\u062d\u0645\u0646 \u0627\u0644\u063a\u0627\u0641\u0642\u064a", "name:ku": "\u0639\u0628\u062f \u0627\u0644\u0631\u062d\u0645\u0646 \u0627\u0644\u063a\u0627\u0641\u0642\u064a"}}, {"type": "node", "id": 4821081424, "lat": 36.4014713, "lon": 43.1182809, "tags": {"amenity": "school", "name": "\u0631\u0648\u0636\u0629 \u0627\u0644\u0635\u0646\u0648\u0628\u0631", "name:ar": "\u0631\u0648\u0636\u0629 \u0627\u0644\u0635\u0646\u0648\u0628\u0631"}}, {"type": "node", "id": 4821088227, "lat": 36.4120658, "lon": 43.1141417, "tags": {"amenity": "school", "name": "\u0627\u0639\u062f\u0627\u062f\u064a\u0629 \u0627\u0628\u064a \u062a\u0645\u0627\u0645", "name:ar": "\u0627\u0639\u062f\u0627\u062f\u064a\u0629 \u0627\u0628\u064a \u062a\u0645\u0627\u0645"}}, {"type": "node", "id": 4821088422, "lat": 36.4121843, "lon": 43.1141276, "tags": {"amenity": "school", "name": "\u0645\u062a\u0648\u0633\u0637\u0629 \u062c\u0639\u0641\u0631 \u0628\u0646 \u0627\u0628\u064a \u0637\u0627\u0644\u0628", "name:ar": "\u0645\u062a\u0648\u0633\u0637\u0629 \u062c\u0639\u0641\u0631 \u0628\u0646 \u0627\u0628\u064a \u0637\u0627\u0644\u0628"}}, {"type": "node", "id": 4835656629, "lat": 36.3897393, "lon": 43.1663201, "tags": {"amenity": "school", "name": "\u0645\u062f\u0631\u0633\u0629 \u0645\u0635\u0639\u0628 \u0628\u0646 \u0639\u0645\u064a\u0631", "name:ar": "\u0645\u062f\u0631\u0633\u0629 \u0645\u0635\u0639\u0628 \u0628\u0646 \u0639\u0645\u064a\u0631"}}, {"type": "node", "id": 4835656630, "lat": 36.3901831, "lon": 43.1669267, "tags": {"amenity": "school", "name": "\u0645\u062f\u0631\u0633\u0629 \u0639\u0645\u0631 \u0628\u0646 \u0639\u0628\u062f \u0627\u0644\u0639\u0632\u064a\u0632", "name:ar": "\u0645\u062f\u0631\u0633\u0629 \u0639\u0645\u0631 \u0628\u0646 \u0639\u0628\u062f \u0627\u0644\u0639\u0632\u064a\u0632"}}, {"type": "node", "id": 4853877423, "lat": 36.391153, "lon": 43.1685425, "tags": {"amenity": "school", "name": "\u0627\u0644\u0646\u0639\u0645\u0627\u0646 \u0628\u0646 \u0627\u0644\u0645\u0646\u0630\u0631", "name:ar": "\u0627\u0644\u0646\u0639\u0645\u0627\u0646 \u0628\u0646 \u0627\u0644\u0645\u0646\u0630\u0631", "operator": "\u0645\u062f\u0631\u0633\u0629 \u0627\u0628\u062a\u062f\u0627\u0626\u064a\u0629"}}, {"type": "node", "id": 4853877424, "lat": 36.3902286, "lon": 43.1668827, "tags": {"amenity": "school", "name": "\u0645\u0635\u0639\u0628 \u0628\u0646 \u0639\u0645\u064a\u0631 \u0644\u0644\u0628\u0646\u064a\u0646 /\u0627\u0644\u062d\u0648\u0631 \u0627\u0644\u0639\u064a\u0646 \u0644\u0644\u0628\u0646\u0627\u062a", "name:ar": "\u0645\u0635\u0639\u0628 \u0628\u0646 \u0639\u0645\u064a\u0631 \u0644\u0644\u0628\u0646\u064a\u0646 /\u0627\u0644\u062d\u0648\u0631 \u0627\u0644\u0639\u064a\u0646 \u0644\u0644\u0628\u0646\u0627\u062a", "operator": "\u0627\u0628\u062a\u062f\u0627\u0626\u064a\u0629"}}, {"type": "node", "id": 4853877526, "lat": 36.3918577, "lon": 43.1693356, "tags": {"amenity": "school", "name": "\u0627\u0644\u062d\u0631\u064a\u0629", "name:ar": "\u0627\u0644\u062d\u0631\u064a\u0629", "operator": "\u0645\u062a\u0648\u0633\u0637\u0629"}}, {"type": "node", "id": 4853889122, "lat": 36.3906271, "lon": 43.1673186, "tags": {"amenity": "school", "name": "\u0639\u0645\u0631 \u0628\u0646 \u0639\u0628\u062f \u0627\u0644\u0639\u0632\u064a\u0632", "name:ar": "\u0639\u0645\u0631 \u0628\u0646 \u0639\u0628\u062f \u0627\u0644\u0639\u0632\u064a\u0632", "operator": "\u0627\u0639\u062f\u0627\u062f\u064a\u0629"}}, {"type": "node", "id": 4853892921, "lat": 36.3918444, "lon": 43.1693545, "tags": {"amenity": "school", "name": "\u0627\u0644\u062d\u0631\u064a\u0629", "name:ar": "\u0627\u0644\u062d\u0631\u064a\u0629"}}, {"type": "node", "id": 4871933724, "lat": 36.2684113, "lon": 43.386945, "tags": {"amenity": "school", "name": "\u0645\u062f\u0631\u0633\u0629 \u0627\u0644\u0645\u0639\u0644\u0645 \u0627\u0644\u0627\u0628\u062a\u062f\u0627\u0626\u064a\u0629", "name:ar": "\u0645\u062f\u0631\u0633\u0629 \u0627\u0644\u0645\u0639\u0644\u0645 \u0627\u0644\u0627\u0628\u062a\u062f\u0627\u0626\u064a\u0629", "name:en": "Elementary Teacher School"}}, {"type": "node", "id": 4871933725, "lat": 36.2702601, "lon": 43.3813742, "tags": {"amenity": "school", "name": "\u0645\u062a\u0648\u0633\u0637\u0629 \u0642\u0631\u0629\u0642\u0648\u0634 \u0644\u0644\u0628\u0646\u064a\u0646", "name:ar": "\u0645\u062a\u0648\u0633\u0637\u0629 \u0642\u0631\u0629\u0642\u0648\u0634 \u0644\u0644\u0628\u0646\u064a\u0646", "name:en": "Middle Karakouche Boys"}}, {"type": "node", "id": 4872726129, "lat": 36.3396776, "lon": 43.1183536, "tags": {"amenity": "school"}}, {"type": "node", "id": 4872726133, "lat": 36.3403232, "lon": 43.1180282, "tags": {"amenity": "school", "name": "\u0627\u0633\u0645\u0627\u0621"}}, {"type": "node", "id": 4872739526, "lat": 36.3391383, "lon": 43.1395045, "tags": {"amenity": "school", "name": "\u0627\u0644\u0627\u0639\u062f\u0627\u062f\u064a\u0629 \u0627\u0644\u0634\u0631\u0642\u064a\u0629"}}, {"type": "node", "id": 4872746634, "lat": 36.3419165, "lon": 43.1166024, "tags": {"amenity": "school", "name": "\u062f\u0645\u0634\u0642", "name:ar": "\u0627\u0639\u062f\u0627\u062f\u064a\u0629 \u062f\u0645\u0634\u0642"}}, {"type": "node", "id": 4872751525, "lat": 36.3483418, "lon": 43.1171646, "tags": {"amenity": "school", "name": "\u0627\u0644\u0627\u0639\u062f\u0627\u062f\u064a\u0629 \u0627\u0644\u0645\u0631\u0643\u0632\u064a\u0629 \u0644\u0644\u0628\u0646\u064a\u0646"}}, {"type": "node", "id": 4872751624, "lat": 36.3341875, "lon": 43.1314524, "tags": {"amenity": "school", "name": "\u0627\u0644\u0627\u0639\u062f\u0627\u062f\u064a\u0629 \u0627\u0644\u063a\u0631\u0628\u064a\u0629"}}, {"type": "node", "id": 4872751626, "lat": 36.4016166, "lon": 43.1189311, "tags": {"amenity": "school", "name": "\u0627\u0633\u0627\u0645\u0629 \u0628\u0646 \u0632\u064a\u062f"}}, {"type": "node", "id": 4872759828, "lat": 36.3383453, "lon": 43.118784, "tags": {"amenity": "school", "name": "\u0627\u0644\u062e\u0632\u0631\u062c\u064a\u0629 \u0644\u0644\u0628\u0646\u064a\u0646"}}, {"type": "node", "id": 4884521624, "lat": 36.3511408, "lon": 43.2019753, "tags": {"amenity": "school", "name": "\u0631\u064a\u0627\u0636\u064a\u0627\u062a", "name:ar": "\u0631\u064a\u0627\u0636\u064a\u0627\u062a"}}, {"type": "node", "id": 4899593721, "lat": 36.4556195, "lon": 43.3421132, "tags": {"amenity": "school", "name": "\u0627\u0628\u062a\u062f\u0627\u0626\u064a\u0629 \u0628\u062d\u0632\u0627\u0646\u064a \u0644\u0644\u0628\u0646\u064a\u0646", "name:ar": "\u0627\u0628\u062a\u062f\u0627\u0626\u064a\u0629 \u0628\u062d\u0632\u0627\u0646\u064a \u0644\u0644\u0628\u0646\u064a\u0646"}}, {"type": "node", "id": 4908484156, "lat": 36.3964924, "lon": 43.1426024, "tags": {"amenity": "school", "name": "\u0645\u062f\u0631\u0633\u0629 \u0627\u0644\u0635\u0646\u0627\u062f\u064a\u062f \u0627\u0644\u0627\u0628\u062a\u062f\u0627\u0626\u064a\u0629 \u0644\u0644\u0628\u0646\u0627\u062a \u0648 \u0645\u062f\u0631\u0633\u0629 \u0644\u0628\u0627\u0628\u0627 \u0627\u0644\u0627\u0628\u062a\u062f\u0627\u0626\u064a\u0629 \u0644\u0644\u0628\u0646\u0627\u062a", "name:ar": "\u0645\u062f\u0631\u0633\u0629 \u0627\u0644\u0635\u0646\u0627\u062f\u064a\u062f \u0627\u0644\u0627\u0628\u062a\u062f\u0627\u0626\u064a\u0629 \u0644\u0644\u0628\u0646\u0627\u062a \u0648 \u0645\u062f\u0631\u0633\u0629 \u0644\u0628\u0627\u0628\u0627 \u0627\u0644\u0627\u0628\u062a\u062f\u0627\u0626\u064a\u0629 \u0644\u0644\u0628\u0646\u0627\u062a"}}, {"type": "node", "id": 4909661822, "lat": 36.373711, "lon": 43.0816574, "tags": {"amenity": "school", "name": "\u0627\u0644\u0635\u062d\u0627\u0628\u0629", "name:ar": "\u0627\u0644\u0635\u062d\u0627\u0628\u0629"}}, {"type": "node", "id": 4924584221, "lat": 36.3863091, "lon": 43.184452, "tags": {"amenity": "school", "name": "\u0627\u0644\u0632\u0647\u0648\u0631", "name:ar": "\u0627\u0644\u0632\u0647\u0648\u0631"}}, {"type": "node", "id": 4927429521, "lat": 36.3636778, "lon": 43.1996048, "tags": {"amenity": "school", "name": "\u0645\u062f\u0631\u0633\u0629 \u0627\u0644\u0642\u0627\u0626\u062f \u0627\u0644\u0645\u0646\u062a\u0635\u0631"}}, {"type": "node", "id": 4930941803, "lat": 36.3616027, "lon": 43.06589}, {"type": "node", "id": 4930941804, "lat": 36.3616892, "lon": 43.0659087}, {"type": "node", "id": 4930941805, "lat": 36.3617268, "lon": 43.0652526}, {"type": "node", "id": 4930941806, "lat": 36.3609333, "lon": 43.0651195}, {"type": "node", "id": 4930941807, "lat": 36.3608882, "lon": 43.0657686}, {"type": "node", "id": 4930941808, "lat": 36.3612003, "lon": 43.06582}, {"type": "node", "id": 4930941809, "lat": 36.3612436, "lon": 43.0658247}, {"type": "node", "id": 4930941810, "lat": 36.3615595, "lon": 43.0658807}, {"type": "node", "id": 4932035421, "lat": 36.3783309, "lon": 43.0800615, "tags": {"amenity": "school"}}, {"type": "node", "id": 4933194821, "lat": 36.3795098, "lon": 43.0793644, "tags": {"amenity": "school"}}, {"type": "node", "id": 4936970626, "lat": 36.3680495, "lon": 43.0803984, "tags": {"amenity": "school", "name": "\u0627\u0644\u0648\u0644\u0627\u0621", "name:ar": "\u0627\u0644\u0648\u0644\u0627\u0621"}}, {"type": "node", "id": 4936993621, "lat": 36.3886659, "lon": 43.0704787, "tags": {"amenity": "school", "name": "\u0627\u0644\u0635\u062d\u0627\u0628\u0629 \u0662", "name:ar": "\u0627\u0644\u0635\u062d\u0627\u0628\u0629 \u0662"}}, {"type": "node", "id": 4937224922, "lat": 36.3351709, "lon": 43.1363715, "tags": {"amenity": "school", "name": "\u062b\u0627\u0646\u0648\u064a\u0629 \u0627\u0633\u0644\u0627\u0645\u064a\u0629 \u0648\u0645\u0643\u062a\u0628\u0629", "name:ar": "\u062b\u0627\u0646\u0648\u064a\u0629 \u0627\u0633\u0644\u0627\u0645\u064a\u0629 \u0648\u0645\u0643\u062a\u0628\u0629"}}, {"type": "node", "id": 4938022021, "lat": 36.3819939, "lon": 43.1829897, "tags": {"amenity": "school", "name": "\u0645\u062f\u0631\u0633\u0629 \u0627\u0644\u0641\u0631\u0627\u0647\u064a\u062f\u064a", "name:ar": "\u0645\u062f\u0631\u0633\u0629 \u0627\u0644\u0641\u0631\u0627\u0647\u064a\u062f\u064a", "name:en": "Al farahidy school"}}, {"type": "node", "id": 4940100922, "lat": 36.3751186, "lon": 43.0731701, "tags": {"amenity": "school", "name": "\u062b\u0627\u0646\u0648\u064a\u0629 \u0633\u0648\u062f\u0629 \u0628\u0646\u062a \u0632\u0645\u0639\u0629", "name:ar": "\u062b\u0627\u0646\u0648\u064a\u0629 \u0633\u0648\u062f\u0629 \u0628\u0646\u062a \u0632\u0645\u0639\u0629"}}, {"type": "node", "id": 4940126122, "lat": 36.373463, "lon": 43.0733909, "tags": {"amenity": "school", "name": "\u0627\u0644\u062a\u0627\u0628\u0639\u064a\u0646", "name:ar": "\u0627\u0644\u062a\u0627\u0628\u0639\u064a\u0646"}}, {"type": "node", "id": 4942010907, "lat": 36.0958571, "lon": 43.3804942, "tags": {"amenity": "school", "operator": "Ministry of Education", "operator:type": "public"}}, {"type": "node", "id": 4942022277, "lat": 36.1494328, "lon": 43.317831, "tags": {"amenity": "school", "name": "Al Salamiyah High School", "operator": "Ministry of Education"}}, {"type": "node", "id": 4943762721, "lat": 36.379037, "lon": 43.1799979, "tags": {"amenity": "school", "name": "\u0645\u062a\u0648\u0633\u0637\u0629 \u0627\u0644\u0634\u0645\u0648\u062e", "name:ar": "\u0645\u062a\u0648\u0633\u0637\u0629 \u0627\u0644\u0634\u0645\u0648\u062e", "name:en": "Shomokh School"}}, {"type": "node", "id": 4955257623, "lat": 36.381987, "lon": 43.1399553, "tags": {"addr:street": "University of Mosul", "amenity": "school", "name:en": "Engineering College of Electronics"}}, {"type": "node", "id": 4960209324, "lat": 36.4027802, "lon": 43.1176534, "tags": {"amenity": "school", "name": "\u0627\u0639\u062f\u0627\u062f\u064a\u0629 \u0632\u064a\u0646\u0628", "name:ar": "\u0627\u0639\u062f\u0627\u062f\u064a\u0629 \u0632\u064a\u0646\u0628"}}, {"type": "node", "id": 4960209423, "lat": 36.4020139, "lon": 43.1135246, "tags": {"amenity": "school", "name": "\u0645\u062a\u0648\u0633\u0637 \u0635\u0646\u0639\u0627\u0621 \u0644\u0644\u0628\u0646\u0627\u062a", "name:ar": "\u0645\u062a\u0648\u0633\u0637 \u0635\u0646\u0639\u0627\u0621 \u0644\u0644\u0628\u0646\u0627\u062a"}}, {"type": "node", "id": 4961120424, "lat": 36.3790434, "lon": 43.1797438, "tags": {"amenity": "school", "name": "\u0645\u062a\u0648\u0633\u0637\u0629 \u0627\u0644\u0634\u0645\u0648\u062e", "name:ar": "\u0645\u062a\u0648\u0633\u0637\u0629 \u0627\u0644\u0634\u0645\u0648\u062e"}}, {"type": "node", "id": 4973192140, "lat": 36.3601057, "lon": 43.1066035, "tags": {"amenity": "school", "name": "\u0627\u0644\u0641\u0631\u062f\u0648\u0633 \u0627\u0644\u0627\u0647\u0644\u064a\u0629-\u0627\u0628\u062a\u062f\u0627\u0626\u064a\u0629", "name:ar": "\u0627\u0644\u0641\u0631\u062f\u0648\u0633 \u0627\u0644\u0627\u0647\u0644\u064a\u0629-\u0627\u0628\u062a\u062f\u0627\u0626\u064a\u0629"}}, {"type": "node", "id": 5017139324, "lat": 36.3793115, "lon": 43.175985, "tags": {"amenity": "school", "name": "\u0627\u0644\u0632\u0647\u0648\u0631 \u0644\u0644\u0628\u0646\u064a\u0646", "name:ar": "\u0627\u0644\u0632\u0647\u0648\u0631 \u0644\u0644\u0628\u0646\u064a\u0646"}}, {"type": "node", "id": 5022365424, "lat": 36.3592559, "lon": 43.1686809, "tags": {"amenity": "school", "name": "\u0645\u062a\u0648\u0633\u0637\u0629 \u0633\u064a\u0646\u0627\u0621 \u0644\u0644\u0628\u0646\u0627\u062a", "name:ar": "\u0645\u062a\u0648\u0633\u0637\u0629 \u0633\u064a\u0646\u0627\u0621 \u0644\u0644\u0628\u0646\u0627\u062a"}}, {"type": "node", "id": 5026597722, "lat": 36.3287679, "lon": 43.1979331, "tags": {"amenity": "school", "name": "\u0645\u062f\u0631\u0633\u0629 \u0627\u0644\u0639\u0648\u062f\u0629 \u0644\u0644\u0628\u0646\u0627\u062a", "name:ar": "\u0645\u062f\u0631\u0633\u0629 \u0627\u0644\u0639\u0648\u062f\u0629 \u0644\u0644\u0628\u0646\u0627\u062a"}}, {"type": "node", "id": 5030989721, "lat": 36.3772409, "lon": 43.1796682, "tags": {"amenity": "school", "name": "\u062b\u0627\u0646\u0648\u064a\u0629 \u062f\u064a\u0646\u064a\u0629 \u0627\u0645 \u0627\u0644\u0645\u0624\u0645\u0646\u064a\u0646 \u0639\u0627\u0626\u0634\u0629", "name:ar": "\u062b\u0627\u0646\u0648\u064a\u0629 \u062f\u064a\u0646\u064a\u0629 \u0627\u0645 \u0627\u0644\u0645\u0624\u0645\u0646\u064a\u0646 \u0639\u0627\u0626\u0634\u0629"}}, {"type": "node", "id": 5036869223, "lat": 36.3196953, "lon": 43.0999013, "tags": {"amenity": "school", "name": "\u0627\u0639\u062f\u0627\u062f\u064a\u0629 \u0627\u0644\u0631\u0636\u0648\u0627\u0646\u064a \u0644\u0644\u0628\u0646\u064a\u0646", "name:ar": "\u0627\u0639\u062f\u0627\u062f\u064a\u0629 \u0627\u0644\u0631\u0636\u0648\u0627\u0646\u064a \u0644\u0644\u0628\u0646\u064a\u0646"}}, {"type": "node", "id": 5036869228, "lat": 36.3253705, "lon": 43.0959289, "tags": {"amenity": "school", "name": "\u0645\u062f\u0631\u0633\u0629 \u0635\u0644\u0627\u062d \u0627\u0644\u062f\u064a\u0646 \u0644\u0644\u0628\u0646\u064a\u0646", "name:ar": "\u0645\u062f\u0631\u0633\u0629 \u0635\u0644\u0627\u062d \u0627\u0644\u062f\u064a\u0646 \u0644\u0644\u0628\u0646\u064a\u0646"}}, {"type": "node", "id": 5036869521, "lat": 36.3167042, "lon": 43.0942594, "tags": {"amenity": "school", "name": "\u0628\u0646 \u062e\u0644\u062f\u0648\u0646 \u0627\u0644\u0627\u0628\u062a\u062f\u0627\u0626\u064a\u0629 \u0627\u0644\u062b\u0627\u0646\u064a\u0629 \u0644\u0644\u0628\u0646\u064a\u0646", "name:ar": "\u0625\u0628\u0646 \u062e\u0644\u062f\u0648\u0646 \u0627\u0644\u0627\u0628\u062a\u062f\u0627\u0626\u064a\u0629 \u0627\u0644\u062b\u0627\u0646\u064a\u0629 \u0644\u0644\u0628\u0646\u064a\u0646", "name:en": "Eben Khaldoun Primary School for boys"}}, {"type": "node", "id": 5036869522, "lat": 36.3152068, "lon": 43.0897741, "tags": {"amenity": "school", "name": "\u0627\u0628\u0646 \u062e\u0644\u062f\u0648\u0646 \u0627\u0644\u0627\u0648\u0644\u0649 \u0644\u0644\u0628\u0646\u064a\u0646", "name:ar": "\u0627\u0628\u0646 \u062e\u0644\u062f\u0648\u0646 \u0627\u0644\u0627\u0648\u0644\u0649 \u0644\u0644\u0628\u0646\u064a\u0646"}}, {"type": "node", "id": 5036870121, "lat": 36.3168487, "lon": 43.0932245, "tags": {"amenity": "school", "name": "\u062b\u0627\u0646\u0648\u064a\u0629 \u0632\u0646\u0648\u0628\u064a\u0627 \u0644\u0644\u0628\u0646\u0627\u062a", "name:ar": "\u062b\u0627\u0646\u0648\u064a\u0629 \u0632\u0646\u0648\u0628\u064a\u0627 \u0644\u0644\u0628\u0646\u0627\u062a", "name:en": "Zanoubia High School For Girl"}}, {"type": "node", "id": 5036870122, "lat": 36.3146921, "lon": 43.0894255, "tags": {"amenity": "school", "name": "\u0645\u062a\u0648\u0633\u0637\u0629 \u0637\u0627\u0631\u0642 \u0628\u0646 \u0632\u064a\u0627\u062f \u0644\u0644\u0628\u0646\u064a\u0646", "name:ar": "\u0645\u062a\u0648\u0633\u0637\u0629 \u0637\u0627\u0631\u0642 \u0628\u0646 \u0632\u064a\u0627\u062f \u0644\u0644\u0628\u0646\u064a\u0646"}}, {"type": "node", "id": 5036870621, "lat": 36.3169893, "lon": 43.0915494, "tags": {"amenity": "school", "name": "\u0627\u0645 \u0627\u0644\u0643\u062a\u0627\u0628 \u0627\u0644\u0627\u0628\u062a\u062f\u0627\u0626\u064a\u0629 \u0644\u0644\u0628\u0646\u0627\u062a", "name:ar": "\u0627\u0645 \u0627\u0644\u0643\u062a\u0627\u0628 \u0627\u0644\u0627\u0628\u062a\u062f\u0627\u0626\u064a\u0629 \u0644\u0644\u0628\u0646\u0627\u062a"}}, {"type": "node", "id": 5036870622, "lat": 36.3261066, "lon": 43.0979634, "tags": {"amenity": "school", "name": "\u0645\u062a\u0648\u0633\u0637\u0629 \u0627\u0644\u0647\u062f\u0649 \u0644\u0644\u0628\u0646\u0627\u062a", "name:ar": "\u0645\u062a\u0648\u0633\u0637\u0629 \u0627\u0644\u0647\u062f\u0649 \u0644\u0644\u0628\u0646\u0627\u062a"}}, {"type": "node", "id": 5040409925, "lat": 36.3220483, "lon": 43.0945838, "tags": {"amenity": "school", "name": "\u0645\u062f\u0631\u0633\u0629 \u0627\u0644\u062b\u0648\u0627\u0631 \u0627\u0644\u0627\u0628\u062a\u062f\u0627\u0626\u064a\u0629 \u0627\u0644\u0645\u062e\u062a\u0644\u0637\u0629", "name:ar": "\u0645\u062f\u0631\u0633\u0629 \u0627\u0644\u062b\u0648\u0627\u0631 \u0627\u0644\u0627\u0628\u062a\u062f\u0627\u0626\u064a\u0629 \u0627\u0644\u0645\u062e\u062a\u0644\u0637\u0629"}}, {"type": "node", "id": 5040409926, "lat": 36.3242452, "lon": 43.0915203, "tags": {"amenity": "school", "name": "\u0645\u062f\u0631\u0633\u0629 \u0627\u0628\u0648 \u0639\u0628\u064a\u062f\u0629 \u0639\u0627\u0645\u0631 \u0628\u0646 \u0627\u0644\u062c\u0631\u0627\u062d", "name:ar": "\u0645\u062f\u0631\u0633\u0629 \u0627\u0628\u0648 \u0639\u0628\u064a\u062f\u0629 \u0639\u0627\u0645\u0631 \u0628\u0646 \u0627\u0644\u062c\u0631\u0627\u062d"}}, {"type": "node", "id": 5047985021, "lat": 36.3914457, "lon": 43.1490984, "tags": {"amenity": "school"}}, {"type": "node", "id": 5050342721, "lat": 36.3271233, "lon": 43.1006506, "tags": {"amenity": "school", "name": "\u0645\u0639\u0647\u062f \u0627\u0639\u062f\u0627\u062f \u0627\u0644\u0645\u0639\u0644\u0645\u0627\u062a/ \u0627\u0644\u0645\u0648\u0635\u0644", "name:ar": "\u0645\u0639\u0647\u062f \u0627\u0639\u062f\u0627\u062f \u0627\u0644\u0645\u0639\u0644\u0645\u0627\u062a/ \u0627\u0644\u0645\u0648\u0635\u0644"}}, {"type": "node", "id": 5050342723, "lat": 36.3267127, "lon": 43.1042851, "tags": {"amenity": "school", "name": "\u0645\u062a\u0648\u0633\u0637\u0629 \u0628\u0646 \u0627\u0644\u0647\u064a\u062b\u0645 \u0644\u0644\u0628\u0646\u064a\u0646", "name:ar": "\u0645\u062a\u0648\u0633\u0637\u0629 \u0628\u0646 \u0627\u0644\u0647\u064a\u062b\u0645 \u0644\u0644\u0628\u0646\u064a\u0646", "name:en": "Ibn Al-Haytham Intermediate School"}}, {"type": "node", "id": 5050342821, "lat": 36.3260833, "lon": 43.1044966, "tags": {"amenity": "school", "name": "\u0627\u0639\u062f\u0627\u062f\u064a\u0629 \u0639\u0645\u0631 \u0628\u0646 \u0627\u0644\u062e\u0637\u0627\u0628 \u0644\u0644\u0628\u0646\u064a\u0646", "name:ar": "\u0627\u0639\u062f\u0627\u062f\u064a\u0629 \u0639\u0645\u0631 \u0628\u0646 \u0627\u0644\u062e\u0637\u0627\u0628 \u0644\u0644\u0628\u0646\u064a\u0646", "name:en": "Omar Ben Al-Khattab Preparatory School"}}, {"type": "node", "id": 5050342822, "lat": 36.3318248, "lon": 43.1015131, "tags": {"amenity": "school", "name": "\u0627\u0639\u062f\u0627\u062f\u064a\u0629 \u0645\u0648\u0635\u0644 \u0627\u0644\u062c\u062f\u064a\u062f\u0629 \u0644\u0644\u0628\u0646\u0627\u062a", "name:ar": "\u0627\u0639\u062f\u0627\u062f\u064a\u0629 \u0645\u0648\u0635\u0644 \u0627\u0644\u062c\u062f\u064a\u062f\u0629 \u0644\u0644\u0628\u0646\u0627\u062a"}}, {"type": "node", "id": 5059172823, "lat": 36.3620178, "lon": 43.2949531, "tags": {"amenity": "school", "name": "\u0642\u0648\u062a\u0627\u0628\u062e\u0627\u0646\u064a \u0628\u0627\u0632\u0648\u0627\u064a\u0627 \u062f\u0648\u0648\u0645", "name:ar": "\u0644\u0627 \u0634\u064a\u0626", "name:en": "Second Bazwaya School", "name:ku": "\u0642\u0648\u062a\u0627\u0628\u062e\u0627\u0646\u064a \u0628\u0627\u0632\u0648\u0627\u064a\u0627 \u062f\u0648\u0648\u0645"}}, {"type": "node", "id": 5059211122, "lat": 36.3709483, "lon": 43.2936287, "tags": {"amenity": "school", "name": "\u0642\u0648\u062a\u0628\u062e\u0627\u0646\u064a \u0628\u0627\u0632\u0648\u0627\u064a\u0627 \u064a\u0629\u0643\u0645", "name:ar": "\u0645\u062f\u0631\u0633\u0629 \u0628\u0627\u0632\u0648\u0627\u064a\u0627 \u0627\u0644\u0627\u0648\u0644\u0649", "name:en": "First Bazwaya school", "name:ku": "\u0642\u0648\u062a\u0628\u062e\u0627\u0646\u064a \u0628\u0627\u0632\u0648\u0627\u064a\u0627 \u064a\u0629\u0643\u0645"}}, {"type": "node", "id": 5106555721, "lat": 36.3746325, "lon": 43.1333441, "tags": {"amenity": "school", "name": "\u0631\u0648\u0636\u0629 \u0627\u0644\u0627\u062c\u064a\u0627\u0644", "name:ar": "\u0631\u0648\u0636\u0629 \u0627\u0644\u0627\u062c\u064a\u0627\u0644"}}, {"type": "node", "id": 5107194826, "lat": 36.357401, "lon": 43.1578037, "tags": {"amenity": "school", "name": "\u0645\u062f\u0631\u0633\u0629 \u0645\u062d\u0645\u062f \u0627\u0644\u062f\u0631\u0629", "name:ar": "\u0645\u062f\u0631\u0633\u0629 \u0645\u062d\u0645\u062f \u0627\u0644\u062f\u0631\u0629"}}, {"type": "node", "id": 5114228521, "lat": 36.3721454, "lon": 43.2026662, "tags": {"amenity": "school", "name": "\u0645\u062f\u0631\u0633\u0629 \u0627\u0644\u0627\u0631\u0628\u062c\u064a\u0647 \u0627\u0644\u0627\u0628\u062a\u062f\u0627\u0626\u064a\u0647", "name:ar": "\u0645\u062f\u0631\u0633\u0629 \u0627\u0644\u0627\u0631\u0628\u062c\u064a\u0647 \u0627\u0644\u0627\u0628\u062a\u062f\u0627\u0626\u064a\u0647"}}, {"type": "node", "id": 5118188222, "lat": 36.3442141, "lon": 43.1442817, "tags": {"amenity": "school", "name": "\u0643\u0644\u064a\u0629 \u0627\u0644\u062d\u062f\u0628\u0627\u0621 \u0627\u0644\u062c\u0627\u0645\u0639\u0629"}}, {"type": "node", "id": 5188269137, "lat": 36.3764778, "lon": 43.1341579}, {"type": "node", "id": 5188271175, "lat": 36.3765059, "lon": 43.1343537}, {"type": "node", "id": 5188271176, "lat": 36.3760329, "lon": 43.1345281}, {"type": "node", "id": 5188271177, "lat": 36.3759552, "lon": 43.1341445}, {"type": "node", "id": 5188271178, "lat": 36.3762986, "lon": 43.1340372}, {"type": "node", "id": 5188271179, "lat": 36.3763158, "lon": 43.1341043}, {"type": "node", "id": 5188271180, "lat": 36.3763914, "lon": 43.1340936}, {"type": "node", "id": 5188271181, "lat": 36.3763957, "lon": 43.1341713}, {"type": "node", "id": 5228808423, "lat": 36.3795484, "lon": 43.1533889, "tags": {"amenity": "school", "name": "\u062f\u064a\u0648\u0627\u0646 \u0631\u0626\u0627\u0633\u0629 \u0627\u0644\u062c\u0627\u0645\u0639\u0629 \u0627\u0644\u062a\u0642\u0646\u064a\u0629 \u0627\u0644\u0634\u0645\u0627\u0644\u064a\u0629", "name:en": "Northern technical university"}}, {"type": "node", "id": 5236411621, "lat": 36.3527284, "lon": 43.0859745, "tags": {"amenity": "school"}}, {"type": "node", "id": 5243848924, "lat": 36.3494899, "lon": 43.1500123, "tags": {"amenity": "school", "name": "\u0645\u062a\u0648\u0633\u0637\u0629 \u062f\u0627\u0631 \u0627\u0644\u0633\u0644\u0627\u0645 \u0644\u0644\u0628\u0646\u064a\u0646", "opening_hours": "Su-Th 08:00-13:00"}}, {"type": "node", "id": 5252392621, "lat": 36.361931, "lon": 43.093772, "tags": {"amenity": "school", "name": "\u0645\u062a\u0648\u0633\u0637\u0629 \u0639\u0642\u064a\u0644\u0629 \u0628\u0646\u064a \u0647\u0627\u0634\u0645"}}, {"type": "node", "id": 5252392622, "lat": 36.3563394, "lon": 43.1031783, "tags": {"amenity": "school", "name": "\u0627\u0639\u062f\u0627\u062f\u064a\u0629 \u0628\u0646 \u0627\u0644\u0623\u062b\u064a\u0631 \u0628\u0646\u0627\u062a"}}, {"type": "node", "id": 5252392623, "lat": 36.3562473, "lon": 43.1039428, "tags": {"amenity": "school", "name": "\u0645\u062a\u0648\u0633\u0637\u0629 \u062e\u0648\u0644\u0629 \u0628\u0646\u062a \u0627\u0644\u0627\u0632\u0648\u0631", "opening_hours": "Sa-We 08:00-13:00"}}, {"type": "node", "id": 5252392721, "lat": 36.3559591, "lon": 43.1025303, "tags": {"amenity": "school", "name": "\u062b\u0627\u0646\u0648\u064a\u0629 \u0627\u0644\u0645\u062a\u0645\u064a\u0632\u0627\u062a \u0627\u0644\u062b\u0627\u0646\u064a\u0629"}}, {"type": "node", "id": 5252393421, "lat": 36.3593078, "lon": 43.093158, "tags": {"amenity": "school", "name": "\u0627\u0639\u062f\u0627\u062f\u064a\u0629 \u062e\u0627\u0644\u062f \u0628\u0646 \u0627\u0644\u0648\u0644\u064a\u062f \u0628\u0646\u064a\u0646"}}, {"type": "node", "id": 5278640122, "lat": 36.3750488, "lon": 43.1360252, "tags": {"addr:street": "\u0634\u0627\u0631\u0639 \u0627\u0644\u0643\u0646\u064a\u0633\u0629", "amenity": "school", "name": "\u0645\u062a\u0648\u0633\u0637\u0629 \u0639\u0627\u0645\u0631 \u0639\u0628\u062f\u0627\u0644\u0644\u0647 \u0627\u0644\u062a\u0637\u0628\u064a\u0642\u064a\u0629"}}, {"type": "node", "id": 5324408571, "lat": 36.4341789, "lon": 42.9528431, "tags": {"amenity": "school", "name": "\u062b\u0627\u0646\u0648\u064a\u0629 \u0635\u0644\u062d \u0627\u0644\u062d\u062f\u064a\u0628\u064a\u0629-\u0642\u0631\u064a\u0629 \u0627\u0644\u0635\u0628\u064a\u062d"}}, {"type": "node", "id": 5329442023, "lat": 36.4046454, "lon": 43.0895724, "tags": {"amenity": "school", "name": "\u0627\u0644\u0634\u064a\u0645\u0627\u0621 \u0644\u0644\u0628\u0646\u0627\u062a"}}, {"type": "node", "id": 5334409615, "lat": 36.3964756, "lon": 43.1887032}, {"type": "node", "id": 5334409616, "lat": 36.3959813, "lon": 43.1881988}, {"type": "node", "id": 5334409617, "lat": 36.3954701, "lon": 43.1889413}, {"type": "node", "id": 5334409618, "lat": 36.3959982, "lon": 43.189455}, {"type": "node", "id": 5334492321, "lat": 36.3573744, "lon": 43.145712, "tags": {"amenity": "school", "name": "\u062b\u0627\u0646\u0648\u064a\u0629 \u062f\u0627\u0631 \u0627\u0644\u0639\u0644\u0648\u0645 \u0628\u0646\u0627\u062a"}}, {"type": "node", "id": 5334492322, "lat": 36.3577407, "lon": 43.1463331, "tags": {"amenity": "school", "name": "\u062b\u0627\u0646\u0648\u064a\u0629 \u062f\u0627\u0631 \u0627\u0644\u0639\u0644\u0648\u0645 \u0628\u0646\u064a\u0646"}}, {"type": "node", "id": 5338417921, "lat": 36.3436764, "lon": 43.145355, "tags": {"amenity": "school", "name": "\u0627\u0644\u0641\u062a\u0648\u0629 \u0644\u0644\u0628\u0646\u0627\u062a"}}, {"type": "node", "id": 5344386827, "lat": 36.4000679, "lon": 43.146558, "tags": {"amenity": "school", "name": "\u062b\u0627\u0646\u0648\u064a\u0629 \u0627\u0644\u0627\u0635\u0645\u0639\u064a \u0644\u0644\u0628\u0646\u0627\u062a", "name:en": "AL asmae' high school"}}, {"type": "node", "id": 5344453323, "lat": 36.3930057, "lon": 43.1478656, "tags": {"amenity": "school", "name": "\u062b\u0627\u0646\u0648\u064a\u0629 \u0641\u0644\u0633\u0637\u064a\u0646", "name:ar": "\u062b\u0627\u0646\u0648\u064a\u0629 \u0641\u0644\u0633\u0637\u064a\u0646", "name:en": "Palestine high school"}}, {"type": "node", "id": 5365604124, "lat": 36.3958811, "lon": 43.1415277, "tags": {"amenity": "school", "name": "\u0645\u062f\u0631\u0633\u0629 \u0627\u0644\u0635\u0646\u0627\u062f\u064a\u062f \u0627\u0644\u0646\u0645\u0648\u0630\u062c\u064a\u0629", "name:en": "alsnaded", "opening_hours": "Su-Th 8:00-12:00"}}, {"type": "node", "id": 5365655021, "lat": 36.3966723, "lon": 43.1460092, "tags": {"amenity": "school", "name": "\u062b\u0627\u0646\u0648\u064a\u0629 \u0632\u0628\u064a\u062f\u0629 \u0644\u0644\u0628\u0646\u0627\u062a"}}, {"type": "node", "id": 5365731221, "lat": 36.3902648, "lon": 43.1799745, "tags": {"amenity": "school", "name": "\u062b\u0627\u0646\u0648\u064a\u0629 \u0627\u0644\u0628\u062a\u0631\u0627\u0621 \u0644\u0644\u0628\u0646\u0627\u062a", "name:en": "Albatraa School"}}, {"type": "node", "id": 5382936523, "lat": 36.3427065, "lon": 43.1028546, "tags": {"amenity": "school", "name": "\u0628\u0627\u0628\u064a \u0641\u064a\u0631\u0627\u0633", "name:ar": "\u0645\u062f\u0631\u0633\u0629 \u0627\u0628\u064a \u0641\u0631\u0627\u0633 \u0627\u0644\u062d\u0645\u062f\u0627\u0646\u064a \u0644\u0644\u0628\u0646\u064a\u0646", "name:en": "abe firas al hamdany school"}}, {"type": "node", "id": 5382949722, "lat": 36.3461333, "lon": 43.1008892, "tags": {"amenity": "school", "name": "\u0641\u0644\u0633\u0637\u064a\u0646", "name:ar": "\u0645\u062f\u0631\u0633\u0629 \u0641\u0644\u0633\u0637\u064a\u0646"}}, {"type": "node", "id": 5387300228, "lat": 36.2856132, "lon": 43.2867179, "tags": {"addr:housenumber": "07705209658", "addr:street": "\u0634\u0627\u0631\u0639 \u0639\u0644\u064a \u0631\u0634", "amenity": "school", "email": "thoalfkarshabak@gmail.com", "name": "\u0642\u0648\u062a\u0627\u0628\u062e\u0627\u0646\u06d5\u06cc \u0646\u0627\u0648\u06d5\u0646\u062f\u06cc\u06cc \u0639\u06d5\u0644\u06cc\u06cc\u06d5 \u0695\u06d5\u0634 - \u06a9\u0648\u0695\u0627\u0646", "name:ar": "\u062b\u0627\u0646\u0648\u064a\u0629 \u0639\u0644\u064a \u0631\u0634 \u0644\u0644\u0628\u0646\u064a\u0646", "phone": "07705209658"}}, {"type": "node", "id": 5426418927, "lat": 36.4058237, "lon": 43.0954249, "tags": {"amenity": "school", "name": "\u0645\u062f\u0631\u0633\u0647 \u0627\u0644\u0627\u0633\u0644\u0627\u0645\u064a\u0647"}}, {"type": "node", "id": 5426418928, "lat": 36.406161, "lon": 43.0954208, "tags": {"amenity": "school", "name": "\u0627\u0628\u062a\u062f\u0627\u0626\u064a\u0647 \u0648 \u0645\u062a\u0648\u0633\u0637\u0647 \u0648\u0627\u0639\u062f\u0627\u062f\u064a\u0647 \u0644\u0644\u0628\u0646\u0627\u062a"}}, {"type": "node", "id": 5426418929, "lat": 36.407845, "lon": 43.09019, "tags": {"amenity": "school", "name": "\u0645\u062a\u0648\u0633\u0637\u0647 \u0644\u0644\u0628\u0646\u064a\u0646"}}, {"type": "node", "id": 5426422022, "lat": 36.4065579, "lon": 43.0954497, "tags": {"amenity": "school", "name": "\u0627\u0628\u062a\u062f\u0627\u0626\u064a\u0647 \u0644\u0644\u0628\u0646\u064a\u0646"}}, {"type": "node", "id": 5437852624, "lat": 36.3715179, "lon": 43.138363, "tags": {"amenity": "school", "name": "\u0645\u062f\u0631\u0633\u0629 \u0627\u0644\u0646\u0628\u0631\u0627\u0633 \u0627\u0644\u0627\u0647\u0644\u064a\u0629"}}, {"type": "node", "id": 5437852625, "lat": 36.362905, "lon": 43.1438057, "tags": {"amenity": "school", "name": "\u0645\u062f\u0631\u0633\u0629 \u0627\u0644\u0645\u0647\u0646\u062f\u0633\u064a\u0646 \u0627\u0644\u0627\u0647\u0644\u064a\u0629"}}, {"type": "node", "id": 5437878621, "lat": 36.3346402, "lon": 43.159109, "tags": {"amenity": "school", "name": "\u0645\u0639\u0647\u062f \u0627\u0644\u0639\u0637\u0627\u0621 \u0627\u0644\u062a\u0648\u062d\u062f \u0648\u062a\u0623\u062e\u0631 \u0627\u0644\u0646\u0637\u0642"}}, {"type": "node", "id": 5442715128, "lat": 36.3223001, "lon": 43.2038457, "tags": {"addr:street": "\u062d\u064a \u0627\u0644\u0648\u062d\u062f\u0629", "amenity": "school", "name": "\u0645\u062f\u0631\u0633\u0629 \u0627\u0644\u0648\u062d\u062f\u0629", "name:ar": "\u0645\u062f\u0631\u0633\u0629 \u0627\u0644\u0648\u062d\u062f\u0629 \u0627\u0644\u0627\u0628\u062a\u062f\u0627\u0626\u064a\u0629"}}, {"type": "node", "id": 5442715129, "lat": 36.3283069, "lon": 43.1980251, "tags": {"amenity": "school", "name": "\u0645\u062f\u0631\u0633\u0629 \u0633\u0639\u064a\u062f \u0628\u0646 \u062c\u0628\u064a\u0631"}}, {"type": "node", "id": 5442715327, "lat": 36.3312091, "lon": 43.1937181, "tags": {"amenity": "school", "name": "\u0645\u062f\u0631\u0633\u0629 \u0645\u064a\u062b\u0627\u0642 \u0644\u0644\u0628\u0646\u064a\u0646"}}, {"type": "node", "id": 5442715626, "lat": 36.3546097, "lon": 43.3816156, "tags": {"amenity": "school", "name": "\u0627\u0639\u062f\u0627\u062f\u064a\u0629 \u0627\u0644\u0634\u0647\u064a\u062f\u0629 \u0634\u0645\u0648\u0646\u064a"}}, {"type": "node", "id": 5442715627, "lat": 36.3547477, "lon": 43.3810487, "tags": {"amenity": "school", "name": "\u0627\u0628\u062a\u062f\u0627\u0626\u064a\u0629 \u0628\u0631\u0637\u0644\u0629 \u0644\u0644\u0628\u0646\u064a\u0646;\u0639\u0645\u0627\u0631\u0629 \u062c\u0648\u0631\u062c", "shop": "department_store"}}, {"type": "node", "id": 5464910722, "lat": 36.3453527, "lon": 43.1434493, "tags": {"amenity": "school", "name": "\u0627\u0644\u0641\u062a\u0648\u0629 \u0644\u0644\u0628\u0646\u064a\u0646"}}, {"type": "node", "id": 5472890321, "lat": 36.4627379, "lon": 43.2200016, "tags": {"amenity": "school", "name": "\u0645\u062f\u0631\u0633\u0629 \u0628\u0627\u064a\u0628\u0648\u062e\u062a \u0627\u0644\u0627\u0628\u062a\u062f\u0627\u0626\u064a\u0629", "name:ar": "\u0627\u0628\u062a\u062f\u0627\u0626\u064a\u0629 \u0628\u0627\u064a\u0628\u0648\u062e\u062a \u0644\u0644\u0628\u0646\u064a\u0646"}}, {"type": "node", "id": 5472892723, "lat": 36.4646144, "lon": 43.2189878, "tags": {"amenity": "school", "name": "\u062b\u0627\u0646\u0648\u064a\u0629 \u0628\u0627\u064a\u0628\u0648\u062e\u062a \u0627\u0644\u0645\u062e\u062a\u0644\u0637\u0629"}}, {"type": "node", "id": 5473015522, "lat": 36.4635491, "lon": 43.2207074, "tags": {"amenity": "school", "name": "\u0645\u062f\u0631\u0633\u0629 \u0628\u0627\u064a\u0628\u0648\u062e\u062a \u0627\u0644\u0627\u0628\u062a\u062f\u0627\u0626\u064a\u0629", "name:ar": "\u0627\u0628\u062a\u062f\u0627\u0626\u064a\u0629 \u0628\u0627\u064a\u0628\u0648\u062e\u062a \u0644\u0644\u0628\u0646\u0627\u062a"}}, {"type": "node", "id": 5497801223, "lat": 36.3853748, "lon": 43.1524329, "tags": {"amenity": "school", "name": "\u0645\u062f\u0631\u0633\u0629 \u0627\u0644\u0645\u0628\u062f\u0639\u0648\u0646 \u0627\u0644\u0623\u0647\u0644\u064a\u0629"}}, {"type": "node", "id": 5499764221, "lat": 36.3644432, "lon": 43.354384, "tags": {"amenity": "school", "name": "\u0645\u062a\u0648\u0633\u0637\u0629 \u0648\u0627\u0639\u062f\u0627\u062f\u064a\u0629 \u062e\u0632\u0646\u0629 \u0644\u0644\u0628\u0646\u064a\u0646"}}, {"type": "node", "id": 5499764421, "lat": 36.3640969, "lon": 43.3545618, "tags": {"amenity": "school", "name": "\u0627\u0628\u062a\u062f\u0627\u0626\u064a\u0629 \u062e\u0632\u0646\u0629 \u0627\u0644\u0645\u062e\u062a\u0644\u0637\u0629"}}, {"type": "node", "id": 5499764422, "lat": 36.3637831, "lon": 43.3543437, "tags": {"amenity": "school", "name": "\u0645\u062a\u0648\u0633\u0637\u0629 \u0627\u0644\u0627\u062d\u0633\u0627\u0646 \u0644\u0644\u0628\u0646\u0627\u062a"}}, {"type": "node", "id": 5499765321, "lat": 36.3543917, "lon": 43.3818604, "tags": {"amenity": "school", "name": "\u0645\u062f\u0631\u0633\u0629 \u0634\u0647\u064a\u062f\u0629 \u0634\u0645\u0648\u0646\u064a \u0644\u0644\u0628\u0646\u0627\u062a"}}, {"type": "node", "id": 5499765322, "lat": 36.3544827, "lon": 43.3814874, "tags": {"amenity": "school", "name": "\u0645\u062f\u0631\u0633\u0629 \u0628\u0631\u0637\u0644\u0629 \u0644\u0644\u0628\u0646\u064a\u0646"}}, {"type": "node", "id": 5521965822, "lat": 36.3580791, "lon": 43.0979678, "tags": {"addr:street": "arr'afaee st", "amenity": "school", "name": "\u0645\u062f\u0631\u0633\u0629 \u0627\u0644\u0646\u0647\u0636\u0629 \u0627\u0644\u0627\u0628\u062a\u062f\u0627\u0626\u064a\u0629 \u0627\u0644\u0645\u062e\u062a\u0644\u0637\u0629", "opening_hours": "Su-Th 08:00-16:00"}}, {"type": "node", "id": 5521967821, "lat": 36.3582186, "lon": 43.0973029, "tags": {"addr:street": "arr'afaee st", "amenity": "school", "name": "\u0645\u062a\u0648\u0633\u0637\u0629 \u0627\u0628\u0648 \u0628\u0643\u0631 \u0627\u0644\u0635\u062f\u064a\u0642", "opening_hours": "Su-Th 08:00-13:00"}}, {"type": "node", "id": 5525979623, "lat": 36.3309739, "lon": 43.1324681, "tags": {"amenity": "school", "name:en": "school sadiq"}}, {"type": "node", "id": 5525979624, "lat": 36.3342815, "lon": 43.1329621, "tags": {"amenity": "school", "name:en": "badawa"}}, {"type": "node", "id": 5545764621, "lat": 36.383039, "lon": 43.2111128, "tags": {"amenity": "school", "name:en": "haya zhor"}}, {"type": "node", "id": 5561067323, "lat": 36.4034148, "lon": 43.0382215, "tags": {"amenity": "school", "name": "\u062b\u0627\u0646\u0648\u064a\u0629 \u0627\u0644\u0642\u0628\u0629 \u0644\u0644\u0628\u0646\u064a\u0646", "name:en": "school alqubaa"}}, {"type": "node", "id": 5587518922, "lat": 36.3740808, "lon": 43.1884145, "tags": {"amenity": "school", "name": "\u0627\u0639\u062f\u0627\u062f\u064a\u0629 \u0627\u0644\u0637\u0644\u0627\u0626\u0639 \u0644\u0644\u0628\u0646\u0627\u062a"}}, {"type": "node", "id": 5587531421, "lat": 36.3748925, "lon": 43.1950914, "tags": {"amenity": "school", "name": "\u0639/\u0635\u0641\u064a\u0629 \u0644\u0644\u0628\u0646\u0627\u062a"}}, {"type": "node", "id": 5587531422, "lat": 36.3745165, "lon": 43.1882195, "tags": {"amenity": "school", "name": "\u0645\u062f\u0631\u0633\u0629 \u0627\u0644\u0642\u0627\u062f\u0633\u064a\u0629 \u0644\u0644\u0628\u0646\u064a\u0646"}}, {"type": "node", "id": 5587531423, "lat": 36.3753751, "lon": 43.1871087, "tags": {"amenity": "school", "name": "\u0645\u062a\u0648\u0633\u0637\u0629 \u0627\u0644\u062d\u0631\u064a\u0631\u064a \u0644\u0644\u0628\u0646\u0627\u062a"}}, {"type": "node", "id": 5587531424, "lat": 36.3532352, "lon": 43.1502109, "tags": {"amenity": "school", "name": "\u0645\u062a\u0648\u0633\u0637\u0629 \u0646\u064a\u0646\u0648\u0649 \u0644\u0644\u0628\u0646\u0627\u062a", "name:ar": "\u0627\u0639\u062f\u0627\u062f\u064a\u0629 \u0642\u0631\u0637\u0628\u0647 \u0644\u0644\u0628\u0646\u0627\u062a"}}, {"type": "node", "id": 5587531425, "lat": 36.3528802, "lon": 43.1493943, "tags": {"amenity": "school", "name": "\u0627\u0639\u062f\u0627\u062f\u064a\u0629 \u0642\u0631\u0637\u0628\u0629 \u0644\u0644\u0628\u0646\u0627\u062a", "name:ar": "\u0645\u062a\u0648\u0633\u0637\u0647 \u0646\u064a\u0646\u0648\u0649 \u0644\u0644\u0628\u0646\u0627\u062a"}}, {"type": "node", "id": 5587531426, "lat": 36.322343, "lon": 43.1116808, "tags": {"amenity": "school", "name": "\u0627\u0628\u062a\u062f\u0627\u0626\u064a\u0629 \u0645\u064a\u0633\u0644\u0648\u0646 \u0644\u0644\u0628\u0646\u064a\u0646"}}, {"type": "node", "id": 5587531427, "lat": 36.3306925, "lon": 43.039922, "tags": {"amenity": "school", "name": "\u0627\u0644\u0644\u064a\u0644\u0629 \u0627\u0644\u0645\u0628\u0627\u0631\u0643\u0629"}}, {"type": "node", "id": 5587531428, "lat": 36.3169191, "lon": 43.0573327, "tags": {"amenity": "school", "name": "\u0627\u0644\u0645\u0631\u0633\u0644\u0627\u062a"}}, {"type": "node", "id": 5587531521, "lat": 36.3524452, "lon": 43.1483605, "tags": {"amenity": "school", "name": "\u0631\u0648\u0636\u0629 \u0627\u0644\u0634\u0645\u0648\u0639 \u0644\u0644\u0627\u0637\u0641\u0627\u0644"}}, {"type": "node", "id": 5587531522, "lat": 36.3417734, "lon": 43.0882926, "tags": {"amenity": "school", "name": "\u0627\u0639\u062f\u0627\u062f\u064a\u0629 \u0645\u064a\u0633\u0644\u0648\u0646 \u0644\u0644\u0628\u0646\u0627\u062a", "name:ar": "\u0625\u0639\u062f\u0627\u062f\u064a\u0629 \u0645\u064a\u0633\u0644\u0648\u0646 \u0644\u0644\u0628\u0646\u0627\u062a", "name:en": "Al Maysaloun Preparatory School for Girls"}}, {"type": "node", "id": 5587531621, "lat": 36.3225935, "lon": 43.1301482, "tags": {"amenity": "school", "name": "\u062b\u0627\u0646\u0648\u064a\u0629 \u0627\u0645\u0646\u0629 \u0628\u0646\u062a \u0648\u0647\u0628 \u0644\u0644\u0628\u0646\u0627\u062a", "name:ar": "\u062b/\u0627\u0645\u0646\u0629 \u0628\u0646\u062a \u0648\u0647\u0628 \u0644\u0644\u0628\u0646\u0627\u062a"}}, {"type": "node", "id": 5594883622, "lat": 36.1986054, "lon": 43.208189, "tags": {"addr:street": "\u0642\u0631\u064a\u0629 \u0627\u0644\u0639\u0631\u064a\u062c", "amenity": "school", "name": "\u0627\u0628\u062a\u062f\u0627\u0626\u064a\u0629 \u0627\u0633\u0644\u0645 \u0644\u0644\u0628\u0646\u0627\u062a"}}, {"type": "node", "id": 5594885422, "lat": 36.1870364, "lon": 43.2095519, "tags": {"amenity": "school", "name": "\u0627\u0628\u062a\u062f\u0627\u0626\u064a\u0629 \u0627\u0644\u0639\u0631\u064a\u062c/1\u0644\u0644\u0628\u0646\u064a\u0646"}}, {"type": "node", "id": 5594887221, "lat": 36.1985527, "lon": 43.2082751, "tags": {"addr:street": "\u0642\u0631\u064a\u0629 \u0627\u0644\u0639\u0631\u064a\u062c", "amenity": "school", "name": "\u0645\u062f\u0631\u0633\u0629 \u0627\u0644\u0639\u0631\u064a\u062c \u0627\u0644\u062b\u0627\u0646\u064a\u0629"}}, {"type": "node", "id": 5594887321, "lat": 36.1873347, "lon": 43.2092063, "tags": {"amenity": "school", "name": "\u062b/\u0627\u0644\u0639\u0631\u0628\u062c \u0644\u0644\u0628\u0646\u064a\u0646"}}, {"type": "node", "id": 5595791521, "lat": 36.3205607, "lon": 43.1980939, "tags": {"amenity": "school", "name": "\u0645\u062f\u0631\u0633\u0629 \u062d\u0644\u064a\u0645\u0647 \u0627\u0644\u0633\u0639\u062f\u064a\u0647 \u0627\u0648 \u0627\u0644\u0645\u062a\u0646\u0628\u064a"}}, {"type": "node", "id": 5595791621, "lat": 36.3195699, "lon": 43.1988678, "tags": {"amenity": "school", "name": "alyaman high school for girls"}}, {"type": "node", "id": 5600001302, "lat": 36.3162852, "lon": 43.1210765, "tags": {"amenity": "school", "name": "\u0645\u062f\u0631\u0633\u0629 \u062d\u0637\u064a\u0646"}}, {"type": "node", "id": 5600001303, "lat": 36.3162517, "lon": 43.1207818}, {"type": "node", "id": 5600001304, "lat": 36.3165848, "lon": 43.1209874}, {"type": "node", "id": 5600001305, "lat": 36.3164023, "lon": 43.1214358}, {"type": "node", "id": 5600001306, "lat": 36.3160583, "lon": 43.1212214}, {"type": "node", "id": 5600001307, "lat": 36.3161544, "lon": 43.1210129}, {"type": "node", "id": 5600001308, "lat": 36.3165466, "lon": 43.1196054}, {"type": "node", "id": 5600001309, "lat": 36.3170312, "lon": 43.1199075}, {"type": "node", "id": 5600001310, "lat": 36.3165894, "lon": 43.1209675}, {"type": "node", "id": 5600001311, "lat": 36.3161184, "lon": 43.1206739}, {"type": "node", "id": 5604997221, "lat": 36.4015111, "lon": 43.044016, "tags": {"addr:street": "\u0639\u0627\u0645", "amenity": "school", "name": "\u0627\u0644\u0642\u0628\u0629", "name:en": "karakuyn"}}, {"type": "node", "id": 5604997223, "lat": 36.4023053, "lon": 43.044221, "tags": {"amenity": "school", "name": "shushing", "name:ar": "shuhub"}}, {"type": "node", "id": 5604997322, "lat": 36.4034533, "lon": 43.0381916, "tags": {"amenity": "school", "name": "alkuba mid school", "name:ar": "\u0645\u062f\u0631\u0633\u0629 \u0627\u0644\u0642\u0628\u0629 \u0644\u0644\u0628\u0646\u064a\u0646 / \u0645\u062f\u0631\u0633\u0629 \u0627\u0644\u0642\u0628\u0629 \u0645"}}, {"type": "node", "id": 5638292822, "lat": 36.3988455, "lon": 43.1454146, "tags": {"amenity": "school", "name": "\u0631\u0648\u0636\u0629 \u0627\u0644\u0643\u0641\u0627\u0621\u0627\u062a", "name:ar": "\u0631\u0648\u0636\u0629 \u0627\u0644\u0643\u0641\u0627\u0621\u0627\u062a \u0644\u0644\u0627\u0637\u0641\u0627\u0644"}}, {"type": "node", "id": 5638298621, "lat": 36.4015923, "lon": 43.1245083, "tags": {"amenity": "school", "name": "\u0631\u0648\u0636\u0629 \u0627\u0644\u0639\u0631\u0628\u064a \u0644\u0644\u0627\u0637\u0641\u0627\u0644"}}, {"type": "node", "id": 5638298622, "lat": 36.3631446, "lon": 43.18576, "tags": {"amenity": "school", "name": "\u0631\u0648\u0636\u0629 \u0630\u064a \u0627\u0644\u0646\u0648\u0631\u064a\u0646 \u0644\u0644\u0627\u0637\u0641\u0627\u0644"}}, {"type": "node", "id": 5638298623, "lat": 36.4030099, "lon": 43.1632896, "tags": {"amenity": "school", "name": "\u0645/\u0627\u0633\u0645\u0627\u0621 \u0628\u0646\u062a \u0639\u0645\u064a\u0633 \u0644\u0644\u0628\u0646\u0627\u062a"}}, {"type": "node", "id": 5638298624, "lat": 36.4022089, "lon": 43.1634228, "tags": {"amenity": "school", "name": "\u0645/\u0628\u0644\u0627\u0644 \u0628\u0646 \u0631\u0628\u0627\u062d \u0644\u0644\u0628\u0646\u064a\u0646"}}, {"type": "node", "id": 5657009864, "lat": 36.3357149, "lon": 43.1647424, "tags": {"addr:city": "\u0627\u0644\u0645\u0648\u0635\u0644", "addr:country": "IQ", "amenity": "school", "name": "\u062b\u0627\u0646\u0648\u064a\u0629 \u0648\u0645\u0639\u0647\u062f \u0627\u0644\u0634\u0631\u0642\u064a\u0629 \u0627\u0644\u0623\u0647\u0644\u064a"}}, {"type": "node", "id": 5658772632, "lat": 36.3387818, "lon": 43.0800032, "tags": {"amenity": "school", "name": "\u0627\u0644\u0639\u062f\u0646\u0627\u0646\u064a\u0629"}}, {"type": "node", "id": 5660581123, "lat": 36.3785396, "lon": 43.1510313, "tags": {"amenity": "school", "name": "\u0642\u0633\u0645 \u0627\u0644\u0635\u0646\u0627\u0639\u0627\u062a \u0627\u0644\u0643\u064a\u0645\u064a\u0627\u0648\u064a\u0629", "name:en": "chemical department"}}, {"type": "node", "id": 5706094725, "lat": 36.3997302, "lon": 43.1411269, "tags": {"amenity": "school", "name": "\u0645/\u0627\u0644\u0627\u0628\u062f\u0627\u0639 \u0644\u0644\u0628\u0646\u064a\u0646"}}, {"type": "node", "id": 5713128022, "lat": 36.337304, "lon": 43.1651322, "tags": {"amenity": "school", "name": "\u0627\u0628\u062a\u062f\u0627\u0626\u064a\u0629 \u0627\u0644\u0641\u062f\u0627\u0621 \u0627\u0644\u0645\u062e\u062a\u0644\u0637\u0629"}}, {"type": "node", "id": 5744951922, "lat": 36.3598274, "lon": 43.3274233, "tags": {"amenity": "school", "name": "\u0627\u0628\u062a\u062f\u0627\u0626\u064a\u0629 \u0648 \u062b\u0627\u0646\u0648\u064a\u0629 \u0627\u0644\u0645\u0648\u0641\u0642\u064a\u0629 \u0644\u0644\u0628\u0646\u0627\u062a"}}, {"type": "node", "id": 5761222321, "lat": 36.3750066, "lon": 43.1953419, "tags": {"amenity": "school", "name": "\u0645/\u0627\u0644\u0644\u0627\u0630\u0642\u064a\u0629 \u0644\u0644\u0628\u0646\u0627\u062a"}}, {"type": "node", "id": 5761222322, "lat": 36.3718644, "lon": 43.1866564, "tags": {"amenity": "school", "name": "\u0645/\u0627\u0644\u0631\u0628\u064a\u0639 \u0644\u0644\u0628\u0646\u064a\u0646"}}, {"type": "node", "id": 5761222323, "lat": 36.3457144, "lon": 43.1646593, "tags": {"amenity": "school", "name": "11 \u0630\u0627\u0631 \u0644\u0644\u0628\u0646\u0627\u062a", "name:ar": "\u0645\u062f\u0631\u0633\u0629 11\u0627\u0630\u0627\u0631 \u0644\u0644\u0628\u0646\u0627\u062a"}}, {"type": "node", "id": 5761222324, "lat": 36.3460642, "lon": 43.1645925, "tags": {"amenity": "school", "name": "\u0627\u0644\u0646\u0636\u0627\u0644 \u0644\u0644\u0628\u0646\u0627\u062a"}}, {"type": "node", "id": 5761222325, "lat": 36.3089484, "lon": 43.1943019, "tags": {"amenity": "school", "name": "\u0627\u0644\u0641\u0631\u0627\u062a\u064a\u0646 \u0627\u0644\u0627\u0628\u062a\u062f\u0627\u0626\u064a\u0629 \u0644\u0644\u0628\u0646\u0627\u062a"}}, {"type": "node", "id": 5761222326, "lat": 36.3323388, "lon": 43.184693, "tags": {"amenity": "school", "name": "\u0627\u0644\u0645\u0627\u0645\u0648\u0646 \u0644\u0644\u0628\u0646\u064a\u0646 \u0627\u0644\u0627\u0628\u062a\u062f\u0627\u0626\u064a\u0629"}}, {"type": "node", "id": 5761222327, "lat": 36.3324771, "lon": 43.1849143, "tags": {"amenity": "school", "name": "\u0627\u0628\u062a\u062f\u0627\u0626\u064a\u0629 \u0627\u0644\u0645\u0627\u0645\u0648\u0646 \u0644\u0644\u0628\u0646\u0627\u062a"}}, {"type": "node", "id": 5761222328, "lat": 36.3322065, "lon": 43.185173, "tags": {"amenity": "school", "name": "\u0627\u0642\u0631\u0627 \u0644\u0644\u0628\u0646\u0627\u062a \u0627\u0644\u0627\u0628\u062a\u062f\u0627\u0626\u064a\u0629"}}, {"type": "node", "id": 5761222329, "lat": 36.3853388, "lon": 43.2044032, "tags": {"amenity": "school", "name": "\u0627\u0628\u062a\u062f\u0627\u0626\u064a\u0629 \u0627\u0644\u0628\u064a\u0627\u0631\u0642 \u0644\u0644\u0628\u0646\u0627\u062a"}}, {"type": "node", "id": 5761222521, "lat": 36.3093062, "lon": 43.1941942, "tags": {"amenity": "school", "name": "\u0627\u0644\u0641\u0631\u0627\u062a\u064a\u0646 \u0627\u0644\u0627\u0628\u062a\u062f\u0627\u0626\u064a\u0629 \u0644\u0644\u0628\u0646\u064a\u0646"}}, {"type": "node", "id": 5761222621, "lat": 36.3322124, "lon": 43.1849819, "tags": {"amenity": "school", "name": "\u0645/\u0627\u0644\u062d\u0631\u0645\u064a\u0646 \u0644\u0644\u0628\u0646\u0627\u062a"}}, {"type": "node", "id": 5761222721, "lat": 36.3300879, "lon": 43.1862572, "tags": {"amenity": "school", "name": "\u0645/\u062d\u0630\u064a\u0641\u0629 \u0628\u0646 \u0627\u0644\u064a\u0645\u0627\u0646 \u0644\u0644\u0628\u0646\u064a\u0646"}}, {"type": "node", "id": 5763160753, "lat": 36.3684411, "lon": 43.1374124}, {"type": "node", "id": 5763160754, "lat": 36.3681603, "lon": 43.1385041}, {"type": "node", "id": 5763160755, "lat": 36.3680977, "lon": 43.138547}, {"type": "node", "id": 5763160756, "lat": 36.3676679, "lon": 43.1384022}, {"type": "node", "id": 5763160757, "lat": 36.3675025, "lon": 43.1378342}, {"type": "node", "id": 5763172326, "lat": 36.3691992, "lon": 43.1389252}, {"type": "node", "id": 5763172327, "lat": 36.3685005, "lon": 43.13869}, {"type": "node", "id": 5763172328, "lat": 36.3689163, "lon": 43.1377128}, {"type": "node", "id": 5765093101, "lat": 36.3702059, "lon": 43.1392751}, {"type": "node", "id": 5765093102, "lat": 36.3701408, "lon": 43.139005}, {"type": "node", "id": 5765093103, "lat": 36.3699759, "lon": 43.1390663}, {"type": "node", "id": 5765093104, "lat": 36.3700094, "lon": 43.1392053}, {"type": "node", "id": 5765093107, "lat": 36.3720229, "lon": 43.1406758}, {"type": "node", "id": 5765093108, "lat": 36.3720602, "lon": 43.1408389}, {"type": "node", "id": 5765093109, "lat": 36.3718, "lon": 43.1409306}, {"type": "node", "id": 5765093110, "lat": 36.3717628, "lon": 43.1407675}, {"type": "node", "id": 5765402753, "lat": 36.3852459, "lon": 43.2045477, "tags": {"amenity": "school", "name": "\u0627\u0628\u062a\u062f\u0627\u0626\u064a\u0629 \u0627\u0644\u0628\u064a\u0627\u0631\u0642.", "name:ar": "\u0627\u0628\u062a\u062f\u0627\u0626\u064a\u0629 \u0627\u0644\u0628\u064a\u0627\u0631\u0642 \u0644\u0644\u0628\u0646\u064a\u0646"}}, {"type": "node", "id": 5765402853, "lat": 36.3886981, "lon": 43.2031327, "tags": {"amenity": "school", "name": "\u062b/\u0634\u0647\u062f\u0629 \u0628\u0646\u062a \u0627\u0644\u0627\u0628\u0631\u064a \u0644\u0644\u0628\u0646\u0627\u062a"}}, {"type": "node", "id": 5767927853, "lat": 36.4211253, "lon": 43.1609423, "tags": {"amenity": "school", "name": "\u0645\u062f\u0631\u0633\u0629 \u0627\u0644\u0633\u0627\u062f\u0629 \u0627\u0644\u0627\u0628\u062a\u062f\u0627\u0626\u064a\u0629"}}, {"type": "node", "id": 5778436875, "lat": 36.319787, "lon": 43.1987111, "tags": {"amenity": "school", "name": "\u0639/\u0627\u0644\u064a\u0645\u0646 \u0644\u0644\u0628\u0646\u0627\u062a"}}, {"type": "node", "id": 5792793753, "lat": 36.3796373, "lon": 43.1554411, "tags": {"amenity": "school", "name": "\u0645\u062f\u0631\u0633\u0629 \u0627\u0644\u0643\u0641\u0627\u0621\u0627\u062a \u0627\u0644\u0627\u0628\u062a\u062f\u0627\u0626\u064a\u0629 \u0644\u0644\u0628\u0646\u0627\u062a"}}, {"type": "node", "id": 5795094362, "lat": 36.3034621, "lon": 43.1895596, "tags": {"amenity": "school", "name": "\u0645/\u0644\u0628\u0646\u0627\u0646 \u0644\u0644\u0628\u0646\u064a\u0646"}}, {"type": "node", "id": 5795094363, "lat": 36.2970926, "lon": 43.1976061, "tags": {"amenity": "school", "name": "\u0645\u062f\u0631\u0633\u0629 \u0627\u0644\u062a\u0642\u0648\u0649 \u0644\u0644\u0628\u0646\u0627\u062a"}}, {"type": "node", "id": 5795094455, "lat": 36.3039376, "lon": 43.1895516, "tags": {"amenity": "school", "name": "\u0645\u062f\u0631\u0633\u0629 \u0633\u0648\u0645\u0631 \u0644\u0644\u0628\u0646\u0627\u062a"}}, {"type": "node", "id": 5795098154, "lat": 36.3035237, "lon": 43.1898735, "tags": {"amenity": "school", "name": "\u0645/\u0627\u0644\u0627\u0642\u0635\u0649 \u0644\u0644\u0628\u0646\u064a\u0646"}}, {"type": "node", "id": 5795103253, "lat": 36.3039993, "lon": 43.1898857, "tags": {"amenity": "school", "name": "\u0645\u062f\u0631\u0633\u0629 \u0633\u0648\u0645\u0631 \u0644\u0644\u0628\u0646\u064a\u0646"}}, {"type": "node", "id": 5795103553, "lat": 36.2971056, "lon": 43.1980379, "tags": {"amenity": "school", "name": "\u0645\u062f\u0631\u0633\u0629 \u0627\u0644\u0636\u064a\u0627\u0621 \u0644\u0644\u0628\u0646\u064a\u0646"}}, {"type": "node", "id": 5805325355, "lat": 36.3610554, "lon": 43.2036788, "tags": {"amenity": "school", "name": "\u0645\u062a\u0648\u0633\u0637\u0629 \u0627\u0646\u0633 \u0628\u0646 \u0645\u0627\u0644\u0643"}}, {"type": "node", "id": 5805325358, "lat": 36.3603318, "lon": 43.2117105, "tags": {"amenity": "school", "name": "\u0645\u062f\u0631\u0633\u0629 \u0639\u062f\u0646"}}, {"type": "node", "id": 5805326454, "lat": 36.3611851, "lon": 43.2018605, "tags": {"amenity": "school", "name": "\u0645\u062f\u0631\u0633\u0647 \u0627\u0644\u062c\u0647\u0627\u062f \u0648\u0627\u0644\u0628\u0646\u0627\u0621"}}, {"type": "node", "id": 5805337754, "lat": 36.3590782, "lon": 43.197784, "tags": {"amenity": "school", "name": "\u0645\u062a\u0648\u0633\u0637\u0629 \u0627\u0644\u0645\u0639\u0631\u0641\u0629"}}, {"type": "node", "id": 5805338253, "lat": 36.3657634, "lon": 43.2007539, "tags": {"amenity": "school", "name": "\u0645\u062f\u0631\u0633\u0629 \u0627\u0644\u062a\u0631\u0627\u062b \u0627\u0644\u0639\u0631\u0628\u064a"}}, {"type": "node", "id": 5805384356, "lat": 36.388011, "lon": 43.2096189, "tags": {"amenity": "school"}}, {"type": "node", "id": 5818226953, "lat": 36.3447329, "lon": 43.1470409, "tags": {"amenity": "school", "name": "\u0627\u0639\u062f\u0627\u062f\u064a\u0629 \u0627\u0644\u0645\u0633\u062a\u0642\u0628\u0644 \u0644\u0644\u0628\u0646\u064a\u0646", "opening_hours": "Su-Th 07:00-13:00"}}, {"type": "node", "id": 5825409954, "lat": 36.3760248, "lon": 43.2032888, "tags": {"amenity": "school", "name": "\u0627\u0644\u0641\u0631\u062f\u0648\u0633 \u0627\u0644\u0627\u0628\u062a\u062f\u0627\u0626\u064a\u0629"}}, {"type": "node", "id": 5827822286, "lat": 36.3946366, "lon": 43.1552269, "tags": {"amenity": "school", "name": "\u0627\u0639\u062f\u0627\u062f\u064a\u0629 \u0627\u0644\u0635\u062f\u064a\u0642 \u0644\u0644\u0628\u0646\u064a\u0646"}}, {"type": "node", "id": 5831432085, "lat": 36.3761915, "lon": 43.2030393, "tags": {"amenity": "school", "name": "\u0627\u0644\u0635\u0641\u0627 \u0627\u0644\u0627\u0628\u062a\u062f\u0627\u0626\u064a\u0629"}}, {"type": "node", "id": 5853675485, "lat": 36.3381412, "lon": 43.0989942, "tags": {"amenity": "school", "name": "\u0645\u062f\u0631\u0633\u0629 \u0627\u0644\u0641\u0627\u0631\u0648\u0642"}}, {"type": "node", "id": 5853675586, "lat": 36.3376281, "lon": 43.1025569, "tags": {"amenity": "school", "name": "\u0623\u0639\u062f\u0627\u062f\u064a\u0629 \u0627\u0644\u062c\u0632\u064a\u0631\u0629 \u0627\u0644\u0635\u0646\u0627\u0639\u064a\u0629"}}, {"type": "node", "id": 5853675587, "lat": 36.3427704, "lon": 43.1039172, "tags": {"amenity": "school", "name": "\u0645\u062f\u0631\u0633\u0629 \u0627\u0644\u0643\u0648\u0627\u0643\u0628 \u0644\u0644\u0628\u0646\u0627\u062a", "name:en": "El- Kawakeb For Girls"}}, {"type": "node", "id": 5856810685, "lat": 36.4049971, "lon": 43.0891559, "tags": {"amenity": "school", "name": "\u0645\u062f\u0631\u0633\u0629 \u0627\u0644\u0627\u0628\u062a\u0647\u0627\u062c \u0644\u0644\u0628\u0646\u064a\u0646"}}, {"type": "node", "id": 5878687788, "lat": 36.3425881, "lon": 43.1039272, "tags": {"amenity": "school", "name": "\u0645\u062f\u0631\u0633\u0629 \u0627\u0644\u0643\u0648\u0627\u0643\u0628"}}, {"type": "node", "id": 5878716586, "lat": 36.3457591, "lon": 43.1044309, "tags": {"amenity": "school", "name": "\u0645\u062f\u0631\u0633\u0629 \u0627\u0644\u0646\u0635\u0631", "name:ar": "\u0645\u062a\u0648\u0633\u0637\u0629 \u0627\u0644\u0646\u0635\u0631 \u0644\u0644\u0628\u0646\u064a\u0646", "name:en": "Al-Nasr Intermidiate School"}}, {"type": "node", "id": 5878716587, "lat": 36.3457471, "lon": 43.104429, "tags": {"amenity": "school", "name": "\u0627\u0639\u062f\u0627\u062f\u064a\u0629 \u0627\u0644\u0646\u0635\u0631"}}, {"type": "node", "id": 5884447985, "lat": 36.3797612, "lon": 43.1761524, "tags": {"addr:street": "\u062f\u0648\u0631\u0629 \u0627\u0644\u0639\u0628\u0627\u062f\u064a", "amenity": "school", "name": "\u062c\u0648\u0647\u0631\u0629 \u0627\u0644\u0639\u0644\u0645 \u0627\u0644\u0627\u0647\u0644\u064a\u0629"}}, {"type": "node", "id": 5913801386, "lat": 36.360975, "lon": 43.0956722, "tags": {"amenity": "school", "name": "\u0645\u062f\u0631\u0633\u0629 \u0645\u0644\u062a\u0642\u0649 \u0627\u0644\u0627\u0628\u062f\u0627\u0639 \u0627\u0644\u0627\u0647\u0644\u064a\u0629"}}, {"type": "node", "id": 5918111985, "lat": 36.3740582, "lon": 43.1885036, "tags": {"amenity": "school", "name": "\u0627\u0639\u062f\u0627\u062f\u064a\u0629 \u0627\u0644\u0637\u0644\u0627\u0626\u0639"}}, {"type": "node", "id": 5956682785, "lat": 36.3552469, "lon": 43.166877, "tags": {"amenity": "school", "name": "\u0645\u062a\u0648\u0633\u0637\u0629 \u0627\u0644\u0643\u0641\u0627\u062d"}}, {"type": "node", "id": 5967511586, "lat": 36.3724774, "lon": 43.1437486, "tags": {"amenity": "school", "name": "\u0627\u0639\u062f\u0627\u062f\u064a\u0629 \u0627\u0644\u062d\u062f\u0628\u0627\u0621 \u0627\u0644\u062a\u062c\u0627\u0631\u064a\u0629 \u0627\u0644\u0645\u0647\u0646\u064a\u0629 \u0644\u0644\u0628\u0646\u0627\u062a"}}, {"type": "node", "id": 5973430187, "lat": 36.4231002, "lon": 43.1572393, "tags": {"amenity": "school", "name": "\u062b\u0627\u0646\u0648\u064a\u0629 \u0628\u0639\u0648\u064a\u0632\u0629 \u0644\u0644\u0628\u0646\u0627\u062a"}}, {"type": "node", "id": 5973438185, "lat": 36.4232556, "lon": 43.1576256, "tags": {"amenity": "school", "name": "\u062b\u0627\u0646\u0648\u064a\u0629 \u0628\u0639\u0648\u064a\u0632\u0629 \u0644\u0644\u0628\u0646\u064a\u0646"}}, {"type": "node", "id": 5991371785, "lat": 36.4074292, "lon": 43.0837852, "tags": {"amenity": "school", "email": "saad.m.ellweezy@gmail.com", "name": "\u0645\u062a\u0648\u0633\u0637\u0629 \u0627\u0644\u0642\u0644\u0645 \u0627\u0644\u0645\u0633\u0627\u0626\u064a\u0629"}}, {"type": "node", "id": 6009230685, "lat": 36.3427067, "lon": 43.1028301, "tags": {"amenity": "school", "name": "\u0627\u0628\u064a \u0641\u0631\u0627\u0633 \u0627\u0644\u062d\u0645\u062f\u0627\u0646\u064a"}}, {"type": "node", "id": 6018228789, "lat": 36.3279984, "lon": 43.0865984, "tags": {"amenity": "school", "name": "\u0645\u062a\u0648\u0633\u0637\u0629 \u0627\u0644\u062c\u0645\u0647\u0648\u0631\u064a\u0629 \u0644\u0644\u0628\u0646\u064a\u0646", "name:en": "Al-Jomhouria Intermediate School", "name:ku": "\u062c\u0648\u0645\u0647\u0648\u0631\u064a\u0629 \u0642\u0648\u062a\u0627\u0628\u062e\u0627\u0646\u0647"}}, {"type": "node", "id": 6049505386, "lat": 36.3647041, "lon": 43.2047129, "tags": {"amenity": "school", "name": "\u0645\u062a\u0648\u0633\u0637\u0629 \u0627\u0644\u0645\u0639\u0627\u0644\u064a \u0644\u0644\u0628\u0646\u0627\u062a"}}, {"type": "node", "id": 6064400487, "lat": 36.4234645, "lon": 43.1582234, "tags": {"amenity": "school", "name": "\u0645\u062f\u0631\u0633\u0647 \u0627\u0644\u0633\u0627\u062f\u0629 \u0644\u0644\u0628\u0646\u064a\u0646+ \u0645\u062f\u0631\u0633\u0647 \u0628\u0639\u0648\u064a\u0632\u0647"}}, {"type": "node", "id": 6064400885, "lat": 36.3986983, "lon": 43.1573864, "tags": {"amenity": "school", "name": "\u0645\u062f\u0631\u0633\u0629 \u0632\u064a\u062f \u0628\u0646 \u062b\u0627\u0628\u062a \u0644\u0644\u0628\u0646\u064a\u0646"}}, {"type": "node", "id": 6064400900, "lat": 36.3198511, "lon": 43.1961974, "tags": {"amenity": "school", "man_made": "water_tap", "name": "\u0627\u0644\u0641\u064a\u062d\u0627\u0621 \u0644\u0644\u0628\u0646\u0627\u062a + \u0627\u0644\u0645\u0648\u0635\u0644 \u0644\u0644\u0628\u0646\u0627\u062a"}}, {"type": "node", "id": 6064400901, "lat": 36.2957865, "lon": 43.1936565, "tags": {"amenity": "school", "name": "\u0645\u062f\u0631\u0633\u0629 \u0627\u0644\u0643\u0648\u064a\u062a \u0627\u0644\u0639\u0627\u0634\u0631\u0629"}}, {"type": "node", "id": 6064400902, "lat": 36.346508, "lon": 43.1133396, "tags": {"amenity": "school", "name": "\u0645\u062f\u0631\u0633\u0629 \u0627\u0644\u0645\u064a\u062b\u0627\u0642", "name:ar": "\u0645\u062f\u0631\u0633\u0629 \u0627\u0644\u0645\u064a\u062b\u0627\u0642 + \u0627\u0644\u0641\u0627\u0631\u0627\u0628\u064a"}}, {"type": "node", "id": 6064400903, "lat": 36.3437542, "lon": 43.1200971, "tags": {"amenity": "school", "name": "\u0627\u0644\u0645\u0643\u0627\u0633\u0628"}}, {"type": "node", "id": 6064400905, "lat": 36.3022941, "lon": 43.1953849, "tags": {"amenity": "school", "name": "\u062b\u0627\u0646\u0648\u064a\u0629 \u0633\u0648\u0645\u0631 \u0644\u0644\u0628\u0646\u0627\u062a"}}, {"type": "node", "id": 6064400906, "lat": 36.3522084, "lon": 43.0821412, "tags": {"amenity": "school", "name": "\u0645\u062f\u0631\u0633\u0629 \u0627\u0644\u062e\u0636\u0631\u0627\u0621 \u0627\u0644\u0627\u0648\u0644\u0649"}}, {"type": "node", "id": 6064401190, "lat": 36.3252989, "lon": 43.1920297, "tags": {"amenity": "school", "name": "\u0627\u0644\u0634\u0647\u064a\u062f \u0639\u0627\u064a\u062f \u063a\u0627\u0632\u064a"}}, {"type": "node", "id": 6064401192, "lat": 36.3923679, "lon": 43.1652807, "tags": {"amenity": "school", "name": "\u0627\u0644\u0645\u0635\u0637\u0641\u0649"}}, {"type": "node", "id": 6064401193, "lat": 36.4211019, "lon": 43.1623767, "tags": {"amenity": "school", "name": "\u0645\u062f\u0631\u0633\u0647 \u0627\u0644\u062d\u0648\u0631 \u0627\u0644\u0627\u0628\u062a\u062f\u0627\u0626\u064a\u0629"}}, {"type": "node", "id": 6064401194, "lat": 36.4211735, "lon": 43.1624434, "tags": {"amenity": "school", "name": "\u0645\u062f\u0631\u0633\u0647 \u0627\u0644\u0633\u0627\u062f\u0629"}}, {"type": "node", "id": 6064402093, "lat": 36.2974464, "lon": 43.2036525, "tags": {"amenity": "school", "name": "\u0645\u062f\u0631\u0633\u0629 \u0627\u0644\u0631\u0627\u064a\u0629 + \u0639\u0628\u062f\u0627\u0644\u0644\u0647 \u0628\u0646 \u0639\u0645\u0631"}}, {"type": "node", "id": 6064402096, "lat": 36.42771, "lon": 43.1596068, "tags": {"amenity": "school", "name": "\u0627\u0628\u062a\u062f\u0627\u0626\u064a\u0629 \u0628\u0639\u0648\u064a\u0632\u0629 \u0628\u0646\u064a\u0646 + \u0627\u0628\u062a\u062f\u0627\u0626\u064a\u0629 \u0628\u0639\u0648\u064a\u0632\u0647 \u0628\u0646\u0627\u062a"}}, {"type": "node", "id": 6079301485, "lat": 36.4009996, "lon": 43.1418816, "tags": {"amenity": "school", "name": "\u0645\u062f\u0631\u0633\u0629 \u0633\u064a\u0641 \u0627\u0644\u0631\u0633\u0648\u0644 \u0644\u0644\u0628\u0646\u064a\u0646"}}, {"type": "node", "id": 6128013085, "lat": 36.3606212, "lon": 43.2190334, "tags": {"amenity": "school", "name": "\u0645\u062f\u0631\u0633\u0629 \u0645\u0643\u0629"}}, {"type": "node", "id": 6129325085, "lat": 36.3451831, "lon": 43.1649845, "tags": {"addr:street": "\u0627\u0644\u0643\u0648\u064a\u0631", "amenity": "school", "name": "\u0645\u062f\u0631\u0633\u0629 \u0627\u0644\u062e\u0644\u064a\u062c \u0627\u0644\u0639\u0631\u0628\u064a \u0644\u0644\u0628\u0646\u064a\u0646", "name:en": "Alklig alaraby"}}, {"type": "node", "id": 6162163987, "lat": 36.3537774, "lon": 43.1693004, "tags": {"amenity": "school", "name": "\u0627\u0639\u062f\u0627\u062f\u064a\u0629 \u0627\u0644\u0645\u064a\u062b\u0627\u0642 \u0627\u0644\u0645\u0633\u0627\u0626\u064a\u0629"}}, {"type": "node", "id": 6166411086, "lat": 36.3990825, "lon": 43.0425082, "tags": {"amenity": "school", "name": "\u062b\u0627\u0646\u0648\u064a\u0629 \u0642\u0631\u0629 \u0642\u0648\u064a\u0646\u0644\u064a \u0644\u0644\u0628\u0646\u0627\u062a"}}, {"type": "node", "id": 6170165285, "lat": 36.3320004, "lon": 43.1754373, "tags": {"amenity": "school", "name": "\u0631\u0648\u0636\u0629 \u0648\u0645\u062f\u0631\u0633\u0629 \u0639\u0634\u062a\u0627\u0631"}}, {"type": "node", "id": 6173289387, "lat": 36.3254981, "lon": 43.1915557, "tags": {"amenity": "school", "name": "\u0635\u0627\u062d\u0628 \u0627\u0644\u062d\u0648\u062a \u0644\u0644\u0628\u0646\u064a\u0646"}}, {"type": "node", "id": 6174546985, "lat": 36.4155313, "lon": 43.1177033, "tags": {"amenity": "school", "name": "\u0645\u062c\u0645\u0648\u0639\u0629 \u0645\u062f\u0627\u0631\u0633 \u0627\u0644\u0627\u0648\u0627\u0626\u0644", "name:en": "Alawael Privates school"}}, {"type": "node", "id": 6174631396, "lat": 36.337464, "lon": 43.0928738, "tags": {"amenity": "school", "name": "\u0645\u062f\u0631\u0633\u0629 \u0627\u0644\u0627\u0646\u062a\u0635\u0627\u0631"}}, {"type": "node", "id": 6174631397, "lat": 36.4066796, "lon": 43.1176589, "tags": {"amenity": "school", "name": "\u0645\u062f\u0631\u0633\u0629 \u0627\u0644\u0627\u0631\u0642\u0645 \u0627\u0644\u0627\u0647\u0644\u064a\u0629 \u0627\u0644\u0645\u062e\u062a\u0644\u0637\u0647"}}, {"type": "node", "id": 6174640586, "lat": 36.3515356, "lon": 43.081686, "tags": {"amenity": "school", "name": "\u0645\u062f\u0631\u0633\u0647 \u0627\u0644\u062e\u0636\u0631\u0627\u0621 \u0627\u0644\u062b\u0627\u0646\u064a\u0629"}}, {"type": "node", "id": 6175132685, "lat": 36.3253236, "lon": 43.1919683, "tags": {"amenity": "school", "name": "\u0627\u0644\u0634\u0647\u064a\u062f \u0639\u0627\u0626\u062f \u063a\u0627\u0632\u064a \u0627\u0644\u0639\u0628\u064a\u062f\u064a \u0644\u0644\u0628\u0646\u0627\u062a"}}, {"type": "node", "id": 6192943585, "lat": 36.3833114, "lon": 43.2103504, "tags": {"amenity": "school", "name": "\u0645\u062a\u0648\u0633\u0637\u0629 \u0627\u0644\u0645\u0631\u0628\u062f \u0644\u0644\u0628\u0646\u0627\u062a"}}, {"type": "node", "id": 6192943685, "lat": 36.385495, "lon": 43.2077238, "tags": {"amenity": "school", "name": "\u0645\u062f\u0631\u0633\u0629 \u0627\u0644\u0642\u0639\u0642\u0627\u0639"}}, {"type": "node", "id": 6232885985, "lat": 36.3720961, "lon": 43.1805915, "tags": {"amenity": "school", "name": "\u0645\u062f\u0631\u0633\u0629 \u0627\u0644\u062a\u062d\u062f\u064a \u0627\u0644\u0627\u0647\u0644\u064a\u0629 \u062a\u0631\u0628\u064a\u0629 \u062e\u0627\u0635\u0629"}}, {"type": "node", "id": 6241154085, "lat": 36.3773804, "lon": 43.1516479, "tags": {"amenity": "school", "name": "\u0634\u0624\u0648\u0646 \u0627\u0644\u0637\u0644\u0628\u0629", "name:en": "students\u2019s affairs"}}, {"type": "node", "id": 6241154185, "lat": 36.3786031, "lon": 43.1506753, "tags": {"amenity": "school", "name": "\u0642\u0633\u0645 \u0627\u0644\u0645\u0633\u0627\u062d\u0629", "name:en": "erea\u2019s department"}}, {"type": "node", "id": 6241154186, "lat": 36.3788847, "lon": 43.150895, "tags": {"amenity": "school", "name": "\u0642\u0633\u0645 \u0627\u0644\u0643\u0647\u0631\u0628\u0627\u0621", "name:en": "electric\u2019s deparment"}}, {"type": "node", "id": 6241154285, "lat": 36.3788297, "lon": 43.1512206, "tags": {"amenity": "school", "name": "\u0642\u0633\u0645 \u0627\u0644\u0627\u0644\u0643\u062a\u0631\u0648\u0646\u064a\u0643", "name:en": "electronic\u2019s depatment"}}, {"type": "node", "id": 6245326686, "lat": 36.3449092, "lon": 43.1432021, "tags": {"amenity": "school", "name": "\u0645\u062f\u0631\u0633\u0647 \u0627\u0644\u0641\u062a\u0648\u0647 \u0644\u0644\u0628\u0646\u064a\u0646"}}, {"type": "node", "id": 6245326687, "lat": 36.4165352, "lon": 43.087841, "tags": {"amenity": "school", "name": "\u0645\u062f\u0631\u0633\u0647 \u0639\u0645\u0627\u062f \u0627\u0644\u062f\u064a\u0646 \u0627\u0644\u0632\u0646\u0643\u064a"}}, {"type": "node", "id": 6245326689, "lat": 36.4107983, "lon": 43.0741597, "tags": {"amenity": "school", "name": "\u0627\u0628\u062a\u062f\u0627\u0626\u064a\u0647 \u0634\u0631\u064a\u062e\u0627\u0646 \u0639\u0644\u064a\u0627 \u0644\u0644\u0628\u0646\u0627\u062a + \u0628\u0646\u064a\u0646"}}, {"type": "node", "id": 6245326691, "lat": 36.3836148, "lon": 43.1952471, "tags": {"amenity": "school", "name": "\u0645\u062f\u0631\u0633\u0647 \u0627\u0644\u062d\u0636\u0627\u0631\u0647"}}, {"type": "node", "id": 6245326696, "lat": 36.328424, "lon": 43.0865029, "tags": {"amenity": "school", "name": "\u0645\u062a\u0648\u0633\u0637\u0629 \u0627\u0644\u0637\u0645\u0648\u062d + \u0627\u0644\u062c\u0645\u0647\u0648\u064a\u0629 \u0644\u0644\u0628\u0646\u064a\u0646", "name:en": "Al Tomouh & Al Jomhouriyi School for Boys"}}, {"type": "node", "id": 6245326700, "lat": 36.3450885, "lon": 43.1065776, "tags": {"amenity": "school", "name": "\u0627\u0644\u0627\u0645\u0627\u0645 \u0627\u062d\u0645\u062f \u0628\u0646 \u062d\u0646\u0628\u0644 \u0644\u0644\u0628\u0646\u064a\u0646"}}, {"type": "node", "id": 6245326701, "lat": 36.347543, "lon": 43.0997397, "tags": {"amenity": "school", "name": "\u062b\u0627\u0646\u0648\u064a\u0629 \u0627\u0644\u062b\u0648\u0631\u0629 \u0644\u0644\u0628\u0646\u0627\u062a"}}, {"type": "node", "id": 6245326702, "lat": 36.3499734, "lon": 43.0965966, "tags": {"amenity": "school", "name": "\u0627\u0628\u062a\u062f\u0627\u0626\u064a\u0629 \u0627\u0644\u062d\u0627\u0631\u062b \u0644\u0644\u0628\u0646\u0627\u062a"}}, {"type": "node", "id": 6245326703, "lat": 36.3488919, "lon": 43.0960472, "tags": {"amenity": "school", "name": "\u0627\u0628\u062a\u062f\u0627\u0626\u064a\u0629 \u0627\u0644\u0627\u0645\u0627\u0645 \u0627\u0644\u0628\u062e\u0627\u0631\u064a \u0644\u0644\u0628\u0646\u064a\u0646"}}, {"type": "node", "id": 6245326704, "lat": 36.3520575, "lon": 43.0815089, "tags": {"amenity": "school", "name": "\u062b\u0627\u0646\u0648\u064a\u0629 \u062f\u0627\u0631 \u0627\u0644\u0639\u0644\u0648\u0645 \u0644\u0644\u0628\u0646\u0627\u062a"}}, {"type": "node", "id": 6245326885, "lat": 36.4018845, "lon": 43.0945333, "tags": {"amenity": "school", "name": "\u0645\u062a\u0648\u0633\u0637\u0629 \u0633\u062c\u0649 \u0644\u0644\u0628\u0646\u0627\u062a"}}, {"type": "node", "id": 6245326887, "lat": 36.4035004, "lon": 43.0728498, "tags": {"amenity": "school", "name": "\u0645\u062a\u0648\u0633\u0637\u0647 \u0634\u0631\u064a\u062e\u0627\u0646 \u0627\u0644\u0633\u0641\u0644\u0649 \u0644\u0644\u0628\u0646\u064a\u0646"}}, {"type": "node", "id": 6245326889, "lat": 36.357397, "lon": 43.1845485, "tags": {"amenity": "school", "name": "\u0645\u062f\u0631\u0633\u0629 \u0627\u0644\u0627\u0643\u0631\u0645\u064a\u0646"}}, {"type": "node", "id": 6245326890, "lat": 36.3181632, "lon": 43.1257497, "tags": {"amenity": "school", "name": "\u0627\u0628\u062a\u062f\u0627\u0626\u064a\u0629 \u0639\u0645\u0627\u0631 \u0628\u0646 \u064a\u0627\u0633\u0631"}}, {"type": "node", "id": 6245326891, "lat": 36.3525204, "lon": 43.0858259, "tags": {"amenity": "school", "name": "\u0645\u062f\u0631\u0633\u0647 \u0633\u0647\u0644 \u0628\u0646 \u0633\u0639\u062f \u0648 \u0627\u0644\u0641\u0627\u0631\u0633 \u0627\u0644\u0639\u0631\u0628\u064a"}}, {"type": "node", "id": 6245326986, "lat": 36.4060552, "lon": 43.0949235, "tags": {"amenity": "school", "name": "\u0645\u062f\u0631\u0633\u0647 \u062f\u0631\u0627\u0633\u0627\u062a \u0627\u0633\u0644\u0627\u0645\u064a\u0647 \u062b\u0627\u0646\u0648\u064a\u0647 \u0646\u0648\u0631 \u0627\u0644\u0627\u0633\u0644\u0627\u0645"}}, {"type": "node", "id": 6245326988, "lat": 36.403805, "lon": 43.0728517, "tags": {"amenity": "school", "name": "\u0627\u0628\u062a\u062f\u0627\u0626\u064a\u0647 \u0627\u0644\u0634\u0631\u064a\u062e\u0627\u0646 \u0644\u0644\u0628\u0646\u064a\u0646 + \u0627\u0644\u0628\u0646\u0627\u062a"}}, {"type": "node", "id": 6245326989, "lat": 36.3860716, "lon": 43.1955967, "tags": {"amenity": "school", "name": "\u0645\u062f\u0631\u0633\u0647 \u062f\u062c\u0644\u0629"}}, {"type": "node", "id": 6245326992, "lat": 36.2912443, "lon": 43.2090061, "tags": {"amenity": "school", "name": "\u0645\u062f\u0631\u0633\u0629 \u0627\u0644\u0645\u0639\u0631\u0627\u062c \u0628\u0646\u0627\u062a + \u0628\u0646\u064a\u0646"}}, {"type": "node", "id": 6245326994, "lat": 36.3185448, "lon": 43.1281002, "tags": {"amenity": "school", "name": "\u0627\u0628\u062a\u062f\u0627\u0626\u064a\u0629 \u0648\u0627\u062f\u064a \u062d\u062c\u0631 + \u0627\u0644\u0645\u0639\u0631\u064a"}}, {"type": "node", "id": 6245326995, "lat": 36.3182831, "lon": 43.12916, "tags": {"amenity": "school", "name": "\u0645\u062a\u0648\u0633\u0637\u0629 \u0627\u0644\u0627\u062f\u0631\u064a\u0633\u064a \u0644\u0644\u0628\u0646\u064a\u0646"}}, {"type": "node", "id": 6245326996, "lat": 36.3208774, "lon": 43.1309792, "tags": {"amenity": "school", "name": "\u0627\u0628\u062a\u062f\u0627\u0626\u064a\u0629 \u0627\u0644\u062a\u0627\u0645\u064a\u0645 \u0644\u0644\u0628\u0646\u0627\u062a"}}, {"type": "node", "id": 6245327000, "lat": 36.3531575, "lon": 43.0852029, "tags": {"amenity": "school", "name": "\u0645\u062f\u0631\u0633\u0647 \u062f\u0627\u0631 \u0627\u0644\u0639\u0644\u0648\u0645 \u0644\u0644\u0628\u0646\u064a\u0646"}}, {"type": "node", "id": 6245327001, "lat": 36.3372528, "lon": 43.0648724, "tags": {"amenity": "school", "name": "\u0645\u062f\u0631\u0633\u0629 \u0627\u0644\u0627\u0628\u0637\u0627\u0644 \u0627\u0644\u0627\u0648\u0644\u0649 + \u0627\u0644\u062b\u0627\u0646\u064a\u0629"}}, {"type": "node", "id": 6245327002, "lat": 36.3360963, "lon": 43.0569581, "tags": {"amenity": "school", "name": "\u0645\u062f\u0631\u0633\u0629 \u0627\u0644\u062e\u0644\u0642 \u0627\u0644\u0639\u0638\u064a\u0645 + \u062d\u0644\u0628 \u0628\u0646\u0627\u062a \u0648\u0628\u0646\u064a\u0646"}}, {"type": "node", "id": 6245327003, "lat": 36.3422163, "lon": 43.051173, "tags": {"amenity": "school", "name": "\u0645\u062f\u0631\u0633\u0629 \u0627\u0644\u0634\u064a\u062e \u062c\u0645\u064a\u0644 \u0648\u062c\u0644\u064a\u0644"}}, {"type": "node", "id": 6245327385, "lat": 36.4022125, "lon": 43.0874955, "tags": {"amenity": "school", "name": "\u0627\u0644\u062a\u0639\u0644\u064a\u0645 \u0627\u0644\u0627\u0633\u0627\u0633\u064a \u0627\u0644\u062a\u0631\u0643\u0645\u0627\u0646\u064a"}}, {"type": "node", "id": 6245327386, "lat": 36.3993337, "lon": 43.0427468, "tags": {"amenity": "school", "name": "\u062b\u0627\u0646\u0648\u064a\u0647 \u0642\u0631\u0647 \u0642\u0648\u064a\u0646\u0644\u064a \u0644\u0644\u0628\u0646\u0627\u062a"}}, {"type": "node", "id": 6245327588, "lat": 36.3501382, "lon": 43.0971816, "tags": {"amenity": "school", "name": "\u0645\u062a\u0648\u0633\u0637\u0629 \u0627\u0644\u0641\u0627\u0631\u0648\u0642 \u0644\u0644\u0628\u0646\u064a\u0646"}}, {"type": "node", "id": 6245327589, "lat": 36.351686, "lon": 43.0809458, "tags": {"amenity": "school", "name": "\u0645\u062f\u0631\u0633\u0629 \u0645\u064a\u0645\u0648\u0646\u0647 \u0627\u0644\u0623\u0648\u0644\u0649 \u0648\u0627\u0644\u062b\u0627\u0646\u064a\u0629"}}, {"type": "node", "id": 6245327590, "lat": 36.3527037, "lon": 43.0845758, "tags": {"amenity": "school", "name": "\u0645\u062f\u0631\u0633\u0629 \u0627\u0644\u0627\u0644\u0648\u0633\u064a \u0627\u0644\u0627\u0648\u0644\u0649 \u0648\u0627\u0644\u062b\u0627\u0646\u064a\u0629"}}, {"type": "node", "id": 6245327591, "lat": 36.330783, "lon": 43.0635179, "tags": {"amenity": "school", "name": "\u0645\u062a\u0648\u0633\u0637\u0629 \u0627\u0644\u0646\u0647\u0631\u0648\u0627\u0646 \u0644\u0644\u0628\u0646\u064a\u0646"}}, {"type": "node", "id": 6245327592, "lat": 36.3358536, "lon": 43.0670506, "tags": {"amenity": "school", "name": "\u062b\u0627\u0646\u0648\u064a\u0629 \u0627\u0645 \u0627\u064a\u0645\u0646 \u0627\u0644\u0627\u0646\u0635\u0627\u0631\u064a +\u0645\u062f\u0631\u0633\u0629 \u0627\u0644\u0631\u0633\u0644"}}, {"type": "node", "id": 6258468386, "lat": 36.305687, "lon": 43.1993079, "tags": {"amenity": "school", "name": "\u0645\u062f\u0631\u0633\u0629 \u0627\u0644\u0639\u0627\u0628\u062f \u0627\u0644\u0623\u0628\u062a\u062f\u0627\u0626\u064a\u0629", "name:en": "Alabed primary school"}}, {"type": "node", "id": 6258498185, "lat": 36.3073368, "lon": 43.1933537, "tags": {"amenity": "school", "name": "\u0645\u062f\u0631\u0633\u0629 \u0627\u0644\u0639\u0627\u0628\u062f \u0644\u0644\u0628\u0646\u064a\u0646 \u0648\u0627\u0644\u0628\u0646\u0627\u062a", "name:ar": "\u0645\u062f\u0631\u0633\u0629 \u0627\u0644\u0639\u0627\u0628\u062f \u0627\u0644\u0627\u0628\u062a\u062f\u0627\u0626\u064a\u0629", "name:en": "Alabed primary school", "opening_hours": "Su-Th 07:00-16:00"}}, {"type": "node", "id": 6273622085, "lat": 36.3919776, "lon": 43.1647101, "tags": {"amenity": "school", "name": "\u062b\u0627\u0646\u0648\u064a\u0629 \u0628\u0644\u0642\u064a\u0633 \u0644\u0644\u0628\u0646\u0627\u062a"}}, {"type": "node", "id": 6277039985, "lat": 36.3063969, "lon": 43.1897826, "tags": {"amenity": "school", "name": "\u0645\u062a\u0648\u0633\u0637\u0629 \u0631\u0642\u064a\u0629 \u0644\u0644\u0628\u0646\u0627\u062a"}}, {"type": "node", "id": 6277040085, "lat": 36.3092364, "lon": 43.1887965, "tags": {"amenity": "school", "name": "\u0627\u0628\u062a\u062f\u0627\u0626\u064a\u0629 \u0639\u0627\u0635\u0645 \u0628\u0646 \u062b\u0627\u0628\u062a"}}, {"type": "node", "id": 6283527785, "lat": 36.346744, "lon": 43.1554422, "tags": {"amenity": "school", "name": "\u062b\u0627\u0646\u0648\u064a\u0629 \u0627\u0644\u062a\u062d\u062f\u064a \u0644\u0644\u0628\u0646\u0627\u062a", "opening_hours": "Su-Th 08:00-13:00"}}, {"type": "node", "id": 6285933386, "lat": 36.3566278, "lon": 43.0918723, "tags": {"amenity": "school", "name": "\u0645\u062f\u0631\u0633\u0629 \u062f\u0627\u0631 \u0627\u0644\u0634\u0631\u0642\u064a\u0629 \u0627\u0644\u0644\u0628\u062a\u062f\u0627\u0626\u064a\u0629"}}, {"type": "node", "id": 6316747622, "lat": 36.4556226, "lon": 43.3421722, "tags": {"amenity": "school", "name": "\u0627\u0639\u062f\u0627\u062f\u064a\u0629 \u0628\u0639\u0634\u064a\u0642\u0629 \u0627\u0644\u0645\u0647\u0646\u064a\u0629"}}, {"type": "node", "id": 6316748300, "lat": 36.3715989, "lon": 43.1865616, "tags": {"amenity": "school", "name": "\u0645\u062f\u0631\u0633\u0629 \u0627\u0644\u062c\u0645\u0627\u0647\u064a\u0631 \u0627\u0644\u0627\u0628\u062a\u062f\u0627\u0626\u064a\u0629"}}, {"type": "node", "id": 6321680406, "lat": 36.3062698, "lon": 43.1980679, "tags": {"amenity": "school", "name": "\u0645\u062f\u0631\u0633\u0629 \u062f\u0627\u0631 \u0627\u0644\u0645\u0639\u0631\u0641\u0629 \u0644\u062a\u0642\u0648\u064a\u0629 \u0627\u0644\u0637\u0644\u0627\u0628 \u0641\u064a \u062f\u0648\u0645\u064a\u0632 \u0646\u0647\u0627\u064a\u0629 \u0634\u0627\u0631\u0639 \u0627\u0644\u0628\u062f\u0627\u0644\u0629"}}, {"type": "node", "id": 6330260188, "lat": 36.1402078, "lon": 42.9980462, "tags": {"amenity": "school"}}, {"type": "node", "id": 6372251885, "lat": 36.343673, "lon": 43.118088, "tags": {"addr:street": "\u0628\u0627\u0628 \u0633\u0646\u062c\u0627\u0631", "amenity": "school", "description": "There is a school here", "name": "\u062b\u0627\u0646\u0648\u064a\u0629 \u0627\u0644\u0628\u062a\u0648\u0644 \u0644\u0644\u0628\u0646\u0627\u062a", "name:en": "Albatool secondary school", "opening_hours": "Su-Th 00:00-24:00; Fr-Sa 08:00-13:00"}}, {"type": "node", "id": 6400685889, "lat": 36.3318447, "lon": 43.1001514, "tags": {"amenity": "school", "name": "\u0645\u062f\u0631\u0633\u0629 \u0627\u0644\u0642\u062d\u0637\u0627\u0646\u064a", "name:ar": "\u0645\u062a\u0648\u0633\u0637\u0629 \u0627\u0644\u0642\u062d\u0637\u0627\u0646\u064a\u0629 \u0644\u0644\u0628\u0646\u064a\u0646", "name:en": "Al Qahtaneya intermediate School"}}, {"type": "node", "id": 6400703087, "lat": 36.3309949, "lon": 43.100661, "tags": {"amenity": "school", "name": "\u0645\u062f\u0631\u0633\u0629 \u0627\u0644\u0642\u062f\u064a\u0633 \u0639\u0628\u062f\u0627\u0644\u0627\u062d\u062f"}}, {"type": "node", "id": 6402790388, "lat": 36.3847325, "lon": 43.1599175, "tags": {"amenity": "school", "name": "\u062b\u0627\u0646\u0648\u064a\u0629", "name:ar": "\u062b\u0627\u0646\u0648\u064a\u0629 \u0627\u0644\u0632\u0647\u0631\u0627\u0621 \u0627\u0644\u0627\u0647\u0644\u064a\u0647 \u0644\u0644\u0628\u0646\u0627\u062a"}}, {"type": "node", "id": 6407661825, "lat": 36.3396766, "lon": 43.0968225, "tags": {"amenity": "school", "name": "\u0645\u062a\u0648\u0633\u0637\u0629 \u0623\u0645 \u0633\u0644\u0645\u0629 \u0644\u0644\u0628\u0646\u0627\u062a"}}, {"type": "node", "id": 6407661826, "lat": 36.3404334, "lon": 43.0972731, "tags": {"amenity": "school", "name": "\u0645\u062f\u0631\u0633\u0629 \u062d\u0645\u0632\u0629 \u0628\u0646 \u0639\u0628\u062f \u0627\u0644\u0645\u0637\u0644\u0628 \u0644\u0644\u0628\u0646\u064a\u0646"}}, {"type": "node", "id": 6416163386, "lat": 36.36405, "lon": 43.1995384, "tags": {"amenity": "school"}}, {"type": "node", "id": 6417502585, "lat": 36.3502568, "lon": 43.1501095, "tags": {"amenity": "school", "name": "\u0627\u0639\u062f\u0627\u062f\u064a\u0629 \u062f\u0627\u0631 \u0627\u0644\u0633\u0644\u0627\u0645", "opening_hours": "Mo-Su 07:00-13:00", "phone": "9647516187514"}}, {"type": "node", "id": 6429920385, "lat": 36.3713995, "lon": 43.1870155, "tags": {"addr:street": "\u0627\u0644\u0645\u0634\u0631\u0627\u0642", "amenity": "school", "name": "\u0627\u0639\u062f\u0627\u062f\u064a\u0629 \u0627\u0628\u064a \u062d\u0646\u064a\u0641\u0629 \u0627\u0644\u0646\u0639\u0645\u0627\u0646", "name:ku": "Abo Hnefi"}}, {"type": "node", "id": 6429920785, "lat": 36.37933, "lon": 43.199285, "tags": {"amenity": "school", "name": "\u0632\u0647\u0631\u0629 \u0627\u0644\u0645\u062f\u0627\u0626\u0646 \u0644\u0644\u0628\u0646\u0627\u062a \u0627\u0644\u0627\u0628\u062a\u062f\u0627\u0626\u064a\u0629"}}, {"type": "node", "id": 6437570392, "lat": 36.3465692, "lon": 43.1133823, "tags": {"amenity": "school", "name": "\u0627\u0644\u0645\u064a\u062b\u0627\u0642"}}, {"type": "node", "id": 6437570393, "lat": 36.3373845, "lon": 43.0923447, "tags": {"amenity": "school", "name": "\u0627\u0644\u0627\u0646\u062a\u0635\u0627\u0631"}}, {"type": "node", "id": 6463301987, "lat": 36.4137903, "lon": 43.1177714, "tags": {"amenity": "school", "name": "\u0645\u062c\u0645\u0648\u0639\u0629 \u0645\u062f\u0627\u0631\u0633 \u0627\u0644\u0627\u0648\u0627\u0626\u0644 \u0627\u0644\u0627\u0647\u0644\u064a\u0629", "name:en": "Alawael private schools group"}}, {"type": "node", "id": 6479582685, "lat": 36.3495533, "lon": 43.1085424, "tags": {"amenity": "school", "name": "\u0633\u0639\u062f \u0628\u0646 \u0627\u0628\u064a \u0648\u0642\u0627\u0635 \u0627\u0644\u0627\u0628\u062a\u062f\u0627\u0626\u064a\u0629"}}, {"type": "node", "id": 6485812786, "lat": 36.3223981, "lon": 43.0867089, "tags": {"amenity": "school", "name": "\u0645\u062f\u0631\u0633\u0629 \u0627\u0644\u0639\u0627\u0645\u0644 \u0627\u0644\u0627\u0628\u062a\u062f\u0627\u0626\u064a\u0629", "name:en": "Alamel primary school", "opening_hours": "Su-Th 00:00-24:00"}}, {"type": "node", "id": 6512551285, "lat": 36.3658699, "lon": 43.1875118, "tags": {"amenity": "school", "name": "\u0645\u062f\u0631\u0633\u0629 \u0627\u0644\u0634\u0647\u0628\u0627\u0621 \u0627\u0644\u0627\u0628\u062a\u062f\u0627\u0626\u064a\u0629", "name:en": "Al Shahbaa primary school"}}, {"type": "node", "id": 6546014885, "lat": 36.3540149, "lon": 43.2216387, "tags": {"addr:street": "\u0633\u0627\u064a\u062f\u064a\u0646 \u0627\u0644\u062e\u0636\u0631\u0627\u0621", "amenity": "school", "name": "\u0645\u062f\u0631\u0633\u0629 \u0627\u0644\u0632\u064a\u062a\u0648\u0646", "name:en": "\u0627\u0644\u0639\u0631\u0628\u064a\u0629", "name:ku": "\u0627\u0644\u0639\u0631\u0628\u064a\u0629", "opening_hours": "Su-Th 09:00-16:20"}}, {"type": "node", "id": 6564795086, "lat": 36.4415335, "lon": 43.3505065, "tags": {"addr:street": "\u062d\u064a \u0627\u0644\u0631\u0628\u064a\u0639", "amenity": "school", "name": "\u0627\u0639\u062f\u0627\u062f\u064a\u0629 \u0628\u0639\u0634\u064a\u0642\u0629 \u0644\u0644\u0628\u0646\u064a\u0646", "name:en": "School bashiqa"}}, {"type": "node", "id": 6564810586, "lat": 36.4416406, "lon": 43.3503679, "tags": {"amenity": "school", "name": "\u0627\u0639\u062f\u0627\u062f\u064a\u0629 \u0628\u0639\u0634\u064a\u0642\u0629 \u0644\u0644\u0628\u0646\u064a\u0646"}}, {"type": "node", "id": 6569660842, "lat": 36.3683795, "lon": 43.1379688, "tags": {"amenity": "school", "name": "\u062b\u0627\u0646\u0648\u064a\u0629 \u062a\u0637\u0648\u0627\u0646 \u0644\u0644\u0628\u0646\u0627\u062a"}}, {"type": "node", "id": 6572415491, "lat": 36.3341733, "lon": 43.135257, "tags": {"amenity": "school", "name": "\u0627\u0644\u0639\u0631\u0627\u0642\u064a\u0647 \u0648\u0627\u0644\u0648\u0637\u0646 \u0644\u0644\u0628\u0646\u0627\u062a"}}, {"type": "node", "id": 6572589785, "lat": 36.3317821, "lon": 43.1331692, "tags": {"amenity": "school", "name": "\u062b\u0627\u0646\u0648\u064a\u0629 \u0627\u0644\u0634\u0639\u0628 \u0627\u0644\u0645\u0633\u0627\u0626\u064a\u0629", "name:en": "Al-Shaab Evening High-School"}}, {"type": "node", "id": 6580009888, "lat": 36.3188938, "lon": 43.1046912, "tags": {"amenity": "school", "name": "\u0645\u062f\u0631\u0633\u0629 \u0627\u0644\u0634\u0647\u062f\u0627\u0621 \u0627\u0644\u0627\u0628\u062a\u062f\u0627\u0626\u064a\u0629 \u0644\u0644\u0628\u0646\u0627\u062a"}}, {"type": "node", "id": 6580022387, "lat": 36.3173374, "lon": 43.1015371, "tags": {"amenity": "school", "name": "\u0645\u062f\u0631\u0633\u0629 \u0627\u0644\u0634\u0647\u062f\u0627\u0621 \u0627\u0644\u0627\u0628\u062a\u062f\u0627\u0626\u064a\u0629 \u0644\u0644\u0628\u0646\u064a\u0646"}}, {"type": "node", "id": 6609779788, "lat": 36.3232366, "lon": 43.2136168, "tags": {"addr:street": "\u062d\u064a \u0627\u0644\u0625\u0646\u062a\u0635\u0627\u0631", "amenity": "school", "name": "\u0645\u0627\u0631\u064a\u0627 \u0627\u0644\u0642\u0628\u0637\u064a\u0629 \u0644\u0644\u0628\u0646\u0627\u062a \u0648\u0627\u0644\u0645\u0643\u0627\u0631\u0645 \u0644\u0644\u0628\u0646\u064a\u0646", "name:ar": "\u0645\u062f\u0631\u0633\u0629 \u0645\u0627\u0631\u064a\u0627 \u0627\u0644\u0642\u0628\u0637\u064a\u0629 \u0644\u0644\u0628\u0646\u0627\u062a \u0648\u0627\u0644\u0645\u0643\u0627\u0631\u0645 \u0644\u0644\u0628\u0646\u064a\u0646"}}, {"type": "node", "id": 6609819385, "lat": 36.3228196, "lon": 43.2132443, "tags": {"addr:street": "\u062d\u064a \u0627\u0644\u0625\u0646\u062a\u0635\u0627\u0631", "amenity": "school", "name": "\u0645\u062a\u0648\u0633\u0637\u0629 \u0648\u0627\u0639\u062f\u0627\u062f\u064a\u0629 \u0646\u0633\u064a\u0628\u0629 \u0627\u0644\u0623\u0646\u0635\u0627\u0631\u064a \u0644\u0644\u0628\u0646\u0627\u062a"}}, {"type": "node", "id": 6611881286, "lat": 36.3183809, "lon": 43.1042225, "tags": {"addr:street": "Mosul-Baghdad road", "amenity": "school", "name": "\u0645\u062f\u0631\u0633\u0629 \u0627\u0644\u0634\u0647\u062f\u0627\u0621 \u0644\u0644\u0628\u0646\u0627\u062a", "name:ar": "\u0645\u062f\u0631\u0633\u0629 \u0634\u0647\u062f\u0627\u0621 \u0644\u0644\u0628\u0646\u0627\u062a 1"}}, {"type": "node", "id": 6695497385, "lat": 36.3659106, "lon": 43.2011477, "tags": {"amenity": "school", "name": "\u0645\u062f\u0631\u0633\u0629 \u0627\u0644\u062a\u0631\u0627\u062b \u0627\u0644\u0639\u0631\u0628\u064a \u0627\u0644\u0627\u0628\u062a\u062f\u0627\u0626\u064a\u0629"}}, {"type": "node", "id": 6831390287, "lat": 36.4243117, "lon": 42.9842854, "tags": {"amenity": "school", "name": "\u0645\u062a\u0648\u0633\u0637\u0629 \u0633\u062f \u0628\u0627\u062f\u0648\u0634 \u0644\u0644\u0628\u0646\u064a\u0646", "name:en": "Medium Badoush Dam for Boys", "name:ku": "Bendava Badoush Nav\u00een ji bo Boys", "name:tr": "Sed Bado\u015f erkekler orta okulu"}}, {"type": "node", "id": 6831397186, "lat": 36.424501, "lon": 42.9844256, "tags": {"amenity": "school", "name": "\u0645\u062a\u0648\u0633\u0637\u0629 \u0633\u062f \u0628\u0627\u062f\u0648\u0634 \u0644\u0644\u0628\u0646\u0627\u062a", "name:en": "Medium Badoush Dam for Girls", "name:ku": "Bendava Badoush ji bo Ke\u00e7an", "name:tr": "Sed Bado\u015f k\u0131zlar orta okulu"}}, {"type": "node", "id": 6833320873, "lat": 36.3640287, "lon": 43.0864216, "tags": {"addr:street": "\u062d\u064a\u06f1\u06f7 \u062a\u0645\u0648\u0632", "amenity": "school", "name": "\u062b\u0627\u0646\u0648\u064a\u0629 \u0627\u0644\u062e\u0646\u0633\u0627\u0621", "name:en": "al-khansa\u2019 secondary school"}}, {"type": "node", "id": 6838739988, "lat": 36.3494718, "lon": 43.1501657, "tags": {"amenity": "school", "name": "\u0645\u062a\u0648\u0633\u0637\u0629 \u062f\u0627\u0631 \u0627\u0644\u0633\u0644\u0627\u0645 \u060c \u0645\u062a\u0648\u0633\u0637\u0629 \u0627\u0644\u0636\u0648\u0627\u062d\u064a"}}, {"type": "node", "id": 6862475285, "lat": 36.37534, "lon": 43.139097, "tags": {"amenity": "school", "name": "\u0627\u0628\u0648 \u0630\u0631 \u0627\u0644\u063a\u0641\u0627\u0631\u064a \u0644\u0644\u0628\u0646\u0627\u062a"}}, {"type": "node", "id": 6868996388, "lat": 36.406572, "lon": 43.1832269, "tags": {"amenity": "school", "name": "\u0645\u062f\u0631\u0633\u0629 \u0627\u0644\u062f\u0627\u0631 \u0627\u0644\u0628\u064a\u0636\u0627\u0621 \u0627\u0644\u0627\u0628\u062a\u062f\u0627\u0626\u064a\u0647"}}, {"type": "node", "id": 6887210385, "lat": 36.3458621, "lon": 43.1678641, "tags": {"amenity": "school", "name": "\u0645\u062a\u0648\u0633\u0637\u0629 \u0642\u062a\u064a\u0628\u0629 \u0627\u0628\u0646 \u0645\u0633\u0644\u0645 \u0627\u0644\u0628\u0627\u0647\u0644\u064a", "name:ar": "\u0645\u062a\u0648\u0633\u0637\u0629 \u0642\u062a\u064a\u0628\u0647 \u0628\u0646 \u0645\u0633\u0644\u0645 \u0627\u0644\u0628\u0627\u0647\u0644\u064a"}}, {"type": "node", "id": 6942471185, "lat": 36.2748693, "lon": 43.3714458, "tags": {"amenity": "school"}}, {"type": "node", "id": 7013206785, "lat": 36.3098882, "lon": 42.9251582, "tags": {"amenity": "school"}}, {"type": "node", "id": 7021217987, "lat": 36.341668, "lon": 43.1534976, "tags": {"addr:street": "\u0632\u0642\u0627\u0642 19", "amenity": "school", "name": "\u062b\u0627\u0646\u0648\u064a\u0629 \u0635\u0642\u0648\u0631 \u0627\u0644\u0634\u0631\u0642\u064a\u0629", "name:en": "Alsharqee Egel secondary school", "name:ku": "\u0645\u0647 \u062f\u0631\u0633\u0647 \u0635\u0642\u0648\u0631 \u0634\u0631\u0642\u064a\u0647", "opening_hours": "Mo-Su 07:30-16:00", "phone": "07740931508"}}, {"type": "node", "id": 7072594653, "lat": 36.3434107, "lon": 43.1175683}, {"type": "node", "id": 7072594654, "lat": 36.3428356, "lon": 43.1180129}, {"type": "node", "id": 7072594655, "lat": 36.3431388, "lon": 43.1186295}, {"type": "node", "id": 7072594656, "lat": 36.343727, "lon": 43.1181492}, {"type": "node", "id": 7131751985, "lat": 36.3309837, "lon": 43.1006541, "tags": {"amenity": "school", "name": "\u0645\u062f\u0631\u0633\u0629 \u0627\u0644\u0642\u062f\u064a\u0633 \u0639\u0628\u062f\u0627\u0644\u0627\u062d\u062f"}}, {"type": "node", "id": 7155156685, "lat": 36.4278695, "lon": 43.1594615, "tags": {"amenity": "school", "name": "\u0645\u062f\u0631\u0633\u0629 \u0628\u0639\u0648\u064a\u0632\u0629"}}, {"type": "node", "id": 7169950386, "lat": 36.3881257, "lon": 43.1333648, "tags": {"amenity": "school", "name": "\u062c\u0627\u0645\u0639\u0629 \u0627\u0644\u0645\u0648\u0635\u0644-\u0643\u0644\u064a\u0629 \u0627\u0644\u0632\u0631\u0627\u0639\u0629 \u0648\u0627\u0644\u063a\u0627\u0628\u0627\u062a"}}, {"type": "node", "id": 7176075285, "lat": 36.4107696, "lon": 43.3199891, "tags": {"amenity": "school", "name": "\u062b\u0627\u0646\u0648\u064a\u0647 \u0627\u0628\u0648\u062c\u0631\u0628\u0648\u0639\u0629"}}, {"type": "node", "id": 7176110085, "lat": 36.4142858, "lon": 43.3154244, "tags": {"amenity": "school", "name": "\u0627\u0628\u0648\u062c\u0631\u0628\u0648\u0639\u0629 \u0627\u0644\u0627\u0628\u062a\u062f\u0627\u0626\u064a\u0629"}}, {"type": "node", "id": 7228629886, "lat": 36.3289291, "lon": 43.0858041, "tags": {"amenity": "school", "name": "\u0645\u062f\u0631\u0633\u0629 \u0627\u0644\u062d\u0627\u0645\u062f\u064a\u0646 \u0627\u0644\u0627\u0628\u062a\u062f\u0627\u0626\u064a\u0629 \u0648 \u0645\u062f\u0631\u0633\u0629 \u0627\u0644\u0623\u0641\u0644\u0627\u0630 \u0644\u0644\u0628\u0646\u0627\u062a", "name:en": "Al- Hamedeen Elementary School for boys and Al Aflaz for girls", "name:ku": "\u062d\u0647 \u0645\u064a\u062f\u064a\u0646 + \u0626\u0641\u0644\u0627\u0632 \u0643\u0648\u062a\u0627\u0628\u062e\u0627\u0646\u0647", "opening_hours": "Su-Th 00:00-24:00"}}, {"type": "node", "id": 7260899385, "lat": 36.3273884, "lon": 43.1467149, "tags": {"amenity": "school", "name": "\u0645\u062a\u0648\u0633\u0637\u0629 \u0627\u0644\u062d\u0627\u062c \u064a\u0648\u0646\u0633 \u0644\u0644\u0628\u0646\u0627\u062a", "name:en": "Al haj younes for Girls"}}, {"type": "node", "id": 7266065885, "lat": 36.3383266, "lon": 43.1515213, "tags": {"amenity": "school", "name": "\u0627\u0644\u0645\u0639\u0647\u062f \u0627\u0644\u062a\u0642\u0646\u064a \u0627\u0644\u0627\u062f\u0627\u0631\u064a \u0646\u064a\u0646\u0648\u0649"}}, {"type": "node", "id": 7296752685, "lat": 36.3136815, "lon": 43.1952813, "tags": {"addr:street": "\u0634\u0627\u0631\u0639 \u0643\u0631\u0643\u0648\u0643", "amenity": "school", "name": "\u0645\u062a\u0648\u0633\u0637\u0629 \u0646\u0647\u062c \u0627\u0644\u0647\u062f\u0649 \u0627\u0644\u0623\u0647\u0644\u064a\u0629 \u0644\u0644\u0628\u0646\u064a\u0646"}}, {"type": "node", "id": 7296752686, "lat": 36.3554787, "lon": 43.2003718, "tags": {"amenity": "school", "name": "\u0645\u062f\u0633\u0629 \u062c\u064a\u0644 \u0627\u0644\u0647\u062f\u0649 \u0627\u0644\u0625\u0628\u062a\u062f\u0627\u0626\u064a\u0629 \u0627\u0644\u0623\u0647\u0644\u064a\u0629 \u0627\u0644\u0645\u062e\u062a\u0644\u0637\u0629"}}, {"type": "node", "id": 7296752687, "lat": 36.4017726, "lon": 43.1225208, "tags": {"amenity": "school", "name": "\u062b\u0627\u0646\u0648\u064a\u0629 \u0627\u0644\u0647\u062f\u0649 \u0627\u0644\u0623\u0647\u0644\u064a\u0629 \u0644\u0644\u0628\u0646\u064a\u0646"}}, {"type": "node", "id": 7296752785, "lat": 36.3122998, "lon": 43.1992705, "tags": {"addr:street": "\u0645\u062f\u062e\u0644 \u062f\u0648\u0645\u064a\u0632", "amenity": "school", "name": "\u0645\u062f\u0631\u0633\u0629 \u0646\u0647\u062c \u0627\u0644\u0647\u062f\u0649 \u0627\u0644\u0625\u0628\u062a\u062f\u0627\u0626\u064a\u0629 \u0627\u0644\u0623\u0647\u0644\u064a\u0629 \u0627\u0644\u0645\u062e\u062a\u0644\u0637\u0629"}}, {"type": "node", "id": 7296752786, "lat": 36.4034202, "lon": 43.1173632, "tags": {"amenity": "school", "name": "\u0645\u062f\u0631\u0633\u0629 \u0627\u0644\u0647\u062f\u0649 \u0627\u0644\u0625\u0628\u062a\u062f\u0627\u0626\u064a\u0629 \u0627\u0644\u0623\u0647\u0644\u064a\u0629 \u0627\u0644\u0645\u062e\u062a\u0644\u0637\u0629"}}, {"type": "node", "id": 7296752788, "lat": 36.3579619, "lon": 43.0949132, "tags": {"amenity": "school", "name": "\u0645\u062f\u0631\u0633\u0629 \u0646\u0648\u0631 \u0627\u0644\u0647\u062f\u0649 \u0627\u0644\u0625\u0628\u062a\u062f\u0627\u0626\u064a\u0629 \u0627\u0644\u0623\u0647\u0644\u064a\u0629 \u0627\u0644\u0645\u062e\u062a\u0644\u0637\u0629"}}, {"type": "node", "id": 7296752985, "lat": 36.4068781, "lon": 43.1161734, "tags": {"amenity": "school", "name": "\u062b\u0627\u0646\u0648\u064a\u0629 \u0627\u0644\u0647\u062f\u0649 \u0627\u0644\u0623\u0647\u0644\u064a\u0629 \u0644\u0644\u0628\u0646\u0627\u062a"}}, {"type": "node", "id": 7335041202, "lat": 36.3948178, "lon": 43.160687, "tags": {"amenity": "school"}}, {"type": "node", "id": 7335041203, "lat": 36.3975487, "lon": 43.1638587, "tags": {"amenity": "school"}}, {"type": "node", "id": 7350541785, "lat": 36.3656699, "lon": 43.2082246, "tags": {"amenity": "school", "name": "\u0645\u062f\u0631\u0633\u0629 \u0627\u0644\u0647\u0627\u062f\u064a \u0627\u0644\u0627\u0628\u062a\u062f\u0627\u0626\u064a\u0629"}}, {"type": "node", "id": 7488682185, "lat": 36.36093, "lon": 43.2191705, "tags": {"amenity": "school", "name": "\u0627\u0644\u0625\u0645\u0627\u0645 \u0645\u0627\u0644\u0643 \u0644\u0644\u0628\u0646\u064a\u0646 \u0627\u0644\u0627\u0628\u062a\u062f\u0627\u0626\u064a\u0629", "name:en": "Al-Emam Malim primary School"}}, {"type": "node", "id": 7500166285, "lat": 36.319626, "lon": 43.1955722, "tags": {"amenity": "school", "name": "\u0627\u0644\u0641\u064a\u062d\u0627\u0621 \u0644\u0644\u0628\u0646\u0627\u062a/ \u0627\u0644\u0645\u0648\u0635\u0644 \u0644\u0644\u0628\u0646\u0627\u062a"}}, {"type": "node", "id": 7510505185, "lat": 36.3958427, "lon": 43.1881632, "tags": {"amenity": "school", "name": "\u0645\u062f\u0631\u0633\u0629 \u0639\u0628\u062f\u0627\u0644\u0644\u0647 \u0628\u0646 \u062c\u0627\u0628\u0631 \u0644\u0644\u0628\u0646\u064a\u0646"}}, {"type": "node", "id": 7510505285, "lat": 36.3958579, "lon": 43.1886268, "tags": {"amenity": "school", "name": "\u0645\u062f\u0631\u0633\u0629 \u0627\u0628\u0646 \u0627\u0644\u0646\u0641\u064a\u0633"}}, {"type": "node", "id": 7510505385, "lat": 36.3791036, "lon": 43.1345837, "tags": {"amenity": "school", "name": "\u0645\u062f\u0631\u0633\u0629 \u0627\u0644\u062c\u0627\u0645\u0639\u0629 \u0644\u0644\u0628\u0646\u064a\u0646"}}, {"type": "node", "id": 7511653609, "lat": 36.3892055, "lon": 43.2040214, "tags": {"amenity": "school", "name": "\u0645\u062f\u0631\u0633\u0629 \u0627\u0644\u0645\u062d\u0627\u0631\u0628\u064a\u0646 \u0644\u0644\u0628\u0646\u0627\u062a"}}, {"type": "node", "id": 7527881785, "lat": 36.4170124, "lon": 43.1217707, "tags": {"amenity": "school", "name": "\u062b\u0627\u0646\u0648\u064a\u0629 \u0627\u0644\u0627\u0648\u0627\u0626\u0644"}}, {"type": "node", "id": 7536459285, "lat": 36.4585847, "lon": 43.0766513, "tags": {"amenity": "school", "name": "\u0645\u062f\u0631\u0633\u0629 \u0627\u0644\u0645\u0647\u0646\u062f \u0627\u0644\u0627\u0628\u062a\u062f\u0627\u0626\u064a\u0629 \u0627\u0644\u0645\u062e\u062a\u0644\u0637\u0629", "name:en": "Almohanad School"}}, {"type": "node", "id": 7536493085, "lat": 36.416637, "lon": 43.0878852, "tags": {"amenity": "school", "name": "\u0645\u062f\u0631\u0633\u0629 \u0628\u064a\u0634 \u0628\u0637\u0627\u063a"}}, {"type": "node", "id": 7536697885, "lat": 36.4407557, "lon": 43.0879691, "tags": {"amenity": "school", "name": "\u0645\u062f\u0631\u0633\u0629 \u0627\u0644\u063a\u0635\u0648\u0646 \u0644\u0644\u0628\u0646\u064a\u0646"}}, {"type": "node", "id": 7558452285, "lat": 36.2859415, "lon": 43.2935781, "tags": {"amenity": "school", "name": "\u0627\u0628\u062a\u062f\u0627\u0626\u064a\u0629 \u0639\u0644\u064a \u0631\u0634 \u0644\u0644\u0628\u0646\u064a\u0646 \u0648\u0627\u0644\u0628\u0646\u0627\u062a"}}, {"type": "node", "id": 7593933685, "lat": 36.3637663, "lon": 43.3546662, "tags": {"addr:street": "\u0637\u0631\u064a\u0642 \u0623\u0631\u0628\u064a\u0644", "amenity": "school", "name": "\u062e\u0632\u0646\u0629 \u062a\u0628\u0629 \u0628\u0631\u0637\u0644\u0629"}}, {"type": "node", "id": 7593933785, "lat": 36.3480202, "lon": 43.3545375, "tags": {"addr:street": "\u0637\u0631\u064a\u0642 \u0623\u0631\u0628\u064a\u0644", "amenity": "school", "name": "\u0645\u062f\u0631\u0633\u0629 \u0637\u064a\u0628\u0629 \u0628\u0631\u0637\u0644\u0629"}}, {"type": "node", "id": 7598891785, "lat": 36.4141326, "lon": 43.1174693, "tags": {"amenity": "school", "name": "\u0645\u062f\u0627\u0631\u0633 \u0627\u0644\u0627\u0648\u0627\u0626\u0644 \u0627\u0644\u0627\u0647\u0644\u064a\u0629", "name:en": "awael schools", "operator": "Mr.khaleel"}}, {"type": "node", "id": 7640371885, "lat": 36.3904541, "lon": 43.1803693, "tags": {"amenity": "school", "name": "\u0627\u0644\u0639\u0637\u0627\u0621 \u0627\u0644\u0627\u0628\u062a\u062f\u0627\u0626\u064a\u0647"}}, {"type": "node", "id": 7640389185, "lat": 36.4068345, "lon": 43.1826627, "tags": {"amenity": "school", "name": "\u0627\u0644\u062f\u0627\u0631 \u0627\u0644\u0628\u064a\u0636\u0627\u0621 \u0627\u0644\u0627\u0628\u062a\u062f\u0627\u0626\u064a\u0647"}}, {"type": "node", "id": 7653321288, "lat": 36.4046324, "lon": 43.0895624, "tags": {"amenity": "school", "name": "\u0627\u0644\u0631\u0634\u064a\u062f\u064a\u0629 \u0644\u0644\u0628\u0646\u0627\u062a"}}, {"type": "node", "id": 7684176785, "lat": 36.387952, "lon": 43.1642585, "tags": {"amenity": "school", "name": "\u0645\u062a\u0648\u0633\u0637\u0629 \u0627\u0644\u0631\u0645\u0627\u062d \u0644\u0644\u0628\u0646\u0627\u062a"}}, {"type": "node", "id": 7707064285, "lat": 36.3569688, "lon": 43.0939887, "tags": {"amenity": "school", "name": "\u062b\u0627\u0646\u0648\u064a\u0629 \u0646\u0648\u0631 \u0627\u0644\u0647\u062f\u0649 \u0627\u0644\u0623\u0647\u0644\u064a\u0629 \u0644\u0644\u0628\u0646\u0627\u062a"}}, {"type": "node", "id": 7733135285, "lat": 36.3786267, "lon": 43.1835362, "tags": {"amenity": "school", "name": "\u0645\u062f\u0631\u0633\u0629 \u0627\u0644\u062a\u062d\u062f\u064a \u0627\u0644\u0627\u0647\u0644\u064a\u0629 .\u062a\u0631\u0628\u064a\u0629 \u062e\u0627\u0635\u0629", "name:ar": "\u0645\u062f\u0631\u0633\u0629 \u0627\u0644\u062a\u062d\u062f\u064a \u0627\u0644\u0627\u0647\u0644\u064a\u0629 .\u062a\u0631\u0628\u064a\u0629 \u062e\u0627\u0635\u0629 .", "name:en": "Al tahady basic school .Special education .", "name:ku": "\u0642\u0648\u062a\u0627\u0628\u062e\u0627\u0646\u0647 \u06cc \u0627\u0644\u062a\u062d\u062f\u06cc \u0628\u0646\u0647 \u0631\u0647 \u062a\u06cc .\u067e\u0647 \u0631\u0648\u0647 \u0631\u062f\u0647 \u06cc \u062a\u0627\u064a\u0628\u0647 \u062a", "opening_hours": "Su-Th 08:00-13:00", "phone": "+964 751 821 8570", "website": "https://www.facebook.com/%D9%85%D8%AF%D8%B1%D8%B3%D8%A9-%D8%A7%D9%84%D8%AA%D8%AD%D8%AF%D9%8A-%D9%84%D9%84%D8%AA%D8%B1%D8%A8%D9%8A%D8%A9-%D8%A7%D9%84%D8%AE%D8%A7%D8%B5%D8%A9-446534562527421/"}}, {"type": "node", "id": 7825665585, "lat": 36.3511918, "lon": 43.1077752, "tags": {"amenity": "school"}}, {"type": "node", "id": 7829519085, "lat": 36.3261441, "lon": 43.1799401, "tags": {"addr:housenumber": "0", "addr:postcode": "41001", "addr:street": "\u0627\u0644\u0645\u0632\u0627\u0631\u0639 \u0627\u0644\u062b\u0627\u0646\u064a\u0629 \u0645\u0642\u0627\u0628\u0644 \u0627\u0644\u062f\u0641\u0627\u0639 \u0627\u0644\u0645\u062f\u0646\u064a", "amenity": "school", "name": "\u0645\u062f\u0631\u0633\u0629 \u0627\u0644\u0633\u0631\u0627\u062c \u0627\u0644\u0627\u0647\u0644\u064a\u0629", "opening_hours": "24/7", "phone": "07722644899"}}, {"type": "node", "id": 7853897987, "lat": 36.4113382, "lon": 43.1139102, "tags": {"amenity": "school", "name": "\u0645\u062f\u0631\u0633\u0629 \u0627\u0644\u0645\u0639\u0627\u0644\u064a"}}, {"type": "node", "id": 7944490285, "lat": 36.3395653, "lon": 43.1390796, "tags": {"amenity": "school", "name": "\u0627\u0644\u0625\u0639\u062f\u0627\u062f\u064a\u0629 \u0627\u0644\u0634\u0631\u0642\u064a\u0629 \u0644\u0644\u0628\u0646\u064a\u0646"}}, {"type": "node", "id": 7991793886, "lat": 36.3538184, "lon": 43.1931912, "tags": {"addr:street": "\u062d\u064a \u0627\u0644\u062a\u0623\u0645\u064a\u0645", "amenity": "school", "name": "\u0631\u0648\u0636\u0647 \u064a\u0646\u0628\u0648\u0639 \u0627\u0644\u062e\u064a\u0631", "opening_hours": "Su-Th 00:00-24:00"}}, {"type": "node", "id": 7991794985, "lat": 36.3540305, "lon": 43.1942484, "tags": {"addr:street": "\u062d\u064a \u0627\u0644\u062a\u0623\u0645\u064a\u0645", "amenity": "school", "name": "\u0627\u0639\u062f\u0627\u062f\u064a\u0647 \u0627\u0645 \u0627\u0644\u0631\u0628\u064a\u0639\u064a\u0646 \u0627\u0644\u0635\u0646\u0627\u0639\u064a\u0647", "opening_hours": "Su-Th 00:00-24:00"}}, {"type": "node", "id": 7991798685, "lat": 36.3530534, "lon": 43.1867016, "tags": {"addr:street": "\u062d\u064a \u0627\u0644\u062a\u0623\u0645\u064a\u0645", "amenity": "school", "name": "\u062b\u0627\u0646\u0648\u064a\u0647 \u0641\u0627\u0637\u0645\u0647 \u0627\u0644\u0632\u0647\u0631\u0627\u0621 \u0644\u0644\u0628\u0646\u0627\u062a", "opening_hours": "Su-Th 00:00-24:00"}}, {"type": "node", "id": 7991798785, "lat": 36.3567169, "lon": 43.2016724, "tags": {"addr:street": "\u062d\u064a \u0627\u0644\u0627\u062e\u0627\u0621", "amenity": "school", "name": "\u0645\u062f\u0631\u0633\u0647 \u0627\u0644\u0627\u062e\u0627\u0621 \u0644\u0644\u0628\u0646\u064a\u0646", "opening_hours": "Su-Th 00:00-24:00"}}, {"type": "node", "id": 8008418787, "lat": 36.3497951, "lon": 43.0910903, "tags": {"addr:street": "\u0634\u0627\u0631\u0639 17 \u062a\u0645\u0648\u0632", "amenity": "school", "name": "\u0645\u062f\u0631\u0633\u0629 \u062e\u0648\u0644\u0629 \u0628\u0646\u062a \u0627\u0644\u0627\u0632\u0648\u0631"}}, {"type": "node", "id": 8032776385, "lat": 36.3848438, "lon": 43.1937119, "tags": {"amenity": "school", "name": "\u062b\u0627\u0646\u0648\u064a\u0629 \u0627\u0644\u0632\u0647\u0648\u0631 \u0644\u0644\u0628\u0646\u0627\u062a", "opening_hours": "Su-Th 08:00-13:00"}}, {"type": "node", "id": 8042580386, "lat": 36.3645132, "lon": 43.1401959, "tags": {"amenity": "school", "name": "\u062b\u0627\u0646\u0648\u064a\u0629 \u0627\u0644\u0645\u062a\u0641\u0648\u0642\u0627\u062a", "name:en": "Al-Motafawikat High school", "opening_hours": "Su-Th 08:00-13:45"}}, {"type": "node", "id": 8148330446, "lat": 36.2270017, "lon": 43.226336}, {"type": "node", "id": 8148330447, "lat": 36.2270716, "lon": 43.2265543}, {"type": "node", "id": 8148330448, "lat": 36.2269988, "lon": 43.2266842}, {"type": "node", "id": 8148330449, "lat": 36.2267019, "lon": 43.2268556}, {"type": "node", "id": 8148330450, "lat": 36.2266204, "lon": 43.2268593}, {"type": "node", "id": 8148330451, "lat": 36.2265607, "lon": 43.2266806}, {"type": "node", "id": 8148330452, "lat": 36.2266873, "lon": 43.2265615}, {"type": "node", "id": 8148330453, "lat": 36.2267092, "lon": 43.2263197}, {"type": "node", "id": 8148336913, "lat": 36.1600262, "lon": 43.2611274}, {"type": "node", "id": 8148336914, "lat": 36.1598019, "lon": 43.2620729}, {"type": "node", "id": 8148336915, "lat": 36.159359, "lon": 43.2617228}, {"type": "node", "id": 8148336916, "lat": 36.159563, "lon": 43.2609325}, {"type": "node", "id": 8148362123, "lat": 36.1438828, "lon": 43.2518869}, {"type": "node", "id": 8148362124, "lat": 36.1438453, "lon": 43.2511849}, {"type": "node", "id": 8148362125, "lat": 36.1431985, "lon": 43.2512379}, {"type": "node", "id": 8148362126, "lat": 36.1432361, "lon": 43.2519399}, {"type": "node", "id": 8170519320, "lat": 36.2404818, "lon": 43.4486998}, {"type": "node", "id": 8170519321, "lat": 36.2399947, "lon": 43.4480292}, {"type": "node", "id": 8170519322, "lat": 36.2397034, "lon": 43.448366}, {"type": "node", "id": 8170519323, "lat": 36.2401709, "lon": 43.4490306}, {"type": "node", "id": 8193462517, "lat": 36.4157968, "lon": 42.9615795, "tags": {"amenity": "school", "name": "\u0628\u0627\u062f\u0648\u0634 \u0627\u0644\u0627\u0628\u062a\u062f\u0627\u0626\u064a\u0629"}}, {"type": "node", "id": 8198579017, "lat": 36.4301108, "lon": 42.95896, "tags": {"amenity": "school", "name": "\u062b\u0627\u0646\u0648\u064a\u0629 \u0628\u0627\u062f\u0648\u0634 \u0644\u0644\u0628\u0646\u0627\u062a"}}, {"type": "node", "id": 8198579217, "lat": 36.4341846, "lon": 42.952867, "tags": {"amenity": "school", "name": "\u062b\u0627\u0646\u0648\u064a\u0629 \u0628\u0627\u062f\u0648\u0634 \u0644\u0644\u0628\u0646\u064a\u0646", "name:en": "Badosh secondary school for boys"}}, {"type": "node", "id": 8223750717, "lat": 36.3930818, "lon": 43.1887151, "tags": {"amenity": "school", "name": "\u0645\u062f\u0631\u0633\u0629 \u0627\u0644\u0623\u0646\u062a\u0641\u0627\u0636\u0629 \u0644\u0644\u0628\u0646\u0627\u062a", "name:en": "Al Entifada Primary School"}}, {"type": "node", "id": 8244494518, "lat": 36.3409305, "lon": 43.1576586, "tags": {"amenity": "school", "name": "\u0645\u062f\u0631\u0633\u0629 \u0627\u0644\u062d\u0648\u0631 \u0627\u0644\u0639\u064a\u0646 \u0627\u0644\u0627\u0628\u062a\u062f\u0627\u0626\u064a\u0629 \u0644\u0644\u0628\u0646\u0627\u062a"}}, {"type": "node", "id": 8312540317, "lat": 36.3270865, "lon": 43.0994221, "tags": {"amenity": "school", "name": "\u0645\u0639\u0647\u062f \u0627\u0644\u0645\u0634\u0643\u0627\u0629"}}, {"type": "node", "id": 8319584617, "lat": 36.3307895, "lon": 43.1243426, "tags": {"amenity": "school", "name": "\u0645\u0639\u0647\u062f \u0627\u0644\u063a\u0631\u0628\u064a\u0629 \u0627\u0644\u0627\u0647\u0644\u064a"}}, {"type": "node", "id": 8319584717, "lat": 36.3614915, "lon": 43.0981258, "tags": {"amenity": "school", "name": "\u062b\u0627\u0646\u0648\u064a\u0629 \u062f\u0627\u0631 \u0627\u0644\u0634\u0631\u0642\u064a\u0629 \u0627\u0644\u0627\u0647\u0644\u064a\u0629"}}, {"type": "node", "id": 8327929028, "lat": 36.364784, "lon": 43.0863363, "tags": {"amenity": "school", "name": "\u0628\u0631\u0643\u0629 \u0627\u0644\u0631\u062d\u0645\u0646 \u0627\u0644\u0627\u0628\u062a\u062f\u0627\u0626\u064a\u0629"}}, {"type": "node", "id": 8428467917, "lat": 36.3529478, "lon": 43.1877733, "tags": {"amenity": "school", "name": "\u062b\u0627\u0646\u0648\u064a\u0629 \u0641\u0627\u0637\u0645\u0629 \u0627\u0644\u0632\u0647\u0631\u0627\u0621", "name:en": "Fatima Alzahraa Secondary School"}}, {"type": "node", "id": 8494293717, "lat": 36.3318155, "lon": 43.1000914, "tags": {"amenity": "school", "name": "\u0645\u062a\u0648\u0633\u0637\u0629 \u0627\u0644\u0645\u0648\u0635\u0644 \u0627\u0644\u0645\u0633\u0627\u0626\u064a\u0629 \u0644\u0644\u0628\u0646\u064a\u0646", "name:en": "Al Mosul evening School for boys"}}, {"type": "node", "id": 8494528218, "lat": 36.3548083, "lon": 43.209395, "tags": {"amenity": "school", "name": "\u062b\u0627\u0646\u0648\u064a\u0629 \u0627\u0644\u0636\u062d\u0649 \u0644\u0644\u0628\u0646\u0627\u062a"}}, {"type": "node", "id": 8553526417, "lat": 36.3514866, "lon": 43.1539409, "tags": {"amenity": "school", "name": "\u0627\u0644\u0641\u064a\u0635\u0644\u064a\u0629", "name:ar": "\u0627\u0644\u062a\u0631\u0628\u064a\u0629", "name:ku": "\u0627\u0644\u0627\u0628\u0646\u064a\u0629 \u0627\u0644\u0645\u062f\u0631\u0633\u064a\u0629"}}, {"type": "node", "id": 8589226817, "lat": 36.3188882, "lon": 43.1987812, "tags": {"amenity": "school", "name": "\u0645\u062a\u0648\u0633\u0637\u0629 \u0627\u0644\u0645\u0642\u0627\u0635\u062f \u0644\u0644\u0628\u0646\u0627\u062a", "name:en": "Al-Makassed Intermediate School for Girls", "name:ku": "\u0642\u0648\u062a\u0627\u0628 \u062e\u0627\u0646\u0629\u064a \u0645\u0642\u0627\u0635\u062f \u0628\u0648 \u0643\u0686\u0627\u0646"}}, {"type": "node", "id": 8600133517, "lat": 36.5102672, "lon": 43.2713995, "tags": {"amenity": "school", "name": "\u0645\u062f\u0631\u0633\u0629 \u0627\u0644\u0625\u0628\u062a\u062f\u0627\u0626\u064a\u0629 \u0644\u0644\u0628\u0646\u0627\u062a / \u0627\u0644\u0641\u0627\u0636\u0644\u064a\u0629", "name:en": "School primary Fazilia"}}, {"type": "node", "id": 8632968117, "lat": 36.3239502, "lon": 43.0856766, "tags": {"amenity": "school", "name": "\u0627\u0644\u0645\u0639\u0647\u062f \u0627\u0644\u0645\u0647\u0646\u064a"}}, {"type": "node", "id": 8648731317, "lat": 36.3326025, "lon": 43.1950395, "tags": {"amenity": "school", "name": "\u0625\u0639\u062f\u0627\u062f\u064a\u0629 \u0627\u0644\u0646\u064a\u0644", "name:en": "Alnile high school"}}, {"type": "node", "id": 8691424417, "lat": 36.3516439, "lon": 43.16431, "tags": {"amenity": "school", "name": "\u0632\u0628\u064a\u062f\u0629 \u0627\u0644\u0627\u0648\u0644\u0649 \u0627\u0644\u0627\u0628\u062a\u062f\u0627\u0626\u064a\u0629"}}, {"type": "node", "id": 8691424517, "lat": 36.3518275, "lon": 43.1643792, "tags": {"amenity": "school", "name": "\u0632\u0628\u064a\u062f\u0629 \u0627\u0644\u062b\u0627\u0646\u064a\u0629"}}, {"type": "node", "id": 8727576318, "lat": 36.3054369, "lon": 43.2111856, "tags": {"addr:street": "\u062d\u064a \u0627\u0644\u0635\u062d\u0629 \u0627\u0644\u062b\u0627\u0646\u064a\u0629", "amenity": "school", "name": "\u0630\u0627\u062a \u0627\u0644\u0635\u0648\u0627\u0631\u064a", "name:en": "That Al-Sawaryy"}}, {"type": "node", "id": 8730252617, "lat": 36.194087, "lon": 43.3401798, "tags": {"addr:street": "Kirkuk-Mosul Road", "amenity": "school", "name": "\u0645\u062f\u0631\u0633\u0629 \u0639\u0645\u0631\u0643\u0627\u0646 \u0644\u0644\u0628\u0646\u064a\u0646"}}, {"type": "node", "id": 8730252717, "lat": 36.193681, "lon": 43.3448658, "tags": {"addr:street": "Kirkuk-Mosul Road", "amenity": "school", "name": "\u062b\u0627\u0646\u0648\u064a\u0629 \u0639\u0645\u0631\u0643\u0627\u0646 \u0644\u0644\u0628\u0646\u064a\u0646", "name:en": "Omarkan Boys' High School", "name:ku": "\u0642\u0648\u062a\u06c1 \u0628 \u062e\u0627\u0646\u06c1 \u0626\u0648 \u0645\u06c1 \u0631\u06a9\u0627\u0646"}}, {"type": "node", "id": 8797934436, "lat": 36.381412, "lon": 43.2026354, "tags": {"amenity": "school", "name": "\u0645\u0639\u0647\u062f \u0627\u0628\u0646 \u0627\u0644\u0646\u0641\u064a\u0633 \u0644\u062f\u0648\u0631\u0627\u062a \u0627\u0644\u062a\u0642\u0648\u064a\u0629", "name:en": "Ibn Al Nafis for Education"}}, {"type": "node", "id": 8798070831, "lat": 36.1572099, "lon": 42.9700205, "tags": {"amenity": "school", "name": "\u0645\u062a\u0648\u0633\u0637\u0629 \u0627\u0644\u0639\u0645\u0631\u064a\u0646\u064a \u0644\u0644\u0628\u0646\u064a\u0646", "name:en": "Al Amrini Intermediate school", "name:ku": "\u0642\u0648\u062a\u0628\u062e\u0627\u0646\u0647 \u0649 \u0627\u0644\u0639\u0645\u0631\u064a\u0646\u064a"}}, {"type": "node", "id": 8798274035, "lat": 36.3795584, "lon": 43.1905822, "tags": {"amenity": "school", "name": "\u0645\u0639\u0647\u062f \u0646\u0648\u0646 \u0627\u0644\u062a\u0639\u0644\u064a\u0645\u064a"}}, {"type": "node", "id": 8801103745, "lat": 36.3833373, "lon": 43.1716948, "tags": {"amenity": "school", "name": "\u0645\u062f\u0631\u0633\u0629 \u0627\u0644\u0634\u0631\u0642\u064a\u0629 \u0627\u0644\u0627\u0647\u0644\u064a\u0629"}}, {"type": "node", "id": 8801109529, "lat": 36.383165, "lon": 43.1852942, "tags": {"amenity": "school", "name": "\u062b\u0627\u0646\u0648\u064a\u0629 \u0627\u0644\u062a\u0639\u0644\u064a\u0645 \u0627\u0644\u0639\u0627\u0644\u064a \u0627\u0644\u0623\u0647\u0644\u064a\u0629 \u0644\u0644\u0628\u0646\u0627\u062a"}}, {"type": "node", "id": 8804351717, "lat": 36.3128718, "lon": 43.1930394, "tags": {"amenity": "school", "name": "\u0627\u0639\u062f\u0627\u062f\u064a\u0629 \u0627\u0644\u0641\u0627\u0648 \u0644\u0644\u0628\u0646\u0627\u062a"}}, {"type": "node", "id": 8804351917, "lat": 36.3123784, "lon": 43.1927998, "tags": {"amenity": "school", "name": "\u0645\u0639\u0647\u062f \u0627\u0644\u0630\u0647\u0628\u064a \u0644\u062f\u0648\u0631\u0627\u062a \u0627\u0644\u062a\u0642\u0648\u064a\u0629"}}, {"type": "node", "id": 8808554141, "lat": 36.3648512, "lon": 43.1257418, "tags": {"amenity": "school", "name": "\u0627\u0639\u062f\u0627\u062f\u064a\u0629 \u0646\u064a\u0646\u0648\u0649 \u0627\u0644\u0632\u0631\u0627\u0639\u064a\u0629"}}, {"type": "node", "id": 8808590724, "lat": 36.3823627, "lon": 43.1934616, "tags": {"amenity": "school", "name": "\u0627\u0639\u062f\u0627\u062f\u064a\u0629 \u0627\u0644\u0632\u0647\u0648\u0631 \u0644\u0644\u0628\u0646\u064a\u0646"}}, {"type": "node", "id": 8818699993, "lat": 36.3415933, "lon": 43.1579564}, {"type": "node", "id": 8818699994, "lat": 36.3419536, "lon": 43.1592249}, {"type": "node", "id": 8818699995, "lat": 36.3417505, "lon": 43.1592777}, {"type": "node", "id": 8818699996, "lat": 36.3410235, "lon": 43.1587573}, {"type": "node", "id": 8831004925, "lat": 36.2720555, "lon": 43.3806859, "tags": {"amenity": "school", "name": "\u0645\u062f\u0631\u0633\u0647 \u0627\u0644\u0645\u0646\u0627\u0631 \u0627\u0644\u0645\u0633\u0627\u0626\u064a\u0647"}}, {"type": "node", "id": 8831085017, "lat": 36.2672573, "lon": 43.3759195, "tags": {"amenity": "school", "name:en": "Sanharib high school"}}, {"type": "node", "id": 8839323217, "lat": 36.3531408, "lon": 43.2012347, "tags": {"amenity": "school", "name": "\u0645\u062f\u0631\u0633\u0629 \u0639\u0628\u062f\u0627\u0644\u0644\u0647 \u0628\u0646 \u0627\u0644\u0632\u0628\u064a\u0631", "name:en": "Abdullah Bin Al Zubair School", "name:ku": "Dibistana Abdullah Bin Al Zubair", "opening_hours": "24/7"}}, {"type": "node", "id": 8882699017, "lat": 36.2555692, "lon": 43.1944942, "tags": {"amenity": "school", "name": "\u062b\u0627\u0646\u0648\u064a\u0629 \u0642\u0632\u0641\u062e\u0631\u0629/h. J"}}, {"type": "node", "id": 8882699317, "lat": 36.2559525, "lon": 43.1941617, "tags": {"amenity": "school", "name": "\u0645\u062f\u0631\u0633\u0629 \u0627\u0644\u0628\u062f\u0631\u064a\u0629 \u0644\u0644\u0628\u0646\u0627\u062a /h.j"}}, {"type": "node", "id": 8882809717, "lat": 36.2558672, "lon": 43.1950637, "tags": {"amenity": "school", "name": "\u0645\u062f\u0631\u0633\u0629 \u0627\u0644\u0628\u062f\u0631\u064a\u0629 \u0644\u0644\u0628\u0646\u064a\u0646", "name:ar": "\u0645\u062f\u0631\u0633\u0629 \u0627\u0644\u0628\u062f\u0631\u064a\u0629 \u0644\u0644\u0628\u0646\u064a\u0646 /\u062a\u0627\u0633\u0633\u0627\u062a \u0633\u0646\u0629 \u0661\u0669\u0663\u0664"}}, {"type": "node", "id": 8901520320, "lat": 36.3310762, "lon": 43.1093506, "tags": {"amenity": "school", "name": "\u0645\u062f\u0631\u0633\u0629 \u0627\u0644\u0642\u062f\u0633 \u0644\u0644\u0628\u0646\u064a\u0646/\u0644\u0644\u0628\u0646\u0627\u062a", "name:en": "Al Quds for boys"}}, {"type": "node", "id": 8919801302, "lat": 36.3333207, "lon": 43.1333166, "tags": {"amenity": "school", "name:en": "MOSUL NURSES SCHOOL"}}, {"type": "node", "id": 8975099719, "lat": 36.4001442, "lon": 43.1465038}, {"type": "node", "id": 8975099720, "lat": 36.3998798, "lon": 43.1462295}, {"type": "node", "id": 8975099721, "lat": 36.3995836, "lon": 43.1466084}, {"type": "node", "id": 8975099722, "lat": 36.3998334, "lon": 43.1468971}, {"type": "node", "id": 9115937117, "lat": 36.311645, "lon": 43.222271, "tags": {"amenity": "school", "name": "\u0645\u062f\u0631\u0633\u0629 \u0627\u0644\u0648\u0644\u064a\u062f"}}, {"type": "node", "id": 9164518517, "lat": 36.3808645, "lon": 43.1978007, "tags": {"amenity": "school", "name": "\u0627\u0639\u062f\u0627\u062f\u064a\u0629 \u0627\u0644\u0634\u0627\u0641\u0639\u064a"}}, {"type": "node", "id": 9164518518, "lat": 36.3815093, "lon": 43.1985568, "tags": {"amenity": "school", "name": "\u0627\u0628\u062a\u062f\u0627\u0626\u064a\u0629 \u0632\u0647\u0631\u0629 \u0627\u0644\u0645\u062f\u0627\u0626\u0646 \u0644\u0644\u0628\u0646\u064a\u0646"}}, {"type": "node", "id": 9174673119, "lat": 36.3501378, "lon": 43.1228397, "tags": {"amenity": "school", "name": "\u0645\u062f\u0631\u0633\u0629 \u0627\u0644\u0645\u0646\u0627\u0647\u0644 \u0627\u0644\u0627\u0628\u062a\u062f\u0627\u0626\u064a\u0629"}}, {"type": "node", "id": 9352390517, "lat": 36.3452746, "lon": 43.225975, "tags": {"amenity": "school", "name": "\u0645\u062f\u0631\u0633\u0629 \u0639\u062b\u0645\u0627\u0646 \u0627\u0644\u0645\u0648\u0635\u0644\u064a \u0627\u0644\u0627\u0648\u0644\u0649", "name:en": "school Othman Al. mossle"}}, {"type": "node", "id": 9446664619, "lat": 36.3717324, "lon": 43.1339078, "tags": {"amenity": "school", "name": "\u0643\u0644\u064a\u0629 \u062a\u0631\u0628\u064a\u0629 \u0627\u0633\u0627\u0633\u064a\u0629"}}, {"type": "node", "id": 9537142317, "lat": 36.3252197, "lon": 43.0954965, "tags": {"amenity": "school", "name": "\u0645\u062f\u0631\u0633\u0629 \u0635\u0644\u0627\u062d \u0627\u0644\u062f\u064a\u0646"}}, {"type": "node", "id": 9622512617, "lat": 36.4115541, "lon": 42.9924062, "tags": {"amenity": "school"}}, {"type": "node", "id": 9657782917, "lat": 36.2661483, "lon": 43.3680137, "tags": {"amenity": "school"}}, {"type": "node", "id": 9778697317, "lat": 36.3232407, "lon": 43.1153915, "tags": {"amenity": "school", "name": "\u0627\u0628\u062a\u062f\u0627\u0626\u064a\u0629 \u0645\u064a\u0633\u0644\u0648\u0646", "name:en": "Maisaloon primary school"}}, {"type": "node", "id": 9936159978, "lat": 36.2687868, "lon": 43.386401}, {"type": "node", "id": 9936159979, "lat": 36.2677843, "lon": 43.3866525}, {"type": "node", "id": 9936159980, "lat": 36.2681595, "lon": 43.3874814}, {"type": "node", "id": 9936159981, "lat": 36.2691745, "lon": 43.3872889}, {"type": "node", "id": 10159028019, "lat": 36.3919802, "lon": 43.1881342, "tags": {"addr:street": "\u0634\u0627\u0631\u0639 60", "amenity": "school"}}, {"type": "node", "id": 10159028118, "lat": 36.3911721, "lon": 43.1879141, "tags": {"amenity": "school", "name": "\u0645\u062f\u0631\u0633\u0629 \u0627\u0644\u0637\u0631\u064a\u0642 \u0627\u0644\u0645\u0636\u064a\u0626 \u0644\u0644\u0628\u0646\u0627\u062a"}}, {"type": "node", "id": 10159037317, "lat": 36.3918609, "lon": 43.1881562, "tags": {"amenity": "school", "name": "\u0645\u062a\u0648\u0633\u0637\u0629 \u0627\u0644\u0637\u0631\u064a\u0642 \u0627\u0644\u0645\u0636\u064a\u0626 \u0644\u0644\u0628\u0646\u0627\u062a"}}, {"type": "node", "id": 10203178917, "lat": 36.3261382, "lon": 43.139201, "tags": {"amenity": "school", "name": "\u0645\u062f\u0631\u0633\u0629 \u0627\u0644\u0641\u0644\u0627\u062d \u0627\u0644\u0627\u0628\u062a\u062f\u0627\u0626\u064a\u0629"}}, {"type": "node", "id": 10279617103, "lat": 36.3563942, "lon": 43.0839638, "tags": {"amenity": "school", "name": "\u0645\u062f\u0631\u0633\u0629 \u0627\u0644\u0643\u0648\u064a\u062a ( \u0643\u0631\u0641\u0627\u0646\u064a\u0629 )"}}, {"type": "node", "id": 10290877309, "lat": 36.4501809, "lon": 43.3506104, "tags": {"amenity": "school", "name": "\u0645\u062a\u0648\u0633\u0637\u0629 \u0628\u0639\u0634\u064a\u0642\u0629 \u0644\u0644\u0628\u0646\u064a\u0646"}}, {"type": "node", "id": 10290877409, "lat": 36.3052491, "lon": 43.2113451, "tags": {"amenity": "school", "name": "\u0645\u062a\u0648\u0633\u0637\u0629 \u0630\u0627\u062a \u0627\u0644\u0635\u0648\u0627\u0631\u064a \u0644\u0644\u0628\u0646\u0627\u062a"}}, {"type": "node", "id": 10296711111, "lat": 36.3031833, "lon": 43.198015, "tags": {"amenity": "school", "name": "\u0645\u062a\u0648\u0633\u0637\u0629 \u0633\u0648\u0645\u0631 \u0644\u0644\u0628\u0646\u0627\u062a"}}, {"type": "node", "id": 10296711112, "lat": 36.3516463, "lon": 43.1167122, "tags": {"amenity": "school", "name": "\u0627\u0639\u062f\u0627\u062f\u064a\u0629 \u0627\u0644\u064a\u0642\u0638\u0629 \u0644\u0644\u0628\u0646\u0627\u062a"}}, {"type": "node", "id": 10548056409, "lat": 36.3243087, "lon": 43.1353115, "tags": {"addr:housenumber": "07744437325", "addr:street": "\u0627\u0644\u0637\u064a\u0631\u0627\u0646", "amenity": "school", "name": "\u0627\u0639\u062f\u0627\u062f\u064a\u0629 \u0627\u0644\u0643\u0641\u0627\u062d \u0644\u0644\u0628\u0646\u0627\u062a"}}, {"type": "node", "id": 10548483611, "lat": 36.3391519, "lon": 43.089407, "tags": {"amenity": "school", "name": "\u0633\u0641\u064a\u0627\u0646 \u0627\u0644\u062b\u0648\u0631\u064a \u0644\u0644\u0628\u0646\u0627\u062a"}}, {"type": "node", "id": 10549118210, "lat": 36.3111138, "lon": 43.2034406, "tags": {"amenity": "school", "name": "\u0645\u062a\u0648\u0633\u0637\u0629 \u0627\u0644\u0645\u062c\u062f \u0644\u0644\u0628\u0646\u064a\u0646"}}, {"type": "node", "id": 10549123609, "lat": 36.3110768, "lon": 43.2031127, "tags": {"amenity": "school", "name": "\u0645\u062a\u0648\u0633\u0637\u0629 \u0627\u0644\u0645\u062c\u062f \u0644\u0644\u0628\u0646\u064a\u0646"}}, {"type": "node", "id": 10691742005, "lat": 36.402139, "lon": 43.1245682, "tags": {"amenity": "school", "name": "\u0627\u0639\u062f\u0627\u062f\u064a\u0629 \u0627\u0628\u064a \u062a\u0645\u0627\u0645 \u0644\u0644\u0628\u0646\u064a\u0646", "opening_hours": "Sa-We 08:00-01:00", "website": "https://t.me/abytamam"}}, {"type": "node", "id": 10776515414, "lat": 36.3688631, "lon": 43.1385707, "tags": {"amenity": "school", "grades": "4-6", "name": "\u0623\u0639\u062f\u0627\u062f\u064a\u0629 \u0627\u0644\u0627\u0646\u062f\u0644\u0633 \u0644\u0644\u0628\u0646\u0627\u062a"}}, {"type": "node", "id": 10924114006, "lat": 36.1666569, "lon": 43.2540344, "tags": {"amenity": "school", "name": "\u062b\u0627\u0646\u0648\u064a\u0629 \u062d\u0645\u0627\u0645 \u0627\u0644\u0639\u0644\u064a\u0644 \u0644\u0644\u0628\u0646\u0627\u062a"}}, {"type": "node", "id": 10963384566, "lat": 36.2691678, "lon": 43.3873044}, {"type": "node", "id": 11084092605, "lat": 36.4015016, "lon": 43.0435439, "tags": {"addr:street": "\u0634\u0627\u0631\u0639 \u0642\u0631\u0647 \u0642\u0648\u064a\u0646", "amenity": "school", "name": "\u0625\u0639\u062f\u0627\u062f\u064a\u0629 \u0627\u0644\u0642\u0628\u0629 \u0644\u0644\u0628\u0646\u064a\u0646", "name:en": "Al-Qubba'a Preparatory School", "opening_hours": "Sa-We 07:00-16:00"}}, {"type": "node", "id": 11085344005, "lat": 36.3186775, "lon": 43.2201048, "tags": {"addr:street": "\u0634\u0627\u0631\u0639 30", "amenity": "school", "name": "\u0645\u062f\u0631\u0633\u0629 \u0627\u0644\u0645\u0643\u0627\u0631\u0645 \u0627\u0644\u062b\u0627\u0646\u064a\u0647 \u0644\u0644\u0628\u0646\u064a\u0646"}}, {"type": "node", "id": 11137116005, "lat": 36.3112914, "lon": 43.2037732, "tags": {"amenity": "school", "name": "\u0627\u0639\u062f\u0627\u062f\u064a\u0629 \u0627\u0644\u0627\u0645\u062c\u0627\u062f"}}, {"type": "node", "id": 11137128105, "lat": 36.3112695, "lon": 43.2037749, "tags": {"amenity": "school", "name": "\u0625\u0639\u062f\u0627\u062f\u064a\u0629 \u0627\u0644\u0627\u0645\u062c\u0627\u062f"}}, {"type": "node", "id": 11199186137, "lat": 36.3667257, "lon": 43.0867734, "tags": {"addr:street": "\u062d\u064a\u06f1\u06f7 \u062a\u0645\u0648\u0632", "amenity": "school", "name": "\u0645\u062a\u0648\u0633\u0637\u0629 \u0627\u0644\u0634\u0647\u0627\u0628 \u0644\u0644\u0628\u0646\u064a\u0646"}}, {"type": "node", "id": 11259453737, "lat": 36.2674432, "lon": 43.3686283, "tags": {"amenity": "school", "name": "\u0645\u062f\u0631\u0633\u0629 \u0646\u062c\u062f \u0627\u0644\u0627\u0628\u062a\u062f\u0627\u0626\u064a\u0629"}}, {"type": "node", "id": 11384013469, "lat": 36.2593278, "lon": 43.3654308, "tags": {"amenity": "school", "name": "\u062b\u0627\u0646\u0648\u064a\u0647 \u0627\u0644\u0645\u062a\u0645\u064a\u0632\u064a\u0646 \u0627\u0644\u0645\u062e\u062a\u0644\u0637\u0629"}}, {"type": "node", "id": 11384013969, "lat": 36.2649409, "lon": 43.3838753, "tags": {"amenity": "school", "name": "\u0645\u062f\u0631\u0633\u0647 \u0627\u0644\u062a\u0633\u0627\u0645\u062d \u0627\u0644\u0627\u0628\u062a\u062f\u0627\u0626\u064a\u0629 \u0627\u0644\u0645\u062e\u062a\u0644\u0637\u0647"}}, {"type": "node", "id": 11427334369, "lat": 36.3028213, "lon": 43.1974378, "tags": {"amenity": "school", "name": "\u0645\u062f\u0631\u0633\u0629 \u0639\u0632\u0627\u0644\u062f\u064a\u0646 \u0627\u0644\u0642\u0633\u0627\u0645 \u0627\u0644\u0627\u0628\u062a\u062f\u0627\u0626\u064a\u0629"}}, {"type": "node", "id": 11435044871, "lat": 36.3586964, "lon": 43.2159957, "tags": {"amenity": "school", "name": "\u0645\u062f\u0631\u0633\u0629 \u0627\u0644\u0643\u0648\u0646 \u0644\u0644\u0628\u0646\u064a\u0646", "name:en": "Al-kawn primary school  for boys"}}, {"type": "node", "id": 11435094869, "lat": 36.3586885, "lon": 43.2160062, "tags": {"addr:street": "\u0637\u0631\u064a\u0642 \u0627\u0644\u0645\u0648\u0635\u0644 - \u0623\u0631\u0628\u064a\u0644", "amenity": "school", "email": "al.kawn.primary.school.for.boys@gmail.com", "name": "\u0645\u062f\u0631\u0633\u0629 \u0627\u0644\u0643\u0648\u0646 \u0644\u0644\u0628\u0646\u064a\u0646", "name:en": "Al-kawn primary school for boys", "name:ku": "\u0642\u0648\u062a\u0627\u0628\u062e\u0627\u0646\u06d5\u06cc \u0626\u06d5\u0644\u06a9\u0648\u0646 \u0628\u06c6 \u06a9\u0648\u0695\u0627\u0646", "opening_hours": "Su-Sa 08:00-12:00"}}, {"type": "node", "id": 11497385169, "lat": 36.2996666, "lon": 43.1987725, "tags": {"amenity": "school", "name": "\u0645\u062a\u0648\u0633\u0637\u0629 \u0633\u0639\u062f \u0628\u0646 \u0627\u0628\u064a \u0648\u0642\u0627\u0635 \u0644\u0644\u0628\u0646\u064a\u0646"}}, {"type": "node", "id": 11577430670, "lat": 36.4092031, "lon": 43.1014392, "tags": {"amenity": "school", "name": "Besan School"}}, {"type": "way", "id": 307165272, "nodes": [3122352906, 3122352910, 3122352908, 3122352903, 3122352906], "tags": {"amenity": "school", "source": "Bing"}}, {"type": "way", "id": 307295779, "nodes": [3123917763, 3123917764, 3123917765, 3123917766, 3123917767, 3123917763], "tags": {"addr:city": "\u0627\u0644\u062d\u0645\u062f\u0627\u0646\u064a\u0629", "amenity": "school", "name": "\u0645\u062f\u0631\u0633\u0629 \u0627\u0644\u062a\u0642\u0646\u064a\u0629 \u0627\u0644\u062d\u0645\u062f\u0627\u0646\u064a\u0629", "name:ar": "\u0645\u062f\u0631\u0633\u0629 \u0627\u0644\u062a\u0642\u0646\u064a\u0629 \u0627\u0644\u062d\u0645\u062f\u0627\u0646\u064a\u0629", "name:en": "Al Hamdaniya Technical School"}}, {"type": "way", "id": 315830538, "nodes": [3219628881, 3219628882, 3219628883, 3219628884, 3219628881], "tags": {"amenity": "school"}}, {"type": "way", "id": 502706526, "nodes": [4930941808, 4930941809, 4930941810, 4930941803, 4930941804, 4930941805, 4930941806, 4930941807, 4930941808], "tags": {"amenity": "school"}}, {"type": "way", "id": 535194443, "nodes": [5188271175, 5188271176, 5188271177, 5188271178, 5188271179, 5188271180, 5188271181, 5188269137, 5188271175], "tags": {"amenity": "school"}}, {"type": "way", "id": 552511401, "nodes": [5334409615, 5334409616, 5334409617, 5334409618, 5334409615], "tags": {"amenity": "school", "name": "\u0645\u062f\u0631\u0633\u0629 \u0625\u0628\u0646 \u0627\u0644\u0646\u0641\u064a\u0633 \u0627\u0644\u0627\u0628\u062a\u062f\u0627\u0626\u064a\u0629"}}, {"type": "way", "id": 586052368, "nodes": [5600001303, 5600001304, 5600001305, 5600001306, 5600001307, 5600001303], "tags": {"amenity": "school", "name": "\u0645\u062f\u0631\u0633\u0629 \u062d\u0637\u064a\u0646"}}, {"type": "way", "id": 586052369, "nodes": [5600001308, 5600001309, 5600001310, 5600001311, 5600001308], "tags": {"amenity": "school", "name": "\u0627\u0639\u062f\u0627\u062f\u064a\u0629 \u0627\u0644\u062d\u0643\u0645\u0629 \u0644\u0644\u0628\u0646\u064a\u0646"}}, {"type": "way", "id": 608254573, "nodes": [5763160753, 5763160754, 5763160755, 5763160756, 5763160757, 5763160753], "tags": {"amenity": "school", "name": "\u0645\u062f\u0631\u0633\u0629 \u0627\u0644\u063a\u0641\u0631\u0627\u0646 \u0627\u0644\u0627\u0628\u062a\u062f\u0627\u0626\u064a\u0629"}}, {"type": "way", "id": 608256403, "nodes": [5763172326, 5763172327, 5763172328, 5763172326], "tags": {"addr:city": "Mosul", "amenity": "school", "grades": "4-6", "name": "\u0627\u0639\u062f\u0627\u062f\u064a\u0629 \u0627\u0644\u0623\u0646\u062f\u0644\u0633 \u0644\u0644\u0628\u0646\u0627\u062a"}}, {"type": "way", "id": 608523609, "nodes": [5765093101, 5765093102, 5765093103, 5765093104, 5765093101], "tags": {"amenity": "school", "name": "\u0645\u062f\u0631\u0633\u0629 \u062f\u0627\u0631 \u0627\u0644\u0645\u0639\u0631\u0641\u0629 \u0627\u0644\u0627\u0628\u062a\u062f\u0627\u0626\u064a\u0629"}}, {"type": "way", "id": 608523610, "nodes": [5765093107, 5765093108, 5765093109, 5765093110, 5765093107], "tags": {"addr:street": "\u0632\u0642\u0627\u0642 22", "amenity": "school", "name": "\u062b\u0627\u0646\u0648\u064a\u0629 \u0627\u0631\u0636 \u0627\u0644\u0631\u0627\u0641\u062f\u064a\u0646 \u0644\u0644\u0628\u0646\u064a\u0646"}}, {"type": "way", "id": 757358464, "nodes": [7072594653, 7072594654, 7072594655, 7072594656, 7072594653], "tags": {"amenity": "school"}}, {"type": "way", "id": 875410715, "nodes": [8148330446, 8148330447, 8148330448, 8148330449, 8148330450, 8148330451, 8148330452, 8148330453, 8148330446], "tags": {"amenity": "school"}}, {"type": "way", "id": 875414077, "nodes": [8148362123, 8148362124, 8148362125, 8148362126, 8148362123], "tags": {"amenity": "school"}}, {"type": "way", "id": 875415854, "nodes": [8148336913, 8148336914, 8148336915, 8148336916, 8148336913], "tags": {"amenity": "school"}}, {"type": "way", "id": 878198615, "nodes": [8170519320, 8170519321, 8170519322, 8170519323, 8170519320], "tags": {"amenity": "school"}}, {"type": "way", "id": 952762610, "nodes": [8818699993, 8818699994, 8818699995, 8818699996, 8818699993], "tags": {"addr:city": "Qaryat ash Shahid Yunis as Sabawi", "addr:street": "\u0634\u0627\u0631\u0639 30", "amenity": "school", "name": "\u0627\u0639\u062f\u0627\u062f\u064a\u0629 \u062e\u062f\u064a\u062c\u0629 \u0627\u0644\u0643\u0628\u0631\u0649 \u0644\u0644\u0628\u0646\u0627\u062a"}}, {"type": "way", "id": 969862257, "nodes": [8975099719, 8975099720, 8975099721, 8975099722, 8975099719], "tags": {"amenity": "school"}}, {"type": "way", "id": 1084302668, "nodes": [9936159978, 9936159979, 9936159980, 10963384566, 9936159981, 9936159978], "tags": {"amenity": "school"}}]}