{"version": 0.6, "generator": "Overpass API 0.7.61.5 4133829e", "osm3s": {"timestamp_osm_base": "2024-03-06T11:45:15Z", "copyright": "The data included in this document is from www.openstreetmap.org. The data is made available under ODbL."}, "elements": [{"type": "node", "id": 2486368820, "lat": 34.7688029, "lon": 43.532474, "tags": {"alt_name": "\u0645\u062d\u0637\u0629 \u0627\u0644\u0631\u064a\u0627\u0634", "int_name": "Ma\u1e29a\u0163\u0163at ar Rayy\u0101sh, \u0645\u062d\u0637\u0629 \u0627\u0644\u0631\u064a\u0627\u0634, Mahattat ar Rayyash, \u0645\u062d\u0637\u0629 \u0627\u0644\u0631\u064a\u0627\u0634", "name": "\u0645\u062d\u0637\u0629 \u0642\u0637\u0627\u0631 \u0627\u0644\u0631\u064a\u0627\u0634", "name:ar": "\u0645\u062d\u0637\u0629 \u0642\u0637\u0627\u0631 \u0627\u0644\u0631\u064a\u0627\u0634", "name:ar1": "\u0645\u062d\u0637\u0629 \u0627\u0644\u0631\u064a\u0627\u0634", "name:de": "Bahnhof Rayyash", "name:en": "Rayyash Railway Station", "name:fr": "Gare de Rayyash", "public_transport": "station", "railway": "station"}}, {"type": "node", "id": 3969277671, "lat": 35.1759046, "lon": 43.7625106, "tags": {"name": "\u0645\u062d\u0637\u0629 \u0642\u0637\u0627\u0631 \u0633\u0631\u0627\u064a", "name:ar": "\u0645\u062d\u0637\u0629 \u0642\u0637\u0627\u0631 \u0633\u0631\u0627\u064a", "name:de": "Bahnhof Sarai", "name:en": "Sarai Railway Station", "name:fr": "Gare de Sarai", "public_transport": "station", "railway": "station", "train": "yes"}}, {"type": "node", "id": 10912655681, "lat": 35.0156003, "lon": 43.5334595}, {"type": "node", "id": 10912655682, "lat": 35.0152756, "lon": 43.5332133}, {"type": "node", "id": 10912655683, "lat": 35.015215, "lon": 43.5333254}, {"type": "node", "id": 10912655684, "lat": 35.0155429, "lon": 43.5335736}, {"type": "way", "id": 1174441925, "nodes": [10912655681, 10912655682, 10912655683, 10912655684, 10912655681], "tags": {"name": "Northern Baiji Railway Station", "operator": "Iraqi Republic Railways", "public_transport": "station", "railway": "station", "train": "yes"}}]}