{"version": 0.6, "generator": "Overpass API 0.7.61.5 4133829e", "osm3s": {"timestamp_osm_base": "2024-03-05T15:08:58Z", "copyright": "The data included in this document is from www.openstreetmap.org. The data is made available under ODbL."}, "elements": [{"type": "node", "id": 1420425719, "lat": 66.9600806, "lon": 19.8222319, "tags": {"name": "Porjus", "name:smj": "B\u00e5rj\u00e5s", "name:sv": "Porjus", "place": "village", "ref:se:pts:postort": "PORJUS", "ref:se:scb": "8796", "website": "http://www.porjus.se/", "wikidata": "Q1018421", "wikipedia": "sv:Porjus"}}, {"type": "node", "id": 1741517301, "lat": 67.2548086, "lon": 20.2730779, "tags": {"name": "Latnivaara", "name:smj": "L\u00e1dnjev\u00e1rre", "place": "hamlet", "wikidata": "Q10554936", "wikipedia": "sv:Latnivaara"}}, {"type": "node", "id": 2911087390, "lat": 67.1250644, "lon": 19.4999002, "tags": {"name": "\u00c5lloluokta", "name:smj": "Oalloluokta", "name:sv": "\u00c5lloluokta", "place": "hamlet"}}, {"type": "node", "id": 3026985041, "lat": 66.9703114, "lon": 19.7995789, "tags": {"name": "V\u00e4stra Strand", "name:smj": "Oarj\u00e1sj Bielle", "name:sv": "V\u00e4stra Strand", "place": "hamlet"}}, {"type": "node", "id": 3446640765, "lat": 67.225366, "lon": 19.8057023, "tags": {"name": "Akkavaara", "name:smj": "\u00c1hk\u00e1v\u00e1rre", "place": "hamlet"}}, {"type": "node", "id": 10094940469, "lat": 67.1406009, "lon": 19.5900246, "tags": {"name": "Aggala", "name:smj": "\u00c1kkal", "place": "hamlet"}}]}