{"version": 0.6, "generator": "Overpass API 0.7.61.5 4133829e", "osm3s": {"timestamp_osm_base": "2024-03-06T11:15:40Z", "copyright": "The data included in this document is from www.openstreetmap.org. The data is made available under ODbL."}, "elements": [{"type": "node", "id": 3248398021, "lat": 32.7254932, "lon": 47.6773754, "tags": {"is_in:country": "Iran", "name": "\u0645\u0648\u0631\u0645\u0648\u0631\u06cc", "name:ckb": "\u0645\u0648\u0631\u0645\u0648\u0631\u06cc", "name:en": "Murmuri", "name:fa": "\u0645\u0648\u0631\u0645\u0648\u0631\u06cc", "name:fr": "Murmuri", "name:ja": "\u30e0\u30fc\u30eb\u30e0\u30fc\u30ea\u30fc", "name:ku": "Murmur\u00ee", "place": "town", "population": "3768", "population:date": "2016", "source:population": "amar.org.ir", "wikidata": "Q862390"}}, {"type": "node", "id": 3262185920, "lat": 32.9551474, "lon": 47.4466117, "tags": {"is_in:country": "Iran", "name": "\u0634\u0645\u0634\u06cc\u0631 \u0622\u0628\u0627\u062f", "name:en": "Bankat", "place": "village"}}, {"type": "node", "id": 3262185921, "lat": 32.9873147, "lon": 47.2099545, "tags": {"is_in:country": "Iran", "name": "\u062f\u06cc\u0648\u0646\u0647", "name:en": "Divaneh", "nat_name": "\u062f\u0647\u0628\u0646\u0647", "place": "village"}}, {"type": "node", "id": 3262185922, "lat": 32.9682654, "lon": 47.4480386, "tags": {"is_in:country": "Iran", "name": "\u0647\u0641\u062a \u0686\u0634\u0645\u0647", "name:en": "Haft Cheshmeh", "place": "village"}}, {"type": "node", "id": 3262185924, "lat": 32.9669253, "lon": 47.435074, "tags": {"is_in:country": "Iran", "name": "\u067e\u0634\u062a \u0642\u0644\u0639\u0647", "name:en": "Posht Qaleh", "place": "village"}}, {"type": "node", "id": 3262185925, "lat": 32.9899041, "lon": 47.3339862, "tags": {"fixme": "there is nothing here on Maxar", "is_in:country": "Iran", "name": "\u0648\u0631\u06af\u0631", "name:en": "Vargar", "place": "village"}}, {"type": "node", "id": 3262222723, "lat": 32.898466, "lon": 47.5728997, "tags": {"is_in:country": "Iran", "name": "\u0633\u0631\u0627\u0628 \u0628\u0627\u063a", "name:ckb": "\u0633\u06d5\u0631\u0627\u0648\u0628\u0627\u062e", "name:en": "Sarab Bagh", "name:fr": "Sarabbagh", "name:ku": "Serawbax", "place": "town", "population": "2659", "population:date": "2016", "source:population": "amar.org.ir", "wikidata": "Q4370969"}}, {"type": "node", "id": 3262252845, "lat": 32.9174291, "lon": 47.5209959, "tags": {"is_in:country": "Iran", "name": "\u0686\u0645 \u06a9\u0628\u0648\u062f", "name:en": "Cham Kabud", "place": "village", "wikidata": "Q5069214", "wikipedia": "en:Cham Kabud, Abdanan"}}, {"type": "node", "id": 3262252846, "lat": 32.8965838, "lon": 47.4892386, "tags": {"is_in:country": "Iran", "name": "\u0645\u0627\u0647\u0648\u062a\u0647", "name:en": "Mahuteh", "place": "village"}}, {"type": "node", "id": 3262252847, "lat": 32.9419468, "lon": 47.466519, "tags": {"is_in:country": "Iran", "name": "\u0634\u0647\u0631\u06a9 \u0647\u0632\u0627\u0631\u0627\u0646\u06cc", "name:en": "Shahrak-e Hezarani", "place": "town", "wikidata": "Q6503837", "wikipedia": "en:Shahrak-e Hezarani"}}, {"type": "node", "id": 3262252848, "lat": 32.967473, "lon": 47.5014846, "tags": {"is_in:country": "Iran", "name": "\u0637\u0644\u0648\u0631", "name:en": "Talur", "place": "village", "wikidata": "Q5787352", "wikipedia": "en:Talur, Ilam"}}, {"type": "node", "id": 3262252849, "lat": 32.9286742, "lon": 47.5724276, "tags": {"is_in:country": "Iran", "name": "\u0648\u0686\u06a9\u0627\u0628", "name:en": "Vachak Ab", "place": "village"}}, {"type": "node", "id": 3291457227, "lat": 32.9584018, "lon": 47.4353323, "tags": {"is_in:country": "Iran", "name": "\u062c\u0627\u0628\u0631 \u0627\u0646\u0635\u0627\u0631", "name:en": "Farhahd Abad", "place": "village"}}, {"type": "node", "id": 3292346777, "lat": 32.6419991, "lon": 47.2548717, "tags": {"addr:city": "\u062f\u0647\u0644\u0631\u0627\u0646", "is_in:country": "Iran", "name": "\u0641\u0631\u062e \u0622\u0628\u0627\u062f", "name:en": "Farrokhabad", "place": "village"}}, {"type": "node", "id": 3972538918, "lat": 32.9565706, "lon": 47.218598, "tags": {"is_in:country": "Iran", "name": "\u06a9\u0648\u0646\u0647 \u06a9\u0648\u0644", "place": "village", "population": "20"}}, {"type": "node", "id": 3972572095, "lat": 32.9846509, "lon": 47.2204365, "tags": {"fixme": "This doesn't seem to be a village!", "man_made": "petroleum_well", "name": "\u0686\u0627\u0647 \u0633\u0645\u0646\u062f \u0634\u0645\u0627\u0631\u0647 \u06f1", "place": "village"}}, {"type": "node", "id": 4431559565, "lat": 32.6914932, "lon": 47.2674712, "tags": {"alt_name:ckb": "\u062f\u06ce\u0644\u0631\u0648", "name": "\u062f\u0647\u0644\u0631\u0627\u0646", "name:ckb": "\u062f\u06ce\u0644\u0648\u0695\u0627\u0646", "name:en": "Dehloran", "name:fa": "\u062f\u0647\u0644\u0631\u0627\u0646", "name:fr": "Dehloran", "name:ku": "D\u00ealuran", "place": "town", "population": "32941", "population:date": "2016", "source:population": "amar.org.ir", "wikidata": "Q862457"}}, {"type": "node", "id": 4432465814, "lat": 32.6386111, "lon": 47.252158}, {"type": "node", "id": 4432465815, "lat": 32.6373643, "lon": 47.2569216}, {"type": "node", "id": 4432465816, "lat": 32.6401831, "lon": 47.2589601}, {"type": "node", "id": 4432465817, "lat": 32.6432728, "lon": 47.2578872}, {"type": "node", "id": 4432465818, "lat": 32.6466334, "lon": 47.2584666}, {"type": "node", "id": 4432465819, "lat": 32.6473923, "lon": 47.2533704}, {"type": "node", "id": 4432465820, "lat": 32.6457933, "lon": 47.2528446}, {"type": "node", "id": 4432465821, "lat": 32.6450796, "lon": 47.2526944}, {"type": "node", "id": 4432465822, "lat": 32.6446641, "lon": 47.2526515}, {"type": "node", "id": 4432465823, "lat": 32.6441311, "lon": 47.2528339}, {"type": "node", "id": 4432465824, "lat": 32.6405535, "lon": 47.2514606}, {"type": "node", "id": 4456356626, "lat": 32.8743493, "lon": 47.6186334, "tags": {"addr:city": "\u0622\u0628\u062f\u0627\u0646\u0627\u0646", "is_in:country": "Iran", "name": "\u06af\u0644 \u06af\u0644 \u0639\u0644\u06cc\u0627", "name:en": "GolGol-e Oliya Village", "place": "village"}}, {"type": "node", "id": 4456510353, "lat": 32.8688499, "lon": 47.6334735, "tags": {"is_in:country": "Iran", "name": "\u06af\u0644 \u06af\u0644 \u0633\u0641\u0644\u06cc", "name:en": "GolGol-e Sofla Village", "place": "village"}}, {"type": "node", "id": 4456510366, "lat": 32.8750424, "lon": 47.6051409, "tags": {"is_in:country": "Iran", "name": "\u0698\u06cc\u0648\u0631", "name:en": "Zhivar", "place": "village"}}, {"type": "node", "id": 4470520114, "lat": 32.5892848, "lon": 47.3791371, "tags": {"is_in:country": "Iran", "name": "\u062f\u0634\u062a \u0627\u06a9\u0628\u0631", "name:en": "Dasht-e Akbar Village", "place": "village"}}, {"type": "node", "id": 4476784350, "lat": 32.8890139, "lon": 47.5398429, "tags": {"is_in:country": "Iran", "is_in:state": "Ilam", "name": "\u0633\u0631\u067e\u0644\u0647", "place": "village", "population": "845"}}, {"type": "node", "id": 4476784369, "lat": 32.9150313, "lon": 47.5593322, "tags": {"is_in:country": "Iran", "is_in:state": "Ilam", "name": "\u0648\u0686\u06a9\u0628\u0648\u062f \u0633\u0641\u0644\u06cc", "place": "village", "population": "197"}}, {"type": "node", "id": 4576219104, "lat": 32.9478311, "lon": 47.2284014}, {"type": "node", "id": 4576219111, "lat": 32.9477956, "lon": 47.230214}, {"type": "node", "id": 4576219112, "lat": 32.9481913, "lon": 47.2304828}, {"type": "node", "id": 4576219124, "lat": 32.9482727, "lon": 47.2295381}, {"type": "node", "id": 4917635364, "lat": 32.9901681, "lon": 47.4221887, "tags": {"alt_name:ckb": "\u0626\u0627\u0648\u06d5\u0646\u0627\u0646", "name": "\u0622\u0628\u062f\u0627\u0646\u0627\u0646", "name:ckb": "\u0626\u0627\u0648\u062f\u0627\u0646\u0627\u0646", "name:en": "Abdanan", "name:fa": "\u0622\u0628\u062f\u0627\u0646\u0627\u0646", "name:fr": "Abdanan", "name:ku": "Awdanan", "place": "town", "population": "23946", "population:date": "2016", "source:population": "amar.org.ir", "wikidata": "Q862554"}}, {"type": "way", "id": 445897259, "nodes": [4432465814, 4432465815, 4432465816, 4432465817, 4432465818, 4432465819, 4432465820, 4432465821, 4432465822, 4432465823, 4432465824, 4432465814], "tags": {"admin_level": "8", "boundary": "administrative"}}, {"type": "way", "id": 462214434, "nodes": [4576219124, 4576219104, 4576219111, 4576219112, 4576219124], "tags": {"fixme": "cleanup name", "name:en": "eshkeh,qadah", "place": "village", "population": "30"}}, {"type": "relation", "id": 16122902, "members": [{"type": "way", "ref": 445897259, "role": "outer"}, {"type": "node", "ref": 3292346777, "role": "admin_centre"}], "tags": {"admin_level": "8", "boundary": "administrative", "name": "\u0641\u0631\u062e \u0622\u0628\u0627\u062f", "place": "village", "type": "boundary"}}]}