{"version": 0.6, "generator": "Overpass API 0.7.61.5 4133829e", "osm3s": {"timestamp_osm_base": "2024-03-05T13:43:59Z", "copyright": "The data included in this document is from www.openstreetmap.org. The data is made available under ODbL."}, "elements": [{"type": "node", "id": 21716195, "lat": 34.5260109, "lon": 69.1776838, "tags": {"admin_level": "2", "capital": "yes", "capital_ISO3166-1": "yes", "ele": "1790", "name": "\u06a9\u0627\u0628\u0644", "name:af": "Kaboel", "name:am": "\u12ab\u1261\u120d", "name:ar": "\u0643\u0627\u0628\u0644", "name:arc": "\u0729\u0710\u0712\u0718\u0720", "name:ast": "Kabul", "name:az": "Kabil", "name:azb": "\u06a9\u0627\u0628\u0644", "name:be": "\u041a\u0430\u0431\u0443\u043b", "name:be-tarask": "\u041a\u0430\u0431\u0443\u043b", "name:bg": "\u041a\u0430\u0431\u0443\u043b", "name:bn": "\u0995\u09be\u09ac\u09c1\u09b2", "name:bo": "\u0f41\u0f0b\u0f54\u0f74\u0f63\u0f0d", "name:br": "Kaboul", "name:ce": "\u041a\u0430\u0431\u0443\u043b", "name:ckb": "\u06a9\u0627\u0628\u0648\u0644", "name:cs": "K\u00e1bul", "name:cv": "\u041a\u0430\u0431\u0443\u043b", "name:da": "Kabul", "name:de": "Kabul", "name:diq": "Kabil", "name:el": "\u039a\u03b1\u03bc\u03c0\u03bf\u03cd\u03bb", "name:en": "Kabul", "name:eo": "Kabulo", "name:es": "Kabul", "name:et": "Kabul", "name:eu": "Kabul", "name:fa": "\u0643\u0627\u0628\u0644", "name:fi": "Kabul", "name:fr": "Kaboul", "name:frp": "Caboul", "name:fy": "Kab\u00fbl", "name:ga": "Cab\u00fal", "name:gl": "Cabul - \u06a9\u0627\u0628\u0644", "name:grc": "\u039a\u03b1\u03b2\u03bf\u03cd\u03bb\u03b7", "name:he": "\u05e7\u05d0\u05d1\u05d5\u05dc", "name:hi": "\u0915\u093e\u092c\u0941\u0932", "name:hr": "Kabul", "name:ht": "Kaboul", "name:hu": "Kabul", "name:hy": "\u0554\u0561\u0562\u0578\u0582\u056c", "name:id": "Kabul", "name:is": "Kab\u00fal", "name:it": "Kabul", "name:ja": "\u30ab\u30fc\u30d6\u30eb", "name:ka": "\u10e5\u10d0\u10d1\u10e3\u10da\u10d8", "name:km": "\u1791\u17b8\u1780\u17d2\u179a\u17bb\u1784\u1780\u17b6\u1794\u17bc\u179b", "name:kn": "\u0c95\u0cbe\u0cac\u0cc1\u0cb2\u0ccd", "name:ko": "\uce74\ubd88", "name:ks": "\u06a9\u0627\u0628\u0644", "name:ku": "Kab\u00fbl", "name:la": "Cabura", "name:lb": "Kabul", "name:lrc": "\u06a9\u0627\u0628\u0648\u0644", "name:lt": "Kabulas", "name:lv": "Kabula", "name:mdf": "\u041a\u0430\u0431\u0443\u043b", "name:mhr": "\u041a\u0430\u0431\u0443\u043b", "name:mi": "Kap\u016bru", "name:mk": "\u041a\u0430\u0431\u0443\u043b", "name:ml": "\u0d15\u0d3e\u0d2c\u0d42\u0d7e", "name:mn": "\u041a\u0430\u0431\u0443\u043b", "name:mr": "\u0915\u093e\u092c\u0941\u0932", "name:nah": "Cabul", "name:ne": "\u0915\u093e\u092c\u0941\u0932", "name:nl": "Kaboel", "name:oc": "Kabol", "name:os": "\u041a\u0430\u0431\u0443\u043b", "name:ota": "\u06a9\u0627\u0628\u0644", "name:pl": "Kabul", "name:pnb": "\u06a9\u0627\u0628\u0644", "name:ps": "\u06a9\u0627\u0628\u0644", "name:pt": "Cabul", "name:ru": "\u041a\u0430\u0431\u0443\u043b", "name:sd": "\u06aa\u0627\u0628\u0644", "name:sk": "K\u00e1bul", "name:sl": "Kabul", "name:sq": "Kabuli", "name:sr": "\u041a\u0430\u0431\u0443\u043b", "name:sv": "Kabul", "name:syc": "\u0729\u0710\u0712\u0718\u0720", "name:ta": "\u0b95\u0bbe\u0baa\u0bc2\u0bb2\u0bcd", "name:tg": "\u041a\u043e\u0431\u0443\u043b", "name:th": "\u0e04\u0e32\u0e1a\u0e39\u0e25", "name:tr": "K\u00e2bil", "name:tt": "\u041a\u0430\u0431\u0443\u043b", "name:ug": "\u0643\u0627\u0628\u06c7\u0644", "name:uk": "\u041a\u0430\u0431\u0443\u043b", "name:ur": "\u06a9\u0627\u0628\u0644", "name:vi": "Kabul", "name:yi": "\u05e7\u05d0\u05d1\u05d5\u05dc", "name:yue": "\u5580\u5e03\u723e", "name:zh": "\u5580\u5e03\u5c14/\u5580\u5e03\u723e", "name:zh-Hans": "\u5580\u5e03\u5c14", "name:zh-Hant": "\u5580\u5e03\u723e", "place": "city", "population": "3289000", "population:date": "2013", "wikidata": "Q5838", "wikipedia": "ps:\u06a9\u0627\u0628\u0644", "wikipedia:ar": "\u0643\u0627\u0628\u0644", "wikipedia:fa": "\u06a9\u0627\u0628\u0644", "wikipedia:ur": "\u06a9\u0627\u0628\u0644"}}, {"type": "node", "id": 25911227, "lat": 34.5445493, "lon": 69.234174}, {"type": "node", "id": 81518730, "lat": 34.5098207, "lon": 69.2818597}, {"type": "node", "id": 81518732, "lat": 34.5103602, "lon": 69.2825391}, {"type": "node", "id": 81518733, "lat": 34.5109172, "lon": 69.2829006}, {"type": "node", "id": 81518734, "lat": 34.5120215, "lon": 69.282744}, {"type": "node", "id": 81518735, "lat": 34.5125159, "lon": 69.2824128}, {"type": "node", "id": 81518736, "lat": 34.5134746, "lon": 69.2811374}, {"type": "node", "id": 81518737, "lat": 34.5139398, "lon": 69.280801}, {"type": "node", "id": 81518738, "lat": 34.5146181, "lon": 69.2810502}, {"type": "node", "id": 81518739, "lat": 34.5148179, "lon": 69.2815587}, {"type": "node", "id": 81518740, "lat": 34.5147189, "lon": 69.2821714}, {"type": "node", "id": 81518741, "lat": 34.5146258, "lon": 69.2826513}, {"type": "node", "id": 81518742, "lat": 34.5148214, "lon": 69.2832456}, {"type": "node", "id": 81518743, "lat": 34.5155585, "lon": 69.2839107}, {"type": "node", "id": 81518744, "lat": 34.5165938, "lon": 69.2848818}, {"type": "node", "id": 81518745, "lat": 34.5170134, "lon": 69.2854662}, {"type": "node", "id": 81518746, "lat": 34.5174043, "lon": 69.2864701}, {"type": "node", "id": 81518747, "lat": 34.5179221, "lon": 69.2870468}, {"type": "node", "id": 81518748, "lat": 34.518597, "lon": 69.2871383}, {"type": "node", "id": 81518749, "lat": 34.5196289, "lon": 69.2869001}, {"type": "node", "id": 81518750, "lat": 34.5199115, "lon": 69.2868183}, {"type": "node", "id": 81518751, "lat": 34.5203038, "lon": 69.2869765}, {"type": "node", "id": 81518752, "lat": 34.5206527, "lon": 69.2873282}, {"type": "node", "id": 536240233, "lat": 34.5066289, "lon": 69.2864243}, {"type": "node", "id": 536240237, "lat": 34.5068172, "lon": 69.2866528}, {"type": "node", "id": 536240250, "lat": 34.5075704, "lon": 69.2872114}, {"type": "node", "id": 536240257, "lat": 34.5080014, "lon": 69.2874755}, {"type": "node", "id": 536240275, "lat": 34.5081576, "lon": 69.2880386}, {"type": "node", "id": 536240299, "lat": 34.5073153, "lon": 69.2910076}, {"type": "node", "id": 536240408, "lat": 34.5083434, "lon": 69.2915669}, {"type": "node", "id": 536240429, "lat": 34.5097568, "lon": 69.2925802}, {"type": "node", "id": 536240433, "lat": 34.510699, "lon": 69.2928801}, {"type": "node", "id": 536240437, "lat": 34.5112564, "lon": 69.293159}, {"type": "node", "id": 536240491, "lat": 34.5125164, "lon": 69.2937418}, {"type": "node", "id": 536240496, "lat": 34.5129056, "lon": 69.2941785}, {"type": "node", "id": 536240499, "lat": 34.5130729, "lon": 69.2943816}, {"type": "node", "id": 536240501, "lat": 34.5133206, "lon": 69.294586}, {"type": "node", "id": 536240540, "lat": 34.5138872, "lon": 69.2934216}, {"type": "node", "id": 536240547, "lat": 34.5143009, "lon": 69.2934966}, {"type": "node", "id": 536240575, "lat": 34.5152316, "lon": 69.2930701}, {"type": "node", "id": 536240602, "lat": 34.5160757, "lon": 69.2927916}, {"type": "node", "id": 536240624, "lat": 34.5166145, "lon": 69.2926157}, {"type": "node", "id": 536240643, "lat": 34.5176128, "lon": 69.2925129}, {"type": "node", "id": 536240654, "lat": 34.5180389, "lon": 69.2923968}, {"type": "node", "id": 536240656, "lat": 34.5181738, "lon": 69.2923778}, {"type": "node", "id": 536240658, "lat": 34.5182625, "lon": 69.292404}, {"type": "node", "id": 536240666, "lat": 34.5183669, "lon": 69.2924581}, {"type": "node", "id": 536240668, "lat": 34.518591, "lon": 69.2924079}, {"type": "node", "id": 536240670, "lat": 34.5186572, "lon": 69.2924117}, {"type": "node", "id": 536240672, "lat": 34.5187776, "lon": 69.2923795}, {"type": "node", "id": 536240674, "lat": 34.5190251, "lon": 69.2923701}, {"type": "node", "id": 536240682, "lat": 34.5197704, "lon": 69.2922403}, {"type": "node", "id": 536240684, "lat": 34.5198343, "lon": 69.2920746}, {"type": "node", "id": 536240698, "lat": 34.5198836, "lon": 69.2920286}, {"type": "node", "id": 536240701, "lat": 34.5199716, "lon": 69.2919908}, {"type": "node", "id": 536240709, "lat": 34.5191732, "lon": 69.2923526}, {"type": "node", "id": 536240710, "lat": 34.5193562, "lon": 69.2923584}, {"type": "node", "id": 536240712, "lat": 34.5196625, "lon": 69.2923102}, {"type": "node", "id": 547534665, "lat": 34.4781262, "lon": 69.011504}, {"type": "node", "id": 547534671, "lat": 34.4788043, "lon": 69.0119205}, {"type": "node", "id": 547534673, "lat": 34.479569, "lon": 69.0124834}, {"type": "node", "id": 547534675, "lat": 34.4796281, "lon": 69.013257}, {"type": "node", "id": 547534677, "lat": 34.4791403, "lon": 69.0139508}, {"type": "node", "id": 547534679, "lat": 34.4792588, "lon": 69.0153398}, {"type": "node", "id": 547534682, "lat": 34.478771, "lon": 69.0153143}, {"type": "node", "id": 547534684, "lat": 34.478015, "lon": 69.0158058}, {"type": "node", "id": 547534686, "lat": 34.4774123, "lon": 69.0152828}, {"type": "node", "id": 547534690, "lat": 34.4780706, "lon": 69.0145576}, {"type": "node", "id": 547534693, "lat": 34.4775422, "lon": 69.0140595}, {"type": "node", "id": 547534695, "lat": 34.4766131, "lon": 69.0132615}, {"type": "node", "id": 547534698, "lat": 34.477893, "lon": 69.0127986}, {"type": "node", "id": 547534701, "lat": 34.4772344, "lon": 69.0121198}, {"type": "node", "id": 552579807, "lat": 34.4452204, "lon": 69.1149274}, {"type": "node", "id": 552579808, "lat": 34.4450023, "lon": 69.1145857}, {"type": "node", "id": 552579851, "lat": 34.4452891, "lon": 69.1153456}, {"type": "node", "id": 552579862, "lat": 34.4456173, "lon": 69.1162629}, {"type": "node", "id": 552579863, "lat": 34.4455307, "lon": 69.1159169}, {"type": "node", "id": 552579866, "lat": 34.445509, "lon": 69.117867}, {"type": "node", "id": 552579867, "lat": 34.445542, "lon": 69.1175424}, {"type": "node", "id": 552579872, "lat": 34.445787, "lon": 69.1167993}, {"type": "node", "id": 552579873, "lat": 34.4455959, "lon": 69.117155}, {"type": "node", "id": 552579874, "lat": 34.4456769, "lon": 69.1169419}, {"type": "node", "id": 552579902, "lat": 34.4457183, "lon": 69.1188896}, {"type": "node", "id": 552579903, "lat": 34.4457269, "lon": 69.1186842}, {"type": "node", "id": 552579904, "lat": 34.4456319, "lon": 69.1184097}, {"type": "node", "id": 552579905, "lat": 34.4455559, "lon": 69.118108}, {"type": "node", "id": 1783679961, "lat": 34.4231393, "lon": 69.1226413, "tags": {"addr:city": "\u0631\u064a\u0634\u062e\u0648\u0631", "name": "\u0631\u064a\u0634\u062e\u0648\u0631", "name:ar": "\u0631\u064a\u0634\u062e\u0648\u0631", "name:en": "Rishkhor", "name:fa": "\u0631\u06cc\u0634\u062e\u0648\u0631", "place": "town"}}, {"type": "node", "id": 1783679963, "lat": 34.4170023, "lon": 69.1106952, "tags": {"name": "Tangi Saidan", "place": "village"}}, {"type": "node", "id": 1916542468, "lat": 34.5472808, "lon": 69.2271904}, {"type": "node", "id": 1916542473, "lat": 34.5480602, "lon": 69.2282921}, {"type": "node", "id": 1916542476, "lat": 34.5488979, "lon": 69.2291543}, {"type": "node", "id": 1916542480, "lat": 34.5498379, "lon": 69.2303569}, {"type": "node", "id": 1916542482, "lat": 34.5501199, "lon": 69.2307409}, {"type": "node", "id": 3127063869, "lat": 34.5478806, "lon": 69.2331288}, {"type": "node", "id": 3541536172, "lat": 34.2734599, "lon": 69.1387591}, {"type": "node", "id": 3541536173, "lat": 34.2735042, "lon": 69.1405186}, {"type": "node", "id": 3541536174, "lat": 34.2736328, "lon": 69.1409317}, {"type": "node", "id": 3541536175, "lat": 34.2742711, "lon": 69.1408298}, {"type": "node", "id": 3541536176, "lat": 34.2747715, "lon": 69.1412366}, {"type": "node", "id": 3541536177, "lat": 34.2754946, "lon": 69.1405669}, {"type": "node", "id": 3541536178, "lat": 34.2752357, "lon": 69.1422478}, {"type": "node", "id": 3541536179, "lat": 34.2743952, "lon": 69.1425571}, {"type": "node", "id": 3541536180, "lat": 34.2735441, "lon": 69.142482}, {"type": "node", "id": 3541536181, "lat": 34.2735087, "lon": 69.1417578}, {"type": "node", "id": 3541536182, "lat": 34.273021, "lon": 69.1419724}, {"type": "node", "id": 3541536183, "lat": 34.2725689, "lon": 69.1428039}, {"type": "node", "id": 3541536184, "lat": 34.2724669, "lon": 69.1437909}, {"type": "node", "id": 3541536185, "lat": 34.271935, "lon": 69.1438982}, {"type": "node", "id": 3541536186, "lat": 34.2717177, "lon": 69.1433886}, {"type": "node", "id": 3541536187, "lat": 34.2712966, "lon": 69.1433671}, {"type": "node", "id": 3541536188, "lat": 34.2708889, "lon": 69.1426887}, {"type": "node", "id": 3541536189, "lat": 34.2708921, "lon": 69.1408755}, {"type": "node", "id": 3742705160, "lat": 34.5884181, "lon": 68.9580345, "tags": {"name": "\u067e\u063a\u0645\u0627\u0646", "name:bn": "\u09aa\u09be\u0997\u09ae\u09be\u09a8", "name:en": "Paghman", "name:fa": "\u067e\u063a\u0645\u0627\u0646", "name:ja": "\u30d1\u30b0\u30de\u30f3", "name:ps": "\u067e\u063a\u0645\u0627\u0646", "name:ru": "\u041f\u0430\u0433\u043c\u0430\u043d", "place": "city", "source:name": "GNS"}}, {"type": "node", "id": 3742726259, "lat": 34.5074817, "lon": 69.0113442, "tags": {"name": "\u0634\u0647\u0631\u06a9 \u0627\u062a\u0641\u0627\u0642", "name:ar": "\u0645\u062f\u064a\u0646\u0629 \u0627\u062a\u0641\u0627\u0642", "name:en": "Ettefaq", "name:en1": "Ettefaq Town", "name:fa": "\u0634\u0647\u0631\u06a9 \u0627\u062a\u0641\u0627\u0642", "name:ja": "\u30a8\u30c3\u30c8\u30d5\u30a1\u30af\u30fb\u30bf\u30a6\u30f3", "place": "town", "short_name:ar": "\u0627\u062a\u0641\u0627\u0642"}}, {"type": "node", "id": 3875079632, "lat": 34.3917642, "lon": 69.0288957, "tags": {"name": "Gozar", "place": "village"}}, {"type": "node", "id": 3875079652, "lat": 34.3911605, "lon": 69.0176063, "tags": {"name": "Asmanqal'eh", "place": "village"}}, {"type": "node", "id": 3875143540, "lat": 34.4094024, "lon": 69.1573406, "tags": {"name": "Chahar Asyab \u0686\u0647\u0627\u0631 \u0627\u0633\u06cc\u0627\u0628", "place": "village"}}, {"type": "node", "id": 3875143541, "lat": 34.4177575, "lon": 69.1731047, "tags": {"name": "\u062e\u06cc\u0631\u0622\u0628\u0627\u062f", "name:de": "Cheirabad", "name:en": "Khayrabad", "name:es": "Jeirabad", "name:fa": "\u062e\u06cc\u0631\u0622\u0628\u0627\u062f", "name:ur": "\u062e\u06cc\u0631\u0622\u0628\u0627\u062f", "place": "village"}}, {"type": "node", "id": 3875143542, "lat": 34.3932389, "lon": 69.1386502, "tags": {"name": "Qaleh-ye Hajiha", "place": "village"}}, {"type": "node", "id": 3875143884, "lat": 34.3777475, "lon": 69.1237711, "tags": {"name": "Cheheldukhtaran", "place": "village"}}, {"type": "node", "id": 3875143885, "lat": 34.3536105, "lon": 69.1182429, "tags": {"name": "Namunyaz", "place": "village"}}, {"type": "node", "id": 3875143886, "lat": 34.2941444, "lon": 69.1487626, "tags": {"name": "\u0633\u0641\u06cc\u062f \u0633\u0646\u06ab", "name:en": "Safedsang", "place": "village"}}, {"type": "node", "id": 3875143887, "lat": 34.2882239, "lon": 69.1514769, "tags": {"name": "Gomaran \u06a9\u0645\u0631\u0627\u0646", "place": "village"}}, {"type": "node", "id": 3906979628, "lat": 34.4438445, "lon": 69.1056921}, {"type": "node", "id": 3906979629, "lat": 34.4438621, "lon": 69.1055947}, {"type": "node", "id": 3906979631, "lat": 34.4438954, "lon": 69.1101102}, {"type": "node", "id": 3906979632, "lat": 34.4438619, "lon": 69.1103012}, {"type": "node", "id": 3906979638, "lat": 34.4439797, "lon": 69.1064883}, {"type": "node", "id": 3906979640, "lat": 34.4440052, "lon": 69.1096919}, {"type": "node", "id": 3906979644, "lat": 34.4440542, "lon": 69.1066808}, {"type": "node", "id": 3906979645, "lat": 34.4440105, "lon": 69.1108298}, {"type": "node", "id": 3906979649, "lat": 34.4441326, "lon": 69.1095779}, {"type": "node", "id": 3906979651, "lat": 34.4442071, "lon": 69.1114696}, {"type": "node", "id": 3906979656, "lat": 34.4442796, "lon": 69.1094804}, {"type": "node", "id": 3906979657, "lat": 34.4443325, "lon": 69.1118618}, {"type": "node", "id": 3906979662, "lat": 34.4444521, "lon": 69.1070753}, {"type": "node", "id": 3906979664, "lat": 34.4445618, "lon": 69.1126128}, {"type": "node", "id": 3906979666, "lat": 34.4446147, "lon": 69.1072488}, {"type": "node", "id": 3906979667, "lat": 34.4446657, "lon": 69.1074769}, {"type": "node", "id": 3906979671, "lat": 34.4447598, "lon": 69.1131856}, {"type": "node", "id": 3906979678, "lat": 34.4448519, "lon": 69.1083183}, {"type": "node", "id": 3906979681, "lat": 34.4448642, "lon": 69.1092766}, {"type": "node", "id": 3906979686, "lat": 34.4449194, "lon": 69.109187}, {"type": "node", "id": 3906979688, "lat": 34.4449852, "lon": 69.1091049}, {"type": "node", "id": 3906979689, "lat": 34.4449871, "lon": 69.1139081}, {"type": "node", "id": 3906979691, "lat": 34.4450263, "lon": 69.1142717}, {"type": "node", "id": 3918681619, "lat": 34.5054869, "lon": 68.946351}, {"type": "node", "id": 3918681620, "lat": 34.5055676, "lon": 68.9449478}, {"type": "node", "id": 3918681621, "lat": 34.5058499, "lon": 68.9445562}, {"type": "node", "id": 3918681622, "lat": 34.5060113, "lon": 68.9433651}, {"type": "node", "id": 3918681623, "lat": 34.5061054, "lon": 68.9464816}, {"type": "node", "id": 3918681624, "lat": 34.5062533, "lon": 68.9453884}, {"type": "node", "id": 3918681625, "lat": 34.5068315, "lon": 68.9433651}, {"type": "node", "id": 3918681626, "lat": 34.5076516, "lon": 68.9444746}, {"type": "node", "id": 3918681627, "lat": 34.5084449, "lon": 68.9482274}, {"type": "node", "id": 3918681628, "lat": 34.5084584, "lon": 68.9443767}, {"type": "node", "id": 3918681629, "lat": 34.5084853, "lon": 68.9429409}, {"type": "node", "id": 3918681630, "lat": 34.5084853, "lon": 68.9448989}, {"type": "node", "id": 3918681631, "lat": 34.5087542, "lon": 68.9494512}, {"type": "node", "id": 3918681632, "lat": 34.5089424, "lon": 68.9479011}, {"type": "node", "id": 3918681633, "lat": 34.50905, "lon": 68.9491411}, {"type": "node", "id": 3918681634, "lat": 34.5091306, "lon": 68.9474605}, {"type": "node", "id": 3918681635, "lat": 34.5094399, "lon": 68.9421577}, {"type": "node", "id": 3918681636, "lat": 34.5095474, "lon": 68.9464979}, {"type": "node", "id": 3918681637, "lat": 34.5095609, "lon": 68.9445725}, {"type": "node", "id": 3918681638, "lat": 34.5095878, "lon": 68.9475421}, {"type": "node", "id": 3918681639, "lat": 34.5096147, "lon": 68.9448662}, {"type": "node", "id": 3918681640, "lat": 34.5096281, "lon": 68.9437078}, {"type": "node", "id": 3918681641, "lat": 34.509776, "lon": 68.9426635}, {"type": "node", "id": 3918681642, "lat": 34.509776, "lon": 68.9501201}, {"type": "node", "id": 3918681643, "lat": 34.5098836, "lon": 68.9464979}, {"type": "node", "id": 3918681644, "lat": 34.5100046, "lon": 68.9453884}, {"type": "node", "id": 3918681645, "lat": 34.5103945, "lon": 68.9436751}, {"type": "node", "id": 3918681646, "lat": 34.5105155, "lon": 68.9413908}, {"type": "node", "id": 3918681647, "lat": 34.510892, "lon": 68.9436588}, {"type": "node", "id": 3918681648, "lat": 34.5109861, "lon": 68.9417008}, {"type": "node", "id": 3918681649, "lat": 34.5111474, "lon": 68.9432509}, {"type": "node", "id": 3918681650, "lat": 34.5119407, "lon": 68.9475258}, {"type": "node", "id": 3918681651, "lat": 34.5119676, "lon": 68.948358}, {"type": "node", "id": 3918681652, "lat": 34.5122365, "lon": 68.9434467}, {"type": "node", "id": 3918681653, "lat": 34.5129625, "lon": 68.9464163}, {"type": "node", "id": 3918681654, "lat": 34.5132314, "lon": 68.9429572}, {"type": "node", "id": 3918681655, "lat": 34.5133658, "lon": 68.9473463}, {"type": "node", "id": 3918681656, "lat": 34.5135137, "lon": 68.9426309}, {"type": "node", "id": 3918681657, "lat": 34.5146834, "lon": 68.9423698}, {"type": "node", "id": 3918681658, "lat": 34.5148313, "lon": 68.9460247}, {"type": "node", "id": 3918681659, "lat": 34.5149523, "lon": 68.9424514}, {"type": "node", "id": 3918681660, "lat": 34.515248, "lon": 68.9455515}, {"type": "node", "id": 3918681661, "lat": 34.5153556, "lon": 68.9418151}, {"type": "node", "id": 3918681662, "lat": 34.5158665, "lon": 68.941913}, {"type": "node", "id": 3918681663, "lat": 34.5158799, "lon": 68.9453231}, {"type": "node", "id": 3918681668, "lat": 34.5296013, "lon": 68.9886688}, {"type": "node", "id": 3918681669, "lat": 34.5296114, "lon": 68.9881549}, {"type": "node", "id": 3918681670, "lat": 34.52985, "lon": 68.9893174}, {"type": "node", "id": 3918681671, "lat": 34.5298869, "lon": 68.988677}, {"type": "node", "id": 3918681672, "lat": 34.5299105, "lon": 68.9881834}, {"type": "node", "id": 3918681674, "lat": 34.5301054, "lon": 68.9869842}, {"type": "node", "id": 3918681675, "lat": 34.5301423, "lon": 68.9876613}, {"type": "node", "id": 3918681676, "lat": 34.5302028, "lon": 68.9893541}, {"type": "node", "id": 3918681678, "lat": 34.5305557, "lon": 68.9894724}, {"type": "node", "id": 3918681680, "lat": 34.5306229, "lon": 68.987131}, {"type": "node", "id": 3918681681, "lat": 34.5309825, "lon": 68.9862336}, {"type": "node", "id": 3918681682, "lat": 34.5310497, "lon": 68.9898273}, {"type": "node", "id": 3918681684, "lat": 34.5312278, "lon": 68.9897172}, {"type": "node", "id": 3918681686, "lat": 34.5314227, "lon": 68.9865273}, {"type": "node", "id": 3918681687, "lat": 34.5315168, "lon": 68.9901822}, {"type": "node", "id": 3918681688, "lat": 34.5315705, "lon": 68.9895459}, {"type": "node", "id": 3918681689, "lat": 34.5316445, "lon": 68.9873146}, {"type": "node", "id": 3918681690, "lat": 34.5316747, "lon": 68.9896805}, {"type": "node", "id": 3918681691, "lat": 34.5316949, "lon": 68.9906798}, {"type": "node", "id": 3918681692, "lat": 34.5318091, "lon": 68.9877103}, {"type": "node", "id": 3918681693, "lat": 34.5318259, "lon": 68.9869719}, {"type": "node", "id": 3918681694, "lat": 34.5318394, "lon": 68.9879591}, {"type": "node", "id": 3918681695, "lat": 34.5318999, "lon": 68.9909409}, {"type": "node", "id": 3918681696, "lat": 34.5319368, "lon": 68.9883588}, {"type": "node", "id": 3918681697, "lat": 34.5319973, "lon": 68.9900884}, {"type": "node", "id": 3918681698, "lat": 34.5320108, "lon": 68.9896886}, {"type": "node", "id": 3918681699, "lat": 34.5320679, "lon": 68.9890931}, {"type": "node", "id": 3918681700, "lat": 34.5321183, "lon": 68.9883425}, {"type": "node", "id": 3918681701, "lat": 34.5321284, "lon": 68.9897824}, {"type": "node", "id": 3918681702, "lat": 34.5321754, "lon": 68.9872412}, {"type": "node", "id": 3918681703, "lat": 34.5322124, "lon": 68.9893909}, {"type": "node", "id": 3918681704, "lat": 34.5322729, "lon": 68.9902638}, {"type": "node", "id": 3918681705, "lat": 34.5322796, "lon": 68.9877592}, {"type": "node", "id": 3918681707, "lat": 34.5323838, "lon": 68.9872616}, {"type": "node", "id": 3918681737, "lat": 34.5486865, "lon": 68.9763776}, {"type": "node", "id": 3918681738, "lat": 34.5486204, "lon": 68.9785042}, {"type": "node", "id": 3918681739, "lat": 34.5487615, "lon": 68.97932}, {"type": "node", "id": 3918681742, "lat": 34.5494017, "lon": 68.9795941}, {"type": "node", "id": 3918681743, "lat": 34.5496484, "lon": 68.9723855}, {"type": "node", "id": 3918681744, "lat": 34.5499374, "lon": 68.9726629}, {"type": "node", "id": 3918681747, "lat": 34.5505152, "lon": 68.9701665}, {"type": "node", "id": 3918681748, "lat": 34.5505421, "lon": 68.9754775}, {"type": "node", "id": 3918681752, "lat": 34.550988, "lon": 68.9756116}, {"type": "node", "id": 3918681753, "lat": 34.5510864, "lon": 68.9692854}, {"type": "node", "id": 3918681755, "lat": 34.5511603, "lon": 68.9704602}, {"type": "node", "id": 3918681756, "lat": 34.5513484, "lon": 68.974009}, {"type": "node", "id": 3918681757, "lat": 34.5513954, "lon": 68.9714065}, {"type": "node", "id": 3918681758, "lat": 34.5515769, "lon": 68.9743517}, {"type": "node", "id": 3918681759, "lat": 34.5516777, "lon": 68.9731769}, {"type": "node", "id": 3918681760, "lat": 34.551812, "lon": 68.9673356}, {"type": "node", "id": 3918681761, "lat": 34.5518322, "lon": 68.9692854}, {"type": "node", "id": 3918681762, "lat": 34.5520875, "lon": 68.9730627}, {"type": "node", "id": 3918681764, "lat": 34.5522891, "lon": 68.9678169}, {"type": "node", "id": 3918681765, "lat": 34.5524907, "lon": 68.9701991}, {"type": "node", "id": 3918681766, "lat": 34.5526618, "lon": 68.9721589}, {"type": "node", "id": 3918681768, "lat": 34.5529409, "lon": 68.9730055}, {"type": "node", "id": 3918681769, "lat": 34.552961, "lon": 68.9675559}, {"type": "node", "id": 3918681770, "lat": 34.5529745, "lon": 68.97241}, {"type": "node", "id": 3918681771, "lat": 34.5530282, "lon": 68.9677598}, {"type": "node", "id": 3918681772, "lat": 34.5533037, "lon": 68.9660466}, {"type": "node", "id": 3918681773, "lat": 34.5537722, "lon": 68.9737007}, {"type": "node", "id": 3918681774, "lat": 34.5533574, "lon": 68.9716921}, {"type": "node", "id": 3918681776, "lat": 34.5537115, "lon": 68.970409}, {"type": "node", "id": 3918681777, "lat": 34.5535725, "lon": 68.9695791}, {"type": "node", "id": 3918681778, "lat": 34.5538143, "lon": 68.9661526}, {"type": "node", "id": 3918681779, "lat": 34.553895, "lon": 68.9697178}, {"type": "node", "id": 3918681780, "lat": 34.5539151, "lon": 68.9701175}, {"type": "node", "id": 3918681781, "lat": 34.5541188, "lon": 68.9726426}, {"type": "node", "id": 3918681782, "lat": 34.5540442, "lon": 68.9685131}, {"type": "node", "id": 3918681783, "lat": 34.5544857, "lon": 68.9577689}, {"type": "node", "id": 3918681784, "lat": 34.5546948, "lon": 68.9569555}, {"type": "node", "id": 3918681785, "lat": 34.5549323, "lon": 68.95804}, {"type": "node", "id": 3918681786, "lat": 34.5550749, "lon": 68.9576939}, {"type": "node", "id": 3918681787, "lat": 34.555569, "lon": 68.956269}, {"type": "node", "id": 3918681788, "lat": 34.555721, "lon": 68.9542442}, {"type": "node", "id": 3918681789, "lat": 34.5558113, "lon": 68.9574978}, {"type": "node", "id": 3918681790, "lat": 34.5558398, "lon": 68.9582304}, {"type": "node", "id": 3918681791, "lat": 34.5558588, "lon": 68.9552883}, {"type": "node", "id": 3918681792, "lat": 34.5558825, "lon": 68.9561363}, {"type": "node", "id": 3918681793, "lat": 34.5561676, "lon": 68.9537539}, {"type": "node", "id": 3918681794, "lat": 34.5562816, "lon": 68.9552826}, {"type": "node", "id": 3918681795, "lat": 34.5564004, "lon": 68.954798}, {"type": "node", "id": 3918681796, "lat": 34.5564336, "lon": 68.9540596}, {"type": "node", "id": 3918681797, "lat": 34.5564959, "lon": 68.9584786}, {"type": "node", "id": 3918681798, "lat": 34.5565762, "lon": 68.9547115}, {"type": "node", "id": 3918681800, "lat": 34.5567187, "lon": 68.9578612}, {"type": "node", "id": 3918681802, "lat": 34.557208, "lon": 68.9543653}, {"type": "node", "id": 3918681803, "lat": 34.5574028, "lon": 68.9578093}, {"type": "node", "id": 3918681805, "lat": 34.5580946, "lon": 68.9557681}, {"type": "node", "id": 3918681806, "lat": 34.5578542, "lon": 68.9546999}, {"type": "node", "id": 3918681807, "lat": 34.5579159, "lon": 68.9562575}, {"type": "node", "id": 3918681808, "lat": 34.5579397, "lon": 68.9568805}, {"type": "node", "id": 3918681809, "lat": 34.5581392, "lon": 68.9571343}, {"type": "node", "id": 3918681810, "lat": 34.5581961, "lon": 68.9555651}, {"type": "node", "id": 3918681812, "lat": 34.558334, "lon": 68.9568632}, {"type": "node", "id": 3953667437, "lat": 34.544126, "lon": 69.23162}, {"type": "node", "id": 3953667453, "lat": 34.5474372, "lon": 69.2338664}, {"type": "node", "id": 3954115441, "lat": 34.5427628, "lon": 69.2270785}, {"type": "node", "id": 3954115458, "lat": 34.5431546, "lon": 69.226731}, {"type": "node", "id": 3954115541, "lat": 34.5469755, "lon": 69.2267954}, {"type": "node", "id": 3960185278, "lat": 34.624993, "lon": 69.0338083, "tags": {"name": "Bala Karez", "place": "village"}}, {"type": "node", "id": 3962127086, "lat": 34.4765822, "lon": 69.0133979}, {"type": "node", "id": 3962127090, "lat": 34.4766736, "lon": 69.0134788}, {"type": "node", "id": 3962127099, "lat": 34.4768033, "lon": 69.0131522}, {"type": "node", "id": 3962127106, "lat": 34.4769701, "lon": 69.0129019}, {"type": "node", "id": 3962127110, "lat": 34.4770294, "lon": 69.0134743}, {"type": "node", "id": 3962127115, "lat": 34.4771344, "lon": 69.0129364}, {"type": "node", "id": 3962127122, "lat": 34.4772295, "lon": 69.0131522}, {"type": "node", "id": 3962127123, "lat": 34.4772381, "lon": 69.0117032}, {"type": "node", "id": 3962127127, "lat": 34.4772813, "lon": 69.0133095}, {"type": "node", "id": 3962127128, "lat": 34.4773011, "lon": 69.0139283}, {"type": "node", "id": 3962127133, "lat": 34.4773752, "lon": 69.0116118}, {"type": "node", "id": 3962127134, "lat": 34.4773876, "lon": 69.014198}, {"type": "node", "id": 3962127138, "lat": 34.4774901, "lon": 69.0137695}, {"type": "node", "id": 3962127139, "lat": 34.4775049, "lon": 69.0155121}, {"type": "node", "id": 3962127140, "lat": 34.4775395, "lon": 69.0128959}, {"type": "node", "id": 3962127144, "lat": 34.4775926, "lon": 69.0144303}, {"type": "node", "id": 3962127145, "lat": 34.4776025, "lon": 69.0150311}, {"type": "node", "id": 3962127146, "lat": 34.4776037, "lon": 69.0141321}, {"type": "node", "id": 3962127148, "lat": 34.4776655, "lon": 69.0154431}, {"type": "node", "id": 3962127150, "lat": 34.4776865, "lon": 69.0144228}, {"type": "node", "id": 3962127152, "lat": 34.4777087, "lon": 69.0146101}, {"type": "node", "id": 3962127153, "lat": 34.4777223, "lon": 69.0131507}, {"type": "node", "id": 3962127154, "lat": 34.4777371, "lon": 69.0120149}, {"type": "node", "id": 3962127257, "lat": 34.4777976, "lon": 69.0156709}, {"type": "node", "id": 3962127259, "lat": 34.4778619, "lon": 69.0156125}, {"type": "node", "id": 3962127261, "lat": 34.4779076, "lon": 69.0116703}, {"type": "node", "id": 3962127263, "lat": 34.4779508, "lon": 69.0121752}, {"type": "node", "id": 3962127264, "lat": 34.4780002, "lon": 69.0121557}, {"type": "node", "id": 3962127266, "lat": 34.4780793, "lon": 69.0147659}, {"type": "node", "id": 3962127276, "lat": 34.4784708, "lon": 69.0117377}, {"type": "node", "id": 3962127281, "lat": 34.4787067, "lon": 69.0112432}, {"type": "node", "id": 3962127282, "lat": 34.4788352, "lon": 69.0155016}, {"type": "node", "id": 3962127287, "lat": 34.4790439, "lon": 69.0114665}, {"type": "node", "id": 3962127289, "lat": 34.4791489, "lon": 69.0149022}, {"type": "node", "id": 3962127292, "lat": 34.4792675, "lon": 69.01378}, {"type": "node", "id": 3962127293, "lat": 34.4792761, "lon": 69.012421}, {"type": "node", "id": 3962127294, "lat": 34.4792798, "lon": 69.0150656}, {"type": "node", "id": 3962127298, "lat": 34.4793255, "lon": 69.0151689}, {"type": "node", "id": 3962127302, "lat": 34.4793774, "lon": 69.0147914}, {"type": "node", "id": 3962127308, "lat": 34.4794861, "lon": 69.0145022}, {"type": "node", "id": 3962127312, "lat": 34.479569, "lon": 69.0135376}, {"type": "node", "id": 3962127316, "lat": 34.4796133, "lon": 69.0130113}, {"type": "node", "id": 3962127319, "lat": 34.4797023, "lon": 69.0122382}, {"type": "node", "id": 3962127320, "lat": 34.4797125, "lon": 69.0139793}, {"type": "node", "id": 3962127323, "lat": 34.479727, "lon": 69.0121093}, {"type": "node", "id": 3962127325, "lat": 34.4797384, "lon": 69.0136182}, {"type": "node", "id": 3962127330, "lat": 34.4797788, "lon": 69.012827}, {"type": "node", "id": 3962127332, "lat": 34.4797841, "lon": 69.0139688}, {"type": "node", "id": 3962127340, "lat": 34.4799246, "lon": 69.0122546}, {"type": "node", "id": 3978051534, "lat": 34.3524575, "lon": 69.2049214, "tags": {"name": "Haji Khel", "place": "village"}}, {"type": "node", "id": 3978243595, "lat": 34.3979831, "lon": 69.164078, "tags": {"name": "\u0642\u0644\u0639\u0647 \u0646\u0639\u064a\u0645", "name:ar": "\u0642\u0644\u0639\u0629 \u0646\u0639\u064a\u0645", "name:de": "Qaleh-ye Na'im", "name:en": "Qaleh-ye Na'im", "name:fa": "\u0642\u0644\u0639\u0647 \u0646\u0639\u064a\u0645", "name:ps": "\u0642\u0644\u0639\u0647 \u0646\u0639\u064a\u0645", "place": "town"}}, {"type": "node", "id": 4189928267, "lat": 34.5484258, "lon": 69.2286502}, {"type": "node", "id": 4189928275, "lat": 34.5493479, "lon": 69.2297189}, {"type": "node", "id": 4189928280, "lat": 34.5496009, "lon": 69.2300181}, {"type": "node", "id": 4189955192, "lat": 34.5434535, "lon": 69.2294953}, {"type": "node", "id": 4189955193, "lat": 34.5437546, "lon": 69.2305439}, {"type": "node", "id": 4190004153, "lat": 34.5436511, "lon": 69.2261095}, {"type": "node", "id": 4190004172, "lat": 34.5440229, "lon": 69.2263059}, {"type": "node", "id": 4190004179, "lat": 34.5441211, "lon": 69.2263797}, {"type": "node", "id": 4190009528, "lat": 34.5447773, "lon": 69.2269054}, {"type": "node", "id": 4190009544, "lat": 34.5450252, "lon": 69.2270911}, {"type": "node", "id": 4190009547, "lat": 34.5451743, "lon": 69.2272482}, {"type": "node", "id": 4190009555, "lat": 34.5452849, "lon": 69.2271334}, {"type": "node", "id": 4190009567, "lat": 34.5453896, "lon": 69.2272472}, {"type": "node", "id": 4190009811, "lat": 34.5460862, "lon": 69.2268873}, {"type": "node", "id": 4190009846, "lat": 34.5467739, "lon": 69.2264487}, {"type": "node", "id": 4416204778, "lat": 34.2154189, "lon": 69.0972833, "tags": {"alt_name": "Muhammad Agha Wuluswali", "name": "\u062f\u0645\u062d\u0645\u062f\u0622\u063a\u064a \u0648\u0644\u0633\u0648\u0627\u0644\u064a", "name:en": "Mohammad Agha", "place": "town", "source:name": "GNS"}}, {"type": "node", "id": 4422385169, "lat": 34.364075, "lon": 69.39493, "tags": {"alt_name": "`Alaqahdari Khak-e Jabar;Khak Jabar", "name": "\u0639\u0644\u0627\u0642\u0647 \u062f\u0627\u0631\u06cc \u062e\u0627\u06a9 \u062c\u0628\u0627\u0631", "name:en": "Khake Jabar", "name:ps": "\u0639\u0644\u0627\u0642\u0647 \u062f\u0627\u0631\u06cc \u062e\u0627\u06a9 \u062c\u0628\u0627\u0631", "name:uk": "\u0425\u0430\u043a\u0456-\u0414\u0436\u0430\u0431\u0431\u0430\u0440", "place": "town", "source:name": "GNS"}}, {"type": "node", "id": 4422403669, "lat": 34.4938494, "lon": 69.2757331, "tags": {"name": "\u0628\u06af\u0631\u0627\u0645\u06cc", "name:ar": "\u0628\u0643\u0631\u0627\u0645\u064a", "name:azb": "\u0628\u06af\u0631\u0627\u0645\u06cc", "name:de": "Bagrami", "name:en": "Bagrami", "name:es": "Bagrami", "name:fa": "\u0628\u06af\u0631\u0627\u0645\u06cc", "name:ml": "\u0d2c\u0d17\u0d4d\u0d30\u0d3e\u0d2e\u0d3f", "name:pnb": "\u0628\u06af\u0631\u0627\u0645\u06cc", "name:ps": "\u0628\u06af\u0631\u0627\u0645\u064a", "name:ru": "\u0411\u0430\u0433\u0440\u0430\u043c\u0438", "name:ur": "\u0628\u06af\u0631\u0627\u0645\u06cc", "place": "town", "wikidata": "Q4842103", "wikipedia": "fa:\u0628\u06af\u0631\u0627\u0645\u06cc"}}, {"type": "node", "id": 5118329640, "lat": 34.2722674, "lon": 69.1393184}, {"type": "node", "id": 5226557321, "lat": 34.2048422, "lon": 69.0851946}, {"type": "node", "id": 5226557322, "lat": 34.2002675, "lon": 69.0721607}, {"type": "node", "id": 5226557323, "lat": 34.2076638, "lon": 69.0901138}, {"type": "node", "id": 5226557325, "lat": 34.2086391, "lon": 69.0900618}, {"type": "node", "id": 5226557326, "lat": 34.1958362, "lon": 69.083232}, {"type": "node", "id": 5226557327, "lat": 34.2043358, "lon": 69.0850514}, {"type": "node", "id": 5226557328, "lat": 34.2158299, "lon": 69.076457}, {"type": "node", "id": 5226557329, "lat": 34.2007731, "lon": 69.0840912}, {"type": "node", "id": 5226557330, "lat": 34.2007649, "lon": 69.0832312}, {"type": "node", "id": 5226557331, "lat": 34.2140134, "lon": 69.0795851}, {"type": "node", "id": 5226557332, "lat": 34.2070243, "lon": 69.089418}, {"type": "node", "id": 5226557333, "lat": 34.2012611, "lon": 69.0850621}, {"type": "node", "id": 5226557334, "lat": 34.1985638, "lon": 69.0751648}, {"type": "node", "id": 5226557335, "lat": 34.2038433, "lon": 69.0827393}, {"type": "node", "id": 5226557336, "lat": 34.2052503, "lon": 69.0855218}, {"type": "node", "id": 5226557337, "lat": 34.2007378, "lon": 69.0585136}, {"type": "node", "id": 5226557338, "lat": 34.2007199, "lon": 69.0812587}, {"type": "node", "id": 5226557339, "lat": 34.2034624, "lon": 69.0862514}, {"type": "node", "id": 5226557340, "lat": 34.2037102, "lon": 69.0845471}, {"type": "node", "id": 5226557341, "lat": 34.206239, "lon": 69.0824872}, {"type": "node", "id": 5226557342, "lat": 34.1972771, "lon": 69.0791773}, {"type": "node", "id": 5226557343, "lat": 34.2008314, "lon": 69.0812249}, {"type": "node", "id": 5226557344, "lat": 34.1976143, "lon": 69.0634489}, {"type": "node", "id": 5226557345, "lat": 34.2208105, "lon": 69.0643099}, {"type": "node", "id": 5226557346, "lat": 34.2056933, "lon": 69.0846544}, {"type": "node", "id": 5226557347, "lat": 34.2037191, "lon": 69.0847939}, {"type": "node", "id": 5226557348, "lat": 34.1954151, "lon": 69.0831288}, {"type": "node", "id": 5226557349, "lat": 34.2050323, "lon": 69.0855127}, {"type": "node", "id": 5226557350, "lat": 34.2005557, "lon": 69.0835386}, {"type": "node", "id": 5226557351, "lat": 34.2027918, "lon": 69.0812158}, {"type": "node", "id": 5226557352, "lat": 34.1984573, "lon": 69.0766668}, {"type": "node", "id": 5226557353, "lat": 34.2005823, "lon": 69.0837371}, {"type": "node", "id": 5226557354, "lat": 34.2044067, "lon": 69.0850299}, {"type": "node", "id": 5226557355, "lat": 34.2052681, "lon": 69.0851463}, {"type": "node", "id": 5226557356, "lat": 34.2057954, "lon": 69.0882861}, {"type": "node", "id": 5226557357, "lat": 34.2054538, "lon": 69.0847134}, {"type": "node", "id": 5226557358, "lat": 34.2038218, "lon": 69.0849371}, {"type": "node", "id": 5226557359, "lat": 34.2081423, "lon": 69.0907108}, {"type": "node", "id": 5226557360, "lat": 34.2219957, "lon": 69.0684469}, {"type": "node", "id": 5226557361, "lat": 34.2114755, "lon": 69.0847891}, {"type": "node", "id": 5226557362, "lat": 34.2098369, "lon": 69.0879911}, {"type": "node", "id": 5226557363, "lat": 34.2059868, "lon": 69.0529866}, {"type": "node", "id": 5226557364, "lat": 34.2057251, "lon": 69.0846099}, {"type": "node", "id": 5226557365, "lat": 34.2126524, "lon": 69.0824991}, {"type": "node", "id": 5226557366, "lat": 34.2084306, "lon": 69.0903997}, {"type": "node", "id": 5226557367, "lat": 34.2062619, "lon": 69.0818633}, {"type": "node", "id": 5226557368, "lat": 34.2147138, "lon": 69.0483539}, {"type": "node", "id": 5226557369, "lat": 34.2055336, "lon": 69.0846759}, {"type": "node", "id": 5226557370, "lat": 34.2035822, "lon": 69.0859349}, {"type": "node", "id": 5226557371, "lat": 34.1997837, "lon": 69.0823209}, {"type": "node", "id": 5226557372, "lat": 34.2006846, "lon": 69.0557885}, {"type": "node", "id": 5226557373, "lat": 34.2061288, "lon": 69.0817775}, {"type": "node", "id": 5226557374, "lat": 34.205121, "lon": 69.0855664}, {"type": "node", "id": 5226557375, "lat": 34.2052852, "lon": 69.0854376}, {"type": "node", "id": 5226557376, "lat": 34.2009195, "lon": 69.0840268}, {"type": "node", "id": 5226557377, "lat": 34.2055869, "lon": 69.0845954}, {"type": "node", "id": 5226557378, "lat": 34.1996819, "lon": 69.0697682}, {"type": "node", "id": 5226557379, "lat": 34.2054183, "lon": 69.0849656}, {"type": "node", "id": 5314901908, "lat": 34.2812645, "lon": 69.1491703}, {"type": "node", "id": 5314901909, "lat": 34.280959, "lon": 69.1507478}, {"type": "node", "id": 5314901910, "lat": 34.2818399, "lon": 69.15182}, {"type": "node", "id": 5314901911, "lat": 34.282568, "lon": 69.1513455}, {"type": "node", "id": 5314901912, "lat": 34.2826341, "lon": 69.1509511}, {"type": "node", "id": 5314901913, "lat": 34.2827971, "lon": 69.1501562}, {"type": "node", "id": 5314901914, "lat": 34.2832808, "lon": 69.1499837}, {"type": "node", "id": 5314901915, "lat": 34.2843194, "lon": 69.1502117}, {"type": "node", "id": 5314901916, "lat": 34.2841463, "lon": 69.149084}, {"type": "node", "id": 5314901917, "lat": 34.2839732, "lon": 69.1484986}, {"type": "node", "id": 5314901918, "lat": 34.2825629, "lon": 69.1479871}, {"type": "node", "id": 5314901919, "lat": 34.2815853, "lon": 69.147981}, {"type": "node", "id": 5314901920, "lat": 34.2813816, "lon": 69.1486095}, {"type": "node", "id": 5314902521, "lat": 34.2834057, "lon": 69.1500791}, {"type": "node", "id": 5314902522, "lat": 34.2832983, "lon": 69.1504613}, {"type": "node", "id": 5314902523, "lat": 34.2835065, "lon": 69.151315}, {"type": "node", "id": 5314902524, "lat": 34.28352, "lon": 69.1516077}, {"type": "node", "id": 5314902525, "lat": 34.2837081, "lon": 69.1520305}, {"type": "node", "id": 5314902526, "lat": 34.283614, "lon": 69.1522989}, {"type": "node", "id": 5314902527, "lat": 34.2843127, "lon": 69.1527054}, {"type": "node", "id": 5314902528, "lat": 34.2844269, "lon": 69.1526485}, {"type": "node", "id": 5314902529, "lat": 34.2846889, "lon": 69.1523233}, {"type": "node", "id": 5402945468, "lat": 34.6089739, "lon": 69.2800058, "tags": {"name": "\u0628\u062e\u062a\u06cc\u0627\u0631\u0627\u0646", "name:en": "Bakhtiaran", "place": "village"}}, {"type": "node", "id": 5402946743, "lat": 34.5803944, "lon": 69.256504, "tags": {"name": "\u062a\u0631\u0647 \u062e\u06cc\u0644", "name:en": "Tara Khil", "place": "village"}}, {"type": "node", "id": 5402954466, "lat": 34.605216, "lon": 69.2410445, "tags": {"name": "\u062f\u0647 \u06cc\u062d\u06cc\u06cc", "name:en": "Deh Yahya", "place": "village"}}, {"type": "node", "id": 5402991066, "lat": 34.6265223, "lon": 69.1200524, "tags": {"name": "\u0627\u0646\u062c\u06cc\u0631\u06a9", "name:en": "Injerak", "place": "village"}}, {"type": "node", "id": 5403018976, "lat": 34.6108242, "lon": 69.3522417, "tags": {"name": "\u06a9\u062a\u0647 \u062e\u06cc\u0644", "name:en": "Kata Khil", "place": "village"}}, {"type": "node", "id": 5403023383, "lat": 34.628306, "lon": 69.3567693, "tags": {"name": "\u0642\u0644\u0639\u0647 \u0642\u0627\u0636\u06cc", "name:en": "Qala Qazi", "place": "village"}}, {"type": "node", "id": 5403024621, "lat": 34.6321727, "lon": 69.3499243, "tags": {"name": "\u06cc\u06a9\u0647 \u062f\u0631\u062e\u062a", "name:en": "Yaka Darakht", "place": "village"}}, {"type": "node", "id": 5403034047, "lat": 34.626594, "lon": 69.4008329, "tags": {"name": "\u062e\u0648\u0627\u062c\u0647 \u063a\u0627\u0631", "name:en": "Khwaja Ghar", "place": "village"}}, {"type": "node", "id": 5534425785, "lat": 34.5623035, "lon": 68.8977043}, {"type": "node", "id": 5534425786, "lat": 34.5621179, "lon": 68.898863}, {"type": "node", "id": 5534425787, "lat": 34.5628248, "lon": 68.8997857}, {"type": "node", "id": 5534425788, "lat": 34.5629485, "lon": 68.9006011}, {"type": "node", "id": 5534425789, "lat": 34.563673, "lon": 68.9007406}, {"type": "node", "id": 5534425790, "lat": 34.562975, "lon": 68.8990589}, {"type": "node", "id": 5534425791, "lat": 34.5627894, "lon": 68.8984499}, {"type": "node", "id": 5534425792, "lat": 34.5627806, "lon": 68.8976721}, {"type": "node", "id": 5534518102, "lat": 34.5650412, "lon": 68.9217627}, {"type": "node", "id": 5534518103, "lat": 34.5651548, "lon": 68.9202276}, {"type": "node", "id": 5534518104, "lat": 34.5652874, "lon": 68.9202046}, {"type": "node", "id": 5534518105, "lat": 34.5653442, "lon": 68.9196757}, {"type": "node", "id": 5534518106, "lat": 34.5650933, "lon": 68.9195434}, {"type": "node", "id": 5534518107, "lat": 34.5654057, "lon": 68.9183131}, {"type": "node", "id": 5534518108, "lat": 34.5650933, "lon": 68.9174794}, {"type": "node", "id": 5534518109, "lat": 34.564099, "lon": 68.9177151}, {"type": "node", "id": 5534518110, "lat": 34.5639712, "lon": 68.9178071}, {"type": "node", "id": 5534518111, "lat": 34.563796, "lon": 68.9181808}, {"type": "node", "id": 5534518112, "lat": 34.5639522, "lon": 68.918957}, {"type": "node", "id": 5534518113, "lat": 34.5638528, "lon": 68.91921}, {"type": "node", "id": 5534518114, "lat": 34.564473, "lon": 68.9196412}, {"type": "node", "id": 5534518115, "lat": 34.5646577, "lon": 68.9200091}, {"type": "node", "id": 5534518116, "lat": 34.5646009, "lon": 68.9208543}, {"type": "node", "id": 5534518117, "lat": 34.5646529, "lon": 68.9218202}, {"type": "node", "id": 5618347886, "lat": 34.5625955, "lon": 68.898831}, {"type": "node", "id": 5795762976, "lat": 34.5083199, "lon": 69.2920368}, {"type": "node", "id": 5795762980, "lat": 34.5083883, "lon": 69.2882266}, {"type": "node", "id": 5795762981, "lat": 34.508444, "lon": 69.2880134}, {"type": "node", "id": 5795762982, "lat": 34.5084569, "lon": 69.2874256}, {"type": "node", "id": 5795762983, "lat": 34.5089884, "lon": 69.281314}, {"type": "node", "id": 5795762984, "lat": 34.5090912, "lon": 69.2809083}, {"type": "node", "id": 5795762985, "lat": 34.509218, "lon": 69.2806466}, {"type": "node", "id": 5795762986, "lat": 34.5172117, "lon": 69.286023}, {"type": "node", "id": 5795762987, "lat": 34.5211998, "lon": 69.287668}, {"type": "node", "id": 5795762988, "lat": 34.5214357, "lon": 69.2878345}, {"type": "node", "id": 5795762989, "lat": 34.5184747, "lon": 69.2924862}, {"type": "node", "id": 5795762990, "lat": 34.5170474, "lon": 69.2926156}, {"type": "node", "id": 5795762991, "lat": 34.5154074, "lon": 69.2929404}, {"type": "node", "id": 5795762992, "lat": 34.5148576, "lon": 69.2932628}, {"type": "node", "id": 5795762993, "lat": 34.5146042, "lon": 69.2933439}, {"type": "node", "id": 5795762994, "lat": 34.5126879, "lon": 69.2939113}, {"type": "node", "id": 5795762995, "lat": 34.5121049, "lon": 69.2934845}, {"type": "node", "id": 5795762996, "lat": 34.5116508, "lon": 69.2933072}, {"type": "node", "id": 5795762997, "lat": 34.5102726, "lon": 69.2927264}, {"type": "node", "id": 5795762998, "lat": 34.509777, "lon": 69.2924345}, {"type": "node", "id": 5795762999, "lat": 34.5079372, "lon": 69.2887853}, {"type": "node", "id": 5862995074, "lat": 34.4911043, "lon": 69.1946121, "tags": {"name": "\u0642\u0644\u0639\u0647 \u062d\u0634\u0645\u062a \u062e\u0627\u0646", "name:en": "Qala-e-Hashmat Khan", "name:fa": "\u0642\u0644\u0639\u0647 \u062d\u0634\u0645\u062a \u062e\u0627\u0646", "name:ps": "\u0642\u0644\u0639\u0647 \u062d\u0634\u0645\u062a \u062e\u0627\u0646", "place": "town"}}, {"type": "node", "id": 5862999221, "lat": 34.4850124, "lon": 69.2179892, "tags": {"name": "\u0628\u0646\u06cc \u062d\u0635\u0627\u0631", "name:en": "Beni Hesar", "place": "town"}}, {"type": "node", "id": 5985179694, "lat": 34.5456924, "lon": 69.2273747}, {"type": "node", "id": 6025012247, "lat": 34.5078815, "lon": 69.2847018}, {"type": "node", "id": 6025012248, "lat": 34.5075966, "lon": 69.2845529}, {"type": "node", "id": 6025012249, "lat": 34.5084626, "lon": 69.2831433}, {"type": "node", "id": 6025012250, "lat": 34.508243, "lon": 69.2838504}, {"type": "node", "id": 6025012251, "lat": 34.5080863, "lon": 69.2842173}, {"type": "node", "id": 6097997792, "lat": 34.5458635, "lon": 69.2271817}, {"type": "node", "id": 6097997793, "lat": 34.5460293, "lon": 69.2270457}, {"type": "node", "id": 6097997794, "lat": 34.5501832, "lon": 69.2308617}, {"type": "node", "id": 6097997795, "lat": 34.5504754, "lon": 69.2316254}, {"type": "node", "id": 6097997796, "lat": 34.5500001, "lon": 69.2319569}, {"type": "node", "id": 6097997797, "lat": 34.5483842, "lon": 69.232955}, {"type": "node", "id": 6097997798, "lat": 34.5475053, "lon": 69.2341396}, {"type": "node", "id": 6463241707, "lat": 34.2848308, "lon": 69.1504625}, {"type": "node", "id": 6513999695, "lat": 34.5468056, "lon": 69.2341454}, {"type": "node", "id": 6584872575, "lat": 34.6023859, "lon": 69.2284929, "tags": {"name": "\u067e\u0627\u06cc \u0645\u0646\u0627\u0631", "name:en": "Paymonar", "place": "village"}}, {"type": "node", "id": 7035634268, "lat": 34.275046, "lon": 69.1405882}, {"type": "node", "id": 7312572947, "lat": 34.4456847, "lon": 69.1190431}, {"type": "node", "id": 7316626511, "lat": 34.5204616, "lon": 69.2871559}, {"type": "node", "id": 7316626512, "lat": 34.5202373, "lon": 69.2868742}, {"type": "node", "id": 7316626513, "lat": 34.5201202, "lon": 69.2868206}, {"type": "node", "id": 7316626514, "lat": 34.5190218, "lon": 69.2870741}, {"type": "node", "id": 7316626515, "lat": 34.518403, "lon": 69.2871518}, {"type": "node", "id": 7316626516, "lat": 34.5182152, "lon": 69.2871317}, {"type": "node", "id": 7316626517, "lat": 34.5177256, "lon": 69.2869252}, {"type": "node", "id": 7316626518, "lat": 34.5176472, "lon": 69.2867763}, {"type": "node", "id": 7316626519, "lat": 34.5172836, "lon": 69.2862225}, {"type": "node", "id": 7316626520, "lat": 34.5168593, "lon": 69.2852193}, {"type": "node", "id": 7316626521, "lat": 34.5160217, "lon": 69.2843409}, {"type": "node", "id": 7316626522, "lat": 34.5152018, "lon": 69.2835993}, {"type": "node", "id": 7316626523, "lat": 34.514731, "lon": 69.283095}, {"type": "node", "id": 7316626524, "lat": 34.514668, "lon": 69.2829099}, {"type": "node", "id": 7316626525, "lat": 34.5146459, "lon": 69.2825143}, {"type": "node", "id": 7316626526, "lat": 34.5147708, "lon": 69.2819189}, {"type": "node", "id": 7316626527, "lat": 34.5147896, "lon": 69.2813918}, {"type": "node", "id": 7316626528, "lat": 34.5147277, "lon": 69.2812268}, {"type": "node", "id": 7316626529, "lat": 34.5144625, "lon": 69.2808795}, {"type": "node", "id": 7316626530, "lat": 34.5143299, "lon": 69.2807977}, {"type": "node", "id": 7316626531, "lat": 34.5141443, "lon": 69.2807561}, {"type": "node", "id": 7316626532, "lat": 34.5137497, "lon": 69.280905}, {"type": "node", "id": 7316626533, "lat": 34.5132326, "lon": 69.2813878}, {"type": "node", "id": 7316626534, "lat": 34.5126535, "lon": 69.2821388}, {"type": "node", "id": 7316626535, "lat": 34.5129696, "lon": 69.2817445}, {"type": "node", "id": 7316626536, "lat": 34.512427, "lon": 69.2825425}, {"type": "node", "id": 7316626537, "lat": 34.5121993, "lon": 69.2826793}, {"type": "node", "id": 7316626538, "lat": 34.5117883, "lon": 69.2828429}, {"type": "node", "id": 7316626539, "lat": 34.5113849, "lon": 69.2829421}, {"type": "node", "id": 7316626540, "lat": 34.5107473, "lon": 69.2828737}, {"type": "node", "id": 7316626541, "lat": 34.5106014, "lon": 69.2828067}, {"type": "node", "id": 7316626542, "lat": 34.510072, "lon": 69.2822313}, {"type": "node", "id": 7316626543, "lat": 34.5094134, "lon": 69.2807642}, {"type": "node", "id": 7316626875, "lat": 34.5188881, "lon": 69.2923848}, {"type": "node", "id": 7316626876, "lat": 34.5211146, "lon": 69.288725}, {"type": "node", "id": 7726056258, "lat": 34.5499833, "lon": 69.2306183}, {"type": "node", "id": 7726058095, "lat": 34.5475284, "lon": 69.2335318}, {"type": "node", "id": 7726058591, "lat": 34.5485352, "lon": 69.2328586}, {"type": "node", "id": 7726058592, "lat": 34.5491847, "lon": 69.2324093}, {"type": "node", "id": 7726101155, "lat": 34.5476333, "lon": 69.2277376}, {"type": "node", "id": 8299250698, "lat": 34.3804428, "lon": 69.4107954, "tags": {"name": "\u0634\u0645\u0627\u0646\u0632\u06cc", "name:en": "Shamanzai", "place": "village"}}, {"type": "node", "id": 8664098549, "lat": 34.4455033, "lon": 69.1176919}, {"type": "node", "id": 8798956906, "lat": 34.5483303, "lon": 69.2328995}, {"type": "node", "id": 8798956907, "lat": 34.5482375, "lon": 69.2329545}, {"type": "node", "id": 10199908218, "lat": 34.5465034, "lon": 69.2291836, "tags": {"name": "\u0642\u0644\u0639\u0647 \u0645\u062d\u0645\u062f \u062d\u0633\u0646 \u062e\u0627\u0646 \u0631\u06a9\u0627\u0647", "name:fa": "\u0642\u0644\u0639\u0647 \u0645\u062d\u0645\u062f \u062d\u0633\u0646 \u062e\u0627\u0646 \u0631\u06a9\u0627\u0647", "place": "village"}}, {"type": "way", "id": 43418293, "nodes": [3962127312, 3962127325, 3962127332, 3962127320, 3962127292, 547534677, 3962127308, 3962127302, 3962127289, 3962127294, 3962127298, 547534679, 3962127282, 547534682, 547534684, 3962127259, 3962127257, 3962127148, 3962127139, 547534686, 3962127145, 3962127266, 547534690, 3962127152, 3962127150, 3962127144, 3962127146, 547534693, 3962127134, 3962127128, 3962127138, 3962127127, 3962127110, 3962127090, 3962127086, 547534695, 3962127099, 3962127106, 3962127115, 3962127122, 3962127140, 3962127153, 547534698, 547534701, 3962127123, 3962127133, 3962127154, 3962127263, 3962127264, 3962127261, 547534665, 3962127276, 3962127281, 3962127287, 547534671, 3962127293, 547534673, 3962127319, 3962127323, 3962127340, 3962127330, 3962127316, 547534675, 3962127312], "tags": {"place": "village"}}, {"type": "way", "id": 43675620, "nodes": [7312572947, 552579902, 552579903, 552579904, 552579905, 552579866, 8664098549, 552579867, 552579873, 552579874, 552579872, 552579862, 552579863, 552579851, 552579807, 552579808, 3906979691, 3906979689, 3906979671, 3906979664, 3906979657, 3906979651, 3906979645, 3906979632, 3906979631, 3906979640, 3906979649, 3906979656, 3906979681, 3906979686, 3906979688, 3906979678, 3906979667, 3906979666, 3906979662, 3906979644, 3906979638, 3906979628, 3906979629], "tags": {"highway": "unclassified", "name": "Kiota Mayaki", "place": "village"}}, {"type": "way", "id": 347941308, "nodes": [3541536172, 3541536173, 3541536174, 3541536175, 3541536176, 7035634268, 3541536177, 3541536178, 3541536179, 3541536180, 3541536181, 3541536182, 3541536183, 3541536184, 3541536185, 3541536186, 3541536187, 3541536188, 3541536189, 5118329640, 3541536172], "tags": {"name": "\u0630\u0627\u0647\u062f\u0627\u0628\u0627\u062f", "place": "village"}}, {"type": "way", "id": 388702688, "nodes": [3918681806, 3918681802, 3918681798, 3918681796, 3918681793, 3918681788, 3918681795, 3918681794, 3918681791, 3918681792, 3918681787, 3918681784, 3918681783, 3918681785, 3918681786, 3918681789, 3918681790, 3918681797, 3918681800, 3918681803, 3918681808, 3918681809, 3918681812, 3918681807, 3918681805, 3918681810, 3918681806], "tags": {"place": "village"}}, {"type": "way", "id": 388702689, "nodes": [3918681670, 3918681671, 3918681668, 3918681669, 3918681672, 3918681675, 3918681674, 3918681680, 3918681681, 3918681686, 3918681693, 3918681689, 3918681692, 3918681702, 3918681707, 3918681705, 3918681694, 3918681696, 3918681700, 3918681699, 3918681703, 3918681698, 3918681701, 3918681697, 3918681704, 3918681695, 3918681691, 3918681687, 3918681690, 3918681688, 3918681684, 3918681682, 3918681678, 3918681676, 3918681670], "tags": {"place": "village"}}, {"type": "way", "id": 388702690, "nodes": [3918681778, 3918681772, 3918681760, 3918681753, 3918681761, 3918681764, 3918681769, 3918681771, 3918681765, 3918681757, 3918681755, 3918681747, 3918681743, 3918681744, 3918681737, 3918681738, 3918681739, 3918681742, 3918681748, 3918681752, 3918681758, 3918681756, 3918681759, 3918681762, 3918681766, 3918681770, 3918681768, 3918681773, 3918681781, 3918681774, 3918681776, 3918681780, 3918681779, 3918681777, 3918681782, 3918681778], "tags": {"place": "village"}}, {"type": "way", "id": 388702692, "nodes": [3918681662, 3918681661, 3918681659, 3918681657, 3918681656, 3918681654, 3918681652, 3918681649, 3918681648, 3918681646, 3918681635, 3918681641, 3918681640, 3918681629, 3918681625, 3918681622, 3918681621, 3918681620, 3918681619, 3918681623, 3918681624, 3918681626, 3918681628, 3918681630, 3918681639, 3918681637, 3918681645, 3918681647, 3918681644, 3918681636, 3918681643, 3918681638, 3918681634, 3918681632, 3918681627, 3918681633, 3918681631, 3918681642, 3918681651, 3918681650, 3918681653, 3918681655, 3918681658, 3918681660, 3918681663, 3918681662], "tags": {"place": "village"}}, {"type": "way", "id": 540202461, "nodes": [5226557348, 5226557326, 5226557333, 5226557376, 5226557329, 5226557353, 5226557350, 5226557330, 5226557371, 5226557338, 5226557343, 5226557351, 5226557335, 5226557373, 5226557367, 5226557341, 5226557364, 5226557346, 5226557377, 5226557369, 5226557357, 5226557379, 5226557355, 5226557375, 5226557336, 5226557374, 5226557349, 5226557321, 5226557354, 5226557327, 5226557358, 5226557347, 5226557340, 5226557370, 5226557339, 5226557356, 5226557332, 5226557323, 5226557359, 5226557366, 5226557325, 5226557362, 5226557361, 5226557365, 5226557331, 5226557328, 5226557360, 5226557345, 5226557368, 5226557363, 5226557372, 5226557337, 5226557344, 5226557378, 5226557322, 5226557334, 5226557352, 5226557342, 5226557348], "tags": {"name": "Mohammad Afgha", "name:fa": "\u062f\u0647 \u0645\u062d\u0645\u062f\u0622\u063a\u0647", "place": "village"}}, {"type": "way", "id": 550264872, "nodes": [5314901908, 5314901909, 5314901910, 5314901911, 5314901912, 5314901913, 5314901914, 5314901915, 5314901916, 5314901917, 5314901918, 5314901919, 5314901920, 5314901908], "tags": {"name": "Qal\u2018ah-ye Marah", "place": "village"}}, {"type": "way", "id": 550264873, "nodes": [5314902521, 5314902522, 5314902523, 5314902524, 5314902525, 5314902526, 5314902527, 5314902528, 5314902529, 6463241707, 5314902521], "tags": {"name": "Kan\u1e0fw\u0101lah", "place": "village"}}, {"type": "way", "id": 577268924, "nodes": [5534425785, 5534425786, 5534425787, 5534425788, 5534425789, 5534425790, 5618347886, 5534425791, 5534425792, 5534425785], "tags": {"place": "village"}}, {"type": "way", "id": 577280398, "nodes": [5534518102, 5534518103, 5534518104, 5534518105, 5534518106, 5534518107, 5534518108, 5534518109, 5534518110, 5534518111, 5534518112, 5534518113, 5534518114, 5534518115, 5534518116, 5534518117, 5534518102], "tags": {"place": "village"}}, {"type": "way", "id": 612258102, "nodes": [536240701, 536240698, 536240684, 536240682, 536240712, 536240710, 536240709, 536240674, 7316626875, 536240672, 536240670, 536240668, 5795762989, 536240666, 536240658, 536240656, 536240654, 536240643, 5795762990, 536240624, 536240602, 5795762991, 536240575, 5795762992, 5795762993, 536240547, 536240540, 536240501, 536240499, 536240496, 5795762994, 536240491, 5795762995, 5795762996, 536240437, 536240433, 5795762997, 536240429, 5795762998, 5795762976, 536240408, 536240299, 5795762999, 536240275, 5795762980, 5795762981, 5795762982, 536240257, 536240250, 536240237, 536240233, 6025012248, 6025012247, 6025012251, 6025012250, 6025012249, 5795762983, 5795762984, 5795762985]}, {"type": "way", "id": 649808842, "nodes": [3953667437, 4189955193, 4189955192, 3954115441, 3954115458, 4190004153, 4190004172, 4190004179, 4190009528, 4190009544, 4190009547, 4190009555, 4190009567, 5985179694, 6097997792, 6097997793, 4190009811, 4190009846, 3954115541, 1916542468, 7726101155, 1916542473, 4189928267, 1916542476, 4189928275, 4189928280, 1916542480, 7726056258, 1916542482, 6097997794, 6097997795, 6097997796, 7726058592, 7726058591, 6097997797, 8798956906, 8798956907, 3127063869, 7726058095, 3953667453, 6097997798, 6513999695, 25911227, 3953667437], "tags": {"name": "qali M.hasan khan Reka", "name:fa": "\u0642\u0644\u0639\u0647 \u0645\u062d\u0645\u062f \u062d\u0633\u0646 \u062e\u0627\u0646 \u0631\u06cc\u06a9\u0627\u0647", "place": "village", "population": "5000"}}, {"type": "way", "id": 783416086, "nodes": [5795762985, 7316626543, 81518730, 7316626542, 81518732, 7316626541, 7316626540, 81518733, 7316626539, 7316626538, 81518734, 7316626537, 7316626536, 81518735, 7316626534, 7316626535, 7316626533, 81518736, 7316626532, 81518737, 7316626531, 7316626530, 7316626529, 81518738, 7316626528, 7316626527, 81518739, 7316626526, 81518740, 7316626525, 81518741, 7316626524, 7316626523, 81518742, 7316626522, 81518743, 7316626521, 81518744, 7316626520, 81518745, 5795762986, 7316626519, 81518746, 7316626518, 7316626517, 81518747, 7316626516, 7316626515, 81518748, 7316626514, 81518749, 81518750, 7316626513, 7316626512, 81518751, 7316626511, 81518752, 5795762987, 5795762988], "tags": {"alt_name": "\u062f\u0631\u06cc\u0627\u06cc \u0644\u0647\u0648\u06af\u0631\u062f;Darya Logar;Darya-ye Lowgar;Longar;Darya-i-Logar;Darya-ye Logar;Logar Rud;Darya-ye Lhogard", "int_name": "Logar", "name": "\u062f\u0631\u06cc\u0627\u06cc \u0644\u0648\u06af\u0631", "name:en": "Logar River", "name:ps": "\u062f\u0631\u06cc\u0627\u06cc \u0644\u0648\u06af\u0631", "name:ru": "Logar", "source:name": "GNS", "waterway": "river"}}, {"type": "way", "id": 783416087, "nodes": [5795762988, 7316626876, 536240701]}, {"type": "relation", "id": 10876304, "members": [{"type": "way", "ref": 612258102, "role": "outer"}, {"type": "way", "ref": 783416087, "role": "outer"}, {"type": "way", "ref": 783416086, "role": "outer"}], "tags": {"name": "\u0639\u0632\u062a \u0645\u06cc\u0646\u0647", "name:en": "Ezat Mina", "name:fa": "\u0639\u0632\u062a \u0645\u06cc\u0646\u0647", "place": "town", "population": "11000", "type": "multipolygon"}}]}