{"version": 0.6, "generator": "Overpass API 0.7.61.5 4133829e", "osm3s": {"timestamp_osm_base": "2024-03-05T13:42:59Z", "copyright": "The data included in this document is from www.openstreetmap.org. The data is made available under ODbL."}, "elements": [{"type": "node", "id": 617270698, "lat": 33.5820547, "lon": 67.989268, "tags": {"name": "Shamsuddin", "place": "village"}}, {"type": "node", "id": 3919487969, "lat": 33.5731951, "lon": 68.1946072}, {"type": "node", "id": 4414460241, "lat": 33.709014, "lon": 68.210612, "tags": {"alt_name": "Husain Khel;Hoseyn Kheyl;Hosayn Khel;Hosaynkhel;\u062d\u0633\u064a\u0646 \u062e\u064a\u0644", "name": "\u062d\u0633\u06cc\u0646 \u062e\u06d0\u0644", "name:en": "Hussain Khel", "name:ps": "\u062d\u0633\u06cc\u0646 \u062e\u06d0\u0644", "name:ru": "Khuseynkheyl'", "place": "village", "source:name": "GNS"}}, {"type": "node", "id": 5544484803, "lat": 33.5772988, "lon": 68.1937471}, {"type": "node", "id": 5544484804, "lat": 33.5769185, "lon": 68.1924863}, {"type": "node", "id": 5544484805, "lat": 33.5736132, "lon": 68.1955079}, {"type": "node", "id": 5544484806, "lat": 33.5757322, "lon": 68.1956927}, {"type": "node", "id": 7644594286, "lat": 33.3413923, "lon": 67.8674286, "tags": {"place": "hamlet"}}, {"type": "node", "id": 7726153000, "lat": 33.4564462, "lon": 68.3636624, "tags": {"name": "\u0632\u0644\u0632\u0644\u0647", "name:en": "Zelzelah", "name:ru": "\u0417\u0438\u043b\u0437\u0438\u043b\u0430\u0445", "place": "hamlet"}}, {"type": "node", "id": 7726153001, "lat": 33.4522537, "lon": 68.3557924, "tags": {"name": "\u067e\u0627\u064a\u0647", "name:en": "Paya", "name:ru": "\u041f\u0430\u0439\u044f", "place": "hamlet"}}, {"type": "node", "id": 7726153107, "lat": 33.439406, "lon": 68.3594835, "tags": {"name": "\u0646\u0635\u0631 \u0627\u0644\u062f\u064a\u0646", "name:en": "Nasruddin", "name:ru": "\u041d\u0430\u0441\u0440\u0443\u0434\u0434\u0438\u043d", "place": "hamlet"}}, {"type": "node", "id": 7726153108, "lat": 33.4415691, "lon": 68.3380044, "tags": {"name": "\u0643\u0627\u0628\u0644\u06cc", "name:en": "Kabuli", "name:ru": "\u041a\u0430\u0431\u0443\u043b\u0438", "place": "hamlet"}}, {"type": "node", "id": 7731927177, "lat": 33.3577366, "lon": 68.2237535, "tags": {"name": "\u0628\u062f\u0631\u06cc", "name:en": "Badray", "name:ru": "\u0411\u0430\u0434\u0440\u0430\u0439", "place": "hamlet"}}, {"type": "node", "id": 7731927178, "lat": 33.3646322, "lon": 68.2275856, "tags": {"name": "\u0642\u0644\u0639\u0647\u0654 \u0635\u062f\u064a\u0642", "name:en": "Suddikkala", "name:ru": "\u0421\u0430\u0434\u0434\u0438\u043a\u043a\u0430\u043b\u0430", "place": "hamlet"}}, {"type": "node", "id": 7731927179, "lat": 33.3600901, "lon": 68.2365743, "tags": {"name": "\u0633\u067e\u064a\u0631\u0647", "name:en": "Spera", "name:ru": "\u0421\u043f\u0435\u0440\u0430", "place": "hamlet"}}, {"type": "node", "id": 7731927180, "lat": 33.3631496, "lon": 68.2411391, "tags": {"name": "\u0642\u0644\u0639\u0647\u0654 \u062c\u0627\u0646 \u062e\u0627\u0646", "name:en": "Dzhankhankala", "name:ru": "\u0414\u0436\u0430\u043d\u043a\u0445\u0430\u043d\u043a\u0430\u043b\u0430", "place": "hamlet"}}, {"type": "node", "id": 7959954819, "lat": 33.3549404, "lon": 67.9983579, "tags": {"place": "village"}}, {"type": "node", "id": 7959955099, "lat": 33.3921898, "lon": 67.9670298, "tags": {"place": "hamlet"}}, {"type": "node", "id": 11587201161, "lat": 33.4066339, "lon": 68.2234813, "tags": {"name": "\u0646\u06cc\u06a9\u0632\u0627\u06cc\u06cc", "place": "village", "population": "350"}}, {"type": "way", "id": 578742274, "nodes": [5544484803, 5544484804, 3919487969, 5544484805, 5544484806, 5544484803], "tags": {"name": "\u062c\u063a\u062a\u0648\u06cc \u063a\u0632\u0646\u06cc", "name:en": "Jaghat\u016by Ghazn\u012b", "place": "village"}}]}