{"version": 0.6, "generator": "Overpass API 0.7.61.5 4133829e", "osm3s": {"timestamp_osm_base": "2024-03-05T15:08:58Z", "copyright": "The data included in this document is from www.openstreetmap.org. The data is made available under ODbL."}, "elements": [{"type": "node", "id": 360392049, "lat": 65.6510674, "lon": 18.5494091, "tags": {"name": "Renviken", "name:sju": "Sarvade", "name:sv": "Renviken", "place": "hamlet"}}, {"type": "node", "id": 2226880778, "lat": 65.8435542, "lon": 18.0233878, "tags": {"name": "Mellanstr\u00f6m", "name:sju": "Vakssamsuoloj", "name:sv": "Mellanstr\u00f6m", "place": "hamlet", "ref:se:pts:postort": "MELLANSTR\u00d6M"}}, {"type": "node", "id": 2308057106, "lat": 65.6365344, "lon": 18.1075846, "tags": {"name": "Sjuln\u00e4s", "place": "hamlet"}}, {"type": "node", "id": 2403838802, "lat": 65.6406438, "lon": 18.3608688, "tags": {"name": "Gull\u00f6n", "name:sju": "Gu\u00f6lliekluoktta", "name:sv": "Gull\u00f6n", "place": "hamlet"}}, {"type": "node", "id": 2659592891, "lat": 65.9727474, "lon": 18.7919435, "tags": {"name": "Br\u00e4nnholmen", "place": "hamlet"}}, {"type": "node", "id": 2659622984, "lat": 65.8962945, "lon": 18.817213, "tags": {"name": "\u00d6stansj\u00f6", "place": "hamlet"}}, {"type": "node", "id": 2747163314, "lat": 65.9750086, "lon": 18.9050347, "tags": {"name": "Br\u00e4nnudden", "place": "hamlet"}}, {"type": "node", "id": 2790027523, "lat": 66.0307293, "lon": 18.8229015, "tags": {"name": "Abraure", "name:sje": "\u00c1br\u00e1vrre", "name:sv": "Abraure", "place": "hamlet"}}, {"type": "node", "id": 2858134366, "lat": 65.6313151, "lon": 17.9667719, "tags": {"name": "Nyliden", "place": "hamlet"}}, {"type": "node", "id": 2900662050, "lat": 65.6465315, "lon": 18.5274187, "tags": {"name": "Ersn\u00e4s", "name:sju": "Skuohttuo", "name:sv": "Ersn\u00e4s", "place": "hamlet"}}, {"type": "node", "id": 2901111382, "lat": 65.8572842, "lon": 18.0117241, "tags": {"name": "Kasker", "name:sju": "Gasskure", "name:sv": "Kasker", "place": "hamlet"}}, {"type": "node", "id": 2973187388, "lat": 65.7796691, "lon": 18.2078976, "tags": {"name": "L\u00e5ngviken", "place": "hamlet"}}, {"type": "node", "id": 2974250074, "lat": 65.6480273, "lon": 18.104196, "tags": {"name": "Str\u00f6mholm", "name:sju": "Guojkkasuoluoj", "name:sv": "Str\u00f6mholm", "place": "hamlet"}}, {"type": "node", "id": 2974284007, "lat": 65.6852559, "lon": 18.1802208, "tags": {"name": "S\u00f6dra Bergn\u00e4s", "place": "hamlet"}}, {"type": "node", "id": 3032443535, "lat": 65.9968636, "lon": 17.9142698, "tags": {"name": "Kurrokvejk", "name:sje": "Guvrraguojkka", "name:sv": "Kurrokvejk", "place": "hamlet"}}, {"type": "node", "id": 3032482044, "lat": 65.9243441, "lon": 17.9139971, "tags": {"name": "\u00c5nge", "place": "hamlet"}}, {"type": "node", "id": 3510213801, "lat": 65.7508318, "lon": 18.0658178, "tags": {"name": "Kall\u00f6n", "place": "hamlet"}}, {"type": "node", "id": 3510213838, "lat": 65.9052972, "lon": 17.8882771, "tags": {"name": "Bellon\u00e4s", "name:sju": "Be\u00e4lluonju\u00f6nies", "name:sv": "Bellon\u00e4s", "place": "hamlet"}}, {"type": "node", "id": 5273264990, "lat": 65.9908466, "lon": 18.210675, "tags": {"name": "Radnejaur", "name:sje": "R\u00e1dn\u00e1vrre", "name:sv": "Radnejaur", "place": "hamlet"}}, {"type": "node", "id": 5273264992, "lat": 65.9980099, "lon": 18.1682885, "tags": {"name": "V\u00e4stra Radnejaur", "name:sje": "Jilep R\u00e1dn\u00e1vrre", "name:sv": "V\u00e4stra Radnejaur", "place": "hamlet"}}, {"type": "node", "id": 5460580156, "lat": 65.7392532, "lon": 18.0478035, "tags": {"name": "Gran\u00e5s", "place": "hamlet"}}, {"type": "node", "id": 9104056445, "lat": 65.6555592, "lon": 18.2465958, "tags": {"name": "Skeutik", "name:sje": "Skievdieke", "place": "hamlet"}}, {"type": "node", "id": 9105656622, "lat": 65.7279981, "lon": 18.3676815, "tags": {"name": "Storbodsund", "name:sje": "Guorbbanjuon\u00e1", "place": "hamlet"}}, {"type": "node", "id": 9118102769, "lat": 66.0535246, "lon": 18.018415, "tags": {"name": "Stork\u00e5lmis", "name:sje": "Stuor G\u00e5lmesj\u00e1vrre", "place": "hamlet"}}]}