{"version": 0.6, "generator": "Overpass API 0.7.61.5 4133829e", "osm3s": {"timestamp_osm_base": "2024-03-05T14:35:12Z", "copyright": "The data included in this document is from www.openstreetmap.org. The data is made available under ODbL."}, "elements": [{"type": "node", "id": 23181925, "lat": 58.9107092, "lon": 11.1121906, "tags": {"amenity": "ferry_terminal", "ferry": "yes", "name": "Styrs\u00f6", "network": "V\u00e4sttrafik", "operator": "Koster Marin AB", "public_transport": "stop_position"}}, {"type": "node", "id": 23182867, "lat": 58.9234497, "lon": 11.130805, "tags": {"amenity": "ferry_terminal", "ferry": "yes", "name": "\u00d6dd\u00f6", "network": "V\u00e4sttrafik", "operator": "Koster Marin AB", "public_transport": "stop_position"}}, {"type": "node", "id": 23187772, "lat": 58.8935543, "lon": 11.0488383, "tags": {"amenity": "ferry_terminal", "ferry": "yes", "name": "Eken\u00e4s", "network": "V\u00e4sttrafik", "operator": "Koster Marin AB", "public_transport": "stop_position"}}, {"type": "node", "id": 23727878, "lat": 59.0114686, "lon": 11.0172948, "tags": {"amenity": "ferry_terminal", "name": "Lauer"}}, {"type": "node", "id": 23728536, "lat": 59.0241648, "lon": 11.0999362, "tags": {"amenity": "ferry_terminal", "name": "Gravningsund"}}, {"type": "node", "id": 23729584, "lat": 59.0019956, "lon": 11.0568324, "tags": {"amenity": "ferry_terminal", "name": "Herf\u00f8l"}}, {"type": "node", "id": 461169217, "lat": 58.9334579, "lon": 11.1696885, "tags": {"amenity": "ferry_terminal", "cargo": "passengers;vehicle", "name": "Str\u00f6mstad-Sandefjord"}}, {"type": "node", "id": 475597343, "lat": 59.0168376, "lon": 11.0638977, "tags": {"amenity": "ferry_terminal", "name": "Nedg\u00e5rden S\u00f8ndre Sand\u00f8y"}}, {"type": "node", "id": 475597363, "lat": 59.0280259, "lon": 11.0946414, "tags": {"amenity": "ferry_terminal", "name": "Nordre Sand\u00f8y"}}, {"type": "node", "id": 944641648, "lat": 58.8784962, "lon": 11.0528017, "tags": {"amenity": "ferry_terminal", "ferry": "yes", "name": "Kilesand", "network": "V\u00e4sttrafik", "operator": "Koster Marin AB", "public_transport": "stop_position"}}, {"type": "node", "id": 944642641, "lat": 58.8931481, "lon": 11.0102919, "tags": {"amenity": "ferry_terminal", "ferry": "yes", "name": "V\u00e4stra Bryggan", "network": "V\u00e4sttrafik", "operator": "Koster Marin AB", "public_transport": "stop_position"}}, {"type": "node", "id": 944642643, "lat": 58.8915002, "lon": 11.0078174, "tags": {"amenity": "ferry_terminal", "ferry": "yes", "name": "L\u00e5ngeg\u00e4rde", "network": "V\u00e4sttrafik", "operator": "Koster Marin AB", "public_transport": "stop_position"}}, {"type": "node", "id": 1348489470, "lat": 58.8933132, "lon": 11.0113929, "tags": {"amenity": "ferry_terminal", "cargo": "passengers", "name": "Kosterl\u00e4nken"}}, {"type": "node", "id": 1348489955, "lat": 58.89247, "lon": 11.011242, "tags": {"amenity": "ferry_terminal", "cargo": "passengers", "ferry:cable": "yes", "name": "Kosterl\u00e4nken"}}, {"type": "node", "id": 1871130223, "lat": 58.9396395, "lon": 11.1690925, "tags": {"amenity": "ferry_terminal", "ferry": "yes", "name": "Norra Hamnen", "network": "V\u00e4sttrafik", "public_transport": "stop_position", "wheelchair": "limited"}}, {"type": "node", "id": 1871130226, "lat": 59.02465, "lon": 11.0374249, "tags": {"amenity": "ferry_terminal", "ferry": "yes", "name": "Skj\u00e6rhalden", "public_transport": "station"}}, {"type": "node", "id": 1871130363, "lat": 59.0243901, "lon": 11.037282, "tags": {"amenity": "ferry_terminal", "ferry": "yes", "name": "Skj\u00e6rhalden", "operator": "Nadir Hvaler Fjordcruise", "public_transport": "station"}}, {"type": "node", "id": 4712589308, "lat": 58.9032972, "lon": 11.0207671, "tags": {"amenity": "ferry_terminal", "ferry": "yes", "name": "Vettnet", "network": "V\u00e4sttrafik", "operator": "Koster Marin AB", "public_transport": "stop_position"}}]}