{"version": 0.6, "generator": "Overpass API 0.7.61.5 4133829e", "osm3s": {"timestamp_osm_base": "2024-03-05T13:43:59Z", "copyright": "The data included in this document is from www.openstreetmap.org. The data is made available under ODbL."}, "elements": [{"type": "node", "id": 387420855, "lat": 34.5296448, "lon": 69.1707771, "tags": {"addr:city": "\u0643\u0627\u0628\u0644", "amenity": "bank", "brand": "\u0645\u06cc\u0648\u0646\u062f \u0628\u06cc\u0646\u06a9", "brand:ur": "\u0645\u06cc\u0648\u0646\u062f \u0628\u06cc\u0646\u06a9", "brand:website": "http://www.maiwandbank.com/", "name": "\u0645\u06cc\u0648\u0646\u062f \u0628\u06cc\u0646\u06a9", "name:en": "Maiwand Bank", "name:ur": "\u0645\u06cc\u0648\u0646\u062f \u0628\u06cc\u0646\u06a9", "operator": "\u0645\u06cc\u0648\u0646\u062f \u0628\u06cc\u0646\u06a9", "operator:ur": "\u0645\u06cc\u0648\u0646\u062f \u0628\u06cc\u0646\u06a9", "operator:website": "http://www.maiwandbank.com/"}}, {"type": "node", "id": 538329505, "lat": 34.5207577, "lon": 69.1790131}, {"type": "node", "id": 538329507, "lat": 34.5205069, "lon": 69.179608}, {"type": "node", "id": 538329516, "lat": 34.5210578, "lon": 69.1795208}, {"type": "node", "id": 538329518, "lat": 34.5209844, "lon": 69.179695}, {"type": "node", "id": 538329524, "lat": 34.5208445, "lon": 69.1798177}, {"type": "node", "id": 538329526, "lat": 34.5209145, "lon": 69.1796515}, {"type": "node", "id": 1411100544, "lat": 34.5138175, "lon": 69.1718869}, {"type": "node", "id": 1411100548, "lat": 34.5131856, "lon": 69.1719151}, {"type": "node", "id": 1411100554, "lat": 34.5138288, "lon": 69.172259}, {"type": "node", "id": 1732050345, "lat": 34.5294963, "lon": 69.171026, "tags": {"addr:city": "\u0643\u0627\u0628\u0644", "amenity": "bank", "atm": "yes", "brand": "\u0627\u0641\u063a\u0627\u0646\u0633\u062a\u0627\u0646 \u0628\u06cc\u0646 \u0627\u0644\u0627\u0642\u0648\u0627\u0645\u06cc \u0628\u06cc\u0646\u06a9", "brand:ar": "\u0628\u0646\u0643 \u0623\u0641\u063a\u0627\u0646\u0633\u062a\u0627\u0646 \u0627\u0644\u062f\u0648\u0644\u064a", "brand:ur": "\u0627\u0641\u063a\u0627\u0646\u0633\u062a\u0627\u0646 \u0628\u06cc\u0646 \u0627\u0644\u0627\u0642\u0648\u0627\u0645\u06cc \u0628\u06cc\u0646\u06a9", "brand:wikidata": "Q4689147", "brand:wikipedia": "ar:\u0628\u0646\u0643 \u0623\u0641\u063a\u0627\u0646\u0633\u062a\u0627\u0646 \u0627\u0644\u062f\u0648\u0644\u064a", "brand:wikipedia:ar": "\u0628\u0646\u0643 \u0623\u0641\u063a\u0627\u0646\u0633\u062a\u0627\u0646 \u0627\u0644\u062f\u0648\u0644\u064a", "name": "\u0627\u0641\u063a\u0627\u0646\u0633\u062a\u0627\u0646 \u0628\u06cc\u0646 \u0627\u0644\u0627\u0642\u0648\u0627\u0645\u06cc \u0628\u06cc\u0646\u06a9", "name:ar": "\u0628\u0646\u0643 \u0623\u0641\u063a\u0627\u0646\u0633\u062a\u0627\u0646 \u0627\u0644\u062f\u0648\u0644\u064a", "name:fa": "\u0628\u0627\u0646\u06a9 \u0628\u06cc\u0646\u200c\u0627\u0644\u0645\u0644\u0644\u06cc \u0627\u0641\u063a\u0627\u0646\u0633\u062a\u0627\u0646", "name:ur": "\u0627\u0641\u063a\u0627\u0646\u0633\u062a\u0627\u0646 \u0628\u06cc\u0646 \u0627\u0644\u0627\u0642\u0648\u0627\u0645\u06cc \u0628\u06cc\u0646\u06a9", "operator": "\u0627\u0641\u063a\u0627\u0646\u0633\u062a\u0627\u0646 \u0628\u06cc\u0646 \u0627\u0644\u0627\u0642\u0648\u0627\u0645\u06cc \u0628\u06cc\u0646\u06a9", "operator:ar": "\u0628\u0646\u0643 \u0623\u0641\u063a\u0627\u0646\u0633\u062a\u0627\u0646 \u0627\u0644\u062f\u0648\u0644\u064a", "operator:ur": "\u0627\u0641\u063a\u0627\u0646\u0633\u062a\u0627\u0646 \u0628\u06cc\u0646 \u0627\u0644\u0627\u0642\u0648\u0627\u0645\u06cc \u0628\u06cc\u0646\u06a9", "operator:wikidata": "Q4689147", "operator:wikipedia": "ar:\u0628\u0646\u0643 \u0623\u0641\u063a\u0627\u0646\u0633\u062a\u0627\u0646 \u0627\u0644\u062f\u0648\u0644\u064a", "operator:wikipedia:ar": "\u0628\u0646\u0643 \u0623\u0641\u063a\u0627\u0646\u0633\u062a\u0627\u0646 \u0627\u0644\u062f\u0648\u0644\u064a"}}, {"type": "node", "id": 2053897529, "lat": 34.5208018, "lon": 69.1789992, "tags": {"addr:city": "\u06a9\u0627\u0628\u0644", "addr:street": "\u062c\u0627\u062f\u06c1 \u062e\u0627\u0646 \u0639\u0644\u0648\u0645", "amenity": "bank", "brand": "\u0628\u06cc\u0646\u06a9 \u0645\u0644\u06cc \u0627\u06cc\u0631\u0627\u0646", "brand:ar": "\u0627\u0644\u0628\u0646\u0643 \u0627\u0644\u0648\u0637\u0646\u064a \u0627\u0644\u0625\u064a\u0631\u0627\u0646\u064a", "brand:ur": "\u0628\u06cc\u0646\u06a9 \u0645\u0644\u06cc \u0627\u06cc\u0631\u0627\u0646", "brand:wikidata": "Q806640", "brand:wikipedia": "ar:\u0627\u0644\u0628\u0646\u0643 \u0627\u0644\u0648\u0637\u0646\u064a \u0627\u0644\u0625\u064a\u0631\u0627\u0646\u064a", "brand:wikipedia:ar": "\u0627\u0644\u0628\u0646\u0643 \u0627\u0644\u0648\u0637\u0646\u064a \u0627\u0644\u0625\u064a\u0631\u0627\u0646\u064a", "name": "\u0628\u06cc\u0646\u06a9 \u0645\u0644\u06cc \u0627\u06cc\u0631\u0627\u0646", "name:en": "Bank Melli Iran", "name:fa": "\u0628\u0627\u0646\u06a9 \u0645\u0644\u06cc \u0627\u06cc\u0631\u0627\u0646", "name:ur": "\u0628\u06cc\u0646\u06a9 \u0645\u0644\u06cc \u0627\u06cc\u0631\u0627\u0646", "operator:ar": "\u0627\u0644\u0628\u0646\u0643 \u0627\u0644\u0648\u0637\u0646\u064a \u0627\u0644\u0625\u064a\u0631\u0627\u0646\u064a", "operator:ur": "\u0628\u06cc\u0646\u06a9 \u0645\u0644\u06cc \u0627\u06cc\u0631\u0627\u0646", "operator:wikipedia": "ar:\u0627\u0644\u0628\u0646\u0643 \u0627\u0644\u0648\u0637\u0646\u064a \u0627\u0644\u0625\u064a\u0631\u0627\u0646\u064a", "operator:wikipedia:ar": "\u0627\u0644\u0628\u0646\u0643 \u0627\u0644\u0648\u0637\u0646\u064a \u0627\u0644\u0625\u064a\u0631\u0627\u0646\u064a"}}, {"type": "node", "id": 2295254812, "lat": 34.5308452, "lon": 69.1779218}, {"type": "node", "id": 2295262349, "lat": 34.5310125, "lon": 69.1775617}, {"type": "node", "id": 2295262351, "lat": 34.5311028, "lon": 69.1780981}, {"type": "node", "id": 2295262352, "lat": 34.53127, "lon": 69.177738}, {"type": "node", "id": 4358685891, "lat": 34.579696, "lon": 69.0876096, "tags": {"amenity": "bank"}}, {"type": "node", "id": 4984869122, "lat": 34.5191075, "lon": 69.1021069, "tags": {"addr:housenumber": "1100", "addr:street": "Company Road", "amenity": "bank", "email": "akbarumar.ltd@gmail.com", "name:en": "Akbar umar ltd", "name:fa": "\u0634\u0631\u0643\u062a \u0627\u0643\u0628\u0631 \u0639\u0645\u0631", "opening_hours": "Sa-Th 07:00-18:00", "operator": "Dawood Musazai", "phone": "+93798858800", "website": "https://akbarumarltd.business.site/"}}, {"type": "node", "id": 5674732223, "lat": 34.5289618, "lon": 69.0910524, "tags": {"addr:street": "Qargha Road", "amenity": "bank", "name:en": "\u062f \u0639\u0632\u06cc\u0632\u064a \u0628\u0627\u0646\u06a9 \u062f\u0642\u0645\u0628\u0631 \u0685\u0644\u0648\u0631 \u0644\u0627\u0631\u06cc \u0685\u0627\u0646\u06ab\u0647"}}, {"type": "node", "id": 5973845659, "lat": 34.4997195, "lon": 69.0692875, "tags": {"amenity": "bank", "atm": "yes", "name": "\u0639\u0632\u06cc\u0632\u06cc \u0628\u0627\u0646\u06a9", "name:en": "Azizi Bank"}}, {"type": "node", "id": 5973859660, "lat": 34.4992591, "lon": 69.0649644, "tags": {"amenity": "bank", "name": "AIB Bank"}}, {"type": "node", "id": 5973861485, "lat": 34.5017452, "lon": 69.0802369, "tags": {"amenity": "bank", "atm": "yes", "name": "\u0628\u0627\u0646\u06a9 \u0627\u0633\u0644\u0627\u0645\u06cc", "name:en": "Islamic Bank"}}, {"type": "node", "id": 6383501271, "lat": 34.5811658, "lon": 69.0911476, "tags": {"amenity": "bank", "name:en": "Azizi bank"}}, {"type": "node", "id": 6572895467, "lat": 34.519098, "lon": 69.1756043, "tags": {"amenity": "bank", "name": "Pashtany Bank", "name:en": "Pashtany Bank"}}, {"type": "node", "id": 6572895473, "lat": 34.5187196, "lon": 69.1747012, "tags": {"amenity": "bank", "name": "\u0646\u0645\u0627\u06cc\u0646\u062f\u0647 \u06af\u06cc \u0646\u0648\u06cc \u06a9\u0627\u0628\u0644 \u0628\u0627\u0646\u06a9", "name:en": "New Kabul Bank", "name:ru": "\u041d\u043e\u0432\u044b\u0439 \u0431\u0430\u043d\u043a \u0432 \u041a\u0430\u0431\u0443\u043b\u0435"}}, {"type": "node", "id": 6572895478, "lat": 34.5197561, "lon": 69.1739063, "tags": {"amenity": "bank", "name": "\u0628\u0627\u0646\u06a9 \u0628\u06cc\u0646 \u0627\u0644\u0645\u0644\u0644\u06cc \u0627\u0641\u063a\u0627\u0646\u0633\u062a\u0627\u0646", "name:en": "AIB - Afghanistan International Bank"}}, {"type": "node", "id": 7498188321, "lat": 34.5515897, "lon": 69.1534892, "tags": {"amenity": "bank", "email": "info@ibafg.af", "name": "\u0628\u0627\u0646\u06a9 \u0627\u0633\u0644\u0627\u0645\u06cc \u0627\u0641\u063a\u0627\u0646\u0633\u062a\u0627\u0646", "name:en": "Islamic Bank of Afghanistan", "phone": "+93 776 777 000", "website": "http://www.ibafg.com/home"}}, {"type": "node", "id": 7514425929, "lat": 34.5338412, "lon": 69.1779527, "tags": {"amenity": "bank", "name": "Ghazanfar Bank", "name:fa": "\u063a\u0636\u0646\u0641\u0631 \u0628\u0627\u0646\u06a9"}}, {"type": "node", "id": 7514444084, "lat": 34.530875, "lon": 69.1776792, "tags": {"amenity": "bank", "name": "Azizi Bank", "name:fa": "\u0639\u0632\u06cc\u0632\u06cc \u0628\u0627\u0646\u06a9"}}, {"type": "node", "id": 7514478505, "lat": 34.5362245, "lon": 69.1855975, "tags": {"amenity": "bank", "name": "Bank-e-Meli Afghanistan", "name:fa": "\u0627\u0641\u063a\u0627\u0646 \u0645\u0644\u06cc \u0628\u0627\u0646\u06a9"}}, {"type": "node", "id": 7602272818, "lat": 34.5321309, "lon": 69.144164, "tags": {"amenity": "bank", "name": "Pashtani Bank"}}, {"type": "node", "id": 7619750017, "lat": 34.5361083, "lon": 69.1850442}, {"type": "node", "id": 7619750018, "lat": 34.5360983, "lon": 69.185137}, {"type": "node", "id": 7619750019, "lat": 34.5362013, "lon": 69.1851609}, {"type": "node", "id": 7619750020, "lat": 34.5362205, "lon": 69.185013}, {"type": "node", "id": 7619750021, "lat": 34.5361979, "lon": 69.1849691}, {"type": "node", "id": 7812520985, "lat": 34.5160914, "lon": 69.321769, "tags": {"amenity": "bank", "name:ar": "\u0639\u0632\u064a\u0632\u064a \u0628\u064a\u0646\u06a9", "name:en": "Azizi Bank"}}, {"type": "node", "id": 7867634079, "lat": 34.5305937, "lon": 69.1698352, "tags": {"amenity": "bank", "name": "\u0627\u0641\u063a\u0627\u0646 \u06cc\u0648\u0646\u0627\u06cc\u062a\u062f \u0628\u0627\u0646\u06a9", "name:en": "Afghan United Bank"}}, {"type": "node", "id": 7867649876, "lat": 34.5303193, "lon": 69.1703074, "tags": {"amenity": "bank", "name": "\u0646\u0648\u06cc \u06a9\u0627\u0628\u0644 \u0628\u0627\u0646\u06a9", "name:en": "New Kabul Bank"}}, {"type": "node", "id": 8058364427, "lat": 34.5150855, "lon": 69.2001358}, {"type": "node", "id": 8058364428, "lat": 34.5150902, "lon": 69.2002235}, {"type": "node", "id": 8058364429, "lat": 34.5149993, "lon": 69.2002306}, {"type": "node", "id": 8058364430, "lat": 34.5149946, "lon": 69.200143}, {"type": "node", "id": 8420052230, "lat": 34.5429231, "lon": 69.1676732, "tags": {"amenity": "bank", "branch": "\u0642\u0644\u0639\u0647 \u0641\u062a\u062d\u200c\u0627\u0644\u0644\u0647", "brand": "\u0628\u0627\u0646\u06a9 \u0627\u0633\u0644\u0627\u0645\u06cc \u0627\u0641\u063a\u0627\u0646\u0633\u062a\u0627\u0646", "contact:email": "qalaifathullah@ibafg.af", "contact:phone": "+93792990174", "name": "\u0628\u0627\u0646\u06a9 \u0627\u0633\u0644\u0627\u0645\u06cc \u0627\u0641\u063a\u0627\u0646\u0633\u062a\u0627\u0646", "name:en": "Islamic Bank of Afghanistan"}}, {"type": "node", "id": 8495832863, "lat": 34.5238417, "lon": 69.2027664, "tags": {"amenity": "bank", "name": "\u0628\u0627\u0646\u06a9 \u0627\u0633\u0644\u0627\u0645\u06cc \u0627\u0641\u063a\u0627\u0646\u0633\u062a\u0627\u0646", "name:en": "Islamic Bank of Afghanistan"}}, {"type": "node", "id": 8560633987, "lat": 34.5312456, "lon": 69.1687149, "tags": {"amenity": "bank", "branch": "\u0634\u0647\u0631 \u0646\u0648", "name": "\u0639\u0632\u06cc\u0632\u06cc \u0628\u0627\u0646\u06a9"}}, {"type": "node", "id": 8560675333, "lat": 34.5311711, "lon": 69.1688221, "tags": {"amenity": "bank", "branch": "\u0634\u0647\u0631\u0646\u0648", "name": "\u0628\u0627\u0646\u06a9 \u0627\u0633\u0644\u0627\u0645\u06cc \u0627\u0641\u063a\u0627\u0646\u0633\u062a\u0627\u0646"}}, {"type": "node", "id": 8609689204, "lat": 34.5131969, "lon": 69.1722872}, {"type": "node", "id": 8612117449, "lat": 34.5045829, "lon": 69.1358355, "tags": {"amenity": "bank", "atm": "yes", "name": "\u0642\u0636\u0646\u0641\u0631 \u0628\u0627\u0646\u06a9"}}, {"type": "node", "id": 8612135511, "lat": 34.5326547, "lon": 69.1436444, "tags": {"amenity": "bank", "name": "\u0628\u0627\u0646\u06a9 \u0627\u0633\u0644\u0627\u0645\u06cc \u0627\u0641\u063a\u0627\u0646\u0633\u062a\u0627\u0646"}}, {"type": "node", "id": 8616833199, "lat": 34.5278394, "lon": 69.171552, "tags": {"addr:city": "\u0643\u0627\u0628\u0644", "amenity": "bank", "atm": "yes", "brand": "\u0628\u06cc\u0646\u06a9 \u0627\u0644\u0641\u0644\u0627\u062d", "brand:ur": "\u0628\u06cc\u0646\u06a9 \u0627\u0644\u0641\u0644\u0627\u062d", "brand:wikidata": "Q4855895", "brand:wikipedia": "ur:\u0628\u06cc\u0646\u06a9 \u0627\u0644\u0641\u0644\u0627\u062d", "brand:wikipedia:ur": "\u0628\u06cc\u0646\u06a9 \u0627\u0644\u0641\u0644\u0627\u062d", "name": "\u0628\u06cc\u0646\u06a9 \u0627\u0644\u0641\u0644\u0627\u062d", "name:en": "Bank Alfalah", "name:fa": "\u0628\u0627\u0646\u06a9 \u0627\u0644\u0641\u0644\u0627\u062d", "name:ks": "\u0628\u06cc\u0646\u06a9 \u0627\u0644\u0641\u0644\u0627\u062d", "name:ur": "\u0628\u06cc\u0646\u06a9 \u0627\u0644\u0641\u0644\u0627\u062d", "operator": "\u0628\u06cc\u0646\u06a9 \u0627\u0644\u0641\u0644\u0627\u062d", "operator:ur": "\u0628\u06cc\u0646\u06a9 \u0627\u0644\u0641\u0644\u0627\u062d", "operator:wikidata": "Q4855895", "operator:wikipedia": "ur:\u0628\u06cc\u0646\u06a9 \u0627\u0644\u0641\u0644\u0627\u062d", "operator:wikipedia:ur": "\u0628\u06cc\u0646\u06a9 \u0627\u0644\u0641\u0644\u0627\u062d"}}, {"type": "node", "id": 8639558097, "lat": 34.515905, "lon": 69.1419245, "tags": {"amenity": "bank", "name": "\u0628\u0627\u0646\u06a9 \u0627\u0633\u0644\u0627\u0645\u06cc \u0627\u0641\u063a\u0627\u0646\u0633\u062a\u0627\u0646"}}, {"type": "node", "id": 8639701755, "lat": 34.5045969, "lon": 69.1359546, "tags": {"amenity": "bank", "branch": "\u06a9\u0627\u0631\u062a\u0647 \u0633\u0647", "name": "\u0639\u0632\u06cc\u0632\u06cc \u0628\u0627\u0646\u06a9"}}, {"type": "node", "id": 8639760941, "lat": 34.5047652, "lon": 69.1345859, "tags": {"amenity": "bank", "branch": "\u06a9\u0627\u0631\u062a\u0647 \u0633\u0647", "brand": "\u0645\u06cc\u0648\u0646\u062f \u0628\u0627\u0646\u06a9", "name": "\u0645\u06cc\u0648\u0646\u062f \u0628\u0627\u0646\u06a9"}}, {"type": "node", "id": 8639825884, "lat": 34.5061207, "lon": 69.1405296, "tags": {"amenity": "bank", "atm": "yes", "name": "\u0628\u0627\u0646\u06a9 \u0628\u06cc\u0646\u200c\u0627\u0644\u0645\u0644\u0644\u06cc \u0627\u0641\u063a\u0627\u0646\u0633\u062a\u0627\u0646"}}, {"type": "node", "id": 8704057852, "lat": 34.5208404, "lon": 69.1793857}, {"type": "node", "id": 8704057853, "lat": 34.5209477, "lon": 69.1791311}, {"type": "node", "id": 8933552044, "lat": 34.5003974, "lon": 69.1420403, "tags": {"amenity": "bank", "atm": "no", "brand": "\u0628\u0627\u0646\u06a9 \u0645\u0644\u06cc \u0627\u0641\u063a\u0627\u0646", "brand:en": "Bank-e-Millie Afghan", "brand:ps": "\u062f\u0627\u0641\u063a\u0627\u0646 \u0645\u0644\u06cc \u0628\u0627\u0646\u06a9", "name": "\u0628\u0627\u0646\u06a9 \u0645\u0644\u06cc \u0627\u0641\u063a\u0627\u0646", "name:en": "Bank-e-Millie Afghan", "name:ps": "\u062f\u0627\u0641\u063a\u0627\u0646 \u0645\u0644\u06cc \u0628\u0627\u0646\u06a9"}}, {"type": "node", "id": 8953108239, "lat": 34.5350947, "lon": 69.1952823, "tags": {"amenity": "bank", "name": "Afghan United Bank"}}, {"type": "node", "id": 8953109131, "lat": 34.5352218, "lon": 69.1949527, "tags": {"amenity": "bank", "name": "\u0628\u0627\u0646\u06a9 \u0627\u0633\u0644\u0627\u0645\u06cc \u0627\u0641\u063a\u0627\u0646\u0633\u062a\u0627\u0646"}}, {"type": "node", "id": 8953109536, "lat": 34.5351628, "lon": 69.1951121, "tags": {"amenity": "bank", "name": "\u0639\u0632\u06cc\u0632\u06cc \u0628\u0627\u0646\u06a9"}}, {"type": "node", "id": 11027475289, "lat": 34.5306478, "lon": 69.163041, "tags": {"addr:city": "\u0643\u0627\u0628\u0644", "addr:street": "\u0642\u0648\u0627\u06cc \u0645\u0631\u06a9\u0632", "amenity": "bank", "name": "Islamic bank"}}, {"type": "way", "id": 42979775, "nodes": [538329505, 8704057853, 8704057852, 538329516, 538329518, 538329526, 538329524, 538329507, 538329505], "tags": {"addr:city": "\u06a9\u0627\u0628\u0644", "addr:street": "\u062c\u0627\u062f\u06c1 \u062e\u0627\u0646 \u0639\u0644\u0648\u0645", "amenity": "bank", "brand": "\u0645\u0631\u06a9\u0632\u06cc \u0628\u06cc\u0646\u06a9 \u0627\u0641\u063a\u0627\u0646\u0633\u062a\u0627\u0646", "brand:ar": "\u0627\u0644\u0645\u0635\u0631\u0641 \u0627\u0644\u0645\u0631\u0643\u0632\u064a \u0627\u0644\u0623\u0641\u063a\u0627\u0646\u064a", "brand:ur": "\u0645\u0631\u06a9\u0632\u06cc \u0628\u06cc\u0646\u06a9 \u0627\u0641\u063a\u0627\u0646\u0633\u062a\u0627\u0646", "brand:wikidata": "Q1156372", "brand:wikipedia": "ar:\u0627\u0644\u0645\u0635\u0631\u0641 \u0627\u0644\u0645\u0631\u0643\u0632\u064a \u0627\u0644\u0623\u0641\u063a\u0627\u0646\u064a", "brand:wikipedia:ar": "\u0627\u0644\u0645\u0635\u0631\u0641 \u0627\u0644\u0645\u0631\u0643\u0632\u064a \u0627\u0644\u0623\u0641\u063a\u0627\u0646\u064a", "building": "yes", "name": "\u062f \u0627\u0641\u063a\u0627\u0646\u0633\u062a\u0627\u0646 \u0628\u0627\u0646\u06a9", "name:ar": "\u0627\u0644\u0645\u0635\u0631\u0641 \u0627\u0644\u0645\u0631\u0643\u0632\u064a \u0627\u0644\u0623\u0641\u063a\u0627\u0646\u064a", "name:de": "Da Afghanistan Bank", "name:en": "Da Afghanistan Bank", "name:fa": "\u0628\u0627\u0646\u06a9 \u0645\u0631\u06a9\u0632\u06cc \u0627\u0641\u063a\u0627\u0646\u0633\u062a\u0627\u0646", "name:ps": "\u062f \u0627\u0641\u063a\u0627\u0646\u0633\u062a\u0627\u0646 \u0628\u0627\u0646\u06a9", "name:ru": "\u0414\u0430 \u0410\u0444\u0433\u0430\u043d\u0438\u0441\u0442\u0430\u043d \u0431\u0430\u043d\u043a", "name:uk": "\u0414\u0430 \u0410\u0444\u0433\u0430\u043d\u0456\u0441\u0442\u0430\u043d \u0431\u0430\u043d\u043a", "name:ur": "\u0645\u0631\u06a9\u0632\u06cc \u0628\u06cc\u0646\u06a9 \u0627\u0641\u063a\u0627\u0646\u0633\u062a\u0627\u0646", "operator": "\u0645\u0631\u06a9\u0632\u06cc \u0628\u06cc\u0646\u06a9 \u0627\u0641\u063a\u0627\u0646\u0633\u062a\u0627\u0646", "operator:ar": "\u0627\u0644\u0645\u0635\u0631\u0641 \u0627\u0644\u0645\u0631\u0643\u0632\u064a \u0627\u0644\u0623\u0641\u063a\u0627\u0646\u064a", "operator:ur": "\u0645\u0631\u06a9\u0632\u06cc \u0628\u06cc\u0646\u06a9 \u0627\u0641\u063a\u0627\u0646\u0633\u062a\u0627\u0646", "operator:wikidata": "Q1156372", "operator:wikipedia": "ar:\u0627\u0644\u0645\u0635\u0631\u0641 \u0627\u0644\u0645\u0631\u0643\u0632\u064a \u0627\u0644\u0623\u0641\u063a\u0627\u0646\u064a", "operator:wikipedia:ar": "\u0627\u0644\u0645\u0635\u0631\u0641 \u0627\u0644\u0645\u0631\u0643\u0632\u064a \u0627\u0644\u0623\u0641\u063a\u0627\u0646\u064a"}}, {"type": "way", "id": 127502827, "nodes": [1411100544, 1411100548, 8609689204, 1411100554, 1411100544], "tags": {"amenity": "bank", "name": "Agricultural Development Bank"}}, {"type": "way", "id": 220400178, "nodes": [2295262349, 2295262352, 2295262351, 2295254812, 2295262349], "tags": {"addr:housename": "AZIZI Bank", "amenity": "bank", "atm": "yes", "building": "yes", "description": "Main Branch", "name": "AZIZI Bank", "name:fa": "\u0628\u0627\u0646\u06a9 \u0639\u0632\u06cc\u0632\u06cc"}}, {"type": "way", "id": 815860828, "nodes": [7619750021, 7619750020, 7619750019, 7619750018, 7619750017, 7619750021], "tags": {"amenity": "bank", "building": "yes", "building:levels": "2", "name": "\u0639\u0632\u06cc\u0632\u06cc \u0628\u0627\u0646\u06a9", "name:en": "Azizi Bank"}}, {"type": "way", "id": 864555064, "nodes": [8058364430, 8058364427, 8058364428, 8058364429, 8058364430], "tags": {"amenity": "bank", "building": "yes"}}]}