{"version": 0.6, "generator": "Overpass API 0.7.61.5 4133829e", "osm3s": {"timestamp_osm_base": "2024-03-05T14:46:30Z", "copyright": "The data included in this document is from www.openstreetmap.org. The data is made available under ODbL."}, "elements": [{"type": "node", "id": 1400859476, "lat": 58.0317518, "lon": 12.808223, "tags": {"addr:city": "V\u00e5rg\u00e5rda", "addr:country": "SE", "addr:housenumber": "51", "addr:street": "Kungsgatan", "amenity": "bank", "atm": "yes", "name": "Sparbanken Alings\u00e5s", "wheelchair": "yes"}}, {"type": "node", "id": 1649278089, "lat": 58.0781687, "lon": 13.0253752, "tags": {"addr:city": "Herrljunga", "addr:country": "SE", "addr:housenumber": "21", "addr:postcode": "524 30", "addr:street": "Storgatan", "amenity": "bank", "brand": "Handelsbanken", "brand:wikidata": "Q1421630", "brand:wikipedia": "sv:Handelsbanken", "name": "Handelsbanken"}}, {"type": "node", "id": 3099935614, "lat": 58.0330647, "lon": 12.8088292, "tags": {"addr:city": "V\u00e5rg\u00e5rda", "addr:country": "SE", "addr:housenumber": "42", "addr:postcode": "44730", "addr:street": "Kungsgatan", "amenity": "bank", "atm": "no", "brand": "Handelsbanken", "brand:wikidata": "Q1421630", "brand:wikipedia": "sv:Handelsbanken", "name": "Handelsbanken"}}, {"type": "node", "id": 3627025136, "lat": 58.0780614, "lon": 13.0223339, "tags": {"amenity": "bank", "atm": "yes", "name": "Sparbanken Alings\u00e5s"}}, {"type": "node", "id": 7578614029, "lat": 58.1878692, "lon": 12.7208152, "tags": {"addr:city": "Nossebro", "addr:country": "SE", "addr:housenumber": "3A", "addr:postcode": "465 31", "addr:street": "J\u00e4rnv\u00e4gsgatan", "amenity": "bank", "name": "Sparbanken Skaraborg", "opening_hours": "Mo-We,Fr 09:30-15:00; Th 09:30-18:00", "website": "https://www.sparbankenskaraborg.se/kontakt/vara-kontor/nossebro.html"}}]}