{"version": 0.6, "generator": "Overpass API 0.7.61.5 4133829e", "osm3s": {"timestamp_osm_base": "2024-03-05T11:10:29Z", "copyright": "The data included in this document is from www.openstreetmap.org. The data is made available under ODbL."}, "elements": [{"type": "node", "id": 2024377423, "lat": 4.8940235, "lon": -1.7539123, "tags": {"amenity": "bank", "name": "Agricultural Bank"}}, {"type": "node", "id": 2024377432, "lat": 4.8941175, "lon": -1.7528964}, {"type": "node", "id": 2024377446, "lat": 4.8983402, "lon": -1.7633869, "tags": {"amenity": "bank", "name": "Essam"}}, {"type": "node", "id": 2024377459, "lat": 4.8839904, "lon": -1.7489994, "tags": {"amenity": "bank", "name": "Mac Bab"}}, {"type": "node", "id": 2024377634, "lat": 4.8970576, "lon": -1.7599569, "tags": {"addr:city": "Takoradi", "air_conditioning": "yes", "amenity": "bank", "atm": "yes", "branch": "Takoradi", "check_date": "2023-03-14", "description": "Bank", "drive_through": "no", "internet_access": "yes", "name": "GCB", "opening_hours": "08:30-16:00", "operator": "GCB", "payment:mastercard": "yes", "payment:visa": "yes", "source": "local knowledge", "wheelchair": "limited"}}, {"type": "node", "id": 2024377650, "lat": 4.8954787, "lon": -1.7552716, "tags": {"addr:city": "Takoradi", "amenity": "bank", "atm": "yes", "internet_access": "yes", "name": "National Investment Bank", "operator": "NIB Bank", "short_name": "NIB"}}, {"type": "node", "id": 2024377662, "lat": 4.8813799, "lon": -1.7506818, "tags": {"amenity": "bank", "name": "Standard"}}, {"type": "node", "id": 2107211931, "lat": 4.899093, "lon": -1.7590356, "tags": {"amenity": "bank", "name": "Stanbic Bank Takoradi", "phone": "+233312030542"}}, {"type": "node", "id": 3778854175, "lat": 4.8972575, "lon": -1.7583971, "tags": {"addr:city": "Takoradi", "amenity": "bank", "atm": "yes", "name": "SG Ghana Takoradi Main", "opening_hours": "08:30-16:00", "operator": "Societe Generale"}}, {"type": "node", "id": 3780153939, "lat": 4.8969203, "lon": -1.7579647, "tags": {"addr:city": "Takoradi", "amenity": "bank", "atm": "yes", "drive_through": "yes", "name": "Abii National", "opening_hours": "8:30 - 4:00", "operator": "Abii National"}}, {"type": "node", "id": 3780189773, "lat": 4.8964, "lon": -1.7579804, "tags": {"addr:city": "Sekondi-Takoradi", "addr:country": "GH", "addr:region": "Western", "addr:street": "Ako Adjei Avenue", "addr:suburb": "Takoradi", "alt_name": "Absa - Takoradi Liberation Road Branch", "amenity": "bank", "atm": "yes", "branch": "Takoradi Liberation Road", "brand": "Absa", "brand:wikidata": "Q58641733", "brand:wikipedia": "en:Absa Group Limited", "contact:instagram": "absaghana", "contact:linkedin": "absa-ghana", "contact:twitter": "AbsaGhana", "contact:whatsapp": "+233 50 164 4644", "contact:youtube": "https://www.youtube.com/channel/UCKpKPyfJ69tf7lnxudpzKJQ", "email": "service.excellence.GH@absa.africa", "facebook": "AbsaGhana", "name": "Absa", "old_name": "Barclays Bank", "opening_hours": "Mo-Fr 08:30-16:30; PH off", "operator": "Absa Bank Ghana Limited", "operator:type": "public", "operator:wikidata": "Q96371413", "operator:wikipedia": "en:Absa Bank Ghana", "phone": "+233 30 397 8387", "website": "https://www.absa.com.gh"}}, {"type": "node", "id": 3780201466, "lat": 4.8937857, "lon": -1.7534403, "tags": {"addr:city": "Takoradi", "amenity": "bank", "atm": "yes", "brand": "Access Bank", "brand:wikidata": "Q4672418", "brand:wikipedia": "en:Access Bank plc", "drive_through": "yes", "name": "Access Bank", "name:it": "Access", "operator": "Access Bank"}}, {"type": "node", "id": 3780213890, "lat": 4.8949516, "lon": -1.7559205, "tags": {"addr:city": "Takoradi", "amenity": "bank", "atm": "yes", "drive_through": "yes", "name": "Energy Bank", "opening_hours": "08:30-16:00", "operator": "Energy Bank"}}, {"type": "node", "id": 3780221157, "lat": 4.8950852, "lon": -1.7558561, "tags": {"amenity": "bank", "atm": "yes", "drive_through": "yes", "name": "Omini Bank", "opening_hours": "08:30-16:00", "operator": "Sahel Sahara Bank"}}, {"type": "node", "id": 3780225396, "lat": 4.8953524, "lon": -1.7559741, "tags": {"addr:city": "Takoradi", "amenity": "bank", "brand": "GCB Bank", "brand:wikidata": "Q1521346", "brand:wikipedia": "en:GCB Bank", "name": "GCB Bank", "opening_hours": "08:30-16:00"}}, {"type": "node", "id": 3780227883, "lat": 4.8956024, "lon": -1.7567286, "tags": {"addr:city": "Takoradi", "amenity": "bank", "atm": "yes", "drive_through": "yes", "name": "FBN Bank", "name:it": "FBN", "opening_hours": "08:30-16:00", "operator": "FBN Bank"}}, {"type": "node", "id": 3780264157, "lat": 4.8967583, "lon": -1.7574413, "tags": {"addr:city": "Takoradi", "amenity": "bank", "atm": "yes", "brand": "GT Bank", "brand:wikidata": "Q579747", "brand:wikipedia": "en:Guaranty Trust Bank", "drive_through": "yes", "name": "GT Bank", "official_name": "Guaranty Trust Bank", "opening_hours": "Mo-Fr 08:00-16:30", "operator": "Guaranty Trust Bank Ghana Limited"}}, {"type": "node", "id": 3780275768, "lat": 4.8966281, "lon": -1.7575198, "tags": {"addr:city": "Takoradi", "amenity": "bank", "atm": "yes", "brand": "Fidelity Bank", "brand:wikidata": "Q5446778", "brand:wikipedia": "en:Fidelity Bank Ghana", "drive_through": "yes", "name": "Fidelity Bank", "opening_hours": "08:30-16:00", "operator": "Fidelity Bank"}}, {"type": "node", "id": 3780287868, "lat": 4.8962588, "lon": -1.7602514, "tags": {"addr:city": "Takoradi", "amenity": "bank", "atm": "yes", "name": "Womens World Bank", "opening_hours": "08:30-16:00", "operator": "Womens World Bank"}}, {"type": "node", "id": 3780319058, "lat": 4.8961356, "lon": -1.7605738, "tags": {"addr:city": "Sekondi-Takoradi", "addr:country": "GH", "addr:region": "Western", "addr:street": "Pakos Road", "addr:suburb": "Takoradi", "alt_name": "Ecobank - Takoradi Market Circle Branch", "amenity": "bank", "atm": "yes", "branch": "Takoradi Market Circle", "brand": "Ecobank", "brand:wikidata": "Q930225", "brand:wikipedia": "en:Ecobank", "contact:facebook": "EcobankGhanaPLC", "contact:instagram": "ecobankghanaplc", "contact:linkedin": "ecobankghanaplc", "contact:twitter": "EcobankGhanaPLC", "contact:youtube": "ecobanktv", "email": "ecobankenquiries@ecobank.com", "facebook": "https://www.facebook.com/EcobankGhanaPLC/", "name": "Ecobank", "opening_hours": "Mo-Fr 08:30-16:00; Sa 09:00-14:00; PH off", "operator": "Ecobank Ghana PLC", "operator:type": "public", "operator:wikidata": "Q5333155", "operator:wikipedia": "en:Ecobank Ghana", "phone": "+233 31 202 9325;+23 31 202 9326", "website": "https://ecobank.com/gh/personal-banking"}}, {"type": "node", "id": 3780978463, "lat": 4.899051, "lon": -1.7614855, "tags": {"addr:city": "Takoradi", "air_conditioning": "yes", "amenity": "bank", "atm": "yes", "branch": "Takoradi", "brand": "Zenith Bank", "brand:wikidata": "Q5978240", "brand:wikipedia": "en:Zenith Bank", "check_date": "2023-03-14", "currency:EUR": "yes", "currency:GHS": "yes", "currency:USD": "yes", "drive_through": "no", "internet_access": "yes", "name": "Zenith Bank", "name:it": "Zenith", "opening_hours": "08:30-16:00", "operator": "Zenith Bank", "payment:mastercard": "yes", "payment:visa": "yes", "source": "local knowledge;survey"}}, {"type": "node", "id": 3780995285, "lat": 4.8997317, "lon": -1.7598912, "tags": {"addr:city": "Takoradi", "amenity": "bank", "atm": "yes", "drive_through": "yes", "name": "Republic Bank", "old_name": "hfc bank", "opening_hours": "08:30-16:00", "operator": "Republic Bank (Ghana) Limited"}}, {"type": "node", "id": 3781036804, "lat": 4.8999255, "lon": -1.7635677, "tags": {"addr:city": "Takoradi", "amenity": "bank", "name": "GN Bank", "opening_hours": "08:30-16:00", "operator": "GN Bank"}}, {"type": "node", "id": 3781045658, "lat": 4.8994143, "lon": -1.7626108, "tags": {"addr:city": "Takoradi", "amenity": "bank", "atm": "yes", "drive_through": "yes", "name": "Prudential Bank", "opening_hours": "08:30-16:00", "operator": "Prudential Bank"}}, {"type": "node", "id": 3782573539, "lat": 4.8996262, "lon": -1.7630956, "tags": {"addr:city": "Sekondi-Takoradi", "addr:country": "GH", "addr:postbox": "P. O. Box MC 0102, Takoradi", "addr:region": "Western", "addr:street": "Liberation Road", "addr:suburb": "Market Circle", "alt_name": "Standard Chartered - Liberation Road Branch", "amenity": "bank", "atm": "yes", "branch": "Liberation Road", "brand": "Standard Chartered", "brand:wikidata": "Q548278", "brand:wikipedia": "en:Standard Chartered", "contact:instagram": "stanchartgh", "contact:linkedin": "standardchartered", "contact:twitter": "StanChartGH", "description": "Adjacent All Needs Supermarket, near Market Circle Takoradi", "email": "feedback.ghana@sc.com", "facebook": "StandardCharteredGH", "name": "Standard Chartered", "opening_hours": "Mo-Fr 08:30-15:00; PH off", "operator": "Standard Chartered Ghana", "operator:type": "public", "operator:wikidata": "Q7598195", "operator:wikipedia": "en:Standard Chartered Ghana", "phone": "+233 30 261 0750; 233 30 263 3393; +233 30 263 3428; +233 30 274 0100", "website": "https://www.sc.com/gh"}}, {"type": "node", "id": 3782584424, "lat": 4.8978204, "lon": -1.7614405, "tags": {"addr:city": "Takoradi", "air_conditioning": "yes", "amenity": "bank", "atm": "yes", "branch": "Takoradi", "check_date": "2023-03-14", "description": "Savings and Loans", "drive_through": "no", "email": "info@bestpointgh.com", "internet_access": "yes", "name": "Best Point", "opening_hours": "8:30 -4:00", "operator": "Best Point", "payment:mastercard": "yes", "payment:visa": "yes", "source": "local knowledge;survey", "website": "https://wwwbestpoint.com", "wheelchair": "no"}}, {"type": "node", "id": 3782620653, "lat": 4.8993883, "lon": -1.7600696, "tags": {"addr:city": "Takoradi", "amenity": "bank", "atm": "yes", "brand": "Ecobank", "brand:wikidata": "Q930225", "brand:wikipedia": "en:Ecobank", "drive_through": "yes", "name": "Ecobank", "opening_hours": "08:30-16:00", "operator": "Ecobank"}}, {"type": "node", "id": 3782622554, "lat": 4.899558, "lon": -1.7602551, "tags": {"addr:city": "Takoradi", "amenity": "bank", "atm": "yes", "drive_through": "yes", "name": "Union Savings & Loans", "operator": "Union Savings & Loans"}}, {"type": "node", "id": 4288059428, "lat": 4.8969099, "lon": -1.7601731, "tags": {"air_conditioning": "yes", "amenity": "bank", "atm": "yes", "branch": "Takoradi", "brand": "Bank of Africa", "brand:wikidata": "Q2882627", "brand:wikipedia": "en:Bank of Africa Group", "check_date": "2023-03-14", "description": "Bank", "drive_through": "no", "internet_access": "yes", "name": "Bank of Africa", "opening_hours": "Mo-Fr 08:00-04:00", "payment:mastercard": "yes", "payment:visa": "yes", "short_name": "BOA", "source": "local knowledge", "wheelchair": "no"}}, {"type": "node", "id": 4291931215, "lat": 4.8980922, "lon": -1.759156, "tags": {"amenity": "bank", "name": "CAL Bank", "opening_hours": "Mo-Fr 08:00-04:00"}}, {"type": "node", "id": 4291931216, "lat": 4.8970815, "lon": -1.7598826, "tags": {"air_conditioning": "yes", "amenity": "bank", "atm": "yes", "branch": "Takoradi Market", "brand": "GCB Bank", "brand:wikidata": "Q1521346", "brand:wikipedia": "en:GCB Bank", "check_date": "2023-03-14", "currency:EUR": "yes", "currency:USD": "yes", "currency:others": "yes", "drive_through": "no", "internet_access": "yes", "name": "GCB Bank", "opening_hours": "Sa 09:00-14:00; Mo-Fr 08:30-16:00", "payment:mastercard": "yes", "payment:visa": "yes", "source": "local knowledge", "wheelchair": "limited"}}, {"type": "node", "id": 4291931217, "lat": 4.8974462, "lon": -1.7588904, "tags": {"amenity": "bank", "name": "uniBank"}}, {"type": "node", "id": 4370883679, "lat": 4.9030687, "lon": -1.7579372, "tags": {"amenity": "bank", "name": "uniBank", "name:it": "UniBank"}}, {"type": "node", "id": 4455802856, "lat": 4.8831731, "lon": -1.7509139, "tags": {"amenity": "bank", "atm": "yes", "brand": "Fidelity Bank", "brand:wikidata": "Q5446778", "brand:wikipedia": "en:Fidelity Bank Ghana", "name": "Fidelity Bank"}}, {"type": "node", "id": 4455802880, "lat": 4.880584, "lon": -1.7513815}, {"type": "node", "id": 4455802881, "lat": 4.8806125, "lon": -1.7514578}, {"type": "node", "id": 4455802883, "lat": 4.8806365, "lon": -1.7514332}, {"type": "node", "id": 4455802884, "lat": 4.8806682, "lon": -1.7515126}, {"type": "node", "id": 4455802885, "lat": 4.8806948, "lon": -1.7514854}, {"type": "node", "id": 4455802886, "lat": 4.8807155, "lon": -1.7515057}, {"type": "node", "id": 4455802888, "lat": 4.8807391, "lon": -1.7514815}, {"type": "node", "id": 4455802890, "lat": 4.8807784, "lon": -1.7511825}, {"type": "node", "id": 4455802892, "lat": 4.8808243, "lon": -1.7515654}, {"type": "node", "id": 4455802893, "lat": 4.8808454, "lon": -1.7512484}, {"type": "node", "id": 4455802894, "lat": 4.8808472, "lon": -1.7515421}, {"type": "node", "id": 4455802895, "lat": 4.8808669, "lon": -1.7515615}, {"type": "node", "id": 4455802896, "lat": 4.8808706, "lon": -1.751392}, {"type": "node", "id": 4455802897, "lat": 4.880878, "lon": -1.751215}, {"type": "node", "id": 4455802898, "lat": 4.8809015, "lon": -1.7512986}, {"type": "node", "id": 4455802899, "lat": 4.8809054, "lon": -1.7514872}, {"type": "node", "id": 4455802900, "lat": 4.8809228, "lon": -1.7515043}, {"type": "node", "id": 4455802902, "lat": 4.8809316, "lon": -1.7512677}, {"type": "node", "id": 4455802903, "lat": 4.8809322, "lon": -1.7513289}, {"type": "node", "id": 4455802904, "lat": 4.8809357, "lon": -1.7514561}, {"type": "node", "id": 4455802909, "lat": 4.8819393, "lon": -1.7505656}, {"type": "node", "id": 4455802910, "lat": 4.881945, "lon": -1.7507587}, {"type": "node", "id": 4455802914, "lat": 4.8822056, "lon": -1.7508407}, {"type": "node", "id": 4455802915, "lat": 4.8822076, "lon": -1.7507291}, {"type": "node", "id": 4455802916, "lat": 4.8822083, "lon": -1.7507508}, {"type": "node", "id": 4455802918, "lat": 4.8822518, "lon": -1.7513395}, {"type": "node", "id": 4455802919, "lat": 4.8822928, "lon": -1.751537}, {"type": "node", "id": 4455802920, "lat": 4.8823009, "lon": -1.7512452}, {"type": "node", "id": 4455802921, "lat": 4.8823048, "lon": -1.7505546}, {"type": "node", "id": 4455802922, "lat": 4.8823099, "lon": -1.750726}, {"type": "node", "id": 4455802923, "lat": 4.8823136, "lon": -1.750815}, {"type": "node", "id": 4455802925, "lat": 4.8823457, "lon": -1.7509511}, {"type": "node", "id": 4455802926, "lat": 4.8823553, "lon": -1.7509828}, {"type": "node", "id": 4455802928, "lat": 4.8823827, "lon": -1.7509423}, {"type": "node", "id": 4455802929, "lat": 4.8823903, "lon": -1.7509745}, {"type": "node", "id": 4455802930, "lat": 4.8824052, "lon": -1.7515135}, {"type": "node", "id": 4455802931, "lat": 4.882411, "lon": -1.751219}, {"type": "node", "id": 4455802932, "lat": 4.8824135, "lon": -1.7515536}, {"type": "node", "id": 4455802933, "lat": 4.8824557, "lon": -1.7512969}, {"type": "node", "id": 4455802934, "lat": 4.882483, "lon": -1.7515392}, {"type": "node", "id": 4455802935, "lat": 4.882499, "lon": -1.7515052}, {"type": "node", "id": 4457227762, "lat": 4.8970997, "lon": -1.7589341, "tags": {"amenity": "bank", "atm": "yes", "brand": "Stanbic Bank", "brand:wikidata": "Q7597999", "brand:wikipedia": "en:Stanbic Bank", "name": "Stanbic Bank"}}, {"type": "node", "id": 4457227764, "lat": 4.8835857, "lon": -1.7525809, "tags": {"amenity": "bank", "atm": "yes", "brand": "Zenith Bank", "brand:wikidata": "Q5978240", "brand:wikipedia": "en:Zenith Bank", "name": "Zenith Bank", "name:it": "Zenith"}}, {"type": "node", "id": 4457227815, "lat": 4.8824728, "lon": -1.7529385}, {"type": "node", "id": 4457227816, "lat": 4.8825318, "lon": -1.7530062}, {"type": "node", "id": 4457227817, "lat": 4.8825446, "lon": -1.7527758}, {"type": "node", "id": 4457227818, "lat": 4.8825471, "lon": -1.7529715}, {"type": "node", "id": 4457227819, "lat": 4.8826122, "lon": -1.7528059}, {"type": "node", "id": 4457227820, "lat": 4.8826186, "lon": -1.7530448}, {"type": "node", "id": 4457227821, "lat": 4.8826274, "lon": -1.7527715}, {"type": "node", "id": 4457227822, "lat": 4.8826656, "lon": -1.7529384}, {"type": "node", "id": 4457227823, "lat": 4.8827007, "lon": -1.7528594}, {"type": "node", "id": 4457227824, "lat": 4.8827211, "lon": -1.7528132}, {"type": "node", "id": 4457227825, "lat": 4.8827366, "lon": -1.7529699}, {"type": "node", "id": 4457227826, "lat": 4.8827715, "lon": -1.7528909}, {"type": "node", "id": 4457227879, "lat": 4.8942947, "lon": -1.7531749}, {"type": "node", "id": 4457227882, "lat": 4.8943569, "lon": -1.7528107}, {"type": "node", "id": 4457227885, "lat": 4.8945491, "lon": -1.753113}, {"type": "node", "id": 4458050664, "lat": 4.8918928, "lon": -1.7631546, "tags": {"alt_name": "CBG", "amenity": "bank", "atm": "yes", "name": "Consolidated Bank Ghana", "name:it": "Consolidated", "old_name": "The Royal Bank", "operator": "Consolidated Bank Ghana Limited", "website": "https://cbg.com.gh/"}}, {"type": "node", "id": 5033060364, "lat": 4.8920975, "lon": -1.8194822, "tags": {"amenity": "bank", "name": "Ahantaman Rural Bank"}}, {"type": "node", "id": 5046972929, "lat": 4.8969057, "lon": -1.7650636, "tags": {"amenity": "bank", "name": "Ahantaman Rural Bank", "name:it": "Ahantaman Rural"}}, {"type": "node", "id": 5293427490, "lat": 4.8999682, "lon": -1.7636671, "tags": {"amenity": "bank", "atm": "yes", "name": "MiltiCredit"}}, {"type": "node", "id": 5293427492, "lat": 4.8997424, "lon": -1.7632366, "tags": {"amenity": "bank", "atm": "yes", "name": "Izwe Loans"}}, {"type": "node", "id": 5649340225, "lat": 4.9209299, "lon": -1.7665498, "tags": {"amenity": "bank", "name": "Lower Pra Rural Bank"}}, {"type": "node", "id": 5649946364, "lat": 4.8944637, "lon": -1.7563143, "tags": {"addr:city": "Takoradi", "addr:street": "Ama Akroma Avenue", "alt_name": "UMB Takoradi", "amenity": "bank", "name": "Universal Merchant Bank", "phone": "+233 312 023 373", "website": "https://www.myumbbank.com/branch-locator/"}}, {"type": "node", "id": 5658662134, "lat": 4.9705469, "lon": -1.8930639, "tags": {"amenity": "bank", "name": "Lower Pra Rural Bank"}}, {"type": "node", "id": 5658662135, "lat": 4.9685518, "lon": -1.8910502, "tags": {"amenity": "bank", "name": "GN Bank"}}, {"type": "node", "id": 6202240152, "lat": 4.9288209, "lon": -1.7640069, "tags": {"amenity": "bank", "brand": "Fidelity Bank", "brand:wikidata": "Q5446778", "brand:wikipedia": "en:Fidelity Bank Ghana", "name": "Fidelity Bank"}}, {"type": "node", "id": 6261295738, "lat": 4.9096663, "lon": -1.7702496, "tags": {"amenity": "bank"}}, {"type": "node", "id": 6386064295, "lat": 4.9170955, "lon": -1.7500671, "tags": {"addr:city": "Sekondi-Takoradi", "addr:country": "GH", "addr:ghanapostgps": "WS-128-4494", "addr:postbox": "P. O. Box 14596 Accra, Ghana", "addr:postcode": "WS128", "addr:region": "Western", "addr:street": "Sekondi Takoradi Road", "addr:suburb": "Sekondi", "alt_name": "CalBank - Sekondi Road Branch", "amenity": "bank", "atm": "yes", "branch": "Sekondi Road", "brand": "CalBank", "contact:linkedin": "calbank-plc", "contact:twitter": "CalBankPLC", "contact:whatsapp": "+233 24 242 6398", "contact:youtube": "https://www.youtube.com/channel/UCzczU8uI8AFTaXfM-2GDhYQ", "email": "customercare@calbank.net", "facebook": "CalBankPLC", "name": "CalBank", "operator": "CalBank PLC", "operator:type": "public", "operator:wikidata": "Q4035559", "operator:wikipedia": "en:CalBank", "phone": "+233 59 382 3652", "website": "https://calbank.net"}}, {"type": "node", "id": 6391846776, "lat": 4.8999566, "lon": -1.7630982, "tags": {"amenity": "bank", "branch": "Takoradi Market Circle", "brand": "Soci\u00e9t\u00e9 G\u00e9n\u00e9rale", "brand:wikidata": "Q270363", "name": "Societe Generale Ghana", "name:en": "Societe Generale Ghana", "name:fr": "Soci\u00e9t\u00e9 G\u00e9n\u00e9rale Ghana", "old_name": "SGSSB", "opening_hours": "Mo-Fr 08:30-16:00", "operator": "Societe Generale Ghana Limited", "website": "https://societegenerale.com.gh/"}}, {"type": "node", "id": 6586990305, "lat": 4.894315, "lon": -1.7527698}, {"type": "node", "id": 6586990306, "lat": 4.8943456, "lon": -1.7528179}, {"type": "node", "id": 6586990307, "lat": 4.8944106, "lon": -1.7531006}, {"type": "node", "id": 6586990308, "lat": 4.894434, "lon": -1.7531373}, {"type": "node", "id": 6586990309, "lat": 4.894476, "lon": -1.7531104}, {"type": "node", "id": 6586990310, "lat": 4.8944983, "lon": -1.7531455}, {"type": "node", "id": 6586990311, "lat": 4.894264, "lon": -1.7535813}, {"type": "node", "id": 6586990312, "lat": 4.8939834, "lon": -1.7530932}, {"type": "node", "id": 6586990313, "lat": 4.8939513, "lon": -1.7530422}, {"type": "node", "id": 6586990314, "lat": 4.893799, "lon": -1.7527297}, {"type": "node", "id": 6586990315, "lat": 4.8945686, "lon": -1.7524923}, {"type": "node", "id": 6586990316, "lat": 4.8947303, "lon": -1.7533614}, {"type": "node", "id": 6586990333, "lat": 4.8941998, "lon": -1.7552336}, {"type": "node", "id": 6586990334, "lat": 4.8940863, "lon": -1.755027}, {"type": "node", "id": 6586990335, "lat": 4.8939419, "lon": -1.7549559}, {"type": "node", "id": 6586990336, "lat": 4.8939353, "lon": -1.7547038}, {"type": "node", "id": 6586990337, "lat": 4.8939887, "lon": -1.7541781}, {"type": "node", "id": 6586990338, "lat": 4.8941611, "lon": -1.7539166}, {"type": "node", "id": 6586990339, "lat": 4.8947624, "lon": -1.7548929}, {"type": "node", "id": 6719961357, "lat": 4.8828564, "lon": -1.751358, "tags": {"amenity": "bank", "name": "Prudential Bank"}}, {"type": "node", "id": 7745691092, "lat": 4.8994866, "lon": -1.7589457, "tags": {"air_conditioning": "yes", "amenity": "bank", "atm": "yes", "branch": "Takoradi", "check_date": "2023-03-14", "currency:EUR": "yes", "currency:USD": "yes", "currency:others": "yes", "drive_through": "no", "internet_access": "yes", "name": "UBA Bank", "payment:mastercard": "yes", "payment:visa": "yes", "source": "local knowledge", "wheelchair": "no"}}, {"type": "node", "id": 8632232217, "lat": 4.9221794, "lon": -1.9815328, "tags": {"amenity": "bank", "name": "ADB"}}, {"type": "node", "id": 9602370484, "lat": 4.9136613, "lon": -1.7932084, "tags": {"amenity": "bank", "name": "Lower Pra Rural Bank"}}, {"type": "node", "id": 10589646688, "lat": 4.8896369, "lon": -1.9592845, "tags": {"amenity": "bank", "name": "ARB Apex Bank"}}, {"type": "node", "id": 10916066889, "lat": 4.8804728, "lon": -1.7527753, "tags": {"addr:city": "Sekondi-Takoradi", "addr:country": "GH", "addr:ghanapostgps": "WS-406-8075", "addr:postbox": "P. O. Box 447, Takoradi, Ghana", "addr:postcode": "WS128", "addr:region": "Western", "addr:street": "Plankton Lane", "addr:suburb": "Takoradi", "alt_name": "CalBank - Takoradi Harbour Branch", "amenity": "bank", "atm": "yes", "branch": "Takoradi Harbour", "brand": "CalBank", "contact:linkedin": "calbank-plc", "contact:twitter": "CalBankPLC", "contact:whatsapp": "+233 24 242 6398", "contact:youtube": "https://www.youtube.com/channel/UCzczU8uI8AFTaXfM-2GDhYQ", "email": "customercare@calbank.net", "facebook": "CalBankPLC", "name": "CalBank", "operator": "CalBank PLC", "operator:type": "public", "operator:wikidata": "Q4035559", "operator:wikipedia": "en:CalBank", "phone": "+233 59 385 3562", "website": "https://calbank.net"}}, {"type": "node", "id": 10916073327, "lat": 4.8997852, "lon": -1.7603928, "tags": {"addr:city": "Sekondi-Takoradi", "addr:country": "GH", "addr:ghanapostgps": "WS-245-3285", "addr:postbox": "P. O. Box 447, Takoradi, Ghana", "addr:postcode": "WS245", "addr:region": "Western", "addr:street": "C.P Kainyah Avenue", "addr:suburb": "Market Circle", "alt_name": "CalBank - Takoradi Market Circle Branch", "amenity": "bank", "atm": "yes", "branch": "Takoradi Market Circle", "brand": "CalBank", "contact:linkedin": "calbank-plc", "contact:twitter": "CalBankPLC", "contact:whatsapp": "+233 24 242 6398", "contact:youtube": "https://www.youtube.com/channel/UCzczU8uI8AFTaXfM-2GDhYQ", "email": "customercare@calbank.net", "facebook": "CalBankPLC", "name": "CalBank", "operator": "CalBank PLC", "operator:type": "public", "operator:wikidata": "Q4035559", "operator:wikipedia": "en:CalBank", "phone": "+233 54 433 6745", "website": "https://calbank.net"}}, {"type": "node", "id": 11171309655, "lat": 4.8991646, "lon": -1.7601743, "tags": {"addr:city": "Sekondi-Takoradi", "addr:country": "GH", "addr:ghanapostgps": "WS-245-1885", "addr:postcode": "WS245", "addr:region": "Western", "addr:street": "Market Circle", "addr:suburb": "Market Circle", "alt_name": "First National Bank - Branch", "amenity": "bank", "branch": "Market Circle", "brand": "First National Bank (FNB)", "brand:wikidata": "Q3072956", "brand:wikipedia": "en:First National Bank (South Africa)", "contact:instagram": "firstnationalbankgh", "contact:linkedin": "first-national-bank-gh", "contact:twitter": "firstnatbankgh", "contact:youtube": "@firstnationalbankgh3729", "email": "info@firstnationalbank.com.gh", "facebook": "firstnationalbankgh", "name": "First National Bank", "opening_hours": "Mo-Fr 08:30-17:00, Sa 09:00-14:00; PH off", "operator": "First National Bank Ghana", "operator:type": "public", "operator:wikidata": "Q96377981", "operator:wikipedia": "en:First National Bank Ghana", "phone": "+233 24 243 5050", "website": "https://www.firstnationalbank.com.gh"}}, {"type": "way", "id": 448577644, "nodes": [4455802935, 4455802933, 4455802918, 4455802919, 4455802930, 4455802932, 4455802934, 4455802935], "tags": {"addr:city": "Sekondi-Takoradi", "addr:country": "GH", "addr:region": "Western", "addr:street": "Papa Gyaesayor Avenue", "addr:suburb": "Takoradi", "alt_name": "Absa - Takoradi Branch", "amenity": "bank", "branch": "Takoradi", "brand": "Absa", "brand:wikidata": "Q58641733", "brand:wikipedia": "en:Absa Group Limited", "building": "commercial", "contact:instagram": "absaghana", "contact:linkedin": "absa-ghana", "contact:twitter": "AbsaGhana", "contact:whatsapp": "+233 50 164 4644", "contact:youtube": "https://www.youtube.com/channel/UCKpKPyfJ69tf7lnxudpzKJQ", "email": "service.excellence.GH@absa.africa", "facebook": "AbsaGhana", "name": "Absa", "old_name": "Barclays", "opening_hours": "Mo-Fr 08:30-16:30; PH off", "operator": "Absa Bank Ghana Limited", "operator:type": "public", "operator:wikidata": "Q96371413", "operator:wikipedia": "en:Absa Bank Ghana", "phone": "+233 57 770 9705", "website": "https://www.absa.com.gh"}}, {"type": "way", "id": 448577647, "nodes": [4455802931, 4455802926, 4455802929, 4455802928, 4455802925, 4455802923, 4455802914, 4455802920, 4455802931], "tags": {"alt_name": "Ghana Commercial Bank Takoradi Harbour", "amenity": "bank", "brand": "GCB", "building": "yes", "name": "GCB Harbour Branch", "name:it": "GCB"}}, {"type": "way", "id": 448577656, "nodes": [4455802904, 4455802896, 4455802903, 4455802898, 4455802902, 4455802897, 4455802893, 4455802890, 4455802880, 4455802883, 4455802881, 4455802884, 4455802885, 4455802886, 4455802888, 4455802892, 4455802894, 4455802895, 4455802900, 4455802899, 4455802904], "tags": {"amenity": "bank", "brand": "Standard Chartered", "brand:wikidata": "Q548278", "brand:wikipedia": "en:Standard Chartered", "building": "yes", "name": "Standard Chartered"}}, {"type": "way", "id": 448577662, "nodes": [4455802922, 4455802921, 4455802909, 4455802910, 4455802916, 4455802915, 4455802922], "tags": {"amenity": "bank", "brand": "adb", "building": "yes", "name": "adb Takoradi Branch", "name:it": "Adb"}}, {"type": "way", "id": 448740846, "nodes": [4457227826, 4457227823, 4457227824, 4457227821, 4457227819, 4457227817, 4457227815, 4457227818, 4457227816, 4457227820, 4457227822, 4457227825, 4457227826], "tags": {"addr:city": "Sekondi-Takoradi", "addr:country": "GH", "addr:region": "Western", "addr:street": "Papa Gyaesayor Avenue", "addr:suburb": "Chapel Hill", "alt_name": "Ecobank - Takoradi Main Branch", "amenity": "bank", "branch": "Takoradi Main", "brand": "Ecobank", "brand:wikidata": "Q930225", "brand:wikipedia": "en:Ecobank", "building": "commercial", "contact:facebook": "EcobankGhanaPLC", "contact:instagram": "ecobankghanaplc", "contact:linkedin": "ecobankghanaplc", "contact:twitter": "EcobankGhanaPLC", "contact:youtube": "ecobanktv", "email": "ecobankenquiries@ecobank.com", "name": "Ecobank", "opening_hours": "Mo-Fr 08:30-16:00; Sa 09:00-14:00; PH off", "operator": "Ecobank Ghana PLC", "operator:type": "public", "operator:wikidata": "Q5333155", "operator:wikipedia": "en:Ecobank Ghana", "phone": "+233 31 2023870;+233 31 2021250", "website": "https://ecobank.com/gh/"}}, {"type": "way", "id": 448740848, "nodes": [4457227885, 4457227882, 6586990306, 6586990305, 2024377432, 4457227879, 6586990307, 6586990308, 6586990309, 6586990310, 4457227885], "tags": {"amenity": "bank", "building": "yes", "name": "Bank of Ghana"}}, {"type": "way", "id": 701371761, "nodes": [6586990316, 6586990315, 6586990314, 6586990313, 6586990312, 6586990311, 6586990316], "tags": {"amenity": "bank", "name": "Bank of Ghana"}}, {"type": "way", "id": 701371763, "nodes": [6586990339, 6586990338, 6586990337, 6586990336, 6586990335, 6586990334, 6586990333, 6586990339], "tags": {"amenity": "bank", "brand": "GCB", "name": "GCB Takoradi Main Branch"}}]}