{"version": 0.6, "generator": "Overpass API 0.7.61.5 4133829e", "osm3s": {"timestamp_osm_base": "2024-03-06T11:15:40Z", "copyright": "The data included in this document is from www.openstreetmap.org. The data is made available under ODbL."}, "elements": [{"type": "node", "id": 724197171, "lat": 33.1236709, "lon": 46.1667015, "tags": {"alt_name:ckb": "\u0645\u06ce\u0631\u0627\u0646", "name": "\u0645\u0647\u0631\u0627\u0646", "name:ckb": "\u0645\u06ce\u06be\u0631\u0627\u0646", "name:en": "Mehran", "name:fr": "Mehran", "name:ku": "M\u00eahran", "name:ru": "\u041c\u0435\u0445\u0440\u0430\u043d", "nat_name": "\u0634\u0647\u0631 \u0645\u0647\u0631\u0627\u0646", "place": "town", "population": "13118", "wikidata": "Q720410", "wikipedia": "fa:\u0645\u0647\u0631\u0627\u0646"}}, {"type": "node", "id": 724197204, "lat": 33.3846543, "lon": 46.5973663, "tags": {"is_in:country": "Iran", "name": "\u0627\u0631\u06a9\u0648\u0627\u0632", "name:ckb": "\u0626\u06d5\u0631\u06a9\u06d5\u0648\u0627\u0632", "name:en": "Arkvaz", "name:fa": "\u0627\u0631\u06a9\u0648\u0627\u0632", "name:fr": "Arakvaz", "name:ku": "Erkewaz", "place": "town", "population": "11977", "population:date": "2016", "source:population": "amar.org.ir", "wikidata": "Q2416578"}}, {"type": "node", "id": 2996804726, "lat": 33.1612484, "lon": 46.3542093, "tags": {"is_in:country": "Iran", "name": "\u0628\u0627\u0646 \u0631\u062d\u0645\u0627\u0646", "name:en": "Ban Rahman", "place": "village", "wikidata": "Q4853697", "wikipedia": "en:Ban Rahman"}}, {"type": "node", "id": 3002757388, "lat": 33.4055827, "lon": 46.594467, "tags": {"is_in:country": "Iran", "name": "\u062f\u0644\u06af\u0634\u0627", "name:ckb": "\u062f\u06b5\u06af\u06c6\u0634\u0627", "name:en": "Delgosha", "name:fa": "\u062f\u0644\u06af\u0634\u0627", "name:fr": "Delgosha", "name:ku": "Dillgo\u015fa", "place": "town", "population": "4000", "wikidata": "Q2416536", "wikipedia": "en:Delgosha"}}, {"type": "node", "id": 3262274653, "lat": 33.2553668, "lon": 46.2427908, "tags": {"is_in:country": "Iran", "name": "\u06a9\u0646\u062c\u0627\u0646 \u0686\u0645", "name:en": "Konjan Cham", "place": "village"}}, {"type": "node", "id": 3262274654, "lat": 33.0949751, "lon": 46.2853467, "tags": {"alt_name": "\u0686\u0646\u06af\u0648\u0644\u0647", "is_in:country": "Iran", "name": "\u0634\u0647\u0631\u06a9 \u0627\u0633\u0644\u0627\u0645\u06cc\u0647", "name:en": "Shahrak-e Eslamiyeh", "place": "village"}}, {"type": "node", "id": 3262274657, "lat": 33.4181157, "lon": 46.2623284, "tags": {"is_in:country": "Iran", "name": "\u06af\u0644\u0627\u0646", "name:en": "Golan", "place": "village", "wikidata": "Q5578383", "wikipedia": "en:Golan, Ilam"}}, {"type": "node", "id": 3295035414, "lat": 33.32233, "lon": 46.6444543, "tags": {"name": "\u067e\u0644 \u0634\u06a9\u0633\u062a\u0647", "name:en": "Pol-e Shekasteh", "place": "hamlet", "wikidata": "Q5791432", "wikipedia": "fa:\u067e\u0644 \u0634\u06a9\u0633\u062a\u0647 (\u0645\u0644\u06a9\u0634\u0627\u0647\u06cc)"}}, {"type": "node", "id": 3295035415, "lat": 33.2544772, "lon": 46.5567943, "tags": {"name": "\u0686\u0645 \u0627\u0646\u0627\u0631 \u0639\u0644\u06cc\u0627", "name:en": "Cham Anar-e Olya", "place": "hamlet", "wikidata": "Q5069152", "wikipedia": "fa:\u0686\u0645 \u0627\u0646\u0627\u0631 \u0639\u0644\u06cc\u0627"}}, {"type": "node", "id": 3295035416, "lat": 33.2632245, "lon": 46.5389123, "tags": {"is_in:country": "Iran", "name": "\u0686\u0645 \u0627\u0646\u0627\u0631 \u0633\u0641\u0644\u06cc", "name:en": "Cham Anar-e Sofla", "place": "hamlet", "wikidata": "Q5069153", "wikipedia": "en:Cham Anar-e Sofla"}}, {"type": "node", "id": 3295035417, "lat": 33.2517015, "lon": 46.5405067, "tags": {"is_in:country": "Iran", "name": "\u06af\u0646\u0628\u062f \u067e\u06cc\u0631\u0645\u062d\u0645\u062f", "name:en": "Gonbad-e Pir Mohammad", "place": "village", "wikidata": "Q5581377", "wikipedia": "en:Gonbad-e Pir Mohammad"}}, {"type": "node", "id": 3295035418, "lat": 33.3609116, "lon": 46.5924618, "tags": {"is_in:country": "Iran", "name": "\u0645\u06cc\u0627\u0646 \u062a\u0646\u06af", "name:en": "Mian Tang", "place": "village", "wikidata": "Q5800808", "wikipedia": "en:Mian Tang, Ilam"}}, {"type": "node", "id": 3295035419, "lat": 33.2652755, "lon": 46.623406, "tags": {"is_in:country": "Iran", "name": "\u067e\u0627\u0631\u06cc\u0627\u0628", "name:en": "Pariab", "place": "village", "wikidata": "Q7136996", "wikipedia": "en:Pariab, Ilam"}}, {"type": "node", "id": 3295035420, "lat": 33.2537196, "lon": 46.4601845, "tags": {"is_in:country": "Iran", "name": "\u0642\u0631\u062c\u06cc\u0644\u06cc\u06af\u0627\u0646", "name:en": "Qarjiligan", "place": "village"}}, {"type": "node", "id": 3295035421, "lat": 33.3601255, "lon": 46.6328191, "tags": {"is_in:country": "Iran", "name": "\u0637\u0627\u0644\u0642\u0627\u0646\u06cc", "name:en": "Taleqani", "place": "village", "wikidata": "Q5799433", "wikipedia": "en:Taleqani, Ilam"}}, {"type": "node", "id": 3295035427, "lat": 33.4167503, "lon": 46.4259145, "tags": {"is_in:country": "Iran", "name": "\u0627\u0646\u062c\u06cc\u0631", "name:en": "Anjir", "place": "village", "wikidata": "Q4765825", "wikipedia": "en:Anjir, Iran"}}, {"type": "node", "id": 3295035428, "lat": 33.4163945, "lon": 46.6277309, "tags": {"is_in:country": "Iran", "is_in:state": "Ilam", "name": "\u0628\u0627\u0648\u0644\u06af", "place": "village", "population": "678"}}, {"type": "node", "id": 3295035429, "lat": 33.3510507, "lon": 46.5374111, "tags": {"is_in:country": "Iran", "name": "\u0686\u0634\u0645\u0647 \u0628\u0627\u0631\u06cc\u06a9", "name:en": "Cheshmeh Barik", "place": "village", "wikidata": "Q5093070", "wikipedia": "en:Cheshmeh Barik"}}, {"type": "node", "id": 3295035431, "lat": 33.3673287, "lon": 46.5006784, "tags": {"is_in:country": "Iran", "name": "\u06a9\u0644\u06a9 \u0646\u0642\u06cc", "name:en": "Kalak-e Naqi", "place": "village", "wikidata": "Q5781384", "wikipedia": "en:Kalak-e Naqi"}}, {"type": "node", "id": 3295035432, "lat": 33.4308245, "lon": 46.4636819, "tags": {"is_in:country": "Iran", "name": "\u0645\u0647\u0631", "name:ckb": "\u0645\u06ce\u06be\u0631", "name:en": "Mehr", "name:ku": "M\u00eahir", "place": "town", "population": "1060", "wikidata": "Q6809707", "wikipedia": "en:Mehr, Ilam"}}, {"type": "node", "id": 3295035433, "lat": 33.3968553, "lon": 46.5797403, "tags": {"is_in:country": "Iran", "name": "\u0642\u0644\u0639\u0647 \u062c\u0648\u0642", "name:en": "Qaleh Juq", "place": "village", "wikidata": "Q5803544", "wikipedia": "en:Qaleh Juq, Ilam"}}, {"type": "node", "id": 3295035434, "lat": 33.3670222, "lon": 46.4996327, "tags": {"is_in:country": "Iran", "name": "\u0633\u0631\u0627\u0628 \u06a9\u0644\u06a9", "name:en": "Sarab-e Kalak", "place": "hamlet", "wikidata": "Q5781382", "wikipedia": "en:Sarab-e Kalak"}}, {"type": "node", "id": 3295035435, "lat": 33.3918915, "lon": 46.4904866, "tags": {"is_in:country": "Iran", "name": "\u0648\u0631\u0626 \u06a9\u0644\u06a9", "name:en": "Vari-ye Kalak", "place": "village", "wikidata": "Q5781850", "wikipedia": "en:Vari-ye Kalak"}}, {"type": "node", "id": 4476784354, "lat": 33.0922293, "lon": 46.4854899, "tags": {"is_in:country": "Iran", "is_in:state": "Ilam", "name": "\u0634\u0647\u0631\u06a9 \u0686\u0627\u0644\u0627\u0628", "place": "village", "population": "1463"}}, {"type": "node", "id": 4476784355, "lat": 33.0746762, "lon": 46.5342873, "tags": {"is_in:country": "Iran", "is_in:state": "Ilam", "name": "\u0634\u0647\u0631\u06a9 \u0686\u0646\u06af\u0648\u0644\u0647", "place": "village", "population": "742"}}, {"type": "node", "id": 4476784357, "lat": 33.2498995, "lon": 46.5992343, "tags": {"is_in:country": "Iran", "is_in:state": "Ilam", "name": "\u0634\u0647\u06cc\u062f \u06a9\u0634\u0648\u0631\u06cc", "place": "village", "population": "106"}}]}