{"version": 0.6, "generator": "Overpass API 0.7.61.5 4133829e", "osm3s": {"timestamp_osm_base": "2024-03-06T11:03:20Z", "copyright": "The data included in this document is from www.openstreetmap.org. The data is made available under ODbL."}, "elements": [{"type": "node", "id": 10811117485, "lat": -3.6091507, "lon": 37.6138144, "tags": {"addr:city": "Kilimanjaro", "addr:district": "Mwanga District Council", "addr:subward": "Mwai", "addr:ward": "Msangeni", "amenity": "school", "isced:level": "1", "name": "Shule ya Msingi Mwai", "name:en": "Mwai Primary School", "name:sw": "Shule ya Msingi Mwai", "operator:type": "government", "source": "WFP Primary Schools Feeding Program Survey, 2023 by OMDTZ"}}, {"type": "node", "id": 10811117491, "lat": -3.6357417, "lon": 37.6786657, "tags": {"addr:city": "Kilimanjaro", "addr:district": "Mwanga District Council", "addr:subward": "Kadengere", "addr:ward": "Kifula", "amenity": "school", "isced:level": "1", "name": "Shule ya Msingi Mbore", "name:en": "Mbore Primary School", "name:sw": "Shule ya Msingi Mbore", "operator:type": "government", "source": "WFP Primary Schools Feeding Program Survey, 2023 by OMDTZ"}}, {"type": "node", "id": 10811117503, "lat": -3.770549, "lon": 37.8340698, "tags": {"addr:city": "Kilimanjaro", "addr:district": "Mwanga District Council", "addr:subward": "Karambandea", "addr:ward": "Toloha", "amenity": "school", "isced:level": "1", "name": "Shule ya Msingi Ndea", "name:en": "Ndea Primary School", "name:sw": "Shule ya Msingi Ndea", "operator:type": "government", "source": "WFP Primary Schools Feeding Program Survey, 2023 by OMDTZ"}}, {"type": "node", "id": 10811117515, "lat": -3.6369666, "lon": 37.6644986, "tags": {"addr:city": "Kilimanjaro", "addr:district": "Mwanga District Council", "addr:subward": "Kisanjuni", "addr:ward": "Kifula", "amenity": "school", "isced:level": "1", "name": "Shule ya Msingi Kisanjuni", "name:en": "Kisanjuni Primary School", "name:sw": "Shule ya Msingi Kisanjuni", "operator:type": "government", "source": "WFP Primary Schools Feeding Program Survey, 2023 by OMDTZ"}}, {"type": "node", "id": 10811117522, "lat": -3.7227674, "lon": 37.7841084, "tags": {"addr:city": "Kilimanjaro", "addr:district": "Mwanga District Council", "addr:subward": "Simukizungo", "addr:ward": "Toloha", "amenity": "school", "isced:level": "1", "name": "Shule ya Msingi Toloha", "name:en": "Toloha Primary School", "name:sw": "Shule ya Msingi Toloha", "operator:type": "government", "source": "WFP Primary Schools Feeding Program Survey, 2023 by OMDTZ"}}, {"type": "node", "id": 10811117533, "lat": -3.656669, "lon": 37.7623393, "tags": {"addr:city": "Kilimanjaro", "addr:district": "Mwanga District Council", "addr:subward": "Ruru", "addr:ward": "Kigonigoni", "amenity": "school", "isced:level": "1", "name": "Shule ya Msingi Ruru", "name:en": "Ruru Primary School", "name:sw": "Shule ya Msingi Ruru", "operator:type": "government", "source": "WFP Primary Schools Feeding Program Survey, 2023 by OMDTZ"}}, {"type": "node", "id": 10811117535, "lat": -3.6468306, "lon": 37.6568715, "tags": {"addr:city": "Kilimanjaro", "addr:district": "Mwanga District Council", "addr:subward": "Msangeni", "addr:ward": "Msangeni", "amenity": "school", "isced:level": "1", "name": "Shule ya Msingi Msangeni", "name:en": "Msangeni Primary School", "name:sw": "Shule ya Msingi Msangeni", "operator:type": "government", "source": "WFP Primary Schools Feeding Program Survey, 2023 by OMDTZ"}}, {"type": "node", "id": 10811117539, "lat": -3.6315514, "lon": 37.6381555, "tags": {"addr:city": "Kilimanjaro", "addr:district": "Mwanga District Council", "addr:subward": "Mruma", "addr:ward": "Msangeni", "amenity": "school", "isced:level": "1", "name": "Shule ya Msingi Mruma", "name:en": "Mruma Primary School", "name:sw": "Shule ya Msingi Mruma", "operator:type": "government", "source": "WFP Primary Schools Feeding Program Survey, 2023 by OMDTZ"}}, {"type": "node", "id": 10811117541, "lat": -3.6057018, "lon": 37.6709655, "tags": {"addr:city": "Kilimanjaro", "addr:district": "Mwanga District Council", "addr:subward": "Mwaniko", "addr:ward": "Mwaniko", "amenity": "school", "isced:level": "1", "name": "Shule ya Msingi Mcheni", "name:en": "Mcheni Primary School", "name:sw": "Shule ya Msingi Mcheni", "operator:type": "government", "source": "WFP Primary Schools Feeding Program Survey, 2023 by OMDTZ"}}, {"type": "node", "id": 10811117543, "lat": -3.6537333, "lon": 37.6686794, "tags": {"addr:city": "Kilimanjaro", "addr:district": "Mwanga District Council", "addr:subward": "Msangeni", "addr:ward": "Msangeni", "amenity": "school", "isced:level": "1", "name": "Shule ya Msingi Kaseni", "name:en": "Kaseni Primary School", "name:sw": "Shule ya Msingi Kaseni", "operator:type": "government", "source": "WFP Primary Schools Feeding Program Survey, 2023 by OMDTZ"}}, {"type": "node", "id": 10811117552, "lat": -3.688037, "lon": 37.7224526, "tags": {"addr:city": "Kilimanjaro", "addr:district": "Mwanga District Council", "addr:subward": "Butu", "addr:ward": "Kigonigoni", "amenity": "school", "isced:level": "1", "name": "Shule ya Msingi Kigonigoni", "name:en": "Kigonigoni Primary School", "name:sw": "Shule ya Msingi Kigonigoni", "operator:type": "government", "source": "WFP Primary Schools Feeding Program Survey, 2023 by OMDTZ"}}, {"type": "node", "id": 10811117557, "lat": -3.6287195, "lon": 37.6526969, "tags": {"addr:city": "Kilimanjaro", "addr:district": "Mwanga District Council", "addr:subward": "Rangaa", "addr:ward": "Kifula", "amenity": "school", "isced:level": "1", "name": "Shule ya Msingi Rangaa", "name:en": "Rangaa Primary School", "name:sw": "Shule ya Msingi Rangaa", "operator:type": "government", "source": "WFP Primary Schools Feeding Program Survey, 2023 by OMDTZ"}}, {"type": "node", "id": 10811117561, "lat": -3.6260064, "lon": 37.6820509, "tags": {"addr:city": "Kilimanjaro", "addr:district": "Mwanga District Council", "addr:subward": "Mriti", "addr:ward": "Mwaniko", "amenity": "school", "isced:level": "1", "name": "Shule ya Msingi Mriti", "name:en": "Mriti Primary School", "name:sw": "Shule ya Msingi Mriti", "operator:type": "government", "source": "WFP Primary Schools Feeding Program Survey, 2023 by OMDTZ"}}, {"type": "node", "id": 10811117564, "lat": -3.6185276, "lon": 37.6347044, "tags": {"addr:city": "Kilimanjaro", "addr:district": "Mwanga District Council", "addr:subward": "Simbomu", "addr:ward": "Msangeni", "amenity": "school", "isced:level": "1", "name": "Shule ya Msingi Simbomu", "name:en": "Simbomu Primary School", "name:sw": "Shule ya Msingi Simbomu", "operator:type": "government", "source": "WFP Primary Schools Feeding Program Survey, 2023 by OMDTZ"}}, {"type": "node", "id": 10811117567, "lat": -3.6444377, "lon": 37.7153939, "tags": {"addr:city": "Kilimanjaro", "addr:district": "Mwanga District Council", "addr:subward": "Butu", "addr:ward": "Jipe", "amenity": "school", "isced:level": "1", "name": "Shule ya Msingi Butu", "name:en": "Butu Primary School", "name:sw": "Shule ya Msingi Butu", "operator:type": "government", "source": "WFP Primary Schools Feeding Program Survey, 2023 by OMDTZ"}}, {"type": "node", "id": 10811117570, "lat": -3.608586, "lon": 37.6580044, "tags": {"addr:city": "Kilimanjaro", "addr:district": "Mwanga District Council", "addr:subward": "Raa", "addr:ward": "Kifula", "amenity": "school", "isced:level": "1", "name": "Shule ya Msingi Raa", "name:en": "Raa Primary School", "name:sw": "Shule ya Msingi Raa", "operator:type": "government", "source": "WFP Primary Schools Feeding Program Survey, 2023 by OMDTZ"}}, {"type": "node", "id": 10811117574, "lat": -3.6469727, "lon": 37.6794082, "tags": {"addr:city": "Kilimanjaro", "addr:district": "Mwanga District Council", "addr:subward": "Masumbeni", "addr:ward": "Kifula", "amenity": "school", "isced:level": "1", "name": "Shule ya Msingi Masumbeni", "name:en": "Masumbeni Primary School", "name:sw": "Shule ya Msingi Masumbeni", "operator:type": "government", "source": "WFP Primary Schools Feeding Program Survey, 2023 by OMDTZ"}}, {"type": "node", "id": 10811117579, "lat": -3.6308852, "lon": 37.6706725, "tags": {"addr:city": "Kilimanjaro", "addr:district": "Mwanga District Council", "addr:subward": "Kisanjuni", "addr:ward": "Kifula", "amenity": "school", "isced:level": "1", "name": "Shule ya Msingi Kifula", "name:en": "Kifula Primary School", "name:sw": "Shule ya Msingi Kifula", "operator:type": "government", "source": "WFP Primary Schools Feeding Program Survey, 2023 by OMDTZ"}}, {"type": "node", "id": 10811117581, "lat": -3.6187686, "lon": 37.6714935, "tags": {"addr:city": "Kilimanjaro", "addr:district": "Mwanga District Council", "addr:subward": "Mwaniko", "addr:ward": "Mwaniko", "amenity": "school", "isced:level": "1", "name": "Shule ya Msingi Chimbi", "name:en": "Chimbi Primary School", "name:sw": "Shule ya Msingi Chimbi", "operator:type": "government", "source": "WFP Primary Schools Feeding Program Survey, 2023 by OMDTZ"}}, {"type": "node", "id": 10811117590, "lat": -3.6212243, "lon": 37.6612488, "tags": {"addr:city": "Kilimanjaro", "addr:district": "Mwanga District Council", "addr:subward": "Raa", "addr:ward": "Kifula", "amenity": "school", "isced:level": "1", "name": "Shule ya Msingi Fumbuang'ombe", "name:en": "Fumbuang'ombe Primary School", "name:sw": "Shule ya Msingi Fumbuang'ombe", "operator:type": "government", "source": "WFP Primary Schools Feeding Program Survey, 2023 by OMDTZ"}}]}