{"version": 0.6, "generator": "Overpass API 0.7.61.5 4133829e", "osm3s": {"timestamp_osm_base": "2024-03-06T11:30:59Z", "copyright": "The data included in this document is from www.openstreetmap.org. The data is made available under ODbL."}, "elements": [{"type": "node", "id": 1315243432, "lat": -3.2123532, "lon": 40.118161, "tags": {"amenity": "pharmacy", "healthcare": "pharmacy", "shop": "chemist"}}, {"type": "node", "id": 1315243451, "lat": -3.2151272, "lon": 40.1204004, "tags": {"amenity": "pharmacy", "healthcare": "pharmacy", "shop": "chemist"}}, {"type": "node", "id": 1329652002, "lat": -3.2263818, "lon": 40.1246315}, {"type": "node", "id": 1747678874, "lat": -3.5423814, "lon": 39.6918766}, {"type": "node", "id": 1747678876, "lat": -3.5424215, "lon": 39.6922779}, {"type": "node", "id": 1747678880, "lat": -3.5427508, "lon": 39.6918543}, {"type": "node", "id": 1747678881, "lat": -3.5427775, "lon": 39.6922646}, {"type": "node", "id": 4707793171, "lat": -3.5494075, "lon": 39.6878234, "tags": {"amenity": "hospital", "building:material": "concreate", "building:roof": "ironsheets", "electricity:operational_status": "often", "health:government_registered": "yes", "health:laboratory_present": "yes", "health:management_commitee": "yes", "health:martenity_present": "yes", "health:pharmacy_present": "yes", "health:program_HIV_clinic": "yes", "health:program_PMTCT": "yes", "health:program_VCT": "yes", "health:program_counselling": "yes", "health:program_general_treatment": "yes", "health:program_handwashing": "yes", "health:program_laboratory_testing": "yes", "health:program_malaria": "yes", "health:program_maternity": "yes", "health:program_rain": "yes", "health:program_tuberclosis_clinic": "yes", "health:staff_receptionist": "yes", "health:water_present": "yes", "name": "ganze health", "operator:type": "government", "place:ADP_area": "ganze", "status:operational_status": "operational", "toilet:present": "yes"}}, {"type": "node", "id": 4707793172, "lat": -3.5446246, "lon": 39.6888301}, {"type": "node", "id": 4707793173, "lat": -3.4754826, "lon": 39.7474738, "tags": {"amenity": "hospital", "building:material": "cement_block", "building:roof": "ironsheets", "electricity:operational_status": "sometimes", "health:accessibility": "big_vehicles", "health:government_registered": "yes", "health:management_commitee": "yes", "health:program_counselling": "yes", "health:program_general_treatment": "yes", "health:program_handwashing": "yes", "health:program_laboratory_testing": "yes", "health:program_malaria": "yes", "health:program_rain": "yes", "health:program_tuberclosis_clinic": "yes", "name": "kachororoni health centre", "place:ADP_area": "ganze", "status:operational_status": "operational", "toilet:present": "yes"}}, {"type": "node", "id": 5735880000, "lat": -3.3895791, "lon": 39.9289767}, {"type": "node", "id": 5751493136, "lat": -3.34979, "lon": 39.9201499, "tags": {"amenity": "clinic", "name": "Mida Majaoni Commu nity Dispensary", "operator": "Government trhough community initiative"}}, {"type": "node", "id": 7410724696, "lat": -3.2246036, "lon": 40.1246369}, {"type": "node", "id": 7410724697, "lat": -3.2245742, "lon": 40.124897}, {"type": "node", "id": 7410724698, "lat": -3.2266067, "lon": 40.1258385}, {"type": "node", "id": 7410724699, "lat": -3.2266067, "lon": 40.1246369}, {"type": "node", "id": 7457949992, "lat": -3.5446272, "lon": 39.688968}, {"type": "node", "id": 7457949993, "lat": -3.5447008, "lon": 39.6889666}, {"type": "node", "id": 7457949994, "lat": -3.5446982, "lon": 39.6888287}, {"type": "node", "id": 7462929247, "lat": -3.3896252, "lon": 39.9291502}, {"type": "node", "id": 7462929248, "lat": -3.3899045, "lon": 39.9290757}, {"type": "node", "id": 7462929249, "lat": -3.3898584, "lon": 39.9289022}, {"type": "node", "id": 11290358689, "lat": -3.1815858, "lon": 39.7838847, "tags": {"amenity": "pharmacy", "evacuation_center": "no", "flood_prone": "no", "name": "Chembe chembe", "opening_hours": "sunrise-sunset", "operational_status": "operational", "operator": "Jackline sifa", "operator:type": "private", "phone": "+254 795 282 768", "source": "KRCS2023", "storage_area": "no"}}, {"type": "node", "id": 11290358700, "lat": -3.1820954, "lon": 39.7837532, "tags": {"amenity": "pharmacy", "evacuation_center": "no", "flood_prone": "no", "name": "Late night bao lala chemistry", "opening_hours": "sunrise-sunset", "operational_status": "operational", "operator": "Private", "operator:type": "private", "phone": "+254 798 397 341", "source": "KRCS2023", "storage_area": "no"}}, {"type": "node", "id": 11290358703, "lat": -3.1835824, "lon": 39.8242963, "tags": {"amenity": "pharmacy", "evacuation_center": "no", "flood_prone": "no", "name": "Stash chemist", "opening_hours": "sunrise-sunset", "operational_status": "operational", "operator": "Karisa david", "operator:type": "private", "phone": "+254 115 098 903", "source": "KRCS2023", "storage_area": "no"}}, {"type": "node", "id": 11290358707, "lat": -3.2215148, "lon": 39.8206431, "tags": {"amenity": "pharmacy", "evacuation_center": "no", "flood_prone": "no", "name": "Sosobora chemist", "opening_hours": "sunrise-sunset", "operational_status": "operational", "operator": "Samuel nzivo", "operator:type": "private", "phone": "+254 703 675 998", "source": "KRCS2023", "storage_area": "no"}}, {"type": "node", "id": 11290358709, "lat": -3.178151, "lon": 39.881914, "tags": {"amenity": "clinic", "evacuation_center": "no", "flood_prone": "no", "name": "Trocom", "opening_hours": "24/7", "operational_status": "operational", "operator": "Private", "operator:type": "private", "phone": "+254 729 173 271", "source": "KRCS2023", "storage_area": "yes"}}, {"type": "node", "id": 11290358711, "lat": -3.183852, "lon": 39.7841425, "tags": {"amenity": "clinic", "evacuation_center": "no", "flood_prone": "no", "name": "Max medical center", "opening_hours": "24/7", "operational_status": "operational", "operator": "James ndaa", "operator:type": "private", "phone": "+254 707 422 466", "source": "KRCS2023", "storage_area": "no"}}, {"type": "node", "id": 11290358722, "lat": -3.1724383, "lon": 40.1195965, "tags": {"amenity": "clinic", "evacuation_center": "no", "flood_prone": "no", "name": "Kibokoni Boarding Primary Clinic", "opening_hours": "sunrise-sunset", "operational_status": "operational", "operator": "John", "operator:type": "private", "phone": "+254 718 791 002", "source": "KRCS2023", "storage_area": "yes"}}, {"type": "node", "id": 11290358726, "lat": -3.1796306, "lon": 39.7858198, "tags": {"amenity": "hospital", "evacuation_center": "no", "flood_prone": "no", "name": "Baolala dispensary", "opening_hours": "24/7", "operational_status": "operational", "operator": "Ministry of Health", "operator:type": "public", "phone": "+254 714 513 109", "source": "KRCS2023", "storage_area": "yes"}}, {"type": "node", "id": 11290358731, "lat": -3.1826028, "lon": 39.8925526, "tags": {"amenity": "pharmacy", "evacuation_center": "no", "flood_prone": "no", "name": "Jilore chemist", "opening_hours": "sunrise-sunset", "operational_status": "operational", "operator": "Kelvin mweni", "operator:type": "private", "phone": "+254 759 518 754", "source": "KRCS2023", "storage_area": "no"}}, {"type": "node", "id": 11290358732, "lat": -3.1825088, "lon": 39.937729, "tags": {"amenity": "pharmacy", "evacuation_center": "no", "flood_prone": "no", "name": "Eliud safari", "opening_hours": "sunrise-sunset", "operational_status": "operational", "operator": "Private", "operator:type": "private", "phone": "+254 790 510 174", "source": "KRCS2023", "storage_area": "yes"}}, {"type": "node", "id": 11290358734, "lat": -3.1722637, "lon": 39.959339, "tags": {"amenity": "clinic", "evacuation_center": "no", "flood_prone": "yes", "name": "Ramos medical clinic", "opening_hours": "sunrise-sunset", "operational_status": "operational", "operator": "Private", "operator:type": "private", "phone": "+254 713 439 410", "source": "KRCS2023", "storage_area": "yes"}}, {"type": "node", "id": 11290358735, "lat": -3.1735948, "lon": 39.8601264, "tags": {"amenity": "clinic", "evacuation_center": "no", "flood_prone": "no", "name": "Upendo healthcare clinic", "opening_hours": "24/7", "operational_status": "operational", "operator": "Emmanuel mwandenge", "operator:type": "private", "phone": "+254 721 404 976", "source": "KRCS2023", "storage_area": "yes"}}, {"type": "node", "id": 11290358736, "lat": -3.1837784, "lon": 39.8249752, "tags": {"amenity": "pharmacy", "evacuation_center": "no", "flood_prone": "no", "name": "My Me Chemist", "opening_hours": "sunrise-sunset", "operational_status": "operational", "operator": "Eliud charo", "operator:type": "private", "phone": "+254 769 985 152", "source": "KRCS2023", "storage_area": "no"}}, {"type": "way", "id": 162982309, "nodes": [1747678874, 1747678876, 1747678881, 1747678880, 1747678874], "tags": {"amenity": "hospital", "name": "Ganze Medical Clinic"}}, {"type": "way", "id": 792512194, "nodes": [1329652002, 7410724696, 7410724697, 7410724698, 7410724699, 1329652002], "tags": {"amenity": "hospital", "healthcare": "hospital", "name": "Malindi Sub-County Hospital", "name:it": "Ospedale"}}, {"type": "way", "id": 797418525, "nodes": [4707793172, 7457949992, 7457949993, 7457949994, 4707793172], "tags": {"amenity": "hospital", "building:material": "concreate", "building:roof": "ironsheets", "electricity:operational_status": "sometimes", "health:government_registered": "yes", "health:laboratory_present": "yes", "health:pharmacy_present": "yes", "health:program_counselling": "yes", "health:program_general_treatment": "yes", "health:program_laboratory_testing": "yes", "health:program_malaria": "yes", "health:water_present": "yes", "healthcare": "hospital", "name": "chamalo health centre", "place:ADP_area": "ganze", "status:operational_status": "operational", "toilet:present": "yes"}}, {"type": "way", "id": 797904721, "nodes": [5735880000, 7462929247, 7462929248, 7462929249, 5735880000], "tags": {"addr:city": "Kilifi", "amenity": "hospital", "emergency": "yes", "healthcare": "hospital", "healthcare:speciality": "general", "name": "Matsangoni Health Centre", "operator": "Government"}}]}