{"version": 0.6, "generator": "Overpass API 0.7.61.5 4133829e", "osm3s": {"timestamp_osm_base": "2024-02-29T13:47:24Z", "copyright": "The data included in this document is from www.openstreetmap.org. The data is made available under ODbL."}, "elements": [{"type": "node", "id": 8536013081, "lat": 6.8772072, "lon": -0.3691144, "tags": {"amenity": "school"}}, {"type": "node", "id": 8986320968, "lat": 6.9690191, "lon": -0.4366824}, {"type": "node", "id": 8986320969, "lat": 6.9691762, "lon": -0.4342121}, {"type": "node", "id": 8986320970, "lat": 6.9677331, "lon": -0.4341343}, {"type": "node", "id": 8986320971, "lat": 6.9676266, "lon": -0.4366234}, {"type": "way", "id": 970973299, "nodes": [8986320971, 8986320970, 8986320969, 8986320968, 8986320971], "tags": {"addr:country": "GH", "addr:district": "Afram Plains (Kwahu South)", "addr:place": "Maame Krobo", "addr:region": "Eastern", "amenity": "school", "description": "The school was established in 2016 by HE John Dramani Mahama in the Maame Krobo Community along the Akyemfo Road in the Kwahu Afram Plains District.", "email": "maamekrobocommshs@ges.gov.gh", "isced:level": "3", "name": "Maame Krobo Community Senior High School", "operator": "Ghana Education Service", "operator:short": "GES", "operator:type": "public", "operator:wikidata": "Q30263788", "phone": "+233 24 438 9492", "start_date": "2016"}}]}