{"version": 0.6, "generator": "Overpass API 0.7.61.5 4133829e", "osm3s": {"timestamp_osm_base": "2024-03-06T11:18:45Z", "copyright": "The data included in this document is from www.openstreetmap.org. The data is made available under ODbL."}, "elements": [{"type": "node", "id": 571229561, "lat": 36.1498362, "lon": 41.2220518, "tags": {"alt_name": "\u0645\u0637\u0631\u064a", "is_in": "Syria, \u0627\u0644\u062c\u0645\u0647\u0648\u0631\u064a\u0629 \u0627\u0644\u0639\u0631\u0628\u064a\u0629 \u0627\u0644\u0633\u0648\u0631\u064a\u0629 \u060c \u0633\u0648\u0631\u064a\u0627", "name": "Ma\u0163ar\u012b, \u0645\u0637\u0631\u064a", "name:alt": "Ma\u0163ar\u012b", "name:ar": "\u0645\u0637\u0631\u064a", "name:ar1": "\u0645\u0637\u0631\u064a", "name:de": "Matari", "name:en": "Matari", "name:fr": "Matari", "place": "village"}}, {"type": "node", "id": 571229618, "lat": 36.05455, "lon": 41.2052483, "tags": {"alt_name": "\u062a\u0644 \u0635\u0641\u0648\u0642", "int_name": "Tall Sufuk, Tall \u015euf\u016bk, Tell Sfoug, Tell Sfouq, Tall \u015eaf\u016bq", "is_in": "Syria, \u0627\u0644\u062c\u0645\u0647\u0648\u0631\u064a\u0629 \u0627\u0644\u0639\u0631\u0628\u064a\u0629 \u0627\u0644\u0633\u0648\u0631\u064a\u0629 \u060c \u0633\u0648\u0631\u064a\u0627", "name": "\u062a\u0644 \u0635\u0641\u0648\u0642", "name:ar": "\u062a\u0644 \u0635\u0641\u0648\u0642", "name:ar1": "\u062a\u0644 \u0635\u0641\u0648\u0642", "name:de": "Tall Safuq", "name:en": "Tall Safuq", "name:fr": "Tall Safuq", "place": "village"}}, {"type": "node", "id": 571229643, "lat": 36.0500934, "lon": 41.2124779, "tags": {"alt_name": "\u0627\u0644\u0633\u0627\u064a\u0628\u0629", "is_in": "Syria, \u0627\u0644\u062c\u0645\u0647\u0648\u0631\u064a\u0629 \u0627\u0644\u0639\u0631\u0628\u064a\u0629 \u0627\u0644\u0633\u0648\u0631\u064a\u0629 \u060c \u0633\u0648\u0631\u064a\u0627", "name": "\u0627\u0644\u0633\u0627\u064a\u0628\u0629", "name:alt": "As S\u0101ybah", "name:ar": "\u0627\u0644\u0633\u0627\u064a\u0628\u0629", "name:ar1": "\u0627\u0644\u0633\u0627\u064a\u0628\u0629", "name:de": "As Saybah", "name:en": "As Saybah", "name:fr": "As Saybah", "place": "village"}}, {"type": "node", "id": 571229659, "lat": 36.0485005, "lon": 41.0722532, "tags": {"alt_name": "\u0627\u0644\u062f\u0631\u064a\u0633\u064a\u0629", "is_in": "Syria, \u0627\u0644\u062c\u0645\u0647\u0648\u0631\u064a\u0629 \u0627\u0644\u0639\u0631\u0628\u064a\u0629 \u0627\u0644\u0633\u0648\u0631\u064a\u0629 \u060c \u0633\u0648\u0631\u064a\u0627", "name": "\u0627\u0644\u062f\u0631\u064a\u0633\u064a\u0629", "name:alt": "Ad Durays\u012byah", "name:ar": "\u0627\u0644\u062f\u0631\u064a\u0633\u064a\u0629", "name:ar1": "\u0627\u0644\u062f\u0631\u064a\u0633\u064a\u0629", "name:de": "Ad Duraysiyah", "name:en": "Ad Duraysiyah", "name:fr": "Ad Duraysiyah", "place": "village"}}, {"type": "node", "id": 2488243024, "lat": 36.0463144, "lon": 41.28583, "tags": {"alt_name": "\u0639\u0627\u064a\u0641\u0627\u0646 \u0627\u0644\u0645\u0643\u0637\u0639", "int_name": "\u0639\u0627\u064a\u0641\u0627\u0646 \u0627\u0644\u0645\u0643\u0637\u0639, \u0639\u0627\u064a\u0641\u0627\u0646 \u0627\u0644\u0645\u0643\u0637\u0639", "is_in": "Iraq , \u062c\u0645\u0647\u0648\u0631\u064a\u0629 \u0627\u0644\u0639\u0631\u0627\u0642", "name": "\u0639\u0627\u064a\u0641\u0627\u0646 \u0627\u0644\u0645\u0643\u0637\u0639", "name:ar": "\u0639\u0627\u064a\u0641\u0627\u0646 \u0627\u0644\u0645\u0643\u0637\u0639", "name:ar1": "\u0639\u0627\u064a\u0641\u0627\u0646 \u0627\u0644\u0645\u0643\u0637\u0639", "name:de": "\u0639\u0627\u064a\u0641\u0627\u0646 \u0627\u0644\u0645\u0643\u0637\u0639", "name:fr": "\u0639\u0627\u064a\u0641\u0627\u0646 \u0627\u0644\u0645\u0643\u0637\u0639", "place": "village"}}, {"type": "node", "id": 3883706762, "lat": 36.2367828, "lon": 41.1557587}, {"type": "node", "id": 3883706763, "lat": 36.23725, "lon": 41.1538608}, {"type": "node", "id": 3883706764, "lat": 36.2387907, "lon": 41.1548098}, {"type": "node", "id": 3883706765, "lat": 36.2385223, "lon": 41.1560299}, {"type": "node", "id": 3883706766, "lat": 36.2378364, "lon": 41.1562517}, {"type": "node", "id": 3883706767, "lat": 36.2367529, "lon": 41.1564242}, {"type": "node", "id": 4011390489, "lat": 36.1372122, "lon": 41.2161452, "tags": {"place": "hamlet"}}, {"type": "way", "id": 385013838, "nodes": [3883706762, 3883706763, 3883706764, 3883706765, 3883706766, 3883706767, 3883706762], "tags": {"landuse": "residential", "place": "hamlet"}}]}