{"version": 0.6, "generator": "Overpass API 0.7.61.5 4133829e", "osm3s": {"timestamp_osm_base": "2024-03-06T11:35:00Z", "copyright": "The data included in this document is from www.openstreetmap.org. The data is made available under ODbL."}, "elements": [{"type": "node", "id": 1655767162, "lat": 1.3574886, "lon": 34.0328596, "tags": {"amenity": "hospital"}}, {"type": "node", "id": 1655767168, "lat": 1.4105192, "lon": 33.9913711}, {"type": "node", "id": 2142787552, "lat": 1.5258852, "lon": 33.9759211}, {"type": "node", "id": 3953636040, "lat": 1.1705633, "lon": 34.3346786, "tags": {"addr:city": "Budadiri Town Council", "addr:street": "Budadiri", "amenity": "doctors", "bed_count": "10", "name": "Budadiri Health Center"}}, {"type": "node", "id": 3953636047, "lat": 1.2194179, "lon": 34.3208339}, {"type": "node", "id": 3953637071, "lat": 1.2149496, "lon": 34.3008614, "tags": {"addr:city": "Buhugu", "addr:street": "Bunasa Road", "amenity": "clinic", "name": "Neural Clinic"}}, {"type": "node", "id": 3953637076, "lat": 1.1716574, "lon": 34.3353009, "tags": {"addr:city": "Budadiri Town Council", "addr:street": "Sironko_Budadiri", "amenity": "doctors", "bed_count": "5", "name": "St Anita Health Center"}}, {"type": "node", "id": 3953637078, "lat": 1.2145527, "lon": 34.2991662, "tags": {"addr:city": "Buhugu", "addr:street": "Mutufu Budadiri Road", "amenity": "clinic", "name": "Trust Drug Shop"}}, {"type": "node", "id": 3954015002, "lat": 1.1620614, "lon": 34.2038453, "tags": {"addr:city": "Bukiyi", "addr:street": "Mbale Sironko Road", "amenity": "clinic", "bed_count": "10", "name": "Nampanga General Clinic"}}, {"type": "node", "id": 3954021724, "lat": 1.1697499, "lon": 34.2453796, "tags": {"addr:city": "Buwalasi", "addr:street": "Bukumbale Buyaya Road", "amenity": "clinic", "bed_count": "5", "name": "Buyaya HC II"}}, {"type": "node", "id": 3954021734, "lat": 1.1595863, "lon": 34.2962013, "tags": {"addr:city": "Buyobo", "addr:street": "Buyobo Road", "amenity": "clinic", "name": "Line Drug Shop"}}, {"type": "node", "id": 3954839485, "lat": 1.1699365, "lon": 34.2152713, "tags": {"addr:city": "Bukiyi", "addr:street": "Bukiwagalo", "amenity": "clinic", "name": "Bukigalabo Clinic"}}, {"type": "node", "id": 3954839510, "lat": 1.232026, "lon": 34.247303, "tags": {"addr:city": "Sironko Town Council", "addr:street": "Sironko Kapchorwa", "amenity": "pharmacy", "healthcare": "pharmacy"}}, {"type": "node", "id": 3955006908, "lat": 1.2376801, "lon": 34.2885027, "tags": {"addr:city": "Bukiise Sub County", "amenity": "clinic", "healthcare": "clinic", "name": "Nalugugu"}}, {"type": "node", "id": 3955006909, "lat": 1.2257833, "lon": 34.3118477, "tags": {"addr:city": "Bukiise Sub County", "amenity": "hospital", "name": "Our lady"}}, {"type": "node", "id": 3955147856, "lat": 1.2164942, "lon": 34.3513298, "tags": {"addr:city": "Butandiga", "amenity": "clinic", "name": "Butandiga Health Center 3"}}, {"type": "node", "id": 3955147962, "lat": 1.2420766, "lon": 34.3212461, "tags": {"addr:city": "Butandiga", "amenity": "clinic", "bed_count": "4", "name": "Mbaya Health Center 3"}}, {"type": "node", "id": 3955382755, "lat": 1.2218831, "lon": 34.2069195, "tags": {"addr:city": "Bukhulo Sub County", "addr:street": "Bukomola street", "amenity": "clinic", "bed_count": "1", "name": "Bukulo Drug Shop"}}, {"type": "node", "id": 3955387758, "lat": 1.2189461, "lon": 34.2030686, "tags": {"addr:city": "Bukhulo Sub County", "addr:street": "Bukomola Street", "amenity": "clinic", "bed_count": "1", "name": "God's Mercy"}}, {"type": "node", "id": 3955387759, "lat": 1.1962651, "lon": 34.1937786, "tags": {"addr:city": "Bukhulo Sub County", "addr:street": "Sironko Kapchorwa Road", "amenity": "clinic", "bed_count": "0", "name": "Judith Drug Shop"}}, {"type": "node", "id": 3955387771, "lat": 1.209338, "lon": 34.1982637, "tags": {"addr:city": "Bukhulo Sub County", "addr:street": "Kirombe Street", "amenity": "clinic", "name": "Three Star Juliet"}}, {"type": "node", "id": 3955387772, "lat": 1.1937003, "lon": 34.1905252, "tags": {"addr:city": "Bukhulo Sub County", "addr:street": "Sironko kapchorwa Road", "amenity": "clinic", "bed_count": "0", "name": "Tuwonye Drug Shop"}}, {"type": "node", "id": 3955387773, "lat": 1.1952002, "lon": 34.1916122, "tags": {"addr:city": "Bukhulo Sub County", "addr:street": "Sironko Kapchorwa Road", "amenity": "clinic", "bed_count": "3"}}, {"type": "node", "id": 3958366562, "lat": 1.3256062, "lon": 34.2890885}, {"type": "node", "id": 3958413957, "lat": 1.3259364, "lon": 34.3494761, "tags": {"addr:city": "Kaserem", "amenity": "clinic", "bed_count": "20", "name": "Kaserem Health Center 3"}}, {"type": "node", "id": 3958420178, "lat": 1.3058605, "lon": 34.2555261, "tags": {"addr:city": "Bukhalu", "amenity": "doctors", "name": "Bukhalu Health Centre 3"}}, {"type": "node", "id": 3958420182, "lat": 1.2798429, "lon": 34.2775245, "tags": {"addr:city": "Bukhalu", "amenity": "doctors", "name": "Buyaga Health Clinic"}}, {"type": "node", "id": 3958426613, "lat": 1.2271409, "lon": 34.1676859, "tags": {"addr:city": "Kachumbala", "addr:street": "Aligoi Road", "amenity": "doctors", "bed_count": "0", "name": "Aligoi Medical Centre"}}, {"type": "node", "id": 3958426626, "lat": 1.1952427, "lon": 34.0924031, "tags": {"addr:city": "Kachumbala", "amenity": "pharmacy", "description": "Drug Shop And Clinic", "name": "Good Choice Drug Shop"}}, {"type": "node", "id": 3958426627, "lat": 1.2150594, "lon": 34.1191484, "tags": {"addr:city": "Kachumbala", "addr:street": "Lira-Mbale Road", "amenity": "pharmacy", "bed_count": "0", "name": "Happy Land Drug Shop"}}, {"type": "node", "id": 3958426628, "lat": 1.212755, "lon": 34.1207477, "tags": {"addr:city": "Kachumbala", "addr:street": "Lira-Mbale Road", "amenity": "doctors", "bed_count": "3", "name": "Hope Medical Clinic"}}, {"type": "node", "id": 3958426630, "lat": 1.2110775, "lon": 34.1192545, "tags": {"addr:city": "Kachumbala", "amenity": "doctors", "name": "Isaac Memorial Medicare Clinic"}}, {"type": "node", "id": 3958426651, "lat": 1.2111371, "lon": 34.1219508, "tags": {"addr:city": "Kachumbala", "addr:street": "Lira-Mbale Road", "amenity": "doctors", "bed_count": "2", "name": "Martha Maternity Home"}}, {"type": "node", "id": 3958426958, "lat": 1.2287205, "lon": 34.0821693, "tags": {"addr:city": "Kachumbala", "addr:street": "Kidongole Road", "amenity": "clinic", "bed_count": "1", "description": "Drug Shop And Clinic", "name": "Point Of Grace Drug Shop"}}, {"type": "node", "id": 3958426960, "lat": 1.226154, "lon": 34.0666285, "tags": {"addr:city": "Kachumbala", "addr:street": "Kawo Kachumbala Road", "amenity": "doctors", "bed_count": "1", "description": "Clinic And Drug Shop", "name": "St. Elizabeth Drug Shop"}}, {"type": "node", "id": 3958426962, "lat": 1.214311, "lon": 34.1192812, "tags": {"addr:city": "Kachumbala", "addr:street": "Kumi Road", "amenity": "doctors", "bed_count": "2", "description": "Drug Shop And Clinic", "name": "St. Mary's Drug Shop"}}, {"type": "node", "id": 3958426968, "lat": 1.2134396, "lon": 34.1193007, "tags": {"addr:city": "Kachumbala", "amenity": "pharmacy", "description": "Drug Shop"}}, {"type": "node", "id": 3958426972, "lat": 1.2141808, "lon": 34.1184005, "tags": {"addr:city": "Kachumbala", "amenity": "doctors"}}, {"type": "node", "id": 3958426974, "lat": 1.2262937, "lon": 34.0661861, "tags": {"addr:city": "Kachumbala", "amenity": "doctors"}}, {"type": "node", "id": 3958445693, "lat": 1.3200929, "lon": 34.1647972, "tags": {"addr:city": "Kolir", "addr:street": "Bukedea Road", "amenity": "pharmacy", "description": "Drug Shop", "name": "Elgon Drug Shop"}}, {"type": "node", "id": 3958445697, "lat": 1.3575306, "lon": 34.1760817, "tags": {"addr:city": "Kolir", "addr:street": "Kamutor Road", "amenity": "hospital", "bed_count": "20", "description": "Private Aided", "name": "Holy Innocents Health Centre"}}, {"type": "node", "id": 3958445703, "lat": 1.3181519, "lon": 34.1642595, "tags": {"addr:city": "Kolir", "addr:street": "Kachumbala Road", "amenity": "hospital", "bed_count": "20", "description": "Government Aided", "name": "Kolir Health Centre"}}, {"type": "node", "id": 3958445704, "lat": 1.3174916, "lon": 34.1632634, "tags": {"addr:city": "Kolir", "addr:street": "Kolir Road", "amenity": "doctors", "bed_count": "4", "description": "Consultations And Inpatients", "name": "Kolir Medical Associates"}}, {"type": "node", "id": 3958447292, "lat": 1.3921314, "lon": 34.3186697, "tags": {"addr:city": "Bwikhonge", "addr:street": "Bwikhonge", "amenity": "clinic", "name": "Bwikhonge Health Centre ll"}}, {"type": "node", "id": 3958447296, "lat": 1.4048215, "lon": 34.3437709, "tags": {"addr:city": "Bwikhonge", "addr:street": "Market Street", "amenity": "pharmacy", "name": "CNM Drug Shop Bunambutye"}}, {"type": "node", "id": 3958468149, "lat": 1.3278691, "lon": 34.1093876, "tags": {"addr:city": "Bukedea", "amenity": "doctors", "name": "Akouro HTC 2"}}, {"type": "node", "id": 3958468152, "lat": 1.3290788, "lon": 34.0423291, "tags": {"addr:city": "Bukedea Town Council", "amenity": "doctors", "name": "Bukedea Health Centre 4"}}, {"type": "node", "id": 3958468263, "lat": 1.2780019, "lon": 34.0545858, "tags": {"addr:city": "Bukedea", "amenity": "doctors", "name": "Okocheka Health Centre 2"}}, {"type": "node", "id": 3958566728, "lat": 1.2584801, "lon": 33.975138, "tags": {"addr:city": "Kidongole", "addr:street": "Mukongoro Road", "amenity": "doctors", "bed_count": "2", "building": "hospital", "building:levels": "1", "building:material": "brick", "description": "Treatment", "name": "Hozana Medical Clinic"}}, {"type": "node", "id": 3958566730, "lat": 1.4387466, "lon": 34.1280198, "tags": {"addr:city": "Malera", "amenity": "doctors", "bed_count": "8", "name": "Kabarwa Health Center III"}}, {"type": "node", "id": 3958566742, "lat": 1.260695, "lon": 33.9799008, "tags": {"addr:city": "Kidongole", "addr:street": "Bukedea road", "amenity": "doctors", "building": "hospital", "building:levels": "1", "building:material": "cement_block", "name": "Kidongole Health Centre 3"}}, {"type": "node", "id": 3958566746, "lat": 1.2476666, "lon": 33.9479228, "tags": {"addr:city": "Kidongole", "addr:street": "Pallisa Road", "amenity": "clinic", "bed_count": "12", "building": "hospital", "building:levels": "1", "building:material": "brick", "description": "First Aid And Treatment", "name": "Koboli Health Centre 2"}}, {"type": "node", "id": 3958566755, "lat": 1.4344028, "lon": 34.0512443, "tags": {"addr:city": "Malera", "amenity": "doctors", "bed_count": "7", "building": "hospital", "building:material": "cement_block", "name": "Madera Health Center"}}, {"type": "node", "id": 3958567958, "lat": 1.2227999, "lon": 34.0140458}, {"type": "node", "id": 3959040462, "lat": 1.3485039, "lon": 34.0434925, "tags": {"addr:city": "Bukedia", "amenity": "clinic", "name": "Frankia Pharmacy"}}, {"type": "node", "id": 3959040471, "lat": 1.2739658, "lon": 34.0040588, "tags": {"addr:city": "Bukedea", "addr:street": "Kidongole", "amenity": "hospital", "bed_count": "30", "building:material": "cement_block", "name": "Kidongole Health Centre 111"}}, {"type": "node", "id": 3959040487, "lat": 1.3296882, "lon": 34.0422422, "tags": {"addr:city": "Bukedea", "addr:street": "Kidongole", "amenity": "hospital", "bed_count": "87", "building:material": "cement_block"}}, {"type": "node", "id": 3959040488, "lat": 1.3317589, "lon": 34.0524205, "tags": {"addr:city": "Bukedea", "addr:street": "Outeke Road", "amenity": "clinic", "building:material": "cement_block"}}, {"type": "node", "id": 3959040489, "lat": 1.3433657, "lon": 34.0239201, "tags": {"addr:city": "Bukedea", "addr:street": "Lira Mbale Road", "amenity": "clinic", "building:material": "cement_block"}}, {"type": "node", "id": 3959654608, "lat": 1.4365079, "lon": 34.0507362, "tags": {"addr:city": "Malera", "amenity": "doctors", "building:material": "cement_block;brick", "name": "Sun Rise Drug shop"}}, {"type": "node", "id": 3959794716, "lat": 1.2702473, "lon": 34.3259111, "tags": {"addr:city": "Sisiyi", "amenity": "doctors", "name": "Bumugisha Health Centre"}}, {"type": "node", "id": 3959794718, "lat": 1.260078, "lon": 34.3471707, "tags": {"addr:city": "Lusha", "addr:street": "Bumwambu village", "amenity": "doctors", "name": "Bumwambu Health center"}}, {"type": "node", "id": 3961033858, "lat": 1.3728616, "lon": 34.0461019, "tags": {"addr:city": "Bukedea", "amenity": "doctors", "name": "Bukedea Mission Dispensary"}}, {"type": "node", "id": 3965525601, "lat": 1.4365079, "lon": 34.0507362, "tags": {"addr:city": "Malera", "amenity": "pharmacy", "building:material": "cement_block;brick", "name": "Sun Rise Drug shop"}}, {"type": "node", "id": 3966680762, "lat": 1.1724209, "lon": 33.9351315, "tags": {"addr:city": "Petete", "amenity": "doctors", "name": "Galimagi Health Center 3"}}, {"type": "node", "id": 3966680775, "lat": 1.1776858, "lon": 33.999939, "tags": {"addr:city": "Kanginima", "addr:street": "Nakaloke Road", "amenity": "clinic", "bed_count": "15", "name": "Kanginima Hospital"}}, {"type": "node", "id": 3966680782, "lat": 1.1717087, "lon": 33.9333308, "tags": {"addr:city": "Petete", "amenity": "doctors", "bed_count": "0", "name": "Ogoso Clinic"}}, {"type": "node", "id": 3978882672, "lat": 1.1933721, "lon": 33.9989182, "tags": {"addr:city": "Bupadoyi", "addr:county": "Butebo", "addr:district": "Pallisa", "addr:parish": "Kanginima", "addr:subcounty": "Kanginima", "amenity": "clinic", "name": "Nakiti Health Institute", "source": "www.ubos.org", "source:date": "2010..2014"}}, {"type": "node", "id": 4729889894, "lat": 1.378518, "lon": 34.2174429, "tags": {"amenity": "hospital", "name": "Holy Innocents Health Center", "name:en": "Holy Innocents Health Center"}}, {"type": "node", "id": 7470529144, "lat": 1.408905, "lon": 33.9916957}, {"type": "node", "id": 7470529145, "lat": 1.4086288, "lon": 33.9903412}, {"type": "node", "id": 7470529146, "lat": 1.4102618, "lon": 33.990022}, {"type": "node", "id": 7492107664, "lat": 1.526093, "lon": 33.9771657}, {"type": "node", "id": 7492107665, "lat": 1.5272927, "lon": 33.9774892}, {"type": "node", "id": 7492107666, "lat": 1.5279627, "lon": 33.9776834}, {"type": "node", "id": 7492107667, "lat": 1.5285282, "lon": 33.9778372}, {"type": "node", "id": 7496690948, "lat": 1.2195378, "lon": 34.320759}, {"type": "node", "id": 7496690949, "lat": 1.2194847, "lon": 34.3206739}, {"type": "node", "id": 7496690950, "lat": 1.2193648, "lon": 34.3207487}, {"type": "node", "id": 7496817282, "lat": 1.2227752, "lon": 34.0139885}, {"type": "node", "id": 7496817283, "lat": 1.2227549, "lon": 34.0138188}, {"type": "node", "id": 7496817284, "lat": 1.2228033, "lon": 34.0137738}, {"type": "node", "id": 7496826582, "lat": 1.3245406, "lon": 34.289117}, {"type": "node", "id": 7496826583, "lat": 1.3244766, "lon": 34.2891643}, {"type": "node", "id": 7496826584, "lat": 1.3245856, "lon": 34.2900337}, {"type": "node", "id": 7496835885, "lat": 1.3251286, "lon": 34.2901219}, {"type": "node", "id": 7496848285, "lat": 1.2229583, "lon": 34.0138109}, {"type": "node", "id": 7496848286, "lat": 1.2229763, "lon": 34.0139784}, {"type": "node", "id": 9263195716, "lat": 1.5262552, "lon": 33.9757293}, {"type": "node", "id": 9263204017, "lat": 1.5263263, "lon": 33.9751889}, {"type": "node", "id": 9263204018, "lat": 1.5274628, "lon": 33.9746568}, {"type": "node", "id": 9263204019, "lat": 1.5288822, "lon": 33.9763973}, {"type": "node", "id": 9263204020, "lat": 1.5289827, "lon": 33.9764314}, {"type": "node", "id": 9263204021, "lat": 1.5267593, "lon": 33.9749502}, {"type": "node", "id": 9263204022, "lat": 1.5279203, "lon": 33.9748482}, {"type": "node", "id": 9263204023, "lat": 1.5292234, "lon": 33.9755724}, {"type": "node", "id": 9263204024, "lat": 1.5270301, "lon": 33.9748442}, {"type": "node", "id": 9263204025, "lat": 1.5287944, "lon": 33.9752801}, {"type": "node", "id": 9263238587, "lat": 1.5290612, "lon": 33.9754564}, {"type": "node", "id": 9263238588, "lat": 1.5285008, "lon": 33.9751198}, {"type": "node", "id": 9263238589, "lat": 1.5283332, "lon": 33.9752063}, {"type": "node", "id": 9263238590, "lat": 1.5282782, "lon": 33.975148}, {"type": "node", "id": 9263238591, "lat": 1.5283004, "lon": 33.9750373}, {"type": "node", "id": 9263238592, "lat": 1.5281308, "lon": 33.9749421}, {"type": "node", "id": 9263238593, "lat": 1.5259777, "lon": 33.9764884}, {"type": "node", "id": 9263238594, "lat": 1.526148, "lon": 33.9758018}, {"type": "node", "id": 9263238595, "lat": 1.5261976, "lon": 33.9752747}, {"type": "node", "id": 10576118813, "lat": 1.4008003, "lon": 34.0084275, "tags": {"amenity": "hospital", "healthcare": "hospital", "name": "Atutur", "source": "Ubos_2014"}}, {"type": "node", "id": 11056438783, "lat": 1.2356708, "lon": 34.3396383, "tags": {"amenity": "clinic", "name": "HEALTH CENTRE II"}}, {"type": "node", "id": 11056438801, "lat": 1.1775813, "lon": 34.0560889, "tags": {"amenity": "clinic", "grade": "HC III", "name": "KAKORO"}}, {"type": "node", "id": 11056438803, "lat": 1.2687185, "lon": 34.3262922, "tags": {"amenity": "clinic", "name": "BUMUGUSHA HEALTH CENTRE II"}}, {"type": "node", "id": 11056451820, "lat": 1.5561077, "lon": 34.0055948, "tags": {"amenity": "hospital", "description": "UNDER CONSTRUCTION", "name": "ONGINO HOSPITAL"}}, {"type": "node", "id": 11056451821, "lat": 1.2089889, "lon": 34.1213745, "tags": {"amenity": "clinic", "name": "KACHUMBALA MISSION DISPENSARY"}}, {"type": "node", "id": 11056451823, "lat": 1.1894888, "lon": 34.3378812, "tags": {"amenity": "clinic", "name": "HEALTH CENTRE I"}}, {"type": "node", "id": 11056451837, "lat": 1.2016127, "lon": 34.330096, "tags": {"amenity": "hospital", "name": "BUHUGU HEALTHCENTRE III"}}, {"type": "node", "id": 11056451844, "lat": 1.2223571, "lon": 34.2652236, "tags": {"amenity": "clinic", "description": "UNDERCONSTRUCTION", "name": "HEALTH CENTRE TWO"}}, {"type": "node", "id": 11056451863, "lat": 1.440164, "lon": 34.1282872, "tags": {"amenity": "hospital", "grade": "HC III", "name": "KABARWA"}}, {"type": "node", "id": 11056451877, "lat": 1.3723591, "lon": 34.0459223, "tags": {"amenity": "clinic", "description": "H/CIII", "name": "OKUNGURO DISP."}}, {"type": "node", "id": 11056451885, "lat": 1.1971809, "lon": 34.1934625, "tags": {"amenity": "clinic", "name": "BUNDEGE HOSPITAL"}}, {"type": "node", "id": 11056451891, "lat": 1.2757078, "lon": 34.1644784, "tags": {"amenity": "clinic", "name": "AMUEN H/C II"}}, {"type": "node", "id": 11056451901, "lat": 1.1726857, "lon": 33.9351361, "tags": {"amenity": "clinic", "grade": "HC III", "name": "GALIMAGI"}}, {"type": "node", "id": 11056451907, "lat": 1.2144347, "lon": 34.3374441, "tags": {"amenity": "clinic", "name": "HEALTH CENTRE II"}}, {"type": "node", "id": 11056451908, "lat": 1.4098237, "lon": 33.9913544, "tags": {"amenity": "clinic", "name": "ATUTUR HOSPITAL"}}, {"type": "node", "id": 11056451912, "lat": 1.2469489, "lon": 33.9495868, "tags": {"amenity": "clinic", "description": "HC II", "name": "KOBOLI HEALTH CENTRE"}}, {"type": "node", "id": 11056451929, "lat": 1.2689248, "lon": 34.2580295, "tags": {"amenity": "clinic", "name": "HEALTH CENTRE II"}}, {"type": "node", "id": 11056451944, "lat": 1.1704694, "lon": 34.3341069, "tags": {"amenity": "hospital", "name": "BUDADIRI HEALTH CENTRE 4"}}, {"type": "node", "id": 11056451948, "lat": 1.20318, "lon": 34.3064986, "tags": {"amenity": "clinic", "name": "MUTUFU HEALTH CENTRE II"}}, {"type": "node", "id": 11056451971, "lat": 1.1858488, "lon": 34.2505408, "tags": {"amenity": "clinic", "name": "BUYAYA HEALTH CENTRE II"}}, {"type": "node", "id": 11056451986, "lat": 1.1799166, "lon": 34.2672979, "tags": {"amenity": "clinic", "description": "NOT FUNCTIONING", "name": "AID POST G"}}, {"type": "node", "id": 11056451987, "lat": 1.1710483, "lon": 34.3340173, "tags": {"amenity": "clinic", "grade": "Hospital"}}, {"type": "node", "id": 11056452016, "lat": 1.2161624, "lon": 34.318915, "tags": {"amenity": "clinic", "name": "HEALTH CENTRE III"}}, {"type": "node", "id": 11056452020, "lat": 1.3932329, "lon": 34.2389318, "tags": {"amenity": "clinic", "name": "TAJAR H/C II"}}, {"type": "node", "id": 11056452034, "lat": 1.3450322, "lon": 34.0470251, "tags": {"amenity": "clinic", "name": "BUKEDEA MED. CENTRE"}}, {"type": "node", "id": 11056452053, "lat": 1.219156, "lon": 34.2047775, "tags": {"amenity": "clinic", "description": "NOT FUNCTIONAL", "name": "HEALTH CENTRE II"}}, {"type": "node", "id": 11056452060, "lat": 1.2474199, "lon": 34.210443, "tags": {"amenity": "clinic", "name": "OKUM H/C II"}}, {"type": "node", "id": 11056452064, "lat": 1.3474475, "lon": 34.0448331, "tags": {"amenity": "clinic", "grade": "HC II", "name": "ST JUDE"}}, {"type": "node", "id": 11056452078, "lat": 1.5580964, "lon": 34.008526, "tags": {"amenity": "clinic", "name": "ONGINO HC III"}}, {"type": "node", "id": 11056452079, "lat": 1.2266497, "lon": 34.1122329, "tags": {"amenity": "clinic", "name": "KACHUMBALA HC III"}}, {"type": "node", "id": 11056452082, "lat": 1.1945349, "lon": 34.321304, "tags": {"amenity": "clinic", "name": "HEALTH CENTRE I"}}, {"type": "node", "id": 11056452104, "lat": 1.2317872, "lon": 34.2919991, "tags": {"amenity": "clinic", "name": "ST.MARYS'S MEDICAL CENTRE"}}, {"type": "node", "id": 11056452105, "lat": 1.5278532, "lon": 33.9757483, "tags": {"amenity": "clinic", "name": "KUMI HOSPITAL"}}, {"type": "node", "id": 11056452111, "lat": 1.2985313, "lon": 34.3246451, "tags": {"amenity": "clinic", "description": "NOT FUNCTIONAL", "name": "AID POST C"}}, {"type": "node", "id": 11056452124, "lat": 1.3501338, "lon": 34.0454364, "tags": {"amenity": "clinic", "name": "EYE CENTRE"}}, {"type": "node", "id": 11056452128, "lat": 1.2442949, "lon": 34.3487908, "tags": {"amenity": "clinic", "name": "TUNYI HEALTH CENTRE II"}}, {"type": "node", "id": 11056452155, "lat": 1.2618911, "lon": 34.2694483, "tags": {"amenity": "clinic", "name": "HEALTH CENTRE II"}}, {"type": "node", "id": 11056452182, "lat": 1.3489855, "lon": 34.0442495, "tags": {"amenity": "pharmacy", "name": "KM PHAMACY"}}, {"type": "node", "id": 11056452191, "lat": 1.3207264, "lon": 34.1655415, "tags": {"amenity": "hospital", "grade": "HC III", "name": "KOLIR"}}, {"type": "node", "id": 11056452208, "lat": 1.3064903, "lon": 34.2555945, "tags": {"amenity": "clinic", "name": "HEALTH CENTRE II"}}, {"type": "node", "id": 11056452228, "lat": 1.3935041, "lon": 34.2391027, "tags": {"amenity": "clinic", "grade": "HC II", "name": "ATAJAR"}}, {"type": "node", "id": 11056452238, "lat": 1.3201384, "lon": 34.1655412, "tags": {"amenity": "clinic", "name": "KAGOLOTO H/C III"}}, {"type": "node", "id": 11056452260, "lat": 1.2720849, "lon": 34.3053731, "tags": {"amenity": "clinic", "name": "HEALTH CENTRE TWO"}}, {"type": "node", "id": 11056452279, "lat": 1.2239169, "lon": 34.2374645, "tags": {"amenity": "clinic", "name": "HEALTH CENTRE III"}}, {"type": "node", "id": 11056452284, "lat": 1.3484321, "lon": 34.0450283, "tags": {"amenity": "clinic", "name": "ST. JUDE CLINIC MATERNITY WARD"}}, {"type": "node", "id": 11056452292, "lat": 1.3722059, "lon": 34.04461, "tags": {"amenity": "hospital", "grade": "HC III", "name": "BUKEDEA"}}, {"type": "node", "id": 11056452300, "lat": 1.3293659, "lon": 34.0426953, "tags": {"amenity": "clinic", "description": "H/CIV", "name": "BUKEDEA HEALTH CENTRE"}}, {"type": "node", "id": 11056452303, "lat": 1.3278903, "lon": 34.2918406, "tags": {"amenity": "hospital", "name": "HEALTH CENTRE IV"}}, {"type": "node", "id": 11056452320, "lat": 1.2045347, "lon": 34.3291269, "tags": {"amenity": "clinic", "name": "HEALTH CENTRE II"}}, {"type": "node", "id": 11056452321, "lat": 1.1646586, "lon": 34.0701308, "tags": {"amenity": "clinic", "grade": "HC II", "name": "KAKORO SD"}}, {"type": "node", "id": 11056452322, "lat": 1.3601342, "lon": 34.013381, "tags": {"amenity": "clinic", "name": "CLINIC"}}, {"type": "node", "id": 11056452325, "lat": 1.1995886, "lon": 34.1689295, "tags": {"amenity": "clinic", "description": "UNDER CONSTRUCTION", "name": "NALUGAI HC III"}}, {"type": "node", "id": 11056452345, "lat": 1.2144025, "lon": 34.3374212, "tags": {"amenity": "clinic", "name": "HEALTH CENTRE I"}}, {"type": "node", "id": 11056452363, "lat": 1.1706164, "lon": 34.3291915, "tags": {"amenity": "clinic", "name": "BUDADIRI MISSION H/CENTRE"}}, {"type": "node", "id": 11056452366, "lat": 1.2325196, "lon": 34.2665854, "tags": {"amenity": "clinic", "description": "PRIIVATE OWNED", "name": "SHARED BLESSING HEALTH CENTRE TWO"}}, {"type": "node", "id": 11056452386, "lat": 1.2897495, "lon": 34.2339278, "tags": {"amenity": "clinic", "name": "BUSANO H/C II"}}, {"type": "node", "id": 11056452388, "lat": 1.1601768, "lon": 34.2883024, "tags": {"amenity": "clinic", "name": "BUYOBO MILLENIUM HEALTH CENTRE II"}}, {"type": "node", "id": 11056452389, "lat": 1.2631032, "lon": 34.269332, "tags": {"amenity": "clinic", "name": "NUTRITITION UNIT"}}, {"type": "node", "id": 11056452403, "lat": 1.1751608, "lon": 34.2431221, "tags": {"amenity": "clinic", "name": "BUBBEZA HEALTH CENTRE II"}}, {"type": "node", "id": 11056452414, "lat": 1.3284166, "lon": 34.2713867, "tags": {"amenity": "clinic", "name": "HEALTH CENTRE II"}}, {"type": "node", "id": 11056452450, "lat": 1.2087266, "lon": 34.1213744, "tags": {"amenity": "hospital", "grade": "HC III", "name": "KACHUMBALA"}}, {"type": "node", "id": 11056452455, "lat": 1.2324062, "lon": 34.2461586, "tags": {"amenity": "clinic", "name": "TROPICAL MEDICAL AND MATERNITY CENTER"}}, {"type": "node", "id": 11150672107, "lat": 1.1774729, "lon": 34.0559142, "tags": {"amenity": "hospital", "name": "Kakoro Health Center III"}}, {"type": "way", "id": 798789692, "nodes": [1655767168, 7470529144, 7470529145, 7470529146, 1655767168], "tags": {"amenity": "hospital", "healthcare": "hospital", "name": "Atutur General Hospital", "wikidata": "Q25066633"}}, {"type": "way", "id": 800999119, "nodes": [9263204019, 9263204020, 9263204023, 9263238587, 9263204025, 9263238588, 9263238589, 9263238590, 9263238591, 9263238592, 9263204022, 9263204018, 9263204024, 9263204021, 9263204017, 9263238595, 9263195716, 9263238594, 2142787552, 9263238593, 7492107664, 7492107665, 7492107666, 7492107667, 9263204019], "tags": {"addr:city": "Ongino", "amenity": "hospital", "description": "Kumi Hospital is a private non-profit (PNFP) facility which transformed from a leprosy centre to a general hospital in 1997. It is a member of the Uganda Protestant Medical Bureau (UPMB) and is registered and accredited by the Ministry of Health (MoH).", "email": "info@kumihospital.org", "emergency": "yes", "healthcare": "hospital", "healthcare:speciality": "general;paediatrics;maternity;orthopaedics;gynaecology;emergency;surgery;radiology;community", "name": "Kumi Hospital", "phone": "(256) 776 221 443"}}, {"type": "way", "id": 801517961, "nodes": [3953636047, 7496690948, 7496690949, 7496690950, 3953636047], "tags": {"addr:city": "Bumalimba", "addr:street": "Bumulisha Road", "amenity": "hospital", "bed_count": "2", "healthcare": "hospital", "name": "Bumulisha Health Centre"}}, {"type": "way", "id": 801525296, "nodes": [3958366562, 7496826582, 7496826583, 7496826584, 7496835885, 3958366562], "tags": {"addr:city": "Bulambuli Town Coucil", "amenity": "hospital", "bed_count": "150", "healthcare": "hospital", "name": "Bulambuli Health Centre"}}, {"type": "way", "id": 801526486, "nodes": [3958567958, 7496817282, 7496817283, 7496817284, 7496848285, 7496848286, 3958567958], "tags": {"addr:city": "Kidongole", "addr:street": "Kidongole road", "amenity": "hospital", "bed_count": "20", "building": "hospital", "building:levels": "1", "building:material": "brick", "description": "admissions", "healthcare": "hospital", "name": "The Cross Emergency medical Clinic"}}]}