{"version": 0.6, "generator": "Overpass API 0.7.61.5 4133829e", "osm3s": {"timestamp_osm_base": "2024-03-05T11:05:12Z", "copyright": "The data included in this document is from www.openstreetmap.org. The data is made available under ODbL."}, "elements": [{"type": "node", "id": 7293130070, "lat": 5.6039146, "lon": -1.5470374, "tags": {"amenity": "pharmacy", "dispensing": "yes", "healthcare": "pharmacy"}}, {"type": "node", "id": 8416626844, "lat": 5.605566, "lon": -1.5475454, "tags": {"amenity": "pharmacy", "dispensing": "yes", "healthcare": "pharmacy", "name": "Agblor Pharmacy", "opening_hours": "Mo-Su 08:00-22:00", "owner": "Mr. Agblor"}}, {"type": "node", "id": 9856076368, "lat": 5.6835098, "lon": -1.4960854, "tags": {"amenity": "clinic", "name": "Clinic"}}, {"type": "node", "id": 10203747817, "lat": 5.6175338, "lon": -1.529186, "tags": {"amenity": "hospital", "name": "Twifo Government Hospital"}}, {"type": "node", "id": 10241851457, "lat": 5.6107566, "lon": -1.5489556, "tags": {"amenity": "clinic", "name": "POLYCLINIC", "operator": "GHANA HEALTH SERVICE"}}, {"type": "node", "id": 10242246410, "lat": 5.6087926, "lon": -1.549832, "tags": {"amenity": "pharmacy", "dispensing": "yes", "name": "Drag store", "operator": "Emmanuel Aceampong"}}, {"type": "node", "id": 10242436394, "lat": 5.6520981, "lon": -1.5721956, "tags": {"amenity": "clinic", "name": "Mmaa Baasa CHPS Compound", "operator": "Ghana Health Service"}}, {"type": "node", "id": 10265776948, "lat": 5.5552366, "lon": -1.5437239, "tags": {"amenity": "hospital", "name": "Methodist Hospital", "operator": "Ghana Health Service"}}, {"type": "node", "id": 10266610821, "lat": 5.6106418, "lon": -1.5499547, "tags": {"amenity": "pharmacy", "dispensing": "yes", "name": "Nat & Sons"}}, {"type": "node", "id": 10266610826, "lat": 5.611875, "lon": -1.5498085, "tags": {"amenity": "pharmacy", "dispensing": "yes", "name": "Drug store", "operator": "Uncle Morow"}}, {"type": "node", "id": 10284763704, "lat": 5.6109061, "lon": -1.5498823, "tags": {"amenity": "pharmacy", "dispensing": "yes", "name": "Ato Drugstore", "operator": "Hon.Dr.Samuel Ato Amoah"}}, {"type": "node", "id": 10284772618, "lat": 5.6111249, "lon": -1.5487222, "tags": {"amenity": "pharmacy", "dispensing": "yes", "name": "Praso Pharmacy"}}, {"type": "node", "id": 10284772621, "lat": 5.6122047, "lon": -1.5487343, "tags": {"amenity": "pharmacy", "dispensing": "yes", "name": "Drug store", "operator": "S.K. Amoakwa"}}, {"type": "node", "id": 10292767371, "lat": 5.6062106, "lon": -1.5454687, "tags": {"amenity": "pharmacy", "dispensing": "yes", "name": "Drug Store", "operator": "Stephen Yeboah"}}, {"type": "node", "id": 10292767383, "lat": 5.6132377, "lon": -1.5501787, "tags": {"amenity": "pharmacy", "dispensing": "yes", "name": "Drug Store", "operator": "Augustine Frimpong Amoakwa"}}, {"type": "node", "id": 10292767393, "lat": 5.6136106, "lon": -1.5486259}, {"type": "node", "id": 10292767394, "lat": 5.6137342, "lon": -1.5527295, "tags": {"amenity": "pharmacy", "dispensing": "yes", "name": "Drug Store", "operator": "M.K.Donkor"}}, {"type": "node", "id": 10292772121, "lat": 5.6158203, "lon": -1.5503678, "tags": {"amenity": "pharmacy", "dispensing": "yes", "name": "Drug store"}}, {"type": "node", "id": 10301699463, "lat": 5.5956625, "lon": -1.5465644, "tags": {"amenity": "pharmacy", "dispensing": "yes", "name": "Drug Store"}}, {"type": "node", "id": 10301699469, "lat": 5.612162, "lon": -1.5422568, "tags": {"amenity": "pharmacy", "dispensing": "yes", "name": "Drug Store", "operator": "Theresa Essel"}}, {"type": "node", "id": 10301699474, "lat": 5.6176515, "lon": -1.5359549, "tags": {"amenity": "pharmacy", "dispensing": "yes", "name": "Drug Store", "operator": "B. Yeboah"}}, {"type": "node", "id": 10313996593, "lat": 5.6085744, "lon": -1.5371472, "tags": {"amenity": "pharmacy", "dispensing": "yes", "name": "Drug Store", "operator": "Eunice Acquah"}}, {"type": "node", "id": 10584107017, "lat": 5.5467418, "lon": -1.5469131, "tags": {"amenity": "clinic"}}, {"type": "node", "id": 10601348314, "lat": 5.6060038, "lon": -1.5500687, "tags": {"amenity": "clinic", "name": "St.florence maternal clinic"}}, {"type": "node", "id": 11581044102, "lat": 5.6136071, "lon": -1.5486837}, {"type": "node", "id": 11581044103, "lat": 5.6135622, "lon": -1.548623}, {"type": "node", "id": 11581044104, "lat": 5.6135588, "lon": -1.5486808}, {"type": "way", "id": 1245742586, "nodes": [11581044104, 11581044102, 10292767393, 11581044103, 11581044104], "tags": {"amenity": "pharmacy", "building": "yes", "dispensing": "yes", "name": "Drug Store", "operator": "Rex Amoakwa"}}]}