{"version": 0.6, "generator": "Overpass API 0.7.61.5 4133829e", "osm3s": {"timestamp_osm_base": "2024-03-06T11:16:45Z", "copyright": "The data included in this document is from www.openstreetmap.org. The data is made available under ODbL."}, "elements": [{"type": "node", "id": 3036621513, "lat": 36.1229, "lon": 45.7216, "tags": {"is_in:country": "Iran", "name": "\u06a9\u0648\u062e\u0627\u0646", "name:en": "Kukhan", "place": "town", "source:name": "GNS"}}, {"type": "node", "id": 3046250270, "lat": 36.2201815, "lon": 45.6399304, "tags": {"is_in:country": "Iran", "name": "\u06af\u0648\u0644\u0647", "place": "village"}}, {"type": "node", "id": 3275077084, "lat": 36.1543605, "lon": 45.698662, "tags": {"is_in:country": "Iran", "name": "\u062f\u06c6\u06b5\u06d5\u0631\u0632\u0646", "place": "village", "wikidata": "Q6411729"}}, {"type": "node", "id": 3275077089, "lat": 36.1015344, "lon": 45.7295396, "tags": {"is_in:country": "Iran", "name": "\u06af\u0634\u06a9\u06d5\u0633\u06d5", "place": "village"}}, {"type": "node", "id": 3275077094, "lat": 36.1116413, "lon": 45.7240894, "tags": {"is_in:country": "Iran", "name": "\u062d\u06d5\u0633\u06d5\u0646\u0627\u0648\u0627", "place": "village", "wikidata": "Q6414123"}}, {"type": "node", "id": 3515028366, "lat": 36.1392, "lon": 45.9234, "tags": {"alt_name": "\u0628\u0627\u0628\u0627 \u062d\u0633\u06cc\u0646", "is_in:country": "Iran", "name": "\u0628\u0627\u0628\u0627 \u062d\u0633\u06cc\u0646", "name:en": "Baba Hoseyn", "place": "village", "source:name": "GNS"}}, {"type": "node", "id": 3515028377, "lat": 36.2208, "lon": 45.8698, "tags": {"is_in:country": "Iran", "name": "\u06af\u0644\u0648\u0631\u0627\u0646", "name:en": "Galuran", "place": "village", "source:name": "GNS"}}, {"type": "node", "id": 3515030803, "lat": 36.1859, "lon": 45.8969, "tags": {"is_in:country": "Iran", "name": "\u0645\u06cc\u0631\u06af\u0647 \u0646\u0642\u0634\u06cc\u0646\u0647", "name:en": "Mirgah Naqshineh", "place": "village", "source:name": "GNS", "wikidata": "Q3667325"}}, {"type": "node", "id": 3515349510, "lat": 36.0994, "lon": 46.0096, "tags": {"alt_name": "\u06a9\u06cc\u0644\u0647 \u0634\u06cc\u0646", "is_in:country": "Iran", "name": "\u06a9\u06cc\u0644\u0647 \u0634\u06cc\u0646", "name:en": "Kileh Shin", "name:ku": "K\u00eale\u015f\u00een", "place": "village", "source:name": "GNS", "wikidata": "Q3666530"}}, {"type": "node", "id": 3519102863, "lat": 36.1424, "lon": 45.7808, "tags": {"is_in:country": "Iran", "name": "\u0646\u062c\u0646\u0647 \u0633\u0641\u0644\u06cc", "name:en": "Najneh-ye Sofla", "place": "village", "source:name": "GNS", "wikidata": "Q6399943"}}, {"type": "node", "id": 3519102864, "lat": 36.1237, "lon": 45.7931, "tags": {"alt_name": "\u0646\u062c\u06cc\u0646\u06c0 \u0628\u0627\u0644\u0627", "alt_name:en": "Najineh-ye Bala", "is_in:country": "Iran", "name": "\u0646\u062c\u0646\u0647 \u0639\u0644\u06cc\u0627", "name:en": "Najneh-ye `Olya", "place": "village", "source:name": "GNS", "wikidata": "Q6399925"}}, {"type": "node", "id": 3519102865, "lat": 36.1319, "lon": 45.7358, "tags": {"alt_name": "\u0646\u0645\u0634\u06cc\u0631", "alt_name:en": "Namashir", "is_in:country": "Iran", "name": "\u0646\u0645\u0634\u06cc\u0631", "name:en": "Namshir", "place": "village", "source:name": "GNS", "wikidata": "Q6399562"}}, {"type": "node", "id": 3519102875, "lat": 36.1117, "lon": 45.6844, "tags": {"is_in:country": "Iran", "name": "\u067e\u0631\u0634\u0647", "name:en": "Parsheh", "place": "village", "source:name": "GNS", "wikidata": "Q6395026"}}, {"type": "node", "id": 3519102876, "lat": 36.1495, "lon": 45.7562, "tags": {"is_in:country": "Iran", "name": "\u067e\u06cc\u0627\u0648\u06cc\u0646", "name:en": "Peyavin", "place": "village", "source:name": "GNS", "wikidata": "Q6394774"}}, {"type": "node", "id": 3519102892, "lat": 36.0954, "lon": 45.8535, "tags": {"alt_name": "\u0633\u062f\u0628\u0627\u062f;\u0635\u062f \u0628\u0627\u0631", "alt_name:en": "Sadbad", "is_in:country": "Iran", "name": "\u0635\u062f\u0628\u0627\u0631", "name:en": "Sad Bar", "place": "village", "source:name": "GNS", "wikidata": "Q6407129"}}, {"type": "node", "id": 3519103394, "lat": 36.09, "lon": 45.8097, "tags": {"is_in:country": "Iran", "name": "\u0622\u063a\u0644 \u0633\u0648\u062e\u062a\u0647", "name:en": "Aghol Sukhteh", "place": "village", "source:name": "GNS"}}, {"type": "node", "id": 3519103401, "lat": 36.0947, "lon": 45.8056, "tags": {"is_in:country": "Iran", "name": "\u0627\u0633\u062a\u06af\u0631\u0647 \u06af\u0648\u0631\u0647", "name:en": "Astgareh Gureh", "place": "village", "source:name": "GNS"}}, {"type": "node", "id": 3519103415, "lat": 36.1238, "lon": 45.6865, "tags": {"alt_name": "\u0628\u0646\u0627\u0648\u06cc\u0644\u0647 \u06a9\u0647\u0646\u0647;\u0628\u0646\u0627\u0648\u06cc\u0644\u06c0 \u06a9\u0647\u0646\u0647;\u06a9\u0647", "alt_name:en": "Benavileh Kohneh;Benaveyleh-ye Kohneh;Koha;Benaveyleh Kohneh", "is_in:country": "Iran", "name": "\u0628\u0646\u0627\u0648\u06cc\u0644\u0647 \u06a9\u0647\u0646\u0647", "name:en": "Benavileh-ye Kohneh", "place": "village", "source:name": "GNS", "wikidata": "Q5273003"}}, {"type": "node", "id": 3519103417, "lat": 36.0961, "lon": 45.7783, "tags": {"is_in:country": "Iran", "name": "\u0628\u06cc\u0644\u0648", "name:en": "Bilu", "place": "village", "source:name": "GNS", "wikidata": "Q6416023"}}, {"type": "node", "id": 3519103431, "lat": 36.0946, "lon": 45.814, "tags": {"is_in:country": "Iran", "name": "\u062f\u0648\u0644\u0647", "name:en": "Dowleh", "place": "village", "source:name": "GNS"}}, {"type": "node", "id": 3519103434, "lat": 36.1335, "lon": 45.7633, "tags": {"is_in:country": "Iran", "name": "\u0627\u0633\u0641\u06cc\u062f\u0627\u0631", "name:en": "Esfidar", "place": "village", "source:name": "GNS"}}, {"type": "node", "id": 3519103441, "lat": 36.1647, "lon": 45.7723, "tags": {"is_in:country": "Iran", "name": "\u06af\u0634\u0646\u0647", "name:en": "Goshneh", "place": "village", "source:name": "GNS", "wikidata": "Q6393185"}}, {"type": "node", "id": 3519103443, "lat": 36.1051, "lon": 45.6747, "tags": {"is_in:country": "Iran", "name": "\u0647\u0627\u0644\u0648", "name:en": "Halu", "place": "village", "source:name": "GNS", "wikidata": "Q6398810", "wikipedia": "en:Halu"}}, {"type": "node", "id": 3519103468, "lat": 36.0899, "lon": 45.883, "tags": {"is_in:country": "Iran", "name": "\u062e\u0634\u06a9\u0647 \u062f\u0631\u0647", "name:en": "Khoshkeh Darreh", "place": "village", "source:name": "GNS", "wikidata": "Q6413161"}}, {"type": "node", "id": 3519103471, "lat": 36.0923, "lon": 45.8217, "tags": {"is_in:country": "Iran", "name": "\u06a9\u062e \u0645\u0627\u0645\u0646\u062f", "name:en": "Kokh Mamand", "place": "village", "source:name": "GNS"}}, {"type": "node", "id": 3519103486, "lat": 36.1473, "lon": 45.8028, "tags": {"alt_name": "\u0645\u0646\u06cc\u062c\u0644\u0627\u0646", "is_in:country": "Iran", "name": "\u0645\u0646\u06cc\u062c\u0644\u0627\u0646", "name:en": "Manijalan", "place": "village", "source:name": "GNS", "wikidata": "Q10858597"}}, {"type": "node", "id": 3519103492, "lat": 36.1334, "lon": 45.7534, "tags": {"is_in:country": "Iran", "name": "\u0645\u062d\u0645\u062f\u0642\u0644\u0639\u0647", "name:en": "Mohammad Qal`eh", "place": "village", "source:name": "GNS"}}, {"type": "node", "id": 3519103701, "lat": 36.1002, "lon": 45.7033, "tags": {"is_in:country": "Iran", "name": "\u0633\u0631\u062a\u0632\u0646", "name:en": "Sartazan", "place": "village", "source:name": "GNS"}}, {"type": "node", "id": 3519103703, "lat": 36.151111, "lon": 45.804167, "tags": {"alt_name": "Safid Dareh", "alt_name:en": "Safid Dareh", "is_in:country": "Iran", "name": "\u0633\u0641\u06cc\u062f\u0627\u0631\u0647", "name:en": "Sefidareh", "place": "village", "source:name": "GNS", "wikidata": "Q6409037"}}, {"type": "node", "id": 3519103705, "lat": 36.1637, "lon": 45.7926, "tags": {"is_in:country": "Iran", "name": "\u0634\u0647\u06cc\u0646\u0627\u0646", "name:en": "Shahinan", "place": "village", "source:name": "GNS", "wikidata": "Q6407668"}}, {"type": "node", "id": 3519103716, "lat": 36.1448, "lon": 45.7284, "tags": {"is_in:country": "Iran", "name": "\u0633\u0645\u0627\u0642\u0627\u0646", "name:en": "Somaqan", "place": "village", "source:name": "GNS", "wikidata": "Q6409361"}}, {"type": "node", "id": 3519103728, "lat": 36.1056, "lon": 45.752, "tags": {"alt_name": "\u0632\u06cc\u0648\u06cc\u0647", "is_in:country": "Iran", "name": "\u0632\u06cc\u0648\u06cc\u0647", "name:en": "Ziviyeh", "place": "village", "source:name": "GNS", "wikidata": "Q6410486"}}, {"type": "node", "id": 3555465923, "lat": 36.2603041, "lon": 45.788118, "tags": {"is_in:country": "Iran", "name": "\u0632\u0627\u0648\u0647 \u06a9\u0648\u0647", "name:en": "zavehkuh", "place": "village", "wikidata": "Q5849219"}}, {"type": "node", "id": 3555548828, "lat": 36.2558749, "lon": 45.7047676, "tags": {"is_in:country": "Iran", "name": "\u06af\u0646\u062f\u0645\u0627\u0646", "name:en": "gandoman", "place": "village", "wikidata": "Q5854738"}}, {"type": "node", "id": 4435981017, "lat": 36.3521472, "lon": 45.6551735, "tags": {"is_in:country": "Iran", "name": "\u06a9\u0627\u0646\u06cc \u0631\u0634", "name:ku": "Kan\u00ee Re\u015f", "place": "village", "source": "ku.wikipedia", "wikidata": "Q3666668"}}, {"type": "node", "id": 4437410149, "lat": 36.3904169, "lon": 45.6434047, "tags": {"is_in:country": "Iran", "name": "\u06a9\u0627\u0648\u0644\u0627\u0646 \u0639\u0644\u06cc\u0627", "name:ku": "Kawllan\u00ee Ser\u00ea", "place": "village", "wikidata": "Q3675216"}}, {"type": "node", "id": 4437410150, "lat": 36.3954441, "lon": 45.6745344, "tags": {"is_in:country": "Iran", "name": "\u06a9\u0627\u0648\u0644\u0627\u0646 \u0633\u0641\u0644\u06cc", "name:ku": "Kawllan\u00ee Xwar\u00ea", "place": "village", "wikidata": "Q3667308"}}, {"type": "node", "id": 4437483697, "lat": 36.3344676, "lon": 45.7352073, "tags": {"is_in:country": "Iran", "name": "\u0645\u0627\u0698\u06af\u0647", "name:ku": "Majge", "place": "village", "wikidata": "Q3666790"}}, {"type": "node", "id": 4451491699, "lat": 36.1094257, "lon": 45.6331409, "tags": {"is_in:country": "Iran", "name": "\u0628\u0627\u0646\u0647 \u0632\u06cc\u0631", "name:ku": "Banez\u00ear", "place": "village", "wikidata": "Q5707884"}}, {"type": "node", "id": 4451929890, "lat": 36.1541919, "lon": 45.6331922, "tags": {"is_in:country": "Iran", "name": "\u062f\u0627\u0631\u0633\u0627\u0648\u06cc\u0646", "name:ku": "Darsaw\u00ean", "place": "village", "wikidata": "Q5707753"}}, {"type": "node", "id": 4493293995, "lat": 36.1517118, "lon": 45.6552588, "tags": {"is_in:country": "Iran", "is_in:state": "Kurdistan", "name": "\u0647\u0648\u0631\u0627\u0632\u0647", "place": "village", "wikidata": "Q6398677"}}, {"type": "node", "id": 4493293996, "lat": 36.1524779, "lon": 45.669982, "tags": {"is_in:country": "Iran", "is_in:state": "Kurdistan", "name": "\u0628\u06cc\u06a9\u0634", "place": "village", "wikidata": "Q6415980"}}, {"type": "node", "id": 4497368242, "lat": 36.3151396, "lon": 45.7101296, "tags": {"is_in:country": "Iran", "is_in:state": "West Azerbaijan", "name": "\u06af\u0631\u062f\u0634\u06cc\u0644\u0627\u0646", "place": "village", "wikidata": "Q5812918"}}, {"type": "node", "id": 4497368487, "lat": 36.1885701, "lon": 45.6496615, "tags": {"is_in:country": "Iran", "is_in:state": "West Azerbaijan", "name": "\u0628\u0627\u0631\u06cc\u06a9\u0627\u06cc\u06cc", "place": "village", "wikidata": "Q5707760"}}, {"type": "node", "id": 4497368488, "lat": 36.1793653, "lon": 45.6584347, "tags": {"is_in:country": "Iran", "is_in:state": "West Azerbaijan", "name": "\u0634\u0645\u0648\u0644\u0647", "place": "village", "wikidata": "Q5707004"}}, {"type": "node", "id": 4497368589, "lat": 36.1728285, "lon": 45.6238694, "tags": {"is_in:country": "Iran", "is_in:state": "West Azerbaijan", "name": "\u0634\u0646\u062f\u0631\u0647", "place": "village", "wikidata": "Q5706794"}}, {"type": "node", "id": 4497368600, "lat": 36.1290851, "lon": 45.627546, "tags": {"is_in:country": "Iran", "is_in:state": "West Azerbaijan", "name": "\u06af\u0646\u062f\u06a9\u0647", "place": "village", "wikidata": "Q5708292"}}, {"type": "node", "id": 4497368615, "lat": 36.2841594, "lon": 45.6299583, "tags": {"is_in:country": "Iran", "is_in:state": "West Azerbaijan", "name": "\u0646\u0633\u062a\u0627\u0646", "place": "village", "wikidata": "Q5707119"}}, {"type": "node", "id": 4497368619, "lat": 36.4115894, "lon": 45.6458293, "tags": {"is_in:country": "Iran", "is_in:state": "West Azerbaijan", "name": "\u06a9\u0648\u0631\u0627\u0646", "place": "village"}}, {"type": "node", "id": 4497368621, "lat": 36.3608815, "lon": 45.7097151, "tags": {"is_in:country": "Iran", "is_in:state": "West Azerbaijan", "name": "\u0633\u0648\u06cc\u0646\u0627\u0633", "place": "village", "wikidata": "Q5807655"}}, {"type": "node", "id": 4497368622, "lat": 36.269747, "lon": 45.7458359, "tags": {"is_in:country": "Iran", "is_in:state": "West Azerbaijan", "name": "\u0627\u0628\u0631\u0627\u0647\u06cc\u0645 \u062e\u0633\u0627\u0631", "place": "village", "wikidata": "Q5854736"}}, {"type": "node", "id": 4497369011, "lat": 36.2409646, "lon": 45.7501397, "tags": {"is_in:country": "Iran", "is_in:state": "West Azerbaijan", "name": "\u0645\u0648\u0633\u0647", "place": "village", "wikidata": "Q5840605"}}, {"type": "node", "id": 4497369012, "lat": 36.2439358, "lon": 45.8184572, "tags": {"alt_name": "\u0633\u0631\u062f\u06a9\u0648\u0647\u0633\u062a\u0627\u0646", "is_in:country": "Iran", "is_in:state": "West Azerbaijan", "name": "\u0633\u0631\u062f \u06a9\u0648\u0647\u0633\u062a\u0627\u0646", "place": "village", "wikidata": "Q5851540"}}, {"type": "node", "id": 4725833022, "lat": 36.1820135, "lon": 45.679236, "tags": {"loc_name": "\u06a9\u0648\u0646\u0647 \u0648\u0647 \u0631\u0686\u0647", "name": "\u06a9\u0647\u0646\u0647 \u0648\u0631\u0686\u0647", "place": "village"}}, {"type": "node", "id": 6452367699, "lat": 36.1061358, "lon": 45.9856718, "tags": {"is_in:country": "Iran", "name": "\u062e\u0627\u067e\u0648\u0631\u0647\u200c\u062f\u0647", "name:ku": "Xap\u00fbred\u00ea", "place": "village", "wikidata": "Q3666511"}}]}