{"version": 0.6, "generator": "Overpass API 0.7.61.5 4133829e", "osm3s": {"timestamp_osm_base": "2024-03-06T10:46:01Z", "copyright": "The data included in this document is from www.openstreetmap.org. The data is made available under ODbL."}, "elements": [{"type": "node", "id": 2050676978, "lat": 36.2078538, "lon": 43.9742183}, {"type": "node", "id": 2089398212, "lat": 36.2072868, "lon": 43.9757208}, {"type": "node", "id": 2119364992, "lat": 36.1884148, "lon": 43.9635492, "tags": {"addr:housename": "Villa 12B", "amenity": "school", "name": "British International Schools in Kurdistan - Hawler"}}, {"type": "node", "id": 2697672698, "lat": 36.2225675, "lon": 43.9927314, "tags": {"addr:city": "\u0623\u0631\u0628\u064a\u0644", "addr:country": "IQ", "addr:district": "\u0642\u0636\u0627\u0621 \u0623\u0631\u0628\u064a\u0644", "addr:postcode": "44003", "addr:state": "\u0645\u062d\u0627\u0641\u0638\u0629 \u0623\u0631\u0628\u064a\u0644", "addr:street": "Ainkawa", "addr:subdistrict": "\u0646\u0627\u062d\u064a\u0629 \u0639\u0646\u0643\u0627\u0648\u0627", "addr:town": "\u0639\u0646\u0643\u0627\u0648\u0627", "amenity": "school", "name": "\u0642\u0648\u062a\u0627\u0628\u062e\u0627\u0646\u06d5\u06cc \u0639\u06d5\u0634\u062a\u0627\u0631", "name:ckb": "\u0642\u0648\u062a\u0627\u0628\u062e\u0627\u0646\u06d5\u06cc \u0639\u06d5\u0634\u062a\u0627\u0631", "name:en": "Ishtar Primary School"}}, {"type": "node", "id": 2697672700, "lat": 36.2228068, "lon": 43.9926381}, {"type": "node", "id": 2697672701, "lat": 36.2222843, "lon": 43.9928003}, {"type": "node", "id": 2697672702, "lat": 36.2221744, "lon": 43.9917935}, {"type": "node", "id": 2697672703, "lat": 36.222708, "lon": 43.9916767}, {"type": "node", "id": 2697701632, "lat": 36.2426918, "lon": 43.9865992}, {"type": "node", "id": 2697701635, "lat": 36.2424207, "lon": 43.9857455}, {"type": "node", "id": 2697701637, "lat": 36.2417398, "lon": 43.9860779}, {"type": "node", "id": 2697701639, "lat": 36.2420109, "lon": 43.9869317}, {"type": "node", "id": 2741609482, "lat": 36.279075, "lon": 43.6709351, "tags": {"amenity": "school", "name": "\u0642\u0648\u062a\u0627\u0628\u062e\u0627\u0646\u06d5\u0649 \u0628\u0646\u06d5\u0631\u06d5\u062a\u0649 \u0646\u0627\u0648 \u062f\u06ce\u0631\u06d5\u064a\u064a\u0627\u0646"}}, {"type": "node", "id": 3343252060, "lat": 36.2174013, "lon": 43.9896355}, {"type": "node", "id": 3343252066, "lat": 36.2174457, "lon": 43.989901}, {"type": "node", "id": 3343252068, "lat": 36.2174839, "lon": 43.9899781}, {"type": "node", "id": 3343252071, "lat": 36.2175057, "lon": 43.989556}, {"type": "node", "id": 3343252072, "lat": 36.217509, "lon": 43.9898529}, {"type": "node", "id": 3343252075, "lat": 36.2175227, "lon": 43.9894771}, {"type": "node", "id": 3343252076, "lat": 36.2175419, "lon": 43.9894045}, {"type": "node", "id": 3343252077, "lat": 36.2175471, "lon": 43.98993}, {"type": "node", "id": 3343252081, "lat": 36.2175627, "lon": 43.9894466}, {"type": "node", "id": 3343252085, "lat": 36.2176029, "lon": 43.9897524}, {"type": "node", "id": 3343252086, "lat": 36.2176032, "lon": 43.9901943}, {"type": "node", "id": 3343252092, "lat": 36.2176287, "lon": 43.9895818}, {"type": "node", "id": 3343253296, "lat": 36.2176436, "lon": 43.9897214}, {"type": "node", "id": 3343253297, "lat": 36.2176456, "lon": 43.9902801}, {"type": "node", "id": 3343253299, "lat": 36.2176575, "lon": 43.990153}, {"type": "node", "id": 3343253301, "lat": 36.2176674, "lon": 43.989309}, {"type": "node", "id": 3343253304, "lat": 36.217683, "lon": 43.9896915}, {"type": "node", "id": 3343253310, "lat": 36.2177281, "lon": 43.9899021}, {"type": "node", "id": 3343253315, "lat": 36.2177549, "lon": 43.9894859}, {"type": "node", "id": 3343253318, "lat": 36.2177744, "lon": 43.9895367}, {"type": "node", "id": 3343253323, "lat": 36.2178018, "lon": 43.9900509}, {"type": "node", "id": 3343253324, "lat": 36.2178051, "lon": 43.9895986}, {"type": "node", "id": 3343253329, "lat": 36.2178422, "lon": 43.9894852}, {"type": "node", "id": 3343253333, "lat": 36.2178593, "lon": 43.9900072}, {"type": "node", "id": 3343253339, "lat": 36.2178856, "lon": 43.9897824}, {"type": "node", "id": 3343253342, "lat": 36.217899, "lon": 43.9900873}, {"type": "node", "id": 3343253347, "lat": 36.2179218, "lon": 43.9898556}, {"type": "node", "id": 3343253359, "lat": 36.2179971, "lon": 43.9897983}, {"type": "node", "id": 3409052819, "lat": 36.226584, "lon": 43.9956076, "tags": {"addr:city": "\u0623\u0631\u0628\u064a\u0644", "addr:country": "IQ", "addr:district": "\u0642\u0636\u0627\u0621 \u0623\u0631\u0628\u064a\u0644", "addr:postcode": "44003", "addr:state": "\u0645\u062d\u0627\u0641\u0638\u0629 \u0623\u0631\u0628\u064a\u0644", "addr:street": "Yazdandokht Street", "addr:subdistrict": "\u0646\u0627\u062d\u064a\u0629 \u0639\u0646\u0643\u0627\u0648\u0627", "addr:town": "\u0639\u0646\u0643\u0627\u0648\u0627", "amenity": "school", "name": "\u0645\u062f\u0631\u0633\u0629 \u064a\u0632\u062f\u0627\u0646\u062f\u0648\u062e\u062a", "name:en": "yazdandokht school"}}, {"type": "node", "id": 3499140961, "lat": 36.1932208, "lon": 43.95867}, {"type": "node", "id": 3499140962, "lat": 36.1935222, "lon": 43.9577739}, {"type": "node", "id": 3499140963, "lat": 36.1940168, "lon": 43.9591146}, {"type": "node", "id": 3499140964, "lat": 36.1943217, "lon": 43.9581726}, {"type": "node", "id": 3499141647, "lat": 36.2000299, "lon": 43.9616133}, {"type": "node", "id": 3499141648, "lat": 36.200402, "lon": 43.9605229}, {"type": "node", "id": 3499141649, "lat": 36.200613, "lon": 43.9619188}, {"type": "node", "id": 3499141656, "lat": 36.200985, "lon": 43.9608284}, {"type": "node", "id": 3677820369, "lat": 36.2318112, "lon": 43.9922668, "tags": {"addr:city": "\u0623\u0631\u0628\u064a\u0644", "addr:country": "IQ", "addr:district": "\u0642\u0636\u0627\u0621 \u0623\u0631\u0628\u064a\u0644", "addr:postcode": "44003", "addr:state": "\u0645\u062d\u0627\u0641\u0638\u0629 \u0623\u0631\u0628\u064a\u0644", "addr:subdistrict": "\u0646\u0627\u062d\u064a\u0629 \u0639\u0646\u0643\u0627\u0648\u0627", "addr:town": "\u0639\u0646\u0643\u0627\u0648\u0627", "amenity": "school", "name": "\u0645\u062f\u0631\u0633\u0629 \u062d\u062f\u064a\u0627\u0628"}}, {"type": "node", "id": 3739374426, "lat": 36.3379071, "lon": 43.61601}, {"type": "node", "id": 3739374427, "lat": 36.3376132, "lon": 43.6161709}, {"type": "node", "id": 3739374428, "lat": 36.3377169, "lon": 43.6164499}, {"type": "node", "id": 3739374429, "lat": 36.3380043, "lon": 43.6162836}, {"type": "node", "id": 3778985558, "lat": 36.1176827, "lon": 43.9203881, "tags": {"amenity": "school", "name": "\u0642\u0648\u062a\u0627\u0628\u062e\u0627\u0646\u06d5\u06cc \u0639\u06d5\u0632\u06d5"}}, {"type": "node", "id": 3957419938, "lat": 36.1118364, "lon": 43.9535947}, {"type": "node", "id": 3957419939, "lat": 36.1111169, "lon": 43.9536805}, {"type": "node", "id": 3957419940, "lat": 36.1112134, "lon": 43.9547173}, {"type": "node", "id": 3957419941, "lat": 36.11192, "lon": 43.9546316}, {"type": "node", "id": 3957419942, "lat": 36.1117058, "lon": 43.9541271, "tags": {"addr:city": "\u0623\u0631\u0628\u064a\u0644", "addr:country": "IQ", "addr:state": "\u0645\u062d\u0627\u0641\u0638\u0629 \u0623\u0631\u0628\u064a\u0644", "addr:street": "\u0646\u0627\u0632\u0645\u0627\u0648\u0647", "amenity": "school", "name": "\u0642\u0648\u062a\u0627\u0628\u062e\u0627\u0646\u0647\u200c\u06cc \u0633\u0647\u200c\u0631\u0647\u200c\u062a\u0627\u06cc\u06cc \u0645\u0632\u0627\u062d\u0645\u062f", "name:en": "Mz Ahmad Basic School"}}, {"type": "node", "id": 4293157490, "lat": 36.1768617, "lon": 43.935587, "tags": {"addr:city": "\u0623\u0631\u0628\u064a\u0644", "addr:country": "IQ", "addr:district": "\u0642\u0636\u0627\u0621 \u0623\u0631\u0628\u064a\u0644", "addr:postcode": "44001", "addr:state": "\u0645\u062d\u0627\u0641\u0638\u0629 \u0623\u0631\u0628\u064a\u0644", "addr:street": "Erbil - Musul Road", "amenity": "school", "name": "British school", "name:en": "British International School"}}, {"type": "node", "id": 4297421089, "lat": 36.1937722, "lon": 43.9652471, "tags": {"addr:city": "\u0623\u0631\u0628\u064a\u0644", "addr:country": "IQ", "addr:district": "\u0642\u0636\u0627\u0621 \u0623\u0631\u0628\u064a\u0644", "addr:postcode": "44001", "addr:state": "\u0645\u062d\u0627\u0641\u0638\u0629 \u0623\u0631\u0628\u064a\u0644", "amenity": "school", "name": "Rona"}}, {"type": "node", "id": 4374682501, "lat": 36.1714973, "lon": 43.9816951, "tags": {"amenity": "school", "name": "Goethe Institute Erbil", "phone": "07502067587", "website": "https://www.goethe.de/ins/iq/ar/lp.html"}}, {"type": "node", "id": 4378782597, "lat": 36.2290835, "lon": 43.9894032, "tags": {"addr:city": "\u0623\u0631\u0628\u064a\u0644", "addr:country": "IQ", "addr:district": "\u0642\u0636\u0627\u0621 \u0623\u0631\u0628\u064a\u0644", "addr:postcode": "44003", "addr:state": "\u0645\u062d\u0627\u0641\u0638\u0629 \u0623\u0631\u0628\u064a\u0644", "addr:subdistrict": "\u0646\u0627\u062d\u064a\u0629 \u0639\u0646\u0643\u0627\u0648\u0627", "addr:town": "\u0639\u0646\u0643\u0627\u0648\u0627", "amenity": "school", "name": "\u0626\u0627\u0645\u0627\u062f\u0647\u200c\u06cc\u06cc \u067e\u06cc\u0634\u0647\u200c\u06cc \u06af\u0647\u200c\u0634\u062a\u0648\u06af\u0648\u0632\u0627\u0631\u06cc \u0647\u0647\u200c\u0648\u0644\u06ce\u0631", "name:en": "Vocational high school for Hotel and Tourism", "name:ku": "\u0626\u0627\u0645\u0627\u062f\u0647\u200c\u06cc\u06cc \u067e\u06cc\u0634\u0647\u200c\u06cc \u06af\u0647\u200c\u0634\u062a\u0648\u06af\u0648\u0632\u0627\u0631\u06cc \u0647\u0647\u200c\u0648\u0644\u06ce\u0631", "website": "https://www.facebook.com/VocationalhighschoolforHotelandTourism/"}}, {"type": "node", "id": 4408635673, "lat": 36.2079136, "lon": 43.9761082}, {"type": "node", "id": 4408635674, "lat": 36.2084976, "lon": 43.9746025}, {"type": "node", "id": 4425474096, "lat": 36.1642471, "lon": 43.9907701, "tags": {"addr:street": "\u0626\u06d5\u0644\u0628\u0627\u0646", "amenity": "school", "name": "\u0648\u0644\u06cc \u062f\u06cc\u0648\u0646\u0629", "name:ar": "\u0642\u0648\u062a\u0627\u0628\u062e\u0627\u0646\u06d5\u06cc \u0648\u06d5\u0644\u06cc \u062f\u06ce\u0648\u0627\u0646\u06d5\u06cc \u06a9\u0648\u0695\u0627\u0646", "name:en": "Wali Dewana School", "name:ku": "\u0642\u0648\u062a\u0627\u0628\u062e\u0627\u0646\u06d5\u06cc \u0648\u06d5\u0644\u06cc \u062f\u06ce\u0648\u0627\u0646\u06d5\u06cc \u06a9\u0648\u0695\u0627\u0646"}}, {"type": "node", "id": 4425500889, "lat": 36.1652742, "lon": 43.9904883, "tags": {"amenity": "school", "name": "\u0642\u0648\u062a\u0627\u0628\u062e\u0627\u0646\u0647\u200c\u06cc \u0628\u0647\u200c\u062e\u062a\u06cc\u0627\u0631\u06cc\u06cc \u0628\u0646\u0647\u200c\u0695\u0647\u200c\u062a\u06cc \u062a\u06ce\u0643\u0647\u200c\u06b5\u0627\u0648", "name:en": "Bakhtiari Elementary School  Mixture"}}, {"type": "node", "id": 4429963089, "lat": 36.2743346, "lon": 43.6668004, "tags": {"amenity": "school", "name": "\u0642\u0648\u062a\u0627\u0628\u062e\u0627\u0646\u06d5\u06cc \u0628\u0646\u06d5\u0695\u06d5\u062a\u06cc \u0695\u06ce\u0628\u06d5\u0631", "name:ckb": "\u0642\u0648\u062a\u0627\u0628\u062e\u0627\u0646\u06d5\u06cc \u0628\u0646\u06d5\u0695\u06d5\u062a\u06cc \u0695\u06ce\u0628\u06d5\u0631"}}, {"type": "node", "id": 4430151390, "lat": 36.1685073, "lon": 43.9915748, "tags": {"addr:street": "Gulan Road", "amenity": "school", "name": "\u0642\u0648\u062a\u0627\u0628\u062e\u0627\u0646\u06d5\u06cc \u0626\u0627\u0645\u0627\u062f\u06d5\u06cc\u06cc \u0686\u0646\u0627\u0631\u06cc \u06a9\u0686\u0627\u0646", "name:ar": "\u0642\u0648\u062a\u0627\u0628\u062e\u0627\u0646\u06d5\u06cc \u0626\u0627\u0645\u0627\u062f\u06d5\u06cc\u06cc \u0686\u0646\u0627\u0631\u06cc \u06a9\u0686\u0627\u0646", "name:en": "\u0642\u0648\u062a\u0627\u0628\u062e\u0627\u0646\u06d5\u06cc \u0626\u0627\u0645\u0627\u062f\u06d5\u06cc\u06cc \u0686\u0646\u0627\u0631\u06cc \u06a9\u0686\u0627\u0646"}}, {"type": "node", "id": 4432852594, "lat": 36.4211369, "lon": 43.6435893, "tags": {"amenity": "school", "name": "\u0642\u0648\u062a\u0627\u0628\u062e\u0627\u0646\u0647 \u064a \u06af\u0631\u062f\u067e\u0627\u0646", "name:ar": "\u0642\u0648\u062a\u0627\u0628\u062e\u0627\u0646\u0647 \u064a \u06af\u0631\u062f\u067e\u0627\u0646"}}, {"type": "node", "id": 4435790390, "lat": 36.3124984, "lon": 43.6758213, "tags": {"addr:city": "\u0628\u0634\u06cc\u0631\u06cc\u0627\u0646", "amenity": "school", "grades": "10-12", "name": "\u0642\u0648\u062a\u0627\u0628\u062e\u0627\u0646\u06d5\u06cc \u0626\u0627\u0645\u0627\u062f\u06d5\u06cc\u06cc \u0628\u0634\u06cc\u0631\u06cc\u0627\u0646", "name:ckb": "\u0642\u0648\u062a\u0627\u0628\u062e\u0627\u0646\u06d5\u06cc \u0626\u0627\u0645\u0627\u062f\u06d5\u06cc\u06cc \u0628\u0634\u06cc\u0631\u06cc\u0627\u0646", "name:en": "Bshirian high school", "name:ku": "Qutabxaney amadey\u00ee B\u015f\u00eeryan"}}, {"type": "node", "id": 4437225889, "lat": 36.172526, "lon": 43.9534629, "tags": {"addr:city": "\u0623\u0631\u0628\u064a\u0644", "addr:country": "IQ", "addr:district": "\u0642\u0636\u0627\u0621 \u0623\u0631\u0628\u064a\u0644", "addr:postcode": "44001", "addr:state": "\u0645\u062d\u0627\u0641\u0638\u0629 \u0623\u0631\u0628\u064a\u0644", "amenity": "school", "email": "info@maarifschools.edu.krd", "name": "\u0642\u0648\u062a\u0627\u0628\u062e\u0627\u0646\u06d5\u06cc \u0645\u06d5\u0639\u0627\u0631\u0641\u06cc \u0646\u06ce\u0648\u062f\u06d5\u0648\u06b5\u06d5\u062a\u06cc - \u0647\u06d5\u0648\u0644\u06ce\u0631", "name:ar": "\u0645\u062f\u0627\u0631\u0633 \u0645\u0639\u0627\u0631\u0641 \u0627\u0644\u062f\u0648\u0644\u064a\u0629 - \u0627\u0631\u0628\u064a\u0644", "name:en": "International Maarif Schools - Erbil", "name:ku": "Qutabxana Me'Arf Ya N\u00eavdewlet\u00ee - Hewl\u00ear", "opening_hours": "Su-Th 08:00-16:00", "phone": "+964 751 741 7879", "website": "http://www.maarifschools.edu.krd"}}, {"type": "node", "id": 4465516890, "lat": 36.2004852, "lon": 43.961868, "tags": {"amenity": "school", "name": "\u0631\u0648\u062e\u0633\u0627\u0631\u06cc \u0628\u0646\u06d5\u0631\u06d5\u062a\u06cc", "name:ar": "\u0645\u062f\u0631\u0633\u06d5 \u0631\u0648\u062e\u0633\u0627\u0631", "name:en": "Rukhsar school", "name:ku": "\u0631\u0648\u062e\u0633\u0627\u0631\u06cc \u0628\u0646\u06d5\u0631\u06d5\u062a\u06cc"}}, {"type": "node", "id": 4465516891, "lat": 36.1940769, "lon": 43.9580347, "tags": {"amenity": "school", "name": "\u0626\u0627\u0645\u0627\u062f\u06d5\u064a\u06cc \u06a9\u0627\u0698\u064a\u0646 / \u062f\u0627\u0647\u06ce\u0646", "name:ku": "\u0626\u0627\u0645\u0627\u062f\u06d5\u064a\u06cc \u06a9\u0627\u0698\u064a\u0646 / \u062f\u0627\u0647\u06ce\u0646"}}, {"type": "node", "id": 4484295890, "lat": 36.2060086, "lon": 43.994924, "tags": {"addr:city": "\u0623\u0631\u0628\u064a\u0644", "addr:country": "IQ", "addr:district": "\u0642\u0636\u0627\u0621 \u0623\u0631\u0628\u064a\u0644", "addr:postcode": "44001", "addr:state": "\u0645\u062d\u0627\u0641\u0638\u0629 \u0623\u0631\u0628\u064a\u0644", "amenity": "school", "name": "Shnrwe Typical School", "name:ar": "\u0642\u0648\u062a\u0627\u0628\u062e\u0627\u0646\u0647 \u0649 \u0634\u0646\u0631\u0648\u0649"}}, {"type": "node", "id": 4512551037, "lat": 36.1590681, "lon": 43.9744556}, {"type": "node", "id": 4512551038, "lat": 36.1584923, "lon": 43.9740652}, {"type": "node", "id": 4512551039, "lat": 36.1581439, "lon": 43.9748196}, {"type": "node", "id": 4512551040, "lat": 36.1587312, "lon": 43.975217}, {"type": "node", "id": 4512556189, "lat": 36.158473, "lon": 43.9716617, "tags": {"amenity": "school", "name": "\u0642\u0648\u062a\u0627\u0628\u062e\u0627\u0646\u06d5\u06cc \u0626\u0627\u0645\u0627\u062f\u06d5\u06cc\u06cc \u0647\u06ce\u0645\u0646\u06cc \u06a9\u0648\u0695\u0627\u0646", "name:ckb": "\u0642\u0648\u062a\u0627\u0628\u062e\u0627\u0646\u06d5\u06cc \u0626\u0627\u0645\u0627\u062f\u06d5\u06cc\u06cc \u0647\u06ce\u0645\u0646\u06cc \u06a9\u0648\u0695\u0627\u0646"}}, {"type": "node", "id": 4512558049, "lat": 36.1588774, "lon": 43.9717248}, {"type": "node", "id": 4512558050, "lat": 36.1582479, "lon": 43.9712742}, {"type": "node", "id": 4512558051, "lat": 36.1579399, "lon": 43.9719881}, {"type": "node", "id": 4512558052, "lat": 36.1585591, "lon": 43.9724222}, {"type": "node", "id": 4515796590, "lat": 36.1602803, "lon": 43.9657789, "tags": {"amenity": "school", "name": "\u067e\u06d5\u06cc\u0645\u0627\u0646\u06af\u0627\u06cc \u0642\u06d5\u0644\u0627 \u0648 \u0645\u0646\u0627\u0631\u06d5", "name:en": "Computer science institute", "name:ku": "\u067e\u06d5\u06cc\u0645\u0627\u0646\u06af\u0627\u06cc \u0642\u06d5\u0644\u0627 \u0648 \u0645\u0646\u0627\u0631\u06d5"}}, {"type": "node", "id": 4524972296, "lat": 36.2011991, "lon": 43.9829142, "tags": {"addr:city": "\u0623\u0631\u0628\u064a\u0644", "addr:country": "IQ", "addr:district": "\u0642\u0636\u0627\u0621 \u0623\u0631\u0628\u064a\u0644", "addr:housenumber": "6", "addr:postcode": "44001", "addr:state": "\u0645\u062d\u0627\u0641\u0638\u0629 \u0623\u0631\u0628\u064a\u0644", "addr:street": "213-37", "amenity": "school", "grades": "10-12", "name": "ISHIK College", "name:ar": "\u0627\u0639\u062f\u0627\u062f\u064a\u0629 \u0625\u064a\u0634\u0642 \u0627\u0644\u0623\u0647\u0644\u064a\u0629 \u0644\u0644\u0628\u0646\u064a\u0646", "name:ckb": "\u0642\u0648\u062a\u0627\u0628\u062e\u0627\u0646\u06d5\u06cc \u0626\u0627\u0645\u0627\u062f\u06d5\u06cc\u06cc \u0695\u06c6\u0646\u0627\u06a9\u06cc \u06a9\u0648\u0695\u0627\u0646", "name:en": "ISHIK College", "opening_hours": "24/7"}}, {"type": "node", "id": 4527839193, "lat": 36.2052308, "lon": 43.9852832, "tags": {"addr:city": "\u0623\u0631\u0628\u064a\u0644", "addr:country": "IQ", "addr:district": "\u0642\u0636\u0627\u0621 \u0623\u0631\u0628\u064a\u0644", "addr:postcode": "44001", "addr:state": "\u0645\u062d\u0627\u0641\u0638\u0629 \u0623\u0631\u0628\u064a\u0644", "amenity": "school", "name": "\u0642\u0648\u062a\u0627\u0628\u062e\u0627\u0646\u06d5\u06cc \u0626\u06d5\u0645\u0631\u06cc\u06a9\u06cc", "name:en": "American school"}}, {"type": "node", "id": 4591218889, "lat": 36.1592907, "lon": 43.9707661, "tags": {"addr:street": "\u200f\u067e\u06d5\u06cc\u0645\u0627\u0646\u06af\u06d5\u06cc \u062a\u06d5\u0643\u0646\u06cc\u0643\u06cc \u067e\u0627\u06cc\u062a\u06d5\u062e\u062a-\u062a\u0627\u06cc\u0628\u06d5\u062a  \u0647\u0647\u200c\u0648\u0644\u06ce\u0631 - \u06af\u0647\u200c\u0631\u0647\u200c\u0643\u06cc \u0628\u0647\u200c\u0647\u0627\u0631\u06cc \u0646\u0648\u06cc \u067e\u0634\u062a \u0646\u0647\u200c\u062e\u06c6\u0634\u062e\u0627\u0646\u0647\u200c\u06cc \u0641\u0631\u06cc\u0627\u0643\u0647\u200c\u0648\u062a\u0646\u0649 \u0631\u06c6\u0698\u0626\u0627\u0648\u0627", "amenity": "school", "email": "info@pitaxt.com", "name": "\u0645\u0639\u0647\u062f \u0628\u0627\u064a\u062a\u062e\u062a \u0627\u0644\u062a\u0642\u0646\u064a \u0627\u0644\u062e\u0627\u0635", "name:ar": "\u0645\u0639\u0647\u062f \u0628\u0627\u064a\u062a\u062e\u062a \u0627\u0644\u062a\u0642\u0646\u064a \u0627\u0644\u062e\u0627\u0635", "name:en": "Paytaxt Technical institute", "name:ku": "\u067e\u0647 \u064a\u0645\u0627\u0646\u06af\u0627\u064a \u062a\u0647 \u0643\u0646\u064a\u0643\u064a \u067e\u0627\u064a\u062a\u0647 \u062e\u062a\u064a \u0646\u0627\u062d\u0643\u0648\u0645\u064a", "opening_hours": "Sa-We 08:30-22:00", "phone": "07508567744", "website": "http://paitaxt.com/ku/"}}, {"type": "node", "id": 4722040490, "lat": 36.1740624, "lon": 43.9896969, "tags": {"amenity": "school", "name": "Zewar School", "name:en": "\u0642\u0648\u062a\u0627\u0628\u062e\u0627\u0646\u0647 \u064a \u0632\u064a\u0648\u0647 \u0631\u064a \u0643\u0648\u0631\u0627\u0646", "name:ku": "\u0642\u0648\u062a\u0627\u0628\u062e\u0627\u0646\u06d5\u06cc \u0632\u06cc\u0648\u06d5\u0631"}}, {"type": "node", "id": 4723844891, "lat": 36.2827249, "lon": 43.7853589, "tags": {"addr:city": "\u062c\u062f\u06cc\u062f\u06d5 \u0632\u0627\u0628", "amenity": "school", "name": "\u0642\u0648\u062a\u0627\u0628\u062e\u0627\u0646\u06d5", "name:ar": "\u0642\u0648\u062a\u0627\u0628\u062e\u0627\u0646\u06d5", "name:en": "\u0642\u0648\u062a\u0627\u0628\u062e\u0627\u0646\u06d5", "name:ku": "\u0642\u0648\u062a\u0627\u0628\u062e\u0627\u0646\u06d5"}}, {"type": "node", "id": 4750583522, "lat": 36.4333972, "lon": 43.6868197, "tags": {"amenity": "school", "name": "\u0642\u0648\u062a\u0627\u0628\u062e\u0627\u0646\u06d5\u06cc \u06af\u06c6\u0645\u06d5\u0632\u06d5\u0631\u062f\u06cc \u0628\u0646\u06d5\u0695\u06d5\u062a\u06cc", "name:ar": "\u0645\u062f\u0631\u0633\u0629 \u0643\u0648\u0645\u0629\u0632\u0631\u062f", "name:ckb": "Gomazard Elementary School"}}, {"type": "node", "id": 4793029223, "lat": 36.2077763, "lon": 43.9755201, "tags": {"addr:city": "\u0623\u0631\u0628\u064a\u0644", "addr:country": "IQ", "addr:district": "\u0642\u0636\u0627\u0621 \u0623\u0631\u0628\u064a\u0644", "addr:postcode": "44001", "addr:state": "\u0645\u062d\u0627\u0641\u0638\u0629 \u0623\u0631\u0628\u064a\u0644", "amenity": "school", "name:en": "Choueifat Dream City"}}, {"type": "node", "id": 4794565521, "lat": 36.1688597, "lon": 43.9850438, "tags": {"addr:city": "\u0623\u0631\u0628\u064a\u0644", "addr:country": "IQ", "addr:district": "\u0642\u0636\u0627\u0621 \u0623\u0631\u0628\u064a\u0644", "addr:postcode": "44001", "addr:state": "\u0645\u062d\u0627\u0641\u0638\u0629 \u0623\u0631\u0628\u064a\u0644", "amenity": "school", "name": "\u0642\u0648\u062a\u0627\u0628\u062e\u0627\u0646\u06d5\u06cc \u0695\u06c6\u0634\u0646\u0627\u06cc\u06cc \u0628\u0646\u06d5\u0695\u06d5\u062a\u06cc", "name:en": "Roshnay Elementary School"}}, {"type": "node", "id": 4812059922, "lat": 36.1872913, "lon": 43.9954987, "tags": {"addr:city": "\u0623\u0631\u0628\u064a\u0644", "addr:country": "IQ", "addr:district": "\u0642\u0636\u0627\u0621 \u0623\u0631\u0628\u064a\u0644", "addr:postcode": "44001", "addr:state": "\u0645\u062d\u0627\u0641\u0638\u0629 \u0623\u0631\u0628\u064a\u0644", "addr:street": "\u0647\u064a\u0626\u0629 \u0627\u0644\u0623\u0634\u063a\u0627\u0644 \u0627\u0644\u0639\u0627\u0645\u0629", "amenity": "school", "name": "\u0627\u0628\u062a\u062f\u0627\u0626\u064a\u0629 \u0627\u0645\u064a\u0646 \u0632\u0643\u064a", "name:ar": "\u0627\u0628\u062a\u062f\u0627\u0626\u064a\u0629 \u0627\u0645\u064a\u0646 \u0632\u0643\u064a", "name:en": "Amin Zaki Primary School"}}, {"type": "node", "id": 4818138224, "lat": 36.479144, "lon": 43.7030998, "tags": {"amenity": "school", "name": "Dugendan Little Elementary School", "name:ckb": "\u0642\u0648\u062a\u0627\u0628\u062e\u0627\u0646\u06d5\u06cc \u062f\u0648\u0648\u06af\u0648\u0646\u062f\u0646\u06cc \u0628\u0686\u0648\u06a9"}}, {"type": "node", "id": 4840420441, "lat": 36.1691879, "lon": 43.9821995, "tags": {"addr:city": "\u0623\u0631\u0628\u064a\u0644", "addr:country": "IQ", "addr:district": "\u0642\u0636\u0627\u0621 \u0623\u0631\u0628\u064a\u0644", "addr:postcode": "44001", "addr:state": "\u0645\u062d\u0627\u0641\u0638\u0629 \u0623\u0631\u0628\u064a\u0644", "amenity": "school", "name": "\u0642\u0648\u062a\u0627\u0628\u062e\u0627\u0646\u06d5\u06cc \u0628\u0646\u06d5\u0695\u06d5\u062a\u06cc \u062f\u06cc\u0645\u06d5\u0646"}}, {"type": "node", "id": 4873388823, "lat": 36.353918, "lon": 43.812379, "tags": {"amenity": "school", "name": "\u0642\u0648\u062a\u0627\u0628\u062e\u0627\u0646\u06d5"}}, {"type": "node", "id": 5008288021, "lat": 36.2039218, "lon": 43.9871719, "tags": {"addr:city": "\u0623\u0631\u0628\u064a\u0644", "addr:country": "IQ", "addr:district": "\u0642\u0636\u0627\u0621 \u0623\u0631\u0628\u064a\u0644", "addr:postcode": "44001", "addr:state": "\u0645\u062d\u0627\u0641\u0638\u0629 \u0623\u0631\u0628\u064a\u0644", "addr:street": "213-63", "amenity": "school", "name": "\u0642\u0648\u062a\u0627\u0628\u062e\u0627\u0646\u06d5\u06cc \u06a9\u0627\u0645\u0628\u0631\u06cc\u062c"}}, {"type": "node", "id": 5029239722, "lat": 36.1709553, "lon": 43.9678995, "tags": {"addr:street": "Newroz Road", "amenity": "school", "email": "info@cihancollegeschool.org", "name": "Cihan College School", "name:ar": "\u0645\u062f\u0631\u0633\u0629 \u0643\u0644\u064a\u0629 \u062c\u064a\u0647\u0627\u0646", "name:en": "Cihan College School", "opening_hours": "Su-Th 08:00-22:00", "operator": "Murad J. Yaseen", "phone": "0750 331 1011", "website": "http://www.cihancollegeschool.org/component/content/en.html"}}, {"type": "node", "id": 5047921326, "lat": 36.1575803, "lon": 43.9834507, "tags": {"addr:city": "\u0623\u0631\u0628\u064a\u0644", "addr:country": "IQ", "addr:district": "\u0642\u0636\u0627\u0621 \u0623\u0631\u0628\u064a\u0644", "addr:postcode": "44001", "addr:state": "\u0645\u062d\u0627\u0641\u0638\u0629 \u0623\u0631\u0628\u064a\u0644", "addr:street": "\u0634\u06d5\u0642\u0627\u0645\u06cc \u067e\u06ce\u0634\u06d5\u0648\u0627 \u0642\u0627\u0632\u06cc", "amenity": "school", "name": "\u0642\u0648\u062a\u0627\u0628\u062e\u0627\u0646\u06d5\u06cc \u0628\u0646\u06d5\u0695\u06d5\u062a\u06cc \u0647\u06ce\u062f\u06cc \u06a9\u0648\u0695\u0627\u0646", "name:ckb": "\u0642\u0648\u062a\u0627\u0628\u062e\u0627\u0646\u06d5\u06cc \u0628\u0646\u06d5\u0695\u06d5\u062a\u06cc \u0647\u06ce\u062f\u06cc \u06a9\u0648\u0695\u0627\u0646", "name:en": "Hedi School"}}, {"type": "node", "id": 5101674922, "lat": 36.1935521, "lon": 43.9649339, "tags": {"addr:city": "\u0623\u0631\u0628\u064a\u0644", "addr:country": "IQ", "addr:district": "\u0642\u0636\u0627\u0621 \u0623\u0631\u0628\u064a\u0644", "addr:postcode": "44001", "addr:state": "\u0645\u062d\u0627\u0641\u0638\u0629 \u0623\u0631\u0628\u064a\u0644", "amenity": "school", "name": "\u0645\u062f\u0631\u0633\u0629 \u0631\u0648\u0646\u0627", "name:ar": "\u0645\u062f\u0631\u0633\u0629 \u0631\u0648\u0646\u0627", "name:en": "Rona School"}}, {"type": "node", "id": 5106916326, "lat": 36.2003625, "lon": 43.9618056, "tags": {"amenity": "school", "name": "\u0642\u0648\u062a\u0627\u0628\u062e\u0627\u0646\u06d5\u0649 \u0628\u0646\u06d5\u0631\u06d5\u062a\u0649", "name:en": "primary school"}}, {"type": "node", "id": 5119298023, "lat": 36.1695729, "lon": 43.9643308, "tags": {"addr:street": "100 M Road", "amenity": "school", "name": "\u0626\u0627\u0645\u0627\u062f\u06d5\u06cc\u06cc \u0634\u06d5\u0647\u06cc\u062f \u0641\u0627\u062e\u06cc\u0631 \u0645\u06ce\u0631\u06af\u06d5\u0633\u06c6\u0631\u06cc", "name:ckb": "\u0626\u0627\u0645\u0627\u062f\u06d5\u06cc\u06cc \u0634\u06d5\u0647\u06cc\u062f \u0641\u0627\u062e\u06cc\u0631 \u0645\u06ce\u0631\u06af\u06d5\u0633\u06c6\u0631\u06cc", "name:en": "shahid faxer mergasore high school"}}, {"type": "node", "id": 5130936508, "lat": 36.1709622, "lon": 43.967089}, {"type": "node", "id": 5130936511, "lat": 36.1707564, "lon": 43.9673463}, {"type": "node", "id": 5130939180, "lat": 36.1707315, "lon": 43.9673667}, {"type": "node", "id": 5130939187, "lat": 36.1705832, "lon": 43.9675653}, {"type": "node", "id": 5131286972, "lat": 36.1715223, "lon": 43.9681345}, {"type": "node", "id": 5131286977, "lat": 36.1714989, "lon": 43.9686706}, {"type": "node", "id": 5131286989, "lat": 36.1709945, "lon": 43.9670742}, {"type": "node", "id": 5131286990, "lat": 36.1716264, "lon": 43.9678168}, {"type": "node", "id": 5131286991, "lat": 36.1715302, "lon": 43.9679352}, {"type": "node", "id": 5131286992, "lat": 36.171454, "lon": 43.9680458}, {"type": "node", "id": 5131286993, "lat": 36.1714642, "lon": 43.9680629}, {"type": "node", "id": 5131286994, "lat": 36.1705634, "lon": 43.9675838}, {"type": "node", "id": 5131292372, "lat": 36.1710141, "lon": 43.9670985}, {"type": "node", "id": 5157863922, "lat": 36.2066054, "lon": 43.9943539, "tags": {"addr:city": "\u0623\u0631\u0628\u064a\u0644", "addr:country": "IQ", "addr:district": "\u0642\u0636\u0627\u0621 \u0623\u0631\u0628\u064a\u0644", "addr:postcode": "44001", "addr:state": "\u0645\u062d\u0627\u0641\u0638\u0629 \u0623\u0631\u0628\u064a\u0644", "addr:street": "214-184", "amenity": "school", "name": "\u0642\u0648\u062a\u0627\u0628\u062e\u0627\u0646\u06d5\u06cc \u0628\u0646\u06d5\u0695\u06d5\u062a\u06cc \u0634\u06d5\u0647\u06cc\u062f \u06a9\u06c6\u0686\u06d5\u0631", "name:en": "Shahid Kochar Primary School", "name:ku": "Qutabxaneya bine\u0159etya \u015eeh\u00eed Ko\u00e7er"}}, {"type": "node", "id": 5260639423, "lat": 36.1472522, "lon": 43.9755246, "tags": {"amenity": "school", "name": "\u0628\u06d5\u0647\u0627\u0631\u06cc \u0646\u0648\u06ce", "name:en": "Bahary nwe"}}, {"type": "node", "id": 5317103724, "lat": 36.173718, "lon": 43.9933699, "tags": {"addr:postcode": "44001", "addr:street": "\u0623\u0644\u0628\u0627\u0646", "amenity": "school", "name": "\u0642\u0648\u062a\u0627\u0628\u062e\u0627\u0646\u06d5\u06cc \u0646\u0627\u0632\u0646\u0627\u0632\u06cc \u0628\u0646\u06d5\u0631\u06d5\u062a\u06cc", "name:en": "NazNaz School", "religion": "muslim"}}, {"type": "node", "id": 5317123022, "lat": 36.1750238, "lon": 43.9945894, "tags": {"addr:postcode": "44001", "addr:street": "\u0623\u0644\u0628\u0627\u0646", "amenity": "school", "name": "\u0642\u0648\u062a\u0627\u0628\u062e\u0627\u0646\u06d5\u06cc \u0647\u06d5\u0631\u06ce\u0645\u06cc \u0628\u0646\u06d5\u0631\u06d5\u062a\u06cc \u062a\u06ce\u06aa\u06d5\u06b5\u0627\u0648", "name:en": "Harem School", "opening_hours": "Su-Th 07:30-16:45", "website": "http://Www.snapchat.com/add/rezhna_x"}}, {"type": "node", "id": 5481118022, "lat": 36.1707368, "lon": 43.9774839, "tags": {"addr:city": "\u0623\u0631\u0628\u064a\u0644", "addr:country": "IQ", "addr:district": "\u0642\u0636\u0627\u0621 \u0623\u0631\u0628\u064a\u0644", "addr:postcode": "44001", "addr:state": "\u0645\u062d\u0627\u0641\u0638\u0629 \u0623\u0631\u0628\u064a\u0644", "amenity": "school", "name": "\u0642\u0648\u062a\u0627\u0628\u062e\u0627\u0646\u06d5\u06cc \u0628\u0646\u06d5\u0695\u06d5\u062a\u06cc \u0628\u0627\u0628\u06d5\u06af\u0648\u0695\u06af\u0648\u0695"}}, {"type": "node", "id": 5494302322, "lat": 36.4794777, "lon": 43.7261879, "tags": {"addr:street": "\u0637\u0631\u064a\u0642 \u0628\u0631\u062f \u0631\u0634", "amenity": "school", "name": "\u0642\u0648\u062a\u0627\u0628\u062e\u0627\u0646\u06d5\u06cc \u0626\u0627\u0645\u0627\u062f\u06d5\u06cc\u06cc \u062f\u0627\u0631\u06d5\u062a\u0648\u0648 \u062a\u06cc\u06a9\u06d5\u0644\u0627\u0648"}}, {"type": "node", "id": 5499970871, "lat": 36.1224209, "lon": 43.9717535}, {"type": "node", "id": 5499970872, "lat": 36.12233, "lon": 43.9724883}, {"type": "node", "id": 5499970873, "lat": 36.121563, "lon": 43.9723429}, {"type": "node", "id": 5499970874, "lat": 36.1216538, "lon": 43.9716081}, {"type": "node", "id": 5515764030, "lat": 36.1170899, "lon": 43.9551246, "tags": {"amenity": "school", "name": "\u0642\u0648\u062a\u0627\u0628\u062e\u0627\u0646\u06d5\u06cc \u06a4\u0627\u0646 \u0628\u06c6 \u062e\u0648\u06ce\u0646\u062f\u0646\u06cc \u0639\u06d5\u0631\u06d5\u0628\u06cc"}}, {"type": "node", "id": 5523529322, "lat": 36.1898027, "lon": 43.9950054, "tags": {"addr:city": "\u0623\u0631\u0628\u064a\u0644", "addr:country": "IQ", "addr:district": "\u0642\u0636\u0627\u0621 \u0623\u0631\u0628\u064a\u0644", "addr:postcode": "44001", "addr:state": "\u0645\u062d\u0627\u0641\u0638\u0629 \u0623\u0631\u0628\u064a\u0644", "amenity": "school", "name": "\u0627\u0644\u0645\u062f\u064a\u0631\u064a\u0629 \u0627\u0644\u0639\u0627\u0645\u0629 \u0644\u0644\u062a\u062e\u0637\u064a\u0637 \u0627\u0644\u062a\u0631\u0628\u0648\u064a"}}, {"type": "node", "id": 5523545121, "lat": 36.1900819, "lon": 43.9946789, "tags": {"addr:city": "\u0623\u0631\u0628\u064a\u0644", "addr:country": "IQ", "addr:district": "\u0642\u0636\u0627\u0621 \u0623\u0631\u0628\u064a\u0644", "addr:postcode": "44001", "addr:state": "\u0645\u062d\u0627\u0641\u0638\u0629 \u0623\u0631\u0628\u064a\u0644", "amenity": "school", "name": "\u0627\u0644\u0645\u062f\u064a\u0631\u064a\u0629 \u0627\u0644\u0639\u0627\u0645\u0629 \u0644\u0644\u062f\u0631\u0627\u0633\u0629 \u063a\u064a\u0631 \u0627\u0644\u0646\u0638\u0627\u0645\u064a\u0629 \u062f\u0631\u0627\u0633\u0629 \u0633\u0631\u064a\u0639\u0629 \u0648 \u0645\u062d\u0648 \u0627\u0645\u064a\u0629"}}, {"type": "node", "id": 5685490722, "lat": 36.3240808, "lon": 43.8126647, "tags": {"amenity": "school", "name": "\u0642\u0648\u062a\u0627\u0628\u062e\u0627\u0646\u0647 \u0649 \u06af\u0648\u0646\u062f\u0649 \u06af\u0627\u064a\u0646\u062c"}}, {"type": "node", "id": 5745650080, "lat": 36.4799645, "lon": 43.7260881}, {"type": "node", "id": 5745650089, "lat": 36.4796407, "lon": 43.7270391}, {"type": "node", "id": 5745650100, "lat": 36.4793873, "lon": 43.7257842}, {"type": "node", "id": 5745650826, "lat": 36.4790635, "lon": 43.7267352}, {"type": "node", "id": 5755780021, "lat": 36.4540906, "lon": 43.5687897, "tags": {"amenity": "school", "name": "\u0642\u0627\u062f\u0633\u064a\u0629 \u0635\u063a\u064a\u0631"}}, {"type": "node", "id": 5774717438, "lat": 36.1518743, "lon": 43.9774734}, {"type": "node", "id": 5774717439, "lat": 36.1511552, "lon": 43.9769986}, {"type": "node", "id": 5774717440, "lat": 36.1517877, "lon": 43.9755368}, {"type": "node", "id": 5774717441, "lat": 36.152524, "lon": 43.9760142}, {"type": "node", "id": 5780460924, "lat": 36.1518524, "lon": 43.9774589}, {"type": "node", "id": 5894453616, "lat": 36.1779161, "lon": 43.9881687}, {"type": "node", "id": 5894453617, "lat": 36.1778501, "lon": 43.9882505}, {"type": "node", "id": 5894453618, "lat": 36.1778274, "lon": 43.988217}, {"type": "node", "id": 5894453619, "lat": 36.1778046, "lon": 43.9881834}, {"type": "node", "id": 5894453620, "lat": 36.1778155, "lon": 43.9881647}, {"type": "node", "id": 5894453621, "lat": 36.1777851, "lon": 43.9881217}, {"type": "node", "id": 5894453622, "lat": 36.1778371, "lon": 43.9880587}, {"type": "node", "id": 5894453623, "lat": 36.1778761, "lon": 43.9881043}, {"type": "node", "id": 5894453624, "lat": 36.1778674, "lon": 43.9881124}, {"type": "node", "id": 6027220060, "lat": 36.1672094, "lon": 43.9629159}, {"type": "node", "id": 6027220061, "lat": 36.167125, "lon": 43.9623257}, {"type": "node", "id": 6027220062, "lat": 36.1659283, "lon": 43.9626295}, {"type": "node", "id": 6027220063, "lat": 36.1660904, "lon": 43.9636166}, {"type": "node", "id": 6027220064, "lat": 36.168228, "lon": 43.9685649}, {"type": "node", "id": 6027220065, "lat": 36.1678593, "lon": 43.9690485}, {"type": "node", "id": 6027220066, "lat": 36.1684383, "lon": 43.9697309}, {"type": "node", "id": 6027220067, "lat": 36.1688027, "lon": 43.9692581}, {"type": "node", "id": 6027220068, "lat": 36.1673105, "lon": 43.969747}, {"type": "node", "id": 6027220069, "lat": 36.167894, "lon": 43.9704294}, {"type": "node", "id": 6027220070, "lat": 36.1696616, "lon": 43.9770457}, {"type": "node", "id": 6027220071, "lat": 36.1700787, "lon": 43.9775452}, {"type": "node", "id": 6027220072, "lat": 36.1707601, "lon": 43.9766725}, {"type": "node", "id": 6027220073, "lat": 36.1703336, "lon": 43.9761644}, {"type": "node", "id": 6027220074, "lat": 36.1729074, "lon": 43.9737733}, {"type": "node", "id": 6027220075, "lat": 36.1735698, "lon": 43.9729182}, {"type": "node", "id": 6027220076, "lat": 36.1731996, "lon": 43.9724729}, {"type": "node", "id": 6027220077, "lat": 36.1725392, "lon": 43.9733473}, {"type": "node", "id": 6028576460, "lat": 36.1477155, "lon": 43.9761}, {"type": "node", "id": 6028576461, "lat": 36.1480316, "lon": 43.9753681}, {"type": "node", "id": 6028576462, "lat": 36.1470834, "lon": 43.97473}, {"type": "node", "id": 6028576463, "lat": 36.1467651, "lon": 43.9754727}, {"type": "node", "id": 6045162195, "lat": 36.1717026, "lon": 43.9683583}, {"type": "node", "id": 6045162210, "lat": 36.1713505, "lon": 43.9651202}, {"type": "node", "id": 6045162211, "lat": 36.1707096, "lon": 43.9630146}, {"type": "node", "id": 6045162212, "lat": 36.1700687, "lon": 43.9631031}, {"type": "node", "id": 6045162213, "lat": 36.1695534, "lon": 43.9631836}, {"type": "node", "id": 6045162214, "lat": 36.1691441, "lon": 43.9632746}, {"type": "node", "id": 6045162215, "lat": 36.168968, "lon": 43.9633203}, {"type": "node", "id": 6045162216, "lat": 36.1686916, "lon": 43.9633944}, {"type": "node", "id": 6045162217, "lat": 36.1683949, "lon": 43.9634934}, {"type": "node", "id": 6045162218, "lat": 36.168514, "lon": 43.9652549}, {"type": "node", "id": 6045162219, "lat": 36.168042, "lon": 43.9636459}, {"type": "node", "id": 6045162220, "lat": 36.1677248, "lon": 43.9637946}, {"type": "node", "id": 6045162221, "lat": 36.1675115, "lon": 43.9638942}, {"type": "node", "id": 6045162222, "lat": 36.1674747, "lon": 43.9639858}, {"type": "node", "id": 6045162223, "lat": 36.1674837, "lon": 43.9639309}, {"type": "node", "id": 6045162224, "lat": 36.1679788, "lon": 43.9646181}, {"type": "node", "id": 6045162225, "lat": 36.1674842, "lon": 43.9640378}, {"type": "node", "id": 6045162226, "lat": 36.1675236, "lon": 43.964104}, {"type": "node", "id": 6045162227, "lat": 36.1692348, "lon": 43.9661027}, {"type": "node", "id": 6045162228, "lat": 36.1696378, "lon": 43.9659347}, {"type": "node", "id": 6045162229, "lat": 36.1705565, "lon": 43.9654924}, {"type": "node", "id": 6045162230, "lat": 36.168853, "lon": 43.9633476, "tags": {"barrier": "gate"}}, {"type": "node", "id": 6045162231, "lat": 36.1691339, "lon": 43.965984, "tags": {"barrier": "gate"}}, {"type": "node", "id": 6045162232, "lat": 36.1699531, "lon": 43.9657829, "tags": {"barrier": "gate"}}, {"type": "node", "id": 6053311585, "lat": 36.4285079, "lon": 43.6755981, "tags": {"amenity": "school", "name": "\u0645\u062f\u0631\u0633\u0629 \u0643\u0648\u0645\u0632\u0631\u062f", "name:en": "school", "name:ku": "\u0642\u0648\u062a\u0627\u0628\u062e\u0627\u0646\u0647"}}, {"type": "node", "id": 6105271487, "lat": 36.1628371, "lon": 43.9663034, "tags": {"amenity": "school", "name": "\u0626\u0627\u0645\u0627\u062f\u06d5\u06cc\u06cc \u06af\u06d5\u0634\u06d5\u06cc \u0646\u0645\u0648\u0648\u0646\u06d5\u06cc\u06cc"}}, {"type": "node", "id": 6120272277, "lat": 36.1846508, "lon": 43.9575681}, {"type": "node", "id": 6120272278, "lat": 36.1848373, "lon": 43.958476}, {"type": "node", "id": 6120272279, "lat": 36.1856308, "lon": 43.9583739}, {"type": "node", "id": 6120272280, "lat": 36.1854184, "lon": 43.9573263}, {"type": "node", "id": 6124803342, "lat": 36.1228681, "lon": 43.9650994}, {"type": "node", "id": 6124803343, "lat": 36.1228876, "lon": 43.9642036}, {"type": "node", "id": 6124803344, "lat": 36.1223481, "lon": 43.9641875}, {"type": "node", "id": 6124803345, "lat": 36.1223199, "lon": 43.9650833}, {"type": "node", "id": 6194771585, "lat": 36.1708624, "lon": 43.9899766, "tags": {"amenity": "school", "name": "\u0642\u0648\u062a\u0627\u0628\u062e\u0627\u0646\u06d5\u06cc \u0628\u0646\u06d5\u0695\u06d5\u062a\u06cc \u0634\u0627\u0643\u0631 \u0641\u06d5\u062a\u0627\u062d", "name:ar": "\u0642\u0648\u062a\u0627\u0628\u062e\u0627\u0646\u06d5\u06cc \u0628\u0646\u06d5\u0695\u06d5\u062a\u06cc \u0634\u0627\u0643\u0631 \u0641\u06d5\u062a\u0627\u062d", "name:ckb": "\u0642\u0648\u062a\u0627\u0628\u062e\u0627\u0646\u06d5\u06cc \u0628\u0646\u06d5\u0695\u06d5\u062a\u06cc \u0634\u0627\u0643\u0631 \u0641\u06d5\u062a\u0627\u062d", "name:en": "Shakr Fatah Elementary School"}}, {"type": "node", "id": 6228138254, "lat": 36.1781363, "lon": 43.9868178}, {"type": "node", "id": 6228138255, "lat": 36.177825, "lon": 43.9872047}, {"type": "node", "id": 6228138256, "lat": 36.1777567, "lon": 43.9871203}, {"type": "node", "id": 6228138257, "lat": 36.1778216, "lon": 43.9870397}, {"type": "node", "id": 6228138258, "lat": 36.1777789, "lon": 43.986987}, {"type": "node", "id": 6228138259, "lat": 36.1778127, "lon": 43.986945}, {"type": "node", "id": 6228138260, "lat": 36.1778471, "lon": 43.9869875}, {"type": "node", "id": 6228138261, "lat": 36.177969, "lon": 43.986836}, {"type": "node", "id": 6228138262, "lat": 36.177907, "lon": 43.9867595}, {"type": "node", "id": 6228138263, "lat": 36.1778868, "lon": 43.9867846}, {"type": "node", "id": 6228138264, "lat": 36.1778208, "lon": 43.986703}, {"type": "node", "id": 6228138265, "lat": 36.1778481, "lon": 43.9866691}, {"type": "node", "id": 6228138266, "lat": 36.1777832, "lon": 43.986589}, {"type": "node", "id": 6228138267, "lat": 36.1776642, "lon": 43.9867369}, {"type": "node", "id": 6228138268, "lat": 36.1777061, "lon": 43.9867887}, {"type": "node", "id": 6228138269, "lat": 36.1776721, "lon": 43.986831}, {"type": "node", "id": 6228138270, "lat": 36.1776266, "lon": 43.9867747}, {"type": "node", "id": 6228138271, "lat": 36.1775519, "lon": 43.9868675}, {"type": "node", "id": 6228138272, "lat": 36.1774699, "lon": 43.9867661}, {"type": "node", "id": 6228138273, "lat": 36.1777813, "lon": 43.9863792}, {"type": "node", "id": 6240417894, "lat": 36.1711974, "lon": 43.9683229}, {"type": "node", "id": 6240456816, "lat": 36.176476, "lon": 43.9341832}, {"type": "node", "id": 6240456817, "lat": 36.1770359, "lon": 43.9370499}, {"type": "node", "id": 6240456818, "lat": 36.1751561, "lon": 43.9376304}, {"type": "node", "id": 6240456819, "lat": 36.1745904, "lon": 43.934799}, {"type": "node", "id": 6273789288, "lat": 36.1681803, "lon": 43.9689327, "tags": {"amenity": "school", "name": "\u0695\u0648\u0648\u0628\u0627\u0631", "name:en": "Rubar Elementary School"}}, {"type": "node", "id": 6290643185, "lat": 36.2127176, "lon": 43.9631639, "tags": {"addr:housenumber": "100 metres", "addr:street": "\u0634\u06d5\u0642\u0627\u0645\u06cc \u0641\u0695\u06c6\u06a9\u06d5\u062e\u0627\u0646\u06d5", "amenity": "school", "name": "\u0645\u062f\u0631\u0633\u0629 \u0643\u0627\u0645\u0628\u0631\u064a\u062c \u0627\u0644\u062f\u0648\u0644\u064a-\u0643\u0627\u0628\u062a\u0644 \u0633\u062a\u06cc", "name:ar": "\u0645\u062f\u0631\u0633\u0629 \u0643\u0627\u0645\u0628\u0631\u064a\u062f\u062c \u0627\u0644\u062f\u0648\u0644\u064a- \u0643\u0627\u0628\u062a\u0644 \u0633\u062a\u064a", "name:en": "Cambridge International School-Capital City", "name:ku": "\u0642\u0648\u062a\u0627\u0628\u062e\u0627\u0646\u06d5\u06cc \u06a9\u0627\u0645\u0628\u0631\u06cc\u062f\u062c\u06cc \u0646\u06ce\u0648\u062f\u06d5\u0648\u0644\u06d5\u062a\u06cc- \u06a9\u0627\u067e\u06cc\u062a\u06d5\u0644 \u0633\u06cc\u062a\u06cc"}}, {"type": "node", "id": 6335163585, "lat": 36.3459743, "lon": 43.8090408, "tags": {"amenity": "school", "name": "\u0645\u062f\u0631\u0633\u0629 \u0625\u0639\u062f\u0627\u062f\u064a\u0629 \u062c\u0643\u0631\u062e\u0648\u064a\u0646"}}, {"type": "node", "id": 6335163685, "lat": 36.470362, "lon": 43.8926862, "tags": {"amenity": "school", "name": "\u0645\u062f\u0631\u0633\u0629 \u0627\u0628\u062a\u062f\u0627\u0626\u064a\u0629"}}, {"type": "node", "id": 6405676185, "lat": 36.5093383, "lon": 43.5801053, "tags": {"addr:street": "bardarash", "amenity": "school", "name": "\u0643\u0627\u0631\u064a\u0632", "name:en": "karex", "name:ku": "\u06a9\u0627\u0631\u06ce\u0632"}}, {"type": "node", "id": 6571839085, "lat": 36.269599, "lon": 43.6326892, "tags": {"amenity": "school", "name": "\u0645\u062f\u0631\u0633\u0629 \u0643\u0644\u0643", "name:ar": "\u0645\u062f\u0631\u0633\u0629 \u0627\u0639\u062f\u0627\u062f\u064a\u0629 \u0643\u0644\u0643", "name:en": "Kalak school", "name:ku": "\u0642\u0648\u062a\u0627\u0628\u062e\u0627\u0646\u06d5\u06cc \u06a9\u06d5\u06b5\u06d5\u06a9\u06cc \u0626\u0627\u0645\u0627\u062f\u06d5\u06cc\u06cc"}}, {"type": "node", "id": 6573984185, "lat": 36.1857814, "lon": 43.9613723, "tags": {"amenity": "school", "name": "\u0644\u064a\u0632\u0627  \u0627\u0647\u0644\u064a\u0629", "name:ku": "\u0644\u064a\u0632\u0627\u064a \u0626\u06d5\u0647\u0644\u06cc"}}, {"type": "node", "id": 6617013785, "lat": 36.2705271, "lon": 43.6655907, "tags": {"amenity": "school", "name": "\u0645\u062f\u0631\u0633\u0629 \u0645\u0627\u0645\u0648\u0633\u062a\u0627 \u062a\u0627\u0631\u0627"}}, {"type": "node", "id": 6617013885, "lat": 36.2741216, "lon": 43.661228, "tags": {"amenity": "school", "name": "\u0642\u0648\u062a\u0627\u0628\u062e\u0627\u0646\u06d5\u06cc \u0626\u0627\u06af\u0627"}}, {"type": "node", "id": 6622087786, "lat": 36.1688988, "lon": 43.9633098, "tags": {"addr:city": "\u0623\u0631\u0628\u064a\u0644", "addr:country": "IQ", "addr:district": "\u0642\u0636\u0627\u0621 \u0623\u0631\u0628\u064a\u0644", "addr:postcode": "44001", "addr:state": "\u0645\u062d\u0627\u0641\u0638\u0629 \u0623\u0631\u0628\u064a\u0644", "addr:street": "\u0634\u06d5\u0642\u0627\u0645\u06cc \u067e\u06ce\u0634\u06d5\u0648\u0627 \u0642\u0627\u0632\u06cc", "amenity": "school", "name": "\u0642\u0648\u062a\u0627\u0628\u062e\u0627\u0646\u06d5\u06cc \u0641\u0627\u062e\u06cc\u0631 \u0645\u06ce\u0631\u06af\u06d5\u0633\u06c6\u0631\u06cc \u0646\u06ce\u0648\u062f\u06d5\u0648\u06b5\u06d5\u062a\u06cc"}}, {"type": "node", "id": 6690923177, "lat": 36.3376438, "lon": 43.6109977}, {"type": "node", "id": 6690923178, "lat": 36.3375099, "lon": 43.6104988}, {"type": "node", "id": 6690923179, "lat": 36.3378236, "lon": 43.610369}, {"type": "node", "id": 6690923180, "lat": 36.3379576, "lon": 43.6108679}, {"type": "node", "id": 6690961289, "lat": 36.3395027, "lon": 43.6066772}, {"type": "node", "id": 6690961290, "lat": 36.3393796, "lon": 43.6063956}, {"type": "node", "id": 6690961291, "lat": 36.3396925, "lon": 43.6061847}, {"type": "node", "id": 6690961292, "lat": 36.3398157, "lon": 43.6064664}, {"type": "node", "id": 6763601686, "lat": 36.4752684, "lon": 43.7344772, "tags": {"amenity": "school", "name": "\u0631\u0647 \u0648\u0638\u0647"}}, {"type": "node", "id": 6791427342, "lat": 36.2425059, "lon": 43.9860137}, {"type": "node", "id": 6791427343, "lat": 36.2425664, "lon": 43.9862042}, {"type": "node", "id": 6816912297, "lat": 36.3054816, "lon": 43.9185458, "tags": {"addr:street": "\u0695\u06ce\u06af\u0627\u06cc \u06af\u06d5\u0632\u0646\u06d5", "amenity": "school", "description": "\u0642\u0648\u062a\u0627\u0628\u062e\u0627\u0646\u06d5\u06cc \u0645\u06cc\u0647\u0631\u06d5\u0628\u0627\u0646: \u0642\u0648\u062a\u0627\u0628\u062e\u0627\u0646\u06d5\u06cc\u06d5\u06a9\u06cc \u0645\u06cc\u0631\u06cc \u0628\u0646\u06d5\u0695\u06d5\u062a\u06cc\u06d5\u060c \u0633\u06d5\u0631 \u0628\u06d5 \u067e\u06d5\u0631\u0648\u06d5\u0631\u062f\u06d5\u06cc \u062f\u06d5\u0648\u0631\u0648\u0628\u06d5\u0631\u06d5.", "name": "\u0642\u0648\u062a\u0627\u0628\u062e\u0627\u0646\u06d5\u06cc \u0645\u06cc\u0647\u0631\u06d5\u0628\u0627\u0646", "opening_hours": "Mo-Th, Sa, Su 08:30-12:10"}}, {"type": "node", "id": 6919549185, "lat": 36.5024018, "lon": 43.5845865, "tags": {"amenity": "school", "name": "\u0642\u0648\u062a\u0627\u0628\u062e\u0627\u0646\u06d5\u06cc \u0695\u0627\u067e\u06d5\u0695\u06cc\u0646\u06cc \u06a9\u0686\u0627\u0646"}}, {"type": "node", "id": 6954243567, "lat": 36.1678041, "lon": 43.9838107}, {"type": "node", "id": 6954243568, "lat": 36.1672593, "lon": 43.9842639}, {"type": "node", "id": 6954243569, "lat": 36.168011, "lon": 43.9850854}, {"type": "node", "id": 6954243570, "lat": 36.1684178, "lon": 43.9845139}, {"type": "node", "id": 7001114477, "lat": 36.3542592, "lon": 43.8126523}, {"type": "node", "id": 7001114478, "lat": 36.3539006, "lon": 43.8128267}, {"type": "node", "id": 7001114479, "lat": 36.3537342, "lon": 43.8123224}, {"type": "node", "id": 7001114480, "lat": 36.3541015, "lon": 43.8121427}, {"type": "node", "id": 7025127585, "lat": 36.2684007, "lon": 43.6391206, "tags": {"amenity": "school", "name": "\u0626\u0627\u0645\u0627\u062f\u0629\u064a\u0649 \u0643\u0629\u0644\u0629\u0643 \u0643\u0686\u0627\u0646"}}, {"type": "node", "id": 7025127685, "lat": 36.2685665, "lon": 43.6392346, "tags": {"amenity": "school", "name": "\u0626\u0627\u0645\u0627\u062f\u0629\u064a\u0649 \u0643\u0629\u0644\u0629\u0643 \u0643\u0648\u0631\u0627\u0646"}}, {"type": "node", "id": 7029571985, "lat": 36.2047568, "lon": 43.985408, "tags": {"addr:city": "\u0623\u0631\u0628\u064a\u0644", "addr:country": "IQ", "addr:district": "\u0642\u0636\u0627\u0621 \u0623\u0631\u0628\u064a\u0644", "addr:postcode": "44001", "addr:state": "\u0645\u062d\u0627\u0641\u0638\u0629 \u0623\u0631\u0628\u064a\u0644", "amenity": "school", "name:en": "King School", "phone": "07504191795"}}, {"type": "node", "id": 7039290485, "lat": 36.4973722, "lon": 43.6010389, "tags": {"amenity": "school", "name": "\u0645\u062f\u0631\u0633\u0629 \u0627\u0644\u0646\u0627\u0632\u062d\u064a\u0646 \u0627\u0644\u0623\u0639\u062f\u0627\u062f\u064a\u0629 \u0644\u0644\u063a\u0629 \u0627\u0644\u0639\u0631\u0628\u064a\u0629", "name:en": "IDP Preparatory School Arabic Language", "name:ku": "\u0645\u062f\u0631\u0633\u0629 \u0627\u0644\u0646\u0627\u0632\u062d\u064a\u0646 \u0627\u0644\u0623\u0639\u062f\u0627\u062f\u064a\u0629 \u0644\u0644\u063a\u0629 \u0627\u0644\u0639\u0631\u0628\u064a\u0629 \u0628\u0631\u062f \u0647 \u0631 \u0647 \u0634"}}, {"type": "node", "id": 7039295885, "lat": 36.5111586, "lon": 43.5754916, "tags": {"amenity": "school", "name": "\u0645\u062f\u0631\u0633\u0629 \u0627\u0644\u0646\u0627\u0632\u062d\u064a\u0646 \u0627\u0644\u0623\u0628\u062a\u062f\u0627\u0626\u064a\u0629 \u0644\u0644\u063a\u0629 \u0627\u0644\u0639\u0631\u0628\u064a\u0629", "name:en": "Displaced primary school for Arabic language", "name:ku": "\u0645\u062f\u0631\u0633\u0629 \u0627\u0644\u0646\u0627\u0632\u062d\u064a\u0646 \u0627\u0644\u0623\u0628\u062a\u062f\u0627\u0626\u064a\u0629 \u0644\u0644\u063a\u0629 \u0627\u0644\u0639\u0631\u0628\u064a\u0629 \u0628\u0631 \u062f \u0647 \u0631 \u0647 \u0634"}}, {"type": "node", "id": 7056241000, "lat": 36.1685251, "lon": 43.96345}, {"type": "node", "id": 7056241003, "lat": 36.1686783, "lon": 43.9633988}, {"type": "node", "id": 7058276228, "lat": 36.1664544, "lon": 43.96248}, {"type": "node", "id": 7079515987, "lat": 36.2348426, "lon": 43.9910629, "tags": {"addr:city": "\u0623\u0631\u0628\u064a\u0644", "addr:country": "IQ", "addr:district": "\u0642\u0636\u0627\u0621 \u0623\u0631\u0628\u064a\u0644", "addr:postcode": "44003", "addr:state": "\u0645\u062d\u0627\u0641\u0638\u0629 \u0623\u0631\u0628\u064a\u0644", "addr:subdistrict": "\u0646\u0627\u062d\u064a\u0629 \u0639\u0646\u0643\u0627\u0648\u0627", "addr:town": "\u0639\u0646\u0643\u0627\u0648\u0627", "amenity": "school", "name": "\u0642\u0648\u062a\u0627\u0628\u062e\u0627\u0646\u06d5\u06cc \u0626\u0627\u0645\u0627\u062f\u06d5\u06cc\u06cc \u062a\u06ce\u06a9\u06d5\u06b5\u0627\u0648\u06cc \u0646\u0645\u0648\u0648\u0646\u06d5\u06cc\u06cc \u0639\u06d5\u0646\u06a9\u0627\u0648\u06d5", "name:en": "Ainkawa Typical Secondary School", "name:ku": "\u0642\u0648\u062a\u0627\u0628\u062e\u0627\u0646\u06d5\u06cc \u0626\u0627\u0645\u0627\u062f\u06d5\u06cc\u06cc \u062a\u06ce\u06a9\u06d5\u06b5\u0627\u0648\u06cc \u0646\u0645\u0648\u0648\u0646\u06d5\u06cc\u06cc \u0639\u06d5\u0646\u06a9\u0627\u0648\u06d5"}}, {"type": "node", "id": 7084878685, "lat": 36.5049428, "lon": 43.5830001, "tags": {"amenity": "school"}}, {"type": "node", "id": 7086585491, "lat": 36.1742077, "lon": 43.9619456, "tags": {"amenity": "school", "email": "hemnm23@gmail.com", "name": "\u0698\u06cc\u0627\u0631\u06cc \u0626\u0627\u06cc\u0646\u062f\u06d5\u06cc \u0628\u0646\u06d5\u0631\u06d5\u062a\u06cc -\u0626\u06cc\u0646\u06af\u0644\u06cc\u0632\u06cc", "name:en": "The private Zhyari Aynda Basic school English", "opening_hours": "Su-Th 08:00-14:30", "phone": "07503264699"}}, {"type": "node", "id": 7103814685, "lat": 36.1876085, "lon": 43.9933237, "tags": {"addr:city": "\u0623\u0631\u0628\u064a\u0644", "addr:country": "IQ", "addr:district": "\u0642\u0636\u0627\u0621 \u0623\u0631\u0628\u064a\u0644", "addr:postcode": "44001", "addr:state": "\u0645\u062d\u0627\u0641\u0638\u0629 \u0623\u0631\u0628\u064a\u0644", "addr:street": "\u0634\u06d5\u0642\u0627\u0645\u06cc \u06a9\u0648\u0631\u062f\u0633\u062a\u0627\u0646 \u0666\u0660\u0645", "amenity": "school", "name": "\u0626\u0627\u0645\u0627\u062f\u06d5\u06cc\u06cc \u067e\u06cc\u0634\u06d5\u0633\u0627\u0632\u06cc \u06a9\u0648\u0631\u0627\u0646", "name:en": "Industrial High School", "opening_hours": "Mo-Su 09:00-18:00", "phone": "7511077628"}}, {"type": "node", "id": 7121392885, "lat": 36.1767397, "lon": 43.9919976, "tags": {"amenity": "school", "name": "\u0642\u0648\u062a\u0627\u0628\u062e\u0627\u0646\u06d5 \u06a9\u06cc\u0648\u0627\u0646\u06cc \u0628\u0646\u06d5\u0695\u06d5\u062a\u06cc", "name:en": "Kaiwan Elementary School"}}, {"type": "node", "id": 7178939972, "lat": 36.1768972, "lon": 43.9363397}, {"type": "node", "id": 7178939973, "lat": 36.1769315, "lon": 43.9365154}, {"type": "node", "id": 7178939976, "lat": 36.1769377, "lon": 43.9365471}, {"type": "node", "id": 7178939977, "lat": 36.1769741, "lon": 43.9367336}, {"type": "node", "id": 7306785885, "lat": 36.222751, "lon": 43.9923553}, {"type": "node", "id": 7367667753, "lat": 36.2043159, "lon": 43.9842805}, {"type": "node", "id": 7367667754, "lat": 36.2037514, "lon": 43.9858166}, {"type": "node", "id": 7367667755, "lat": 36.204711, "lon": 43.9865541}, {"type": "node", "id": 7367667756, "lat": 36.205686, "lon": 43.9852907}, {"type": "node", "id": 7397495111, "lat": 36.1625397, "lon": 43.9788569, "tags": {"amenity": "school", "name": "Sham Hich School (Girls)", "name:ckb": "\u0642\u0648\u062a\u0627\u0628\u062e\u0627\u0646\u06d5\u06cc \u0626\u0627\u0645\u0627\u062f\u06d5\u06cc\u06cc \u0634\u06d5\u0645\u06cc \u06a9\u0686\u0627\u0646"}}, {"type": "node", "id": 7434799708, "lat": 36.2050319, "lon": 43.9847685}, {"type": "node", "id": 7434801379, "lat": 36.2052376, "lon": 43.9858728}, {"type": "node", "id": 7434801380, "lat": 36.2051225, "lon": 43.9857672}, {"type": "node", "id": 7434801381, "lat": 36.2048264, "lon": 43.9855322}, {"type": "node", "id": 7434801382, "lat": 36.2051438, "lon": 43.984888}, {"type": "node", "id": 7434801383, "lat": 36.205391, "lon": 43.9850385}, {"type": "node", "id": 7434801384, "lat": 36.2056487, "lon": 43.9852629}, {"type": "node", "id": 7443445567, "lat": 36.1647285, "lon": 43.9644219, "tags": {"amenity": "school", "name": "Almani High School (Hawler)"}}, {"type": "node", "id": 7454600798, "lat": 36.1869055, "lon": 43.995817, "tags": {"addr:city": "\u0623\u0631\u0628\u064a\u0644", "addr:country": "IQ", "addr:district": "\u0642\u0636\u0627\u0621 \u0623\u0631\u0628\u064a\u0644", "addr:postcode": "44001", "addr:state": "\u0645\u062d\u0627\u0641\u0638\u0629 \u0623\u0631\u0628\u064a\u0644", "amenity": "school", "name": "Talar Elementary School"}}, {"type": "node", "id": 7622878597, "lat": 36.176891, "lon": 43.9951899, "tags": {"addr:city": "\u0623\u0631\u0628\u064a\u0644", "addr:country": "IQ", "addr:district": "\u0642\u0636\u0627\u0621 \u0623\u0631\u0628\u064a\u0644", "addr:postcode": "44001", "addr:state": "\u0645\u062d\u0627\u0641\u0638\u0629 \u0623\u0631\u0628\u064a\u0644", "amenity": "school", "name": "Layla Qasim High School"}}, {"type": "node", "id": 7768318886, "lat": 36.2740971, "lon": 43.990259, "tags": {"amenity": "school", "name": "\u0645\u062f\u0631\u0633\u0629 \u0627\u0639\u062f\u0627\u062f\u064a\u0629", "name:en": "Secondary school", "name:ku": "\u0642\u0648\u062a\u0627\u0628\u062e\u0627\u0646\u0629"}}, {"type": "node", "id": 7768319085, "lat": 36.2716522, "lon": 43.992442, "tags": {"amenity": "school", "name": "\u0645\u062f\u0631\u0633\u0629 \u0627\u0628\u062a\u062f\u0627\u0626\u064a\u0629", "name:en": "Primary school", "name:ku": "\u0645\u0629\u0643\u062a\u0629\u0628\u064a \u0633\u0629\u0631\u0629\u062a\u0627\u064a\u064a"}}, {"type": "node", "id": 7819762667, "lat": 36.5065579, "lon": 43.5926392, "tags": {"amenity": "school", "name": "Bardarash High School"}}, {"type": "node", "id": 7831630385, "lat": 36.5050222, "lon": 43.5829678, "tags": {"amenity": "school", "name": "\u0642\u0648\u062a\u0627\u0628\u062e\u0627\u0646\u06d5\u06cc \u06a9\u0648\u0631\u062f\u0633\u062a\u0627\u0646"}}, {"type": "node", "id": 7849276886, "lat": 36.2776142, "lon": 43.6721402, "tags": {"amenity": "school", "name": "\u0642\u0648\u062a\u0627\u0628\u062e\u0627\u0646\u06d5\u06cc \u0632\u0648\u0631\u06af\u06d5\u0632\u0631\u0627\u0648"}}, {"type": "node", "id": 7849277085, "lat": 36.4429143, "lon": 43.6008163, "tags": {"amenity": "school", "name": "\u0642\u0648\u062a\u0627\u0628\u062e\u0627\u0646\u06d5\u06cc \u0633\u06d5\u0631\u06d5\u062a\u0627\u06cc\u06cc \u0634\u06ce\u062e\u0627\u0644\u0643"}}, {"type": "node", "id": 7859556703, "lat": 36.2425962, "lon": 43.9862981}, {"type": "node", "id": 7877954022, "lat": 36.1535123, "lon": 43.9814976}, {"type": "node", "id": 7877954023, "lat": 36.154973, "lon": 43.9814528}, {"type": "node", "id": 7877954024, "lat": 36.1546061, "lon": 43.9822336}, {"type": "node", "id": 7877954025, "lat": 36.153868, "lon": 43.9807064}, {"type": "node", "id": 7878029897, "lat": 36.1542174, "lon": 43.9671211}, {"type": "node", "id": 7878029898, "lat": 36.1534359, "lon": 43.9665946}, {"type": "node", "id": 7878029899, "lat": 36.1545069, "lon": 43.9664618}, {"type": "node", "id": 7878029900, "lat": 36.1537255, "lon": 43.9659354}, {"type": "node", "id": 7966154485, "lat": 36.5138801, "lon": 43.5781529, "tags": {"amenity": "school", "name": "\u062c\u0627\u0645\u0639 \u062d\u0627\u062c \u0639\u0628\u062f\u0627\u0644\u0644\u0647 \u0627\u0644\u062e\u064a\u0627\u0637", "name:ar": "\u062c\u0627\u0645\u0639 \u0639\u0628\u0627\u0644\u0644\u0647 \u062e\u064a\u0627\u0637", "name:en": "mosque", "name:ku": "\u0645\u0632\u06af\u0629\u0648\u062a\u0649 \u0639\u0628\u062f\u0627\u0644\u0644\u0647 \u062e\u064a\u0627\u062a"}}, {"type": "node", "id": 7975629085, "lat": 36.5051754, "lon": 43.5758981, "tags": {"amenity": "school", "name": "\u0642\u0648\u062a\u0627\u0628\u062e\u0627\u0645\u06d5\u06cc \u067e\u06ce\u0634\u0695\u06d5\u0648"}}, {"type": "node", "id": 8026656696, "lat": 36.2080659, "lon": 43.9753578}, {"type": "node", "id": 8026656697, "lat": 36.2078492, "lon": 43.9759274}, {"type": "node", "id": 8026656698, "lat": 36.2074379, "lon": 43.975687}, {"type": "node", "id": 8026656699, "lat": 36.2076544, "lon": 43.9751181}, {"type": "node", "id": 8026656700, "lat": 36.2077967, "lon": 43.9751596}, {"type": "node", "id": 8026656701, "lat": 36.2077837, "lon": 43.9751937}, {"type": "node", "id": 8026656702, "lat": 36.207965, "lon": 43.975258}, {"type": "node", "id": 8026656703, "lat": 36.2079522, "lon": 43.9752914}, {"type": "node", "id": 8110974217, "lat": 36.181615, "lon": 43.9914285, "tags": {"addr:city": "\u0623\u0631\u0628\u064a\u0644", "addr:country": "IQ", "addr:district": "\u0642\u0636\u0627\u0621 \u0623\u0631\u0628\u064a\u0644", "addr:postcode": "44001", "addr:state": "\u0645\u062d\u0627\u0641\u0638\u0629 \u0623\u0631\u0628\u064a\u0644", "amenity": "school", "name": "\u0642\u0648\u062a\u0627\u0628\u062e\u0627\u0646\u06d5\u06cc \u062e\u0627\u0646\u06d5\u06cc \u0642\u0648\u0628\u0627\u062f\u06cc", "name:en": "Xanay qubade school"}}, {"type": "node", "id": 8154508318, "lat": 36.3092208, "lon": 43.6797213, "tags": {"amenity": "school", "name": "\u0642\u0648\u062a\u0627\u0628\u062e\u0627\u0646\u06d5\u06cc \u0628\u0646\u06d5\u0695\u06d5\u062a\u06cc \u06a9\u0648\u0695\u0627\u0646"}}, {"type": "node", "id": 8154516617, "lat": 36.3091754, "lon": 43.6724175, "tags": {"amenity": "school", "name": "\u0642\u0648\u062a\u0627\u0628\u062e\u0627\u0646\u06d5\u06cc", "name:ar": "\u0628\u0646\u06d5\u0695\u06d5\u062a\u06cc \u06a9\u0686\u0627\u0646 \u0648 \u0626\u0627\u0645\u0627\u062f\u06d5\u06cc \u0628\u0634\u06cc\u0631\u06cc\u0627\u0646"}}, {"type": "node", "id": 8167564808, "lat": 36.4905885, "lon": 43.6436852, "tags": {"amenity": "school"}}, {"type": "node", "id": 8167669367, "lat": 36.4834575, "lon": 43.6880521}, {"type": "node", "id": 8167669368, "lat": 36.4834614, "lon": 43.6875478}, {"type": "node", "id": 8167669369, "lat": 36.4829688, "lon": 43.687542}, {"type": "node", "id": 8167669370, "lat": 36.4829649, "lon": 43.6880462}, {"type": "node", "id": 8170545024, "lat": 36.1826495, "lon": 43.5400221}, {"type": "node", "id": 8170545025, "lat": 36.1825516, "lon": 43.5393789}, {"type": "node", "id": 8170545026, "lat": 36.1821052, "lon": 43.5394831}, {"type": "node", "id": 8170545027, "lat": 36.1822031, "lon": 43.5401264}, {"type": "node", "id": 8381737719, "lat": 36.160836, "lon": 43.9665401, "tags": {"amenity": "school", "name": "\u0642\u0648\u062a\u0627\u0628\u062e\u0627\u0646\u06d5\u06cc \u0633\u0645\u0627\u0631\u062a\u06cc \u0628\u0646\u06d5\u0695\u06d5\u062a\u06cc \u0626\u06d5\u0647\u0644\u06cc", "name:en": "Smart Private Basic School"}}, {"type": "node", "id": 8866062117, "lat": 36.2393584, "lon": 43.9942273, "tags": {"addr:city": "\u0623\u0631\u0628\u064a\u0644", "addr:country": "IQ", "addr:district": "\u0642\u0636\u0627\u0621 \u0623\u0631\u0628\u064a\u0644", "addr:postcode": "44003", "addr:state": "\u0645\u062d\u0627\u0641\u0638\u0629 \u0623\u0631\u0628\u064a\u0644", "addr:street": "Du side ainkawa", "addr:subdistrict": "\u0646\u0627\u062d\u064a\u0629 \u0639\u0646\u0643\u0627\u0648\u0627", "addr:town": "\u0639\u0646\u0643\u0627\u0648\u0627", "amenity": "school", "name": "\u0645\u0639\u0647\u062f \u0627\u0644\u0645\u0627\u062c\u062f \u0627\u0644\u0646\u0645\u0648\u0630\u062c\u064a \u0644\u062a\u062f\u0631\u064a\u0628 \u0627\u0644\u0633\u0627\u062f\u0633 \u0627\u0639\u062f\u0627\u062f\u064a", "name:en": "Al-maajd center", "opening_hours": "Sa-Th 08:00-18:00"}}, {"type": "node", "id": 8900427520, "lat": 36.1766637, "lon": 43.9696851, "tags": {"amenity": "school", "name": "\u0695\u0627\u0633\u062a\u06cc", "name:ku": "raste"}}, {"type": "node", "id": 8900437818, "lat": 36.1762297, "lon": 43.970134, "tags": {"amenity": "school", "name": "\u0642\u0648\u062a\u0627\u0628\u062e\u0627\u0646\u06d5\u06cc \u062f\u0627\u0628\u0627\u0646", "name:en": "Daban School"}}, {"type": "node", "id": 8968106702, "lat": 36.1615344, "lon": 43.9803699, "tags": {"amenity": "school", "name": "Karim Sharaza School"}}, {"type": "node", "id": 8968106703, "lat": 36.16166, "lon": 43.9804692, "tags": {"amenity": "school", "name": "Shanadar Elementary School Mixed"}}, {"type": "node", "id": 8986222087, "lat": 36.1764707, "lon": 43.9698984, "tags": {"addr:street": "\u0634\u06d5\u0642\u0627\u0645\u06cc \u0646\u06d5\u0648\u0631\u06c6\u0632", "amenity": "school", "name": "\u0642\u0648\u062a\u0627\u0628\u062e\u0627\u0646\u06d5\u06cc \u067e\u0627\u06cc\u062a\u06d5\u062e\u062a\u06cc \u0628\u0646\u06d5\u0695\u06d5\u062a\u06cc", "name:en": "Primary Capital School"}}, {"type": "node", "id": 8999474301, "lat": 36.1756459, "lon": 43.9784215, "tags": {"amenity": "school", "name": "\u0642\u0648\u062a\u0627\u0628\u062e\u0627\u0646\u06d5\u06cc \u0647\u06d5\u0646\u062f\u0631\u06ce\u0646\u06cc \u0628\u0646\u06d5\u0695\u06d5\u062a\u06cc \u062a\u06ce\u06a9\u06d5\u06b5\u0627\u0648", "name:en": "Handren Elementary School Mixed"}}, {"type": "node", "id": 9008458666, "lat": 36.1618088, "lon": 43.9919987, "tags": {"amenity": "school", "name": "\u0642\u0648\u062a\u0627\u0628\u062e\u0627\u0646\u06d5\u06cc \u062e\u06d5\u0646\u062f\u06d5\u06cc \u0628\u0646\u06d5\u0631\u06d5\u062a\u06cc", "name:en": "Khanda Elementary School"}}, {"type": "node", "id": 9013347451, "lat": 36.1693748, "lon": 43.9895558}, {"type": "node", "id": 9013347452, "lat": 36.1689239, "lon": 43.9890649}, {"type": "node", "id": 9013347453, "lat": 36.1682531, "lon": 43.9899906}, {"type": "node", "id": 9013812449, "lat": 36.1709451, "lon": 43.9899222}, {"type": "node", "id": 9013812450, "lat": 36.1705095, "lon": 43.9905331}, {"type": "node", "id": 9013812451, "lat": 36.1702778, "lon": 43.9901913}, {"type": "node", "id": 9013812452, "lat": 36.1706803, "lon": 43.989634}, {"type": "node", "id": 9032249439, "lat": 36.1687286, "lon": 43.989332}, {"type": "node", "id": 9032249443, "lat": 36.1691273, "lon": 43.9892864}, {"type": "node", "id": 9032249444, "lat": 36.169164, "lon": 43.9893263}, {"type": "node", "id": 9032249451, "lat": 36.1689759, "lon": 43.990109}, {"type": "node", "id": 9032249453, "lat": 36.1687027, "lon": 43.990488}, {"type": "node", "id": 9032249454, "lat": 36.1684254, "lon": 43.9897515}, {"type": "node", "id": 9032249459, "lat": 36.1689041, "lon": 43.9902087}, {"type": "node", "id": 9036956053, "lat": 36.1703684, "lon": 43.9903263}, {"type": "node", "id": 9036956068, "lat": 36.168727, "lon": 43.9914045}, {"type": "node", "id": 9036956069, "lat": 36.1685919, "lon": 43.9915928}, {"type": "node", "id": 9036956072, "lat": 36.1685417, "lon": 43.9916627}, {"type": "node", "id": 9036956073, "lat": 36.1684088, "lon": 43.9918479}, {"type": "node", "id": 9037345997, "lat": 36.1310188, "lon": 43.9641681}, {"type": "node", "id": 9037345998, "lat": 36.131431, "lon": 43.9647263}, {"type": "node", "id": 9037345999, "lat": 36.1310312, "lon": 43.9651789}, {"type": "node", "id": 9037346000, "lat": 36.130619, "lon": 43.9646207}, {"type": "node", "id": 9037346003, "lat": 36.1313569, "lon": 43.9646155}, {"type": "node", "id": 9037346004, "lat": 36.1311051, "lon": 43.9642853}, {"type": "node", "id": 9042439193, "lat": 36.1691334, "lon": 43.9893239, "tags": {"addr:city": "\u0623\u0631\u0628\u064a\u0644", "addr:country": "IQ", "addr:district": "\u0642\u0636\u0627\u0621 \u0623\u0631\u0628\u064a\u0644", "addr:postcode": "44001", "addr:state": "\u0645\u062d\u0627\u0641\u0638\u0629 \u0623\u0631\u0628\u064a\u0644", "addr:street": "207-2", "amenity": "school", "name": "\u0642\u0648\u062a\u0627\u0628\u062e\u0627\u0646\u06d5\u06cc \u0633\u06d5\u0646\u06af\u06cc\u0646 \u0628\u0646\u06d5\u0695\u06d5\u062a\u06cc \u062a\u06ce\u06a9\u06d5\u06b5\u0627\u0645", "name:ar": "\u0642\u0648\u062a\u0627\u0628\u062e\u0627\u0646\u06d5\u06cc \u0633\u06d5\u0646\u06af\u06cc\u0646 \u0628\u0646\u06d5\u0695\u06d5\u062a\u06cc \u062a\u06ce\u06a9\u06d5\u06b5\u0627\u0645", "name:en": "Sangin Primary School of Mixed"}}, {"type": "node", "id": 9042439194, "lat": 36.1681422, "lon": 43.9842547, "tags": {"amenity": "school", "name": "\u0642\u0648\u062a\u0627\u0628\u062e\u0627\u0646\u06d5\u06cc \u0626\u0627\u0645\u0627\u062f\u06d5\u06cc\u06cc \u0628\u06ce\u062e\u0627\u0644", "name:ar": "\u0645\u062f\u0631\u0633\u0629 \u0628\u062e\u0627\u0644 \u0627\u0644\u062b\u0627\u0646\u0648\u064a\u0629", "name:ckb": "\u0642\u0648\u062a\u0627\u0628\u062e\u0627\u0646\u06d5\u06cc \u0626\u0627\u0645\u0627\u062f\u06d5\u06cc\u06cc \u0628\u06ce\u062e\u0627\u0644", "name:en": "\u0642\u0648\u062a\u0627\u0628\u062e\u0627\u0646\u06d5\u06cc \u0626\u0627\u0645\u0627\u062f\u06d5\u06cc\u06cc \u0628\u06ce\u062e\u0627\u0644"}}, {"type": "node", "id": 9042439195, "lat": 36.1675899, "lon": 43.9838042}, {"type": "node", "id": 9044713415, "lat": 36.1660709, "lon": 43.9905369}, {"type": "node", "id": 9044713416, "lat": 36.165236, "lon": 43.9917084}, {"type": "node", "id": 9044734617, "lat": 36.1651433, "lon": 43.9916001}, {"type": "node", "id": 9044734618, "lat": 36.1650601, "lon": 43.9914327}, {"type": "node", "id": 9044734619, "lat": 36.1650186, "lon": 43.9912031}, {"type": "node", "id": 9044734620, "lat": 36.1649972, "lon": 43.9908109}, {"type": "node", "id": 9044734621, "lat": 36.165584, "lon": 43.9899982}, {"type": "node", "id": 9044988590, "lat": 36.1681616, "lon": 43.9902028}, {"type": "node", "id": 9044988591, "lat": 36.1689616, "lon": 43.9910774}, {"type": "node", "id": 9044988592, "lat": 36.1683889, "lon": 43.9918757}, {"type": "node", "id": 9044988593, "lat": 36.1675983, "lon": 43.991036}, {"type": "node", "id": 9093395961, "lat": 36.1675825, "lon": 43.9881014}, {"type": "node", "id": 9093395962, "lat": 36.1670993, "lon": 43.9887674}, {"type": "node", "id": 9093395963, "lat": 36.16652, "lon": 43.9881483}, {"type": "node", "id": 9093395964, "lat": 36.1670011, "lon": 43.9874577}, {"type": "node", "id": 9104288218, "lat": 36.1592494, "lon": 43.5961628, "tags": {"addr:street": "\u062e\u0627\u0644\u064a\u0646\u062f", "amenity": "school", "name": "\u0645\u062f\u0631\u0633\u0629 \u0627\u0644\u062e\u0627\u0644\u062f", "name:en": "AL.Khalid School", "name:ku": "\u0642\u0648\u062a\u0628\u0627\u0646\u0649 \u062e\u0627\u0644\u0646\u062f"}}, {"type": "node", "id": 9107851004, "lat": 36.36131, "lon": 43.6913247}, {"type": "node", "id": 9107851005, "lat": 36.3611638, "lon": 43.6919222}, {"type": "node", "id": 9107851006, "lat": 36.3606492, "lon": 43.6917282}, {"type": "node", "id": 9107851007, "lat": 36.3607954, "lon": 43.6911305}, {"type": "node", "id": 9129244763, "lat": 36.1331526, "lon": 43.4720564, "tags": {"amenity": "school", "grades": "1-7", "name": "\u0627\u0628\u062a\u062f\u0627\u0626\u064a\u0629 \u0633\u0637\u064a\u062d"}}, {"type": "node", "id": 9129252215, "lat": 36.1157609, "lon": 43.475568, "tags": {"amenity": "school", "name": "Shanaf Secondary school"}}, {"type": "node", "id": 9131085985, "lat": 36.1205102, "lon": 43.7553774, "tags": {"amenity": "school", "name": "\u0642\u0648\u062a\u0627\u0628\u062e\u0627\u0646\u0647\u200c", "name:en": "\u0642\u0648\u062a\u0627\u0628\u062e\u0627\u0646\u0647\u200c"}}, {"type": "node", "id": 9155047818, "lat": 36.1746596, "lon": 43.9887329, "tags": {"addr:street": "kuran", "amenity": "school", "name:en": "Taban school girls", "opening_hours": "Sa-Th 08:00-17:00"}}, {"type": "node", "id": 9169166970, "lat": 36.168077, "lon": 43.9851195}, {"type": "node", "id": 9169166971, "lat": 36.1687177, "lon": 43.9858003}, {"type": "node", "id": 9169166972, "lat": 36.1691033, "lon": 43.9852187}, {"type": "node", "id": 9169166973, "lat": 36.1684826, "lon": 43.984547}, {"type": "node", "id": 9239800817, "lat": 36.175022, "lon": 43.9795994, "tags": {"amenity": "school", "name:en": "Baydagh Elementary School"}}, {"type": "node", "id": 9263546978, "lat": 36.2773213, "lon": 43.7404772, "tags": {"amenity": "school"}}, {"type": "node", "id": 9263546984, "lat": 36.2710136, "lon": 43.7397342, "tags": {"amenity": "school"}}, {"type": "node", "id": 9331381590, "lat": 36.1162917, "lon": 43.9606989, "tags": {"addr:city": "\u0623\u0631\u0628\u064a\u0644", "addr:country": "IQ", "addr:state": "\u0645\u062d\u0627\u0641\u0638\u0629 \u0623\u0631\u0628\u064a\u0644", "amenity": "school", "name": "\u0642\u0648\u062a\u0627\u0628\u062e\u0627\u0646\u0647", "name:en": "School"}}, {"type": "node", "id": 9334173951, "lat": 36.2057855, "lon": 43.9946313}, {"type": "node", "id": 9334173952, "lat": 36.2060543, "lon": 43.9956058}, {"type": "node", "id": 9334173953, "lat": 36.206654, "lon": 43.9953347}, {"type": "node", "id": 9334173954, "lat": 36.2063896, "lon": 43.9943778}, {"type": "node", "id": 9334173955, "lat": 36.2074868, "lon": 43.9955168}, {"type": "node", "id": 9334173956, "lat": 36.207032, "lon": 43.9940684}, {"type": "node", "id": 9334173957, "lat": 36.2077943, "lon": 43.9937291}, {"type": "node", "id": 9334173958, "lat": 36.2082407, "lon": 43.9951671}, {"type": "node", "id": 9377101718, "lat": 36.1599499, "lon": 43.9830927, "tags": {"amenity": "school", "name": "\u0642\u0648\u062a\u0627\u0628\u062e\u0627\u0646\u06d5\u06cc \u06a9\u06c6\u0686\u06d5\u0631\u06d5\u06cc \u0628\u0646\u06d5\u0695\u06d5\u062a\u06cc", "name:en": "Kochar Elementary School"}}, {"type": "node", "id": 9378931479, "lat": 36.1604195, "lon": 43.9860578, "tags": {"amenity": "school", "name": "\u0642\u0648\u062a\u0627\u0628\u062e\u0627\u0646\u06d5\u06cc \u0626\u0627\u0645\u0627\u062f\u06d5\u06cc\u06cc \u0634\u06d5\u0645\u06cc \u06a9\u0686\u0627\u0646", "name:en": "Sham High School (Girls)"}}, {"type": "node", "id": 9557582594, "lat": 36.1671888, "lon": 43.9785588, "tags": {"amenity": "school"}}, {"type": "node", "id": 9665557952, "lat": 36.0823169, "lon": 43.9486048, "tags": {"addr:city": "\u0647\u06d5\u0648\u0644\u06ce\u0631", "addr:country": "IQ", "addr:state": "\u0645\u062d\u0627\u0641\u0638\u0629 \u0623\u0631\u0628\u064a\u0644", "amenity": "school"}}, {"type": "node", "id": 9673654361, "lat": 36.1665706, "lon": 43.9882024}, {"type": "node", "id": 9673654362, "lat": 36.1671315, "lon": 43.9887249}, {"type": "node", "id": 9673654367, "lat": 36.1674048, "lon": 43.9883464}, {"type": "node", "id": 9673654368, "lat": 36.1669848, "lon": 43.987481}, {"type": "node", "id": 9682231747, "lat": 36.1761573, "lon": 43.9942393, "tags": {"amenity": "school"}}, {"type": "node", "id": 9726053846, "lat": 36.1521848, "lon": 43.9757943}, {"type": "node", "id": 9726053848, "lat": 36.1523122, "lon": 43.97649}, {"type": "node", "id": 9726053849, "lat": 36.152099, "lon": 43.9757387}, {"type": "node", "id": 9726053851, "lat": 36.1515912, "lon": 43.9759909}, {"type": "node", "id": 9726053852, "lat": 36.1521091, "lon": 43.9758498, "tags": {"amenity": "school", "name": "\u0642\u0648\u062a\u0627\u0628\u062e\u0627\u0646\u06d5\u06cc \u0628\u0646\u06d5\u0695\u06d5\u062a\u06cc \u062a\u06ce\u06a9\u06d5\u06b5\u0627\u0648\u06cc \u0626\u0627\u0648\u06ce\u0646\u06d5", "name:en": "Awena Elementary School"}}, {"type": "node", "id": 9730500461, "lat": 36.3912449, "lon": 43.870454}, {"type": "node", "id": 9730500462, "lat": 36.3908888, "lon": 43.8702261}, {"type": "node", "id": 9730500463, "lat": 36.3911065, "lon": 43.8703223}, {"type": "node", "id": 9730500465, "lat": 36.3912522, "lon": 43.8703333}, {"type": "node", "id": 9730500466, "lat": 36.390929, "lon": 43.8702284}, {"type": "node", "id": 9730500467, "lat": 36.3909019, "lon": 43.86995}, {"type": "node", "id": 9730500468, "lat": 36.3911275, "lon": 43.8700857}, {"type": "node", "id": 9730500469, "lat": 36.390921, "lon": 43.8704212}, {"type": "node", "id": 9730500470, "lat": 36.3913051, "lon": 43.8701052}, {"type": "node", "id": 9730500471, "lat": 36.3913148, "lon": 43.8699913}, {"type": "node", "id": 9732396334, "lat": 36.1727435, "lon": 43.9735808}, {"type": "node", "id": 9732396335, "lat": 36.1729984, "lon": 43.9736544}, {"type": "node", "id": 9732396338, "lat": 36.1726625, "lon": 43.9734895}, {"type": "node", "id": 9732396339, "lat": 36.1726951, "lon": 43.9735275}, {"type": "node", "id": 9732396340, "lat": 36.1733778, "lon": 43.9739215, "tags": {"amenity": "school"}}, {"type": "node", "id": 9732396341, "lat": 36.17299, "lon": 43.9744202, "tags": {"amenity": "school"}}, {"type": "node", "id": 9749099296, "lat": 36.1772371, "lon": 43.9938068, "tags": {"amenity": "school"}}, {"type": "node", "id": 9788934556, "lat": 36.3914817, "lon": 43.8697481}, {"type": "node", "id": 9788934557, "lat": 36.3908732, "lon": 43.869656}, {"type": "node", "id": 9788934558, "lat": 36.3908157, "lon": 43.8705409}, {"type": "node", "id": 9788934559, "lat": 36.3914409, "lon": 43.8706054}, {"type": "node", "id": 9803704946, "lat": 36.1251751, "lon": 43.9700143, "tags": {"addr:city": "\u0623\u0631\u0628\u064a\u0644", "addr:country": "IQ", "addr:state": "\u0645\u062d\u0627\u0641\u0638\u0629 \u0623\u0631\u0628\u064a\u0644", "addr:street": "\u0634\u06d5\u0642\u0627\u0645\u06cc \u0645\u06d5\u062e\u0645\u0648\u0648\u0631", "amenity": "school", "name": "\u0642\u0648\u062a\u0627\u0628\u062e\u0627\u0646\u06d5\u06cc \u0642\u06d5\u062a\u06d5\u0648\u06cc \u0628\u0646\u06d5\u0695\u06d5\u062a\u06cc \u062a\u06ce\u06a9\u06d5\u06b5\u0627\u0648", "name:en": "Qatawi Mixed Primary School"}}, {"type": "node", "id": 9804249517, "lat": 36.2660479, "lon": 43.6560911, "tags": {"amenity": "school", "name": "\u062b\u0627\u0646\u0648\u064a\u0629 \u0627\u0644\u0645\u0633\u062a\u0642\u0628\u0644 \u0644\u0644\u0628\u0646\u064a\u0646"}}, {"type": "node", "id": 9817481310, "lat": 36.1227408, "lon": 43.9646836, "tags": {"addr:city": "\u0623\u0631\u0628\u064a\u0644", "addr:country": "IQ", "addr:state": "\u0645\u062d\u0627\u0641\u0638\u0629 \u0623\u0631\u0628\u064a\u0644", "amenity": "school", "name": "\u0642\u0648\u062a\u0627\u0628\u062e\u0627\u0646\u06d5\u06cc \u0626\u0627\u0648\u06ce\u0632\u06d5\u06cc \u0628\u0646\u06d5\u0695\u06d5\u062a\u06cc \u062a\u06ce\u06a9\u06d5\u06b5\u0627\u0648"}}, {"type": "node", "id": 9835920153, "lat": 36.1541643, "lon": 43.9734416}, {"type": "node", "id": 9835920154, "lat": 36.1537626, "lon": 43.9743297}, {"type": "node", "id": 9835920155, "lat": 36.1544897, "lon": 43.9748272}, {"type": "node", "id": 9835920156, "lat": 36.1548947, "lon": 43.9739103}, {"type": "node", "id": 9854433358, "lat": 36.2081584, "lon": 43.9754771}, {"type": "node", "id": 9854433359, "lat": 36.2082419, "lon": 43.9752619}, {"type": "node", "id": 9854433361, "lat": 36.2083303, "lon": 43.9753171}, {"type": "node", "id": 9854433363, "lat": 36.2082488, "lon": 43.9755276}, {"type": "node", "id": 9856445891, "lat": 36.3521645, "lon": 43.7943652, "tags": {"amenity": "school", "denomination": "sunni", "grades": "9-12", "name": "gulan school", "religion": "muslim"}}, {"type": "node", "id": 9856491320, "lat": 36.3644986, "lon": 43.8274484, "tags": {"amenity": "school", "denomination": "sunni", "grades": "1-6", "name": "shiwarash haji faysal school", "religion": "muslim"}}, {"type": "node", "id": 9856804744, "lat": 36.3647241, "lon": 43.8276595}, {"type": "node", "id": 9856804745, "lat": 36.3647116, "lon": 43.8272151}, {"type": "node", "id": 9856804746, "lat": 36.3643727, "lon": 43.8272297}, {"type": "node", "id": 9856804747, "lat": 36.3643851, "lon": 43.8276742}, {"type": "node", "id": 9873380492, "lat": 36.3440239, "lon": 43.798463}, {"type": "node", "id": 9873380493, "lat": 36.3438691, "lon": 43.7974264}, {"type": "node", "id": 9873380494, "lat": 36.3436043, "lon": 43.7974954}, {"type": "node", "id": 9873380495, "lat": 36.3437372, "lon": 43.7985239}, {"type": "node", "id": 9873380496, "lat": 36.3435102, "lon": 43.7955252}, {"type": "node", "id": 9873380497, "lat": 36.3434116, "lon": 43.7950391}, {"type": "node", "id": 9873380498, "lat": 36.3429877, "lon": 43.7951693}, {"type": "node", "id": 9873380499, "lat": 36.3430909, "lon": 43.7956745}, {"type": "node", "id": 9873380500, "lat": 36.3496104, "lon": 43.7929986}, {"type": "node", "id": 9873380501, "lat": 36.3494162, "lon": 43.7923115}, {"type": "node", "id": 9873380502, "lat": 36.3485675, "lon": 43.7927223}, {"type": "node", "id": 9873380503, "lat": 36.3488149, "lon": 43.7935257}, {"type": "node", "id": 9873380504, "lat": 36.3494547, "lon": 43.7932117}, {"type": "node", "id": 9873380505, "lat": 36.3494217, "lon": 43.793091}, {"type": "node", "id": 9873380506, "lat": 36.3500271, "lon": 43.7989059}, {"type": "node", "id": 9873380507, "lat": 36.34971, "lon": 43.7979113}, {"type": "node", "id": 9873380508, "lat": 36.3491399, "lon": 43.7981822}, {"type": "node", "id": 9873380509, "lat": 36.3494662, "lon": 43.7991722}, {"type": "node", "id": 9873380510, "lat": 36.3526168, "lon": 43.8078828}, {"type": "node", "id": 9873380511, "lat": 36.3523455, "lon": 43.8069393}, {"type": "node", "id": 9873380512, "lat": 36.3516935, "lon": 43.8072168}, {"type": "node", "id": 9873380513, "lat": 36.3520003, "lon": 43.8081986}, {"type": "node", "id": 9873404551, "lat": 36.3527775, "lon": 43.7946645}, {"type": "node", "id": 9873404552, "lat": 36.3525326, "lon": 43.793826}, {"type": "node", "id": 9873404553, "lat": 36.3516836, "lon": 43.7942187}, {"type": "node", "id": 9873404554, "lat": 36.3519273, "lon": 43.7950765}, {"type": "node", "id": 9888622505, "lat": 36.3874811, "lon": 43.8731371}, {"type": "node", "id": 9888622506, "lat": 36.3873959, "lon": 43.8727328}, {"type": "node", "id": 9888622507, "lat": 36.3869646, "lon": 43.872873}, {"type": "node", "id": 9888622508, "lat": 36.3870543, "lon": 43.8732805}, {"type": "node", "id": 9888622509, "lat": 36.3873775, "lon": 43.8734446}, {"type": "node", "id": 9888622510, "lat": 36.3873172, "lon": 43.8731859}, {"type": "node", "id": 9888622511, "lat": 36.3871146, "lon": 43.8735392}, {"type": "node", "id": 9889309317, "lat": 36.1624337, "lon": 43.9783279, "tags": {"addr:postcode": "44001", "addr:street": "207-238", "amenity": "school", "name": "\u0642\u0648\u062a\u0627\u0628\u062e\u0627\u0646\u06d5\u06cc \u062f\u06cc\u0645\u0648\u06a9\u0631\u0627\u0633\u06cc", "name:en": "Dimokracy school", "opening_hours": "Sa-Th 00:00-24:00"}}, {"type": "node", "id": 9899534855, "lat": 36.1689508, "lon": 43.9910925}, {"type": "node", "id": 9899534856, "lat": 36.1689528, "lon": 43.9910896}, {"type": "node", "id": 9913480673, "lat": 36.1932246, "lon": 43.9586765}, {"type": "node", "id": 9913480674, "lat": 36.1932224, "lon": 43.9586615}, {"type": "node", "id": 9963608718, "lat": 36.1083125, "lon": 43.5982806, "tags": {"amenity": "school", "name": "\u0645\u062a\u0648\u0633\u0637\u0629 \u0627\u0644\u0634\u0647\u064a\u062f \u063a\u0627\u0632\u064a \u0627\u0644\u062d\u0646\u0634 \u0644\u0644\u0628\u0646\u064a\u0646"}}, {"type": "node", "id": 9963613517, "lat": 36.107834, "lon": 43.5983243, "tags": {"amenity": "school", "name": "\u0645\u062a\u0648\u0633\u0637\u0629 \u0627\u0644\u0634\u0647\u064a\u062f \u063a\u0627\u0632\u064a \u0627\u0644\u062d\u0646\u0634 \u0644\u0644\u0628\u0646\u064a\u0646"}}, {"type": "node", "id": 9967948491, "lat": 36.2847081, "lon": 43.6769945}, {"type": "node", "id": 9967948492, "lat": 36.2847765, "lon": 43.6772922}, {"type": "node", "id": 9967948493, "lat": 36.2842049, "lon": 43.6779021}, {"type": "node", "id": 9967948494, "lat": 36.2840681, "lon": 43.6776729}, {"type": "node", "id": 9967948500, "lat": 36.2779606, "lon": 43.6721467}, {"type": "node", "id": 9967948501, "lat": 36.2775817, "lon": 43.6713227}, {"type": "node", "id": 9967948502, "lat": 36.2771181, "lon": 43.671666}, {"type": "node", "id": 9967948503, "lat": 36.2774814, "lon": 43.672445}, {"type": "node", "id": 9967948504, "lat": 36.2795887, "lon": 43.6712502}, {"type": "node", "id": 9967948505, "lat": 36.2790369, "lon": 43.6702524}, {"type": "node", "id": 9967948506, "lat": 36.2786235, "lon": 43.6705592}, {"type": "node", "id": 9967948507, "lat": 36.2791234, "lon": 43.6715549}, {"type": "node", "id": 10010118917, "lat": 36.1855955, "lon": 43.9617538, "tags": {"addr:street": "\u0634\u06d5\u0642\u0627\u0645\u06cc \u067e\u06ce\u0634\u06d5\u0648\u0627 \u0642\u0627\u0632\u06cc", "amenity": "school", "name": "\u0642\u0648\u062a\u0627\u0628\u062e\u0627\u0646\u0647 \u0649 \u0644\u064a\u0632\u0627\u0649 \u0646\u0627 \u062d\u0643\u0648\u0645\u0649", "name:ar": "\u0645\u062f\u0631\u0633\u0629 \u0644\u064a\u0632\u0627 \u063a\u064a\u0631 \u0627\u0644\u062d\u0643\u0648\u0645\u064a\u0629", "name:en": "Liza Private Foundation School", "name:ku": "\u0643\u0648\u0645\u0647 \u0644\u06af\u0647 \u0649 \u067e\u0647 \u0631\u0648\u0647 \u0631\u062f\u0647 \u064a\u064a \u0644\u064a\u0632\u0627\u0649 \u062a\u0627\u064a\u0628\u0647 \u062a", "website": "http://lizapce.com/"}}, {"type": "node", "id": 10017287017, "lat": 36.1751254, "lon": 43.9426721, "tags": {"addr:city": "\u0623\u0631\u0628\u064a\u0644", "addr:country": "IQ", "addr:district": "\u0642\u0636\u0627\u0621 \u0623\u0631\u0628\u064a\u0644", "addr:postcode": "44001", "addr:state": "\u0645\u062d\u0627\u0641\u0638\u0629 \u0623\u0631\u0628\u064a\u0644", "addr:street": "\u0695\u06ce\u06af\u0627\u06cc \u0647\u06d5\u0648\u0644\u06ce\u0631 - \u0645\u0648\u0633\u06b5", "amenity": "school", "name": "\u0645\u062f\u0631\u0633\u0629 \u0641\u0627\u062e\u0631 \u0645\u06ce\u0631\u06af\u06d5\u0633\u0648\u0631\u06cc \u0627\u0644\u0623\u0647\u0644\u064a\u0629", "name:en": "Fakher mergasory private school", "name:ku": "\u0642\u0648\u062a\u0627\u0628\u062e\u0627\u0646\u06d5\u06cc \u0641\u0627\u062e\u06cc\u0631 \u0645\u06ce\u0631\u06af\u06d5\u0633\u0648\u0631\u06cc \u0646\u0627\u062d\u06a9\u0648\u0645\u06cc", "opening_hours": "Sa-Th 08:15-13:00"}}, {"type": "node", "id": 10112283086, "lat": 36.2076752, "lon": 43.9938682, "tags": {"addr:city": "\u0623\u0631\u0628\u064a\u0644", "addr:country": "IQ", "addr:district": "\u0642\u0636\u0627\u0621 \u0623\u0631\u0628\u064a\u0644", "addr:postcode": "44001", "addr:state": "\u0645\u062d\u0627\u0641\u0638\u0629 \u0623\u0631\u0628\u064a\u0644", "amenity": "school", "email": "farrah.alqas@csm.school", "grades": "1-12", "name": "\u0642\u0648\u062a\u0627\u0628\u062e\u0627\u0646\u06d5\u06cc \u0646\u06ce\u0648\u062f\u06d5\u0648\u06b5\u06d5\u062a\u06cc \u0645\u06cc\u062f\u06cc\u0627", "opening_hours": "Su-Th 08:30-14:30", "phone": "+964 750 195 3460", "religion": "christian", "start_date": "2003", "website": "https://www.csm.school/"}}, {"type": "node", "id": 10164917617, "lat": 36.1677149, "lon": 43.9705935, "tags": {"addr:postcode": "44001", "addr:street": "\u0634\u06d5\u0642\u0627\u0645\u06cc \u0646\u06d5\u0648\u0631\u06c6\u0632", "amenity": "school", "name": "\u0627\u0644\u0645\u062f\u0631\u0633\u0629 \u0626\u0627\u0645\u0629\u062f", "name:en": "Amad school", "name:ku": "\u0642\u0648\u062a\u0627\u0628\u062e\u0627\u0646\u06d5\u06cc \u0626\u0627\u0645\u06d5\u062f"}}, {"type": "node", "id": 10176371042, "lat": 36.2078513, "lon": 43.9760697}, {"type": "node", "id": 10308592209, "lat": 36.1541796, "lon": 43.994251, "tags": {"amenity": "school", "name:en": "Shahid Khdr Swara Elementary School"}}, {"type": "node", "id": 10931835105, "lat": 36.1613914, "lon": 43.9843726, "tags": {"amenity": "school", "name:en": "Khoshy Elementary School"}}, {"type": "way", "id": 264095692, "nodes": [2697672700, 2697672701, 2697672702, 2697672703, 7306785885, 2697672700], "tags": {"addr:city": "\u0623\u0631\u0628\u064a\u0644", "addr:country": "IQ", "addr:district": "\u0642\u0636\u0627\u0621 \u0623\u0631\u0628\u064a\u0644", "addr:postcode": "44003", "addr:state": "\u0645\u062d\u0627\u0641\u0638\u0629 \u0623\u0631\u0628\u064a\u0644", "addr:subdistrict": "\u0646\u0627\u062d\u064a\u0629 \u0639\u0646\u0643\u0627\u0648\u0627", "addr:town": "\u0639\u0646\u0643\u0627\u0648\u0627", "amenity": "school", "name": "\u0642\u0648\u062a\u0627\u0628\u062e\u0627\u0646\u06d5\u06cc \u0639\u06d5\u0634\u062a\u0627\u0631", "name:ar": "\u0645\u062f\u0631\u0633\u0629 \u0639\u0634\u062a\u0627\u0631", "name:ckb": "\u0642\u0648\u062a\u0627\u0628\u062e\u0627\u0646\u06d5\u06cc \u0639\u06d5\u0634\u062a\u0627\u0631", "name:en": "Ishtar School"}}, {"type": "way", "id": 264100775, "nodes": [2697701632, 7859556703, 6791427343, 6791427342, 2697701635, 2697701637, 2697701639, 2697701632], "tags": {"addr:city": "\u0623\u0631\u0628\u064a\u0644", "addr:country": "IQ", "addr:district": "\u0642\u0636\u0627\u0621 \u0623\u0631\u0628\u064a\u0644", "addr:postcode": "44003", "addr:state": "\u0645\u062d\u0627\u0641\u0638\u0629 \u0623\u0631\u0628\u064a\u0644", "addr:subdistrict": "\u0646\u0627\u062d\u064a\u0629 \u0639\u0646\u0643\u0627\u0648\u0627", "addr:town": "\u0639\u0646\u0643\u0627\u0648\u0627", "amenity": "school", "name": "Hikma School"}}, {"type": "way", "id": 327535113, "nodes": [3343253329, 3343253359, 3343253347, 3343253339, 3343253310, 3343253323, 3343253333, 3343253342, 3343253297, 3343252086, 3343253299, 3343252077, 3343252068, 3343252066, 3343252072, 3343252060, 3343252071, 3343252085, 3343253296, 3343252075, 3343252081, 3343252076, 3343253301, 3343253315, 3343252092, 3343253304, 3343253324, 3343253318, 3343253329], "tags": {"addr:city": "\u0623\u0631\u0628\u064a\u0644", "addr:country": "IQ", "addr:district": "\u0642\u0636\u0627\u0621 \u0623\u0631\u0628\u064a\u0644", "addr:postcode": "44001", "addr:state": "\u0645\u062d\u0627\u0641\u0638\u0629 \u0623\u0631\u0628\u064a\u0644", "amenity": "school", "building": "yes", "name": "\u0631\u064a\u0646\u0627\u0633", "name:en": "Renas School", "name:ku": "\u0631\u06cc\u0646\u0627\u0633"}}, {"type": "way", "id": 342982063, "nodes": [3499141656, 3499141649, 3499141647, 3499141648, 3499141656], "tags": {"amenity": "school"}}, {"type": "way", "id": 342982581, "nodes": [3499140964, 3499140963, 9913480673, 3499140961, 9913480674, 3499140962, 3499140964], "tags": {"amenity": "school"}}, {"type": "way", "id": 370213475, "nodes": [3739374426, 3739374427, 3739374428, 3739374429, 3739374426], "tags": {"amenity": "school", "building": "school"}}, {"type": "way", "id": 392524260, "nodes": [3957419938, 3957419939, 3957419940, 3957419941, 3957419938], "tags": {"addr:city": "\u0623\u0631\u0628\u064a\u0644", "addr:country": "IQ", "addr:state": "\u0645\u062d\u0627\u0641\u0638\u0629 \u0623\u0631\u0628\u064a\u0644", "amenity": "school", "name": "\u0642\u0648\u062a\u0627\u0628\u062e\u0627\u0646\u0647\u200c\u06cc \u0633\u0647\u200c\u0631\u0647\u200c\u062a\u0627\u06cc\u06cc \u0645\u0632\u0627\u062d\u0645\u062f", "name:ar": "\u0642\u0648\u062a\u0627\u0628\u062e\u0627\u0646\u0647\u200c\u06cc \u0633\u0647\u200c\u0631\u0647\u200c\u062a\u0627\u06cc\u06cc \u0645\u0632\u0627\u062d\u0645\u062f", "name:en": "Mz Ahmad Basic School"}}, {"type": "way", "id": 454723569, "nodes": [4512551037, 4512551038, 4512551039, 4512551040, 4512551037], "tags": {"amenity": "school", "name": "\u0642\u0648\u062a\u0627\u0628\u062e\u0627\u0646\u06d5\u06cc \u0626\u0627\u0645\u0627\u062f\u06d5\u06cc\u06cc \u0645\u0648\u062d\u06d5\u0645\u06d5\u062f \u0646\u0627\u0633\u0631\u06cc \u06a9\u0686\u0627\u0646", "name:ckb": "\u0642\u0648\u062a\u0627\u0628\u062e\u0627\u0646\u06d5\u06cc \u0626\u0627\u0645\u0627\u062f\u06d5\u06cc\u06cc \u0645\u0648\u062d\u06d5\u0645\u06d5\u062f \u0646\u0627\u0633\u0631\u06cc \u06a9\u0686\u0627\u0646", "name:en": "Mohammed Nasri Girls High School"}}, {"type": "way", "id": 454724333, "nodes": [4512558049, 4512558050, 4512558051, 4512558052, 4512558049], "tags": {"addr:city": "\u0623\u0631\u0628\u064a\u0644", "addr:country": "IQ", "addr:district": "\u0642\u0636\u0627\u0621 \u0623\u0631\u0628\u064a\u0644", "addr:postcode": "44001", "addr:state": "\u0645\u062d\u0627\u0641\u0638\u0629 \u0623\u0631\u0628\u064a\u0644", "amenity": "school", "name": "\u0642\u0648\u062a\u0627\u0628\u062e\u0627\u0646\u06d5\u06cc \u0626\u0627\u0645\u0627\u062f\u06d5\u06cc\u06cc \u0647\u06ce\u0645\u0646\u06cc \u06a9\u0648\u0695\u0627\u0646", "name:ckb": "\u0642\u0648\u062a\u0627\u0628\u062e\u0627\u0646\u06d5\u06cc \u0626\u0627\u0645\u0627\u062f\u06d5\u06cc\u06cc \u0647\u06ce\u0645\u0646\u06cc \u06a9\u0648\u0695\u0627\u0646"}}, {"type": "way", "id": 527903334, "nodes": [5131286989, 5131292372, 5131286990, 5131286991, 5131286992, 5131286993, 5131286972, 6045162195, 5131286977, 6240417894, 5131286994, 5130939187, 5130939180, 5130936511, 5130936508, 5131286989], "tags": {"amenity": "school"}}, {"type": "way", "id": 572486994, "nodes": [5499970871, 5499970872, 5499970873, 5499970874, 5499970871], "tags": {"addr:city": "\u0623\u0631\u0628\u064a\u0644", "addr:country": "IQ", "addr:state": "\u0645\u062d\u0627\u0641\u0638\u0629 \u0623\u0631\u0628\u064a\u0644", "amenity": "school"}}, {"type": "way", "id": 605904055, "nodes": [5745650089, 5745650080, 5745650100, 5745650826, 5745650089], "tags": {"amenity": "school"}}, {"type": "way", "id": 609701752, "nodes": [5774717438, 5780460924, 5774717439, 9726053851, 5774717440, 9726053849, 9726053846, 5774717441, 9726053848, 5774717438], "tags": {"addr:city": "\u0623\u0631\u0628\u064a\u0644", "addr:country": "IQ", "addr:district": "\u0642\u0636\u0627\u0621 \u0623\u0631\u0628\u064a\u0644", "addr:postcode": "44001", "addr:state": "\u0645\u062d\u0627\u0641\u0638\u0629 \u0623\u0631\u0628\u064a\u0644", "addr:street": "\u0634\u06d5\u0642\u0627\u0645\u06cc \u0645\u0648\u062d\u06d5\u0645\u06d5\u062f \u0639\u0627\u0631\u0641", "amenity": "school"}}, {"type": "way", "id": 624215167, "nodes": [5894453616, 5894453617, 5894453618, 5894453619, 5894453620, 5894453621, 5894453622, 5894453623, 5894453624, 5894453616], "tags": {"addr:city": "\u0623\u0631\u0628\u064a\u0644", "addr:country": "IQ", "addr:district": "\u0642\u0636\u0627\u0621 \u0623\u0631\u0628\u064a\u0644", "addr:postcode": "44001", "addr:state": "\u0645\u062d\u0627\u0641\u0638\u0629 \u0623\u0631\u0628\u064a\u0644", "amenity": "school", "building": "yes", "name": "Educational Center"}}, {"type": "way", "id": 639683880, "nodes": [6027220060, 6027220061, 7058276228, 6027220062, 6027220063, 6027220060], "tags": {"amenity": "school"}}, {"type": "way", "id": 639683881, "nodes": [6027220064, 6027220065, 6027220066, 6027220067, 6027220064], "tags": {"amenity": "school"}}, {"type": "way", "id": 639683882, "nodes": [6027220066, 6027220065, 6027220068, 6027220069, 6027220066], "tags": {"amenity": "school"}}, {"type": "way", "id": 639683883, "nodes": [6027220070, 6027220071, 6027220072, 6027220073, 6027220070], "tags": {"addr:city": "\u0623\u0631\u0628\u064a\u0644", "addr:country": "IQ", "addr:district": "\u0642\u0636\u0627\u0621 \u0623\u0631\u0628\u064a\u0644", "addr:postcode": "44001", "addr:state": "\u0645\u062d\u0627\u0641\u0638\u0629 \u0623\u0631\u0628\u064a\u0644", "amenity": "school", "name": "\u0642\u0648\u062a\u0627\u0628\u062e\u0627\u0646\u06d5\u06cc \u0626\u0627\u0645\u0627\u062f\u06d5\u06cc\u06cc \u062f\u0627\u0631\u06cc\u0646\u06cc \u06a9\u0648\u0695\u0627\u0646", "name:en": "Darin High School (Boys)"}}, {"type": "way", "id": 639683884, "nodes": [6027220074, 9732396335, 6027220075, 6027220076, 6027220077, 9732396338, 9732396339, 9732396334, 6027220074], "tags": {"amenity": "school"}}, {"type": "way", "id": 639851079, "nodes": [6028576460, 6028576461, 6028576462, 6028576463, 6028576460], "tags": {"amenity": "school"}}, {"type": "way", "id": 642020670, "nodes": [6045162210, 6045162211, 6045162212, 6045162213, 6045162214, 6045162215, 6045162230, 6045162216, 7056241003, 7056241000, 6045162217, 6045162219, 6045162220, 6045162221, 6045162223, 6045162222, 6045162225, 6045162226, 6045162224, 6045162218, 6045162231, 6045162227, 6045162228, 6045162232, 6045162229, 6045162210], "tags": {"amenity": "school"}}, {"type": "way", "id": 652982387, "nodes": [6120272277, 6120272278, 6120272279, 6120272280, 6120272277], "tags": {"addr:city": "\u0623\u0631\u0628\u064a\u0644", "addr:country": "IQ", "addr:district": "\u0642\u0636\u0627\u0621 \u0623\u0631\u0628\u064a\u0644", "addr:postcode": "44001", "addr:state": "\u0645\u062d\u0627\u0641\u0638\u0629 \u0623\u0631\u0628\u064a\u0644", "amenity": "school", "name": "Saman School"}}, {"type": "way", "id": 653548113, "nodes": [6124803342, 6124803343, 6124803344, 6124803345, 6124803342], "tags": {"addr:city": "\u0623\u0631\u0628\u064a\u0644", "addr:country": "IQ", "addr:state": "\u0645\u062d\u0627\u0641\u0638\u0629 \u0623\u0631\u0628\u064a\u0644", "amenity": "school", "name": "\u0642\u0648\u062a\u0627\u0628\u062e\u0627\u0646\u06d5\u06cc \u0631\u06c6\u0645\u0627\u0646\u06cc \u0628\u0646\u06d5\u0631\u0650\u06d5\u062a\u06cc \u0626\u06ce\u0648\u0627\u0631\u0627\u0646"}}, {"type": "way", "id": 665419714, "nodes": [6228138254, 6228138255, 6228138256, 6228138257, 6228138258, 6228138259, 6228138260, 6228138261, 6228138262, 6228138263, 6228138264, 6228138265, 6228138266, 6228138267, 6228138268, 6228138269, 6228138270, 6228138271, 6228138272, 6228138273, 6228138254], "tags": {"addr:city": "\u0623\u0631\u0628\u064a\u0644", "addr:country": "IQ", "addr:district": "\u0642\u0636\u0627\u0621 \u0623\u0631\u0628\u064a\u0644", "addr:postcode": "44001", "addr:state": "\u0645\u062d\u0627\u0641\u0638\u0629 \u0623\u0631\u0628\u064a\u0644", "amenity": "school", "name": "Sabat High School (Girls)"}}, {"type": "way", "id": 666530685, "nodes": [6240456816, 7178939972, 7178939973, 7178939976, 7178939977, 6240456817, 6240456818, 6240456819, 6240456816], "tags": {"amenity": "school", "name": "British international school-erbil", "name:ar": "\u0627\u0644\u0645\u062f\u0631\u0633\u0629 \u0627\u0644\u0628\u0631\u0637\u0627\u0646\u064a\u0629 \u0627\u0644\u062f\u0648\u0644\u064a\u0629 \u0641\u064a \u0627\u0631\u0628\u064a\u0644"}}, {"type": "way", "id": 711673371, "nodes": [6690923180, 6690923177, 6690923178, 6690923179, 6690923180], "tags": {"amenity": "school", "building": "school"}}, {"type": "way", "id": 711673374, "nodes": [6690961292, 6690961289, 6690961290, 6690961291, 6690961292], "tags": {"amenity": "school", "building": "school"}}, {"type": "way", "id": 742877750, "nodes": [6954243567, 9042439195, 6954243568, 6954243569, 6954243570, 6954243567], "tags": {"amenity": "school"}}, {"type": "way", "id": 748622874, "nodes": [7001114477, 7001114478, 7001114479, 7001114480, 7001114477], "tags": {"amenity": "school"}}, {"type": "way", "id": 788058901, "nodes": [7367667756, 7367667755, 7367667754, 7367667753, 7434799708, 7367667756], "tags": {"addr:city": "\u0623\u0631\u0628\u064a\u0644", "addr:country": "IQ", "addr:district": "\u0642\u0636\u0627\u0621 \u0623\u0631\u0628\u064a\u0644", "addr:postcode": "44001", "addr:state": "\u0645\u062d\u0627\u0641\u0638\u0629 \u0623\u0631\u0628\u064a\u0644", "amenity": "school", "name": "American School"}}, {"type": "way", "id": 794892918, "nodes": [7434801379, 7434801380, 7434801381, 7434801382, 7434801383, 7434801384, 7434801379], "tags": {"amenity": "school"}}, {"type": "way", "id": 844527451, "nodes": [7877954023, 7877954025, 7877954022, 7877954024, 7877954023], "tags": {"amenity": "school", "name": "Ronya School"}}, {"type": "way", "id": 844528002, "nodes": [7878029900, 7878029898, 7878029897, 7878029899, 7878029900], "tags": {"amenity": "school", "name": "Bysha School"}}, {"type": "way", "id": 861224553, "nodes": [4408635674, 9854433359, 9854433361, 9854433363, 9854433358, 4408635673, 10176371042, 2089398212, 2050676978, 4408635674], "tags": {"amenity": "school"}}, {"type": "way", "id": 861224554, "nodes": [8026656696, 8026656697, 8026656698, 8026656699, 8026656701, 8026656700, 8026656702, 8026656703, 8026656696], "tags": {"addr:city": "\u0623\u0631\u0628\u064a\u0644", "addr:country": "IQ", "addr:district": "\u0642\u0636\u0627\u0621 \u0623\u0631\u0628\u064a\u0644", "addr:postcode": "44001", "addr:state": "\u0645\u062d\u0627\u0641\u0638\u0629 \u0623\u0631\u0628\u064a\u0644", "amenity": "school", "building": "school", "name": "Choueifat", "name:en": "Choueifat Dream City"}}, {"type": "way", "id": 877856431, "nodes": [8167669367, 8167669368, 8167669369, 8167669370, 8167669367], "tags": {"amenity": "school"}}, {"type": "way", "id": 878201891, "nodes": [8170545024, 8170545025, 8170545026, 8170545027, 8170545024], "tags": {"amenity": "school"}}, {"type": "way", "id": 973950980, "nodes": [9013347451, 9032249444, 9032249443, 9013347452, 9032249439, 9032249454, 9013347453, 9032249453, 9032249459, 9032249451, 9013347451], "tags": {"amenity": "school"}}, {"type": "way", "id": 973995420, "nodes": [9013812449, 9013812450, 9036956053, 9013812451, 9013812452, 9013812449], "tags": {"amenity": "school", "denomination": "sunni", "grades": "0-6", "religion": "muslim"}}, {"type": "way", "id": 976609753, "nodes": [9037345997, 9037346004, 9037346003, 9037345998, 9037345999, 9037346000, 9037345997], "tags": {"addr:city": "\u0623\u0631\u0628\u064a\u0644", "addr:country": "IQ", "addr:state": "\u0645\u062d\u0627\u0641\u0638\u0629 \u0623\u0631\u0628\u064a\u0644", "amenity": "school"}}, {"type": "way", "id": 977478935, "nodes": [9044713415, 9044713416, 9044734617, 9044734618, 9044734619, 9044734620, 9044734621, 9044713415], "tags": {"amenity": "school"}}, {"type": "way", "id": 977511225, "nodes": [9044988590, 9044988591, 9899534856, 9899534855, 9036956068, 9036956069, 9036956072, 9036956073, 9044988592, 9044988593, 9044988590], "tags": {"amenity": "school"}}, {"type": "way", "id": 983504493, "nodes": [9093395961, 9673654367, 9673654362, 9093395962, 9673654361, 9093395963, 9673654368, 9093395964, 9093395961], "tags": {"amenity": "school", "name": "\u0642\u0648\u062a\u0627\u0628\u062e\u0627\u0646\u06d5\u06cc \u062d\u0645\u062f\u06cc \u0647\u0627\u0648\u0695\u06ce \u0628\u0646\u06d5\u0695\u06d5\u062a\u06cc \u062a\u06ce\u06a9\u06d5\u06b5\u0627\u0648", "name:ar": "\u0642\u0648\u062a\u0627\u0628\u062e\u0627\u0646\u06d5\u06cc \u062d\u0645\u062f\u06cc \u0647\u0627\u0648\u0695\u06ce \u0628\u0646\u06d5\u0695\u06d5\u062a\u06cc \u062a\u06ce\u06a9\u06d5\u06b5\u0627\u0648", "name:en": "Hamdi School of Mixed Primary Friends"}}, {"type": "way", "id": 985137536, "nodes": [9107851004, 9107851005, 9107851006, 9107851007, 9107851004], "tags": {"amenity": "school", "grades": "0-6", "name": "\u0642\u0648\u062a\u0627\u0628\u062e\u0627\u0646\u06d5\u06cc \u0634\u06d5\u0645\u0633\u06d5\u062e\u0631\u06cc \u0628\u0646\u06d5\u0631\u06d5\u062a\u06cc"}}, {"type": "way", "id": 992411576, "nodes": [9169166970, 9169166971, 9169166972, 9169166973, 9169166970], "tags": {"amenity": "school"}}, {"type": "way", "id": 1011691474, "nodes": [9334173951, 9334173952, 9334173953, 9334173954, 9334173951], "tags": {"amenity": "school", "name": "Shnrwe Typical School"}}, {"type": "way", "id": 1011691475, "nodes": [9334173955, 9334173956, 9334173957, 9334173958, 9334173955], "tags": {"addr:city": "\u0623\u0631\u0628\u064a\u0644", "addr:country": "IQ", "addr:district": "\u0642\u0636\u0627\u0621 \u0623\u0631\u0628\u064a\u0644", "addr:postcode": "44001", "addr:state": "\u0645\u062d\u0627\u0641\u0638\u0629 \u0623\u0631\u0628\u064a\u0644", "amenity": "school", "religion": "christian"}}, {"type": "way", "id": 1058985449, "nodes": [9730500471, 9730500467, 9730500462, 9730500466, 9730500469, 9730500461, 9730500465, 9730500463, 9730500468, 9730500470, 9730500471], "tags": {"amenity": "school", "building": "yes", "name": "\u0642\u0648\u062a\u0627\u0628\u062e\u0627\u0646\u06d5", "operator": "Sipalay II District of Negros Occidental Schools Division, DepEd"}}, {"type": "way", "id": 1065944006, "nodes": [9788934556, 9788934557, 9788934558, 9788934559, 9788934556], "tags": {"amenity": "school"}}, {"type": "way", "id": 1071929374, "nodes": [9835920153, 9835920154, 9835920155, 9835920156, 9835920153], "tags": {"amenity": "school"}}, {"type": "way", "id": 1074654623, "nodes": [9856804744, 9856804745, 9856804746, 9856804747, 9856804744], "tags": {"amenity": "school", "denomination": "sunni", "grades": "0-6", "name": "siwarash haji faysal school", "religion": "muslim"}}, {"type": "way", "id": 1076711939, "nodes": [9873404551, 9873404552, 9873404553, 9873404554, 9873404551], "tags": {"amenity": "school", "name": "gulan school"}}, {"type": "way", "id": 1076712219, "nodes": [9873380492, 9873380493, 9873380494, 9873380495, 9873380492], "tags": {"amenity": "school"}}, {"type": "way", "id": 1076712220, "nodes": [9873380496, 9873380497, 9873380498, 9873380499, 9873380496], "tags": {"amenity": "school"}}, {"type": "way", "id": 1076712221, "nodes": [9873380500, 9873380501, 9873380502, 9873380503, 9873380504, 9873380505, 9873380500], "tags": {"amenity": "school"}}, {"type": "way", "id": 1076712222, "nodes": [9873380506, 9873380507, 9873380508, 9873380509, 9873380506], "tags": {"amenity": "school"}}, {"type": "way", "id": 1076712223, "nodes": [9873380510, 9873380511, 9873380512, 9873380513, 9873380510], "tags": {"amenity": "school"}}, {"type": "way", "id": 1078677692, "nodes": [9888622505, 9888622506, 9888622507, 9888622508, 9888622510, 9888622505], "tags": {"amenity": "school"}}, {"type": "way", "id": 1078677693, "nodes": [9888622509, 9888622510, 9888622508, 9888622511, 9888622509], "tags": {"amenity": "school"}}, {"type": "way", "id": 1087927668, "nodes": [9967948491, 9967948492, 9967948493, 9967948494, 9967948491], "tags": {"amenity": "school"}}, {"type": "way", "id": 1087927670, "nodes": [9967948500, 9967948501, 9967948502, 9967948503, 9967948500], "tags": {"amenity": "school", "name": "\u0642\u0648\u062a\u0627\u0628\u062e\u0627\u0646\u06d5\u06cc \u0632\u0648\u0631\u06af\u06d5\u0632\u0631\u0627\u0648"}}, {"type": "way", "id": 1087927671, "nodes": [9967948504, 9967948505, 9967948506, 9967948507, 9967948504], "tags": {"amenity": "school", "name": "\u0642\u0648\u062a\u0627\u0628\u062e\u0627\u0646\u06d5\u0649 \u0628\u0646\u06d5\u0631\u06d5\u062a\u0649 \u0646\u0627\u0648 \u062f\u06ce\u0631\u06d5\u064a\u064a\u0627\u0646"}}]}