{"version": 0.6, "generator": "Overpass API 0.7.61.5 4133829e", "osm3s": {"timestamp_osm_base": "2024-03-05T14:57:45Z", "copyright": "The data included in this document is from www.openstreetmap.org. The data is made available under ODbL."}, "elements": [{"type": "node", "id": 87171316, "lat": 63.0982046, "lon": 21.6469169, "tags": {"addr:city": "Vaasa", "addr:housenumber": "4", "addr:postcode": "65100", "addr:street": "Tammikaivontie", "amenity": "clinic", "healthcare": "clinic", "name": "Tammikaivon terveysasema"}}, {"type": "node", "id": 196154090, "lat": 63.108459, "lon": 21.5943983, "tags": {"addr:city": "Vaasa", "addr:country": "FI", "addr:housenumber": "16", "addr:postcode": "65200", "addr:street": "Palosaarentie", "amenity": "pharmacy", "healthcare": "pharmacy", "name": "Palosaaren apteekki", "name:fi": "Palosaaren apteekki", "name:sv": "Br\u00e4nd\u00f6 apotek", "opening_hours": "Mo-Fr 09:00-18:00; Sa 10:00-14:00", "phone": "+35863178923", "website": "https://www.palosaarenapteekki.com/"}}, {"type": "node", "id": 196155224, "lat": 63.0955966, "lon": 21.6178492, "tags": {"addr:city": "Vaasa", "addr:country": "FI", "addr:housenumber": "13", "addr:postcode": "65100", "addr:street": "Vaasanpuistikko", "amenity": "pharmacy", "dispensing": "yes", "healthcare": "pharmacy", "name": "Vaasan vanha apteekki", "name:fi": "Vaasan vanha apteekki", "name:sv": "Vasa Gamla Apoteket", "opening_hours": "Mo-Fr 09:00-19:00; Sa 09:00-17:00; Su 12:00-16:00", "phone": "+35863575300", "toilets:wheelchair": "no", "website": "https://www.vanha-apteekki.fi/", "wheelchair": "yes"}}, {"type": "node", "id": 196155698, "lat": 63.0964883, "lon": 21.6147723, "tags": {"addr:city": "Vaasa", "addr:country": "FI", "addr:housenumber": "15", "addr:postcode": "65100", "addr:street": "Hovioikeudenpuistikko", "amenity": "pharmacy", "check_date": "2023-05-25", "dispensing": "yes", "healthcare": "pharmacy", "name": "Vaasan keskusapteekki", "name:fi": "Vaasan keskusapteekki", "name:sv": "Vasa Centralapotek", "opening_hours": "Mo-Fr 09:00-20:00; Sa 09:00-17:00; Su 12:00-16:00", "phone": "+35863191100", "website": "https://www.apocentral.fi/", "wheelchair": "yes"}}, {"type": "node", "id": 205484128, "lat": 63.0838469, "lon": 21.6132318}, {"type": "node", "id": 205484129, "lat": 63.0837004, "lon": 21.6144881}, {"type": "node", "id": 205484130, "lat": 63.0836081, "lon": 21.616766}, {"type": "node", "id": 243335279, "lat": 63.1233845, "lon": 21.7000229}, {"type": "node", "id": 245478533, "lat": 63.0839462, "lon": 21.6129905}, {"type": "node", "id": 245478534, "lat": 63.0841854, "lon": 21.6124302}, {"type": "node", "id": 245478535, "lat": 63.0846159, "lon": 21.6121138}, {"type": "node", "id": 245478536, "lat": 63.084473, "lon": 21.6121601}, {"type": "node", "id": 245478537, "lat": 63.0848368, "lon": 21.61204}, {"type": "node", "id": 281470088, "lat": 63.0716608, "lon": 21.7115383}, {"type": "node", "id": 281470089, "lat": 63.0721951, "lon": 21.7112638}, {"type": "node", "id": 303787751, "lat": 63.12243, "lon": 21.6976632}, {"type": "node", "id": 303787752, "lat": 63.1213137, "lon": 21.6990693}, {"type": "node", "id": 303787753, "lat": 63.1213789, "lon": 21.7001327}, {"type": "node", "id": 303787802, "lat": 63.1225545, "lon": 21.6975064}, {"type": "node", "id": 303787805, "lat": 63.12363, "lon": 21.7007768}, {"type": "node", "id": 303787806, "lat": 63.1232236, "lon": 21.702621}, {"type": "node", "id": 303787808, "lat": 63.1219144, "lon": 21.7026019}, {"type": "node", "id": 364359971, "lat": 63.0841568, "lon": 21.6197512}, {"type": "node", "id": 364359972, "lat": 63.085203, "lon": 21.6196109}, {"type": "node", "id": 364359979, "lat": 63.0841083, "lon": 21.6191961}, {"type": "node", "id": 535354844, "lat": 62.9777065, "lon": 22.0242964}, {"type": "node", "id": 539034029, "lat": 63.0863881, "lon": 21.618982}, {"type": "node", "id": 539034030, "lat": 63.0867792, "lon": 21.6186555}, {"type": "node", "id": 539034089, "lat": 63.0865547, "lon": 21.617037}, {"type": "node", "id": 539034090, "lat": 63.0862468, "lon": 21.615325}, {"type": "node", "id": 573407687, "lat": 62.9860303, "lon": 22.320512, "tags": {"amenity": "hospital", "name": "Isonkyr\u00f6n terveyskeskus"}}, {"type": "node", "id": 574919943, "lat": 63.0980758, "lon": 21.6164166, "tags": {"addr:city": "Vaasa", "addr:housenumber": "28-30", "addr:postcode": "65100", "addr:street": "Pitk\u00e4katu", "amenity": "clinic", "healthcare": "clinic", "name": "Terveystalo Vaasa", "operator": "Terveystalo", "operator:type": "private", "operator:wikidata": "Q11897034", "website": "https://www.terveystalo.com/fi/toimipaikat/terveystalo-vaasa"}}, {"type": "node", "id": 1025365090, "lat": 63.0876812, "lon": 21.6773688, "tags": {"addr:city": "Vaasa", "addr:country": "FI", "addr:housenumber": "2", "addr:street": "Sarjakatu", "amenity": "hospital", "name": "Vaasan Keskussairaala Psykiatrian yksikk\u00f6", "name:fi": "Vaasan Keskussairaala Psykiatrian yksikk\u00f6", "name:sv": "Vasa Centralsjukhus Psykiatriska enheten", "source": "bing"}}, {"type": "node", "id": 1038738704, "lat": 63.0717139, "lon": 21.7102587}, {"type": "node", "id": 1038738915, "lat": 63.0720801, "lon": 21.7100929}, {"type": "node", "id": 1096568270, "lat": 63.1298585, "lon": 22.2526318, "tags": {"addr:city": "V\u00f6r\u00e5", "addr:housenumber": "5", "addr:postcode": "66600", "addr:street": "V\u00f6r\u00e5v\u00e4gen", "amenity": "pharmacy", "dispensing": "yes", "healthcare": "pharmacy", "name": "V\u00f6r\u00e5 Apotek", "name:fi": "V\u00f6yrin Apteekki", "name:sv": "V\u00f6r\u00e5 Apotek", "opening_hours": "Mo 09:00-18:00; Sa 09:00-13:00", "phone": "+358 6 384 3800", "website": "https://www.voraapotek.fi/"}}, {"type": "node", "id": 1243880178, "lat": 63.0912551, "lon": 21.7199606, "tags": {"addr:city": "Vaasa", "addr:country": "FI", "addr:housenumber": "19", "addr:postcode": "65370", "addr:street": "Vanhan Vaasan katu", "amenity": "pharmacy", "dispensing": "yes", "healthcare": "pharmacy", "name": "Ristinummen sivuapteekki", "name:fi": "Ristinummen sivuapteekki", "name:sv": "Korsn\u00e4st\u00e5gets Filialapotek", "opening_hours": "Mo-Fr 09:00-18:00", "phone": "+35863168701", "website": "https://www.vaasankuninkaanapteekki.fi/fi"}}, {"type": "node", "id": 1368755541, "lat": 63.1212726, "lon": 21.7021701}, {"type": "node", "id": 1368755591, "lat": 63.1210735, "lon": 21.69961}, {"type": "node", "id": 1403583430, "lat": 63.124291, "lon": 21.6986738}, {"type": "node", "id": 1817449353, "lat": 63.1309728, "lon": 21.5942854}, {"type": "node", "id": 1817449354, "lat": 63.1310346, "lon": 21.5941451}, {"type": "node", "id": 1817449355, "lat": 63.1310431, "lon": 21.5942601}, {"type": "node", "id": 1817449356, "lat": 63.1310544, "lon": 21.5953953}, {"type": "node", "id": 1817449357, "lat": 63.1310988, "lon": 21.5941221}, {"type": "node", "id": 1817449358, "lat": 63.1311226, "lon": 21.5953707}, {"type": "node", "id": 1817449359, "lat": 63.1311381, "lon": 21.5955815}, {"type": "node", "id": 1817449363, "lat": 63.1312043, "lon": 21.5955577}, {"type": "node", "id": 2379192787, "lat": 63.161554, "lon": 21.8377623}, {"type": "node", "id": 2379192788, "lat": 63.1615056, "lon": 21.8380198}, {"type": "node", "id": 2379192789, "lat": 63.1612731, "lon": 21.8378052}, {"type": "node", "id": 2379192790, "lat": 63.1613118, "lon": 21.8375477}, {"type": "node", "id": 2502765992, "lat": 63.1231908, "lon": 21.6966555}, {"type": "node", "id": 2502765993, "lat": 63.1238274, "lon": 21.6972371}, {"type": "node", "id": 2502765994, "lat": 63.1241064, "lon": 21.697906}, {"type": "node", "id": 3059466846, "lat": 63.1238555, "lon": 21.6993219}, {"type": "node", "id": 3234780029, "lat": 63.1001271, "lon": 21.6335381, "tags": {"amenity": "clinic", "healthcare": "clinic", "name": "Mehil\u00e4inen Promedi"}}, {"type": "node", "id": 3282137617, "lat": 63.1123555, "lon": 21.676852, "tags": {"addr:city": "Korsholm", "addr:housenumber": "2", "addr:postcode": "65610", "addr:street": "Centrumv\u00e4gen", "amenity": "pharmacy", "check_date": "2023-05-21", "check_date:opening_hours": "2021-08-18", "dispensing": "no", "healthcare": "pharmacy", "name": "Mustasaaren apteekki", "name:fi": "Mustasaaren apteekki", "name:sv": "Korsholms Apotek", "opening_hours": "Mo-Fr 09:00-19:00; Sa 09:00-16:00", "phone": "+35863222941", "website": "https://www.korsholmsapotek.fi", "wheelchair": "yes"}}, {"type": "node", "id": 3448960679, "lat": 62.9454375, "lon": 21.5451736, "tags": {"addr:city": "Maalahti", "addr:housenumber": "2", "addr:postcode": "66100", "addr:street": "Tamppitie", "amenity": "clinic", "emergency": "no", "healthcare": "clinic", "name": "Malax-Korsn\u00e4s h\u00e4lsov\u00e5rdscentral", "name:fi": "Maalahti-Korsn\u00e4s terveyskeskus", "name:sv": "Malax-Korsn\u00e4s h\u00e4lsov\u00e5rdscentral"}}, {"type": "node", "id": 3752959387, "lat": 62.9779477, "lon": 22.0240471}, {"type": "node", "id": 3752959388, "lat": 62.9782452, "lon": 22.0255244}, {"type": "node", "id": 3752959389, "lat": 62.9779642, "lon": 22.0258664}, {"type": "node", "id": 3752959390, "lat": 62.9779906, "lon": 22.0275985}, {"type": "node", "id": 3752959391, "lat": 62.9770582, "lon": 22.0292795}, {"type": "node", "id": 3752959392, "lat": 62.9764468, "lon": 22.0290364}, {"type": "node", "id": 3752959393, "lat": 62.9761423, "lon": 22.0269726}, {"type": "node", "id": 3752959394, "lat": 62.9760875, "lon": 22.0257468}, {"type": "node", "id": 3752959395, "lat": 62.9771648, "lon": 22.0248842}, {"type": "node", "id": 4366576883, "lat": 63.1221066, "lon": 21.6957164}, {"type": "node", "id": 4366577518, "lat": 63.1228611, "lon": 21.6951688}, {"type": "node", "id": 4366577527, "lat": 63.1230262, "lon": 21.6961923}, {"type": "node", "id": 4637797620, "lat": 63.0867345, "lon": 21.6180365}, {"type": "node", "id": 4637797623, "lat": 63.0865783, "lon": 21.6171682}, {"type": "node", "id": 4637797624, "lat": 63.0867504, "lon": 21.6181252}, {"type": "node", "id": 4637797626, "lat": 63.086786, "lon": 21.6186494}, {"type": "node", "id": 4637797630, "lat": 63.0868014, "lon": 21.6185454}, {"type": "node", "id": 4637797631, "lat": 63.0868048, "lon": 21.6184274}, {"type": "node", "id": 6108905658, "lat": 62.9779692, "lon": 22.0261931}, {"type": "node", "id": 6456695506, "lat": 63.0546621, "lon": 22.1076599, "tags": {"addr:city": "V\u00e4h\u00e4kyr\u00f6", "addr:housenumber": "1", "addr:postcode": "66500", "addr:street": "Heikkil\u00e4ntie", "amenity": "pharmacy", "contact:facebook": "https://www.facebook.com/pages/V%C3%A4h%C3%A4nkyr%C3%B6n-apteekki/114439168567348", "dispensing": "yes", "email": "vahankyron.apteekki@apteekit.net", "fax": "(06) 478 4566", "healthcare": "pharmacy", "name": "V\u00e4h\u00e4nkyr\u00f6n apteekki", "opening_hours": "Mo 09:00-18:00; Tu-Fr 09:00-17:00; Sa 09:00-14:00", "phone": "(06) 478 4201", "website": "https://www.e-apteekki.fi/"}}, {"type": "node", "id": 6475722331, "lat": 62.9775059, "lon": 22.0245037}, {"type": "node", "id": 6631018253, "lat": 63.0044865, "lon": 22.1405158, "tags": {"addr:city": "Tervajoki", "addr:housenumber": "6", "addr:postcode": "66440", "addr:street": "Loukontie", "amenity": "pharmacy", "healthcare": "pharmacy", "name": "Tervajoen sivuapteekki", "name:fi": "Tervajoen sivuapteekki", "opening_hours": "Mo-Fr 09:00-17:00", "phone": "+35864783433", "website": "https://www.e-apteekki.fi"}}, {"type": "node", "id": 6655864135, "lat": 63.0855604, "lon": 21.6115585}, {"type": "node", "id": 6655864138, "lat": 63.0836041, "lon": 21.614531}, {"type": "node", "id": 6655864139, "lat": 63.0835522, "lon": 21.6156569}, {"type": "node", "id": 6655864140, "lat": 63.0839377, "lon": 21.6192165}, {"type": "node", "id": 6655864142, "lat": 63.0860966, "lon": 21.6145087}, {"type": "node", "id": 6693540425, "lat": 63.0851034, "lon": 21.6118669}, {"type": "node", "id": 6693540428, "lat": 63.0837532, "lon": 21.6136017}, {"type": "node", "id": 6693540431, "lat": 63.0837903, "lon": 21.6181648}, {"type": "node", "id": 6693540432, "lat": 63.0837918, "lon": 21.6135487}, {"type": "node", "id": 6693540434, "lat": 63.0840543, "lon": 21.6127601}, {"type": "node", "id": 6693540439, "lat": 63.0836751, "lon": 21.6173145}, {"type": "node", "id": 6693541486, "lat": 63.085464, "lon": 21.619754}, {"type": "node", "id": 6697727195, "lat": 63.0855771, "lon": 21.6196737}, {"type": "node", "id": 6697727201, "lat": 63.0843214, "lon": 21.6122746}, {"type": "node", "id": 6697727224, "lat": 63.0863393, "lon": 21.6190244}, {"type": "node", "id": 7053637579, "lat": 63.0714733, "lon": 21.7099874}, {"type": "node", "id": 7053637580, "lat": 63.0716191, "lon": 21.7098855}, {"type": "node", "id": 7053637581, "lat": 63.0716604, "lon": 21.7102878}, {"type": "node", "id": 7417156528, "lat": 63.111112, "lon": 21.6521498, "tags": {"addr:city": "Vaasa", "addr:country": "FI", "addr:housenumber": "2", "addr:postcode": "65300", "addr:street": "Kiilletie", "amenity": "pharmacy", "dispensing": "yes", "email": "apteekki.kivihaka@apteekit.net", "healthcare": "pharmacy", "name": "Apteekki Kivihaka", "name:fi": "Apteekki Kivihaka", "name:sv": "Stenhaga Apotek", "opening_hours": "Mo-Fr 09:00-19:00; Sa 10:00-16:00", "phone": "063212775", "website": "https://www.apteekkikivihaka.fi/fi/", "wheelchair": "yes"}}, {"type": "node", "id": 7463740579, "lat": 63.0005031, "lon": 22.3241789, "tags": {"addr:city": "Isokyr\u00f6", "addr:housenumber": "135", "addr:postcode": "61500", "addr:street": "Pohjankyr\u00f6ntie", "amenity": "pharmacy", "dispensing": "yes", "email": "isonkyron.apteekki@apteekit.net", "healthcare": "pharmacy", "name": "Isonkyr\u00f6n Apteekki", "phone": "064788000", "website": "https://isonkyronapteekki.fi/"}}, {"type": "node", "id": 7877863483, "lat": 63.095583, "lon": 21.620895}, {"type": "node", "id": 7877863484, "lat": 63.0953886, "lon": 21.6198064}, {"type": "node", "id": 7877945885, "lat": 63.0955345, "lon": 21.6196792}, {"type": "node", "id": 7877945886, "lat": 63.0957289, "lon": 21.6207678}, {"type": "node", "id": 9035605771, "lat": 63.1035981, "lon": 21.6248108, "tags": {"addr:city": "Vaasa", "addr:housenumber": "13", "addr:postcode": "65100", "addr:street": "Laivakatu", "amenity": "pharmacy", "email": "info@apteekkivaasaminimani.fi", "healthcare": "pharmacy", "name": "Apteekki Vaasa Minimani", "name:fi": "Apteekki Vaasa Minimani", "name:sv": "Apoteket Vasa Minimani", "opening_hours": "Mo-Fr 09:00-19:00; Sa 10:00-16:00", "phone": "+35863196400", "website": "https://www.apteekkivaasaminimani.fi/"}}, {"type": "node", "id": 9097851265, "lat": 63.0847901, "lon": 21.6198559}, {"type": "node", "id": 9097851266, "lat": 63.0853722, "lon": 21.6197969}, {"type": "node", "id": 9611412130, "lat": 63.0724328, "lon": 21.6973945, "tags": {"addr:city": "Vaasa", "addr:country": "FI", "addr:housenumber": "1", "addr:street": "Elementtitehtaantie", "amenity": "pharmacy", "dispensing": "yes", "healthcare": "pharmacy", "name": "Vaasan Kuninkaan Apteekki", "name:fi": "Vaasan Kuninkaan Apteekki", "name:sv": "Kungsapoteket i Vasa", "opening_hours": "Mo-Fr 9:00-20:00; Sa 10:00-18:00; Su off", "phone": "063168700", "website": "https://www.vaasankuninkaanapteekki.fi/", "wheelchair": "yes"}}, {"type": "node", "id": 10097256768, "lat": 63.0931854, "lon": 21.6108847, "tags": {"addr:city": "Vaasa", "addr:housenumber": "26", "addr:postcode": "65100", "addr:street": "Kirkkopuistikko", "amenity": "clinic", "healthcare": "clinic", "name": "Kirkkopuistikon terveysasema"}}, {"type": "node", "id": 10097256775, "lat": 63.054441, "lon": 22.1103773, "tags": {"addr:city": "V\u00e4h\u00e4kyr\u00f6", "addr:housenumber": "18", "addr:postcode": "66500", "addr:street": "V\u00e4h\u00e4kyr\u00f6ntie", "amenity": "clinic", "healthcare": "clinic", "name": "V\u00e4h\u00e4kyr\u00f6n terveysasema"}}, {"type": "node", "id": 10807328402, "lat": 63.1348348, "lon": 22.2544642, "tags": {"addr:city": "V\u00f6r\u00e5", "addr:housenumber": "7", "addr:postcode": "66600", "addr:street": "L\u00e4karv\u00e4gen", "amenity": "hospital", "emergency": "no", "healthcare": "doctor", "healthcare:speciality": "general;dentist", "name": "V\u00f6r\u00e5 H\u00e4lsov\u00e5rdscentral HVC", "name:fi": "V\u00f6yrin Terveyskeskus TK", "operator": "\u00d6sterbottens V\u00e4lf\u00e4rdsomr\u00e5de", "operator:type": "public", "phone": "+35863852211"}}, {"type": "node", "id": 10915943064, "lat": 63.1122446, "lon": 21.6793229, "tags": {"amenity": "clinic", "check_date": "2023-05-21", "healthcare": "clinic", "name": "Wellmedic", "opening_hours": "Mo-Th 08:00-16:00; Fr 08:00-15:00"}}, {"type": "node", "id": 11619624952, "lat": 63.0853104, "lon": 21.6198009}, {"type": "node", "id": 11619624954, "lat": 63.0860825, "lon": 21.619243}, {"type": "node", "id": 11619739182, "lat": 63.0835613, "lon": 21.6162524}, {"type": "node", "id": 11619739187, "lat": 63.0841023, "lon": 21.6195904}, {"type": "node", "id": 11619739195, "lat": 63.0849683, "lon": 21.6198821}, {"type": "node", "id": 11619739196, "lat": 63.0852657, "lon": 21.6197573}, {"type": "node", "id": 11619739197, "lat": 63.085053, "lon": 21.6197272}, {"type": "way", "id": 27660112, "nodes": [303787802, 4366576883, 4366577518, 4366577527, 2502765992, 2502765993, 2502765994, 1403583430, 3059466846, 243335279, 303787805, 303787806, 303787808, 1368755541, 303787753, 1368755591, 303787752, 303787751, 303787802], "tags": {"addr:city": "Mustasaari", "addr:housenumber": "17", "addr:postcode": "65610", "addr:street": "Vanha Karper\u00f6ntie", "amenity": "hospital", "healthcare": "hospital", "name": "Korsholm h\u00e4lsov\u00e5rdscentral", "name:fi": "Mustasaaren terveyskeskus", "name:sv": "Korsholm h\u00e4lsov\u00e5rdscentral", "source": "survey;landsat"}}, {"type": "way", "id": 170570901, "nodes": [1817449363, 1817449359, 1817449358, 1817449356, 1817449353, 1817449355, 1817449354, 1817449357, 1817449363], "tags": {"addr:housenumber": "5", "addr:street": "M\u00e4ntymaantie", "amenity": "doctors", "building": "yes", "healthcare": "doctor", "name": "Gerbyn terveysasema", "name:sv": "Gerby h\u00e4lsostation"}}, {"type": "way", "id": 229300030, "nodes": [2379192787, 2379192788, 2379192789, 2379192790, 2379192787], "tags": {"amenity": "hospital", "emergency": "no", "name": "Kvevlax h\u00e4lsostation"}}, {"type": "way", "id": 371745945, "nodes": [3752959387, 3752959388, 3752959389, 6108905658, 3752959390, 3752959391, 3752959392, 3752959393, 3752959394, 3752959395, 6475722331, 535354844, 3752959387], "tags": {"amenity": "hospital", "healthcare": "hospital"}}, {"type": "way", "id": 708319387, "nodes": [6655864135, 6693540425, 245478537, 245478535, 245478536, 6697727201, 245478534, 6693540434, 245478533, 205484128, 6693540432, 6693540428, 205484129, 6655864138, 6655864139, 11619739182, 205484130, 6693540439, 6693540431, 6655864140, 364359979, 11619739187, 364359971, 9097851265, 11619739195, 11619739197, 364359972, 11619739196, 11619624952, 9097851266, 6693541486, 6697727195, 11619624954, 6697727224, 539034029, 539034030, 4637797626, 4637797630, 4637797631, 4637797624, 4637797620, 4637797623, 539034089, 539034090, 6655864142, 6655864135], "tags": {"addr:city": "Vaasa", "addr:housenumber": "2-4", "addr:postcode": "65130", "addr:street": "Hietalahdenkatu", "amenity": "hospital", "emergency": "yes", "healthcare": "hospital", "name": "Vaasan keskussairaala", "name:en": "Vaasa Central Hospital", "name:fi": "Vaasan keskussairaala", "name:sv": "Vasa centralsjukhus", "website": "https://www.vaasankeskussairaala.fi/", "wheelchair": "yes", "wikidata": "Q11899969"}}, {"type": "way", "id": 755086617, "nodes": [1038738915, 281470089, 281470088, 7053637579, 7053637580, 7053637581, 1038738704, 1038738915], "tags": {"amenity": "hospital", "healthcare": "hospital"}}, {"type": "way", "id": 844519197, "nodes": [7877945886, 7877945885, 7877863484, 7877863483, 7877945886], "tags": {"amenity": "clinic", "building": "yes", "building:colour": "white", "building:levels": "6", "name": "Mehil\u00e4inen"}}]}