{"version": 0.6, "generator": "Overpass API 0.7.61.5 4133829e", "osm3s": {"timestamp_osm_base": "2024-03-05T13:40:56Z", "copyright": "The data included in this document is from www.openstreetmap.org. The data is made available under ODbL."}, "elements": [{"type": "node", "id": 4591597110, "lat": 36.7129656, "lon": 67.1200477, "tags": {"amenity": "clinic", "name:en": "Parween Clinic", "name:fa": "\u0643\u0644\u064a\u0646\u064a\u0643 \u0642\u0627\u0628\u0644\u0647 \u067e\u0631\u0648\u064a\u0646"}}, {"type": "node", "id": 4591597198, "lat": 36.7171099, "lon": 67.1235538, "tags": {"amenity": "pharmacy", "name:en": "Razavie"}}, {"type": "node", "id": 4591597297, "lat": 36.7153049, "lon": 67.1086732, "tags": {"amenity": "hospital", "healthcare": "hospital", "name": "\u0628\u06cc\u0645\u0627\u0631\u0633\u062a\u0627\u0646 \u0645\u0646\u0637\u0642\u0647 \u0627\u06cc \u0645\u0632\u0627\u0631\u0634\u0631\u06cc\u0641", "name:en": "Mazar-e-Sharif Regional Hospital"}}, {"type": "node", "id": 4591597397, "lat": 36.7116128, "lon": 67.1247214, "tags": {"amenity": "clinic", "name": "\u0643\u0644\u064a\u0646\u064a\u06a9 \u0645\u0627\u062f\u0631", "name:en": "Clinic of Mother", "name:fa": "\u0643\u0644\u064a\u0646\u064a\u06a9 \u0645\u0627\u062f\u0631"}}, {"type": "node", "id": 5614604624, "lat": 36.7035105, "lon": 67.1142906, "tags": {"amenity": "hospital", "healthcare": "hospital", "name:en": "Aamoon Ophthalmic Center"}}, {"type": "node", "id": 5700163285, "lat": 36.7160949, "lon": 67.1037101, "tags": {"amenity": "hospital", "healthcare": "hospital", "name": "\u0634\u0641\u0627\u062e\u0627\u0646\u0647 \u0643\u064a\u0634\u0627 \u0641\u0627\u0631\u0627\u0628\u064a", "name:en": "kesha HealthCare"}}, {"type": "node", "id": 6004367487, "lat": 36.708792, "lon": 67.1035568, "tags": {"addr:street": "Darwaza ee Balkh, Ghazanfar Square", "amenity": "pharmacy", "email": "m.admin@asiapharma.af", "name:en": "AsiaPharma Medical Equipment Co.,ltd", "opening_hours": "Sa-Th 08:00-18:00", "operator": "AsiaPharma Company", "phone": "0093793151601", "website": "https://www.asiapharma.af/"}}, {"type": "node", "id": 8442131363, "lat": 36.7100524, "lon": 67.1305507, "tags": {"addr:street": "\u0622\u062f\u0631\u0633: \u0633\u0631\u0643 \u062f\u0648\u0645 \u062a\u062e\u0646\u064a\u0643\u0645\u060c \u0645\u0642\u0627\u0628\u0644 \u0644\u064a\u0633\u0647 \u0627\u0641\u063a\u0627\u0646- \u062a\u0631\u0643\u060c \u0645\u0632\u0627\u0631 \u0634\u0631\u064a\u0641\u060c \u0627\u0641\u063a\u0627\u0646\u0633\u062a\u0627\u0646", "amenity": "clinic", "description": "https://www.facebook.com/Refahdental/", "healthcare": "clinic", "healthcare:speciality": "dentist", "name": "\u0643\u0644\u064a\u0646\u064a\u0643 \u062f\u0646\u062f\u0627\u0646\u067e\u0632\u0634\u06a9\u06cc \u0631\u0641\u0627\u0647", "name:en": "Refah Dental Clinic", "phone": "\u0634\u0645\u0627\u0631\u0647 \u0647\u0627\u0649 \u062a\u0645\u0627\u0633: \u0660\u0667\u0668\u0666\u0667\u0663\u0664\u0660\u0667\u0663 - \u0660\u0665\u0660\u0662\u0660\u0664\u0667\u0666\u0666\u0667"}}, {"type": "node", "id": 8445473117, "lat": 36.70963, "lon": 67.130697, "tags": {"addr:street": "Takhnikum 2nd Street, Opposite Afghan Turk High Schooll", "amenity": "clinic", "email": "refahdental@Gmail.com", "name:en": "Refah Dental Clinic", "opening_hours": "Sa-Th 09:00-19:00", "phone": "+93786734073"}}]}