{"version": 0.6, "generator": "Overpass API 0.7.61.5 4133829e", "osm3s": {"timestamp_osm_base": "2024-03-06T11:29:56Z", "copyright": "The data included in this document is from www.openstreetmap.org. The data is made available under ODbL."}, "elements": [{"type": "node", "id": 2665770636, "lat": 0.5170751, "lon": 35.2733004, "tags": {"addr:city": "Eldoret", "addr:postcode": "30100", "addr:street": "Kimalel Street", "amenity": "bank", "atm": "yes", "branch": "Market Branch", "brand": "Equity Bank", "brand:wikidata": "Q5384664", "brand:wikipedia": "en:Equity Bank Kenya Limited", "name": "Equity Bank"}}, {"type": "node", "id": 2665797440, "lat": 0.518528, "lon": 35.274599, "tags": {"addr:city": "Eldoret", "addr:street": "Oloo Street", "amenity": "bank", "atm": "yes", "name": "National Bank of Kenya"}}, {"type": "node", "id": 2667348822, "lat": 0.5176849, "lon": 35.2754673, "tags": {"addr:city": "Eldoret", "addr:postcode": "30100", "amenity": "bank", "atm": "yes", "brand": "Standard Chartered", "brand:wikidata": "Q548278", "name": "Standard Chartered", "opening_hours": "24/7"}}, {"type": "node", "id": 2667349121, "lat": 0.517864, "lon": 35.2751383, "tags": {"addr:city": "Eldoret", "addr:postcode": "30100", "amenity": "bank", "atm": "yes", "name": "Barclays Bank", "opening_hours": "24/7"}}, {"type": "node", "id": 2667350187, "lat": 0.5175709, "lon": 35.2762391, "tags": {"addr:city": "Eldoret", "addr:postcode": "30100", "addr:street": "Malaba Road", "amenity": "bank", "atm": "yes", "name": "Trans National Bank Ltd", "opening_hours": "24/7"}}, {"type": "node", "id": 2667430583, "lat": 0.5206681, "lon": 35.2682622, "tags": {"addr:city": "Eldoret", "addr:street": "Eldoret -Webuye - Malaba Road", "amenity": "bank", "name": "Central Bank of Kenya"}}, {"type": "node", "id": 2667431132, "lat": 0.5203142, "lon": 35.268527, "tags": {"addr:city": "Eldoret", "addr:postcode": "30100", "addr:street": "Eldoret -Webuye - Malaba Road", "amenity": "bank", "atm": "yes", "name": "KCB ATM - Eldoret West"}}, {"type": "node", "id": 6147580919, "lat": 0.5290361, "lon": 35.2536801, "tags": {"addr:city": "Eldoret", "addr:street": "Eldoret -Webuye - Malaba Road", "amenity": "bank", "name": "Equity Bank Agent"}}, {"type": "node", "id": 6149305090, "lat": 0.5202924, "lon": 35.2682315, "tags": {"addr:city": "Eldoret", "addr:street": "Eldoret -Webuye - Malaba Road", "amenity": "bank", "atm": "yes", "name": "Kenya Commercial Bank"}}, {"type": "node", "id": 6149305096, "lat": 0.5195333, "lon": 35.2694288, "tags": {"addr:city": "Eldoret", "addr:street": "Eldoret -Webuye - Malaba Road", "amenity": "bank", "name": "Postbank Eldoret Branch"}}, {"type": "node", "id": 6149305117, "lat": 0.5194778, "lon": 35.2749656, "tags": {"addr:city": "Eldoret", "addr:street": "Oloo Street", "amenity": "bank", "name": "Chase Bank - Emara Credit Ltd - Eldoret"}}, {"type": "node", "id": 6149443729, "lat": 0.517354, "lon": 35.2750035, "tags": {"addr:city": "Eldoret", "addr:street": "Kenyatta Street", "amenity": "bank", "name": "Consolidated Bank"}}, {"type": "node", "id": 6149443730, "lat": 0.5170475, "lon": 35.2749594, "tags": {"addr:city": "Eldoret", "addr:street": "Kenyatta Street", "amenity": "bank", "name": "Family Bank"}}, {"type": "node", "id": 6149443732, "lat": 0.5169532, "lon": 35.2752645, "tags": {"addr:city": "Eldoret", "addr:street": "Kenyatta Street", "amenity": "bank", "name": "KCB Eldoret"}}, {"type": "node", "id": 6149443733, "lat": 0.5168235, "lon": 35.275213, "tags": {"addr:city": "Eldoret", "addr:street": "Kenyatta Street", "amenity": "bank", "name": "Kenya Commercial Bank"}}, {"type": "node", "id": 6149443736, "lat": 0.5161293, "lon": 35.2738084, "tags": {"addr:city": "Eldoret", "addr:street": "Oloo Street", "amenity": "bank", "name": "Kenya Woman Finance Trust"}}, {"type": "node", "id": 6149572952, "lat": 0.5175684, "lon": 35.2784909, "tags": {"addr:city": "Eldoret", "addr:street": "Malaba Road", "amenity": "bank", "name": "CFC Stanbic Bank Eldoret Branch"}}, {"type": "node", "id": 6149572954, "lat": 0.5176183, "lon": 35.2782968, "tags": {"addr:city": "Eldoret", "addr:street": "Malaba Road", "amenity": "bank", "name": "DTB Bank (Zion Mall)"}}, {"type": "node", "id": 6149572963, "lat": 0.5162322, "lon": 35.2802265, "tags": {"addr:city": "Eldoret", "addr:street": "Makasembo Road", "amenity": "bank", "name": "Prime Bank"}}, {"type": "node", "id": 6149572964, "lat": 0.5160492, "lon": 35.2811247, "tags": {"addr:city": "Eldoret", "addr:street": "Waiganjo Street", "amenity": "bank", "atm": "yes", "name": "Imperial Bank"}}, {"type": "node", "id": 6149572969, "lat": 0.514785, "lon": 35.2869968, "tags": {"addr:city": "Eldoret", "addr:street": "Malaba Road", "amenity": "bank", "name": "Bank Of Africa Eldoret Branch"}}, {"type": "node", "id": 7115195285, "lat": 0.5185807, "lon": 35.2683088, "tags": {"amenity": "bank", "name": "Gulf African Bank"}}, {"type": "node", "id": 9003371880, "lat": 0.5169624, "lon": 35.2772703, "tags": {"addr:city": "Eldoret", "addr:street": "Ronald Ngala Street", "amenity": "bank", "atm": "yes", "name": "Cooperative Bank"}}, {"type": "node", "id": 9003374707, "lat": 0.5192178, "lon": 35.2685203, "tags": {"addr:city": "Eldoret", "amenity": "bank", "brand": "Bank of Baroda", "brand:wikidata": "Q2003797", "brand:wikipedia": "en:Bank of Baroda", "name": "Bank of Baroda"}}]}