{"version": 0.6, "generator": "Overpass API 0.7.61.5 4133829e", "osm3s": {"timestamp_osm_base": "2024-03-06T10:45:02Z", "copyright": "The data included in this document is from www.openstreetmap.org. The data is made available under ODbL."}, "elements": [{"type": "node", "id": 2263244264, "lat": 32.4572273, "lon": 46.07208}, {"type": "node", "id": 2263244288, "lat": 32.4569977, "lon": 46.0726323}, {"type": "node", "id": 2263244291, "lat": 32.4563699, "lon": 46.0723026}, {"type": "node", "id": 2263244293, "lat": 32.4565646, "lon": 46.0717378}, {"type": "node", "id": 2263244295, "lat": 32.4567699, "lon": 46.0718532}, {"type": "node", "id": 2263244305, "lat": 32.4550799, "lon": 46.0731388, "tags": {"amenity": "school", "name": "\u0645\u062f\u0631\u0633\u0629 \u0627\u0644\u0634\u0645\u0648\u062e \u0627\u0644\u0627\u0628\u062a\u062f\u0627\u0626\u064a\u0629"}}, {"type": "node", "id": 2263244311, "lat": 32.4553531, "lon": 46.075127, "tags": {"amenity": "school", "name": "\u0627\u0639\u062f\u0627\u062f\u064a\u0629 \u0627\u0644\u0628\u0646\u0627\u062a"}}, {"type": "node", "id": 2263244317, "lat": 32.4557061, "lon": 46.0774471, "tags": {"amenity": "school", "name": "\u062b\u0627\u0646\u0648\u064a\u0629 \u0627\u0644\u0646\u0639\u064a\u0645"}}, {"type": "node", "id": 2484041280, "lat": 32.3666, "lon": 45.816114, "tags": {"alt_name": "\u0645\u062f\u0631\u0633\u0629 \u0627\u0644\u0628\u0627\u062f\u064a\u0629", "amenity": "school", "int_name": "Madrasat al B\u0101d\u012byah, \u0645\u062f\u0631\u0633\u0629 \u0627\u0644\u0628\u0627\u062f\u064a\u0629, Madrasat al Badiyah, \u0645\u062f\u0631\u0633\u0629 \u0627\u0644\u0628\u0627\u062f\u064a\u0629", "name": "\u0645\u062f\u0631\u0633\u0629 \u0627\u0644\u0628\u0627\u062f\u064a\u0629", "name:ar": "\u0645\u062f\u0631\u0633\u0629 \u0627\u0644\u0628\u0627\u062f\u064a\u0629", "name:ar1": "\u0645\u062f\u0631\u0633\u0629 \u0627\u0644\u0628\u0627\u062f\u064a\u0629", "name:de": "Madrasat al Badiyah", "name:en": "Madrasat al Badiyah", "name:fr": "Madrasat al Badiyah"}}, {"type": "node", "id": 2484046051, "lat": 32.5318245, "lon": 45.7636867, "tags": {"alt_name": "\u0645\u062f\u0631\u0633\u0629 \u0623\u0631\u0628\u0639\u0629 \u0639\u0634\u0631 \u062a\u0645\u0648\u0632", "amenity": "school", "int_name": "Madrasat Arbaat Ashar Tamm\u016bz, Madrasat Arbaat Ashar Tammuz", "name": "\u0645\u062f\u0631\u0633\u0629 \u0623\u0631\u0628\u0639\u0629 \u0639\u0634\u0631 \u062a\u0645\u0648\u0632", "name:ar": "\u0645\u062f\u0631\u0633\u0629 \u0623\u0631\u0628\u0639\u0629 \u0639\u0634\u0631 \u062a\u0645\u0648\u0632", "name:ar1": "\u0645\u062f\u0631\u0633\u0629 \u0623\u0631\u0628\u0639\u0629 \u0639\u0634\u0631 \u062a\u0645\u0648\u0632", "name:de": "Madrasat Arbaat Ashar Tammuz", "name:en": "Madrasat Arbaat Ashar Tammuz", "name:fr": "Madrasat Arbaat Ashar Tammuz"}}, {"type": "node", "id": 2484046058, "lat": 32.4871169, "lon": 45.7108209, "tags": {"alt_name": "\u0645\u062f\u0631\u0633\u0629 \u0627\u0644\u0645\u0632\u0627\u0643", "amenity": "school", "int_name": "Madrasat al Mazz\u0101k, Madrasat al Mazzak", "name": "\u0645\u062f\u0631\u0633\u0629 \u0627\u0644\u0645\u0632\u0627\u0643", "name:ar": "\u0645\u062f\u0631\u0633\u0629 \u0627\u0644\u0645\u0632\u0627\u0643", "name:ar1": "\u0645\u062f\u0631\u0633\u0629 \u0627\u0644\u0645\u0632\u0627\u0643", "name:de": "Madrasat al Mazzak", "name:en": "Madrasat al Mazzak", "name:fr": "Madrasat al Mazzak"}}, {"type": "node", "id": 2484046064, "lat": 32.548923, "lon": 45.709223, "tags": {"alt_name": "\u0645\u062f\u0631\u0633\u0629 \u0627\u0644\u0631\u0634\u064a\u062f", "amenity": "school", "int_name": "Madrasat ar Rash\u012bd, \u0645\u062f\u0631\u0633\u0629 \u0627\u0644\u0631\u0634\u064a\u062f, Madrasat ar Rashid, \u0645\u062f\u0631\u0633\u0629 \u0627\u0644\u0631\u0634\u064a\u062f", "name": "\u0645\u062f\u0631\u0633\u0629 \u0627\u0644\u0631\u0634\u064a\u062f", "name:ar": "\u0645\u062f\u0631\u0633\u0629 \u0627\u0644\u0631\u0634\u064a\u062f", "name:ar1": "\u0645\u062f\u0631\u0633\u0629 \u0627\u0644\u0631\u0634\u064a\u062f", "name:de": "Madrasat ar Rashid", "name:en": "Madrasat ar Rashid", "name:fr": "Madrasat ar Rashid"}}, {"type": "node", "id": 2484046320, "lat": 32.4873788, "lon": 45.7108179, "tags": {"alt_name": "\u0645\u062f\u0631\u0633\u0629 \u0627\u0644\u0645\u0632\u0627\u0646", "amenity": "school", "int_name": "\u0645\u062f\u0631\u0633\u0629 \u0627\u0644\u0645\u0632\u0627\u0646, \u0645\u062f\u0631\u0633\u0629 \u0627\u0644\u0645\u0632\u0627\u0646", "name": "\u0645\u062f\u0631\u0633\u0629 \u0627\u0644\u0645\u0632\u0627\u0646", "name:ar": "\u0645\u062f\u0631\u0633\u0629 \u0627\u0644\u0645\u0632\u0627\u0646", "name:ar1": "\u0645\u062f\u0631\u0633\u0629 \u0627\u0644\u0645\u0632\u0627\u0646", "name:de": "\u0645\u062f\u0631\u0633\u0629 \u0627\u0644\u0645\u0632\u0627\u0646", "name:en": "\u0645\u062f\u0631\u0633\u0629 \u0627\u0644\u0645\u0632\u0627\u0646", "name:fr": "\u0645\u062f\u0631\u0633\u0629 \u0627\u0644\u0645\u0632\u0627\u0646"}}, {"type": "node", "id": 2484046327, "lat": 32.5319531, "lon": 45.7636131, "tags": {"alt_name": "\u0645\u062f\u0631\u0633\u0629 \u0661\u0664 \u062a\u0645\u0648\u0632", "amenity": "school", "int_name": "\u0645\u062f\u0631\u0633\u0629 \u0661\u0664 \u062a\u0645\u0648\u0632, \u0645\u062f\u0631\u0633\u0629 \u0661\u0664 \u062a\u0645\u0648\u0632", "name": "\u0645\u062f\u0631\u0633\u0629 \u0661\u0664 \u062a\u0645\u0648\u0632", "name:ar": "\u0645\u062f\u0631\u0633\u0629 \u0661\u0664 \u062a\u0645\u0648\u0632", "name:ar1": "\u0645\u062f\u0631\u0633\u0629 \u0661\u0664 \u062a\u0645\u0648\u0632", "name:de": "\u0645\u062f\u0631\u0633\u0629 \u0661\u0664 \u062a\u0645\u0648\u0632", "name:en": "\u0645\u062f\u0631\u0633\u0629 \u0661\u0664 \u062a\u0645\u0648\u0632", "name:fr": "\u0645\u062f\u0631\u0633\u0629 \u0661\u0664 \u062a\u0645\u0648\u0632"}}, {"type": "node", "id": 4433999289, "lat": 32.5021952, "lon": 45.8325855, "tags": {"amenity": "school", "name": "\u0627\u0639\u062f\u0627\u062f\u064a\u0629 \u0627\u0644\u0643\u0648\u062a \u0627\u0644\u0645\u0633\u0627\u0626\u064a\u0629", "name:ar": "\u0627\u0639\u062f\u0627\u062f\u064a\u0629 \u0627\u0644\u0643\u0648\u062a \u0627\u0644\u0645\u0633\u0627\u0626\u064a\u0629"}}, {"type": "node", "id": 4461053590, "lat": 32.5345268, "lon": 45.8292481, "tags": {"amenity": "school", "name": "\u0645\u062f\u0631\u0633\u0647 \u062e\u062f\u064a\u062c\u0647 \u0627\u0644\u0643\u0628\u0631\u0649", "name:ar": "\u0645\u062f\u0631\u0633\u0647 \u062e\u062f\u064a\u062c\u0647 \u0627\u0644\u0643\u0628\u0631\u0649"}}, {"type": "node", "id": 4509087089, "lat": 32.5360401, "lon": 45.8216394, "tags": {"addr:street": "\u0634\u0627\u0631\u0639 \u0627\u0644\u0645\u062b\u0644\u062b", "amenity": "school", "name": "\u0645\u062f\u0631\u0633\u0629 \u0645\u064a\u062b\u0645 \u0627\u0644\u062a\u0645\u0627\u0631", "name:ar": "\u0645\u062f\u0631\u0633\u0629 \u0645\u064a\u062b\u0645 \u0627\u0644\u062a\u0645\u0627\u0631"}}, {"type": "node", "id": 4509087190, "lat": 32.5030129, "lon": 45.8230815, "tags": {"amenity": "school", "name": "\u0645\u062f\u0631\u0633\u0629 \u0627\u0644\u063a\u0631\u0628\u064a\u0629", "name:ar": "\u0645\u062f\u0631\u0633\u0629 \u0627\u0644\u063a\u0631\u0628\u064a\u0629"}}, {"type": "node", "id": 4643635889, "lat": 32.5049601, "lon": 45.8218363, "tags": {"amenity": "school", "name": "\u0627\u0639\u062f\u0627\u062f\u064a\u0647 \u0627\u0644\u0643\u0648\u062a \u0644\u0644\u0628\u0646\u064a\u0646", "name:ar": "\u0627\u0639\u062f\u0627\u062f\u064a\u0647 \u0627\u0644\u0643\u0648\u062a \u0644\u0644\u0628\u0646\u064a\u0646"}}, {"type": "node", "id": 4693919891, "lat": 32.5421601, "lon": 45.8181035, "tags": {"addr:street": "\u0634\u0627\u0631\u0639 \u0627\u0644\u0642\u0627\u0636\u064a", "amenity": "school", "name": "\u0627\u0644\u0627\u0632\u0643\u064a\u0627\u0621", "name:ar": "\u0627\u0644\u0627\u0632\u0643\u064a\u0627\u0621", "name:en": "Alzakia", "name:ku": "\u0627\u0644\u0627\u0632\u0643\u064a\u0627\u0621"}}, {"type": "node", "id": 4699139189, "lat": 32.4724377, "lon": 45.8817449, "tags": {"amenity": "school", "name": "\u0645\u0639\u0647\u062f \u0627\u0644\u0643\u0648\u062a \u0627\u0644\u0641\u0646\u064a"}}, {"type": "node", "id": 4834837122, "lat": 32.5339841, "lon": 45.8324221, "tags": {"amenity": "school", "name": "\u0645\u062f\u0631\u0633\u0629 \u0627\u0644\u0641\u0627\u0631\u0648\u0642 \u0627\u0644\u0627\u0628\u062a\u062f\u0627\u0626\u064a\u0629", "name:ar": "\u0645\u062f\u0631\u0633\u0629 \u0627\u0644\u0641\u0627\u0631\u0648\u0642 \u0627\u0644\u0627\u0628\u062a\u062f\u0627\u0626\u064a\u0629"}}, {"type": "node", "id": 4935192523, "lat": 32.4966017, "lon": 45.8100053, "tags": {"amenity": "school", "name": "\u0645\u062f\u0631\u0633\u0629 \u0627\u0644\u062e\u0627\u0644\u0635\u0647", "name:ar": "\u0645\u062f\u0631\u0633\u0629 \u0627\u0644\u062e\u0627\u0644\u0635\u0647", "name:en": "Al qalassa"}}, {"type": "node", "id": 5018323523, "lat": 32.5019455, "lon": 45.8330094, "tags": {"amenity": "school", "name": "\u0639\u062f\u0627\u062f\u064a\u0629 \u0627\u0644\u0643\u0648\u062a \u0627\u0644\u0645\u0633\u0627\u0626\u064a\u0647 \u0644\u0644\u0628\u0646\u0627\u062a"}}, {"type": "node", "id": 5028946164, "lat": 32.5249152, "lon": 45.8074146, "tags": {"addr:city": "Kut", "addr:country": "IQ", "amenity": "school", "name": "\u0645\u062c\u0645\u0648\u0639\u0629 \u0627\u0644\u0645\u0647\u0646\u062f\u0633 \u0627\u0644\u062a\u0639\u0644\u064a\u0645\u064a\u0629"}}, {"type": "node", "id": 5117245822, "lat": 32.1901781, "lon": 46.0319106, "tags": {"addr:city": "\u0627\u0644\u062d\u064a", "amenity": "school", "name": "\u0645\u062f\u0631\u0633\u0629 \u0627\u0644\u0645\u062b\u0646\u0649 \u0627\u0644\u0627\u0628\u062a\u062f\u0627\u0626\u064a\u0647", "name:ar": "\u0645\u062f\u0631\u0633\u0629 \u0627\u0644\u0645\u062b\u0646\u0649 \u0627\u0644\u0627\u0628\u062a\u062f\u0627\u0626\u064a\u0647", "name:en": "Al Muthanna School"}}, {"type": "node", "id": 5127147022, "lat": 32.1690877, "lon": 46.0461973, "tags": {"addr:city": "\u0627\u0644\u062d\u064a", "amenity": "school", "name": "\u0625\u0639\u062f\u0627\u062f\u064a\u0629 \u0627\u0644\u062d\u064a \u0644\u0644\u0628\u0646\u064a\u0646", "name:ar": "\u0625\u0639\u062f\u0627\u062f\u064a\u0629 \u0627\u0644\u062d\u064a \u0644\u0644\u0628\u0646\u064a\u0646"}}, {"type": "node", "id": 5140801762, "lat": 32.1646689, "lon": 46.0416486, "tags": {"amenity": "school", "name": "\u0645\u062f\u0631\u0633\u0629 \u0645\u0627\u0644\u0643 \u0628\u0646 \u0646\u0648\u064a\u0631\u0629 \u0627\u0644\u0627\u0628\u062a\u062f\u0627\u0626\u064a\u0629"}}, {"type": "node", "id": 5140802222, "lat": 32.1650983, "lon": 46.0414477}, {"type": "node", "id": 5140802223, "lat": 32.1645015, "lon": 46.0411574}, {"type": "node", "id": 5140802224, "lat": 32.1642423, "lon": 46.0418687}, {"type": "node", "id": 5140802225, "lat": 32.1648444, "lon": 46.0421526}, {"type": "node", "id": 5140802603, "lat": 32.161374, "lon": 46.0439906}, {"type": "node", "id": 5140802604, "lat": 32.1611171, "lon": 46.0447493}, {"type": "node", "id": 5140802605, "lat": 32.1603753, "lon": 46.044552}, {"type": "node", "id": 5140802606, "lat": 32.1606226, "lon": 46.0438617}, {"type": "node", "id": 5140808250, "lat": 32.1608795, "lon": 46.0442562, "tags": {"addr:city": "\u0627\u0644\u062d\u064a", "amenity": "school", "name": "\u0645\u062f\u0631\u0633\u0629 \u062d\u0633\u0627\u0646 \u0628\u0646 \u062b\u0627\u0628\u062a \u0627\u0644\u0627\u0628\u062a\u062f\u0627\u0626\u064a\u0629", "name:ar": "\u0645\u062f\u0631\u0633\u0629 \u062d\u0633\u0627\u0646 \u0628\u0646 \u062b\u0627\u0628\u062a \u0627\u0644\u0627\u0628\u062a\u062f\u0627\u0626\u064a\u0629"}}, {"type": "node", "id": 5140817892, "lat": 32.169025, "lon": 46.0487774, "tags": {"addr:city": "\u0627\u0644\u062d\u064a", "amenity": "school", "name": "\u0625\u0639\u062f\u0627\u062f\u064a\u0629 \u0633\u0639\u064a\u062f \u0628\u0646 \u062c\u0628\u064a\u0631", "name:ar": "\u0625\u0639\u062f\u0627\u062f\u064a\u0629 \u0633\u0639\u064a\u062f \u0628\u0646 \u062c\u0628\u064a\u0631"}}, {"type": "node", "id": 5140818924, "lat": 32.1694756, "lon": 46.0486601}, {"type": "node", "id": 5140818925, "lat": 32.1687138, "lon": 46.0485}, {"type": "node", "id": 5140818926, "lat": 32.1686146, "lon": 46.0489269}, {"type": "node", "id": 5140818927, "lat": 32.1694068, "lon": 46.0491022}, {"type": "node", "id": 5140863422, "lat": 32.1713859, "lon": 46.0601897}, {"type": "node", "id": 5140863423, "lat": 32.1712484, "lon": 46.0608032}, {"type": "node", "id": 5140863424, "lat": 32.1721152, "lon": 46.0610558}, {"type": "node", "id": 5140863425, "lat": 32.1722564, "lon": 46.0604559}, {"type": "node", "id": 5140891433, "lat": 32.1723137, "lon": 46.0587282}, {"type": "node", "id": 5140891434, "lat": 32.1716952, "lon": 46.0585523}, {"type": "node", "id": 5140891435, "lat": 32.1715653, "lon": 46.0592379}, {"type": "node", "id": 5140891436, "lat": 32.1721686, "lon": 46.0594093}, {"type": "node", "id": 5140892510, "lat": 32.1716684, "lon": 46.0605551, "tags": {"amenity": "school", "name": "\u0645\u062f\u0631\u0633\u0629 \u0632\u064a\u062f \u0628\u0646 \u0639\u0644\u064a \u0639\u0644\u064a\u0647 \u0627\u0644\u0633\u0644\u0627\u0645"}}, {"type": "node", "id": 5140967384, "lat": 32.1775433, "lon": 46.0478835}, {"type": "node", "id": 5140967385, "lat": 32.1767343, "lon": 46.0480504}, {"type": "node", "id": 5140967386, "lat": 32.1769141, "lon": 46.0490063}, {"type": "node", "id": 5140967387, "lat": 32.1777777, "lon": 46.0488394}, {"type": "node", "id": 5140969415, "lat": 32.1769943, "lon": 46.0484753, "tags": {"amenity": "school", "name": "\u0645\u062f\u0631\u0633\u0629 \u0627\u0644\u062a\u0633\u0627\u0645\u064a \u0627\u0644\u0627\u0628\u062a\u062f\u0627\u0626\u064a\u0629 \u0644\u0644\u0628\u0646\u0627\u062a"}}, {"type": "node", "id": 5140971941, "lat": 32.1791381, "lon": 46.0458356, "tags": {"amenity": "school", "name": "\u0645\u062f\u0631\u0633\u0629 \u0627\u0643\u062f \u0644\u0644\u0628\u0646\u0627\u062a"}}, {"type": "node", "id": 5140973593, "lat": 32.1791017, "lon": 46.0466559, "tags": {"amenity": "school", "name": "\u0645\u062f\u0631\u0633\u0629 \u0627\u0644\u0648\u0641\u0627\u0621 \u0627\u0644\u0627\u0628\u062a\u062f\u0627\u0626\u064a\u0629"}}, {"type": "node", "id": 5140973594, "lat": 32.178874, "lon": 46.0443404}, {"type": "node", "id": 5140973595, "lat": 32.179051, "lon": 46.0450888}, {"type": "node", "id": 5140973596, "lat": 32.1784608, "lon": 46.0452819}, {"type": "node", "id": 5140973597, "lat": 32.1782565, "lon": 46.0444477}, {"type": "node", "id": 5140975478, "lat": 32.1787228, "lon": 46.0462993}, {"type": "node", "id": 5140975479, "lat": 32.1793296, "lon": 46.0461627}, {"type": "node", "id": 5140975480, "lat": 32.1794645, "lon": 46.0467014}, {"type": "node", "id": 5140975481, "lat": 32.1788448, "lon": 46.0468304}, {"type": "node", "id": 5140975741, "lat": 32.1790624, "lon": 46.0451317}, {"type": "node", "id": 5140975742, "lat": 32.1784789, "lon": 46.0453141}, {"type": "node", "id": 5140975743, "lat": 32.1787196, "lon": 46.0462609}, {"type": "node", "id": 5140975744, "lat": 32.1793189, "lon": 46.0461187}, {"type": "node", "id": 5140978747, "lat": 32.1785073, "lon": 46.0448277, "tags": {"amenity": "school", "name": "\u0645\u062a\u0648\u0633\u0637\u0629 \u0623\u0645 \u0627\u0644\u0628\u0646\u064a\u0646", "name:ar": "\u0645\u062a\u0648\u0633\u0637\u0629 \u0623\u0645 \u0627\u0644\u0628\u0646\u064a\u0646"}}, {"type": "node", "id": 5151047556, "lat": 32.1816145, "lon": 46.0304561}, {"type": "node", "id": 5151047557, "lat": 32.1820575, "lon": 46.0310023}, {"type": "node", "id": 5151047558, "lat": 32.1815374, "lon": 46.031594}, {"type": "node", "id": 5151047559, "lat": 32.1810944, "lon": 46.0311009}, {"type": "node", "id": 5151048407, "lat": 32.1815439, "lon": 46.0310857, "tags": {"addr:city": "\u0627\u0644\u062d\u064a", "amenity": "school", "name": "\u0645\u062f\u0631\u0633\u0629 \u0628\u064a\u0631\u0648\u062a \u0627\u0644\u0627\u0628\u062a\u062f\u0627\u0626\u064a\u0629", "name:ar": "\u0645\u062f\u0631\u0633\u0629 \u0628\u064a\u0631\u0648\u062a \u0627\u0644\u0627\u0628\u062a\u062f\u0627\u0626\u064a\u0629", "name:en": "Beirut Primary School"}}, {"type": "node", "id": 5151049658, "lat": 32.1848238, "lon": 46.0341995}, {"type": "node", "id": 5151049659, "lat": 32.1852638, "lon": 46.0347162}, {"type": "node", "id": 5151049660, "lat": 32.184732, "lon": 46.0353542}, {"type": "node", "id": 5151049661, "lat": 32.1842919, "lon": 46.0348693}, {"type": "node", "id": 5151054208, "lat": 32.1847563, "lon": 46.0348566, "tags": {"amenity": "school", "name": "\u0645\u062f\u0631\u0633\u0629 \u0627\u0644\u0645\u062b\u0646\u0649 \u0627\u0644\u0627\u0628\u062a\u062f\u0627\u0626\u064a\u0629"}}, {"type": "node", "id": 5171129221, "lat": 32.5106427, "lon": 45.8161619, "tags": {"addr:postcode": "00964", "addr:street": "\u0634\u0627\u0631\u0639 \u0627\u0644\u062a\u0631\u0628\u064a\u0629", "amenity": "school", "name": "\u0645\u062f\u0631\u0633\u0629 \u0627\u0644\u0632\u0648\u0631\u0627\u0621"}}, {"type": "node", "id": 5236719522, "lat": 32.1404948, "lon": 46.0446499, "tags": {"amenity": "school", "name": "\u0645\u062f\u0631\u0633\u0629 \u0633\u0641\u064a\u0646\u0629 \u0627\u0644\u0646\u062c\u0627\u0629 \u0627\u0644\u0627\u0628\u062a\u062f\u0627\u0626\u064a\u0629"}}, {"type": "node", "id": 5236719523, "lat": 32.1565785, "lon": 46.0454333, "tags": {"amenity": "school", "name": "\u0645\u062f\u0631\u0633\u0629 \u062d\u0633\u0627\u0646 \u0628\u0646 \u062b\u0627\u0628\u062a / \u062d2"}}, {"type": "node", "id": 5236719525, "lat": 32.3694191, "lon": 45.9486166, "tags": {"amenity": "school", "name": "\u0645\u062f\u0631\u0633\u0629 \u0645\u062f\u064a\u0646 \u0627\u0644\u0627\u0628\u062a\u062f\u0627\u0626\u064a\u0629"}}, {"type": "node", "id": 5363096123, "lat": 32.5278879, "lon": 45.8244971, "tags": {"amenity": "school", "name": "\u0645\u062f\u0631\u0633\u0629 \u0627\u0644\u0634\u064a\u0645\u0627\u0621", "name:en": "Al-Shaimae school"}}, {"type": "node", "id": 5590140021, "lat": 32.532014, "lon": 45.8289299, "tags": {"amenity": "school", "name": "\u0645\u062a\u0648\u0633\u0637\u0629 \u0627\u0644\u0641\u0627\u0631\u0648\u0642"}}, {"type": "node", "id": 5602879380, "lat": 32.4914473, "lon": 45.8151223, "tags": {"addr:city": "\u0628\u063a\u062f\u0627\u062f", "addr:country": "IQ", "amenity": "school", "name": "\u0645\u062f\u0631\u0633\u0629 \u0622\u0633\u064a\u0627"}}, {"type": "node", "id": 5854711388, "lat": 32.5260964, "lon": 45.8095377, "tags": {"amenity": "school", "name": "\u0627\u0644\u0628\u064a\u0627\u0631\u0642 \u0627\u0644\u0627\u0628\u062a\u062f\u0627\u0626\u064a\u0629 \u0644\u0644\u0628\u0646\u0627\u062a", "name:ar": "\u0627\u0644\u0628\u064a\u0627\u0631\u0642 \u0627\u0644\u0627\u0628\u062a\u062f\u0627\u0626\u064a\u0629 \u0644\u0644\u0628\u0646\u0627\u062a"}}, {"type": "node", "id": 5854717688, "lat": 32.52542, "lon": 45.8102617, "tags": {"amenity": "school", "name": "\u0631\u0648\u0636\u0629 \u0623\u0637\u0641\u0627\u0644 \u0627\u0644\u0645\u0647\u062c", "name:ar": "\u0631\u0648\u0636\u0629 \u0623\u0637\u0641\u0627\u0644 \u0627\u0644\u0645\u0647\u062c"}}, {"type": "node", "id": 5854721485, "lat": 32.5248577, "lon": 45.8095877, "tags": {"amenity": "school", "name": "\u062b\u0627\u0646\u0648\u064a\u0629 \u0627\u0644\u0628\u062a\u0648\u0644 \u0644\u0644\u0628\u0646\u0627\u062a", "name:ar": "\u062b\u0627\u0646\u0648\u064a\u0629 \u0627\u0644\u0628\u062a\u0648\u0644 \u0644\u0644\u0628\u0646\u0627\u062a"}}, {"type": "node", "id": 5874051389, "lat": 32.5240616, "lon": 45.8192388, "tags": {"amenity": "school", "name": "\u0645\u062f\u0631\u0633\u0629 \u0627\u0644\u062e\u0627\u0644\u062f\u0629 \u0627\u0644\u0627\u0628\u062a\u062f\u0627\u0626\u064a\u0629", "name:ar": "\u0645\u062f\u0631\u0633\u0629 \u0627\u0644\u062e\u0627\u0644\u062f\u0629 \u0627\u0644\u0627\u0628\u062a\u062f\u0627\u0626\u064a\u0629"}}, {"type": "node", "id": 5874051390, "lat": 32.5249751, "lon": 45.8180982, "tags": {"amenity": "school", "name": "\u0645\u062a\u0648\u0633\u0637\u0629 \u0627\u0644\u0646\u0631\u062c\u0633 \u0644\u0644\u0628\u0646\u0627\u062a", "name:ar": "\u0645\u062a\u0648\u0633\u0637\u0629 \u0627\u0644\u0646\u0631\u062c\u0633 \u0644\u0644\u0628\u0646\u0627\u062a"}}, {"type": "node", "id": 5874051391, "lat": 32.5279902, "lon": 45.818998, "tags": {"amenity": "school", "name": "\u0645\u0639\u0647\u062f \u0627\u0644\u0645\u0639\u0644\u0645\u0627\u062a", "name:ar": "\u0645\u0639\u0647\u062f \u0627\u0644\u0645\u0639\u0644\u0645\u0627\u062a \u0633\u0627\u0628\u0642\u0627\u064b \u0648\u0645\u0639\u0647\u062f \u0627\u0644\u0641\u0646\u0648\u0646 \u0644\u0644\u0628\u0646\u0627\u062a \u062d\u0627\u0644\u064a\u0627\u064b"}}, {"type": "node", "id": 5874055988, "lat": 32.5245955, "lon": 45.8185826, "tags": {"amenity": "school", "name": "\u062b\u0627\u0646\u0648\u064a\u0629 \u0627\u0644\u0632\u0647\u0631\u0627\u0621 \u0644\u0644\u0628\u0646\u0627\u062a", "name:ar": "\u062b\u0627\u0646\u0648\u064a\u0629 \u0627\u0644\u0632\u0647\u0631\u0627\u0621 \u0644\u0644\u0628\u0646\u0627\u062a"}}, {"type": "node", "id": 5875783187, "lat": 32.5053328, "lon": 45.8200501, "tags": {"amenity": "school", "name": "\u062b\u0627\u0646\u0648\u064a\u0629 \u0627\u0644\u0645\u062f\u0631\u0633\u064a\u0646 \u0627\u0644\u0623\u0647\u0644\u064a\u0629", "name:ar": "\u062b\u0627\u0646\u0648\u064a\u0629 \u0645\u062f\u0631\u0633\u064a\u0646 \u0627\u0644\u0643\u0648\u062a \u0627\u0644\u0623\u0647\u0644\u064a\u0629"}}, {"type": "node", "id": 6007581488, "lat": 32.4952123, "lon": 45.8320484, "tags": {"addr:street": "\u0634\u0627\u0631\u0639 \u0627\u0644\u0643\u0635", "amenity": "school", "name": "\u0627\u0639\u062f\u0627\u062f\u064a\u0629 \u0648\u0627\u0633\u0637 \u0627\u0644\u0635\u0646\u0627\u0639\u064a\u0647"}}, {"type": "node", "id": 6007599385, "lat": 32.4914614, "lon": 45.8302655, "tags": {"amenity": "school", "name": "\u0645\u062f\u0631\u0633\u0629 \u0627\u0644\u0646\u062c\u0627\u062d \u0627\u0644\u0627\u0628\u062a\u062f\u0627\u0626\u064a\u0647"}}, {"type": "node", "id": 6076565228, "lat": 32.5335758, "lon": 45.8203588, "tags": {"amenity": "school", "name": "\u0645\u062a\u0648\u0633\u0637\u0629 \u0637\u0648\u0639\u0647 \u0644\u0644\u0628\u0646\u0627\u062a"}}, {"type": "node", "id": 6264043288, "lat": 32.5251119, "lon": 45.799573, "tags": {"addr:city": "\u0627\u0644\u0643\u0648\u062a", "addr:city:ar": "\u0627\u0644\u0643\u0648\u062a", "amenity": "school", "denomination": "shia", "name": "\u0645\u062a\u0648\u0633\u0637\u0629 \u0627\u0644\u0625\u0645\u0627\u0645 \u0639\u0644\u064a \u0639", "name:ar": "\u0645\u062a\u0648\u0633\u0637\u0629 \u0627\u0644\u0625\u0645\u0627\u0645 \u0639\u0644\u064a \u0639", "religion": "muslim"}}, {"type": "node", "id": 6457212785, "lat": 32.1704816, "lon": 46.0499776, "tags": {"addr:city": "\u0627\u0644\u062d\u064a", "amenity": "school", "name": "\u062a\u0631\u0628\u064a\u0629 \u0627\u0644\u062d\u064a", "name:ar": "\u062a\u0631\u0628\u064a\u0629 \u0627\u0644\u062d\u064a"}}, {"type": "node", "id": 6592278986, "lat": 32.4825609, "lon": 45.9144639, "tags": {"amenity": "school", "name": "\u0627\u0644\u0627\u0633\u062a\u0627\u0630 \u0645\u062d\u0645\u062f \u0627\u0644\u0639\u0627\u0628\u062f\u064a"}}, {"type": "node", "id": 6738210986, "lat": 32.5125682, "lon": 45.8095625, "tags": {"addr:street": "\u0634\u0627\u0631\u0639 \u0627\u0644\u0645\u063a\u0631\u0628. \u0643\u0648\u062a", "amenity": "school", "name": "\u0645\u062f\u0631\u0633\u0629 \u0627\u0644\u0645\u062a\u0645\u064a\u0632\u064a\u0646"}}, {"type": "node", "id": 6776512186, "lat": 32.5032113, "lon": 45.8177104, "tags": {"amenity": "school", "name": "\u062b\u0627\u0646\u0648\u064a\u0629 \u0627\u0644\u0627\u0645\u064a\u0631\u0627\u062a \u0644\u0644\u0628\u0646\u0627\u062a \u0627\u0644\u0623\u0647\u0644\u064a\u0629"}}, {"type": "node", "id": 6784397586, "lat": 32.5296385, "lon": 45.8108777, "tags": {"addr:street": "\u0634\u0627\u0631\u0639 \u062c\u0627\u0645\u0639 \u0627\u0644\u0632\u0647\u0631\u0627\u0621 \u0627\u0644\u0643\u0628\u064a\u0631", "amenity": "school", "name": "\u0627\u0639\u062f\u0627\u062f\u064a\u0629 \u0627\u0644\u0645\u062b\u0646\u0649 \u0644\u0644\u0628\u0646\u064a\u0646", "name:en": "Almuthana high school"}}, {"type": "node", "id": 6828090294, "lat": 32.5021813, "lon": 45.8311228, "tags": {"amenity": "school", "name": "\u0645\u062a\u0648\u0633\u0637\u0629 \u0627\u0644\u0643\u0648\u062a \u0644\u0644\u062a\u0639\u0644\u064a\u0645 \u0627\u0644\u0623\u0633\u0627\u0633 \u062d\u0662 \u0644\u0644\u0628\u0646\u064a\u0646"}}, {"type": "node", "id": 6876407685, "lat": 32.5087543, "lon": 45.8192327, "tags": {"amenity": "school", "name": "\u0645\u062f\u0631\u0633\u0629 14 \u062a\u0645\u0648\u0632", "opening_hours": "Su-Th 08:00-12:00"}}, {"type": "node", "id": 6947453585, "lat": 32.5272256, "lon": 45.8180331, "tags": {"amenity": "school", "name": "\u0635\u0642\u0631 \u0642\u0631\u064a\u0634", "name:ar": "\u0645\u062f\u0631\u0633\u0629 \u0635\u0642\u0631 \u0642\u0631\u064a\u0634 \u0627\u0644\u0627\u0628\u062a\u062f\u0627\u0626\u064a\u0629"}}, {"type": "node", "id": 6969552885, "lat": 32.5108998, "lon": 45.8702995, "tags": {"addr:street": "\u062d\u064a \u0627\u0644\u062c\u0648\u0627\u062f\u064a\u0646", "amenity": "school", "name": "\u0645\u062f\u0631\u0633\u0629 \u0627\u0644\u0642\u0644\u0645"}}, {"type": "node", "id": 7304195185, "lat": 32.4576873, "lon": 46.0792912, "tags": {"amenity": "school", "name": "\u062b\u0627\u0646\u0648\u064a\u0629 \u0627\u0644\u062f\u0643\u062a\u0648\u0631 \u0645\u062d\u0633\u0646 \u0639\u0644\u064a \u0627\u0644\u062f\u0644\u0641\u064a \u0644\u0644\u0628\u0646\u0627\u062a"}}, {"type": "node", "id": 7595269885, "lat": 32.5406306, "lon": 45.8160959, "tags": {"amenity": "school", "name": "\u0628\u0646\u0627\u0621 \u0645\u062f\u0631\u0633\u0629 18 \u0635\u0641 \u0646\u0645\u0648\u0630\u062c\u064a\u0647 \u062f\u0631\u0629 \u0627\u0644\u0645\u062d\u064a\u0637"}}, {"type": "node", "id": 7595756689, "lat": 32.5172545, "lon": 45.8352824, "tags": {"amenity": "school", "name": "\u0645\u062f\u0631\u0633\u0629 \u0627\u0645 \u0633\u0644\u0645\u0647 (\u0627\u0644\u0627\u0646\u0648\u0627\u0631 )"}}, {"type": "node", "id": 7649147985, "lat": 32.511892, "lon": 45.8169208, "tags": {"amenity": "school", "name": "\u0627\u0639\u062f\u0627\u062f\u064a\u0629 \u0627\u0644\u062a\u062d\u0631\u064a\u0631"}}, {"type": "node", "id": 7649147986, "lat": 32.5125543, "lon": 45.8177047, "tags": {"amenity": "school", "name": "\u0645\u062a\u0648\u0633\u0637\u0629 \u0627\u0644\u0643\u0646\u062f\u064a"}}, {"type": "node", "id": 7649148085, "lat": 32.5113186, "lon": 45.8174576, "tags": {"amenity": "school", "name": "\u0627\u0628\u062a\u062f\u0627\u0626\u064a\u0629 \u0627\u0644\u0634\u064a\u0628 / \u0627\u0628\u062a\u062f\u0627\u0626\u064a\u0629 \u0627\u0644\u0633\u064a\u0627\u062f\u0629"}}, {"type": "node", "id": 7649148185, "lat": 32.5119068, "lon": 45.8161423, "tags": {"amenity": "school", "name": "\u0627\u0639\u062f\u0627\u062f\u064a\u0629 \u0627\u0644\u0645\u062a\u0645\u064a\u0632\u064a\u0646"}}, {"type": "node", "id": 7649148485, "lat": 32.5073795, "lon": 45.8211786, "tags": {"amenity": "school", "name": "\u062b\u0627\u0646\u0648\u064a\u0629 \u0646\u0648\u0631 \u0627\u0644\u0645\u062c\u062a\u0628\u0649 \u0627\u0644\u0623\u0647\u0644\u064a\u0629"}}, {"type": "node", "id": 8079810718, "lat": 32.535564, "lon": 45.8348498, "tags": {"amenity": "school", "name": "\u0627\u0639\u062f\u0627\u062f\u064a\u0629 \u0635\u0646\u0627\u0639\u0629 \u0627\u0644\u0641\u0627\u0631\u0633"}}, {"type": "node", "id": 8224148517, "lat": 32.4394048, "lon": 46.0474694, "tags": {"amenity": "school", "name": "\u0645\u062f\u0631\u0633\u0629 \u0627\u0644\u062d\u0648\u064a\u0631\u064a\u0629 \u0627\u0644\u0645\u062e\u062a\u0644\u0637\u0629"}}, {"type": "node", "id": 8702321217, "lat": 32.5166446, "lon": 45.8415359, "tags": {"amenity": "school", "name": "\u0627\u0628\u0648\u0630\u0631 \u0627\u0644\u063a\u0641\u0627\u0631\u064a \u0644\u0644\u0628\u0646\u064a\u0646"}}, {"type": "node", "id": 8702321218, "lat": 32.5159415, "lon": 45.8368523, "tags": {"amenity": "school", "name": "\u0627\u0644\u0628\u0631\u0627\u0639\u0645 \u0627\u0644\u0627\u0628\u062a\u062f\u0627\u0626\u064a\u0629"}}, {"type": "node", "id": 8702321317, "lat": 32.5173343, "lon": 45.841819, "tags": {"amenity": "school", "name": "\u0625\u0639\u062f\u0627\u062f\u064a\u0629 \u0627\u0644\u0643\u0631\u0627\u0645\u0629 \u0644\u0644\u0628\u0646\u064a\u0646"}}, {"type": "node", "id": 8785088517, "lat": 32.172405, "lon": 46.0607381, "tags": {"amenity": "school"}}, {"type": "node", "id": 8785088717, "lat": 32.1734164, "lon": 46.0634653, "tags": {"amenity": "school"}}, {"type": "node", "id": 8785088718, "lat": 32.1771364, "lon": 46.0650182, "tags": {"amenity": "school"}}, {"type": "node", "id": 8788477017, "lat": 32.5173408, "lon": 45.8417811, "tags": {"amenity": "school", "name": "\u0625\u0639\u062f\u0627\u062f\u064a\u0629 \u0627\u0644\u0643\u0631\u0627\u0645\u0629 \u0644\u0644\u0628\u0646\u064a\u0646"}}, {"type": "node", "id": 8788477117, "lat": 32.5166387, "lon": 45.8415042, "tags": {"amenity": "school", "name": "\u0645\u062f\u0631\u0633\u0629 \u0623\u0628\u0648 \u0630\u0631 \u0627\u0644\u0627\u0628\u062a\u062f\u0627\u0626\u064a\u0629 \u0644\u0644\u0628\u0646\u064a\u0646"}}, {"type": "node", "id": 8788477217, "lat": 32.515945, "lon": 45.8368352, "tags": {"amenity": "school", "name": "\u0645\u062f\u0631\u0633\u0629 \u0627\u0644\u0628\u0631\u0627\u0639\u0645 \u0627\u0644\u0627\u0628\u062a\u062f\u0627\u0626\u064a\u0629 \u0644\u0644\u0628\u0646\u0627\u062a"}}, {"type": "node", "id": 9627594717, "lat": 32.5030021, "lon": 45.8198821, "tags": {"amenity": "school", "name": "\u0645\u062f\u0631\u0633\u0629 \u0627\u0644\u0648\u062d\u062f\u0629 \u0627\u0644\u0627\u0628\u062a\u062f\u0627\u0626\u064a\u0629 \u0644\u0644\u0628\u0646\u0627\u062a"}}, {"type": "node", "id": 9733008118, "lat": 32.5157162, "lon": 45.8607177, "tags": {"amenity": "school", "name": "\u0645\u062f\u0631\u0633\u0629 \u0627\u0644\u0623\u064a\u0627\u062f\u064a \u0627\u0644\u062e\u064a\u0631\u0629 \u0627\u0644\u0627\u0628\u062a\u062f\u0627\u0626\u064a\u0629 \u0644\u0644\u0628\u0646\u064a\u0646"}}, {"type": "node", "id": 9905252217, "lat": 32.5062895, "lon": 45.822182, "tags": {"amenity": "school", "name": "\u062b\u0627\u0646\u0648\u064a\u0629 \u0627\u0644\u0623\u0645\u0631\u0627\u0621 \u0627\u0644\u0627\u0647\u0644\u064a\u0629 \u0644\u0644\u0628\u0646\u064a\u0646"}}, {"type": "node", "id": 9910082919, "lat": 32.5106925, "lon": 45.8708232, "tags": {"amenity": "school", "name": "\u0645\u062f\u0631\u0633\u0629 \u0627\u0644\u0642\u0644\u0645"}}, {"type": "node", "id": 9910083118, "lat": 32.5107818, "lon": 45.870856, "tags": {"amenity": "school", "name": "\u0645\u062f\u0631\u0633\u0629 \u0627\u0644\u0645\u0648\u062f\u0629"}}, {"type": "node", "id": 10142377918, "lat": 32.4986057, "lon": 45.8351877, "tags": {"addr:street": "\u0645\u062f\u062e\u0644 \u0627\u0644\u062c\u0627\u0645\u0639\u0629", "amenity": "school", "name": "\u0645\u062f\u0631\u0633\u0629 \u0627\u0644\u0631\u0628\u064a\u0639"}}, {"type": "way", "id": 217000400, "nodes": [2263244264, 2263244288, 2263244291, 2263244293, 2263244295, 2263244264], "tags": {"amenity": "school", "building": "yes", "name": "\u0645\u062f\u0631\u0633\u0629 \u0627\u0644\u0645\u0631\u0648\u062c", "name:ar": "\u0627\u0644\u0645\u0631\u0648\u062c"}}, {"type": "way", "id": 529138927, "nodes": [5140802222, 5140802223, 5140802224, 5140802225, 5140802222], "tags": {"amenity": "school"}}, {"type": "way", "id": 529139484, "nodes": [5140802603, 5140802604, 5140802605, 5140802606, 5140802603], "tags": {"addr:city": "\u0627\u0644\u062d\u064a", "amenity": "school"}}, {"type": "way", "id": 529141133, "nodes": [5140818924, 5140818925, 5140818926, 5140818927, 5140818924], "tags": {"addr:city": "\u0627\u0644\u062d\u064a", "amenity": "school"}}, {"type": "way", "id": 529152394, "nodes": [5140863422, 5140863423, 5140863424, 5140863425, 5140863422], "tags": {"amenity": "school"}}, {"type": "way", "id": 529152508, "nodes": [5140891433, 5140891434, 5140891435, 5140891436, 5140891433], "tags": {"amenity": "school"}}, {"type": "way", "id": 529164323, "nodes": [5140967384, 5140967385, 5140967386, 5140967387, 5140967384], "tags": {"addr:city": "\u0627\u0644\u062d\u064a", "amenity": "school"}}, {"type": "way", "id": 529164908, "nodes": [5140975478, 5140975479, 5140975480, 5140975481, 5140975478], "tags": {"addr:city": "\u0627\u0644\u062d\u064a", "amenity": "school"}}, {"type": "way", "id": 529165093, "nodes": [5140975741, 5140975742, 5140975743, 5140975744, 5140975741], "tags": {"addr:city": "\u0627\u0644\u062d\u064a", "amenity": "school"}}, {"type": "way", "id": 529165098, "nodes": [5140973594, 5140973595, 5140973596, 5140973597, 5140973594], "tags": {"addr:city": "\u0627\u0644\u062d\u064a", "amenity": "school"}}, {"type": "way", "id": 530459591, "nodes": [5151047556, 5151047557, 5151047558, 5151047559, 5151047556], "tags": {"addr:city": "\u0627\u0644\u062d\u064a", "amenity": "school"}}, {"type": "way", "id": 530460064, "nodes": [5151049658, 5151049659, 5151049660, 5151049661, 5151049658], "tags": {"addr:city": "\u0627\u0644\u062d\u064a", "amenity": "school"}}]}