{"version": 0.6, "generator": "Overpass API 0.7.61.5 4133829e", "osm3s": {"timestamp_osm_base": "2024-03-05T11:11:34Z", "copyright": "The data included in this document is from www.openstreetmap.org. The data is made available under ODbL."}, "elements": [{"type": "node", "id": 1118501165, "lat": 9.4366303, "lon": -0.8430043, "tags": {"addr:city": "Tamale", "addr:country": "GH", "addr:region": "Northern", "addr:street": "Gumani Street", "addr:suburb": "Gumani", "alt_name": "Absa - Tamale Gumani Prestige Branch", "amenity": "bank", "atm": "yes", "branch": "Tamale Gumani Prestige", "brand": "Absa", "brand:wikidata": "Q58641733", "brand:wikipedia": "en:Absa Group Limited", "contact:instagram": "absaghana", "contact:linkedin": "absa-ghana", "contact:twitter": "AbsaGhana", "contact:whatsapp": "+233 50 164 4644", "contact:youtube": "https://www.youtube.com/channel/UCKpKPyfJ69tf7lnxudpzKJQ", "email": "service.excellence.GH@absa.africa", "facebook": "AbsaGhana", "name": "Absa", "old_name": "Barclays Bank (Gumani)", "opening_hours": "Mo-Fr 08:30-16:30; PH off", "operator": "Absa Bank Ghana Limited", "operator:type": "public", "operator:wikidata": "Q96371413", "operator:wikipedia": "en:Absa Bank Ghana", "phone": "+233 37 202 7164; +233 57 766 9244", "website": "https://www.absa.com.gh"}}, {"type": "node", "id": 1880310700, "lat": 9.4361748, "lon": -0.8429694, "tags": {"addr:city": "Tamale", "addr:country": "GH", "addr:region": "Northern", "addr:street": "North High Street", "addr:suburb": "Gumani", "alt_name": "Ecobank - Tamale Branch", "amenity": "bank", "atm": "yes", "branch": "Tamale", "brand": "Ecobank", "brand:wikidata": "Q930225", "brand:wikipedia": "en:Ecobank", "contact:facebook": "EcobankGhanaPLC", "contact:instagram": "ecobankghanaplc", "contact:linkedin": "ecobankghanaplc", "contact:twitter": "EcobankGhanaPLC", "contact:youtube": "ecobanktv", "email": "ecobankenquiries@ecobank.com", "name": "Ecobank", "name:it": "Ecobank", "opening_hours": "Mo-Fr 08:30-16:00; Sa 09:00-14:00; PH off", "operator": "Ecobank Ghana PLC", "operator:type": "public", "operator:wikidata": "Q5333155", "operator:wikipedia": "en:Ecobank Ghana", "phone": "+233 37 2027933;+233 37 2027934", "website": "https://ecobank.com/gh/"}}, {"type": "node", "id": 1918243908, "lat": 9.6174495, "lon": -0.8291295, "tags": {"amenity": "bank", "atm": "yes", "branch": "Savelugu Branch", "name": "Agricultural Development Bank", "opening_hours": "Mo-Fr 08:30-16:30", "short_name": "adb"}}, {"type": "node", "id": 6544045748, "lat": 9.4113519, "lon": -0.8425268, "tags": {"addr:city": "Tamale", "addr:country": "GH", "addr:ghanapostgps": "NT-0013-3887", "addr:postbox": "P.O. Box TL 1618 Tamale", "addr:postcode": "NT0013", "addr:region": "Northern", "addr:street": "North High Street", "addr:suburb": "Tishigu Town", "alt_name": "CalBank - Tamale Branch", "amenity": "bank", "atm": "yes", "branch": "Tamale", "brand": "CalBank", "contact:linkedin": "calbank-plc", "contact:twitter": "CalBankPLC", "contact:whatsapp": "+233 24 242 6398", "contact:youtube": "https://www.youtube.com/channel/UCzczU8uI8AFTaXfM-2GDhYQ", "email": "customercare@calbank.net", "facebook": "CalBankPLC", "name": "CalBank", "operator": "CalBank PLC", "operator:type": "public", "operator:wikidata": "Q4035559", "operator:wikipedia": "en:CalBank", "phone": "+233 55 649 0018;+233 54 434 1564", "website": "https://calbank.net"}}]}