{"version": 0.6, "generator": "Overpass API 0.7.61.5 4133829e", "osm3s": {"timestamp_osm_base": "2024-03-06T11:17:45Z", "copyright": "The data included in this document is from www.openstreetmap.org. The data is made available under ODbL."}, "elements": [{"type": "node", "id": 2486549557, "lat": 31.682352, "lon": 44.509034, "tags": {"alt_name": "\u0627\u0644\u063a\u0632\u0644\u0627\u0646", "int_name": "Al Ghazl\u0101n, Al Ghizl\u0101n, \u0627\u0644\u063a\u0632\u0644\u0627\u0646, Al Ghazlan, Al Ghizlan, \u0627\u0644\u063a\u0632\u0644\u0627\u0646", "is_in": "Iraq , \u062c\u0645\u0647\u0648\u0631\u064a\u0629 \u0627\u0644\u0639\u0631\u0627\u0642", "name": "\u0627\u0644\u063a\u0632\u0644\u0627\u0646", "name:ar": "\u062f\u0627\u0631 \u0627\u0644\u062d\u0627\u062c \u0641\u0646\u062c\u0627\u0646", "name:ar1": "\u0627\u0644\u063a\u0632\u0644\u0627\u0646", "name:de": "Al Ghazlan", "name:en": "Alkuzai", "name:fr": "Al Ghazlan", "place": "village"}}, {"type": "node", "id": 2486549853, "lat": 31.666458, "lon": 44.506347, "tags": {"alt_name": "\u0622\u0644 \u0646\u0628\u0647\u0627\u0646", "int_name": "\u0100l Nabh\u0101n, Al Nabhan", "is_in": "Iraq , \u062c\u0645\u0647\u0648\u0631\u064a\u0629 \u0627\u0644\u0639\u0631\u0627\u0642", "name": "\u0622\u0644 \u0646\u0628\u0647\u0627\u0646", "name:ar": "\u0627\u0645\u0627\u0631\u0629 \u0627\u0644\u0628\u0648\u062d\u0644\u064a\u0644 \u0627\u0644 \u0634\u0628\u0644", "name:ar1": "\u0622\u0644 \u0646\u0628\u0647\u0627\u0646", "name:de": "Al Nabhan", "name:en": "Al Nabhan", "name:fr": "Al Nabhan", "name:ku": "\u0627\u0644\u062c\u0641\u0647", "place": "village"}}, {"type": "node", "id": 2487963869, "lat": 31.366667, "lon": 44.083333, "tags": {"alt_name": "\u0623\u0645 \u063a\u064a\u062b\u0629", "int_name": "Umm Ghitha, Umm Gh\u012bthah, Umm Ghitha, Umm Ghithah", "is_in": "Iraq , \u062c\u0645\u0647\u0648\u0631\u064a\u0629 \u0627\u0644\u0639\u0631\u0627\u0642", "name": "\u0623\u0645 \u063a\u064a\u062b\u0629", "name:ar": "\u0645\u063a\u064a\u062b\u0629", "name:ar1": "\u0623\u0645 \u063a\u064a\u062b\u0629", "name:de": "Umm Ghitha", "name:en": "Umm Ghitha", "name:fr": "Umm Ghitha", "place": "village"}}]}