{"version": 0.6, "generator": "Overpass API 0.7.61.5 4133829e", "osm3s": {"timestamp_osm_base": "2024-03-06T11:15:40Z", "copyright": "The data included in this document is from www.openstreetmap.org. The data is made available under ODbL."}, "elements": [{"type": "node", "id": 2479465600, "lat": 30.821337, "lon": 47.596403, "tags": {"capital": "7", "int_name": "An Nashwah - \u0627\u0644\u0646\u0634\u0648\u0629", "is_in": "Iraq , \u062c\u0645\u0647\u0648\u0631\u064a\u0629 \u0627\u0644\u0639\u0631\u0627\u0642", "name": "\u0627\u0644\u0646\u0634\u0648\u0629", "name:ar": "\u0627\u0644\u0646\u0634\u0648\u0629", "name:de": "An Nashwah", "name:en": "An Nashwah", "name:fr": "An Nashwah", "place": "town"}}, {"type": "node", "id": 2487896272, "lat": 31.1494683, "lon": 47.4314506, "tags": {"alt_name": "\u0627\u0644\u062b\u063a\u0631", "capital": "7", "int_name": "Thughir - \u0627\u0644\u062b\u063a\u0631", "is_in": "Iraq , \u062c\u0645\u0647\u0648\u0631\u064a\u0629 \u0627\u0644\u0639\u0631\u0627\u0642", "name": "\u0627\u0644\u062b\u063a\u0631", "name:ar": "\u0646\u0627\u062d\u064a\u0629 \u0627\u0644\u062b\u063a\u0631", "name:de": "Thughir", "name:en": "Thughir", "name:fr": "Al Thughir", "place": "town"}}, {"type": "node", "id": 2487896274, "lat": 31.148333, "lon": 47.4336048, "tags": {"alt_name": "\u0645\u0632\u064a\u0628\u0644\u0629", "int_name": "Muzaibah, Muzaibila, Muzaibla, Muzalbah, Muzaybilah, Muzeibileh, Muzaibah, Muzaibila, Muzaibla, Muzalbah, Muzaybilah, Muzeibileh", "is_in": "Iraq , \u062c\u0645\u0647\u0648\u0631\u064a\u0629 \u0627\u0644\u0639\u0631\u0627\u0642", "name": "\u0645\u0632\u064a\u0628\u0644\u0629", "name:ar": "\u0645\u0632\u064a\u0628\u0644\u0629", "name:ar1": "\u0645\u0632\u064a\u0628\u0644\u0629", "name:de": "Muzaibah", "name:en": "Muzaibah", "name:fr": "Muzaibah", "place": "village"}}, {"type": "node", "id": 2487896300, "lat": 31.1828466, "lon": 47.4286025, "tags": {"alt_name": "\u0646\u0643\u0631\u0634", "int_name": "Nakrash, Nakrash", "is_in": "Iraq , \u062c\u0645\u0647\u0648\u0631\u064a\u0629 \u0627\u0644\u0639\u0631\u0627\u0642", "name": "\u0646\u0643\u0631\u0634", "name:ar": "\u0642\u0631\u064a\u0647 \u0627\u0644\u0635\u062e\u0631\u064a\u062c\u0647", "name:ar1": "\u0646\u0643\u0631\u0634", "name:de": "Nakrash", "name:en": "Nakrash", "name:fr": "Nakrash", "place": "village"}}, {"type": "node", "id": 2487904396, "lat": 30.966725, "lon": 47.317488, "tags": {"alt_name": "\u0627\u0644\u0647\u0631\u0629", "int_name": "Al Harah, \u0627\u0644\u0647\u0631\u0647, Al Harah, \u0627\u0644\u0647\u0631\u0647", "is_in": "Iraq , \u062c\u0645\u0647\u0648\u0631\u064a\u0629 \u0627\u0644\u0639\u0631\u0627\u0642", "name": "\u0627\u0644\u0647\u0631\u0629", "name:ar": "\u0647\u0648\u064a\u0631 \u0627\u0644\u0633\u0627\u062f\u06292", "name:ar1": "\u0627\u0644\u0647\u0631\u0629", "name:de": "Al Harah", "name:en": "Al Harah", "name:fr": "Al Harah", "place": "village"}}, {"type": "node", "id": 2487904398, "lat": 30.97664, "lon": 47.3164755, "tags": {"capital": "7", "is_in": "Iraq , \u062c\u0645\u0647\u0648\u0631\u064a\u0629 \u0627\u0644\u0639\u0631\u0627\u0642", "name": "\u0627\u0644\u0647\u0648\u064a\u0631", "name:ar": "\u0627\u0644\u0647\u0648\u064a\u0631", "name:de": "Al Howair", "name:en": "Al Howair", "name:es": "de Al Howair", "name:fa": "\u0647\u0648\u06cc\u0631", "name:fr": "d'Al-Howair", "name:he": "\u05d0\u05dc-\u05d4\u05d5\u05d5\u05d0\u05e8", "name:hi": "\u0905\u0932-\u0939\u094b\u0935\u0947\u0930", "name:it": "di Al-Howair", "name:ja": "\u30a2\u30eb\u30cf\u30a6\u30a3\u30eb", "name:ko": "\uc54c-\ud558\uc640\uc774\ub974", "name:pt": "de Al Howair", "name:ru": "\u0410\u043b\u044c-\u0425\u043e\u0432\u044d\u0439\u0440", "name:sv": "Al-Howai", "name:zh-Hans": "\u8c6a\u5a01\u5c14", "old_name": "Al Huwair, Al Huwayr, El Huair, El Huir, Huwair, Huwayr, \u0627\u0644\u0647\u0648\u064a\u0631, Al Huwair, Al Huwayr, El Huair, El Huir, Huwair, Huwayr, \u0627\u0644\u0647\u0648\u064a\u0631", "place": "town", "wikidata": "Q4502049", "wikipedia": "ar:\u0627\u0644\u0647\u0648\u064a\u0631"}}, {"type": "node", "id": 2487904404, "lat": 30.9497676, "lon": 47.2966228, "tags": {"alt_name": "\u0627\u0644\u062e\u0633", "int_name": "Al Khass, \u0627\u0644\u062e\u0633, Al Khass, \u0627\u0644\u062e\u0633", "is_in": "Iraq , \u062c\u0645\u0647\u0648\u0631\u064a\u0629 \u0627\u0644\u0639\u0631\u0627\u0642", "name": "\u0627\u0644\u062e\u0627\u0635", "name:ar": "\u0627\u0644\u062e\u0627\u0635", "name:ar1": "\u0627\u0644\u062e\u0633", "name:ckb": "\u0626\u06d5\u0644\u062e\u0627\u0633", "name:de": "Al-Khas", "name:en": "Al-Khass", "name:es": "Al Khas", "name:fa": "\u0627\u0644\u062e\u0627\u0635", "name:fr": "Al Khas", "name:he": "\u05d0\u05dc \u05d7\u05d0\u05e1", "name:hi": "\u0905\u0932 \u0916\u093e\u0938", "name:id": "Al Khas", "name:it": "Al Khas", "name:ja": "\u30a2\u30eb\u30fb\u30ab\u30b9", "name:ko": "\uc54c \uce74\uc2a4", "name:la": "Al Khas", "name:pt": "Al Khas", "name:ru": "\u0410\u043b\u044c \u0425\u0430\u0441", "name:sq": "Al Khas", "name:sv": "Al Khas", "name:tr": "Al Khas", "name:zh-Hans": "\u963f\u5c14\u54c8\u65af", "place": "village"}}, {"type": "node", "id": 2487904412, "lat": 31.016783, "lon": 47.455366, "tags": {"alt_name": "\u0627\u0644\u0645\u0632\u064a\u0631\u0639\u0629", "int_name": "Al Muzaira, Al Muzayraah, Al Muzayrah, Al Muzayr\u0131ah, Mazera, Muzaira, Muzayraah, Muzayrah, Muzayr\u0131ah, Muzeiraah, \u0627\u0644\u0645\u0632\u064a\u0631\u0639\u0629, Al Muzaira, Al Muzayraah, Al Muzayrah, Al Muzayriah, Mazera, Muzaira, Muzayraah, Muzayrah, Muzayriah, Muzeiraah, \u0627\u0644\u0645\u0632\u064a\u0631\u0639\u0629", "is_in": "Iraq , \u062c\u0645\u0647\u0648\u0631\u064a\u0629 \u0627\u0644\u0639\u0631\u0627\u0642", "name": "\u0627\u0644\u0645\u0632\u064a\u0631\u0639\u0629", "name:ar": "\u0642\u0631\u064a\u0629 \u0648\u0639\u0634\u0627\u0626\u0631 \u0645\u0632\u064a\u0631\u0639\u0629", "name:ar1": "\u0627\u0644\u0645\u0632\u064a\u0631\u0639\u0629", "name:de": "Al Muzaira", "name:en": "Muzaira", "name:fr": "Al Muzaira", "place": "village"}}, {"type": "node", "id": 2487904414, "lat": 31.0149241, "lon": 47.4334886, "tags": {"alt_name": "\u0627\u0644\u0642\u0631\u0646\u0629", "capital": "6", "int_name": "Al Qurna - \u0627\u0644\u0642\u0631\u0646\u0629", "name": "\u0627\u0644\u0642\u0631\u0646\u0629", "name:ar": "\u0627\u0644\u0642\u0631\u0646\u0629", "name:de": "Al Qurna", "name:en": "Al Qurna", "name:es": "Al-Qurnah", "name:et": "Al-Qurnah", "name:fa": "\u0642\u0631\u0646\u0647", "name:fr": "Al Qurna", "name:ku": "Elqurne", "name:ml": "\u0d05\u0d7d-\u0d16\u0d41\u0d7c\u0d23", "name:ru": "\u042d\u043b\u044c-\u041a\u0443\u0440\u043d\u0430", "name:tr": "El-Kurne", "place": "city", "population": "250000", "population:date": "2003", "source:population": "https://ar.wikipedia.org/wiki/%D8%A7%D9%84%D9%82%D8%B1%D9%86%D8%A9_(%D8%A7%D9%84%D8%B9%D8%B1%D8%A7%D9%82)", "wikidata": "Q2574863", "wikipedia": "en:Al-Qurnah"}}, {"type": "node", "id": 2487904418, "lat": 30.9283627, "lon": 47.2538522, "tags": {"alt_name": "\u0627\u0644\u0646\u0635\u0631\u064a", "int_name": "An Na\u015fr\u012b, \u0627\u0644\u0646\u0635\u0631\u064a, An Nasri, \u0627\u0644\u0646\u0635\u0631\u064a", "is_in": "Iraq , \u062c\u0645\u0647\u0648\u0631\u064a\u0629 \u0627\u0644\u0639\u0631\u0627\u0642", "name": "\u0627\u0644\u062c\u064a\u0628\u0648\u062a", "name:ar": "\u0627\u0644\u062c\u064a\u0628\u0648\u062a", "name:ar1": "\u0627\u0644\u0646\u0635\u0631\u064a", "name:en": "Al jibout", "place": "village"}}, {"type": "node", "id": 2487904426, "lat": 30.9328069, "lon": 47.2761802, "tags": {"alt_name": "\u0627\u0644\u0633\u0648\u0627\u062f", "int_name": "As Suw\u0101d, \u0627\u0644\u0633\u0648\u0627\u062f, As Suwad, \u0627\u0644\u0633\u0648\u0627\u062f", "name": "\u0627\u0644\u0639\u0644\u0648\u0627\u0646", "name:ar": "\u0627\u0644\u0639\u0644\u0648\u0627\u0646", "name:ar1": "\u0627\u0644\u0633\u0648\u0627\u062f", "name:de": "Al-Alwan", "name:en": "Al-Alwan", "name:fa": "\u0627\u0644\u0648\u0627\u0646", "name:fr": "Al-Alwan", "name:ru": "\u0410\u043b\u0432\u0430\u043d", "name:zh-Hans": "\u963f\u5c14\u4e07", "place": "village"}}, {"type": "node", "id": 2487904427, "lat": 30.963403, "lon": 47.484394, "tags": {"alt_name": "\u0642\u0631\u064a\u0629 \u0627\u0644\u0633\u0648\u064a\u0628", "int_name": "As Suwayb, As Suwayyib, Ash Shuwayyib, Qaryat as Suwayyib, Shuwaiyib, Suwaib, Suwayb, \u0627\u0644\u0633\u0648\u064a\u0628, As Suwayb, As Suwayyib, Ash Shuwayyib, Qaryat as Suwayyib, Shuwaiyib, Suwaib, Suwayb, \u0627\u0644\u0633\u0648\u064a\u0628", "name": "\u0642\u0631\u064a\u0629 \u0627\u0644\u0633\u0648\u064a\u0628", "name:ar": "\u0642\u0631\u064a\u0629 \u0627\u0644\u0633\u0648\u064a\u0628", "name:ar1": "\u0642\u0631\u064a\u0629 \u0627\u0644\u0633\u0648\u064a\u0628", "name:de": "As Suwayb", "name:en": "As Suwayb", "name:fr": "As Suwayb", "name:ru": "\u042d\u0448-\u0428\u0443\u0432\u0430\u0439\u0438\u0431", "place": "village"}}, {"type": "node", "id": 2487904428, "lat": 30.983333, "lon": 47.433333, "tags": {"alt_name": "\u0627\u0644\u0635\u0648\u064a\u062f\u0639", "int_name": "A\u015f \u015euwayd\u0131, As Suwaydi", "is_in": "Iraq , \u062c\u0645\u0647\u0648\u0631\u064a\u0629 \u0627\u0644\u0639\u0631\u0627\u0642", "name": "\u0627\u0644\u0635\u0648\u064a\u062f\u0639", "name:ar": "\u0634\u0627\u0631\u0639 \u0627\u0644\u0639\u0644\u0645", "name:ar1": "\u0627\u0644\u0635\u0648\u064a\u062f\u0639", "name:de": "As Suwaydi", "name:en": "As Suwaydi", "name:fr": "As Suwaydi", "place": "village"}}, {"type": "node", "id": 2487904437, "lat": 30.9264413, "lon": 47.2666891, "tags": {"alt_name": "\u0628\u062f\u0631\u0627\u0646", "int_name": "Badr\u0101n, \u0628\u062f\u0631\u0627\u0646, Badran, \u0628\u062f\u0631\u0627\u0646", "is_in": "Iraq , \u062c\u0645\u0647\u0648\u0631\u064a\u0629 \u0627\u0644\u0639\u0631\u0627\u0642", "name": "\u0627\u0644\u0639\u0644\u064a", "name:ar": "\u0627\u0644\u0639\u0644\u064a", "name:ar1": "\u0628\u062f\u0631\u0627\u0646", "name:en": "Al Ali", "place": "village"}}, {"type": "node", "id": 2487904461, "lat": 30.9728137, "lon": 47.3242199, "tags": {"alt_name": "\u0647\u0648\u064a\u0631 \u0627\u0644\u0633\u0627\u062f\u0629", "int_name": "Haw\u012br as S\u0101dah, \u0647\u0648\u064a\u0631 \u0627\u0644\u0633\u0627\u062f\u0647, Hawir as Sadah, \u0647\u0648\u064a\u0631 \u0627\u0644\u0633\u0627\u062f\u0647", "is_in": "Iraq , \u062c\u0645\u0647\u0648\u0631\u064a\u0629 \u0627\u0644\u0639\u0631\u0627\u0642", "name": "\u0647\u0648\u064a\u0631 \u0627\u0644\u0633\u0627\u062f\u0629", "name:ar": "\u0647\u0648\u064a\u0631 \u0627\u0644\u0633\u0627\u062f\u0629", "name:ar1": "\u0647\u0648\u064a\u0631 \u0627\u0644\u0633\u0627\u062f\u0629", "name:en": "Hawir as Sadah", "name:fr": "Hawir as Sadah", "place": "village"}}, {"type": "node", "id": 2487904622, "lat": 30.9326828, "lon": 47.4856311, "tags": {"alt_name": "\u0634\u0639\u0628\u0627\u0632\u064a\u0629", "int_name": "Shab\u0101z\u012byah, Shabaziyah", "name": "\u0642\u0631\u064a\u0629 \u0627\u0644\u062d\u0648\u064a\u0633\u0629", "name:ar": "\u0634\u0639\u0628\u0627\u0632\u064a\u0629", "name:ar1": "\u0634\u0639\u0628\u0627\u0632\u064a\u0629", "name:de": "Shabaziyah", "name:en": "Shabaziyah", "name:fr": "Shabaziyah", "place": "village"}}, {"type": "node", "id": 2487904634, "lat": 30.986624, "lon": 47.392037, "tags": {"alt_name": "\u0634\u0644\u0647\u0629 \u0627\u0644\u062c\u0628\u0627\u064a\u0634", "int_name": "Shalhat al Jab\u0101ysh, \u0634\u0644\u0647\u0629 \u0627\u0644\u062c\u0628\u0627\u064a\u0634, Shalhat al Jabaysh, \u0634\u0644\u0647\u0629 \u0627\u0644\u062c\u0628\u0627\u064a\u0634", "is_in": "Iraq , \u062c\u0645\u0647\u0648\u0631\u064a\u0629 \u0627\u0644\u0639\u0631\u0627\u0642", "name": "\u0634\u0644\u0647\u0629 \u0627\u0644\u062c\u0628\u0627\u064a\u0634", "name:ar": "\u0634\u0644\u0647\u0629 \u0633\u0639\u064a\u062f", "name:ar1": "\u0634\u0644\u0647\u0629 \u0627\u0644\u062c\u0628\u0627\u064a\u0634", "name:de": "Shalhat al Jabaysh", "name:en": "Shalhat al Jabaysh", "name:fr": "Shalhat al Jabaysh", "place": "village"}}, {"type": "node", "id": 2487904642, "lat": 30.981871, "lon": 47.401078, "tags": {"alt_name": "\u0637\u0644\u062d\u0629, \u0627\u0644\u0635\u0627\u062f\u0642", "alt_name:en": "Al-Sadiq", "capital": "7", "int_name": "Talha, \u0162al\u1e29ah, \u0637\u0644\u062d\u0629, Talha, Talhah, \u0637\u0644\u062d\u0629", "is_in": "Iraq , \u062c\u0645\u0647\u0648\u0631\u064a\u0629 \u0627\u0644\u0639\u0631\u0627\u0642", "name": "\u0637\u0644\u062d\u0629", "name:ar": "\u0637\u0644\u062d\u0629", "name:en": "Talha", "place": "village"}}, {"type": "node", "id": 2487980377, "lat": 31.075, "lon": 47.424167, "tags": {"alt_name": "\u0627\u0644\u0639\u064a\u0648\u0629", "int_name": "Al A\u012bwah, Al Aiwah", "is_in": "Iraq , \u062c\u0645\u0647\u0648\u0631\u064a\u0629 \u0627\u0644\u0639\u0631\u0627\u0642", "name": "\u0627\u0644\u0639\u064a\u0648\u0629", "name:ar": "\u0627\u0644\u0639\u0644\u0648\u0647", "name:ar1": "\u0627\u0644\u0639\u064a\u0648\u0629", "name:de": "Al Aiwah", "name:en": "Al Aiwah", "name:fr": "Al Aiwah", "place": "village"}}, {"type": "node", "id": 4389450002, "lat": 30.9485158, "lon": 47.2655388, "tags": {"alt_name": "Al Madina, Al Mad\u012bnah, Medina, Medineh, \u0627\u0644\u0645\u062f\u064a\u0646\u0629, Al Madina, Al Madinah, Medina, Medineh, \u0627\u0644\u0645\u062f\u064a\u0646\u0629", "capital": "6", "description": "\u0642\u064e\u0636\u0627\u0621\u064f \u0627\u0644\u0645\u064f\u062f\u064e\u064a\u0652\u0646\u064e\u0629 \u0647\u0648 \u0623\u062d\u062f \u0623\u0642\u0636\u064a\u0629 \u0645\u062d\u0627\u0641\u0638\u0629 \u0627\u0644\u0628\u0635\u0631\u0629\u060c \u0648\u064a\u0642\u0639 \u0625\u0644\u0649 \u0627\u0644\u0634\u0645\u0627\u0644 \u0645\u0646 \u0645\u0631\u0643\u0632 \u0645\u062f\u064a\u0646\u0629 \u0627\u0644\u0628\u0635\u0631\u0629\u060c \u0646\u0634\u0623\u062a \u0639\u0644\u0649 \u0631\u0643\u0627\u0645 \u0623\u062b\u0631\u064a\u0651 \u0644\u0645\u062f\u064a\u0646\u0629 \u0633\u0648\u0645\u0631\u064a\u0629 \u0645\u0646\u062f\u0631\u0633\u0629 \u0648\u0633\u0637 \u0628\u0637\u064a\u062d\u0629 \u0627\u0644\u0628\u0635\u0631\u0629 \u062d\u062a\u0649 \u0623\u0635\u0628\u062d\u062a \u062d\u0627\u0636\u0631\u0629 \u0645\u0646\u0637\u0642\u0629 \u0627\u0644\u062c\u0632\u0627\u0626\u0631 \u0642\u0628\u0644 \u0623\u0644\u0641 \u0639\u0627\u0645.", "int_name": "Al-Madina, \u0627\u0644\u0645\u062f\u064a\u0646\u0629", "is_in": "Iraq , \u062c\u0645\u0647\u0648\u0631\u064a\u0629 \u0627\u0644\u0639\u0631\u0627\u0642", "is_in:country": "Iraq", "is_in:country_code": "IQ", "name": "\u0627\u0644\u0645\u062f\u064a\u0646\u0629", "name:ar": "\u0627\u0644\u0645\u062f\u064a\u0646\u0629", "name:de": "Al-Madina", "name:en": "Al-Midaina", "name:es": "Al-Madina", "name:fr": "Al-Madina", "name:ru": "\u042d\u043b\u044c-\u041c\u0430\u0434\u0438\u043d\u0430", "place": "town", "population": "\u0662\u0665\u0665\u0660\u0660\u0660 \u0646\u0633\u0645\u0647 \u062d\u0633\u0628 \u0627\u062d\u0635\u0627\u0626\u064a\u0627\u062a \u0662\u0660\u0661\u0664", "population:date": "\u0661\u0665\u0667\u0664\u0645", "source:population": "wikipedia", "wikidata": "Q28221125", "wikipedia": "ar:\u0642\u0636\u0627\u0621 \u0627\u0644\u0645\u062f\u064a\u0646\u0629?wprov=sfti1"}}, {"type": "node", "id": 7140661692, "lat": 31.0225893, "lon": 47.4258958, "tags": {"addr:street": "\u0634\u0627\u0631\u0639 \u0661", "name": "\u062d\u064a \u0627\u0644\u062d\u0633\u064a\u0646", "place": "village", "population": "100000", "postal_code": "61016"}}, {"type": "node", "id": 7140661693, "lat": 31.0209926, "lon": 47.43016}, {"type": "node", "id": 7140661694, "lat": 31.0224007, "lon": 47.4195448}, {"type": "node", "id": 7140661695, "lat": 31.0244234, "lon": 47.4206598}, {"type": "node", "id": 7140661696, "lat": 31.0263421, "lon": 47.4215187}, {"type": "node", "id": 7140661697, "lat": 31.0287592, "lon": 47.4227143}, {"type": "node", "id": 7140661698, "lat": 31.0286952, "lon": 47.4301863}, {"type": "node", "id": 7899327574, "lat": 31.0311294, "lon": 47.4272055, "tags": {"name": "\u0627\u0644\u0646\u0647\u064a\u0631\u0627\u062a \u0627\u0644\u0634\u0645\u0627\u0644\u064a\u0629", "place": "village"}}, {"type": "node", "id": 7899817718, "lat": 31.019916, "lon": 47.4333574, "tags": {"name": "\u0627\u0644\u0646\u0647\u064a\u0631\u0627\u062a", "place": "village"}}, {"type": "node", "id": 7900552920, "lat": 31.0064913, "lon": 47.4222682, "tags": {"name": "\u062d\u064a \u0627\u0644\u0633\u0644\u0627\u0645", "place": "village"}}, {"type": "node", "id": 7900578919, "lat": 31.0108519, "lon": 47.4289263, "tags": {"name": "\u0627\u0644\u0646\u0635\u064a\u0631", "place": "village"}}, {"type": "node", "id": 7902262976, "lat": 31.0394911, "lon": 47.4293439, "tags": {"name": "\u0627\u0644\u062e\u064a\u0648\u0637", "place": "village"}}, {"type": "node", "id": 7902318795, "lat": 30.9810216, "lon": 47.4469634, "tags": {"name": "\u0627\u0644\u0634\u0631\u0634", "place": "village"}}, {"type": "node", "id": 7941596885, "lat": 30.932414, "lon": 47.2359487, "tags": {"name": "\u0627\u0644\u062c\u0644\u0627\u0644", "name:ar": "\u0627\u0644\u062c\u0644\u0627\u0644", "name:en": "Al-Jalal", "place": "village"}}, {"type": "node", "id": 11310607340, "lat": 30.9267259, "lon": 47.2893354, "tags": {"name": "\u0627\u0644\u062e\u0636\u0631", "name:ar": "Al-Khader", "name:de": "Al-Khader", "name:fa": "\u0627\u0644\u062e\u0627\u062f\u0631", "name:fr": "Al-Khader", "place": "village"}}, {"type": "node", "id": 11310607341, "lat": 30.927116, "lon": 47.2956395, "tags": {"name": "\u0627\u0644\u0631\u062d\u0645\u0627\u0646\u064a\u0629", "name:en": "Al-Rahmaniyah", "place": "village"}}, {"type": "node", "id": 11310607342, "lat": 30.9174315, "lon": 47.2834312, "tags": {"description": "\u0639\u0634\u0627\u0626\u0631 \u0627\u0644\u062d\u0644\u0627\u0641 \u0645\u0646 \u0623\u0642\u062f\u0645 \u0627\u0644\u0639\u0634\u0627\u0626\u0631 \u0627\u0644\u062a\u064a \u0633\u0643\u0646\u062a \u0645\u0646\u0637\u0642\u0629 \u0627\u0644\u062c\u0632\u0627\u0626\u0631 \u0641\u064a \u0646\u0647\u0631 \u0639\u0646\u062a\u0631 \u0648\u0647\u064a \u0627\u0644\u0623\u0635\u0644 \u0641\u064a\u0647\u0627 \u0648\u062b\u0645 \u062a\u0641\u0631\u0639\u062a \u0625\u0644\u0649 \u0628\u0627\u0642\u064a \u0645\u0646\u0627\u0637\u0642 \u0627\u0644\u0628\u0635\u0631\u0629 \u0648\u0645\u062f\u0646 \u0627\u0644\u0639\u0631\u0627\u0642 \u0648\u062e\u0627\u0631\u062c \u0627\u0644\u0639\u0631\u0627\u0642 \u0627\u063a\u0644\u0628 \u0639\u0634\u0627\u0626\u0631 \u0627\u0644\u062d\u0644\u0627\u0641 \u062a\u0646\u062a\u0633\u0628 \u0625\u0644\u0649 \u0631\u0628\u064a\u0639\u0629 \u0645\u0646 \u0628\u0643\u0631 \u0628\u0646 \u0648\u0627\u0626\u0644 \u0645\u0646 \u0628\u0637\u0648\u0646 \u0628\u0646\u064a \u0634\u064a\u0628\u0627\u0646 \u0648\u062c\u062f \u0627\u0644\u062d\u0644\u0627\u0641 \u0647\u0648 \u0627\u0644\u0623\u0645\u064a\u0631 \u0645\u062e\u0632\u0648\u0645 \u0628\u0646 \u0639\u0627\u0645\u0631 \u0628\u0646 \u062e\u0632\u064a\u0645\u0629 \u0627\u0644\u0631\u0628\u064a\u0639\u064a", "name": "\u0627\u0644\u062d\u0644\u0627\u0641", "name:af": "Al-Hallaf", "name:ar": "\u0627\u0644\u062d\u0644\u0627\u0641", "name:de": "Al-Hallaf", "name:en": "Al-Hallaf", "name:es": "Al-Hallaf", "name:fa": "\u0627\u0644\u062d\u0644\u0627\u0641", "name:fr": "d'Al-Hallaf", "name:hi": "\u0905\u0932-\u0939\u0932\u094d\u0932\u093e\u092b\u093c", "name:it": "Al-Hallaf", "name:ja": "\u30a2\u30eb\u30fb\u30cf\u30e9\u30d5", "name:ko": "\uc54c \ud560\ub77c\ud504", "name:pt": "Al Hallaf", "name:ru": "\u0410\u043b\u044c-\u0425\u0430\u043b\u043b\u0430\u0444", "name:tr": "Hallaf", "name:zh-Hans": "\u200f\u54c8\u62c9\u592b", "place": "village"}}, {"type": "node", "id": 11413460989, "lat": 30.9380816, "lon": 47.2784714, "tags": {"name": "\u0627\u0644\u062e\u0644\u064a\u0641\u0629", "name:ar": "\u0627\u0644\u062e\u0644\u064a\u0641\u0629", "name:en": "Al Calipha", "place": "village"}}, {"type": "node", "id": 11413460990, "lat": 30.9284073, "lon": 47.2716161, "tags": {"name": "\u0627\u0644\u0648\u062d\u064a\u062f", "name:ar": "\u0627\u0644\u0648\u062d\u064a\u062f", "name:en": "Al Wahid", "place": "village"}}, {"type": "node", "id": 11413460991, "lat": 30.9264013, "lon": 47.2634907, "tags": {"name": "\u0627\u0644\u0634\u0627\u0647\u064a\u0646", "name:ar": "\u0627\u0644\u0634\u0627\u0647\u064a\u0646", "name:en": "Al Shaheen", "place": "village"}}, {"type": "node", "id": 11413460992, "lat": 30.9260231, "lon": 47.2591629, "tags": {"name": "\u0627\u0644\u0628\u0648\u062d\u0644\u0648\u0647", "name:ar": "\u0627\u0644\u0628\u0648\u062d\u0644\u0648\u0647", "name:en": "Al Buhalwa", "place": "village"}}, {"type": "node", "id": 11413460993, "lat": 30.9349855, "lon": 47.2477019, "tags": {"name": "\u0627\u0644\u0646\u0635\u064a\u0631\u064a", "name:ar": "\u0627\u0644\u0646\u0635\u064a\u0631\u064a", "name:en": "Al Nasiri", "place": "village"}}, {"type": "node", "id": 11413460994, "lat": 30.9357619, "lon": 47.2413973, "tags": {"name": "\u0627\u0644\u0633\u0648\u062f\u0627\u0646", "name:ar": "\u0627\u0644\u0633\u0648\u062f\u0627\u0646", "name:en": "Al Sudan", "place": "village"}}, {"type": "node", "id": 11413460995, "lat": 30.9368871, "lon": 47.2347413, "tags": {"name": "\u0627\u0644\u062c\u0646\u0627\u0646\u064a\u0629", "name:ar": "\u0627\u0644\u062c\u0646\u0627\u0646\u064a\u0629", "name:en": "Al Jananiya", "place": "village"}}, {"type": "node", "id": 11413460996, "lat": 30.9418206, "lon": 47.2477441, "tags": {"name": "\u0627\u0644\u0645\u064a\u0631 \u0639\u062b\u0645\u0627\u0646", "name:ar": "\u0627\u0644\u0645\u064a\u0631 \u0639\u062b\u0645\u0627\u0646", "name:en": "Al Mir Othman", "place": "village"}}, {"type": "node", "id": 11413460997, "lat": 30.9404216, "lon": 47.2656451, "tags": {"name": "\u0627\u0644\u063a\u062f\u064a\u0631", "name:ar": "\u0627\u0644\u063a\u062f\u064a\u0631", "name:en": "Al Ghadeer", "place": "village"}}, {"type": "node", "id": 11413460998, "lat": 30.9447763, "lon": 47.2723498, "tags": {"name": "\u0627\u0644\u0634\u0647\u062f\u0627\u0621", "name:ar": "\u0627\u0644\u0634\u0647\u062f\u0627\u0621", "name:en": "Al Shuhada", "place": "village"}}, {"type": "node", "id": 11413460999, "lat": 30.9422592, "lon": 47.2798144, "tags": {"name": "\u0627\u0644\u0633\u0648\u0627\u062f", "name:ar": "\u0627\u0644\u0633\u0648\u0627\u062f", "name:en": "Al Sawad", "place": "village"}}, {"type": "node", "id": 11413461000, "lat": 30.9459378, "lon": 47.2792303, "tags": {"name": "\u0627\u0644\u062d\u0633\u064a\u0646", "name:ar": "\u0627\u0644\u062d\u0633\u064a\u0646", "name:en": "Al Hussein", "place": "village"}}, {"type": "node", "id": 11413461001, "lat": 30.9492769, "lon": 47.2783048, "tags": {"name": "\u0627\u0644\u0633\u0639\u064a\u062f", "name:ar": "\u0627\u0644\u0633\u0639\u064a\u062f", "name:en": "Al Saeed", "place": "village"}}, {"type": "node", "id": 11413461002, "lat": 30.9501838, "lon": 47.2711549, "tags": {"name": "\u0627\u0644\u0643\u0635\u0648\u0627\u0646", "name:ar": "\u0627\u0644\u0643\u0635\u0648\u0627\u0646", "name:en": "Al Kasswan", "place": "village"}}, {"type": "node", "id": 11413461003, "lat": 30.9563397, "lon": 47.2664833, "tags": {"name": "\u0627\u0644\u062c\u0632\u0631\u0629", "name:ar": "\u0627\u0644\u062c\u0632\u0631\u0629", "name:en": "Al Jazra", "place": "village"}}, {"type": "node", "id": 11413476396, "lat": 30.9242711, "lon": 47.3082939, "tags": {"name": "\u0627\u0644\u0686\u0631\u064a", "name:ar": "\u0627\u0644\u0686\u0631\u064a", "name:en": "Al Jari", "place": "village"}}, {"type": "way", "id": 764335969, "nodes": [7140661693, 7140661694, 7140661695, 7140661696, 7140661697, 7140661698, 7140661693], "tags": {"name": "\u062d\u064a \u0627\u0644\u062c\u0645\u0639\u0629", "name:ar": "\u0627\u0644\u0646\u0647\u064a\u0631\u0627\u062a", "name:en": "Nahairat", "place": "village"}}]}