{"version": 0.6, "generator": "Overpass API 0.7.61.5 4133829e", "osm3s": {"timestamp_osm_base": "2024-03-06T11:18:45Z", "copyright": "The data included in this document is from www.openstreetmap.org. The data is made available under ODbL."}, "elements": [{"type": "node", "id": 2488323376, "lat": 35.029612, "lon": 41.345257, "tags": {"alt_name": "\u0627\u0644\u0639\u0648\u064a\u0646\u0629", "int_name": "Al Aw\u012bnah, \u0627\u0644\u0639\u0648\u064a\u0646\u0629, Al Awinah, \u0627\u0644\u0639\u0648\u064a\u0646\u0629", "is_in": "Iraq , \u062c\u0645\u0647\u0648\u0631\u064a\u0629 \u0627\u0644\u0639\u0631\u0627\u0642", "name": "\u0627\u0644\u0639\u0648\u064a\u0646\u0629", "name:ar": "\u0627\u0644\u0639\u0648\u064a\u0646\u0629", "name:ar1": "\u0627\u0644\u0639\u0648\u064a\u0646\u0629", "name:de": "Al Awinah", "name:en": "Al Awinah", "name:fr": "Al Awinah", "place": "village"}}, {"type": "node", "id": 2488323398, "lat": 35.1350461, "lon": 41.3757272, "tags": {"alt_name": "\u0637\u0631\u0641\u0627\u0648\u064a", "int_name": "\u0162arf\u0101w\u012b, \u0637\u0631\u0641\u0627\u0648\u064a, Tarfawi, \u0637\u0631\u0641\u0627\u0648\u064a", "is_in": "Iraq , \u062c\u0645\u0647\u0648\u0631\u064a\u0629 \u0627\u0644\u0639\u0631\u0627\u0642", "name": "\u0637\u0631\u0641\u0627\u0648\u064a", "name:ar": "\u0637\u0631\u0641\u0627\u0648\u064a", "name:ar1": "\u0637\u0631\u0641\u0627\u0648\u064a", "name:de": "Tarfawi", "name:en": "Tarfawi", "name:fr": "Tarfawi", "place": "village"}}, {"type": "node", "id": 2488323399, "lat": 35.1352943, "lon": 41.375174, "tags": {"alt_name": "\u0637\u0631\u064a\u0641\u0627\u0648\u064a", "int_name": "\u0162ar\u012bf\u0101w\u012b, \u0637\u0631\u064a\u0641\u0627\u0648\u064a, Tarifawi, \u0637\u0631\u064a\u0641\u0627\u0648\u064a", "is_in": "Iraq , \u062c\u0645\u0647\u0648\u0631\u064a\u0629 \u0627\u0644\u0639\u0631\u0627\u0642", "name": "\u0637\u0631\u064a\u0641\u0627\u0648\u064a", "name:ar": "\u0637\u0631\u064a\u0641\u0627\u0648\u064a", "name:ar1": "\u0637\u0631\u064a\u0641\u0627\u0648\u064a", "name:de": "Tarifawi", "name:en": "Tarifawi", "name:fr": "Tarifawi", "place": "village"}}, {"type": "node", "id": 2488324078, "lat": 35.036528, "lon": 41.551275, "tags": {"alt_name": "\u0623\u0628\u062c\u0627\u0631\u064a", "int_name": "Abj\u0101r\u012b, \u0627\u0628\u062c\u0627\u0631\u064a, Abjari, \u0627\u0628\u062c\u0627\u0631\u064a", "is_in": "Iraq , \u062c\u0645\u0647\u0648\u0631\u064a\u0629 \u0627\u0644\u0639\u0631\u0627\u0642", "name": "\u0623\u0628\u062c\u0627\u0631\u064a", "name:ar": "\u0623\u0628\u062c\u0627\u0631\u064a", "name:ar1": "\u0623\u0628\u062c\u0627\u0631\u064a", "name:de": "Abjari", "name:en": "Abjari", "name:fr": "Abjari", "place": "village"}}, {"type": "node", "id": 2488324079, "lat": 35.017099, "lon": 41.628381, "tags": {"alt_name": "\u0623\u0628\u0648 \u0646\u062d\u0637\u0629", "int_name": "Ab\u016b Na\u1e29\u0163ah, \u0627\u0628\u0648 \u0646\u062d\u0637\u0629, Abu Nahtah, \u0627\u0628\u0648 \u0646\u062d\u0637\u0629", "is_in": "Iraq , \u062c\u0645\u0647\u0648\u0631\u064a\u0629 \u0627\u0644\u0639\u0631\u0627\u0642", "name": "\u0623\u0628\u0648 \u0646\u062d\u0637\u0629", "name:ar": "\u0623\u0628\u0648 \u0646\u062d\u0637\u0629", "name:ar1": "\u0623\u0628\u0648 \u0646\u062d\u0637\u0629", "name:de": "Abu Nahtah", "name:en": "Abu Nahtah", "name:fr": "Abu Nahtah", "place": "village"}}, {"type": "node", "id": 2488324082, "lat": 34.894497, "lon": 41.651591, "tags": {"alt_name": "\u0623\u0628\u0648 \u0637\u0631\u0641\u0629", "int_name": "Ab\u016b \u0162arfah, \u0627\u0628\u0648 \u0637\u0631\u0641\u0629, Abu Tarfah, \u0627\u0628\u0648 \u0637\u0631\u0641\u0629", "is_in": "Iraq , \u062c\u0645\u0647\u0648\u0631\u064a\u0629 \u0627\u0644\u0639\u0631\u0627\u0642", "name": "\u0623\u0628\u0648 \u0637\u0631\u0641\u0629", "name:ar": "\u0623\u0628\u0648 \u0637\u0631\u0641\u0629", "name:ar1": "\u0623\u0628\u0648 \u0637\u0631\u0641\u0629", "name:de": "Abu Tarfah", "name:en": "Abu Tarfah", "name:fr": "Abu Tarfah", "place": "village"}}, {"type": "node", "id": 2488324083, "lat": 35.011488, "lon": 41.566735, "tags": {"alt_name": "\u0623\u0628\u0648 \u0632\u0644\u0629", "int_name": "Ab\u016b Zallah, \u0627\u0628\u0648 \u0632\u0644\u0647, Abu Zallah, \u0627\u0628\u0648 \u0632\u0644\u0647", "is_in": "Iraq , \u062c\u0645\u0647\u0648\u0631\u064a\u0629 \u0627\u0644\u0639\u0631\u0627\u0642", "name": "\u0623\u0628\u0648 \u0632\u0644\u0629", "name:ar": "\u0623\u0628\u0648 \u0632\u0644\u0629", "name:ar1": "\u0623\u0628\u0648 \u0632\u0644\u0629", "name:de": "Abu Zallah", "name:en": "Abu Zallah", "name:fr": "Abu Zallah", "place": "village"}}, {"type": "node", "id": 2488324084, "lat": 35.029259, "lon": 41.77448, "tags": {"alt_name": "\u0627\u0644\u062f\u062e\u0648\u0644", "int_name": "Ad Dukh\u016bl, \u0627\u0644\u062f\u062e\u0648\u0644, Ad Dukhul, \u0627\u0644\u062f\u062e\u0648\u0644", "is_in": "Iraq , \u062c\u0645\u0647\u0648\u0631\u064a\u0629 \u0627\u0644\u0639\u0631\u0627\u0642", "name": "\u0627\u0644\u062f\u062e\u0648\u0644", "name:ar": "\u0627\u0644\u062f\u062e\u0648\u0644", "name:ar1": "\u0627\u0644\u062f\u062e\u0648\u0644", "name:de": "Ad Dukhul", "name:en": "Ad Dukhul", "name:fr": "Ad Dukhul", "place": "village"}}, {"type": "node", "id": 2488324086, "lat": 34.935998, "lon": 41.7977937, "tags": {"alt_name": "\u0627\u0644\u0639\u0645\u0649", "int_name": "Al Am\u00e1, Al Ama", "is_in": "Iraq , \u062c\u0645\u0647\u0648\u0631\u064a\u0629 \u0627\u0644\u0639\u0631\u0627\u0642", "name": "\u0627\u0644\u0639\u0645\u0649", "name:ar": "\u0627\u0644\u0639\u0645\u0649", "name:ar1": "\u0627\u0644\u0639\u0645\u0649", "name:de": "Al Ama", "name:en": "Al Ama", "name:fr": "Al Ama", "place": "village"}}, {"type": "node", "id": 2488324090, "lat": 34.967054, "lon": 41.775265, "tags": {"alt_name": "\u0623\u0645\u0648\u064a\u0644\u062d\u0629", "int_name": "Amw\u012bl\u1e29ah, \u0627\u0645\u0648\u064a\u0644\u062d\u0629, Amwilhah, \u0627\u0645\u0648\u064a\u0644\u062d\u0629", "is_in": "Iraq , \u062c\u0645\u0647\u0648\u0631\u064a\u0629 \u0627\u0644\u0639\u0631\u0627\u0642", "name": "\u0623\u0645\u0648\u064a\u0644\u062d\u0629", "name:ar": "\u0623\u0645\u0648\u064a\u0644\u062d\u0629", "name:ar1": "\u0623\u0645\u0648\u064a\u0644\u062d\u0629", "name:de": "Amwilhah", "name:en": "Amwilhah", "name:fr": "Amwilhah", "place": "village"}}, {"type": "node", "id": 2488324091, "lat": 34.951638, "lon": 41.663245, "tags": {"alt_name": "\u0627\u0644\u0631\u063a\u0627\u064a", "int_name": "Ar Ragh\u0101y, \u0627\u0644\u0631\u063a\u0627\u064a, Ar Raghay, \u0627\u0644\u0631\u063a\u0627\u064a", "is_in": "Iraq , \u062c\u0645\u0647\u0648\u0631\u064a\u0629 \u0627\u0644\u0639\u0631\u0627\u0642", "name": "\u0627\u0644\u0631\u063a\u0627\u064a", "name:ar": "\u0627\u0644\u0631\u063a\u0627\u064a", "name:ar1": "\u0627\u0644\u0631\u063a\u0627\u064a", "name:de": "Ar Raghay", "name:en": "Ar Raghay", "name:fr": "Ar Raghay", "place": "village"}}, {"type": "node", "id": 2488324092, "lat": 35.061058, "lon": 41.55563, "tags": {"alt_name": "\u0639\u0634\u0648\u0629", "int_name": "Ashwah, \u0639\u0634\u0648\u0647, Ashwah, \u0639\u0634\u0648\u0647", "is_in": "Iraq , \u062c\u0645\u0647\u0648\u0631\u064a\u0629 \u0627\u0644\u0639\u0631\u0627\u0642", "name": "\u0639\u0634\u0648\u0629", "name:ar": "\u0639\u0634\u0648\u0629", "name:ar1": "\u0639\u0634\u0648\u0629", "name:de": "Ashwah", "name:en": "Ashwah", "name:fr": "Ashwah", "place": "village"}}, {"type": "node", "id": 2488324093, "lat": 34.952622, "lon": 41.501295, "tags": {"alt_name": "\u0623\u0637\u0628\u064a\u0644\u0629", "int_name": "A\u0163baylah, \u0627\u0637\u0628\u064a\u0644\u0629, Atbaylah, \u0627\u0637\u0628\u064a\u0644\u0629", "is_in": "Iraq , \u062c\u0645\u0647\u0648\u0631\u064a\u0629 \u0627\u0644\u0639\u0631\u0627\u0642", "name": "\u0623\u0637\u0628\u064a\u0644\u0629", "name:ar": "\u0623\u0637\u0628\u064a\u0644\u0629", "name:ar1": "\u0623\u0637\u0628\u064a\u0644\u0629", "name:de": "Atbaylah", "name:en": "Atbaylah", "name:fr": "Atbaylah", "place": "village"}}, {"type": "node", "id": 2488324094, "lat": 34.98591, "lon": 41.696422, "tags": {"alt_name": "\u0623\u0637\u0628\u064a\u0644\u0627\u062a \u0627\u0644\u0631\u063a\u0627\u064a", "int_name": "A\u0163bayl\u0101t ar Ragh\u0101y, \u0627\u0637\u0628\u064a\u0644\u0627\u062a \u0627\u0644\u0631\u063a\u0627\u064a, Atbaylat ar Raghay, \u0627\u0637\u0628\u064a\u0644\u0627\u062a \u0627\u0644\u0631\u063a\u0627\u064a", "is_in": "Iraq , \u062c\u0645\u0647\u0648\u0631\u064a\u0629 \u0627\u0644\u0639\u0631\u0627\u0642", "name": "\u0623\u0637\u0628\u064a\u0644\u0627\u062a \u0627\u0644\u0631\u063a\u0627\u064a", "name:ar": "\u0623\u0637\u0628\u064a\u0644\u0627\u062a \u0627\u0644\u0631\u063a\u0627\u064a", "name:ar1": "\u0623\u0637\u0628\u064a\u0644\u0627\u062a \u0627\u0644\u0631\u063a\u0627\u064a", "name:de": "Atbaylat ar Raghay", "name:en": "Atbaylat ar Raghay", "name:fr": "Atbaylat ar Raghay", "place": "village"}}, {"type": "node", "id": 2488324097, "lat": 34.899219, "lon": 41.599836, "tags": {"alt_name": "\u0628\u0626\u0631 \u062c\u0627\u0639\u062f", "int_name": "B\u012br J\u0101id, \u0628\u064a\u0631 \u062c\u0627\u0639\u062f, Bir Jaid, \u0628\u064a\u0631 \u062c\u0627\u0639\u062f", "is_in": "Iraq , \u062c\u0645\u0647\u0648\u0631\u064a\u0629 \u0627\u0644\u0639\u0631\u0627\u0642", "name": "\u0628\u0626\u0631 \u062c\u0627\u0639\u062f", "name:ar": "\u0628\u0626\u0631 \u062c\u0627\u0639\u062f", "name:ar1": "\u0628\u0626\u0631 \u062c\u0627\u0639\u062f", "name:de": "Bir Jaid", "name:en": "Bir Jaid", "name:fr": "Bir Jaid", "place": "village"}}, {"type": "node", "id": 2488324098, "lat": 34.79606, "lon": 41.646375, "tags": {"alt_name": "\u0641\u0644\u064a\u062d", "int_name": "Flay\u1e29, \u0641\u0644\u064a\u062d, Flayh, \u0641\u0644\u064a\u062d", "is_in": "Iraq , \u062c\u0645\u0647\u0648\u0631\u064a\u0629 \u0627\u0644\u0639\u0631\u0627\u0642", "name": "\u0641\u0644\u064a\u062d", "name:ar": "\u0641\u0644\u064a\u062d", "name:ar1": "\u0641\u0644\u064a\u062d", "name:de": "Flayh", "name:en": "Flayh", "name:fr": "Flayh", "place": "village"}}, {"type": "node", "id": 2488324099, "lat": 35.043471, "lon": 41.714549, "tags": {"alt_name": "\u0643\u0628\u064a\u0628\u0629", "int_name": "Kubaybah, \u0643\u0628\u064a\u0628\u0629, Kubaybah, \u0643\u0628\u064a\u0628\u0629", "is_in": "Iraq , \u062c\u0645\u0647\u0648\u0631\u064a\u0629 \u0627\u0644\u0639\u0631\u0627\u0642", "name": "\u0643\u0628\u064a\u0628\u0629", "name:ar": "\u0643\u0628\u064a\u0628\u0629", "name:ar1": "\u0643\u0628\u064a\u0628\u0629", "name:de": "Kubaybah", "name:en": "Kubaybah", "name:fr": "Kubaybah", "place": "village"}}, {"type": "node", "id": 2488324100, "lat": 35.003747, "lon": 41.836584, "tags": {"alt_name": "\u0643\u0648\u0637", "int_name": "K\u016b\u0163, \u0643\u0648\u0637, Kut, \u0643\u0648\u0637", "is_in": "Iraq , \u062c\u0645\u0647\u0648\u0631\u064a\u0629 \u0627\u0644\u0639\u0631\u0627\u0642", "name": "\u0643\u0648\u0637", "name:ar": "\u0643\u0648\u0637", "name:ar1": "\u0643\u0648\u0637", "name:de": "Kut", "name:en": "Kut", "name:fr": "Kut", "place": "village"}}, {"type": "node", "id": 2488324101, "lat": 34.81585, "lon": 41.544774, "tags": {"alt_name": "\u0645\u0627\u0644\u062d\u0629", "int_name": "M\u0101li\u1e29ah, \u0645\u0627\u0644\u062d\u0629, Malihah, \u0645\u0627\u0644\u062d\u0629", "is_in": "Iraq , \u062c\u0645\u0647\u0648\u0631\u064a\u0629 \u0627\u0644\u0639\u0631\u0627\u0642", "name": "\u0645\u0627\u0644\u062d\u0629", "name:ar": "\u0645\u0627\u0644\u062d\u0629", "name:ar1": "\u0645\u0627\u0644\u062d\u0629", "name:de": "Malihah", "name:en": "Malihah", "name:fr": "Malihah", "place": "village"}}, {"type": "node", "id": 2488324109, "lat": 34.877359, "lon": 41.741635, "tags": {"alt_name": "\u0634\u0631\u064a\u0639\u0629", "int_name": "Shar\u012bah, \u0634\u0631\u064a\u0639\u0629, Shariah, \u0634\u0631\u064a\u0639\u0629", "is_in": "Iraq , \u062c\u0645\u0647\u0648\u0631\u064a\u0629 \u0627\u0644\u0639\u0631\u0627\u0642", "name": "\u0634\u0631\u064a\u0639\u0629", "name:ar": "\u0634\u0631\u064a\u0639\u0629", "name:ar1": "\u0634\u0631\u064a\u0639\u0629", "name:de": "Shariah", "name:en": "Shariah", "name:fr": "Shariah", "place": "village"}}, {"type": "node", "id": 2488324110, "lat": 34.899665, "lon": 41.693875, "tags": {"alt_name": "\u0634\u0631\u064a\u0639\u0629", "int_name": "Shar\u012bah, \u0634\u0631\u064a\u0639\u0629, Shariah, \u0634\u0631\u064a\u0639\u0629", "is_in": "Iraq , \u062c\u0645\u0647\u0648\u0631\u064a\u0629 \u0627\u0644\u0639\u0631\u0627\u0642", "name": "\u0634\u0631\u064a\u0639\u0629", "name:ar": "\u0634\u0631\u064a\u0639\u0629", "name:ar1": "\u0634\u0631\u064a\u0639\u0629", "name:de": "Shariah", "name:en": "Shariah", "name:fr": "Shariah", "place": "village"}}, {"type": "node", "id": 2488324114, "lat": 34.9357809, "lon": 41.7976802, "tags": {"alt_name": "\u0627\u0644\u0627\u0639\u0645\u0649", "int_name": "\u0627\u0644\u0627\u0639\u0645\u0649, \u0627\u0644\u0627\u0639\u0645\u0649", "is_in": "Iraq , \u062c\u0645\u0647\u0648\u0631\u064a\u0629 \u0627\u0644\u0639\u0631\u0627\u0642", "name": "\u0627\u0644\u0627\u0639\u0645\u0649", "name:ar": "\u0627\u0644\u0627\u0639\u0645\u0649", "name:ar1": "\u0627\u0644\u0627\u0639\u0645\u0649", "name:de": "\u0627\u0644\u0627\u0639\u0645\u0649", "name:en": "The blind", "name:fr": "\u0627\u0644\u0627\u0639\u0645\u0649", "place": "village"}}, {"type": "node", "id": 2488327881, "lat": 34.765082, "lon": 41.395461, "tags": {"alt_name": "\u0623\u0628\u0648 \u0628\u0639\u064a\u0631", "int_name": "Ab\u016b Ba\u012br, \u0627\u0628\u0648 \u0628\u0639\u064a\u0631, Abu Bair, \u0627\u0628\u0648 \u0628\u0639\u064a\u0631", "is_in": "Iraq , \u062c\u0645\u0647\u0648\u0631\u064a\u0629 \u0627\u0644\u0639\u0631\u0627\u0642", "name": "\u0623\u0628\u0648 \u0628\u0639\u064a\u0631", "name:ar": "\u0623\u0628\u0648 \u0628\u0639\u064a\u0631", "name:ar1": "\u0623\u0628\u0648 \u0628\u0639\u064a\u0631", "name:de": "Abu Bair", "name:en": "Abu Bair", "name:fr": "Abu Bair", "place": "village"}}, {"type": "node", "id": 2488327883, "lat": 34.720932, "lon": 41.50804, "tags": {"alt_name": "\u0623\u0637\u0648\u064a\u0633\u0627\u0646", "int_name": "A\u0163uways\u0101n, \u0627\u0637\u0648\u064a\u0633\u0627\u0646, Atuwaysan, \u0627\u0637\u0648\u064a\u0633\u0627\u0646", "is_in": "Iraq , \u062c\u0645\u0647\u0648\u0631\u064a\u0629 \u0627\u0644\u0639\u0631\u0627\u0642", "name": "\u0623\u0637\u0648\u064a\u0633\u0627\u0646", "name:ar": "\u0623\u0637\u0648\u064a\u0633\u0627\u0646", "name:ar1": "\u0623\u0637\u0648\u064a\u0633\u0627\u0646", "name:de": "Atuwaysan", "name:en": "Atuwaysan", "name:fr": "Atuwaysan", "place": "village"}}]}