{"version": 0.6, "generator": "Overpass API 0.7.61.5 4133829e", "osm3s": {"timestamp_osm_base": "2024-03-05T13:43:59Z", "copyright": "The data included in this document is from www.openstreetmap.org. The data is made available under ODbL."}, "elements": [{"type": "node", "id": 4401188058, "lat": 36.0419725, "lon": 69.2488819, "tags": {"alt_name": "Khwajah Jiran;Khvajeh Jeyran;Khvajah Jeran;Khwaja Ejran;Khwaja Bahram", "name": "\u062e\u0648\u0627\u062c\u0647 \u062c\u06cc\u0631\u0627\u0646", "name:ar": "\u062e\u0648\u0627\u062c\u0629 \u062c\u064a\u0631\u0627\u0646", "name:en": "Khwaja Jiran", "name:ps": "\u062e\u0648\u0627\u062c\u0647 \u062c\u06cc\u0631\u0627\u0646", "place": "town", "source:name": "GNS"}}, {"type": "node", "id": 4401197005, "lat": 36.230045, "lon": 69.158096, "tags": {"alt_name": "Bay Tob", "name": "\u0628\u0627\u06cc \u062a\u0648\u0628", "name:en": "Batob", "name:ps": "\u0628\u0627\u06cc \u062a\u0648\u0628", "place": "village", "source:name": "GNS"}}, {"type": "node", "id": 4401197007, "lat": 36.2237253, "lon": 69.1526656, "tags": {"alt_name": "Barkah;Borkeh;Burka", "name": "\u0628\u0648\u0631\u06a9\u0647", "name:ar": "\u0628\u0648\u0631\u0643\u0647", "name:en": "Burkah", "name:ps": "\u0628\u0648\u0631\u06a9\u0647", "place": "town", "source:name": "GNS"}}, {"type": "node", "id": 4401258118, "lat": 36.064904, "lon": 69.13343, "tags": {"alt_name": "Narain;Narin", "name": "\u0646\u0647\u0631\u06cc\u0646", "name:ar": "\u0646\u0647\u0631\u064a\u0646", "name:en": "Nahrin", "name:ps": "\u0646\u0647\u0631\u06cc\u0646", "place": "town", "source:name": "GNS"}}, {"type": "node", "id": 8781167256, "lat": 36.3145027, "lon": 69.3931675, "tags": {"place": "hamlet"}}, {"type": "node", "id": 8781167265, "lat": 36.3217729, "lon": 69.3907642, "tags": {"place": "village"}}, {"type": "node", "id": 8781167281, "lat": 36.3513479, "lon": 69.3481332, "tags": {"place": "hamlet"}}, {"type": "node", "id": 8781174229, "lat": 36.337089, "lon": 69.3358862, "tags": {"place": "village"}}, {"type": "node", "id": 8781174230, "lat": 36.3305679, "lon": 69.3468243, "tags": {"place": "hamlet"}}]}