{"version": 0.6, "generator": "Overpass API 0.7.61.5 4133829e", "osm3s": {"timestamp_osm_base": "2024-03-06T11:17:45Z", "copyright": "The data included in this document is from www.openstreetmap.org. The data is made available under ODbL."}, "elements": [{"type": "node", "id": 248455761, "lat": 34.9123222, "lon": 43.4199399}, {"type": "node", "id": 248455762, "lat": 34.9127625, "lon": 43.4202607}, {"type": "node", "id": 248455763, "lat": 34.9140756, "lon": 43.4216254}, {"type": "node", "id": 248455764, "lat": 34.915013, "lon": 43.4225448}, {"type": "node", "id": 248455782, "lat": 34.9209235, "lon": 43.4151277}, {"type": "node", "id": 1437494609, "lat": 34.9138592, "lon": 43.4213614}, {"type": "node", "id": 1437494632, "lat": 34.9211102, "lon": 43.4148802}, {"type": "node", "id": 2488372257, "lat": 34.795424, "lon": 43.292319, "tags": {"alt_name": "\u0639\u0641\u062a\u0627\u0646 \u062e\u0644\u064a\u0641", "int_name": "Aft\u0101n Khal\u012bf, \u0639\u0641\u062a\u0627\u0646 \u062e\u0644\u064a\u0641, Aftan Khalif, \u0639\u0641\u062a\u0627\u0646 \u062e\u0644\u064a\u0641", "name": "\u0639\u0641\u062a\u0627\u0646 \u062e\u0644\u064a\u0641", "name:ar": "\u0639\u0641\u062a\u0627\u0646 \u062e\u0644\u064a\u0641", "name:ar1": "\u0639\u0641\u062a\u0627\u0646 \u062e\u0644\u064a\u0641", "name:de": "Aftan Khalif", "name:en": "Aftan Khalif", "name:fr": "Aftan Khalif", "place": "village"}}, {"type": "node", "id": 2488372259, "lat": 34.788603, "lon": 43.375038, "tags": {"alt_name": "\u0642\u0631\u064a\u0629 \u0627\u0644\u0639\u0648\u0627\u0642\u0644\u0629", "int_name": "AlAw\u0101qilah, Qaryat al Aw\u0101qilah, \u0642\u0631\u064a\u0629 \u0627\u0644\u0639\u0648\u0627\u0642\u0644\u0629, AlAwaqilah, Qaryat al Awaqilah, \u0642\u0631\u064a\u0629 \u0627\u0644\u0639\u0648\u0627\u0642\u0644\u0629", "name": "\u0642\u0631\u064a\u0629 \u0627\u0644\u0639\u0648\u0627\u0642\u0644\u0629", "name:ar": "\u0642\u0631\u064a\u0629 \u0627\u0644\u0646\u0648\u0627\u0641\u0644\u0629", "name:ar1": "\u0642\u0631\u064a\u0629 \u0627\u0644\u0639\u0648\u0627\u0642\u0644\u0629", "name:de": "AlAwaqilah", "name:en": "Alnwaqilah", "name:fr": "AlAwaqilah", "place": "village"}}, {"type": "node", "id": 2488372267, "lat": 34.773213, "lon": 43.381456, "tags": {"alt_name": "\u0628\u062f\u0639\u0627\u0646 \u062e\u0644\u064a\u0641", "int_name": "Bid\u0101n Khal\u012bf, \u0628\u062f\u0639\u0627\u0646 \u062e\u0644\u064a\u0641, Bidan Khalif, \u0628\u062f\u0639\u0627\u0646 \u062e\u0644\u064a\u0641", "name": "\u0628\u062f\u0639\u0627\u0646 \u062e\u0644\u064a\u0641", "name:ar": "\u0628\u062f\u0639\u0627\u0646 \u062e\u0644\u064a\u0641", "name:ar1": "\u0628\u062f\u0639\u0627\u0646 \u062e\u0644\u064a\u0641", "name:de": "Bidan Khalif", "name:en": "Bidan Khalif", "name:fr": "Bidan Khalif", "place": "village"}}, {"type": "node", "id": 2488372270, "lat": 34.789221, "lon": 43.335494, "tags": {"alt_name": "\u062d\u0645\u062f \u0627\u0644\u0645\u062d\u0645\u062f", "int_name": "\u1e28amad al Mu\u1e29ammad, \u062d\u0645\u062f \u0627\u0644\u0645\u062d\u0645\u062f, Hamad al Muhammad, \u062d\u0645\u062f \u0627\u0644\u0645\u062d\u0645\u062f", "name": "\u062d\u0645\u062f \u0627\u0644\u0645\u062d\u0645\u062f", "name:ar": "\u062d\u0645\u062f \u0627\u0644\u0645\u062d\u0645\u062f", "name:ar1": "\u062d\u0645\u062f \u0627\u0644\u0645\u062d\u0645\u062f", "name:de": "Hamad al Muhammad", "name:en": "Hamad al Muhammad", "name:fr": "Hamad al Muhammad", "place": "village"}}, {"type": "node", "id": 2488372281, "lat": 34.797896, "lon": 43.297848, "tags": {"alt_name": "\u0632\u0648\u064a\u062f \u0627\u0644\u062e\u0644\u064a\u0641", "int_name": "Zuwayd al Khal\u012bf, \u0632\u0648\u064a\u062f \u0627\u0644\u062e\u0644\u064a\u0641, Zuwayd al Khalif, \u0632\u0648\u064a\u062f \u0627\u0644\u062e\u0644\u064a\u0641", "name": "\u0632\u0648\u064a\u062f \u0627\u0644\u062e\u0644\u064a\u0641", "name:ar": "\u0632\u0648\u064a\u062f \u0627\u0644\u062e\u0644\u064a\u0641", "name:ar1": "\u0632\u0648\u064a\u062f \u0627\u0644\u062e\u0644\u064a\u0641", "name:de": "Zuwayd al Khalif", "name:en": "Zuwayd al Khalif", "name:fr": "Zuwayd al Khalif", "place": "village"}}, {"type": "node", "id": 2488372347, "lat": 34.761285, "lon": 43.450566, "tags": {"alt_name": "\u062f\u0631\u062c \u0631\u062f\u064a\u0646\u064a", "int_name": "Daraj Rad\u012bn\u012b, \u062f\u0631\u062c \u0631\u062f\u064a\u0646\u064a, Daraj Radini, \u062f\u0631\u062c \u0631\u062f\u064a\u0646\u064a", "name": "\u062f\u0631\u062c \u0631\u062f\u064a\u0646\u064a", "name:ar": "\u062f\u0631\u062c \u0631\u062f\u064a\u0646\u064a", "name:ar1": "\u062f\u0631\u062c \u0631\u062f\u064a\u0646\u064a", "name:de": "Daraj Radini", "name:en": "Daraj Radini", "name:fr": "Daraj Radini", "place": "village"}}, {"type": "node", "id": 2488372352, "lat": 34.761606, "lon": 43.435828, "tags": {"alt_name": "\u0645\u0634\u0639\u0627\u0646 \u062c\u0633\u0627\u0645", "int_name": "Mush\u0101n Jass\u0101m, \u0645\u0634\u0639\u0627\u0646 \u062c\u0633\u0627\u0645, Mushan Jassam, \u0645\u0634\u0639\u0627\u0646 \u062c\u0633\u0627\u0645", "name": "\u0645\u0634\u0639\u0627\u0646 \u062c\u0633\u0627\u0645", "name:ar": "\u0645\u0634\u0639\u0627\u0646 \u062c\u0633\u0627\u0645", "name:ar1": "\u0645\u0634\u0639\u0627\u0646 \u062c\u0633\u0627\u0645", "name:de": "Mushan Jassam", "name:en": "Mushan Jassam", "name:fr": "Mushan Jassam", "place": "village"}}, {"type": "node", "id": 2488372481, "lat": 34.7701775, "lon": 43.3973633, "tags": {"alt_name": "\u0639\u0631\u0628 \u062d\u0645\u0632\u0629 \u0627\u0644\u062c\u0633\u0627\u0645", "int_name": "Arab \u1e28amzah al Jass\u0101m, Arab Hamzah al Jassam", "name": "\u0639\u0631\u0628 \u062d\u0645\u0632\u0629 \u0627\u0644\u062c\u0633\u0627\u0645", "name:ar": "\u0639\u0631\u0628 \u062d\u0645\u0632\u0629 \u0627\u0644\u062c\u0633\u0627\u0645", "name:ar1": "\u0639\u0631\u0628 \u062d\u0645\u0632\u0629 \u0627\u0644\u062c\u0633\u0627\u0645", "name:de": "Arab Hamzah al Jassam", "name:en": "Arab Hamzah al Jassam", "name:fr": "Arab Hamzah al Jassam", "place": "village"}}, {"type": "node", "id": 2488372482, "lat": 34.808382, "lon": 43.413353, "tags": {"alt_name": "\u0627\u0644\u0635\u0641\u0627\u0648\u064a", "int_name": "A\u015f \u015eaf\u0101w\u012b, \u0627\u0644\u0635\u0641\u0627\u0648\u064a, As Safawi, \u0627\u0644\u0635\u0641\u0627\u0648\u064a", "name": "\u0627\u0644\u0635\u0641\u0627\u0648\u064a", "name:ar": "\u0627\u0644\u0635\u0641\u0627\u0648\u064a", "name:ar1": "\u0627\u0644\u0635\u0641\u0627\u0648\u064a", "name:de": "As Safawi", "name:en": "As Safawi", "name:fr": "As Safawi", "place": "village"}}, {"type": "node", "id": 2488372485, "lat": 34.769571, "lon": 43.425406, "tags": {"alt_name": "\u0630\u0647\u0628 \u0639\u0633\u0644", "int_name": "Dhahab Asal, \u0630\u0647\u0628 \u0639\u0633\u0644, Dhahab Asal, \u0630\u0647\u0628 \u0639\u0633\u0644", "name": "\u0630\u0647\u0628 \u0639\u0633\u0644", "name:ar": "\u0630\u0647\u0628 \u0639\u0633\u0644", "name:ar1": "\u0630\u0647\u0628 \u0639\u0633\u0644", "name:de": "Dhahab Asal", "name:en": "Dhahab Asal", "name:fr": "Dhahab Asal", "place": "village"}}, {"type": "node", "id": 2488372486, "lat": 34.783406, "lon": 43.447144, "tags": {"alt_name": "\u062e\u0644\u0641 \u0645\u062c\u064a\u062a", "int_name": "Khalaf Maj\u012bt, \u062e\u0644\u0641 \u0645\u062c\u064a\u062a, Khalaf Majit, \u062e\u0644\u0641 \u0645\u062c\u064a\u062a", "name": "\u062e\u0644\u0641 \u0645\u062c\u064a\u062a", "name:ar": "\u062e\u0644\u0641 \u0645\u062c\u064a\u062a", "name:ar1": "\u062e\u0644\u0641 \u0645\u062c\u064a\u062a", "name:de": "Khalaf Majit", "name:en": "Khalaf Majit", "name:fr": "Khalaf Majit", "place": "village"}}, {"type": "node", "id": 2488372487, "lat": 34.830694, "lon": 43.446007, "tags": {"alt_name": "\u0645\u0637\u0627\u0631 \u062d\u0645\u0627\u062f", "int_name": "Ma\u0163ar \u1e28am\u0101d, Matar Hamad", "name": "\u0645\u0637\u0627\u0631 \u062d\u0645\u0627\u062f", "name:ar": "\u0645\u0637\u0627\u0631 \u062d\u0645\u0627\u062f", "name:ar1": "\u0645\u0637\u0627\u0631 \u062d\u0645\u0627\u062f", "name:de": "Matar Hamad", "name:en": "Matar Hamad", "name:fr": "Matar Hamad", "place": "village"}}, {"type": "node", "id": 2488372489, "lat": 34.770518, "lon": 43.415451, "tags": {"alt_name": "\u0642\u0631\u064a\u0629 \u0623\u0628\u0648 \u0628\u0631\u0627\u0628\u064a\u062c", "int_name": "Qaryat Ab\u016b Bar\u0101b\u012bj, \u0642\u0631\u064a\u0629 \u0627\u0628\u0648 \u0628\u0631\u0627\u0628\u064a\u062c, Qaryat Abu Barabij, \u0642\u0631\u064a\u0629 \u0627\u0628\u0648 \u0628\u0631\u0627\u0628\u064a\u062c", "name": "\u0642\u0631\u064a\u0629 \u0623\u0628\u0648 \u0628\u0631\u0627\u0628\u064a\u062c", "name:ar": "\u0642\u0631\u064a\u0629 \u0623\u0628\u0648 \u0628\u0631\u0627\u0628\u064a\u062c", "name:ar1": "\u0642\u0631\u064a\u0629 \u0623\u0628\u0648 \u0628\u0631\u0627\u0628\u064a\u062c", "name:de": "Qaryat Abu Barabij", "name:en": "Qaryat Abu Barabij", "name:fr": "Qaryat Abu Barabij", "place": "village"}}, {"type": "node", "id": 2488372492, "lat": 34.803904, "lon": 43.421697, "tags": {"alt_name": "\u0635\u0627\u0644\u062d \u062d\u0645\u0632\u0629", "int_name": "\u015e\u0101li\u1e29 \u1e28amzah, \u0635\u0627\u0644\u062d \u062d\u0645\u0632\u0647, Salih Hamzah, \u0635\u0627\u0644\u062d \u062d\u0645\u0632\u0647", "name": "\u0635\u0627\u0644\u062d \u062d\u0645\u0632\u0629", "name:ar": "\u0635\u0627\u0644\u062d \u062d\u0645\u0632\u0629", "name:ar1": "\u0635\u0627\u0644\u062d \u062d\u0645\u0632\u0629", "name:de": "Salih Hamzah", "name:en": "Salih Hamzah", "name:fr": "Salih Hamzah", "place": "village"}}, {"type": "node", "id": 2488372497, "lat": 34.8303999, "lon": 43.4459756, "tags": {"alt_name": "\u0645\u0637\u0631 \u062d\u0645\u0627\u062f", "int_name": "\u0645\u0637\u0631 \u062d\u0645\u0627\u062f, \u0645\u0637\u0631 \u062d\u0645\u0627\u062f", "name": "\u0645\u0637\u0631 \u062d\u0645\u0627\u062f", "name:ar": "\u0645\u0637\u0631 \u062d\u0645\u0627\u062f", "name:ar1": "\u0645\u0637\u0631 \u062d\u0645\u0627\u062f", "name:de": "mattar hammad", "name:en": "mattar hammad", "name:fr": "mattar hammad", "place": "village"}}, {"type": "node", "id": 2488372956, "lat": 34.97835, "lon": 43.338775, "tags": {"alt_name": "\u0639\u0628\u0627\u0633 \u0645\u062e\u064a\u0644\u0641", "int_name": "Abb\u0101s Mukhaylif, \u0639\u0628\u0627\u0633 \u0645\u062e\u064a\u0644\u0641, Abbas Mukhaylif, \u0639\u0628\u0627\u0633 \u0645\u062e\u064a\u0644\u0641", "name": "\u0639\u0628\u0627\u0633 \u0645\u062e\u064a\u0644\u0641", "name:ar": "\u0639\u0628\u0627\u0633 \u0645\u062e\u064a\u0644\u0641", "name:ar1": "\u0639\u0628\u0627\u0633 \u0645\u062e\u064a\u0644\u0641", "name:de": "Abbas Mukhaylif", "name:en": "Abbas Mukhaylif", "name:fr": "Abbas Mukhaylif", "place": "village"}}, {"type": "node", "id": 2488372957, "lat": 34.975833, "lon": 43.298667, "tags": {"alt_name": "\u0639\u0628\u0627\u0633 \u0632\u064a\u0627\u0632", "int_name": "Abb\u0101s Ziy\u0101z, \u0639\u0628\u0627\u0633 \u0632\u064a\u0627\u0632, Abbas Ziyaz, \u0639\u0628\u0627\u0633 \u0632\u064a\u0627\u0632", "name": "\u0639\u0628\u0627\u0633 \u0632\u064a\u0627\u0632", "name:ar": "\u0639\u0628\u0627\u0633 \u0632\u064a\u0627\u0632", "name:ar1": "\u0639\u0628\u0627\u0633 \u0632\u064a\u0627\u0632", "name:de": "Abbas Ziyaz", "name:en": "Abbas Ziyaz", "name:fr": "Abbas Ziyaz", "place": "village"}}, {"type": "node", "id": 2488372958, "lat": 34.923613, "lon": 43.221562, "tags": {"alt_name": "\u0639\u0628\u062f \u0639\u0628\u0627\u0633 \u0647\u064a\u0641\u064a", "int_name": "Abd Abb\u0101s Hayf\u012b, \u0639\u0628\u062f \u0639\u0628\u0627\u0633 \u0647\u064a\u0641\u064a, Abd Abbas Hayfi, \u0639\u0628\u062f \u0639\u0628\u0627\u0633 \u0647\u064a\u0641\u064a", "name": "\u0639\u0628\u062f \u0639\u0628\u0627\u0633 \u0647\u064a\u0641\u064a", "name:ar": "\u0639\u0628\u062f \u0639\u0628\u0627\u0633 \u0647\u064a\u0641\u064a", "name:ar1": "\u0639\u0628\u062f \u0639\u0628\u0627\u0633 \u0647\u064a\u0641\u064a", "name:de": "Abd Abbas Hayfi", "name:en": "Abd Abbas Hayfi", "name:fr": "Abd Abbas Hayfi", "place": "village"}}, {"type": "node", "id": 2488372963, "lat": 34.967778, "lon": 43.239722, "tags": {"alt_name": "\u062d\u0645\u0648\u062f \u0627\u0644\u0645\u062d\u0645\u0648\u062f", "int_name": "\u1e28amm\u016bd al Ma\u1e29m\u016bd, Hammud al Mahmud", "name": "\u062d\u0645\u0648\u062f \u0627\u0644\u0645\u062d\u0645\u0648\u062f", "name:ar": "\u062d\u0645\u0648\u062f \u0627\u0644\u0645\u062d\u0645\u0648\u062f", "name:ar1": "\u062d\u0645\u0648\u062f \u0627\u0644\u0645\u062d\u0645\u0648\u062f", "name:de": "Hammud al Mahmud", "name:en": "Hammud al Mahmud", "name:fr": "Hammud al Mahmud", "place": "village"}}, {"type": "node", "id": 2488372964, "lat": 34.973135, "lon": 43.284386, "tags": {"alt_name": "\u062d\u0645\u0648\u062f \u0627\u0644\u0645\u062d\u0645\u0648\u062f", "int_name": "\u1e28am\u016bd al Ma\u1e29m\u016bd, \u062d\u0645\u0648\u062f \u0627\u0644\u0645\u062d\u0645\u0648\u062f, Hamud al Mahmud, \u062d\u0645\u0648\u062f \u0627\u0644\u0645\u062d\u0645\u0648\u062f", "name": "\u062d\u0645\u0648\u062f \u0627\u0644\u0645\u062d\u0645\u0648\u062f", "name:ar": "\u062d\u0645\u0648\u062f \u0627\u0644\u0645\u062d\u0645\u0648\u062f", "name:ar1": "\u062d\u0645\u0648\u062f \u0627\u0644\u0645\u062d\u0645\u0648\u062f", "name:de": "Hamud al Mahmud", "name:en": "Hamud al Mahmud", "name:fr": "Hamud al Mahmud", "place": "village"}}, {"type": "node", "id": 2488372965, "lat": 34.964288, "lon": 43.241397, "tags": {"alt_name": "\u062c\u0632\u0627\u0639 \u0645\u062d\u0645\u062f \u0645\u0635\u0644\u062d", "int_name": "Jazz\u0101 Mu\u1e29ammad Mu\u015fli\u1e29, \u062c\u0632\u0627\u0639 \u0645\u062d\u0645\u062f \u0645\u0635\u0644\u062d, Jazza Muhammad Muslih, \u062c\u0632\u0627\u0639 \u0645\u062d\u0645\u062f \u0645\u0635\u0644\u062d", "name": "\u062c\u0632\u0627\u0639 \u0645\u062d\u0645\u062f \u0645\u0635\u0644\u062d", "name:ar": "\u062c\u0632\u0627\u0639 \u0645\u062d\u0645\u062f \u0645\u0635\u0644\u062d", "name:ar1": "\u062c\u0632\u0627\u0639 \u0645\u062d\u0645\u062f \u0645\u0635\u0644\u062d", "name:de": "Jazza Muhammad Muslih", "name:en": "Jazza Muhammad Muslih", "name:fr": "Jazza Muhammad Muslih", "place": "village"}}, {"type": "node", "id": 2488372966, "lat": 34.9825, "lon": 43.188056, "tags": {"alt_name": "\u062c\u0632\u0627\u0639 \u0645\u062d\u0645\u062f \u0635\u0627\u0644\u062d", "int_name": "Juz\u0101 Mu\u1e29ammad \u015e\u0101li\u1e29, Juza Muhammad Salih", "name": "\u062c\u0632\u0627\u0639 \u0645\u062d\u0645\u062f \u0635\u0627\u0644\u062d", "name:ar": "\u062c\u0632\u0627\u0639 \u0645\u062d\u0645\u062f \u0635\u0627\u0644\u062d", "name:ar1": "\u062c\u0632\u0627\u0639 \u0645\u062d\u0645\u062f \u0635\u0627\u0644\u062d", "name:de": "Juza Muhammad Salih", "name:en": "Juza Muhammad Salih", "name:fr": "Juza Muhammad Salih", "place": "village"}}, {"type": "node", "id": 2488372968, "lat": 34.965659, "lon": 43.327999, "tags": {"alt_name": "\u062e\u0644\u064a\u0641 \u0627\u0644\u062c\u064a\u062a", "int_name": "Khulayf al J\u012bt, \u062e\u0644\u064a\u0641 \u0627\u0644\u062c\u064a\u062a, Khulayf al Jit, \u062e\u0644\u064a\u0641 \u0627\u0644\u062c\u064a\u062a", "name": "\u062e\u0644\u064a\u0641 \u0627\u0644\u062c\u064a\u062a", "name:ar": "\u062e\u0644\u064a\u0641 \u0627\u0644\u062c\u064a\u062a", "name:ar1": "\u062e\u0644\u064a\u0641 \u0627\u0644\u062c\u064a\u062a", "name:de": "Khulayf al Jit", "name:en": "Khulayf al Jit", "name:fr": "Khulayf al Jit", "place": "village"}}, {"type": "node", "id": 2488372969, "lat": 34.964479, "lon": 43.29163, "tags": {"alt_name": "\u0645\u0631\u064a\u062c\u0628", "int_name": "Marayjib, \u0645\u0631\u064a\u062c\u0628, Marayjib, \u0645\u0631\u064a\u062c\u0628", "name": "\u0645\u0631\u064a\u062c\u0628", "name:ar": "\u0645\u0631\u064a\u062c\u0628", "name:ar1": "\u0645\u0631\u064a\u062c\u0628", "name:de": "Marayjib", "name:en": "Marayjib", "name:fr": "Marayjib", "place": "village"}}, {"type": "node", "id": 2488372972, "lat": 34.921901, "lon": 43.237328, "tags": {"alt_name": "\u0642\u0631\u064a\u0629 \u0623\u0628\u0648 \u0643\u0635\u0628", "int_name": "Qaryat Ab\u016b Ki\u015fab, \u0642\u0631\u064a\u0629 \u0627\u0628\u0648 \u0643\u0635\u0628, Qaryat Abu Kisab, \u0642\u0631\u064a\u0629 \u0627\u0628\u0648 \u0643\u0635\u0628", "name": "\u0642\u0631\u064a\u0629 \u0623\u0628\u0648 \u0643\u0635\u0628", "name:ar": "\u0642\u0631\u064a\u0629 \u0623\u0628\u0648 \u0643\u0635\u0628", "name:ar1": "\u0642\u0631\u064a\u0629 \u0623\u0628\u0648 \u0643\u0635\u0628", "name:de": "Qaryat Abu Kisab", "name:en": "Qaryat Abu Kisab", "name:fr": "Qaryat Abu Kisab", "place": "village"}}, {"type": "node", "id": 2488372973, "lat": 34.983793, "lon": 43.190443, "tags": {"alt_name": "\u0642\u0631\u064a\u0629 \u062f\u0645\u0627\u0646\u0629", "int_name": "Qaryat Dam\u0101nah, \u0642\u0631\u064a\u0629 \u062f\u0645\u0627\u0646\u0647, Qaryat Damanah, \u0642\u0631\u064a\u0629 \u062f\u0645\u0627\u0646\u0647", "name": "\u0642\u0631\u064a\u0629 \u062f\u0645\u0627\u0646\u0629", "name:ar": "\u0642\u0631\u064a\u0629 \u062f\u0645\u0627\u0646\u0629", "name:ar1": "\u0642\u0631\u064a\u0629 \u062f\u0645\u0627\u0646\u0629", "name:de": "Qaryat Damanah", "name:en": "Qaryat Damanah", "name:fr": "Qaryat Damanah", "place": "village"}}, {"type": "node", "id": 2488372974, "lat": 34.960194, "lon": 43.240665, "tags": {"alt_name": "\u0642\u0631\u064a\u0629 \u0623\u0645 \u0630\u064a\u0627\u0628\u0629", "int_name": "Qaryat Umm Dhiy\u0101bah, \u0642\u0631\u064a\u0629 \u0627\u0645 \u0630\u064a\u0627\u0628\u0629, Qaryat Umm Dhiyabah, \u0642\u0631\u064a\u0629 \u0627\u0645 \u0630\u064a\u0627\u0628\u0629", "name": "\u0642\u0631\u064a\u0629 \u0623\u0645 \u0630\u064a\u0627\u0628\u0629", "name:ar": "\u0642\u0631\u064a\u0629 \u0623\u0645 \u0630\u064a\u0627\u0628\u0629", "name:ar1": "\u0642\u0631\u064a\u0629 \u0623\u0645 \u0630\u064a\u0627\u0628\u0629", "name:de": "Qaryat Umm Dhiyabah", "name:en": "Qaryat Umm Dhiyabah", "name:fr": "Qaryat Umm Dhiyabah", "place": "village"}}, {"type": "node", "id": 2488372975, "lat": 34.959664, "lon": 43.335337, "tags": {"alt_name": "\u0635\u0628\u0627\u0631 \u0627\u0644\u0639\u0628\u0627\u0633", "int_name": "\u015eabb\u0101r al Abb\u0101s, \u0635\u0628\u0627\u0631 \u0627\u0644\u0639\u0628\u0627\u0633, Sabbar al Abbas, \u0635\u0628\u0627\u0631 \u0627\u0644\u0639\u0628\u0627\u0633", "name": "\u0635\u0628\u0627\u0631 \u0627\u0644\u0639\u0628\u0627\u0633", "name:ar": "\u0635\u0628\u0627\u0631 \u0627\u0644\u0639\u0628\u0627\u0633", "name:ar1": "\u0635\u0628\u0627\u0631 \u0627\u0644\u0639\u0628\u0627\u0633", "name:de": "Sabbar al Abbas", "name:en": "Sabbar al Abbas", "name:fr": "Sabbar al Abbas", "place": "village"}}, {"type": "node", "id": 2488373231, "lat": 34.830014, "lon": 43.301062, "tags": {"alt_name": "\u0639\u0628\u0627\u0633 \u0627\u0644\u0637\u0631\u0627\u062f", "int_name": "Abb\u0101s a\u0163 \u0162arr\u0101d, \u0639\u0628\u0627\u0633 \u0627\u0644\u0637\u0631\u0627\u062f, Abbas at Tarrad, \u0639\u0628\u0627\u0633 \u0627\u0644\u0637\u0631\u0627\u062f", "name": "\u0639\u0628\u0627\u0633 \u0627\u0644\u0637\u0631\u0627\u062f", "name:ar": "\u0639\u0628\u0627\u0633 \u0627\u0644\u0637\u0631\u0627\u062f", "name:ar1": "\u0639\u0628\u0627\u0633 \u0627\u0644\u0637\u0631\u0627\u062f", "name:de": "Abbas at Tarrad", "name:en": "Abbas at Tarrad", "name:fr": "Abbas at Tarrad", "place": "village"}}, {"type": "node", "id": 2488373233, "lat": 34.813928, "lon": 43.309292, "tags": {"alt_name": "\u0639\u0644\u064a \u0639\u0628\u0648\u062f", "int_name": "Al\u012b Ab\u016bd, Al\u012bAbb\u016bd, \u0639\u0644\u064a \u0639\u0628\u0648\u062f, Ali Abud, AliAbbud, \u0639\u0644\u064a \u0639\u0628\u0648\u062f", "name": "\u0639\u0644\u064a \u0639\u0628\u0648\u062f", "name:ar": "\u0639\u0644\u064a \u0639\u0628\u0648\u062f", "name:ar1": "\u0639\u0644\u064a \u0639\u0628\u0648\u062f", "name:de": "Ali Abud", "name:en": "Ali Abud", "name:fr": "Ali Abud", "place": "village"}}, {"type": "node", "id": 2488373234, "lat": 34.86804, "lon": 43.286106, "tags": {"alt_name": "\u0628\u062f\u0648 \u0631\u062d\u0644", "int_name": "Bad\u016b Ra\u1e29al, \u0628\u062f\u0648 \u0631\u062d\u0644, Badu Rahal, \u0628\u062f\u0648 \u0631\u062d\u0644", "name": "\u0628\u062f\u0648 \u0631\u062d\u0644", "name:ar": "\u0628\u062f\u0648 \u0631\u062d\u0644", "name:ar1": "\u0628\u062f\u0648 \u0631\u062d\u0644", "name:de": "Badu Rahal", "name:en": "Badu Rahal", "name:fr": "Badu Rahal", "place": "village"}}, {"type": "node", "id": 2488373236, "lat": 34.82334, "lon": 43.320854, "tags": {"alt_name": "\u062f\u0631\u062c \u0627\u0644\u0636\u0627\u064a\u0639", "int_name": "Daraj a\u1e11 \u1e10\u0101yi, \u062f\u0631\u062c \u0627\u0644\u0636\u0627\u064a\u0639, Daraj ad Dayi, \u062f\u0631\u062c \u0627\u0644\u0636\u0627\u064a\u0639", "name": "\u062f\u0631\u062c \u0627\u0644\u0636\u0627\u064a\u0639", "name:ar": "\u062f\u0631\u062c \u0627\u0644\u0636\u0627\u064a\u0639", "name:ar1": "\u062f\u0631\u062c \u0627\u0644\u0636\u0627\u064a\u0639", "name:de": "Daraj ad Dayi", "name:en": "Daraj ad Dayi", "name:fr": "Daraj ad Dayi", "place": "village"}}, {"type": "node", "id": 2488373237, "lat": 34.857792, "lon": 43.334865, "tags": {"alt_name": "\u062d\u062c\u0648\u0629 \u062c\u0627\u0633\u0645", "int_name": "\u1e28ajuwat J\u0101sim, \u062d\u062c\u0648\u0629 \u062c\u0627\u0633\u0645, Hajuwat Jasim, \u062d\u062c\u0648\u0629 \u062c\u0627\u0633\u0645", "name": "\u062d\u062c\u0648\u0629 \u062c\u0627\u0633\u0645", "name:ar": "\u062d\u062c\u0648\u0629 \u062c\u0627\u0633\u0645", "name:ar1": "\u062d\u062c\u0648\u0629 \u062c\u0627\u0633\u0645", "name:de": "Hajuwat Jasim", "name:en": "Hajuwat Jasim", "name:fr": "Hajuwat Jasim", "place": "village"}}, {"type": "node", "id": 2488373241, "lat": 34.868705, "lon": 43.387536, "tags": {"alt_name": "\u0646\u0648\u0627\u0641 \u0627\u0644\u0639\u0628\u062f", "int_name": "Naw\u0101f al Abd, \u0646\u0648\u0627\u0641 \u0627\u0644\u0639\u0628\u062f, Nawaf al Abd, \u0646\u0648\u0627\u0641 \u0627\u0644\u0639\u0628\u062f", "name": "\u0646\u0648\u0627\u0641 \u0627\u0644\u0639\u0628\u062f", "name:ar": "\u0646\u0648\u0627\u0641 \u0627\u0644\u0639\u0628\u062f", "name:ar1": "\u0646\u0648\u0627\u0641 \u0627\u0644\u0639\u0628\u062f", "name:de": "Nawaf al Abd", "name:en": "Nawaf al Abd", "name:fr": "Nawaf al Abd", "place": "village"}}, {"type": "node", "id": 2488373242, "lat": 34.8538867, "lon": 43.3694486, "tags": {"alt_name": "\u0642\u0631\u064a\u0629 \u062a\u0644 \u0623\u0633\u0648\u062f", "int_name": "Qaryat Tall Aswad, Qaryat Tall Aswad", "name": "\u0642\u0631\u064a\u0629 \u062a\u0644 \u0623\u0633\u0648\u062f", "name:ar": "\u0642\u0631\u064a\u0629 \u062a\u0644 \u0623\u0633\u0648\u062f", "name:ar1": "\u0642\u0631\u064a\u0629 \u062a\u0644 \u0623\u0633\u0648\u062f", "name:de": "Qaryat Tall Aswad", "name:en": "Qaryat Tall Aswad", "name:fr": "Qaryat Tall Aswad", "place": "village"}}, {"type": "node", "id": 2488373243, "lat": 34.870224, "lon": 43.348097, "tags": {"alt_name": "\u0633\u062a\u0627\u0631 \u0644\u0637\u064a\u0641", "int_name": "Satt\u0101r La\u0163\u012bf, \u0633\u062a\u0627\u0631 \u0644\u0637\u064a\u0641, Sattar Latif, \u0633\u062a\u0627\u0631 \u0644\u0637\u064a\u0641", "name": "\u0633\u062a\u0627\u0631 \u0644\u0637\u064a\u0641", "name:ar": "\u0633\u062a\u0627\u0631 \u0644\u0637\u064a\u0641", "name:ar1": "\u0633\u062a\u0627\u0631 \u0644\u0637\u064a\u0641", "name:de": "Sattar Latif", "name:en": "Sattar Latif", "name:fr": "Sattar Latif", "place": "village"}}, {"type": "node", "id": 2488373244, "lat": 34.860127, "lon": 43.333503, "tags": {"alt_name": "\u0634\u0645\u0633 \u062c\u0645\u064a\u0644", "int_name": "Shams Jam\u012bl, \u0634\u0645\u0633 \u062c\u0645\u064a\u0644, Shams Jamil, \u0634\u0645\u0633 \u062c\u0645\u064a\u0644", "name": "\u0634\u0645\u0633 \u062c\u0645\u064a\u0644", "name:ar": "\u0634\u0645\u0633 \u062c\u0645\u064a\u0644", "name:ar1": "\u0634\u0645\u0633 \u062c\u0645\u064a\u0644", "name:de": "Shams Jamil", "name:en": "Shams Jamil", "name:fr": "Shams Jamil", "place": "village"}}, {"type": "node", "id": 2488373245, "lat": 34.868637, "lon": 43.372511, "tags": {"alt_name": "\u0632\u064a\u0646 \u0632\u064a\u062f\u0627\u0646", "int_name": "Zayn Zayd\u0101n, \u0632\u064a\u0646 \u0632\u064a\u062f\u0627\u0646, Zayn Zaydan, \u0632\u064a\u0646 \u0632\u064a\u062f\u0627\u0646", "name": "\u0632\u064a\u0646 \u0632\u064a\u062f\u0627\u0646", "name:ar": "\u0632\u064a\u0646 \u0632\u064a\u062f\u0627\u0646", "name:ar1": "\u0632\u064a\u0646 \u0632\u064a\u062f\u0627\u0646", "name:de": "Zayn Zaydan", "name:en": "Zayn Zaydan", "name:fr": "Zayn Zaydan", "place": "village"}}, {"type": "node", "id": 2488373246, "lat": 34.8539254, "lon": 43.370505, "tags": {"alt_name": "\u0642\u0631\u064a\u0629 \u062a\u0644 \u0627\u0633\u0648\u062f", "int_name": "\u0642\u0631\u064a\u0629 \u062a\u0644 \u0627\u0633\u0648\u062f, \u0642\u0631\u064a\u0629 \u062a\u0644 \u0627\u0633\u0648\u062f", "name": "\u0642\u0631\u064a\u0629 \u062a\u0644 \u0627\u0633\u0648\u062f", "name:ar": "\u0642\u0631\u064a\u0629 \u062a\u0644 \u0627\u0633\u0648\u062f", "name:ar1": "\u0642\u0631\u064a\u0629 \u062a\u0644 \u0627\u0633\u0648\u062f", "place": "village"}}, {"type": "node", "id": 2488373248, "lat": 34.827959, "lon": 43.179398, "tags": {"alt_name": "\u0639\u0628\u0644\u0648\u0634 \u0645\u062d\u0645\u062f", "int_name": "Abl\u016bsh Mu\u1e29ammad, \u0639\u0628\u0644\u0648\u0634 \u0645\u062d\u0645\u062f, Ablush Muhammad, \u0639\u0628\u0644\u0648\u0634 \u0645\u062d\u0645\u062f", "name": "\u0639\u0628\u0644\u0648\u0634 \u0645\u062d\u0645\u062f", "name:ar": "\u0639\u0628\u0644\u0648\u0634 \u0645\u062d\u0645\u062f", "name:ar1": "\u0639\u0628\u0644\u0648\u0634 \u0645\u062d\u0645\u062f", "name:de": "Ablush Muhammad", "name:en": "Ablush Muhammad", "name:fr": "Ablush Muhammad", "place": "village"}}, {"type": "node", "id": 2488373251, "lat": 34.816197, "lon": 43.189971, "tags": {"alt_name": "\u0639\u0644\u064a \u0645\u062e\u0644\u0641", "int_name": "Al\u012b Mukhlif, \u0639\u0644\u064a \u0645\u062e\u0644\u0641, Ali Mukhlif, \u0639\u0644\u064a \u0645\u062e\u0644\u0641", "name": "\u0639\u0644\u064a \u0645\u062e\u0644\u0641", "name:ar": "\u0639\u0644\u064a \u0645\u062e\u0644\u0641", "name:ar1": "\u0639\u0644\u064a \u0645\u062e\u0644\u0641", "name:de": "Ali Mukhlif", "name:en": "Ali Mukhlif", "name:fr": "Ali Mukhlif", "place": "village"}}, {"type": "node", "id": 2488373253, "lat": 34.801592, "lon": 43.244759, "tags": {"alt_name": "\u062d\u0645\u0648\u062f \u063a\u0631\u064a\u0628", "int_name": "\u1e28am\u016bd Ghar\u012bb, \u062d\u0645\u0648\u062f \u063a\u0631\u064a\u0628, Hamud Gharib, \u062d\u0645\u0648\u062f \u063a\u0631\u064a\u0628", "name": "\u062d\u0645\u0648\u062f \u063a\u0631\u064a\u0628", "name:ar": "\u062d\u0645\u0648\u062f \u063a\u0631\u064a\u0628", "name:ar1": "\u062d\u0645\u0648\u062f \u063a\u0631\u064a\u0628", "name:de": "Hamud Gharib", "name:en": "Hamud Gharib", "name:fr": "Hamud Gharib", "place": "village"}}, {"type": "node", "id": 2488373254, "lat": 34.825809, "lon": 43.191826, "tags": {"alt_name": "\u062d\u0645\u0648\u062f \u0645\u062d\u0645\u062f", "int_name": "\u1e28am\u016bd Mu\u1e29ammad, \u062d\u0645\u0648\u062f \u0645\u062d\u0645\u062f, Hamud Muhammad, \u062d\u0645\u0648\u062f \u0645\u062d\u0645\u062f", "name": "\u062d\u0645\u0648\u062f \u0645\u062d\u0645\u062f", "name:ar": "\u062d\u0645\u0648\u062f \u0645\u062d\u0645\u062f", "name:ar1": "\u062d\u0645\u0648\u062f \u0645\u062d\u0645\u062f", "name:de": "Hamud Muhammad", "name:en": "Hamud Muhammad", "name:fr": "Hamud Muhammad", "place": "village"}}, {"type": "node", "id": 2488373255, "lat": 34.798129, "lon": 43.241441, "tags": {"alt_name": "\u0645\u0645\u062f\u0648\u062d \u0645\u062d\u0645\u062f \u0628\u0631\u062f", "int_name": "Mamd\u016b\u1e29 Mu\u1e29ammad Barad, \u0645\u0645\u062f\u0648\u062d \u0645\u062d\u0645\u062f \u0628\u0631\u062f, Mamduh Muhammad Barad, \u0645\u0645\u062f\u0648\u062d \u0645\u062d\u0645\u062f \u0628\u0631\u062f", "name": "\u0645\u0645\u062f\u0648\u062d \u0645\u062d\u0645\u062f \u0628\u0631\u062f", "name:ar": "\u0645\u0645\u062f\u0648\u062d \u0645\u062d\u0645\u062f \u0628\u0631\u062f", "name:ar1": "\u0645\u0645\u062f\u0648\u062d \u0645\u062d\u0645\u062f \u0628\u0631\u062f", "name:de": "Mamduh Muhammad Barad", "name:en": "Mamduh Muhammad Barad", "name:fr": "Mamduh Muhammad Barad", "place": "village"}}, {"type": "node", "id": 2488373257, "lat": 34.84317, "lon": 43.203241, "tags": {"alt_name": "\u0645\u0637\u0644\u0643 \u0647\u062c\u0631\u0633", "int_name": "Mu\u0163lak Hajras, \u0645\u0637\u0644\u0643 \u0647\u062c\u0631\u0633, Mutlak Hajras, \u0645\u0637\u0644\u0643 \u0647\u062c\u0631\u0633", "name": "\u0645\u0637\u0644\u0643 \u0647\u062c\u0631\u0633", "name:ar": "\u0645\u0637\u0644\u0643 \u0647\u062c\u0631\u0633", "name:ar1": "\u0645\u0637\u0644\u0643 \u0647\u062c\u0631\u0633", "name:de": "Mutlak Hajras", "name:en": "Mutlak Hajras", "name:fr": "Mutlak Hajras", "place": "village"}}, {"type": "node", "id": 2488373259, "lat": 34.849672, "lon": 43.18402, "tags": {"alt_name": "\u0646\u0627\u064a\u0641 \u062f\u0639\u0628\u0648\u0644", "int_name": "N\u0101yif Dab\u016bl, \u0646\u0627\u064a\u0641 \u062f\u0639\u0628\u0648\u0644, Nayif Dabul, \u0646\u0627\u064a\u0641 \u062f\u0639\u0628\u0648\u0644", "name": "\u0646\u0627\u064a\u0641 \u062f\u0639\u0628\u0648\u0644", "name:ar": "\u0646\u0627\u064a\u0641 \u062f\u0639\u0628\u0648\u0644", "name:ar1": "\u0646\u0627\u064a\u0641 \u062f\u0639\u0628\u0648\u0644", "name:de": "Nayif Dabul", "name:en": "Nayif Dabul", "name:fr": "Nayif Dabul", "place": "village"}}, {"type": "node", "id": 2488373260, "lat": 34.81831, "lon": 43.194584, "tags": {"alt_name": "\u0642\u0631\u064a\u0629 \u0632\u0647\u064a\u0644\u064a\u0644 \u0627\u0644\u0634\u0631\u0642\u064a", "int_name": "Qaryat Zah\u012bl\u012bl ash Sharq\u012b, \u0642\u0631\u064a\u0629 \u0632\u0647\u064a\u0644\u064a\u0644 \u0627\u0644\u0634\u0631\u0642\u064a, Qaryat Zahilil ash Sharqi, \u0642\u0631\u064a\u0629 \u0632\u0647\u064a\u0644\u064a\u0644 \u0627\u0644\u0634\u0631\u0642\u064a", "name": "\u0642\u0631\u064a\u0629 \u0632\u0647\u064a\u0644\u064a\u0644 \u0627\u0644\u0634\u0631\u0642\u064a", "name:ar": "\u0642\u0631\u064a\u0629 \u0632\u0647\u064a\u0644\u064a\u0644 \u0627\u0644\u0634\u0631\u0642\u064a", "name:ar1": "\u0642\u0631\u064a\u0629 \u0632\u0647\u064a\u0644\u064a\u0644 \u0627\u0644\u0634\u0631\u0642\u064a", "name:de": "Qaryat Zahilil ash Sharqi", "name:en": "Qaryat Zahilil ash Sharqi", "name:fr": "Qaryat Zahilil ash Sharqi", "place": "village"}}, {"type": "node", "id": 2488373261, "lat": 34.779391, "lon": 43.214413, "tags": {"alt_name": "\u0642\u0631\u064a\u0629 \u0632\u0647\u064a\u0644\u064a\u0644", "int_name": "Qaryat Zah\u012bl\u012bl, \u0642\u0631\u064a\u0629 \u0632\u0647\u064a\u0644\u064a\u0644, Qaryat Zahilil, \u0642\u0631\u064a\u0629 \u0632\u0647\u064a\u0644\u064a\u0644", "name": "\u0642\u0631\u064a\u0629 \u0632\u0647\u064a\u0644\u064a\u0644", "name:ar": "\u0642\u0631\u064a\u0629 \u0632\u0647\u064a\u0644\u064a\u0644", "name:ar1": "\u0642\u0631\u064a\u0629 \u0632\u0647\u064a\u0644\u064a\u0644", "name:de": "Qaryat Zahilil", "name:en": "Qaryat Zahilil", "name:fr": "Qaryat Zahilil", "place": "village"}}, {"type": "node", "id": 2488373262, "lat": 34.856819, "lon": 43.187342, "tags": {"alt_name": "\u0631\u0627\u0641\u0639 \u0632\u063a\u064a\u0631", "int_name": "R\u0101fi Zughayr, \u0631\u0627\u0641\u0639 \u0632\u063a\u064a\u0631, Rafi Zughayr, \u0631\u0627\u0641\u0639 \u0632\u063a\u064a\u0631", "name": "\u0631\u0627\u0641\u0639 \u0632\u063a\u064a\u0631", "name:ar": "\u0631\u0627\u0641\u0639 \u0632\u063a\u064a\u0631", "name:ar1": "\u0631\u0627\u0641\u0639 \u0632\u063a\u064a\u0631", "name:de": "Rafi Zughayr", "name:en": "Rafi Zughayr", "name:fr": "Rafi Zughayr", "place": "village"}}, {"type": "node", "id": 2488373265, "lat": 34.878618, "lon": 43.193405, "tags": {"alt_name": "\u0633\u0627\u0647\u064a \u062a\u0631\u0643\u064a \u0647\u0646\u062f\u064a", "int_name": "S\u0101h\u012b Turk\u012b Hind\u012b, \u0633\u0627\u0647\u064a \u062a\u0631\u0643\u064a \u0647\u0646\u062f\u064a, Sahi Turki Hindi, \u0633\u0627\u0647\u064a \u062a\u0631\u0643\u064a \u0647\u0646\u062f\u064a", "name": "\u0633\u0627\u0647\u064a \u062a\u0631\u0643\u064a \u0647\u0646\u062f\u064a", "name:ar": "\u0633\u0627\u0647\u064a \u062a\u0631\u0643\u064a \u0647\u0646\u062f\u064a", "name:ar1": "\u0633\u0627\u0647\u064a \u062a\u0631\u0643\u064a \u0647\u0646\u062f\u064a", "name:de": "Sahi Turki Hindi", "name:en": "Sahi Turki Hindi", "name:fr": "Sahi Turki Hindi", "place": "village"}}, {"type": "node", "id": 2488373266, "lat": 34.793264, "lon": 43.195498, "tags": {"alt_name": "\u0634\u062d\u0627\u062a\u0629 \u0645\u062e\u0644\u0641", "int_name": "Sha\u1e29\u0101tat Mukhlif, \u0634\u062d\u0627\u062a\u0629 \u0645\u062e\u0644\u0641, Shahatat Mukhlif, \u0634\u062d\u0627\u062a\u0629 \u0645\u062e\u0644\u0641", "name": "\u0634\u062d\u0627\u062a\u0629 \u0645\u062e\u0644\u0641", "name:ar": "\u0634\u062d\u0627\u062a\u0629 \u0645\u062e\u0644\u0641", "name:ar1": "\u0634\u062d\u0627\u062a\u0629 \u0645\u062e\u0644\u0641", "name:de": "Shahatat Mukhlif", "name:en": "Shahatat Mukhlif", "name:fr": "Shahatat Mukhlif", "place": "village"}}, {"type": "node", "id": 2488373267, "lat": 34.822789, "lon": 43.19293, "tags": {"alt_name": "\u0633\u0646\u062c\u0627\u0631 \u0645\u062e\u0644\u0641", "int_name": "Sinj\u0101r Makhlaf, Sinj\u0101r Mukhlif, \u0633\u0646\u062c\u0627\u0631 \u0645\u062e\u0644\u0641, Sinjar Makhlaf, Sinjar Mukhlif, \u0633\u0646\u062c\u0627\u0631 \u0645\u062e\u0644\u0641", "name": "\u0633\u0646\u062c\u0627\u0631 \u0645\u062e\u0644\u0641", "name:ar": "\u0633\u0646\u062c\u0627\u0631 \u0645\u062e\u0644\u0641", "name:ar1": "\u0633\u0646\u062c\u0627\u0631 \u0645\u062e\u0644\u0641", "name:de": "Sinjar Makhlaf", "name:en": "Sinjar Makhlaf", "name:fr": "Sinjar Makhlaf", "place": "village"}}, {"type": "node", "id": 2488373268, "lat": 34.876899, "lon": 43.19486, "tags": {"alt_name": "\u0635\u0628\u062d\u064a \u062a\u0631\u0643\u064a \u0647\u0646\u062f\u064a", "int_name": "\u015eub\u1e29\u012b Turk\u012b Hind\u012b, \u0635\u0628\u062d\u064a \u062a\u0631\u0643\u064a \u0647\u0646\u062f\u064a, Subhi Turki Hindi, \u0635\u0628\u062d\u064a \u062a\u0631\u0643\u064a \u0647\u0646\u062f\u064a", "name": "\u0635\u0628\u062d\u064a \u062a\u0631\u0643\u064a \u0647\u0646\u062f\u064a", "name:ar": "\u0635\u0628\u062d\u064a \u062a\u0631\u0643\u064a \u0647\u0646\u062f\u064a", "name:ar1": "\u0635\u0628\u062d\u064a \u062a\u0631\u0643\u064a \u0647\u0646\u062f\u064a", "name:de": "Subhi Turki Hindi", "name:en": "Subhi Turki Hindi", "name:fr": "Subhi Turki Hindi", "place": "village"}}, {"type": "node", "id": 2488373269, "lat": 34.814335, "lon": 43.190768, "tags": {"alt_name": "\u062a\u0631\u0643\u064a \u062e\u0644\u0641", "int_name": "Turk\u012b Khalaf, \u062a\u0631\u0643\u064a \u062e\u0644\u0641, Turki Khalaf, \u062a\u0631\u0643\u064a \u062e\u0644\u0641", "name": "\u062a\u0631\u0643\u064a \u062e\u0644\u0641", "name:ar": "\u062a\u0631\u0643\u064a \u062e\u0644\u0641", "name:ar1": "\u062a\u0631\u0643\u064a \u062e\u0644\u0641", "name:de": "Turki Khalaf", "name:en": "Turki Khalaf", "name:fr": "Turki Khalaf", "place": "village"}}, {"type": "node", "id": 2488373270, "lat": 34.867849, "lon": 43.194342, "tags": {"alt_name": "\u0632\u064a\u0627\u062f \u062a\u0631\u0643\u064a", "int_name": "Ziy\u0101d Turk\u012b, \u0632\u064a\u0627\u062f \u062a\u0631\u0643\u064a, Ziyad Turki, \u0632\u064a\u0627\u062f \u062a\u0631\u0643\u064a", "name": "\u0632\u064a\u0627\u062f \u062a\u0631\u0643\u064a", "name:ar": "\u0632\u064a\u0627\u062f \u062a\u0631\u0643\u064a", "name:ar1": "\u0632\u064a\u0627\u062f \u062a\u0631\u0643\u064a", "name:de": "Ziyad Turki", "name:en": "Ziyad Turki", "name:fr": "Ziyad Turki", "place": "village"}}, {"type": "node", "id": 2489244583, "lat": 35.187098, "lon": 43.248217, "tags": {"alt_name": "\u0628\u064a\u062a \u0639\u0628\u062f \u0627\u0644\u0644\u0647 \u0647\u0648\u064a\u062f\u064a", "int_name": "Bayt Abd All\u0101h Huwayd\u012b, \u0628\u064a\u062a \u0639\u0628\u062f \ufdf2 \u0647\u0648\u064a\u062f\u064a, Bayt Abd Allah Huwaydi, \u0628\u064a\u062a \u0639\u0628\u062f \ufdf2 \u0647\u0648\u064a\u062f\u064a", "name": "\u0628\u064a\u062a \u0639\u0628\u062f \u0627\u0644\u0644\u0647 \u0647\u0648\u064a\u062f\u064a", "name:ar": "\u0628\u064a\u062a \u0639\u0628\u062f \u0627\u0644\u0644\u0647 \u0647\u0648\u064a\u062f\u064a", "name:ar1": "\u0628\u064a\u062a \u0639\u0628\u062f \u0627\u0644\u0644\u0647 \u0647\u0648\u064a\u062f\u064a", "name:de": "Bayt Abd Allah Huwaydi", "name:en": "Bayt Abd Allah Huwaydi", "name:fr": "Bayt Abd Allah Huwaydi", "place": "village"}}, {"type": "node", "id": 2489244584, "lat": 35.180524, "lon": 43.259836, "tags": {"alt_name": "\u0628\u064a\u062a \u062e\u0644\u0641 \u0627\u0644\u0645\u0639\u0646", "int_name": "Bayt Khalaf al Man, \u0628\u064a\u062a \u062e\u0644\u0641 \u0627\u0644\u0645\u0639\u0646, Bayt Khalaf al Man, \u0628\u064a\u062a \u062e\u0644\u0641 \u0627\u0644\u0645\u0639\u0646", "name": "\u0628\u064a\u062a \u062e\u0644\u0641 \u0627\u0644\u0645\u0639\u0646", "name:ar": "\u0628\u064a\u062a \u062e\u0644\u0641 \u0627\u0644\u0645\u0639\u0646", "name:ar1": "\u0628\u064a\u062a \u062e\u0644\u0641 \u0627\u0644\u0645\u0639\u0646", "name:de": "Bayt Khalaf al Man", "name:en": "Bayt Khalaf al Man", "name:fr": "Bayt Khalaf al Man", "place": "village"}}, {"type": "node", "id": 2489244590, "lat": 35.17984, "lon": 43.287805, "tags": {"alt_name": "\u0633\u0641\u062d \u0645\u0643\u062d\u0648\u0644", "int_name": "Saf\u1e29 Mak\u1e29\u016bl, \u0633\u0641\u062d \u0645\u0643\u062d\u0648\u0644, Safh Makhul, \u0633\u0641\u062d \u0645\u0643\u062d\u0648\u0644", "name": "\u0633\u0641\u062d \u0645\u0643\u062d\u0648\u0644", "name:ar": "\u0633\u0641\u062d \u0645\u0643\u062d\u0648\u0644", "name:ar1": "\u0633\u0641\u062d \u0645\u0643\u062d\u0648\u0644", "name:de": "Safh Makhul", "name:en": "Safh Makhul", "name:fr": "Safh Makhul", "place": "village"}}, {"type": "node", "id": 2489244593, "lat": 35.19115, "lon": 43.213258, "tags": {"alt_name": "\u0639\u0631\u0628 \u0644\u064a\u062b", "int_name": "Arab Layth, \u0639\u0631\u0628 \u0644\u064a\u062b, Arab Layth, \u0639\u0631\u0628 \u0644\u064a\u062b", "name": "\u0639\u0631\u0628 \u0644\u064a\u062b", "name:ar": "\u0639\u0631\u0628 \u0644\u064a\u062b", "name:ar1": "\u0639\u0631\u0628 \u0644\u064a\u062b", "name:de": "Arab Layth", "name:en": "Arab Layth", "name:fr": "Arab Layth", "place": "village"}}, {"type": "node", "id": 2489244594, "lat": 35.152035, "lon": 43.316147, "tags": {"alt_name": "\u0639\u0631\u0628 \u0645\u062d\u0645\u062f \u0645\u0648\u0633\u0649", "int_name": "Arab Mu\u1e29ammad M\u016bs\u00e1, Mu\u1e29ammad al M\u016bs\u00e1, \u0639\u0631\u0628 \u0645\u062d\u0645\u062f \u0645\u0648\u0633\u0649, \u0645\u062d\u0645\u062f \u0627\u0644\u0645\u0648\u0633\u0649, Arab Muhammad Musa, Muhammad al Musa, \u0639\u0631\u0628 \u0645\u062d\u0645\u062f \u0645\u0648\u0633\u0649, \u0645\u062d\u0645\u062f \u0627\u0644\u0645\u0648\u0633\u0649", "name": "\u0639\u0631\u0628 \u0645\u062d\u0645\u062f \u0645\u0648\u0633\u0649", "name:ar": "\u0639\u0631\u0628 \u0645\u062d\u0645\u062f \u0645\u0648\u0633\u0649", "name:ar1": "\u0639\u0631\u0628 \u0645\u062d\u0645\u062f \u0645\u0648\u0633\u0649", "name:de": "Arab Muhammad Musa", "name:en": "Arab Muhammad Musa", "name:fr": "Arab Muhammad Musa", "place": "village"}}, {"type": "node", "id": 2489244599, "lat": 35.159129, "lon": 43.246666, "tags": {"alt_name": "\u0642\u0631\u064a\u0629 \u0627\u0644\u0645\u0633\u0644\u0637\u0646", "int_name": "Qaryat al Musal\u0163an, \u0642\u0631\u064a\u0629 \u0627\u0644\u0645\u0633\u0644\u0637\u0646, Qaryat al Musaltan, \u0642\u0631\u064a\u0629 \u0627\u0644\u0645\u0633\u0644\u0637\u0646", "name": "\u0642\u0631\u064a\u0629 \u0627\u0644\u0645\u0633\u0644\u0637\u0646", "name:ar": "\u0642\u0631\u064a\u0629 \u0627\u0644\u0645\u0633\u0644\u0637\u0646", "name:ar1": "\u0642\u0631\u064a\u0629 \u0627\u0644\u0645\u0633\u0644\u0637\u0646", "name:de": "Qaryat al Musaltan", "name:en": "Qaryat al Musaltan", "name:fr": "Qaryat al Musaltan", "place": "village"}}, {"type": "node", "id": 2489244700, "lat": 35.1474356, "lon": 43.3101372, "tags": {"alt_name": "\u0639\u0641\u0627\u0631", "int_name": "Af\u0101r, \u0639\u0641\u0627\u0631, Afar, \u0639\u0641\u0627\u0631", "name": "\u0639\u0641\u0627\u0631", "name:ar": "\u0639\u0641\u0627\u0631", "name:ar1": "\u0639\u0641\u0627\u0631", "name:de": "Afar", "name:en": "Afar", "name:fr": "Afar", "place": "village"}}, {"type": "node", "id": 2489244703, "lat": 35.1326066, "lon": 43.3068143, "tags": {"alt_name": "\u0639\u0644\u0627\u0648\u064a \u0627\u0644\u062d\u0645\u062f\u064a", "int_name": "Al\u0101w\u012b al \u1e28amd\u012b, \u0639\u0644\u0627\u0648\u064a \u0627\u0644\u062d\u0645\u062f\u064a, Alawi al Hamdi, \u0639\u0644\u0627\u0648\u064a \u0627\u0644\u062d\u0645\u062f\u064a", "name": "\u0639\u0644\u0627\u0648\u064a \u0627\u0644\u062d\u0645\u062f\u064a", "name:ar": "\u0639\u0644\u0627\u0648\u064a \u0627\u0644\u062d\u0645\u062f\u064a", "name:ar1": "\u0639\u0644\u0627\u0648\u064a \u0627\u0644\u062d\u0645\u062f\u064a", "name:de": "Alawi al Hamdi", "name:en": "Alawi al Hamdi", "name:fr": "Alawi al Hamdi", "place": "village"}}, {"type": "node", "id": 2489244704, "lat": 35.1331868, "lon": 43.3075059, "tags": {"alt_name": "\u0639\u0644\u0627\u0648\u064a \u0627\u0644\u062d\u0645\u064a\u062f\u064a", "int_name": "Al\u0101w\u012b al \u1e28umayd\u012b, \u0639\u0644\u0627\u0648\u064a \u0627\u0644\u062d\u0645\u064a\u062f\u064a, Alawi al Humaydi, \u0639\u0644\u0627\u0648\u064a \u0627\u0644\u062d\u0645\u064a\u062f\u064a", "name": "\u0639\u0644\u0627\u0648\u064a \u0627\u0644\u062d\u0645\u064a\u062f\u064a", "name:ar": "\u0639\u0644\u0627\u0648\u064a \u0627\u0644\u062d\u0645\u064a\u062f\u064a", "name:ar1": "\u0639\u0644\u0627\u0648\u064a \u0627\u0644\u062d\u0645\u064a\u062f\u064a", "name:de": "Alawi al Humaydi", "name:en": "Alawi al Humaydi", "name:fr": "Alawi al Humaydi", "place": "village"}}, {"type": "node", "id": 2489244706, "lat": 35.065908, "lon": 43.287647, "tags": {"alt_name": "\u0639\u0644\u064a \u0645\u0647\u064a\u062f\u064a", "int_name": "Al\u012b Muhayd\u012b, \u0639\u0644\u064a \u0645\u0647\u064a\u062f\u064a, Ali Muhaydi, \u0639\u0644\u064a \u0645\u0647\u064a\u062f\u064a", "name": "\u0639\u0644\u064a \u0645\u0647\u064a\u062f\u064a", "name:ar": "\u0639\u0644\u064a \u0645\u0647\u064a\u062f\u064a", "name:ar1": "\u0639\u0644\u064a \u0645\u0647\u064a\u062f\u064a", "name:de": "Ali Muhaydi", "name:en": "Ali Muhaydi", "name:fr": "Ali Muhaydi", "place": "village"}}, {"type": "node", "id": 2489244707, "lat": 35.13202, "lon": 43.232223, "tags": {"alt_name": "\u0639\u0631\u0628 \u0639\u0644\u064a \u0627\u0644\u0645\u0627\u0646\u0639", "int_name": "Arab Al\u012b al M\u0101ni, \u0639\u0631\u0628 \u0639\u0644\u064a \u0627\u0644\u0645\u0627\u0646\u0639, Arab Ali al Mani, \u0639\u0631\u0628 \u0639\u0644\u064a \u0627\u0644\u0645\u0627\u0646\u0639", "name": "\u0639\u0631\u0628 \u0639\u0644\u064a \u0627\u0644\u0645\u0627\u0646\u0639", "name:ar": "\u0639\u0631\u0628 \u0639\u0644\u064a \u0627\u0644\u0645\u0627\u0646\u0639", "name:ar1": "\u0639\u0631\u0628 \u0639\u0644\u064a \u0627\u0644\u0645\u0627\u0646\u0639", "name:de": "Arab Ali al Mani", "name:en": "Arab Ali al Mani", "name:fr": "Arab Ali al Mani", "place": "village"}}, {"type": "node", "id": 2489244708, "lat": 35.072338, "lon": 43.336475, "tags": {"alt_name": "\u0628\u064a\u062a \u0641\u064a\u0627\u0636 \u062f\u0627\u0648\u0648\u062f", "int_name": "Bayt Fay\u0101\u1e11 D\u0101wud, \u0628\u064a\u062a \u0641\u064a\u0627\u0636 \u062f\u0627\u0648\u062f, Bayt Fayad Dawud, \u0628\u064a\u062a \u0641\u064a\u0627\u0636 \u062f\u0627\u0648\u062f", "name": "\u0628\u064a\u062a \u0641\u064a\u0627\u0636 \u062f\u0627\u0648\u0648\u062f", "name:ar": "\u0628\u064a\u062a \u0641\u064a\u0627\u0636 \u062f\u0627\u0648\u0648\u062f", "name:ar1": "\u0628\u064a\u062a \u0641\u064a\u0627\u0636 \u062f\u0627\u0648\u0648\u062f", "name:de": "Bayt Fayad Dawud", "name:en": "Bayt Fayad Dawud", "name:fr": "Bayt Fayad Dawud", "place": "village"}}, {"type": "node", "id": 2489244713, "lat": 35.109108, "lon": 43.308525, "tags": {"alt_name": "\u0628\u064a\u062a \u0646\u0627\u064a\u0641 \u062d\u0645\u0627\u062f", "int_name": "Bayt N\u0101yif \u1e28amm\u0101d, \u0628\u064a\u062a \u0646\u0627\u064a\u0641 \u062d\u0645\u0627\u062f, Bayt Nayif Hammad, \u0628\u064a\u062a \u0646\u0627\u064a\u0641 \u062d\u0645\u0627\u062f", "name": "\u0628\u064a\u062a \u0646\u0627\u064a\u0641 \u062d\u0645\u0627\u062f", "name:ar": "\u0628\u064a\u062a \u0646\u0627\u064a\u0641 \u062d\u0645\u0627\u062f", "name:ar1": "\u0628\u064a\u062a \u0646\u0627\u064a\u0641 \u062d\u0645\u0627\u062f", "name:de": "Bayt Nayif Hammad", "name:en": "Bayt Nayif Hammad", "name:fr": "Bayt Nayif Hammad", "place": "village"}}, {"type": "node", "id": 2489244715, "lat": 35.12673, "lon": 43.347584, "tags": {"alt_name": "\u0628\u064a\u062a \u0639\u0643\u0627\u0628", "int_name": "Bayt Uk\u0101b, \u0628\u064a\u062a \u0639\u0643\u0627\u0628, Bayt Ukab, \u0628\u064a\u062a \u0639\u0643\u0627\u0628", "name": "\u0628\u064a\u062a \u0639\u0643\u0627\u0628", "name:ar": "\u0628\u064a\u062a \u0639\u0643\u0627\u0628", "name:ar1": "\u0628\u064a\u062a \u0639\u0643\u0627\u0628", "name:de": "Bayt Ukab", "name:en": "Bayt Ukab", "name:fr": "Bayt Ukab", "place": "village"}}, {"type": "node", "id": 2489244717, "lat": 35.099386, "lon": 43.296874, "tags": {"alt_name": "\u0628\u064a\u062a \u0632\u0628\u0627\u0631\u064a \u062c\u0644\u064a\u062a", "int_name": "Bayt Zib\u0101r\u012b Chal\u012bt, \u0628\u064a\u062a \u0632\u0628\u0627\u0631\u064a \u0686\u0644\u064a\u062a, Bayt Zibari Chalit, \u0628\u064a\u062a \u0632\u0628\u0627\u0631\u064a \u0686\u0644\u064a\u062a", "name": "\u0628\u064a\u062a \u0632\u0628\u0627\u0631\u064a \u062c\u0644\u064a\u062a", "name:ar": "\u0628\u064a\u062a \u0632\u0628\u0627\u0631\u064a \u062c\u0644\u064a\u062a", "name:ar1": "\u0628\u064a\u062a \u0632\u0628\u0627\u0631\u064a \u062c\u0644\u064a\u062a", "name:de": "Bayt Zibari Chalit", "name:en": "Bayt Zibari Chalit", "name:fr": "Bayt Zibari Chalit", "place": "village"}}, {"type": "node", "id": 2489244718, "lat": 35.133144, "lon": 43.337395, "tags": {"alt_name": "\u062d\u0645\u064a\u062f \u0627\u0644\u062d\u0645\u0627\u062f\u064a", "int_name": "\u1e28am\u012bd al \u1e28am\u0101d\u012b, \u062d\u0645\u064a\u062f \u0627\u0644\u062d\u0645\u0627\u062f\u064a, Hamid al Hamadi, \u062d\u0645\u064a\u062f \u0627\u0644\u062d\u0645\u0627\u062f\u064a", "name": "\u062d\u0645\u064a\u062f \u0627\u0644\u062d\u0645\u0627\u062f\u064a", "name:ar": "\u062d\u0645\u064a\u062f \u0627\u0644\u062d\u0645\u0627\u062f\u064a", "name:ar1": "\u062d\u0645\u064a\u062f \u0627\u0644\u062d\u0645\u0627\u062f\u064a", "name:de": "Hamid al Hamadi", "name:en": "Hamid al Hamadi", "name:fr": "Hamid al Hamadi", "place": "village"}}, {"type": "node", "id": 2489244721, "lat": 35.090925, "lon": 43.294759, "tags": {"alt_name": "\u0642\u0631\u064a\u0629 \u062d\u0644\u064a\u0648\u0627\u062a", "int_name": "\u1e28ulayw\u0101t, Qaryat \u1e28ulayw\u0101t, \u062d\u0644\u064a\u0648\u0627\u062a, \u0642\u0631\u064a\u0629 \u062d\u0644\u064a\u0648\u0627\u062a, Hulaywat, Qaryat Hulaywat, \u062d\u0644\u064a\u0648\u0627\u062a, \u0642\u0631\u064a\u0629 \u062d\u0644\u064a\u0648\u0627\u062a", "name": "\u0642\u0631\u064a\u0629 \u062d\u0644\u064a\u0648\u0627\u062a", "name:ar": "\u0642\u0631\u064a\u0629 \u062d\u0644\u064a\u0648\u0627\u062a", "name:ar1": "\u0642\u0631\u064a\u0629 \u062d\u0644\u064a\u0648\u0627\u062a", "name:de": "Hulaywat", "name:en": "Hulaywat", "name:fr": "Hulaywat", "place": "village"}}, {"type": "node", "id": 2489244725, "lat": 35.1481219, "lon": 43.3106326, "tags": {"alt_name": "\u062c\u062f\u0648\u0639 \u0639\u0641\u0631", "int_name": "Jadd\u016b Afar, \u062c\u062f\u0648\u0639 \u0639\u0641\u0631, Jaddu Afar, \u062c\u062f\u0648\u0639 \u0639\u0641\u0631", "name": "\u062c\u062f\u0648\u0639 \u0639\u0641\u0631", "name:ar": "\u062c\u062f\u0648\u0639 \u0639\u0641\u0631", "name:ar1": "\u062c\u062f\u0648\u0639 \u0639\u0641\u0631", "name:de": "Jaddu Afar", "name:en": "Jaddu Afar", "name:fr": "Jaddu Afar", "place": "village"}}, {"type": "node", "id": 2489244728, "lat": 35.149049, "lon": 43.308579, "tags": {"alt_name": "\u0643\u0631\u062f\u064a \u0645\u0639\u062f\u0631\u0629", "int_name": "Kurd\u012b Madarah, \u0643\u0631\u062f\u064a \u0645\u0639\u062f\u0631\u0647, Kurdi Madarah, \u0643\u0631\u062f\u064a \u0645\u0639\u062f\u0631\u0647", "name": "\u0643\u0631\u062f\u064a \u0645\u0639\u062f\u0631\u0629", "name:ar": "\u0643\u0631\u062f\u064a \u0645\u0639\u062f\u0631\u0629", "name:ar1": "\u0643\u0631\u062f\u064a \u0645\u0639\u062f\u0631\u0629", "name:de": "Kurdi Madarah", "name:en": "Kurdi Madarah", "name:fr": "Kurdi Madarah", "place": "village"}}, {"type": "node", "id": 2489244731, "lat": 35.133758, "lon": 43.220546, "tags": {"alt_name": "\u0642\u0631\u064a\u0629 \u0627\u0644\u0645\u0627\u0644\u062d\u0629", "int_name": "Qaryat al M\u0101li\u1e29ah, \u0642\u0631\u064a\u0629 \u0627\u0644\u0645\u0627\u0644\u062d\u0629, Qaryat al Malihah, \u0642\u0631\u064a\u0629 \u0627\u0644\u0645\u0627\u0644\u062d\u0629", "name": "\u0642\u0631\u064a\u0629 \u0627\u0644\u0645\u0627\u0644\u062d\u0629", "name:ar": "\u0642\u0631\u064a\u0629 \u0627\u0644\u0645\u0627\u0644\u062d\u0629", "name:ar1": "\u0642\u0631\u064a\u0629 \u0627\u0644\u0645\u0627\u0644\u062d\u0629", "name:de": "Qaryat al Malihah", "name:en": "Qaryat al Malihah", "name:fr": "Qaryat al Malihah", "place": "village"}}, {"type": "node", "id": 2489244732, "lat": 35.162472, "lon": 43.34943, "tags": {"alt_name": "\u0631\u062c\u0628 \u0627\u0644\u062d\u0637\u0627\u0646", "int_name": "Rajab al \u1e28a\u0163\u0101n, \u0631\u062c\u0628 \u0627\u0644\u062d\u0637\u0627\u0646, Rajab al Hatan, \u0631\u062c\u0628 \u0627\u0644\u062d\u0637\u0627\u0646", "name": "\u0631\u062c\u0628 \u0627\u0644\u062d\u0637\u0627\u0646", "name:ar": "\u0631\u062c\u0628 \u0627\u0644\u062d\u0637\u0627\u0646", "name:ar1": "\u0631\u062c\u0628 \u0627\u0644\u062d\u0637\u0627\u0646", "name:de": "Rajab al Hatan", "name:en": "Rajab al Hatan", "name:fr": "Rajab al Hatan", "place": "village"}}, {"type": "node", "id": 2489244734, "lat": 35.12798, "lon": 43.339175, "tags": {"alt_name": "\u0635\u0628\u062d\u064a", "int_name": "\u015eub\u1e29\u012b, \u0635\u0628\u062d\u064a, Subhi, \u0635\u0628\u062d\u064a", "name": "\u0635\u0628\u062d\u064a", "name:ar": "\u0635\u0628\u062d\u064a", "name:ar1": "\u0635\u0628\u062d\u064a", "name:de": "Subhi", "name:en": "Subhi", "name:fr": "Subhi", "place": "village"}}, {"type": "node", "id": 2489244736, "lat": 35.065973, "lon": 43.348507, "tags": {"alt_name": "\u0633\u0648\u064a\u0641\u0627\u062a", "int_name": "Suwayf\u0101t, \u0633\u0648\u064a\u0641\u0627\u062a, Suwayfat, \u0633\u0648\u064a\u0641\u0627\u062a", "name": "\u0633\u0648\u064a\u0641\u0627\u062a", "name:ar": "\u0633\u0648\u064a\u0641\u0627\u062a", "name:ar1": "\u0633\u0648\u064a\u0641\u0627\u062a", "name:de": "Suwayfat", "name:en": "Suwayfat", "name:fr": "Suwayfat", "place": "village"}}, {"type": "node", "id": 2489245739, "lat": 35.034021, "lon": 43.080034, "tags": {"alt_name": "\u0623\u0628\u0648 \u0639\u062c\u0627\u0631\u0628", "int_name": "Ab\u016b Aj\u0101rib, \u0627\u0628\u0648 \u0639\u062c\u0627\u0631\u0628, Abu Ajarib, \u0627\u0628\u0648 \u0639\u062c\u0627\u0631\u0628", "name": "\u0623\u0628\u0648 \u0639\u062c\u0627\u0631\u0628", "name:ar": "\u0623\u0628\u0648 \u0639\u062c\u0627\u0631\u0628", "name:ar1": "\u0623\u0628\u0648 \u0639\u062c\u0627\u0631\u0628", "name:de": "Abu Ajarib", "name:en": "Abu Ajarib", "name:fr": "Abu Ajarib", "place": "village"}}, {"type": "node", "id": 2489245747, "lat": 35.077481, "lon": 43.035941, "tags": {"alt_name": "\u0627\u0644\u0628\u0643\u0629", "int_name": "Al Baggah, \u0627\u0644\u0628\u06af\u0629, Al Baggah, \u0627\u0644\u0628\u06af\u0629", "name": "\u0627\u0644\u0628\u0643\u0629", "name:ar": "\u0627\u0644\u0628\u0643\u0629", "name:ar1": "\u0627\u0644\u0628\u0643\u0629", "name:de": "Al Baggah", "name:en": "Al Baggah", "name:fr": "Al Baggah", "place": "village"}}, {"type": "node", "id": 2489245762, "lat": 35.089495, "lon": 43.089161, "tags": {"alt_name": "\u0627\u0644\u062d\u0627\u062c \u0643\u0627\u0638\u0645", "int_name": "Al \u1e28\u0101jj K\u0101z\u0327im, \u0627\u0644\u062d\u0627\u062c \u0643\u0627\u0638\u0645, Al Hajj Kazim, \u0627\u0644\u062d\u0627\u062c \u0643\u0627\u0638\u0645", "name": "\u0627\u0644\u062d\u0627\u062c \u0643\u0627\u0638\u0645", "name:ar": "\u0627\u0644\u062d\u0627\u062c \u0643\u0627\u0638\u0645", "name:ar1": "\u0627\u0644\u062d\u0627\u062c \u0643\u0627\u0638\u0645", "name:de": "Al Hajj Kazim", "name:en": "Al Hajj Kazim", "name:fr": "Al Hajj Kazim", "place": "village"}}, {"type": "node", "id": 2489245770, "lat": 35.0664958, "lon": 43.032106, "tags": {"alt_name": "\u0627\u0644\u0645\u0634\u0627\u0639\u064a\u0646", "int_name": "Al Mash\u0101\u012bn, \u0627\u0644\u0645\u0634\u0627\u0639\u064a\u0646, Al Mashain, \u0627\u0644\u0645\u0634\u0627\u0639\u064a\u0646", "name": "\u0627\u0644\u0645\u0634\u0627\u0639\u064a\u0646", "name:ar": "\u0627\u0644\u0645\u0634\u0627\u0639\u064a\u0646", "name:ar1": "\u0627\u0644\u0645\u0634\u0627\u0639\u064a\u0646", "name:de": "Al Mashain", "name:en": "Al Mashain", "name:fr": "Al Mashain", "place": "village"}}, {"type": "node", "id": 2489245777, "lat": 35.058592, "lon": 43.140315, "tags": {"alt_name": "\u0639\u0631\u0628 \u0623\u0633\u0648\u062f \u0627\u0644\u0645\u0632\u0647\u0631", "int_name": "Arab Aswad al Muzhir, \u0639\u0631\u0628 \u0627\u0633\u0648\u062f \u0627\u0644\u0645\u0632\u0647\u0631, Arab Aswad al Muzhir, \u0639\u0631\u0628 \u0627\u0633\u0648\u062f \u0627\u0644\u0645\u0632\u0647\u0631", "name": "\u0639\u0631\u0628 \u0623\u0633\u0648\u062f \u0627\u0644\u0645\u0632\u0647\u0631", "name:ar": "\u0639\u0631\u0628 \u0623\u0633\u0648\u062f \u0627\u0644\u0645\u0632\u0647\u0631", "name:ar1": "\u0639\u0631\u0628 \u0623\u0633\u0648\u062f \u0627\u0644\u0645\u0632\u0647\u0631", "name:de": "Arab Aswad al Muzhir", "name:en": "Arab Aswad al Muzhir", "name:fr": "Arab Aswad al Muzhir", "place": "village"}}, {"type": "node", "id": 2489245784, "lat": 35.056658, "lon": 43.12924, "tags": {"alt_name": "\u0639\u0631\u0628 \u062d\u0648\u0627\u0633 \u063a\u0632\u0627\u0644", "int_name": "Arab \u1e28aw\u0101s Ghaz\u0101l, \u0639\u0631\u0628 \u062d\u0648\u0627\u0633 \u063a\u0632\u0627\u0644, Arab Hawas Ghazal, \u0639\u0631\u0628 \u062d\u0648\u0627\u0633 \u063a\u0632\u0627\u0644", "name": "\u0639\u0631\u0628 \u062d\u0648\u0627\u0633 \u063a\u0632\u0627\u0644", "name:ar": "\u0639\u0631\u0628 \u062d\u0648\u0627\u0633 \u063a\u0632\u0627\u0644", "name:ar1": "\u0639\u0631\u0628 \u062d\u0648\u0627\u0633 \u063a\u0632\u0627\u0644", "name:de": "Arab Hawas Ghazal", "name:en": "Arab Hawas Ghazal", "name:fr": "Arab Hawas Ghazal", "place": "village"}}, {"type": "node", "id": 2489245791, "lat": 35.026708, "lon": 43.177448, "tags": {"alt_name": "\u0639\u0631\u0628 \u0645\u062d\u0645\u062f \u062d\u0645\u062f\u0627\u0646", "int_name": "Arab Mu\u1e29ammad \u1e28amd\u0101n, \u0639\u0631\u0628 \u0645\u062d\u0645\u062f \u062d\u0645\u062f\u0627\u0646, Arab Muhammad Hamdan, \u0639\u0631\u0628 \u0645\u062d\u0645\u062f \u062d\u0645\u062f\u0627\u0646", "name": "\u0639\u0631\u0628 \u0645\u062d\u0645\u062f \u062d\u0645\u062f\u0627\u0646", "name:ar": "\u0639\u0631\u0628 \u0645\u062d\u0645\u062f \u062d\u0645\u062f\u0627\u0646", "name:ar1": "\u0639\u0631\u0628 \u0645\u062d\u0645\u062f \u062d\u0645\u062f\u0627\u0646", "name:de": "Arab Muhammad Hamdan", "name:en": "Arab Muhammad Hamdan", "name:fr": "Arab Muhammad Hamdan", "place": "village"}}, {"type": "node", "id": 2489245798, "lat": 35.106115, "lon": 43.13829, "tags": {"alt_name": "\u0639\u0631\u0628 \u0645\u062d\u0645\u062f \u0627\u0644\u062e\u0636\u0631", "int_name": "Arab Mu\u1e29ammad al Khi\u1e11r, \u0639\u0631\u0628 \u0645\u062d\u0645\u062f \u0627\u0644\u062e\u0636\u0631, Arab Muhammad al Khidr, \u0639\u0631\u0628 \u0645\u062d\u0645\u062f \u0627\u0644\u062e\u0636\u0631", "name": "\u0639\u0631\u0628 \u0645\u062d\u0645\u062f \u0627\u0644\u062e\u0636\u0631", "name:ar": "\u0639\u0631\u0628 \u0645\u062d\u0645\u062f \u0627\u0644\u062e\u0636\u0631", "name:ar1": "\u0639\u0631\u0628 \u0645\u062d\u0645\u062f \u0627\u0644\u062e\u0636\u0631", "name:de": "Arab Muhammad al Khidr", "name:en": "Arab Muhammad al Khidr", "name:fr": "Arab Muhammad al Khidr", "place": "village"}}, {"type": "node", "id": 2489245806, "lat": 35.106023, "lon": 43.196145, "tags": {"alt_name": "\u0639\u0631\u0628 \u0635\u0628\u0627\u0631 \u0627\u0644\u0631\u062c\u0628", "int_name": "Arab \u015eab\u0101r ar Rajab, \u0639\u0631\u0628 \u0635\u0628\u0627\u0631 \u0627\u0644\u0631\u062c\u0628, Arab Sabar ar Rajab, \u0639\u0631\u0628 \u0635\u0628\u0627\u0631 \u0627\u0644\u0631\u062c\u0628", "name": "\u0639\u0631\u0628 \u0635\u0628\u0627\u0631 \u0627\u0644\u0631\u062c\u0628", "name:ar": "\u0639\u0631\u0628 \u0635\u0628\u0627\u0631 \u0627\u0644\u0631\u062c\u0628", "name:ar1": "\u0639\u0631\u0628 \u0635\u0628\u0627\u0631 \u0627\u0644\u0631\u062c\u0628", "name:de": "Arab Sabar ar Rajab", "name:en": "Arab Sabar ar Rajab", "name:fr": "Arab Sabar ar Rajab", "place": "village"}}, {"type": "node", "id": 2489245813, "lat": 35.079821, "lon": 43.014816, "tags": {"alt_name": "\u0628\u064a\u062a \u0645\u062d\u0645\u062f \u0633\u0645\u064a\u0646", "int_name": "Bayt Mu\u1e29ammad Sam\u012bn, \u0628\u064a\u062a \u0645\u062d\u0645\u062f \u0633\u0645\u064a\u0646, Bayt Muhammad Samin, \u0628\u064a\u062a \u0645\u062d\u0645\u062f \u0633\u0645\u064a\u0646", "name": "\u0628\u064a\u062a \u0645\u062d\u0645\u062f \u0633\u0645\u064a\u0646", "name:ar": "\u0628\u064a\u062a \u0645\u062d\u0645\u062f \u0633\u0645\u064a\u0646", "name:ar1": "\u0628\u064a\u062a \u0645\u062d\u0645\u062f \u0633\u0645\u064a\u0646", "name:de": "Bayt Muhammad Samin", "name:en": "Bayt Muhammad Samin", "name:fr": "Bayt Muhammad Samin", "place": "village"}}, {"type": "node", "id": 2489245820, "lat": 35.0054224, "lon": 43.0945919, "tags": {"alt_name": "\u062f\u0627\u0631 \u0641\u0631\u062d\u0627\u0646", "int_name": "D\u0101r Far\u1e29\u0101n, \u062f\u0627\u0631 \u0641\u0631\u062d\u0627\u0646, Dar Farhan, \u062f\u0627\u0631 \u0641\u0631\u062d\u0627\u0646", "name": "\u062f\u0627\u0631 \u0641\u0631\u062d\u0627\u0646", "name:ar": "\u062f\u0627\u0631 \u0641\u0631\u062d\u0627\u0646", "name:ar1": "\u062f\u0627\u0631 \u0641\u0631\u062d\u0627\u0646", "name:de": "Dar Farhan", "name:en": "Dar Farhan", "name:fr": "Dar Farhan", "place": "village"}}, {"type": "node", "id": 2489245827, "lat": 35.079378, "lon": 43.10128, "tags": {"alt_name": "\u062d\u0648\u0627\u0633 \u063a\u0632\u0627\u0644", "int_name": "\u1e28aw\u0101s Ghaz\u0101l, \u062d\u0648\u0627\u0633 \u063a\u0632\u0627\u0644, Hawas Ghazal, \u062d\u0648\u0627\u0633 \u063a\u0632\u0627\u0644", "name": "\u062d\u0648\u0627\u0633 \u063a\u0632\u0627\u0644", "name:ar": "\u062d\u0648\u0627\u0633 \u063a\u0632\u0627\u0644", "name:ar1": "\u062d\u0648\u0627\u0633 \u063a\u0632\u0627\u0644", "name:de": "Hawas Ghazal", "name:en": "Hawas Ghazal", "name:fr": "Hawas Ghazal", "place": "village"}}, {"type": "node", "id": 2489245834, "lat": 35.060291, "lon": 43.101486, "tags": {"alt_name": "\u062c\u062f\u0639\u0627\u0646 \u0627\u0644\u062d\u0633\u0646", "int_name": "Jad\u0101n al \u1e28asan, \u062c\u062f\u0639\u0627\u0646 \u0627\u0644\u062d\u0633\u0646, Jadan al Hasan, \u062c\u062f\u0639\u0627\u0646 \u0627\u0644\u062d\u0633\u0646", "name": "\u062c\u062f\u0639\u0627\u0646 \u0627\u0644\u062d\u0633\u0646", "name:ar": "\u062c\u062f\u0639\u0627\u0646 \u0627\u0644\u062d\u0633\u0646", "name:ar1": "\u062c\u062f\u0639\u0627\u0646 \u0627\u0644\u062d\u0633\u0646", "name:de": "Jadan al Hasan", "name:en": "Jadan al Hasan", "name:fr": "Jadan al Hasan", "place": "village"}}, {"type": "node", "id": 2489245870, "lat": 34.960993, "lon": 43.172955, "tags": {"alt_name": "\u0644\u0637\u0633 \u063a\u062f\u064a\u0631", "int_name": "La\u0163s Ghad\u012br, \u0644\u0637\u0633 \u063a\u062f\u064a\u0631, Lats Ghadir, \u0644\u0637\u0633 \u063a\u062f\u064a\u0631", "name": "\u0644\u0637\u0633 \u063a\u062f\u064a\u0631", "name:ar": "\u0644\u0637\u0633 \u063a\u062f\u064a\u0631", "name:ar1": "\u0644\u0637\u0633 \u063a\u062f\u064a\u0631", "name:de": "Lats Ghadir", "name:en": "Lats Ghadir", "name:fr": "Lats Ghadir", "place": "village"}}, {"type": "node", "id": 2489245878, "lat": 35.0667899, "lon": 43.0323078, "tags": {"alt_name": "\u0646\u0648\u0627\u0631 \u0627\u0644\u0635\u0631\u0641\u0627\u0646", "int_name": "Naw\u0101r a\u015f \u015earf\u0101n, \u0646\u0648\u0627\u0631 \u0627\u0644\u0635\u0631\u0641\u0627\u0646, Nawar as Sarfan, \u0646\u0648\u0627\u0631 \u0627\u0644\u0635\u0631\u0641\u0627\u0646", "name": "\u0646\u0648\u0627\u0631 \u0627\u0644\u0635\u0631\u0641\u0627\u0646", "name:ar": "\u0646\u0648\u0627\u0631 \u0627\u0644\u0635\u0631\u0641\u0627\u0646", "name:ar1": "\u0646\u0648\u0627\u0631 \u0627\u0644\u0635\u0631\u0641\u0627\u0646", "name:de": "Nawar as Sarfan", "name:en": "Nawar as Sarfan", "name:fr": "Nawar as Sarfan", "place": "village"}}, {"type": "node", "id": 2489245885, "lat": 35.045392, "lon": 43.039935, "tags": {"alt_name": "\u0642\u0631\u064a\u0629 \u0622\u0644 \u0628\u0648 \u0635\u0643\u0631", "int_name": "Qaryat \u0100lb\u016b \u015eakr, \u0642\u0631\u064a\u0629 \u0627\u0644\u0628\u0648 \u0635\u0643\u0631, Qaryat Albu Sakr, \u0642\u0631\u064a\u0629 \u0627\u0644\u0628\u0648 \u0635\u0643\u0631", "name": "\u0642\u0631\u064a\u0629 \u0622\u0644 \u0628\u0648 \u0635\u0643\u0631", "name:ar": "\u0642\u0631\u064a\u0629 \u0622\u0644 \u0628\u0648 \u0635\u0643\u0631", "name:ar1": "\u0642\u0631\u064a\u0629 \u0622\u0644 \u0628\u0648 \u0635\u0643\u0631", "name:de": "Qaryat Albu Sakr", "name:en": "Qaryat Albu Sakr", "name:fr": "Qaryat Albu Sakr", "place": "village"}}, {"type": "node", "id": 2489245892, "lat": 35.0658456, "lon": 43.032333, "tags": {"alt_name": "\u0642\u0631\u064a\u0629 \u0639\u0646\u0643 \u0627\u0644\u0647\u0648\u0649", "int_name": "Qaryat Ank al Haw\u00e1, \u0642\u0631\u064a\u0629 \u0639\u0646\u0643 \u0627\u0644\u0647\u0648\u0649, Qaryat Ank al Hawa, \u0642\u0631\u064a\u0629 \u0639\u0646\u0643 \u0627\u0644\u0647\u0648\u0649", "name": "\u0642\u0631\u064a\u0629 \u0639\u0646\u0643 \u0627\u0644\u0647\u0648\u0649", "name:ar": "\u0642\u0631\u064a\u0629 \u0639\u0646\u0643 \u0627\u0644\u0647\u0648\u0649", "name:ar1": "\u0642\u0631\u064a\u0629 \u0639\u0646\u0643 \u0627\u0644\u0647\u0648\u0649", "name:de": "Qaryat Ank al Hawa", "name:en": "Qaryat Ank al Hawa", "name:fr": "Qaryat Ank al Hawa", "place": "village"}}, {"type": "node", "id": 2489245900, "lat": 35.063429, "lon": 43.097855, "tags": {"alt_name": "\u0642\u0631\u064a\u0629 \u0628\u0643\u0629", "int_name": "Qaryat Bakkah, \u0642\u0631\u064a\u0629 \u0628\u0643\u0647, Qaryat Bakkah, \u0642\u0631\u064a\u0629 \u0628\u0643\u0647", "name": "\u0642\u0631\u064a\u0629 \u0628\u0643\u0629", "name:ar": "\u0642\u0631\u064a\u0629 \u0628\u0643\u0629", "name:ar1": "\u0642\u0631\u064a\u0629 \u0628\u0643\u0629", "name:de": "Qaryat Bakkah", "name:en": "Qaryat Bakkah", "name:fr": "Qaryat Bakkah", "place": "village"}}, {"type": "node", "id": 2489245907, "lat": 35.0071133, "lon": 43.0946379, "tags": {"alt_name": "\u0642\u0631\u064a\u0629 \u0641\u0631\u062d\u0627\u0646 \u0627\u0644\u0643\u0631\u062f\u064a", "int_name": "Qaryat Far\u1e29\u0101n al Kurd\u012b, Qaryat Farhan al Kurdi", "name": "\u0642\u0631\u064a\u0629 \u0641\u0631\u062d\u0627\u0646 \u0627\u0644\u0643\u0631\u062f\u064a", "name:ar": "\u0642\u0631\u064a\u0629 \u0641\u0631\u062d\u0627\u0646 \u0627\u0644\u0643\u0631\u062f\u064a", "name:ar1": "\u0642\u0631\u064a\u0629 \u0641\u0631\u062d\u0627\u0646 \u0627\u0644\u0643\u0631\u062f\u064a", "name:de": "Qaryat Farhan al Kurdi", "name:en": "Qaryat Farhan al Kurdi", "name:fr": "Qaryat Farhan al Kurdi", "place": "village"}}, {"type": "node", "id": 2489245908, "lat": 35.086493, "lon": 43.187854, "tags": {"alt_name": "\u0642\u0631\u064a\u0629 \u0645\u0633\u0644\u064a\u0644\u0629", "int_name": "Qaryat Masl\u012blah, \u0642\u0631\u064a\u0629 \u0645\u0633\u0644\u064a\u0644\u0647, Qaryat Maslilah, \u0642\u0631\u064a\u0629 \u0645\u0633\u0644\u064a\u0644\u0647", "name": "\u0642\u0631\u064a\u0629 \u0645\u0633\u0644\u064a\u0644\u0629", "name:ar": "\u0642\u0631\u064a\u0629 \u0645\u0633\u0644\u064a\u0644\u0629", "name:ar1": "\u0642\u0631\u064a\u0629 \u0645\u0633\u0644\u064a\u0644\u0629", "name:de": "Qaryat Maslilah", "name:en": "Qaryat Maslilah", "name:fr": "Qaryat Maslilah", "place": "village"}}, {"type": "node", "id": 2489245909, "lat": 35.0671336, "lon": 43.1533887, "tags": {"alt_name": "\u0642\u0631\u064a\u0629 \u0631\u062c\u0644\u0629 \u0627\u0644\u0639\u0648\u0633\u062c", "int_name": "Qaryat Rijlat al Awsaj, Qaryat Rijlat al Awsaj", "name": "\u0642\u0631\u064a\u0629 \u0631\u062c\u0644\u0629 \u0627\u0644\u0639\u0648\u0633\u062c", "name:ar": "\u0642\u0631\u064a\u0629 \u0631\u062c\u0644\u0629 \u0627\u0644\u0639\u0648\u0633\u062c", "name:ar1": "\u0642\u0631\u064a\u0629 \u0631\u062c\u0644\u0629 \u0627\u0644\u0639\u0648\u0633\u062c", "name:de": "Qaryat Rijlat al Awsaj", "name:en": "Qaryat Rijlat al Awsaj", "name:fr": "Qaryat Rijlat al Awsaj", "place": "village"}}, {"type": "node", "id": 2489245912, "lat": 35.093374, "lon": 43.003571, "tags": {"alt_name": "\u0642\u0631\u064a\u0629 \u0627\u0644\u063a\u0632\u0644\u0627\u0646\u064a\u0627\u062a", "int_name": "Qaryat al Ghazl\u0101n\u012by\u0101t, \u0642\u0631\u064a\u0629 \u0627\u0644\u063a\u0632\u0644\u0627\u0646\u064a\u0627\u062a, Qaryat al Ghazlaniyat, \u0642\u0631\u064a\u0629 \u0627\u0644\u063a\u0632\u0644\u0627\u0646\u064a\u0627\u062a", "name": "\u0642\u0631\u064a\u0629 \u0627\u0644\u063a\u0632\u0644\u0627\u0646\u064a\u0627\u062a", "name:ar": "\u0642\u0631\u064a\u0629 \u0627\u0644\u063a\u0632\u0644\u0627\u0646\u064a\u0627\u062a", "name:ar1": "\u0642\u0631\u064a\u0629 \u0627\u0644\u063a\u0632\u0644\u0627\u0646\u064a\u0627\u062a", "name:de": "Qaryat al Ghazlaniyat", "name:en": "Qaryat al Ghazlaniyat", "name:fr": "Qaryat al Ghazlaniyat", "place": "village"}}, {"type": "node", "id": 2489245919, "lat": 35.01852, "lon": 43.026416, "tags": {"alt_name": "\u0642\u0631\u064a\u0629 \u0627\u0644\u062c\u0647\u0631\u064a\u0632", "int_name": "Qaryat al Jahr\u012bz, \u0642\u0631\u064a\u0629 \u0627\u0644\u062c\u0647\u0631\u064a\u0632, Qaryat al Jahriz, \u0642\u0631\u064a\u0629 \u0627\u0644\u062c\u0647\u0631\u064a\u0632", "name": "\u0642\u0631\u064a\u0629 \u0627\u0644\u062c\u0647\u0631\u064a\u0632", "name:ar": "\u0642\u0631\u064a\u0629 \u0627\u0644\u062c\u0647\u0631\u064a\u0632", "name:ar1": "\u0642\u0631\u064a\u0629 \u0627\u0644\u062c\u0647\u0631\u064a\u0632", "name:de": "Qaryat al Jahriz", "name:en": "Qaryat al Jahriz", "name:fr": "Qaryat al Jahriz", "place": "village"}}, {"type": "node", "id": 2489245926, "lat": 35.107592, "lon": 43.136814, "tags": {"alt_name": "\u0642\u0631\u064a\u0629 \u0627\u0644\u0645\u0644\u0627\u0644\u064a", "int_name": "Qaryat al Mal\u0101l\u012b, \u0642\u0631\u064a\u0629 \u0627\u0644\u0645\u0644\u0627\u0644\u064a, Qaryat al Malali, \u0642\u0631\u064a\u0629 \u0627\u0644\u0645\u0644\u0627\u0644\u064a", "name": "\u0642\u0631\u064a\u0629 \u0627\u0644\u0645\u0644\u0627\u0644\u064a", "name:ar": "\u0642\u0631\u064a\u0629 \u0627\u0644\u0645\u0644\u0627\u0644\u064a", "name:ar1": "\u0642\u0631\u064a\u0629 \u0627\u0644\u0645\u0644\u0627\u0644\u064a", "name:de": "Qaryat al Malali", "name:en": "Qaryat al Malali", "name:fr": "Qaryat al Malali", "place": "village"}}, {"type": "node", "id": 2489245933, "lat": 35.082176, "lon": 43.102578, "tags": {"alt_name": "\u0642\u0631\u064a\u0629 \u0627\u0644\u0635\u0643\u0631\u064a\u0629", "int_name": "Qaryat a\u015f \u015eakr\u012byah, \u0642\u0631\u064a\u0629 \u0627\u0644\u0635\u0643\u0631\u064a\u0629, Qaryat as Sakriyah, \u0642\u0631\u064a\u0629 \u0627\u0644\u0635\u0643\u0631\u064a\u0629", "name": "\u0642\u0631\u064a\u0629 \u0627\u0644\u0635\u0643\u0631\u064a\u0629", "name:ar": "\u0642\u0631\u064a\u0629 \u0627\u0644\u0635\u0643\u0631\u064a\u0629", "name:ar1": "\u0642\u0631\u064a\u0629 \u0627\u0644\u0635\u0643\u0631\u064a\u0629", "name:de": "Qaryat as Sakriyah", "name:en": "Qaryat as Sakriyah", "name:fr": "Qaryat as Sakriyah", "place": "village"}}, {"type": "node", "id": 2489245940, "lat": 35.022478, "lon": 43.115997, "tags": {"alt_name": "\u0642\u0631\u064a\u0629 \u0627\u0644\u0633\u0643\u0631\u064a\u0629", "int_name": "Qaryat as Sukar\u012byah, \u0642\u0631\u064a\u0629 \u0627\u0644\u0633\u0643\u0631\u064a\u0629, Qaryat as Sukariyah, \u0642\u0631\u064a\u0629 \u0627\u0644\u0633\u0643\u0631\u064a\u0629", "name": "\u0642\u0631\u064a\u0629 \u0627\u0644\u0633\u0643\u0631\u064a\u0629", "name:ar": "\u0642\u0631\u064a\u0629 \u0627\u0644\u0633\u0643\u0631\u064a\u0629", "name:ar1": "\u0642\u0631\u064a\u0629 \u0627\u0644\u0633\u0643\u0631\u064a\u0629", "name:de": "Qaryat as Sukariyah", "name:en": "Qaryat as Sukariyah", "name:fr": "Qaryat as Sukariyah", "place": "village"}}, {"type": "node", "id": 2489245947, "lat": 35.081981, "lon": 43.101652, "tags": {"alt_name": "\u0631\u0627\u0648\u0629", "int_name": "R\u0101wah, \u0631\u0627\u0648\u0629, Rawah, \u0631\u0627\u0648\u0629", "name": "\u0631\u0627\u0648\u0629", "name:ar": "\u0631\u0627\u0648\u0629", "name:ar1": "\u0631\u0627\u0648\u0629", "name:de": "Rawah", "name:en": "Rawah", "name:fr": "Rawah", "place": "village"}}, {"type": "node", "id": 2489245954, "lat": 35.077163, "lon": 43.009576, "tags": {"alt_name": "\u0635\u0643\u0631", "int_name": "Sagr, \u0635\u06af\u0631, Sagr, \u0635\u06af\u0631", "name": "\u0635\u0643\u0631", "name:ar": "\u0635\u0643\u0631", "name:ar1": "\u0635\u0643\u0631", "name:de": "Sagr", "name:en": "Sagr", "name:fr": "Sagr", "place": "village"}}, {"type": "node", "id": 2489245986, "lat": 34.957249, "lon": 43.082149, "tags": {"alt_name": "\u062a\u0644 \u063a\u062f\u064a\u0631 \u0627\u0644\u0634\u0648\u0643", "int_name": "Tall Ghdr\u012br ash Shawk, \u062a\u0644 \u063a\u062f\u064a\u0631 \u0627\u0644\u0634\u0648\u0643, Tall Ghdrir ash Shawk, \u062a\u0644 \u063a\u062f\u064a\u0631 \u0627\u0644\u0634\u0648\u0643", "name": "\u062a\u0644 \u063a\u062f\u064a\u0631 \u0627\u0644\u0634\u0648\u0643", "name:ar": "\u062a\u0644 \u063a\u062f\u064a\u0631 \u0627\u0644\u0634\u0648\u0643", "name:ar1": "\u062a\u0644 \u063a\u062f\u064a\u0631 \u0627\u0644\u0634\u0648\u0643", "name:de": "Tall Ghdrir ash Shawk", "name:en": "Tall Ghdrir ash Shawk", "name:fr": "Tall Ghdrir ash Shawk", "place": "village"}}, {"type": "node", "id": 2489246049, "lat": 35.084148, "lon": 43.191136, "tags": {"alt_name": "\u064a\u0627\u0633\u064a\u0646 \u0627\u0644\u0639\u0644\u064a", "int_name": "Y\u0101s\u012bn al Al\u012b, \u064a\u0627\u0633\u064a\u0646 \u0627\u0644\u0639\u0644\u064a, Yasin al Ali, \u064a\u0627\u0633\u064a\u0646 \u0627\u0644\u0639\u0644\u064a", "name": "\u064a\u0627\u0633\u064a\u0646 \u0627\u0644\u0639\u0644\u064a", "name:ar": "\u064a\u0627\u0633\u064a\u0646 \u0627\u0644\u0639\u0644\u064a", "name:ar1": "\u064a\u0627\u0633\u064a\u0646 \u0627\u0644\u0639\u0644\u064a", "name:de": "Yasin al Ali", "name:en": "Yasin al Ali", "name:fr": "Yasin al Ali", "place": "village"}}, {"type": "node", "id": 2489246063, "lat": 35.0666898, "lon": 43.154637, "tags": {"alt_name": "\u0642\u0631\u064a\u0629 \u0631\u062c\u0644\u0647 \u0627\u0644\u0639\u0648\u0633\u062c", "int_name": "\u0642\u0631\u064a\u0629 \u0631\u062c\u0644\u0647 \u0627\u0644\u0639\u0648\u0633\u062c, \u0642\u0631\u064a\u0629 \u0631\u062c\u0644\u0647 \u0627\u0644\u0639\u0648\u0633\u062c", "name": "\u0642\u0631\u064a\u0629 \u0631\u062c\u0644\u0647 \u0627\u0644\u0639\u0648\u0633\u062c", "name:ar": "\u0642\u0631\u064a\u0629 \u0631\u062c\u0644\u0647 \u0627\u0644\u0639\u0648\u0633\u062c", "name:ar1": "\u0642\u0631\u064a\u0629 \u0631\u062c\u0644\u0647 \u0627\u0644\u0639\u0648\u0633\u062c", "name:de": "\u0642\u0631\u064a\u0629 \u0631\u062c\u0644\u0647 \u0627\u0644\u0639\u0648\u0633\u062c", "name:fr": "\u0642\u0631\u064a\u0629 \u0631\u062c\u0644\u0647 \u0627\u0644\u0639\u0648\u0633\u062c", "place": "village"}}, {"type": "node", "id": 2489246070, "lat": 35.007373, "lon": 43.096463, "tags": {"alt_name": "\u0642\u0631\u064a\u0629 \u0641\u0631\u062d\u0627\u0646\u0646 \u0627\u0644\u0643\u0631\u062f\u064a", "int_name": "\u0642\u0631\u064a\u0629 \u0641\u0631\u062d\u0627\u0646\u0646 \u0627\u0644\u0643\u0631\u062f\u064a, \u0642\u0631\u064a\u0629 \u0641\u0631\u062d\u0627\u0646\u0646 \u0627\u0644\u0643\u0631\u062f\u064a", "name": "\u0642\u0631\u064a\u0629 \u0641\u0631\u062d\u0627\u0646\u0646 \u0627\u0644\u0643\u0631\u062f\u064a", "name:ar": "\u0642\u0631\u064a\u0629 \u0641\u0631\u062d\u0627\u0646\u0646 \u0627\u0644\u0643\u0631\u062f\u064a", "name:ar1": "\u0642\u0631\u064a\u0629 \u0641\u0631\u062d\u0627\u0646\u0646 \u0627\u0644\u0643\u0631\u062f\u064a", "name:de": "\u0642\u0631\u064a\u0629 \u0641\u0631\u062d\u0627\u0646\u0646 \u0627\u0644\u0643\u0631\u062f\u064a", "name:fr": "\u0642\u0631\u064a\u0629 \u0641\u0631\u062d\u0627\u0646\u0646 \u0627\u0644\u0643\u0631\u062f\u064a", "place": "village"}}, {"type": "node", "id": 2489246695, "lat": 34.899495, "lon": 43.040309, "tags": {"alt_name": "\u0623\u062d\u0645\u062f \u0641\u0631\u0643\u0627\u0646", "int_name": "A\u1e29mad Fark\u0101n, \u0627\u062d\u0645\u062f \u0641\u0631\u0643\u0627\u0646, Ahmad Farkan, \u0627\u062d\u0645\u062f \u0641\u0631\u0643\u0627\u0646", "name": "\u0623\u062d\u0645\u062f \u0641\u0631\u0643\u0627\u0646", "name:ar": "\u0623\u062d\u0645\u062f \u0641\u0631\u0643\u0627\u0646", "name:ar1": "\u0623\u062d\u0645\u062f \u0641\u0631\u0643\u0627\u0646", "name:de": "Ahmad Farkan", "name:en": "Ahmad Farkan", "name:fr": "Ahmad Farkan", "place": "village"}}, {"type": "node", "id": 2489246701, "lat": 34.874036, "lon": 43.116119, "tags": {"alt_name": "\u0639\u0644\u064a \u062a\u0631\u0643\u064a", "int_name": "Al\u012b Turk\u012b, \u0639\u0644\u064a \u062a\u0631\u0643\u064a, Ali Turki, \u0639\u0644\u064a \u062a\u0631\u0643\u064a", "name": "\u0639\u0644\u064a \u062a\u0631\u0643\u064a", "name:ar": "\u0639\u0644\u064a \u062a\u0631\u0643\u064a", "name:ar1": "\u0639\u0644\u064a \u062a\u0631\u0643\u064a", "name:de": "Ali Turki", "name:en": "Ali Turki", "name:fr": "Ali Turki", "place": "village"}}, {"type": "node", "id": 2489246703, "lat": 34.848256, "lon": 43.089422, "tags": {"alt_name": "\u0623\u0633\u0648\u062f \u0639\u0648\u0627\u062f", "int_name": "Aswad Aww\u0101d, Aswad Awwad", "name": "\u0623\u0633\u0648\u062f \u0639\u0648\u0627\u062f", "name:ar": "\u0623\u0633\u0648\u062f \u0639\u0648\u0627\u062f", "name:ar1": "\u0623\u0633\u0648\u062f \u0639\u0648\u0627\u062f", "name:de": "Aswad Awwad", "name:en": "Aswad Awwad", "name:fr": "Aswad Awwad", "place": "village"}}, {"type": "node", "id": 2489246704, "lat": 34.902703, "lon": 43.054035, "tags": {"alt_name": "\u0628\u0646\u062f\u0631 \u062e\u0644\u0641", "int_name": "Bandar Khalaf, \u0628\u0646\u062f\u0631 \u062e\u0644\u0641, Bandar Khalaf, \u0628\u0646\u062f\u0631 \u062e\u0644\u0641", "name": "\u0628\u0646\u062f\u0631 \u062e\u0644\u0641", "name:ar": "\u0628\u0646\u062f\u0631 \u062e\u0644\u0641", "name:ar1": "\u0628\u0646\u062f\u0631 \u062e\u0644\u0641", "name:de": "Bandar Khalaf", "name:en": "Bandar Khalaf", "name:fr": "Bandar Khalaf", "place": "village"}}, {"type": "node", "id": 2489246705, "lat": 34.921163, "lon": 43.11832, "tags": {"alt_name": "\u0628\u0631\u062f\u064a \u0635\u064a\u0627\u062f", "int_name": "Bard\u012b \u015eayy\u0101d, \u0628\u0631\u062f\u064a \u0635\u064a\u0627\u062f, Bardi Sayyad, \u0628\u0631\u062f\u064a \u0635\u064a\u0627\u062f", "name": "\u0628\u0631\u062f\u064a \u0635\u064a\u0627\u062f", "name:ar": "\u0628\u0631\u062f\u064a \u0635\u064a\u0627\u062f", "name:ar1": "\u0628\u0631\u062f\u064a \u0635\u064a\u0627\u062f", "name:de": "Bardi Sayyad", "name:en": "Bardi Sayyad", "name:fr": "Bardi Sayyad", "place": "village"}}, {"type": "node", "id": 2489246710, "lat": 34.90022, "lon": 43.056008, "tags": {"alt_name": "\u062d\u0645\u0648\u062f \u0628\u0646\u062f\u0631", "int_name": "\u1e28am\u016bd Bandar, \u062d\u0645\u0648\u062f \u0628\u0646\u062f\u0631, Hamud Bandar, \u062d\u0645\u0648\u062f \u0628\u0646\u062f\u0631", "name": "\u062d\u0645\u0648\u062f \u0628\u0646\u062f\u0631", "name:ar": "\u062d\u0645\u0648\u062f \u0628\u0646\u062f\u0631", "name:ar1": "\u062d\u0645\u0648\u062f \u0628\u0646\u062f\u0631", "name:de": "Hamud Bandar", "name:en": "Hamud Bandar", "name:fr": "Hamud Bandar", "place": "village"}}, {"type": "node", "id": 2489246711, "lat": 34.876607, "lon": 43.059818, "tags": {"alt_name": "\u062d\u0631\u062f\u0627\u0646 \u0645\u0639\u064a\u0648\u0641", "int_name": "\u1e28ard\u0101n Mu\u012bwif, \u062d\u0631\u062f\u0627\u0646 \u0645\u0639\u064a\u0648\u0641, Hardan Muiwif, \u062d\u0631\u062f\u0627\u0646 \u0645\u0639\u064a\u0648\u0641", "name": "\u062d\u0631\u062f\u0627\u0646 \u0645\u0639\u064a\u0648\u0641", "name:ar": "\u062d\u0631\u062f\u0627\u0646 \u0645\u0639\u064a\u0648\u0641", "name:ar1": "\u062d\u0631\u062f\u0627\u0646 \u0645\u0639\u064a\u0648\u0641", "name:de": "Hardan Muiwif", "name:en": "Hardan Muiwif", "name:fr": "Hardan Muiwif", "place": "village"}}, {"type": "node", "id": 2489246712, "lat": 34.918148, "lon": 43.025655, "tags": {"alt_name": "\u062e\u0644\u0641 \u0634\u0645\u0631\u0627\u0646", "int_name": "Khalaf Shamr\u0101n, \u062e\u0644\u0641 \u0634\u0645\u0631\u0627\u0646, Khalaf Shamran, \u062e\u0644\u0641 \u0634\u0645\u0631\u0627\u0646", "name": "\u062e\u0644\u0641 \u0634\u0645\u0631\u0627\u0646", "name:ar": "\u062e\u0644\u0641 \u0634\u0645\u0631\u0627\u0646", "name:ar1": "\u062e\u0644\u0641 \u0634\u0645\u0631\u0627\u0646", "name:de": "Khalaf Shamran", "name:en": "Khalaf Shamran", "name:fr": "Khalaf Shamran", "place": "village"}}, {"type": "node", "id": 2489246713, "lat": 34.898904, "lon": 43.053535, "tags": {"alt_name": "\u062e\u0644\u064a\u0641 \u0634\u0645\u0631\u0627\u0646", "int_name": "Khal\u012bf Shamr\u0101n, \u062e\u0644\u064a\u0641 \u0634\u0645\u0631\u0627\u0646, Khalif Shamran, \u062e\u0644\u064a\u0641 \u0634\u0645\u0631\u0627\u0646", "name": "\u062e\u0644\u064a\u0641 \u0634\u0645\u0631\u0627\u0646", "name:ar": "\u062e\u0644\u064a\u0641 \u0634\u0645\u0631\u0627\u0646", "name:ar1": "\u062e\u0644\u064a\u0641 \u0634\u0645\u0631\u0627\u0646", "name:de": "Khalif Shamran", "name:en": "Khalif Shamran", "name:fr": "Khalif Shamran", "place": "village"}}, {"type": "node", "id": 2489246716, "lat": 34.923085, "lon": 43.117476, "tags": {"alt_name": "\u0645\u062d\u0645\u062f \u0628\u062f\u0631\u064a", "int_name": "Mu\u1e29ammad Badr\u012b, \u0645\u062d\u0645\u062f \u0628\u062f\u0631\u064a, Muhammad Badri, \u0645\u062d\u0645\u062f \u0628\u062f\u0631\u064a", "name": "\u0645\u062d\u0645\u062f \u0628\u062f\u0631\u064a", "name:ar": "\u0645\u062d\u0645\u062f \u0628\u062f\u0631\u064a", "name:ar1": "\u0645\u062d\u0645\u062f \u0628\u062f\u0631\u064a", "name:de": "Muhammad Badri", "name:en": "Muhammad Badri", "name:fr": "Muhammad Badri", "place": "village"}}, {"type": "node", "id": 2489246718, "lat": 34.924408, "lon": 43.117091, "tags": {"alt_name": "\u0645\u062d\u0645\u062f \u0641\u0627\u0631\u0633", "int_name": "Mu\u1e29ammad F\u0101ris, \u0645\u062d\u0645\u062f \u0641\u0627\u0631\u0633, Muhammad Faris, \u0645\u062d\u0645\u062f \u0641\u0627\u0631\u0633", "name": "\u0645\u062d\u0645\u062f \u0641\u0627\u0631\u0633", "name:ar": "\u0645\u062d\u0645\u062f \u0641\u0627\u0631\u0633", "name:ar1": "\u0645\u062d\u0645\u062f \u0641\u0627\u0631\u0633", "name:de": "Muhammad Faris", "name:en": "Muhammad Faris", "name:fr": "Muhammad Faris", "place": "village"}}, {"type": "node", "id": 2489246724, "lat": 34.901375, "lon": 43.099485, "tags": {"alt_name": "\u0642\u0631\u064a\u0629 \u0627\u0644\u0633\u0643\u0631\u064a\u0629", "int_name": "Qaryat as Sukkar\u012byah, \u0642\u0631\u064a\u0629 \u0627\u0644\u0633\u0643\u0631\u064a\u0629, Qaryat as Sukkariyah, \u0642\u0631\u064a\u0629 \u0627\u0644\u0633\u0643\u0631\u064a\u0629", "name": "\u0642\u0631\u064a\u0629 \u0627\u0644\u0633\u0643\u0631\u064a\u0629", "name:ar": "\u0642\u0631\u064a\u0629 \u0627\u0644\u0633\u0643\u0631\u064a\u0629", "name:ar1": "\u0642\u0631\u064a\u0629 \u0627\u0644\u0633\u0643\u0631\u064a\u0629", "name:de": "Qaryat as Sukkariyah", "name:en": "Qaryat as Sukkariyah", "name:fr": "Qaryat as Sukkariyah", "place": "village"}}, {"type": "node", "id": 2489246726, "lat": 34.926679, "lon": 43.117025, "tags": {"alt_name": "\u0635\u0631\u0639\u0627\u0646 \u0645\u062d\u0645\u062f", "int_name": "\u015ear\u0101n Mu\u1e29ammad, \u0635\u0631\u0639\u0627\u0646 \u0645\u062d\u0645\u062f, Saran Muhammad, \u0635\u0631\u0639\u0627\u0646 \u0645\u062d\u0645\u062f", "name": "\u0635\u0631\u0639\u0627\u0646 \u0645\u062d\u0645\u062f", "name:ar": "\u0635\u0631\u0639\u0627\u0646 \u0645\u062d\u0645\u062f", "name:ar1": "\u0635\u0631\u0639\u0627\u0646 \u0645\u062d\u0645\u062f", "name:de": "Saran Muhammad", "name:en": "Saran Muhammad", "name:fr": "Saran Muhammad", "place": "village"}}, {"type": "node", "id": 2489246729, "lat": 34.896236, "lon": 43.101051, "tags": {"alt_name": "\u062a\u0644 \u0627\u0644\u0633\u0643\u0631", "int_name": "Tall ash Sakar, \u062a\u0644 \u0627\u0644\u0633\u0643\u0631, Tall ash Sakar, \u062a\u0644 \u0627\u0644\u0633\u0643\u0631", "name": "\u062a\u0644 \u0627\u0644\u0633\u0643\u0631", "name:ar": "\u062a\u0644 \u0627\u0644\u0633\u0643\u0631", "name:ar1": "\u062a\u0644 \u0627\u0644\u0633\u0643\u0631", "name:de": "Tall ash Sakar", "name:en": "Tall ash Sakar", "name:fr": "Tall ash Sakar", "place": "village"}}, {"type": "node", "id": 2489246745, "lat": 34.848319, "lon": 43.015956, "tags": {"alt_name": "\u0632\u064a\u0628\u0627\u0646", "int_name": "Z\u012bb\u0101n, \u0632\u064a\u0628\u0627\u0646, Ziban, \u0632\u064a\u0628\u0627\u0646", "name": "\u0632\u064a\u0628\u0627\u0646", "name:ar": "\u0632\u064a\u0628\u0627\u0646", "name:ar1": "\u0632\u064a\u0628\u0627\u0646", "name:de": "Ziban", "name:en": "Ziban", "name:fr": "Ziban", "place": "village"}}, {"type": "node", "id": 2489246824, "lat": 34.821123, "lon": 43.131821, "tags": {"alt_name": "\u0639\u0628\u062f \u0627\u0644\u0644\u0647 \u0633\u0648\u0627\u062f\u064a", "int_name": "Abd All\u0101h Suw\u0101d\u012b, \u0639\u0628\u062f \ufdf2 \u0633\u0648\u0627\u062f\u064a, Abd Allah Suwadi, \u0639\u0628\u062f \ufdf2 \u0633\u0648\u0627\u062f\u064a", "name": "\u0639\u0628\u062f \u0627\u0644\u0644\u0647 \u0633\u0648\u0627\u062f\u064a", "name:ar": "\u0639\u0628\u062f \u0627\u0644\u0644\u0647 \u0633\u0648\u0627\u062f\u064a", "name:ar1": "\u0639\u0628\u062f \u0627\u0644\u0644\u0647 \u0633\u0648\u0627\u062f\u064a", "name:de": "Abd Allah Suwadi", "name:en": "Abd Allah Suwadi", "name:fr": "Abd Allah Suwadi", "place": "village"}}, {"type": "node", "id": 2489246825, "lat": 34.902239, "lon": 43.149103, "tags": {"alt_name": "\u0639\u0628\u062f \u0639\u0646\u064a\u0632\u064a", "int_name": "Abd An\u012bz\u012b, \u0639\u0628\u062f \u0639\u0646\u064a\u0632\u064a, Abd Anizi, \u0639\u0628\u062f \u0639\u0646\u064a\u0632\u064a", "name": "\u0639\u0628\u062f \u0639\u0646\u064a\u0632\u064a", "name:ar": "\u0639\u0628\u062f \u0639\u0646\u064a\u0632\u064a", "name:ar1": "\u0639\u0628\u062f \u0639\u0646\u064a\u0632\u064a", "name:de": "Abd Anizi", "name:en": "Abd Anizi", "name:fr": "Abd Anizi", "place": "village"}}, {"type": "node", "id": 2489246831, "lat": 34.930941, "lon": 43.178123, "tags": {"alt_name": "\u0623\u062d\u0645\u062f \u0645\u0647\u062f\u064a", "int_name": "A\u1e29mad Mahd\u012b, \u0627\u062d\u0645\u062f \u0645\u0647\u062f\u064a, Ahmad Mahdi, \u0627\u062d\u0645\u062f \u0645\u0647\u062f\u064a", "name": "\u0623\u062d\u0645\u062f \u0645\u0647\u062f\u064a", "name:ar": "\u0623\u062d\u0645\u062f \u0645\u0647\u062f\u064a", "name:ar1": "\u0623\u062d\u0645\u062f \u0645\u0647\u062f\u064a", "name:de": "Ahmad Mahdi", "name:en": "Ahmad Mahdi", "name:fr": "Ahmad Mahdi", "place": "village"}}, {"type": "node", "id": 2489246835, "lat": 34.829008, "lon": 43.168717, "tags": {"alt_name": "\u0639\u0644\u064a \u0639\u0628\u062f \u0627\u0644\u0644\u0647", "int_name": "Al\u012b Abd All\u0101h, \u0639\u0644\u064a \u0639\u0628\u062f \ufdf2, Ali Abd Allah, \u0639\u0644\u064a \u0639\u0628\u062f \ufdf2", "name": "\u0639\u0644\u064a \u0639\u0628\u062f \u0627\u0644\u0644\u0647", "name:ar": "\u0639\u0644\u064a \u0639\u0628\u062f \u0627\u0644\u0644\u0647", "name:ar1": "\u0639\u0644\u064a \u0639\u0628\u062f \u0627\u0644\u0644\u0647", "name:de": "Ali Abd Allah", "name:en": "Ali Abd Allah", "name:fr": "Ali Abd Allah", "place": "village"}}, {"type": "node", "id": 2489246836, "lat": 34.816454, "lon": 43.16172, "tags": {"alt_name": "\u0639\u0644\u064a \u0645\u062e\u0644\u0641 \u0633\u0648\u0627\u062f\u064a", "int_name": "Al\u012b Mukhlif Suw\u0101d\u012b, \u0639\u0644\u064a \u0645\u062e\u0644\u0641 \u0633\u0648\u0627\u062f\u064a, Ali Mukhlif Suwadi, \u0639\u0644\u064a \u0645\u062e\u0644\u0641 \u0633\u0648\u0627\u062f\u064a", "name": "\u0639\u0644\u064a \u0645\u062e\u0644\u0641 \u0633\u0648\u0627\u062f\u064a", "name:ar": "\u0639\u0644\u064a \u0645\u062e\u0644\u0641 \u0633\u0648\u0627\u062f\u064a", "name:ar1": "\u0639\u0644\u064a \u0645\u062e\u0644\u0641 \u0633\u0648\u0627\u062f\u064a", "name:de": "Ali Mukhlif Suwadi", "name:en": "Ali Mukhlif Suwadi", "name:fr": "Ali Mukhlif Suwadi", "place": "village"}}, {"type": "node", "id": 2489246837, "lat": 34.828004, "lon": 43.129465, "tags": {"alt_name": "\u0639\u0646\u062a\u0631 \u062d\u0645\u0648\u062f \u0639\u0637\u064a\u0629", "int_name": "Antar \u1e28am\u016bd A\u0163\u012byah, \u0639\u0646\u062a\u0631 \u062d\u0645\u0648\u062f \u0639\u0637\u064a\u0629, Antar Hamud Atiyah, \u0639\u0646\u062a\u0631 \u062d\u0645\u0648\u062f \u0639\u0637\u064a\u0629", "name": "\u0639\u0646\u062a\u0631 \u062d\u0645\u0648\u062f \u0639\u0637\u064a\u0629", "name:ar": "\u0639\u0646\u062a\u0631 \u062d\u0645\u0648\u062f \u0639\u0637\u064a\u0629", "name:ar1": "\u0639\u0646\u062a\u0631 \u062d\u0645\u0648\u062f \u0639\u0637\u064a\u0629", "name:de": "Antar Hamud Atiyah", "name:en": "Antar Hamud Atiyah", "name:fr": "Antar Hamud Atiyah", "place": "village"}}, {"type": "node", "id": 2489246839, "lat": 34.872725, "lon": 43.123241, "tags": {"alt_name": "\u0639\u0631\u0628 \u062c\u0627\u062d\u0648\u0637 \u062a\u0631\u0643\u064a", "int_name": "Arab J\u0101\u1e29\u016b\u0163 Turk\u012b, \u0639\u0631\u0628 \u062c\u0627\u062d\u0648\u0637 \u062a\u0631\u0643\u064a, Arab Jahut Turki, \u0639\u0631\u0628 \u062c\u0627\u062d\u0648\u0637 \u062a\u0631\u0643\u064a", "name": "\u0639\u0631\u0628 \u062c\u0627\u062d\u0648\u0637 \u062a\u0631\u0643\u064a", "name:ar": "\u0639\u0631\u0628 \u062c\u0627\u062d\u0648\u0637 \u062a\u0631\u0643\u064a", "name:ar1": "\u0639\u0631\u0628 \u062c\u0627\u062d\u0648\u0637 \u062a\u0631\u0643\u064a", "name:de": "Arab Jahut Turki", "name:en": "Arab Jahut Turki", "name:fr": "Arab Jahut Turki", "place": "village"}}, {"type": "node", "id": 2489246840, "lat": 34.834126, "lon": 43.128653, "tags": {"alt_name": "\u0639\u0631\u0628 \u0645\u062d\u0645\u062f \u0639\u0628\u062f \u0627\u0644\u0644\u0647", "int_name": "Arab Mu\u1e29ammad Abd All\u0101h, \u0639\u0631\u0628 \u0645\u062d\u0645\u062f \u0639\u0628\u062f \ufdf2, Arab Muhammad Abd Allah, \u0639\u0631\u0628 \u0645\u062d\u0645\u062f \u0639\u0628\u062f \ufdf2", "name": "\u0639\u0631\u0628 \u0645\u062d\u0645\u062f \u0639\u0628\u062f \u0627\u0644\u0644\u0647", "name:ar": "\u0639\u0631\u0628 \u0645\u062d\u0645\u062f \u0639\u0628\u062f \u0627\u0644\u0644\u0647", "name:ar1": "\u0639\u0631\u0628 \u0645\u062d\u0645\u062f \u0639\u0628\u062f \u0627\u0644\u0644\u0647", "name:de": "Arab Muhammad Abd Allah", "name:en": "Arab Muhammad Abd Allah", "name:fr": "Arab Muhammad Abd Allah", "place": "village"}}, {"type": "node", "id": 2489246842, "lat": 34.914269, "lon": 43.13331, "tags": {"alt_name": "\u0627\u0644\u0634\u0647\u064a\u062f \u0647\u0648\u064a\u0633 \u0641\u0631\u0627\u0633", "int_name": "Ash Shah\u012bd Huways Fir\u0101s, \u0627\u0644\u0634\u0647\u064a\u062f \u0647\u0648\u064a\u0633 \u0641\u0631\u0627\u0633, Ash Shahid Huways Firas, \u0627\u0644\u0634\u0647\u064a\u062f \u0647\u0648\u064a\u0633 \u0641\u0631\u0627\u0633", "name": "\u0627\u0644\u0634\u0647\u064a\u062f \u0647\u0648\u064a\u0633 \u0641\u0631\u0627\u0633", "name:ar": "\u0627\u0644\u0634\u0647\u064a\u062f \u0647\u0648\u064a\u0633 \u0641\u0631\u0627\u0633", "name:ar1": "\u0627\u0644\u0634\u0647\u064a\u062f \u0647\u0648\u064a\u0633 \u0641\u0631\u0627\u0633", "name:de": "Ash Shahid Huways Firas", "name:en": "Ash Shahid Huways Firas", "name:fr": "Ash Shahid Huways Firas", "place": "village"}}, {"type": "node", "id": 2489246847, "lat": 35.022252, "lon": 43.284182, "tags": {"alt_name": "\u0628\u064a\u062a \u0639\u0628\u0627\u0633 \u0645\u062d\u0645\u062f", "int_name": "Bayt Abb\u0101s Mu\u1e29ammad, \u0628\u064a\u062a \u0639\u0628\u0627\u0633 \u0645\u062d\u0645\u062f, Bayt Abbas Muhammad, \u0628\u064a\u062a \u0639\u0628\u0627\u0633 \u0645\u062d\u0645\u062f", "name": "\u0628\u064a\u062a \u0639\u0628\u0627\u0633 \u0645\u062d\u0645\u062f", "name:ar": "\u0628\u064a\u062a \u0639\u0628\u0627\u0633 \u0645\u062d\u0645\u062f", "name:ar1": "\u0628\u064a\u062a \u0639\u0628\u0627\u0633 \u0645\u062d\u0645\u062f", "name:de": "Bayt Abbas Muhammad", "name:en": "Bayt Abbas Muhammad", "name:fr": "Bayt Abbas Muhammad", "place": "village"}}, {"type": "node", "id": 2489246849, "lat": 34.844929, "lon": 43.162226, "tags": {"alt_name": "\u062f\u0644\u0641 \u0623\u062d\u0645\u062f", "int_name": "Dalaf A\u1e29mad, \u062f\u0644\u0641 \u0627\u062d\u0645\u062f, Dalaf Ahmad, \u062f\u0644\u0641 \u0627\u062d\u0645\u062f", "name": "\u062f\u0644\u0641 \u0623\u062d\u0645\u062f", "name:ar": "\u062f\u0644\u0641 \u0623\u062d\u0645\u062f", "name:ar1": "\u062f\u0644\u0641 \u0623\u062d\u0645\u062f", "name:de": "Dalaf Ahmad", "name:en": "Dalaf Ahmad", "name:fr": "Dalaf Ahmad", "place": "village"}}, {"type": "node", "id": 2489246854, "lat": 34.847686, "lon": 43.171925, "tags": {"alt_name": "\u062e\u0644\u0641 \u0643\u0631\u0643\u0648\u062f", "int_name": "Khalaf Kark\u016bd, \u062e\u0644\u0641 \u0643\u0631\u0643\u0648\u062f, Khalaf Karkud, \u062e\u0644\u0641 \u0643\u0631\u0643\u0648\u062f", "name": "\u062e\u0644\u0641 \u0643\u0631\u0643\u0648\u062f", "name:ar": "\u062e\u0644\u0641 \u0643\u0631\u0643\u0648\u062f", "name:ar1": "\u062e\u0644\u0641 \u0643\u0631\u0643\u0648\u062f", "name:de": "Khalaf Karkud", "name:en": "Khalaf Karkud", "name:fr": "Khalaf Karkud", "place": "village"}}, {"type": "node", "id": 2489246855, "lat": 34.807471, "lon": 43.154596, "tags": {"alt_name": "\u062e\u0644\u0641 \u0645\u0646\u0641\u064a", "int_name": "Khalaf Manf\u012b, \u062e\u0644\u0641 \u0645\u0646\u0641\u064a, Khalaf Manfi, \u062e\u0644\u0641 \u0645\u0646\u0641\u064a", "name": "\u062e\u0644\u0641 \u0645\u0646\u0641\u064a", "name:ar": "\u062e\u0644\u0641 \u0645\u0646\u0641\u064a", "name:ar1": "\u062e\u0644\u0641 \u0645\u0646\u0641\u064a", "name:de": "Khalaf Manfi", "name:en": "Khalaf Manfi", "name:fr": "Khalaf Manfi", "place": "village"}}, {"type": "node", "id": 2489246862, "lat": 34.824814, "lon": 43.17077, "tags": {"alt_name": "\u0645\u062e\u0644\u0641 \u062d\u0645\u0648\u0644", "int_name": "Mukhlif \u1e28am\u016bl, \u0645\u062e\u0644\u0641 \u062d\u0645\u0648\u0644, Mukhlif Hamul, \u0645\u062e\u0644\u0641 \u062d\u0645\u0648\u0644", "name": "\u0645\u062e\u0644\u0641 \u062d\u0645\u0648\u0644", "name:ar": "\u0645\u062e\u0644\u0641 \u062d\u0645\u0648\u0644", "name:ar1": "\u0645\u062e\u0644\u0641 \u062d\u0645\u0648\u0644", "name:de": "Mukhlif Hamul", "name:en": "Mukhlif Hamul", "name:fr": "Mukhlif Hamul", "place": "village"}}, {"type": "node", "id": 2489246866, "lat": 34.92301, "lon": 43.170748, "tags": {"alt_name": "\u0642\u0631\u064a\u0629 \u0639\u0633\u064a\u0644\u0629", "int_name": "Qaryat As\u012blah, Qaryat Usaylah, \u0642\u0631\u064a\u0629 \u0639\u0633\u064a\u0644\u0629, Qaryat Asilah, Qaryat Usaylah, \u0642\u0631\u064a\u0629 \u0639\u0633\u064a\u0644\u0629", "name": "\u0642\u0631\u064a\u0629 \u0639\u0633\u064a\u0644\u0629", "name:ar": "\u0642\u0631\u064a\u0629 \u0639\u0633\u064a\u0644\u0629", "name:ar1": "\u0642\u0631\u064a\u0629 \u0639\u0633\u064a\u0644\u0629", "name:de": "Qaryat Asilah", "name:en": "Qaryat Asilah", "name:fr": "Qaryat Asilah", "place": "village"}}, {"type": "node", "id": 2489246868, "lat": 34.863524, "lon": 43.130573, "tags": {"alt_name": "\u0642\u0631\u064a\u0629 \u0632\u0647\u064a\u0644\u064a\u0644 \u0627\u0644\u063a\u0631\u0628\u064a", "int_name": "Qaryat Zuh\u012bl\u012bl al Gharb\u012b, \u0642\u0631\u064a\u0629 \u0632\u0647\u064a\u0644\u064a\u0644 \u0627\u0644\u063a\u0631\u0628\u064a, Qaryat Zuhilil al Gharbi, \u0642\u0631\u064a\u0629 \u0632\u0647\u064a\u0644\u064a\u0644 \u0627\u0644\u063a\u0631\u0628\u064a", "name": "\u0642\u0631\u064a\u0629 \u0632\u0647\u064a\u0644\u064a\u0644 \u0627\u0644\u063a\u0631\u0628\u064a", "name:ar": "\u0642\u0631\u064a\u0629 \u0632\u0647\u064a\u0644\u064a\u0644 \u0627\u0644\u063a\u0631\u0628\u064a", "name:ar1": "\u0642\u0631\u064a\u0629 \u0632\u0647\u064a\u0644\u064a\u0644 \u0627\u0644\u063a\u0631\u0628\u064a", "name:de": "Qaryat Zuhilil al Gharbi", "name:en": "Qaryat Zuhilil al Gharbi", "name:fr": "Qaryat Zuhilil al Gharbi", "place": "village"}}, {"type": "node", "id": 2489246871, "lat": 34.823244, "lon": 43.168171, "tags": {"alt_name": "\u0633\u0639\u064a\u062f \u0639\u064a\u0644\u0627\u0646", "int_name": "Sa\u012bd Ayl\u0101n, \u0633\u0639\u064a\u062f \u0639\u064a\u0644\u0627\u0646, Said Aylan, \u0633\u0639\u064a\u062f \u0639\u064a\u0644\u0627\u0646", "name": "\u0633\u0639\u064a\u062f \u0639\u064a\u0644\u0627\u0646", "name:ar": "\u0633\u0639\u064a\u062f \u0639\u064a\u0644\u0627\u0646", "name:ar1": "\u0633\u0639\u064a\u062f \u0639\u064a\u0644\u0627\u0646", "name:de": "Said Aylan", "name:en": "Said Aylan", "name:fr": "Said Aylan", "place": "village"}}, {"type": "node", "id": 2489253139, "lat": 35.1913, "lon": 43.385531, "tags": {"alt_name": "\u0645\u062d\u0645\u0648\u062f \u0625\u0628\u0631\u0627\u0647\u064a\u0645", "int_name": "Ma\u1e29m\u016bd Ibrah\u012bm, \u0645\u062d\u0645\u0648\u062f \u0627\u0628\u0631\u0647\u064a\u0645, Mahmud Ibrahim, \u0645\u062d\u0645\u0648\u062f \u0627\u0628\u0631\u0647\u064a\u0645", "name": "\u0645\u062d\u0645\u0648\u062f \u0625\u0628\u0631\u0627\u0647\u064a\u0645", "name:ar": "\u0645\u062d\u0645\u0648\u062f \u0625\u0628\u0631\u0627\u0647\u064a\u0645", "name:ar1": "\u0645\u062d\u0645\u0648\u062f \u0625\u0628\u0631\u0627\u0647\u064a\u0645", "name:de": "Mahmud Ibrahim", "name:en": "Mahmud Ibrahim", "name:fr": "Mahmud Ibrahim", "place": "village"}}, {"type": "node", "id": 2489253439, "lat": 35.1787509, "lon": 43.4301733, "tags": {"alt_name": "\u0642\u0631\u064a\u0629 \u0627\u0644\u0648\u0631\u062f\u064a\u0629", "int_name": "Qaryat al Ward\u012byah, Ward\u012byah, \u0642\u0631\u064a\u0629 \u0627\u0644\u0648\u0631\u062f\u064a\u0629, \u0648\u0631\u062f\u064a\u0629, Qaryat al Wardiyah, Wardiyah, \u0642\u0631\u064a\u0629 \u0627\u0644\u0648\u0631\u062f\u064a\u0629, \u0648\u0631\u062f\u064a\u0629", "name": "\u0627\u0644\u0648\u0631\u062f\u064a\u0629", "name:ar1": "\u0642\u0631\u064a\u0629 \u0627\u0644\u0648\u0631\u062f\u064a\u0629", "name:ckb": "\u0648\u06d5\u0631\u062f\u06cc\u06d5", "name:de": "Wardiyah", "name:en": "Wardiyah", "name:fr": "Wardiyah", "place": "village"}}, {"type": "node", "id": 2489254641, "lat": 35.175943, "lon": 43.13802, "tags": {"alt_name": "\u0639\u0641\u062a\u0627\u0646 \u0634\u0628\u0627\u0637", "int_name": "Aft\u0101n Shub\u0101\u0163, \u0639\u0641\u062a\u0627\u0646 \u0634\u0628\u0627\u0637, Aftan Shubat, \u0639\u0641\u062a\u0627\u0646 \u0634\u0628\u0627\u0637", "name": "\u0639\u0641\u062a\u0627\u0646 \u0634\u0628\u0627\u0637", "name:ar": "\u0639\u0641\u062a\u0627\u0646 \u0634\u0628\u0627\u0637", "name:ar1": "\u0639\u0641\u062a\u0627\u0646 \u0634\u0628\u0627\u0637", "name:de": "Aftan Shubat", "name:en": "Aftan Shubat", "name:fr": "Aftan Shubat", "place": "village"}}, {"type": "node", "id": 2489254659, "lat": 35.180982, "lon": 43.127493, "tags": {"alt_name": "\u0639\u0631\u0628 \u0631\u0627\u0634\u062f \u062d\u0645\u0627\u062f", "int_name": "Arab R\u0101shid \u1e28am\u0101d, \u0639\u0631\u0628 \u0631\u0627\u0634\u062f \u062d\u0645\u0627\u062f, Arab Rashid Hamad, \u0639\u0631\u0628 \u0631\u0627\u0634\u062f \u062d\u0645\u0627\u062f", "name": "\u0639\u0631\u0628 \u0631\u0627\u0634\u062f \u062d\u0645\u0627\u062f", "name:ar": "\u0639\u0631\u0628 \u0631\u0627\u0634\u062f \u062d\u0645\u0627\u062f", "name:ar1": "\u0639\u0631\u0628 \u0631\u0627\u0634\u062f \u062d\u0645\u0627\u062f", "name:de": "Arab Rashid Hamad", "name:en": "Arab Rashid Hamad", "name:fr": "Arab Rashid Hamad", "place": "village"}}, {"type": "node", "id": 2489254677, "lat": 35.181077, "lon": 43.091974, "tags": {"alt_name": "\u0639\u0627\u064a\u062f\u0644\u064a\u0627\u062a", "int_name": "\u0100ydal\u012by\u0101t, \u0639\u0627\u064a\u062f\u0644\u064a\u0627\u062a, Aydaliyat, \u0639\u0627\u064a\u062f\u0644\u064a\u0627\u062a", "name": "\u0639\u0627\u064a\u062f\u0644\u064a\u0627\u062a", "name:ar": "\u0639\u0627\u064a\u062f\u0644\u064a\u0627\u062a", "name:ar1": "\u0639\u0627\u064a\u062f\u0644\u064a\u0627\u062a", "name:de": "Aydaliyat", "name:en": "Aydaliyat", "name:fr": "Aydaliyat", "place": "village"}}, {"type": "node", "id": 2489254704, "lat": 35.1865231, "lon": 43.1056296, "tags": {"alt_name": "\u0645\u062c\u064a\u062f \u062f\u0627\u0646\u0648\u0643", "int_name": "Maj\u012bd D\u0101n\u016bk, \u0645\u062c\u064a\u062f \u062f\u0627\u0646\u0648\u0643, Majid Danuk, \u0645\u062c\u064a\u062f \u062f\u0627\u0646\u0648\u0643", "name": "\u0645\u062c\u064a\u062f \u062f\u0627\u0646\u0648\u0643", "name:ar": "\u0645\u062c\u064a\u062f \u062f\u0627\u0646\u0648\u0643", "name:ar1": "\u0645\u062c\u064a\u062f \u062f\u0627\u0646\u0648\u0643", "name:de": "Majid Danuk", "name:en": "Majid Danuk", "name:fr": "Majid Danuk", "place": "village"}}, {"type": "node", "id": 2489254718, "lat": 35.174805, "lon": 43.033447, "tags": {"alt_name": "\u0642\u0631\u064a\u0629 \u0622\u0644 \u0628\u0648 \u0639\u0628\u064a\u062f", "int_name": "Qaryat \u0100lb\u016b Ubayd, \u0642\u0631\u064a\u0629 \u0627\u0644\u0628\u0648 \u0639\u0628\u064a\u062f, Qaryat Albu Ubayd, \u0642\u0631\u064a\u0629 \u0627\u0644\u0628\u0648 \u0639\u0628\u064a\u062f", "name": "\u0642\u0631\u064a\u0629 \u0622\u0644 \u0628\u0648 \u0639\u0628\u064a\u062f", "name:ar": "\u0642\u0631\u064a\u0629 \u0622\u0644 \u0628\u0648 \u0639\u0628\u064a\u062f", "name:ar1": "\u0642\u0631\u064a\u0629 \u0622\u0644 \u0628\u0648 \u0639\u0628\u064a\u062f", "name:de": "Qaryat Albu Ubayd", "name:en": "Qaryat Albu Ubayd", "name:fr": "Qaryat Albu Ubayd", "place": "village"}}, {"type": "node", "id": 2489254739, "lat": 35.1861799, "lon": 43.1062073, "tags": {"alt_name": "\u0642\u0631\u064a\u0629 \u0635\u0628\u064a\u062d\u0629 \u0627\u0644\u0628\u062f\u0648", "int_name": "Qaryat \u015eubay\u1e29at al Bad\u016b, \u0642\u0631\u064a\u0629 \u0635\u0628\u064a\u062d\u0629 \u0627\u0644\u0628\u062f\u0648, Qaryat Subayhat al Badu, \u0642\u0631\u064a\u0629 \u0635\u0628\u064a\u062d\u0629 \u0627\u0644\u0628\u062f\u0648", "name": "\u0642\u0631\u064a\u0629 \u0635\u0628\u064a\u062d\u0629 \u0627\u0644\u0628\u062f\u0648", "name:ar": "\u0642\u0631\u064a\u0629 \u0635\u0628\u064a\u062d\u0629 \u0627\u0644\u0628\u062f\u0648", "name:ar1": "\u0642\u0631\u064a\u0629 \u0635\u0628\u064a\u062d\u0629 \u0627\u0644\u0628\u062f\u0648", "name:de": "Qaryat Subayhat al Badu", "name:en": "Qaryat Subayhat al Badu", "name:fr": "Qaryat Subayhat al Badu", "place": "village"}}, {"type": "node", "id": 2489254760, "lat": 35.1665294, "lon": 43.4315424, "tags": {"alt_name": "\u0633\u0628\u062a\u064a \u0639\u0632\u064a\u0632", "int_name": "Sabt\u012b Az\u012bz, \u0633\u0628\u062a\u064a \u0639\u0632\u064a\u0632, Sabti Aziz, \u0633\u0628\u062a\u064a \u0639\u0632\u064a\u0632", "name": "\u0633\u0628\u062a\u064a \u0639\u0632\u064a\u0632", "name:ar": "\u0633\u0628\u062a\u064a \u0639\u0632\u064a\u0632", "name:ar1": "\u0633\u0628\u062a\u064a \u0639\u0632\u064a\u0632", "name:de": "Sabti Aziz", "name:en": "Sabti Aziz", "name:fr": "Sabti Aziz", "place": "village"}}, {"type": "node", "id": 2489254778, "lat": 35.167123, "lon": 43.131985, "tags": {"alt_name": "\u062a\u0644 \u0635\u0628\u064a\u062d\u0627\u062a \u0627\u0644\u063a\u0631\u0628\u064a", "int_name": "Tall \u015eubay\u1e29\u0101t al Gharb\u012b, Tall \u015eub\u1e29\u0101t al Gharb\u012b, \u062a\u0644 \u0635\u0628\u062d\u0627\u062a \u0627\u0644\u063a\u0631\u0628\u064a, \u062a\u0644 \u0635\u0628\u064a\u062d\u0627\u062a \u0627\u0644\u063a\u0631\u0628\u064a, Tall Subayhat al Gharbi, Tall Subhat al Gharbi, \u062a\u0644 \u0635\u0628\u062d\u0627\u062a \u0627\u0644\u063a\u0631\u0628\u064a, \u062a\u0644 \u0635\u0628\u064a\u062d\u0627\u062a \u0627\u0644\u063a\u0631\u0628\u064a", "name": "\u062a\u0644 \u0635\u0628\u064a\u062d\u0627\u062a \u0627\u0644\u063a\u0631\u0628\u064a", "name:ar": "\u062a\u0644 \u0635\u0628\u064a\u062d\u0627\u062a \u0627\u0644\u063a\u0631\u0628\u064a", "name:ar1": "\u062a\u0644 \u0635\u0628\u064a\u062d\u0627\u062a \u0627\u0644\u063a\u0631\u0628\u064a", "name:de": "Tall Subayhat al Gharbi", "name:en": "Tall Subayhat al Gharbi", "name:fr": "Tall Subayhat al Gharbi", "place": "village"}}, {"type": "node", "id": 2489268178, "lat": 35.133326, "lon": 42.946498, "tags": {"alt_name": "\u062a\u0644 \u0631\u0628\u0627\u0643", "int_name": "Tall Rab\u0101k, \u062a\u0644 \u0631\u0628\u0627\u06a9, Tall Rabak, \u062a\u0644 \u0631\u0628\u0627\u06a9", "name": "\u062a\u0644 \u0631\u0628\u0627\u0643", "name:ar": "\u062a\u0644 \u0631\u0628\u0627\u0643", "name:ar1": "\u062a\u0644 \u0631\u0628\u0627\u0643", "name:de": "Tall Rabak", "name:en": "Tall Rabak", "name:fr": "Tall Rabak", "place": "village"}}, {"type": "node", "id": 2489268280, "lat": 35.0161194, "lon": 43.4212511, "tags": {"alt_name": "\u0639\u0628\u062f \u0627\u0644\u0644\u0647 \u0639\u062f\u064a", "int_name": "Abd All\u0101h Ud\u0101y, Abd Allah Uday", "name": "\u0639\u0628\u062f \u0627\u0644\u0644\u0647 \u0639\u062f\u064a", "name:ar": "\u0639\u0628\u062f \u0627\u0644\u0644\u0647 \u0639\u062f\u064a", "name:ar1": "\u0639\u0628\u062f \u0627\u0644\u0644\u0647 \u0639\u062f\u064a", "name:de": "Abd Allah Uday", "name:en": "Abd Allah Uday", "name:fr": "Abd Allah Uday", "place": "village"}}, {"type": "node", "id": 2489268281, "lat": 35.127134, "lon": 43.114487, "tags": {"alt_name": "\u0639\u0628\u062f \u0627\u0644\u0644\u0647 \u0627\u0644\u0639\u0628\u064a\u062f\u064a", "int_name": "Abd All\u0101h al Ubayd\u012b, \u0639\u0628\u062f\ufdf2 \u0627\u0644\u0639\u0628\u064a\u062f\u064a, Abd Allah al Ubaydi, \u0639\u0628\u062f\ufdf2 \u0627\u0644\u0639\u0628\u064a\u062f\u064a", "name": "\u0639\u0628\u062f \u0627\u0644\u0644\u0647 \u0627\u0644\u0639\u0628\u064a\u062f\u064a", "name:ar": "\u0639\u0628\u062f \u0627\u0644\u0644\u0647 \u0627\u0644\u0639\u0628\u064a\u062f\u064a", "name:ar1": "\u0639\u0628\u062f \u0627\u0644\u0644\u0647 \u0627\u0644\u0639\u0628\u064a\u062f\u064a", "name:de": "Abd Allah al Ubaydi", "name:en": "Abd Allah al Ubaydi", "name:fr": "Abd Allah al Ubaydi", "place": "village"}}, {"type": "node", "id": 2489268283, "lat": 35.101992, "lon": 43.375064, "tags": {"alt_name": "\u0639\u0628\u062f \u0627\u0644\u0641\u0631\u062d\u0627\u0646", "int_name": "Abd al Far\u1e29\u0101n, \u0639\u0628\u062f \u0627\u0644\u0641\u0631\u062d\u0627\u0646, Abd al Farhan, \u0639\u0628\u062f \u0627\u0644\u0641\u0631\u062d\u0627\u0646", "name": "\u0639\u0628\u062f \u0627\u0644\u0641\u0631\u062d\u0627\u0646", "name:ar": "\u0639\u0628\u062f \u0627\u0644\u0641\u0631\u062d\u0627\u0646", "name:ar1": "\u0639\u0628\u062f \u0627\u0644\u0641\u0631\u062d\u0627\u0646", "name:de": "Abd al Farhan", "name:en": "Abd al Farhan", "name:fr": "Abd al Farhan", "place": "village"}}, {"type": "node", "id": 2489268284, "lat": 35.13237, "lon": 43.073796, "tags": {"alt_name": "\u0639\u0628\u062f \u0627\u0644\u0645\u062d\u0633\u0646 \u0627\u0644\u0639\u0628\u064a\u062f\u064a", "int_name": "Abd al Mu\u1e29sin al Ubayd\u012b, \u0639\u0628\u062f \u0627\u0644\u0645\u062d\u0633\u0646 \u0627\u0644\u0639\u0628\u064a\u062f\u064a, Abd al Muhsin al Ubaydi, \u0639\u0628\u062f \u0627\u0644\u0645\u062d\u0633\u0646 \u0627\u0644\u0639\u0628\u064a\u062f\u064a", "name": "\u0639\u0628\u062f \u0627\u0644\u0645\u062d\u0633\u0646 \u0627\u0644\u0639\u0628\u064a\u062f\u064a", "name:ar": "\u0639\u0628\u062f \u0627\u0644\u0645\u062d\u0633\u0646 \u0627\u0644\u0639\u0628\u064a\u062f\u064a", "name:ar1": "\u0639\u0628\u062f \u0627\u0644\u0645\u062d\u0633\u0646 \u0627\u0644\u0639\u0628\u064a\u062f\u064a", "name:de": "Abd al Muhsin al Ubaydi", "name:en": "Abd al Muhsin al Ubaydi", "name:fr": "Abd al Muhsin al Ubaydi", "place": "village"}}, {"type": "node", "id": 2489268286, "lat": 35.053348, "lon": 43.365305, "tags": {"alt_name": "\u0623\u0628\u0648 \u0645\u062e\u064a\u0644\u0641", "int_name": "Ab\u016b Mukhaylif, \u0627\u0628\u0648 \u0645\u062e\u064a\u0644\u0641, Abu Mukhaylif, \u0627\u0628\u0648 \u0645\u062e\u064a\u0644\u0641", "name": "\u0623\u0628\u0648 \u0645\u062e\u064a\u0644\u0641", "name:ar": "\u0623\u0628\u0648 \u0645\u062e\u064a\u0644\u0641", "name:ar1": "\u0623\u0628\u0648 \u0645\u062e\u064a\u0644\u0641", "name:de": "Abu Mukhaylif", "name:en": "Abu Mukhaylif", "name:fr": "Abu Mukhaylif", "place": "village"}}, {"type": "node", "id": 2489268288, "lat": 34.979415, "lon": 43.354673, "tags": {"alt_name": "\u0623\u0628\u0648 \u0633\u0644\u0637\u0627\u0646", "int_name": "Ab\u016b Sul\u0163\u0101n, \u0627\u0628\u0648 \u0633\u0644\u0637\u0627\u0646, Abu Sultan, \u0627\u0628\u0648 \u0633\u0644\u0637\u0627\u0646", "name": "\u0623\u0628\u0648 \u0633\u0644\u0637\u0627\u0646", "name:ar": "\u0623\u0628\u0648 \u0633\u0644\u0637\u0627\u0646", "name:ar1": "\u0623\u0628\u0648 \u0633\u0644\u0637\u0627\u0646", "name:de": "Abu Sultan", "name:en": "Abu Sultan", "name:fr": "Abu Sultan", "place": "village"}}, {"type": "node", "id": 2489268290, "lat": 35.008579, "lon": 43.42812, "tags": {"alt_name": "\u0639\u0628\u0648\u062f \u0627\u0644\u0639\u0635\u0641\u0648\u0631", "int_name": "Ab\u016bd al U\u015ff\u016br, \u0639\u0628\u0648\u062f \u0627\u0644\u0639\u0635\u0641\u0648\u0631, Abud al Usfur, \u0639\u0628\u0648\u062f \u0627\u0644\u0639\u0635\u0641\u0648\u0631", "name": "\u0639\u0628\u0648\u062f \u0627\u0644\u0639\u0635\u0641\u0648\u0631", "name:ar": "\u0639\u0628\u0648\u062f \u0627\u0644\u0639\u0635\u0641\u0648\u0631", "name:ar1": "\u0639\u0628\u0648\u062f \u0627\u0644\u0639\u0635\u0641\u0648\u0631", "name:de": "Abud al Usfur", "name:en": "Abud al Usfur", "name:fr": "Abud al Usfur", "place": "village"}}, {"type": "node", "id": 2489268295, "lat": 35.065645, "lon": 43.215092, "tags": {"alt_name": "\u0639\u0631\u0628 \u0639\u0644\u064a \u0627\u0644\u0645\u0647\u062f\u064a", "int_name": "Arab Al\u012b al Mahd\u012b, \u0639\u0631\u0628 \u0639\u0644\u064a \u0627\u0644\u0645\u0647\u062f\u064a, Arab Ali al Mahdi, \u0639\u0631\u0628 \u0639\u0644\u064a \u0627\u0644\u0645\u0647\u062f\u064a", "name": "\u0639\u0631\u0628 \u0639\u0644\u064a \u0627\u0644\u0645\u0647\u062f\u064a", "name:ar": "\u0639\u0631\u0628 \u0639\u0644\u064a \u0627\u0644\u0645\u0647\u062f\u064a", "name:ar1": "\u0639\u0631\u0628 \u0639\u0644\u064a \u0627\u0644\u0645\u0647\u062f\u064a", "name:de": "Arab Ali al Mahdi", "name:en": "Arab Ali al Mahdi", "name:fr": "Arab Ali al Mahdi", "place": "village"}}, {"type": "node", "id": 2489268315, "lat": 35.047297, "lon": 43.29718, "tags": {"alt_name": "\u0623\u0633\u0648\u062f \u062c\u0628\u0627\u0631", "int_name": "Aswad Jab\u0101r, \u0627\u0633\u0648\u062f \u062c\u0628\u0627\u0631, Aswad Jabar, \u0627\u0633\u0648\u062f \u062c\u0628\u0627\u0631", "name": "\u0623\u0633\u0648\u062f \u062c\u0628\u0627\u0631", "name:ar": "\u0623\u0633\u0648\u062f \u062c\u0628\u0627\u0631", "name:ar1": "\u0623\u0633\u0648\u062f \u062c\u0628\u0627\u0631", "name:de": "Aswad Jabar", "name:en": "Aswad Jabar", "name:fr": "Aswad Jabar", "place": "village"}}, {"type": "node", "id": 2489268339, "lat": 35.093107, "lon": 43.399635, "tags": {"alt_name": "\u0628\u064a\u062a \u0639\u0628\u062f \u0645\u062d\u0645\u0648\u062f", "int_name": "Bayt Abd Ma\u1e29m\u016bd, \u0628\u064a\u062a \u0639\u0628\u062f \u0645\u062d\u0645\u0648\u062f, Bayt Abd Mahmud, \u0628\u064a\u062a \u0639\u0628\u062f \u0645\u062d\u0645\u0648\u062f", "name": "\u0628\u064a\u062a \u0639\u0628\u062f \u0645\u062d\u0645\u0648\u062f", "name:ar": "\u0628\u064a\u062a \u0639\u0628\u062f \u0645\u062d\u0645\u0648\u062f", "name:ar1": "\u0628\u064a\u062a \u0639\u0628\u062f \u0645\u062d\u0645\u0648\u062f", "name:de": "Bayt Abd Mahmud", "name:en": "Bayt Abd Mahmud", "name:fr": "Bayt Abd Mahmud", "place": "village"}}, {"type": "node", "id": 2489268379, "lat": 34.931496, "lon": 43.357863, "tags": {"alt_name": "\u0628\u064a\u062a \u0645\u0635\u0637\u0641\u0649 \u0637\u0631\u0648\u062f\u064a", "int_name": "Bayt Mu\u015f\u0163af\u00e1 \u0162arwad\u012b, \u0628\u064a\u062a \u0645\u0635\u0637\u0641\u0649 \u0637\u0631\u0648\u062f\u064a, Bayt Mustafa Tarwadi, \u0628\u064a\u062a \u0645\u0635\u0637\u0641\u0649 \u0637\u0631\u0648\u062f\u064a", "name": "\u0628\u064a\u062a \u0645\u0635\u0637\u0641\u0649 \u0637\u0631\u0648\u062f\u064a", "name:ar": "\u0628\u064a\u062a \u0645\u0635\u0637\u0641\u0649 \u0637\u0631\u0648\u062f\u064a", "name:ar1": "\u0628\u064a\u062a \u0645\u0635\u0637\u0641\u0649 \u0637\u0631\u0648\u062f\u064a", "name:de": "Bayt Mustafa Tarwadi", "name:en": "Bayt Mustafa Tarwadi", "name:fr": "Bayt Mustafa Tarwadi", "place": "village"}}, {"type": "node", "id": 2489268387, "lat": 35.036218, "lon": 43.347265, "tags": {"alt_name": "\u062f\u0645\u0627\u0646\u0629", "int_name": "Dum\u0101nah, \u062f\u064f\u0645\u0651\u0627\u0646\u0647, Dumanah, \u062f\u0645\u0627\u0646\u0647", "name": "\u062f\u0645\u0627\u0646\u0629", "name:ar": "\u062f\u0645\u0627\u0646\u0629", "name:ar1": "\u062f\u0645\u0627\u0646\u0629", "name:de": "Dumana", "name:en": "Dumanah", "name:fr": "Dumanah", "place": "village"}}, {"type": "node", "id": 2489268389, "lat": 35.00735, "lon": 43.402981, "tags": {"alt_name": "\u0641\u064a\u0627\u0636 \u0627\u0644\u062b\u0644\u062c", "int_name": "Fay\u0101\u1e11 ath Thalj, \u0641\u064a\u0627\u0636 \u0627\u0644\u062b\u0644\u062c, Fayad ath Thalj, \u0641\u064a\u0627\u0636 \u0627\u0644\u062b\u0644\u062c", "name": "\u0641\u064a\u0627\u0636 \u0627\u0644\u062b\u0644\u062c", "name:ar": "\u0641\u064a\u0627\u0636 \u0627\u0644\u062b\u0644\u062c", "name:ar1": "\u0641\u064a\u0627\u0636 \u0627\u0644\u062b\u0644\u062c", "name:de": "Fayad ath Thalj", "name:en": "Fayad ath Thalj", "name:fr": "Fayad ath Thalj", "place": "village"}}, {"type": "node", "id": 2489268396, "lat": 35.086607, "lon": 43.430073, "tags": {"alt_name": "\u062d\u0645\u064a\u062f \u0627\u0644\u062d\u0633\u064a\u0646", "int_name": "\u1e28am\u012bd al \u1e28usayn, \u062d\u0645\u064a\u062f \u0627\u0644\u062d\u0633\u064a\u0646, Hamid al Husayn, \u062d\u0645\u064a\u062f \u0627\u0644\u062d\u0633\u064a\u0646", "name": "\u062d\u0645\u064a\u062f \u0627\u0644\u062d\u0633\u064a\u0646", "name:ar": "\u062d\u0645\u064a\u062f \u0627\u0644\u062d\u0633\u064a\u0646", "name:ar1": "\u062d\u0645\u064a\u062f \u0627\u0644\u062d\u0633\u064a\u0646", "name:de": "Hamid al Husayn", "name:en": "Hamid al Husayn", "name:fr": "Hamid al Husayn", "place": "village"}}, {"type": "node", "id": 2489268397, "lat": 35.03063, "lon": 43.389381, "tags": {"alt_name": "\u062d\u064a \u0627\u0644\u0636\u064a\u0641", "int_name": "\u1e28ayy a\u1e11 \u1e10ayf, \u062d\u064a \u0627\u0644\u0636\u064a\u0641, Hayy ad Dayf, \u062d\u064a \u0627\u0644\u0636\u064a\u0641", "name": "\u062d\u064a \u0627\u0644\u0636\u064a\u0641", "name:ar": "\u062d\u064a \u0627\u0644\u0636\u064a\u0641", "name:ar1": "\u062d\u064a \u0627\u0644\u0636\u064a\u0641", "name:de": "Hayy ad Dayf", "name:en": "Hayy ad Dayf", "name:fr": "Hayy ad Dayf", "place": "hamlet"}}, {"type": "node", "id": 2489268398, "lat": 35.029075, "lon": 43.373164, "tags": {"alt_name": "\u0647\u0646\u062f\u064a", "int_name": "Hind\u012b, \u0647\u0646\u062f\u064a, Hindi, \u0647\u0646\u062f\u064a", "name": "\u0647\u0646\u062f\u064a", "name:ar": "\u0647\u0646\u062f\u064a", "name:ar1": "\u0647\u0646\u062f\u064a", "name:de": "Hindi", "name:en": "Hindi", "name:fr": "Hindi", "place": "village"}}, {"type": "node", "id": 2489268412, "lat": 35.012099, "lon": 43.368323, "tags": {"alt_name": "\u062c\u0627\u0628\u0631 \u0647\u0648\u064a\u062f\u064a", "int_name": "J\u0101bir Huwayd\u012b, \u062c\u0627\u0628\u0631 \u0647\u0648\u064a\u062f\u064a, Jabir Huwaydi, \u062c\u0627\u0628\u0631 \u0647\u0648\u064a\u062f\u064a", "name": "\u062c\u0627\u0628\u0631 \u0647\u0648\u064a\u062f\u064a", "name:ar": "\u062c\u0627\u0628\u0631 \u0647\u0648\u064a\u062f\u064a", "name:ar1": "\u062c\u0627\u0628\u0631 \u0647\u0648\u064a\u062f\u064a", "name:de": "Jabir Huwaydi", "name:en": "Jabir Huwaydi", "name:fr": "Jabir Huwaydi", "place": "village"}}, {"type": "node", "id": 2489268479, "lat": 35.100281, "lon": 43.373079, "tags": {"alt_name": "\u0645\u062d\u0645\u062f \u0627\u0644\u0623\u0628\u062f\u0648\u064a", "int_name": "Mu\u1e29ammad al Abdaw\u012b, \u0645\u062d\u0645\u062f\u0627\u0644\u0627\u0628\u062f\u0648\u064a, Muhammad al Abdawi, \u0645\u062d\u0645\u062f\u0627\u0644\u0627\u0628\u062f\u0648\u064a", "name": "\u0645\u062d\u0645\u062f \u0627\u0644\u0623\u0628\u062f\u0648\u064a", "name:ar": "\u0645\u062d\u0645\u062f \u0627\u0644\u0623\u0628\u062f\u0648\u064a", "name:ar1": "\u0645\u062d\u0645\u062f \u0627\u0644\u0623\u0628\u062f\u0648\u064a", "name:de": "Muhammad al Abdawi", "name:en": "Muhammad al Abdawi", "name:fr": "Muhammad al Abdawi", "place": "village"}}, {"type": "node", "id": 2489268497, "lat": 35.0165551, "lon": 43.4210775, "tags": {"alt_name": "\u0642\u0631\u064a\u0629 \u0623\u0628\u0648 \u0639\u062f\u064a", "int_name": "Qaryat Ab\u016b Ud\u0101y, Qaryat Abu Uday", "name": "\u0642\u0631\u064a\u0629 \u0623\u0628\u0648 \u0639\u062f\u064a", "name:ar": "\u0642\u0631\u064a\u0629 \u0623\u0628\u0648 \u0639\u062f\u064a", "name:ar1": "\u0642\u0631\u064a\u0629 \u0623\u0628\u0648 \u0639\u062f\u064a", "name:de": "Qaryat Abu Uday", "name:en": "Qaryat Abu Uday", "name:fr": "Qaryat Abu Uday", "place": "village"}}, {"type": "node", "id": 2489268528, "lat": 35.131956, "lon": 43.086876, "tags": {"alt_name": "\u0642\u0631\u064a\u0629 \u0622\u0644 \u0628\u0648 \u0639\u0628\u064a\u062f", "int_name": "Qaryat \u0100lb\u016b Ubayd, \u0642\u0631\u064a\u0629 \u0627\u0644\u0628\u0648 \u0639\u0628\u064a\u062f, Qaryat Albu Ubayd, \u0642\u0631\u064a\u0629 \u0627\u0644\u0628\u0648 \u0639\u0628\u064a\u062f", "name": "\u0642\u0631\u064a\u0629 \u0622\u0644 \u0628\u0648 \u0639\u0628\u064a\u062f", "name:ar": "\u0642\u0631\u064a\u0629 \u0622\u0644 \u0628\u0648 \u0639\u0628\u064a\u062f", "name:ar1": "\u0642\u0631\u064a\u0629 \u0622\u0644 \u0628\u0648 \u0639\u0628\u064a\u062f", "name:de": "Qaryat Albu Ubayd", "name:en": "Qaryat Albu Ubayd", "name:fr": "Qaryat Albu Ubayd", "place": "village"}}, {"type": "node", "id": 2489268529, "lat": 35.118338, "lon": 43.099609, "tags": {"alt_name": "\u0642\u0631\u064a\u0629 \u0647\u062f\u064a\u0644\u0629", "int_name": "Qaryat Had\u012blah, \u0642\u0631\u064a\u0629 \u0647\u062f\u064a\u0644\u0629, Qaryat Hadilah, \u0642\u0631\u064a\u0629 \u0647\u062f\u064a\u0644\u0629", "name": "\u0642\u0631\u064a\u0629 \u0647\u062f\u064a\u0644\u0629", "name:ar": "\u0642\u0631\u064a\u0629 \u0647\u062f\u064a\u0644\u0629", "name:ar1": "\u0642\u0631\u064a\u0629 \u0647\u062f\u064a\u0644\u0629", "name:de": "Qaryat Hadilah", "name:en": "Qaryat Hadilah", "name:fr": "Qaryat Hadilah", "place": "village"}}, {"type": "node", "id": 2489268531, "lat": 35.104755, "lon": 43.216146, "tags": {"alt_name": "\u0642\u0631\u064a\u0629 \u0645\u0633\u0644\u064a\u0644\u0629", "int_name": "Qaryat Masl\u012blah, \u0642\u0631\u064a\u0629 \u0645\u0633\u0644\u064a\u0644\u0629, Qaryat Maslilah, \u0642\u0631\u064a\u0629 \u0645\u0633\u0644\u064a\u0644\u0629", "name": "\u0642\u0631\u064a\u0629 \u0645\u0633\u0644\u064a\u0644\u0629", "name:ar": "\u0642\u0631\u064a\u0629 \u0645\u0633\u0644\u064a\u0644\u0629", "name:ar1": "\u0642\u0631\u064a\u0629 \u0645\u0633\u0644\u064a\u0644\u0629", "name:de": "Qaryat Maslilah", "name:en": "Qaryat Maslilah", "name:fr": "Qaryat Maslilah", "place": "village"}}, {"type": "node", "id": 2489268533, "lat": 35.155604, "lon": 43.160423, "tags": {"alt_name": "\u0642\u0631\u064a\u0629 \u0635\u0628\u064a\u062d\u0629", "int_name": "Qaryat \u015eubay\u1e29ah, \u0642\u0631\u064a\u0629 \u0635\u0628\u064a\u062d\u0629, Qaryat Subayhah, \u0642\u0631\u064a\u0629 \u0635\u0628\u064a\u062d\u0629", "name": "\u0642\u0631\u064a\u0629 \u0635\u0628\u064a\u062d\u0629", "name:ar": "\u0642\u0631\u064a\u0629 \u0635\u0628\u064a\u062d\u0629", "name:ar1": "\u0642\u0631\u064a\u0629 \u0635\u0628\u064a\u062d\u0629", "name:de": "Qaryat Subayhah", "name:en": "Qaryat Subayhah", "name:fr": "Qaryat Subayhah", "place": "village"}}, {"type": "node", "id": 2489268534, "lat": 35.161012, "lon": 43.110844, "tags": {"alt_name": "\u0642\u0631\u064a\u0629 \u0635\u0628\u064a\u062d\u0629 \u0627\u0644\u0628\u062f\u0648", "int_name": "Qaryat \u015eubay\u1e29at al Bad\u016b, \u0642\u0631\u064a\u0629 \u0635\u0628\u064a\u062d\u0629 \u0627\u0644\u0628\u062f\u0648, Qaryat Subayhat al Badu, \u0642\u0631\u064a\u0629 \u0635\u0628\u064a\u062d\u0629 \u0627\u0644\u0628\u062f\u0648", "name": "\u0642\u0631\u064a\u0629 \u0635\u0628\u064a\u062d\u0629 \u0627\u0644\u0628\u062f\u0648", "name:ar": "\u0642\u0631\u064a\u0629 \u0635\u0628\u064a\u062d\u0629 \u0627\u0644\u0628\u062f\u0648", "name:ar1": "\u0642\u0631\u064a\u0629 \u0635\u0628\u064a\u062d\u0629 \u0627\u0644\u0628\u062f\u0648", "name:de": "Qaryat Subayhat al Badu", "name:en": "Qaryat Subayhat al Badu", "name:fr": "Qaryat Subayhat al Badu", "place": "village"}}, {"type": "node", "id": 2489268535, "lat": 35.123724, "lon": 43.074799, "tags": {"alt_name": "\u0642\u0631\u064a\u0629 \u0627\u0644\u0637\u0648\u0627\u0644", "int_name": "Qaryat a\u0163 \u0162aw\u0101l, \u0642\u0631\u064a\u0629 \u0627\u0644\u0637\u0648\u0627\u0644, Qaryat at Tawal, \u0642\u0631\u064a\u0629 \u0627\u0644\u0637\u0648\u0627\u0644", "name": "\u0642\u0631\u064a\u0629 \u0627\u0644\u0637\u0648\u0627\u0644", "name:ar": "\u0642\u0631\u064a\u0629 \u0627\u0644\u0637\u0648\u0627\u0644", "name:ar1": "\u0642\u0631\u064a\u0629 \u0627\u0644\u0637\u0648\u0627\u0644", "name:de": "Qaryat at Tawal", "name:en": "Qaryat at Tawal", "name:fr": "Qaryat at Tawal", "place": "village"}}, {"type": "node", "id": 2489268550, "lat": 35.177125, "lon": 42.989638, "tags": {"alt_name": "\u0623\u0645 \u0627\u0644\u0631\u0624\u0648\u0633", "int_name": "Umm al Raw\u016bs, \u0627\u0645 \u0627\u0644\u0631\u0624\u0648\u0633, Umm al Rawus, \u0627\u0645 \u0627\u0644\u0631\u0624\u0648\u0633", "name": "\u0623\u0645 \u0627\u0644\u0631\u0624\u0648\u0633", "name:ar": "\u0623\u0645 \u0627\u0644\u0631\u0624\u0648\u0633", "name:ar1": "\u0623\u0645 \u0627\u0644\u0631\u0624\u0648\u0633", "name:de": "Umm al Rawus", "name:en": "Umm al Rawus", "name:fr": "Umm al Rawus", "place": "village"}}, {"type": "node", "id": 2489268630, "lat": 35.0170713, "lon": 43.421155, "tags": {"alt_name": "\u0639\u0628\u062f \u0627\u0644\u0644\u0647 \u0639\u062f\u0627\u064a", "int_name": "\u0639\u0628\u062f \ufdf2 \u0639\u062f\u0627\u064a, \u0639\u0628\u062f \ufdf2 \u0639\u062f\u0627\u064a", "name": "\u0639\u0628\u062f \u0627\u0644\u0644\u0647 \u0639\u062f\u0627\u064a", "name:ar": "\u0639\u0628\u062f \u0627\u0644\u0644\u0647 \u0639\u062f\u0627\u064a", "name:ar1": "\u0639\u0628\u062f \u0627\u0644\u0644\u0647 \u0639\u062f\u0627\u064a", "name:de": "\u0639\u0628\u062f \ufdf2 \u0639\u062f\u0627\u064a", "name:fr": "\u0639\u0628\u062f \ufdf2 \u0639\u062f\u0627\u064a", "place": "village"}}, {"type": "node", "id": 2489268632, "lat": 35.0165916, "lon": 43.4218616, "tags": {"alt_name": "\u0642\u0631\u064a\u0629 \u0623\u0628\u0648 \u0639\u062f\u0627\u064a", "int_name": "\u0642\u0631\u064a\u0629 \u0627\u0628\u0648 \u0639\u062f\u0627\u064a, \u0642\u0631\u064a\u0629 \u0627\u0628\u0648 \u0639\u062f\u0627\u064a", "name": "\u0642\u0631\u064a\u0629 \u0623\u0628\u0648 \u0639\u062f\u0627\u064a", "name:ar": "\u0642\u0631\u064a\u0629 \u0623\u0628\u0648 \u0639\u062f\u0627\u064a", "name:ar1": "\u0642\u0631\u064a\u0629 \u0623\u0628\u0648 \u0639\u062f\u0627\u064a", "name:de": "\u0642\u0631\u064a\u0629 \u0627\u0628\u0648 \u0639\u062f\u0627\u064a", "name:fr": "\u0642\u0631\u064a\u0629 \u0627\u0628\u0648 \u0639\u062f\u0627\u064a", "place": "village"}}, {"type": "node", "id": 2489272637, "lat": 35.1479678, "lon": 43.4613237, "tags": {"alt_name": "\u0627\u0644\u062d\u0648\u0627\u064a\u062c", "int_name": "Al \u1e28aw\u0101yij, \u0627\u0644\u062d\u0648\u0627\u064a\u062c, Al Hawayij, \u0627\u0644\u062d\u0648\u0627\u064a\u062c", "name": "\u0627\u0644\u062d\u0648\u0627\u064a\u062c", "name:ar": "\u0627\u0644\u062d\u0648\u0627\u064a\u062c", "name:ar1": "\u0627\u0644\u062d\u0648\u0627\u064a\u062c", "name:de": "Al Hawayij", "name:en": "Al Hawayij", "name:fr": "Al Hawayij", "place": "village"}}, {"type": "node", "id": 2489272822, "lat": 35.0390173, "lon": 43.449422, "tags": {"alt_name": "\u0639\u0644\u064a \u0627\u0644\u062f\u0627\u0647\u0634", "int_name": "Al\u012b ad D\u0101hish, \u0639\u0644\u064a \u0627\u0644\u062f\u0627\u0647\u0634, Ali ad Dahish, \u0639\u0644\u064a \u0627\u0644\u062f\u0627\u0647\u0634", "name": "\u0639\u0644\u064a \u0627\u0644\u062f\u0627\u0647\u0634", "name:ar": "\u0639\u0644\u064a \u0627\u0644\u062f\u0627\u0647\u0634", "name:ar1": "\u0639\u0644\u064a \u0627\u0644\u062f\u0627\u0647\u0634", "name:de": "Ali ad Dahish", "name:en": "Ali ad Dahish", "name:fr": "Ali ad Dahish", "place": "village"}}, {"type": "node", "id": 2489273415, "lat": 34.900937, "lon": 43.473785, "tags": {"alt_name": "\u062e\u0644\u0641 \u0627\u0644\u0633\u0648\u0627\u062f\u064a", "int_name": "Khalaf as Suw\u0101d\u012b, \u062e\u0644\u0641 \u0627\u0644\u0633\u0648\u0627\u062f\u064a, Khalaf as Suwadi, \u062e\u0644\u0641 \u0627\u0644\u0633\u0648\u0627\u062f\u064a", "name": "\u062e\u0644\u0641 \u0627\u0644\u0633\u0648\u0627\u062f\u064a", "name:ar": "\u062e\u0644\u0641 \u0627\u0644\u0633\u0648\u0627\u062f\u064a", "name:ar1": "\u062e\u0644\u0641 \u0627\u0644\u0633\u0648\u0627\u062f\u064a", "name:de": "Khalaf as Suwadi", "name:en": "Khalaf as Suwadi", "name:fr": "Khalaf as Suwadi", "place": "village"}}, {"type": "node", "id": 2489273860, "lat": 35.0393656, "lon": 43.4493716, "tags": {"alt_name": "\u0642\u0631\u064a\u0629 \u0622\u0644 \u0628\u0648 \u062f\u0647\u0634", "int_name": "Qaryat \u0100lb\u016b Dahsh, \u0642\u0631\u064a\u0629 \u0627\u0644\u0628\u0648 \u062f\u0647\u0634, Qaryat Albu Dahsh, \u0642\u0631\u064a\u0629 \u0627\u0644\u0628\u0648 \u062f\u0647\u0634", "name": "\u0642\u0631\u064a\u0629 \u0622\u0644 \u0628\u0648 \u062f\u0647\u0634", "name:ar": "\u0642\u0631\u064a\u0629 \u0622\u0644 \u0628\u0648 \u062f\u0647\u0634", "name:ar1": "\u0642\u0631\u064a\u0629 \u0622\u0644 \u0628\u0648 \u062f\u0647\u0634", "name:de": "Qaryat Albu Dahsh", "name:en": "Qaryat Albu Dahsh", "name:fr": "Qaryat Albu Dahsh", "place": "village"}}, {"type": "node", "id": 2489274288, "lat": 35.1196, "lon": 43.466465, "tags": {"alt_name": "\u0642\u0631\u064a\u0629 \u0627\u0644\u0633\u0644\u0645\u0627\u0646", "int_name": "Qaryat as Salm\u0101n, \u0642\u0631\u064a\u0629 \u0627\u0644\u0633\u0644\u0645\u0627\u0646, Qaryat as Salman, \u0642\u0631\u064a\u0629 \u0627\u0644\u0633\u0644\u0645\u0627\u0646", "name": "\u0642\u0631\u064a\u0629 \u0627\u0644\u0633\u0644\u0645\u0627\u0646", "name:ar": "\u0642\u0631\u064a\u0629 \u0627\u0644\u0633\u0644\u0645\u0627\u0646", "name:ar1": "\u0642\u0631\u064a\u0629 \u0627\u0644\u0633\u0644\u0645\u0627\u0646", "name:de": "Qaryat as Salman", "name:en": "Qaryat as Salman", "name:fr": "Qaryat as Salman", "place": "village"}}, {"type": "node", "id": 2489274309, "lat": 35.155023, "lon": 43.448835, "tags": {"alt_name": "\u0633\u0639\u062f \u0639\u0628\u062f \u0635\u0627\u0644\u062d", "int_name": "Sad Abd \u015eali\u1e29, \u0633\u0639\u062f \u0639\u0628\u062f \u0635\u0627\u0644\u062d, Sad Abd Salih, \u0633\u0639\u062f \u0639\u0628\u062f \u0635\u0627\u0644\u062d", "name": "\u0633\u0639\u062f \u0639\u0628\u062f \u0635\u0627\u0644\u062d", "name:ar": "\u0633\u0639\u062f \u0639\u0628\u062f \u0635\u0627\u0644\u062d", "name:ar1": "\u0633\u0639\u062f \u0639\u0628\u062f \u0635\u0627\u0644\u062d", "name:de": "Sad Abd Salih", "name:en": "Sad Abd Salih", "name:fr": "Sad Abd Salih", "place": "village"}}, {"type": "node", "id": 2489274320, "lat": 35.1568088, "lon": 43.4429278, "tags": {"alt_name": "\u0635\u0627\u0644\u062d \u0645\u0648\u0633\u0649", "int_name": "\u015eali\u1e29 M\u016bs\u00e1, \u0635\u0627\u0644\u062d \u0645\u0648\u0633\u0649, Salih Musa, \u0635\u0627\u0644\u062d \u0645\u0648\u0633\u0649", "name": "\u0635\u0627\u0644\u062d \u0645\u0648\u0633\u0649", "name:ar": "\u0635\u0627\u0644\u062d \u0645\u0648\u0633\u0649", "name:ar1": "\u0635\u0627\u0644\u062d \u0645\u0648\u0633\u0649", "name:de": "Salih Musa", "name:en": "Salih Musa", "name:fr": "Salih Musa", "place": "village"}}, {"type": "node", "id": 2924066228, "lat": 34.9147712, "lon": 43.4223077}, {"type": "node", "id": 2924121398, "lat": 34.9313845, "lon": 43.3976164}, {"type": "node", "id": 2924121402, "lat": 34.9325807, "lon": 43.3955457}, {"type": "node", "id": 2924121406, "lat": 34.9352898, "lon": 43.3963826}, {"type": "node", "id": 2924121417, "lat": 34.9340408, "lon": 43.3956316}, {"type": "node", "id": 2924121419, "lat": 34.9355097, "lon": 43.3964303}, {"type": "node", "id": 2924121427, "lat": 34.9304433, "lon": 43.3997192}, {"type": "node", "id": 2924121435, "lat": 34.9299507, "lon": 43.4006741}, {"type": "node", "id": 2924121436, "lat": 34.9310582, "lon": 43.3979919}, {"type": "node", "id": 2924121438, "lat": 34.9326599, "lon": 43.3954277}, {"type": "node", "id": 2924121443, "lat": 34.9328437, "lon": 43.3953633}, {"type": "node", "id": 2924121447, "lat": 34.9306632, "lon": 43.3987107}, {"type": "node", "id": 2924121451, "lat": 34.9343487, "lon": 43.395771}, {"type": "node", "id": 2924121453, "lat": 34.9307063, "lon": 43.3983567}, {"type": "node", "id": 2924121456, "lat": 34.9306096, "lon": 43.3990004}, {"type": "node", "id": 2924121457, "lat": 34.9308031, "lon": 43.3981957}, {"type": "node", "id": 2930622810, "lat": 34.9980998, "lon": 43.4567216}, {"type": "node", "id": 2930622812, "lat": 35.0127221, "lon": 43.4578117}, {"type": "node", "id": 2930622815, "lat": 35.0061988, "lon": 43.447394}, {"type": "node", "id": 2930622818, "lat": 34.9986061, "lon": 43.4544695}, {"type": "node", "id": 2930622819, "lat": 34.9960432, "lon": 43.4624723}, {"type": "node", "id": 2930622822, "lat": 35.007099, "lon": 43.4647039}, {"type": "node", "id": 2930622825, "lat": 35.0002609, "lon": 43.4686263}, {"type": "node", "id": 2932479371, "lat": 35.1783333, "lon": 43.2922289}, {"type": "node", "id": 2932479372, "lat": 35.2178367, "lon": 43.2735243}, {"type": "node", "id": 2932479373, "lat": 35.2041462, "lon": 43.2708142}, {"type": "node", "id": 2932479374, "lat": 35.1768057, "lon": 43.2852402}, {"type": "node", "id": 2932479378, "lat": 35.1797171, "lon": 43.2938232}, {"type": "node", "id": 2932479379, "lat": 35.1780527, "lon": 43.2827446}, {"type": "node", "id": 2932479380, "lat": 35.180103, "lon": 43.2818928}, {"type": "node", "id": 2932479383, "lat": 35.1999031, "lon": 43.2702563}, {"type": "node", "id": 2932479386, "lat": 35.2149108, "lon": 43.2647202}, {"type": "node", "id": 2932479389, "lat": 35.1753868, "lon": 43.2882378}, {"type": "node", "id": 2932479390, "lat": 35.1763146, "lon": 43.2826652}, {"type": "node", "id": 2932479391, "lat": 35.1825074, "lon": 43.285105}, {"type": "node", "id": 2932479392, "lat": 35.183209, "lon": 43.2872078}, {"type": "node", "id": 2932479393, "lat": 35.2044425, "lon": 43.2843819}, {"type": "node", "id": 2932479394, "lat": 35.1834896, "lon": 43.2890961}, {"type": "node", "id": 2932479395, "lat": 35.1825232, "lon": 43.2912054}, {"type": "node", "id": 2932479396, "lat": 35.1958, "lon": 43.2759211}, {"type": "node", "id": 2932479397, "lat": 35.2124723, "lon": 43.2786741}, {"type": "node", "id": 2932479398, "lat": 35.201006, "lon": 43.2805624}, {"type": "node", "id": 2932479400, "lat": 35.2130333, "lon": 43.2768717}, {"type": "node", "id": 3142850541, "lat": 34.9569401, "lon": 43.5036056}, {"type": "node", "id": 3142850542, "lat": 34.8994164, "lon": 43.4823922}, {"type": "node", "id": 3142850543, "lat": 34.9154267, "lon": 43.5064595}, {"type": "node", "id": 3142850544, "lat": 34.9015428, "lon": 43.4926193}, {"type": "node", "id": 3142850545, "lat": 34.8995542, "lon": 43.4928124}, {"type": "node", "id": 3142850546, "lat": 34.9354652, "lon": 43.5133045}, {"type": "node", "id": 3142850547, "lat": 34.8984103, "lon": 43.4871046}, {"type": "node", "id": 3142850548, "lat": 34.9486881, "lon": 43.4886657}, {"type": "node", "id": 3142850549, "lat": 34.9070115, "lon": 43.4691059}, {"type": "node", "id": 3142850550, "lat": 34.9212329, "lon": 43.5145061}, {"type": "node", "id": 3142850551, "lat": 34.9288507, "lon": 43.5162442}, {"type": "node", "id": 3142850552, "lat": 34.9440131, "lon": 43.5060947}, {"type": "node", "id": 3142850553, "lat": 34.9463172, "lon": 43.5058801}, {"type": "node", "id": 3142850554, "lat": 34.9574817, "lon": 43.493837}, {"type": "node", "id": 3142850556, "lat": 34.9152155, "lon": 43.501889}, {"type": "node", "id": 3142850557, "lat": 34.9016039, "lon": 43.4831308}, {"type": "node", "id": 3142850558, "lat": 34.9206875, "lon": 43.5118239}, {"type": "node", "id": 3142850561, "lat": 34.9102359, "lon": 43.4894006}, {"type": "node", "id": 3142850562, "lat": 34.953384, "lon": 43.4934078}, {"type": "node", "id": 3142850563, "lat": 34.9483223, "lon": 43.4926407}, {"type": "node", "id": 3142850564, "lat": 34.9381918, "lon": 43.5075753}, {"type": "node", "id": 3142850565, "lat": 34.916324, "lon": 43.4951084}, {"type": "node", "id": 3142850566, "lat": 34.917802, "lon": 43.5076825}, {"type": "node", "id": 3142850567, "lat": 34.9369604, "lon": 43.5110514}, {"type": "node", "id": 3142850568, "lat": 34.9509605, "lon": 43.4850018}, {"type": "node", "id": 3142850569, "lat": 34.9256313, "lon": 43.5148494}, {"type": "node", "id": 3142850570, "lat": 34.9128929, "lon": 43.4900014}, {"type": "node", "id": 3142850571, "lat": 34.9517695, "lon": 43.4793584}, {"type": "node", "id": 3142850572, "lat": 34.9579425, "lon": 43.4997861}, {"type": "node", "id": 3142850573, "lat": 34.9198605, "lon": 43.4715049}, {"type": "node", "id": 3142850574, "lat": 34.9059775, "lon": 43.4922974}, {"type": "node", "id": 3142850576, "lat": 34.9445548, "lon": 43.4756623}, {"type": "node", "id": 3142850577, "lat": 34.9165528, "lon": 43.4906022}, {"type": "node", "id": 3564253617, "lat": 34.9019767, "lon": 43.4260445}, {"type": "node", "id": 3564253618, "lat": 34.9023685, "lon": 43.4270353}, {"type": "node", "id": 3564253619, "lat": 34.9040371, "lon": 43.4281676}, {"type": "node", "id": 3564253620, "lat": 34.9043854, "lon": 43.4223292}, {"type": "node", "id": 3564253621, "lat": 34.9048352, "lon": 43.4231253}, {"type": "node", "id": 3564253622, "lat": 34.9057202, "lon": 43.4211615}, {"type": "node", "id": 3564253623, "lat": 34.906054, "lon": 43.421763}, {"type": "node", "id": 3564253624, "lat": 34.9062747, "lon": 43.4308971}, {"type": "node", "id": 3564253625, "lat": 34.9100281, "lon": 43.4183901}, {"type": "node", "id": 3564253626, "lat": 34.9198618, "lon": 43.4161351}, {"type": "node", "id": 3564253627, "lat": 34.9205863, "lon": 43.4179535}, {"type": "node", "id": 3564253628, "lat": 34.9218629, "lon": 43.420572}, {"type": "node", "id": 3564253629, "lat": 34.9219499, "lon": 43.4237566}, {"type": "node", "id": 3564253630, "lat": 34.9228315, "lon": 43.4123234}, {"type": "node", "id": 3564253631, "lat": 34.9233828, "lon": 43.425146}, {"type": "node", "id": 3564253632, "lat": 34.9244498, "lon": 43.4271035}, {"type": "node", "id": 3564253633, "lat": 34.9243934, "lon": 43.4260893}, {"type": "node", "id": 3564253634, "lat": 34.9257425, "lon": 43.4075762}, {"type": "node", "id": 3564253635, "lat": 34.9264327, "lon": 43.4064364}, {"type": "node", "id": 3564253636, "lat": 34.9272716, "lon": 43.405051}, {"type": "node", "id": 3564253637, "lat": 34.9261548, "lon": 43.4289426}, {"type": "node", "id": 3564253638, "lat": 34.9274241, "lon": 43.4306785}, {"type": "node", "id": 3564253639, "lat": 34.9288367, "lon": 43.4321074}, {"type": "node", "id": 3564253640, "lat": 34.9312523, "lon": 43.4350727}, {"type": "node", "id": 3564253641, "lat": 34.9341634, "lon": 43.4320012}, {"type": "node", "id": 3564253642, "lat": 34.9383256, "lon": 43.3924609}, {"type": "node", "id": 3564253643, "lat": 34.9385094, "lon": 43.4292692}, {"type": "node", "id": 3564253644, "lat": 34.9430942, "lon": 43.4035359}, {"type": "node", "id": 3564253645, "lat": 34.9390907, "lon": 43.4289366}, {"type": "node", "id": 3564253646, "lat": 34.940168, "lon": 43.3949889}, {"type": "node", "id": 3564253647, "lat": 34.9399446, "lon": 43.4268647}, {"type": "node", "id": 3564253648, "lat": 34.9410962, "lon": 43.3983151}, {"type": "node", "id": 3564253649, "lat": 34.9412122, "lon": 43.396652}, {"type": "node", "id": 3564253650, "lat": 34.9417837, "lon": 43.4262669}, {"type": "node", "id": 3564253651, "lat": 34.9458247, "lon": 43.4053283}, {"type": "node", "id": 3564253652, "lat": 34.9420244, "lon": 43.4126812}, {"type": "node", "id": 3564253653, "lat": 34.9420824, "lon": 43.4009689}, {"type": "node", "id": 3564253654, "lat": 34.9421114, "lon": 43.4000489}, {"type": "node", "id": 3564253655, "lat": 34.9456474, "lon": 43.4232302}, {"type": "node", "id": 3564253656, "lat": 34.950695, "lon": 43.4067661}, {"type": "node", "id": 3564253657, "lat": 34.9455229, "lon": 43.4117164}, {"type": "node", "id": 3564253658, "lat": 34.945389, "lon": 43.4100981}, {"type": "node", "id": 3702945672, "lat": 34.9152438, "lon": 43.5025008}, {"type": "node", "id": 3702945673, "lat": 34.9153875, "lon": 43.5056119}, {"type": "node", "id": 3706584630, "lat": 34.956689, "lon": 43.5039213}, {"type": "node", "id": 4252967231, "lat": 35.1841667, "lon": 43.3976657, "tags": {"name": "\u0627\u0644\u0645\u0633\u062d\u0643", "name:en": "Masahak", "place": "village"}}, {"type": "node", "id": 6504087202, "lat": 34.9219358, "lon": 43.4232401}, {"type": "node", "id": 6939816233, "lat": 34.9470033, "lon": 43.4062529}, {"type": "node", "id": 6939816234, "lat": 34.9490611, "lon": 43.4062743}, {"type": "node", "id": 6939816235, "lat": 34.948551, "lon": 43.4053087}, {"type": "node", "id": 6939816236, "lat": 34.9503098, "lon": 43.4054589}, {"type": "node", "id": 8820253137, "lat": 35.1428452, "lon": 43.4413661, "tags": {"name": "\u0642\u0635\u0648\u0631 \u0645\u0643\u062d\u0648\u0644", "place": "village"}}, {"type": "node", "id": 11202847287, "lat": 35.1963652, "lon": 43.2764249}, {"type": "node", "id": 11202847291, "lat": 35.2096037, "lon": 43.2677247}, {"type": "way", "id": 289501648, "nodes": [2930622819, 2930622810, 2930622818, 2930622815, 2930622812, 2930622822, 2930622825, 2930622819], "tags": {"landuse": "residential", "name": "\u062d\u064a \u0627\u0644\u0645\u0635\u0627\u0641\u064a 600 \u062f\u0627\u0631", "place": "village"}}, {"type": "way", "id": 289698431, "nodes": [2932479394, 2932479395, 2932479378, 2932479371, 2932479389, 2932479374, 2932479390, 2932479379, 2932479380, 2932479391, 2932479392, 2932479394], "tags": {"place": "village"}}, {"type": "way", "id": 289698438, "nodes": [2932479386, 2932479372, 2932479400, 2932479397, 2932479393, 2932479398, 11202847287, 2932479396, 2932479383, 2932479373, 11202847291, 2932479386], "tags": {"name": "\u0645\u0643\u062d\u0648\u0644", "place": "village"}}, {"type": "way", "id": 308988005, "nodes": [3142850571, 3142850568, 3142850548, 3142850563, 3142850562, 3142850554, 3142850572, 3142850541, 3706584630, 3142850553, 3142850552, 3142850564, 3142850567, 3142850546, 3142850551, 3142850569, 3142850550, 3142850558, 3142850566, 3142850543, 3702945673, 3702945672, 3142850556, 3142850565, 3142850577, 3142850570, 3142850561, 3142850574, 3142850544, 3142850545, 3142850547, 3142850542, 3142850557, 3142850549, 3142850573, 3142850576, 3142850571], "tags": {"name": "\u0628\u064a\u062c\u064a", "name:ar": "\u0628\u064a\u062c\u064a", "name:ckb": "\u0628\u06ce\u062c\u06cc", "place": "city"}}, {"type": "way", "id": 350663640, "nodes": [3564253642, 3564253646, 3564253649, 3564253648, 3564253654, 3564253653, 3564253644, 3564253651, 6939816233, 6939816235, 6939816234, 6939816236, 3564253656, 3564253658, 3564253657, 3564253652, 3564253655, 3564253650, 3564253647, 3564253645, 3564253643, 3564253641, 3564253640, 3564253639, 3564253638, 3564253637, 3564253632, 3564253633, 3564253631, 3564253629, 6504087202, 3564253628, 3564253627, 3564253626, 248455782, 1437494632, 3564253630, 3564253634, 3564253635, 3564253636, 2924121435, 2924121427, 2924121456, 2924121447, 2924121453, 2924121457, 2924121436, 2924121398, 2924121402, 2924121438, 2924121443, 2924121417, 2924121451, 2924121406, 2924121419, 3564253642], "tags": {"alt_name": "A\u015f \u015e\u012bn\u012byah, a\u015f \u015e\u012bn\u012byah, \u0627\u0644\u0635\u064a\u0646\u064a\u0629, \u0644\u0635\u064a\u0646\u064a\u0629, As Siniyah, Nahiyat as Siniyah, \u0627\u0644\u0635\u064a\u0646\u064a\u0629, \u0627\u0644\u0635\u064a\u0646\u064a\u0629, A\u015f \u015e\u0101li\u1e29\u012byah, \u0627\u0644\u0635\u0627\u0644\u062d\u064a\u0629, As Salihiyah, \u0627\u0644\u0635\u0627\u0644\u062d\u064a\u0629", "capital": "7", "int_name": "As Siniyah - \u0627\u0644\u0635\u064a\u0646\u064a\u0629", "name": "\u0627\u0644\u0635\u064a\u0646\u064a\u0629", "name:ar": "\u0627\u0644\u0635\u064a\u0646\u064a\u0629", "name:de": "As Siniyah", "name:en": "As Siniyah", "name:fr": "As Siniyah", "place": "city", "wikidata": "Q12189546"}}, {"type": "way", "id": 350663642, "nodes": [3564253624, 3564253619, 3564253618, 3564253617, 3564253621, 3564253620, 3564253622, 3564253623, 3564253625, 248455761, 248455762, 1437494609, 248455763, 2924066228, 248455764, 3564253624], "tags": {"alt_name": "\u0639\u0633\u0643\u0631 \u0627\u0644\u0646\u0627\u064a\u0641", "int_name": "Askar an N\u0101yif, \u0639\u0633\u0643\u0631 \u0627\u0644\u0646\u0627\u064a\u0641, Askar an Nayif, \u0639\u0633\u0643\u0631 \u0627\u0644\u0646\u0627\u064a\u0641", "landuse": "residential", "name": "\u0627\u0644\u0642\u0631\u064a\u0629 \u0627\u0644\u0639\u0635\u0631\u064a\u0629", "name:ar": "\u0639\u0633\u0643\u0631 \u0627\u0644\u0646\u0627\u064a\u0641", "name:ar1": "\u0639\u0633\u0643\u0631 \u0627\u0644\u0646\u0627\u064a\u0641", "name:de": "Askar an Nayif", "name:en": "Askar an Nayif", "name:fr": "Askar an Nayif", "place": "village"}}]}