{"version": 0.6, "generator": "Overpass API 0.7.61.5 4133829e", "osm3s": {"timestamp_osm_base": "2024-03-05T15:10:00Z", "copyright": "The data included in this document is from www.openstreetmap.org. The data is made available under ODbL."}, "elements": [{"type": "node", "id": 30969678, "lat": 62.2736018, "lon": 21.3730807, "tags": {"gns:ufi": "-1372528", "name": "Kristinestad", "name:fi": "Kristiinankaupunki", "name:ru": "\u041a\u0440\u0438\u0441\u0442\u0438\u043d\u0435\u0441\u0442\u0430\u0434", "name:sv": "Kristinestad", "old_name:en": "Christinestad", "place": "town", "source": "gns"}}, {"type": "node", "id": 30969693, "lat": 62.2533397, "lon": 21.5204695, "tags": {"gns:ufi": "-1374412", "name": "Lappfj\u00e4rd", "name:da": "Lappfjaerd", "name:fi": "Lapv\u00e4\u00e4rtti", "name:nb": "Lappfjaerd", "name:nn": "Lappfjaerd", "name:sv": "Lappfj\u00e4rd", "place": "town", "source": "gns"}}, {"type": "node", "id": 101516524, "lat": 62.380057, "lon": 21.5575722, "tags": {"name": "Myrkky", "name:fi": "Myrkky", "name:sv": "M\u00f6rtmark", "place": "hamlet", "wikidata": "Q10593689"}}, {"type": "node", "id": 282876062, "lat": 62.307535, "lon": 21.7077697, "tags": {"name": "Karijoki", "name:fi": "Karijoki", "name:ru": "\u041a\u0430\u0440\u0438\u0439\u043e\u043a\u0438", "name:sv": "B\u00f6tom", "place": "town", "population": "511", "website": "https://karijoki.fi/"}}, {"type": "node", "id": 282876067, "lat": 62.1291401, "lon": 21.6797926, "tags": {"name": "K\u00e4rjenkoski", "name:fi": "K\u00e4rjenkoski", "place": "village"}}, {"type": "node", "id": 1907157727, "lat": 62.3919181, "lon": 21.3735947, "tags": {"name": "Pjelax", "name:fi": "Piolahti", "name:sv": "Pjelax", "place": "village", "source": "survey"}}, {"type": "node", "id": 3294196095, "lat": 62.299712, "lon": 21.4556835, "tags": {"name": "Tj\u00f6ck", "name:fi": "Tiukka", "name:sv": "Tj\u00f6ck", "place": "town"}}, {"type": "node", "id": 3294225613, "lat": 62.0729462, "lon": 21.5257979, "tags": {"name": "\u00d6mossa", "name:fi": "Mets\u00e4l\u00e4", "name:sv": "\u00d6mossa", "place": "village"}}, {"type": "node", "id": 3465995143, "lat": 62.1870162, "lon": 21.7980293}, {"type": "node", "id": 3465995144, "lat": 62.1874066, "lon": 21.7999176}, {"type": "node", "id": 3465995145, "lat": 62.1872164, "lon": 21.8003253}, {"type": "node", "id": 3465995146, "lat": 62.1869161, "lon": 21.8001965}, {"type": "node", "id": 3465995147, "lat": 62.1865857, "lon": 21.798716}, {"type": "node", "id": 3465995148, "lat": 62.1862453, "lon": 21.7982868}, {"type": "node", "id": 3465995149, "lat": 62.1859449, "lon": 21.7985872}, {"type": "node", "id": 3465995150, "lat": 62.1855945, "lon": 21.7989091}, {"type": "node", "id": 3465995151, "lat": 62.1852641, "lon": 21.7986945}, {"type": "node", "id": 3465995152, "lat": 62.1849437, "lon": 21.7994455}, {"type": "node", "id": 3465995153, "lat": 62.1838823, "lon": 21.7976645}, {"type": "node", "id": 3465995154, "lat": 62.1841927, "lon": 21.7964629}, {"type": "node", "id": 3465995155, "lat": 62.1840926, "lon": 21.7937807}, {"type": "node", "id": 3465995156, "lat": 62.1845732, "lon": 21.7911414}, {"type": "node", "id": 3465995157, "lat": 62.1838623, "lon": 21.7888025}, {"type": "node", "id": 3465995158, "lat": 62.1851439, "lon": 21.7877296}, {"type": "node", "id": 3465995159, "lat": 62.1857447, "lon": 21.7866997}, {"type": "node", "id": 3465995160, "lat": 62.1875468, "lon": 21.7851547}, {"type": "node", "id": 3465995161, "lat": 62.1892488, "lon": 21.7839531}, {"type": "node", "id": 3465995162, "lat": 62.1896192, "lon": 21.7874507}, {"type": "node", "id": 3465995163, "lat": 62.1907879, "lon": 21.7906807}, {"type": "node", "id": 3465995164, "lat": 62.1905902, "lon": 21.7966346}, {"type": "node", "id": 3465995165, "lat": 62.1900007, "lon": 21.7968636}, {"type": "node", "id": 3465995166, "lat": 62.1892788, "lon": 21.7955831}, {"type": "node", "id": 3465995167, "lat": 62.1885279, "lon": 21.795154}, {"type": "node", "id": 3465995168, "lat": 62.187717, "lon": 21.7954544}, {"type": "node", "id": 3465995169, "lat": 62.1870963, "lon": 21.7964844}, {"type": "node", "id": 3465995170, "lat": 62.186846, "lon": 21.7976216}, {"type": "node", "id": 3478945951, "lat": 62.4333267, "lon": 21.3537748, "tags": {"name": "B\u00f6le", "place": "village"}}, {"type": "node", "id": 5126455617, "lat": 62.0291113, "lon": 21.3402556, "tags": {"name": "Sideby", "name:fi": "Siipyy", "name:sv": "Sideby", "place": "town", "wikidata": "Q3434073", "wikipedia": "fi:Siipyy"}}, {"type": "node", "id": 8892091394, "lat": 62.3789026, "lon": 21.8455103, "tags": {"name": "Luovankyl\u00e4", "place": "village"}}, {"type": "node", "id": 8955242848, "lat": 62.2321257, "lon": 21.7592706, "tags": {"loc_name": "Ohriluoma", "loc_name:fi": "Ohriluoma", "loc_name:sv": "Kornb\u00e4ck", "name": "Ohrikyl\u00e4", "name:fi": "Ohrikyl\u00e4", "place": "village"}}, {"type": "node", "id": 9816574447, "lat": 62.0599489, "lon": 21.792276, "tags": {"name": "Suojoki", "name:fi": "Suojoki", "place": "village"}}, {"type": "node", "id": 9816574448, "lat": 62.0900022, "lon": 21.7229443, "tags": {"name": "Vesij\u00e4rvi", "name:fi": "Vesij\u00e4rvi", "place": "village"}}, {"type": "node", "id": 9816739664, "lat": 62.2313724, "lon": 21.6443604, "tags": {"name": "Dagsmark", "name:sv": "Dagsmark", "place": "village", "population": "213", "website": "http://www.dagsmark.fi/", "wikidata": "Q17984064", "wikipedia": "sv:Dagsmark"}}, {"type": "node", "id": 9925745670, "lat": 62.0365028, "lon": 21.3117754, "tags": {"name": "Kilen", "name:fi": "Kiili", "name:sv": "Kilen", "place": "hamlet"}}, {"type": "node", "id": 9926336824, "lat": 62.1610521, "lon": 21.4346347, "tags": {"name": "H\u00e4rkmeri", "name:fi": "H\u00e4rkmeri", "name:sv": "H\u00e4rkmeri", "place": "village"}}, {"type": "node", "id": 9957857325, "lat": 62.1598993, "lon": 21.8754553, "tags": {"name": "Villamo", "place": "hamlet"}}, {"type": "node", "id": 10976403860, "lat": 62.2325619, "lon": 21.7497949, "tags": {"loc_name": "Ohriluoma", "loc_name:fi": "Ohriluoma", "name": "Kornb\u00e4ck", "name:sv": "Kornb\u00e4ck", "place": "hamlet"}}, {"type": "node", "id": 11663731910, "lat": 62.1212794, "lon": 21.3509846, "tags": {"name": "Skaftung", "place": "village", "wikidata": "Q10669598", "wikipedia": "fi:Skaftung"}}, {"type": "node", "id": 11666790967, "lat": 62.1071271, "lon": 21.3247652, "tags": {"name": "Sko\u00e4ngen", "place": "hamlet"}}, {"type": "node", "id": 11666790968, "lat": 62.1207127, "lon": 21.3196406, "tags": {"name": "V\u00e4stra \u00e4ndan", "place": "hamlet"}}, {"type": "node", "id": 11666850072, "lat": 62.0968844, "lon": 21.3851412, "tags": {"name": "L\u00e5ngfors", "place": "hamlet"}}, {"type": "node", "id": 11666850315, "lat": 62.1006715, "lon": 21.3943161, "tags": {"name": "Frivelas", "name:fi": "Friiveli", "name:sv": "Frivilas", "place": "hamlet"}}, {"type": "way", "id": 339408771, "nodes": [3465995143, 3465995144, 3465995145, 3465995146, 3465995147, 3465995148, 3465995149, 3465995150, 3465995151, 3465995152, 3465995153, 3465995154, 3465995155, 3465995156, 3465995157, 3465995158, 3465995159, 3465995160, 3465995161, 3465995162, 3465995163, 3465995164, 3465995165, 3465995166, 3465995167, 3465995168, 3465995169, 3465995170, 3465995143], "tags": {"area": "yes", "name": "Vanhakyl\u00e4", "name:fi": "Vanhakyl\u00e4", "name:sv": "Gamla Stor\u00e5", "place": "village"}}]}