{"version": 0.6, "generator": "Overpass API 0.7.61.5 4133829e", "osm3s": {"timestamp_osm_base": "2024-03-05T13:35:45Z", "copyright": "The data included in this document is from www.openstreetmap.org. The data is made available under ODbL."}, "elements": [{"type": "node", "id": 312575332, "lat": 35.9203903, "lon": 64.7822509, "tags": {"alt_name": "Meymaneh;Maimana", "capital": "4", "ele": "877", "is_in:country": "Afghanistan", "is_in:state": "Faryab Province", "name": "\u0645\u06cc\u0645\u0646\u0647", "name:cs": "Majmana", "name:de": "Maimana", "name:el": "\u039c\u03b5\u03ca\u03bc\u03ac\u03bd\u03b1", "name:en": "Maymana", "name:es": "Maymanah", "name:et": "Meymaneh", "name:fr": "Ma\u00efmana", "name:hi": "\u092e\u0947\u092f\u092e\u0928\u093e", "name:ja": "\u30de\u30a4\u30fc\u30de\u30ca", "name:ko": "\ub9c8\uc774\ub9c8\ub098", "name:ru": "\u041c\u0435\u0439\u043c\u0435\u043d\u0435", "name:uk": "\u041c\u0435\u0439\u043c\u0435\u043d\u0435", "name:zh": "\u8fc8\u9a6c\u7eb3/\u9081\u99ac\u7d0d", "name:zh-Hans": "\u8fc8\u9a6c\u7eb3", "name:zh-Hant": "\u9081\u99ac\u7d0d", "place": "city", "population": "75900", "wikidata": "Q309345", "wikipedia": "es:Maymanah"}}, {"type": "node", "id": 4395011679, "lat": 36.268353, "lon": 64.851728, "tags": {"alt_name": "Shirin Tagab;Sirintagab;Koh-i-Saiyad;Koh-e Sayyad", "name": "\u06a9\u0648\u0647 \u0635\u064a\u0627\u062f", "name:en": "Koh-i-Sayad", "name:ps": "\u06a9\u0648\u0647 \u0635\u064a\u0627\u062f", "place": "town", "source:name": "GNS"}}, {"type": "node", "id": 6661735149, "lat": 35.8661616, "lon": 65.0423799, "tags": {"place": "village"}}, {"type": "node", "id": 8878037642, "lat": 36.1429707, "lon": 64.8826746, "tags": {"place": "town"}}, {"type": "node", "id": 8878037886, "lat": 36.1835806, "lon": 64.8817353, "tags": {"place": "village"}}, {"type": "node", "id": 8878037887, "lat": 36.1876344, "lon": 64.8741623, "tags": {"place": "village"}}, {"type": "node", "id": 8878037971, "lat": 36.2047084, "lon": 64.8714092, "tags": {"place": "hamlet"}}, {"type": "node", "id": 8878391282, "lat": 36.2741611, "lon": 64.8796409, "tags": {"place": "village"}}, {"type": "node", "id": 8878391306, "lat": 36.279048, "lon": 64.8831804, "tags": {"place": "town"}}]}