{"version": 0.6, "generator": "Overpass API 0.7.61.5 4133829e", "osm3s": {"timestamp_osm_base": "2024-03-05T13:40:56Z", "copyright": "The data included in this document is from www.openstreetmap.org. The data is made available under ODbL."}, "elements": [{"type": "node", "id": 8297480139, "lat": 33.950285, "lon": 67.2577139, "tags": {"place": "village"}}, {"type": "node", "id": 8297480550, "lat": 33.9645286, "lon": 67.2892515, "tags": {"place": "hamlet"}}, {"type": "node", "id": 8960757002, "lat": 33.8783844, "lon": 66.90049, "tags": {"name": "\u0633\u0631\u062c\u0648\u0632", "name:en": "Sarjawouz", "place": "village"}}, {"type": "node", "id": 8960773286, "lat": 33.8778927, "lon": 66.9214713, "tags": {"name": "\u0631\u067e\u062a\u0627\u0646", "name:en": "Rapatan", "place": "village"}}, {"type": "node", "id": 8960775875, "lat": 33.8734498, "lon": 66.8974364, "tags": {"name": "\u062a\u06cc \u0631\u0627\u0628\u0627\u0637", "name:en": "Tay Rabat", "place": "village"}}, {"type": "node", "id": 8960783942, "lat": 33.8860737, "lon": 66.8879303, "tags": {"name": "\u062f\u06cc\u06a9\u062a\u0648\u0631", "name:en": "Diktoor", "place": "village"}}, {"type": "node", "id": 8960795576, "lat": 33.8911318, "lon": 66.8655767, "tags": {"name": "\u0633\u0631\u062e\u062c\u0648\u06cc", "name:en": "SorkhJoy", "place": "village"}}, {"type": "node", "id": 8960822395, "lat": 33.8861901, "lon": 66.84301, "tags": {"name": "\u0632\u06cc\u0631\u0627\u062a", "name:en": "Zirat", "place": "village"}}, {"type": "node", "id": 8960822674, "lat": 33.8883212, "lon": 66.8501904, "tags": {"name": "\u0646\u0648\u062c\u0645", "name:en": "NowJam", "place": "village"}}, {"type": "node", "id": 8960873681, "lat": 33.866387, "lon": 66.9030755, "tags": {"name": "\u062a\u0648\u063a\u06cc", "name:en": "Toghay", "place": "village"}}, {"type": "node", "id": 8960874277, "lat": 33.8984281, "lon": 66.8436452, "tags": {"name": "\u0627\u0644\u06a9\u0648\u0647", "name:en": "Alakoh", "place": "village"}}, {"type": "node", "id": 8960885736, "lat": 33.8591403, "lon": 66.9128579, "tags": {"name": "\u063a\u0631\u0645\u0627\u0648\u06a9", "name:en": "Gharmawak", "place": "village"}}, {"type": "node", "id": 8972630440, "lat": 33.8600107, "lon": 66.9471282, "tags": {"name": "\u0646\u0644\u06af\u06af", "name:en": "Nalgag", "place": "village"}}, {"type": "node", "id": 8972634488, "lat": 33.8667125, "lon": 66.9130324, "tags": {"name": "\u0633\u0631\u0633\u0646\u06af\u0647", "name:en": "Sarsanga", "place": "village"}}, {"type": "node", "id": 8972637669, "lat": 33.8777166, "lon": 66.8884092, "tags": {"name": "\u062a\u06cc \u062f\u06cc\u06a9\u062a\u0648\u0631", "name:en": "Tay Diktoor", "place": "village"}}, {"type": "node", "id": 8972642342, "lat": 33.841424, "lon": 66.9135121, "tags": {"name": "\u067e\u0633\u06cc \u06af\u06cc\u0646\u06cc", "name:en": "Pasi Gini", "place": "village"}}, {"type": "node", "id": 8972671533, "lat": 33.8738259, "lon": 66.9629977, "tags": {"name": "\u06af\u0646\u062f\u0647 \u0642\u0648\u0644", "name:en": "Ganda Qul", "place": "village"}}, {"type": "node", "id": 8972680318, "lat": 33.8369327, "lon": 66.9218339, "tags": {"name": "\u062a\u06cc \u0648\u0631\u0633\u06cc\u0644", "name:en": "Tay Worsil", "place": "village"}}, {"type": "node", "id": 8972682486, "lat": 33.8656588, "lon": 66.8867026, "tags": {"name": "\u0634\u0648\u0631\u062a\u0627\u0642", "name:en": "Shortaq", "place": "village"}}, {"type": "node", "id": 8972711763, "lat": 33.8802309, "lon": 66.9063268, "tags": {"name": "\u0634\u0631 \u0646\u06cc", "name:en": "Shar Nai", "place": "village"}}, {"type": "node", "id": 9941789158, "lat": 33.8694535, "lon": 66.8982014, "tags": {"name": "Gardo", "name:fa": "\u06af\u0631\u062f\u0648", "place": "village"}}, {"type": "node", "id": 9976204382, "lat": 33.8751522, "lon": 66.8701376, "tags": {"name": "Naiqul", "name:fa": "\u0646\u06cc\u0642\u0648\u0644", "place": "village"}}]}