{"version": 0.6, "generator": "Overpass API 0.7.61.5 4133829e", "osm3s": {"timestamp_osm_base": "2024-03-06T11:25:45Z", "copyright": "The data included in this document is from www.openstreetmap.org. The data is made available under ODbL."}, "elements": [{"type": "node", "id": 277575156, "lat": -1.2624237, "lon": 36.8247469, "tags": {"amenity": "atm", "created_by": "Potlatch 0.9c"}}, {"type": "node", "id": 300800468, "lat": -1.2326978, "lon": 36.8151356, "tags": {"amenity": "atm"}}, {"type": "node", "id": 300800898, "lat": -1.2327236, "lon": 36.8144833, "tags": {"amenity": "atm", "name": "UNFCU", "operator": "United Nations Federal Credit Union"}}, {"type": "node", "id": 489246753, "lat": -1.3244571, "lon": 36.8029296, "tags": {"amenity": "atm", "name": "Barclays"}}, {"type": "node", "id": 496772870, "lat": -1.3074565, "lon": 36.8025193, "tags": {"amenity": "atm", "check_date": "2023-05-02", "name": "Barclays"}}, {"type": "node", "id": 515625517, "lat": -1.2950668, "lon": 36.798867, "tags": {"addr:city": "Nairobi", "addr:street": "Argwings Kodhek Road", "amenity": "atm", "name": "Barclays Bank (Hurlingham Branch)", "operator": "Barclays"}}, {"type": "node", "id": 1045131894, "lat": -1.1967103, "lon": 36.925969, "tags": {"amenity": "atm", "operator": "Cooperative Bank ATM"}}, {"type": "node", "id": 1045131955, "lat": -1.1964801, "lon": 36.9243163, "tags": {"amenity": "atm", "name": "Equity ATM", "operator": "Equity"}}, {"type": "node", "id": 1276749985, "lat": -1.2880881, "lon": 36.880847, "tags": {"amenity": "atm"}}, {"type": "node", "id": 1306116735, "lat": -1.2983971, "lon": 36.7627552, "tags": {"amenity": "atm", "check_date": "2023-04-08"}}, {"type": "node", "id": 1453524905, "lat": -1.3164446, "lon": 36.8346391, "tags": {"amenity": "atm", "fee": "Pesa Point"}}, {"type": "node", "id": 1453525326, "lat": -1.3167127, "lon": 36.8350468, "tags": {"addr:city": "Nairobi", "addr:street": "Mombasa Road", "amenity": "atm", "operator": "Diamond Trust Bank"}}, {"type": "node", "id": 1460889352, "lat": -1.3018818, "lon": 36.8882275, "tags": {"amenity": "atm", "brand": "Standard Chartered", "brand:wikidata": "Q548278", "brand:wikipedia": "en:Standard Chartered", "fee": "Standard Chartered ATM", "name": "Standard Chartered", "operator": "Standard Chartered", "operator:wikidata": "Q548278", "operator:wikipedia": "en:Standard Chartered"}}, {"type": "node", "id": 1460889933, "lat": -1.3011223, "lon": 36.8882468, "tags": {"amenity": "atm", "fee": "KCB ATM", "operator": "KCB"}}, {"type": "node", "id": 1460891310, "lat": -1.3011947, "lon": 36.8882548, "tags": {"amenity": "atm", "fee": "NIC Bank ATM", "operator": "NIC Bank"}}, {"type": "node", "id": 1580136980, "lat": -1.3165136, "lon": 36.8344472, "tags": {"addr:city": "Nairobi", "addr:street": "Mombasa Road", "amenity": "atm", "operator": "NIC Bank ATM"}}, {"type": "node", "id": 1628483705, "lat": -1.2999834, "lon": 36.7907363, "tags": {"amenity": "atm", "check_date": "2023-04-25", "operator": "KCB"}}, {"type": "node", "id": 1628483708, "lat": -1.300027, "lon": 36.7908393, "tags": {"amenity": "atm", "brand": "Ecobank", "brand:wikidata": "Q930225", "check_date": "2023-04-25", "operator": "Ecobank", "operator:wikidata": "Q930225"}}, {"type": "node", "id": 1628483746, "lat": -1.3006381, "lon": 36.7868165, "tags": {"addr:city": "Nairobi", "addr:housenumber": "Prestige Plaza,", "addr:street": "Mugo Kibiru Drive", "amenity": "atm", "brand": "Standard Chartered", "brand:wikidata": "Q548278", "check_date": "2023-04-15", "name": "Standard Chartered Bank ATM", "operator": "Standard Chartered", "operator:wikidata": "Q548278"}}, {"type": "node", "id": 1628483769, "lat": -1.2981367, "lon": 36.7623087, "tags": {"amenity": "atm", "operator": "Pesa Point"}}, {"type": "node", "id": 1628483780, "lat": -1.3007097, "lon": 36.7868434, "tags": {"amenity": "atm", "brand": "Equity Bank", "brand:wikidata": "Q5384664", "check_date": "2023-04-15", "operator": "Equity Bank", "operator:wikidata": "Q5384664"}}, {"type": "node", "id": 1628483782, "lat": -1.3005353, "lon": 36.7868193, "tags": {"amenity": "atm", "operator": "Pesa Point"}}, {"type": "node", "id": 1628483796, "lat": -1.257085, "lon": 36.80314, "tags": {"addr:city": "Nairobi", "addr:housenumber": "Westgate Mall,", "addr:street": "Mwanzi Road", "amenity": "atm", "brand": "Standard Chartered", "brand:wikidata": "Q548278", "operator": "Standard Chartered", "operator:wikidata": "Q548278"}}, {"type": "node", "id": 1628483799, "lat": -1.2903818, "lon": 36.770708, "tags": {"amenity": "atm", "check_date": "2023-05-02", "operator": "Standard Chartered"}}, {"type": "node", "id": 1635576807, "lat": -1.2999497, "lon": 36.7906165, "tags": {"amenity": "atm", "check_date": "2023-04-25", "operator": "Barclays"}}, {"type": "node", "id": 1635576812, "lat": -1.3347322, "lon": 36.7806973, "tags": {"amenity": "atm", "operator": "KCB"}}, {"type": "node", "id": 1635588143, "lat": -1.2950995, "lon": 36.7991122, "tags": {"amenity": "atm", "brand": "Standard Chartered", "brand:wikidata": "Q548278", "check_date": "2023-05-02", "operator": "Standard Chartered", "operator:wikidata": "Q548278"}}, {"type": "node", "id": 1655512518, "lat": -1.257503, "lon": 36.8273601, "tags": {"amenity": "atm", "operator": "Imperial"}}, {"type": "node", "id": 1717391415, "lat": -1.1786836, "lon": 36.9341536, "tags": {"amenity": "atm", "operator": "Equity Bank, Kenya LTD"}}, {"type": "node", "id": 1717391422, "lat": -1.1788134, "lon": 36.9349671, "tags": {"amenity": "atm", "operator": "National Bank of Kenya"}}, {"type": "node", "id": 1719262608, "lat": -1.1476465, "lon": 36.9612676, "tags": {"amenity": "atm", "operator": "Cooprative Bank"}}, {"type": "node", "id": 1719262614, "lat": -1.1488951, "lon": 36.9589714, "tags": {"amenity": "atm", "operator": "PesaPoint"}}, {"type": "node", "id": 1719262617, "lat": -1.1481287, "lon": 36.9600869, "tags": {"amenity": "atm", "operator": "Cooperative Bank"}}, {"type": "node", "id": 1719318914, "lat": -1.1892438, "lon": 36.9316555, "tags": {"amenity": "atm", "operator": "PesaPoint"}}, {"type": "node", "id": 1719330036, "lat": -1.1959631, "lon": 36.9214427, "tags": {"amenity": "atm", "operator": "Equity Bank"}}, {"type": "node", "id": 1720973303, "lat": -1.2826459, "lon": 36.8216001, "tags": {"addr:city": "Nairobi", "addr:street": "Kimathi Street", "amenity": "atm", "brand": "GT Bank", "brand:wikidata": "Q579747", "brand:wikipedia": "en:Guaranty Trust Holding Company PLC", "check_date": "2023-05-11", "name": "GT Bank", "official_name": "Guaranty Trust Bank", "operator": "GT Bank", "operator:wikidata": "Q579747", "operator:wikipedia": "en:Guaranty Trust Holding Company PLC"}}, {"type": "node", "id": 1721389483, "lat": -1.2818375, "lon": 36.8184313, "tags": {"amenity": "atm", "operator": "PesaPoint"}}, {"type": "node", "id": 1721389484, "lat": -1.281859, "lon": 36.8184742, "tags": {"amenity": "atm", "operator": "Cooperative Bank"}}, {"type": "node", "id": 1721401325, "lat": -1.2847229, "lon": 36.8175945, "tags": {"amenity": "atm", "operator": "Barclays"}}, {"type": "node", "id": 1728805787, "lat": -1.2653187, "lon": 36.749577, "tags": {"addr:city": "Nairobi", "addr:street": "Muratha Road", "amenity": "atm", "operator": "Cooprative Bank"}}, {"type": "node", "id": 1728805795, "lat": -1.2652417, "lon": 36.7495247, "tags": {"addr:city": "Nairobi", "addr:street": "Muratha Road", "amenity": "atm", "operator": "Kenya Commercial Bank"}}, {"type": "node", "id": 1728934697, "lat": -1.2626666, "lon": 36.7185491, "tags": {"amenity": "atm", "operator": "Postbank, Kenya ( Kenswitch )"}}, {"type": "node", "id": 1762068641, "lat": -1.3075555, "lon": 36.8232454, "tags": {"amenity": "atm", "brand": "Standard Chartered", "brand:wikidata": "Q548278", "operator": "Standard Chartered", "operator:wikidata": "Q548278"}}, {"type": "node", "id": 1762068868, "lat": -1.3075421, "lon": 36.8234064, "tags": {"amenity": "atm", "operator": "Cooperative Bank"}}, {"type": "node", "id": 1762069182, "lat": -1.3037126, "lon": 36.8189502, "tags": {"amenity": "atm", "operator": "Kenya Commercial Bank"}}, {"type": "node", "id": 1960072389, "lat": -1.3079219, "lon": 36.8335213, "tags": {"amenity": "atm", "operator": "Standard Charterd ATM"}}, {"type": "node", "id": 1991534920, "lat": -1.1478278, "lon": 36.9608963, "tags": {"amenity": "atm", "operator": "Barclays"}}, {"type": "node", "id": 2145322818, "lat": -1.3115009, "lon": 36.8377277, "tags": {"amenity": "atm", "operator": "Co-operative Bank of Kenya"}}, {"type": "node", "id": 2461248373, "lat": -1.2355679, "lon": 36.811382, "tags": {"addr:city": "Nairobi", "addr:street": "United Nations Avenue", "amenity": "atm", "brand": "Standard Chartered", "brand:wikidata": "Q548278", "operator": "Standard Chartered", "operator:wikidata": "Q548278"}}, {"type": "node", "id": 2461248502, "lat": -1.2353936, "lon": 36.8112156, "tags": {"amenity": "atm", "operator": "CFC Stanbic Bank"}}, {"type": "node", "id": 2536626731, "lat": -1.2295103, "lon": 36.8051007, "tags": {"amenity": "atm", "name": "KCB ATM - Village Market"}}, {"type": "node", "id": 2730653485, "lat": -1.3113526, "lon": 36.913418, "tags": {"amenity": "atm", "operator": "Cooperative ATM"}}, {"type": "node", "id": 2739052643, "lat": -1.3098388, "lon": 36.9122908, "tags": {"amenity": "atm", "name": "Pesa Point Wanandege Plaza", "operator": "Pesa Point"}}, {"type": "node", "id": 2739115556, "lat": -1.3114539, "lon": 36.9134714, "tags": {"amenity": "atm", "operator": "KCB Embakasi"}}, {"type": "node", "id": 2780920626, "lat": -1.2637215, "lon": 36.8243639, "tags": {"amenity": "atm", "operator": "Barclays Atm"}}, {"type": "node", "id": 3283341012, "lat": -1.3283361, "lon": 36.8827641, "tags": {"addr:city": "Nairobi", "addr:street": "Mombasa Road", "amenity": "atm", "name": "Chomazone", "operator": "Co-operative bank ATM"}}, {"type": "node", "id": 3294738188, "lat": -1.2888812, "lon": 36.8288365, "tags": {"amenity": "atm"}}, {"type": "node", "id": 3294738189, "lat": -1.28866, "lon": 36.8290557, "tags": {"amenity": "atm"}}, {"type": "node", "id": 3393468066, "lat": -1.3432325, "lon": 36.7641788, "tags": {"amenity": "atm"}}, {"type": "node", "id": 3519375333, "lat": -1.361869, "lon": 36.6553998, "tags": {"amenity": "atm", "name": "Barclays self servise", "operator": "Barclays"}}, {"type": "node", "id": 3519375374, "lat": -1.3616573, "lon": 36.655363, "tags": {"amenity": "atm", "name": "KCB ATM - Ngong Branch", "operator": "KCB"}}, {"type": "node", "id": 3519375375, "lat": -1.3591963, "lon": 36.6560358, "tags": {"amenity": "atm", "name": "National Bank ATM-Ngong", "operator": "National Bank"}}, {"type": "node", "id": 3519605680, "lat": -1.2991806, "lon": 36.7596966, "tags": {"amenity": "atm", "name": "Equity Bank ATM", "opening_hours": "24/7"}}, {"type": "node", "id": 3677577238, "lat": -1.2628363, "lon": 36.8027427, "tags": {"addr:city": "Nairobi", "addr:housenumber": "Shell Petrol Station,", "addr:street": "Woodvale Grove", "amenity": "atm", "drive_through": "yes", "name": "CFC Stanbic", "operator": "CFC Stanbic"}}, {"type": "node", "id": 3729387136, "lat": -1.3070339, "lon": 36.8023262, "tags": {"amenity": "atm", "cash_in": "no", "name": "Housing Finance"}}, {"type": "node", "id": 4217091091, "lat": -1.2184401, "lon": 36.8789708, "tags": {"amenity": "atm", "opening_hours": "24/7", "operator": "KCB"}}, {"type": "node", "id": 4413106389, "lat": -1.3127359, "lon": 36.8167909, "tags": {"amenity": "atm", "operator": "CFC Stanbic"}}, {"type": "node", "id": 4424451594, "lat": -1.2599544, "lon": 36.7854049, "tags": {"amenity": "atm", "brand": "Stanbic Bank", "brand:wikidata": "Q7597999", "level": "0", "opening_hours": "24/7", "operator": "Stanbic Bank", "operator:wikidata": "Q7597999", "wheelchair": "yes"}}, {"type": "node", "id": 4424510089, "lat": -1.2950761, "lon": 36.8140032, "tags": {"amenity": "atm"}}, {"type": "node", "id": 4636841800, "lat": -1.2670838, "lon": 36.8115613, "tags": {"amenity": "atm", "brand": "Ecobank", "brand:wikidata": "Q930225", "name": "Ecobank", "operator": "Ecobank", "operator:wikidata": "Q930225"}}, {"type": "node", "id": 5334825603, "lat": -1.2595888, "lon": 36.7771601, "tags": {"addr:city": "Nairobi", "addr:street": "Waiyaki Way", "amenity": "atm", "operator": "Equity Bank ATM"}}, {"type": "node", "id": 5334916122, "lat": -1.29028, "lon": 36.7704783, "tags": {"amenity": "atm", "check_date": "2023-05-29", "currency:KES": "yes", "operator": "Equity Bank Atm"}}, {"type": "node", "id": 5334928987, "lat": -1.2904359, "lon": 36.770721, "tags": {"amenity": "atm", "check_date": "2023-05-29", "operator": "Co-op Bank ATM - Valley Arcade Branch"}}, {"type": "node", "id": 5338847265, "lat": -1.2854445, "lon": 36.7379926, "tags": {"addr:city": "Nairobi", "addr:street": "Ngina Road", "amenity": "atm", "operator": "Kenswitch ATM"}}, {"type": "node", "id": 5339427769, "lat": -1.2728364, "lon": 36.8136604, "tags": {"addr:city": "Nairobi", "addr:street": "Museum Hill", "amenity": "atm", "operator": "KCB ATM"}}, {"type": "node", "id": 5340437898, "lat": -1.2615816, "lon": 36.8015424, "tags": {"amenity": "atm", "operator": "Barclays Bank ATM"}}, {"type": "node", "id": 5340437899, "lat": -1.261091, "lon": 36.8018231, "tags": {"amenity": "atm", "operator": "Equity Bank ATM"}}, {"type": "node", "id": 5340998427, "lat": -1.2579709, "lon": 36.8274641, "tags": {"amenity": "atm", "drive_through": "yes", "opening_hours": "24/7", "operator": "PesaPoint ATM KCB - Limuru Road"}}, {"type": "node", "id": 5341059987, "lat": -1.2640796, "lon": 36.8241714, "tags": {"amenity": "atm", "operator": "Equity ATM"}}, {"type": "node", "id": 5341059988, "lat": -1.2638032, "lon": 36.8245235, "tags": {"amenity": "atm", "operator": "KCB ATM - Oil Libya Limuru Road"}}, {"type": "node", "id": 5352705129, "lat": -1.2310597, "lon": 36.8038997, "tags": {"amenity": "atm", "operator": "Equity Bank Atm"}}, {"type": "node", "id": 5354470345, "lat": -1.2903389, "lon": 36.7707035, "tags": {"amenity": "atm", "check_date": "2023-05-02", "operator": "Family Bank"}}, {"type": "node", "id": 5356215609, "lat": -1.2682212, "lon": 36.8339956, "tags": {"addr:housenumber": "Murang'a Rd, Nairobi", "amenity": "atm", "check_date": "2023-05-11", "operator": "Chase Bank ATM"}}, {"type": "node", "id": 5360202693, "lat": -1.2614241, "lon": 36.8015563, "tags": {"addr:housenumber": "Karuna Road, At Ground Floor, Sarit Centre, Westlands, Nairobi", "amenity": "atm", "brand": "Standard Chartered", "brand:wikidata": "Q548278", "name": "Standard Chartered Bank ATM 2", "operator": "Standard Chartered", "operator:wikidata": "Q548278"}}, {"type": "node", "id": 5360683987, "lat": -1.3223581, "lon": 36.7083976, "tags": {"amenity": "atm", "drive_through": "yes", "name": "Equity ATM", "operator": "Equity ATM"}}, {"type": "node", "id": 5360808424, "lat": -1.3236598, "lon": 36.7077546, "tags": {"amenity": "atm", "name": "KCB ATM - Karen", "operator": "KCB ATM - Karen"}}, {"type": "node", "id": 5360808425, "lat": -1.3251643, "lon": 36.710449, "tags": {"amenity": "atm", "brand": "Ecobank", "brand:wikidata": "Q930225", "name": "Ecobank ATM Karen", "operator": "Ecobank", "operator:wikidata": "Q930225"}}, {"type": "node", "id": 5371741526, "lat": -1.3436678, "lon": 36.7644316, "tags": {"addr:housenumber": "Nakumatt Galleria, ATM Lobby, Langata Road, Nairobi", "amenity": "atm", "name": "Galleria Co-op Bank ATM", "operator": "Galleria Co-op Bank ATM"}}, {"type": "node", "id": 5372373755, "lat": -1.3267777, "lon": 36.78919, "tags": {"addr:housenumber": "Kitengela Rd, Nairobi", "amenity": "atm", "name": "EcoBank ATM", "operator": "EcoBank ATM"}}, {"type": "node", "id": 5372373756, "lat": -1.3266316, "lon": 36.789074, "tags": {"addr:housenumber": "Kitengela Rd, Nairobi", "amenity": "atm", "drive_through": "yes", "name": "Cooperative Bank ATM", "operator": "Cooperative Bank ATM"}}, {"type": "node", "id": 5372373757, "lat": -1.3267562, "lon": 36.7893404, "tags": {"addr:housenumber": "Kitengela Rd, Nairobi", "amenity": "atm", "name": "Equity Bank ATM", "operator": "Kitengela Rd, Nairobi"}}, {"type": "node", "id": 5372384729, "lat": -1.3309196, "lon": 36.79842, "tags": {"amenity": "atm", "drive_through": "no", "name": "Prime Bank ATM", "operator": "Prime Bank"}}, {"type": "node", "id": 5372421001, "lat": -1.3236948, "lon": 36.8029852, "tags": {"addr:housenumber": "Uchumi, Nairobi", "amenity": "atm", "drive_through": "no", "name": "National Bank ATM", "operator": "National Bank ATM"}}, {"type": "node", "id": 5372421002, "lat": -1.3238806, "lon": 36.8028681, "tags": {"addr:housenumber": "Uchumi, Nairobi", "amenity": "atm", "drive_through": "no", "name": "KCB ATM"}}, {"type": "node", "id": 5372450530, "lat": -1.3123489, "lon": 36.8168038, "tags": {"amenity": "atm", "name": "Diamond Trust Bank ATM"}}, {"type": "node", "id": 5372450539, "lat": -1.3082832, "lon": 36.8212752, "tags": {"addr:housenumber": "Nairobi West Shopping Centre, Kodi Road, Nairobi", "amenity": "atm", "name": "Co-op Bank ATM - Nairobi West Branch"}}, {"type": "node", "id": 5378414039, "lat": -1.3061333, "lon": 36.8200708, "tags": {"addr:housenumber": "Aerodrome Rd, Nairobi", "amenity": "atm", "drive_through": "yes", "name": "Pesa Point", "operator": "Pesa Point"}}, {"type": "node", "id": 5380567788, "lat": -1.2959594, "lon": 36.8156155, "tags": {"addr:city": "Nairobi", "addr:street": "Upper Hill Road", "amenity": "atm", "operator": "Barclays Bank ATM"}}, {"type": "node", "id": 5383793257, "lat": -1.2945742, "lon": 36.8065044, "tags": {"amenity": "atm", "brand": "Stanbic Bank", "brand:wikidata": "Q7597999", "check_date": "2023-05-11", "name": "Stanbic Bank ATM", "operator": "Stanbic Bank", "operator:wikidata": "Q7597999"}}, {"type": "node", "id": 5383793344, "lat": -1.2989323, "lon": 36.8036119, "tags": {"amenity": "atm", "name": "KCB ATM", "operator": "KCB ATM"}}, {"type": "node", "id": 5383793351, "lat": -1.3016818, "lon": 36.8074838, "tags": {"amenity": "atm", "brand": "Equity Bank", "brand:wikidata": "Q5384664", "name": "Equity Bank", "operator": "Equity Bank", "operator:wikidata": "Q5384664"}}, {"type": "node", "id": 5383793352, "lat": -1.3011448, "lon": 36.8073978, "tags": {"amenity": "atm", "name": "Co-operative Bank ATM"}}, {"type": "node", "id": 5383793353, "lat": -1.3013253, "lon": 36.8073291, "tags": {"amenity": "atm", "name": "National Bank-Hospital"}}, {"type": "node", "id": 5383793354, "lat": -1.3011448, "lon": 36.8069165, "tags": {"amenity": "atm", "name": "KCB - Kenyatta National Hospital"}}, {"type": "node", "id": 5412286177, "lat": -1.3005225, "lon": 36.7818517, "tags": {"addr:city": "Nairobi", "addr:street": "Ngong Road", "amenity": "atm", "check_date": "2022-09-30", "drive_through": "no", "name": "Co-operative Bank ATM", "operator": "Co-operative Bank ATM"}}, {"type": "node", "id": 5414008467, "lat": -1.3008774, "lon": 36.7868503, "tags": {"addr:city": "Nairobi", "addr:housenumber": "Prestige Plaza,", "addr:street": "Ngong Road", "amenity": "atm", "check_date": "2023-04-15", "name": "Family Bank ATM Prestige Plaza", "operator": "Family Bank ATM Prestige Plaza"}}, {"type": "node", "id": 5414008471, "lat": -1.3007197, "lon": 36.7872426, "tags": {"addr:city": "Nairobi", "addr:street": "Mugo Kibiru Drive", "amenity": "atm", "brand": "Equity Bank", "brand:wikidata": "Q5384664", "name": "Equity ATM", "operator": "Equity Bank", "operator:wikidata": "Q5384664"}}, {"type": "node", "id": 5414008474, "lat": -1.3007351, "lon": 36.7870965, "tags": {"addr:city": "Nairobi", "addr:street": "Ngong Road", "amenity": "atm", "name": "Barclays Bank ATM", "operator": "Barclays Bank ATM"}}, {"type": "node", "id": 5414200463, "lat": -1.3002069, "lon": 36.7900487, "tags": {"addr:city": "Nairobi", "addr:housenumber": "Oil Libya,", "addr:street": "Ngong Road", "amenity": "atm", "check_date": "2023-04-25", "drive_through": "no", "name": "CfC Stanbic Bank ATM-Oil Libya", "operator": "CFC STANBIC"}}, {"type": "node", "id": 5414200489, "lat": -1.2954346, "lon": 36.8017378, "tags": {"addr:city": "Nairobi", "addr:street": "Argwings Kodhek Road", "amenity": "atm", "check_date": "2023-05-11", "name": "Coop ATM", "operator": "Coop ATM"}}, {"type": "node", "id": 5414200490, "lat": -1.2956046, "lon": 36.7998778, "tags": {"addr:city": "Nairobi", "addr:street": "Argwings Kodhek Road", "amenity": "atm", "check_date": "2023-05-02", "drive_through": "yes", "name": "Stanbic ATM", "operator": "Stanbic ATM"}}, {"type": "node", "id": 5414200491, "lat": -1.2957043, "lon": 36.7998575, "tags": {"addr:city": "Nairobi", "addr:street": "Argwings Kodhek Road", "amenity": "atm", "check_date": "2023-05-02", "name": "I&M ATM"}}, {"type": "node", "id": 5414200495, "lat": -1.2949503, "lon": 36.7997833, "tags": {"addr:city": "Nairobi", "addr:housenumber": "Kenol,", "addr:street": "Argwings Kodhek Road", "amenity": "atm", "name": "PesaPoint ATM Hurlingham", "operator": "PesaPoint"}}, {"type": "node", "id": 5414280547, "lat": -1.2927169, "lon": 36.7878561, "tags": {"addr:city": "Nairobi", "addr:housenumber": "1st Floor Yaya Centre,", "addr:street": "Argwings Kodhek Road", "amenity": "atm", "check_date": "2023-05-11", "name": "Co-op Bank ATM - Yaya Centre", "operator": "Co-op Bank ATM - Yaya Centre"}}, {"type": "node", "id": 5414280555, "lat": -1.2931861, "lon": 36.7877663, "tags": {"addr:city": "Nairobi", "addr:street": "Argwings Kodhek Road", "amenity": "atm", "name": "KCB ATM", "operator": "KCB ATM"}}, {"type": "node", "id": 5414280558, "lat": -1.2927419, "lon": 36.7882076, "tags": {"addr:city": "Nairobi", "addr:housenumber": "Yaya Centre,", "addr:street": "Argwings Kodhek Road", "amenity": "atm", "name": "CBA ATM", "operator": "CBA ATM"}}, {"type": "node", "id": 5414335739, "lat": -1.2949316, "lon": 36.8001658, "tags": {"addr:city": "Nairobi", "addr:street": "Argwings Kodhek Road", "amenity": "atm", "brand": "Standard Chartered", "brand:wikidata": "Q548278", "drive_through": "no", "name": "Standard Chartered Bank ATM", "operator": "Standard Chartered", "operator:wikidata": "Q548278"}}, {"type": "node", "id": 5440688281, "lat": -1.2593732, "lon": 36.7796891, "tags": {"addr:city": "Nairobi", "addr:street": "Waiyaki Way", "amenity": "atm", "brand": "Standard Chartered", "brand:wikidata": "Q548278", "drive_through": "yes", "name": "Standard Chartered Bank ATM", "operator": "Standard Chartered", "operator:wikidata": "Q548278"}}, {"type": "node", "id": 5444958290, "lat": -1.2638823, "lon": 36.8033963, "tags": {"addr:city": "Nairobi", "addr:housenumber": "Oilibya Westlands,", "addr:street": "Ring Road Westlands", "amenity": "atm", "name": "Barclays ATM", "operator": "Barclays"}}, {"type": "node", "id": 5496066064, "lat": -1.291706, "lon": 36.8417112, "tags": {"addr:city": "Nairobi", "addr:street": "Jogoo Road", "amenity": "atm", "brand": "Equity Bank", "brand:wikidata": "Q5384664", "name": "Equity Bank ATM", "operator": "Equity Bank", "operator:wikidata": "Q5384664"}}, {"type": "node", "id": 5496066067, "lat": -1.2920785, "lon": 36.8433341, "tags": {"addr:city": "Nairobi", "addr:street": "Jogoo Road", "amenity": "atm", "drive_through": "no", "name": "National Bank ATM", "operator": "National Bank ATM"}}, {"type": "node", "id": 5496079226, "lat": -1.2944746, "lon": 36.8545714, "tags": {"addr:city": "Nairobi", "addr:street": "Jogoo Road", "amenity": "atm", "drive_through": "yes", "name": "Co-operative BankAtm", "operator": "Co-operative BankAtm"}}, {"type": "node", "id": 5496602970, "lat": -1.2772218, "lon": 36.8278997, "tags": {"addr:city": "Nairobi", "addr:street": "Ngara Road", "amenity": "atm", "drive_through": "yes", "name": "National Bank ATM", "operator": "National Bank ATM"}}, {"type": "node", "id": 5540763534, "lat": -1.253906, "lon": 36.7920243, "tags": {"addr:city": "Nairobi", "addr:housenumber": "Total Petrol Station,", "addr:street": "Lower Kabete Road", "amenity": "atm", "brand": "Standard Chartered", "brand:wikidata": "Q548278", "drive_through": "yes", "name": "Standard Chartered", "operator": "Standard Chartered", "operator:wikidata": "Q548278"}}, {"type": "node", "id": 5552467926, "lat": -1.2843413, "lon": 36.8237608, "tags": {"addr:city": "Nairobi", "addr:housenumber": "Old Mutual Building,", "addr:street": "Kimathi Street", "amenity": "atm", "brand": "Standard Chartered", "brand:wikidata": "Q548278", "brand:wikipedia": "en:Standard Chartered", "name": "Standard Chartered", "operator": "Standard Chartered", "operator:wikidata": "Q548278", "operator:wikipedia": "en:Standard Chartered"}}, {"type": "node", "id": 5555073944, "lat": -1.2844689, "lon": 36.8194606, "tags": {"addr:city": "Nairobi", "addr:street": "Banda Street", "amenity": "atm", "drive_through": "no", "operator": "Nic Bank"}}, {"type": "node", "id": 5555704199, "lat": -1.2872385, "lon": 36.8180849, "tags": {"addr:city": "Nairobi", "addr:street": "Uhuru Highway", "amenity": "atm", "check_date": "2023-05-11", "operator": "KCB ATM"}}, {"type": "node", "id": 5904884585, "lat": -1.330813, "lon": 36.9240632, "tags": {"amenity": "atm", "operator": "Barclays"}}, {"type": "node", "id": 6173489657, "lat": -1.257916, "lon": 36.9224195, "tags": {"addr:city": "Nairobi", "addr:street": "Kangundo Road", "amenity": "atm", "cash_in": "yes", "operator": "Co - operative Bank ATM"}}, {"type": "node", "id": 6197926464, "lat": -1.2997515, "lon": 36.8391636, "tags": {"addr:city": "Nairobi", "addr:street": "Addis Ababa Road", "amenity": "atm", "cash_in": "yes", "operator": "Co-op Bank ATM - Enterprise Road Branch"}}, {"type": "node", "id": 6208216874, "lat": -1.3296958, "lon": 36.8894289, "tags": {"addr:city": "Nairobi", "addr:street": "Airport North Road", "amenity": "atm", "cash_in": "yes", "operator": "Standard Chartered Bank ATM;Barclays"}}, {"type": "node", "id": 6208217294, "lat": -1.3286665, "lon": 36.8915145, "tags": {"addr:city": "Nairobi", "addr:street": "Airport North Road", "amenity": "atm", "operator": "KCB ATM - Embakasi- Airport North Rd"}}, {"type": "node", "id": 6208217299, "lat": -1.3288648, "lon": 36.8914704, "tags": {"addr:city": "Nairobi", "addr:street": "Airport North Road", "amenity": "atm", "brand": "Equity Bank", "brand:wikidata": "Q5384664", "operator": "Equity Bank", "operator:wikidata": "Q5384664"}}, {"type": "node", "id": 6208217300, "lat": -1.3287833, "lon": 36.89138, "tags": {"addr:city": "Nairobi", "addr:street": "Airport North Road", "amenity": "atm", "operator": "AutoBank ATM"}}, {"type": "node", "id": 6208217301, "lat": -1.3285452, "lon": 36.8916975, "tags": {"addr:city": "Nairobi", "addr:street": "Airport North Road", "amenity": "atm", "brand": "Ecobank", "brand:wikidata": "Q930225", "operator": "Ecobank", "operator:wikidata": "Q930225"}}, {"type": "node", "id": 6210012944, "lat": -1.3697457, "lon": 36.9178939, "tags": {"addr:city": "Syokimau", "addr:street": "Mombasa Road", "amenity": "atm", "operator": "CO-OP Bank ATM Mlolongo"}}, {"type": "node", "id": 6210202316, "lat": -1.3970217, "lon": 36.94225, "tags": {"addr:city": "Mlolongo", "addr:street": "Mombasa Road", "amenity": "atm", "cash_in": "yes", "operator": "National Bank ATM"}}, {"type": "node", "id": 6224913780, "lat": -1.2533334, "lon": 36.8580883, "tags": {"addr:city": "Nairobi", "addr:street": "Thika Road", "amenity": "atm", "operator": "Equity Bank ATM"}}, {"type": "node", "id": 6224915427, "lat": -1.2197335, "lon": 36.889158, "tags": {"addr:city": "Nairobi", "addr:street": "TRM Drive", "amenity": "atm", "operator": "KCB Bank ATM"}}, {"type": "node", "id": 6224915432, "lat": -1.2199617, "lon": 36.88887, "tags": {"addr:city": "Nairobi", "addr:street": "TRM Drive", "amenity": "atm", "name": "National Bank ATM-Thika Highway"}}, {"type": "node", "id": 6249063510, "lat": -1.2176621, "lon": 36.8995196, "tags": {"amenity": "atm", "check_date": "2022-02-04", "operator": "Coop Bank ATM"}}, {"type": "node", "id": 6249168564, "lat": -1.227484, "lon": 36.9182906, "tags": {"amenity": "atm", "check_date": "2022-02-04", "operator": "Cooperative ATM Hunters"}}, {"type": "node", "id": 6251534637, "lat": -1.178765, "lon": 36.9346254, "tags": {"amenity": "atm", "name": "Equity Auto Teller Machine", "operator": "Equity Auto Teller Machine"}}, {"type": "node", "id": 6259798972, "lat": -1.2890136, "lon": 36.9013241, "tags": {"amenity": "atm", "name": "Chicken Inn", "operator": "Standard Chattered ATM"}}, {"type": "node", "id": 6259798973, "lat": -1.2889182, "lon": 36.9011983, "tags": {"amenity": "atm", "operator": "Ecobank ATM Greenspan Mall"}}, {"type": "node", "id": 6322808289, "lat": -1.3126085, "lon": 36.8298379, "tags": {"addr:city": "Nairobi", "addr:street": "Mombasa Road", "amenity": "atm", "brand": "Standard Chartered", "brand:wikidata": "Q548278", "operator": "Standard Chartered", "operator:wikidata": "Q548278"}}, {"type": "node", "id": 6959434085, "lat": -1.2842683, "lon": 36.8231023, "tags": {"amenity": "atm"}}, {"type": "node", "id": 7007457685, "lat": -1.2710031, "lon": 36.801046, "tags": {"amenity": "atm", "operator": "SPM Bank (VISA ONLY)"}}, {"type": "node", "id": 7007463785, "lat": -1.2719071, "lon": 36.8021938, "tags": {"amenity": "atm", "operator": "Prime Bank"}}, {"type": "node", "id": 8168753618, "lat": -1.3170171, "lon": 36.896226, "tags": {"amenity": "atm", "operator": "KCB Pesapoint ATM"}}, {"type": "node", "id": 9297817806, "lat": -1.3320048, "lon": 36.926848, "tags": {"amenity": "atm"}}, {"type": "node", "id": 9753013617, "lat": -1.2528056, "lon": 36.6866921, "tags": {"amenity": "atm"}}, {"type": "node", "id": 9997742938, "lat": -1.2573435, "lon": 36.8032429, "tags": {"amenity": "atm", "brand": "DTB", "level": "0", "opening_hours": "24/7", "operator": "Diamond Trust Bank", "wheelchair": "limited"}}, {"type": "node", "id": 9997742939, "lat": -1.2573802, "lon": 36.8032908, "tags": {"amenity": "atm", "brand": "Stanbic Bank", "brand:wikidata": "Q7597999", "level": "0", "opening_hours": "24/7", "operator": "Stanbic Bank", "operator:wikidata": "Q7597999", "wheelchair": "limited"}}, {"type": "node", "id": 9997742940, "lat": -1.2574238, "lon": 36.8033319, "tags": {"amenity": "atm", "brand": "KCB", "level": "0", "opening_hours": "24/7", "operator": "Kenya Commercial Bank", "wheelchair": "limited"}}, {"type": "node", "id": 10051894069, "lat": -1.2308657, "lon": 36.8134135, "tags": {"amenity": "atm", "wikidata": "Q7888387", "wikipedia": "en:United Nations Federal Credit Union"}}, {"type": "node", "id": 10051894070, "lat": -1.2307987, "lon": 36.8134377, "tags": {"amenity": "atm", "wikidata": "Q7193999", "wikipedia": "en:KCB Bank Kenya Limited"}}, {"type": "node", "id": 10994116928, "lat": -1.2805165, "lon": 36.8161744, "tags": {"amenity": "atm", "cash_in": "no", "check_date": "2023-06-21", "drive_through": "no", "operator": "Kenya Commercial Bank"}}, {"type": "node", "id": 10994116929, "lat": -1.2804377, "lon": 36.8162182, "tags": {"amenity": "atm", "cash_in": "no", "check_date": "2023-06-21", "drive_through": "no", "indoor": "no", "lit": "yes", "operator": "Cooperative Bank", "source": "local knowledge", "wheelchair": "no"}}, {"type": "node", "id": 11545628126, "lat": -1.3292307, "lon": 36.9251432, "tags": {"amenity": "atm", "atm": "yes", "name": "National Bank ATM"}}, {"type": "node", "id": 11545628127, "lat": -1.3295882, "lon": 36.9253346, "tags": {"amenity": "atm", "atm": "yes", "brand": "Standard Chartered", "brand:wikidata": "Q548278", "name": "Standard Chartered Bank ATM", "operator": "Standard Chartered", "operator:wikidata": "Q548278"}}, {"type": "node", "id": 11545628128, "lat": -1.3306232, "lon": 36.9240769, "tags": {"amenity": "atm", "atm": "yes", "name": "Absa Bank ATM"}}, {"type": "node", "id": 11545628129, "lat": -1.3306139, "lon": 36.9238739, "tags": {"amenity": "atm", "atm": "yes", "name": "KCB Bank ATM"}}, {"type": "node", "id": 11545628130, "lat": -1.331016, "lon": 36.9261055, "tags": {"amenity": "atm", "atm": "yes", "name": "United Bank of Africa ATM"}}, {"type": "node", "id": 11545628131, "lat": -1.3332242, "lon": 36.9264088, "tags": {"amenity": "atm", "atm": "yes", "name": "Stanbic Bank ATM"}}, {"type": "node", "id": 11545628132, "lat": -1.3330051, "lon": 36.9264775, "tags": {"amenity": "atm", "atm": "yes", "name": "Ecobank ATM"}}, {"type": "node", "id": 11545653170, "lat": -1.3169836, "lon": 36.8148686, "tags": {"amenity": "atm", "atm": "yes", "name": "I&M Bank"}}]}