{"version": 0.6, "generator": "Overpass API 0.7.61.5 4133829e", "osm3s": {"timestamp_osm_base": "2024-02-29T13:47:24Z", "copyright": "The data included in this document is from www.openstreetmap.org. The data is made available under ODbL."}, "elements": [{"type": "node", "id": 9529655546, "lat": 9.4890431, "lon": -2.4274528}, {"type": "node", "id": 9529655547, "lat": 9.4886198, "lon": -2.4336434}, {"type": "node", "id": 9529655548, "lat": 9.4929373, "lon": -2.4338687}, {"type": "node", "id": 9529655549, "lat": 9.4934134, "lon": -2.4271739}, {"type": "way", "id": 1034459453, "nodes": [9529655549, 9529655548, 9529655547, 9529655546, 9529655549], "tags": {"addr:country": "GH", "addr:district": "Sawla-Tuna-Kalba", "addr:place": "Tuna", "addr:region": "Savannah", "amenity": "school", "denomination": "catholic", "description": "Tuna Senior High/Technical School was established in 1991 jointly by the Catholic Church and the community. It is located on Bole-Sawla-Wa highway, about one kilometre west of the Tuna township toward Kalba.", "email": "tunashst@ges.gov.gh", "isced:level": "3", "name": "Tuna Senior High/Technical School", "operator": "Ghana Education Service", "operator:short": "GES", "operator:type": "public", "operator:wikidata": "Q30263788", "phone": "+233 24 515 0311", "religion": "christian", "start_date": "1991"}}]}