{"version": 0.6, "generator": "Overpass API 0.7.61.5 4133829e", "osm3s": {"timestamp_osm_base": "2024-03-06T11:29:56Z", "copyright": "The data included in this document is from www.openstreetmap.org. The data is made available under ODbL."}, "elements": [{"type": "node", "id": 3723638655, "lat": 0.3347597, "lon": 34.4886174, "tags": {"addr:city": "Mumias", "amenity": "bank", "name": "Co-Operative Bank"}}, {"type": "node", "id": 3723638656, "lat": 0.3345154, "lon": 34.4875715, "tags": {"addr:city": "Mumias", "addr:street": "Mumias Road", "amenity": "bank", "atm": "yes", "name": "Kenya Comercial Bank"}}, {"type": "node", "id": 3723638657, "lat": 0.3341607, "lon": 34.4875497, "tags": {"addr:city": "Mumias", "addr:street": "Mumias Road", "amenity": "bank", "atm": "yes", "name": "Barclays"}}, {"type": "node", "id": 3726125421, "lat": 0.3344366, "lon": 34.4877902, "tags": {"addr:city": "Mumias", "addr:street": "Mumias Road", "amenity": "bank", "atm": "yes", "name": "Equity Bank"}}, {"type": "node", "id": 3726125422, "lat": 0.3340472, "lon": 34.4878876, "tags": {"addr:city": "Mumias", "addr:street": "Mumias Road", "amenity": "bank", "atm": "yes", "name": "Family Bank"}}, {"type": "node", "id": 4006086088, "lat": 0.5645207, "lon": 34.5609776, "tags": {"amenity": "bank", "brand": "Barclays", "brand:wikidata": "Q245343", "brand:wikipedia": "en:Barclays", "name": "Barclays"}}, {"type": "node", "id": 4006097789, "lat": 0.56485, "lon": 34.5609484, "tags": {"addr:city": "Bungoma", "addr:street": "Moi Avenue", "amenity": "bank", "atm": "yes", "name": "National Bank, Bungoma"}}, {"type": "node", "id": 4006097792, "lat": 0.5656826, "lon": 34.5586888, "tags": {"amenity": "bank", "name": "Family Bank"}}, {"type": "node", "id": 4006097793, "lat": 0.565438, "lon": 34.5607893, "tags": {"addr:city": "Bungoma", "addr:street": "Moi Avenue", "amenity": "bank", "atm": "yes", "name": "Ushirika Bank"}}, {"type": "node", "id": 4771868738, "lat": 0.5620467, "lon": 34.5602935}, {"type": "node", "id": 4771868739, "lat": 0.5620124, "lon": 34.5605212}, {"type": "node", "id": 4771868740, "lat": 0.5618295, "lon": 34.5604879}, {"type": "node", "id": 4771868741, "lat": 0.5618751, "lon": 34.5602206}, {"type": "node", "id": 4771868742, "lat": 0.5619527, "lon": 34.5602323}, {"type": "node", "id": 4771868743, "lat": 0.5619458, "lon": 34.5602783}, {"type": "node", "id": 4771868878, "lat": 0.5615002, "lon": 34.5602812}, {"type": "node", "id": 4771868879, "lat": 0.5612183, "lon": 34.5602243}, {"type": "node", "id": 4771869044, "lat": 0.5618516, "lon": 34.5603713}, {"type": "node", "id": 4771869901, "lat": 0.5614643, "lon": 34.560473}, {"type": "node", "id": 4771869902, "lat": 0.5611773, "lon": 34.5604175}, {"type": "node", "id": 4772141674, "lat": 0.5691386, "lon": 34.5581588}, {"type": "node", "id": 4772141675, "lat": 0.5690001, "lon": 34.5582695}, {"type": "node", "id": 4772141676, "lat": 0.5689662, "lon": 34.5582271}, {"type": "node", "id": 4772141677, "lat": 0.5689946, "lon": 34.5582045}, {"type": "node", "id": 4772141678, "lat": 0.5689335, "lon": 34.558128}, {"type": "node", "id": 4772141679, "lat": 0.5690063, "lon": 34.5580698}, {"type": "node", "id": 4772141680, "lat": 0.5690685, "lon": 34.5581478}, {"type": "node", "id": 4772141681, "lat": 0.569106, "lon": 34.5581179}, {"type": "node", "id": 6236190326, "lat": 0.5706253, "lon": 34.5595296, "tags": {"addr:city": "Bungoma", "addr:street": "Moi Avenue", "amenity": "bank", "name": "Juhudi Kilimo Bungoma Branch"}}, {"type": "node", "id": 6236190354, "lat": 0.5664725, "lon": 34.5606573, "tags": {"addr:city": "Bungoma", "addr:street": "Moi Avenue", "amenity": "bank", "atm": "yes", "name": "Post Bank"}}, {"type": "node", "id": 6236190364, "lat": 0.5657039, "lon": 34.5607171, "tags": {"addr:city": "Bungoma", "addr:street": "Moi Avenue", "amenity": "bank", "atm": "yes", "name": "Family Bank-Bungoma"}}, {"type": "node", "id": 6236191262, "lat": 0.5627501, "lon": 34.5605059, "tags": {"addr:city": "Bungoma", "addr:street": "Moi Avenue", "amenity": "bank", "atm": "yes", "name": "Diamond Trust Bank"}}, {"type": "node", "id": 6241666288, "lat": 0.3345345, "lon": 34.4871863, "tags": {"addr:city": "Mumias", "addr:street": "Mumias Road", "amenity": "bank", "atm": "yes", "name": "Post Bank Mumias"}}, {"type": "node", "id": 6244342657, "lat": 0.6083286, "lon": 34.7711026, "tags": {"addr:city": "Webuye", "addr:street": "Webuye Road", "amenity": "bank", "atm": "yes", "name": "Kwft Kenya Women Microfinance Bank"}}, {"type": "node", "id": 6244342680, "lat": 0.6039767, "lon": 34.7733197, "tags": {"addr:city": "Webuye", "addr:street": "Stage Street Road", "amenity": "bank", "atm": "yes", "name": "KCB-Webuye"}}, {"type": "way", "id": 484433792, "nodes": [4771868738, 4771868739, 4771868740, 4771869044, 4771868741, 4771868742, 4771868743, 4771868738], "tags": {"addr:city": "Bungoma", "addr:street": "Moi Avenue", "amenity": "bank", "brand": "Equity Bank", "brand:wikidata": "Q5384664", "brand:wikipedia": "en:Equity Bank Kenya Limited", "building": "yes", "building:levels": "3", "name": "Equity Bank"}}, {"type": "way", "id": 484434133, "nodes": [4771868878, 4771869901, 4771869902, 4771868879, 4771868878], "tags": {"addr:city": "Bungoma", "addr:street": "Moi Avenue", "amenity": "bank", "building": "yes", "building:levels": "4", "name": "Cooperative Bank Bungoma"}}, {"type": "way", "id": 484464653, "nodes": [4772141674, 4772141675, 4772141676, 4772141677, 4772141678, 4772141679, 4772141680, 4772141681, 4772141674], "tags": {"addr:city": "Bungoma", "addr:street": "Bungoma High Road", "amenity": "bank", "building": "yes", "name": "KCB Kenya Ltd."}}]}