{"version": 0.6, "generator": "Overpass API 0.7.61.5 4133829e", "osm3s": {"timestamp_osm_base": "2024-03-06T11:01:15Z", "copyright": "The data included in this document is from www.openstreetmap.org. The data is made available under ODbL."}, "elements": [{"type": "node", "id": 3695407055, "lat": 3.3682868, "lon": 39.4214954, "tags": {"amenity": "school", "name": "Bute Aridzone Primary"}}, {"type": "node", "id": 3695407056, "lat": 3.3602371, "lon": 39.4151619, "tags": {"amenity": "school", "name": "Bute Boys Secondary School"}}, {"type": "node", "id": 3695407058, "lat": 3.3752022, "lon": 39.420675, "tags": {"amenity": "school", "name": "Bute Girls Secondary School"}}, {"type": "node", "id": 3695407067, "lat": 3.3535293, "lon": 39.425139, "tags": {"amenity": "school", "name": "Chalaqa Primary School"}}, {"type": "node", "id": 3695407072, "lat": 3.3580831, "lon": 39.4181803, "tags": {"amenity": "school", "name": "Malaba Primary School"}}, {"type": "node", "id": 3696831489, "lat": 3.3393231, "lon": 39.4603527, "tags": {"amenity": "school", "name": "Adadijole Primary School"}}, {"type": "node", "id": 3696831494, "lat": 3.4597664, "lon": 39.5552626, "tags": {"amenity": "school", "name": "Erestino Primary School"}}]}