{"version": 0.6, "generator": "Overpass API 0.7.61.5 4133829e", "osm3s": {"timestamp_osm_base": "2024-03-05T13:43:59Z", "copyright": "The data included in this document is from www.openstreetmap.org. The data is made available under ODbL."}, "elements": [{"type": "node", "id": 313472635, "lat": 33.1713813, "lon": 68.7852127, "tags": {"alt_name": "Sharana;Kharana", "name": "\u069a\u0631\u0646\u0647", "name:ar": "\u0634\u0631\u0646\u0647", "name:cs": "\u0160aran", "name:el": "\u03a3\u03b1\u03c1\u03ac\u03bd", "name:en": "Sharan", "name:et": "Zareh Sharan", "name:fa": "\u0634\u0631\u0646\u0647", "name:fr": "Charan", "name:ja": "\u30b7\u30e3\u30e9\u30ca", "name:ko": "\uc0e4\ub780", "name:ps": "\u069a\u0631\u0646\u0647", "name:ru": "\u0428\u0430\u0440\u0430\u043d", "name:uk": "\u0428\u0430\u0440\u0430\u043d", "name:ur": "\u0634\u0631\u0646\u06c1", "name:zh": "\u6c99\u5170/\u6c99\u862d", "name:zh-Hans": "\u6c99\u5170", "name:zh-Hant": "\u6c99\u862d", "place": "city", "population": "2200", "source": "wikipedia", "wikidata": "Q2615863", "wikipedia": "en:Sharana"}}, {"type": "node", "id": 4410975480, "lat": 33.048527, "lon": 68.653584, "tags": {"alt_name": "Yusof Kheyl;Yusui Khel;Yusuf Khel;Yusufkheyl'", "name": "\u06cc\u0648\u0633\u0641 \u062e\u06d0\u0644", "name:en": "Yosuf Khel", "name:ps": "\u06cc\u0648\u0633\u0641 \u062e\u06d0\u0644", "name:ru": "\u042e\u0441\u0443\u0444\u0445\u0435\u0439\u043b\u044c", "place": "town", "source:name": "GNS"}}, {"type": "node", "id": 4410993694, "lat": 33.240008, "lon": 68.866296, "tags": {"alt_name": "Metakhan;Muta Khan;Motakhan", "name": "\u0645\u062a\u0627 \u062e\u0627\u0646", "name:en": "Mata Khan", "name:ps": "\u0645\u062a\u0627 \u062e\u0627\u0646", "name:ru": "\u041c\u0443\u0442\u0430\u0445\u0430\u043d", "place": "town", "source:name": "GNS"}}, {"type": "node", "id": 4411004689, "lat": 32.937423, "lon": 68.64622, "tags": {"alt_name": "Yahya Kheyl;Ya Khel;Yahyakhel;Yehyakhel", "name": "\u06cc\u062d\u06cc\u0649 \u062e\u06d0\u0644", "name:en": "Yahya Khel", "name:ps": "\u06cc\u062d\u06cc\u0649 \u062e\u06d0\u0644", "name:ru": "\u042f\u0445\u044c\u044f\u0445\u0435\u0439\u043b\u044c", "place": "town", "source:name": "GNS"}}, {"type": "node", "id": 5284779337, "lat": 33.2021606, "lon": 68.7383321}, {"type": "node", "id": 7100913526, "lat": 33.2048244, "lon": 68.7366724}, {"type": "node", "id": 7100913529, "lat": 33.2030653, "lon": 68.737797}, {"type": "node", "id": 9570229786, "lat": 33.2014661, "lon": 68.7337545}, {"type": "node", "id": 9570250623, "lat": 33.2036756, "lon": 68.7169474}, {"type": "node", "id": 9570250624, "lat": 33.2038551, "lon": 68.7253588}, {"type": "node", "id": 9570250625, "lat": 33.2041962, "lon": 68.7322467}, {"type": "node", "id": 9570250626, "lat": 33.1982509, "lon": 68.732413}, {"type": "node", "id": 9570250627, "lat": 33.1976966, "lon": 68.7266463}, {"type": "node", "id": 9570250628, "lat": 33.1978803, "lon": 68.72312}, {"type": "node", "id": 9570250629, "lat": 33.1966013, "lon": 68.7152952}, {"type": "node", "id": 9570250630, "lat": 33.1962422, "lon": 68.7137931}, {"type": "node", "id": 9570250631, "lat": 33.2006772, "lon": 68.7109607}, {"type": "node", "id": 9570250632, "lat": 33.2030292, "lon": 68.7101239}, {"type": "node", "id": 9570250633, "lat": 33.2037115, "lon": 68.714351}, {"type": "node", "id": 9570250634, "lat": 33.2037653, "lon": 68.7145656}, {"type": "node", "id": 9571337201, "lat": 33.1977566, "lon": 68.7206487}, {"type": "node", "id": 9571348777, "lat": 33.1976565, "lon": 68.7201851}, {"type": "node", "id": 9571348791, "lat": 33.2037184, "lon": 68.7158107}, {"type": "node", "id": 9573544697, "lat": 33.1978633, "lon": 68.7227287}, {"type": "node", "id": 9573544699, "lat": 33.1996556, "lon": 68.7331667}, {"type": "node", "id": 9573544700, "lat": 33.1981318, "lon": 68.7311738}, {"type": "node", "id": 9573544701, "lat": 33.1980008, "lon": 68.7298113}, {"type": "node", "id": 9573544843, "lat": 33.2006401, "lon": 68.7334863}, {"type": "node", "id": 9573544844, "lat": 33.1993489, "lon": 68.7330021}, {"type": "node", "id": 9574230595, "lat": 33.2006791, "lon": 68.733499}, {"type": "node", "id": 9575928643, "lat": 33.197772, "lon": 68.7251984}, {"type": "node", "id": 9576089554, "lat": 33.1662329, "lon": 68.7652984}, {"type": "node", "id": 9576089555, "lat": 33.1665972, "lon": 68.7674278}, {"type": "node", "id": 9576089556, "lat": 33.1670266, "lon": 68.7699302}, {"type": "node", "id": 9576089557, "lat": 33.1678333, "lon": 68.7719975}, {"type": "node", "id": 9576089558, "lat": 33.1680545, "lon": 68.7732099}, {"type": "node", "id": 9576089559, "lat": 33.1682886, "lon": 68.7742202}, {"type": "node", "id": 9576089560, "lat": 33.1665712, "lon": 68.7749663}, {"type": "node", "id": 9576089561, "lat": 33.1653612, "lon": 68.7743601}, {"type": "node", "id": 9576089562, "lat": 33.1641381, "lon": 68.7751061}, {"type": "node", "id": 9576089563, "lat": 33.164047, "lon": 68.7761165}, {"type": "node", "id": 9576089564, "lat": 33.1630842, "lon": 68.7774221}, {"type": "node", "id": 9576089565, "lat": 33.1619994, "lon": 68.7778061}, {"type": "node", "id": 9576089566, "lat": 33.160625, "lon": 68.7762874}, {"type": "node", "id": 9576089567, "lat": 33.1592457, "lon": 68.7747797}, {"type": "node", "id": 9576089568, "lat": 33.1599223, "lon": 68.7712203}, {"type": "node", "id": 9576089569, "lat": 33.1620172, "lon": 68.7692153}, {"type": "node", "id": 9576089570, "lat": 33.1645675, "lon": 68.7636042}, {"type": "node", "id": 9576089978, "lat": 33.1600093, "lon": 68.7756144}, {"type": "node", "id": 9655282068, "lat": 33.1976695, "lon": 68.6782518, "tags": {"name": "\u06ab\u0627\u0631\u06d0", "name:en": "Garie", "place": "village"}}, {"type": "node", "id": 9655291671, "lat": 33.0861456, "lon": 68.4997959, "tags": {"name": "\u062c\u0631\u0642\u0646\u0647", "name:en": "Jarkana", "place": "town"}}, {"type": "node", "id": 9655291672, "lat": 33.1440214, "lon": 68.5736951, "tags": {"name": "\u062e\u06cc\u0631\u0628\u06cc\u0646", "name:en": "Kharibin", "place": "town"}}, {"type": "node", "id": 9655291673, "lat": 33.0212817, "lon": 68.422696, "tags": {"name": "\u062f\u064a \u0633\u064a", "name:en": "Disi", "place": "town"}}, {"type": "node", "id": 9655291819, "lat": 33.120811, "lon": 68.5542193, "tags": {"name": "\u0645\u062f\u0631\u0633\u0647", "name:en": "Madrasa", "place": "village"}}, {"type": "node", "id": 9655322175, "lat": 33.2109485, "lon": 68.8082835, "tags": {"name": "\u0639\u0645\u0628\u0631\u062e\u06d0\u0644", "name:en": "Omberkhil", "place": "village"}}, {"type": "node", "id": 9655322176, "lat": 33.2182734, "lon": 68.8152813, "tags": {"name": "\u062f \u062d\u0627\u062c\u064a \u067e\u0627\u06cc\u0646\u062f\u064a \u06a9\u0644\u0627", "name:en": "Haji Payendai Kala", "place": "village"}}, {"type": "node", "id": 9655322177, "lat": 33.2156116, "lon": 68.8088672, "tags": {"name": "\u062f \u062d\u0627\u062c\u064a \u06ab\u0648\u0689\u0627 \u06a9\u0644\u0627", "name:en": "Haji Goda Kala", "place": "village"}}, {"type": "node", "id": 9655322178, "lat": 33.1913858, "lon": 68.8200669, "tags": {"name": "\u0633\u0631\u0647 \u06a9\u0644\u0627", "name:en": "Sra Qala", "place": "village"}}, {"type": "node", "id": 9655322179, "lat": 33.1908502, "lon": 68.8134187, "tags": {"name": "\u0645\u062f\u062a\u062e\u06d0\u0644", "name:en": "Madatkhil", "place": "village"}}, {"type": "node", "id": 9655322180, "lat": 33.1789935, "lon": 68.7824283, "tags": {"name": "\u06a9\u0634\u06cc\u0648\u0627\u0644", "name:en": "Kashiwal", "place": "village"}}, {"type": "node", "id": 9655322181, "lat": 33.1743239, "lon": 68.7739056, "tags": {"name": "\u0635\u063a\u0631\u064a", "name:en": "Soghri", "place": "village"}}, {"type": "node", "id": 9655322182, "lat": 33.1796215, "lon": 68.7704427, "tags": {"name": "\u062e\u0648\u0634\u0627\u0644 \u0622\u0628\u0627\u062f", "name:en": "Khushal Abad", "place": "village"}}, {"type": "node", "id": 9655322183, "lat": 33.1805071, "lon": 68.7771569, "tags": {"name": "\u06cc\u0627\u0631\u0648 \u0648\u0627\u0644", "name:en": "Yarowal", "place": "village"}}, {"type": "node", "id": 9655322184, "lat": 33.1959955, "lon": 68.7693269, "tags": {"name": "\u062f \u062d\u0627\u062c\u064a \u0627\u0645\u06cc\u0631 \u06a9\u0644\u0627", "name:en": "Haji Amir Qala", "place": "village"}}, {"type": "node", "id": 9655322185, "lat": 33.1903456, "lon": 68.7514262, "tags": {"name": "\u06ab\u0627\u0693\u0648 \u06a9\u0644\u0627", "name:en": "Garo Qala", "place": "village"}}, {"type": "node", "id": 9655322186, "lat": 33.1770043, "lon": 68.7559124, "tags": {"name": "\u062d\u0627\u062c\u064a \u0628\u0627\u0631\u0648 \u06a9\u0644\u0627", "name:en": "Haji Baro Qala", "place": "village"}}, {"type": "node", "id": 9655322187, "lat": 33.2482144, "lon": 68.6889588, "tags": {"name": "\u062f \u062d\u0627\u062c\u064a \u0645\u062d\u0645\u062f \u0639\u0644\u064a \u062c\u0644\u0627\u0644\u064a \u06a9\u0644\u06cc", "name:en": "Haji Mohammad Ali Jalali Qala", "place": "village"}}, {"type": "node", "id": 9655322188, "lat": 33.2329594, "lon": 68.7325004, "tags": {"name": "\u0645\u0633\u0648\u0627\u0633", "name:en": "Moswas", "place": "village"}}, {"type": "node", "id": 9655322189, "lat": 33.2456398, "lon": 68.7561123, "tags": {"name": "\u0639\u0638\u0645\u062a \u06a9\u0644\u06cc", "name:en": "Azmat Village", "place": "village"}}, {"type": "node", "id": 9655322190, "lat": 33.1640603, "lon": 68.7417305, "tags": {"name": "\u0645\u0644\u0627\u06cc\u0627\u0646", "name:en": "Mullayan", "place": "village"}}, {"type": "node", "id": 9655322191, "lat": 33.1571108, "lon": 68.7508876, "tags": {"name": "\u0646\u06cc\u0627\u0632\u064a", "name:en": "Niazi", "place": "village"}}, {"type": "node", "id": 9655322192, "lat": 33.1555887, "lon": 68.7580957, "tags": {"name": "\u062a\u0631\u0648\u06a9\u06cc", "name:en": "Turwakai", "place": "village"}}, {"type": "node", "id": 9655322193, "lat": 33.1469338, "lon": 68.7275367, "tags": {"name": "\u06a9\u067c\u06cc", "name:en": "Katai", "place": "village"}}, {"type": "node", "id": 9655322194, "lat": 33.1843304, "lon": 68.7391749, "tags": {"name": "\u0646\u06cc\u0632\u06ab\u0646\u064a", "name:en": "Nizgani", "place": "village"}}, {"type": "node", "id": 9655322195, "lat": 33.192771, "lon": 68.7948445, "tags": {"name": "\u0627\u0635\u063a\u0631 \u06a9\u0644\u0627", "name:en": "Asghar Qala", "place": "village"}}, {"type": "node", "id": 9655332330, "lat": 33.1773633, "lon": 68.7292632, "tags": {"name": "\u0645\u062d\u0645\u062f\u062e\u06d0\u0644", "name:en": "Mohammad Khill", "place": "village"}}, {"type": "node", "id": 9655332331, "lat": 33.1997636, "lon": 68.720045, "tags": {"name": "\u0646\u0648\u0627\u0628\u0627\u062f", "name:en": "Nawabad", "place": "village"}}, {"type": "node", "id": 9655332336, "lat": 33.2030897, "lon": 68.7387694, "tags": {"name": "\u06a9\u0627\u06a9\u06cd", "name:en": "Kakai", "place": "village"}}, {"type": "node", "id": 9655332337, "lat": 33.1919908, "lon": 68.7371154, "tags": {"name": "\u062f \u0645\u0645\u064a \u06a9\u0644\u06cc", "name:en": "Mamai Village", "place": "village"}}, {"type": "node", "id": 9655332338, "lat": 33.1851288, "lon": 68.734969, "tags": {"name": "\u062c\u06cc\u06ab\u0627\u0646", "name:en": "Jigan", "place": "village"}}, {"type": "node", "id": 9655332339, "lat": 33.1745069, "lon": 68.7349893, "tags": {"name": "\u0686\u06a9\u0627\u0646", "name:en": "Chakan", "place": "village"}}, {"type": "node", "id": 9655332340, "lat": 33.16493, "lon": 68.7678563, "tags": {"name": "\u062a\u062a\u06d0\u0648\u0627\u0644", "name:en": "Tatiwal", "place": "village"}}, {"type": "node", "id": 9655332341, "lat": 33.1622123, "lon": 68.7747239, "tags": {"name": "\u0681\u062f\u0631\u0627\u06bc \u062e\u06d0\u0644", "name:en": "Zadrankhil", "place": "village"}}, {"type": "node", "id": 9655332342, "lat": 33.1454658, "lon": 68.7561848, "tags": {"name": "\u06a9\u0648\u067c\u0648\u0627\u0644", "name:en": "Kotwal", "place": "village"}}, {"type": "node", "id": 9655332343, "lat": 33.1604827, "lon": 68.76454, "tags": {"name": "\u062e\u0627\u0646\u06a9\u0648\u0627\u0644", "name:en": "Khanakwal", "place": "village"}}, {"type": "node", "id": 9655332344, "lat": 33.1637133, "lon": 68.7933196, "tags": {"name": "\u0639\u0645\u0631\u0627\u0646\u062e\u06d0\u0644", "name:en": "Amrankhil", "place": "village"}}, {"type": "node", "id": 9655332345, "lat": 33.1636164, "lon": 68.7974177, "tags": {"name": "\u062c\u0628\u0627\u0631\u062e\u06d0\u0644", "name:en": "Jabarkhil", "place": "village"}}, {"type": "node", "id": 9655332346, "lat": 33.1637696, "lon": 68.7846701, "tags": {"name": "\u0641\u0627\u0637\u0645\u0647 \u062e\u06d0\u0644", "name:en": "Fatmakhil", "place": "village"}}, {"type": "node", "id": 9655332347, "lat": 33.1612244, "lon": 68.779041, "tags": {"name": "\u06ab\u0644\u0627\u0648\u0627\u0644", "name:en": "Galawal", "place": "village"}}, {"type": "node", "id": 9655332348, "lat": 33.1415579, "lon": 68.7983363, "tags": {"name": "\u0632\u0693\u0647 \u0634\u0631\u0646\u0647", "name:en": "Zarah Sharana", "place": "village"}}, {"type": "node", "id": 9655332349, "lat": 33.1420359, "lon": 68.7798508, "tags": {"name": "\u0686\u0647\u0627\u0631\u062f\u0647", "name:en": "Chahardah", "place": "village"}}, {"type": "node", "id": 9655332350, "lat": 33.131246, "lon": 68.7642196, "tags": {"name": "\u0645\u06cc\u0631\u0632\u0627 \u06a9\u0644\u0627", "name:en": "Mirza Qala", "place": "village"}}, {"type": "node", "id": 9655332351, "lat": 33.141319, "lon": 68.7591007, "tags": {"name": "\u0642\u0645\u0631\u062f\u06cc\u0646 \u06a9\u0644\u0627", "name:en": "Qamardin Qala", "place": "village"}}, {"type": "node", "id": 9655332352, "lat": 33.1551555, "lon": 68.7810778, "tags": {"name": "\u0645\u0642\u0631\u0628 \u062e\u06d0\u0644", "name:en": "Moqarabkhil", "place": "village"}}, {"type": "node", "id": 9655333043, "lat": 33.1522034, "lon": 68.7926811, "tags": {"name": "\u0685\u067e\u0648\u0648\u0646\u064a", "name:en": "Safawoni", "place": "village"}}, {"type": "node", "id": 9655333044, "lat": 33.2165786, "lon": 68.7359181, "tags": {"name": "\u062e\u0627\u0686\u06cc", "name:en": "Khachai", "place": "village"}}, {"type": "node", "id": 9657075196, "lat": 33.0663163, "lon": 68.6752698, "tags": {"name": "\u062f \u06cc\u0648\u0633\u0641 \u062e\u06d0\u0644\u0648 \u0628\u0627\u0632\u0627\u0631", "name:en": "Yousifkhil Bazar", "place": "town"}}, {"type": "node", "id": 9657075197, "lat": 32.9660971, "lon": 68.5595961, "tags": {"name": "\u0645\u06d0\u0633\u062a", "name:en": "Mist", "place": "town"}}, {"type": "node", "id": 9657075198, "lat": 32.921372, "lon": 68.5187018, "tags": {"name": "\u0633\u06cc\u06ab\u0627\u0646\u0647", "name:en": "Sehgana", "place": "town"}}, {"type": "node", "id": 9657127944, "lat": 33.0827841, "lon": 68.6879079, "tags": {"name": "\u0645\u0634\u062e\u06d0\u0644", "name:en": "Mushkhil", "place": "town"}}, {"type": "node", "id": 9657141188, "lat": 33.2195354, "lon": 68.7598595, "tags": {"name": "\u0634\u0627\u0637\u0648\u0631\u064a", "name:en": "Shatori", "place": "village"}}, {"type": "node", "id": 9657853767, "lat": 33.2095183, "lon": 68.6650277, "tags": {"name": "\u0634\u062f\u0645", "name:en": "Shidam", "place": "village"}}, {"type": "node", "id": 9668895097, "lat": 33.2552464, "lon": 68.7466473, "tags": {"name": "\u0686\u0647\u0627\u0631\u067e\u0627\u06cc\u0627\u0646 \u06a9\u0644\u06cc", "name:en": "Chaharpayan Village", "place": "village"}}, {"type": "node", "id": 9668895098, "lat": 33.3028672, "lon": 68.7905597, "tags": {"name": "\u0634\u0648\u0631 \u06a9\u0686\u0647", "name:en": "Shor Kacha", "place": "village"}}, {"type": "node", "id": 9668958789, "lat": 33.1613817, "lon": 68.5911739, "tags": {"name": "\u0627\u062e\u0646\u062f\u0632\u0627\u062f\u0647 \u062e\u06d0\u0644", "name:en": "Akhundzada Khil", "place": "village"}}, {"type": "node", "id": 9671294933, "lat": 33.1529552, "lon": 68.798846, "tags": {"name": "\u0639\u0645\u0628\u0631 \u062e\u06d0\u0644", "name:en": "Amberkhil", "place": "village"}}, {"type": "node", "id": 9671294942, "lat": 33.1592032, "lon": 68.7979893, "tags": {"name": "\u0627\u0645\u0646\u06d0 \u062e\u06d0\u0644", "name:en": "Eimnikhil", "place": "village"}}, {"type": "node", "id": 9671294943, "lat": 33.1471409, "lon": 68.7854651, "tags": {"name": "\u067c\u0648\u0641\u06cc\u0627\u0646", "name:en": "Tofian", "place": "village"}}, {"type": "node", "id": 9687088689, "lat": 33.1477558, "lon": 68.7914677, "tags": {"name": "\u0632\u0693\u0647 \u0634\u0631\u0646\u0647", "name:en": "Zareh Sharana", "place": "village"}}, {"type": "node", "id": 9687088778, "lat": 33.137567, "lon": 68.7748195, "tags": {"name": "\u0632\u0627\u0648\u0644\u064a", "name:en": "Zawli", "place": "village"}}, {"type": "node", "id": 9689154164, "lat": 33.0648817, "lon": 68.5059675, "tags": {"name": "\u06a9\u0645\u0647 \u062c\u0631\u0642\u0646\u0647", "name:en": "Small Larkana", "place": "village"}}, {"type": "node", "id": 9689164848, "lat": 33.1762396, "lon": 68.6852533, "tags": {"name": "\u06ab\u0644\u062f\u0631\u0647", "name:en": "Guldara", "place": "village"}}, {"type": "node", "id": 9731444622, "lat": 33.1829161, "lon": 68.7958499, "tags": {"name": "\u0641\u0637\u0646\u0647", "name:en": "Fatana", "place": "village"}}, {"type": "node", "id": 10239369574, "lat": 33.2046139, "lon": 68.7367294}, {"type": "way", "id": 1039261117, "nodes": [9570250623, 9570250624, 9570250625, 7100913526, 10239369574, 7100913529, 5284779337, 9570229786, 9574230595, 9573544843, 9573544699, 9573544844, 9570250626, 9573544700, 9573544701, 9570250627, 9575928643, 9570250628, 9573544697, 9571337201, 9571348777, 9570250629, 9570250630, 9570250631, 9570250632, 9570250633, 9570250634, 9571348791, 9570250623], "tags": {"addr:city": "Sharana", "addr:postcode": "2401", "addr:street": "Nawabad Road", "name": "Nawabad", "name:ps": "\u0646\u0648\u0627\u0628\u0627\u062f", "place": "village", "population": "200"}}, {"type": "way", "id": 1040006856, "nodes": [9576089554, 9576089555, 9576089556, 9576089557, 9576089558, 9576089559, 9576089560, 9576089561, 9576089562, 9576089563, 9576089564, 9576089565, 9576089566, 9576089978, 9576089567, 9576089568, 9576089569, 9576089570, 9576089554], "tags": {"name": "\u062a\u062a\u06d0\u0648\u0627\u0644", "place": "village", "population": "Tatiwal"}}]}