{"version": 0.6, "generator": "Overpass API 0.7.61.5 4133829e", "osm3s": {"timestamp_osm_base": "2024-03-06T11:11:30Z", "copyright": "The data included in this document is from www.openstreetmap.org. The data is made available under ODbL."}, "elements": [{"type": "node", "id": 4127914089, "lat": 34.8839553, "lon": 44.6355928, "tags": {"amenity": "hospital", "emergency": "yes", "healthcare": "hospital", "healthcare:speciality": "general", "name": "\u0645\u0633\u062a\u0634\u0641\u0649 \u0637\u0648\u0632 \u0627\u0644\u0639\u0627\u0645", "name:ar": "\u0645\u0633\u062a\u0634\u0641\u0649 \u0637\u0648\u0632 \u0627\u0644\u0639\u0627\u0645", "name:en": "Tuz General Hospital", "name:tk": "Tuz Hasthanasi", "office": "government", "operator": "\u0648\u0632\u0627\u0631\u0629 \u0627\u0644\u0635\u062d\u0629 \u0627\u0644\u0639\u0631\u0627\u0642\u064a\u0629", "operator:type": "government"}}, {"type": "node", "id": 4394769033, "lat": 34.883498, "lon": 44.6305762, "tags": {"amenity": "hospital", "emergency": "yes", "healthcare": "hospital", "healthcare:speciality": "general", "name": "\u0627\u0644\u0645\u0631\u0643\u0632 \u0627\u0644\u0635\u062d\u064a", "name:ar": "\u0645\u0631\u0643\u0632 \u0635\u062d\u064a", "operator": "\u0648\u0632\u0627\u0631\u0629 \u0627\u0644\u0635\u062d\u0629 \u0627\u0644\u0639\u0631\u0627\u0642\u064a\u0629", "operator:type": "government"}}, {"type": "node", "id": 4592251489, "lat": 34.8852131, "lon": 44.6387317, "tags": {"amenity": "hospital", "name": "\u0646\u06d5\u062e\u06c6\u0634\u062e\u0627\u0646\u06d5\u06cc \u06af\u0634\u062a\u06cc", "name:ku": "\u0646\u0629\u062e\u0648\u0634\u062e\u0627\u0646\u0629\u064a \u0643\u0634\u062a\u064a"}}, {"type": "node", "id": 4592251789, "lat": 34.9011095, "lon": 44.627753, "tags": {"amenity": "hospital", "healthcare": "hospital", "name": "\u0627\u0644\u0645\u0631\u0643\u0632 \u0627\u0644\u0635\u062d\u064a \u0641\u064a \u0627\u0644\u062c\u0645\u0647\u0648\u0631\u064a\u0629", "name:ar": "\u0627\u0644\u0645\u0631\u0643\u0632 \u0627\u0644\u0635\u062d\u064a \u0641\u064a \u0627\u0644\u062c\u0645\u0647\u0648\u0631\u064a\u0629", "name:ckb": "\u0646\u06d5\u062e\u06c6\u0634\u062e\u0627\u0646\u06d5\u06cc \u06a9\u06c6\u0645\u0627\u0631\u06cc"}}, {"type": "node", "id": 7981250186, "lat": 34.8837115, "lon": 44.6095277, "tags": {"amenity": "hospital", "name": "\u0645\u0633\u062a\u0634\u0641\u0649 \u0627\u0644\u0642\u0637\u0627\u0639 \u0637\u0648\u0632", "name:ar": "\u0645\u0633\u062a\u0634\u0641\u0649 \u0627\u0644\u062d\u064a \u0627\u0644\u0639\u0633\u0643\u0631\u064a"}}, {"type": "node", "id": 8961370117, "lat": 34.883808, "lon": 44.6301451, "tags": {"amenity": "hospital", "name": "\u0645\u062c\u0645\u0639 \u0645\u062d\u0645\u062f \u0643\u0645\u0627\u0644 \u0627\u0644\u0637\u0628\u064a"}}, {"type": "node", "id": 10772246705, "lat": 34.8891817, "lon": 44.6395637, "tags": {"amenity": "hospital", "name": "\u0645\u0631\u0643\u0632 \u0635\u062d\u064a \u0631\u0632\u06af\u0627\u0631\u064a", "name:ar": "\u0645\u0631\u0643\u0632 \u0635\u062d\u064a \u0631\u0632\u06af\u0627\u0631\u0649", "name:en": "Razgary hospital", "name:ku": "\u0628\u0646\u0643\u0647\u200c\u06cc \u062a\u0647\u200c\u0646\u062f\u0631\u0648\u0648\u0633\u062a\u06cc \u0695\u0632\u06af\u0627\u0631\u06cc"}}]}