{"version": 0.6, "generator": "Overpass API 0.7.61.5 4133829e", "osm3s": {"timestamp_osm_base": "2024-03-06T11:17:45Z", "copyright": "The data included in this document is from www.openstreetmap.org. The data is made available under ODbL."}, "elements": [{"type": "node", "id": 599171922, "lat": 36.7304865, "lon": 43.8748927, "tags": {"alt_name:ar": "\u0639\u0642\u0631\u0647", "capital": "6", "ele:note": "(625, 2050.52)", "int_name": "\u0626\u0627\u06a9\u0631\u06ce", "name": "\u0626\u0627\u06a9\u0631\u06ce", "name:ar": "\u0639\u0642\u0631\u0629", "name:arc": "\u0725\u0729\u072a", "name:arz": "\u0639\u0642\u0631\u0629", "name:ceb": "Aqrah", "name:ckb": "\u0626\u0627\u06a9\u0631\u06ce", "name:de": "Akr\u00ea", "name:en": "Akre", "name:es": "Aqrah", "name:fr": "Aqra", "name:it": "Aqrah", "name:ku": "Akr\u00ea", "name:ml": "\u0d06\u0d15\u0d4d\u0d30\u0d47", "name:pl": "Akra", "name:ru": "\u0410\u043a\u0440\u0430", "name:sv": "Aqrah", "name:tr": "Akra", "name:uk": "\u0410\u043a\u0440\u0430", "place": "town", "population": "68100", "population:date": "2018", "wikidata": "Q421302", "wikipedia": "ckb:\u0626\u0627\u06a9\u0631\u06ce", "wikipedia:ar": "\u0639\u0642\u0631\u0629"}}, {"type": "node", "id": 1418059640, "lat": 36.6281447, "lon": 43.7181943, "tags": {"name": "\u062c\u0648\u062c\u06d5\u0631 \u06af\u0686\u06a9\u06d5", "place": "village"}}, {"type": "node", "id": 1438216936, "lat": 36.5600663, "lon": 43.5639254, "tags": {"name:en": "Asmawah Mirzah", "place": "village", "source": "NIMA"}}, {"type": "node", "id": 1438216966, "lat": 36.5909704, "lon": 43.5214882, "tags": {"name": "\u06a9\u06d5\u0644\u06d5\u06a9\u0686\u06cc", "name:ar": "\u0643\u0644\u0643\u062c\u064a", "place": "town"}}, {"type": "node", "id": 1438217036, "lat": 36.6172514, "lon": 43.5658886, "tags": {"name": "\u0628\u0627\u0645\u06d5\u0631\u0632\u06ce", "name:ckb": "\u0628\u0627\u0645\u06d5\u0631\u0632\u06ce", "place": "village", "source": "NIMA"}}, {"type": "node", "id": 1438217072, "lat": 36.6403095, "lon": 43.5271085, "tags": {"admin_level": "7", "name": "\u0686\u0695\u06d5", "name:ar": "\u0634\u0631\u0629", "name:ckb": "\u0686\u0695\u06d5", "name:ku": "\u00c7irre", "place": "town"}}, {"type": "node", "id": 1443072091, "lat": 36.6887463, "lon": 43.5273195, "tags": {"name": "Dirin", "place": "village", "source": "GEOnet"}}, {"type": "node", "id": 2479377992, "lat": 36.5423414, "lon": 43.9698493, "tags": {"int_name": "Chera, Chira, Chirah, \u0686\u0631\u0647, Chera, Chira, Chirah, \u0686\u0631\u0647", "name": "\u0686\u0695\u06d5", "name:ar": "\u062c\u0631\u0629", "name:ckb": "\u0686\u0695\u06d5", "name:en": "Chirra", "place": "village"}}, {"type": "node", "id": 2479377996, "lat": 36.5306133, "lon": 43.9436267, "tags": {"int_name": "Jema Bik\u0101r, Jimah Bik\u0101r, Musa Mabkar, \u062c\u0645\u0647 \u0628\u0643\u0627\u0631, Jema Bikar, Jimah Bikar, Musa Mabkar, \u062c\u0645\u0647 \u0628\u0643\u0627\u0631", "name": "\u0686\u06d5\u0645\u06d5 \u0628\u06d5\u06af\u06d5\u0632", "name:ar": "\u062c\u0645\u0629 \u0628\u0643\u0632", "name:en": "Chama Bagaz", "place": "village"}}, {"type": "node", "id": 2479377999, "lat": 36.5583909, "lon": 43.94814, "tags": {"alt_name": "\u0633\u0648\u0631\u0643\u0627\u0646", "name": "\u0633\u0648\u0631\u0643\u0627\u0646", "name:ar": "\u0633\u0648\u0631\u0643\u0627\u0646", "name:en": "Surkan", "place": "village"}}, {"type": "node", "id": 2479378317, "lat": 36.6716956, "lon": 43.9771767, "tags": {"is_in": "Iraq , \u062c\u0645\u0647\u0648\u0631\u064a\u0629 \u0627\u0644\u0639\u0631\u0627\u0642", "name": "\u0628\u06d5\u0647\u0631\u0627\u0648\u06d5 \u0641\u06d5\u0642\u06ce \u0639\u06d5\u0644\u06cc", "name:ar": "\u0628\u0647\u0631\u0627\u0648\u0629 \u0641\u0642\u064a \u0639\u0644\u064a", "name:ckb": "\u0628\u06d5\u0647\u0631\u0627\u0648\u06d5 \u0641\u06d5\u0642\u06ce \u0639\u06d5\u0644\u06cc", "name:de": "Bahrawa Faqi Ali", "name:en": "Bahrawa Faqi Ali", "name:fr": "Bahrawa Faqi Ali", "place": "village"}}, {"type": "node", "id": 2479378318, "lat": 36.7377627, "lon": 43.9301469, "tags": {"alt_name": "\u0628\u0634\u0642\u0627\u0644 \u0631\u0648\u0646\u062f", "name": "\u0628\u0627\u0634\u0642\u0627\u0644 \u0695\u06d5\u0648\u06d5\u0646\u062f", "name:en": "Bashqal Rawand", "place": "village"}}, {"type": "node", "id": 2479378319, "lat": 36.7120653, "lon": 43.9755897, "tags": {"alt_name": "\u062f\u0632\u0648\u0643\u064a", "int_name": "Diz\u016bk\u012b, Dzoki, Dzuki, \u062f\u0632\u0648\u0643\u064a, Dizuki, Dzoki, Dzuki, \u062f\u0632\u0648\u0643\u064a", "name": "\u062f\u0632\u0648\u06a9\u06cc", "place": "village"}}, {"type": "node", "id": 2479378321, "lat": 36.7330512, "lon": 43.947646, "tags": {"alt_name": "\u062c\u0648\u0646\u0629", "int_name": "Juna, J\u016bnah, \u062c\u0648\u0646\u0647, Juna, Junah, \u062c\u0648\u0646\u0647", "is_in": "Iraq , \u062c\u0645\u0647\u0648\u0631\u064a\u0629 \u0627\u0644\u0639\u0631\u0627\u0642", "name": "\u062c\u0648\u0646\u0627", "name:ar": "\u062c\u0648\u0646\u0627", "name:ckb": "\u062c\u0648\u0646\u0627", "name:de": "Juna", "name:en": "Juna", "name:fr": "Juna", "name:ku": "C\u00fbna", "place": "village"}}, {"type": "node", "id": 2479378322, "lat": 36.7175121, "lon": 43.9506286, "tags": {"alt_name": "\u0645\u064a\u0631\u0643\u064a\u0646", "int_name": "Mergin, M\u012brg\u012bn, \u0645\u064a\u0631\u06af\u064a\u0646, Mergin, Mirgin, \u0645\u064a\u0631\u06af\u064a\u0646", "is_in": "Iraq , \u062c\u0645\u0647\u0648\u0631\u064a\u0629 \u0627\u0644\u0639\u0631\u0627\u0642", "name": "\u0645\u06ce\u0631\u06af\u06cc\u0646", "name:ar": "\u0645\u06ce\u0631\u06af\u06cc\u0646", "name:ar1": "\u0645\u064a\u0631\u0643\u064a\u0646", "name:de": "Mergin", "name:en": "Mergin", "name:fr": "Mergin", "place": "village"}}, {"type": "node", "id": 2479378323, "lat": 36.702974, "lon": 43.972765, "tags": {"alt_name": "\u0646\u0647\u0627\u0648\u0629", "name": "\u0646\u0647\u0627\u0648\u06d5", "name:ar": "\u0646\u0647\u0627\u0648\u0629", "name:ckb": "\u0646\u0647\u0627\u0648\u06d5", "name:ku": "Nhawe", "place": "village"}}, {"type": "node", "id": 2479378324, "lat": 36.6797679, "lon": 43.9443837, "tags": {"alt_name": "\u0633\u062a\u064a\u0643\u0629", "int_name": "Sat\u012bkah, S\u012bdkah, Sitka, \u0633\u062a\u064a\u0643\u0647, Satikah, Sidkah, Sitka, \u0633\u062a\u064a\u0643\u0647", "is_in": "Iraq , \u062c\u0645\u0647\u0648\u0631\u064a\u0629 \u0627\u0644\u0639\u0631\u0627\u0642", "name": "\u0633\u06cc\u062a\u06a9\u0627\u0646", "name:ar": "\u0633\u06cc\u062a\u06a9\u0627\u0646", "name:ar1": "\u0633\u062a\u064a\u0643\u0629", "name:de": "Sitkan", "name:en": "Sitkan", "name:fr": "Sitkan", "place": "village"}}, {"type": "node", "id": 2479378325, "lat": 36.6870692, "lon": 43.9813562, "tags": {"alt_name": "\u0645\u062b\u0627\u0648\u064a\u0634", "int_name": "Sh\u0101wish, \u0645\u062b\u0627\u0648\u064a\u0634, Shawish, \u0645\u062b\u0627\u0648\u064a\u0634", "is_in": "Iraq , \u062c\u0645\u0647\u0648\u0631\u064a\u0629 \u0627\u0644\u0639\u0631\u0627\u0642", "name": "\u0645\u062b\u0627\u0648\u064a\u0634", "name:ar": "\u0645\u062b\u0627\u0648\u064a\u0634", "name:ar1": "\u0645\u062b\u0627\u0648\u064a\u0634", "name:de": "Shawish", "name:en": "Shawish", "name:fr": "Shawish", "place": "village"}}, {"type": "node", "id": 2479378432, "lat": 36.8782, "lon": 43.793521, "tags": {"alt_name": "\u0628\u0631\u0632\u0646\u0631", "int_name": "Barzin\u0101i, Barznir, Brziner, \u0628\u0631\u0632\u0646\u0631, Barzinai, Barznir, Brziner, \u0628\u0631\u0632\u0646\u0631", "is_in": "Iraq , \u062c\u0645\u0647\u0648\u0631\u064a\u0629 \u0627\u0644\u0639\u0631\u0627\u0642", "name": "\u0628\u06d5\u0631\u0632\u0646\u0627\u0631", "name:ar": "\u0628\u0631\u0632\u0646\u0627\u0631", "name:ar1": "\u0628\u0631\u0632\u0646\u0631", "name:de": "Barzinari", "name:en": "Barzinari", "name:fr": "Barzinari", "place": "village"}}, {"type": "node", "id": 2479378433, "lat": 36.8394647, "lon": 43.7410825, "tags": {"alt_name": "\u062c\u0645 \u0633\u0646\u0629", "int_name": "Cham Sinah, Cham Sna, Chemasin, \u0686\u0645 \u0633\u0646\u0647, Cham Sinah, Cham Sna, Chemasin, \u0686\u0645 \u0633\u0646\u0647", "is_in": "Iraq , \u062c\u0645\u0647\u0648\u0631\u064a\u0629 \u0627\u0644\u0639\u0631\u0627\u0642", "name": "\u062c\u0645 \u0633\u0646\u0629", "name:ar": "\u062c\u0645 \u0633\u0646\u0629", "name:ar1": "\u062c\u0645 \u0633\u0646\u0629", "name:de": "Cham Sinah", "name:en": "Cham Sinah", "name:fr": "Cham Sinah", "place": "village"}}, {"type": "node", "id": 2479378435, "lat": 36.85068, "lon": 43.807065, "tags": {"alt_name": "\u062f\u0648\u062f\u064a \u0627\u0644\u0635\u063a\u064a\u0631", "int_name": "Dawd\u012b a\u015f \u015eagh\u012br, D\u016bd\u0113, D\u016bd\u0113 Pick\u016bk, Dudi, \u062f\u0648\u062f\u064a \u0627\u0644\u0635\u063a\u064a\u0631, Dawdi as Saghir, Dude, Dude Pickuk, Dudi, \u062f\u0648\u062f\u064a \u0627\u0644\u0635\u063a\u064a\u0631", "is_in": "Iraq , \u062c\u0645\u0647\u0648\u0631\u064a\u0629 \u0627\u0644\u0639\u0631\u0627\u0642", "name": "\u062f\u0648\u062f\u06cc \u0698\u06ce\u0631\u06cc", "name:ar": "\u062f\u0648\u062f\u064a \u0632\u064a\u0631\u064a", "name:ar1": "\u062f\u0648\u062f\u064a \u0627\u0644\u0635\u063a\u064a\u0631", "name:de": "Dudy Zheri", "name:en": "Dudy Zheri", "name:fr": "Dudy Zheri", "place": "village"}}, {"type": "node", "id": 2479378439, "lat": 36.891586, "lon": 43.791987, "tags": {"alt_name": "\u0634\u0627\u0647\u0629", "int_name": "Shaha, Sh\u0101hah, \u0634\u0627\u0647\u0629, \u0634\u0627\u0647\u0647, Shaha, Shahah, \u0634\u0627\u0647\u0629, \u0634\u0627\u0647\u0647", "is_in": "Iraq , \u062c\u0645\u0647\u0648\u0631\u064a\u0629 \u0627\u0644\u0639\u0631\u0627\u0642", "name": "\u0634\u06d5\u0647\u06ce", "name:ar": "\u0634\u0647\u064a", "name:ar1": "\u0634\u0627\u0647\u0629", "name:de": "Shahe", "name:en": "Shahe", "name:fr": "Shahe", "place": "village"}}, {"type": "node", "id": 2482501754, "lat": 36.8624604, "lon": 43.8405445, "tags": {"alt_name": "\u0623\u0631\u062a\u0648\u0646", "int_name": "Artun, Art\u016bn, \u0623\u0631\u062a\u0648\u0646, Artun, Artun, \u0623\u0631\u062a\u0648\u0646", "is_in": "Iraq , \u062c\u0645\u0647\u0648\u0631\u064a\u0629 \u0627\u0644\u0639\u0631\u0627\u0642", "name": "\u0626\u0627\u0631\u062a\u0648\u0646 \u0698\u0648\u0648\u0631\u06cc", "name:ar": "\u0623\u0631\u062a\u0648\u0646", "name:ar1": "\u0623\u0631\u062a\u0648\u0646", "name:de": "Artun", "name:en": "Artun", "name:fr": "Artun", "place": "village"}}, {"type": "node", "id": 2482501756, "lat": 36.9045539, "lon": 43.9031602, "tags": {"alt_name": "\u062e\u0631\u0628\u0648\u062a", "int_name": "Ch\u0101rb\u016bt, Khirb\u016bt, Khrbul, \u062e\u0631\u0628\u0648\u062a, Charbut, Khirbut, Khrbul, \u062e\u0631\u0628\u0648\u062a", "is_in": "Iraq , \u062c\u0645\u0647\u0648\u0631\u064a\u0629 \u0627\u0644\u0639\u0631\u0627\u0642", "name": "\u0686\u0627\u0631\u0628\u0648\u062a", "name:ar": "\u062c\u0627\u0631\u0628\u0648\u062a", "name:de": "Charbut", "name:en": "Charbut", "name:fr": "Charbut", "place": "village"}}, {"type": "node", "id": 2482501761, "lat": 36.8656614, "lon": 43.8809303, "tags": {"alt_name": "\u062f\u0648\u0633\u062a\u0643\u0629", "int_name": "D\u016bstak\u0101, D\u016bstikah, Dustka, \u062f\u0648\u0633\u062a\u0643\u0629, \u062f\u0648\u0633\u062a\u0643\u0647, Dustaka, Dustikah, Dustka, \u062f\u0648\u0633\u062a\u0643\u0629, \u062f\u0648\u0633\u062a\u0643\u0647", "is_in": "Iraq , \u062c\u0645\u0647\u0648\u0631\u064a\u0629 \u0627\u0644\u0639\u0631\u0627\u0642", "name": "\u062f\u06c6\u0633\u062a\u06d5\u06a9\u0627", "name:ar": "\u062f\u0648\u0633\u062a\u0643\u0627", "name:ar1": "\u062f\u0648\u0633\u062a\u0643\u0629", "name:ckb": "\u062f\u06c6\u0633\u062a\u06d5\u06a9\u0627", "name:de": "Dustaka", "name:en": "Dustaka", "name:fr": "Dustaka", "place": "village"}}, {"type": "node", "id": 2482501769, "lat": 36.8986001, "lon": 43.9315884, "tags": {"alt_name": "\u0647\u0648\u0643\u064a", "int_name": "H\u014drki, Hrky, Hukah, H\u016bk\u012b, \u0647\u0648\u0643\u064a, Horki, Hrky, Hukah, Huki, \u0647\u0648\u0643\u064a", "is_in": "Iraq , \u062c\u0645\u0647\u0648\u0631\u064a\u0629 \u0627\u0644\u0639\u0631\u0627\u0642", "name": "\u062e\u06c6\u0631\u06a9\u06ce", "name:ar": "\u062e\u06c6\u0631\u06a9\u06ce", "name:de": "Khorki", "name:en": "Khorki", "name:fr": "Khorki", "place": "village"}}, {"type": "node", "id": 2482502143, "lat": 36.7983814, "lon": 43.7949858, "tags": {"alt_name": "\u0643\u0648\u0646\u062f\u0643", "int_name": "Gundik, G\u016bndik, K\u016bndik, \u0643\u0648\u0646\u062f\u0643, \u06af\u0648\u0646\u062f\u0643, Gundik, Gundik, Kundik, \u0643\u0648\u0646\u062f\u0643, \u06af\u0648\u0646\u062f\u0643", "is_in": "Iraq , \u062c\u0645\u0647\u0648\u0631\u064a\u0629 \u0627\u0644\u0639\u0631\u0627\u0642", "name": "\u06af\u0648\u0646\u062f\u06a9", "name:ar": "\u0643\u0648\u0646\u062f\u0643", "name:ar1": "\u0643\u0648\u0646\u062f\u0643", "name:de": "Gundik", "name:en": "Gundik", "name:fr": "Gundik", "place": "village"}}, {"type": "node", "id": 2482502144, "lat": 36.830468, "lon": 43.827499, "tags": {"alt_name": "\u0643\u0648\u0633\u0643\u0629", "int_name": "Koska, K\u014dska, K\u016bskah, \u0643\u0648\u0633\u0643\u0629, \u0643\u0648\u0633\u0643\u0647, Koska, Koska, Kuskah, \u0643\u0648\u0633\u0643\u0629, \u0643\u0648\u0633\u0643\u0647", "is_in": "Iraq , \u062c\u0645\u0647\u0648\u0631\u064a\u0629 \u0627\u0644\u0639\u0631\u0627\u0642", "name": "\u0643\u0648\u0633\u0643\u0629", "name:ar": "\u0643\u0648\u0633\u0643\u0629", "name:ar1": "\u0643\u0648\u0633\u0643\u0629", "name:de": "Koska", "name:en": "Koska", "name:fr": "Koska", "place": "village"}}, {"type": "node", "id": 2482502700, "lat": 36.9418137, "lon": 43.8575103, "tags": {"alt_name": "\u0628\u0646\u064a\u0629", "int_name": "Ban\u012byah, \u0628\u0646\u064a\u0629, Baniyah, \u0628\u0646\u064a\u0629", "is_in": "Iraq , \u062c\u0645\u0647\u0648\u0631\u064a\u0629 \u0627\u0644\u0639\u0631\u0627\u0642", "name": "\u0628\u06d5\u0646\u06cc \u0645\u0627\u0648\u06d5\u062a", "name:ar": "\u0628\u0646\u064a\u0629", "name:ar1": "\u0628\u0646\u064a\u0629", "name:de": "Baniyah", "name:en": "Baniyah", "name:fr": "Baniyah", "place": "village"}}, {"type": "node", "id": 2482503313, "lat": 36.8257485, "lon": 43.6757477, "tags": {"alt_name": "\u0628\u0643\u0631\u0645\u0627\u0646", "name": "\u0628\u0627\u06a9\u0631\u0645\u0627\u0646", "name:ar": "\u0628\u0643\u0631\u0645\u0627\u0646", "name:en": "Bakurman", "place": "village"}}, {"type": "node", "id": 2482503315, "lat": 36.881629, "lon": 43.727458, "tags": {"alt_name": "\u0628\u0631\u0645\u0648\u064a", "int_name": "Barmaww\u012b, Biem\u014dy, \u0628\u0631\u0645\u0648\u064a, Barmawwi, Biemoy, \u0628\u0631\u0645\u0648\u064a", "name": "\u0628\u0631\u0645\u0648\u064a", "name:de": "Barmawwi", "name:en": "Barmawwi", "name:fr": "Barmawwi", "place": "village"}}, {"type": "node", "id": 2482503318, "lat": 36.836711, "lon": 43.886276, "tags": {"alt_name": "\u062f\u0645\u0631\u064a", "int_name": "Damri, Damr\u012b, \u062f\u0645\u0631\u064a, Damri, Damri, \u062f\u0645\u0631\u064a", "is_in": "Iraq , \u062c\u0645\u0647\u0648\u0631\u064a\u0629 \u0627\u0644\u0639\u0631\u0627\u0642", "name": "\u062f\u0641\u0631\u064a", "name:ar": "\u062f\u0641\u0631\u064a \u0645\u0635\u0627\u064a\u0641", "name:ar1": "\u062f\u0645\u0631\u064a", "name:de": "Dvri", "name:en": "Dvri", "name:fr": "Dvri", "place": "village"}}, {"type": "node", "id": 2482503319, "lat": 36.876109, "lon": 43.710228, "tags": {"alt_name": "\u062f\u0648\u0628\u0631\u0629", "int_name": "Dupra, D\u016bprah, D\u016bpre, \u062f\u0648\u067e\u0631\u0647, Dupra, Duprah, Dupre, \u062f\u0648\u067e\u0631\u0647", "name": "\u062f\u0648\u0628\u0631\u0629", "name:de": "Dupre", "name:en": "Dupree", "name:fr": "Dupree", "place": "village"}}, {"type": "node", "id": 2482503323, "lat": 36.8685371, "lon": 43.7050942, "tags": {"alt_name": "\u0632\u0648\u0644\u064a", "int_name": "Zhulee, \u0632\u0648\u0644\u064a", "name": "Zhulee", "name:ar": "\u0632\u0648\u0644\u064a", "name:de": "Zhulee", "name:en": "Zhulee", "name:fr": "Zhulee", "place": "village"}}, {"type": "node", "id": 2482503324, "lat": 36.8622933, "lon": 43.6887901, "tags": {"alt_name": "\u0647\u064a\u0632\u0627\u0646\u0629 \u0627\u0644\u0633\u0641\u0644\u0649", "int_name": "H\u0113z\u0101nk\u0113 Zh\u0113r\u012b, Hizana, Hezanke Zheri, \u0647\u06cc\u0632\u0627\u0646\u06a9\u06ce \u0698\u06ce\u0631\u06cc", "name": "\u0647\u06cc\u0632\u0627\u0646\u06a9\u06ce \u0698\u06ce\u0631\u06cc", "name:de": "Hezanke Zheri", "name:en": "Hezanke Zheri", "name:fr": "Hezanke Zheri", "place": "village"}}, {"type": "node", "id": 2482503325, "lat": 36.875418, "lon": 43.685525, "tags": {"alt_name": "\u0647\u064a\u0632\u0627\u0646\u0629 \u0627\u0644\u0639\u0644\u064a\u0627", "int_name": "H\u0113z\u0101nk\u0113 Zh\u014dr\u012b, Hizana, Hezanke Zhori, \u0647\u06cc\u0632\u0627\u0646\u06a9\u06ce \u0632\u06c6\u0631\u06cc", "name": "\u0647\u06cc\u0632\u0627\u0646\u06a9\u06ce \u0698\u06c6\u0631\u06cc", "name:de": "Hezanke Zhori", "name:en": "Hezanke Zhori", "name:fr": "Hezanke Zhori", "place": "village"}}, {"type": "node", "id": 2482503327, "lat": 36.864986, "lon": 43.7127732, "tags": {"alt_name": "\u0643\u0634\u0643\u0627\u0648\u0629", "int_name": "Kashkava, Kishkawa, Kishk\u0101wah, \u0643\u0634\u0643\u0627\u0648\u0647, Kashkava, Kishkawa, Kishkawah, \u0643\u0634\u0643\u0627\u0648\u0647", "name": "\u0643\u0634\u0643\u0627\u0648\u0629", "name:de": "Kashkava", "name:en": "Kashkava", "name:fr": "Kashkava", "place": "village"}}, {"type": "node", "id": 2482503333, "lat": 36.876538, "lon": 43.721015, "tags": {"alt_name": "\u0632\u0648\u064a\u0643\u0629", "int_name": "Z\u0113wka, Ziw\u012bkah, Zoika, \u0632\u0648\u064a\u0643\u0647, Zewka, Ziwikah, Zoika, \u0632\u0648\u064a\u0643\u0647", "name": "\u0632\u0648\u064a\u0643\u0629", "name:de": "Zewka", "name:en": "Zewka", "name:fr": "Zewka", "place": "village"}}, {"type": "node", "id": 2484131503, "lat": 36.7620053, "lon": 43.4678285, "tags": {"alt_name": "\u0628\u0631\u0643\u0644", "int_name": "Bargal, Bargul, Barj\u0101l, Barkal, \u0628\u0631\u0643\u0644, Bargal, Bargul, Barjal, Barkal, \u0628\u0631\u0643\u0644", "is_in": "Iraq , \u062c\u0645\u0647\u0648\u0631\u064a\u0629 \u0627\u0644\u0639\u0631\u0627\u0642", "name": "\u0628\u06d5\u0631\u06af\u0631", "name:ar": "\u0628\u0631\u0643\u0644", "name:ar1": "\u0628\u0631\u0643\u0644", "name:de": "Bargal", "name:en": "Bargal", "name:fr": "Bargal", "place": "village"}}, {"type": "node", "id": 2488232262, "lat": 36.672086, "lon": 43.53877, "tags": {"alt_name": "\u0623\u0634\u0643\u0646", "int_name": "Ashkin, Ashkn, \u0627\u0634\u0643\u0646, Ashkin, Ashkn, \u0627\u0634\u0643\u0646", "is_in": "Iraq , \u062c\u0645\u0647\u0648\u0631\u064a\u0629 \u0627\u0644\u0639\u0631\u0627\u0642", "name": "Chrra & Alind Market", "name:ar": "Alind Market", "name:ar1": "\u0623\u0634\u0643\u0646", "name:de": "Alind Market", "name:en": "Ashkan", "name:fr": "Ashkan", "place": "village"}}, {"type": "node", "id": 2488232312, "lat": 36.6515226, "lon": 43.8739115, "tags": {"alt_name": "\u0628\u0631\u0643\u0629", "int_name": "Barkah, Brka, \u0628\u0631\u0643\u0647, Barkah, Brka, \u0628\u0631\u0643\u0647", "is_in": "Iraq , \u062c\u0645\u0647\u0648\u0631\u064a\u0629 \u0627\u0644\u0639\u0631\u0627\u0642", "name": "\u0628\u06d5\u0631\u0627\u06a9", "name:ar": "\u0628\u0631\u0643\u0629", "name:ar1": "\u0628\u0631\u0643\u0629", "name:de": "Barkah", "name:en": "Barkah", "name:fr": "Barkah", "place": "village"}}, {"type": "node", "id": 2488232325, "lat": 36.6454692, "lon": 43.4718512, "tags": {"alt_name": "\u0628\u0631\u0628\u0648\u0628", "int_name": "Birb\u016bb, P\u012br B\u016bb, \u0628\u0631\u0628\u0648\u0628, Birbub, Pir Bub, \u0628\u0631\u0628\u0648\u0628", "is_in": "Iraq , \u062c\u0645\u0647\u0648\u0631\u064a\u0629 \u0627\u0644\u0639\u0631\u0627\u0642", "name": "\u0628\u0631\u0628\u0648\u0628", "name:ar": "\u067e\u064a\u0631\u0628\u0648\u0628", "name:ar1": "\u0628\u0631\u0628\u0648\u0628", "name:de": "Birbub", "name:en": "Birbub", "name:fr": "Birbub", "place": "village"}}, {"type": "node", "id": 2488232327, "lat": 36.6063601, "lon": 43.6455273, "tags": {"is_in": "Iraq , \u062c\u0645\u0647\u0648\u0631\u064a\u0629 \u0627\u0644\u0639\u0631\u0627\u0642", "name": "\u067e\u06cc\u0631\u0686\u0627\u0648\u0634", "name:ar": "\u0628\u064a\u0631\u062c\u0627\u0648\u0634", "name:ar1": "\u0628\u064a\u0631\u062c\u0627\u0648\u0634", "name:de": "Birchawish", "name:en": "Birchawish", "name:fr": "Birchawish", "place": "village"}}, {"type": "node", "id": 2488232346, "lat": 36.5754023, "lon": 43.7496036, "tags": {"alt_name": "\u062f\u0631\u0628\u0633\u062a\u0627\u0646 \u0627\u0644\u0639\u0644\u064a\u0627", "int_name": "Darbist\u0101n al Uly\u0101, Darbist\u0101n B\u0101la, Drist\u0101n, \u062f\u0631\u0628\u0633\u062a\u0627\u0646 \u0627\u0644\u0639\u0644\u064a\u0627, Darbistan al Ulya, Darbistan Bala, Dristan, \u062f\u0631\u0628\u0633\u062a\u0627\u0646 \u0627\u0644\u0639\u0644\u064a\u0627", "is_in": "Iraq , \u062c\u0645\u0647\u0648\u0631\u064a\u0629 \u0627\u0644\u0639\u0631\u0627\u0642", "name": "\u062f\u0631\u0628\u06ce\u0633\u0627\u0646 \u0645\u06d5\u0632\u0646", "name:ar": "\u062f\u0631\u0628\u0633\u062a\u0627\u0646 \u0627\u0644\u0639\u0644\u064a\u0627", "name:ar1": "\u062f\u0631\u0628\u0633\u062a\u0627\u0646 \u0627\u0644\u0639\u0644\u064a\u0627", "name:de": "Darbistan al Ulya", "name:en": "Darbistan al Ulya", "name:fr": "Darbistan al Ulya", "place": "village"}}, {"type": "node", "id": 2488232349, "lat": 36.5628032, "lon": 43.7415086, "tags": {"alt_name": "\u062f\u0631\u0628\u0633\u062a\u0627\u0646 \u0627\u0644\u0633\u0641\u0644\u0649", "int_name": "Darbist\u0101n as Sufl\u00e1, D\u0101rbistan Zir, Dristan, \u062f\u0631\u0628\u0633\u062a\u0627\u0646 \u0627\u0644\u0633\u0641\u0644\u0649, Darbistan as Sufla, Darbistan Zir, Dristan, \u062f\u0631\u0628\u0633\u062a\u0627\u0646 \u0627\u0644\u0633\u0641\u0644\u0649", "is_in": "Iraq , \u062c\u0645\u0647\u0648\u0631\u064a\u0629 \u0627\u0644\u0639\u0631\u0627\u0642", "name": "\u062f\u0631\u0628\u06ce\u0633\u0627\u0646 \u06af\u0686\u06a9\u06d5", "name:ar": "\u062f\u0631\u0628\u0633\u062a\u0627\u0646 \u0627\u0644\u0633\u0641\u0644\u0649", "name:ar1": "\u062f\u0631\u0628\u0633\u062a\u0627\u0646 \u0627\u0644\u0633\u0641\u0644\u0649", "name:de": "Darbistan as Sufla", "name:en": "Darbistan as Sufla", "name:fr": "Darbistan as Sufla", "place": "village"}}, {"type": "node", "id": 2488232352, "lat": 36.6758719, "lon": 43.8538795, "tags": {"alt_name": "\u062f\u0631\u064a\u0646", "int_name": "Dar\u012bn, \u062f\u0631\u064a\u0646, Darin, \u062f\u0631\u064a\u0646", "is_in": "Iraq , \u062c\u0645\u0647\u0648\u0631\u064a\u0629 \u0627\u0644\u0639\u0631\u0627\u0642", "name": "\u062f\u0631\u06cc\u0646", "name:ar": "\u062f\u0631\u064a\u0646", "name:ar1": "\u062f\u0631\u064a\u0646", "name:de": "Darin", "name:en": "Darin", "name:fr": "Darin", "place": "village"}}, {"type": "node", "id": 2488232355, "lat": 36.560963, "lon": 43.4937278, "tags": {"alt_name": "\u062f\u0648\u0634\u0627\u0646", "int_name": "Darw\u012bsh\u0101n, Dawishan, Duishan, D\u016bsh\u0101n, \u062f\u0648\u0634\u0627\u0646, Darwishan, Dawishan, Duishan, Dushan, \u062f\u0648\u0634\u0627\u0646", "is_in": "Iraq , \u062c\u0645\u0647\u0648\u0631\u064a\u0629 \u0627\u0644\u0639\u0631\u0627\u0642", "name": "\u062f\u06d5\u0631\u0648\u06ce\u0634\u0627\u0646", "name:ar": "\u062f\u0648\u0634\u0627\u0646", "name:ar1": "\u062f\u0648\u0634\u0627\u0646", "name:de": "Darwishan", "name:en": "Darwishan", "name:fr": "Darwishan", "place": "village"}}, {"type": "node", "id": 2488232358, "lat": 36.6286471, "lon": 43.6416547, "tags": {"alt_name": "\u062f\u064a\u0646\u0627\u0631\u0627\u0646", "int_name": "Dinaran, D\u012bn\u0101r\u0101n, \u062f\u064a\u0646\u0627\u0631\u0627\u0646, Dinaran, Dinaran, \u062f\u064a\u0646\u0627\u0631\u0627\u0646", "is_in": "Iraq , \u062c\u0645\u0647\u0648\u0631\u064a\u0629 \u0627\u0644\u0639\u0631\u0627\u0642", "name": "\u062f\u064a\u0646\u0627\u0631\u0627\u0646", "name:ar": "\u062f\u064a\u0646\u0627\u0631\u0627\u0646", "name:ar1": "\u062f\u064a\u0646\u0627\u0631\u0627\u0646", "name:de": "Dinaran", "name:en": "Dinaran", "name:fr": "Dinaran", "place": "village"}}, {"type": "node", "id": 2488232386, "lat": 36.5246028, "lon": 43.8667159, "tags": {"alt_name": "\u0643\u064a\u0644\u0629 \u0628\u0633\u0645\u064a\u0631 \u0627\u0644\u062c\u062f\u064a\u062f", "int_name": "Gaila Pismir Jadid, Gila Psmir, G\u012blah Pism\u012br al Jad\u012bd, \u06af\u064a\u0644\u0647 \u067e\u0633\u0645\u064a\u0631 \u0627\u0644\u062c\u062f\u064a\u062f, Gaila Pismir Jadid, Gila Psmir, Gilah Pismir al Jadid, \u06af\u064a\u0644\u0647 \u067e\u0633\u0645\u064a\u0631 \u0627\u0644\u062c\u062f\u064a\u062f", "is_in": "Iraq , \u062c\u0645\u0647\u0648\u0631\u064a\u0629 \u0627\u0644\u0639\u0631\u0627\u0642", "name": "\u06a9\u06ce\u0644\u06d5 \u0634\u06ce\u062e \u0628\u0632\u06ce\u0646", "name:ar": "\u06a9\u06ce\u0644\u06d5 \u0634\u06ce\u062e \u0628\u0632\u06cc\u0646", "name:ar1": "\u0643\u064a\u0644\u0629 \u0628\u0633\u0645\u064a\u0631 \u0627\u0644\u062c\u062f\u064a\u062f", "name:de": "Kela Shekh Bzin", "name:en": "Kela Shekh Bzin", "name:fr": "Kela Shekh Bzin", "place": "village"}}, {"type": "node", "id": 2488232390, "lat": 36.5247821, "lon": 43.8972517, "tags": {"alt_name": "\u0643\u064a\u0644\u0629 \u0628\u0633\u0645\u064a\u0631", "int_name": "Gaila Pismir, Gila Pismir, Gila Psmir, G\u012blah Pism\u012br, G\u012blah Yomsah\u012br, K\u0113l\u0113, \u06af\u064a\u0644\u0647 \u067e\u0633\u0645\u064a\u0631, Gaila Pismir, Gila Pismir, Gila Psmir, Gilah Pismir, Gilah Yomsahir, Kele, \u06af\u064a\u0644\u0647 \u067e\u0633\u0645\u064a\u0631", "name": "\u06a9\u06ce\u0644\u06d5 \u067e\u0633\u0645\u06cc\u0631\u0627\u0646", "name:ar": "\u06a9\u06ce\u0644\u06d5 \u0628\u0633\u0645\u06cc\u0631\u0627\u0646", "name:de": "Kela Bsmiran", "name:en": "Kela Bsmiran", "name:fr": "Kela Bsmiran", "place": "village"}}, {"type": "node", "id": 2488232406, "lat": 36.6537246, "lon": 43.6267009, "tags": {"alt_name": "\u0643\u0627\u0644\u064a\u0646\u0629", "int_name": "Galina, G\u0101lina, G\u0101l\u012bnah, \u06af\u0627\u0644\u064a\u0646\u0647, Galina, Galina, Galinah, \u06af\u0627\u0644\u064a\u0646\u0647", "name": "\u06af\u06ce\u0646\u06d5", "name:de": "Galina", "name:en": "Galina", "name:fr": "Galina", "place": "village"}}, {"type": "node", "id": 2488232426, "lat": 36.5306284, "lon": 43.7054331, "tags": {"alt_name": "\u0643\u0631 \u0628\u062f\u0648", "int_name": "Gir Bad\u016b, G\u012br Bad\u016b, Girbadh\u016b, Girbaru, Grbaru, \u06af\u0631 \u0628\u062f\u0648, Gir Badu, Gir Badu, Girbadhu, Girbaru, Grbaru, \u06af\u0631 \u0628\u062f\u0648", "is_in": "Iraq , \u062c\u0645\u0647\u0648\u0631\u064a\u0629 \u0627\u0644\u0639\u0631\u0627\u0642", "name": "\u06af\u0631\u0628\u062f\u06d5\u0648 \u06a9\u06d5\u0648\u0646", "name:ar1": "\u0643\u0631 \u0628\u062f\u0648", "name:en": "GirBadu Old", "place": "village"}}, {"type": "node", "id": 2488232433, "lat": 36.5839511, "lon": 43.4500946, "tags": {"alt_name": "\u0643\u0631 \u0641\u0642\u064a\u0631", "int_name": "Gir Faqir, Kir Faq\u012br, \u0643\u0631 \u0641\u0642\u064a\u0631, Gir Faqir, Kir Faqir, \u0643\u0631 \u0641\u0642\u064a\u0631", "is_in": "Iraq , \u062c\u0645\u0647\u0648\u0631\u064a\u0629 \u0627\u0644\u0639\u0631\u0627\u0642", "name": "\u06af\u0631\u0641\u06d5\u0642\u06cc\u0631", "name:ar": "\u0643\u0631 \u0641\u0642\u064a\u0631", "name:ar1": "\u0643\u0631 \u0641\u0642\u064a\u0631", "name:de": "Gir Faqir", "name:en": "Gir Faqir", "name:fr": "Gir Faqir", "place": "village"}}, {"type": "node", "id": 2488232447, "lat": 36.597581, "lon": 43.523528, "tags": {"alt_name": "\u0643\u0631\u064a", "int_name": "Gir\u012b, \u06af\u0631\u064a, Giri, \u06af\u0631\u064a", "is_in": "Iraq , \u062c\u0645\u0647\u0648\u0631\u064a\u0629 \u0627\u0644\u0639\u0631\u0627\u0642", "name": "\u06af\u0631\u06ce", "name:ar": "\u06af\u0631\u0643 \u0635\u0648\u0628\u0627\u0634", "name:ar1": "\u0643\u0631\u064a", "name:de": "Giri", "name:en": "Girik Sobashi", "name:fr": "Giri", "place": "village"}}, {"type": "node", "id": 2488232483, "lat": 36.640542, "lon": 43.5794086, "tags": {"alt_name": "\u062d\u0633\u0646\u064a", "int_name": "Hasani, Husni, \u1e28usn\u012b, \u062d\u0633\u0646\u064a, Hasani, Husni, Husni, \u062d\u0633\u0646\u064a", "name": "\u062d\u0633\u0646\u064a", "name:de": "Hasani", "name:en": "Hasani", "name:fr": "Hasani", "place": "village"}}, {"type": "node", "id": 2488232490, "lat": 36.6617745, "lon": 43.6003429, "tags": {"alt_name": "\u0647\u06d5\u0632\u0627\u0631 \u062c\u0641\u062a", "name": "\u0647\u06d5\u0632\u0627\u0631 \u062c\u06c6\u062a", "name:ar": "\u0647\u0632\u0627\u0631\u062c\u0648\u062a", "name:de": "Hazarjot", "name:en": "Hazarjot", "name:fr": "Hazarjot", "name:ku": "\u0647\u0632\u0627\u0631\u062c\u0648\u0648\u062a", "place": "village"}}, {"type": "node", "id": 2488232497, "lat": 36.5975252, "lon": 43.6952493, "tags": {"alt_name": "\u062c\u0648\u062c\u0631 \u0627\u0644\u0635\u063a\u064a\u0631", "int_name": "Hujar, J\u016bjar a\u015f \u015eagh\u012br, J\u016bj\u0101r \u015eagh\u012br, \u062c\u0648\u062c\u0631 \u0627\u0644\u0635\u063a\u064a\u0631, Hujar, Jujar as Saghir, Jujar Saghir, \u062c\u0648\u062c\u0631 \u0627\u0644\u0635\u063a\u064a\u0631", "is_in": "Iraq , \u062c\u0645\u0647\u0648\u0631\u064a\u0629 \u0627\u0644\u0639\u0631\u0627\u0642", "name": "\u062c\u0648\u062c\u06d5\u0631 \u06af\u0686\u06a9\u06d5", "name:ar": "\u062c\u0648\u062c\u0631 \u0627\u0644\u0635\u063a\u064a\u0631", "name:ar1": "\u062c\u0648\u062c\u0631 \u0627\u0644\u0635\u063a\u064a\u0631", "name:de": "Hujar", "name:en": "Hujar", "name:fr": "Hujar", "place": "village"}}, {"type": "node", "id": 2488232504, "lat": 36.6045947, "lon": 43.6846831, "tags": {"alt_name": "\u062c\u0648\u062c\u0631 \u0627\u0644\u0643\u0628\u064a\u0631", "int_name": "Hujar, Jujar, J\u016bjar al Kab\u012br, \u062c\u0648\u062c\u0631 \u0627\u0644\u0643\u0628\u064a\u0631, Hujar, Jujar, Jujar al Kabir, \u062c\u0648\u062c\u0631 \u0627\u0644\u0643\u0628\u064a\u0631", "name": "\u062c\u0648\u062c\u06d5\u0631 \u06af\u06d5\u0648\u0631\u06d5", "name:en": "Hujar", "place": "village"}}, {"type": "node", "id": 2488232527, "lat": 36.5533671, "lon": 43.7705886, "tags": {"alt_name": "\u062c\u0644\u064a\u0627\u0648\u0629", "int_name": "Jaly\u0101wah, Jelyawa, Khiliyawa, Khliawa, \u062c\u0644\u064a\u0627\u0648\u0647, Jalyawah, Jelyawa, Khiliyawa, Khliawa, \u062c\u0644\u064a\u0627\u0648\u0647", "is_in": "Iraq , \u062c\u0645\u0647\u0648\u0631\u064a\u0629 \u0627\u0644\u0639\u0631\u0627\u0642", "name": "Palasan", "name:ar1": "\u062c\u0644\u064a\u0627\u0648\u0629", "name:ckb": "\u067e\u0627\u0644\u0627\u0633\u0627\u0646", "place": "village"}}, {"type": "node", "id": 2488232548, "lat": 36.6318911, "lon": 43.7383756, "tags": {"is_in": "Iraq , \u062c\u0645\u0647\u0648\u0631\u064a\u0629 \u0627\u0644\u0639\u0631\u0627\u0642", "name": "\u06a9\u06ce\u0644\u06d5 \u0633\u067e\u06cc", "name:ar": "\u0643\u064a\u0644\u0629 \u0633\u0628\u064a", "name:ar1": "\u0643\u064a\u0644\u0629 \u0633\u0628\u064a", "name:de": "Kalla Soi", "name:en": "Kela Spi", "name:fr": "Kalla Soi", "place": "village"}}, {"type": "node", "id": 2488232565, "lat": 36.5735536, "lon": 43.6009443, "tags": {"alt_name": "\u0643\u0627\u0646\u064a \u0633\u0628\u0647\u0627\u0646", "int_name": "K\u0101n\u012b Sibh\u0101n, Kani Sihan, K\u0101n\u012b Sipah\u0101n, Kani Spah\u0101n, \u0643\u0627\u0646\u064a \u0633\u0628\u0647\u0627\u0646, Kani Sibhan, Kani Sihan, Kani Sipahan, Kani Spahan, \u0643\u0627\u0646\u064a \u0633\u0628\u0647\u0627\u0646", "name": "\u06a9\u0627\u0646\u06cc \u0647\u06d5\u0633\u067e\u0627\u0646", "name:en": "Kani Sibhan", "place": "village"}}, {"type": "node", "id": 2488232585, "lat": 36.6201168, "lon": 43.5954858, "tags": {"alt_name": "\u062e\u0645\u064a\u0633 \u0643\u0648\u062c\u0643", "int_name": "Khamis, Khamis Kuchik, Kham\u012bs K\u016bchik, Kham\u012bs K\u016bjak, Kham\u012bs K\u016bshak, \u062e\u0645\u064a\u0633 \u0643\u0648\u0686\u0643, Khamis, Khamis Kuchik, Khamis Kuchik, Khamis Kujak, Khamis Kushak, \u062e\u0645\u064a\u0633 \u0643\u0648\u0686\u0643", "is_in": "Iraq , \u062c\u0645\u0647\u0648\u0631\u064a\u0629 \u0627\u0644\u0639\u0631\u0627\u0642", "name": "\u062e\u06d5\u0645\u06cc\u0633 \u06a9\u0648\u0686\u06a9", "name:ar": "\u062e\u0645\u064a\u0633 \u0643\u0648\u062c\u0643", "name:ar1": "\u062e\u0645\u064a\u0633 \u0643\u0648\u062c\u0643", "name:de": "Khamis", "name:en": "Khamis", "name:fr": "Khamis", "place": "village"}}, {"type": "node", "id": 2488232605, "lat": 36.57242, "lon": 43.5414515, "tags": {"alt_name": "\u062e\u0648\u0627\u0633\u0627\u0646", "int_name": "Khaw\u0101s\u0101n, Khwasan, \u062e\u0648\u0627\u0633\u0627\u0646, Khawasan, Khwasan, \u062e\u0648\u0627\u0633\u0627\u0646", "is_in": "Iraq , \u062c\u0645\u0647\u0648\u0631\u064a\u0629 \u0627\u0644\u0639\u0631\u0627\u0642", "name": "\u062e\u0648\u0627\u0633\u0627\u0646", "name:ar": "\u06af\u0631\u06cc\u06af\u0627", "name:ar1": "\u062e\u0648\u0627\u0633\u0627\u0646", "name:de": "Khawasan", "name:en": "\u06af\u0631\u06ce\u06af\u0627", "name:fr": "Khawasan", "name:ku": "\u06af\u0631\u06ce\u06af\u0627", "place": "village"}}, {"type": "node", "id": 2488232618, "lat": 36.6672962, "lon": 43.8778982, "tags": {"alt_name": "\u062e\u0631\u062c\u0627\u0648\u0629", "int_name": "Khirjawa, Khirj\u0101wah, Khrjawa, \u062e\u0631\u062c\u0627\u0648\u0647, Khirjawa, Khirjawah, Khrjawa, \u062e\u0631\u062c\u0627\u0648\u0647", "is_in": "Iraq , \u062c\u0645\u0647\u0648\u0631\u064a\u0629 \u0627\u0644\u0639\u0631\u0627\u0642", "name": "\u062e\u06d5\u0631\u062c\u0627\u0648\u0627", "name:ar": "\u062e\u0631\u062c\u0627\u0648\u0629", "name:ar1": "\u062e\u0631\u062c\u0627\u0648\u0629", "name:de": "Khirjawa", "name:en": "Khirjawa", "name:fr": "Khirjawa", "place": "village"}}, {"type": "node", "id": 2488232643, "lat": 36.591835, "lon": 43.7992988, "tags": {"alt_name": "\u0643\u0648\u0632\u0643\u0627\u0646", "is_in": "Iraq , \u062c\u0645\u0647\u0648\u0631\u064a\u0629 \u0627\u0644\u0639\u0631\u0627\u0642", "name": "\u06a9\u06c6\u0644\u06d5\u06a9\u0627 \u06af\u06d5\u0648\u0631\u06d5", "name:ar": "\u06a9\u06c6\u0644\u06d5\u06a9\u0627 \u06af\u06d5\u0648\u0631\u06d5", "name:ar1": "\u0643\u0648\u0632\u0643\u0627\u0646", "name:de": "Kolaka Big", "name:en": "Kolaka Big", "name:fr": "Kolaka Big", "place": "village"}}, {"type": "node", "id": 2488232705, "lat": 36.6463788, "lon": 43.5686952, "tags": {"name": "\u0645\u06d5\u0644\u0627 \u0628\u06d5\u0631\u0648\u0627\u0646", "name:en": "Mala Brwan", "place": "village"}}, {"type": "node", "id": 2488232736, "lat": 36.6402072, "lon": 43.7661546, "tags": {"alt_name": "\u0645\u0627\u0645 \u062e\u0644\u064a\u0641\u0629", "int_name": "Mam Khalifa, M\u0101m Khal\u012bfah, \u0645\u0627\u0645 \u062e\u0644\u064a\u0641\u0647, Mam Khalifa, Mam Khalifah, \u0645\u0627\u0645 \u062e\u0644\u064a\u0641\u0647", "is_in": "Iraq , \u062c\u0645\u0647\u0648\u0631\u064a\u0629 \u0627\u0644\u0639\u0631\u0627\u0642", "name": "\u0645\u0627\u0645 \u062e\u06d5\u0644\u06cc\u0641\u06d5", "name:ar": "\u0645\u0627\u0645 \u062e\u0644\u064a\u0641\u0629", "name:ar1": "\u0645\u0627\u0645 \u062e\u0644\u064a\u0641\u0629", "name:de": "Mam Khalifa", "name:en": "Mam Khalifa", "name:fr": "Mam Khalifa", "name:ku": "\u0645\u0627\u0645 \u062e\u0644\u064a\u0641\u0647 \u0643\u0627\u0648\u0627\u0646\u0649", "name:ku-Arab": "\u0645\u0627\u0645 \u062e\u06d5\u0644\u06cc\u0641\u06d5", "place": "village"}}, {"type": "node", "id": 2488232748, "lat": 36.54529, "lon": 43.6198589, "tags": {"alt_name": "\u0645\u0627\u0645\u0648\u0632\u064a\u0646", "int_name": "M\u0101mozin, Mamurin, M\u0101m\u016bz\u012bn, \u0645\u0627\u0645\u0648\u0632\u064a\u0646, Mamozin, Mamurin, Mamuzin, \u0645\u0627\u0645\u0648\u0632\u064a\u0646", "is_in": "Iraq , \u062c\u0645\u0647\u0648\u0631\u064a\u0629 \u0627\u0644\u0639\u0631\u0627\u0642", "name": "\u0645\u06d5\u0645 \u0648 \u0632\u06cc\u0646", "name:ar": "\u0645\u0645\u0648\u0632\u064a\u0646", "name:ar1": "\u0645\u0627\u0645\u0648\u0632\u064a\u0646", "name:de": "Mamozin", "name:en": "Mamozin", "name:fr": "Mamozin", "place": "village"}}, {"type": "node", "id": 2488232762, "lat": 36.5582373, "lon": 43.6199202, "tags": {"alt_name": "\u0646\u0632\u0631\u0627\u0648\u0629", "int_name": "Nazr\u0101wa, Nazr\u0101wah, Nazrawa, Nazrawah", "is_in": "Iraq , \u062c\u0645\u0647\u0648\u0631\u064a\u0629 \u0627\u0644\u0639\u0631\u0627\u0642", "name": "\u0646\u06d5\u0632\u0631\u0627\u0648\u06d5", "name:ar": "\u0646\u0632\u0631\u0627\u0648\u0629", "name:ckb": "\u0646\u06d5\u0632\u0631\u0627\u0648\u06d5", "name:de": "nazrawa", "name:en": "nazrawa", "name:fr": "nazrawa", "place": "village"}}, {"type": "node", "id": 2488232895, "lat": 36.6745325, "lon": 43.894712, "tags": {"alt_name": "\u0646\u0631\u0643\u0632\u064a\u0646", "int_name": "Nargzin, Nergzin, \u0646\u0631\u06af\u0632\u064a\u0646, Nargzin, Nergzin, \u0646\u0631\u06af\u0632\u064a\u0646", "is_in": "Iraq , \u062c\u0645\u0647\u0648\u0631\u064a\u0629 \u0627\u0644\u0639\u0631\u0627\u0642", "name": "\u0646\u06ce\u0631\u06af\u0632\u06cc\u0646", "name:ar": "\u0646\u0631\u0643\u0632\u064a\u0646", "name:ar1": "\u0646\u0631\u0643\u0632\u064a\u0646", "name:de": "Nargzin", "name:en": "Nargzin", "name:fr": "Nargzin", "place": "village"}}, {"type": "node", "id": 2488232907, "lat": 36.546322, "lon": 43.7574445, "tags": {"alt_name": "\u0628\u0644\u0633\u0627\u0646", "int_name": "Pils\u0101n, Plisan, \u067e\u0644\u0633\u0627\u0646, Pilsan, Plisan, \u067e\u0644\u0633\u0627\u0646", "is_in": "Iraq , \u062c\u0645\u0647\u0648\u0631\u064a\u0629 \u0627\u0644\u0639\u0631\u0627\u0642", "name": "\u062a\u06c6\u0628\u0632\u0627\u0648\u06d5\u06cc \u06af\u06d5\u0648\u0631\u06d5", "name:ar1": "\u0628\u0644\u0633\u0627\u0646", "name:en": "Tobzawa Big", "place": "village"}}, {"type": "node", "id": 2488232920, "lat": 36.5616444, "lon": 43.6443774, "tags": {"is_in": "Iraq , \u062c\u0645\u0647\u0648\u0631\u064a\u0629 \u0627\u0644\u0639\u0631\u0627\u0642", "name": "\u0642\u06d5\u0631\u06d5\u0646\u0627\u0632", "name:ar": "\u0642\u0631\u0629 \u0646\u0627\u0632", "name:ar1": "\u0642\u0631\u0629 \u0646\u0627\u0632", "name:de": "Qara Naz", "name:en": "Qara Naz", "name:fr": "Qara Naz", "place": "village"}}, {"type": "node", "id": 2488232946, "lat": 36.625098, "lon": 43.702024, "tags": {"alt_name": "\u0631\u0648\u0641\u064a\u0629", "capital": "7", "int_name": "Ruvia, Ruvina, R\u016bviyah, \u0631\u0648\u06a4\u064a\u0647, Ruvia, Ruvina, Ruviyah, \u0631\u0648\u06a4\u064a\u0647", "is_in": "Iraq , \u062c\u0645\u0647\u0648\u0631\u064a\u0629 \u0627\u0644\u0639\u0631\u0627\u0642", "name": "\u0695\u0648\u0648\u06a4\u06cc\u0627", "name:ckb": "\u0695\u0648\u0648\u06a4\u06cc\u0627", "name:en": "Ruvia", "name:ku": "R\u00fbvya", "place": "town"}}, {"type": "node", "id": 2488232959, "lat": 36.6293103, "lon": 43.668105, "tags": {"alt_name": "\u0633\u064a\u0643\u064a\u0631\u0643", "int_name": "Sar Bgirk, Sar Bigirk, S\u012bg\u012brik, Sigirk, \u0633\u064a\u06af\u064a\u0631\u0643, Sar Bgirk, Sar Bigirk, Sigirik, Sigirk, \u0633\u064a\u06af\u064a\u0631\u0643", "name": "\u0633\u06ce\u06af\u0631\u06a9", "name:ar": "\u0633\u064a\u0643\u064a\u0631\u0643", "name:de": "Sar Bgirk", "name:en": "Sar Bgirk", "name:fr": "Sar Bgirk", "place": "village"}}, {"type": "node", "id": 2488232971, "lat": 36.6259875, "lon": 43.8537916, "tags": {"alt_name": "\u0633\u0631\u062f\u0631\u064a\u0627", "int_name": "Sardaria, Sardariy\u0101, Sardary\u0101, Serdariah, \u0633\u0631\u062f\u0631\u064a\u0627, Sardaria, Sardariya, Sardarya, Serdariah, \u0633\u0631\u062f\u0631\u064a\u0627", "is_in": "Iraq , \u062c\u0645\u0647\u0648\u0631\u064a\u0629 \u0627\u0644\u0639\u0631\u0627\u0642", "name": "\u0633\u06d5\u0631\u062f\u06d5\u0631\u06cc\u0627\u0646", "name:ar": "\u0633\u0631\u062f\u0631\u064a\u0627", "name:ar1": "\u0633\u0631\u062f\u0631\u064a\u0627", "name:de": "Sardaria", "name:en": "Sardaria", "name:fr": "Sardaria", "place": "village"}}, {"type": "node", "id": 2488232985, "lat": 36.5645108, "lon": 43.7610106, "tags": {"alt_name": "\u0633\u0631\u0648\u0643\u0627\u0646\u064a \u0637\u0648\u0628\u0632\u0627\u0648\u0629", "int_name": "Sar\u016bk\u0101n\u012b \u0162\u016bbz\u0101wah, Sarwak\u0101ni, Sarwak\u0101ni Topz\u0101wa, Topz\u0101wa, \u0162\u016bbz\u0101wah, \u0162\u016bpzawah, \u0633\u0631\u0648\u0643\u0627\u0646\u064a \u0637\u0648\u0628\u0632\u0627\u0648\u0647, Sarukani Tubzawah, Sarwakani, Sarwakani Topzawa, Topzawa, Tubzawah, Tupzawah, \u0633\u0631\u0648\u0643\u0627\u0646\u064a \u0637\u0648\u0628\u0632\u0627\u0648\u0647", "is_in": "Iraq , \u062c\u0645\u0647\u0648\u0631\u064a\u0629 \u0627\u0644\u0639\u0631\u0627\u0642", "name": "\u0633\u0631\u0648\u0643\u0627\u0646\u064a \u0637\u0648\u0628\u0632\u0627\u0648\u0629", "name:ar": "\u0633\u0631\u0648\u0643\u0627\u0646\u064a \u0637\u0648\u0628\u0632\u0627\u0648\u0629", "name:ar1": "\u0633\u0631\u0648\u0643\u0627\u0646\u064a \u0637\u0648\u0628\u0632\u0627\u0648\u0629", "name:de": "Sarukani Tubzawah", "name:en": "Sarukani Tubzawah", "name:fr": "Sarukani Tubzawah", "place": "village"}}, {"type": "node", "id": 2488233010, "lat": 36.6099639, "lon": 43.7620442, "tags": {"alt_name": "\u0634\u064a\u062e \u062e\u0627\u0646\u0648\u0643", "int_name": "Shaikh Kh\u0101nuk, Shaykh Kh\u0101n\u016bk, Sheikh Khanuk, \u0634\u064a\u062e \u062e\u0627\u0646\u0648\u0643, Shaikh Khanuk, Shaykh Khanuk, Sheikh Khanuk, \u0634\u064a\u062e \u062e\u0627\u0646\u0648\u0643", "is_in": "Iraq , \u062c\u0645\u0647\u0648\u0631\u064a\u0629 \u0627\u0644\u0639\u0631\u0627\u0642", "name": "\u0634\u06ce\u062e\u0627\u0646\u0648\u06a9", "name:ar": "\u0634\u064a\u062e \u062e\u0627\u0646\u0648\u0643 \u0628\u0643", "name:ar1": "\u0634\u064a\u062e \u062e\u0627\u0646\u0648\u0643", "name:de": "Shaikh Khanuk bag", "name:en": "Shaikh Khanuk bag", "name:fr": "Shaikh Khanuk bag", "name:ku": "\u0634\u0626\u062e\u0627\u0646\u0624\u0643 \u0633\u0648\u0631\u062c\u064a \u0628\u0629\u06af", "place": "village"}}, {"type": "node", "id": 2488233065, "lat": 36.5941767, "lon": 43.4809153, "tags": {"alt_name": "Tel Gomel;Tell Gomel;Tall J\u016bmal;Til Humal;\u062a\u0644 \u062c\u0648\u0645\u0644;Tall Jumal;Til Humal;\u062a\u0644 \u062c\u0648\u0645\u0644", "is_in": "Iraq , \u062c\u0645\u0647\u0648\u0631\u064a\u0629 \u0627\u0644\u0639\u0631\u0627\u0642", "name": "\u062a\u0644 \u062c\u0648\u0645\u0631", "name:ar": "\u062a\u0644 \u062c\u0648\u0645\u0644", "name:ar1": "\u062a\u0644 \u062c\u0648\u0645\u0644", "name:de": "Tall Jumal", "name:en": "Tall Jumal", "name:fr": "Tall Jumal", "place": "village"}}, {"type": "node", "id": 2488233135, "lat": 36.6484129, "lon": 43.6871991, "tags": {"alt_name": "\u0639\u0645\u0631 \u0633\u0646\u0627\u0646", "int_name": "Umar Sin\u0101n, Omar Sinan, Omer Sinan, \u0639\u0645\u0631 \u0633\u0646\u0627\u0646, Umar Sinan, Omar Sinan, Omer Sinan, \u0639\u0645\u0631 \u0633\u0646\u0627\u0646", "is_in": "Iraq , \u062c\u0645\u0647\u0648\u0631\u064a\u0629 \u0627\u0644\u0639\u0631\u0627\u0642", "name": "\u0626\u0648\u0645\u06d5\u0631 \u0633\u06ce\u0646\u0627", "name:ar": "\u0639\u0645\u0631 \u0633\u0646\u0627\u0646", "name:ar1": "\u0639\u0645\u0631 \u0633\u0646\u0627\u0646", "name:de": "Umar Sinan", "name:en": "Umar Sinan", "name:fr": "Umar Sinan", "name:ku": "\u0626\u0648\u0645\u06d5\u0631 \u0633\u06ce\u0646\u0627", "place": "village"}}, {"type": "node", "id": 2488233191, "lat": 36.6409849, "lon": 43.7096497, "tags": {"is_in": "Iraq , \u062c\u0645\u0647\u0648\u0631\u064a\u0629 \u0627\u0644\u0639\u0631\u0627\u0642", "name": "\u0626\u06ce\u06a9\u0645\u0627\u0644\u06d5", "name:ar": "\u064a\u0643\u0645\u0627\u0644\u0629", "name:ar1": "\u064a\u0643\u0645\u0627\u0644\u0629", "name:de": "Yak Mala", "name:en": "Yak Mala", "name:fr": "Yak Mala", "place": "village"}}, {"type": "node", "id": 2488233264, "lat": 36.6579426, "lon": 43.4798406, "tags": {"alt_name": "\u0632\u0627\u0646\u064a\u0648\u0629 \u063a\u0627\u0632\u064a", "int_name": "Z\u0101n\u012bwat Gh\u0101z\u012b, Zin\u0101wa Gh\u0101zi, Zin\u0101wah Gh\u0101z\u012b, Zinwa Ghazy, \u0632\u0627\u0646\u064a\u0648\u0629 \u063a\u0627\u0632\u064a, Zaniwat Ghazi, Zinawa Ghazi, Zinawah Ghazi, Zinwa Ghazy, \u0632\u0627\u0646\u064a\u0648\u0629 \u063a\u0627\u0632\u064a", "is_in": "Iraq , \u062c\u0645\u0647\u0648\u0631\u064a\u0629 \u0627\u0644\u0639\u0631\u0627\u0642", "name": "\u0632\u06cc\u0646\u0627\u06a4\u0627 \u063a\u0627\u0632\u06cc", "name:ar": "\u0632\u064a\u0646\u0627\u06a4\u0627 \u0698\u0648\u0648\u0631\u0649", "name:ar1": "\u0632\u0627\u0646\u064a\u0648\u0629 \u063a\u0627\u0632\u064a", "name:de": "Zaniwat Ghazi", "name:en": "Zaniwat Ghazi", "name:fr": "Zaniwat Ghazi", "place": "village"}}, {"type": "node", "id": 2488233294, "lat": 36.6384653, "lon": 43.477463, "tags": {"alt_name": "\u0632\u064a\u0646\u0648\u0629 \u0645\u064a\u0631\u064a", "int_name": "Zaynawat M\u012br\u012b, Zinwa Qabri, \u0632\u064a\u0646\u0648\u0629 \u0645\u064a\u0631\u064a, Zaynawat Miri, Zinwa Qabri, \u0632\u064a\u0646\u0648\u0629 \u0645\u064a\u0631\u064a", "is_in": "Iraq , \u062c\u0645\u0647\u0648\u0631\u064a\u0629 \u0627\u0644\u0639\u0631\u0627\u0642", "name": "\u0632\u06cc\u0646\u0627\u06a4\u0627 \u0645\u06cc\u0631\u06cc", "name:ar": "\u0632\u064a\u0646\u0627\u06a4\u0627 \u0645\u064a\u0631\u0649", "name:ar1": "\u0632\u064a\u0646\u0648\u0629 \u0645\u064a\u0631\u064a", "name:de": "Zaynawat Miri", "name:en": "Zenava Miri", "name:fr": "Zaynawat Miri", "place": "village"}}, {"type": "node", "id": 2488233306, "lat": 36.6037074, "lon": 43.7450718, "tags": {"alt_name": "\u0632\u0644\u0643\u0629 \u0634\u064a\u062e \u0639\u0628\u062f \u0627\u0644\u0639\u0632\u064a\u0632", "int_name": "Z\u00e9lka Atko", "is_in": "Iraq , \u062c\u0645\u0647\u0648\u0631\u064a\u0629 \u0627\u0644\u0639\u0631\u0627\u0642", "name": "\u0632\u06ce\u0644\u06a9\u06d5 \u0634\u06ce\u062e \u0639\u06d5\u0628\u062f\u0644\u0639\u06d5\u0632\u06cc\u0632", "name:ar": "\u0632\u064a\u0644\u0643\u06d5 \u0639\u062a\u0643\u0648", "name:ar1": "\u0632\u0644\u0643\u0629 \u0634\u064a\u062e \u0639\u0628\u062f \u0627\u0644\u0639\u0632\u064a\u0632", "name:de": "Z\u011blka Atko", "name:en": "Zelka Atko", "name:fr": "Zelka Atko", "name:ku": "\u0632\u06ce\u0644\u0643\u06d5 \u0639\u062a\u0643\u06c6", "place": "village"}}, {"type": "node", "id": 2488233331, "lat": 36.6145643, "lon": 43.4795376, "tags": {"alt_name": "\u0632\u0646\u064a\u0648\u0629 \u0639\u062a\u064a\u0642", "int_name": "Zin\u0101wa At\u012bq, Zin\u0101wah Atiq, Zin\u012bwat At\u012bq, Zinwa Atiq, \u0632\u0646\u064a\u0648\u0629 \u0639\u062a\u064a\u0642, Zinawa Atiq, Zinawah Atiq, Ziniwat Atiq, Zinwa Atiq, \u0632\u0646\u064a\u0648\u0629 \u0639\u062a\u064a\u0642", "is_in": "Iraq , \u062c\u0645\u0647\u0648\u0631\u064a\u0629 \u0627\u0644\u0639\u0631\u0627\u0642", "name": "\u0632\u06cc\u0646\u0627\u06a4\u0627 \u06a9\u06d5\u06a4\u0646", "name:ar": "\u0632\u064a\u0646\u0627\u06a4\u0627 \u0643\u0629\u06a4\u0646", "name:ar1": "\u0632\u0646\u064a\u0648\u0629 \u0639\u062a\u064a\u0642", "name:de": "Zinawa Atiq", "name:en": "Zinawa Atiq", "name:fr": "Zinawa Atiq", "place": "village"}}, {"type": "node", "id": 2488235811, "lat": 36.8073054, "lon": 43.6541821, "tags": {"alt_name": "\u0633\u0645\u0627\u0648\u0629", "int_name": "Asm\u0101wa, Sam\u0101wah, Simaq, Asmawa, Samawa", "name": "\u0626\u0627\u0633\u0645\u0627\u0648\u06d5", "name:de": "Asmawa", "name:en": "Asmawa", "name:fr": "Asmawa", "place": "village"}}, {"type": "node", "id": 2488235841, "lat": 36.7917493, "lon": 43.6599205, "tags": {"alt_name": "\u0628\u0627\u063a\u0629 \u0633\u0628\u064a", "int_name": "B\u0101gasp\u012b, Bagha Spi, B\u0101gha Sip\u012b, B\u0101ghasp\u012b, Bagaspi, Baghaspi, \u0628\u0627\u063a\u06d5\u0633\u067e\u06cc", "name": "\u0628\u0627\u0642\u0633\u067e\u06ce", "name:ar": "\u0628\u0627\u0642\u0648\u0633\u067e\u06ce", "name:de": "Baquspe", "name:en": "Baquspe", "name:fr": "Bagaspi", "name:ku": "Baquspe", "place": "village"}}, {"type": "node", "id": 2488235847, "lat": 36.7736151, "lon": 43.6421371, "tags": {"name": "\u0628\u0627\u0698\u06ce\u0631\u06d5\u06cc \u0698\u0648\u0648\u0631\u06cc", "name:ar": "\u0628\u0627\u0698\u06ce\u0631\u06d5\u06cc \u0633\u06d5\u0631\u0648\u0648", "name:de": "Bazhera Upper", "name:fr": "Bazhera Upper", "place": "village"}}, {"type": "node", "id": 2488235858, "lat": 36.7562462, "lon": 43.647563, "tags": {"is_in": "Iraq , \u062c\u0645\u0647\u0648\u0631\u064a\u0629 \u0627\u0644\u0639\u0631\u0627\u0642", "name": "\u0628\u0627\u0698\u06ce\u0631\u06d5\u06cc \u0698\u06ce\u0631\u06cc", "name:ar1": "\u0628\u0627\u062c\u0631\u0629 \u0645\u062d\u0645\u0648\u062f", "name:en": "Bazhera Lower", "place": "village"}}, {"type": "node", "id": 2488235879, "lat": 36.7497402, "lon": 43.6506838, "tags": {"alt_name": "\u0628\u0627\u0646\u0648\u0631\u0629", "int_name": "B\u0101nora, Banura, B\u0101n\u016brah, B\u0101n\u016br\u012b, \u0628\u0627\u0646\u0648\u0631\u0647, Banora, Banura, Banurah, Banuri, \u0628\u0627\u0646\u0648\u0631\u0647", "is_in": "Iraq , \u062c\u0645\u0647\u0648\u0631\u064a\u0629 \u0627\u0644\u0639\u0631\u0627\u0642", "name": "\u0628\u0627\u0646\u0648\u0631\u06d5", "name:ar": "\u0628\u0627\u0646\u06cc\u0631\u06d5", "name:ar1": "\u0628\u0627\u0646\u0648\u0631\u0629", "name:de": "Banire", "name:en": "Banire", "name:fr": "Banire", "place": "village"}}, {"type": "node", "id": 2488235896, "lat": 36.7295319, "lon": 43.4458987, "tags": {"alt_name": "\u0628\u0627\u0631\u062a\u0633\u062a\u0629", "int_name": "Barshtapa, B\u0101rtistah, \u0628\u0627\u0631\u062a\u0633\u062a\u0629, Barshtapa, Bartistah, \u0628\u0627\u0631\u062a\u0633\u062a\u0629", "is_in": "Iraq , \u062c\u0645\u0647\u0648\u0631\u064a\u0629 \u0627\u0644\u0639\u0631\u0627\u0642", "name": "\u0628\u0627\u0631\u062a\u0633\u062a\u0629", "name:ar": "\u0628\u0627\u0631\u062a\u0633\u062a\u0629", "name:ar1": "\u0628\u0627\u0631\u062a\u0633\u062a\u0629", "name:de": "Barshtapa", "name:en": "Barshtapa", "name:fr": "Barshtapa", "place": "hamlet"}}, {"type": "node", "id": 2488235916, "lat": 36.8375759, "lon": 43.4861378, "tags": {"alt_name": "\u0628\u0633\u064a\u0641\u064a", "int_name": "Bas\u012bf\u012b, B\u0101sitre, Sivi, \u0628\u0633\u064a\u0641\u064a, Basifi, Basitre, Sivi, \u0628\u0633\u064a\u0641\u064a", "is_in": "Iraq , \u062c\u0645\u0647\u0648\u0631\u064a\u0629 \u0627\u0644\u0639\u0631\u0627\u0642", "name": "\u0628\u0633\u064a\u0641\u064a", "name:ar": "\u0628\u0633\u064a\u0641\u064a", "name:ar1": "\u0628\u0633\u064a\u0641\u064a", "name:de": "Basifi", "name:en": "Basifi", "name:fr": "Basifi", "place": "village"}}, {"type": "node", "id": 2488235971, "lat": 36.7623389, "lon": 43.4895398, "tags": {"alt_name": "\u0628\u064a\u0633\u062a \u0627\u0644\u0639\u0644\u064a\u0627", "int_name": "B\u0113s\u0101t Zh\u014dr\u012b, B\u012bsat al Uly\u0101, Bist, \u0628\u064a\u0633\u062a \u0627\u0644\u0639\u0644\u064a\u0627, Besat Zhori, Bisat al Ulya, Bist, \u0628\u064a\u0633\u062a \u0627\u0644\u0639\u0644\u064a\u0627", "is_in": "Iraq , \u062c\u0645\u0647\u0648\u0631\u064a\u0629 \u0627\u0644\u0639\u0631\u0627\u0642", "name": "\u0628\u06ce\u0633\u062a\u0627 \u0633\u06d5\u0631\u06ce", "name:ar": "\u0628\u064a\u0633\u062a \u0627\u0644\u0639\u0644\u064a\u0627", "name:ar1": "\u0628\u064a\u0633\u062a \u0627\u0644\u0639\u0644\u064a\u0627", "name:de": "Besat Zhori", "name:en": "Besat Zhori", "name:fr": "Besat Zhori", "place": "village"}}, {"type": "node", "id": 2488235982, "lat": 36.7593014, "lon": 43.494909, "tags": {"alt_name": "\u0628\u064a\u0633\u062a", "int_name": "B\u0113s\u0101t \u0113 Zh\u0113r\u012b, B\u012bsat, B\u012bst, \u0628\u064a\u0633\u062a, Besat e Zheri, Bisat, Bist, \u0628\u064a\u0633\u062a", "is_in": "Iraq , \u062c\u0645\u0647\u0648\u0631\u064a\u0629 \u0627\u0644\u0639\u0631\u0627\u0642", "name": "\u0628\u06ce\u0633\u062a\u0627 \u062e\u0627\u0631\u06ce", "name:ar": "\u0628\u064a\u0633\u062a", "name:ar1": "\u0628\u064a\u0633\u062a", "name:de": "Besat e Zheri", "name:en": "Besat e Zheri", "name:fr": "Besat e Zheri", "place": "village"}}, {"type": "node", "id": 2488236031, "lat": 36.732684, "lon": 43.656727, "tags": {"alt_name": "\u0644\u0643\u0629", "int_name": "Blka, Lakah, \u0644\u0643\u0647, Blka, Lakah, \u0644\u0643\u0647", "name": "\u0644\u06d5\u06a9\u0627\u0646", "name:ar": "\u0644\u0643\u0627\u0646", "name:de": "Blka", "name:en": "Lakan", "name:fr": "Blka", "name:ku": "\u0644\u0647 \u0643\u0627\u0646", "place": "village"}}, {"type": "node", "id": 2488236125, "lat": 36.7072704, "lon": 43.6227918, "tags": {"alt_name": "\u0643\u0631\u0643\u0648\u0631\u0646", "int_name": "Garkun, Gark\u016brin, \u06af\u0631\u0643\u0648\u0631\u0646, Garkun, Garkurin, \u06af\u0631\u0643\u0648\u0631\u0646", "is_in": "Iraq , \u062c\u0645\u0647\u0648\u0631\u064a\u0629 \u0627\u0644\u0639\u0631\u0627\u0642", "name": "\u06af\u0631\u06af\u0648\u0631\u0627\u0646", "name:ar": "\u0643\u0631\u0643\u0648\u0631\u0646", "name:ar1": "\u0643\u0631\u0643\u0648\u0631\u0646", "name:de": "Garkun", "name:en": "Garkun", "name:fr": "Garkun", "place": "village"}}, {"type": "node", "id": 2488236132, "lat": 36.7494492, "lon": 43.6857608, "tags": {"alt_name:en": "Harkii", "is_in": "Iraq , \u062c\u0645\u0647\u0648\u0631\u064a\u0629 \u0627\u0644\u0639\u0631\u0627\u0642", "name": "\u0647\u06d5\u0631\u06a9\u06cc", "name:ar": "\u0647\u0631\u0643\u064a", "name:ckb": "\u0647\u06d5\u0631\u06a9\u06cc", "name:de": "Harki", "name:en": "Harki", "name:fr": "Harki", "place": "village"}}, {"type": "node", "id": 2488236142, "lat": 36.7244123, "lon": 43.5453169, "tags": {"alt_name": "\u0643\u0631 \u0632\u0646\u0643\u0644", "int_name": "Gir Zangil, Gir Zngl, \u06af\u0631 \u0632\u0646\u06af\u0644, Gir Zangil, Gir Zngl, \u06af\u0631 \u0632\u0646\u06af\u0644", "is_in": "Iraq , \u062c\u0645\u0647\u0648\u0631\u064a\u0629 \u0627\u0644\u0639\u0631\u0627\u0642", "name": "\u06af\u0631 \u0632\u0646\u06af\u0644", "name:ar": "\u0643\u0631 \u0632\u0646\u0643\u0644", "name:ar1": "\u0643\u0631 \u0632\u0646\u0643\u0644", "name:de": "Gir Zangil", "name:en": "Gir Zangil", "name:fr": "Gir Zangil", "place": "village"}}, {"type": "node", "id": 2488236154, "lat": 36.746451, "lon": 43.595322, "tags": {"alt_name": "\u062a\u0644 \u0628\u0648\u0632\u064a\u0646\u0629", "int_name": "Gird\u0101baz\u0113na, Tall B\u016bz\u012bnah, Tl Bozkna, \u062a\u0644 \u0628\u0648\u0632\u064a\u0646\u0647, Girdabazena, Tall Buzinah, Tl Bozkna, \u062a\u0644 \u0628\u0648\u0632\u064a\u0646\u0647", "is_in": "Iraq , \u062c\u0645\u0647\u0648\u0631\u064a\u0629 \u0627\u0644\u0639\u0631\u0627\u0642", "name": "\u062a\u0644\u0628\u0632\u06cc\u0646\u06d5 \u0647\u06d5\u0631\u06a9\u06cc", "name:ar": "\u062a\u0644 \u0628\u0648\u0632\u064a\u0646\u0629", "name:ar1": "\u062a\u0644 \u0628\u0648\u0632\u064a\u0646\u0629", "name:de": "Girdabazena", "name:en": "Girdabazena", "name:fr": "Girdabazena", "place": "village"}}, {"type": "node", "id": 2488236181, "lat": 36.7502047, "lon": 43.533612, "tags": {"alt_name": "\u0643\u0645\u0629", "int_name": "Kama, Kamah, \u0643\u0645\u0647, Kama, Kamah, \u0643\u0645\u0647", "is_in": "Iraq , \u062c\u0645\u0647\u0648\u0631\u064a\u0629 \u0627\u0644\u0639\u0631\u0627\u0642", "name": "\u06a9\u06d5\u0645\u06ce", "name:ar": "\u0643\u0645\u0629", "name:ar1": "\u0643\u0645\u0629", "name:de": "Kama", "name:en": "Kama", "name:fr": "Kama", "place": "village"}}, {"type": "node", "id": 2488236195, "lat": 36.804067, "lon": 43.6849017, "tags": {"alt_name": "\u062e\u0644\u0627\u0641\u0629", "int_name": "Khal\u0101fa, Khal\u0101fat, Khilafa, Khil\u0101fah, \u062e\u0644\u0627\u0641\u0629, Khalafa, Khalafat, Khilafa, Khilafah, \u062e\u0644\u0627\u0641\u0629", "is_in": "Iraq , \u062c\u0645\u0647\u0648\u0631\u064a\u0629 \u0627\u0644\u0639\u0631\u0627\u0642", "name": "\u062e\u06ce\u0644\u0627\u0641\u062a", "name:ar": "\u062e\u064a\u0644\u0627\u0641\u062a", "name:ar1": "\u062e\u0644\u0627\u0641\u0629", "name:de": "Khalafa", "name:en": "Khelaft", "name:fr": "Khalafa", "name:ku": "\u062e\u0626\u064a\u0644\u0627\u0641\u062a", "place": "village"}}, {"type": "node", "id": 2488236229, "lat": 36.763213, "lon": 43.5203665, "tags": {"alt_name": "\u0645\u0631\u064a\u0628\u0629", "int_name": "M\u0101raygah, Mriba, Mur\u012bb\u0101, Mur\u012bbah, \u0645\u0631\u064a\u0628\u0647, Maraygah, Mriba, Muriba, Muribah, \u0645\u0631\u064a\u0628\u0647", "is_in": "Iraq , \u062c\u0645\u0647\u0648\u0631\u064a\u0629 \u0627\u0644\u0639\u0631\u0627\u0642", "name": "\u0645\u0631\u06ce\u0628\u0627", "name:ar": "\u0645\u0631\u064a\u0628\u0629", "name:ar1": "\u0645\u0631\u064a\u0628\u0629", "name:de": "Maraygah", "name:en": "Maraygah", "name:fr": "Maraygah", "place": "village"}}, {"type": "node", "id": 2488236232, "lat": 36.7636167, "lon": 43.5202304, "tags": {"alt_name": "\u0645\u0631\u064a\u0646\u0628\u0629", "int_name": "Maraynbah, Maraynbah", "is_in": "Iraq , \u062c\u0645\u0647\u0648\u0631\u064a\u0629 \u0627\u0644\u0639\u0631\u0627\u0642", "name": "\u0645\u0631\u064a\u0646\u0628\u0629", "name:ar": "\u0645\u0631\u064a\u0646\u0628\u0629", "name:ar1": "\u0645\u0631\u064a\u0646\u0628\u0629", "name:de": "Maraynbah", "name:en": "Maraynbah", "name:fr": "Maraynbah", "place": "village"}}, {"type": "node", "id": 2488236386, "lat": 36.7770551, "lon": 43.5525909, "tags": {"alt_name": "\u0631\u0648\u0644\u0643", "int_name": "R\u016blik, Ruw\u012bk, \u0631\u0648\u0644\u0643, Rulik, Ruwik, \u0631\u0648\u0644\u0643", "is_in": "Iraq , \u062c\u0645\u0647\u0648\u0631\u064a\u0629 \u0627\u0644\u0639\u0631\u0627\u0642", "name": "\u0631\u0648\u0644\u0643", "name:ar": "\u0631\u0648\u0644\u0643", "name:ar1": "\u0631\u0648\u0644\u0643", "name:de": "Rulik", "name:en": "Rulik", "name:fr": "Rulik", "place": "village"}}, {"type": "node", "id": 2488236400, "lat": 36.8000354, "lon": 43.7034728, "tags": {"alt_name": "\u0633\u0644\u0627\u0646", "int_name": "Sala, Sil\u0101n, Silan", "name": "\u0633\u06cc\u0644\u0627\u0646", "name:ar": "\u0633\u064a\u0644\u0627\u0646", "name:de": "Sala", "name:en": "selan", "name:fr": "Sala", "name:ku": "\u0633\u0626\u064a\u0644\u0627\u0646", "place": "village"}}, {"type": "node", "id": 2488236430, "lat": 36.8027959, "lon": 43.7263936, "tags": {"alt_name": "\u0634\u0631\u0645\u0646", "name": "\u0634\u06d5\u0631\u0645\u0646", "name:de": "Sharmn", "name:en": "Sharmn", "name:fr": "Sharmn", "place": "village"}}, {"type": "node", "id": 2488236439, "lat": 36.816667, "lon": 43.683333, "tags": {"alt_name": "\u062a\u0644 \u0623\u0633\u0645\u0627\u0648\u0629", "name": "\u062a\u0644 \u0623\u0633\u0645\u0627\u0648\u0629", "name:en": "Tall Asmawah", "place": "village"}}, {"type": "node", "id": 2488236855, "lat": 36.9116011, "lon": 43.4530353, "tags": {"alt_name": "\u0628\u064a\u0628\u062a\u0643\u064a;\u0628\u0628\u062a\u0643\u064a;\u0628\u064a\u0628\u0627\u0644\u0643\u064a;\u0628\u064a\u0628\u0627\u062a\u0643\u064a", "int_name": "Bayb\u0101lk\u012b, Baybalki;Beibatki, Beibatki;B\u0113b\u0101tki, B\u012bb\u0101tki, Bebatki, Bibatki;Bibtky, Bibtky", "is_in": "Iraq , \u062c\u0645\u0647\u0648\u0631\u064a\u0629 \u0627\u0644\u0639\u0631\u0627\u0642", "name": "\u0628\u064a\u0628\u062a\u0643\u064a", "name:ar": "\u0628\u064a\u0628\u0627\u062f", "name:de": "Bibtky", "name:en": "Bibtky", "name:fr": "Bibtky", "place": "hamlet"}}, {"type": "node", "id": 2488236885, "lat": 36.9090164, "lon": 43.7113673, "tags": {"alt_name": "\u062c\u0645\u0634\u064a\u062a\u064a", "int_name": "Chamshirit\u012b, Jamshini, Jamsh\u012bt\u012b, \u062c\u0645\u0634\u064a\u062a\u064a, Chamshiriti, Jamshini, Jamshiti, \u062c\u0645\u0634\u064a\u062a\u064a", "is_in": "Iraq , \u062c\u0645\u0647\u0648\u0631\u064a\u0629 \u0627\u0644\u0639\u0631\u0627\u0642", "name": "\u062c\u0645\u0634\u064a\u062a\u064a", "name:ar": "\u062c\u0645\u0634\u064a\u062a\u064a", "name:ar1": "\u062c\u0645\u0634\u064a\u062a\u064a", "name:de": "Chamshiriti", "name:en": "Chamshiriti", "name:fr": "Chamshiriti", "place": "village"}}, {"type": "node", "id": 2488236984, "lat": 36.8858254, "lon": 43.5559195, "tags": {"alt_name": "\u062e\u0631\u0627\u0628\u0629 \u062e\u0627\u0644\u062a\u0629", "int_name": "Khalta, Kharaba, Khar\u0101bat Kh\u0101ltah, \u062e\u0631\u0627\u0628\u0629 \u062e\u0627\u0644\u062a\u0647, Khalta, Kharaba, Kharabat Khaltah, \u062e\u0631\u0627\u0628\u0629 \u062e\u0627\u0644\u062a\u0647", "is_in": "Iraq , \u062c\u0645\u0647\u0648\u0631\u064a\u0629 \u0627\u0644\u0639\u0631\u0627\u0642", "name": "\u062e\u0631\u0627\u0628\u0629 \u062e\u0627\u0644\u062a\u0629", "name:ar": "\u062e\u0631\u0627\u0628\u0629 \u062e\u0627\u0644\u062a\u0629", "name:ar1": "\u062e\u0631\u0627\u0628\u0629 \u062e\u0627\u0644\u062a\u0629", "name:de": "Khalta", "name:en": "Khalta", "name:fr": "Khalta", "place": "village"}}, {"type": "node", "id": 2488246797, "lat": 36.689566, "lon": 43.5272685, "tags": {"alt_name": "\u062f\u0631\u064a\u0646", "int_name": "Dir\u012bn, \u062f\u0631\u064a\u0646, Dirin, \u062f\u0631\u064a\u0646", "is_in": "Iraq , \u062c\u0645\u0647\u0648\u0631\u064a\u0629 \u0627\u0644\u0639\u0631\u0627\u0642", "name": "\u062f\u0631\u06cc\u0646", "name:ar": "\u062f\u0631\u064a\u0646", "name:ar1": "\u062f\u0631\u064a\u0646", "name:de": "Dirin", "name:en": "Dirin", "name:fr": "Dirin", "place": "village"}}, {"type": "node", "id": 2488247025, "lat": 36.8794774, "lon": 43.52715, "tags": {"alt_name": "\u0645\u0648\u0633\u0649 \u0644\u0643\u0629", "int_name": "M\u016bs\u00e1 Lak\u0101, M\u016bs\u00e1 Lakah, M\u016bsalka, Musulka, Musulka, \u0645\u0648\u0633\u0649 \u0644\u0643\u0647, Musa Laka, Musa Lakah, Musalka, Musulka, Musulka, \u0645\u0648\u0633\u0649 \u0644\u0643\u0647", "is_in": "Iraq , \u062c\u0645\u0647\u0648\u0631\u064a\u0629 \u0627\u0644\u0639\u0631\u0627\u0642", "name": "\u0645\u0648\u0633\u0649 \u0644\u0643\u0629", "name:ar": "\u0645\u0648\u0633\u0649 \u0644\u0643\u0629", "name:ar1": "\u0645\u0648\u0633\u0649 \u0644\u0643\u0629", "name:de": "Musa Laka", "name:en": "Musa Laka", "name:fr": "Musa Laka", "place": "village"}}, {"type": "node", "id": 2488248088, "lat": 36.6932622, "lon": 43.8674941, "tags": {"alt_name": "\u0639\u0645\u0631 \u062e\u0648\u0634\u0629", "int_name": "Amr Kh\u016bshah, Amr Khushah", "is_in": "Iraq , \u062c\u0645\u0647\u0648\u0631\u064a\u0629 \u0627\u0644\u0639\u0631\u0627\u0642", "name": "\u0626\u0648\u0645\u06d5\u0631 \u062e\u06c6\u0634\u0627", "name:ar": "\u0639\u0645\u0631 \u062e\u0648\u0634\u0629", "name:ar1": "\u0639\u0645\u0631 \u062e\u0648\u0634\u0629", "name:ckb": "\u0626\u0648\u0645\u06d5\u0631 \u062e\u06c6\u0634\u0627", "name:de": "umar Khushah", "name:en": "umar khoshah", "name:fr": "umar Khushah", "place": "village"}}, {"type": "node", "id": 2488248091, "lat": 36.7633922, "lon": 43.7529075, "tags": {"alt_name": "\u0628\u0646\u064a\u0627\u062a\u0629", "int_name": "Ban\u0101tah, Biny\u0101tah, Niata, \u0628\u0646\u064a\u0627\u062a\u0629, Banatah, Binyatah, Niata, \u0628\u0646\u064a\u0627\u062a\u0629", "is_in": "Iraq , \u062c\u0645\u0647\u0648\u0631\u064a\u0629 \u0627\u0644\u0639\u0631\u0627\u0642", "name": "\u0628\u06ce\u0646\u0627\u062a\u0627", "name:ar": "\u0628\u0646\u064a\u0627\u062a\u0629", "name:ar1": "\u0628\u0646\u064a\u0627\u062a\u0629", "name:de": "Banatah", "name:en": "Banatah", "name:fr": "Banatah", "place": "village"}}, {"type": "node", "id": 2488248103, "lat": 36.6920867, "lon": 43.6123847, "tags": {"name": "\u06af\u0631\u06af\u06c6\u0631\u0627\u0646", "place": "village"}}, {"type": "node", "id": 2488248116, "lat": 36.8837817, "lon": 43.5882587, "tags": {"alt_name": "\u062e\u0628\u0629 \u0627\u0644\u0643\u0628\u0631\u0649", "int_name": "Khiba, Khibat al Kubr\u00e1, \u062e\u0628\u0629 \u0627\u0644\u0643\u0628\u0631\u0649, Khiba, Khibat al Kubra, \u062e\u0628\u0629 \u0627\u0644\u0643\u0628\u0631\u0649", "is_in": "Iraq , \u062c\u0645\u0647\u0648\u0631\u064a\u0629 \u0627\u0644\u0639\u0631\u0627\u0642", "name": "\u062e\u0628\u0629 \u0627\u0644\u0643\u0628\u0631\u0649", "name:ar": "\u062e\u0628\u0629 \u0627\u0644\u0643\u0628\u0631\u0649", "name:ar1": "\u062e\u0628\u0629 \u0627\u0644\u0643\u0628\u0631\u0649", "name:de": "Khiba", "name:en": "Khiba", "name:fr": "Khiba", "place": "village"}}, {"type": "node", "id": 2488248117, "lat": 36.6854901, "lon": 43.6232319, "tags": {"alt_name": "\u062e\u0644\u064a\u0643\u0627\u0646", "int_name": "Khil\u012bk\u0101n, Khlikan, Khl\u012blk\u0101n, \u062e\u0644\u064a\u0643\u0627\u0646, Khilikan, Khlikan, Khlilkan, \u062e\u0644\u064a\u0643\u0627\u0646", "is_in": "Iraq , \u062c\u0645\u0647\u0648\u0631\u064a\u0629 \u0627\u0644\u0639\u0631\u0627\u0642", "name": "\u062e\u0644\u064a\u0643\u0627\u0646", "name:ar": "\u062e\u0644\u064a\u0644\u0643\u0627\u0646", "name:ar1": "\u062e\u0644\u064a\u0643\u0627\u0646", "name:de": "Khilikan", "name:en": "Khilikan", "name:fr": "Khilikan", "place": "village"}}, {"type": "node", "id": 2488248119, "lat": 36.7266338, "lon": 43.8629073, "tags": {"name": "\u0626\u0627\u0644\u06d5\u06cc\u06ce", "place": "village"}}, {"type": "node", "id": 2488248121, "lat": 36.683126, "lon": 43.7607942, "tags": {"admin_level": "9", "alt_name": "\u0645\u0627\u0645\u0644\u064a\u0627\u0646", "name": "\u062e\u06d5\u0631\u0627\u0628\u06d5 \u0698\u06ce\u0631\u06cc", "name:ar": "\u0645\u0627\u0645\u0644\u064a\u0627\u0646", "name:ckb": "\u062e\u06d5\u0631\u0627\u0628\u06d5 \u0698\u06ce\u0631\u06cc", "name:de": "Xaraba Zheri", "name:en": "Xaraba Zheri", "name:fr": "Xaraba Zheri", "place": "village"}}, {"type": "node", "id": 2488248124, "lat": 36.7585976, "lon": 43.8195994, "tags": {"alt_name": "\u0633\u0648\u0633\u0646\u0627\u0648\u0629", "int_name": "Musawa, S\u016bsn\u0101wa, S\u016bsn\u0101wah, \u0633\u0648\u0633\u0646\u0627\u0648\u0629, \u0633\u0648\u0633\u0646\u0627\u0648\u0647, Musawa, Susnawa, Susnawah, \u0633\u0648\u0633\u0646\u0627\u0648\u0629, \u0633\u0648\u0633\u0646\u0627\u0648\u0647", "is_in": "Iraq , \u062c\u0645\u0647\u0648\u0631\u064a\u0629 \u0627\u0644\u0639\u0631\u0627\u0642", "name": "\u0633\u0648\u0633\u0646\u0627\u0648\u0627", "name:ar": "\u0633\u0648\u0633\u0646\u0627", "name:ar1": "\u0633\u0648\u0633\u0646\u0627\u0648\u0629", "name:de": "Musawa", "name:en": "sosna", "name:fr": "Musawa", "name:ku": "\u0633\u0648\u0633\u0646\u0627", "place": "village"}}, {"type": "node", "id": 2488248130, "lat": 36.7722475, "lon": 43.8518894, "tags": {"is_in": "Iraq , \u062c\u0645\u0647\u0648\u0631\u064a\u0629 \u0627\u0644\u0639\u0631\u0627\u0642", "name": "\u0633\u06d5\u0631 \u06a9\u0627\u0646\u06cc", "name:ar": "\u0631\u0623\u0633 \u0627\u0644\u0639\u064a\u0646", "place": "village"}}, {"type": "node", "id": 2488248132, "lat": 36.8696532, "lon": 43.6171672, "tags": {"alt_name": "\u0631\u0628\u0627\u062a\u064a", "int_name": "Rib\u0101te, Ribate", "is_in": "Iraq , \u062c\u0645\u0647\u0648\u0631\u064a\u0629 \u0627\u0644\u0639\u0631\u0627\u0642", "name": "\u0631\u0628\u0627\u062a\u064a", "name:ar": "\u0631\u0628\u0627\u062a\u064a", "name:ar1": "\u0631\u0628\u0627\u062a\u064a", "name:de": "Ribate", "name:en": "Ribate", "name:fr": "Ribate", "place": "village"}}, {"type": "node", "id": 2488248141, "lat": 36.7762111, "lon": 43.8495422, "tags": {"alt_name": "\u0633\u0631\u062c\u0627\u0648\u0629", "int_name": "Sarchawa, Sarchawa", "is_in": "Iraq , \u062c\u0645\u0647\u0648\u0631\u064a\u0629 \u0627\u0644\u0639\u0631\u0627\u0642", "name": "\u0633\u06d5\u0631\u0686\u0627\u0648\u06d5", "name:ar": "\u0633\u0631\u062c\u0627\u0648\u0629", "name:ar1": "\u0633\u0631\u062c\u0627\u0648\u0629", "name:de": "Sarchawa", "name:en": "Sarchawa", "name:fr": "Sarchawa", "place": "village"}}, {"type": "node", "id": 2488248162, "lat": 36.7334706, "lon": 43.8500805, "tags": {"alt_name": "\u0632\u0646\u062a\u0629 \u062c\u0648\u0644\u0629", "int_name": "Zintah Ch\u016blah, Zintah Chulah", "is_in": "Iraq , \u062c\u0645\u0647\u0648\u0631\u064a\u0629 \u0627\u0644\u0639\u0631\u0627\u0642", "name": "\u0632\u0646\u062a\u0627", "name:ar": "\u0645\u0644\u0627 \u0641\u0631\u0632\u0648", "name:ar1": "\u0632\u0646\u062a\u0629 \u062c\u0648\u0644\u0629", "name:de": "Zintah Chulah", "name:en": "molla farzo", "name:fr": "Zintah Chulah", "place": "village"}}, {"type": "node", "id": 2488259187, "lat": 36.8201878, "lon": 43.9306937, "tags": {"alt_name": "\u0623\u0634\u0643\u0641\u062a\u0629", "int_name": "Ashkafta, Ashkifta, \u0626\u06d5\u0634\u06a9\u06d5\u0641\u062a\u06d5", "name": "\u0626\u06d5\u0634\u06a9\u06d5\u0641\u062a\u06d5", "name:de": "Ashkafta", "name:en": "Ashkafta", "name:fr": "Ashkafta", "place": "village"}}, {"type": "node", "id": 2488259243, "lat": 36.6395996, "lon": 43.984844, "tags": {"name": "\u0628\u0642\u0631\u064a", "name:ar": "\u0628\u0642\u0631\u064a", "name:de": "Baqry", "name:en": "Baqry", "name:fr": "Baqry", "place": "village"}}, {"type": "node", "id": 2488259271, "lat": 36.6632836, "lon": 43.978939, "tags": {"alt_name": "\u0628\u0627\u0631\u0627\u0648\u0629", "int_name": "Barawa, B\u0101r\u0101wah, \u0628\u0627\u0631\u0627\u0648\u0629, Barawa, Barawah, \u0628\u0627\u0631\u0627\u0648\u0629", "is_in": "Iraq , \u062c\u0645\u0647\u0648\u0631\u064a\u0629 \u0627\u0644\u0639\u0631\u0627\u0642", "name": "\u0628\u0627\u0631\u0627\u0648\u06d5", "name:ar": "\u0628\u0627\u0631\u0627\u0648\u0629", "name:ckb": "\u0628\u0627\u0631\u0627\u0648\u06d5", "name:de": "Barawa", "name:en": "Barawa", "name:fr": "Barawa", "place": "village"}}, {"type": "node", "id": 2488259318, "lat": 36.8920055, "lon": 43.9583423, "tags": {"alt_name": "\u0628\u0627\u0632\u064a \u0642\u0631\u0646", "int_name": "Bari Qarn, B\u0101zah Qarnah, B\u0101z\u012b Qarn, \u0628\u0627\u0632\u064a \u0642\u0631\u0646, Bari Qarn, Bazah Qarnah, Bazi Qarn, \u0628\u0627\u0632\u064a \u0642\u0631\u0646", "is_in": "Iraq , \u062c\u0645\u0647\u0648\u0631\u064a\u0629 \u0627\u0644\u0639\u0631\u0627\u0642", "name": "\u0628\u0627\u0632\u06ce \u0642\u0631\u0646\u06d5", "name:ar": "\u0628\u0627\u0632\u064a \u0642\u0631\u0646", "name:ar1": "\u0628\u0627\u0632\u064a \u0642\u0631\u0646", "name:de": "Bari Qarn", "name:en": "Bari Qarn", "name:fr": "Bari Qarn", "place": "village"}}, {"type": "node", "id": 2488259329, "lat": 36.6393371, "lon": 43.9849454, "tags": {"name": "\u0628\u0627\u0641\u0632\u064a", "name:ar": "\u0628\u0627\u0641\u0632\u064a", "name:de": "Bavzi", "name:en": "Bavzi", "name:fr": "Bavzi", "place": "village"}}, {"type": "node", "id": 2488259480, "lat": 36.5725309, "lon": 43.9740954, "tags": {"alt_name": "\u062c\u0645\u0643\u0629 \u0643\u0648\u0631\u0629", "int_name": "Chamga Gawra, Chimga Gawra, Jamka Gora, Jamka Kutchka, Jamkah Gawrah, Jamkah K\u012brah, \u062c\u0645\u0643\u0647 \u06af\u0648\u0631\u0647, Chamga Gawra, Chimga Gawra, Jamka Gora, Jamka Kutchka, Jamkah Gawrah, Jamkah Kirah, \u062c\u0645\u0643\u0647 \u06af\u0648\u0631\u0647", "is_in": "Iraq , \u062c\u0645\u0647\u0648\u0631\u064a\u0629 \u0627\u0644\u0639\u0631\u0627\u0642", "name": "\u0686\u06d5\u0645\u06d5\u06a9\u06d5\u06cc \u062e\u0648\u0627\u0631\u0648\u0648", "name:ar1": "\u062c\u0645\u0643\u0629 \u0643\u0648\u0631\u0629", "name:en": "Chamaka Lower", "place": "village"}}, {"type": "node", "id": 2488259501, "lat": 36.6735214, "lon": 43.9147738, "tags": {"alt_name": "\u0648\u0631\u0645\u0644\u0629", "int_name": "Warmala, Warmilah, \u0648\u0631\u0645\u0644\u0647, Darmila, Drmila, Warmala, Warmilah, \u0648\u0631\u0645\u0644\u0647", "is_in": "Iraq , \u062c\u0645\u0647\u0648\u0631\u064a\u0629 \u0627\u0644\u0639\u0631\u0627\u0642", "name": "\u0648\u06d5\u0631\u0645\u0644\u0627\u0646", "name:ar": "\u0648\u0631\u0645\u0644\u0629", "name:ar1": "\u0648\u0631\u0645\u0644\u0629", "name:de": "Warmila", "name:en": "Warmila", "name:fr": "Warmila", "place": "village"}}, {"type": "node", "id": 2488259513, "lat": 36.7986354, "lon": 43.986556, "tags": {"alt_name": "\u062f\u06cc\u0646\u0627\u0631\u062a\u06d5", "capital": "7", "name": "\u062f\u06cc\u0646\u0627\u0631\u062a\u06d5", "name:ar": "\u062f\u064a\u0646\u0627\u0631\u062a\u0629", "name:ckb": "\u062f\u06cc\u0646\u0627\u0631\u062a\u06d5", "name:de": "Dinarta", "name:en": "Dinarta", "name:fr": "Dinarta", "name:ku": "D\u00eenarte", "place": "town"}}, {"type": "node", "id": 2488259524, "lat": 36.7825333, "lon": 43.9743631, "tags": {"alt_name": "\u0648\u0627\u062f\u064a \u062f\u064a\u0646\u0627\u0631\u062a\u0629", "int_name": "D\u014dl i D\u012bn\u0101rta, W\u0101d\u012b D\u012bn\u0101rtah, \u0648\u0627\u062f\u064a \u062f\u064a\u0646\u0627\u0631\u062a\u0629, \u0648\u0627\u062f\u064a \u062f\u064a\u0646\u0627\u0631\u062a\u0647, Dol i Dinarta, Wadi Dinartah, \u0648\u0627\u062f\u064a \u062f\u064a\u0646\u0627\u0631\u062a\u0629, \u0648\u0627\u062f\u064a \u062f\u064a\u0646\u0627\u0631\u062a\u0647", "is_in": "Iraq , \u062c\u0645\u0647\u0648\u0631\u064a\u0629 \u0627\u0644\u0639\u0631\u0627\u0642", "name": "\u0633\u06d5\u0631\u06af\u06d5\u0644\u06cc", "name:ar": "\u0633\u0631\u0643\u0644\u064a", "name:ar1": "\u0648\u0627\u062f\u064a \u062f\u064a\u0646\u0627\u0631\u062a\u0629", "name:de": "Sar Gali", "name:en": "Sar Gali", "name:fr": "Sar Gali", "place": "village"}}, {"type": "node", "id": 2488259631, "lat": 36.609244, "lon": 43.963624, "tags": {"name": "\u06af\u0648\u0645\u06a9\u06ce", "name:ar": "\u0643\u0631\u0645\u0643\u0629", "name:de": "Girdimka", "name:en": "Girdimka", "name:fr": "Girdimka", "place": "village"}}, {"type": "node", "id": 2488259632, "lat": 36.6291229, "lon": 43.9247884, "tags": {"alt_name": "\u0643\u0631\u0643\u0627\u0646", "int_name": "kurka", "is_in": "Iraq , \u062c\u0645\u0647\u0648\u0631\u064a\u0629 \u0627\u0644\u0639\u0631\u0627\u0642", "name:ar": "\u0643\u0648\u0631\u0643\u0627 \u0634\u06cc\u062e", "name:de": "Girkan", "name:en": "Kurka Sheikh", "name:fr": "Girkan", "name:ku": "\u0643\u0648\u0631\u0643\u0627 \u0634\u06ce\u062e", "place": "village"}}, {"type": "node", "id": 2488259663, "lat": 36.7753116, "lon": 43.9523855, "tags": {"int_name": "Gusk\u0113, Kosky, K\u016bsk\u012b, \u0643\u0648\u0633\u0643\u064a, Guske, Kuski, Kusky, \u06af\u0648\u06cc\u0633\u06a9\u06ce", "is_in": "Iraq , \u062c\u0645\u0647\u0648\u0631\u064a\u0629 \u0627\u0644\u0639\u0631\u0627\u0642", "name": "\u06af\u0648\u06cc\u0633\u06a9\u06ce", "name:ar": "\u0643\u0648\u0633\u0643\u064a", "name:ckb": "\u06af\u0648\u06cc\u0633\u06a9\u06ce", "name:de": "Guske", "name:en": "Gwiske", "name:fr": "Guske", "place": "village"}}, {"type": "node", "id": 2488259762, "lat": 36.6590345, "lon": 43.9432746, "tags": {"alt_name": "\u0647\u0644\u064a\u0646", "int_name": "Hil\u012bn, \u0647\u0644\u064a\u0646, Hilin, \u0647\u0644\u064a\u0646", "is_in": "Iraq , \u062c\u0645\u0647\u0648\u0631\u064a\u0629 \u0627\u0644\u0639\u0631\u0627\u0642", "name": "\u062e\u06d5\u0644\u06cc\u0646", "name:ar": "\u062e\u06d5\u0644\u06cc\u0646", "name:ar1": "\u0647\u0644\u064a\u0646", "name:de": "Khalin", "name:en": "Hilin", "name:fr": "Khalin", "place": "village"}}, {"type": "node", "id": 2488259840, "lat": 36.5857473, "lon": 43.9888996, "tags": {"int_name": "Jimka Zori, Jimkah Z\u016br\u00e1, \u062c\u0645\u0643\u0647 \u0632\u0648\u0631\u0649, Jimka Zori, Jimkah Zura, \u062c\u0645\u0643\u0647 \u0632\u0648\u0631\u0649", "name": "\u0686\u06d5\u0645\u06d5\u06a9\u06d5\u06cc \u0698\u0648\u0648\u0631\u06cc", "name:en": "Chamaka Upper", "place": "village"}}, {"type": "node", "id": 2488259841, "lat": 36.576698, "lon": 43.9645315, "tags": {"alt_name": "\u062c\u0648\u0628\u0631\u0629", "int_name": "Jobira, J\u016bbirah, Jubra, \u062c\u0648\u0628\u0631\u0647, Jobira, Jubirah, Jubra, \u062c\u0648\u0628\u0631\u0647", "name": "\u062c\u0648\u0644\u06ce\u0631\u06d5", "name:ar": "\u062c\u06c6\u0644\u06ce\u0631\u06d5", "name:de": "Jolera", "name:en": "Jolera", "name:fr": "Jolera", "place": "village"}}, {"type": "node", "id": 2488259939, "lat": 36.6574554, "lon": 43.9129734, "tags": {"alt_name": "\u0643\u0634\u0643\u0629", "is_in": "Iraq , \u062c\u0645\u0647\u0648\u0631\u064a\u0629 \u0627\u0644\u0639\u0631\u0627\u0642", "name": "\u06af\u06d5\u0634\u06a9\u0627 \u0698\u0648\u0648\u0631\u06cc", "name:ar": "\u06af\u06d5\u0634\u06a9\u0627 \u0698\u0648\u0648\u0631\u06cc", "name:ar1": "\u0643\u0634\u0643\u0629", "name:de": "Gashka Upper", "name:en": "Gashka Upper", "name:fr": "Gashka Upper", "place": "village"}}, {"type": "node", "id": 2488260052, "lat": 36.803035, "lon": 43.970498, "tags": {"name": "\u0645\u06d5\u0632\u0631\u06cc\u0646\u06af\u0627\u0646", "place": "village"}}, {"type": "node", "id": 2488260207, "lat": 36.7006757, "lon": 43.9053658, "tags": {"alt_name": "\u0633\u0645\u064a\u0644", "int_name": "Sam\u012bl, Sam\u012blah, Sumel, Sum\u012bl, \u0633\u0645\u064a\u0644, Samil, Samilah, Sumel, Sumil, \u0633\u0645\u064a\u0644", "is_in": "Iraq , \u062c\u0645\u0647\u0648\u0631\u064a\u0629 \u0627\u0644\u0639\u0631\u0627\u0642", "name": "\u0633\u0645\u06cc\u0644\u0627\u0646", "name:ar": "\u0633\u0645\u06cc\u0644\u0627\u0646", "name:ar1": "\u0633\u0645\u064a\u0644", "name:de": "Smilan", "name:en": "Smilan", "name:fr": "Smilan", "place": "village"}}, {"type": "node", "id": 2488260219, "lat": 36.7510408, "lon": 43.8926182, "tags": {"alt_name": "\u0633\u0627\u0631\u0645\u0629 \u0627\u0644\u0633\u0641\u0644\u0649", "int_name": "Sarma, S\u0101rmat as Sufl\u00e1, \u0633\u0627\u0631\u0645\u0647 \u0627\u0644\u0633\u0641\u0644\u0649, Sarma, Sarmat as Sufla, \u0633\u0627\u0631\u0645\u0647 \u0627\u0644\u0633\u0641\u0644\u0649", "name:ku": "\u0633\u0627\u0631\u0645\u0627\u06cc \u062e\u0648\u0627\u0631\u0648\u0648", "place": "village"}}, {"type": "node", "id": 2488260224, "lat": 36.7456415, "lon": 43.8871765, "tags": {"name": "\u0633\u0631\u064a\u0646", "name:de": "Saryan", "name:en": "Saryan", "name:fr": "Saryan", "place": "village"}}, {"type": "node", "id": 2488260246, "lat": 36.802848, "lon": 43.9099235, "tags": {"alt_name": "\u0634\u0631\u062a\u0627\u0646", "int_name": "Shartan, Shirt\u0101n, \u0634\u0631\u062a\u0627\u0646, Shartan, Shirtan, \u0634\u0631\u062a\u0627\u0646", "is_in": "Iraq , \u062c\u0645\u0647\u0648\u0631\u064a\u0629 \u0627\u0644\u0639\u0631\u0627\u0642", "name": "\u0634\u0631\u062a\u0627\u0646", "name:ar": "\u0634\u0631\u062a\u0627\u0646", "name:ar1": "\u0634\u0631\u062a\u0627\u0646", "name:de": "Shartan", "name:en": "Shartan", "name:fr": "Shartan", "place": "village"}}, {"type": "node", "id": 2488260259, "lat": 36.6894292, "lon": 43.9139432, "tags": {"alt_name": "\u0634\u064a\u0641 \u0631\u0632\u0629", "int_name": "Sh\u012bf Razah, Shifraza, \u0634\u064a\u0641 \u0631\u0632\u0647, Shif Razah, Shifraza, \u0634\u064a\u0641 \u0631\u0632\u0647", "is_in": "Iraq , \u062c\u0645\u0647\u0648\u0631\u064a\u0629 \u0627\u0644\u0639\u0631\u0627\u0642", "name": "\u0634\u06cc\u06a4 \u0631\u06d5\u0632\u0627\u0646", "name:ar": "\u0634\u06cc\u06a4 \u0631\u06d5\u0632\u0627\u0646", "name:ar1": "\u0634\u064a\u0641 \u0631\u0632\u0629", "name:de": "Shiv Razan", "name:en": "Shiv Razan", "name:fr": "Shiv Razan", "place": "village"}}, {"type": "node", "id": 2488260262, "lat": 36.941119, "lon": 43.926952, "tags": {"alt_name": "\u0634\u064a\u0646\u064a", "int_name": "Sh\u012bn\u012b, \u0634\u064a\u0646\u064a, Shini, \u0634\u064a\u0646\u064a", "is_in": "Iraq , \u062c\u0645\u0647\u0648\u0631\u064a\u0629 \u0627\u0644\u0639\u0631\u0627\u0642", "name": "\u0634\u064a\u0646\u064a", "name:ar": "\u0634\u064a\u0646\u064a", "name:de": "Shini", "name:en": "Shini", "name:fr": "Shini", "place": "hamlet"}}, {"type": "node", "id": 2488260563, "lat": 36.5922834, "lon": 43.9679899, "tags": {"alt_name": "\u0632\u064a\u0631\u0627\u0648", "int_name": "Zar\u0101wah, Zir\u0101w, Zirawa, Z\u012br\u0101wa, \u0632\u064a\u0631\u0627\u0648, Zarawah, Ziraw, Zirawa, Zirawa, \u0632\u064a\u0631\u0627\u0648", "name": "\u0632\u06ce\u0631\u0627\u06a4", "name:ar": "\u0632\u06ce\u0631\u0627\u06a4", "name:de": "Zerav", "name:en": "Zerav", "name:fr": "Zerav", "place": "village"}}, {"type": "node", "id": 2488260614, "lat": 36.9502009, "lon": 43.9850564, "tags": {"alt_name": "\u0647\u0645\u062f\u0648\u0644\u0629", "name": "\u06be\u06d5\u0645\u062f\u06b5\u0627", "name:ar": "\u0647\u0645\u062f\u0644\u0627", "name:ckb": "\u06be\u06d5\u0645\u062f\u06b5\u0627", "name:de": "Hamdla", "name:en": "Hamdlla", "name:fr": "Hamdlla", "name:ku": "Hemdilla", "place": "village", "wikipedia": "ckb: \u06be\u06d5\u0645\u062f\u06b5\u0627"}}, {"type": "node", "id": 3022083101, "lat": 36.525702, "lon": 43.9266313}, {"type": "node", "id": 3022083105, "lat": 36.5258857, "lon": 43.9275791}, {"type": "node", "id": 3022083107, "lat": 36.5260421, "lon": 43.9281546}, {"type": "node", "id": 3022083110, "lat": 36.5260897, "lon": 43.926352}, {"type": "node", "id": 3022083112, "lat": 36.5261373, "lon": 43.9270375}, {"type": "node", "id": 3022083122, "lat": 36.5264569, "lon": 43.9277653}, {"type": "node", "id": 3022083128, "lat": 36.5265997, "lon": 43.925785}, {"type": "node", "id": 3022083134, "lat": 36.5268446, "lon": 43.9243208}, {"type": "node", "id": 3022083136, "lat": 36.526933, "lon": 43.9273422}, {"type": "node", "id": 3022083145, "lat": 36.5271506, "lon": 43.9274183}, {"type": "node", "id": 3022083149, "lat": 36.527273, "lon": 43.9266059}, {"type": "node", "id": 3022083150, "lat": 36.5272798, "lon": 43.9228737}, {"type": "node", "id": 3022083152, "lat": 36.5273138, "lon": 43.9246086}, {"type": "node", "id": 3022083153, "lat": 36.5273682, "lon": 43.9267836}, {"type": "node", "id": 3022083158, "lat": 36.5274702, "lon": 43.9259965}, {"type": "node", "id": 3022083160, "lat": 36.5275518, "lon": 43.9222728}, {"type": "node", "id": 3022083170, "lat": 36.5278647, "lon": 43.9253195}, {"type": "node", "id": 3022083197, "lat": 36.5286264, "lon": 43.924744}, {"type": "node", "id": 3022083200, "lat": 36.5287692, "lon": 43.9223405}, {"type": "node", "id": 3022083211, "lat": 36.529218, "lon": 43.9244309}, {"type": "node", "id": 3022083215, "lat": 36.52949, "lon": 43.9240162}, {"type": "node", "id": 3022083221, "lat": 36.5296872, "lon": 43.9232206}, {"type": "node", "id": 3022083222, "lat": 36.5297212, "lon": 43.9218835}, {"type": "node", "id": 3022083226, "lat": 36.5298573, "lon": 43.922332}, {"type": "node", "id": 3022083227, "lat": 36.5299117, "lon": 43.9220697}, {"type": "node", "id": 3025093368, "lat": 36.5834158, "lon": 43.4488259}, {"type": "node", "id": 3025093379, "lat": 36.5845631, "lon": 43.4531315}, {"type": "node", "id": 3025093392, "lat": 36.5859044, "lon": 43.4482544}, {"type": "node", "id": 3025093778, "lat": 36.5826848, "lon": 43.4525851}, {"type": "node", "id": 3025093781, "lat": 36.5861099, "lon": 43.4497525}, {"type": "node", "id": 3076956865, "lat": 36.8107395, "lon": 43.8903832}, {"type": "node", "id": 3076956866, "lat": 36.8104817, "lon": 43.8902491}, {"type": "node", "id": 3076956867, "lat": 36.8097516, "lon": 43.8916706}, {"type": "node", "id": 3076956868, "lat": 36.8096185, "lon": 43.8925075}, {"type": "node", "id": 3076956870, "lat": 36.8104903, "lon": 43.8927381}, {"type": "node", "id": 3076956871, "lat": 36.8108468, "lon": 43.8907855}, {"type": "node", "id": 3076961659, "lat": 36.8185292, "lon": 43.9284528}, {"type": "node", "id": 3076961660, "lat": 36.8223365, "lon": 43.9292031}, {"type": "node", "id": 3076961661, "lat": 36.8202069, "lon": 43.9323647}, {"type": "node", "id": 3076961662, "lat": 36.8175156, "lon": 43.9300975}, {"type": "node", "id": 3124474944, "lat": 36.5642206, "lon": 43.4942116}, {"type": "node", "id": 3124474945, "lat": 36.5596533, "lon": 43.4971997}, {"type": "node", "id": 3124474946, "lat": 36.5587028, "lon": 43.4967667}, {"type": "node", "id": 3124474947, "lat": 36.5594009, "lon": 43.4925395}, {"type": "node", "id": 3124474948, "lat": 36.5619561, "lon": 43.490222}, {"type": "node", "id": 3124482150, "lat": 36.5956996, "lon": 43.477632}, {"type": "node", "id": 3124482151, "lat": 36.5948528, "lon": 43.4787383}, {"type": "node", "id": 3124482152, "lat": 36.591063, "lon": 43.4807895}, {"type": "node", "id": 3124482153, "lat": 36.5906023, "lon": 43.4806179}, {"type": "node", "id": 3124482154, "lat": 36.5907273, "lon": 43.4829951}, {"type": "node", "id": 3124482155, "lat": 36.5929255, "lon": 43.4823096}, {"type": "node", "id": 3124482156, "lat": 36.5929214, "lon": 43.4828631}, {"type": "node", "id": 3124482157, "lat": 36.5945148, "lon": 43.4814191}, {"type": "node", "id": 3124482158, "lat": 36.59585, "lon": 43.4811401}, {"type": "node", "id": 3147107896, "lat": 36.540915, "lon": 43.5047841}, {"type": "node", "id": 3147107897, "lat": 36.5416081, "lon": 43.507359}, {"type": "node", "id": 3147107898, "lat": 36.543335, "lon": 43.5059023}, {"type": "node", "id": 3147107899, "lat": 36.5426375, "lon": 43.5048809}, {"type": "node", "id": 3147107900, "lat": 36.5424043, "lon": 43.5037704}, {"type": "node", "id": 3163720845, "lat": 36.5865347, "lon": 43.9428502}, {"type": "node", "id": 3163720846, "lat": 36.5815979, "lon": 43.940963}, {"type": "node", "id": 3163720847, "lat": 36.5800127, "lon": 43.9449748}, {"type": "node", "id": 3163720848, "lat": 36.5793284, "lon": 43.9462246}, {"type": "node", "id": 3163720849, "lat": 36.5809641, "lon": 43.9485553}, {"type": "node", "id": 3163720850, "lat": 36.5835935, "lon": 43.9471845}, {"type": "node", "id": 3177170327, "lat": 36.6253801, "lon": 43.5434502}, {"type": "node", "id": 3177170328, "lat": 36.6250424, "lon": 43.5434964}, {"type": "node", "id": 4532549693, "lat": 36.593772, "lon": 43.4797261}, {"type": "node", "id": 4677304061, "lat": 36.8705296, "lon": 43.784825}, {"type": "node", "id": 4779993129, "lat": 36.6998278, "lon": 43.6007207, "tags": {"addr:city": "\u062f\u0647\u06c6\u06a9", "name": "\u0642\u06d5\u0633\u0631\u06c6\u06a9", "name:ar": "\u0642\u0633\u0631\u0648\u06a9", "name:ckb": "\u0642\u06d5\u0633\u0631\u06c6\u06a9", "name:ku": "Qesrok", "name:tr": "Kasrok", "place": "town"}}, {"type": "node", "id": 4779993222, "lat": 36.8056327, "lon": 43.5118711, "tags": {"name": "Malkeshan", "name:ckb": "\u0645\u0644\u06a9\u06cc\u0634\u0627\u0646", "place": "village"}}, {"type": "node", "id": 4779993224, "lat": 36.7783591, "lon": 43.5583218, "tags": {"name": "\u06a9\u06d5\u06a4\u0631\u06d5 \u0633\u0648\u0631", "name:ckb": "\u06a9\u06d5\u06a4\u0631\u06d5 \u0633\u06c6\u0631", "place": "village"}}, {"type": "node", "id": 4812261428, "lat": 36.6966487, "lon": 43.5168047, "tags": {"internet_access": "wlan", "name": "\u06af\u0631\u0645\u06cc\u0634\u0627\u0646", "name:en": "Garmishan", "place": "village"}}, {"type": "node", "id": 5074449422, "lat": 36.5292702, "lon": 43.6986766, "tags": {"name": "\u06af\u0631\u0628\u062f\u06d5\u0648\u06cc \u0646\u0648\u06ce", "name:en": "GirBadu New", "name:ku": "\u06af\u0631\u0628\u062f\u06d5\u0648\u06cc \u0646\u0648\u06ce", "place": "village"}}, {"type": "node", "id": 5182142246, "lat": 36.744261, "lon": 43.8574078, "tags": {"name": "\u062e\u0631\u067e\u06ce", "place": "village"}}, {"type": "node", "id": 5234886366, "lat": 36.7081438, "lon": 43.7664304, "tags": {"admin_level": "9", "name": "\u062e\u06d5\u0631\u0627\u0628\u06d5 \u0698\u06c6\u0631\u06cc", "place": "village"}}, {"type": "node", "id": 5234933022, "lat": 36.7189268, "lon": 43.7397907, "tags": {"admin_level": "9", "name": "\u062a\u0644\u0628\u0648\u0648\u06a9", "name:ckb": "\u062a\u0644\u0628\u0648\u0648\u06a9", "place": "village"}}, {"type": "node", "id": 5383806007, "lat": 36.7400456, "lon": 43.7298842, "tags": {"name": "\u06af\u0648\u0631\u0627\u0646\u06a9 \u06a9\u0627\u0645\u06cc\u0644", "name:ckb": "\u06af\u06c6\u0631\u0627\u0646\u06a9 \u06a9\u0627\u0645\u06cc\u0644", "place": "village"}}, {"type": "node", "id": 5383806192, "lat": 36.7417527, "lon": 43.6783015, "tags": {"name": "\u0645\u0627\u0645 \u062f\u0627\u0648\u062f\u0627\u0646 \u0698\u06ce\u0631\u06cc", "place": "village"}}, {"type": "node", "id": 5383806197, "lat": 36.7411418, "lon": 43.6998512, "tags": {"addr:city": "\u0646\u06cc\u0627\u0648\u0648\u06a9\u06ce", "addr:postcode": "42002", "addr:street": "\u0646\u06cc\u0627\u0648\u0648\u06a9\u06ce", "amenity": "village", "cuisine": "people;person;boy;girl;animal", "email": "nihadmekaeel@gmail.com", "fixme": "\u0646\u06cc\u0627\u0648\u0648\u06a9\u06ce", "internet_access": "wlan", "name": "\u0646\u06cc\u0627\u0648\u0648\u06a9\u06ce", "name:en": "\u0646\u06cc\u0627\u0648\u0648\u06a9\u06ce", "name:ku": "\u0646\u06cc\u0627\u0648\u0648\u06a9\u06ce", "opening_hours": "Mo-Su 09:00-21:00", "operator": "nihad", "phone": "07504043660", "place": "village", "website": "https://www.facebook.com/profile.php?id=100007172616778"}}, {"type": "node", "id": 5383806242, "lat": 36.6942113, "lon": 43.6839655, "tags": {"name": "\u0633\u0627\u0644\u06d5\u06cc\u06ce", "name:en": "Salaye", "place": "village"}}, {"type": "node", "id": 5383806249, "lat": 36.6811703, "lon": 43.7039899, "tags": {"name": "\u06a9\u06ce\u0644\u06ce", "name:ar": "kele", "name:ckb": "\u06a9\u06ce\u0644\u06ce", "name:en": "kele", "place": "village"}}, {"type": "node", "id": 5383806393, "lat": 36.6331866, "lon": 43.6047983, "tags": {"name": "\u06a9\u06d5\u0646\u062f\u0627\u0644\u06d5 \u0633\u0648\u0631", "place": "village"}}, {"type": "node", "id": 5383806399, "lat": 36.6307088, "lon": 43.624446, "tags": {"name": "\u06af\u0631\u0628\u06d5\u0648\u06ce\u0644 \u0645\u06d5\u0632\u0646", "place": "village"}}, {"type": "node", "id": 5383806448, "lat": 36.594309, "lon": 43.5476885, "tags": {"name": "\u06af\u0631\u06ce\u06a9\u0627", "name:ar": "\u06af\u0631\u06a9\u062c\u0648", "name:ckb": "Griga", "name:en": "girkaj\u00fb", "name:ku": "\u0643\u0631\u0643\u062c\u0648", "place": "village"}}, {"type": "node", "id": 5383806498, "lat": 36.6021974, "lon": 43.5013061, "tags": {"name": "\u06af\u06cc\u0631\u06cc", "name:ckb": "\u06af\u06cc\u0631\u06cc", "place": "village"}}, {"type": "node", "id": 5583563721, "lat": 36.7314342, "lon": 43.9743881, "tags": {"name": "\u0632\u06d5\u0646\u062a\u06ce", "place": "village"}}, {"type": "node", "id": 5627231321, "lat": 36.5346041, "lon": 43.5975962, "tags": {"name": "\u06af\u0631\u062f\u06cc \u0626\u0627\u0645\u06cc\u0627\u0646", "place": "village"}}, {"type": "node", "id": 5688396284, "lat": 36.6370394, "lon": 43.6933403, "tags": {"name": "\u0639\u06d5\u0644\u06cc \u0634\u0627\u0646\u06d5", "place": "village"}}, {"type": "node", "id": 5933154288, "lat": 36.7194712, "lon": 43.6714308, "tags": {"name": "\u06a9\u0648\u0634\u06a9", "name:en": "Kushik", "place": "village"}}, {"type": "node", "id": 6491335985, "lat": 36.6721439, "lon": 43.6105281, "tags": {"name": "\u062e\u0631\u0627\u0628 \u0633\u06d5\u0639\u062f\u0648\u0646", "place": "village"}}, {"type": "node", "id": 6531900860, "lat": 36.5817003, "lon": 43.9478021}, {"type": "node", "id": 6533780530, "lat": 36.5876039, "lon": 43.6624467, "tags": {"name": "\u062f\u06c6\u0633\u062a\u06d5\u06a9", "name:ckb": "\u062f\u0648\u0633\u062a\u06d5\u06a9", "place": "village"}}, {"type": "node", "id": 6533780531, "lat": 36.5815303, "lon": 43.6700964, "tags": {"name": "\u062c\u0648\u062c\u06d5\u0631 \u06af\u0686\u06a9\u06d5", "name:ar": "\u062f\u0648\u0633\u062a\u0643", "name:en": "dostack", "name:ku": "\u062f\u0648\u0633\u062a\u0643", "place": "village"}}, {"type": "node", "id": 6535032766, "lat": 36.6258522, "lon": 43.7151039, "tags": {"fixme": "name", "place": "hamlet"}}, {"type": "node", "id": 7234965085, "lat": 36.6447242, "lon": 43.963689, "tags": {"name": "\u0686\u0627\u0645\u06d5 \u0633\u0645\u0627\u0642", "name:en": "Chama Smaq", "place": "village"}}, {"type": "node", "id": 7358708063, "lat": 36.5295209, "lon": 43.8117748, "tags": {"addr:city": "Duhok", "addr:country": "IQ", "addr:postcode": "42001", "name": "\u0628\u06d5\u0631\u062f\u06d5 \u0633\u0648\u0648\u0631", "place": "village"}}, {"type": "node", "id": 7369915250, "lat": 36.7140366, "lon": 43.7125318, "tags": {"admin_level": "9", "name": "\u0633\u0627\u06b5\u06d5\u06cc\u06cc", "name:ckb": "\u0633\u0627\u06b5\u06d5\u06cc\u06cc", "place": "village"}}, {"type": "node", "id": 7369955685, "lat": 36.7294975, "lon": 43.7022084, "tags": {"admin_level": "9", "name": "\u0628\u0627\u062f\u0631\u06cc\u06a9\u06ce", "name:ckb": "\u0628\u0627\u062f\u0631\u06cc\u06a9\u06ce", "name:en": "badrike", "place": "village"}}, {"type": "node", "id": 7544798764, "lat": 36.5502809, "lon": 43.986015, "tags": {"name": "\u0628\u0627\u0646\u06d5", "name:ar": "\u0628\u0627\u0646\u0629", "name:ckb": "\u0628\u0627\u0646\u06d5", "place": "village", "population": "320"}}, {"type": "node", "id": 7558503125, "lat": 36.5343457, "lon": 43.784645, "tags": {"name": "\u0628\u06d5\u0631\u062f\u06d5\u0632\u06ce\u0648", "place": "village"}}, {"type": "node", "id": 7566083204, "lat": 36.744227, "lon": 43.9175723, "tags": {"name": "\u0628\u0627\u0634\u0642\u0627\u0644 \u0626\u0627\u063a\u0627", "name:en": "Bashqal Agha", "place": "village"}}, {"type": "node", "id": 7572421275, "lat": 36.6702741, "lon": 43.6399489, "tags": {"name": "\u062c\u06d5\u0644\u06cc\u062f\u0648\u06a9", "name:ar": "\u062c\u0644\u064a\u062f\u0648\u0643", "name:en": "jaliduk", "place": "village"}}, {"type": "node", "id": 7572555832, "lat": 36.6646087, "lon": 43.727234, "tags": {"name": "\u0634\u06ce\u062e\u0627\u0646\u06c6\u06a9", "name:ckb": "\u0634\u06ce\u062e\u0627\u0646\u06c6\u06a9", "place": "village"}}, {"type": "node", "id": 7578828199, "lat": 36.6259741, "lon": 43.622648, "tags": {"name": "\u06af\u0631\u0628\u06d5\u0648\u06ce\u0644 \u06af\u0686\u06a9\u06d5", "place": "village"}}, {"type": "node", "id": 7620603789, "lat": 36.5594677, "lon": 43.9576387, "tags": {"name": "\u0633\u06d5\u0631\u06a9\u06d5\u06a4\u0631\u0648\u06a9", "name:ckb": "\u0633\u06d5\u0631\u06a9\u06d5\u06a4\u0631\u0648\u06a9", "place": "village"}}, {"type": "node", "id": 7633054629, "lat": 36.7448758, "lon": 43.7497039, "tags": {"name": "\u067e\u06cc\u0631\u062e\u0648\u0644\u06cc\u0646", "name:ckb": "\u067e\u06cc\u0631\u062e\u0648\u0644\u06cc", "place": "village"}}, {"type": "node", "id": 7633054630, "lat": 36.7500387, "lon": 43.7304052, "tags": {"name": "\u06af\u0648\u0631\u0627\u0646\u06a9 \u062d\u06d5\u062c\u06cc \u0639\u06d5\u0631\u06d5\u0628", "name:ckb": "\u06af\u06c6\u0631\u0627\u0646\u06a9 \u062d\u0627\u062c\u06cc \u0639\u0627\u0631\u06d5\u0628", "place": "village"}}, {"type": "node", "id": 7633054631, "lat": 36.8557583, "lon": 43.8445688, "tags": {"name": "\u0626\u0627\u0631\u062a\u0648\u0646 \u0698\u06ce\u0631\u06cc", "name:ckb": "\u0626\u0627\u0631\u062a\u0648\u0646", "place": "village"}}, {"type": "node", "id": 7633054632, "lat": 36.8178867, "lon": 43.870377, "tags": {"name": "\u0643\u06c6\u0631\u062a\u06a9\u06d5", "name:ckb": "\u0643\u06c6\u0631\u062a\u06a9\u06d5", "place": "village"}}, {"type": "node", "id": 7633098647, "lat": 36.7692062, "lon": 43.6281589, "tags": {"name": "\u0686\u06d5\u0645 \u0647\u06d5\u0631\u0632\u0646", "name:ckb": "\u0686\u06d5\u0645 \u0626\u06d5\u0631\u0632\u06cc\u0646", "place": "village"}}, {"type": "node", "id": 7634327074, "lat": 36.7422849, "lon": 43.6326824, "tags": {"name": "\u0628\u0628\u0627\u06a4\u0627", "place": "village"}}, {"type": "node", "id": 7634327075, "lat": 36.7842473, "lon": 43.6338976, "tags": {"name": "\u06a9\u06d5\u0646\u062f\u06ce", "name:ckb": "\u0643\u0627\u0646\u062f\u06cc", "place": "village"}}, {"type": "node", "id": 7634327076, "lat": 36.7599886, "lon": 43.697922, "tags": {"name": "\u0645\u0627\u0645 \u062f\u0627\u0648\u062f\u0627\u0646 \u0698\u0648\u0648\u0631\u06cc", "place": "village"}}, {"type": "node", "id": 7634346040, "lat": 36.7628474, "lon": 43.7921865, "tags": {"name": "\u0631\u0627\u0648\u06cc\u062a\u06d5", "name:ckb": "\u0631\u0627\u0648\u06cc\u062a\u06d5", "place": "village"}}, {"type": "node", "id": 7634346041, "lat": 36.7674565, "lon": 43.767299, "tags": {"name": "\u0628\u06d5\u06cc\u0628\u06cc\u0646\u0627\u06a4\u0627", "name:ckb": "\u0628\u06d5\u06cc\u0628\u06cc\u0646\u06d5\u0648\u06d5", "place": "village"}}, {"type": "node", "id": 7639340073, "lat": 36.601132, "lon": 43.8655092, "tags": {"name": "\u0628\u06d5\u0631\u062f\u06d5\u0633\u0645\u062a", "name:en": "Bardasim", "place": "village"}}, {"type": "node", "id": 7642172223, "lat": 36.6019325, "lon": 43.8273445, "tags": {"alt_name": "\u0643\u0648\u0632\u0643\u0627\u0646", "int_name": "K\u016bzk\u0101n, Kuzkan", "is_in": "Iraq , \u062c\u0645\u0647\u0648\u0631\u064a\u0629 \u0627\u0644\u0639\u0631\u0627\u0642", "name": "\u0643\u0648\u0632\u0643\u0627\u0646", "name:ar": "\u0643\u0648\u0632\u0643\u0627\u0646", "name:ar1": "\u0643\u0648\u0632\u0643\u0627\u0646", "name:de": "Kuzkan", "name:en": "Kuzkan", "name:fr": "Kuzkan", "place": "village"}}, {"type": "node", "id": 7642172224, "lat": 36.5970679, "lon": 43.8031579, "tags": {"name": "\u06a9\u0648\u0644\u06d5\u06a9\u0627 \u06af\u0686\u06a9\u06d5", "name:en": "Kolaka Little", "place": "village"}}, {"type": "node", "id": 7642311851, "lat": 36.6541947, "lon": 43.9004671, "tags": {"name": "\u06af\u06d5\u0634\u06a9\u0627 \u0698\u06ce\u0631\u06cc", "name:en": "Gashka Lower", "place": "village"}}, {"type": "node", "id": 7645036268, "lat": 36.7667509, "lon": 43.8518777, "tags": {"name": "\u0631\u0627\u0633 \u0627\u0644\u0639\u06cc\u0646", "name:en": "ras allen", "place": "village"}}, {"type": "node", "id": 7645036269, "lat": 36.7637485, "lon": 43.8635133, "tags": {"name": "\u062e\u0631\u0627\u067e\u06d5 \u0632\u06ce\u0628\u0627\u0631\u06cc", "name:en": "Khrapa Zebari", "place": "village"}}, {"type": "node", "id": 7853783708, "lat": 36.862128, "lon": 43.6757493}, {"type": "node", "id": 7853783709, "lat": 36.8624027, "lon": 43.6759103}, {"type": "node", "id": 7853783710, "lat": 36.8626774, "lon": 43.6751593}, {"type": "node", "id": 7853783711, "lat": 36.8628877, "lon": 43.6752451}, {"type": "node", "id": 7853783712, "lat": 36.8631066, "lon": 43.6745316}, {"type": "node", "id": 7853783714, "lat": 36.8634131, "lon": 43.6735056}, {"type": "node", "id": 7853783715, "lat": 36.8628363, "lon": 43.6723729}, {"type": "node", "id": 7853783716, "lat": 36.8619203, "lon": 43.6699899}, {"type": "node", "id": 7853783717, "lat": 36.8604454, "lon": 43.6716851}, {"type": "node", "id": 7853783718, "lat": 36.8613716, "lon": 43.6729404}, {"type": "node", "id": 7853783719, "lat": 36.860819, "lon": 43.6748642}, {"type": "node", "id": 7853783720, "lat": 36.8602524, "lon": 43.6746228}, {"type": "node", "id": 7853783721, "lat": 36.8600807, "lon": 43.6756313}, {"type": "node", "id": 7853783722, "lat": 36.8607202, "lon": 43.6758781}, {"type": "node", "id": 7853783723, "lat": 36.86054, "lon": 43.6766184}, {"type": "node", "id": 7853783724, "lat": 36.8608533, "lon": 43.6767096}, {"type": "node", "id": 7853783730, "lat": 36.8616072, "lon": 43.6765443}, {"type": "node", "id": 7853783731, "lat": 36.8619263, "lon": 43.6756206}, {"type": "node", "id": 7855632267, "lat": 36.8821512, "lon": 43.6267991}, {"type": "node", "id": 7855632268, "lat": 36.8822006, "lon": 43.627137}, {"type": "node", "id": 7855632269, "lat": 36.8822692, "lon": 43.6275689}, {"type": "node", "id": 7855632270, "lat": 36.8823529, "lon": 43.6275877}, {"type": "node", "id": 7855632271, "lat": 36.8823228, "lon": 43.6277995}, {"type": "node", "id": 7855632272, "lat": 36.8820847, "lon": 43.6277808}, {"type": "node", "id": 7855632273, "lat": 36.8820675, "lon": 43.6284996}, {"type": "node", "id": 7855632274, "lat": 36.882237, "lon": 43.628505}, {"type": "node", "id": 7855632275, "lat": 36.8822242, "lon": 43.6287383}, {"type": "node", "id": 7855632276, "lat": 36.8820632, "lon": 43.6287491}, {"type": "node", "id": 7855632277, "lat": 36.882059, "lon": 43.6290173}, {"type": "node", "id": 7855632278, "lat": 36.8818723, "lon": 43.6291111}, {"type": "node", "id": 7855632279, "lat": 36.8817522, "lon": 43.6292479}, {"type": "node", "id": 7855632280, "lat": 36.8812952, "lon": 43.6295188}, {"type": "node", "id": 7855632281, "lat": 36.8813359, "lon": 43.6300258}, {"type": "node", "id": 7855632282, "lat": 36.8806923, "lon": 43.6300499}, {"type": "node", "id": 7855632283, "lat": 36.8806666, "lon": 43.6296235}, {"type": "node", "id": 7855632284, "lat": 36.8807846, "lon": 43.6295805}, {"type": "node", "id": 7855632285, "lat": 36.880673, "lon": 43.6290065}, {"type": "node", "id": 7855632286, "lat": 36.880909, "lon": 43.6286686}, {"type": "node", "id": 7855632287, "lat": 36.8812051, "lon": 43.6283065}, {"type": "node", "id": 7855632288, "lat": 36.881278, "lon": 43.6282126}, {"type": "node", "id": 7855632289, "lat": 36.8814518, "lon": 43.6282126}, {"type": "node", "id": 7855632290, "lat": 36.8815762, "lon": 43.6278746}, {"type": "node", "id": 7855632291, "lat": 36.8816792, "lon": 43.6271102}, {"type": "node", "id": 7855632292, "lat": 36.881765, "lon": 43.6268608}, {"type": "node", "id": 7855632293, "lat": 36.8819839, "lon": 43.6269171}, {"type": "node", "id": 7855632294, "lat": 36.8820268, "lon": 43.626783}, {"type": "node", "id": 7938105788, "lat": 36.7683637, "lon": 43.4485947, "tags": {"name": "\u0634\u06ce\u062e\u06a9\u0627", "name:en": "Shekhka", "place": "village"}}, {"type": "node", "id": 7997927005, "lat": 36.9514683, "lon": 43.9806993}, {"type": "node", "id": 7997927006, "lat": 36.9527422, "lon": 43.9814001}, {"type": "node", "id": 7997927007, "lat": 36.9511522, "lon": 43.9838911}, {"type": "node", "id": 7997927008, "lat": 36.9522299, "lon": 43.9858331}, {"type": "node", "id": 7997927009, "lat": 36.9517054, "lon": 43.9867952}, {"type": "node", "id": 7997927010, "lat": 36.9521437, "lon": 43.987901}, {"type": "node", "id": 7997927011, "lat": 36.9513821, "lon": 43.9884855}, {"type": "node", "id": 7997927012, "lat": 36.9507282, "lon": 43.9875324}, {"type": "node", "id": 7997927013, "lat": 36.9495642, "lon": 43.9880089}, {"type": "node", "id": 7997927014, "lat": 36.9474037, "lon": 43.9872526}, {"type": "node", "id": 7997927015, "lat": 36.9470853, "lon": 43.9873976}, {"type": "node", "id": 7997927016, "lat": 36.9469631, "lon": 43.9867592}, {"type": "node", "id": 7997927018, "lat": 36.9475895, "lon": 43.9854753}, {"type": "node", "id": 7997927019, "lat": 36.9482493, "lon": 43.9839181}, {"type": "node", "id": 7997927021, "lat": 36.9495951, "lon": 43.9803209}, {"type": "node", "id": 7997927022, "lat": 36.9498132, "lon": 43.9809705}, {"type": "node", "id": 7997927023, "lat": 36.9492909, "lon": 43.9820398}, {"type": "node", "id": 7997927024, "lat": 36.9503991, "lon": 43.983073}, {"type": "node", "id": 7997931119, "lat": 36.9484705, "lon": 43.9874569}, {"type": "node", "id": 7997931120, "lat": 36.9480876, "lon": 43.9873016}, {"type": "node", "id": 8039086885, "lat": 36.6593169, "lon": 43.7425164, "tags": {"name": "\u0634\u06ce\u062e\u0627\u0646\u06c6\u06a9\u06cc \u0646\u0648\u06ce", "name:en": "New Shekhanok", "place": "village"}}, {"type": "node", "id": 8042047686, "lat": 36.5953073, "lon": 43.9666998}, {"type": "node", "id": 8042047687, "lat": 36.5952949, "lon": 43.9678469}, {"type": "node", "id": 8042047688, "lat": 36.5947389, "lon": 43.9680512}, {"type": "node", "id": 8042047689, "lat": 36.5940987, "lon": 43.967805}, {"type": "node", "id": 8042047690, "lat": 36.5932194, "lon": 43.9684639}, {"type": "node", "id": 8042047691, "lat": 36.5916536, "lon": 43.9698309}, {"type": "node", "id": 8042047692, "lat": 36.5907865, "lon": 43.9708686}, {"type": "node", "id": 8042047693, "lat": 36.5905001, "lon": 43.9713603}, {"type": "node", "id": 8042047694, "lat": 36.5900594, "lon": 43.9710848}, {"type": "node", "id": 8042047695, "lat": 36.5897133, "lon": 43.9702515}, {"type": "node", "id": 8042047696, "lat": 36.5896981, "lon": 43.9696502}, {"type": "node", "id": 8042047697, "lat": 36.5922443, "lon": 43.9663069}, {"type": "node", "id": 8042047698, "lat": 36.5925382, "lon": 43.9669016}, {"type": "node", "id": 8042047699, "lat": 36.5938112, "lon": 43.9664216}, {"type": "node", "id": 8042047702, "lat": 36.5931207, "lon": 43.9665712}, {"type": "node", "id": 8042054143, "lat": 36.5822441, "lon": 43.9424819}, {"type": "node", "id": 8044464415, "lat": 36.8219706, "lon": 43.9304869}, {"type": "node", "id": 8044464416, "lat": 36.8211861, "lon": 43.9322524}, {"type": "node", "id": 8044464417, "lat": 36.8205705, "lon": 43.932169}, {"type": "node", "id": 8044464418, "lat": 36.8187906, "lon": 43.9313879}, {"type": "node", "id": 8044464419, "lat": 36.8198692, "lon": 43.9319267}, {"type": "node", "id": 8044464420, "lat": 36.8189635, "lon": 43.9308473}, {"type": "node", "id": 8044464421, "lat": 36.8176729, "lon": 43.9290319}, {"type": "node", "id": 8044464422, "lat": 36.8178948, "lon": 43.9283738}, {"type": "node", "id": 8044464423, "lat": 36.8198886, "lon": 43.9290069}, {"type": "node", "id": 8044464424, "lat": 36.8206428, "lon": 43.9294771}, {"type": "node", "id": 8044464425, "lat": 36.8211345, "lon": 43.9282381}, {"type": "node", "id": 8044566593, "lat": 36.8699361, "lon": 43.7817835}, {"type": "node", "id": 8044566594, "lat": 36.8707288, "lon": 43.7858461}, {"type": "node", "id": 8044566595, "lat": 36.8705104, "lon": 43.790897}, {"type": "node", "id": 8044566596, "lat": 36.8697756, "lon": 43.7909689}, {"type": "node", "id": 8044566597, "lat": 36.8696684, "lon": 43.791628}, {"type": "node", "id": 8044566598, "lat": 36.8687512, "lon": 43.7914222}, {"type": "node", "id": 8044566599, "lat": 36.8680872, "lon": 43.7933994}, {"type": "node", "id": 8044566600, "lat": 36.867131, "lon": 43.7930369}, {"type": "node", "id": 8044566601, "lat": 36.8672404, "lon": 43.7922754}, {"type": "node", "id": 8044566602, "lat": 36.866349, "lon": 43.7916427}, {"type": "node", "id": 8044566603, "lat": 36.8663079, "lon": 43.7884153}, {"type": "node", "id": 8044566604, "lat": 36.8652691, "lon": 43.7891146}, {"type": "node", "id": 8044566605, "lat": 36.8638019, "lon": 43.7885272}, {"type": "node", "id": 8044566606, "lat": 36.8626032, "lon": 43.7897229}, {"type": "node", "id": 8044566607, "lat": 36.8621573, "lon": 43.7881127}, {"type": "node", "id": 8044566608, "lat": 36.8633663, "lon": 43.7865025}, {"type": "node", "id": 8044566609, "lat": 36.8637428, "lon": 43.7864654}, {"type": "node", "id": 8044566610, "lat": 36.8639113, "lon": 43.7870599}, {"type": "node", "id": 8044566611, "lat": 36.8661409, "lon": 43.7870351}, {"type": "node", "id": 8044566612, "lat": 36.866022, "lon": 43.7858213}, {"type": "node", "id": 8044566613, "lat": 36.8680003, "lon": 43.7855677}, {"type": "node", "id": 8044566614, "lat": 36.8661409, "lon": 43.7822913}, {"type": "node", "id": 8044566615, "lat": 36.8676471, "lon": 43.7821303}, {"type": "node", "id": 8044566616, "lat": 36.867396, "lon": 43.7793166}, {"type": "node", "id": 8044566617, "lat": 36.8689554, "lon": 43.779931}, {"type": "node", "id": 8044566618, "lat": 36.8693614, "lon": 43.7819073}, {"type": "node", "id": 8044588366, "lat": 36.8663741, "lon": 43.7901091}, {"type": "node", "id": 8044588367, "lat": 36.8670661, "lon": 43.7902453}, {"type": "node", "id": 8044588368, "lat": 36.8670645, "lon": 43.7903877}, {"type": "node", "id": 8044588369, "lat": 36.8675005, "lon": 43.7904506}, {"type": "node", "id": 8044588370, "lat": 36.8672107, "lon": 43.7913305}, {"type": "node", "id": 8044588371, "lat": 36.8666215, "lon": 43.7910321}, {"type": "node", "id": 8044588968, "lat": 36.8674489, "lon": 43.780438}, {"type": "node", "id": 8044588969, "lat": 36.867109, "lon": 43.7804093}, {"type": "node", "id": 8044588970, "lat": 36.8670594, "lon": 43.7797981}, {"type": "node", "id": 8044588971, "lat": 36.8674062, "lon": 43.7797805}, {"type": "node", "id": 8044588972, "lat": 36.867746, "lon": 43.7793202}, {"type": "node", "id": 8044588973, "lat": 36.8678151, "lon": 43.7801056}, {"type": "node", "id": 8045075464, "lat": 36.8707275, "lon": 43.7866764}, {"type": "node", "id": 8045087264, "lat": 36.8677586, "lon": 43.7931312}, {"type": "node", "id": 8045087265, "lat": 36.8677381, "lon": 43.7933419}, {"type": "node", "id": 8045087266, "lat": 36.8685624, "lon": 43.7926522}, {"type": "node", "id": 8045087267, "lat": 36.8682065, "lon": 43.7925366}, {"type": "node", "id": 8045087268, "lat": 36.8705458, "lon": 43.789655}, {"type": "node", "id": 8045087269, "lat": 36.8706114, "lon": 43.7880059}, {"type": "node", "id": 8045087270, "lat": 36.8686063, "lon": 43.7882615}, {"type": "node", "id": 8045087271, "lat": 36.8686617, "lon": 43.7893509}, {"type": "node", "id": 8045087272, "lat": 36.8680441, "lon": 43.7844456}, {"type": "node", "id": 8045087273, "lat": 36.8660919, "lon": 43.7844007}, {"type": "node", "id": 8046877294, "lat": 36.8636365, "lon": 43.7890522}, {"type": "node", "id": 8046877295, "lat": 36.8630115, "lon": 43.7893934}, {"type": "node", "id": 8046877296, "lat": 36.8631036, "lon": 43.7894535}, {"type": "node", "id": 8046877299, "lat": 36.8652245, "lon": 43.7887229}, {"type": "node", "id": 8046877300, "lat": 36.8649338, "lon": 43.7885578}, {"type": "node", "id": 8046877303, "lat": 36.8645849, "lon": 43.788332}, {"type": "node", "id": 8046877310, "lat": 36.8659943, "lon": 43.7889711}, {"type": "node", "id": 8046877314, "lat": 36.8667846, "lon": 43.7911147}, {"type": "node", "id": 8046877327, "lat": 36.8663962, "lon": 43.789767}, {"type": "node", "id": 8046877328, "lat": 36.8667302, "lon": 43.7897131}, {"type": "node", "id": 8046877329, "lat": 36.8659068, "lon": 43.7885331}, {"type": "node", "id": 8046877330, "lat": 36.8661093, "lon": 43.7885062}, {"type": "node", "id": 8046877331, "lat": 36.8665841, "lon": 43.7883075}, {"type": "node", "id": 8046877332, "lat": 36.8672423, "lon": 43.7889677}, {"type": "node", "id": 8046877333, "lat": 36.8672582, "lon": 43.7896279}, {"type": "node", "id": 8046877334, "lat": 36.8675428, "lon": 43.7895047}, {"type": "node", "id": 8046877335, "lat": 36.8674531, "lon": 43.7890861}, {"type": "node", "id": 8046877336, "lat": 36.8672293, "lon": 43.7904143}, {"type": "node", "id": 8046877338, "lat": 36.8674395, "lon": 43.7906358}, {"type": "node", "id": 8046877339, "lat": 36.8638276, "lon": 43.7882821}, {"type": "node", "id": 8046877340, "lat": 36.8643819, "lon": 43.7882957}, {"type": "node", "id": 8046877341, "lat": 36.8642484, "lon": 43.7882718}, {"type": "node", "id": 8046877365, "lat": 36.8697939, "lon": 43.7895336}, {"type": "node", "id": 8046877366, "lat": 36.8698636, "lon": 43.7881012}, {"type": "node", "id": 8046877370, "lat": 36.8697999, "lon": 43.7909665}, {"type": "node", "id": 8046877374, "lat": 36.8700793, "lon": 43.7825176}, {"type": "node", "id": 8046877387, "lat": 36.8684954, "lon": 43.7800014}, {"type": "node", "id": 8047392516, "lat": 36.5831333, "lon": 43.9430289}, {"type": "node", "id": 8047392517, "lat": 36.5833694, "lon": 43.9424979}, {"type": "node", "id": 8047392518, "lat": 36.5850251, "lon": 43.9430898}, {"type": "node", "id": 8047392519, "lat": 36.5850762, "lon": 43.9421011}, {"type": "node", "id": 8047392520, "lat": 36.5858309, "lon": 43.9421147}, {"type": "node", "id": 8047392521, "lat": 36.5858184, "lon": 43.9428543}, {"type": "node", "id": 8047392522, "lat": 36.5865451, "lon": 43.9436118}, {"type": "node", "id": 8047392523, "lat": 36.5852051, "lon": 43.943884}, {"type": "node", "id": 8047392524, "lat": 36.5837902, "lon": 43.9458218}, {"type": "node", "id": 8047392525, "lat": 36.5832681, "lon": 43.9465942}, {"type": "node", "id": 8047392526, "lat": 36.5822715, "lon": 43.9482463}, {"type": "node", "id": 8047392528, "lat": 36.5830065, "lon": 43.9478525}, {"type": "node", "id": 8047392529, "lat": 36.5799639, "lon": 43.9465965}, {"type": "node", "id": 8047392530, "lat": 36.5805561, "lon": 43.9455552}, {"type": "node", "id": 8047392531, "lat": 36.5811012, "lon": 43.9458797}, {"type": "node", "id": 8047392532, "lat": 36.5804749, "lon": 43.9476019}, {"type": "node", "id": 8047392533, "lat": 36.5797476, "lon": 43.9448345}, {"type": "node", "id": 8047392534, "lat": 36.5801845, "lon": 43.9422426}, {"type": "node", "id": 8047392535, "lat": 36.5811326, "lon": 43.9424703}, {"type": "node", "id": 8047392536, "lat": 36.5825582, "lon": 43.941628}, {"type": "node", "id": 8049241947, "lat": 36.8795017, "lon": 43.7277901}, {"type": "node", "id": 8049241948, "lat": 36.8793499, "lon": 43.7283143}, {"type": "node", "id": 8049241949, "lat": 36.8790498, "lon": 43.7282778}, {"type": "node", "id": 8049241950, "lat": 36.8789902, "lon": 43.7289429}, {"type": "node", "id": 8049241951, "lat": 36.8778776, "lon": 43.7285}, {"type": "node", "id": 8049241952, "lat": 36.8773296, "lon": 43.7278933}, {"type": "node", "id": 8049241953, "lat": 36.8775739, "lon": 43.7273073}, {"type": "node", "id": 8049241954, "lat": 36.8776762, "lon": 43.7266346}, {"type": "node", "id": 8049241955, "lat": 36.8784124, "lon": 43.7268286}, {"type": "node", "id": 8049241956, "lat": 36.8788613, "lon": 43.7272454}, {"type": "node", "id": 8049241957, "lat": 36.8788283, "lon": 43.7265768}, {"type": "node", "id": 8049241958, "lat": 36.8791782, "lon": 43.7266429}, {"type": "node", "id": 8049241959, "lat": 36.8792013, "lon": 43.7274641}, {"type": "node", "id": 8049242142, "lat": 36.8716872, "lon": 43.8120322}, {"type": "node", "id": 8049242143, "lat": 36.8712587, "lon": 43.8127274}, {"type": "node", "id": 8049242144, "lat": 36.8704421, "lon": 43.8128572}, {"type": "node", "id": 8049242145, "lat": 36.8695104, "lon": 43.8141865}, {"type": "node", "id": 8049242146, "lat": 36.8687231, "lon": 43.8137478}, {"type": "node", "id": 8049242147, "lat": 36.8691513, "lon": 43.8122422}, {"type": "node", "id": 8049242148, "lat": 36.8681699, "lon": 43.8118965}, {"type": "node", "id": 8049242149, "lat": 36.8673937, "lon": 43.8125991}, {"type": "node", "id": 8049242150, "lat": 36.8667602, "lon": 43.812153}, {"type": "node", "id": 8049242151, "lat": 36.8667959, "lon": 43.8108258}, {"type": "node", "id": 8049242152, "lat": 36.8671706, "lon": 43.8095879}, {"type": "node", "id": 8049242153, "lat": 36.8665282, "lon": 43.8087961}, {"type": "node", "id": 8049242154, "lat": 36.8649132, "lon": 43.8085507}, {"type": "node", "id": 8049242155, "lat": 36.8649465, "lon": 43.8072668}, {"type": "node", "id": 8049242156, "lat": 36.8652043, "lon": 43.8073217}, {"type": "node", "id": 8049242157, "lat": 36.8653399, "lon": 43.8056098}, {"type": "node", "id": 8049242158, "lat": 36.8659945, "lon": 43.8037942}, {"type": "node", "id": 8049242159, "lat": 36.8686782, "lon": 43.8061041}, {"type": "node", "id": 8049242160, "lat": 36.868171, "lon": 43.8085026}, {"type": "node", "id": 8049242161, "lat": 36.869193, "lon": 43.8090199}, {"type": "node", "id": 8049242162, "lat": 36.8693216, "lon": 43.8101595}, {"type": "node", "id": 8049242163, "lat": 36.8704986, "lon": 43.8107701}, {"type": "node", "id": 8049242164, "lat": 36.8704629, "lon": 43.8116511}, {"type": "node", "id": 8049322768, "lat": 36.8718525, "lon": 43.8129861}, {"type": "node", "id": 8049322769, "lat": 36.8720902, "lon": 43.8124589}, {"type": "node", "id": 8049322770, "lat": 36.8711145, "lon": 43.8125764}, {"type": "node", "id": 8049322771, "lat": 36.8708737, "lon": 43.8125436}, {"type": "node", "id": 8049322772, "lat": 36.8706629, "lon": 43.8127105}, {"type": "node", "id": 8049322773, "lat": 36.8699261, "lon": 43.8135294}, {"type": "node", "id": 8049322774, "lat": 36.871643, "lon": 43.812858}, {"type": "node", "id": 8049322798, "lat": 36.8690637, "lon": 43.809387}, {"type": "node", "id": 8049322803, "lat": 36.8700948, "lon": 43.8104446}, {"type": "node", "id": 8049322824, "lat": 36.8658748, "lon": 43.8047873}, {"type": "node", "id": 8049322832, "lat": 36.8657586, "lon": 43.8057521}, {"type": "node", "id": 8049322833, "lat": 36.867057, "lon": 43.8050567}, {"type": "node", "id": 8049826733, "lat": 36.8692222, "lon": 43.8094729}, {"type": "node", "id": 8049826734, "lat": 36.8694878, "lon": 43.8106707}, {"type": "node", "id": 8050490890, "lat": 36.8674214, "lon": 43.8175088}, {"type": "node", "id": 8050490891, "lat": 36.8669148, "lon": 43.8190144}, {"type": "node", "id": 8050490892, "lat": 36.8660807, "lon": 43.8182475}, {"type": "node", "id": 8050490893, "lat": 36.8662868, "lon": 43.8173308}, {"type": "node", "id": 8050490894, "lat": 36.8652419, "lon": 43.8167855}, {"type": "node", "id": 8050490895, "lat": 36.864897, "lon": 43.8171464}, {"type": "node", "id": 8050490896, "lat": 36.8647139, "lon": 43.8177924}, {"type": "node", "id": 8050490897, "lat": 36.8640658, "lon": 43.8178072}, {"type": "node", "id": 8050490898, "lat": 36.8632206, "lon": 43.8176991}, {"type": "node", "id": 8050490899, "lat": 36.8622628, "lon": 43.8188485}, {"type": "node", "id": 8050490900, "lat": 36.8611625, "lon": 43.8183553}, {"type": "node", "id": 8050490901, "lat": 36.8609372, "lon": 43.8177082}, {"type": "node", "id": 8050490902, "lat": 36.8599881, "lon": 43.8169174}, {"type": "node", "id": 8050490903, "lat": 36.8592834, "lon": 43.8173967}, {"type": "node", "id": 8050490904, "lat": 36.8589143, "lon": 43.8185291}, {"type": "node", "id": 8050490905, "lat": 36.8604579, "lon": 43.8202067}, {"type": "node", "id": 8050490906, "lat": 36.8597772, "lon": 43.8210335}, {"type": "node", "id": 8050490907, "lat": 36.8584109, "lon": 43.8194697}, {"type": "node", "id": 8050490908, "lat": 36.8580212, "lon": 43.8207834}, {"type": "node", "id": 8050490909, "lat": 36.8588385, "lon": 43.8217119}, {"type": "node", "id": 8050490910, "lat": 36.8583072, "lon": 43.8233783}, {"type": "node", "id": 8050490911, "lat": 36.8593745, "lon": 43.8240591}, {"type": "node", "id": 8050490912, "lat": 36.8599066, "lon": 43.8232683}, {"type": "node", "id": 8050490913, "lat": 36.8607743, "lon": 43.8233522}, {"type": "node", "id": 8050490914, "lat": 36.8619583, "lon": 43.8229567}, {"type": "node", "id": 8050490915, "lat": 36.8633916, "lon": 43.822082}, {"type": "node", "id": 8050490916, "lat": 36.8641202, "lon": 43.821357}, {"type": "node", "id": 8050490917, "lat": 36.866211, "lon": 43.8217089}, {"type": "node", "id": 8050490918, "lat": 36.8666729, "lon": 43.8219997}, {"type": "node", "id": 8050490919, "lat": 36.8685185, "lon": 43.8225783}, {"type": "node", "id": 8050490920, "lat": 36.8690954, "lon": 43.8208349}, {"type": "node", "id": 8050490921, "lat": 36.8679953, "lon": 43.8200722}, {"type": "node", "id": 8050490985, "lat": 36.8574737, "lon": 43.8192056}, {"type": "node", "id": 8050490986, "lat": 36.8566946, "lon": 43.8197944}, {"type": "node", "id": 8050490987, "lat": 36.8562088, "lon": 43.8222976}, {"type": "node", "id": 8050490988, "lat": 36.8572453, "lon": 43.8228191}, {"type": "node", "id": 8050490989, "lat": 36.8685826, "lon": 43.8182203}, {"type": "node", "id": 8050490990, "lat": 36.8665679, "lon": 43.8227022}, {"type": "node", "id": 8050490991, "lat": 36.8676084, "lon": 43.8229523}, {"type": "node", "id": 8050490992, "lat": 36.8678498, "lon": 43.8221947}, {"type": "node", "id": 8050491012, "lat": 36.8647872, "lon": 43.8175337}, {"type": "node", "id": 8050491071, "lat": 36.8567077, "lon": 43.8430256}, {"type": "node", "id": 8050491072, "lat": 36.8550523, "lon": 43.8421992}, {"type": "node", "id": 8050491073, "lat": 36.8548139, "lon": 43.8429357}, {"type": "node", "id": 8050491074, "lat": 36.854607, "lon": 43.8427614}, {"type": "node", "id": 8050491075, "lat": 36.8543596, "lon": 43.8434529}, {"type": "node", "id": 8050491076, "lat": 36.8548904, "lon": 43.8438464}, {"type": "node", "id": 8050491077, "lat": 36.854481, "lon": 43.8446729}, {"type": "node", "id": 8050491078, "lat": 36.8541247, "lon": 43.8446455}, {"type": "node", "id": 8050491079, "lat": 36.8539398, "lon": 43.8452397}, {"type": "node", "id": 8050491080, "lat": 36.8548139, "lon": 43.8465225}, {"type": "node", "id": 8050491081, "lat": 36.8551648, "lon": 43.8460671}, {"type": "node", "id": 8050491082, "lat": 36.8554032, "lon": 43.8456679}, {"type": "node", "id": 8050491083, "lat": 36.8555815, "lon": 43.8453256}, {"type": "node", "id": 8050491084, "lat": 36.8559843, "lon": 43.8455425}, {"type": "node", "id": 8050491085, "lat": 36.856195, "lon": 43.8448145}, {"type": "node", "id": 8050491086, "lat": 36.8566691, "lon": 43.8450429}, {"type": "node", "id": 8050491087, "lat": 36.8567745, "lon": 43.8443033}, {"type": "node", "id": 8050491088, "lat": 36.8565607, "lon": 43.8441717}, {"type": "node", "id": 8050491089, "lat": 36.8566474, "lon": 43.8437573}, {"type": "node", "id": 8050491139, "lat": 36.8546191, "lon": 43.845609}, {"type": "node", "id": 8050491140, "lat": 36.8543791, "lon": 43.8461906}, {"type": "node", "id": 8051334916, "lat": 36.852471, "lon": 43.8568359}, {"type": "node", "id": 8051334917, "lat": 36.8523136, "lon": 43.8574656}, {"type": "node", "id": 8051334918, "lat": 36.8520796, "lon": 43.8573644}, {"type": "node", "id": 8051334919, "lat": 36.8519307, "lon": 43.8583016}, {"type": "node", "id": 8051334920, "lat": 36.8514731, "lon": 43.8579372}, {"type": "node", "id": 8051334921, "lat": 36.8512159, "lon": 43.8587305}, {"type": "node", "id": 8051334922, "lat": 36.8504466, "lon": 43.8583651}, {"type": "node", "id": 8051334923, "lat": 36.8503297, "lon": 43.8588261}, {"type": "node", "id": 8051334924, "lat": 36.8511574, "lon": 43.8591465}, {"type": "node", "id": 8051334925, "lat": 36.8510629, "lon": 43.8595963}, {"type": "node", "id": 8051334926, "lat": 36.8495964, "lon": 43.8589048}, {"type": "node", "id": 8051334927, "lat": 36.8498483, "lon": 43.8576342}, {"type": "node", "id": 8051334928, "lat": 36.8482692, "lon": 43.8565885}, {"type": "node", "id": 8051334929, "lat": 36.84907, "lon": 43.8554023}, {"type": "node", "id": 8051334930, "lat": 36.8494209, "lon": 43.8557115}, {"type": "node", "id": 8051334931, "lat": 36.8497313, "lon": 43.8552505}, {"type": "node", "id": 8051334932, "lat": 36.8501812, "lon": 43.8556384}, {"type": "node", "id": 8051334933, "lat": 36.8500597, "lon": 43.8561444}, {"type": "node", "id": 8051334934, "lat": 36.8510449, "lon": 43.856493}, {"type": "node", "id": 8051334935, "lat": 36.8513671, "lon": 43.8567422}, {"type": "node", "id": 8051334936, "lat": 36.8517125, "lon": 43.8554391}, {"type": "node", "id": 8051334937, "lat": 36.8518871, "lon": 43.8554618}, {"type": "node", "id": 8051334938, "lat": 36.8523046, "lon": 43.856448}, {"type": "node", "id": 8051334939, "lat": 36.8379957, "lon": 43.865746}, {"type": "node", "id": 8051334940, "lat": 36.8384815, "lon": 43.8671064}, {"type": "node", "id": 8051334941, "lat": 36.8379287, "lon": 43.8675354}, {"type": "node", "id": 8051334942, "lat": 36.8380125, "lon": 43.8681738}, {"type": "node", "id": 8051334943, "lat": 36.8362872, "lon": 43.8694505}, {"type": "node", "id": 8051334944, "lat": 36.8366415, "lon": 43.8709733}, {"type": "node", "id": 8051334945, "lat": 36.8352821, "lon": 43.8710306}, {"type": "node", "id": 8051334946, "lat": 36.8352653, "lon": 43.8707586}, {"type": "node", "id": 8051334947, "lat": 36.8333892, "lon": 43.8710934}, {"type": "node", "id": 8051334948, "lat": 36.8333557, "lon": 43.8722131}, {"type": "node", "id": 8051334949, "lat": 36.8326605, "lon": 43.8722655}, {"type": "node", "id": 8051334950, "lat": 36.83158, "lon": 43.8713446}, {"type": "node", "id": 8051334951, "lat": 36.8319402, "lon": 43.8706016}, {"type": "node", "id": 8051334952, "lat": 36.8329285, "lon": 43.8697121}, {"type": "node", "id": 8051334953, "lat": 36.8346958, "lon": 43.8681738}, {"type": "node", "id": 8058104631, "lat": 36.9521658, "lon": 43.9824471}, {"type": "node", "id": 8058104632, "lat": 36.9519377, "lon": 43.9822679}, {"type": "node", "id": 8058104633, "lat": 36.9523849, "lon": 43.9812035}, {"type": "node", "id": 8058104634, "lat": 36.9520423, "lon": 43.9817507}, {"type": "node", "id": 8058104635, "lat": 36.951751, "lon": 43.9813913}, {"type": "node", "id": 8058104636, "lat": 36.9519183, "lon": 43.9809702}, {"type": "node", "id": 8058104637, "lat": 36.9505273, "lon": 43.982171}, {"type": "node", "id": 8058104638, "lat": 36.9508255, "lon": 43.982791}, {"type": "node", "id": 8058104639, "lat": 36.9500144, "lon": 43.98342}, {"type": "node", "id": 8058104640, "lat": 36.949747, "lon": 43.9827675}, {"type": "node", "id": 8058104641, "lat": 36.9499335, "lon": 43.9807235}, {"type": "node", "id": 8058104642, "lat": 36.9499722, "lon": 43.9812959}, {"type": "node", "id": 8058104643, "lat": 36.9490125, "lon": 43.9809302}, {"type": "node", "id": 8058104644, "lat": 36.948719, "lon": 43.9808566}, {"type": "node", "id": 8058104655, "lat": 36.9479013, "lon": 43.9835602}, {"type": "node", "id": 8058104656, "lat": 36.9486066, "lon": 43.9812624}, {"type": "node", "id": 8058104657, "lat": 36.9490197, "lon": 43.9821678}, {"type": "node", "id": 8065773735, "lat": 36.8633191, "lon": 43.6722523}, {"type": "node", "id": 8065773736, "lat": 36.861159, "lon": 43.6728665}, {"type": "node", "id": 8065773737, "lat": 36.8612584, "lon": 43.6724931}, {"type": "node", "id": 8065773738, "lat": 36.8621783, "lon": 43.6706183}, {"type": "node", "id": 8065773739, "lat": 36.8622998, "lon": 43.6714419}, {"type": "node", "id": 8065773740, "lat": 36.8610101, "lon": 43.6762734}, {"type": "node", "id": 8073330460, "lat": 36.8245761, "lon": 43.4986031}, {"type": "node", "id": 8073330461, "lat": 36.8241901, "lon": 43.5006829}, {"type": "node", "id": 8073330462, "lat": 36.8246589, "lon": 43.5008736}, {"type": "node", "id": 8073330463, "lat": 36.8240898, "lon": 43.5024409}, {"type": "node", "id": 8073330464, "lat": 36.8233325, "lon": 43.5021967}, {"type": "node", "id": 8073330465, "lat": 36.8235445, "lon": 43.5013421}, {"type": "node", "id": 8073330466, "lat": 36.8230819, "lon": 43.5011847}, {"type": "node", "id": 8073330467, "lat": 36.8228808, "lon": 43.5023182}, {"type": "node", "id": 8073330468, "lat": 36.8223877, "lon": 43.5021768}, {"type": "node", "id": 8073330469, "lat": 36.8202119, "lon": 43.5025427}, {"type": "node", "id": 8073330470, "lat": 36.8200128, "lon": 43.5013343}, {"type": "node", "id": 8073330471, "lat": 36.8207358, "lon": 43.4996343}, {"type": "node", "id": 8073330472, "lat": 36.8216363, "lon": 43.5000521}, {"type": "node", "id": 8073330473, "lat": 36.8215036, "lon": 43.4991714}, {"type": "node", "id": 8073330474, "lat": 36.8220267, "lon": 43.498787}, {"type": "node", "id": 8073330475, "lat": 36.8236427, "lon": 43.4970216}, {"type": "node", "id": 8073337304, "lat": 36.8255244, "lon": 43.5318041}, {"type": "node", "id": 8073337306, "lat": 36.824992, "lon": 43.5367833}, {"type": "node", "id": 8073337307, "lat": 36.8234699, "lon": 43.5362638}, {"type": "node", "id": 8073337308, "lat": 36.8236718, "lon": 43.5357806}, {"type": "node", "id": 8073337309, "lat": 36.8232024, "lon": 43.5352893}, {"type": "node", "id": 8073337310, "lat": 36.8227958, "lon": 43.5354427}, {"type": "node", "id": 8073337311, "lat": 36.8222061, "lon": 43.5341731}, {"type": "node", "id": 8073337312, "lat": 36.8247133, "lon": 43.5313286}, {"type": "node", "id": 8073337357, "lat": 36.8277111, "lon": 43.5501167}, {"type": "node", "id": 8073337358, "lat": 36.8276575, "lon": 43.5516725}, {"type": "node", "id": 8073337359, "lat": 36.82718, "lon": 43.5516836}, {"type": "node", "id": 8073337360, "lat": 36.8270639, "lon": 43.5523361}, {"type": "node", "id": 8073337361, "lat": 36.8268363, "lon": 43.552258}, {"type": "node", "id": 8073337362, "lat": 36.8268764, "lon": 43.5514327}, {"type": "node", "id": 8073337363, "lat": 36.8262739, "lon": 43.5513769}, {"type": "node", "id": 8073337364, "lat": 36.82589, "lon": 43.5519401}, {"type": "node", "id": 8073337365, "lat": 36.8255999, "lon": 43.5517282}, {"type": "node", "id": 8073337366, "lat": 36.8258275, "lon": 43.5513212}, {"type": "node", "id": 8073337367, "lat": 36.8257695, "lon": 43.5495479}, {"type": "node", "id": 8073337368, "lat": 36.8264078, "lon": 43.5496929}, {"type": "node", "id": 8073337369, "lat": 36.8264345, "lon": 43.5491297}, {"type": "node", "id": 8073337370, "lat": 36.8268318, "lon": 43.5492747}, {"type": "node", "id": 8073337371, "lat": 36.8268095, "lon": 43.549771}, {"type": "node", "id": 8073338012, "lat": 36.8366394, "lon": 43.4640907}, {"type": "node", "id": 8073338013, "lat": 36.8366977, "lon": 43.4651675}, {"type": "node", "id": 8073338014, "lat": 36.8351945, "lon": 43.4653779}, {"type": "node", "id": 8073338015, "lat": 36.8351881, "lon": 43.4659446}, {"type": "node", "id": 8073338016, "lat": 36.8326027, "lon": 43.465888}, {"type": "node", "id": 8073338017, "lat": 36.8325444, "lon": 43.4654994}, {"type": "node", "id": 8073338018, "lat": 36.8320714, "lon": 43.4655884}, {"type": "node", "id": 8073338019, "lat": 36.8320908, "lon": 43.4646655}, {"type": "node", "id": 8073338020, "lat": 36.8317021, "lon": 43.4644874}, {"type": "node", "id": 8073338021, "lat": 36.832026, "lon": 43.4633621}, {"type": "node", "id": 8073338022, "lat": 36.83316, "lon": 43.4638803}, {"type": "node", "id": 8073338023, "lat": 36.8335488, "lon": 43.4642689}, {"type": "node", "id": 8073338024, "lat": 36.8337367, "lon": 43.4638074}, {"type": "node", "id": 8073338032, "lat": 36.8367873, "lon": 43.4789204}, {"type": "node", "id": 8073338034, "lat": 36.8360059, "lon": 43.4791283}, {"type": "node", "id": 8073338035, "lat": 36.83586, "lon": 43.4811775}, {"type": "node", "id": 8073338036, "lat": 36.8350878, "lon": 43.4830355}, {"type": "node", "id": 8073338037, "lat": 36.8352553, "lon": 43.4835712}, {"type": "node", "id": 8073338038, "lat": 36.8364805, "lon": 43.483895}, {"type": "node", "id": 8073338039, "lat": 36.8368813, "lon": 43.4881559}, {"type": "node", "id": 8073338040, "lat": 36.8351953, "lon": 43.4898534}, {"type": "node", "id": 8073338041, "lat": 36.8341608, "lon": 43.4919549}, {"type": "node", "id": 8073338042, "lat": 36.8345235, "lon": 43.4935281}, {"type": "node", "id": 8073338043, "lat": 36.8339006, "lon": 43.4950458}, {"type": "node", "id": 8073338044, "lat": 36.8355997, "lon": 43.4944065}, {"type": "node", "id": 8073338045, "lat": 36.8359384, "lon": 43.4956312}, {"type": "node", "id": 8073338046, "lat": 36.8365466, "lon": 43.4950373}, {"type": "node", "id": 8073338047, "lat": 36.8356965, "lon": 43.4919701}, {"type": "node", "id": 8073338048, "lat": 36.8365838, "lon": 43.4898797}, {"type": "node", "id": 8073338049, "lat": 36.8381133, "lon": 43.4879003}, {"type": "node", "id": 8073338050, "lat": 36.8380587, "lon": 43.4851532}, {"type": "node", "id": 8073338051, "lat": 36.8374305, "lon": 43.4850508}, {"type": "node", "id": 8073338052, "lat": 36.8374715, "lon": 43.4836175}, {"type": "node", "id": 8073338053, "lat": 36.8380997, "lon": 43.4837028}, {"type": "node", "id": 8073338054, "lat": 36.8382772, "lon": 43.4827985}, {"type": "node", "id": 8073338055, "lat": 36.8379221, "lon": 43.4803414}, {"type": "node", "id": 8083223531, "lat": 36.9512588, "lon": 43.9836707}, {"type": "node", "id": 8089107955, "lat": 36.5846465, "lon": 43.9430293}, {"type": "node", "id": 8089107956, "lat": 36.5842391, "lon": 43.9428749}, {"type": "node", "id": 8094671889, "lat": 36.9475769, "lon": 43.9863283}, {"type": "node", "id": 8094671890, "lat": 36.9478105, "lon": 43.9856599}, {"type": "node", "id": 8094671891, "lat": 36.9479736, "lon": 43.9845134}, {"type": "node", "id": 8378966866, "lat": 36.579563, "lon": 43.9439127}, {"type": "node", "id": 8378967547, "lat": 36.584509, "lon": 43.9448392}, {"type": "node", "id": 8378997478, "lat": 36.5836417, "lon": 43.9426138}, {"type": "node", "id": 8426343557, "lat": 36.7641933, "lon": 43.859884}, {"type": "node", "id": 8426343558, "lat": 36.7642411, "lon": 43.8615881}, {"type": "node", "id": 8426343559, "lat": 36.7651907, "lon": 43.8616454}, {"type": "node", "id": 8426343560, "lat": 36.765264, "lon": 43.8631074}, {"type": "node", "id": 8426343561, "lat": 36.7655956, "lon": 43.8637519}, {"type": "node", "id": 8426343562, "lat": 36.7656525, "lon": 43.8643565}, {"type": "node", "id": 8426343563, "lat": 36.7658484, "lon": 43.8653353}, {"type": "node", "id": 8426343564, "lat": 36.7669795, "lon": 43.8669144}, {"type": "node", "id": 8426343565, "lat": 36.7668841, "lon": 43.8671245}, {"type": "node", "id": 8426343566, "lat": 36.7663178, "lon": 43.8670604}, {"type": "node", "id": 8426343567, "lat": 36.7660893, "lon": 43.8668571}, {"type": "node", "id": 8426343568, "lat": 36.7655263, "lon": 43.8657192}, {"type": "node", "id": 8426343569, "lat": 36.7654681, "lon": 43.8655795}, {"type": "node", "id": 8426343570, "lat": 36.7644124, "lon": 43.8648779}, {"type": "node", "id": 8426343571, "lat": 36.7638215, "lon": 43.8643552}, {"type": "node", "id": 8426343577, "lat": 36.7628587, "lon": 43.8643335}, {"type": "node", "id": 8426343578, "lat": 36.7610569, "lon": 43.864393}, {"type": "node", "id": 8426343579, "lat": 36.7609904, "lon": 43.8638558}, {"type": "node", "id": 8426343580, "lat": 36.7605492, "lon": 43.8634071}, {"type": "node", "id": 8426343581, "lat": 36.7604881, "lon": 43.8630222}, {"type": "node", "id": 8426343582, "lat": 36.7591882, "lon": 43.8632975}, {"type": "node", "id": 8426343583, "lat": 36.7590734, "lon": 43.862313}, {"type": "node", "id": 8426343584, "lat": 36.7597594, "lon": 43.8619107}, {"type": "node", "id": 8426343585, "lat": 36.7616365, "lon": 43.8624982}, {"type": "node", "id": 8426343586, "lat": 36.7617325, "lon": 43.8622507}, {"type": "node", "id": 8426343587, "lat": 36.7626253, "lon": 43.8625842}, {"type": "node", "id": 8426343588, "lat": 36.7633679, "lon": 43.8602831}, {"type": "node", "id": 8504133605, "lat": 36.6218691, "lon": 43.8315896, "tags": {"name": "\u0647\u0634\u06a9\u06d5 \u0628\u06d5\u0633\u062a", "place": "village"}}, {"type": "node", "id": 8504133606, "lat": 36.5691236, "lon": 43.8765019, "tags": {"name": "\u06a9\u06d5\u0644\u06d5 \u062f\u06ce\u0631", "place": "village"}}, {"type": "node", "id": 8504133608, "lat": 36.614909, "lon": 43.9606327, "tags": {"place": "village"}}, {"type": "node", "id": 8504133609, "lat": 36.6417934, "lon": 43.906021, "tags": {"name": "\u06a9\u0648\u0631\u06a9\u0627 \u0628\u06d5\u0633\u062a", "name:en": "Korkan Bast", "place": "village"}}, {"type": "node", "id": 8504445551, "lat": 36.666834, "lon": 43.9067386, "tags": {"name": "\u0628\u0627\u0646\u06d5\u0645\u0644", "place": "village"}}, {"type": "node", "id": 8567378585, "lat": 36.8067486, "lon": 43.6456053, "tags": {"place": "village"}}, {"type": "node", "id": 8814969227, "lat": 36.5432946, "lon": 43.5055857}, {"type": "node", "id": 8814969228, "lat": 36.5431341, "lon": 43.5063994}, {"type": "node", "id": 8814969229, "lat": 36.5421978, "lon": 43.506995}, {"type": "node", "id": 8814969230, "lat": 36.5428826, "lon": 43.5065317}, {"type": "node", "id": 8814969231, "lat": 36.5429302, "lon": 43.5069344}, {"type": "node", "id": 8814969232, "lat": 36.5411518, "lon": 43.5072473}, {"type": "node", "id": 8814969233, "lat": 36.5409946, "lon": 43.5069377}, {"type": "node", "id": 8814969234, "lat": 36.5417205, "lon": 43.5044352}, {"type": "node", "id": 8814969235, "lat": 36.5420424, "lon": 43.5037911}, {"type": "node", "id": 8872613742, "lat": 36.5639038, "lon": 43.5660972}, {"type": "node", "id": 8872613743, "lat": 36.5640891, "lon": 43.5661348}, {"type": "node", "id": 8872613744, "lat": 36.5640848, "lon": 43.5666015}, {"type": "node", "id": 8872613745, "lat": 36.5639383, "lon": 43.565137}, {"type": "node", "id": 8872613746, "lat": 36.5641106, "lon": 43.5680391}, {"type": "node", "id": 8872613747, "lat": 36.5636453, "lon": 43.5679748}, {"type": "node", "id": 8872613748, "lat": 36.5635764, "lon": 43.5686185}, {"type": "node", "id": 8872613749, "lat": 36.5641494, "lon": 43.5688116}, {"type": "node", "id": 8872613750, "lat": 36.5640805, "lon": 43.5698523}, {"type": "node", "id": 8872613751, "lat": 36.5636065, "lon": 43.5697826}, {"type": "node", "id": 8872613752, "lat": 36.5631757, "lon": 43.5710486}, {"type": "node", "id": 8872613753, "lat": 36.5630873, "lon": 43.571011}, {"type": "node", "id": 8872613754, "lat": 36.5630486, "lon": 43.5711934}, {"type": "node", "id": 8872613755, "lat": 36.5628159, "lon": 43.5711344}, {"type": "node", "id": 8872613756, "lat": 36.5626048, "lon": 43.5722448}, {"type": "node", "id": 8872613757, "lat": 36.5624755, "lon": 43.5725184}, {"type": "node", "id": 8872613758, "lat": 36.5617861, "lon": 43.5737361}, {"type": "node", "id": 8872613759, "lat": 36.5615233, "lon": 43.5736181}, {"type": "node", "id": 8872613760, "lat": 36.5614457, "lon": 43.5743101}, {"type": "node", "id": 8872613761, "lat": 36.5612044, "lon": 43.5748037}, {"type": "node", "id": 8872613762, "lat": 36.5606572, "lon": 43.5745784}, {"type": "node", "id": 8872613763, "lat": 36.5605193, "lon": 43.5744872}, {"type": "node", "id": 8872613764, "lat": 36.5606701, "lon": 43.5742189}, {"type": "node", "id": 8872613765, "lat": 36.560752, "lon": 43.5726633}, {"type": "node", "id": 8872613766, "lat": 36.5604504, "lon": 43.5726364}, {"type": "node", "id": 8872613767, "lat": 36.5604461, "lon": 43.5723682}, {"type": "node", "id": 8872613768, "lat": 36.5598988, "lon": 43.5723521}, {"type": "node", "id": 8872613769, "lat": 36.5597351, "lon": 43.5714509}, {"type": "node", "id": 8872613770, "lat": 36.5594809, "lon": 43.5705497}, {"type": "node", "id": 8872613771, "lat": 36.5590198, "lon": 43.5704907}, {"type": "node", "id": 8872613772, "lat": 36.5587871, "lon": 43.5703136}, {"type": "node", "id": 8872613773, "lat": 36.5587354, "lon": 43.5700883}, {"type": "node", "id": 8872613774, "lat": 36.5582657, "lon": 43.5698362}, {"type": "node", "id": 8872613775, "lat": 36.5580287, "lon": 43.5706945}, {"type": "node", "id": 8872613776, "lat": 36.5577918, "lon": 43.570555}, {"type": "node", "id": 8872613777, "lat": 36.5579081, "lon": 43.5700508}, {"type": "node", "id": 8872613778, "lat": 36.5574815, "lon": 43.5697879}, {"type": "node", "id": 8872613779, "lat": 36.5580287, "lon": 43.5682752}, {"type": "node", "id": 8872613780, "lat": 36.5578564, "lon": 43.5681732}, {"type": "node", "id": 8872613781, "lat": 36.5579167, "lon": 43.5679855}, {"type": "node", "id": 8872613782, "lat": 36.5572273, "lon": 43.567492}, {"type": "node", "id": 8872613783, "lat": 36.5568136, "lon": 43.5671862}, {"type": "node", "id": 8872613784, "lat": 36.5564042, "lon": 43.566918}, {"type": "node", "id": 8872613785, "lat": 36.5567964, "lon": 43.5657861}, {"type": "node", "id": 8872613786, "lat": 36.556917, "lon": 43.5651155}, {"type": "node", "id": 8872613787, "lat": 36.5567791, "lon": 43.5650082}, {"type": "node", "id": 8872613788, "lat": 36.5564387, "lon": 43.5648258}, {"type": "node", "id": 8872613789, "lat": 36.5565723, "lon": 43.5644396}, {"type": "node", "id": 8872613790, "lat": 36.5568567, "lon": 43.5638656}, {"type": "node", "id": 8872613791, "lat": 36.55721, "lon": 43.5631468}, {"type": "node", "id": 8872613792, "lat": 36.5567102, "lon": 43.5619881}, {"type": "node", "id": 8872613793, "lat": 36.5572359, "lon": 43.560824}, {"type": "node", "id": 8872613794, "lat": 36.5579167, "lon": 43.5595204}, {"type": "node", "id": 8872613795, "lat": 36.5583864, "lon": 43.5589679}, {"type": "node", "id": 8872613796, "lat": 36.5593678, "lon": 43.5592442}, {"type": "node", "id": 8872613797, "lat": 36.5596877, "lon": 43.5591932}, {"type": "node", "id": 8872613798, "lat": 36.5598019, "lon": 43.5601937}, {"type": "node", "id": 8872613799, "lat": 36.5599785, "lon": 43.5602956}, {"type": "node", "id": 8872613800, "lat": 36.5613531, "lon": 43.5604565}, {"type": "node", "id": 8872613801, "lat": 36.5617667, "lon": 43.560537}, {"type": "node", "id": 8872613802, "lat": 36.5619434, "lon": 43.5597645}, {"type": "node", "id": 8872613803, "lat": 36.5632144, "lon": 43.560478}, {"type": "node", "id": 8872613804, "lat": 36.5630076, "lon": 43.5616635}, {"type": "node", "id": 8872613805, "lat": 36.5629344, "lon": 43.5626881}, {"type": "node", "id": 8872613806, "lat": 36.5628439, "lon": 43.5630636}, {"type": "node", "id": 8872613807, "lat": 36.5627362, "lon": 43.5630315}, {"type": "node", "id": 8872613808, "lat": 36.5626715, "lon": 43.5634821}, {"type": "node", "id": 8872613809, "lat": 36.5624087, "lon": 43.5634391}, {"type": "node", "id": 8872613810, "lat": 36.5625164, "lon": 43.563702}, {"type": "node", "id": 8872613811, "lat": 36.5626026, "lon": 43.563702}, {"type": "node", "id": 8872613812, "lat": 36.5626629, "lon": 43.5639434}, {"type": "node", "id": 8872613813, "lat": 36.5628913, "lon": 43.5639702}, {"type": "node", "id": 8872613814, "lat": 36.5628697, "lon": 43.5648822}, {"type": "node", "id": 8874591565, "lat": 36.5586425, "lon": 43.4944224}, {"type": "node", "id": 8874591582, "lat": 36.5609607, "lon": 43.4908926}, {"type": "node", "id": 8874591596, "lat": 36.5621112, "lon": 43.4952609}, {"type": "node", "id": 8893512634, "lat": 36.5833073, "lon": 43.4524333}, {"type": "node", "id": 8893512649, "lat": 36.5823997, "lon": 43.4507551}, {"type": "node", "id": 8893542738, "lat": 36.5860309, "lon": 43.4486065}, {"type": "node", "id": 8893542739, "lat": 36.5852766, "lon": 43.4523426}, {"type": "node", "id": 8893542740, "lat": 36.5839287, "lon": 43.4533398}, {"type": "node", "id": 8893542741, "lat": 36.5834392, "lon": 43.4533184}, {"type": "node", "id": 8893542742, "lat": 36.5826295, "lon": 43.4496548}, {"type": "node", "id": 8893542743, "lat": 36.5829236, "lon": 43.4490633}, {"type": "node", "id": 8893542744, "lat": 36.58386, "lon": 43.4487639}, {"type": "node", "id": 8893542745, "lat": 36.5847853, "lon": 43.4489356}, {"type": "node", "id": 8893542746, "lat": 36.584955, "lon": 43.4486379}, {"type": "node", "id": 8893542747, "lat": 36.5851992, "lon": 43.4485213}, {"type": "node", "id": 8893542748, "lat": 36.5854334, "lon": 43.4482162}, {"type": "node", "id": 8916963533, "lat": 36.8369143, "lon": 43.4874576}, {"type": "node", "id": 8916963534, "lat": 36.8368955, "lon": 43.4860751}, {"type": "node", "id": 8916963535, "lat": 36.8362673, "lon": 43.4857521}, {"type": "node", "id": 8916963536, "lat": 36.8361851, "lon": 43.485038}, {"type": "node", "id": 8916963537, "lat": 36.8368223, "lon": 43.4849493}, {"type": "node", "id": 8916963538, "lat": 36.836411, "lon": 43.4843363}, {"type": "node", "id": 8916963539, "lat": 36.8361083, "lon": 43.4837411}, {"type": "node", "id": 8916963540, "lat": 36.8360854, "lon": 43.4834658}, {"type": "node", "id": 8916963541, "lat": 36.8351407, "lon": 43.4825858}, {"type": "node", "id": 8916963542, "lat": 36.8354574, "lon": 43.4826273}, {"type": "node", "id": 8916963543, "lat": 36.8361648, "lon": 43.4806357}, {"type": "node", "id": 8916963595, "lat": 36.8360457, "lon": 43.4911824}, {"type": "node", "id": 8916963596, "lat": 36.8359262, "lon": 43.4910809}, {"type": "node", "id": 8916963597, "lat": 36.8361992, "lon": 43.4901531}, {"type": "node", "id": 8916963598, "lat": 36.8358695, "lon": 43.4902039}, {"type": "node", "id": 8916963599, "lat": 36.836558, "lon": 43.4956937}, {"type": "node", "id": 8916963600, "lat": 36.833729, "lon": 43.4938283}, {"type": "node", "id": 8916963601, "lat": 36.8346019, "lon": 43.4930258}, {"type": "node", "id": 8916963602, "lat": 36.8343856, "lon": 43.4923294}, {"type": "node", "id": 8916963603, "lat": 36.8346998, "lon": 43.4927098}, {"type": "node", "id": 8916963604, "lat": 36.8356905, "lon": 43.4892728}, {"type": "node", "id": 8916963605, "lat": 36.8356705, "lon": 43.4896007}, {"type": "node", "id": 8916963606, "lat": 36.8345965, "lon": 43.4899385}, {"type": "node", "id": 8916963607, "lat": 36.8345418, "lon": 43.4906517}, {"type": "node", "id": 8916963608, "lat": 36.8346647, "lon": 43.4908688}, {"type": "node", "id": 8916963609, "lat": 36.8341938, "lon": 43.4917713}, {"type": "node", "id": 8917690522, "lat": 36.8514937, "lon": 43.8555448}, {"type": "node", "id": 8917690523, "lat": 36.8515109, "lon": 43.8559088}, {"type": "node", "id": 8917690524, "lat": 36.8515249, "lon": 43.8565052}, {"type": "node", "id": 8917690525, "lat": 36.8520717, "lon": 43.8578021}, {"type": "node", "id": 8917691101, "lat": 36.8521643, "lon": 43.8579459}, {"type": "node", "id": 8928278415, "lat": 36.6254189, "lon": 43.5439384}, {"type": "node", "id": 8928278416, "lat": 36.6254189, "lon": 43.5444212}, {"type": "node", "id": 8928278417, "lat": 36.6254103, "lon": 43.5447967}, {"type": "node", "id": 8928278418, "lat": 36.6255739, "lon": 43.5448289}, {"type": "node", "id": 8928278419, "lat": 36.6254706, "lon": 43.5456174}, {"type": "node", "id": 8928278420, "lat": 36.6254878, "lon": 43.545832}, {"type": "node", "id": 8928278421, "lat": 36.6264005, "lon": 43.5463202}, {"type": "node", "id": 8928278422, "lat": 36.6262412, "lon": 43.5468298}, {"type": "node", "id": 8928278423, "lat": 36.6259398, "lon": 43.5466742}, {"type": "node", "id": 8928278424, "lat": 36.6258236, "lon": 43.5469263}, {"type": "node", "id": 8928278425, "lat": 36.6254146, "lon": 43.546701}, {"type": "node", "id": 8928278426, "lat": 36.6253974, "lon": 43.5470014}, {"type": "node", "id": 8928278427, "lat": 36.625505, "lon": 43.5471248}, {"type": "node", "id": 8928278428, "lat": 36.6258193, "lon": 43.547334}, {"type": "node", "id": 8928278429, "lat": 36.6260475, "lon": 43.5477525}, {"type": "node", "id": 8928278430, "lat": 36.6263187, "lon": 43.5479992}, {"type": "node", "id": 8928278431, "lat": 36.6259614, "lon": 43.5486483}, {"type": "node", "id": 8928278432, "lat": 36.6261723, "lon": 43.548879}, {"type": "node", "id": 8928278433, "lat": 36.6256729, "lon": 43.5495335}, {"type": "node", "id": 8928278434, "lat": 36.6252811, "lon": 43.548997}, {"type": "node", "id": 8928278435, "lat": 36.6253414, "lon": 43.548702}, {"type": "node", "id": 8928278436, "lat": 36.625208, "lon": 43.5485893}, {"type": "node", "id": 8928278437, "lat": 36.6246354, "lon": 43.5494691}, {"type": "node", "id": 8928278438, "lat": 36.6241747, "lon": 43.5489648}, {"type": "node", "id": 8928278439, "lat": 36.6240412, "lon": 43.5491043}, {"type": "node", "id": 8928278440, "lat": 36.623869, "lon": 43.5489916}, {"type": "node", "id": 8928278441, "lat": 36.6238173, "lon": 43.5487932}, {"type": "node", "id": 8928278442, "lat": 36.6243469, "lon": 43.5480314}, {"type": "node", "id": 8928278443, "lat": 36.6241101, "lon": 43.5477256}, {"type": "node", "id": 8928278444, "lat": 36.6239637, "lon": 43.5476398}, {"type": "node", "id": 8928278445, "lat": 36.6238346, "lon": 43.5478598}, {"type": "node", "id": 8928278446, "lat": 36.6234944, "lon": 43.547554}, {"type": "node", "id": 8928278447, "lat": 36.6233265, "lon": 43.547039}, {"type": "node", "id": 8928278448, "lat": 36.6227453, "lon": 43.5469478}, {"type": "node", "id": 8928278449, "lat": 36.6227582, "lon": 43.5464006}, {"type": "node", "id": 8928278450, "lat": 36.6230811, "lon": 43.5462504}, {"type": "node", "id": 8928278451, "lat": 36.6231371, "lon": 43.5460412}, {"type": "node", "id": 8928278452, "lat": 36.6229692, "lon": 43.545714}, {"type": "node", "id": 8928278453, "lat": 36.6232318, "lon": 43.5452634}, {"type": "node", "id": 8928278454, "lat": 36.6235633, "lon": 43.5453975}, {"type": "node", "id": 8928278455, "lat": 36.6236408, "lon": 43.5451936}, {"type": "node", "id": 8928278456, "lat": 36.6234385, "lon": 43.5450273}, {"type": "node", "id": 8928278457, "lat": 36.6235719, "lon": 43.5445982}, {"type": "node", "id": 8928278458, "lat": 36.6238948, "lon": 43.5447752}, {"type": "node", "id": 8928278459, "lat": 36.6239551, "lon": 43.5446465}, {"type": "node", "id": 8928278460, "lat": 36.6242091, "lon": 43.5447538}, {"type": "node", "id": 8928278461, "lat": 36.6244674, "lon": 43.5446089}, {"type": "node", "id": 8928278462, "lat": 36.6246138, "lon": 43.5446572}, {"type": "node", "id": 8928278463, "lat": 36.6247344, "lon": 43.5445285}, {"type": "node", "id": 8928278464, "lat": 36.624941, "lon": 43.5439759}, {"type": "node", "id": 8928521967, "lat": 36.5943328, "lon": 43.4815881}, {"type": "node", "id": 8928521968, "lat": 36.5942806, "lon": 43.4822037}, {"type": "node", "id": 8928521969, "lat": 36.5921205, "lon": 43.4825831}, {"type": "node", "id": 8928521970, "lat": 36.5919343, "lon": 43.4830224}, {"type": "node", "id": 8928521971, "lat": 36.5906961, "lon": 43.4823493}, {"type": "node", "id": 8928521972, "lat": 36.5901267, "lon": 43.4823869}, {"type": "node", "id": 8928521973, "lat": 36.5898369, "lon": 43.4809445}, {"type": "node", "id": 8928521974, "lat": 36.5903337, "lon": 43.4809099}, {"type": "node", "id": 8928521975, "lat": 36.5903237, "lon": 43.4806512}, {"type": "node", "id": 8928521976, "lat": 36.5906331, "lon": 43.4808413}, {"type": "node", "id": 8928521977, "lat": 36.5910737, "lon": 43.4806226}, {"type": "node", "id": 8928521978, "lat": 36.5917685, "lon": 43.4803995}, {"type": "node", "id": 8928521979, "lat": 36.591883, "lon": 43.480728}, {"type": "node", "id": 8928521980, "lat": 36.5930515, "lon": 43.4803182}, {"type": "node", "id": 8928521981, "lat": 36.5929983, "lon": 43.480006}, {"type": "node", "id": 8928521982, "lat": 36.5943835, "lon": 43.4796399}, {"type": "node", "id": 8928521983, "lat": 36.594349, "lon": 43.4793071}, {"type": "node", "id": 8928521984, "lat": 36.5950971, "lon": 43.4777433}, {"type": "node", "id": 8939968840, "lat": 36.8257191, "lon": 43.5360467}, {"type": "node", "id": 8939968845, "lat": 36.8238724, "lon": 43.5369688}, {"type": "node", "id": 8939968846, "lat": 36.8223163, "lon": 43.53528}, {"type": "node", "id": 8939968847, "lat": 36.8223821, "lon": 43.5338862}, {"type": "node", "id": 8942168300, "lat": 36.8229901, "lon": 43.4976779}, {"type": "node", "id": 8942168301, "lat": 36.8241609, "lon": 43.4978392}, {"type": "node", "id": 8942168302, "lat": 36.8243184, "lon": 43.4974974}, {"type": "node", "id": 8942168303, "lat": 36.8240449, "lon": 43.4972676}, {"type": "node", "id": 8942168304, "lat": 36.8217932, "lon": 43.4996305}, {"type": "node", "id": 8942168360, "lat": 36.8213621, "lon": 43.5024804}, {"type": "node", "id": 8942168361, "lat": 36.8214099, "lon": 43.5021821}, {"type": "node", "id": 8942168362, "lat": 36.8243456, "lon": 43.4999542}, {"type": "node", "id": 8942168363, "lat": 36.8245596, "lon": 43.4989272}, {"type": "node", "id": 8942168364, "lat": 36.8239588, "lon": 43.499835}, {"type": "node", "id": 8942168365, "lat": 36.8243021, "lon": 43.4989117}, {"type": "node", "id": 8942168366, "lat": 36.8243191, "lon": 43.4980655}, {"type": "node", "id": 8942168367, "lat": 36.8243553, "lon": 43.4985918}, {"type": "node", "id": 8944543321, "lat": 36.5611973, "lon": 43.4957413}, {"type": "node", "id": 8944543346, "lat": 36.5638479, "lon": 43.4935443}, {"type": "node", "id": 8944543347, "lat": 36.5634498, "lon": 43.4932388}, {"type": "node", "id": 8944543348, "lat": 36.5639742, "lon": 43.493413}, {"type": "node", "id": 8944543349, "lat": 36.5638262, "lon": 43.4930577}, {"type": "node", "id": 8944543350, "lat": 36.5587157, "lon": 43.4952271}, {"type": "node", "id": 8944543351, "lat": 36.5592134, "lon": 43.4957742}, {"type": "node", "id": 8944543352, "lat": 36.5605481, "lon": 43.4966314}, {"type": "node", "id": 8944543353, "lat": 36.5603226, "lon": 43.4968887}, {"type": "node", "id": 8944543354, "lat": 36.5595141, "lon": 43.4967257}, {"type": "node", "id": 8944543355, "lat": 36.5590007, "lon": 43.4970358}, {"type": "node", "id": 8986412554, "lat": 36.9478025, "lon": 43.9850158}, {"type": "node", "id": 8986412605, "lat": 36.9476484, "lon": 43.9860446}, {"type": "node", "id": 9082959908, "lat": 36.8366637, "lon": 43.8706539}, {"type": "node", "id": 9094858534, "lat": 36.8103293, "lon": 43.8919227}, {"type": "node", "id": 9094858535, "lat": 36.8106074, "lon": 43.8922661}, {"type": "node", "id": 9520386074, "lat": 36.7305755, "lon": 43.8371297, "tags": {"name": "\u0633\u0645\u0627\u0642\u0648\u06a9", "name:ckb": "\u0633\u0645\u0627\u0642\u0648\u06a9", "name:en": "Smaquk", "name:ku": "Simaquk", "place": "village"}}, {"type": "node", "id": 9520392299, "lat": 36.8482806, "lon": 43.8689379, "tags": {"name": "\u062e\u0627\u0646\u06d5\u06af\u06ce", "place": "village"}}, {"type": "node", "id": 9520419883, "lat": 36.9130798, "lon": 43.8568251, "tags": {"name": "\u06a9\u0627\u062f\u0627\u0646\u0627", "place": "village"}}, {"type": "node", "id": 9520419884, "lat": 36.6523585, "lon": 43.7252616, "tags": {"name": "\u06cc\u06d5\u06a9\u0645\u0627\u06b5\u06d5\u06cc \u0646\u0648\u06ce", "place": "village"}}, {"type": "node", "id": 9520424399, "lat": 36.8480472, "lon": 43.8119684, "tags": {"name": "\u06a9\u0627\u0646\u06cc \u0647\u06d5\u0646\u062c\u06cc\u0631\u06c6\u06a9", "place": "village"}}, {"type": "node", "id": 9520444085, "lat": 36.655529, "lon": 43.8086485, "tags": {"name": "\u06af\u0631\u062f\u06d5\u0633\u06ce\u0646", "place": "village"}}, {"type": "node", "id": 9520446718, "lat": 36.9062723, "lon": 43.8830299, "tags": {"name": "\u06af\u0648\u0631\u06af\u0627\u06a4\u0627", "place": "village"}}, {"type": "node", "id": 9520446719, "lat": 36.6943797, "lon": 43.8442441, "tags": {"name": "\u0634\u0627\u0628\u06c6\u0645\u06d5\u0631", "place": "village"}}, {"type": "node", "id": 9520447718, "lat": 36.9220123, "lon": 43.9163279, "tags": {"name": "\u0686\u0627\u0644\u06ce", "place": "village"}}, {"type": "node", "id": 9520450010, "lat": 36.809514, "lon": 43.9624823, "tags": {"name": "\u06af\u0631\u0628\u06cc\u0634 \u0698\u0648\u0648\u0631\u06cc", "place": "village"}}, {"type": "node", "id": 9520462636, "lat": 36.7680539, "lon": 43.5300763, "tags": {"name": "\u062e\u06d5\u0631\u0627\u0628\u06d5", "place": "village"}}, {"type": "node", "id": 9520473960, "lat": 36.7217135, "lon": 43.6121028, "tags": {"name": "\u06a9\u0641\u0631\u06ce", "place": "village"}}, {"type": "node", "id": 9520480997, "lat": 36.7670991, "lon": 43.5675212, "tags": {"name": "\u0642\u0648\u067e\u06ce", "place": "village"}}, {"type": "node", "id": 9520485178, "lat": 36.554996, "lon": 43.5282083, "tags": {"name": "\u06af\u06d5\u0631\u0645\u06a9 \u06af\u0686\u06a9\u06d5", "place": "village"}}, {"type": "node", "id": 9530900370, "lat": 36.7129549, "lon": 43.4627939, "tags": {"name": "\u0634\u06cc\u06a4\u06a9\u0627 \u0633\u06d5\u0631\u06cc", "place": "village"}}, {"type": "node", "id": 9695130796, "lat": 36.6052286, "lon": 43.8816536, "tags": {"name:": "\u0628\u0627\u0633\u06d5\u0648\u06ce", "place": "village"}}, {"type": "node", "id": 9712422836, "lat": 36.5921609, "lon": 43.9663952}, {"type": "node", "id": 9712422837, "lat": 36.5913235, "lon": 43.9674366}, {"type": "node", "id": 9712422838, "lat": 36.5907124, "lon": 43.9682536}, {"type": "node", "id": 9712422839, "lat": 36.5898893, "lon": 43.9693344}, {"type": "node", "id": 9712422840, "lat": 36.5897556, "lon": 43.969495}, {"type": "node", "id": 9712422841, "lat": 36.5896633, "lon": 43.9699414}, {"type": "node", "id": 9712422842, "lat": 36.5899124, "lon": 43.970928}, {"type": "node", "id": 9712422854, "lat": 36.5899844, "lon": 43.9691852}, {"type": "node", "id": 9712422859, "lat": 36.5902129, "lon": 43.9688928}, {"type": "node", "id": 9712422860, "lat": 36.5955228, "lon": 43.9666813}, {"type": "node", "id": 9712422861, "lat": 36.5948987, "lon": 43.9666433}, {"type": "node", "id": 9712422862, "lat": 36.5946319, "lon": 43.966579}, {"type": "node", "id": 9712422863, "lat": 36.5942332, "lon": 43.9665861}, {"type": "node", "id": 9712422864, "lat": 36.5939455, "lon": 43.9664459}, {"type": "node", "id": 9712422865, "lat": 36.5934878, "lon": 43.9665067}, {"type": "node", "id": 9712422866, "lat": 36.5926597, "lon": 43.9667841}, {"type": "node", "id": 9712422867, "lat": 36.5923502, "lon": 43.966403}, {"type": "node", "id": 9712422868, "lat": 36.5955062, "lon": 43.9673723}, {"type": "node", "id": 9712422869, "lat": 36.5952466, "lon": 43.9673856}, {"type": "node", "id": 9712422870, "lat": 36.5950621, "lon": 43.968004}, {"type": "node", "id": 9712422871, "lat": 36.5943844, "lon": 43.9679844}, {"type": "node", "id": 9712422894, "lat": 36.594497, "lon": 43.9680111}, {"type": "node", "id": 9712422919, "lat": 36.5909594, "lon": 43.9705576}, {"type": "node", "id": 9712422920, "lat": 36.5910588, "lon": 43.9706247}, {"type": "node", "id": 9718013193, "lat": 36.6056047, "lon": 43.9413625, "tags": {"name": "\u062e\u06d5\u0644\u0627\u0646\u06d5", "place": "village"}}, {"type": "node", "id": 9718133272, "lat": 36.5934876, "lon": 43.9681531}, {"type": "node", "id": 9718133282, "lat": 36.5938524, "lon": 43.9677765}, {"type": "node", "id": 9718133283, "lat": 36.5928756, "lon": 43.9686773}, {"type": "node", "id": 9718133284, "lat": 36.5926685, "lon": 43.9688156}, {"type": "node", "id": 9718133285, "lat": 36.5919888, "lon": 43.9694533}, {"type": "node", "id": 9718133286, "lat": 36.5913196, "lon": 43.9702264}, {"type": "node", "id": 9817729538, "lat": 36.8674077, "lon": 43.7930785}, {"type": "node", "id": 9817729554, "lat": 36.8678481, "lon": 43.8054643}, {"type": "node", "id": 9817729555, "lat": 36.8681727, "lon": 43.8058634}, {"type": "node", "id": 9817729556, "lat": 36.867802, "lon": 43.8058882}, {"type": "node", "id": 9817729557, "lat": 36.8678514, "lon": 43.8056433}, {"type": "node", "id": 9817729558, "lat": 36.8678623, "lon": 43.8055428}, {"type": "node", "id": 9817729559, "lat": 36.8679949, "lon": 43.805959}, {"type": "node", "id": 9817729560, "lat": 36.8681164, "lon": 43.8059489}, {"type": "node", "id": 9817729561, "lat": 36.8682975, "lon": 43.8054954}, {"type": "node", "id": 9817729562, "lat": 36.8685107, "lon": 43.8056027}, {"type": "node", "id": 9817729563, "lat": 36.8686859, "lon": 43.8059334}, {"type": "node", "id": 9817729567, "lat": 36.8670397, "lon": 43.8044389}, {"type": "node", "id": 9817729568, "lat": 36.8670824, "lon": 43.8038556}, {"type": "node", "id": 9817729569, "lat": 36.8674397, "lon": 43.8051641}, {"type": "node", "id": 9817729570, "lat": 36.8685932, "lon": 43.8069962}, {"type": "node", "id": 9817729571, "lat": 36.8685876, "lon": 43.8068191}, {"type": "node", "id": 9817729572, "lat": 36.8710699, "lon": 43.7868241}, {"type": "node", "id": 9817729573, "lat": 36.8709759, "lon": 43.7876636}, {"type": "node", "id": 9817729574, "lat": 36.8706955, "lon": 43.7876657}, {"type": "node", "id": 9817741917, "lat": 36.8624755, "lon": 43.7868932}, {"type": "node", "id": 9817741918, "lat": 36.8629586, "lon": 43.7868862}, {"type": "node", "id": 9853599472, "lat": 36.7482323, "lon": 43.9207949, "tags": {"name": "Bashqala Axay\u00ee", "name:ku": "Bashqala Axay\u00ee", "place": "village"}}, {"type": "node", "id": 9864777640, "lat": 36.7654122, "lon": 43.8654754}, {"type": "node", "id": 9864777641, "lat": 36.7653029, "lon": 43.8653453}, {"type": "node", "id": 9864777642, "lat": 36.7651903, "lon": 43.8652543}, {"type": "node", "id": 9864777643, "lat": 36.7649762, "lon": 43.865146}, {"type": "node", "id": 9864777644, "lat": 36.7647183, "lon": 43.8650205}, {"type": "node", "id": 9864777645, "lat": 36.7642438, "lon": 43.8647436}, {"type": "node", "id": 9864777646, "lat": 36.764171, "lon": 43.8646336}, {"type": "node", "id": 9864777647, "lat": 36.7641186, "lon": 43.8644873}, {"type": "node", "id": 9864777648, "lat": 36.7640718, "lon": 43.8643285}, {"type": "node", "id": 9864777649, "lat": 36.7640141, "lon": 43.8643005}, {"type": "node", "id": 9864777650, "lat": 36.7639098, "lon": 43.8642979}, {"type": "node", "id": 9864777651, "lat": 36.7637338, "lon": 43.8643423}, {"type": "node", "id": 9864777652, "lat": 36.7634873, "lon": 43.8649068}, {"type": "node", "id": 9864777653, "lat": 36.7665487, "lon": 43.8668735}, {"type": "node", "id": 9864777659, "lat": 36.7656097, "lon": 43.8659961}, {"type": "node", "id": 9864777660, "lat": 36.7656797, "lon": 43.8662323}, {"type": "node", "id": 9864777661, "lat": 36.7657974, "lon": 43.8664618}, {"type": "node", "id": 9864777662, "lat": 36.7659325, "lon": 43.8666635}, {"type": "node", "id": 9864777663, "lat": 36.7666425, "lon": 43.8666601}, {"type": "node", "id": 9864777664, "lat": 36.7662498, "lon": 43.8662259}, {"type": "node", "id": 9864777665, "lat": 36.7657678, "lon": 43.8648839}, {"type": "node", "id": 9864777666, "lat": 36.765464, "lon": 43.8633213}, {"type": "node", "id": 9864777667, "lat": 36.7656284, "lon": 43.8640515}, {"type": "node", "id": 9864777668, "lat": 36.7650964, "lon": 43.8622753}, {"type": "node", "id": 9864777669, "lat": 36.7650264, "lon": 43.8626039}, {"type": "node", "id": 9864777670, "lat": 36.7648424, "lon": 43.8625588}, {"type": "node", "id": 9864777671, "lat": 36.7649218, "lon": 43.8632613}, {"type": "node", "id": 9864777672, "lat": 36.7651588, "lon": 43.861997}, {"type": "node", "id": 9864777673, "lat": 36.7649088, "lon": 43.8619922}, {"type": "node", "id": 9864777674, "lat": 36.7648731, "lon": 43.8622098}, {"type": "node", "id": 9864777675, "lat": 36.7647279, "lon": 43.8615991}, {"type": "node", "id": 9864777676, "lat": 36.764202, "lon": 43.8607741}, {"type": "node", "id": 9864777677, "lat": 36.7640953, "lon": 43.8607719}, {"type": "node", "id": 9864777678, "lat": 36.7638763, "lon": 43.8597371}, {"type": "node", "id": 9864777679, "lat": 36.7638419, "lon": 43.8598756}, {"type": "node", "id": 9864777680, "lat": 36.7635352, "lon": 43.85979}, {"type": "node", "id": 9864777681, "lat": 36.7631108, "lon": 43.8611008}, {"type": "node", "id": 9864777682, "lat": 36.7629236, "lon": 43.8610287}, {"type": "node", "id": 9864777683, "lat": 36.7628233, "lon": 43.8613679}, {"type": "node", "id": 9864777684, "lat": 36.7629932, "lon": 43.8614393}, {"type": "node", "id": 9864777685, "lat": 36.7628179, "lon": 43.8619737}, {"type": "node", "id": 9864777686, "lat": 36.7623062, "lon": 43.8624528}, {"type": "node", "id": 9864777687, "lat": 36.7616481, "lon": 43.8629832}, {"type": "node", "id": 9864777688, "lat": 36.7608899, "lon": 43.862446}, {"type": "node", "id": 9864777689, "lat": 36.7653426, "lon": 43.8633487}, {"type": "node", "id": 9864777690, "lat": 36.7650507, "lon": 43.8631913}, {"type": "node", "id": 9864777691, "lat": 36.7648821, "lon": 43.8629017}, {"type": "node", "id": 9864802942, "lat": 36.7608263, "lon": 43.8628273}, {"type": "node", "id": 9864802943, "lat": 36.7612587, "lon": 43.8628918}, {"type": "node", "id": 9864802957, "lat": 36.7625852, "lon": 43.8635371}, {"type": "node", "id": 9864802958, "lat": 36.7621176, "lon": 43.8648154}, {"type": "node", "id": 9864802959, "lat": 36.7618472, "lon": 43.8648402}, {"type": "node", "id": 9864802960, "lat": 36.7612802, "lon": 43.8643377}, {"type": "node", "id": 9864802961, "lat": 36.7631908, "lon": 43.8647178}, {"type": "node", "id": 9864802962, "lat": 36.7625758, "lon": 43.8639031}, {"type": "node", "id": 9864802963, "lat": 36.7624008, "lon": 43.8633474}, {"type": "node", "id": 9864802964, "lat": 36.7621496, "lon": 43.8637193}, {"type": "node", "id": 9864802965, "lat": 36.7620369, "lon": 43.8640769}, {"type": "node", "id": 9864802966, "lat": 36.76151, "lon": 43.8646265}, {"type": "node", "id": 9864802967, "lat": 36.7605399, "lon": 43.8637307}, {"type": "node", "id": 9864802968, "lat": 36.7596506, "lon": 43.8629755}, {"type": "node", "id": 9864802969, "lat": 36.7600898, "lon": 43.8629479}, {"type": "node", "id": 9864802970, "lat": 36.7598144, "lon": 43.8625902}, {"type": "node", "id": 9864802971, "lat": 36.7595944, "lon": 43.8625113}, {"type": "node", "id": 9864802972, "lat": 36.7585791, "lon": 43.8624653}, {"type": "node", "id": 9864802973, "lat": 36.7586413, "lon": 43.8634112}, {"type": "node", "id": 9864802974, "lat": 36.7594932, "lon": 43.8622263}, {"type": "node", "id": 9864802975, "lat": 36.7594807, "lon": 43.8619831}, {"type": "node", "id": 9864803064, "lat": 36.7606583, "lon": 43.8633568}, {"type": "node", "id": 9864803065, "lat": 36.7607107, "lon": 43.8630125}, {"type": "node", "id": 9908670762, "lat": 36.7588155, "lon": 43.8623677}, {"type": "node", "id": 9908670763, "lat": 36.7597367, "lon": 43.8618562}, {"type": "node", "id": 9908670764, "lat": 36.7594769, "lon": 43.8631787}, {"type": "node", "id": 9908670765, "lat": 36.7593524, "lon": 43.8632562}, {"type": "node", "id": 9908670766, "lat": 36.7589394, "lon": 43.8633577}, {"type": "node", "id": 10034493495, "lat": 36.5277673, "lon": 43.9245126, "tags": {"name": "\u0645\u06d5\u0646\u062f\u0627\u0648\u06d5", "name:ar": "\u0645\u0646\u062f\u0627\u0648\u0629", "name:ckb": "\u0645\u06d5\u0646\u062f\u0627\u0648\u06d5", "name:en": "Mandawa", "place": "village"}}, {"type": "node", "id": 10135638142, "lat": 36.7849582, "lon": 43.93188, "tags": {"name": "\u0647\u06d5\u0634\u06a9\u0627", "name:ar": "\u0647\u0634\u0643\u0627", "name:ckb": "\u0647\u06d5\u0634\u06a9\u0627", "name:en": "hashka", "place": "village"}}, {"type": "node", "id": 10240662336, "lat": 36.7842089, "lon": 43.9277221}, {"type": "node", "id": 10240662337, "lat": 36.7844623, "lon": 43.928103}, {"type": "node", "id": 10240662338, "lat": 36.7847416, "lon": 43.92806}, {"type": "node", "id": 10240662339, "lat": 36.7850853, "lon": 43.9290364}, {"type": "node", "id": 10240662340, "lat": 36.7852357, "lon": 43.929031}, {"type": "node", "id": 10240662341, "lat": 36.7854763, "lon": 43.9298839}, {"type": "node", "id": 10240662342, "lat": 36.7856653, "lon": 43.9299376}, {"type": "node", "id": 10240662343, "lat": 36.785936, "lon": 43.9306403}, {"type": "node", "id": 10240662344, "lat": 36.785966, "lon": 43.9310158}, {"type": "node", "id": 10240662345, "lat": 36.7858758, "lon": 43.9314503}, {"type": "node", "id": 10240662346, "lat": 36.7858887, "lon": 43.9317454}, {"type": "node", "id": 10240662347, "lat": 36.7860648, "lon": 43.9319814}, {"type": "node", "id": 10240662348, "lat": 36.7864043, "lon": 43.9321209}, {"type": "node", "id": 10240662349, "lat": 36.786589, "lon": 43.9314772}, {"type": "node", "id": 10240662350, "lat": 36.7867093, "lon": 43.9315308}, {"type": "node", "id": 10240662351, "lat": 36.786705, "lon": 43.9317239}, {"type": "node", "id": 10240662352, "lat": 36.7869413, "lon": 43.9319171}, {"type": "node", "id": 10240662353, "lat": 36.7869112, "lon": 43.9321531}, {"type": "node", "id": 10240662354, "lat": 36.7871174, "lon": 43.9323408}, {"type": "node", "id": 10240662355, "lat": 36.7873763, "lon": 43.9328531}, {"type": "node", "id": 10240662356, "lat": 36.7872732, "lon": 43.9331991}, {"type": "node", "id": 10240662357, "lat": 36.7871078, "lon": 43.9331321}, {"type": "node", "id": 10240662358, "lat": 36.7870326, "lon": 43.9333762}, {"type": "node", "id": 10240662359, "lat": 36.7868178, "lon": 43.9333038}, {"type": "node", "id": 10240662360, "lat": 36.7868264, "lon": 43.9330463}, {"type": "node", "id": 10240662361, "lat": 36.7864902, "lon": 43.9329417}, {"type": "node", "id": 10240662362, "lat": 36.7860606, "lon": 43.9327056}, {"type": "node", "id": 10240662363, "lat": 36.7858457, "lon": 43.9329738}, {"type": "node", "id": 10240662364, "lat": 36.7854591, "lon": 43.9332474}, {"type": "node", "id": 10240662365, "lat": 36.7853603, "lon": 43.9327539}, {"type": "node", "id": 10240662366, "lat": 36.7857598, "lon": 43.932475}, {"type": "node", "id": 10240662367, "lat": 36.785588, "lon": 43.9321316}, {"type": "node", "id": 10240662368, "lat": 36.7854763, "lon": 43.931799}, {"type": "node", "id": 10240662369, "lat": 36.7854118, "lon": 43.9314503}, {"type": "node", "id": 10240662370, "lat": 36.7854075, "lon": 43.9311338}, {"type": "node", "id": 10240662371, "lat": 36.7850466, "lon": 43.9311553}, {"type": "node", "id": 10240662372, "lat": 36.7849306, "lon": 43.9311768}, {"type": "node", "id": 10240662373, "lat": 36.7847803, "lon": 43.9309193}, {"type": "node", "id": 10240662374, "lat": 36.78466, "lon": 43.9311553}, {"type": "node", "id": 10240662375, "lat": 36.7844924, "lon": 43.9316274}, {"type": "node", "id": 10240662376, "lat": 36.7842346, "lon": 43.9318741}, {"type": "node", "id": 10240662377, "lat": 36.7843249, "lon": 43.932255}, {"type": "node", "id": 10240662378, "lat": 36.7845096, "lon": 43.9322496}, {"type": "node", "id": 10240662379, "lat": 36.7846943, "lon": 43.9323891}, {"type": "node", "id": 10240662380, "lat": 36.7847674, "lon": 43.9326734}, {"type": "node", "id": 10240662381, "lat": 36.7851755, "lon": 43.9327807}, {"type": "node", "id": 10240662382, "lat": 36.785124, "lon": 43.9332313}, {"type": "node", "id": 10240662383, "lat": 36.7847373, "lon": 43.933167}, {"type": "node", "id": 10240662384, "lat": 36.7842089, "lon": 43.9330382}, {"type": "node", "id": 10240662385, "lat": 36.7838866, "lon": 43.9333547}, {"type": "node", "id": 10240662386, "lat": 36.7834484, "lon": 43.9337785}, {"type": "node", "id": 10240662387, "lat": 36.783066, "lon": 43.93358}, {"type": "node", "id": 10240662388, "lat": 36.7830102, "lon": 43.9334781}, {"type": "node", "id": 10240662389, "lat": 36.7832078, "lon": 43.932888}, {"type": "node", "id": 10240662390, "lat": 36.7837964, "lon": 43.931858}, {"type": "node", "id": 10240662391, "lat": 36.7838866, "lon": 43.9317561}, {"type": "node", "id": 10240662392, "lat": 36.7837663, "lon": 43.9313913}, {"type": "node", "id": 10240662393, "lat": 36.7835042, "lon": 43.9312197}, {"type": "node", "id": 10240662394, "lat": 36.7831348, "lon": 43.9310695}, {"type": "node", "id": 10240662395, "lat": 36.7831734, "lon": 43.9300663}, {"type": "node", "id": 10240662396, "lat": 36.7834871, "lon": 43.9300824}, {"type": "node", "id": 10240662397, "lat": 36.7835859, "lon": 43.9296908}, {"type": "node", "id": 10240662398, "lat": 36.7840542, "lon": 43.9293958}, {"type": "node", "id": 10240662399, "lat": 36.7841917, "lon": 43.92909}, {"type": "node", "id": 10240662400, "lat": 36.784269, "lon": 43.9290042}, {"type": "node", "id": 10240662401, "lat": 36.7840456, "lon": 43.9283926}, {"type": "node", "id": 10240662402, "lat": 36.7838737, "lon": 43.9280547}, {"type": "node", "id": 10935276152, "lat": 36.8253688, "lon": 43.5311758, "tags": {"description": "\u06af\u0648\u0646\u062f\u06ce \u0645\u06ce\u0631\u0633\u06cc\u062f\u0627", "name": "\u0645\u06ce\u0631\u0633\u06cc\u062f\u0627 \u0662", "place": "village"}}, {"type": "node", "id": 11182289289, "lat": 36.5564318, "lon": 43.6599778, "tags": {"name": "\u062e\u0631\u0627\u0628\u0629 \u064a\u0627\u0633\u064a\u0646", "place": "village"}}, {"type": "node", "id": 11543868169, "lat": 36.7643837, "lon": 43.8525495, "tags": {"name": "\u0631\u0627\u0633 \u0627\u0644\u0639\u06cc\u0646", "name:en": "ras allen", "place": "village"}}, {"type": "node", "id": 11543881584, "lat": 36.765594, "lon": 43.8522397, "tags": {"name": "ras allen", "place": "village"}}, {"type": "way", "id": 298295803, "nodes": [3022083222, 3022083200, 3022083160, 3022083150, 3022083134, 3022083152, 3022083128, 3022083110, 3022083101, 3022083112, 3022083105, 3022083107, 3022083122, 3022083136, 3022083145, 3022083153, 3022083149, 3022083158, 3022083170, 3022083197, 3022083211, 3022083215, 3022083221, 3022083226, 3022083227, 3022083222], "tags": {"place": "village"}}, {"type": "way", "id": 298619110, "nodes": [3025093392, 8893542738, 3025093781, 8893542739, 3025093379, 8893542740, 8893542741, 8893512634, 3025093778, 8893512649, 8893542742, 8893542743, 3025093368, 8893542744, 8893542745, 8893542746, 8893542747, 8893542748, 3025093392], "tags": {"landuse": "residential", "place": "village"}}, {"type": "way", "id": 303341204, "nodes": [3076956865, 3076956866, 3076956867, 3076956868, 3076956870, 9094858535, 9094858534, 3076956871, 3076956865], "tags": {"landuse": "residential", "place": "hamlet"}}, {"type": "way", "id": 303341596, "nodes": [3076961659, 8044464423, 8044464424, 8044464425, 3076961660, 8044464415, 8044464416, 8044464417, 3076961661, 8044464419, 8044464418, 8044464420, 3076961662, 8044464421, 8044464422, 3076961659], "tags": {"landuse": "residential", "place": "village"}}, {"type": "way", "id": 307339727, "nodes": [3124474944, 8874591596, 8944543321, 8944543352, 8944543353, 3124474945, 8944543354, 8944543355, 3124474946, 8944543351, 8944543350, 8874591565, 3124474947, 8874591582, 3124474948, 8944543347, 8944543349, 8944543348, 8944543346, 3124474944], "tags": {"landuse": "residential", "place": "village"}}, {"type": "way", "id": 307340253, "nodes": [3124482150, 8928521984, 3124482151, 8928521983, 8928521982, 4532549693, 8928521981, 8928521980, 8928521979, 8928521978, 8928521977, 3124482152, 8928521976, 3124482153, 8928521975, 8928521974, 8928521973, 8928521972, 8928521971, 3124482154, 8928521970, 8928521969, 3124482155, 3124482156, 8928521968, 8928521967, 3124482157, 3124482158, 3124482150], "tags": {"landuse": "residential", "name": "Tall Jumal", "place": "village"}}, {"type": "way", "id": 309381631, "nodes": [3147107896, 8814969233, 8814969232, 3147107897, 8814969229, 8814969231, 8814969230, 8814969228, 3147107898, 8814969227, 3147107899, 3147107900, 8814969235, 8814969234, 3147107896], "tags": {"landuse": "residential", "name": "\u06af\u06d5\u0631\u0645\u06a9 \u0645\u06d5\u0632\u0646", "place": "village"}}, {"type": "way", "id": 310872474, "nodes": [3163720845, 8047392521, 8047392520, 8047392519, 8047392518, 8089107955, 8089107956, 8378997478, 8047392517, 8047392516, 8042054143, 8047392536, 3163720846, 8047392535, 8047392534, 8378966866, 8047392533, 3163720847, 3163720848, 8047392529, 8047392530, 8047392531, 8047392532, 3163720849, 6531900860, 8047392526, 8047392528, 3163720850, 8047392525, 8047392524, 8378967547, 8047392523, 8047392522, 3163720845], "tags": {"landuse": "residential", "name": "\u06af\u06d5\u0631\u06ce", "name:de": "Gare", "name:en": "Gare", "name:fr": "Gare", "place": "village"}}, {"type": "way", "id": 311943817, "nodes": [3177170328, 8928278464, 8928278463, 8928278462, 8928278461, 8928278460, 8928278459, 8928278458, 8928278457, 8928278456, 8928278455, 8928278454, 8928278453, 8928278452, 8928278451, 8928278450, 8928278449, 8928278448, 8928278447, 8928278446, 8928278445, 8928278444, 8928278443, 8928278442, 8928278441, 8928278440, 8928278439, 8928278438, 8928278437, 8928278436, 8928278435, 8928278434, 8928278433, 8928278432, 8928278431, 8928278430, 8928278429, 8928278428, 8928278427, 8928278426, 8928278425, 8928278424, 8928278423, 8928278422, 8928278421, 8928278420, 8928278419, 8928278418, 8928278417, 8928278416, 8928278415, 3177170327, 3177170328]}, {"type": "way", "id": 841794064, "nodes": [7853783708, 7853783709, 7853783710, 7853783711, 7853783712, 7853783714, 8065773735, 7853783715, 8065773739, 8065773738, 7853783716, 7853783717, 8065773737, 8065773736, 7853783718, 7853783719, 7853783720, 7853783721, 7853783722, 7853783723, 7853783724, 8065773740, 7853783730, 7853783731, 7853783708], "tags": {"int_name": "Balmand\u012b, Blmindi, \u0628\u0644\u0645\u0646\u062f\u064a, Balmandi, Blmindi,", "landuse": "residential", "name": "\u0628\u0644\u0645\u0646\u062f\u064a", "name:de": "Balmandi", "name:en": "Balmandi", "name:fr": "Balmandi", "place": "village"}}, {"type": "way", "id": 842032732, "nodes": [7855632267, 7855632268, 7855632269, 7855632270, 7855632271, 7855632272, 7855632273, 7855632274, 7855632275, 7855632276, 7855632277, 7855632278, 7855632279, 7855632280, 7855632281, 7855632282, 7855632283, 7855632284, 7855632285, 7855632286, 7855632287, 7855632288, 7855632289, 7855632290, 7855632291, 7855632292, 7855632293, 7855632294, 7855632267], "tags": {"alt_name": "\u0645\u064a\u0631\u0648\u0643\u064a", "int_name": "Mabruky, M\u0113r\u014dke, M\u012br\u016bk\u012b, \u0645\u064a\u0631\u0648\u0643\u064a, Mabruky, Meroke, Miruki, \u0645\u064a\u0631\u0648\u0643\u064a", "is_in": "Iraq , \u062c\u0645\u0647\u0648\u0631\u064a\u0629 \u0627\u0644\u0639\u0631\u0627\u0642", "landuse": "residential", "name": "\u0645\u064a\u0631\u0648\u0643\u064a", "name:ar": "\u0645\u064a\u0631\u0648\u0643\u064a", "name:de": "Mabruky", "name:en": "Mabruky", "name:fr": "Mabruky", "place": "village"}}, {"type": "way", "id": 857890002, "nodes": [7997927005, 8058104636, 8058104635, 8058104634, 8058104633, 7997927006, 8058104631, 8058104632, 8083223531, 7997927007, 7997927008, 7997927009, 7997927010, 7997927011, 7997927012, 7997927013, 7997931119, 7997931120, 7997927014, 7997927015, 7997927016, 8094671889, 8986412605, 8094671890, 7997927018, 8986412554, 8094671891, 7997927019, 8058104655, 8058104657, 8058104656, 8058104644, 8058104643, 7997927021, 8058104641, 7997927022, 8058104642, 7997927023, 8058104640, 8058104639, 7997927024, 8058104638, 8058104637, 7997927005], "tags": {"landuse": "residential", "place": "village"}}, {"type": "way", "id": 863285525, "nodes": [8042047686, 9712422860, 9712422868, 9712422869, 8042047687, 9712422870, 8042047688, 9712422894, 9712422871, 8042047689, 9718133282, 9718133272, 8042047690, 9718133283, 9718133284, 9718133285, 8042047691, 9718133286, 9712422920, 9712422919, 8042047692, 8042047693, 8042047694, 9712422842, 8042047695, 9712422841, 8042047696, 9712422840, 9712422839, 9712422854, 9712422859, 9712422838, 9712422837, 9712422836, 8042047697, 9712422867, 8042047698, 9712422866, 8042047702, 9712422865, 8042047699, 9712422864, 9712422863, 9712422862, 9712422861, 8042047686], "tags": {"landuse": "residential", "place": "village"}}, {"type": "way", "id": 863564213, "nodes": [8044566593, 8046877374, 4677304061, 8044566594, 8045075464, 9817729572, 9817729573, 9817729574, 8045087269, 8046877366, 8045087270, 8045087271, 8046877365, 8045087268, 8044566595, 8046877370, 8044566596, 8044566597, 8044566598, 8045087266, 8045087267, 8044566599, 8045087265, 8045087264, 9817729538, 8044566600, 8044566601, 8044566602, 8044588371, 8046877314, 8044588370, 8046877338, 8044588369, 8046877336, 8044588368, 8044588367, 8044588366, 8046877327, 8046877328, 8046877333, 8046877334, 8046877335, 8046877332, 8046877331, 8044566603, 8046877330, 8046877329, 8046877310, 8044566604, 8046877299, 8046877300, 8046877303, 8046877340, 8046877341, 8046877339, 8044566605, 8046877294, 8046877296, 8046877295, 8044566606, 8044566607, 9817741917, 9817741918, 8044566608, 8044566609, 8044566610, 8044566611, 8044566612, 8044566613, 8045087272, 8045087273, 8044566614, 8044566615, 8044588968, 8044588969, 8044588970, 8044588971, 8044566616, 8044588972, 8044588973, 8046877387, 8044566617, 8044566618, 8044566593], "tags": {"int_name": "Gise", "landuse": "residential", "name": "\u06af\u0633\u06ce", "name:ar1": "\u0643\u064a\u0632\u0629", "name:de": "Gise", "name:en": "Gise", "name:fr": "Gise", "name:ku": "G\u00ees\u00ea", "place": "village"}}, {"type": "way", "id": 864035543, "nodes": [8049241947, 8049241948, 8049241949, 8049241950, 8049241951, 8049241952, 8049241953, 8049241954, 8049241955, 8049241956, 8049241957, 8049241958, 8049241959, 8049241947], "tags": {"landuse": "residential", "place": "village"}}, {"type": "way", "id": 864035565, "nodes": [8049242142, 8049322769, 8049322768, 8049322774, 8049242143, 8049322770, 8049322771, 8049322772, 8049242144, 8049322773, 8049242145, 8049242146, 8049242147, 8049242148, 8049242149, 8049242150, 8049242151, 8049242152, 8049242153, 8049242154, 8049242155, 8049242156, 8049242157, 8049322832, 8049322824, 8049242158, 9817729568, 9817729567, 8049322833, 9817729569, 9817729554, 9817729558, 9817729557, 9817729556, 9817729559, 9817729560, 9817729555, 9817729561, 9817729562, 9817729563, 8049242159, 9817729571, 9817729570, 8049242160, 8049242161, 8049322798, 8049826733, 8049242162, 8049826734, 8049322803, 8049242163, 8049242164, 8049242142], "tags": {"landuse": "residential", "name": "\u062f\u0648\u062f\u06cc \u0698\u0648\u0648\u0631\u06cc", "name:ar": "\u062f\u0648\u062f\u064a", "name:de": "Dudy", "name:en": "Dudy", "name:fr": "Dudy", "place": "village"}}, {"type": "way", "id": 864151098, "nodes": [8050490890, 8050490891, 8050490892, 8050490893, 8050490894, 8050490895, 8050491012, 8050490896, 8050490897, 8050490898, 8050490899, 8050490900, 8050490901, 8050490902, 8050490903, 8050490904, 8050490905, 8050490906, 8050490907, 8050490985, 8050490986, 8050490987, 8050490988, 8050490908, 8050490909, 8050490910, 8050490911, 8050490912, 8050490913, 8050490914, 8050490915, 8050490916, 8050490917, 8050490918, 8050490990, 8050490991, 8050490992, 8050490919, 8050490920, 8050490921, 8050490989, 8050490890], "tags": {"landuse": "residential", "name": "\u0628\u0627\u0645\u0634\u0645\u0634", "name:de": "Ba Mishmish", "name:en": "Ba Mishmish", "name:fr": "Ba Mishmish", "place": "village"}}, {"type": "way", "id": 864151113, "nodes": [8050491071, 8050491072, 8050491073, 8050491074, 8050491075, 8050491076, 8050491077, 8050491078, 8050491079, 8050491139, 8050491140, 8050491080, 8050491081, 8050491082, 8050491083, 8050491084, 8050491085, 8050491086, 8050491087, 8050491088, 8050491089, 8050491071], "tags": {"landuse": "residential", "place": "village"}}, {"type": "way", "id": 864265380, "nodes": [8051334916, 8051334917, 8051334918, 8917690525, 8917691101, 8051334919, 8051334920, 8051334921, 8051334922, 8051334923, 8051334924, 8051334925, 8051334926, 8051334927, 8051334928, 8051334929, 8051334930, 8051334931, 8051334932, 8051334933, 8051334934, 8051334935, 8917690524, 8917690523, 8917690522, 8051334936, 8051334937, 8051334938, 8051334916], "tags": {"landuse": "residential", "place": "village"}}, {"type": "way", "id": 864265381, "nodes": [8051334939, 8051334940, 8051334941, 8051334942, 8051334943, 9082959908, 8051334944, 8051334945, 8051334946, 8051334947, 8051334948, 8051334949, 8051334950, 8051334951, 8051334952, 8051334953, 8051334939], "tags": {"landuse": "residential", "place": "village"}}, {"type": "way", "id": 866154077, "nodes": [8073330460, 8942168363, 8942168365, 8942168364, 8942168362, 8073330461, 8073330462, 8073330463, 8073330464, 8073330465, 8073330466, 8073330467, 8073330468, 8942168361, 8942168360, 8073330469, 8073330470, 8073330471, 8073330472, 8942168304, 8073330473, 8073330474, 8942168300, 8073330475, 8942168303, 8942168302, 8942168301, 8942168366, 8942168367, 8073330460], "tags": {"landuse": "residential", "name": "Mersida One", "name:ckb": "\u0645\u06cc\u0631\u0633\u06cc\u062f\u0627 \u0626\u06cc\u06a9\u06cc", "place": "village"}}, {"type": "way", "id": 866154096, "nodes": [8073337304, 8939968840, 8073337306, 8939968845, 8073337307, 8073337308, 8073337309, 8073337310, 8939968846, 8073337311, 8939968847, 8073337312, 8073337304], "tags": {"landuse": "residential", "place": "village"}}, {"type": "way", "id": 866154102, "nodes": [8073337357, 8073337358, 8073337359, 8073337360, 8073337361, 8073337362, 8073337363, 8073337364, 8073337365, 8073337366, 8073337367, 8073337368, 8073337369, 8073337370, 8073337371, 8073337357], "tags": {"landuse": "residential", "place": "village"}}, {"type": "way", "id": 866154165, "nodes": [8073338012, 8073338013, 8073338014, 8073338015, 8073338016, 8073338017, 8073338018, 8073338019, 8073338020, 8073338021, 8073338022, 8073338023, 8073338024, 8073338012], "tags": {"landuse": "residential", "place": "village"}}, {"type": "way", "id": 866154167, "nodes": [8073338032, 8073338034, 8916963543, 8073338035, 8916963542, 8916963541, 8073338036, 8073338037, 8916963540, 8916963539, 8073338038, 8916963538, 8916963537, 8916963536, 8916963535, 8916963534, 8916963533, 8073338039, 8916963604, 8916963605, 8073338040, 8916963606, 8916963607, 8916963608, 8916963609, 8073338041, 8916963602, 8916963603, 8916963601, 8073338042, 8916963600, 8073338043, 8073338044, 8073338045, 8916963599, 8073338046, 8073338047, 8916963595, 8916963596, 8916963598, 8916963597, 8073338048, 8073338049, 8073338050, 8073338051, 8073338052, 8073338053, 8073338054, 8073338055, 8073338032], "tags": {"landuse": "residential", "place": "village"}}, {"type": "way", "id": 907464418, "nodes": [8426343557, 9864777677, 9864777676, 8426343558, 9864777675, 8426343559, 9864777672, 9864777673, 9864777674, 9864777668, 9864777669, 9864777670, 9864777691, 9864777671, 9864777690, 8426343560, 9864777689, 9864777666, 8426343561, 9864777667, 8426343562, 9864777665, 8426343563, 9864777664, 9864777663, 8426343564, 8426343565, 9864777653, 8426343566, 8426343567, 9864777662, 9864777661, 9864777660, 9864777659, 8426343568, 8426343569, 9864777640, 9864777641, 9864777642, 9864777643, 9864777644, 8426343570, 9864777645, 9864777646, 9864777647, 9864777648, 9864777649, 9864777650, 8426343571, 9864777651, 9864777652, 9864802961, 8426343577, 9864802962, 9864802957, 9864802963, 9864802964, 9864802965, 9864802958, 9864802959, 9864802966, 9864802960, 8426343578, 8426343579, 9864802967, 8426343580, 9864803064, 9864803065, 8426343581, 9864802969, 9864802970, 9864802971, 9864802968, 9908670764, 9908670765, 8426343582, 9908670766, 9864802973, 9864802972, 9908670762, 8426343583, 9864802974, 9864802975, 9908670763, 8426343584, 9864777688, 9864802942, 9864802943, 9864777687, 8426343585, 8426343586, 9864777686, 8426343587, 9864777685, 9864777684, 9864777683, 9864777682, 9864777681, 8426343588, 9864777680, 9864777679, 9864777678, 8426343557], "tags": {"landuse": "residential", "place": "village"}}, {"type": "way", "id": 958877770, "nodes": [8872613745, 8872613742, 8872613743, 8872613744, 8872613746, 8872613747, 8872613748, 8872613749, 8872613750, 8872613751, 8872613752, 8872613753, 8872613754, 8872613755, 8872613756, 8872613757, 8872613758, 8872613759, 8872613760, 8872613761, 8872613762, 8872613763, 8872613764, 8872613765, 8872613766, 8872613767, 8872613768, 8872613769, 8872613770, 8872613771, 8872613772, 8872613773, 8872613774, 8872613775, 8872613776, 8872613777, 8872613778, 8872613779, 8872613780, 8872613781, 8872613782, 8872613783, 8872613784, 8872613785, 8872613786, 8872613787, 8872613788, 8872613789, 8872613790, 8872613791, 8872613792, 8872613793, 8872613794, 8872613795, 8872613796, 8872613797, 8872613798, 8872613799, 8872613800, 8872613801, 8872613802, 8872613803, 8872613804, 8872613805, 8872613806, 8872613807, 8872613808, 8872613809, 8872613810, 8872613811, 8872613812, 8872613813, 8872613814, 8872613745], "tags": {"landuse": "residential", "name": "\u0626\u06cc\u0633\u0645\u0627\u0648\u06d5", "name:ar": "\u0627\u064a\u0633\u0645\u0627\u0648\u0629", "name:ckb": "\u0626\u06cc\u0633\u0645\u0627\u0648\u06d5", "name:en": "ismawa", "place": "village", "source": "Bing Sat"}}, {"type": "way", "id": 1119657124, "nodes": [10240662336, 10240662337, 10240662338, 10240662339, 10240662340, 10240662341, 10240662342, 10240662343, 10240662344, 10240662345, 10240662346, 10240662347, 10240662348, 10240662349, 10240662350, 10240662351, 10240662352, 10240662353, 10240662354, 10240662355, 10240662356, 10240662357, 10240662358, 10240662359, 10240662360, 10240662361, 10240662362, 10240662363, 10240662364, 10240662365, 10240662366, 10240662367, 10240662368, 10240662369, 10240662370, 10240662371, 10240662372, 10240662373, 10240662374, 10240662375, 10240662376, 10240662377, 10240662378, 10240662379, 10240662380, 10240662381, 10240662382, 10240662383, 10240662384, 10240662385, 10240662386, 10240662387, 10240662388, 10240662389, 10240662390, 10240662391, 10240662392, 10240662393, 10240662394, 10240662395, 10240662396, 10240662397, 10240662398, 10240662399, 10240662400, 10240662401, 10240662402, 10240662336], "tags": {"name": "\u0647\u06d5\u0634\u06a9\u0627", "name:ar": "\u0647\u0634\u0643\u0627", "name:ckb": "\u0647\u06d5\u0634\u06a9\u0627", "name:en": "hashka", "place": "village"}}, {"type": "relation", "id": 12982310, "members": [{"type": "way", "ref": 311943817, "role": "outer"}], "tags": {"landuse": "residential", "name": "\u062f\u0627\u0631\u06d5\u062a\u0648\u0648 \u062e\u0627\u0632\u06d5\u0631", "place": "village", "type": "multipolygon"}}]}