{"version": 0.6, "generator": "Overpass API 0.7.61.5 4133829e", "osm3s": {"timestamp_osm_base": "2024-03-06T11:30:59Z", "copyright": "The data included in this document is from www.openstreetmap.org. The data is made available under ODbL."}, "elements": [{"type": "node", "id": 3068278553, "lat": 0.6936238, "lon": 34.1809733, "tags": {"addr:city": "Tororo", "addr:street": "Mbale road", "amenity": "bank", "atm": "yes", "name": "Barclays, Tororo branch", "opening_hours": "Mo-Sa 08:00-18:00", "operator": "Barclays Bank of Uganda", "website": "http://www.barclays.co.ug/"}}, {"type": "node", "id": 3136379873, "lat": 0.6944115, "lon": 34.1816281, "tags": {"addr:city": "Tororo", "addr:housenumber": "11", "addr:street": "Mbale- Tororo Road", "amenity": "bank", "atm": "yes", "name": "Housing Finance Bank Tororo Branch", "opening_hours": "Sa 09:00-14:00;Mo-Fr 08:30-17:00", "operator": "Housing Finance Bank", "phone": "+256 414 259651", "website": "https://www.housingfinance.co.ug/"}}, {"type": "node", "id": 3136379874, "lat": 0.6941998, "lon": 34.1814542, "tags": {"addr:city": "Tororo", "addr:street": "Mbale Tororo Road", "amenity": "bank", "name": "DFCU Tororo Branch", "opening_hours": "Sa 09:00-13:00;Mo-Fr 08:30-17:00", "operator": "DFCU Bank", "website": "https://www.dfcugroup.com/"}}, {"type": "node", "id": 3193611087, "lat": 0.6926396, "lon": 34.1812016, "tags": {"addr:city": "Tororo", "addr:street": "Uhuru drive", "amenity": "bank", "name": "Stanbic Bank, Tororo branch", "opening_hours": "24/7", "operator": "Stanbic Bank Uganda", "website": "https://www.stanbicbank.co.ug/"}}, {"type": "node", "id": 3193612419, "lat": 0.6925084, "lon": 34.1814997, "tags": {"addr:city": "Tororo", "addr:street": "Uhuru Drive", "amenity": "bank", "atm": "yes", "name": "Centenary Bank, Tororo branch", "opening_hours": "24/7", "operator": "Centenary Rural Development Bank", "website": "https://www.centenarybank.co.ug/"}}, {"type": "node", "id": 3986134106, "lat": 0.6928268, "lon": 34.1818756, "tags": {"addr:city": "Western Division", "addr:street": "Uhuru Drive", "amenity": "bank", "name": "Equity Bank Tororo Branch", "network": "Visa", "opening_hours": "Mo-Fr 09:00-17:00", "operator": "Equity Bank Uganda"}}, {"type": "node", "id": 3986168667, "lat": 0.6923231, "lon": 34.1819735, "tags": {"addr:city": "Western Division", "addr:street": "Uhuru drive", "amenity": "bank", "opening_hours": "Mo-Fr 08:00-18:00; Sa-Su 08:00-15:00"}}, {"type": "node", "id": 3987410915, "lat": 0.6932497, "lon": 34.1806199, "tags": {"addr:city": "Tororo", "amenity": "bank", "name": "Platinum Credit Tororo Branch", "opening_hours": "Mo-Fr 08:00-18:00; Sa-Su 08:00-15:00", "operator": "Platinum Credit Ltd"}}, {"type": "node", "id": 3987508662, "lat": 0.6953824, "lon": 34.1787476, "tags": {"addr:city": "Tororo", "amenity": "bank", "name": "Umubano Uganda Limited", "opening_hours": "Mo-Fr 08:30-17:30; Sa 09:00- 13:00", "operator": "Umubano (U) Ltd."}}, {"type": "node", "id": 3990323923, "lat": 0.6427198, "lon": 34.263206, "tags": {"addr:city": "Malaba Town Council", "amenity": "bank", "description": "Malaba", "name": "Diamond Trust Bank Malaba Branch", "opening_hours": "Mo-Fr 09:00-18:00; Sa 09:00-15:00"}}, {"type": "node", "id": 3990886712, "lat": 0.6419686, "lon": 34.2641371, "tags": {"addr:city": "Malaba Town Council", "amenity": "bank", "name": "Crane Bank Malaba", "opening_hours": "Mo-Su 08:30-20:00", "operator": "Crane Bank"}}, {"type": "node", "id": 3997644175, "lat": 0.6937009, "lon": 34.1818925, "tags": {"amenity": "bank", "name": "FTB, Tororo", "opening_hours": "Mo - Fr 09:00-17:30;Sa 9:00-14:30", "operator": "Finance Trust"}}, {"type": "node", "id": 3997793461, "lat": 0.6934579, "lon": 34.1795476, "tags": {"addr:city": "Tororo", "addr:street": "Nagongera Road", "amenity": "bank", "opening_hours": "Sa 08:00-12:00;Mo-Fr 07:00-17:00", "operator": "Bay Port"}}, {"type": "node", "id": 3997793462, "lat": 0.693497, "lon": 34.17949, "tags": {"addr:city": "Tororo", "addr:street": "Nagongera Road", "amenity": "bank", "opening_hours": "Sa 08:00-12:00;Mo-Fr 08:00-17:00", "operator": "Vision Fund"}}, {"type": "node", "id": 3997793463, "lat": 0.6935318, "lon": 34.1794089, "tags": {"addr:city": "Tororo", "addr:street": "Nagongera Road", "amenity": "bank", "opening_hours": "Mo-Fr 08:00-18:00; Sa-Su 08:00-15:00", "operator": "Letshego Uganda"}}, {"type": "node", "id": 3997879788, "lat": 0.466714, "lon": 34.0886037, "tags": {"addr:city": "Western Division", "addr:street": "Jinja Road", "amenity": "bank", "name": "Busia", "opening_hours": "Mo-Fr 09:00-17:00", "operator": "Stanbic Bank Uganda"}}, {"type": "node", "id": 3997958533, "lat": 0.4658128, "lon": 34.0900509, "tags": {"addr:city": "Eastern Division", "addr:street": "Customs Road", "amenity": "bank", "name": "Equity Bank Busia Branch", "opening_hours": "Mo-Su 08:00-18:00", "operator": "Equity Bank"}}, {"type": "node", "id": 3997958546, "lat": 0.4660399, "lon": 34.0905844, "tags": {"addr:city": "Eastern Division", "addr:street": "Customs Road", "amenity": "bank", "name": "Butare Uganda Limited Busia Branch", "operator": "Butare Uganda Limited"}}, {"type": "node", "id": 3997958657, "lat": 0.4658046, "lon": 34.0973168, "tags": {"addr:city": "Eastern Division", "addr:street": "Customs Road", "amenity": "bank", "name": "DFCU Busia Branch", "opening_hours": "Mo-Sa 08:00-16:30", "operator": "Crane Bank"}}, {"type": "node", "id": 3997958665, "lat": 0.4660673, "lon": 34.0934475, "tags": {"addr:city": "Eastern Division", "addr:street": "Customs Road", "amenity": "bank", "name": "Equity Bank Busia Branch", "opening_hours": "Sa 08:30-13:00;Mo-Fr 08:30-17:00", "operator": "Equity Bank Uganda"}}, {"type": "node", "id": 3997958672, "lat": 0.4660594, "lon": 34.0915035, "tags": {"addr:city": "Eastern Division", "addr:street": "Customs Road", "amenity": "bank", "name": "Finance Trust Bank Busia Branch", "opening_hours": "Mo-Fr 09:30-17:00; Sa 09:00-16:00", "operator": "Finance Trust Bank"}}, {"type": "node", "id": 6934958828, "lat": 0.6346039, "lon": 34.2785429, "tags": {"addr:city": "Malaba", "addr:street": "A104", "amenity": "bank", "brand": "Equity Bank", "brand:wikidata": "Q5384664", "brand:wikipedia": "en:Equity Bank Kenya Limited", "name": "Equity Bank"}}, {"type": "node", "id": 6934958830, "lat": 0.6354814, "lon": 34.2696027, "tags": {"addr:city": "Malaba", "addr:street": "Busia - Malaba Road", "amenity": "bank", "brand": "Equity Bank", "brand:wikidata": "Q5384664", "brand:wikipedia": "en:Equity Bank Kenya Limited", "name": "Equity Bank"}}, {"type": "node", "id": 6945529537, "lat": 0.4626529, "lon": 34.1073203, "tags": {"addr:city": "Busia", "addr:street": "Kisumu-Busia Road", "amenity": "bank", "brand": "Equity Bank", "brand:wikidata": "Q5384664", "brand:wikipedia": "en:Equity Bank Kenya Limited", "name": "Equity Bank"}}, {"type": "node", "id": 6945529538, "lat": 0.4627147, "lon": 34.1069234, "tags": {"addr:city": "Busia", "addr:street": "Kisumu-Busia Road", "amenity": "bank", "name": "Ecobank Busia"}}, {"type": "node", "id": 6945529539, "lat": 0.4617535, "lon": 34.1092956, "tags": {"addr:city": "Busia", "addr:street": "Kisumu-Busia Road", "amenity": "bank", "name": "Co-operative bank"}}, {"type": "node", "id": 6945529541, "lat": 0.4601574, "lon": 34.1118265, "tags": {"addr:city": "Busia", "addr:street": "Kisumu-Busia Road", "amenity": "bank", "brand": "Barclays", "brand:wikidata": "Q245343", "brand:wikipedia": "en:Barclays", "name": "Barclays"}}, {"type": "node", "id": 6945529543, "lat": 0.4585688, "lon": 34.1136512, "tags": {"addr:city": "Busia", "amenity": "bank", "name": "KCB Bank"}}, {"type": "node", "id": 7023166221, "lat": 0.4640902, "lon": 34.1029894, "tags": {"amenity": "bank", "atm": "yes", "name": "Family Bank"}}, {"type": "node", "id": 8420795717, "lat": 0.5409677, "lon": 34.0261485, "tags": {"amenity": "bank", "name": "Jerom Mobile Banking Services And Mobile Money"}}, {"type": "node", "id": 9072468270, "lat": 0.4657273, "lon": 34.0981941, "tags": {"amenity": "bank", "atm": "yes", "brand": "DTB - Diamond Trust Bank", "name": "DTB - Diamond Trust Bank Busia Branch", "opening_hours": "Mo-Su 8:00-19:00", "operator": "Diamond Trust Bank"}}]}