{"version": 0.6, "generator": "Overpass API 0.7.61.5 4133829e", "osm3s": {"timestamp_osm_base": "2024-03-06T11:06:30Z", "copyright": "The data included in this document is from www.openstreetmap.org. The data is made available under ODbL."}, "elements": [{"type": "node", "id": 4817525834, "lat": 36.8580879, "lon": 42.8520294, "tags": {"addr:postcode": "42003", "amenity": "bank", "name": "\u0628\u0627\u0646\u0643\u0627 \u0633\u064a\u0645\u064a\u0644", "name:ar": "\u0628\u0646\u0643 \u0633\u064a\u0645\u064a\u0644", "name:en": "Semel bank"}}, {"type": "node", "id": 5509631122, "lat": 36.8581532, "lon": 42.8482474, "tags": {"addr:postcode": "42003", "amenity": "bank", "name": "qaydar o ibrahim saraf"}}, {"type": "node", "id": 8297306907, "lat": 36.8584325, "lon": 42.8522274}, {"type": "node", "id": 8297306908, "lat": 36.8584611, "lon": 42.8519491}, {"type": "node", "id": 8297306909, "lat": 36.8580468, "lon": 42.8518826}, {"type": "node", "id": 8297306910, "lat": 36.8580182, "lon": 42.8521609}, {"type": "way", "id": 892745652, "nodes": [8297306907, 8297306908, 8297306909, 8297306910, 8297306907], "tags": {"addr:city": "\u062f\u0647\u06c6\u06a9", "addr:street": "\u062c\u0627\u062f\u0627 \u0633\u06ce\u0645\u06ce\u0644", "amenity": "bank", "building": "yes", "name": "Summel Bank", "name:ar": "\u0645\u0635\u0631\u0641 \u0633\u0645\u064a\u0644", "name:ckb": "\u0628\u0627\u0646\u0643\u0627 \u0633\u06ce\u0645\u06ce\u0644"}}]}