{"version": 0.6, "generator": "Overpass API 0.7.61.5 4133829e", "osm3s": {"timestamp_osm_base": "2024-03-06T10:45:02Z", "copyright": "The data included in this document is from www.openstreetmap.org. The data is made available under ODbL."}, "elements": [{"type": "node", "id": 2483953782, "lat": 33.571828, "lon": 44.806185, "tags": {"alt_name": "\u0645\u062f\u0631\u0633\u0629 \u0627\u0644\u0643\u0627\u0638\u064a", "amenity": "school", "int_name": "Madrasat al K\u0101z\u0327\u012b, Madrasat al Kazi", "is_in": "Iraq , \u062c\u0645\u0647\u0648\u0631\u064a\u0629 \u0627\u0644\u0639\u0631\u0627\u0642", "name": "\u0645\u062f\u0631\u0633\u0629 \u0627\u0644\u0643\u0627\u0638\u064a", "name:ar": "\u0645\u062f\u0631\u0633\u0629 \u0627\u0644\u0643\u0627\u0638\u064a", "name:ar1": "\u0645\u062f\u0631\u0633\u0629 \u0627\u0644\u0643\u0627\u0638\u064a", "name:de": "Madrasat al Kazi", "name:en": "Madrasat al Kazi", "name:fr": "Madrasat al Kazi"}}, {"type": "node", "id": 2483953796, "lat": 33.5721427, "lon": 44.8066464, "tags": {"alt_name": "\u0645\u062f\u0631\u0633\u0629 \u0627\u0644\u0643\u0627\u062d\u0644\u064a", "amenity": "school", "int_name": "\u0645\u062f\u0631\u0633\u0629 \u0627\u0644\u0643\u0627\u062d\u0644\u064a, \u0645\u062f\u0631\u0633\u0629 \u0627\u0644\u0643\u0627\u062d\u0644\u064a", "is_in": "Iraq , \u062c\u0645\u0647\u0648\u0631\u064a\u0629 \u0627\u0644\u0639\u0631\u0627\u0642", "name": "\u0645\u062f\u0631\u0633\u0629 \u0627\u0644\u0643\u0627\u062d\u0644\u064a", "name:ar": "\u0645\u062f\u0631\u0633\u0629 \u0627\u0644\u0643\u0627\u062d\u0644\u064a", "name:ar1": "\u0645\u062f\u0631\u0633\u0629 \u0627\u0644\u0643\u0627\u062d\u0644\u064a", "name:de": "\u0645\u062f\u0631\u0633\u0629 \u0627\u0644\u0643\u0627\u062d\u0644\u064a", "name:en": "\u0645\u062f\u0631\u0633\u0629 \u0627\u0644\u0643\u0627\u062d\u0644\u064a", "name:fr": "\u0645\u062f\u0631\u0633\u0629 \u0627\u0644\u0643\u0627\u062d\u0644\u064a"}}, {"type": "node", "id": 2483955985, "lat": 33.526646, "lon": 44.899517, "tags": {"alt_name": "\u0645\u062f\u0631\u0633\u0629 \u0627\u0644\u0632\u0648\u0631\u0627\u0621", "amenity": "school", "int_name": "Madrasat Az Zawr\u0101, \u0645\u062f\u0631\u0633\u0629 \u0627\u0644\u0632\u0648\u0631\u0627\u0621, Madrasat Az Zawra, \u0645\u062f\u0631\u0633\u0629 \u0627\u0644\u0632\u0648\u0631\u0627\u0621", "is_in": "Iraq , \u062c\u0645\u0647\u0648\u0631\u064a\u0629 \u0627\u0644\u0639\u0631\u0627\u0642", "name": "\u0645\u062f\u0631\u0633\u0629 \u0627\u0644\u0632\u0648\u0631\u0627\u0621", "name:ar": "\u0645\u062f\u0631\u0633\u0629 \u0627\u0644\u0632\u0648\u0631\u0627\u0621", "name:ar1": "\u0645\u062f\u0631\u0633\u0629 \u0627\u0644\u0632\u0648\u0631\u0627\u0621", "name:de": "Madrasat Az Zawra", "name:en": "Madrasat Az Zawra", "name:fr": "Madrasat Az Zawra"}}, {"type": "node", "id": 2485249623, "lat": 33.836731, "lon": 44.786313, "tags": {"alt_name": "\u0645\u062f\u0631\u0633\u0629 \u0628\u0627\u0628\u0644 \u0627\u0644\u0625\u0628\u062a\u062f\u0627\u0626\u064a\u0629", "amenity": "school", "int_name": "Madrasat B\u0101bil al Ibtid\u0101\u012byah, \u0645\u062f\u0631\u0633\u0629 \u0628\u0627\u0628\u0644 \u0627\u0644\u0627\u0628\u062a\u062f\u0627\u0626\u064a\u0629, Madrasat Babil al Ibtidaiyah, \u0645\u062f\u0631\u0633\u0629 \u0628\u0627\u0628\u0644 \u0627\u0644\u0627\u0628\u062a\u062f\u0627\u0626\u064a\u0629", "is_in": "Iraq , \u062c\u0645\u0647\u0648\u0631\u064a\u0629 \u0627\u0644\u0639\u0631\u0627\u0642", "name": "\u0645\u062f\u0631\u0633\u0629 \u0628\u0627\u0628\u0644 \u0627\u0644\u0625\u0628\u062a\u062f\u0627\u0626\u064a\u0629", "name:ar": "\u0645\u062f\u0631\u0633\u0629 \u0628\u0627\u0628\u0644 \u0627\u0644\u0625\u0628\u062a\u062f\u0627\u0626\u064a\u0629", "name:ar1": "\u0645\u062f\u0631\u0633\u0629 \u0628\u0627\u0628\u0644 \u0627\u0644\u0625\u0628\u062a\u062f\u0627\u0626\u064a\u0629", "name:de": "Madrasat Babil al Ibtidaiyah", "name:en": "Madrasat Babil al Ibtidaiyah", "name:fr": "Madrasat Babil al Ibtidaiyah"}}, {"type": "node", "id": 2485249648, "lat": 33.5852397, "lon": 44.8629706, "tags": {"alt_name": "\u0645\u062f\u0631\u0633\u0629 \u0628\u0646 \u0627\u0644\u0623\u062b\u064a\u0631", "amenity": "school", "int_name": "Madrasat Bin al Ath\u012br, Madrasat Bin al Athir", "is_in": "Iraq , \u062c\u0645\u0647\u0648\u0631\u064a\u0629 \u0627\u0644\u0639\u0631\u0627\u0642", "name": "\u0645\u062f\u0631\u0633\u0629 \u0628\u0646 \u0627\u0644\u0623\u062b\u064a\u0631", "name:ar": "\u0645\u062f\u0631\u0633\u0629 \u0628\u0646 \u0627\u0644\u0623\u062b\u064a\u0631", "name:ar1": "\u0645\u062f\u0631\u0633\u0629 \u0628\u0646 \u0627\u0644\u0623\u062b\u064a\u0631", "name:de": "Madrasat Bin al Athir", "name:en": "Madrasat Bin al Athir", "name:fr": "Madrasat Bin al Athir"}}, {"type": "node", "id": 2485249679, "lat": 33.58542, "lon": 44.979425, "tags": {"alt_name": "\u0645\u062f\u0631\u0633\u0629 \u0635\u0628\u0627\u062d", "amenity": "school", "int_name": "Madrasat \u015eab\u0101\u1e29, \u0645\u062f\u0631\u0633\u0629 \u0635\u0628\u0627\u062d, Madrasat Sabah, \u0645\u062f\u0631\u0633\u0629 \u0635\u0628\u0627\u062d", "is_in": "Iraq , \u062c\u0645\u0647\u0648\u0631\u064a\u0629 \u0627\u0644\u0639\u0631\u0627\u0642", "name": "\u0645\u062f\u0631\u0633\u0629 \u0635\u0628\u0627\u062d", "name:ar": "\u0645\u062f\u0631\u0633\u0629 \u0635\u0628\u0627\u062d", "name:ar1": "\u0645\u062f\u0631\u0633\u0629 \u0635\u0628\u0627\u062d", "name:de": "Madrasat Sabah", "name:en": "Madrasat Sabah", "name:fr": "Madrasat Sabah"}}, {"type": "node", "id": 2485249720, "lat": 33.777317, "lon": 44.828256, "tags": {"alt_name": "\u0645\u062f\u0631\u0633\u0629 \u064a\u0627\u0641\u0627 \u0627\u0644\u0625\u0628\u062a\u062f\u0627\u0626\u064a\u0629", "amenity": "school", "int_name": "Madrasat Y\u0101f\u0101 al Ibtid\u0101\u012byah, \u0645\u062f\u0631\u0633\u0629 \u064a\u0627\u0641\u0627 \u0627\u0644\u0627\u0628\u062a\u062f\u0627\u0626\u064a\u0629, Madrasat Yafa al Ibtidaiyah, \u0645\u062f\u0631\u0633\u0629 \u064a\u0627\u0641\u0627 \u0627\u0644\u0627\u0628\u062a\u062f\u0627\u0626\u064a\u0629", "is_in": "Iraq , \u062c\u0645\u0647\u0648\u0631\u064a\u0629 \u0627\u0644\u0639\u0631\u0627\u0642", "name": "\u0645\u062f\u0631\u0633\u0629 \u064a\u0627\u0641\u0627 \u0627\u0644\u0625\u0628\u062a\u062f\u0627\u0626\u064a\u0629", "name:ar": "\u0645\u062f\u0631\u0633\u0629 \u064a\u0627\u0641\u0627 \u0627\u0644\u0625\u0628\u062a\u062f\u0627\u0626\u064a\u0629", "name:ar1": "\u0645\u062f\u0631\u0633\u0629 \u064a\u0627\u0641\u0627 \u0627\u0644\u0625\u0628\u062a\u062f\u0627\u0626\u064a\u0629", "name:de": "Madrasat Yafa al Ibtidaiyah", "name:en": "Madrasat Yafa al Ibtidaiyah", "name:fr": "Madrasat Yafa al Ibtidaiyah"}}, {"type": "node", "id": 2485249722, "lat": 33.636494, "lon": 44.90771, "tags": {"alt_name": "\u0645\u062f\u0631\u0633\u0629 \u0627\u0644\u0633\u062f\u064a\u0631", "amenity": "school", "int_name": "Madrasat ad Sad\u012br, \u0645\u062f\u0631\u0633\u0629 \u0627\u0644\u0633\u062f\u064a\u0631, Madrasat ad Sadir, \u0645\u062f\u0631\u0633\u0629 \u0627\u0644\u0633\u062f\u064a\u0631", "is_in": "Iraq , \u062c\u0645\u0647\u0648\u0631\u064a\u0629 \u0627\u0644\u0639\u0631\u0627\u0642", "name": "\u0645\u062f\u0631\u0633\u0629 \u0627\u0644\u0633\u062f\u064a\u0631", "name:ar": "\u0645\u062f\u0631\u0633\u0629 \u0627\u0644\u0633\u062f\u064a\u0631", "name:ar1": "\u0645\u062f\u0631\u0633\u0629 \u0627\u0644\u0633\u062f\u064a\u0631", "name:de": "Madrasat ad Sadir", "name:en": "Madrasat ad Sadir", "name:fr": "Madrasat ad Sadir"}}, {"type": "node", "id": 2485249727, "lat": 33.825532, "lon": 45.075943, "tags": {"alt_name": "\u0645\u062f\u0631\u0633\u0629 \u0627\u0644\u0623\u0641\u0630\u0627\u0630", "amenity": "school", "int_name": "Madrasat al Afdh\u0101dh, \u0645\u062f\u0631\u0633\u0629 \u0627\u0644\u0627\u0641\u0630\u0627\u0630, Madrasat al Afdhadh, \u0645\u062f\u0631\u0633\u0629 \u0627\u0644\u0627\u0641\u0630\u0627\u0630", "is_in": "Iraq , \u062c\u0645\u0647\u0648\u0631\u064a\u0629 \u0627\u0644\u0639\u0631\u0627\u0642", "name": "\u0645\u062f\u0631\u0633\u0629 \u0627\u0644\u0623\u0641\u0630\u0627\u0630", "name:ar": "\u0645\u062f\u0631\u0633\u0629 \u0627\u0644\u0623\u0641\u0630\u0627\u0630", "name:ar1": "\u0645\u062f\u0631\u0633\u0629 \u0627\u0644\u0623\u0641\u0630\u0627\u0630", "name:de": "Madrasat al Afdhadh", "name:en": "Madrasat al Afdhadh", "name:fr": "Madrasat al Afdhadh"}}, {"type": "node", "id": 2485249739, "lat": 33.597944, "lon": 44.606439, "tags": {"alt_name": "\u0645\u062f\u0631\u0633\u0629 \u0627\u0644\u0641\u0627\u0631\u0627\u0628\u064a", "amenity": "school", "int_name": "Madrasat al F\u0101r\u0101b\u012b, \u0645\u062f\u0631\u0633\u0629 \u0627\u0644\u0641\u0627\u0631\u0627\u0628\u064a, Madrasat al Farabi, \u0645\u062f\u0631\u0633\u0629 \u0627\u0644\u0641\u0627\u0631\u0627\u0628\u064a", "name": "\u0645\u062f\u0631\u0633\u0629 \u0627\u0644\u0641\u0627\u0631\u0627\u0628\u064a", "name:ar": "\u0645\u062f\u0631\u0633\u0629 \u0627\u0644\u0641\u0627\u0631\u0627\u0628\u064a", "name:ar1": "\u0645\u062f\u0631\u0633\u0629 \u0627\u0644\u0641\u0627\u0631\u0627\u0628\u064a", "name:de": "Madrasat al Farabi", "name:en": "Madrasat al Farabi", "name:fr": "Madrasat al Farabi"}}, {"type": "node", "id": 2485249752, "lat": 33.686162, "lon": 44.602977, "tags": {"alt_name": "\u0645\u062f\u0631\u0633\u0629 \u0627\u0644\u062d\u0644\u0641\u0627\u0621 \u0627\u0644\u0625\u0628\u062a\u062f\u0627\u0626\u064a\u0629", "amenity": "school", "int_name": "Madrasat al \u1e28ulaf\u0101 al Ibtid\u0101\u012byah, \u0645\u062f\u0631\u0633\u0629 \u0627\u0644\u062d\u0644\u0641\u0627\u0621 \u0627\u0644\u0627\u0628\u062a\u062f\u0627\u0626\u064a\u0629, Madrasat al Hulafa al Ibtidaiyah, \u0645\u062f\u0631\u0633\u0629 \u0627\u0644\u062d\u0644\u0641\u0627\u0621 \u0627\u0644\u0627\u0628\u062a\u062f\u0627\u0626\u064a\u0629", "name": "\u0645\u062f\u0631\u0633\u0629 \u0627\u0644\u062d\u0644\u0641\u0627\u0621 \u0627\u0644\u0625\u0628\u062a\u062f\u0627\u0626\u064a\u0629", "name:ar": "\u0645\u062f\u0631\u0633\u0629 \u0627\u0644\u062d\u0644\u0641\u0627\u0621 \u0627\u0644\u0625\u0628\u062a\u062f\u0627\u0626\u064a\u0629", "name:ar1": "\u0645\u062f\u0631\u0633\u0629 \u0627\u0644\u062d\u0644\u0641\u0627\u0621 \u0627\u0644\u0625\u0628\u062a\u062f\u0627\u0626\u064a\u0629", "name:de": "Madrasat al Hulafa al Ibtidaiyah", "name:en": "Madrasat al Hulafa al Ibtidaiyah", "name:fr": "Madrasat al Hulafa al Ibtidaiyah"}}, {"type": "node", "id": 2485249759, "lat": 33.853727, "lon": 45.077924, "tags": {"alt_name": "\u0645\u062f\u0631\u0633\u0629 \u0627\u0644\u0625\u0642\u062a\u062d\u0627\u0645", "amenity": "school", "int_name": "Madrasat al Iqti\u1e29\u0101m, \u0645\u062f\u0631\u0633\u0629 \u0627\u0644\u0627\u0642\u062a\u062d\u0627\u0645, Madrasat al Iqtiham, \u0645\u062f\u0631\u0633\u0629 \u0627\u0644\u0627\u0642\u062a\u062d\u0627\u0645", "is_in": "Iraq , \u062c\u0645\u0647\u0648\u0631\u064a\u0629 \u0627\u0644\u0639\u0631\u0627\u0642", "name": "\u0645\u062f\u0631\u0633\u0629 \u0627\u0644\u0625\u0642\u062a\u062d\u0627\u0645", "name:ar": "\u0645\u062f\u0631\u0633\u0629 \u0627\u0644\u0625\u0642\u062a\u062d\u0627\u0645", "name:ar1": "\u0645\u062f\u0631\u0633\u0629 \u0627\u0644\u0625\u0642\u062a\u062d\u0627\u0645", "name:de": "Madrasat al Iqtiham", "name:en": "Madrasat al Iqtiham", "name:fr": "Madrasat al Iqtiham"}}, {"type": "node", "id": 2485249765, "lat": 33.688734, "lon": 44.562117, "tags": {"alt_name": "\u0645\u062f\u0631\u0633\u0629 \u0627\u0644\u0625\u0631\u0634\u0627\u062f", "amenity": "school", "int_name": "Madrasat al Irsh\u0101d, \u0645\u062f\u0631\u0633\u0629 \u0627\u0644\u0627\u0631\u0634\u0627\u062f, Madrasat al Irshad, \u0645\u062f\u0631\u0633\u0629 \u0627\u0644\u0627\u0631\u0634\u0627\u062f", "name": "\u0645\u062f\u0631\u0633\u0629 \u0627\u0644\u0625\u0631\u0634\u0627\u062f", "name:ar": "\u0645\u062f\u0631\u0633\u0629 \u0627\u0644\u0625\u0631\u0634\u0627\u062f", "name:ar1": "\u0645\u062f\u0631\u0633\u0629 \u0627\u0644\u0625\u0631\u0634\u0627\u062f", "name:de": "Madrasat al Irshad", "name:en": "Madrasat al Irshad", "name:fr": "Madrasat al Irshad"}}, {"type": "node", "id": 2485249776, "lat": 33.642086, "lon": 44.792131, "tags": {"alt_name": "\u0645\u062f\u0631\u0633\u0629 \u0627\u0644\u062c\u0627\u062d\u0638", "amenity": "school", "int_name": "Madrasat al J\u0101\u1e29iz\u0327, \u0645\u062f\u0631\u0633\u0629 \u0627\u0644\u062c\u0627\u062d\u0638, Madrasat al Jahiz, \u0645\u062f\u0631\u0633\u0629 \u0627\u0644\u062c\u0627\u062d\u0638", "is_in": "Iraq , \u062c\u0645\u0647\u0648\u0631\u064a\u0629 \u0627\u0644\u0639\u0631\u0627\u0642", "name": "\u0645\u062f\u0631\u0633\u0629 \u0627\u0644\u062c\u0627\u062d\u0638", "name:ar": "\u0645\u062f\u0631\u0633\u0629 \u0627\u0644\u062c\u0627\u062d\u0638", "name:ar1": "\u0645\u062f\u0631\u0633\u0629 \u0627\u0644\u062c\u0627\u062d\u0638", "name:de": "Madrasat al Jahiz", "name:en": "Madrasat al Jahiz", "name:fr": "Madrasat al Jahiz"}}, {"type": "node", "id": 2485249829, "lat": 33.793991, "lon": 44.785798, "tags": {"alt_name": "\u0645\u062f\u0631\u0633\u0629 \u0627\u0644\u0645\u062c\u062f \u0627\u0644\u0625\u0628\u062a\u062f\u0627\u0626\u064a\u0629", "amenity": "school", "int_name": "Madrasat al Majd al Ibtid\u0101\u012byah, \u0645\u062f\u0631\u0633\u0629 \u0627\u0644\u0645\u062c\u062f \u0627\u0644\u0627\u0628\u062a\u062f\u0627\u0626\u064a\u0629, Madrasat al Majd al Ibtidaiyah, \u0645\u062f\u0631\u0633\u0629 \u0627\u0644\u0645\u062c\u062f \u0627\u0644\u0627\u0628\u062a\u062f\u0627\u0626\u064a\u0629", "is_in": "Iraq , \u062c\u0645\u0647\u0648\u0631\u064a\u0629 \u0627\u0644\u0639\u0631\u0627\u0642", "name": "\u0645\u062f\u0631\u0633\u0629 \u0627\u0644\u0645\u062c\u062f \u0627\u0644\u0625\u0628\u062a\u062f\u0627\u0626\u064a\u0629", "name:ar": "\u0645\u062f\u0631\u0633\u0629 \u0627\u0644\u0645\u062c\u062f \u0627\u0644\u0625\u0628\u062a\u062f\u0627\u0626\u064a\u0629", "name:ar1": "\u0645\u062f\u0631\u0633\u0629 \u0627\u0644\u0645\u062c\u062f \u0627\u0644\u0625\u0628\u062a\u062f\u0627\u0626\u064a\u0629", "name:de": "Madrasat al Majd al Ibtidaiyah", "name:en": "Madrasat al Majd al Ibtidaiyah", "name:fr": "Madrasat al Majd al Ibtidaiyah"}}, {"type": "node", "id": 2485249858, "lat": 33.578522, "lon": 44.621303, "tags": {"alt_name": "\u0645\u062f\u0631\u0633\u0629 \u0627\u0644\u064a\u0645\u0646", "amenity": "school", "int_name": "Madrasat al Yaman, \u0645\u062f\u0631\u0633\u0629 \u0627\u0644\u064a\u0645\u0646, Madrasat al Yaman, \u0645\u062f\u0631\u0633\u0629 \u0627\u0644\u064a\u0645\u0646", "name": "\u0645\u062f\u0631\u0633\u0629 \u0627\u0644\u064a\u0645\u0646", "name:ar": "\u0645\u062f\u0631\u0633\u0629 \u0627\u0644\u064a\u0645\u0646", "name:ar1": "\u0645\u062f\u0631\u0633\u0629 \u0627\u0644\u064a\u0645\u0646", "name:de": "Madrasat al Yaman", "name:en": "Madrasat al Yaman", "name:fr": "Madrasat al Yaman"}}, {"type": "node", "id": 2485249870, "lat": 33.809982, "lon": 44.885992, "tags": {"alt_name": "\u0645\u062f\u0631\u0633\u0629 \u0627\u0644\u0631\u0627\u0641\u062f\u064a\u0646", "amenity": "school", "int_name": "Madrasat ar R\u0101fidayn, \u0645\u062f\u0631\u0633\u0629 \u0627\u0644\u0631\u0627\u0641\u062f\u064a\u0646, Madrasat ar Rafidayn, \u0645\u062f\u0631\u0633\u0629 \u0627\u0644\u0631\u0627\u0641\u062f\u064a\u0646", "is_in": "Iraq , \u062c\u0645\u0647\u0648\u0631\u064a\u0629 \u0627\u0644\u0639\u0631\u0627\u0642", "name": "\u0645\u062f\u0631\u0633\u0629 \u0627\u0644\u0631\u0627\u0641\u062f\u064a\u0646", "name:ar": "\u0645\u062f\u0631\u0633\u0629 \u0627\u0644\u0631\u0627\u0641\u062f\u064a\u0646", "name:ar1": "\u0645\u062f\u0631\u0633\u0629 \u0627\u0644\u0631\u0627\u0641\u062f\u064a\u0646", "name:de": "Madrasat ar Rafidayn", "name:en": "Madrasat ar Rafidayn", "name:fr": "Madrasat ar Rafidayn"}}, {"type": "node", "id": 2485249912, "lat": 33.791563, "lon": 44.93939, "tags": {"alt_name": "\u0645\u062f\u0631\u0633\u0629 \u0627\u0644\u0634\u062c\u0627\u0639\u0629", "amenity": "school", "int_name": "Madrasat ash Shaj\u0101ah, \u0645\u062f\u0631\u0633\u0629 \u0627\u0644\u0634\u062c\u0627\u0639\u0629, Madrasat ash Shajaah, \u0645\u062f\u0631\u0633\u0629 \u0627\u0644\u0634\u062c\u0627\u0639\u0629", "is_in": "Iraq , \u062c\u0645\u0647\u0648\u0631\u064a\u0629 \u0627\u0644\u0639\u0631\u0627\u0642", "name": "\u0645\u062f\u0631\u0633\u0629 \u0627\u0644\u0634\u062c\u0627\u0639\u0629", "name:ar": "\u0645\u062f\u0631\u0633\u0629 \u0627\u0644\u0634\u062c\u0627\u0639\u0629", "name:ar1": "\u0645\u062f\u0631\u0633\u0629 \u0627\u0644\u0634\u062c\u0627\u0639\u0629", "name:de": "Madrasat ash Shajaah", "name:en": "Madrasat ash Shajaah", "name:fr": "Madrasat ash Shajaah"}}, {"type": "node", "id": 2485249920, "lat": 33.857813, "lon": 44.766108, "tags": {"alt_name": "\u0645\u062f\u0631\u0633\u0629 \u0627\u0644\u062a\u0642\u062f\u0645 \u0627\u0644\u0625\u0628\u062a\u062f\u0627\u0626\u064a\u0629", "amenity": "school", "int_name": "Madrasat at Taqaddum al Ibtid\u0101\u012byah, \u0645\u062f\u0631\u0633\u0629 \u0627\u0644\u062a\u0642\u062f\u0645 \u0627\u0644\u0627\u0628\u062a\u062f\u0627\u0626\u064a\u0629, Madrasat at Taqaddum al Ibtidaiyah, \u0645\u062f\u0631\u0633\u0629 \u0627\u0644\u062a\u0642\u062f\u0645 \u0627\u0644\u0627\u0628\u062a\u062f\u0627\u0626\u064a\u0629", "is_in": "Iraq , \u062c\u0645\u0647\u0648\u0631\u064a\u0629 \u0627\u0644\u0639\u0631\u0627\u0642", "name": "\u0645\u062f\u0631\u0633\u0629 \u0627\u0644\u062a\u0642\u062f\u0645 \u0627\u0644\u0625\u0628\u062a\u062f\u0627\u0626\u064a\u0629", "name:ar": "\u0645\u062f\u0631\u0633\u0629 \u0627\u0644\u062a\u0642\u062f\u0645 \u0627\u0644\u0625\u0628\u062a\u062f\u0627\u0626\u064a\u0629", "name:ar1": "\u0645\u062f\u0631\u0633\u0629 \u0627\u0644\u062a\u0642\u062f\u0645 \u0627\u0644\u0625\u0628\u062a\u062f\u0627\u0626\u064a\u0629", "name:de": "Madrasat at Taqaddum al Ibtidaiyah", "name:en": "Madrasat at Taqaddum al Ibtidaiyah", "name:fr": "Madrasat at Taqaddum al Ibtidaiyah"}}, {"type": "node", "id": 2485249931, "lat": 33.856117, "lon": 44.761456, "tags": {"alt_name": "\u0645\u062f\u0631\u0633\u0629 \u0627\u0644\u062a\u0642\u062f\u0645 \u0627\u0644\u0642\u062f\u064a\u0645\u0629", "amenity": "school", "int_name": "Madrasat at Taqaddum al Qad\u012bmah, \u0645\u062f\u0631\u0633\u0629 \u0627\u0644\u062a\u0642\u062f\u0645 \u0627\u0644\u0642\u062f\u064a\u0645\u0629, Madrasat at Taqaddum al Qadimah, \u0645\u062f\u0631\u0633\u0629 \u0627\u0644\u062a\u0642\u062f\u0645 \u0627\u0644\u0642\u062f\u064a\u0645\u0629", "is_in": "Iraq , \u062c\u0645\u0647\u0648\u0631\u064a\u0629 \u0627\u0644\u0639\u0631\u0627\u0642", "name": "\u0645\u062f\u0631\u0633\u0629 \u0627\u0644\u062a\u0642\u062f\u0645 \u0627\u0644\u0642\u062f\u064a\u0645\u0629", "name:ar": "\u0645\u062f\u0631\u0633\u0629 \u0627\u0644\u062a\u0642\u062f\u0645 \u0627\u0644\u0642\u062f\u064a\u0645\u0629", "name:ar1": "\u0645\u062f\u0631\u0633\u0629 \u0627\u0644\u062a\u0642\u062f\u0645 \u0627\u0644\u0642\u062f\u064a\u0645\u0629", "name:de": "Madrasat at Taqaddum al Qadimah", "name:en": "Madrasat at Taqaddum al Qadimah", "name:fr": "Madrasat at Taqaddum al Qadimah"}}, {"type": "node", "id": 2485249976, "lat": 33.5851198, "lon": 44.8630171, "tags": {"alt_name": "\u0645\u062f\u0631\u0633\u0629 \u0628\u0646 \u0627\u0644\u0627\u062b\u064a\u0631", "amenity": "school", "int_name": "\u0645\u062f\u0631\u0633\u0629 \u0628\u0646 \u0627\u0644\u0627\u062b\u064a\u0631, \u0645\u062f\u0631\u0633\u0629 \u0628\u0646 \u0627\u0644\u0627\u062b\u064a\u0631", "is_in": "Iraq , \u062c\u0645\u0647\u0648\u0631\u064a\u0629 \u0627\u0644\u0639\u0631\u0627\u0642", "name": "\u0645\u062f\u0631\u0633\u0629 \u0628\u0646 \u0627\u0644\u0627\u062b\u064a\u0631", "name:ar": "\u0645\u062f\u0631\u0633\u0629 \u0628\u0646 \u0627\u0644\u0627\u062b\u064a\u0631", "name:ar1": "\u0645\u062f\u0631\u0633\u0629 \u0628\u0646 \u0627\u0644\u0627\u062b\u064a\u0631", "name:de": "\u0645\u062f\u0631\u0633\u0629 \u0628\u0646 \u0627\u0644\u0627\u062b\u064a\u0631", "name:en": "\u0645\u062f\u0631\u0633\u0629 \u0628\u0646 \u0627\u0644\u0627\u062b\u064a\u0631", "name:fr": "\u0645\u062f\u0631\u0633\u0629 \u0628\u0646 \u0627\u0644\u0627\u062b\u064a\u0631"}}, {"type": "node", "id": 2486302455, "lat": 33.505746, "lon": 44.83525, "tags": {"alt_name": "\u0645\u062f\u0631\u0633\u0629 \u0635\u0646\u0639\u0627\u0621", "amenity": "school", "int_name": "Madrasat \u015ean\u0101, \u0645\u062f\u0631\u0633\u0629 \u0635\u0646\u0639\u0627\u0621, Madrasat Sana, \u0645\u062f\u0631\u0633\u0629 \u0635\u0646\u0639\u0627\u0621", "is_in": "Iraq , \u062c\u0645\u0647\u0648\u0631\u064a\u0629 \u0627\u0644\u0639\u0631\u0627\u0642", "name": "\u0645\u062f\u0631\u0633\u0629 \u0635\u0646\u0639\u0627\u0621", "name:ar": "\u0645\u062f\u0631\u0633\u0629 \u0635\u0646\u0639\u0627\u0621", "name:ar1": "\u0645\u062f\u0631\u0633\u0629 \u0635\u0646\u0639\u0627\u0621", "name:de": "Madrasat Sana", "name:en": "Madrasat Sana", "name:fr": "Madrasat Sana"}}, {"type": "node", "id": 3379389019, "lat": 33.7464193, "lon": 44.643597, "tags": {"amenity": "school", "name": "\u0627\u0644\u0627\u0639\u062f\u0627\u062f\u064a\u0629 \u0627\u0644\u0645\u0631\u0643\u0632\u064a\u0629 \u0644\u0644\u0628\u0646\u064a\u0646"}}, {"type": "node", "id": 3896225877, "lat": 33.6855003, "lon": 45.0645703}, {"type": "node", "id": 3896225878, "lat": 33.6855181, "lon": 45.0645461}, {"type": "node", "id": 3896225879, "lat": 33.6851543, "lon": 45.0635242}, {"type": "node", "id": 3896225880, "lat": 33.6851276, "lon": 45.0635215}, {"type": "node", "id": 3896225881, "lat": 33.6844468, "lon": 45.0639051}, {"type": "node", "id": 3896225882, "lat": 33.6844513, "lon": 45.0639453}, {"type": "node", "id": 3896225883, "lat": 33.6847995, "lon": 45.0649512}, {"type": "node", "id": 3896225884, "lat": 33.6848196, "lon": 45.0649619}, {"type": "node", "id": 3896225885, "lat": 33.685074, "lon": 45.0638515, "tags": {"amenity": "school"}}, {"type": "node", "id": 3896225886, "lat": 33.6852079, "lon": 45.0644496, "tags": {"amenity": "school"}}, {"type": "node", "id": 3914431155, "lat": 33.7459748, "lon": 44.6440756}, {"type": "node", "id": 3914431156, "lat": 33.7460328, "lon": 44.644097}, {"type": "node", "id": 3914431157, "lat": 33.7469405, "lon": 44.6440997}, {"type": "node", "id": 3914431158, "lat": 33.7470944, "lon": 44.6441426}, {"type": "node", "id": 3914431159, "lat": 33.7471564, "lon": 44.6440347}, {"type": "node", "id": 3914431160, "lat": 33.74742, "lon": 44.6435525}, {"type": "node", "id": 3914431161, "lat": 33.7473932, "lon": 44.6435311}, {"type": "node", "id": 3914431162, "lat": 33.7464944, "lon": 44.64311}, {"type": "node", "id": 3914431163, "lat": 33.7464587, "lon": 44.6430992}, {"type": "node", "id": 3914431164, "lat": 33.7459369, "lon": 44.6431502}, {"type": "node", "id": 3914431165, "lat": 33.7459212, "lon": 44.643169}, {"type": "node", "id": 3914431166, "lat": 33.7471202, "lon": 44.6441405}, {"type": "node", "id": 3914644583, "lat": 33.8881912, "lon": 44.6840391}, {"type": "node", "id": 3914644584, "lat": 33.888213, "lon": 44.684007}, {"type": "node", "id": 3914644585, "lat": 33.8883267, "lon": 44.6834066}, {"type": "node", "id": 3914644586, "lat": 33.8883001, "lon": 44.6833745}, {"type": "node", "id": 3914644587, "lat": 33.8877097, "lon": 44.6832025}, {"type": "node", "id": 3914644588, "lat": 33.8876831, "lon": 44.6832259}, {"type": "node", "id": 3914644589, "lat": 33.8875887, "lon": 44.6838321}, {"type": "node", "id": 3914644590, "lat": 33.8875887, "lon": 44.6838555}, {"type": "node", "id": 3914844492, "lat": 33.7929591, "lon": 44.6375445}, {"type": "node", "id": 3914844493, "lat": 33.792995, "lon": 44.6374972}, {"type": "node", "id": 3914844494, "lat": 33.7930309, "lon": 44.637133}, {"type": "node", "id": 3914844495, "lat": 33.7930018, "lon": 44.6371063}, {"type": "node", "id": 3914844496, "lat": 33.7926274, "lon": 44.6370754}, {"type": "node", "id": 3914844497, "lat": 33.7926035, "lon": 44.6371166}, {"type": "node", "id": 3914844498, "lat": 33.7925847, "lon": 44.6374601}, {"type": "node", "id": 3914844499, "lat": 33.7925932, "lon": 44.637528}, {"type": "node", "id": 3914949748, "lat": 33.7389636, "lon": 44.6401129}, {"type": "node", "id": 3914949749, "lat": 33.7389993, "lon": 44.640121}, {"type": "node", "id": 3914949750, "lat": 33.7397978, "lon": 44.6399654}, {"type": "node", "id": 3914949751, "lat": 33.7398067, "lon": 44.639901}, {"type": "node", "id": 3914949752, "lat": 33.7396662, "lon": 44.6393861}, {"type": "node", "id": 3914949753, "lat": 33.7396372, "lon": 44.6393592}, {"type": "node", "id": 3914949754, "lat": 33.7388565, "lon": 44.6395094}, {"type": "node", "id": 3914949755, "lat": 33.738832, "lon": 44.6395443}, {"type": "node", "id": 3914953662, "lat": 33.7479839, "lon": 44.6460922}, {"type": "node", "id": 3914953663, "lat": 33.7480151, "lon": 44.646111}, {"type": "node", "id": 3914953664, "lat": 33.7486708, "lon": 44.6455987}, {"type": "node", "id": 3914953665, "lat": 33.7486663, "lon": 44.6455423}, {"type": "node", "id": 3914953666, "lat": 33.7484634, "lon": 44.6451588}, {"type": "node", "id": 3914953667, "lat": 33.7484299, "lon": 44.6451561}, {"type": "node", "id": 3914953668, "lat": 33.7477542, "lon": 44.6456228}, {"type": "node", "id": 3914953669, "lat": 33.7477453, "lon": 44.6456738}, {"type": "node", "id": 3914953670, "lat": 33.7484143, "lon": 44.6451266}, {"type": "node", "id": 3914953671, "lat": 33.7484277, "lon": 44.6450837}, {"type": "node", "id": 3914953672, "lat": 33.7483608, "lon": 44.6448718}, {"type": "node", "id": 3914953673, "lat": 33.7483452, "lon": 44.6447243}, {"type": "node", "id": 3914953674, "lat": 33.7483296, "lon": 44.6446679}, {"type": "node", "id": 3914953675, "lat": 33.7481735, "lon": 44.6447618}, {"type": "node", "id": 3914953676, "lat": 33.74752, "lon": 44.6451454}, {"type": "node", "id": 3914953677, "lat": 33.7475111, "lon": 44.6451695}, {"type": "node", "id": 3914953678, "lat": 33.7477252, "lon": 44.6455933}, {"type": "node", "id": 3914953679, "lat": 33.7477519, "lon": 44.6455933}, {"type": "node", "id": 4392453295, "lat": 33.7527427, "lon": 44.6450703, "tags": {"amenity": "school", "name": "\u0645\u062f\u0631\u0633\u0629 \u0627\u0644\u0645\u0631\u0623\u0629 \u0627\u0644\u0627\u0628\u062a\u062f\u0627\u0626\u0629 \u0644\u0644\u0628\u0646\u0627\u062a", "name:ar": "\u0645\u062f\u0631\u0633\u0629 \u0627\u0644\u0645\u0631\u0623\u0629 \u0627\u0644\u0627\u0628\u062a\u062f\u0627\u0626\u0629 \u0644\u0644\u0628\u0646\u0627\u062a", "opening_hours": "Sa-Th 13:00-08:00; Fr"}}, {"type": "node", "id": 4431031670, "lat": 33.7827879, "lon": 45.0765303, "tags": {"amenity": "school", "name": "\u0645\u062f\u0631\u0633\u0629 \u0627\u0644\u0634\u0647\u0628\u0627\u0621"}}, {"type": "node", "id": 4635312590, "lat": 33.6924264, "lon": 45.0538538, "tags": {"addr:street": "\u0634\u0627\u0631\u0639 \u0627\u0644\u0634\u064a\u0628", "amenity": "school", "name": "\u0645\u062f\u0631\u0633\u0629 \u0627\u0644\u0634\u0647\u064a\u062f \u0628\u0644\u0627\u0644 \u0627\u0644\u0635\u0627\u0644\u062d\u064a", "name:ar": "\u0645\u062f\u0631\u0633\u0629 \u0627\u0644\u0634\u0647\u064a\u062f \u0628\u0644\u0627\u0644 \u0627\u0644\u0635\u0627\u0644\u062d\u064a"}}, {"type": "node", "id": 5152634821, "lat": 33.7487482, "lon": 44.6439964, "tags": {"addr:street": "\u0642\u0631\u0628 \u0627\u0644\u0639\u0646\u0627\u0641\u0635\u0629", "amenity": "school", "name": "\u0645\u062f\u0631\u0633\u0629 \u0627\u0644\u0633\u0646\u062f\u0628\u0627\u062f", "opening_hours": "Su-Th 08:00-14:00"}}, {"type": "node", "id": 5171298223, "lat": 33.6968466, "lon": 45.0735867, "tags": {"amenity": "school", "name": "\u062b\u0627\u0646\u0648\u064a\u0629 \u0646\u0628\u0631\u0627\u0633 \u0627\u0644\u0627\u0647\u0644\u064a\u0629"}}, {"type": "node", "id": 5222581422, "lat": 33.6828781, "lon": 45.0428788, "tags": {"amenity": "school", "name": "\u0645\u062f\u0631\u0633\u0629 \u0646\u0647\u0627\u0648\u0646\u062f \u0627\u0644\u0627\u0628\u062a\u062f\u0627\u0626\u064a\u0629 \u0644\u0644\u0628\u0646\u064a\u0646", "name:en": "Nahawand primary school for boys"}}, {"type": "node", "id": 5352783521, "lat": 33.6829077, "lon": 45.0367858, "tags": {"amenity": "school"}}, {"type": "node", "id": 5458546039, "lat": 33.7561468, "lon": 44.6432599, "tags": {"amenity": "school", "name": "\u0639\u062f\u0627\u062f\u064a\u0647 \u0627\u0628\u0646 \u0633\u0631\u0627\u062c \u0644\u0644\u0628\u0646\u064a\u0646", "opening_hours": "Su-Th 14:00-17:20"}}, {"type": "node", "id": 5874667185, "lat": 33.7568059, "lon": 44.6498482, "tags": {"amenity": "school", "name": "\u0645\u062f\u0631\u0633\u0629 \u0627\u0644\u0627\u0645\u064a\u0646"}}, {"type": "node", "id": 5941375101, "lat": 33.7285894, "lon": 44.6113868, "tags": {"addr:street": "\u0634\u0627\u0631\u0639 \u0627\u0644\u0639\u062f\u0646\u0627\u0646\u064a\u0629", "amenity": "school", "name": "\u0627\u0644\u0639\u062f\u0646\u0627\u0646\u064a\u0629", "name:ar": "\u0645\u062f\u0631\u0633\u0629 \u0627\u0644\u0639\u062f\u0646\u0627\u0646\u064a\u0629", "name:en": "Adnaniya", "opening_hours": "Su-Th 07:00-17:00"}}, {"type": "node", "id": 5984032386, "lat": 33.7511993, "lon": 44.6651804, "tags": {"amenity": "school", "name": "\u0645\u062f\u0631\u0633\u0629 \u0633\u0627\u0631\u064a\u0629 \u0627\u0644\u0623\u0628\u062a\u062f\u0627\u0626\u064a\u0629"}}, {"type": "node", "id": 6062807467, "lat": 33.7104067, "lon": 44.6474036}, {"type": "node", "id": 6062807468, "lat": 33.7104519, "lon": 44.6477087}, {"type": "node", "id": 6062807469, "lat": 33.7102467, "lon": 44.647784}, {"type": "node", "id": 6062807470, "lat": 33.7104955, "lon": 44.6484598}, {"type": "node", "id": 6062807471, "lat": 33.7110265, "lon": 44.648286}, {"type": "node", "id": 6062807472, "lat": 33.7107248, "lon": 44.647378}, {"type": "node", "id": 6304918485, "lat": 33.5897438, "lon": 44.5574579, "tags": {"amenity": "school", "name": "\u0627\u0644\u0627\u0639\u062f\u0627\u062f\u064a\u0629 \u0627\u0644\u0645\u0647\u0646\u064a\u0629 \u0628\u0646\u064a \u0633\u0639\u062f"}}, {"type": "node", "id": 6928740085, "lat": 33.7245707, "lon": 44.6492401, "tags": {"amenity": "school", "name": "\u0645\u062f\u0631\u0633\u0629 \u062c\u064a\u0644 \u0627\u0644\u0645\u0633\u062a\u0642\u0628\u0644 \u0627\u0644\u0623\u0647\u0644\u064a\u0629 \u0627\u0644\u0645\u062e\u062a\u0644\u0637\u0629", "opening_hours": "Su-Th 00:00-24:00", "phone": "+9647713222106"}}, {"type": "node", "id": 7255486187, "lat": 33.7544319, "lon": 44.6518181, "tags": {"addr:housenumber": "2", "addr:street": "\u062d\u064a \u0627\u0644\u0645\u0647\u0646\u062f\u0633\u064a\u0646", "amenity": "school", "email": "hamoodafiras2015@gmail.com", "name": "\u0627\u0639\u062f\u0627\u062f\u064a\u0629 \u0627\u0644\u062a\u062c\u0627\u0631\u0629 \u0644\u0644\u0628\u0646\u0627\u062a", "phone": "07716138250"}}, {"type": "node", "id": 7812684519, "lat": 33.7704506, "lon": 44.5549499, "tags": {"amenity": "school", "name": "\u0645\u062f\u0631\u0633\u0629 \u062c\u0645\u064a\u0644\u0629 \u0628\u0648\u062d\u064a\u0631\u062f \u0627\u0644\u0627\u0628\u062a\u062f\u0627\u0626\u064a\u0629"}}, {"type": "node", "id": 8285729817, "lat": 33.7384056, "lon": 44.6216496, "tags": {"amenity": "school", "name": "\u0645\u062f\u0631\u0633\u0629 \u0628\u0639\u0642\u0648\u0628\u0629 \u0627\u0644\u062c\u062f\u064a\u062f\u0629"}}, {"type": "node", "id": 8288965720, "lat": 33.803222, "lon": 44.6300667, "tags": {"addr:street": "\u0637\u0631\u064a\u0642 \u0623\u0645 \u0627\u0644\u0634\u064a\u0648\u062e", "amenity": "school", "name": "\u0645\u062f\u0631\u0633\u0629 \u0637\u0627\u0644\u0628 \u0627\u0644\u0632\u064a\u062f\u064a \u0644\u0644\u0628\u0646\u064a\u0646 \u0648\u0645\u062f\u0631\u0633\u0629 \u0627\u0644\u0632\u0647\u0648\u0631 \u0644\u0644\u0628\u0646\u0627\u062a", "name:en": "Talib Al-Zaidi School for Boys and Al-Zuhour School for Girls", "opening_hours": "Sa-Th 07:30-17:00", "website": "https://www.facebook.com/%D8%AB%D8%A7%D9%86%D9%88%D9%8A%D8%A9-%D8%B7%D8%A7%D9%84%D8%A8-%D8%A7%D9%84%D8%B2%D9%8A%D8%AF%D9%8A-%D9%84%D9%84%D8%A8%D9%86%D9%8A%D9%86-104985327516138/"}}, {"type": "node", "id": 8361065419, "lat": 33.8680516, "lon": 44.6592399, "tags": {"amenity": "school", "name": "\u0645\u062f\u0631\u0633\u0629 \u0627\u0644\u0627\u0647\u0631\u0627\u0645"}}, {"type": "node", "id": 8361089617, "lat": 33.8420467, "lon": 44.6154094, "tags": {"amenity": "school", "name": "\u0627\u0644\u0627\u0635\u064a\u0644 \u0642\u0631\u064a\u0629 \u0627\u0644\u0645\u062c\u062f\u062f"}}, {"type": "node", "id": 8361089717, "lat": 33.8420165, "lon": 44.6153332, "tags": {"addr:street": "\u0642\u0631\u064a\u0629 \u0627\u0644\u0645\u062c\u062f\u062f", "amenity": "school", "name": "\u0645\u062f\u0631\u0633\u0629 \u0627\u0644\u0627\u0635\u064a\u0644 \u0641\u064a \u0627\u0644\u0645\u062c\u062f\u062f", "name:ar": "\u0645\u062f\u0631\u0633\u0629 \u0627\u0644\u0627\u0635\u064a\u0644"}}, {"type": "node", "id": 8363347717, "lat": 33.728658, "lon": 44.61174, "tags": {"addr:street": "\u062d\u064a \u0627\u0644\u0645\u0639\u0644\u0645\u064a\u0646", "amenity": "school", "name": "\u0645\u062f\u0631\u0633\u0629 \u0627\u0644\u0639\u062f\u0646\u0627\u0646\u064a\u0629"}}, {"type": "node", "id": 8366922417, "lat": 33.7690341, "lon": 44.6440867, "tags": {"addr:street": "\u062c\u0628\u064a\u0646\u0627\u062a", "amenity": "school", "name": "\u0645\u062f\u0631\u0633\u0629 \u0627\u0628\u0646 \u062e\u0641\u0627\u062c\u0629 \u0627\u0644\u0627\u0628\u062a\u062f\u0627\u0626\u064a\u0629"}}, {"type": "node", "id": 8372963217, "lat": 33.7149975, "lon": 44.6591712, "tags": {"addr:street": "\u0628\u0647\u0631\u0632", "amenity": "school", "name": "\u0627\u0644\u0639\u0631\u0627\u0642 \u0627\u0644\u062c\u062f\u064a\u062f"}}, {"type": "node", "id": 8372968017, "lat": 33.5380321, "lon": 44.5876423, "tags": {"addr:street": "\u062e\u0627\u0646 \u0628\u0646\u064a \u0633\u0639\u062f \u0642\u0631\u064a\u0629 \u0633\u064a\u062f \u0639\u0648\u0627\u062f", "amenity": "school", "name": "\u062b\u0627\u0646\u0648\u064a\u0629 \u0635\u0642\u0631 \u0642\u0631\u064a\u0634"}}, {"type": "node", "id": 8372969517, "lat": 33.7713991, "lon": 44.6274888, "tags": {"addr:street": "\u0627\u0644\u0647\u0648\u064a\u062f\u0631", "amenity": "school", "name": "\u062b\u0627\u0646\u0648\u064a\u0629 \u0627\u0644\u0635\u062f\u0631\u064a\u0646"}}, {"type": "node", "id": 8372992517, "lat": 33.7223185, "lon": 44.6128113, "tags": {"addr:street": "\u062d\u064a \u0627\u0644\u0645\u0639\u0644\u0645\u064a\u0646", "amenity": "school", "name": "\u062b\u0627\u0646\u0648\u064a\u0629 \u0641\u0627\u0637\u0645", "name:ar": "\u062b\u0627\u0646\u0648\u064a\u0629 \u0641\u0627\u0637\u0645\u0629"}}, {"type": "node", "id": 8412188217, "lat": 33.7586761, "lon": 44.6395666, "tags": {"addr:street": "\u0634\u0627\u0631\u0639 \u0627\u0644\u0648\u062b\u0628\u0629", "amenity": "school", "name": "\u0645\u062f\u0631\u0633\u0629 \u0627\u0644\u0648\u062b\u0628\u0629 \u0627\u0644\u0625\u0628\u062a\u062f\u0627\u0626\u064a\u0629 \u0644\u0644\u0628\u0646\u0627\u062a", "opening_hours": "Sa-Th 07:30-17:00", "website": "https://www.facebook.com/groups/3108744139191294"}}, {"type": "node", "id": 8642906717, "lat": 33.7273528, "lon": 44.5972581, "tags": {"addr:housenumber": "07711434051", "addr:street": "\u0627\u0644\u0631\u0627\u0632\u064a", "amenity": "school", "name": "\u0645\u062f\u0631\u0633 \u0627\u0644\u0627\u0646\u0643\u0644\u064a\u0632\u064a\u0629 \u0633\u0639\u062f \u0627\u0644\u0646\u062f\u0627\u0648\u064a", "name:en": "An English Teacher"}}, {"type": "node", "id": 8642945417, "lat": 33.7281966, "lon": 44.6000861, "tags": {"addr:street": "\u0634\u0627\u0631\u0639 \u0627\u0644\u0645\u062f\u0627\u0631\u0633", "amenity": "school", "name": "\u062b\u0627\u0646\u0648\u064a\u0629 \u0627\u0644\u0634\u0627\u0645 \u0644\u0644\u0628\u0646\u064a\u0646", "name:en": "Al Shaam Secondary school"}}, {"type": "node", "id": 9885651942, "lat": 33.749686, "lon": 44.638453}, {"type": "node", "id": 9885651943, "lat": 33.7497092, "lon": 44.6387846}, {"type": "node", "id": 9885651944, "lat": 33.7493067, "lon": 44.6388257}, {"type": "node", "id": 9885651945, "lat": 33.7492791, "lon": 44.6384981}, {"type": "node", "id": 9885651946, "lat": 33.749686, "lon": 44.6384437}, {"type": "node", "id": 9885651947, "lat": 33.7492725, "lon": 44.6384901}, {"type": "node", "id": 9885651948, "lat": 33.7493144, "lon": 44.6377752}, {"type": "node", "id": 9885651949, "lat": 33.7496552, "lon": 44.6378256}, {"type": "node", "id": 10098478217, "lat": 33.6454457, "lon": 44.9892065, "tags": {"amenity": "school", "name": "\u062b\u0627\u0646\u0648\u064a\u0629 \u0627\u0644\u0635\u0628\u0627\u062d"}}, {"type": "node", "id": 10098478218, "lat": 33.6427751, "lon": 44.9877136, "tags": {"amenity": "school", "name": "\u062b\u0627\u0646\u0648\u064a\u0629 \u0627\u0644\u0635\u0628\u0627\u062d"}}, {"type": "node", "id": 11182349037, "lat": 33.787758, "lon": 44.6404354, "tags": {"amenity": "school", "name": "\u0645\u062f\u0631\u0633\u0629 \u0623\u0633\u0648\u0627\u0631 \u0627\u0644\u0639\u064f\u0644\u0627 \u0627\u0644\u0623\u0628\u062a\u062f\u0627\u0626\u064a\u0629 \u0627\u0644\u0623\u0647\u0644\u064a\u0629 \u0627\u0644\u0645\u062e\u062a\u0644\u0637\u0629", "phone": "07700883355"}}, {"type": "node", "id": 11182350537, "lat": 33.7876535, "lon": 44.6403281, "tags": {"amenity": "school", "name": "\u0645\u062f\u0631\u0633\u0629 \u0623\u0633\u0648\u0627\u0631 \u0627\u0644\u0639\u064f\u0644\u0627 \u0627\u0644\u0623\u0628\u062a\u062f\u0627\u0626\u064a\u0629 \u0627\u0644\u0623\u0647\u0644\u064a\u0629 \u0627\u0644\u0645\u062e\u062a\u0644\u0637\u0629", "phone": "07700883355"}}, {"type": "node", "id": 11584129096, "lat": 33.5842725, "lon": 44.5548011}, {"type": "node", "id": 11584129097, "lat": 33.5838006, "lon": 44.5555262}, {"type": "node", "id": 11584129098, "lat": 33.5843128, "lon": 44.5558753}, {"type": "node", "id": 11584129099, "lat": 33.5847485, "lon": 44.5552588}, {"type": "node", "id": 11690617074, "lat": 33.777552, "lon": 44.5925461, "tags": {"amenity": "school", "name": "\u0645\u062f\u0631\u0633\u0647 \u0627\u0644\u0632\u0645\u0631 \u0644\u0644\u0628\u0646\u0627\u062a"}}, {"type": "node", "id": 11690617075, "lat": 33.7775373, "lon": 44.5923454, "tags": {"amenity": "school", "name": "\u062b\u0627\u0646\u0648\u064a\u0629 \u0627\u0644\u0645\u062d\u0633\u0646 \u0644\u0644\u0628\u0646\u064a\u0646"}}, {"type": "node", "id": 11690617077, "lat": 33.770626, "lon": 44.5548365, "tags": {"amenity": "school", "name": "\u0645\u062f\u0631\u0633\u0647 \u0627\u0644\u0634\u0647\u064a\u062f \u0627\u0644\u0635\u0628\u0627\u063a"}}, {"type": "node", "id": 11690617082, "lat": 33.7482655, "lon": 44.6453966, "tags": {"amenity": "school", "name": "\u062b\u0627\u0646\u0648\u064a\u0629 \u0627\u0644\u062c\u0648\u0627\u0647\u0631\u064a \u0644\u0644\u0628\u0646\u064a\u0646"}}, {"type": "node", "id": 11693448481, "lat": 33.7453444, "lon": 44.6238335, "tags": {"amenity": "school", "name": "\u062b\u0627\u0646\u0648\u064a\u0629 \u0627\u0644\u062d\u0631\u064a\u0629 \u0644\u0644\u0645\u062a\u0645\u064a\u0632\u0627\u062a"}}, {"type": "node", "id": 11693448491, "lat": 33.7434088, "lon": 44.6144377, "tags": {"amenity": "school", "name": "\u0645\u0639\u0647\u062f \u0627\u0644\u0623\u0645\u0627\u0646\u064a \u0627\u0644\u0623\u0647\u0644\u064a"}}, {"type": "node", "id": 11693448492, "lat": 33.7386855, "lon": 44.6188089, "tags": {"amenity": "school", "name": "\u0627\u0639\u062f\u0627\u062f\u064a\u0629 \u0627\u0644\u0628\u0627\u0633\u0645\u0627\u062a \u0644\u0644\u0628\u0646\u0627\u062a"}}, {"type": "node", "id": 11693448493, "lat": 33.7512368, "lon": 44.614251, "tags": {"amenity": "school", "name": "\u062b\u0627\u0646\u0648\u064a\u0629 \u062c\u0645\u0627\u0646\u0629 \u0644\u0644\u0628\u0646\u0627\u062a"}}, {"type": "node", "id": 11693448494, "lat": 33.7498784, "lon": 44.6229647, "tags": {"amenity": "school", "name": "\u0645\u062f\u0631\u0633\u0629 \u0647\u0646\u062f \u0627\u0644\u0645\u062e\u0632\u0648\u0645\u064a\u0629"}}, {"type": "node", "id": 11693448509, "lat": 33.7815208, "lon": 44.5926642, "tags": {"amenity": "school", "name": "\u0645\u062f\u0631\u0633\u0629 \u0627\u0644\u0645\u0635\u0637\u0641\u0649 \u0627\u0644\u0627\u0647\u0644\u064a\u0629"}}, {"type": "node", "id": 11693448510, "lat": 33.7774371, "lon": 44.5917773, "tags": {"amenity": "school", "name": "\u0645\u062f\u0631\u0633\u0647 \u0627\u0644\u062a\u0648\u0628\u0647 \u0627\u0644\u0627\u0628\u062a\u062f\u0627\u0626\u064a\u0647 \u0627\u0644\u0645\u062e\u062a\u0644\u0637\u0647"}}, {"type": "node", "id": 11693549423, "lat": 33.7513243, "lon": 44.6396865, "tags": {"amenity": "school", "name": "\u0645\u062f\u0631\u0633\u0629 \u0628\u0639\u0642\u0648\u0628\u0629"}}, {"type": "node", "id": 11693549424, "lat": 33.7511191, "lon": 44.6398431, "tags": {"amenity": "school", "name": "\u0645\u062a\u0648\u0633\u0637\u0629 \u0627\u0644\u062d\u0633\u0646 \u0628\u0646 \u0639\u0644\u064a"}}, {"type": "way", "id": 386302713, "nodes": [3896225877, 3896225878, 3896225879, 3896225880, 3896225881, 3896225882, 3896225883, 3896225884, 3896225877], "tags": {"amenity": "school"}}, {"type": "way", "id": 388225757, "nodes": [3914431155, 3914431156, 3914431157, 3914431158, 3914431166, 3914431159, 3914431160, 3914431161, 3914431162, 3914431163, 3914431164, 3914431165, 3914431155], "tags": {"amenity": "school"}}, {"type": "way", "id": 388250679, "nodes": [3914644583, 3914644584, 3914644585, 3914644586, 3914644587, 3914644588, 3914644589, 3914644590, 3914644583], "tags": {"amenity": "school"}}, {"type": "way", "id": 388271154, "nodes": [3914844492, 3914844493, 3914844494, 3914844495, 3914844496, 3914844497, 3914844498, 3914844499, 3914844492], "tags": {"amenity": "school"}}, {"type": "way", "id": 388282747, "nodes": [3914949748, 3914949749, 3914949750, 3914949751, 3914949752, 3914949753, 3914949754, 3914949755, 3914949748], "tags": {"amenity": "school"}}, {"type": "way", "id": 388282955, "nodes": [3914953662, 3914953663, 3914953664, 3914953665, 3914953666, 3914953667, 3914953668, 3914953669, 3914953662], "tags": {"amenity": "school"}}, {"type": "way", "id": 388282956, "nodes": [3914953670, 3914953671, 3914953672, 3914953673, 3914953674, 3914953675, 3914953676, 3914953677, 3914953678, 3914953679, 3914953670], "tags": {"amenity": "school"}}, {"type": "way", "id": 644750616, "nodes": [6062807467, 6062807468, 6062807469, 6062807470, 6062807471, 6062807472, 6062807467], "tags": {"amenity": "school", "name": "\u0645\u062f\u0631\u0633\u0629 \u0627\u0644\u0645\u062d\u0645\u062f\u064a\u0647 \u0627\u0644\u0627\u0628\u062a\u062f\u0627\u0626\u064a\u0647 \u0627\u0644\u0645\u062e\u062a\u0644\u0637\u0647"}}, {"type": "way", "id": 1078279620, "nodes": [9885651942, 9885651943, 9885651944, 9885651945, 9885651942], "tags": {"addr:city": "DIYALA", "addr:housenumber": "101", "amenity": "school", "name": "\u062b\u0627\u0646\u0648\u064a\u0629 \u0627\u0644\u0641\u0631\u0627\u0642\u062f \u0644\u0644\u0628\u0646\u0627\u062a"}}, {"type": "way", "id": 1078279621, "nodes": [9885651946, 9885651947, 9885651948, 9885651949, 9885651946], "tags": {"addr:city": "DIYALA", "addr:housenumber": "101", "amenity": "school", "name": "\u0645\u062a\u0648\u0633\u0637\u0629 \u0634\u0647\u062f\u0627\u0621 \u0627\u0644\u0627\u0633\u0644\u0627\u0645"}}, {"type": "way", "id": 1246041501, "nodes": [11584129096, 11584129097, 11584129098, 11584129099, 11584129096], "tags": {"amenity": "school"}}]}