{"version": 0.6, "generator": "Overpass API 0.7.61.5 4133829e", "osm3s": {"timestamp_osm_base": "2024-03-06T11:17:45Z", "copyright": "The data included in this document is from www.openstreetmap.org. The data is made available under ODbL."}, "elements": [{"type": "node", "id": 2488245762, "lat": 35.5773118, "lon": 42.7340241, "tags": {"alt_name": "Al \u1e28a\u1e11ar, Al Hadhar, Al Hadhr, Al \u1e28a\u1e11r, Hadhar, Hadhr, Hatra, Rijm al \u1e28a\u1e11r, \u0627\u0644\u062d\u0636\u0631, Al Hadar, Al Hadhar, Al Hadhr, Al Hadr, Hadhar, Hadhr, Hatra, Rijm al Hadr, \u0627\u0644\u062d\u0636\u0631", "capital": "6", "int_name": "Al Hadar, \u0627\u0644\u062d\u0636\u0631", "name": "\u0627\u0644\u062d\u0636\u0631", "name:ar": "\u0627\u0644\u062d\u0636\u0631", "name:de": "Al Hadar", "name:en": "Al Hadar", "name:fr": "Al Hadar", "name:ru": "\u042d\u043b\u044c-\u0425\u0430\u0434\u0440", "place": "town"}}, {"type": "node", "id": 2488317366, "lat": 35.373038, "lon": 42.615233, "tags": {"alt_name": "\u0627\u0644\u0628\u0631\u064a\u062a", "int_name": "Al Bar\u012bt, Al Barrit, \u0627\u0644\u0628\u0631\u064a\u062a, Al Barit, Al Barrit, \u0627\u0644\u0628\u0631\u064a\u062a", "name": "\u0627\u0644\u0628\u0631\u064a\u062a", "name:ar": "\u0627\u0644\u0628\u0631\u064a\u062a", "name:ar1": "\u0627\u0644\u0628\u0631\u064a\u062a", "name:de": "Al Barit", "name:en": "Al Barit", "name:fr": "Al Barit", "place": "village"}}, {"type": "node", "id": 2488317367, "lat": 35.527641, "lon": 42.621756, "tags": {"alt_name": "\u0627\u0644\u0623\u062d\u064a\u0645\u0631", "int_name": "Al U\u1e29aymar, \u0627\u0644\u0627\u062d\u064a\u0645\u0631, Al Uhaymar, \u0627\u0644\u0627\u062d\u064a\u0645\u0631", "name": "\u0627\u0644\u0623\u062d\u064a\u0645\u0631", "name:ar": "\u0627\u0644\u0623\u062d\u064a\u0645\u0631", "name:ar1": "\u0627\u0644\u0623\u062d\u064a\u0645\u0631", "name:de": "Al Uhaymar", "name:en": "Al Uhaymar", "name:fr": "Al Uhaymar", "place": "village"}}, {"type": "node", "id": 2488318098, "lat": 35.522274, "lon": 42.738688, "tags": {"alt_name": "\u0631\u062c\u0645 \u0627\u0644\u0639\u0638\u0627\u0645\u064a\u0629", "int_name": "Rujm al Iz\u0327\u0101m\u012byah, \u0631\u062c\u0645 \u0627\u0644\u0639\u0638\u0627\u0645\u064a\u0629, Rujm al Izamiyah, \u0631\u062c\u0645 \u0627\u0644\u0639\u0638\u0627\u0645\u064a\u0629", "name": "\u0631\u062c\u0645 \u0627\u0644\u0639\u0638\u0627\u0645\u064a\u0629", "name:ar": "\u0631\u062c\u0645 \u0627\u0644\u0639\u0638\u0627\u0645\u064a\u0629", "name:ar1": "\u0631\u062c\u0645 \u0627\u0644\u0639\u0638\u0627\u0645\u064a\u0629", "name:de": "Rujm al Izamiyah", "name:en": "Rujm al Izamiyah", "name:fr": "Rujm al Izamiyah", "place": "village"}}, {"type": "node", "id": 2488318501, "lat": 35.478757, "lon": 42.538391, "tags": {"alt_name": "\u062a\u0644 \u0627\u0644\u062f\u0628\u0627\u063a\u0629", "int_name": "Tall ad Dab\u0101ghah, \u062a\u0644 \u0627\u0644\u062f\u0628\u0627\u063a\u0629, Tall ad Dabaghah, \u062a\u0644 \u0627\u0644\u062f\u0628\u0627\u063a\u0629", "name": "\u062a\u0644 \u0627\u0644\u062f\u0628\u0627\u063a\u0629", "name:ar": "\u062a\u0644 \u0627\u0644\u062f\u0628\u0627\u063a\u0629", "name:ar1": "\u062a\u0644 \u0627\u0644\u062f\u0628\u0627\u063a\u0629", "name:de": "Tall ad Dabaghah", "name:en": "Tall ad Dabaghah", "name:fr": "Tall ad Dabaghah", "place": "village"}}, {"type": "node", "id": 2489257284, "lat": 35.325989, "lon": 42.577313, "tags": {"alt_name": "\u0623\u0628\u0648 \u0639\u0627\u062f\u0644", "int_name": "Ab\u016b \u0100dil, \u0627\u0628\u0648 \u0639\u0627\u062f\u0644, Abu Adil, \u0627\u0628\u0648 \u0639\u0627\u062f\u0644", "name": "\u0623\u0628\u0648 \u0639\u0627\u062f\u0644", "name:ar": "\u0623\u0628\u0648 \u0639\u0627\u062f\u0644", "name:ar1": "\u0623\u0628\u0648 \u0639\u0627\u062f\u0644", "name:de": "Abu Adil", "name:en": "Abu Adil", "name:fr": "Abu Adil", "place": "village"}}, {"type": "node", "id": 2489257317, "lat": 35.3, "lon": 42.783333, "tags": {"alt_name": "\u0627\u0644\u0628\u0646\u064a\u0629 \u0627\u0644\u062c\u0646\u0648\u0628\u064a\u0629", "int_name": "Al Bunyah al Jan\u016bb\u012byah, Bamya South, Baniya South, Al Bunyah al Janubiyah, Bamya South, Baniya South", "name": "\u0627\u0644\u0628\u0646\u064a\u0629 \u0627\u0644\u062c\u0646\u0648\u0628\u064a\u0629", "name:ar": "\u0627\u0644\u0628\u0646\u064a\u0629 \u0627\u0644\u062c\u0646\u0648\u0628\u064a\u0629", "name:ar1": "\u0627\u0644\u0628\u0646\u064a\u0629 \u0627\u0644\u062c\u0646\u0648\u0628\u064a\u0629", "name:de": "Al Bunyah al Janubiyah", "name:en": "Al Bunyah al Janubiyah", "name:fr": "Al Bunyah al Janubiyah", "place": "village"}}]}