{"version": 0.6, "generator": "Overpass API 0.7.61.5 4133829e", "osm3s": {"timestamp_osm_base": "2024-03-05T15:08:58Z", "copyright": "The data included in this document is from www.openstreetmap.org. The data is made available under ODbL."}, "elements": [{"type": "node", "id": 2235762197, "lat": 66.1494984, "lon": 19.9868743, "tags": {"name": "K\u00e5bdalis", "name:smj": "Goabdd\u00e1lis", "name:sv": "K\u00e5bdalis", "place": "village", "ref:se:pts:postort": "K\u00c5BDALIS"}}, {"type": "node", "id": 2302621337, "lat": 66.1804872, "lon": 19.933866, "tags": {"name": "Kittajaur", "name:smj": "Gid\u00e1j\u00e1vrre", "name:sv": "Kittajaur", "place": "hamlet"}}, {"type": "node", "id": 2306224563, "lat": 66.4306767, "lon": 19.6846423, "tags": {"name": "T\u00e5rrajaur", "name:smj": "D\u00e5raj\u00e1vrre", "name:sv": "T\u00e5rrajaur", "place": "hamlet"}}, {"type": "node", "id": 2306348800, "lat": 66.3823593, "lon": 19.6813646, "tags": {"alt_name": "Maitum", "name": "Majtum", "name:smj": "M\u00e1jddum", "name:sv": "Majtum", "place": "hamlet"}}, {"type": "node", "id": 2902467751, "lat": 66.0781678, "lon": 19.1572276, "tags": {"name": "Akkajaur", "name:smj": "\u00c1hk\u00e1j\u00e1vrre", "name:sv": "Akkajaur", "place": "hamlet"}}, {"type": "node", "id": 3392186105, "lat": 66.1200422, "lon": 19.6779544, "tags": {"name": "Tiellejaur", "name:smj": "Diellej\u00e1vrre", "name:sv": "Tiellejaur", "place": "hamlet"}}, {"type": "node", "id": 3393588543, "lat": 66.3366143, "lon": 19.7496264, "tags": {"name": "Ovansj\u00f6", "place": "hamlet"}}]}