{"version": 0.6, "generator": "Overpass API 0.7.61.5 4133829e", "osm3s": {"timestamp_osm_base": "2024-03-06T11:17:45Z", "copyright": "The data included in this document is from www.openstreetmap.org. The data is made available under ODbL."}, "elements": [{"type": "node", "id": 2479362132, "lat": 35.7098051, "lon": 44.2725179, "tags": {"alt_name": "\u0642\u0627\u062f\u0631 \u0628\u0627\u063a\u06cc - \u0695\u06c6\u0698\u06be\u06d5\u06b5\u0627\u062a", "name": "\u0642\u0627\u062f\u0631 \u0628\u0627\u063a\u0631", "name:ar": "\u0642\u0627\u062f\u0631 \u0628\u0627\u063a\u0631", "name:en": "Qadr Baghr", "place": "village"}}, {"type": "node", "id": 2479362579, "lat": 35.932008, "lon": 44.150014, "tags": {"addr:city": "Erbil", "addr:country": "IQ", "addr:state": "\u0645\u062d\u0627\u0641\u0638\u0629 \u0623\u0631\u0628\u064a\u0644", "alt_name": "\u0628\u0648\u0631\u064a\u062c\u0629", "name": "\u067e\u06c6\u0695\u06cc\u062c\u06d5", "name:ckb": "\u067e\u06c6\u0695\u06cc\u062c\u06d5", "place": "village"}}, {"type": "node", "id": 2479362594, "lat": 35.9449666, "lon": 44.1537699, "tags": {"name": "\u0645\u06cc\u0631\u06a9\u0627\u0646", "name:en": "Mirkan", "place": "village"}}, {"type": "node", "id": 2479369784, "lat": 36.0451221, "lon": 44.1989584, "tags": {"name": "\u0628\u06cc\u0633\u062a\u0627\u0646\u0647\u200c \u06cc \u06af\u0647\u200c\u0648\u0631\u0647\u200c", "name:de": "Bestana", "name:en": "Bistana", "name:fr": "Bestana", "place": "village"}}, {"type": "node", "id": 2479369793, "lat": 36.065546, "lon": 44.208787, "tags": {"name": "\u0628\u06cc\u0631\u06d5\u062c\u0646\u06d5", "name:de": "Bira Jina", "name:en": "Bira Jina", "name:fr": "Bira Jina", "place": "village"}}, {"type": "node", "id": 2479369819, "lat": 36.0359972, "lon": 44.2229894, "tags": {"addr:city": "Erbil", "addr:country": "IQ", "addr:state": "\u0645\u062d\u0627\u0641\u0638\u0629 \u0623\u0631\u0628\u064a\u0644", "alt_name": "\u0633\u0631\u0645\u0627\u0632\u0631\u0627", "name": "\u0633\u06d5\u0631\u0645\u06d5\u0632\u0631\u0627", "name:ckb": "\u0633\u06d5\u0631\u0645\u06d5\u0632\u0631\u0627", "place": "village"}}, {"type": "node", "id": 2479371621, "lat": 36.0470193, "lon": 44.1527009, "tags": {"alt_name": "\u0647\u0644\u062c\u0629", "int_name": "Halaja, Halaja", "name": "\u0647\u0644\u062c\u0629", "name:ar": "\u0647\u0644\u062c\u0629", "name:ar1": "\u0647\u0644\u062c\u0629", "name:de": "Halaja", "name:en": "Halaja", "name:fr": "Halaja", "place": "village"}}, {"type": "node", "id": 2479371641, "lat": 36.035485, "lon": 44.1711702, "tags": {"alt_name": "\u0639\u0645\u0631\u0629 \u0633\u0648\u0631", "int_name": "Umara S\u016br, Umarah S\u016br, H\u014dmaras\u014dr, Omara Sur, Omarasur, \u0639\u0645\u0631\u0629 \u0633\u0648\u0631, Umara Sur, Umarah Sur, Homarasor, Omara Sur, Omarasur, \u0639\u0645\u0631\u0629 \u0633\u0648\u0631", "name": "\u0626\u06c6\u0645\u06d5\u0631\u06d5 \u0633\u0648\u0648\u0631", "name:ar": "\u0639\u0645\u0631\u0629 \u0633\u0648\u0631", "name:ar1": "\u0639\u0645\u0631\u0629 \u0633\u0648\u0631", "name:de": "Umara Sur", "name:en": "Umara Sur", "name:fr": "Umara Sur", "place": "village"}}, {"type": "node", "id": 2479372351, "lat": 36.07597, "lon": 44.0373101, "tags": {"name": "\u0642\u06d5\u0631\u06d5\u0686\u0646\u0627\u063a\u06d5", "name:ar": "\u0642\u0631\u062c\u0646\u0627\u063a\u0629", "name:ckb": "\u0642\u06d5\u0631\u06d5\u0686\u0646\u0627\u063a\u06d5", "name:en": "Qarajnaxa", "place": "village"}}, {"type": "node", "id": 2484156212, "lat": 35.9561992, "lon": 44.0328585, "tags": {"admin_level": "9", "alt_name": "\u0642\u0648\u0644 \u062a\u0628\u0629 \u064a\u0627\u0628\u0629", "name": "\u0642\u0648\u0644\u062a\u06d5\u067e\u06d5 \u06cc\u0627\u0628\u06d5", "name:ar": "\u0642\u0648\u0644\u062a\u0628\u0629 \u064a\u0627\u0628\u0629", "name:ckb": "\u0642\u0648\u0644\u062a\u06d5\u067e\u06d5 \u06cc\u0627\u0628\u06d5", "name:de": "Qul Tapa Yaba", "name:en": "Qul Tapa Yaba", "name:fr": "Qul Tapa Yaba", "place": "village"}}, {"type": "node", "id": 2486472577, "lat": 35.6912208, "lon": 44.0695328, "tags": {"alt_name": "\u0645\u0644\u062d\u0629 \u0648\u0627\u0644\u064a", "int_name": "Avanah, M Waly, Malhah W\u0101l\u012b, Malh\u0101wal\u012b, Mallaw\u0101l\u012b, Mul\u1e29at W\u0101l\u012b, Mull\u0101 W\u0101l\u012b, Mull\u0101 W\u012bs, \u0645\u0644\u062d\u0629 \u0648\u0627\u0644\u064a, Avanah, M Waly, Malhah Wali, Malhawali, Mallawali, Mulhat Wali, Mulla Wali, Mulla Wis, \u0645\u0644\u062d\u0629 \u0648\u0627\u0644\u064a", "name": "\u0645\u0644\u062d\u0629 \u0648\u0627\u0644\u064a", "name:ar": "\u0645\u0644\u062d\u0629 \u0648\u0627\u0644\u064a", "name:de": "Avanah", "name:en": "Avanah", "name:fr": "Avanah", "place": "village"}}, {"type": "node", "id": 2486472585, "lat": 35.716097, "lon": 44.0959525, "tags": {"name": "\u0628\u06d5\u0631\u06a9\u06d5\u0646", "name:ar": "\u0628\u0631\u0643\u0646", "name:ckb": "\u0628\u06d5\u0631\u06a9\u06d5\u0646", "name:de": "Barkan", "name:en": "Barkan", "name:fr": "Barkan", "name:ku": "Berken", "place": "village"}}, {"type": "node", "id": 2486472611, "lat": 35.671014, "lon": 44.0771941, "tags": {"capital": "6", "name": "\u0627\u0644\u062f\u0628\u0633", "name:ar": "\u0627\u0644\u062f\u0628\u0633", "name:ckb": "\u062f\u0648\u0648\u0628\u0632", "name:de": "Dubis", "name:en": "Dubis", "name:fr": "Dubis", "name:ku": "D\u00fbbiz", "name:ru": "\u0414\u0438\u0431\u0441", "official_name": "\u062f\u0648\u0648\u0628\u0632", "place": "town", "wikidata": "Q6725448", "wikipedia": "ar:\u0627\u0644\u062f\u0628\u0633 (\u0643\u0631\u0643\u0648\u0643)"}}, {"type": "node", "id": 2486472724, "lat": 35.6466053, "lon": 44.0485233, "tags": {"int_name": "Qara Cham, Qaracham, Qarah Cham, Qarah Jam, Qarat Jam, \u0642\u0631\u0629 \u062c\u0645, Qara Cham, Qaracham, Qarah Cham, Qarah Jam, Qarat Jam, \u0642\u0631\u0629 \u062c\u0645", "name": "\u0642\u0631\u0629 \u062c\u0645", "name:ar": "\u0642\u0631\u0629 \u062c\u0645", "name:ckb": "\u0642\u06d5\u0631\u06d5\u0686\u06d5\u0645", "name:en": "Qaracham", "name:ku": "Qere\u00e7em", "place": "village"}}, {"type": "node", "id": 2486472733, "lat": 35.6795502, "lon": 44.0503562, "tags": {"alt_name": "\u0634\u0631\u063a\u0629 \u0627\u0644\u0639\u0644\u064a", "int_name": "Sharghat al Al\u012b, Shitagha, \u0634\u0631\u063a\u0629 \u0627\u0644\u0639\u0644\u064a, Sharghat al Ali, Shitagha, \u0634\u0631\u063a\u0629 \u0627\u0644\u0639\u0644\u064a", "name": "\u0642\u06d5\u0628\u0631 \u0639\u06d5\u0644\u06cc", "name:ar": "\u0642\u0628\u0631 \u0639\u0644\u064a", "name:en": "Qabr Ali", "place": "village"}}, {"type": "node", "id": 2486472749, "lat": 35.6832646, "lon": 44.0314027, "tags": {"alt_name": "\u0634\u0646\u0627\u063a\u0629", "int_name": "Shin\u0101ghah, Shitagha, \u0634\u0646\u0627\u063a\u0629, Shinaghah, Shitagha, \u0634\u0646\u0627\u063a\u0629", "name": "\u0634\u06d5\u0646\u0627\u063a\u06d5", "name:ar": "\u0634\u0646\u0627\u063a\u0629", "name:ckb": "\u0634\u06d5\u0646\u0627\u063a\u06d5", "name:en": "Shanagha", "name:ku": "\u015eenaxe", "place": "village"}}, {"type": "node", "id": 2488195244, "lat": 36.071139, "lon": 44.495861, "tags": {"name": "\u06af\u06c6\u067e\u062a\u06d5\u067e\u06d5", "name:ckb": "\u06a9\u06c6\u067e\u062a\u06d5\u067e\u06d5", "name:de": "Gop Tepe", "name:en": "Gop Tepe", "name:fr": "Gop Tepe", "name:ku": "Goptepe", "place": "village"}}, {"type": "node", "id": 2488229242, "lat": 35.8508196, "lon": 44.0269735, "tags": {"admin_level": "9", "alt_name": "\u0639\u0644\u064a \u0622\u0648\u0627", "name": "\u0639\u06d5\u0644\u06cc\u0627\u0648\u06d5", "name:ckb": "\u06af\u0648\u0646\u062f\u06cc \u0639\u06d5\u0644\u06cc\u0627\u0648\u06d5", "place": "village"}}, {"type": "node", "id": 2488229250, "lat": 35.728574, "lon": 44.006078, "tags": {"name": "\u067e\u06d5\u06b5\u06a9\u0627\u0646\u06d5", "name:ar": "\u0628\u0644\u0643\u0627\u0646\u0629", "name:ckb": "\u067e\u06d5\u06b5\u06a9\u0627\u0646\u06d5", "name:en": "Pallkana", "name:ku": "Pellkane", "place": "village"}}, {"type": "node", "id": 2488229258, "lat": 35.8650647, "lon": 44.0092523, "tags": {"admin_level": "9", "name": "\u0628\u0627\u0634\u062a\u06d5\u067e\u06d5", "name:ckb": "\u0628\u0627\u0634\u062a\u06d5\u067e\u06d5", "name:en": "bashtapa", "name:ku": "Ba\u015ftepe", "place": "village"}}, {"type": "node", "id": 2488229267, "lat": 35.914384, "lon": 44.005578, "tags": {"admin_level": "9", "name": "\u0628\u06cc\u0631 \u0639\u0627\u0631\u06d5\u0628\u0627\u0646", "place": "village"}}, {"type": "node", "id": 2488229322, "lat": 35.893807, "lon": 44.034836, "tags": {"admin_level": "9", "alt_name": "\u062f\u0648\u0644\u0629 \u0633\u0631\u0629", "int_name": "Dolasiza, Dolaza, D\u016bl\u0101 Sirah, D\u016bl\u0101s\u012bzah, D\u016blat Sarat\u060c\u062f\u0648\u0648\u0633\u06d5\u0631\u06d5, \u062f\u0648\u0644\u0629 \u0633\u0631\u0629, Dolasiza, Dolaza, Dula Sirah, Dulasizah, Dulat Sarat, \u062f\u0648\u0644\u0629 \u0633\u0631\u0629", "name": "\u062f\u06c6\u0631\u06d5\u0632\u06d5", "name:ar": "\u062f\u0648\u0631\u0632\u06d5", "name:ckb": "\u062f\u06c6\u0631\u06d5\u0632\u06d5", "name:de": "Dolasiza", "name:en": "Dolasiza", "name:fr": "Dolasiza", "place": "village"}}, {"type": "node", "id": 2488229326, "lat": 35.897329, "lon": 44.034913, "tags": {"admin_level": "9", "alt_name": "\u062f\u0648\u0644\u0629 \u0633\u0631\u0629 \u0627\u0644\u0639\u0644\u064a", "int_name": "Dolaza, D\u016blah Sarat al Al\u012b, D\u016blat Sarat, \u062f\u0648\u0644\u0629 \u0633\u0631\u0629, \u062f\u0648\u0644\u0629 \u0633\u0631\u0629 \u0627\u0644\u0639\u0644\u064a, Dolaza, Dulah Sarat al Ali, Dulat Sarat, \u062f\u0648\u0644\u0629 \u0633\u0631\u0629, \u062f\u0648\u0644\u0629 \u0633\u0631\u0629 \u0627\u0644\u0639\u0644\u064a", "name": "\u062f\u06c6\u0631\u06d5\u0632\u06d5", "name:ar": "\u062f\u0648\u0644\u0632\u06d5", "name:de": "Dolaza", "name:en": "Dolaza", "name:fr": "Dolaza", "place": "village"}}, {"type": "node", "id": 2488229331, "lat": 35.908639, "lon": 44.040371, "tags": {"admin_level": "9", "alt_name": "\u062f\u0648\u0644\u0629 \u0633\u0631\u0629 \u0645\u0635\u0637\u0641\u0649", "int_name": "D\u016blat Sarat Mu\u015f\u0163af\u00e1, \u062f\u0648\u0644\u0629 \u0633\u0631\u0629 \u0645\u0635\u0637\u0641\u0649, Dulat Sarat Mustafa, \u062f\u0648\u0644\u0629 \u0633\u0631\u0629 \u0645\u0635\u0637\u0641\u0649", "name": "\u062f\u06c6\u0631\u06d5\u0632\u06d5\u06cc \u0645\u0633\u062a\u06d5\u0641\u0627", "name:ar": "\u062f\u0648\u0644\u0632\u06d5 \u0645\u0635\u0637\u0641\u0649", "name:de": "Dulat Sarat Mustafa", "name:en": "Dolaza Mustafa", "place": "village"}}, {"type": "node", "id": 2488229340, "lat": 35.861296, "lon": 44.040062, "tags": {"admin_level": "9", "name": "\u06af\u0631\u062f\u06d5\u0634\u06cc\u0646\u06d5", "name:ar": "\u0643\u0631\u062f\u0629 \u0634\u064a\u0646\u0629", "name:ckb": "\u06af\u0631\u062f\u06d5\u0634\u06cc\u0646\u06d5", "name:de": "Gird Shina", "name:en": "Gird Shina", "name:fr": "Gird Shina", "place": "village"}}, {"type": "node", "id": 2488229494, "lat": 35.8850336, "lon": 44.0575286, "tags": {"admin_level": "9", "name": "\u062a\u06d5\u062a\u06d5\u0631\u0627\u0648\u06d5", "name:ar": "\u062a\u0644 \u0631\u0627\u0648\u0629", "name:ckb": "\u062a\u06d5\u062a\u06d5\u0631\u0627\u0648\u06d5", "name:de": "Tal Rawah", "name:en": "Tatarawa", "name:fr": "Tal Rawah", "place": "village"}}, {"type": "node", "id": 2488259146, "lat": 36.0478368, "lon": 44.3161645, "tags": {"alt_name": "\u0622\u062e\u0648\u0631\u0629", "int_name": "Akhura, \u0100kh\u016brah, \u0627\u062e\u0648\u0631\u0647, Akhura, Akhurah, \u0627\u062e\u0648\u0631\u0647", "name": "\u0626\u0627\u062e\u0648\u0631\u06d5", "name:ar": "\u0622\u062e\u0648\u0631\u0629", "name:ar1": "\u0622\u062e\u0648\u0631\u0629", "name:de": "Akhura", "name:en": "Akhura", "name:fr": "Akhura", "place": "village"}}, {"type": "node", "id": 2488259154, "lat": 35.956282, "lon": 44.116171, "tags": {"name": "\u0626\u06cc\u0644\u06cc\u0646\u062c\u0627\u063a", "name:ar": "\u0627\u0644\u0646\u062c\u0627\u063a", "name:en": "Ilinjagh", "place": "village"}}, {"type": "node", "id": 2488259195, "lat": 35.8638668, "lon": 44.0704456, "tags": {"admin_level": "9", "name": "\u0626\u06c6\u0645\u06d5\u0631 \u0645\u0627\u0645\u06a9\u06d5", "name:ar": "\u0623\u0648\u0645\u064a\u0631 \u0645\u0627\u0645\u0643\u0629", "name:de": "Awmir Mamakah", "name:en": "Awmir Mamaka", "name:fr": "Awmir Mamakah", "place": "village"}}, {"type": "node", "id": 2488259202, "lat": 35.9159142, "lon": 44.1977411, "tags": {"alt_name": "\u0623\u0632\u064a\u0627\u0646\u0629", "int_name": "Azyana, Azy\u0101na, Azy\u0101nah, \u0627\u0632\u064a\u0627\u0646\u0629, Azyana, Azyana, Azyanah, \u0627\u0632\u064a\u0627\u0646\u0629", "name": "\u0626\u06d5\u0632\u06cc\u0627\u0646\u06d5", "name:ar": "\u0623\u0632\u064a\u0627\u0646\u0629", "name:ar1": "\u0623\u0632\u064a\u0627\u0646\u0629", "name:de": "Azyana", "name:en": "Azyana", "name:fr": "Azyana", "place": "village"}}, {"type": "node", "id": 2488259213, "lat": 35.9840385, "lon": 44.3587983, "tags": {"name": "\u0628\u06d5\u0644\u06d5\u0628\u0627\u0646", "name:en": "Balaban", "place": "village"}}, {"type": "node", "id": 2488259214, "lat": 36.019088, "lon": 44.111058, "tags": {"name": "\u067e\u0627\u06b5\u0627\u0646\u06cc", "place": "village"}}, {"type": "node", "id": 2488259216, "lat": 35.8916555, "lon": 44.2642256, "tags": {"name": "\u067e\u06d5\u06b5\u06a9\u0627\u0646\u06d5", "name:ar": "\u0628\u0644\u0643\u0627\u0646\u0629", "name:ar1": "\u0628\u0644\u0643\u0627\u0646\u0629", "name:de": "Balkanah", "name:en": "Balkanah", "name:fr": "Balkanah", "place": "village"}}, {"type": "node", "id": 2488259219, "lat": 35.949464, "lon": 44.3257001, "tags": {"name": "\u0628\u0627\u0646\u06d5 \u0645\u06c6\u0631\u062f", "place": "village", "population": ","}}, {"type": "node", "id": 2488259313, "lat": 35.8920558, "lon": 44.328127, "tags": {"name": "\u0628\u06d5\u0631\u062f\u06d5\u0633\u067e\u06cc", "name:ar": "\u0628\u0631\u062f\u0633\u0628\u064a", "name:ckb": "\u0628\u06d5\u0631\u062f\u06d5\u0633\u067e\u06cc", "name:en": "Bardaspi", "name:ku": "Berdesp\u00ee", "place": "village", "wikipedia": "ckb:\u0628\u06d5\u0631\u062f\u06d5\u0633\u067e\u06cc\u060c \u06a9\u06c6\u06cc\u06d5"}}, {"type": "node", "id": 2488259316, "lat": 36.004728, "lon": 44.3533535, "tags": {"name": "\u0628\u06d5\u0631\u062f\u0628\u0695", "name:ar": "\u0628\u0631\u062f\u0628\u0631", "name:ckb": "\u0628\u06d5\u0631\u062f\u0628\u0695", "name:en": "Bardbr", "name:ku": "Berdbir", "place": "village", "wikipedia": "ckb:\u0628\u06d5\u0631\u062f\u0628\u0695"}}, {"type": "node", "id": 2488259416, "lat": 35.9168679, "lon": 44.2386986, "tags": {"alt_name": "\u062c\u0627\u0644\u0629 \u0643\u0631\u062f\u0644\u0629", "int_name": "Chala Girdala, J\u0101lat Kardalah, \u062c\u0627\u0644\u0629 \u0643\u0631\u062f\u0644\u0629, Chala Girdala, Jalat Kardalah, \u062c\u0627\u0644\u0629 \u0643\u0631\u062f\u0644\u0629", "name": "\u0686\u0627\u06b5\u06d5\u06af\u0631\u062f\u06d5\u06b5\u06d5", "name:ar": "\u062c\u0627\u0644\u0629 \u0643\u0631\u062f\u0644\u0629", "name:ar1": "\u062c\u0627\u0644\u0629 \u0643\u0631\u062f\u0644\u0629", "name:de": "Chala Girdala", "name:en": "Chala Girdala", "name:fr": "Chala Girdala", "place": "village"}}, {"type": "node", "id": 2488259481, "lat": 35.984554, "lon": 44.074056, "tags": {"alt_name": "\u062c\u064a\u0644\u0629 \u0628\u0647\u0634\u0629", "int_name": "Ch\u0113labasha, J\u012bl\u0101 B\u0101sh\u0101, Jila Psha, J\u012blah Bahshah, \u062c\u064a\u0644\u0629 \u0628\u0647\u0634\u0629, Chelabasha, Jila Basha, \u0686\u06ce\u0631\u06d5\u0628\u06d5\u0634\u06d5", "is_in:city": "\u0647\u06d5\u0648\u0644\u06ce\u0631", "name": "\u0686\u06ce\u0631\u06d5\u0628\u06d5\u0634\u06d5", "name:ar": "\u062c\u064a\u0644\u0629 \u0628\u0647\u0634\u0629", "name:de": "Chelabasha", "name:en": "Chelabasha", "name:fr": "Chelabasha", "place": "village"}}, {"type": "node", "id": 2488259483, "lat": 35.9192995, "lon": 44.2812654, "tags": {"name": "\u062c\u0644\u0628\u06d5\u0633\u06d5\u0631", "name:ar": "\u062c\u0644\u0628\u0633\u0631", "name:ckb": "\u062c\u0644\u0628\u06d5\u0633\u06d5\u0631", "name:en": "Jlbasar", "name:ku": "Cilbeser", "place": "village", "wikipedia": "ckb:\u062c\u0644\u0628\u06d5\u0633\u06d5\u0631"}}, {"type": "node", "id": 2488259506, "lat": 35.9419807, "lon": 44.0727939, "tags": {"name": "\u062f\u06c6\u0631\u06d5\u0628\u06d5\u06a9\u0631\u06d5", "name:ckb": "\u06af\u0648\u0646\u062f\u06cc \u062f\u06c6\u0631\u06d5\u0628\u06d5\u06a9\u0631\u06d5", "name:en": "Dora Bakra", "place": "village"}}, {"type": "node", "id": 2488259527, "lat": 35.9821156, "lon": 44.1839551, "tags": {"name": "\u062f\u0648\u0648\u0634\u06cc\u0648\u0627\u0646", "name:ar": "\u062f\u0648\u0634\u064a\u0648\u0627\u0646", "name:ckb": "\u062f\u0648\u0648\u0634\u06cc\u0648\u0627\u0646", "name:en": "Dushiwan", "name:ku": "D\u00fb\u015f\u00eewan", "place": "village"}}, {"type": "node", "id": 2488259622, "lat": 36.0081284, "lon": 44.0583819, "tags": {"name": "\u06af\u0631\u062f\u0645\u06d5\u0644\u0627", "name:ar": "\u0643\u0631\u062f\u0645\u0644\u0627", "name:ckb": "\u06af\u0631\u062f\u0645\u06d5\u0644\u0627", "name:en": "Grdmala", "name:ku": "Girdmela", "place": "village"}}, {"type": "node", "id": 2488259907, "lat": 36.010591, "lon": 44.18024, "tags": {"alt_name": "\u0643\u0627\u0646\u064a \u0628\u0631\u0632\u0629", "int_name": "K\u0101n\u012b Baraza, \u06a9\u0627\u0646\u06cc \u0628\u0631\u0627\u0632\u0629, Kani Baraza, \u06a9\u0627\u0646\u06cc \u0628\u06d5\u0631\u0627\u0632\u06d5", "name": "\u06a9\u0627\u0646\u06cc \u0628\u06d5\u0631\u0627\u0632\u06d5", "name:ar": "\u06a9\u0627\u0646\u06cc \u0628\u0631\u0627\u0632\u0629", "name:ckb": "\u06a9\u0627\u0646\u06cc \u0628\u06d5\u0631\u0627\u0632\u06d5", "name:de": "Kani Baraza", "name:en": "Kani Baraza", "name:fr": "Kani Baraza", "place": "village"}}, {"type": "node", "id": 2488259926, "lat": 36.0628605, "lon": 44.2919482, "tags": {"alt_name": "\u0643\u0627\u0646\u064a \u0633\u064a\u0633\u0643\u0627", "int_name": "K\u0101n\u012b S\u012bsk\u0101, Kany Soska, \u0643\u0627\u0646\u064a \u0633\u064a\u0633\u0643\u0627, Kani Siska, Kany Soska, \u0643\u0627\u0646\u064a \u0633\u064a\u0633\u0643\u0627", "name": "\u06a9\u0627\u0646\u06cc \u0633\u0648\u0633\u06a9\u06d5", "name:ar": "\u0643\u0627\u0646\u064a \u0633\u064a\u0633\u0643\u0627", "name:ar1": "\u0643\u0627\u0646\u064a \u0633\u064a\u0633\u0643\u0627", "name:de": "Kani Siska", "name:en": "Kani Siska", "name:fr": "Kani Siska", "place": "village"}}, {"type": "node", "id": 2488259933, "lat": 35.8840351, "lon": 44.1446544, "tags": {"addr:city": "\u0647\u06d5\u0648\u0644\u06ce\u0631", "addr:country": "IQ", "addr:state": "\u0645\u062d\u0627\u0641\u0638\u0629 \u0623\u0631\u0628\u064a\u0644", "alt_name": "\u0643\u0631\u062f\u0629 \u0633\u0648\u0631", "int_name": "Gardans\u016br, Gurdahs\u016br, \u0643\u0631\u062f\u0629 \u0633\u0648\u0631, Gardansur, Gurdahsur, \u06af\u0631\u062f\u06d5\u0633\u06c6\u0631", "int_name_1": "\u06af\u0631\u062f\u06d5\u0633\u06c6\u0631", "name": "\u06af\u0631\u062f\u06d5\u0633\u06c6\u0631", "name:ar": "\u0643\u0631\u062f\u0629 \u0633\u0648\u0631", "name:ckb": "\u06af\u0631\u062f\u06d5\u0633\u06c6\u0631", "name:de": "Grda sor", "name:en": "Gardansur", "name:fr": "Gardansur", "official_name": "\u06af\u0631\u062f\u06d5\u0633\u06c6\u0631", "place": "village"}}, {"type": "node", "id": 2488259934, "lat": 35.995938, "lon": 44.11031, "tags": {"name": "\u06a9\u06d5\u0631\u062f\u0632", "name:ar": "\u0643\u0631\u062f\u0632", "name:ckb": "\u06a9\u06d5\u0631\u062f\u0632", "name:en": "Kardz", "name:ku": "Kerdiz", "place": "village"}}, {"type": "node", "id": 2488259938, "lat": 35.9901659, "lon": 44.096706, "tags": {"name": "\u06a9\u06d5\u0631\u0632\u06c6\u0631", "name:ar": "\u0643\u0631\u0632\u0648\u0631", "name:ckb": "\u06a9\u06d5\u0631\u0632\u06c6\u0631", "name:en": "Karzor", "name:ku": "Kerzor", "place": "village"}}, {"type": "node", "id": 2488259975, "lat": 35.8421236, "lon": 44.2532674, "tags": {"alt_name": "\u062e\u0648\u0631\u062e\u0648\u0631", "int_name": "Khurkhur, Xurxur, \u062e\u0648\u0631\u062e\u0648\u0631, \u062e\u0648\u0695\u062e\u0648\u0695", "name": "\u062e\u0648\u0695\u062e\u0648\u0695", "name:ar": "\u062e\u0648\u0631\u062e\u0648\u0631", "name:ckb": "\u062e\u0648\u0695\u062e\u0648\u0695", "name:de": "Xurxur", "name:en": "Xurxur", "name:fr": "Xurxur", "place": "village"}}, {"type": "node", "id": 2488260000, "lat": 35.9763462, "lon": 44.1217696, "tags": {"alt_name": "\u0643\u0648\u0645\u0629 \u0643\u0648\u0631\u0648\u064a", "name": "\u06af\u06c6\u0645\u06d5\u06af\u0695\u0648", "name:ckb": "\u06af\u0648\u0646\u062f\u06cc \u06af\u06c6\u0645\u06d5\u06af\u0695\u0648", "place": "village"}}, {"type": "node", "id": 2488260016, "lat": 35.9705875, "lon": 44.2127074, "tags": {"alt_name": "\u0644\u0648\u0631\u0643\u0629", "int_name": "Lorka, L\u016brka, L\u016brkah, \u0644\u0648\u0631\u0643\u0629, Lorka, Lurka, Lurkah, \u0644\u0648\u0631\u0643\u0629", "name": "\u0644\u06c6\u0631\u06a9\u06d5", "name:ar": "\u0644\u0648\u0631\u0643\u0629", "name:ar1": "\u0644\u0648\u0631\u0643\u0629", "name:de": "Lorka", "name:en": "Lorka", "name:fr": "Lorka", "place": "village"}}, {"type": "node", "id": 2488260056, "lat": 35.9515776, "lon": 44.3815768, "tags": {"name": "\u0645\u06ce\u0631\u06af\u06d5", "name:ar": "\u0645\u064a\u0631\u0643\u0629", "name:ckb": "\u0645\u06ce\u0631\u06af\u06d5", "name:en": "Merga", "name:ku": "M\u00earge", "place": "village", "wikipedia": "ckb:\u0645\u06ce\u0631\u06af\u06d5\u060c \u06a9\u06c6\u06cc\u06d5"}}, {"type": "node", "id": 2488260069, "lat": 36.0528141, "lon": 44.100675, "tags": {"alt_name": "\u0645\u064a\u0631\u0632\u0627\u063a\u0627", "int_name": "Mirza Agha, M\u012brz\u0101 \u0100gh\u0101, M\u012brz\u0101gh\u0101, \u0645\u064a\u0631\u0632\u0627 \u0627\u063a\u0627, \u0645\u064a\u0631\u0632\u0627\u063a\u0627, Mirza Agha, Mirza Agha, Mirzagha, \u0645\u064a\u0631\u0632\u0627 \u0627\u063a\u0627, \u0645\u064a\u0631\u0632\u0627\u063a\u0627", "name": "\u0645\u064a\u0631\u0632\u0627\u063a\u0627", "name:ar": "\u0645\u064a\u0631\u0632\u0627\u063a\u0627", "name:ar1": "\u0645\u064a\u0631\u0632\u0627\u063a\u0627", "name:de": "Mirza Agha", "name:en": "Mirza Agha", "name:fr": "Mirza Agha", "place": "village"}}, {"type": "node", "id": 2488260071, "lat": 36.0488181, "lon": 44.0616961, "tags": {"name": "\u0645\u0648\u0631\u062a\u06a9\u06d5\u06cc \u06af\u06d5\u0648\u0631\u06d5", "name:ar": "\u0645\u0648\u0631\u062a\u0643\u0629 \u0627\u0644\u0643\u0628\u064a\u0631", "name:ckb": "\u0645\u0648\u0631\u062a\u06a9\u06d5\u06cc \u06af\u06d5\u0648\u0631\u06d5", "name:en": "Murtkay Gaura", "place": "village"}}, {"type": "node", "id": 2488260072, "lat": 36.038061, "lon": 44.031988, "tags": {"name": "\u0645\u0648\u0631\u062a\u06a9\u06d5\u06cc \u06af\u0686\u06a9\u06d5", "name:ckb": "\u06af\u0648\u0646\u062f\u06cc \u0645\u0648\u0631\u062a\u06a9\u06d5\u06cc \u06af\u0686\u06a9\u06d5", "place": "village"}}, {"type": "node", "id": 2488260136, "lat": 35.851581, "lon": 44.221954, "tags": {"alt_name": "\u0642\u0634\u0642\u0629", "int_name": "Qashga, Qashqa, Q\u0101shqa, \u0642\u0634\u0642\u0629, \u0642\u06d5\u0634\u0642\u06d5", "name": "\u0642\u06d5\u0634\u0642\u06d5", "name:ar": "\u0642\u0634\u0642\u0629", "name:ckb": "\u0642\u06d5\u0634\u0642\u06d5", "name:de": "Qashga", "name:en": "Qashga", "name:fr": "Qashga", "name:ku": "\u0642\u06d5\u0634\u06a9\u06d5", "place": "village"}}, {"type": "node", "id": 2488260144, "lat": 36.0065085, "lon": 44.0341301, "tags": {"alt_name": "\u0642\u0648\u0634\u062a\u06d5\u067e\u06d5", "alt_name:ar": "\u0642\u0648\u0634 \u0634\u0628\u0647", "capital": "7", "name": "\u0642\u0648\u0634\u062a\u06d5\u067e\u06d5", "name:ar": "\u0642\u0648\u0634\u062a\u0628\u0629", "name:ckb": "\u0642\u0648\u0634\u062a\u06d5\u067e\u06d5", "name:de": "Qushtapa", "name:en": "Qushtapa", "name:fr": "Qushtapa", "name:ku": "Qu\u015ftepe", "place": "town", "wikidata": "Q12247265"}}, {"type": "node", "id": 2488260145, "lat": 36.006207, "lon": 44.008052, "tags": {"name": "\u06af\u0648\u0646\u062f\u06cc \u0642\u0648\u0634\u062a\u06d5\u067e\u06d5", "name:ar": "\u0642\u0648\u0634 \u062a\u0628\u0629", "name:ckb": "\u06af\u0648\u0646\u062f\u06cc \u0642\u0648\u0634\u062a\u06d5\u067e\u06d5", "name:de": "Qush Tabbah", "name:en": "Qushtapa", "name:fr": "Qush Tabbah", "place": "village"}}, {"type": "node", "id": 2488260149, "lat": 36.0523414, "lon": 44.2812233, "tags": {"alt_name": "\u0631\u0633\u0648\u0644 \u0628\u0633\u0643\u0648\u0644", "int_name": "Rasol Bskol, Ras\u016bl Bisk\u014dl, Ras\u016bl Bisk\u016bl, Raz\u016bl Bisk\u014dl, \u0631\u0633\u0648\u0644 \u0628\u0633\u0643\u0648\u0644, Rasol Bskol, Rasul Biskol, Rasul Biskul, Razul Biskol, \u0631\u0633\u0648\u0644 \u0628\u0633\u0643\u0648\u0644", "name": "\u0695\u06d5\u0633\u0648\u0644 \u0628\u0633\u06a9\u06c6\u06b5", "name:ar": "\u0631\u0633\u0648\u0644 \u0628\u0633\u0643\u0648\u0644", "name:ar1": "\u0631\u0633\u0648\u0644 \u0628\u0633\u0643\u0648\u0644", "name:de": "Rasol Bskol", "name:en": "Rasol Bskol", "name:fr": "Rasol Bskol", "name:ku": "\u0642\u0627\u062f\u0631 \u0645\u0633\u062a\u06d5 \u0639\u06cc\u0634\u06ce \u0640 \u0645\u06d5\u0646\u062a\u06a9", "place": "village", "tourism": "artwork"}}, {"type": "node", "id": 2488260192, "lat": 36.048238, "lon": 44.117216, "tags": {"alt_name": "\u0633\u0627\u0628\u0644\u0627\u063a", "int_name": "Sablagh, S\u0101bl\u0101gh, \u0633\u0627\u0628\u0644\u0627\u063a, Sablagh, Sablagh, \u0633\u0627\u0628\u0644\u0627\u063a", "name": "\u0633\u0627\u0628\u0644\u0627\u063a", "name:ar": "\u0633\u0627\u0628\u0644\u0627\u063a", "name:ar1": "\u0633\u0627\u0628\u0644\u0627\u063a", "name:de": "Sablagh", "name:en": "Sablagh", "name:fr": "Sablagh", "place": "hamlet"}}, {"type": "node", "id": 2488260195, "lat": 35.8774092, "lon": 44.4434187, "tags": {"name": "\u0633\u06ce\u06af\u0631\u062f\u06a9\u0627\u0646", "name:ar": "\u0633\u064a\u0643\u0631\u062f\u0643\u0627\u0646", "name:ckb": "\u0633\u06ce\u06af\u0631\u062f\u06a9\u0627\u0646", "name:en": "Segrdkan", "name:ku": "S\u00eagirdkan", "place": "town", "wikidata": "Q22935708", "wikipedia": "ckb:\u0633\u06ce\u06af\u0631\u062f\u06a9\u0627\u0646"}}, {"type": "node", "id": 2488260206, "lat": 35.984004, "lon": 44.435495, "tags": {"alt_name": "\u0633\u0645\u0627\u0642\u0629", "int_name": "Samaqa, Smaqa, Sum\u0101qah, \u0633\u0645\u0627\u0642\u0629, Samaqa, Smaqa, Sumaqah, \u0633\u0645\u0627\u0642\u0629", "name": "\u0633\u0645\u0627\u0642\u06d5", "name:ar": "\u0633\u0645\u0627\u0642\u0629", "name:de": "Samaqa", "name:en": "Samaqa", "name:fr": "Samaqa", "name:ku": "\u0633\u0645\u0627\u0642\u06d5", "place": "village"}}, {"type": "node", "id": 2488260209, "lat": 36.0358138, "lon": 44.0986173, "tags": {"name": "\u0633\u06d5\u0631\u062f\u06d5\u0634\u062a", "name:ar": "\u0633\u0631\u062f\u0634\u062a", "name:de": "Sardasht", "name:en": "Sardasht", "name:fr": "Sardasht", "place": "village"}}, {"type": "node", "id": 2488260228, "lat": 35.8936452, "lon": 44.0957283, "tags": {"name": "\u0633\u06ce \u0646\u0627\u0631\u06d5", "name:en": "Sennara", "place": "village"}}, {"type": "node", "id": 2488260329, "lat": 35.9489697, "lon": 44.221235, "tags": {"name": "\u0633\u06c6\u0641\u06cc \u0626\u06cc\u0628\u0631\u0627\u0647\u06cc\u0645", "name:ar": "\u0635\u0648\u0641\u064a \u0625\u0628\u0631\u0627\u0647\u064a\u0645", "name:ar1": "\u0635\u0648\u0641\u064a \u0625\u0628\u0631\u0627\u0647\u064a\u0645", "name:de": "Sofy Ibrahim", "name:en": "Sofy Ibrahim", "name:fr": "Sofy Ibrahim", "place": "village"}}, {"type": "node", "id": 2488260368, "lat": 35.8552564, "lon": 44.1078114, "tags": {"alt_name": "\u0623\u0648\u0645\u0631\u0622\u0648\u0627", "int_name": "Umar\u0101wah, \u016amr\u0101w\u0101, Awmar Aw\u0101, \u0623\u0648\u0645\u0631\u0622\u0648\u0627, Umarawah, Umrawa, Awmar Awa, \u0623\u0648\u0645\u0631\u0622\u0648\u0627", "name": "\u0626\u06c6\u0645\u06d5\u0631\u0627\u0648\u06d5", "name:ar": "\u0623\u0648\u0645\u0631\u0622\u0648\u0627", "name:ar1": "\u0623\u0648\u0645\u0631\u0622\u0648\u0627", "name:en": "Umarawah", "name:ku": "\u0626\u06c6\u0645\u06d5\u0631\u0627\u0648\u06d5", "place": "village"}}, {"type": "node", "id": 2488265156, "lat": 35.670217, "lon": 44.4960416, "tags": {"name": "\u067e\u0627\u067e\u06cc\u0644\u0627\u0646", "name:ar": "\u0628\u0627\u0628\u064a\u0644\u0627\u0646", "name:ckb": "\u067e\u0627\u067e\u06cc\u0644\u0627\u0646", "name:en": "Papilan", "name:ku": "Pap\u00eelan", "place": "village"}}, {"type": "node", "id": 2488265349, "lat": 35.7122993, "lon": 44.3216576, "tags": {"name": "\u0645\u06cc\u0631\u0626\u06d5\u0633\u0641\u06d5\u0647\u0627\u0646\u06cc \u06af\u0686\u06a9\u06d5", "name:ckb": "\u0645\u06cc\u0631 \u0627\u0635\u0641\u0647\u0627\u0646 \u0627\u0644\u0635\u063a\u06cc\u0631", "name:en": "Little Mir Asfahan", "place": "village"}}, {"type": "node", "id": 2488265361, "lat": 35.8134879, "lon": 44.1952342, "tags": {"name": "\u0686\u06cc\u0627 \u0686\u06d5\u0631\u0645\u0648\u06a9\u06cc \u0628\u0686\u0648\u0648\u06a9", "name:ar": "\u062c\u06cc\u0627\u062c\u0631\u0645\u06a9 \u0627\u0644\u0635\u063a\u06cc\u0631", "name:ckb": "\u0686\u06cc\u0627 \u0686\u06d5\u0631\u0645\u06c6\u06a9", "name:en": "Little Chya Charmok", "name:ku": "\u00c7iya \u00c7ermok", "place": "village"}}, {"type": "node", "id": 2488265372, "lat": 35.830664, "lon": 44.2401587, "tags": {"name": "\u062f\u06d5\u0631\u0645\u0627\u0646\u0627\u0648\u06cc \u06af\u06d5\u0648\u0631\u06d5", "name:ar": "\u062f\u064e\u0631\u0645\u0627\u0646\u0627\u0648 \u0627\u0644\u0643\u0628\u0631\u0649", "name:ckb": "\u062f\u06d5\u0631\u0645\u0627\u0646\u0627\u0648\u06cc \u06af\u06d5\u0648\u0631\u06d5", "name:de": "Darmanawi Gawra", "name:en": "Big Darmanaw", "name:fr": "Darmani Gawra", "name:ku": "Dermanawa Mezin", "place": "village"}}, {"type": "node", "id": 2488265379, "lat": 35.8098153, "lon": 44.176968, "tags": {"name": "\u0686\u06c6\u0645\u06d5\u0632\u06d5\u0631\u062f\u06d5\u06b5\u06d5\u06cc \u0628\u0686\u0648\u0648\u06a9", "name:ar": "\u062c\u0648\u0645\u0629\u0632\u0631\u062f\u0644\u0629\u064a \u0627\u0644\u0635\u063a\u06cc\u0631", "name:en": "Little Chomazardala", "place": "village"}}, {"type": "node", "id": 2488265415, "lat": 35.8354733, "lon": 44.229445, "tags": {"alt_name": "\u062f\u06d5\u0631\u0645\u0627\u0646\u0627\u0648\u06cc \u06af\u0686\u06a9\u06d5", "name": "\u062f\u06d5\u0631\u0645\u0627\u0646\u0627\u0648\u06cc \u0628\u0686\u0648\u0648\u06a9", "name:ar": "\u062f\u064e\u0631\u0645\u0627\u0646\u0627\u0648 \u0627\u0644\u0635\u063a\u0631\u0649", "name:ckb": "\u062f\u06d5\u0631\u0645\u0627\u0646\u0627\u0648\u06cc \u0628\u0686\u0648\u0648\u06a9", "name:de": "Darmanawi Gchka", "name:en": "Little Darmanaw", "name:fr": "Darmanawi Gchka", "name:ku": "Dermanawa Pi\u00e7\u00fbk", "place": "village"}}, {"type": "node", "id": 2488265416, "lat": 35.7378432, "lon": 44.4687677, "tags": {"name": "\u0695\u06ce\u062f\u0627\u0631", "name:ar": "\u0631\u064a\u062f\u0627\u0631", "name:ckb": "\u0695\u06ce\u062f\u0627\u0631", "name:de": "Redar", "name:en": "Redar", "name:fr": "Redar", "name:ku": "R\u00eadar", "place": "village"}}, {"type": "node", "id": 2488265469, "lat": 35.7001163, "lon": 44.1630027, "tags": {"name": "\u06a9\u062a\u06a9\u06d5\u06cc \u06a9\u06c6\u0646", "name:ar": "\u0643\u062a\u0643\u0629 \u0627\u0644\u0642\u062f\u06cc\u0645", "name:ckb": "\u06a9\u062a\u06a9\u06d5", "name:en": "Old Ktka", "name:ku": "Kitke", "name:tr": "Ktka", "place": "village"}}, {"type": "node", "id": 2488265488, "lat": 35.696389, "lon": 44.479167, "tags": {"name": "\u062c\u0627\u0646\u0642\u0632\u06cc \u0633\u06d5\u0631\u0648\u0648", "name:ckb": "\u062c\u0627\u0646\u0642\u0632 \u0639\u0644\u06cc\u0627", "name:en": "Pak", "name:ku": "Pak", "place": "village"}}, {"type": "node", "id": 2488265491, "lat": 35.6997726, "lon": 44.1972312, "tags": {"name": "\u06af\u0648\u0631\u0632\u06d5\u06cc\u06cc", "name:ar": "\u06a9\u0631\u0632\u06cc\u064a", "name:ckb": "\u06af\u0648\u0631\u0632\u06d5\u06cc\u06cc", "name:en": "Gurzayi", "name:ku": "Gurzey\u00ee", "place": "village"}}, {"type": "node", "id": 2488265498, "lat": 35.7200879, "lon": 44.5035936, "tags": {"name": "\u062d\u0627\u062c\u06cc \u0628\u06d5\u06cc\u062e\u0627\u0646\u06cc \u0633\u06d5\u0631\u0648\u0648", "name:ar": "\u062d\u0627\u062c\u064a \u0628\u064a\u062e\u0627\u0646", "name:ckb": "\u062d\u0627\u062c\u06cc \u0628\u06d5\u06cc\u062e\u0627\u0646", "name:en": "Haji Baykhan", "name:ku": "Hac\u00ee Beyxan", "place": "village"}}, {"type": "node", "id": 2488265812, "lat": 35.7373698, "lon": 44.4877182, "tags": {"alt_name": "\u0646\u0627\u062d\u064a\u0629 \u0634\u0648\u0627\u0646", "alt_name_1": "Nahyat Shwan", "capital": "7", "int_name": "Markaz N\u0101\u1e29iyah Shuw\u0101n, \u0645\u0631\u0643\u0632 \u0646\u0627\u062d\u064a\u0629 \u0634\u0648\u0627\u0646, Markaz Nahiyah Shuwan, \u0645\u0631\u0643\u0632 \u0646\u0627\u062d\u064a\u0629 \u0634\u0648\u0627\u0646", "name": "\u0634\u0648\u0627\u0646", "name:ar": "\u0634\u0648\u0627\u0646", "name:ckb": "\u0634\u0648\u0627\u0646", "name:de": "Shwan", "name:en": "Shwan", "name:fr": "Shuwan", "name:ku": "\u015eiwan", "place": "town"}}, {"type": "node", "id": 2488265813, "lat": 35.827662, "lon": 44.5118049, "tags": {"int_name": "Marz\u012bkha al Uly\u0101, Marzikhah, Marz\u012bkhat al Uly\u0101, Mazikha Uliya, Mazikhah Uly\u0101, \u0645\u0631\u0632\u064a\u062e\u0629 \u0627\u0644\u0639\u0644\u064a\u0627, Marzikha al Ulya, Marzikhah, Marzikhat al Ulya, Mazikha Uliya, Mazikhah Ulya, \u0645\u0631\u0632\u064a\u062e\u0629 \u0627\u0644\u0639\u0644\u064a\u0627", "name": "\u0645\u06d5\u0631\u0632\u06cc\u062e\u06d5\u06cc \u0633\u06d5\u0631\u0648\u0648", "name:ar": "\u0645\u0631\u0632\u064a\u062e\u0629 \u0627\u0644\u0639\u0644\u064a\u0627", "name:ckb": "\u0645\u06d5\u0631\u0632\u06cc\u062e\u06d5\u06cc \u0633\u06d5\u0631\u0648\u0648", "name:de": "Marzikha al Ulya", "name:en": "Upper Marzikha", "name:fr": "Marzikha al Ulya", "name:ku": "Merz\u00eexeya Jor\u00een", "place": "village"}}, {"type": "node", "id": 2488265814, "lat": 35.8324591, "lon": 44.4858914, "tags": {"name": "\u0645\u06d5\u0631\u0632\u06cc\u062e\u06d5", "name:ckb": "\u0645\u06d5\u0631\u0632\u06cc\u062e\u06d5", "name:en": "Marzikha", "name:ku": "Merz\u00eexe", "place": "village"}}, {"type": "node", "id": 2488265827, "lat": 35.646151, "lon": 44.4451515, "tags": {"name": "\u0642\u0627\u062f\u0631 \u0639\u06d5\u0644\u06cc", "name:ar": "\u0642\u0627\u062f\u0631 \u0639\u0644\u064a", "name:ckb": "\u0642\u0627\u062f\u0631 \u0639\u06d5\u0644\u06cc", "name:en": "Qadr Ali", "name:ku": "Qadir 'El\u00ee", "place": "village"}}, {"type": "node", "id": 2488265829, "lat": 35.738078, "lon": 44.438867, "tags": {"name": "\u0642\u0648\u0644\u06cc\u0628\u06d5\u06af", "name:ar": "\u0642\u0648\u0644\u064a\u0628\u0643", "name:ckb": "\u0642\u0648\u0644\u06cc\u0628\u06d5\u06af", "name:en": "Qulibag", "name:ku": "Qul\u00eebeg", "place": "village"}}, {"type": "node", "id": 2488265908, "lat": 35.7961864, "lon": 44.180536, "tags": {"alt_name": "\u0686\u06c6\u0645\u06d5\u0632\u06d5\u0631\u062f\u06d5\u0631\u06d5\u06cc \u06af\u0686\u06a9\u06d5", "name": "\u0686\u06cc\u0627 \u062c\u06d5\u0631\u0645\u0648\u06a9\u06cc \u06af\u06d5\u0648\u0631\u06d5", "name:ar": "\u062c\u06cc\u0627\u062c\u0631\u0645\u06a9 \u0627\u0644\u06a9\u0628\u06cc\u0631", "name:ckb": "\u0686\u06cc\u0627 \u062c\u06d5\u0631\u0645\u0648\u06a9\u06cc \u06af\u06d5\u0648\u0631\u06d5", "name:de": "Great Chyacharmook", "name:en": "Great Chyacharmook", "name:fr": "Great Chyacharmook", "place": "village"}}, {"type": "node", "id": 2488265931, "lat": 35.830869, "lon": 44.320485, "tags": {"name": "\u0633\u0627\u0631\u062a\u06a9", "name:ar": "\u0633\u0627\u0631\u062a\u0643", "name:ckb": "\u0633\u0627\u0631\u062a\u06a9", "name:en": "Sartk", "name:ku": "Sartik", "place": "village", "wikipedia": "ckb:\u0633\u0627\u0631\u062a\u06a9"}}, {"type": "node", "id": 2488265963, "lat": 36.040324, "lon": 44.514069, "tags": {"alt_name": "\u0634\u064a\u0648\u0627\u0634\u0648\u0643 \u0642\u0644\u0645", "int_name": "Shiwashawk, Shiwashawk e Qalam, Shiw\u0101sh\u016bk \u012b Qalam, Sh\u012bw\u0101sh\u016bk Qalam, \u0634\u064a\u0648\u0627\u0634\u0648\u0643 \u0642\u0644\u0645, Shiwashuk i Qalam, Shiwashuk Qalam, \u0634\u06cc\u0648\u0627\u0634\u06c6\u06a9", "name": "\u0634\u06cc\u0648\u0627\u0634\u06c6\u06a9\u06cc \u0633\u06d5\u0631\u06ce", "name:ar": "\u0634\u064a\u0648\u0627\u0634\u0648\u0643 \u0642\u0644\u0645", "name:ckb": "\u0634\u06cc\u0648\u0627\u0634\u06c6\u06a9", "name:de": "Shiwashawk", "name:en": "Shiwashawk", "name:fr": "Shiwashawk", "place": "village"}}, {"type": "node", "id": 2488265977, "lat": 35.6920078, "lon": 44.4041983, "tags": {"name": "\u062a\u06c6\u0631\u0627\u063a", "name:ar": "\u062a\u0648\u0631\u0627\u063a", "name:ckb": "\u062a\u06c6\u0631\u0627\u063a", "name:en": "Toragh", "name:ku": "Torax", "place": "village"}}, {"type": "node", "id": 2488269356, "lat": 35.748415, "lon": 44.516969, "tags": {"name": "\u0633\u0645\u0627\u06cc\u0644 \u0628\u06d5\u06af\u06cc", "name:ar": "\u0633\u0645\u0627\u064a\u0644 \u0628\u0643\u064a", "name:ckb": "\u0633\u0645\u0627\u06cc\u0644 \u0628\u06d5\u06af\u06cc", "name:en": "Smayel Baggi", "name:ku": "Simayil Beg\u00ee", "place": "village"}}, {"type": "node", "id": 2488269412, "lat": 35.668887, "lon": 44.519186, "tags": {"name": "\u062c\u0648\u0644\u062d\u0627\u0646", "name:ar": "\u062c\u0648\u0644\u062d\u0627\u0646", "name:ckb": "\u062c\u0648\u0644\u062d\u0627\u0646", "name:en": "Julhaan", "name:ku": "Culhan", "place": "village"}}, {"type": "node", "id": 2488269455, "lat": 35.8739032, "lon": 44.521698, "tags": {"name": "\u06a9\u0627\u0646\u06cc \u0644\u06d5\u0644\u06d5", "name:ar": "\u0643\u0627\u0646\u064a \u0644\u064e\u0644\u0629", "name:ckb": "\u06a9\u0627\u0646\u06cc \u0644\u06d5\u0644\u06d5", "name:de": "Kani Lala", "name:en": "Kani Lala", "name:fr": "Kani Lala", "name:ku": "Kan\u00ee Lele", "place": "village"}}, {"type": "node", "id": 2488269468, "lat": 35.8362841, "lon": 44.5299166, "tags": {"name": "\u06a9\u0627\u0646\u06cc \u0695\u06d5\u0634", "name:ckb": "\u06a9\u0627\u0646\u06cc \u0695\u06d5\u0634", "name:de": "Kani Rash", "name:en": "Kani Rash", "name:fr": "Kani Rash", "name:ku": "Kan\u00ee Re\u015f", "place": "village"}}, {"type": "node", "id": 2488269500, "lat": 35.7157281, "lon": 44.1344535, "tags": {"name": "\u0642\u06d5\u0631\u063a\u06d5\u062a\u0648\u0648\u06cc \u06a9\u06c6\u0646", "name:ar": "\u0642\u0631\u063a\u062a\u0648 \u0627\u0644\u0642\u062f\u064a\u0645\u0629", "name:de": "Old Qarghatoo", "name:en": "Old Qarghatoo", "name:fr": "Old Qarghatoo", "place": "village"}}, {"type": "node", "id": 2488269625, "lat": 35.7971677, "lon": 44.0998969, "tags": {"addr:city": "\u0647\u06d5\u0648\u0644\u06ce\u0631", "addr:country": "IQ", "addr:state": "\u0645\u062d\u0627\u0641\u0638\u0629 \u0623\u0631\u0628\u064a\u0644", "alt_name": "\u0645\u062e\u0634\u0648\u0645\u0629", "int_name": "Makhshuma, Makhshuma, Makhsh\u016bma,\u0645\u06d5\u062e\u0634\u0648\u0645\u06d5, \u0645\u062e\u0634\u0648\u0645\u0629, Makhshuma, Makhshuma, Makhshuma", "name": "\u0645\u06d5\u062e\u0634\u0648\u0648\u0645\u06d5", "name:ar": "\u0645\u062e\u0634\u0648\u0645\u0629", "name:ckb": "\u0645\u06d5\u062e\u0634\u0648\u0645\u06d5", "name:de": "Makhshuma", "name:en": "Makhshuma", "name:fr": "Makhshuma", "official_name": "\u0645\u06d5\u062e\u0634\u0648\u0645\u06d5", "place": "village"}}, {"type": "node", "id": 2488269724, "lat": 35.7681283, "lon": 44.5333528, "tags": {"name": "\u0646\u0627\u0695\u0648\u0648\u062c\u06d5\u06cc \u062c\u06d5\u0631\u062c\u06cc\u0633", "name:ckb": "\u0646\u0627\u0695\u0648\u0648\u062c\u06d5\u06cc \u062c\u06d5\u0631\u062c\u06cc\u0633", "name:en": "Jarjis's Naruja", "name:ku": "Narruceya Cerc\u00ees", "place": "village"}}, {"type": "node", "id": 2488269753, "lat": 35.7820792, "lon": 44.5218245, "tags": {"name": "\u0646\u06d5\u06cc\u0628\u06d5\u0633\u06d5\u0631\u06d5", "name:ar": "\u0646\u064e\u064a\u0628\u064e\u0633\u064e\u0631\u0629", "name:ckb": "\u0646\u06d5\u06cc\u0628\u06d5\u0633\u06d5\u0631\u06d5", "name:de": "Nibasiya", "name:en": "Naybasara", "name:fr": "Nibasiya", "name:ku": "Neybesere", "place": "village"}}, {"type": "node", "id": 2488269816, "lat": 35.7051122, "lon": 44.1193772, "tags": {"name": "\u0642\u06d5\u0631\u063a\u06d5\u062a\u0648\u0648\u06cc \u0646\u0648\u06ce", "name:ar": "\u0642\u0631\u063a\u062a\u0648 \u0627\u0644\u062c\u062f\u06cc\u062f", "name:de": "New Qarghatoo", "name:en": "New Qarghatoo", "name:fr": "New Qarghatoo", "place": "village"}}, {"type": "node", "id": 2488269828, "lat": 35.7494975, "lon": 44.1312331, "tags": {"alt_name": "\u0642\u064a\u0629 \u0628\u0627\u0634\u064a", "int_name": "Qayabashi", "name": "\u0642\u06d5\u06cc\u06d5\u0628\u0627\u0634\u06cc", "name:ar": "\u0642\u064a\u0629 \u0628\u0627\u0634\u064a", "name:ckb": "\u0642\u06d5\u06cc\u06d5\u0628\u0627\u0634\u06cc", "name:de": "QayaBashi", "name:en": "Qayabashi", "name:fr": "QayaBashi", "name:ku": "Qeyeba\u015f\u00ee", "place": "village"}}, {"type": "node", "id": 2488269913, "lat": 35.8257789, "lon": 44.1028399, "tags": {"alt_name": "\u0633\u06ce \u0642\u0648\u0686\u0627\u0646", "name": "\u0633\u06ce \u0642\u0648\u0686\u0627\u0646", "name:de": "Se Quchan", "name:en": "Se Quchan", "name:fr": "Se Quchan", "place": "village"}}, {"type": "node", "id": 2488269933, "lat": 35.788514, "lon": 44.116925, "tags": {"int_name": "Sherawa", "name": "\u0634\u06ce\u0631\u0627\u0648\u06d5", "name:ar": "\u0634\u06ce\u0631\u0627\u0648\u06d5", "name:de": "Sherawa", "name:en": "Sherawa", "name:fr": "Sherawa", "place": "village"}}, {"type": "node", "id": 2488283852, "lat": 35.8261017, "lon": 44.0749638, "tags": {"admin_level": "9", "alt_name": "\u0634\u064a\u062e\u0627\u0646", "name": "\u0634\u06ce\u062e\u0627\u0646\u0627\u0646", "name:ar": "\u0634\u06cc\u062e\u0627\u0646\u0627\u0646", "name:de": "Shekhanan", "name:en": "Shekhanan", "name:fr": "Shekhanan", "name:ku": "\u015e\u00eaxanan", "official_name": "\u0634\u06ce\u062e\u0627\u0646\u0627\u0646", "place": "village"}}, {"type": "node", "id": 3028741212, "lat": 36.0809522, "lon": 44.3537077}, {"type": "node", "id": 3028741213, "lat": 36.0810986, "lon": 44.3543483}, {"type": "node", "id": 3028741214, "lat": 36.0811771, "lon": 44.3543925}, {"type": "node", "id": 3028741215, "lat": 36.0811771, "lon": 44.3545737}, {"type": "node", "id": 3028741216, "lat": 36.0811129, "lon": 44.3547106}, {"type": "node", "id": 3028741217, "lat": 36.0807272, "lon": 44.354958}, {"type": "node", "id": 3028741218, "lat": 36.0803559, "lon": 44.355201}, {"type": "node", "id": 3028741219, "lat": 36.0800024, "lon": 44.3550817}, {"type": "node", "id": 3028741220, "lat": 36.0799488, "lon": 44.3547769}, {"type": "node", "id": 3028741221, "lat": 36.0802952, "lon": 44.3539684}, {"type": "node", "id": 3028741222, "lat": 36.080513, "lon": 44.3535487}, {"type": "node", "id": 3028741223, "lat": 36.0807772, "lon": 44.353584}, {"type": "node", "id": 3028741224, "lat": 36.0832577, "lon": 44.3520249}, {"type": "node", "id": 3028741225, "lat": 36.0830184, "lon": 44.3519453}, {"type": "node", "id": 3028741226, "lat": 36.0829006, "lon": 44.3513842}, {"type": "node", "id": 3028741227, "lat": 36.0825936, "lon": 44.3511457}, {"type": "node", "id": 3028741228, "lat": 36.0827471, "lon": 44.3502355}, {"type": "node", "id": 3028741229, "lat": 36.0831077, "lon": 44.3500853}, {"type": "node", "id": 3028741230, "lat": 36.0834898, "lon": 44.350209}, {"type": "node", "id": 3028741231, "lat": 36.083679, "lon": 44.3503504}, {"type": "node", "id": 3028741232, "lat": 36.0837825, "lon": 44.3506287}, {"type": "node", "id": 3028741333, "lat": 36.0838147, "lon": 44.3509513}, {"type": "node", "id": 3028741334, "lat": 36.0836004, "lon": 44.3515919}, {"type": "node", "id": 3028741335, "lat": 36.0834183, "lon": 44.3516979}, {"type": "node", "id": 3054176265, "lat": 35.9448491, "lon": 44.0180302}, {"type": "node", "id": 3054176266, "lat": 35.9451976, "lon": 44.0187886}, {"type": "node", "id": 3054176267, "lat": 35.9453035, "lon": 44.0199253}, {"type": "node", "id": 3054176268, "lat": 35.9440281, "lon": 44.0218871}, {"type": "node", "id": 3054176269, "lat": 35.9424124, "lon": 44.021851}, {"type": "node", "id": 3054176270, "lat": 35.9413521, "lon": 44.0200113}, {"type": "node", "id": 3054176271, "lat": 35.941114, "lon": 44.0185451}, {"type": "node", "id": 3054176272, "lat": 35.9414486, "lon": 44.0170648}, {"type": "node", "id": 3077354840, "lat": 35.8553723, "lon": 44.3418494}, {"type": "node", "id": 3077355491, "lat": 35.8535276, "lon": 44.3397833}, {"type": "node", "id": 3077355492, "lat": 35.8527624, "lon": 44.3406415}, {"type": "node", "id": 3077355493, "lat": 35.8519354, "lon": 44.3379182}, {"type": "node", "id": 3077355494, "lat": 35.8514222, "lon": 44.3385297}, {"type": "node", "id": 3077355495, "lat": 35.8488047, "lon": 44.3393558}, {"type": "node", "id": 3077355496, "lat": 35.8489438, "lon": 44.3417805}, {"type": "node", "id": 3077355497, "lat": 35.8526484, "lon": 44.3462223}, {"type": "node", "id": 3077355498, "lat": 35.8553963, "lon": 44.3427676}, {"type": "node", "id": 3077355499, "lat": 35.8553441, "lon": 44.340772}, {"type": "node", "id": 3077362872, "lat": 35.842667, "lon": 44.3439209}, {"type": "node", "id": 3077362873, "lat": 35.8422495, "lon": 44.3459809}, {"type": "node", "id": 3077362874, "lat": 35.8431366, "lon": 44.3462384}, {"type": "node", "id": 3077362875, "lat": 35.8433279, "lon": 44.3450367}, {"type": "node", "id": 3077362876, "lat": 35.8429435, "lon": 44.3443876}, {"type": "node", "id": 3077604453, "lat": 35.8535365, "lon": 44.4344643}, {"type": "node", "id": 3077604454, "lat": 35.8540061, "lon": 44.4376615}, {"type": "node", "id": 3077604455, "lat": 35.8556931, "lon": 44.4376615}, {"type": "node", "id": 3077604456, "lat": 35.8553452, "lon": 44.4334987}, {"type": "node", "id": 3081044050, "lat": 36.0556591, "lon": 44.1890234}, {"type": "node", "id": 3081044051, "lat": 36.0546096, "lon": 44.189474}, {"type": "node", "id": 3081044052, "lat": 36.055052, "lon": 44.1919523}, {"type": "node", "id": 3081044053, "lat": 36.0562229, "lon": 44.1912228}, {"type": "node", "id": 3081048927, "lat": 36.0382448, "lon": 44.2219502}, {"type": "node", "id": 3081048928, "lat": 36.0356768, "lon": 44.2204696}, {"type": "node", "id": 3081048929, "lat": 36.0340977, "lon": 44.224332}, {"type": "node", "id": 3081048930, "lat": 36.0351388, "lon": 44.2257696}, {"type": "node", "id": 3081048931, "lat": 36.0369955, "lon": 44.2246538}, {"type": "node", "id": 3081059310, "lat": 36.0351736, "lon": 44.1694432}, {"type": "node", "id": 3081059311, "lat": 36.0334383, "lon": 44.170602}, {"type": "node", "id": 3081059312, "lat": 36.0346356, "lon": 44.1728121}, {"type": "node", "id": 3081059313, "lat": 36.0366137, "lon": 44.1727906}, {"type": "node", "id": 3081059314, "lat": 36.0371516, "lon": 44.1708594}, {"type": "node", "id": 3096596997, "lat": 35.8244994, "lon": 44.0685515}, {"type": "node", "id": 3096596998, "lat": 35.822255, "lon": 44.0707617}, {"type": "node", "id": 3096596999, "lat": 35.8227422, "lon": 44.0743022}, {"type": "node", "id": 3096597000, "lat": 35.824134, "lon": 44.0789371}, {"type": "node", "id": 3096597001, "lat": 35.8264132, "lon": 44.0788727}, {"type": "node", "id": 3096597002, "lat": 35.8281007, "lon": 44.0761261}, {"type": "node", "id": 3096597003, "lat": 35.8275962, "lon": 44.0721779}, {"type": "node", "id": 3102610603, "lat": 35.9818975, "lon": 44.0406959}, {"type": "node", "id": 3102610604, "lat": 35.9748064, "lon": 44.0420424}, {"type": "node", "id": 3102610605, "lat": 35.9727138, "lon": 44.0425896}, {"type": "node", "id": 3102610606, "lat": 35.9690322, "lon": 44.0330731}, {"type": "node", "id": 3102610607, "lat": 35.9730003, "lon": 44.0320968}, {"type": "node", "id": 3102610608, "lat": 35.9792951, "lon": 44.0313887}, {"type": "node", "id": 3102610609, "lat": 35.980745, "lon": 44.0321611}, {"type": "node", "id": 3102611529, "lat": 35.9584771, "lon": 44.032129}, {"type": "node", "id": 3102611530, "lat": 35.9568053, "lon": 44.0306645}, {"type": "node", "id": 3102611531, "lat": 35.9533791, "lon": 44.032762}, {"type": "node", "id": 3102611532, "lat": 35.9546863, "lon": 44.0341782}, {"type": "node", "id": 3102611533, "lat": 35.957018, "lon": 44.0340548}, {"type": "node", "id": 3102611534, "lat": 35.9585595, "lon": 44.0339153}, {"type": "node", "id": 3104601550, "lat": 35.8447375, "lon": 44.0538503}, {"type": "node", "id": 3104601551, "lat": 35.8433981, "lon": 44.050106}, {"type": "node", "id": 3104601552, "lat": 35.8421545, "lon": 44.0501382}, {"type": "node", "id": 3104601553, "lat": 35.8417284, "lon": 44.0522249}, {"type": "node", "id": 3104601554, "lat": 35.841737, "lon": 44.0539147}, {"type": "node", "id": 3104601555, "lat": 35.8417979, "lon": 44.0553524}, {"type": "node", "id": 3104601556, "lat": 35.8430764, "lon": 44.0563609}, {"type": "node", "id": 3104601579, "lat": 35.8487089, "lon": 44.0632588}, {"type": "node", "id": 3104601580, "lat": 35.8469709, "lon": 44.0627383}, {"type": "node", "id": 3104601581, "lat": 35.8465617, "lon": 44.0641383}, {"type": "node", "id": 3104601582, "lat": 35.8471057, "lon": 44.0655374}, {"type": "node", "id": 3104601583, "lat": 35.8487148, "lon": 44.063609}, {"type": "node", "id": 3104605127, "lat": 35.8312257, "lon": 44.085554}, {"type": "node", "id": 3104605128, "lat": 35.8290425, "lon": 44.0849479}, {"type": "node", "id": 3104608429, "lat": 35.8282422, "lon": 44.0870561}, {"type": "node", "id": 3104608430, "lat": 35.8298688, "lon": 44.0874852}, {"type": "node", "id": 3106214665, "lat": 35.8628009, "lon": 44.0068102}, {"type": "node", "id": 3106214666, "lat": 35.8606895, "lon": 44.0084248}, {"type": "node", "id": 3106214667, "lat": 35.8655863, "lon": 44.0161087}, {"type": "node", "id": 3106214668, "lat": 35.8679438, "lon": 44.0126681}, {"type": "node", "id": 3106214669, "lat": 35.8678424, "lon": 44.0071421}, {"type": "node", "id": 3106221180, "lat": 35.8527653, "lon": 44.0261033}, {"type": "node", "id": 3106221181, "lat": 35.8500869, "lon": 44.0238824}, {"type": "node", "id": 3106221182, "lat": 35.8485998, "lon": 44.026157}, {"type": "node", "id": 3106221183, "lat": 35.8494086, "lon": 44.0286139}, {"type": "node", "id": 3106221184, "lat": 35.8516522, "lon": 44.029043}, {"type": "node", "id": 3132220802, "lat": 35.957436, "lon": 44.1162872}, {"type": "node", "id": 3132220803, "lat": 35.9561159, "lon": 44.1145921}, {"type": "node", "id": 3132220804, "lat": 35.9537016, "lon": 44.1150427}, {"type": "node", "id": 3132220805, "lat": 35.9543442, "lon": 44.1198921}, {"type": "node", "id": 3132220806, "lat": 35.9570539, "lon": 44.119463}, {"type": "node", "id": 3132220807, "lat": 35.9274167, "lon": 44.0929627}, {"type": "node", "id": 3132220808, "lat": 35.9258007, "lon": 44.0922117}, {"type": "node", "id": 3132220809, "lat": 35.9251752, "lon": 44.094615}, {"type": "node", "id": 3132220810, "lat": 35.9280943, "lon": 44.0993786}, {"type": "node", "id": 3132220811, "lat": 35.9298145, "lon": 44.0993786}, {"type": "node", "id": 3132220812, "lat": 35.9295538, "lon": 44.0954947}, {"type": "node", "id": 3132224414, "lat": 35.8975772, "lon": 44.0340829}, {"type": "node", "id": 3132224415, "lat": 35.8958042, "lon": 44.0335894}, {"type": "node", "id": 3132224416, "lat": 35.8949003, "lon": 44.0352845}, {"type": "node", "id": 3132224417, "lat": 35.8960127, "lon": 44.0367222}, {"type": "node", "id": 3132224418, "lat": 35.8980639, "lon": 44.0360784}, {"type": "node", "id": 3132224823, "lat": 35.9439912, "lon": 44.0721059}, {"type": "node", "id": 3132224824, "lat": 35.9418197, "lon": 44.069767}, {"type": "node", "id": 3132224825, "lat": 35.9398392, "lon": 44.0717626}, {"type": "node", "id": 3132224826, "lat": 35.9402214, "lon": 44.0747452}, {"type": "node", "id": 3132224827, "lat": 35.9417155, "lon": 44.0760326}, {"type": "node", "id": 3132224828, "lat": 35.9442171, "lon": 44.0754318}, {"type": "node", "id": 3134335211, "lat": 36.026338, "lon": 44.0177553}, {"type": "node", "id": 3134335212, "lat": 36.0238877, "lon": 44.0208625}, {"type": "node", "id": 3134335213, "lat": 36.0243186, "lon": 44.0211144}, {"type": "node", "id": 3134335214, "lat": 36.0257956, "lon": 44.0215198}, {"type": "node", "id": 3134335215, "lat": 36.0262836, "lon": 44.0198459}, {"type": "node", "id": 4477823568, "lat": 35.9653004, "lon": 44.0721949, "tags": {"name": "\u0647\u06d5\u0645\u0632\u06d5\u06a9\u06c6\u0631", "name:ckb": "\u06af\u0648\u0646\u062f\u06cc \u0647\u06d5\u0645\u0632\u06d5\u06a9\u06c6\u0631", "name:en": "Hamza kor", "name:ku": "\u06be\u06d5\u0645\u0632\u06d5 \u06a9\u06c6\u0631", "place": "village"}}, {"type": "node", "id": 4477845431, "lat": 35.8471861, "lon": 44.0638489, "tags": {"admin_level": "9", "alt_name": "\u06af\u0631\u062f\u0644\u0627\u0646\u06a9\u06d5", "name": "\u06af\u0631\u062f\u0644\u0627\u0646\u06a9\u06d5", "name:ar": "\u0643\u0631\u062f\u0644\u0627\u0646\u0643\u0629", "name:ckb": "\u06af\u0648\u0646\u062f\u06cc \u06af\u0631\u062f\u0644\u0627\u0646\u06a9\u06d5", "name:en": "Girdlanka", "official_name": "\u06af\u0631\u062f\u0644\u0627\u0646\u06a9\u06d5", "place": "village", "religion": "muslim"}}, {"type": "node", "id": 4558509468, "lat": 35.8136709, "lon": 44.0960408, "tags": {"place": "hamlet"}}, {"type": "node", "id": 4558510329, "lat": 35.7755575, "lon": 44.1629395, "tags": {"name": "\u0642\u06d5\u0631\u06d5\u0628\u06d5\u06af", "name:ar": "\u0642\u0631\u0629\u0628\u0643", "name:ckb": "\u0642\u06d5\u0631\u06d5\u0628\u06d5\u06af", "name:en": "Qarabag", "name:ku": "Qerebeg", "place": "village"}}, {"type": "node", "id": 4558560170, "lat": 35.865564, "lon": 44.0698828}, {"type": "node", "id": 4558560171, "lat": 35.8624579, "lon": 44.0668088}, {"type": "node", "id": 4558560172, "lat": 35.8622489, "lon": 44.0722104}, {"type": "node", "id": 4558560173, "lat": 35.86535, "lon": 44.0729083}, {"type": "node", "id": 4558560218, "lat": 35.8942724, "lon": 44.034348}, {"type": "node", "id": 4558560219, "lat": 35.892613, "lon": 44.0330128}, {"type": "node", "id": 4558560220, "lat": 35.890929, "lon": 44.0331948}, {"type": "node", "id": 4558560221, "lat": 35.8904128, "lon": 44.0353797}, {"type": "node", "id": 4558560222, "lat": 35.8922566, "lon": 44.0366542}, {"type": "node", "id": 4558560223, "lat": 35.8940389, "lon": 44.0365025}, {"type": "node", "id": 4558560257, "lat": 35.8715175, "lon": 44.0870737, "tags": {"place": "village"}}, {"type": "node", "id": 4558560374, "lat": 35.8429176, "lon": 44.0532226, "tags": {"admin_level": "9", "name": "\u06af\u0631\u062f\u0644\u0627\u0646\u06a9\u06d5", "name:ar": "\u0643\u0631\u062f\u0644\u0627\u0646\u0643\u0629", "name:ckb": "\u06af\u0631\u062f\u0644\u0627\u0646\u06a9\u06d5", "name:en": "Girdlanka", "place": "village", "religion": "muslim"}}, {"type": "node", "id": 4692915479, "lat": 36.078708, "lon": 44.461052, "tags": {"name": "\u06af\u06c6\u0645\u06d5\u0634\u06cc\u0646\u06cc \u0634\u06ce\u062e\u0627\u0646", "name:ar": "\u06a9\u0648\u0645\u0629\u0634\u06cc\u0646 \u0634\u06cc\u062e\u0627\u0646", "name:en": "Gomashini Sh\u00eaxan", "place": "village"}}, {"type": "node", "id": 4708960404, "lat": 35.841724, "lon": 44.0511869}, {"type": "node", "id": 4708960405, "lat": 35.842472, "lon": 44.0560552}, {"type": "node", "id": 4861960812, "lat": 35.8496916, "lon": 44.3389964}, {"type": "node", "id": 4861960813, "lat": 35.8504308, "lon": 44.3397796}, {"type": "node", "id": 4926008134, "lat": 35.7329272, "lon": 44.4830417}, {"type": "node", "id": 4926008135, "lat": 35.7309067, "lon": 44.4896078}, {"type": "node", "id": 4926008136, "lat": 35.7337285, "lon": 44.4974613}, {"type": "node", "id": 4926008137, "lat": 35.7375952, "lon": 44.49759}, {"type": "node", "id": 4926008138, "lat": 35.7364108, "lon": 44.4913244}, {"type": "node", "id": 4926008139, "lat": 35.7385357, "lon": 44.4924831}, {"type": "node", "id": 4926008140, "lat": 35.7438651, "lon": 44.4884061}, {"type": "node", "id": 4926008141, "lat": 35.7377694, "lon": 44.4835138}, {"type": "node", "id": 4929624831, "lat": 35.6687501, "lon": 44.517889}, {"type": "node", "id": 4929624832, "lat": 35.6691162, "lon": 44.5158505}, {"type": "node", "id": 4929624833, "lat": 35.668262, "lon": 44.515121}, {"type": "node", "id": 4929624834, "lat": 35.6676344, "lon": 44.5176315}, {"type": "node", "id": 4929624835, "lat": 35.6651764, "lon": 44.5198846}, {"type": "node", "id": 4929624836, "lat": 35.6700749, "lon": 44.5219445}, {"type": "node", "id": 4929624837, "lat": 35.6704061, "lon": 44.5190692}, {"type": "node", "id": 5231361187, "lat": 35.9592152, "lon": 44.0322094}, {"type": "node", "id": 5231361188, "lat": 35.9591457, "lon": 44.0329685}, {"type": "node", "id": 5231361189, "lat": 35.9591067, "lon": 44.0325675}, {"type": "node", "id": 5231361190, "lat": 35.959098, "lon": 44.0318527}, {"type": "node", "id": 5231361191, "lat": 35.9589699, "lon": 44.0318514}, {"type": "node", "id": 5231361192, "lat": 35.9585628, "lon": 44.0317917}, {"type": "node", "id": 5231361193, "lat": 35.9586768, "lon": 44.0331334}, {"type": "node", "id": 5231361194, "lat": 35.9586594, "lon": 44.0334144}, {"type": "node", "id": 5231361195, "lat": 35.9586768, "lon": 44.0336407}, {"type": "node", "id": 5231361196, "lat": 35.9576151, "lon": 44.034036}, {"type": "node", "id": 5231361197, "lat": 35.9580873, "lon": 44.0340025}, {"type": "node", "id": 5231361198, "lat": 35.9577253, "lon": 44.0339227}, {"type": "node", "id": 5231361199, "lat": 35.9583972, "lon": 44.0340501}, {"type": "node", "id": 5231361200, "lat": 35.9548317, "lon": 44.0342452}, {"type": "node", "id": 5231361201, "lat": 35.9564155, "lon": 44.0341822}, {"type": "node", "id": 5231361202, "lat": 35.9543627, "lon": 44.0337866}, {"type": "node", "id": 5231361203, "lat": 35.9542226, "lon": 44.0333494}, {"type": "node", "id": 5231361204, "lat": 35.9533579, "lon": 44.0333132}, {"type": "node", "id": 5231361205, "lat": 35.9532923, "lon": 44.0325474}, {"type": "node", "id": 5231361206, "lat": 35.9531707, "lon": 44.0324401}, {"type": "node", "id": 5231361207, "lat": 35.9532141, "lon": 44.0321129}, {"type": "node", "id": 5231361208, "lat": 35.9536527, "lon": 44.0318366}, {"type": "node", "id": 5231361209, "lat": 35.9545277, "lon": 44.0317306}, {"type": "node", "id": 5231361210, "lat": 35.9538557, "lon": 44.0316602}, {"type": "node", "id": 5231361211, "lat": 35.9553474, "lon": 44.0315972}, {"type": "node", "id": 5231361212, "lat": 35.9559613, "lon": 44.0318255}, {"type": "node", "id": 5231361213, "lat": 35.9565201, "lon": 44.0319987}, {"type": "node", "id": 5231361214, "lat": 35.9565737, "lon": 44.0312484}, {"type": "node", "id": 5231361215, "lat": 35.9565571, "lon": 44.0306748}, {"type": "node", "id": 5231361216, "lat": 35.9569508, "lon": 44.0306725}, {"type": "node", "id": 5231361217, "lat": 35.9571386, "lon": 44.0314973}, {"type": "node", "id": 5231361218, "lat": 35.9573693, "lon": 44.032017}, {"type": "node", "id": 5231361219, "lat": 35.9592131, "lon": 44.0319667}, {"type": "node", "id": 5274739724, "lat": 35.8409584, "lon": 44.4395629, "tags": {"name": "\u062f\u06d5\u0631\u0645\u0627\u0646\u0627\u0648", "name:ar": "\u062f\u0631\u0645\u0627\u0646\u0627\u0648\u0627", "name:ckb": "\u062f\u06d5\u0631\u0645\u0627\u0646\u0627\u0648", "name:en": "Darmanaw", "name:ku": "Dermanaw", "place": "village"}}, {"type": "node", "id": 5396432828, "lat": 35.8647219, "lon": 44.0150642}, {"type": "node", "id": 5792916215, "lat": 35.9812185, "lon": 44.0365452}, {"type": "node", "id": 5933636707, "lat": 35.8294122, "lon": 44.0859522, "tags": {"admin_level": "9", "name": "\u0626\u06c6\u0645\u06d5\u0631\u0627\u0648\u06d5\u06cc \u0628\u0686\u0648\u0648\u06a9", "name:ar": "\u0622\u0648\u0645\u0631\u0627\u0648\u0629 \u0628\u062c\u0648\u0643", "name:ckb": "\u0626\u06c6\u0645\u06d5\u0631\u0627\u0648\u06d5\u06cc \u0628\u0686\u0648\u0648\u06a9", "name:en": "Umaraway bchuk", "place": "village"}}, {"type": "node", "id": 6043383972, "lat": 35.8511637, "lon": 44.3444421}, {"type": "node", "id": 6119441424, "lat": 35.9591271, "lon": 44.0318816}, {"type": "node", "id": 6124102970, "lat": 36.0379889, "lon": 44.222504}, {"type": "node", "id": 6222998368, "lat": 35.8626777, "lon": 44.0114076}, {"type": "node", "id": 6357857896, "lat": 35.829365, "lon": 44.0877801}, {"type": "node", "id": 6357857897, "lat": 35.8289073, "lon": 44.0879758}, {"type": "node", "id": 6357857898, "lat": 35.8307125, "lon": 44.0866698}, {"type": "node", "id": 6357857899, "lat": 35.8310427, "lon": 44.086317}, {"type": "node", "id": 6357857900, "lat": 35.8300863, "lon": 44.0865956}, {"type": "node", "id": 6357857901, "lat": 35.830167, "lon": 44.0864353}, {"type": "node", "id": 6361259752, "lat": 35.8272074, "lon": 44.0783413}, {"type": "node", "id": 6361259753, "lat": 35.8228452, "lon": 44.0756322}, {"type": "node", "id": 6361259754, "lat": 35.8229161, "lon": 44.0690343}, {"type": "node", "id": 6361259755, "lat": 35.8223507, "lon": 44.0697693}, {"type": "node", "id": 6361259756, "lat": 35.8285208, "lon": 44.0749922}, {"type": "node", "id": 6361303973, "lat": 35.828488, "lon": 44.0873654}, {"type": "node", "id": 6361303974, "lat": 35.828713, "lon": 44.0856495}, {"type": "node", "id": 6361303975, "lat": 35.8283775, "lon": 44.0864406}, {"type": "node", "id": 6361367931, "lat": 35.827864, "lon": 44.072993}, {"type": "node", "id": 6361367932, "lat": 35.8275125, "lon": 44.0720799}, {"type": "node", "id": 6362537496, "lat": 35.8480415, "lon": 44.0651019}, {"type": "node", "id": 6362537497, "lat": 35.8465876, "lon": 44.0632089}, {"type": "node", "id": 6362537498, "lat": 35.8483414, "lon": 44.0629716}, {"type": "node", "id": 6362537499, "lat": 35.8482177, "lon": 44.0645175}, {"type": "node", "id": 6362537500, "lat": 35.8482474, "lon": 44.0640857}, {"type": "node", "id": 6363727370, "lat": 35.8002847, "lon": 44.0770558, "tags": {"name": "\u0634\u06d5\u0645\u0632\u06cc\u0646\u0627\u0648\u06d5", "name:ar": "\u0634\u0645\u0632\u064a\u0646\u0627\u0648\u0629", "name:ckb": "\u0634\u06d5\u0645\u0632\u06cc\u0646\u0627\u0648\u06d5", "name:en": "shamzenawa", "place": "village"}}, {"type": "node", "id": 6652868183, "lat": 35.863561, "lon": 44.0067834}, {"type": "node", "id": 6652868184, "lat": 35.8634306, "lon": 44.0063542}, {"type": "node", "id": 6652969585, "lat": 35.863648, "lon": 44.0070033}, {"type": "node", "id": 6652969586, "lat": 35.8637219, "lon": 44.0071696}, {"type": "node", "id": 6652969587, "lat": 35.8638436, "lon": 44.0072018}, {"type": "node", "id": 6652969588, "lat": 35.8642805, "lon": 44.007073}, {"type": "node", "id": 6652969589, "lat": 35.864387, "lon": 44.0070087}, {"type": "node", "id": 6652969590, "lat": 35.8644805, "lon": 44.0069953}, {"type": "node", "id": 6652969591, "lat": 35.8645261, "lon": 44.0069497}, {"type": "node", "id": 6652969592, "lat": 35.864587, "lon": 44.0067834}, {"type": "node", "id": 6652969593, "lat": 35.8646087, "lon": 44.00666}, {"type": "node", "id": 6652969594, "lat": 35.8645913, "lon": 44.0065017}, {"type": "node", "id": 6652969595, "lat": 35.8644653, "lon": 44.006314}, {"type": "node", "id": 6652969596, "lat": 35.864374, "lon": 44.0062684}, {"type": "node", "id": 6652969597, "lat": 35.8641436, "lon": 44.0071991}, {"type": "node", "id": 6652969598, "lat": 35.8645653, "lon": 44.0068638}, {"type": "node", "id": 6652969599, "lat": 35.8645435, "lon": 44.0063971}, {"type": "node", "id": 6652969600, "lat": 35.862322, "lon": 44.0063167}, {"type": "node", "id": 6652969601, "lat": 35.8621351, "lon": 44.0063757}, {"type": "node", "id": 6652969602, "lat": 35.8631871, "lon": 44.0060806}, {"type": "node", "id": 6652969603, "lat": 35.8635089, "lon": 44.0064615}, {"type": "node", "id": 6652969604, "lat": 35.8640392, "lon": 44.0072393}, {"type": "node", "id": 6652969605, "lat": 35.864231, "lon": 44.0060073}, {"type": "node", "id": 6652969657, "lat": 35.8643767, "lon": 44.005865}, {"type": "node", "id": 6652969658, "lat": 35.8652103, "lon": 44.0044267}, {"type": "node", "id": 6652969659, "lat": 35.8669965, "lon": 44.0062176}, {"type": "node", "id": 6652969660, "lat": 35.8656825, "lon": 44.0048683}, {"type": "node", "id": 6691145943, "lat": 35.8521154, "lon": 44.3385309}, {"type": "node", "id": 6691145944, "lat": 35.8509238, "lon": 44.3404375}, {"type": "node", "id": 6819339725, "lat": 35.9423381, "lon": 44.0758831}, {"type": "node", "id": 7167265870, "lat": 35.8942463, "lon": 44.0344792}, {"type": "node", "id": 7546430808, "lat": 36.0553139, "lon": 44.1902751, "tags": {"name": "\u0647\u06d5\u06b5\u062c\u06d5\u06cc \u0628\u0686\u0648\u0648\u06a9", "name:ckb": "\u0647\u06d5\u06b5\u062c\u06d5\u06cc \u0628\u0686\u0648\u0648\u06a9", "place": "village"}}, {"type": "node", "id": 7561683919, "lat": 35.7074159, "lon": 44.4541798}, {"type": "node", "id": 7561683920, "lat": 35.7073847, "lon": 44.4539434}, {"type": "node", "id": 7561683921, "lat": 35.7061779, "lon": 44.454195}, {"type": "node", "id": 7561683922, "lat": 35.7062183, "lon": 44.4544539}, {"type": "node", "id": 7561683923, "lat": 35.7072954, "lon": 44.4537307}, {"type": "node", "id": 7561683924, "lat": 35.707157, "lon": 44.4535625}, {"type": "node", "id": 7561683925, "lat": 35.706983, "lon": 44.4534555}, {"type": "node", "id": 7561683926, "lat": 35.7067907, "lon": 44.4534202}, {"type": "node", "id": 7561683927, "lat": 35.7065989, "lon": 44.4534602}, {"type": "node", "id": 7561683928, "lat": 35.7064267, "lon": 44.4535714}, {"type": "node", "id": 7561683929, "lat": 35.7062911, "lon": 44.4537429}, {"type": "node", "id": 7561683930, "lat": 35.7062053, "lon": 44.4539579}, {"type": "node", "id": 7561683931, "lat": 35.706328, "lon": 44.4546804}, {"type": "node", "id": 7561683932, "lat": 35.7064938, "lon": 44.4548473}, {"type": "node", "id": 7561683933, "lat": 35.7066958, "lon": 44.4549347}, {"type": "node", "id": 7561683934, "lat": 35.70691, "lon": 44.4549321}, {"type": "node", "id": 7561683935, "lat": 35.7071105, "lon": 44.4548398}, {"type": "node", "id": 7561683936, "lat": 35.7072736, "lon": 44.4546688}, {"type": "node", "id": 7561683937, "lat": 35.7073796, "lon": 44.4544397}, {"type": "node", "id": 7561732733, "lat": 35.7005148, "lon": 44.518668, "tags": {"name": "\u0645\u06d5\u0631\u062f", "name:ae": "\u0645\u0631\u062f", "name:ckb": "\u0645\u06d5\u0631\u062f", "name:en": "Mard", "name:ku": "Merd", "place": "village"}}, {"type": "node", "id": 7568483389, "lat": 36.0640396, "lon": 44.0212212, "tags": {"name": "\u0647\u06d5\u0648\u0627\u0631\u06cc \u0646\u0648\u06ce", "name:ckb": "\u0647\u06d5\u0648\u0627\u0631\u06cc \u0646\u0648\u06ce", "name:en": "Haware nwe", "place": "village"}}, {"type": "node", "id": 7726047940, "lat": 35.6789143, "lon": 44.4007443, "tags": {"name": "\u062f\u0648\u0648\u0628\u0632\u0646\u06cc", "name:ar": "\u062f\u0648\u0628\u0632\u0646\u064a", "name:ckb": "\u062f\u0648\u0648\u0628\u0632\u0646\u06cc", "name:en": "Dubizni", "name:ku": "D\u00fb bizn\u00ee", "place": "village"}}, {"type": "node", "id": 7798855606, "lat": 35.8315079, "lon": 44.4212752, "tags": {"name": "\u067e\u06d5\u06b5\u06a9\u0627\u0646\u06d5", "name:ar": "\u0628\u0644\u0643\u0627\u0646\u0629", "name:ckb": "\u067e\u06d5\u06b5\u06a9\u0627\u0646\u06d5", "name:en": "Palkana", "name:ku": "Pelkane", "place": "village"}}, {"type": "node", "id": 7834625918, "lat": 35.7616703, "lon": 44.2371775, "tags": {"name": "\u0633\u06d5\u0631\u0628\u06cc\u0631", "name:ar": "\u0633\u064e\u0631\u0628\u064a\u0631", "name:ckb": "\u0633\u06d5\u0631\u0628\u06cc\u0631", "name:en": "Sarbir", "name:ku": "Serb\u00eer", "place": "village"}}, {"type": "node", "id": 7834637501, "lat": 35.7170961, "lon": 44.2622239, "tags": {"name": "\u0695\u06c6\u0698\u0628\u06d5\u06cc\u0627\u0646\u06cc", "name:ar": "\u0631\u0648\u0632\u0628\u064a\u0627\u0646\u064a", "name:ckb": "\u0695\u06c6\u0698\u0628\u06d5\u06cc\u0627\u0646\u06cc", "name:en": "Rozhbayani", "name:ku": "Rojbeyan\u00ee", "place": "village"}}, {"type": "node", "id": 7845767960, "lat": 35.6471467, "lon": 44.445443}, {"type": "node", "id": 7845767961, "lat": 35.6471199, "lon": 44.4451302}, {"type": "node", "id": 7845767962, "lat": 35.6455321, "lon": 44.4453721}, {"type": "node", "id": 7845767963, "lat": 35.6455749, "lon": 44.4457094}, {"type": "node", "id": 7845767964, "lat": 35.647015, "lon": 44.4448433}, {"type": "node", "id": 7845767965, "lat": 35.6468424, "lon": 44.444611}, {"type": "node", "id": 7845767966, "lat": 35.6466196, "lon": 44.4444568}, {"type": "node", "id": 7845767967, "lat": 35.6463688, "lon": 44.444396}, {"type": "node", "id": 7845767968, "lat": 35.646115, "lon": 44.4444346}, {"type": "node", "id": 7845767969, "lat": 35.6458838, "lon": 44.4445689}, {"type": "node", "id": 7845767970, "lat": 35.6456983, "lon": 44.4447854}, {"type": "node", "id": 7845767971, "lat": 35.645577, "lon": 44.4450624}, {"type": "node", "id": 7845767972, "lat": 35.6457079, "lon": 44.4460089}, {"type": "node", "id": 7845767973, "lat": 35.6459154, "lon": 44.4462355}, {"type": "node", "id": 7845767974, "lat": 35.6461729, "lon": 44.4463623}, {"type": "node", "id": 7845767975, "lat": 35.6464501, "lon": 44.4463745}, {"type": "node", "id": 7845767976, "lat": 35.6467144, "lon": 44.4462706}, {"type": "node", "id": 7845767977, "lat": 35.6469344, "lon": 44.4460628}, {"type": "node", "id": 7845767978, "lat": 35.6470845, "lon": 44.4457757}, {"type": "node", "id": 7878480137, "lat": 35.8861198, "lon": 44.0574153}, {"type": "node", "id": 7878480138, "lat": 35.8863462, "lon": 44.0566845}, {"type": "node", "id": 7878480139, "lat": 35.8859432, "lon": 44.0562767}, {"type": "node", "id": 7878480140, "lat": 35.8854525, "lon": 44.0555616}, {"type": "node", "id": 7878480141, "lat": 35.8849008, "lon": 44.0552708}, {"type": "node", "id": 7878480142, "lat": 35.8848755, "lon": 44.054688}, {"type": "node", "id": 7878480143, "lat": 35.8842314, "lon": 44.0588982}, {"type": "node", "id": 7878480144, "lat": 35.8845799, "lon": 44.0586658}, {"type": "node", "id": 7878480145, "lat": 35.8851982, "lon": 44.0591193}, {"type": "node", "id": 7878480146, "lat": 35.8854665, "lon": 44.0593143}, {"type": "node", "id": 7878480147, "lat": 35.8856228, "lon": 44.0602454}, {"type": "node", "id": 7878480148, "lat": 35.8865414, "lon": 44.0586582}, {"type": "node", "id": 7878480149, "lat": 35.8837268, "lon": 44.0538859}, {"type": "node", "id": 7878480150, "lat": 35.8833835, "lon": 44.055298}, {"type": "node", "id": 7878480151, "lat": 35.8821483, "lon": 44.0559304}, {"type": "node", "id": 7878480152, "lat": 35.8826782, "lon": 44.0568994}, {"type": "node", "id": 7878480153, "lat": 35.8826971, "lon": 44.0572517}, {"type": "node", "id": 7878480154, "lat": 35.8838586, "lon": 44.0590051}, {"type": "node", "id": 7878480155, "lat": 35.8863187, "lon": 44.0580387}, {"type": "node", "id": 7963052193, "lat": 35.7238744, "lon": 44.3582226, "tags": {"name": "\u0628\u06cc\u0631\u0627\u06b5\u06a9", "name:ckb": "\u0628\u06cc\u0631\u0627\u06b5\u06a9", "name:en": "Biralk", "name:ku": "B\u00eerallik", "place": "village"}}, {"type": "node", "id": 7963053475, "lat": 35.7145862, "lon": 44.3652868, "tags": {"name": "\u06a9\u0627\u0631\u06ce\u0632", "name:ckb": "\u06a9\u0627\u0631\u06ce\u0632", "name:en": "Karez", "name:ku": "Kar\u00eaz", "place": "village"}}, {"type": "node", "id": 7983887509, "lat": 35.6848645, "lon": 44.3922651, "tags": {"name": "\u0642\u0627\u062f\u0631 \u0632\u0645\u06d5", "name:ar": "\u0642\u0627\u062f\u0631 \u0632\u0645\u0629", "name:ckb": "\u0642\u0627\u062f\u0631 \u0632\u0645\u06d5", "name:en": "Qadr Zma", "name:ku": "Qadir Zime", "place": "village"}}, {"type": "node", "id": 7984599469, "lat": 35.679317, "lon": 44.2221063, "tags": {"name": "\u0646\u06d5\u0628\u06cc\u0627\u0648\u0627\u06cc \u06a9\u06c6\u0646", "name:ar": "\u0646\u0628\u064a \u0622\u0648\u0627 \u0627\u0644\u0642\u062f\u06cc\u0645", "name:ckb": "\u0646\u06d5\u0628\u06cc\u0627\u0648\u0627", "name:en": "Old Nabyawa", "name:ku": "Nebyawa", "place": "village"}}, {"type": "node", "id": 7984608279, "lat": 35.6869214, "lon": 44.2411409, "tags": {"alt_name": "\u0646\u06d5\u0628\u06cc\u0627\u0648\u06d5\u06cc \u0646\u0648\u06ce", "name": "\u0646\u06d5\u0628\u06cc\u0627\u0648\u0627\u06cc \u062a\u0627\u0632\u06d5", "name:ar": "\u0646\u0628\u064a \u0622\u0648\u0627 \u0627\u0644\u062c\u062f\u064a\u062f\u0629", "name:ckb": "\u0646\u06d5\u0628\u06cc\u0627\u0648\u0627\u06cc \u0646\u0648\u06ce", "name:en": "New Nabyawa", "name:ku": "Nebyawaya N\u00fb", "place": "village"}}, {"type": "node", "id": 7984818010, "lat": 35.7540957, "lon": 44.1427614, "tags": {"alt_name": "\u0626\u0627\u06b5\u062a\u0648\u0648\u0646 \u06a9\u06c6\u067e\u0631\u06cc", "name": "\u0622\u0644\u062a\u0648\u0646 \u0643\u0648\u0628\u0631\u064a", "name:ar": "\u0622\u0644\u062a\u0648\u0646 \u0643\u0648\u0628\u0631\u064a", "name:arz": "\u0622\u0644\u062a\u0648\u0646 \u0643\u0648\u0628\u0631\u0649", "name:az": "Alt\u0131nk\u00f6rp\u00fc", "name:azb": "\u0622\u0644\u062a\u06cc\u0646 \u06a9\u0624\u0631\u067e\u0648", "name:ca": "Alt\u0131n K\u00f6pr\u00fc", "name:ckb": "\u067e\u0631\u062f\u06ce", "name:de": "Altin K\u00f6pr\u00fc", "name:en": "Altun Kupri", "name:fa": "\u0622\u0644\u062a\u0648\u0646 \u06a9\u0648\u067e\u0631\u06cc", "name:fi": "Altin K\u00f6pr\u00fc", "name:it": "Altun Kupri", "name:ku": "Pird\u00ea", "name:nn": "Altun Kupri", "name:pl": "Altun Kubri", "name:ru": "\u0410\u043b\u0442\u044b\u043d\u043a\u0451\u043f\u0440\u044e", "name:tr": "Alt\u0131nk\u00f6pr\u00fc", "place": "town", "wikidata": "Q441380", "wikipedia": "ar:\u0622\u0644\u062a\u0648\u0646 \u0643\u0648\u0628\u0631\u064a"}}, {"type": "node", "id": 8088118964, "lat": 35.7276918, "lon": 44.2094262, "tags": {"name": "\u06af\u06d5\u06b5\u06c6\u0632\u06cc", "name:ar": "\u0643\u0644\u0648\u0632\u064a", "name:ckb": "\u06af\u06d5\u06b5\u06c6\u0632\u06cc", "name:en": "Galozi", "name:ku": "Gelloz\u00ee", "place": "village"}}, {"type": "node", "id": 8603597381, "lat": 35.9540344, "lon": 44.1175543}, {"type": "node", "id": 8603597392, "lat": 35.9545865, "lon": 44.1148775}, {"type": "node", "id": 8603597431, "lat": 35.9540455, "lon": 44.1176378}, {"type": "node", "id": 8632120217, "lat": 35.6874727, "lon": 44.0935179, "tags": {"name": "\u062e\u0627\u0632\u0695\u06d5\u06af", "name:ar": "\u062e\u0627\u0632\u0631\u06a9", "name:en": "Khazrag", "place": "village"}}, {"type": "node", "id": 8977501577, "lat": 35.7919915, "lon": 44.3000296, "tags": {"name": "\u0642\u06d5\u0631\u06d5\u0633\u0627\u0644\u0645", "name:ckb": "\u0642\u06d5\u0631\u06d5\u0633\u0627\u0644\u0645", "name:en": "Qarasalm", "name:ku": "Qeresalim", "place": "village"}}, {"type": "node", "id": 9440834850, "lat": 35.7403678, "lon": 44.2167611, "tags": {"name": "\u0633\u06d5\u0645\u06cc\u0631\u0627\u0646", "name:ckb": "\u0633\u06d5\u0645\u06cc\u0631\u0627\u0646", "name:en": "Samiran", "name:ku": "Sem\u00eeran", "place": "village"}}, {"type": "node", "id": 9468233356, "lat": 35.9319437, "lon": 44.3691104, "tags": {"alt_name": "\u0646\u06ce\u0631\u06d5\u06af\u06cc\u0646", "name": "\u0646\u06ce\u06b5\u06d5\u06af\u06cc\u0646", "name:ar": "\u0646\u064a\u0644\u0643\u064a\u0646", "name:ckb": "\u0646\u06ce\u06b5\u06d5\u06af\u06cc\u0646", "name:en": "Nelagin", "name:ku": "N\u00ealeg\u00een", "place": "village", "wikipedia": "ckb:\u0646\u06ce\u06b5\u06d5\u06af\u06cc\u0646"}}, {"type": "node", "id": 9482722213, "lat": 35.6892212, "lon": 44.4757582, "tags": {"name": "\u06af\u06d5\u0648\u0631\u06d5\u062f\u06ce", "name:ar": "\u06a9\u0629\u0648\u0631\u062f\u06cc", "name:en": "Gawrad\u00ea", "place": "village"}}, {"type": "node", "id": 9482734016, "lat": 35.6924627, "lon": 44.4919098, "tags": {"name": "\u06af\u0648\u0631\u0632\u06d5\u06cc\u06cc", "name:ar": "\u06a9\u0648\u0631\u0632\u06cc", "name:en": "Gurzayi", "place": "village"}}, {"type": "node", "id": 9482740618, "lat": 35.6612752, "lon": 44.4711004, "tags": {"name": "\u0686\u06d5\u06b5\u062a\u0648\u06a9\u06d5", "name:ar": "\u062c\u0644\u062a\u0648\u06a9\u0629", "name:en": "Chaltuka", "place": "village"}}, {"type": "node", "id": 9482743024, "lat": 35.7125173, "lon": 44.3006326, "tags": {"name": "\u0645\u06cc\u0631 \u0626\u06d5\u0633\u0641\u06d5\u06be\u0627\u0646\u06cc \u06af\u06d5\u0648\u0631\u06d5", "name:ckb": "\u0645\u06cc\u0631 \u0626\u06d5\u0633\u0641\u06d5\u06be\u0627\u0646", "name:en": "Great Mir Asfahan", "name:ku": "M\u00eer Esfehan", "place": "village"}}, {"type": "node", "id": 9482744330, "lat": 35.8547368, "lon": 44.3421493, "tags": {"name": "\u0626\u0627\u0648\u0645\u0627\u06b5", "name:ar": "\u0622\u0648\u0645\u0627\u0644", "name:ckb": "\u0626\u0627\u0648\u0645\u0627\u06b5", "name:en": "Awmal", "name:ku": "Awmal", "place": "village", "wikipedia": "ckb:\u0626\u0627\u0648\u0645\u0627\u06b5"}}, {"type": "node", "id": 9571507677, "lat": 36.0175285, "lon": 44.2975647, "tags": {"name": "\u0634\u06cc\u0648\u06d5 \u067e\u06cc\u0631\u0627\u0646", "place": "village"}}, {"type": "node", "id": 9583402712, "lat": 35.9730043, "lon": 44.2599523, "tags": {"name": "\u062f\u06ce", "place": "village"}}, {"type": "node", "id": 9583429257, "lat": 35.9776568, "lon": 44.2936297, "tags": {"name": "\u062f\u06ce\u062f\u06d5\u0648\u0627\u0646", "name:ar": "\u062f\u064a\u062f\u0648\u0627\u0646", "name:ckb": "\u062f\u06ce\u062f\u06d5\u0648\u0627\u0646", "name:en": "Dedawan", "name:ku": "D\u00eadewan", "place": "village", "wikipedia": "ckb:\u062f\u06ce\u062f\u06d5\u0648\u0627\u0646"}}, {"type": "node", "id": 9583429258, "lat": 35.9837338, "lon": 44.2562922, "tags": {"name": "\u062d\u06d5\u0633\u06d5\u0646 \u0645\u0648\u062a\u0631\u06cc\u0628", "name:ar": "\u062d\u0633\u0646 \u0645\u062a\u0631\u06cc\u0628", "name:en": "Hassan Mutrib", "place": "village"}}, {"type": "node", "id": 9583517008, "lat": 35.9436391, "lon": 44.1870798, "tags": {"name": "\u062f\u06ce", "place": "village"}}, {"type": "node", "id": 9583517022, "lat": 35.9297057, "lon": 44.211881, "tags": {"name": "\u062f\u06ce", "place": "village"}}, {"type": "node", "id": 9630326926, "lat": 36.0462999, "lon": 44.1524313, "tags": {"name": "\u0647\u06d5\u0644\u06d5\u062c\u06d5\u06cc \u06af\u06d5\u0648\u0631\u06d5", "name:ar": "\u0647\u06d5\u0644\u06d5\u062c\u06d5\u06cc \u06af\u06d5\u0648\u0631\u06d5", "name:en": "Big Halaja", "place": "village"}}, {"type": "node", "id": 9665040464, "lat": 35.6480887, "lon": 44.47213, "tags": {"name": "\u0639\u0648\u0645\u06d5\u0631 \u0628\u06d5\u06af", "name:ckb": "\u0639\u0648\u0645\u06d5\u0631 \u0628\u06d5\u06af", "name:en": "Omer Bag", "name:ku": "'Umer Beg", "place": "village"}}, {"type": "node", "id": 9669522675, "lat": 35.6744956, "lon": 44.2584819, "tags": {"name": "\u06cc\u0627\u0631\u0645\u0686\u06d5\u06cc \u062a\u0627\u0632\u06d5", "name:ar": "\u064a\u0627\u0631\u0645\u062c\u0629 \u0627\u0644\u062c\u062f\u06cc\u062f\u0629", "name:en": "New Yarmja", "name:ku": "Yarmice", "place": "village"}}, {"type": "node", "id": 9705223818, "lat": 35.7103198, "lon": 44.0834212, "tags": {"addr:housenumber": "443", "addr:street": "\u0642\u0636\u0627\u0621 \u0627\u0644\u062f\u0628\u0633", "name": "\u062e\u06d5\u0633\u0631\u06d5\u0648 \u0628\u0648\u06b5\u0627\u0642", "name:ar": "\u062e\u0633\u0631\u0648\u0628\u0644\u0627\u0642", "name:en": "Khasraw Bulaq", "opening_hours": "Su-Th 00:00-24:00", "phone": "2165870", "place": "village"}}, {"type": "node", "id": 9875834078, "lat": 35.9630619, "lon": 44.5370865, "tags": {"name": "\u0645\u06d5\u0631\u0632\u0627\u0646\u06cc \u0633\u06d5\u0631\u06ce", "name:ar": "\u0645\u0631\u0632\u0627\u0646 \u0639\u0644\u06cc\u0627", "name:en": "Marzan Upper", "place": "village", "population": "100"}}, {"type": "node", "id": 9905742111, "lat": 35.8618523, "lon": 44.0066888}, {"type": "node", "id": 9905742112, "lat": 35.8613862, "lon": 44.0065692}, {"type": "node", "id": 9905742113, "lat": 35.8612854, "lon": 44.006757}, {"type": "node", "id": 9905742114, "lat": 35.861447, "lon": 44.007062}, {"type": "node", "id": 9905742115, "lat": 35.8613662, "lon": 44.0074338}, {"type": "node", "id": 9905742116, "lat": 35.8608023, "lon": 44.0081411}, {"type": "node", "id": 9905753017, "lat": 35.8610711, "lon": 44.0077423}, {"type": "node", "id": 9905753018, "lat": 35.8616485, "lon": 44.0099838}, {"type": "node", "id": 9905753019, "lat": 35.8631663, "lon": 44.0109036}, {"type": "node", "id": 9905753020, "lat": 35.8639358, "lon": 44.0116213}, {"type": "node", "id": 9905753021, "lat": 35.8642473, "lon": 44.0120253}, {"type": "node", "id": 9905753022, "lat": 35.8641118, "lon": 44.0122539}, {"type": "node", "id": 9905753023, "lat": 35.8643122, "lon": 44.0125002}, {"type": "node", "id": 9905753024, "lat": 35.8644162, "lon": 44.0123316}, {"type": "node", "id": 9905753025, "lat": 35.8647881, "lon": 44.0128589}, {"type": "node", "id": 9905753026, "lat": 35.8647846, "lon": 44.0133329}, {"type": "node", "id": 9905753027, "lat": 35.8650593, "lon": 44.0136921}, {"type": "node", "id": 9905753028, "lat": 35.864428, "lon": 44.0146228}, {"type": "node", "id": 9905753029, "lat": 35.8661407, "lon": 44.0152701}, {"type": "node", "id": 9905753030, "lat": 35.8662988, "lon": 44.0149288}, {"type": "node", "id": 9905753031, "lat": 35.8663189, "lon": 44.015432}, {"type": "node", "id": 9905753032, "lat": 35.8665036, "lon": 44.0151546}, {"type": "node", "id": 9905753033, "lat": 35.8660362, "lon": 44.014659}, {"type": "node", "id": 9905753034, "lat": 35.8661457, "lon": 44.0144953}, {"type": "node", "id": 9905753035, "lat": 35.8657806, "lon": 44.0141613}, {"type": "node", "id": 9905753036, "lat": 35.866497, "lon": 44.01311}, {"type": "node", "id": 9905753037, "lat": 35.868134, "lon": 44.0081916}, {"type": "node", "id": 9905753038, "lat": 35.8651773, "lon": 44.0052808}, {"type": "node", "id": 9925170356, "lat": 35.8301401, "lon": 44.4022619, "tags": {"name": "\u0634\u06d5\u0648\u06af\u06ce\u0695", "name:ckb": "\u0634\u06d5\u0648\u06af\u06ce\u0695", "name:en": "Shawger", "name:ku": "\u015eewg\u00earr", "place": "village"}}, {"type": "node", "id": 9935409037, "lat": 35.7684919, "lon": 44.3988263, "tags": {"name": "\u0639\u06d5\u0644\u06cc \u0628\u06d5\u06cc\u0627\u0646", "name:ckb": "\u0639\u06d5\u0644\u06cc \u0628\u06d5\u06cc\u0627\u0646", "place": "village"}}, {"type": "node", "id": 9935441247, "lat": 35.6856242, "lon": 44.2838425, "tags": {"name": "\u06cc\u0627\u0631\u0645\u0686\u06d5\u06cc \u06a9\u06c6\u0646", "name:ar": "\u06cc\u0627\u0631\u0645\u062c\u0629 \u0627\u0644\u0642\u062f\u06cc\u0645\u0629", "name:en": "old yarmche", "place": "village"}}, {"type": "node", "id": 9936296118, "lat": 35.8219804, "lon": 44.3522355, "tags": {"name": "\u062f\u06ce", "place": "village"}}, {"type": "node", "id": 10055600584, "lat": 36.0831381, "lon": 44.3497979, "tags": {"name": "\u0628\u0627\u0646\u06d5\u0642\u06d5\u06b5\u0627\u062a \u06af\u06d5\u0631\u062f\u06cc", "name:ar": "\u0628\u0627\u0646\u0629\u0642\u0644\u0627\u062a \u06af\u0631\u062f\u064a", "name:ckb": "\u0628\u0627\u0646\u06d5\u0642\u06d5\u06b5\u0627\u062a \u06af\u06d5\u0631\u062f\u06cc", "name:en": "Banaqallat Gardi", "place": "village"}}, {"type": "node", "id": 10055612422, "lat": 36.0801033, "lon": 44.3556559, "tags": {"name": "\u0628\u0627\u0646\u06d5\u0642\u06d5\u06b5\u0627\u062a \u0634\u06ce\u062e\u0627\u0646", "name:ar": "\u0628\u0627\u0646\u0629\u0642\u0644\u0627\u062a \u0634\u06cc\u062e\u0627\u0646", "name:ckb": "\u0628\u0627\u0646\u06d5\u0642\u06d5\u06b5\u0627\u062a \u0634\u06ce\u062e\u0627\u0646", "name:en": "Banaqallat Sh\u00eakhan", "place": "village"}}, {"type": "node", "id": 10055620092, "lat": 36.0237037, "lon": 44.270651, "tags": {"name": "\u0634\u06cc\u0648\u06d5\u067e\u06cc\u0631\u0627\u0646", "name:ar": "\u0634\u06cc\u0648\u0629\u0628\u064a\u0631\u0627\u0646", "name:ckb": "\u0634\u06cc\u0648\u06d5\u067e\u06cc\u0631\u0627\u0646", "name:en": "Shiwapiran", "name:ku": "\u015e\u00eewep\u00eeran", "place": "village", "wikipedia": "ckb:\u0634\u06cc\u0648\u06d5\u067e\u06cc\u0631\u0627\u0646"}}, {"type": "node", "id": 10055629164, "lat": 36.0094804, "lon": 44.3960362, "tags": {"name": "\u0628\u0627\u06cc\u0632\u0626\u0627\u063a\u0627", "name:ar": "\u0628\u0627\u06cc\u0632\u0622\u063a\u0627", "name:en": "Baizagha", "place": "village"}}, {"type": "node", "id": 10055674695, "lat": 36.026945, "lon": 44.4470785, "tags": {"name": "\u062f\u0627\u0631\u0628\u06d5\u0633\u06d5\u0631\u06cc \u06af\u06d5\u0648\u0631\u06d5", "name:ar": "\u062f\u0627\u0631\u0628\u0633\u0631 \u06a9\u0628\u06cc\u0631", "name:en": "Darbasari Gawra", "place": "village"}}, {"type": "node", "id": 10055678453, "lat": 36.045976, "lon": 44.3817026, "tags": {"name": "\u0628\u0627\u0646\u06cc\u0645\u0627\u0631\u0627\u0646", "name:ar": "\u0628\u0627\u0646\u06cc\u0645\u0627\u0631\u0627\u0646", "name:en": "Banimaran", "place": "village"}}, {"type": "node", "id": 10055681925, "lat": 35.9929709, "lon": 44.4874063, "tags": {"name": "\u062f\u0627\u0631\u0628\u06d5\u0633\u06d5\u0631\u06cc \u06af\u0686\u06a9\u06d5", "name:ar": "\u062f\u0627\u0631\u0628\u0633\u0631 \u0635\u063a\u0631\u06cc", "name:en": "Darbasari Gchka", "place": "village"}}, {"type": "node", "id": 10055689644, "lat": 36.0554557, "lon": 44.4138565, "tags": {"name": "\u0634\u0627\u062e\u06d5\u067e\u06cc\u0633\u06a9\u06d5", "name:ar": "\u0634\u0627\u062e\u0628\u064a\u0633\u06a9\u0629", "name:ckb": "\u0634\u0627\u062e\u06d5\u067e\u06cc\u0633\u06a9\u06d5", "name:en": "Shakhapiska", "name:ku": "\u015eaxep\u00eeske", "place": "village", "wikipedia": "ckb:\u0634\u0627\u062e\u06d5\u067e\u06cc\u0633\u06a9\u06d5"}}, {"type": "node", "id": 10056291816, "lat": 35.8617634, "lon": 44.4002904, "tags": {"name": "\u0633\u06ce\u06a9\u0627\u0646\u06cc", "name:ar": "\u0633\u064a\u0643\u0627\u0646\u064a", "name:ckb": "\u0633\u06ce\u06a9\u0627\u0646\u06cc", "name:en": "Sekani", "name:ku": "S\u00eakan\u00ee", "place": "village", "wikipedia": "ckb:\u0633\u06ce\u06a9\u0627\u0646\u06cc\u060c \u06a9\u06c6\u06cc\u06d5"}}, {"type": "node", "id": 10056306682, "lat": 35.9140092, "lon": 44.4897342, "tags": {"name": "\u0626\u06c6\u0645\u06d5\u0631\u06af\u0648\u0645\u0628\u06d5\u062a", "name:ar": "\u0623\u0648\u0645\u0631\u0643\u0645\u0628\u062a", "name:ckb": "\u0626\u06c6\u0645\u06d5\u0631\u06af\u0648\u0645\u0628\u06d5\u062a", "name:en": "Omargumbat", "name:ku": "Omergumbet", "place": "village", "wikipedia": "ckb:\u0626\u06c6\u0645\u06d5\u0631\u06af\u0648\u0645\u0628\u06d5\u062a"}}, {"type": "node", "id": 10056308019, "lat": 35.8893991, "lon": 44.3909756, "tags": {"name": "\u0642\u06d5\u0645\u0628\u06d5\u0631", "name:ar": "\u0642\u0645\u0628\u0631", "name:ckb": "\u0642\u06d5\u0645\u0628\u06d5\u0631", "name:en": "Qambar", "name:ku": "Qember", "place": "village", "wikipedia": "ckb:\u0642\u06d5\u0645\u0628\u06d5\u0631"}}, {"type": "node", "id": 10056311172, "lat": 35.8481807, "lon": 44.3670954, "tags": {"alt_name": "\u0695\u06d5\u062d\u0645\u0627\u0646\u0627\u0648\u0627", "alt_name:ku": "Rehmanawa", "name": "\u062a\u0627\u0632\u06d5\u062f\u06ce\u06cc \u06af\u06d5\u0648\u0631\u06d5", "name:ar": "\u062a\u0627\u0632\u0629\u062f\u06cc \u06a9\u0628\u06cc\u0631", "name:ckb": "\u062a\u0627\u0632\u06d5\u062f\u06ce\u06cc \u06af\u06d5\u0648\u0631\u06d5", "name:en": "Tazadey Gawra", "name:ku": "Tazed\u00eay Gewre", "place": "village", "wikipedia": "ckb:\u062a\u0627\u0632\u06d5\u062f\u06ce\u06cc \u06af\u06d5\u0648\u0631\u06d5"}}, {"type": "node", "id": 10056312636, "lat": 35.8753754, "lon": 44.3185481, "tags": {"name": "\u06a9\u0627\u0646\u06cc \u0633\u0644\u06ce\u0645\u0627\u0646\u06d5", "name:ar": "\u06a9\u0627\u0646\u064a \u0633\u0644\u06cc\u0645\u0627\u0646\u0629", "name:en": "Kani Sl\u00eamana", "place": "village"}}, {"type": "node", "id": 10056326503, "lat": 35.8424438, "lon": 44.3793967, "tags": {"name": "\u0633\u06d5\u0631\u0628\u06d5\u0633\u062a", "name:ar": "\u0633\u0631\u0628\u0633\u062a", "name:ckb": "\u0633\u06d5\u0631\u0628\u06d5\u0633\u062a", "name:en": "Sarbast", "name:ku": "Serbest", "place": "village", "wikipedia": "ckb:\u0633\u06d5\u0631\u0628\u06d5\u0633\u062a"}}, {"type": "node", "id": 10057969357, "lat": 35.9629118, "lon": 44.512477, "tags": {"name": "\u0626\u06cc\u0644\u06cc\u0646\u062c\u0627\u063a\u06cc \u06af\u06d5\u0648\u0631\u06d5", "name:ar": "\u0627\u0644\u0646\u062c\u0627\u063a \u06a9\u0628\u0631\u06cc", "name:en": "Ilnjaghi Gawra", "place": "village"}}, {"type": "node", "id": 10173062656, "lat": 36.0828458, "lon": 44.3118398, "tags": {"name": "\u0642\u06d5\u0628\u0631\u0628\u06d5\u062a\u0627\u0646", "name:ar": "\u0642\u0628\u0631\u0628\u062a\u0627\u0646", "name:en": "Qabrbatan", "place": "village"}}, {"type": "node", "id": 10241643954, "lat": 35.6622464, "lon": 44.2414491, "tags": {"name": "\u0634\u0627\u0646\u0634\u06cc\u0646", "name:ar": "\u0634\u0627\u0646\u0634\u064a\u0646", "name:ckb": "\u0634\u0627\u0646\u0634\u06cc\u0646", "name:en": "Shansheen", "name:ku": "\u0634\u0627\u0646\u0634\u06cc\u0646", "place": "village", "population": "270", "population:date": "1977"}}, {"type": "node", "id": 10241643955, "lat": 35.6518154, "lon": 44.2601862, "tags": {"name": "\u0642\u06d5\u0632\u0646\u06d5\u0641\u06d5\u0631", "name:ar": "\u0642\u0632\u0646\u0641\u0631", "name:ckb": "\u0642\u06d5\u0632\u0646\u06d5\u0641\u06d5\u0631", "name:en": "Qaznafar", "name:ku": "\u0642\u06d5\u0632\u0646\u06d5\u0641\u06d5\u0631", "place": "village", "population": "124", "population:date": "1977"}}, {"type": "node", "id": 10857436991, "lat": 35.8522246, "lon": 44.4504082, "tags": {"name": "\u062d\u06d5\u0645\u062f\u0648\u0646", "name:ar": "\u062d\u0645\u062f\u0648\u0646", "name:en": "Hamdun", "place": "village"}}, {"type": "node", "id": 10857458746, "lat": 35.8546221, "lon": 44.4357962, "tags": {"name": "\u062f\u06d5\u0631\u0645\u0627\u0646\u0627\u0648\u0627", "place": "village"}}, {"type": "node", "id": 11162409988, "lat": 35.8234137, "lon": 44.3550395, "tags": {"name": "\u062a\u0648\u06b5\u06a9\u06cc", "name:ar": "\u062a\u0648\u0644\u06a9\u064a", "name:en": "Tulky", "place": "village"}}, {"type": "node", "id": 11162469276, "lat": 35.8031948, "lon": 44.3507154, "tags": {"description": "Before the Anfal process, Tolki village was here, later it was destroyed. When it was rebuilt, Tolki village was relocated near Zey Bachuk", "name": "\u062a\u06c6\u06b5\u06a9\u06cc \u06a9\u06c6\u0646", "name:ar": "\u062a\u0648\u0644\u06a9\u064a \u0627\u0644\u0642\u062f\u06cc\u0645", "name:en": "Old Tolky", "place": "village"}}, {"type": "node", "id": 11162492983, "lat": 35.8319781, "lon": 44.3854295, "tags": {"name": "\u06a9\u0627\u0648\u0644\u06d5\u0633\u0648\u0627\u0631", "name:ar": "\u06a9\u0627\u0648\u0644\u0629\u0633\u0648\u0627\u0631", "name:en": "Kawlaswar", "place": "village"}}, {"type": "node", "id": 11162503584, "lat": 35.8536471, "lon": 44.4911847, "tags": {"name": "\u0645\u06d5\u0631\u0632\u06cc\u062e\u06d5\u06cc \u062e\u0648\u0627\u0631\u0648\u0648", "name:ar": "\u0645\u0631\u0632\u06cc\u062e\u0629\u0633\u0641\u0644\u06cc", "name:en": "Marzikha Lower", "place": "village"}}, {"type": "node", "id": 11162636468, "lat": 35.6477602, "lon": 44.4697557}, {"type": "node", "id": 11162636469, "lat": 35.6493348, "lon": 44.4717703}, {"type": "node", "id": 11162636470, "lat": 35.6500346, "lon": 44.4732158}, {"type": "node", "id": 11162636471, "lat": 35.6492848, "lon": 44.4748613}, {"type": "node", "id": 11162636472, "lat": 35.6475353, "lon": 44.4752458}, {"type": "node", "id": 11162636473, "lat": 35.6472479, "lon": 44.4737694}, {"type": "node", "id": 11162636474, "lat": 35.6462856, "lon": 44.4731851}, {"type": "node", "id": 11162636475, "lat": 35.6455358, "lon": 44.4725546}, {"type": "node", "id": 11162636476, "lat": 35.6450734, "lon": 44.4712628}, {"type": "node", "id": 11162636477, "lat": 35.644611, "lon": 44.4700018}, {"type": "node", "id": 11162636478, "lat": 35.6460107, "lon": 44.4693559}, {"type": "node", "id": 11162636479, "lat": 35.6469479, "lon": 44.4691714}, {"type": "node", "id": 11162719549, "lat": 35.7073113, "lon": 44.4854755, "tags": {"name": "\u062d\u0627\u062c\u06cc \u0628\u06d5\u06cc\u062e\u0627\u0646\u06cc \u062e\u0648\u0627\u0631\u0648\u0648", "name:en": "Haji baikhani lower", "place": "village"}}, {"type": "node", "id": 11162724174, "lat": 35.7172782, "lon": 44.4092579, "tags": {"name": "\u062d\u06d5\u0633\u0627\u0631\u06cc \u062a\u06d5\u0647\u0627", "name:ar": "\u062d\u0635\u0627\u0631 \u0637\u0647", "name:en": "Hasari Taha", "place": "village"}}, {"type": "node", "id": 11162756855, "lat": 35.6873111, "lon": 44.4597781, "tags": {"name": "\u062c\u0627\u0646\u0642\u0632\u06cc \u062e\u0648\u0627\u0631\u0648\u0648", "name:ar": "\u062c\u0627\u0646\u0642\u0632 \u0633\u0641\u0644\u06cc", "name:en": "Janqz lower", "place": "village"}}, {"type": "node", "id": 11162766354, "lat": 35.7576882, "lon": 44.46747, "tags": {"name": "\u062c\u06d5\u0648\u06d5\u062c\u06d5\u0648\u06d5", "name:ar": "\u062c\u0648\u0629\u062c\u0648\u0629", "name:en": "Jawajawa", "place": "village"}}, {"type": "node", "id": 11162786654, "lat": 35.7908724, "lon": 44.4916344, "tags": {"name": "\u062d\u06d5\u0633\u06d5\u0646 \u0642\u06d5\u0628\u0627\u063a", "name:ar": "\u062d\u0633\u0646 \u0642\u0628\u0627\u063a", "name:en": "Hassan Qabagh", "place": "village"}}, {"type": "node", "id": 11198471472, "lat": 35.9763522, "lon": 44.0416333}, {"type": "node", "id": 11198471478, "lat": 35.9779424, "lon": 44.0413765}, {"type": "node", "id": 11250041911, "lat": 35.884696, "lon": 44.0539604}, {"type": "node", "id": 11250041912, "lat": 35.8850794, "lon": 44.054263}, {"type": "node", "id": 11250041913, "lat": 35.8844078, "lon": 44.0534179}, {"type": "node", "id": 11250041914, "lat": 35.8840611, "lon": 44.0533916}, {"type": "node", "id": 11250041915, "lat": 35.883896, "lon": 44.0537919}, {"type": "node", "id": 11250041916, "lat": 35.8833464, "lon": 44.0537244}, {"type": "node", "id": 11250041917, "lat": 35.8832885, "lon": 44.0543785}, {"type": "node", "id": 11250041918, "lat": 35.8833918, "lon": 44.0546494}, {"type": "node", "id": 11250041919, "lat": 35.8835758, "lon": 44.0548512}, {"type": "node", "id": 11250041920, "lat": 35.8837299, "lon": 44.0550695}, {"type": "node", "id": 11250041921, "lat": 35.8829913, "lon": 44.0554483}, {"type": "node", "id": 11250041922, "lat": 35.8827124, "lon": 44.0553092}, {"type": "node", "id": 11250041923, "lat": 35.882664, "lon": 44.0550865}, {"type": "node", "id": 11250041924, "lat": 35.8818996, "lon": 44.0557764}, {"type": "node", "id": 11250041925, "lat": 35.8820183, "lon": 44.0563869}, {"type": "node", "id": 11250041926, "lat": 35.8830897, "lon": 44.0575874}, {"type": "node", "id": 11250041927, "lat": 35.8833439, "lon": 44.0579288}, {"type": "node", "id": 11250041928, "lat": 35.8856563, "lon": 44.0589557}, {"type": "node", "id": 11250041929, "lat": 35.8858897, "lon": 44.0597103}, {"type": "node", "id": 11250041930, "lat": 35.8862402, "lon": 44.059333}, {"type": "node", "id": 11250041931, "lat": 35.8867209, "lon": 44.0591022}, {"type": "node", "id": 11250041932, "lat": 35.8865399, "lon": 44.061608}, {"type": "node", "id": 11250041933, "lat": 35.8871927, "lon": 44.0610696}, {"type": "node", "id": 11250041934, "lat": 35.8876018, "lon": 44.0619385}, {"type": "node", "id": 11250041935, "lat": 35.8881785, "lon": 44.0604081}, {"type": "node", "id": 11250041936, "lat": 35.8881011, "lon": 44.0611631}, {"type": "node", "id": 11250041937, "lat": 35.8882277, "lon": 44.0615916}, {"type": "node", "id": 11250041938, "lat": 35.8881485, "lon": 44.0600868}, {"type": "node", "id": 11250041939, "lat": 35.8880094, "lon": 44.0589668}, {"type": "node", "id": 11250041940, "lat": 35.8875926, "lon": 44.0591366}, {"type": "node", "id": 11250041941, "lat": 35.8867722, "lon": 44.0594256}, {"type": "node", "id": 11250041942, "lat": 35.8873478, "lon": 44.0598986}, {"type": "node", "id": 11250041943, "lat": 35.8870228, "lon": 44.0597284}, {"type": "node", "id": 11250041944, "lat": 35.864547, "lon": 44.073233}, {"type": "node", "id": 11250041945, "lat": 35.8640226, "lon": 44.0722908}, {"type": "node", "id": 11250041946, "lat": 35.8624911, "lon": 44.0693942}, {"type": "node", "id": 11250041947, "lat": 35.8614023, "lon": 44.0686963}, {"type": "node", "id": 11250041948, "lat": 35.8617727, "lon": 44.0676676}, {"type": "node", "id": 11250041949, "lat": 35.8635683, "lon": 44.066695}, {"type": "node", "id": 11250041950, "lat": 35.863607, "lon": 44.0679065}, {"type": "node", "id": 11250041951, "lat": 35.8644035, "lon": 44.0680025}, {"type": "node", "id": 11250041952, "lat": 35.8646542, "lon": 44.0674132}, {"type": "node", "id": 11250041953, "lat": 35.8655222, "lon": 44.0674888}, {"type": "node", "id": 11250041954, "lat": 35.8655898, "lon": 44.0709646}, {"type": "node", "id": 11250041955, "lat": 35.8656027, "lon": 44.0718212}, {"type": "node", "id": 11250041983, "lat": 35.9417815, "lon": 44.0162303}, {"type": "node", "id": 11250041984, "lat": 35.940751, "lon": 44.0194731}, {"type": "node", "id": 11250041985, "lat": 35.9408441, "lon": 44.0196555}, {"type": "node", "id": 11250041986, "lat": 35.9422358, "lon": 44.0207326}, {"type": "node", "id": 11250041987, "lat": 35.9421575, "lon": 44.0210789}, {"type": "node", "id": 11250041988, "lat": 35.9434774, "lon": 44.0218618}, {"type": "node", "id": 11250041989, "lat": 35.9443561, "lon": 44.0210974}, {"type": "node", "id": 11250041990, "lat": 35.9446487, "lon": 44.0209408}, {"type": "node", "id": 11330749815, "lat": 35.7192646, "lon": 44.1907797, "tags": {"name": "\u06a9\u062a\u06a9\u06d5\u06cc \u0646\u0648\u06ce", "name:ar": "\u06a9\u062a\u06a9\u0629 \u0627\u0644\u062c\u062f\u06cc\u062f", "name:en": "New Ktka", "place": "village"}}, {"type": "node", "id": 11330804032, "lat": 35.7842052, "lon": 44.1569151, "tags": {"name": "\u0686\u06c6\u0645\u06d5 \u0632\u06d5\u0631\u062f\u06d5\u06b5\u06d5\u06cc \u06af\u06d5\u0648\u0631\u06d5", "name:ar": "\u062c\u0648\u0645\u0629\u0632\u0631\u062f\u0644\u0629\u064a \u0627\u0644\u06a9\u0628\u06cc\u0631", "name:en": "Great Chomazardala", "place": "village"}}, {"type": "node", "id": 11331190034, "lat": 35.6610011, "lon": 44.2921332, "tags": {"name": "\u0628\u06cc\u0628\u0627\u0646\u06cc \u0646\u0648\u06ce", "name:ar": "\u0628\u064a\u0628\u0627\u0646\u064a \u0627\u0644\u062c\u062f\u064a\u062f", "name:en": "New Bibani", "place": "village"}}, {"type": "node", "id": 11331222517, "lat": 35.6682944, "lon": 44.3427863, "tags": {"name": "\u0628\u06cc\u0628\u0627\u0646\u06cc \u06af\u06d5\u0648\u0631\u06d5", "name:en": "Great Biban", "place": "village"}}, {"type": "node", "id": 11331226611, "lat": 35.6795203, "lon": 44.31627, "tags": {"name": "\u0632\u06d5\u0631\u062f\u06a9", "name:ar": "\u0632\u0631\u062f\u06a9", "name:en": "Zardk", "place": "village"}}, {"type": "node", "id": 11331345245, "lat": 35.7239703, "lon": 44.2446395, "tags": {"name": "\u06af\u06d5\u0648\u06d5\u0646\u06cc", "name:ar": "\u06a9\u0629\u0648\u0646\u064a", "name:en": "Gawani", "place": "village"}}, {"type": "node", "id": 11351292481, "lat": 35.6443981, "lon": 44.0038725, "tags": {"name": "\u062f\u0695\u06a9\u06d5\u06cc \u06af\u06d5\u0648\u0631\u06d5", "name:ar": "\u062f\u0631\u06a9\u0629 \u0627\u0644\u0635\u063a\u06cc\u0631", "name:en": "Great Drka", "place": "village"}}, {"type": "node", "id": 11363654656, "lat": 35.706552, "lon": 44.0452053, "tags": {"name": "\u0633\u06d5\u0631\u062a\u0648\u0648", "name:ar": "\u0633\u0631\u062a\u0648", "name:en": "Sartu", "place": "village"}}, {"type": "node", "id": 11363703084, "lat": 35.7690746, "lon": 44.0246678, "tags": {"name": "\u0639\u06d5\u0628\u062f\u0648\u06b5\u06b5\u0627 \u0641\u0627\u062a\u06d5", "name:ar": "\u0639\u0628\u062f\u0627\u0644\u0644\u0647 \u0641\u0627\u062a\u0629", "name:en": "Abdullah Fata", "place": "village"}}, {"type": "node", "id": 11476215234, "lat": 35.8285889, "lon": 44.0878315}, {"type": "node", "id": 11476215235, "lat": 35.8287111, "lon": 44.088542}, {"type": "node", "id": 11476215236, "lat": 35.8282956, "lon": 44.0881546}, {"type": "node", "id": 11647212509, "lat": 35.9710506, "lon": 44.0382904}, {"type": "node", "id": 11647260339, "lat": 35.9711262, "lon": 44.0384857}, {"type": "node", "id": 11647260340, "lat": 35.9711781, "lon": 44.03862}, {"type": "node", "id": 11647260341, "lat": 35.9712173, "lon": 44.0387214}, {"type": "node", "id": 11647260343, "lat": 35.9713656, "lon": 44.0391046}, {"type": "node", "id": 11647260353, "lat": 35.9710409, "lon": 44.0382654}, {"type": "node", "id": 11647260361, "lat": 35.9704566, "lon": 44.0367549}, {"type": "node", "id": 11647260362, "lat": 35.970373, "lon": 44.0365389}, {"type": "node", "id": 11647260363, "lat": 35.9702721, "lon": 44.036278}, {"type": "node", "id": 11647260364, "lat": 35.9701835, "lon": 44.0360489}, {"type": "node", "id": 11647260365, "lat": 35.9700495, "lon": 44.0357027}, {"type": "node", "id": 11647260368, "lat": 35.9697783, "lon": 44.0350015}, {"type": "node", "id": 11647262069, "lat": 35.9696789, "lon": 44.0347446}, {"type": "node", "id": 11647262070, "lat": 35.9696406, "lon": 44.0346457}, {"type": "node", "id": 11647262071, "lat": 35.9694825, "lon": 44.0342371}, {"type": "node", "id": 11647262072, "lat": 35.9693791, "lon": 44.0339698}, {"type": "node", "id": 11647262073, "lat": 35.9692867, "lon": 44.033731}, {"type": "node", "id": 11653478859, "lat": 35.849168, "lon": 44.0252879}, {"type": "node", "id": 11653478860, "lat": 35.849544, "lon": 44.0247128}, {"type": "node", "id": 11653478878, "lat": 35.863549, "lon": 44.006709}, {"type": "node", "id": 11653478879, "lat": 35.863982, "lon": 44.0072283}, {"type": "node", "id": 11654102617, "lat": 35.9807254, "lon": 44.0313586}, {"type": "node", "id": 11655445775, "lat": 35.9755067, "lon": 44.0318149}, {"type": "node", "id": 11655445800, "lat": 35.9749496, "lon": 44.0318775}, {"type": "node", "id": 11655487837, "lat": 35.9710726, "lon": 44.0325711}, {"type": "node", "id": 11658300521, "lat": 36.0260692, "lon": 44.0210733}, {"type": "node", "id": 11658300522, "lat": 36.0255691, "lon": 44.0199403}, {"type": "node", "id": 11658300523, "lat": 36.0264135, "lon": 44.0187632}, {"type": "node", "id": 11658300524, "lat": 36.0250553, "lon": 44.0194216}, {"type": "node", "id": 11658300525, "lat": 36.0253713, "lon": 44.021078}, {"type": "node", "id": 11658300526, "lat": 36.0246637, "lon": 44.0206105}, {"type": "node", "id": 11662235235, "lat": 35.9424178, "lon": 44.0166036}, {"type": "node", "id": 11663647178, "lat": 36.024126, "lon": 44.0210018}, {"type": "node", "id": 11663647179, "lat": 36.024365, "lon": 44.0210467}, {"type": "node", "id": 11663647180, "lat": 36.024464, "lon": 44.020902}, {"type": "node", "id": 11663647181, "lat": 36.0245552, "lon": 44.0207689}, {"type": "node", "id": 11663647182, "lat": 36.024626, "lon": 44.0206656}, {"type": "node", "id": 11663647183, "lat": 36.0249065, "lon": 44.0207709}, {"type": "node", "id": 11663647184, "lat": 36.0250704, "lon": 44.0208407}, {"type": "node", "id": 11663647185, "lat": 36.0252195, "lon": 44.0209589}, {"type": "node", "id": 11663647186, "lat": 36.0254621, "lon": 44.0211725}, {"type": "node", "id": 11665484661, "lat": 36.0256219, "lon": 44.0199333}, {"type": "node", "id": 11665484662, "lat": 36.025588, "lon": 44.0199378}, {"type": "node", "id": 11694978180, "lat": 35.9440255, "lon": 44.0726111}, {"type": "way", "id": 298911925, "nodes": [3028741212, 3028741213, 3028741214, 3028741215, 3028741216, 3028741217, 3028741218, 3028741219, 3028741220, 3028741221, 3028741222, 3028741223, 3028741212], "tags": {"name": "\u0628\u0627\u0646\u06d5\u0642\u06d5\u06b5\u0627\u062a \u0634\u06ce\u062e\u0627\u0646", "name:ckb": "\u0628\u0627\u0646\u06d5\u0642\u06d5\u06b5\u0627\u062a \u0634\u06ce\u062e\u0627\u0646", "place": "village", "source": "Bing"}}, {"type": "way", "id": 298911926, "nodes": [3028741224, 3028741225, 3028741226, 3028741227, 3028741228, 3028741229, 3028741230, 3028741231, 3028741232, 3028741333, 3028741334, 3028741335, 3028741224], "tags": {"name": "\u0628\u0627\u0646\u06d5\u0642\u06d5\u06b5\u0627\u062a \u06af\u06d5\u0631\u062f\u06cc", "name:ckb": "\u0628\u0627\u0646\u06d5\u0642\u06d5\u06b5\u0627\u062a \u06af\u06d5\u0631\u062f\u06cc", "place": "village", "source": "Bing"}}, {"type": "way", "id": 301356330, "nodes": [3054176265, 3054176266, 3054176267, 11250041990, 11250041989, 3054176268, 11250041988, 3054176269, 11250041987, 11250041986, 3054176270, 11250041985, 11250041984, 3054176271, 3054176272, 11250041983, 11662235235, 3054176265], "tags": {"admin_level": "9", "place": "village"}}, {"type": "way", "id": 303381078, "nodes": [3077355491, 3077355492, 6691145944, 6691145943, 3077355493, 3077355494, 4861960813, 4861960812, 3077355495, 3077355496, 6043383972, 3077355497, 3077355498, 3077354840, 3077355499, 3077355491], "tags": {"landuse": "residential", "place": "village"}}, {"type": "way", "id": 303382020, "nodes": [3077362872, 3077362873, 3077362874, 3077362875, 3077362876, 3077362872], "tags": {"landuse": "residential", "place": "village"}}, {"type": "way", "id": 303404195, "nodes": [3077604453, 3077604454, 3077604455, 3077604456, 3077604453], "tags": {"place": "village"}}, {"type": "way", "id": 303702519, "nodes": [3081044050, 3081044051, 3081044052, 3081044053, 3081044050], "tags": {"place": "village"}}, {"type": "way", "id": 303702850, "nodes": [3081048927, 3081048928, 3081048929, 3081048930, 3081048931, 6124102970, 3081048927], "tags": {"addr:city": "Erbil", "name": "\u0633\u06d5\u0631\u0645\u06d5\u0632\u0631\u0627", "name:ckb": "\u0633\u06d5\u0631\u0645\u06d5\u0632\u0631\u0627", "place": "village"}}, {"type": "way", "id": 303703055, "nodes": [3081059310, 3081059311, 3081059312, 3081059313, 3081059314, 3081059310], "tags": {"place": "village"}}, {"type": "way", "id": 305085248, "nodes": [3096596997, 6361259754, 6361259755, 3096596998, 3096596999, 6361259753, 3096597000, 3096597001, 6361259752, 3096597002, 6361259756, 6361367931, 3096597003, 6361367932, 3096596997], "tags": {"admin_level": "9", "place": "village"}}, {"type": "way", "id": 305612312, "nodes": [3102610603, 11198471478, 11198471472, 3102610604, 3102610605, 11647260343, 11647260341, 11647260340, 11647260339, 11647212509, 11647260353, 11647260361, 11647260362, 11647260363, 11647260364, 11647260365, 11647260368, 11647262069, 11647262070, 11647262071, 11647262072, 11647262073, 3102610606, 11655487837, 3102610607, 11655445800, 11655445775, 3102610608, 11654102617, 3102610609, 5792916215, 3102610603], "tags": {"landuse": "residential", "name": "\u06a9\u06c6\u0645\u06d5\u06b5\u06af\u0627\u06cc \u06a9\u0627\u0648\u06d5", "name:ar": "\u06a9\u06c6\u0645\u06d5\u06b5\u06af\u0627\u06cc \u06a9\u0627\u0648\u06d5", "name:ckb": "\u06a9\u06c6\u0645\u06d5\u06b5\u06af\u0627\u06cc \u06a9\u0627\u0648\u06d5", "name:en": "\u06a9\u06c6\u0645\u06d5\u06b5\u06af\u0627\u06cc \u06a9\u0627\u0648\u06d5", "place": "village"}}, {"type": "way", "id": 305612464, "nodes": [3102611529, 5231361218, 5231361217, 5231361216, 3102611530, 5231361215, 5231361214, 5231361213, 5231361212, 5231361211, 5231361209, 5231361210, 5231361208, 5231361207, 5231361206, 5231361205, 3102611531, 5231361204, 5231361203, 5231361202, 3102611532, 5231361200, 5231361201, 3102611533, 5231361196, 5231361198, 5231361197, 5231361199, 3102611534, 5231361195, 5231361194, 5231361193, 5231361188, 5231361189, 5231361187, 5231361219, 6119441424, 5231361190, 5231361191, 5231361192, 3102611529], "tags": {"admin_level": "9", "name": "\u0642\u0648\u0644\u062a\u06d5\u067e\u06d5 \u06cc\u0627\u0628\u06d5", "name:ckb": "\u0642\u0648\u0644\u062a\u06d5\u067e\u06d5 \u06cc\u0627\u0628\u06d5", "place": "village"}}, {"type": "way", "id": 305791956, "nodes": [3104601550, 3104601551, 3104601552, 4708960404, 3104601553, 3104601554, 3104601555, 4708960405, 3104601556, 3104601550], "tags": {"admin_level": "9", "place": "village"}}, {"type": "way", "id": 305791958, "nodes": [3104601579, 6362537498, 3104601580, 6362537497, 3104601581, 3104601582, 6362537496, 6362537499, 6362537500, 3104601583, 3104601579], "tags": {"admin_level": "9", "name": "\u06af\u0631\u062f\u0644\u0627\u0646\u06a9\u06d5", "name:ckb": "\u06af\u0648\u0646\u062f\u06cc \u06af\u0631\u062f\u0644\u0627\u0646\u06a9\u06d5", "name:ku": "Girdlanke", "place": "village", "religion": "muslim"}}, {"type": "way", "id": 305792180, "nodes": [3104605127, 3104605128, 6361303974, 6361303975, 3104608429, 6361303973, 11476215234, 11476215236, 11476215235, 6357857897, 6357857896, 3104608430, 6357857900, 6357857901, 6357857898, 6357857899, 3104605127], "tags": {"admin_level": "9", "name": "\u0626\u06c6\u0645\u06d5\u0631\u0627\u0648\u06d5\u06cc \u0628\u0686\u0648\u0648\u06a9", "name:ar": "\u0622\u0648\u0645\u0631\u0627\u0648\u0629 \u0628\u062c\u0648\u0643", "name:ckb": "\u0626\u06c6\u0645\u06d5\u0631\u0627\u0648\u06d5\u06cc \u0628\u0686\u0648\u0648\u06a9", "name:en": "Umarawah bchuk", "place": "village"}}, {"type": "way", "id": 305924116, "nodes": [3106214665, 6652969600, 6652969601, 9905742111, 9905742112, 9905742113, 9905742114, 9905742115, 9905753017, 9905742116, 3106214666, 9905753018, 6222998368, 9905753019, 9905753020, 9905753021, 9905753022, 9905753023, 9905753024, 9905753025, 9905753026, 9905753027, 9905753028, 5396432828, 3106214667, 9905753029, 9905753031, 9905753032, 9905753030, 9905753033, 9905753034, 9905753035, 9905753036, 3106214668, 9905753037, 3106214669, 6652969659, 6652969660, 6652969658, 9905753038, 6652969657, 6652969605, 6652969596, 6652969595, 6652969599, 6652969594, 6652969593, 6652969592, 6652969598, 6652969591, 6652969590, 6652969589, 6652969588, 6652969597, 6652969604, 11653478879, 6652969587, 6652969586, 6652969585, 6652868183, 11653478878, 6652969603, 6652868184, 6652969602, 3106214665], "tags": {"admin_level": "9", "name": "\u0628\u0627\u0634\u062a\u06d5\u067e\u06d5", "name:ckb": "\u06af\u0648\u0646\u062f\u06cc \u0628\u0627\u0634\u062a\u06d5\u067e\u06d5", "place": "village", "religion": "muslim"}}, {"type": "way", "id": 305924379, "nodes": [3106221180, 3106221181, 11653478860, 11653478859, 3106221182, 3106221183, 3106221184, 3106221180], "tags": {"admin_level": "9", "name": "\u0639\u06d5\u0644\u06cc\u0627\u0648\u06d5", "name:ckb": "\u0639\u06d5\u0644\u06cc\u0627\u0648\u06d5", "place": "village"}}, {"type": "way", "id": 307962422, "nodes": [3132220802, 3132220803, 8603597392, 3132220804, 8603597381, 8603597431, 3132220805, 3132220806, 3132220802], "tags": {"place": "village"}}, {"type": "way", "id": 307962423, "nodes": [3132220807, 3132220808, 3132220809, 3132220810, 3132220811, 3132220812, 3132220807], "tags": {"name": "\u06af\u06d5\u0695\u06d5 \u0634\u06ce\u062e\u0627\u0646", "place": "village"}}, {"type": "way", "id": 307962501, "nodes": [3132224823, 3132224824, 3132224825, 3132224826, 3132224827, 6819339725, 3132224828, 11694978180, 3132224823], "tags": {"name": "\u06af\u0648\u0646\u062f\u06cc \u062f\u06c6\u0631\u06d5\u0628\u06d5\u06a9\u0631\u06d5", "name:ckb": "\u06af\u0648\u0646\u062f\u06cc \u062f\u06c6\u0631\u06d5\u0628\u06d5\u06a9\u0631\u06d5", "name:en": "Dawlah Bakrah", "place": "village"}}, {"type": "way", "id": 307962531, "nodes": [3132224414, 3132224415, 3132224416, 3132224417, 3132224418, 3132224414], "tags": {"admin_level": "9", "name": "Dolaza", "place": "village"}}, {"type": "way", "id": 308148926, "nodes": [3134335211, 11658300524, 3134335212, 11663647178, 3134335213, 11663647179, 11663647180, 11663647181, 11663647182, 11658300526, 11663647183, 11663647184, 11663647185, 11658300525, 11663647186, 3134335214, 11658300521, 11658300522, 11665484662, 11665484661, 3134335215, 11658300523, 3134335211], "tags": {"place": "village"}}, {"type": "way", "id": 460179553, "nodes": [4558560170, 11250041953, 11250041952, 11250041951, 11250041950, 11250041949, 4558560171, 11250041948, 11250041947, 11250041946, 4558560172, 11250041945, 11250041944, 4558560173, 11250041955, 11250041954, 4558560170], "tags": {"admin_level": "9", "place": "village"}}, {"type": "way", "id": 460179560, "nodes": [4558560218, 4558560219, 4558560220, 4558560221, 4558560222, 4558560223, 7167265870, 4558560218], "tags": {"admin_level": "9", "place": "village"}}, {"type": "way", "id": 501979276, "nodes": [4926008141, 4926008140, 4926008139, 4926008138, 4926008137, 4926008136, 4926008135, 4926008134, 4926008141], "tags": {"name": "\u0634\u0648\u0627\u0646", "name:ar": "\u0634\u0648\u0627\u0646", "name:ckb": "\u0634\u0648\u0627\u0646", "place": "town"}}, {"type": "way", "id": 502500293, "nodes": [4929624837, 4929624836, 4929624835, 4929624834, 4929624833, 4929624832, 4929624831, 4929624837], "tags": {"name": "\u062c\u0648\u0644\u062d\u0627\u0646", "place": "village", "residential": "rural"}}, {"type": "way", "id": 808663090, "nodes": [7561683931, 7561683932, 7561683933, 7561683934, 7561683935, 7561683936, 7561683937, 7561683919, 7561683920, 7561683923, 7561683924, 7561683925, 7561683926, 7561683927, 7561683928, 7561683929, 7561683930, 7561683921, 7561683922, 7561683931], "tags": {"name": "\u0645\u06d5\u0645\u0627\u0646 \u06a9\u06c6\u0646 \u0695\u0645\u0627\u0648", "place": "village"}}, {"type": "way", "id": 840830778, "nodes": [7845767972, 7845767973, 7845767974, 7845767975, 7845767976, 7845767977, 7845767978, 7845767960, 7845767961, 7845767964, 7845767965, 7845767966, 7845767967, 7845767968, 7845767969, 7845767970, 7845767971, 7845767962, 7845767963, 7845767972], "tags": {"place": "village"}}, {"type": "way", "id": 844559173, "nodes": [7878480155, 7878480137, 7878480138, 7878480139, 7878480140, 7878480141, 7878480142, 11250041912, 11250041911, 11250041913, 11250041914, 11250041915, 7878480149, 11250041916, 11250041917, 11250041918, 11250041919, 11250041920, 7878480150, 11250041921, 11250041922, 11250041923, 11250041924, 7878480151, 11250041925, 7878480152, 7878480153, 11250041926, 11250041927, 7878480154, 7878480143, 7878480144, 7878480145, 7878480146, 11250041928, 11250041930, 11250041929, 7878480147, 11250041932, 11250041933, 11250041934, 11250041937, 11250041936, 11250041935, 11250041938, 11250041939, 11250041940, 11250041942, 11250041943, 11250041941, 11250041931, 7878480148, 7878480155], "tags": {"admin_level": "9", "place": "village"}}, {"type": "way", "id": 1204394941, "nodes": [11162636468, 11162636469, 11162636470, 11162636471, 11162636472, 11162636473, 11162636474, 11162636475, 11162636476, 11162636477, 11162636478, 11162636479, 11162636468], "tags": {"name": "\u0639\u0648\u0645\u06d5\u0631\u0628\u06d5\u06af", "place": "village", "residential": "rural"}}]}