{"version": 0.6, "generator": "Overpass API 0.7.61.5 4133829e", "osm3s": {"timestamp_osm_base": "2024-03-05T15:10:00Z", "copyright": "The data included in this document is from www.openstreetmap.org. The data is made available under ODbL."}, "elements": [{"type": "node", "id": 112229670, "lat": 68.4405054, "lon": 22.4743151, "tags": {"addr:postcode": "980 16", "name": "Karesuando", "name:fi": "Kaaresuvanto", "name:fit": "Kaaresuanto", "name:ru": "\u041a\u0430\u0440\u0435\u0441\u0443\u0430\u043d\u0434\u043e", "name:se": "G\u00e1rasavvon", "name:sv": "Karesuando", "place": "village", "population": "303", "ref:se:pts:postort": "KARESUANDO", "ref:se:scb": "8664", "start_date": "before 1885", "website": "https://www.karesuando.se/", "wikidata": "Q137860", "wikipedia": "sv:Karesuando"}}, {"type": "node", "id": 486560267, "lat": 68.4499869, "lon": 22.4853399, "tags": {"alt_name:fi": "Karesuvanto", "name": "Kaaresuvanto", "name:fi": "Kaaresuvanto", "name:se": "G\u00e1rasavvon", "place": "village", "wikidata": "Q2305394", "wikipedia": "en:Karesuvanto"}}, {"type": "node", "id": 491487715, "lat": 68.3816797, "lon": 22.8260798, "tags": {"name": "Kuttainen", "name:fi": "Kuttanen", "name:se": "Guhtt\u00e1\u0161", "place": "village", "ref:se:scb": "8704"}}, {"type": "node", "id": 1389815520, "lat": 68.4884196, "lon": 22.2959287, "tags": {"name": "Markkina", "name:fi": "Markkina", "name:se": "Boaresm\u00e1rkan", "place": "hamlet"}}, {"type": "node", "id": 1669963942, "lat": 68.4744629, "lon": 22.2047329, "tags": {"name": "Maunu", "place": "hamlet"}}, {"type": "node", "id": 1670032865, "lat": 68.3627833, "lon": 22.173368, "tags": {"name": "Mertaj\u00e4rvi", "name:fit": "Mertaj\u00e4rvi", "name:se": "Nearv\u00e1", "place": "hamlet", "population": "51"}}, {"type": "node", "id": 1670067424, "lat": 68.315239, "lon": 22.1350201, "tags": {"name": "Idivuoma", "name:se": "A\u0111evuopmi", "place": "village", "population": "96"}}, {"type": "node", "id": 2240053736, "lat": 68.5457947, "lon": 22.0128348, "tags": {"name": "Kelottij\u00e4rvi", "name:fi": "Kelottij\u00e4rvi", "name:se": "Gelotj\u00e1vri", "place": "hamlet", "source": "MML 2012;survey"}}, {"type": "node", "id": 2240054626, "lat": 68.4899044, "lon": 22.0334878, "tags": {"name": "Luspa", "name:fi": "Luspa", "name:se": "Luspi", "place": "village"}}, {"type": "node", "id": 2242740096, "lat": 68.4817757, "lon": 22.2033457, "tags": {"name": "Vikkuri", "name:fi": "Vikkuri", "name:se": "Vikkor", "place": "hamlet"}}, {"type": "node", "id": 2245399928, "lat": 68.4759967, "lon": 22.2204889, "tags": {"name": "Maunu", "name:fi": "Maunu", "name:se": "M\u00e1vdna", "place": "hamlet"}}, {"type": "node", "id": 2249264079, "lat": 68.4384969, "lon": 22.6390988, "tags": {"name": "Jatuni", "name:fi": "Jatuni", "name:se": "J\u00e1hton", "place": "hamlet"}}, {"type": "node", "id": 2945249541, "lat": 68.2106353, "lon": 22.7524629, "tags": {"name": "Suijavaara", "name:fit": "Suijavaara", "name:se": "Sudj\u00e1v\u00e1rri", "place": "hamlet"}}, {"type": "node", "id": 3070266414, "lat": 68.4784228, "lon": 22.1990037, "tags": {"name": "Vikkurinniemi", "place": "hamlet"}}, {"type": "node", "id": 4831203576, "lat": 68.2851941, "lon": 22.596125, "tags": {"name": "Ruodusniemi", "name:fit": "Ruodosniemi", "name:se": "Ruvdosnj\u00e1rga", "place": "hamlet"}}, {"type": "node", "id": 7429950154, "lat": 68.3520984, "lon": 22.185688, "tags": {"name": "Mertaj\u00e4rvi Nearv\u00e1", "place": "village"}}, {"type": "node", "id": 8408655790, "lat": 68.5416753, "lon": 21.9874672, "tags": {"name": "Saarenp\u00e4\u00e4", "place": "hamlet"}}]}