{"version": 0.6, "generator": "Overpass API 0.7.61.5 4133829e", "osm3s": {"timestamp_osm_base": "2024-02-29T13:51:30Z", "copyright": "The data included in this document is from www.openstreetmap.org. The data is made available under ODbL."}, "elements": [{"type": "node", "id": 4006790246, "lat": 35.89781, "lon": 71.7977556, "tags": {"amenity": "school"}}, {"type": "node", "id": 4006790247, "lat": 35.8987045, "lon": 71.8002607, "tags": {"amenity": "school"}}, {"type": "node", "id": 4006861656, "lat": 35.912813, "lon": 71.8052923, "tags": {"amenity": "school"}}, {"type": "node", "id": 4006885626, "lat": 35.92446, "lon": 71.8124086, "tags": {"amenity": "school"}}, {"type": "node", "id": 4006885627, "lat": 35.9247057, "lon": 71.8151845, "tags": {"amenity": "school"}}, {"type": "node", "id": 4006981253, "lat": 35.9356272, "lon": 71.8114023, "tags": {"amenity": "school"}}, {"type": "node", "id": 4007015146, "lat": 35.9769974, "lon": 71.8147358, "tags": {"amenity": "school"}}, {"type": "node", "id": 4007045127, "lat": 35.9910843, "lon": 71.8152156, "tags": {"amenity": "school"}}, {"type": "node", "id": 4007082854, "lat": 35.986591, "lon": 71.8063874, "tags": {"amenity": "school"}}, {"type": "node", "id": 4007082855, "lat": 35.9867186, "lon": 71.8050593, "tags": {"amenity": "school"}}, {"type": "node", "id": 4007085939, "lat": 35.9932459, "lon": 71.8017943, "tags": {"amenity": "school"}}, {"type": "node", "id": 4007196241, "lat": 36.0138862, "lon": 71.7644256, "tags": {"amenity": "school"}}, {"type": "node", "id": 4007196242, "lat": 36.0154391, "lon": 71.7627308, "tags": {"amenity": "school"}}, {"type": "node", "id": 4007196243, "lat": 36.0172335, "lon": 71.764884, "tags": {"amenity": "school"}}, {"type": "node", "id": 4007196244, "lat": 36.0174518, "lon": 71.764655, "tags": {"amenity": "school"}}, {"type": "node", "id": 4007373483, "lat": 35.9965732, "lon": 71.6348227, "tags": {"amenity": "school"}}, {"type": "node", "id": 4007456168, "lat": 36.0055325, "lon": 71.5797254, "tags": {"amenity": "school"}}, {"type": "node", "id": 4007456169, "lat": 36.0082838, "lon": 71.5787484, "tags": {"amenity": "school"}}, {"type": "node", "id": 4008699700, "lat": 36.0353712, "lon": 71.5862402, "tags": {"amenity": "school"}}, {"type": "node", "id": 4009029577, "lat": 36.0724834, "lon": 71.6902501, "tags": {"amenity": "school"}}, {"type": "node", "id": 4009198694, "lat": 35.9163382, "lon": 71.8443192, "tags": {"amenity": "school"}}, {"type": "node", "id": 4009198695, "lat": 35.9189708, "lon": 71.8450353, "tags": {"amenity": "school"}}, {"type": "node", "id": 4009198696, "lat": 35.9193989, "lon": 71.8453765, "tags": {"amenity": "school"}}, {"type": "node", "id": 4009251654, "lat": 35.9314555, "lon": 71.876996, "tags": {"amenity": "school"}}, {"type": "node", "id": 4009302951, "lat": 35.9366588, "lon": 71.8861686, "tags": {"amenity": "school"}}, {"type": "node", "id": 4010494059, "lat": 35.9414596, "lon": 71.8997998, "tags": {"amenity": "school"}}, {"type": "node", "id": 4010534387, "lat": 35.9383503, "lon": 71.9215245, "tags": {"amenity": "school"}}, {"type": "node", "id": 4010534388, "lat": 35.939408, "lon": 71.9252595, "tags": {"amenity": "school"}}, {"type": "node", "id": 4010534689, "lat": 35.940018, "lon": 71.9274867, "tags": {"amenity": "school"}}, {"type": "node", "id": 4010534690, "lat": 35.9435701, "lon": 71.9338865, "tags": {"amenity": "school"}}, {"type": "node", "id": 4010534691, "lat": 35.9456128, "lon": 71.9402265, "tags": {"amenity": "school"}}, {"type": "node", "id": 4010534692, "lat": 35.9468822, "lon": 71.9423907, "tags": {"amenity": "school"}}, {"type": "node", "id": 4010628815, "lat": 35.9754679, "lon": 71.9605737, "tags": {"amenity": "school"}}, {"type": "node", "id": 4010628816, "lat": 35.9784127, "lon": 71.9605069, "tags": {"amenity": "school"}}, {"type": "node", "id": 4010721530, "lat": 35.9672908, "lon": 71.9649896, "tags": {"amenity": "school"}}, {"type": "node", "id": 4010763222, "lat": 35.9793868, "lon": 71.969858, "tags": {"amenity": "school"}}, {"type": "node", "id": 4011092099, "lat": 36.1475029, "lon": 72.0939001, "tags": {"amenity": "school"}}, {"type": "node", "id": 4011092100, "lat": 36.148186, "lon": 72.1121259, "tags": {"amenity": "school"}}, {"type": "node", "id": 4011092101, "lat": 36.1508065, "lon": 72.0954038, "tags": {"amenity": "school"}}, {"type": "node", "id": 4011092102, "lat": 36.1514859, "lon": 72.0980914, "tags": {"amenity": "school"}}, {"type": "node", "id": 4011092103, "lat": 36.1562889, "lon": 72.1026047, "tags": {"amenity": "school"}}, {"type": "node", "id": 4011092104, "lat": 36.1569273, "lon": 72.1059785, "tags": {"amenity": "school"}}, {"type": "node", "id": 4011092105, "lat": 36.1570798, "lon": 72.1011745, "tags": {"amenity": "school"}}, {"type": "node", "id": 4011092106, "lat": 36.1572145, "lon": 72.1013054, "tags": {"amenity": "school"}}, {"type": "node", "id": 4011092107, "lat": 36.1577415, "lon": 72.1011334, "tags": {"amenity": "school"}}, {"type": "node", "id": 4011092108, "lat": 36.1587036, "lon": 72.1066255, "tags": {"amenity": "school"}}, {"type": "node", "id": 4011138257, "lat": 36.1688234, "lon": 72.1094608, "tags": {"amenity": "school"}}, {"type": "node", "id": 4011138258, "lat": 36.1749362, "lon": 72.1161403, "tags": {"amenity": "school"}}, {"type": "node", "id": 4012071736, "lat": 36.2134856, "lon": 72.0909447, "tags": {"amenity": "school"}}, {"type": "node", "id": 4012071737, "lat": 36.2147177, "lon": 72.0905944, "tags": {"amenity": "school"}}, {"type": "node", "id": 4012071738, "lat": 36.2148877, "lon": 72.0903198, "tags": {"amenity": "school"}}, {"type": "node", "id": 4012100867, "lat": 36.2078366, "lon": 72.1054905, "tags": {"amenity": "school"}}, {"type": "node", "id": 4012123335, "lat": 36.2077599, "lon": 72.114057, "tags": {"amenity": "school"}}, {"type": "node", "id": 4012123336, "lat": 36.208861, "lon": 72.1144031, "tags": {"amenity": "school"}}, {"type": "node", "id": 4012123337, "lat": 36.2112278, "lon": 72.1135038, "tags": {"amenity": "school"}}, {"type": "node", "id": 4082704289, "lat": 36.0449235, "lon": 71.7602143, "tags": {"amenity": "school"}}, {"type": "node", "id": 4082704290, "lat": 36.0504692, "lon": 71.7611593, "tags": {"amenity": "school"}}, {"type": "node", "id": 4082704291, "lat": 36.0624399, "lon": 71.762204, "tags": {"amenity": "school"}}, {"type": "node", "id": 5932199747, "lat": 36.0920556, "lon": 71.8377649, "tags": {"amenity": "school", "description": "Added by Suroor", "name": "Al Karim School Susoom"}}, {"type": "node", "id": 6065496059, "lat": 36.0442535, "lon": 71.8512267}, {"type": "node", "id": 6065496060, "lat": 36.04419, "lon": 71.8513458}, {"type": "node", "id": 6065496061, "lat": 36.0439307, "lon": 71.8511345}, {"type": "node", "id": 6065496062, "lat": 36.0439941, "lon": 71.8510154}, {"type": "node", "id": 6072824004, "lat": 36.0420561, "lon": 71.8432115}, {"type": "node", "id": 6072824005, "lat": 36.0418994, "lon": 71.8431671}, {"type": "node", "id": 6072824006, "lat": 36.041873, "lon": 71.8433091}, {"type": "node", "id": 6072824007, "lat": 36.0420297, "lon": 71.8433536}, {"type": "node", "id": 6072824008, "lat": 36.0420402, "lon": 71.8432972}, {"type": "way", "id": 645176148, "nodes": [6065496059, 6065496060, 6065496061, 6065496062, 6065496059], "tags": {"amenity": "school", "name": "Parsan Middle school"}}, {"type": "way", "id": 646296239, "nodes": [6072824004, 6072824005, 6072824006, 6072824007, 6072824008, 6072824004], "tags": {"amenity": "school", "name": "Union School"}}]}