{"version": 0.6, "generator": "Overpass API 0.7.61.5 4133829e", "osm3s": {"timestamp_osm_base": "2024-03-06T11:19:43Z", "copyright": "The data included in this document is from www.openstreetmap.org. The data is made available under ODbL."}, "elements": [{"type": "node", "id": 354334358, "lat": -4.0632688, "lon": 39.6774261, "tags": {"amenity": "bank", "created_by": "Potlatch 0.10f", "name": "Kenya Commercial Bank"}}, {"type": "node", "id": 1098445750, "lat": -4.0627889, "lon": 39.6769198, "tags": {"amenity": "bank", "atm": "yes", "name": "Central Bank Of Kenya"}}, {"type": "node", "id": 1098445773, "lat": -4.0625561, "lon": 39.6774491, "tags": {"amenity": "bank", "atm": "yes", "brand": "Standard Chartered", "brand:wikidata": "Q548278", "name": "Standard Chartered"}}, {"type": "node", "id": 1315220523, "lat": -4.0621949, "lon": 39.6717714, "tags": {"amenity": "bank", "atm": "yes", "name": "CFC"}}, {"type": "node", "id": 1315220540, "lat": -4.0525304, "lon": 39.6616487, "tags": {"amenity": "bank", "atm": "yes", "name": "Barclay", "operator": "Barclay"}}, {"type": "node", "id": 1315220545, "lat": -4.0623921, "lon": 39.671105, "tags": {"addr:city": "Mombasa", "addr:street": "Moi Avenue", "amenity": "bank", "brand": "Bank of Africa", "brand:wikidata": "Q2882627", "name": "Bank of Africa", "short_name": "BOA"}}, {"type": "node", "id": 1456766986, "lat": -4.2824594, "lon": 39.5690851, "tags": {"addr:city": "Diani Beach", "addr:street": "Diani Beach Road", "amenity": "bank", "atm": "yes", "name": "Co-operative Bank"}}, {"type": "node", "id": 1456939364, "lat": -4.2879282, "lon": 39.5870614, "tags": {"amenity": "bank", "atm": "yes", "name": "Imperial Bank", "opening_hours": "24/7"}}, {"type": "node", "id": 1789971544, "lat": -4.2822419, "lon": 39.5676216, "tags": {"addr:city": "Ukunda", "addr:street": "Diani Beach Road", "amenity": "bank", "atm": "yes", "name": "Equity"}}, {"type": "node", "id": 1789973438, "lat": -4.290753, "lon": 39.5853455, "tags": {"addr:city": "Diani Beach", "addr:street": "Diani Beach Road", "amenity": "bank", "atm": "yes", "name": "DTB Diani Branch& ATM"}}, {"type": "node", "id": 1789979277, "lat": -4.2879338, "lon": 39.5657198, "tags": {"amenity": "bank", "atm": "yes", "name": "KCB"}}, {"type": "node", "id": 1891655158, "lat": -4.2819841, "lon": 39.5669157, "tags": {"addr:city": "Ukunda", "addr:street": "Ukunda-Ramisi Road", "amenity": "bank", "name": "KWFT"}}, {"type": "node", "id": 1994642328, "lat": -4.3077028, "lon": 39.57728, "tags": {"amenity": "bank", "name": "Fidelity Bank"}}, {"type": "node", "id": 2261339949, "lat": -4.0606884, "lon": 39.6549864}, {"type": "node", "id": 2261339951, "lat": -4.0608573, "lon": 39.6552587}, {"type": "node", "id": 2261339982, "lat": -4.0609078, "lon": 39.655261}, {"type": "node", "id": 2261339983, "lat": -4.0606478, "lon": 39.6550994}, {"type": "node", "id": 2261339988, "lat": -4.0605846, "lon": 39.6550766}, {"type": "node", "id": 2261339992, "lat": -4.060563, "lon": 39.6551367}, {"type": "node", "id": 2261339994, "lat": -4.0609699, "lon": 39.6550879}, {"type": "node", "id": 2325106023, "lat": -4.0400728, "lon": 39.6809991, "tags": {"addr:city": "Mombasa", "addr:street": "Ras Kisauni Road", "amenity": "bank", "brand": "Equity Bank", "brand:wikidata": "Q5384664", "brand:wikipedia": "en:Equity Bank Kenya Limited", "name": "Equity Bank"}}, {"type": "node", "id": 2832355801, "lat": -4.060366, "lon": 39.672362, "tags": {"amenity": "bank", "name": "Co-operative Bank"}}, {"type": "node", "id": 3252280580, "lat": -4.2994314, "lon": 39.5807357, "tags": {"addr:city": "Ukunda", "addr:street": "Diani Beach Road", "amenity": "bank", "atm": "yes", "name": "Commercial Bank Of Africa - Dian"}}, {"type": "node", "id": 4105016688, "lat": -4.0543249, "lon": 39.6731856, "tags": {"addr:city": "Mombasa", "addr:street": "Abdel Nasser Road", "amenity": "bank", "atm": "yes", "name": "Gulf African Bank"}}, {"type": "node", "id": 4128057796, "lat": -4.0625745, "lon": 39.6716871, "tags": {"amenity": "bank", "brand": "Stanbic Bank", "brand:wikidata": "Q7597999", "name": "Stanbic Bank"}}, {"type": "node", "id": 4128122289, "lat": -4.0582636, "lon": 39.6726187, "tags": {"amenity": "bank", "brand": "Barclays", "brand:wikidata": "Q245343", "brand:wikipedia": "en:Barclays", "name": "Barclays"}}, {"type": "node", "id": 4695022290, "lat": -4.0602518, "lon": 39.6717108, "tags": {"addr:city": "Mombasa", "addr:street": "Haile Selassie Road", "amenity": "bank", "name": "KCB Town Centre Branch"}}, {"type": "node", "id": 5085183421, "lat": -4.0576675, "lon": 39.6688432, "tags": {"addr:postcode": "254", "amenity": "bank", "name": "KCB Mwembe Tayari Branch", "name:en": "KCB Mwembe Tayari Branch", "opening_hours": "Mo-Fr 08:30-04:00; Sa 08:30-12:00"}}, {"type": "node", "id": 5309820920, "lat": -4.0621234, "lon": 39.6688234}, {"type": "node", "id": 5309823321, "lat": -4.0622282, "lon": 39.6692157}, {"type": "node", "id": 5309823322, "lat": -4.0623703, "lon": 39.6691713}, {"type": "node", "id": 5309823323, "lat": -4.0622631, "lon": 39.668786}, {"type": "node", "id": 5826749288, "lat": -4.0653681, "lon": 39.6704693, "tags": {"addr:city": "Mombasa", "addr:postcode": "80100", "addr:street": "Nyerere Road", "amenity": "bank", "name": "Trans - National"}}, {"type": "node", "id": 5826749290, "lat": -4.0648695, "lon": 39.676195, "tags": {"addr:city": "Mombasa", "addr:postcode": "80100", "addr:street": "Mvita Road", "amenity": "bank", "brand": "Bank of Baroda", "brand:wikidata": "Q2003797", "brand:wikipedia": "en:Bank of Baroda", "name": "Bank of Baroda"}}, {"type": "node", "id": 5826749687, "lat": -4.0630578, "lon": 39.6742481, "tags": {"addr:postcode": "80100", "amenity": "bank", "brand": "Barclays", "brand:wikidata": "Q245343", "name": "Barclays"}}, {"type": "node", "id": 5829778238, "lat": -4.0630585, "lon": 39.6759547, "tags": {"addr:postcode": "80100", "addr:street": "Nkrumah Road", "amenity": "bank", "name": "Maritime Forex"}}, {"type": "node", "id": 5985333098, "lat": -4.0425292, "lon": 39.6584276, "tags": {"addr:city": "Mombasa", "addr:street": "Mombasa road", "amenity": "bank", "name": "Co - Operative Bank"}}, {"type": "node", "id": 6022184534, "lat": -4.0387771, "lon": 39.666766, "tags": {"addr:city": "Mombasa", "addr:street": "Polepole road", "amenity": "bank", "name": "National Bank-Technical"}}, {"type": "node", "id": 6022188497, "lat": -4.038258, "lon": 39.6669209, "tags": {"addr:city": "Mombasa", "addr:street": "Tom Mboya road", "amenity": "bank", "name": "National Bank"}}, {"type": "node", "id": 6024551500, "lat": -4.0368288, "lon": 39.6747845, "tags": {"addr:city": "Mombasa", "addr:street": "Mwanjika Road", "amenity": "bank", "name": "Central Bank of Kenya - Tudor Flats"}}, {"type": "node", "id": 6031543829, "lat": -4.0400483, "lon": 39.6808803, "tags": {"addr:city": "Mombasa", "addr:street": "Nyali  Road", "amenity": "bank", "name": "Rafiki Microfinance Bank"}}, {"type": "node", "id": 6031546241, "lat": -4.0399505, "lon": 39.6807145, "tags": {"addr:city": "Mombasa", "addr:street": "Ras Kisauni Road", "amenity": "bank", "atm": "no", "name": "Co - Operative Bank"}}, {"type": "node", "id": 6031546681, "lat": -4.0397572, "lon": 39.6803526, "tags": {"addr:city": "Mombasa", "addr:street": "Ras Kisauni Road", "amenity": "bank", "name": "M-Pesa Rock Land"}}, {"type": "node", "id": 6031546782, "lat": -4.0398014, "lon": 39.6809083, "tags": {"addr:city": "Mombasa", "addr:street": "Links road", "amenity": "bank", "atm": "yes", "name": "KCB bank"}}, {"type": "node", "id": 6048524181, "lat": -4.0516316, "lon": 39.6517392, "tags": {"amenity": "bank", "name": "PesaPoint ATM KCB - Kilindini"}}, {"type": "node", "id": 6048525793, "lat": -4.0520713, "lon": 39.6516968, "tags": {"addr:city": "Mombasa", "addr:street": "Taveta Road", "amenity": "bank", "name": "KCB ATM"}}, {"type": "node", "id": 6048525799, "lat": -4.0605466, "lon": 39.6527058, "tags": {"addr:city": "Mombasa", "addr:street": "Moi Avenue", "amenity": "bank", "name": "KCB ATM - Kilindini"}}, {"type": "node", "id": 6048525800, "lat": -4.060695, "lon": 39.6535652, "tags": {"addr:city": "Mombasa", "addr:street": "Moi Avenue", "amenity": "bank", "atm": "no", "name": "National Bank-Kilindini"}}, {"type": "node", "id": 6048586675, "lat": -4.0611325, "lon": 39.6587075, "tags": {"addr:city": "Mombasa", "addr:street": "Moi Avenue", "amenity": "bank", "name": "Barclays Bank"}}, {"type": "node", "id": 6048913163, "lat": -4.0752683, "lon": 39.6656325, "tags": {"addr:city": "Mombasa", "addr:street": "Nyerere Avenue", "amenity": "bank", "name": "Diamond Trust Bank"}}, {"type": "node", "id": 6048915690, "lat": -4.0771676, "lon": 39.6657893, "tags": {"addr:city": "Mombasa", "addr:street": "Nyerere Avenue", "amenity": "bank", "name": "KCB ATM"}}, {"type": "node", "id": 6054282203, "lat": -4.0611621, "lon": 39.6609067, "tags": {"addr:city": "Mombasa", "addr:street": "Moi Avenue", "amenity": "bank", "branch": "Maritime", "brand": "Standard Chartered", "brand:wikidata": "Q548278", "name": "Standard Chartered"}}, {"type": "node", "id": 6054282204, "lat": -4.0607741, "lon": 39.6609403, "tags": {"addr:city": "Mombasa", "addr:street": "Moi Avenue", "amenity": "bank", "brand": "Standard Chartered", "brand:wikidata": "Q548278", "name": "Standard Chartered"}}, {"type": "node", "id": 6054293173, "lat": -4.0613034, "lon": 39.6629195, "tags": {"addr:city": "Mombasa", "addr:street": "Moi Avenue", "amenity": "bank", "name": "Jamii Bora Bank"}}, {"type": "node", "id": 6054293174, "lat": -4.0613943, "lon": 39.6630912, "tags": {"addr:city": "Mombasa", "addr:street": "Moi Avenue", "amenity": "bank", "name": "KCB ATM"}}, {"type": "node", "id": 6054335985, "lat": -4.0612114, "lon": 39.6641283, "tags": {"addr:city": "Mombasa", "addr:street": "Moi Avenue", "amenity": "bank", "brand": "Equity Bank", "brand:wikidata": "Q5384664", "brand:wikipedia": "en:Equity Bank Kenya Limited", "name": "Equity Bank"}}, {"type": "node", "id": 6054335988, "lat": -4.0616771, "lon": 39.6648328, "tags": {"addr:city": "Mombasa", "addr:street": "Moi Avenue", "amenity": "bank", "name": "NIC Bank (Harbour House Branch)"}}, {"type": "node", "id": 6054368639, "lat": -4.0618436, "lon": 39.6664552, "tags": {"addr:city": "Mombasa", "addr:street": "Moi Avenue", "amenity": "bank", "brand": "Western Union", "brand:wikidata": "Q861042", "name": "Western Union"}}, {"type": "node", "id": 6054497802, "lat": -4.0495709, "lon": 39.6644775, "tags": {"addr:city": "Mombasa", "addr:street": "Naivasha Street", "amenity": "bank", "name": "KCB Jomo Kenyatta Avenue"}}, {"type": "node", "id": 6054534717, "lat": -4.0511009, "lon": 39.6692246, "tags": {"addr:city": "Mombasa", "addr:street": "Kisauni Road", "amenity": "bank", "name": "KCB ATM"}}, {"type": "node", "id": 6054827893, "lat": -4.0507931, "lon": 39.664597, "tags": {"addr:city": "Mombasa", "addr:street": "Mombasa road", "amenity": "bank", "name": "Diamond Trust Bank"}}, {"type": "node", "id": 6057236867, "lat": -4.4620168, "lon": 39.4758803, "tags": {"addr:city": "Msambweni", "addr:street": "Ukunda-Ramisi Road", "amenity": "bank", "name": "Bomani Financial Service Association"}}, {"type": "node", "id": 6057270336, "lat": -4.4610419, "lon": 39.4764933, "tags": {"addr:city": "Msambweni", "addr:street": "Ukunda-Ramisi Road", "amenity": "bank", "name": "Co - Op Bank & ATM"}}, {"type": "node", "id": 6060333683, "lat": -4.3085132, "lon": 39.5768471, "tags": {"addr:city": "Diani Beach / Ukunda", "addr:street": "Diani Beach Road", "amenity": "bank", "name": "Wanati Forex Bureau"}}, {"type": "node", "id": 6060383924, "lat": -4.2990646, "lon": 39.5808128, "tags": {"addr:city": "Diani", "addr:street": "Diani Beach Road", "amenity": "bank", "name": "KCB ATM - Diani Nakumatt"}}, {"type": "node", "id": 6060795608, "lat": -4.2882824, "lon": 39.5804366, "tags": {"addr:city": "Diani Beach", "addr:street": "Diani Beach Road", "amenity": "bank", "name": "National Bank Of Kenya"}}, {"type": "node", "id": 6063096717, "lat": -4.2823433, "lon": 39.5677576, "tags": {"addr:city": "Ukunda", "addr:street": "Diani Beach Road", "amenity": "bank", "name": "Family Bank"}}, {"type": "node", "id": 6063096719, "lat": -4.2832706, "lon": 39.5666689, "tags": {"addr:city": "Ukunda", "addr:street": "Ukunda-Ramisi Road", "amenity": "bank", "atm": "yes", "name": "Co-op Bank ATM - Ukunda Branch"}}, {"type": "node", "id": 6063297409, "lat": -4.2906013, "lon": 39.585296, "tags": {"addr:city": "Diani Beach", "addr:street": "Diani Beach Road", "amenity": "bank", "name": "Chase Bank - Pharmart Chemists Ltd - Diani"}}, {"type": "node", "id": 6072960938, "lat": -4.096759, "lon": 39.6462838, "tags": {"addr:city": "Mombasa", "addr:street": "Likoni-Ukunda Road", "amenity": "bank", "name": "Co-op Bank ATM - Likoni Branch"}}, {"type": "node", "id": 6072960947, "lat": -4.0874627, "lon": 39.6516694, "tags": {"addr:city": "Mombasa", "addr:street": "Likoni-Ukunda Road", "amenity": "bank", "name": "KCB Mtaani - Jane Nyamboga Moseti"}}, {"type": "node", "id": 6072999729, "lat": -4.0846113, "lon": 39.6623196, "tags": {"addr:city": "Likoni", "addr:street": "Likoni-Ukunda Road", "amenity": "bank", "name": "Cooperative Bank"}}, {"type": "node", "id": 6072999730, "lat": -4.0848952, "lon": 39.6623484, "tags": {"addr:city": "Likoni", "addr:street": "Likoni-Ukunda Road", "amenity": "bank", "name": "Faulu Bank"}}, {"type": "node", "id": 6072999731, "lat": -4.0850256, "lon": 39.6623772, "tags": {"addr:city": "Likoni", "addr:street": "Likoni-Ukunda Road", "amenity": "bank", "name": "Postbank"}}, {"type": "node", "id": 6072999734, "lat": -4.082741, "lon": 39.6624862, "tags": {"addr:city": "Likoni", "addr:street": "Likoni-Ukunda Road", "amenity": "bank", "name": "Rafiki Microfinance Bank-Likoni"}}, {"type": "node", "id": 7156492106, "lat": -4.0619154, "lon": 39.6694065, "tags": {"addr:city": "Mombasa", "addr:street": "Moi Avenue", "amenity": "bank", "name": "Paramount"}}, {"type": "node", "id": 7172031311, "lat": -4.0653133, "lon": 39.6711639, "tags": {"addr:city": "Mombasa", "addr:street": "Nyerere Road", "amenity": "bank", "brand": "Bank of Africa", "brand:wikidata": "Q2882627", "name": "Bank of Africa", "short_name": "BOA"}}, {"type": "node", "id": 7172031314, "lat": -4.0592086, "lon": 39.6498864, "tags": {"addr:city": "Mombasa", "addr:street": "Moi Avenue", "amenity": "bank", "name": "Co - Operative"}}, {"type": "node", "id": 7172031317, "lat": -4.0578761, "lon": 39.6727293, "tags": {"addr:city": "Mombasa", "addr:street": "Abdel Nasser Road", "amenity": "bank", "brand": "Equity Bank", "brand:wikidata": "Q5384664", "brand:wikipedia": "en:Equity Bank Kenya Limited", "name": "Equity Bank"}}, {"type": "node", "id": 7309530854, "lat": -4.0622409, "lon": 39.6779085, "tags": {"addr:city": "Mombasa", "addr:street": "Fort Jesus Road", "amenity": "bank", "brand": "Bank of India", "brand:pa": "\u0a2c\u0a48\u0a02\u0a15 \u0a06\u0a2b \u0a07\u0a70\u0a21\u0a40\u0a06", "brand:ur": "\u0628\u06cc\u0646\u06a9 \u0622\u0641 \u0627\u0646\u0688\u06cc\u0627", "brand:wikidata": "Q2004439", "drive_through": "no", "name": "Bank of India", "name:pa": "\u0a2c\u0a48\u0a02\u0a15 \u0a06\u0a2b \u0a07\u0a70\u0a21\u0a40\u0a06", "name:ur": "\u0628\u06cc\u0646\u06a9 \u0622\u0641 \u0627\u0646\u0688\u06cc\u0627"}}, {"type": "node", "id": 7981676565, "lat": -4.3754211, "lon": 39.5278708}, {"type": "node", "id": 7981676566, "lat": -4.375439, "lon": 39.5280843}, {"type": "node", "id": 7981676567, "lat": -4.3755833, "lon": 39.5280722}, {"type": "node", "id": 7981676568, "lat": -4.3755654, "lon": 39.5278587}, {"type": "node", "id": 7981736711, "lat": -4.3754741, "lon": 39.527967, "tags": {"amenity": "bank", "name": "Kaya Kinondo Community Bank", "opening_hours": "Mo-Sa 09:00-17:00", "operator": "Kaya Kinondo Village Bank"}}, {"type": "node", "id": 8294020218, "lat": -4.1750217, "lon": 39.4541448, "tags": {"amenity": "bank", "name": "KCB"}}, {"type": "node", "id": 8294027517, "lat": -4.1748095, "lon": 39.4541559, "tags": {"amenity": "bank", "name": "Equity"}}, {"type": "node", "id": 10867410531, "lat": -4.2901176, "lon": 39.5865767, "tags": {"amenity": "bank", "name": "absa", "opening_hours": "Mo-Fr 09:00-16:00; Sa 09:00-12:00"}}, {"type": "node", "id": 11149293166, "lat": -4.3074576, "lon": 39.5775606, "tags": {"amenity": "bank"}}, {"type": "way", "id": 216735125, "nodes": [2261339949, 2261339994, 2261339982, 2261339951, 2261339992, 2261339988, 2261339983, 2261339949], "tags": {"addr:city": "Mombasa", "addr:street": "Moi Avenue", "amenity": "bank", "building": "yes", "name": "DTB Bank - Docks"}}, {"type": "way", "id": 549686332, "nodes": [5309820920, 5309823321, 5309823322, 5309823323, 5309820920], "tags": {"amenity": "bank", "building": "yes", "name": "Diamond Trust Bank", "source": "Dira Ventures"}}, {"type": "way", "id": 856012081, "nodes": [7981676565, 7981676566, 7981676567, 7981676568, 7981676565], "tags": {"amenity": "bank", "building": "yes", "name": "Kaya Kinondo Community Bank", "opening_hours": "Mo-Sa 08:00-17:00", "operator": "Kaya Kinondo Village Bank"}}]}