{"version": 0.6, "generator": "Overpass API 0.7.61.5 4133829e", "osm3s": {"timestamp_osm_base": "2024-03-06T10:46:01Z", "copyright": "The data included in this document is from www.openstreetmap.org. The data is made available under ODbL."}, "elements": [{"type": "node", "id": 2485312611, "lat": 36.0365543, "lon": 43.4347665, "tags": {"alt_name": "\u0645\u062f\u0631\u0633\u0629 \u0625\u0628\u0631\u0627\u0647\u064a\u0645 \u0627\u0644\u062e\u0644\u064a\u0644", "amenity": "school", "int_name": "Madrasat Ibr\u0101h\u012bm al Khal\u012bl, \u0645\u062f\u0631\u0633\u0629 \u0627\u0628\u0631\u0627\u0647\u064a\u0645 \u0627\u0644\u062e\u0644\u064a\u0644, Madrasat Ibrahim al Khalil, \u0645\u062f\u0631\u0633\u0629 \u0627\u0628\u0631\u0627\u0647\u064a\u0645 \u0627\u0644\u062e\u0644\u064a\u0644", "name": "\u0645\u062f\u0631\u0633\u0629 \u0625\u0628\u0631\u0627\u0647\u064a\u0645 \u0627\u0644\u062e\u0644\u064a\u0644", "name:ar": "\u0645\u062f\u0631\u0633\u0629 \u0625\u0628\u0631\u0627\u0647\u064a\u0645 \u0627\u0644\u062e\u0644\u064a\u0644", "name:ar1": "\u0645\u062f\u0631\u0633\u0629 \u0625\u0628\u0631\u0627\u0647\u064a\u0645 \u0627\u0644\u062e\u0644\u064a\u0644", "name:de": "Madrasat Ibrahim al Khalil", "name:en": "Madrasat Ibrahim al Khalil", "name:fr": "Madrasat Ibrahim al Khalil"}}, {"type": "node", "id": 2485312624, "lat": 36.0277011, "lon": 43.4058185, "tags": {"alt_name": "\u0645\u062f\u0631\u0633\u0629 \u0627\u0644\u0639\u062f\u0644\u0629", "amenity": "school", "int_name": "Madrasat al Adlah, \u0645\u062f\u0631\u0633\u0629 \u0627\u0644\u0639\u062f\u0644\u0629, Madrasat al Adlah, \u0645\u062f\u0631\u0633\u0629 \u0627\u0644\u0639\u062f\u0644\u0629", "name": "\u0645\u062f\u0631\u0633\u0629 \u0627\u0644\u0639\u062f\u0644\u0629", "name:ar": "\u0645\u062f\u0631\u0633\u0629 \u0627\u0644\u0639\u062f\u0644\u0629", "name:de": "Madrasat al Adlah", "name:en": "Madrasat al Adlah", "name:fr": "Madrasat al Adlah"}}, {"type": "node", "id": 5257423124, "lat": 35.8677866, "lon": 43.3202266, "tags": {"amenity": "school", "name": "\u0627\u0628\u062a\u062f\u0627\u0626\u064a\u0647 \u0627\u0644\u062d\u0648\u062f \u0641\u0648\u0642\u0627\u0646\u064a"}}, {"type": "node", "id": 5257434626, "lat": 35.8713718, "lon": 43.3118056, "tags": {"amenity": "school", "name": "\u062b\u0627\u0646\u0648\u064a\u0629 \u0627\u0644\u062d\u0648\u062f \u0641\u0648\u0642\u0627\u0646\u064a"}}, {"type": "node", "id": 5360404022, "lat": 35.9954165, "lon": 43.2217113, "tags": {"amenity": "school", "name": "\u0627\u0644\u0634\u0648\u0631\u0629 \u0644\u0644\u0628\u0646\u064a\u0646"}}, {"type": "node", "id": 5360405222, "lat": 35.9937998, "lon": 43.2198145, "tags": {"amenity": "school", "name": "\u0645\u062f\u0631\u0633\u0629 \u0627\u0644\u0634\u0647\u062f \u0644\u0644\u0628\u0646\u0627\u062a"}}, {"type": "node", "id": 5491801168, "lat": 35.9089026, "lon": 43.3196075, "tags": {"amenity": "school", "name": "\u0645\u062f\u0631\u0633\u0629 \u0627\u0631\u0641\u064a\u0644\u0629 \u0627\u0644\u0627\u0628\u062a\u062f\u0627\u0626\u064a\u0629", "name:ar": "\u0645\u062f\u0631\u0633\u0629 \u0642\u0631\u064a\u0629 \u0627\u0631\u0641\u064a\u0644\u0629"}}, {"type": "node", "id": 5594883623, "lat": 35.9875624, "lon": 43.2620835, "tags": {"amenity": "school", "name": "\u062b/\u062a\u0644 \u0648\u0627\u0639\u064a \u0644\u0644\u0628\u0646\u064a\u0646"}}, {"type": "node", "id": 5594883624, "lat": 35.924804, "lon": 43.3206861, "tags": {"amenity": "school", "name": "\u0627\u0628\u062a\u062f\u0627\u0626\u064a\u0629 \u062a\u0644 \u0627\u0644\u0634\u0648\u0643"}}, {"type": "node", "id": 5594883625, "lat": 35.6936446, "lon": 43.2862606, "tags": {"amenity": "school", "name": "\u0627\u0628\u062a\u062f\u0627\u0626\u064a\u0629 \u0627\u0645\u0627\u0645 \u063a\u0631\u0628\u064a \u0644\u0644\u0628\u0646\u0627\u062a"}}, {"type": "node", "id": 5594885423, "lat": 35.9894222, "lon": 43.2686876, "tags": {"amenity": "school", "name": "\u0627\u0628\u062a\u062f\u0627\u0626\u064a\u0629 \u062a\u0644 \u0648\u0627\u0639\u064a \u0644\u0644\u0628\u0646\u0627\u062a"}}, {"type": "node", "id": 5594887222, "lat": 36.0046732, "lon": 43.2926668, "tags": {"amenity": "school", "name": "\u0627\u0628\u062a\u062f\u0627\u0626\u064a\u0629 \u0646\u0639\u0646\u0627\u0639\u0629"}}, {"type": "node", "id": 5594887223, "lat": 35.9874534, "lon": 43.2713766, "tags": {"amenity": "school", "name": "\u0627\u0628\u062a\u062f\u0627\u0626\u064a\u0629 \u062a\u0644 \u0648\u0627\u0639\u064a \u0644\u0644\u0628\u0646\u064a\u0646"}}, {"type": "node", "id": 5594887621, "lat": 35.6933702, "lon": 43.2861656, "tags": {"amenity": "school", "name": "\u0627\u0628\u062a\u062f\u0627\u0626\u064a\u0629 \u0627\u0645\u0627\u0645 \u063a\u0631\u0628\u064a \u0644\u0644\u0628\u0646\u064a\u0646"}}, {"type": "node", "id": 5670723622, "lat": 36.0361059, "lon": 43.4348945, "tags": {"amenity": "school", "name": "\u0645\u062f\u0631\u0633\u0629 \u0627\u0644\u064a\u0627\u062c\u0648\u0631 \u0644\u0644\u0628\u0646\u064a\u0646"}}, {"type": "node", "id": 5670723623, "lat": 36.0364459, "lon": 43.4348214, "tags": {"amenity": "school", "name": "\u0645\u062f\u0631\u0633\u0629 \u0627\u0644\u064a\u0627\u062c\u0648\u0631 \u0644\u0644\u0628\u0646\u0627\u062a"}}, {"type": "node", "id": 6465698785, "lat": 35.860598, "lon": 43.2998568, "tags": {"addr:postcode": "41002", "amenity": "school", "name": "\u0645\u062f\u0631\u0633\u0629 \u0627\u0644\u062d\u0648\u062f", "name:en": "Al Hood school", "opening_hours": "Su-Th 08:00-12:00"}}, {"type": "node", "id": 7994784689, "lat": 35.8020591, "lon": 43.2949312, "tags": {"amenity": "school", "name": "\u0627\u0644\u062f\u0648\u0631\u0647 \u0633\u062a\u0627\u0630 \u0641\u062a\u0648\u062d"}}, {"type": "node", "id": 10748637505, "lat": 35.7901938, "lon": 43.2898913, "tags": {"addr:street": "\u0634\u0627\u0631\u0639 \u0627\u0644\u0633\u0648\u0642 \u0627\u0644\u0639\u0627\u0645", "amenity": "school", "name": "\u0627\u0639\u062f\u0627\u062f\u064a\u0629 \u0627\u0644\u0642\u064a\u0627\u0631\u0629 \u0644\u0644\u0628\u0646\u064a\u0646"}}]}