{"version": 0.6, "generator": "Overpass API 0.7.61.5 4133829e", "osm3s": {"timestamp_osm_base": "2024-03-05T13:45:00Z", "copyright": "The data included in this document is from www.openstreetmap.org. The data is made available under ODbL."}, "elements": [{"type": "node", "id": 4411147124, "lat": 33.352432, "lon": 69.489189, "tags": {"alt_name": "\u062f\u0643\u0627\u0646\u0647\u0627\u06cc \u0633\u064a\u062f \u062e\u064a\u0644;Dokanha-i-Sayadkhel;Dokanha-ye Seyyed Kheyl;Dokanha-I-Saydkhel;Dokanha-ye Sayyid Khel", "name": "\u062f\u06a9\u0627\u0646\u0647\u0627\u06cc \u0633\u06cc\u062f \u062e\u06d0\u0644", "name:en": "Dukanha-ye Sayyid Khel", "name:ps": "\u062f\u06a9\u0627\u0646\u0647\u0627\u06cc \u0633\u06cc\u062f \u062e\u06d0\u0644", "name:ru": "Dukankhayi-Saidkheyl'", "place": "village", "source:name": "GNS"}}, {"type": "node", "id": 4411147126, "lat": 33.368195, "lon": 69.471184, "tags": {"alt_name": "\u063a\u0648\u0631\u0643\u06cc \u062e\u0648\u0644\u0647;Ghurki Kholeh;Ghurke Khulah;Ghorke Khulah", "name": "\u063a\u0648\u0631\u06a9\u06d0 \u062e\u0648\u0644\u0647", "name:en": "Ghorke Kholeh", "name:ps": "\u063a\u0648\u0631\u06a9\u06d0 \u062e\u0648\u0644\u0647", "name:ru": "Gorkekhula", "place": "village", "source:name": "GNS"}}, {"type": "node", "id": 4411147143, "lat": 33.3676066, "lon": 69.4345084, "tags": {"alt_name": "\u0628\u0631\u0647 \u0648\u0632\u06cc;Vazay;Bara Waze;Wazah Jadran;Waze;Barah Wazay;Waza;Kuz Waza;Wazah;Vazeh;Barah Waze", "name": "\u0628\u0631\u0647 \u0648\u0632\u06d0", "name:en": "Wazay", "name:ps": "\u0628\u0631\u0647 \u0648\u0632\u06d0", "name:ru": "Barv Vaze", "place": "village", "source:name": "GNS"}}, {"type": "node", "id": 4411404186, "lat": 33.691111, "lon": 69.746944, "tags": {"alt_name": "Lmar Kheyl;Lmar Khel", "name": "\u0644\u0645\u0631 \u062e\u064a\u0644", "name:en": "Lmarkhel", "name:ps": "\u0644\u0645\u0631 \u062e\u064a\u0644", "name:ru": "L'markheyl'", "place": "village", "source:name": "GNS"}}, {"type": "node", "id": 4411423607, "lat": 33.656406, "lon": 69.7773433, "tags": {"alt_name": "\u062c\u0627\u0646\u06cc \u062e\u06d0\u0644 \u0645\u0646\u06af\u0644;Dzani Khel Mangal;Jani Kheyl Mangal;Janikhel;Oluswali Janikhele Mangal;Janikhele Mangal;Dzani Kheyl;Juni Khel;Uluswali Jani Khel-e Mangal", "name": "\u0627\u0644\u0633\u0648\u0627\u0644\u06cc \u062c\u0627\u0646\u06cc \u062e\u06d0\u0644 \u0645\u0646\u06af\u0644", "name:en": "Jani Khel-e Mangal", "name:ps": "\u0627\u0644\u0633\u0648\u0627\u0644\u06cc \u062c\u0627\u0646\u06cc \u062e\u06d0\u0644 \u0645\u0646\u06af\u0644", "name:ru": "Ulusvali-Dzhanikheyli-Mangal'", "place": "village", "source:name": "GNS"}}, {"type": "node", "id": 4411423609, "lat": 33.659794, "lon": 69.756676, "tags": {"alt_name": "Khebay", "name": "\u062e\u0628\u06cc", "name:en": "Khibay", "name:ps": "\u062e\u0628\u06cc", "place": "village", "source:name": "GNS"}}, {"type": "node", "id": 4411447348, "lat": 33.719402, "lon": 69.919472, "tags": {"alt_name": "Marikhel;Mari Khel", "name": "\u0645\u0631\u06cc \u062e\u06d0\u0644", "name:en": "Mari Kheyl", "name:ps": "\u0645\u0631\u06cc \u062e\u06d0\u0644", "name:ru": "Marikheyl'", "place": "village", "source:name": "GNS"}}, {"type": "node", "id": 4411447349, "lat": 33.720297, "lon": 69.909913, "tags": {"alt_name": "Turi Kheyl;Tori Khel", "name": "\u062a\u0648\u0631\u06cc \u062e\u06d0\u0644", "name:en": "Torikhel", "name:ps": "\u062a\u0648\u0631\u06cc \u062e\u06d0\u0644", "name:ru": "Torikheyl'", "place": "village", "source:name": "GNS"}}, {"type": "node", "id": 4411704242, "lat": 33.369431, "lon": 69.913826, "tags": {"alt_name": "\u0633\u0634 \u062e\u064a\u0644;Sash Kheyl;Sash Khel", "name": "\u0633\u0634 \u062e\u06d0\u0644", "name:en": "Saskhel", "name:ps": "\u0633\u0634 \u062e\u06d0\u0644", "name:ru": "Samkheyl'", "place": "village", "source:name": "GNS"}}, {"type": "node", "id": 4411704246, "lat": 33.365337, "lon": 69.900925, "tags": {"alt_name": "Warghah", "name": "\u0648\u0631\u063a\u0647", "name:en": "Wargha", "name:ps": "Wargha;Warghah", "name:ru": "Varga", "place": "village", "source:name": "GNS"}}, {"type": "node", "id": 4412708952, "lat": 33.348149, "lon": 69.529865, "tags": {"alt_name": "\u0622\u0644\u0648 \u062e\u064a\u0644;Alukhel;Alu Kheyl", "name": "\u0627\u0644\u0648 \u062e\u06d0\u0644", "name:en": "Alu Khel", "name:ps": "\u0627\u0644\u0648 \u062e\u06d0\u0644", "name:ru": "Alukheyl'", "place": "village", "source:name": "GNS"}}, {"type": "node", "id": 4412708955, "lat": 33.351901, "lon": 69.512144, "tags": {"alt_name": "\u062e\u0648\u0627\u062c\u0647 \u0643\u0648\u062a;Khwaja Kot;Khvajeh Kot;Khvajeh Kowt", "name": "\u062e\u0648\u0627\u062c\u0647 \u06a9\u0648\u067c", "name:en": "Khwajah Kot", "name:ps": "\u062e\u0648\u0627\u062c\u0647 \u06a9\u0648\u067c", "name:ru": "Khodzhakot", "place": "village", "source:name": "GNS"}}, {"type": "node", "id": 4412821802, "lat": 33.501643, "lon": 69.733174, "tags": {"alt_name": "Kharkai", "name": "\u062e\u0631\u06a9\u06cc", "name:en": "Kharkay", "name:ps": "\u062e\u0631\u06a9\u06cc", "name:ru": "Kharkay", "place": "village", "source:name": "GNS"}}, {"type": "node", "id": 4412821803, "lat": 33.5150446, "lon": 69.6768938, "tags": {"alt_name": "Khowst Melah;Khost Mela", "name": "\u062e\u0648\u0634\u062a \u0645\u06d0\u0644\u0647", "name:en": "Khost Melah", "name:ps": "\u062e\u0648\u0634\u062a \u0645\u06d0\u0644\u0647", "name:ru": "Khostmela", "place": "village", "source:name": "GNS"}}, {"type": "node", "id": 4412821805, "lat": 33.504726, "lon": 69.757797, "tags": {"alt_name": "Tsaperai;Tsaperey;Caperi;Tsaprey;\u0686\u067e\u0631\u06cc", "name": "\u0685\u067e\u0631\u06cc", "name:en": "Tsaperi", "name:ps": "\u0685\u067e\u0631\u06cc", "name:ru": "Chaperi", "place": "village", "source:name": "GNS"}}, {"type": "node", "id": 4412905935, "lat": 33.485744, "lon": 69.773361, "tags": {"alt_name": "Kumbarai;\u0643\u0645\u0628\u0631\u06cc", "name": "\u06a9\u0648\u0645\u0628\u0631\u06cc", "name:en": "Kumbaray", "name:ps": "\u06a9\u0648\u0645\u0628\u0631\u06cc", "place": "village", "source:name": "GNS"}}, {"type": "node", "id": 4412905937, "lat": 33.464294, "lon": 69.825027, "tags": {"alt_name": "\u0645\u06cc\u0631\u063a\u0647;Merghah;Mergha", "name": "\u0645\u0631\u063a\u0647", "name:en": "Mirghah", "name:ps": "\u0645\u0631\u063a\u0647", "name:ru": "Merga", "place": "village", "source:name": "GNS"}}, {"type": "node", "id": 4412905939, "lat": 33.433343, "lon": 69.8616845, "tags": {"alt_name": "\u067e\u0627\u062a\u0643", "name": "\u067e\u062a\u06a9", "name:en": "Patak", "name:ps": "\u067e\u062a\u06a9", "place": "village", "source:name": "GNS"}}, {"type": "node", "id": 4412905940, "lat": 33.45599, "lon": 69.82756, "tags": {"alt_name": "\u067e\u0648\u0631\u06cc\u06a9\u0647;Porekah;Purikah;Porikah", "name": "\u067e\u0631\u0643\u0647", "name:en": "Porika", "name:ps": "\u067e\u0631\u0643\u0647", "name:ru": "Purika", "place": "village", "source:name": "GNS"}}, {"type": "node", "id": 4412905941, "lat": 33.498379, "lon": 69.763313, "tags": {"alt_name": "\u0642\u0631\u064a\u06c0 \u0633\u0631\u062e;Sorah Kalay;Sorah Kelay;Sora Kalay", "name": "\u0633\u0648\u0631\u0647 \u06a9\u0644\u06cc", "name:en": "Surah Kelay", "name:ps": "\u0633\u0648\u0631\u0647 \u06a9\u0644\u06cc", "name:ru": "Surakalay", "place": "village", "source:name": "GNS"}}, {"type": "node", "id": 4412905942, "lat": 33.476204, "lon": 69.797173, "tags": {"alt_name": "\u062a\u0648\u0631 \u06af\u0644;Torgal", "name": "\u062a\u0648\u0631\u06af\u0644", "name:en": "Towrgal", "name:ps": "\u062a\u0648\u0631\u06af\u0644", "name:ru": "Torgal'", "place": "village", "source:name": "GNS"}}, {"type": "node", "id": 5394988100, "lat": 33.7159832, "lon": 69.425301, "tags": {"name": "\u06a9\u0644\u06ab\u0631", "name:en": "Kalgar", "place": "village"}}, {"type": "node", "id": 5394994897, "lat": 33.6552076, "lon": 69.4307451, "tags": {"name": "\u0639\u062b\u0645\u0627\u0646 \u062e\u06cc\u0644", "name:en": "Osman Khil", "place": "village"}}, {"type": "node", "id": 5394996002, "lat": 33.6830385, "lon": 69.450294, "tags": {"name": "\u062e\u0627\u0646 \u062e\u06cc\u0644", "name:en": "Khan Khil", "place": "village"}}, {"type": "node", "id": 5394997727, "lat": 33.7346667, "lon": 69.4923465, "tags": {"name": "\u0633\u0645\u06cc\u0646 \u062e\u06cc\u0644", "name:en": "Smen Khil", "place": "village"}}, {"type": "node", "id": 8314642114, "lat": 33.7536079, "lon": 69.4516528, "tags": {"name": "Kareezgay", "name:ps": "\u06a9\u0627\u0631\u06cc\u0632 \u06ab\u06cc", "place": "village"}}, {"type": "node", "id": 10009105907, "lat": 33.3744379, "lon": 69.7414919, "tags": {"name": "villege", "place": "village"}}, {"type": "node", "id": 10009134075, "lat": 33.3721207, "lon": 69.7419029, "tags": {"place": "village"}}, {"type": "node", "id": 10009137424, "lat": 33.3740269, "lon": 69.7416723, "tags": {"place": "village"}}, {"type": "node", "id": 10009143257, "lat": 33.3721689, "lon": 69.7435378, "tags": {"place": "hamlet"}}]}