{"version": 0.6, "generator": "Overpass API 0.7.61.5 4133829e", "osm3s": {"timestamp_osm_base": "2024-03-06T11:18:45Z", "copyright": "The data included in this document is from www.openstreetmap.org. The data is made available under ODbL."}, "elements": [{"type": "node", "id": 2488398710, "lat": 33.8920101, "lon": 42.6843662, "tags": {"alt_name": "\u0627\u0644\u0639\u0644\u064a\u0629", "int_name": "Al Al\u012byah, \u0627\u0644\u0639\u0644\u064a\u0629, Al Aliyah, \u0627\u0644\u0639\u0644\u064a\u0629", "name": "\u0627\u0644\u0639\u0644\u064a\u0629", "name:ar": "\u0627\u0644\u0639\u0644\u064a\u0629", "name:ar1": "\u0627\u0644\u0639\u0644\u064a\u0629", "name:de": "Al Aliyah", "name:en": "Al Aliyah", "name:fr": "Al Aliyah", "place": "village"}}, {"type": "node", "id": 2488398720, "lat": 33.8833892, "lon": 42.7120132, "tags": {"alt_name": "\u0627\u0644\u062c\u0633\u0627\u0631\u064a\u0629", "int_name": "Al Jass\u0101r\u012byah, \u0627\u0644\u062c\u0633\u0627\u0631\u064a\u0629, Al Jassariyah, \u0627\u0644\u062c\u0633\u0627\u0631\u064a\u0629", "name": "\u0627\u0644\u062c\u0633\u0627\u0631\u064a\u0629", "name:ar": "\u0627\u0644\u062c\u0633\u0627\u0631\u064a\u0629", "name:ar1": "\u0627\u0644\u062c\u0633\u0627\u0631\u064a\u0629", "name:de": "Al Jassariyah", "name:en": "Al Jassariyah", "name:fr": "Al Jassariyah", "place": "village"}}, {"type": "node", "id": 2488398795, "lat": 33.8834325, "lon": 42.7118112, "tags": {"alt_name": "\u0625\u0645\u0627\u0645 \u0633\u064a\u062f \u0645\u062d\u0645\u0648\u062f", "int_name": "Im\u0101m Sayyid Mahm\u016bd, Imam Sayyid Mahmud", "name": "\u0625\u0645\u0627\u0645 \u0633\u064a\u062f \u0645\u062d\u0645\u0648\u062f", "name:ar": "\u0625\u0645\u0627\u0645 \u0633\u064a\u062f \u0645\u062d\u0645\u0648\u062f", "name:ar1": "\u0625\u0645\u0627\u0645 \u0633\u064a\u062f \u0645\u062d\u0645\u0648\u062f", "name:de": "Imam Sayyid Mahmud", "name:en": "Imam Sayyid Mahmud", "name:fr": "Imam Sayyid Mahmud", "place": "village"}}, {"type": "node", "id": 2488398805, "lat": 33.8792205, "lon": 42.7194059, "tags": {"alt_name": "\u0642\u0627\u0633\u064a\u0629", "int_name": "Kass\u012bya, Q\u0101siyah, Kassiya, Qasiyah", "name": "\u0642\u0627\u0633\u064a\u0629", "name:ar": "\u0642\u0627\u0633\u064a\u0629", "name:ar1": "\u0642\u0627\u0633\u064a\u0629", "name:de": "Kassiya", "name:en": "Kassiya", "name:fr": "Kassiya", "place": "village"}}, {"type": "node", "id": 2488398880, "lat": 33.8728756, "lon": 42.7356784, "tags": {"alt_name": "\u0645\u0634\u0643\u0648\u0643\u0629", "int_name": "Mashk\u016bkah, Mashkukah", "name": "\u0645\u0634\u0643\u0648\u0643\u0629", "name:ar": "\u0645\u0634\u0643\u0648\u0643\u0629", "name:ar1": "\u0645\u0634\u0643\u0648\u0643\u0629", "name:de": "Mashkukah", "name:en": "Mashkukah", "name:fr": "Mashkukah", "place": "village"}}, {"type": "node", "id": 2488398890, "lat": 33.8731898, "lon": 42.7349361, "tags": {"alt_name": "\u0645\u0634\u0642\u0648\u0641\u0629", "int_name": "Mashq\u016bfah, Mashqufah", "name": "\u0645\u0634\u0642\u0648\u0641\u0629", "name:ar": "\u0645\u0634\u0642\u0648\u0641\u0629", "name:ar1": "\u0645\u0634\u0642\u0648\u0641\u0629", "name:de": "Mashqufah", "name:en": "Mashqufah", "name:fr": "Mashqufah", "place": "village"}}, {"type": "node", "id": 2488398911, "lat": 33.8865662, "lon": 42.7008341, "tags": {"alt_name": "\u0645\u062f\u0642 \u062c\u0639\u0644", "int_name": "Midaqq Jaal, \u0645\u062f\u0642 \u062c\u0639\u0644, Midaqq Jaal, \u0645\u062f\u0642 \u062c\u0639\u0644", "name": "\u0645\u062f\u0642 \u062c\u0639\u0644", "name:ar": "\u0645\u062f\u0642 \u062c\u0639\u0644", "name:ar1": "\u0645\u062f\u0642 \u062c\u0639\u0644", "name:de": "Midaqq Jaal", "name:en": "Midaqq Jaal", "name:fr": "Midaqq Jaal", "place": "village"}}, {"type": "node", "id": 2488415555, "lat": 33.937555, "lon": 42.556512, "tags": {"alt_name": "\u0627\u0644\u0628\u0627\u0631\u0632\u064a\u0629", "int_name": "Al B\u0101riz\u012byah, \u0627\u0644\u0628\u0627\u0631\u0632\u064a\u0629, Al Bariziyah, \u0627\u0644\u0628\u0627\u0631\u0632\u064a\u0629", "name": "\u0627\u0644\u0628\u0627\u0631\u0632\u064a\u0629", "name:ar": "\u0627\u0644\u0628\u0627\u0631\u0632\u064a\u0629", "name:ar1": "\u0627\u0644\u0628\u0627\u0631\u0632\u064a\u0629", "name:de": "Al Bariziyah", "name:en": "Al Bariziyah", "name:fr": "Al Bariziyah", "place": "village"}}, {"type": "node", "id": 2488415603, "lat": 33.9562867, "lon": 42.5602441, "tags": {"alt_name": "\u0627\u0644\u062c\u0648\u062f\u0641\u064a\u0629", "int_name": "Al Jawdaf\u012byah, Al Jawd\u0101f\u012byah, Jad\u0101f\u012byah, Jaud\u0101fiya, Jawd\u0101f\u012byah, \u0627\u0644\u062c\u0648\u062f\u0641\u064a\u0629, Al Jawdafiyah, Al Jawdafiyah, Jadafiyah, Jaudafiya, Jawdafiyah, \u0627\u0644\u062c\u0648\u062f\u0641\u064a\u0629", "name": "\u0627\u0644\u062c\u0648\u062f\u0641\u064a\u0629", "name:ar": "\u0627\u0644\u062c\u0648\u062f\u0641\u064a\u0629", "name:ar1": "\u0627\u0644\u062c\u0648\u062f\u0641\u064a\u0629", "name:de": "Al Jawdafiyah", "name:en": "Al Jawdafiyah", "name:fr": "Al Jawdafiyah", "place": "village"}}, {"type": "node", "id": 2488415721, "lat": 34.0372958, "lon": 42.4814975, "tags": {"alt_name": "\u0639\u0631\u0627\u0628\u064a", "int_name": "Arr\u0101b\u012b, Arrabi", "name": "\u0639\u0631\u0627\u0628\u064a", "name:ar": "\u0639\u0631\u0627\u0628\u064a", "name:ar1": "\u0639\u0631\u0627\u0628\u064a", "name:de": "Arrabi", "name:en": "Arrabi", "name:fr": "Arrabi", "place": "village"}}, {"type": "node", "id": 2488415744, "lat": 34.0043439, "lon": 42.5179387, "tags": {"alt_name": "\u0627\u0644\u0633\u0648\u064a\u062e", "int_name": "As Suwaykh, \u0627\u0644\u0633\u0648\u064a\u062e, As Suwaykh, \u0627\u0644\u0633\u0648\u064a\u062e", "name": "\u0627\u0644\u0633\u0648\u064a\u062e", "name:ar": "\u0627\u0644\u0633\u0648\u064a\u062e", "name:ar1": "\u0627\u0644\u0633\u0648\u064a\u062e", "name:de": "As Suwaykh", "name:en": "As Suwaykh", "name:fr": "As Suwaykh", "place": "village"}}, {"type": "node", "id": 2488415759, "lat": 34.016111, "lon": 42.5125, "tags": {"alt_name": "\u0627\u0644\u0633\u0648\u064a\u0646\u062e", "int_name": "As Suwaynikh, Suwainikh, Suwaynikh, As Suwaynikh, Suwainikh, Suwaynikh", "name": "\u0627\u0644\u0633\u0648\u064a\u0646\u062e", "name:ar": "\u0627\u0644\u0633\u0648\u064a\u0646\u062e", "name:ar1": "\u0627\u0644\u0633\u0648\u064a\u0646\u062e", "name:de": "As Suwaynikh", "name:en": "As Suwaynikh", "name:fr": "As Suwaynikh", "place": "village"}}, {"type": "node", "id": 2488415771, "lat": 34.0169222, "lon": 42.5127471, "tags": {"alt_name": "\u0639\u0648\u0646\u0627\u064a\u0629", "int_name": "Awn\u0101yah, \u0639\u0648\u0646\u0627\u064a\u0647, Awnayah, \u0639\u0648\u0646\u0627\u064a\u0647", "name": "\u0639\u0648\u0646\u0627\u064a\u0629", "name:ar": "\u0639\u0648\u0646\u0627\u064a\u0629", "name:ar1": "\u0639\u0648\u0646\u0627\u064a\u0629", "name:de": "Awnayah", "name:en": "Awnayah", "name:fr": "Awnayah", "place": "village"}}, {"type": "node", "id": 2488415784, "lat": 33.939999, "lon": 42.5658793, "tags": {"alt_name": "\u0628\u0631\u0648\u062b\u0629", "int_name": "Bar\u016bthah, \u0628\u0631\u0648\u062b\u0629, Baruthah, \u0628\u0631\u0648\u062b\u0629", "name": "\u0628\u0631\u0648\u062b\u0629", "name:ar": "\u0628\u0631\u0648\u062b\u0629", "name:ar1": "\u0628\u0631\u0648\u062b\u0629", "name:de": "Baruthah", "name:en": "Baruthah", "name:fr": "Baruthah", "place": "village"}}, {"type": "node", "id": 2488415827, "lat": 34.0162666, "lon": 42.5120896, "tags": {"alt_name": "\u062f\u0648\u064a\u0644\u064a\u0629", "int_name": "Dawayl\u012byah, \u062f\u0648\u064a\u0644\u064a\u0629, Dawayliyah, \u062f\u0648\u064a\u0644\u064a\u0629", "name": "\u062f\u0648\u064a\u0644\u064a\u0629", "name:ar": "\u062f\u0648\u064a\u0644\u064a\u0629", "name:ar1": "\u062f\u0648\u064a\u0644\u064a\u0629", "name:de": "Dawayliyah", "name:en": "Dawayliyah", "name:fr": "Dawayliyah", "place": "village"}}, {"type": "node", "id": 2488415900, "lat": 34.0146637, "lon": 42.4657334, "tags": {"alt_name": "\u062c\u062f\u064a\u062f\u0629", "int_name": "Jad\u012bda, Jad\u012bdah, Jadida, Jadidah", "name": "\u062c\u062f\u064a\u062f\u0629", "name:ar": "\u062c\u062f\u064a\u062f\u0629", "name:ar1": "\u062c\u062f\u064a\u062f\u0629", "name:de": "Jadida", "name:en": "Jadida", "name:fr": "Jadida", "place": "village"}}, {"type": "node", "id": 2488415913, "lat": 34.0393689, "lon": 42.4995127, "tags": {"alt_name": "\u062e\u0627\u0644\u062f\u064a\u0629", "int_name": "Kh\u0101lid\u012byah, Khalidiyah", "name": "\u062e\u0627\u0644\u062f\u064a\u0629", "name:ar": "\u062e\u0627\u0644\u062f\u064a\u0629", "name:ar1": "\u062e\u0627\u0644\u062f\u064a\u0629", "name:de": "Khalidiyah", "name:en": "Khalidiyah", "name:fr": "Khalidiyah", "place": "village"}}, {"type": "node", "id": 2488416043, "lat": 34.000937, "lon": 42.5339893, "tags": {"alt_name": "\u0642\u0631\u064a\u0629 \u0639\u0646\u0627\u064a\u0629 \u0627\u0644\u0639\u0644\u064a\u0627", "int_name": "Qaryat An\u0101yat al Uly\u0101, \u0642\u0631\u064a\u0629 \u0639\u0646\u0627\u064a\u0629 \u0627\u0644\u0639\u0644\u064a\u0627, Qaryat Anayat al Ulya, \u0642\u0631\u064a\u0629 \u0639\u0646\u0627\u064a\u0629 \u0627\u0644\u0639\u0644\u064a\u0627", "name": "\u0642\u0631\u064a\u0629 \u0639\u0646\u0627\u064a\u0629 \u0627\u0644\u0639\u0644\u064a\u0627", "name:ar": "\u0642\u0631\u064a\u0629 \u0639\u0646\u0627\u064a\u0629 \u0627\u0644\u0639\u0644\u064a\u0627", "name:ar1": "\u0642\u0631\u064a\u0629 \u0639\u0646\u0627\u064a\u0629 \u0627\u0644\u0639\u0644\u064a\u0627", "name:de": "Qaryat Anayat al Ulya", "name:en": "Qaryat Anayat al Ulya", "name:fr": "Qaryat Anayat al Ulya", "place": "village"}}, {"type": "node", "id": 2488416054, "lat": 34.0048283, "lon": 42.517703, "tags": {"alt_name": "\u0642\u0631\u064a\u0629 \u0639\u0646\u0627\u064a\u0629 \u0627\u0644\u0633\u0641\u0644\u0649", "int_name": "Qaryat An\u0101yat as Sufl\u00e1, \u0642\u0631\u064a\u0629 \u0639\u0646\u0627\u064a\u0629 \u0627\u0644\u0633\u0641\u0644\u0649, Qaryat Anayat as Sufla, \u0642\u0631\u064a\u0629 \u0639\u0646\u0627\u064a\u0629 \u0627\u0644\u0633\u0641\u0644\u0649", "name": "\u0642\u0631\u064a\u0629 \u0639\u0646\u0627\u064a\u0629 \u0627\u0644\u0633\u0641\u0644\u0649", "name:ar": "\u0642\u0631\u064a\u0629 \u0639\u0646\u0627\u064a\u0629 \u0627\u0644\u0633\u0641\u0644\u0649", "name:ar1": "\u0642\u0631\u064a\u0629 \u0639\u0646\u0627\u064a\u0629 \u0627\u0644\u0633\u0641\u0644\u0649", "name:de": "Qaryat Anayat as Sufla", "name:en": "Qaryat Anayat as Sufla", "name:fr": "Qaryat Anayat as Sufla", "place": "village"}}, {"type": "node", "id": 2488416097, "lat": 34.0157485, "lon": 42.5121248, "tags": {"alt_name": "\u0642\u0631\u064a\u0629 \u062f\u0648\u064a\u0644\u064a\u0629", "int_name": "Qaryat Dawayl\u012byah, \u0642\u0631\u064a\u0629 \u062f\u0648\u064a\u0644\u064a\u0629, Qaryat Dawayliyah, \u0642\u0631\u064a\u0629 \u062f\u0648\u064a\u0644\u064a\u0629", "name": "\u0642\u0631\u064a\u0629 \u062f\u0648\u064a\u0644\u064a\u0629", "name:ar": "\u0642\u0631\u064a\u0629 \u062f\u0648\u064a\u0644\u064a\u0629", "name:ar1": "\u0642\u0631\u064a\u0629 \u062f\u0648\u064a\u0644\u064a\u0629", "name:de": "Qaryat Dawayliyah", "name:en": "Qaryat Dawayliyah", "name:fr": "Qaryat Dawayliyah", "place": "village"}}, {"type": "node", "id": 2488416108, "lat": 34.028923, "lon": 42.48901, "tags": {"alt_name": "\u0642\u0631\u064a\u0629 \u062f\u0648\u064a\u0644\u064a\u0629", "int_name": "Qaryat Duwayl\u012byah, \u0642\u0631\u064a\u0629 \u062f\u0648\u064a\u0644\u064a\u0629, Qaryat Duwayliyah, \u0642\u0631\u064a\u0629 \u062f\u0648\u064a\u0644\u064a\u0629", "name": "\u0642\u0631\u064a\u0629 \u062f\u0648\u064a\u0644\u064a\u0629", "name:ar": "\u0642\u0631\u064a\u0629 \u062f\u0648\u064a\u0644\u064a\u0629", "name:ar1": "\u0642\u0631\u064a\u0629 \u062f\u0648\u064a\u0644\u064a\u0629", "name:de": "Qaryat Duwayliyah", "name:en": "Qaryat Duwayliyah", "name:fr": "Qaryat Duwayliyah", "place": "village"}}, {"type": "node", "id": 2488416124, "lat": 34.016402, "lon": 42.5250785, "tags": {"alt_name": "\u0642\u0631\u064a\u0629 \u062c\u0632\u064a\u0631\u0629", "int_name": "Qaryat Jaz\u012brah, \u0642\u0631\u064a\u0629 \u062c\u0632\u064a\u0631\u0647, Qaryat Jazirah, \u0642\u0631\u064a\u0629 \u062c\u0632\u064a\u0631\u0647", "name": "\u0642\u0631\u064a\u0629 \u062c\u0632\u064a\u0631\u0629", "name:ar": "\u0642\u0631\u064a\u0629 \u062c\u0632\u064a\u0631\u0629", "name:ar1": "\u0642\u0631\u064a\u0629 \u062c\u0632\u064a\u0631\u0629", "name:de": "Qaryat Jazirah", "name:en": "Qaryat Jazirah", "name:fr": "Qaryat Jazirah", "place": "village"}}, {"type": "node", "id": 2488416143, "lat": 34.191935, "lon": 42.498131, "tags": {"alt_name": "\u0642\u0631\u064a\u0629 \u0633\u0643\u0631\u0627\u0646 \u0627\u0644\u0646\u0645\u0648\u0630\u062c\u064a\u0629", "int_name": "Qaryat Sakr\u0101n an Nam\u016bdhaj\u012byah, \u0642\u0631\u064a\u0629 \u0633\u0643\u0631\u0627\u0646 \u0627\u0644\u0646\u0645\u0648\u0630\u062c\u064a\u0629, Qaryat Sakran an Namudhajiyah, \u0642\u0631\u064a\u0629 \u0633\u0643\u0631\u0627\u0646 \u0627\u0644\u0646\u0645\u0648\u0630\u062c\u064a\u0629", "name": "\u0642\u0631\u064a\u0629 \u0633\u0643\u0631\u0627\u0646 \u0627\u0644\u0646\u0645\u0648\u0630\u062c\u064a\u0629", "name:ar": "\u0642\u0631\u064a\u0629 \u0633\u0643\u0631\u0627\u0646 \u0627\u0644\u0646\u0645\u0648\u0630\u062c\u064a\u0629", "name:ar1": "\u0642\u0631\u064a\u0629 \u0633\u0643\u0631\u0627\u0646 \u0627\u0644\u0646\u0645\u0648\u0630\u062c\u064a\u0629", "name:de": "Qaryat Sakran an Namudhajiyah", "name:en": "Qaryat Sakran an Namudhajiyah", "name:fr": "Qaryat Sakran an Namudhajiyah", "place": "village"}}, {"type": "node", "id": 2488416154, "lat": 34.0098211, "lon": 42.4562461, "tags": {"alt_name": "\u0642\u0631\u064a\u0629 \u0627\u0644\u0641\u0632\u0639\u064a\u0629", "int_name": "Qaryat al Faz\u012byah, \u0642\u0631\u064a\u0629 \u0627\u0644\u0641\u0632\u0639\u064a\u0629, Qaryat al Faziyah, \u0642\u0631\u064a\u0629 \u0627\u0644\u0641\u0632\u0639\u064a\u0629", "name": "\u0642\u0631\u064a\u0629 \u0627\u0644\u0641\u0632\u0639\u064a\u0629", "name:ar": "\u0642\u0631\u064a\u0629 \u0627\u0644\u0641\u0632\u0639\u064a\u0629", "name:ar1": "\u0642\u0631\u064a\u0629 \u0627\u0644\u0641\u0632\u0639\u064a\u0629", "name:de": "Qaryat al Faziyah", "name:en": "Qaryat al Faziyah", "name:fr": "Qaryat al Faziyah", "place": "village"}}, {"type": "node", "id": 2488416159, "lat": 34.0067527, "lon": 42.4446697, "tags": {"alt_name": "\u0642\u0631\u064a\u0629 \u0627\u0644\u0647\u0636\u0628\u0629", "int_name": "Qaryat al Ha\u1e11abah, \u0642\u0631\u064a\u0629 \u0627\u0644\u0647\u0636\u0628\u0629, Qaryat al Hadabah, \u0642\u0631\u064a\u0629 \u0627\u0644\u0647\u0636\u0628\u0629", "name": "\u0642\u0631\u064a\u0629 \u0627\u0644\u0647\u0636\u0628\u0629", "name:ar": "\u0642\u0631\u064a\u0629 \u0627\u0644\u0647\u0636\u0628\u0629", "name:ar1": "\u0642\u0631\u064a\u0629 \u0627\u0644\u0647\u0636\u0628\u0629", "name:de": "Qaryat al Hadabah", "name:en": "Qaryat al Hadabah", "name:fr": "Qaryat al Hadabah", "place": "village"}}, {"type": "node", "id": 2488416164, "lat": 34.033905, "lon": 42.4737834, "tags": {"alt_name": "\u0642\u0631\u064a\u0629 \u0627\u0644\u062d\u0645\u064a\u0631\u064a\u0629", "int_name": "Qaryat al \u1e28umayr\u012byah, \u0642\u0631\u064a\u0629 \u0627\u0644\u062d\u0645\u064a\u0631\u064a\u0629, Qaryat al Humayriyah, \u0642\u0631\u064a\u0629 \u0627\u0644\u062d\u0645\u064a\u0631\u064a\u0629", "name": "\u0642\u0631\u064a\u0629 \u0627\u0644\u062d\u0645\u064a\u0631\u064a\u0629", "name:ar": "\u0642\u0631\u064a\u0629 \u0627\u0644\u062d\u0645\u064a\u0631\u064a\u0629", "name:ar1": "\u0642\u0631\u064a\u0629 \u0627\u0644\u062d\u0645\u064a\u0631\u064a\u0629", "name:de": "Qaryat al Humayriyah", "name:en": "Qaryat al Humayriyah", "name:fr": "Qaryat al Humayriyah", "place": "village"}}, {"type": "node", "id": 2488416179, "lat": 34.015065, "lon": 42.4653746, "tags": {"alt_name": "\u0642\u0631\u064a\u0629 \u0627\u0644\u062c\u062f\u064a\u062f\u0629", "int_name": "Qaryat al Jad\u012bdah, \u0642\u0631\u064a\u0629 \u0627\u0644\u062c\u062f\u064a\u062f\u0629, Qaryat al Jadidah, \u0642\u0631\u064a\u0629 \u0627\u0644\u062c\u062f\u064a\u062f\u0629", "name": "\u0642\u0631\u064a\u0629 \u0627\u0644\u062c\u062f\u064a\u062f\u0629", "name:ar": "\u0642\u0631\u064a\u0629 \u0627\u0644\u062c\u062f\u064a\u062f\u0629", "name:ar1": "\u0642\u0631\u064a\u0629 \u0627\u0644\u062c\u062f\u064a\u062f\u0629", "name:de": "Qaryat al Jadidah", "name:en": "Qaryat al Jadidah", "name:fr": "Qaryat al Jadidah", "place": "village"}}, {"type": "node", "id": 2488416194, "lat": 34.0390846, "lon": 42.4996928, "tags": {"alt_name": "\u0642\u0631\u064a\u0629 \u0627\u0644\u062e\u0627\u0644\u062f\u064a\u0629", "int_name": "Qaryat al Kh\u0101lid\u012byah, \u0642\u0631\u064a\u0629 \u0627\u0644\u062e\u0627\u0644\u062f\u064a\u0629, Qaryat al Khalidiyah, \u0642\u0631\u064a\u0629 \u0627\u0644\u062e\u0627\u0644\u062f\u064a\u0629", "name": "\u0642\u0631\u064a\u0629 \u0627\u0644\u062e\u0627\u0644\u062f\u064a\u0629", "name:ar": "\u0642\u0631\u064a\u0629 \u0627\u0644\u062e\u0627\u0644\u062f\u064a\u0629", "name:ar1": "\u0642\u0631\u064a\u0629 \u0627\u0644\u062e\u0627\u0644\u062f\u064a\u0629", "name:de": "Qaryat al Khalidiyah", "name:en": "Qaryat al Khalidiyah", "name:fr": "Qaryat al Khalidiyah", "place": "village"}}, {"type": "node", "id": 2488416210, "lat": 34.027704, "lon": 42.482463, "tags": {"alt_name": "\u0642\u0631\u064a\u0629 \u0627\u0644\u0648\u0631\u062f\u064a\u0629", "int_name": "Qaryat al Ward\u012byah, \u0642\u0631\u064a\u0629 \u0627\u0644\u0648\u0631\u062f\u064a\u0629, Qaryat al Wardiyah, \u0642\u0631\u064a\u0629 \u0627\u0644\u0648\u0631\u062f\u064a\u0629", "name": "\u0642\u0631\u064a\u0629 \u0627\u0644\u0648\u0631\u062f\u064a\u0629", "name:ar": "\u0642\u0631\u064a\u0629 \u0627\u0644\u0648\u0631\u062f\u064a\u0629", "name:ar1": "\u0642\u0631\u064a\u0629 \u0627\u0644\u0648\u0631\u062f\u064a\u0629", "name:de": "Qaryat al Wardiyah", "name:en": "Qaryat al Wardiyah", "name:fr": "Qaryat al Wardiyah", "place": "village"}}, {"type": "node", "id": 2488416215, "lat": 34.0281933, "lon": 42.5053312, "tags": {"alt_name": "\u0642\u0631\u064a\u0629 \u0627\u0644\u0631\u0628\u0639\u064a", "int_name": "Qaryat ar Rabay, \u0642\u0631\u064a\u0629 \u0627\u0644\u0631\u0628\u0639\u064a, Qaryat ar Rabay, \u0642\u0631\u064a\u0629 \u0627\u0644\u0631\u0628\u0639\u064a", "name": "\u0642\u0631\u064a\u0629 \u0627\u0644\u0631\u0628\u0639\u064a", "name:ar": "\u0642\u0631\u064a\u0629 \u0627\u0644\u0631\u0628\u0639\u064a", "name:ar1": "\u0642\u0631\u064a\u0629 \u0627\u0644\u0631\u0628\u0639\u064a", "name:de": "Qaryat ar Rabay", "name:en": "Qaryat ar Rabay", "name:fr": "Qaryat ar Rabay", "place": "village"}}, {"type": "node", "id": 2488416225, "lat": 34.0084336, "lon": 42.4507851, "tags": {"alt_name": "\u0642\u0631\u064a\u0629 \u0627\u0644\u0634\u0645\u0639\u0648\u0646", "int_name": "Qaryat ash Sham\u016bn, \u0642\u0631\u064a\u0629 \u0627\u0644\u0634\u0645\u0639\u0648\u0646, Qaryat ash Shamun, \u0642\u0631\u064a\u0629 \u0627\u0644\u0634\u0645\u0639\u0648\u0646", "name": "\u0642\u0631\u064a\u0629 \u0627\u0644\u0634\u0645\u0639\u0648\u0646", "name:ar": "\u0642\u0631\u064a\u0629 \u0627\u0644\u0634\u0645\u0639\u0648\u0646", "name:ar1": "\u0642\u0631\u064a\u0629 \u0627\u0644\u0634\u0645\u0639\u0648\u0646", "name:de": "Qaryat ash Shamun", "name:en": "Qaryat ash Shamun", "name:fr": "Qaryat ash Shamun", "place": "village"}}, {"type": "node", "id": 2488416241, "lat": 33.9342517, "lon": 42.5563126, "tags": {"alt_name": "\u0633\u0645\u0627\u0646\u064a\u0629", "int_name": "Sam\u0101n\u012bya, Sam\u0101n\u012byah, Samaniya, Samaniyah", "name": "\u0633\u0645\u0627\u0646\u064a\u0629", "name:ar": "\u0633\u0645\u0627\u0646\u064a\u0629", "name:ar1": "\u0633\u0645\u0627\u0646\u064a\u0629", "name:de": "Samaniya", "name:en": "Samaniya", "name:fr": "Samaniya", "place": "village"}}, {"type": "node", "id": 2488416252, "lat": 33.978333, "lon": 42.550278, "tags": {"alt_name": "\u0633\u0648\u0627\u0631\u064a", "int_name": "Saw\u0101r\u012b, Sawari", "name": "\u0633\u0648\u0627\u0631\u064a", "name:ar": "\u0633\u0648\u0627\u0631\u064a", "name:ar1": "\u0633\u0648\u0627\u0631\u064a", "name:de": "Sawari", "name:en": "Sawari", "name:fr": "Sawari", "place": "village"}}, {"type": "node", "id": 2488416262, "lat": 33.9996562, "lon": 42.5347698, "tags": {"alt_name": "\u0633\u0641\u0644\u0629", "int_name": "Sifla, Siflah, Sifla, Siflah", "name": "\u0633\u0641\u0644\u0629", "name:ar": "\u0633\u0641\u0644\u0629", "name:ar1": "\u0633\u0641\u0644\u0629", "name:de": "Sifla", "name:en": "Sifla", "name:fr": "Sifla", "place": "village"}}, {"type": "node", "id": 2488416274, "lat": 33.9985372, "lon": 42.5352414, "tags": {"alt_name": "\u0633\u0641\u0644\u0649", "int_name": "Sufl\u00e1, Sufla", "name": "\u0633\u0641\u0644\u0649", "name:ar": "\u0633\u0641\u0644\u0649", "name:ar1": "\u0633\u0641\u0644\u0649", "name:de": "Sufla", "name:en": "Sufla", "name:fr": "Sufla", "place": "village"}}, {"type": "node", "id": 2488416289, "lat": 33.9792885, "lon": 42.5486813, "tags": {"alt_name": "\u0637\u0639\u0633\u064a\u0629", "int_name": "\u0162as\u012byah, Tas\u012bya, Tasiyah, Tasiya", "name": "\u0637\u0639\u0633\u064a\u0629", "name:ar": "\u0637\u0639\u0633\u064a\u0629", "name:ar1": "\u0637\u0639\u0633\u064a\u0629", "name:de": "Tasiyah", "name:en": "Tasiyah", "name:fr": "Tasiyah", "name:ru": "\u0422\u0430\u0430\u0441\u0438\u044f", "place": "village"}}, {"type": "node", "id": 2488417268, "lat": 33.8986767, "lon": 42.6174772, "tags": {"alt_name": "\u0627\u0644\u062f\u0627\u0646\u0643\u064a\u0629", "int_name": "Ad D\u0101nik\u012byah, D\u0101niqiya, D\u0101niq\u012byah, \u0627\u0644\u062f\u0627\u0646\u0643\u064a\u0629, Ad Danikiyah, Daniqiya, Daniqiyah, \u0627\u0644\u062f\u0627\u0646\u0643\u064a\u0629", "name": "\u0627\u0644\u062f\u0627\u0646\u0643\u064a\u0629", "name:ar": "\u0627\u0644\u062f\u0627\u0646\u0643\u064a\u0629", "name:ar1": "\u0627\u0644\u062f\u0627\u0646\u0643\u064a\u0629", "name:de": "Ad Danikiyah", "name:en": "Ad Danikiyah", "name:fr": "Ad Danikiyah", "place": "village"}}, {"type": "node", "id": 2488417292, "lat": 33.9116641, "lon": 42.5488884, "tags": {"alt_name": "\u0627\u0644\u0639\u062f\u0648\u0633\u064a\u0629", "int_name": "Al Aduws\u012byah, \u0627\u0644\u0639\u062f\u0648\u0633\u064a\u0629, Al Aduwsiyah, \u0627\u0644\u0639\u062f\u0648\u0633\u064a\u0629", "name": "\u0627\u0644\u0639\u062f\u0648\u0633\u064a\u0629", "name:ar": "\u0627\u0644\u0639\u062f\u0648\u0633\u064a\u0629", "name:ar1": "\u0627\u0644\u0639\u062f\u0648\u0633\u064a\u0629", "name:de": "Al Aduwsiyah", "name:en": "Al Aduwsiyah", "name:fr": "Al Aduwsiyah", "place": "village"}}, {"type": "node", "id": 2488417328, "lat": 33.8958937, "lon": 42.6432531, "tags": {"alt_name": "\u0627\u0644\u062f\u0648\u064a\u0644\u064a\u0646", "int_name": "Al Duwaylayn, \u0627\u0644\u062f\u0648\u064a\u0644\u064a\u0646, Al Duwaylayn, \u0627\u0644\u062f\u0648\u064a\u0644\u064a\u0646", "name": "\u0627\u0644\u062f\u0648\u064a\u0644\u064a\u0646", "name:ar": "\u0627\u0644\u062f\u0648\u064a\u0644\u064a\u0646", "name:ar1": "\u0627\u0644\u062f\u0648\u064a\u0644\u064a\u0646", "name:de": "Al Duwaylayn", "name:en": "Al Duwaylayn", "name:fr": "Al Duwaylayn", "place": "village"}}, {"type": "node", "id": 2488417354, "lat": 33.8814974, "lon": 42.6171048, "tags": {"alt_name": "\u0627\u0644\u062c\u0646\u0627\u0646\u064a\u0629", "int_name": "Al Jan\u0101n\u012byah, Jah\u0101n\u012byah, Jih\u0101n\u012bya, \u0627\u0644\u062c\u0646\u0627\u0646\u064a\u0629, Al Jananiyah, Jahaniyah, Jihaniya, \u0627\u0644\u062c\u0646\u0627\u0646\u064a\u0629", "name": "\u0627\u0644\u062c\u0646\u0627\u0646\u064a\u0629", "name:ar": "\u0627\u0644\u062c\u0646\u0627\u0646\u064a\u0629", "name:ar1": "\u0627\u0644\u062c\u0646\u0627\u0646\u064a\u0629", "name:de": "Al Jananiyah", "name:en": "Al Jananiyah", "name:fr": "Al Jananiyah", "place": "village"}}, {"type": "node", "id": 2488417367, "lat": 33.8915103, "lon": 42.5371764, "tags": {"alt_name": "\u0627\u0644\u062c\u062b\u0627\u0645\u064a\u0629", "int_name": "Al Jath\u0101m\u012byah, \u0627\u0644\u062c\u062b\u0627\u0645\u064a\u0629, Al Jathamiyah, \u0627\u0644\u062c\u062b\u0627\u0645\u064a\u0629", "name": "\u0627\u0644\u062c\u062b\u0627\u0645\u064a\u0629", "name:ar": "\u0627\u0644\u062c\u062f\u0627\u0645\u064a\u0629", "name:ar1": "\u0627\u0644\u062c\u062b\u0627\u0645\u064a\u0629", "name:de": "Al Jathamiyah", "name:en": "Al Jadamiyah", "name:fr": "Al Jathamiyah", "place": "village"}}, {"type": "node", "id": 2488417379, "lat": 33.8817138, "lon": 42.5428611, "tags": {"alt_name": "\u0627\u0644\u062c\u0648\u0627\u0639\u0646\u0629", "int_name": "Al Jaw\u0101inah, Juw\u0101n\u012bya, Juw\u0101n\u012byah, \u0627\u0644\u062c\u0648\u0627\u0639\u0646\u0629, Al Jawainah, Juwaniya, Juwaniyah, \u0627\u0644\u062c\u0648\u0627\u0639\u0646\u0629", "name": "\u0627\u0644\u062c\u0648\u0627\u0639\u0646\u0629", "name:ar": "\u0627\u0644\u062c\u0648\u0627\u0639\u0646\u0629", "name:ar1": "\u0627\u0644\u062c\u0648\u0627\u0639\u0646\u0629", "name:de": "Al Jawainah", "name:en": "Al Jawainah", "name:fr": "Al Jawainah", "place": "village"}}, {"type": "node", "id": 2488417392, "lat": 33.905096, "lon": 42.5220233, "tags": {"alt_name": "\u0627\u0644\u0643\u0646\u0627\u0634\u064a\u0629", "int_name": "Al Kan\u0101sh\u012byah, \u0627\u0644\u0643\u0646\u0627\u0634\u064a\u0629, Al Kanashiyah, \u0627\u0644\u0643\u0646\u0627\u0634\u064a\u0629", "name": "\u0627\u0644\u0643\u0646\u0627\u0634\u064a\u0629", "name:ar": "\u0627\u0644\u0643\u0627\u0646\u0634\u064a\u0629", "name:ar1": "\u0627\u0644\u0643\u0646\u0627\u0634\u064a\u0629", "name:de": "Al Kanashiyah", "name:en": "Al Kanshiyah", "name:fr": "Al Kanashiyah", "place": "village"}}, {"type": "node", "id": 2488417404, "lat": 33.874518, "lon": 42.537857, "tags": {"alt_name": "\u0627\u0644\u0645\u0647\u062f\u0627\u0646\u064a\u0629", "int_name": "Al Mahd\u0101n\u012byah, \u0627\u0644\u0645\u0647\u062f\u0627\u0646\u064a\u0629, Al Mahdaniyah, \u0627\u0644\u0645\u0647\u062f\u0627\u0646\u064a\u0629", "name": "\u0627\u0644\u0645\u0647\u062f\u0627\u0646\u064a\u0629", "name:ar": "\u0627\u0644\u0645\u0647\u062f\u0627\u0646\u064a\u0629", "name:ar1": "\u0627\u0644\u0645\u0647\u062f\u0627\u0646\u064a\u0629", "name:de": "Al Mahdaniyah", "name:en": "Al Mahdaniyah", "name:fr": "Al Mahdaniyah", "place": "village"}}, {"type": "node", "id": 2488417460, "lat": 33.9218948, "lon": 42.5597379, "tags": {"alt_name": "\u0627\u0644\u0645\u0631\u0648\u0627\u0646\u064a\u0629", "int_name": "Al Marw\u0101n\u012byah, Marwan\u012bya, Marw\u0101n\u012byah, \u0627\u0644\u0645\u0631\u0648\u0627\u0646\u064a\u0629, Al Marwaniyah, Marwaniya, Marwaniyah, \u0627\u0644\u0645\u0631\u0648\u0627\u0646\u064a\u0629", "name": "\u0627\u0644\u0645\u0631\u0648\u0627\u0646\u064a\u0629", "name:ar": "\u0627\u0644\u0645\u0631\u0648\u0627\u0646\u064a\u0629", "name:ar1": "\u0627\u0644\u0645\u0631\u0648\u0627\u0646\u064a\u0629", "name:de": "Al Marwaniyah", "name:en": "Al Marwaniyah", "name:fr": "Al Marwaniyah", "place": "village"}}, {"type": "node", "id": 2488417467, "lat": 33.886192, "lon": 42.541516, "tags": {"alt_name": "\u0627\u0644\u0645\u0633\u0631\u064a\u0629", "int_name": "Al Masarr\u012byah, \u0627\u0644\u0645\u0633\u0631\u064a\u0629, Al Masarriyah, \u0627\u0644\u0645\u0633\u0631\u064a\u0629", "name": "\u0627\u0644\u0645\u0633\u0631\u064a\u0629", "name:ar": "\u0627\u0644\u0645\u0633\u0631\u064a\u0629", "name:ar1": "\u0627\u0644\u0645\u0633\u0631\u064a\u0629", "name:de": "Al Masarriyah", "name:en": "Al Masarriyah", "name:fr": "Al Masarriyah", "place": "village"}}, {"type": "node", "id": 2488417473, "lat": 33.8760952, "lon": 42.5219592, "tags": {"alt_name": "\u0627\u0644\u0645\u0634\u0647\u062f", "int_name": "Al Mashhad, Mashad, Mashhad, Al Mashhad, Mashad, Mashhad", "name": "\u0627\u0644\u0645\u0634\u0647\u062f", "name:ar": "\u0627\u0644\u0645\u0634\u0647\u062f", "name:ar1": "\u0627\u0644\u0645\u0634\u0647\u062f", "name:de": "Al Mashhad", "name:en": "Al Mashhad", "name:fr": "Al Mashhad", "name:ru": "\u041c\u0430\u0448\u0445\u0430\u0434", "place": "village"}}, {"type": "node", "id": 2488417480, "lat": 33.8742174, "lon": 42.5377425, "tags": {"alt_name": "\u0627\u0644\u0645\u064a\u0631\u064a\u0629", "int_name": "Al M\u012br\u012byah, \u0627\u0644\u0645\u064a\u0631\u064a\u0629, Al Miriyah, \u0627\u0644\u0645\u064a\u0631\u064a\u0629", "name": "\u0627\u0644\u0645\u064a\u0631\u064a\u0629", "name:ar": "\u0627\u0644\u0645\u064a\u0631\u064a\u0629", "name:ar1": "\u0627\u0644\u0645\u064a\u0631\u064a\u0629", "name:de": "Al Miriyah", "name:en": "Al Miriyah", "name:fr": "Al Miriyah", "place": "village"}}, {"type": "node", "id": 2488417487, "lat": 33.9034867, "lon": 42.6494523, "tags": {"alt_name": "\u0627\u0644\u0645\u0639\u0644\u064a\u0629", "int_name": "Al Muall\u012byah, \u0627\u0644\u0645\u0639\u0644\u064a\u0629, Al Mualliyah, \u0627\u0644\u0645\u0639\u0644\u064a\u0629", "name": "\u0627\u0644\u0645\u0639\u0644\u064a\u0629", "name:ar": "\u0627\u0644\u0645\u0639\u0644\u064a\u0629", "name:ar1": "\u0627\u0644\u0645\u0639\u0644\u064a\u0629", "name:de": "Al Mualliyah", "name:en": "Al Mualliyah", "name:fr": "Al Mualliyah", "place": "village"}}, {"type": "node", "id": 2488417492, "lat": 33.899726, "lon": 42.5201245, "tags": {"alt_name": "\u0627\u0644\u0642\u0635\u0631", "int_name": "Al Qa\u015fr, \u0627\u0644\u0642\u0635\u0631, Al Qasr, \u0627\u0644\u0642\u0635\u0631", "name": "\u0627\u0644\u0642\u0635\u0631", "name:ar": "\u0627\u0644\u0642\u0635\u0631", "name:ar1": "\u0627\u0644\u0642\u0635\u0631", "name:de": "Al Qasr", "name:en": "Al Qasr", "name:fr": "Al Qasr", "place": "village"}}, {"type": "node", "id": 2488417504, "lat": 33.8948606, "lon": 42.6342194, "tags": {"alt_name": "\u0627\u0644\u0632\u0648\u064a\u0629", "int_name": "Az Zawayyah, \u0627\u0644\u0632\u0648\u064a\u0629, Az Zawayyah, \u0627\u0644\u0632\u0648\u064a\u0629", "name": "\u0627\u0644\u0632\u0648\u064a\u0629", "name:ar": "\u0627\u0644\u0632\u0648\u064a\u0629", "name:ar1": "\u0627\u0644\u0632\u0648\u064a\u0629", "name:de": "Az Zawayyah", "name:en": "Az Zawayyah", "name:fr": "Az Zawayyah", "place": "village"}}, {"type": "node", "id": 2488417516, "lat": 33.8984401, "lon": 42.6711948, "tags": {"alt_name": "\u0627\u0644\u0632\u0631\u0627\u0639\u064a\u0629", "int_name": "Az Zir\u0101\u012byah, Az Ziraiyah", "name": "\u0627\u0644\u0632\u0631\u0627\u0639\u064a\u0629", "name:ar": "\u0627\u0644\u0632\u0631\u0627\u0639\u064a\u0629", "name:ar1": "\u0627\u0644\u0632\u0631\u0627\u0639\u064a\u0629", "name:de": "Az Ziraiyah", "name:en": "Az Ziraiyah", "name:fr": "Az Ziraiyah", "place": "village"}}, {"type": "node", "id": 2488417526, "lat": 33.889909, "lon": 42.6234477, "tags": {"alt_name": "\u0628\u0634\u064a\u0631\u064a", "int_name": "Bash\u012br\u012b, \u0628\u0634\u064a\u0631\u064a, Bashiri, \u0628\u0634\u064a\u0631\u064a", "name": "\u0628\u0634\u064a\u0631\u064a", "name:ar": "\u0628\u0634\u064a\u0631\u064a", "name:ar1": "\u0628\u0634\u064a\u0631\u064a", "name:de": "Bashiri", "name:en": "Bashiri", "name:fr": "Bashiri", "place": "village"}}, {"type": "node", "id": 2488417537, "lat": 33.8895883, "lon": 42.6220959, "tags": {"alt_name": "\u062f\u0648\u0644\u0627\u0628", "int_name": "D\u016bl\u0101b, \u062f\u0648\u0644\u0627\u0628, Dulab, \u062f\u0648\u0644\u0627\u0628", "name": "\u062f\u0648\u0644\u0627\u0628", "name:ar": "\u062f\u0648\u0644\u0627\u0628", "name:ar1": "\u062f\u0648\u0644\u0627\u0628", "name:de": "Dulab", "name:en": "Dulab", "name:fr": "Dulab", "place": "village"}}, {"type": "node", "id": 2488417548, "lat": 33.8781458, "lon": 42.6053878, "tags": {"alt_name": "\u062f\u0648\u064a\u0644\u064a\u0629 \u062e\u0644\u0641", "int_name": "Yarda village", "name": "\u062f\u0648\u064a\u0644\u064a\u0629 \u062e\u0644\u0641", "name:ar": "\u0642\u0631\u064a\u0629 \u064a\u0631\u062f\u0629", "name:ar1": "\u062f\u0648\u064a\u0644\u064a\u0629 \u062e\u0644\u0641", "name:de": "Yarda village", "name:en": "Yarda", "name:fr": "Yarda village", "place": "village"}}, {"type": "node", "id": 2488417560, "lat": 33.8782527, "lon": 42.6049586, "tags": {"alt_name": "\u062f\u0648\u064a\u0644\u064a\u0629 \u062e\u0644\u0627\u0641", "int_name": "Duwayl\u012byah Khal\u0101f, Duwayliyah Khalaf", "name": "\u062f\u0648\u064a\u0644\u064a\u0629 \u062e\u0644\u0627\u0641", "name:ar": "\u0642\u0631\u064a\u0629 \u064a\u0631\u062f\u0629", "name:ar1": "\u062f\u0648\u064a\u0644\u064a\u0629 \u062e\u0644\u0627\u0641", "name:de": "Duwayliyah Khalaf", "name:en": "Yarda", "name:fr": "Duwayliyah Khalaf", "place": "village"}}, {"type": "node", "id": 2488417619, "lat": 33.921974, "lon": 42.5674222, "tags": {"alt_name": "\u062c\u0628\u0627\u0631\u064a\u0629", "int_name": "Jabbar\u012byah, Jub\u0101r\u012bya, Jub\u0101r\u012byah, Jabbariyah, Jubariya, Jubariyah", "name": "\u062c\u0628\u0627\u0631\u064a\u0629", "name:ar": "\u062c\u0628\u0627\u0631\u064a\u0629", "name:ar1": "\u062c\u0628\u0627\u0631\u064a\u0629", "name:de": "Jabbariyah", "name:en": "Jabbariyah", "name:fr": "Jabbariyah", "place": "village"}}, {"type": "node", "id": 2488417633, "lat": 33.9225132, "lon": 42.5674719, "tags": {"alt_name": "\u062c\u0628\u064a\u0631\u064a\u0629", "int_name": "Jubayr\u012byah, \u062c\u0628\u064a\u0631\u064a\u0629, Jubayriyah, \u062c\u0628\u064a\u0631\u064a\u0629", "name": "\u062c\u0628\u064a\u0631\u064a\u0629", "name:ar": "\u062c\u0628\u064a\u0631\u064a\u0629", "name:ar1": "\u062c\u0628\u064a\u0631\u064a\u0629", "name:de": "Jubayriyah", "name:en": "Jubayriyah", "name:fr": "Jubayriyah", "place": "village"}}, {"type": "node", "id": 2488417650, "lat": 33.9073853, "lon": 42.5436855, "tags": {"alt_name": "\u062c\u0628\u0629", "int_name": "Jubba, Jubbah, \u062c\u0628\u0629, Jubba, Jubbah, \u062c\u0628\u0629", "name": "\u062c\u0628\u0629", "name:ar": "\u062c\u0628\u0629", "name:ar1": "\u062c\u0628\u0629", "name:de": "Jubba", "name:en": "Jubba", "name:fr": "Jubba", "place": "village"}}, {"type": "node", "id": 2488417663, "lat": 33.9022475, "lon": 42.546252, "tags": {"alt_name": "\u0643\u0631\u064a\u0629", "int_name": "Kurayyah, \u0643\u0631\u064a\u0629, Kurayyah, \u0643\u0631\u064a\u0629", "name": "\u0643\u0631\u064a\u0629", "name:ar": "\u0643\u0631\u064a\u0629", "name:ar1": "\u0643\u0631\u064a\u0629", "name:de": "Kurayyah", "name:en": "Kurayyah", "name:fr": "Kurayyah", "place": "village"}}, {"type": "node", "id": 2488417698, "lat": 33.9031865, "lon": 42.6330619, "tags": {"alt_name": "\u0645\u0631\u0627\u0628\u062f\u064a\u0629", "int_name": "Mar\u0101bd\u012bya, Mar\u0101bid\u012byah, Marabdiya, Marabidiyah", "name": "\u0645\u0631\u0627\u0628\u062f\u064a\u0629", "name:ar": "\u0645\u0631\u0627\u0628\u062f\u064a\u0629", "name:ar1": "\u0645\u0631\u0627\u0628\u062f\u064a\u0629", "name:de": "Marabdiya", "name:en": "Marabdiya", "name:fr": "Marabdiya", "name:ru": "\u041c\u0430\u0440\u0430\u0431\u0438\u0434\u0438\u044f", "place": "village"}}, {"type": "node", "id": 2488417746, "lat": 33.9031535, "lon": 42.6334109, "tags": {"alt_name": "\u0645\u0631\u0627\u0628\u064a\u0629", "int_name": "Mur\u0101biyah, Murabiyah", "name": "\u0645\u0631\u0627\u0628\u064a\u0629", "name:ar": "\u0645\u0631\u0627\u0628\u064a\u0629", "name:ar1": "\u0645\u0631\u0627\u0628\u064a\u0629", "name:de": "Murabiyah", "name:en": "Murabiyah", "name:fr": "Murabiyah", "place": "village"}}, {"type": "node", "id": 2488417758, "lat": 33.8985642, "lon": 42.6712126, "tags": {"alt_name": "\u0642\u0631\u064a\u0629 \u0627\u0644\u0632\u0631\u0627\u0639\u0629", "int_name": "Qaryat Az Zir\u0101ah, \u0642\u0631\u064a\u0629 \u0627\u0644\u0632\u0631\u0627\u0639\u0629, Qaryat Az Ziraah, \u0642\u0631\u064a\u0629 \u0627\u0644\u0632\u0631\u0627\u0639\u0629", "name": "\u0642\u0631\u064a\u0629 \u0627\u0644\u0632\u0631\u0627\u0639\u0629", "name:ar": "\u0642\u0631\u064a\u0629 \u0627\u0644\u0632\u0631\u0627\u0639\u0629", "name:ar1": "\u0642\u0631\u064a\u0629 \u0627\u0644\u0632\u0631\u0627\u0639\u0629", "name:de": "Qaryat Az Ziraah", "name:en": "Qaryat Az Ziraah", "name:fr": "Qaryat Az Ziraah", "place": "village"}}, {"type": "node", "id": 2488417768, "lat": 33.90212, "lon": 42.5459499, "tags": {"alt_name": "\u0642\u0631\u064a\u0629", "int_name": "Qurayyah, Qurayyah", "name": "\u0642\u0631\u064a\u0629", "name:ar": "\u0642\u0631\u064a\u0629", "name:ar1": "\u0642\u0631\u064a\u0629", "name:de": "Qurayyah", "name:en": "Qurayyah", "name:fr": "Qurayyah", "place": "village"}}, {"type": "node", "id": 2488417801, "lat": 33.8811307, "lon": 42.5252927, "tags": {"alt_name": "\u0623\u0645 \u062b\u0648\u064a\u0644", "int_name": "Umm Thuwayl, Umm Thuwayl", "name": "\u0623\u0645 \u062b\u0648\u064a\u0644", "name:ar": "\u0623\u0645 \u062b\u0648\u064a\u0644", "name:ar1": "\u0623\u0645 \u062b\u0648\u064a\u0644", "name:de": "Umm Thuwayl", "name:en": "Umm Thuwayl", "name:fr": "Umm Thuwayl", "place": "village"}}, {"type": "node", "id": 2488417813, "lat": 33.9156575, "lon": 42.5318834, "tags": {"alt_name": "\u0648\u0636\u0627\u062d\u064a\u0629", "int_name": "Wa\u1e11\u0101\u1e29\u012byah, Wa\u1e11\u1e11\u0101\u1e29\u012byah, Wadh\u0101h\u012bya, Wadahiyah, Waddahiyah, Wadhahiya", "name": "\u0648\u0636\u0627\u062d\u064a\u0629", "name:ar": "\u0648\u0636\u0627\u062d\u064a\u0629", "name:ar1": "\u0648\u0636\u0627\u062d\u064a\u0629", "name:de": "Wadahiyah", "name:en": "Wadahiyah", "name:fr": "Wadahiyah", "place": "village"}}, {"type": "node", "id": 2488417948, "lat": 33.8763201, "lon": 42.6151946, "tags": {"alt_name": "\u064a\u0627\u0631\u062f\u0629", "int_name": "Yarda, Y\u0101rdah, \u064a\u0627\u0631\u062f\u0647, Yarda, Yardah, \u064a\u0627\u0631\u062f\u0647", "name": "\u064a\u0627\u0631\u062f\u0629", "name:ar": "\u064a\u0627\u0631\u062f\u0629", "name:ar1": "\u064a\u0627\u0631\u062f\u0629", "name:de": "Yarda", "name:en": "Yarda", "name:fr": "Yarda", "place": "village"}}, {"type": "node", "id": 2488417962, "lat": 33.9005318, "lon": 42.6666772, "tags": {"alt_name": "\u0632\u0627\u0631\u0627", "int_name": "Z\u0101r\u0101, Zara", "name": "\u0632\u0627\u0631\u0627", "name:ar": "\u0632\u0627\u0631\u0627", "name:ar1": "\u0632\u0627\u0631\u0627", "name:de": "Zara", "name:en": "Zara", "name:fr": "Zara", "place": "village"}}, {"type": "node", "id": 2488421037, "lat": 34.2175648, "lon": 42.8454884, "tags": {"alt_name": "\u0639\u0631\u0628 \u062d\u0645\u064a\u062f \u0641\u0631\u062d\u0627\u0646", "int_name": "Arab \u1e28am\u012bd Far\u1e29\u0101n, \u0639\u0631\u0628 \u062d\u0645\u064a\u062f \u0641\u0631\u062d\u0627\u0646, Arab Hamid Farhan, \u0639\u0631\u0628 \u062d\u0645\u064a\u062f \u0641\u0631\u062d\u0627\u0646", "name": "\u0639\u0631\u0628 \u062d\u0645\u064a\u062f \u0641\u0631\u062d\u0627\u0646", "name:ar": "\u0639\u0631\u0628 \u062d\u0645\u064a\u062f \u0641\u0631\u062d\u0627\u0646", "name:ar1": "\u0639\u0631\u0628 \u062d\u0645\u064a\u062f \u0641\u0631\u062d\u0627\u0646", "name:de": "Arab Hamid Farhan", "name:en": "Arab Hamid Farhan", "name:fr": "Arab Hamid Farhan", "place": "village"}}, {"type": "node", "id": 2488421043, "lat": 34.184265, "lon": 42.926878, "tags": {"alt_name": "\u0642\u0631\u064a\u0629 \u063a\u0632\u064a\u0644", "int_name": "Ghaz\u012bl, Qaryat Ghaz\u012bl, \u063a\u0632\u064a\u0644, \u0642\u0631\u064a\u0629 \u063a\u0632\u064a\u0644, Ghazil, Qaryat Ghazil, \u063a\u0632\u064a\u0644, \u0642\u0631\u064a\u0629 \u063a\u0632\u064a\u0644", "name": "\u0642\u0631\u064a\u0629 \u063a\u0632\u064a\u0644", "name:ar": "\u0642\u0631\u064a\u0629 \u063a\u0632\u064a\u0644", "name:ar1": "\u0642\u0631\u064a\u0629 \u063a\u0632\u064a\u0644", "name:de": "Ghazil", "name:en": "Ghazil", "name:fr": "Ghazil", "place": "village"}}, {"type": "node", "id": 2488421074, "lat": 34.2173042, "lon": 42.8454509, "tags": {"alt_name": "\u0642\u0631\u064a\u0629 \u0623\u0631\u064a\u0648\u0644", "int_name": "Qaryat Ary\u016bl, \u0642\u0631\u064a\u0629 \u0627\u0631\u064a\u0648\u0644, Qaryat Aryul, \u0642\u0631\u064a\u0629 \u0627\u0631\u064a\u0648\u0644", "name": "\u0642\u0631\u064a\u0629 \u0623\u0631\u064a\u0648\u0644", "name:ar": "\u0642\u0631\u064a\u0629 \u0623\u0631\u064a\u0648\u0644", "name:ar1": "\u0642\u0631\u064a\u0629 \u0623\u0631\u064a\u0648\u0644", "name:de": "Qaryat Aryul", "name:en": "Qaryat Aryul", "name:fr": "Qaryat Aryul", "place": "village"}}, {"type": "node", "id": 2488421080, "lat": 34.226929, "lon": 42.830575, "tags": {"alt_name": "\u0642\u0631\u064a\u0629 \u0623\u0645 \u0637\u0628\u0648\u0643", "int_name": "Qaryat Umm \u0162ab\u016bk, \u0642\u0631\u064a\u0629 \u0627\u0645 \u0637\u0628\u0648\u0643, Qaryat Umm Tabuk, \u0642\u0631\u064a\u0629 \u0627\u0645 \u0637\u0628\u0648\u0643", "name": "\u0642\u0631\u064a\u0629 \u0623\u0645 \u0637\u0628\u0648\u0643", "name:ar": "\u0642\u0631\u064a\u0629 \u0623\u0645 \u0637\u0628\u0648\u0643", "name:ar1": "\u0642\u0631\u064a\u0629 \u0623\u0645 \u0637\u0628\u0648\u0643", "name:de": "Qaryat Umm Tabuk", "name:en": "Qaryat Umm Tabuk", "name:fr": "Qaryat Umm Tabuk", "place": "village"}}, {"type": "node", "id": 2489241167, "lat": 34.279356, "lon": 42.951134, "tags": {"alt_name": "\u0628\u062a\u0627\u0644 \u062c\u0648\u064a\u062f", "int_name": "Bat\u0101l Jaw\u012bd, \u0628\u062a\u0627\u0644 \u062c\u0648\u064a\u062f, Batal Jawid, \u0628\u062a\u0627\u0644 \u062c\u0648\u064a\u062f", "name": "\u0628\u062a\u0627\u0644 \u062c\u0648\u064a\u062f", "name:ar": "\u0628\u062a\u0627\u0644 \u062c\u0648\u064a\u062f", "name:ar1": "\u0628\u062a\u0627\u0644 \u062c\u0648\u064a\u062f", "name:de": "Batal Jawid", "name:en": "Batal Jawid", "name:fr": "Batal Jawid", "place": "village"}}, {"type": "node", "id": 2489268120, "lat": 34.2670966, "lon": 42.7467964, "tags": {"alt_name": "\u0639\u0631\u0628 \u0639\u0648\u062f\u0629 \u0623\u0633\u0648\u062f", "int_name": "Arab Awdah Aswad, Arab Awdah Aswad", "name": "\u0639\u0631\u0628 \u0639\u0648\u062f\u0629 \u0623\u0633\u0648\u062f", "name:ar": "\u0639\u0631\u0628 \u0639\u0648\u062f\u0629 \u0623\u0633\u0648\u062f", "name:ar1": "\u0639\u0631\u0628 \u0639\u0648\u062f\u0629 \u0623\u0633\u0648\u062f", "name:de": "Arab Awdah Aswad", "name:en": "Arab Awdah Aswad", "name:fr": "Arab Awdah Aswad", "place": "village"}}, {"type": "node", "id": 2489268165, "lat": 34.267776, "lon": 42.742232, "tags": {"alt_name": "\u0642\u0631\u064a\u0629 \u062e\u0631\u064a\u0646\u062c", "int_name": "Qaryat Kharaynij, \u0642\u0631\u064a\u0629 \u062e\u0631\u064a\u0646\u062c, Qaryat Kharaynij, \u0642\u0631\u064a\u0629 \u062e\u0631\u064a\u0646\u062c", "name": "\u0642\u0631\u064a\u0629 \u062e\u0631\u064a\u0646\u062c", "name:ar": "\u0642\u0631\u064a\u0629 \u062e\u0631\u064a\u0646\u062c", "name:ar1": "\u0642\u0631\u064a\u0629 \u062e\u0631\u064a\u0646\u062c", "name:de": "Qaryat Kharaynij", "name:en": "Qaryat Kharaynij", "name:fr": "Qaryat Kharaynij", "place": "village"}}, {"type": "node", "id": 2489268235, "lat": 34.2672694, "lon": 42.7461221, "tags": {"alt_name": "\u0639\u0631\u0628 \u0639\u0648\u062f\u0647 \u0627\u0633\u0648\u062f", "int_name": "\u0639\u0631\u0628 \u0639\u0648\u062f\u0647 \u0627\u0633\u0648\u062f, \u0639\u0631\u0628 \u0639\u0648\u062f\u0647 \u0627\u0633\u0648\u062f", "name": "\u0639\u0631\u0628 \u0639\u0648\u062f\u0647 \u0627\u0633\u0648\u062f", "name:ar": "\u0639\u0631\u0628 \u0639\u0648\u062f\u0647 \u0627\u0633\u0648\u062f", "name:ar1": "\u0639\u0631\u0628 \u0639\u0648\u062f\u0647 \u0627\u0633\u0648\u062f", "name:de": "Arab Awdah Aswad", "name:en": "Arab Awdah Aswad", "name:fr": "Arab Awdah Aswad", "place": "village"}}]}