{"version": 0.6, "generator": "Overpass API 0.7.61.5 4133829e", "osm3s": {"timestamp_osm_base": "2024-03-06T11:15:40Z", "copyright": "The data included in this document is from www.openstreetmap.org. The data is made available under ODbL."}, "elements": [{"type": "node", "id": 2996822870, "lat": 33.0119112, "lon": 46.8815641, "tags": {"is_in:country": "Iran", "name": "\u067e\u0647\u0644\u0647", "name:ckb": "\u067e\u06d5\u06be\u0644\u06d5", "name:en": "Pahleh", "name:fa": "\u067e\u0647\u0644\u0647", "name:fr": "Pahleh", "name:ku": "Pehle", "place": "town", "population": "3870", "population:date": "2016", "source:population": "amar.org.ir", "wikidata": "Q2416549", "wikipedia": "en:Pahleh"}}, {"type": "node", "id": 3291457215, "lat": 33.3060497, "lon": 47.0385999, "tags": {"is_in:country": "Iran", "name": "\u0628\u062f\u0631\u0647", "name:ckb": "\u0628\u06d5\u062f\u0631\u06d5", "name:en": "Badreh", "name:fa": "\u0628\u062f\u0631\u0647", "name:fr": "Badreh", "name:ja": "\u30d0\u30c9\u30ec", "name:ku": "Bedre", "place": "town", "population": "3775", "wikidata": "Q2416584", "wikipedia": "en:Badreh"}}, {"type": "node", "id": 3291479449, "lat": 33.2962334, "lon": 47.0628782, "tags": {"is_in:country": "Iran", "name": "\u0627\u0628\u0647\u0631 \u067e\u0627\u06cc\u06cc\u0646", "name:en": "Abhar-e Pain", "place": "village", "wikidata": "Q4667323", "wikipedia": "en:Abhar-e Pain"}}, {"type": "node", "id": 3291479450, "lat": 33.3264654, "lon": 47.0163924, "tags": {"is_in:country": "Iran", "name": "\u0628\u0627\u0646 \u0647\u0644\u0627\u0646 \u0628\u0627\u0644\u0627", "name:en": "Banhalan-e Bala", "place": "village", "population": "250", "wikidata": "Q4855651", "wikipedia": "en:Banhalan-e Bala"}}, {"type": "node", "id": 3291479451, "lat": 33.3584186, "lon": 46.9289198, "tags": {"is_in:country": "Iran", "name": "\u06a9\u0644\u0645 \u067e\u0627\u0626\u06cc\u0646", "name:en": "Kolm-e Pain", "place": "village", "wikidata": "Q5790947", "wikipedia": "en:Kolm-e Pain"}}, {"type": "node", "id": 3291479452, "lat": 33.4256212, "lon": 46.8640857, "tags": {"is_in:country": "Iran", "name": "\u062e\u0648\u0634 \u0642\u062f\u0645", "name:en": "Khvosh Qadam", "place": "village", "wikidata": "Q6403378", "wikipedia": "en:Khvosh Qadam"}}, {"type": "node", "id": 3291479453, "lat": 33.3583787, "lon": 46.9126317, "tags": {"is_in:country": "Iran", "name": "\u06a9\u0644\u0645 \u0628\u0627\u0644\u0627", "name:en": "Kolm-e Bala", "place": "village", "wikidata": "Q5790944", "wikipedia": "en:Kolm-e Bala"}}, {"type": "node", "id": 3291479454, "lat": 33.4235844, "lon": 46.9073225, "tags": {"is_in:country": "Iran", "name": "\u0645\u0648\u0633\u06cc", "name:en": "MusI", "place": "village", "wikidata": "Q6939887", "wikipedia": "en:Musa, Iran"}}, {"type": "node", "id": 3291479455, "lat": 33.3195603, "lon": 47.0340676, "tags": {"name": "\u0645\u0632\u0631\u0639\u0647 \u062e\u06cc\u0628\u0631", "name:en": "Mazraeh-ye Kheybar", "place": "hamlet", "wikidata": "Q6798827", "wikipedia": "fa:\u0645\u0632\u0631\u0639\u0647 \u062e\u06cc\u0628\u0631"}}, {"type": "node", "id": 3291479456, "lat": 33.4044927, "lon": 46.928171, "tags": {"is_in:country": "Iran", "name": "\u0645\u06cc\u0627\u0646 \u0631\u0627\u0647 \u062c\u0627\u0628\u0631", "name:en": "Mian Rah-e Jaber", "place": "village", "wikidata": "Q5802282", "wikipedia": "en:Mian Rah-e Jaber"}}, {"type": "node", "id": 3291479457, "lat": 33.3443691, "lon": 46.9959383, "tags": {"is_in:country": "Iran", "name": "\u0634\u0647\u0631\u06a9 \u0648\u0644\u06cc\u0639\u0635\u0631 \u0633\u0631\u062a\u0646\u06af \u0628\u0647\u0631\u0627\u0645 \u062e\u0627\u0646\u06cc", "name:en": "Shahrak-e Vali-ye Asr Sar Tang-e Bahram Khani", "place": "village", "wikidata": "Q5842989", "wikipedia": "en:Shahrak-e Vali-ye Asr Sar Tang-e Bahram Khani"}}, {"type": "node", "id": 3291479458, "lat": 33.2891977, "lon": 47.1087183, "tags": {"is_in:country": "Iran", "name": "\u0622\u0628 \u0686\u0634\u0645\u0647", "name:en": "Ab Cheshmeh", "place": "village"}}, {"type": "node", "id": 3291479459, "lat": 33.2805966, "lon": 47.169238, "tags": {"is_in:country": "Iran", "name": "\u0622\u0647\u0646\u06af\u0631\u0627\u0646 \u06a9\u0627\u0648\u06cc\u0627\u0646\u06cc", "name:en": "Ahangaran-e Kaviani", "place": "village", "wikidata": "Q4694956", "wikipedia": "en:Ahangaran-e Kaviani"}}, {"type": "node", "id": 3291479460, "lat": 33.279788, "lon": 47.1188882, "tags": {"is_in:country": "Iran", "name": "\u0641\u062f\u06a9", "name:en": "Fadak", "place": "village", "wikidata": "Q5429126", "wikipedia": "en:Fadak, Ilam"}}, {"type": "node", "id": 3291480561, "lat": 33.2731901, "lon": 47.160993, "tags": {"is_in:country": "Iran", "name": "\u0686\u0634\u0645\u0647 \u0634\u06cc\u0631\u06cc\u0646", "name:en": "Cheshmeh Shirin", "place": "town", "wikidata": "Q5093197", "wikipedia": "en:Cheshmeh Shirin, Darreh Shahr"}}, {"type": "node", "id": 3291480562, "lat": 33.265108, "lon": 47.1458791, "tags": {"is_in:country": "Iran", "name": "\u062f\u0648\u0644 \u06af\u0644\u0627\u0628", "name:en": "Dul Golab", "place": "village", "wikidata": "Q5313259", "wikipedia": "en:Dul Golab"}}, {"type": "node", "id": 3292362275, "lat": 33.1448808, "lon": 47.0542567, "tags": {"is_in:country": "Iran", "name": "\u062a\u062e\u062a\u0627\u0646", "name:en": "Takhtan", "place": "village", "wikidata": "Q6554939", "wikipedia": "en:Takhtan"}}, {"type": "node", "id": 3292362276, "lat": 33.0061475, "lon": 46.9405124, "tags": {"is_in:country": "Iran", "name": "\u0628\u0631\u062f\u06cc", "name:en": "Bardi", "place": "village", "wikidata": "Q4860152", "wikipedia": "en:Bardi, Iran"}}, {"type": "node", "id": 3292362277, "lat": 33.0873938, "lon": 47.0143121, "tags": {"is_in:country": "Iran", "name": "\u062e\u0631\u0628\u0632\u0627\u0646 \u0628\u0627\u0644\u0627", "name:en": "Kharbozan-e Bala", "place": "village", "wikidata": "Q6400605", "wikipedia": "en:Kharbozan-e Bala"}}, {"type": "node", "id": 3292362279, "lat": 33.1622565, "lon": 47.0219306, "tags": {"is_in:country": "Iran", "name": "\u0627\u06af\u0631\u0647 \u0628\u06cc\u062f", "name:en": "Agreh Bid", "place": "village", "wikidata": "Q4693815", "wikipedia": "en:Agreh Bid"}}, {"type": "node", "id": 3292362280, "lat": 33.0141855, "lon": 46.8940481, "tags": {"is_in:country": "Iran", "name": "\u06af\u0644\u0648\u0632\u0647 \u0645\u0634\u0647\u062f", "name:en": "Galuzeh Mashhad", "place": "village", "wikidata": "Q5519400", "wikipedia": "en:Galuzeh Mashhad"}}, {"type": "node", "id": 3292362281, "lat": 33.0184046, "lon": 46.8907402, "tags": {"is_in:country": "Iran", "name": "\u0627\u062d\u0645\u062f\u0622\u0628\u0627\u062f", "name:en": "Ahmadabad", "place": "village", "wikidata": "Q4695565", "wikipedia": "en:Ahmadabad, Ilam"}}, {"type": "node", "id": 3292362282, "lat": 33.1059619, "lon": 46.8009092, "tags": {"is_in:country": "Iran", "name": "\u0639\u0644\u06cc \u0622\u0628\u0627\u062f \u0628\u0632\u0631\u06af", "name:en": "Aliabad-e Bozorg", "place": "village", "wikidata": "Q4725465", "wikipedia": "en:Aliabad-e Bozorg"}}, {"type": "node", "id": 3292362283, "lat": 33.1101112, "lon": 46.7981034, "tags": {"is_in:country": "Iran", "name": "\u0639\u0644\u06cc \u0622\u0628\u0627\u062f \u06a9\u0648\u0686\u06a9", "name:en": "Aliabad-e Kuchak", "place": "village", "wikidata": "Q4725488", "wikipedia": "en:Aliabad-e Kuchak"}}, {"type": "node", "id": 3292362284, "lat": 33.063591, "lon": 46.9035116, "tags": {"is_in:country": "Iran", "name": "\u0647\u0641\u062a\u06a9\u062f\u0647", "name:en": "Haft Kadeh", "place": "village", "wikidata": "Q5638462", "wikipedia": "en:Haft Kadeh"}}, {"type": "node", "id": 3292362285, "lat": 33.1974441, "lon": 46.9750923, "tags": {"is_in:country": "Iran", "name": "\u06af\u0648\u0631\u0627\u0628 \u0639\u0644\u06cc\u0627", "name:en": "Gurab-e Olya", "place": "village", "wikidata": "Q5619787", "wikipedia": "en:Gurab-e Olya, Dehloran"}}, {"type": "node", "id": 3292362286, "lat": 33.184752, "lon": 46.966242, "tags": {"is_in:country": "Iran", "name": "\u06af\u0648\u0631\u0627\u0628 \u0633\u0641\u0644\u06cc", "name:en": "Gurab-e Sofla", "place": "village", "wikidata": "Q5619794", "wikipedia": "en:Gurab-e Sofla, Dehloran"}}, {"type": "node", "id": 3292362287, "lat": 33.090882, "lon": 46.9080463, "tags": {"is_in:country": "Iran", "name": "\u0632\u0631\u0622\u0628", "name:en": "Zarab", "place": "village", "wikidata": "Q5578141", "wikipedia": "en:Zarab, Ilam"}}, {"type": "node", "id": 3292362288, "lat": 33.0262086, "lon": 46.9054841, "tags": {"is_in:country": "Iran", "name": "\u0632\u0627\u0644\u0648\u0622\u0628", "name:en": "Zalu Ab", "place": "village", "wikidata": "Q5818354", "wikipedia": "en:Zalu Ab, Ilam"}}, {"type": "node", "id": 3292467999, "lat": 33.4404387, "lon": 46.7863345, "tags": {"is_in:country": "Iran", "name": "\u0686\u0646\u0627\u0631\u0628\u0627\u0634\u06cc", "name:en": "Chenar Bashi", "place": "village", "population": "462", "wikidata": "Q5091090", "wikipedia": "en:Chenar Bashi"}}, {"type": "node", "id": 3292468000, "lat": 33.4068674, "lon": 46.8268541, "tags": {"is_in:country": "Iran", "name": "\u06af\u0646\u062c\u0647", "name:en": "Ganjeh", "place": "village", "wikidata": "Q5521367", "wikipedia": "en:Ganjeh, Ilam"}}, {"type": "node", "id": 3293012343, "lat": 33.4338763, "lon": 46.9941455, "tags": {"is_in:country": "Iran", "name": "\u0686\u0645 \u0634\u06cc\u0631", "name:en": "Cham-e Shir", "place": "village", "wikidata": "Q5069143", "wikipedia": "en:Cham-e Shir, Ilam"}}, {"type": "node", "id": 3293160646, "lat": 33.3448596, "lon": 47.0035567, "tags": {"is_in:country": "Iran", "name": "\u0634\u0647\u0631\u06a9 \u0633\u0631\u062a\u0646\u06af", "name:en": "Shahrak-e Sartang", "place": "village", "wikidata": "Q5827364", "wikipedia": "en:Shahrak-e Sartang"}}, {"type": "node", "id": 3295035422, "lat": 33.3469088, "lon": 46.7664804, "tags": {"is_in:country": "Iran", "name": "\u0686\u0634\u0645\u0647 \u067e\u0647\u0646", "name:en": "Cheshmeh Pahn", "place": "village", "wikidata": "Q5093161", "wikipedia": "en:Cheshmeh Pahn, Malekshahi"}}, {"type": "node", "id": 3295035423, "lat": 33.267063, "lon": 46.7129662, "tags": {"is_in:country": "Iran", "name": "\u06af\u0631\u0627\u0628 \u062e\u0648\u0634\u0627\u062f\u0648\u0644", "name:en": "Garab Khvoshadul", "place": "hamlet", "wikidata": "Q5521840", "wikipedia": "en:Garab Khvoshadul"}}, {"type": "node", "id": 3295035424, "lat": 33.2640065, "lon": 46.8223185, "tags": {"is_in:country": "Iran", "name": "\u0646\u0627\u062f\u0631\u0622\u0628\u0627\u062f", "name:en": "Naderabad", "name:nl": "Naderabad", "place": "village", "wikidata": "Q5803962", "wikipedia": "en:Naderabad, Ilam"}}, {"type": "node", "id": 4476784363, "lat": 33.1895396, "lon": 46.7005053, "tags": {"is_in:country": "Iran", "is_in:state": "Ilam", "name": "\u0645\u0646\u0627\u0631 \u0628\u0644\u0648\u0637\u0633\u062a\u0627\u0646", "place": "hamlet", "population": "141"}}, {"type": "node", "id": 4476784365, "lat": 33.4392062, "lon": 46.8341947, "tags": {"is_in:country": "Iran", "is_in:state": "Ilam", "name": "\u062a\u0644\u062e\u0627\u0628", "place": "village", "population": "151"}}, {"type": "node", "id": 4476784368, "lat": 33.2731029, "lon": 47.1265043, "tags": {"is_in:country": "Iran", "is_in:state": "Ilam", "name": "\u0647\u0631\u0627\u0646\u0645\u0631", "place": "village", "population": "180"}}, {"type": "node", "id": 4476784377, "lat": 33.2625368, "lon": 47.1612209, "tags": {"is_in:country": "Iran", "is_in:state": "Ilam", "name": "\u06af\u0644\u0647 \u062f\u0627\u0631", "place": "village", "population": "756"}}, {"type": "node", "id": 4476784378, "lat": 33.2959188, "lon": 47.1012494, "tags": {"is_in:country": "Iran", "is_in:state": "Ilam", "name": "\u06af\u0686 \u06a9\u0648\u0628\u0627\u0646", "place": "village", "population": "976"}}, {"type": "node", "id": 4491454692, "lat": 33.4050415, "lon": 47.1716764, "tags": {"is_in:country": "Iran", "is_in:state": "Lorestan", "name": "\u0633\u0631\u062e\u0647 \u0644\u06cc\u0698\u0647 \u06a9\u0631\u0645\u0639\u0644\u06cc", "place": "village"}}, {"type": "node", "id": 4491454693, "lat": 33.4090703, "lon": 47.1625118, "tags": {"is_in:country": "Iran", "is_in:state": "Lorestan", "name": "\u06af\u0631\u062e\u0634\u0627\u0628 \u0639\u0628\u062f\u06cc", "place": "village"}}, {"type": "node", "id": 4491454694, "lat": 33.4150471, "lon": 47.1402216, "tags": {"is_in:country": "Iran", "is_in:state": "Lorestan", "name": "\u0686\u0644\u0647 \u0628\u0627\u0646", "place": "village", "wikidata": "Q5089833"}}, {"type": "node", "id": 4491454903, "lat": 33.4342446, "lon": 47.0145972, "tags": {"is_in:country": "Iran", "is_in:state": "Lorestan", "name": "\u0686\u0645 \u0628\u0631\u0632\u0648", "place": "village"}}, {"type": "node", "id": 4491454904, "lat": 33.3797687, "lon": 47.1700125, "tags": {"is_in:country": "Iran", "is_in:state": "Lorestan", "name": "\u062f\u0631\u0628\u0646\u062f\u06a9\u0628\u0648\u062f", "place": "village"}}]}