{"version": 0.6, "generator": "Overpass API 0.7.61.5 4133829e", "osm3s": {"timestamp_osm_base": "2024-03-06T11:09:29Z", "copyright": "The data included in this document is from www.openstreetmap.org. The data is made available under ODbL."}, "elements": [{"type": "node", "id": 4537957593, "lat": 37.1470207, "lon": 42.7023571, "tags": {"amenity": "hospital", "healthcare": "hospital", "name": "nexoshxana sh\u00eax seid p\u00eeran", "name:ar": "\u0645\u0633\u062a\u0634\u0641\u0649 \u0634\u064a\u062e \u0633\u0639\u064a\u062f \u0628\u064a\u0631\u0627\u0646", "name:en": "Shekh Said Piran Hospital", "name:ku": "\u0646\u06d5\u062e\u06c6\u0634\u062e\u0627\u0646\u06d5\u06cc \u0634\u06ce\u062e \u0633\u06d5\u0639\u06cc\u062f\u06cc \u067e\u06cc\u0631\u0627\u0646"}}, {"type": "node", "id": 4792217321, "lat": 37.1411171, "lon": 42.6871986, "tags": {"amenity": "clinic", "healthcare": "clinic", "name": "\u0645\u0631\u0643\u0632 \u0632\u0627\u0646\u064a\u0646 \u0627\u0644\u0637\u0628\u064a", "name:ar": "\u0645\u0631\u0643\u0632 \u0632\u0627\u0646\u064a\u0646 \u0627\u0644\u0637\u0628\u064a", "name:en": "Zanin Medical Center", "name:ku": "Zan\u00een - Navenda Tenduristiy\u00ea"}}, {"type": "node", "id": 4792217322, "lat": 37.1399245, "lon": 42.6889708, "tags": {"addr:street": "Kurdistan road", "amenity": "clinic", "healthcare": "clinic", "name": "\u0633\u0647 \u0646\u062a\u0631\u0627 \u062f\u0647 \u0644\u0627", "name:ar": "\u0633\u0646\u062a\u0631 \u062f\u0644\u0627\u0644 \u0627\u0644\u0637\u0628\u064a", "name:en": "Dalal Medical Center", "name:ku": "Centere Dalal Ye psishki"}}, {"type": "node", "id": 4792217421, "lat": 37.1431948, "lon": 42.691176, "tags": {"amenity": "hospital", "healthcare": "hospital", "name": "\u0646\u0647 \u062e\u0648\u0634\u062e\u0627\u0646\u0627 \u0646\u0648\u0631\u0648\u0632", "name:ar": "\u0645\u0633\u062a\u0634\u0641\u0649 \u0646\u0648\u0631\u0648\u0632", "name:en": "Nawroz Hospital", "name:ku": "\u0646\u06d5\u062e\u0648\u0634\u062e\u0627\u0646\u0627 \u0646\u0648\u0631\u0648\u0632"}}, {"type": "node", "id": 4856453123, "lat": 37.1378915, "lon": 42.6902692, "tags": {"amenity": "hospital", "healthcare": "hospital", "name": "\u0646\u06d5\u062e\u0648\u0634\u062e\u0627\u0646\u0627 \u0698\u064a\u0627\u0646 \u064a\u0627 \u0626\u06d5\u0647\u0644\u0649", "name:ar": "\u0645\u0633\u062a\u0634\u0641\u0649 \u0698\u064a\u0627\u0646 \u0627\u0647\u0644\u06cc", "name:en": "Zhyan Private Hospital", "name:ku": "Jiyan - Nexwe\u015fxaneya Taybet", "name:tr": "Jiyan Hastanesi"}}, {"type": "node", "id": 5053879823, "lat": 37.1663578, "lon": 42.6713087, "tags": {"amenity": "pharmacy", "healthcare": "pharmacy", "name": "\u0639\u0632\u064a\u0632 \u0622\u0645\u064a\u0646", "name:ar": "\u0639\u0632\u064a\u0632 \u0627\u0645\u064a\u0646", "name:en": "Aziz amin", "name:ku": "\u0639\u0632\u064a\u0632 \u0622\u0645\u064a\u0646"}}, {"type": "node", "id": 5056705024, "lat": 37.1431254, "lon": 42.6908625, "tags": {"amenity": "pharmacy", "healthcare": "pharmacy", "name": "\u062f\u0647 \u0631\u0645\u0627\u0646\u062e\u0627\u0646\u0627 \u0647\u0648\u0632\u0627\u0646", "name:ar": "\u0635\u064a\u062f\u0644\u064a\u0629 \u0647\u0648\u0632\u0627\u0646", "name:en": "Hozan Pharmacy", "name:ku": "\u062f\u0647 \u0631\u0645\u0627\u0646\u062e\u0627\u0646\u0627 \u0647\u0648\u0632\u0627\u0646"}}, {"type": "node", "id": 5137250325, "lat": 37.1413012, "lon": 42.6872671, "tags": {"amenity": "pharmacy", "healthcare": "pharmacy", "name": "\u062f\u06d5\u0631\u0645\u0627\u0646\u062e\u0627\u0646\u06d5\u06cc \u0632\u0627\u062e\u06c6", "name:ku": "Dermanxaneya Zaxo"}}, {"type": "node", "id": 5157292921, "lat": 37.1669825, "lon": 42.7194909, "tags": {"amenity": "hospital", "healthcare": "hospital", "name": "\u0645\u0633\u062a\u0634\u0641\u0649 \u062a\u0644\u0643\u0628\u0631"}}, {"type": "node", "id": 5241855421, "lat": 37.1835116, "lon": 42.8076138, "tags": {"amenity": "hospital", "healthcare": "hospital", "name": "\u0639\u064a\u0627\u062f\u0629 \u0647\u064a\u0632\u0627\u0648\u0627", "phone": "07507571403"}}, {"type": "node", "id": 5248775722, "lat": 37.2010873, "lon": 42.8248984, "tags": {"amenity": "hospital", "healthcare": "hospital", "name": "\u0628\u0646\u06af\u06d5\u06be\u06ce \u0633\u0627\u062e\u0644\u06d5\u0645\u06cc \u06cc\u06ce \u062f\u06d5\u0631\u06a9\u0627\u0631", "name:en": "Darkar health care centre"}}, {"type": "node", "id": 5249072521, "lat": 37.1384034, "lon": 42.6910701, "tags": {"amenity": "hospital", "healthcare": "hospital", "name": "\u06a9\u0648\u0645\u06d5\u0644\u06af\u06d5\u06be\u0627 \u0626\u0627\u0632\u0627\u062f\u06cc \u06cc\u0627 \u067e\u0632\u06cc\u0634\u06a9\u06cc", "name:en": "Azadi Medical Complex", "phone": "9647504146392"}}, {"type": "node", "id": 5279876223, "lat": 37.1415561, "lon": 42.6871008, "tags": {"amenity": "pharmacy", "healthcare": "pharmacy", "name": "\u062f\u0647 \u0631\u0645\u0627\u0646\u062e\u0627\u0646\u0627 \u0632\u0627\u062e\u0648", "name:ku": "Dermanxane"}}, {"type": "node", "id": 5293428721, "lat": 37.1396923, "lon": 42.6884653, "tags": {"addr:postcode": "964", "addr:street": "\u067e\u0631\u0627 \u062f\u06d5\u0644\u0627\u0644", "amenity": "pharmacy", "healthcare": "pharmacy", "name": "\u062f\u0629\u0631\u0645\u0627\u0646\u062e\u0627\u0646\u0627 \u062f\u0629\u0644\u0627\u0644", "name:en": "Dala pharmacists"}}, {"type": "node", "id": 5300121544, "lat": 37.1467137, "lon": 42.6800348}, {"type": "node", "id": 5300121546, "lat": 37.1466041, "lon": 42.6805187}, {"type": "node", "id": 5300121547, "lat": 37.1465969, "lon": 42.6806597}, {"type": "node", "id": 5300121548, "lat": 37.1467586, "lon": 42.6811221}, {"type": "node", "id": 5300121549, "lat": 37.1468766, "lon": 42.681383}, {"type": "node", "id": 5300121550, "lat": 37.1471614, "lon": 42.6815222}, {"type": "node", "id": 5300121551, "lat": 37.1491145, "lon": 42.6811081}, {"type": "node", "id": 5300121552, "lat": 37.1491744, "lon": 42.6802659}, {"type": "node", "id": 5300121554, "lat": 37.1475265, "lon": 42.6801232}, {"type": "node", "id": 5323161122, "lat": 37.1415593, "lon": 42.6537452, "tags": {"amenity": "hospital", "healthcare": "hospital", "name": "\u0646\u06d5\u062e\u0648\u0634\u062e\u0627\u0646\u0627 \u06a9\u06ce\u0645 \u0626\u06d5\u0646\u062f\u0627\u0645\u0627 \u06c6 \u0686\u0627\u06a4\u0627"}}, {"type": "node", "id": 5349898222, "lat": 37.140199, "lon": 42.6919196, "tags": {"amenity": "clinic", "healthcare": "clinic", "name": "\u0645\u062c\u0645\u0639 \u0637\u0628\u064a"}}, {"type": "node", "id": 5349898223, "lat": 37.1401668, "lon": 42.6919106, "tags": {"amenity": "pharmacy", "healthcare": "pharmacy", "name": "\u062f\u0647 \u0631\u0645\u0627\u0646\u062e\u0627\u0646\u0627 \u0646\u064a\u0648"}}, {"type": "node", "id": 5351185022, "lat": 37.139568, "lon": 42.7074062, "tags": {"amenity": "hospital", "healthcare": "hospital", "name": "\u0643\u0648\u0645\u0647 \u0644\u06af\u0647 \u0647\u0640 \u0648 \u062f\u0647 \u0631\u0645\u0627\u0646\u062e\u0627\u0646\u0627 \u0645\u0631\u0627\u062f"}}, {"type": "node", "id": 5393513022, "lat": 37.1462038, "lon": 42.6579775, "tags": {"amenity": "clinic", "healthcare": "clinic", "name": "\u06a9\u0644\u06cc\u0646\u06cc\u06a9\u0627 \u0648\u062f\u06d5\u0631\u0645\u0627\u0646\u062e\u0627\u0646\u0627 \u06af\u06b5\u0648\u0628\u0627\u0644", "name:en": "Global Medical clinic and pharmacy"}}, {"type": "node", "id": 5626526622, "lat": 37.1466569, "lon": 42.6800635, "tags": {"amenity": "pharmacy", "healthcare": "pharmacy", "name": "\u062f\u0647 \u0631\u0645\u0627\u0646\u062e\u0627\u0646\u0627 \u0647\u0643\u0627\u0631", "name:ar": "\u0635\u064a\u062f\u0644\u064a\u0629 \u0647\u0643\u0627\u0631", "name:en": "hakar pharmacy", "opening_hours": "Mo-Su 09:00-03:00"}}, {"type": "node", "id": 5731814255, "lat": 37.1423666, "lon": 42.6679443, "tags": {"amenity": "pharmacy", "dispensing": "yes", "healthcare": "pharmacy", "name": "nobel pharmacy", "name:ar": "\u0635\u064a\u062f\u0644\u064a\u0629 \u0646\u0648\u0628\u0644"}}, {"type": "node", "id": 5971381748, "lat": 37.148513, "lon": 42.6797804}, {"type": "node", "id": 5971381749, "lat": 37.1485261, "lon": 42.6794987}, {"type": "node", "id": 5971381750, "lat": 37.1479023, "lon": 42.6794529}, {"type": "node", "id": 5971381751, "lat": 37.1478977, "lon": 42.6795504}, {"type": "node", "id": 5971381752, "lat": 37.1476822, "lon": 42.6795345}, {"type": "node", "id": 5971381753, "lat": 37.1484494, "lon": 42.6797758}, {"type": "node", "id": 5971381754, "lat": 37.1484462, "lon": 42.6798441}, {"type": "node", "id": 5971381755, "lat": 37.1480888, "lon": 42.679818}, {"type": "node", "id": 5971381756, "lat": 37.1480927, "lon": 42.6797332}, {"type": "node", "id": 5971381757, "lat": 37.1479179, "lon": 42.6797164}, {"type": "node", "id": 5971381758, "lat": 37.1479116, "lon": 42.6797923}, {"type": "node", "id": 5971381759, "lat": 37.1475295, "lon": 42.6797663}, {"type": "node", "id": 5971381760, "lat": 37.1476871, "lon": 42.6794287}, {"type": "node", "id": 5971381761, "lat": 37.1475459, "lon": 42.6794182}, {"type": "node", "id": 5971421367, "lat": 37.1476666, "lon": 42.6797765}, {"type": "node", "id": 5971421368, "lat": 37.1477842, "lon": 42.6797789}, {"type": "node", "id": 5971421369, "lat": 37.1476706, "lon": 42.6796917}, {"type": "node", "id": 5971421370, "lat": 37.1477875, "lon": 42.6796974}, {"type": "node", "id": 5971421372, "lat": 37.147988, "lon": 42.6797231}, {"type": "node", "id": 6113711785, "lat": 37.1409931, "lon": 42.6879414, "tags": {"addr:street": "\u0634\u0627\u0631\u0639 \u0627\u0644\u0633\u0648\u0642 \u0628\u0627\u0631\u0643 \u0634\u0647\u064a\u062f\u0627\u0646", "amenity": "clinic", "email": "drfadhilsalman@gmail.com", "healthcare": "clinic", "name": "\u0627\u0644\u062f\u0643\u062a\u0648\u0631 \u0641\u0627\u0636\u0644 \u0633\u0644\u0645\u0627\u0646", "name:en": "Dr.fadhil salman"}}, {"type": "node", "id": 6142521988, "lat": 37.1393006, "lon": 42.6906691, "tags": {"addr:housenumber": "2", "addr:postcode": "42002", "addr:street": "\u0627\u0644\u0639\u0628\u0627\u0633\u064a\u0629", "amenity": "clinic", "email": "jagerxoinclinik@yahoo.com", "healthcare": "hospital", "internet_access": "wlan", "name": "\u0639\u064a\u0627\u062f\u0629 \u062c\u06af\u0631\u062e\u0648\u064a\u0646", "name:ar": "\u0639\u064a\u0627\u062f\u0629 \u062c\u06af\u0631\u062e\u0648\u064a\u0646 \u0627\u0644\u0627\u0633\u062a\u0634\u0627\u0631\u064a\u0629", "name:en": "Jagerxoin Clinik Zakho", "name:ku": "\u06a9\u0644\u06cc\u0646\u06cc\u06a9\u0627 \u062c\u06af\u0631\u062e\u0648\u06cc\u0646 \u06cc\u0627 \u0634\u06cc\u0631\u06d5\u062a\u06a9\u0627\u0631\u06cc", "opening_hours": "Sa-Th 15:00-20:00", "phone": "122", "website": "http://www.zakhohealth.org"}}, {"type": "node", "id": 6359067389, "lat": 37.1410007, "lon": 42.6878933, "tags": {"amenity": "clinic", "healthcare": "clinic", "name": "\u0645\u062e\u062a\u0628\u0631 \u062f\u0643\u062a\u0648\u0631 \u0642\u064a\u0633 \u0639\u064a\u0628\u062f", "name:en": "Dr. Qais medical lab", "name:ku": "\u062a\u0627\u0642\u064a\u06af\u0647 \u0647\u0627 \u062f\u0643\u062a\u0648\u0631 \u0642\u064a\u0633"}}, {"type": "node", "id": 6482906888, "lat": 37.1480594, "lon": 42.6993555, "tags": {"amenity": "clinic", "healthcare": "clinic", "name": "\u0639\u064a\u0627\u062f\u0647 \u0646\u0633\u0627\u0626\u064a"}}, {"type": "node", "id": 6691628085, "lat": 37.1605452, "lon": 42.6907228, "tags": {"addr:street": "Technical institute of zakho", "amenity": "pharmacy", "healthcare": "pharmacy", "name": "\u0635\u064a\u062f\u0644\u064a\u0629 \u0647\u0627\u0631\u064a\u0643\u0627\u0631", "name:en": "Harikar pharmacy", "name:ku": "\u062f\u0629\u0631\u0645\u0627\u0646\u062e\u0627\u0646\u0627 \u0647\u0627\u0631\u064a\u0643\u0627\u0631", "opening_hours": "Mo-Su 02:29-01:05"}}, {"type": "node", "id": 6981260886, "lat": 37.0802696, "lon": 42.5863756, "tags": {"amenity": "clinic", "name": "\u0639\u064a\u0627\u062f\u0629 \u0628\u064a\u0634\u0627\u0628\u064a\u0631", "name:en": "PSK Clinic", "name:ku": "\u0646\u06c6\u0631\u064a\u0646\u06af\u06d5\u064a \u067e\u064a\u0634\u0627\u0628\u064a\u0631"}}, {"type": "node", "id": 6982458585, "lat": 37.0802825, "lon": 42.5862316, "tags": {"amenity": "clinic", "email": "Peshkabir.medic@dno.no", "name": "\u0639\u064a\u0627\u062f\u0629 \u0628\u064a\u0634\u0627\u0628\u064a\u0631", "name:en": "PSK Clinic", "name:ku": "\u0646\u06c6\u0631\u064a\u0646\u06af\u06d5\u064a \u067e\u064a\u0634\u0627\u0628\u064a\u0631", "opening_hours": "24/7", "phone": "009647517408965"}}, {"type": "node", "id": 7070280686, "lat": 37.170442, "lon": 42.6798524, "tags": {"amenity": "hospital", "healthcare": "hospital", "name": "\u0643\u0644\u064a\u0646\u064a\u0643\u0627 \u0631\u0648\u0698"}}, {"type": "node", "id": 7301975485, "lat": 37.1413154, "lon": 42.6872844, "tags": {"addr:street": "\u0633\u06cc\u06a9\u0627 \u0632\u0627\u062e\u0648 \u06cc\u0627 \u06af\u0634\u062a\u0649", "amenity": "pharmacy", "healthcare": "pharmacy", "name": "\u062f\u06d5\u0631\u0645\u0627\u0646\u062e\u0627\u0646\u0627 \u062e\u0627\u0628\u0648\u0631", "name:ar": "\u0635\u064a\u062f\u0644\u064a\u0629 \u062e\u0627\u0628\u0648\u0631", "name:ku": "khabor pharmacy"}}, {"type": "node", "id": 8050755800, "lat": 37.1464947, "lon": 42.6480253}, {"type": "node", "id": 8050755801, "lat": 37.1465444, "lon": 42.6458313}, {"type": "node", "id": 8050755802, "lat": 37.1465434, "lon": 42.645787}, {"type": "node", "id": 8050755803, "lat": 37.1465305, "lon": 42.6457595}, {"type": "node", "id": 8050755804, "lat": 37.1465086, "lon": 42.6457407}, {"type": "node", "id": 8050755805, "lat": 37.1464621, "lon": 42.6457293}, {"type": "node", "id": 8050755806, "lat": 37.1459976, "lon": 42.6457071}, {"type": "node", "id": 8050755807, "lat": 37.1460003, "lon": 42.6459466}, {"type": "node", "id": 8050755808, "lat": 37.1459463, "lon": 42.6459439}, {"type": "node", "id": 8050755809, "lat": 37.1459453, "lon": 42.6459828}, {"type": "node", "id": 8050755810, "lat": 37.1456179, "lon": 42.6459793}, {"type": "node", "id": 8050755811, "lat": 37.145621, "lon": 42.6457183}, {"type": "node", "id": 8050755812, "lat": 37.1453081, "lon": 42.6457159}, {"type": "node", "id": 8050755813, "lat": 37.14481, "lon": 42.6457032}, {"type": "node", "id": 8050755814, "lat": 37.1448084, "lon": 42.6460009}, {"type": "node", "id": 8050755815, "lat": 37.1450056, "lon": 42.6460036}, {"type": "node", "id": 8050755816, "lat": 37.1449821, "lon": 42.6472039}, {"type": "node", "id": 8050755817, "lat": 37.1447945, "lon": 42.6471999}, {"type": "node", "id": 8050755818, "lat": 37.1447801, "lon": 42.6479589}, {"type": "node", "id": 8050755819, "lat": 37.1447833, "lon": 42.6479797}, {"type": "node", "id": 8050755820, "lat": 37.1447934, "lon": 42.6480025}, {"type": "node", "id": 8050755821, "lat": 37.144802, "lon": 42.6480179}, {"type": "node", "id": 8050755822, "lat": 37.1448153, "lon": 42.6480334}, {"type": "node", "id": 8050755823, "lat": 37.1448456, "lon": 42.6480597}, {"type": "node", "id": 8050755828, "lat": 37.1458617, "lon": 42.6481071}, {"type": "node", "id": 8050755829, "lat": 37.1464343, "lon": 42.6481306}, {"type": "node", "id": 8050755830, "lat": 37.1464589, "lon": 42.6481245}, {"type": "node", "id": 8050755831, "lat": 37.1464776, "lon": 42.6481131}, {"type": "node", "id": 8050755832, "lat": 37.1464899, "lon": 42.6480917}, {"type": "node", "id": 8050755833, "lat": 37.1464958, "lon": 42.6480635}, {"type": "node", "id": 8821385217, "lat": 37.1430813, "lon": 42.6882239, "tags": {"amenity": "pharmacy", "name": "\u0633\u0646\u062f\u06cc \u06a9\u0648\u0632\u0645\u0627\u062a\u06cc\u0643", "name:en": "Shadi pharmacy", "name:ku": "\u062f\u0647 \u0631 \u0645\u0627\u0646\u062e\u0627\u0646\u0627 \u0634\u0627\u062f\u0649", "phone": "7507055731", "tourism": "attraction"}}, {"type": "node", "id": 8918746010, "lat": 37.1333226, "lon": 42.6834458, "tags": {"amenity": "hospital", "name:en": "ZAKHU HOSPITAL ZAKHU"}}, {"type": "node", "id": 8986559017, "lat": 37.1835429, "lon": 42.8079028, "tags": {"amenity": "clinic", "healthcare": "clinic", "name": "\u0646\u06d5\u062e\u0648\u0634\u062e\u0627\u0646\u0627 \u0647\u06cc\u0632\u0627\u0648\u0627", "name:ku": "\u0645\u0633\u062a\u0634\u0641\u0649 \u0647\u064a\u0632\u0627\u0648\u0627"}}, {"type": "node", "id": 9349975465, "lat": 37.1627687, "lon": 42.6831675, "tags": {"amenity": "pharmacy", "healthcare": "pharmacy", "name": "Blind pharmacy"}}, {"type": "node", "id": 9405441217, "lat": 37.1384504, "lon": 42.6910988, "tags": {"addr:housenumber": "1", "addr:postcode": "42002", "addr:street": "\u0627\u0644\u0639\u0628\u0627\u0633\u064a\u0629", "amenity": "doctors", "internet_access": "wlan", "name": "\u062f\u0643\u062a\u0648\u0631 \u0634\u0627\u0643\u0648 \u0645\u062e\u062a\u0628\u0631", "name:en": "Dr. Shako Laboratory", "name:ku": "\u062f\u062e\u062a\u0648\u0631 \u0634\u0627\u0643\u0648 \u0645\u062e\u062a\u0628\u0631", "opening_hours": "Sa-Th 15:00-21:00; Fr 00:00-24:00", "phone": "07504817712"}}, {"type": "node", "id": 9440395709, "lat": 37.1411057, "lon": 42.6875687, "tags": {"amenity": "pharmacy", "name": "\u0635\u064a\u062f\u0644\u064a\u0629 \u0631\u0648\u0646\u0627\u0643"}}, {"type": "node", "id": 9440405517, "lat": 37.1409149, "lon": 42.6881866, "tags": {"amenity": "pharmacy", "name": "\u0635\u064a\u062f\u0644\u064a\u0629 \u0627\u062d\u0645\u062f"}}, {"type": "node", "id": 9964612518, "lat": 37.13931, "lon": 42.6906804, "tags": {"addr:housenumber": "2", "addr:postcode": "42002", "addr:street": "\u0627\u0644\u0639\u0628\u0627\u0633\u064a\u0629", "amenity": "clinic", "email": "zakhohealth@yahoo.com", "internet_access": "wlan", "name": "\u0639\u064a\u0627\u062f\u0629 \u062c\u06af\u0631\u062e\u0648\u064a\u0646 \u0627\u0644\u0627\u0633\u062a\u0634\u0627\u0631\u064a\u0629", "opening_hours": "Sa-Th 15:00-20:00", "phone": "122", "website": "http://www.zakhohealth.org"}}, {"type": "node", "id": 9964630717, "lat": 37.1480088, "lon": 42.6796323, "tags": {"amenity": "hospital", "internet_access": "wlan", "name": "\u0645\u0633\u062a\u0634\u0641\u0649 \u0627\u0644\u0648\u0644\u0627\u062f\u0629 \u0632\u0627\u062e\u0648", "opening_hours": "24/7", "phone": "122", "website": "http://www.zakhohealth.org"}}, {"type": "node", "id": 9964634217, "lat": 37.1393254, "lon": 42.6906693, "tags": {"addr:housenumber": "2", "addr:postcode": "42002", "addr:street": "\u0627\u0644\u0639\u0628\u0627\u0633\u064a\u0629", "amenity": "clinic", "email": "zakhohealth@yahoo.com", "internet_access": "wlan", "name": "\u0639\u064a\u0627\u062f\u0629 \u062c\u06af\u0631\u062e\u0648\u064a\u0646 \u0627\u0644\u0627\u0633\u062a\u0634\u0627\u0631\u064a\u0629", "opening_hours": "Sa-Th 15:00-20:00", "phone": "122", "website": "http://www.zakhohealth.org"}}, {"type": "node", "id": 10711712012, "lat": 37.1452947, "lon": 42.6480788}, {"type": "node", "id": 10711712013, "lat": 37.1458629, "lon": 42.6480277}, {"type": "node", "id": 10711712014, "lat": 37.1452961, "lon": 42.6480038}, {"type": "node", "id": 10711723211, "lat": 37.1448278, "lon": 42.6472006}, {"type": "node", "id": 10711723223, "lat": 37.1448336, "lon": 42.6460012}, {"type": "node", "id": 10711725752, "lat": 37.1456197, "lon": 42.6458205}, {"type": "node", "id": 10711725765, "lat": 37.1461771, "lon": 42.6457157}, {"type": "node", "id": 10711725767, "lat": 37.1465409, "lon": 42.645988}, {"type": "node", "id": 10711725778, "lat": 37.1465151, "lon": 42.6471239}, {"type": "node", "id": 10711725779, "lat": 37.1465367, "lon": 42.6461723}, {"type": "node", "id": 10711726171, "lat": 37.145442, "lon": 42.6457169}, {"type": "node", "id": 10711739614, "lat": 37.1454119, "lon": 42.6480087, "tags": {"barrier": "gate", "foot": "yes", "motor_vehicle": "no"}}, {"type": "node", "id": 10711746609, "lat": 37.1447942, "lon": 42.6472175}, {"type": "node", "id": 10711746621, "lat": 37.1456206, "lon": 42.6457477}, {"type": "node", "id": 10711746623, "lat": 37.1456091, "lon": 42.6457181}, {"type": "node", "id": 10711746624, "lat": 37.1455806, "lon": 42.6457193}, {"type": "node", "id": 10712359638, "lat": 37.1467488, "lon": 42.6802123}, {"type": "node", "id": 10712359639, "lat": 37.1466568, "lon": 42.6802381}, {"type": "node", "id": 10712359640, "lat": 37.1466048, "lon": 42.6800059}, {"type": "node", "id": 10712359645, "lat": 37.1470888, "lon": 42.6806709, "tags": {"amenity": "hospital", "healthcare": "hospital", "healthcare:speciality": "emergency", "name": "\u0647\u0648\u0644\u0627 \u067e\u064a\u0634\u0648\u0627\u0632\u064a\u0627 \u0647\u0647\u200c\u0648\u0627\u0631\u0647\u0627\u062a\u0646\u06ce"}}, {"type": "node", "id": 10712359677, "lat": 37.1467962, "lon": 42.6804177}, {"type": "node", "id": 10712378388, "lat": 37.1467461, "lon": 42.6810862}, {"type": "node", "id": 10712381669, "lat": 37.1474373, "lon": 42.6798886}, {"type": "node", "id": 10712381670, "lat": 37.147469, "lon": 42.6793942}, {"type": "node", "id": 10712381671, "lat": 37.1475265, "lon": 42.6793329}, {"type": "node", "id": 10712381672, "lat": 37.1492466, "lon": 42.6795169}, {"type": "node", "id": 10712381673, "lat": 37.1496069, "lon": 42.6796548}, {"type": "node", "id": 10712381674, "lat": 37.1493904, "lon": 42.6799247}, {"type": "node", "id": 10712381675, "lat": 37.1492552, "lon": 42.6800799}, {"type": "node", "id": 10712394328, "lat": 37.1470043, "lon": 42.6815011}, {"type": "node", "id": 10712394329, "lat": 37.1468044, "lon": 42.6812666}, {"type": "node", "id": 10724311205, "lat": 37.1424115, "lon": 42.6680766, "tags": {"addr:street": "Tax\u00ea Selahed\u00een", "amenity": "pharmacy", "name": "\u0646\u0648\u0628\u0644"}}, {"type": "way", "id": 548636519, "nodes": [5300121544, 10712359677, 5300121546, 5300121547, 10712378388, 5300121548, 10712394329, 5300121549, 10712394328, 5300121550, 5300121551, 5300121552, 5300121554, 5300121544], "tags": {"alt_name": "\u0646\u06d5\u062e\u06c6\u0634\u062e\u0627\u0646\u0627 \u062a\u06d5\u0646\u06af\u0627\u06a4\u06cc\u0627 \u0632\u0627\u062e\u06c6", "amenity": "hospital", "healthcare": "hospital", "name": "\u0646\u0647\u200c\u062e\u06c6\u0634\u062e\u0627\u0646\u0627 \u0641\u0631\u064a\u0627\u0643\u0647\u200c\u0648\u062a\u0646\u06ce \u064a\u0627 \u0632\u0627\u062e\u06c6", "name:ar": "\u0645\u0633\u062a\u0634\u0641\u0649 \u0637\u0648\u0627\u0631\u0626 \u0632\u0627\u062e\u0648", "name:ckb": "\u0646\u06d5\u062e\u06c6\u0634\u062e\u0627\u0646\u06d5\u06cc \u0641\u0631\u06cc\u0627\u06a9\u06d5\u0648\u062a\u0646\u06cc \u0632\u0627\u062e\u06c6", "name:en": "Zakho Emergency Hospital", "name:ku": "Nexwe\u015fxana Firyakewtin\u00ea ya Zaxo"}}, {"type": "way", "id": 632422167, "nodes": [5971381748, 5971381749, 5971381750, 5971381751, 5971381752, 5971381760, 5971381761, 5971381759, 5971421367, 5971421369, 5971421370, 5971421368, 5971381758, 5971381757, 5971421372, 5971381756, 5971381755, 5971381754, 5971381753, 5971381748], "tags": {"addr:housenumber": "2", "addr:postcode": "42002", "addr:street": "\u062c\u0633\u0631 \u062e\u0627\u0646\u064a", "amenity": "hospital", "building": "hospital", "email": "maternity@zakhohealth.org", "healthcare": "hospital", "internet_access": "wlan", "name": "\u0646\u06d5\u062e\u06c6\u0634\u062e\u0627\u0646\u0627 \u0626\u0627\u0641\u0631\u06d5\u062a \u0648 \u0632\u0627\u0631\u06c6\u06a9 \u0628\u0648\u0648\u0646\u06ce \u0644 \u0632\u0627\u062e\u06c6", "name:ar": "\u0645\u0633\u062a\u0634\u0641\u0649 \u0627\u0644\u0646\u0633\u0627\u0626\u064a\u0629 \u0648 \u0627\u0644\u062a\u0648\u0644\u064a\u062f \u0641\u064a \u0632\u0627\u062e\u0648", "name:ckb": "\u0646\u06d5\u062e\u06c6\u0634\u062e\u0627\u0646\u06d5\u06cc \u0626\u0627\u0641\u0631\u06d5\u062a \u0648 \u0645\u0646\u062f\u0627\u06b5\u0628\u0648\u0648\u0646 \u0644\u06d5 \u0632\u0627\u062e\u06c6", "name:en": "Maternity Hospital in Zakho", "name:ku": "Nexwe\u015fxana Afret \u00fb Zarok B\u00fbn\u00ea li Zaxo", "opening_hours": "24/7", "phone": "07504848302", "website": "http://www.zakhohealth.org"}}, {"type": "way", "id": 864179177, "nodes": [8050755800, 10711725778, 10711725779, 10711725767, 8050755801, 8050755802, 8050755803, 8050755804, 8050755805, 10711725765, 8050755806, 8050755807, 8050755808, 8050755809, 8050755810, 10711725752, 10711746621, 8050755811, 10711746623, 10711746624, 10711726171, 8050755812, 8050755813, 8050755814, 10711723223, 8050755815, 8050755816, 10711723211, 8050755817, 10711746609, 8050755818, 8050755819, 8050755820, 8050755821, 8050755822, 8050755823, 10711712012, 10711712014, 10711739614, 10711712013, 8050755828, 8050755829, 8050755830, 8050755831, 8050755832, 8050755833, 8050755800], "tags": {"amenity": "hospital", "healthcare": "hospital", "name": "\u0646\u06d5\u062e\u06c6\u0634\u062e\u0627\u0646\u0627 \u0632\u0627\u062e\u06c6 \u06cc\u0627 \u06af\u0634\u062a\u06cc", "name:ar": "\u0645\u0633\u062a\u0634\u0641\u0649 \u0627\u0644\u0639\u0627\u0645 \u0641\u064a \u0632\u0627\u062e\u0648", "name:ckb": "\u0646\u06d5\u062e\u06c6\u0634\u062e\u0627\u0646\u06d5\u06cc \u06af\u0634\u062a\u06cc\u06cc \u0632\u0627\u062e\u06c6", "name:en": "Zakho General Hospital", "name:ku": "Nexwe\u015fxana Zaxo ya Gi\u015ft\u00ee", "name:tr": "Zaho Genel Hastanesi"}}, {"type": "way", "id": 1151537320, "nodes": [10712359638, 5300121544, 10712359640, 10712359639, 10712359638], "tags": {"amenity": "pharmacy", "building": "yes", "healthcare": "pharmacy"}}, {"type": "way", "id": 1151538921, "nodes": [10712381669, 10712381670, 10712381671, 10712381672, 10712381673, 10712381674, 10712381675, 10712381669], "tags": {"amenity": "hospital", "healthcare": "hospital", "name": "\u0645\u0633\u062a\u0634\u0641\u0649 \u0648\u0644\u0627\u062f\u0629 \u0632\u0627\u062e\u0648"}}]}