{"version": 0.6, "generator": "Overpass API 0.7.61.5 4133829e", "osm3s": {"timestamp_osm_base": "2024-03-06T11:16:45Z", "copyright": "The data included in this document is from www.openstreetmap.org. The data is made available under ODbL."}, "elements": [{"type": "node", "id": 819610933, "lat": 33.8862053, "lon": 45.6388242, "tags": {"alt_name": "Soormar;Sowmar;Soomar", "is_in": "Ilam,Iran", "is_in:country": "Iran", "is_in:state": "Kermanshah", "name": "\u0633\u0648\u0645\u0627\u0631", "name:ckb": "\u0633\u0648\u0648\u0645\u0627\u0631", "name:en": "Sumar", "name:fa": "\u0633\u0648\u0645\u0627\u0631", "name:fr": "Sumar", "name:ku": "S\u00fbmar", "place": "town", "population": "180", "population:date": "2016", "source:name": "GNS", "source:population": "amar.org.ir", "wikidata": "Q4360365"}}, {"type": "node", "id": 2482547251, "lat": 33.523333, "lon": 45.886667, "tags": {"alt_name": "\u0646\u06cc \u062e\u0632\u0631", "int_name": "Ney Khezer, Ney Khezer", "is_in": "Iraq , \u062c\u0645\u0647\u0648\u0631\u064a\u0629 \u0627\u0644\u0639\u0631\u0627\u0642", "name": "\u0646\u06cc \u062e\u0632\u0631", "name:ar": "\u0646\u064a \u062e\u0632\u0631", "name:ar1": "\u0646\u064a \u062e\u0632\u0631", "name:de": "Ney Khezer", "name:en": "Ney Khezer", "name:fr": "Ney Khezer", "place": "village"}}, {"type": "node", "id": 2482549163, "lat": 33.533333, "lon": 45.75, "tags": {"alt_name": "\u0633\u0644\u0645\u0627\u0646 \u0641\u0631\u0627\u062c", "int_name": "Salm\u0101n Farr\u0101j, Salman Farraj", "is_in": "Iraq , \u062c\u0645\u0647\u0648\u0631\u064a\u0629 \u0627\u0644\u0639\u0631\u0627\u0642", "name": "\u0633\u0644\u0645\u0627\u0646 \u0641\u0631\u0627\u062c", "name:ar": "\u0633\u0644\u0645\u0627\u0646 \u0641\u0631\u0627\u062c", "name:ar1": "\u0633\u0644\u0645\u0627\u0646 \u0641\u0631\u0627\u062c", "name:de": "Salman Farraj", "name:en": "Salman Farraj", "name:fr": "Salman Farraj", "name:ru": "\u0421\u0430\u043b\u044c\u043c\u0430\u043d-\u0424\u0430\u0440\u0430\u0434\u0436", "place": "village"}}, {"type": "node", "id": 2483967211, "lat": 33.4862913, "lon": 45.775046, "tags": {"alt_name": "\u062a\u0647\u0644\u0627\u0648", "int_name": "Tahl\u0101w, Tahlaw", "is_in": "Iraq , \u062c\u0645\u0647\u0648\u0631\u064a\u0629 \u0627\u0644\u0639\u0631\u0627\u0642", "name": "\u062a\u0647\u0644\u0627\u0648", "name:ar": "\u062a\u0647\u0644\u0627\u0648", "name:ar1": "\u062a\u0647\u0644\u0627\u0648", "name:de": "Tahlaw", "name:en": "Tahlaw", "name:fr": "Tahlaw", "place": "village"}}, {"type": "node", "id": 2488516674, "lat": 33.718247, "lon": 45.609975, "tags": {"alt_name": "\u062d\u0627\u062c \u0631\u0636\u0627", "int_name": "\u1e28\u0101jj Ra\u1e11\u0101, \u062d\u0627\u062c \u0631\u0636\u0627, Hajj Rada, \u062d\u0627\u062c \u0631\u0636\u0627", "is_in": "Iraq , \u062c\u0645\u0647\u0648\u0631\u064a\u0629 \u0627\u0644\u0639\u0631\u0627\u0642", "name": "\u062d\u0627\u062c \u0631\u0636\u0627", "name:ar": "\u062d\u0627\u062c \u0631\u0636\u0627", "name:ar1": "\u062d\u0627\u062c \u0631\u0636\u0627", "name:de": "Hajj Rada", "name:en": "Hajj Rada", "name:fr": "Hajj Rada", "place": "village"}}, {"type": "node", "id": 2488517977, "lat": 33.672702, "lon": 45.624719, "tags": {"alt_name": "\u0639\u0631\u0628 \u0643\u0648\u0645\u0629 \u0627\u0644\u0639\u0631\u0628\u064a\u0629", "int_name": "Arab K\u016bmat al Arab\u012byah, \u0639\u0631\u0628 \u0643\u0648\u0645\u0629 \u0627\u0644\u0639\u0631\u0628\u064a\u0629, Arab Kumat al Arabiyah, \u0639\u0631\u0628 \u0643\u0648\u0645\u0629 \u0627\u0644\u0639\u0631\u0628\u064a\u0629", "is_in": "Iraq , \u062c\u0645\u0647\u0648\u0631\u064a\u0629 \u0627\u0644\u0639\u0631\u0627\u0642", "name": "\u0639\u0631\u0628 \u0643\u0648\u0645\u0629 \u0627\u0644\u0639\u0631\u0628\u064a\u0629", "name:ar": "\u0639\u0631\u0628 \u0643\u0648\u0645\u0629 \u0627\u0644\u0639\u0631\u0628\u064a\u0629", "name:ar1": "\u0639\u0631\u0628 \u0643\u0648\u0645\u0629 \u0627\u0644\u0639\u0631\u0628\u064a\u0629", "name:de": "Arab Kumat al Arabiyah", "name:en": "Arab Kumat al Arabiyah", "name:fr": "Arab Kumat al Arabiyah", "place": "village"}}, {"type": "node", "id": 2488517980, "lat": 33.644362, "lon": 45.652738, "tags": {"alt_name": "\u0639\u0631\u0628 \u0627\u0644\u062d\u0632\u0627\u0645", "int_name": "Arab al \u1e28az\u0101m, \u0639\u0631\u0628 \u0627\u0644\u062d\u0632\u0627\u0645, Arab al Hazam, \u0639\u0631\u0628 \u0627\u0644\u062d\u0632\u0627\u0645", "is_in": "Iraq , \u062c\u0645\u0647\u0648\u0631\u064a\u0629 \u0627\u0644\u0639\u0631\u0627\u0642", "name": "\u0639\u0631\u0628 \u0627\u0644\u062d\u0632\u0627\u0645", "name:ar": "\u0639\u0631\u0628 \u0627\u0644\u062d\u0632\u0627\u0645", "name:ar1": "\u0639\u0631\u0628 \u0627\u0644\u062d\u0632\u0627\u0645", "name:de": "Arab al Hazam", "name:en": "Arab al Hazam", "name:fr": "Arab al Hazam", "place": "village"}}, {"type": "node", "id": 2488517982, "lat": 33.646389, "lon": 45.636667, "tags": {"alt_name": "\u0628\u0647\u062c\u0629", "int_name": "Bihjah, Bihjah", "is_in": "Iraq , \u062c\u0645\u0647\u0648\u0631\u064a\u0629 \u0627\u0644\u0639\u0631\u0627\u0642", "name": "\u0628\u0647\u062c\u0629", "name:ar": "\u0628\u0647\u062c\u0629", "name:ar1": "\u0628\u0647\u062c\u0629", "name:de": "Bihjah", "name:en": "Bihjah", "name:fr": "Bihjah", "place": "village"}}, {"type": "node", "id": 2488517991, "lat": 33.666667, "lon": 45.616667, "tags": {"alt_name": "\u063a\u0631\u064a\u0628\u0629", "int_name": "Ghar\u012bbah, Gharibah", "is_in": "Iraq , \u062c\u0645\u0647\u0648\u0631\u064a\u0629 \u0627\u0644\u0639\u0631\u0627\u0642", "name": "\u063a\u0631\u064a\u0628\u0629", "name:ar": "\u063a\u0631\u064a\u0628\u0629", "name:ar1": "\u063a\u0631\u064a\u0628\u0629", "name:de": "Gharibah", "name:en": "Gharibah", "name:fr": "Gharibah", "place": "village"}}, {"type": "node", "id": 2488518006, "lat": 33.586061, "lon": 45.728294, "tags": {"alt_name": "\u062d\u0645\u064a\u062f \u0633\u0644\u064a\u0645\u0627\u0646", "int_name": "\u1e28am\u012bd al Sul\u012bm\u0101n, \u062d\u0645\u064a\u062f \u0633\u0644\u064a\u0645\u0627\u0646, Hamid al Suliman, \u062d\u0645\u064a\u062f \u0633\u0644\u064a\u0645\u0627\u0646", "is_in": "Iraq , \u062c\u0645\u0647\u0648\u0631\u064a\u0629 \u0627\u0644\u0639\u0631\u0627\u0642", "name": "\u062d\u0645\u064a\u062f \u0633\u0644\u064a\u0645\u0627\u0646", "name:ar": "\u062d\u0645\u064a\u062f \u0633\u0644\u064a\u0645\u0627\u0646", "name:ar1": "\u062d\u0645\u064a\u062f \u0633\u0644\u064a\u0645\u0627\u0646", "name:de": "Hamid al Suliman", "name:en": "Hamid al Suliman", "name:fr": "Hamid al Suliman", "place": "village"}}, {"type": "node", "id": 2488518012, "lat": 33.579319, "lon": 45.77126, "tags": {"alt_name": "\u062d\u0633\u0646 \u0627\u0644\u0639\u0644\u064a", "int_name": "\u1e28asan al Al\u012b, \u062d\u0633\u0646 \u0627\u0644\u0639\u0644\u064a, Hasan al Ali, \u062d\u0633\u0646 \u0627\u0644\u0639\u0644\u064a", "is_in": "Iraq , \u062c\u0645\u0647\u0648\u0631\u064a\u0629 \u0627\u0644\u0639\u0631\u0627\u0642", "name": "\u062d\u0633\u0646 \u0627\u0644\u0639\u0644\u064a", "name:ar": "\u062d\u0633\u0646 \u0627\u0644\u0639\u0644\u064a", "name:ar1": "\u062d\u0633\u0646 \u0627\u0644\u0639\u0644\u064a", "name:de": "Hasan al Ali", "name:en": "Hasan al Ali", "name:fr": "Hasan al Ali", "place": "village"}}, {"type": "node", "id": 2488518020, "lat": 33.603832, "lon": 45.836881, "tags": {"alt_name": "\u0647\u06cc\u0644\u0629", "int_name": "Haylah, \u0647\u064a\u0644\u0629, Haylah, \u0647\u064a\u0644\u0629", "is_in": "Iraq , \u062c\u0645\u0647\u0648\u0631\u064a\u0629 \u0627\u0644\u0639\u0631\u0627\u0642", "name": "\u0647\u06cc\u0644\u0629", "name:ar": "\u0647\u064a\u0644\u0629", "name:ar1": "\u0647\u064a\u0644\u0629", "name:de": "Haylah", "name:en": "Haylah", "name:fr": "Haylah", "place": "village"}}, {"type": "node", "id": 2488518042, "lat": 33.623029, "lon": 45.903633, "tags": {"alt_name": "\u06a9\u062f\u0627\u0631", "int_name": "Kad\u0101r, \u0643\u062f\u0627\u0631, Kadar, \u0643\u062f\u0627\u0631", "is_in": "Iraq , \u062c\u0645\u0647\u0648\u0631\u064a\u0629 \u0627\u0644\u0639\u0631\u0627\u0642", "name": "\u06a9\u062f\u0627\u0631", "name:ar": "\u0643\u062f\u0627\u0631", "name:ar1": "\u0643\u062f\u0627\u0631", "name:de": "Kadar", "name:en": "Kadar", "name:fr": "Kadar", "place": "village"}}, {"type": "node", "id": 2488518067, "lat": 33.6455447, "lon": 45.6851124, "tags": {"alt_name": "\u0644\u062c\u0645\u0629", "int_name": "Lajmah, \u0644\u062c\u0645\u0629, Lajmah, \u0644\u062c\u0645\u0629", "is_in": "Iraq , \u062c\u0645\u0647\u0648\u0631\u064a\u0629 \u0627\u0644\u0639\u0631\u0627\u0642", "name": "\u0644\u062c\u0645\u0629", "name:ar": "\u0644\u062c\u0645\u0629", "name:ar1": "\u0644\u062c\u0645\u0629", "name:de": "Lajmah", "name:en": "Lajmah", "name:fr": "Lajmah", "place": "village"}}, {"type": "node", "id": 2488518106, "lat": 33.616667, "lon": 45.7, "tags": {"alt_name": "\u0645\u0627\u0644\u064a\u0647", "int_name": "M\u0101l\u012bh, Malih", "is_in": "Iraq , \u062c\u0645\u0647\u0648\u0631\u064a\u0629 \u0627\u0644\u0639\u0631\u0627\u0642", "name": "\u0645\u0627\u0644\u064a\u0647", "name:ar": "\u0645\u0627\u0644\u064a\u0647", "name:ar1": "\u0645\u0627\u0644\u064a\u0647", "name:de": "Malih", "name:en": "Malih", "name:fr": "Malih", "place": "village"}}, {"type": "node", "id": 2488518119, "lat": 33.588056, "lon": 45.733056, "tags": {"alt_name": "\u0645\u062e\u064a\u0628\u0631", "int_name": "Mukhaybir, Mukhaybir", "is_in": "Iraq , \u062c\u0645\u0647\u0648\u0631\u064a\u0629 \u0627\u0644\u0639\u0631\u0627\u0642", "name": "\u0645\u062e\u064a\u0628\u0631", "name:ar": "\u0645\u062e\u064a\u0628\u0631", "name:ar1": "\u0645\u062e\u064a\u0628\u0631", "name:de": "Mukhaybir", "name:en": "Mukhaybir", "name:fr": "Mukhaybir", "place": "village"}}, {"type": "node", "id": 2488518139, "lat": 33.633333, "lon": 45.7, "tags": {"alt_name": "\u0646\u0627\u0635\u0631", "int_name": "N\u0101\u015fir, Nasir", "is_in": "Iraq , \u062c\u0645\u0647\u0648\u0631\u064a\u0629 \u0627\u0644\u0639\u0631\u0627\u0642", "name": "\u0646\u0627\u0635\u0631", "name:ar": "\u0646\u0627\u0635\u0631", "name:ar1": "\u0646\u0627\u0635\u0631", "name:de": "Nasir", "name:en": "Nasir", "name:fr": "Nasir", "place": "village"}}, {"type": "node", "id": 2488518182, "lat": 33.6490861, "lon": 45.6505375, "tags": {"alt_name": "\u0634\u064a\u062e \u0641\u0632\u0627\u0639", "int_name": "Shaikh Fazza, Shaykh Fazz\u0101, Shaykh Fazzaw, Shaikh Fazza, Shaykh Fazza, Shaykh Fazzaw", "is_in": "Iraq , \u062c\u0645\u0647\u0648\u0631\u064a\u0629 \u0627\u0644\u0639\u0631\u0627\u0642", "name": "\u0634\u064a\u062e \u0641\u0632\u0627\u0639", "name:ar": "\u0634\u064a\u062e \u0641\u0632\u0627\u0639", "name:ar1": "\u0634\u064a\u062e \u0641\u0632\u0627\u0639", "name:de": "Shaikh Fazza", "name:en": "Shaikh Fazza", "name:fr": "Shaikh Fazza", "place": "village"}}, {"type": "node", "id": 2488518196, "lat": 33.648841, "lon": 45.6500285, "tags": {"alt_name": "\u0634\u064a\u062e \u0641\u0627\u0632\u0648", "int_name": "Shaykh F\u0101z\u016b, \u0634\u064a\u062e \u0641\u0627\u0632\u0648, Shaykh Fazu, \u0634\u064a\u062e \u0641\u0627\u0632\u0648", "is_in": "Iraq , \u062c\u0645\u0647\u0648\u0631\u064a\u0629 \u0627\u0644\u0639\u0631\u0627\u0642", "name": "\u0634\u064a\u062e \u0641\u0627\u0632\u0648", "name:ar": "\u0634\u064a\u062e \u0641\u0627\u0632\u0648", "name:ar1": "\u0634\u064a\u062e \u0641\u0627\u0632\u0648", "name:de": "Shaykh Fazu", "name:en": "Shaykh Fazu", "name:fr": "Shaykh Fazu", "place": "village"}}, {"type": "node", "id": 2488518209, "lat": 33.627346, "lon": 45.692098, "tags": {"alt_name": "\u062a\u0644 \u0644\u062c\u0645\u0629 \u0627\u0644\u0623\u062b\u0631\u064a", "int_name": "Tall Lajmat al Athar\u012b, \u062a\u0644 \u0644\u062c\u0645\u0629 \u0627\u0644\u0627\u062b\u0631\u064a, Tall Lajmat al Athari, \u062a\u0644 \u0644\u062c\u0645\u0629 \u0627\u0644\u0627\u062b\u0631\u064a", "is_in": "Iraq , \u062c\u0645\u0647\u0648\u0631\u064a\u0629 \u0627\u0644\u0639\u0631\u0627\u0642", "name": "\u062a\u0644 \u0644\u062c\u0645\u0629 \u0627\u0644\u0623\u062b\u0631\u064a", "name:ar": "\u062a\u0644 \u0644\u062c\u0645\u0629 \u0627\u0644\u0623\u062b\u0631\u064a", "name:ar1": "\u062a\u0644 \u0644\u062c\u0645\u0629 \u0627\u0644\u0623\u062b\u0631\u064a", "name:de": "Tall Lajmat al Athari", "name:en": "Tall Lajmat al Athari", "name:fr": "Tall Lajmat al Athari", "place": "village"}}, {"type": "node", "id": 3262274660, "lat": 33.5692733, "lon": 46.1062657, "tags": {"is_in:country": "Iran", "name": "\u0633\u0631\u0646\u06cc", "name:en": "Sarney", "place": "village"}}, {"type": "node", "id": 3292382777, "lat": 33.6475366, "lon": 46.1247151, "tags": {"is_in:country": "Iran", "name": "\u0627\u0646\u0627\u0631\u06a9", "name:en": "Anarak", "place": "village", "wikidata": "Q4751609", "wikipedia": "en:Anarak, Ilam"}}, {"type": "node", "id": 3292382780, "lat": 33.7314841, "lon": 46.1203873, "tags": {"name": "\u0628\u0627\u0646 \u06a9\u0644 \u0648\u0644\u06cc", "name:en": "Ban Kalvali", "place": "village", "wikidata": "Q4853618", "wikipedia": "en:Ban Kalvali"}}, {"type": "node", "id": 3292382781, "lat": 33.7260079, "lon": 46.1119769, "tags": {"name": "\u0628\u0631\u062c\u0639\u0644\u06cc", "name:en": "Borj Ali", "place": "village", "wikidata": "Q4945547", "wikipedia": "fa:\u0628\u0631\u062c\u0639\u0644\u06cc"}}, {"type": "node", "id": 3292382784, "lat": 33.7115906, "lon": 46.0933551, "tags": {"is_in:country": "Iran", "name": "\u0628\u0627\u0646 \u062e\u0634\u06a9", "place": "village"}}, {"type": "node", "id": 3292382795, "lat": 33.7841127, "lon": 46.0943374, "tags": {"is_in:country": "Iran", "name": "\u067e\u0627\u0631\u062f\u0647", "name:en": "Pardeh", "place": "village", "wikidata": "Q5791417", "wikipedia": "en:Pardeh, Ilam"}}, {"type": "node", "id": 3292483320, "lat": 33.7939957, "lon": 45.9109012, "tags": {"is_in:country": "Iran", "name": "\u0686\u0645\u0646 \u0633\u06cc\u062f\u0645\u062d\u0645\u062f", "name:en": "Charman-e Seyyed Mohammad", "place": "village", "wikidata": "Q5069432", "wikipedia": "en:Chaman-e Seyyed Mohammad"}}, {"type": "node", "id": 3292483321, "lat": 33.7108163, "lon": 46.0162427, "tags": {"is_in:country": "Iran", "name": "\u062f\u0627\u0631\u062a\u0648\u062a", "name:en": "Dartut", "place": "village"}}, {"type": "node", "id": 3292483322, "lat": 33.7468763, "lon": 45.9702675, "tags": {"is_in:country": "Iran", "name": "\u06af\u0646\u062c\u0648\u0627\u0646", "name:en": "Ganjevan", "place": "village"}}, {"type": "node", "id": 3292483323, "lat": 33.6670903, "lon": 45.9947042, "tags": {"is_in:country": "Iran", "name": "\u06af\u0631\u0647 \u0686\u0642\u0627", "name:en": "Gereh Cheqa", "place": "village"}}, {"type": "node", "id": 3292483324, "lat": 33.6136323, "lon": 46.0950309, "tags": {"is_in:country": "Iran", "name": "\u0642\u0628\u0644\u0647", "name:en": "Qebleh", "place": "village"}}, {"type": "node", "id": 3292483325, "lat": 33.6584126, "lon": 46.0262162, "tags": {"is_in:country": "Iran", "name": "\u067e\u0627\u0642\u0644\u0639\u0647", "name:en": "Pa Qaleh", "place": "village"}}, {"type": "node", "id": 3292483326, "lat": 33.8015775, "lon": 45.9611758, "tags": {"is_in:country": "Iran", "name": "\u067e\u0627\u0686\u0645 \u062f\u0647 \u0647\u0627\u0631\u0648\u0646", "name:en": "Pacham-e Deh Harun", "place": "village", "wikidata": "Q7121972", "wikipedia": "en:Pacham-e Deh Harun"}}, {"type": "node", "id": 3292483327, "lat": 33.8231027, "lon": 45.9572969, "tags": {"is_in:country": "Iran", "name": "\u0633\u0631\u0686\u0645 \u062f\u0647 \u0647\u0627\u0631\u0648\u0646", "name:en": "Sarcham-e Deh Harun", "place": "village", "wikidata": "Q5787687", "wikipedia": "en:Sarcham-e Deh Harun"}}, {"type": "node", "id": 3292483328, "lat": 33.8303521, "lon": 45.9176261, "tags": {"is_in:country": "Iran", "name": "\u0633\u0631\u067e\u062a\u06a9", "name:en": "Sarpitak", "place": "village", "wikidata": "Q5775335", "wikipedia": "en:Sarpitak"}}, {"type": "node", "id": 3292483329, "lat": 33.7949411, "lon": 45.949006, "tags": {"is_in:country": "Iran", "name": "\u0648\u0631\u0647\u0627\u0644 \u0686\u0634\u0645\u0647 \u0631\u0645\u0636\u0627\u0646", "name:en": "Varhal Cheshmeh Ramezan", "place": "village", "wikidata": "Q5793522", "wikipedia": "en:Varhal Cheshmeh Ramezan"}}, {"type": "node", "id": 3521162047, "lat": 33.8473889, "lon": 45.6326388, "tags": {"is_in:country": "Iran", "is_in:state": "Kermanshah", "name": "\u0646\u06cc\u0628\u0647\u0627\u0646", "name:en": "Neybahan", "place": "hamlet", "source:name": "GNS"}}, {"type": "node", "id": 4476784339, "lat": 33.7446834, "lon": 46.1024712, "tags": {"is_in:country": "Iran", "is_in:state": "Ilam", "name": "\u0628\u0627\u0646 \u0632\u06cc\u0627\u0631\u062a", "place": "hamlet", "population": "122"}}, {"type": "node", "id": 4476784351, "lat": 33.7983696, "lon": 45.9927168, "tags": {"is_in:country": "Iran", "is_in:state": "Ilam", "name": "\u0633\u0631\u0686\u0645\u0644\u0648", "place": "village", "population": "116"}}, {"type": "node", "id": 4476784353, "lat": 33.766269, "lon": 45.9341124, "tags": {"is_in:country": "Iran", "is_in:state": "Ilam", "name": "\u0634\u0647\u0631\u06a9 \u0633\u0631\u062a\u0646\u06af \u0628\u06cc\u062c\u0627\u0631", "place": "village", "population": "114"}}, {"type": "node", "id": 6138954041, "lat": 33.8863009, "lon": 45.6517636, "tags": {"name": "\u0645\u0645\u0631\u06cc\u06a9", "place": "hamlet"}}, {"type": "node", "id": 10021947362, "lat": 33.887608, "lon": 46.0660002, "tags": {"name": "\u06af\u06cc\u06d5\u06b5\u0627\u0646\u06d5", "name:en": "Gelana", "name:fa": "\u06af\u06cc\u0644\u0627\u0646\u0647", "place": "village"}}, {"type": "node", "id": 10026194935, "lat": 33.87791, "lon": 46.014604, "tags": {"name": "\u062a\u0648\u0648\u06d5\u0633\u06cc\u06d5", "name:en": "Twasia", "name:fa": "\u062a\u0648\u06d5\u0633\u06cc\u06d5", "place": "village", "population": "0"}}, {"type": "node", "id": 10026206669, "lat": 33.8775986, "lon": 46.0363751, "tags": {"name": "\u0642\u06d5\u067e\u06d5\u0686\u0627\u06b5", "name:en": "Qapachal", "name:fa": "\u0642\u067e\u06d5\u0686\u0627\u0644", "place": "village", "population": "0"}}, {"type": "node", "id": 10026221552, "lat": 33.871145, "lon": 45.9927253, "tags": {"name": "\u06a9\u0631\u0633\u06d5\u0631", "name:en": "Krsar", "name:fa": "\u06a9\u0647\u0631\u0633\u0631", "place": "village", "population": "0"}}, {"type": "node", "id": 10026385158, "lat": 33.8617857, "lon": 46.0635468, "tags": {"name": "\u0698\u06ce\u0631\u0648\u0632\u0646", "name:en": "Zh\u00earwzn", "name:fa": "\u0698\u06cc\u0631\u0648\u0632\u0646", "place": "village", "population": "0"}}, {"type": "node", "id": 10026397845, "lat": 33.8508782, "lon": 46.0800674, "tags": {"name": "\u062a\u06d5\u0639\u06d5\u0644", "name:en": "Taal", "name:fa": "\u062a\u0639\u0644", "place": "village", "population": "0"}}, {"type": "node", "id": 10026443872, "lat": 33.883103, "lon": 46.1272292, "tags": {"name": "\u062f\u0695\u06af", "name:en": "Drg", "name:fa": "\u062f\u0631\u06af", "place": "village", "population": "0"}}, {"type": "node", "id": 10026525536, "lat": 33.8711434, "lon": 46.1137893, "tags": {"name": "\u0634\u0627\u0631\u0632\u0648\u0644", "name:en": "Sharzul", "name:fa": "\u0634\u0627\u0631\u0632\u0648\u0644", "place": "village", "population": "0"}}, {"type": "node", "id": 10026546942, "lat": 33.830873, "lon": 46.1244284, "tags": {"name": "\u062f\u0627\u0631\u0632\u0648\u06b5\u06ce\u062e\u0627", "name:en": "Darzul\u00eaxa", "name:fa": "\u062f\u0627\u0631\u0632\u0648\u0644\u06cc\u062e\u0627", "place": "village", "population": "0"}}]}