{"version": 0.6, "generator": "Overpass API 0.7.61.5 4133829e", "osm3s": {"timestamp_osm_base": "2024-03-05T15:08:58Z", "copyright": "The data included in this document is from www.openstreetmap.org. The data is made available under ODbL."}, "elements": [{"type": "node", "id": 29398379, "lat": 65.5947672, "lon": 19.1695024, "tags": {"name": "Arvidsjaur", "name:ru": "\u0410\u0440\u0432\u0438\u0434\u0441\u044a\u044f\u0443\u0440", "name:se": "\u00c1rvesj\u00e1vri", "name:sje": "\u00c1rveh\u00e1vvre", "name:sju": "\u00c1rviesj\u00e1vrrie", "name:sma": "Aerviesjaevrie", "name:smj": "\u00c1rvesj\u00e1vrre", "name:sv": "Arvidsjaur", "place": "town", "population": "4635", "ref:se:pts:postort": "ARVIDSJAUR", "ref:se:scb": "8516", "wikidata": "Q1026498", "wikipedia": "sv:Arvidsjaur"}}, {"type": "node", "id": 29399057, "lat": 65.8751859, "lon": 19.4512814, "tags": {"name": "Moskosel", "name:sju": "M\u00e5skuossuvvane", "name:sv": "Moskosel", "place": "village", "ref:se:pts:postort": "MOSKOSEL", "ref:se:scb": "8744"}}, {"type": "node", "id": 360439054, "lat": 65.6027034, "lon": 19.573533, "tags": {"name": "Deppis", "name:sju": "Diehpies", "name:sv": "Deppis", "place": "hamlet"}}, {"type": "node", "id": 360453267, "lat": 65.651329, "lon": 19.8058738, "tags": {"name": "Lauker", "name:sju": "L\u00e1vkkure", "name:sv": "Lauker", "place": "village"}}, {"type": "node", "id": 538190194, "lat": 65.5903251, "lon": 19.4764807, "tags": {"name": "Rentr\u00e4sk", "name:sju": "B\u00e5tsuojj\u00e1vr\u00e1tje", "name:sv": "Rentr\u00e4sk", "place": "hamlet"}}, {"type": "node", "id": 2226061037, "lat": 65.7459783, "lon": 19.3991511, "tags": {"name": "Auktsjaur", "name:sju": "\u00c1vtjakj\u00e1vrrie", "name:sv": "Auktsjaur", "place": "hamlet", "ref:se:scb": "S9033", "wikidata": "Q2320286", "wikipedia": "sv:Auktsjaur"}}, {"type": "node", "id": 2247908706, "lat": 65.6494658, "lon": 19.211573, "tags": {"name": "Akkavare", "name:sju": "\u00c1hk\u00e1v\u00e1rrie", "name:sv": "Akkavare", "place": "hamlet"}}, {"type": "node", "id": 2559509329, "lat": 65.8214162, "lon": 19.3545504, "tags": {"name": "Tjapps\u00e5ive", "name:sju": "Tj\u00e4hpps\u00e5jvvie", "name:sv": "Tjapps\u00e5ive", "place": "hamlet"}}, {"type": "node", "id": 2647207628, "lat": 65.6985047, "lon": 19.4316385, "tags": {"name": "Uttertr\u00e4sk", "place": "hamlet"}}, {"type": "node", "id": 2647216057, "lat": 65.6921732, "lon": 19.3371548, "tags": {"name": "Sarvas\u00e5ive", "name:sju": "Sarvies\u00e5jvvie", "name:sv": "Sarvas\u00e5ive", "place": "hamlet"}}, {"type": "node", "id": 2647216078, "lat": 65.704768, "lon": 19.2961201, "tags": {"name": "R\u00f6nnberget", "place": "hamlet"}}, {"type": "node", "id": 2747163325, "lat": 65.8842206, "lon": 18.9460952, "tags": {"name": "Str\u00f6mn\u00e4s", "place": "hamlet"}}, {"type": "node", "id": 2747176606, "lat": 65.7348815, "lon": 19.3467441, "tags": {"name": "Norra N\u00e4verliden", "place": "hamlet"}}, {"type": "node", "id": 2747181638, "lat": 65.7125978, "lon": 19.3143226, "tags": {"name": "Knivtr\u00e4skheden", "place": "hamlet"}}, {"type": "node", "id": 2747596423, "lat": 65.6089229, "lon": 19.7357498, "tags": {"name": "Serrejaur", "name:sju": "Sierraj\u00e1vrrie", "name:sv": "Serrejaur", "place": "hamlet"}}, {"type": "node", "id": 2747598021, "lat": 65.6600629, "lon": 19.7185156, "tags": {"name": "Vuotner", "name:sju": "Vavdnure", "name:sv": "Vuotner", "place": "hamlet"}}, {"type": "node", "id": 2755759306, "lat": 65.6663176, "lon": 19.3229607, "tags": {"name": "Ravenjaur", "name:sju": "R\u00e1vanj\u00e1vrrie", "name:sv": "Ravenjaur", "place": "hamlet"}}, {"type": "node", "id": 2987708008, "lat": 65.833564, "lon": 19.8939137, "tags": {"name": "Ljustr\u00e4sk", "place": "hamlet"}}, {"type": "node", "id": 2997255013, "lat": 65.897827, "lon": 19.0759831, "tags": {"name": "Suolojaur", "place": "hamlet"}}, {"type": "node", "id": 2997255022, "lat": 65.9084852, "lon": 19.0940471, "tags": {"name": "Suddesjaur", "name:sju": "Suddiesj\u00e1vrrie", "name:sv": "Suddesjaur", "place": "hamlet"}}, {"type": "node", "id": 7469735749, "lat": 65.5877322, "lon": 19.3938502, "tags": {"name": "Granbo", "place": "hamlet"}}, {"type": "node", "id": 7469755640, "lat": 65.635547, "lon": 19.0730523, "tags": {"name": "Bergsviken", "place": "hamlet"}}, {"type": "node", "id": 7469779119, "lat": 65.7525097, "lon": 19.4310278, "tags": {"name": "Vikvallen", "place": "hamlet"}}, {"type": "node", "id": 7469783718, "lat": 65.75324, "lon": 19.7886455, "tags": {"name": "R\u00e4ttsel", "place": "hamlet"}}, {"type": "node", "id": 7469840421, "lat": 65.7433366, "lon": 19.8240475, "tags": {"name": "Vist\u00e5sen", "name:sju": "Vistiege", "name:sv": "Vist\u00e5sen", "place": "hamlet"}}, {"type": "node", "id": 7469879683, "lat": 65.7970082, "lon": 19.5844378, "tags": {"name": "L\u00e5ngn\u00e4s", "name:sju": "Lu\u00f6bnienju\u00f6nies", "name:sv": "L\u00e5ngn\u00e4s", "place": "hamlet"}}, {"type": "node", "id": 7469889255, "lat": 65.7701085, "lon": 19.620657, "tags": {"name": "Tallsund", "place": "hamlet"}}, {"type": "node", "id": 7470134061, "lat": 65.6617128, "lon": 19.7974314, "tags": {"name": "Br\u00e4nnan", "place": "hamlet"}}, {"type": "node", "id": 7470135192, "lat": 65.682097, "lon": 19.8901704, "tags": {"name": "M\u00f6rttr\u00e4sk", "place": "hamlet"}}, {"type": "node", "id": 7470138114, "lat": 65.6303597, "lon": 19.8657117, "tags": {"name": "L\u00f6vviken", "place": "hamlet"}}, {"type": "node", "id": 7470146082, "lat": 65.6194835, "lon": 19.8839819, "tags": {"name": "Sj\u00f6n\u00e4s", "place": "hamlet"}}, {"type": "node", "id": 7470148910, "lat": 65.7246055, "lon": 19.8933944, "tags": {"name": "Njallejaur", "place": "hamlet"}}]}