{"version": 0.6, "generator": "Overpass API 0.7.61.5 4133829e", "osm3s": {"timestamp_osm_base": "2024-03-06T11:17:45Z", "copyright": "The data included in this document is from www.openstreetmap.org. The data is made available under ODbL."}, "elements": [{"type": "node", "id": 248691069, "lat": 32.482245, "lon": 44.4328131, "tags": {"alt_name": "Al Hella, Al \u1e28illah, Hilah, Hilla, Hill\u00e9, \u0627\u0644\u062d\u0644\u0629, Al Hella, Al Hillah, Hilah, Hilla, Hille, \u0627\u0644\u062d\u0644\u0629", "capital": "4", "int_name": "Al Hillah - \u0627\u0644\u062d\u0644\u0651\u0629", "name": "\u0627\u0644\u062d\u0644\u0629", "name:ar": "\u0627\u0644\u062d\u0644\u0629", "name:ckb": "\u062d\u0644\u06d5", "name:cs": "Hilla", "name:de": "Hilla", "name:en": "Al Hillah", "name:es": "Al-Hillah", "name:et": "Al-\u1e28illah", "name:eu": "Al-Hillah", "name:fi": "Hilla", "name:fr": "Hilla", "name:he": "\u05d0\u05dc \u05d4\u05d9\u05dc\u05d4", "name:it": "al-Hilla", "name:ja": "\u30d2\u30c3\u30e9", "name:ml": "\u0d05\u0d7d-\u0d39\u0d3f\u0d32\u0d4d\u0d32", "name:pl": "Al-Hilla", "name:pt": "Al-Hillah", "name:ru": "\u0425\u0438\u043b\u043b\u0430", "name:uk": "\u0425\u0456\u043b\u043b\u0430", "place": "city", "population": "1729666", "population:date": "2015", "source:population": "https://en.wikipedia.org/wiki/Hillah", "wikidata": "Q243846", "wikipedia": "ar:\u0627\u0644\u062d\u0644\u0629"}}, {"type": "node", "id": 2479296656, "lat": 32.1406832, "lon": 44.334453, "tags": {"alt_name": "\u062e\u0627\u0646 \u0627\u0644\u0645\u0635\u0644\u0649", "int_name": "Kh\u0101n al Mu\u015fall\u00e1, Kh\u0101n Musalla, Khan al Musalla, Khan Musalla", "is_in": "Iraq , \u062c\u0645\u0647\u0648\u0631\u064a\u0629 \u0627\u0644\u0639\u0631\u0627\u0642", "name": "\u062e\u0627\u0646 \u0627\u0644\u0645\u0635\u0644\u0649", "name:ar": "\u062e\u0627\u0646 \u0627\u0644\u0645\u0635\u0644\u0649", "name:ar1": "\u062e\u0627\u0646 \u0627\u0644\u0645\u0635\u0644\u0649", "name:de": "Khan al Musalla", "name:en": "Khan al Musalla", "name:fr": "Khan al Musalla", "place": "village"}}, {"type": "node", "id": 2479344713, "lat": 32.366656, "lon": 44.557994, "tags": {"alt_name": "\u0634\u064a\u062e \u0643\u0627\u0638\u0645 \u0646\u0627\u064a\u0641", "int_name": "Shaykh K\u0101z\u0327im N\u0101yif, \u0634\u064a\u062e \u0643\u0627\u0638\u0645 \u0646\u0627\u064a\u0641, Shaykh Kazim Nayif, \u0634\u064a\u062e \u0643\u0627\u0638\u0645 \u0646\u0627\u064a\u0641", "is_in": "Iraq , \u062c\u0645\u0647\u0648\u0631\u064a\u0629 \u0627\u0644\u0639\u0631\u0627\u0642", "name": "\u0634\u064a\u062e \u0643\u0627\u0638\u0645 \u0646\u0627\u064a\u0641", "name:ar": "\u0634\u064a\u062e \u0643\u0627\u0638\u0645 \u0646\u0627\u064a\u0641", "name:ar1": "\u0634\u064a\u062e \u0643\u0627\u0638\u0645 \u0646\u0627\u064a\u0641", "name:de": "Shaykh Kazim Nayif", "name:en": "Shaykh Kazim Nayif", "name:fr": "Shaykh Kazim Nayif", "place": "hamlet"}}, {"type": "node", "id": 2479344719, "lat": 32.341342, "lon": 44.55701, "tags": {"alt_name": "\u0639\u0628\u064a\u062f \u0639\u0644\u064a", "int_name": "Ubayd Al\u012b, \u0639\u0628\u064a\u062f \u0639\u0644\u064a, Ubayd Ali, \u0639\u0628\u064a\u062f \u0639\u0644\u064a", "is_in": "Iraq , \u062c\u0645\u0647\u0648\u0631\u064a\u0629 \u0627\u0644\u0639\u0631\u0627\u0642", "name": "\u0639\u0628\u064a\u062f \u0639\u0644\u064a", "name:ar": "\u0639\u0628\u064a\u062f \u0639\u0644\u064a", "name:ar1": "\u0639\u0628\u064a\u062f \u0639\u0644\u064a", "name:de": "Ubayd Ali", "name:en": "Ubayd Ali", "name:fr": "Ubayd Ali", "place": "hamlet"}}, {"type": "node", "id": 2479346305, "lat": 32.350426, "lon": 44.547757, "tags": {"alt_name": "\u0639\u0628\u0627\u0633 \u0639\u0644\u064a", "int_name": "Abb\u0101s Al\u012b, \u0639\u0628\u0627\u0633 \u0639\u0644\u064a, Abbas Ali, \u0639\u0628\u0627\u0633 \u0639\u0644\u064a", "is_in": "Iraq , \u062c\u0645\u0647\u0648\u0631\u064a\u0629 \u0627\u0644\u0639\u0631\u0627\u0642", "name": "\u0639\u0628\u0627\u0633 \u0639\u0644\u064a", "name:ar": "\u0639\u0628\u0627\u0633 \u0639\u0644\u064a", "name:ar1": "\u0639\u0628\u0627\u0633 \u0639\u0644\u064a", "name:de": "Abbas Ali", "name:en": "Abbas Ali", "name:fr": "Abbas Ali", "place": "hamlet"}}, {"type": "node", "id": 2479346311, "lat": 32.35, "lon": 44.55, "tags": {"alt_name": "\u0622\u0644 \u0628\u0648 \u062e\u0627\u0644\u062f", "int_name": "\u0100lb\u016b Kh\u0101lid, Albu Khalid", "is_in": "Iraq , \u062c\u0645\u0647\u0648\u0631\u064a\u0629 \u0627\u0644\u0639\u0631\u0627\u0642", "name": "\u0622\u0644 \u0628\u0648 \u062e\u0627\u0644\u062f", "name:ar": "\u0622\u0644 \u0628\u0648 \u062e\u0627\u0644\u062f", "name:ar1": "\u0622\u0644 \u0628\u0648 \u062e\u0627\u0644\u062f", "name:de": "Albu Khalid", "name:en": "Albu Khalid", "name:fr": "Albu Khalid", "place": "hamlet"}}, {"type": "node", "id": 2479346321, "lat": 32.338343, "lon": 44.553577, "tags": {"alt_name": "\u062d\u062c\u064a \u0631\u0627\u0636\u064a \u0639\u0628\u0648\u062f", "int_name": "\u1e28ajj\u012b R\u0101\u1e11\u012b Abb\u016bd, \u062d\u062c\u064a \u0631\u0627\u0636\u064a \u0639\u0628\u0648\u062f, Hajji Radi Abbud, \u062d\u062c\u064a \u0631\u0627\u0636\u064a \u0639\u0628\u0648\u062f", "is_in": "Iraq , \u062c\u0645\u0647\u0648\u0631\u064a\u0629 \u0627\u0644\u0639\u0631\u0627\u0642", "name": "\u062d\u062c\u064a \u0631\u0627\u0636\u064a \u0639\u0628\u0648\u062f", "name:ar": "\u062d\u062c\u064a \u0631\u0627\u0636\u064a \u0639\u0628\u0648\u062f", "name:ar1": "\u062d\u062c\u064a \u0631\u0627\u0636\u064a \u0639\u0628\u0648\u062f", "name:de": "Hajji Radi Abbud", "name:en": "Hajji Radi Abbud", "name:fr": "Hajji Radi Abbud", "place": "hamlet"}}, {"type": "node", "id": 2479346328, "lat": 32.34724, "lon": 44.551457, "tags": {"alt_name": "\u0645\u0635\u064a\u062e \u062d\u0633\u064a\u0646", "int_name": "Mu\u015f\u012bkh \u1e28usayn, \u0645\u0635\u064a\u062e \u062d\u0633\u064a\u0646, Musikh Husayn, \u0645\u0635\u064a\u062e \u062d\u0633\u064a\u0646", "is_in": "Iraq , \u062c\u0645\u0647\u0648\u0631\u064a\u0629 \u0627\u0644\u0639\u0631\u0627\u0642", "name": "\u0645\u0635\u064a\u062e \u062d\u0633\u064a\u0646", "name:ar": "\u0645\u0635\u064a\u062e \u062d\u0633\u064a\u0646", "name:ar1": "\u0645\u0635\u064a\u062e \u062d\u0633\u064a\u0646", "name:de": "Musikh Husayn", "name:en": "Musikh Husayn", "name:fr": "Musikh Husayn", "place": "hamlet"}}, {"type": "node", "id": 2479346335, "lat": 32.341297, "lon": 44.547098, "tags": {"alt_name": "\u0639\u0628\u064a\u062f \u062c\u0627\u0633\u0645", "int_name": "Ubayd J\u0101sim, \u0639\u0628\u064a\u062f \u062c\u0627\u0633\u0645, Ubayd Jasim, \u0639\u0628\u064a\u062f \u062c\u0627\u0633\u0645", "is_in": "Iraq , \u062c\u0645\u0647\u0648\u0631\u064a\u0629 \u0627\u0644\u0639\u0631\u0627\u0642", "name": "\u0639\u0628\u064a\u062f \u062c\u0627\u0633\u0645", "name:ar": "\u0639\u0628\u064a\u062f \u062c\u0627\u0633\u0645", "name:ar1": "\u0639\u0628\u064a\u062f \u062c\u0627\u0633\u0645", "name:de": "Ubayd Jasim", "name:en": "Ubayd Jasim", "name:fr": "Ubayd Jasim", "place": "hamlet"}}, {"type": "node", "id": 2479356877, "lat": 32.31504, "lon": 44.556227, "tags": {"alt_name": "\u0639\u0628\u062f \u0627\u0644\u0644\u0647 \u0627\u0644\u0639\u0645\u0631", "int_name": "Abd All\u0101h al Umar, \u0639\u0628\u062f \u0627\u0644\u0644\u0647 \u0627\u0644\u0639\u0645\u0631, Abd Allah al Umar, \u0639\u0628\u062f \u0627\u0644\u0644\u0647 \u0627\u0644\u0639\u0645\u0631", "is_in": "Iraq , \u062c\u0645\u0647\u0648\u0631\u064a\u0629 \u0627\u0644\u0639\u0631\u0627\u0642", "name": "\u0639\u0628\u062f \u0627\u0644\u0644\u0647 \u0627\u0644\u0639\u0645\u0631", "name:ar": "\u0639\u0628\u062f \u0627\u0644\u0644\u0647 \u0627\u0644\u0639\u0645\u0631", "name:ar1": "\u0639\u0628\u062f \u0627\u0644\u0644\u0647 \u0627\u0644\u0639\u0645\u0631", "name:de": "Abd Allah al Umar", "name:en": "Abd Allah al Umar", "name:fr": "Abd Allah al Umar", "place": "hamlet"}}, {"type": "node", "id": 2479356908, "lat": 32.333333, "lon": 44.55, "tags": {"alt_name": "\u062e\u064a\u0627\u062f", "int_name": "Khiy\u0101d, Khiyad", "is_in": "Iraq , \u062c\u0645\u0647\u0648\u0631\u064a\u0629 \u0627\u0644\u0639\u0631\u0627\u0642", "name": "\u062e\u064a\u0627\u062f", "name:ar": "\u062e\u064a\u0627\u062f", "name:ar1": "\u062e\u064a\u0627\u062f", "name:de": "Khiyad", "name:en": "Khiyad", "name:fr": "Khiyad", "place": "hamlet"}}, {"type": "node", "id": 2479356930, "lat": 32.309552, "lon": 44.550621, "tags": {"alt_name": "\u0635\u0628\u064a\u062d", "int_name": "\u015eubay\u1e29, \u0635\u0628\u064a\u062d, Subayh, \u0635\u0628\u064a\u062d", "is_in": "Iraq , \u062c\u0645\u0647\u0648\u0631\u064a\u0629 \u0627\u0644\u0639\u0631\u0627\u0642", "name": "\u0635\u0628\u064a\u062d", "name:ar": "\u0635\u0628\u064a\u062d", "name:ar1": "\u0635\u0628\u064a\u062d", "name:de": "Subayh", "name:en": "Subayh", "name:fr": "Subayh", "place": "hamlet"}}, {"type": "node", "id": 2479357036, "lat": 32.3, "lon": 44.55, "tags": {"alt_name": "\u062d\u0641\u0631\u0629", "int_name": "\u1e28ufrah, Hufrah", "is_in": "Iraq , \u062c\u0645\u0647\u0648\u0631\u064a\u0629 \u0627\u0644\u0639\u0631\u0627\u0642", "name": "\u062d\u0641\u0631\u0629", "name:ar": "\u062d\u0641\u0631\u0629", "name:ar1": "\u062d\u0641\u0631\u0629", "name:de": "Hufrah", "name:en": "Hufrah", "name:fr": "Hufrah", "place": "hamlet"}}, {"type": "node", "id": 2479357039, "lat": 32.301356, "lon": 44.539919, "tags": {"alt_name": "\u0642\u0631\u064a\u0629 \u062e\u0634\u0627\u0641", "int_name": "Qaryat Khashsh\u0101f, \u0642\u0631\u064a\u0629 \u062e\u0634\u0627\u0641, Qaryat Khashshaf, \u0642\u0631\u064a\u0629 \u062e\u0634\u0627\u0641", "name": "\u0642\u0631\u064a\u0629 \u062e\u0634\u0627\u0641", "name:ar": "\u0642\u0631\u064a\u0629 \u062e\u0634\u0627\u0641", "name:ar1": "\u0642\u0631\u064a\u0629 \u062e\u0634\u0627\u0641", "name:de": "Qaryat Khashshaf", "name:en": "Qaryat Khashshaf", "name:fr": "Qaryat Khashshaf", "place": "hamlet"}}, {"type": "node", "id": 2479357043, "lat": 32.302979, "lon": 44.547244, "tags": {"alt_name": "\u0642\u0631\u064a\u0629 \u0627\u0644\u062c\u0632\u0631\u0629", "int_name": "Qaryat al Jazrah, \u0642\u0631\u064a\u0629 \u0627\u0644\u062c\u0632\u0631\u0629, Qaryat al Jazrah, \u0642\u0631\u064a\u0629 \u0627\u0644\u062c\u0632\u0631\u0629", "name": "\u0642\u0631\u064a\u0629 \u0627\u0644\u062c\u0632\u0631\u0629", "name:ar": "\u0642\u0631\u064a\u0629 \u0627\u0644\u062c\u0632\u0631\u0629", "name:ar1": "\u0642\u0631\u064a\u0629 \u0627\u0644\u062c\u0632\u0631\u0629", "name:de": "Qaryat al Jazrah", "name:en": "Qaryat al Jazrah", "name:fr": "Qaryat al Jazrah", "place": "hamlet"}}, {"type": "node", "id": 2479357046, "lat": 32.302373, "lon": 44.555167, "tags": {"alt_name": "\u062a\u0627\u064a\u0647 \u0633\u0644\u0645\u0627\u0646", "int_name": "T\u0101yih Salm\u0101n, \u062a\u0627\u064a\u0647 \u0633\u0644\u0645\u0627\u0646, Tayih Salman, \u062a\u0627\u064a\u0647 \u0633\u0644\u0645\u0627\u0646", "is_in": "Iraq , \u062c\u0645\u0647\u0648\u0631\u064a\u0629 \u0627\u0644\u0639\u0631\u0627\u0642", "name": "\u062a\u0627\u064a\u0647 \u0633\u0644\u0645\u0627\u0646", "name:ar": "\u062a\u0627\u064a\u0647 \u0633\u0644\u0645\u0627\u0646", "name:ar1": "\u062a\u0627\u064a\u0647 \u0633\u0644\u0645\u0627\u0646", "name:de": "Tayih Salman", "name:en": "Tayih Salman", "name:fr": "Tayih Salman", "place": "hamlet"}}, {"type": "node", "id": 2483902063, "lat": 32.5167186, "lon": 44.3176829, "tags": {"alt_name": "\u0643\u0627\u0638\u0645 \u0627\u0644\u0639\u0644\u0648\u0627\u0646", "int_name": "K\u0101dhim al Ulw\u0101n, K\u0101z\u0327im al Ulw\u0101n, Kadhim al Ulwan, Kazim al Ulwan", "is_in": "Iraq , \u062c\u0645\u0647\u0648\u0631\u064a\u0629 \u0627\u0644\u0639\u0631\u0627\u0642", "name": "\u0643\u0627\u0638\u0645 \u0627\u0644\u0639\u0644\u0648\u0627\u0646", "name:ar": "\u0643\u0627\u0638\u0645 \u0627\u0644\u0639\u0644\u0648\u0627\u0646", "name:ar1": "\u0643\u0627\u0638\u0645 \u0627\u0644\u0639\u0644\u0648\u0627\u0646", "name:de": "Kadhim al Ulwan", "name:en": "Kadhim al Ulwan", "name:fr": "Kadhim al Ulwan", "place": "hamlet"}}, {"type": "node", "id": 2483902064, "lat": 32.522343, "lon": 44.319139, "tags": {"alt_name": "\u062e\u0636\u064a\u0631 \u0639\u0628\u0627\u0633", "int_name": "Khu\u1e11ayr Abb\u0101s, \u062e\u0636\u064a\u0631 \u0639\u0628\u0627\u0633, Khudayr Abbas, \u062e\u0636\u064a\u0631 \u0639\u0628\u0627\u0633", "name": "\u062e\u0636\u064a\u0631 \u0639\u0628\u0627\u0633", "name:ar": "\u062e\u0636\u064a\u0631 \u0639\u0628\u0627\u0633", "name:ar1": "\u062e\u0636\u064a\u0631 \u0639\u0628\u0627\u0633", "name:de": "Khudayr Abbas", "name:en": "Khudayr Abbas", "name:fr": "Khudayr Abbas", "place": "hamlet"}}, {"type": "node", "id": 2483902065, "lat": 32.516636, "lon": 44.3161897, "tags": {"alt_name": "\u0642\u0631\u064a\u0629 \u0637\u0644\u0645\u0627\u0637\u0629", "int_name": "Qaryat \u0162alm\u0101\u0163ah, Qaryat Talmatah", "name": "\u0642\u0631\u064a\u0629 \u0637\u0644\u0645\u0627\u0637\u0629", "name:ar": "\u0642\u0631\u064a\u0629 \u0637\u0644\u0645\u0627\u0637\u0629", "name:ar1": "\u0642\u0631\u064a\u0629 \u0637\u0644\u0645\u0627\u0637\u0629", "name:de": "Qaryat Talmatah", "name:en": "Qaryat Talmatah", "name:fr": "Qaryat Talmatah", "place": "hamlet"}}, {"type": "node", "id": 2483902120, "lat": 32.527107, "lon": 44.343966, "tags": {"alt_name": "Ab\u016b Gharaq, N\u0101\u1e29iyat Ab\u012b Gharaq, N\u0101\u1e29\u012byat Ab\u012b Gharaq, \u0627\u0628\u064a \u063a\u0631\u0642, \u0646\u0627\u062d\u064a\u0629 \u0627\u0628\u064a \u063a\u0631\u0642, Abu Gharaq, Nahiyat Abi Gharaq, Nahiyat Abi Gharaq, \u0627\u0628\u064a \u063a\u0631\u0642, \u0646\u0627\u062d\u064a\u0629 \u0627\u0628\u064a \u063a\u0631\u0642", "capital": "7", "int_name": "Abu Gharaq - \u0623\u0628\u064a \u063a\u0631\u0642", "is_in": "Iraq , \u062c\u0645\u0647\u0648\u0631\u064a\u0629 \u0627\u0644\u0639\u0631\u0627\u0642", "is_in:country": "Iraq", "is_in:country_code": "IQ", "name": "\u0623\u0628\u064a \u063a\u0631\u0642", "name:ar": "\u0623\u0628\u064a \u063a\u0631\u0642", "name:de": "Abu Gharaq", "name:en": "Abu Gharaq", "name:fr": "Abu Gharaq", "place": "city", "population": "108212", "population:date": "2014", "source:population": "https://ar.wikipedia.org/wiki/%D9%86%D8%A7%D8%AD%D9%8A%D8%A9_%D8%A3%D8%A8%D9%8A_%D8%BA%D8%B1%D9%82"}}, {"type": "node", "id": 2483902127, "lat": 32.510644, "lon": 44.36607, "tags": {"alt_name": "\u0646\u062c\u064a\u0628 \u0639\u0628\u064a\u062f", "int_name": "Naj\u012bb Ubayd, \u0646\u062c\u064a\u0628 \u0639\u0628\u064a\u062f, Najib Ubayd, \u0646\u062c\u064a\u0628 \u0639\u0628\u064a\u062f", "is_in": "Iraq , \u062c\u0645\u0647\u0648\u0631\u064a\u0629 \u0627\u0644\u0639\u0631\u0627\u0642", "name": "\u0646\u062c\u064a\u0628 \u0639\u0628\u064a\u062f", "name:ar": "\u0646\u062c\u064a\u0628 \u0639\u0628\u064a\u062f", "name:ar1": "\u0646\u062c\u064a\u0628 \u0639\u0628\u064a\u062f", "name:de": "Najib Ubayd", "name:en": "Najib Ubayd", "name:fr": "Najib Ubayd", "place": "hamlet"}}, {"type": "node", "id": 2483902128, "lat": 32.513904, "lon": 44.29629, "tags": {"alt_name": "\u0642\u0631\u064a\u0629 \u0622\u0644 \u0628\u0648 \u0647\u0645\u062f\u0627\u0646", "int_name": "Qaryat \u0100lb\u016b Hamd\u0101n, \u0642\u0631\u064a\u0629 \u0627\u0644\u0628\u0648 \u0647\u0645\u062f\u0627\u0646, Qaryat Albu Hamdan, \u0642\u0631\u064a\u0629 \u0627\u0644\u0628\u0648 \u0647\u0645\u062f\u0627\u0646", "name": "\u0642\u0631\u064a\u0629 \u0622\u0644 \u0628\u0648 \u0647\u0645\u062f\u0627\u0646", "name:ar": "\u0642\u0631\u064a\u0629 \u0622\u0644 \u0628\u0648 \u062d\u0645\u062f\u0627\u0646", "name:ar1": "\u0642\u0631\u064a\u0629 \u0622\u0644 \u0628\u0648 \u0647\u0645\u062f\u0627\u0646", "name:de": "Qaryat Albu Hamdan", "name:en": "Qaryat Albu Hamdan", "name:fr": "Qaryat Albu Hamdan", "place": "hamlet"}}, {"type": "node", "id": 2483902134, "lat": 32.485554, "lon": 44.368602, "tags": {"alt_name": "\u0642\u0631\u064a\u0629 \u062d\u0633\u064a\u0646 \u0639\u0628\u062f \u062e\u0636\u064a\u0631", "int_name": "Qaryat \u1e28usayn Abd Khu\u1e11ayr, \u0642\u0631\u064a\u0629 \u062d\u0633\u064a\u0646 \u0639\u0628\u062f \u062e\u0636\u064a\u0631, Qaryat Husayn Abd Khudayr, \u0642\u0631\u064a\u0629 \u062d\u0633\u064a\u0646 \u0639\u0628\u062f \u062e\u0636\u064a\u0631", "name": "\u0642\u0631\u064a\u0629 \u062d\u0633\u064a\u0646 \u0639\u0628\u062f \u062e\u0636\u064a\u0631", "name:ar": "\u0642\u0631\u064a\u0629 \u062d\u0633\u064a\u0646 \u0639\u0628\u062f \u062e\u0636\u064a\u0631", "name:ar1": "\u0642\u0631\u064a\u0629 \u062d\u0633\u064a\u0646 \u0639\u0628\u062f \u062e\u0636\u064a\u0631", "name:de": "Qaryat Husayn Abd Khudayr", "name:en": "Qaryat Husayn Abd Khudayr", "name:fr": "Qaryat Husayn Abd Khudayr", "place": "hamlet"}}, {"type": "node", "id": 2483902135, "lat": 32.524777, "lon": 44.297328, "tags": {"alt_name": "\u0642\u0631\u064a\u0629 \u0627\u0644\u0639\u0648\u0627\u0635\u0631", "int_name": "Qaryat al Aw\u0101\u015fir, \u0642\u0631\u064a\u0629 \u0627\u0644\u0639\u0648\u0627\u0635\u0631, Qaryat al Awasir, \u0642\u0631\u064a\u0629 \u0627\u0644\u0639\u0648\u0627\u0635\u0631", "name": "\u0642\u0631\u064a\u0629 \u0627\u0644\u0639\u0648\u0627\u0635\u0631", "name:ar": "\u0642\u0631\u064a\u0629 \u0627\u0644\u0639\u0648\u0627\u0645\u0631", "name:ar1": "\u0642\u0631\u064a\u0629 \u0627\u0644\u0639\u0648\u0627\u0635\u0631", "name:de": "Qaryat al Awamir", "name:en": "Qaryat al Awamir", "name:fr": "Qaryat al Awamir", "place": "village"}}, {"type": "node", "id": 2483902136, "lat": 32.516667, "lon": 44.3, "tags": {"alt_name": "\u0634\u064a\u062e \u062d\u0633\u064a\u0646", "int_name": "Shaykh \u1e28usayn, Shaykh Husayn", "is_in": "Iraq , \u062c\u0645\u0647\u0648\u0631\u064a\u0629 \u0627\u0644\u0639\u0631\u0627\u0642", "name": "\u0634\u064a\u062e \u062d\u0633\u064a\u0646", "name:ar": "\u0634\u064a\u062e \u062d\u0633\u064a\u0646", "name:ar1": "\u0634\u064a\u062e \u062d\u0633\u064a\u0646", "name:de": "Shaykh Husayn", "name:en": "Shaykh Husayn", "name:fr": "Shaykh Husayn", "place": "hamlet"}}, {"type": "node", "id": 2486182865, "lat": 32.289408, "lon": 44.5508768, "tags": {"alt_name": "\u0639\u0628\u062f \u0627\u0644\u0644\u0647 \u0643\u0627\u0638\u0645", "int_name": "Abd All\u0101h K\u0101z\u0327im, Abd Allah Kazim", "is_in": "Iraq , \u062c\u0645\u0647\u0648\u0631\u064a\u0629 \u0627\u0644\u0639\u0631\u0627\u0642", "name": "\u0639\u0628\u062f \u0627\u0644\u0644\u0647 \u0643\u0627\u0638\u0645", "name:ar": "\u0639\u0628\u062f \u0627\u0644\u0644\u0647 \u0643\u0627\u0638\u0645", "name:ar1": "\u0639\u0628\u062f \u0627\u0644\u0644\u0647 \u0643\u0627\u0638\u0645", "name:de": "Abd Allah Kazim", "name:en": "Abd Allah Kazim", "name:fr": "Abd Allah Kazim", "place": "hamlet"}}, {"type": "node", "id": 2486183161, "lat": 32.386044, "lon": 44.5364647, "tags": {"alt_name": "\u0627\u0644\u062f\u0628\u0644\u0629", "int_name": "Ad Diblah, \u0627\u0644\u062f\u0628\u0644\u0629, Ad Diblah, \u0627\u0644\u062f\u0628\u0644\u0629", "is_in": "Iraq , \u062c\u0645\u0647\u0648\u0631\u064a\u0629 \u0627\u0644\u0639\u0631\u0627\u0642", "name": "\u0627\u0644\u062f\u0628\u0644\u0629", "name:ar": "\u0627\u0644\u062f\u0628\u0644\u0629", "name:ar1": "\u0627\u0644\u062f\u0628\u0644\u0629", "name:de": "Ad Diblah", "name:en": "Ad Diblah", "name:fr": "Ad Diblah", "name:ku": "\u0627\u0644\u0634\u064a\u062e \u0645\u062d\u0645\u062f \u0627\u0644\u0634\u062c\u064a\u0631\u064a", "place": "village"}}, {"type": "node", "id": 2486183273, "lat": 32.3877475, "lon": 44.5360084, "tags": {"alt_name": "Al Ibr\u0101h\u012bm\u012byah, \u0627\u0644\u0627\u0628\u0631\u0627\u0647\u064a\u0645\u064a\u0629, Al Ibrahimiyah, \u0627\u0644\u0627\u0628\u0631\u0627\u0647\u064a\u0645\u064a\u0629", "capital": "7", "int_name": "Al Ibrahimiyah - \u0627\u0644\u0625\u0628\u0631\u0627\u0647\u064a\u0645\u064a\u0629", "is_in": "Iraq , \u062c\u0645\u0647\u0648\u0631\u064a\u0629 \u0627\u0644\u0639\u0631\u0627\u0642", "name": "\u0627\u0644\u0625\u0628\u0631\u0627\u0647\u064a\u0645\u064a\u0629", "name:ar": "\u0627\u0644\u0625\u0628\u0631\u0627\u0647\u064a\u0645\u064a\u0629", "name:de": "Al Ibrahimiyah", "name:en": "Al Ibrahimiyah", "name:fr": "Al Ibrahimiyah", "place": "town"}}, {"type": "node", "id": 2486184269, "lat": 32.267189, "lon": 44.551693, "tags": {"alt_name": "\u0642\u0631\u064a\u0629 \u0633\u0648\u0642 \u062f\u0648\u0647\u0627\u0646", "int_name": "Qaryat S\u016bq D\u016bh\u0101n, \u0642\u0631\u064a\u0629 \u0633\u0648\u0642 \u062f\u0648\u0647\u0627\u0646, Qaryat Suq Duhan, \u0642\u0631\u064a\u0629 \u0633\u0648\u0642 \u062f\u0648\u0647\u0627\u0646", "name": "\u0642\u0631\u064a\u0629 \u0633\u0648\u0642 \u062f\u0648\u0647\u0627\u0646", "name:ar": "\u0642\u0631\u064a\u0629 \u0633\u0648\u0642 \u062f\u0648\u0647\u0627\u0646", "name:ar1": "\u0642\u0631\u064a\u0629 \u0633\u0648\u0642 \u062f\u0648\u0647\u0627\u0646", "name:de": "Qaryat Suq Duhan", "name:en": "Qaryat Suq Duhan", "name:fr": "Qaryat Suq Duhan", "place": "hamlet"}}, {"type": "node", "id": 2486184381, "lat": 32.288913, "lon": 44.552404, "tags": {"alt_name": "\u0633\u064a\u062f \u062c\u0648\u0627\u062f \u0633\u064a\u062f \u0645\u062d\u0645\u062f", "int_name": "Sayyid Jaw\u0101d Sayyid Mu\u1e29ammad, \u0633\u064a\u062f \u062c\u0648\u0627\u062f \u0633\u064a\u062f \u0645\u062d\u0645\u062f, Sayyid Jawad Sayyid Muhammad, \u0633\u064a\u062f \u062c\u0648\u0627\u062f \u0633\u064a\u062f \u0645\u062d\u0645\u062f", "is_in": "Iraq , \u062c\u0645\u0647\u0648\u0631\u064a\u0629 \u0627\u0644\u0639\u0631\u0627\u0642", "name": "\u0633\u064a\u062f \u062c\u0648\u0627\u062f \u0633\u064a\u062f \u0645\u062d\u0645\u062f", "name:ar": "\u0633\u064a\u062f \u062c\u0648\u0627\u062f \u0633\u064a\u062f \u0645\u062d\u0645\u062f", "name:ar1": "\u0633\u064a\u062f \u062c\u0648\u0627\u062f \u0633\u064a\u062f \u0645\u062d\u0645\u062f", "name:de": "Sayyid Jawad Sayyid Muhammad", "name:en": "Sayyid Jawad Sayyid Muhammad", "name:fr": "Sayyid Jawad Sayyid Muhammad", "place": "hamlet"}}, {"type": "node", "id": 2486184387, "lat": 32.289305, "lon": 44.546805, "tags": {"alt_name": "\u0633\u064a\u062f \u0635\u0627\u0644\u062d", "int_name": "Sayyid \u015e\u0101li\u1e29, \u0633\u064a\u062f \u0635\u0627\u0644\u062d, Sayyid Salih, \u0633\u064a\u062f \u0635\u0627\u0644\u062d", "is_in": "Iraq , \u062c\u0645\u0647\u0648\u0631\u064a\u0629 \u0627\u0644\u0639\u0631\u0627\u0642", "name": "\u0633\u064a\u062f \u0635\u0627\u0644\u062d", "name:ar": "\u0633\u064a\u062f \u0635\u0627\u0644\u062d", "name:ar1": "\u0633\u064a\u062f \u0635\u0627\u0644\u062d", "name:de": "Sayyid Salih", "name:en": "Sayyid Salih", "name:fr": "Sayyid Salih", "place": "hamlet"}}, {"type": "node", "id": 2486184448, "lat": 32.2816894, "lon": 44.5366566, "tags": {"alt_name": "\u0642\u0644\u0639\u0629 \u0631\u0634\u064a\u062f \u0627\u0641\u0646\u062f\u064a", "int_name": "\u0642\u0644\u0639\u0629 \u0631\u0634\u064a\u062f \u0627\u0641\u0646\u062f\u064a, \u0642\u0644\u0639\u0629 \u0631\u0634\u064a\u062f \u0627\u0641\u0646\u062f\u064a", "is_in": "Iraq , \u062c\u0645\u0647\u0648\u0631\u064a\u0629 \u0627\u0644\u0639\u0631\u0627\u0642", "name": "\u0642\u0644\u0639\u0629 \u0631\u0634\u064a\u062f \u0627\u0641\u0646\u062f\u064a", "name:ar": "\u0642\u0644\u0639\u0629 \u0631\u0634\u064a\u062f \u0627\u0641\u0646\u062f\u064a", "name:ar1": "\u0642\u0644\u0639\u0629 \u0631\u0634\u064a\u062f \u0627\u0641\u0646\u062f\u064a", "name:de": "\u0642\u0644\u0639\u0629 \u0631\u0634\u064a\u062f \u0627\u0641\u0646\u062f\u064a", "name:fr": "\u0642\u0644\u0639\u0629 \u0631\u0634\u064a\u062f \u0627\u0641\u0646\u062f\u064a", "place": "village"}}, {"type": "node", "id": 2486188671, "lat": 32.159066, "lon": 44.499442, "tags": {"alt_name": "\u0639\u0634\u0627\u0626\u0631\u0627\u0644\u0628\u062f\u064a\u0631", "int_name": "\u0639\u0634\u0627\u0626\u0631\u0627\u0644\u0628\u062f\u064a\u0631, \u0639\u0634\u0627\u0626\u0631\u0627\u0644\u0628\u062f\u064a\u0631", "is_in": "Iraq , \u062c\u0645\u0647\u0648\u0631\u064a\u0629 \u0627\u0644\u0639\u0631\u0627\u0642", "name": "\u0639\u0634\u0627\u0626\u0631\u0627\u0644\u0628\u062f\u064a\u0631", "name:ar": "\u0639\u0634\u0627\u0626\u0631\u0627\u0644\u0628\u062f\u064a\u0631", "name:ar1": "\u0639\u0634\u0627\u0626\u0631\u0627\u0644\u0628\u062f\u064a\u0631", "place": "village"}}, {"type": "node", "id": 2486188673, "lat": 32.1595356, "lon": 44.4994786, "tags": {"alt_name": "\u0642\u0631\u064a\u0629 \u0639\u0628\u062f \u0627\u0644\u0632\u0647\u0631\u0629 \u0633\u0644\u0645\u0627\u0646 \u0645\u0631\u0643\u0648\u062f", "int_name": "\u0642\u0631\u064a\u0629 \u0639\u0628\u062f \u0627\u0644\u0632\u0647\u0631\u0629 \u0633\u0644\u0645\u0627\u0646 \u0645\u0631\u0643\u0648\u062f, \u0642\u0631\u064a\u0629 \u0639\u0628\u062f \u0627\u0644\u0632\u0647\u0631\u0629 \u0633\u0644\u0645\u0627\u0646 \u0645\u0631\u0643\u0648\u062f", "name": "\u0642\u0631\u064a\u0629 \u0639\u0628\u062f \u0627\u0644\u0632\u0647\u0631\u0629 \u0633\u0644\u0645\u0627\u0646 \u0645\u0631\u0643\u0648\u062f", "name:ar": "\u0642\u0631\u064a\u0629 \u0639\u0628\u062f \u0627\u0644\u0632\u0647\u0631\u0629 \u0633\u0644\u0645\u0627\u0646 \u0645\u0631\u0643\u0648\u062f", "name:ar1": "\u0642\u0631\u064a\u0629 \u0639\u0628\u062f \u0627\u0644\u0632\u0647\u0631\u0629 \u0633\u0644\u0645\u0627\u0646 \u0645\u0631\u0643\u0648\u062f", "place": "village"}}, {"type": "node", "id": 2486191900, "lat": 32.251434, "lon": 44.529346, "tags": {"alt_name": "\u0639\u0628\u0627\u0633 \u062d\u0633\u064a\u0646", "int_name": "Abb\u0101s \u1e28usayn, \u0639\u0628\u0627\u0633 \u062d\u0633\u064a\u0646, Abbas Husayn, \u0639\u0628\u0627\u0633 \u062d\u0633\u064a\u0646", "is_in": "Iraq , \u062c\u0645\u0647\u0648\u0631\u064a\u0629 \u0627\u0644\u0639\u0631\u0627\u0642", "name": "\u0639\u0628\u0627\u0633 \u062d\u0633\u064a\u0646", "name:ar": "\u0639\u0628\u0627\u0633 \u062d\u0633\u064a\u0646", "name:ar1": "\u0639\u0628\u0627\u0633 \u062d\u0633\u064a\u0646", "name:de": "Abbas Husayn", "name:en": "Abbas Husayn", "name:fr": "Abbas Husayn", "place": "hamlet"}}, {"type": "node", "id": 2486191995, "lat": 32.257545, "lon": 44.540271, "tags": {"alt_name": "\u0627\u0644\u062d\u0645\u064a\u062f\u064a\u0629", "int_name": "Al \u1e28am\u012bd\u012byah, \u0627\u0644\u062d\u0645\u064a\u062f\u064a\u0629, Al Hamidiyah, \u0627\u0644\u062d\u0645\u064a\u062f\u064a\u0629", "is_in": "Iraq , \u062c\u0645\u0647\u0648\u0631\u064a\u0629 \u0627\u0644\u0639\u0631\u0627\u0642", "name": "\u0627\u0644\u062d\u0645\u064a\u062f\u064a\u0629", "name:ar": "\u0627\u0644\u062d\u0645\u064a\u062f\u064a\u0629", "name:ar1": "\u0627\u0644\u062d\u0645\u064a\u062f\u064a\u0629", "name:de": "Al Hamidiyah", "name:en": "Al Hamidiyah", "name:fr": "Al Hamidiyah", "place": "hamlet"}}, {"type": "node", "id": 2486192248, "lat": 32.2621508, "lon": 44.5401357, "tags": {"alt_name": "\u062f\u0648\u062d\u0627\u0646", "int_name": "Daw\u1e29\u0101n, Dawhan", "is_in": "Iraq , \u062c\u0645\u0647\u0648\u0631\u064a\u0629 \u0627\u0644\u0639\u0631\u0627\u0642", "name": "\u062f\u0648\u062d\u0627\u0646", "name:ar": "\u062f\u0648\u062d\u0627\u0646", "name:ar1": "\u062f\u0648\u062d\u0627\u0646", "name:de": "Dawhan", "name:en": "Dawhan", "name:fr": "Dawhan", "place": "hamlet"}}, {"type": "node", "id": 2486192250, "lat": 32.264394, "lon": 44.552202, "tags": {"alt_name": "\u0642\u0631\u064a\u0629 \u062f\u0648\u0647\u0627\u0646 \u0627\u0644\u062d\u0633\u0646", "int_name": "D\u016bh\u0101n \u1e28asan, Qaryat D\u016bh\u0101n al \u1e28asan, \u062f\u0648\u0647\u0627\u0646 \u062d\u0633\u0646, \u0642\u0631\u064a\u0629 \u062f\u0648\u0647\u0627\u0646 \u0627\u0644\u062d\u0633\u0646, Duhan Hasan, Qaryat Duhan al Hasan, \u062f\u0648\u0647\u0627\u0646 \u062d\u0633\u0646, \u0642\u0631\u064a\u0629 \u062f\u0648\u0647\u0627\u0646 \u0627\u0644\u062d\u0633\u0646", "name": "\u0642\u0631\u064a\u0629 \u062f\u0648\u0647\u0627\u0646 \u0627\u0644\u062d\u0633\u0646", "name:ar": "\u0642\u0631\u064a\u0629 \u062f\u0648\u0647\u0627\u0646 \u0627\u0644\u062d\u0633\u0646", "name:ar1": "\u0642\u0631\u064a\u0629 \u062f\u0648\u0647\u0627\u0646 \u0627\u0644\u062d\u0633\u0646", "name:de": "Duhan Hasan", "name:en": "Duhan Hasan", "name:fr": "Duhan Hasan", "place": "hamlet"}}, {"type": "node", "id": 2486192403, "lat": 32.2624656, "lon": 44.5402883, "tags": {"alt_name": "\u0642\u0644\u0639\u0629 \u062f\u0648\u0647\u0627\u0646", "int_name": "Qalat D\u016bh\u0101n, \u0642\u0644\u0639\u0629 \u062f\u0648\u0647\u0627\u0646, Qalat Duhan, \u0642\u0644\u0639\u0629 \u062f\u0648\u0647\u0627\u0646", "is_in": "Iraq , \u062c\u0645\u0647\u0648\u0631\u064a\u0629 \u0627\u0644\u0639\u0631\u0627\u0642", "name": "\u0642\u0644\u0639\u0629 \u062f\u0648\u0647\u0627\u0646", "name:ar": "\u0642\u0644\u0639\u0629 \u0627\u0644\u062c\u0628\u0648\u0631\u064a", "name:ar1": "\u0642\u0644\u0639\u0629 \u062f\u0648\u0647\u0627\u0646", "name:de": "Qalat Duhan", "name:fr": "Qalat Duhan", "name:ku": "\u0642\u0644\u0639\u0629 \u0627\u0644\u062c\u0628\u0648\u0631\u064a", "place": "hamlet"}}, {"type": "node", "id": 2486192493, "lat": 32.254365, "lon": 44.543752, "tags": {"alt_name": "\u0642\u0631\u064a\u0629 \u0645\u0644\u0649 \u0645\u062d\u0645\u062f", "int_name": "Qaryat Mull\u00e1 Mu\u1e29ammad, \u0642\u0631\u064a\u0629 \u0645\u0644\u0649 \u0645\u062d\u0645\u062f, Qaryat Mulla Muhammad, \u0642\u0631\u064a\u0629 \u0645\u0644\u0649 \u0645\u062d\u0645\u062f", "name": "\u0642\u0631\u064a\u0629 \u0645\u0644\u0649 \u0645\u062d\u0645\u062f", "name:ar": "\u0642\u0631\u064a\u0629 \u0645\u0644\u0649 \u0645\u062d\u0645\u062f", "name:ar1": "\u0642\u0631\u064a\u0629 \u0645\u0644\u0649 \u0645\u062d\u0645\u062f", "name:de": "Qaryat Mulla Muhammad", "name:en": "Qaryat Mulla Muhammad", "name:fr": "Qaryat Mulla Muhammad", "place": "hamlet"}}, {"type": "node", "id": 2486193112, "lat": 32.3788764, "lon": 44.5040233, "tags": {"alt_name": "\u0647\u0627\u062f\u064a \u0627\u0644\u0639\u0628\u062f \u0632\u0627\u064a\u062f", "int_name": "\u0647\u0627\u062f\u064a \u0627\u0644\u0639\u0628\u062f \u0632\u0627\u064a\u062f, \u0647\u0627\u062f\u064a \u0627\u0644\u0639\u0628\u062f \u0632\u0627\u064a\u062f", "is_in": "Iraq , \u062c\u0645\u0647\u0648\u0631\u064a\u0629 \u0627\u0644\u0639\u0631\u0627\u0642", "name": "\u0647\u0627\u062f\u064a \u0627\u0644\u0639\u0628\u062f \u0632\u0627\u064a\u062f", "name:ar": "\u0647\u0627\u062f\u064a \u0627\u0644\u0639\u0628\u062f \u0632\u0627\u064a\u062f", "name:ar1": "\u0647\u0627\u062f\u064a \u0627\u0644\u0639\u0628\u062f \u0632\u0627\u064a\u062f", "name:de": "\u0647\u0627\u062f\u064a \u0627\u0644\u0639\u0628\u062f \u0632\u0627\u064a\u062f", "name:fr": "\u0647\u0627\u062f\u064a \u0627\u0644\u0639\u0628\u062f \u0632\u0627\u064a\u062f", "place": "village"}}, {"type": "node", "id": 2486199735, "lat": 32.22633, "lon": 44.3661973, "tags": {"alt_name": "Al Kifl, Kafil, Kefil, Kefl, Kifl, N\u0101\u1e29iyat al Kifl, Al Kifl, Kafil, Kefil, Kefl, Kifl, Nahiyat al Kifl", "capital": "7", "int_name": "Al Kifl - \u0627\u0644\u0643\u0641\u0644", "is_in": "Iraq , \u062c\u0645\u0647\u0648\u0631\u064a\u0629 \u0627\u0644\u0639\u0631\u0627\u0642", "name": "\u0627\u0644\u0643\u0641\u0644", "name:ar": "\u0627\u0644\u0643\u0641\u0644", "name:de": "Al Kifl", "name:en": "Al Kifl", "name:fr": "Al Kifl", "name:he": "\u05d4\u05e2\u05d9\u05d9\u05e8\u05d4 \u05db\u05e4\u05dc", "place": "town", "wikidata": "Q4531376", "wikipedia": "en:Al Kifl"}}, {"type": "node", "id": 2486199736, "lat": 32.187783, "lon": 44.385111, "tags": {"alt_name": "\u0627\u0644\u0645\u062c\u0627\u0646\u064a\u0645", "int_name": "Al Maj\u0101n\u012bm, \u0627\u0644\u0645\u062c\u0627\u0646\u064a\u0645, Al Majanim, \u0627\u0644\u0645\u062c\u0627\u0646\u064a\u0645", "is_in": "Iraq , \u062c\u0645\u0647\u0648\u0631\u064a\u0629 \u0627\u0644\u0639\u0631\u0627\u0642", "name": "\u0627\u0644\u0645\u062c\u0627\u0646\u064a\u0645", "name:ar": "\u0627\u0644\u0645\u062c\u0627\u062a\u064a\u0645", "name:ar1": "\u0627\u0644\u0645\u062c\u0627\u0646\u064a\u0645", "name:de": "Al Majanim", "name:en": "Al Majatim", "name:fr": "Al Majanim", "place": "village"}}, {"type": "node", "id": 2486199740, "lat": 32.2508282, "lon": 44.4294413, "tags": {"alt_name": "\u0625\u0645\u0627\u0645 \u0627\u0644\u0633\u0628\u0639\u0629", "int_name": "Am\u0101m as Sabmah, Im\u0101m as Sabah, \u0627\u0645\u0627\u0645 \u0627\u0644\u0633\u0628\u0639\u0629, Amam as Sabmah, Imam as Sabah, \u0627\u0645\u0627\u0645 \u0627\u0644\u0633\u0628\u0639\u0629", "is_in": "Iraq , \u062c\u0645\u0647\u0648\u0631\u064a\u0629 \u0627\u0644\u0639\u0631\u0627\u0642", "name": "\u0625\u0645\u0627\u0645 \u0627\u0644\u0633\u0628\u0639\u0629", "name:ar": "\u0625\u0645\u0627\u0645 \u0627\u0644\u0633\u0628\u0639\u0629", "name:ar1": "\u0625\u0645\u0627\u0645 \u0627\u0644\u0633\u0628\u0639\u0629", "name:de": "Amam as Sabmah", "name:en": "Amam as Sabmah", "name:fr": "Amam as Sabmah", "place": "village"}}, {"type": "node", "id": 2486199745, "lat": 32.238177, "lon": 44.406577, "tags": {"alt_name": "\u0628\u0646\u064a \u0623\u064a\u0648\u0628", "int_name": "Ban\u012b Ayy\u016bb, \u0628\u0646\u064a \u0627\u064a\u0648\u0628, Bani Ayyub, \u0628\u0646\u064a \u0627\u064a\u0648\u0628", "is_in": "Iraq , \u062c\u0645\u0647\u0648\u0631\u064a\u0629 \u0627\u0644\u0639\u0631\u0627\u0642", "name": "\u0628\u0646\u064a \u0623\u064a\u0648\u0628", "name:ar": "\u0628\u0646\u064a \u0623\u064a\u0648\u0628", "name:ar1": "\u0628\u0646\u064a \u0623\u064a\u0648\u0628", "name:de": "Bani Ayyub", "name:en": "Bani Ayyub", "name:fr": "Bani Ayyub", "place": "hamlet"}}, {"type": "node", "id": 2486199756, "lat": 32.2183835, "lon": 44.3673107, "tags": {"alt_name": "\u062d\u064a \u0633\u0628\u0639\u0629 \u0646\u064a\u0633\u0627\u0646", "int_name": "\u1e28ayy Sabah N\u012bs\u0101n, Hayy Sabah Nisan", "is_in": "Iraq , \u062c\u0645\u0647\u0648\u0631\u064a\u0629 \u0627\u0644\u0639\u0631\u0627\u0642", "name": "\u062d\u064a \u0633\u0628\u0639\u0629 \u0646\u064a\u0633\u0627\u0646", "name:ar": "\u062d\u064a \u0633\u0628\u0639\u0629 \u0646\u064a\u0633\u0627\u0646", "name:ar1": "\u062d\u064a \u0633\u0628\u0639\u0629 \u0646\u064a\u0633\u0627\u0646", "name:de": "Hayy Sabah Nisan", "name:en": "Hayy Sabah Nisan", "name:fr": "Hayy Sabah Nisan", "place": "hamlet"}}, {"type": "node", "id": 2486199767, "lat": 32.252665, "lon": 44.42954, "tags": {"alt_name": "\u0643\u0627\u0638\u0645 \u0639\u0628\u0627\u0633", "int_name": "K\u0101z\u0327im Abb\u0101s, \u0643\u0627\u0638\u0645 \u0639\u0628\u0627\u0633, Kazim Abbas, \u0643\u0627\u0638\u0645 \u0639\u0628\u0627\u0633", "is_in": "Iraq , \u062c\u0645\u0647\u0648\u0631\u064a\u0629 \u0627\u0644\u0639\u0631\u0627\u0642", "name": "\u0643\u0627\u0638\u0645 \u0639\u0628\u0627\u0633", "name:ar": "\u0643\u0627\u0638\u0645 \u0639\u0628\u0627\u0633", "name:ar1": "\u0643\u0627\u0638\u0645 \u0639\u0628\u0627\u0633", "name:de": "Kazim Abbas", "name:en": "Kazim Abbas", "name:fr": "Kazim Abbas", "place": "hamlet"}}, {"type": "node", "id": 2486199809, "lat": 32.201153, "lon": 44.3685767, "tags": {"alt_name": "\u0646\u0627\u0647\u064a \u0627\u0644\u0628\u0646\u062f\u0631", "int_name": "N\u0101h\u012b al Bandar, Nahi al Bandar", "is_in": "Iraq , \u062c\u0645\u0647\u0648\u0631\u064a\u0629 \u0627\u0644\u0639\u0631\u0627\u0642", "name": "\u0646\u0627\u0647\u064a \u0627\u0644\u0628\u0646\u062f\u0631", "name:ar": "\u0646\u0627\u0647\u064a \u0627\u0644\u0628\u0646\u062f\u0631", "name:ar1": "\u0646\u0627\u0647\u064a \u0627\u0644\u0628\u0646\u062f\u0631", "name:de": "Nahi al Bandar", "name:en": "Nahi al Bandar", "name:fr": "Nahi al Bandar", "place": "village"}}, {"type": "node", "id": 2486199860, "lat": 32.246541, "lon": 44.475535, "tags": {"alt_name": "\u0642\u0631\u064a\u0629 \u0627\u0644\u0635\u0627\u0641\u064a\u0629", "int_name": "Qaryat a\u015f \u015e\u0101fiyah, \u0642\u0631\u064a\u0629 \u0627\u0644\u0635\u0627\u0641\u064a\u0629, Qaryat as Safiyah, \u0642\u0631\u064a\u0629 \u0627\u0644\u0635\u0627\u0641\u064a\u0629", "name": "\u0642\u0631\u064a\u0629 \u0627\u0644\u0635\u0627\u0641\u064a\u0629", "name:ar": "\u0642\u0631\u064a\u0629 \u0627\u0644\u0635\u0627\u0641\u064a\u0629", "name:ar1": "\u0642\u0631\u064a\u0629 \u0627\u0644\u0635\u0627\u0641\u064a\u0629", "name:de": "Qaryat as Safiyah", "name:en": "Qaryat as Safiyah", "name:fr": "Qaryat as Safiyah", "place": "hamlet"}}, {"type": "node", "id": 2486199887, "lat": 32.256767, "lon": 44.298789, "tags": {"alt_name": "\u0642\u0631\u064a\u0629 \u0627\u0644 \u0628\u0648 \u062d\u0634\u064a\u0628\u0629", "int_name": "\u0642\u0631\u064a\u0629 \u0627\u0644 \u0628\u0648 \u062d\u0634\u064a\u0628\u0629, \u0642\u0631\u064a\u0629 \u0627\u0644 \u0628\u0648 \u062d\u0634\u064a\u0628\u0629", "name": "\u0642\u0631\u064a\u0629 \u0627\u0644 \u0628\u0648 \u062d\u0634\u064a\u0628\u0629", "name:ar": "\u0642\u0631\u064a\u0629 \u0627\u0644 \u0628\u0648 \u062d\u0634\u064a\u0628\u0629", "name:ar1": "\u0642\u0631\u064a\u0629 \u0627\u0644 \u0628\u0648 \u062d\u0634\u064a\u0628\u0629", "name:de": "\u0642\u0631\u064a\u0629 \u0627\u0644 \u0628\u0648 \u062d\u0634\u064a\u0628\u0629", "name:fr": "\u0642\u0631\u064a\u0629 \u0627\u0644 \u0628\u0648 \u062d\u0634\u064a\u0628\u0629", "place": "village"}}, {"type": "node", "id": 2486199893, "lat": 32.2141449, "lon": 44.417626, "tags": {"alt_name": "\u0642\u0631\u064a\u0629 \u0627\u0644 \u0639\u064a\u0633\u0649", "int_name": "\u0642\u0631\u064a\u0629 \u0627\u0644 \u0639\u064a\u0633\u0649, \u0642\u0631\u064a\u0629 \u0627\u0644 \u0639\u064a\u0633\u0649", "name": "\u0642\u0631\u064a\u0629 \u0627\u0644 \u0639\u064a\u0633\u0649", "name:ar": "\u0642\u0631\u064a\u0629 \u0627\u0644 \u0639\u064a\u0633\u0649", "name:ar1": "\u0642\u0631\u064a\u0629 \u0627\u0644 \u0639\u064a\u0633\u0649", "name:de": "\u0642\u0631\u064a\u0629 \u0627\u0644 \u0639\u064a\u0633\u0649", "name:fr": "\u0642\u0631\u064a\u0629 \u0627\u0644 \u0639\u064a\u0633\u0649", "place": "village"}}, {"type": "node", "id": 2486201934, "lat": 32.291398, "lon": 44.374572, "tags": {"alt_name": "\u0627\u0644\u0646\u062c\u0645\u0629", "int_name": "An Najmah, \u0627\u0644\u0646\u062c\u0645\u0629, An Najmah, \u0627\u0644\u0646\u062c\u0645\u0629", "is_in": "Iraq , \u062c\u0645\u0647\u0648\u0631\u064a\u0629 \u0627\u0644\u0639\u0631\u0627\u0642", "name": "\u0627\u0644\u0646\u062c\u0645\u0629", "name:ar": "\u0628\u0627\u0628\u0644 /\u0627\u0644\u062d\u0644\u0647", "name:ar1": "\u0627\u0644\u0646\u062c\u0645\u0629", "name:de": "An Najmah", "name:en": "An Najmah", "name:fr": "An Najmah", "place": "village"}}, {"type": "node", "id": 2486207248, "lat": 32.321667, "lon": 44.290833, "tags": {"alt_name": "\u0639\u0631\u0628 \u0627\u0644\u0633\u0627\u062f\u0629", "int_name": "Arab as S\u0101dah, Arab as Sadah", "is_in": "Iraq , \u062c\u0645\u0647\u0648\u0631\u064a\u0629 \u0627\u0644\u0639\u0631\u0627\u0642", "name": "\u0639\u0631\u0628 \u0627\u0644\u0633\u0627\u062f\u0629", "name:ar": "\u0639\u0631\u0628 \u0627\u0644\u0633\u0627\u062f\u0629 (\u0639\u0628\u0648\u062f \u0627\u0644 \u0641\u062c\u064a\u062c)", "name:ar1": "\u0639\u0631\u0628 \u0627\u0644\u0633\u0627\u062f\u0629", "name:de": "Arab as Sadah", "name:en": "Arab as Sadah", "name:fr": "Arab as Sadah", "place": "village"}}, {"type": "node", "id": 2486207281, "lat": 32.4053634, "lon": 44.3658903, "tags": {"alt_name": "\u062d\u0645\u0632\u0629 \u0627\u0644\u0631\u0643\u0627\u0648\u064a", "int_name": "\u1e28amzah ar Rak\u0101w\u012b, Hamzeh ar Rak\u0101wi, Hamzah ar Rakawi, Hamzeh ar Rakawi", "is_in": "Iraq , \u062c\u0645\u0647\u0648\u0631\u064a\u0629 \u0627\u0644\u0639\u0631\u0627\u0642", "name": "\u062d\u0645\u0632\u0629 \u0627\u0644\u0631\u0643\u0627\u0648\u064a", "name:ar": "\u062d\u0645\u0632\u0629 \u0627\u0644\u0631\u0643\u0627\u0648\u064a", "name:ar1": "\u062d\u0645\u0632\u0629 \u0627\u0644\u0631\u0643\u0627\u0648\u064a", "name:de": "Hamzah ar Rakawi", "name:en": "Hamzah ar Rakawi", "name:fr": "Hamzah ar Rakawi", "place": "village"}}, {"type": "node", "id": 2486207340, "lat": 32.3174047, "lon": 44.2735718, "tags": {"alt_name": "\u062e\u0627\u0646 \u0627\u0644\u062d\u0645\u0627\u062f", "int_name": "Kh\u0101n al \u1e28amm\u0101d, Khan al Hammad", "is_in": "Iraq , \u062c\u0645\u0647\u0648\u0631\u064a\u0629 \u0627\u0644\u0639\u0631\u0627\u0642", "name": "\u062e\u0627\u0646 \u0627\u0644\u062d\u0645\u0627\u062f", "name:ar": "\u062e\u0627\u0646 \u0627\u0644\u062d\u0645\u0627\u062f", "name:ar1": "\u062e\u0627\u0646 \u0627\u0644\u062d\u0645\u0627\u062f", "name:de": "Khan al Hammad", "name:en": "Khan al Hammad", "name:fr": "Khan al Hammad", "name:ru": "\u0425\u0430\u043d-\u044d\u043b\u044c-\u0425\u0430\u043c\u043c\u0430\u0434", "place": "village"}}, {"type": "node", "id": 2486207580, "lat": 32.32151, "lon": 44.2709263, "tags": {"alt_name": "\u0646\u0627\u062d\u064a\u0629 \u0627\u0644\u062d\u064a\u062f\u0631\u064a\u0629", "capital": "7", "int_name": "N\u0101\u1e29iyat al \u1e28aydar\u012byah, \u0646\u0627\u062d\u064a\u0629 \u0627\u0644\u062d\u064a\u062f\u0631\u064a\u0629, Nahiyat al Haydariyah, \u0646\u0627\u062d\u064a\u0629 \u0627\u0644\u062d\u064a\u062f\u0631\u064a\u0629", "is_in": "Iraq , \u062c\u0645\u0647\u0648\u0631\u064a\u0629 \u0627\u0644\u0639\u0631\u0627\u0642", "is_in:country": "Iraq", "is_in:country_code": "IQ", "name": "\u0627\u0644\u062d\u064a\u062f\u0631\u064a\u0629", "name:ar": "\u0627\u0644\u062d\u064a\u062f\u0631\u064a\u0629", "name:ar1": "\u0646\u0627\u062d\u064a\u0629 \u0627\u0644\u062d\u064a\u062f\u0631\u064a\u0629", "name:de": "Nahiyat al Haydariyah", "name:en": "Al-Haydariya", "name:en1": "Nahya Al-Haydariya", "name:fr": "Nahiyat al Haydariyah", "place": "town", "population": "65000", "population:date": "2014", "source:population": "https://ar.wikipedia.org/wiki/%D9%86%D8%A7%D8%AD%D9%8A%D8%A9_%D8%A7%D9%84%D8%AD%D9%8A%D8%AF%D8%B1%D9%8A%D8%A9", "wikidata": "Q16121312"}}, {"type": "node", "id": 2486207644, "lat": 32.394622, "lon": 44.300579, "tags": {"alt_name": "\u0642\u0631\u064a\u0629 \u0622\u0644 \u062d\u0645\u0627\u0633", "int_name": "Qaryat \u0100l \u1e28amas, \u0642\u0631\u064a\u0629 \u0627\u0644 \u062d\u0645\u0627\u0633, Qaryat Al Hamas, \u0642\u0631\u064a\u0629 \u0627\u0644 \u062d\u0645\u0627\u0633", "name": "\u0642\u0631\u064a\u0629 \u0622\u0644 \u062d\u0645\u0627\u0633", "name:ar": "\u0642\u0631\u064a\u0629 \u0622\u0644 \u062e\u0645\u0627\u0633", "name:ar1": "\u0642\u0631\u064a\u0629 \u0622\u0644 \u062d\u0645\u0627\u0633", "name:de": "Qaryat Al Hamas", "name:en": "Qaryat Al Hamas", "name:fr": "Qaryat Al Hamas", "place": "village"}}, {"type": "node", "id": 2486207671, "lat": 32.409164, "lon": 44.276135, "tags": {"alt_name": "\u0642\u0631\u064a\u0629 \u0645\u0636\u062e\u0627\u062a \u0627\u0644\u0642\u064a\u0627\u062f\u0629", "int_name": "Qaryat Mi\u1e11akhkh\u0101t al Qiy\u0101dah, \u0642\u0631\u064a\u0629 \u0645\u0636\u062e\u0627\u062a \u0627\u0644\u0642\u064a\u0627\u062f\u0629, Qaryat Midakhkhat al Qiyadah, \u0642\u0631\u064a\u0629 \u0645\u0636\u062e\u0627\u062a \u0627\u0644\u0642\u064a\u0627\u062f\u0629", "name": "\u0642\u0631\u064a\u0629 \u0645\u0636\u062e\u0627\u062a \u0627\u0644\u0642\u064a\u0627\u062f\u0629", "name:ar": "\u0642\u0631\u064a\u0629 \u0627\u0644\u0641\u064a\u0627\u062f\u0629 \u0627\u0644\u0628\u0648\u0633\u0648\u0627\u062f\u064a", "name:ar1": "\u0642\u0631\u064a\u0629 \u0645\u0636\u062e\u0627\u062a \u0627\u0644\u0642\u064a\u0627\u062f\u0629", "name:de": "Qaryat Midakhkhat al Qiyadah", "name:en": "Qaryat Midakhkhat al Qiyadah", "name:fr": "Qaryat Midakhkhat al Qiyadah", "place": "village"}}, {"type": "node", "id": 2486207720, "lat": 32.416847, "lon": 44.27404, "tags": {"alt_name": "\u0642\u0631\u064a\u0629 \u0627\u0644\u0642\u064a\u0627\u0631\u0629", "int_name": "Qaryat al Qayy\u0101rah, \u0642\u0631\u064a\u0629 \u0627\u0644\u0642\u064a\u0627\u0631\u0629, Qaryat al Qayyarah, \u0642\u0631\u064a\u0629 \u0627\u0644\u0642\u064a\u0627\u0631\u0629", "name": "\u0642\u0631\u064a\u0629 \u0627\u0644\u0642\u064a\u0627\u0631\u0629", "name:ar": "\u0642\u0631\u064a\u0629 \u0627\u0644\u0641\u064a\u0627\u062f\u0629 \u0627\u0644\u0639\u064a\u062f", "name:ar1": "\u0642\u0631\u064a\u0629 \u0627\u0644\u0642\u064a\u0627\u0631\u0629", "name:de": "Qaryat al Qayyarah", "name:en": "Qaryat al Qayyarah", "name:fr": "Qaryat al Qayyarah", "place": "village"}}, {"type": "node", "id": 2486207765, "lat": 32.4164408, "lon": 44.2331904, "tags": {"alt_name": "\u0631\u062e\u064a\u0637", "int_name": "Rukhay\u0163, Rukhayt", "is_in": "Iraq , \u062c\u0645\u0647\u0648\u0631\u064a\u0629 \u0627\u0644\u0639\u0631\u0627\u0642", "name": "\u0631\u062e\u064a\u0637", "name:ar": "\u0631\u062e\u064a\u0637", "name:ar1": "\u0631\u062e\u064a\u0637", "name:de": "Rukhayt", "name:en": "Rukhayt", "name:fr": "Rukhayt", "place": "hamlet"}}, {"type": "node", "id": 2486207795, "lat": 32.4166257, "lon": 44.2168687, "tags": {"alt_name": "\u0634\u0639\u0644\u0627\u0646 \u0623\u0628\u0648 \u062e\u0627\u0644\u062f", "int_name": "Shal\u0101n Ab\u016b Kh\u0101lid, Shalan Abu Khalid", "is_in": "Iraq , \u062c\u0645\u0647\u0648\u0631\u064a\u0629 \u0627\u0644\u0639\u0631\u0627\u0642", "name": "\u0634\u0639\u0644\u0627\u0646 \u0623\u0628\u0648 \u062e\u0627\u0644\u062f", "name:ar": "\u0634\u0639\u0644\u0627\u0646 \u0623\u0628\u0648 \u062e\u0627\u0644\u062f", "name:ar1": "\u0634\u0639\u0644\u0627\u0646 \u0623\u0628\u0648 \u062e\u0627\u0644\u062f", "name:de": "Shalan Abu Khalid", "name:en": "Shalan Abu Khalid", "name:fr": "Shalan Abu Khalid", "place": "hamlet"}}, {"type": "node", "id": 2486207825, "lat": 32.3934608, "lon": 44.3304837, "tags": {"alt_name": "\u0623\u0645 \u0643\u0632\u0644\u0629", "int_name": "Umm Guzlah, Umm Guzlah", "is_in": "Iraq , \u062c\u0645\u0647\u0648\u0631\u064a\u0629 \u0627\u0644\u0639\u0631\u0627\u0642", "name": "\u0623\u0645 \u0643\u0632\u0644\u0629", "name:ar": "\u0623\u0645 \u0643\u0632\u0644\u0629", "name:ar1": "\u0623\u0645 \u0643\u0632\u0644\u0629", "name:de": "Umm Guzlah", "name:en": "Umm Guzlah", "name:fr": "Umm Guzlah", "place": "village"}}, {"type": "node", "id": 2486207830, "lat": 32.3922649, "lon": 44.26485, "tags": {"alt_name": "\u0642\u0631\u064a\u0629 \u0627\u0644\u0627\u064a\u0634\u0627\u0646", "int_name": "\u0642\u0631\u064a\u0629 \u0627\u0644\u0627\u064a\u0634\u0627\u0646, \u0642\u0631\u064a\u0629 \u0627\u0644\u0627\u064a\u0634\u0627\u0646", "name": "\u0642\u0631\u064a\u0629 \u0627\u0644\u0627\u064a\u0634\u0627\u0646", "name:ar": "\u0642\u0631\u064a\u0629 \u0627\u0644\u0627\u064a\u0634\u0627\u0646", "name:ar1": "\u0642\u0631\u064a\u0629 \u0627\u0644\u0627\u064a\u0634\u0627\u0646", "name:de": "\u0642\u0631\u064a\u0629 \u0627\u0644\u0627\u064a\u0634\u0627\u0646", "name:en": "Al-Ishan Village", "name:fr": "\u0642\u0631\u064a\u0629 \u0627\u0644\u0627\u064a\u0634\u0627\u0646", "place": "village"}}, {"type": "node", "id": 2486211454, "lat": 32.4237167, "lon": 44.3487556, "tags": {"alt_name": "\u0642\u0631\u064a\u0629 \u0637\u0639\u0645\u0647 \u0627\u0644\u0639\u0644\u064a", "int_name": "\u0642\u0631\u064a\u0629 \u0637\u0639\u0645\u0647 \u0627\u0644\u0639\u0644\u064a, \u0642\u0631\u064a\u0629 \u0637\u0639\u0645\u0647 \u0627\u0644\u0639\u0644\u064a", "name": "\u0642\u0631\u064a\u0629 \u0637\u0639\u0645\u0647 \u0627\u0644\u0639\u0644\u064a", "name:ar": "\u0642\u0631\u064a\u0629 \u0637\u0639\u0645\u0647 \u0627\u0644\u0639\u0644\u064a", "name:ar1": "\u0642\u0631\u064a\u0629 \u0637\u0639\u0645\u0647 \u0627\u0644\u0639\u0644\u064a", "name:de": "\u0642\u0631\u064a\u0629 \u0637\u0639\u0645\u0647 \u0627\u0644\u0639\u0644\u064a", "name:fr": "\u0642\u0631\u064a\u0629 \u0637\u0639\u0645\u0647 \u0627\u0644\u0639\u0644\u064a", "place": "village"}}, {"type": "node", "id": 2486215045, "lat": 32.455297, "lon": 44.315114, "tags": {"alt_name": "\u0628\u0646\u064a \u0635\u0627\u0644\u062d", "int_name": "Ban\u012b \u015e\u0101li\u1e29, Bani Salih", "is_in": "Iraq , \u062c\u0645\u0647\u0648\u0631\u064a\u0629 \u0627\u0644\u0639\u0631\u0627\u0642", "name": "\u0628\u0646\u064a \u0635\u0627\u0644\u062d", "name:ar": "\u0628\u0646\u064a \u0633\u0627\u0644\u0647", "name:ar1": "\u0628\u0646\u064a \u0635\u0627\u0644\u062d", "name:de": "Bani Salih", "name:en": "Bani Sala", "name:fr": "Bani Salih", "place": "village"}}, {"type": "node", "id": 2486215066, "lat": 32.4369002, "lon": 44.3240406, "tags": {"alt_name": "\u0642\u0631\u064a\u0629 \u0639\u0648\u0641\u064a", "int_name": "Qaryat Awf\u012b, \u0642\u0631\u064a\u0629 \u0639\u0648\u0641\u064a, Qaryat Awfi, \u0642\u0631\u064a\u0629 \u0639\u0648\u0641\u064a", "name": "\u0642\u0631\u064a\u0629 \u0639\u0648\u0641\u064a", "name:ar": "\u0642\u0631\u064a\u0629 \u0639\u0648\u0641\u064a", "name:ar1": "\u0642\u0631\u064a\u0629 \u0639\u0648\u0641\u064a", "name:de": "Qaryat Awfi", "name:en": "Qaryat Awfi", "name:fr": "Qaryat Awfi", "place": "village"}}, {"type": "node", "id": 2486216662, "lat": 32.458603, "lon": 44.303663, "tags": {"alt_name": "\u0642\u0631\u064a\u0629 \u0639\u0627\u062f\u0629 \u0632\u0631\u0642\u0627\u0646", "int_name": "Qaryat Adah Zarq\u0101n, \u0642\u0631\u064a\u0629 \u0639\u0627\u062f\u0629 \u0632\u0631\u0642\u0627\u0646, Qaryat Adah Zarqan, \u0642\u0631\u064a\u0629 \u0639\u0627\u062f\u0629 \u0632\u0631\u0642\u0627\u0646", "name": "\u0642\u0631\u064a\u0629 \u0639\u0627\u062f\u0629 \u0632\u0631\u0642\u0627\u0646", "name:ar": "\u0642\u0631\u064a\u0629 \u0633\u0627\u062f\u0629 \u0632\u0631\u0642\u0627\u0646", "name:ar1": "\u0642\u0631\u064a\u0629 \u0639\u0627\u062f\u0629 \u0632\u0631\u0642\u0627\u0646", "name:de": "Qaryat Adah Zarqan", "name:en": "Qaryat Sadah Zarqan", "name:fr": "Qaryat Adah Zarqan", "place": "village"}}, {"type": "node", "id": 2486216663, "lat": 32.472283, "lon": 44.300952, "tags": {"alt_name": "\u0642\u0631\u064a\u0629 \u0622\u0644 \u0643\u064a\u0633\u0645", "int_name": "Qaryat \u0100l Kaysam, Qaryat Al Kaysam", "name": "\u0642\u0631\u064a\u0629 \u0622\u0644 \u0643\u064a\u0633\u0645", "name:ar": "\u0642\u0631\u064a\u0629 \u0622\u0644 \u0643\u064a\u0645", "name:ar1": "\u0642\u0631\u064a\u0629 \u0622\u0644 \u0643\u064a\u0633\u0645", "name:de": "Qaryat Al Kaysam", "name:en": "Qaryat Al Kayam", "name:fr": "Qaryat Al Kaysam", "place": "village"}}, {"type": "node", "id": 2486216665, "lat": 32.461505, "lon": 44.306742, "tags": {"alt_name": "\u0642\u0631\u064a\u0629 \u0628\u0646\u064a \u0645\u0627\u0644\u0629", "int_name": "Qaryat Ban\u012b M\u0101lah, \u0642\u0631\u064a\u0629 \u0628\u0646\u064a \u0645\u0627\u0644\u0647, Qaryat Bani Malah, \u0642\u0631\u064a\u0629 \u0628\u0646\u064a \u0645\u0627\u0644\u0647", "name": "\u0642\u0631\u064a\u0629 \u0628\u0646\u064a \u0645\u0627\u0644\u0629", "name:ar": "\u0642\u0631\u064a\u0629 \u0633\u0627\u062f\u0629 \u0627\u0644 \u0632\u0631\u0643\u0627\u0646", "name:ar1": "\u0642\u0631\u064a\u0629 \u0628\u0646\u064a \u0645\u0627\u0644\u0629", "name:de": "Qaryat Bani Malah", "name:en": "Qaryat sada Al zirkan", "name:fr": "Qaryat Bani Malah", "place": "village"}}, {"type": "node", "id": 2487988847, "lat": 32.4463674, "lon": 44.4476781, "tags": {"alt_name": "\u0627\u0644\u0641\u0644\u064a\u0633", "int_name": "Al Fulays, Al Fulays", "name": "\u0627\u0644\u0641\u0644\u064a\u0633", "name:ar": "\u0627\u0644\u063a\u0644\u064a\u0633", "name:ar1": "\u0627\u0644\u0641\u0644\u064a\u0633", "name:de": "Al Fulays", "name:en": "Al Fulays", "name:fr": "Al Fulays", "place": "village"}}, {"type": "node", "id": 2487988857, "lat": 32.496247, "lon": 44.1973952, "tags": {"alt_name": "\u0627\u0644\u062c\u062f\u0648\u0644 \u0627\u0644\u063a\u0631\u0628\u064a", "capital": "7", "int_name": "Al Jadwal al Gharb\u012b, Al Jadwal al Gharbi", "is_in": "Iraq , \u062c\u0645\u0647\u0648\u0631\u064a\u0629 \u0627\u0644\u0639\u0631\u0627\u0642", "name": "\u0627\u0644\u062c\u062f\u0648\u0644 \u0627\u0644\u063a\u0631\u0628\u064a", "name:ar": "\u0627\u0644\u062c\u062f\u0648\u0644 \u0627\u0644\u063a\u0631\u0628\u064a", "name:ar1": "\u0646\u0627\u062d\u064a\u0629 \u0627\u0644\u062c\u062f\u0648\u0644 \u0627\u0644\u063a\u0631\u0628\u064a", "name:de": "Al Jadwal al Gharbi", "name:en": "Al-Jadwal \u0650Al-Gharbi", "name:en1": "Nahya Al-Jadwal \u0650Al-Gharbi", "name:fr": "Al Jadwal \u0650Al Gharbi", "place": "town"}}, {"type": "node", "id": 2487988858, "lat": 32.487417, "lon": 44.430211, "tags": {"alt_name": "\u0627\u0644\u0643\u0631\u0627\u0645\u0629", "int_name": "Al Kar\u0101mah, \u0627\u0644\u0643\u0631\u0627\u0645\u0629, Al Karamah, \u0627\u0644\u0643\u0631\u0627\u0645\u0629", "name": "\u0627\u0644\u0643\u0631\u0627\u0645\u0629", "name:ar": "\u062d\u064a \u0634\u0628\u0631", "name:ar1": "\u0627\u0644\u0643\u0631\u0627\u0645\u0629", "name:de": "Al Karamah", "name:en": "Al Karamah", "name:fr": "Al Karamah", "place": "hamlet"}}, {"type": "node", "id": 2487988902, "lat": 32.440747, "lon": 44.409525, "tags": {"alt_name": "\u0627\u0644\u0635\u0646\u0627\u0639\u0629", "int_name": "A\u015f \u015ein\u0101ah, \u0627\u0644\u0635\u0646\u0627\u0639\u0629, As Sinaah, \u0627\u0644\u0635\u0646\u0627\u0639\u0629", "name": "\u0627\u0644\u0635\u0646\u0627\u0639\u0629", "name:ar": "\u0635\u0646\u0627\u0639\u064a\u0629 \u0627\u0644\u062d\u0644\u0629", "name:ar1": "\u0627\u0644\u0635\u0646\u0627\u0639\u0629", "name:de": "As Sinaah", "name:en": "As Sinaah", "name:fr": "As Sinaah", "place": "village"}}, {"type": "node", "id": 2487988923, "lat": 32.487364, "lon": 44.4562, "tags": {"alt_name": "\u062d\u064a \u0627\u0644\u0628\u0643\u0631\u064a", "int_name": "\u1e28ayy al Bakr\u012b, \u062d\u064a \u0627\u0644\u0628\u0643\u0631\u064a, Hayy al Bakri, \u062d\u064a \u0627\u0644\u0628\u0643\u0631\u064a", "name": "\u062d\u064a \u0627\u0644\u0628\u0643\u0631\u064a", "name:ar": "\u062d\u064a \u0627\u0644\u0628\u0643\u0631\u0644\u064a", "name:ar1": "\u062d\u064a \u0627\u0644\u0628\u0643\u0631\u064a", "name:de": "Hayy al Bakri", "name:en": "Hayy al Bakarly", "name:fr": "Hayy al Bakri", "place": "hamlet"}}, {"type": "node", "id": 2487988927, "lat": 32.476354, "lon": 44.422644, "tags": {"alt_name": "\u062d\u064a \u0627\u0644\u0645\u0639\u0644\u0645\u064a\u0646", "int_name": "\u1e28ayy al Muallim\u012bn, \u062d\u064a \u0627\u0644\u0645\u0639\u0644\u0645\u064a\u0646, Hayy al Muallimin, \u062d\u064a \u0627\u0644\u0645\u0639\u0644\u0645\u064a\u0646", "name": "\u062d\u064a \u0627\u0644\u0645\u0639\u0644\u0645\u064a\u0646", "name:ar": "\u062d\u064a \u0627\u0628\u0648 \u0627\u0644\u0646\u0641\u0637", "name:ar1": "\u062d\u064a \u0627\u0644\u0645\u0639\u0644\u0645\u064a\u0646", "name:de": "Hayy al Muallimin", "name:en": "Hayy Abo Alnaft", "name:fr": "Hayy al Muallimin", "place": "hamlet"}}, {"type": "node", "id": 2487988934, "lat": 32.485293, "lon": 44.422459, "tags": {"alt_name": "\u062d\u064a \u0627\u0644\u0637\u0631\u0642", "int_name": "\u1e28ayy a\u0163 \u0162uruq, \u062d\u064a \u0627\u0644\u0637\u0631\u0642, Hayy at Turuq, \u062d\u064a \u0627\u0644\u0637\u0631\u0642", "name": "\u062d\u064a \u0627\u0644\u0637\u0631\u0642", "name:ar": "\u062d\u064a \u0627\u0644\u0643\u0631\u0627\u0645\u0629 \u0627\u0644\u0627\u0648\u0644\u0649", "name:ar1": "\u062d\u064a \u0627\u0644\u0637\u0631\u0642", "name:de": "Hayy at Turuq", "name:en": "Hayy al karama", "name:fr": "Hayy at Turuq", "place": "hamlet"}}, {"type": "node", "id": 2487988946, "lat": 32.4945525, "lon": 44.4519186, "tags": {"alt_name": "\u062c\u0632\u0627\u0626\u0631", "int_name": "Jaz\u0101ir, \u062c\u0632\u0627\u0626\u0631, Jazair, \u062c\u0632\u0627\u0626\u0631", "name": "\u062c\u0632\u0627\u0626\u0631", "name:ar": "\u0627\u0644\u0628\u0643\u0631\u0644\u064a", "name:ar1": "\u062c\u0632\u0627\u0626\u0631", "name:de": "Jazair", "name:en": "hay al bakarly", "name:fr": "Jazair", "place": "hamlet"}}, {"type": "node", "id": 2487988969, "lat": 32.4734339, "lon": 44.2200347, "tags": {"alt_name": "N\u0101\u1e29iyat al Khayr\u0101t, \u0646\u0627\u062d\u064a\u0629 \u0627\u0644\u062e\u064a\u0631\u0627\u062a, Nahiyat al Khayrat, \u0646\u0627\u062d\u064a\u0629 \u0627\u0644\u062e\u064a\u0631\u0627\u062a", "capital": "7", "int_name": "Al Khayrat - \u0627\u0644\u062e\u064a\u0631\u0627\u062a", "is_in": "Iraq , \u062c\u0645\u0647\u0648\u0631\u064a\u0629 \u0627\u0644\u0639\u0631\u0627\u0642", "name": "\u0627\u0644\u062e\u064a\u0631\u0627\u062a", "name:ar": "\u0627\u0644\u062e\u064a\u0631\u0627\u062a", "name:de": "Al Khayrat", "name:en": "Al Khayrat", "name:fr": "Al Khayrat", "place": "town"}}, {"type": "node", "id": 2487989235, "lat": 32.4708511, "lon": 44.2286899, "tags": {"alt_name": "\u0642\u0631\u064a\u0629 \u0627\u0644\u0637\u0631\u0641\u0627\u064a\u0629", "int_name": "Qaryat a\u0163 \u0162arf\u0101yah, Qaryat at Tarfayah", "name": "\u0642\u0631\u064a\u0629 \u0627\u0644\u0637\u0631\u0641\u0627\u064a\u0629", "name:ar": "\u0642\u0631\u064a\u0629 \u0627\u0644\u0637\u0631\u0641\u0627\u064a\u0629", "name:ar1": "\u0642\u0631\u064a\u0629 \u0627\u0644\u0637\u0631\u0641\u0627\u064a\u0629", "name:de": "Qaryat at Tarfayah", "name:en": "Qaryat at Tarfayah", "name:fr": "Qaryat at Tarfayah", "place": "village"}}, {"type": "node", "id": 2487989242, "lat": 32.436667, "lon": 44.383056, "tags": {"alt_name": "\u0633\u0644\u062e\u0629", "int_name": "Salkha, Salkhah, Salkha, Salkhah", "name": "\u0633\u0644\u062e\u0629", "name:ar": "\u0627\u0644\u0639\u0631\u0627\u0642", "name:ar1": "\u0633\u0644\u062e\u0629", "name:de": "Salkha", "name:en": "Salkha", "name:fr": "Salkha", "name:ku": "\u0628\u0627\u0628\u0644", "place": "village"}}, {"type": "node", "id": 2487989256, "lat": 32.446862, "lon": 44.246366, "tags": {"alt_name": "\u062a\u0648\u064a\u0647\u064a\u0629", "int_name": "\u0162uwayh\u012byah, \u062a\u0648\u064a\u0647\u064a\u0629, Tuwayhiyah, \u062a\u0648\u064a\u0647\u064a\u0629", "is_in": "Iraq , \u062c\u0645\u0647\u0648\u0631\u064a\u0629 \u0627\u0644\u0639\u0631\u0627\u0642", "name": "\u062a\u0648\u064a\u0647\u064a\u0629", "name:ar": "\u062a\u0648\u064a\u0647\u064a\u0629", "name:ar1": "\u062a\u0648\u064a\u0647\u064a\u0629", "name:de": "Tuwayhiyah", "name:en": "Tuwayhiyah", "name:fr": "Tuwayhiyah", "place": "hamlet"}}, {"type": "node", "id": 2487989263, "lat": 32.489669, "lon": 44.2569557, "tags": {"alt_name": "\u0627\u0645 \u0627\u0644\u0632\u0627\u0648\u064a\u0629", "int_name": "\u0627\u0645 \u0627\u0644\u0632\u0627\u0648\u064a\u0629, \u0627\u0645 \u0627\u0644\u0632\u0627\u0648\u064a\u0629", "is_in": "Iraq , \u062c\u0645\u0647\u0648\u0631\u064a\u0629 \u0627\u0644\u0639\u0631\u0627\u0642", "name": "\u0627\u0645 \u0627\u0644\u0632\u0627\u0648\u064a\u0629", "name:ar": "\u0627\u0645 \u0627\u0644\u0632\u0627\u0648\u064a\u0629", "name:ar1": "\u0627\u0645 \u0627\u0644\u0632\u0627\u0648\u064a\u0629", "name:de": "\u0627\u0645 \u0627\u0644\u0632\u0627\u0648\u064a\u0629", "name:fr": "\u0627\u0645 \u0627\u0644\u0632\u0627\u0648\u064a\u0629", "place": "village"}}, {"type": "node", "id": 2487989265, "lat": 32.4431373, "lon": 44.4756352, "tags": {"alt_name": "\u0642\u0631\u064a\u0629 \u0627\u0644\u062f\u064a\u0644\u0627\u0628", "int_name": "\u0642\u0631\u064a\u0629 \u0627\u0644\u062f\u064a\u0644\u0627\u0628, \u0642\u0631\u064a\u0629 \u0627\u0644\u062f\u064a\u0644\u0627\u0628", "name": "\u0642\u0631\u064a\u0629 \u0627\u0644\u062f\u064a\u0644\u0627\u0628", "name:ar": "\u0642\u0631\u064a\u0629 \u0627\u0644\u062f\u064a\u0644\u0627\u0628", "name:ar1": "\u0642\u0631\u064a\u0629 \u0627\u0644\u062f\u064a\u0644\u0627\u0628", "name:de": "\u0642\u0631\u064a\u0629 \u0627\u0644\u062f\u064a\u0644\u0627\u0628", "name:en": "Dilab Village", "name:fr": "\u0642\u0631\u064a\u0629 \u0627\u0644\u062f\u064a\u0644\u0627\u0628", "place": "village"}}, {"type": "node", "id": 2487989267, "lat": 32.4450745, "lon": 44.3641452, "tags": {"alt_name": "\u0642\u0631\u064a\u0629 \u0643\u0627\u0638\u0645 \u0627\u0644 \u0645\u0648\u0633\u0649", "int_name": "\u0642\u0631\u064a\u0629 \u0643\u0627\u0638\u0645 \u0627\u0644 \u0645\u0648\u0633\u0649, \u0642\u0631\u064a\u0629 \u0643\u0627\u0638\u0645 \u0627\u0644 \u0645\u0648\u0633\u0649", "name": "\u0642\u0631\u064a\u0629 \u0643\u0627\u0638\u0645 \u0627\u0644 \u0645\u0648\u0633\u0649", "name:ar": "\u0642\u0631\u064a\u0629 \u0643\u0627\u0638\u0645 \u0627\u0644 \u0645\u0648\u0633\u0649", "name:ar1": "\u0642\u0631\u064a\u0629 \u0643\u0627\u0638\u0645 \u0627\u0644 \u0645\u0648\u0633\u0649", "place": "village"}}, {"type": "node", "id": 2488022062, "lat": 32.525184, "lon": 44.149423, "tags": {"alt_name": "\u0639\u0628\u062f \u0627\u0644\u0631\u0636\u0627 \u0645\u0632\u0647\u0631", "int_name": "Abd ar Ri\u1e11\u0101 Muzhir, \u0639\u0628\u062f \u0627\u0644\u0631\u0636\u0627 \u0645\u0632\u0647\u0631, Abd ar Rida Muzhir, \u0639\u0628\u062f \u0627\u0644\u0631\u0636\u0627 \u0645\u0632\u0647\u0631", "is_in": "Iraq , \u062c\u0645\u0647\u0648\u0631\u064a\u0629 \u0627\u0644\u0639\u0631\u0627\u0642", "name": "\u0639\u0628\u062f \u0627\u0644\u0631\u0636\u0627 \u0645\u0632\u0647\u0631", "name:ar": "\u0639\u0628\u062f \u0627\u0644\u0631\u0636\u0627 \u0645\u0632\u0647\u0631", "name:ar1": "\u0639\u0628\u062f \u0627\u0644\u0631\u0636\u0627 \u0645\u0632\u0647\u0631", "name:de": "Abd ar Rida Muzhir", "name:en": "Abd ar Rida Muzhir", "name:fr": "Abd ar Rida Muzhir", "place": "hamlet"}}, {"type": "node", "id": 2488022349, "lat": 32.5432123, "lon": 44.2219808, "tags": {"alt_name": "Al Hind\u012byah, Al Hindiyah", "capital": "6", "name": "\u0627\u0644\u0647\u0646\u062f\u064a\u0629", "name:ar": "\u0627\u0644\u0647\u0646\u062f\u064a\u0629", "name:de": "Hindiya", "name:en": "Hindiya", "name:es": "Alhindiya", "name:et": "Al-Hind\u012byah", "name:fa": "\u0637\u0648\u06cc\u0631\u06cc\u062c", "name:fr": "Hindiya", "name:ml": "\u0d05\u0d7d-\u0d39\u0d3f\u0d28\u0d4d\u0d26\u0d3f\u0d2f", "name:ru": "\u042d\u043b\u044c-\u0425\u0438\u043d\u0434\u0438\u044f", "place": "city", "population": "115000", "population:date": "2014", "source:population": "https://ar.wikipedia.org/wiki/%D8%A7%D9%84%D9%87%D9%86%D8%AF%D9%8A%D8%A9_(%D8%A7%D9%84%D8%B9%D8%B1%D8%A7%D9%82)", "wikidata": "Q2617657", "wikipedia": "ar:\u0627\u0644\u0647\u0646\u062f\u064a\u0629 (\u0627\u0644\u0639\u0631\u0627\u0642)"}}, {"type": "node", "id": 2488022395, "lat": 32.533333, "lon": 44.15, "tags": {"alt_name": "\u0642\u0631\u064a\u0629 \u0627\u0644\u062c\u0645\u064a\u0644", "int_name": "Al J\u0101mil, Qaryat al Jam\u012bl, Al Jamil, Qaryat al Jamil", "name": "\u0642\u0631\u064a\u0629 \u0627\u0644\u062c\u0645\u064a\u0644", "name:ar": "\u0642\u0631\u064a\u0629 \u0627\u0644\u062c\u0645\u064a\u0644", "name:ar1": "\u0642\u0631\u064a\u0629 \u0627\u0644\u062c\u0645\u064a\u0644", "name:de": "Al Jamil", "name:en": "Al Jamil", "name:fr": "Al Jamil", "place": "hamlet"}}, {"type": "node", "id": 2488022621, "lat": 32.530711, "lon": 44.280701, "tags": {"alt_name": "\u0639\u0644\u064a \u0645\u062d\u0645\u062f \u062d\u0633\u064a\u0646", "int_name": "Al\u012b Mu\u1e29ammad \u1e28usayn, \u0639\u0644\u064a \u0645\u062d\u0645\u062f \u062d\u0633\u064a\u0646, Ali Muhammad Husayn, \u0639\u0644\u064a \u0645\u062d\u0645\u062f \u062d\u0633\u064a\u0646", "name": "\u0639\u0644\u064a \u0645\u062d\u0645\u062f \u062d\u0633\u064a\u0646", "name:ar": "\u0639\u0644\u064a \u0645\u062d\u0645\u062f \u062d\u0633\u064a\u0646", "name:ar1": "\u0639\u0644\u064a \u0645\u062d\u0645\u062f \u062d\u0633\u064a\u0646", "name:de": "Ali Muhammad Husayn", "name:en": "Ali Muhammad Husayn", "name:fr": "Ali Muhammad Husayn", "place": "hamlet"}}, {"type": "node", "id": 2488022641, "lat": 32.551613, "lon": 44.415968, "tags": {"alt_name": "\u0639\u0646\u0627\u0646 \u0627\u0644\u0634\u0631\u0642\u064a\u0629", "int_name": "Ann\u0101n sh Sharq\u012byah, Annan sh Sharqiyah", "is_in": "Iraq , \u062c\u0645\u0647\u0648\u0631\u064a\u0629 \u0627\u0644\u0639\u0631\u0627\u0642", "name": "\u0639\u0646\u0627\u0646 \u0627\u0644\u0634\u0631\u0642\u064a\u0629", "name:ar": "\u0639\u0646\u0627\u0646\u0629 \u0627\u0644\u0634\u0631\u0642\u064a\u0629", "name:ar1": "\u0639\u0646\u0627\u0646 \u0627\u0644\u0634\u0631\u0642\u064a\u0629", "name:de": "Annan sh Sharqiyah", "name:en": "Annan sh Sharqiyah", "name:fr": "Annan sh Sharqiyah", "place": "village"}}, {"type": "node", "id": 2488022802, "lat": 32.555509, "lon": 44.470501, "tags": {"alt_name": "\u0639\u0631\u0628 \u0639\u0644\u064a \u0639\u0628\u064a\u062f", "int_name": "Arab Al\u012b Ubayd, \u0639\u0631\u0628 \u0639\u0644\u064a \u0639\u0628\u064a\u062f, Arab Ali Ubayd, \u0639\u0631\u0628 \u0639\u0644\u064a \u0639\u0628\u064a\u062f", "is_in": "Iraq , \u062c\u0645\u0647\u0648\u0631\u064a\u0629 \u0627\u0644\u0639\u0631\u0627\u0642", "name": "\u0639\u0631\u0628 \u0639\u0644\u064a \u0639\u0628\u064a\u062f", "name:ar": "\u0639\u0631\u0628 \u062d\u0645\u0632\u0647 \u062d\u0645\u062f \u0645\u0648\u0633\u0649", "name:ar1": "\u0639\u0631\u0628 \u0639\u0644\u064a \u0639\u0628\u064a\u062f", "name:de": "earab hamzuh hamd musaa", "name:en": "earab hamzuh hamd musaa", "name:fr": "earab hamzuh hamd musaa", "place": "village"}}, {"type": "node", "id": 2488022821, "lat": 32.536373, "lon": 44.110402, "tags": {"alt_name": "\u0639\u0631\u0628 \u0639\u0644\u064a\u0648\u064a \u062b\u0648\u064a\u0646\u064a", "int_name": "Arab Alyaw\u012b Thuwayn\u012b, \u0639\u0631\u0628 \u0639\u0644\u064a\u0648\u064a \u062b\u0648\u064a\u0646\u064a, Arab Alyawi Thuwayni, \u0639\u0631\u0628 \u0639\u0644\u064a\u0648\u064a \u062b\u0648\u064a\u0646\u064a", "name": "\u0639\u0631\u0628 \u0639\u0644\u064a\u0648\u064a \u062b\u0648\u064a\u0646\u064a", "name:ar": "\u0639\u0631\u0628 \u0639\u0644\u064a\u0648\u064a \u062b\u0648\u064a\u0646\u064a", "name:ar1": "\u0639\u0631\u0628 \u0639\u0644\u064a\u0648\u064a \u062b\u0648\u064a\u0646\u064a", "name:de": "Arab Alyawi Thuwayni", "name:en": "Arab Alyawi Thuwayni", "name:fr": "Arab Alyawi Thuwayni", "name:ku": "\u0645\u062c\u0645\u0639 \u0643\u0631\u0641\u0627\u0646\u0627\u062a", "place": "village"}}, {"type": "node", "id": 2488023149, "lat": 32.551073, "lon": 44.162487, "tags": {"alt_name": "\u0639\u0631\u0628 \u062c\u0647\u0627\u062f \u0639\u0628\u0627\u0633", "int_name": "Arab Jih\u0101d Abb\u0101s, \u0639\u0631\u0628 \u062c\u0647\u0627\u062f \u0639\u0628\u0627\u0633, Arab Jihad Abbas, \u0639\u0631\u0628 \u062c\u0647\u0627\u062f \u0639\u0628\u0627\u0633", "name": "\u0639\u0631\u0628 \u062c\u0647\u0627\u062f \u0639\u0628\u0627\u0633", "name:ar": "\u0639\u0631\u0628 \u062c\u0647\u0627\u062f \u0639\u0628\u0627\u0633", "name:ar1": "\u0639\u0631\u0628 \u062c\u0647\u0627\u062f \u0639\u0628\u0627\u0633", "name:de": "Arab Jihad Abbas", "name:en": "Arab Jihad Abbas", "name:fr": "Arab Jihad Abbas", "place": "hamlet"}}, {"type": "node", "id": 2488023235, "lat": 32.532104, "lon": 44.14627, "tags": {"alt_name": "\u0639\u0631\u0628 \u0643\u0627\u0638\u0645 \u0633\u062a\u0627\u0631", "int_name": "Arab K\u0101z\u0327im Sit\u0101r, \u0639\u0631\u0628 \u0643\u0627\u0638\u0645 \u0633\u062a\u0627\u0631, Arab Kazim Sitar, \u0639\u0631\u0628 \u0643\u0627\u0638\u0645 \u0633\u062a\u0627\u0631", "is_in": "Iraq , \u062c\u0645\u0647\u0648\u0631\u064a\u0629 \u0627\u0644\u0639\u0631\u0627\u0642", "name": "\u0639\u0631\u0628 \u0643\u0627\u0638\u0645 \u0633\u062a\u0627\u0631", "name:ar": "\u0639\u0631\u0628 \u0643\u0627\u0638\u0645 \u0633\u062a\u0627\u0631", "name:ar1": "\u0639\u0631\u0628 \u0643\u0627\u0638\u0645 \u0633\u062a\u0627\u0631", "name:de": "Arab Kazim Sitar", "name:en": "Arab Kazim Sitar", "name:fr": "Arab Kazim Sitar", "place": "hamlet"}}, {"type": "node", "id": 2488023299, "lat": 32.534768, "lon": 44.538016, "tags": {"alt_name": "\u0639\u0631\u0628 \u062e\u0636\u064a\u0631 \u0627\u0644\u062d\u0633\u0646", "int_name": "Arab Khu\u1e11ayr al \u1e28asan, \u0639\u0631\u0628 \u062e\u0636\u064a\u0631 \u0627\u0644\u062d\u0633\u0646, Arab Khudayr al Hasan, \u0639\u0631\u0628 \u062e\u0636\u064a\u0631 \u0627\u0644\u062d\u0633\u0646", "is_in": "Iraq , \u062c\u0645\u0647\u0648\u0631\u064a\u0629 \u0627\u0644\u0639\u0631\u0627\u0642", "name": "\u0639\u0631\u0628 \u062e\u0636\u064a\u0631 \u0627\u0644\u062d\u0633\u0646", "name:ar": "\u0639\u0631\u0628 \u0639\u0628\u0627\u0633 \u0645\u062e\u064a\u0641 \u0627\u0644\u0645\u0639\u0645\u0648\u0631\u064a", "name:ar1": "\u0639\u0631\u0628 \u062e\u0636\u064a\u0631 \u0627\u0644\u062d\u0633\u0646", "name:de": "Arab Khudayr al Hasan", "name:en": "Arab abbas mkef almamore", "name:fr": "Arab Khudayr al Hasan", "name:ku": "\u0642\u0631\u064a\u0647 \u0627\u0644\u0639\u0627\u06af\u0641\u064a\u0647", "place": "village"}}, {"type": "node", "id": 2488023886, "lat": 32.534722, "lon": 44.343333, "tags": {"alt_name": "\u0639\u0648\u0631\u0627\u0646", "int_name": "A\u016bran, Awr\u0101n, Auran, Awran", "is_in": "Iraq , \u062c\u0645\u0647\u0648\u0631\u064a\u0629 \u0627\u0644\u0639\u0631\u0627\u0642", "name": "\u0639\u0648\u0631\u0627\u0646", "name:ar": "\u0646\u0627\u062d\u064a\u0629 \u0627\u0628\u064a \u063a\u0631\u0642", "name:ar1": "\u0639\u0648\u0631\u0627\u0646", "name:de": "Auran", "name:en": "Abo Gharaq", "name:fr": "Auran", "place": "village"}}, {"type": "node", "id": 2488024295, "lat": 32.528068, "lon": 44.243391, "tags": {"alt_name": "\u062d\u0628\u064a\u0628 \u062d\u0645\u0632\u0629", "int_name": "\u1e28ab\u012bb \u1e28amzah, \u062d\u0628\u064a\u0628 \u062d\u0645\u0632\u0629, Habib Hamzah, \u062d\u0628\u064a\u0628 \u062d\u0645\u0632\u0629", "name": "\u062d\u0628\u064a\u0628 \u062d\u0645\u0632\u0629", "name:ar": "\u062d\u0628\u064a\u0628 \u062d\u0645\u0632\u0629", "name:ar1": "\u062d\u0628\u064a\u0628 \u062d\u0645\u0632\u0629", "name:de": "Habib Hamzah", "name:en": "Habib Hamzah", "name:fr": "Habib Hamzah", "place": "hamlet"}}, {"type": "node", "id": 2488024591, "lat": 32.542544, "lon": 44.345528, "tags": {"alt_name": "\u062d\u0641\u0636\u064a \u0627\u0644\u0628\u063a\u062f\u0627\u062f\u064a", "int_name": "\u1e28if\u1e11\u012b al Baghd\u0101d\u012b, \u062d\u0641\u0636\u064a \u0627\u0644\u0628\u063a\u062f\u0627\u062f\u064a, Hifdi al Baghdadi, \u062d\u0641\u0636\u064a \u0627\u0644\u0628\u063a\u062f\u0627\u062f\u064a", "is_in": "Iraq , \u062c\u0645\u0647\u0648\u0631\u064a\u0629 \u0627\u0644\u0639\u0631\u0627\u0642", "name": "\u062d\u0641\u0636\u064a \u0627\u0644\u0628\u063a\u062f\u0627\u062f\u064a", "name:ar": "\u062d\u0641\u0636\u064a \u0627\u0644\u0628\u063a\u062f\u0627\u062f\u064a", "name:ar1": "\u062d\u0641\u0636\u064a \u0627\u0644\u0628\u063a\u062f\u0627\u062f\u064a", "name:de": "Hifdi al Baghdadi", "name:en": "Hifdi al Baghdadi", "name:fr": "Hifdi al Baghdadi", "place": "hamlet"}}, {"type": "node", "id": 2488024913, "lat": 32.528686, "lon": 44.226159, "tags": {"alt_name": "\u0643\u0631\u064a\u0645 \u0633\u0645\u064a\u0637\u0637", "int_name": "Kar\u012bm Samay\u0163a\u0163, \u0643\u0631\u064a\u0645 \u0633\u0645\u064a\u0637\u0637, Karim Samaytat, \u0643\u0631\u064a\u0645 \u0633\u0645\u064a\u0637\u0637", "name": "\u0643\u0631\u064a\u0645 \u0633\u0645\u064a\u0637\u0637", "name:ar": "\u0643\u0631\u064a\u0645 \u0633\u0645\u064a\u0637\u0637", "name:ar1": "\u0643\u0631\u064a\u0645 \u0633\u0645\u064a\u0637\u0637", "name:de": "Karim Samaytat", "name:en": "Karim Samaytat", "name:fr": "Karim Samaytat", "place": "hamlet"}}, {"type": "node", "id": 2488024935, "lat": 32.531733, "lon": 44.328507, "tags": {"alt_name": "\u0643\u0627\u0638\u0645 \u0639\u0644\u0648\u0627\u0646", "int_name": "K\u0101z\u0327im Alw\u0101n, \u0643\u0627\u0638\u0645 \u0639\u0644\u0648\u0627\u0646, Kazim Alwan, \u0643\u0627\u0638\u0645 \u0639\u0644\u0648\u0627\u0646", "is_in": "Iraq , \u062c\u0645\u0647\u0648\u0631\u064a\u0629 \u0627\u0644\u0639\u0631\u0627\u0642", "name": "\u0643\u0627\u0638\u0645 \u0639\u0644\u0648\u0627\u0646", "name:ar": "\u0643\u0627\u0638\u0645 \u0639\u0644\u0648\u0627\u0646", "name:ar1": "\u0643\u0627\u0638\u0645 \u0639\u0644\u0648\u0627\u0646", "name:de": "Kazim Alwan", "name:en": "Kazim Alwan", "name:fr": "Kazim Alwan", "place": "hamlet"}}, {"type": "node", "id": 2488024940, "lat": 32.524687, "lon": 44.233683, "tags": {"alt_name": "\u0643\u0627\u0638\u0645 \u062d\u0633\u0646", "int_name": "K\u0101z\u0327im \u1e28asan, \u0643\u0627\u0638\u0645 \u062d\u0633\u0646, Kazim Hasan, \u0643\u0627\u0638\u0645 \u062d\u0633\u0646", "name": "\u0643\u0627\u0638\u0645 \u062d\u0633\u0646", "name:ar": "\u0643\u0627\u0638\u0645 \u062d\u0633\u0646", "name:ar1": "\u0643\u0627\u0638\u0645 \u062d\u0633\u0646", "name:de": "Kazim Hasan", "name:en": "Kazim Hasan", "name:fr": "Kazim Hasan", "place": "hamlet"}}, {"type": "node", "id": 2488025116, "lat": 32.533729, "lon": 44.240623, "tags": {"alt_name": "\u0644\u0637\u064a\u0641 \u0639\u062c\u064a\u0644", "int_name": "La\u0163\u012bf Ujayl, \u0644\u0637\u064a\u0641 \u0639\u062c\u064a\u0644, Latif Ujayl, \u0644\u0637\u064a\u0641 \u0639\u062c\u064a\u0644", "name": "\u0644\u0637\u064a\u0641 \u0639\u062c\u064a\u0644", "name:ar": "\u0644\u0637\u064a\u0641 \u0639\u062c\u064a\u0644", "name:ar1": "\u0644\u0637\u064a\u0641 \u0639\u062c\u064a\u0644", "name:de": "Latif Ujayl", "name:en": "Latif Ujayl", "name:fr": "Latif Ujayl", "place": "hamlet"}}, {"type": "node", "id": 2488025161, "lat": 32.5376897, "lon": 44.2215406, "tags": {"alt_name": "\u0645\u062d\u0644\u0629 \u0645\u062d\u0631\u0645 \u0639\u0627\u0626\u0634\u0629", "int_name": "Ma\u1e29alat Mu\u1e29aram \u0100ishah, \u0645\u062d\u0644\u0629 \u0645\u062d\u0631\u0645 \u0639\u0627\u0626\u0634\u0647, Mahalat Muharam Aishah, \u0645\u062d\u0644\u0629 \u0645\u062d\u0631\u0645 \u0639\u0627\u0626\u0634\u0647", "name": "\u0645\u062d\u0644\u0629 \u0645\u062d\u0631\u0645 \u0639\u0627\u0626\u0634\u0629", "name:ar": "\u0645\u062d\u0644\u0629 \u0645\u062d\u0631\u0645 \u0639\u0627\u0626\u0634\u0629", "name:ar1": "\u0645\u062d\u0644\u0629 \u0645\u062d\u0631\u0645 \u0639\u0627\u0626\u0634\u0629", "name:de": "Mahalat Muharam Aishah", "name:en": "Mahalat Muharam Aishah", "name:fr": "Mahalat Muharam Aishah", "place": "hamlet"}}, {"type": "node", "id": 2488025164, "lat": 32.5214699, "lon": 44.1641449, "tags": {"alt_name": "\u0645\u0647\u062f\u064a \u062d\u0633\u064a\u0646", "int_name": "Mahd\u012b \u1e28usayn, \u0645\u0647\u062f\u064a \u062d\u0633\u064a\u0646, Mahdi Husayn, \u0645\u0647\u062f\u064a \u062d\u0633\u064a\u0646", "name": "\u0645\u0647\u062f\u064a \u062d\u0633\u064a\u0646", "name:ar": "\u0645\u0647\u062f\u064a \u062d\u0633\u064a\u0646", "name:ar1": "\u0645\u0647\u062f\u064a \u062d\u0633\u064a\u0646", "name:de": "Mahdi Husayn", "name:en": "Mahdi Husayn", "name:fr": "Mahdi Husayn", "place": "village"}}, {"type": "node", "id": 2488025192, "lat": 32.530632, "lon": 44.213881, "tags": {"alt_name": "\u0645\u062c\u0632\u0631\u0629 \u0635\u0648\u064a\u0631\u064a\u062c", "int_name": "Majzarah \u015euwayr\u012bj, Majzarah Suwayrij", "name": "\u0645\u062c\u0632\u0631\u0629 \u0635\u0648\u064a\u0631\u064a\u062c", "name:ar": "\u0645\u062c\u0632\u0631\u0629 \u0637\u0648\u064a\u0631\u064a\u062c", "name:ar1": "\u0645\u062c\u0632\u0631\u0629 \u0635\u0648\u064a\u0631\u064a\u062c", "name:de": "Majzarah Suwayrij", "name:en": "Majzarah Suwayrij", "name:fr": "Majzarah Suwayrij", "place": "village"}}, {"type": "node", "id": 2488025409, "lat": 32.5232967, "lon": 44.1479797, "tags": {"alt_name": "\u0645\u062d\u0645\u062f \u064a\u0627\u0633\u064a\u0646", "int_name": "Mu\u1e29ammad Y\u0101s\u012bn, \u0645\u062d\u0645\u062f \u064a\u0627\u0633\u064a\u0646, Muhammad Yasin, \u0645\u062d\u0645\u062f \u064a\u0627\u0633\u064a\u0646", "is_in": "Iraq , \u062c\u0645\u0647\u0648\u0631\u064a\u0629 \u0627\u0644\u0639\u0631\u0627\u0642", "name": "\u0645\u062d\u0645\u062f \u064a\u0627\u0633\u064a\u0646", "name:ar": "\u0645\u062d\u0645\u062f \u064a\u0627\u0633\u064a\u0646", "name:ar1": "\u0645\u062d\u0645\u062f \u064a\u0627\u0633\u064a\u0646", "name:de": "Muhammad Yasin", "name:en": "Muhammad Yasin", "name:fr": "Muhammad Yasin", "place": "hamlet"}}, {"type": "node", "id": 2488025503, "lat": 32.5412457, "lon": 44.5458951, "tags": {"alt_name": "N\u0101\u1e29iyat an N\u012bl, \u0646\u0627\u062d\u064a\u0629 \u0627\u0644\u0646\u064a\u0644, Nahiyat an Nil, \u0646\u0627\u062d\u064a\u0629 \u0627\u0644\u0646\u064a\u0644", "capital": "7", "int_name": "An Nil - \u0627\u0644\u0646\u064a\u0644", "is_in": "Iraq , \u062c\u0645\u0647\u0648\u0631\u064a\u0629 \u0627\u0644\u0639\u0631\u0627\u0642", "is_in:country": "Iraq", "is_in:country_code": "IQ", "name": "\u0627\u0644\u0646\u064a\u0644", "name:ar": "\u0627\u0644\u0646\u064a\u0644", "name:de": "An Nil", "name:en": "An Nil", "name:fr": "An Nil", "place": "city"}}, {"type": "node", "id": 2488026250, "lat": 32.5506205, "lon": 44.4173879, "tags": {"alt_name": "\u0642\u0631\u064a\u0629 \u0639\u0646\u0627\u0646", "int_name": "Qaryat Ann\u0101n, \u0642\u0631\u064a\u0629 \u0639\u0646\u0627\u0646, Qaryat Annan, \u0642\u0631\u064a\u0629 \u0639\u0646\u0627\u0646", "name": "\u0642\u0631\u064a\u0629 \u0639\u0646\u0627\u0646", "name:ar": "\u0642\u0631\u064a\u0629 \u0639\u0646\u0627\u0646\u0647", "name:ar1": "\u0642\u0631\u064a\u0629 \u0639\u0646\u0627\u0646", "name:de": "Qaryat Annan", "name:en": "Qaryat Annan", "name:fr": "Qaryat Annan", "place": "village"}}, {"type": "node", "id": 2488026368, "lat": 32.5302754, "lon": 44.1494577, "tags": {"alt_name": "\u0642\u0631\u064a\u0629 \u062d\u0633\u0646 \u0628\u0646 \u0641\u0631\u0647\u0648\u062f", "int_name": "Qaryat \u1e28asan Bin Farh\u016bd, Qaryat Hasan Bin Farhud", "name": "\u0642\u0631\u064a\u0629 \u062d\u0633\u0646 \u0628\u0646 \u0641\u0631\u0647\u0648\u062f", "name:ar": "\u0642\u0631\u064a\u0629 \u062d\u0633\u0646 \u0628\u0646 \u0641\u0631\u0647\u0648\u062f", "name:ar1": "\u0642\u0631\u064a\u0629 \u062d\u0633\u0646 \u0628\u0646 \u0641\u0631\u0647\u0648\u062f", "name:de": "Qaryat Hasan Bin Farhud", "name:en": "Qaryat Hasan Bin Farhud", "name:fr": "Qaryat Hasan Bin Farhud", "place": "hamlet"}}, {"type": "node", "id": 2488026438, "lat": 32.556997, "lon": 44.222139, "tags": {"alt_name": "\u0642\u0631\u064a\u0629 \u062e\u0628\u0627\u062c\u0629 \u0627\u0644\u0639\u0631\u0627\u064a\u0641", "int_name": "Qaryat Khab\u0101jat al Ar\u0101yif, \u0642\u0631\u064a\u0629 \u062e\u0628\u0627\u062c\u0629 \u0627\u0644\u0639\u0631\u0627\u064a\u0641, Qaryat Khabajat al Arayif, \u0642\u0631\u064a\u0629 \u062e\u0628\u0627\u062c\u0629 \u0627\u0644\u0639\u0631\u0627\u064a\u0641", "name": "\u0642\u0631\u064a\u0629 \u062e\u0628\u0627\u062c\u0629 \u0627\u0644\u0639\u0631\u0627\u064a\u0641", "name:ar": "\u062d\u064a \u0627\u0644\u062c\u0645\u0639\u064a\u0629", "name:ar1": "\u0642\u0631\u064a\u0629 \u062e\u0628\u0627\u062c\u0629 \u0627\u0644\u0639\u0631\u0627\u064a\u0641", "name:de": "Qaryat Khabajat al Arayif", "name:en": "Jameaya", "name:fr": "Qaryat Khabajat al Arayif", "place": "village"}}, {"type": "node", "id": 2488026516, "lat": 32.522012, "lon": 44.2726313, "tags": {"alt_name": "\u0642\u0631\u064a\u0629 \u0631\u063a\u064a\u062f \u064a\u0639\u0631\u0628", "int_name": "Qaryat Izgaib , \u0642\u0631\u064a\u0629 \u0632\u063a\u064a\u0628", "name": "\u0642\u0631\u064a\u0629 \u0631\u063a\u064a\u062f \u064a\u0639\u0631\u0628", "name:ar": "\u0642\u0631\u064a\u0629 \u0632\u063a\u064a\u0628", "name:ar1": "\u0642\u0631\u064a\u0629 \u0631\u063a\u064a\u062f \u064a\u0639\u0631\u0628", "name:de": "Qaryat Izgaib", "name:en": "Qaryat Izgaib", "name:fr": "Qaryat Izgaib", "place": "village"}}, {"type": "node", "id": 2488026747, "lat": 32.529409, "lon": 44.300736, "tags": {"alt_name": "\u0642\u0631\u064a\u0629 \u0627\u0644\u0631\u063a\u0644\u064a\u0629", "int_name": "Qaryat ar Raghl\u012byah, \u0642\u0631\u064a\u0629 \u0627\u0644\u0631\u063a\u0644\u064a\u0629, Qaryat ar Raghliyah, \u0642\u0631\u064a\u0629 \u0627\u0644\u0631\u063a\u0644\u064a\u0629", "name": "\u0642\u0631\u064a\u0629 \u0627\u0644\u0631\u063a\u0644\u064a\u0629", "name:ar": "\u0642\u0631\u064a\u0629 \u0627\u0644\u0631\u063a\u0644\u064a\u0629", "name:ar1": "\u0642\u0631\u064a\u0629 \u0627\u0644\u0631\u063a\u0644\u064a\u0629", "name:de": "Qaryat ar Raghliyah", "name:en": "Qaryat ar Raghliyah", "name:fr": "Qaryat ar Raghliyah", "place": "hamlet"}}, {"type": "node", "id": 2488026752, "lat": 32.53509, "lon": 44.2480745, "tags": {"alt_name": "\u0642\u0631\u064a\u0629 \u0627\u0644\u0631\u0634\u0648\u0629", "int_name": "Qaryat ar Rashwah, \u0642\u0631\u064a\u0629 \u0627\u0644\u0631\u0634\u0648\u0629, Qaryat ar Rashwah, \u0642\u0631\u064a\u0629 \u0627\u0644\u0631\u0634\u0648\u0629", "name": "\u0642\u0631\u064a\u0629 \u0627\u0644\u0631\u0634\u0648\u0629", "name:ar": "\u0642\u0631\u064a\u0629 \u0627\u0644\u0631\u0634\u064a\u062f\u0629", "name:ar1": "\u0642\u0631\u064a\u0629 \u0627\u0644\u0631\u0634\u0648\u0629", "name:de": "Qaryat ar Rashwah", "name:en": "Qaryat ar Rashwah", "name:fr": "Qaryat ar Rashwah", "place": "hamlet"}}, {"type": "node", "id": 2488026768, "lat": 32.565177, "lon": 44.474261, "tags": {"alt_name": "\u0642\u0631\u064a\u0629 \u0627\u0644\u0635\u0628\u0627\u062d\u064a\u0629", "int_name": "qaryat alsiyahiih almaeamirih\u0642\u0631\u064a\u0629 \u0627\u0644\u0635\u064a\u0627\u062d\u064a\u0647 \u0627\u0644\u0645\u0639\u0627\u0645\u0631\u0647 qaryat alsiyahiih almaeamirih\u0642\u0631\u064a\u0629 \u0627\u0644\u0635\u064a\u0627\u062d\u064a\u0647 \u0627\u0644\u0645\u0639\u0627\u0645\u0631\u0647", "name": "\u0642\u0631\u064a\u0629 \u0627\u0644\u0635\u0628\u0627\u062d\u064a\u0629", "name:ar": "\u0642\u0631\u064a\u0629 \u0627\u0644\u0635\u064a\u0627\u062d\u064a\u0647 \u0627\u0644\u0645\u0639\u0627\u0645\u0631\u0647", "name:ar1": "\u0642\u0631\u064a\u0629 \u0627\u0644\u0635\u0628\u0627\u062d\u064a\u0629", "name:de": "qaryat alsiyahiih almaeamirih", "name:en": "qaryat alsiyahiih almaeamirih", "name:fr": "qaryat alsiyahiih almaeamirih", "place": "village"}}, {"type": "node", "id": 2488026773, "lat": 32.534834, "lon": 44.277264, "tags": {"alt_name": "\u0642\u0631\u064a\u0629 \u0627\u0644\u0633\u0627\u062f\u0629 \u0627\u0644\u0642\u0632\u0627\u0648\u0646\u0629", "int_name": "Qaryat as S\u0101dah al Qaz\u0101winah, \u0642\u0631\u064a\u0629 \u0627\u0644\u0633\u0627\u062f\u0629 \u0627\u0644\u0642\u0632\u0627\u0648\u0646\u0629, Qaryat as Sadah al Qazawinah, \u0642\u0631\u064a\u0629 \u0627\u0644\u0633\u0627\u062f\u0629 \u0627\u0644\u0642\u0632\u0627\u0648\u0646\u0629", "name": "\u0642\u0631\u064a\u0629 \u0627\u0644\u0633\u0627\u062f\u0629 \u0627\u0644\u0642\u0632\u0627\u0648\u0646\u0629", "name:ar": "\u0642\u0631\u064a\u0629 \u0627\u0644\u0633\u0627\u062f\u0629 \u0627\u0644\u0642\u0632\u0627\u0648\u0646\u0629", "name:ar1": "\u0642\u0631\u064a\u0629 \u0627\u0644\u0633\u0627\u062f\u0629 \u0627\u0644\u0642\u0632\u0627\u0648\u0646\u0629", "name:de": "Qaryat as Sadah al Qazawinah", "name:en": "Qaryat as Sadah al Qazawinah", "name:fr": "Qaryat as Sadah al Qazawinah", "place": "hamlet"}}, {"type": "node", "id": 2488026778, "lat": 32.559417, "lon": 44.117822, "tags": {"alt_name": "\u0642\u0631\u064a\u0629 \u0627\u0644\u0635\u062e\u0631 \u0627\u0644\u0639\u0631\u0628\u064a", "int_name": "Qaryat a\u015f \u015eakhr al Arab\u012b, \u0642\u0631\u064a\u0629 \u0627\u0644\u0635\u062e\u0631 \u0627\u0644\u0639\u0631\u0628\u064a, Qaryat as Sakhr al Arabi, \u0642\u0631\u064a\u0629 \u0627\u0644\u0635\u062e\u0631 \u0627\u0644\u0639\u0631\u0628\u064a", "name": "\u0642\u0631\u064a\u0629 \u0627\u0644\u0635\u062e\u0631 \u0627\u0644\u063a\u0631\u0628\u064a", "name:ar": "\u0642\u0631\u064a\u0629 \u0627\u0644\u0635\u062e\u0631 \u0627\u0644\u0639\u0631\u0628\u064a", "name:ar1": "\u0642\u0631\u064a\u0629 \u0627\u0644\u0635\u062e\u0631 \u0627\u0644\u0639\u0631\u0628\u064a", "name:de": "Qaryat as Sakhr al Arabi", "name:en": "Qaryat as Sakhr al Arabi", "name:fr": "Qaryat as Sakhr al Arabi", "place": "village"}}, {"type": "node", "id": 2488026822, "lat": 32.564971, "lon": 44.394635, "tags": {"alt_name": "\u0642\u0631\u064a\u0629 \u0627\u0644\u0634\u0645\u0648\u064a", "int_name": "Qaryat ash Shamaw\u012b, \u0642\u0631\u064a\u0629 \u0627\u0644\u0634\u0645\u0648\u064a, Qaryat ash Shamawi, \u0642\u0631\u064a\u0629 \u0627\u0644\u0634\u0645\u0648\u064a", "name": "\u0642\u0631\u064a\u0629 \u0627\u0644\u0634\u0645\u0648\u064a", "name:ar": "\u0642\u0631\u064a\u0629 \u0627\u0644\u0634\u0645\u0631\u064a", "name:ar1": "\u0642\u0631\u064a\u0629 \u0627\u0644\u0634\u0645\u0648\u064a", "name:de": "Qaryat ash Shamari", "name:en": "Qaryat ash Shamary", "name:fr": "Qaryat ash Shamari", "place": "village"}}, {"type": "node", "id": 2488026832, "lat": 32.569691, "lon": 44.112451, "tags": {"alt_name": "\u0642\u0631\u064a\u0629 \u0627\u0644\u0632\u064a\u0644\u064a\u0629", "int_name": "Qaryat az Zayl\u012byah, \u0642\u0631\u064a\u0629 \u0627\u0644\u0632\u064a\u0644\u064a\u0629, Qaryat az Zayliyah, \u0642\u0631\u064a\u0629 \u0627\u0644\u0632\u064a\u0644\u064a\u0629", "name": "\u0642\u0631\u064a\u0629 \u0627\u0644\u0632\u064a\u0644\u064a\u0629", "name:ar": "\u0642\u0631\u064a\u0629 \u0627\u0644\u0632\u064a\u0644\u064a\u0629", "name:ar1": "\u0642\u0631\u064a\u0629 \u0627\u0644\u0632\u064a\u0644\u064a\u0629", "name:de": "Qaryat az Zayliyah", "name:en": "Qaryat az Zayliyah", "name:fr": "Qaryat az Zayliyah", "place": "hamlet"}}, {"type": "node", "id": 2488026853, "lat": 32.52609, "lon": 44.2197, "tags": {"alt_name": "\u0631\u0645\u062d \u0639\u0628\u0644\u0648\u0627\u0646", "int_name": "Rum\u1e29 Ablaw\u0101n, \u0631\u0645\u062d \u0639\u0628\u0644\u0648\u0627\u0646, Rumh Ablawan, \u0631\u0645\u062d \u0639\u0628\u0644\u0648\u0627\u0646", "name": "\u0631\u0645\u062d \u0639\u0628\u0644\u0648\u0627\u0646", "name:ar": "\u0631\u0645\u062d \u0639\u0628\u0644\u0648\u0627\u0646", "name:ar1": "\u0631\u0645\u062d \u0639\u0628\u0644\u0648\u0627\u0646", "name:de": "Rumh Ablawan", "name:en": "Rumh Ablawan", "name:fr": "Rumh Ablawan", "place": "hamlet"}}, {"type": "node", "id": 2488027060, "lat": 32.5413806, "lon": 44.2213157, "tags": {"alt_name": "\u0637\u0648\u064a\u0631\u064a\u062c", "int_name": "\u0162uwayr\u012bj, Tuwayrij", "name": "\u0637\u0648\u064a\u0631\u064a\u062c", "name:ar": "\u0637\u0648\u064a\u0631\u064a\u062c", "name:ar1": "\u0637\u0648\u064a\u0631\u064a\u062c", "name:de": "Tuwayrij", "name:en": "Tuwayrij", "name:fr": "Tuwayrij", "place": "village"}}, {"type": "node", "id": 2488027093, "lat": 32.532173, "lon": 44.227719, "tags": {"alt_name": "\u0639\u0628\u064a\u062f \u062c\u0627\u0633\u0645", "int_name": "Ubayd J\u0101sim, \u0639\u0628\u064a\u062f \u062c\u0627\u0633\u0645, Ubayd Jasim, \u0639\u0628\u064a\u062f \u062c\u0627\u0633\u0645", "name": "\u0639\u0628\u064a\u062f \u062c\u0627\u0633\u0645", "name:ar": "\u0639\u0628\u064a\u062f \u062c\u0627\u0633\u0645", "name:ar1": "\u0639\u0628\u064a\u062f \u062c\u0627\u0633\u0645", "name:de": "Ubayd Jasim", "name:en": "Ubayd Jasim", "name:fr": "Ubayd Jasim", "place": "hamlet"}}, {"type": "node", "id": 2488027210, "lat": 32.525066, "lon": 44.278043, "tags": {"alt_name": "\u064a\u0648\u0633\u0641 \u0645\u062d\u064a \u0639\u0628\u062f \u0627\u0644\u0644\u0647", "int_name": "Y\u016bsuf Mu\u1e29y\u012b Abd All\u0101h, \u064a\u0648\u0633\u0641 \u0645\u062d\u064a \u0639\u0628\u062f \u0627\u0644\u0644\u0647, Yusuf Muhyi Abd Allah, \u064a\u0648\u0633\u0641 \u0645\u062d\u064a \u0639\u0628\u062f \u0627\u0644\u0644\u0647", "name": "\u064a\u0648\u0633\u0641 \u0645\u062d\u064a \u0639\u0628\u062f \u0627\u0644\u0644\u0647", "name:ar": "\u064a\u0648\u0633\u0641 \u0645\u062d\u064a \u0639\u0628\u062f \u0627\u0644\u0644\u0647", "name:ar1": "\u064a\u0648\u0633\u0641 \u0645\u062d\u064a \u0639\u0628\u062f \u0627\u0644\u0644\u0647", "name:de": "Yusuf Muhyi Abd Allah", "name:en": "Yusuf Muhyi Abd Allah", "name:fr": "Yusuf Muhyi Abd Allah", "place": "hamlet"}}, {"type": "node", "id": 5000780305, "lat": 32.6022933, "lon": 44.1042555}, {"type": "node", "id": 5000780309, "lat": 32.5892248, "lon": 44.100553}, {"type": "node", "id": 5000780352, "lat": 32.6586435, "lon": 43.9945471}, {"type": "node", "id": 5000780353, "lat": 32.6593039, "lon": 43.9853818}, {"type": "node", "id": 5000780355, "lat": 32.6576407, "lon": 43.9758372}, {"type": "node", "id": 5000780358, "lat": 32.6331894, "lon": 43.9486222}, {"type": "node", "id": 5549971393, "lat": 32.6580465, "lon": 43.9809391}, {"type": "node", "id": 5613002738, "lat": 32.6191865, "lon": 43.9472904}, {"type": "node", "id": 6042424637, "lat": 32.6409692, "lon": 43.9583802}, {"type": "node", "id": 6042424642, "lat": 32.6278944, "lon": 43.9468928}, {"type": "node", "id": 6255693633, "lat": 32.4846753, "lon": 44.4893921, "tags": {"fixme": "verify place tag, was previously set to city", "name": "\u0648\u0631\u062f\u064a\u0647 \u062e\u0627\u0631\u062c", "note": "\u0632\u064a\u0648\u0646\u064a (\u0632\u064a\u0646 \u0627\u0644\u0639\u0627\u0628\u062f\u064a\u0646 \u0627\u0644\u0633\u0639\u064a\u062f\u064a)", "place": "village", "population": "500"}}, {"type": "node", "id": 7417747585, "lat": 32.5247912, "lon": 44.4347491, "tags": {"name": "\u0627\u0644\u062d\u0627\u062c \u0627\u0628\u0631\u0627\u0647\u064a\u0645 \u0641\u0632\u0639", "place": "village"}}, {"type": "node", "id": 8401830740, "lat": 32.5845775, "lon": 44.0973882}, {"type": "node", "id": 8634354090, "lat": 32.625813, "lon": 44.0533231}, {"type": "node", "id": 9111123074, "lat": 32.6575421, "lon": 43.978883}, {"type": "node", "id": 9111123075, "lat": 32.6575248, "lon": 43.978024}, {"type": "node", "id": 9111123076, "lat": 32.657795, "lon": 43.9772524}, {"type": "node", "id": 9111123077, "lat": 32.6577901, "lon": 43.9765287}, {"type": "node", "id": 9487475498, "lat": 32.5806191, "lon": 43.9753144}, {"type": "node", "id": 9487475504, "lat": 32.6173171, "lon": 43.9481631}, {"type": "node", "id": 9487486903, "lat": 32.6548315, "lon": 43.973664}, {"type": "node", "id": 9487501605, "lat": 32.5315288, "lon": 44.0159947}, {"type": "node", "id": 9487617904, "lat": 32.6472839, "lon": 43.9667884}, {"type": "node", "id": 9583744566, "lat": 32.638004, "lon": 43.9545229}, {"type": "node", "id": 9583814691, "lat": 32.6221217, "lon": 43.9463828}, {"type": "node", "id": 9643343481, "lat": 32.5610562, "lon": 44.0938119}, {"type": "node", "id": 9643343482, "lat": 32.5683379, "lon": 44.093993}, {"type": "node", "id": 9643343483, "lat": 32.5733163, "lon": 44.0961211}, {"type": "node", "id": 9643343488, "lat": 32.6126093, "lon": 44.0619477}, {"type": "node", "id": 9687278966, "lat": 32.6035354, "lon": 44.1000905}, {"type": "node", "id": 9687278967, "lat": 32.6056736, "lon": 44.0902894}, {"type": "node", "id": 9687278968, "lat": 32.6063823, "lon": 44.0831491}, {"type": "node", "id": 9687278969, "lat": 32.6048692, "lon": 44.0955905}, {"type": "node", "id": 9687278970, "lat": 32.606686, "lon": 44.0804008}, {"type": "node", "id": 9687278971, "lat": 32.6076788, "lon": 44.0706585}, {"type": "node", "id": 9687278972, "lat": 32.6071993, "lon": 44.0649001}, {"type": "node", "id": 9687278976, "lat": 32.6402976, "lon": 44.030831}, {"type": "node", "id": 9687278977, "lat": 32.6345469, "lon": 44.0283432}, {"type": "node", "id": 9687278978, "lat": 32.6344277, "lon": 44.020767}, {"type": "node", "id": 9687278979, "lat": 32.6387762, "lon": 44.0186516}, {"type": "node", "id": 9687278980, "lat": 32.6439544, "lon": 44.0167346}, {"type": "node", "id": 9738039331, "lat": 32.6578418, "lon": 43.980119}, {"type": "node", "id": 9738039332, "lat": 32.658367, "lon": 43.9831685}, {"type": "node", "id": 9738039333, "lat": 32.6587869, "lon": 43.984369}, {"type": "node", "id": 9738039334, "lat": 32.6596127, "lon": 43.9858771}, {"type": "node", "id": 9738039335, "lat": 32.6604294, "lon": 43.986641}, {"type": "node", "id": 9738039336, "lat": 32.6604927, "lon": 43.9867752}, {"type": "node", "id": 9738039337, "lat": 32.6483658, "lon": 44.0168556}, {"type": "node", "id": 9738039338, "lat": 32.6540105, "lon": 44.0003799}, {"type": "node", "id": 9738039339, "lat": 32.6536774, "lon": 44.004438}, {"type": "node", "id": 9738039340, "lat": 32.6432321, "lon": 44.0315842}, {"type": "node", "id": 9738039341, "lat": 32.6441753, "lon": 44.0338062}, {"type": "node", "id": 9738039342, "lat": 32.6474293, "lon": 44.0389942}, {"type": "node", "id": 9738039343, "lat": 32.6472132, "lon": 44.0498065}, {"type": "node", "id": 9738039344, "lat": 32.6476653, "lon": 44.0544616}, {"type": "node", "id": 9738039345, "lat": 32.6438441, "lon": 44.0520899}, {"type": "node", "id": 9738039346, "lat": 32.6401267, "lon": 44.0555389}, {"type": "node", "id": 9738039347, "lat": 32.6348469, "lon": 44.058339}, {"type": "node", "id": 10200344593, "lat": 32.5365056, "lon": 44.0042836}, {"type": "node", "id": 10200344594, "lat": 32.6304343, "lon": 43.9475148}, {"type": "node", "id": 10200344595, "lat": 32.6247319, "lon": 43.946195}, {"type": "node", "id": 10200344596, "lat": 32.5738868, "lon": 43.980489}, {"type": "node", "id": 10200344597, "lat": 32.5711909, "lon": 43.9850767}, {"type": "node", "id": 10200344598, "lat": 32.5695719, "lon": 43.9838995}, {"type": "node", "id": 10200344599, "lat": 32.565534, "lon": 43.9902962}, {"type": "node", "id": 10200344600, "lat": 32.5578556, "lon": 43.9846861}, {"type": "node", "id": 10200344602, "lat": 32.545161, "lon": 43.9985593}, {"type": "node", "id": 10200344603, "lat": 32.5488571, "lon": 44.0007805}, {"type": "node", "id": 10200344607, "lat": 32.5394904, "lon": 44.031558}, {"type": "node", "id": 10200344608, "lat": 32.5294131, "lon": 44.0236583}, {"type": "node", "id": 10200344609, "lat": 32.5397841, "lon": 44.0059919}, {"type": "node", "id": 10200344610, "lat": 32.5338182, "lon": 44.0110618}, {"type": "node", "id": 10200344611, "lat": 32.5329561, "lon": 44.0134705}, {"type": "node", "id": 10200369619, "lat": 32.5438766, "lon": 44.0981557}, {"type": "node", "id": 10200369622, "lat": 32.5366087, "lon": 44.0893136}, {"type": "node", "id": 10200369624, "lat": 32.5422434, "lon": 44.0997396}, {"type": "node", "id": 10200369626, "lat": 32.5401659, "lon": 44.0961829}, {"type": "node", "id": 10200369631, "lat": 32.569398, "lon": 44.0940626}, {"type": "node", "id": 10200369632, "lat": 32.5701362, "lon": 44.094219}, {"type": "node", "id": 10200369633, "lat": 32.571184, "lon": 44.0946713}, {"type": "node", "id": 10200369634, "lat": 32.5723208, "lon": 44.0953662}, {"type": "node", "id": 10200369635, "lat": 32.5760028, "lon": 44.0978963}, {"type": "node", "id": 10200369636, "lat": 32.5839754, "lon": 44.0972194}, {"type": "node", "id": 11018644341, "lat": 32.5227299, "lon": 44.0571858}, {"type": "node", "id": 11018644342, "lat": 32.5288915, "lon": 44.0719387}, {"type": "node", "id": 11018644343, "lat": 32.5464601, "lon": 44.0960319}, {"type": "node", "id": 11018644344, "lat": 32.5474782, "lon": 44.0953788}, {"type": "node", "id": 11018644345, "lat": 32.5480972, "lon": 44.0943928}, {"type": "node", "id": 11055059521, "lat": 32.5742467, "lon": 44.0969906}, {"type": "node", "id": 11055059522, "lat": 32.5751248, "lon": 44.0979152}, {"type": "way", "id": 1040938006, "nodes": [9487617904, 9487486903, 5000780355, 9111123077, 9111123076, 9111123075, 9111123074, 9738039331, 5549971393, 9738039332, 9738039333, 5000780353, 9738039334, 9738039335, 9738039336, 5000780352, 9738039338, 9738039339, 9738039337, 9687278980, 9687278979, 9687278978, 9687278977, 9687278976, 9738039340, 9738039341, 9738039342, 9738039343, 9738039344, 9738039345, 9738039346, 9738039347, 8634354090, 9643343488, 9687278972, 9687278971, 9687278970, 9687278968, 9687278967, 9687278969, 9687278966, 5000780305, 5000780309, 8401830740, 10200369636, 10200369635, 11055059522, 11055059521, 9643343483, 10200369634, 10200369633, 10200369632, 10200369631, 9643343482, 9643343481, 11018644345, 11018644344, 11018644343, 10200369619, 10200369624, 10200369626, 10200369622, 11018644342, 11018644341, 10200344607, 10200344608, 9487501605, 10200344611, 10200344610, 10200344593, 10200344609, 10200344602, 10200344603, 10200344600, 10200344599, 10200344598, 10200344597, 10200344596, 9487475498, 9487475504, 5613002738, 9583814691, 10200344595, 6042424642, 10200344594, 5000780358, 9583744566, 6042424637, 9487617904], "tags": {"name": "\u0643\u0631\u0628\u0644\u0627\u0621", "name:ar": "\u0643\u0631\u0628\u0644\u0627\u0621", "name:de": "Kerbela", "name:en": "Karbala", "name:fa": "\u06a9\u0631\u0628\u0644\u0627", "name:fr": "Kerbala", "name:he": "\u05db\u05e8\u05d1\u05dc\u05d0", "name:hi": "\u0915\u0930\u092c\u0932\u093e", "name:ja": "\u30ab\u30eb\u30d0\u30e9\u30fc", "name:ru": "\u041a\u0435\u0440\u0431\u0435\u043b\u0430", "name:tr": "Kerbel\u00e2", "name:zh": "\u5361\u723e\u5df4\u62c9", "place": "city", "wikidata": "Q199909", "wikipedia": "ar:\u0643\u0631\u0628\u0644\u0627\u0621"}}]}