{"version": 0.6, "generator": "Overpass API 0.7.61.5 4133829e", "osm3s": {"timestamp_osm_base": "2024-02-29T13:56:30Z", "copyright": "The data included in this document is from www.openstreetmap.org. The data is made available under ODbL."}, "elements": [{"type": "node", "id": 27288581, "lat": 63.6636266, "lon": 22.6890164}, {"type": "node", "id": 27288582, "lat": 63.6640993, "lon": 22.6906252}, {"type": "node", "id": 28140177, "lat": 63.6686184, "lon": 22.6980846}, {"type": "node", "id": 28140179, "lat": 63.6713481, "lon": 22.6975549}, {"type": "node", "id": 100175023, "lat": 63.671433, "lon": 22.7019487}, {"type": "node", "id": 129955304, "lat": 63.6713946, "lon": 22.6997469}, {"type": "node", "id": 135292908, "lat": 63.6703912, "lon": 22.6977476}, {"type": "node", "id": 384909610, "lat": 63.6715282, "lon": 22.7061416}, {"type": "node", "id": 388443577, "lat": 63.6681179, "lon": 22.6988097, "tags": {"addr:city": "Jakobstad", "addr:housenumber": "1", "addr:postcode": "68600", "addr:street": "Paul Hallvars gata", "amenity": "school", "name": "Spr\u00e5kbadsskolan", "name:fi": "Kielikylpykoulu", "name:sv": "Spr\u00e5kbadsskolan", "phone": "(06) 786 3496"}}, {"type": "node", "id": 390002047, "lat": 63.6686661, "lon": 22.6980755}, {"type": "node", "id": 459386215, "lat": 63.6714721, "lon": 22.7038113}, {"type": "node", "id": 459386216, "lat": 63.6687129, "lon": 22.7041299, "tags": {"crossing": "uncontrolled", "crossing_ref": "zebra", "highway": "crossing"}}, {"type": "node", "id": 569891590, "lat": 63.6865714, "lon": 22.7299529, "tags": {"addr:city": "Jakobstad", "addr:housenumber": "13", "addr:postcode": "68660", "addr:street": "Industriv\u00e4gen", "amenity": "school", "fax": "(06) 785 1363", "name": "It\u00e4l\u00e4n Koulu", "note": "Suomenkielinen koulu, ei nime\u00e4 ruotsiksi!", "phone": "(06) 785 1292"}}, {"type": "node", "id": 574264282, "lat": 63.6686942, "lon": 22.7028704}, {"type": "node", "id": 575157615, "lat": 63.6688472, "lon": 22.6839563, "tags": {"addr:city": "Jakobstad", "addr:housenumber": "10", "addr:postcode": "68620", "addr:street": "Bon\u00e4sgatan", "amenity": "school", "fax": "(06) 785 1430", "name": "Bon\u00e4s Skola", "phone": "(06) 785 1430"}}, {"type": "node", "id": 590880667, "lat": 63.6686747, "lon": 22.7015699}, {"type": "node", "id": 613328930, "lat": 63.6684274, "lon": 22.7421522, "tags": {"addr:city": "Jakobstad", "addr:postcode": "68600", "addr:street": "Piril\u00f6v\u00e4gen", "amenity": "school", "name": "Ruusulehdon Koulu", "phone": "(06) 785 1345"}}, {"type": "node", "id": 613328931, "lat": 63.679348, "lon": 22.7128381, "tags": {"addr:city": "Jakobstad", "addr:housenumber": "2", "addr:postcode": "68600", "addr:street": "Lagmansgatan", "amenity": "school", "name": "Lagmans Skola", "phone": "(06) 785 1488"}}, {"type": "node", "id": 614479020, "lat": 63.668625, "lon": 22.6985325}, {"type": "node", "id": 614479021, "lat": 63.6686366, "lon": 22.6991422, "tags": {"crossing": "uncontrolled", "crossing:island": "no", "highway": "crossing", "traffic_calming": "table"}}, {"type": "node", "id": 614479024, "lat": 63.6691495, "lon": 22.6980068}, {"type": "node", "id": 614479025, "lat": 63.6686538, "lon": 22.7001781}, {"type": "node", "id": 614479047, "lat": 63.6687064, "lon": 22.7036857}, {"type": "node", "id": 614479050, "lat": 63.6695624, "lon": 22.7040254}, {"type": "node", "id": 614479051, "lat": 63.6714042, "lon": 22.7003708}, {"type": "node", "id": 614479052, "lat": 63.6714394, "lon": 22.7024536}, {"type": "node", "id": 812183801, "lat": 63.6686215, "lon": 22.698231}, {"type": "node", "id": 842918329, "lat": 63.669562, "lon": 22.6990069, "tags": {"addr:city": "Jakobstad", "addr:housenumber": "3", "addr:postcode": "68600", "addr:street": "Paul Hallvars gata", "amenity": "school", "fax": "(06) 785 1620", "name": "Oxhamns skola", "phone": "(06) 785 1472"}}, {"type": "node", "id": 1125521122, "lat": 63.6703517, "lon": 22.7039368}, {"type": "node", "id": 1125603440, "lat": 63.6698738, "lon": 22.7012293, "tags": {"addr:city": "Jakobstad", "addr:housenumber": "4", "addr:postcode": "68600", "addr:street": "Parentesen", "amenity": "school", "name": "R\u00e5dmans skola", "phone": "(06) 785 1754"}}, {"type": "node", "id": 1127225403, "lat": 63.6641993, "lon": 22.6870874}, {"type": "node", "id": 1127225421, "lat": 63.6634003, "lon": 22.6882205}, {"type": "node", "id": 1127225439, "lat": 63.6644848, "lon": 22.6866208}, {"type": "node", "id": 1127225472, "lat": 63.6637028, "lon": 22.6892949, "tags": {"crossing": "traffic_signals", "highway": "crossing"}}, {"type": "node", "id": 1127240205, "lat": 63.6649866, "lon": 22.685792}, {"type": "node", "id": 1127240206, "lat": 63.6650136, "lon": 22.6895391}, {"type": "node", "id": 1127240214, "lat": 63.6652581, "lon": 22.6866586}, {"type": "node", "id": 1127240215, "lat": 63.6648942, "lon": 22.68991}, {"type": "node", "id": 1127240225, "lat": 63.6651022, "lon": 22.6869239}, {"type": "node", "id": 1127240241, "lat": 63.6634321, "lon": 22.6880193}, {"type": "node", "id": 1127240247, "lat": 63.6636332, "lon": 22.6878261}, {"type": "node", "id": 1127240251, "lat": 63.6639001, "lon": 22.687633}, {"type": "node", "id": 1127240264, "lat": 63.6653491, "lon": 22.6876611}, {"type": "node", "id": 1127240266, "lat": 63.6650973, "lon": 22.6880895}, {"type": "node", "id": 1127240273, "lat": 63.6651544, "lon": 22.6885507}, {"type": "node", "id": 1128773315, "lat": 63.6687076, "lon": 22.7037747}, {"type": "node", "id": 1157985273, "lat": 63.6713709, "lon": 22.698421}, {"type": "node", "id": 1193422648, "lat": 63.6726248, "lon": 22.7060032}, {"type": "node", "id": 1193422792, "lat": 63.6726111, "lon": 22.705003}, {"type": "node", "id": 1193422812, "lat": 63.6715027, "lon": 22.705082}, {"type": "node", "id": 1199823391, "lat": 63.6519388, "lon": 22.7231464, "tags": {"addr:city": "Jakobstad", "addr:housenumber": "29", "addr:postcode": "68600", "addr:street": "Skolhusv\u00e4gen", "amenity": "school", "name": "Kyrkoby Skola", "phone": "(06) 785 0521"}}, {"type": "node", "id": 1350532459, "lat": 63.5266487, "lon": 22.5263015, "tags": {"addr:city": "Nykarleby", "addr:housenumber": "17 C", "addr:postcode": "66900", "addr:street": "Seminariegatan", "amenity": "school", "name": "Topeliusgymnasiet", "wheelchair": "yes"}}, {"type": "node", "id": 1350620132, "lat": 63.522604, "lon": 22.5284693, "tags": {"amenity": "school", "name": "Normens skola", "name:sv": "Normens skola", "wheelchair": "no"}}, {"type": "node", "id": 1600414108, "lat": 63.5898365, "lon": 22.6356365, "tags": {"amenity": "school", "name": "Sundby skola"}}, {"type": "node", "id": 1616875982, "lat": 63.6638807, "lon": 22.6898955}, {"type": "node", "id": 4784534211, "lat": 63.6767441, "lon": 22.6720522, "tags": {"addr:city": "Jakobstad", "addr:housenumber": "32", "addr:postcode": "68620", "addr:street": "Skolv\u00e4gen", "amenity": "school", "fax": "(06) 785 1343", "name": "Vestersundsby skola", "phone": "(06) 785 1405"}}, {"type": "node", "id": 9381550940, "lat": 63.6634632, "lon": 22.688452, "tags": {"highway": "traffic_signals", "traffic_signals:direction": "backward"}}, {"type": "node", "id": 9381550941, "lat": 63.6635448, "lon": 22.6887484, "tags": {"highway": "traffic_signals", "traffic_signals:direction": "forward"}}, {"type": "node", "id": 9381550942, "lat": 63.6637262, "lon": 22.6893747, "tags": {"highway": "traffic_signals", "traffic_signals:direction": "backward"}}, {"type": "node", "id": 9383395635, "lat": 63.6687165, "lon": 22.6980671, "tags": {"crossing": "uncontrolled", "highway": "crossing"}}, {"type": "node", "id": 9383395639, "lat": 63.6689537, "lon": 22.6980275}, {"type": "node", "id": 9405458767, "lat": 63.6702792, "lon": 22.697771, "tags": {"crossing": "uncontrolled", "highway": "crossing"}}, {"type": "node", "id": 9405458772, "lat": 63.6713512, "lon": 22.6976735, "tags": {"crossing": "uncontrolled", "crossing_ref": "zebra", "highway": "crossing"}}, {"type": "node", "id": 9405458773, "lat": 63.6712105, "lon": 22.6975826, "tags": {"crossing": "uncontrolled", "highway": "crossing"}}, {"type": "node", "id": 9929596722, "lat": 63.6714285, "lon": 22.7016995, "tags": {"crossing": "uncontrolled", "crossing_ref": "zebra", "highway": "crossing"}}, {"type": "node", "id": 9929596725, "lat": 63.6713961, "lon": 22.699838, "tags": {"crossing": "uncontrolled", "crossing_ref": "zebra", "highway": "crossing"}}, {"type": "node", "id": 9929596726, "lat": 63.6714712, "lon": 22.7037721, "tags": {"crossing": "uncontrolled", "crossing_ref": "zebra", "highway": "crossing"}}, {"type": "node", "id": 11559653598, "lat": 63.5258581, "lon": 22.5246316}, {"type": "node", "id": 11559653599, "lat": 63.5260797, "lon": 22.5225872}, {"type": "node", "id": 11559653600, "lat": 63.5270902, "lon": 22.5238248}, {"type": "node", "id": 11559653601, "lat": 63.5271012, "lon": 22.5246261}, {"type": "node", "id": 11559653602, "lat": 63.5270731, "lon": 22.525036}, {"type": "node", "id": 11559653604, "lat": 63.5264421, "lon": 22.5227195}, {"type": "node", "id": 11559653605, "lat": 63.5271362, "lon": 22.5224181}, {"type": "node", "id": 11559653606, "lat": 63.5271917, "lon": 22.5210105}, {"type": "node", "id": 11559653607, "lat": 63.5266986, "lon": 22.5207854}, {"type": "node", "id": 11559653608, "lat": 63.5262227, "lon": 22.5212068}, {"type": "node", "id": 11559653611, "lat": 63.4025877, "lon": 22.6499252}, {"type": "node", "id": 11559653612, "lat": 63.4028519, "lon": 22.6516956}, {"type": "node", "id": 11559653613, "lat": 63.4036223, "lon": 22.6512047}, {"type": "node", "id": 11559653614, "lat": 63.4033778, "lon": 22.6493902}, {"type": "node", "id": 11559653689, "lat": 63.5691522, "lon": 22.5530065}, {"type": "node", "id": 11559653690, "lat": 63.5696276, "lon": 22.5569875}, {"type": "node", "id": 11559653691, "lat": 63.5700403, "lon": 22.5562787}, {"type": "node", "id": 11559653692, "lat": 63.5695736, "lon": 22.5527104}, {"type": "way", "id": 60847631, "nodes": [614479021, 614479025, 590880667, 574264282, 614479047, 1128773315, 459386216, 614479050, 1125521122, 459386215, 9929596726, 614479052, 100175023, 9929596722, 614479051, 9929596725, 129955304, 1157985273, 9405458772, 28140179, 9405458773, 135292908, 9405458767, 614479024, 9383395639, 9383395635, 390002047, 28140177, 812183801, 614479020, 614479021], "tags": {"amenity": "school"}}, {"type": "way", "id": 97335349, "nodes": [1127240214, 1127240225, 1127240264, 1127240266, 1127240273, 1127240206, 1127240215, 27288582, 1616875982, 9381550942, 1127225472, 27288581, 9381550941, 9381550940, 1127225421, 1127240241, 1127240247, 1127240251, 1127225403, 1127225439, 1127240205, 1127240214], "tags": {"addr:city": "Jakobstad", "addr:housenumber": "1", "addr:postcode": "68630", "addr:street": "V\u00e4sterleden", "amenity": "school", "fax": "(06) 785 1504", "name": "L\u00e4nsinummen koulu", "name:fi": "L\u00e4nsinummen koulu", "phone": "(06) 785 1572"}}, {"type": "way", "id": 103339208, "nodes": [1193422648, 384909610, 1193422812, 1193422792, 1193422648], "tags": {"addr:city": "Jakobstad", "addr:housenumber": "2", "addr:postcode": "68600", "addr:street": "Runebergsgatan", "amenity": "school", "fax": "(06) 785 1487", "name": "Etel\u00e4nummen koulu", "name:fi": "Etel\u00e4nummen koulu", "phone": "(06) 785 1290"}}, {"type": "way", "id": 1243689093, "nodes": [11559653598, 11559653599, 11559653604, 11559653600, 11559653601, 11559653602, 11559653598], "tags": {"addr:city": "Nykarleby", "addr:housenumber": "28", "addr:postcode": "66900", "addr:street": "Seminariegatan", "amenity": "school", "name": "Zachariasskolan"}}, {"type": "way", "id": 1243689094, "nodes": [11559653599, 11559653604, 11559653605, 11559653606, 11559653607, 11559653608, 11559653599], "tags": {"amenity": "school", "name": "Mets\u00e4kulman koulu"}}, {"type": "way", "id": 1243689095, "nodes": [11559653611, 11559653612, 11559653613, 11559653614, 11559653611], "tags": {"addr:city": "Jeppo", "addr:housenumber": "27b", "addr:postcode": "66850", "addr:street": "Jungarv\u00e4gen", "amenity": "school", "name": "Jeppo skola"}}, {"type": "way", "id": 1243689107, "nodes": [11559653689, 11559653690, 11559653691, 11559653692, 11559653689], "tags": {"addr:city": "Socklot", "addr:housenumber": "108", "addr:postcode": "66910", "addr:street": "Socklotv\u00e4gen", "amenity": "school", "name": "Socklot skola"}}]}