{"version": 0.6, "generator": "Overpass API 0.7.61.5 4133829e", "osm3s": {"timestamp_osm_base": "2024-03-06T10:45:02Z", "copyright": "The data included in this document is from www.openstreetmap.org. The data is made available under ODbL."}, "elements": [{"type": "node", "id": 3906670236, "lat": 33.2548381, "lon": 44.6103777}, {"type": "node", "id": 3906670237, "lat": 33.254865, "lon": 44.6103509}, {"type": "node", "id": 3906670238, "lat": 33.2549727, "lon": 44.6097232}, {"type": "node", "id": 3906670239, "lat": 33.2549548, "lon": 44.6096883}, {"type": "node", "id": 3906670240, "lat": 33.2543267, "lon": 44.6095408}, {"type": "node", "id": 3906670241, "lat": 33.2542976, "lon": 44.6095569}, {"type": "node", "id": 3906670242, "lat": 33.2541854, "lon": 44.6102087}, {"type": "node", "id": 3906670243, "lat": 33.2541966, "lon": 44.6102409}, {"type": "node", "id": 3906670244, "lat": 33.2547013, "lon": 44.6110777}, {"type": "node", "id": 3906670245, "lat": 33.2547327, "lon": 44.6110536}, {"type": "node", "id": 3906670246, "lat": 33.2548471, "lon": 44.6104179}, {"type": "node", "id": 3906670247, "lat": 33.2541742, "lon": 44.610257}, {"type": "node", "id": 3906670248, "lat": 33.2540665, "lon": 44.6109114}, {"type": "node", "id": 3906670249, "lat": 33.2540778, "lon": 44.6109383}, {"type": "node", "id": 4272773492, "lat": 33.3750636, "lon": 44.690975, "tags": {"addr:street": "\u0634\u0627\u0631\u0639 \u0627\u0644\u0645\u062f\u0627\u0631\u0633", "amenity": "school", "name": "\u062b\u0627\u0646\u0648\u064a\u0629 \u0627\u0644\u0646\u0639\u064a\u0645", "name:ar": "\u062b\u0627\u0646\u0648\u064a\u0629 \u0627\u0644\u0646\u0639\u064a\u0645 \u0644\u0644\u0628\u0646\u0627\u062a"}}, {"type": "node", "id": 4365277289, "lat": 33.3729813, "lon": 44.6816981, "tags": {"amenity": "school", "name:ar": "\u062b\u0627\u0646\u0648\u064a\u0629 \u0634\u0647\u064a\u062f \u062e\u0644\u064a\u0644 \u0627\u0644\u0633\u0627\u0639\u062f\u064a", "name:en": "\u062b\u0627\u0646\u0648\u064a\u0629 \u0627\u0644\u0634\u0647\u064a\u062f \u062e\u0644\u064a\u0644 \u0627\u0644\u0633\u0627\u0639\u062f\u064a"}}, {"type": "node", "id": 4413040291, "lat": 33.3763085, "lon": 44.6806686, "tags": {"amenity": "school", "name": "\u0627\u0644\u062d\u0631\u0645\u064a\u0646 \u0627\u0644\u0627\u0628\u062a\u062f\u0627\u0626\u064a\u0629 \u0644\u0644\u0628\u0646\u064a\u0646", "name:ar": "\u0627\u0644\u062d\u0631\u0645\u064a\u0646 \u0627\u0644\u0627\u0628\u062a\u062f\u0627\u0626\u064a\u0629 \u0644\u0644\u0628\u0646\u064a\u0646"}}, {"type": "node", "id": 4645142090, "lat": 33.3813046, "lon": 44.7199343, "tags": {"amenity": "school", "name": "\u0627\u0644\u0645\u062a\u0648\u0633\u0637\u0629 \u0627\u0644\u0645\u0633\u0627\u0626\u064a\u0629 \u0641\u064a \u0627\u0644\u0646\u0647\u0631\u0648\u0627\u0646", "name:ar": "\u0627\u0644\u0645\u062a\u0648\u0633\u0637\u0629 \u0627\u0644\u0645\u0633\u0627\u0626\u064a\u0629 \u0641\u064a \u0627\u0644\u0646\u0647\u0631\u0648\u0627\u0646"}}, {"type": "node", "id": 4663044689, "lat": 33.3713687, "lon": 44.6812209, "tags": {"amenity": "school", "name": "\u0625\u0639\u062f\u0627\u062f\u064a\u0629 \u0627\u0644\u0634\u0647\u064a\u062f \u062e\u0644\u064a\u0644 \u0627\u0644\u0633\u0627\u0639\u062f\u064a", "name:ar": "s"}}, {"type": "node", "id": 5441068621, "lat": 33.1487345, "lon": 44.6568828, "tags": {"addr:street": "\u0634\u0627\u0631\u0639 \u0627\u0644\u0645\u062f\u0631\u0633\u0647", "amenity": "school", "name": "\u0645\u062f\u0631\u0633\u0629 \u062e\u0648\u0644\u0647 \u0628\u0646\u062a \u0627\u0644\u0623\u0632\u0648\u0631 \u0627\u0644\u0623\u0628\u062a\u062f\u0627\u0626\u064a\u0647"}}, {"type": "node", "id": 5534637823, "lat": 33.1262449, "lon": 44.6978763, "tags": {"amenity": "school", "name": "\u0627\u0644\u0634\u0647\u064a\u062f \u0632\u0627\u0647\u062f"}}, {"type": "node", "id": 5536490747, "lat": 33.3722695, "lon": 44.6945488, "tags": {"addr:street": "\u0634\u0627\u0631\u0639 \u062d\u064a \u0627\u0644\u0645\u0639\u0644\u0645\u064a\u0646", "amenity": "school", "name": "\u0634\u0627\u0631\u0639 \u062d\u064a \u0627\u0644\u0645\u0639\u0644\u0645\u064a\u0646"}}, {"type": "node", "id": 5579509622, "lat": 33.1240904, "lon": 44.6972559, "tags": {"amenity": "school", "name": "\u0645\u062f\u0631\u0633\u0629 \u0632\u064a\u0646\u0628 \u0627\u0644\u0643\u0628\u0631\u0649 \u0627\u0644\u0627\u0628\u062a\u062f\u0627\u0626\u064a\u0629", "name:en": "Zainab al kubra primary school"}}, {"type": "node", "id": 5620338848, "lat": 33.0923754, "lon": 44.5916778, "tags": {"addr:city": "\u0628\u063a\u062f\u0627\u062f", "addr:country": "IQ", "amenity": "school", "name": "\u0625\u0639\u062f\u0627\u062f\u064a\u0629 \u0633\u0639\u062f \u0628\u0646 \u0623\u0628\u064a \u0648\u0642\u0627\u0635 \u0644\u0644\u0628\u0646\u064a\u0646"}}, {"type": "node", "id": 5640830060, "lat": 33.1289879, "lon": 44.6890663, "tags": {"amenity": "school", "name": "\u0645\u062a\u0648\u0633\u0637\u0629 \u0627\u0644\u0645\u0639\u0631\u0627\u062c", "name:ku": "\u0645\u062a\u0648\u0633\u0637\u0629 \u0627\u0644\u0645\u0639\u0631\u0627\u062c"}}, {"type": "node", "id": 5708838023, "lat": 33.1001173, "lon": 44.575564, "tags": {"amenity": "school", "name": "\u0645\u062f\u0631\u0633\u0629 \u0627\u0644\u0628\u0634\u0631\u0649 \u0627\u0644\u0623\u0628\u062a\u062f\u0627\u0626\u064a\u0629 \u0627\u0644\u0623\u0647\u0644\u064a\u0629 \u0627\u0644\u0645\u062e\u062a\u0644\u0637\u0629"}}, {"type": "node", "id": 6011227997, "lat": 33.3750569, "lon": 44.703645, "tags": {"amenity": "school", "name": "\u0645\u062f\u0631\u0633\u0629 \u0645\u0648\u0627\u0647\u0628 \u0627\u0644\u0631\u0627\u062d\u0645\u0646 \u0627\u0644\u0627\u0628\u062a\u062f\u0627\u0626\u064a\u0629 \u0644\u0644\u0628\u0646\u0627\u062a", "name:ar": "\u0645\u062f\u0631\u0633\u0629 \u0645\u0648\u0627\u0647\u0628 \u0627\u0644\u0631\u062d\u0645\u0646 \u0627\u0644\u0627\u0628\u062a\u062f\u0627\u0626\u064a\u0629 \u0644\u0644\u0628\u0646\u0627\u062a"}}, {"type": "node", "id": 6100524121, "lat": 33.3610604, "lon": 44.5544304, "tags": {"amenity": "school", "name": "\u0627\u0628\u0646 \u0627\u0644\u0646\u0641\u064a\u0633", "operator": "\u0627\u0644\u0627\u0628\u062a\u062f\u0627\u0626\u064a\u0629 \u0627\u0644\u0645\u062e\u062a\u0644\u0637\u0629"}}, {"type": "node", "id": 6295176388, "lat": 33.2976565, "lon": 44.8082745, "tags": {"amenity": "school", "name": "\u0645\u062f\u0631\u0633\u0629 \u0645\u0639\u0627\u0644\u062c\u0629 \u0627\u0644\u0642\u0646\u0627\u0628\u0644 \u063a\u064a\u0631 \u0627\u0644\u0645\u0646\u0641\u0644\u0642\u0629", "name:en": "EOD School"}}, {"type": "node", "id": 6412417586, "lat": 33.3132478, "lon": 44.678391, "tags": {"amenity": "school", "name": "\u0645\u062f\u0631\u0633\u0629 \u0639\u0628\u062f \u0627\u0644\u0644\u0647 \u0628\u0646 \u0639\u0628\u0627\u0633"}}, {"type": "node", "id": 7866920685, "lat": 33.1787154, "lon": 44.6164133, "tags": {"amenity": "school", "name": "\u0627\u0644\u0648\u0627\u062d\u0629 \u0627\u0644\u062e\u0636\u0631\u0627\u0621"}}, {"type": "node", "id": 9069220718, "lat": 33.3720657, "lon": 44.7168798, "tags": {"amenity": "school", "name": "\u0627\u0644\u0642 \u0628\u063a\u062f\u0627\u062f \u0627\u0644\u0627\u0647\u0644\u064a\u0629"}}, {"type": "node", "id": 9139132717, "lat": 33.1264918, "lon": 44.6765046, "tags": {"amenity": "school", "name": "\u0645\u062a\u0648\u0633\u0637\u0629 \u0627\u0644\u062e\u0627\u0644\u0635\u0629", "name:en": "Alkhalisa intermediate school"}}, {"type": "node", "id": 9219784417, "lat": 33.1160067, "lon": 44.5834285, "tags": {"amenity": "school", "name": "\u0645\u062a\u0648\u0633\u0637\u0629 \u0627\u0644\u0646\u0628\u0631\u0627\u0633", "name:en": "Alnibras intermediate school"}}, {"type": "node", "id": 9417831117, "lat": 33.1175267, "lon": 44.5787897, "tags": {"amenity": "school", "name": "\u0627\u0639\u0627\u062f\u0627\u062f\u064a\u0629 \u0627\u0644\u0627\u062f\u0631\u064a\u0633\u064a \u0627\u0644\u0645\u0647\u0646\u064a\u0629 \u0644\u0644\u0628\u0646\u064a\u0646"}}, {"type": "node", "id": 9671269617, "lat": 33.1503535, "lon": 44.6659515, "tags": {"amenity": "school", "name": "\u0645\u062f\u0631\u0633\u0629 \u0627\u0644\u062d\u0645\u0632\u0647"}}, {"type": "node", "id": 10130886017, "lat": 33.1803531, "lon": 44.6055231, "tags": {"addr:street": "B1", "amenity": "school", "name": "\u0645\u0639\u0647\u062f \u0627\u0644\u0645\u0646\u0627\u0647\u0644", "name:en": "Al Manahil Institute"}}, {"type": "node", "id": 10556777571, "lat": 33.360928, "lon": 44.5545654, "tags": {"amenity": "school", "name": "\u0645\u062f\u0631\u0633\u0629"}}, {"type": "node", "id": 10824265705, "lat": 33.3415585, "lon": 44.6313335, "tags": {"addr:street": "\u0627\u0644\u062c\u0632\u0645\u064a\u0629", "amenity": "school", "name": "\u0645\u062f\u0631\u0633\u0629 \u0627\u0628\u0648 \u0627\u064a\u0648\u0628 \u0627\u0644\u0627\u0646\u0635\u0627\u0631\u064a \u0627\u0644\u0627\u0628\u062a\u062f\u0627\u0626\u064a\u0629 \u0627\u0644\u0645\u062e\u062a\u0644\u0637\u0629"}}, {"type": "node", "id": 10827756708, "lat": 33.3670711, "lon": 44.6656354, "tags": {"amenity": "school", "name": "\u0645\u062f\u0631\u0633\u0629 \u0631\u064a\u0627\u062d\u064a\u0646 \u0627\u0644\u0646\u0647\u0631\u0648\u0627\u0646", "name:en": "Rayhen al Nahrwon School", "opening_hours": "Su-Th 08:00-16:00"}}, {"type": "node", "id": 11272316971, "lat": 33.3630857, "lon": 44.6540284, "tags": {"amenity": "school", "name": "\u0645\u062f\u0631\u0633\u0629 \u0627\u0644\u0633\u0639\u064a\u062f\u0627\u062a \u0627\u0644\u0627\u0628\u062a\u062f\u0627\u0626\u064a\u0629"}}, {"type": "way", "id": 387365887, "nodes": [3906670236, 3906670237, 3906670238, 3906670239, 3906670240, 3906670241, 3906670242, 3906670243, 3906670236], "tags": {"amenity": "school"}}, {"type": "way", "id": 387365889, "nodes": [3906670244, 3906670245, 3906670246, 3906670236, 3906670243, 3906670247, 3906670248, 3906670249, 3906670244], "tags": {"amenity": "school"}}]}