{"version": 0.6, "generator": "Overpass API 0.7.61.5 4133829e", "osm3s": {"timestamp_osm_base": "2024-03-06T11:34:00Z", "copyright": "The data included in this document is from www.openstreetmap.org. The data is made available under ODbL."}, "elements": [{"type": "node", "id": 542507954, "lat": 1.01434, "lon": 34.3701874, "tags": {"amenity": "doctors", "name": "Bukigai Health Centre"}}, {"type": "node", "id": 542570644, "lat": 1.0257595, "lon": 34.3705362, "tags": {"amenity": "doctors", "name": "White Cross Medical Centre"}}, {"type": "node", "id": 1747446439, "lat": 1.0465863, "lon": 34.3717622, "tags": {"amenity": "doctors", "name": "Kkikholo Health Centre"}}, {"type": "node", "id": 3953772732, "lat": 0.9073212, "lon": 34.3572119, "tags": {"addr:city": "Manafa", "amenity": "clinic", "bed_count": "4", "name": "Bupoto Healthy Center"}}, {"type": "node", "id": 3953772733, "lat": 0.9266628, "lon": 34.3636465, "tags": {"addr:city": "Buwabwala", "amenity": "clinic", "name": "Buta Bubwala Health Centre"}}, {"type": "node", "id": 3953786379, "lat": 0.9575514, "lon": 34.3709143, "tags": {"addr:city": "Tsekululu", "amenity": "hospital", "name": "Bunambali Health Centre"}}, {"type": "node", "id": 3954014983, "lat": 1.1232908, "lon": 34.3775725, "tags": {"addr:city": "Zesui", "amenity": "clinic"}}, {"type": "node", "id": 3954783288, "lat": 1.0298464, "lon": 34.4606165, "tags": {"addr:city": "Bukalasi", "addr:street": "Mbale Manafwa", "amenity": "doctors", "bed_count": "15", "description": "Health Center", "name": "Bukalasi Health 3"}}, {"type": "node", "id": 3954783295, "lat": 1.0288589, "lon": 34.3718513, "tags": {"addr:city": "Bulukecheke", "amenity": "hospital", "healthcare": "hospital", "name": "Bulucheke Health Centre 3"}}, {"type": "node", "id": 3954783308, "lat": 1.0544456, "lon": 34.3545914, "tags": {"addr:city": "Nakatsi", "addr:street": "Nasunza Bushika Road", "amenity": "hospital", "bed_count": "8", "name": "Bushika Health Centre"}}, {"type": "node", "id": 3954783348, "lat": 1.0223971, "lon": 34.376337, "tags": {"addr:city": "Bulukecheke", "addr:street": "Kuushu", "amenity": "clinic", "name": "Shanadia Drug Shop"}}, {"type": "node", "id": 3954783353, "lat": 1.0252036, "lon": 34.3711567, "tags": {"addr:city": "Bukigai", "amenity": "clinic", "building": "hospital", "building:levels": "1", "building:material": "cement_block", "name": "White Cross Medical Centre"}}, {"type": "node", "id": 3955210554, "lat": 1.1509282, "lon": 34.3887009, "tags": {"addr:city": "Bugitimwa Sub County", "addr:street": "Bugitimwa Sub County", "amenity": "doctors", "bed_count": "8", "name": "Bugitimwa Health Centre"}}, {"type": "node", "id": 3955210556, "lat": 1.1515598, "lon": 34.4014086, "tags": {"addr:city": "Bugitimwa Sub County", "addr:street": "Bugoboni Road", "amenity": "clinic", "bed_count": "1", "name": "Bugoboni Clinic"}}, {"type": "node", "id": 3955215558, "lat": 1.1475573, "lon": 34.3910559, "tags": {"addr:city": "Bugitimwa Sub County", "addr:street": "Bugitimwa Road", "amenity": "doctors", "bed_count": "0", "name": "Gombe Drug Shop"}}, {"type": "node", "id": 3955215559, "lat": 1.151682, "lon": 34.4008485, "tags": {"addr:city": "Bugitimwa Sub County", "addr:street": "Bugoboni Road", "amenity": "clinic", "bed_count": "2", "name": "Home Care Clinic"}}, {"type": "node", "id": 3955215560, "lat": 1.1550621, "lon": 34.3898393, "tags": {"addr:city": "Bugitimwa Sub County", "addr:street": "Namalu Road", "amenity": "clinic", "bed_count": "5", "name": "Namalu Health Centre III"}}, {"type": "node", "id": 3955215561, "lat": 1.1512876, "lon": 34.4014764, "tags": {"addr:city": "Bugitimwa Sub County", "addr:street": "Bugoboni Road", "amenity": "pharmacy", "name": "Namalugulu Drug Shop"}}, {"type": "node", "id": 3955247623, "lat": 0.8350695, "lon": 34.3772089, "tags": {"addr:city": "Bumwoni", "addr:street": "Bumwoni", "amenity": "clinic", "bed_count": "8", "building": "hospital", "name": "Bumwoni Health Centre 3"}}, {"type": "node", "id": 3955247625, "lat": 0.7984815, "lon": 34.378748, "tags": {"addr:city": "Lwakhakha Town Council", "addr:street": "Lwakhakha", "amenity": "clinic", "bed_count": "8", "name": "Gods Hope Of Life Medical Centre"}}, {"type": "node", "id": 3955247636, "lat": 0.7995205, "lon": 34.3796476}, {"type": "node", "id": 5650465764, "lat": 0.8628821, "lon": 34.3953609}, {"type": "node", "id": 5650465765, "lat": 0.8629897, "lon": 34.3955102}, {"type": "node", "id": 5650465766, "lat": 0.8629098, "lon": 34.3955678}, {"type": "node", "id": 5650465767, "lat": 0.8628022, "lon": 34.3954186}, {"type": "node", "id": 5650465768, "lat": 0.8634202, "lon": 34.3952839}, {"type": "node", "id": 5650465769, "lat": 0.8634577, "lon": 34.3953375}, {"type": "node", "id": 5650465770, "lat": 0.8633726, "lon": 34.3953985}, {"type": "node", "id": 5650465771, "lat": 0.8633277, "lon": 34.3953456}, {"type": "node", "id": 5650465772, "lat": 0.8634179, "lon": 34.3954652}, {"type": "node", "id": 5650465773, "lat": 0.8633614, "lon": 34.3955093}, {"type": "node", "id": 5650465774, "lat": 0.8632198, "lon": 34.3953242}, {"type": "node", "id": 5650465775, "lat": 0.8632831, "lon": 34.3952762, "tags": {"content": "water", "man_made": "storage_tank"}}, {"type": "node", "id": 5650465813, "lat": 0.8625257, "lon": 34.3956372}, {"type": "node", "id": 5650465817, "lat": 0.8628476, "lon": 34.3952959}, {"type": "node", "id": 5650465818, "lat": 0.8629019, "lon": 34.3952342}, {"type": "node", "id": 5650465819, "lat": 0.8629646, "lon": 34.3951719}, {"type": "node", "id": 5650465820, "lat": 0.8631496, "lon": 34.3949881}, {"type": "node", "id": 5650466021, "lat": 0.8632435, "lon": 34.3948902}, {"type": "node", "id": 5650466022, "lat": 0.8633333, "lon": 34.3949224}, {"type": "node", "id": 5650466023, "lat": 0.8634138, "lon": 34.3949814}, {"type": "node", "id": 5650466024, "lat": 0.8634218, "lon": 34.395086}, {"type": "node", "id": 5650466025, "lat": 0.8633467, "lon": 34.3952054}, {"type": "node", "id": 5650466026, "lat": 0.8633883, "lon": 34.3952322}, {"type": "node", "id": 5650466027, "lat": 0.8634299, "lon": 34.3952617}, {"type": "node", "id": 5650466028, "lat": 0.8634956, "lon": 34.395318}, {"type": "node", "id": 5650466029, "lat": 0.8634728, "lon": 34.3954589}, {"type": "node", "id": 5650466031, "lat": 0.8633897, "lon": 34.3955273}, {"type": "node", "id": 5650466032, "lat": 0.8633709, "lon": 34.3956627}, {"type": "node", "id": 5650466033, "lat": 0.8632341, "lon": 34.3957258}, {"type": "node", "id": 5650466034, "lat": 0.8631939, "lon": 34.3957311}, {"type": "node", "id": 5650466035, "lat": 0.8631898, "lon": 34.3958397}, {"type": "node", "id": 5650466036, "lat": 0.8629391, "lon": 34.3958465}, {"type": "node", "id": 5650466037, "lat": 0.8627809, "lon": 34.395876}, {"type": "node", "id": 5650466038, "lat": 0.8626213, "lon": 34.3959081}, {"type": "node", "id": 5650466040, "lat": 0.8625556, "lon": 34.3956909}, {"type": "node", "id": 5651304908, "lat": 0.9072715, "lon": 34.3571625}, {"type": "node", "id": 5651304909, "lat": 0.9071999, "lon": 34.3571818}, {"type": "node", "id": 5651304910, "lat": 0.9072502, "lon": 34.3573677}, {"type": "node", "id": 5651304911, "lat": 0.9073217, "lon": 34.3573483}, {"type": "node", "id": 7496788382, "lat": 0.7994199, "lon": 34.37915}, {"type": "node", "id": 7496788383, "lat": 0.7988084, "lon": 34.3792211}, {"type": "node", "id": 7496788384, "lat": 0.7986891, "lon": 34.3792237}, {"type": "node", "id": 7496826785, "lat": 0.7987025, "lon": 34.3793713}, {"type": "node", "id": 7496826786, "lat": 0.7987454, "lon": 34.3798849}, {"type": "node", "id": 7496826787, "lat": 0.7989465, "lon": 34.3798501}, {"type": "node", "id": 7496826788, "lat": 0.7991504, "lon": 34.3797722}, {"type": "node", "id": 8597201325, "lat": 0.9023772, "lon": 34.3793146, "tags": {"amenity": "pharmacy", "name": "Beatrice Tierney Health Centre"}}, {"type": "node", "id": 8597201326, "lat": 0.9023239, "lon": 34.3793706, "tags": {"amenity": "clinic", "beds": "2", "fee": "no", "healthcare:speciality": "maternity", "name": "Beatrice Tierney Health Centre", "operator": "Arlington Academy of Hope; Reach for Uganda", "operator:type": "ngo", "ref": "HUB0049", "source:ref": "https://uga.databasesets.com/registered-and-licensed-health-units-in-uganda/guid/0058", "start_date": "16-02-2001", "website": "https://reachforuganda.org/programs/health/"}}, {"type": "node", "id": 8689478213, "lat": 0.8625403, "lon": 34.3956633, "tags": {"barrier": "gate"}}, {"type": "node", "id": 9895555100, "lat": 1.0394001, "lon": 34.7922214}, {"type": "node", "id": 9895555101, "lat": 1.039319, "lon": 34.7922193}, {"type": "node", "id": 9895555102, "lat": 1.0393131, "lon": 34.7924412}, {"type": "node", "id": 9895555103, "lat": 1.0393942, "lon": 34.7924434}, {"type": "node", "id": 11056438796, "lat": 0.8728096, "lon": 34.3663579, "tags": {"amenity": "clinic", "grade": "Hospital", "name": "MAGALE"}}, {"type": "node", "id": 11056451873, "lat": 1.1464277, "lon": 34.4098924, "tags": {"amenity": "clinic", "description": "UNDER CONSTRUCTION", "name": "HEALTH CENTRE"}}, {"type": "node", "id": 11056452127, "lat": 1.1564405, "lon": 34.3907124, "tags": {"amenity": "clinic", "name": "HEALTH CENTRE"}}, {"type": "node", "id": 11056452141, "lat": 1.1411898, "lon": 34.3936793, "tags": {"amenity": "clinic", "name": "BUBOOLO HEALTH CENTRE II"}}, {"type": "node", "id": 11056452335, "lat": 1.124963, "lon": 34.3764277, "tags": {"amenity": "hospital", "name": "BUMUMULO HEALTH CENTRE III"}}, {"type": "node", "id": 11056452407, "lat": 1.1379526, "lon": 34.3921052, "tags": {"amenity": "clinic", "description": "PRIVATELY OWNED", "name": "MASIYOMPO HEALTH CENTRE"}}, {"type": "node", "id": 11187791261, "lat": 0.7886156, "lon": 34.7124812}, {"type": "node", "id": 11187791262, "lat": 0.7887672, "lon": 34.7135112}, {"type": "node", "id": 11187791263, "lat": 0.7894886, "lon": 34.713318}, {"type": "node", "id": 11187791264, "lat": 0.7893632, "lon": 34.7122934}, {"type": "way", "id": 591912757, "nodes": [5650465764, 5650465765, 5650465766, 5650465767, 5650465764], "tags": {"amenity": "hospital", "building": "hospital", "healthcare": "hospital", "name": "Bumbo HC IV"}}, {"type": "way", "id": 591912758, "nodes": [5650465768, 5650465769, 5650465770, 5650465772, 5650465773, 5650465774, 5650465775, 5650465771, 5650465768], "tags": {"amenity": "hospital", "building": "hospital", "healthcare": "hospital", "name": "New Hospital Appertiment"}}, {"type": "way", "id": 592034240, "nodes": [5651304908, 5651304909, 5651304910, 5651304911, 5651304908], "tags": {"amenity": "hospital", "healthcare": "hospital"}}, {"type": "way", "id": 801523415, "nodes": [5650466029, 5650466028, 5650466027, 5650466026, 5650466025, 5650466024, 5650466023, 5650466022, 5650466021, 5650465820, 5650465819, 5650465818, 5650465817, 5650465813, 8689478213, 5650466040, 5650466038, 5650466037, 5650466036, 5650466035, 5650466034, 5650466033, 5650466032, 5650466031, 5650466029], "tags": {"addr:city": "Bumbo", "addr:street": "Bumbo Magale Road", "amenity": "hospital", "healthcare": "hospital", "name": "Bumbo Health Center IV"}}, {"type": "way", "id": 801524360, "nodes": [3955247636, 7496788382, 7496788383, 7496788384, 7496826785, 7496826786, 7496826787, 7496826788, 3955247636], "tags": {"addr:city": "Lwakhakha Town Council", "addr:street": "Market road", "amenity": "hospital", "bed_count": "15", "healthcare": "hospital", "name": "Mercy and Love Community Health Centre"}}, {"type": "way", "id": 1079504835, "nodes": [9895555100, 9895555101, 9895555102, 9895555103, 9895555100], "tags": {"amenity": "hospital", "healthcare": "hospital", "name": "Hospital", "operator": "KWS", "operator:type": "community"}}, {"type": "way", "id": 1207423977, "nodes": [11187791264, 11187791263, 11187791262, 11187791261, 11187791264], "tags": {"amenity": "hospital", "name": "Kimilili sub-county hospital", "operator": "Ministry of Health", "website": "https://health.go.ke"}}]}