{"version": 0.6, "generator": "Overpass API 0.7.61.5 4133829e", "osm3s": {"timestamp_osm_base": "2024-03-06T11:16:45Z", "copyright": "The data included in this document is from www.openstreetmap.org. The data is made available under ODbL."}, "elements": [{"type": "node", "id": 599473544, "lat": 32.5010274, "lon": 45.8296334, "tags": {"capital": "4", "int_name": "Al-K\u016bt - \u0627\u0644\u0643\u0648\u062a", "name": "\u0627\u0644\u0643\u0648\u062a", "name:ar": "\u0627\u0644\u0643\u0648\u062a", "name:ckb": "\u06a9\u0648\u0648\u062a", "name:cs": "K\u00fat", "name:de": "Kut", "name:en": "Al-Kut", "name:es": "Kut", "name:et": "K\u016bt", "name:eu": "Kut", "name:fa": "\u06a9\u0648\u062a", "name:fr": "Kut", "name:he": "\u05d0\u05dc-\u05db\u05d5\u05ea", "name:hi": "\u0905\u0932 \u0915\u0941\u0924", "name:ja": "\u30af\u30fc\u30c8", "name:ku": "K\u00fbt", "name:ml": "\u0d05\u0d7d-\u0d15\u0d42\u0d24\u0d4d\u0d24\u0d4d", "name:pl": "Al-Kut", "name:ru": "\u042d\u043b\u044c-\u041a\u0443\u0442", "name:tt": "\u041a\u04e9\u0442", "name:uk": "\u0415\u043b\u044c-\u041a\u0443\u0442", "nat_name": "\u06a9\u0648\u062a", "place": "city", "population": "422793", "population:date": "2014", "source:population": "https://ar.wikipedia.org/wiki/%D8%A7%D9%84%D9%83%D9%88%D8%AA_(%D8%A7%D9%84%D8%B9%D8%B1%D8%A7%D9%82)", "wikidata": "Q328030", "wikipedia": "ar:\u0627\u0644\u0643\u0648\u062a (\u0627\u0644\u0639\u0631\u0627\u0642)"}}, {"type": "node", "id": 2484027826, "lat": 32.506674, "lon": 45.88384, "tags": {"alt_name": "\u0627\u0644\u0623\u0645\u0643\u0627\u0635\u064a\u0635", "int_name": "Al Amg\u0101\u015f\u012b\u015f, Mak\u0101\u015f\u012b\u015f, Maq\u0101\u015f\u012b\u015f, Mujasis, \u0627\u0644\u0623\u0645\u06af\u0627\u0635\u064a\u0635, Al Amgasis, Makasis, Maqasis, Mujasis, \u0627\u0644\u0623\u0645\u06af\u0627\u0635\u064a\u0635", "is_in": "Iraq , \u062c\u0645\u0647\u0648\u0631\u064a\u0629 \u0627\u0644\u0639\u0631\u0627\u0642", "name": "\u0627\u0644\u0623\u0645\u0643\u0627\u0635\u064a\u0635", "name:ar": "\u0627\u0644\u0645\u0643\u0627\u0635\u064a\u0635", "name:ar1": "\u0627\u0644\u0623\u0645\u0643\u0627\u0635\u064a\u0635", "name:de": "Al Amgasis", "name:en": "Al Amgasis", "name:fr": "Al Amgasis", "place": "village"}}, {"type": "node", "id": 2484027849, "lat": 32.271084, "lon": 45.925713, "tags": {"alt_name": "Al Muwaffaq\u012byah, Almafiq\u012bya, \u0627\u0644\u0645\u0648\u0641\u0642\u064a\u0629, Al Muwaffaqiyah, Almafiqiya, \u0627\u0644\u0645\u0648\u0641\u0642\u064a\u0629, Mowafaqiya", "capital": "7", "int_name": "Al Muwaffaqiyah - \u0627\u0644\u0645\u0648\u0641\u0642\u064a\u0629", "is_in": "Iraq , \u062c\u0645\u0647\u0648\u0631\u064a\u0629 \u0627\u0644\u0639\u0631\u0627\u0642", "name": "\u0627\u0644\u0645\u0648\u0641\u0642\u064a\u0629", "name:ar": "\u0627\u0644\u0645\u0648\u0641\u0642\u064a\u0629", "name:de": "Al Muwaffaqiyah", "name:en": "Al Muwaffaqiyah", "name:fr": "Al Muwaffaqiyah", "name:ru": "\u042d\u043b\u044c-\u041c\u0443\u0432\u0430\u0444\u0444\u0430\u043a\u0438\u044f", "place": "town", "wikidata": "Q12194127"}}, {"type": "node", "id": 2484027863, "lat": 32.4006482, "lon": 46.0621346, "tags": {"alt_name": "\u0623\u0631\u064a\u062f \u0627\u0644\u062d\u064a\u0646\u0627\u0648\u064a", "int_name": "Ar\u012bd al \u1e28\u012bn\u0101w\u012b, \u0623\u0631\u064a\u062f \u0627\u0644\u062d\u064a\u0646\u0627\u0648\u064a, Arid al Hinawi, \u0623\u0631\u064a\u062f \u0627\u0644\u062d\u064a\u0646\u0627\u0648\u064a", "is_in": "Iraq , \u062c\u0645\u0647\u0648\u0631\u064a\u0629 \u0627\u0644\u0639\u0631\u0627\u0642", "name": "\u0623\u0631\u064a\u062f \u0627\u0644\u062d\u064a\u0646\u0627\u0648\u064a", "name:ar": "\u0623\u0631\u064a\u062f \u0627\u0644\u062d\u064a\u0646\u0627\u0648\u064a", "name:ar1": "\u0623\u0631\u064a\u062f \u0627\u0644\u062d\u064a\u0646\u0627\u0648\u064a", "name:de": "Arid al Hinawi", "name:en": "Arid al Hinawi", "name:fr": "Arid al Hinawi", "place": "village"}}, {"type": "node", "id": 2484028223, "lat": 32.3698756, "lon": 45.9436552, "tags": {"alt_name": "\u0642\u0631\u064a\u0629 \u0633\u064a\u062f \u0639\u0644\u064a", "int_name": "Qaryat Sayyid Al\u012b, Qaryat Sayyid Ali", "name": "\u0642\u0631\u064a\u0629 \u0633\u064a\u062f \u0639\u0644\u064a", "name:ar": "\u0642\u0631\u064a\u0629 \u0627\u0644\u0632\u0631\u0643\u0627\u0646", "name:ar1": "\u0642\u0631\u064a\u0629 \u0633\u064a\u062f \u0639\u0644\u064a", "name:de": "Qaryat Sayyid Ali", "name:en": "Qaryat Sayyid Ali", "name:fr": "Qaryat Sayyid Ali", "place": "village"}}, {"type": "node", "id": 2484028291, "lat": 32.329467, "lon": 45.915551, "tags": {"alt_name": "\u0633\u064a\u062f \u0639\u0628\u062f \u0627\u0644\u0639\u0638\u064a\u0645", "int_name": "Sayyid Abd al Az\u0327\u012bm, \u0633\u064a\u062f \u0639\u0628\u062f \u0627\u0644\u0639\u0638\u064a\u0645, Sayyid Abd al Azim, \u0633\u064a\u062f \u0639\u0628\u062f \u0627\u0644\u0639\u0638\u064a\u0645", "is_in": "Iraq , \u062c\u0645\u0647\u0648\u0631\u064a\u0629 \u0627\u0644\u0639\u0631\u0627\u0642", "name": "\u0633\u064a\u062f \u0643\u0627\u0645\u0644 \u0639\u0628\u062f \u0627\u0644\u0639\u0638\u064a\u0645 \u0627\u0644\u064a\u0627\u0633\u0631\u064a", "name:ar": "\u0633\u064a\u062f \u0639\u0628\u062f \u0627\u0644\u0639\u0638\u064a\u0645 \u0627\u0644\u064a\u0627\u0633\u0631\u064a", "name:ar1": "\u0633\u064a\u062f \u0639\u0628\u062f \u0627\u0644\u0639\u0638\u064a\u0645", "name:de": "Sayyid Abd al Azim", "name:en": "Sayyid Abd al Azim", "name:fr": "Sayyid Abd al Azim", "place": "village"}}, {"type": "node", "id": 2484041094, "lat": 32.528453, "lon": 45.811033, "tags": {"alt_name": "\u0627\u0644\u0645\u062e\u0637\u0645", "int_name": "Al Mukha\u0163\u0163am, \u0627\u0644\u0645\u062e\u0637\u0645, Al Mukhattam, \u0627\u0644\u0645\u062e\u0637\u0645", "is_in": "Iraq , \u062c\u0645\u0647\u0648\u0631\u064a\u0629 \u0627\u0644\u0639\u0631\u0627\u0642", "name": "\u0627\u0644\u0645\u062e\u0637\u0645", "name:ar": "\u0627\u0644\u0645\u0646\u062a\u0632\u0647", "name:ar1": "\u0627\u0644\u0645\u062e\u0637\u0645", "name:de": "Al Mukhattam", "name:en": "Al Muntazah", "name:fr": "Al Mukhattam", "place": "hamlet"}}, {"type": "node", "id": 2484041560, "lat": 32.5091827, "lon": 45.8448455, "tags": {"alt_name": "\u0623\u0645 \u0647\u064a\u0644\u0627\u0646\u0629", "int_name": "Umm H\u012bl\u0101nah, \u0627\u0645 \u0647\u064a\u0644\u0627\u0646\u0647, Umm Hilanah, \u0627\u0645 \u0647\u064a\u0644\u0627\u0646\u0647", "is_in": "Iraq , \u062c\u0645\u0647\u0648\u0631\u064a\u0629 \u0627\u0644\u0639\u0631\u0627\u0642", "name": "\u0623\u0645 \u0647\u064a\u0644\u0627\u0646\u0629", "name:ar": "\u0623\u0645 \u0647\u064a\u0644\u0627\u0646\u0629", "name:ar1": "\u0623\u0645 \u0647\u064a\u0644\u0627\u0646\u0629", "name:de": "Umm Hilanah", "name:en": "Umm Hilanah", "name:fr": "Umm Hilanah", "place": "village"}}, {"type": "node", "id": 2484044328, "lat": 32.3835579, "lon": 45.6843997, "tags": {"alt_name": "\u0623\u0643\u0631\u064a\u0634", "int_name": "Akrayish, \u0627\u0643\u0631\u064a\u0634, Akrayish, \u0627\u0643\u0631\u064a\u0634", "is_in": "Iraq , \u062c\u0645\u0647\u0648\u0631\u064a\u0629 \u0627\u0644\u0639\u0631\u0627\u0642", "name": "\u0623\u0643\u0631\u064a\u0634", "name:ar": "\u0623\u0643\u0631\u064a\u0634", "name:ar1": "\u0623\u0643\u0631\u064a\u0634", "name:de": "Akrayish", "name:en": "Akrayish", "name:fr": "Akrayish", "place": "village"}}, {"type": "node", "id": 2484044397, "lat": 32.2760942, "lon": 45.682035, "tags": {"alt_name": "\u0627\u0644\u0645\u0642\u0627\u0644\u064a\u0645", "int_name": "Al Maq\u0101l\u012bm, \u0627\u0644\u0645\u0642\u0627\u0644\u064a\u0645, Al Maqalim, \u0627\u0644\u0645\u0642\u0627\u0644\u064a\u0645", "is_in": "Iraq , \u062c\u0645\u0647\u0648\u0631\u064a\u0629 \u0627\u0644\u0639\u0631\u0627\u0642", "name": "\u0627\u0644\u0645\u0642\u0627\u0644\u064a\u0645", "name:ar": "\u0627\u0644\u0645\u0642\u0627\u0644\u064a\u0645", "name:ar1": "\u0627\u0644\u0645\u0642\u0627\u0644\u064a\u0645", "name:de": "Al Maqalim", "name:en": "Al Maqalim", "name:fr": "Al Maqalim", "name:ru": "\u042d\u043b\u044c-\u041c\u0430\u0437\u0430\u043b\u0438\u043c", "place": "village"}}, {"type": "node", "id": 2484044590, "lat": 32.3, "lon": 45.766667, "tags": {"alt_name": "\u064a\u0648\u0633\u0641 \u0639\u0628\u062f \u0627\u0644\u0644\u0647", "int_name": "Y\u016bsaf Abd All\u0101h, Y\u016bsuf Abd All\u0101h, Y\u016bsuf Abdulla, Yusaf Abd Allah, Yusuf Abd Allah, Yusuf Abdulla", "is_in": "Iraq , \u062c\u0645\u0647\u0648\u0631\u064a\u0629 \u0627\u0644\u0639\u0631\u0627\u0642", "name": "\u064a\u0648\u0633\u0641 \u0639\u0628\u062f \u0627\u0644\u0644\u0647", "name:ar": "\u064a\u0648\u0633\u0641 \u0639\u0628\u062f \u0627\u0644\u0644\u0647", "name:ar1": "\u064a\u0648\u0633\u0641 \u0639\u0628\u062f \u0627\u0644\u0644\u0647", "name:de": "Yusaf Abd Allah", "name:en": "Yusaf Abd Allah", "name:fr": "Yusaf Abd Allah", "name:ru": "\u042e\u0441\u0443\u0444-\u0410\u0431\u0434\u0430\u043b\u043b\u0430\u0445", "place": "village"}}, {"type": "node", "id": 2484046070, "lat": 32.5629846, "lon": 45.6612875, "tags": {"alt_name": "\u0645\u0632\u0639\u0644 \u0627\u0644\u0631\u0634\u064a\u062f", "int_name": "Mazal ar Rash\u012bd, \u0645\u0632\u0639\u0644 \u0627\u0644\u0631\u0634\u064a\u062f, Mazal ar Rashid, \u0645\u0632\u0639\u0644 \u0627\u0644\u0631\u0634\u064a\u062f", "is_in": "Iraq , \u062c\u0645\u0647\u0648\u0631\u064a\u0629 \u0627\u0644\u0639\u0631\u0627\u0642", "name": "\u0645\u0632\u0639\u0644 \u0627\u0644\u0631\u0634\u064a\u062f", "name:ar": "\u0645\u0632\u0639\u0644 \u0627\u0644\u0631\u0634\u064a\u062f", "name:ar1": "\u0645\u0632\u0639\u0644 \u0627\u0644\u0631\u0634\u064a\u062f", "name:de": "Mazal ar Rashid", "name:en": "Mazal ar Rashid", "name:fr": "Mazal ar Rashid", "place": "village"}}, {"type": "node", "id": 2484046076, "lat": 32.5632299, "lon": 45.6614621, "tags": {"alt_name": "\u0645\u0632\u0627\u0631 \u0627\u0644\u0631\u0634\u064a\u062f", "int_name": "Maz\u0101r ar Rash\u012bd, Mazar ar Rashid", "name": "\u0645\u0632\u0627\u0631 \u0627\u0644\u0631\u0634\u064a\u062f", "name:ar": "\u0645\u0632\u0627\u0631 \u0627\u0644\u0631\u0634\u064a\u062f", "name:ar1": "\u0645\u0632\u0627\u0631 \u0627\u0644\u0631\u0634\u064a\u062f", "name:de": "Mazar ar Rashid", "name:en": "Mazar ar Rashid", "name:fr": "Mazar ar Rashid", "place": "village"}}, {"type": "node", "id": 2484046082, "lat": 32.5628497, "lon": 45.6618551, "tags": {"alt_name": "\u0645\u0632\u0631 \u0627\u0644\u0631\u0634\u064a\u062f", "int_name": "Mazr al Rash\u012bd, Mazr al Rashid", "is_in": "Iraq , \u062c\u0645\u0647\u0648\u0631\u064a\u0629 \u0627\u0644\u0639\u0631\u0627\u0642", "name": "\u0645\u0632\u0631 \u0627\u0644\u0631\u0634\u064a\u062f", "name:ar": "\u0645\u0632\u0631 \u0627\u0644\u0631\u0634\u064a\u062f", "name:ar1": "\u0645\u0632\u0631 \u0627\u0644\u0631\u0634\u064a\u062f", "name:de": "Mazr al Rashid", "name:en": "Mazr al Rashid", "name:fr": "Mazr al Rashid", "place": "village"}}, {"type": "node", "id": 2484053357, "lat": 32.521401, "lon": 45.60258, "tags": {"alt_name": "Al A\u1e29r\u0101r, \u0627\u0644\u0623\u062d\u0631\u0627\u0631, Al Ahrar, \u0627\u0644\u0623\u062d\u0631\u0627\u0631", "capital": "7", "int_name": "Al Ahrar - \u0627\u0644\u0623\u062d\u0631\u0627\u0631", "is_in": "Iraq , \u062c\u0645\u0647\u0648\u0631\u064a\u0629 \u0627\u0644\u0639\u0631\u0627\u0642", "name": "\u0627\u0644\u0623\u062d\u0631\u0627\u0631", "name:ar": "\u0627\u0644\u0623\u062d\u0631\u0627\u0631", "name:de": "Al Ahrar", "name:en": "Al Ahrar", "name:fr": "Al Ahrar", "place": "town", "wikidata": "Q10404165", "wikipedia": "en:Al-Ahrar subdistrict"}}, {"type": "node", "id": 3091103341, "lat": 32.4563871, "lon": 46.075404, "tags": {"capital": "7", "int_name": "Wasit - \u0648\u0627\u0633\u0637", "name": "\u0648\u0627\u0633\u0637", "name:ar": "\u0648\u0627\u0633\u0637", "name:en": "Wasit", "place": "town"}}, {"type": "node", "id": 3091115121, "lat": 32.1712387, "lon": 46.0475468, "tags": {"alt_name": "Al \u1e28ayy, Kut al Hai, \u0627\u0644\u062d\u064a, Al Hai, Al Hay, Al Hayy, Kut al Hai, \u0627\u0644\u062d\u064a", "alt_name:ar": "\u0642\u0636\u0627\u0621 \u0627\u0644\u062d\u064a", "capital": "6", "name": "\u0627\u0644\u062d\u064a", "name:ar": "\u0627\u0644\u062d\u064a", "name:en": "Al Hai", "name:fr": "Al-Hay", "name:ja": "\u30cf\u30a4\u30a4", "name:ru": "\u042d\u043b\u044c-\u0425\u0430\u0439", "name:ur": "\u0627\u0644\u062d\u06cc", "place": "town", "population": "41079", "population:date": "2012", "wikidata": "Q2350519", "wikipedia": "ar:\u0627\u0644\u062d\u064a (\u0627\u0644\u0639\u0631\u0627\u0642)"}}, {"type": "node", "id": 4477391625, "lat": 32.205802, "lon": 45.6712644, "tags": {"place": "hamlet"}}, {"type": "node", "id": 4477392084, "lat": 32.4487496, "lon": 45.6951267, "tags": {"place": "village"}}, {"type": "node", "id": 5000530791, "lat": 32.1705496, "lon": 45.7293624, "tags": {"place": "hamlet"}}, {"type": "node", "id": 5000590872, "lat": 32.1706223, "lon": 45.7308966, "tags": {"place": "hamlet"}}, {"type": "node", "id": 5000590873, "lat": 32.1677706, "lon": 45.7315779, "tags": {"place": "hamlet"}}, {"type": "node", "id": 5000641591, "lat": 32.1438867, "lon": 45.7573807, "tags": {"place": "village"}}, {"type": "node", "id": 5000644927, "lat": 32.1855648, "lon": 45.7551384, "tags": {"place": "village"}}, {"type": "node", "id": 6618164689, "lat": 32.270896, "lon": 45.936563, "tags": {"fixme": "name", "place": "village", "source": "bing"}}]}