{"version": 0.6, "generator": "Overpass API 0.7.61.5 4133829e", "osm3s": {"timestamp_osm_base": "2024-03-06T11:04:23Z", "copyright": "The data included in this document is from www.openstreetmap.org. The data is made available under ODbL."}, "elements": [{"type": "node", "id": 562728986, "lat": 1.1698853, "lon": 34.3371107, "tags": {"amenity": "school", "name": "Namapo Secondary School"}}, {"type": "node", "id": 562728999, "lat": 1.2376648, "lon": 34.2872118, "tags": {"amenity": "school", "isced:level": "2;3;4", "name": "Buhugu Secondary School", "wikidata": "Q23134587"}}, {"type": "node", "id": 3818818318, "lat": 1.1700501, "lon": 34.3370675}, {"type": "node", "id": 3818818319, "lat": 1.16995, "lon": 34.3372848}, {"type": "node", "id": 3818818320, "lat": 1.1696589, "lon": 34.3371692}, {"type": "node", "id": 3818818321, "lat": 1.1697406, "lon": 34.3369797}, {"type": "node", "id": 3946084583, "lat": 1.1658444, "lon": 34.1579951, "tags": {"addr:city": "Mbale", "amenity": "school", "name": "Amusi Primary school", "opening_hours": "Mo-Sa 08:00-18:00"}}, {"type": "node", "id": 3948078593, "lat": 1.1586884, "lon": 34.1999759, "tags": {"addr:city": "Mbale", "amenity": "school", "isced:level": "1", "name": "Namengo Primary School", "opening_hours": "Mo-Sa 08:00-18:00", "wikidata": "Q23134296"}}, {"type": "node", "id": 3953636035, "lat": 1.1728695, "lon": 34.3304944, "tags": {"addr:city": "Budadiri Town Council", "amenity": "school", "name": "Ambassadors preparatory Primary school"}}, {"type": "node", "id": 3953636036, "lat": 1.1709709, "lon": 34.3295717, "tags": {"addr:city": "Budadiri Town Council", "amenity": "school", "name": "Budadiri Boys Day and Boarding Primary School"}}, {"type": "node", "id": 3953636038, "lat": 1.168051, "lon": 34.3390464, "tags": {"addr:city": "Budadiri Town Council", "amenity": "school", "name": "Budadiri Comprehensive Secondary School"}}, {"type": "node", "id": 3953636039, "lat": 1.1726765, "lon": 34.3302798, "tags": {"addr:city": "Budadiri Town Council", "amenity": "school", "name": "Budadiri Girls Secondary School"}}, {"type": "node", "id": 3953636041, "lat": 1.1738242, "lon": 34.3344426, "tags": {"addr:city": "Budadiri Town Council", "amenity": "school", "name": "Budadiri Junior School"}}, {"type": "node", "id": 3953636044, "lat": 1.2180388, "lon": 34.3207741, "tags": {"addr:city": "Bumalimba", "amenity": "school", "name": "Buhugu Primary School", "opening_hours": "Mo-Sa 09:00-18:00"}}, {"type": "node", "id": 3953636048, "lat": 1.2188755, "lon": 34.3278122, "tags": {"addr:city": "Bumalimba", "addr:street": "Bumulisya Road", "amenity": "school", "isced:level": "1", "name": "Bumuliya Primary School", "opening_hours": "Mo-Sa 09:00-18:00", "wikidata": "Q22680452"}}, {"type": "node", "id": 3953636051, "lat": 1.2147351, "lon": 34.3261814, "tags": {"addr:city": "Bumalimba", "addr:street": "Bumalimba Road", "amenity": "school", "isced:level": "2;3;4", "name": "Elgon High Christian School", "opening_hours": "Mo-Sa 09:00-18:00", "wikidata": "Q22680451"}}, {"type": "node", "id": 3953636052, "lat": 1.2115041, "lon": 34.3219222, "tags": {"addr:city": "Buhugu", "addr:street": "Bumalimba Road", "amenity": "school", "isced:level": "1", "name": "Elgon Junior Christian Primary School", "opening_hours": "Mo-Sa 08:00-18:00", "wikidata": "Q22680450"}}, {"type": "node", "id": 3953636055, "lat": 1.2060038, "lon": 34.2981148, "tags": {"addr:city": "Buhugu", "addr:street": "Mutufu Budadiri Road", "amenity": "school", "name": "Ginamas Junior School", "opening_hours": "Mo-Fr 09:00-17:00"}}, {"type": "node", "id": 3953637057, "lat": 1.2051027, "lon": 34.3012047, "tags": {"addr:city": "Buhugu", "addr:street": "Mutufu Budadiri Road", "amenity": "school", "name": "Good Hope Primary school", "opening_hours": "Mo-Sa 09:00-17:00"}}, {"type": "node", "id": 3953637059, "lat": 1.2011983, "lon": 34.3013763, "tags": {"addr:city": "Buhugu", "addr:street": "Mutufu Budadiri Road", "amenity": "school", "name": "Jiam Primary School", "opening_hours": "Mo-Sa 08:00-18:00"}}, {"type": "node", "id": 3953637065, "lat": 1.1612312, "lon": 34.3451071, "tags": {"addr:city": "Busulani", "amenity": "school", "name": "Masada Secondary School"}}, {"type": "node", "id": 3953637067, "lat": 1.2086911, "lon": 34.3172123, "tags": {"addr:city": "Buhugu", "addr:street": "Bumalimba Road", "amenity": "school", "name": "Mutufu Global Vision Secondary", "opening_hours": "Mo-Sa 08:00-18:00"}}, {"type": "node", "id": 3953637072, "lat": 1.2185108, "lon": 34.2975998, "tags": {"addr:city": "Buhugu", "addr:street": "Mutufu Budadiri Road", "amenity": "school", "name": "ST. Andrews Church Primary school", "opening_hours": "Mo-Sa 09:00-17:00"}}, {"type": "node", "id": 3953637075, "lat": 1.2180817, "lon": 34.2978144, "tags": {"addr:city": "Buhugu", "addr:street": "Mutufu Budadiri Road", "amenity": "school", "name": "Sironko District Committee", "opening_hours": "Mo-Sa 09:00-17:00"}}, {"type": "node", "id": 3953637081, "lat": 1.2185537, "lon": 34.2975998, "tags": {"addr:city": "Buhugu", "addr:street": "Mutufu Budadiri Road", "amenity": "school", "name": "Victory Church Primary School", "opening_hours": "Mo-Sa 08:00-18:00"}}, {"type": "node", "id": 3953637082, "lat": 1.1683007, "lon": 34.340111, "tags": {"addr:city": "Budadiri Town Council", "amenity": "school", "name": "William Foundation School"}}, {"type": "node", "id": 3953637083, "lat": 1.2175883, "lon": 34.297986, "tags": {"addr:city": "Buhugu", "addr:street": "Mutufu Budadiri Road", "amenity": "school", "name": "Yomako Secondary School", "opening_hours": "Mo-Sa 09:00-18:00"}}, {"type": "node", "id": 3954021720, "lat": 1.1924329, "lon": 34.2412641, "tags": {"addr:city": "Bukiyi", "addr:street": "Bukumbale Road", "amenity": "school", "isced:level": "1", "name": "Bukumbale Primary School", "opening_hours": "Mo-Fr 09:00-17:00", "wikidata": "Q23133393"}}, {"type": "node", "id": 3954021725, "lat": 1.1931865, "lon": 34.2401977, "tags": {"addr:city": "Bukiyi", "addr:street": "Bukumbale Road", "amenity": "school", "isced:level": "1", "name": "Buyaya Primary School", "opening_hours": "Mo-Fr 09:00-17:00", "wikidata": "Q23133366"}}, {"type": "node", "id": 3954021726, "lat": 1.1618636, "lon": 34.2960159, "tags": {"addr:city": "Buyobo", "addr:street": "Mutufu Road", "amenity": "school", "name": "Buyobo Community Secondary School", "opening_hours": "Mo-Fr 09:00-17:00"}}, {"type": "node", "id": 3954021737, "lat": 1.1721457, "lon": 34.3058848, "tags": {"addr:city": "Buyobo", "addr:street": "Mutufu Road", "amenity": "school", "name": "Nakidega Primary School", "opening_hours": "Mo-Fr 09:00-17:00"}}, {"type": "node", "id": 3954839486, "lat": 1.1820018, "lon": 34.2136411, "tags": {"addr:city": "Bukiyi", "addr:street": "Bukigalabo Street", "amenity": "school", "isced:level": "1", "name": "Bukigalabo Primary School", "opening_hours": "Mo-Fr 09:00-17:00", "wikidata": "Q23132152"}}, {"type": "node", "id": 3954839487, "lat": 1.1841195, "lon": 34.2199212, "tags": {"addr:city": "Bukiyi", "amenity": "school", "isced:level": "1", "name": "Bukiyi Primary School", "opening_hours": "Mo-Fr 09:00-17:00", "wikidata": "Q23132086"}}, {"type": "node", "id": 3954839491, "lat": 1.1681909, "lon": 34.1979184, "tags": {"addr:city": "Bukiyi", "addr:street": "Mbale Sironko Road", "amenity": "school", "isced:level": "2;3;4", "name": "Kiwagalo High School", "opening_hours": "Mo-Fr 09:00-17:00", "wikidata": "Q23132004"}}, {"type": "node", "id": 3954839495, "lat": 1.1672096, "lon": 34.1965008, "tags": {"addr:city": "Bukiyi", "amenity": "school", "isced:level": "1", "name": "Nabenekwa Primary School", "opening_hours": "Mo-Fr 09:00-17:00", "wikidata": "Q23132011"}}, {"type": "node", "id": 3954839501, "lat": 1.2030675, "lon": 34.2157666, "tags": {"addr:city": "Bukiyi", "amenity": "school", "isced:level": "1", "name": "Soola Primary School", "opening_hours": "Mo-Fr 09:00-17:00", "wikidata": "Q23131995"}}, {"type": "node", "id": 3955006905, "lat": 1.2258798, "lon": 34.3122983, "tags": {"addr:city": "Bukiise Sub County", "amenity": "school", "name": "Bukiise Primary school", "opening_hours": "Mo-Sa 08:00-18:00"}}, {"type": "node", "id": 3955006906, "lat": 1.2373475, "lon": 34.2924515, "tags": {"addr:city": "Bukiise Sub County", "amenity": "school", "isced:level": "0;1", "name": "Hope Land Nursery and Primary School", "opening_hours": "Mo-Sa 08:00-18:00", "wikidata": "Q23132115"}}, {"type": "node", "id": 3955006911, "lat": 1.2379979, "lon": 34.2867035, "tags": {"addr:city": "Bukiise Sub County", "amenity": "school", "isced:level": "1", "name": "Salaria Primary School", "opening_hours": "Mo-Sa 08:00-18:00", "wikidata": "Q23132050"}}, {"type": "node", "id": 3955006913, "lat": 1.2256051, "lon": 34.3115751, "tags": {"addr:city": "Bukiise Sub County", "amenity": "school", "name": "St Joseph Primary school", "opening_hours": "Mo-Sa 08:00-18:00"}}, {"type": "node", "id": 3955147855, "lat": 1.2364989, "lon": 34.329958, "tags": {"addr:city": "Butandiga", "amenity": "school", "isced:level": "1", "name": "Butandiga Elgon Parents Primary School", "wikidata": "Q23134602"}}, {"type": "node", "id": 3955147961, "lat": 1.252009, "lon": 34.3113079, "tags": {"addr:city": "Butandiga", "amenity": "school", "isced:level": "1", "name": "Mbata Primary School", "wikidata": "Q23134246"}}, {"type": "node", "id": 3955147963, "lat": 1.2376574, "lon": 34.3292284, "tags": {"addr:city": "Butandiga", "amenity": "school", "isced:level": "1", "name": "Mbaya Primary School", "opening_hours": "Mo-Fr 6:30-17:00", "wikidata": "Q23134240"}}, {"type": "node", "id": 3955382754, "lat": 1.2224568, "lon": 34.2060136, "tags": {"addr:city": "Bukhulo Sub County", "amenity": "school", "isced:level": "1", "name": "Bukhulo Primary School", "opening_hours": "Mo-Fr 09:00-17:00", "wikidata": "Q23134567"}}, {"type": "node", "id": 3955387757, "lat": 1.2256424, "lon": 34.2106279, "tags": {"addr:city": "Bukhulo Sub County", "amenity": "school", "name": "Elgon Primary Teachers College", "opening_hours": "Mo-Fr 09:00-17:00"}}, {"type": "node", "id": 3955387762, "lat": 1.2090408, "lon": 34.1976579, "tags": {"addr:city": "Bukhulo Sub County", "addr:street": "Sironko Kapchorwa Road", "amenity": "school", "isced:level": "1", "name": "Mpogo Primary School", "opening_hours": "Mo-Fr 09:00-17:00", "wikidata": "Q23131988"}}, {"type": "node", "id": 3955387769, "lat": 1.1745072, "lon": 34.1945464, "tags": {"addr:city": "Bukhulo Sub County", "addr:street": "Sironko Kapchorwa Road", "amenity": "school", "name": "St Jude Secondary School", "opening_hours": "Mo-Fr 09:00-17:00"}}, {"type": "node", "id": 3956304246, "lat": 1.47545, "lon": 34.0841252, "tags": {"addr:city": "Koreng", "addr:county": "Bukedea", "addr:district": "Bukedea", "addr:parish": "Koreng", "addr:subcounty": "Malera", "amenity": "school", "isced:level": "1", "name": "Koreng Primary School", "opening_hours": "Mo-Fr 08:00-17:00", "operator:type": "public", "source": "www.ubos.org", "source:date": "2010..2014", "wheelchair": "no", "wikidata": "Q22667871"}}, {"type": "node", "id": 3956330431, "lat": 1.4709107, "lon": 34.0710523, "tags": {"amenity": "school", "name": "Kamailuk Primary School", "opening_hours": "Mo-Fr 08:00-17:00"}}, {"type": "node", "id": 3956459936, "lat": 1.4353474, "lon": 34.0622651, "tags": {"addr:city": "Malera", "addr:county": "Bukedea", "addr:district": "Bukedea", "addr:parish": "Malera", "addr:subcounty": "Malera", "amenity": "school", "isced:level": "1", "name": "Malera Primary School", "opening_hours": "Mo-Fr 08:00-17:00", "source": "www.ubos.org", "source:date": "2010..2014", "wikidata": "Q22667887"}}, {"type": "node", "id": 3956459937, "lat": 1.4331768, "lon": 34.0611037, "tags": {"addr:city": "Kanyanga", "addr:county": "Bukedea", "addr:district": "Bukedea", "addr:parish": "Malera", "addr:subcounty": "Malera", "amenity": "school", "isced:level": "2;3;4", "name": "Malera Secondary School", "opening_hours": "Mo-Fr 08:00-17:00", "operator:type": "public", "source": "www.ubos.org", "source:date": "2010..2014", "wikidata": "Q22667838"}}, {"type": "node", "id": 3956651973, "lat": 1.3928946, "lon": 34.0917356, "tags": {"addr:city": "Kachede", "addr:county": "Bukedea", "addr:district": "Bukedea", "addr:parish": "Kachede", "addr:subcounty": "Malera", "amenity": "school", "isced:level": "1", "name": "Kachede Primary School", "opening_hours": "Mo-Fr 08:00-17:00", "operator:type": "public", "source": "www.ubos.org", "source:date": "2010..2014", "wikidata": "Q22667475"}}, {"type": "node", "id": 3958366561, "lat": 1.3203901, "lon": 34.2881446, "tags": {"addr:city": "Bulambuli Town Coucil", "amenity": "school", "isced:level": "1", "name": "Bright Primary School", "opening_hours": "Mo-Sa 09:00-17:00", "wikidata": "Q23132189"}}, {"type": "node", "id": 3958366564, "lat": 1.3188196, "lon": 34.2946997, "tags": {"addr:city": "Bulambuli Town Coucil", "amenity": "school", "isced:level": "1", "name": "Bungwanyi Muslim Primary School", "opening_hours": "Mo-Sa 08:00-18:00", "religion": "muslim", "wikidata": "Q23132170"}}, {"type": "node", "id": 3958366569, "lat": 1.3183535, "lon": 34.2901318, "tags": {"addr:city": "Bulambuli Town Coucil", "amenity": "school", "name": "Montessori Academy", "opening_hours": "Mo-Sa 08:00-18:00", "wikidata": "Q23132162"}}, {"type": "node", "id": 3958366570, "lat": 1.3203521, "lon": 34.2964331, "tags": {"addr:city": "Bulambuli Town Coucil", "amenity": "school", "isced:level": "1", "name": "Muyembe Boys Primary School", "opening_hours": "Mo-Fr 07:00-18:00", "wikidata": "Q23132133"}}, {"type": "node", "id": 3958366571, "lat": 1.3209125, "lon": 34.2967014, "tags": {"addr:city": "Bulambuli Town Coucil", "amenity": "school", "name": "Muyembe Girls", "opening_hours": "Mo-Fr 09:00-17:00"}}, {"type": "node", "id": 3958366572, "lat": 1.3158661, "lon": 34.2919051, "tags": {"addr:city": "Bulambuli Town Coucil", "amenity": "school", "isced:level": "1", "name": "Muyembe Parents Primary School", "opening_hours": "Mo-Sa 08:00-18:00", "wikidata": "Q23132093"}}, {"type": "node", "id": 3958366573, "lat": 1.3230239, "lon": 34.29872, "tags": {"addr:city": "Bulambuli Town Coucil", "amenity": "school", "name": "Saint Peter's Primary School", "opening_hours": "Mo-Fr 08:00-18:00; Sa-Su 08:00-15:00;Mo-Fr 09:00-17:00"}}, {"type": "node", "id": 3958413654, "lat": 1.3464558, "lon": 34.349644, "tags": {"addr:city": "Kawowo", "amenity": "school", "isced:level": "1", "name": "Kapsukunyo Primary School", "wikidata": "Q23132511"}}, {"type": "node", "id": 3958413958, "lat": 1.3183289, "lon": 34.3266106, "tags": {"addr:city": "Kaserem", "amenity": "school", "isced:level": "0;1", "name": "Kaserem Parents Nursery and Primary School", "wikidata": "Q23134167"}}, {"type": "node", "id": 3958413959, "lat": 1.3176407, "lon": 34.3346344, "tags": {"addr:city": "Kaserem", "amenity": "school", "isced:level": "1", "name": "Kaserem Primary School", "wikidata": "Q23134172"}}, {"type": "node", "id": 3958413960, "lat": 1.3198352, "lon": 34.3307011, "tags": {"addr:city": "Asikenwo", "addr:county": "Tingey", "addr:district": "Kapchorwa", "addr:parish": "Sirimityo", "addr:subcounty": "Kaserem", "amenity": "school", "isced:level": "2;3;4", "name": "Kaserem Secondary School", "source": "www.ubos.org", "source:date": "2010..2014", "wikidata": "Q23134177"}}, {"type": "node", "id": 3958413961, "lat": 1.3327606, "lon": 34.3399518, "tags": {"addr:city": "Kawowo", "addr:county": "Tingey", "addr:district": "Kapchorwa", "addr:parish": "Kimawa", "addr:subcounty": "Kawowo", "amenity": "school", "isced:level": "2;3;4", "name": "Kawowo Secondary School", "operator:type": "private", "source": "www.ubos.org", "source:date": "2010..2014", "wikidata": "Q23134183"}}, {"type": "node", "id": 3958413962, "lat": 1.3388373, "lon": 34.3472382, "tags": {"addr:city": "Kawowo", "addr:county": "Tingey", "addr:district": "Kapchorwa", "addr:parish": "Kobil", "addr:subcounty": "Kawowo", "amenity": "school", "isced:level": "1", "name": "Kobil Primary School", "operator:type": "public", "source": "www.ubos.org", "source:date": "2010..2014", "wikidata": "Q23134194"}}, {"type": "node", "id": 3958420179, "lat": 1.3272427, "lon": 34.2501474, "tags": {"addr:city": "Bukhalu", "amenity": "school", "isced:level": "2;3;4", "name": "Bukhalu Seed Secondary school", "opening_hours": "Mo-Sa 08:00-17:00", "wikidata": "Q22680479"}}, {"type": "node", "id": 3958420180, "lat": 1.3074773, "lon": 34.2550743, "tags": {"addr:city": "Bukhalu A", "addr:county": "Bulambuli", "addr:district": "Bulambuli", "addr:parish": "Bukhalu", "addr:subcounty": "Bukhalu", "amenity": "school", "isced:level": "1", "name": "Bukhalu Primary School", "opening_hours": "Mo-Fr 08:00-17:00", "operator": "Public", "source": "www.ubos.org", "source:date": "2010..2014", "wikidata": "Q22680480"}}, {"type": "node", "id": 3958420181, "lat": 1.2890393, "lon": 34.2564661, "tags": {"addr:city": "Ngwayi", "addr:county": "Bulambuli", "addr:district": "Bulambuli", "addr:parish": "Bunalwere", "addr:subcounty": "Bukhalu", "amenity": "school", "isced:level": "1", "name": "Bunalwere Primary School", "opening_hours": "Mo-Fr 08:00-17:00", "operator": "Public", "source": "www.ubos.org", "source:date": "2010..2014", "wikidata": "Q22680481"}}, {"type": "node", "id": 3958420185, "lat": 1.3261354, "lon": 34.2503935, "tags": {"addr:city": "Bunambutye", "addr:county": "Bulambuli", "addr:district": "Bulambuli", "addr:parish": "Bunambutye", "addr:subcounty": "Bukhalu", "amenity": "school", "isced:level": "1", "name": "Nyote Memorial Primary School", "opening_hours": "Mo-Fr 08:00-17:00", "source": "www.ubos.org", "source:date": "2010..2014", "wikidata": "Q22680482"}}, {"type": "node", "id": 3958420790, "lat": 1.4078191, "lon": 34.3507043, "tags": {"addr:city": "Bunambutye", "addr:street": "Moroto", "amenity": "school", "isced:level": "1", "name": "Newlight Primary", "opening_hours": "Mo-Sa 09:00-17:00", "wikidata": "Q23069687"}}, {"type": "node", "id": 3958426612, "lat": 1.1882355, "lon": 34.1411057, "tags": {"addr:city": "Nyakoi", "addr:county": "Bukedea", "addr:district": "Bukedea", "addr:parish": "Kabwalin", "addr:street": "Lira-Mbale Road", "addr:subcounty": "Kachumbala", "amenity": "school", "isced:level": "1", "name": "Akwari Kwari Primary School", "source": "www.ubos.org", "source:date": "2010..2014", "wikidata": "Q22679992"}}, {"type": "node", "id": 3958426614, "lat": 1.2323532, "lon": 34.1572022}, {"type": "node", "id": 3958426615, "lat": 1.2323156, "lon": 34.1572063}, {"type": "node", "id": 3958426616, "lat": 1.1792047, "lon": 34.1686543, "tags": {"addr:city": "Sapir", "addr:county": "Bukedea", "addr:district": "Bukedea", "addr:parish": "Amus", "addr:subcounty": "Kachumbala", "amenity": "school", "isced:level": "1", "name": "Amus Sapir Primary School", "opening_hours": "Mo-Fr 08:00-17:00", "operator:type": "Public", "source": "www.ubos.org", "source:date": "2010..2014", "wikidata": "Q22680007"}}, {"type": "node", "id": 3958426617, "lat": 1.2886597, "lon": 34.1148892, "tags": {"addr:city": "Kachumbala", "addr:county": "Bukedea", "addr:district": "Bukedea", "addr:parish": "Kapaang", "addr:subcounty": "Kachumbala", "amenity": "school", "isced:level": "1", "name": "Kapaang Primary School", "opening_hours": "Mo-Fr 08:00-17:00", "operator": "Public", "source": "www.ubos.org", "source:date": "2010..2014", "wikidata": "Q22680538"}}, {"type": "node", "id": 3958426618, "lat": 1.2686007, "lon": 34.1086009, "tags": {"addr:city": "Kapaang", "addr:county": "Bukedea", "addr:district": "Bukedea", "addr:parish": "Kapaang", "addr:subcounty": "Kachumbala", "amenity": "school", "isced:level": "1", "name": "Aputiput Primary School", "opening_hours": "Mo-Fr 08:00-18:00", "operator": "Public", "source": "www.ubos.org", "source:date": "2010..2014", "wikidata": "Q22680539"}}, {"type": "node", "id": 3958426619, "lat": 1.2263868, "lon": 34.0660464, "tags": {"addr:city": "Kachumbala", "amenity": "school", "isced:level": "0;1", "name": "Bright Future Nursery and Primary School", "opening_hours": "Mo-Sa 08:00-18:00", "wikidata": "Q22809310"}}, {"type": "node", "id": 3958426623, "lat": 1.1744259, "lon": 34.1505217, "tags": {"addr:city": "Kachuru", "addr:county": "Bukedea", "addr:district": "Bukedea", "addr:parish": "Kachuru", "addr:street": "Mbale-Soroti Road", "addr:subcounty": "Kachumbala", "amenity": "school", "isced:level": "1", "name": "Father Philan Amus's Primary School", "opening_hours": "Mo-Fr 08:00-17:00", "source": "www.ubos.org", "source:date": "2010..2014", "wikidata": "Q46084482"}}, {"type": "node", "id": 3958426624, "lat": 1.1762059, "lon": 34.151188, "tags": {"addr:city": "Kachumbala", "addr:street": "Mbale-Soroti Road", "amenity": "school", "name": "Father Philan Amus's Primary School", "opening_hours": "Mo-Fr 08:00-18:00"}}, {"type": "node", "id": 3958426631, "lat": 1.209486, "lon": 34.1098079, "tags": {"addr:city": "Kachumbala", "amenity": "school", "description": "O And A Level", "isced:level": "2;3;4", "name": "Jane Alison High School", "opening_hours": "Mo-Sa 08:00-18:00", "wikidata": "Q22680001"}}, {"type": "node", "id": 3958426634, "lat": 1.2289162, "lon": 34.1083512, "tags": {"addr:city": "Kachumbala", "addr:county": "Bukedea", "addr:district": "Bukedea", "addr:parish": "Kachumbala", "addr:street": "Kumi Road", "addr:subcounty": "Kachumbala", "amenity": "school", "isced:level": "1", "name": "Kachumbala Primary School", "opening_hours": "Mo-Sa 08:00-18:00", "source": "www.ubos.org", "source:date": "2010..2014", "wikidata": "Q22680003"}}, {"type": "node", "id": 3958426636, "lat": 1.1962008, "lon": 34.108312, "tags": {"addr:city": "Aputon", "addr:county": "Bukedea", "addr:district": "Bukedea", "addr:parish": "Otimonga", "addr:subcounty": "Kachumbala", "amenity": "school", "isced:level": "1", "name": "Kachuru Primary School", "opening_hours": "Mo-Sa 08:00-18:00", "operator:type": "Public", "source": "www.ubos.org", "source:date": "2010..2014", "wikidata": "Q22680005"}}, {"type": "node", "id": 3958426639, "lat": 1.2399562, "lon": 34.0731965, "tags": {"addr:city": "Kawo", "addr:county": "Bukedea", "addr:district": "Bukedea", "addr:parish": "Kawo", "addr:subcounty": "Kachumbala", "amenity": "school", "isced:level": "1", "name": "Kawo New Primary School", "opening_hours": "Mo-Sa 08:00-18:00", "operator:type": "public", "source": "www.ubos.org", "source:date": "2010..2014", "wikidata": "Q22667500"}}, {"type": "node", "id": 3958426640, "lat": 1.2259014, "lon": 34.0709562, "tags": {"addr:city": "Kokwakipi", "addr:county": "Bukedea", "addr:district": "Bukedea", "addr:parish": "Koutulai", "addr:subcounty": "Kachumbala", "alt_name": "Kao Primary School", "amenity": "school", "isced:level": "1", "name": "Kawo Old Primary School", "opening_hours": "Mo-Sa 08:00-18:00", "operator:type": "public", "source": "www.ubos.org", "source:date": "2010..2014", "wikidata": "Q22809309"}}, {"type": "node", "id": 3958426641, "lat": 1.2360147, "lon": 34.0950036, "tags": {"addr:city": "Kakira", "addr:county": "Bukedea", "addr:district": "Bukedea", "addr:parish": "Kawo", "addr:subcounty": "Kachumbala", "amenity": "school", "isced:level": "1", "name": "Kakira Primary School", "opening_hours": "Mo-Sa 08:00-18:00", "operator:type": "public", "source": "www.ubos.org", "source:date": "2010..2014", "wikidata": "Q22667493"}}, {"type": "node", "id": 3958426642, "lat": 1.2095396, "lon": 34.1558727, "tags": {"addr:city": "Komelekes", "addr:county": "Bukedea", "addr:district": "Bukedea", "addr:parish": "Kongunga", "addr:subcounty": "Kachumbala", "amenity": "school", "isced:level": "1", "name": "Komelekes Primary School", "opening_hours": "Mo-Fr 08:00-17:00", "source": "www.ubos.org", "source:date": "2010..2014", "wikidata": "Q22679959"}}, {"type": "node", "id": 3958426643, "lat": 1.2051176, "lon": 34.0862035, "tags": {"addr:city": "Komuge", "addr:county": "Bukedea", "addr:district": "Bukedea", "addr:parish": "Komuge", "addr:subcounty": "Kachumbala", "amenity": "school", "isced:level": "1", "name": "Komuge Primary School", "opening_hours": "Mo-Sa 08:00-18:00", "source": "www.ubos.org", "source:date": "2010..2014", "wikidata": "Q22809292"}}, {"type": "node", "id": 3958426644, "lat": 1.2103168, "lon": 34.1192862, "tags": {"addr:city": "Komuriakere", "addr:county": "Bukedea", "addr:district": "Bukedea", "addr:parish": "Kongoidi", "addr:subcounty": "Kachumbala", "alt_name": "Konga High School", "amenity": "school", "isced:level": "2;3;4", "name": "Kongunga High School", "opening_hours": "Mo-Sa 08:00-18:00", "source": "www.ubos.org", "source:date": "2010..2014", "wikidata": "Q22679962"}}, {"type": "node", "id": 3958426645, "lat": 1.2084207, "lon": 34.1198849, "tags": {"addr:city": "Kongoidi", "addr:county": "Bukedea", "addr:district": "Bukedea", "addr:parish": "Kongoidi", "addr:subcounty": "Kachumbala", "alt_name": "Konga Primary School", "amenity": "school", "isced:level": "1", "name": "Kongunga Primary School", "opening_hours": "Mo-Sa 08:00-18:00", "source": "www.ubos.org", "source:date": "2010..2014", "wikidata": "Q22679955"}}, {"type": "node", "id": 3958426646, "lat": 1.2162154, "lon": 34.1841938, "tags": {"addr:city": "Kotia", "addr:county": "Bukedea", "addr:district": "Bukedea", "addr:parish": "Kotia", "addr:subcounty": "Kachumbala", "amenity": "school", "isced:level": "1", "name": "Kotia Kachinga Primary School", "opening_hours": "Mo-Fr 08:00-17:00", "operator:type": "Public", "source": "www.ubos.org", "source:date": "2010..2014", "wikidata": "Q22679996"}}, {"type": "node", "id": 3958426647, "lat": 1.2196624, "lon": 34.0624964, "tags": {"addr:city": "Kachumbala", "amenity": "school", "isced:level": "1", "name": "Koutulai Primary School", "opening_hours": "Mo-Sa 08:00-18:00", "wikidata": "Q22809295"}}, {"type": "node", "id": 3958426649, "lat": 1.2266616, "lon": 34.1685179, "tags": {"addr:city": "Kachumbala", "addr:street": "Aligoi Road", "amenity": "school", "isced:level": "0;1", "name": "Mama Joy Nursery and Primary School", "opening_hours": "Mo-Fr 08:00-16:00", "wikidata": "Q22679998"}}, {"type": "node", "id": 3958426650, "lat": 1.2125122, "lon": 34.1200771, "tags": {"addr:city": "Kachumbala", "amenity": "school", "description": "Mixed Day And Boarding Nursery And Primary School", "name": "Mama Priscilla School", "opening_hours": "Mo-Sa 08:00-18:00", "wikidata": "Q22679999"}}, {"type": "node", "id": 3958426653, "lat": 1.2302816, "lon": 34.1950016, "tags": {"addr:city": "Kachumbala", "addr:county": "Bukedea", "addr:district": "Bukedea", "addr:parish": "Kotia", "addr:subcounty": "Kachumbala", "amenity": "school", "isced:level": "1", "name": "Mukongoro Kotia Primary School", "source": "www.ubos.org", "source:date": "2010..2014", "wikidata": "Q23134596"}}, {"type": "node", "id": 3958426654, "lat": 1.2585419, "lon": 34.0945331, "tags": {"addr:city": "Mukura", "addr:county": "Bukedea", "addr:district": "Bukedea", "addr:parish": "Kachaboi", "addr:subcounty": "Kachumbala", "amenity": "school", "isced:level": "1", "name": "Kachaboi Primary School", "opening_hours": "Mo-Fr 08:00-18:00", "operator:type": "public", "source": "www.ubos.org", "source:date": "2010..2014", "wikidata": "Q22667496"}}, {"type": "node", "id": 3958426655, "lat": 1.2000772, "lon": 34.1684032, "tags": {"addr:city": "Nalugai", "addr:county": "Bukedea", "addr:district": "Bukedea", "addr:parish": "Nalugai", "addr:subcounty": "Kachumbala", "amenity": "school", "isced:level": "1", "name": "Nalugai Primary School", "opening_hours": "Mo-Fr 08:00-17:00", "source": "www.ubos.org", "source:date": "2010..2014", "wikidata": "Q22680000"}}, {"type": "node", "id": 3958426656, "lat": 1.2305896, "lon": 34.05894, "tags": {"addr:city": "Ongaara", "addr:county": "Bukedea", "addr:district": "Bukedea", "addr:parish": "Ongaara", "addr:subcounty": "Kachumbala", "amenity": "school", "isced:level": "1", "name": "Ongaara Primary School", "opening_hours": "Mo-Sa 08:00-18:00", "operator:type": "public", "source": "www.ubos.org", "source:date": "2010..2014", "wikidata": "Q22667499"}}, {"type": "node", "id": 3958426957, "lat": 1.1937798, "lon": 34.0938583, "tags": {"addr:city": "Otimonga", "addr:county": "Bukedea", "addr:district": "Bukedea", "addr:parish": "Otimonga", "addr:subcounty": "Kachumbala", "amenity": "school", "isced:level": "1", "name": "Otimonga Primary School", "opening_hours": "Mo-Sa 08:00-18:00", "operator:type": "public", "source": "www.ubos.org", "source:date": "2010..2014", "wikidata": "Q22809233"}}, {"type": "node", "id": 3958426961, "lat": 1.2101488, "lon": 34.1170979, "tags": {"addr:city": "Komuriakere", "addr:county": "Bukedea", "addr:district": "Bukedea", "addr:parish": "Kongoidi", "addr:subcounty": "Kachumbala", "amenity": "school", "isced:level": "2;3;4", "name": "Saint John's College Kachumbala", "opening_hours": "Mo-Sa 08:00-18:00", "source": "www.ubos.org", "source:date": "2010..2014", "wikidata": "Q22679957"}}, {"type": "node", "id": 3958426963, "lat": 1.2100823, "lon": 34.072079, "tags": {"addr:city": "Kachumbala", "addr:street": "Komuge Koutulai Road", "amenity": "school", "isced:level": "0;1", "name": "Saint Peter's Nursery and Primary School Maanga", "opening_hours": "Mo-Sa 08:00-18:00", "wikidata": "Q22809196"}}, {"type": "node", "id": 3958426964, "lat": 1.2122632, "lon": 34.1195002, "tags": {"addr:city": "Kachumbala", "amenity": "school", "description": "Mixed Day And Boarding Nursery And Primary School", "name": "Teso Junior Academy", "opening_hours": "Mo-Sa 08:00-18:00", "wikidata": "Q22679961"}}, {"type": "node", "id": 3958426966, "lat": 1.2280792, "lon": 34.0842392, "tags": {"addr:city": "Kachumbala", "addr:street": "Kidongole Road", "amenity": "school", "isced:level": "0;1", "name": "Vicmos Nursery and Primary School", "opening_hours": "Mo-Sa 08:00-18:00", "wikidata": "Q22809201"}}, {"type": "node", "id": 3958445690, "lat": 1.3551867, "lon": 34.126401, "tags": {"addr:city": "Kolir", "addr:street": "Abilayepe Road", "amenity": "school", "description": "Government Aided School", "name": "Abilayepe Primary School", "opening_hours": "Mo-Sa 08:00-18:00"}}, {"type": "node", "id": 3958445692, "lat": 1.3764228, "lon": 34.2202145, "tags": {"addr:city": "Kolir", "addr:street": "Kamutor Road", "amenity": "school", "description": "Government Aided", "name": "Ekou_etome Primary School", "opening_hours": "Mo-Sa 08:00-18:00"}}, {"type": "node", "id": 3958445695, "lat": 1.3104121, "lon": 34.1588544, "tags": {"addr:city": "Kolir", "addr:street": "Kolir Road", "amenity": "school", "description": "Private Aided", "isced:level": "0;1", "name": "Glory Day Care Nursery and Primary School", "opening_hours": "Mo-Sa 08:00-18:00", "wikidata": "Q22680515"}}, {"type": "node", "id": 3958445696, "lat": 1.3354077, "lon": 34.1621331, "tags": {"addr:city": "Kolir", "addr:street": "Kamutor Road", "amenity": "school", "description": "Private Aided", "isced:level": "0;1", "name": "Highway Nursery and Primary School", "opening_hours": "Mo-Sa 08:00-18:00", "wikidata": "Q22680514"}}, {"type": "node", "id": 3958445698, "lat": 1.3170154, "lon": 34.1632201, "tags": {"addr:city": "Kolir", "addr:street": "Kachumbala Road", "amenity": "school", "description": "Private Aided School", "isced:level": "0;1", "name": "Hozana Nursery And Primary School", "opening_hours": "Mo-Fr 09:00-17:00", "wikidata": "Q22680486"}}, {"type": "node", "id": 3958445700, "lat": 1.35605, "lon": 34.1740227, "tags": {"addr:city": "Kolir", "addr:street": "Kamutor Road", "amenity": "school", "description": "Government Aided", "isced:level": "1", "name": "Kamutor Primary School", "opening_hours": "Mo-Sa 08:00-18:00", "wikidata": "Q22680523"}}, {"type": "node", "id": 3958445701, "lat": 1.3127071, "lon": 34.1386073, "tags": {"addr:city": "Kanyipa", "addr:county": "Bukedea", "addr:district": "Bukedea", "addr:parish": "Kanyipa", "addr:street": "Kanyipa Road", "addr:subcounty": "Kolir", "amenity": "school", "description": "Government Aided", "isced:level": "1", "name": "Kanyipa Primary School", "opening_hours": "Mo-Sa 08:00-18:00", "operator": "Public", "source": "www.ubos.org", "source:date": "2010..2014", "wikidata": "Q22680525"}}, {"type": "node", "id": 3958445702, "lat": 1.3098215, "lon": 34.1596253, "tags": {"addr:city": "Kolir", "addr:street": "Kolir Road", "amenity": "school", "description": "Government Aided School", "isced:level": "2;3;4", "name": "Kolir Comprehensive Secondary School", "opening_hours": "Mo-Sa 08:00-18:00", "wikidata": "Q22680524"}}, {"type": "node", "id": 3958445705, "lat": 1.3126866, "lon": 34.1414595, "tags": {"addr:city": "Kolir", "addr:street": "Kolir Road", "amenity": "school", "description": "Government Aided School", "isced:level": "1", "name": "Kolir Primary School", "opening_hours": "Mo-Sa 08:00-18:00", "wikidata": "Q22680527"}}, {"type": "node", "id": 3958445706, "lat": 1.3367169, "lon": 34.1606387, "tags": {"addr:city": "Komongomeri", "addr:county": "Bukedea", "addr:district": "Bukedea", "addr:parish": "Komongomeri", "addr:street": "Malera Road", "addr:subcounty": "Kolir", "amenity": "school", "description": "Government Aided", "isced:level": "1", "name": "Komongomeri Primary School", "opening_hours": "Mo-Fr 09:00-17:00", "operator": "Public", "source": "www.ubos.org", "source:date": "2010..2014", "wikidata": "Q22680526"}}, {"type": "node", "id": 3958447285, "lat": 1.4044033, "lon": 34.3388496, "tags": {"addr:city": "Bwikhonge", "addr:street": "Sironko Moroto Road", "amenity": "school", "isced:level": "0;1", "name": "Bright Academy Nursery and Primary School", "opening_hours": "Mo-Fr 09:00-17:00", "wikidata": "Q23133686"}}, {"type": "node", "id": 3958447286, "lat": 1.3686784, "lon": 34.3066617, "tags": {"addr:city": "Bumasokho", "addr:county": "Bulambuli", "addr:district": "Bulambuli", "addr:parish": "Bumasokho", "addr:street": "Moroto Road", "addr:subcounty": "Muyembe", "amenity": "school", "isced:level": "1", "name": "Bunangaka Primary School", "operator:type": "public", "source": "www.ubos.org", "source:date": "2010..2014", "wikidata": "Q23133661"}}, {"type": "node", "id": 3958447287, "lat": 1.3489414, "lon": 34.2824763, "tags": {"addr:city": "Bushende", "addr:county": "Bulambuli", "addr:district": "Bulambuli", "addr:parish": "Bufumbula", "addr:subcounty": "Muyembe", "amenity": "school", "isced:level": "1", "name": "Buwasheba Primary School", "operator:type": "public", "source": "www.ubos.org", "source:date": "2010..2014", "wikidata": "Q23133742"}}, {"type": "node", "id": 3958447288, "lat": 1.3920542, "lon": 34.3180128, "tags": {"addr:city": "Bunamono", "addr:county": "Bulambuli", "addr:district": "Bulambuli", "addr:parish": "Buwekanda", "addr:street": "Bwikhonge", "addr:subcounty": "Bwikhonge", "amenity": "school", "isced:level": "2;3;4", "name": "Buyaka Parents Secondary School", "operator:type": "public", "source": "www.ubos.org", "source:date": "2010..2014", "wikidata": "Q23133720"}}, {"type": "node", "id": 3958447289, "lat": 1.3915045, "lon": 34.3178542, "tags": {"addr:city": "Bulusambu", "addr:county": "Bulambuli", "addr:district": "Bulambuli", "addr:parish": "Buwekanda", "addr:street": "Nalondo", "addr:subcounty": "Bwikhonge", "amenity": "school", "isced:level": "1", "name": "Buyaka Primary School", "operator:type": "public", "source": "www.ubos.org", "source:date": "2010..2014", "wikidata": "Q23133791"}}, {"type": "node", "id": 3958447293, "lat": 1.400666, "lon": 34.3452914, "tags": {"addr:city": "Bwikhonge", "addr:street": "Bwikhonge", "amenity": "school", "isced:level": "1", "name": "Bwikhonge Modern Primary School", "opening_hours": "Mo-Fr 06:00 -17:00", "wikidata": "Q23133830"}}, {"type": "node", "id": 3958447294, "lat": 1.4060319, "lon": 34.3409455, "tags": {"addr:city": "Bwikhonge", "addr:county": "Bulambuli", "addr:district": "Bulambuli", "addr:parish": "Bulumera", "addr:street": "Sir Into Moroto Road", "addr:subcounty": "Bwikhonge", "amenity": "school", "isced:level": "1", "name": "Bwikhonge Primary School", "opening_hours": "Mo-Sa 08:00-18:00", "operator:type": "public", "source": "www.ubos.org", "source:date": "2010..2014", "wikidata": "Q23133821"}}, {"type": "node", "id": 3958447297, "lat": 1.4037619, "lon": 34.3389126, "tags": {"addr:city": "Bwikhonge", "addr:street": "Moroto Road", "amenity": "school", "isced:level": "0", "name": "Fulumerah Nursery", "opening_hours": "Mo-Fr 09:00-17:00", "wikidata": "Q23133446"}}, {"type": "node", "id": 3958447298, "lat": 1.3753631, "lon": 34.3112806, "tags": {"addr:city": "Nabongo", "amenity": "school", "isced:level": "2;3;4", "name": "High Way Junior School", "wikidata": "Q23133429"}}, {"type": "node", "id": 3958447299, "lat": 1.3867496, "lon": 34.3155341, "tags": {"addr:city": "Busoba", "addr:county": "Bulambuli", "addr:district": "Bulambuli", "addr:parish": "Bunalwele", "addr:street": "Sironko Moroto Road", "addr:subcounty": "Bwikhonge", "amenity": "school", "isced:level": "0;1", "name": "Hope Nursery and Primary School", "opening_hours": "Mo-Fr 8:00-17:00", "source": "www.ubos.org", "source:date": "2010..2014", "wikidata": "Q23133484"}}, {"type": "node", "id": 3958447300, "lat": 1.3684062, "lon": 34.3182464, "tags": {"addr:city": "Kawowo", "amenity": "school", "isced:level": "1", "name": "Junior Academy Primary School", "opening_hours": "Mo-Fr 09:00-17:00", "wikidata": "Q23133463"}}, {"type": "node", "id": 3958447301, "lat": 1.3403875, "lon": 34.3004628, "tags": {"addr:city": "Muyembe", "addr:county": "Bulambuli", "addr:district": "Bulambuli", "addr:parish": "Bufukhula", "addr:street": "Sironko Moroto", "addr:subcounty": "Muyembe", "amenity": "school", "isced:level": "1", "name": "Nabongo Primary School", "opening_hours": "Mo-Sa 08:00-18:00", "operator:type": "public", "source": "www.ubos.org", "source:date": "2010..2014", "wikidata": "Q23133511"}}, {"type": "node", "id": 3958447302, "lat": 1.369991, "lon": 34.3267416, "tags": {"addr:city": "Chemare", "addr:county": "Tingey", "addr:district": "Kapchorwa", "addr:parish": "Sanzara", "addr:subcounty": "Kawowo", "amenity": "school", "isced:level": "1", "name": "Sanjara Primary School", "opening_hours": "Mo-Sa 08:00-18:00", "operator:type": "private", "source": "www.ubos.org", "source:date": "2010..2014", "wikidata": "Q23133505"}}, {"type": "node", "id": 3958447304, "lat": 1.3456073, "lon": 34.2981576, "tags": {"addr:city": "Nabongo", "amenity": "school", "isced:level": "1", "name": "Saint Vincent Primary School", "wikidata": "Q23133530"}}, {"type": "node", "id": 3958447305, "lat": 1.3650229, "lon": 34.274727, "tags": {"addr:city": "Nabongo", "amenity": "school", "isced:level": "0", "name": "Starlight Nursery School", "wikidata": "Q22680528"}}, {"type": "node", "id": 3958468150, "lat": 1.3290025, "lon": 34.1230488, "tags": {"addr:city": "Bukedea", "amenity": "school", "name": "Akuoro Nursery& Primary school", "opening_hours": "Mo-Sa 08:00-18:00"}}, {"type": "node", "id": 3958468151, "lat": 1.3302088, "lon": 34.1100817, "tags": {"addr:city": "Akuoro", "addr:county": "Bukedea", "addr:district": "Bukedea", "addr:parish": "Akuoro", "addr:subcounty": "Bukedea", "amenity": "school", "isced:level": "1", "name": "Akuoro Primary School", "source": "www.ubos.org", "source:date": "2010..2014", "wikidata": "Q22680536"}}, {"type": "node", "id": 3958468153, "lat": 1.3294633, "lon": 34.0920772, "tags": {"addr:city": "Bukedea", "amenity": "school", "name": "Divine Mercy Nursery and Primary School", "opening_hours": "Mo-Sa 08:00-18:00"}}, {"type": "node", "id": 3958468154, "lat": 1.3295752, "lon": 34.0792011, "tags": {"addr:city": "Bukedea", "amenity": "school", "name": "Good Hope Nursery & Primary school", "opening_hours": "Mo-Sa 08:00-18:00"}}, {"type": "node", "id": 3958468155, "lat": 1.3118378, "lon": 34.046055, "tags": {"addr:city": "Atiriri", "addr:county": "Bukedea", "addr:district": "Bukedea", "addr:parish": "Kakere", "addr:subcounty": "Bukedea", "amenity": "school", "isced:level": "1", "name": "Kakere Rock Primary School", "opening_hours": "Mo-Sa 08:00-18:00", "source": "www.ubos.org", "source:date": "2010..2014", "wikidata": "Q22667470"}}, {"type": "node", "id": 3958468156, "lat": 1.3292335, "lon": 34.0212792, "tags": {"addr:city": "Bukedea", "amenity": "school", "fixme": "Please, check the position of the node", "name": "Kakere-Gagama Primary school", "opening_hours": "Mo-Sa 08:00-18:00"}}, {"type": "node", "id": 3958468257, "lat": 1.3008532, "lon": 34.0213331, "tags": {"addr:city": "Omoniek", "addr:county": "Bukedea", "addr:district": "Bukedea", "addr:parish": "Kokolotum", "addr:subcounty": "Bukedea", "amenity": "school", "isced:level": "1", "name": "Kakere Primary School", "opening_hours": "Mo-Sa 08:00-18:00", "source": "www.ubos.org", "source:date": "2010..2014", "wikidata": "Q22667474"}}, {"type": "node", "id": 3958468258, "lat": 1.391335, "lon": 34.0570299, "tags": {"addr:city": "Kaloko", "addr:county": "Bukedea", "addr:district": "Bukedea", "addr:parish": "Kaloko", "addr:subcounty": "Bukedea", "amenity": "school", "isced:level": "1", "name": "Kaloko Primary School", "opening_hours": "Mo-Sa 08:00-18:00", "source": "www.ubos.org", "source:date": "2010..2014", "wikidata": "Q22667472"}}, {"type": "node", "id": 3958468259, "lat": 1.3313409, "lon": 34.069583, "tags": {"addr:city": "Bukedea", "addr:district": "Bukedea", "amenity": "school", "name": "Kamon Primary school", "opening_hours": "Mo-Sa 08:00-18:00", "source": "www.ubos.org", "source:date": "2010..2014"}}, {"type": "node", "id": 3958468261, "lat": 1.273245, "lon": 34.0490671, "tags": {"addr:city": "Omunyono", "addr:county": "Bukedea", "addr:district": "Bukedea", "addr:parish": "Kocheka", "addr:subcounty": "Bukedea", "amenity": "school", "isced:level": "1", "name": "Kocheka Primary School", "opening_hours": "Mo-Sa 08:00-18:00", "source": "www.ubos.org", "source:date": "2010..2014", "wikidata": "Q22667479"}}, {"type": "node", "id": 3958468262, "lat": 1.2822193, "lon": 34.0322658, "tags": {"addr:city": "Bukedea", "amenity": "school", "name": "Kokolotum Primary school", "opening_hours": "Mo-Sa 08:00-18:00"}}, {"type": "node", "id": 3958468264, "lat": 1.3792646, "lon": 34.0487875, "tags": {"addr:city": "Bukedea Town Council", "amenity": "school", "name": "Okunguro Junior Nursery & Primary school", "opening_hours": "Mo-Sa 08:00-18:00"}}, {"type": "node", "id": 3958468265, "lat": 1.2808542, "lon": 34.0738585, "tags": {"addr:city": "Suula", "addr:county": "Bukedea", "addr:district": "Bukedea", "addr:parish": "Suula", "addr:subcounty": "Bukedea", "amenity": "school", "isced:level": "1", "name": "Suula Primary School", "operator:type": "religious", "source": "www.ubos.org", "source:date": "2010..2014", "wikidata": "Q22667482"}}, {"type": "node", "id": 3958566724, "lat": 1.2593702, "lon": 33.980902, "tags": {"addr:city": "Kidongole", "amenity": "school", "building": "school", "building:levels": "1", "building:material": "brick", "name": "Charity Nursery and Primary school", "opening_hours": "Mo-Fr 09:00-17:00"}}, {"type": "node", "id": 3958566725, "lat": 1.2869875, "lon": 34.0061106, "tags": {"addr:city": "Chodong", "addr:county": "Bukedea", "addr:district": "Bukedea", "addr:parish": "Chodong", "addr:street": "Kidongole road", "addr:subcounty": "Kidongole", "amenity": "school", "building": "school", "building:levels": "1", "building:material": "brick", "isced:level": "1", "name": "Chodong Primary School", "opening_hours": "Mo-Fr 09:00-17:00", "source": "www.ubos.org", "source:date": "2010..2014", "wikidata": "Q22667457"}}, {"type": "node", "id": 3958566727, "lat": 1.4365944, "lon": 34.0521196, "tags": {"addr:city": "Malera", "amenity": "school", "name": "Hellenah Nursery & Primary School", "opening_hours": "Mo-Sa 09:00-17:00"}}, {"type": "node", "id": 3958566729, "lat": 1.3992129, "lon": 34.1431271, "tags": {"addr:city": "Malera", "amenity": "school", "name": "Jalwiny Kamuno", "opening_hours": "Mo-Fr 09:00-17:00"}}, {"type": "node", "id": 3958566733, "lat": 1.2455708, "lon": 33.9580613, "tags": {"addr:city": "Kidongole", "addr:street": "Pallisa Road", "amenity": "school", "building": "school", "building:levels": "1", "building:material": "brick", "description": "Government Aided School", "name": "Kajamaka Primary School", "opening_hours": "Mo-Fr 08:00-18:00; Sa-Su 08:00-15:00"}}, {"type": "node", "id": 3958566734, "lat": 1.4149148, "lon": 34.1141968, "tags": {"addr:city": "Kakori", "addr:county": "Bukedea", "addr:district": "Bukedea", "addr:parish": "Kakori", "addr:subcounty": "Malera", "amenity": "school", "isced:level": "1", "name": "Kakori Primary School", "opening_hours": "Mo-Fr 09:00-17:00", "source": "www.ubos.org", "source:date": "2010..2014", "wikidata": "Q22667640"}}, {"type": "node", "id": 3958566736, "lat": 1.3801562, "lon": 34.1149903, "tags": {"addr:city": "Kalou", "addr:county": "Bukedea", "addr:district": "Bukedea", "addr:parish": "Kalou", "addr:subcounty": "Malera", "amenity": "school", "isced:level": "1", "name": "Kalou Primary School", "opening_hours": "Mo-Fr 08:00-17:00", "operator": "Public", "source": "www.ubos.org", "source:date": "2010..2014", "wikidata": "Q22680529"}}, {"type": "node", "id": 3958566737, "lat": 1.2857314, "lon": 34.0067796, "tags": {"addr:city": "Kidongole", "addr:street": "Kidongole road", "amenity": "school", "building": "school", "building:levels": "1", "building:material": "cement_block", "name": "Kanyaga Chodong Primary school", "opening_hours": "Mo-Fr 09:00-17:00"}}, {"type": "node", "id": 3958566738, "lat": 1.2626761, "lon": 33.9581224, "tags": {"addr:city": "Kanyamutamu", "addr:county": "Bukedea", "addr:district": "Bukedea", "addr:parish": "Kanyamutamu", "addr:street": "Mukongoro Road", "addr:subcounty": "Kidongole", "amenity": "school", "building": "school", "building:levels": "1", "building:material": "brick", "isced:level": "1", "name": "Kanyamutamu New Primary School", "opening_hours": "Sa-Su 08:00-15:00;Mo-Fr 08:00-18:00", "source": "www.ubos.org", "source:date": "2010..2014", "wikidata": "Q22667446"}}, {"type": "node", "id": 3958566739, "lat": 1.4223198, "lon": 34.0702866, "tags": {"addr:city": "Malera", "amenity": "school", "name": "Kanyanga Primary School", "opening_hours": "Mo-Fr 09:00-17:00"}}, {"type": "node", "id": 3958566740, "lat": 1.2231849, "lon": 34.0077533, "tags": {"addr:city": "Katekwan", "addr:county": "Bukedea", "addr:district": "Bukedea", "addr:parish": "Katekwan", "addr:street": "Kakolo Road", "addr:subcounty": "Kidongole", "amenity": "school", "isced:level": "1", "name": "Katekwan Primary School", "opening_hours": "Mo-Fr 08:00-18:00; Sa-Su 08:00-15:00", "operator:type": "public", "source": "www.ubos.org", "source:date": "2010..2014", "wikidata": "Q22809192"}}, {"type": "node", "id": 3958566741, "lat": 1.2497612, "lon": 34.0164748, "tags": {"addr:city": "Kawo", "addr:county": "Bukedea", "addr:district": "Bukedea", "addr:parish": "Kawo", "addr:street": "Kachumbala Road", "addr:subcounty": "Kidongole", "amenity": "school", "building": "school", "building:levels": "1", "building:material": "brick", "description": "Government Aided School", "isced:level": "1", "name": "Kawo-Kidongole Primary School", "opening_hours": "Mo-Fr 08:00-18:00; Sa-Su 08:00-15:00", "source": "www.ubos.org", "source:date": "2010..2014", "wikidata": "Q22667448"}}, {"type": "node", "id": 3958566743, "lat": 1.2608046, "lon": 33.9798224, "tags": {"addr:city": "Kidongole", "addr:county": "Bukedea", "addr:district": "Bukedea", "addr:parish": "Kidongole", "addr:subcounty": "Kidongole", "amenity": "school", "isced:level": "0;1", "name": "Mercy Nursery and Primary School", "opening_hours": "Mo-Fr 09:00-17:00", "source": "www.ubos.org", "source:date": "2010..2014", "wikidata": "Q22667447"}}, {"type": "node", "id": 3958566744, "lat": 1.2571864, "lon": 33.9708067, "tags": {"addr:city": "Kidongole", "addr:street": "Kidongole Kachumbala Road", "amenity": "school", "building": "school", "building:levels": "1", "building:material": "brick", "description": "Government Aided School", "fixme": "Please, check the position of the node", "name": "Kidongole Primary School", "opening_hours": "Mo-Fr 08:00-18:00; Sa-Su 08:00-15:00"}}, {"type": "node", "id": 3958566745, "lat": 1.2784389, "lon": 33.9999886, "tags": {"addr:city": "Kidongole", "addr:street": "Bukedea road", "amenity": "school", "building": "school", "building:levels": "1", "building:material": "brick", "name": "Kidongole Seed Secondary school", "opening_hours": "Mo-Fr 09:00-17:00"}}, {"type": "node", "id": 3958566748, "lat": 1.2348779, "lon": 34.0272856, "tags": {"addr:city": "Koena", "addr:county": "Bukedea", "addr:district": "Bukedea", "addr:parish": "Koena", "addr:street": "Kachumbala Road", "addr:subcounty": "Kidongole", "amenity": "school", "building": "school", "building:levels": "1", "building:material": "brick", "description": "Government Aided School", "isced:level": "1", "name": "Koena Primary School", "opening_hours": "Mo-Fr 08:00-18:00; Sa-Su 08:00-15:00", "source": "www.ubos.org", "source:date": "2010..2014", "wikidata": "Q22667450"}}, {"type": "node", "id": 3958566749, "lat": 1.4051941, "lon": 34.1664507, "tags": {"addr:city": "Kodike", "addr:county": "Bukedea", "addr:district": "Bukedea", "addr:parish": "Kodike", "addr:subcounty": "Malera", "amenity": "school", "isced:level": "1", "name": "Kodike Primary School", "opening_hours": "Mo-Fr 08 : 00-17:00", "operator": "Public", "source": "www.ubos.org", "source:date": "2010..2014", "wikidata": "Q22680484"}}, {"type": "node", "id": 3958566750, "lat": 1.4399674, "lon": 34.1264752, "tags": {"addr:city": "Malera", "amenity": "school", "handler:number": "1", "isced:level": "1", "male": "no", "name": "Kokwech Primary School", "network": "MTN Mobile Money", "shop": "yes", "wikidata": "Q22667633"}}, {"type": "node", "id": 3958566751, "lat": 1.2395027, "lon": 33.9857606, "tags": {"addr:city": "Kosire", "addr:county": "Bukedea", "addr:district": "Bukedea", "addr:parish": "Kajamaka", "addr:street": "Kakolo Road", "addr:subcounty": "Kidongole", "amenity": "school", "building": "school", "building:material": "brick", "description": "Government Aided School", "isced:level": "1", "name": "Kosire Primary School", "opening_hours": "Mo-Fr 08:00-18:00; Sa-Su 08:00-15:00", "source": "www.ubos.org", "source:date": "2010..2014", "wikidata": "Q22667451"}}, {"type": "node", "id": 3958566752, "lat": 1.3925653, "lon": 34.1432985, "tags": {"addr:city": "Malera Sub-county", "addr:county": "Bukedea", "addr:district": "Bukedea", "addr:parish": "Kotiokot", "addr:subcounty": "Malera", "amenity": "school", "isced:level": "1", "name": "Kotiokot Primary School", "opening_hours": "Mo-Fr 08:00-17:00", "source": "www.ubos.org", "source:date": "2010..2014", "wikidata": "Q22680483"}}, {"type": "node", "id": 3958566753, "lat": 1.2780938, "lon": 33.9750408, "tags": {"addr:city": "Kotolut", "addr:county": "Bukedea", "addr:district": "Bukedea", "addr:parish": "Kidongole", "addr:street": "Kanyana Road", "addr:subcounty": "Kidongole", "amenity": "school", "description": "Government Aided", "isced:level": "1", "name": "Kotolut Primary School", "opening_hours": "Mo-Fr 09:00-17:00", "source": "www.ubos.org", "source:date": "2010..2014", "wikidata": "Q22667501"}}, {"type": "node", "id": 3958567957, "lat": 1.2860667, "lon": 34.006046, "tags": {"addr:city": "Kidongole", "addr:street": "Kidongole road", "amenity": "school", "building": "school", "building:levels": "1", "building:material": "brick", "name": "Mama Sarah Nursery and Primary school", "opening_hours": "Mo-Fr 09:00-17:00"}}, {"type": "node", "id": 3958567959, "lat": 1.2907459, "lon": 34.0046583, "tags": {"addr:city": "Kidongole", "addr:street": "Kidongole road", "amenity": "school", "building": "school", "building:levels": "1", "building:material": "brick", "name": "Triangle Secondary school", "opening_hours": "Mo-Fr 09:00-17:00"}}, {"type": "node", "id": 3959036356, "lat": 1.3450643, "lon": 34.0467619, "tags": {"addr:city": "Bukedea", "addr:street": "Lira Mbale Road", "amenity": "school", "isced:level": "0;1", "name": "Arereng Nursery And Primary school"}}, {"type": "node", "id": 3959040468, "lat": 1.3294252, "lon": 34.0422542, "tags": {"addr:city": "Bukedea", "addr:street": "Bukedea", "amenity": "school", "building:material": "cement_block", "name": "Kakere Gagama Primary school"}}, {"type": "node", "id": 3959040473, "lat": 1.2739559, "lon": 34.0040661, "tags": {"addr:city": "Bukedea", "addr:street": "Kidongole", "amenity": "school", "building:material": "cement_block", "name": "Kidongole Seed Secondary school"}}, {"type": "node", "id": 3959040483, "lat": 1.313205, "lon": 34.0297927, "tags": {"addr:city": "Bukedea", "addr:street": "Kidongole", "amenity": "school", "building:material": "cement_block", "name": "Triangle High School"}}, {"type": "node", "id": 3959654601, "lat": 1.4822811, "lon": 34.1330865, "tags": {"addr:city": "Kakutot", "addr:district": "Bukedea", "addr:parish": "Kakutot", "addr:subcounty": "Malera", "amenity": "school", "isced:level": "1", "name": "Akutot Primary School", "operator:type": "public", "source": "www.ubos.org", "source:date": "2010..2014", "wikidata": "Q22667631"}}, {"type": "node", "id": 3959654603, "lat": 1.4332615, "lon": 34.0987392, "tags": {"addr:city": "Malera", "addr:county": "Bukedea", "addr:district": "Bukedea", "addr:parish": "Kachonga", "addr:subcounty": "Malera", "amenity": "school", "isced:level": "1", "name": "Kachonga Primary School", "source": "www.ubos.org", "source:date": "2010..2014", "wikidata": "Q22667886"}}, {"type": "node", "id": 3959654605, "lat": 1.5123415, "lon": 34.1515499, "tags": {"addr:city": "Kaleu", "addr:county": "Bukedea", "addr:district": "Bukedea", "addr:parish": "Kangole", "addr:subcounty": "Malera", "amenity": "school", "isced:level": "1", "name": "Kangole Primary School", "operator:type": "public", "source": "www.ubos.org", "source:date": "2010..2014", "wikidata": "Q22667634"}}, {"type": "node", "id": 3959654606, "lat": 1.4724919, "lon": 34.0497159, "tags": {"addr:city": "Malera", "addr:county": "Bukedea", "addr:district": "Bukedea", "addr:parish": "Kacoc", "addr:subcounty": "Malera", "amenity": "school", "isced:level": "1", "name": "Kasechi Primary School", "operator:type": "public", "source": "www.ubos.org", "source:date": "2010..2014", "wikidata": "Q22667888"}}, {"type": "node", "id": 3959785080, "lat": 1.2970316, "lon": 34.3411956, "tags": {"addr:city": "Bunayiwa", "addr:county": "Bulambuli", "addr:district": "Bulambuli", "addr:parish": "Gamatimbei", "addr:street": "Namisuni Road", "addr:subcounty": "Namisuni", "amenity": "school", "fixme": "please, check the position of this node", "isced:level": "1", "name": "Gamatimbei Primary School", "operator:type": "public", "source": "www.ubos.org", "source:date": "2010..2014", "wikidata": "Q23132766"}}, {"type": "node", "id": 3959785082, "lat": 1.2967608, "lon": 34.3490904, "tags": {"addr:city": "Namisuni", "amenity": "school", "isced:level": "1", "name": "Junior Primary School", "opening_hours": "Mo-Sa 08:00-18:00", "wikidata": "Q23132999"}}, {"type": "node", "id": 3959794715, "lat": 1.2876649, "lon": 34.3437825, "tags": {"addr:city": "Nabuziba", "addr:county": "Bulambuli", "addr:district": "Bulambuli", "addr:parish": "Gibuzale", "addr:subcounty": "Sisiyi", "amenity": "school", "fixme": "please, check the position of this node", "isced:level": "1", "name": "Bugara Primary School", "opening_hours": "Mo-Fr 09:00-17:00", "operator:type": "public", "source": "www.ubos.org", "source:date": "2010..2014", "wikidata": "Q23131960"}}, {"type": "node", "id": 3959794717, "lat": 1.2718909, "lon": 34.3225663, "tags": {"addr:city": "Nabisuluka", "addr:county": "Bulambuli", "addr:district": "Bulambuli", "addr:parish": "Bumugisha", "addr:subcounty": "Sisiyi", "amenity": "school", "isced:level": "1", "name": "Bumugisha Primary School", "opening_hours": "Mo-Fr 09:00-17:00", "operator:type": "public", "source": "www.ubos.org", "source:date": "2010..2014", "wikidata": "Q23131932"}}, {"type": "node", "id": 3959794719, "lat": 1.2620329, "lon": 34.3460281, "tags": {"addr:city": "Bunagoga", "addr:county": "Bulambuli", "addr:district": "Bulambuli", "addr:parish": "Jewa", "addr:subcounty": "Lusha", "amenity": "school", "isced:level": "1", "name": "Bumwambu Primary School", "opening_hours": "Mo-Fr 09:00-17:00", "operator:type": "public", "source": "www.ubos.org", "source:date": "2010..2014", "wikidata": "Q23131952"}}, {"type": "node", "id": 3959794720, "lat": 1.2783755, "lon": 34.3301162, "tags": {"addr:city": "Marama", "addr:county": "Bulambuli", "addr:district": "Bulambuli", "addr:parish": "Mabona", "addr:subcounty": "Sisiyi", "amenity": "school", "isced:level": "1", "name": "Bumwidyeki Primary School", "opening_hours": "Mo-Fr 09:00-17:00", "operator:type": "public", "source": "www.ubos.org", "source:date": "2010..2014", "wikidata": "Q23131943"}}, {"type": "node", "id": 3959870301, "lat": 1.2913039, "lon": 34.3043152, "tags": {"addr:city": "Kamu", "addr:street": "Kamu", "amenity": "school", "name": "Bulambuli Junior school", "opening_hours": "Mo-Sa 08:00-18:00", "wikidata": "Q23134330"}}, {"type": "node", "id": 3959870302, "lat": 1.3253404, "lon": 34.2928093, "tags": {"addr:city": "Bulegeni Town Council", "addr:street": "Bulegeni", "amenity": "school", "name": "Bulegeni Junior Academy", "opening_hours": "Mo-Fr 09:00-17:00", "wikidata": "Q23134337"}}, {"type": "node", "id": 3959870303, "lat": 1.2811361, "lon": 34.308082, "tags": {"addr:city": "Bulegeni Town Council", "addr:street": "Bulegeni Town Council", "amenity": "school", "name": "Bulegeni Parents Primary", "opening_hours": "Mo-Fr 09:00-17:00"}}, {"type": "node", "id": 3959870304, "lat": 1.2898962, "lon": 34.3250894, "tags": {"addr:city": "Bulegeni", "addr:street": "Bulegeni", "amenity": "school", "fixme": "please, check the position of this node", "name": "Bulegeni Primary School", "opening_hours": "Mo-Fr 09:00-17:00"}}, {"type": "node", "id": 3959870305, "lat": 1.2932763, "lon": 34.2852388, "tags": {"addr:city": "Bulegeni Town council", "addr:street": "Bulegeni", "amenity": "school", "name": "Bulegeni Secondary", "opening_hours": "Mo-Sa 09:00-18:00"}}, {"type": "node", "id": 3959870306, "lat": 1.3232568, "lon": 34.2975443, "tags": {"addr:city": "Bulegeni", "addr:county": "Bulambuli", "addr:district": "Bulambuli", "addr:parish": "Bungwanyi", "addr:subcounty": "Muyembe", "amenity": "school", "building": "school", "isced:level": "1", "name": "Bugwanyi Primary School", "opening_hours": "Mo-Sa 08:00-18:00", "source": "www.ubos.org", "source:date": "2010..2014", "wikidata": "Q23134417"}}, {"type": "node", "id": 3959870309, "lat": 1.2830068, "lon": 34.2797679, "tags": {"addr:city": "Kamu", "addr:street": "Kamu", "amenity": "school", "isced:level": "1", "name": "Kamunda Primary", "opening_hours": "Mo-Sa 08:00-18:00", "wikidata": "Q23134395"}}, {"type": "node", "id": 3959870311, "lat": 1.2974537, "lon": 34.3255692, "tags": {"addr:city": "Bulegeni Town Council", "addr:street": "Bulegeni Town Council", "amenity": "school", "isced:level": "1", "name": "Milestone Primary", "opening_hours": "Mo-Sa 09:00-17:00", "wikidata": "Q23134375"}}, {"type": "node", "id": 3959870312, "lat": 1.2877659, "lon": 34.3333516, "tags": {"addr:city": "Kamu", "addr:street": "Kamu", "amenity": "school", "isced:level": "1", "name": "Namudongo Primary School", "opening_hours": "Mo-Sa 08:00-18:00", "wikidata": "Q23134390"}}, {"type": "node", "id": 3959870313, "lat": 1.3080729, "lon": 34.3079478, "tags": {"addr:city": "Bulegeni", "addr:county": "Bulambuli", "addr:district": "Bulambuli", "addr:parish": "Mbigi", "addr:street": "Bulegeni", "addr:subcounty": "Bulegeni", "amenity": "school", "isced:level": "0;1", "name": "New Hope Nursery and Primary School", "opening_hours": "Mo-Sa 08:00-18:00", "source": "www.ubos.org", "source:date": "2010..2014", "wikidata": "Q23134474"}}, {"type": "node", "id": 3959870314, "lat": 1.2993124, "lon": 34.3034757, "tags": {"addr:city": "Bulegeni", "addr:street": "Bulegeni", "amenity": "school", "isced:level": "1", "name": "Samanzi Primary School", "opening_hours": "Mo-Sa 08:00-18:00", "wikidata": "Q23134486"}}, {"type": "node", "id": 3961033859, "lat": 1.3726701, "lon": 34.0472183, "tags": {"addr:city": "Mission Cell", "addr:county": "Bukedea", "addr:district": "Bukedea", "addr:parish": "Okunguro Complex Ward", "addr:subcounty": "Bukedea Town Council", "amenity": "school", "isced:level": "1", "name": "Bukedea Demonstration Primary School", "opening_hours": "Mo-Fr 09:00-17:00", "source": "www.ubos.org", "source:date": "2010..2014", "wikidata": "Q22667483"}}, {"type": "node", "id": 3961033860, "lat": 1.3946567, "lon": 34.0252071, "tags": {"addr:city": "Okunguro Parents Cell", "addr:county": "Bukedea", "addr:district": "Bukedea", "addr:parish": "Okunguro Parents Ward", "addr:subcounty": "Bukedea Town Council", "amenity": "school", "isced:level": "1", "name": "Okunguro Parents Primary School", "opening_hours": "Mo-Sa 08:00-18:00", "source": "www.ubos.org", "source:date": "2010..2014", "wikidata": "Q22667484"}}, {"type": "node", "id": 3961033861, "lat": 1.371958, "lon": 34.0443131, "tags": {"addr:city": "Mission Cell", "addr:county": "Bukedea", "addr:district": "Bukedea", "addr:parish": "Okunguro Complex Ward", "addr:subcounty": "Bukedea Town Council", "amenity": "school", "isced:level": "1", "name": "Okunguro Primary School", "opening_hours": "Mo-Sa 09:00-17:00", "operator:type": "public", "source": "www.ubos.org", "source:date": "2010..2014", "wikidata": "Q22667486"}}, {"type": "node", "id": 3961033862, "lat": 1.3723571, "lon": 34.0484787, "tags": {"addr:city": "Mission Cell", "addr:county": "Bukedea", "addr:district": "Bukedea", "addr:parish": "Okunguro Complex Ward", "addr:subcounty": "Bukedea Town Council", "amenity": "school", "isced:level": "1", "name": "Saint Mary's Primary Teachers College", "operator:type": "public", "source": "www.ubos.org", "source:date": "2010..2014", "wikidata": "Q22667488"}}, {"type": "node", "id": 3961033863, "lat": 1.3732797, "lon": 34.0449207, "tags": {"addr:city": "Mission Cell", "addr:county": "Bukedea", "addr:district": "Bukedea", "addr:parish": "Okunguro Complex Ward", "addr:subcounty": "Bukedea Town Council", "amenity": "school", "isced:level": "2;3;4", "name": "Saint Theresa Secondary School", "opening_hours": "Mo-Sa 08:00-18:00", "source": "www.ubos.org", "source:date": "2010..2014", "wikidata": "Q22667490"}}, {"type": "node", "id": 3961033864, "lat": 1.3631098, "lon": 34.0295439, "tags": {"addr:county": "Bukedea", "addr:district": "Bukedea", "addr:parish": "Tamula Ward", "addr:subcounty": "Bukedea Town Council", "amenity": "school", "isced:level": "1", "name": "Tamula Moslem Primary School", "opening_hours": "Mo-Sa 08:00-18:00", "religion": "muslim", "source": "www.ubos.org", "source:date": "2010..2014", "wikidata": "Q22667492"}}, {"type": "node", "id": 3965525597, "lat": 1.487009, "lon": 34.1776232, "tags": {"addr:city": "Kaleu", "addr:county": "Bukedea", "addr:district": "Bukedea", "addr:parish": "Kangole", "addr:subcounty": "Malera", "amenity": "school", "isced:level": "1", "name": "Kaleu Primary School", "operator:type": "community", "source": "www.ubos.org", "source:date": "2010..2014", "wikidata": "Q22667629"}}, {"type": "node", "id": 3965525600, "lat": 1.4533066, "lon": 34.1482443, "tags": {"addr:city": "Kobaale", "addr:county": "Bukedea", "addr:district": "Bukedea", "addr:parish": "Kobaale", "addr:subcounty": "Malera", "amenity": "school", "isced:level": "1", "name": "Kobaale Primary School", "operator:type": "public", "source": "www.ubos.org", "source:date": "2010..2014", "wikidata": "Q22667630"}}, {"type": "node", "id": 3966247392, "lat": 1.1640236, "lon": 33.9325245, "tags": {"addr:city": "Bulalaka", "addr:county": "Budaka", "addr:district": "Budaka", "addr:parish": "Kodiri", "addr:subcounty": "Kachomo", "alt_name": "Kodiri Primary School", "amenity": "school", "isced:level": "1", "name": "Kodili Primary School", "opening_hours": "Mo-Fr 08:00-17:00", "operator:type": "public", "source": "www.ubos.org", "source:date": "2010..2014", "wikidata": "Q22809229"}}, {"type": "node", "id": 3966247394, "lat": 1.1732785, "lon": 33.9745579, "tags": {"addr:city": "Lerya", "addr:county": "Iki Iki", "addr:district": "Budaka", "addr:parish": "Lerya", "addr:subcounty": "Kameruka", "amenity": "school", "isced:level": "1", "name": "Lerya Primary School", "opening_hours": "Mo-Fr 08:00-17:00", "operator:type": "public", "source": "www.ubos.org", "source:date": "2010..2014", "wikidata": "Q22809185"}}, {"type": "node", "id": 3966680761, "lat": 1.193772, "lon": 33.9984157, "tags": {"addr:city": "Kanginima", "addr:street": "Nakaloke Road", "amenity": "school", "isced:level": "1", "name": "Francis Academy Primary School", "opening_hours": "Mo-Sa 08:00-18:00", "wikidata": "Q22809271"}}, {"type": "node", "id": 3966680767, "lat": 1.1899503, "lon": 33.944433, "tags": {"addr:city": "Butebo", "addr:street": "Kabwagasi Road", "amenity": "school", "isced:level": "1", "name": "Kalalaka Primary School", "opening_hours": "Mo-Sa 08:00-18:00", "wikidata": "Q22809181"}}, {"type": "node", "id": 3966680773, "lat": 1.196198, "lon": 33.996496, "tags": {"addr:city": "Kanginima", "addr:street": "Nakaloke Road", "amenity": "school", "isced:level": "2;3;4", "name": "Kanginima Community Secondary school", "opening_hours": "Mo-Sa 09:00-18:00", "wikidata": "Q22809214"}}, {"type": "node", "id": 3966680776, "lat": 1.1971326, "lon": 33.9972539, "tags": {"addr:city": "Kanginima", "addr:street": "Nakaloke Road", "amenity": "school", "isced:level": "1", "name": "Kanginima Primary School", "opening_hours": "Mo-Sa 09:00-17:00", "wikidata": "Q22809209"}}, {"type": "node", "id": 3966680788, "lat": 1.1736802, "lon": 33.9356639, "tags": {"addr:city": "Petete", "amenity": "school", "isced:level": "1", "name": "Petete High Way Primary School", "wikidata": "Q22809234"}}, {"type": "node", "id": 3966680789, "lat": 1.1772715, "lon": 33.9329079, "tags": {"addr:city": "Petete", "addr:county": "Butebo", "addr:district": "Pallisa", "addr:parish": "Petete", "addr:subcounty": "Petete", "amenity": "school", "isced:level": "1", "name": "Petete Primary School", "operator:type": "public", "source": "www.ubos.org", "source:date": "2010..2014", "wikidata": "Q22809231"}}, {"type": "node", "id": 3966684193, "lat": 1.1905146, "lon": 33.944651, "tags": {"addr:city": "Butebo", "addr:street": "Kabwagasi Road", "amenity": "school", "isced:level": "1", "name": "Kalalaka Primary School", "opening_hours": "Mo-Sa 08:00-18:00", "wikidata": "Q22809181"}}, {"type": "node", "id": 3978880624, "lat": 1.224146, "lon": 33.9566151, "tags": {"addr:city": "Nalidi B", "addr:county": "Butebo", "addr:district": "Pallisa", "addr:parish": "Nalidi", "addr:subcounty": "Kanginima", "amenity": "school", "fixme": "Please, check the position of the node", "isced:level": "0;1", "name": "Afikan Community Nursery and Primary School", "operator:type": "private", "source": "www.ubos.org", "source:date": "2010..2014", "wikidata": "Q22809246"}}, {"type": "node", "id": 3978880626, "lat": 1.1978654, "lon": 33.9727914, "tags": {"addr:city": "Kitoikawononi", "addr:county": "Butebo", "addr:district": "Pallisa", "addr:parish": "Kitoikawononi", "addr:subcounty": "Kanginima", "amenity": "school", "isced:level": "0;1", "name": "Bagwere Hill View Nursery and Primary School", "operator:type": "private", "source": "www.ubos.org", "source:date": "2010..2014", "wikidata": "Q22809278"}}, {"type": "node", "id": 3978880634, "lat": 1.1983374, "lon": 33.9939339, "tags": {"addr:city": "Katika", "addr:county": "Butebo", "addr:district": "Pallisa", "addr:parish": "Kitoikawononi", "addr:subcounty": "Kanginima", "amenity": "school", "isced:level": "1", "name": "Clelton Primary School", "operator:type": "private", "source": "www.ubos.org", "source:date": "2010..2014", "wikidata": "Q22809264"}}, {"type": "node", "id": 3978880637, "lat": 1.1847026, "lon": 33.9986947, "tags": {"addr:city": "Wenene", "addr:county": "Butebo", "addr:district": "Pallisa", "addr:parish": "Kanginima", "addr:subcounty": "Kanginima", "amenity": "school", "fixme": "Please, check the position of the node", "name": "Faith Academy Community School", "operator:type": "private", "source": "www.ubos.org", "source:date": "2010..2014", "wikidata": "Q22809269"}}, {"type": "node", "id": 3978880639, "lat": 1.177264, "lon": 34.0458345, "tags": {"addr:city": "Bukatikoko-kakoro", "addr:county": "Butebo", "addr:district": "Pallisa", "addr:parish": "Kakoro Town Board", "addr:subcounty": "Kakoro", "amenity": "school", "fixme": "Please, check the position of the node", "isced:level": "0;1", "name": "Good Hope Nursery & Primary School", "operator:type": "private", "source": "www.ubos.org", "source:date": "2010..2014", "wikidata": "Q22809272"}}, {"type": "node", "id": 3978880641, "lat": 1.1984925, "lon": 33.9636801, "tags": {"addr:city": "Kabelai", "addr:county": "Butebo", "addr:district": "Pallisa", "addr:parish": "Kabelai", "addr:subcounty": "Butebo", "amenity": "school", "isced:level": "1", "name": "Kabelai Primary School", "source": "www.ubos.org", "source:date": "2010..2014", "wikidata": "Q22809208"}}, {"type": "node", "id": 3978880642, "lat": 1.175143, "lon": 33.9615942, "tags": {"addr:city": "Bulalaka", "addr:county": "Butebo", "addr:district": "Pallisa", "addr:parish": "Petete", "addr:subcounty": "Petete", "amenity": "school", "isced:level": "1", "name": "Kabuyayi Primary School", "operator:type": "public", "source": "www.ubos.org", "source:date": "2010..2014", "wikidata": "Q22809211"}}, {"type": "node", "id": 3978880646, "lat": 1.1645425, "lon": 34.0202495, "tags": {"addr:city": "Bukomolo", "addr:county": "Butebo", "addr:district": "Pallisa", "addr:parish": "Kadokolene", "addr:subcounty": "Kakoro", "amenity": "school", "isced:level": "1", "name": "Kadokolene Primary School", "operator:type": "public", "source": "www.ubos.org", "source:date": "2010..2014", "wikidata": "Q22809220"}}, {"type": "node", "id": 3978880648, "lat": 1.1721671, "lon": 34.0580937, "tags": {"addr:city": "Kavule", "addr:county": "Butebo", "addr:district": "Pallisa", "addr:parish": "Kakoro", "addr:subcounty": "Kakoro", "amenity": "school", "isced:level": "2;3;4", "name": "Kakoro High School", "operator:type": "public", "source": "www.ubos.org", "source:date": "2010..2014", "wikidata": "Q22809223"}}, {"type": "node", "id": 3978880649, "lat": 1.1735226, "lon": 34.0574691, "tags": {"addr:city": "Kavule", "addr:county": "Butebo", "addr:district": "Pallisa", "addr:parish": "Kakoro", "addr:subcounty": "Kakoro", "amenity": "school", "isced:level": "1", "name": "Kakoro Primary School", "operator:type": "public", "source": "www.ubos.org", "source:date": "2010..2014", "wikidata": "Q22809188"}}, {"type": "node", "id": 3978880650, "lat": 1.1791232, "lon": 34.0459329, "tags": {"addr:city": "Sogono", "addr:county": "Butebo", "addr:district": "Pallisa", "addr:parish": "Kakoro Town Board", "addr:subcounty": "Kakoro", "amenity": "school", "isced:level": "1", "name": "Kakoro Township Primary School", "operator:type": "public", "source": "www.ubos.org", "source:date": "2010..2014", "wikidata": "Q22809190"}}, {"type": "node", "id": 3978880652, "lat": 1.1867544, "lon": 34.01751, "tags": {"addr:city": "Kalecheru", "addr:county": "Butebo", "addr:district": "Pallisa", "addr:parish": "Kasajja", "addr:subcounty": "Kakoro", "amenity": "school", "isced:level": "1", "name": "Kalecheru Primary School", "operator:type": "public", "source": "www.ubos.org", "source:date": "2010..2014", "wikidata": "Q22809198"}}, {"type": "node", "id": 3978880655, "lat": 1.191678, "lon": 34.0047267, "tags": {"addr:city": "Lukone", "addr:county": "Butebo", "addr:district": "Pallisa", "addr:parish": "Kanginima", "addr:subcounty": "Kanginima", "amenity": "school", "isced:level": "1", "name": "Kanyinima Primary School", "operator:type": "public", "source": "www.ubos.org", "source:date": "2010..2014", "wikidata": "Q22809205"}}, {"type": "node", "id": 3978882659, "lat": 1.2077024, "lon": 34.0296277, "tags": {"addr:city": "Petta", "addr:county": "Butebo", "addr:district": "Pallisa", "addr:parish": "Tekwana", "addr:subcounty": "Kakoro", "amenity": "school", "isced:level": "1", "name": "Katekwana Primary School", "operator:type": "public", "source": "www.ubos.org", "source:date": "2010..2014", "wikidata": "Q22809250"}}, {"type": "node", "id": 3978882663, "lat": 1.1649175, "lon": 33.9503446, "tags": {"addr:city": "Bukomolo", "addr:county": "Butebo", "addr:district": "Pallisa", "addr:parish": "Petete", "addr:subcounty": "Petete", "amenity": "school", "isced:level": "0;1", "name": "Kings Nursery & Primary School", "operator:type": "private", "source": "www.ubos.org", "source:date": "2010..2014", "wikidata": "Q22809260"}}, {"type": "node", "id": 3978882664, "lat": 1.1810229, "lon": 33.9514597, "tags": {"addr:city": "Kakwereta", "addr:county": "Butebo", "addr:district": "Pallisa", "addr:parish": "Petete", "addr:subcounty": "Petete", "amenity": "school", "fixme": "Please, check the position of the node", "isced:level": "1", "name": "Kosinghe Primary School", "source": "www.ubos.org", "source:date": "2010..2014", "wikidata": "Q22809261"}}, {"type": "node", "id": 3978882665, "lat": 1.1600997, "lon": 33.9782496, "tags": {"addr:city": "Buchera", "addr:county": "Iki Iki", "addr:district": "Budaka", "addr:parish": "Lerya", "addr:subcounty": "Kameruka", "amenity": "school", "fixme": "Please, check the position of the node", "isced:level": "1", "name": "Lerya Islamic Primary School", "operator:type": "private", "religion": "muslim", "source": "www.ubos.org", "source:date": "2010..2014", "wikidata": "Q22809236"}}, {"type": "node", "id": 3978882673, "lat": 1.2158249, "lon": 33.9691552, "tags": {"addr:city": "Kisenyi", "addr:county": "Butebo", "addr:district": "Pallisa", "addr:parish": "Nalidi", "addr:subcounty": "Kanginima", "amenity": "school", "isced:level": "0;1", "name": "Nalidi Grace Nursery & Primary School", "operator:type": "private", "source": "www.ubos.org", "source:date": "2010..2014", "wikidata": "Q22809274"}}, {"type": "node", "id": 3978882674, "lat": 1.2149417, "lon": 33.9671137, "tags": {"addr:city": "Nalidi.a", "addr:county": "Butebo", "addr:district": "Pallisa", "addr:parish": "Nalidi", "addr:subcounty": "Kanginima", "amenity": "school", "isced:level": "1", "name": "Nalidi Primary School", "operator:type": "public", "source": "www.ubos.org", "source:date": "2010..2014", "wikidata": "Q22809277"}}, {"type": "node", "id": 3978882676, "lat": 1.2004747, "lon": 33.9742563, "tags": {"addr:city": "Tingoli", "addr:county": "Butebo", "addr:district": "Pallisa", "addr:parish": "Kitoikawononi", "addr:subcounty": "Kanginima", "amenity": "school", "fixme": "Please, check the position of the node", "isced:level": "0;1", "name": "Namiyembe Nursery and Primary School", "operator:type": "private", "source": "www.ubos.org", "source:date": "2010..2014", "wikidata": "Q22809283"}}, {"type": "node", "id": 3978882679, "lat": 1.1973394, "lon": 33.9468196, "tags": {"addr:district": "Pallisa", "amenity": "school", "fixme": "Please check the name correctness;Please, check the position of the node", "isced:level": "0;1", "name": "Nursery and Primary School", "source": "www.ubos.org", "source:date": "2010..2014", "wikidata": "Q22807619"}}, {"type": "node", "id": 3978882681, "lat": 1.1773453, "lon": 34.0562515, "tags": {"addr:city": "Kabekun B", "addr:county": "Butebo", "addr:district": "Pallisa", "addr:parish": "Kakoro Town Board", "addr:subcounty": "Kakoro", "amenity": "school", "isced:level": "0;1", "name": "Nyota Nursery & Primary School", "operator:type": "private", "source": "www.ubos.org", "source:date": "2010..2014", "wikidata": "Q22809263"}}, {"type": "node", "id": 3978882682, "lat": 1.2167396, "lon": 33.9441534, "tags": {"addr:city": "Odipanya", "addr:county": "Butebo", "addr:district": "Pallisa", "addr:parish": "Kasyebai", "addr:subcounty": "Butebo", "amenity": "school", "isced:level": "1", "name": "Odipanya Primary School", "source": "www.ubos.org", "source:date": "2010..2014", "wikidata": "Q22809265"}}, {"type": "node", "id": 3978882684, "lat": 1.1716051, "lon": 33.9341056, "tags": {"addr:city": "Petete", "addr:county": "Butebo", "addr:district": "Pallisa", "addr:parish": "Petete", "addr:subcounty": "Petete", "amenity": "school", "fixme": "Please, check the position of the node", "isced:level": "1", "name": "Petete High Way Primary School", "operator:type": "private", "source": "www.ubos.org", "source:date": "2010..2014", "wikidata": "Q22809234"}}, {"type": "node", "id": 3978882686, "lat": 1.1599109, "lon": 34.0810899, "tags": {"addr:district": "Pallisa", "amenity": "school", "fixme": "Please check the name correctness", "name": "Primary School", "source": "www.ubos.org", "source:date": "2010..2014"}}, {"type": "node", "id": 3978882687, "lat": 1.1654264, "lon": 34.0696882, "tags": {"addr:district": "Pallisa", "amenity": "school", "fixme": "Please check the name correctness", "name": "Primary School", "source": "www.ubos.org", "source:date": "2010..2014"}}, {"type": "node", "id": 3978882688, "lat": 1.1718603, "lon": 34.0816793, "tags": {"addr:district": "Pallisa", "amenity": "school", "fixme": "Please check the name correctness", "name": "Primary School", "source": "www.ubos.org", "source:date": "2010..2014"}}, {"type": "node", "id": 3978882693, "lat": 1.1774365, "lon": 34.0442188, "tags": {"addr:city": "Bukatikoko-Kakoro", "addr:county": "Butebo", "addr:district": "Pallisa", "addr:parish": "Kakoro Town Board", "addr:subcounty": "Kakoro", "amenity": "school", "isced:level": "1", "name": "Star Primary School", "operator:type": "private", "source": "www.ubos.org", "source:date": "2010..2014", "wikidata": "Q22809217"}}, {"type": "node", "id": 3978882696, "lat": 1.1656304, "lon": 34.0704955, "tags": {"addr:district": "Pallisa", "amenity": "school", "fixme": "Please check the name correctness", "name": "Secondary School", "source": "www.ubos.org", "source:date": "2010..2014"}}, {"type": "node", "id": 3978882699, "lat": 1.2014788, "lon": 33.9953866, "tags": {"addr:city": "Katika", "addr:county": "Butebo", "addr:district": "Pallisa", "addr:parish": "Kitoikawononi", "addr:subcounty": "Kanginima", "amenity": "school", "isced:level": "2;3;4", "name": "Spartan High School", "operator:type": "private", "source": "www.ubos.org", "source:date": "2010..2014", "wikidata": "Q22809194"}}, {"type": "node", "id": 3978882703, "lat": 1.1598054, "lon": 34.0061849, "tags": {"addr:city": "Nakaloke", "addr:county": "Butebo", "addr:district": "Pallisa", "addr:parish": "Kasupete", "addr:subcounty": "Kanginima", "amenity": "school", "fixme": "Please, check the position of the node", "isced:level": "0;1", "name": "Zam Zam Progressive Islamic Nursery & Primary School", "operator:type": "private", "religion": "muslim", "source": "www.ubos.org", "source:date": "2010..2014", "wikidata": "Q22809204"}}, {"type": "node", "id": 3991955100, "lat": 1.3748731, "lon": 33.9602297, "tags": {"addr:city": "Kodocha", "addr:county": "Kumi", "addr:district": "Kumi", "addr:parish": "Ajuket", "addr:subcounty": "Kanyum", "amenity": "school", "isced:level": "1", "name": "Ajuket Primary School", "source": "www.ubos.org", "source:date": "2010..2014", "wikidata": "Q22667494"}}, {"type": "node", "id": 3991955101, "lat": 1.4052936, "lon": 33.9985754, "tags": {"addr:city": "Atutur", "addr:county": "Kumi", "addr:district": "Kumi", "addr:parish": "Atutur", "addr:subcounty": "Atutur", "amenity": "school", "name": "Atutur Child Development Centre", "operator:type": "private", "source": "www.ubos.org", "source:date": "2010..2014", "wikidata": "Q22667495"}}, {"type": "node", "id": 3991955103, "lat": 1.353192, "lon": 34.0407522, "tags": {"addr:city": "Kide North Cell", "addr:county": "Bukedea", "addr:district": "Bukedea", "addr:parish": "Kide Ward", "addr:subcounty": "Bukedea Town Council", "amenity": "school", "isced:level": "0;1", "name": "Bukedea Lifeline Nursery And Primary School", "source": "www.ubos.org", "source:date": "2010..2014", "wikidata": "Q22667497"}}, {"type": "node", "id": 3991955104, "lat": 1.3523775, "lon": 34.0434254, "tags": {"addr:city": "Kide North Cell", "addr:county": "Bukedea", "addr:district": "Bukedea", "addr:parish": "Kide Ward", "addr:subcounty": "Bukedea Town Council", "amenity": "school", "isced:level": "2;3;4", "name": "Bukedea Lifeline Secondary School", "source": "www.ubos.org", "source:date": "2010..2014", "wikidata": "Q22667498"}}, {"type": "node", "id": 3991955105, "lat": 1.3362503, "lon": 34.0460082, "tags": {"addr:city": "Bukedea Cell", "addr:county": "Bukedea", "addr:district": "Bukedea", "addr:parish": "Bukedea Ward", "addr:subcounty": "Bukedea Town Council", "amenity": "school", "isced:level": "1", "name": "Bukedea Primary School", "operator:type": "public", "source": "www.ubos.org", "source:date": "2010..2014", "wikidata": "Q22667473"}}, {"type": "node", "id": 3991955107, "lat": 1.3466232, "lon": 34.0479874, "tags": {"addr:city": "Emokori B Cell", "addr:county": "Bukedea", "addr:district": "Bukedea", "addr:parish": "Emokori Ward", "addr:subcounty": "Bukedea Town Council", "amenity": "school", "isced:level": "1", "name": "Bukedea Town Primary School", "source": "www.ubos.org", "source:date": "2010..2014", "wikidata": "Q22667476"}}, {"type": "node", "id": 3991955110, "lat": 1.3441619, "lon": 34.046208, "tags": {"addr:city": "Bukedea Cell", "addr:county": "Bukedea", "addr:district": "Bukedea", "addr:parish": "Bukedea Ward", "addr:subcounty": "Bukedea Town Council", "amenity": "school", "isced:level": "0;1", "name": "Hope Day Care Nursery & Primary School", "operator:type": "private", "source": "www.ubos.org", "source:date": "2010..2014", "wikidata": "Q22667478"}}, {"type": "node", "id": 3991955114, "lat": 1.2500376, "lon": 33.9598507, "tags": {"addr:city": "Kalupo", "addr:county": "Bukedea", "addr:district": "Bukedea", "addr:parish": "Kalupo", "addr:subcounty": "Kidongole", "amenity": "school", "isced:level": "1", "name": "Kajamaka Primary School", "source": "www.ubos.org", "source:date": "2010..2014", "wikidata": "Q22667481"}}, {"type": "node", "id": 3991955119, "lat": 1.362982, "lon": 34.0077892, "tags": {"addr:city": "Kalungar", "addr:county": "Kumi", "addr:district": "Kumi", "addr:parish": "Kapokin", "addr:subcounty": "Atutur", "amenity": "school", "isced:level": "1", "name": "Kalungar Primary School", "operator:type": "public", "source": "www.ubos.org", "source:date": "2010..2014", "wikidata": "Q22667489"}}, {"type": "node", "id": 3991955120, "lat": 1.3289194, "lon": 33.9702743, "tags": {"addr:city": "Adodoi", "addr:county": "Kumi", "addr:district": "Kumi", "addr:parish": "Kamacha", "addr:subcounty": "Kanyum", "amenity": "school", "isced:level": "1", "name": "Kamacha Primary School", "operator:type": "public", "source": "www.ubos.org", "source:date": "2010..2014", "wikidata": "Q22667491"}}, {"type": "node", "id": 3991955122, "lat": 1.297338, "lon": 33.9401005, "tags": {"addr:city": "Kanyamutamu", "addr:county": "Kumi", "addr:district": "Kumi", "addr:parish": "Kodokoto", "addr:subcounty": "Mukongoro", "amenity": "school", "isced:level": "1", "name": "Kanyamutamu Primary School", "operator:type": "public", "source": "www.ubos.org", "source:date": "2010..2014", "wikidata": "Q22667462"}}, {"type": "node", "id": 3991955124, "lat": 1.3719023, "lon": 34.0807206, "tags": {"addr:city": "Kauje", "addr:county": "Bukedea", "addr:district": "Bukedea", "addr:parish": "Kasoka", "addr:subcounty": "Bukedea", "amenity": "school", "isced:level": "1", "name": "Kasoka Primary School", "source": "www.ubos.org", "source:date": "2010..2014", "wikidata": "Q22667464"}}, {"type": "node", "id": 3991955125, "lat": 1.3393595, "lon": 33.9992129, "tags": {"addr:city": "Kamunyubi", "addr:county": "Kumi", "addr:district": "Kumi", "addr:parish": "Ojie", "addr:subcounty": "Kanyum", "amenity": "school", "isced:level": "1", "name": "Katilekori Primary School", "source": "www.ubos.org", "source:date": "2010..2014", "wikidata": "Q22667465"}}, {"type": "node", "id": 3991955127, "lat": 1.2534471, "lon": 33.9890407, "tags": {"addr:city": "Kidongole", "addr:county": "Bukedea", "addr:district": "Bukedea", "addr:parish": "Kidongole", "addr:subcounty": "Kidongole", "amenity": "school", "isced:level": "1", "name": "Kidongole Primary School", "source": "www.ubos.org", "source:date": "2010..2014", "wikidata": "Q22667466"}}, {"type": "node", "id": 3991955128, "lat": 1.2630825, "lon": 33.9827056, "tags": {"addr:city": "Kidongole", "addr:county": "Bukedea", "addr:district": "Bukedea", "addr:parish": "Kidongole", "addr:subcounty": "Kidongole", "amenity": "school", "isced:level": "2;3;4", "name": "Kidongole Secondary School", "source": "www.ubos.org", "source:date": "2010..2014", "wikidata": "Q22667467"}}, {"type": "node", "id": 3991955129, "lat": 1.2577411, "lon": 33.9758114, "tags": {"addr:city": "Kadoa", "addr:county": "Bukedea", "addr:district": "Bukedea", "addr:parish": "Kanyamutamu", "addr:subcounty": "Kidongole", "amenity": "school", "fixme": "Please, check the position of the node", "isced:level": "5", "name": "Kidongole Teacher's School", "source": "www.ubos.org", "source:date": "2010..2014", "wikidata": "Q22667468"}}, {"type": "node", "id": 3991955130, "lat": 1.2848715, "lon": 34.0803746, "tags": {"addr:city": "Suula", "addr:county": "Bukedea", "addr:district": "Bukedea", "addr:parish": "Suula", "addr:subcounty": "Bukedea", "amenity": "school", "name": "King David's SS-Aloet", "source": "www.ubos.org", "source:date": "2010..2014", "wikidata": "Q22667469"}}, {"type": "node", "id": 3991955134, "lat": 1.3047201, "lon": 34.0878407, "tags": {"addr:city": "Kokutu", "addr:county": "Bukedea", "addr:district": "Bukedea", "addr:parish": "Kokutu", "addr:subcounty": "Bukedea", "amenity": "school", "isced:level": "1", "name": "Kokutu Primary School", "source": "www.ubos.org", "source:date": "2010..2014", "wikidata": "Q22667471"}}, {"type": "node", "id": 3991955138, "lat": 1.3531426, "lon": 33.9731262, "tags": {"addr:city": "Ojie", "addr:county": "Kumi", "addr:district": "Kumi", "addr:parish": "Ojie", "addr:subcounty": "Kanyum", "amenity": "school", "isced:level": "1", "name": "Ojie Primary School", "operator:type": "public", "source": "www.ubos.org", "source:date": "2010..2014", "wikidata": "Q22667452"}}, {"type": "node", "id": 3991955139, "lat": 1.3553757, "lon": 33.9577585, "tags": {"addr:city": "Kamacha", "addr:county": "Kumi", "addr:district": "Kumi", "addr:parish": "Kamacha", "addr:subcounty": "Kanyum", "amenity": "school", "isced:level": "1", "name": "Okemer Primary School", "source": "www.ubos.org", "source:date": "2010..2014", "wikidata": "Q22667453"}}, {"type": "node", "id": 3991955141, "lat": 1.3016195, "lon": 33.9716919, "tags": {"addr:city": "Olumot", "addr:county": "Kumi", "addr:district": "Kumi", "addr:parish": "Olumot", "addr:subcounty": "Kanyum", "amenity": "school", "isced:level": "1", "name": "Olumot Primary School", "source": "www.ubos.org", "source:date": "2010..2014", "wikidata": "Q22667455"}}, {"type": "node", "id": 3991955142, "lat": 1.2403731, "lon": 34.0607351, "tags": {"addr:city": "Omonyono", "addr:county": "Bukedea", "addr:district": "Bukedea", "addr:parish": "Ongaara", "addr:subcounty": "Kachumbala", "amenity": "school", "isced:level": "1", "name": "Ongaara Moslem Primary School", "religion": "muslim", "source": "www.ubos.org", "source:date": "2010..2014", "wikidata": "Q22667456"}}, {"type": "node", "id": 3991955144, "lat": 1.385545, "lon": 34.0014144, "tags": {"addr:city": "Kapokin", "addr:county": "Kumi", "addr:district": "Kumi", "addr:parish": "Kapokin", "addr:subcounty": "Atutur", "amenity": "school", "isced:level": "1", "name": "Saint Charles Akulony Primary School", "operator:type": "public", "source": "www.ubos.org", "source:date": "2010..2014", "wikidata": "Q22667459"}}, {"type": "node", "id": 3991955149, "lat": 1.3457519, "lon": 34.0444763, "tags": {"addr:city": "Too Cell", "addr:county": "Bukedea", "addr:district": "Bukedea", "addr:parish": "Bukedea Ward", "addr:subcounty": "Bukedea Town Council", "amenity": "school", "name": "Teso Vocational School", "source": "www.ubos.org", "source:date": "2010..2014", "wikidata": "Q22667461"}}, {"type": "node", "id": 3991959659, "lat": 1.3592634, "lon": 34.1366574, "tags": {"addr:city": "Abilaep", "addr:county": "Bukedea", "addr:district": "Bukedea", "addr:parish": "Abilaep", "addr:subcounty": "Kolir", "amenity": "school", "isced:level": "1", "name": "Abilaep Primary School", "operator": "Public", "source": "www.ubos.org", "source:date": "2010..2014", "wikidata": "Q22680516"}}, {"type": "node", "id": 3991959660, "lat": 1.3159911, "lon": 34.1252475, "tags": {"addr:city": "Akero", "addr:county": "Bukedea", "addr:district": "Bukedea", "addr:parish": "Akero", "addr:subcounty": "Bukedea", "amenity": "school", "isced:level": "1", "name": "Akero Primary School", "source": "www.ubos.org", "source:date": "2010..2014", "wikidata": "Q22680517"}}, {"type": "node", "id": 3991959661, "lat": 1.3668989, "lon": 34.1741163, "tags": {"addr:city": "Akouetom", "addr:county": "Bukedea", "addr:district": "Bukedea", "addr:parish": "Komongomeri", "addr:subcounty": "Kolir", "amenity": "school", "isced:level": "1", "name": "Akou Etom Primary School", "operator": "Public", "source": "www.ubos.org", "source:date": "2010..2014", "wikidata": "Q22680541"}}, {"type": "node", "id": 3991959662, "lat": 1.2909469, "lon": 34.2332497, "tags": {"addr:city": "Busano", "addr:county": "Bukedea", "addr:district": "Bukedea", "addr:parish": "Aminit", "addr:subcounty": "Kolir", "amenity": "school", "isced:level": "1", "name": "Aminit Busano Primay School", "operator": "Public", "source": "www.ubos.org", "source:date": "2010..2014", "wikidata": "Q22680542"}}, {"type": "node", "id": 3991959663, "lat": 1.2960341, "lon": 34.1879697, "tags": {"addr:city": "Angangam", "addr:county": "Bukedea", "addr:district": "Bukedea", "addr:parish": "Angangam", "addr:subcounty": "Kolir", "amenity": "school", "isced:level": "1", "name": "Angangam Primary School", "operator": "Public", "source": "www.ubos.org", "source:date": "2010..2014", "wikidata": "Q22680543"}}, {"type": "node", "id": 3991959664, "lat": 1.2763799, "lon": 34.157427, "tags": {"addr:city": "Apopong", "addr:county": "Bukedea", "addr:district": "Bukedea", "addr:parish": "Apopong", "addr:subcounty": "Kolir", "amenity": "school", "isced:level": "1", "name": "Apopong Primary School", "operator": "Public", "source": "www.ubos.org", "source:date": "2010..2014", "wikidata": "Q22667942"}}, {"type": "node", "id": 3991959666, "lat": 1.3302864, "lon": 34.2715026, "tags": {"addr:city": "Buwakhanyunyi A", "addr:county": "Bulambuli", "addr:district": "Bulambuli", "addr:parish": "Busiu", "addr:subcounty": "Bukhalu", "amenity": "school", "name": "Buwakhanyuyi Primary School", "operator": "Public", "source": "www.ubos.org", "source:date": "2010..2014"}}, {"type": "node", "id": 3991959667, "lat": 1.2617234, "lon": 34.2702736, "tags": {"addr:city": "Buwanyanga A", "addr:county": "Bulambuli", "addr:district": "Bulambuli", "addr:parish": "Buwanyanga", "addr:subcounty": "Bukhalu", "amenity": "school", "name": "Buwanyanga Primary School", "operator": "Public", "source": "www.ubos.org", "source:date": "2010..2014"}}, {"type": "node", "id": 3991959668, "lat": 1.2752026, "lon": 34.2737176, "tags": {"addr:city": "Buyaka", "addr:county": "Bulambuli", "addr:district": "Bulambuli", "addr:parish": "Buyaga Central", "addr:subcounty": "Bukhalu", "amenity": "school", "name": "Buyaga Primary School", "source": "www.ubos.org", "source:date": "2010..2014"}}, {"type": "node", "id": 3991959669, "lat": 1.291618, "lon": 34.2559016, "tags": {"addr:city": "Ngwayi", "addr:county": "Bulambuli", "addr:district": "Bulambuli", "addr:parish": "Bunalwere", "addr:subcounty": "Bukhalu", "amenity": "school", "name": "Good Hope Nursery and Primary School", "source": "www.ubos.org", "source:date": "2010..2014"}}, {"type": "node", "id": 3991959670, "lat": 1.3731075, "lon": 34.2194589, "tags": {"addr:city": "Kamutur", "addr:county": "Bukedea", "addr:district": "Bukedea", "addr:parish": "Kamutur", "addr:subcounty": "Kolir", "amenity": "school", "name": "Kamutur Primary School", "operator": "Public", "source": "www.ubos.org", "source:date": "2010..2014"}}, {"type": "node", "id": 3991959671, "lat": 1.3133286, "lon": 34.1630817, "tags": {"addr:city": "Kolir Town", "addr:county": "Bukedea", "addr:district": "Bukedea", "addr:parish": "Kolir", "addr:subcounty": "Kolir", "amenity": "school", "name": "Kolir Comprehensive Secondary School", "source": "www.ubos.org", "source:date": "2010..2014"}}, {"type": "node", "id": 3991959672, "lat": 1.3100709, "lon": 34.1599907, "tags": {"addr:city": "Kolir Town", "addr:county": "Bukedea", "addr:district": "Bukedea", "addr:parish": "Kolir", "addr:subcounty": "Kolir", "amenity": "school", "name": "Kolir Primary School", "operator": "Public", "source": "www.ubos.org", "source:date": "2010..2014"}}, {"type": "node", "id": 3991959674, "lat": 1.2641299, "lon": 34.1553564, "tags": {"addr:city": "Amuen", "addr:county": "Bukedea", "addr:district": "Bukedea", "addr:parish": "Kodiata", "addr:subcounty": "Kolir", "amenity": "school", "isced:level": "1", "name": "Miroi Primary School", "source": "www.ubos.org", "source:date": "2010..2014", "wikidata": "Q22680540"}}, {"type": "node", "id": 3991959675, "lat": 1.2871873, "lon": 34.1454896, "tags": {"addr:city": "Miroi", "addr:county": "Bukedea", "addr:district": "Bukedea", "addr:parish": "Miroi", "addr:subcounty": "Kolir", "amenity": "school", "isced:level": "1", "name": "Miroi Rock Primary School", "operator": "Public", "source": "www.ubos.org", "source:date": "2010..2014", "wikidata": "Q22680510"}}, {"type": "node", "id": 3991959677, "lat": 1.3034929, "lon": 34.1737369, "tags": {"addr:city": "Apopong", "addr:county": "Bukedea", "addr:district": "Bukedea", "addr:parish": "Apopong", "addr:subcounty": "Kolir", "amenity": "school", "isced:level": "1", "name": "Okula Primary School", "source": "www.ubos.org", "source:date": "2010..2014", "wikidata": "Q22680511"}}, {"type": "node", "id": 3991959678, "lat": 1.2576322, "lon": 34.2091034, "tags": {"addr:city": "Okum", "addr:county": "Bukedea", "addr:district": "Bukedea", "addr:parish": "Okum", "addr:subcounty": "Kolir", "amenity": "school", "isced:level": "1", "name": "Okum Okamole Primary School", "operator": "Public", "source": "www.ubos.org", "source:date": "2010..2014", "wikidata": "Q22680512"}}, {"type": "node", "id": 3991959679, "lat": 1.2575262, "lon": 34.1357864, "tags": {"addr:city": "Kachabule", "addr:county": "Bukedea", "addr:district": "Bukedea", "addr:parish": "Kongatuny", "addr:subcounty": "Kachumbala", "amenity": "school", "isced:level": "1", "name": "Ongatuny Primary School", "operator": "Public", "source": "www.ubos.org", "source:date": "2010..2014", "wikidata": "Q22680513"}}, {"type": "node", "id": 3991959680, "lat": 1.263095, "lon": 34.2708582, "tags": {"addr:city": "Buwanyanga B", "addr:county": "Bulambuli", "addr:district": "Bulambuli", "addr:parish": "Buwanyanga", "addr:subcounty": "Bukhalu", "amenity": "school", "name": "Resource Centre", "source": "www.ubos.org", "source:date": "2010..2014"}}, {"type": "node", "id": 3991959681, "lat": 1.2641764, "lon": 34.2686457, "tags": {"addr:city": "Buyaga Sub-County", "addr:county": "Bulambuli", "addr:district": "Bulambuli", "addr:parish": "Buyaga Central", "addr:subcounty": "Bukhalu", "amenity": "school", "isced:level": "2;3;4", "name": "Saint Joseph Buyaga Secondary School", "source": "www.ubos.org", "source:date": "2010..2014", "wikidata": "Q22680485"}}, {"type": "node", "id": 3991959682, "lat": 1.3896874, "lon": 34.2628294, "tags": {"addr:city": "Tajar", "addr:county": "Bukedea", "addr:district": "Bukedea", "addr:parish": "Kocus", "addr:subcounty": "Kolir", "amenity": "school", "isced:level": "1", "name": "Tajar Primary School", "operator": "Public", "source": "www.ubos.org", "source:date": "2010..2014", "wikidata": "Q22680522"}}, {"type": "node", "id": 3992021639, "lat": 1.4114125, "lon": 34.3499768, "tags": {"addr:city": "Bunatunga", "addr:county": "Bulambuli", "addr:district": "Bulambuli", "addr:parish": "Busyangi", "addr:subcounty": "Bunambutye", "amenity": "school", "isced:level": "1", "name": "King's Primary School", "operator:type": "private", "source": "www.ubos.org", "source:date": "2010..2014", "wikidata": "Q23069696"}}, {"type": "node", "id": 3992031759, "lat": 1.4394398, "lon": 33.959233, "tags": {"addr:city": "Abosan", "addr:county": "Kumi", "addr:district": "Kumi", "addr:parish": "Abubur", "addr:subcounty": "Atutur", "amenity": "school", "isced:level": "1", "name": "Abubur Primary School", "operator:type": "public", "source": "www.ubos.org", "source:date": "2010..2014", "wikidata": "Q22667885"}}, {"type": "node", "id": 3992031760, "lat": 1.5206655, "lon": 33.9788594, "tags": {"addr:city": "Adekis", "addr:county": "Kumi", "addr:district": "Kumi", "addr:parish": "Kachaboi", "addr:subcounty": "Ongino", "amenity": "school", "isced:level": "1", "name": "Adeki's Primary School", "source": "www.ubos.org", "source:date": "2010..2014", "wikidata": "Q22667884"}}, {"type": "node", "id": 3992031761, "lat": 1.4109291, "lon": 33.977585, "tags": {"addr:city": "Akalabai", "addr:county": "Kumi", "addr:district": "Kumi", "addr:parish": "Akalabai", "addr:subcounty": "Atutur", "amenity": "school", "isced:level": "1", "name": "Akalabai Primary School", "operator:type": "public", "source": "www.ubos.org", "source:date": "2010..2014", "wikidata": "Q22667866"}}, {"type": "node", "id": 3992031763, "lat": 1.4521724, "lon": 33.9838148, "tags": {"addr:city": "Ariet", "addr:county": "Kumi", "addr:district": "Kumi", "addr:parish": "Ariet", "addr:subcounty": "Atutur", "amenity": "school", "isced:level": "1", "name": "Ariet Primary School", "operator:type": "public", "source": "www.ubos.org", "source:date": "2010..2014", "wikidata": "Q22667868"}}, {"type": "node", "id": 3992031765, "lat": 1.5537092, "lon": 34.0054587, "tags": {"addr:city": "Ongino", "addr:county": "Kumi", "addr:district": "Kumi", "addr:parish": "Ongino", "addr:subcounty": "Ongino", "amenity": "school", "isced:level": "1", "name": "Atui Tui Primary School", "operator:type": "public", "source": "www.ubos.org", "source:date": "2010..2014", "wikidata": "Q22667870"}}, {"type": "node", "id": 3992031766, "lat": 1.4097067, "lon": 33.9972102, "tags": {"addr:city": "Atutur", "addr:county": "Kumi", "addr:district": "Kumi", "addr:parish": "Atutur", "addr:subcounty": "Atutur", "amenity": "school", "isced:level": "2;3;4", "name": "Atutur High School", "operator:type": "Private", "source": "www.ubos.org", "source:date": "2010..2014", "wikidata": "Q22667869"}}, {"type": "node", "id": 3992031767, "lat": 1.4122822, "lon": 33.9925254, "tags": {"addr:city": "Atutur", "addr:county": "Kumi", "addr:district": "Kumi", "addr:parish": "Atutur", "addr:subcounty": "Atutur", "amenity": "school", "isced:level": "1", "name": "Atutur Primary School", "operator:type": "public", "source": "www.ubos.org", "source:date": "2010..2014", "wikidata": "Q22667874"}}, {"type": "node", "id": 3992031770, "lat": 1.4897946, "lon": 33.9474841, "tags": {"addr:city": "Boma South", "addr:county": "Kumi", "addr:district": "Kumi", "addr:parish": "Boma Ward", "addr:subcounty": "Kumi Town Council", "amenity": "school", "isced:level": "1", "name": "Eagles Academy Primary School", "operator:type": "Private", "source": "www.ubos.org", "source:date": "2010..2014", "wikidata": "Q22667875"}}, {"type": "node", "id": 3992031772, "lat": 1.4105421, "lon": 33.988001, "tags": {"addr:city": "Akalabai", "addr:county": "Kumi", "addr:district": "Kumi", "addr:parish": "Akalabai", "addr:subcounty": "Atutur", "amenity": "school", "isced:level": "0;1", "name": "Hillary Storm Nursery And Primary School", "operator:type": "Private", "source": "www.ubos.org", "source:date": "2010..2014", "wikidata": "Q22667878"}}, {"type": "node", "id": 3992031774, "lat": 1.5155375, "lon": 33.9796834, "tags": {"addr:city": "Morupeded", "addr:county": "Kumi", "addr:district": "Kumi", "addr:parish": "Morupeded", "addr:subcounty": "Ongino", "amenity": "school", "isced:level": "0;1", "name": "Joppa Nursery Primary School", "source": "www.ubos.org", "source:date": "2010..2014", "wikidata": "Q22667880"}}, {"type": "node", "id": 3992031776, "lat": 1.4627192, "lon": 34.0026506, "tags": {"addr:city": "Kacherede", "addr:county": "Kumi", "addr:district": "Kumi", "addr:parish": "Kodukul", "addr:subcounty": "Ongino", "amenity": "school", "isced:level": "1", "name": "Kacherede Primary School", "operator:type": "public", "source": "www.ubos.org", "source:date": "2010..2014", "wikidata": "Q22667881"}}, {"type": "node", "id": 3992031778, "lat": 1.4409111, "lon": 34.0282958, "tags": {"addr:city": "Abitibit", "addr:county": "Bukedea", "addr:district": "Bukedea", "addr:parish": "Okouba", "addr:subcounty": "Malera", "amenity": "school", "isced:level": "1", "name": "Kacoc Primary School", "source": "www.ubos.org", "source:date": "2010..2014", "wikidata": "Q22667851"}}, {"type": "node", "id": 3992031779, "lat": 1.4098459, "lon": 33.9607361, "tags": {"addr:city": "Opetoi", "addr:county": "Kumi", "addr:district": "Kumi", "addr:parish": "Kajamaka", "addr:subcounty": "Kanyum", "amenity": "school", "isced:level": "1", "name": "Kajamaka New Primary School", "operator:type": "public", "source": "www.ubos.org", "source:date": "2010..2014", "wikidata": "Q22667854"}}, {"type": "node", "id": 3992031780, "lat": 1.5095652, "lon": 34.0310191, "tags": {"addr:city": "Kanapa", "addr:county": "Kumi", "addr:district": "Kumi", "addr:parish": "Kanapa", "addr:subcounty": "Ongino", "amenity": "school", "isced:level": "1", "name": "Kanapa Primary School", "operator:type": "public", "source": "www.ubos.org", "source:date": "2010..2014", "wikidata": "Q22667853"}}, {"type": "node", "id": 3992031781, "lat": 1.5482468, "lon": 34.0448376, "tags": {"addr:city": "Kapasak", "addr:county": "Kumi", "addr:district": "Kumi", "addr:parish": "Kapasak", "addr:subcounty": "Ongino", "amenity": "school", "isced:level": "1", "name": "Kapasak Primary School", "operator:type": "public", "source": "www.ubos.org", "source:date": "2010..2014", "wikidata": "Q22667857"}}, {"type": "node", "id": 3992031782, "lat": 1.4076079, "lon": 33.9933106, "tags": {"addr:city": "Apuda", "addr:county": "Kumi", "addr:district": "Kumi", "addr:parish": "Akalabai", "addr:subcounty": "Atutur", "amenity": "school", "isced:level": "1", "name": "Kapokin Primary School", "operator:type": "public", "source": "www.ubos.org", "source:date": "2010..2014", "wikidata": "Q22667855"}}, {"type": "node", "id": 3992031783, "lat": 1.476715, "lon": 33.9664317, "tags": {"addr:city": "Kelim", "addr:county": "Kumi", "addr:district": "Kumi", "addr:parish": "Kelim", "addr:subcounty": "Atutur", "amenity": "school", "isced:level": "1", "name": "Kelim Primary School", "operator:type": "public", "source": "www.ubos.org", "source:date": "2010..2014", "wikidata": "Q22667859"}}, {"type": "node", "id": 3992031784, "lat": 1.4745569, "lon": 34.0188493, "tags": {"addr:city": "Kangole", "addr:county": "Kumi", "addr:district": "Kumi", "addr:parish": "Kongura", "addr:subcounty": "Ongino", "amenity": "school", "isced:level": "1", "name": "Kodukul Primary School", "operator:type": "public", "source": "www.ubos.org", "source:date": "2010..2014", "wikidata": "Q22667858"}}, {"type": "node", "id": 3992031785, "lat": 1.4539917, "lon": 34.0984159, "tags": {"addr:city": "Kokwech", "addr:county": "Bukedea", "addr:district": "Bukedea", "addr:parish": "Kachonga", "addr:subcounty": "Malera", "amenity": "school", "fixme": "Please, check the position of the node", "name": "Kokwech Primary School", "operator:type": "public", "source": "www.ubos.org", "source:date": "2010..2014"}}, {"type": "node", "id": 3992031787, "lat": 1.5292779, "lon": 33.9740448, "tags": {"addr:city": "Adekis", "addr:county": "Kumi", "addr:district": "Kumi", "addr:parish": "Kachaboi", "addr:subcounty": "Ongino", "amenity": "school", "isced:level": "5", "name": "Kumi Hospital Training School", "source": "www.ubos.org", "source:date": "2010..2014", "wikidata": "Q22667861"}}, {"type": "node", "id": 3992031790, "lat": 1.491904, "lon": 33.9502063, "tags": {"addr:city": "Boma North", "addr:county": "Kumi", "addr:district": "Kumi", "addr:parish": "Boma Ward", "addr:subcounty": "Kumi Town Council", "amenity": "school", "isced:level": "2;3;4", "name": "Maraka College", "operator:type": "Private", "source": "www.ubos.org", "source:date": "2010..2014", "wikidata": "Q22667862"}}, {"type": "node", "id": 3992031791, "lat": 1.4932627, "lon": 33.9511768, "tags": {"addr:city": "Boma North", "addr:county": "Kumi", "addr:district": "Kumi", "addr:parish": "Boma Ward", "addr:subcounty": "Kumi Town Council", "amenity": "school", "isced:level": "1", "name": "Mary Mca Leese Primary School", "note:code": "Primary School", "operator:type": "public", "source": "www.ubos.org", "source:date": "2010..2014", "wikidata": "Q22667864"}}, {"type": "node", "id": 3992031793, "lat": 1.4232981, "lon": 34.0408896, "tags": {"addr:city": "Okouba", "addr:county": "Bukedea", "addr:district": "Bukedea", "addr:parish": "Okouba", "addr:subcounty": "Malera", "amenity": "school", "isced:level": "1", "name": "Okuoba Primary School", "operator:type": "public", "source": "www.ubos.org", "source:date": "2010..2014", "wikidata": "Q22667840"}}, {"type": "node", "id": 3992031794, "lat": 1.4936046, "lon": 33.9931625, "tags": {"addr:city": "Kakerekwam", "addr:county": "Kumi", "addr:district": "Kumi", "addr:parish": "Morupeded", "addr:subcounty": "Ongino", "amenity": "school", "isced:level": "1", "name": "Olelia Primary School", "note:code": "Primary School", "operator:type": "public", "source": "www.ubos.org", "source:date": "2010..2014", "wikidata": "Q22667839"}}, {"type": "node", "id": 3992031795, "lat": 1.5142249, "lon": 33.9485125, "tags": {"addr:city": "Omolokonyo", "addr:county": "Kumi", "addr:district": "Kumi", "addr:parish": "Omolokonyo", "addr:subcounty": "Kumi", "amenity": "school", "isced:level": "1", "name": "Omolokonyo Primary School", "operator:type": "public", "source": "www.ubos.org", "source:date": "2010..2014", "wikidata": "Q22667842"}}, {"type": "node", "id": 3992031796, "lat": 1.5456811, "lon": 34.0037949, "tags": {"addr:city": "Ongino", "addr:county": "Kumi", "addr:district": "Kumi", "addr:parish": "Ongino", "addr:subcounty": "Ongino", "amenity": "school", "isced:level": "1", "name": "Ongino Primary School", "operator:type": "public", "source": "www.ubos.org", "source:date": "2010..2014", "wikidata": "Q22667841"}}, {"type": "node", "id": 3992031797, "lat": 1.547466, "lon": 33.9983969, "tags": {"addr:city": "Ongino", "addr:county": "Kumi", "addr:district": "Kumi", "addr:parish": "Ongino", "addr:subcounty": "Ongino", "amenity": "school", "isced:level": "2;3;4", "name": "Ongino Secondary School", "operator:type": "public", "source": "www.ubos.org", "source:date": "2010..2014", "wikidata": "Q22667845"}}, {"type": "node", "id": 3992031798, "lat": 1.4334732, "lon": 33.974784, "tags": {"addr:city": "Orapada", "addr:county": "Kumi", "addr:district": "Kumi", "addr:parish": "Atutur", "addr:subcounty": "Atutur", "amenity": "school", "isced:level": "1", "name": "Oparada Primary School", "note:code": "Primary School", "operator:type": "public", "source": "www.ubos.org", "source:date": "2010..2014", "wikidata": "Q22667844"}}, {"type": "node", "id": 3992031800, "lat": 1.4359096, "lon": 34.0024048, "tags": {"addr:city": "Oswapai", "addr:county": "Kumi", "addr:district": "Kumi", "addr:parish": "Apapai", "addr:subcounty": "Atutur", "amenity": "school", "isced:level": "1", "name": "Oswapai Primary School", "operator:type": "public", "source": "www.ubos.org", "source:date": "2010..2014", "wikidata": "Q22667846"}}, {"type": "node", "id": 3992031801, "lat": 1.4941706, "lon": 33.9473725, "tags": {"addr:city": "Boma North", "addr:county": "Kumi", "addr:district": "Kumi", "addr:parish": "Boma Ward", "addr:subcounty": "Kumi Town Council", "amenity": "school", "isced:level": "2;3;4", "name": "Saint Claver Secondary School", "operator:type": "Private", "source": "www.ubos.org", "source:date": "2010..2014", "wikidata": "Q22667848"}}, {"type": "node", "id": 3992031802, "lat": 1.4116365, "lon": 33.9929066, "tags": {"addr:city": "Atutur", "addr:county": "Kumi", "addr:district": "Kumi", "addr:parish": "Atutur", "addr:subcounty": "Atutur", "amenity": "school", "name": "Teacher Coordinating Centre", "source": "www.ubos.org", "source:date": "2010..2014"}}, {"type": "node", "id": 3992031803, "lat": 1.5361341, "lon": 34.0690011, "tags": {"addr:city": "Totolim", "addr:county": "Kumi", "addr:district": "Kumi", "addr:parish": "Obotia", "addr:subcounty": "Ongino", "amenity": "school", "isced:level": "1", "name": "Totolim Primary School", "operator:type": "public", "source": "www.ubos.org", "source:date": "2010..2014", "wikidata": "Q22667850"}}, {"type": "node", "id": 3992031804, "lat": 1.4823964, "lon": 33.9433254, "tags": {"addr:city": "Boma South", "addr:county": "Kumi", "addr:district": "Kumi", "addr:parish": "Boma Ward", "addr:subcounty": "Kumi Town Council", "amenity": "school", "isced:level": "2;3;4", "name": "View College", "operator:type": "Private", "source": "www.ubos.org", "source:date": "2010..2014", "wikidata": "Q22667849"}}, {"type": "node", "id": 3992044643, "lat": 1.4405224, "lon": 34.1326196, "tags": {"addr:city": "Kabarwa", "addr:county": "Bukedea", "addr:district": "Bukedea", "addr:parish": "Kabarwa", "addr:subcounty": "Malera", "amenity": "school", "isced:level": "1", "name": "Kabarwa Township Primary School", "operator:type": "public", "source": "www.ubos.org", "source:date": "2010..2014", "wikidata": "Q22667637"}}, {"type": "node", "id": 3992044644, "lat": 1.4950264, "lon": 34.1089251, "tags": {"addr:city": "Koreng", "addr:county": "Bukedea", "addr:district": "Bukedea", "addr:parish": "Koreng", "addr:subcounty": "Malera", "amenity": "school", "isced:level": "1", "name": "Kadachari Primary School", "operator:type": "public", "source": "www.ubos.org", "source:date": "2010..2014", "wikidata": "Q22667636"}}, {"type": "node", "id": 3992044645, "lat": 1.4373333, "lon": 34.1325576, "tags": {"addr:city": "Kakori", "addr:county": "Bukedea", "addr:district": "Bukedea", "addr:parish": "Kakori", "addr:subcounty": "Malera", "amenity": "school", "isced:level": "2;3;4", "name": "Malera High School S", "operator:type": "public", "source": "www.ubos.org", "source:date": "2010..2014", "wikidata": "Q22667639"}}, {"type": "node", "id": 3992044646, "lat": 1.437995, "lon": 34.1287039, "tags": {"addr:city": "Kakori", "addr:county": "Bukedea", "addr:district": "Bukedea", "addr:parish": "Kakori", "addr:subcounty": "Malera", "amenity": "school", "name": "Malera Technical School", "source": "www.ubos.org", "source:date": "2010..2014", "wikidata": "Q22667638"}}, {"type": "node", "id": 3999070332, "lat": 1.1682697, "lon": 34.1590594, "tags": {"addr:city": "Amus", "addr:county": "Bukedea", "addr:district": "Bukedea", "addr:parish": "Amus", "addr:subcounty": "Kachumbala", "amenity": "school", "isced:level": "1", "name": "Amus Primary School", "operator:type": "Public", "source": "www.ubos.org", "source:date": "2010..2014", "wikidata": "Q22679997"}}, {"type": "node", "id": 3999070335, "lat": 1.2160533, "lon": 34.1175182, "tags": {"addr:city": "Komuriakere", "addr:county": "Bukedea", "addr:district": "Bukedea", "addr:parish": "Kongoidi", "addr:subcounty": "Kachumbala", "amenity": "school", "isced:level": "0;1", "name": "Christ The King Nursery and Primary School", "source": "www.ubos.org", "source:date": "2010..2014", "wikidata": "Q22679960"}}, {"type": "node", "id": 3999070344, "lat": 1.2135389, "lon": 34.1225772, "tags": {"addr:city": "Kongunga", "addr:county": "Bukedea", "addr:district": "Bukedea", "addr:parish": "Kongunga", "addr:subcounty": "Kachumbala", "amenity": "school", "isced:level": "1", "name": "Kongunga Township Primary School", "source": "www.ubos.org", "source:date": "2010..2014", "wikidata": "Q22679989"}}, {"type": "node", "id": 3999070355, "lat": 1.1656863, "lon": 34.1119647, "tags": {"addr:district": "Pallisa", "amenity": "school", "name": "Primary School", "source": "www.ubos.org", "source:date": "2010..2014"}}, {"type": "node", "id": 3999072058, "lat": 1.2295589, "lon": 34.1100914, "tags": {"addr:city": "Kachumbala", "addr:county": "Bukedea", "addr:district": "Bukedea", "addr:parish": "Kachumbala", "addr:subcounty": "Kachumbala", "amenity": "school", "name": "Teacher's Coordinating Centre", "source": "www.ubos.org", "source:date": "2010..2014", "wikidata": "Q22679995"}}, {"type": "node", "id": 4035651336, "lat": 1.3184247, "lon": 34.339621, "tags": {"addr:city": "Chesongol", "addr:county": "Tingey", "addr:district": "Kapchorwa", "addr:parish": "Cherubei", "addr:subcounty": "Kaserem", "amenity": "school", "isced:level": "1", "name": "Future Harvest Primary School", "operator:type": "private", "source": "www.ubos.org", "source:date": "2010..2014", "wikidata": "Q23134548"}}, {"type": "node", "id": 4035651337, "lat": 1.3474939, "lon": 34.3272515, "tags": {"addr:city": "Wonjoro", "addr:county": "Tingey", "addr:district": "Kapchorwa", "addr:parish": "Kapchela", "addr:subcounty": "Kawowo", "amenity": "school", "fixme": "please, check the position of this node", "name": "Kapchela Junior School", "operator:type": "private", "source": "www.ubos.org", "source:date": "2010..2014", "wikidata": "Q23134512"}}, {"type": "node", "id": 4035651338, "lat": 1.3464866, "lon": 34.3509709, "tags": {"addr:city": "Kawowo", "addr:county": "Tingey", "addr:district": "Kapchorwa", "addr:parish": "Reberwo", "addr:subcounty": "Kawowo", "amenity": "school", "isced:level": "1", "name": "Kapchela Primary School", "operator:type": "public", "source": "www.ubos.org", "source:date": "2010..2014", "wikidata": "Q23134505"}}, {"type": "node", "id": 4035651339, "lat": 1.3193042, "lon": 34.333816, "tags": {"addr:city": "Kubilat Central", "addr:county": "Tingey", "addr:district": "Kapchorwa", "addr:parish": "Sirimityo", "addr:subcounty": "Kaserem", "amenity": "school", "isced:level": "1", "name": "Kapsirikwo Primary School", "source": "www.ubos.org", "source:date": "2010..2014", "wikidata": "Q23134497"}}, {"type": "node", "id": 4035651341, "lat": 1.3267907, "lon": 34.2927702, "tags": {"addr:city": "Muyembe Education Cell", "addr:county": "Bulambuli", "addr:district": "Bulambuli", "addr:parish": "Bungwanyi", "addr:subcounty": "Muyembe", "amenity": "school", "isced:level": "1", "name": "Muyembe Boys Primary School", "source": "www.ubos.org", "source:date": "2010..2014", "wikidata": "Q23134541"}}, {"type": "node", "id": 4035651342, "lat": 1.3243712, "lon": 34.293019, "tags": {"addr:city": "Muyembe Education Cell", "addr:county": "Bulambuli", "addr:district": "Bulambuli", "addr:parish": "Bungwanyi", "addr:subcounty": "Muyembe", "amenity": "school", "name": "Muyembe Girls School", "operator:type": "public", "source": "www.ubos.org", "source:date": "2010..2014", "wikidata": "Q23134535"}}, {"type": "node", "id": 4035651343, "lat": 1.3243756, "lon": 34.2932994, "tags": {"addr:city": "Muyembe Education Cell", "addr:county": "Bulambuli", "addr:district": "Bulambuli", "addr:parish": "Bungwanyi", "addr:subcounty": "Muyembe", "amenity": "school", "name": "Muyembe Parents School", "operator:type": "private", "source": "www.ubos.org", "source:date": "2010..2014", "wikidata": "Q23134527"}}, {"type": "node", "id": 4035651344, "lat": 1.3249932, "lon": 34.291741, "tags": {"addr:city": "Muyembe Education Cell", "addr:county": "Bulambuli", "addr:district": "Bulambuli", "addr:parish": "Bungwanyi", "addr:subcounty": "Muyembe", "amenity": "school", "fixme": "please, check the position of this node", "isced:level": "2;3;4", "name": "Muyembe Senior Secondary School", "operator:type": "private", "source": "www.ubos.org", "source:date": "2010..2014", "wikidata": "Q23134520"}}, {"type": "node", "id": 4035651345, "lat": 1.3431412, "lon": 34.3021445, "tags": {"addr:city": "Nabongo Education Cell", "addr:county": "Bulambuli", "addr:district": "Bulambuli", "addr:parish": "Bufukhula", "addr:subcounty": "Muyembe", "amenity": "school", "isced:level": "2;3;4", "name": "Nabongo Secondary School", "operator:type": "public", "source": "www.ubos.org", "source:date": "2010..2014", "wikidata": "Q23134560"}}, {"type": "node", "id": 4035651346, "lat": 1.4003988, "lon": 34.3475375, "tags": {"addr:city": "Bungwanyi", "addr:county": "Bulambuli", "addr:district": "Bulambuli", "addr:parish": "Bwikhonge", "addr:subcounty": "Bwikhonge", "amenity": "school", "isced:level": "1", "name": "Newlight Primary School", "operator:type": "private", "source": "www.ubos.org", "source:date": "2010..2014", "wikidata": "Q23134555"}}, {"type": "node", "id": 4035724489, "lat": 1.2862639, "lon": 34.3372873, "tags": {"addr:city": "Masabasi", "addr:county": "Bulambuli", "addr:district": "Bulambuli", "addr:parish": "Kibanda", "addr:subcounty": "Sisiyi", "amenity": "school", "fixme": "please, check the position of this node", "isced:level": "0;1", "name": "Alpha Nursery and Primary School", "operator:type": "private", "source": "www.ubos.org", "source:date": "2010..2014", "wikidata": "Q23132078"}}, {"type": "node", "id": 4035724490, "lat": 1.2945192, "lon": 34.2840442, "tags": {"addr:city": "Bulumera Main", "addr:county": "Bulambuli", "addr:district": "Bulambuli", "addr:parish": "Bulumera", "addr:subcounty": "Bukhalu", "amenity": "school", "isced:level": "1", "name": "Bamujje Primary School", "operator:type": "public", "source": "www.ubos.org", "source:date": "2010..2014", "wikidata": "Q23132101"}}, {"type": "node", "id": 4035724492, "lat": 1.262977, "lon": 34.3215563, "tags": {"addr:city": "Nabinyinya North", "addr:county": "Bulambuli", "addr:district": "Bulambuli", "addr:parish": "Kidega", "addr:subcounty": "Sisiyi", "amenity": "school", "isced:level": "1", "name": "Bukibologoto Primary School", "operator:type": "public", "source": "www.ubos.org", "source:date": "2010..2014", "wikidata": "Q23132143"}}, {"type": "node", "id": 4035724494, "lat": 1.2977156, "lon": 34.3262946, "tags": {"addr:city": "Kabembe A", "addr:county": "Bulambuli", "addr:district": "Bulambuli", "addr:parish": "Magala", "addr:subcounty": "Bulegeni", "amenity": "school", "isced:level": "1", "name": "Bulegeni Parents Primary School", "operator:type": "private", "source": "www.ubos.org", "source:date": "2010..2014", "wikidata": "Q23132033"}}, {"type": "node", "id": 4035724495, "lat": 1.2880861, "lon": 34.3341563, "tags": {"addr:city": "Kamayati A", "addr:county": "Bulambuli", "addr:district": "Bulambuli", "addr:parish": "Bulegeni", "addr:subcounty": "Bulegeni", "amenity": "school", "isced:level": "1", "name": "Bulegeni Primary School", "operator:type": "public", "source": "www.ubos.org", "source:date": "2010..2014", "wikidata": "Q23132042"}}, {"type": "node", "id": 4035724496, "lat": 1.2876571, "lon": 34.3343438, "tags": {"addr:city": "Kamayati A", "addr:county": "Bulambuli", "addr:district": "Bulambuli", "addr:parish": "Bulegeni", "addr:subcounty": "Bulegeni", "amenity": "school", "isced:level": "2;3;4", "name": "Bulegeni Secondary School", "source": "www.ubos.org", "source:date": "2010..2014", "wikidata": "Q23132060"}}, {"type": "node", "id": 4035724497, "lat": 1.2336233, "lon": 34.3410491, "tags": {"addr:city": "Bumelu", "addr:county": "Bulambuli", "addr:district": "Bulambuli", "addr:parish": "Soti", "addr:subcounty": "Buluganya", "amenity": "school", "isced:level": "1", "name": "Buluganya Primary School", "operator:type": "public", "source": "www.ubos.org", "source:date": "2010..2014", "wikidata": "Q23132332"}}, {"type": "node", "id": 4035724498, "lat": 1.2335431, "lon": 34.3399876, "tags": {"addr:city": "Bumelu", "addr:county": "Bulambuli", "addr:district": "Bulambuli", "addr:parish": "Soti", "addr:subcounty": "Buluganya", "amenity": "school", "isced:level": "2;3;4", "name": "Buluganya Senior Secondary School", "operator:type": "public", "source": "www.ubos.org", "source:date": "2010..2014", "wikidata": "Q23132341"}}, {"type": "node", "id": 4035724499, "lat": 1.2831496, "lon": 34.2789702, "tags": {"addr:city": "Buyaga Town Ship F Cell", "addr:county": "Bulambuli", "addr:district": "Bulambuli", "addr:parish": "Buyaga", "addr:subcounty": "Bukhalu", "amenity": "school", "isced:level": "1", "name": "Buyaga Parent's Primary School", "source": "www.ubos.org", "source:date": "2010..2014", "wikidata": "Q23132347"}}, {"type": "node", "id": 4035724501, "lat": 1.3089847, "lon": 34.3309727, "tags": {"addr:city": "Kween", "addr:county": "Tingey", "addr:district": "Kapchorwa", "addr:parish": "Kapsoyoyn", "addr:subcounty": "Chepterech", "amenity": "school", "isced:level": "0", "name": "Cheriwo Nursery School", "operator:type": "private", "source": "www.ubos.org", "source:date": "2010..2014", "wikidata": "Q23132301"}}, {"type": "node", "id": 4035724502, "lat": 1.2992853, "lon": 34.3193213, "tags": {"addr:city": "Kamu Trc A", "addr:county": "Bulambuli", "addr:district": "Bulambuli", "addr:parish": "Kisenyi", "addr:subcounty": "Bulegeni", "amenity": "school", "name": "District Farm Institute", "source": "www.ubos.org", "source:date": "2010..2014"}}, {"type": "node", "id": 4035724505, "lat": 1.2724436, "lon": 34.3454832, "tags": {"addr:city": "Goozi", "addr:county": "Bulambuli", "addr:district": "Bulambuli", "addr:parish": "Goozi", "addr:subcounty": "Buginyanya", "amenity": "school", "isced:level": "1", "name": "Goozi Primary School", "source": "www.ubos.org", "source:date": "2010..2014", "wikidata": "Q23132271"}}, {"type": "node", "id": 4035724506, "lat": 1.288103, "lon": 34.3394189, "tags": {"addr:city": "Kamwanyi", "addr:county": "Bulambuli", "addr:district": "Bulambuli", "addr:parish": "Kibanda", "addr:subcounty": "Sisiyi", "amenity": "school", "fixme": "please, check the position of this node", "isced:level": "0;1", "name": "Grace Academy (Nursery and Primary)", "operator:type": "private", "source": "www.ubos.org", "source:date": "2010..2014", "wikidata": "Q23132276"}}, {"type": "node", "id": 4035724507, "lat": 1.307078, "lon": 34.3388455, "tags": {"addr:city": "Kapchuik", "addr:county": "Tingey", "addr:district": "Kapchorwa", "addr:parish": "Kapsoyoyn", "addr:subcounty": "Chepterech", "amenity": "school", "isced:level": "1", "name": "Jordan Primary School", "operator:type": "private", "source": "www.ubos.org", "source:date": "2010..2014", "wikidata": "Q23132284"}}, {"type": "node", "id": 4035724508, "lat": 1.3038415, "lon": 34.3241722, "tags": {"addr:city": "Kamunda", "addr:county": "Bulambuli", "addr:district": "Bulambuli", "addr:parish": "Kisenyi", "addr:subcounty": "Bulegeni", "amenity": "school", "isced:level": "1", "name": "Kamunda Primary School", "source": "www.ubos.org", "source:date": "2010..2014", "wikidata": "Q23132293"}}, {"type": "node", "id": 4035724509, "lat": 1.3181463, "lon": 34.3413372, "tags": {"addr:city": "Were", "addr:county": "Tingey", "addr:district": "Kapchorwa", "addr:parish": "Were", "addr:subcounty": "Kaserem", "amenity": "school", "name": "Kaserem Primary School", "operator:type": "public", "source": "www.ubos.org", "source:date": "2010..2014"}}, {"type": "node", "id": 4035724511, "lat": 1.2535902, "lon": 34.3431212, "tags": {"addr:city": "Sowesi", "addr:county": "Bulambuli", "addr:district": "Bulambuli", "addr:parish": "Luzzi", "addr:subcounty": "Sisiyi", "amenity": "school", "isced:level": "1", "name": "Luzzi Primary School", "operator:type": "public", "source": "www.ubos.org", "source:date": "2010..2014", "wikidata": "Q23132240"}}, {"type": "node", "id": 4035724515, "lat": 1.3139036, "lon": 34.2886333, "tags": {"addr:city": "Bumugoya B", "addr:county": "Bulambuli", "addr:district": "Bulambuli", "addr:parish": "Bumugoya", "addr:subcounty": "Muyembe", "amenity": "school", "isced:level": "2;3;4", "name": "Muyembe High School", "operator:type": "private", "source": "www.ubos.org", "source:date": "2010..2014", "wikidata": "Q23134466"}}, {"type": "node", "id": 4035724517, "lat": 1.287922, "lon": 34.3378717, "tags": {"addr:city": "Kamwanyi", "addr:county": "Bulambuli", "addr:district": "Bulambuli", "addr:parish": "Kibanda", "addr:subcounty": "Sisiyi", "amenity": "school", "fixme": "please, check the position of this node", "name": "Saint Mary's Primary School", "operator:type": "private", "source": "www.ubos.org", "source:date": "2010..2014"}}, {"type": "node", "id": 4035724518, "lat": 1.2915113, "lon": 34.3046036, "tags": {"addr:city": "Nemba Trc", "addr:county": "Bulambuli", "addr:district": "Bulambuli", "addr:parish": "Muvule", "addr:subcounty": "Bulegeni", "amenity": "school", "isced:level": "1", "name": "Samazi Primary School", "source": "www.ubos.org", "source:date": "2010..2014", "wikidata": "Q23134436"}}, {"type": "node", "id": 4035724519, "lat": 1.2814774, "lon": 34.3082504, "tags": {"addr:city": "Dembe A", "addr:county": "Bulambuli", "addr:district": "Bulambuli", "addr:parish": "Simu", "addr:subcounty": "Sisiyi", "amenity": "school", "isced:level": "1", "name": "Simu Primary School", "operator:type": "public", "source": "www.ubos.org", "source:date": "2010..2014", "wikidata": "Q23134441"}}, {"type": "node", "id": 4035724520, "lat": 1.2623997, "lon": 34.3222097, "tags": {"addr:city": "Nabinyinya North", "addr:county": "Bulambuli", "addr:district": "Bulambuli", "addr:parish": "Kidega", "addr:subcounty": "Sisiyi", "amenity": "school", "isced:level": "2;3;4", "name": "Sisiyi High School", "operator:type": "public", "source": "www.ubos.org", "source:date": "2010..2014", "wikidata": "Q23134448"}}, {"type": "node", "id": 4035724521, "lat": 1.2386931, "lon": 34.3381327, "tags": {"addr:city": "Soti T/c", "addr:county": "Bulambuli", "addr:district": "Bulambuli", "addr:parish": "Soti", "addr:subcounty": "Buluganya", "amenity": "school", "isced:level": "1", "name": "Soti Primary School", "source": "www.ubos.org", "source:date": "2010..2014", "wikidata": "Q23134404"}}, {"type": "node", "id": 4035724523, "lat": 1.2427639, "lon": 34.349762, "tags": {"addr:city": "Nakitambasi", "addr:county": "Bulambuli", "addr:district": "Bulambuli", "addr:parish": "Tunyi", "addr:subcounty": "Bulaago", "amenity": "school", "isced:level": "1", "name": "Tunyi Primary School", "source": "www.ubos.org", "source:date": "2010..2014", "wikidata": "Q23134410"}}, {"type": "node", "id": 4035724524, "lat": 1.2423419, "lon": 34.3492786, "tags": {"addr:city": "Tunyi", "addr:county": "Bulambuli", "addr:district": "Bulambuli", "addr:parish": "Tunyi", "addr:subcounty": "Bulaago", "amenity": "school", "isced:level": "2;3;4", "name": "Tunyi Senior Secondary School", "source": "www.ubos.org", "source:date": "2010..2014", "wikidata": "Q23134424"}}, {"type": "node", "id": 4035724525, "lat": 1.2898446, "lon": 34.3251771, "tags": {"addr:city": "Doondo", "addr:county": "Bulambuli", "addr:district": "Bulambuli", "addr:parish": "Magala", "addr:subcounty": "Bulegeni", "amenity": "school", "fixme": "please, check the position of this node", "isced:level": "0;1", "name": "Victory Parents Nursery and Primary School", "source": "www.ubos.org", "source:date": "2010..2014", "wikidata": "Q23134380"}}, {"type": "node", "id": 4391537326, "lat": 1.4097067, "lon": 33.9972102, "tags": {"addr:city": "KUMI KAMPALA", "addr:street": "ATUTUR CALFORNIA ROAD", "amenity": "school", "name": "ATUTUR SEED SECONDARY SCHOOL", "operator": "GOVERNMENT"}}, {"type": "node", "id": 4533248035, "lat": 1.4675316, "lon": 33.9826869, "tags": {"amenity": "school", "name": "Light and shine nursery and primary school"}}, {"type": "node", "id": 4533259415, "lat": 1.4643569, "lon": 33.9844894, "tags": {"amenity": "school", "name": "Mother Magarete nursery and pfimary school"}}, {"type": "node", "id": 5162411558, "lat": 1.231963, "lon": 34.1573511}, {"type": "node", "id": 5162411559, "lat": 1.2318343, "lon": 34.1571312}, {"type": "node", "id": 5162411560, "lat": 1.2318772, "lon": 34.1570587}, {"type": "node", "id": 5162411561, "lat": 1.2321829, "lon": 34.1567932}, {"type": "node", "id": 5162413858, "lat": 1.2321837, "lon": 34.1567057}, {"type": "node", "id": 5162413859, "lat": 1.2331491, "lon": 34.1565903}, {"type": "node", "id": 5162413860, "lat": 1.233222, "lon": 34.1569394}, {"type": "node", "id": 6395772306, "lat": 1.2378936, "lon": 34.2636893}, {"type": "node", "id": 6395772307, "lat": 1.23804, "lon": 34.2640634}, {"type": "node", "id": 6395772308, "lat": 1.2379627, "lon": 34.2641243}, {"type": "node", "id": 6395772309, "lat": 1.2380318, "lon": 34.2642788}, {"type": "node", "id": 6395772310, "lat": 1.237731, "lon": 34.2644415}, {"type": "node", "id": 6395772311, "lat": 1.2376335, "lon": 34.2642504}, {"type": "node", "id": 6395772312, "lat": 1.2377067, "lon": 34.2639983}, {"type": "node", "id": 6395772313, "lat": 1.2376904, "lon": 34.2638032}, {"type": "node", "id": 8404201583, "lat": 1.3506176, "lon": 34.0482406, "tags": {"amenity": "school", "name": "Bright Foundation Pri Sch"}}, {"type": "node", "id": 9180922091, "lat": 1.3106323, "lon": 34.1219256}, {"type": "node", "id": 9180922092, "lat": 1.3106408, "lon": 34.1219921}, {"type": "node", "id": 9180922093, "lat": 1.3106572, "lon": 34.12199}, {"type": "node", "id": 9180922094, "lat": 1.3106487, "lon": 34.1219235}, {"type": "node", "id": 9180922095, "lat": 1.3107865, "lon": 34.1219647}, {"type": "node", "id": 9180922096, "lat": 1.3107779, "lon": 34.1218984}, {"type": "node", "id": 9180922097, "lat": 1.3107721, "lon": 34.1219665}, {"type": "node", "id": 9180922098, "lat": 1.3107635, "lon": 34.1219002}, {"type": "node", "id": 9180922099, "lat": 1.310643, "lon": 34.1218797}, {"type": "node", "id": 9180922100, "lat": 1.3106632, "lon": 34.122036}, {"type": "node", "id": 9180922101, "lat": 1.3107791, "lon": 34.122021}, {"type": "node", "id": 9180922102, "lat": 1.310759, "lon": 34.1218648}, {"type": "way", "id": 378470712, "nodes": [3818818318, 3818818319, 3818818320, 3818818321, 3818818318], "tags": {"amenity": "school"}}, {"type": "way", "id": 531888074, "nodes": [5162413859, 5162413858, 3958426614, 5162413860, 5162413859], "tags": {"addr:city": "Kolir Sub-county", "addr:county": "Bukedea", "addr:district": "Bukedea", "addr:parish": "Aligoi", "addr:subcounty": "Kachumbala", "amenity": "school", "isced:level": "1", "name": "Aligoi Primary School", "opening_hours": "Mo-Fr 08:00-17:00", "operator": "Public", "wikidata": "Q41805009"}}, {"type": "way", "id": 531890446, "nodes": [5162411561, 5162411560, 5162411559, 5162411558, 3958426615, 5162411561], "tags": {"addr:city": "Kachumbala", "amenity": "school", "isced:level": "2;3;4", "name": "Aligoi Secondary School", "opening_hours": "Mo-Fr 08:00-17:00", "wikidata": "Q41805514"}}, {"type": "way", "id": 682857930, "nodes": [6395772306, 6395772307, 6395772308, 6395772309, 6395772310, 6395772311, 6395772312, 6395772313, 6395772306], "tags": {"amenity": "school", "fixme": "Needs a lot more playing material", "name": "Sironko Primary School Playing field", "operator": "Sironko Primary", "source": "local knowledge"}}, {"type": "way", "id": 993722155, "nodes": [9180922102, 9180922098, 9180922096, 9180922095, 9180922097, 9180922101, 9180922100, 9180922093, 9180922092, 9180922091, 9180922094, 9180922099, 9180922102], "tags": {"addr:city": "Bukedea", "amenity": "school", "building": "yes", "name": "Akero Primary school", "opening_hours": "Mo-Sa 08:00-18:00"}}]}