{"version": 0.6, "generator": "Overpass API 0.7.61.5 4133829e", "osm3s": {"timestamp_osm_base": "2024-03-06T11:28:47Z", "copyright": "The data included in this document is from www.openstreetmap.org. The data is made available under ODbL."}, "elements": [{"type": "node", "id": 1150843783, "lat": -1.5190658, "lon": 37.2676175, "tags": {"addr:city": "Machakos", "addr:street": "Mwatu Wa Ngoma Street", "amenity": "bank", "atm": "yes", "brand": "Barclays", "brand:wikidata": "Q245343", "name": "Barclays"}}, {"type": "node", "id": 5559036779, "lat": -1.6424929, "lon": 37.388388}, {"type": "node", "id": 5559036780, "lat": -1.6424793, "lon": 37.3884107}, {"type": "node", "id": 5559036781, "lat": -1.6425182, "lon": 37.3884341}, {"type": "node", "id": 5559036782, "lat": -1.6425249, "lon": 37.3884073}, {"type": "node", "id": 5641420326, "lat": -1.6640933, "lon": 37.4475817, "tags": {"amenity": "bank", "image:pointofinterest": "https://kc.humanitarianresponse.info/attachment/original?media_file=mapkibera/attachments/1526979759514.jpg", "name": "Kikima Financial Services Association", "opening_hours": "Mo- Fr 8:00-5:00", "wb_pb:id": "22956405", "wheelchair": "yes"}}, {"type": "node", "id": 5641420331, "lat": -1.661525, "lon": 37.4474368, "tags": {"amenity": "bank", "image:pointofinterest": "https://kc.humanitarianresponse.info/attachment/original?media_file=mapkibera/attachments/1526978286563.jpg", "name": "Cooperative Bank Agent", "opening_hours": "Mo- Fr 8:00-4:00", "wb_pb:id": "22956190", "wheelchair": "yes"}}, {"type": "node", "id": 5641420332, "lat": -1.6617939, "lon": 37.4472778, "tags": {"amenity": "bank", "image:pointofinterest": "https://kc.humanitarianresponse.info/attachment/original?media_file=mapkibera/attachments/1526978175143.jpg", "name": "KCB Bank", "opening_hours": "Mo- Fr 8:00-4:00", "wb_pb:id": "22956182", "wheelchair": "yes"}}, {"type": "node", "id": 6226897860, "lat": -1.4439199, "lon": 37.0465841, "tags": {"addr:city": "Athi River", "addr:street": "Daystar Road", "amenity": "bank", "name": "KCB ATM - Daystar University"}}, {"type": "node", "id": 6229375973, "lat": -1.5184073, "lon": 37.2640231, "tags": {"addr:city": "Machakos", "addr:housenumber": "Susu Centre,", "addr:street": "Chumvi-Machakos-Kitui Road", "amenity": "bank", "atm": "yes", "name": "KWFT Machakos"}}, {"type": "node", "id": 6229376432, "lat": -1.517802, "lon": 37.2692456, "tags": {"addr:city": "Machakos", "addr:street": "Syokimau Avenue", "amenity": "bank", "atm": "yes", "name": "Kenya Commercial Bank Machakos"}}, {"type": "node", "id": 6229376443, "lat": -1.5183537, "lon": 37.2673767, "tags": {"addr:city": "Machakos", "addr:housenumber": "61,", "addr:street": "Mwatu Wa Ngoma Street", "amenity": "bank", "atm": "yes", "brand": "Standard Chartered", "brand:wikidata": "Q548278", "name": "Standard Chartered"}}, {"type": "node", "id": 6229376458, "lat": -1.5185526, "lon": 37.2663083, "tags": {"addr:city": "Machakos", "addr:housenumber": "Blossom House,", "addr:street": "Mbolu Malu Road", "amenity": "bank", "atm": "yes", "brand": "Equity Bank", "brand:wikidata": "Q5384664", "name": "Equity Bank"}}, {"type": "node", "id": 6229376464, "lat": -1.5180222, "lon": 37.266152, "tags": {"addr:city": "Machakos", "addr:street": "Mbolu Malu Road", "amenity": "bank", "atm": "yes", "name": "Diamond Trust Bank  Machakos"}}, {"type": "node", "id": 6229609090, "lat": -1.5209984, "lon": 37.267851, "tags": {"addr:city": "Machakos", "addr:street": "Machakos-Kitui Road", "amenity": "bank", "atm": "yes", "name": "Chase Bank - Rafiki DTM - Machakos"}}, {"type": "node", "id": 6229609103, "lat": -1.5188129, "lon": 37.2681013, "tags": {"addr:city": "Machakos", "addr:street": "Mbolu Malu Road", "amenity": "bank", "atm": "yes", "name": "NIC Bank, Machakos Branch"}}, {"type": "node", "id": 6229609105, "lat": -1.5185689, "lon": 37.2691845, "tags": {"addr:city": "Machakos", "addr:street": "Mbolu Malu Road", "amenity": "bank", "atm": "yes", "name": "CBA Bank"}}, {"type": "node", "id": 6229609106, "lat": -1.5185689, "lon": 37.2689782, "tags": {"addr:city": "Machakos", "addr:street": "Mbolu Malu Road", "amenity": "bank", "atm": "yes", "name": "HFC Machakos"}}, {"type": "node", "id": 6229609112, "lat": -1.5188336, "lon": 37.2689404, "tags": {"addr:city": "Machakos", "addr:street": "Mbolu Malu Road", "amenity": "bank", "atm": "yes", "name": "K - Rep Bank"}}, {"type": "node", "id": 6229609117, "lat": -1.5196036, "lon": 37.2689954, "tags": {"addr:city": "Machakos", "addr:street": "Syokimau Avenue", "amenity": "bank", "atm": "yes", "name": "National Bank Of Kenya-Machakos"}}, {"type": "node", "id": 6229609118, "lat": -1.520023, "lon": 37.2690435, "tags": {"addr:city": "Machakos", "addr:street": "Ngei Road", "amenity": "bank", "atm": "yes", "name": "Family Bank"}}, {"type": "node", "id": 6229609119, "lat": -1.5197274, "lon": 37.2689919, "tags": {"addr:city": "Machakos", "addr:street": "Syokimau Avenue", "amenity": "bank", "name": "Fep Machackos"}}, {"type": "node", "id": 6229624516, "lat": -1.8522943, "lon": 37.259561, "tags": {"addr:city": "Salama", "addr:street": "Mombasa Road", "amenity": "bank", "name": "KCB ATM - Salama"}}, {"type": "node", "id": 10082759433, "lat": -1.5199357, "lon": 37.2687641}, {"type": "node", "id": 10082759434, "lat": -1.5199324, "lon": 37.2688888}, {"type": "node", "id": 10082759435, "lat": -1.5201134, "lon": 37.2688935}, {"type": "node", "id": 10082759436, "lat": -1.5201166, "lon": 37.2687688}, {"type": "way", "id": 580833129, "nodes": [5559036779, 5559036780, 5559036781, 5559036782, 5559036779], "tags": {"amenity": "bank", "building": "yes"}}, {"type": "way", "id": 1101826764, "nodes": [10082759433, 10082759434, 10082759435, 10082759436, 10082759433], "tags": {"amenity": "bank", "building": "yes", "name": "family bank", "opening_hours": "24/7", "operator": "family bank"}}]}