{"version": 0.6, "generator": "Overpass API 0.7.61.5 4133829e", "osm3s": {"timestamp_osm_base": "2024-03-05T13:47:00Z", "copyright": "The data included in this document is from www.openstreetmap.org. The data is made available under ODbL."}, "elements": [{"type": "node", "id": 1417050168, "lat": 35.0157808, "lon": 71.3216111, "tags": {"name": "Spinkay", "place": "village"}}, {"type": "node", "id": 1417050521, "lat": 34.877924, "lon": 71.1574347, "tags": {"name": "\u0643\u064a\u0631\u0627\u0644\u0647", "name:en": "Kerala", "place": "village"}}, {"type": "node", "id": 1442412033, "lat": 34.8550789, "lon": 71.1447329, "tags": {"name": "Chanarmasa", "place": "hamlet"}}, {"type": "node", "id": 3443877644, "lat": 34.7399114, "lon": 71.5285048, "tags": {"alt_name": "Khaar", "name": "\u062e\u0627\u0631 \u0628\u0627\u062c\u0648\u0691", "name:ar": "\u062e\u0627\u0631 \u0628\u0627\u062c\u0648\u0631", "name:en": "Khar Bajaur", "name:fa": "\u062e\u0627\u0631 \u0628\u0627\u062c\u0648\u0631", "name:ps": "\u069a\u0627\u0631 \u0628\u0627\u062c\u0648\u0693", "name:ur": "\u062e\u0627\u0631 \u0628\u0627\u062c\u0648\u0691", "place": "town", "wikidata": "Q1740566"}}, {"type": "node", "id": 4417813138, "lat": 34.790227, "lon": 71.10962, "tags": {"alt_name": "\u0633\u0631\u0643\u0627\u0646\u06cc;Serkani;Sirkhani;Sarkanu;Sar Kani", "name": "\u0633\u0631\u06a9\u0627\u06bc\u06cc", "name:en": "Sarkani", "name:ps": "\u0633\u0631\u06a9\u0627\u06bc\u06cc", "name:ru": "\u0421\u0430\u0440\u043a\u0430\u043d\u0430\u0439", "place": "town", "source:name": "GNS"}}, {"type": "node", "id": 4417816409, "lat": 34.891018, "lon": 71.181298, "tags": {"alt_name": "\u0645\u0631\u0647 \u0643\u0648\u0686\u0643;Marwura Alaqadari;Marah Warah;Marawarra;Marawarah;Marwura", "name": "\u0645\u0631\u0648\u0631\u0647", "name:en": "Marawara", "name:ps": "\u0645\u0631\u0648\u0631\u0647", "name:ru": "Maravara", "place": "town", "source:name": "GNS"}}, {"type": "node", "id": 4417845535, "lat": 34.748202, "lon": 71.023512, "tags": {"alt_name": "\u0646\u0631\u0646\u0642 \u067e\u0627\u0626\u06cc\u0646;Kuz Naranq", "name": "\u0643\u0648\u0632 \u0646\u0631\u0646\u06af", "name:en": "Kuz Narang", "name:ps": "\u0643\u0648\u0632 \u0646\u0631\u0646\u06af", "name:ru": "\u041d\u0430\u0440\u0430\u043d\u0433", "place": "town", "source:name": "GNS"}}, {"type": "node", "id": 4417949394, "lat": 34.919136, "lon": 71.098633, "tags": {"alt_name": "\u0648\u062a\u067e\u0648\u0631;Wotapur;Wutahpur", "name": "\u0648\u067c\u0647 \u067e\u0648\u0631", "name:en": "Watahpur", "name:ps": "\u0648\u067c\u0647 \u067e\u0648\u0631", "name:ru": "Votapur", "place": "town", "source:name": "GNS"}}, {"type": "node", "id": 4418439930, "lat": 34.965974, "lon": 71.274601, "tags": {"alt_name": "Karbori", "name": "\u0643\u0631\u0628\u0648\u0693\u06cc", "name:en": "Karburi", "name:ps": "\u0643\u0631\u0628\u0648\u0693\u06cc", "name:ru": "Karbori", "place": "town", "source:name": "GNS"}}, {"type": "node", "id": 4418455317, "lat": 35.033328, "lon": 71.358087, "tags": {"alt_name": "\u0627\u0633\u0645\u0627\u0631;Asma", "name": "\u0622\u0633\u0645\u0627\u0631", "name:en": "Asmar", "name:ps": "\u0622\u0633\u0645\u0627\u0631", "name:ru": "\u0410\u0441\u043c\u0430\u0440", "place": "town", "source:name": "GNS"}}, {"type": "node", "id": 4418459910, "lat": 34.992492, "lon": 71.419355, "tags": {"alt_name": "\u0689\u0627\u0646\u06af\u0627\u0645", "name": "\u062f\u0627\u0646\u06af\u0627\u0645", "name:en": "Dangam", "name:ps": "\u062f\u0627\u0646\u06af\u0627\u0645", "name:ru": "Dangam", "place": "town", "source:name": "GNS"}}, {"type": "node", "id": 5144012738, "lat": 34.8727951, "lon": 71.1508321, "tags": {"capital": "4", "int_name": "Asadabad", "is_in:country": "Afghanistan", "name": "\u0627\u0633\u062f\u0627\u0628\u0627\u062f\u069a\u0627\u0631", "name:cs": "Asad\u00e1b\u00e1d", "name:en": "Asadabad", "name:fr": "Assad\u00e2b\u00e2d", "name:hi": "\u0905\u0938\u0926\u093e\u092c\u093e\u0926", "name:ko": "\uc544\uc0ac\ub2e4\ubc14\ub4dc", "name:ml": "\u0d05\u0d38\u0d26\u0d3e\u0d2c\u0d3e\u0d26\u0d4d", "name:ps": "\u0627\u0633\u062f\u0627\u0628\u0627\u062f\u069a\u0627\u0631", "name:ru": "\u0410\u0441\u0430\u0434\u0430\u0431\u0430\u0434", "name:zh": "\u963f\u8428\u8fbe\u5df4\u5fb7/\u963f\u85a9\u9054\u5df4\u5fb7", "name:zh-Hans": "\u963f\u8428\u8fbe\u5df4\u5fb7", "name:zh-Hant": "\u963f\u85a9\u9054\u5df4\u5fb7", "place": "city", "wikidata": "Q685808"}}, {"type": "node", "id": 6848814484, "lat": 34.9214916, "lon": 71.0927325, "tags": {"name": "\u0634\u0627\u0631\u0644\u0648 \u06a9\u0644\u06cc", "name:en": "Sharlo", "place": "village"}}, {"type": "node", "id": 7542025489, "lat": 34.9613507, "lon": 71.4170763, "tags": {"place": "village"}}, {"type": "node", "id": 7542025512, "lat": 34.9565742, "lon": 71.4180958, "tags": {"place": "village"}}, {"type": "node", "id": 9494429696, "lat": 34.9472498, "lon": 71.385368, "tags": {"name": "\u0644\u0648\u06cc \u06af\u0648\u0631\u06cc\u06af\u0627", "name:en": "Loi Goriga", "place": "hamlet"}}, {"type": "node", "id": 9494461835, "lat": 34.9456393, "lon": 71.3857637, "tags": {"name": "\u06af\u0648\u0631\u06cc\u06af\u0627", "name:en": "Goriga", "place": "hamlet"}}, {"type": "node", "id": 10857739745, "lat": 34.830639, "lon": 71.3276142, "tags": {"fixme": "check name", "name": "Kitkot", "place": "village"}}, {"type": "node", "id": 11244918862, "lat": 34.72873, "lon": 71.2026085, "tags": {"name": "\u0628\u0627\u0631 \u0686\u0645\u0631\u06a9\u0646\u0688", "name:en": "Bar Chamer Kand", "name:ps": "\u0628\u0627\u0631 \u0686\u0645\u0631\u06a9\u0646\u0689", "name:ur": "\u0628\u0627\u0631 \u0686\u0645\u0631\u06a9\u0646\u0688", "place": "village"}}, {"type": "node", "id": 11244918882, "lat": 34.6673574, "lon": 71.2938053, "tags": {"name": "\u0646\u0627\u0648\u0627\u06af\u0626", "name:en": "Nawagai", "name:ps": "\u0646\u0627\u0648\u06ab\u064a", "name:ur": "\u0646\u0627\u0648\u0627\u06af\u0626", "place": "village"}}, {"type": "node", "id": 11244926306, "lat": 34.7952526, "lon": 71.409648, "tags": {"name": "\u0645\u0627\u0645\u0648\u0646\u062f", "name:en": "Mamund", "name:ps": "\u0645\u0627\u0645\u0648\u0646\u062f", "name:ur": "\u0645\u0627\u0645\u0648\u0646\u062f", "place": "village"}}, {"type": "node", "id": 11244926503, "lat": 34.751997, "lon": 71.4562879, "tags": {"name": "\u0639\u0646\u0627\u06cc\u062a \u06a9\u0644\u06cc", "name:en": "Inayat Killi", "name:ur": "\u0639\u0646\u0627\u06cc\u062a \u06a9\u0644\u06cc", "place": "village"}}]}