{"version": 0.6, "generator": "Overpass API 0.7.61.5 4133829e", "osm3s": {"timestamp_osm_base": "2024-03-06T11:15:40Z", "copyright": "The data included in this document is from www.openstreetmap.org. The data is made available under ODbL."}, "elements": [{"type": "node", "id": 480459381, "lat": 35.1372157, "lon": 46.3010151, "tags": {"is_in:country": "Iran", "is_in:state": "Kermanshah", "name": "\u0648\u0631\u0627", "name:ckb": "\u0648\u0695\u0627", "name:en": "Vara", "place": "village", "wikidata": "Q5830721"}}, {"type": "node", "id": 480459382, "lat": 35.1393379, "lon": 46.3183468, "tags": {"is_in:country": "Iran", "is_in:state": "Kermanshah", "name": "\u062f\u0627\u0631\u06cc\u0627\u0646", "name:ckb": "\u062f\u0627\u0631\u06cc\u0627\u0646", "name:en": "Daryan", "place": "village"}}, {"type": "node", "id": 480459383, "lat": 35.1808, "lon": 46.2544, "tags": {"alt_name:en": "Navdesheh", "is_in:country": "Iran", "is_in:state": "Kermanshah", "name": "\u0646\u0648\u062f\u0634\u0647", "name:ckb": "\u0646\u06c6\u062f\u0634\u06d5", "name:en": "Nowdeshah", "name:fa": "\u0646\u0648\u062f\u0634\u0647", "name:fr": "Nowdeshah", "name:ku": "Nod\u015fe", "name:ru": "\u041d\u043e\u0443\u0434\u0435\u0448\u0430\u0445", "place": "town", "population": "3683", "population:date": "2016", "source:name": "GNS", "source:population": "amar.org.ir", "wikidata": "Q972102", "wikipedia": "fa:\u0646\u0648\u062f\u0634\u0647"}}, {"type": "node", "id": 480459384, "lat": 35.1795778, "lon": 46.3450429, "tags": {"is_in:country": "Iran", "name": "\u0646\u0627\u0648", "name:ku": "Naw", "place": "village", "wikidata": "Q5810854"}}, {"type": "node", "id": 480459388, "lat": 35.1380629, "lon": 46.4660167, "tags": {"is_in:country": "Iran", "name": "\u062f\u0644", "name:en": "Dal", "name:ku": "Del", "place": "village"}}, {"type": "node", "id": 480459390, "lat": 35.0458307, "lon": 46.3622191, "tags": {"is_in": "Kermanshah,Iran", "is_in:country": "Iran", "is_in:state": "Kermanshah", "name": "\u067e\u0627\u0648\u0647", "name:ckb": "\u067e\u0627\u0648\u06d5", "name:en": "Paveh", "name:fa": "\u067e\u0627\u0648\u0647", "name:fr": "Paveh", "name:ku": "Pawe", "name:uk": "\u041f\u0430\u0432\u0435", "place": "town", "population": "25771", "population:date": "2016", "source:population": "amar.org.ir", "wikidata": "Q720608"}}, {"type": "node", "id": 2246558079, "lat": 35.06759, "lon": 46.6041925, "tags": {"is_in:country": "Iran", "name": "\u067e\u0627\u0644\u0646\u06af\u0627\u0646", "name:ckb": "\u067e\u0627\u06b5\u06d5\u0646\u06af\u0627\u0646", "name:en": "Pallengan", "name:ku": "Pallengan", "place": "village", "wikidata": "Q5858551"}}, {"type": "node", "id": 2246922114, "lat": 35.1494886, "lon": 46.4036958, "tags": {"is_in:country": "Iran", "name": "\u0627\u0633\u067e\u0631\u06cc\u0632", "name:ckb": "\u0626\u06d5\u0633\u067e\u06d5\u0631\u06ce\u0632", "name:ku": "Esper\u00eaz", "place": "village"}}, {"type": "node", "id": 2247098969, "lat": 35.13866, "lon": 46.6025711, "tags": {"is_in:country": "Iran", "name": "\u067e\u0627\u06cc\u06af\u0644\u0627\u0646", "name:en": "Paygelan", "name:ku": "Paygelan", "place": "village", "wikidata": "Q10860410", "wikipedia": "en:Paygelan"}}, {"type": "node", "id": 2247098988, "lat": 35.1387482, "lon": 46.580916, "tags": {"is_in:country": "Iran", "name": "\u0698\u0646\u06cc\u0646", "name:ckb": "\u0698\u0646\u06ce\u0646", "name:en": "Zhenin", "name:ku": "Jin\u00ean", "place": "village", "wikidata": "Q6394140", "wikipedia": "en:Zhenin"}}, {"type": "node", "id": 2247099311, "lat": 35.1659805, "lon": 46.5065819, "tags": {"is_in:country": "Iran", "name": "\u0633\u0631\u0648\u0645\u0627\u0644", "name:ku": "Ser\u00fbmall", "place": "village", "wikidata": "Q5838125"}}, {"type": "node", "id": 2247099315, "lat": 35.1637433, "lon": 46.4965341, "tags": {"is_in:country": "Iran", "name": "\u06a9\u06a9\u0644\u06cc\u06a9 \u0622\u0628\u0627\u062f", "name:en": "Kaklikabad", "name:ku": "Kekll\u00eeAwa", "place": "village", "wikidata": "Q5848042", "wikipedia": "en:Kaklikabad"}}, {"type": "node", "id": 2247099320, "lat": 35.174231, "lon": 46.5668989, "tags": {"is_in:country": "Iran", "name": "\u0646\u0633\u0646\u0627\u0631", "name:en": "Nasanar", "name:ku": "Nisenar", "place": "village", "wikidata": "Q5839444", "wikipedia": "en:Nasanar"}}, {"type": "node", "id": 2247099327, "lat": 35.085059, "lon": 46.603079, "tags": {"is_in:country": "Iran", "name": "\u062a\u0641\u06cc\u0646", "name:en": "Tefin", "name:ku": "Tif\u00ean", "place": "village", "wikidata": "Q5832566", "wikipedia": "en:Tefin"}}, {"type": "node", "id": 2247099333, "lat": 35.174259, "lon": 46.616195, "tags": {"is_in:country": "Iran", "name": "\u0698\u0627\u0646", "name:en": "Jan", "place": "village", "wikidata": "Q6394158", "wikipedia": "en:Zhan, Kurdistan"}}, {"type": "node", "id": 2247099800, "lat": 35.1661908, "lon": 46.5370794, "tags": {"is_in:country": "Iran", "name": "\u0686\u0634\u0645\u06cc\u062f\u0631", "name:en": "Cheshmidar", "name:ku": "Cheshm\u00eeer", "place": "village", "wikidata": "Q6394428", "wikipedia": "en:Cheshmidar"}}, {"type": "node", "id": 2247099818, "lat": 35.1450892, "lon": 46.5625084, "tags": {"is_in:country": "Iran", "name": "\u0622\u0631\u06cc\u0627\u0646", "name:en": "Aryan", "place": "village", "wikidata": "Q6419511", "wikipedia": "en:Aryan, Kurdistan"}}, {"type": "node", "id": 2247099826, "lat": 35.1245774, "lon": 46.5305322, "tags": {"is_in:country": "Iran", "name": "\u06a9\u0627\u0646\u06cc \u062d\u0633\u06cc\u0646 \u0628\u06af", "name:en": "Kani Hoseynbag", "name:ku": "Kan\u00ee Hseyn beg", "place": "village", "wikidata": "Q5848039", "wikipedia": "en:Kani Hoseynbag"}}, {"type": "node", "id": 2247099844, "lat": 35.1365507, "lon": 46.528367, "tags": {"is_in:country": "Iran", "name": "\u0641\u0642\u06cc\u06a9\u0627\u0646", "name:ku": "Feq\u00eakan", "place": "village"}}, {"type": "node", "id": 2247099859, "lat": 35.1628047, "lon": 46.5734444, "tags": {"alt_name": "\u0648\u06cc\u0633\u06cc\u0627\u0646", "is_in:country": "Iran", "name": "\u06cc\u0648\u0698\u0646\u0627\u0646", "name:en": "Vaysian", "name:ku": "W\u00eajenan", "place": "village", "wikidata": "Q16902566", "wikipedia": "en:Vaysian"}}, {"type": "node", "id": 2247099866, "lat": 35.1036909, "lon": 46.5464858, "tags": {"is_in:country": "Iran", "name": "\u062f\u0632\u0648\u0646\u062f \u0639\u0644\u06cc\u0627", "name:en": "Dezvand-e Olya", "name:ku": "Dizewen Ser\u00fb", "place": "village", "wikidata": "Q5845276", "wikipedia": "en:Dezvand-e Olya"}}, {"type": "node", "id": 2247099874, "lat": 35.1194051, "lon": 46.5577823, "tags": {"is_in:country": "Iran", "name": "\u0633\u0648\u0631\u0647 \u062a\u0648", "name:en": "Sureh Tu", "name:ku": "S\u00fbret\u00fb", "place": "village", "wikidata": "Q5839821", "wikipedia": "en:Sureh Tu"}}, {"type": "node", "id": 2247100463, "lat": 35.0993849, "lon": 46.5572001, "tags": {"is_in:country": "Iran", "name": "\u062f\u0632\u0648\u0646\u062f \u0633\u0641\u0644\u06cc", "name:en": "Dizewen xwar\u00fb", "place": "village", "wikidata": "Q5844027", "wikipedia": "en:Dezvand-e Sofla"}}, {"type": "node", "id": 2247100468, "lat": 35.0996143, "lon": 46.5808915, "tags": {"is_in:country": "Iran", "name": "\u062f\u0647\u06a9\u0627\u0646\u0627\u0646", "name:en": "Deh-e Kanan", "name:ku": "D\u00eakanan", "place": "village", "wikidata": "Q5838830", "wikipedia": "en:Deh-e Kanan"}}, {"type": "node", "id": 2247100484, "lat": 35.1092262, "lon": 46.6556478, "tags": {"is_in:country": "Iran", "name": "\u06af\u0648\u0627\u0632", "name:en": "Govaz", "name:ku": "Giwaz", "place": "village", "wikidata": "Q5837452", "wikipedia": "en:Govaz"}}, {"type": "node", "id": 2247100493, "lat": 35.1498966, "lon": 46.521993, "tags": {"is_in:country": "Iran", "name": "\u0698\u0631\u06cc\u0698\u0647", "name:ku": "Jir\u00eeje", "place": "village", "wikidata": "Q5836667", "wikipedia": "fa:\u0698\u0631\u06cc\u0698\u0647"}}, {"type": "node", "id": 2247100508, "lat": 35.1332989, "lon": 46.5063449, "tags": {"is_in:country": "Iran", "name": "\u06a9\u0648\u0644\u06cc\u0698", "name:ku": "Koll\u00eej", "place": "village", "wikidata": "Q5726829"}}, {"type": "node", "id": 2247102430, "lat": 35.100249, "lon": 46.5230145, "tags": {"is_in:country": "Iran", "name": "\u062c\u0648\u0644\u0627\u0646\u062f\u0647", "name:ku": "Collan\u00ea", "place": "village", "wikidata": "Q5840108"}}, {"type": "node", "id": 2247271775, "lat": 35.1167893, "lon": 46.4836528, "tags": {"is_in:country": "Iran", "name": "\u062f\u0644\u0645\u0631\u0632", "place": "village", "wikidata": "Q6412168", "wikipedia": "fa:\u062f\u0644\u0647 \u0645\u0631\u0632"}}, {"type": "node", "id": 2247271778, "lat": 35.1418995, "lon": 46.4470454, "tags": {"is_in:country": "Iran", "name": "\u0632\u0648\u0645", "name:ku": "Zom", "place": "village"}}, {"type": "node", "id": 2247271781, "lat": 35.158795, "lon": 46.4353157, "tags": {"is_in:country": "Iran", "name": "\u0631\u0648\u0627\u0631", "name:ku": "Ruwar", "place": "village"}}, {"type": "node", "id": 2267717709, "lat": 35.1612676, "lon": 46.2042463, "tags": {"is_in:country": "Iran", "is_in:state": "Kermanshah", "name": "\u0646\u0648\u0633\u0648\u062f", "name:ckb": "\u0646\u06d5\u0648\u0633\u0648\u0648\u062f", "name:en": "Nowsud", "name:fa": "\u0646\u0648\u0633\u0648\u062f", "name:fr": "Nowsud", "name:ku": "Nos\u00fbde", "name:uk": "\u041d\u043e\u0443\u0441\u0443\u0434", "place": "town", "population": "1949", "population:date": "2016", "source:name:uk": "https://1drv.ms/b/s!Ar-WXIFaX7UdgQs-x7Qj83y_IvGR", "source:population": "amar.org.ir", "wikidata": "Q3667163", "wikipedia": "en:Nowsud"}}, {"type": "node", "id": 2480123639, "lat": 35.199444, "lon": 46.186111, "tags": {"name": "\u062a\u06d5\u0648\u06ce\u06b5\u06d5", "name:ar": "\u062a\u0648\u06cc\u0644\u06d5", "name:ckb": "\u062a\u06d5\u0648\u06ce\u06b5\u06d5", "name:en": "Tawela", "name:ku": "Tew\u00eale", "place": "town", "wikidata": "Q5990184", "wikipedia": "ckb:\u062a\u06d5\u0648\u06ce\u06b5\u06d5"}}, {"type": "node", "id": 2480123694, "lat": 35.1823328, "lon": 46.1684305, "tags": {"name": "\u0633\u06c6\u0633\u06d5\u06a9\u0627\u0646", "name:ar": "\u0633\u0648\u0633\u0629\u06a9\u0627\u0646", "name:ckb": "\u0633\u06c6\u0633\u06d5\u06a9\u0627\u0646", "name:en": "Sosakan", "name:ku": "Sosekan", "place": "village", "wikidata": "Q5987416", "wikipedia": "ckb:\u0633\u06c6\u0633\u06d5\u06a9\u0627\u0646"}}, {"type": "node", "id": 3015539927, "lat": 35.0273966, "lon": 46.6371313, "tags": {"alt_name": "\u0648\u0632\u0647 \u062f\u0631;\u06cc\u0648\u0632\u06cc \u062f\u0631", "alt_name:en": "Wazeh Dar;Yuzi Dar;Yowzidar;Vazeh Dar", "is_in:country": "Iran", "name": "\u06cc\u0648\u0632\u06cc\u062f\u0631", "name:en": "Yuzidar", "place": "village", "source:name": "GNS", "wikidata": "Q5845604"}}, {"type": "node", "id": 3015540834, "lat": 34.9742686, "lon": 46.6691053, "tags": {"alt_name": "\u06af\u0627\u0632\u0631 \u062e\u0627\u0646\u06cc;\u06af\u0632\u0648\u0631\u062e\u0646\u06cc", "alt_name:en": "Gazar Khani;Gazurkhani", "is_in:country": "Iran", "name": "\u06af\u0627\u0632\u0631\u062e\u0627\u0646\u06cc", "name:en": "Gazer Khani", "place": "village", "source:name": "GNS", "wikidata": "Q5849087"}}, {"type": "node", "id": 3015540862, "lat": 35.0626017, "lon": 46.6404787, "tags": {"is_in:country": "Iran", "name": "\u062f\u0698\u0627\u0646", "place": "village", "wikidata": "Q5839441"}}, {"type": "node", "id": 3015540882, "lat": 34.9537752, "lon": 46.66305, "tags": {"alt_name": "\u062a\u06cc\u0644\u0647 \u06a9\u0648\u0647;\u062a\u06cc\u0644\u06a9\u0648\u0647", "alt_name:en": "Tilkuh;Tileh Kuh", "is_in:country": "Iran", "name": "\u062a\u06cc\u0644\u06a9\u0648", "name:en": "Tilku", "place": "village", "source:name": "GNS", "wikidata": "Q5858548"}}, {"type": "node", "id": 3015540886, "lat": 35.0042784, "lon": 46.6291195, "tags": {"alt_name": "\u062a\u0646\u06af \u06af\u0631\u0627\u0648;\u062a\u0646\u06af\u06cc\u0648\u0631;\u062a\u0646\u06af \u0648\u0631", "alt_name:en": "Tangur;Tang-i-Garao;Tangivar;Tang Gerav;Tang Var", "is_in:country": "Iran", "name": "\u062a\u0646\u06af\u06cc\u0648\u0631", "name:en": "Tangi Var", "name:fa": "\u062a\u0646\u06af\u06cc \u0648\u0631", "place": "village", "source:name": "GNS", "wikidata": "Q5845929"}}, {"type": "node", "id": 3015540894, "lat": 35.0099122, "lon": 46.6708434, "tags": {"alt_name": "\u062e\u0648\u0634\u062f\u0627\u0631;\u062e\u0634\u06a9\u0647 \u062f\u0648\u0644", "alt_name:en": "Khoshkeh Dul;Kushdar;Khowshdar", "is_in:country": "Iran", "name": "\u06a9\u0627\u0634\u062a\u0631", "name:en": "Kashtar", "place": "village", "source:name": "GNS", "wikidata": "Q5843707"}}, {"type": "node", "id": 3072857191, "lat": 34.9743324, "lon": 46.4038217, "tags": {"alt_name": "Aret", "alt_name:en": "Aret", "is_in:country": "Iran", "is_in:state": "Kermanshah", "name": "\u0622\u0631\u06cc\u062a", "name:en": "Arit", "place": "village", "source:name": "GNS"}}, {"type": "node", "id": 3072857192, "lat": 34.9729554, "lon": 46.4039849}, {"type": "node", "id": 3072857193, "lat": 34.9736006, "lon": 46.4048684}, {"type": "node", "id": 3072857194, "lat": 34.9747573, "lon": 46.4057806}, {"type": "node", "id": 3072857195, "lat": 34.9754812, "lon": 46.4052429}, {"type": "node", "id": 3072857196, "lat": 34.9755677, "lon": 46.4038889}, {"type": "node", "id": 3072857197, "lat": 34.9750878, "lon": 46.4021989}, {"type": "node", "id": 3072857198, "lat": 34.9745684, "lon": 46.4016035}, {"type": "node", "id": 3072857199, "lat": 34.9737265, "lon": 46.4014691}, {"type": "node", "id": 3072857200, "lat": 34.9733174, "lon": 46.4019012}, {"type": "node", "id": 3072860833, "lat": 34.970525, "lon": 46.3600038, "tags": {"alt_name": "\u0628\u0627\u0646\u0648\u0631\u0647", "alt_name:en": "Banureh", "name": "\u0628\u0627\u0646\u0647 \u0648\u0631\u0647", "name:ckb": "\u0628\u0627\u0646\u06d5\u0648\u0695\u06ce", "name:en": "Baneh Verdeh", "name:ku": "Banewr\u00ea", "place": "town", "population": "3187", "population:date": "2016", "source:name": "GNS", "source:population": "amar.org.ir"}}, {"type": "node", "id": 3072860834, "lat": 34.9657939, "lon": 46.35964}, {"type": "node", "id": 3072860835, "lat": 34.966105, "lon": 46.3611901}, {"type": "node", "id": 3072860836, "lat": 34.9669346, "lon": 46.3610003}, {"type": "node", "id": 3072860837, "lat": 34.9677771, "lon": 46.3609528}, {"type": "node", "id": 3072860838, "lat": 34.9682567, "lon": 46.361807}, {"type": "node", "id": 3072860839, "lat": 34.9683993, "lon": 46.3632305}, {"type": "node", "id": 3072860840, "lat": 34.9682308, "lon": 46.364575}, {"type": "node", "id": 3072860841, "lat": 34.9683993, "lon": 46.3656347}, {"type": "node", "id": 3072860842, "lat": 34.9696565, "lon": 46.3655398}, {"type": "node", "id": 3072860843, "lat": 34.9701491, "lon": 46.3646857}, {"type": "node", "id": 3072860844, "lat": 34.970849, "lon": 46.3646382}, {"type": "node", "id": 3072860845, "lat": 34.9711601, "lon": 46.3636892}, {"type": "node", "id": 3072860846, "lat": 34.9713674, "lon": 46.3623289}, {"type": "node", "id": 3072860847, "lat": 34.9720803, "lon": 46.3612692}, {"type": "node", "id": 3072860848, "lat": 34.9730913, "lon": 46.360589}, {"type": "node", "id": 3072860849, "lat": 34.973182, "lon": 46.3594186}, {"type": "node", "id": 3072860850, "lat": 34.9735708, "lon": 46.3584695}, {"type": "node", "id": 3072860851, "lat": 34.9737263, "lon": 46.3572516}, {"type": "node", "id": 3072860852, "lat": 34.9734023, "lon": 46.3562235}, {"type": "node", "id": 3072860853, "lat": 34.9728061, "lon": 46.3555117}, {"type": "node", "id": 3072860854, "lat": 34.9726376, "lon": 46.3543571}, {"type": "node", "id": 3072860855, "lat": 34.9720025, "lon": 46.354626}, {"type": "node", "id": 3072860856, "lat": 34.97151, "lon": 46.3557964}, {"type": "node", "id": 3072860857, "lat": 34.970188, "lon": 46.3565082}, {"type": "node", "id": 3072860858, "lat": 34.9689437, "lon": 46.3562868}, {"type": "node", "id": 3072860859, "lat": 34.9678549, "lon": 46.3568087}, {"type": "node", "id": 3072860860, "lat": 34.9680623, "lon": 46.3575047}, {"type": "node", "id": 3072860861, "lat": 34.9676475, "lon": 46.358169}, {"type": "node", "id": 3072860862, "lat": 34.9668827, "lon": 46.3589282}, {"type": "node", "id": 3072860863, "lat": 34.966118, "lon": 46.3592446}, {"type": "node", "id": 3072860908, "lat": 34.9828, "lon": 46.3801, "tags": {"is_in:country": "Iran", "is_in:state": "Kermanshah", "name": "\u0645\u0632\u06cc\u062f\u06cc", "name:en": "Mazidi", "place": "village", "source:name": "GNS"}}, {"type": "node", "id": 3072860909, "lat": 34.9825993, "lon": 46.3818245}, {"type": "node", "id": 3072860910, "lat": 34.9832962, "lon": 46.3820505}, {"type": "node", "id": 3072860911, "lat": 34.9839442, "lon": 46.381402}, {"type": "node", "id": 3072860912, "lat": 34.9840867, "lon": 46.3794248}, {"type": "node", "id": 3072860913, "lat": 34.9838405, "lon": 46.378112}, {"type": "node", "id": 3072860914, "lat": 34.9828945, "lon": 46.3777798}, {"type": "node", "id": 3072860915, "lat": 34.9822595, "lon": 46.3782069}, {"type": "node", "id": 3072860916, "lat": 34.9811579, "lon": 46.3781278}, {"type": "node", "id": 3072860917, "lat": 34.9802378, "lon": 46.3789978}, {"type": "node", "id": 3072860918, "lat": 34.9799008, "lon": 46.3801682}, {"type": "node", "id": 3072860919, "lat": 34.979836, "lon": 46.3820663}, {"type": "node", "id": 3072860920, "lat": 34.9802637, "lon": 46.3834266}, {"type": "node", "id": 3072860921, "lat": 34.9805229, "lon": 46.3841067}, {"type": "node", "id": 3072860922, "lat": 34.9812357, "lon": 46.3839327}, {"type": "node", "id": 3072860923, "lat": 34.9814689, "lon": 46.3832842}, {"type": "node", "id": 3072860924, "lat": 34.9813912, "lon": 46.3824301}, {"type": "node", "id": 3072860925, "lat": 34.98178, "lon": 46.3818607}, {"type": "node", "id": 3072864834, "lat": 34.9713868, "lon": 46.3623}, {"type": "node", "id": 3072871771, "lat": 34.9420089, "lon": 46.3823399}, {"type": "node", "id": 3072871772, "lat": 34.9423481, "lon": 46.3799486}, {"type": "node", "id": 3072871773, "lat": 34.9418112, "lon": 46.3791058}, {"type": "node", "id": 3072871774, "lat": 34.9410476, "lon": 46.3799488}, {"type": "node", "id": 3072871775, "lat": 34.9397498, "lon": 46.3795211}, {"type": "node", "id": 3072871776, "lat": 34.939394, "lon": 46.3803478}, {"type": "node", "id": 3072871777, "lat": 34.9382474, "lon": 46.3813485}, {"type": "node", "id": 3072871778, "lat": 34.9397949, "lon": 46.3822288}, {"type": "node", "id": 3072871779, "lat": 34.9397807, "lon": 46.383379}, {"type": "node", "id": 3072871780, "lat": 34.9408612, "lon": 46.383523}, {"type": "node", "id": 3072871781, "lat": 34.9411356, "lon": 46.3827931}, {"type": "node", "id": 3072885916, "lat": 35.0182839, "lon": 46.2287953}, {"type": "node", "id": 3072885917, "lat": 35.0179615, "lon": 46.2287281}, {"type": "node", "id": 3072885918, "lat": 35.0175801, "lon": 46.2291842}, {"type": "node", "id": 3072885919, "lat": 35.0173245, "lon": 46.229818}, {"type": "node", "id": 3072885920, "lat": 35.0172891, "lon": 46.23013}, {"type": "node", "id": 3072885921, "lat": 35.0173402, "lon": 46.2307542}, {"type": "node", "id": 3072885922, "lat": 35.0174818, "lon": 46.2312439}, {"type": "node", "id": 3072885923, "lat": 35.0176705, "lon": 46.2318297}, {"type": "node", "id": 3072885924, "lat": 35.0182249, "lon": 46.2323098}, {"type": "node", "id": 3072885925, "lat": 35.0186063, "lon": 46.2321994}, {"type": "node", "id": 3072885926, "lat": 35.0191018, "lon": 46.2328668}, {"type": "node", "id": 3072885927, "lat": 35.0197309, "lon": 46.233078}, {"type": "node", "id": 3072885928, "lat": 35.020478, "lon": 46.2331885}, {"type": "node", "id": 3072885929, "lat": 35.0205724, "lon": 46.2326459}, {"type": "node", "id": 3072885930, "lat": 35.0203443, "lon": 46.2321466}, {"type": "node", "id": 3072885931, "lat": 35.0202657, "lon": 46.2314504}, {"type": "node", "id": 3072885932, "lat": 35.0200573, "lon": 46.2310519}, {"type": "node", "id": 3072885933, "lat": 35.0202696, "lon": 46.2305477}, {"type": "node", "id": 3072885934, "lat": 35.0204937, "lon": 46.2302453}, {"type": "node", "id": 3072885935, "lat": 35.0208279, "lon": 46.2302021}, {"type": "node", "id": 3072885936, "lat": 35.021056, "lon": 46.229938}, {"type": "node", "id": 3072885937, "lat": 35.0208869, "lon": 46.229429}, {"type": "node", "id": 3072885938, "lat": 35.0205213, "lon": 46.2290882}, {"type": "node", "id": 3072885939, "lat": 35.0201005, "lon": 46.2288529}, {"type": "node", "id": 3072885940, "lat": 35.0197938, "lon": 46.229141}, {"type": "node", "id": 3072885941, "lat": 35.0193023, "lon": 46.2292466}, {"type": "node", "id": 3072885942, "lat": 35.0189327, "lon": 46.2293378}, {"type": "node", "id": 3072885943, "lat": 35.0186024, "lon": 46.2289777}, {"type": "node", "id": 3072885944, "lat": 35.0184058, "lon": 46.2288385}, {"type": "node", "id": 3072888223, "lat": 34.9784821, "lon": 46.2997599}, {"type": "node", "id": 3072888224, "lat": 34.980115, "lon": 46.2990877}, {"type": "node", "id": 3072888225, "lat": 34.9805751, "lon": 46.2974348}, {"type": "node", "id": 3072888226, "lat": 34.9808343, "lon": 46.2962485}, {"type": "node", "id": 3072888227, "lat": 34.9806334, "lon": 46.2951967}, {"type": "node", "id": 3072888228, "lat": 34.979331, "lon": 46.2956633}, {"type": "node", "id": 3072888229, "lat": 34.978495, "lon": 46.2958135}, {"type": "node", "id": 3072888230, "lat": 34.9776721, "lon": 46.2956079}, {"type": "node", "id": 3072888231, "lat": 34.9771407, "lon": 46.2961299}, {"type": "node", "id": 3072888232, "lat": 34.9765251, "lon": 46.2965728}, {"type": "node", "id": 3072888433, "lat": 34.9757928, "lon": 46.2963118}, {"type": "node", "id": 3072888434, "lat": 34.9749374, "lon": 46.2952362}, {"type": "node", "id": 3072888435, "lat": 34.974257, "lon": 46.29439}, {"type": "node", "id": 3072888436, "lat": 34.9736349, "lon": 46.2956316}, {"type": "node", "id": 3072888437, "lat": 34.9740043, "lon": 46.2966677}, {"type": "node", "id": 3072888438, "lat": 34.9748791, "lon": 46.2975613}, {"type": "node", "id": 3072888439, "lat": 34.9760326, "lon": 46.2979647}, {"type": "node", "id": 3072888440, "lat": 34.9771601, "lon": 46.2986844}, {"type": "node", "id": 3072888441, "lat": 34.9779637, "lon": 46.2992142}, {"type": "node", "id": 3072895934, "lat": 34.9773769, "lon": 46.2831793}, {"type": "node", "id": 3072895935, "lat": 34.9824985, "lon": 46.2744696}, {"type": "node", "id": 3072895936, "lat": 34.9844071, "lon": 46.2658424}, {"type": "node", "id": 3072895937, "lat": 34.9844303, "lon": 46.2649438}, {"type": "node", "id": 3072895938, "lat": 34.9840927, "lon": 46.2640742}, {"type": "node", "id": 3072895939, "lat": 34.9810852, "lon": 46.2631099}, {"type": "node", "id": 3072895940, "lat": 34.9806533, "lon": 46.2667514}, {"type": "node", "id": 3072895941, "lat": 34.9780724, "lon": 46.2738127}, {"type": "node", "id": 3072895942, "lat": 34.9782451, "lon": 46.2741987}, {"type": "node", "id": 3072898446, "lat": 35.0075534, "lon": 46.2650115}, {"type": "node", "id": 3072898447, "lat": 35.008247, "lon": 46.2631095}, {"type": "node", "id": 3072898448, "lat": 35.0077028, "lon": 46.2616505}, {"type": "node", "id": 3072898449, "lat": 35.0060063, "lon": 46.2602436}, {"type": "node", "id": 3072898450, "lat": 35.0050139, "lon": 46.2602697}, {"type": "node", "id": 3072898451, "lat": 35.004235, "lon": 46.2619371}, {"type": "node", "id": 3072898452, "lat": 35.0037655, "lon": 46.2638781}, {"type": "node", "id": 3072898453, "lat": 35.0045551, "lon": 46.2645555}, {"type": "node", "id": 3072898454, "lat": 35.0056328, "lon": 46.2655846}, {"type": "node", "id": 3072898455, "lat": 35.0068065, "lon": 46.2656758}, {"type": "node", "id": 3072900385, "lat": 35.0183737, "lon": 46.1937302}, {"type": "node", "id": 3072900386, "lat": 35.0183673, "lon": 46.1924806}, {"type": "node", "id": 3072900387, "lat": 35.0178621, "lon": 46.1909622}, {"type": "node", "id": 3072900388, "lat": 35.0167675, "lon": 46.1902821}, {"type": "node", "id": 3072900389, "lat": 35.0159708, "lon": 46.189942}, {"type": "node", "id": 3072900390, "lat": 35.0147077, "lon": 46.1897285}, {"type": "node", "id": 3072900391, "lat": 35.0143191, "lon": 46.1911757}, {"type": "node", "id": 3072900392, "lat": 35.0145847, "lon": 46.1920061}, {"type": "node", "id": 3072900393, "lat": 35.0149539, "lon": 46.1930817}, {"type": "node", "id": 3072900394, "lat": 35.0157247, "lon": 46.1935958}, {"type": "node", "id": 3072900395, "lat": 35.0162104, "lon": 46.1931845}, {"type": "node", "id": 3072900396, "lat": 35.0170654, "lon": 46.1932399}, {"type": "node", "id": 3072901941, "lat": 35.0319703, "lon": 46.3538255}, {"type": "node", "id": 3072901942, "lat": 35.0309688, "lon": 46.3510145}, {"type": "node", "id": 3072901943, "lat": 35.031162, "lon": 46.3483752}, {"type": "node", "id": 3072901944, "lat": 35.0297388, "lon": 46.3480748}, {"type": "node", "id": 3072901945, "lat": 35.0283331, "lon": 46.3485469}, {"type": "node", "id": 3072901946, "lat": 35.0271559, "lon": 46.3503279}, {"type": "node", "id": 3072901947, "lat": 35.0269977, "lon": 46.3537182}, {"type": "node", "id": 3072901948, "lat": 35.0269802, "lon": 46.3556494}, {"type": "node", "id": 3072901949, "lat": 35.0279466, "lon": 46.3572373}, {"type": "node", "id": 3072901950, "lat": 35.0292293, "lon": 46.3578595}, {"type": "node", "id": 3072901951, "lat": 35.0301957, "lon": 46.3574733}, {"type": "node", "id": 3072901952, "lat": 35.0315661, "lon": 46.3564219}, {"type": "node", "id": 3072901953, "lat": 35.029897, "lon": 46.3542761, "tags": {"is_in:country": "Iran", "is_in:state": "Kermanshah", "name": "\u062e\u0627\u0646\u0642\u0627\u0647", "place": "village", "wikidata": "Q5840271"}}, {"type": "node", "id": 3072902668, "lat": 35.0578242, "lon": 46.3381399, "tags": {"alt_name": "Nur-i-Ab", "alt_name:en": "Nur-i-Ab", "is_in:country": "Iran", "is_in:state": "Kermanshah", "name": "\u0646\u0648\u0631\u06cc\u0627\u0628", "name:en": "Nuryab", "place": "village", "source:name": "GNS", "wikidata": "Q5825939"}}, {"type": "node", "id": 3463380381, "lat": 34.9333038, "lon": 46.679059, "tags": {"is_in:country": "Iran", "name": "\u0645\u06cc\u0633\u0648\u0631\u0627\u0628", "name:en": "Misurab", "place": "village", "source:name": "GNS", "wikidata": "Q5846919", "wikipedia": "en:Misurab"}}, {"type": "node", "id": 3516582331, "lat": 35.044, "lon": 46.5717, "tags": {"alt_name": "\u06af\u0632\u06cc\u0648\u0627\u0646;\u06af\u0632\u0631\u06cc\u0648\u0627\u0646", "alt_name:en": "Kaziwan;Gazrivan;Guziwan;Gozivan", "is_in:country": "Iran", "name": "\u06af\u0632\u06cc\u0628\u0627\u0646", "name:en": "Gaziban", "place": "village", "source:name": "GNS"}}, {"type": "node", "id": 3516582366, "lat": 35.0209, "lon": 46.5613, "tags": {"alt_name": "\u0647\u0627\u0646\u06cc\u0651\u0647", "alt_name:en": "Haniyeh", "is_in:country": "Iran", "name": "\u0647\u0648\u0627\u0631 \u0647\u0627\u0646\u06cc\u0647", "name:en": "Havar Haniyeh", "place": "village", "source:name": "GNS"}}, {"type": "node", "id": 3517168053, "lat": 35.1975, "lon": 46.381944, "tags": {"is_in:country": "Iran", "name": "\u0627\u062d\u0645\u062f \u0622\u0628\u0627\u062f", "name:en": "Ahmadabad", "place": "village", "source:name": "GNS"}}, {"type": "node", "id": 3517168065, "lat": 35.08463, "lon": 46.520364, "tags": {"is_in:country": "Iran", "name": "\u062f\u06cc\u0648\u0632\u0646\u0627\u0648", "name:en": "Deyvaznav", "name:ku": "Diwaznaw", "place": "village", "source:name": "GNS", "wikidata": "Q5840111"}}, {"type": "node", "id": 3517168068, "lat": 35.183333, "lon": 46.333333, "tags": {"is_in:country": "Iran", "name": "\u06af\u0646\u062c\u0647 \u0646\u0627\u0648", "name:en": "Ganjeh Nav", "place": "village", "source:name": "GNS"}}, {"type": "node", "id": 3517168079, "lat": 35.1931, "lon": 46.3444, "tags": {"alt_name": "\u06a9\u0644\u06cc\u062c;\u06a9\u0644\u062c\u06cc", "alt_name:en": "Khalii;Khalji;Kalij", "is_in:country": "Iran", "name": "\u06a9\u0644\u062c\u06cc", "name:en": "Kalji", "place": "village", "source:name": "GNS", "wikidata": "Q5812763"}}, {"type": "node", "id": 3517171197, "lat": 35.1899, "lon": 46.3587, "tags": {"alt_name": "\u0646\u0648\u06cc\u0646;\u0646\u0648\u0646", "alt_name:en": "Nawin;Nowin;Navin;Novan", "is_in:country": "Iran", "name": "\u0646\u0648\u06cc\u0646", "name:ckb": "\u0646\u0648\u06ce\u0646", "name:en": "Novin", "name:ku": "Nw\u00ean", "place": "village", "source:name": "GNS", "wikidata": "Q5813503"}}, {"type": "node", "id": 3517171204, "lat": 35.1893, "lon": 46.4668, "tags": {"is_in:country": "Iran", "name": "\u0633\u0631\u062f\u0634\u062a", "name:en": "Sardasht", "place": "village", "source:name": "GNS"}}, {"type": "node", "id": 3517171220, "lat": 35.1984, "lon": 46.3845, "tags": {"alt_name": "\u0639\u0628\u0627\u0633 \u0622\u0628\u0627\u062f", "is_in:country": "Iran", "name": "\u0639\u0628\u0627\u0633 \u0622\u0628\u0627\u062f", "name:en": "`Abbasabad", "place": "village", "source:name": "GNS", "wikidata": "Q5824771"}}, {"type": "node", "id": 3520076911, "lat": 34.866667, "lon": 46.15, "tags": {"is_in:country": "Iran", "is_in:state": "Kermanshah", "name": "\u0622\u0644\u0648\u06cc\u0646\u0647 \u06a9\u0631", "name:en": "Alvinehkar", "place": "village", "source:name": "GNS", "wikidata": "Q5863895", "wikipedia": "en:Alvinehkar"}}, {"type": "node", "id": 3520076917, "lat": 34.8088, "lon": 46.4417, "tags": {"is_in:country": "Iran", "is_in:state": "Kermanshah", "name": "\u0628\u0627\u062f\u06a9\u0627\u0646", "name:en": "Badkan", "place": "village", "source:name": "GNS"}}, {"type": "node", "id": 3520076926, "lat": 34.773, "lon": 46.3571, "tags": {"is_in:country": "Iran", "is_in:state": "Kermanshah", "name": "\u0628\u0627\u0646\u06cc \u0645\u06cc\u0631\u0627\u0646", "name:en": "Bani Miran", "place": "village", "source:name": "GNS"}}, {"type": "node", "id": 3520076932, "lat": 34.9466, "lon": 46.1492, "tags": {"alt_name": "Bayer", "alt_name:en": "Bayer", "is_in:country": "Iran", "is_in:state": "Kermanshah", "name": "\u0628\u0627\u06cc\u0644", "name:en": "Bayel", "place": "village", "source:name": "GNS"}}, {"type": "node", "id": 3520076936, "lat": 34.8387, "lon": 46.3355, "tags": {"is_in:country": "Iran", "is_in:state": "Kermanshah", "name": "\u0628\u06cc\u0644\u0648\u0644\u0647", "name:en": "Beyuleh", "place": "village", "source:name": "GNS"}}, {"type": "node", "id": 3520076937, "lat": 34.8051, "lon": 46.5627, "tags": {"alt_name": "Beya Shush", "alt_name:en": "Beya Shush", "is_in:country": "Iran", "is_in:state": "Kermanshah", "name": "\u0628\u06cc\u0627\u0634\u0648\u0634", "name:en": "Biashush", "place": "village", "source:name": "GNS"}}, {"type": "node", "id": 3520076939, "lat": 34.8886, "lon": 46.3137, "tags": {"is_in:country": "Iran", "is_in:state": "Kermanshah", "name": "\u0628\u06cc\u0648\u0646\u062f \u0633\u0641\u0644\u06cc", "name:en": "Bivand-e Sofla", "place": "village", "source:name": "GNS"}}, {"type": "node", "id": 3520076940, "lat": 34.8977, "lon": 46.2947, "tags": {"is_in:country": "Iran", "is_in:state": "Kermanshah", "name": "\u0628\u06cc\u0648\u0646\u062f \u0639\u0644\u06cc\u0627", "name:en": "Bivand-e `Olya", "place": "village", "source:name": "GNS"}}, {"type": "node", "id": 3520076941, "lat": 34.7999, "lon": 46.5865, "tags": {"is_in:country": "Iran", "is_in:state": "Kermanshah", "name": "\u0628\u0646\u0686\u0644\u0647", "name:en": "Boncheleh", "place": "village", "source:name": "GNS"}}, {"type": "node", "id": 3520076946, "lat": 34.937834, "lon": 46.4221303, "tags": {"alt_name": "Chilaneh-ye Bala;Chalaneh-ye Sofla", "alt_name:en": "Chilaneh-ye Bala;Chalaneh-ye Sofla", "is_in:country": "Iran", "is_in:state": "Kermanshah", "name": "\u0686\u0644\u0627\u0646\u0647 \u0633\u0641\u0644\u06cc", "name:en": "Chalani-ye Sofla", "place": "village", "source:name": "GNS"}}, {"type": "node", "id": 3520076947, "lat": 34.9419, "lon": 46.407, "tags": {"alt_name": "Chalaneh-ye `Olya;Chilaneh-ye Bala", "alt_name:en": "Chalaneh-ye `Olya;Chilaneh-ye Bala", "is_in:country": "Iran", "is_in:state": "Kermanshah", "name": "\u0686\u0644\u0627\u0646\u0647 \u0639\u0644\u06cc\u0627", "name:en": "Chalani-ye `Olya", "place": "village", "source:name": "GNS"}}, {"type": "node", "id": 3520076956, "lat": 34.7751, "lon": 46.3811, "tags": {"alt_name": "Cheshmeh Zeylan;Cham Begar", "alt_name:en": "Cheshmeh Zeylan;Cham Begar", "is_in:country": "Iran", "is_in:state": "Kermanshah", "name": "\u0686\u0634\u0645\u0647 \u06af\u062f\u0627\u0631", "name:en": "Cheshmeh Godar", "place": "village", "source:name": "GNS"}}, {"type": "node", "id": 3520076957, "lat": 34.8345, "lon": 46.5136, "tags": {"is_in:country": "Iran", "is_in:state": "Kermanshah", "name": "\u0686\u0634\u0645\u0647 \u0645\u06cc\u0631\u0627\u0646", "name:en": "Cheshmeh Miran", "place": "village", "source:name": "GNS"}}, {"type": "node", "id": 3520076958, "lat": 34.7903, "lon": 46.3243, "tags": {"alt_name": "Sorkheh Tut;Chaman Zar-e Sofla", "alt_name:en": "Sorkheh Tut;Chaman Zar-e Sofla", "is_in:country": "Iran", "is_in:state": "Kermanshah", "name": "\u0686\u0634\u0645\u0647 \u0646\u0632\u0627\u0631 \u0633\u0641\u0644\u06cc", "name:en": "Cheshmeh Nezar-e Sofla", "place": "village", "source:name": "GNS"}}, {"type": "node", "id": 3520076959, "lat": 34.7858, "lon": 46.324, "tags": {"alt_name": "Cheshmeh-ye Nazar Bala;Chaman Zar-e `Olya;Cheshmeh Nezar", "alt_name:en": "Cheshmeh-ye Nazar Bala;Chaman Zar-e `Olya;Cheshmeh Nezar", "is_in:country": "Iran", "is_in:state": "Kermanshah", "name": "\u0686\u0634\u0645\u0647 \u0646\u0632\u0627\u0631 \u0639\u0644\u06cc\u0627", "name:en": "Cheshmeh Nezar-e `Olya", "place": "village", "source:name": "GNS"}}, {"type": "node", "id": 3520076975, "lat": 34.7901, "lon": 46.1694, "tags": {"is_in:country": "Iran", "is_in:state": "Kermanshah", "name": "\u062f\u0631\u0646\u0647", "name:en": "Darneh", "place": "village", "source:name": "GNS"}}, {"type": "node", "id": 3520076982, "lat": 34.766667, "lon": 46.233333, "tags": {"alt_name": "Maveh Zaran;Khosrow Basheh", "alt_name:en": "Maveh Zaran;Khosrow Basheh", "is_in:country": "Iran", "is_in:state": "Kermanshah", "name": "\u062f\u0648\u0627\u0644\u0647 \u0628\u0631\u06af\u0644\u0647", "name:fa": "\u062f\u0648\u0627\u0644\u0647 \u067e\u0627\u06cc\u06cc\u0646", "place": "village", "source:name": "GNS"}}, {"type": "node", "id": 3520076986, "lat": 34.8386, "lon": 46.4118, "tags": {"is_in:country": "Iran", "is_in:state": "Kermanshah", "name": "\u062f\u0647 \u0633\u0631\u062e", "name:en": "Deh Sorkh", "place": "village", "source:name": "GNS"}}, {"type": "node", "id": 3520076987, "lat": 34.8154, "lon": 46.3677, "tags": {"alt_name": "Dehtui;Deh Tut;Deh Tuveh;Dehtu-ye Pa'in", "alt_name:en": "Dehtui;Deh Tut;Deh Tuveh;Dehtu-ye Pa'in", "is_in:country": "Iran", "is_in:state": "Kermanshah", "name": "\u062f\u0647 \u062a\u0648\u062a \u0633\u0641\u0644\u06cc", "name:en": "Deh Tut-e Sofla", "place": "village", "source:name": "GNS"}}, {"type": "node", "id": 3520076988, "lat": 34.818, "lon": 46.3784, "tags": {"alt_name": "Deh Tut;Dehtu-ye `Olya;Dehtu-ye Bala", "alt_name:en": "Deh Tut;Dehtu-ye `Olya;Dehtu-ye Bala", "is_in:country": "Iran", "is_in:state": "Kermanshah", "name": "\u062f\u0647 \u062a\u0648\u062a \u0639\u0644\u06cc\u0627", "name:en": "Deh Tut-e `Olya", "place": "village", "source:name": "GNS"}}, {"type": "node", "id": 3520076989, "lat": 34.8278, "lon": 46.5431, "tags": {"is_in:country": "Iran", "is_in:state": "Kermanshah", "name": "\u062f\u0647 \u0644\u06cc\u0644\u06cc", "name:en": "Deh-e Leyli", "place": "village", "source:name": "GNS"}}, {"type": "node", "id": 3520076992, "lat": 34.8076, "lon": 46.2038, "tags": {"is_in:country": "Iran", "is_in:state": "Kermanshah", "name": "\u062f\u0646\u06af\u06cc", "name:en": "Dengi", "place": "village", "source:name": "GNS"}}, {"type": "node", "id": 3520078103, "lat": 34.913899, "lon": 46.2221133, "tags": {"alt_name": "Govaleh;Kovileh;Gavileh;Kavileh;Guyaleh", "alt_name:en": "Govaleh;Kovileh;Gavileh;Kavileh;Guyaleh", "is_in:country": "Iran", "is_in:state": "Kermanshah", "name": "\u06af\u0648\u0627\u0644\u0647 \u06a9\u0644\u0627\u0634", "name:en": "Gavaleh Kalash", "place": "village", "source:name": "GNS"}}, {"type": "node", "id": 3520078105, "lat": 34.8192, "lon": 46.4266, "tags": {"is_in:country": "Iran", "is_in:state": "Kermanshah", "name": "\u06af\u0644\u06cc", "name:en": "Geli", "place": "village", "source:name": "GNS"}}, {"type": "node", "id": 3520078107, "lat": 34.769, "lon": 46.2822, "tags": {"is_in:country": "Iran", "is_in:state": "Kermanshah", "name": "\u06af\u0646\u0627\u0646\u06cc", "name:en": "Genani", "place": "village", "source:name": "GNS"}}, {"type": "node", "id": 3520078108, "lat": 34.8021, "lon": 46.387, "tags": {"is_in:country": "Iran", "is_in:state": "Kermanshah", "name": "\u06af\u0631\u062f\u06a9", "name:en": "Gerdak", "place": "village", "source:name": "GNS"}}, {"type": "node", "id": 3520078111, "lat": 34.775, "lon": 46.1529, "tags": {"is_in:country": "Iran", "is_in:state": "Kermanshah", "name": "\u06af\u0631\u0648\u0634\u0647 \u0639\u0644\u06cc\u0627", "name:en": "Gerusheh-ye `Olya", "place": "village", "source:name": "GNS"}}, {"type": "node", "id": 3520078113, "lat": 34.8226, "lon": 46.4214, "tags": {"is_in:country": "Iran", "is_in:state": "Kermanshah", "name": "\u06af\u0644\u0628\u0627\u063a\u06cc", "name:en": "Golbaghi", "place": "village", "source:name": "GNS"}}, {"type": "node", "id": 3520078114, "lat": 34.8556, "lon": 46.3365, "tags": {"alt_name": "Gandab;Gunab", "alt_name:en": "Gandab;Gunab", "is_in:country": "Iran", "is_in:state": "Kermanshah", "name": "\u06af\u0646\u0628\u062f \u0622\u0628", "name:en": "Gonbad Ab", "place": "village", "source:name": "GNS"}}, {"type": "node", "id": 3520078119, "lat": 34.8678, "lon": 46.4615, "tags": {"alt_name": "Heyuveh", "alt_name:en": "Heyuveh", "is_in:country": "Iran", "is_in:state": "Kermanshah", "name": "\u0647\u0644\u0648\u06af\u0627\u0647", "name:en": "Halugah", "place": "village", "source:name": "GNS"}}, {"type": "node", "id": 3520078122, "lat": 34.8913612, "lon": 46.2467015, "tags": {"is_in:country": "Iran", "is_in:state": "Kermanshah", "name": "\u0647\u0627\u0646\u0648\u0644\u0627\u0646", "name:en": "Hanulan", "place": "village", "source:name": "GNS"}}, {"type": "node", "id": 3520078126, "lat": 34.906111, "lon": 46.159167, "tags": {"is_in:country": "Iran", "is_in:state": "Kermanshah", "name": "\u0647\u0627\u0634", "name:en": "Hash", "place": "village", "source:name": "GNS"}}, {"type": "node", "id": 3520078128, "lat": 34.9, "lon": 46.233333, "tags": {"is_in:country": "Iran", "is_in:state": "Kermanshah", "name": "\u0647\u0634\u062a \u067e\u0634\u062a\u0648\u0644\u0647", "name:en": "Hasht Pashuleh", "place": "village", "source:name": "GNS", "wikidata": "Q5798189", "wikipedia": "en:Hasht Pashtuleh"}}, {"type": "node", "id": 3520078130, "lat": 34.783333, "lon": 46.466667, "tags": {"is_in:country": "Iran", "is_in:state": "Kermanshah", "name": "\u062d\u06cc\u062f\u0631", "name:en": "Heydar", "place": "village", "source:name": "GNS"}}, {"type": "node", "id": 3520078133, "lat": 34.762778, "lon": 46.483333, "tags": {"is_in:country": "Iran", "is_in:state": "Kermanshah", "name:en": "Howz Kholeh", "place": "village", "source:name": "GNS"}}, {"type": "node", "id": 3520078134, "lat": 34.8281, "lon": 46.3488, "tags": {"alt_name": "Howz-e Seyyed Morad;Deh-e Seyyed Morad", "alt_name:en": "Howz-e Seyyed Morad;Deh-e Seyyed Morad", "is_in:country": "Iran", "is_in:state": "Kermanshah", "name": "\u0647\u0648\u0632 \u0633\u06cc\u062f \u0645\u0631\u0627\u062f", "name:en": "Howz-e Seyyed Morad", "place": "village", "source:name": "GNS"}}, {"type": "node", "id": 3520078146, "lat": 34.8275, "lon": 46.456389, "tags": {"is_in:country": "Iran", "is_in:state": "Kermanshah", "name": "\u06a9\u0686\u0644 \u0622\u0628\u0627\u062f", "name:en": "Kachalabad", "place": "village", "source:name": "GNS", "wikidata": "Q5868435", "wikipedia": "en:Kachalabad, Kermanshah"}}, {"type": "node", "id": 3520078151, "lat": 34.786111, "lon": 46.406389, "tags": {"is_in:country": "Iran", "is_in:state": "Kermanshah", "name": "\u06a9\u0627\u0647\u0627\u0646\u06cc", "name:en": "Kahani", "place": "village", "source:name": "GNS"}}, {"type": "node", "id": 3520078157, "lat": 34.926, "lon": 46.1637, "tags": {"is_in:country": "Iran", "is_in:state": "Kermanshah", "name": "\u06a9\u0644\u0627\u0634 \u0647\u0627\u0646\u0648\u0634", "name:en": "Kallash Hanush", "place": "village", "source:name": "GNS"}}, {"type": "node", "id": 3520078163, "lat": 34.7798, "lon": 46.4321, "tags": {"alt_name": "Kani Gowhar", "alt_name:en": "Kani Gowhar", "is_in:country": "Iran", "is_in:state": "Kermanshah", "name": "\u06a9\u0627\u0646\u06cc \u06af\u0648\u0647\u0631", "name:en": "Kani Gowhar", "place": "village", "source:name": "GNS"}}, {"type": "node", "id": 3520078166, "lat": 34.7847, "lon": 46.433, "tags": {"is_in:country": "Iran", "is_in:state": "Kermanshah", "name": "\u06a9\u0627\u0646\u06cc \u0633\u0627\u062a\u06cc\u0627\u0631", "name:en": "Kani Satiar", "place": "village", "source:name": "GNS"}}, {"type": "node", "id": 3520078167, "lat": 34.7806, "lon": 46.406, "tags": {"is_in:country": "Iran", "is_in:state": "Kermanshah", "name": "\u06a9\u0627\u0646\u06cc \u0633\u0648\u0627\u0631\u0627\u0646", "name:en": "Kani Savaran", "place": "village", "source:name": "GNS"}}, {"type": "node", "id": 3520078174, "lat": 34.924444, "lon": 46.213333, "tags": {"is_in:country": "Iran", "is_in:state": "Kermanshah", "name": "\u06a9\u0644\u0627\u0634 \u0647\u0648\u0634", "name:en": "Kelash Hush", "place": "hamlet", "source:name": "GNS"}}, {"type": "node", "id": 3520078188, "lat": 34.8154, "lon": 46.1529, "tags": {"is_in:country": "Iran", "is_in:state": "Kermanshah", "name": "\u06a9\u0648\u06af\u0627 \u0633\u0641\u0644\u06cc", "name:en": "Kuga-ye Sofla", "place": "village", "source:name": "GNS"}}, {"type": "node", "id": 3520078189, "lat": 34.8189, "lon": 46.165, "tags": {"alt_name": "Kugah", "alt_name:en": "Kugah", "is_in:country": "Iran", "is_in:state": "Kermanshah", "name": "\u06a9\u0648\u06af\u0627 \u0639\u0644\u06cc\u0627", "name:en": "Kuga-ye `Olya", "place": "village", "source:name": "GNS"}}, {"type": "node", "id": 3520078191, "lat": 34.8418, "lon": 46.4511, "tags": {"alt_name": "Guri", "alt_name:en": "Guri", "is_in:country": "Iran", "is_in:state": "Kermanshah", "name": "\u06a9\u0648\u0631\u06cc", "name:en": "Kuri", "place": "village", "source:name": "GNS"}}, {"type": "node", "id": 3520078192, "lat": 34.833333, "lon": 46.366667, "tags": {"is_in:country": "Iran", "is_in:state": "Kermanshah", "name": "\u0644\u0627\u0622\u0633\u06cc\u0627\u0628", "name:en": "Laasiab", "place": "village", "source:name": "GNS"}}, {"type": "node", "id": 3520078256, "lat": 34.7725, "lon": 46.367, "tags": {"is_in:country": "Iran", "is_in:state": "Kermanshah", "name": "\u0645\u062a\u0631\u0648\u06a9", "name:en": "Matruk", "place": "village", "source:name": "GNS"}}, {"type": "node", "id": 3520078257, "lat": 34.924, "lon": 46.2145, "tags": {"is_in:country": "Iran", "is_in:state": "Kermanshah", "name": "\u0645\u0644\u0647 \u062f\u0634\u062a\u06cc", "name:en": "Melah Dashti", "place": "hamlet", "source:name": "GNS"}}, {"type": "node", "id": 3520078259, "lat": 34.7863, "lon": 46.2229, "tags": {"alt_name": "Melahtut", "alt_name:en": "Melahtut", "is_in:country": "Iran", "is_in:state": "Kermanshah", "name": "\u0645\u0644\u0647 \u062a\u0648\u062a", "name:en": "Melah Tut", "place": "village", "source:name": "GNS"}}, {"type": "node", "id": 3520078265, "lat": 34.7787, "lon": 46.1884, "tags": {"is_in:country": "Iran", "is_in:state": "Kermanshah", "name": "\u0645\u06cc\u062f\u0627\u0646\u0647", "name:en": "Meydaneh", "place": "village", "source:name": "GNS"}}, {"type": "node", "id": 3520078268, "lat": 34.9404, "lon": 46.3813, "tags": {"alt_name": "Mir `Abdoli-ye Zarrin Choqa", "is_in:country": "Iran", "is_in:state": "Kermanshah", "name": "\u0645\u06cc\u0631\u0639\u0628\u062f\u0644\u06cc \u0632\u0631\u06cc\u0646 \u0686\u06cc\u0627", "name:en": "Mir `Abdoli", "place": "village", "source:name": "GNS"}}, {"type": "node", "id": 3520078273, "lat": 34.769167, "lon": 46.403889, "tags": {"is_in:country": "Iran", "is_in:state": "Kermanshah", "name": "\u0645\u062c\u0627\u0647\u062f\u0647", "name:en": "Mojahedeh", "place": "village", "source:name": "GNS"}}, {"type": "node", "id": 3520078275, "lat": 34.844722, "lon": 46.435833, "tags": {"is_in:country": "Iran", "is_in:state": "Kermanshah", "name:en": "Mulini", "place": "village", "source:name": "GNS"}}, {"type": "node", "id": 3520078279, "lat": 34.895556, "lon": 46.18, "tags": {"is_in:country": "Iran", "is_in:state": "Kermanshah", "name": "\u0646\u0635\u0631\u0622\u0628\u0627\u062f \u0633\u06cc\u062f\u062e\u0644\u06cc\u0644", "place": "village", "source:name": "GNS"}}, {"type": "node", "id": 3520078287, "lat": 34.8709, "lon": 46.4398, "tags": {"is_in:country": "Iran", "is_in:state": "Kermanshah", "name": "\u0646\u0648\u062e\u0627\u0646", "name:en": "Nowkhan", "place": "village", "source:name": "GNS"}}, {"type": "node", "id": 3520078288, "lat": 34.8616, "lon": 46.3821, "tags": {"is_in:country": "Iran", "is_in:state": "Kermanshah", "name": "\u0646\u0648\u0626\u0644", "name:en": "Nu'el", "place": "village", "source:name": "GNS"}}, {"type": "node", "id": 3520078294, "lat": 34.9465, "lon": 46.3442, "tags": {"is_in:country": "Iran", "is_in:state": "Kermanshah", "name": "\u0644\u0627\u0631\u0627\u0646 \u0633\u0641\u0644\u06cc", "name:en": "Laran-e Sofla", "place": "village", "source:name": "GNS"}}, {"type": "node", "id": 3520078295, "lat": 34.9389, "lon": 46.3629, "tags": {"alt_name": "Laran-e `Olya", "alt_name:en": "Laran-e `Olya", "is_in:country": "Iran", "is_in:state": "Kermanshah", "name": "\u0644\u0627\u0631\u0627\u0646 \u0639\u0644\u06cc\u0627", "name:en": "Laran-e `Olya", "place": "village", "source:name": "GNS"}}, {"type": "node", "id": 3520078296, "lat": 34.9043, "lon": 46.1984, "tags": {"is_in:country": "Iran", "is_in:state": "Kermanshah", "name": "\u0644\u0645\u0647", "name:en": "Lemah", "place": "village", "source:name": "GNS", "wikidata": "Q5782026", "wikipedia": "en:Lemah"}}, {"type": "node", "id": 3520078297, "lat": 34.8873, "lon": 46.2039, "tags": {"is_in:country": "Iran", "is_in:state": "Kermanshah", "name": "\u0644\u0648\u0644\u0645", "name:en": "Lulem", "place": "village", "source:name": "GNS"}}, {"type": "node", "id": 3520078298, "lat": 34.8863, "lon": 46.4401, "tags": {"is_in:country": "Iran", "is_in:state": "Kermanshah", "name": "\u0644\u0648\u0631\u0627\u0628\u06cc", "name:en": "Lurabi", "place": "village", "source:name": "GNS"}}, {"type": "node", "id": 3520078303, "lat": 34.9409, "lon": 46.4587, "tags": {"alt_name": "Mansurabad;Mansur Aqa'i", "alt_name:en": "Mansurabad;Mansur Aqa'i", "is_in:country": "Iran", "is_in:state": "Kermanshah", "name": "\u0645\u0646\u0635\u0648\u0631 \u0622\u0642\u0627\u0626\u06cc", "name:ckb": "\u0634\u0627\u06be\u06c6", "name:en": "Mansur-e Aqa'i", "name:ku": "\u015eaho", "old_name": "\u0634\u0627\u0647\u0648", "place": "village", "source:name": "GNS"}}, {"type": "node", "id": 3520078304, "lat": 34.9226, "lon": 46.1652, "tags": {"alt_name": "Mir Mireh", "alt_name:en": "Mir Mireh", "is_in:country": "Iran", "is_in:state": "Kermanshah", "name": "\u0645\u0631\u0647 \u0645\u06cc\u0648", "name:en": "Mareh Miv", "place": "village", "source:name": "GNS"}}, {"type": "node", "id": 3520078308, "lat": 34.7894, "lon": 46.4468, "tags": {"is_in:country": "Iran", "is_in:state": "Kermanshah", "name": "\u0645\u0627\u0633\u0646\u062f\u0631", "name:en": "Masendar", "place": "hamlet", "source:name": "GNS"}}, {"type": "node", "id": 3520078309, "lat": 34.787222, "lon": 46.466111, "tags": {"is_in:country": "Iran", "is_in:state": "Kermanshah", "name": "\u062a\u0627\u0631\u06cc\u06a9\u0647", "name:en": "Tahrikeh", "place": "village", "source:name": "GNS"}}, {"type": "node", "id": 3520078322, "lat": 34.7919, "lon": 46.545, "tags": {"alt_name": "Torkapan", "is_in:country": "Iran", "is_in:state": "Kermanshah", "name": "\u062a\u0631\u06a9\u0647 \u067e\u0627\u0646", "name:en": "Torkahpan", "place": "village", "source:name": "GNS", "wikidata": "Q5850253"}}, {"type": "node", "id": 3520078324, "lat": 34.7818, "lon": 46.2269, "tags": {"alt_name": "Tamar Khan;`Urazeh", "alt_name:en": "Tamar Khan;`Urazeh", "is_in:country": "Iran", "is_in:state": "Kermanshah", "name": "\u0627\u0648\u0631\u0627\u0632\u0648", "name:en": "Urazu", "place": "village", "source:name": "GNS"}}, {"type": "node", "id": 3520078328, "lat": 34.8265, "lon": 46.4561, "tags": {"alt_name": "Yareh", "alt_name:en": "Yareh", "is_in:country": "Iran", "is_in:state": "Kermanshah", "name": "\u06cc\u0627\u0631\u06cc", "name:en": "Yari", "place": "village", "source:name": "GNS"}}, {"type": "node", "id": 3520078329, "lat": 34.8253, "lon": 46.433, "tags": {"is_in:country": "Iran", "is_in:state": "Kermanshah", "name": "\u06cc\u0648\u0633\u0641 \u062e\u0627\u0646\u06cc \u0639\u0644\u06cc\u0627", "name:en": "Yusof Khani-ye `Olya", "place": "village", "source:name": "GNS"}}, {"type": "node", "id": 3520078331, "lat": 34.7828, "lon": 46.3489, "tags": {"alt_name": "Zeylan", "alt_name:en": "Zeylan", "is_in:country": "Iran", "is_in:state": "Kermanshah", "name": "\u0632\u0644\u0627\u0646", "name:en": "Zalan", "place": "village", "source:name": "GNS"}}, {"type": "node", "id": 3520078332, "lat": 34.776389, "lon": 46.380278, "tags": {"is_in:country": "Iran", "is_in:state": "Kermanshah", "name": "\u0632\u0644\u0627\u0646", "name:en": "Zalan-e Kuchak", "place": "village", "source:name": "GNS", "wikidata": "Q5842805", "wikipedia": "en:Zalan, Iran"}}, {"type": "node", "id": 3520078336, "lat": 34.8690591, "lon": 46.2811328, "tags": {"is_in:country": "Iran", "is_in:state": "Kermanshah", "name": "\u0632\u06cc\u0631\u0627\u0646", "name:en": "Ziran", "place": "village", "source:name": "GNS"}}, {"type": "node", "id": 3520078348, "lat": 34.8056, "lon": 46.4113, "tags": {"alt_name": "`Aliabad-e Sasal;Sasal", "alt_name:en": "`Aliabad-e Sasal;Sasal", "is_in:country": "Iran", "is_in:state": "Kermanshah", "name": "\u0639\u0644\u06cc \u0622\u0628\u0627\u062f", "name:en": "`Aliabad", "place": "village", "source:name": "GNS"}}, {"type": "node", "id": 3520078349, "lat": 34.7847, "lon": 46.4766, "tags": {"is_in:country": "Iran", "is_in:state": "Kermanshah", "name": "\u0639\u0644\u06cc \u0622\u0628\u0627\u062f \u06a9\u0647\u0646\u0647", "name:en": "`Aliabad-e Kohneh", "place": "village", "source:name": "GNS"}}, {"type": "node", "id": 3520078350, "lat": 34.8343481, "lon": 46.5257539, "tags": {"is_in:country": "Iran", "is_in:state": "Kermanshah", "name": "\u0639\u0627\u06cc\u0634\u0647 \u062f\u0648\u0644", "name:en": "`Ayesheh Dul", "place": "village", "source:name": "GNS"}}, {"type": "node", "id": 3520078351, "lat": 34.8034, "lon": 46.4597, "tags": {"is_in:country": "Iran", "is_in:state": "Kermanshah", "name": "\u0639\u0632\u06cc\u0632\u0622\u0628\u0627\u062f", "name:en": "`Azizabad", "place": "village", "source:name": "GNS"}}, {"type": "node", "id": 3520078507, "lat": 34.833333, "lon": 46.25, "tags": {"is_in:country": "Iran", "is_in:state": "Kermanshah", "name": "\u067e\u0648\u06cc\u06cc\u0646\u0647", "place": "village", "source:name": "GNS"}}, {"type": "node", "id": 3520078508, "lat": 34.7967472, "lon": 46.4691746, "tags": {"is_in:country": "Iran", "is_in:state": "Kermanshah", "name": "\u0642\u0627\u062f\u0631\u0622\u0628\u0627\u062f", "place": "village", "source:name": "GNS"}}, {"type": "node", "id": 3520078512, "lat": 34.9051715, "lon": 46.4589082, "tags": {"is_in:country": "Iran", "is_in:state": "Kermanshah", "place": "village", "source:name": "GNS"}}, {"type": "node", "id": 3520078513, "lat": 34.9101, "lon": 46.4775, "tags": {"is_in:country": "Iran", "is_in:state": "Kermanshah", "name": "\u0642\u0644\u0639\u0647 \u06af\u0627\u0647", "name:en": "Qal`eh Gah", "place": "village", "source:name": "GNS"}}, {"type": "node", "id": 3520078514, "lat": 34.82, "lon": 46.1485, "tags": {"is_in:country": "Iran", "is_in:state": "Kermanshah", "name": "\u0642\u0644\u0639\u0647 \u062a\u0648\u062a \u0639\u0644\u06cc\u0627", "name:en": "Qal`eh Tut-e `Olya", "place": "village", "source:name": "GNS"}}, {"type": "node", "id": 3520078521, "lat": 34.9316, "lon": 46.4619, "tags": {"alt_name": "Qishlaq;Qeshlag", "alt_name:en": "Qishlaq;Qeshlag", "is_in:country": "Iran", "is_in:state": "Kermanshah", "name": "\u0642\u0634\u0644\u0627\u0642", "name:en": "Qeshlaq", "place": "village", "source:name": "GNS"}}, {"type": "node", "id": 3520078532, "lat": 34.763889, "lon": 46.244444, "tags": {"is_in:country": "Iran", "is_in:state": "Kermanshah", "name": "\u0633\u0631\u0686\u0627\u06cc", "place": "village", "source:name": "GNS"}}, {"type": "node", "id": 3520078534, "lat": 34.8057, "lon": 46.5429, "tags": {"is_in:country": "Iran", "is_in:state": "Kermanshah", "name": "\u0633\u0631\u0631\u0648\u062f \u0633\u0641\u0644\u0649", "name:en": "Sarrud-e Sofla", "place": "village", "source:name": "GNS"}}, {"type": "node", "id": 3520078535, "lat": 34.8076, "lon": 46.5472, "tags": {"is_in:country": "Iran", "is_in:state": "Kermanshah", "name": "\u0633\u0631\u0631\u0648\u062f \u0639\u0644\u06cc\u0627", "name:en": "Sarrud-e `Olya", "place": "village", "source:name": "GNS"}}, {"type": "node", "id": 3520078536, "lat": 34.8753, "lon": 46.3533, "tags": {"is_in:country": "Iran", "is_in:state": "Kermanshah", "name": "\u0633\u0641\u06cc\u062f \u0628\u0631\u06af", "name:en": "Sefid Barg", "place": "village", "source:name": "GNS"}}, {"type": "node", "id": 3520078540, "lat": 34.8054, "lon": 46.5657, "tags": {"is_in:country": "Iran", "is_in:state": "Kermanshah", "name": "\u0634\u0647\u0631\u06a9 \u0628\u06cc\u0627\u0634\u0648\u0634", "name:en": "Shahrak-e Biashush", "place": "village", "source:name": "GNS"}}, {"type": "node", "id": 3520078545, "lat": 34.828, "lon": 46.3578, "tags": {"alt_name": "Shervineh", "alt_name:en": "Shervineh", "is_in:country": "Iran", "is_in:state": "Kermanshah", "name": "\u0634\u0631\u0648\u06cc\u0646\u0647", "name:en": "Shervenineh", "place": "town", "source:name": "GNS"}}, {"type": "node", "id": 3520078548, "lat": 34.815, "lon": 46.4728, "tags": {"is_in:country": "Iran", "is_in:state": "Kermanshah", "name": "\u0634\u06cc\u062e \u0627\u0644\u06a9\u0631\u0645", "name:en": "Sheykh ol Karam", "place": "village", "source:name": "GNS"}}, {"type": "node", "id": 3520078551, "lat": 34.8555, "lon": 46.3365, "tags": {"is_in:country": "Iran", "is_in:state": "Kermanshah", "name": "\u0633\u0631\u062e\u0628\u0627\u0646 \u0633\u0641\u0644\u06cc", "name:en": "Sorkheban-e Sofla", "place": "village", "source:name": "GNS"}}, {"type": "node", "id": 3520078552, "lat": 34.8469, "lon": 46.3588, "tags": {"alt_name": "Sorkhban", "alt_name:en": "Sorkhban", "is_in:country": "Iran", "is_in:state": "Kermanshah", "name": "\u0633\u0631\u062e\u0628\u0627\u0646 \u0639\u0644\u06cc\u0627", "name:en": "Sorkheban-e `Olya", "place": "village", "source:name": "GNS"}}, {"type": "node", "id": 3520078553, "lat": 34.861944, "lon": 46.381667, "tags": {"is_in:country": "Iran", "is_in:state": "Kermanshah", "name": "\u0633\u0648\u0631\u0627\u0628\u0646\u062f \u0628\u0627\u0644\u0627", "name:en": "Suraband-e Bala", "place": "village", "source:name": "GNS"}}, {"type": "node", "id": 3520078554, "lat": 34.859722, "lon": 46.361111, "tags": {"is_in:country": "Iran", "is_in:state": "Kermanshah", "name": "\u0633\u0648\u0631\u0627\u0628\u0646\u062f \u067e\u0627\u06cc\u06cc\u0646", "name:en": "Suraband-e Pa'in", "place": "village", "source:name": "GNS"}}, {"type": "node", "id": 3520295981, "lat": 34.7693, "lon": 46.6174, "tags": {"is_in:country": "Iran", "is_in:state": "Kermanshah", "name": "\u0628\u062f\u0631 \u0622\u0628\u0627\u062f", "name:en": "Badrabad", "place": "village", "source:name": "GNS"}}, {"type": "node", "id": 3520297362, "lat": 34.7707, "lon": 46.5956, "tags": {"is_in:country": "Iran", "is_in:state": "Kermanshah", "name": "\u06a9\u0627\u0646\u06cc \u062e\u0636\u0631\u0627\u0646", "name:en": "Kani Khazran", "place": "village", "source:name": "GNS"}}, {"type": "node", "id": 3520297613, "lat": 34.7708, "lon": 46.5445, "tags": {"is_in:country": "Iran", "is_in:state": "Kermanshah", "name": "\u062e\u0627\u0646\u0645 \u0622\u0628\u0627\u062f", "name:en": "Khanomabad", "place": "village", "source:name": "GNS"}}, {"type": "node", "id": 3520297646, "lat": 34.7713, "lon": 46.5756, "tags": {"is_in:country": "Iran", "is_in:state": "Kermanshah", "name": "\u0645\u0631\u0627\u062f \u0622\u0628\u0627\u062f", "name:en": "Moradabad", "place": "village", "source:name": "GNS"}}, {"type": "node", "id": 3520298809, "lat": 34.766667, "lon": 46.5, "tags": {"is_in:country": "Iran", "is_in:state": "Kermanshah", "name": "\u062a\u0631\u06af\u0647 \u0639\u0644\u06cc\u0627", "place": "village", "source:name": "GNS"}}, {"type": "node", "id": 3524794283, "lat": 35.007111, "lon": 46.2198154, "tags": {"alt_name": "Zi", "alt_name:en": "Zi", "is_in:country": "Iran", "is_in:state": "Kermanshah", "name": "\u0630\u06cc \u062a\u0648", "name:en": "Zi Tow", "place": "village", "source:name": "GNS"}}, {"type": "node", "id": 3524794967, "lat": 34.967516, "lon": 46.3401485, "tags": {"alt_name": "Bal'i;Bele'i", "alt_name:en": "Bal'i;Bele'i", "is_in:country": "Iran", "is_in:state": "Kermanshah", "name": "\u0628\u0644\u0647\u200c\u0627\u06cc", "name:en": "Bala`i", "place": "village", "source:name": "GNS"}}, {"type": "node", "id": 3524794988, "lat": 34.9813, "lon": 46.2709, "tags": {"alt_name": "Bayengan", "alt_name:ckb": "\u0628\u0627\u06cc\u06d5\u0646\u06af\u0627\u0646", "alt_name:en": "Bayengan", "alt_name:ku": "Bayengan", "is_in:country": "Iran", "is_in:state": "Kermanshah", "name": "\u0628\u0627\u06cc\u0646\u06af\u0627\u0646", "name:ckb": "\u0628\u0627\u06cc\u0646\u06af\u0627\u0646", "name:en": "Bayangan", "name:fa": "\u0628\u0627\u06cc\u0646\u06af\u0627\u0646", "name:fr": "Bayangan", "name:ku": "Bayingan", "place": "town", "source:name": "GNS", "wikidata": "Q4357667", "wikipedia": "en:Bayangan"}}, {"type": "node", "id": 3524795004, "lat": 35.0291, "lon": 46.3384, "tags": {"is_in:country": "Iran", "is_in:state": "Kermanshah", "name": "\u062f\u0631\u0645\u0648\u0631", "name:en": "Darmur", "place": "village", "source:name": "GNS", "wikidata": "Q5821109"}}, {"type": "node", "id": 3524795016, "lat": 35.0695088, "lon": 46.2793287, "tags": {"alt_name": "Disheh;Deshah", "alt_name:en": "Disheh;Deshah", "is_in:country": "Iran", "is_in:state": "Kermanshah", "name": "\u062f\u0634\u0647", "name:en": "Desheh", "place": "village", "source:name": "GNS"}}, {"type": "node", "id": 3524795019, "lat": 35.0160274, "lon": 46.1919699, "tags": {"alt_name": "Dowdan", "alt_name:en": "Dowdan", "is_in:country": "Iran", "is_in:state": "Kermanshah", "name": "\u062f\u0648\u062f\u0627\u0646", "name:en": "Dudan", "place": "village", "source:name": "GNS"}}, {"type": "node", "id": 3524795027, "lat": 35.0437, "lon": 46.3244, "tags": {"is_in:country": "Iran", "is_in:state": "Kermanshah", "name": "\u06af\u0644\u0627\u0644", "name:en": "Gelal", "place": "village", "source:name": "GNS", "wikidata": "Q5833498"}}, {"type": "node", "id": 3524795034, "lat": 35.0176, "lon": 46.2278, "tags": {"is_in:country": "Iran", "is_in:state": "Kermanshah", "name": "\u0647\u0627\u0644\u0647 \u0633\u06cc\u0627\u0647", "name:en": "Haleh Siah", "place": "village", "source:name": "GNS"}}, {"type": "node", "id": 3524795097, "lat": 35.0187, "lon": 46.2308, "tags": {"alt_name": "Rawan Zarudeh;Ravan;Ravan Zardu'i;Ravan-e Zardu'i;Ravan-e Zardowi;Zardu'i", "alt_name:en": "Rawan Zarudeh;Ravan;Ravan Zardu'i;Ravan-e Zardu'i;Ravan-e Zardowi;Zardu'i", "is_in:country": "Iran", "is_in:state": "Kermanshah", "name": "\u0631\u0648\u0627\u0646 \u0632\u0631\u062f\u0648\u06cc\u06cc", "name:en": "Ravan Zardu'i", "place": "village", "source:name": "GNS"}}, {"type": "node", "id": 3524795107, "lat": 34.9788764, "lon": 46.2976371, "tags": {"alt_name": "Sati Yari", "alt_name:en": "Sati Yari", "is_in:country": "Iran", "is_in:state": "Kermanshah", "name": "\u0633\u0627\u062a\u06cc\u0627\u0631\u06cc", "name:en": "Satiari", "place": "village", "source:name": "GNS"}}, {"type": "node", "id": 3524795109, "lat": 34.9875458, "lon": 46.2351526, "tags": {"is_in:country": "Iran", "is_in:state": "Kermanshah", "name": "\u0633\u0641\u06cc\u062f\u0622\u0628", "name:en": "Sefid Ab", "place": "village", "source:name": "GNS"}}, {"type": "node", "id": 3524795134, "lat": 35.0065, "lon": 46.2635, "tags": {"is_in:country": "Iran", "is_in:state": "Kermanshah", "name": "\u062a\u06cc\u0646", "name:en": "Tin", "place": "village", "source:name": "GNS"}}, {"type": "node", "id": 3524795141, "lat": 35.0037326, "lon": 46.3032352, "tags": {"is_in:country": "Iran", "is_in:state": "Kermanshah", "name": "\u0631\u0634\u06a9\u0647 \u067e\u0627", "place": "village", "source:name": "GNS"}}, {"type": "node", "id": 3524795142, "lat": 35.0319, "lon": 46.245, "tags": {"alt_name": "\u062f\u0631\u0628\u0646\u062f", "alt_name:en": "Darband;Howz-e Puch", "is_in:country": "Iran", "is_in:state": "Kermanshah", "name": "\u0648\u0632\u0647 \u067e\u0648\u0686", "name:en": "Vozeh Puch", "place": "village", "source:name": "GNS"}}, {"type": "node", "id": 3526214252, "lat": 35.019051, "lon": 46.3500655, "tags": {"alt_name": "\u0628\u06cc\u0646 \u062f\u0631\u0647", "alt_name:en": "Beyn Darreh", "is_in:country": "Iran", "is_in:state": "Kermanshah", "name": "\u0628\u0646\u062f\u0631\u0647", "name:en": "Bandareh", "place": "village", "source:name": "GNS", "wikidata": "Q5824617"}}, {"type": "node", "id": 3526214253, "lat": 35.0174, "lon": 46.3724, "tags": {"alt_name": "Bin Darreh;Bindarreh;Bondarreh", "alt_name:en": "Bin Darreh;Bindarreh;Bondarreh", "is_in:country": "Iran", "is_in:state": "Kermanshah", "name": "\u0628\u06cc\u0646 \u062f\u0631\u0647", "name:en": "Beyn Darreh", "place": "village", "source:name": "GNS"}}, {"type": "node", "id": 3526214255, "lat": 35.016667, "lon": 46.383333, "tags": {"is_in:country": "Iran", "is_in:state": "Kermanshah", "name": "\u0686\u0648\u0631\u06cc\u0698\u06cc", "name:en": "Churizhi", "place": "village", "source:name": "GNS", "wikidata": "Q5830372", "wikipedia": "en:Churizhi"}}, {"type": "node", "id": 3526214256, "lat": 35.111667, "lon": 46.2825, "tags": {"alt_name": "\u062f\u0631 \u0645\u0648\u0631;\u062f\u0631\u0647 \u0628\u0631\u062f", "alt_name:en": "Darreh Bard;Dar Mur", "is_in:country": "Iran", "is_in:state": "Kermanshah", "name": "\u062f\u0631\u06cc \u0628\u0631", "name:en": "Dari Bar", "place": "village", "source:name": "GNS"}}, {"type": "node", "id": 3526214257, "lat": 35.0033, "lon": 46.3982, "tags": {"alt_name": "\u062f\u0631\u0628\u06cc\u0627\u0646;\u062f\u0631\u0647 \u0628\u06cc\u0627\u0646", "alt_name:en": "Darbian;Darreh Beyan;Darbiyan", "is_in:country": "Iran", "is_in:state": "Kermanshah", "name": "\u062f\u0631\u0647 \u0628\u06cc\u0627\u0646", "name:en": "Darreh Bayan", "place": "village", "source:name": "GNS"}}, {"type": "node", "id": 3526214261, "lat": 35.2027681, "lon": 46.2060109, "tags": {"alt_name": "Dijvar;Dabjur;Dijwar", "is_in:country": "Iran", "is_in:state": "Kermanshah", "name": "\u062f\u0632\u0627\u0648\u0631", "name:ckb": "\u0632\u0627\u0648\u06d5\u0631", "name:en": "Dezavar", "name:ku": "Zawer", "place": "village", "source:name": "GNS"}}, {"type": "node", "id": 3526214262, "lat": 35.1586, "lon": 46.347, "tags": {"alt_name": "Gilwan", "alt_name:en": "Gilwan", "is_in:country": "Iran", "is_in:state": "Kermanshah", "name": "\u06af\u06cc\u0644\u0648\u0627\u0646", "name:en": "Gilvan", "place": "village", "source:name": "GNS"}}, {"type": "node", "id": 3526214265, "lat": 35.1641, "lon": 46.3339, "tags": {"alt_name": "\u062d\u062c\u06cc\u062c \u0628\u0632\u0631\u06af", "alt_name:en": "Hajij", "is_in:country": "Iran", "is_in:state": "Kermanshah", "name": "\u0647\u062c\u06cc\u062c \u0628\u0632\u0631\u06af", "name:en": "Hajij-e Bozorg", "place": "village", "source:name": "GNS"}}, {"type": "node", "id": 3526214266, "lat": 35.1651, "lon": 46.2867, "tags": {"alt_name": "\u062d\u062c\u06cc\u062c \u06a9\u0648\u0686\u06a9", "alt_name:en": "Hajij-e Kuchek", "is_in:country": "Iran", "is_in:state": "Kermanshah", "name": "\u0647\u062c\u06cc\u062c \u06a9\u0648\u0686\u06a9", "name:en": "Hajij-e Kuchek", "place": "village", "source:name": "GNS", "wikidata": "Q5779442"}}, {"type": "node", "id": 3526214267, "lat": 35.1187, "lon": 46.2414, "tags": {"alt_name": "Hirawi;Haweri;Harveh;Hirvi;Hiravi;Heravi;Harvi;Hervi", "alt_name:en": "Hirawi;Haweri;Harveh;Hirvi;Hiravi;Heravi;Harvi;Hervi", "is_in:country": "Iran", "is_in:state": "Kermanshah", "name": "\u0647\u06cc\u0631\u0648\u06cc", "name:ckb": "\u0647\u06ce\u0631\u0648\u06ce", "name:en": "Hirvi", "place": "village", "source:name": "GNS"}}, {"type": "node", "id": 3526214268, "lat": 35.1068404, "lon": 46.3013431, "tags": {"alt_name": "Koma Darreh;Kumeh Darreh", "alt_name:en": "Koma Darreh;Kumeh Darreh", "is_in:country": "Iran", "is_in:state": "Kermanshah", "name": "\u06a9\u0645\u0627 \u062f\u0631\u0647", "name:en": "Kama Darreh", "place": "village", "source:name": "GNS", "wikidata": "Q5823901"}}, {"type": "node", "id": 3526214269, "lat": 35.1549, "lon": 46.1767, "tags": {"alt_name": "Khanankar", "alt_name:en": "Khanankar", "is_in:country": "Iran", "is_in:state": "Kermanshah", "name": "\u062e\u0646\u062f\u0627\u0646\u0647 \u06a9\u0631", "name:en": "Khandanehkar", "place": "village", "source:name": "GNS"}}, {"type": "node", "id": 3526214270, "lat": 34.9731301, "lon": 46.4137182, "tags": {"is_in:country": "Iran", "is_in:state": "Kermanshah", "name": "\u0645\u06cc\u0648\u0627\u0646", "name:en": "Meyvan", "place": "village", "source:name": "GNS"}}, {"type": "node", "id": 3526214272, "lat": 35.0963479, "lon": 46.3256232, "tags": {"alt_name": "\u0646\u062c\u0627\u0631\u06cc;\u0646\u062c\u0627\u0631", "alt_name:en": "Najjari", "is_in:country": "Iran", "is_in:state": "Kermanshah", "name": "\u0646\u062c\u0627\u0631", "name:en": "Najjar", "place": "village", "source:name": "GNS"}}, {"type": "node", "id": 3526214273, "lat": 35.1537, "lon": 46.2375, "tags": {"is_in:country": "Iran", "is_in:state": "Kermanshah", "name": "\u0646\u0631\u0648\u06cc", "name:en": "Narvi", "place": "village", "source:name": "GNS"}}, {"type": "node", "id": 3526214274, "lat": 35.1765159, "lon": 46.2773367, "tags": {"is_in:country": "Iran", "is_in:state": "Kermanshah", "name": "\u062e\u0627\u0646\u06cc \u062f\u0631\u0647", "name:en": "Khani Darreh", "place": "village", "source:name": "GNS"}}, {"type": "node", "id": 3526214275, "lat": 35.1546, "lon": 46.1909, "tags": {"is_in:country": "Iran", "is_in:state": "Kermanshah", "name": "\u0646\u06cc\u0633\u062a\u0627\u0646\u0647", "name:en": "Neyestaneh", "place": "village", "source:name": "GNS"}}, {"type": "node", "id": 3526214276, "lat": 35.0058, "lon": 46.3838, "tags": {"alt_name": "\u0646\u0633\u0645\u06c0 \u0633\u0641\u0644\u0649;\u0646\u0634\u0647", "alt_name:en": "Nosmeh-ye Sofla;Nasheh", "is_in:country": "Iran", "is_in:state": "Kermanshah", "name": "\u0646\u0633\u0645\u0647 \u0633\u0641\u0644\u06cc", "name:en": "Nosmeh", "place": "village", "source:name": "GNS", "wikidata": "Q5823212"}}, {"type": "node", "id": 3526214277, "lat": 35.007222, "lon": 46.382222, "tags": {"alt_name": "\u0646\u0648 \u0633\u0627\u0645;\u0646\u0633\u0645\u0647;\u0646\u0648\u0633\u0645\u0647", "alt_name:en": "Nusmeh;Now Sam;Nasmeh;Nowsmeh;Nosmeh", "is_in:country": "Iran", "is_in:state": "Kermanshah", "name": "\u0646\u0633\u0645\u0647 \u0639\u0644\u06cc\u0627", "name:en": "Nosmeh-ye `Olya", "place": "village", "source:name": "GNS"}}, {"type": "node", "id": 3526214278, "lat": 35.1697, "lon": 46.2031, "tags": {"alt_name": "Nawsud", "alt_name:en": "Nawsud", "is_in:country": "Iran", "is_in:state": "Kermanshah", "name": "\u0646\u0648\u0633\u0648\u062f", "name:en": "Nowsud", "place": "village", "source:name": "GNS"}}, {"type": "node", "id": 3526214280, "lat": 35.0137, "lon": 46.3838, "tags": {"is_in:country": "Iran", "is_in:state": "Kermanshah", "name": "\u0633\u0631\u06a9\u0631\u0627\u0646", "name:en": "Sarkaran", "place": "village", "source:name": "GNS"}}, {"type": "node", "id": 3526214281, "lat": 34.9781, "lon": 46.4276, "tags": {"is_in:country": "Iran", "is_in:state": "Kermanshah", "name": "\u0634\u0647\u0631\u06a9 \u0633\u0631\u06cc\u0627\u0633", "name:en": "Shahrak-e Serias", "place": "village", "source:name": "GNS"}}, {"type": "node", "id": 3526214282, "lat": 34.9931, "lon": 46.4178, "tags": {"is_in:country": "Iran", "is_in:state": "Kermanshah", "name": "\u0634\u0645\u0634\u06cc\u0631", "name:en": "Shamshir", "place": "village", "source:name": "GNS"}}, {"type": "node", "id": 3526214283, "lat": 35.1287192, "lon": 46.2047765, "tags": {"is_in:country": "Iran", "is_in:state": "Kermanshah", "name": "\u0634\u06cc\u062e\u0627\u0646 \u0628\u0627\u0644\u0627", "name:en": "Sheykhan-e Bala", "place": "village", "source:name": "GNS"}}, {"type": "node", "id": 3526214285, "lat": 35.1539, "lon": 46.1909, "tags": {"is_in:country": "Iran", "is_in:state": "Kermanshah", "name": "\u0634\u06cc\u0646\u0647", "name:en": "Shineh", "place": "village", "source:name": "GNS"}}, {"type": "node", "id": 3526214286, "lat": 35.1562, "lon": 46.262, "tags": {"alt_name": "Shareh Khan;Sharekan;Shoraka;Sharakan;Sheikha", "alt_name:en": "Shareh Khan;Sharekan;Shoraka;Sharakan;Sheikha", "is_in:country": "Iran", "is_in:state": "Kermanshah", "name": "\u0634\u0631\u06a9\u0627\u0646", "name:en": "Shorkan", "place": "village", "source:name": "GNS", "wikidata": "Q5779937"}}, {"type": "node", "id": 3526214288, "lat": 35.1776, "lon": 46.1899, "tags": {"alt_name": "Shushmir-e Bala;Shushami-ye `Olya;Shu Shamshir-e Bala;Shushami-e Bala", "alt_name:en": "Shushmir-e Bala;Shushami-ye `Olya;Shu Shamshir-e Bala;Shushami-e Bala", "is_in:country": "Iran", "is_in:state": "Kermanshah", "name": "\u0634\u0648\u0634\u0645\u06cc \u0628\u0627\u0644\u0627", "name:en": "Shushami-ye Bala", "place": "village", "source:name": "GNS"}}, {"type": "node", "id": 3526214289, "lat": 35.1735277, "lon": 46.1822245, "tags": {"alt_name": "Shushmir-e Pa'in;Shushami;Sushmi;Shushami-ye Sofla;Shushami-e Pa'in;Shu Shamshir-e Pa'in", "alt_name:en": "Shushmir-e Pa'in;Shushami;Sushmi;Shushami-ye Sofla;Shushami-e Pa'in;Shu Shamshir-e Pa'in", "is_in:country": "Iran", "is_in:state": "Kermanshah", "name": "\u0634\u0648\u0634\u0645\u06cc \u067e\u0627\u0626\u06cc\u0646", "name:en": "Shushami-ye Pa'in", "place": "village", "source:name": "GNS"}}, {"type": "node", "id": 3526214291, "lat": 35.1552, "lon": 46.2098, "tags": {"is_in:country": "Iran", "is_in:state": "Kermanshah", "name": "\u062a\u0634\u0627\u0631", "name:en": "Tashar", "place": "village", "source:name": "GNS"}}, {"type": "node", "id": 3526214292, "lat": 34.9699, "lon": 46.4297, "tags": {"is_in:country": "Iran", "is_in:state": "Kermanshah", "name": "\u062a\u0627\u0632\u0647 \u0622\u0628\u0627\u062f \u0633\u0631\u06cc\u0627\u0633", "name:en": "Tazehabad-e Serias", "place": "village", "source:name": "GNS"}}, {"type": "node", "id": 3526214494, "lat": 35.1644, "lon": 46.2196, "tags": {"is_in:country": "Iran", "is_in:state": "Kermanshah", "name": "\u0648\u0632\u0644\u06cc", "name:en": "Vazli", "place": "village", "source:name": "GNS"}}, {"type": "node", "id": 3526214495, "lat": 35.15, "lon": 46.3, "tags": {"name": "\u0632\u0644\u062a\u0647", "name:en": "Zalteh", "place": "village", "source:name": "GNS", "wikidata": "Q5774233"}}, {"type": "node", "id": 3526214496, "lat": 35.0420498, "lon": 46.3252702}, {"type": "node", "id": 3526214497, "lat": 35.0423215, "lon": 46.3255697}, {"type": "node", "id": 3526214498, "lat": 35.0424673, "lon": 46.3244607}, {"type": "node", "id": 3526214499, "lat": 35.0427324, "lon": 46.3255373}, {"type": "node", "id": 3526214500, "lat": 35.0429577, "lon": 46.322696}, {"type": "node", "id": 3526214501, "lat": 35.0429644, "lon": 46.3239669}, {"type": "node", "id": 3526214502, "lat": 35.0434747, "lon": 46.3252216}, {"type": "node", "id": 3526214503, "lat": 35.0435078, "lon": 46.3227527}, {"type": "node", "id": 3526214504, "lat": 35.0438591, "lon": 46.3257559}, {"type": "node", "id": 3526214505, "lat": 35.0442302, "lon": 46.3234246}, {"type": "node", "id": 3526214506, "lat": 35.0445019, "lon": 46.3247036}, {"type": "node", "id": 3526214507, "lat": 35.0450785, "lon": 46.323635}, {"type": "node", "id": 3526214508, "lat": 35.0451779, "lon": 46.3229794}, {"type": "node", "id": 3526214509, "lat": 35.0452905, "lon": 46.3241369}, {"type": "node", "id": 3526214510, "lat": 35.0453899, "lon": 46.3233355}, {"type": "node", "id": 4493135051, "lat": 34.8821281, "lon": 46.503337, "tags": {"is_in:country": "Iran", "is_in:state": "Kermanshah", "name": "\u0634\u0628\u0627\u0646 \u06a9\u0627\u0631\u0647", "place": "village", "population": "394"}}, {"type": "node", "id": 4493135121, "lat": 34.7861625, "lon": 46.6708086, "tags": {"is_in:country": "Iran", "is_in:state": "Kermanshah", "name": "\u062e\u0631\u0627\u062c\u06cc\u0627\u0646", "place": "village", "population": "611"}}, {"type": "node", "id": 4493135123, "lat": 34.8547964, "lon": 46.5075292, "tags": {"is_in:country": "Iran", "is_in:state": "Kermanshah", "name": "\u0628\u06cc\u0644\u0647 \u0627\u06cc", "place": "village", "population": "99"}}, {"type": "node", "id": 4493135157, "lat": 34.8919471, "lon": 46.4969591, "tags": {"is_in:country": "Iran", "is_in:state": "Kermanshah", "name": "\u0642\u0648\u0631\u06cc \u0642\u0644\u0639\u0647", "name:ku": "Qureqela", "place": "village", "population": "1130", "wikidata": "Q5800922"}}, {"type": "node", "id": 4493135159, "lat": 35.0253436, "lon": 46.3731493, "tags": {"is_in:country": "Iran", "is_in:state": "Kermanshah", "name": "\u062f\u0648\u0631\u06cc\u0633\u0627\u0646", "place": "village", "population": "2036", "wikidata": "Q5833496", "wikipedia": "fa:\u062f\u0648\u0631\u06cc\u0633\u0627\u0646"}}, {"type": "node", "id": 5020868814, "lat": 35.1182352, "lon": 46.149071}, {"type": "node", "id": 5253424777, "lat": 34.7818638, "lon": 46.489143, "tags": {"name": "\u0633\u0627\u0631\u0648\u062e\u0627\u0646", "name:en": "Sarookhan", "place": "village"}}, {"type": "node", "id": 5253424778, "lat": 34.775134, "lon": 46.499146, "tags": {"name": "\u0645\u062d\u0645\u0648\u062f\u0622\u0628\u0627\u062f", "place": "village"}}, {"type": "node", "id": 5488607199, "lat": 35.0183701, "lon": 46.193026}, {"type": "node", "id": 5488612152, "lat": 35.0183681, "lon": 46.1926341}, {"type": "node", "id": 5488612153, "lat": 34.97742, "lon": 46.2958555}, {"type": "node", "id": 5488612169, "lat": 34.9743157, "lon": 46.294463}, {"type": "node", "id": 5488612170, "lat": 34.9752008, "lon": 46.2955674}, {"type": "node", "id": 5488612375, "lat": 34.9814041, "lon": 46.2626736}, {"type": "node", "id": 5488612393, "lat": 34.9975067, "lon": 46.1844414}, {"type": "node", "id": 5488612394, "lat": 34.9971893, "lon": 46.1839748}, {"type": "node", "id": 5488612395, "lat": 34.9972541, "lon": 46.1833658}, {"type": "node", "id": 5488612396, "lat": 34.9969301, "lon": 46.1833421}, {"type": "node", "id": 5488612397, "lat": 34.9965026, "lon": 46.1840064}, {"type": "node", "id": 5488612398, "lat": 34.9963147, "lon": 46.184473}, {"type": "node", "id": 5488612399, "lat": 34.9960231, "lon": 46.1849159}, {"type": "node", "id": 5488612400, "lat": 34.9957964, "lon": 46.1845837}, {"type": "node", "id": 5488612401, "lat": 34.9956344, "lon": 46.1847103}, {"type": "node", "id": 5488612402, "lat": 34.9954724, "lon": 46.1845126}, {"type": "node", "id": 5488612403, "lat": 34.9955631, "lon": 46.1840934}, {"type": "node", "id": 5488612404, "lat": 34.9953429, "lon": 46.184046}, {"type": "node", "id": 5488612405, "lat": 34.9952133, "lon": 46.1844335}, {"type": "node", "id": 5488612406, "lat": 34.9951161, "lon": 46.1846945}, {"type": "node", "id": 5488612407, "lat": 34.9950967, "lon": 46.1850424}, {"type": "node", "id": 5488612408, "lat": 34.9951291, "lon": 46.185256}, {"type": "node", "id": 5488612409, "lat": 34.9948051, "lon": 46.1856909}, {"type": "node", "id": 5488612410, "lat": 34.9952198, "lon": 46.1859203}, {"type": "node", "id": 5488612411, "lat": 34.9955826, "lon": 46.1859361}, {"type": "node", "id": 5488612412, "lat": 34.9956668, "lon": 46.1855644}, {"type": "node", "id": 5488612413, "lat": 34.9959648, "lon": 46.1852639}, {"type": "node", "id": 5488612414, "lat": 34.9964119, "lon": 46.1848684}, {"type": "node", "id": 5488612415, "lat": 34.9967682, "lon": 46.184734}, {"type": "node", "id": 5488612416, "lat": 34.9972476, "lon": 46.184734}, {"type": "node", "id": 5527694294, "lat": 34.973996, "lon": 46.414188}, {"type": "node", "id": 5527694295, "lat": 34.9728355, "lon": 46.415175}, {"type": "node", "id": 5527694296, "lat": 34.9722641, "lon": 46.4150356}, {"type": "node", "id": 5527694297, "lat": 34.9724663, "lon": 46.4141558}, {"type": "node", "id": 5527694298, "lat": 34.9728531, "lon": 46.4134048}, {"type": "node", "id": 5527694299, "lat": 34.9722113, "lon": 46.413555}, {"type": "node", "id": 5527694300, "lat": 34.9716399, "lon": 46.4144991}, {"type": "node", "id": 5527694301, "lat": 34.970831, "lon": 46.4144455}, {"type": "node", "id": 5527694302, "lat": 34.9703563, "lon": 46.4141451}, {"type": "node", "id": 5527694303, "lat": 34.9705409, "lon": 46.4132438}, {"type": "node", "id": 5527694304, "lat": 34.9726245, "lon": 46.4124285}, {"type": "node", "id": 5527694305, "lat": 34.9735916, "lon": 46.4117955}, {"type": "node", "id": 5527694306, "lat": 34.9740839, "lon": 46.4126752}, {"type": "node", "id": 5703991634, "lat": 35.1554941, "lon": 46.2607665}, {"type": "node", "id": 5703991635, "lat": 35.1549702, "lon": 46.2622331}, {"type": "node", "id": 5703991636, "lat": 35.1557762, "lon": 46.2631205}, {"type": "node", "id": 5703991637, "lat": 35.1562599, "lon": 46.2631081}, {"type": "node", "id": 5703991638, "lat": 35.1559375, "lon": 46.2637736}, {"type": "node", "id": 5703991639, "lat": 35.1561994, "lon": 46.2642789}, {"type": "node", "id": 5703991640, "lat": 35.1566025, "lon": 46.2640448}, {"type": "node", "id": 5703991641, "lat": 35.1572473, "lon": 46.2629109}, {"type": "node", "id": 5703991642, "lat": 35.1571466, "lon": 46.2614074}, {"type": "node", "id": 5756486423, "lat": 34.7964135, "lon": 46.4684108}, {"type": "node", "id": 5756486424, "lat": 34.7963275, "lon": 46.4690887}, {"type": "node", "id": 5756486425, "lat": 34.7961352, "lon": 46.4695508}, {"type": "node", "id": 5756486426, "lat": 34.7965654, "lon": 46.4705737}, {"type": "node", "id": 5756486427, "lat": 34.7970714, "lon": 46.4706477}, {"type": "node", "id": 5756486428, "lat": 34.7974306, "lon": 46.4695755}, {"type": "node", "id": 5756486429, "lat": 34.7970613, "lon": 46.4690394}, {"type": "node", "id": 5756486430, "lat": 34.7970866, "lon": 46.4682198}, {"type": "node", "id": 5756486431, "lat": 34.785662, "lon": 46.4765789}, {"type": "node", "id": 5756486432, "lat": 34.7841931, "lon": 46.4747758}, {"type": "node", "id": 5756486433, "lat": 34.7834971, "lon": 46.4760478}, {"type": "node", "id": 5756486434, "lat": 34.783798, "lon": 46.4786377}, {"type": "node", "id": 5756486435, "lat": 34.7852241, "lon": 46.4778869}, {"type": "node", "id": 6367402590, "lat": 34.9431048, "lon": 46.4574528}, {"type": "node", "id": 6367402591, "lat": 34.9411348, "lon": 46.4560724}, {"type": "node", "id": 6367402592, "lat": 34.9398316, "lon": 46.4557274}, {"type": "node", "id": 6367402593, "lat": 34.9393769, "lon": 46.4555179}, {"type": "node", "id": 6367402594, "lat": 34.9388213, "lon": 46.4548031}, {"type": "node", "id": 6367402595, "lat": 34.9377807, "lon": 46.4548647}, {"type": "node", "id": 6367402596, "lat": 34.9369522, "lon": 46.4555672}, {"type": "node", "id": 6367402597, "lat": 34.9370734, "lon": 46.456208}, {"type": "node", "id": 6367402598, "lat": 34.9368961, "lon": 46.4569317}, {"type": "node", "id": 6367402599, "lat": 34.9393567, "lon": 46.4587838}, {"type": "node", "id": 6367402600, "lat": 34.937417, "lon": 46.4596218}, {"type": "node", "id": 6367402601, "lat": 34.9394578, "lon": 46.46115}, {"type": "node", "id": 6367402602, "lat": 34.9406499, "lon": 46.4611377}, {"type": "node", "id": 6367402603, "lat": 34.9410944, "lon": 46.4622838}, {"type": "node", "id": 6367402604, "lat": 34.9422461, "lon": 46.4622592}, {"type": "node", "id": 6367402605, "lat": 34.9440948, "lon": 46.4600408}, {"type": "node", "id": 7214855821, "lat": 35.1157817, "lon": 46.1520859}, {"type": "node", "id": 7214855822, "lat": 35.1155067, "lon": 46.15231}, {"type": "node", "id": 7214855824, "lat": 35.1155067, "lon": 46.1525062}, {"type": "node", "id": 7214855825, "lat": 35.1155602, "lon": 46.1526836}, {"type": "node", "id": 7214855826, "lat": 35.1159077, "lon": 46.1527757}, {"type": "node", "id": 7214855827, "lat": 35.1160797, "lon": 46.1525996}, {"type": "node", "id": 7214855828, "lat": 35.116286, "lon": 46.1523287}, {"type": "node", "id": 7214855829, "lat": 35.1164235, "lon": 46.1524034}, {"type": "node", "id": 7214855830, "lat": 35.1165992, "lon": 46.1521326}, {"type": "node", "id": 7214855831, "lat": 35.1167673, "lon": 46.1519831}, {"type": "node", "id": 7214855832, "lat": 35.1170041, "lon": 46.1516656}, {"type": "node", "id": 7214855833, "lat": 35.1171111, "lon": 46.1513667}, {"type": "node", "id": 7214855834, "lat": 35.1172562, "lon": 46.150937}, {"type": "node", "id": 7214855835, "lat": 35.1172792, "lon": 46.1505915}, {"type": "node", "id": 7214855836, "lat": 35.1173708, "lon": 46.1503766}, {"type": "node", "id": 7214855837, "lat": 35.1174778, "lon": 46.1501245}, {"type": "node", "id": 7214855838, "lat": 35.1176077, "lon": 46.1499003}, {"type": "node", "id": 7214855839, "lat": 35.1177299, "lon": 46.1498069}, {"type": "node", "id": 7214855840, "lat": 35.1179515, "lon": 46.1498536}, {"type": "node", "id": 7214855841, "lat": 35.1181043, "lon": 46.1496855}, {"type": "node", "id": 7214855842, "lat": 35.1182036, "lon": 46.1493679}, {"type": "node", "id": 7214855843, "lat": 35.1182418, "lon": 46.1488916}, {"type": "node", "id": 7214855844, "lat": 35.117982, "lon": 46.1489476}, {"type": "node", "id": 7214855845, "lat": 35.1177987, "lon": 46.1491064}, {"type": "node", "id": 7214855846, "lat": 35.1175313, "lon": 46.1492091}, {"type": "node", "id": 7214855847, "lat": 35.1173479, "lon": 46.1493492}, {"type": "node", "id": 7214855848, "lat": 35.1171569, "lon": 46.1494333}, {"type": "node", "id": 7214855849, "lat": 35.116836, "lon": 46.1495454}, {"type": "node", "id": 7214855850, "lat": 35.1164388, "lon": 46.1493959}, {"type": "node", "id": 7214855851, "lat": 35.1163242, "lon": 46.1493025}, {"type": "node", "id": 7214855852, "lat": 35.1162172, "lon": 46.1493025}, {"type": "node", "id": 7214855853, "lat": 35.1162172, "lon": 46.1495174}, {"type": "node", "id": 7214855854, "lat": 35.1163242, "lon": 46.1496948}, {"type": "node", "id": 7214855855, "lat": 35.116286, "lon": 46.1501245}, {"type": "node", "id": 7214855856, "lat": 35.1164158, "lon": 46.1502832}, {"type": "node", "id": 7214855857, "lat": 35.1168284, "lon": 46.1504794}, {"type": "node", "id": 7214855858, "lat": 35.1167596, "lon": 46.1507969}, {"type": "node", "id": 7214855859, "lat": 35.1166068, "lon": 46.1512359}, {"type": "node", "id": 7214855860, "lat": 35.1164311, "lon": 46.1514601}, {"type": "node", "id": 7214855861, "lat": 35.1163013, "lon": 46.1515628}, {"type": "node", "id": 7369704941, "lat": 35.1170574, "lon": 46.1501607, "tags": {"name": "\u06af\u0631\u06cc\u0627\u0646\u06d5", "name:ar": "\u06a9\u0631\u06cc\u0627\u0646\u0629", "name:ckb": "\u06af\u0631\u06cc\u0627\u0646\u06d5", "name:en": "Gryana", "name:ku": "Giryane", "place": "village", "wikidata": "Q5987429", "wikipedia": "ckb:\u06af\u0631\u06cc\u0627\u0646\u06d5"}}, {"type": "node", "id": 8730860096, "lat": 34.7854075, "lon": 46.4754942}, {"type": "node", "id": 8730860097, "lat": 34.7849545, "lon": 46.4754513}, {"type": "node", "id": 8730860098, "lat": 34.7844247, "lon": 46.474932}, {"type": "node", "id": 8730860099, "lat": 34.7836046, "lon": 46.4767521}, {"type": "node", "id": 8730860100, "lat": 34.7838833, "lon": 46.4770516}, {"type": "node", "id": 8730860101, "lat": 34.7833607, "lon": 46.4778366}, {"type": "node", "id": 8730860102, "lat": 34.7838269, "lon": 46.4773565}, {"type": "node", "id": 8730882266, "lat": 34.7832131, "lon": 46.4785695}, {"type": "node", "id": 8730882267, "lat": 34.783293, "lon": 46.4787406}, {"type": "node", "id": 8730882268, "lat": 34.7853357, "lon": 46.476751}, {"type": "node", "id": 8730882269, "lat": 34.7854676, "lon": 46.4759969}, {"type": "node", "id": 9015233688, "lat": 34.9851086, "lon": 46.4118451, "tags": {"name": "\u067e\u0627\u06cc\u06af\u0627\u0647 \u0634\u0647\u06cc\u062f \u0635\u062f\u0648\u0642\u06cc", "place": "village", "ref:sci": "051272"}}, {"type": "node", "id": 9015320937, "lat": 34.8684947, "lon": 46.5001702, "tags": {"name": "\u062e\u0648\u0631\u06cc \u0622\u0628\u0627\u062f", "place": "village", "ref:sci": "051440"}}, {"type": "node", "id": 9015331548, "lat": 34.8702068, "lon": 46.4694053, "tags": {"name": "\u0628\u0632\u06af\u0648\u0631\u0647", "place": "village", "ref:sci": "051418"}}, {"type": "node", "id": 9294490069, "lat": 34.9717637, "lon": 46.3617399}, {"type": "node", "id": 9596777746, "lat": 35.1165096, "lon": 46.1521993}, {"type": "node", "id": 9596777775, "lat": 35.1157302, "lon": 46.1527046}, {"type": "node", "id": 9837969029, "lat": 35.1275018, "lon": 46.2059911, "tags": {"name": "\u067e\u0631\u062f\u06ce\u0648\u06d5\u0631", "place": "village"}}, {"type": "node", "id": 10062748896, "lat": 34.808461, "lon": 46.4930805, "tags": {"name": "\u062c\u0648\u0627\u0646\u0631\u0648\u062f", "place": "town"}}, {"type": "node", "id": 10879629519, "lat": 34.9788751, "lon": 46.2819774}, {"type": "node", "id": 10879629520, "lat": 34.9792515, "lon": 46.2800546}, {"type": "node", "id": 10879629521, "lat": 34.9808424, "lon": 46.2762892}, {"type": "node", "id": 10879629522, "lat": 34.9804071, "lon": 46.2767848}, {"type": "node", "id": 10879629523, "lat": 34.9799656, "lon": 46.2775384}, {"type": "node", "id": 10879629524, "lat": 34.9796461, "lon": 46.2783769}, {"type": "node", "id": 10879629525, "lat": 34.9794334, "lon": 46.2791963}, {"type": "node", "id": 10879629526, "lat": 34.9770533, "lon": 46.2828083}, {"type": "node", "id": 10879629527, "lat": 34.9782201, "lon": 46.278039}, {"type": "node", "id": 10879629528, "lat": 34.9780774, "lon": 46.2803556}, {"type": "node", "id": 10879629529, "lat": 34.9780591, "lon": 46.2808339}, {"type": "node", "id": 10879629530, "lat": 34.9779437, "lon": 46.2812509}, {"type": "node", "id": 10879629531, "lat": 34.9776743, "lon": 46.2817238}, {"type": "node", "id": 10879629532, "lat": 34.981909, "lon": 46.2625486}, {"type": "node", "id": 10879629534, "lat": 34.9832945, "lon": 46.269541}, {"type": "node", "id": 10879629535, "lat": 34.9827759, "lon": 46.2722529}, {"type": "node", "id": 10879629536, "lat": 34.9785343, "lon": 46.2749791}, {"type": "node", "id": 10879629537, "lat": 34.9786406, "lon": 46.2757192}, {"type": "node", "id": 10879629538, "lat": 34.9786073, "lon": 46.2764833}, {"type": "node", "id": 10879629539, "lat": 34.9784483, "lon": 46.2772729}, {"type": "node", "id": 10879629540, "lat": 34.9780688, "lon": 46.2786281}, {"type": "node", "id": 10879629541, "lat": 34.9780259, "lon": 46.2791988}, {"type": "node", "id": 10879629542, "lat": 34.9780361, "lon": 46.2733141}, {"type": "node", "id": 10879629543, "lat": 34.9781159, "lon": 46.2728758}, {"type": "node", "id": 10879629544, "lat": 34.9796959, "lon": 46.2692034}, {"type": "node", "id": 10879629545, "lat": 34.9783181, "lon": 46.2723367}, {"type": "node", "id": 10879629546, "lat": 34.980987, "lon": 46.2635983}, {"type": "node", "id": 10879629547, "lat": 34.9805407, "lon": 46.2673099}, {"type": "node", "id": 10879629548, "lat": 34.980347, "lon": 46.2678338}, {"type": "way", "id": 302990047, "nodes": [3072860834, 3072860835, 3072860836, 3072860837, 3072860838, 3072860839, 3072860840, 3072860841, 3072860842, 3072860843, 3072860844, 3072860845, 3072860846, 3072864834, 9294490069, 3072860847, 3072860848, 3072860849, 3072860850, 3072860851, 3072860852, 3072860853, 3072860854, 3072860855, 3072860856, 3072860857, 3072860858, 3072860859, 3072860860, 3072860861, 3072860862, 3072860863, 3072860834], "tags": {"admin_level": "7", "boundary": "administrative", "name": "\u0628\u0627\u0646\u0647\u200c\u0648\u0631\u0647", "name:en": "Banevreh", "place": "town"}}, {"type": "way", "id": 302990621, "nodes": [3072860909, 3072860910, 3072860911, 3072860912, 3072860913, 3072860914, 3072860915, 3072860916, 3072860917, 3072860918, 3072860919, 3072860920, 3072860921, 3072860922, 3072860923, 3072860924, 3072860925, 3072860909], "tags": {"is_in:country": "Iran", "is_in:state": "Kermanshah", "name": "\u0645\u0632\u06cc\u062f\u06cc", "place": "village"}}, {"type": "way", "id": 302990855, "nodes": [3072857192, 3072857193, 3072857194, 3072857195, 3072857196, 3072857197, 3072857198, 3072857199, 3072857200, 3072857192], "tags": {"is_in:country": "Iran", "is_in:state": "Kermanshah", "place": "village"}}, {"type": "way", "id": 302990974, "nodes": [3072871771, 3072871772, 3072871773, 3072871774, 3072871775, 3072871776, 3072871777, 3072871778, 3072871779, 3072871780, 3072871781, 3072871771], "tags": {"place": "village"}}, {"type": "way", "id": 302992352, "nodes": [3072885916, 3072885917, 3072885918, 3072885919, 3072885920, 3072885921, 3072885922, 3072885923, 3072885924, 3072885925, 3072885926, 3072885927, 3072885928, 3072885929, 3072885930, 3072885931, 3072885932, 3072885933, 3072885934, 3072885935, 3072885936, 3072885937, 3072885938, 3072885939, 3072885940, 3072885941, 3072885942, 3072885943, 3072885944, 3072885916], "tags": {"is_in:country": "Iran", "is_in:state": "Kermanshah", "name": "\u0632\u0631\u062f\u0648\u0626\u06cc", "place": "village"}}, {"type": "way", "id": 302992443, "nodes": [3072888223, 3072888224, 3072888225, 3072888226, 3072888227, 3072888228, 3072888229, 3072888230, 5488612153, 3072888231, 3072888232, 3072888433, 5488612170, 3072888434, 5488612169, 3072888435, 3072888436, 3072888437, 3072888438, 3072888439, 3072888440, 3072888441, 3072888223], "tags": {"is_in:country": "Iran", "is_in:state": "Kermanshah", "place": "village"}}, {"type": "way", "id": 302992817, "nodes": [3072895934, 10879629519, 10879629520, 10879629525, 10879629524, 10879629523, 10879629522, 10879629521, 3072895935, 10879629535, 10879629534, 3072895936, 3072895937, 3072895938, 10879629532, 5488612375, 3072895939, 10879629546, 3072895940, 10879629547, 10879629548, 10879629544, 10879629545, 10879629543, 10879629542, 3072895941, 3072895942, 10879629536, 10879629537, 10879629538, 10879629539, 10879629527, 10879629540, 10879629541, 10879629528, 10879629529, 10879629530, 10879629531, 10879629526, 3072895934], "tags": {"is_in:country": "Iran", "is_in:state": "Kermanshah", "place": "village"}}, {"type": "way", "id": 302992903, "nodes": [3072898446, 3072898447, 3072898448, 3072898449, 3072898450, 3072898451, 3072898452, 3072898453, 3072898454, 3072898455, 3072898446], "tags": {"is_in:country": "Iran", "is_in:state": "Kermanshah", "place": "village"}}, {"type": "way", "id": 302993821, "nodes": [3072900385, 5488607199, 5488612152, 3072900386, 3072900387, 3072900388, 3072900389, 3072900390, 3072900391, 3072900392, 3072900393, 3072900394, 3072900395, 3072900396, 3072900385], "tags": {"is_in:country": "Iran", "is_in:state": "Kermanshah", "place": "village"}}, {"type": "way", "id": 302993915, "nodes": [3072901941, 3072901942, 3072901943, 3072901944, 3072901945, 3072901946, 3072901947, 3072901948, 3072901949, 3072901950, 3072901951, 3072901952, 3072901941], "tags": {"is_in:country": "Iran", "is_in:state": "Kermanshah", "name": "\u062e\u0627\u0646\u0642\u0627\u0647", "place": "village"}}, {"type": "way", "id": 346020640, "nodes": [3526214504, 3526214502, 3526214499, 3526214497, 3526214496, 3526214498, 3526214501, 3526214500, 3526214503, 3526214505, 3526214508, 3526214510, 3526214507, 3526214509, 3526214506, 3526214504], "tags": {"place": "village", "source": "bing"}}, {"type": "way", "id": 570969859, "nodes": [5488612393, 5488612394, 5488612395, 5488612396, 5488612397, 5488612398, 5488612399, 5488612400, 5488612401, 5488612402, 5488612403, 5488612404, 5488612405, 5488612406, 5488612407, 5488612408, 5488612409, 5488612410, 5488612411, 5488612412, 5488612413, 5488612414, 5488612415, 5488612416, 5488612393], "tags": {"place": "village"}}, {"type": "way", "id": 576297537, "nodes": [5527694294, 5527694295, 5527694296, 5527694297, 5527694298, 5527694299, 5527694300, 5527694301, 5527694302, 5527694303, 5527694304, 5527694305, 5527694306, 5527694294], "tags": {"place": "village"}}, {"type": "way", "id": 599564184, "nodes": [5703991634, 5703991635, 5703991636, 5703991637, 5703991638, 5703991639, 5703991640, 5703991641, 5703991642, 5703991634], "tags": {"landuse": "residential", "place": "village"}}, {"type": "way", "id": 607410670, "nodes": [5756486423, 5756486424, 5756486425, 5756486426, 5756486427, 5756486428, 5756486429, 5756486430, 5756486423], "tags": {"fixme": "This seems to be something else than a village from the aerial image", "place": "village"}}, {"type": "way", "id": 607410671, "nodes": [5756486431, 8730882269, 8730860096, 8730860097, 8730860098, 5756486432, 5756486433, 8730860099, 8730860100, 8730860102, 8730860101, 8730882266, 8730882267, 5756486434, 5756486435, 8730882268, 5756486431], "tags": {"landuse": "residential", "place": "village"}}, {"type": "way", "id": 680045850, "nodes": [6367402590, 6367402591, 6367402592, 6367402593, 6367402594, 6367402595, 6367402596, 6367402597, 6367402598, 6367402599, 6367402600, 6367402601, 6367402602, 6367402603, 6367402604, 6367402605, 6367402590], "tags": {"landuse": "residential", "place": "village"}}, {"type": "way", "id": 772774392, "nodes": [7214855821, 7214855822, 7214855824, 7214855825, 9596777775, 7214855826, 7214855827, 7214855828, 7214855829, 9596777746, 7214855830, 7214855831, 7214855832, 7214855833, 7214855834, 7214855835, 7214855836, 7214855837, 7214855838, 7214855839, 7214855840, 7214855841, 7214855842, 5020868814, 7214855843, 7214855844, 7214855845, 7214855846, 7214855847, 7214855848, 7214855849, 7214855850, 7214855851, 7214855852, 7214855853, 7214855854, 7214855855, 7214855856, 7214855857, 7214855858, 7214855859, 7214855860, 7214855861, 7214855821], "tags": {"name": "\u06af\u0631\u06cc\u0627\u0646\u06d5", "place": "village", "residential": "rural"}}]}