{"version": 0.6, "generator": "Overpass API 0.7.61.5 4133829e", "osm3s": {"timestamp_osm_base": "2024-03-05T13:40:56Z", "copyright": "The data included in this document is from www.openstreetmap.org. The data is made available under ODbL."}, "elements": [{"type": "node", "id": 3576822107, "lat": 36.988854, "lon": 66.8232914, "tags": {"alt_name": "Davletabad;Daulatabad;Dawlatabad", "name": "\u062f\u0648\u0644\u062a \u0622\u0628\u0627\u062f", "name:ar": "\u062f\u0648\u0644\u062a \u0622\u0628\u0627\u062f", "name:en": "Dowlatabad", "name:ps": "\u062f\u0648\u0644\u062a \u0622\u0628\u0627\u062f", "name:ru": "\u0414\u0430\u0443\u043b\u0430\u0442\u0430\u0431\u0430\u0434", "place": "town", "source:name": "GNS"}}, {"type": "node", "id": 4391839114, "lat": 36.765847, "lon": 66.739748, "tags": {"alt_name": "Gol-e Kah;Guli-Kakh;Gul-i-Kah", "name": "\u06af\u0644 \u06a9\u0627\u0647", "name:en": "Gul-e Kah", "name:ps": "\u06af\u0644 \u06a9\u0627\u0647", "name:ru": "\u0413\u0443\u043b\u0438-\u041a\u0430\u0445", "place": "village", "source:name": "GNS"}}, {"type": "node", "id": 4391839116, "lat": 36.775823, "lon": 66.728178, "tags": {"alt_name": "\u062c\u0645\u063a\u0631\u06cc;Dzhamguray;Jamghuray", "name": "\u062c\u0645\u063a\u0648\u0631\u06cc", "name:en": "Jamghurai", "name:ps": "\u062c\u0645\u063a\u0648\u0631\u06cc", "name:ru": "\u0414\u0436\u0430\u043c\u0433\u0443\u0440\u0430\u0439", "place": "village", "source:name": "GNS"}}, {"type": "node", "id": 4391839119, "lat": 36.784325, "lon": 66.747814, "tags": {"name": "\u062a\u0646\u06c0 \u0634\u0648\u0631 \u0634\u0648\u0631\u06a9", "name:en": "Tanashorshorak;Tanah-ye Shor Shorak;Tana-i-Shor Shorak", "name:ps": "\u062a\u0646\u06c0 \u0634\u0648\u0631 \u0634\u0648\u0631\u06a9", "name:ru": "\u0422\u0430\u043d\u0430\u0448\u043e\u0440\u0448\u043e\u0440\u0430\u043a", "place": "village", "source:name": "GNS"}}, {"type": "node", "id": 4391968263, "lat": 36.770713, "lon": 66.87318, "tags": {"alt_name": "Kalacha;Qalacheh;Qal`ah Chah;Qal`ahchah;Qal`achah;\u0642\u0644\u0627\u0686\u0647;\u0642\u0644\u0639\u0647 \u0686\u0647", "name": "\u0642\u0644\u0639\u0647\u0686\u0647", "name:en": "Qalacha", "name:ps": "\u0642\u0644\u0639\u0647\u0686\u0647", "name:ru": "\u041a\u0430\u043b\u0430\u0447\u0430", "place": "village", "source:name": "GNS"}}, {"type": "node", "id": 6697684632, "lat": 36.8841219, "lon": 67.158121, "tags": {"name": "\u0646\u0648\u0648\u0631\u06cc\u062f", "name:en": "Nauvarid", "name:ru": "\u041d\u0430\u0443\u0432\u0430\u0440\u0438\u0434", "place": "hamlet"}}, {"type": "node", "id": 6697698333, "lat": 36.9249993, "lon": 67.0816323, "tags": {"name": "Siahgerd", "place": "hamlet", "wikidata": "Q7506566", "wikipedia": "en:Siah Gerd"}}, {"type": "node", "id": 6697711073, "lat": 36.9731479, "lon": 67.0589788, "tags": {"alt_name": "Khayrabad", "name": "Kheyrabad", "place": "hamlet", "wikidata": "Q6401428", "wikipedia": "en:Kheyrabad, Balkh"}}, {"type": "node", "id": 6697726096, "lat": 36.8548033, "lon": 67.0743215, "tags": {"name": "Showrak", "name:ru": "\u0428\u043e\u0440\u0430\u043a", "place": "hamlet", "wikidata": "Q7503294", "wikipedia": "en:Showrak"}}]}