{"version": 0.6, "generator": "Overpass API 0.7.61.5 4133829e", "osm3s": {"timestamp_osm_base": "2024-03-05T14:58:45Z", "copyright": "The data included in this document is from www.openstreetmap.org. The data is made available under ODbL."}, "elements": [{"type": "node", "id": 1246009128, "lat": 59.829771, "lon": 11.152275, "tags": {"amenity": "pharmacy", "dispensing": "no", "name": "Flateby Medisinutsalg", "opening_hours": "10-17(15)", "operator": "Boots", "source": "Survey"}}, {"type": "node", "id": 2122990184, "lat": 59.5834477, "lon": 11.1597047, "tags": {"amenity": "doctors", "healthcare": "doctor", "healthcare:service": "fastlege", "healthcare:speciality": "general", "name": "Askim legesenter", "opening_hours": "Mo-Fr 08:00-16:00", "ref:nhn": "987651733", "toilets:wheelchair": "no", "wheelchair": "limited"}}, {"type": "node", "id": 2798847693, "lat": 59.5840845, "lon": 11.1653153, "tags": {"amenity": "doctors", "healthcare": "doctor", "name": "Torget legessenter"}}, {"type": "node", "id": 3122749904, "lat": 59.5849446, "lon": 11.164927, "tags": {"amenity": "clinic", "healthcare": "clinic", "healthcare:speciality": "skin", "name": "Gl\u00f8d Hudklinikk AS"}}, {"type": "node", "id": 3122773509, "lat": 59.573098, "lon": 11.287253, "tags": {"amenity": "hospital", "healthcare": "hospital", "name": "Edwin Ruuds hospital", "ssr:stedsnr": "206405"}}, {"type": "node", "id": 4097956012, "lat": 59.583681, "lon": 11.159462, "tags": {"amenity": "pharmacy", "branch": "Askim", "brand": "Boots", "email": "askim.apotek@boots.no", "healthcare": "pharmacy", "name": "Boots Askim", "opening_hours": "Mo-Fr 09:00-17:00, Sa 10:00-14:00", "phone": "+47 69 81 72 00", "ref:boots": "1956542"}}, {"type": "node", "id": 4579673694, "lat": 59.490213, "lon": 10.849259, "tags": {"amenity": "pharmacy", "healthcare": "pharmacy", "name:en": "Folkestad Apotek", "opening_hours": "Mo-Fr 09:00-16:30; Sa 10:00-14:00", "phone": "+47 69021650", "website": "http://www.plussapotekene.no"}}, {"type": "node", "id": 5921084014, "lat": 59.7645574, "lon": 11.1444438, "tags": {"amenity": "doctors", "healthcare:service": "fastlege", "healthcare:speciality": "general", "name": "Enebakk legesenter", "ref:nhn": "985215863"}}, {"type": "node", "id": 5921084026, "lat": 59.6419416, "lon": 11.3170129, "tags": {"amenity": "doctors", "healthcare:service": "fastlege", "healthcare:speciality": "general", "name": "Skj\u00f8nhauglegene", "ref:nhn": "992183853"}}, {"type": "node", "id": 5921084028, "lat": 59.6419612, "lon": 11.3167085, "tags": {"amenity": "doctors", "healthcare:service": "fastlege", "healthcare:speciality": "general", "name": "Tr\u00f8gstad legekontor", "ref:nhn": "871482152"}}, {"type": "node", "id": 5921084030, "lat": 59.5504481, "lon": 11.336891, "tags": {"amenity": "doctors", "healthcare": "doctor", "healthcare:service": "fastlege", "healthcare:speciality": "general", "name": "Sydlegene", "ref:nhn": "984545797"}}, {"type": "node", "id": 5921084032, "lat": 59.5533671, "lon": 11.3249497, "tags": {"amenity": "doctors", "healthcare": "doctor", "healthcare:service": "fastlege", "healthcare:speciality": "general", "name": "Mysen legesenter", "ref:nhn": "986568646"}}, {"type": "node", "id": 5921084035, "lat": 59.5842153, "lon": 11.1653625, "tags": {"amenity": "doctors", "healthcare": "doctor", "healthcare:service": "fastlege", "healthcare:speciality": "general", "name": "Torget legesenter", "ref:nhn": "914626412"}}, {"type": "node", "id": 5921084037, "lat": 59.558675, "lon": 10.8456481, "tags": {"amenity": "doctors", "healthcare:service": "fastlege", "healthcare:speciality": "general", "name": "Ringvoll klinikken allmentjeneste", "ref:nhn": "980753441"}}, {"type": "node", "id": 5921084038, "lat": 59.6208405, "lon": 11.0305982, "tags": {"amenity": "doctors", "healthcare:service": "fastlege", "healthcare:speciality": "general", "name": "Hob\u00f8l legekontor", "phone": "+47 69924990", "ref:nhn": "984054572", "website": "https://hobollegekontor.no/"}}, {"type": "node", "id": 5921084040, "lat": 59.6205127, "lon": 11.0849073, "tags": {"amenity": "doctors", "healthcare": "doctor", "healthcare:service": "fastlege", "healthcare:speciality": "general", "name": "Villaveien legesenter", "ref:nhn": "988299790"}}, {"type": "node", "id": 5921084042, "lat": 59.6160454, "lon": 11.0763921, "tags": {"amenity": "doctors", "healthcare": "doctor", "healthcare:service": "fastlege", "healthcare:speciality": "general", "name": "Landsbylegene", "ref:nhn": "971251514"}}, {"type": "node", "id": 5921084044, "lat": 59.4743626, "lon": 11.1607283, "tags": {"amenity": "doctors", "healthcare:service": "fastlege", "healthcare:speciality": "general", "name": "Skiptvet legekontor", "ref:nhn": "871252572"}}, {"type": "node", "id": 5921084045, "lat": 59.586424, "lon": 11.1255553, "tags": {"amenity": "doctors", "healthcare": "doctor", "healthcare:service": "fastlege", "healthcare:speciality": "general", "name": "Legesenter Daivike", "ref:nhn": "983077048"}}, {"type": "node", "id": 5921084062, "lat": 59.5552646, "lon": 11.3266268, "tags": {"amenity": "doctors", "healthcare": "doctor", "healthcare:service": "fastlege", "healthcare:speciality": "general", "name": "Lege Arne Haugland", "ref:nhn": "850192952"}}, {"type": "node", "id": 5921084064, "lat": 59.5830194, "lon": 11.1616703, "tags": {"amenity": "doctors", "healthcare": "doctor", "healthcare:service": "fastlege", "healthcare:speciality": "general", "name": "Dr. Randersgate legesenter", "ref:nhn": "971488360"}}, {"type": "node", "id": 5921084654, "lat": 59.4902956, "lon": 10.8486212, "tags": {"amenity": "doctors", "healthcare": "doctor", "healthcare:service": "fastlege", "healthcare:speciality": "general", "name": "V\u00e5lerlegene", "ref:nhn": "915565905"}}, {"type": "node", "id": 5921084656, "lat": 59.4888242, "lon": 10.8712086, "tags": {"amenity": "doctors", "healthcare:service": "fastlege", "healthcare:speciality": "general", "name": "V\u00e5ler legekontor", "ref:nhn": "911598574"}}, {"type": "node", "id": 6336087797, "lat": 59.5788101, "lon": 11.277708, "tags": {"amenity": "pharmacy", "branch": "Morenen", "brand": "Apotek 1", "brand:wikidata": "Q4581428", "brand:wikipedia": "no:Apotek 1", "email": "morenen@apotekmail.com", "healthcare": "pharmacy", "name": "Apotek 1 Morenen", "opening_hours": "Mo-Fr 10:00-17:00, Sa 10:00-15:00", "phone": "+47 69 89 08 80", "ref:apotek1": "732"}}, {"type": "node", "id": 6336087801, "lat": 59.6413833, "lon": 11.3167869, "tags": {"amenity": "pharmacy", "branch": "Tr\u00f8gstad", "brand": "Apotek 1", "email": "trogstad@apotek1.no", "healthcare": "pharmacy", "name": "Apotek 1 Tr\u00f8gstad", "opening_hours": "Mo-Fr 08:30-17:00, Sa 09:00-14:00", "phone": "+47 69 82 41 40", "ref:apotek1": "300"}}, {"type": "node", "id": 6336087815, "lat": 59.834238, "lon": 11.138921, "tags": {"amenity": "pharmacy", "branch": "Flateby", "brand": "Apotek 1", "email": "apotek1.flateby@apotek1.no", "name": "Apotek 1 Flateby", "opening_hours": "Mo-Fr 09:00-17:00, Sa 10:00-15:00", "phone": "+47 64 92 42 00", "ref:apotek1": "1232"}}, {"type": "node", "id": 6820682145, "lat": 59.471558, "lon": 11.164169, "tags": {"amenity": "pharmacy", "branch": "Skiptvet apotek", "brand": "Ditt Apotek", "brand:wikidata": "Q5283710", "brand:wikipedia": "en:Ditt Apotek", "email": "skiptvet@dittapotek.no", "healthcare": "pharmacy", "name": "Skiptvet apotek", "opening_hours": "Mo-Fr 09:00-17:00, Sa 10:00-15:00", "phone": "+47 69877774", "ref:nmd": "1841"}}, {"type": "node", "id": 6821136618, "lat": 59.723928, "lon": 11.050484, "tags": {"amenity": "pharmacy", "branch": "Enebakk", "brand": "Vitusapotek", "email": "enebakk@vitusapotek.no", "name": "Vitusapotek Enebakk", "opening_hours": "Mo-Fr 09:00-18:00, Sa 10:00-16:00", "phone": "+47 64923800", "ref:nmd": "1535"}}, {"type": "node", "id": 6821136619, "lat": 59.5524583, "lon": 11.3404703, "tags": {"amenity": "pharmacy", "branch": "Opsahljordet Mysen", "brand": "Vitusapotek", "brand:wikidata": "Q17047215", "brand:wikipedia": "no:Vitusapotek", "email": "opsahljordet@vitusapotek.no", "healthcare": "pharmacy", "name": "Vitusapotek Opsahljordet Mysen", "opening_hours": "Mo-Fr 09:00-16:00, Sa 09:00-14:00", "phone": "+47 69797930", "ref:nmd": "1594"}}, {"type": "node", "id": 6821136620, "lat": 59.5534766, "lon": 11.3327832, "tags": {"amenity": "pharmacy", "branch": "Mysen", "brand": "Vitusapotek", "brand:wikidata": "Q17047215", "brand:wikipedia": "no:Vitusapotek", "email": "mysen@vitusapotek.no", "healthcare": "pharmacy", "name": "Vitusapotek Mysen", "opening_hours": "Mo-Fr 09:00-18:00, Sa 10:00-15:00", "phone": "+47 69845760", "ref:nmd": "1066"}}, {"type": "node", "id": 6821136625, "lat": 59.585006, "lon": 11.166592, "tags": {"amenity": "pharmacy", "branch": "Askim", "brand": "Vitusapotek", "brand:wikidata": "Q17047215", "brand:wikipedia": "no:Vitusapotek", "dispensing": "no", "email": "askim@vitusapotek.no", "healthcare": "pharmacy", "name": "Vitusapotek Askim", "opening_hours": "Mo-Fr 09:00-17:00, Sa 10:00-15:00", "phone": "+47 69880090", "ref:nmd": "1891"}}, {"type": "node", "id": 6821136626, "lat": 59.615643, "lon": 11.079073, "tags": {"amenity": "pharmacy", "branch": "Spydeberg", "brand": "Vitusapotek", "brand:wikidata": "Q17047215", "brand:wikipedia": "no:Vitusapotek", "email": "spydeberg@vitusapotek.no", "healthcare": "pharmacy", "name": "Vitusapotek Spydeberg", "opening_hours": "Mo-Fr 09:00-18:00, Sa 09:00-15:00", "phone": "+47 69837030", "ref:nmd": "1333"}}, {"type": "node", "id": 6991223386, "lat": 59.5806, "lon": 11.157821, "tags": {"amenity": "clinic", "healthcare": "clinic", "name": "Askim \u00f8re- Nese- Hals- og Allergiklinikk", "source": "local knowledge"}}, {"type": "node", "id": 7205130628, "lat": 59.582508, "lon": 11.161816, "tags": {"amenity": "doctors", "contact:phone": "+47 95174524", "healthcare": "doctor", "healthcare:speciality": "dermatology", "name": "Askim Dermaklinikk", "opening_hours": "9-16", "website": "https://askimdermaklinikk.no"}}, {"type": "node", "id": 7290147950, "lat": 59.583328, "lon": 11.165264, "tags": {"amenity": "pharmacy", "branch": "Askim", "brand": "Apotek 1", "brand:wikidata": "Q4581428", "brand:wikipedia": "no:Apotek 1", "email": "askim@apotek1.no", "healthcare": "pharmacy", "level": "hovedplan", "name": "Apotek 1 Askim", "opening_hours": "Mo-Fr 10:00-20:00, Sa 10:00-18:00", "phone": "+47 69 84 41 40", "ref:apotek1": "5"}}, {"type": "node", "id": 8361946592, "lat": 59.620657, "lon": 11.02659, "tags": {"amenity": "pharmacy", "branch": "Knapstad", "brand": "Vitusapotek", "email": "knapstad@vitusapotek.no", "name": "Vitusapotek Knapstad", "opening_hours": "Mo-Fr 09:00-18:00, Sa 10:00-16:00", "phone": "+47 69700290", "ref:nmd": "2189"}}, {"type": "node", "id": 8902002633, "lat": 59.6178137, "lon": 11.083673, "tags": {"amenity": "doctors", "email": "helsestasjonen@io.kommune.no", "healthcare": "doctor", "name": "Spydeberg helsestasjon", "phone": "+47 69702200", "website": "https://www.io.kommune.no/tjenester/helse-og-mestring/barn-unge-og-familie/helsestasjon/"}}, {"type": "node", "id": 8914801040, "lat": 59.584563, "lon": 11.135404, "tags": {"amenity": "pharmacy", "branch": "Hurrah\u00f8let", "brand": "Vitusapotek", "brand:wikidata": "Q17047215", "brand:wikipedia": "no:Vitusapotek", "dispensing": "yes", "email": "hurraholet@vitusapotek.no", "healthcare": "pharmacy", "name": "Vitusapotek Hurrah\u00f8let", "opening_hours": "Mo-Fr 09:00-18:00, Sa 10:00-16:00", "phone": "+47 69696969", "ref:nmd": "2231"}}, {"type": "node", "id": 8920682586, "lat": 59.584517, "lon": 11.1353555}, {"type": "node", "id": 8920682587, "lat": 59.5845877, "lon": 11.1353799}, {"type": "node", "id": 8920682588, "lat": 59.5846181, "lon": 11.1354128}, {"type": "node", "id": 8920682591, "lat": 59.584543, "lon": 11.1353555}, {"type": "node", "id": 8920682592, "lat": 59.5845595, "lon": 11.1353627}, {"type": "node", "id": 9490690932, "lat": 59.5845181, "lon": 11.1356229}, {"type": "node", "id": 9665855171, "lat": 59.5846186, "lon": 11.1355852}, {"type": "node", "id": 9665855174, "lat": 59.5846183, "lon": 11.1356239}, {"type": "node", "id": 11117627198, "lat": 59.5848049, "lon": 11.160636, "tags": {"amenity": "doctors", "contact:website": "https://www.io.kommune.no/tjenester/helse-og-omsorg/barn-unge-og-familie/helsestasjon-for-ungdom-hfu/", "healthcare": "doctor", "name": "Helsestasjon for ungdom (HFU)"}}, {"type": "way", "id": 964429734, "nodes": [8920682586, 8920682591, 8920682592, 8920682587, 8920682588, 9665855171, 9665855174, 9490690932, 8920682586], "tags": {"amenity": "pharmacy", "brand": "Vitusapotek", "brand:wikidata": "Q17047215", "brand:wikipedia": "no:Vitusapotek", "building": "no", "dispensing": "yes", "healthcare": "pharmacy", "name": "Vitusapotek"}}]}