{"version": 0.6, "generator": "Overpass API 0.7.61.5 4133829e", "osm3s": {"timestamp_osm_base": "2024-03-06T11:18:45Z", "copyright": "The data included in this document is from www.openstreetmap.org. The data is made available under ODbL."}, "elements": [{"type": "node", "id": 567056361, "lat": 35.8625629, "lon": 40.8841154, "tags": {"alt_name": "\u0634\u0645\u0633\u0627\u0646\u064a", "int_name": "Chamsani, Chamsaniye, Chamsaniy\u00e9, Chams\u00e2ni, Shamsaniyah, Shams\u0101n\u012byah, Shams\u0101n\u012b", "is_in": "Syria, \u0627\u0644\u062c\u0645\u0647\u0648\u0631\u064a\u0629 \u0627\u0644\u0639\u0631\u0628\u064a\u0629 \u0627\u0644\u0633\u0648\u0631\u064a\u0629 \u060c \u0633\u0648\u0631\u064a\u0627", "name": "\u0634\u0645\u0633\u0627\u0646\u064a", "name:ar": "\u0634\u0645\u0633\u0627\u0646\u064a", "name:ar1": "\u0634\u0645\u0633\u0627\u0646\u064a", "name:de": "Shamsani", "name:en": "Shamsani", "name:fr": "Shamsani", "name:ru": "\u0428\u0430\u043c\u0441\u0430\u043d\u0438-\u0428\u0430\u0440\u043a\u0438", "place": "village"}}, {"type": "node", "id": 567056364, "lat": 35.7606201, "lon": 40.7692475, "tags": {"alt_name": "\u0645\u0631\u0642\u062f\u0629", "int_name": "Markada, Marqadah", "is_in": "Syria, \u0627\u0644\u062c\u0645\u0647\u0648\u0631\u064a\u0629 \u0627\u0644\u0639\u0631\u0628\u064a\u0629 \u0627\u0644\u0633\u0648\u0631\u064a\u0629 \u060c \u0633\u0648\u0631\u064a\u0627", "name": "\u0645\u0631\u0642\u062f\u0629", "name:ar": "\u0645\u0631\u0642\u062f\u0629", "name:ar1": "\u0645\u0631\u0642\u062f\u0629", "name:de": "Marqadah", "name:en": "Marqadah", "name:fr": "Marqadah", "name:ru": "\u041c\u0430\u0440\u0433\u0430\u0434\u0430", "place": "village"}}, {"type": "node", "id": 567056365, "lat": 35.7622743, "lon": 40.850379, "tags": {"alt_name": "\u062c\u064a\u0646\u0629", "int_name": "Jina, J\u00eena, J\u012bnah", "is_in": "Syria, \u0627\u0644\u062c\u0645\u0647\u0648\u0631\u064a\u0629 \u0627\u0644\u0639\u0631\u0628\u064a\u0629 \u0627\u0644\u0633\u0648\u0631\u064a\u0629 \u060c \u0633\u0648\u0631\u064a\u0627", "name": "\u062c\u064a\u0646\u0629", "name:ar": "\u062c\u064a\u0646\u0629", "name:ar1": "\u062c\u064a\u0646\u0629", "name:de": "Jinah", "name:en": "Jinah", "name:fr": "Jinah", "place": "village"}}, {"type": "node", "id": 567056368, "lat": 35.7858464, "lon": 40.8256812, "tags": {"alt_name": "\u062f\u0634\u064a\u0634\u0629", "int_name": "Dachiche, Dach\u00eech\u00e9, Dadicha, Dadishah, Dashishih, Dash\u012bshih, D\u0101d\u012bshah, Dash\u012bshah", "is_in": "Syria, \u0627\u0644\u062c\u0645\u0647\u0648\u0631\u064a\u0629 \u0627\u0644\u0639\u0631\u0628\u064a\u0629 \u0627\u0644\u0633\u0648\u0631\u064a\u0629 \u060c \u0633\u0648\u0631\u064a\u0627", "name": "\u062f\u0634\u064a\u0634\u0629", "name:ar": "\u062f\u0634\u064a\u0634\u0629", "name:ar1": "\u062f\u0634\u064a\u0634\u0629", "name:de": "Dashishah", "name:en": "Dashishah", "name:fr": "Dashishah", "place": "village"}}, {"type": "node", "id": 567056698, "lat": 35.9099548, "lon": 40.8869751, "tags": {"alt_name": "\u0641\u062f\u063a\u0645\u064a", "int_name": "Fadaghmi, Fadrhami, Fadrh\u00e2mi, Fa\u1e11aghm\u012b, Tall Fadghami, Tall Fadgh\u0101m\u012b, Tell Fajami, Tell Faj\u0101mi, Fadgham\u012b", "is_in": "Syria, \u0627\u0644\u062c\u0645\u0647\u0648\u0631\u064a\u0629 \u0627\u0644\u0639\u0631\u0628\u064a\u0629 \u0627\u0644\u0633\u0648\u0631\u064a\u0629 \u060c \u0633\u0648\u0631\u064a\u0627", "name": "\u0641\u062f\u063a\u0645\u064a", "name:ar": "\u0641\u062f\u063a\u0645\u064a", "name:ar1": "\u0641\u062f\u063a\u0645\u064a", "name:de": "Fadghami", "name:en": "Fadghami", "name:fr": "Fadghami", "name:ru": "\u041c\u0430\u0443\u043a\u0435-\u044d\u043b\u044c-\u0424\u0430\u0434\u0433\u0430\u043c\u0438", "place": "village"}}, {"type": "node", "id": 571229569, "lat": 36.0077898, "lon": 41.2050775, "tags": {"alt_name": "\u0635\u0648\u064a\u0627\u0646", "is_in": "Syria, \u0627\u0644\u062c\u0645\u0647\u0648\u0631\u064a\u0629 \u0627\u0644\u0639\u0631\u0628\u064a\u0629 \u0627\u0644\u0633\u0648\u0631\u064a\u0629 \u060c \u0633\u0648\u0631\u064a\u0627", "name": "\u0635\u0648\u064a\u0627\u0646", "name:alt": "\u015euwayy\u0101n", "name:ar": "\u0635\u0648\u064a\u0627\u0646", "name:ar1": "\u0635\u0648\u064a\u0627\u0646", "name:de": "Suwayyan", "name:en": "Suwayyan", "name:fr": "Suwayyan", "place": "village"}}, {"type": "node", "id": 3279055706, "lat": 35.9028862, "lon": 41.2498569, "tags": {"name": "\u0628\u064a\u0631 \u0645\u0637\u0644\u0642 \u0627\u0644\u0644\u0647\u0628\u0647", "place": "village"}}, {"type": "node", "id": 4020270806, "lat": 35.8251491, "lon": 40.8370323, "tags": {"int_name": "At Taminah", "name": "\u0627\u0644\u062a\u0645\u064a\u0646\u0629", "name:en": "At Taminah", "name:ru": "\u042d\u0442-\u0422\u0430\u043c\u0438\u043d\u0435", "place": "village"}}, {"type": "node", "id": 4020270807, "lat": 35.8477251, "lon": 40.845299, "tags": {"int_name": "Umm al \u2018Uway\u015f", "name": "\u0623\u0645 \u0627\u0644\u0639\u0648\u064a\u0635", "name:en": "Umm al Uweys", "name:ru": "\u0423\u043c\u043c-\u044d\u043b\u044c-\u041e\u0432\u0435\u043e", "place": "village"}}, {"type": "node", "id": 4020270809, "lat": 35.8365767, "lon": 40.8773449, "tags": {"int_name": "Harir", "name": "\u062d\u0631\u064a\u0631", "name:en": "Harir", "name:ru": "\u0425\u0430\u0440\u0438\u0440", "place": "village"}}, {"type": "node", "id": 4020270812, "lat": 35.8132629, "lon": 40.8827731, "tags": {"int_name": "Ilwat Muhammad Ibrahim", "name": "\u0639\u0644\u0648\u0629 \u0645\u062d\u0645\u062f \u0627\u0628\u0631\u0627\u0647\u064a\u0645", "name:en": "Ilwat Muhammad Ibrahim", "name:ru": "\u0410\u043b\u044c\u0432\u0435\u0442-\u041c\u0443\u0445\u0430\u043c\u043c\u0435\u0434-\u0418\u0431\u0440\u0430\u0445\u0438\u043c", "place": "hamlet"}}, {"type": "node", "id": 4020270813, "lat": 35.8033358, "lon": 40.8749591, "tags": {"int_name": "Shamdin", "name": "\u0634\u0645\u062f\u064a\u0646", "name:en": "Shamdin", "name:ru": "\u0428\u0430\u043c\u0434\u0438\u043d", "place": "hamlet"}}, {"type": "node", "id": 4020270814, "lat": 35.7965087, "lon": 40.86375, "tags": {"int_name": "Khashi", "name:en": "Khashi", "name:ru": "\u0425\u0430\u0448\u0438", "place": "village"}}, {"type": "node", "id": 4020270815, "lat": 35.7969192, "lon": 40.8898542, "tags": {"int_name": "Sarjin", "name": "\u0633\u0631\u062c\u064a\u0646", "name:en": "Sarjin", "name:ru": "\u0421\u0430\u0440\u0434\u0436\u0438\u043d", "place": "village"}}, {"type": "node", "id": 4020270816, "lat": 35.8137269, "lon": 40.8922858, "tags": {"int_name": "Zarifah", "name": "\u0638\u0631\u064a\u0641\u0629", "name:en": "Zarifah", "name:ru": "\u0417\u0440\u0430\u0439\u0444\u0435", "place": "village"}}, {"type": "node", "id": 4020270817, "lat": 35.8468828, "lon": 40.886509, "tags": {"int_name": "Ath Thaljah", "name": "\u0627\u0644\u062b\u0644\u062c\u0629", "name:en": "Ath Thaljah", "name:ru": "\u042d\u043b\u044c-\u0422\u0430\u043b\u044c\u0434\u0436\u0435", "place": "village"}}, {"type": "node", "id": 4020270818, "lat": 35.8758121, "lon": 40.8894401, "tags": {"int_name": "Al \u2018Ar\u00e1", "name": "\u0627\u0644\u0639\u0631\u0649", "name:en": "Al \u2018Ar\u00e1", "name:ru": "\u042d\u043b\u044c-\u041e\u0440\u0430", "place": "village"}}, {"type": "node", "id": 4020270819, "lat": 35.8767528, "lon": 40.8802946, "tags": {"int_name": "Al Wardiyah", "name": "\u0627\u0644\u0648\u0631\u062f\u064a\u0629", "name:en": "Al Wardiyah", "name:ru": "\u042d\u043b\u044c-\u0412\u0430\u0440\u0434\u0438\u044f", "place": "village"}}, {"type": "node", "id": 4020270826, "lat": 35.8710845, "lon": 40.8471083, "tags": {"alt_name": "Al-Saad", "int_name": "Sa'ad", "name": "\u0633\u0639\u062f", "name:en": "Sa'ad", "name:ru": "\u0421\u0430\u0430\u0434", "note": "fix geolocalization", "place": "village"}}, {"type": "node", "id": 4020270828, "lat": 35.9006041, "lon": 40.8882422, "tags": {"int_name": "Al Bad\u012b\u2018 ash Sharq\u012b", "name": "\u0627\u0644\u0628\u062f\u064a\u0639 \u0627\u0644\u0634\u0631\u0642\u064a", "name:en": "Al Bad\u012b\u2018 ash Sharq\u012b", "name:ru": "\u042d\u043b\u044c-\u0411\u0430\u0434\u0438-\u0428\u0430\u0440\u043a\u0438", "place": "village"}}, {"type": "node", "id": 4020270829, "lat": 35.8915689, "lon": 40.8859282, "tags": {"int_name": "Shad\u012bd", "name": "\u0634\u062f\u064a\u062f", "name:en": "Shad\u012bd", "name:ru": "\u0428\u0434\u0430\u0439\u0435\u0434", "place": "village"}}, {"type": "node", "id": 4020270830, "lat": 35.8021228, "lon": 40.8431657, "tags": {"int_name": "Bilaliyah", "name": "\u0628\u0644\u0627\u0644\u064a\u0629", "name:en": "Bilaliyah", "name:ru": "\u0411\u043b\u0430\u043b\u0438\u044f", "place": "village"}}, {"type": "node", "id": 4020270831, "lat": 35.7943469, "lon": 40.8377607, "tags": {"int_name": "Turaytir", "name": "\u0637\u0631\u064a\u0637\u0631", "name:en": "Turaytir", "name:ru": "\u0422\u0440\u0435\u0442\u0435\u0440", "place": "village"}}, {"type": "node", "id": 4020270832, "lat": 35.7842449, "lon": 40.8151669, "tags": {"int_name": "Ghannam", "name": "\u063a\u0646\u0627\u0645", "name:en": "Ghannam", "name:ru": "\u0413\u0430\u043d\u043d\u0430\u043c", "note": "fix geolocalization", "place": "village"}}, {"type": "node", "id": 4020270833, "lat": 35.7717806, "lon": 40.7800407, "tags": {"name": "\u0633\u0639\u064a\u062f", "name:en": "Su\u2018ayyid", "name:ru": "\u0421\u0432\u0439\u0435\u0434", "place": "village"}}, {"type": "node", "id": 4020270835, "lat": 35.7390545, "lon": 40.7868977, "tags": {"int_name": "Sa\u2018dah", "name": "\u0633\u0639\u062f\u0629", "name:en": "Sa\u2018dah", "name:ru": "\u0421\u0430\u0438\u0434\u0430", "place": "village"}}, {"type": "node", "id": 4020270836, "lat": 35.7273908, "lon": 40.7789249, "tags": {"int_name": "Ar Rughay", "name": "\u0627\u0644\u0631\u063a\u0627\u064a", "name:en": "Ar Rughay", "name:ru": "\u042d\u0440-\u0420\u0430\u0433\u0430\u0439", "place": "village"}}, {"type": "node", "id": 4020270837, "lat": 35.7469852, "lon": 40.8075924, "tags": {"int_name": "Hurayshiyah", "name": "\u062d\u0631\u064a\u0634\u064a\u0629", "name:en": "Hurayshiyah", "name:ru": "\u0425\u0440\u0438\u0448\u0438\u044f", "place": "village"}}, {"type": "node", "id": 4020270838, "lat": 35.7482565, "lon": 40.8231063, "tags": {"name": "\u0637\u0628\u0634\u064a\u0629", "name:en": "Tabshiyah", "name:ru": "\u0422\u0431\u0438\u0448\u0438\u044f", "place": "village"}}, {"type": "node", "id": 4020270839, "lat": 35.758809, "lon": 40.839961, "tags": {"int_name": "Anad", "name": "\u0639\u0646\u0627\u062f", "name:en": "Anad", "name:ru": "\u0410\u043d\u0430\u0434", "place": "village"}}, {"type": "node", "id": 4020270840, "lat": 35.7612729, "lon": 40.8472837, "tags": {"int_name": "Al Mubarakah", "name": "\u0627\u0644\u0645\u0628\u0627\u0631\u0643\u0629", "name:en": "Al Mubarakah", "name:ru": "\u042d\u043b\u044c-\u041c\u0443\u0431\u0430\u0440\u043a\u0430", "place": "village"}}, {"type": "node", "id": 4020270841, "lat": 35.7397054, "lon": 40.7684965, "tags": {"int_name": "As Sab\u2018\u012b", "name": "\u0627\u0644\u0633\u0628\u0639\u064a", "name:ru": "\u042d\u0441-\u0421\u0430\u0431\u0438", "place": "village"}}, {"type": "node", "id": 4020270842, "lat": 35.7677868, "lon": 40.865176, "tags": {"int_name": "Tall Akuturi", "name": "\u062a\u0644 \u0627\u0643\u062a\u0648\u0631\u064a", "name:en": "Tall Akuturi", "name:ru": "\u0422\u0435\u043b\u043b\u044c-\u0410\u043a\u0442\u0443\u0440\u0438", "place": "village"}}, {"type": "node", "id": 4020270843, "lat": 35.7770555, "lon": 40.8721156, "tags": {"int_name": "Abu Gharbah", "name": "\u0623\u0628\u0648 \u063a\u0631\u0628\u0629", "name:en": "Abu Gharbah", "name:ru": "\u0410\u0431\u0443-\u0413\u0443\u0440\u0431\u0430", "place": "village"}}, {"type": "node", "id": 4040508880, "lat": 35.7768814, "lon": 40.7977647, "tags": {"int_name": "Maql\u016bb", "name": "\u0645\u0642\u0644\u0648\u0628", "name:en": "Maql\u016bb", "place": "village"}}]}