{"version": 0.6, "generator": "Overpass API 0.7.61.5 4133829e", "osm3s": {"timestamp_osm_base": "2024-03-05T11:12:34Z", "copyright": "The data included in this document is from www.openstreetmap.org. The data is made available under ODbL."}, "elements": [{"type": "node", "id": 4535656301, "lat": 7.1276219, "lon": -3.2009841, "tags": {"amenity": "bank", "name": "Banque Atlantique - Agence Agnibil\u00e9krou"}}, {"type": "node", "id": 4535710793, "lat": 7.1271119, "lon": -3.2008756, "tags": {"amenity": "bank", "name": "SIB - Agence Agnibil\u00e9krou"}}, {"type": "node", "id": 4535710794, "lat": 7.1268919, "lon": -3.200826, "tags": {"amenity": "bank", "name": "BNI - Agence Agnibil\u00e9krou"}}, {"type": "node", "id": 6466395114, "lat": 7.1397054, "lon": -3.2027593, "tags": {"amenity": "bank", "brand": "Soci\u00e9t\u00e9 G\u00e9n\u00e9rale C\u00f4te d\u2019Ivoire", "brand:wikidata": "Q3488360", "brand:wikipedia": "fr:Soci\u00e9t\u00e9 g\u00e9n\u00e9rale C\u00f4te d'Ivoire", "name": "Soci\u00e9t\u00e9 g\u00e9n\u00e9rale C\u00f4te d\u2019Ivoire", "name:fr": "Soci\u00e9t\u00e9 g\u00e9n\u00e9rale C\u00f4te d\u2019Ivoire", "old_name": "SGBCI", "operator": "Soci\u00e9t\u00e9 g\u00e9n\u00e9rale C\u00f4te d\u2019Ivoire"}}, {"type": "node", "id": 6466422005, "lat": 7.1219475, "lon": -3.2040927, "tags": {"amenity": "bank", "name": "Nsia Banque"}}, {"type": "node", "id": 6466422757, "lat": 7.1304773, "lon": -3.201992, "tags": {"amenity": "bank", "name": "Coopec"}}]}