{"version": 0.6, "generator": "Overpass API 0.7.61.5 4133829e", "osm3s": {"timestamp_osm_base": "2024-03-05T11:24:46Z", "copyright": "The data included in this document is from www.openstreetmap.org. The data is made available under ODbL."}, "elements": [{"type": "node", "id": 6140887980, "lat": 7.4510733, "lon": -2.5840978}, {"type": "node", "id": 6140887981, "lat": 7.4510189, "lon": -2.5840715}, {"type": "node", "id": 6140887982, "lat": 7.4509627, "lon": -2.5841898}, {"type": "node", "id": 6140887983, "lat": 7.4511394, "lon": -2.5839586}, {"type": "node", "id": 6140887984, "lat": 7.4509474, "lon": -2.5838658}, {"type": "node", "id": 6140891285, "lat": 7.4508251, "lon": -2.5841233}, {"type": "node", "id": 6140901137, "lat": 7.4500527, "lon": -2.5846912}, {"type": "node", "id": 6140901138, "lat": 7.4501311, "lon": -2.5845208}, {"type": "node", "id": 6140901139, "lat": 7.4502187, "lon": -2.5845619}, {"type": "node", "id": 6140901140, "lat": 7.4501402, "lon": -2.5847322}, {"type": "node", "id": 6140901141, "lat": 7.4503388, "lon": -2.5843254}, {"type": "node", "id": 6140901142, "lat": 7.450134, "lon": -2.5842302}, {"type": "node", "id": 6140901143, "lat": 7.4500352, "lon": -2.5844465}, {"type": "node", "id": 6140901144, "lat": 7.45024, "lon": -2.5845417}, {"type": "way", "id": 655434638, "nodes": [6140891285, 6140887982, 6140887981, 6140887980, 6140887983, 6140887984, 6140891285], "tags": {"amenity": "bank", "atm": "yes", "building": "commercial", "name": "Ghana Commercial Bank", "opening_hours": "Mo-Fr 08:30-17:00", "operator": "GCB", "wheelchair": "yes"}}, {"type": "way", "id": 655435535, "nodes": [6140901140, 6140901139, 6140901138, 6140901137, 6140901140], "tags": {"addr:country": "GH", "addr:region": "Bono Region", "addr:street": "Berekum - Dormaa Ahenkro Road", "addr:town": "Berekum", "alt_name": "Absa - Berekum Branch", "amenity": "bank", "branch": "Berekum", "brand": "Absa", "brand:wikidata": "Q58641733", "brand:wikipedia": "en:Absa Group Limited", "building": "commercial", "building:levels": "2", "building:material": "cement_block", "contact:instagram": "absaghana", "contact:linkedin": "absa-ghana", "contact:twitter": "AbsaGhana", "contact:whatsapp": "+233 50 164 4644", "contact:youtube": "https://www.youtube.com/channel/UCKpKPyfJ69tf7lnxudpzKJQ", "description": "Adjacent Presbyterian Mission House, Berekum", "email": "service.excellence.GH@absa.africa", "facebook": "AbsaGhana", "name": "Absa", "old_name": "Barclays Bank", "opening_hours": "Mo-Fr 08:30-16:30; PH off", "operator": "Absa Bank Ghana Limited", "operator:type": "public", "operator:wikidata": "Q96371413", "operator:wikipedia": "en:Absa Bank Ghana", "phone": "+233 57 767 5023", "website": "https://www.absa.com.gh"}}, {"type": "way", "id": 655435536, "nodes": [6140901144, 6140901141, 6140901142, 6140901143, 6140901144], "tags": {"amenity": "bank", "brand": "Fidelity Bank", "brand:wikidata": "Q5446778", "brand:wikipedia": "en:Fidelity Bank Ghana", "building": "commercial", "building:levels": "2", "building:material": "cement_block", "name": "Fidelity Bank", "opening_hours": "Mo-Fr 08:30-17:00"}}]}