{"version": 0.6, "generator": "Overpass API 0.7.61.5 4133829e", "osm3s": {"timestamp_osm_base": "2024-03-06T11:17:45Z", "copyright": "The data included in this document is from www.openstreetmap.org. The data is made available under ODbL."}, "elements": [{"type": "node", "id": 2488371268, "lat": 34.3718885, "lon": 43.130406, "tags": {"alt_name": "\u0639\u0631\u0628 \u0639\u0628\u062f \u062d\u0636\u064a\u0631", "int_name": "Arab Abd \u1e28a\u1e11\u012br, \u0639\u0631\u0628 \u0639\u0628\u062f \u062d\u0636\u064a\u0631, Arab Abd Hadir, \u0639\u0631\u0628 \u0639\u0628\u062f \u062d\u0636\u064a\u0631", "name": "\u0639\u0631\u0628 \u0639\u0628\u062f \u062d\u0636\u064a\u0631", "name:ar": "\u0639\u0631\u0628 \u0639\u0628\u062f \u062d\u0636\u064a\u0631", "name:ar1": "\u0639\u0631\u0628 \u0639\u0628\u062f \u062d\u0636\u064a\u0631", "name:de": "Arab Abd Hadir", "name:en": "Arab Abd Hadir", "name:fr": "Arab Abd Hadir", "place": "village"}}, {"type": "node", "id": 2488371275, "lat": 34.330063, "lon": 43.177245, "tags": {"alt_name": "\u0639\u0631\u0628 \u0639\u0648\u062f\u0629 \u062c\u0627\u0633\u0645", "int_name": "Arab Awdat J\u0101sim, \u0639\u0631\u0628 \u0639\u0648\u062f\u0629 \u062c\u0627\u0633\u0645, Arab Awdat Jasim, \u0639\u0631\u0628 \u0639\u0648\u062f\u0629 \u062c\u0627\u0633\u0645", "name": "\u0639\u0631\u0628 \u0639\u0648\u062f\u0629 \u062c\u0627\u0633\u0645", "name:ar": "\u0639\u0631\u0628 \u0639\u0648\u062f\u0629 \u062c\u0627\u0633\u0645", "name:ar1": "\u0639\u0631\u0628 \u0639\u0648\u062f\u0629 \u062c\u0627\u0633\u0645", "name:de": "Arab Awdat Jasim", "name:en": "Arab Awdat Jasim", "name:fr": "Arab Awdat Jasim", "place": "village"}}, {"type": "node", "id": 2488371284, "lat": 34.335438, "lon": 43.181405, "tags": {"alt_name": "\u0639\u0631\u0628 \u0639\u0648\u0627\u062f \u062c\u0627\u0633\u0645", "int_name": "Arab Aww\u0101d J\u0101sim, \u0639\u0631\u0628 \u0639\u0648\u0627\u062f \u062c\u0627\u0633\u0645, Arab Awwad Jasim, \u0639\u0631\u0628 \u0639\u0648\u0627\u062f \u062c\u0627\u0633\u0645", "name": "\u0639\u0631\u0628 \u0639\u0648\u0627\u062f \u062c\u0627\u0633\u0645", "name:ar": "\u0639\u0631\u0628 \u0639\u0648\u0627\u062f \u062c\u0627\u0633\u0645", "name:ar1": "\u0639\u0631\u0628 \u0639\u0648\u0627\u062f \u062c\u0627\u0633\u0645", "name:de": "Arab Awwad Jasim", "name:en": "Arab Awwad Jasim", "name:fr": "Arab Awwad Jasim", "place": "village"}}, {"type": "node", "id": 2488371309, "lat": 34.345886, "lon": 43.151674, "tags": {"alt_name": "\u0639\u0631\u0628 \u062e\u0644\u064a\u0644 \u062c\u0645\u0627\u0644", "int_name": "Arab Khal\u012bl Jam\u0101l, \u0639\u0631\u0628 \u062e\u0644\u064a\u0644 \u062c\u0645\u0627\u0644, Arab Khalil Jamal, \u0639\u0631\u0628 \u062e\u0644\u064a\u0644 \u062c\u0645\u0627\u0644", "name": "\u0639\u0631\u0628 \u062e\u0644\u064a\u0644 \u062c\u0645\u0627\u0644", "name:ar": "\u0639\u0631\u0628 \u062e\u0644\u064a\u0644 \u062c\u0645\u0627\u0644", "name:ar1": "\u0639\u0631\u0628 \u062e\u0644\u064a\u0644 \u062c\u0645\u0627\u0644", "name:de": "Arab Khalil Jamal", "name:en": "Arab Khalil Jamal", "name:fr": "Arab Khalil Jamal", "place": "village"}}, {"type": "node", "id": 2488371315, "lat": 34.321889, "lon": 43.17287, "tags": {"alt_name": "\u0639\u0631\u0628 \u0635\u0637\u0627\u0645 \u0639\u0648\u062f\u0629", "int_name": "Arab \u015ea\u0163\u0163\u0101m Awdah, \u0639\u0631\u0628 \u0635\u0637\u0627\u0645 \u0639\u0648\u062f\u0629, Arab Sattam Awdah, \u0639\u0631\u0628 \u0635\u0637\u0627\u0645 \u0639\u0648\u062f\u0629", "name": "\u0639\u0631\u0628 \u0635\u0637\u0627\u0645 \u0639\u0648\u062f\u0629", "name:ar": "\u0639\u0631\u0628 \u0635\u0637\u0627\u0645 \u0639\u0648\u062f\u0629", "name:ar1": "\u0639\u0631\u0628 \u0635\u0637\u0627\u0645 \u0639\u0648\u062f\u0629", "name:de": "Arab Sattam Awdah", "name:en": "Arab Sattam Awdah", "name:fr": "Arab Sattam Awdah", "place": "village"}}, {"type": "node", "id": 2488371318, "lat": 34.3719143, "lon": 43.1306935, "tags": {"alt_name": "\u0642\u0631\u064a\u0629 \u0627\u0644\u0628\u0648\u064a\u062a\u0631", "int_name": "Qaryat al Buwaytir, \u0642\u0631\u064a\u0629 \u0627\u0644\u0628\u0648\u064a\u062a\u0631, Qaryat al Buwaytir, \u0642\u0631\u064a\u0629 \u0627\u0644\u0628\u0648\u064a\u062a\u0631", "name": "\u0642\u0631\u064a\u0629 \u0627\u0644\u0628\u0648\u064a\u062a\u0631", "name:ar": "\u0642\u0631\u064a\u0629 \u0627\u0644\u0628\u0648\u064a\u062a\u0631", "name:ar1": "\u0642\u0631\u064a\u0629 \u0627\u0644\u0628\u0648\u064a\u062a\u0631", "name:de": "Qaryat al Buwaytir", "name:en": "Qaryat al Buwaytir", "name:fr": "Qaryat al Buwaytir", "place": "village"}}, {"type": "node", "id": 2488371848, "lat": 34.508935, "lon": 43.218582, "tags": {"alt_name": "\u0639\u0628\u062f \u0627\u0644\u062d\u0645\u064a\u062f \u0641\u0632\u0639", "int_name": "Abd al \u1e28am\u012bd Faza, \u0639\u0628\u062f \u0627\u0644\u062d\u0645\u064a\u062f \u0641\u0632\u0639, Abd al Hamid Faza, \u0639\u0628\u062f \u0627\u0644\u062d\u0645\u064a\u062f \u0641\u0632\u0639", "name": "\u0639\u0628\u062f \u0627\u0644\u062d\u0645\u064a\u062f \u0641\u0632\u0639", "name:ar": "\u0639\u0628\u062f \u0627\u0644\u062d\u0645\u064a\u062f \u0641\u0632\u0639", "name:ar1": "\u0639\u0628\u062f \u0627\u0644\u062d\u0645\u064a\u062f \u0641\u0632\u0639", "name:de": "Abd al Hamid Faza", "name:en": "Abd al Hamid Faza", "name:fr": "Abd al Hamid Faza", "place": "village"}}, {"type": "node", "id": 2488371854, "lat": 34.51311, "lon": 43.184363, "tags": {"alt_name": "\u0623\u0628\u0648 \u062c\u0630\u0639", "int_name": "Ab\u016b Jadha, \u0627\u0628\u0648 \u062c\u0630\u0639, Abu Jadha, \u0627\u0628\u0648 \u062c\u0630\u0639", "name": "\u0623\u0628\u0648 \u062c\u0630\u0639", "name:ar": "\u0623\u0628\u0648 \u062c\u0630\u0639", "name:ar1": "\u0623\u0628\u0648 \u062c\u0630\u0639", "name:de": "Abu Jadha", "name:en": "Abu Jadha", "name:fr": "Abu Jadha", "place": "village"}}, {"type": "node", "id": 2488371861, "lat": 34.54, "lon": 43.140833, "tags": {"alt_name": "\u0623\u0628\u0648 \u062c\u0630\u0639", "int_name": "Ab\u016b Jidh, Abu Jidh", "name": "\u0623\u0628\u0648 \u062c\u0630\u0639", "name:ar": "\u0623\u0628\u0648 \u062c\u0630\u0639", "name:ar1": "\u0623\u0628\u0648 \u062c\u0630\u0639", "name:de": "Abu Jidh", "name:en": "Abu Jidh", "name:fr": "Abu Jidh", "place": "village"}}, {"type": "node", "id": 2488371867, "lat": 34.5049345, "lon": 43.1876943, "tags": {"alt_name": "\u0639\u0631\u0628 \u0623\u062d\u0645\u062f \u0639\u0648\u062f\u0629 \u0639\u0628\u062f", "int_name": "Arab A\u1e29mad Awdah Abd, Arab Ahmad Awdah Abd", "name": "\u0639\u0631\u0628 \u0623\u062d\u0645\u062f \u0639\u0648\u062f\u0629 \u0639\u0628\u062f", "name:ar": "\u0639\u0631\u0628 \u0623\u062d\u0645\u062f \u0639\u0648\u062f\u0629 \u0639\u0628\u062f", "name:ar1": "\u0639\u0631\u0628 \u0623\u062d\u0645\u062f \u0639\u0648\u062f\u0629 \u0639\u0628\u062f", "name:de": "Arab Ahmad Awdah Abd", "name:en": "Arab Ahmad Awdah Abd", "name:fr": "Arab Ahmad Awdah Abd", "place": "village"}}, {"type": "node", "id": 2488371874, "lat": 34.513333, "lon": 43.185833, "tags": {"alt_name": "\u0627\u0644\u0635\u0644\u0648\u0628\u064a", "int_name": "A\u015f \u015eal\u016bb\u012b, As Salubi", "name": "\u0627\u0644\u0635\u0644\u0648\u0628\u064a", "name:ar": "\u0627\u0644\u0635\u0644\u0648\u0628\u064a", "name:ar1": "\u0627\u0644\u0635\u0644\u0648\u0628\u064a", "name:de": "As Salubi", "name:en": "As Salubi", "name:fr": "As Salubi", "place": "village"}}, {"type": "node", "id": 2488371881, "lat": 34.515911, "lon": 43.210275, "tags": {"alt_name": "\u0625\u0628\u0631\u0627\u0647\u064a\u0645 \u0639\u0628\u062f", "int_name": "Ibr\u0101h\u012bm Abd, \u0627\u0628\u0631\u0627\u0647\u064a\u0645 \u0639\u0628\u062f, Ibrahim Abd, \u0627\u0628\u0631\u0627\u0647\u064a\u0645 \u0639\u0628\u062f", "name": "\u0625\u0628\u0631\u0627\u0647\u064a\u0645 \u0639\u0628\u062f", "name:ar": "\u0625\u0628\u0631\u0627\u0647\u064a\u0645 \u0639\u0628\u062f", "name:ar1": "\u0625\u0628\u0631\u0627\u0647\u064a\u0645 \u0639\u0628\u062f", "name:de": "Ibrahim Abd", "name:en": "Ibrahim Abd", "name:fr": "Ibrahim Abd", "place": "village"}}, {"type": "node", "id": 2488371887, "lat": 34.504033, "lon": 43.233572, "tags": {"alt_name": "\u062e\u0644\u0641 \u0627\u0644\u0645\u0646\u0627\u0639", "int_name": "Khalaf al Man\u0101, \u062e\u0644\u0641 \u0627\u0644\u0645\u0646\u0627\u0639, Khalaf al Mana, \u062e\u0644\u0641 \u0627\u0644\u0645\u0646\u0627\u0639", "name": "\u062e\u0644\u0641 \u0627\u0644\u0645\u0646\u0627\u0639", "name:ar": "\u062e\u0644\u0641 \u0627\u0644\u0645\u0646\u0627\u0639", "name:ar1": "\u062e\u0644\u0641 \u0627\u0644\u0645\u0646\u0627\u0639", "name:de": "Khalaf al Mana", "name:en": "Khalaf al Mana", "name:fr": "Khalaf al Mana", "place": "village"}}, {"type": "node", "id": 2488371967, "lat": 34.53987, "lon": 43.332207, "tags": {"alt_name": "\u0639\u0628\u062f \u0641\u0631\u062d\u0627\u0646", "int_name": "Abd Far\u1e29\u0101n, \u0639\u0628\u062f \u0641\u0631\u062d\u0627\u0646, Abd Farhan, \u0639\u0628\u062f \u0641\u0631\u062d\u0627\u0646", "name": "\u0639\u0628\u062f \u0641\u0631\u062d\u0627\u0646", "name:ar": "\u0639\u0628\u062f \u0641\u0631\u062d\u0627\u0646", "name:ar1": "\u0639\u0628\u062f \u0641\u0631\u062d\u0627\u0646", "name:de": "Abd Farhan", "name:en": "Abd Farhan", "name:fr": "Abd Farhan", "place": "village"}}, {"type": "node", "id": 2488371968, "lat": 34.553056, "lon": 43.285116, "tags": {"alt_name": "\u0639\u0628\u062f \u0641\u0631\u064a\u062d", "int_name": "Abd Far\u012b\u1e29, \u0639\u0628\u062f \u0641\u0631\u064a\u062d, Abd Farih, \u0639\u0628\u062f \u0641\u0631\u064a\u062d", "name": "\u0639\u0628\u062f \u0641\u0631\u064a\u062d", "name:ar": "\u0639\u0628\u062f \u0641\u0631\u064a\u062d", "name:ar1": "\u0639\u0628\u062f \u0641\u0631\u064a\u062d", "name:de": "Abd Farih", "name:en": "Abd Farih", "name:fr": "Abd Farih", "place": "village"}}, {"type": "node", "id": 2488371970, "lat": 34.559066, "lon": 43.285734, "tags": {"alt_name": "\u0639\u0631\u0628 \u0641\u0644\u0627\u062d \u0633\u0647\u064a\u0644", "int_name": "Arab Fal\u0101\u1e29 Suhayl, \u0639\u0631\u0628 \u0641\u0644\u0627\u062d \u0633\u0647\u064a\u0644, Arab Falah Suhayl, \u0639\u0631\u0628 \u0641\u0644\u0627\u062d \u0633\u0647\u064a\u0644", "name": "\u0639\u0631\u0628 \u0641\u0644\u0627\u062d \u0633\u0647\u064a\u0644", "name:ar": "\u0639\u0631\u0628 \u0641\u0644\u0627\u062d \u0633\u0647\u064a\u0644", "name:ar1": "\u0639\u0631\u0628 \u0641\u0644\u0627\u062d \u0633\u0647\u064a\u0644", "name:de": "Arab Falah Suhayl", "name:en": "Arab Falah Suhayl", "name:fr": "Arab Falah Suhayl", "place": "village"}}, {"type": "node", "id": 2488371971, "lat": 34.533974, "lon": 43.316599, "tags": {"alt_name": "\u0639\u0631\u0628 \u062c\u0627\u0633\u0645", "int_name": "Arab J\u0101sim, \u0639\u0631\u0628 \u062c\u0627\u0633\u0645, Arab Jasim, \u0639\u0631\u0628 \u062c\u0627\u0633\u0645", "name": "\u0639\u0631\u0628 \u062c\u0627\u0633\u0645", "name:ar": "\u0639\u0631\u0628 \u062c\u0627\u0633\u0645", "name:ar1": "\u0639\u0631\u0628 \u062c\u0627\u0633\u0645", "name:de": "Arab Jasim", "name:en": "Arab Jasim", "name:fr": "Arab Jasim", "place": "village"}}, {"type": "node", "id": 2488371972, "lat": 34.5598852, "lon": 43.3172561, "tags": {"alt_name": "\u062d\u0645\u0627\u062f\u0629 \u0639\u0628\u0627\u0633", "int_name": "\u1e28am\u0101dah Abb\u0101s, Hamadah Abbas", "name": "\u062d\u0645\u0627\u062f\u0629 \u0639\u0628\u0627\u0633", "name:ar": "\u062d\u0645\u0627\u062f\u0629 \u0639\u0628\u0627\u0633", "name:ar1": "\u062d\u0645\u0627\u062f\u0629 \u0639\u0628\u0627\u0633", "name:de": "Hamadah Abbas", "name:en": "Hamadah Abbas", "name:fr": "Hamadah Abbas", "place": "village"}}, {"type": "node", "id": 2488371973, "lat": 34.552197, "lon": 43.320342, "tags": {"alt_name": "\u062d\u0627\u0645\u062f \u0641\u064a\u0627\u0636", "int_name": "\u1e28\u0101mid Fayy\u0101\u1e11, \u062d\u0627\u0645\u062f \u0641\u064a\u0627\u0636, Hamid Fayyad, \u062d\u0627\u0645\u062f \u0641\u064a\u0627\u0636", "name": "\u062d\u0627\u0645\u062f \u0641\u064a\u0627\u0636", "name:ar": "\u062d\u0627\u0645\u062f \u0641\u064a\u0627\u0636", "name:ar1": "\u062d\u0627\u0645\u062f \u0641\u064a\u0627\u0636", "name:de": "Hamid Fayyad", "name:en": "Hamid Fayyad", "name:fr": "Hamid Fayyad", "place": "village"}}, {"type": "node", "id": 2488371974, "lat": 34.548931, "lon": 43.277349, "tags": {"alt_name": "\u062d\u0627\u0645\u062f \u0627\u0644\u0641\u064a\u0627\u0636", "int_name": "\u1e28\u0101mid al Fayy\u0101\u1e11, \u062d\u0627\u0645\u062f \u0627\u0644\u0641\u064a\u0627\u0636, Hamid al Fayyad, \u062d\u0627\u0645\u062f \u0627\u0644\u0641\u064a\u0627\u0636", "name": "\u062d\u0627\u0645\u062f \u0627\u0644\u0641\u064a\u0627\u0636", "name:ar": "\u062d\u0627\u0645\u062f \u0627\u0644\u0641\u064a\u0627\u0636", "name:ar1": "\u062d\u0627\u0645\u062f \u0627\u0644\u0641\u064a\u0627\u0636", "name:de": "Hamid al Fayyad", "name:en": "Hamid al Fayyad", "name:fr": "Hamid al Fayyad", "place": "village"}}, {"type": "node", "id": 2488371975, "lat": 34.515584, "lon": 43.26834, "tags": {"alt_name": "\u0625\u0628\u0631\u0627\u0647\u064a\u0645 \u0627\u0644\u062d\u0645\u0627\u062f\u064a", "int_name": "Ibr\u0101h\u012bm al \u1e28am\u0101d\u012b, \u0627\u0628\u0631\u0627\u0647\u064a\u0645 \u0627\u0644\u062d\u0645\u0627\u062f\u064a, Ibrahim al Hamadi, \u0627\u0628\u0631\u0627\u0647\u064a\u0645 \u0627\u0644\u062d\u0645\u0627\u062f\u064a", "name": "\u0625\u0628\u0631\u0627\u0647\u064a\u0645 \u0627\u0644\u062d\u0645\u0627\u062f\u064a", "name:ar": "\u0625\u0628\u0631\u0627\u0647\u064a\u0645 \u0627\u0644\u062d\u0645\u0627\u062f\u064a", "name:ar1": "\u0625\u0628\u0631\u0627\u0647\u064a\u0645 \u0627\u0644\u062d\u0645\u0627\u062f\u064a", "name:de": "Ibrahim al Hamadi", "name:en": "Ibrahim al Hamadi", "name:fr": "Ibrahim al Hamadi", "place": "village"}}, {"type": "node", "id": 2488371986, "lat": 34.584012, "lon": 43.284635, "tags": {"alt_name": "\u062e\u0636\u064a\u0631 \u0634\u0647\u0627\u0628", "int_name": "Khu\u1e11ayr Shah\u0101b, \u062e\u0636\u064a\u0631 \u0634\u0647\u0627\u0628, Khudayr Shahab, \u062e\u0636\u064a\u0631 \u0634\u0647\u0627\u0628", "name": "\u062e\u0636\u064a\u0631 \u0634\u0647\u0627\u0628", "name:ar": "\u062e\u0636\u064a\u0631 \u0634\u0647\u0627\u0628", "name:ar1": "\u062e\u0636\u064a\u0631 \u0634\u0647\u0627\u0628", "name:de": "Khudayr Shahab", "name:en": "Khudayr Shahab", "name:fr": "Khudayr Shahab", "place": "village"}}, {"type": "node", "id": 2488371987, "lat": 34.550184, "lon": 43.254709, "tags": {"alt_name": "\u0643\u0637\u0627\u0639 \u0623\u062d\u0645\u062f", "int_name": "Ki\u0163\u0101 A\u1e29mad, \u0643\u0637\u0627\u0639 \u0627\u062d\u0645\u062f, Kita Ahmad, \u0643\u0637\u0627\u0639 \u0627\u062d\u0645\u062f", "name": "\u0643\u0637\u0627\u0639 \u0623\u062d\u0645\u062f", "name:ar": "\u0643\u0637\u0627\u0639 \u0623\u062d\u0645\u062f", "name:ar1": "\u0643\u0637\u0627\u0639 \u0623\u062d\u0645\u062f", "name:de": "Kita Ahmad", "name:en": "Kita Ahmad", "name:fr": "Kita Ahmad", "place": "village"}}, {"type": "node", "id": 2488371988, "lat": 34.578113, "lon": 43.260424, "tags": {"alt_name": "\u0644\u0647\u0645\u0648\u062f \u0643\u0631\u062f\u064a", "int_name": "Lahm\u016bd Kurd\u012b, \u0644\u0647\u0645\u0648\u062f \u0643\u0631\u062f\u064a, Lahmud Kurdi, \u0644\u0647\u0645\u0648\u062f \u0643\u0631\u062f\u064a", "name": "\u0644\u0647\u0645\u0648\u062f \u0643\u0631\u062f\u064a", "name:ar": "\u0644\u0647\u0645\u0648\u062f \u0643\u0631\u062f\u064a", "name:ar1": "\u0644\u0647\u0645\u0648\u062f \u0643\u0631\u062f\u064a", "name:de": "Lahmud Kurdi", "name:en": "Lahmud Kurdi", "name:fr": "Lahmud Kurdi", "place": "village"}}, {"type": "node", "id": 2488371989, "lat": 34.547631, "lon": 43.289246, "tags": {"alt_name": "\u0645\u062d\u064a\u0633\u0646 \u0627\u0644\u0641\u0631\u064a\u0639", "int_name": "Ma\u1e29aysin al Far\u012b, \u0645\u062d\u064a\u0633\u0646 \u0627\u0644\u0641\u0631\u064a\u0639, Mahaysin al Fari, \u0645\u062d\u064a\u0633\u0646 \u0627\u0644\u0641\u0631\u064a\u0639", "name": "\u0645\u062d\u064a\u0633\u0646 \u0627\u0644\u0641\u0631\u064a\u0639", "name:ar": "\u0645\u062d\u064a\u0633\u0646 \u0627\u0644\u0641\u0631\u064a\u0639", "name:ar1": "\u0645\u062d\u064a\u0633\u0646 \u0627\u0644\u0641\u0631\u064a\u0639", "name:de": "Mahaysin al Fari", "name:en": "Mahaysin al Fari", "name:fr": "Mahaysin al Fari", "place": "village"}}, {"type": "node", "id": 2488371990, "lat": 34.582848, "lon": 43.294717, "tags": {"alt_name": "\u0645\u062e\u0644\u0641 \u0633\u0647\u064a\u0644", "int_name": "Makhlaf Suhayl, \u0645\u062e\u0644\u0641 \u0633\u0647\u064a\u0644, Makhlaf Suhayl, \u0645\u062e\u0644\u0641 \u0633\u0647\u064a\u0644", "name": "\u0645\u062e\u0644\u0641 \u0633\u0647\u064a\u0644", "name:ar": "\u0645\u062e\u0644\u0641 \u0633\u0647\u064a\u0644", "name:ar1": "\u0645\u062e\u0644\u0641 \u0633\u0647\u064a\u0644", "name:de": "Makhlaf Suhayl", "name:en": "Makhlaf Suhayl", "name:fr": "Makhlaf Suhayl", "place": "village"}}, {"type": "node", "id": 2488371991, "lat": 34.530478, "lon": 43.319017, "tags": {"alt_name": "\u0645\u062d\u0645\u062f \u0639\u0628\u062f \u0627\u0644\u0644\u0647", "int_name": "Mu\u1e29ammad Abd All\u0101h, \u0645\u062d\u0645\u062f \u0639\u0628\u062f \ufdf2, Muhammad Abd Allah, \u0645\u062d\u0645\u062f \u0639\u0628\u062f \ufdf2", "name": "\u0645\u062d\u0645\u062f \u0639\u0628\u062f \u0627\u0644\u0644\u0647", "name:ar": "\u0645\u062d\u0645\u062f \u0639\u0628\u062f \u0627\u0644\u0644\u0647", "name:ar1": "\u0645\u062d\u0645\u062f \u0639\u0628\u062f \u0627\u0644\u0644\u0647", "name:de": "Muhammad Abd Allah", "name:en": "Muhammad Abd Allah", "name:fr": "Muhammad Abd Allah", "place": "village"}}, {"type": "node", "id": 2488371992, "lat": 34.571222, "lon": 43.293293, "tags": {"alt_name": "\u0645\u062d\u064a\u0633\u0646 \u0627\u0644\u0641\u0631\u064a\u062d", "int_name": "Mu\u1e29aysin al Far\u012b\u1e29, \u0645\u062d\u064a\u0633\u0646 \u0627\u0644\u0641\u0631\u064a\u062d, Muhaysin al Farih, \u0645\u062d\u064a\u0633\u0646 \u0627\u0644\u0641\u0631\u064a\u062d", "name": "\u0645\u062d\u064a\u0633\u0646 \u0627\u0644\u0641\u0631\u064a\u062d", "name:ar": "\u0645\u062d\u064a\u0633\u0646 \u0627\u0644\u0641\u0631\u064a\u062d", "name:ar1": "\u0645\u062d\u064a\u0633\u0646 \u0627\u0644\u0641\u0631\u064a\u062d", "name:de": "Muhaysin al Farih", "name:en": "Muhaysin al Farih", "name:fr": "Muhaysin al Farih", "place": "village"}}, {"type": "node", "id": 2488371993, "lat": 34.570548, "lon": 43.337511, "tags": {"alt_name": "\u0642\u0631\u064a\u0629 \u062c\u0648\u0632\u0629", "int_name": "Qaryat Jawzah, \u0642\u0631\u064a\u0629 \u062c\u0648\u0632\u0629, Qaryat Jawzah, \u0642\u0631\u064a\u0629 \u062c\u0648\u0632\u0629", "name": "\u0642\u0631\u064a\u0629 \u062c\u0648\u0632\u0629", "name:ar": "\u0642\u0631\u064a\u0629 \u062c\u0648\u0632\u0629", "name:ar1": "\u0642\u0631\u064a\u0629 \u062c\u0648\u0632\u0629", "name:de": "Qaryat Jawzah", "name:en": "Qaryat Jawzah", "name:fr": "Qaryat Jawzah", "place": "village"}}, {"type": "node", "id": 2488371994, "lat": 34.534239, "lon": 43.293426, "tags": {"alt_name": "\u0631\u062d\u064a\u0644 \u0625\u0628\u0631\u0627\u0647\u064a\u0645", "int_name": "Ra\u1e29\u012bl Ibr\u0101h\u012bm, \u0631\u062d\u064a\u0644 \u0627\u0628\u0631\u0627\u0647\u064a\u0645, Rahil Ibrahim, \u0631\u062d\u064a\u0644 \u0627\u0628\u0631\u0627\u0647\u064a\u0645", "name": "\u0631\u062d\u064a\u0644 \u0625\u0628\u0631\u0627\u0647\u064a\u0645", "name:ar": "\u0631\u062d\u064a\u0644 \u0625\u0628\u0631\u0627\u0647\u064a\u0645", "name:ar1": "\u0631\u062d\u064a\u0644 \u0625\u0628\u0631\u0627\u0647\u064a\u0645", "name:de": "Rahil Ibrahim", "name:en": "Rahil Ibrahim", "name:fr": "Rahil Ibrahim", "place": "village"}}, {"type": "node", "id": 2488371995, "lat": 34.567528, "lon": 43.322968, "tags": {"alt_name": "\u0635\u0627\u0644\u062d \u0641\u0631\u062d", "int_name": "\u015e\u0101li\u1e29 Fara\u1e29, \u0635\u0627\u0644\u062d \u0641\u0631\u062d, Salih Farah, \u0635\u0627\u0644\u062d \u0641\u0631\u062d", "name": "\u0635\u0627\u0644\u062d \u0641\u0631\u062d", "name:ar": "\u0635\u0627\u0644\u062d \u0641\u0631\u062d", "name:ar1": "\u0635\u0627\u0644\u062d \u0641\u0631\u062d", "name:de": "Salih Farah", "name:en": "Salih Farah", "name:fr": "Salih Farah", "place": "village"}}, {"type": "node", "id": 2488372153, "lat": 34.670105, "lon": 43.301228, "tags": {"alt_name": "\u0639\u0644\u064a \u0627\u0644\u062d\u0645\u0627\u062f\u064a", "int_name": "Al\u012b al \u1e28am\u0101d\u012b, \u0639\u0644\u064a \u0627\u0644\u062d\u0645\u0627\u062f\u064a, Ali al Hamadi, \u0639\u0644\u064a \u0627\u0644\u062d\u0645\u0627\u062f\u064a", "name": "\u0639\u0644\u064a \u0627\u0644\u062d\u0645\u0627\u062f\u064a", "name:ar": "\u0639\u0644\u064a \u0627\u0644\u062d\u0645\u0627\u062f\u064a", "name:ar1": "\u0639\u0644\u064a \u0627\u0644\u062d\u0645\u0627\u062f\u064a", "name:de": "Ali al Hamadi", "name:en": "Ali al Hamadi", "name:fr": "Ali al Hamadi", "place": "village"}}, {"type": "node", "id": 2488372154, "lat": 34.658909, "lon": 43.269518, "tags": {"alt_name": "\u0627\u0644\u0633\u0646\u064a\u0629", "int_name": "As Sun\u012byah, \u0627\u0644\u0633\u0646\u064a\u0629, As Suniyah, \u0627\u0644\u0633\u0646\u064a\u0629", "name": "\u0627\u0644\u0633\u0646\u064a\u0629", "name:ar": "\u0627\u0644\u0633\u0646\u064a\u0629", "name:ar1": "\u0627\u0644\u0633\u0646\u064a\u0629", "name:de": "As Suniyah", "name:en": "As Suniyah", "name:fr": "As Suniyah", "place": "village"}}, {"type": "node", "id": 2488372155, "lat": 34.645291, "lon": 43.331057, "tags": {"alt_name": "\u062d\u0645\u0627\u062f \u0645\u0646\u0641\u064a", "int_name": "\u1e28am\u0101d Manf\u012b, \u062d\u0645\u0627\u062f \u0645\u0646\u0641\u064a, Hamad Manfi, \u062d\u0645\u0627\u062f \u0645\u0646\u0641\u064a", "name": "\u062d\u0645\u0627\u062f \u0645\u0646\u0641\u064a", "name:ar": "\u062d\u0645\u0627\u062f \u0645\u0646\u0641\u064a", "name:ar1": "\u062d\u0645\u0627\u062f \u0645\u0646\u0641\u064a", "name:de": "Hamad Manfi", "name:en": "Hamad Manfi", "name:fr": "Hamad Manfi", "place": "village"}}, {"type": "node", "id": 2488372159, "lat": 34.64437, "lon": 43.328802, "tags": {"alt_name": "\u062d\u0645\u064a\u062f \u0645\u0646\u0641\u064a", "int_name": "\u1e28am\u012bd Manf\u012b, \u062d\u0645\u064a\u062f \u0645\u0646\u0641\u064a, Hamid Manfi, \u062d\u0645\u064a\u062f \u0645\u0646\u0641\u064a", "name": "\u062d\u0645\u064a\u062f \u0645\u0646\u0641\u064a", "name:ar": "\u062d\u0645\u064a\u062f \u0645\u0646\u0641\u064a", "name:ar1": "\u062d\u0645\u064a\u062f \u0645\u0646\u0641\u064a", "name:de": "Hamid Manfi", "name:en": "Hamid Manfi", "name:fr": "Hamid Manfi", "place": "village"}}, {"type": "node", "id": 2488372166, "lat": 34.654989, "lon": 43.311393, "tags": {"alt_name": "\u062d\u0633\u064a\u0646 \u0639\u0644\u064a", "int_name": "\u1e28usayn Al\u012b, \u062d\u0633\u064a\u0646 \u0639\u0644\u064a, Husayn Ali, \u062d\u0633\u064a\u0646 \u0639\u0644\u064a", "name": "\u062d\u0633\u064a\u0646 \u0639\u0644\u064a", "name:ar": "\u062d\u0633\u064a\u0646 \u0639\u0644\u064a", "name:ar1": "\u062d\u0633\u064a\u0646 \u0639\u0644\u064a", "name:de": "Husayn Ali", "name:en": "Husayn Ali", "name:fr": "Husayn Ali", "place": "village"}}, {"type": "node", "id": 2488372172, "lat": 34.660445, "lon": 43.258566, "tags": {"alt_name": "\u062d\u0633\u064a\u0646 \u0645\u0632\u0648\u062f", "int_name": "\u1e28usayn Maz\u016bd, \u062d\u0633\u064a\u0646 \u0645\u0632\u0648\u062f, Husayn Mazud, \u062d\u0633\u064a\u0646 \u0645\u0632\u0648\u062f", "name": "\u062d\u0633\u064a\u0646 \u0645\u0632\u0648\u062f", "name:ar": "\u062d\u0633\u064a\u0646 \u0645\u0632\u0648\u062f", "name:ar1": "\u062d\u0633\u064a\u0646 \u0645\u0632\u0648\u062f", "name:de": "Husayn Mazud", "name:en": "Husayn Mazud", "name:fr": "Husayn Mazud", "place": "village"}}, {"type": "node", "id": 2488372179, "lat": 34.659876, "lon": 43.27233, "tags": {"alt_name": "\u0643\u0631\u064a\u0645 \u0645\u0634\u0631\u0641", "int_name": "Kar\u012bm Mushrif, \u0643\u0631\u064a\u0645 \u0645\u0634\u0631\u0641, Karim Mushrif, \u0643\u0631\u064a\u0645 \u0645\u0634\u0631\u0641", "name": "\u0643\u0631\u064a\u0645 \u0645\u0634\u0631\u0641", "name:ar": "\u0643\u0631\u064a\u0645 \u0645\u0634\u0631\u0641", "name:ar1": "\u0643\u0631\u064a\u0645 \u0645\u0634\u0631\u0641", "name:de": "Karim Mushrif", "name:en": "Karim Mushrif", "name:fr": "Karim Mushrif", "place": "village"}}, {"type": "node", "id": 2488372184, "lat": 34.676286, "lon": 43.289274, "tags": {"alt_name": "\u0645\u062c\u064a\u062f \u0639\u0628\u064a\u062f", "int_name": "Maj\u012bd Ubayd, \u0645\u062c\u064a\u062f \u0639\u0628\u064a\u062f, Majid Ubayd, \u0645\u062c\u064a\u062f \u0639\u0628\u064a\u062f", "name": "\u0645\u062c\u064a\u062f \u0639\u0628\u064a\u062f", "name:ar": "\u0645\u062c\u064a\u062f \u0639\u0628\u064a\u062f", "name:ar1": "\u0645\u062c\u064a\u062f \u0639\u0628\u064a\u062f", "name:de": "Majid Ubayd", "name:en": "Majid Ubayd", "name:fr": "Majid Ubayd", "place": "village"}}, {"type": "node", "id": 2488372186, "lat": 34.665604, "lon": 43.331369, "tags": {"alt_name": "\u0645\u0646\u062c\u0648\u0631 \u0646\u0632\u0627\u0644", "int_name": "Manj\u016br Naz\u0101l, \u0645\u0646\u062c\u0648\u0631 \u0646\u0632\u0627\u0644, Manjur Nazal, \u0645\u0646\u062c\u0648\u0631 \u0646\u0632\u0627\u0644", "name": "\u0645\u0646\u062c\u0648\u0631 \u0646\u0632\u0627\u0644", "name:ar": "\u0645\u0646\u062c\u0648\u0631 \u0646\u0632\u0627\u0644", "name:ar1": "\u0645\u0646\u062c\u0648\u0631 \u0646\u0632\u0627\u0644", "name:de": "Manjur Nazal", "name:en": "Manjur Nazal", "name:fr": "Manjur Nazal", "place": "village"}}, {"type": "node", "id": 2488372193, "lat": 34.663883, "lon": 43.30828, "tags": {"alt_name": "\u0642\u0631\u064a\u0629 \u0627\u0644\u0641\u064a\u0627\u0636\u064a\u0629", "int_name": "Qaryat al Fayy\u0101\u1e11\u012byah, \u0642\u0631\u064a\u0629 \u0627\u0644\u0641\u064a\u0627\u0636\u064a\u0629, Qaryat al Fayyadiyah, \u0642\u0631\u064a\u0629 \u0627\u0644\u0641\u064a\u0627\u0636\u064a\u0629", "name": "\u0642\u0631\u064a\u0629 \u0627\u0644\u0641\u064a\u0627\u0636\u064a\u0629", "name:ar": "\u0642\u0631\u064a\u0629 \u0627\u0644\u0641\u064a\u0627\u0636\u064a\u0629", "name:ar1": "\u0642\u0631\u064a\u0629 \u0627\u0644\u0641\u064a\u0627\u0636\u064a\u0629", "name:de": "Qaryat al Fayyadiyah", "name:en": "Qaryat al Fayyadiyah", "name:fr": "Qaryat al Fayyadiyah", "place": "village"}}, {"type": "node", "id": 2488372199, "lat": 34.64307, "lon": 43.262833, "tags": {"alt_name": "\u0642\u0631\u064a\u0629 \u0627\u0644\u0635\u0627\u0644\u062d\u064a\u0629", "int_name": "Qaryat a\u015f \u015e\u0101li\u1e29\u012byah, \u0642\u0631\u064a\u0629 \u0627\u0644\u0635\u0627\u0644\u062d\u064a\u0629, Qaryat as Salihiyah, \u0642\u0631\u064a\u0629 \u0627\u0644\u0635\u0627\u0644\u062d\u064a\u0629", "name": "\u0642\u0631\u064a\u0629 \u0627\u0644\u0635\u0627\u0644\u062d\u064a\u0629", "name:ar": "\u0642\u0631\u064a\u0629 \u0627\u0644\u0635\u0627\u0644\u062d\u064a\u0629", "name:ar1": "\u0642\u0631\u064a\u0629 \u0627\u0644\u0635\u0627\u0644\u062d\u064a\u0629", "name:de": "Qaryat as Salihiyah", "name:en": "Qaryat as Salihiyah", "name:fr": "Qaryat as Salihiyah", "place": "village"}}, {"type": "node", "id": 2488372211, "lat": 34.653692, "lon": 43.304772, "tags": {"alt_name": "\u062b\u0631\u062b\u0627\u0631 \u062d\u0627\u064a\u0641", "int_name": "Tharth\u0101r \u1e28\u0101yif, \u062b\u0631\u062b\u0627\u0631 \u062d\u0627\u064a\u0641, Tharthar Hayif, \u062b\u0631\u062b\u0627\u0631 \u062d\u0627\u064a\u0641", "name": "\u062b\u0631\u062b\u0627\u0631 \u062d\u0627\u064a\u0641", "name:ar": "\u062b\u0631\u062b\u0627\u0631 \u062d\u0627\u064a\u0641", "name:ar1": "\u062b\u0631\u062b\u0627\u0631 \u062d\u0627\u064a\u0641", "name:de": "Tharthar Hayif", "name:en": "Tharthar Hayif", "name:fr": "Tharthar Hayif", "place": "village"}}, {"type": "node", "id": 2488372248, "lat": 34.6732017, "lon": 43.386536, "tags": {"alt_name": "\u0639\u0644\u064a \u0627\u0644\u0645\u0646\u0641\u064a", "int_name": "Al\u012b al Manf\u012b, Ali al Manfi", "name": "\u0639\u0644\u064a \u0627\u0644\u0645\u0646\u0641\u064a", "name:ar": "\u0639\u0644\u064a \u0627\u0644\u0645\u0646\u0641\u064a", "name:ar1": "\u0639\u0644\u064a \u0627\u0644\u0645\u0646\u0641\u064a", "name:de": "Ali al Manfi", "name:en": "Ali al Manfi", "name:fr": "Ali al Manfi", "place": "village"}}, {"type": "node", "id": 2488372254, "lat": 34.624561, "lon": 43.364188, "tags": {"alt_name": "\u0639\u0631\u0628 \u0641\u062f\u063a\u0648\u0644", "int_name": "Arab Fadgh\u016bl, \u0639\u0631\u0628 \u0641\u062f\u063a\u0648\u0644, Arab Fadghul, \u0639\u0631\u0628 \u0641\u062f\u063a\u0648\u0644", "name": "\u0639\u0631\u0628 \u0641\u062f\u063a\u0648\u0644", "name:ar": "\u0639\u0631\u0628 \u0641\u062f\u063a\u0648\u0644", "name:ar1": "\u0639\u0631\u0628 \u0641\u062f\u063a\u0648\u0644", "name:de": "Arab Fadghul", "name:en": "Arab Fadghul", "name:fr": "Arab Fadghul", "place": "village"}}, {"type": "node", "id": 2488372260, "lat": 34.710579, "lon": 43.353872, "tags": {"alt_name": "\u0639\u0644\u064a \u062d\u0645\u0648\u062f", "int_name": "Al\u012b \u1e28amm\u016bd, Al\u012b \u1e28am\u016bd, \u0639\u0644\u064a \u062d\u0645\u0648\u062f, Ali Hammud, Ali Hamud, \u0639\u0644\u064a \u062d\u0645\u0648\u062f", "name": "\u0639\u0644\u064a \u062d\u0645\u0648\u062f", "name:ar": "\u0639\u0644\u064a \u062d\u0645\u0648\u062f", "name:ar1": "\u0639\u0644\u064a \u062d\u0645\u0648\u062f", "name:de": "Ali Hammud", "name:en": "Ali Hammud", "name:fr": "Ali Hammud", "place": "village"}}, {"type": "node", "id": 2488372261, "lat": 34.69086, "lon": 43.328764, "tags": {"alt_name": "\u0639\u0644\u064a \u0647\u0631\u0627\u0637", "int_name": "Al\u012b Har\u0101\u0163, \u0639\u0644\u064a \u0647\u0631\u0627\u0637, Ali Harat, \u0639\u0644\u064a \u0647\u0631\u0627\u0637", "name": "\u0639\u0644\u064a \u0647\u0631\u0627\u0637", "name:ar": "\u0639\u0644\u064a \u0647\u0631\u0627\u0637", "name:ar1": "\u0639\u0644\u064a \u0647\u0631\u0627\u0637", "name:de": "Ali Harat", "name:en": "Ali Harat", "name:fr": "Ali Harat", "place": "village"}}, {"type": "node", "id": 2488372262, "lat": 34.746044, "lon": 43.296128, "tags": {"alt_name": "\u0639\u0644\u064a \u0627\u0644\u0646\u0627\u064a\u0641", "int_name": "Al\u012b an N\u0101yif, \u0639\u0644\u064a \u0627\u0644\u0646\u0627\u064a\u0641, Ali an Nayif, \u0639\u0644\u064a \u0627\u0644\u0646\u0627\u064a\u0641", "name": "\u0639\u0644\u064a \u0627\u0644\u0646\u0627\u064a\u0641", "name:ar": "\u0639\u0644\u064a \u0627\u0644\u0646\u0627\u064a\u0641", "name:ar1": "\u0639\u0644\u064a \u0627\u0644\u0646\u0627\u064a\u0641", "name:de": "Ali an Nayif", "name:en": "Ali an Nayif", "name:fr": "Ali an Nayif", "place": "village"}}, {"type": "node", "id": 2488372263, "lat": 34.726373, "lon": 43.355632, "tags": {"alt_name": "\u0639\u0631\u0628 \u0645\u062c\u064a\u062f \u0639\u0628\u064a\u062f", "int_name": "Arab Maj\u012bd Ubayd, \u0639\u0631\u0628 \u0645\u062c\u064a\u062f \u0639\u0628\u064a\u062f, Arab Majid Ubayd, \u0639\u0631\u0628 \u0645\u062c\u064a\u062f \u0639\u0628\u064a\u062f", "name": "\u0639\u0631\u0628 \u0645\u062c\u064a\u062f \u0639\u0628\u064a\u062f", "name:ar": "\u0639\u0631\u0628 \u0645\u062c\u064a\u062f \u0639\u0628\u064a\u062f", "name:ar1": "\u0639\u0631\u0628 \u0645\u062c\u064a\u062f \u0639\u0628\u064a\u062f", "name:de": "Arab Majid Ubayd", "name:en": "Arab Majid Ubayd", "name:fr": "Arab Majid Ubayd", "place": "village"}}, {"type": "node", "id": 2488372264, "lat": 34.727831, "lon": 43.304475, "tags": {"alt_name": "\u0639\u0631\u0628 \u0633\u0644\u064a\u0645\u0627\u0646 \u0627\u0644\u0645\u062d\u0645\u062f", "int_name": "Arab Sulaym\u0101n al Mu\u1e29ammad, \u0639\u0631\u0628 \u0633\u0644\u064a\u0645\u0627\u0646 \u0627\u0644\u0645\u062d\u0645\u062f, Arab Sulayman al Muhammad, \u0639\u0631\u0628 \u0633\u0644\u064a\u0645\u0627\u0646 \u0627\u0644\u0645\u062d\u0645\u062f", "name": "\u0639\u0631\u0628 \u0633\u0644\u064a\u0645\u0627\u0646 \u0627\u0644\u0645\u062d\u0645\u062f", "name:ar": "\u0639\u0631\u0628 \u0633\u0644\u064a\u0645\u0627\u0646 \u0627\u0644\u0645\u062d\u0645\u062f", "name:ar1": "\u0639\u0631\u0628 \u0633\u0644\u064a\u0645\u0627\u0646 \u0627\u0644\u0645\u062d\u0645\u062f", "name:de": "Arab Sulayman al Muhammad", "name:en": "Arab Sulayman al Muhammad", "name:fr": "Arab Sulayman al Muhammad", "place": "village"}}, {"type": "node", "id": 2488372265, "lat": 34.716398, "lon": 43.359248, "tags": {"alt_name": "\u0639\u0631\u0628 \u0648\u0637\u0646\u064a \u062d\u0645\u0648\u062f", "int_name": "Arab Wa\u0163n\u012b \u1e28am\u016bd, \u0639\u0631\u0628 \u0648\u0637\u0646\u064a \u062d\u0645\u0648\u062f, Arab Watni Hamud, \u0639\u0631\u0628 \u0648\u0637\u0646\u064a \u062d\u0645\u0648\u062f", "name": "\u0639\u0631\u0628 \u0648\u0637\u0646\u064a \u062d\u0645\u0648\u062f", "name:ar": "\u0639\u0631\u0628 \u0648\u0637\u0646\u064a \u062d\u0645\u0648\u062f", "name:ar1": "\u0639\u0631\u0628 \u0648\u0637\u0646\u064a \u062d\u0645\u0648\u062f", "name:de": "Arab Watni Hamud", "name:en": "Arab Watni Hamud", "name:fr": "Arab Watni Hamud", "place": "village"}}, {"type": "node", "id": 2488372266, "lat": 34.717808, "lon": 43.362663, "tags": {"alt_name": "\u0628\u064a\u062a \u0645\u062a\u0646\u064a \u062d\u0645\u0648\u062f", "int_name": "Bayt Mutn\u012b \u1e28am\u016bd, \u0628\u064a\u062a \u0645\u062a\u0646\u064a \u062d\u0645\u0648\u062f, Bayt Mutni Hamud, \u0628\u064a\u062a \u0645\u062a\u0646\u064a \u062d\u0645\u0648\u062f", "name": "\u0628\u064a\u062a \u0645\u062a\u0646\u064a \u062d\u0645\u0648\u062f", "name:ar": "\u0628\u064a\u062a \u0645\u062a\u0646\u064a \u062d\u0645\u0648\u062f", "name:ar1": "\u0628\u064a\u062a \u0645\u062a\u0646\u064a \u062d\u0645\u0648\u062f", "name:de": "Bayt Mutni Hamud", "name:en": "Bayt Mutni Hamud", "name:fr": "Bayt Mutni Hamud", "place": "village"}}, {"type": "node", "id": 2488372268, "lat": 34.715427, "lon": 43.323701, "tags": {"alt_name": "\u062f\u0648\u064a\u062d \u0627\u0644\u062c\u0627\u0633\u0645", "int_name": "Duwayi\u1e29 al J\u0101sim, \u062f\u0648\u064a\u062d \u0627\u0644\u062c\u0627\u0633\u0645, Duwayih al Jasim, \u062f\u0648\u064a\u062d \u0627\u0644\u062c\u0627\u0633\u0645", "name": "\u062f\u0648\u064a\u062d \u0627\u0644\u062c\u0627\u0633\u0645", "name:ar": "\u062f\u0648\u064a\u062d \u0627\u0644\u062c\u0627\u0633\u0645", "name:ar1": "\u062f\u0648\u064a\u062d \u0627\u0644\u062c\u0627\u0633\u0645", "name:de": "Duwayih al Jasim", "name:en": "Duwayih al Jasim", "name:fr": "Duwayih al Jasim", "place": "village"}}, {"type": "node", "id": 2488372269, "lat": 34.723139, "lon": 43.314581, "tags": {"alt_name": "\u062d\u0628\u064a\u0628 \u0627\u0644\u0645\u0632\u0648\u062f", "int_name": "\u1e28ab\u012bb al Maz\u016bd, \u062d\u0628\u064a\u0628 \u0627\u0644\u0645\u0632\u0648\u062f, Habib al Mazud, \u062d\u0628\u064a\u0628 \u0627\u0644\u0645\u0632\u0648\u062f", "name": "\u062d\u0628\u064a\u0628 \u0627\u0644\u0645\u0632\u0648\u062f", "name:ar": "\u062d\u0628\u064a\u0628 \u0627\u0644\u0645\u0632\u0648\u062f", "name:ar1": "\u062d\u0628\u064a\u0628 \u0627\u0644\u0645\u0632\u0648\u062f", "name:de": "Habib al Mazud", "name:en": "Habib al Mazud", "name:fr": "Habib al Mazud", "place": "village"}}, {"type": "node", "id": 2488372272, "lat": 34.70606, "lon": 43.373003, "tags": {"alt_name": "\u062d\u0633\u064a\u0646 \u0627\u0644\u0645\u0636\u0645\u064a", "int_name": "\u1e28usayn al Mu\u1e11m\u012b, \u062d\u0633\u064a\u0646 \u0627\u0644\u0645\u0636\u0645\u064a, Husayn al Mudmi, \u062d\u0633\u064a\u0646 \u0627\u0644\u0645\u0636\u0645\u064a", "name": "\u062d\u0633\u064a\u0646 \u0627\u0644\u0645\u0636\u0645\u064a", "name:ar": "\u062d\u0633\u064a\u0646 \u0627\u0644\u0645\u0636\u0645\u064a", "name:ar1": "\u062d\u0633\u064a\u0646 \u0627\u0644\u0645\u0636\u0645\u064a", "name:de": "Husayn al Mudmi", "name:en": "Husayn al Mudmi", "name:fr": "Husayn al Mudmi", "place": "village"}}, {"type": "node", "id": 2488372277, "lat": 34.755816, "lon": 43.292819, "tags": {"alt_name": "\u0642\u0631\u064a\u0629 \u0633\u0645\u0648\u062d\u0629", "int_name": "Qaryat Sam\u016b\u1e29ah, \u0642\u0631\u064a\u0629 \u0633\u0645\u0648\u062d\u0647, Qaryat Samuhah, \u0642\u0631\u064a\u0629 \u0633\u0645\u0648\u062d\u0647", "name": "\u0642\u0631\u064a\u0629 \u0633\u0645\u0648\u062d\u0629", "name:ar": "\u0642\u0631\u064a\u0629 \u0633\u0645\u0648\u062d\u0629", "name:ar1": "\u0642\u0631\u064a\u0629 \u0633\u0645\u0648\u062d\u0629", "name:de": "Qaryat Samuhah", "name:en": "Qaryat Samuhah", "name:fr": "Qaryat Samuhah", "place": "village"}}, {"type": "node", "id": 2488372341, "lat": 34.75497, "lon": 43.399563, "tags": {"alt_name": "\u0639\u0628\u062f \u0627\u0644\u0639\u0632\u064a\u0632 \u0628\u062f\u064a\u0648\u064a", "int_name": "Abd al Az\u012bz Badayw\u012b, \u0639\u0628\u062f \u0627\u0644\u0639\u0632\u064a\u0632 \u0628\u062f\u064a\u0648\u064a, Abd al Aziz Badaywi, \u0639\u0628\u062f \u0627\u0644\u0639\u0632\u064a\u0632 \u0628\u062f\u064a\u0648\u064a", "name": "\u0639\u0628\u062f \u0627\u0644\u0639\u0632\u064a\u0632 \u0628\u062f\u064a\u0648\u064a", "name:ar": "\u0639\u0628\u062f \u0627\u0644\u0639\u0632\u064a\u0632 \u0628\u062f\u064a\u0648\u064a", "name:ar1": "\u0639\u0628\u062f \u0627\u0644\u0639\u0632\u064a\u0632 \u0628\u062f\u064a\u0648\u064a", "name:de": "Abd al Aziz Badaywi", "name:en": "Abd al Aziz Badaywi", "name:fr": "Abd al Aziz Badaywi", "place": "village"}}, {"type": "node", "id": 2488372342, "lat": 34.756444, "lon": 43.411223, "tags": {"alt_name": "\u0623\u0628\u0648 \u0628\u0631\u0627\u064a\u062c", "int_name": "Ab\u016b Bar\u0101yj, \u0627\u0628\u0648 \u0628\u0631\u0627\u064a\u062c, Abu Barayj, \u0627\u0628\u0648 \u0628\u0631\u0627\u064a\u062c", "name": "\u0623\u0628\u0648 \u0628\u0631\u0627\u064a\u062c", "name:ar": "\u0623\u0628\u0648 \u0628\u0631\u0627\u064a\u062c", "name:ar1": "\u0623\u0628\u0648 \u0628\u0631\u0627\u064a\u062c", "name:de": "Abu Barayj", "name:en": "Abu Barayj", "name:fr": "Abu Barayj", "place": "village"}}, {"type": "node", "id": 2488372348, "lat": 34.748107, "lon": 43.432109, "tags": {"alt_name": "\u063a\u0632\u0627\u0644 \u0645\u0636\u062d\u064a", "int_name": "Ghaz\u0101l Mu\u1e11\u1e29\u012b, \u063a\u0632\u0627\u0644 \u0645\u0636\u062d\u064a, Ghazal Mudhi, \u063a\u0632\u0627\u0644 \u0645\u0636\u062d\u064a", "name": "\u063a\u0632\u0627\u0644 \u0645\u0636\u062d\u064a", "name:ar": "\u063a\u0632\u0627\u0644 \u0645\u0636\u062d\u064a", "name:ar1": "\u063a\u0632\u0627\u0644 \u0645\u0636\u062d\u064a", "name:de": "Ghazal Mudhi", "name:en": "Ghazal Mudhi", "name:fr": "Ghazal Mudhi", "place": "village"}}, {"type": "node", "id": 2488372349, "lat": 34.753188, "lon": 43.40012, "tags": {"alt_name": "\u062d\u0645\u0648\u062f \u0645\u0647\u064a\u062f\u064a", "int_name": "\u1e28am\u016bd Muh\u012bd\u012b, \u062d\u0645\u0648\u062f \u0645\u0647\u0628\u062f\u064a, Hamud Muhidi, \u062d\u0645\u0648\u062f \u0645\u0647\u0628\u062f\u064a", "name": "\u062d\u0645\u0648\u062f \u0645\u0647\u064a\u062f\u064a", "name:ar": "\u062d\u0645\u0648\u062f \u0645\u0647\u064a\u062f\u064a", "name:ar1": "\u062d\u0645\u0648\u062f \u0645\u0647\u064a\u062f\u064a", "name:de": "Hamud Muhidi", "name:en": "Hamud Muhidi", "name:fr": "Hamud Muhidi", "place": "village"}}, {"type": "node", "id": 2488372350, "lat": 34.698891, "lon": 43.4785, "tags": {"alt_name": "\u062c\u0627\u0633\u0645 \u0645\u062d\u0645\u062f", "int_name": "J\u0101sim Mu\u1e29ammad, \u062c\u0627\u0633\u0645 \u0645\u062d\u0645\u062f, Jasim Muhammad, \u062c\u0627\u0633\u0645 \u0645\u062d\u0645\u062f", "name": "\u062c\u0627\u0633\u0645 \u0645\u062d\u0645\u062f", "name:ar": "\u062c\u0627\u0633\u0645 \u0645\u062d\u0645\u062f", "name:ar1": "\u062c\u0627\u0633\u0645 \u0645\u062d\u0645\u062f", "name:de": "Jasim Muhammad", "name:en": "Jasim Muhammad", "name:fr": "Jasim Muhammad", "place": "village"}}, {"type": "node", "id": 2488372351, "lat": 34.749399, "lon": 43.448692, "tags": {"alt_name": "\u062e\u0636\u064a\u0631 \u0633\u0644\u0645\u0627\u0646", "int_name": "Khu\u1e11ayr Salm\u0101n, \u062e\u0636\u064a\u0631 \u0633\u0644\u0645\u0627\u0646, Khudayr Salman, \u062e\u0636\u064a\u0631 \u0633\u0644\u0645\u0627\u0646", "name": "\u062e\u0636\u064a\u0631 \u0633\u0644\u0645\u0627\u0646", "name:ar": "\u062e\u0636\u064a\u0631 \u0633\u0644\u0645\u0627\u0646", "name:ar1": "\u062e\u0636\u064a\u0631 \u0633\u0644\u0645\u0627\u0646", "name:de": "Khudayr Salman", "name:en": "Khudayr Salman", "name:fr": "Khudayr Salman", "place": "village"}}, {"type": "node", "id": 2488372353, "lat": 34.730251, "lon": 43.465819, "tags": {"alt_name": "\u0642\u0631\u064a\u0629 \u0622\u0644 \u0628\u0648 \u062d\u0645\u064a\u062f", "int_name": "Qaryat \u0100lb\u016b \u1e28am\u012bd, \u0642\u0631\u064a\u0629 \u0627\u0644\u0628\u0648 \u062d\u0645\u064a\u062f, Qaryat Albu Hamid, \u0642\u0631\u064a\u0629 \u0627\u0644\u0628\u0648 \u062d\u0645\u064a\u062f", "name": "\u0642\u0631\u064a\u0629 \u0622\u0644 \u0628\u0648 \u062d\u0645\u064a\u062f", "name:ar": "\u0642\u0631\u064a\u0629 \u0622\u0644 \u0628\u0648 \u062d\u0645\u064a\u062f", "name:ar1": "\u0642\u0631\u064a\u0629 \u0622\u0644 \u0628\u0648 \u062d\u0645\u064a\u062f", "name:de": "Qaryat Albu Hamid", "name:en": "Qaryat Albu Hamid", "name:fr": "Qaryat Albu Hamid", "place": "village"}}, {"type": "node", "id": 2488372354, "lat": 34.740397, "lon": 43.471397, "tags": {"alt_name": "\u0642\u0631\u064a\u0629 \u0622\u0644 \u0628\u0648 \u062c\u0648\u0627\u062f", "int_name": "Qaryat \u0100lb\u016b Jaw\u0101d, \u0642\u0631\u064a\u0629 \u0627\u0644\u0628\u0648 \u062c\u0648\u0627\u062f, Qaryat Albu Jawad, \u0642\u0631\u064a\u0629 \u0627\u0644\u0628\u0648 \u062c\u0648\u0627\u062f", "name": "\u0642\u0631\u064a\u0629 \u0622\u0644 \u0628\u0648 \u062c\u0648\u0627\u062f", "name:ar": "\u0642\u0631\u064a\u0629 \u0622\u0644 \u0628\u0648 \u062c\u0648\u0627\u062f", "name:ar1": "\u0642\u0631\u064a\u0629 \u0622\u0644 \u0628\u0648 \u062c\u0648\u0627\u062f", "name:de": "Qaryat Albu Jawad", "name:en": "Qaryat Albu Jawad", "name:fr": "Qaryat Albu Jawad", "place": "village"}}, {"type": "node", "id": 2488372356, "lat": 34.735437, "lon": 43.479362, "tags": {"alt_name": "\u0642\u0631\u064a\u0629 \u0631\u0634\u064a\u062f \u062d\u0645\u0648\u062f\u064a", "int_name": "Qaryat Rash\u012bd \u1e28am\u016bd\u012b, \u0642\u0631\u064a\u0629 \u0631\u0634\u064a\u062f \u062d\u0645\u0648\u062f\u064a, Qaryat Rashid Hamudi, \u0642\u0631\u064a\u0629 \u0631\u0634\u064a\u062f \u062d\u0645\u0648\u062f\u064a", "name": "\u0642\u0631\u064a\u0629 \u0631\u0634\u064a\u062f \u062d\u0645\u0648\u062f\u064a", "name:ar": "\u0642\u0631\u064a\u0629 \u0631\u0634\u064a\u062f \u062d\u0645\u0648\u062f\u064a", "name:ar1": "\u0642\u0631\u064a\u0629 \u0631\u0634\u064a\u062f \u062d\u0645\u0648\u062f\u064a", "name:de": "Qaryat Rashid Hamudi", "name:en": "Qaryat Rashid Hamudi", "name:fr": "Qaryat Rashid Hamudi", "place": "village"}}, {"type": "node", "id": 2488372357, "lat": 34.756831, "lon": 43.437436, "tags": {"alt_name": "\u0642\u0631\u064a\u0629 \u0627\u0644\u0633\u0644\u0627\u0645", "int_name": "Qaryat as Sal\u0101m, \u0642\u0631\u064a\u0629 \u0627\u0644\u0633\u0644\u0627\u0645, Qaryat as Salam, \u0642\u0631\u064a\u0629 \u0627\u0644\u0633\u0644\u0627\u0645", "name": "\u0642\u0631\u064a\u0629 \u0627\u0644\u0633\u0644\u0627\u0645", "name:ar": "\u0642\u0631\u064a\u0629 \u0627\u0644\u0633\u0644\u0627\u0645", "name:ar1": "\u0642\u0631\u064a\u0629 \u0627\u0644\u0633\u0644\u0627\u0645", "name:de": "Qaryat as Salam", "name:en": "Qaryat as Salam", "name:fr": "Qaryat as Salam", "place": "village"}}, {"type": "node", "id": 2488372358, "lat": 34.759201, "lon": 43.416776, "tags": {"alt_name": "\u0634\u0647\u0627\u0628 \u0627\u0644\u0623\u062d\u0645\u062f", "int_name": "Shah\u0101b al A\u1e29mad, \u0634\u0647\u0627\u0628 \u0627\u0644\u0627\u062d\u0645\u062f, Shahab al Ahmad, \u0634\u0647\u0627\u0628 \u0627\u0644\u0627\u062d\u0645\u062f", "name": "\u0634\u0647\u0627\u0628 \u0627\u0644\u0623\u062d\u0645\u062f", "name:ar": "\u0634\u0647\u0627\u0628 \u0627\u0644\u0623\u062d\u0645\u062f", "name:ar1": "\u0634\u0647\u0627\u0628 \u0627\u0644\u0623\u062d\u0645\u062f", "name:de": "Shahab al Ahmad", "name:en": "Shahab al Ahmad", "name:fr": "Shahab al Ahmad", "place": "village"}}, {"type": "node", "id": 2488372359, "lat": 34.752924, "lon": 43.390993, "tags": {"alt_name": "\u062a\u0627\u064a\u0629", "int_name": "T\u0101yah, \u062a\u0627\u064a\u0647, Tayah, \u062a\u0627\u064a\u0647", "name": "\u062a\u0627\u064a\u0629", "name:ar": "\u062a\u0627\u064a\u0629", "name:ar1": "\u062a\u0627\u064a\u0629", "name:de": "Tayah", "name:en": "Tayah", "name:fr": "Tayah", "place": "village"}}, {"type": "node", "id": 2488372484, "lat": 34.6930669, "lon": 43.480542, "tags": {"alt_name": "\u062f\u0627\u0648\u0648\u062f \u0633\u0644\u0645\u0627\u0646", "int_name": "D\u0101wud Salm\u0101n, Dawud Salman", "name": "\u062f\u0627\u0648\u0648\u062f \u0633\u0644\u0645\u0627\u0646", "name:ar": "\u062f\u0627\u0648\u0648\u062f \u0633\u0644\u0645\u0627\u0646", "name:ar1": "\u062f\u0627\u0648\u0648\u062f \u0633\u0644\u0645\u0627\u0646", "name:de": "Dawud Salman", "name:en": "Dawud Salman", "name:fr": "Dawud Salman", "place": "village"}}, {"type": "node", "id": 2488372488, "lat": 34.693816, "lon": 43.476366, "tags": {"alt_name": "\u0646\u0645\u064a\u0631 \u062c\u0627\u0633\u0645", "int_name": "Nam\u012br J\u0101sim, \u0646\u0645\u064a\u0631 \u062c\u0627\u0633\u0645, Namir Jasim, \u0646\u0645\u064a\u0631 \u062c\u0627\u0633\u0645", "name": "\u0646\u0645\u064a\u0631 \u062c\u0627\u0633\u0645", "name:ar": "\u0646\u0645\u064a\u0631 \u062c\u0627\u0633\u0645", "name:ar1": "\u0646\u0645\u064a\u0631 \u062c\u0627\u0633\u0645", "name:de": "Namir Jasim", "name:en": "Namir Jasim", "name:fr": "Namir Jasim", "place": "village"}}, {"type": "node", "id": 2488372495, "lat": 34.6931545, "lon": 43.4805576, "tags": {"alt_name": "\u062f\u0627\u0648\u062f \u0633\u0644\u0645\u0627\u0646", "int_name": "\u062f\u0627\u0648\u062f \u0633\u0644\u0645\u0627\u0646, \u062f\u0627\u0648\u062f \u0633\u0644\u0645\u0627\u0646", "name": "\u062f\u0627\u0648\u062f \u0633\u0644\u0645\u0627\u0646", "name:ar": "\u062f\u0627\u0648\u062f \u0633\u0644\u0645\u0627\u0646", "name:ar1": "\u062f\u0627\u0648\u062f \u0633\u0644\u0645\u0627\u0646", "name:de": "\u062f\u0627\u0648\u062f \u0633\u0644\u0645\u0627\u0646", "name:en": "\u062f\u0627\u0648\u062f \u0633\u0644\u0645\u0627\u0646", "name:fr": "\u062f\u0627\u0648\u062f \u0633\u0644\u0645\u0627\u0646", "place": "village"}}, {"type": "node", "id": 2488373905, "lat": 34.533954, "lon": 43.459232, "tags": {"alt_name": "\u0639\u0628\u0627\u0633 \u062e\u0644\u0641", "int_name": "Abb\u0101s Khalaf, \u0639\u0628\u0627\u0633 \u062e\u0644\u0641, Abbas Khalaf, \u0639\u0628\u0627\u0633 \u062e\u0644\u0641", "name": "\u0639\u0628\u0627\u0633 \u062e\u0644\u0641", "name:ar": "\u0639\u0628\u0627\u0633 \u062e\u0644\u0641", "name:ar1": "\u0639\u0628\u0627\u0633 \u062e\u0644\u0641", "name:de": "Abbas Khalaf", "name:en": "Abbas Khalaf", "name:fr": "Abbas Khalaf", "place": "village"}}, {"type": "node", "id": 2488373907, "lat": 34.529323, "lon": 43.454611, "tags": {"alt_name": "\u0639\u0628\u0648\u062f \u062d\u0645\u064a\u062f", "int_name": "Ab\u016bd \u1e28am\u012bd, \u0639\u0628\u0648\u062f \u062d\u0645\u064a\u062f, Abud Hamid, \u0639\u0628\u0648\u062f \u062d\u0645\u064a\u062f", "name": "\u0639\u0628\u0648\u062f \u062d\u0645\u064a\u062f", "name:ar": "\u0639\u0628\u0648\u062f \u062d\u0645\u064a\u062f", "name:ar1": "\u0639\u0628\u0648\u062f \u062d\u0645\u064a\u062f", "name:de": "Abud Hamid", "name:en": "Abud Hamid", "name:fr": "Abud Hamid", "place": "village"}}, {"type": "node", "id": 2488373910, "lat": 34.503273, "lon": 43.474108, "tags": {"alt_name": "\u0639\u0644\u064a \u0647\u0644\u0627\u0644", "int_name": "Al\u012b Hil\u0101l, \u0639\u0644\u064a \u0647\u0644\u0627\u0644, Ali Hilal, \u0639\u0644\u064a \u0647\u0644\u0627\u0644", "name": "\u0639\u0644\u064a \u0647\u0644\u0627\u0644", "name:ar": "\u0639\u0644\u064a \u0647\u0644\u0627\u0644", "name:ar1": "\u0639\u0644\u064a \u0647\u0644\u0627\u0644", "name:de": "Ali Hilal", "name:en": "Ali Hilal", "name:fr": "Ali Hilal", "place": "village"}}, {"type": "node", "id": 2488373911, "lat": 34.481684, "lon": 43.469648, "tags": {"alt_name": "\u0639\u0631\u0628 \u062a\u0631\u0643\u064a \u0627\u0644\u0639\u0637\u0627\u0646", "int_name": "Arab Turk\u012b al U\u0163\u0101n, \u0639\u0631\u0628 \u062a\u0631\u0643\u064a \u0627\u0644\u0639\u0637\u0627\u0646, Arab Turki al Utan, \u0639\u0631\u0628 \u062a\u0631\u0643\u064a \u0627\u0644\u0639\u0637\u0627\u0646", "name": "\u0639\u0631\u0628 \u062a\u0631\u0643\u064a \u0627\u0644\u0639\u0637\u0627\u0646", "name:ar": "\u0639\u0631\u0628 \u062a\u0631\u0643\u064a \u0627\u0644\u0639\u0637\u0627\u0646", "name:ar1": "\u0639\u0631\u0628 \u062a\u0631\u0643\u064a \u0627\u0644\u0639\u0637\u0627\u0646", "name:de": "Arab Turki al Utan", "name:en": "Arab Turki al Utan", "name:fr": "Arab Turki al Utan", "place": "village"}}, {"type": "node", "id": 2488373920, "lat": 34.494899, "lon": 43.478035, "tags": {"alt_name": "\u0639\u0637\u064a\u0629 \u0647\u0644\u0627\u0644", "int_name": "A\u0163\u012byah Hil\u0101l, A\u0163\u012byat Hil\u0101l, \u0639\u0637\u064a\u0629 \u0647\u0644\u0627\u0644, Atiyah Hilal, Atiyat Hilal, \u0639\u0637\u064a\u0629 \u0647\u0644\u0627\u0644", "name": "\u0639\u0637\u064a\u0629 \u0647\u0644\u0627\u0644", "name:ar": "\u0639\u0637\u064a\u0629 \u0647\u0644\u0627\u0644", "name:ar1": "\u0639\u0637\u064a\u0629 \u0647\u0644\u0627\u0644", "name:de": "Atiyah Hilal", "name:en": "Atiyah Hilal", "name:fr": "Atiyah Hilal", "place": "village"}}, {"type": "node", "id": 2488373923, "lat": 34.533784, "lon": 43.460581, "tags": {"alt_name": "\u062f\u0627\u064a\u062d \u0627\u0644\u0645\u062c\u0644", "int_name": "D\u0101yi\u1e29 al Majal, \u062f\u0627\u064a\u062d \u0627\u0644\u0645\u062c\u0644, Dayih al Majal, \u062f\u0627\u064a\u062d \u0627\u0644\u0645\u062c\u0644", "name": "\u062f\u0627\u064a\u062d \u0627\u0644\u0645\u062c\u0644", "name:ar": "\u062f\u0627\u064a\u062d \u0627\u0644\u0645\u062c\u0644", "name:ar1": "\u062f\u0627\u064a\u062d \u0627\u0644\u0645\u062c\u0644", "name:de": "Dayih al Majal", "name:en": "Dayih al Majal", "name:fr": "Dayih al Majal", "place": "village"}}, {"type": "node", "id": 2488373930, "lat": 34.503655, "lon": 43.458093, "tags": {"alt_name": "\u062d\u0633\u0646 \u0627\u0644\u0639\u0628\u062f", "int_name": "\u1e28asan al Abd, \u062d\u0633\u0646 \u0627\u0644\u0639\u0628\u062f, Hasan al Abd, \u062d\u0633\u0646 \u0627\u0644\u0639\u0628\u062f", "name": "\u062d\u0633\u0646 \u0627\u0644\u0639\u0628\u062f", "name:ar": "\u062d\u0633\u0646 \u0627\u0644\u0639\u0628\u062f", "name:ar1": "\u062d\u0633\u0646 \u0627\u0644\u0639\u0628\u062f", "name:de": "Hasan al Abd", "name:en": "Hasan al Abd", "name:fr": "Hasan al Abd", "place": "village"}}, {"type": "node", "id": 2488373935, "lat": 34.496856, "lon": 43.460346, "tags": {"alt_name": "\u062c\u0632\u0627\u0639 \u062d\u062c\u0648\u0644", "int_name": "Jaz\u0101 \u1e28aj\u016bl, \u062c\u0632\u0627\u0639 \u062d\u062c\u0648\u0644, Jaza Hajul, \u062c\u0632\u0627\u0639 \u062d\u062c\u0648\u0644", "name": "\u062c\u0632\u0627\u0639 \u062d\u062c\u0648\u0644", "name:ar": "\u062c\u0632\u0627\u0639 \u062d\u062c\u0648\u0644", "name:ar1": "\u062c\u0632\u0627\u0639 \u062d\u062c\u0648\u0644", "name:de": "Jaza Hajul", "name:en": "Jaza Hajul", "name:fr": "Jaza Hajul", "place": "village"}}, {"type": "node", "id": 2488373944, "lat": 34.504829, "lon": 43.454735, "tags": {"alt_name": "\u0645\u062d\u0645\u062f \u0627\u0644\u062d\u0633\u0648\u0646", "int_name": "Mu\u1e29ammad al \u1e28ass\u016bn, \u0645\u062d\u0645\u062f \u0627\u0644\u062d\u0633\u0648\u0646, Muhammad al Hassun, \u0645\u062d\u0645\u062f \u0627\u0644\u062d\u0633\u0648\u0646", "name": "\u0645\u062d\u0645\u062f \u0627\u0644\u062d\u0633\u0648\u0646", "name:ar": "\u0645\u062d\u0645\u062f \u0627\u0644\u062d\u0633\u0648\u0646", "name:ar1": "\u0645\u062d\u0645\u062f \u0627\u0644\u062d\u0633\u0648\u0646", "name:de": "Muhammad al Hassun", "name:en": "Muhammad al Hassun", "name:fr": "Muhammad al Hassun", "place": "village"}}, {"type": "node", "id": 2488373945, "lat": 34.525695, "lon": 43.446622, "tags": {"alt_name": "\u0646\u0635\u064a\u0641 \u062c\u0627\u0633\u0645", "int_name": "Na\u015f\u012bf J\u0101sim, \u0646\u0635\u064a\u0641 \u062c\u0627\u0633\u0645, Nasif Jasim, \u0646\u0635\u064a\u0641 \u062c\u0627\u0633\u0645", "name": "\u0646\u0635\u064a\u0641 \u062c\u0627\u0633\u0645", "name:ar": "\u0646\u0635\u064a\u0641 \u062c\u0627\u0633\u0645", "name:ar1": "\u0646\u0635\u064a\u0641 \u062c\u0627\u0633\u0645", "name:de": "Nasif Jasim", "name:en": "Nasif Jasim", "name:fr": "Nasif Jasim", "place": "village"}}, {"type": "node", "id": 2488373946, "lat": 34.527504, "lon": 43.48195, "tags": {"alt_name": "\u0631\u0645\u0644 \u0623\u062d\u0645\u062f", "int_name": "Raml A\u1e29mad, \u0631\u0645\u0644 \u0627\u062d\u0645\u062f, Raml Ahmad, \u0631\u0645\u0644 \u0627\u062d\u0645\u062f", "name": "\u0631\u0645\u0644 \u0623\u062d\u0645\u062f", "name:ar": "\u0631\u0645\u0644 \u0623\u062d\u0645\u062f", "name:ar1": "\u0631\u0645\u0644 \u0623\u062d\u0645\u062f", "name:de": "Raml Ahmad", "name:en": "Raml Ahmad", "name:fr": "Raml Ahmad", "place": "village"}}, {"type": "node", "id": 2488373948, "lat": 34.527914, "lon": 43.460985, "tags": {"alt_name": "\u0634\u064a\u062d\u0629", "int_name": "Sh\u012b\u1e29ah, \u0634\u064a\u062d\u0647, Shihah, \u0634\u064a\u062d\u0647", "name": "\u0627\u0644\u0634\u064a\u062d\u0629", "name:ar": "\u0634\u064a\u062d\u0629", "name:ar1": "\u0634\u064a\u062d\u0629", "name:de": "Shihah", "name:en": "Shihah", "name:fr": "Shihah", "place": "village"}}, {"type": "node", "id": 2488373949, "lat": 34.505129, "lon": 43.446542, "tags": {"alt_name": "\u062a\u0631\u0643\u064a \u0627\u0644\u0645\u0628\u0637\u0627\u0646", "int_name": "Turk\u012b Mab\u0163\u0101n, \u062a\u0631\u0643\u064a \u0627\u0644\u0645\u0628\u0637\u0627\u0646, Turki Mabtan, \u062a\u0631\u0643\u064a \u0627\u0644\u0645\u0628\u0637\u0627\u0646", "name": "\u062a\u0631\u0643\u064a \u0627\u0644\u0645\u0628\u0637\u0627\u0646", "name:ar": "\u062a\u0631\u0643\u064a \u0627\u0644\u0645\u0628\u0637\u0627\u0646", "name:ar1": "\u062a\u0631\u0643\u064a \u0627\u0644\u0645\u0628\u0637\u0627\u0646", "name:de": "Turki Mabtan", "name:en": "Turki Mabtan", "name:fr": "Turki Mabtan", "place": "village"}}, {"type": "node", "id": 2488373951, "lat": 34.52103, "lon": 43.478547, "tags": {"alt_name": "\u0638\u0627\u0647\u0631 \u062e\u0644\u0641", "int_name": "Z\u0327\u0101hir Khalaf, \u0638\u0627\u0647\u0631 \u062e\u0644\u0641, Zahir Khalaf, \u0638\u0627\u0647\u0631 \u062e\u0644\u0641", "name": "\u0638\u0627\u0647\u0631 \u062e\u0644\u0641", "name:ar": "\u0638\u0627\u0647\u0631 \u062e\u0644\u0641", "name:ar1": "\u0638\u0627\u0647\u0631 \u062e\u0644\u0641", "name:de": "Zahir Khalaf", "name:en": "Zahir Khalaf", "name:fr": "Zahir Khalaf", "place": "village"}}, {"type": "node", "id": 2488374089, "lat": 34.408341, "lon": 43.404142, "tags": {"alt_name": "\u0639\u0628\u062f \u0627\u0644\u0644\u0647 \u062f\u0627\u062e\u0644", "int_name": "Abd All\u0101h D\u0101khil, \u0639\u0628\u062f \ufdf2 \u062f\u0627\u062e\u0644, Abd Allah Dakhil, \u0639\u0628\u062f \ufdf2 \u062f\u0627\u062e\u0644", "name": "\u0639\u0628\u062f \u0627\u0644\u0644\u0647 \u062f\u0627\u062e\u0644", "name:ar": "\u0639\u0628\u062f \u0627\u0644\u0644\u0647 \u062f\u0627\u062e\u0644", "name:ar1": "\u0639\u0628\u062f \u0627\u0644\u0644\u0647 \u062f\u0627\u062e\u0644", "name:de": "Abd Allah Dakhil", "name:en": "Abd Allah Dakhil", "name:fr": "Abd Allah Dakhil", "place": "village"}}, {"type": "node", "id": 2488374090, "lat": 34.383161, "lon": 43.376832, "tags": {"alt_name": "\u0639\u0628\u062f \u0639\u0637\u064a\u0629", "int_name": "Abd A\u0163\u012byah, \u0639\u0628\u062f \u0639\u0637\u064a\u0629, Abd Atiyah, \u0639\u0628\u062f \u0639\u0637\u064a\u0629", "name": "\u0639\u0628\u062f \u0639\u0637\u064a\u0629", "name:ar": "\u0639\u0628\u062f \u0639\u0637\u064a\u0629", "name:ar1": "\u0639\u0628\u062f \u0639\u0637\u064a\u0629", "name:de": "Abd Atiyah", "name:en": "Abd Atiyah", "name:fr": "Abd Atiyah", "place": "village"}}, {"type": "node", "id": 2488374091, "lat": 34.465555, "lon": 43.366211, "tags": {"alt_name": "\u0639\u0628\u062f \u0646\u0627\u064a\u0641", "int_name": "Abd N\u0101yif, \u0639\u0628\u062f \u0646\u0627\u064a\u0641, Abd Nayif, \u0639\u0628\u062f \u0646\u0627\u064a\u0641", "name": "\u0639\u0628\u062f \u0646\u0627\u064a\u0641", "name:ar": "\u0639\u0628\u062f \u0646\u0627\u064a\u0641", "name:ar1": "\u0639\u0628\u062f \u0646\u0627\u064a\u0641", "name:de": "Abd Nayif", "name:en": "Abd Nayif", "name:fr": "Abd Nayif", "place": "village"}}, {"type": "node", "id": 2488374092, "lat": 34.350289, "lon": 43.338623, "tags": {"alt_name": "\u0639\u0628\u062f \u0639\u0644\u064a\u0648\u064a", "int_name": "Abd Ulayw\u012b, \u0639\u0628\u062f \u0639\u0644\u064a\u0648\u064a, Abd Ulaywi, \u0639\u0628\u062f \u0639\u0644\u064a\u0648\u064a", "name": "\u0639\u0628\u062f \u0639\u0644\u064a\u0648\u064a", "name:ar": "\u0639\u0628\u062f \u0639\u0644\u064a\u0648\u064a", "name:ar1": "\u0639\u0628\u062f \u0639\u0644\u064a\u0648\u064a", "name:de": "Abd Ulaywi", "name:en": "Abd Ulaywi", "name:fr": "Abd Ulaywi", "place": "village"}}, {"type": "node", "id": 2488374093, "lat": 34.460308, "lon": 43.431621, "tags": {"alt_name": "\u0639\u0628\u0648\u062f \u062e\u0644\u0641", "int_name": "Ab\u016bd Khalaf, \u0639\u0628\u0648\u062f \u062e\u0644\u0641, Abud Khalaf, \u0639\u0628\u0648\u062f \u062e\u0644\u0641", "name": "\u0639\u0628\u0648\u062f \u062e\u0644\u0641", "name:ar": "\u0639\u0628\u0648\u062f \u062e\u0644\u0641", "name:ar1": "\u0639\u0628\u0648\u062f \u062e\u0644\u0641", "name:de": "Abud Khalaf", "name:en": "Abud Khalaf", "name:fr": "Abud Khalaf", "place": "village"}}, {"type": "node", "id": 2488374094, "lat": 34.343549, "lon": 43.396474, "tags": {"alt_name": "\u0639\u0644\u0627\u0648\u064a \u0641\u0631\u062c", "int_name": "Al\u0101w\u012b Faraj, \u0639\u0644\u0627\u0648\u064a \u0641\u0631\u062c, Alawi Faraj, \u0639\u0644\u0627\u0648\u064a \u0641\u0631\u062c", "name": "\u0639\u0644\u0627\u0648\u064a \u0641\u0631\u062c", "name:ar": "\u0639\u0644\u0627\u0648\u064a \u0641\u0631\u062c", "name:ar1": "\u0639\u0644\u0627\u0648\u064a \u0641\u0631\u062c", "name:de": "Alawi Faraj", "name:en": "Alawi Faraj", "name:fr": "Alawi Faraj", "place": "village"}}, {"type": "node", "id": 2488374095, "lat": 34.344986, "lon": 43.435581, "tags": {"alt_name": "\u0639\u0644\u064a \u0623\u062d\u0645\u062f", "int_name": "Al\u012b A\u1e29mad, \u0639\u0644\u064a \u0627\u062d\u0645\u062f, Ali Ahmad, \u0639\u0644\u064a \u0627\u062d\u0645\u062f", "name": "\u0639\u0644\u064a \u0623\u062d\u0645\u062f", "name:ar": "\u0639\u0644\u064a \u0623\u062d\u0645\u062f", "name:ar1": "\u0639\u0644\u064a \u0623\u062d\u0645\u062f", "name:de": "Ali Ahmad", "name:en": "Ali Ahmad", "name:fr": "Ali Ahmad", "place": "village"}}, {"type": "node", "id": 2488374096, "lat": 34.39663, "lon": 43.387004, "tags": {"alt_name": "\u0639\u0644\u064a \u0639\u0637\u064a\u0629", "int_name": "Al\u012b A\u0163\u012byah, \u0639\u0644\u064a \u0639\u0637\u064a\u0629, Ali Atiyah, \u0639\u0644\u064a \u0639\u0637\u064a\u0629", "name": "\u0639\u0644\u064a \u0639\u0637\u064a\u0629", "name:ar": "\u0639\u0644\u064a \u0639\u0637\u064a\u0629", "name:ar1": "\u0639\u0644\u064a \u0639\u0637\u064a\u0629", "name:de": "Ali Atiyah", "name:en": "Ali Atiyah", "name:fr": "Ali Atiyah", "place": "village"}}, {"type": "node", "id": 2488374097, "lat": 34.416752, "lon": 43.427389, "tags": {"alt_name": "\u0639\u0644\u064a \u0645\u062d\u0645\u062f", "int_name": "Al\u012b Mu\u1e29ammad, \u0639\u0644\u064a \u0645\u062d\u0645\u062f, Ali Muhammad, \u0639\u0644\u064a \u0645\u062d\u0645\u062f", "name": "\u0639\u0644\u064a \u0645\u062d\u0645\u062f", "name:ar": "\u0639\u0644\u064a \u0645\u062d\u0645\u062f", "name:ar1": "\u0639\u0644\u064a \u0645\u062d\u0645\u062f", "name:de": "Ali Muhammad", "name:en": "Ali Muhammad", "name:fr": "Ali Muhammad", "place": "village"}}, {"type": "node", "id": 2488374098, "lat": 34.471256, "lon": 43.359267, "tags": {"alt_name": "\u0639\u0631\u0628 \u0641\u0631\u062d\u0627\u0646 \u0645\u062c\u064a\u062f", "int_name": "Arab Far\u1e29\u0101n Maj\u012bd, \u0639\u0631\u0628 \u0641\u0631\u062d\u0627\u0646 \u0645\u062c\u064a\u062f, Arab Farhan Majid, \u0639\u0631\u0628 \u0641\u0631\u062d\u0627\u0646 \u0645\u062c\u064a\u062f", "name": "\u0639\u0631\u0628 \u0641\u0631\u062d\u0627\u0646 \u0645\u062c\u064a\u062f", "name:ar": "\u0639\u0631\u0628 \u0641\u0631\u062d\u0627\u0646 \u0645\u062c\u064a\u062f", "name:ar1": "\u0639\u0631\u0628 \u0641\u0631\u062d\u0627\u0646 \u0645\u062c\u064a\u062f", "name:de": "Arab Farhan Majid", "name:en": "Arab Farhan Majid", "name:fr": "Arab Farhan Majid", "place": "village"}}, {"type": "node", "id": 2488374100, "lat": 34.336745, "lon": 43.344691, "tags": {"alt_name": "\u0639\u0631\u0628 \u0643\u0627\u0638\u0645 \u062c\u0631\u0628\u0648\u0639", "int_name": "Arab K\u0101z\u0327im Jarb\u016b, \u0639\u0631\u0628 \u0643\u0627\u0638\u0645 \u062c\u0631\u0628\u0648\u0639, Arab Kazim Jarbu, \u0639\u0631\u0628 \u0643\u0627\u0638\u0645 \u062c\u0631\u0628\u0648\u0639", "name": "\u0639\u0631\u0628 \u0643\u0627\u0638\u0645 \u062c\u0631\u0628\u0648\u0639", "name:ar": "\u0639\u0631\u0628 \u0643\u0627\u0638\u0645 \u062c\u0631\u0628\u0648\u0639", "name:ar1": "\u0639\u0631\u0628 \u0643\u0627\u0638\u0645 \u062c\u0631\u0628\u0648\u0639", "name:de": "Arab Kazim Jarbu", "name:en": "Arab Kazim Jarbu", "name:fr": "Arab Kazim Jarbu", "place": "village"}}, {"type": "node", "id": 2488374102, "lat": 34.461203, "lon": 43.438122, "tags": {"alt_name": "\u0639\u0631\u0628 \u0631\u0634\u064a\u062f \u0627\u0644\u0639\u0637\u0627\u0646", "int_name": "Arab Rash\u012bd al U\u0163\u0101n, \u0639\u0631\u0628 \u0631\u0634\u064a\u062f \u0627\u0644\u0639\u0637\u0627\u0646, Arab Rashid al Utan, \u0639\u0631\u0628 \u0631\u0634\u064a\u062f \u0627\u0644\u0639\u0637\u0627\u0646", "name": "\u0639\u0631\u0628 \u0631\u0634\u064a\u062f \u0627\u0644\u0639\u0637\u0627\u0646", "name:ar": "\u0639\u0631\u0628 \u0631\u0634\u064a\u062f \u0627\u0644\u0639\u0637\u0627\u0646", "name:ar1": "\u0639\u0631\u0628 \u0631\u0634\u064a\u062f \u0627\u0644\u0639\u0637\u0627\u0646", "name:de": "Arab Rashid al Utan", "name:en": "Arab Rashid al Utan", "name:fr": "Arab Rashid al Utan", "place": "village"}}, {"type": "node", "id": 2488374106, "lat": 34.325272, "lon": 43.398944, "tags": {"alt_name": "\u0639\u0648\u0636 \u062d\u0633\u0646", "int_name": "Aw\u1e11 \u1e28asan, \u0639\u0648\u0636 \u062d\u0633\u0646, Awd Hasan, \u0639\u0648\u0636 \u062d\u0633\u0646", "name": "\u0639\u0648\u0636 \u062d\u0633\u0646", "name:ar": "\u0639\u0648\u0636 \u062d\u0633\u0646", "name:ar1": "\u0639\u0648\u0636 \u062d\u0633\u0646", "name:de": "Awd Hasan", "name:en": "Awd Hasan", "name:fr": "Awd Hasan", "place": "village"}}, {"type": "node", "id": 2488374108, "lat": 34.431713, "lon": 43.343077, "tags": {"alt_name": "\u0639\u0648\u0627\u062f \u0645\u0635\u0644\u062d", "int_name": "Aww\u0101d Mu\u015fli\u1e29, \u0639\u0648\u0627\u062f \u0645\u0635\u0644\u062d, Awwad Muslih, \u0639\u0648\u0627\u062f \u0645\u0635\u0644\u062d", "name": "\u0639\u0648\u0627\u062f \u0645\u0635\u0644\u062d", "name:ar": "\u0639\u0648\u0627\u062f \u0645\u0635\u0644\u062d", "name:ar1": "\u0639\u0648\u0627\u062f \u0645\u0635\u0644\u062d", "name:de": "Awwad Muslih", "name:en": "Awwad Muslih", "name:fr": "Awwad Muslih", "place": "village"}}, {"type": "node", "id": 2488374109, "lat": 34.335992, "lon": 43.410557, "tags": {"alt_name": "\u062d\u0645\u0627\u062f \u0639\u0644\u064a", "int_name": "\u1e28am\u0101d Al\u012b, \u062d\u0645\u0627\u062f \u0639\u0644\u064a, Hamad Ali, \u062d\u0645\u0627\u062f \u0639\u0644\u064a", "name": "\u062d\u0645\u0627\u062f \u0639\u0644\u064a", "name:ar": "\u062d\u0645\u0627\u062f \u0639\u0644\u064a", "name:ar1": "\u062d\u0645\u0627\u062f \u0639\u0644\u064a", "name:de": "Hamad Ali", "name:en": "Hamad Ali", "name:fr": "Hamad Ali", "place": "village"}}, {"type": "node", "id": 2488374111, "lat": 34.424401, "lon": 43.384584, "tags": {"alt_name": "\u062d\u0645\u0648\u062f \u0639\u0628\u062f", "int_name": "\u1e28am\u016bd Abd, \u062d\u0645\u0648\u062f \u0639\u0628\u062f, Hamud Abd, \u062d\u0645\u0648\u062f \u0639\u0628\u062f", "name": "\u062d\u0645\u0648\u062f \u0639\u0628\u062f", "name:ar": "\u062d\u0645\u0648\u062f \u0639\u0628\u062f", "name:ar1": "\u062d\u0645\u0648\u062f \u0639\u0628\u062f", "name:de": "Hamud Abd", "name:en": "Hamud Abd", "name:fr": "Hamud Abd", "place": "village"}}, {"type": "node", "id": 2488374112, "lat": 34.457642, "lon": 43.385082, "tags": {"alt_name": "\u062d\u0633\u0646 \u0639\u0644\u064a", "int_name": "\u1e28asan Al\u012b, \u062d\u0633\u0646 \u0639\u0644\u064a, Hasan Ali, \u062d\u0633\u0646 \u0639\u0644\u064a", "name": "\u062d\u0633\u0646 \u0639\u0644\u064a", "name:ar": "\u062d\u0633\u0646 \u0639\u0644\u064a", "name:ar1": "\u062d\u0633\u0646 \u0639\u0644\u064a", "name:de": "Hasan Ali", "name:en": "Hasan Ali", "name:fr": "Hasan Ali", "place": "village"}}, {"type": "node", "id": 2488374113, "lat": 34.34233, "lon": 43.363937, "tags": {"alt_name": "\u062d\u0633\u064a\u0646 \u0639\u0628\u062f", "int_name": "\u1e28usayn Abd, \u062d\u0633\u064a\u0646 \u0639\u0628\u062f, Husayn Abd, \u062d\u0633\u064a\u0646 \u0639\u0628\u062f", "name": "\u062d\u0633\u064a\u0646 \u0639\u0628\u062f", "name:ar": "\u062d\u0633\u064a\u0646 \u0639\u0628\u062f", "name:ar1": "\u062d\u0633\u064a\u0646 \u0639\u0628\u062f", "name:de": "Husayn Abd", "name:en": "Husayn Abd", "name:fr": "Husayn Abd", "place": "village"}}, {"type": "node", "id": 2488374115, "lat": 34.32647, "lon": 43.335689, "tags": {"alt_name": "\u0625\u0628\u0631\u0627\u0647\u064a\u0645 \u062d\u0645\u0627\u062f\u064a", "int_name": "Ibr\u0101h\u012bm \u1e28am\u0101d\u012b, \u0627\u0628\u0631\u0627\u0647\u064a\u0645 \u062d\u0645\u0627\u062f\u064a, Ibrahim Hamadi, \u0627\u0628\u0631\u0627\u0647\u064a\u0645 \u062d\u0645\u0627\u062f\u064a", "name": "\u0625\u0628\u0631\u0627\u0647\u064a\u0645 \u062d\u0645\u0627\u062f\u064a", "name:ar": "\u0625\u0628\u0631\u0627\u0647\u064a\u0645 \u062d\u0645\u0627\u062f\u064a", "name:ar1": "\u0625\u0628\u0631\u0627\u0647\u064a\u0645 \u062d\u0645\u0627\u062f\u064a", "name:de": "Ibrahim Hamadi", "name:en": "Ibrahim Hamadi", "name:fr": "Ibrahim Hamadi", "place": "village"}}, {"type": "node", "id": 2488374116, "lat": 34.414788, "lon": 43.350166, "tags": {"alt_name": "\u0625\u0628\u0631\u0627\u0647\u064a\u0645 \u062e\u0644\u0641", "int_name": "Ibr\u0101h\u012bm Khalaf, \u0627\u0628\u0631\u0627\u0647\u064a\u0645 \u062e\u0644\u0641, Ibrahim Khalaf, \u0627\u0628\u0631\u0627\u0647\u064a\u0645 \u062e\u0644\u0641", "name": "\u0625\u0628\u0631\u0627\u0647\u064a\u0645 \u062e\u0644\u0641", "name:ar": "\u0625\u0628\u0631\u0627\u0647\u064a\u0645 \u062e\u0644\u0641", "name:ar1": "\u0625\u0628\u0631\u0627\u0647\u064a\u0645 \u062e\u0644\u0641", "name:de": "Ibrahim Khalaf", "name:en": "Ibrahim Khalaf", "name:fr": "Ibrahim Khalaf", "place": "village"}}, {"type": "node", "id": 2488374117, "lat": 34.405706, "lon": 43.443176, "tags": {"alt_name": "\u062c\u0628\u0627\u0631 \u0639\u0628\u062f \u062e\u0644\u0641", "int_name": "Jabb\u0101r Abd Khalaf, \u062c\u0628\u0627\u0631 \u0639\u0628\u062f \u062e\u0644\u0641, Jabbar Abd Khalaf, \u062c\u0628\u0627\u0631 \u0639\u0628\u062f \u062e\u0644\u0641", "name": "\u062c\u0628\u0627\u0631 \u0639\u0628\u062f \u062e\u0644\u0641", "name:ar": "\u062c\u0628\u0627\u0631 \u0639\u0628\u062f \u062e\u0644\u0641", "name:ar1": "\u062c\u0628\u0627\u0631 \u0639\u0628\u062f \u062e\u0644\u0641", "name:de": "Jabbar Abd Khalaf", "name:en": "Jabbar Abd Khalaf", "name:fr": "Jabbar Abd Khalaf", "place": "village"}}, {"type": "node", "id": 2488374118, "lat": 34.324802, "lon": 43.373971, "tags": {"alt_name": "\u062e\u0644\u064a\u0644 \u0645\u0637\u0644\u0643", "int_name": "Khal\u012bl Mu\u0163lak, \u062e\u0644\u064a\u0644 \u0645\u0637\u0644\u0643, Khalil Mutlak, \u062e\u0644\u064a\u0644 \u0645\u0637\u0644\u0643", "name": "\u062e\u0644\u064a\u0644 \u0645\u0637\u0644\u0643", "name:ar": "\u062e\u0644\u064a\u0644 \u0645\u0637\u0644\u0643", "name:ar1": "\u062e\u0644\u064a\u0644 \u0645\u0637\u0644\u0643", "name:de": "Khalil Mutlak", "name:en": "Khalil Mutlak", "name:fr": "Khalil Mutlak", "place": "village"}}, {"type": "node", "id": 2488374119, "lat": 34.368453, "lon": 43.351099, "tags": {"alt_name": "\u0645\u062c\u064a\u062f \u0645\u062e\u0644\u0641 \u0635\u0627\u0644\u062d", "int_name": "Maj\u012bd Makhlaf \u015e\u0101li\u1e29, \u0645\u062c\u064a\u062f \u0645\u062e\u0644\u0641 \u0635\u0627\u0644\u062d, Majid Makhlaf Salih, \u0645\u062c\u064a\u062f \u0645\u062e\u0644\u0641 \u0635\u0627\u0644\u062d", "name": "\u0645\u062c\u064a\u062f \u0645\u062e\u0644\u0641 \u0635\u0627\u0644\u062d", "name:ar": "\u0645\u062c\u064a\u062f \u0645\u062e\u0644\u0641 \u0635\u0627\u0644\u062d", "name:ar1": "\u0645\u062c\u064a\u062f \u0645\u062e\u0644\u0641 \u0635\u0627\u0644\u062d", "name:de": "Majid Makhlaf Salih", "name:en": "Majid Makhlaf Salih", "name:fr": "Majid Makhlaf Salih", "place": "village"}}, {"type": "node", "id": 2488374120, "lat": 34.40859, "lon": 43.3748716, "tags": {"alt_name": "\u0645\u0632\u0647\u0631 \u0633\u0644\u0645\u0627\u0646", "int_name": "Mazhar Salm\u0101n, Mazhar Salman", "name": "\u0645\u0632\u0647\u0631 \u0633\u0644\u0645\u0627\u0646", "name:ar": "\u0645\u0632\u0647\u0631 \u0633\u0644\u0645\u0627\u0646", "name:ar1": "\u0645\u0632\u0647\u0631 \u0633\u0644\u0645\u0627\u0646", "name:de": "Mazhar Salman", "name:en": "Mazhar Salman", "name:fr": "Mazhar Salman", "place": "village"}}, {"type": "node", "id": 2488374121, "lat": 34.369009, "lon": 43.399756, "tags": {"alt_name": "\u0645\u062d\u0645\u062f \u0636\u0627\u062d\u064a", "int_name": "Mu\u1e29ammad \u1e10\u0101\u1e29\u012b, \u0645\u062d\u0645\u062f \u0636\u0627\u062d\u064a, Muhammad Dahi, \u0645\u062d\u0645\u062f \u0636\u0627\u062d\u064a", "name": "\u0645\u062d\u0645\u062f \u0636\u0627\u062d\u064a", "name:ar": "\u0645\u062d\u0645\u062f \u0636\u0627\u062d\u064a", "name:ar1": "\u0645\u062d\u0645\u062f \u0636\u0627\u062d\u064a", "name:de": "Muhammad Dahi", "name:en": "Muhammad Dahi", "name:fr": "Muhammad Dahi", "place": "village"}}, {"type": "node", "id": 2488374122, "lat": 34.323909, "lon": 43.407301, "tags": {"alt_name": "\u0645\u062d\u0645\u062f \u062e\u0644\u064a\u0641\u0629", "int_name": "Mu\u1e29ammad Khal\u012bfah, \u0645\u062d\u0645\u062f \u062e\u0644\u064a\u0641\u0629, Muhammad Khalifah, \u0645\u062d\u0645\u062f \u062e\u0644\u064a\u0641\u0629", "name": "\u0645\u062d\u0645\u062f \u062e\u0644\u064a\u0641\u0629", "name:ar": "\u0645\u062d\u0645\u062f \u062e\u0644\u064a\u0641\u0629", "name:ar1": "\u0645\u062d\u0645\u062f \u062e\u0644\u064a\u0641\u0629", "name:de": "Muhammad Khalifah", "name:en": "Muhammad Khalifah", "name:fr": "Muhammad Khalifah", "place": "village"}}, {"type": "node", "id": 2488374123, "lat": 34.445137, "lon": 43.359333, "tags": {"alt_name": "\u0645\u062d\u0645\u062f \u0635\u0627\u0644\u062d", "int_name": "Mu\u1e29ammad \u015e\u0101li\u1e29, \u0645\u062d\u0645\u062f \u0635\u0627\u0644\u062d, Muhammad Salih, \u0645\u062d\u0645\u062f \u0635\u0627\u0644\u062d", "name": "\u0645\u062d\u0645\u062f \u0635\u0627\u0644\u062d", "name:ar": "\u0645\u062d\u0645\u062f \u0635\u0627\u0644\u062d", "name:ar1": "\u0645\u062d\u0645\u062f \u0635\u0627\u0644\u062d", "name:de": "Muhammad Salih", "name:en": "Muhammad Salih", "name:fr": "Muhammad Salih", "place": "village"}}, {"type": "node", "id": 2488374124, "lat": 34.375694, "lon": 43.366709, "tags": {"alt_name": "\u0645\u0635\u0644\u062d \u0646\u0627\u064a\u0641", "int_name": "Mu\u015fli\u1e29 N\u0101yif, \u0645\u0635\u0644\u062d \u0646\u0627\u064a\u0641, Muslih Nayif, \u0645\u0635\u0644\u062d \u0646\u0627\u064a\u0641", "name": "\u0645\u0635\u0644\u062d \u0646\u0627\u064a\u0641", "name:ar": "\u0645\u0635\u0644\u062d \u0646\u0627\u064a\u0641", "name:ar1": "\u0645\u0635\u0644\u062d \u0646\u0627\u064a\u0641", "name:de": "Muslih Nayif", "name:en": "Muslih Nayif", "name:fr": "Muslih Nayif", "place": "village"}}, {"type": "node", "id": 2488374125, "lat": 34.399945, "lon": 43.376961, "tags": {"alt_name": "\u0631\u0641\u064a\u0639 \u0633\u0644\u0645\u0627\u0646", "int_name": "Raf\u012b Salm\u0101n, \u0631\u0641\u064a\u0639 \u0633\u0644\u0645\u0627\u0646, Rafi Salman, \u0631\u0641\u064a\u0639 \u0633\u0644\u0645\u0627\u0646", "name": "\u0631\u0641\u064a\u0639 \u0633\u0644\u0645\u0627\u0646", "name:ar": "\u0631\u0641\u064a\u0639 \u0633\u0644\u0645\u0627\u0646", "name:ar1": "\u0631\u0641\u064a\u0639 \u0633\u0644\u0645\u0627\u0646", "name:de": "Rafi Salman", "name:en": "Rafi Salman", "name:fr": "Rafi Salman", "place": "village"}}, {"type": "node", "id": 2488374129, "lat": 34.391111, "lon": 43.432482, "tags": {"alt_name": "\u0635\u0627\u0644\u062d \u062d\u0633\u064a\u0646", "int_name": "\u015e\u0101li\u1e29 \u1e28usayn, \u0635\u0627\u0644\u062d \u062d\u0633\u064a\u0646, Salih Husayn, \u0635\u0627\u0644\u062d \u062d\u0633\u064a\u0646", "name": "\u0635\u0627\u0644\u062d \u062d\u0633\u064a\u0646", "name:ar": "\u0635\u0627\u0644\u062d \u062d\u0633\u064a\u0646", "name:ar1": "\u0635\u0627\u0644\u062d \u062d\u0633\u064a\u0646", "name:de": "Salih Husayn", "name:en": "Salih Husayn", "name:fr": "Salih Husayn", "place": "village"}}, {"type": "node", "id": 2488374130, "lat": 34.450466, "lon": 43.449812, "tags": {"alt_name": "\u0633\u0644\u064a\u0645\u0627\u0646 \u062d\u062c\u0648\u0644", "int_name": "Sulaym\u0101n \u1e28aj\u016bl, \u0633\u0644\u064a\u0645\u0627\u0646 \u062d\u062c\u0648\u0644, Sulayman Hajul, \u0633\u0644\u064a\u0645\u0627\u0646 \u062d\u062c\u0648\u0644", "name": "\u0633\u0644\u064a\u0645\u0627\u0646 \u062d\u062c\u0648\u0644", "name:ar": "\u0633\u0644\u064a\u0645\u0627\u0646 \u062d\u062c\u0648\u0644", "name:ar1": "\u0633\u0644\u064a\u0645\u0627\u0646 \u062d\u062c\u0648\u0644", "name:de": "Sulayman Hajul", "name:en": "Sulayman Hajul", "name:fr": "Sulayman Hajul", "place": "village"}}, {"type": "node", "id": 2488374131, "lat": 34.365385, "lon": 43.422353, "tags": {"alt_name": "\u0637\u0647 \u062d\u0633\u0648\u0646\u064a", "int_name": "\u0162aha \u1e28as\u016bn\u012b, \u0637\u0647 \u062d\u0633\u0648\u0646\u064a, Taha Hasuni, \u0637\u0647 \u062d\u0633\u0648\u0646\u064a", "name": "\u0637\u0647 \u062d\u0633\u0648\u0646\u064a", "name:ar": "\u0637\u0647 \u062d\u0633\u0648\u0646\u064a", "name:ar1": "\u0637\u0647 \u062d\u0633\u0648\u0646\u064a", "name:de": "Taha Hasuni", "name:en": "Taha Hasuni", "name:fr": "Taha Hasuni", "place": "village"}}, {"type": "node", "id": 2488374133, "lat": 34.382859, "lon": 43.418547, "tags": {"alt_name": "\u0639\u0644\u064a\u0648\u064a \u0645\u062d\u064a\u0633\u0646", "int_name": "Ulayw\u012b Mu\u1e29aysin, \u0639\u0644\u064a\u0648\u064a \u0645\u062d\u064a\u0633\u0646, Ulaywi Muhaysin, \u0639\u0644\u064a\u0648\u064a \u0645\u062d\u064a\u0633\u0646", "name": "\u0639\u0644\u064a\u0648\u064a \u0645\u062d\u064a\u0633\u0646", "name:ar": "\u0639\u0644\u064a\u0648\u064a \u0645\u062d\u064a\u0633\u0646", "name:ar1": "\u0639\u0644\u064a\u0648\u064a \u0645\u062d\u064a\u0633\u0646", "name:de": "Ulaywi Muhaysin", "name:en": "Ulaywi Muhaysin", "name:fr": "Ulaywi Muhaysin", "place": "village"}}, {"type": "node", "id": 2488374134, "lat": 34.376493, "lon": 43.433797, "tags": {"alt_name": "\u0638\u0627\u0647\u0631\u0629 \u0639\u0648\u062f\u0629", "int_name": "Z\u0327\u0101hirat Awdah, \u0638\u0627\u0647\u0631\u0629 \u0639\u0648\u062f\u0629, Zahirat Awdah, \u0638\u0627\u0647\u0631\u0629 \u0639\u0648\u062f\u0629", "name": "\u0638\u0627\u0647\u0631\u0629 \u0639\u0648\u062f\u0629", "name:ar": "\u0638\u0627\u0647\u0631\u0629 \u0639\u0648\u062f\u0629", "name:ar1": "\u0638\u0627\u0647\u0631\u0629 \u0639\u0648\u062f\u0629", "name:de": "Zahirat Awdah", "name:en": "Zahirat Awdah", "name:fr": "Zahirat Awdah", "place": "village"}}, {"type": "node", "id": 2488374135, "lat": 34.4082288, "lon": 43.3748466, "tags": {"alt_name": "\u0645\u0638\u0647\u0631 \u0633\u0644\u0645\u0627\u0646", "int_name": "\u0645\u0638\u0647\u0631 \u0633\u0644\u0645\u0627\u0646, \u0645\u0638\u0647\u0631 \u0633\u0644\u0645\u0627\u0646", "name": "\u0645\u0638\u0647\u0631 \u0633\u0644\u0645\u0627\u0646", "name:ar": "\u0645\u0638\u0647\u0631 \u0633\u0644\u0645\u0627\u0646", "name:ar1": "\u0645\u0638\u0647\u0631 \u0633\u0644\u0645\u0627\u0646", "name:de": "\u0645\u0638\u0647\u0631 \u0633\u0644\u0645\u0627\u0646", "name:en": "\u0645\u0638\u0647\u0631 \u0633\u0644\u0645\u0627\u0646", "name:fr": "\u0645\u0638\u0647\u0631 \u0633\u0644\u0645\u0627\u0646", "place": "village"}}, {"type": "node", "id": 2488434681, "lat": 34.532762, "lon": 43.424472, "tags": {"alt_name": "\u0639\u0631\u0628 \u062d\u0645\u064a\u062f \u0627\u0644\u0631\u0634\u064a\u062f", "int_name": "Arab \u1e28am\u012bd ar Rash\u012bd, \u0639\u0631\u0628 \u062d\u0645\u064a\u062f \u0627\u0644\u0631\u0634\u064a\u062f, Arab Hamid ar Rashid, \u0639\u0631\u0628 \u062d\u0645\u064a\u062f \u0627\u0644\u0631\u0634\u064a\u062f", "name": "\u0639\u0631\u0628 \u062d\u0645\u064a\u062f \u0627\u0644\u0631\u0634\u064a\u062f", "name:ar": "\u0639\u0631\u0628 \u062d\u0645\u064a\u062f \u0627\u0644\u0631\u0634\u064a\u062f", "name:ar1": "\u0639\u0631\u0628 \u062d\u0645\u064a\u062f \u0627\u0644\u0631\u0634\u064a\u062f", "name:de": "Arab Hamid ar Rashid", "name:en": "Arab Hamid ar Rashid", "name:fr": "Arab Hamid ar Rashid", "place": "village"}}, {"type": "node", "id": 2488434683, "lat": 34.5877221, "lon": 43.4308569, "tags": {"alt_name": "\u0628\u0633\u062a\u0627\u0646 \u0623\u0645\u064a\u0646 \u0623\u0645\u064a\u0631", "int_name": "Bust\u0101n Am\u012bn Am\u012br, Bustan Amin Amir", "name": "\u0628\u0633\u062a\u0627\u0646 \u0623\u0645\u064a\u0646 \u0623\u0645\u064a\u0631", "name:ar": "\u0628\u0633\u062a\u0627\u0646 \u0623\u0645\u064a\u0646 \u0623\u0645\u064a\u0631", "name:ar1": "\u0628\u0633\u062a\u0627\u0646 \u0623\u0645\u064a\u0646 \u0623\u0645\u064a\u0631", "name:de": "Bustan Amin Amir", "name:en": "Bustan Amin Amir", "name:fr": "Bustan Amin Amir", "place": "village"}}, {"type": "node", "id": 2488434684, "lat": 34.492109, "lon": 43.432233, "tags": {"alt_name": "\u063a\u0632\u0627\u0644 \u062c\u064a\u0627\u062f", "int_name": "Ghaz\u0101l Jiy\u0101d, \u063a\u0632\u0627\u0644 \u062c\u064a\u0627\u062f, Ghazal Jiyad, \u063a\u0632\u0627\u0644 \u062c\u064a\u0627\u062f", "name": "\u063a\u0632\u0627\u0644 \u062c\u064a\u0627\u062f", "name:ar": "\u063a\u0632\u0627\u0644 \u062c\u064a\u0627\u062f", "name:ar1": "\u063a\u0632\u0627\u0644 \u062c\u064a\u0627\u062f", "name:de": "Ghazal Jiyad", "name:en": "Ghazal Jiyad", "name:fr": "Ghazal Jiyad", "place": "village"}}, {"type": "node", "id": 2488434685, "lat": 34.512171, "lon": 43.435828, "tags": {"alt_name": "\u062d\u0645\u062f \u0641\u0631\u064a\u062d", "int_name": "\u1e28amad Far\u012b\u1e29, \u062d\u0645\u062f \u0641\u0631\u064a\u062d, Hamad Farih, \u062d\u0645\u062f \u0641\u0631\u064a\u062d", "name": "\u062d\u0645\u062f \u0641\u0631\u064a\u062d", "name:ar": "\u062d\u0645\u062f \u0641\u0631\u064a\u062d", "name:ar1": "\u062d\u0645\u062f \u0641\u0631\u064a\u062d", "name:de": "Hamad Farih", "name:en": "Hamad Farih", "name:fr": "Hamad Farih", "place": "village"}}, {"type": "node", "id": 2488434686, "lat": 34.520573, "lon": 43.427053, "tags": {"alt_name": "\u062d\u0645\u0648\u062f \u0641\u0631\u064a\u062d", "int_name": "\u1e28am\u016bd Far\u012b\u1e29, \u062d\u0645\u0648\u062f \u0641\u0631\u064a\u062d, Hamud Farih, \u062d\u0645\u0648\u062f \u0641\u0631\u064a\u062d", "name": "\u062d\u0645\u0648\u062f \u0641\u0631\u064a\u062d", "name:ar": "\u062d\u0645\u0648\u062f \u0641\u0631\u064a\u062d", "name:ar1": "\u062d\u0645\u0648\u062f \u0641\u0631\u064a\u062d", "name:de": "Hamud Farih", "name:en": "Hamud Farih", "name:fr": "Hamud Farih", "place": "village"}}, {"type": "node", "id": 2488434687, "lat": 34.504478, "lon": 43.41985, "tags": {"alt_name": "\u062d\u064a\u0627\u062f \u062d\u0644\u0648\u0629", "int_name": "\u1e28ay\u0101d \u1e28alwah, \u062d\u064a\u0627\u062f \u062d\u0644\u0648\u0629, Hayad Halwah, \u062d\u064a\u0627\u062f \u062d\u0644\u0648\u0629", "name": "\u062d\u064a\u0627\u062f \u062d\u0644\u0648\u0629", "name:ar": "\u062d\u064a\u0627\u062f \u062d\u0644\u0648\u0629", "name:ar1": "\u062d\u064a\u0627\u062f \u062d\u0644\u0648\u0629", "name:de": "Hayad Halwah", "name:en": "Hayad Halwah", "name:fr": "Hayad Halwah", "place": "village"}}, {"type": "node", "id": 2488434689, "lat": 34.524721, "lon": 43.421303, "tags": {"alt_name": "\u0625\u0633\u0645\u0627\u0639\u064a\u0644 \u0627\u0644\u0636\u0627\u062d\u064a", "int_name": "Ism\u0101\u012bl a\u1e11 \u1e10\u0101\u1e29\u012b, \u0627\u0633\u0645\u0627\u0639\u064a\u0644 \u0627\u0644\u0636\u0627\u062d\u064a, Ismail ad Dahi, \u0627\u0633\u0645\u0627\u0639\u064a\u0644 \u0627\u0644\u0636\u0627\u062d\u064a", "name": "\u0625\u0633\u0645\u0627\u0639\u064a\u0644 \u0627\u0644\u0636\u0627\u062d\u064a", "name:ar": "\u0625\u0633\u0645\u0627\u0639\u064a\u0644 \u0627\u0644\u0636\u0627\u062d\u064a", "name:ar1": "\u0625\u0633\u0645\u0627\u0639\u064a\u0644 \u0627\u0644\u0636\u0627\u062d\u064a", "name:de": "Ismail ad Dahi", "name:en": "Ismail ad Dahi", "name:fr": "Ismail ad Dahi", "place": "village"}}, {"type": "node", "id": 2488434690, "lat": 34.485767, "lon": 43.412765, "tags": {"alt_name": "\u062e\u0644\u064a\u0641\u0629 \u0634\u0644\u0627\u0644", "int_name": "Khal\u012bfat Shall\u0101l, \u062e\u0644\u064a\u0641\u0629 \u0634\u0644\u0627\u0644, Khalifat Shallal, \u062e\u0644\u064a\u0641\u0629 \u0634\u0644\u0627\u0644", "name": "\u062e\u0644\u064a\u0641\u0629 \u0634\u0644\u0627\u0644", "name:ar": "\u062e\u0644\u064a\u0641\u0629 \u0634\u0644\u0627\u0644", "name:ar1": "\u062e\u0644\u064a\u0641\u0629 \u0634\u0644\u0627\u0644", "name:de": "Khalifat Shallal", "name:en": "Khalifat Shallal", "name:fr": "Khalifat Shallal", "place": "village"}}, {"type": "node", "id": 2488434691, "lat": 34.50605, "lon": 43.433796, "tags": {"alt_name": "\u0645\u062d\u0645\u0648\u062f \u062f\u0627\u063a\u0631", "int_name": "Ma\u1e29m\u016bd D\u0101ghir, \u0645\u062d\u0645\u0648\u062f \u062f\u0627\u063a\u0631, Mahmud Daghir, \u0645\u062d\u0645\u0648\u062f \u062f\u0627\u063a\u0631", "name": "\u0645\u062d\u0645\u0648\u062f \u062f\u0627\u063a\u0631", "name:ar": "\u0645\u062d\u0645\u0648\u062f \u062f\u0627\u063a\u0631", "name:ar1": "\u0645\u062d\u0645\u0648\u062f \u062f\u0627\u063a\u0631", "name:de": "Mahmud Daghir", "name:en": "Mahmud Daghir", "name:fr": "Mahmud Daghir", "place": "village"}}, {"type": "node", "id": 2488434693, "lat": 34.544954, "lon": 43.425585, "tags": {"alt_name": "\u0645\u062d\u0645\u062f \u0639\u0628\u062f \u0627\u0644\u0644\u0647", "int_name": "Mu\u1e29ammad Abd All\u0101h, \u0645\u062d\u0645\u062f \u0639\u0628\u062f \ufdf2, Muhammad Abd Allah, \u0645\u062d\u0645\u062f \u0639\u0628\u062f \ufdf2", "name": "\u0645\u062d\u0645\u062f \u0639\u0628\u062f \u0627\u0644\u0644\u0647", "name:ar": "\u0645\u062d\u0645\u062f \u0639\u0628\u062f \u0627\u0644\u0644\u0647", "name:ar1": "\u0645\u062d\u0645\u062f \u0639\u0628\u062f \u0627\u0644\u0644\u0647", "name:de": "Muhammad Abd Allah", "name:en": "Muhammad Abd Allah", "name:fr": "Muhammad Abd Allah", "place": "village"}}, {"type": "node", "id": 2488434694, "lat": 34.52001, "lon": 43.432523, "tags": {"alt_name": "\u0645\u0634\u0631\u0641 \u0639\u0644\u064a", "int_name": "Mushrif Al\u012b, \u0645\u0634\u0631\u0641 \u0639\u0644\u064a, Mushrif Ali, \u0645\u0634\u0631\u0641 \u0639\u0644\u064a", "name": "\u0645\u0634\u0631\u0641 \u0639\u0644\u064a", "name:ar": "\u0645\u0634\u0631\u0641 \u0639\u0644\u064a", "name:ar1": "\u0645\u0634\u0631\u0641 \u0639\u0644\u064a", "name:de": "Mushrif Ali", "name:en": "Mushrif Ali", "name:fr": "Mushrif Ali", "place": "village"}}, {"type": "node", "id": 2488434695, "lat": 34.55753, "lon": 43.435583, "tags": {"alt_name": "\u0642\u0631\u064a\u0629 \u0639\u0644\u064a \u0639\u0628\u064a\u062f", "int_name": "Qaryat Al\u012b Ubayd, \u0642\u0631\u064a\u0629 \u0639\u0644\u064a \u0639\u0628\u064a\u062f, Qaryat Ali Ubayd, \u0642\u0631\u064a\u0629 \u0639\u0644\u064a \u0639\u0628\u064a\u062f", "name": "\u0642\u0631\u064a\u0629 \u0639\u0644\u064a \u0639\u0628\u064a\u062f", "name:ar": "\u0642\u0631\u064a\u0629 \u0639\u0644\u064a \u0639\u0628\u064a\u062f", "name:ar1": "\u0642\u0631\u064a\u0629 \u0639\u0644\u064a \u0639\u0628\u064a\u062f", "name:de": "Qaryat Ali Ubayd", "name:en": "Qaryat Ali Ubayd", "name:fr": "Qaryat Ali Ubayd", "place": "village"}}, {"type": "node", "id": 2488434696, "lat": 34.545412, "lon": 43.41581, "tags": {"alt_name": "\u0642\u0631\u064a\u0629 \u0627\u0644\u0635\u064a\u0647\u0627\u062a", "int_name": "Qaryat a\u015f \u015e\u012bh\u0101t, \u0642\u0631\u064a\u0629 \u0627\u0644\u0635\u064a\u0647\u0627\u062a, Qaryat as Sihat, \u0642\u0631\u064a\u0629 \u0627\u0644\u0635\u064a\u0647\u0627\u062a", "name": "\u0642\u0631\u064a\u0629 \u0627\u0644\u0635\u064a\u0647\u0627\u062a", "name:ar": "\u0642\u0631\u064a\u0629 \u0627\u0644\u0635\u064a\u0647\u0627\u062a", "name:ar1": "\u0642\u0631\u064a\u0629 \u0627\u0644\u0635\u064a\u0647\u0627\u062a", "name:de": "Qaryat as Sihat", "name:en": "Qaryat as Sihat", "name:fr": "Qaryat as Sihat", "place": "village"}}, {"type": "node", "id": 2488434697, "lat": 34.515183, "lon": 43.429008, "tags": {"alt_name": "\u0635\u0627\u0644\u062d \u063a\u0645\u0627\u062f", "int_name": "\u015e\u0101li\u1e29 Gham\u0101d, \u0635\u0627\u0644\u062d \u063a\u0645\u0627\u062f, Salih Ghamad, \u0635\u0627\u0644\u062d \u063a\u0645\u0627\u062f", "name": "\u0635\u0627\u0644\u062d \u063a\u0645\u0627\u062f", "name:ar": "\u0635\u0627\u0644\u062d \u063a\u0645\u0627\u062f", "name:ar1": "\u0635\u0627\u0644\u062d \u063a\u0645\u0627\u062f", "name:de": "Salih Ghamad", "name:en": "Salih Ghamad", "name:fr": "Salih Ghamad", "place": "village"}}, {"type": "node", "id": 2488434698, "lat": 34.578292, "lon": 43.484385, "tags": {"alt_name": "\u0635\u0627\u0644\u062d \u062d\u0644\u064a\u0628\u064a", "int_name": "\u015e\u0101li\u1e29 \u1e28al\u012bb\u012b, \u0635\u0627\u0644\u062d \u062d\u0644\u064a\u0628\u064a, Salih Halibi, \u0635\u0627\u0644\u062d \u062d\u0644\u064a\u0628\u064a", "name": "\u0635\u0627\u0644\u062d \u062d\u0644\u064a\u0628\u064a", "name:ar": "\u0635\u0627\u0644\u062d \u062d\u0644\u064a\u0628\u064a", "name:ar1": "\u0635\u0627\u0644\u062d \u062d\u0644\u064a\u0628\u064a", "name:de": "Salih Halibi", "name:en": "Salih Halibi", "name:fr": "Salih Halibi", "place": "village"}}, {"type": "node", "id": 2488434715, "lat": 34.5868975, "lon": 43.4312912, "tags": {"alt_name": "\u0628\u0633\u062a\u0627\u0646 \u0623\u0645\u064a\u0646 \u0627\u0645\u064a\u0631", "int_name": "\u0628\u0633\u062a\u0627\u0646 \u0623\u0645\u064a\u0646 \u0627\u0645\u064a\u0631, \u0628\u0633\u062a\u0627\u0646 \u0623\u0645\u064a\u0646 \u0627\u0645\u064a\u0631", "name": "\u0628\u0633\u062a\u0627\u0646 \u0623\u0645\u064a\u0646 \u0627\u0645\u064a\u0631", "name:ar": "\u0628\u0633\u062a\u0627\u0646 \u0623\u0645\u064a\u0646 \u0627\u0645\u064a\u0631", "name:ar1": "\u0628\u0633\u062a\u0627\u0646 \u0623\u0645\u064a\u0646 \u0627\u0645\u064a\u0631", "place": "village"}}, {"type": "node", "id": 2488435130, "lat": 34.626251, "lon": 43.318871, "tags": {"alt_name": "\u0639\u0628\u0627\u0633 \u0627\u0644\u0645\u0644\u0627", "int_name": "Abb\u0101s al Mull\u0101, \u0639\u0628\u0627\u0633 \u0627\u0644\u0645\u0644\u0627, Abbas al Mulla, \u0639\u0628\u0627\u0633 \u0627\u0644\u0645\u0644\u0627", "name": "\u0639\u0628\u0627\u0633 \u0627\u0644\u0645\u0644\u0627", "name:ar": "\u0639\u0628\u0627\u0633 \u0627\u0644\u0645\u0644\u0627", "name:ar1": "\u0639\u0628\u0627\u0633 \u0627\u0644\u0645\u0644\u0627", "name:de": "Abbas al Mulla", "name:en": "Abbas al Mulla", "name:fr": "Abbas al Mulla", "place": "village"}}, {"type": "node", "id": 2488435135, "lat": 34.578573, "lon": 43.373272, "tags": {"alt_name": "\u0639\u0628\u062f \u0627\u0644\u0644\u0647 \u062d\u062f\u064a\u062f", "int_name": "Abd All\u0101h \u1e28ad\u012bd, \u0639\u0628\u062f \ufdf2 \u062d\u062f\u064a\u062f, Abd Allah Hadid, \u0639\u0628\u062f \ufdf2 \u062d\u062f\u064a\u062f", "name": "\u0639\u0628\u062f \u0627\u0644\u0644\u0647 \u062d\u062f\u064a\u062f", "name:ar": "\u0639\u0628\u062f \u0627\u0644\u0644\u0647 \u062d\u062f\u064a\u062f", "name:ar1": "\u0639\u0628\u062f \u0627\u0644\u0644\u0647 \u062d\u062f\u064a\u062f", "name:de": "Abd Allah Hadid", "name:en": "Abd Allah Hadid", "name:fr": "Abd Allah Hadid", "place": "village"}}, {"type": "node", "id": 2488435141, "lat": 34.626857, "lon": 43.331825, "tags": {"alt_name": "\u0639\u0628\u062f \u062d\u0645\u064a\u062f", "int_name": "Abd \u1e28am\u012bd, \u0639\u0628\u062f \u062d\u0645\u064a\u062f, Abd Hamid, \u0639\u0628\u062f \u062d\u0645\u064a\u062f", "name": "\u0639\u0628\u062f \u062d\u0645\u064a\u062f", "name:ar": "\u0639\u0628\u062f \u062d\u0645\u064a\u062f", "name:ar1": "\u0639\u0628\u062f \u062d\u0645\u064a\u062f", "name:de": "Abd Hamid", "name:en": "Abd Hamid", "name:fr": "Abd Hamid", "place": "village"}}, {"type": "node", "id": 2488435152, "lat": 34.591083, "lon": 43.382889, "tags": {"alt_name": "\u0639\u0644\u0627\u0648\u064a \u0627\u0644\u062e\u0644\u064a\u0641\u0629", "int_name": "Al\u0101w\u012b al Khal\u012bfah, \u0639\u0644\u0627\u0648\u064a \u0627\u0644\u062e\u0644\u064a\u0641\u0629, Alawi al Khalifah, \u0639\u0644\u0627\u0648\u064a \u0627\u0644\u062e\u0644\u064a\u0641\u0629", "name": "\u0639\u0644\u0627\u0648\u064a \u0627\u0644\u062e\u0644\u064a\u0641\u0629", "name:ar": "\u0639\u0644\u0627\u0648\u064a \u0627\u0644\u062e\u0644\u064a\u0641\u0629", "name:ar1": "\u0639\u0644\u0627\u0648\u064a \u0627\u0644\u062e\u0644\u064a\u0641\u0629", "name:de": "Alawi al Khalifah", "name:en": "Alawi al Khalifah", "name:fr": "Alawi al Khalifah", "place": "village"}}, {"type": "node", "id": 2488435156, "lat": 34.63558, "lon": 43.342322, "tags": {"alt_name": "\u0639\u0644\u064a \u0645\u0646\u0641\u064a", "int_name": "Al\u012b Manf\u012b, \u0639\u0644\u064a \u0645\u0646\u0641\u064a, Ali Manfi, \u0639\u0644\u064a \u0645\u0646\u0641\u064a", "name": "\u0639\u0644\u064a \u0645\u0646\u0641\u064a", "name:ar": "\u0639\u0644\u064a \u0645\u0646\u0641\u064a", "name:ar1": "\u0639\u0644\u064a \u0645\u0646\u0641\u064a", "name:de": "Ali Manfi", "name:en": "Ali Manfi", "name:fr": "Ali Manfi", "place": "village"}}, {"type": "node", "id": 2488435157, "lat": 34.610362, "lon": 43.341696, "tags": {"alt_name": "\u0639\u0644\u064a \u0627\u0644\u062e\u0644\u064a\u0641", "int_name": "Al\u012b al Khal\u012bf, \u0639\u0644\u064a \u0627\u0644\u062e\u0644\u064a\u0641, Ali al Khalif, \u0639\u0644\u064a \u0627\u0644\u062e\u0644\u064a\u0641", "name": "\u0639\u0644\u064a \u0627\u0644\u062e\u0644\u064a\u0641", "name:ar": "\u0639\u0644\u064a \u0627\u0644\u062e\u0644\u064a\u0641", "name:ar1": "\u0639\u0644\u064a \u0627\u0644\u062e\u0644\u064a\u0641", "name:de": "Ali al Khalif", "name:en": "Ali al Khalif", "name:fr": "Ali al Khalif", "place": "village"}}, {"type": "node", "id": 2488435160, "lat": 34.596683, "lon": 43.385864, "tags": {"alt_name": "\u0639\u0644\u064a \u0627\u0644\u062e\u0644\u064a\u0641\u0629", "int_name": "Al\u012b al Khal\u012bfah, \u0639\u0644\u064a \u0627\u0644\u062e\u0644\u064a\u0641\u0647, Ali al Khalifah, \u0639\u0644\u064a \u0627\u0644\u062e\u0644\u064a\u0641\u0647", "name": "\u0639\u0644\u064a \u0627\u0644\u062e\u0644\u064a\u0641\u0629", "name:ar": "\u0639\u0644\u064a \u0627\u0644\u062e\u0644\u064a\u0641\u0629", "name:ar1": "\u0639\u0644\u064a \u0627\u0644\u062e\u0644\u064a\u0641\u0629", "name:de": "Ali al Khalifah", "name:en": "Ali al Khalifah", "name:fr": "Ali al Khalifah", "place": "village"}}, {"type": "node", "id": 2488435165, "lat": 34.624256, "lon": 43.345664, "tags": {"alt_name": "\u0623\u0645\u064a\u0646 \u0639\u0644\u064a", "int_name": "Am\u012bn Al\u012b, Amin Ali", "name": "\u0623\u0645\u064a\u0646 \u0639\u0644\u064a", "name:ar": "\u0623\u0645\u064a\u0646 \u0639\u0644\u064a", "name:ar1": "\u0623\u0645\u064a\u0646 \u0639\u0644\u064a", "name:de": "Amin Ali", "name:en": "Amin Ali", "name:fr": "Amin Ali", "place": "village"}}, {"type": "node", "id": 2488435176, "lat": 34.572955, "lon": 43.400674, "tags": {"alt_name": "\u062c\u062c\u0627\u0646 \u0625\u0628\u0631\u0627\u0647\u064a\u0645", "int_name": "Ch\u012bch\u0101n Ibr\u0101h\u012bm, \u0686\u064a\u0686\u0627\u0646 \u0627\u0628\u0631\u0627\u0647\u064a\u0645, Chichan Ibrahim, \u0686\u064a\u0686\u0627\u0646 \u0627\u0628\u0631\u0627\u0647\u064a\u0645", "name": "\u062c\u062c\u0627\u0646 \u0625\u0628\u0631\u0627\u0647\u064a\u0645", "name:ar": "\u062c\u062c\u0627\u0646 \u0625\u0628\u0631\u0627\u0647\u064a\u0645", "name:ar1": "\u062c\u062c\u0627\u0646 \u0625\u0628\u0631\u0627\u0647\u064a\u0645", "name:de": "Chichan Ibrahim", "name:en": "Chichan Ibrahim", "name:fr": "Chichan Ibrahim", "place": "village"}}, {"type": "node", "id": 2488435181, "lat": 34.578024, "lon": 43.39122, "tags": {"alt_name": "\u0641\u0647\u062f \u0634\u0644\u0627\u0644", "int_name": "Fahad Shall\u0101l, \u0641\u0647\u062f \u0634\u0644\u0627\u0644, Fahad Shallal, \u0641\u0647\u062f \u0634\u0644\u0627\u0644", "name": "\u0641\u0647\u062f \u0634\u0644\u0627\u0644", "name:ar": "\u0641\u0647\u062f \u0634\u0644\u0627\u0644", "name:ar1": "\u0641\u0647\u062f \u0634\u0644\u0627\u0644", "name:de": "Fahad Shallal", "name:en": "Fahad Shallal", "name:fr": "Fahad Shallal", "place": "village"}}, {"type": "node", "id": 2488435187, "lat": 34.60271, "lon": 43.378691, "tags": {"alt_name": "\u062d\u0644\u0641\u0629 \u0627\u0644\u0635\u0627\u0644\u062d", "int_name": "\u1e28alfah a\u015f \u015e\u0101li\u1e29, \u062d\u0644\u0641\u0647 \u0627\u0644\u0635\u0627\u0644\u062d, Halfah as Salih, \u062d\u0644\u0641\u0647 \u0627\u0644\u0635\u0627\u0644\u062d", "name": "\u062d\u0644\u0641\u0629 \u0627\u0644\u0635\u0627\u0644\u062d", "name:ar": "\u062d\u0644\u0641\u0629 \u0627\u0644\u0635\u0627\u0644\u062d", "name:ar1": "\u062d\u0644\u0641\u0629 \u0627\u0644\u0635\u0627\u0644\u062d", "name:de": "Halfah as Salih", "name:en": "Halfah as Salih", "name:fr": "Halfah as Salih", "place": "village"}}, {"type": "node", "id": 2488435192, "lat": 34.593047, "lon": 43.3241, "tags": {"alt_name": "\u062d\u0645\u0648\u062f \u0627\u0644\u0639\u0628\u062f", "int_name": "\u1e28am\u016bd al Abd, \u062d\u0645\u0648\u062f \u0627\u0644\u0639\u0628\u062f, Hamud al Abd, \u062d\u0645\u0648\u062f \u0627\u0644\u0639\u0628\u062f", "name": "\u062d\u0645\u0648\u062f \u0627\u0644\u0639\u0628\u062f", "name:ar": "\u062d\u0645\u0648\u062f \u0627\u0644\u0639\u0628\u062f", "name:ar1": "\u062d\u0645\u0648\u062f \u0627\u0644\u0639\u0628\u062f", "name:de": "Hamud al Abd", "name:en": "Hamud al Abd", "name:fr": "Hamud al Abd", "place": "village"}}, {"type": "node", "id": 2488435198, "lat": 34.651845, "lon": 43.337712, "tags": {"alt_name": "\u062d\u0646\u0641\u064a \u062d\u0633\u064a\u0646", "int_name": "\u1e28anaf\u012b \u1e28usayn, \u062d\u0646\u0641\u064a \u062d\u0633\u064a\u0646, Hanafi Husayn, \u062d\u0646\u0641\u064a \u062d\u0633\u064a\u0646", "name": "\u062d\u0646\u0641\u064a \u062d\u0633\u064a\u0646", "name:ar": "\u062d\u0646\u0641\u064a \u062d\u0633\u064a\u0646", "name:ar1": "\u062d\u0646\u0641\u064a \u062d\u0633\u064a\u0646", "name:de": "Hanafi Husayn", "name:en": "Hanafi Husayn", "name:fr": "Hanafi Husayn", "place": "village"}}, {"type": "node", "id": 2488435203, "lat": 34.580314, "lon": 43.387293, "tags": {"alt_name": "\u062d\u0646\u062a\u0648\u0634 \u062e\u0644\u0641 \u062c\u062f\u0648\u0639", "int_name": "\u1e28ant\u016bsh Khalaf Jadd\u016b, \u062d\u0646\u062a\u0648\u0634 \u062e\u0644\u0641 \u062c\u062f\u0648\u0639, Hantush Khalaf Jaddu, \u062d\u0646\u062a\u0648\u0634 \u062e\u0644\u0641 \u062c\u062f\u0648\u0639", "name": "\u062d\u0646\u062a\u0648\u0634 \u062e\u0644\u0641 \u062c\u062f\u0648\u0639", "name:ar": "\u062d\u0646\u062a\u0648\u0634 \u062e\u0644\u0641 \u062c\u062f\u0648\u0639", "name:ar1": "\u062d\u0646\u062a\u0648\u0634 \u062e\u0644\u0641 \u062c\u062f\u0648\u0639", "name:de": "Hantush Khalaf Jaddu", "name:en": "Hantush Khalaf Jaddu", "name:fr": "Hantush Khalaf Jaddu", "place": "village"}}, {"type": "node", "id": 2488435209, "lat": 34.612206, "lon": 43.387896, "tags": {"alt_name": "\u0647\u0648\u0627\u0633 \u0638\u0641\u064a\u0631", "int_name": "Haw\u0101s Z\u0327af\u012br, \u0647\u0648\u0627\u0633 \u0638\u0641\u064a\u0631, Hawas Zafir, \u0647\u0648\u0627\u0633 \u0638\u0641\u064a\u0631", "name": "\u0647\u0648\u0627\u0633 \u0638\u0641\u064a\u0631", "name:ar": "\u0647\u0648\u0627\u0633 \u0638\u0641\u064a\u0631", "name:ar1": "\u0647\u0648\u0627\u0633 \u0638\u0641\u064a\u0631", "name:de": "Hawas Zafir", "name:en": "Hawas Zafir", "name:fr": "Hawas Zafir", "place": "village"}}, {"type": "node", "id": 2488435214, "lat": 34.62099, "lon": 43.359821, "tags": {"alt_name": "\u062c\u062f\u0648\u0639 \u062d\u0645\u0648\u062f", "int_name": "Jadd\u016b \u1e28am\u016bd, \u062c\u062f\u0648\u0639 \u062d\u0645\u0648\u062f, Jaddu Hamud, \u062c\u062f\u0648\u0639 \u062d\u0645\u0648\u062f", "name": "\u062c\u062f\u0648\u0639 \u062d\u0645\u0648\u062f", "name:ar": "\u062c\u062f\u0648\u0639 \u062d\u0645\u0648\u062f", "name:ar1": "\u062c\u062f\u0648\u0639 \u062d\u0645\u0648\u062f", "name:de": "Jaddu Hamud", "name:en": "Jaddu Hamud", "name:fr": "Jaddu Hamud", "place": "village"}}, {"type": "node", "id": 2488435219, "lat": 34.62143, "lon": 43.314133, "tags": {"alt_name": "\u062c\u062f\u0648\u0639 \u062d\u0645\u0648\u062f", "int_name": "Jadd\u016b \u1e28am\u016bd, \u062c\u062f\u0648\u0639 \u062d\u0645\u0648\u062f, Jaddu Hamud, \u062c\u062f\u0648\u0639 \u062d\u0645\u0648\u062f", "name": "\u062c\u062f\u0648\u0639 \u062d\u0645\u0648\u062f", "name:ar": "\u062c\u062f\u0648\u0639 \u062d\u0645\u0648\u062f", "name:ar1": "\u062c\u062f\u0648\u0639 \u062d\u0645\u0648\u062f", "name:de": "Jaddu Hamud", "name:en": "Jaddu Hamud", "name:fr": "Jaddu Hamud", "place": "village"}}, {"type": "node", "id": 2488435225, "lat": 34.591395, "lon": 43.372531, "tags": {"alt_name": "\u062e\u0644\u0641 \u062e\u0644\u064a\u0641\u0629", "int_name": "Khalaf Khal\u012bfah, \u062e\u0644\u0641 \u062e\u0644\u064a\u0641\u0647, Khalaf Khalifah, \u062e\u0644\u0641 \u062e\u0644\u064a\u0641\u0647", "name": "\u062e\u0644\u0641 \u062e\u0644\u064a\u0641\u0629", "name:ar": "\u062e\u0644\u0641 \u062e\u0644\u064a\u0641\u0629", "name:ar1": "\u062e\u0644\u0641 \u062e\u0644\u064a\u0641\u0629", "name:de": "Khalaf Khalifah", "name:en": "Khalaf Khalifah", "name:fr": "Khalaf Khalifah", "place": "village"}}, {"type": "node", "id": 2488435231, "lat": 34.608725, "lon": 43.334002, "tags": {"alt_name": "\u062e\u0644\u0641 \u0627\u0644\u062e\u0644\u064a\u0641\u0629", "int_name": "Khalaf al Khal\u012bfah, \u062e\u0644\u0641 \u0627\u0644\u062e\u0644\u064a\u0641\u0629, Khalaf al Khalifah, \u062e\u0644\u0641 \u0627\u0644\u062e\u0644\u064a\u0641\u0629", "name": "\u062e\u0644\u0641 \u0627\u0644\u062e\u0644\u064a\u0641\u0629", "name:ar": "\u062e\u0644\u0641 \u0627\u0644\u062e\u0644\u064a\u0641\u0629", "name:ar1": "\u062e\u0644\u0641 \u0627\u0644\u062e\u0644\u064a\u0641\u0629", "name:de": "Khalaf al Khalifah", "name:en": "Khalaf al Khalifah", "name:fr": "Khalaf al Khalifah", "place": "village"}}, {"type": "node", "id": 2488435236, "lat": 34.600909, "lon": 43.361114, "tags": {"alt_name": "\u0644\u0637\u064a\u0641 \u062d\u0645\u0648\u062f", "int_name": "La\u0163\u012bf \u1e28am\u016bd, \u0644\u0637\u064a\u0641 \u062d\u0645\u0648\u062f, Latif Hamud, \u0644\u0637\u064a\u0641 \u062d\u0645\u0648\u062f", "name": "\u0644\u0637\u064a\u0641 \u062d\u0645\u0648\u062f", "name:ar": "\u0644\u0637\u064a\u0641 \u062d\u0645\u0648\u062f", "name:ar1": "\u0644\u0637\u064a\u0641 \u062d\u0645\u0648\u062f", "name:de": "Latif Hamud", "name:en": "Latif Hamud", "name:fr": "Latif Hamud", "place": "village"}}, {"type": "node", "id": 2488435241, "lat": 34.571108, "lon": 43.400212, "tags": {"alt_name": "\u0645\u062f\u0647\u0631 \u0646\u0627\u064a\u0641", "int_name": "Madhar N\u0101yif, \u0645\u062f\u0647\u0631 \u0646\u0627\u064a\u0641, Madhar Nayif, \u0645\u062f\u0647\u0631 \u0646\u0627\u064a\u0641", "name": "\u0645\u062f\u0647\u0631 \u0646\u0627\u064a\u0641", "name:ar": "\u0645\u062f\u0647\u0631 \u0646\u0627\u064a\u0641", "name:ar1": "\u0645\u062f\u0647\u0631 \u0646\u0627\u064a\u0641", "name:de": "Madhar Nayif", "name:en": "Madhar Nayif", "name:fr": "Madhar Nayif", "place": "village"}}, {"type": "node", "id": 2488435247, "lat": 34.540867, "lon": 43.382684, "tags": {"alt_name": "\u0645\u0647\u064a\u062f\u064a \u0635\u0627\u0644\u062d", "int_name": "Mah\u012bd\u012b \u015e\u0101li\u1e29, \u0645\u0647\u064a\u062f\u064a \u0635\u0627\u0644\u062d, Mahidi Salih, \u0645\u0647\u064a\u062f\u064a \u0635\u0627\u0644\u062d", "name": "\u0645\u0647\u064a\u062f\u064a \u0635\u0627\u0644\u062d", "name:ar": "\u0645\u0647\u064a\u062f\u064a \u0635\u0627\u0644\u062d", "name:ar1": "\u0645\u0647\u064a\u062f\u064a \u0635\u0627\u0644\u062d", "name:de": "Mahidi Salih", "name:en": "Mahidi Salih", "name:fr": "Mahidi Salih", "place": "village"}}, {"type": "node", "id": 2488435252, "lat": 34.575149, "lon": 43.375597, "tags": {"alt_name": "\u0645\u0631\u0639\u0628 \u062c\u062f\u064a\u062f", "int_name": "Marab Jad\u012bd, \u0645\u0631\u0639\u0628 \u062c\u062f\u064a\u062f, Marab Jadid, \u0645\u0631\u0639\u0628 \u062c\u062f\u064a\u062f", "name": "\u0645\u0631\u0639\u0628 \u062c\u062f\u064a\u062f", "name:ar": "\u0645\u0631\u0639\u0628 \u062c\u062f\u064a\u062f", "name:ar1": "\u0645\u0631\u0639\u0628 \u062c\u062f\u064a\u062f", "name:de": "Marab Jadid", "name:en": "Marab Jadid", "name:fr": "Marab Jadid", "place": "village"}}, {"type": "node", "id": 2488435263, "lat": 34.507341, "lon": 43.241316, "tags": {"alt_name": "\u0645\u0634\u0631\u062d \u0645\u0644\u0627 \u0641\u0631\u064a\u062d", "int_name": "Mashra\u1e29 Mull\u0101 Far\u012b\u1e29, \u0645\u0634\u0631\u062d \u0645\u0644\u0627 \u0641\u0631\u064a\u062d, Mashrah Mulla Farih, \u0645\u0634\u0631\u062d \u0645\u0644\u0627 \u0641\u0631\u064a\u062d", "name": "\u0645\u0634\u0631\u062d \u0645\u0644\u0627 \u0641\u0631\u064a\u062d", "name:ar": "\u0645\u0634\u0631\u062d \u0645\u0644\u0627 \u0641\u0631\u064a\u062d", "name:ar1": "\u0645\u0634\u0631\u062d \u0645\u0644\u0627 \u0641\u0631\u064a\u062d", "name:de": "Mashrah Mulla Farih", "name:en": "Mashrah Mulla Farih", "name:fr": "Mashrah Mulla Farih", "place": "village"}}, {"type": "node", "id": 2488435268, "lat": 34.6179409, "lon": 43.305649, "tags": {"alt_name": "\u0645\u062d\u0645\u062f \u062d\u0644\u064a\u0641\u0629", "int_name": "Mu\u1e29ammad \u1e28al\u012bfah, Muhammad Halifah", "name": "\u0645\u062d\u0645\u062f \u062d\u0644\u064a\u0641\u0629", "name:ar": "\u0645\u062d\u0645\u062f \u062d\u0644\u064a\u0641\u0629", "name:ar1": "\u0645\u062d\u0645\u062f \u062d\u0644\u064a\u0641\u0629", "name:de": "Muhammad Halifah", "name:en": "Muhammad Halifah", "name:fr": "Muhammad Halifah", "place": "village"}}, {"type": "node", "id": 2488435274, "lat": 34.627386, "lon": 43.322457, "tags": {"alt_name": "\u0645\u062d\u0645\u062f \u062d\u0645\u064a\u062f", "int_name": "Mu\u1e29ammad \u1e28am\u012bd, \u0645\u062d\u0645\u062f \u062d\u0645\u064a\u062f, Muhammad Hamid, \u0645\u062d\u0645\u062f \u062d\u0645\u064a\u062f", "name": "\u0645\u062d\u0645\u062f \u062d\u0645\u064a\u062f", "name:ar": "\u0645\u062d\u0645\u062f \u062d\u0645\u064a\u062f", "name:ar1": "\u0645\u062d\u0645\u062f \u062d\u0645\u064a\u062f", "name:de": "Muhammad Hamid", "name:en": "Muhammad Hamid", "name:fr": "Muhammad Hamid", "place": "village"}}, {"type": "node", "id": 2488435279, "lat": 34.574553, "lon": 43.391151, "tags": {"alt_name": "\u0646\u0627\u0647\u064a \u0630\u064a\u0627\u0628", "int_name": "N\u0101h\u012b Dhiy\u0101b, \u0646\u0627\u0647\u064a \u0630\u064a\u0627\u0628, Nahi Dhiyab, \u0646\u0627\u0647\u064a \u0630\u064a\u0627\u0628", "name": "\u0646\u0627\u0647\u064a \u0630\u064a\u0627\u0628", "name:ar": "\u0646\u0627\u0647\u064a \u0630\u064a\u0627\u0628", "name:ar1": "\u0646\u0627\u0647\u064a \u0630\u064a\u0627\u0628", "name:de": "Nahi Dhiyab", "name:en": "Nahi Dhiyab", "name:fr": "Nahi Dhiyab", "place": "village"}}, {"type": "node", "id": 2488435284, "lat": 34.621881, "lon": 43.320721, "tags": {"alt_name": "\u0646\u0627\u0635\u0631 \u062d\u0645\u0648\u062f", "int_name": "N\u0101\u015fir \u1e28am\u016bd, \u0646\u0627\u0635\u0631 \u062d\u0645\u0648\u062f, Nasir Hamud, \u0646\u0627\u0635\u0631 \u062d\u0645\u0648\u062f", "name": "\u0646\u0627\u0635\u0631 \u062d\u0645\u0648\u062f", "name:ar": "\u0646\u0627\u0635\u0631 \u062d\u0645\u0648\u062f", "name:ar1": "\u0646\u0627\u0635\u0631 \u062d\u0645\u0648\u062f", "name:de": "Nasir Hamud", "name:en": "Nasir Hamud", "name:fr": "Nasir Hamud", "place": "village"}}, {"type": "node", "id": 2488435296, "lat": 34.581406, "lon": 43.359917, "tags": {"alt_name": "\u0642\u0631\u064a\u0629 \u0641\u0631\u0639\u0645 \u0639\u064a\u0641\u0627\u0646", "int_name": "Qaryat Faram Ayf\u0101n, \u0642\u0631\u064a\u0629 \u0641\u0631\u0639\u0645 \u0639\u064a\u0641\u0627\u0646, Qaryat Faram Ayfan, \u0642\u0631\u064a\u0629 \u0641\u0631\u0639\u0645 \u0639\u064a\u0641\u0627\u0646", "name": "\u0642\u0631\u064a\u0629 \u0641\u0631\u0639\u0645 \u0639\u064a\u0641\u0627\u0646", "name:ar": "\u0642\u0631\u064a\u0629 \u0641\u0631\u0639\u0645 \u0639\u064a\u0641\u0627\u0646", "name:ar1": "\u0642\u0631\u064a\u0629 \u0641\u0631\u0639\u0645 \u0639\u064a\u0641\u0627\u0646", "name:de": "Qaryat Faram Ayfan", "name:en": "Qaryat Faram Ayfan", "name:fr": "Qaryat Faram Ayfan", "place": "village"}}, {"type": "node", "id": 2488435301, "lat": 34.560746, "lon": 43.404522, "tags": {"alt_name": "\u0642\u0631\u064a\u0629 \u0642\u0648\u0639\u0627\u0646", "int_name": "Qaryat Qaw\u0101n, \u0642\u0631\u064a\u0629 \u0642\u0648\u0639\u0627\u0646, Qaryat Qawan, \u0642\u0631\u064a\u0629 \u0642\u0648\u0639\u0627\u0646", "name": "\u0642\u0631\u064a\u0629 \u0642\u0648\u0639\u0627\u0646", "name:ar": "\u0642\u0631\u064a\u0629 \u0642\u0648\u0639\u0627\u0646", "name:ar1": "\u0642\u0631\u064a\u0629 \u0642\u0648\u0639\u0627\u0646", "name:de": "Qaryat Qawan", "name:en": "Qaryat Qawan", "name:fr": "Qaryat Qawan", "place": "village"}}, {"type": "node", "id": 2488435306, "lat": 34.596246, "lon": 43.372138, "tags": {"alt_name": "\u0635\u0627\u0644\u062d \u0633\u0647\u064a\u0644", "int_name": "\u015e\u0101li\u1e29 Suhayl, \u0635\u0627\u0644\u062d \u0633\u0647\u064a\u0644, Salih Suhayl, \u0635\u0627\u0644\u062d \u0633\u0647\u064a\u0644", "name": "\u0635\u0627\u0644\u062d \u0633\u0647\u064a\u0644", "name:ar": "\u0635\u0627\u0644\u062d \u0633\u0647\u064a\u0644", "name:ar1": "\u0635\u0627\u0644\u062d \u0633\u0647\u064a\u0644", "name:de": "Salih Suhayl", "name:en": "Salih Suhayl", "name:fr": "Salih Suhayl", "place": "village"}}, {"type": "node", "id": 2488435312, "lat": 34.621038, "lon": 43.328655, "tags": {"alt_name": "\u0635\u0627\u0644\u062d \u0633\u0647\u064a\u0644", "int_name": "\u015e\u0101li\u1e29 Suhayl, \u0635\u0627\u0644\u062d \u0633\u0647\u064a\u0644, Salih Suhayl, \u0635\u0627\u0644\u062d \u0633\u0647\u064a\u0644", "name": "\u0635\u0627\u0644\u062d \u0633\u0647\u064a\u0644", "name:ar": "\u0635\u0627\u0644\u062d \u0633\u0647\u064a\u0644", "name:ar1": "\u0635\u0627\u0644\u062d \u0633\u0647\u064a\u0644", "name:de": "Salih Suhayl", "name:en": "Salih Suhayl", "name:fr": "Salih Suhayl", "place": "village"}}, {"type": "node", "id": 2488435314, "lat": 34.576873, "lon": 43.393868, "tags": {"alt_name": "\u0633\u0631\u062d\u0627\u0646 \u0630\u064a\u0627\u0628", "int_name": "Sir\u1e29\u0101n Dhiy\u0101b, \u0633\u0631\u062d\u0627\u0646 \u0630\u064a\u0627\u0628, Sirhan Dhiyab, \u0633\u0631\u062d\u0627\u0646 \u0630\u064a\u0627\u0628", "name": "\u0633\u0631\u062d\u0627\u0646 \u0630\u064a\u0627\u0628", "name:ar": "\u0633\u0631\u062d\u0627\u0646 \u0630\u064a\u0627\u0628", "name:ar1": "\u0633\u0631\u062d\u0627\u0646 \u0630\u064a\u0627\u0628", "name:de": "Sirhan Dhiyab", "name:en": "Sirhan Dhiyab", "name:fr": "Sirhan Dhiyab", "place": "village"}}, {"type": "node", "id": 2488435318, "lat": 34.597141, "lon": 43.333384, "tags": {"alt_name": "\u0637\u0627\u0645\u064a \u062d\u0645\u0648\u062f", "int_name": "\u0162\u0101m\u012b \u1e28am\u016bd, \u0637\u0627\u0645\u064a \u062d\u0645\u0648\u062f, Tami Hamud, \u0637\u0627\u0645\u064a \u062d\u0645\u0648\u062f", "name": "\u0637\u0627\u0645\u064a \u062d\u0645\u0648\u062f", "name:ar": "\u0637\u0627\u0645\u064a \u062d\u0645\u0648\u062f", "name:ar1": "\u0637\u0627\u0645\u064a \u062d\u0645\u0648\u062f", "name:de": "Tami Hamud", "name:en": "Tami Hamud", "name:fr": "Tami Hamud", "place": "village"}}, {"type": "node", "id": 2488435323, "lat": 34.631669, "lon": 43.330093, "tags": {"alt_name": "\u062a\u0631\u0643\u064a \u0635\u0641\u064a\u0631", "int_name": "Turk\u012b \u015eaf\u012br, \u062a\u0631\u0643\u064a \u0635\u0641\u064a\u0631, Turki Safir, \u062a\u0631\u0643\u064a \u0635\u0641\u064a\u0631", "name": "\u062a\u0631\u0643\u064a \u0635\u0641\u064a\u0631", "name:ar": "\u062a\u0631\u0643\u064a \u0635\u0641\u064a\u0631", "name:ar1": "\u062a\u0631\u0643\u064a \u0635\u0641\u064a\u0631", "name:de": "Turki Safir", "name:en": "Turki Safir", "name:fr": "Turki Safir", "place": "village"}}, {"type": "node", "id": 2488435328, "lat": 34.550616, "lon": 43.371371, "tags": {"alt_name": "\u0639\u0628\u064a\u062f \u0646\u062c\u0645", "int_name": "Ubayd Najm, \u0639\u0628\u064a\u062f \u0646\u062c\u0645, Ubayd Najm, \u0639\u0628\u064a\u062f \u0646\u062c\u0645", "name": "\u0639\u0628\u064a\u062f \u0646\u062c\u0645", "name:ar": "\u0639\u0628\u064a\u062f \u0646\u062c\u0645", "name:ar1": "\u0639\u0628\u064a\u062f \u0646\u062c\u0645", "name:de": "Ubayd Najm", "name:en": "Ubayd Najm", "name:fr": "Ubayd Najm", "place": "village"}}, {"type": "node", "id": 2489241168, "lat": 34.36928, "lon": 42.959127, "tags": {"alt_name": "\u062f\u064a\u0627\u0628 \u0648\u062d\u0634", "int_name": "Diy\u0101b Wa\u1e29sh, \u062f\u064a\u0627\u0628 \u0648\u062d\u0634, Diyab Wahsh, \u062f\u064a\u0627\u0628 \u0648\u062d\u0634", "name": "\u062f\u064a\u0627\u0628 \u0648\u062d\u0634", "name:ar": "\u062f\u064a\u0627\u0628 \u0648\u062d\u0634", "name:ar1": "\u062f\u064a\u0627\u0628 \u0648\u062d\u0634", "name:de": "Diyab Wahsh", "name:en": "Diyab Wahsh", "name:fr": "Diyab Wahsh", "place": "village"}}, {"type": "node", "id": 2489241173, "lat": 34.320945, "lon": 42.981957, "tags": {"alt_name": "\u0642\u0631\u064a\u0629 \u064a\u0648\u0633\u0641", "int_name": "Qaryat Y\u016bsuf, \u0642\u0631\u064a\u0629 \u064a\u0648\u0633\u0641, Qaryat Yusuf, \u0642\u0631\u064a\u0629 \u064a\u0648\u0633\u0641", "name": "\u0642\u0631\u064a\u0629 \u064a\u0648\u0633\u0641", "name:ar": "\u0642\u0631\u064a\u0629 \u064a\u0648\u0633\u0641", "name:ar1": "\u0642\u0631\u064a\u0629 \u064a\u0648\u0633\u0641", "name:de": "Qaryat Yusuf", "name:en": "Qaryat Yusuf", "name:fr": "Qaryat Yusuf", "place": "village"}}, {"type": "node", "id": 2489241175, "lat": 34.352929, "lon": 42.984892, "tags": {"alt_name": "\u0642\u0631\u064a\u0629 \u0627\u0644\u0633\u062d\u0644", "int_name": "Qaryat as Sa\u1e29al, \u0642\u0631\u064a\u0629 \u0627\u0644\u0633\u062d\u0644, Qaryat as Sahal, \u0642\u0631\u064a\u0629 \u0627\u0644\u0633\u062d\u0644", "name": "\u0642\u0631\u064a\u0629 \u0627\u0644\u0633\u062d\u0644", "name:ar": "\u0642\u0631\u064a\u0629 \u0627\u0644\u0633\u062d\u0644", "name:ar1": "\u0642\u0631\u064a\u0629 \u0627\u0644\u0633\u062d\u0644", "name:de": "Qaryat as Sahal", "name:en": "Qaryat as Sahal", "name:fr": "Qaryat as Sahal", "place": "village"}}, {"type": "node", "id": 2489241226, "lat": 34.451681, "lon": 43.040719, "tags": {"alt_name": "\u0639\u0631\u0628 \u0622\u0644 \u0628\u0648 \u0646\u0645\u0631", "int_name": "Arab \u0100lb\u016b Nimr, \u0639\u0631\u0628 \u0627\u0644\u0628\u0648 \u0646\u0645\u0631, Arab Albu Nimr, \u0639\u0631\u0628 \u0627\u0644\u0628\u0648 \u0646\u0645\u0631", "name": "\u0639\u0631\u0628 \u0622\u0644 \u0628\u0648 \u0646\u0645\u0631", "name:ar": "\u0639\u0631\u0628 \u0622\u0644 \u0628\u0648 \u0646\u0645\u0631", "name:ar1": "\u0639\u0631\u0628 \u0622\u0644 \u0628\u0648 \u0646\u0645\u0631", "name:de": "Arab Albu Nimr", "name:en": "Arab Albu Nimr", "name:fr": "Arab Albu Nimr", "place": "village"}}, {"type": "node", "id": 2489241227, "lat": 34.404595, "lon": 43.040171, "tags": {"alt_name": "\u0639\u0631\u0628 \u0645\u062e\u0644\u0641 \u0641\u064a\u0627\u0636", "int_name": "Arab Makhlaf Fayy\u0101\u1e11, Arab Mukhlif Fayy\u0101\u1e11, \u0639\u0631\u0628 \u0645\u062e\u0644\u0641 \u0641\u064a\u0627\u0636, Arab Makhlaf Fayyad, Arab Mukhlif Fayyad, \u0639\u0631\u0628 \u0645\u062e\u0644\u0641 \u0641\u064a\u0627\u0636", "name": "\u0639\u0631\u0628 \u0645\u062e\u0644\u0641 \u0641\u064a\u0627\u0636", "name:ar": "\u0639\u0631\u0628 \u0645\u062e\u0644\u0641 \u0641\u064a\u0627\u0636", "name:ar1": "\u0639\u0631\u0628 \u0645\u062e\u0644\u0641 \u0641\u064a\u0627\u0636", "name:de": "Arab Makhlaf Fayyad", "name:en": "Arab Makhlaf Fayyad", "name:fr": "Arab Makhlaf Fayyad", "place": "village"}}, {"type": "node", "id": 2489241229, "lat": 34.487939, "lon": 42.991995, "tags": {"alt_name": "\u0639\u064a\u0646 \u0627\u0644\u062f\u0628\u0633", "int_name": "Ayn ad Dibs, \u0639\u064a\u0646 \u0627\u0644\u062f\u0628\u0633, Ayn ad Dibs, \u0639\u064a\u0646 \u0627\u0644\u062f\u0628\u0633", "name": "\u0639\u064a\u0646 \u0627\u0644\u062f\u0628\u0633", "name:ar": "\u0639\u064a\u0646 \u0627\u0644\u062f\u0628\u0633", "name:ar1": "\u0639\u064a\u0646 \u0627\u0644\u062f\u0628\u0633", "name:de": "Ayn ad Dibs", "name:en": "Ayn ad Dibs", "name:fr": "Ayn ad Dibs", "place": "village"}}, {"type": "node", "id": 2489241230, "lat": 34.534696, "lon": 43.022798, "tags": {"alt_name": "\u0645\u0634\u0639\u0644 \u062a\u0631\u0643\u064a", "int_name": "Mashal Turk\u012b, \u0645\u0634\u0639\u0644 \u062a\u0631\u0643\u064a, Mashal Turki, \u0645\u0634\u0639\u0644 \u062a\u0631\u0643\u064a", "name": "\u0645\u0634\u0639\u0644 \u062a\u0631\u0643\u064a", "name:ar": "\u0645\u0634\u0639\u0644 \u062a\u0631\u0643\u064a", "name:ar1": "\u0645\u0634\u0639\u0644 \u062a\u0631\u0643\u064a", "name:de": "Mashal Turki", "name:en": "Mashal Turki", "name:fr": "Mashal Turki", "place": "village"}}, {"type": "node", "id": 2489241231, "lat": 34.531134, "lon": 43.02298, "tags": {"alt_name": "\u0645\u062d\u0645\u062f \u0635\u0627\u0644\u062d", "int_name": "Mu\u1e29ammad \u015e\u0101li\u1e29, \u0645\u062d\u0645\u062f \u0635\u0627\u0644\u062d, Muhammad Salih, \u0645\u062d\u0645\u062f \u0635\u0627\u0644\u062d", "name": "\u0645\u062d\u0645\u062f \u0635\u0627\u0644\u062d", "name:ar": "\u0645\u062d\u0645\u062f \u0635\u0627\u0644\u062d", "name:ar1": "\u0645\u062d\u0645\u062f \u0635\u0627\u0644\u062d", "name:de": "Muhammad Salih", "name:en": "Muhammad Salih", "name:fr": "Muhammad Salih", "place": "village"}}, {"type": "node", "id": 2489241232, "lat": 34.476109, "lon": 43.018567, "tags": {"alt_name": "\u0642\u0631\u064a\u0629 \u0623\u0645 \u062f\u0628\u0633", "int_name": "Qaryat Umm Dibs, \u0642\u0631\u064a\u0629 \u0627\u0645 \u062f\u0628\u0633, Qaryat Umm Dibs, \u0642\u0631\u064a\u0629 \u0627\u0645 \u062f\u0628\u0633", "name": "\u0642\u0631\u064a\u0629 \u0623\u0645 \u062f\u0628\u0633", "name:ar": "\u0642\u0631\u064a\u0629 \u0623\u0645 \u062f\u0628\u0633", "name:ar1": "\u0642\u0631\u064a\u0629 \u0623\u0645 \u062f\u0628\u0633", "name:de": "Qaryat Umm Dibs", "name:en": "Qaryat Umm Dibs", "name:fr": "Qaryat Umm Dibs", "place": "village"}}, {"type": "node", "id": 2489241233, "lat": 34.433215, "lon": 42.998855, "tags": {"alt_name": "\u0642\u0631\u064a\u0629 \u0623\u0645 \u062c\u0645\u0644", "int_name": "Qaryat Umm Jamal, Umm Jamal, \u0627\u0645 \u062c\u0645\u0644, \u0642\u0631\u064a\u0629 \u0627\u0645 \u062c\u0645\u0644, Qaryat Umm Jamal, Umm Jamal, \u0627\u0645 \u062c\u0645\u0644, \u0642\u0631\u064a\u0629 \u0627\u0645 \u062c\u0645\u0644", "name": "\u0642\u0631\u064a\u0629 \u0623\u0645 \u062c\u0645\u0644", "name:ar": "\u0642\u0631\u064a\u0629 \u0623\u0645 \u062c\u0645\u0644", "name:ar1": "\u0642\u0631\u064a\u0629 \u0623\u0645 \u062c\u0645\u0644", "name:de": "Qaryat Umm Jamal", "name:en": "Qaryat Umm Jamal", "name:fr": "Qaryat Umm Jamal", "place": "village"}}, {"type": "node", "id": 2489241234, "lat": 34.376049, "lon": 43.039076, "tags": {"alt_name": "\u0642\u0631\u064a\u0629 \u0623\u0645 \u0627\u0644\u0645\u0637\u0627\u0641\u064a\u0644", "int_name": "Qaryat Umm al Mu\u0163\u0101f\u012bl, \u0642\u0631\u064a\u0629 \u0627\u0645 \u0627\u0644\u0645\u0637\u0627\u0641\u064a\u0644, Qaryat Umm al Mutafil, \u0642\u0631\u064a\u0629 \u0627\u0645 \u0627\u0644\u0645\u0637\u0627\u0641\u064a\u0644", "name": "\u0642\u0631\u064a\u0629 \u0623\u0645 \u0627\u0644\u0645\u0637\u0627\u0641\u064a\u0644", "name:ar": "\u0642\u0631\u064a\u0629 \u0623\u0645 \u0627\u0644\u0645\u0637\u0627\u0641\u064a\u0644", "name:ar1": "\u0642\u0631\u064a\u0629 \u0623\u0645 \u0627\u0644\u0645\u0637\u0627\u0641\u064a\u0644", "name:de": "Qaryat Umm al Mutafil", "name:en": "Qaryat Umm al Mutafil", "name:fr": "Qaryat Umm al Mutafil", "place": "village"}}, {"type": "node", "id": 2489241235, "lat": 34.541974, "lon": 43.064106, "tags": {"alt_name": "\u0642\u0631\u064a\u0629 \u0627\u0644\u062f\u064a\u0627\u0646", "int_name": "Qaryat ad Diy\u0101n, \u0642\u0631\u064a\u0629 \u0627\u0644\u062f\u064a\u0627\u0646, Qaryat ad Diyan, \u0642\u0631\u064a\u0629 \u0627\u0644\u062f\u064a\u0627\u0646", "name": "\u0642\u0631\u064a\u0629 \u0627\u0644\u062f\u064a\u0627\u0646", "name:ar": "\u0642\u0631\u064a\u0629 \u0627\u0644\u062f\u064a\u0627\u0646", "name:ar1": "\u0642\u0631\u064a\u0629 \u0627\u0644\u062f\u064a\u0627\u0646", "name:de": "Qaryat ad Diyan", "name:en": "Qaryat ad Diyan", "name:fr": "Qaryat ad Diyan", "place": "village"}}, {"type": "node", "id": 2489241236, "lat": 34.411485, "lon": 43.172069, "tags": {"alt_name": "\u0642\u0631\u064a\u0629 \u0627\u0644\u0623\u0637\u0643\u064a\u0639\u064a\u0627\u062a", "int_name": "Qaryat al A\u0163ag\u012by\u0101t, \u0642\u0631\u064a\u0629 \u0627\u0644\u0627\u0637\u06af\u064a\u0639\u064a\u0627\u062a, Qaryat al Atagiyat, \u0642\u0631\u064a\u0629 \u0627\u0644\u0627\u0637\u06af\u064a\u0639\u064a\u0627\u062a", "name": "\u0642\u0631\u064a\u0629 \u0627\u0644\u0623\u0637\u0643\u064a\u0639\u064a\u0627\u062a", "name:ar": "\u0642\u0631\u064a\u0629 \u0627\u0644\u0623\u0637\u0643\u064a\u0639\u064a\u0627\u062a", "name:ar1": "\u0642\u0631\u064a\u0629 \u0627\u0644\u0623\u0637\u0643\u064a\u0639\u064a\u0627\u062a", "name:de": "Qaryat al Atagiyat", "name:en": "Qaryat al Atagiyat", "name:fr": "Qaryat al Atagiyat", "place": "village"}}, {"type": "node", "id": 2489241237, "lat": 34.440105, "lon": 43.100262, "tags": {"alt_name": "\u0642\u0631\u064a\u0629 \u0627\u0644\u062d\u0635\u0649 \u0627\u0644\u062c\u062f\u064a\u062f\u0629", "int_name": "Qaryat al \u1e28a\u015f\u00e1 al Jad\u012bdah, \u0642\u0631\u064a\u0629 \u0627\u0644\u062d\u0635\u0649 \u0627\u0644\u062c\u062f\u064a\u062f\u0629, Qaryat al Hasa al Jadidah, \u0642\u0631\u064a\u0629 \u0627\u0644\u062d\u0635\u0649 \u0627\u0644\u062c\u062f\u064a\u062f\u0629", "name": "\u0642\u0631\u064a\u0629 \u0627\u0644\u062d\u0635\u0649 \u0627\u0644\u062c\u062f\u064a\u062f\u0629", "name:ar": "\u0642\u0631\u064a\u0629 \u0627\u0644\u062d\u0635\u0649 \u0627\u0644\u062c\u062f\u064a\u062f\u0629", "name:ar1": "\u0642\u0631\u064a\u0629 \u0627\u0644\u062d\u0635\u0649 \u0627\u0644\u062c\u062f\u064a\u062f\u0629", "name:de": "Qaryat al Hasa al Jadidah", "name:en": "Qaryat al Hasa al Jadidah", "name:fr": "Qaryat al Hasa al Jadidah", "place": "village"}}, {"type": "node", "id": 2489241238, "lat": 34.468123, "lon": 43.134168, "tags": {"alt_name": "\u0642\u0631\u064a\u0629 \u0627\u0644\u062d\u0635\u0649 \u0627\u0644\u0642\u062f\u064a\u0645\u0629", "int_name": "Qaryat al \u1e28a\u015f\u00e1 al Qad\u012bmah, \u0642\u0631\u064a\u0629 \u0627\u0644\u062d\u0635\u0649 \u0627\u0644\u0642\u062f\u064a\u0645\u0629, Qaryat al Hasa al Qadimah, \u0642\u0631\u064a\u0629 \u0627\u0644\u062d\u0635\u0649 \u0627\u0644\u0642\u062f\u064a\u0645\u0629", "name": "\u0642\u0631\u064a\u0629 \u0627\u0644\u062d\u0635\u0649 \u0627\u0644\u0642\u062f\u064a\u0645\u0629", "name:ar": "\u0642\u0631\u064a\u0629 \u0627\u0644\u062d\u0635\u0649 \u0627\u0644\u0642\u062f\u064a\u0645\u0629", "name:ar1": "\u0642\u0631\u064a\u0629 \u0627\u0644\u062d\u0635\u0649 \u0627\u0644\u0642\u062f\u064a\u0645\u0629", "name:de": "Qaryat al Hasa al Qadimah", "name:en": "Qaryat al Hasa al Qadimah", "name:fr": "Qaryat al Hasa al Qadimah", "place": "village"}}, {"type": "node", "id": 2489241239, "lat": 34.459852, "lon": 43.097844, "tags": {"alt_name": "\u0642\u0631\u064a\u0629 \u0627\u0644\u062d\u0635\u0649", "int_name": "Qaryat al \u1e28a\u015f\u00e1, \u0642\u0631\u064a\u0629 \u0627\u0644\u062d\u0635\u0649, Qaryat al Hasa, \u0642\u0631\u064a\u0629 \u0627\u0644\u062d\u0635\u0649", "name": "\u0642\u0631\u064a\u0629 \u0627\u0644\u062d\u0635\u0649", "name:ar": "\u0642\u0631\u064a\u0629 \u0627\u0644\u062d\u0635\u0649", "name:ar1": "\u0642\u0631\u064a\u0629 \u0627\u0644\u062d\u0635\u0649", "name:de": "Qaryat al Hasa", "name:en": "Qaryat al Hasa", "name:fr": "Qaryat al Hasa", "place": "village"}}, {"type": "node", "id": 2489241240, "lat": 34.506392, "lon": 43.074855, "tags": {"alt_name": "\u062a\u0644 \u0623\u0645 \u0627\u0644\u062f\u0628\u0633", "int_name": "Tall Umm ad Dibbs, \u062a\u0644 \u0627\u0645 \u0627\u0644\u062f\u0628\u0633, Tall Umm ad Dibbs, \u062a\u0644 \u0627\u0645 \u0627\u0644\u062f\u0628\u0633", "name": "\u062a\u0644 \u0623\u0645 \u0627\u0644\u062f\u0628\u0633", "name:ar": "\u062a\u0644 \u0623\u0645 \u0627\u0644\u062f\u0628\u0633", "name:ar1": "\u062a\u0644 \u0623\u0645 \u0627\u0644\u062f\u0628\u0633", "name:de": "Tall Umm ad Dibbs", "name:en": "Tall Umm ad Dibbs", "name:fr": "Tall Umm ad Dibbs", "place": "village"}}, {"type": "node", "id": 2489241242, "lat": 34.538252, "lon": 42.965843, "tags": {"alt_name": "\u0623\u0645 \u0627\u0644\u0645\u0639\u0627\u0644\u0641", "int_name": "Umm al Ma\u0101lif, \u0627\u0645 \u0627\u0644\u0645\u0639\u0627\u0644\u0641, Umm al Maalif, \u0627\u0645 \u0627\u0644\u0645\u0639\u0627\u0644\u0641", "name": "\u0623\u0645 \u0627\u0644\u0645\u0639\u0627\u0644\u0641", "name:ar": "\u0623\u0645 \u0627\u0644\u0645\u0639\u0627\u0644\u0641", "name:ar1": "\u0623\u0645 \u0627\u0644\u0645\u0639\u0627\u0644\u0641", "name:de": "Umm al Maalif", "name:en": "Umm al Maalif", "name:fr": "Umm al Maalif", "place": "village"}}, {"type": "node", "id": 2489246698, "lat": 34.678749, "lon": 43.088168, "tags": {"alt_name": "\u0627\u0644\u0623\u0648\u0633\u064a\u0637", "int_name": "Al Awysi\u0163, \u0627\u0644\u0627\u0648\u0633\u064a\u0637, Al Awysit, \u0627\u0644\u0627\u0648\u0633\u064a\u0637", "name": "\u0627\u0644\u0623\u0648\u0633\u064a\u0637", "name:ar": "\u0627\u0644\u0623\u0648\u0633\u064a\u0637", "name:ar1": "\u0627\u0644\u0623\u0648\u0633\u064a\u0637", "name:de": "Al Awysit", "name:en": "Al Awysit", "name:fr": "Al Awysit", "place": "village"}}, {"type": "node", "id": 2489246702, "lat": 34.698259, "lon": 42.971461, "tags": {"alt_name": "\u0627\u0644\u0635\u0648\u0641\u064a", "int_name": "A\u015f \u015e\u016bf\u012b, \u0627\u0644\u0635\u0648\u0641\u064a, As Sufi, \u0627\u0644\u0635\u0648\u0641\u064a", "name": "\u0627\u0644\u0635\u0648\u0641\u064a", "name:ar": "\u0627\u0644\u0635\u0648\u0641\u064a", "name:ar1": "\u0627\u0644\u0635\u0648\u0641\u064a", "name:de": "As Sufi", "name:en": "As Sufi", "name:fr": "As Sufi", "place": "village"}}, {"type": "node", "id": 2489246717, "lat": 34.747945, "lon": 43.098619, "tags": {"alt_name": "\u0645\u062d\u0645\u062f \u062f\u0648\u064a\u062d", "int_name": "Mu\u1e29ammad Duway\u1e29, \u0645\u062d\u0645\u062f \u062f\u0648\u064a\u062d, Muhammad Duwayh, \u0645\u062d\u0645\u062f \u062f\u0648\u064a\u062d", "name": "\u0645\u062d\u0645\u062f \u062f\u0648\u064a\u062d", "name:ar": "\u0645\u062d\u0645\u062f \u062f\u0648\u064a\u062d", "name:ar1": "\u0645\u062d\u0645\u062f \u062f\u0648\u064a\u062d", "name:de": "Muhammad Duwayh", "name:en": "Muhammad Duwayh", "name:fr": "Muhammad Duwayh", "place": "village"}}, {"type": "node", "id": 2489246722, "lat": 34.668453, "lon": 43.087456, "tags": {"alt_name": "\u0642\u0631\u064a\u0629 \u0627\u0644\u0645\u062f", "int_name": "Qaryat al Madd, \u0642\u0631\u064a\u0629 \u0627\u0644\u0645\u062f, Qaryat al Madd, \u0642\u0631\u064a\u0629 \u0627\u0644\u0645\u062f", "name": "\u0642\u0631\u064a\u0629 \u0627\u0644\u0645\u062f", "name:ar": "\u0642\u0631\u064a\u0629 \u0627\u0644\u0645\u062f", "name:ar1": "\u0642\u0631\u064a\u0629 \u0627\u0644\u0645\u062f", "name:de": "Qaryat al Madd", "name:en": "Qaryat al Madd", "name:fr": "Qaryat al Madd", "place": "village"}}, {"type": "node", "id": 2489246723, "lat": 34.698346, "lon": 43.080771, "tags": {"alt_name": "\u0642\u0631\u064a\u0629 \u0627\u0644\u0645\u0627\u0644\u062d", "int_name": "Qaryat al M\u0101li\u1e29, \u0642\u0631\u064a\u0629 \u0627\u0644\u0645\u0627\u0644\u062d, Qaryat al Malih, \u0642\u0631\u064a\u0629 \u0627\u0644\u0645\u0627\u0644\u062d", "name": "\u0642\u0631\u064a\u0629 \u0627\u0644\u0645\u0627\u0644\u062d", "name:ar": "\u0642\u0631\u064a\u0629 \u0627\u0644\u0645\u0627\u0644\u062d", "name:ar1": "\u0642\u0631\u064a\u0629 \u0627\u0644\u0645\u0627\u0644\u062d", "name:de": "Qaryat al Malih", "name:en": "Qaryat al Malih", "name:fr": "Qaryat al Malih", "place": "village"}}, {"type": "node", "id": 2489246822, "lat": 34.611482, "lon": 43.086358, "tags": {"alt_name": "\u0639\u0628\u062f \u0639\u0627\u0628\u062f", "int_name": "Abd \u0100bid, \u0639\u0628\u062f \u0639\u0627\u0628\u062f, Abd Abid, \u0639\u0628\u062f \u0639\u0627\u0628\u062f", "name": "\u0639\u0628\u062f \u0639\u0627\u0628\u062f", "name:ar": "\u0639\u0628\u062f \u0639\u0627\u0628\u062f", "name:ar1": "\u0639\u0628\u062f \u0639\u0627\u0628\u062f", "name:de": "Abd Abid", "name:en": "Abd Abid", "name:fr": "Abd Abid", "place": "village"}}, {"type": "node", "id": 2489246823, "lat": 34.612931, "lon": 43.087098, "tags": {"alt_name": "\u0639\u0628\u062f \u0627\u0644\u0644\u0647 \u0639\u0627\u0628\u062f", "int_name": "Abd All\u0101h \u0100bid, \u0639\u0628\u062f \ufdf2 \u0639\u0627\u0628\u062f, Abd Allah Abid, \u0639\u0628\u062f \ufdf2 \u0639\u0627\u0628\u062f", "name": "\u0639\u0628\u062f \u0627\u0644\u0644\u0647 \u0639\u0627\u0628\u062f", "name:ar": "\u0639\u0628\u062f \u0627\u0644\u0644\u0647 \u0639\u0627\u0628\u062f", "name:ar1": "\u0639\u0628\u062f \u0627\u0644\u0644\u0647 \u0639\u0627\u0628\u062f", "name:de": "Abd Allah Abid", "name:en": "Abd Allah Abid", "name:fr": "Abd Allah Abid", "place": "village"}}, {"type": "node", "id": 2489246826, "lat": 34.716398, "lon": 43.211953, "tags": {"alt_name": "\u0639\u0628\u062f \u0628\u062f\u064a\u0648\u064a", "int_name": "Abd Badayw\u012b, \u0639\u0628\u062f \u0628\u062f\u064a\u0648\u064a, Abd Badaywi, \u0639\u0628\u062f \u0628\u062f\u064a\u0648\u064a", "name": "\u0639\u0628\u062f \u0628\u062f\u064a\u0648\u064a", "name:ar": "\u0639\u0628\u062f \u0628\u062f\u064a\u0648\u064a", "name:ar1": "\u0639\u0628\u062f \u0628\u062f\u064a\u0648\u064a", "name:de": "Abd Badaywi", "name:en": "Abd Badaywi", "name:fr": "Abd Badaywi", "place": "village"}}, {"type": "node", "id": 2489246827, "lat": 34.703985, "lon": 43.127977, "tags": {"alt_name": "\u0639\u0628\u062f \u0634\u0644\u0627\u0634", "int_name": "Abd Shal\u0101sh, \u0639\u0628\u062f \u0634\u0644\u0627\u0634, Abd Shalash, \u0639\u0628\u062f \u0634\u0644\u0627\u0634", "name": "\u0639\u0628\u062f \u0634\u0644\u0627\u0634", "name:ar": "\u0639\u0628\u062f \u0634\u0644\u0627\u0634", "name:ar1": "\u0639\u0628\u062f \u0634\u0644\u0627\u0634", "name:de": "Abd Shalash", "name:en": "Abd Shalash", "name:fr": "Abd Shalash", "place": "village"}}, {"type": "node", "id": 2489246830, "lat": 34.610141, "lon": 43.086485, "tags": {"alt_name": "\u0639\u0628\u0648\u062f \u0639\u0627\u0628\u062f", "int_name": "Ab\u016bd \u0100bid, \u0639\u0628\u0648\u062f \u0639\u0627\u0628\u062f, Abud Abid, \u0639\u0628\u0648\u062f \u0639\u0627\u0628\u062f", "name": "\u0639\u0628\u0648\u062f \u0639\u0627\u0628\u062f", "name:ar": "\u0639\u0628\u0648\u062f \u0639\u0627\u0628\u062f", "name:ar1": "\u0639\u0628\u0648\u062f \u0639\u0627\u0628\u062f", "name:de": "Abud Abid", "name:en": "Abud Abid", "name:fr": "Abud Abid", "place": "village"}}, {"type": "node", "id": 2489246838, "lat": 34.6723147, "lon": 43.2034898, "tags": {"alt_name": "\u0639\u0631\u0628 \u0622\u0644 \u0628\u0648 \u062a\u0645\u0631", "int_name": "Arab \u0100lb\u016b Tamr, \u0639\u0631\u0628 \u0627\u0644\u0628\u0648 \u062a\u0645\u0631, Arab Albu Tamr, \u0639\u0631\u0628 \u0627\u0644\u0628\u0648 \u062a\u0645\u0631", "name": "\u0639\u0631\u0628 \u0622\u0644 \u0628\u0648 \u062a\u0645\u0631", "name:ar": "\u0639\u0631\u0628 \u0622\u0644 \u0628\u0648 \u062a\u0645\u0631", "name:ar1": "\u0639\u0631\u0628 \u0622\u0644 \u0628\u0648 \u062a\u0645\u0631", "name:de": "Arab Albu Tamr", "name:en": "Arab Albu Tamr", "name:fr": "Arab Albu Tamr", "place": "village"}}, {"type": "node", "id": 2489246850, "lat": 34.635011, "lon": 43.204502, "tags": {"alt_name": "\u062d\u0633\u064a\u0646 \u0641\u0631\u064a\u062d", "int_name": "\u1e28usayn Far\u012b\u1e29, \u062d\u0633\u064a\u0646 \u0641\u0631\u064a\u062d, Husayn Farih, \u062d\u0633\u064a\u0646 \u0641\u0631\u064a\u062d", "name": "\u062d\u0633\u064a\u0646 \u0641\u0631\u064a\u062d", "name:ar": "\u062d\u0633\u064a\u0646 \u0641\u0631\u064a\u062d", "name:ar1": "\u062d\u0633\u064a\u0646 \u0641\u0631\u064a\u062d", "name:de": "Husayn Farih", "name:en": "Husayn Farih", "name:fr": "Husayn Farih", "place": "village"}}, {"type": "node", "id": 2489246851, "lat": 34.634151, "lon": 43.085743, "tags": {"alt_name": "\u062d\u0633\u064a\u0646 \u062d\u0645\u0648\u062f", "int_name": "\u1e28usayn \u1e28am\u016bd, \u062d\u0633\u064a\u0646 \u062d\u0645\u0648\u062f, Husayn Hamud, \u062d\u0633\u064a\u0646 \u062d\u0645\u0648\u062f", "name": "\u062d\u0633\u064a\u0646 \u062d\u0645\u0648\u062f", "name:ar": "\u062d\u0633\u064a\u0646 \u062d\u0645\u0648\u062f", "name:ar1": "\u062d\u0633\u064a\u0646 \u062d\u0645\u0648\u062f", "name:de": "Husayn Hamud", "name:en": "Husayn Hamud", "name:fr": "Husayn Hamud", "place": "village"}}, {"type": "node", "id": 2489246852, "lat": 34.624696, "lon": 43.084133, "tags": {"alt_name": "\u062c\u0628\u0627\u0631 \u0645\u0637\u0631", "int_name": "Jabb\u0101r Ma\u0163ar, \u062c\u0628\u0627\u0631 \u0645\u0637\u0631, Jabbar Matar, \u062c\u0628\u0627\u0631 \u0645\u0637\u0631", "name": "\u062c\u0628\u0627\u0631 \u0645\u0637\u0631", "name:ar": "\u062c\u0628\u0627\u0631 \u0645\u0637\u0631", "name:ar1": "\u062c\u0628\u0627\u0631 \u0645\u0637\u0631", "name:de": "Jabbar Matar", "name:en": "Jabbar Matar", "name:fr": "Jabbar Matar", "place": "village"}}, {"type": "node", "id": 2489246861, "lat": 34.68258, "lon": 43.184804, "tags": {"alt_name": "\u0645\u062d\u0645\u062f \u0631\u0634\u064a\u062f", "int_name": "Mu\u1e29ammad Rash\u012bd, \u0645\u062d\u0645\u062f \u0631\u0634\u064a\u062f, Muhammad Rashid, \u0645\u062d\u0645\u062f \u0631\u0634\u064a\u062f", "name": "\u0645\u062d\u0645\u062f \u0631\u0634\u064a\u062f", "name:ar": "\u0645\u062d\u0645\u062f \u0631\u0634\u064a\u062f", "name:ar1": "\u0645\u062d\u0645\u062f \u0631\u0634\u064a\u062f", "name:de": "Muhammad Rashid", "name:en": "Muhammad Rashid", "name:fr": "Muhammad Rashid", "place": "village"}}, {"type": "node", "id": 2489246863, "lat": 34.639269, "lon": 43.122974, "tags": {"alt_name": "\u0645\u0634\u0631\u0641 \u0641\u0631\u062d\u0627\u0646", "int_name": "Mushrif Far\u1e29\u0101n, \u0645\u0634\u0631\u0641 \u0641\u0631\u062d\u0627\u0646, Mushrif Farhan, \u0645\u0634\u0631\u0641 \u0641\u0631\u062d\u0627\u0646", "name": "\u0645\u0634\u0631\u0641 \u0641\u0631\u062d\u0627\u0646", "name:ar": "\u0645\u0634\u0631\u0641 \u0641\u0631\u062d\u0627\u0646", "name:ar1": "\u0645\u0634\u0631\u0641 \u0641\u0631\u062d\u0627\u0646", "name:de": "Mushrif Farhan", "name:en": "Mushrif Farhan", "name:fr": "Mushrif Farhan", "place": "village"}}, {"type": "node", "id": 2489246865, "lat": 34.698031, "lon": 43.173977, "tags": {"alt_name": "\u0646\u0648\u0627\u0641 \u062d\u0631\u062f\u0627\u0646", "int_name": "Naw\u0101f \u1e28ard\u0101n, \u0646\u0648\u0627\u0641 \u062d\u0631\u062f\u0627\u0646, Nawaf Hardan, \u0646\u0648\u0627\u0641 \u062d\u0631\u062f\u0627\u0646", "name": "\u0646\u0648\u0627\u0641 \u062d\u0631\u062f\u0627\u0646", "name:ar": "\u0646\u0648\u0627\u0641 \u062d\u0631\u062f\u0627\u0646", "name:ar1": "\u0646\u0648\u0627\u0641 \u062d\u0631\u062f\u0627\u0646", "name:de": "Nawaf Hardan", "name:en": "Nawaf Hardan", "name:fr": "Nawaf Hardan", "place": "village"}}, {"type": "node", "id": 2489246867, "lat": 34.6728617, "lon": 43.2044341, "tags": {"alt_name": "\u0642\u0631\u064a\u0629 \u0623\u0645 \u063a\u0631\u0628\u0629", "int_name": "Qaryat Umm Gharbah, \u0642\u0631\u064a\u0629 \u0627\u0645 \u063a\u0631\u0628\u0629, Qaryat Umm Gharbah, \u0642\u0631\u064a\u0629 \u0627\u0645 \u063a\u0631\u0628\u0629", "name": "\u0642\u0631\u064a\u0629 \u0623\u0645 \u063a\u0631\u0628\u0629", "name:ar": "\u0642\u0631\u064a\u0629 \u0623\u0645 \u063a\u0631\u0628\u0629", "name:ar1": "\u0642\u0631\u064a\u0629 \u0623\u0645 \u063a\u0631\u0628\u0629", "name:de": "Qaryat Umm Gharbah", "name:en": "Qaryat Umm Gharbah", "name:fr": "Qaryat Umm Gharbah", "place": "village"}}, {"type": "node", "id": 2489246869, "lat": 34.626792, "lon": 43.081442, "tags": {"alt_name": "\u0631\u062f\u0629 \u0645\u062e\u0644\u0641", "int_name": "Radat Makhlaf, \u0631\u062f\u0647 \u0645\u062e\u0644\u0641, Radat Makhlaf, \u0631\u062f\u0647 \u0645\u062e\u0644\u0641", "name": "\u0631\u062f\u0629 \u0645\u062e\u0644\u0641", "name:ar": "\u0631\u062f\u0629 \u0645\u062e\u0644\u0641", "name:ar1": "\u0631\u062f\u0629 \u0645\u062e\u0644\u0641", "name:de": "Radat Makhlaf", "name:en": "Radat Makhlaf", "name:fr": "Radat Makhlaf", "place": "village"}}, {"type": "node", "id": 2489246872, "lat": 34.664199, "lon": 43.176048, "tags": {"alt_name": "\u0633\u0646\u062f \u0646\u0627\u064a\u0641", "int_name": "Sanad N\u0101yif, \u0633\u0646\u062f \u0646\u0627\u064a\u0641, Sanad Nayif, \u0633\u0646\u062f \u0646\u0627\u064a\u0641", "name": "\u0633\u0646\u062f \u0646\u0627\u064a\u0641", "name:ar": "\u0633\u0646\u062f \u0646\u0627\u064a\u0641", "name:ar1": "\u0633\u0646\u062f \u0646\u0627\u064a\u0641", "name:de": "Sanad Nayif", "name:en": "Sanad Nayif", "name:fr": "Sanad Nayif", "place": "village"}}, {"type": "node", "id": 2489246873, "lat": 34.62327, "lon": 43.083216, "tags": {"alt_name": "\u0633\u0648\u064a\u062f\u064a \u062e\u0644\u0641", "int_name": "Suwayd\u012b Khalaf, \u0633\u0648\u064a\u062f\u064a \u062e\u0644\u0641, Suwaydi Khalaf, \u0633\u0648\u064a\u062f\u064a \u062e\u0644\u0641", "name": "\u0633\u0648\u064a\u062f\u064a \u062e\u0644\u0641", "name:ar": "\u0633\u0648\u064a\u062f\u064a \u062e\u0644\u0641", "name:ar1": "\u0633\u0648\u064a\u062f\u064a \u062e\u0644\u0641", "name:de": "Suwaydi Khalaf", "name:en": "Suwaydi Khalaf", "name:fr": "Suwaydi Khalaf", "place": "village"}}, {"type": "node", "id": 2489246880, "lat": 34.627443, "lon": 43.082995, "tags": {"alt_name": "\u0623\u0645 \u063a\u0631\u0648\u0628\u0629", "int_name": "Umm Ghar\u016bbah, \u0623\u0645 \u063a\u0631\u0648\u0628\u0629, Umm Gharubah, \u0623\u0645 \u063a\u0631\u0648\u0628\u0629", "name": "\u0623\u0645 \u063a\u0631\u0648\u0628\u0629", "name:ar": "\u0623\u0645 \u063a\u0631\u0648\u0628\u0629", "name:ar1": "\u0623\u0645 \u063a\u0631\u0648\u0628\u0629", "name:de": "Umm Gharubah", "name:en": "Umm Gharubah", "name:fr": "Umm Gharubah", "place": "village"}}, {"type": "node", "id": 2489268291, "lat": 34.489809, "lon": 43.398638, "tags": {"alt_name": "\u0623\u062d\u0645\u062f \u0646\u0627\u064a\u0641", "int_name": "A\u1e29mad N\u0101yif, \u0627\u062d\u0645\u062f \u0646\u0627\u064a\u0641, Ahmad Nayif, \u0627\u062d\u0645\u062f \u0646\u0627\u064a\u0641", "name": "\u0623\u062d\u0645\u062f \u0646\u0627\u064a\u0641", "name:ar": "\u0623\u062d\u0645\u062f \u0646\u0627\u064a\u0641", "name:ar1": "\u0623\u062d\u0645\u062f \u0646\u0627\u064a\u0641", "name:de": "Ahmad Nayif", "name:en": "Ahmad Nayif", "name:fr": "Ahmad Nayif", "place": "village"}}, {"type": "node", "id": 2489268292, "lat": 34.320367, "lon": 43.258193, "tags": {"alt_name": "\u0627\u0644\u062d\u0627\u062c \u0639\u0644\u064a \u0623\u062d\u0645\u062f", "int_name": "Al \u1e28\u0101jj Al\u012b A\u1e29mad, \u0627\u0644\u062d\u0627\u062c \u0639\u0644\u064a \u0627\u062d\u0645\u062f, Al Hajj Ali Ahmad, \u0627\u0644\u062d\u0627\u062c \u0639\u0644\u064a \u0627\u062d\u0645\u062f", "name": "\u0627\u0644\u062d\u0627\u062c \u0639\u0644\u064a \u0623\u062d\u0645\u062f", "name:ar": "\u0627\u0644\u062d\u0627\u062c \u0639\u0644\u064a \u0623\u062d\u0645\u062f", "name:ar1": "\u0627\u0644\u062d\u0627\u062c \u0639\u0644\u064a \u0623\u062d\u0645\u062f", "name:de": "Al Hajj Ali Ahmad", "name:en": "Al Hajj Ali Ahmad", "name:fr": "Al Hajj Ali Ahmad", "place": "village"}}, {"type": "node", "id": 2489268296, "lat": 34.335025, "lon": 43.037654, "tags": {"alt_name": "\u0639\u0631\u0628 \u062e\u0634\u0627\u0646 \u0641\u0631\u062d\u0627\u0646", "int_name": "Arab Khash\u0101n Far\u1e29\u0101n, \u0639\u0631\u0628 \u062e\u0634\u0627\u0646 \u0641\u0631\u062d\u0627\u0646, Arab Khashan Farhan, \u0639\u0631\u0628 \u062e\u0634\u0627\u0646 \u0641\u0631\u062d\u0627\u0646", "name": "\u0639\u0631\u0628 \u062e\u0634\u0627\u0646 \u0641\u0631\u062d\u0627\u0646", "name:ar": "\u0639\u0631\u0628 \u062e\u0634\u0627\u0646 \u0641\u0631\u062d\u0627\u0646", "name:ar1": "\u0639\u0631\u0628 \u062e\u0634\u0627\u0646 \u0641\u0631\u062d\u0627\u0646", "name:de": "Arab Khashan Farhan", "name:en": "Arab Khashan Farhan", "name:fr": "Arab Khashan Farhan", "place": "village"}}, {"type": "node", "id": 2489268298, "lat": 34.443843, "lon": 43.329753, "tags": {"alt_name": "\u0639\u0631\u0628 \u0646\u062c\u0627\u062f \u0645\u0635\u0644\u062d", "int_name": "Arab Naj\u0101d Mu\u015fli\u1e29, \u0639\u0631\u0628 \u0646\u062c\u0627\u062f \u0645\u0635\u0644\u062d, Arab Najad Muslih, \u0639\u0631\u0628 \u0646\u062c\u0627\u062f \u0645\u0635\u0644\u062d", "name": "\u0639\u0631\u0628 \u0646\u062c\u0627\u062f \u0645\u0635\u0644\u062d", "name:ar": "\u0639\u0631\u0628 \u0646\u062c\u0627\u062f \u0645\u0635\u0644\u062d", "name:ar1": "\u0639\u0631\u0628 \u0646\u062c\u0627\u062f \u0645\u0635\u0644\u062d", "name:de": "Arab Najad Muslih", "name:en": "Arab Najad Muslih", "name:fr": "Arab Najad Muslih", "place": "village"}}, {"type": "node", "id": 2489268386, "lat": 34.551564, "lon": 43.209645, "tags": {"alt_name": "\u0628\u062f\u064a\u0648\u064a \u0627\u0644\u0634\u064a\u062d\u0627\u0646", "int_name": "Bidayw\u012b ash Sh\u012b\u1e29\u0101n, \u0628\u062f\u064a\u0648\u064a \u0627\u0644\u0634\u064a\u062d\u0627\u0646, Bidaywi ash Shihan, \u0628\u062f\u064a\u0648\u064a \u0627\u0644\u0634\u064a\u062d\u0627\u0646", "name": "\u0628\u062f\u064a\u0648\u064a \u0627\u0644\u0634\u064a\u062d\u0627\u0646", "name:ar": "\u0628\u062f\u064a\u0648\u064a \u0627\u0644\u0634\u064a\u062d\u0627\u0646", "name:ar1": "\u0628\u062f\u064a\u0648\u064a \u0627\u0644\u0634\u064a\u062d\u0627\u0646", "name:de": "Bidaywi ash Shihan", "name:en": "Bidaywi ash Shihan", "name:fr": "Bidaywi ash Shihan", "place": "village"}}, {"type": "node", "id": 2489268393, "lat": 34.451902, "lon": 43.329482, "tags": {"alt_name": "\u062d\u0645\u062f \u0645\u0637\u0631", "int_name": "\u1e28amad Ma\u0163ar, \u062d\u0645\u062f \u0645\u0637\u0631, Hamad Matar, \u062d\u0645\u062f \u0645\u0637\u0631", "name": "\u062d\u0645\u062f \u0645\u0637\u0631", "name:ar": "\u062d\u0645\u062f \u0645\u0637\u0631", "name:ar1": "\u062d\u0645\u062f \u0645\u0637\u0631", "name:de": "Hamad Matar", "name:en": "Hamad Matar", "name:fr": "Hamad Matar", "place": "village"}}, {"type": "node", "id": 2489268394, "lat": 34.548839, "lon": 43.058098, "tags": {"alt_name": "\u062d\u0645\u064a\u062f \u0639\u0644\u064a", "int_name": "\u1e28am\u012bd Al\u012b, \u062d\u0645\u064a\u062f \u0639\u0644\u064a, Hamid Ali, \u062d\u0645\u064a\u062f \u0639\u0644\u064a", "name": "\u062d\u0645\u064a\u062f \u0639\u0644\u064a", "name:ar": "\u062d\u0645\u064a\u062f \u0639\u0644\u064a", "name:ar1": "\u062d\u0645\u064a\u062f \u0639\u0644\u064a", "name:de": "Hamid Ali", "name:en": "Hamid Ali", "name:fr": "Hamid Ali", "place": "village"}}, {"type": "node", "id": 2489268395, "lat": 34.560061, "lon": 43.167979, "tags": {"alt_name": "\u062d\u0645\u064a\u062f \u062e\u0644\u064a\u0641\u0629", "int_name": "\u1e28am\u012bd Khal\u012bfah, \u062d\u0645\u064a\u062f \u062e\u0644\u064a\u0641\u0629, Hamid Khalifah, \u062d\u0645\u064a\u062f \u062e\u0644\u064a\u0641\u0629", "name": "\u062d\u0645\u064a\u062f \u062e\u0644\u064a\u0641\u0629", "name:ar": "\u062d\u0645\u064a\u062f \u062e\u0644\u064a\u0641\u0629", "name:ar1": "\u062d\u0645\u064a\u062f \u062e\u0644\u064a\u0641\u0629", "name:de": "Hamid Khalifah", "name:en": "Hamid Khalifah", "name:fr": "Hamid Khalifah", "place": "village"}}, {"type": "node", "id": 2489268399, "lat": 34.3271, "lon": 43.249962, "tags": {"alt_name": "\u0625\u0628\u0631\u0627\u0647\u064a\u0645 \u0636\u0627\u062d\u064a", "int_name": "Ibr\u0101h\u012bm \u1e10\u0101\u1e29\u012b, \u0627\u0628\u0631\u0627\u0647\u064a\u0645 \u0636\u0627\u062d\u064a, Ibrahim Dahi, \u0627\u0628\u0631\u0627\u0647\u064a\u0645 \u0636\u0627\u062d\u064a", "name": "\u0625\u0628\u0631\u0627\u0647\u064a\u0645 \u0636\u0627\u062d\u064a", "name:ar": "\u0625\u0628\u0631\u0627\u0647\u064a\u0645 \u0636\u0627\u062d\u064a", "name:ar1": "\u0625\u0628\u0631\u0627\u0647\u064a\u0645 \u0636\u0627\u062d\u064a", "name:de": "Ibrahim Dahi", "name:en": "Ibrahim Dahi", "name:fr": "Ibrahim Dahi", "place": "village"}}, {"type": "node", "id": 2489268400, "lat": 34.458918, "lon": 43.332234, "tags": {"alt_name": "\u0625\u0628\u0631\u0627\u0647\u064a\u0645 \u0633\u0627\u0644\u0645", "int_name": "Ibr\u0101h\u012bm S\u0101lim, \u0627\u0628\u0631\u0627\u0647\u064a\u0645 \u0633\u0627\u0644\u0645, Ibrahim Salim, \u0627\u0628\u0631\u0627\u0647\u064a\u0645 \u0633\u0627\u0644\u0645", "name": "\u0625\u0628\u0631\u0627\u0647\u064a\u0645 \u0633\u0627\u0644\u0645", "name:ar": "\u0625\u0628\u0631\u0627\u0647\u064a\u0645 \u0633\u0627\u0644\u0645", "name:ar1": "\u0625\u0628\u0631\u0627\u0647\u064a\u0645 \u0633\u0627\u0644\u0645", "name:de": "Ibrahim Salim", "name:en": "Ibrahim Salim", "name:fr": "Ibrahim Salim", "place": "village"}}, {"type": "node", "id": 2489268437, "lat": 34.400398, "lon": 43.331809, "tags": {"alt_name": "\u0645\u062d\u0645\u0648\u062f \u0639\u0644\u064a", "int_name": "Ma\u1e29m\u016bd Al\u012b, \u0645\u062d\u0645\u0648\u062f \u0639\u0644\u064a, Mahmud Ali, \u0645\u062d\u0645\u0648\u062f \u0639\u0644\u064a", "name": "\u0645\u062d\u0645\u0648\u062f \u0639\u0644\u064a", "name:ar": "\u0645\u062d\u0645\u0648\u062f \u0639\u0644\u064a", "name:ar1": "\u0645\u062d\u0645\u0648\u062f \u0639\u0644\u064a", "name:de": "Mahmud Ali", "name:en": "Mahmud Ali", "name:fr": "Mahmud Ali", "place": "village"}}, {"type": "node", "id": 2489268441, "lat": 34.496351, "lon": 43.330039, "tags": {"alt_name": "\u0645\u062c\u064a\u062f \u0641\u0631\u062d\u0627\u0646", "int_name": "Maj\u012bd Far\u1e29\u0101n, \u0645\u062c\u064a\u062f \u0641\u0631\u062d\u0627\u0646, Majid Farhan, \u0645\u062c\u064a\u062f \u0641\u0631\u062d\u0627\u0646", "name": "\u0645\u062c\u064a\u062f \u0641\u0631\u062d\u0627\u0646", "name:ar": "\u0645\u062c\u064a\u062f \u0641\u0631\u062d\u0627\u0646", "name:ar1": "\u0645\u062c\u064a\u062f \u0641\u0631\u062d\u0627\u0646", "name:de": "Majid Farhan", "name:en": "Majid Farhan", "name:fr": "Majid Farhan", "place": "village"}}, {"type": "node", "id": 2489268442, "lat": 34.506114, "lon": 43.279054, "tags": {"alt_name": "\u0645\u062c\u064a\u062f \u0641\u0631\u062d\u0627\u0646", "int_name": "Maj\u012bd Far\u1e29\u0101n, \u0645\u062c\u064a\u062f \u0641\u0631\u062d\u0627\u0646, Majid Farhan, \u0645\u062c\u064a\u062f \u0641\u0631\u062d\u0627\u0646", "name": "\u0645\u062c\u064a\u062f \u0641\u0631\u062d\u0627\u0646", "name:ar": "\u0645\u062c\u064a\u062f \u0641\u0631\u062d\u0627\u0646", "name:ar1": "\u0645\u062c\u064a\u062f \u0641\u0631\u062d\u0627\u0646", "name:de": "Majid Farhan", "name:en": "Majid Farhan", "name:fr": "Majid Farhan", "place": "village"}}, {"type": "node", "id": 2489268473, "lat": 34.32973, "lon": 43.267481, "tags": {"alt_name": "\u0645\u062d\u0645\u062f \u0645\u0637\u0644\u0642", "int_name": "Mu\u1e29ammad Mu\u0163laq, \u0645\u062d\u0645\u062f \u0645\u0637\u0644\u0642, Muhammad Mutlaq, \u0645\u062d\u0645\u062f \u0645\u0637\u0644\u0642", "name": "\u0645\u062d\u0645\u062f \u0645\u0637\u0644\u0642", "name:ar": "\u0645\u062d\u0645\u062f \u0645\u0637\u0644\u0642", "name:ar1": "\u0645\u062d\u0645\u062f \u0645\u0637\u0644\u0642", "name:de": "Muhammad Mutlaq", "name:en": "Muhammad Mutlaq", "name:fr": "Muhammad Mutlaq", "place": "village"}}, {"type": "node", "id": 2489268521, "lat": 34.581331, "lon": 43.092495, "tags": {"alt_name": "\u0642\u0631\u064a\u0629 \u0639\u062c\u0644\u0627\u0648\u064a\u0629", "int_name": "Qaryat Ajl\u0101w\u012byah, Qaryat Ijl\u0101w\u012byah, \u0642\u0631\u064a\u0629 \u0639\u062c\u0644\u0627\u0648\u064a\u0629, Qaryat Ajlawiyah, Qaryat Ijlawiyah, \u0642\u0631\u064a\u0629 \u0639\u062c\u0644\u0627\u0648\u064a\u0629", "name": "\u0642\u0631\u064a\u0629 \u0639\u062c\u0644\u0627\u0648\u064a\u0629", "name:ar": "\u0642\u0631\u064a\u0629 \u0639\u062c\u0644\u0627\u0648\u064a\u0629", "name:ar1": "\u0642\u0631\u064a\u0629 \u0639\u062c\u0644\u0627\u0648\u064a\u0629", "name:de": "Qaryat Ajlawiyah", "name:en": "Qaryat Ajlawiyah", "name:fr": "Qaryat Ajlawiyah", "place": "village"}}, {"type": "node", "id": 2489268543, "lat": 34.583456, "lon": 43.004244, "tags": {"alt_name": "\u062a\u0644 \u0627\u0644\u0636\u0628\u064a\u0639\u0629", "int_name": "Tall a\u1e11 \u1e10ab\u012bah, \u062a\u0644 \u0627\u0644\u0636\u0628\u064a\u0639\u0629, Tall ad Dabiah, \u062a\u0644 \u0627\u0644\u0636\u0628\u064a\u0639\u0629", "name": "\u062a\u0644 \u0627\u0644\u0636\u0628\u064a\u0639\u0629", "name:ar": "\u062a\u0644 \u0627\u0644\u0636\u0628\u064a\u0639\u0629", "name:ar1": "\u062a\u0644 \u0627\u0644\u0636\u0628\u064a\u0639\u0629", "name:de": "Tall ad Dabiah", "name:en": "Tall ad Dabiah", "name:fr": "Tall ad Dabiah", "place": "village"}}, {"type": "node", "id": 2489268628, "lat": 34.476827, "lon": 43.316909, "tags": {"alt_name": "\u064a\u0627\u0633\u064a\u0646 \u0633\u0644\u0645\u0627\u0646", "int_name": "Y\u0101s\u012bn Salm\u0101n, \u064a\u0627\u0633\u064a\u0646 \u0633\u0644\u0645\u0627\u0646, Yasin Salman, \u064a\u0627\u0633\u064a\u0646 \u0633\u0644\u0645\u0627\u0646", "name": "\u064a\u0627\u0633\u064a\u0646 \u0633\u0644\u0645\u0627\u0646", "name:ar": "\u064a\u0627\u0633\u064a\u0646 \u0633\u0644\u0645\u0627\u0646", "name:ar1": "\u064a\u0627\u0633\u064a\u0646 \u0633\u0644\u0645\u0627\u0646", "name:de": "Yasin Salman", "name:en": "Yasin Salman", "name:fr": "Yasin Salman", "place": "village"}}, {"type": "node", "id": 2489272567, "lat": 34.441859, "lon": 43.466765, "tags": {"alt_name": "\u0623\u062d\u0645\u062f \u0645\u0636\u062d\u064a", "int_name": "A\u1e29mad Mu\u1e11a\u1e29\u012b, \u0627\u062d\u0645\u062f \u0645\u0636\u062d\u064a, Ahmad Mudahi, \u0627\u062d\u0645\u062f \u0645\u0636\u062d\u064a", "name": "\u0623\u062d\u0645\u062f \u0645\u0636\u062d\u064a", "name:ar": "\u0623\u062d\u0645\u062f \u0645\u0636\u062d\u064a", "name:ar1": "\u0623\u062d\u0645\u062f \u0645\u0636\u062d\u064a", "name:de": "Ahmad Mudahi", "name:en": "Ahmad Mudahi", "name:fr": "Ahmad Mudahi", "place": "village"}}, {"type": "node", "id": 2489273210, "lat": 34.435648, "lon": 43.477727, "tags": {"alt_name": "\u0647\u0644\u0627\u0644 \u062e\u0644\u064a\u0641\u0629", "int_name": "Hil\u0101l Khal\u012bfah, \u0647\u0644\u0627\u0644 \u062e\u0644\u064a\u0641\u0629, Hilal Khalifah, \u0647\u0644\u0627\u0644 \u062e\u0644\u064a\u0641\u0629", "name": "\u0647\u0644\u0627\u0644 \u062e\u0644\u064a\u0641\u0629", "name:ar": "\u0647\u0644\u0627\u0644 \u062e\u0644\u064a\u0641\u0629", "name:ar1": "\u0647\u0644\u0627\u0644 \u062e\u0644\u064a\u0641\u0629", "name:de": "Hilal Khalifah", "name:en": "Hilal Khalifah", "name:fr": "Hilal Khalifah", "place": "village"}}, {"type": "node", "id": 2489273214, "lat": 34.367927, "lon": 43.474692, "tags": {"alt_name": "\u062d\u0633\u064a\u0646 \u0639\u0644\u0627\u0648\u064a", "int_name": "\u1e28usayn Al\u0101w\u012b, \u062d\u0633\u064a\u0646 \u0639\u0644\u0627\u0648\u064a, Husayn Alawi, \u062d\u0633\u064a\u0646 \u0639\u0644\u0627\u0648\u064a", "name": "\u062d\u0633\u064a\u0646 \u0639\u0644\u0627\u0648\u064a", "name:ar": "\u062d\u0633\u064a\u0646 \u0639\u0644\u0627\u0648\u064a", "name:ar1": "\u062d\u0633\u064a\u0646 \u0639\u0644\u0627\u0648\u064a", "name:de": "Husayn Alawi", "name:en": "Husayn Alawi", "name:fr": "Husayn Alawi", "place": "village"}}, {"type": "node", "id": 2489273400, "lat": 34.434013, "lon": 43.467629, "tags": {"alt_name": "\u0643\u0631\u064a\u0645 \u062d\u0633\u064a\u0646", "int_name": "Kar\u012bm \u1e28usayn, \u0643\u0631\u064a\u0645 \u062d\u0633\u064a\u0646, Karim Husayn, \u0643\u0631\u064a\u0645 \u062d\u0633\u064a\u0646", "name": "\u0643\u0631\u064a\u0645 \u062d\u0633\u064a\u0646", "name:ar": "\u0643\u0631\u064a\u0645 \u062d\u0633\u064a\u0646", "name:ar1": "\u0643\u0631\u064a\u0645 \u062d\u0633\u064a\u0646", "name:de": "Karim Husayn", "name:en": "Karim Husayn", "name:fr": "Karim Husayn", "place": "village"}}]}