{"version": 0.6, "generator": "Overpass API 0.7.61.5 4133829e", "osm3s": {"timestamp_osm_base": "2024-03-05T15:10:00Z", "copyright": "The data included in this document is from www.openstreetmap.org. The data is made available under ODbL."}, "elements": [{"type": "node", "id": 460402039, "lat": 60.2037374, "lon": 20.6979271, "tags": {"name": "Seglinge", "place": "village", "population": "50"}}, {"type": "node", "id": 460410725, "lat": 60.2743923, "lon": 20.0505773, "tags": {"name": "Kvarnbo", "place": "village"}}, {"type": "node", "id": 460412569, "lat": 60.2580644, "lon": 20.1259363, "tags": {"name": "Bj\u00f6rby", "name:ru": "\u0411\u044c\u0451\u0440\u0431\u044e", "name:sv": "Bj\u00f6rby", "place": "village"}}, {"type": "node", "id": 563301059, "lat": 60.2421692, "lon": 20.3744261, "tags": {"name": "V\u00e5rd\u00f6", "name:fi": "V\u00e5rd\u00f6", "name:mk": "\u0412\u043e\u0440\u0434\u0435", "name:ru": "\u0412\u043e\u0440\u0434\u0451", "name:sv": "V\u00e5rd\u00f6", "place": "town", "population": "472", "population:date": "2023-12-31", "source:population": "wikipedia", "wikidata": "Q179749", "wikipedia": "en:V\u00e5rd\u00f6"}}, {"type": "node", "id": 842213026, "lat": 60.2475352, "lon": 20.0809342, "tags": {"name": "Gesterby", "place": "hamlet"}}, {"type": "node", "id": 842267160, "lat": 60.2741919, "lon": 20.0215306, "tags": {"name": "Lav\u00f6", "place": "hamlet"}}, {"type": "node", "id": 842278629, "lat": 60.2624422, "lon": 20.3730033, "tags": {"name": "L\u00f6v\u00f6", "place": "hamlet"}}, {"type": "node", "id": 1005719903, "lat": 60.2112114, "lon": 20.3795624, "tags": {"name": "Grundsunda", "place": "hamlet"}}, {"type": "node", "id": 1364847465, "lat": 60.240469, "lon": 20.0201646, "tags": {"name": "Haraldsby", "name:mk": "\u0425\u0440\u0430\u043b\u0434\u0441\u0431\u0438", "name:sv": "Haraldsby", "place": "village", "wikidata": "Q26254554"}}, {"type": "node", "id": 1365190535, "lat": 60.2463982, "lon": 20.3509256, "tags": {"name": "Vargata", "place": "hamlet"}}, {"type": "node", "id": 1853335415, "lat": 60.253938, "lon": 20.2178083, "tags": {"name": "M\u00e5ngstekta", "place": "village"}}, {"type": "node", "id": 2272890532, "lat": 60.1245974, "lon": 19.9919385, "tags": {"name": "\u00d6sterkalmare", "place": "village", "wikidata": "Q65196734"}}, {"type": "node", "id": 2292300046, "lat": 60.0759405, "lon": 20.0333496, "tags": {"name": "Knutsboda", "place": "hamlet"}}, {"type": "node", "id": 2292300080, "lat": 60.0799244, "lon": 19.997393, "tags": {"name": "Lemb\u00f6te", "place": "hamlet", "source": "MML"}}, {"type": "node", "id": 2292304579, "lat": 60.0730254, "lon": 20.1335098, "tags": {"name": "R\u00f6rstorp", "place": "hamlet", "source": "MML"}}, {"type": "node", "id": 3003600960, "lat": 60.1186343, "lon": 20.0139991, "tags": {"name": "\u00d6nningeby", "name:mk": "\u0415\u043d\u0438\u043d\u0433\u0435\u0431\u0438", "place": "village", "wikidata": "Q10727361"}}, {"type": "node", "id": 3003620770, "lat": 60.0727258, "lon": 20.2047578, "tags": {"name": "Granboda", "place": "hamlet"}}, {"type": "node", "id": 3003620771, "lat": 60.0867681, "lon": 20.2449265, "tags": {"name": "Skag", "place": "hamlet"}}, {"type": "node", "id": 3003745557, "lat": 60.1084619, "lon": 20.517439, "tags": {"name": "\u00d6ver\u00f6", "place": "hamlet"}}, {"type": "node", "id": 3003819273, "lat": 60.2233246, "lon": 20.1825276, "tags": {"name": "Finby", "place": "village"}}, {"type": "node", "id": 3003819275, "lat": 60.209637, "lon": 20.3022614, "tags": {"name": "T\u00f6ft\u00f6", "place": "hamlet"}}, {"type": "node", "id": 3003819276, "lat": 60.2309537, "lon": 20.3938857, "tags": {"name": "Listersby", "place": "hamlet"}}, {"type": "node", "id": 3800736557, "lat": 60.2436898, "lon": 20.1694376, "tags": {"name": "Gunnarsby", "place": "village"}}, {"type": "node", "id": 3800736558, "lat": 60.2491409, "lon": 20.1859149, "tags": {"name": "Persby", "place": "village"}}, {"type": "node", "id": 3800738979, "lat": 60.2333356, "lon": 20.1853999, "tags": {"name": "Vivasteby", "place": "hamlet"}}, {"type": "node", "id": 3800738980, "lat": 60.2300766, "lon": 20.2030381, "tags": {"name": "Norra bomarsund", "place": "hamlet"}}, {"type": "node", "id": 5051672755, "lat": 60.0252644, "lon": 20.5130443, "tags": {"name": "Skogboda", "place": "hamlet"}}, {"type": "node", "id": 5051672756, "lat": 60.0381494, "lon": 20.5386534, "tags": {"name": "Sanda", "place": "hamlet"}}, {"type": "node", "id": 5051672757, "lat": 60.0441992, "lon": 20.5634237, "tags": {"name": "Horsholma", "place": "hamlet"}}, {"type": "node", "id": 5051672758, "lat": 60.0481634, "lon": 20.5352214, "tags": {"name": "Br\u00e4nd\u00f6", "name:mk": "\u0411\u0440\u0435\u043d\u0434\u0435", "place": "hamlet"}}, {"type": "node", "id": 5303848493, "lat": 60.0665754, "lon": 20.0819715, "tags": {"name": "S\u00f6derby", "place": "village"}}, {"type": "node", "id": 5303848494, "lat": 60.0784485, "lon": 20.0832049, "tags": {"name": "Norrby", "place": "hamlet"}}, {"type": "node", "id": 5349786140, "lat": 60.030109, "lon": 20.3918676, "tags": {"name": "Degerby", "place": "village", "wikidata": "Q167263"}}, {"type": "node", "id": 5351117095, "lat": 60.1979747, "lon": 20.1542548, "tags": {"name": "Tranvik", "place": "hamlet"}}, {"type": "node", "id": 7899921792, "lat": 60.0107325, "lon": 20.4246997, "tags": {"admin_level": "8", "alt_name": "F\u00f6kl\u00f6", "name": "F\u00f6gl\u00f6", "name:fi": "F\u00f6gl\u00f6", "name:mk": "\u0424\u0435\u0433\u043b\u0435", "name:ru": "\u0424\u0451\u0433\u043b\u0451", "name:sv": "F\u00f6gl\u00f6", "old_name": "F\u00f6kl\u00f6", "place": "town", "population": "509", "population:date": "2023-12-31", "source:population": "wikipedia", "url": "http://www.foglo.ax/", "wikidata": "Q179722", "wikipedia": "fi:F\u00f6gl\u00f6"}}, {"type": "node", "id": 8500373555, "lat": 60.0618529, "lon": 20.5106485, "tags": {"name": "Finholma", "place": "village"}}, {"type": "node", "id": 8500373556, "lat": 60.0473554, "lon": 20.4906177, "tags": {"name": "Sonnboda", "place": "village"}}, {"type": "node", "id": 8500373557, "lat": 60.0460965, "lon": 20.4470587, "tags": {"name": "Granboda", "place": "village"}}, {"type": "node", "id": 10715839628, "lat": 60.1311843, "lon": 20.6574087, "tags": {"name": "S\u00f6derbyn", "place": "hamlet"}}, {"type": "node", "id": 10715839629, "lat": 60.1368827, "lon": 20.6636525, "tags": {"name": "Norrbyn", "place": "hamlet"}}, {"type": "node", "id": 10996665281, "lat": 60.2530332, "lon": 20.1198637, "tags": {"name": "Sund", "name:en": "Sund", "name:fi": "Sund", "name:sv": "Sund", "place": "town", "population": "995", "population:date": "2023-12-31", "source:population": "wikipedia", "wikidata": "Q176201", "wikipedia": "en:Sund, \u00c5land"}}, {"type": "node", "id": 11560044316, "lat": 60.2738946, "lon": 20.0641279, "tags": {"name": "Saltvik", "name:en": "Saltvik", "name:fi": "Saltvik", "name:sv": "Saltvik", "place": "town", "population": "1794", "population:date": "2023-12-31", "source:population": "wikipedia", "wikidata": "Q176196", "wikipedia": "en:Saltvik"}}, {"type": "node", "id": 11560044317, "lat": 60.0702871, "lon": 20.0885369, "tags": {"name": "Lemland", "name:en": "Lemland", "name:fi": "Lemland", "name:sv": "Lemland", "place": "town", "population": "2127", "population:date": "2023-12-31", "source:population": "wikipedia", "wikidata": "Q176186", "wikipedia": "en:Lemland"}}, {"type": "node", "id": 11560044318, "lat": 60.1178868, "lon": 20.2606755, "tags": {"name": "Lumparland", "name:en": "Lumparland", "name:fi": "Lumparland", "name:sv": "Lumparland", "place": "town", "population": "366", "population:date": "2023-12-31", "source:population": "wikipedia", "wikidata": "Q176191", "wikipedia": "en:Lumparland"}}, {"type": "node", "id": 11587870518, "lat": 60.2587693, "lon": 20.7782292, "tags": {"name": "Kumlinge", "name:fi": "Kumlinge", "name:ru": "\u041a\u0443\u043c\u043b\u0438\u043d\u0433\u0435", "name:sv": "Kumlinge", "place": "town", "population": "290", "wikidata": "Q179726", "wikipedia": "en:Kumlinge"}}, {"type": "node", "id": 11587870519, "lat": 60.1285654, "lon": 20.668463, "tags": {"name": "Sottunga", "name:fi": "Sottunga", "name:ru": "\u0421\u043e\u0442\u0442\u0443\u043d\u0433\u0430", "name:sv": "Sottunga", "place": "town", "population": "115", "source:population": "wikipedia", "wikidata": "Q179739", "wikipedia": "en:Sottunga"}}]}