{"version": 0.6, "generator": "Overpass API 0.7.61.5 4133829e", "osm3s": {"timestamp_osm_base": "2024-03-05T14:32:01Z", "copyright": "The data included in this document is from www.openstreetmap.org. The data is made available under ODbL."}, "elements": [{"type": "node", "id": 26405742, "lat": 59.3811095, "lon": 13.4877265, "tags": {"amenity": "ferry_terminal", "description": "B\u00e5tbuss 1 juni - 31 augusti", "ferry": "yes", "name": "NWT", "operator": "Karlstadsbuss", "public_transport": "stop_position", "seasonal": "yes", "wheelchair": "no"}}, {"type": "node", "id": 1035479235, "lat": 59.3837547, "lon": 13.5103343, "tags": {"amenity": "ferry_terminal", "description": "B\u00e5tbuss 1 juni - 31 augusti", "ferry": "yes", "name": "Karlstad CCC", "operator": "Karlstadsbuss", "public_transport": "stop_position", "seasonal": "yes"}}, {"type": "node", "id": 1300474655, "lat": 59.3958255, "lon": 13.6636373, "tags": {"amenity": "ferry_terminal", "cargo": "passengers;vehicle", "ferry": "yes", "name": "Herr\u00f6ns f\u00e4rjel\u00e4ge", "public_transport": "platform", "website": "http://www.javeron.se/f%C3%A4rja/f%C3%A4rjetider-15823879"}}, {"type": "node", "id": 2832462438, "lat": 59.3751508, "lon": 13.5102292, "tags": {"amenity": "ferry_terminal", "description": "B\u00e5tbuss 1 juni - 31 augusti", "ferry": "yes", "name": "Bryggudden", "network": "Karlstadsbuss", "opening_hours:url": "https://karlstad.se/Karlstadsbuss/Batbuss/", "operator": "Karlstadsbuss", "public_transport": "stop_position", "seasonal": "summer"}}, {"type": "node", "id": 3138913810, "lat": 59.3851019, "lon": 13.5031709, "tags": {"amenity": "ferry_terminal", "description": "B\u00e5tbuss 1 juni - 31 augusti", "ferry": "yes", "name": "Sandgrund", "operator": "Karlstadsbuss", "public_transport": "stop_position", "seasonal": "summer"}}, {"type": "node", "id": 3335203757, "lat": 59.3904122, "lon": 13.6626477, "tags": {"amenity": "ferry_terminal", "cargo": "passengers;vehicle", "ferry": "yes", "name": "J\u00e4ver\u00f6ns f\u00e4rjel\u00e4ge", "public_transport": "platform", "website": "http://www.javeron.se/f%C3%A4rja/f%C3%A4rjetider-15823879"}}, {"type": "node", "id": 4230798175, "lat": 59.3644477, "lon": 13.491775, "tags": {"amenity": "ferry_terminal", "description": "B\u00e5tbuss 1 juni - 31 augusti", "ferry": "yes", "name": "Mariebergs strand\u00e4ngar", "network": "Karlstadsbuss", "opening_hours:url": "https://karlstad.se/Karlstadsbuss/Batbuss/", "operator": "Karlstadsbuss", "public_transport": "stop_position", "seasonal": "summer", "wheelchair": "no"}}, {"type": "node", "id": 4230809786, "lat": 59.3688033, "lon": 13.4893877, "tags": {"amenity": "ferry_terminal", "description": "B\u00e5tbuss 1 juni - 31 augusti", "ferry": "yes", "name": "Mariebergsskogen", "network": "Karlstadsbuss", "opening_hours:url": "https://karlstad.se/Karlstadsbuss/Batbuss/", "operator": "Karlstadsbuss", "public_transport": "stop_position", "seasonal": "summer"}}, {"type": "node", "id": 4321954930, "lat": 59.3907278, "lon": 13.6604989, "tags": {"amenity": "ferry_terminal", "cargo": "passengers", "ferry": "yes", "name": "J\u00e4ver\u00f6n", "network": "B\u00e5tbuss", "operator": "Karlstadsbuss", "public_transport": "stop_position", "route_ref": "93"}}, {"type": "node", "id": 5754143903, "lat": 59.3803852, "lon": 13.4965577, "tags": {"amenity": "ferry_terminal", "description": "B\u00e5tbuss 1 juni - 31 augusti", "ferry": "yes", "name": "Almentorget", "operator": "Karlstadsbuss", "public_transport": "stop_position"}}, {"type": "node", "id": 5754143904, "lat": 59.3756957, "lon": 13.5072903, "tags": {"amenity": "ferry_terminal", "description": "B\u00e5tbuss 1 juni - 31 augusti", "ferry": "yes", "name": "Inre hamn", "network": "Karlstadsbuss", "opening_hours:url": "https://karlstad.se/Karlstadsbuss/Batbuss/", "operator": "Karlstadsbuss", "public_transport": "stop_position", "seasonal": "summer", "wheelchair": "yes"}}, {"type": "node", "id": 5754143905, "lat": 59.3800992, "lon": 13.5116251, "tags": {"amenity": "ferry_terminal", "description": "B\u00e5tbuss 1 juni - 31 augusti", "ferry": "yes", "name": "Caf\u00e9 Slusswakten", "network": "Karlstadsbuss", "opening_hours:url": "https://karlstad.se/Karlstadsbuss/Batbuss/", "operator": "Karlstadsbuss", "public_transport": "stop_position", "seasonal": "summer", "wheelchair": "yes"}}, {"type": "node", "id": 5758733128, "lat": 59.3621591, "lon": 13.4600893, "tags": {"amenity": "ferry_terminal", "description": "B\u00e5tbuss 1 juni - 31 augusti", "ferry": "yes", "name": "Bj\u00f6rk\u00e5s", "operator": "Karlstadsbuss", "public_transport": "stop_position", "seasonal": "summer"}}, {"type": "node", "id": 5758733129, "lat": 59.3673372, "lon": 13.4940505, "tags": {"amenity": "ferry_terminal", "description": "B\u00e5tbuss 1 juni - 31 augusti", "ferry": "yes", "name": "Orrholmen", "network": "Karlstadsbuss", "opening_hours:url": "https://karlstad.se/Karlstadsbuss/Batbuss/", "operator": "Karlstadsbuss", "public_transport": "stop_position", "seasonal": "summer"}}, {"type": "node", "id": 5758786245, "lat": 59.374128, "lon": 13.5125148, "tags": {"amenity": "ferry_terminal", "description": "B\u00e5tbuss 1 juni - 31 augusti", "ferry": "yes", "name": "V\u00e5gm\u00e4staren", "network": "Karlstadsbuss", "opening_hours:url": "https://karlstad.se/Karlstadsbuss/Batbuss/", "operator": "Karlstadsbuss", "public_transport": "stop_position", "seasonal": "summer"}}, {"type": "node", "id": 5760516011, "lat": 59.3781599, "lon": 13.4783054, "tags": {"amenity": "ferry_terminal", "description": "B\u00e5tbuss 1 juni - 31 augusti", "ferry": "yes", "name": "Klar\u00e4lvsentr\u00e9n", "opening_hours": "Jun 1-Aug 31", "operator": "Karlstadsbuss", "public_transport": "stop_position", "wheelchair": "yes"}}, {"type": "node", "id": 6517928321, "lat": 59.3280014, "lon": 13.4644902, "tags": {"amenity": "ferry_terminal", "ferry": "yes", "name": "Skoghall", "opening_hours": "Jun 1-Aug 31", "operator": "Karlstadsbuss", "public_transport": "station"}}, {"type": "node", "id": 6665288449, "lat": 59.2697746, "lon": 13.9047264, "tags": {"amenity": "ferry_terminal", "cargo": "passengers"}}, {"type": "node", "id": 7576862279, "lat": 59.2988545, "lon": 13.6001502}, {"type": "node", "id": 7576862280, "lat": 59.2988736, "lon": 13.6003486}, {"type": "node", "id": 7576862281, "lat": 59.2990288, "lon": 13.6002912}, {"type": "node", "id": 7576862282, "lat": 59.2990097, "lon": 13.6000928}, {"type": "node", "id": 8221405097, "lat": 59.3375171, "lon": 13.5267993, "tags": {"amenity": "ferry_terminal", "cargo": "passengers"}}, {"type": "node", "id": 8795657797, "lat": 59.3709665, "lon": 13.466287, "tags": {"amenity": "ferry_terminal", "description": "B\u00e5tbuss 1 juni - 31 augusti", "ferry": "yes", "name": "Romstad", "opening_hours": "Jun 1-Aug 31", "operator": "Karlstadsbuss", "public_transport": "stop_position"}}, {"type": "node", "id": 8795657798, "lat": 59.3995646, "lon": 13.5060295, "tags": {"amenity": "ferry_terminal", "description": "B\u00e5tbuss 1 juni - 31 augusti", "ferry": "yes", "name": "F\u00e4rjestad", "operator": "Karlstadsbuss", "public_transport": "stop_position", "seasonal": "summer"}}, {"type": "node", "id": 8802945676, "lat": 59.3691295, "lon": 13.5159919, "tags": {"amenity": "ferry_terminal", "description": "B\u00e5tbuss 1 juni - 31 augusti", "ferry": "yes", "name": "Kaniken\u00e4set", "network": "Karlstadsbuss", "opening_hours:url": "https://karlstad.se/Karlstadsbuss/Batbuss/", "operator": "Karlstadsbuss", "public_transport": "stop_position", "seasonal": "summer"}}, {"type": "node", "id": 8942453101, "lat": 59.3153543, "lon": 13.4660999, "tags": {"amenity": "ferry_terminal", "description": "B\u00e5tbuss p\u00e5 sommaren", "ferry": "yes", "name": "Lill\u00e4ngshamnen", "network": "Karlstadsbuss", "opening_hours:url": "https://karlstad.se/Karlstadsbuss/Batbuss/", "operator": "Karlstadsbuss", "public_transport": "stop_position", "seasonal": "summer"}}, {"type": "node", "id": 8942453110, "lat": 59.3129427, "lon": 13.4931781, "tags": {"amenity": "ferry_terminal", "description": "B\u00e5tbuss p\u00e5 sommaren", "ferry": "yes", "name": "M\u00f6rudden", "network": "Karlstadsbuss", "opening_hours:url": "https://karlstad.se/Karlstadsbuss/Batbuss/", "operator": "Karlstadsbuss", "public_transport": "stop_position", "seasonal": "summer"}}, {"type": "node", "id": 8942487394, "lat": 59.2979733, "lon": 13.4787719, "tags": {"amenity": "ferry_terminal", "description": "B\u00e5tbuss p\u00e5 sommaren", "ferry": "yes", "name": "V\u00e4stra S\u00f6\u00f6n", "network": "Karlstadsbuss", "opening_hours:url": "https://karlstad.se/Karlstadsbuss/Batbuss/", "operator": "Karlstadsbuss", "public_transport": "stop_position", "seasonal": "summer"}}, {"type": "node", "id": 10932234384, "lat": 59.3491431, "lon": 13.4695557, "tags": {"amenity": "ferry_terminal", "ferry": "yes", "name": "Vid\u00f6n", "opening_hours": "Jun 01-Aug 31", "operator": "Karlstadsbuss", "public_transport": "stop_position"}}, {"type": "way", "id": 810389180, "nodes": [7576862282, 7576862281, 7576862280, 7576862279, 7576862282], "tags": {"amenity": "ferry_terminal", "description": "B\u00e5tbuss 1 juni - 31 augusti", "ferry": "yes", "man_made": "pier", "name": "V\u00e4stra L\u00e5ngholmen", "network": "Karlstadsbuss", "opening_hours:url": "https://karlstad.se/Karlstadsbuss/Batbuss/", "operator": "Karlstadsbuss", "public_transport": "stop_position", "seasonal": "summer"}}]}