{"version": 0.6, "generator": "Overpass API 0.7.61.5 4133829e", "osm3s": {"timestamp_osm_base": "2024-03-05T13:47:00Z", "copyright": "The data included in this document is from www.openstreetmap.org. The data is made available under ODbL."}, "elements": [{"type": "node", "id": 3806537226, "lat": 36.7854094, "lon": 71.0906743, "tags": {"name": "Ward\u016bj", "place": "village", "source": "GNS"}}, {"type": "node", "id": 3956596566, "lat": 37.1864247, "lon": 71.4671955, "tags": {"name": "\u041a\u04ef\u04b3\u0438\u043b\u0430\u044a\u043b", "name:de": "Kuhi Lal", "name:en": "Kuhilal", "name:fa": "\u06a9\u0648\u0647 \u0644\u0639\u0644", "name:ru": "\u041a\u0443\u0445\u0438\u043b\u0430\u043b", "place": "village"}}, {"type": "node", "id": 3956631409, "lat": 37.1804602, "lon": 71.4519656, "tags": {"name": "\u0421\u0438\u0441\u0442", "name:en": "Sist", "name:tg": "\u0421\u0438\u0441\u0442", "place": "village"}}, {"type": "node", "id": 3956731061, "lat": 37.1188704, "lon": 71.4431935, "tags": {"name": "\u0412\u043e\u0433\u0437", "name:en": "Vogz", "name:tg": "\u0412\u043e\u0433\u0437", "place": "village"}}, {"type": "node", "id": 3957601787, "lat": 37.0945661, "lon": 71.4452802, "tags": {"name": "\u0428\u0430\u043d\u0431\u0435\u0434\u0435\u04b3", "name:en": "Shanbedeh", "name:tg": "\u0428\u0430\u043d\u0431\u0435\u0434\u0435\u04b3", "place": "village"}}, {"type": "node", "id": 3957628194, "lat": 37.0131779, "lon": 71.4696222, "tags": {"name": "\u049a\u043e\u0437\u0438\u0434\u0435\u04b3", "name:en": "Kozideh", "name:tg": "\u049a\u043e\u0437\u0438\u0434\u0435\u04b3", "place": "village"}}, {"type": "node", "id": 3957680163, "lat": 37.0394902, "lon": 71.5117258, "tags": {"name": "Bagush", "place": "village"}}, {"type": "node", "id": 3957820148, "lat": 36.9947058, "lon": 71.4718121, "tags": {"name": "\u0411\u0430\u0440\u0448\u043e\u0440", "name:en": "Barshor", "name:tg": "\u0411\u0430\u0440\u0448\u043e\u0440", "place": "village"}}, {"type": "node", "id": 3957837547, "lat": 36.9251724, "lon": 71.4942613, "tags": {"name": "\u0410\u0432\u04b7", "name:en": "Avj", "name:tg": "\u0410\u0432\u04b7", "place": "village"}}, {"type": "node", "id": 3957840392, "lat": 36.8920945, "lon": 71.5226918, "tags": {"name": "\u041c\u0443\u043b\u0432\u043e\u04b7", "name:en": "Malvoj", "name:tg": "\u041c\u0443\u043b\u0432\u043e\u04b7", "place": "village"}}, {"type": "node", "id": 3957842196, "lat": 36.8721525, "lon": 71.5317284, "tags": {"name": "\u042f\u0445\u0448\u0432\u043e\u043b", "name:en": "Yakhshwol", "name:tg": "\u042f\u0445\u0448\u0432\u043e\u043b", "place": "village"}}, {"type": "node", "id": 3957845327, "lat": 36.8381126, "lon": 71.5509259, "tags": {"name": "\u0421\u0443\u043c\u04b7\u0438\u043d", "name:en": "Sumchin", "name:tg": "\u0421\u0443\u043c\u04b7\u0438\u043d", "place": "village"}}, {"type": "node", "id": 3971071815, "lat": 37.1597352, "lon": 71.403755, "tags": {"name": "Zwardara", "place": "village"}}, {"type": "node", "id": 3971332575, "lat": 37.0691281, "lon": 71.4274963, "tags": {"name": "Zich", "place": "village"}}, {"type": "node", "id": 3972727240, "lat": 37.0568993, "lon": 71.4297257, "tags": {"name": "Barnasir", "place": "village"}}, {"type": "node", "id": 3973042674, "lat": 37.0316951, "lon": 71.4496023, "tags": {"name": "Andoj", "place": "village"}}, {"type": "node", "id": 4123085022, "lat": 36.8613977, "lon": 71.5207484, "tags": {"name": "Dehpayan", "place": "village"}}, {"type": "node", "id": 4123285177, "lat": 36.8864806, "lon": 71.5109255, "tags": {"name": "Sar Shakh", "place": "village"}}, {"type": "node", "id": 4123285178, "lat": 36.9182937, "lon": 71.4860075, "tags": {"name": "Walij", "place": "village"}}, {"type": "node", "id": 4123334680, "lat": 36.8500426, "lon": 71.5151756, "tags": {"name": "Sheer", "place": "village"}}, {"type": "node", "id": 4123531691, "lat": 36.8134627, "lon": 71.5287512, "tags": {"name": "Warkad", "place": "village"}}, {"type": "node", "id": 9340165241, "lat": 36.8443745, "lon": 71.5239394, "tags": {"place": "hamlet"}}, {"type": "node", "id": 9340176737, "lat": 36.8813936, "lon": 71.5160087, "tags": {"place": "village"}}, {"type": "node", "id": 10555695568, "lat": 36.8404381, "lon": 71.5283775, "tags": {"place": "hamlet"}}, {"type": "node", "id": 10561743844, "lat": 36.8447033, "lon": 71.5237829, "tags": {"place": "hamlet"}}]}