{"version": 0.6, "generator": "Overpass API 0.7.61.5 4133829e", "osm3s": {"timestamp_osm_base": "2024-03-06T11:15:40Z", "copyright": "The data included in this document is from www.openstreetmap.org. The data is made available under ODbL."}, "elements": [{"type": "node", "id": 432464465, "lat": 35.287697, "lon": 46.4306911, "tags": {"is_in:country": "Iran", "name": "\u06af\u0648\u0634\u062e\u0627\u0646\u06cc", "name:ckb": "\u06af\u06c6\u0634\u062e\u0627\u0646\u06cc", "name:ku": "Goshkhani", "place": "village", "wikidata": "Q6390490"}}, {"type": "node", "id": 672901334, "lat": 35.2947413, "lon": 46.4344894, "tags": {"is_in:country": "Iran", "name": "\u0646\u0633\u0644", "name:ckb": "\u0646\u0633\u06b5", "name:ku": "Nisll", "place": "village", "wikidata": "Q6399799"}}, {"type": "node", "id": 819610937, "lat": 35.5219063, "lon": 46.1758889, "tags": {"alt_name": "Meriwan", "int_name": "Marivan", "name": "\u0645\u0631\u06cc\u0648\u0627\u0646", "name:ckb": "\u0645\u06d5\u0631\u06cc\u0648\u0627\u0646", "name:en": "Marivan", "name:fa": "\u0645\u0631\u06cc\u0648\u0627\u0646", "name:fr": "Marivan", "name:hi": "\u092e\u093e\u0930\u093f\u0935\u0928", "name:ku": "Mer\u00eewan", "name:ml": "\u0d2e\u0d30\u0d3f\u0d35\u0d3e\u0d7b", "name:ru": "\u041c\u0435\u0440\u0438\u0432\u0430\u043d", "old_name": "\u0642\u06d5\u06b5\u0627", "place": "town", "population": "110464", "wikidata": "Q631517", "wikipedia": "en:Marivan"}}, {"type": "node", "id": 2019510326, "lat": 35.288979, "lon": 46.5232209, "tags": {"alt_name": "\u0646\u0648\u06af\u0644", "int_name": "Nigl", "is_in:country": "Iran", "name": "\u0646\u06af\u06b5", "name:ku": "Nigill", "place": "village"}}, {"type": "node", "id": 2019510331, "lat": 35.3238436, "lon": 46.499978, "tags": {"alt_name": "\u0645\u06cc\u0627\u0646\u0647", "int_name": "Miyane", "is_in:country": "Iran", "name": "\u0645\u06cc\u0627\u0646\u0647", "name:ku": "Miyane", "place": "village"}}, {"type": "node", "id": 2216192905, "lat": 35.4878709, "lon": 46.1796321, "tags": {"is_in:country": "Iran", "name": "\u0628\u0631\u0642\u0644\u0639\u0647", "name:ckb": "\u0628\u06d5\u0631\u0642\u06d5\u06b5\u0627", "name:ku": "Berqella", "place": "village"}}, {"type": "node", "id": 2246459140, "lat": 35.2616753, "lon": 46.42351, "tags": {"is_in:country": "Iran", "name": "\u06a9\u0631\u0622\u0628\u0627\u062f", "name:en": "Kerrawa", "place": "village", "wikidata": "Q6393528"}}, {"type": "node", "id": 2246459434, "lat": 35.4073396, "lon": 46.2703332, "tags": {"is_in:country": "Iran", "loc_name": "\u0628\u06cc\u0647 \u06a9\u0631\u0647", "name": "\u062d\u0633\u06cc\u0646 \u0622\u0628\u0627\u062f", "name:ckb": "\u0628\u06cc\u06d5\u06a9\u06d5\u0695\u06d5", "name:en": "Biakara", "name:ku": "B\u00eeyeke\u0159e", "place": "village"}}, {"type": "node", "id": 2246558376, "lat": 35.3123202, "lon": 46.3659551, "tags": {"name": "\u0633\u0631\u0648\u0622\u0628\u0627\u062f", "name:ckb": "\u0633\u06d5\u0648\u06b5\u0627\u0648\u0627", "name:en": "Sarvabad", "name:fa": "\u0633\u0631\u0648\u0622\u0628\u0627\u062f", "name:fr": "Sarvabad", "place": "town", "population": "5121", "wikidata": "Q889017", "wikipedia": "en:Sarvabad"}}, {"type": "node", "id": 2246922026, "lat": 35.2255764, "lon": 46.3227501, "tags": {"is_in:country": "Iran", "name": "\u0633\u0644\u06cc\u0646", "name:ku": "Sil\u00ean", "place": "village", "wikidata": "Q5790913"}}, {"type": "node", "id": 2246922029, "lat": 35.208915, "lon": 46.3492744, "tags": {"is_in:country": "Iran", "name": "\u0648\u0631\u06af\u0647 \u0648\u06cc\u0631", "name:ku": "Wergew\u00ea\u0159", "place": "village", "wikidata": "Q5796659"}}, {"type": "node", "id": 2246922043, "lat": 35.2408845, "lon": 46.3231921, "tags": {"is_in:country": "Iran", "name": "\u0698\u06cc\u0648\u0627\u0631", "name:ku": "J\u00eewar", "place": "village", "wikidata": "Q5818723"}}, {"type": "node", "id": 2246925251, "lat": 35.3436041, "lon": 46.3073942, "tags": {"is_in:country": "Iran", "name": "\u062a\u0627\u0632\u0647 \u0622\u0628\u0627\u062f \u062a\u0641\u0644\u06cc", "name:en": "Tazehabad-e Tefli", "name:ku": "Tazaway Tifll\u00ee", "place": "village", "wikidata": "Q5854286", "wikipedia": "en:Tazehabad-e Tefli"}}, {"type": "node", "id": 2246925334, "lat": 35.2000496, "lon": 46.5127795, "tags": {"is_in:country": "Iran", "name": "\u0628\u0648\u0631\u06cc \u062f\u0631", "name:en": "Buridar", "name:ku": "Borr\u00eeer", "place": "village", "wikidata": "Q5845273", "wikipedia": "en:Buridar"}}, {"type": "node", "id": 2246925370, "lat": 35.3189527, "lon": 46.3778344, "tags": {"name": "\u0633\u0631\u0648 \u0622\u0628\u0627\u062f \u0628\u0627\u0644\u0627", "name:ku": "Sewllaway seru", "place": "village", "population": "662"}}, {"type": "node", "id": 2246925371, "lat": 35.3058254, "lon": 46.3848238, "tags": {"name": "\u062a\u0631\u062e\u0627\u0646 \u0622\u0628\u0627\u062f", "name:en": "Tarkhan Abad", "name:ku": "Terxanawa", "place": "village", "wikidata": "Q5858004", "wikipedia": "en:Tarkhanabad, Sarvabad"}}, {"type": "node", "id": 2246993638, "lat": 35.4194917, "lon": 46.2793881, "tags": {"is_in:country": "Iran", "name": "\u0645\u0631\u06af", "name:ku": "Mirrig", "place": "village"}}, {"type": "node", "id": 2246993703, "lat": 35.4048207, "lon": 46.2516063, "tags": {"is_in:country": "Iran", "loc_name": "\u0648\u0634\u06a9\u06cc\u0646", "name": "\u062e\u0634\u06a9\u06cc\u0646", "name:ku": "Wishk\u00ean", "place": "village"}}, {"type": "node", "id": 2246993718, "lat": 35.4366961, "lon": 46.3150999, "tags": {"is_in:country": "Iran", "name": "\u0634\u06cc\u062e\u0647 \u06a9\u0648\u0631\u0647", "name:ku": "\u015e\u00eaxekw\u00eare", "place": "village"}}, {"type": "node", "id": 2246993751, "lat": 35.5589022, "lon": 46.1770073, "tags": {"is_in:country": "Iran", "name": "\u0686\u0627\u0648\u06a9", "name:ku": "Chawik", "place": "village"}}, {"type": "node", "id": 2246993757, "lat": 35.5601299, "lon": 46.1528728, "tags": {"is_in:country": "Iran", "name": "\u06a9\u0648\u0644\u0627\u0646", "name:ku": "Kollan", "place": "village"}}, {"type": "node", "id": 2246993938, "lat": 35.3485514, "lon": 46.3477821, "tags": {"is_in:country": "Iran", "name": "\u0633\u067e\u06cc\u062f\u0627\u0631", "name:ku": "Sipyar", "place": "village"}}, {"type": "node", "id": 2246993942, "lat": 35.366283, "lon": 46.3525681, "tags": {"is_in:country": "Iran", "name": "\u0627\u0646\u062c\u0645\u0646\u0647", "name:ku": "Hecimne", "place": "village", "wikidata": "Q5844337"}}, {"type": "node", "id": 2246994098, "lat": 35.4216798, "lon": 46.308766, "tags": {"is_in:country": "Iran", "name": "\u0686\u0648\u0631", "name:ku": "Chorr", "place": "village"}}, {"type": "node", "id": 2246994508, "lat": 35.3895684, "lon": 46.2963453, "tags": {"is_in:country": "Iran", "name": "\u0647\u0644\u0648\u0698\u0627\u0646", "name:ku": "Hell\u00fbjan", "place": "village", "wikidata": "Q6399026"}}, {"type": "node", "id": 2246994527, "lat": 35.5988085, "lon": 46.1779975, "tags": {"is_in:country": "Iran", "name": "\u0633\u06cc\u0641 \u0639\u0644\u0628\u0627", "name:ku": "S\u00eaf Seru", "place": "village"}}, {"type": "node", "id": 2246994578, "lat": 35.3479314, "lon": 46.3325423, "tags": {"is_in:country": "Iran", "name": "\u062a\u062e\u0627\u0646", "name:ku": "Tixan", "place": "village", "wikidata": "Q5836670"}}, {"type": "node", "id": 2246994586, "lat": 35.3603229, "lon": 46.2927653, "tags": {"is_in:country": "Iran", "name": "\u0642\u0644\u0639\u0647 \u06af\u0627\u0647", "name:en": "Qaleh Gah", "name:ku": "Qellaga", "place": "village", "wikidata": "Q5856836", "wikipedia": "en:Qaleh Gah, Sarvabad"}}, {"type": "node", "id": 2246994588, "lat": 35.3599583, "lon": 46.2828385, "tags": {"is_in:country": "Iran", "name": "\u0642\u0644\u0639\u0647 \u062c\u06cc", "name:en": "Qaleh Ji", "name:ku": "Qellac\u00ea", "place": "village", "wikidata": "Q5845278", "wikipedia": "en:Qaleh Ji"}}, {"type": "node", "id": 2246994590, "lat": 35.377732, "lon": 46.2987456, "tags": {"alt_name": "\u0648\u06cc\u0644\u0627\u0646\u0647;\u06af\u0644\u0627\u0646\u0647", "alt_name:en": "Veylaneh;Wailaneh;Golaneh", "is_in:country": "Iran", "name": "\u06af\u0644\u0627\u0646\u0647", "name:en": "Gelaneh", "name:ku": "Willane", "place": "village", "source:name": "GNS"}}, {"type": "node", "id": 2246994622, "lat": 35.4198043, "lon": 46.3023159, "tags": {"is_in:country": "Iran", "name": "\u0646\u0646\u0647", "name:ku": "Nene", "place": "village"}}, {"type": "node", "id": 2246994655, "lat": 35.3853204, "lon": 46.3155743, "tags": {"alt_name": "\u0622\u0645\u0627\u0646\u0647", "alt_name:en": "Amaneh", "is_in:country": "Iran", "name": "\u0622\u0644\u0645\u0627\u0646\u0647", "name:en": "Almaneh", "name:ku": "Allmane", "place": "village", "source:name": "GNS", "wikidata": "Q6419333"}}, {"type": "node", "id": 2247002673, "lat": 35.5034971, "lon": 46.186288, "tags": {"is_in:country": "Iran", "name": "\u0628\u06cc\u0644\u0647", "name:ckb": "\u0628\u06d5\u06cc\u06d5\u06b5\u06d5", "name:ku": "Bey\u00ealle", "place": "village"}}, {"type": "node", "id": 2247002676, "lat": 35.5094739, "lon": 46.2327518, "tags": {"is_in:country": "Iran", "name": "\u0644\u0646\u062c \u0622\u0628\u0627\u062f", "name:ku": "LencAwa", "place": "village"}}, {"type": "node", "id": 2247002698, "lat": 35.4640508, "lon": 46.2614876, "tags": {"is_in:country": "Iran", "name": "\u0633\u0631\u06a9\u0644", "name:ku": "Serkel", "place": "village"}}, {"type": "node", "id": 2247002701, "lat": 35.441195, "lon": 46.2652936, "tags": {"is_in:country": "Iran", "name": "\u0634\u0627\u0631\u0627\u0646\u06cc", "name:ku": "Sharan\u00ee", "place": "village"}}, {"type": "node", "id": 2247002713, "lat": 35.4104809, "lon": 46.1936872, "tags": {"is_in:country": "Iran", "name": "\u062f\u0631\u06af\u0627\u0634\u06cc\u062e\u0627\u0646", "name:ku": "DirgaSh\u00eaxan", "place": "village"}}, {"type": "node", "id": 2247002732, "lat": 35.4184118, "lon": 46.2086737, "tags": {"is_in:country": "Iran", "name": "\u0633\u0631\u0646\u0698\u0645\u0627\u0631", "name:ku": "SerNijmar", "place": "village", "wikidata": "Q6409827"}}, {"type": "node", "id": 2247002789, "lat": 35.4713752, "lon": 46.2340318, "tags": {"is_in:country": "Iran", "name": "\u0628\u0627\u0644\u06a9", "name:ku": "Balik", "place": "village"}}, {"type": "node", "id": 2247002802, "lat": 35.4479128, "lon": 46.2115607, "tags": {"is_in:country": "Iran", "name": "\u062f\u0631\u0632\u06cc\u0627\u0646", "name:ku": "Derziyan", "place": "village"}}, {"type": "node", "id": 2247002808, "lat": 35.4326893, "lon": 46.1633392, "tags": {"is_in:country": "Iran", "name": "\u06a9\u0627\u0644 \u0639\u0644\u06cc\u0627", "name:ku": "Kall Ser\u00fb", "place": "village"}}, {"type": "node", "id": 2247002821, "lat": 35.4440355, "lon": 46.173589, "tags": {"is_in:country": "Iran", "name": "\u06a9\u0627\u0644 \u0633\u0641\u0644\u06cc", "name:ku": "Kall xwar\u00fb", "place": "village"}}, {"type": "node", "id": 2247002830, "lat": 35.4588541, "lon": 46.2849407, "tags": {"is_in:country": "Iran", "name": "\u062e\u06cc\u0631\u0622\u0628\u0627\u062f", "name:ku": "XeyrAwa", "place": "village"}}, {"type": "node", "id": 2247002837, "lat": 35.4645118, "lon": 46.1804054, "tags": {"is_in:country": "Iran", "name": "\u0631\u06cc\u062e\u0644\u0627\u0646", "name:ku": "R\u00eexellan", "place": "village"}}, {"type": "node", "id": 2247002862, "lat": 35.4175147, "lon": 46.1709693, "tags": {"is_in:country": "Iran", "name": "\u062a\u0648\u062a\u0648\u0646\u062f\u0631", "name:ku": "T\u00fbt\u00fbnder", "place": "village"}}, {"type": "node", "id": 2247002874, "lat": 35.4321783, "lon": 46.2261994, "tags": {"is_in:country": "Iran", "name": "\u0646\u0698\u0645\u0627\u0631", "name:ku": "Nijmar", "place": "village", "wikidata": "Q6399183"}}, {"type": "node", "id": 2247003345, "lat": 35.5053603, "lon": 46.256815, "tags": {"is_in:country": "Iran", "name": "\u06af\u0648\u06cc\u0632\u0647 \u06a9\u0648\u06cc\u0631\u0647", "name:ku": "Gw\u00eazeKw\u00eare", "place": "village"}}, {"type": "node", "id": 2247018426, "lat": 35.4020706, "lon": 46.2177971, "tags": {"is_in:country": "Iran", "name": "\u0632\u0644\u06a9\u0647", "name:ku": "Zelke", "place": "village"}}, {"type": "node", "id": 2247018439, "lat": 35.3925334, "lon": 46.2345465, "tags": {"is_in:country": "Iran", "name": "\u062f\u0631\u0647\u200c \u0646\u0627\u062e\u06cc", "name:ku": "Derenax\u00ea", "place": "village", "wikidata": "Q5840476"}}, {"type": "node", "id": 2247018456, "lat": 35.3899966, "lon": 46.253426, "tags": {"is_in:country": "Iran", "name": "\u0630\u06a9\u0631\u06cc\u0627\u0646", "name:ku": "Zekiryan", "place": "village", "wikidata": "Q5836673"}}, {"type": "node", "id": 2247018467, "lat": 35.3586538, "lon": 46.2565696, "tags": {"is_in:country": "Iran", "name": "\u0628\u0647\u0631\u0627\u0645 \u0622\u0628\u0627\u062f", "name:en": "Bahramabad", "name:ku": "BaramAwa", "place": "village", "wikidata": "Q5860063", "wikipedia": "en:Bahramabad, Kurdistan"}}, {"type": "node", "id": 2247018491, "lat": 35.3212005, "lon": 46.346224, "tags": {"is_in:country": "Iran", "name": "\u06af\u0631\u06af\u0647 \u0627\u06cc", "name:fa": "\u0627\u0628\u0631\u0627\u0647\u06cc\u0645 \u0622\u0628\u0627\u062f", "name:ku": "Gurgey\u00ee", "place": "village", "wikidata": "Q5859768"}}, {"type": "node", "id": 2247018493, "lat": 35.354621, "lon": 46.3664809, "tags": {"is_in:country": "Iran", "name": "\u0647\u0632\u0627\u0631\u062e\u0627\u0646\u06cc", "name:ku": "Hezarxan\u00ee", "place": "village"}}, {"type": "node", "id": 2247018496, "lat": 35.3236061, "lon": 46.3387973, "tags": {"is_in:country": "Iran", "name": "\u0627\u062d\u0645\u062f \u0622\u0628\u0627\u062f \u062a\u0641\u0644\u06cc", "name:ku": "EhmewAwa", "place": "village", "wikidata": "Q5849349"}}, {"type": "node", "id": 2247018521, "lat": 35.335583, "lon": 46.1932994, "tags": {"is_in:country": "Iran", "name": "\u062f\u0645\u06cc\u0648", "name:en": "Demeyo", "place": "village", "wikidata": "Q6412061"}}, {"type": "node", "id": 2247018523, "lat": 35.3202445, "lon": 46.2605732, "tags": {"is_in:country": "Iran", "name": "\u0628\u0646\u062f\u0648\u0644", "name:en": "Bandul", "name:ku": "Bindoll", "place": "village", "wikidata": "Q5834664", "wikipedia": "en:Bandul"}}, {"type": "node", "id": 2247018526, "lat": 35.3192042, "lon": 46.1981687, "tags": {"is_in:country": "Iran", "name": "\u062f\u0631\u06a9\u06cc", "name:en": "Daraki", "name:ku": "Derek\u00ea", "place": "village", "wikidata": "Q5854491", "wikipedia": "en:Daraki, Kurdistan"}}, {"type": "node", "id": 2247018528, "lat": 35.3323947, "lon": 46.3099895, "tags": {"is_in:country": "Iran", "name": "\u062a\u0641\u0644\u06cc", "name:en": "Tefli", "name:ku": "Tifll\u00ee", "place": "village", "wikidata": "Q5837456", "wikipedia": "en:Tefli"}}, {"type": "node", "id": 2247018596, "lat": 35.3016221, "lon": 46.3529464, "tags": {"is_in:country": "Iran", "name": "\u062f\u0648\u0631\u0648\u062f", "name:en": "Dorud", "name:ku": "D\u00fbrro", "place": "village", "wikidata": "Q6411829", "wikipedia": "en:Dorud, Kurdistan"}}, {"type": "node", "id": 2247018600, "lat": 35.2958629, "lon": 46.3686207, "tags": {"name": "\u0645\u062d\u0645\u0648\u062f\u0622\u0628\u0627\u062f", "name:ku": "Mehm\u00fbawa", "place": "village", "wikidata": "Q5854916", "wikipedia": "en:Mahmudabad, Sarvabad"}}, {"type": "node", "id": 2247099370, "lat": 35.2269064, "lon": 46.4473838, "tags": {"is_in:country": "Iran", "name": "\u062f\u06af\u0627\u06af\u0627", "name:ku": "Degaga", "place": "village", "wikidata": "Q5854489"}}, {"type": "node", "id": 2247099380, "lat": 35.2204543, "lon": 46.4650245, "tags": {"is_in:country": "Iran", "name": "\u0645\u0627\u0632\u06cc\u0628\u0646", "name:fa": "\u0645\u0627\u0636\u06cc \u0628\u0646", "name:ku": "Maz\u00eebin", "place": "village", "wikidata": "Q6402531"}}, {"type": "node", "id": 2247099536, "lat": 35.2695223, "lon": 46.397489, "tags": {"is_in:country": "Iran", "name": "\u062e\u0627\u0646\u06af\u0627", "name:fa": "\u062e\u0627\u0646\u0642\u0627\u0647 \u0631\u0632\u0627\u0628", "name:ku": "Xanega", "place": "village", "wikidata": "Q5845931"}}, {"type": "node", "id": 2247099544, "lat": 35.2404, "lon": 46.2959, "tags": {"alt_name": "\u0628\u0644\u0628\u0631", "is_in:country": "Iran", "name": "\u0628\u0644\u0628\u0631", "name:en": "Bolbar", "name:ku": "Billber", "place": "village", "source:name": "GNS", "wikidata": "Q5790916"}}, {"type": "node", "id": 2247100475, "lat": 35.2036778, "lon": 46.5580635, "tags": {"is_in:country": "Iran", "name": "\u0647\u0631\u0633\u06cc\u0646", "name:en": "Harsin", "name:ku": "Hers\u00een", "place": "village", "wikidata": "Q16892115", "wikipedia": "en:Harsin, Kurdistan"}}, {"type": "node", "id": 2247101190, "lat": 35.4837212, "lon": 46.2912681, "tags": {"is_in:country": "Iran", "name": "\u0648\u0633\u0646\u0647", "name:ku": "Wesne", "place": "village"}}, {"type": "node", "id": 2247101777, "lat": 35.5165652, "lon": 46.3257153, "tags": {"is_in:country": "Iran", "name": "\u06a9\u0644\u0647 \u0648\u06cc\u0646\u062c\u0647", "name:ku": "KelleW\u00eance", "place": "village"}}, {"type": "node", "id": 2247101791, "lat": 35.5227134, "lon": 46.2953354, "tags": {"is_in:country": "Iran", "name": "\u06a9\u0627\u0646\u06cc \u06a9\u0648\u0632\u0644\u0647", "name:ku": "Kan\u00eeK\u00fbzelle", "place": "village"}}, {"type": "node", "id": 2247101804, "lat": 35.4967751, "lon": 46.345456, "tags": {"is_in:country": "Iran", "name": "\u0646\u0634\u06a9\u0627\u0634", "name:ku": "Nishkash", "place": "village"}}, {"type": "node", "id": 2247101833, "lat": 35.4583687, "lon": 46.3412032, "tags": {"is_in:country": "Iran", "name": "\u062f\u0631\u06cc", "name:ku": "Deri", "place": "village"}}, {"type": "node", "id": 2247101848, "lat": 35.5435302, "lon": 46.3381441, "tags": {"name": "\u06a9\u0648\u0644\u06cc\u062a \u062d\u0633\u06cc\u0646 \u0622\u0628\u0627\u062f", "name:ku": "Koll\u00eet", "place": "village", "ref:sci": "205838"}}, {"type": "node", "id": 2247101990, "lat": 35.5509564, "lon": 46.3791944, "tags": {"is_in:country": "Iran", "name": "\u0628\u0644\u06a9\u0631", "name:ku": "Bellkerr", "place": "village"}}, {"type": "node", "id": 2247102212, "lat": 35.5318992, "lon": 46.3754644, "tags": {"is_in:country": "Iran", "name": "\u0628\u0627\u062e\u0627\u0646", "name:ku": "Baxan", "place": "village"}}, {"type": "node", "id": 2247102235, "lat": 35.245191, "lon": 46.4595075, "tags": {"alt_name": "\u0646\u06cc\u0648\u0627;\u0646\u06cc \u0622\u0628\u0627\u062f", "alt_name:en": "Niawa;Neyabad;Niva", "is_in:country": "Iran", "name": "\u0646\u06cc \u0622\u0628\u0627\u062f", "name:en": "Niabad", "name:fa": "\u0646\u06cc\u0627\u0628\u0627\u062f", "place": "village", "source:name": "GNS", "wikidata": "Q5987503"}}, {"type": "node", "id": 2247102359, "lat": 35.2605447, "lon": 46.2394531, "tags": {"alt_name": "\u0648\u06cc\u0633\u06cc\u0627;\u0648\u06cc\u0633\u0648;\u0648\u06cc\u0633\u06cc\u0627\u0646", "alt_name:en": "Veyseva;Vaysian", "is_in:country": "Iran", "name": "\u0648\u06cc\u0633\u06cc\u0627", "name:en": "Vaysia", "name:ku": "Weysiyan", "place": "village", "source:name": "GNS"}}, {"type": "node", "id": 2247102368, "lat": 35.2649079, "lon": 46.2380159, "tags": {"alt_name": "\u0631\u0648\u062f\u0628\u0631\u0647", "alt_name:en": "Rudbareh", "is_in:country": "Iran", "name": "\u0631\u0648\u062f\u0628\u0631", "name:en": "Rudbar", "name:fa": "\u0631\u0648\u062f\u0628\u0631", "name:ku": "Roewer\u00ea", "place": "village", "source:name": "GNS"}}, {"type": "node", "id": 2247102371, "lat": 35.2668, "lon": 46.2312, "tags": {"alt_name": "\u06a9\u0645\u0627\u0644\u0647", "is_in:country": "Iran", "name": "\u06a9\u0645\u0627\u0644\u0647", "name:en": "Kamaleh", "name:ku": "Kemalle", "place": "village", "source:name": "GNS", "wikidata": "Q5801679"}}, {"type": "node", "id": 2247142851, "lat": 35.4866568, "lon": 46.4314092, "tags": {"is_in:country": "Iran", "name": "\u0628\u0631\u062f\u06cc\u0633\u067e\u06cc", "name:ku": "Berd\u00eeSp\u00ee", "place": "village"}}, {"type": "node", "id": 2247142853, "lat": 35.4885069, "lon": 46.4661914, "tags": {"is_in:country": "Iran", "name": "\u0648\u0646\u06cc\u0646\u0647\u200c \u0698\u0648\u0631\u0648", "name:ku": "wen\u00eaney j\u00fbr\u00fb", "place": "village"}}, {"type": "node", "id": 2247142854, "lat": 35.4734761, "lon": 46.4552067, "tags": {"is_in:country": "Iran", "name": "\u0648\u0646\u06cc\u0646\u0647\u200c\u06cc \u062e\u0648\u0627\u0631\u0648\u0648", "name:ku": "Wen\u00eaney xwar\u00fb", "place": "village"}}, {"type": "node", "id": 2247142855, "lat": 35.4845247, "lon": 46.4865915, "tags": {"is_in:country": "Iran", "name": "\u067e\u0644\u06cc\u0627\u0646\u062f\u0631", "name:ku": "Pilyander", "place": "village", "wikidata": "Q10860451"}}, {"type": "node", "id": 2247142856, "lat": 35.4633966, "lon": 46.4312634, "tags": {"is_in:country": "Iran", "name": "\u06a9\u0648\u0631\u0647\u200c \u062f\u0631\u0647", "name:ku": "Kore-ere", "place": "village"}}, {"type": "node", "id": 2247142857, "lat": 35.4560841, "lon": 46.4802189, "tags": {"is_in:country": "Iran", "name": "\u0648\u0631\u0648", "name:ku": "Wero", "place": "village"}}, {"type": "node", "id": 2247142858, "lat": 35.448682, "lon": 46.445217, "tags": {"is_in:country": "Iran", "name": "\u0647\u0646\u06af \u0698\u0627\u0644\u0647", "name:ku": "HengeJalle", "place": "village"}}, {"type": "node", "id": 2247142859, "lat": 35.5274558, "lon": 46.4477333, "tags": {"is_in:country": "Iran", "name": "\u062d\u0633\u0646 \u0642\u0631\u0647", "name:ku": "Hesenqere", "place": "village"}}, {"type": "node", "id": 2247142862, "lat": 35.4472, "lon": 46.4878, "tags": {"is_in:country": "Iran", "name": "\u0645\u0648\u0644\u06cc\u0646\u0627\u0646", "name:en": "Mulinan", "name:ku": "Moll\u00eanan", "place": "village", "source:name": "GNS"}}, {"type": "node", "id": 2247142865, "lat": 35.5132325, "lon": 46.4662832, "tags": {"is_in:country": "Iran", "name": "\u0634\u06cc\u062e \u0639\u0637\u0627\u0631", "name:ku": "Sh\u00eax 'Etar", "place": "village"}}, {"type": "node", "id": 2247159366, "lat": 35.4162206, "lon": 46.4151705, "tags": {"alt_name": "\u0628\u06cc\u0644\u0686\u0647 \u0633\u0631;\u0628\u0644\u0686\u0647 \u0633\u0648\u0631;\u0628\u0644\u06cc\u0686\u0647 \u0633\u0648\u0631", "alt_name:en": "Bilcheh Sar;Belicheh Sur;Belcheh Sur;Bilchehsur", "is_in:country": "Iran", "name": "\u0628\u0644\u0686\u0647 \u0633\u0648\u0631", "name:en": "Bilcheh Sur", "name:ku": "Bilches\u00fbr", "place": "village", "source:name": "GNS"}}, {"type": "node", "id": 2247159380, "lat": 35.4182555, "lon": 46.4143876, "tags": {"is_in:country": "Iran", "name": "\u0645\u0627\u0645\u0648\u0644\u0647", "name:en": "Mamuleh", "name:ku": "Mamolle", "place": "village", "source:name": "GNS"}}, {"type": "node", "id": 2247159384, "lat": 35.4305449, "lon": 46.4362251, "tags": {"alt_name": "\u06a9\u0648\u0644\u0627\u0646;\u06af\u0644\u0627\u0646", "alt_name:en": "Kulan;Gulan;Golan", "is_in:country": "Iran", "name": "\u06af\u0644\u0627\u0646", "name:en": "Galan", "name:ku": "Gulan", "place": "village", "source:name": "GNS"}}, {"type": "node", "id": 2247159398, "lat": 35.4301038, "lon": 46.4546566, "tags": {"is_in:country": "Iran", "name": "\u0644\u0627\u0648\u06cc\u0633\u0627\u0646", "name:en": "Lavisan", "name:ku": "Law\u00easan", "place": "village", "source:name": "GNS"}}, {"type": "node", "id": 2247159411, "lat": 35.4328916, "lon": 46.4780592, "tags": {"alt_name": "\u0647\u0644\u06cc\u0632 \u0622\u0628\u0627\u062f", "alt_name:en": "Helizabad", "is_in:country": "Iran", "name": "\u0647\u0644\u06cc\u0632\u0622\u0628\u0627\u062f", "name:en": "Halizabad", "name:fa": "\u0647\u0644\u06cc\u0632 \u0622\u0628\u0627\u062f", "name:ku": "Hell\u00eezawa", "place": "village", "source:name": "GNS"}}, {"type": "node", "id": 2247159423, "lat": 35.4197, "lon": 46.4988, "tags": {"is_in:country": "Iran", "name": "\u067e\u06cc\u0631 \u062e\u0636\u0631\u0627\u0646", "name:en": "Pir Khezran", "name:ku": "P\u00eerxeyran", "place": "village", "source:name": "GNS"}}, {"type": "node", "id": 2247159453, "lat": 35.3800835, "lon": 46.492953, "tags": {"alt_name": "\u0633\u0648\u0631\u06a9\u0648\u0644", "alt_name:en": "Sorkh Koval;Surkul", "is_in:country": "Iran", "name": "\u0633\u0648\u0631\u06a9\u0647\u200c\u0648\u0644", "name:en": "Sorkh Kul", "name:fa": "\u0633\u0631\u062e \u06a9\u0648\u0644", "name:ku": "S\u00fbrkewill", "place": "village", "source:name": "GNS"}}, {"type": "node", "id": 2247159478, "lat": 35.3708619, "lon": 46.4429141, "tags": {"alt_name": "\u06af\u0644\u06cc\u0647", "alt_name:en": "Giliyeh;Galyeh;Geliyeh;Gelyeh", "is_in:country": "Iran", "name": "\u06af\u0644\u06cc\u0647", "name:en": "Geleyeh", "name:ku": "Gillye", "place": "village", "source:name": "GNS"}}, {"type": "node", "id": 2247159489, "lat": 35.3783368, "lon": 46.4625258, "tags": {"alt_name": "\u0628\u06cc\u062f\u0627\u0631\u0647;\u0628\u06cc\u062f \u062f\u0631\u0647;\u0628\u06cc\u062f\u0631\u0647", "alt_name:en": "Bidareh;Bidarreh;Baidarreh;Bid Darreh", "is_in:country": "Iran", "name": "\u0628\u06cc\u062f\u0631", "name:en": "Bidar", "name:ku": "B\u00eaere", "place": "village", "source:name": "GNS"}}, {"type": "node", "id": 2247159503, "lat": 35.3634064, "lon": 46.4781261, "tags": {"alt_name": "\u0646\u06cc\u0632\u0644", "alt_name:en": "Nizal;Nizel", "is_in:country": "Iran", "name": "\u0646\u06cc\u0632\u0644", "name:en": "Neyzal", "name:ku": "N\u00eazill", "place": "village", "source:name": "GNS"}}, {"type": "node", "id": 2247159521, "lat": 35.4154, "lon": 46.5216, "tags": {"alt_name": "\u0686\u0627\u0648\u06cc\u0646;\u0634\u0627\u0647\u06cc\u0646", "alt_name:en": "Chawin;Chavin;Shahin", "is_in:country": "Iran", "name": "\u0686\u0648\u06cc\u0646", "name:en": "Chu'in", "name:fa": "\u0686\u0648\u0626\u06cc\u0646", "name:ku": "Chiw\u00een", "place": "village", "source:name": "GNS"}}, {"type": "node", "id": 2247234684, "lat": 35.568624, "lon": 46.2460481, "tags": {"is_in:country": "Iran", "name": "\u0631\u0634\u0647 \u062f\u0647", "name:en": "Reshed\u00ea", "place": "village"}}, {"type": "node", "id": 2247234685, "lat": 35.5772279, "lon": 46.2107494, "tags": {"is_in:country": "Iran", "name": "\u067e\u06cc\u0644\u0647", "place": "village"}}, {"type": "node", "id": 2247234687, "lat": 35.5517778, "lon": 46.2676061, "tags": {"is_in:country": "Iran", "name": "\u0639\u0635\u0631\u0627\u0648\u0627", "name:en": "\u0639\u0635\u0631\u0627\u0648\u0627", "place": "village"}}, {"type": "node", "id": 2247234688, "lat": 35.5808979, "lon": 46.2945629, "tags": {"is_in:country": "Iran", "name": "\u06af\u0645\u0627\u0631\u0647 \u0644\u0646\u06af", "place": "village"}}, {"type": "node", "id": 2247234689, "lat": 35.564041, "lon": 46.2020231, "tags": {"is_in:country": "Iran", "name": "\u0633\u0644\u0633\u06cc", "name:ku": "Selles\u00ee", "place": "village"}}, {"type": "node", "id": 2247234690, "lat": 35.5420343, "lon": 46.2357903, "tags": {"is_in:country": "Iran", "name": "\u062d\u0633\u0646 \u0627\u0648\u0644\u0647", "name:en": "\u062d\u0633\u0646 \u0627\u0648\u0644\u0647", "place": "village"}}, {"type": "node", "id": 2247234691, "lat": 35.6134652, "lon": 46.2077541, "tags": {"is_in:country": "Iran", "name": "\u0634\u0631\u06a9\u0647", "name:ku": "Sherrke", "place": "village"}}, {"type": "node", "id": 2247234693, "lat": 35.5527648, "lon": 46.2116123, "tags": {"is_in:country": "Iran", "name": "\u0633\u0644\u0633\u06cc \u0633\u0641\u0644\u06cc", "name:ku": "Selles\u00ee Xwar\u00fb", "place": "village"}}, {"type": "node", "id": 2247234694, "lat": 35.6365669, "lon": 46.1989043, "tags": {"is_in:country": "Iran", "name": "\u06af\u0627\u06af\u0644", "name:ku": "Gagil", "place": "village"}}, {"type": "node", "id": 2247234923, "lat": 35.5813349, "lon": 46.3317156, "tags": {"is_in:country": "Iran", "name": "\u0645\u0627\u0633\u06cc\u062f\u0631", "place": "village"}}, {"type": "node", "id": 2247235022, "lat": 35.6284675, "lon": 46.3516504, "tags": {"is_in:country": "Iran", "name": "\u0686\u0627\u0644\u06cc \u0633\u0648\u0631", "name:en": "\u0634\u0627\u0644\u06cc \u0633\u0631", "place": "village"}}, {"type": "node", "id": 2247235023, "lat": 35.5969726, "lon": 46.3470587, "tags": {"is_in:country": "Iran", "name:en": "\u062f\u0631\u067e\u0645\u0627\u0646", "place": "village"}}, {"type": "node", "id": 2247252647, "lat": 35.5992102, "lon": 46.395906, "tags": {"is_in:country": "Iran", "name": "\u06af\u0644\u0647", "name:en": "Gile", "place": "village"}}, {"type": "node", "id": 2247252650, "lat": 35.6128439, "lon": 46.4233149, "tags": {"is_in:country": "Iran", "name": "\u0632\u0648\u06cc\u0631\u0627\u0646", "name:en": "\u0632\u0648\u06cc\u0631\u0627\u0646", "place": "village"}}, {"type": "node", "id": 2247269122, "lat": 35.4644364, "lon": 46.208135, "tags": {"is_in:country": "Iran", "name": "\u06a9\u0627\u0646\u06cc \u062f\u06cc\u0646\u0627\u0631", "name:ckb": "\u06a9\u0627\u0646\u06cc\u062f\u06cc\u0646\u0627\u0631", "name:ku": "Kan\u00eed\u00eenar", "place": "town", "population": "13059"}}, {"type": "node", "id": 2671655914, "lat": 35.2594797, "lon": 46.4027797, "tags": {"is_in:country": "Iran", "name": "\u0631\u0632\u0627\u0628", "name:ku": "Rezaw", "place": "village", "wikidata": "Q6411208"}}, {"type": "node", "id": 3037820698, "lat": 35.24836, "lon": 46.515993, "tags": {"is_in:country": "Iran", "name": "\u0644\u0646\u06af\u0631\u06cc\u0632", "name:en": "\u0644\u0646\u06af\u0631\u06cc\u0632", "name:ku": "Lenger\u00eaz", "place": "village", "wikidata": "Q5784731", "wikipedia": "en:Langariz"}}, {"type": "node", "id": 3037820699, "lat": 35.223697, "lon": 46.5735363, "tags": {"is_in:country": "Iran", "name": "\u062e\u0648\u0627\u0634\u062a", "name:en": "Khvoasht", "name:ku": "Xwa\u015ft", "place": "village", "wikidata": "Q5793465", "wikipedia": "en:Khvoasht"}}, {"type": "node", "id": 3037822426, "lat": 35.2514631, "lon": 46.5642428, "tags": {"is_in:country": "Iran", "name": "\u0633\u0641\u06cc\u062f\u0628\u0646", "name:en": "Sefid Bon", "name:ku": "Sp\u00eebin", "place": "village", "wikidata": "Q5796098", "wikipedia": "en:Sefid Bon"}}, {"type": "node", "id": 3037825931, "lat": 35.2517538, "lon": 46.6024181, "tags": {"is_in:country": "Iran", "name": "\u0646\u062c\u06cc", "name:en": "Naji", "name:ku": "Nic\u00ea", "place": "village", "wikidata": "Q5805637", "wikipedia": "en:Naji, Kurdistan"}}, {"type": "node", "id": 3037851520, "lat": 35.3421308, "lon": 46.5651125, "tags": {"alt_name": "\u0628\u0646\u06cc\u062f\u0631;\u0628\u0646\u06cc \u062f\u0631\u0647;\u0628\u0646\u0647 \u062f\u0627\u0631", "alt_name:en": "Beni Dar;Bonidar;Boney Darreh;Boneh Dar", "is_in:country": "Iran", "name": "\u0628\u0646\u06cc \u062f\u0631", "name:en": "Bani Dar", "place": "village", "source:name": "GNS"}}, {"type": "node", "id": 3037851972, "lat": 35.3172543, "lon": 46.556174, "tags": {"is_in:country": "Iran", "name": "\u062f\u0631\u06cc\u0644\u0647", "name:en": "Dereyleh", "name:ku": "Dir\u00ealle", "place": "village", "wikidata": "Q5782845", "wikipedia": "en:Dereyleh"}}, {"type": "node", "id": 3037851974, "lat": 35.2881385, "lon": 46.5731661, "tags": {"is_in:country": "Iran", "name": "\u062f\u0627\u0646\u06cc\u06a9\u0634", "name:ku": "Dan\u00eeke\u015f", "place": "village"}}, {"type": "node", "id": 3040291063, "lat": 35.2767428, "lon": 46.4854291, "tags": {"is_in:country": "Iran", "name": "\u0628\u0631\u0642\u0631\u0648", "name:ku": "Berqurr\u00fb", "place": "village"}}, {"type": "node", "id": 3258037594, "lat": 35.5273994, "lon": 46.2186075, "tags": {"is_in:country": "Iran", "name": "\u062a\u0627\u0632\u0627\u0648\u0627", "name:ku": "Tazawa", "place": "village"}}, {"type": "node", "id": 3258037624, "lat": 35.5770834, "lon": 46.2097083}, {"type": "node", "id": 3258037625, "lat": 35.576441, "lon": 46.2104784}, {"type": "node", "id": 3258037626, "lat": 35.5759432, "lon": 46.2102809}, {"type": "node", "id": 3258037627, "lat": 35.5757183, "lon": 46.2106363}, {"type": "node", "id": 3258037628, "lat": 35.5759753, "lon": 46.2109918}, {"type": "node", "id": 3258037629, "lat": 35.575092, "lon": 46.2114854}, {"type": "node", "id": 3258037630, "lat": 35.5749957, "lon": 46.2122949}, {"type": "node", "id": 3258037631, "lat": 35.5756862, "lon": 46.2114261}, {"type": "node", "id": 3258037632, "lat": 35.5763286, "lon": 46.2112089}, {"type": "node", "id": 3258037633, "lat": 35.576987, "lon": 46.2112484}, {"type": "node", "id": 3258037634, "lat": 35.5771958, "lon": 46.2116631}, {"type": "node", "id": 3258037635, "lat": 35.5769228, "lon": 46.2118803}, {"type": "node", "id": 3258037636, "lat": 35.5772761, "lon": 46.2122357}, {"type": "node", "id": 3258037637, "lat": 35.577517, "lon": 46.2128675}, {"type": "node", "id": 3258037638, "lat": 35.5763447, "lon": 46.2137166}, {"type": "node", "id": 3258037639, "lat": 35.5763286, "lon": 46.2143484}, {"type": "node", "id": 3258037640, "lat": 35.576971, "lon": 46.2144866}, {"type": "node", "id": 3258037641, "lat": 35.5779345, "lon": 46.2132032}, {"type": "node", "id": 3258037642, "lat": 35.5782397, "lon": 46.2125516}, {"type": "node", "id": 3258037643, "lat": 35.5777097, "lon": 46.2124331}, {"type": "node", "id": 3258037644, "lat": 35.5775652, "lon": 46.2116038}, {"type": "node", "id": 3258037645, "lat": 35.5778542, "lon": 46.2111102}, {"type": "node", "id": 3258037646, "lat": 35.5775009, "lon": 46.2101427}, {"type": "node", "id": 3274099211, "lat": 35.2753602, "lon": 46.4892096}, {"type": "node", "id": 3274099212, "lat": 35.2771946, "lon": 46.4879421}, {"type": "node", "id": 3274099213, "lat": 35.2780334, "lon": 46.4869146}, {"type": "node", "id": 3274099214, "lat": 35.2787233, "lon": 46.4854838}, {"type": "node", "id": 3274099215, "lat": 35.278833, "lon": 46.4844275}, {"type": "node", "id": 3274099216, "lat": 35.2788644, "lon": 46.4832176}, {"type": "node", "id": 3274099217, "lat": 35.2779158, "lon": 46.4833712}, {"type": "node", "id": 3274099218, "lat": 35.2768732, "lon": 46.4837265}, {"type": "node", "id": 3274099219, "lat": 35.2758149, "lon": 46.4835057}, {"type": "node", "id": 3274099220, "lat": 35.2752348, "lon": 46.483304}, {"type": "node", "id": 3274099221, "lat": 35.2746233, "lon": 46.4837265}, {"type": "node", "id": 3274099222, "lat": 35.2749134, "lon": 46.4857239}, {"type": "node", "id": 3274099223, "lat": 35.2743411, "lon": 46.4870106}, {"type": "node", "id": 3274099224, "lat": 35.2743803, "lon": 46.4886526}, {"type": "node", "id": 3517168064, "lat": 35.2113, "lon": 46.4869, "tags": {"is_in:country": "Iran", "name": "\u062f\u0647 \u0642\u0631\u0627\u0646", "name:en": "Deh-e Qaran", "place": "village", "source:name": "GNS"}}, {"type": "node", "id": 3517168072, "lat": 35.2800367, "lon": 46.218, "tags": {"is_in:country": "Iran", "name": "\u0627\u062d\u0645\u062f \u0639\u0627\u0641\u0647", "name:ckb": "\u0626\u0647 \u062d\u0645\u0647 \u062f \u0639\u0627\u0641\u0647", "name:en": "ahmad afe (ahmed jola)", "place": "village", "source:name": "GNS", "wikidata": "Q118383270"}}, {"type": "node", "id": 3517168077, "lat": 35.2643394, "lon": 46.2518181, "tags": {"is_in:country": "Iran", "name": "\u062d\u0635\u0627\u0631\u06cc\u0647", "name:en": "Hesariyeh", "place": "village", "source:name": "GNS"}}, {"type": "node", "id": 3517168078, "lat": 35.2956905, "lon": 46.1918188, "tags": {"is_in:country": "Iran", "name": "\u0647\u0632\u0627\u0631\u0627\u0646\u06cc", "name:en": "Hezarani", "place": "hamlet", "source:name": "GNS"}}, {"type": "node", "id": 3517171193, "lat": 35.3023, "lon": 46.3565, "tags": {"is_in:country": "Iran", "name": "\u0645\u0644\u0627 \u0639\u062b\u0645\u0627\u0646", "name:en": "Molla `Osman", "place": "village", "source:name": "GNS"}}, {"type": "node", "id": 3517171206, "lat": 35.256, "lon": 46.2669, "tags": {"is_in:country": "Iran", "name": "\u0633\u0631\u067e\u06cc\u0631", "name:en": "Sarpir", "place": "village", "source:name": "GNS", "wikidata": "Q5822334"}}, {"type": "node", "id": 3517171216, "lat": 35.2526, "lon": 46.2624, "tags": {"alt_name": "\u0627\u0631\u0645\u0646 \u062a\u062e\u062a;\u0627\u0648\u0631\u0627\u0645\u0627\u0646 \u0634\u0647\u0631;\u0648\u0631\u0627\u0645\u0627\u0646 \u062a\u062e\u062a;\u0627\u0648\u0631\u0627\u0645\u0627\u0646;\u0648\u0631\u0627\u0645\u0627\u0646;\u0627\u0648\u0631\u0645\u0627\u0646", "alt_name:en": "Shehr-i-Avroman;Ooraman Takht;Owraman Shahr;Uraman;Owraman;Avroman", "is_in:country": "Iran", "name": "\u0627\u0648\u0631\u0627\u0645\u0627\u0646 \u062a\u062e\u062a", "name:ckb": "\u06be\u06d5\u0648\u0631\u0627\u0645\u0627\u0646 \u062a\u06d5\u062e\u062a", "name:en": "Uraman Takht", "name:fr": "Ooraman", "name:ku": "Hewraman", "name:ru": "\u0423\u0440\u0430\u043c\u0430\u043d \u0422\u0430\u0445\u0442", "place": "town", "population": "3176", "source:name": "GNS", "wikidata": "Q5957064", "wikipedia": "en:Uraman Takht"}}, {"type": "node", "id": 3517171218, "lat": 35.3201, "lon": 46.2067, "tags": {"is_in:country": "Iran", "name": "\u0648\u0632\u0644\u06cc", "name:en": "Vazli", "place": "village", "source:name": "GNS"}}, {"type": "node", "id": 3517172107, "lat": 35.2857674, "lon": 46.1775036}, {"type": "node", "id": 3517172108, "lat": 35.2856045, "lon": 46.1770323}, {"type": "node", "id": 3517172109, "lat": 35.2861649, "lon": 46.1777226}, {"type": "node", "id": 3517172110, "lat": 35.2867806, "lon": 46.1776622}, {"type": "node", "id": 3517172111, "lat": 35.2858315, "lon": 46.1763807}, {"type": "node", "id": 3517172112, "lat": 35.2881866, "lon": 46.1766539}, {"type": "node", "id": 3517252669, "lat": 35.3673, "lon": 46.5336, "tags": {"alt_name": "\u0628\u0627\u0642\u0644\u0627\u0628\u0627\u062f;\u0628\u0627\u0642\u0644 \u0622\u0628\u0627\u062f", "alt_name:en": "Baqlabad;Baqelabad", "is_in:country": "Iran", "name": "\u0628\u0627\u0642\u0631 \u0622\u0628\u0627\u062f", "name:en": "Baqerabad", "name:ku": "Baqlawa", "place": "village", "source:name": "GNS"}}, {"type": "node", "id": 3517252671, "lat": 35.3533499, "lon": 46.544376, "tags": {"alt_name": "\u062e\u0646\u062c\u0647;\u062e\u0627\u0646\u06af\u0647", "alt_name:en": "Khaneqah-e Juju;Khangeh;Khanjeh;Khanaqah-e Juju", "is_in:country": "Iran", "name": "\u062e\u0627\u0646\u0642\u0627\u0647 \u062c\u0648\u062c\u0648", "name:en": "Khaneqah Juju", "name:ku": "Xaneqa C\u00fbc\u00fb", "place": "village", "source:name": "GNS"}}, {"type": "node", "id": 3517252672, "lat": 35.3474, "lon": 46.523, "tags": {"alt_name": "\u0632\u0646\u062c;\u0632\u0646\u0686", "alt_name:en": "Zownj;Zonj;Zanech;Zavanj;Zanaj", "is_in:country": "Iran", "name": "\u0632\u0648\u0646\u062c", "name:en": "Zovenj", "name:ku": "Zonc", "place": "village", "source:name": "GNS"}}, {"type": "node", "id": 4383395423, "lat": 35.5035371, "lon": 46.1619824}, {"type": "node", "id": 4383395456, "lat": 35.5040872, "lon": 46.1805631}, {"type": "node", "id": 4383395503, "lat": 35.506035, "lon": 46.1827867}, {"type": "node", "id": 4383395645, "lat": 35.5034219, "lon": 46.1946267}, {"type": "node", "id": 4383395647, "lat": 35.5052812, "lon": 46.2026205}, {"type": "node", "id": 4383395862, "lat": 35.5105818, "lon": 46.214488}, {"type": "node", "id": 4383395950, "lat": 35.5130175, "lon": 46.214953}, {"type": "node", "id": 4383395951, "lat": 35.5130405, "lon": 46.2150681}, {"type": "node", "id": 4383395989, "lat": 35.5174152, "lon": 46.2155798}, {"type": "node", "id": 4383396090, "lat": 35.5362176, "lon": 46.2315881}, {"type": "node", "id": 4383396135, "lat": 35.538304, "lon": 46.2308214}, {"type": "node", "id": 4383396162, "lat": 35.5409495, "lon": 46.2138071}, {"type": "node", "id": 4383396214, "lat": 35.5424781, "lon": 46.2063175}, {"type": "node", "id": 4383396278, "lat": 35.5375376, "lon": 46.1794764}, {"type": "node", "id": 4446818867, "lat": 35.2780191, "lon": 46.1943544, "tags": {"is_in:country": "Iran", "name": "\u062e\u0648\u0627\u0631\u0647 \u06af\u0627\u0644\u0647", "place": "hamlet"}}, {"type": "node", "id": 4493293286, "lat": 35.5932771, "lon": 46.3084659, "tags": {"is_in:country": "Iran", "is_in:state": "Kurdistan", "name": "\u0634\u0647\u0631 \u062c\u062f\u06cc\u062f \u0686\u0646\u0627\u0631\u0647", "name:ckb": "\u0686\u0646\u0627\u0631\u06d5", "name:ku": "\u00c7inare", "old_name": "\u0648\u06cc\u0644\u0647", "place": "town"}}, {"type": "node", "id": 5235962379, "lat": 35.5079292, "lon": 46.2089999}, {"type": "node", "id": 5235962405, "lat": 35.5078647, "lon": 46.2089894}, {"type": "node", "id": 5638508975, "lat": 35.2931702, "lon": 46.2357086, "tags": {"name": "\u06a9\u0627\u0648\u0647", "place": "hamlet"}}, {"type": "node", "id": 6443876778, "lat": 35.2855848, "lon": 46.2152978}, {"type": "node", "id": 6443876779, "lat": 35.2859741, "lon": 46.2146953}, {"type": "node", "id": 6443876780, "lat": 35.2856326, "lon": 46.2144862}, {"type": "node", "id": 6443876781, "lat": 35.2857214, "lon": 46.2142602}, {"type": "node", "id": 6443876782, "lat": 35.2854004, "lon": 46.2140845}, {"type": "node", "id": 6443876783, "lat": 35.2854004, "lon": 46.2136075}, {"type": "node", "id": 6443876784, "lat": 35.2856872, "lon": 46.2130301}, {"type": "node", "id": 6443879385, "lat": 35.285011, "lon": 46.2125699}, {"type": "node", "id": 6443879386, "lat": 35.2846422, "lon": 46.2125783}, {"type": "node", "id": 6443879387, "lat": 35.2845534, "lon": 46.2129465}, {"type": "node", "id": 6443879388, "lat": 35.2848676, "lon": 46.2135489}, {"type": "node", "id": 6443879389, "lat": 35.2848744, "lon": 46.2142184}, {"type": "node", "id": 6443879390, "lat": 35.284608, "lon": 46.214277}, {"type": "node", "id": 6443879391, "lat": 35.2844167, "lon": 46.2140678}, {"type": "node", "id": 6443879392, "lat": 35.2839249, "lon": 46.2139757}, {"type": "node", "id": 6443879393, "lat": 35.2835424, "lon": 46.2141514}, {"type": "node", "id": 6443879394, "lat": 35.2833443, "lon": 46.2145364}, {"type": "node", "id": 6443879395, "lat": 35.2832282, "lon": 46.2150301}, {"type": "node", "id": 6443879396, "lat": 35.2831462, "lon": 46.2153397}, {"type": "node", "id": 6443879397, "lat": 35.2836107, "lon": 46.2155991}, {"type": "node", "id": 6443879398, "lat": 35.2838156, "lon": 46.2161179}, {"type": "node", "id": 6443879399, "lat": 35.2839249, "lon": 46.2171388}, {"type": "node", "id": 6443879400, "lat": 35.2848471, "lon": 46.2176408}, {"type": "node", "id": 6443879401, "lat": 35.2854345, "lon": 46.2162434}, {"type": "node", "id": 6443885194, "lat": 35.2983483, "lon": 46.2164304}, {"type": "node", "id": 6443885195, "lat": 35.297914, "lon": 46.2169034}, {"type": "node", "id": 6443885196, "lat": 35.2972445, "lon": 46.2173468}, {"type": "node", "id": 6443885197, "lat": 35.2965087, "lon": 46.2171694}, {"type": "node", "id": 6443885198, "lat": 35.2958271, "lon": 46.2166743}, {"type": "node", "id": 6443885199, "lat": 35.2958814, "lon": 46.2162974}, {"type": "node", "id": 6443885200, "lat": 35.2961528, "lon": 46.2161644}, {"type": "node", "id": 6443885201, "lat": 35.2965268, "lon": 46.2162752}, {"type": "node", "id": 6443885202, "lat": 35.296961, "lon": 46.2160683}, {"type": "node", "id": 6443885203, "lat": 35.2973953, "lon": 46.2160609}, {"type": "node", "id": 6443885204, "lat": 35.2977331, "lon": 46.2162161}, {"type": "node", "id": 6443885205, "lat": 35.2981975, "lon": 46.2160313}, {"type": "node", "id": 6443887041, "lat": 35.2960977, "lon": 46.2161914}, {"type": "node", "id": 6443887291, "lat": 35.2855677, "lon": 46.2154056}, {"type": "node", "id": 6448200609, "lat": 35.2860604, "lon": 46.1758517}, {"type": "node", "id": 6448200610, "lat": 35.2865517, "lon": 46.1751901}, {"type": "node", "id": 6448200611, "lat": 35.2871334, "lon": 46.1744496}, {"type": "node", "id": 6448200612, "lat": 35.2884448, "lon": 46.1744669}, {"type": "node", "id": 6448200613, "lat": 35.2886848, "lon": 46.175108}, {"type": "node", "id": 6448200614, "lat": 35.2887491, "lon": 46.1763151}, {"type": "node", "id": 6448255875, "lat": 35.2847778, "lon": 46.1868014}, {"type": "node", "id": 6448255876, "lat": 35.2849537, "lon": 46.1866055}, {"type": "node", "id": 6448255877, "lat": 35.2852176, "lon": 46.1867965}, {"type": "node", "id": 6448255878, "lat": 35.2855054, "lon": 46.1873695}, {"type": "node", "id": 6448255879, "lat": 35.2853935, "lon": 46.187629}, {"type": "node", "id": 6448255880, "lat": 35.2852416, "lon": 46.1880012}, {"type": "node", "id": 6448255881, "lat": 35.2853215, "lon": 46.1882314}, {"type": "node", "id": 6448255882, "lat": 35.2850177, "lon": 46.1883293}, {"type": "node", "id": 6448255883, "lat": 35.2846299, "lon": 46.1880257}, {"type": "node", "id": 6448255884, "lat": 35.2843061, "lon": 46.1878788}, {"type": "node", "id": 6448263385, "lat": 35.284486, "lon": 46.1872225}, {"type": "node", "id": 6448263386, "lat": 35.2845819, "lon": 46.1869238}, {"type": "node", "id": 6640049764, "lat": 35.5583146, "lon": 46.1763847, "tags": {"name": "\u0686\u0627\u0648\u06a9", "place": "village"}}, {"type": "node", "id": 6642491014, "lat": 35.4880177, "lon": 46.1800271, "tags": {"name": "\u0628\u0631\u0642\u0644\u0639\u0647", "place": "village"}}, {"type": "node", "id": 6642521350, "lat": 35.4728291, "lon": 46.1961472, "tags": {"name": "\u0647\u062c\u0631\u062a", "place": "village"}}, {"type": "node", "id": 7262114740, "lat": 35.4997404, "lon": 46.1540364}, {"type": "node", "id": 7262126269, "lat": 35.5060989, "lon": 46.1462688}, {"type": "node", "id": 7262126270, "lat": 35.5079504, "lon": 46.1435652}, {"type": "node", "id": 7262126271, "lat": 35.525346, "lon": 46.1539077}, {"type": "node", "id": 7262126272, "lat": 35.527651, "lon": 46.1562252}, {"type": "node", "id": 7262126273, "lat": 35.5312832, "lon": 46.1617398}, {"type": "node", "id": 7262126274, "lat": 35.5364869, "lon": 46.1656665}, {"type": "node", "id": 8400653429, "lat": 35.3885952, "lon": 46.5339553, "tags": {"name": "\u0634\u0627\u06cc\u0646", "place": "hamlet"}}, {"type": "node", "id": 8422473721, "lat": 35.5108499, "lon": 46.1406469}, {"type": "node", "id": 8422473722, "lat": 35.5162644, "lon": 46.1439514}, {"type": "node", "id": 8422473723, "lat": 35.5190938, "lon": 46.1440801}, {"type": "node", "id": 8422473724, "lat": 35.5227264, "lon": 46.1456251}, {"type": "node", "id": 8422473725, "lat": 35.5244029, "lon": 46.1488437}, {"type": "node", "id": 8422473726, "lat": 35.5402584, "lon": 46.1675548}, {"type": "node", "id": 8865694996, "lat": 35.2784837, "lon": 46.2207168, "tags": {"name": "\u06a9\u0647 \u0644\u0648 \u062c\u0646\u06cc\u0631\u0647 \u06cc", "place": "hamlet"}}, {"type": "node", "id": 8865748583, "lat": 35.2747322, "lon": 46.2090268, "tags": {"name": "\u0645\u0627\u0633\u0631\u0627\u0686\u06cc", "place": "hamlet"}}, {"type": "node", "id": 9875947628, "lat": 35.2341743, "lon": 46.2639952, "tags": {"place": "hamlet"}}, {"type": "node", "id": 10968684285, "lat": 35.5589256, "lon": 46.1466283}, {"type": "node", "id": 10968684286, "lat": 35.5592223, "lon": 46.1479586}, {"type": "node", "id": 10968684287, "lat": 35.5594798, "lon": 46.1494607}, {"type": "node", "id": 10968684288, "lat": 35.5590652, "lon": 46.1496592}, {"type": "node", "id": 10968684289, "lat": 35.5588863, "lon": 46.1492032}, {"type": "node", "id": 10968684290, "lat": 35.5586725, "lon": 46.1492675}, {"type": "node", "id": 10968684291, "lat": 35.5586245, "lon": 46.1496645}, {"type": "node", "id": 10968684292, "lat": 35.5588383, "lon": 46.1499327}, {"type": "node", "id": 10968684293, "lat": 35.5592616, "lon": 46.1504692}, {"type": "node", "id": 10968684294, "lat": 35.559183, "lon": 46.151247}, {"type": "node", "id": 10968684295, "lat": 35.5595322, "lon": 46.1516923}, {"type": "node", "id": 10968684296, "lat": 35.5595758, "lon": 46.1522877}, {"type": "node", "id": 10968684297, "lat": 35.5595409, "lon": 46.1530548}, {"type": "node", "id": 10968684298, "lat": 35.5597024, "lon": 46.1530817}, {"type": "node", "id": 10968684299, "lat": 35.5595802, "lon": 46.1541063}, {"type": "node", "id": 10968684300, "lat": 35.5596675, "lon": 46.1549431}, {"type": "node", "id": 10968684301, "lat": 35.5594274, "lon": 46.1552221}, {"type": "node", "id": 10968684302, "lat": 35.5593445, "lon": 46.1557692}, {"type": "node", "id": 10968684303, "lat": 35.5594885, "lon": 46.1564344}, {"type": "node", "id": 10968684304, "lat": 35.5597067, "lon": 46.1570245}, {"type": "node", "id": 10968721705, "lat": 35.5597896, "lon": 46.1573142}, {"type": "node", "id": 10968721706, "lat": 35.5595584, "lon": 46.1581939}, {"type": "node", "id": 10968721707, "lat": 35.5595104, "lon": 46.1588699}, {"type": "node", "id": 10968721708, "lat": 35.5597984, "lon": 46.1590522}, {"type": "node", "id": 10968721709, "lat": 35.5600559, "lon": 46.1587357}, {"type": "node", "id": 10968721710, "lat": 35.5602435, "lon": 46.1582959}, {"type": "node", "id": 10968721711, "lat": 35.560405, "lon": 46.1583924}, {"type": "node", "id": 10968721712, "lat": 35.5605839, "lon": 46.1583227}, {"type": "node", "id": 10968721713, "lat": 35.5606886, "lon": 46.1580008}, {"type": "node", "id": 10968721714, "lat": 35.5605883, "lon": 46.1575824}, {"type": "node", "id": 10968721715, "lat": 35.5604617, "lon": 46.1571532}, {"type": "node", "id": 10968721716, "lat": 35.5605533, "lon": 46.1564827}, {"type": "node", "id": 10968721717, "lat": 35.5606624, "lon": 46.1559838}, {"type": "node", "id": 10968721718, "lat": 35.5609243, "lon": 46.1554527}, {"type": "node", "id": 10968721719, "lat": 35.5607104, "lon": 46.1551952}, {"type": "node", "id": 10968721720, "lat": 35.5607934, "lon": 46.1550879}, {"type": "node", "id": 10968721721, "lat": 35.5606755, "lon": 46.154809}, {"type": "node", "id": 10968721722, "lat": 35.5609156, "lon": 46.1546159}, {"type": "node", "id": 10968721723, "lat": 35.5608501, "lon": 46.1542672}, {"type": "node", "id": 10968721724, "lat": 35.5609636, "lon": 46.154117}, {"type": "node", "id": 10968721725, "lat": 35.5610596, "lon": 46.1539721}, {"type": "node", "id": 10968721726, "lat": 35.5611425, "lon": 46.153602}, {"type": "node", "id": 10968721727, "lat": 35.5613389, "lon": 46.1534893}, {"type": "node", "id": 10968721728, "lat": 35.561317, "lon": 46.1532479}, {"type": "node", "id": 10968721729, "lat": 35.5612167, "lon": 46.1532426}, {"type": "node", "id": 10968721730, "lat": 35.5611294, "lon": 46.1526042}, {"type": "node", "id": 10968721731, "lat": 35.561077, "lon": 46.1518371}, {"type": "node", "id": 10968721732, "lat": 35.5605315, "lon": 46.1515582}, {"type": "node", "id": 10968721733, "lat": 35.560597, "lon": 46.1514133}, {"type": "node", "id": 10968721734, "lat": 35.5604137, "lon": 46.1509359}, {"type": "node", "id": 10968721735, "lat": 35.5601693, "lon": 46.1508071}, {"type": "node", "id": 10968721736, "lat": 35.5601388, "lon": 46.1504316}, {"type": "node", "id": 10968721737, "lat": 35.5600777, "lon": 46.1489886}, {"type": "node", "id": 10968721738, "lat": 35.5605664, "lon": 46.1488169}, {"type": "node", "id": 10968721739, "lat": 35.560597, "lon": 46.1484683}, {"type": "node", "id": 10968721740, "lat": 35.5600471, "lon": 46.1483985}, {"type": "node", "id": 10968721741, "lat": 35.5600078, "lon": 46.1475295}, {"type": "node", "id": 10968721742, "lat": 35.5597722, "lon": 46.1462849}, {"type": "node", "id": 10968721743, "lat": 35.5592267, "lon": 46.1458987}, {"type": "node", "id": 10968721744, "lat": 35.5587859, "lon": 46.1461776}, {"type": "way", "id": 319391759, "nodes": [3258037624, 3258037625, 3258037626, 3258037627, 3258037628, 3258037629, 3258037630, 3258037631, 3258037632, 3258037633, 3258037634, 3258037635, 3258037636, 3258037637, 3258037638, 3258037639, 3258037640, 3258037641, 3258037642, 3258037643, 3258037644, 3258037645, 3258037646, 3258037624], "tags": {"landuse": "residential"}}, {"type": "way", "id": 320766032, "nodes": [3274099211, 3274099212, 3274099213, 3274099214, 3274099215, 3274099216, 3274099217, 3274099218, 3274099219, 3274099220, 3274099221, 3274099222, 3274099223, 3274099224, 3274099211], "tags": {"is_in:country": "Iran", "landuse": "residential", "name": "\u0628\u0631\u0642\u0631\u0648", "name:ku": "Berqurr\u00fb", "place": "village"}}, {"type": "way", "id": 345017300, "nodes": [3517172109, 3517172107, 3517172108, 3517172111, 6448200609, 6448200610, 6448200611, 6448200612, 6448200613, 6448200614, 3517172112, 3517172110, 3517172109], "tags": {"name": "\u0647\u0627\u0646\u0647 \u062c\u0645\u0647", "name:en": "hane jme", "place": "hamlet", "source": "bing"}}, {"type": "way", "id": 440579014, "nodes": [4383396278, 4383396214, 4383396162, 4383396135, 4383396090, 4383395989, 4383395951, 4383395950, 4383395862, 5235962379, 5235962405, 4383395647, 4383395645], "tags": {"admin_level": "7", "boundary": "administrative", "source": "https://wiki.openstreetmap.org/wiki/WikiProject_Iran/Iran_boundaries_import"}}, {"type": "way", "id": 687434113, "nodes": [6443876778, 6443876779, 6443876780, 6443876781, 6443876782, 6443876783, 6443876784, 6443879385, 6443879386, 6443879387, 6443879388, 6443879389, 6443879390, 6443879391, 6443879392, 6443879393, 6443879394, 6443879395, 6443879396, 6443879397, 6443879398, 6443879399, 6443879400, 6443879401, 6443887291, 6443876778], "tags": {"name": "\u06af\u0647 \u0686\u0627\u0646\u06cc", "place": "hamlet"}}, {"type": "way", "id": 687434848, "nodes": [6443885194, 6443885195, 6443885196, 6443885197, 6443885198, 6443885199, 6443887041, 6443885200, 6443885201, 6443885202, 6443885203, 6443885204, 6443885205, 6443885194], "tags": {"name": "\u067e\u06cc\u0631\u0648\u0633\u0645", "place": "hamlet"}}, {"type": "way", "id": 687821817, "nodes": [6448255875, 6448255876, 6448255877, 6448255878, 6448255879, 6448255880, 6448255881, 6448255882, 6448255883, 6448255884, 6448263385, 6448263386, 6448255875], "tags": {"name": "\u0647\u0627\u0646\u0647 \u0645\u0647 \u0641\u0647 \u0631\u0627", "place": "hamlet"}}, {"type": "way", "id": 778121420, "nodes": [4383396278, 8422473726, 7262126274, 7262126273, 7262126272, 7262126271, 8422473725, 8422473724, 8422473723, 8422473722, 8422473721, 7262126270, 7262126269, 7262114740]}, {"type": "way", "id": 778121422, "nodes": [4383395645, 4383395503, 4383395456, 4383395423, 7262114740], "tags": {"admin_level": "7", "boundary": "administrative", "source": "https://wiki.openstreetmap.org/wiki/WikiProject_Iran/Iran_boundaries_import"}}, {"type": "way", "id": 1181073729, "nodes": [10968721744, 10968721743, 10968721742, 10968721741, 10968721740, 10968721739, 10968721738, 10968721737, 10968721736, 10968721735, 10968721734, 10968721733, 10968721732, 10968721731, 10968721730, 10968721729, 10968721728, 10968721727, 10968721726, 10968721725, 10968721724, 10968721723, 10968721722, 10968721721, 10968721720, 10968721719, 10968721718, 10968721717, 10968721716, 10968721715, 10968721714, 10968721713, 10968721712, 10968721711, 10968721710, 10968721709, 10968721708, 10968721707, 10968721706, 10968721705, 10968684304, 10968684303, 10968684302, 10968684301, 10968684300, 10968684299, 10968684298, 10968684297, 10968684296, 10968684295, 10968684294, 10968684293, 10968684292, 10968684291, 10968684290, 10968684289, 10968684288, 10968684287, 10968684286, 10968684285, 10968721744], "tags": {"landuse": "residential"}}, {"type": "relation", "id": 10783118, "members": [{"type": "way", "ref": 778121420, "role": "outer"}, {"type": "way", "ref": 440579014, "role": "outer"}, {"type": "way", "ref": 778121422, "role": "outer"}, {"type": "node", "ref": 819610937, "role": "label"}], "tags": {"admin_level": "7", "boundary": "administrative", "name": "\u0634\u0647\u0631 \u0645\u0631\u06cc\u0648\u0627\u0646", "name:en": "Marivan", "place": "city", "type": "boundary", "wikidata": "Q631517"}}, {"type": "relation", "id": 15848910, "members": [{"type": "way", "ref": 319391759, "role": "outer"}, {"type": "node", "ref": 2247234685, "role": "admin_centre"}], "tags": {"admin_level": "8", "boundary": "administrative", "name": "\u067e\u06cc\u0644\u0647", "place": "village", "type": "boundary"}}, {"type": "relation", "id": 15968365, "members": [{"type": "node", "ref": 2246993757, "role": "label"}, {"type": "way", "ref": 1181073729, "role": "outer"}], "tags": {"admin_level": "8", "boundary": "administrative", "name": "\u06a9\u0648\u0644\u0627\u0646", "place": "village", "type": "boundary"}}]}