{"version": 0.6, "generator": "Overpass API 0.7.61.5 4133829e", "osm3s": {"timestamp_osm_base": "2024-03-06T11:21:41Z", "copyright": "The data included in this document is from www.openstreetmap.org. The data is made available under ODbL."}, "elements": [{"type": "node", "id": 6144729086, "lat": 0.2333363, "lon": 37.9402966, "tags": {"addr:city": "Maua", "addr:street": "Meru-Maua Road", "amenity": "bank", "name": "Co-op Bank ATM - Maua Branch"}}, {"type": "node", "id": 6144729087, "lat": 0.2335137, "lon": 37.9432139, "tags": {"addr:city": "Maua", "addr:street": "Murram Road", "amenity": "bank", "name": "National Bank-Kianjai"}}, {"type": "node", "id": 6144729089, "lat": 0.232602, "lon": 37.9409996, "tags": {"addr:city": "Maua", "addr:street": "Meru-Maua Road", "amenity": "bank", "name": "Family Bank Maua"}}, {"type": "node", "id": 6144729090, "lat": 0.2316153, "lon": 37.9399381, "tags": {"addr:city": "Maua", "addr:street": "Meru-Maua Road", "amenity": "bank", "atm": "yes", "name": "Equity Bank Maua"}}, {"type": "node", "id": 6144729091, "lat": 0.2290706, "lon": 37.9411026, "tags": {"addr:city": "Maua", "addr:street": "Meru-Maua Road", "amenity": "bank", "name": "National Bank, Maua"}}]}