{"version": 0.6, "generator": "Overpass API 0.7.61.5 4133829e", "osm3s": {"timestamp_osm_base": "2024-02-29T13:47:24Z", "copyright": "The data included in this document is from www.openstreetmap.org. The data is made available under ODbL."}, "elements": [{"type": "node", "id": 7187323586, "lat": 7.4570502, "lon": -1.1062948, "tags": {"amenity": "school", "name": "Adidwan MA Basic"}}, {"type": "node", "id": 7187323588, "lat": 7.4812452, "lon": -1.1003761, "tags": {"amenity": "school", "name": "Yaw Tuffour RC Basic"}}, {"type": "node", "id": 7187441086, "lat": 7.6142733, "lon": -1.1730932, "tags": {"amenity": "school", "name": "Fanfour MA Basic"}}, {"type": "node", "id": 7188025085, "lat": 7.607896, "lon": -1.1214077, "tags": {"amenity": "school", "name": "Abour RC"}}, {"type": "node", "id": 7188315685, "lat": 7.5786733, "lon": -1.0177112, "tags": {"amenity": "school", "name": "Brofoyedru MA school"}}, {"type": "node", "id": 7189335586, "lat": 7.6278688, "lon": -0.9707859, "tags": {"amenity": "school", "name": "Watro MA basic"}}]}