{"version": 0.6, "generator": "Overpass API 0.7.61.5 4133829e", "osm3s": {"timestamp_osm_base": "2024-03-05T13:43:59Z", "copyright": "The data included in this document is from www.openstreetmap.org. The data is made available under ODbL."}, "elements": [{"type": "node", "id": 3461506567, "lat": 35.6195354, "lon": 69.212448, "tags": {"name": "\u0627\u0646\u062f\u0631\u0627\u0628", "name:ar": "\u0623\u0646\u062f\u0631\u0627\u0628", "name:de": "Andarab", "name:en": "Andarab", "name:fa": "\u0627\u0646\u062f\u0631\u0627\u0628", "name:ks": "\u0627\u0646\u062f\u0631\u0627\u0628", "name:pnb": "\u0627\u0646\u062f\u0631\u0622\u0628", "name:ps": "\u0627\u0646\u062f\u0631\u0627\u0628", "name:ru": "\u0410\u043d\u0434\u0430\u0440\u0430\u0431", "name:ur": "\u0627\u0646\u062f\u0631\u0627\u0628", "place": "town"}}, {"type": "node", "id": 3540107673, "lat": 35.6029719, "lon": 68.9034638, "tags": {"alt_name": "Khinjan", "name": "\u062e\u0646\u062c\u0627\u0646", "name:ar": "\u062e\u0646\u062c\u0627\u0646", "name:en": "Khenjan", "name:ja": "\u30af\u30d8\u30f3\u30b8\u30e3\u30f3", "name:ps": "\u062e\u0646\u062c\u0627\u0646", "name:ru": "\u0425\u0438\u043d\u0434\u0436\u0430\u043d", "name:uk": "\u0425\u0435\u043d\u0434\u0436\u0430\u043d", "place": "town", "source:name": "GNS"}}, {"type": "node", "id": 3996678758, "lat": 35.6006287, "lon": 68.8833775, "tags": {"name": "Chwgani", "place": "village"}}, {"type": "node", "id": 3996681060, "lat": 35.6062683, "lon": 68.8997731, "tags": {"name": "Ahangaran", "place": "village"}}, {"type": "node", "id": 3996681061, "lat": 35.5952164, "lon": 68.9975389, "tags": {"alt_name": "Dashti Amrud", "name": "\u062f\u0634\u062a \u0627\u0645\u0631\u0648\u062a", "name:en": "Dasht-e Amrut", "name:ps": "\u062f\u0634\u062a \u0627\u0645\u0631\u0648\u062a", "place": "village", "source:name": "GNS"}}, {"type": "node", "id": 3996681062, "lat": 35.5973308, "lon": 68.9388574, "tags": {"name": "Kawa", "place": "village"}}, {"type": "node", "id": 3996681063, "lat": 35.6041576, "lon": 68.9525104, "tags": {"name": "Seyachob e Mazar", "place": "village"}}, {"type": "node", "id": 3996681064, "lat": 35.6048791, "lon": 68.923483, "tags": {"name": "Turkan", "place": "village"}}, {"type": "node", "id": 3996681065, "lat": 35.5951275, "lon": 68.9640875, "tags": {"name": "Yakawlang", "place": "village"}}, {"type": "node", "id": 3996681798, "lat": 35.5274324, "lon": 68.923223, "tags": {"name": "Chandaran", "place": "village"}}, {"type": "node", "id": 3996681799, "lat": 35.5455076, "lon": 68.9223061, "tags": {"name": "Chokak", "place": "village"}}, {"type": "node", "id": 3996681800, "lat": 35.5056598, "lon": 68.9301635, "tags": {"name": "Lalmayee", "place": "village"}}, {"type": "node", "id": 4400695254, "lat": 35.6016078, "lon": 68.9993265, "tags": {"alt_name": "Doawi;Do Awi", "name": "\u062f\u0648 \u0622\u0648\u06cc", "name:en": "Doabi", "name:ps": "\u062f\u0648 \u0622\u0648\u06cc", "name:ru": "Duavi", "place": "village", "source:name": "GNS"}}, {"type": "node", "id": 4401017984, "lat": 35.633484, "lon": 69.260195, "tags": {"alt_name": "Banow;Andarab", "name": "\u0628\u0646\u0648", "name:ar": "\u0628\u0646\u0648", "name:en": "Banu", "name:ps": "\u0628\u0646\u0648", "place": "town", "source:name": "GNS", "wikidata": "Q11908077", "wikipedia": "en:Banow"}}, {"type": "node", "id": 4401174650, "lat": 35.6875816, "lon": 69.3138591, "tags": {"alt_name": "Deh Salah;Deh-e Salah", "name": "\u062f\u0647 \u0635\u0644\u0627\u062d", "name:ar": "\u062f\u0647 \u0635\u0644\u0627\u062d", "name:en": "Deh Saleh", "name:ps": "\u062f\u0647 \u0635\u0644\u0627\u062d", "place": "town", "source:name": "GNS"}}, {"type": "node", "id": 4401188055, "lat": 35.6999128, "lon": 69.3168826, "tags": {"alt_name": "Ahengar", "name": "\u0622\u0647\u0646\u06af\u0631", "name:en": "Ahangar", "name:ps": "\u0622\u0647\u0646\u06af\u0631", "place": "village", "source:name": "GNS"}}, {"type": "node", "id": 4401188056, "lat": 35.683107, "lon": 69.323994, "tags": {"name": "\u0628\u0631\u0627\u062a\u0627", "name:en": "Barata", "name:ps": "\u0628\u0631\u0627\u062a\u0627", "place": "village", "source:name": "GNS"}}, {"type": "node", "id": 4401188059, "lat": 35.678787, "lon": 69.323272, "tags": {"name": "\u0633\u0646\u06af\u0628\u0631\u0627\u0646", "name:en": "Sangborran;Sangburan;Sangboran", "name:ps": "\u0633\u0646\u06af\u0628\u0631\u0627\u0646", "place": "village", "source:name": "GNS"}}, {"type": "node", "id": 4401188060, "lat": 35.686437, "lon": 69.311349, "tags": {"alt_name": "Sayade Bala;Sayyad-e Bala", "name": "\u0635\u06cc\u0627\u062f \u0628\u0627\u0644\u0627", "name:en": "Sayad-e Bala", "name:ps": "\u0635\u06cc\u0627\u062f \u0628\u0627\u0644\u0627", "place": "village", "source:name": "GNS"}}, {"type": "node", "id": 4401188061, "lat": 35.6954923, "lon": 69.333933, "tags": {"alt_name": "Taye Pazak", "name": "\u062a\u06cc \u067e\u0698\u06a9", "name:en": "Tay-e Pazhak", "name:ps": "\u062a\u06cc \u067e\u0698\u06a9", "place": "village", "source:name": "GNS"}}]}