{"version": 0.6, "generator": "Overpass API 0.7.61.5 4133829e", "osm3s": {"timestamp_osm_base": "2024-03-06T11:11:30Z", "copyright": "The data included in this document is from www.openstreetmap.org. The data is made available under ODbL."}, "elements": [{"type": "node", "id": 1455362332, "lat": 32.4877799, "lon": 44.4281061, "tags": {"amenity": "hospital", "designation": "\u0635\u064a\u062f\u0644\u064a\u0629", "emergency": "yes", "healthcare": "hospital", "name": "\u0635\u064a\u062f\u0644\u064a\u0629 \u062f\u0627\u0631 \u0627\u0644\u062d\u064a\u0627\u0629"}}, {"type": "node", "id": 1821569724, "lat": 32.4696962, "lon": 44.4104137, "tags": {"amenity": "hospital", "name": "\u0645\u0633\u062a\u0634\u0641\u0649 \u0627\u0644\u0641\u064a\u062d\u0627\u0621 \u0627\u0644\u0623\u0647\u0644\u064a", "name:ar": "\u0645\u0633\u062a\u0634\u0641\u0649 \u0627\u0644\u0641\u064a\u062d\u0627\u0621 \u0627\u0644\u0623\u0647\u0644\u064a"}}, {"type": "node", "id": 1838398273, "lat": 32.4697296, "lon": 44.4214656, "tags": {"amenity": "hospital", "name": "\u0645\u0633\u062a\u0634\u0641\u0649 \u0627\u0644\u062d\u0644\u0629 \u0627\u0644\u062a\u0639\u0644\u064a\u0645\u064a", "name:ar": "\u0635\u064a\u0627\u0646\u0629 \u0645\u0633\u062a\u0634\u0641\u0649 \u0627\u0644\u062d\u0644\u0629"}}, {"type": "node", "id": 2479346329, "lat": 32.362527, "lon": 44.554191, "tags": {"alt_name": "\u0645\u0633\u062a\u0648\u0635\u0641 \u0627\u0644\u0628\u0635\u064a\u0631\u0629", "amenity": "hospital", "int_name": "Mustaw\u015faf al Bu\u015fayrah, \u0645\u0633\u062a\u0648\u0635\u0641 \u0627\u0644\u0628\u0635\u064a\u0631\u0629, Mustawsaf al Busayrah, \u0645\u0633\u062a\u0648\u0635\u0641 \u0627\u0644\u0628\u0635\u064a\u0631\u0629", "is_in": "Iraq , \u062c\u0645\u0647\u0648\u0631\u064a\u0629 \u0627\u0644\u0639\u0631\u0627\u0642", "name": "\u0645\u0633\u062a\u0648\u0635\u0641 \u0627\u0644\u0628\u0635\u064a\u0631\u0629", "name:ar": "\u0645\u0633\u062a\u0648\u0635\u0641 \u0627\u0644\u0628\u0635\u064a\u0631\u0629", "name:ar1": "\u0645\u0633\u062a\u0648\u0635\u0641 \u0627\u0644\u0628\u0635\u064a\u0631\u0629", "name:de": "Mustawsaf al Busayrah", "name:en": "Mustawsaf al Busayrah", "name:fr": "Mustawsaf al Busayrah"}}, {"type": "node", "id": 4141777290, "lat": 32.508995, "lon": 44.4438162, "tags": {"addr:street": "\u0634\u0627\u0631\u0639 \u0628\u063a\u062f\u0627\u062f", "amenity": "hospital", "name": "\u0645\u0633\u062a\u0634\u0641\u0649 \u0645\u0631\u062c\u0627\u0646"}}, {"type": "node", "id": 4421850094, "lat": 32.4915581, "lon": 44.4418728, "tags": {"amenity": "hospital", "name": "\u0645\u0633\u062a\u0634\u0641\u0649 \u0627\u0644\u0646\u0648\u0631 \u0644\u0644\u0627\u0637\u0641\u0627\u0644", "name:ar": "\u0645\u0633\u062a\u0634\u0641\u0649 \u0627\u0644\u0646\u0648\u0631 \u0644\u0644\u0627\u0637\u0641\u0627\u0644", "name:en": "Alnoor Hospital"}}, {"type": "node", "id": 4487433492, "lat": 32.4671265, "lon": 44.4097499, "tags": {"addr:street": "\u0634\u0627\u0631\u0639 60", "amenity": "hospital", "name": "\u0645\u0631\u0643\u0632 \u0637\u064a\u0628\u0629 \u0644\u0639\u0644\u0627\u062c \u0627\u0644\u0639\u0642\u0645 (\u0627\u0644\u062f\u0643\u062a\u0648\u0631 \u0639\u062f\u0646\u0627\u0646 \u0627\u0644\u0628\u062f\u064a\u0631\u064a)", "name:ar": "\u0645\u0631\u0643\u0632 \u0637\u064a\u0628\u0629 \u0644\u0639\u0644\u0627\u062c \u0627\u0644\u0639\u0642\u0645 (\u0627\u0644\u062f\u0643\u062a\u0648\u0631 \u0639\u062f\u0646\u0627\u0646 \u0627\u0644\u0628\u062f\u064a\u0631\u064a)", "name:en": "Teeba Infertility Center"}}, {"type": "node", "id": 4514031091, "lat": 32.4823521, "lon": 44.4273417, "tags": {"amenity": "hospital", "healthcare": "hospital", "name": "\u0645\u0631\u0643\u0632 \u0635\u062d\u064a \u0627\u0644\u0631\u0628\u0648 \u0648\u0627\u0644\u062d\u0633\u0627\u0633\u064a\u0629", "name:ar": "\u0645\u0631\u0643\u0632 \u0635\u062d\u064a \u0627\u0644\u0631\u0628\u0648 \u0648\u0627\u0644\u062d\u0633\u0627\u0633\u064a\u0629", "name:en": "hay Alkadia", "name:ku": "\u062d\u064a \u0627\u0644\u0642\u0627\u0636\u064a\u0629"}}, {"type": "node", "id": 4514089390, "lat": 32.4842506, "lon": 44.4313129, "tags": {"amenity": "hospital", "healthcare": "hospital", "name": "\u0645\u0631\u0643\u0632 \u0635\u062d\u064a \u0627\u0644\u0627\u0642\u0635\u0649", "name:ar": "\u0645\u0631\u0643\u0632 \u0635\u062d\u064a \u0627\u0644\u0627\u0642\u0635\u0649"}}, {"type": "node", "id": 4553535248, "lat": 32.5088466, "lon": 44.441743, "tags": {"amenity": "hospital", "name": "\u0645\u0633\u062a\u0634\u0641\u0649 \u0645\u0631\u062c\u0627\u0646", "name:ar": "\u0645\u0633\u062a\u0634\u0641\u0649 \u0645\u0631\u062c\u0627\u0646", "name:en": "Marjan Hospital"}}, {"type": "node", "id": 4623677789, "lat": 32.474965, "lon": 44.4082158, "tags": {"addr:street": "\u0645\u062c\u0627\u0648\u0631 \u0627\u0644\u0645\u0633\u062a\u0634\u0641\u0649 \u0627\u0644\u062a\u0631\u0643\u064a", "amenity": "hospital", "name": "\u0645\u0631\u0643\u0632 \u0637\u064a\u0628\u0629", "name:ar": "\u0645\u0631\u0643\u0632 \u0637\u064a\u0628\u0629 \u0644\u0639\u0644\u0627\u062c \u0627\u0644\u0639\u0642\u0645 \u0648\u0623\u0637\u0641\u0627\u0644 \u0627\u0644\u0627\u0646\u0627\u0628\u064a\u0628 \u0648\u0627\u0644\u062d\u0642\u0646 \u0627\u0644\u0645\u062c\u0647\u0631\u064a"}}, {"type": "node", "id": 4676831889, "lat": 32.476471, "lon": 44.4333875, "tags": {"amenity": "hospital"}}, {"type": "node", "id": 4685798989, "lat": 32.4467308, "lon": 44.4075834, "tags": {"addr:street": "\u062d\u064a \u0627\u0644\u0639\u0633\u0643\u0631\u064a", "amenity": "hospital", "name": "\u0627\u0644\u0639\u064a\u0627\u062f\u0629 (\u062f.\u0623\u062d\u0645\u062f \u0634\u0648\u064a\u0644\u064a\u0629)", "name:ar": "\u0639\u064a\u0627\u062f\u0629 \u062f.\u0623\u062d\u0645\u062f \u0634\u0648\u064a\u0644\u064a\u0629"}}, {"type": "node", "id": 4728730491, "lat": 32.5521, "lon": 44.221, "tags": {"amenity": "hospital", "name": "\u0645\u0633\u062a\u0634\u0641\u0649 \u0627\u0644\u0647\u0646\u062f\u064a\u0629 \u0627\u0644\u0639\u0627\u0645", "name:ar": "\u0645\u0633\u062a\u0634\u0641\u0649 \u0627\u0644\u0647\u0646\u062f\u064a\u0629 \u0627\u0644\u0639\u0627\u0645", "name:en": "Al Hindiya General Hospital", "opening_hours": "24/7", "phone": "0782 131 5569"}}, {"type": "node", "id": 4746965121, "lat": 32.3172, "lon": 44.2716, "tags": {"amenity": "hospital", "name": "\u0645\u0633\u062a\u0634\u0641\u0649 \u0627\u0644\u062d\u064a\u062f\u0631\u064a\u0629 \u0627\u0644\u0639\u0627\u0645", "name:ar": "\u0645\u0633\u062a\u0634\u0641\u0649 \u0627\u0644\u062d\u064a\u062f\u0631\u064a\u0629 \u0627\u0644\u0639\u0627\u0645"}}, {"type": "node", "id": 4790523421, "lat": 32.4850233, "lon": 44.4394217, "tags": {"amenity": "hospital", "name": "\u0639\u064a\u0627\u062f\u0627\u062a \u0637\u0628\u064a\u0629", "name:ar": "\u0639\u064a\u0627\u062f\u0627\u062a \u0637\u0628\u064a\u0629"}}, {"type": "node", "id": 4819736028, "lat": 32.455109, "lon": 44.4274572, "tags": {"amenity": "hospital", "name": "\u0645\u0633\u062a\u0648\u0635\u0641 \u0627\u0644\u0647\u0627\u062f\u064a", "name:ar": "\u0645\u0633\u062a\u0648\u0635\u0641 \u0627\u0644\u0647\u0627\u062f\u064a", "name:en": "Al Hadi Outpatients Clinic"}}, {"type": "node", "id": 4884465521, "lat": 32.4745442, "lon": 44.4410394, "tags": {"amenity": "hospital", "name": "\u0645\u0631\u0643\u0632 \u0635\u062d\u064a \u0627\u0644\u0628\u0627\u0642\u0631", "name:ar": "\u0645\u0631\u0643\u0632 \u0635\u062d\u064a \u0627\u0644\u0628\u0627\u0642\u0631", "name:en": "Albaker PHC"}}, {"type": "node", "id": 4885349521, "lat": 32.5248598, "lon": 44.4248714, "tags": {"addr:street": "\u0634\u0627\u0631\u0639 \u0645\u0646\u062a\u062c\u0639 \u0628\u0627\u0628\u0644", "amenity": "hospital", "name": "\u0639\u064a\u0627\u062f\u0629 \u0627\u0644\u062f\u0643\u062a\u0648\u0631 \u0635\u0641\u0627\u0621 \u0647\u0627\u0634\u0645 \u0627\u0644\u0633\u0644\u0627\u0645\u064a", "name:ar": "\u0639\u064a\u0627\u062f\u0629 \u0627\u0644\u062f\u0643\u062a\u0648\u0631 \u0635\u0641\u0627\u0621 \u0647\u0627\u0634\u0645 \u0627\u0644\u0633\u0644\u0627\u0645\u064a", "name:en": "\u0642\u0631\u064a\u0629 \u0627\u0644\u062c\u0645\u062c\u0645\u0647"}}, {"type": "node", "id": 4891316625, "lat": 32.1429958, "lon": 44.3242653, "tags": {"amenity": "hospital"}}, {"type": "node", "id": 4957363542, "lat": 32.4569535, "lon": 44.4094272, "tags": {"addr:city": "\u0627\u0644\u062d\u0644\u0629", "addr:postcode": "51001", "addr:street": "\u0634\u0627\u0631\u0639 60", "amenity": "hospital", "name": "\u0645\u0631\u0643\u0632 \u0627\u0644\u062a\u0623\u0647\u064a\u0644 \u0627\u0644\u0637\u0628\u064a", "name:en": "Medical Rehabilitation Center"}}, {"type": "node", "id": 5022145225, "lat": 32.4684031, "lon": 44.4094435, "tags": {"amenity": "hospital", "name": "\u0645\u0633\u062a\u0634\u0641\u0649 \u0627\u0644\u0627\u0645\u0627\u0645 \u0627\u0644\u0635\u0627\u062f\u0642", "name:ar": "\u0645\u0633\u062a\u0634\u0641\u0649 \u0627\u0644\u0627\u0645\u0627\u0645 \u0627\u0644\u0635\u0627\u062f\u0642 \u0639", "name:en": "Imam Sadiq Hospital"}}, {"type": "node", "id": 5030131822, "lat": 32.5199046, "lon": 44.4421592, "tags": {"amenity": "hospital", "name": "\u0645\u0633\u062a\u0634\u0641\u0649 \u0627\u0644\u062d\u064a\u0627\u0629 \u0627\u0644\u0627\u0647\u0644\u064a", "name:ar": "\u0645\u0633\u062a\u0634\u0641\u0649 \u0627\u0644\u062d\u064a\u0627\u0629 \u0627\u0644\u0627\u0647\u0644\u064a"}}, {"type": "node", "id": 5075822325, "lat": 32.4861761, "lon": 44.4410087, "tags": {"addr:street": "\u0634\u0627\u0631\u0639 \u0643\u0648\u0631\u0646\u064a\u0634 \u0627\u0644\u062e\u0633\u0631\u0648\u064a\u0629", "amenity": "hospital", "name": "\u0645\u0633\u062a\u0634\u0641\u0649 \u0627\u0644\u0633\u0644\u0627\u0645 \u0627\u0644\u0623\u0647\u0644\u064a", "name:ar": "\u0645\u0633\u062a\u0634\u0641\u0649 \u0627\u0644\u0633\u0644\u0627\u0645 \u0627\u0644\u0623\u0647\u0644\u064a"}}, {"type": "node", "id": 5086792421, "lat": 32.492329, "lon": 44.441329, "tags": {"amenity": "hospital", "name": "\u0645\u0631\u0643\u0632 \u0627\u0644\u062d\u0633\u0627\u0633\u064a\u0647", "name:ar": "\u0645\u0631\u0643\u0632 \u0627\u0644\u062d\u0633\u0627\u0633\u064a\u0647"}}, {"type": "node", "id": 5469424921, "lat": 32.4805202, "lon": 44.4615614, "tags": {"amenity": "hospital", "name": "\u0645\u0633\u062a\u0634\u0641\u0649 \u0627\u0644\u0643\u0641\u064a\u0644 \u062a\u062d\u062a \u0627\u0644\u0625\u0646\u0634\u0627\u0621", "name:en": "Al-Kafeel Hospital (under construction)"}}, {"type": "node", "id": 5535450173, "lat": 32.4686805, "lon": 44.4046692}, {"type": "node", "id": 5535450174, "lat": 32.4693911, "lon": 44.4097815}, {"type": "node", "id": 5535450175, "lat": 32.4676396, "lon": 44.4097386}, {"type": "node", "id": 5535450176, "lat": 32.4666077, "lon": 44.4055007}, {"type": "node", "id": 5537917023, "lat": 32.4971402, "lon": 44.4720565, "tags": {"amenity": "hospital", "internet_access": "wlan", "name": "\u0645\u062e\u062a\u0628\u0631 \u0627\u0644\u062a\u062d\u0644\u064a\u0644\u0627\u062a \u0627\u0644\u0645\u0631\u0636\u064a\u0629"}}, {"type": "node", "id": 5635403321, "lat": 32.5061919, "lon": 44.4175999, "tags": {"amenity": "hospital", "name": "\u0627\u0644\u0645\u0633\u062a\u0648\u0635\u0641 \u0627\u0644\u0635\u062d\u064a\u060c \u0627\u0644\u0632\u0647\u0631\u0627\u0621 \u0627\u0644\u062b\u0648\u0631\u0647"}}, {"type": "node", "id": 5675893621, "lat": 32.5348605, "lon": 44.3429, "tags": {"amenity": "hospital", "name": "\u0645\u0631\u0643\u0632 \u0627\u0644\u062d\u0633\u064a\u0646 \u0627\u0644\u0635\u062d\u064a", "name:en": "Al Hussein Health Center", "opening_hours": "Sa-Th 00:00-24:00"}}, {"type": "node", "id": 5850604085, "lat": 32.4707158, "lon": 44.4156985, "tags": {"amenity": "hospital", "name": "\u0639\u064a\u0627\u062f\u0629 \u062f\u0643\u062a\u0648\u0631\u0647 \u0627\u0645\u0627\u0644 \u0639\u0628\u062f \u0639\u0644\u064a", "name:en": "Amaal dental clinc"}}, {"type": "node", "id": 6325817486, "lat": 32.5004213, "lon": 44.4336608, "tags": {"amenity": "hospital", "name": "\u0645\u0631\u0643\u0632 \u0627\u0644\u0634\u0641\u0627\u0621 \u0644\u0644\u0637\u0628 \u0627\u0644\u062a\u0643\u0645\u064a\u0644\u064a"}}, {"type": "node", "id": 6383697187, "lat": 32.4610846, "lon": 44.4222347, "tags": {"addr:street": "\u0634\u0627\u0631\u0639 \u0627\u0644\u0627\u0633\u0643\u0627\u0646", "amenity": "hospital", "name": "\u0645\u0633\u062a\u0634\u0641\u0649 \u0627\u0644\u062d\u0644\u0629 \u0627\u0644\u062a\u0639\u0644\u064a\u0645\u064a \u0627\u0644\u0639\u0627\u0645", "name:en": "AlHilla General Teaching Hospital", "opening_hours": "24/7"}}, {"type": "node", "id": 6440876685, "lat": 32.4609499, "lon": 44.4101045, "tags": {"amenity": "hospital", "name": "\u0645\u0633\u062a\u0634\u0641\u0649 \u0628\u0627\u0628\u0644 \u0627\u0644\u062e\u0627\u0635", "name:ar": "\u0645\u0633\u062a\u0634\u0641\u0649 \u0628\u0627\u0628\u0644 \u0627\u0644\u0627\u0647\u0644\u064a", "name:en": "Babil Private Hospital", "opening_hours": "24/7", "phone": "009647809235623"}}, {"type": "node", "id": 6699160088, "lat": 32.4460602, "lon": 44.4036407, "tags": {"addr:street": "\u0634\u0627\u0631\u0639 \u062d\u064a \u0627\u0644\u0639\u0633\u0643\u0631\u064a", "amenity": "hospital", "name": "\u0645\u0631\u0643\u0632 \u0635\u062d\u064a \u0634\u0647\u064a\u062f \u0627\u0644\u0627\u0633\u0644\u0627\u0645"}}, {"type": "node", "id": 6828189287, "lat": 32.4397087, "lon": 44.4218605, "tags": {"amenity": "hospital", "name": "\u0645\u0631\u0643\u0632 \u0635\u062d\u064a \u0634\u0647\u062f\u0627\u0621 \u0646\u0627\u062f\u0631 \u0627\u0644\u0646\u0645\u0648\u0630\u062c\u064a", "opening_hours": "Sa-Th 08:30-14:30"}}, {"type": "node", "id": 7179547585, "lat": 32.2274996, "lon": 44.3714341, "tags": {"amenity": "hospital", "healthcare": "hospital", "name": "\u0645\u0633\u062a\u0634\u0641\u0649 \u0627\u0644\u0643\u0641\u0644 \u0627\u0644\u0639\u0627\u0645", "name:ar": "\u0645\u0633\u062a\u0634\u0641\u0649 \u0627\u0644\u0643\u0641\u0644 \u0627\u0644\u0639\u0627\u0645", "name:en": "Al-Kifl General Hospital", "name:he": "\u05d1\u05d9\u05ea \u05d4\u05d7\u05d5\u05dc\u05d9\u05dd \u05d4\u05db\u05dc\u05dc\u05d9 \u05d0\u05dc-\u05db\u05d9\u05e4\u05dc"}}, {"type": "node", "id": 7705859485, "lat": 32.4957915, "lon": 44.41678, "tags": {"amenity": "hospital", "name": "\u0627\u0644\u0642\u0627\u0628\u0644\u0647 \u0647\u0646\u0627\u0621 \u0627\u0645 \u0639\u0644\u064a"}}, {"type": "node", "id": 8058684016, "lat": 32.2280799, "lon": 44.3717131}, {"type": "node", "id": 8058684017, "lat": 32.2276315, "lon": 44.3721891}, {"type": "node", "id": 8058684018, "lat": 32.226532, "lon": 44.3707419}, {"type": "node", "id": 8058684019, "lat": 32.2269802, "lon": 44.370266}, {"type": "node", "id": 8337510417, "lat": 32.4785711, "lon": 44.4104739, "tags": {"addr:street": "\u0634\u0627\u0631\u0639 60", "amenity": "hospital", "name": "\u0639\u064a\u0627\u062f\u0629 \u0627\u0644\u062f\u0643\u062a\u0648\u0631\u0647 \u0631\u063a\u062f \u0627\u0644\u0628\u0643\u0631\u064a", "opening_hours": "Su-Fr 22:00-15:00"}}, {"type": "node", "id": 8845956022, "lat": 32.5167915, "lon": 44.3999255, "tags": {"amenity": "hospital", "name:en": "SINJAR HOSPITAL CIV"}}, {"type": "node", "id": 8919536376, "lat": 32.5333503, "lon": 44.2169398, "tags": {"amenity": "hospital", "name:en": "AL HINDIYAH HOSPITAL"}}, {"type": "node", "id": 9170317717, "lat": 32.4941824, "lon": 44.4187723, "tags": {"addr:street": "\u0634\u0627\u0631\u0639 60", "amenity": "hospital", "name": "\u0645\u062c\u0645\u0639 \u0627\u0644\u0631\u0633\u0648\u0644 \u0627\u0644\u0627\u0639\u0638\u0645 \u0627\u0644\u0637\u0628\u064a \u0627\u0644\u062a\u062e\u0635\u0635\u064a", "name:en": "Al-Rasoul Al-Azam Specialized Medical Complex", "website": "https://www.facebook.com/alrswlazm"}}, {"type": "node", "id": 9458129417, "lat": 32.2058352, "lon": 44.2520302, "tags": {"amenity": "hospital", "name": "\u0645\u0631\u0643\u0632 \u0627\u0644\u063a\u0633\u064a\u0644 \u0627\u0644\u0643\u0644\u0648\u064a"}}, {"type": "node", "id": 9854381120, "lat": 32.4623968, "lon": 44.4245973, "tags": {"amenity": "hospital", "name": "\u0627\u0644\u0639\u064a\u0627\u062f\u0627\u062a \u0627\u0644\u0627\u0633\u062a\u0634\u0627\u0631\u064a\u0629"}}, {"type": "node", "id": 10556324912, "lat": 32.4269467, "lon": 44.411009, "tags": {"addr:street": "\u0637\u0631\u064a\u0642 \u0627\u0644\u062d\u0644\u0629-\u0627\u0644\u0646\u062c\u0641", "amenity": "hospital", "name": "\u0627\u0644\u062f\u0643\u062a\u0648\u0631 \u0639\u0645\u0627\u062f \u0627\u0644\u0634\u0645\u0631\u064a"}}, {"type": "node", "id": 11186797637, "lat": 32.4620825, "lon": 44.4256072, "tags": {"amenity": "hospital", "name": "\u0627\u0644\u0645\u0631\u0643\u0632 \u0627\u0644\u062a\u062e\u0635\u0635\u064a \u0644\u0637\u0628 \u0627\u0644\u0627\u0633\u0646\u0627\u0646 \u0628\u0627\u0628\u0644 \u0627\u0644\u0627\u0648\u0644"}}, {"type": "node", "id": 11425917913, "lat": 32.4689567, "lon": 44.4093347, "tags": {"amenity": "hospital", "name": "\u0645\u0633\u062a\u0634\u0641\u0649 \u0627\u0644\u0625\u0645\u0627\u0645 \u0627\u0644\u0635\u0627\u062f\u0642 \u0627\u0644\u062a\u0639\u0644\u064a\u0645\u064a (\u0627\u0644\u0645\u0633\u062a\u0634\u0641\u0649 \u0627\u0644\u062a\u0631\u0643\u064a)"}}, {"type": "node", "id": 11657362803, "lat": 32.4754483, "lon": 44.4324377}, {"type": "node", "id": 11657362804, "lat": 32.4749355, "lon": 44.4329902}, {"type": "node", "id": 11657362805, "lat": 32.4749779, "lon": 44.4330471}, {"type": "node", "id": 11657362806, "lat": 32.4744769, "lon": 44.4335727}, {"type": "node", "id": 11657362807, "lat": 32.4745715, "lon": 44.4337045}, {"type": "node", "id": 11657362808, "lat": 32.4747153, "lon": 44.4335562}, {"type": "node", "id": 11657362809, "lat": 32.4747412, "lon": 44.4335908}, {"type": "node", "id": 11657362810, "lat": 32.4746053, "lon": 44.4337403}, {"type": "node", "id": 11657362811, "lat": 32.4748741, "lon": 44.4340959}, {"type": "node", "id": 11657362812, "lat": 32.475115, "lon": 44.4338389}, {"type": "node", "id": 11657362813, "lat": 32.4751659, "lon": 44.4339019}, {"type": "node", "id": 11657362814, "lat": 32.4752823, "lon": 44.4337802}, {"type": "node", "id": 11657362815, "lat": 32.4752151, "lon": 44.4336936}, {"type": "node", "id": 11657362816, "lat": 32.4753946, "lon": 44.4335053}, {"type": "node", "id": 11657362817, "lat": 32.4754218, "lon": 44.4335417}, {"type": "node", "id": 11657362818, "lat": 32.4755169, "lon": 44.4334419}, {"type": "node", "id": 11657362819, "lat": 32.4754849, "lon": 44.4333989}, {"type": "node", "id": 11657362820, "lat": 32.4755596, "lon": 44.4333205}, {"type": "node", "id": 11657362821, "lat": 32.4755865, "lon": 44.4333565}, {"type": "node", "id": 11657362822, "lat": 32.4756911, "lon": 44.4332469}, {"type": "node", "id": 11657362823, "lat": 32.4756607, "lon": 44.4332062}, {"type": "node", "id": 11657362824, "lat": 32.4757375, "lon": 44.4331257}, {"type": "node", "id": 11657362825, "lat": 32.4758275, "lon": 44.4332464}, {"type": "node", "id": 11657362826, "lat": 32.4759532, "lon": 44.4331147}, {"type": "node", "id": 11657362827, "lat": 32.4756429, "lon": 44.4328271}, {"type": "node", "id": 11657362828, "lat": 32.4756023, "lon": 44.43277}, {"type": "node", "id": 11657362829, "lat": 32.4754677, "lon": 44.4329048}, {"type": "node", "id": 11657362830, "lat": 32.4755083, "lon": 44.4329618}, {"type": "node", "id": 11657362831, "lat": 32.4756448, "lon": 44.4329626}, {"type": "node", "id": 11657362832, "lat": 32.4756173, "lon": 44.4329258}, {"type": "node", "id": 11657362833, "lat": 32.4755413, "lon": 44.4330058}, {"type": "node", "id": 11657362834, "lat": 32.4755688, "lon": 44.4330426}, {"type": "node", "id": 11657362835, "lat": 32.4754402, "lon": 44.4331559}, {"type": "node", "id": 11657362836, "lat": 32.475415, "lon": 44.4331241}, {"type": "node", "id": 11657362837, "lat": 32.4753405, "lon": 44.4332071}, {"type": "node", "id": 11657362838, "lat": 32.4753657, "lon": 44.433239}, {"type": "node", "id": 11657362839, "lat": 32.4753845, "lon": 44.4330726}, {"type": "node", "id": 11657362840, "lat": 32.4753504, "lon": 44.4330268}, {"type": "node", "id": 11657362841, "lat": 32.4751735, "lon": 44.4332121}, {"type": "node", "id": 11657362842, "lat": 32.4752077, "lon": 44.4332579}, {"type": "node", "id": 11657362843, "lat": 32.4752615, "lon": 44.4333602}, {"type": "node", "id": 11657362844, "lat": 32.4752326, "lon": 44.4333199}, {"type": "node", "id": 11657362845, "lat": 32.4751974, "lon": 44.4333553}, {"type": "node", "id": 11657362846, "lat": 32.4752263, "lon": 44.4333957}, {"type": "node", "id": 11657362847, "lat": 32.4751666, "lon": 44.4334644}, {"type": "node", "id": 11657362848, "lat": 32.4751377, "lon": 44.433424}, {"type": "node", "id": 11657362849, "lat": 32.4751025, "lon": 44.4334594}, {"type": "node", "id": 11657362850, "lat": 32.4751314, "lon": 44.4334998}, {"type": "node", "id": 11657362851, "lat": 32.4750466, "lon": 44.4334187}, {"type": "node", "id": 11657362852, "lat": 32.475015, "lon": 44.4333767}, {"type": "node", "id": 11657362853, "lat": 32.4748927, "lon": 44.4335062}, {"type": "node", "id": 11657362854, "lat": 32.4749243, "lon": 44.4335482}, {"type": "node", "id": 11657362855, "lat": 32.4750369, "lon": 44.4332824}, {"type": "node", "id": 11657362856, "lat": 32.4750211, "lon": 44.4332588}, {"type": "node", "id": 11657362857, "lat": 32.4749815, "lon": 44.4332961}, {"type": "node", "id": 11657362858, "lat": 32.4749973, "lon": 44.4333197}, {"type": "node", "id": 11657362859, "lat": 32.4749339, "lon": 44.4333802}, {"type": "node", "id": 11657362860, "lat": 32.4749149, "lon": 44.4333556}, {"type": "node", "id": 11657362861, "lat": 32.4748337, "lon": 44.4334435}, {"type": "node", "id": 11657362862, "lat": 32.4748527, "lon": 44.4334682}, {"type": "node", "id": 11657362863, "lat": 32.4753483, "lon": 44.4325425}, {"type": "node", "id": 11657362864, "lat": 32.4753125, "lon": 44.4325948}, {"type": "node", "id": 11657362865, "lat": 32.4753983, "lon": 44.4326096}, {"type": "node", "id": 11657362866, "lat": 32.4753564, "lon": 44.4326536}, {"type": "node", "id": 11657362867, "lat": 32.475524, "lon": 44.4327742}, {"type": "node", "id": 11657362868, "lat": 32.4755058, "lon": 44.4327495}, {"type": "node", "id": 11657362869, "lat": 32.4754666, "lon": 44.43279}, {"type": "node", "id": 11657362870, "lat": 32.4754848, "lon": 44.4328148}, {"type": "node", "id": 11657362871, "lat": 32.4753852, "lon": 44.4328604}, {"type": "node", "id": 11657362872, "lat": 32.4753638, "lon": 44.4328303}, {"type": "node", "id": 11657362873, "lat": 32.4753044, "lon": 44.4328897}, {"type": "node", "id": 11657362874, "lat": 32.4753258, "lon": 44.4329197}, {"type": "node", "id": 11657362875, "lat": 32.47499, "lon": 44.4339416}, {"type": "node", "id": 11657362876, "lat": 32.4749668, "lon": 44.4339126}, {"type": "node", "id": 11657362877, "lat": 32.4749386, "lon": 44.4339443}, {"type": "node", "id": 11657362878, "lat": 32.4749617, "lon": 44.4339733}, {"type": "node", "id": 11657362879, "lat": 32.4748576, "lon": 44.4337827}, {"type": "node", "id": 11657362880, "lat": 32.4748231, "lon": 44.4337349}, {"type": "node", "id": 11657362881, "lat": 32.4748004, "lon": 44.4337579}, {"type": "node", "id": 11657362882, "lat": 32.4748349, "lon": 44.4338057}, {"type": "node", "id": 11657362883, "lat": 32.4747937, "lon": 44.4336635}, {"type": "node", "id": 11657362884, "lat": 32.4747672, "lon": 44.433628}, {"type": "node", "id": 11657362885, "lat": 32.4747012, "lon": 44.4336972}, {"type": "node", "id": 11657362886, "lat": 32.4747276, "lon": 44.4337327}, {"type": "node", "id": 11657362887, "lat": 32.4746341, "lon": 44.4330332}, {"type": "node", "id": 11657362888, "lat": 32.4747077, "lon": 44.4329636}, {"type": "node", "id": 11657362889, "lat": 32.4746057, "lon": 44.4328117}, {"type": "node", "id": 11657362890, "lat": 32.474532, "lon": 44.4328813}, {"type": "node", "id": 11657362891, "lat": 32.4747353, "lon": 44.4332122}, {"type": "node", "id": 11657362892, "lat": 32.4745146, "lon": 44.4328945}, {"type": "node", "id": 11657362893, "lat": 32.4741991, "lon": 44.4332024}, {"type": "node", "id": 11657362894, "lat": 32.4743055, "lon": 44.4333556}, {"type": "node", "id": 11657362895, "lat": 32.474458, "lon": 44.4332068}, {"type": "node", "id": 11657362896, "lat": 32.4744842, "lon": 44.4332445}, {"type": "node", "id": 11657362897, "lat": 32.4743421, "lon": 44.4333832}, {"type": "node", "id": 11657362898, "lat": 32.4744389, "lon": 44.4335227}, {"type": "node", "id": 11657362899, "lat": 32.4745412, "lon": 44.4334229}, {"type": "node", "id": 11657362900, "lat": 32.4745597, "lon": 44.4334495}, {"type": "node", "id": 11657362901, "lat": 32.4746564, "lon": 44.4333551}, {"type": "node", "id": 11657362902, "lat": 32.4746291, "lon": 44.4333158}, {"type": "node", "id": 11657362903, "lat": 32.4751398, "lon": 44.4337891}, {"type": "node", "id": 11657362904, "lat": 32.4751159, "lon": 44.4337584}, {"type": "node", "id": 11657362905, "lat": 32.4750878, "lon": 44.4337891}, {"type": "node", "id": 11657362906, "lat": 32.4751116, "lon": 44.4338199}, {"type": "way", "id": 577410213, "nodes": [5535450173, 5535450174, 5535450175, 5535450176, 5535450173], "tags": {"amenity": "hospital", "name": "\u0627\u0644\u0645\u0633\u062a\u0634\u0641\u0649 \u0627\u0644\u062a\u0631\u0643\u064a", "name:ar": "\u0645\u0633\u062a\u0634\u0641\u0649 \u0627\u0644\u0627\u0645\u0627\u0645 \u0627\u0644\u0635\u0627\u062f\u0642", "name:en": "Imam Sadiq Hospital"}}, {"type": "way", "id": 864587250, "nodes": [8058684016, 8058684017, 8058684018, 8058684019, 8058684016], "tags": {"amenity": "hospital", "healthcare": "hospital"}}, {"type": "way", "id": 1254117664, "nodes": [11657362803, 11657362863, 11657362865, 11657362866, 11657362864, 11657362804, 11657362805, 11657362806, 11657362807, 11657362808, 11657362809, 11657362810, 11657362811, 11657362812, 11657362813, 11657362814, 11657362815, 11657362816, 11657362817, 11657362818, 11657362819, 11657362820, 11657362821, 11657362822, 11657362823, 11657362824, 11657362825, 11657362826, 11657362803]}, {"type": "way", "id": 1254117665, "nodes": [11657362827, 11657362828, 11657362829, 11657362830, 11657362827]}, {"type": "way", "id": 1254117666, "nodes": [11657362831, 11657362832, 11657362833, 11657362834, 11657362831]}, {"type": "way", "id": 1254117667, "nodes": [11657362835, 11657362836, 11657362837, 11657362838, 11657362835]}, {"type": "way", "id": 1254117668, "nodes": [11657362839, 11657362840, 11657362841, 11657362842, 11657362839]}, {"type": "way", "id": 1254117669, "nodes": [11657362843, 11657362844, 11657362845, 11657362846, 11657362843]}, {"type": "way", "id": 1254117670, "nodes": [11657362847, 11657362848, 11657362849, 11657362850, 11657362847]}, {"type": "way", "id": 1254117671, "nodes": [11657362851, 11657362852, 11657362853, 11657362854, 11657362851]}, {"type": "way", "id": 1254117672, "nodes": [11657362855, 11657362856, 11657362857, 11657362858, 11657362855]}, {"type": "way", "id": 1254117673, "nodes": [11657362859, 11657362860, 11657362861, 11657362862, 11657362859]}, {"type": "way", "id": 1254117674, "nodes": [11657362867, 11657362868, 11657362869, 11657362870, 11657362867]}, {"type": "way", "id": 1254117675, "nodes": [11657362871, 11657362872, 11657362873, 11657362874, 11657362871]}, {"type": "way", "id": 1254117676, "nodes": [11657362875, 11657362876, 11657362877, 11657362878, 11657362875]}, {"type": "way", "id": 1254117677, "nodes": [11657362879, 11657362880, 11657362881, 11657362882, 11657362879]}, {"type": "way", "id": 1254117678, "nodes": [11657362883, 11657362884, 11657362885, 11657362886, 11657362883]}, {"type": "way", "id": 1254117679, "nodes": [11657362887, 11657362888, 11657362889, 11657362890, 11657362887]}, {"type": "way", "id": 1254117680, "nodes": [11657362891, 11657362892, 11657362893, 11657362894, 11657362895, 11657362896, 11657362897, 11657362898, 11657362899, 11657362900, 11657362901, 11657362902, 11657362891]}, {"type": "way", "id": 1254117681, "nodes": [11657362903, 11657362904, 11657362905, 11657362906, 11657362903]}, {"type": "relation", "id": 17258456, "members": [{"type": "way", "ref": 1254117679, "role": "outer"}, {"type": "way", "ref": 1254117680, "role": "outer"}, {"type": "way", "ref": 1254117664, "role": "outer"}, {"type": "way", "ref": 1254117678, "role": "inner"}, {"type": "way", "ref": 1254117677, "role": "inner"}, {"type": "way", "ref": 1254117676, "role": "inner"}, {"type": "way", "ref": 1254117671, "role": "inner"}, {"type": "way", "ref": 1254117673, "role": "inner"}, {"type": "way", "ref": 1254117672, "role": "inner"}, {"type": "way", "ref": 1254117670, "role": "inner"}, {"type": "way", "ref": 1254117668, "role": "inner"}, {"type": "way", "ref": 1254117669, "role": "inner"}, {"type": "way", "ref": 1254117667, "role": "inner"}, {"type": "way", "ref": 1254117666, "role": "inner"}, {"type": "way", "ref": 1254117665, "role": "inner"}, {"type": "way", "ref": 1254117674, "role": "inner"}, {"type": "way", "ref": 1254117681, "role": "inner"}, {"type": "way", "ref": 1254117675, "role": "inner"}], "tags": {"amenity": "hospital", "healthcare": "hospital", "name": "\u0645\u0633\u062a\u0634\u0641\u0649 \u0628\u0627\u0628\u0644 \u0644\u0644\u0646\u0633\u0627\u0626\u064a\u0629 \u0648\u0627\u0644\u0623\u0637\u0641\u0627\u0644", "name:ar": "\u0645\u0633\u062a\u0634\u0641\u0649 \u0628\u0627\u0628\u0644 \u0644\u0644\u0646\u0633\u0627\u0626\u064a\u0629 \u0648\u0627\u0644\u0623\u0637\u0641\u0627\u0644", "name:de": "Hilla Allgemeinkrankenhaus", "name:en": "Hilla General Hospital", "name:es": "Hospital General Hilla", "name:fr": "H\u00f4pital G\u00e9n\u00e9ral Hilla", "operator": "Hilla Baladiya/ Hilla City Council", "operator:type": "public", "type": "multipolygon"}}]}