{"version": 0.6, "generator": "Overpass API 0.7.61.5 4133829e", "osm3s": {"timestamp_osm_base": "2024-03-06T11:30:59Z", "copyright": "The data included in this document is from www.openstreetmap.org. The data is made available under ODbL."}, "elements": [{"type": "node", "id": 7417382320, "lat": -0.4502866, "lon": 39.6524269}, {"type": "node", "id": 7417382321, "lat": -0.4490743, "lon": 39.6520514}, {"type": "node", "id": 7417382322, "lat": -0.4485835, "lon": 39.6514479}, {"type": "node", "id": 7417382323, "lat": -0.4480739, "lon": 39.6513835}, {"type": "node", "id": 7417382324, "lat": -0.448047, "lon": 39.6521962}, {"type": "node", "id": 7417382325, "lat": -0.4480014, "lon": 39.6538243}, {"type": "node", "id": 7417382326, "lat": -0.4488893, "lon": 39.6540228}, {"type": "node", "id": 7417382327, "lat": -0.4491883, "lon": 39.6541448}, {"type": "node", "id": 7417382328, "lat": -0.4503027, "lon": 39.6539075}, {"type": "node", "id": 11209106799, "lat": -0.4505059, "lon": 39.6525476}, {"type": "node", "id": 11364707369, "lat": -0.48513, "lon": 39.654201, "tags": {"amenity": "pharmacy", "evacuation_center": "false", "flood_prone": "false", "is_in:county": "Garissa", "name": "Iftin pharmacy", "opening_hours": "sunrise-sunset", "operational_status": "operational", "operator": "Private consultant", "operator:type": "private", "phone": "+254 710 172 483", "storage_area": "true"}}, {"type": "node", "id": 11364707371, "lat": -0.4864425, "lon": 39.6565267, "tags": {"amenity": "pharmacy", "evacuation_center": "false", "flood_prone": "true", "is_in:county": "Garissa", "name": "Adoriza pharmacy and limited", "opening_hours": "sunrise-sunset", "operational_status": "operational", "operator": "Private", "operator:type": "private", "storage_area": "true"}}, {"type": "node", "id": 11364707374, "lat": -0.4848352, "lon": 39.6523149, "tags": {"amenity": "hospital", "evacuation_center": "false", "flood_prone": "false", "is_in:county": "Garissa", "name": "Baitul tiba", "opening_hours": "24/7", "operational_status": "operational", "operator": "Fatuma abdi", "operator:type": "private", "phone": "+254 113 86 484", "storage_area": "false"}}, {"type": "node", "id": 11364707375, "lat": -0.4757799, "lon": 39.6566173, "tags": {"amenity": "hospital", "evacuation_center": "false", "flood_prone": "true", "is_in:county": "Garissa", "name": "Iftin sub county", "opening_hours": "24/7", "operational_status": "operational", "operator": "Ministry of Health", "operator:type": "public", "phone": "+254 728 487 163", "storage_area": "true"}}, {"type": "node", "id": 11364707378, "lat": -0.4835452, "lon": 39.6508399, "tags": {"amenity": "clinic", "evacuation_center": "false", "flood_prone": "false", "is_in:county": "Garissa", "name": "Tawakal medical centre", "opening_hours": "sunrise-sunset", "operational_status": "operational", "operator": "Private", "operator:type": "private", "storage_area": "false"}}, {"type": "node", "id": 11364707379, "lat": -0.4847556, "lon": 39.6524109, "tags": {"amenity": "hospital", "evacuation_center": "true", "flood_prone": "false", "is_in:county": "Garissa", "name": "Al Baitul Tiiba Hospital", "opening_hours": "24/7", "operational_status": "operational", "operator": "Ministry of Health", "operator:type": "private", "phone": "+254 113 864 847", "storage_area": "true"}}, {"type": "node", "id": 11364707382, "lat": -0.484577, "lon": 39.652315, "tags": {"amenity": "pharmacy", "evacuation_center": "true", "flood_prone": "true", "is_in:county": "Garissa", "name": "Al Baitul Tiiba Pharmacy", "opening_hours": "3hrs", "operational_status": "operational", "operator": "Ministry of Health", "operator:type": "private", "phone": "+254 113 864 847", "storage_area": "true"}}, {"type": "node", "id": 11364707385, "lat": -0.4492675, "lon": 39.637581, "tags": {"amenity": "hospital", "evacuation_center": "false", "flood_prone": "false", "is_in:county": "Garissa", "name": "High gate health centre", "opening_hours": "sunrise-sunset", "operational_status": "operational", "operator": "CO", "operator:type": "private", "phone": "+254 728 814 169", "storage_area": "true"}}, {"type": "node", "id": 11364707387, "lat": -0.4839379, "lon": 39.6508703, "tags": {"amenity": "hospital", "evacuation_center": "false", "flood_prone": "false", "is_in:county": "Garissa", "name": "Samara", "opening_hours": "24/7", "operational_status": "operational", "operator": "Dr Dubow", "operator:type": "private", "phone": "+254 721 572 868", "storage_area": "false"}}, {"type": "node", "id": 11364707389, "lat": -0.4839707, "lon": 39.6508946, "tags": {"amenity": "pharmacy", "evacuation_center": "false", "flood_prone": "true", "is_in:county": "Garissa", "name": "Samara medical center", "opening_hours": "24/7", "operational_status": "operational", "operator": "Ministry of Health", "operator:type": "private", "phone": "+254 745 945 374", "storage_area": "false"}}, {"type": "node", "id": 11645444594, "lat": -0.4906481, "lon": 39.6251016, "tags": {"amenity": "pharmacy", "ele": "152.1", "evacuation_centre": "no", "flood_prone": "no", "name": "Maramtu pharmacy", "opening_hours": "6hrs", "operational_status": "non_operational", "operator": "Ministry of Health", "operator:type": "public", "precision": "4.8", "source": "KRCS2023", "storage_area": "yes"}}, {"type": "node", "id": 11645444598, "lat": -0.4895701, "lon": 39.6256945, "tags": {"amenity": "pharmacy", "ele": "158.0665402", "evacuation_centre": "no", "flood_prone": "no", "healthcare": "pharmacy", "name": "Maramtu pharmacy", "opening_hours": "6hrs", "operational_status": "non_operational", "operator": "Ministry of Health", "operator:type": "public", "precision": "4.55", "source": "KRCS2023", "staff_count": "1", "storage_area": "yes"}}, {"type": "node", "id": 11645444615, "lat": -0.4674184, "lon": 39.6306369, "tags": {"amenity": "pharmacy", "ele": "163.030324", "evacuation_centre": "no", "flood_prone": "yes", "name": "Mororo pharmacy", "opening_hours": "8hrs", "operational_status": "operational", "operator": "Nurse", "operator:type": "public", "precision": "5.0", "source": "KRCS2023", "staff_count": "8", "storage_area": "no"}}, {"type": "way", "id": 793246811, "nodes": [7417382320, 7417382321, 7417382322, 7417382323, 7417382324, 7417382325, 7417382326, 7417382327, 7417382328, 11209106799, 7417382320], "tags": {"amenity": "hospital", "healthcare": "hospital", "name": "General provincial hospital"}}]}