{"version": 0.6, "generator": "Overpass API 0.7.61.5 4133829e", "osm3s": {"timestamp_osm_base": "2024-02-29T14:07:47Z", "copyright": "The data included in this document is from www.openstreetmap.org. The data is made available under ODbL."}, "elements": [{"type": "node", "id": 3975802587, "lat": 34.9976826, "lon": 69.1567327}, {"type": "node", "id": 3975802618, "lat": 34.9985841, "lon": 69.1548119}, {"type": "node", "id": 3975802627, "lat": 34.99892, "lon": 69.1575931}, {"type": "node", "id": 3975802652, "lat": 35.0002394, "lon": 69.1546769}, {"type": "node", "id": 5628111847, "lat": 34.9967081, "lon": 69.1647573, "tags": {"amenity": "college", "name:en": "\u062f\u0627\u0646\u0634\u06a9\u062f\u0647 \u0627\u062f\u0628\u06cc\u0627\u062a"}}, {"type": "node", "id": 5628111848, "lat": 34.9964222, "lon": 69.1646844, "tags": {"amenity": "college", "name:en": "\u062f\u0627\u0646\u0634\u06a9\u062f\u0647 \u0639\u0644\u0648\u0645 \u0627\u062c\u062a\u0645\u0627\u0639\u06cc"}}, {"type": "node", "id": 5628119632, "lat": 34.9970042, "lon": 69.1643584, "tags": {"amenity": "college", "name:en": "Computer science faculty"}}, {"type": "node", "id": 5628119633, "lat": 34.9958931, "lon": 69.1645847, "tags": {"amenity": "college", "name:en": "Block B"}}, {"type": "node", "id": 5628119637, "lat": 34.9962327, "lon": 69.1654373, "tags": {"amenity": "college", "name:en": "\u062f\u0627\u0646\u0634\u06a9\u062f\u0647 \u062d\u0642\u0648\u0642 \u0648 \u0639\u0644\u0648\u0645 \u0633\u06cc\u0627\u0633\u06cc"}}, {"type": "node", "id": 5628119826, "lat": 34.9956559, "lon": 69.1658724, "tags": {"amenity": "college", "name:en": "\u062f\u0627\u0646\u0634\u06af\u0627\u0647 \u067e\u0631\u0648\u0627\u0646"}}, {"type": "node", "id": 5628119827, "lat": 34.9952262, "lon": 69.1641287, "tags": {"amenity": "college", "name:en": "\u062f\u0627\u0646\u0634\u06a9\u062f\u0647 \u0639\u0644\u0648\u0645 \u0637\u0628\u0639\u06cc"}}, {"type": "way", "id": 394595286, "nodes": [3975802652, 3975802627, 3975802587, 3975802618, 3975802652], "tags": {"amenity": "college"}}]}