{"version": 0.6, "generator": "Overpass API 0.7.61.5 4133829e", "osm3s": {"timestamp_osm_base": "2024-03-06T10:45:02Z", "copyright": "The data included in this document is from www.openstreetmap.org. The data is made available under ODbL."}, "elements": [{"type": "node", "id": 2479322352, "lat": 32.3702314, "lon": 44.8797203, "tags": {"alt_name": "\u0645\u062f\u0631\u0633\u0629 \u0627\u0644\u0625\u062e\u0644\u0627\u0635", "amenity": "school", "int_name": "Madrasat al Ikhl\u0101\u015f, Madrasat al Ikhlas", "name": "\u0645\u062f\u0631\u0633\u0629 \u0627\u0644\u0625\u062e\u0644\u0627\u0635", "name:ar": "\u0645\u062f\u0631\u0633\u0629 \u0627\u0644\u0625\u062e\u0644\u0627\u0635", "name:ar1": "\u0645\u062f\u0631\u0633\u0629 \u0627\u0644\u0625\u062e\u0644\u0627\u0635", "name:de": "Madrasat al Ikhlas", "name:en": "Madrasat al Ikhlas", "name:fr": "Madrasat al Ikhlas"}}, {"type": "node", "id": 2479322357, "lat": 32.369976, "lon": 44.879925, "tags": {"alt_name": "\u0645\u062f\u0631\u0633\u0629 \u0627\u0644\u0627\u062e\u0644\u0627\u0635", "amenity": "school", "int_name": "\u0645\u062f\u0631\u0633\u0629 \u0627\u0644\u0627\u062e\u0644\u0627\u0635, \u0645\u062f\u0631\u0633\u0629 \u0627\u0644\u0627\u062e\u0644\u0627\u0635", "name": "\u0645\u062f\u0631\u0633\u0629 \u0627\u0644\u0627\u062e\u0644\u0627\u0635", "name:ar": "\u0645\u062f\u0631\u0633\u0629 \u0627\u0644\u0627\u062e\u0644\u0627\u0635", "name:ar1": "\u0645\u062f\u0631\u0633\u0629 \u0627\u0644\u0627\u062e\u0644\u0627\u0635", "name:de": "\u0645\u062f\u0631\u0633\u0629 \u0627\u0644\u0627\u062e\u0644\u0627\u0635", "name:en": "\u0645\u062f\u0631\u0633\u0629 \u0627\u0644\u0627\u062e\u0644\u0627\u0635", "name:fr": "\u0645\u062f\u0631\u0633\u0629 \u0627\u0644\u0627\u062e\u0644\u0627\u0635"}}, {"type": "node", "id": 2479335843, "lat": 32.327357, "lon": 44.754032, "tags": {"alt_name": "\u0645\u062f\u0631\u0633\u0629 \u0627\u0644\u0641\u064a\u0627\u0636\u064a\u0629", "amenity": "school", "int_name": "Madrasat al Fayy\u0101\u1e11\u012byah, \u0645\u062f\u0631\u0633\u0629 \u0627\u0644\u0641\u064a\u0627\u0636\u064a\u0629, Madrasat al Fayyadiyah, \u0645\u062f\u0631\u0633\u0629 \u0627\u0644\u0641\u064a\u0627\u0636\u064a\u0629", "name": "\u0645\u062f\u0631\u0633\u0629 \u0627\u0644\u0641\u064a\u0627\u0636\u064a\u0629", "name:ar": "\u0645\u062f\u0631\u0633\u0629 \u0627\u0644\u0641\u064a\u0627\u0636\u064a\u0629", "name:ar1": "\u0645\u062f\u0631\u0633\u0629 \u0627\u0644\u0641\u064a\u0627\u0636\u064a\u0629", "name:de": "Madrasat al Fayyadiyah", "name:en": "Madrasat al Fayyadiyah", "name:fr": "Madrasat al Fayyadiyah"}}, {"type": "node", "id": 2479343008, "lat": 32.3319538, "lon": 44.6036387, "tags": {"alt_name": "\u0645\u062f\u0631\u0633\u0629 \u0627\u0644\u0639\u0645\u0627\u062f\u064a\u0629", "amenity": "school", "int_name": "Madrasat al Am\u0101d\u012byah, \u0645\u062f\u0631\u0633\u0629 \u0627\u0644\u0639\u0645\u0627\u062f\u064a\u0629, Madrasat al Amadiyah, \u0645\u062f\u0631\u0633\u0629 \u0627\u0644\u0639\u0645\u0627\u062f\u064a\u0629", "name": "\u0645\u062f\u0631\u0633\u0629 \u0627\u0644\u0639\u0645\u0627\u062f\u064a\u0629", "name:ar": "\u0645\u062f\u0631\u0633\u0629 \u0627\u0644\u0639\u0645\u0627\u062f\u064a\u0629", "name:ar1": "\u0645\u062f\u0631\u0633\u0629 \u0627\u0644\u0639\u0645\u0627\u062f\u064a\u0629", "name:de": "Madrasat al Amadiyah", "name:en": "Madrasat al Amadiyah", "name:fr": "Madrasat al Amadiyah"}}, {"type": "node", "id": 2479343019, "lat": 32.347107, "lon": 44.625865, "tags": {"alt_name": "\u0645\u062f\u0631\u0633\u0629 \u0627\u0644\u062c\u0631\u0628\u0648\u0639\u064a\u0629", "amenity": "school", "int_name": "Madrasat al Jarb\u016b\u012byah, \u0645\u062f\u0631\u0633\u0629 \u0627\u0644\u062c\u0631\u0628\u0648\u0639\u064a\u0629, Madrasat al Jarbuiyah, \u0645\u062f\u0631\u0633\u0629 \u0627\u0644\u062c\u0631\u0628\u0648\u0639\u064a\u0629", "name": "\u0645\u062f\u0631\u0633\u0629 \u0627\u0644\u062c\u0631\u0628\u0648\u0639\u064a\u0629", "name:ar": "\u0645\u062f\u0631\u0633\u0629 \u0627\u0644\u062c\u0631\u0628\u0648\u0639\u064a\u0629", "name:ar1": "\u0645\u062f\u0631\u0633\u0629 \u0627\u0644\u062c\u0631\u0628\u0648\u0639\u064a\u0629", "name:de": "Madrasat al Jarbuiyah", "name:en": "Madrasat al Jarbuiyah", "name:fr": "Madrasat al Jarbuiyah"}}, {"type": "node", "id": 2479344639, "lat": 32.384103, "lon": 44.5703187, "tags": {"alt_name": "\u0645\u062f\u0631\u0633\u0629 \u0627\u0644\u0645\u0623\u0645\u0648\u0646", "amenity": "school", "int_name": "Madrasat al Mam\u016bn, Madrasat al Mumin\u016bn, \u0645\u062f\u0631\u0633\u0629 \u0627\u0644\u0645\u0623\u0645\u0648\u0646, Madrasat al Mamun, Madrasat al Muminun, \u0645\u062f\u0631\u0633\u0629 \u0627\u0644\u0645\u0623\u0645\u0648\u0646", "name": "\u0645\u062f\u0631\u0633\u0629 \u0627\u0644\u0645\u0623\u0645\u0648\u0646", "name:ar": "\u0645\u062f\u0631\u0633\u0629 \u0627\u0644\u0645\u0623\u0645\u0648\u0646", "name:ar1": "\u0645\u062f\u0631\u0633\u0629 \u0627\u0644\u0645\u0623\u0645\u0648\u0646", "name:de": "Madrasat al Mamun", "name:en": "Madrasat al Mamun", "name:fr": "Madrasat al Mamun"}}, {"type": "node", "id": 2479344752, "lat": 32.3839456, "lon": 44.5701385, "tags": {"alt_name": "\u0645\u062f\u0631\u0633\u0629 \u0627\u0644\u0645\u0624\u0645\u0646\u0648\u0646", "amenity": "school", "int_name": "\u0645\u062f\u0631\u0633\u0629 \u0627\u0644\u0645\u0624\u0645\u0646\u0648\u0646, \u0645\u062f\u0631\u0633\u0629 \u0627\u0644\u0645\u0624\u0645\u0646\u0648\u0646", "name": "\u0645\u062f\u0631\u0633\u0629 \u0627\u0644\u0645\u0624\u0645\u0646\u0648\u0646", "name:ar": "\u0645\u062f\u0631\u0633\u0629 \u0627\u0644\u0645\u0624\u0645\u0646\u0648\u0646", "name:ar1": "\u0645\u062f\u0631\u0633\u0629 \u0627\u0644\u0645\u0624\u0645\u0646\u0648\u0646", "name:de": "\u0645\u062f\u0631\u0633\u0629 \u0627\u0644\u0645\u0624\u0645\u0646\u0648\u0646", "name:en": "\u0645\u062f\u0631\u0633\u0629 \u0627\u0644\u0645\u0624\u0645\u0646\u0648\u0646", "name:fr": "\u0645\u062f\u0631\u0633\u0629 \u0627\u0644\u0645\u0624\u0645\u0646\u0648\u0646"}}, {"type": "node", "id": 2479350089, "lat": 32.417558, "lon": 44.67438, "tags": {"alt_name": "\u0645\u062f\u0631\u0633\u0629 \u0645\u0644\u0629 \u0639\u0628\u064a\u062f \u0638\u0644\u0627\u0645\u064a\u0629 \u0646\u0627\u062c\u064a", "amenity": "school", "int_name": "Madrasat Mullah Ubayd Z\u0327al\u0101m\u012byat N\u0101j\u012b, \u0645\u062f\u0631\u0633\u0629 \u0645\u0644\u0629 \u0639\u0628\u064a\u062f \u0638\u0644\u0627\u0645\u064a\u0629 \u0646\u0627\u062c\u064a, Madrasat Mullah Ubayd Zalamiyat Naji, \u0645\u062f\u0631\u0633\u0629 \u0645\u0644\u0629 \u0639\u0628\u064a\u062f \u0638\u0644\u0627\u0645\u064a\u0629 \u0646\u0627\u062c\u064a", "name": "\u0645\u062f\u0631\u0633\u0629 \u0645\u0644\u0629 \u0639\u0628\u064a\u062f \u0638\u0644\u0627\u0645\u064a\u0629 \u0646\u0627\u062c\u064a", "name:ar": "\u0645\u062f\u0631\u0633\u0629 \u0645\u0644\u0629 \u0639\u0628\u064a\u062f \u0638\u0644\u0627\u0645\u064a\u0629 \u0646\u0627\u062c\u064a", "name:ar1": "\u0645\u062f\u0631\u0633\u0629 \u0645\u0644\u0629 \u0639\u0628\u064a\u062f \u0638\u0644\u0627\u0645\u064a\u0629 \u0646\u0627\u062c\u064a", "name:de": "Madrasat Mullah Ubayd Zalamiyat Naji", "name:en": "Madrasat Mullah Ubayd Zalamiyat Naji", "name:fr": "Madrasat Mullah Ubayd Zalamiyat Naji"}}, {"type": "node", "id": 2479351357, "lat": 32.439042, "lon": 44.623168, "tags": {"alt_name": "\u0645\u062f\u0631\u0633\u0629 \u0648\u0647\u0631\u0627\u0646", "amenity": "school", "int_name": "Madrasat Wahr\u0101n, \u0645\u062f\u0631\u0633\u0629 \u0648\u0647\u0631\u0627\u0646, Madrasat Wahran, \u0645\u062f\u0631\u0633\u0629 \u0648\u0647\u0631\u0627\u0646", "name": "\u0645\u062f\u0631\u0633\u0629 \u0648\u0647\u0631\u0627\u0646", "name:ar": "\u0645\u062f\u0631\u0633\u0629 \u0648\u0647\u0631\u0627\u0646", "name:ar1": "\u0645\u062f\u0631\u0633\u0629 \u0648\u0647\u0631\u0627\u0646", "name:de": "Madrasat Wahran", "name:en": "Madrasat Wahran", "name:fr": "Madrasat Wahran"}}, {"type": "node", "id": 2479352805, "lat": 32.38305, "lon": 44.601891, "tags": {"alt_name": "\u0645\u062f\u0631\u0633\u0629 \u0627\u0644\u0639\u0628\u0627\u0633\u064a\u0629 \u0627\u0644\u0645\u062e\u062a\u0644\u0637\u0629", "amenity": "school", "int_name": "Madrasat al Abb\u0101s\u012byah al Mukhtala\u0163ah, \u0645\u062f\u0631\u0633\u0629 \u0627\u0644\u0639\u0628\u0627\u0633\u064a\u0629 \u0627\u0644\u0645\u062e\u062a\u0644\u0637\u0629, Madrasat al Abbasiyah al Mukhtalatah, \u0645\u062f\u0631\u0633\u0629 \u0627\u0644\u0639\u0628\u0627\u0633\u064a\u0629 \u0627\u0644\u0645\u062e\u062a\u0644\u0637\u0629", "name": "\u0645\u062f\u0631\u0633\u0629 \u0627\u0644\u0639\u0628\u0627\u0633\u064a\u0629 \u0627\u0644\u0645\u062e\u062a\u0644\u0637\u0629", "name:ar": "\u0645\u062f\u0631\u0633\u0629 \u0627\u0644\u0639\u0628\u0627\u0633\u064a\u0629 \u0627\u0644\u0645\u062e\u062a\u0644\u0637\u0629", "name:ar1": "\u0645\u062f\u0631\u0633\u0629 \u0627\u0644\u0639\u0628\u0627\u0633\u064a\u0629 \u0627\u0644\u0645\u062e\u062a\u0644\u0637\u0629", "name:de": "Madrasat al Abbasiyah al Mukhtalatah", "name:en": "Madrasat al Abbasiyah al Mukhtalatah", "name:fr": "Madrasat al Abbasiyah al Mukhtalatah"}}, {"type": "node", "id": 2479352806, "lat": 32.408384, "lon": 44.559423, "tags": {"alt_name": "\u0645\u062f\u0631\u0633\u0629 \u0627\u0644\u0641\u062f\u0627\u0646\u064a \u0627\u0644\u0639\u0631\u0628\u064a", "amenity": "school", "int_name": "Madrasat al Fadd\u0101n\u012b al Arab\u012b, \u0645\u062f\u0631\u0633\u0629 \u0627\u0644\u0641\u062f\u0627\u0646\u064a \u0627\u0644\u0639\u0631\u0628\u064a, Madrasat al Faddani al Arabi, \u0645\u062f\u0631\u0633\u0629 \u0627\u0644\u0641\u062f\u0627\u0646\u064a \u0627\u0644\u0639\u0631\u0628\u064a", "name": "\u0645\u062f\u0631\u0633\u0629 \u0627\u0644\u0641\u062f\u0627\u0646\u064a \u0627\u0644\u0639\u0631\u0628\u064a", "name:ar": "\u0645\u062f\u0631\u0633\u0629 \u0627\u0644\u0641\u062f\u0627\u0646\u064a \u0627\u0644\u0639\u0631\u0628\u064a", "name:ar1": "\u0645\u062f\u0631\u0633\u0629 \u0627\u0644\u0641\u062f\u0627\u0646\u064a \u0627\u0644\u0639\u0631\u0628\u064a", "name:de": "Madrasat al Faddani al Arabi", "name:en": "Madrasat al Faddani al Arabi", "name:fr": "Madrasat al Faddani al Arabi"}}, {"type": "node", "id": 2480229510, "lat": 32.156421, "lon": 44.665433, "tags": {"alt_name": "\u0645\u062f\u0631\u0633\u0629 \u0627\u0644\u0647\u062f\u0649", "amenity": "school", "int_name": "Madrasat al Hud\u00e1, \u0645\u062f\u0631\u0633\u0629 \u0627\u0644\u0647\u062f\u0649, Madrasat al Huda, \u0645\u062f\u0631\u0633\u0629 \u0627\u0644\u0647\u062f\u0649", "name": "\u0645\u062f\u0631\u0633\u0629 \u0627\u0644\u0647\u062f\u0649", "name:ar": "\u0645\u062f\u0631\u0633\u0629 \u0627\u0644\u0647\u062f\u0649", "name:ar1": "\u0645\u062f\u0631\u0633\u0629 \u0627\u0644\u0647\u062f\u0649", "name:de": "Madrasat al Huda", "name:en": "Madrasat al Huda", "name:fr": "Madrasat al Huda"}}, {"type": "node", "id": 2480230654, "lat": 32.357239, "lon": 44.989956, "tags": {"alt_name": "\u0645\u062f\u0631\u0633\u0629 \u0639\u062a\u0627\u0628", "amenity": "school", "int_name": "Madrasat It\u0101b, \u0645\u062f\u0631\u0633\u0629 \u0639\u062a\u0627\u0628, Madrasat Itab, \u0645\u062f\u0631\u0633\u0629 \u0639\u062a\u0627\u0628", "name": "\u0645\u062f\u0631\u0633\u0629 \u0639\u062a\u0627\u0628", "name:ar": "\u0645\u062f\u0631\u0633\u0629 \u0639\u062a\u0627\u0628", "name:ar1": "\u0645\u062f\u0631\u0633\u0629 \u0639\u062a\u0627\u0628", "name:de": "Madrasat Itab", "name:en": "Madrasat Itab", "name:fr": "Madrasat Itab"}}, {"type": "node", "id": 2480231659, "lat": 32.453859, "lon": 44.835063, "tags": {"alt_name": "\u0645\u062f\u0631\u0633\u0629 \u0627\u0644\u0634\u0631\u064a\u0641\u0627\u062a", "amenity": "school", "int_name": "Madrasat ash Shurayf\u0101t, \u0645\u062f\u0631\u0633\u0629 \u0627\u0644\u0634\u0631\u064a\u0641\u0627\u062a, Madrasat ash Shurayfat, \u0645\u062f\u0631\u0633\u0629 \u0627\u0644\u0634\u0631\u064a\u0641\u0627\u062a", "name": "\u0645\u062f\u0631\u0633\u0629 \u0627\u0644\u0634\u0631\u064a\u0641\u0627\u062a", "name:ar": "\u0645\u062f\u0631\u0633\u0629 \u0627\u0644\u0634\u0631\u064a\u0641\u0627\u062a", "name:ar1": "\u0645\u062f\u0631\u0633\u0629 \u0627\u0644\u0634\u0631\u064a\u0641\u0627\u062a", "name:de": "Madrasat ash Shurayfat", "name:en": "Madrasat ash Shurayfat", "name:fr": "Madrasat ash Shurayfat"}}, {"type": "node", "id": 2480232247, "lat": 32.461918, "lon": 44.910897, "tags": {"alt_name": "\u0645\u062f\u0631\u0633\u0629 \u062a\u0639\u0627\u0648\u0646\u064a\u0629 \u0627\u0644\u063a\u0632\u0627\u0644\u064a", "amenity": "school", "int_name": "Madrasat Ta\u0101wun\u012byat al Ghaz\u0101l\u012b, \u0645\u062f\u0631\u0633\u0629 \u062a\u0639\u0627\u0648\u0646\u064a\u0629 \u0627\u0644\u063a\u0632\u0627\u0644\u064a, Madrasat Taawuniyat al Ghazali, \u0645\u062f\u0631\u0633\u0629 \u062a\u0639\u0627\u0648\u0646\u064a\u0629 \u0627\u0644\u063a\u0632\u0627\u0644\u064a", "name": "\u0645\u062f\u0631\u0633\u0629 \u062a\u0639\u0627\u0648\u0646\u064a\u0629 \u0627\u0644\u063a\u0632\u0627\u0644\u064a", "name:ar": "\u0645\u062f\u0631\u0633\u0629 \u062a\u0639\u0627\u0648\u0646\u064a\u0629 \u0627\u0644\u063a\u0632\u0627\u0644\u064a", "name:ar1": "\u0645\u062f\u0631\u0633\u0629 \u062a\u0639\u0627\u0648\u0646\u064a\u0629 \u0627\u0644\u063a\u0632\u0627\u0644\u064a", "name:de": "Madrasat Taawuniyat al Ghazali", "name:en": "Madrasat Taawuniyat al Ghazali", "name:fr": "Madrasat Taawuniyat al Ghazali"}}, {"type": "node", "id": 2480232254, "lat": 32.450023, "lon": 44.923026, "tags": {"alt_name": "\u0645\u062f\u0631\u0633\u0629 \u0627\u0644\u0633\u0648\u064a\u0633 \u0627\u0644\u0623\u0648\u0644\u0649", "amenity": "school", "int_name": "Madrasat as Suways al Awl\u00e1, \u0645\u062f\u0631\u0633\u0629 \u0627\u0644\u0633\u0648\u064a\u0633 \u0627\u0644\u0627\u0648\u0644\u0649, Madrasat as Suways al Awla, \u0645\u062f\u0631\u0633\u0629 \u0627\u0644\u0633\u0648\u064a\u0633 \u0627\u0644\u0627\u0648\u0644\u0649", "name": "\u0645\u062f\u0631\u0633\u0629 \u0627\u0644\u0633\u0648\u064a\u0633 \u0627\u0644\u0623\u0648\u0644\u0649", "name:ar": "\u0645\u062f\u0631\u0633\u0629 \u0627\u0644\u0633\u0648\u064a\u0633 \u0627\u0644\u0623\u0648\u0644\u0649", "name:ar1": "\u0645\u062f\u0631\u0633\u0629 \u0627\u0644\u0633\u0648\u064a\u0633 \u0627\u0644\u0623\u0648\u0644\u0649", "name:de": "Madrasat as Suways al Awla", "name:en": "Madrasat as Suways al Awla", "name:fr": "Madrasat as Suways al Awla"}}, {"type": "node", "id": 2480232357, "lat": 32.418919, "lon": 44.985315, "tags": {"alt_name": "\u0645\u062f\u0631\u0633\u0629 \u0627\u0644\u0639\u0637\u0627\u0621", "amenity": "school", "int_name": "Madrasat al A\u0163\u0101, \u0645\u062f\u0631\u0633\u0629 \u0627\u0644\u0639\u0637\u0627\u0621, Madrasat al Ata, \u0645\u062f\u0631\u0633\u0629 \u0627\u0644\u0639\u0637\u0627\u0621", "name": "\u0645\u062f\u0631\u0633\u0629 \u0627\u0644\u0639\u0637\u0627\u0621", "name:ar": "\u0645\u062f\u0631\u0633\u0629 \u0627\u0644\u0639\u0637\u0627\u0621", "name:ar1": "\u0645\u062f\u0631\u0633\u0629 \u0627\u0644\u0639\u0637\u0627\u0621", "name:de": "Madrasat al Ata", "name:en": "Madrasat al Ata", "name:fr": "Madrasat al Ata"}}, {"type": "node", "id": 2485211876, "lat": 32.314571, "lon": 44.866163, "tags": {"alt_name": "\u0645\u062f\u0631\u0633\u0629 \u0628\u0643\u0627\u0646", "amenity": "school", "int_name": "Madrasat Buk\u0101n, \u0645\u062f\u0631\u0633\u0629 \u0628\u0643\u0627\u0646, Madrasat Bukan, \u0645\u062f\u0631\u0633\u0629 \u0628\u0643\u0627\u0646", "name": "\u0645\u062f\u0631\u0633\u0629 \u0628\u0643\u0627\u0646", "name:ar": "\u0645\u062f\u0631\u0633\u0629 \u0628\u0643\u0627\u0646", "name:ar1": "\u0645\u062f\u0631\u0633\u0629 \u0628\u0643\u0627\u0646", "name:de": "Madrasat Bukan", "name:en": "Madrasat Bukan", "name:fr": "Madrasat Bukan"}}, {"type": "node", "id": 2485216853, "lat": 32.282121, "lon": 44.971088, "tags": {"addr:street": "\u0642\u0631\u064a\u0629 \u0627\u0644\u0628\u0648\u062e\u0644\u064a\u062f\u0627\u0646", "alt_name": "\u0645\u062f\u0631\u0633\u0629 \u0627\u0644\u0635\u0627\u0641\u064a", "amenity": "school", "email": "muth.iq2015@gmail.com", "int_name": "Madrasat a\u015f \u015e\u0101f\u012b, \u0645\u062f\u0631\u0633\u0629 \u0627\u0644\u0635\u0627\u0641\u064a, Madrasat as Safi, \u0645\u062f\u0631\u0633\u0629 \u0627\u0644\u0635\u0627\u0641\u064a", "name": "\u0645\u062f\u0631\u0633\u0629 \u0627\u0644\u0635\u0627\u0641\u064a", "name:ar": "\u0645\u062f\u0631\u0633\u0629 \u0627\u0644\u0635\u0627\u0641\u064a", "name:ar1": "\u0645\u062f\u0631\u0633\u0629 \u0627\u0644\u0635\u0627\u0641\u064a", "name:de": "Madrasat as Safi", "name:en": "Safe school", "name:fr": "Madrasat as Safi", "name:ku": "Arabic"}}, {"type": "node", "id": 2485225627, "lat": 32.393053, "lon": 44.870032, "tags": {"alt_name": "\u0645\u062f\u0631\u0633\u0629 \u0627\u0644\u0623\u0628\u0631\u0643", "amenity": "school", "int_name": "Madrasat al Abrak, \u0645\u062f\u0631\u0633\u0629 \u0627\u0644\u0627\u0628\u0631\u0643, Madrasat al Abrak, \u0645\u062f\u0631\u0633\u0629 \u0627\u0644\u0627\u0628\u0631\u0643", "name": "\u0645\u062f\u0631\u0633\u0629 \u0627\u0644\u0623\u0628\u0631\u0643", "name:ar": "\u0645\u062f\u0631\u0633\u0629 \u0627\u0644\u0623\u0628\u0631\u0643", "name:ar1": "\u0645\u062f\u0631\u0633\u0629 \u0627\u0644\u0623\u0628\u0631\u0643", "name:de": "Madrasat al Abrak", "name:en": "Madrasat al Abrak", "name:fr": "Madrasat al Abrak"}}, {"type": "node", "id": 2485225631, "lat": 32.351517, "lon": 44.897822, "tags": {"alt_name": "\u0645\u062f\u0631\u0633\u0629 \u0627\u0644\u0623\u062e\u0648\u0629", "amenity": "school", "int_name": "Madrasat al Ikhwah, \u0645\u062f\u0631\u0633\u0629 \u0627\u0644\u0627\u062e\u0648\u0629, Madrasat al Ikhwah, \u0645\u062f\u0631\u0633\u0629 \u0627\u0644\u0627\u062e\u0648\u0629", "name": "\u0645\u062f\u0631\u0633\u0629 \u0627\u0644\u0623\u062e\u0648\u0629", "name:ar": "\u0645\u062f\u0631\u0633\u0629 \u0627\u0644\u0623\u062e\u0648\u0629", "name:ar1": "\u0645\u062f\u0631\u0633\u0629 \u0627\u0644\u0623\u062e\u0648\u0629", "name:de": "Madrasat al Ikhwah", "name:en": "Madrasat al Ikhwah", "name:fr": "Madrasat al Ikhwah"}}, {"type": "node", "id": 2485225635, "lat": 32.377059, "lon": 44.943351, "tags": {"alt_name": "\u0645\u062f\u0631\u0633\u0629 \u0627\u0644\u062e\u0636\u0631\u064a\u0629 \u0627\u0644\u0623\u0648\u0644\u0649", "amenity": "school", "int_name": "Madrasat al Khu\u1e11ar\u012byah al Awl\u00e1, \u0645\u062f\u0631\u0633\u0629 \u0627\u0644\u062e\u0636\u0631\u064a\u0629 \u0627\u0644\u0627\u0648\u0644\u0649, Madrasat al Khudariyah al Awla, \u0645\u062f\u0631\u0633\u0629 \u0627\u0644\u062e\u0636\u0631\u064a\u0629 \u0627\u0644\u0627\u0648\u0644\u0649", "name": "\u0645\u062f\u0631\u0633\u0629 \u0627\u0644\u062e\u0636\u0631\u064a\u0629 \u0627\u0644\u0623\u0648\u0644\u0649", "name:ar": "\u0645\u062f\u0631\u0633\u0629 \u0627\u0644\u062e\u0636\u0631\u064a\u0629 \u0627\u0644\u0623\u0648\u0644\u0649", "name:ar1": "\u0645\u062f\u0631\u0633\u0629 \u0627\u0644\u062e\u0636\u0631\u064a\u0629 \u0627\u0644\u0623\u0648\u0644\u0649", "name:de": "Madrasat al Khudariyah al Awla", "name:en": "Madrasat al Khudariyah al Awla", "name:fr": "Madrasat al Khudariyah al Awla"}}, {"type": "node", "id": 2485225640, "lat": 32.342558, "lon": 44.846373, "tags": {"alt_name": "\u0645\u062f\u0631\u0633\u0629 \u0627\u0644\u0646\u0628\u0631\u0627\u0633", "amenity": "school", "int_name": "Madrasat an Nibr\u0101s, \u0645\u062f\u0631\u0633\u0629 \u0627\u0644\u0646\u0628\u0631\u0627\u0633, Madrasat an Nibras, \u0645\u062f\u0631\u0633\u0629 \u0627\u0644\u0646\u0628\u0631\u0627\u0633", "name": "\u0645\u062f\u0631\u0633\u0629 \u0627\u0644\u0646\u0628\u0631\u0627\u0633", "name:ar": "\u0645\u062f\u0631\u0633\u0629 \u0627\u0644\u0646\u0628\u0631\u0627\u0633", "name:ar1": "\u0645\u062f\u0631\u0633\u0629 \u0627\u0644\u0646\u0628\u0631\u0627\u0633", "name:de": "Madrasat an Nibras", "name:en": "Madrasat an Nibras", "name:fr": "Madrasat an Nibras"}}, {"type": "node", "id": 2485228026, "lat": 32.39335, "lon": 44.804373, "tags": {"alt_name": "\u0645\u062f\u0631\u0633\u0629 \u0623\u0628\u0648 \u0647\u0631\u0637\u0645\u0627\u0646", "amenity": "school", "int_name": "Madrasat Ab\u016b Har\u0163am\u0101n, \u0645\u062f\u0631\u0633\u0629 \u0627\u0628\u0648 \u0647\u0631\u0637\u0645\u0627\u0646, Madrasat Abu Hartaman, \u0645\u062f\u0631\u0633\u0629 \u0627\u0628\u0648 \u0647\u0631\u0637\u0645\u0627\u0646", "name": "\u0645\u062f\u0631\u0633\u0629 \u0623\u0628\u0648 \u0647\u0631\u0637\u0645\u0627\u0646", "name:ar": "\u0645\u062f\u0631\u0633\u0629 \u0623\u0628\u0648 \u0647\u0631\u0637\u0645\u0627\u0646", "name:ar1": "\u0645\u062f\u0631\u0633\u0629 \u0623\u0628\u0648 \u0647\u0631\u0637\u0645\u0627\u0646", "name:de": "Madrasat Abu Hartaman", "name:en": "Madrasat Abu Hartaman", "name:fr": "Madrasat Abu Hartaman"}}, {"type": "node", "id": 2485228031, "lat": 32.408705, "lon": 44.761543, "tags": {"alt_name": "\u0645\u062f\u0631\u0633\u0629 \u0627\u0644\u0643\u0648\u0627\u0645", "amenity": "school", "int_name": "Madrasat al Kuw\u0101m, \u0645\u062f\u0631\u0633\u0629 \u0627\u0644\u0643\u0648\u0627\u0645, Madrasat al Kuwam, \u0645\u062f\u0631\u0633\u0629 \u0627\u0644\u0643\u0648\u0627\u0645", "name": "\u0645\u062f\u0631\u0633\u0629 \u0627\u0644\u0643\u0648\u0627\u0645", "name:ar": "\u0645\u062f\u0631\u0633\u0629 \u0627\u0644\u0643\u0648\u0627\u0645", "name:ar1": "\u0645\u062f\u0631\u0633\u0629 \u0627\u0644\u0643\u0648\u0627\u0645", "name:de": "Madrasat al Kuwam", "name:en": "Madrasat al Kuwam", "name:fr": "Madrasat al Kuwam"}}, {"type": "node", "id": 2485228035, "lat": 32.288681, "lon": 44.761554, "tags": {"alt_name": "\u0645\u062f\u0631\u0633\u0629 \u0627\u0644\u0642\u0648\u062c\u0627\u0646", "amenity": "school", "int_name": "Madrasat al Qawj\u0101n, \u0645\u062f\u0631\u0633\u0629 \u0627\u0644\u0642\u0648\u062c\u0627\u0646, Madrasat al Qawjan, \u0645\u062f\u0631\u0633\u0629 \u0627\u0644\u0642\u0648\u062c\u0627\u0646", "name": "\u0645\u062f\u0631\u0633\u0629 \u0627\u0644\u0642\u0648\u062c\u0627\u0646", "name:ar": "\u0645\u062f\u0631\u0633\u0629 \u0627\u0644\u0642\u0648\u062c\u0627\u0646", "name:ar1": "\u0645\u062f\u0631\u0633\u0629 \u0627\u0644\u0642\u0648\u062c\u0627\u0646", "name:de": "Madrasat al Qawjan", "name:en": "Madrasat al Qawjan", "name:fr": "Madrasat al Qawjan"}}, {"type": "node", "id": 2485228036, "lat": 32.245677, "lon": 44.740521, "tags": {"alt_name": "\u0645\u062f\u0631\u0633\u0629 \u0627\u0644\u0642\u062f\u0633", "amenity": "school", "int_name": "Madrasat al Qudus, \u0645\u062f\u0631\u0633\u0629 \u0627\u0644\u0642\u062f\u0633, Madrasat al Qudus, \u0645\u062f\u0631\u0633\u0629 \u0627\u0644\u0642\u062f\u0633", "name": "\u0645\u062f\u0631\u0633\u0629 \u0627\u0644\u0642\u062f\u0633", "name:ar": "\u0645\u062f\u0631\u0633\u0629 \u0627\u0644\u0642\u062f\u0633", "name:ar1": "\u0645\u062f\u0631\u0633\u0629 \u0627\u0644\u0642\u062f\u0633", "name:de": "Madrasat al Qudus", "name:en": "Madrasat al Qudus", "name:fr": "Madrasat al Qudus"}}, {"type": "node", "id": 2485228037, "lat": 32.361316, "lon": 44.784301, "tags": {"alt_name": "\u0645\u062f\u0631\u0633\u0629 \u0627\u0644\u0632\u0628\u0627\u0631", "amenity": "school", "int_name": "Madrasat az Zib\u0101r, \u0645\u062f\u0631\u0633\u0629 \u0627\u0644\u0632\u0628\u0627\u0631, Madrasat az Zibar, \u0645\u062f\u0631\u0633\u0629 \u0627\u0644\u0632\u0628\u0627\u0631", "name": "\u0645\u062f\u0631\u0633\u0629 \u0627\u0644\u0632\u0628\u0627\u0631", "name:ar": "\u0645\u062f\u0631\u0633\u0629 \u0627\u0644\u0632\u0628\u0627\u0631", "name:ar1": "\u0645\u062f\u0631\u0633\u0629 \u0627\u0644\u0632\u0628\u0627\u0631", "name:de": "Madrasat az Zibar", "name:en": "Madrasat az Zibar", "name:fr": "Madrasat az Zibar"}}, {"type": "node", "id": 2485242039, "lat": 32.45644, "lon": 44.955576, "tags": {"alt_name": "\u0645\u062f\u0631\u0633\u0629 \u0627\u0644\u0623\u0643\u0631\u0639 \u0627\u0644\u0625\u0628\u062a\u062f\u0627\u0626\u064a\u0629", "amenity": "school", "int_name": "Madrasat al Akra al Ibtid\u0101\u012byah, \u0645\u062f\u0631\u0633\u0629 \u0627\u0644\u0627\u0643\u0631\u0639 \u0627\u0644\u0627\u0628\u062a\u062f\u0627\u0626\u064a\u0629, Madrasat al Akra al Ibtidaiyah, \u0645\u062f\u0631\u0633\u0629 \u0627\u0644\u0627\u0643\u0631\u0639 \u0627\u0644\u0627\u0628\u062a\u062f\u0627\u0626\u064a\u0629", "name": "\u0645\u062f\u0631\u0633\u0629 \u0627\u0644\u0623\u0643\u0631\u0639 \u0627\u0644\u0625\u0628\u062a\u062f\u0627\u0626\u064a\u0629", "name:ar": "\u0645\u062f\u0631\u0633\u0629 \u0627\u0644\u0623\u0643\u0631\u0639 \u0627\u0644\u0625\u0628\u062a\u062f\u0627\u0626\u064a\u0629", "name:ar1": "\u0645\u062f\u0631\u0633\u0629 \u0627\u0644\u0623\u0643\u0631\u0639 \u0627\u0644\u0625\u0628\u062a\u062f\u0627\u0626\u064a\u0629", "name:de": "Madrasat al Akra al Ibtidaiyah", "name:en": "Madrasat al Akra al Ibtidaiyah", "name:fr": "Madrasat al Akra al Ibtidaiyah"}}, {"type": "node", "id": 2485242053, "lat": 32.443602, "lon": 44.809531, "tags": {"alt_name": "\u0645\u062f\u0631\u0633\u0629 \u0627\u0644\u062e\u0645\u064a\u0633\u064a\u0629", "amenity": "school", "int_name": "Madrasat al Kham\u012bs\u012byah, \u0645\u062f\u0631\u0633\u0629 \u0627\u0644\u062e\u0645\u064a\u0633\u064a\u0629, Madrasat al Khamisiyah, \u0645\u062f\u0631\u0633\u0629 \u0627\u0644\u062e\u0645\u064a\u0633\u064a\u0629", "name": "\u0645\u062f\u0631\u0633\u0629 \u0627\u0644\u062e\u0645\u064a\u0633\u064a\u0629", "name:ar": "\u0645\u062f\u0631\u0633\u0629 \u0627\u0644\u062e\u0645\u064a\u0633\u064a\u0629", "name:ar1": "\u0645\u062f\u0631\u0633\u0629 \u0627\u0644\u062e\u0645\u064a\u0633\u064a\u0629", "name:de": "Madrasat al Khamisiyah", "name:en": "Madrasat al Khamisiyah", "name:fr": "Madrasat al Khamisiyah"}}, {"type": "node", "id": 2485242064, "lat": 32.228716, "lon": 44.804584, "tags": {"alt_name": "\u0645\u062f\u0631\u0633\u0629 \u0627\u0644\u0645\u0646\u0627\u0638\u0645", "amenity": "school", "int_name": "Madrasat al Man\u0101z\u0327im, \u0645\u062f\u0631\u0633\u0629 \u0627\u0644\u0645\u0646\u0627\u0638\u0645, Madrasat al Manazim, \u0645\u062f\u0631\u0633\u0629 \u0627\u0644\u0645\u0646\u0627\u0638\u0645", "name": "\u0645\u062f\u0631\u0633\u0629 \u0627\u0644\u0645\u0646\u0627\u0638\u0645", "name:ar": "\u0645\u062f\u0631\u0633\u0629 \u0627\u0644\u0645\u0646\u0627\u0638\u0645", "name:ar1": "\u0645\u062f\u0631\u0633\u0629 \u0627\u0644\u0645\u0646\u0627\u0638\u0645", "name:de": "Madrasat al Manazim", "name:en": "Madrasat al Manazim", "name:fr": "Madrasat al Manazim"}}, {"type": "node", "id": 2486183600, "lat": 32.3733744, "lon": 44.6499339, "tags": {"alt_name": "\u0625\u0639\u062f\u0627\u062f\u064a\u0629 \u0627\u0644\u0647\u0627\u0634\u0645\u064a\u0629", "amenity": "school", "int_name": "Id\u0101d\u012byat al H\u0101shim\u012byah, Idadiyat al Hashimiyah", "is_in": "Iraq , \u062c\u0645\u0647\u0648\u0631\u064a\u0629 \u0627\u0644\u0639\u0631\u0627\u0642", "name": "\u0625\u0639\u062f\u0627\u062f\u064a\u0629 \u0627\u0644\u0647\u0627\u0634\u0645\u064a\u0629", "name:ar": "\u0625\u0639\u062f\u0627\u062f\u064a\u0629 \u0627\u0644\u0647\u0627\u0634\u0645\u064a\u0629", "name:ar1": "\u0625\u0639\u062f\u0627\u062f\u064a\u0629 \u0627\u0644\u0647\u0627\u0634\u0645\u064a\u0629", "name:de": "Idadiyat al Hashimiyah", "name:en": "Idadiyat al Hashimiyah", "name:fr": "Idadiyat al Hashimiyah"}}, {"type": "node", "id": 2486183703, "lat": 32.401424, "lon": 44.691671, "tags": {"alt_name": "\u0645\u062f\u0631\u0633\u0629 \u0623\u062d\u062f\u0627\u062b \u0627\u0644\u0648\u062d\u062f\u0629", "amenity": "school", "int_name": "Madrasat A\u1e29d\u0101th al Wi\u1e29dah, \u0645\u062f\u0631\u0633\u0629 \u0627\u062d\u062f\u0627\u062b \u0627\u0644\u0648\u062d\u062f\u0629, Madrasat Ahdath al Wihdah, \u0645\u062f\u0631\u0633\u0629 \u0627\u062d\u062f\u0627\u062b \u0627\u0644\u0648\u062d\u062f\u0629", "name": "\u0645\u062f\u0631\u0633\u0629 \u0623\u062d\u062f\u0627\u062b \u0627\u0644\u0648\u062d\u062f\u0629", "name:ar": "\u0645\u062f\u0631\u0633\u0629 \u0623\u062d\u062f\u0627\u062b \u0627\u0644\u0648\u062d\u062f\u0629", "name:ar1": "\u0645\u062f\u0631\u0633\u0629 \u0623\u062d\u062f\u0627\u062b \u0627\u0644\u0648\u062d\u062f\u0629", "name:de": "Madrasat Ahdath al Wihdah", "name:en": "Madrasat Ahdath al Wihdah", "name:fr": "Madrasat Ahdath al Wihdah"}}, {"type": "node", "id": 2486183720, "lat": 32.4374201, "lon": 44.7567193, "tags": {"alt_name": "\u0645\u062f\u0631\u0633\u0629 \u0627\u0644\u0643\u0646\u062f\u064a", "amenity": "school", "int_name": "Madrasat al Kind\u012b, \u0645\u062f\u0631\u0633\u0629 \u0627\u0644\u0643\u0646\u062f\u064a, Madrasat al Kindi, \u0645\u062f\u0631\u0633\u0629 \u0627\u0644\u0643\u0646\u062f\u064a", "name": "\u0645\u062f\u0631\u0633\u0629 \u0627\u0644\u0643\u0646\u062f\u064a", "name:ar": "\u0645\u062f\u0631\u0633\u0629 \u0627\u0644\u0643\u0646\u062f\u064a", "name:ar1": "\u0645\u062f\u0631\u0633\u0629 \u0627\u0644\u0643\u0646\u062f\u064a", "name:de": "Madrasat al Kindi", "name:en": "Madrasat al Kindi", "name:fr": "Madrasat al Kindi"}}, {"type": "node", "id": 2486183728, "lat": 32.4371418, "lon": 44.7566418, "tags": {"alt_name": "\u0645\u062f\u0631\u0633\u0629 \u0627\u0644\u0643\u062f\u0633\u064a", "amenity": "school", "int_name": "Madrasat al Kuds\u012b, \u0645\u062f\u0631\u0633\u0629 \u0627\u0644\u0643\u062f\u0633\u064a, Madrasat al Kudsi, \u0645\u062f\u0631\u0633\u0629 \u0627\u0644\u0643\u062f\u0633\u064a", "name": "\u0645\u062f\u0631\u0633\u0629 \u0627\u0644\u0643\u062f\u0633\u064a", "name:ar": "\u0645\u062f\u0631\u0633\u0629 \u0627\u0644\u0643\u062f\u0633\u064a", "name:ar1": "\u0645\u062f\u0631\u0633\u0629 \u0627\u0644\u0643\u062f\u0633\u064a", "name:de": "Madrasat al Kudsi", "name:en": "Madrasat al Kudsi", "name:fr": "Madrasat al Kudsi"}}, {"type": "node", "id": 2486183741, "lat": 32.480481, "lon": 44.740485, "tags": {"alt_name": "\u0645\u062f\u0631\u0633\u0629 \u0627\u0644\u0645\u062c\u062f", "amenity": "school", "int_name": "Madrasat al Majd, \u0645\u062f\u0631\u0633\u0629 \u0627\u0644\u0645\u062c\u062f, Madrasat al Majd, \u0645\u062f\u0631\u0633\u0629 \u0627\u0644\u0645\u062c\u062f", "name": "\u0645\u062f\u0631\u0633\u0629 \u0627\u0644\u0645\u062c\u062f", "name:ar": "\u0645\u062f\u0631\u0633\u0629 \u0627\u0644\u0645\u062c\u062f", "name:ar1": "\u0645\u062f\u0631\u0633\u0629 \u0627\u0644\u0645\u062c\u062f", "name:de": "Madrasat al Majd", "name:en": "Madrasat al Majd", "name:fr": "Madrasat al Majd"}}, {"type": "node", "id": 2486183748, "lat": 32.489252, "lon": 44.641791, "tags": {"alt_name": "\u0645\u062f\u0631\u0633\u0629 \u0627\u0644\u0645\u0644\u0627", "amenity": "school", "int_name": "Madrasat al Mull\u0101, \u0645\u062f\u0631\u0633\u0629 \u0627\u0644\u0645\u0644\u0627, Madrasat al Mulla, \u0645\u062f\u0631\u0633\u0629 \u0627\u0644\u0645\u0644\u0627", "name": "\u0645\u062f\u0631\u0633\u0629 \u0627\u0644\u0645\u0644\u0627", "name:ar": "\u0645\u062f\u0631\u0633\u0629 \u0627\u0644\u0645\u0644\u0627", "name:ar1": "\u0645\u062f\u0631\u0633\u0629 \u0627\u0644\u0645\u0644\u0627", "name:de": "Madrasat al Mulla", "name:en": "Madrasat al Mulla", "name:fr": "Madrasat al Mulla"}}, {"type": "node", "id": 2486183756, "lat": 32.433566, "lon": 44.657514, "tags": {"alt_name": "\u0645\u062f\u0631\u0633\u0629 \u0627\u0644\u0646\u0627\u0628\u063a\u0629 \u0627\u0644\u0645\u062e\u062a\u0644\u0637\u0629", "amenity": "school", "int_name": "Madrasat an N\u0101bighah al Mukhtala\u0163ah, \u0645\u062f\u0631\u0633\u0629 \u0627\u0644\u0646\u0627\u0628\u063a\u0629 \u0627\u0644\u0645\u062e\u062a\u0644\u0637\u0629, Madrasat an Nabighah al Mukhtalatah, \u0645\u062f\u0631\u0633\u0629 \u0627\u0644\u0646\u0627\u0628\u063a\u0629 \u0627\u0644\u0645\u062e\u062a\u0644\u0637\u0629", "name": "\u0645\u062f\u0631\u0633\u0629 \u0627\u0644\u0646\u0627\u0628\u063a\u0629 \u0627\u0644\u0645\u062e\u062a\u0644\u0637\u0629", "name:ar": "\u0645\u062f\u0631\u0633\u0629 \u0627\u0644\u0646\u0627\u0628\u063a\u0629 \u0627\u0644\u0645\u062e\u062a\u0644\u0637\u0629", "name:ar1": "\u0645\u062f\u0631\u0633\u0629 \u0627\u0644\u0646\u0627\u0628\u063a\u0629 \u0627\u0644\u0645\u062e\u062a\u0644\u0637\u0629", "name:de": "Madrasat an Nabighah al Mukhtalatah", "name:en": "Madrasat an Nabighah al Mukhtalatah", "name:fr": "Madrasat an Nabighah al Mukhtalatah"}}, {"type": "node", "id": 2486183757, "lat": 32.309617, "lon": 44.617192, "tags": {"alt_name": "\u0645\u062f\u0631\u0633\u0629 \u0627\u0644\u0633\u0644\u0637", "amenity": "school", "int_name": "Madrasat as Sal\u0163, \u0645\u062f\u0631\u0633\u0629 \u0627\u0644\u0633\u0644\u0637, Madrasat as Salt, \u0645\u062f\u0631\u0633\u0629 \u0627\u0644\u0633\u0644\u0637", "name": "\u0645\u062f\u0631\u0633\u0629 \u0627\u0644\u0633\u0644\u0637", "name:ar": "\u0645\u062f\u0631\u0633\u0629 \u0627\u0644\u0633\u0644\u0637", "name:ar1": "\u0645\u062f\u0631\u0633\u0629 \u0627\u0644\u0633\u0644\u0637", "name:de": "Madrasat as Salt", "name:en": "Madrasat as Salt", "name:fr": "Madrasat as Salt"}}, {"type": "node", "id": 2486183758, "lat": 32.479409, "lon": 44.574567, "tags": {"alt_name": "\u0645\u062f\u0631\u0633\u0629 \u0627\u0644\u0634\u0627\u062e\u0631", "amenity": "school", "int_name": "Madrasat ash Sh\u0101khir, \u0645\u062f\u0631\u0633\u0629 \u0627\u0644\u0634\u0627\u062e\u0631, Madrasat ash Shakhir, \u0645\u062f\u0631\u0633\u0629 \u0627\u0644\u0634\u0627\u062e\u0631", "name": "\u0645\u062f\u0631\u0633\u0629 \u0627\u0644\u0634\u0627\u062e\u0631", "name:ar": "\u0645\u062f\u0631\u0633\u0629 \u0627\u0644\u0634\u0627\u062e\u0631", "name:ar1": "\u0645\u062f\u0631\u0633\u0629 \u0627\u0644\u0634\u0627\u062e\u0631", "name:de": "Madrasat ash Shakhir", "name:en": "Madrasat ash Shakhir", "name:fr": "Madrasat ash Shakhir"}}, {"type": "node", "id": 2486183759, "lat": 32.464513, "lon": 44.777871, "tags": {"alt_name": "\u0645\u062f\u0631\u0633\u0629 \u0627\u0644\u0634\u0639\u0644\u0629", "amenity": "school", "int_name": "Madrasat ash Shulah, \u0645\u062f\u0631\u0633\u0629 \u0627\u0644\u0634\u0639\u0644\u0629, Madrasat ash Shulah, \u0645\u062f\u0631\u0633\u0629 \u0627\u0644\u0634\u0639\u0644\u0629", "name": "\u0645\u062f\u0631\u0633\u0629 \u0627\u0644\u0634\u0639\u0644\u0629", "name:ar": "\u0645\u062f\u0631\u0633\u0629 \u0627\u0644\u0634\u0639\u0644\u0629", "name:ar1": "\u0645\u062f\u0631\u0633\u0629 \u0627\u0644\u0634\u0639\u0644\u0629", "name:de": "Madrasat ash Shulah", "name:en": "Madrasat ash Shulah", "name:fr": "Madrasat ash Shulah"}}, {"type": "node", "id": 2486189751, "lat": 32.214395, "lon": 44.657265, "tags": {"alt_name": "\u0645\u062f\u0631\u0633\u0629 \u0627\u0644\u0623\u062d\u0631\u0627\u0631", "amenity": "school", "int_name": "Madrasat al A\u1e29r\u0101r, \u0645\u062f\u0631\u0633\u0629 \u0627\u0644\u0627\u062d\u0631\u0627\u0631, Madrasat al Ahrar, \u0645\u062f\u0631\u0633\u0629 \u0627\u0644\u0627\u062d\u0631\u0627\u0631", "name": "\u0645\u062f\u0631\u0633\u0629 \u0627\u0644\u0623\u062d\u0631\u0627\u0631", "name:ar": "\u0645\u062f\u0631\u0633\u0629 \u0627\u0644\u0623\u062d\u0631\u0627\u0631", "name:ar1": "\u0645\u062f\u0631\u0633\u0629 \u0627\u0644\u0623\u062d\u0631\u0627\u0631", "name:de": "Madrasat al Ahrar", "name:en": "Madrasat al Ahrar", "name:fr": "Madrasat al Ahrar"}}, {"type": "node", "id": 2486192331, "lat": 32.236631, "lon": 44.596785, "tags": {"addr:street": "\u0634\u0627\u0631\u0639 \u0627\u0644\u062f\u0627\u0648\u0631\u064a\u0647", "alt_name": "\u0645\u062f\u0631\u0633\u0629 \u0623\u0628\u0648 \u0637\u0631\u0641\u0629", "amenity": "school", "int_name": "\u0645\u062f\u0631\u0633\u0629 \u0627\u0644\u0633\u0648\u0627\u0642\u064a", "name": "\u0645\u062f\u0631\u0633\u0629 \u0623\u0628\u0648 \u0637\u0631\u0641\u0629", "name:ar": "\u0645\u062f\u0631\u0633\u0629 \u0627\u0644\u0633\u0648\u0627\u0642\u064a", "name:ar1": "\u0645\u062f\u0631\u0633\u0629 \u0623\u0628\u0648 \u0637\u0631\u0641\u0629", "name:de": "\u0645\u062f\u0631\u0633\u0629 \u0627\u0644\u0633\u0648\u0627\u0642\u064a", "name:en": "\u0645\u062f\u0631\u0633\u0629 \u0627\u0644\u0633\u0648\u0627\u0642\u064a", "name:fr": "\u0645\u062f\u0631\u0633\u0629 \u0627\u0644\u0633\u0648\u0627\u0642\u064a", "name:ku": "\u0645\u062f\u0631\u0633\u0629 \u0627\u0644\u0633\u0648\u0627\u0642\u064a"}}, {"type": "node", "id": 2486192334, "lat": 32.247124, "lon": 44.687106, "tags": {"alt_name": "\u0645\u062f\u0631\u0633\u0629 \u0627\u0644\u0645\u0631\u062c\u0627\u0646\u064a\u0629", "amenity": "school", "int_name": "Madrasat al Mirj\u0101n\u012byah, \u0645\u062f\u0631\u0633\u0629 \u0627\u0644\u0645\u0631\u062c\u0627\u0646\u064a\u0629, Madrasat al Mirjaniyah, \u0645\u062f\u0631\u0633\u0629 \u0627\u0644\u0645\u0631\u062c\u0627\u0646\u064a\u0629", "name": "\u0645\u062f\u0631\u0633\u0629 \u0627\u0644\u0645\u0631\u062c\u0627\u0646\u064a\u0629", "name:ar": "\u0645\u062f\u0631\u0633\u0629 \u0627\u0644\u0645\u0631\u062c\u0627\u0646\u064a\u0629", "name:ar1": "\u0645\u062f\u0631\u0633\u0629 \u0627\u0644\u0645\u0631\u062c\u0627\u0646\u064a\u0629", "name:de": "Madrasat al Mirjaniyah", "name:en": "Madrasat al Mirjaniyah", "name:fr": "Madrasat al Mirjaniyah"}}, {"type": "node", "id": 2486192335, "lat": 32.193712, "lon": 44.611865, "tags": {"alt_name": "\u0645\u062f\u0631\u0633\u0629 \u0627\u0644\u0648\u0641\u0627\u0621", "amenity": "school", "int_name": "Madrasat al Wafa, \u0645\u062f\u0631\u0633\u0629 \u0627\u0644\u0648\u0641\u0627\u0621, Madrasat al Wafa, \u0645\u062f\u0631\u0633\u0629 \u0627\u0644\u0648\u0641\u0627\u0621", "name": "\u0645\u062f\u0631\u0633\u0629 \u0627\u0644\u0648\u0641\u0627\u0621", "name:ar": "\u0645\u062f\u0631\u0633\u0629 \u0627\u0644\u0648\u0641\u0627\u0621", "name:ar1": "\u0645\u062f\u0631\u0633\u0629 \u0627\u0644\u0648\u0641\u0627\u0621", "name:de": "Madrasat al Wafa", "name:en": "Madrasat al Wafa", "name:fr": "Madrasat al Wafa"}}, {"type": "node", "id": 4223799590, "lat": 32.2996817, "lon": 44.7606602, "tags": {"addr:street": "\u0642\u0631\u064a\u0629 \u0627\u0644 \u062d\u0633\u0646", "amenity": "school", "name": "\u0645\u062f\u0631\u0633\u0629 \u0642\u0631\u064a\u0629 \u0627\u0644 \u062d\u0633\u0646"}}, {"type": "node", "id": 4545221690, "lat": 32.2761647, "lon": 44.6910946, "tags": {"addr:street": "\u062d\u0644\u0629 -\u062f\u064a\u0648\u0627\u0646\u064a\u0629", "amenity": "school", "name": "\u0645\u062a\u0648\u0633\u0637\u0629 \u0627\u0644\u0634\u064a\u062e \u0627\u0644\u0645\u0641\u064a\u062f", "name:ku": "\u0645\u062a\u0648\u0633\u0637\u0629 \u0627\u0644\u0634\u064a\u062e \u0627\u0644\u0645\u0641\u064a\u062f"}}, {"type": "node", "id": 4571879093, "lat": 32.3489436, "lon": 44.6618544, "tags": {"amenity": "school", "name": "\u062c\u0627\u0645\u0639\u0629 \u0627\u0644\u0642\u0627\u0633\u0645 \u0627\u0644\u062e\u0636\u0631\u0627\u0621", "name:ar": "\u062c\u0627\u0645\u0639\u0629 \u0627\u0644\u0642\u0627\u0633\u0645 \u0627\u0644\u062e\u0636\u0631\u0627\u0621", "name:en": "Al-Qassim university"}}, {"type": "node", "id": 4707533189, "lat": 32.4806504, "lon": 44.6807744, "tags": {"amenity": "school"}}, {"type": "node", "id": 4746172330, "lat": 32.3682955, "lon": 44.6529672, "tags": {"amenity": "school", "name": "\u0645\u062f\u0631\u0633\u0629 \u0627\u0628\u064a \u062a\u0645\u0627\u0645", "name:ar": "\u0645\u062f\u0631\u0633\u0629 \u0627\u0628\u064a \u062a\u0645\u0627\u0645"}}, {"type": "node", "id": 4746172331, "lat": 32.3651041, "lon": 44.6502526, "tags": {"amenity": "school", "name": "\u0645\u062f\u0631\u0633\u0629 \u0631\u0627\u0645 \u0627\u0644\u0644\u0647", "name:ar": "\u0645\u062f\u0631\u0633\u0629 \u0631\u0627\u0645 \u0627\u0644\u0644\u0647"}}, {"type": "node", "id": 4746172332, "lat": 32.3653245, "lon": 44.6511852, "tags": {"amenity": "school", "name": "\u062b\u0627\u0646\u0648\u064a\u0629 \u0627\u0644\u0647\u0627\u0634\u0645\u064a\u0629 \u0644\u0644\u0628\u0646\u064a\u0646", "name:ar": "\u062b\u0627\u0646\u0648\u064a\u0629 \u0627\u0644\u0647\u0627\u0634\u0645\u064a\u0629 \u0644\u0644\u0628\u0646\u064a\u0646"}}, {"type": "node", "id": 4746174927, "lat": 32.3680147, "lon": 44.6527945, "tags": {"addr:street": "\u0634\u0627\u0631\u0639 \u0627\u0644\u0627\u0645\u0627\u0645 \u0632\u064a\u0646 \u0627\u0644\u0639\u0627\u0628\u062f\u064a\u0646 \u0639", "amenity": "school", "name": "\u062b\u0627\u0646\u0648\u064a\u0629 \u0628\u0644\u0642\u064a\u0633 \u0644\u0644\u0628\u0646\u0627\u062a", "name:ar": "\u062b\u0627\u0646\u0648\u064a\u0629 \u0628\u0644\u0642\u064a\u0633 \u0644\u0644\u0628\u0646\u0627\u062a"}}, {"type": "node", "id": 5471624529, "lat": 32.3225708, "lon": 44.9226108, "tags": {"amenity": "school", "name": "\u062b\u0627\u0646\u0648\u064a\u0629 \u0627\u0644\u0627\u0628\u0631\u0627\u0631"}}, {"type": "node", "id": 5484494921, "lat": 32.3259085, "lon": 44.9181124, "tags": {"amenity": "school", "name": "\u062b\u0627\u0646\u0648\u064a\u0629 \u0627\u0644\u0634\u0648\u0645\u0644\u064a"}}, {"type": "node", "id": 5528765622, "lat": 32.3228222, "lon": 44.9221414, "tags": {"amenity": "school", "name": "\u0645\u062a\u0648\u0633\u0637\u0629 \u0627\u0644\u0627\u0628\u0631\u0627\u0631"}}, {"type": "node", "id": 5529032322, "lat": 32.3235785, "lon": 44.9190847, "tags": {"amenity": "school", "name": "\u0645\u062f\u0631\u0633\u0629 \u0646\u064a\u0646\u0648\u0649 \u0627\u0644\u0627\u0628\u062a\u062f\u0627\u0626\u064a\u0647"}}, {"type": "node", "id": 5529032323, "lat": 32.3217213, "lon": 44.9176937, "tags": {"amenity": "school", "name": "\u0645\u062f\u0631\u0633\u0629 \u0627\u0644\u0623\u0645\u0644 \u0627\u0644\u0627\u0628\u062a\u062f\u0627\u0626\u064a\u0647"}}, {"type": "node", "id": 5529053421, "lat": 32.3241536, "lon": 44.9100495, "tags": {"amenity": "school", "name": "\u0645\u062f\u0631\u0633\u0629 \u0639\u0627\u0643\u0648\u0644"}}, {"type": "node", "id": 5530069621, "lat": 32.3259013, "lon": 44.9182892, "tags": {"amenity": "school", "name": "\u062b\u0627\u0646\u0648\u064a\u0629 \u0627\u0644\u0634\u0648\u0645\u0644\u064a"}}, {"type": "node", "id": 5610290321, "lat": 32.2726468, "lon": 44.7797113, "tags": {"amenity": "school", "name": "\u062b\u0627\u0646\u0648\u064a\u0629 \u0627\u0644\u0635\u0627\u062f\u0642"}}, {"type": "node", "id": 5610290322, "lat": 32.3257538, "lon": 44.9174277, "tags": {"amenity": "school", "name": "\u0645\u062f\u0631\u0633\u0629 \u0627\u0644\u0646\u0647\u0648\u0636"}}, {"type": "node", "id": 5610302921, "lat": 32.3462769, "lon": 44.9773975, "tags": {"amenity": "school", "name": "\u0645\u062f\u0631\u0633\u0629 \u0627\u0644\u0628\u064a\u0627\u062f\u0631 \u062c\u0662", "name:ar": "\u0644\u0627\u0634\u064a\u0621"}}, {"type": "node", "id": 5610302922, "lat": 32.3982108, "lon": 45.0518846, "tags": {"amenity": "school", "name": "\u0627\u0644\u0628\u064a\u0627\u062f\u0631 \u062c\u0661", "name:ar": "\u0644\u0627\u0634\u064a\u0621"}}, {"type": "node", "id": 5610303422, "lat": 32.2168645, "lon": 44.8703173, "tags": {"amenity": "school", "name": "\u0645\u062f\u0631\u0633\u0629 \u0627\u0644\u0646\u062e\u064a\u0644 \u0627\u0644\u0627\u0628\u062a\u062f\u0627\u0626\u064a\u0629\u0627\u0644\u0639\u0648\u064a\u062f\u064a\u0646"}}, {"type": "node", "id": 5610306122, "lat": 32.4318265, "lon": 45.0659359, "tags": {"amenity": "school", "name": "\u0645\u062f\u0631\u0633\u0629 \u0627\u0644\u062e\u0644\u064a\u062c \u0627\u0644\u0639\u0631\u0628\u064a", "name:ku": "\u0637\u0631\u064a\u0645\u0634"}}, {"type": "node", "id": 5610319122, "lat": 32.362273, "lon": 44.7504219, "tags": {"amenity": "school", "name": "\u0645\u062f\u0631\u0633\u0629 \u0628\u0646\u063a\u0627\u0632\u064a", "name:ku": "\u0627\u0644\u0632\u0628\u0627\u0631"}}, {"type": "node", "id": 5610319221, "lat": 32.3484203, "lon": 44.7343529, "tags": {"amenity": "school", "name": "\u0645\u062f\u0631\u0633\u0629 \u0627\u0644\u0631\u062d\u0645\u0627\u0646", "name:ku": "\u062e\u064a\u0643\u0627\u0646"}}, {"type": "node", "id": 5610330822, "lat": 32.4279946, "lon": 45.019077, "tags": {"amenity": "school", "name": "\u0645\u062f\u0631\u0633\u0629 \u0627\u0644\u0623\u0645\u0629 \u0627\u0644\u0627\u0628\u062a\u062f\u0627\u0626\u064a\u0629", "name:ku": "\u0637\u0631\u064a\u0645\u0634"}}, {"type": "node", "id": 5610339521, "lat": 32.2679684, "lon": 44.8439756, "tags": {"amenity": "school", "name": "\u0645\u062f\u0631\u0633\u0629 \u0627\u0644\u063a\u062f\u064a\u0631", "name:ku": "\u0627\u0644\u0639\u0648\u064a\u062f\u064a\u0646"}}, {"type": "node", "id": 5860801786, "lat": 32.29496, "lon": 44.7006636, "tags": {"amenity": "school", "name": "\u0645\u062f\u0631\u0633\u0629 \u062c\u0628\u0644 \u0639\u0627\u0645\u0644"}}, {"type": "node", "id": 5907960788, "lat": 32.2987099, "lon": 44.6945353, "tags": {"amenity": "school", "name": "\u0645\u062f\u0631\u0633\u0629 \u0627\u0644\u0647\u0627\u062f\u064a \u0627\u0644\u0627\u0628\u062a\u062f\u0627\u0626\u064a\u0629"}}, {"type": "node", "id": 6031747285, "lat": 32.3987653, "lon": 44.6689497, "tags": {"amenity": "school", "name": "\u0627\u0639\u062f\u0627\u062f\u064a\u0647 \u0627\u0644\u0645\u062f\u062d\u062a\u064a\u0647 \u0644\u0644\u0628\u0646\u0627\u062a"}}, {"type": "node", "id": 6032213388, "lat": 32.1916638, "lon": 44.7159217, "tags": {"amenity": "school", "name": "\u0645\u062f\u0631\u0633\u0629 \u0627\u0644\u0634\u0647\u064a\u062f \u0627\u0644\u0633\u0628\u0639\u0627\u0648\u064a \u0627\u0644\u0627\u0628\u062a\u062f\u0627\u0626\u064a\u0629"}}, {"type": "node", "id": 6131148986, "lat": 32.3058421, "lon": 44.6867057, "tags": {"amenity": "school", "name": "\u0645\u062f\u0631\u0633\u0629 \u0627\u0644\u0627\u0646\u062f\u0644\u0633"}}, {"type": "node", "id": 6359513487, "lat": 32.3003546, "lon": 44.6841293, "tags": {"addr:housenumber": "90/10", "addr:postcode": "51013", "addr:street": "\u0634\u0627\u0631\u0639 \u0627\u0644\u0623\u0637\u0628\u0627\u0621", "amenity": "school", "name": "\u0645\u062f\u0631\u0633\u0629 \u0627\u0644\u0623\u0645\u0627\u0646\u064a \u0627\u0644\u0627\u0628\u062a\u062f\u0627\u0626\u064a\u0629"}}, {"type": "node", "id": 6420237887, "lat": 32.2976128, "lon": 44.6952378, "tags": {"amenity": "school", "name": "\u0645\u062f\u0631\u0633\u0629 \u0627\u0644\u0647\u0627\u062f\u064a"}}, {"type": "node", "id": 6610473785, "lat": 32.2542216, "lon": 44.6502575, "tags": {"addr:street": "\u0634\u0627\u0631\u0639 \u0627\u0644\u062f\u0644\u064a", "amenity": "school", "email": "maythamabbas17@gmail.com", "name": "\u0645\u062f\u0631\u0633\u0629 \u0627\u0644\u062f\u0648\u062d\u0647", "name:en": "Al doha school"}}, {"type": "node", "id": 6807272788, "lat": 32.39884, "lon": 44.6493539, "tags": {"amenity": "school", "name": "\u0627\u0639\u062f\u0627\u062f\u064a\u0629 \u0627\u0644\u062d\u0645\u0632\u0629 \u0627\u0644\u0632\u0631\u0627\u0639\u064a\u0629"}}, {"type": "node", "id": 7010955885, "lat": 32.2974116, "lon": 44.8664126, "tags": {"amenity": "school", "name": "\u062b\u0627\u0646\u0648\u064a\u0629 \u0634\u0647\u062f\u0627\u0621 \u0627\u0644\u0634\u0648\u0645\u0644\u064a \u0627\u0644\u0645\u062e\u062a\u0644\u0637\u0629"}}, {"type": "node", "id": 7130556385, "lat": 32.1423767, "lon": 44.9295988, "tags": {"amenity": "school", "name": "\u0645\u062f\u0631\u0633\u0629 \u0627\u0644\u0628\u0631\u0627\u0639\u0645"}}, {"type": "node", "id": 7130556386, "lat": 32.1394254, "lon": 44.9304533, "tags": {"amenity": "school", "name": "\u0645\u062f\u0631\u0633\u0629 \u0661\u0664 \u062a\u0645\u0648\u0632"}}, {"type": "node", "id": 7362097931, "lat": 32.1454868, "lon": 44.9973216, "tags": {"addr:city": "\u0646\u0627\u062d\u064a\u0629 \u0633\u0648\u0645\u0631", "amenity": "school", "name": "\u0645\u062f\u0631\u0633\u0629 \u0627\u0644\u0627\u0647\u0631\u0627\u0645 \u0627\u0644\u0627\u0628\u062a\u062f\u0627\u0626\u064a\u0629 \u0644\u0644\u0628\u0646\u064a\u0646", "religion": "muslim"}}, {"type": "node", "id": 8230692917, "lat": 32.2758235, "lon": 45.061296, "tags": {"amenity": "school", "name": "\u0645\u062f\u0631\u0633\u0629 \u0627\u0644\u0648\u0644\u0627\u0621"}}, {"type": "node", "id": 9422605170, "lat": 32.3052328, "lon": 44.6507669, "tags": {"amenity": "school", "name": "\u0645\u062f\u0631\u0633\u0629 \u0627\u0644\u0634\u0647\u064a\u062f \u0641\u062f\u0639\u0645"}}, {"type": "node", "id": 10195151517, "lat": 32.2953311, "lon": 44.7007529, "tags": {"amenity": "school", "name": "\u062c\u0628\u0644 \u0639\u0627\u0645\u0644 \u0648\u062e\u0627\u062a\u0645 \u0627\u0644\u0623\u0646\u0628\u064a\u0627\u0621"}}, {"type": "node", "id": 10195151619, "lat": 32.2951128, "lon": 44.7010682, "tags": {"amenity": "school", "name": "\u062c\u0628\u0644 \u0639\u0627\u0645\u0644 \u0648\u062e\u0627\u062a\u0645 \u0627\u0644\u0623\u0646\u0628\u064a\u0627\u0621"}}, {"type": "node", "id": 10556324909, "lat": 32.3250431, "lon": 44.5815656, "tags": {"amenity": "school", "name": "\u0627\u0644\u0634\u064a\u062e \u0631\u062d\u0645\u0627\u0646 \u0627\u0628\u0648 \u0643\u0631\u0627\u0631 \u0627\u0644 \u0634\u063a\u0628"}}, {"type": "node", "id": 10584324305, "lat": 32.2979131, "lon": 44.6990581, "tags": {"amenity": "school", "name": "\u062b\u0627\u0646\u0648\u064a\u0629 \u062e\u0648\u0644\u0647 \u0628\u0646\u062a \u0627\u0644\u062d\u0633\u064a\u0646 \u0644\u0644\u0628\u0646\u0627\u062a"}}, {"type": "node", "id": 10584327905, "lat": 32.2969509, "lon": 44.7000475, "tags": {"amenity": "school", "name": "\u0645\u062f\u0631\u0633\u0647 \u0639\u0637\u0627\u0621 \u0627\u0644\u0642\u0627\u0633\u0645 \u0627\u0644\u0623\u0647\u0644\u064a\u0629"}}, {"type": "node", "id": 11377276869, "lat": 32.3423022, "lon": 45.0176343, "tags": {"amenity": "school", "name": "\u0645\u062f\u0631\u0633\u0629 \u0627\u0644\u0648\u0644\u0627\u0621 \u0627\u0644\u0627\u0628\u062a\u062f\u0627\u0626\u064a\u0629"}}]}