{"version": 0.6, "generator": "Overpass API 0.7.61.5 4133829e", "osm3s": {"timestamp_osm_base": "2024-03-05T15:10:59Z", "copyright": "The data included in this document is from www.openstreetmap.org. The data is made available under ODbL."}, "elements": [{"type": "node", "id": 13704765, "lat": 55.9542448, "lon": 12.5304611, "tags": {"name": "Sletten", "place": "village", "wikidata": "Q12336064", "wikipedia": "da:Sletten (Humleb\u00e6k)"}}, {"type": "node", "id": 13704769, "lat": 55.6378428, "lon": 12.6379955, "tags": {"name": "Kastrup", "name:de": "Kastrup", "place": "town", "population": "43010", "wikidata": "Q1420866", "wikipedia": "da:Kastrup"}}, {"type": "node", "id": 13707878, "lat": 55.6867243, "lon": 12.5700724, "tags": {"admin_level": "2", "alt_name:fi": "K\u00f6pis", "alt_name:gl": "Copenhague", "capital": "yes", "country": "DK", "ele": "24", "name": "K\u00f8benhavn", "name:am": "\u12ae\u1350\u1295\u1200\u1308\u1295", "name:an": "Copenaguen", "name:ang": "C\u0113apmannh\u00e6fen", "name:ar": "\u0643\u0648\u0628\u0646\u0647\u0627\u063a\u0646", "name:arc": "\u0729\u0718\u0726\u0722\u0717\u0710\u0713\u0722", "name:arz": "\u0643\u0648\u0628\u064a\u0646\u0647\u0627\u062c\u064a\u0646", "name:ast": "Conpen\u1e25ague", "name:bat-smg": "Kuopenhaga", "name:be": "\u041a\u0430\u043f\u0435\u043d\u0433\u0430\u0433\u0435\u043d", "name:be-tarask": "\u041a\u0430\u043f\u044d\u043d\u0433\u0430\u0433\u0435\u043d", "name:bg": "\u041a\u043e\u043f\u0435\u043d\u0445\u0430\u0433\u0435\u043d", "name:bn": "\u0995\u09cb\u09aa\u09c7\u09a8\u09b9\u09c7\u0997\u09c7\u09a8", "name:bo": "\u0f41\u0f7c\u0f0b\u0f55\u0f7a\u0f53\u0f0b\u0f67\u0f0b\u0f40\u0f7a\u0f53\u0f0d", "name:br": "Kopenhagen", "name:bs": "Kopenhagen", "name:ca": "Copenhaguen", "name:ckb": "\u06a9\u06c6\u067e\u0646\u06be\u0627\u06af\u0646", "name:co": "Copenaghen", "name:cs": "Koda\u0148", "name:csb": "K\u00f2penhaga", "name:cu": "\u041a\u043e\u0431\u0454\u043d\u0445\u0430\u0432\u043d\u044a", "name:cv": "\u041a\u043e\u043f\u0435\u043d\u0433\u0430\u0433\u0435\u043d", "name:cy": "Copenhagen", "name:da": "K\u00f8benhavn", "name:de": "Kopenhagen", "name:diq": "Kopenhag", "name:ee": "Copenhagen", "name:el": "\u039a\u03bf\u03c0\u03b5\u03b3\u03c7\u03ac\u03b3\u03b7", "name:en": "Copenhagen", "name:eo": "Kopenhago", "name:es": "Copenhague", "name:et": "Kopenhaagen", "name:eu": "Kopenhage", "name:ext": "Copenagui", "name:fa": "\u06a9\u067e\u0646\u0647\u0627\u06af", "name:fi": "K\u00f6\u00f6penhamina", "name:fo": "Keypmannahavn", "name:fr": "Copenhague", "name:frr": "Kopenhuuwen", "name:fy": "Kopenhagen", "name:ga": "C\u00f3banh\u00e1van", "name:gd": "Copenhagen", "name:gl": "Copenhaguen", "name:gv": "K\u00f8benhavn", "name:he": "\u05e7\u05d5\u05e4\u05e0\u05d4\u05d2\u05df", "name:hi": "\u0915\u094b\u092a\u0928\u0939\u0947\u0917\u0928", "name:hif": "Copenhagen", "name:hr": "Kopenhagen", "name:ht": "Kop\u00e8nag", "name:hu": "Koppenh\u00e1ga", "name:hy": "\u053f\u0578\u057a\u0565\u0576\u0570\u0561\u0563\u0565\u0576", "name:ia": "Copenhagen", "name:ilo": "Copenhagen", "name:io": "K\u00f8benhavn", "name:is": "Kaupmannah\u00f6fn", "name:it": "Copenaghen", "name:ja": "\u30b3\u30da\u30f3\u30cf\u30fc\u30b2\u30f3", "name:ka": "\u10d9\u10dd\u10de\u10d4\u10dc\u10f0\u10d0\u10d2\u10d4\u10dc\u10d8", "name:kk": "\u041a\u043e\u043f\u0435\u043d\u0433\u0430\u0433\u0435\u043d", "name:kl": "K\u00f8benhavn", "name:kn": "\u0c95\u0ccb\u0caa\u0ca8\u0ccd\u0cb9\u0cbe\u0c97\u0cc6\u0ca8\u0ccd", "name:ko": "\ucf54\ud39c\ud558\uac90", "name:ku": "Kopenhag", "name:kv": "\u041a\u043e\u043f\u0435\u043d\u0433\u0430\u0433\u0435\u043d", "name:kw": "Kopenhavn", "name:ky": "\u041a\u043e\u043f\u0435\u043d\u0433\u0430\u0433\u0435\u043d", "name:la": "Hafnia", "name:lb": "Kopenhagen", "name:lij": "Copenaghen", "name:lmo": "Cupenaghen", "name:lt": "Kopenhaga", "name:ltg": "Kopenhaga", "name:lv": "Kopenh\u0101gena", "name:mg": "Kaopenagy", "name:mi": "Copenhagen", "name:mk": "\u041a\u043e\u043f\u0435\u043d\u0445\u0430\u0433\u0435\u043d", "name:ml": "\u0d15\u0d4b\u0d2a\u0d4d\u0d2a\u0d7b\u0d39\u0d47\u0d17\u0d7b", "name:mr": "\u0915\u094b\u092a\u0928\u0939\u0947\u0917\u0928", "name:mt": "Kopen\u0127agen", "name:my": "\u1000\u102d\u102f\u1015\u1004\u103a\u101f\u1031\u1002\u1004\u103a\u1019\u103c\u102d\u102f\u1037", "name:nah": "Copenague", "name:nan": "Copenhagen", "name:nap": "Copenaghen", "name:nds": "Kopenhagen", "name:nl": "Kopenhagen", "name:nn": "K\u00f8benhavn", "name:no": "K\u00f8benhavn", "name:nov": "K\u00f8benhavn", "name:oc": "Copenaga", "name:os": "\u041a\u043e\u043f\u0435\u043d\u0433\u0430\u0433\u0435\u043d", "name:pl": "Kopenhaga", "name:pms": "Copen\u00e0ghen", "name:pnb": "\u06a9\u0648\u067e\u0646 \u06c1\u06cc\u06af\u0646", "name:pt": "Copenhaga", "name:qu": "K\u00f8benhavn", "name:ro": "Copenhaga", "name:roa-rup": "Copenhagen", "name:ru": "\u041a\u043e\u043f\u0435\u043d\u0433\u0430\u0433\u0435\u043d", "name:sa": "\u0915\u094b\u092a\u0928\u0939\u093e\u0917\u0928", "name:sah": "\u041a\u043e\u043f\u0435\u043d\u04bb\u0430\u0433\u0435\u043d", "name:sc": "Copenaghen", "name:scn": "Copenaghen", "name:sco": "Copenhagen", "name:se": "K\u00f8benh\u00e1pman", "name:simple": "Copenhagen", "name:sk": "Koda\u0148", "name:sl": "K\u00f8benhavn", "name:so": "Kobanhaygan", "name:sr": "\u041a\u043e\u043f\u0435\u043d\u0445\u0430\u0433\u0435\u043d", "name:st": "Copenhagen", "name:sv": "K\u00f6penhamn", "name:szl": "Kopynhaga", "name:ta": "\u0b95\u0bcb\u0baa\u0ba9\u0bbe\u0bb5\u0ba9\u0bcd", "name:te": "\u0c15\u0c4b\u0c2a\u0c46\u0c28\u0c4d\u200c\u0c39\u0c3e\u0c17\u0c28\u0c4d", "name:tg": "\u041a\u043e\u043f\u0435\u043d\u04b3\u0430\u0433\u0435\u043d", "name:th": "\u0e42\u0e04\u0e40\u0e1b\u0e19\u0e40\u0e2e\u0e40\u0e01\u0e19", "name:tl": "Copenhagen", "name:tr": "Kopenhag", "name:tt": "\u041a\u043e\u043f\u0435\u043d\u0433\u0430\u0433\u0435\u043d", "name:tzl": "Cj\u00f6vnahaun", "name:udm": "\u041a\u043e\u043f\u0435\u043d\u0433\u0430\u0433\u0435\u043d", "name:ug": "Kop\u00e9nhag\u00e9n", "name:uk": "\u041a\u043e\u043f\u0435\u043d\u0433\u0430\u0433\u0435\u043d", "name:ur": "\u06a9\u0648\u067e\u0646 \u06c1\u06cc\u06af\u0646", "name:vec": "Copenaghen", "name:vep": "Kopengagen", "name:vi": "Copenhagen", "name:vo": "K\u00f8benhavn", "name:vro": "Kop\u00f5nhaag\u00f5n", "name:war": "Copenhagen", "name:xmf": "\u10d9\u10dd\u10de\u10d4\u10dc\u10f0\u10d0\u10d2\u10d4\u10dc\u10d8", "name:yi": "\u05e7\u05d0\u05e4\u05e0\u05d4\u05d0\u05d2\u05df", "name:yo": "Copenhagen", "name:yue": "\u54e5\u672c\u54c8\u6839", "name:zh": "\u54e5\u672c\u54c8\u6839", "place": "city", "population": "613288", "population:date": "2018-01-01", "short_name": "cph;kbh", "source:name:br": "ofis publik ar brezhoneg", "source:population": "http://www.statistikbanken.dk/BY1", "wikidata": "Q1748", "wikipedia": "da:K\u00f8benhavn"}}, {"type": "node", "id": 21040321, "lat": 55.7718649, "lon": 12.5051413, "tags": {"alt_name": "Kgs. Lyngby", "loc_name": "Lyngby", "name": "Kongens Lyngby", "name:lt": "Liungbiu", "place": "town", "population": "53501", "wikidata": "Q2239", "wikipedia": "da:Kongens Lyngby"}}, {"type": "node", "id": 25389641, "lat": 55.678016, "lon": 12.5326186, "tags": {"name": "Frederiksberg", "place": "town", "wikidata": "Q30096", "wikipedia": "en:Frederiksberg"}}, {"type": "node", "id": 25506982, "lat": 55.7595816, "lon": 12.5956873, "tags": {"name": "Skovshoved", "place": "village", "wikidata": "Q12335825", "wikipedia": "da:Skovshoved"}}, {"type": "node", "id": 26306430, "lat": 55.7721016, "lon": 12.5810845, "tags": {"name": "Klampenborg", "place": "village", "wikidata": "Q904469", "wikipedia": "da:Klampenborg"}}, {"type": "node", "id": 26327218, "lat": 55.7871236, "lon": 12.5941844, "tags": {"alt_name": "T\u00e5rb\u00e6k", "name": "Taarb\u00e6k", "place": "village", "wikidata": "Q3304501", "wikipedia": "da:Taarb\u00e6k"}}, {"type": "node", "id": 26559049, "lat": 55.9618789, "lon": 12.5305462, "tags": {"name": "Humleb\u00e6k", "place": "town", "population": "9643", "population:date": "2018-01-01", "source:population": "http://www.statistikbanken.dk/BY1", "wikidata": "Q2631512", "wikipedia": "da:Humleb\u00e6k"}}, {"type": "node", "id": 26559100, "lat": 55.935056, "lon": 12.5013529, "tags": {"name": "Niv\u00e5", "place": "town", "population": "7821", "source": "Statistikbanken Tabel BEF44", "wikidata": "Q2926034", "wikipedia": "da:Niv\u00e5"}}, {"type": "node", "id": 26559159, "lat": 55.8832986, "lon": 12.5000112, "tags": {"name": "H\u00f8rsholm", "name:de": "Hirschholm", "name:ka": "\u10f0\u10d4\u10e0\u10e1\u10f0\u10dd\u10da\u10db\u10d8", "name:lt": "Hiorsholmas", "name:ru": "\u0425\u0451\u0440\u0441\u0445\u043e\u043b\u044c\u043c", "note": "Byen befinder sig i tre kommuner", "place": "town", "population": "47489", "population:date": "2018-01-01", "source:population": "http://www.statistikbanken.dk/BY1", "wikidata": "Q20835", "wikipedia": "da:H\u00f8rsholm"}}, {"type": "node", "id": 26804505, "lat": 55.6052931, "lon": 13.0001566, "tags": {"alt_name:he": "\u05de\u05d0\u05dc\u05de\u05d5", "capital": "4", "name": "Malm\u00f6", "name:da": "Malm\u00f8", "name:de": "Malm\u00f6", "name:en": "Malmo", "name:he": "\u05de\u05d0\u05dc\u05de\u05d4", "name:hu": "Malm\u00f6", "name:ja": "\u30de\u30eb\u30e1", "name:ko": "\ub9d0\ubafc", "name:lt": "Malm\u0117", "name:mk": "\u041c\u0430\u043b\u043c\u0435", "name:ru": "\u041c\u0430\u043b\u044c\u043c\u0451", "name:sv": "Malm\u00f6", "name:yi": "\u05de\u05d0\u05dc\u05de\u05e2", "name:yue": "\u99ac\u5217\u9ea5", "name:zh": "\u9a6c\u5c14\u9ed8", "place": "city", "population": "316588", "ref:se:pts:postort": "MALM\u00d6", "ref:se:scb": "3604", "wikidata": "Q2211", "wikipedia": "sv:Malm\u00f6"}}, {"type": "node", "id": 27323968, "lat": 55.7029296, "lon": 13.1929449, "tags": {"name": "Lund", "name:da": "Lund", "name:ja": "\u30eb\u30f3\u30c9", "name:ko": "\ub8ec\ub4dc", "name:nn": "Lund", "name:no": "Lund", "name:ru": "\u041b\u0443\u043d\u0434", "name:sv": "Lund", "name:yue": "\u9686\u5fb7", "name:zh": "\u9686\u5fb7", "place": "town", "population": "82800", "ref:se:pts:postort": "LUND", "ref:se:scb": "3584", "wikidata": "Q2167", "wikipedia": "sv:Lund"}}, {"type": "node", "id": 27699239, "lat": 55.8698007, "lon": 12.8296734, "tags": {"name": "Landskrona", "name:ru": "\u041b\u0430\u043d\u0434\u0441\u043a\u0440\u0443\u043d\u0430", "place": "town", "population": "30499", "ref:se:pts:postort": "LANDSKRONA", "ref:se:scb": "3560", "wikidata": "Q54352", "wikipedia": "sv:Landskrona"}}, {"type": "node", "id": 27699240, "lat": 55.6745348, "lon": 13.0708928, "tags": {"name": "Lomma", "name:ru": "\u041b\u043e\u043c\u043c\u0430", "place": "town", "population": "10837", "ref:se:pts:postort": "LOMMA", "ref:se:scb": "3576", "wikidata": "Q995369", "wikipedia": "sv:Lomma"}}, {"type": "node", "id": 30249941, "lat": 55.7612448, "lon": 12.543077, "tags": {"name": "J\u00e6gersborg", "place": "village", "wikidata": "Q10542069", "wikipedia": "da:J\u00e6gersborg"}}, {"type": "node", "id": 31059001, "lat": 55.8214676, "lon": 12.5728477, "tags": {"name": "Skodsborg", "place": "village", "population": "1169", "population:date": "2011-01-01", "source": "Statistikbanken Tabel BEF44", "wikidata": "Q7061201", "wikipedia": "da:Skodsborg"}}, {"type": "node", "id": 31059003, "lat": 55.8540912, "lon": 12.5653124, "tags": {"name": "Vedb\u00e6k", "place": "village", "wikidata": "Q1896694", "wikipedia": "da:Vedb\u00e6k"}}, {"type": "node", "id": 53403734, "lat": 55.6427393, "lon": 13.2113993, "tags": {"name": "Staffanstorp", "name:sv": "Staffanstorp", "place": "town", "population": "14808", "ref:se:pts:postort": "STAFFANSTORP", "ref:se:scb": "3696", "wikidata": "Q1003201", "wikipedia": "sv:Staffanstorp"}}, {"type": "node", "id": 55079611, "lat": 55.6378013, "lon": 13.0777501, "tags": {"name": "Arl\u00f6v", "place": "town", "population": "10201", "population:note": "folkm\u00e4ngden avser delen av malm\u00f6 t\u00e4tort som ligger i burl\u00f6vs kommun, d\u00e5 arl\u00f6v inte \u00e4r n\u00e5gon egen t\u00e4tort", "ref:se:pts:postort": "ARL\u00d6V", "wikidata": "Q676026", "wikipedia": "sv:Arl\u00f6v"}}, {"type": "node", "id": 55080218, "lat": 55.652321, "lon": 13.1085165, "tags": {"name": "\u00c5karp", "place": "village", "ref:se:pts:postort": "\u00c5KARP", "ref:se:scb": "3812"}}, {"type": "node", "id": 55080255, "lat": 55.6698487, "lon": 13.1399724, "tags": {"name": "Hj\u00e4rup", "place": "village", "ref:se:pts:postort": "HJ\u00c4RUP", "ref:se:scb": "3460"}}, {"type": "node", "id": 55102316, "lat": 55.7221863, "lon": 13.0216436, "tags": {"name": "Bj\u00e4rred", "name:ru": "\u0411\u044c\u0435\u0440\u0440\u0435\u0434", "place": "town", "population": "10000", "ref:se:pts:postort": "BJ\u00c4RRED", "ref:se:scb": "3356", "wikidata": "Q879479", "wikipedia": "sv:Bj\u00e4rred"}}, {"type": "node", "id": 122725384, "lat": 55.7912944, "lon": 13.1073471, "tags": {"name": "K\u00e4vlinge", "name:ru": "\u0427\u0435\u0432\u043b\u0438\u043d\u0433\u0435", "place": "town", "population": "9049", "ref:se:pts:postort": "K\u00c4VLINGE", "ref:se:scb": "3552", "wikidata": "Q117493", "wikipedia": "sv:K\u00e4vlinge"}}, {"type": "node", "id": 160744272, "lat": 55.592487, "lon": 12.6719953, "tags": {"name": "Drag\u00f8r", "name:de": "Drag\u00f6r", "name:ru": "\u0414\u0440\u0430\u0433\u0451\u0440", "place": "town", "population": "12085", "population:date": "2018-01-01", "source:population": "http://www.statistikbanken.dk/BY1", "wikidata": "Q1255278", "wikipedia": "da:Drag\u00f8r"}}, {"type": "node", "id": 160747390, "lat": 55.7632132, "lon": 13.0003944, "tags": {"name": "L\u00f6ddek\u00f6pinge", "place": "village", "ref:se:pts:postort": "L\u00d6DDEK\u00d6PINGE", "ref:se:scb": "3592"}}, {"type": "node", "id": 243513236, "lat": 55.7492797, "lon": 13.1947805, "tags": {"name": "St\u00e5ngby", "place": "village", "ref:se:scb": "3712", "wikidata": "Q1398087", "wikipedia": "sv:St\u00e5ngby"}}, {"type": "node", "id": 249801554, "lat": 55.7381128, "lon": 13.1777907}, {"type": "node", "id": 250098148, "lat": 55.999056, "lon": 13.0883139, "tags": {"name": "K\u00e5ger\u00f6d", "place": "village", "ref:se:pts:postort": "K\u00c5GER\u00d6D", "ref:se:scb": "3544"}}, {"type": "node", "id": 252614854, "lat": 55.7262462, "lon": 13.1053599, "tags": {"name": "Fjelie", "place": "hamlet", "population": "127", "ref:se:scb": "S3341"}}, {"type": "node", "id": 253361965, "lat": 55.6576066, "lon": 13.0834259, "tags": {"name": "Alnarp", "place": "hamlet", "population": "107", "ref:se:pts:postort": "ALNARP", "ref:se:scb": "S3249"}}, {"type": "node", "id": 253368816, "lat": 55.7252694, "lon": 13.0719827, "tags": {"name": "Fl\u00e4die", "place": "village", "ref:se:scb": "3402"}}, {"type": "node", "id": 253419310, "lat": 55.7762345, "lon": 13.0911987, "tags": {"name": "Furulund", "place": "village", "ref:se:pts:postort": "FURULUND", "ref:se:scb": "3408"}}, {"type": "node", "id": 253419311, "lat": 55.7626977, "lon": 13.0708202, "tags": {"name": "St\u00e4vie", "place": "hamlet"}}, {"type": "node", "id": 253979217, "lat": 55.6358275, "lon": 13.1019159, "tags": {"name": "Burl\u00f6vs egnahem", "place": "village", "ref:se:scb": "3374"}}, {"type": "node", "id": 253979333, "lat": 55.6361145, "lon": 13.1114769, "tags": {"name": "Burl\u00f6vs by", "place": "hamlet"}}, {"type": "node", "id": 254141719, "lat": 55.668347, "lon": 13.1714277, "tags": {"name": "Stora Upp\u00e5kra", "place": "hamlet"}}, {"type": "node", "id": 254141720, "lat": 55.6566826, "lon": 13.1623847, "tags": {"name": "Lilla Upp\u00e5kra", "place": "hamlet"}}, {"type": "node", "id": 254141721, "lat": 55.647433, "lon": 13.1695945, "tags": {"name": "Tirup", "place": "hamlet"}}, {"type": "node", "id": 254995123, "lat": 55.9191555, "lon": 12.6968404, "tags": {"name": "Norreborg", "place": "hamlet"}}, {"type": "node", "id": 256430884, "lat": 55.6264087, "lon": 13.1649721, "tags": {"created_by": "JOSM", "name": "Djursl\u00f6v", "place": "hamlet"}}, {"type": "node", "id": 256430912, "lat": 55.6221329, "lon": 13.1602412, "tags": {"created_by": "JOSM", "name": "S\u00e4rsl\u00f6v", "place": "hamlet"}}, {"type": "node", "id": 256764792, "lat": 55.7341759, "lon": 13.0344204, "tags": {"name": "Borgeby", "place": "village"}}, {"type": "node", "id": 256771197, "lat": 55.7558368, "lon": 12.9058848, "tags": {"name": "Barseb\u00e4ckshamn", "place": "village", "ref:se:scb": "3337"}}, {"type": "node", "id": 256978910, "lat": 55.6232628, "lon": 13.2086061, "tags": {"name": "Grevie", "place": "hamlet"}}, {"type": "node", "id": 256978948, "lat": 55.6084045, "lon": 13.1790907, "tags": {"name": "M\u00f6lleberga", "place": "hamlet"}}, {"type": "node", "id": 256978963, "lat": 55.623313, "lon": 13.1926225, "tags": {"name": "\u00d6nsvala", "place": "hamlet"}}, {"type": "node", "id": 256979013, "lat": 55.5821668, "lon": 13.1806037, "tags": {"name": "Bara", "place": "village", "ref:se:pts:postort": "BARA", "ref:se:scb": "3332"}}, {"type": "node", "id": 257103296, "lat": 55.5942535, "lon": 13.2490081, "tags": {"name": "Kl\u00e5gerup", "place": "village", "ref:se:pts:postort": "KL\u00c5GERUP", "ref:se:scb": "3532"}}, {"type": "node", "id": 257396992, "lat": 55.6545936, "lon": 13.1980976, "tags": {"name": "Gull\u00e5kra by", "place": "hamlet"}}, {"type": "node", "id": 257396994, "lat": 55.6627089, "lon": 13.1958466, "tags": {"name": "\u00c4delholm", "place": "hamlet"}}, {"type": "node", "id": 257404252, "lat": 55.6408858, "lon": 13.1481864, "tags": {"name": "Tottarp", "place": "hamlet"}}, {"type": "node", "id": 257938618, "lat": 55.8041309, "lon": 13.1533739, "tags": {"name": "Stora Harrie", "place": "hamlet"}}, {"type": "node", "id": 257940420, "lat": 55.8384361, "lon": 13.243438, "tags": {"created_by": "JOSM", "name": "Remmarl\u00f6v", "place": "hamlet"}}, {"type": "node", "id": 258365379, "lat": 55.8199778, "lon": 13.0304533, "tags": {"name": "D\u00f6sjebro", "place": "village", "ref:se:pts:postort": "D\u00d6SJEBRO", "ref:se:scb": "3388"}}, {"type": "node", "id": 258408110, "lat": 55.7927107, "lon": 12.9504753, "tags": {"name": "J\u00e4ravallen", "place": "hamlet"}}, {"type": "node", "id": 258408142, "lat": 55.7716614, "lon": 12.9563659, "tags": {"name": "Barseb\u00e4ck", "place": "village", "ref:se:pts:postort": "BARSEB\u00c4CK", "ref:se:scb": "3336"}}, {"type": "node", "id": 258408188, "lat": 55.7628818, "lon": 12.9821922, "tags": {"name": "Sandskogen", "place": "village", "ref:se:scb": "3662"}}, {"type": "node", "id": 259871369, "lat": 55.8641443, "lon": 13.1515333, "tags": {"name": "Marieholm", "place": "village", "ref:se:pts:postort": "MARIEHOLM", "ref:se:scb": "3608"}}, {"type": "node", "id": 259871370, "lat": 55.8665396, "lon": 13.0903581, "tags": {"name": "Teckomatorp", "place": "village", "ref:se:pts:postort": "TECKOMATORP", "ref:se:scb": "3744"}}, {"type": "node", "id": 262559916, "lat": 55.5770572, "lon": 13.1259402, "tags": {"created_by": "JOSM", "name": "\u00d6stra Kattarp", "place": "hamlet"}}, {"type": "node", "id": 262559927, "lat": 55.5855548, "lon": 13.117703, "tags": {"created_by": "JOSM", "name": "S\u00f6dra Sallerup", "place": "hamlet"}}, {"type": "node", "id": 262887851, "lat": 55.7291339, "lon": 12.9558864, "tags": {"name": "Vikh\u00f6g", "place": "hamlet", "ref:se:scb": "S3841"}}, {"type": "node", "id": 262887853, "lat": 55.7677837, "lon": 13.0523104, "tags": {"name": "H\u00f6g", "place": "hamlet"}}, {"type": "node", "id": 264126498, "lat": 55.7927398, "lon": 13.1784123, "tags": {"created_by": "JOSM", "name": "Krutm\u00f6llan", "place": "hamlet"}}, {"type": "node", "id": 266557415, "lat": 55.7868715, "lon": 13.1639721, "tags": {"created_by": "JOSM", "name": "V\u00e4stra Hoby", "place": "hamlet"}}, {"type": "node", "id": 266557867, "lat": 55.8221749, "lon": 13.1077442, "tags": {"name": "S\u00f6dervidinge station", "place": "hamlet"}}, {"type": "node", "id": 266559064, "lat": 55.9107298, "lon": 13.1393985, "tags": {"name": "Torrl\u00f6sa", "place": "hamlet"}}, {"type": "node", "id": 266559071, "lat": 55.9136519, "lon": 13.1069825, "tags": {"name": "Sval\u00f6v", "place": "town", "population": "3633", "ref:se:pts:postort": "SVAL\u00d6V", "ref:se:scb": "3716", "wikidata": "Q202408", "wikipedia": "sv:Sval\u00f6v"}}, {"type": "node", "id": 266559072, "lat": 55.8410218, "lon": 13.1057434, "tags": {"name": "Norrvidinge", "place": "hamlet"}}, {"type": "node", "id": 266559077, "lat": 55.8700258, "lon": 13.1181037, "tags": {"name": "Norra Skr\u00e4vlinge", "place": "hamlet"}}, {"type": "node", "id": 266561008, "lat": 55.882914, "lon": 12.9990874, "tags": {"name": "Billeberga", "place": "village", "ref:se:pts:postort": "BILLEBERGA", "ref:se:scb": "3340"}}, {"type": "node", "id": 266561009, "lat": 55.9116066, "lon": 13.0464365, "tags": {"name": "Tirup", "place": "hamlet"}}, {"type": "node", "id": 266562631, "lat": 55.8365448, "lon": 13.0197328, "tags": {"name": "Annel\u00f6v", "place": "village", "ref:se:pts:postort": "ANNEL\u00d6V", "ref:se:scb": "3316"}}, {"type": "node", "id": 266677130, "lat": 55.8109022, "lon": 13.0514128, "tags": {"name": "V\u00e4stra Karaby", "place": "hamlet", "ref:se:scb": "3802"}}, {"type": "node", "id": 268928972, "lat": 55.8088317, "lon": 13.1300107, "tags": {"name": "Tostarp", "place": "hamlet"}}, {"type": "node", "id": 269402733, "lat": 55.7382465, "lon": 13.1783385}, {"type": "node", "id": 269402734, "lat": 55.7380942, "lon": 13.1785153}, {"type": "node", "id": 269402735, "lat": 55.7379544, "lon": 13.1786173}, {"type": "node", "id": 269402736, "lat": 55.7376217, "lon": 13.1789852}, {"type": "node", "id": 269454939, "lat": 55.6234556, "lon": 13.1228038, "tags": {"name": "Nordan\u00e5", "place": "village"}}, {"type": "node", "id": 269454970, "lat": 55.6364009, "lon": 13.1426354, "tags": {"name": "Kyrkoby", "place": "hamlet"}}, {"type": "node", "id": 271685702, "lat": 55.7377481, "lon": 13.1779363}, {"type": "node", "id": 272807179, "lat": 55.8818073, "lon": 13.1950003, "tags": {"created_by": "JOSM", "name": "\u00d6stra Karaby", "place": "hamlet"}}, {"type": "node", "id": 272807180, "lat": 55.8966821, "lon": 13.187148, "tags": {"name": "Vittsk\u00f6vle", "place": "hamlet"}}, {"type": "node", "id": 272808445, "lat": 55.9282589, "lon": 13.210776, "tags": {"name": "Gryttinge", "place": "hamlet"}}, {"type": "node", "id": 272808452, "lat": 55.9795533, "lon": 13.1992279, "tags": {"created_by": "JOSM", "name": "Konga", "place": "hamlet"}}, {"type": "node", "id": 274982918, "lat": 55.9690242, "lon": 13.0926319, "tags": {"name": "Axelvold", "place": "hamlet"}}, {"type": "node", "id": 275029397, "lat": 55.8692568, "lon": 12.9916726, "tags": {"name": "M\u00e5nstorp", "place": "hamlet"}}, {"type": "node", "id": 275352808, "lat": 55.9247727, "lon": 12.9548931, "tags": {"name": "T\u00e5garp", "place": "village", "ref:se:pts:postort": "T\u00c5GARP", "ref:se:scb": "3760"}}, {"type": "node", "id": 277720381, "lat": 55.5921945, "lon": 13.1549255, "tags": {"name": "Bj\u00e4rsh\u00f6g", "place": "hamlet"}}, {"type": "node", "id": 277723240, "lat": 55.675438, "lon": 13.2005994, "tags": {"name": "Kn\u00e4storp", "place": "hamlet"}}, {"type": "node", "id": 277723241, "lat": 55.6669223, "lon": 13.2057961, "tags": {"name": "Vesum", "place": "hamlet"}}, {"type": "node", "id": 278633606, "lat": 55.8341197, "lon": 12.5161754, "tags": {"name": "Gammel Holte", "place": "village", "wikidata": "Q12313473", "wikipedia": "da:Gammel Holte"}}, {"type": "node", "id": 279402575, "lat": 55.9664444, "lon": 12.7806774, "tags": {"name": "Rydeb\u00e4ck", "place": "village", "ref:se:pts:postort": "RYDEB\u00c4CK", "ref:se:scb": "3652"}}, {"type": "node", "id": 279402590, "lat": 55.9416984, "lon": 12.8104863, "tags": {"name": "Glumsl\u00f6v", "place": "village", "ref:se:pts:postort": "GLUMSL\u00d6V", "ref:se:scb": "3428"}}, {"type": "node", "id": 279720137, "lat": 55.8176899, "lon": 12.5362914, "tags": {"name": "N\u00e6rum", "name:etymology:wikidata": "Q193879", "place": "village", "wikidata": "Q3355965", "wikipedia": "da:N\u00e6rum"}}, {"type": "node", "id": 280179578, "lat": 55.5683804, "lon": 12.6144904, "tags": {"census": "2013", "name": "S\u00f8vang", "place": "village", "population": "1711", "source": "Statistikbanken Tabel BEF44", "wikidata": "Q12338617", "wikipedia": "da:S\u00f8vang (Amager)"}}, {"type": "node", "id": 283289836, "lat": 55.8553781, "lon": 12.4822277, "tags": {"name": "H\u00f8sterk\u00f8b", "place": "village", "population": "298", "population:date": "2011-01-01", "source": "Statistikbanken Tabel BEF44", "wikidata": "Q12317850", "wikipedia": "da:H\u00f8sterk\u00f8b"}}, {"type": "node", "id": 293063179, "lat": 55.9105061, "lon": 12.4916721, "tags": {"name": "Kokkedal", "place": "town", "population": "9000", "wikidata": "Q2040882", "wikipedia": "da:Kokkedal"}}, {"type": "node", "id": 314442206, "lat": 55.5753174, "lon": 13.0993816, "tags": {"name": "Kvarnby by", "place": "hamlet"}}, {"type": "node", "id": 318116466, "lat": 55.6293705, "lon": 13.1431342, "tags": {"name": "G\u00f6rsl\u00f6v", "place": "hamlet"}}, {"type": "node", "id": 318261652, "lat": 55.5854935, "lon": 13.1361361, "tags": {"name": "K\u00f6lnans fritidsby", "place": "hamlet"}}, {"type": "node", "id": 319431936, "lat": 55.6128445, "lon": 13.1198207, "tags": {"name": "Sunnan\u00e5", "place": "hamlet", "population": "72", "ref:se:scb": "S3723"}}, {"type": "node", "id": 331254408, "lat": 55.6326989, "lon": 13.2273773, "tags": {"name": "Nevish\u00f6g", "place": "hamlet"}}, {"type": "node", "id": 344974059, "lat": 55.9899825, "lon": 12.4976071, "tags": {"census": "2013", "name": "Kvistg\u00e5rd", "place": "village", "population": "1058", "source": "Statistikbanken Tabel BEF44", "wikidata": "Q2236093", "wikipedia": "da:Kvistg\u00e5rd"}}, {"type": "node", "id": 352840640, "lat": 55.8248399, "lon": 12.9434044, "tags": {"name": "\u00c5lstorp 5", "place": "hamlet"}}, {"type": "node", "id": 366373838, "lat": 55.941237, "lon": 12.7730988, "tags": {"name": "\u00c5labodarna", "place": "hamlet"}}, {"type": "node", "id": 366978362, "lat": 55.9324062, "lon": 12.8760237, "tags": {"name": "H\u00e4rsl\u00f6v", "place": "village", "ref:se:pts:postort": "H\u00c4RSL\u00d6V", "ref:se:scb": "3484"}}, {"type": "node", "id": 367022586, "lat": 55.9053292, "lon": 12.8989284, "tags": {"name": "Vadensj\u00f6", "place": "hamlet"}}, {"type": "node", "id": 367078228, "lat": 55.9308577, "lon": 12.791056, "tags": {"name": "Sundvik", "place": "hamlet"}}, {"type": "node", "id": 367672287, "lat": 55.8835279, "lon": 12.9134564, "tags": {"name": "R\u00e5ga H\u00f6rstad", "place": "hamlet"}}, {"type": "node", "id": 367672296, "lat": 55.8855959, "lon": 12.9471949, "tags": {"name": "Asmundtorp", "place": "village", "population": "1562", "ref:se:pts:postort": "ASMUNDTORP", "ref:se:scb": "3328"}}, {"type": "node", "id": 367672844, "lat": 55.8515457, "lon": 12.9152096, "tags": {"name": "H\u00e4ljarp", "place": "village", "ref:se:pts:postort": "H\u00c4LJARP", "ref:se:scb": "3476"}}, {"type": "node", "id": 374394197, "lat": 55.9175827, "lon": 12.7053892, "tags": {"name": "Husvik", "place": "hamlet"}}, {"type": "node", "id": 374396534, "lat": 55.9179194, "lon": 12.6750051, "tags": {"name": "Mossen", "place": "hamlet"}}, {"type": "node", "id": 383382943, "lat": 55.9874622, "lon": 12.8019646, "tags": {"name": "Gantofta", "place": "village", "ref:se:pts:postort": "GANTOFTA", "ref:se:scb": "3412"}}, {"type": "node", "id": 438708265, "lat": 55.9269883, "lon": 12.9972578, "tags": {"name": "Sirek\u00f6pinge", "place": "hamlet"}}, {"type": "node", "id": 454516762, "lat": 55.9622674, "lon": 12.8583158, "tags": {"name": "Vall\u00e5kra", "place": "village", "ref:se:pts:postort": "VALL\u00c5KRA", "ref:se:scb": "3772"}}, {"type": "node", "id": 492902762, "lat": 55.8542007, "lon": 13.1223502, "tags": {"name": "H\u00e5stensl\u00f6v", "place": "hamlet"}}, {"type": "node", "id": 493591857, "lat": 55.5900145, "lon": 13.2002619, "tags": {"name": "Bara kyrkby", "place": "hamlet"}}, {"type": "node", "id": 558810306, "lat": 55.9584753, "lon": 12.7584227, "tags": {"name": "Fortuna", "place": "hamlet"}}, {"type": "node", "id": 585337382, "lat": 55.8811446, "lon": 12.8801662, "tags": {"name": "\u00d6rja kyrkby", "place": "hamlet"}}, {"type": "node", "id": 664117056, "lat": 55.7408432, "lon": 13.1726334}, {"type": "node", "id": 664117058, "lat": 55.7414344, "lon": 13.1723533}, {"type": "node", "id": 679467115, "lat": 55.8289884, "lon": 12.9421429, "tags": {"name": "Saxtorpsskogen", "place": "village", "population": "973", "ref:se:scb": "3718"}}, {"type": "node", "id": 703585383, "lat": 55.6830646, "lon": 13.1632875, "tags": {"name": "Flackarp", "place": "hamlet"}}, {"type": "node", "id": 705910384, "lat": 55.6766809, "lon": 13.1733609, "tags": {"name": "Bergstr\u00f6mshusen", "place": "hamlet", "ref:se:scb": "2814"}}, {"type": "node", "id": 747216886, "lat": 55.8733985, "lon": 12.9511014, "tags": {"name": "Munkeb\u00e4ck", "place": "hamlet", "population": "159", "ref:se:scb": "S3569"}}, {"type": "node", "id": 763281066, "lat": 55.9553198, "lon": 12.947318, "tags": {"name": "Kingelstad", "place": "hamlet"}}, {"type": "node", "id": 855111092, "lat": 55.8870356, "lon": 13.0781803, "tags": {"name": "K\u00e4lls N\u00f6bbel\u00f6v", "place": "hamlet"}}, {"type": "node", "id": 939988688, "lat": 55.7416707, "lon": 13.173483}, {"type": "node", "id": 939988689, "lat": 55.736155, "lon": 13.1787976}, {"type": "node", "id": 939988690, "lat": 55.7416401, "lon": 13.1765391}, {"type": "node", "id": 939988691, "lat": 55.7350309, "lon": 13.1815917}, {"type": "node", "id": 939988693, "lat": 55.7407008, "lon": 13.1710272}, {"type": "node", "id": 939988694, "lat": 55.7394271, "lon": 13.1792856}, {"type": "node", "id": 939988695, "lat": 55.7377756, "lon": 13.1751426}, {"type": "node", "id": 939988697, "lat": 55.738881, "lon": 13.1764779}, {"type": "node", "id": 939988698, "lat": 55.7425848, "lon": 13.1706535}, {"type": "node", "id": 939988699, "lat": 55.7409635, "lon": 13.1739097}, {"type": "node", "id": 939988700, "lat": 55.7365139, "lon": 13.1804645}, {"type": "node", "id": 939988701, "lat": 55.7397743, "lon": 13.1783294}, {"type": "node", "id": 939988702, "lat": 55.7344028, "lon": 13.1765678}, {"type": "node", "id": 939988703, "lat": 55.7384409, "lon": 13.1810455}, {"type": "node", "id": 939988704, "lat": 55.7379506, "lon": 13.1767877}, {"type": "node", "id": 939988705, "lat": 55.7400396, "lon": 13.1722134}, {"type": "node", "id": 1025125356, "lat": 55.740319, "lon": 13.1710817}, {"type": "node", "id": 1025217433, "lat": 55.7403739, "lon": 13.172053}, {"type": "node", "id": 1025217466, "lat": 55.7401376, "lon": 13.1730088}, {"type": "node", "id": 1072356702, "lat": 55.7365468, "lon": 13.1807017}, {"type": "node", "id": 1072356711, "lat": 55.7375847, "lon": 13.18014}, {"type": "node", "id": 1072356794, "lat": 55.736262, "lon": 13.1809807}, {"type": "node", "id": 1072356811, "lat": 55.7376049, "lon": 13.1800146}, {"type": "node", "id": 1072356825, "lat": 55.7376352, "lon": 13.1794153}, {"type": "node", "id": 1072356845, "lat": 55.7353403, "lon": 13.1815662}, {"type": "node", "id": 1072356876, "lat": 55.7356629, "lon": 13.1814158}, {"type": "node", "id": 1072387761, "lat": 55.7377773, "lon": 13.1787543}, {"type": "node", "id": 1098590243, "lat": 55.6847149, "lon": 13.2252978}, {"type": "node", "id": 1098590676, "lat": 55.6853085, "lon": 13.2279737}, {"type": "node", "id": 1098591338, "lat": 55.6858723, "lon": 13.2297554}, {"type": "node", "id": 1098591596, "lat": 55.6850576, "lon": 13.2269386}, {"type": "node", "id": 1098591632, "lat": 55.6856295, "lon": 13.2273009}, {"type": "node", "id": 1098591896, "lat": 55.6858881, "lon": 13.2286666}, {"type": "node", "id": 1098592064, "lat": 55.6847921, "lon": 13.2265427}, {"type": "node", "id": 1098592105, "lat": 55.6855478, "lon": 13.2266694}, {"type": "node", "id": 1098592329, "lat": 55.6854766, "lon": 13.2305488}, {"type": "node", "id": 1098592644, "lat": 55.6855193, "lon": 13.2277142}, {"type": "node", "id": 1098592964, "lat": 55.6854836, "lon": 13.2296921}, {"type": "node", "id": 1098593261, "lat": 55.6855011, "lon": 13.2274458}, {"type": "node", "id": 1098594025, "lat": 55.6853435, "lon": 13.2285534}, {"type": "node", "id": 1178891396, "lat": 55.7376404, "lon": 13.1792212}, {"type": "node", "id": 1178891401, "lat": 55.7376341, "lon": 13.1793109}, {"type": "node", "id": 1178977303, "lat": 55.7386605, "lon": 13.1766782}, {"type": "node", "id": 1178994434, "lat": 55.7381706, "lon": 13.178041}, {"type": "node", "id": 1240586997, "lat": 55.7381273, "lon": 13.1778662}, {"type": "node", "id": 1271040959, "lat": 55.6858231, "lon": 13.2305321}, {"type": "node", "id": 1271040961, "lat": 55.6854306, "lon": 13.2224222}, {"type": "node", "id": 1271040962, "lat": 55.6851093, "lon": 13.2220939}, {"type": "node", "id": 1271040963, "lat": 55.6856899, "lon": 13.2216809}, {"type": "node", "id": 1271040964, "lat": 55.6846859, "lon": 13.2241163}, {"type": "node", "id": 1271040966, "lat": 55.6867032, "lon": 13.2272059}, {"type": "node", "id": 1271040967, "lat": 55.6864461, "lon": 13.2244167}, {"type": "node", "id": 1271040968, "lat": 55.6866317, "lon": 13.226266}, {"type": "node", "id": 1271040969, "lat": 55.6865489, "lon": 13.2281396}, {"type": "node", "id": 1271040970, "lat": 55.6867061, "lon": 13.2219491}, {"type": "node", "id": 1271040971, "lat": 55.6852121, "lon": 13.221477}, {"type": "node", "id": 1271040972, "lat": 55.6861195, "lon": 13.2290408}, {"type": "node", "id": 1271040974, "lat": 55.6864895, "lon": 13.2234942}, {"type": "node", "id": 1271040975, "lat": 55.6861134, "lon": 13.2301674}, {"type": "node", "id": 1271040976, "lat": 55.6864037, "lon": 13.2290623}, {"type": "node", "id": 1271040978, "lat": 55.6857806, "lon": 13.2211927}, {"type": "node", "id": 1271040979, "lat": 55.6854026, "lon": 13.2240895}, {"type": "node", "id": 1271040980, "lat": 55.6854101, "lon": 13.2232124}, {"type": "node", "id": 1271040981, "lat": 55.6865416, "lon": 13.222675}, {"type": "node", "id": 1489904491, "lat": 55.5988461, "lon": 12.6352703, "tags": {"name": "Store Magleby", "old_name": "Holl\u00e6nderbyen", "place": "village", "wikidata": "Q4994799", "wikipedia": "da:Store Magleby"}}, {"type": "node", "id": 1498260436, "lat": 55.6246457, "lon": 12.6006252, "tags": {"name": "T\u00e5rnby", "name:de": "Taarnby", "name:ka": "\u10e2\u10dd\u10e0\u10dc\u10d1\u10d8", "name:no": "T\u00e5rnby (Amager)", "place": "town", "population": "41206", "wikidata": "Q28173", "wikipedia": "da:T\u00e5rnby"}}, {"type": "node", "id": 1506213393, "lat": 55.7378586, "lon": 13.1803995}, {"type": "node", "id": 1506213395, "lat": 55.7381457, "lon": 13.180539}, {"type": "node", "id": 1506213397, "lat": 55.7382785, "lon": 13.1805104}, {"type": "node", "id": 1506213428, "lat": 55.7397157, "lon": 13.1785079}, {"type": "node", "id": 1506213433, "lat": 55.7397698, "lon": 13.1807731}, {"type": "node", "id": 1506213452, "lat": 55.740227, "lon": 13.1770687}, {"type": "node", "id": 1506213486, "lat": 55.7415033, "lon": 13.1766547}, {"type": "node", "id": 1506213487, "lat": 55.7416058, "lon": 13.1765806}, {"type": "node", "id": 1506213488, "lat": 55.7416562, "lon": 13.1725123}, {"type": "node", "id": 1507272896, "lat": 55.685937, "lon": 13.2303891}, {"type": "node", "id": 1507272973, "lat": 55.6861188, "lon": 13.2291725}, {"type": "node", "id": 1507273099, "lat": 55.6865711, "lon": 13.2279493}, {"type": "node", "id": 1583149881, "lat": 55.9726871, "lon": 12.4702737, "tags": {"name": "S\u00f8holm By", "place": "hamlet", "population": "19"}}, {"type": "node", "id": 1594641238, "lat": 55.9831821, "lon": 12.5378199, "tags": {"name": "Tibberup", "place": "village", "wikidata": "Q12343163", "wikipedia": "da:Tibberup (Helsing\u00f8r)"}}, {"type": "node", "id": 1657870622, "lat": 55.9081419, "lon": 12.9437954, "tags": {"name": "R\u00f6nneberga", "place": "hamlet"}}, {"type": "node", "id": 1659452010, "lat": 55.8768933, "lon": 13.1362201, "tags": {"name": "\u00c5karp", "place": "hamlet"}}, {"type": "node", "id": 1669451384, "lat": 55.8062343, "lon": 12.5605234}, {"type": "node", "id": 1730956483, "lat": 55.6030828, "lon": 13.1433391, "tags": {"name": "Lilla M\u00f6lleberga", "place": "hamlet"}}, {"type": "node", "id": 1738279608, "lat": 55.6710468, "lon": 13.2333269, "tags": {"name": "Lilla Bj\u00e4llerup", "place": "hamlet"}}, {"type": "node", "id": 1763654791, "lat": 55.7755733, "lon": 13.2287942, "tags": {"name": "H\u00e5stad", "place": "hamlet"}}, {"type": "node", "id": 1836252171, "lat": 55.7655222, "lon": 13.1730146, "tags": {"name": "St\u00e5ngby kyrkby", "place": "hamlet"}}, {"type": "node", "id": 1856450854, "lat": 55.7039441, "lon": 13.1474297, "tags": {"name": "V\u00e4rpinge by", "place": "hamlet"}}, {"type": "node", "id": 1916662574, "lat": 55.7369409, "lon": 13.1784825}, {"type": "node", "id": 1916662575, "lat": 55.7373777, "lon": 13.1783247}, {"type": "node", "id": 1916662576, "lat": 55.7375818, "lon": 13.1803366}, {"type": "node", "id": 1916884504, "lat": 55.7407534, "lon": 13.1730569, "tags": {"name": "Vallk\u00e4rra", "place": "village"}}, {"type": "node", "id": 1916884510, "lat": 55.7344329, "lon": 13.1768083}, {"type": "node", "id": 1944193852, "lat": 55.6847737, "lon": 13.2262374}, {"type": "node", "id": 1944193857, "lat": 55.6848208, "lon": 13.2266129}, {"type": "node", "id": 1944193880, "lat": 55.6849702, "lon": 13.2268228}, {"type": "node", "id": 1944193883, "lat": 55.6851576, "lon": 13.2269249}, {"type": "node", "id": 1958862533, "lat": 55.7413102, "lon": 13.1755155}, {"type": "node", "id": 1958862558, "lat": 55.7414531, "lon": 13.1761016}, {"type": "node", "id": 1958870427, "lat": 55.7393829, "lon": 13.1733525}, {"type": "node", "id": 1958870428, "lat": 55.7393872, "lon": 13.1735473}, {"type": "node", "id": 1958870430, "lat": 55.7395055, "lon": 13.1738873}, {"type": "node", "id": 1976398884, "lat": 55.7458046, "lon": 13.1354206, "tags": {"place": "hamlet"}}, {"type": "node", "id": 1976399113, "lat": 55.6858861, "lon": 13.230453}, {"type": "node", "id": 2003077132, "lat": 55.7414267, "lon": 13.1709171}, {"type": "node", "id": 2003077133, "lat": 55.7416865, "lon": 13.1708938}, {"type": "node", "id": 2003077134, "lat": 55.7417018, "lon": 13.1712895}, {"type": "node", "id": 2003077136, "lat": 55.7418175, "lon": 13.1723097}, {"type": "node", "id": 2003077173, "lat": 55.7427434, "lon": 13.1719916}, {"type": "node", "id": 2003078123, "lat": 55.7783221, "lon": 13.2439888, "tags": {"name": "\u00d6rtofta", "place": "hamlet", "ref:se:scb": "3828"}}, {"type": "node", "id": 2003085581, "lat": 55.792753, "lon": 13.2027511, "tags": {"name": "Lilla Harrie", "place": "village", "ref:se:scb": "3568"}}, {"type": "node", "id": 2003085585, "lat": 55.7867826, "lon": 13.2412486, "tags": {"name": "V\u00e4ggarp", "place": "village", "ref:se:scb": "3830"}}, {"type": "node", "id": 2022765249, "lat": 55.7983323, "lon": 12.976774, "tags": {"name": "Hofterup", "place": "village", "ref:se:scb": "3464"}}, {"type": "node", "id": 2023839943, "lat": 55.8395866, "lon": 12.9589861, "tags": {"name": "Saxtorp", "place": "hamlet", "ref:se:pts:postort": "SAXTORP"}}, {"type": "node", "id": 2023861220, "lat": 55.8641592, "lon": 12.9791881, "tags": {"name": "S\u00f6dra M\u00f6inge", "place": "hamlet"}}, {"type": "node", "id": 2023866740, "lat": 55.8880106, "lon": 12.9701113, "tags": {"name": "Norra M\u00f6inge", "place": "hamlet"}}, {"type": "node", "id": 2026791500, "lat": 55.9734212, "lon": 13.0593316, "tags": {"name": "Duveke", "place": "hamlet"}}, {"type": "node", "id": 2026836970, "lat": 55.9407599, "lon": 13.0179953, "tags": {"name": "Br\u00f6d\u00e5kra", "place": "hamlet"}}, {"type": "node", "id": 2031042304, "lat": 55.9589154, "lon": 13.0060148, "tags": {"name": "Halmstad", "place": "hamlet"}}, {"type": "node", "id": 2031062071, "lat": 55.9919215, "lon": 12.9993801, "tags": {"name": "Truedstorp", "place": "hamlet"}}, {"type": "node", "id": 2031062072, "lat": 56.0051034, "lon": 12.9969129, "tags": {"name": "Vilhelmsf\u00e4lt", "place": "hamlet"}}, {"type": "node", "id": 2031095357, "lat": 55.8289315, "lon": 13.1894985, "tags": {"name": "Virke", "place": "hamlet"}}, {"type": "node", "id": 2057912643, "lat": 55.9870488, "lon": 12.8362405, "tags": {"name": "Fj\u00e4restad", "place": "hamlet"}}, {"type": "node", "id": 2235001467, "lat": 55.9994724, "lon": 12.9651021, "tags": {"name": "Ekeby", "place": "village", "ref:se:pts:postort": "EKEBY", "ref:se:scb": "3392"}}, {"type": "node", "id": 2288906928, "lat": 55.8650352, "lon": 13.2403123, "tags": {"name": "Trollen\u00e4s", "place": "hamlet"}}, {"type": "node", "id": 2292029063, "lat": 55.8394393, "lon": 12.9865696, "tags": {"name": "Kv\u00e4rl\u00f6v", "place": "village", "population": "226", "ref:se:scb": "3542"}}, {"type": "node", "id": 2293336729, "lat": 55.6230981, "lon": 13.0740641, "tags": {"name": "Arl\u00f6vg\u00e5rden", "place": "hamlet", "population": "52", "ref:se:scb": "S3251"}}, {"type": "node", "id": 2402353382, "lat": 55.7747601, "lon": 13.1119574, "tags": {"name": "Lackal\u00e4nga", "place": "hamlet"}}, {"type": "node", "id": 2402421575, "lat": 55.7841413, "lon": 13.1150437, "tags": {"name": "Lilla Ro", "place": "hamlet"}}, {"type": "node", "id": 2426721486, "lat": 55.8223533, "lon": 12.9997507, "tags": {"name": "\u00c5lstorps by", "place": "hamlet"}}, {"type": "node", "id": 2430240258, "lat": 55.8605024, "lon": 12.8902979, "tags": {"name": "Axeltofta", "place": "hamlet"}}, {"type": "node", "id": 2430656078, "lat": 55.8213115, "lon": 13.0886221, "tags": {"name": "S\u00e4rsl\u00f6v", "place": "hamlet"}}, {"type": "node", "id": 2444293113, "lat": 55.8217047, "lon": 13.0974356, "tags": {"name": "S\u00f6dervidinge", "place": "hamlet"}}, {"type": "node", "id": 2444309882, "lat": 55.8127356, "lon": 13.0919646, "tags": {"name": "S\u00e4rsl\u00f6v (s\u00f6dra delen)", "place": "hamlet"}}, {"type": "node", "id": 2456871997, "lat": 55.7825244, "lon": 13.2070545, "tags": {"name": "Lilla H\u00e5stad", "place": "hamlet"}}, {"type": "node", "id": 2457634742, "lat": 55.7453772, "lon": 13.1483733, "tags": {"name": "Vallk\u00e4rra stationsby", "place": "hamlet"}}, {"type": "node", "id": 2696986835, "lat": 55.9045209, "lon": 12.8505655, "tags": {"name": "S\u00e4by", "place": "hamlet"}}, {"type": "node", "id": 2741584791, "lat": 55.8577006, "lon": 13.1835778, "tags": {"name": "Resl\u00f6v", "place": "hamlet"}}, {"type": "node", "id": 2741629285, "lat": 55.872745, "lon": 13.1709049, "tags": {"name": "Sibbarp", "place": "hamlet"}}, {"type": "node", "id": 2752110544, "lat": 55.6658749, "lon": 13.1623737, "tags": {"name": "Stavrahusen", "place": "hamlet"}}, {"type": "node", "id": 2787054856, "lat": 55.9065616, "lon": 13.0933055, "tags": {"name": "Felestad", "place": "hamlet"}}, {"type": "node", "id": 2837671788, "lat": 55.8467506, "lon": 13.0704217, "tags": {"name": "Tr\u00e4", "place": "hamlet"}}, {"type": "node", "id": 2887314354, "lat": 55.8758663, "lon": 13.0320306, "tags": {"name": "V\u00e4rm\u00f6", "place": "hamlet"}}, {"type": "node", "id": 2895079332, "lat": 55.9031549, "lon": 12.7204518, "tags": {"name": "B\u00e4ckviken", "place": "hamlet"}}, {"type": "node", "id": 2895079333, "lat": 55.9104536, "lon": 12.674536, "tags": {"name": "Kyrkbacken", "place": "hamlet", "population": "80", "ref:se:scb": "S3513"}}, {"type": "node", "id": 2923867728, "lat": 55.593035, "lon": 12.5970273, "tags": {"name": "Viberup", "place": "hamlet", "population": "31", "source:population": "Geodatastyrelsen - SNSOR - 2014", "wikidata": "Q12009647"}}, {"type": "node", "id": 2937733348, "lat": 55.9523881, "lon": 12.4662155, "tags": {"name": "Langstrup", "place": "hamlet", "population": "45"}}, {"type": "node", "id": 2937734240, "lat": 55.8967357, "lon": 12.4694771, "tags": {"name": "Stasevang Huse", "place": "hamlet", "population": "6"}}, {"type": "node", "id": 2937736025, "lat": 55.9321239, "lon": 12.4836633, "tags": {"name": "\u00c5v\u00e6nget", "place": "hamlet", "population": "8"}}, {"type": "node", "id": 2937745369, "lat": 55.9501062, "lon": 12.4966398, "tags": {"name": "Storemose", "place": "hamlet", "population": "14"}}, {"type": "node", "id": 2937747079, "lat": 55.953672, "lon": 12.5062801, "tags": {"name": "Dagel\u00f8kke", "place": "hamlet", "population": "161"}}, {"type": "node", "id": 2937748996, "lat": 55.9793406, "lon": 12.4935687, "tags": {"name": "Toelt", "place": "hamlet", "population": "35"}}, {"type": "node", "id": 2937749678, "lat": 55.9756488, "lon": 12.4911332, "tags": {"name": "Nybo", "place": "hamlet", "population": "23"}}, {"type": "node", "id": 2937752455, "lat": 55.9862731, "lon": 12.4687529, "tags": {"name": "Brunemark", "place": "hamlet", "population": "46"}}, {"type": "node", "id": 2937753134, "lat": 55.9729524, "lon": 12.5356686, "tags": {"name": "Krogerup", "place": "hamlet", "population": "33"}}, {"type": "node", "id": 2937792285, "lat": 55.8484056, "lon": 12.497372, "tags": {"name": "G\u00f8ngehuse", "place": "hamlet", "population": "61"}}, {"type": "node", "id": 2937795386, "lat": 55.8536016, "lon": 12.5018781, "tags": {"name": "Sandbjerg", "place": "hamlet", "population": "61", "wikidata": "Q119857202"}}, {"type": "node", "id": 2937798668, "lat": 55.874104, "lon": 12.4771214, "tags": {"name": "Ister\u00f8d", "place": "hamlet", "population": "80", "wikidata": "Q85951433"}}, {"type": "node", "id": 2937799353, "lat": 55.885118, "lon": 12.4704105, "tags": {"name": "Overdam", "place": "hamlet", "population": "40"}}, {"type": "node", "id": 2940287540, "lat": 55.8025903, "lon": 12.5846323, "tags": {"name": "Spring-forbi", "place": "hamlet", "population": "6"}}, {"type": "node", "id": 2940287548, "lat": 55.8069438, "lon": 12.5505468, "tags": {"name": "Stampen", "place": "hamlet", "population": "5"}}, {"type": "node", "id": 2940287658, "lat": 55.771937, "lon": 12.5586659, "tags": {"name": "Kongens Lyngby Enghave", "place": "hamlet", "population": "7"}}, {"type": "node", "id": 2952108294, "lat": 55.7654227, "lon": 12.9166829, "tags": {"name": "Stenbocksvallar", "place": "hamlet"}}, {"type": "node", "id": 3189998867, "lat": 55.6276884, "lon": 13.2477087, "tags": {"name": "Peppark\u00e4rr", "place": "hamlet"}}, {"type": "node", "id": 3250821735, "lat": 55.8067152, "lon": 12.5589218}, {"type": "node", "id": 3250821736, "lat": 55.8067225, "lon": 12.5598748}, {"type": "node", "id": 3250821738, "lat": 55.8068155, "lon": 12.5589381}, {"type": "node", "id": 3250821739, "lat": 55.8068841, "lon": 12.5599147}, {"type": "node", "id": 3250821743, "lat": 55.807102, "lon": 12.5599235}, {"type": "node", "id": 3250821744, "lat": 55.8071248, "lon": 12.559089}, {"type": "node", "id": 3250826446, "lat": 55.8029891, "lon": 12.5593588}, {"type": "node", "id": 3250826449, "lat": 55.8030846, "lon": 12.5594792}, {"type": "node", "id": 3250826451, "lat": 55.8031373, "lon": 12.5579707}, {"type": "node", "id": 3250826452, "lat": 55.8031554, "lon": 12.5595336}, {"type": "node", "id": 3250826453, "lat": 55.8032476, "lon": 12.5595829}, {"type": "node", "id": 3250826454, "lat": 55.8033445, "lon": 12.5596101}, {"type": "node", "id": 3250826457, "lat": 55.8036591, "lon": 12.559665}, {"type": "node", "id": 3250826459, "lat": 55.8035928, "lon": 12.5610966}, {"type": "node", "id": 3250826460, "lat": 55.8035992, "lon": 12.5611654}, {"type": "node", "id": 3250827182, "lat": 55.8044528, "lon": 12.5592868}, {"type": "node", "id": 3250827192, "lat": 55.8050874, "lon": 12.5576279}, {"type": "node", "id": 3250827213, "lat": 55.8059205, "lon": 12.5593486}, {"type": "node", "id": 3250827216, "lat": 55.8059798, "lon": 12.5610369}, {"type": "node", "id": 3250827217, "lat": 55.8060545, "lon": 12.5593676}, {"type": "node", "id": 3250827218, "lat": 55.8062101, "lon": 12.5606234}, {"type": "node", "id": 3250827219, "lat": 55.8062223, "lon": 12.5593846}, {"type": "node", "id": 3250827223, "lat": 55.806296, "lon": 12.5593266}, {"type": "node", "id": 3250827225, "lat": 55.806318, "lon": 12.5605361}, {"type": "node", "id": 3250827226, "lat": 55.8063597, "lon": 12.5605562}, {"type": "node", "id": 3250827227, "lat": 55.8063759, "lon": 12.5592259}, {"type": "node", "id": 3250827231, "lat": 55.8064114, "lon": 12.5602098}, {"type": "node", "id": 3250827232, "lat": 55.8064725, "lon": 12.5590566}, {"type": "node", "id": 3250827235, "lat": 55.8065391, "lon": 12.5589851}, {"type": "node", "id": 3250827236, "lat": 55.8065409, "lon": 12.5597319}, {"type": "node", "id": 3250827239, "lat": 55.8066057, "lon": 12.5598212}, {"type": "node", "id": 3250827240, "lat": 55.8066112, "lon": 12.5589511}, {"type": "node", "id": 3250827241, "lat": 55.8066422, "lon": 12.5598423}, {"type": "node", "id": 3250827361, "lat": 55.8036005, "lon": 12.5610185}, {"type": "node", "id": 3250827362, "lat": 55.803618, "lon": 12.5612148}, {"type": "node", "id": 3250827363, "lat": 55.8036225, "lon": 12.5609577}, {"type": "node", "id": 3250827364, "lat": 55.8036425, "lon": 12.5612515}, {"type": "node", "id": 3250827365, "lat": 55.8036541, "lon": 12.560906}, {"type": "node", "id": 3250827366, "lat": 55.8036663, "lon": 12.5612665}, {"type": "node", "id": 3250827367, "lat": 55.803696, "lon": 12.5616074}, {"type": "node", "id": 3250827369, "lat": 55.8037044, "lon": 12.5608612}, {"type": "node", "id": 3250827370, "lat": 55.8037044, "lon": 12.561286}, {"type": "node", "id": 3250827372, "lat": 55.8037431, "lon": 12.5612986}, {"type": "node", "id": 3250827373, "lat": 55.8037496, "lon": 12.5608302}, {"type": "node", "id": 3250827374, "lat": 55.8037794, "lon": 12.5608045}, {"type": "node", "id": 3250827376, "lat": 55.8038113, "lon": 12.5607646}, {"type": "node", "id": 3250827380, "lat": 55.8038777, "lon": 12.5597736}, {"type": "node", "id": 3250827381, "lat": 55.803875, "lon": 12.5598674}, {"type": "node", "id": 3250827383, "lat": 55.803888, "lon": 12.5599196}, {"type": "node", "id": 3250827385, "lat": 55.8039087, "lon": 12.5599632}, {"type": "node", "id": 3250827386, "lat": 55.8039113, "lon": 12.5599643}, {"type": "node", "id": 3250827388, "lat": 55.8039502, "lon": 12.5599934}, {"type": "node", "id": 3250827462, "lat": 55.8040601, "lon": 12.5594705}, {"type": "node", "id": 3250827466, "lat": 55.803794, "lon": 12.5594625}, {"type": "node", "id": 3250827467, "lat": 55.8039237, "lon": 12.5581992}, {"type": "node", "id": 3250827468, "lat": 55.8043028, "lon": 12.5616418}, {"type": "node", "id": 3250827470, "lat": 55.804295, "lon": 12.5610144}, {"type": "node", "id": 3250827471, "lat": 55.8042967, "lon": 12.5577954}, {"type": "node", "id": 3250827488, "lat": 55.805186, "lon": 12.5592713}, {"type": "node", "id": 3250868697, "lat": 55.806466, "lon": 12.5600836}, {"type": "node", "id": 3250868698, "lat": 55.8064817, "lon": 12.5596462}, {"type": "node", "id": 3347284072, "lat": 55.5826928, "lon": 13.1540786, "tags": {"name": "Bj\u00e4rsh\u00f6gs station", "place": "hamlet"}}, {"type": "node", "id": 3347284073, "lat": 55.5807994, "lon": 13.1488453, "tags": {"name": "Kvissle", "place": "hamlet"}}, {"type": "node", "id": 3355325032, "lat": 55.5977463, "lon": 13.2264979, "tags": {"name": "Vinninge", "place": "hamlet"}}, {"type": "node", "id": 3366723755, "lat": 55.8346042, "lon": 13.0668045, "tags": {"name": "Huvudstorp", "place": "hamlet"}}, {"type": "node", "id": 3368829374, "lat": 55.8248644, "lon": 13.0675792, "tags": {"name": "Dagstorp", "place": "hamlet"}}, {"type": "node", "id": 3392622144, "lat": 55.9327604, "lon": 13.0886209, "tags": {"name": "Munkag\u00e5rda", "place": "hamlet"}}, {"type": "node", "id": 3415574724, "lat": 55.9132169, "lon": 12.6896394, "tags": {"landuse": "residential", "name": "Tuna", "note": "st\u00f6rsta byn p\u00e5 ven, men fortf inte t\u00e4tort, beh\u00e5lla villageklassning?", "place": "village", "population": "135", "ref:se:scb": "S3809", "wikidata": "Q10706251"}}, {"type": "node", "id": 3636596509, "lat": 55.7717019, "lon": 13.1421231, "tags": {"name": "Framn\u00e4s", "place": "hamlet"}}, {"type": "node", "id": 3837567368, "lat": 55.9703382, "lon": 12.8623955, "tags": {"name": "Norra Vall\u00e5kra", "place": "hamlet"}}, {"type": "node", "id": 3860627626, "lat": 55.6754237, "lon": 12.5848539}, {"type": "node", "id": 3860627627, "lat": 55.6754105, "lon": 12.5849101}, {"type": "node", "id": 3860627628, "lat": 55.6752392, "lon": 12.5847839}, {"type": "node", "id": 3860627629, "lat": 55.6752524, "lon": 12.5847277}, {"type": "node", "id": 3881679071, "lat": 55.7100863, "lon": 13.0739107, "tags": {"name": "\u00d6nnerup", "place": "hamlet"}}, {"type": "node", "id": 4030746713, "lat": 55.9438831, "lon": 12.9181176, "tags": {"name": "Ottarp", "place": "hamlet"}}, {"type": "node", "id": 4031128152, "lat": 55.9762285, "lon": 12.7921752, "tags": {"name": "Katsl\u00f6sa", "place": "hamlet"}}, {"type": "node", "id": 4031128153, "lat": 55.9775673, "lon": 12.7786319, "tags": {"name": "Rya", "place": "hamlet"}}, {"type": "node", "id": 4051782102, "lat": 55.9086574, "lon": 12.8227481, "tags": {"name": "Brohusen", "place": "hamlet"}}, {"type": "node", "id": 4051794475, "lat": 55.9245952, "lon": 12.9022139, "tags": {"name": "Arrarp", "place": "hamlet"}}, {"type": "node", "id": 4051794476, "lat": 55.9288118, "lon": 12.9347773, "tags": {"name": "Gluggstorp", "place": "hamlet"}}, {"type": "node", "id": 4051794477, "lat": 55.9282197, "lon": 12.8394087, "tags": {"name": "Hillesh\u00f6g", "place": "hamlet"}}, {"type": "node", "id": 4165351540, "lat": 55.9802434, "lon": 12.9338923, "tags": {"name": "Tjutebro", "place": "hamlet"}}, {"type": "node", "id": 4246405880, "lat": 55.9690191, "lon": 12.8281881, "tags": {"name": "Kvistofta", "place": "hamlet"}}, {"type": "node", "id": 4255398026, "lat": 55.9428191, "lon": 13.1065563, "tags": {"name": "K\u00e4llstorp", "place": "hamlet"}}, {"type": "node", "id": 4262941382, "lat": 55.9413737, "lon": 13.1543912, "tags": {"name": "R\u00e4vatofta", "place": "hamlet"}}, {"type": "node", "id": 4340237871, "lat": 55.8969124, "lon": 12.8612029, "tags": {"name": "Tullstorp", "place": "hamlet"}}, {"type": "node", "id": 4438371147, "lat": 55.7198502, "lon": 13.1030577, "tags": {"name": "Lilleby", "place": "hamlet"}}, {"type": "node", "id": 4438371148, "lat": 55.7356655, "lon": 13.1043318, "tags": {"name": "Laxmans \u00c5karp", "place": "hamlet"}}, {"type": "node", "id": 4438371149, "lat": 55.7338216, "lon": 13.0821807, "tags": {"name": "T\u00e5ngarna", "place": "hamlet"}}, {"type": "node", "id": 4653098716, "lat": 55.9746927, "lon": 12.834306, "tags": {"name": "Fastm\u00e5rup", "place": "hamlet"}}, {"type": "node", "id": 4946158054, "lat": 55.7838676, "lon": 13.0046368, "tags": {"name": "H\u00e5kantorp", "place": "hamlet"}}, {"type": "node", "id": 5347815942, "lat": 55.9268094, "lon": 12.7938969, "tags": {"name": "Rustningshamn", "place": "hamlet"}}, {"type": "node", "id": 5370770040, "lat": 55.8050912, "lon": 12.5592533}, {"type": "node", "id": 5370770041, "lat": 55.8053105, "lon": 12.5581522}, {"type": "node", "id": 5370770042, "lat": 55.8053105, "lon": 12.5577767}, {"type": "node", "id": 5648888018, "lat": 55.920978, "lon": 12.4943888, "tags": {"name": "Uller\u00f8d", "place": "village", "wikidata": "Q28836037"}}, {"type": "node", "id": 5648890191, "lat": 55.9114909, "lon": 12.4745692, "tags": {"name": "Br\u00f8nsholm", "place": "hamlet"}}, {"type": "node", "id": 5873834588, "lat": 55.7439027, "lon": 13.2479667, "tags": {"name": "V\u00e4stra Odarsl\u00f6v", "place": "hamlet"}}, {"type": "node", "id": 6462954433, "lat": 55.6196726, "lon": 13.0855536, "tags": {"name": "Sege", "place": "hamlet"}}, {"type": "node", "id": 7179384429, "lat": 55.6389942, "lon": 13.0286693}, {"type": "node", "id": 7179384430, "lat": 55.5728132, "lon": 13.0733012}, {"type": "node", "id": 7179384431, "lat": 55.618595, "lon": 13.1295052}, {"type": "node", "id": 7179384432, "lat": 55.5589569, "lon": 13.0744171}, {"type": "node", "id": 7179384433, "lat": 55.5506553, "lon": 13.0551052}, {"type": "node", "id": 7179384434, "lat": 55.5717214, "lon": 12.9261016}, {"type": "node", "id": 7179384435, "lat": 55.5717214, "lon": 12.929449}, {"type": "node", "id": 7179384436, "lat": 55.5708479, "lon": 12.9351568}, {"type": "node", "id": 7179384437, "lat": 55.5479606, "lon": 12.9813765}, {"type": "node", "id": 7179384438, "lat": 55.5484461, "lon": 12.9964827}, {"type": "node", "id": 7179384439, "lat": 55.6369709, "lon": 13.0332117}, {"type": "node", "id": 7179384440, "lat": 55.6040667, "lon": 12.9696644}, {"type": "node", "id": 7179384441, "lat": 55.6211326, "lon": 13.0796539}, {"type": "node", "id": 7179384442, "lat": 55.620101, "lon": 13.0621913}, {"type": "node", "id": 7179384443, "lat": 55.5904481, "lon": 13.1123113}, {"type": "node", "id": 7179384444, "lat": 55.6347628, "lon": 13.0151003}, {"type": "node", "id": 7179384445, "lat": 55.5985248, "lon": 12.9438783}, {"type": "node", "id": 7179384446, "lat": 55.6280631, "lon": 13.0767223}, {"type": "node", "id": 7179384447, "lat": 55.6271914, "lon": 13.018021}, {"type": "node", "id": 7179384448, "lat": 55.5923415, "lon": 12.9292541}, {"type": "node", "id": 7179384449, "lat": 55.6433538, "lon": 13.0933856}, {"type": "node", "id": 7179384450, "lat": 55.5962824, "lon": 13.1109529}, {"type": "node", "id": 7179384451, "lat": 55.6218627, "lon": 13.0207815}, {"type": "node", "id": 7179384452, "lat": 55.5949209, "lon": 12.9243045}, {"type": "node", "id": 7179384453, "lat": 55.6323407, "lon": 13.0470401}, {"type": "node", "id": 7179384454, "lat": 55.6229396, "lon": 12.9911853}, {"type": "node", "id": 7179384455, "lat": 55.5708236, "lon": 12.9314661}, {"type": "node", "id": 7179384456, "lat": 55.5709935, "lon": 13.0704259}, {"type": "node", "id": 7179384457, "lat": 55.6161369, "lon": 13.0061043}, {"type": "node", "id": 7179384458, "lat": 55.5681788, "lon": 12.9449415}, {"type": "node", "id": 7179384459, "lat": 55.5840937, "lon": 13.087635}, {"type": "node", "id": 7179384460, "lat": 55.6383373, "lon": 13.0044765}, {"type": "node", "id": 7179384461, "lat": 55.6144198, "lon": 12.9705041}, {"type": "node", "id": 7179384462, "lat": 55.6117852, "lon": 13.0706505}, {"type": "node", "id": 7179384463, "lat": 55.6247406, "lon": 12.9909832}, {"type": "node", "id": 7179384464, "lat": 55.6025374, "lon": 12.9618388}, {"type": "node", "id": 7179384465, "lat": 55.6488742, "lon": 13.0832191}, {"type": "node", "id": 7179384466, "lat": 55.6254296, "lon": 12.999883}, {"type": "node", "id": 7179384467, "lat": 55.5817272, "lon": 12.91734}, {"type": "node", "id": 7179384468, "lat": 55.6388701, "lon": 13.0577013}, {"type": "node", "id": 7179384469, "lat": 55.6246261, "lon": 13.0237615}, {"type": "node", "id": 7179384470, "lat": 55.57214, "lon": 12.9109073}, {"type": "node", "id": 7179384471, "lat": 55.6283393, "lon": 13.0489096}, {"type": "node", "id": 7179384472, "lat": 55.6004497, "lon": 13.1117041}, {"type": "node", "id": 7179384473, "lat": 55.6140159, "lon": 12.9919667}, {"type": "node", "id": 7179384474, "lat": 55.5671354, "lon": 12.9217672}, {"type": "node", "id": 7179384475, "lat": 55.6358579, "lon": 13.0436157}, {"type": "node", "id": 7179384476, "lat": 55.6204965, "lon": 13.0861115}, {"type": "node", "id": 7179384477, "lat": 55.6191615, "lon": 12.9812767}, {"type": "node", "id": 7179384478, "lat": 55.5706781, "lon": 12.9403495}, {"type": "node", "id": 7179384479, "lat": 55.6385582, "lon": 13.0206012}, {"type": "node", "id": 7179384480, "lat": 55.5754335, "lon": 13.08609}, {"type": "node", "id": 7179384481, "lat": 55.6223438, "lon": 13.0620345}, {"type": "node", "id": 7179384482, "lat": 55.5915394, "lon": 13.1036424}, {"type": "node", "id": 7179384483, "lat": 55.6390426, "lon": 13.0133056}, {"type": "node", "id": 7179384484, "lat": 55.5964712, "lon": 12.9329191}, {"type": "node", "id": 7179384485, "lat": 55.6350912, "lon": 13.0897354}, {"type": "node", "id": 7179384486, "lat": 55.6372812, "lon": 12.9969408}, {"type": "node", "id": 7179384487, "lat": 55.5922856, "lon": 12.926878}, {"type": "node", "id": 7179384488, "lat": 55.6520233, "lon": 13.098278}, {"type": "node", "id": 7179384489, "lat": 55.6244279, "lon": 13.0150412}, {"type": "node", "id": 7179384490, "lat": 55.5944165, "lon": 12.9219611}, {"type": "node", "id": 7179384491, "lat": 55.6463489, "lon": 13.070683}, {"type": "node", "id": 7179384492, "lat": 55.6194747, "lon": 12.9923521}, {"type": "node", "id": 7179384493, "lat": 55.5771111, "lon": 12.9121274}, {"type": "node", "id": 7179384494, "lat": 55.6155614, "lon": 13.0005884}, {"type": "node", "id": 7179384495, "lat": 55.5630905, "lon": 12.9464573}, {"type": "node", "id": 7179384496, "lat": 55.5845303, "lon": 13.0918836}, {"type": "node", "id": 7179384497, "lat": 55.6171194, "lon": 12.9901565}, {"type": "node", "id": 7179384498, "lat": 55.5507004, "lon": 12.9578523}, {"type": "node", "id": 7179384499, "lat": 55.6099527, "lon": 12.9716205}, {"type": "node", "id": 7179384500, "lat": 55.6219614, "lon": 13.0827861}, {"type": "node", "id": 7179384501, "lat": 55.6134786, "lon": 13.0674169}, {"type": "node", "id": 7179384502, "lat": 55.5854277, "lon": 13.1112814}, {"type": "node", "id": 7179384503, "lat": 55.6245531, "lon": 12.9947313}, {"type": "node", "id": 7179384504, "lat": 55.5986912, "lon": 12.951008}, {"type": "node", "id": 7179384505, "lat": 55.6246754, "lon": 13.0658416}, {"type": "node", "id": 7179384506, "lat": 55.6256109, "lon": 13.0078106}, {"type": "node", "id": 7179384507, "lat": 55.5946027, "lon": 12.929882}, {"type": "node", "id": 7179384508, "lat": 55.6307246, "lon": 13.0550952}, {"type": "node", "id": 7179384509, "lat": 55.5951073, "lon": 13.1046218}, {"type": "node", "id": 7179384510, "lat": 55.6224013, "lon": 13.0247132}, {"type": "node", "id": 7179384511, "lat": 55.5698974, "lon": 12.9110724}, {"type": "node", "id": 7179384512, "lat": 55.6292007, "lon": 13.0472609}, {"type": "node", "id": 7179384513, "lat": 55.5682031, "lon": 13.080554}, {"type": "node", "id": 7179384514, "lat": 55.6034933, "lon": 13.1170106}, {"type": "node", "id": 7179384515, "lat": 55.62335, "lon": 13.0071778}, {"type": "node", "id": 7179384516, "lat": 55.5701588, "lon": 12.9221546}, {"type": "node", "id": 7179384517, "lat": 55.6371321, "lon": 13.0403488}, {"type": "node", "id": 7179384518, "lat": 55.6200221, "lon": 12.9796269}, {"type": "node", "id": 7179384519, "lat": 55.5702301, "lon": 12.9443522}, {"type": "node", "id": 7179384520, "lat": 55.634943, "lon": 13.0230299}, {"type": "node", "id": 7179384521, "lat": 55.5826626, "lon": 13.0863046}, {"type": "node", "id": 7179384522, "lat": 55.6139857, "lon": 13.0772585}, {"type": "node", "id": 7179384523, "lat": 55.5906907, "lon": 13.0992651}, {"type": "node", "id": 7179384524, "lat": 55.6386551, "lon": 13.0084132}, {"type": "node", "id": 7179384525, "lat": 55.6195004, "lon": 12.9764887}, {"type": "node", "id": 7179384526, "lat": 55.6370079, "lon": 13.0951881}, {"type": "node", "id": 7179384527, "lat": 55.6335057, "lon": 12.9905346}, {"type": "node", "id": 7179384528, "lat": 55.5936312, "lon": 12.9267794}, {"type": "node", "id": 7179384529, "lat": 55.6489271, "lon": 13.0855989}, {"type": "node", "id": 7179384530, "lat": 55.6262723, "lon": 12.9974405}, {"type": "node", "id": 7179384531, "lat": 55.5902492, "lon": 12.9167135}, {"type": "node", "id": 7179384532, "lat": 55.6439465, "lon": 13.0637009}, {"type": "node", "id": 7179384533, "lat": 55.5504125, "lon": 13.0469942}, {"type": "node", "id": 7179384534, "lat": 55.6174643, "lon": 13.0064167}, {"type": "node", "id": 7179384535, "lat": 55.5748872, "lon": 12.9130842}, {"type": "node", "id": 7179384536, "lat": 55.6284106, "lon": 13.0520811}, {"type": "node", "id": 7179384537, "lat": 55.553277, "lon": 13.0648469}, {"type": "node", "id": 7179384538, "lat": 55.6127612, "lon": 12.9960257}, {"type": "node", "id": 7179384539, "lat": 55.5677295, "lon": 12.9144037}, {"type": "node", "id": 7179384540, "lat": 55.6188407, "lon": 12.9868573}, {"type": "node", "id": 7486543827, "lat": 55.5865068, "lon": 13.1414948, "tags": {"name": "K\u00f6lnan", "place": "hamlet"}}, {"type": "node", "id": 7486543838, "lat": 55.6507458, "lon": 13.143761, "tags": {"name": "Norrev\u00e5ng", "place": "hamlet"}}, {"type": "node", "id": 7486543840, "lat": 55.6444749, "lon": 13.1403391, "tags": {"name": "Kabbarp", "place": "hamlet"}}, {"type": "node", "id": 7486778646, "lat": 55.9249137, "lon": 12.8460034, "tags": {"name": "Nyg\u00e5rd", "place": "hamlet"}}, {"type": "node", "id": 7486778649, "lat": 55.9134773, "lon": 12.8281808, "tags": {"name": "Sm\u00f6rh\u00e5lan", "place": "hamlet"}}, {"type": "node", "id": 7486778654, "lat": 55.9490359, "lon": 12.8960405, "tags": {"name": "\u00c4skatorp", "place": "hamlet"}}, {"type": "node", "id": 7486795812, "lat": 55.8783734, "lon": 12.9366627, "tags": {"name": "Lilla H\u00f6rstad", "place": "hamlet"}}, {"type": "node", "id": 7486795814, "lat": 55.9074139, "lon": 12.9231585, "tags": {"name": "R\u00f6nnebergag\u00e5rden", "place": "hamlet"}}, {"type": "node", "id": 7486795821, "lat": 55.8711677, "lon": 12.9045833, "tags": {"name": "\u00c4ngahusen", "place": "hamlet"}}, {"type": "node", "id": 7486795824, "lat": 55.8654792, "lon": 13.0302883, "tags": {"name": "Tostarp", "place": "hamlet"}}, {"type": "node", "id": 7486795828, "lat": 55.8584081, "lon": 12.9810469, "tags": {"name": "Elvireborg", "place": "hamlet"}}, {"type": "node", "id": 7486795832, "lat": 55.8660804, "lon": 12.9558441, "tags": {"name": "\u00d6sterf\u00e4lad", "place": "hamlet"}}, {"type": "node", "id": 7486795833, "lat": 55.8624154, "lon": 12.934395, "tags": {"name": "H\u00e4ljarpsg\u00e5rden", "place": "hamlet"}}, {"type": "node", "id": 7486795840, "lat": 55.9131186, "lon": 12.979196, "tags": {"name": "V\u00e4sterg\u00e5rd", "place": "hamlet"}}, {"type": "node", "id": 7486822239, "lat": 55.9701751, "lon": 13.1669671, "tags": {"name": "L\u00e5ngar\u00f6d", "place": "hamlet"}}, {"type": "node", "id": 7486857200, "lat": 55.8827459, "lon": 13.1189195, "tags": {"name": "\u00d6stra Karlsn\u00e4s", "place": "hamlet"}}, {"type": "node", "id": 7486857201, "lat": 55.8789633, "lon": 13.1189746, "tags": {"name": "V\u00e4stra Karlsn\u00e4s", "place": "hamlet"}}, {"type": "node", "id": 7486857213, "lat": 55.895204, "lon": 12.9999125, "tags": {"name": "Heden", "place": "hamlet"}}, {"type": "node", "id": 7486857221, "lat": 55.917667, "lon": 13.1229095, "tags": {"name": "Heleneborg", "place": "hamlet"}}, {"type": "node", "id": 7486857234, "lat": 55.8880781, "lon": 13.1167586, "tags": {"name": "Ingelstorp", "place": "hamlet"}}, {"type": "node", "id": 7486857235, "lat": 55.8886909, "lon": 13.1584498, "tags": {"name": "H\u00f6gestorp", "place": "hamlet"}}, {"type": "node", "id": 7486857236, "lat": 55.9196733, "lon": 13.0496974, "tags": {"name": "Tarstad", "place": "hamlet"}}, {"type": "node", "id": 7486861452, "lat": 55.9956801, "lon": 13.0414913, "tags": {"name": "Simmelsberga g\u00e5rd", "place": "hamlet"}}, {"type": "node", "id": 7486861459, "lat": 55.9311206, "lon": 13.0269104, "tags": {"name": "Videlycke", "place": "hamlet"}}, {"type": "node", "id": 7486861462, "lat": 55.9234512, "lon": 12.9801307, "tags": {"name": "Kl\u00e4singe", "place": "hamlet"}}, {"type": "node", "id": 7486861469, "lat": 55.9562306, "lon": 13.110155, "tags": {"name": "Skogsg\u00e5rd", "place": "hamlet"}}, {"type": "node", "id": 7486861472, "lat": 55.986695, "lon": 12.9557033, "tags": {"name": "Valleberga", "place": "hamlet"}}, {"type": "node", "id": 7486861475, "lat": 55.960711, "lon": 12.9642513, "tags": {"name": "Gultarp", "place": "hamlet"}}, {"type": "node", "id": 7486861476, "lat": 55.9427406, "lon": 12.9482355, "tags": {"name": "R\u00f6nnarp", "place": "hamlet"}}, {"type": "node", "id": 7486861478, "lat": 55.9903905, "lon": 13.0254396, "tags": {"name": "Sj\u00f6borg", "place": "hamlet"}}, {"type": "node", "id": 7486866574, "lat": 55.8303465, "lon": 12.9633005, "tags": {"name": "Bj\u00f6rnahusen", "place": "hamlet"}}, {"type": "node", "id": 7486866789, "lat": 55.9650905, "lon": 12.9906999, "tags": {"name": "Vasag\u00e5rden", "place": "hamlet"}}, {"type": "node", "id": 7486866792, "lat": 55.9588282, "lon": 13.0152012, "tags": {"name": "Loarp", "place": "hamlet"}}, {"type": "node", "id": 7486866796, "lat": 55.9442489, "lon": 12.9818666, "tags": {"name": "Norraby", "place": "hamlet"}}, {"type": "node", "id": 7486866800, "lat": 55.9765165, "lon": 12.9072105, "tags": {"name": "Ormastorp", "place": "hamlet"}}, {"type": "node", "id": 7486866803, "lat": 55.9904511, "lon": 12.976365, "tags": {"name": "Framn\u00e4s", "place": "hamlet"}}, {"type": "node", "id": 7486866804, "lat": 56.0011387, "lon": 13.0034742, "tags": {"name": "Simmelsberga", "place": "hamlet"}}, {"type": "node", "id": 7486866805, "lat": 55.9978378, "lon": 12.9455731, "tags": {"name": "Elestorp", "place": "hamlet"}}, {"type": "node", "id": 7486871985, "lat": 55.7508114, "lon": 13.0993016, "tags": {"name": "Nyboholm", "place": "hamlet"}}, {"type": "node", "id": 7486871987, "lat": 55.7962199, "lon": 13.0043842, "tags": {"name": "Bj\u00f6rnstorp", "place": "hamlet"}}, {"type": "node", "id": 7486872002, "lat": 55.7859683, "lon": 12.9386699, "tags": {"name": "Lund\u00e5kra", "place": "hamlet"}}, {"type": "node", "id": 7486872004, "lat": 55.765578, "lon": 12.9243788, "tags": {"name": "Sj\u00f6bo", "place": "hamlet"}}, {"type": "node", "id": 7486872024, "lat": 55.7800883, "lon": 13.0599868, "tags": {"name": "Ellbo", "place": "hamlet"}}, {"type": "node", "id": 7486872026, "lat": 55.7774694, "lon": 13.0467065, "tags": {"name": "H\u00f6gs bost\u00e4lle", "place": "hamlet"}}, {"type": "node", "id": 7486872036, "lat": 55.82804, "lon": 13.0936682, "tags": {"name": "Allarp", "place": "hamlet"}}, {"type": "node", "id": 7486872044, "lat": 55.8469742, "lon": 13.1693047, "tags": {"name": "Hermansro", "place": "hamlet"}}, {"type": "node", "id": 7486872048, "lat": 55.833474, "lon": 13.1613481, "tags": {"name": "Olstorp", "place": "hamlet"}}, {"type": "node", "id": 7486872051, "lat": 55.8200743, "lon": 13.1637362, "tags": {"name": "Hermanstorp", "place": "hamlet"}}, {"type": "node", "id": 7486872052, "lat": 55.8133818, "lon": 13.1459526, "tags": {"name": "Olivelugn", "place": "hamlet"}}, {"type": "node", "id": 7486872054, "lat": 55.8214323, "lon": 12.9984442, "tags": {"name": "Furun\u00e4s", "place": "hamlet"}}, {"type": "node", "id": 7486872055, "lat": 55.8119103, "lon": 12.9948721, "tags": {"name": "Furuhill", "place": "hamlet"}}, {"type": "node", "id": 7486872056, "lat": 55.8358009, "lon": 12.9607382, "tags": {"name": "Bakhagarna", "place": "hamlet"}}, {"type": "node", "id": 7486872059, "lat": 55.857494, "lon": 13.0997037, "tags": {"name": "Gissleberga", "place": "hamlet"}}, {"type": "node", "id": 7500627339, "lat": 55.7170231, "lon": 13.1753737, "tags": {"name": "Kobj\u00e4rsv\u00e5ngen", "place": "hamlet"}}, {"type": "node", "id": 7500712661, "lat": 55.5745125, "lon": 12.9117865, "tags": {"name": "Sibbarp", "place": "hamlet"}}, {"type": "node", "id": 7502643774, "lat": 55.6060355, "lon": 13.1986511, "tags": {"name": "\u00c4ngag\u00e5rden", "place": "hamlet"}}, {"type": "node", "id": 7502686899, "lat": 55.7454363, "lon": 13.2297463, "tags": {"name": "V\u00e4strag\u00e5rd", "place": "hamlet"}}, {"type": "node", "id": 7502687989, "lat": 55.7654299, "lon": 13.2177935, "tags": {"name": "H\u00e5stads bost\u00e4lle", "place": "hamlet"}}, {"type": "node", "id": 7503049870, "lat": 55.6801732, "lon": 13.1310963, "tags": {"name": "Svarthj\u00e4rup", "place": "hamlet"}}, {"type": "node", "id": 7503069503, "lat": 55.8715034, "lon": 12.9930631, "tags": {"name": "Billeberga tre", "place": "hamlet"}}, {"type": "node", "id": 7504759880, "lat": 55.7989979, "lon": 13.2253935, "tags": {"name": "Benstorp", "place": "hamlet"}}, {"type": "node", "id": 7504774330, "lat": 55.942384, "lon": 13.227448, "tags": {"name": "P\u00e5rup", "place": "hamlet"}}, {"type": "node", "id": 7504780557, "lat": 55.8164369, "lon": 13.2332276, "tags": {"name": "V\u00e4ggarp", "place": "hamlet"}}, {"type": "node", "id": 7504796936, "lat": 55.850394, "lon": 13.2282798, "tags": {"name": "N\u00e4s", "place": "hamlet"}}, {"type": "node", "id": 7504801779, "lat": 55.9845922, "lon": 13.2248287, "tags": {"name": "Allarp", "place": "hamlet"}}, {"type": "node", "id": 7504803428, "lat": 55.8186594, "lon": 13.1755196, "tags": {"name": "Virketorp", "place": "hamlet"}}, {"type": "node", "id": 7504804443, "lat": 55.9533075, "lon": 13.2252001, "tags": {"name": "Sonarps\u00e4ngar", "place": "hamlet"}}, {"type": "node", "id": 7504814703, "lat": 55.9033613, "lon": 13.1957477, "tags": {"name": "\u00d6sterg\u00e5rd", "place": "hamlet"}}, {"type": "node", "id": 7504899333, "lat": 55.9018819, "lon": 13.1733894, "tags": {"name": "Vittsk\u00f6vle bost\u00e4lle", "place": "hamlet"}}, {"type": "node", "id": 7504900016, "lat": 55.9677764, "lon": 13.2060815, "tags": {"name": "Bj\u00e4rnarp", "place": "hamlet"}}, {"type": "node", "id": 7504908006, "lat": 55.9539645, "lon": 13.1956526, "tags": {"name": "Sk\u00f6nab\u00e4ck", "place": "hamlet"}}, {"type": "node", "id": 7504912985, "lat": 55.9416978, "lon": 13.2097062, "tags": {"name": "\u00c4pplatofta", "place": "hamlet"}}, {"type": "node", "id": 7504936703, "lat": 55.9629815, "lon": 13.2293424, "tags": {"name": "Sonarp", "place": "hamlet"}}, {"type": "node", "id": 8002713611, "lat": 55.8052282, "lon": 12.5592757}, {"type": "node", "id": 8617819803, "lat": 55.6098208, "lon": 12.613894, "tags": {"name": "T\u00f8mmerup", "place": "hamlet", "wikidata": "Q12008132"}}, {"type": "node", "id": 9893299968, "lat": 55.5684262, "lon": 12.9448704}, {"type": "node", "id": 10310406174, "lat": 55.8427623, "lon": 12.5351671, "tags": {"name": "Tr\u00f8r\u00f8d", "place": "village", "population": "8576", "source": "geonames.org", "wikidata": "Q3432926", "wikipedia": "da:Tr\u00f8r\u00f8d"}}, {"type": "node", "id": 10310406175, "lat": 55.8606611, "lon": 12.4965439, "tags": {"name": "Br\u00e5deb\u00e6k", "note": "Er en bydel i H\u00f8rsholm", "place": "village", "wikidata": "Q12304511", "wikipedia": "da:Br\u00e5deb\u00e6k"}}, {"type": "node", "id": 10558988510, "lat": 55.5822246, "lon": 12.6000161, "tags": {"name": "Ullerup", "place": "hamlet", "population": "87", "source": "Local knowledge", "source:population": "Geodatastyrelsen - SNSOR - 2014", "wikidata": "Q19393802"}}, {"type": "node", "id": 11226406626, "lat": 55.7363582, "lon": 13.1793184}, {"type": "node", "id": 11226406627, "lat": 55.7362233, "lon": 13.1793072}, {"type": "node", "id": 11226406628, "lat": 55.7364409, "lon": 13.1787794}, {"type": "node", "id": 11226406629, "lat": 55.7363741, "lon": 13.1787294}, {"type": "node", "id": 11298652375, "lat": 55.8405921, "lon": 12.5578098, "tags": {"name": "Frydenlund", "place": "hamlet"}}, {"type": "way", "id": 80575233, "nodes": [939988694, 1506213428, 939988701, 1506213452, 1506213486, 1506213487, 939988690, 1958862558, 1958862533, 939988699, 939988688, 1506213488, 2003077136, 2003077173, 939988698, 2003077134, 2003077133, 2003077132, 664117058, 664117056, 939988693, 1025125356, 1025217433, 939988705, 1025217466, 1958870427, 1958870428, 1958870430, 939988697, 939988694], "tags": {"landuse": "residential", "name": "Vallk\u00e4rra by", "place": "village"}}, {"type": "way", "id": 111595357, "nodes": [1271040970, 1271040981, 1271040974, 1271040967, 1271040968, 1271040966, 1507273099, 1271040969, 1271040976, 1271040972, 1507272973, 1271040975, 1507272896, 1976399113, 1271040959, 1098592329, 1098592964, 1098591338, 1098591896, 1098594025, 1098590676, 1098592644, 1098593261, 1098591632, 1098592105, 1944193883, 1098591596, 1944193880, 1944193857, 1098592064, 1944193852, 1098590243, 1271040964, 1271040979, 1271040980, 1271040961, 1271040962, 1271040971, 1271040963, 1271040978, 1271040970], "tags": {"landuse": "residential", "name": "Stora R\u00e5by", "place": "hamlet", "wikidata": "Q1826347"}}, {"type": "way", "id": 181251390, "nodes": [939988697, 1178977303, 939988704, 939988695, 939988702, 1916884510, 939988691, 1072356845, 1072356876, 1072356794, 1072356702, 939988700, 11226406626, 11226406627, 939988689, 11226406629, 11226406628, 1916662574, 1916662575, 271685702, 249801554, 1240586997, 1178994434, 269402733, 269402734, 269402735, 1072387761, 269402736, 1178891396, 1178891401, 1072356825, 1072356811, 1072356711, 1916662576, 1506213393, 1506213395, 1506213397, 939988703, 1506213433, 939988694, 939988697], "tags": {"landuse": "residential", "name": "Kors\u00e5ker", "place": "village"}}, {"type": "way", "id": 318710217, "nodes": [3250827182, 3250827462, 3250827466, 3250827467, 3250826451, 3250826446, 3250826449, 3250826452, 3250826453, 3250826454, 3250826457, 3250827380, 3250827381, 3250827383, 3250827385, 3250827386, 3250827388, 3250827376, 3250827374, 3250827373, 3250827369, 3250827365, 3250827363, 3250827361, 3250826459, 3250826460, 3250827362, 3250827364, 3250827366, 3250827370, 3250827372, 3250827367, 3250827468, 3250827470, 3250827216, 3250827218, 1669451384, 3250827225, 3250827226, 3250827231, 3250868697, 3250868698, 3250827236, 3250827239, 3250827241, 3250821736, 3250821739, 3250821743, 3250821744, 3250821738, 3250821735, 3250827240, 3250827235, 3250827232, 3250827227, 3250827223, 3250827219, 3250827217, 3250827213, 8002713611, 3250827488, 5370770040, 5370770041, 5370770042, 3250827192, 3250827471, 3250827182], "tags": {"alt_name": "R\u00e5dvad", "layer": "2", "name": "Raadvad", "place": "hamlet", "population": "88", "wikidata": "Q7386067", "wikipedia": "da:Raadvad"}}, {"type": "way", "id": 382851858, "nodes": [3860627626, 3860627627, 3860627628, 3860627629, 3860627626], "tags": {"height": "14.9", "place": "city", "roof:height": "3.7", "roof:shape": "gabled"}}, {"type": "way", "id": 769094632, "nodes": [7179384517, 7179384475, 7179384453, 7179384512, 7179384471, 7179384536, 7179384508, 7179384468, 7179384532, 7179384491, 7179384465, 7179384529, 7179384488, 7179384449, 7179384526, 7179384485, 7179384446, 7179384505, 7179384481, 7179384442, 7179384501, 7179384462, 7179384522, 7179384441, 7179384500, 7179384476, 7179384431, 7179384514, 7179384472, 7179384450, 7179384509, 7179384523, 7179384482, 7179384443, 7179384502, 7179384496, 7179384459, 7179384521, 7179384480, 7179384430, 7179384456, 7179384513, 7179384432, 7179384537, 7179384433, 7179384533, 7179384438, 7179384437, 7179384498, 7179384495, 7179384458, 9893299968, 7179384519, 7179384478, 7179384436, 7179384455, 7179384435, 7179384434, 7179384516, 7179384474, 7179384539, 7179384511, 7179384470, 7179384535, 7179384493, 7179384467, 7179384531, 7179384490, 7179384452, 7179384528, 7179384487, 7179384448, 7179384507, 7179384484, 7179384445, 7179384504, 7179384464, 7179384440, 7179384499, 7179384461, 7179384525, 7179384518, 7179384477, 7179384540, 7179384497, 7179384473, 7179384538, 7179384494, 7179384457, 7179384534, 7179384492, 7179384454, 7179384515, 7179384489, 7179384451, 7179384510, 7179384469, 7179384447, 7179384506, 7179384466, 7179384530, 7179384503, 7179384463, 7179384527, 7179384486, 7179384460, 7179384524, 7179384483, 7179384444, 7179384520, 7179384479, 7179384429, 7179384439, 7179384517], "tags": {"fixme": "What is the purpose of this line? It doesn't follow Malm\u00f6 kommun's border. Should it do that?"}}, {"type": "relation", "id": 10663667, "members": [{"type": "way", "ref": 769094632, "role": "outer"}, {"type": "node", "ref": 26804505, "role": "label"}], "tags": {"admin_level": "8", "alt_name:he": "\u05de\u05d0\u05dc\u05de\u05d5", "boundary": "administrative", "capital": "4", "name": "Malm\u00f6", "name:da": "Malm\u00f8", "name:de": "Malm\u00f6", "name:en": "Malmo", "name:fr": "Malm\u00f6 ou Malmoe", "name:he": "\u05de\u05d0\u05dc\u05de\u05d4", "name:hu": "Malm\u00f6", "name:ja": "\u30de\u30eb\u30e1", "name:ko": "\ub9d0\ubafc", "name:lt": "Malm\u0117", "name:mk": "\u041c\u0430\u043b\u043c\u0435", "name:ru": "\u041c\u0430\u043b\u044c\u043c\u0451", "name:sv": "Malm\u00f6", "name:yi": "\u05de\u05d0\u05dc\u05de\u05e2", "name:yue": "\u99ac\u5217\u9ea5", "name:zh": "\u9a6c\u5c14\u9ed8", "note": "T\u00e4tortsgr\u00e4nsen f\u00f6ljer inte LMs polygon slaviskt eftersom att denna inte t\u00e4ckte alla omr\u00e5den ordentligt.", "old_name:fr": "Malm\u0153", "place": "city", "population": "316588", "ref:BEF": "301706", "ref:KATEGORI": "T\u00e4tort", "ref:KKOD": "4", "ref:TATNR": "3604", "ref:se:pts:postort": "MALM\u00d6", "ref:se:scb": "3604", "source:boundary": "https://wiki.openstreetmap.org/wiki/WikiProject_Sweden/Open_data/Lantm%C3%A4teriet/GSD-Sverigekartor_vektor", "type": "boundary", "wikidata": "Q2211", "wikipedia": "sv:Malm\u00f6"}}]}