{"version": 0.6, "generator": "Overpass API 0.7.61.5 4133829e", "osm3s": {"timestamp_osm_base": "2024-03-06T11:03:20Z", "copyright": "The data included in this document is from www.openstreetmap.org. The data is made available under ODbL."}, "elements": [{"type": "node", "id": 4120594393, "lat": -3.1559028, "lon": 37.1010014}, {"type": "node", "id": 4120594394, "lat": -3.1553103, "lon": 37.1017101}, {"type": "node", "id": 4120594395, "lat": -3.1543363, "lon": 37.1008933}, {"type": "node", "id": 4120594396, "lat": -3.1549288, "lon": 37.1001847}, {"type": "node", "id": 4120634126, "lat": -3.0526023, "lon": 37.0444018}, {"type": "node", "id": 4120634127, "lat": -3.0530599, "lon": 37.0442979}, {"type": "node", "id": 4120634128, "lat": -3.0529431, "lon": 37.0437818}, {"type": "node", "id": 4120634129, "lat": -3.0523951, "lon": 37.0439062}, {"type": "node", "id": 4120634130, "lat": -3.052512, "lon": 37.0444223}, {"type": "node", "id": 10804641965, "lat": -3.0505959, "lon": 37.0466858, "tags": {"addr:city": "Kilimanjaro", "addr:district": "Siha District Council", "addr:subward": "Ngarenairobi", "addr:ward": "Ngarenairobi", "amenity": "school", "isced:level": "1", "name": "Shule ya Msingi Ngare Mji", "name:en": "Ngare Mji Primary School", "name:sw": "Shule ya Msingi Ngare Mji", "operator:type": "government", "source": "WFP Primary Schools Feeding Program Survey, 2023 by OMDTZ"}}, {"type": "node", "id": 10804641966, "lat": -3.0423237, "lon": 37.0755313, "tags": {"addr:city": "Kilimanjaro", "addr:district": "Siha District Council", "addr:subward": "Ngarenairobi", "addr:ward": "Ngarenairobi", "amenity": "school", "isced:level": "1", "name": "Shule ya Msingi Ngarenairobi", "name:en": "Ngarenairobi Primary School", "name:sw": "Shule ya Msingi Ngarenairobi", "operator:type": "government", "source": "WFP Primary Schools Feeding Program Survey, 2023 by OMDTZ"}}, {"type": "node", "id": 10804641967, "lat": -3.1491707, "lon": 37.0127814, "tags": {"addr:city": "Kilimanjaro", "addr:district": "Siha District Council", "addr:subward": "Wiri", "addr:ward": "Gararagua", "amenity": "school", "isced:level": "1", "name": "Shule ya Msingi Wiri", "name:en": "Wiri Primary School", "name:sw": "Shule ya Msingi Wiri", "operator:type": "government", "source": "WFP Primary Schools Feeding Program Survey, 2023 by OMDTZ"}}, {"type": "node", "id": 10804641977, "lat": -3.1617531, "lon": 37.0905941, "tags": {"addr:city": "Kilimanjaro", "addr:district": "Siha District Council", "addr:subward": "Mowonjamu", "addr:ward": "Livishi", "amenity": "school", "isced:level": "1", "name": "Shule ya Msingi Nkyare", "name:en": "Nkyare Primary School", "name:sw": "Shule ya Msingi Nkyare", "operator:type": "government", "source": "WFP Primary Schools Feeding Program Survey, 2023 by OMDTZ"}}, {"type": "node", "id": 10804641978, "lat": -3.1467734, "lon": 37.1167696, "tags": {"addr:city": "Kilimanjaro", "addr:district": "Siha District Council", "addr:subward": "Ngarony", "addr:ward": "Livishi", "amenity": "school", "isced:level": "1", "name": "Shule ya Msingi Ngarony", "name:en": "Ngarony Primary School", "name:sw": "Shule ya Msingi Ngarony", "operator:type": "government", "source": "WFP Primary Schools Feeding Program Survey, 2023 by OMDTZ"}}, {"type": "node", "id": 10804641983, "lat": -3.1601303, "lon": 37.1055006, "tags": {"addr:city": "Kilimanjaro", "addr:district": "Siha District Council", "addr:subward": "Sherehehe", "addr:ward": "Livishi", "amenity": "school", "isced:level": "1", "name": "Shule ya Msingi Samaki", "name:en": "Samaki Primary School", "name:sw": "Shule ya Msingi Samaki", "operator:type": "government", "source": "WFP Primary Schools Feeding Program Survey, 2023 by OMDTZ"}}, {"type": "node", "id": 10804641986, "lat": -3.1656767, "lon": 37.1192808, "tags": {"addr:city": "Kilimanjaro", "addr:district": "Siha District Council", "addr:subward": "Isuhuny", "addr:ward": "Ivaeny", "amenity": "school", "isced:level": "1", "name": "Shule ya Msingi Kishisha", "name:en": "Kishisha Primary School", "name:sw": "Shule ya Msingi Kishisha", "operator:type": "government", "source": "WFP Primary Schools Feeding Program Survey, 2023 by OMDTZ"}}, {"type": "node", "id": 10804641987, "lat": -3.017639, "lon": 37.061344, "tags": {"addr:city": "Kilimanjaro", "addr:district": "Siha District Council", "addr:subward": "Matadi", "addr:ward": "Ndumeti", "amenity": "school", "isced:level": "1", "name": "Shule ya Msingi Lemosho", "name:en": "Lemosho Primary School", "name:sw": "Shule ya Msingi Lemosho", "operator:type": "government", "source": "WFP Primary Schools Feeding Program Survey, 2023 by OMDTZ"}}, {"type": "node", "id": 10804641993, "lat": -2.9899675, "lon": 37.0437919, "tags": {"addr:city": "Kilimanjaro", "addr:district": "Siha District Council", "addr:subward": "Roseline", "addr:ward": "Ndumeti", "amenity": "school", "isced:level": "1", "name": "Shule ya Msingi Roseline", "name:en": "Roseline Primary School", "name:sw": "Shule ya Msingi Roseline", "operator:type": "government", "source": "WFP Primary Schools Feeding Program Survey, 2023 by OMDTZ"}}, {"type": "node", "id": 10804642000, "lat": -3.0536793, "lon": 37.0580059, "tags": {"addr:city": "Kilimanjaro", "addr:district": "Siha District Council", "addr:subward": "Mwangaza", "addr:ward": "Ngarenairobi", "amenity": "school", "isced:level": "1", "name": "Shule ya Msingi Mwangaza", "name:en": "Mwangaza Primary School", "name:sw": "Shule ya Msingi Mwangaza", "operator:type": "government", "source": "WFP Primary Schools Feeding Program Survey, 2023 by OMDTZ"}}, {"type": "node", "id": 10804642006, "lat": -3.0775151, "lon": 37.0626188, "tags": {"addr:city": "Kilimanjaro", "addr:district": "Siha District Council", "addr:subward": "Namwai", "addr:ward": "Ngarenairobi", "amenity": "school", "isced:level": "1", "name": "Shule ya Msingi Namwai", "name:en": "Namwai Primary School", "name:sw": "Shule ya Msingi Namwai", "operator:type": "government", "source": "WFP Primary Schools Feeding Program Survey, 2023 by OMDTZ"}}, {"type": "node", "id": 10804642008, "lat": -3.1502725, "lon": 37.0284196, "tags": {"addr:city": "Kilimanjaro", "addr:district": "Siha District Council", "addr:subward": "Wiri", "addr:ward": "Gararagua", "amenity": "school", "isced:level": "1", "name": "Shule ya Msingi Gararagua", "name:en": "Gararagua Primary School", "name:sw": "Shule ya Msingi Gararagua", "operator:type": "government", "source": "WFP Primary Schools Feeding Program Survey, 2023 by OMDTZ"}}, {"type": "node", "id": 10804642019, "lat": -3.1467748, "lon": 37.1270263, "tags": {"addr:city": "Kilimanjaro", "addr:district": "Siha District Council", "addr:subward": "Mese", "addr:ward": "Livishi", "amenity": "school", "isced:level": "1", "name": "Shule ya Msingi Mese", "name:en": "Mese Primary School", "name:sw": "Shule ya Msingi Mese", "operator:type": "government", "source": "WFP Primary Schools Feeding Program Survey, 2023 by OMDTZ"}}, {"type": "node", "id": 10826667292, "lat": -2.8991576, "lon": 37.3681509, "tags": {"addr:city": "Kilimanjaro", "addr:district": "Rombo District Council", "addr:subward": "Tfs Rongai", "addr:ward": "Motamburu Kitendeni", "amenity": "school", "isced:level": "1", "name": "Shule ya Msingi Kamwanga", "name:en": "Kamwanga Primary School", "name:sw": "Shule ya Msingi Kamwanga", "operator:type": "government", "source": "WFP Primary Schools Feeding Program Survey, 2023 by OMDTZ"}}, {"type": "node", "id": 10826667358, "lat": -2.9220756, "lon": 37.4386174, "tags": {"addr:city": "Kilimanjaro", "addr:district": "Rombo District Council", "addr:subward": "Tfs Rongai", "addr:ward": "Motamburu Kitendeni", "amenity": "school", "isced:level": "1", "name": "Shule ya Msingi Endoneti", "name:en": "Endoneti Primary School", "name:sw": "Shule ya Msingi Endoneti", "operator:type": "government", "source": "WFP Primary Schools Feeding Program Survey, 2023 by OMDTZ"}}, {"type": "node", "id": 10837136420, "lat": -2.8865932, "lon": 37.0723306, "tags": {"addr:city": "Arusha", "addr:district": "Longido District Council", "addr:subward": "Elerai", "addr:ward": "Olmolog", "amenity": "school", "isced:level": "1", "name": "Shule ya Msingi Olmoti", "name:en": "Olmoti Primary School", "name:sw": "Shule ya Msingi Olmoti", "operator:type": "government", "source": "WFP Primary Schools Feeding Program Survey, 2023 by OMDTZ"}}, {"type": "node", "id": 10837136431, "lat": -2.8674284, "lon": 37.1249064, "tags": {"addr:city": "Arusha", "addr:district": "Longido District Council", "addr:subward": "Olmolog", "addr:ward": "Olmolog", "amenity": "school", "isced:level": "1", "name": "Shule ya Msingi Olmolog", "name:en": "Olmolog Primary School", "name:sw": "Shule ya Msingi Olmolog", "operator:type": "government", "source": "WFP Primary Schools Feeding Program Survey, 2023 by OMDTZ"}}, {"type": "node", "id": 10837136449, "lat": -2.8413362, "lon": 37.190963, "tags": {"addr:city": "Arusha", "addr:district": "Longido District Council", "addr:subward": "Lerang'Wa", "addr:ward": "Olmolog", "amenity": "school", "isced:level": "1", "name": "Shule ya Msingi Lerang'wa", "name:en": "Lerang'wa Primary School", "name:sw": "Shule ya Msingi Lerang'wa", "operator:type": "government", "source": "WFP Primary Schools Feeding Program Survey, 2023 by OMDTZ"}}, {"type": "node", "id": 10837136450, "lat": -2.840723, "lon": 37.2371835, "tags": {"addr:city": "Arusha", "addr:district": "Longido District Council", "addr:subward": "Kamwanga", "addr:ward": "Olmolog", "amenity": "school", "isced:level": "1", "name": "Shule ya Msingi Kitendeni", "name:en": "Kitendeni Primary School", "name:sw": "Shule ya Msingi Kitendeni", "operator:type": "government", "source": "WFP Primary Schools Feeding Program Survey, 2023 by OMDTZ"}}, {"type": "node", "id": 10837136456, "lat": -2.8736229, "lon": 37.3622686, "tags": {"addr:city": "Arusha", "addr:district": "Longido District Council", "addr:subward": "Kamwanga", "addr:ward": "Olmolog", "amenity": "school", "isced:level": "1", "name": "Shule ya Msingi Kamwanga", "name:en": "Kamwanga Primary School", "name:sw": "Shule ya Msingi Kamwanga", "operator:type": "government", "source": "WFP Primary Schools Feeding Program Survey, 2023 by OMDTZ"}}, {"type": "node", "id": 10837136460, "lat": -2.8632716, "lon": 37.3277622, "tags": {"addr:city": "Arusha", "addr:district": "Longido District Council", "addr:subward": "Irikaswa", "addr:ward": "Kamwanga", "amenity": "school", "isced:level": "1", "name": "Shule ya Msingi Irikaswa", "name:en": "Irikaswa Primary School", "name:sw": "Shule ya Msingi Irikaswa", "operator:type": "government", "source": "WFP Primary Schools Feeding Program Survey, 2023 by OMDTZ"}}, {"type": "node", "id": 10837136472, "lat": -2.9236562, "lon": 37.0670345, "tags": {"addr:city": "Arusha", "addr:district": "Longido District Council", "addr:subward": "Elerai", "addr:ward": "Olmolog", "amenity": "school", "isced:level": "1", "name": "Shule ya Msingi Elerai", "name:en": "Elerai Primary School", "name:sw": "Shule ya Msingi Elerai", "operator:type": "government", "source": "WFP Primary Schools Feeding Program Survey, 2023 by OMDTZ"}}, {"type": "node", "id": 11079684105, "lat": -2.7554441, "lon": 37.3620285, "tags": {"amenity": "school", "name": "Amboseli Primary School"}}, {"type": "way", "id": 410210475, "nodes": [4120594393, 4120594394, 4120594395, 4120594396, 4120594393], "tags": {"amenity": "school", "name": "DAHANI SECONDARY SCHOOL"}}, {"type": "way", "id": 410216645, "nodes": [4120634126, 4120634127, 4120634128, 4120634129, 4120634130, 4120634126], "tags": {"amenity": "school", "name": "NAMWAI SECONDARY SCHOOL"}}]}