{"version": 0.6, "generator": "Overpass API 0.7.61.5 4133829e", "osm3s": {"timestamp_osm_base": "2024-03-06T11:29:56Z", "copyright": "The data included in this document is from www.openstreetmap.org. The data is made available under ODbL."}, "elements": [{"type": "node", "id": 6102935027, "lat": -0.7348, "lon": 34.8464555, "tags": {"addr:city": "Nyamira", "addr:street": "B3", "amenity": "bank", "name": "Post Bank Agent"}}, {"type": "node", "id": 6105571221, "lat": -0.7742488, "lon": 34.9452816, "tags": {"addr:city": "Keroka", "addr:street": "B3", "amenity": "bank", "atm": "yes", "name": "KCB ATM - Keroka"}}, {"type": "node", "id": 6105930789, "lat": -0.7792123, "lon": 34.9471513, "tags": {"addr:city": "Keroka", "addr:street": "B3", "amenity": "bank", "name": "Kenya Commercial Bank"}}, {"type": "node", "id": 6105930795, "lat": -0.7800839, "lon": 34.9481389, "tags": {"addr:city": "Keroka", "addr:street": "B3", "amenity": "bank", "atm": "yes", "name": "Equity Bank Keroka"}}, {"type": "node", "id": 6105930811, "lat": -0.7569049, "lon": 35.0127634, "tags": {"addr:city": "Nyansiongo", "addr:street": "B3", "amenity": "bank", "name": "Co-op Bank ATM - Nyansiongo Branch"}}, {"type": "node", "id": 6105930820, "lat": -0.7564294, "lon": 35.0169125, "tags": {"addr:city": "Nyansiongo", "addr:street": "B3", "amenity": "bank", "name": "KCB Mtaani - Daniel Onkangi Paul"}}, {"type": "node", "id": 6105993882, "lat": -0.695505, "lon": 35.0911576, "tags": {"addr:city": "Kericho", "addr:street": "Sotik-Ndanai Road", "amenity": "bank", "name": "KCB Kenya Ltd."}}, {"type": "node", "id": 6105994794, "lat": -0.6912677, "lon": 35.1104406, "tags": {"addr:city": "Sotik", "addr:street": "Sotik", "amenity": "bank", "atm": "yes", "name": "KCB Bank"}}, {"type": "node", "id": 6105994801, "lat": -0.6886864, "lon": 35.1128875, "tags": {"addr:city": "Sotik", "addr:street": "Kericho Road", "amenity": "bank", "name": "Chase Bank - Total Sotik - Shamdeeq Company Ltd"}}, {"type": "node", "id": 6105994805, "lat": -0.6869933, "lon": 35.1141853, "tags": {"addr:city": "Sotik", "addr:street": "B3", "amenity": "bank", "brand": "Equity Bank", "brand:wikidata": "Q5384664", "name": "Equity Bank"}}, {"type": "node", "id": 6106078223, "lat": -0.7125378, "lon": 35.1550129, "tags": {"addr:city": "Sotik", "addr:street": "B3", "amenity": "bank", "name": "Equity Agent"}}, {"type": "node", "id": 6979788408, "lat": -0.5856201, "lon": 35.1904914, "tags": {"addr:city": "Litein", "addr:street": "C23", "amenity": "bank", "name": "KWFT"}}, {"type": "node", "id": 6979788409, "lat": -0.5832556, "lon": 35.1904477, "tags": {"addr:city": "Litein", "addr:street": "C23", "amenity": "bank", "brand": "Equity Bank", "brand:wikidata": "Q5384664", "brand:wikipedia": "en:Equity Bank Kenya Limited", "name": "Equity Bank"}}, {"type": "node", "id": 6987285311, "lat": -0.5841341, "lon": 35.1902523, "tags": {"addr:street": "C23", "amenity": "bank", "name": "KCB Bank"}}]}