{"version": 0.6, "generator": "Overpass API 0.7.61.5 4133829e", "osm3s": {"timestamp_osm_base": "2024-02-29T13:48:25Z", "copyright": "The data included in this document is from www.openstreetmap.org. The data is made available under ODbL."}, "elements": [{"type": "node", "id": 3145619019, "lat": 5.8013495, "lon": -3.1348238, "tags": {"amenity": "school", "name": "EPP YAOU", "operator:type": "public", "school:HT": "primaire"}}, {"type": "node", "id": 3145619711, "lat": 5.7997091, "lon": -3.1381838}, {"type": "node", "id": 3145619717, "lat": 5.7997911, "lon": -3.1380082}, {"type": "node", "id": 3145619721, "lat": 5.7998283, "lon": -3.13824}, {"type": "node", "id": 3145619725, "lat": 5.7999103, "lon": -3.1380644}, {"type": "node", "id": 3147552131, "lat": 5.7965544, "lon": -3.1414261, "tags": {"amenity": "school", "denomination": "sunni", "name": "\u00c9cole Confessionnelle Islamique de Yaou", "operator:type": "private", "religion": "muslim", "school:HT": "primaire"}}, {"type": "node", "id": 8188501880, "lat": 5.811003, "lon": -2.85818, "tags": {"amenity": "school", "name": "New Yakasi M/A Primary"}}, {"type": "node", "id": 8189088704, "lat": 5.8086438, "lon": -2.8644636, "tags": {"amenity": "school", "name": "Roman Catholic Primary"}}, {"type": "node", "id": 8189100779, "lat": 5.8211158, "lon": -2.8752281, "tags": {"amenity": "school", "name": "Old Yakase D/A Primary & JHS"}}, {"type": "node", "id": 8189100811, "lat": 5.8093984, "lon": -2.8644918, "tags": {"amenity": "school", "name": "Catholic Experimental Primary"}}, {"type": "node", "id": 8189113682, "lat": 5.8109354, "lon": -2.866737, "tags": {"amenity": "school", "name": "Experimental JHS"}}, {"type": "node", "id": 8189113684, "lat": 5.8101782, "lon": -2.8644557, "tags": {"amenity": "school", "name": "M/A JHS"}}, {"type": "node", "id": 8189114901, "lat": 5.8094443, "lon": -2.864129, "tags": {"amenity": "school", "name": "Roman Catholic JHS"}}, {"type": "way", "id": 309236210, "nodes": [3145619721, 3145619725, 3145619717, 3145619711, 3145619721], "tags": {"amenity": "school", "building": "yes", "name": "\u00c9cole Maternelle de Yaou", "operator:type": "public", "school:HT": "kindergarten"}}]}