{"version": 0.6, "generator": "Overpass API 0.7.61.5 4133829e", "osm3s": {"timestamp_osm_base": "2024-03-06T11:03:20Z", "copyright": "The data included in this document is from www.openstreetmap.org. The data is made available under ODbL."}, "elements": [{"type": "node", "id": 2178267955, "lat": -2.9326198, "lon": 37.5538597}, {"type": "node", "id": 2178267958, "lat": -2.9325512, "lon": 37.5540406}, {"type": "node", "id": 2178267961, "lat": -2.9328366, "lon": 37.5541641}, {"type": "node", "id": 2178267964, "lat": -2.9329427, "lon": 37.5539208}, {"type": "node", "id": 2178267967, "lat": -2.9327488, "lon": 37.5538841}, {"type": "node", "id": 2185379628, "lat": -2.9327215, "lon": 37.5541141}, {"type": "node", "id": 2185379631, "lat": -2.9327635, "lon": 37.5541324}, {"type": "node", "id": 2185379632, "lat": -2.9325702, "lon": 37.5539944}, {"type": "node", "id": 2185379634, "lat": -2.9325714, "lon": 37.5540489}, {"type": "node", "id": 2883945395, "lat": -2.9476738, "lon": 37.506932}, {"type": "node", "id": 2883945396, "lat": -2.9483114, "lon": 37.5061274}, {"type": "node", "id": 2883945397, "lat": -2.9488471, "lon": 37.5054193}, {"type": "node", "id": 2883945398, "lat": -2.9496828, "lon": 37.5058538}, {"type": "node", "id": 2883945399, "lat": -2.9496561, "lon": 37.5062883}, {"type": "node", "id": 2883945400, "lat": -2.9496132, "lon": 37.5064975}, {"type": "node", "id": 2883946201, "lat": -2.9494953, "lon": 37.5067443}, {"type": "node", "id": 2883946202, "lat": -2.9493775, "lon": 37.5071788}, {"type": "node", "id": 2883946203, "lat": -2.9493453, "lon": 37.5074202}, {"type": "node", "id": 2883946204, "lat": -2.9492864, "lon": 37.5075167}, {"type": "node", "id": 2883946205, "lat": -2.949415, "lon": 37.5078332}, {"type": "node", "id": 2883946206, "lat": -2.9494793, "lon": 37.5081176}, {"type": "node", "id": 2883946207, "lat": -2.9494471, "lon": 37.5083107}, {"type": "node", "id": 2883946208, "lat": -2.949415, "lon": 37.508477}, {"type": "node", "id": 2883946209, "lat": -2.949206, "lon": 37.5085896}, {"type": "node", "id": 2883946210, "lat": -2.9488953, "lon": 37.5085628}, {"type": "node", "id": 2883946211, "lat": -2.9485578, "lon": 37.508713}, {"type": "node", "id": 2883946212, "lat": -2.9483703, "lon": 37.5082248}, {"type": "node", "id": 2883946213, "lat": -2.9481185, "lon": 37.5077903}, {"type": "node", "id": 2883946214, "lat": -2.9480703, "lon": 37.5074846}, {"type": "node", "id": 3886079730, "lat": -3.0763351, "lon": 37.6385659, "tags": {"amenity": "school", "name": "Mramba Secondary School"}}, {"type": "node", "id": 3886102991, "lat": -3.0920539, "lon": 37.5966164, "tags": {"amenity": "school", "name": "Matolo Secondary School", "operator": "Government"}}, {"type": "node", "id": 4082282438, "lat": -3.1426115, "lon": 37.6028223}, {"type": "node", "id": 4082282440, "lat": -3.142578, "lon": 37.6036109}, {"type": "node", "id": 4082282443, "lat": -3.1419486, "lon": 37.6037075}, {"type": "node", "id": 4082282444, "lat": -3.1419379, "lon": 37.6036055}, {"type": "node", "id": 4082282445, "lat": -3.1419139, "lon": 37.6034754}, {"type": "node", "id": 4082282448, "lat": -3.1418924, "lon": 37.602817}, {"type": "node", "id": 4082282449, "lat": -3.1420559, "lon": 37.6027795}, {"type": "node", "id": 4082282450, "lat": -3.1421361, "lon": 37.602821}, {"type": "node", "id": 4082842636, "lat": -3.0879465, "lon": 37.6228109}, {"type": "node", "id": 4082842637, "lat": -3.0879855, "lon": 37.6228958}, {"type": "node", "id": 4082842638, "lat": -3.0880594, "lon": 37.6228617}, {"type": "node", "id": 4082842639, "lat": -3.0880205, "lon": 37.6227769}, {"type": "node", "id": 4120567689, "lat": -3.0223064, "lon": 37.5641751}, {"type": "node", "id": 4120567690, "lat": -3.0223376, "lon": 37.5647954}, {"type": "node", "id": 4120567691, "lat": -3.0230403, "lon": 37.5647772}, {"type": "node", "id": 4120567692, "lat": -3.0230787, "lon": 37.5640993}, {"type": "node", "id": 4120617508, "lat": -3.1020409, "lon": 37.6044998}, {"type": "node", "id": 4120617509, "lat": -3.1023178, "lon": 37.6043464}, {"type": "node", "id": 4120617510, "lat": -3.1024064, "lon": 37.604507}, {"type": "node", "id": 4120617511, "lat": -3.1022823, "lon": 37.6045757}, {"type": "node", "id": 4120617512, "lat": -3.1023747, "lon": 37.6047429}, {"type": "node", "id": 4120617513, "lat": -3.1022219, "lon": 37.6048276}, {"type": "node", "id": 4120652189, "lat": -3.0959043, "lon": 37.6276932}, {"type": "node", "id": 4120652190, "lat": -3.0964988, "lon": 37.6276809}, {"type": "node", "id": 4120652191, "lat": -3.0964863, "lon": 37.627074}, {"type": "node", "id": 4120652192, "lat": -3.0958918, "lon": 37.6270863}, {"type": "node", "id": 4134720888, "lat": -3.1652873, "lon": 37.6517263}, {"type": "node", "id": 4134721989, "lat": -3.1657117, "lon": 37.6515811}, {"type": "node", "id": 4134721990, "lat": -3.1659628, "lon": 37.6522619}, {"type": "node", "id": 4134721991, "lat": -3.1655384, "lon": 37.6524019}, {"type": "node", "id": 4138130332, "lat": -3.0946381, "lon": 37.5907507}, {"type": "node", "id": 4138130333, "lat": -3.0947496, "lon": 37.5918223}, {"type": "node", "id": 4138130334, "lat": -3.0961697, "lon": 37.5916742}, {"type": "node", "id": 4138130335, "lat": -3.0960582, "lon": 37.5906025}, {"type": "node", "id": 4138180803, "lat": -3.1386759, "lon": 37.6233328}, {"type": "node", "id": 4138180804, "lat": -3.1386009, "lon": 37.6235402}, {"type": "node", "id": 4138180805, "lat": -3.1399082, "lon": 37.6240144}, {"type": "node", "id": 4138180806, "lat": -3.1399874, "lon": 37.6237828}, {"type": "node", "id": 4139101270, "lat": -2.9846212, "lon": 37.5352495}, {"type": "node", "id": 4139101271, "lat": -2.9843197, "lon": 37.5358728}, {"type": "node", "id": 4139101272, "lat": -2.984772, "lon": 37.5361063}, {"type": "node", "id": 4139101273, "lat": -2.9848965, "lon": 37.5358645}, {"type": "node", "id": 4139101274, "lat": -2.9851846, "lon": 37.5361161}, {"type": "node", "id": 4139101275, "lat": -2.9854374, "lon": 37.5357534}, {"type": "node", "id": 5807151896, "lat": -3.0127573, "lon": 37.7250372}, {"type": "node", "id": 5807151897, "lat": -3.0128308, "lon": 37.7250706}, {"type": "node", "id": 5807151898, "lat": -3.0130009, "lon": 37.7244389}, {"type": "node", "id": 5807216040, "lat": -3.0536838, "lon": 37.7481305}, {"type": "node", "id": 5807216041, "lat": -3.0542351, "lon": 37.7496169}, {"type": "node", "id": 5807216042, "lat": -3.0553115, "lon": 37.7492166}, {"type": "node", "id": 5807216043, "lat": -3.0547602, "lon": 37.7477301}, {"type": "node", "id": 5807234391, "lat": -3.0896797, "lon": 37.7485519}, {"type": "node", "id": 5807234392, "lat": -3.0900202, "lon": 37.748267}, {"type": "node", "id": 5807234393, "lat": -3.0903792, "lon": 37.7476599}, {"type": "node", "id": 5807234394, "lat": -3.0910507, "lon": 37.7487293}, {"type": "node", "id": 5807234395, "lat": -3.0909528, "lon": 37.7489535}, {"type": "node", "id": 5807234396, "lat": -3.0901274, "lon": 37.7493411}, {"type": "node", "id": 5807234397, "lat": -3.0897217, "lon": 37.7488368}, {"type": "node", "id": 5807234398, "lat": -3.0896704, "lon": 37.7487013}, {"type": "node", "id": 5807234399, "lat": -3.0673843, "lon": 37.6977067}, {"type": "node", "id": 5807234400, "lat": -3.0684427, "lon": 37.7000976}, {"type": "node", "id": 5807234401, "lat": -3.069929, "lon": 37.6994369}, {"type": "node", "id": 5807234402, "lat": -3.0686819, "lon": 37.6971366}, {"type": "node", "id": 5807236227, "lat": -3.0693212, "lon": 37.6986889}, {"type": "node", "id": 5807247808, "lat": -3.0944704, "lon": 37.7221299}, {"type": "node", "id": 5807247809, "lat": -3.0938142, "lon": 37.7233771}, {"type": "node", "id": 5807247810, "lat": -3.0947972, "lon": 37.7242917}, {"type": "node", "id": 5807247811, "lat": -3.0948829, "lon": 37.7243025}, {"type": "node", "id": 5807247812, "lat": -3.09499, "lon": 37.7242971}, {"type": "node", "id": 5807247813, "lat": -3.09514, "lon": 37.7241576}, {"type": "node", "id": 5807247814, "lat": -3.0955042, "lon": 37.7236051}, {"type": "node", "id": 5807247815, "lat": -3.0955149, "lon": 37.7231491}, {"type": "node", "id": 5807247816, "lat": -3.0954721, "lon": 37.7224893}, {"type": "node", "id": 5927094552, "lat": -3.1128143, "lon": 37.7762723}, {"type": "node", "id": 5927094553, "lat": -3.1135964, "lon": 37.7779031}, {"type": "node", "id": 5927094554, "lat": -3.1142177, "lon": 37.7777475}, {"type": "node", "id": 5927094555, "lat": -3.1139606, "lon": 37.7771896}, {"type": "node", "id": 5927094556, "lat": -3.1140088, "lon": 37.7761382}, {"type": "node", "id": 5927094557, "lat": -3.1130661, "lon": 37.7771199}, {"type": "node", "id": 6049997532, "lat": -3.0543035, "lon": 37.7495915}, {"type": "node", "id": 6242370041, "lat": -3.0130853, "lon": 37.7244687}, {"type": "node", "id": 6249073525, "lat": -3.0697294, "lon": 37.6989949}, {"type": "node", "id": 6668920135, "lat": -3.1385935, "lon": 37.6237606}, {"type": "node", "id": 6668920136, "lat": -3.1386546, "lon": 37.6239725}, {"type": "node", "id": 6668920137, "lat": -3.138778, "lon": 37.6241552}, {"type": "node", "id": 6668920138, "lat": -3.1389517, "lon": 37.6242907}, {"type": "node", "id": 6668920139, "lat": -3.1391588, "lon": 37.6243658}, {"type": "node", "id": 6668920140, "lat": -3.1393789, "lon": 37.6243732}, {"type": "node", "id": 6668920141, "lat": -3.1395905, "lon": 37.624312}, {"type": "node", "id": 6668920142, "lat": -3.1397729, "lon": 37.6241884}, {"type": "node", "id": 6668920143, "lat": -3.1399828, "lon": 37.623538}, {"type": "node", "id": 6668920144, "lat": -3.1398948, "lon": 37.6233096}, {"type": "node", "id": 6668920145, "lat": -3.1397341, "lon": 37.6231251}, {"type": "node", "id": 6668920146, "lat": -3.1395202, "lon": 37.6230067}, {"type": "node", "id": 6668920147, "lat": -3.1392787, "lon": 37.6229688}, {"type": "node", "id": 6668920148, "lat": -3.1390388, "lon": 37.6230159}, {"type": "node", "id": 6668920149, "lat": -3.1388294, "lon": 37.6231423}, {"type": "node", "id": 6705390549, "lat": -2.9847858, "lon": 37.5353907}, {"type": "node", "id": 6705391003, "lat": -2.9845257, "lon": 37.5360581}, {"type": "node", "id": 6705391042, "lat": -2.9849057, "lon": 37.5360239}, {"type": "node", "id": 6705391057, "lat": -2.9843761, "lon": 37.5355337}, {"type": "node", "id": 6779905304, "lat": -3.1389306, "lon": 37.6230642}, {"type": "node", "id": 8316334767, "lat": -3.1178317, "lon": 37.772415}, {"type": "node", "id": 8316334768, "lat": -3.1182575, "lon": 37.773512}, {"type": "node", "id": 8316334769, "lat": -3.1186244, "lon": 37.77352}, {"type": "node", "id": 8316334770, "lat": -3.1196796, "lon": 37.7731955}, {"type": "node", "id": 8316334771, "lat": -3.1193181, "lon": 37.7719134}, {"type": "node", "id": 8316346725, "lat": -3.1311531, "lon": 37.6889956}, {"type": "node", "id": 8316346726, "lat": -3.1321441, "lon": 37.6888883}, {"type": "node", "id": 8316346727, "lat": -3.1322405, "lon": 37.6899397}, {"type": "node", "id": 8316346728, "lat": -3.1311906, "lon": 37.690106}, {"type": "node", "id": 8316346729, "lat": -3.1311719, "lon": 37.689575}, {"type": "node", "id": 9992181429, "lat": -3.0194271, "lon": 37.567534, "tags": {"amenity": "school", "name": "Nanjara Secondary School"}}, {"type": "node", "id": 10826667214, "lat": -3.0961102, "lon": 37.5785099, "tags": {"addr:city": "Kilimanjaro", "addr:district": "Rombo District Council", "addr:subward": "Samanga Village", "addr:ward": "Kirongo_Samanga", "amenity": "school", "isced:level": "1", "name": "Shule ya Msingi Samanga", "name:en": "Samanga Primary School", "name:sw": "Shule ya Msingi Samanga", "operator:type": "government", "source": "WFP Primary Schools Feeding Program Survey, 2023 by OMDTZ"}}, {"type": "node", "id": 10826667216, "lat": -3.1368431, "lon": 37.6123465, "tags": {"addr:city": "Kilimanjaro", "addr:district": "Rombo District Council", "addr:subward": "Kisale Village", "addr:ward": "Kisale_Msaranga", "amenity": "school", "isced:level": "1", "name": "Shule ya Msingi Kisale", "name:en": "Kisale Primary School", "name:sw": "Shule ya Msingi Kisale", "operator:type": "government", "source": "WFP Primary Schools Feeding Program Survey, 2023 by OMDTZ"}}, {"type": "node", "id": 10826667219, "lat": -3.0917433, "lon": 37.6223492, "tags": {"addr:city": "Kilimanjaro", "addr:district": "Rombo District Council", "addr:subward": "Kirongo Chini Village", "addr:ward": "Kirongo_Samanga", "amenity": "school", "isced:level": "1", "name": "Shule ya Msingi Kirongo chini", "name:en": "Kirongo chini Primary School", "name:sw": "Shule ya Msingi Kirongo chini", "operator:type": "government", "source": "WFP Primary Schools Feeding Program Survey, 2023 by OMDTZ"}}, {"type": "node", "id": 10826667220, "lat": -3.0091175, "lon": 37.5823776, "tags": {"addr:city": "Kilimanjaro", "addr:district": "Rombo District Council", "addr:subward": "Nayeme", "addr:ward": "Nanjara", "amenity": "school", "isced:level": "1", "name": "Shule ya Msingi Ngaleku", "name:en": "Ngaleku Primary School", "name:sw": "Shule ya Msingi Ngaleku", "operator:type": "government", "source": "WFP Primary Schools Feeding Program Survey, 2023 by OMDTZ"}}, {"type": "node", "id": 10826667221, "lat": -3.0944243, "lon": 37.6581645, "tags": {"addr:city": "Kilimanjaro", "addr:district": "Rombo District Council", "addr:subward": "Kirongo Chini", "addr:ward": "Kirongo_Samanga", "amenity": "school", "isced:level": "1", "name": "Shule ya Msingi Lekemberia", "name:en": "Lekemberia Primary School", "name:sw": "Shule ya Msingi Lekemberia", "operator:type": "government", "source": "WFP Primary Schools Feeding Program Survey, 2023 by OMDTZ"}}, {"type": "node", "id": 10826667222, "lat": -3.0954597, "lon": 37.5975637, "tags": {"addr:city": "Kilimanjaro", "addr:district": "Rombo District Council", "addr:subward": "Kirongo Juu", "addr:ward": "Kirongo_Samanga", "amenity": "school", "isced:level": "1", "name": "Shule ya Msingi Baraka", "name:en": "Baraka Primary School", "name:sw": "Shule ya Msingi Baraka", "operator:type": "government", "source": "WFP Primary Schools Feeding Program Survey, 2023 by OMDTZ"}}, {"type": "node", "id": 10826667226, "lat": -3.1305382, "lon": 37.5820387, "tags": {"addr:city": "Kilimanjaro", "addr:district": "Rombo District Council", "addr:subward": "Katangara Village", "addr:ward": "Katangara/Mrere", "amenity": "school", "isced:level": "1", "name": "Shule ya Msingi Kitero", "name:en": "Kitero Primary School", "name:sw": "Shule ya Msingi Kitero", "operator:type": "government", "source": "WFP Primary Schools Feeding Program Survey, 2023 by OMDTZ"}}, {"type": "node", "id": 10826667228, "lat": -3.1319675, "lon": 37.602086, "tags": {"addr:city": "Kilimanjaro", "addr:district": "Rombo District Council", "addr:subward": "Katangara Village", "addr:ward": "Katangara/Mrere", "amenity": "school", "isced:level": "1", "name": "Shule ya Msingi Njamta", "name:en": "Njamta Primary School", "name:sw": "Shule ya Msingi Njamta", "operator:type": "government", "source": "WFP Primary Schools Feeding Program Survey, 2023 by OMDTZ"}}, {"type": "node", "id": 10826667229, "lat": -3.1292806, "lon": 37.6254657, "tags": {"addr:city": "Kilimanjaro", "addr:district": "Rombo District Council", "addr:subward": "Kitowo Village", "addr:ward": "Marangu_Kitowo", "amenity": "school", "isced:level": "1", "name": "Shule ya Msingi Tavarini", "name:en": "Tavarini Primary School", "name:sw": "Shule ya Msingi Tavarini", "operator:type": "government", "source": "WFP Primary Schools Feeding Program Survey, 2023 by OMDTZ"}}, {"type": "node", "id": 10826667231, "lat": -3.0319616, "lon": 37.6197211, "tags": {"addr:city": "Kilimanjaro", "addr:district": "Rombo District Council", "addr:subward": "Nesae", "addr:ward": "Reha", "amenity": "school", "isced:level": "1", "name": "Shule ya Msingi Walemavu Klenk", "name:en": "Walemavu Klenk Primary School", "name:sw": "Shule ya Msingi Walemavu Klenk", "operator:type": "government", "source": "WFP Primary Schools Feeding Program Survey, 2023 by OMDTZ"}}, {"type": "node", "id": 10826667232, "lat": -3.1188594, "lon": 37.6104424, "tags": {"addr:city": "Kilimanjaro", "addr:district": "Rombo District Council", "addr:subward": "Marangu Village", "addr:ward": "Marangu_Kitowo", "amenity": "school", "isced:level": "1", "name": "Shule ya Msingi Mengeni", "name:en": "Mengeni Primary School", "name:sw": "Shule ya Msingi Mengeni", "operator:type": "government", "source": "WFP Primary Schools Feeding Program Survey, 2023 by OMDTZ"}}, {"type": "node", "id": 10826667234, "lat": -3.0794184, "lon": 37.5966858, "tags": {"addr:city": "Kilimanjaro", "addr:district": "Rombo District Council", "addr:subward": "Kwalakamu Village", "addr:ward": "Kitirima", "amenity": "school", "isced:level": "1", "name": "Shule ya Msingi Usseri", "name:en": "Usseri Primary School", "name:sw": "Shule ya Msingi Usseri", "operator:type": "government", "source": "WFP Primary Schools Feeding Program Survey, 2023 by OMDTZ"}}, {"type": "node", "id": 10826667235, "lat": -3.0821627, "lon": 37.6240735, "tags": {"addr:city": "Kilimanjaro", "addr:district": "Rombo District Council", "addr:subward": "Kingachi Village", "addr:ward": "Kingachi", "amenity": "school", "isced:level": "1", "name": "Shule ya Msingi Kwalamahondo", "name:en": "Kwalamahondo Primary School", "name:sw": "Shule ya Msingi Kwalamahondo", "operator:type": "government", "source": "WFP Primary Schools Feeding Program Survey, 2023 by OMDTZ"}}, {"type": "node", "id": 10826667236, "lat": -3.1578679, "lon": 37.6034896, "tags": {"addr:city": "Kilimanjaro", "addr:district": "Rombo District Council", "addr:subward": "Kirwa Village", "addr:ward": "Kirwa_Keni", "amenity": "school", "isced:level": "1", "name": "Shule ya Msingi Kirwarombo", "name:en": "Kirwarombo Primary School", "name:sw": "Shule ya Msingi Kirwarombo", "operator:type": "government", "source": "WFP Primary Schools Feeding Program Survey, 2023 by OMDTZ"}}, {"type": "node", "id": 10826667237, "lat": -3.0711101, "lon": 37.6156336, "tags": {"addr:city": "Kilimanjaro", "addr:district": "Rombo District Council", "addr:subward": "Kwalakamu", "addr:ward": "Kitirima", "amenity": "school", "isced:level": "1", "name": "Shule ya Msingi Mtikome", "name:en": "Mtikome Primary School", "name:sw": "Shule ya Msingi Mtikome", "operator:type": "government", "source": "WFP Primary Schools Feeding Program Survey, 2023 by OMDTZ"}}, {"type": "node", "id": 10826667243, "lat": -3.0710196, "lon": 37.5897181, "tags": {"addr:city": "Kilimanjaro", "addr:district": "Rombo District Council", "addr:subward": "Lesoroma Village", "addr:ward": "Kitirima", "amenity": "school", "isced:level": "1", "name": "Shule ya Msingi Kiraro", "name:en": "Kiraro Primary School", "name:sw": "Shule ya Msingi Kiraro", "operator:type": "government", "source": "WFP Primary Schools Feeding Program Survey, 2023 by OMDTZ"}}, {"type": "node", "id": 10826667244, "lat": -3.0300045, "lon": 37.5566039, "tags": {"addr:city": "Kilimanjaro", "addr:district": "Rombo District Council", "addr:subward": "Kasirwa", "addr:ward": "Nanjara", "amenity": "school", "isced:level": "1", "name": "Shule ya Msingi Kasirwa", "name:en": "Kasirwa Primary School", "name:sw": "Shule ya Msingi Kasirwa", "operator:type": "government", "source": "WFP Primary Schools Feeding Program Survey, 2023 by OMDTZ"}}, {"type": "node", "id": 10826667246, "lat": -3.1378256, "lon": 37.6619361, "tags": {"addr:city": "Kilimanjaro", "addr:district": "Rombo District Council", "addr:subward": "Mahorosha Village", "addr:ward": "Kisale_Msaranga", "amenity": "school", "isced:level": "1", "name": "Shule ya Msingi Mahorosha", "name:en": "Mahorosha Primary School", "name:sw": "Shule ya Msingi Mahorosha", "operator:type": "government", "source": "WFP Primary Schools Feeding Program Survey, 2023 by OMDTZ"}}, {"type": "node", "id": 10826667251, "lat": -3.0750645, "lon": 37.6375129, "tags": {"addr:city": "Kilimanjaro", "addr:district": "Rombo District Council", "addr:subward": "Leto", "addr:ward": "Kingachi", "amenity": "school", "isced:level": "1", "name": "Shule ya Msingi Mokoro", "name:en": "Mokoro Primary School", "name:sw": "Shule ya Msingi Mokoro", "operator:type": "government", "source": "WFP Primary Schools Feeding Program Survey, 2023 by OMDTZ"}}, {"type": "node", "id": 10826667252, "lat": -3.1543047, "lon": 37.6175495, "tags": {"addr:city": "Kilimanjaro", "addr:district": "Rombo District Council", "addr:subward": "Keni Village", "addr:ward": "Kirwa_Keni", "amenity": "school", "isced:level": "1", "name": "Shule ya Msingi Woka", "name:en": "Woka Primary School", "name:sw": "Shule ya Msingi Woka", "operator:type": "government", "source": "WFP Primary Schools Feeding Program Survey, 2023 by OMDTZ"}}, {"type": "node", "id": 10826667253, "lat": -3.0660959, "lon": 37.6175301, "tags": {"addr:city": "Kilimanjaro", "addr:district": "Rombo District Council", "addr:subward": "Ture Village", "addr:ward": "Ubetu_Kahe", "amenity": "school", "isced:level": "1", "name": "Shule ya Msingi Kiura", "name:en": "Kiura Primary School", "name:sw": "Shule ya Msingi Kiura", "operator:type": "government", "source": "WFP Primary Schools Feeding Program Survey, 2023 by OMDTZ"}}, {"type": "node", "id": 10826667254, "lat": -3.0913541, "lon": 37.6224942, "tags": {"addr:city": "Kilimanjaro", "addr:district": "Rombo District Council", "addr:subward": "Kirongo Chini", "addr:ward": "Kirongo_Samanga", "amenity": "school", "isced:level": "1", "name": "Shule ya Msingi Malambura", "name:en": "Malambura Primary School", "name:sw": "Shule ya Msingi Malambura", "operator:type": "government", "source": "WFP Primary Schools Feeding Program Survey, 2023 by OMDTZ"}}, {"type": "node", "id": 10826667256, "lat": -3.0429608, "lon": 37.5739355, "tags": {"addr:city": "Kilimanjaro", "addr:district": "Rombo District Council", "addr:subward": "Msangai", "addr:ward": "Nanjara", "amenity": "school", "isced:level": "1", "name": "Shule ya Msingi Kimanyatu", "name:en": "Kimanyatu Primary School", "name:sw": "Shule ya Msingi Kimanyatu", "operator:type": "government", "source": "WFP Primary Schools Feeding Program Survey, 2023 by OMDTZ"}}, {"type": "node", "id": 10826667257, "lat": -3.1123824, "lon": 37.6048476, "tags": {"addr:city": "Kilimanjaro", "addr:district": "Rombo District Council", "addr:subward": "Kooti Village", "addr:ward": "Olele", "amenity": "school", "isced:level": "1", "name": "Shule ya Msingi Mlembea", "name:en": "Mlembea Primary School", "name:sw": "Shule ya Msingi Mlembea", "operator:type": "government", "source": "WFP Primary Schools Feeding Program Survey, 2023 by OMDTZ"}}, {"type": "node", "id": 10826667259, "lat": -3.0543105, "lon": 37.6176906, "tags": {"addr:city": "Kilimanjaro", "addr:district": "Rombo District Council", "addr:subward": "Kahe Village", "addr:ward": "Ubetu_Kahe", "amenity": "school", "isced:level": "1", "name": "Shule ya Msingi Kaheusseri", "name:en": "Kaheusseri Primary School", "name:sw": "Shule ya Msingi Kaheusseri", "operator:type": "government", "source": "WFP Primary Schools Feeding Program Survey, 2023 by OMDTZ"}}, {"type": "node", "id": 10826667262, "lat": -3.0790821, "lon": 37.6093913, "tags": {"addr:city": "Kilimanjaro", "addr:district": "Rombo District Council", "addr:subward": "Kwalakamu Village", "addr:ward": "Ubetu_Kahe", "amenity": "school", "isced:level": "1", "name": "Shule ya Msingi Mamonjo", "name:en": "Mamonjo Primary School", "name:sw": "Shule ya Msingi Mamonjo", "operator:type": "government", "source": "WFP Primary Schools Feeding Program Survey, 2023 by OMDTZ"}}, {"type": "node", "id": 10826667265, "lat": -3.010179, "lon": 37.5828932, "tags": {"addr:city": "Kilimanjaro", "addr:district": "Rombo District Council", "addr:subward": "Nayeme", "addr:ward": "Nanjara", "amenity": "school", "isced:level": "1", "name": "Shule ya Msingi Nayeme", "name:en": "Nayeme Primary School", "name:sw": "Shule ya Msingi Nayeme", "operator:type": "government", "source": "WFP Primary Schools Feeding Program Survey, 2023 by OMDTZ"}}, {"type": "node", "id": 10826667267, "lat": -3.1479794, "lon": 37.5952871, "tags": {"addr:city": "Kilimanjaro", "addr:district": "Rombo District Council", "addr:subward": "Mrere Village", "addr:ward": "Katangara/Mrere", "amenity": "school", "isced:level": "1", "name": "Shule ya Msingi Rima", "name:en": "Rima Primary School", "name:sw": "Shule ya Msingi Rima", "operator:type": "government", "source": "WFP Primary Schools Feeding Program Survey, 2023 by OMDTZ"}}, {"type": "node", "id": 10826667268, "lat": -3.052672, "lon": 37.5988449, "tags": {"addr:city": "Kilimanjaro", "addr:district": "Rombo District Council", "addr:subward": "Ngaseni Village", "addr:ward": "Ubetu_Kahe", "amenity": "school", "isced:level": "1", "name": "Shule ya Msingi Mreyai", "name:en": "Mreyai Primary School", "name:sw": "Shule ya Msingi Mreyai", "operator:type": "government", "source": "WFP Primary Schools Feeding Program Survey, 2023 by OMDTZ"}}, {"type": "node", "id": 10826667269, "lat": -2.9707495, "lon": 37.5335912, "tags": {"addr:city": "Kilimanjaro", "addr:district": "Rombo District Council", "addr:subward": "Kikelelwa", "addr:ward": "Tarakea_Motamburu", "amenity": "school", "isced:level": "1", "name": "Shule ya Msingi Lokoro", "name:en": "Lokoro Primary School", "name:sw": "Shule ya Msingi Lokoro", "operator:type": "government", "source": "WFP Primary Schools Feeding Program Survey, 2023 by OMDTZ"}}, {"type": "node", "id": 10826667272, "lat": -3.1187337, "lon": 37.6099321, "tags": {"addr:city": "Kilimanjaro", "addr:district": "Rombo District Council", "addr:subward": "Marangu Village", "addr:ward": "Marangu_Kitowo", "amenity": "school", "isced:level": "1", "name": "Shule ya Msingi Olele", "name:en": "Olele Primary School", "name:sw": "Shule ya Msingi Olele", "operator:type": "government", "source": "WFP Primary Schools Feeding Program Survey, 2023 by OMDTZ"}}, {"type": "node", "id": 10826667274, "lat": -3.0211243, "lon": 37.5667163, "tags": {"addr:city": "Kilimanjaro", "addr:district": "Rombo District Council", "addr:subward": "Kibaoni", "addr:ward": "Nanjara", "amenity": "school", "isced:level": "1", "name": "Shule ya Msingi Nanjara", "name:en": "Nanjara Primary School", "name:sw": "Shule ya Msingi Nanjara", "operator:type": "government", "source": "WFP Primary Schools Feeding Program Survey, 2023 by OMDTZ"}}, {"type": "node", "id": 10826667278, "lat": -3.0596116, "lon": 37.5891884, "tags": {"addr:city": "Kilimanjaro", "addr:district": "Rombo District Council", "addr:subward": "Ubetu Village", "addr:ward": "Ubetu_Kahe", "amenity": "school", "isced:level": "1", "name": "Shule ya Msingi Ubetu", "name:en": "Ubetu Primary School", "name:sw": "Shule ya Msingi Ubetu", "operator:type": "government", "source": "WFP Primary Schools Feeding Program Survey, 2023 by OMDTZ"}}, {"type": "node", "id": 10826667281, "lat": -3.1491128, "lon": 37.6327246, "tags": {"addr:city": "Kilimanjaro", "addr:district": "Rombo District Council", "addr:subward": "Mrere Village", "addr:ward": "Katangara/Mrere", "amenity": "school", "isced:level": "1", "name": "Shule ya Msingi Simbalo", "name:en": "Simbalo Primary School", "name:sw": "Shule ya Msingi Simbalo", "operator:type": "government", "source": "WFP Primary Schools Feeding Program Survey, 2023 by OMDTZ"}}, {"type": "node", "id": 10826667282, "lat": -3.0829732, "lon": 37.5781825, "tags": {"addr:city": "Kilimanjaro", "addr:district": "Rombo District Council", "addr:subward": "Msinga Village", "addr:ward": "Kitirima", "amenity": "school", "isced:level": "1", "name": "Shule ya Msingi Kitirima", "name:en": "Kitirima Primary School", "name:sw": "Shule ya Msingi Kitirima", "operator:type": "government", "source": "WFP Primary Schools Feeding Program Survey, 2023 by OMDTZ"}}, {"type": "node", "id": 10826667283, "lat": -3.1427733, "lon": 37.5775841, "tags": {"addr:city": "Kilimanjaro", "addr:district": "Rombo District Council", "addr:subward": "Mrere Village", "addr:ward": "Katangara/Mrere", "amenity": "school", "isced:level": "1", "name": "Shule ya Msingi Mahaheni", "name:en": "Mahaheni Primary School", "name:sw": "Shule ya Msingi Mahaheni", "operator:type": "government", "source": "WFP Primary Schools Feeding Program Survey, 2023 by OMDTZ"}}, {"type": "node", "id": 10826667284, "lat": -3.1158899, "lon": 37.6630399, "tags": {"addr:city": "Kilimanjaro", "addr:district": "Rombo District Council", "addr:subward": "Marangu Village", "addr:ward": "Marangu_Kitowo", "amenity": "school", "isced:level": "1", "name": "Shule ya Msingi Saseni", "name:en": "Saseni Primary School", "name:sw": "Shule ya Msingi Saseni", "operator:type": "government", "source": "WFP Primary Schools Feeding Program Survey, 2023 by OMDTZ"}}, {"type": "node", "id": 10826667286, "lat": -3.0546606, "lon": 37.6164148, "tags": {"addr:city": "Kilimanjaro", "addr:district": "Rombo District Council", "addr:subward": "Kahe Village", "addr:ward": "Ubetu_Kahe", "amenity": "school", "isced:level": "1", "name": "Shule ya Msingi Marieni", "name:en": "Marieni Primary School", "name:sw": "Shule ya Msingi Marieni", "operator:type": "government", "source": "WFP Primary Schools Feeding Program Survey, 2023 by OMDTZ"}}, {"type": "node", "id": 10826667287, "lat": -3.1449886, "lon": 37.6505927, "tags": {"addr:city": "Kilimanjaro", "addr:district": "Rombo District Council", "addr:subward": "Msaranga Village", "addr:ward": "Kisale_Msaranga", "amenity": "school", "isced:level": "1", "name": "Shule ya Msingi Msaranga", "name:en": "Msaranga Primary School", "name:sw": "Shule ya Msingi Msaranga", "operator:type": "government", "source": "WFP Primary Schools Feeding Program Survey, 2023 by OMDTZ"}}, {"type": "node", "id": 10826667289, "lat": -3.0028619, "lon": 37.5484453, "tags": {"addr:city": "Kilimanjaro", "addr:district": "Rombo District Council", "addr:subward": "Mbomai", "addr:ward": "Tarakea_Motamburu", "amenity": "school", "isced:level": "1", "name": "Shule ya Msingi Klasara", "name:en": "Klasara Primary School", "name:sw": "Shule ya Msingi Klasara", "operator:type": "government", "source": "WFP Primary Schools Feeding Program Survey, 2023 by OMDTZ"}}, {"type": "node", "id": 10826667290, "lat": -2.9898904, "lon": 37.5580669, "tags": {"addr:city": "Kilimanjaro", "addr:district": "Rombo District Council", "addr:subward": "Mbomai", "addr:ward": "Tarakea_Motamburu", "amenity": "school", "isced:level": "1", "name": "Shule ya Msingi Mbomai Kati", "name:en": "Mbomai Kati Primary School", "name:sw": "Shule ya Msingi Mbomai Kati", "operator:type": "government", "source": "WFP Primary Schools Feeding Program Survey, 2023 by OMDTZ"}}, {"type": "node", "id": 10826667291, "lat": -3.1580757, "lon": 37.6680405, "tags": {"addr:city": "Kilimanjaro", "addr:district": "Rombo District Council", "addr:subward": "Msaranga Village", "addr:ward": "Kisale_Msaranga", "amenity": "school", "isced:level": "1", "name": "Shule ya Msingi Kirachi", "name:en": "Kirachi Primary School", "name:sw": "Shule ya Msingi Kirachi", "operator:type": "government", "source": "WFP Primary Schools Feeding Program Survey, 2023 by OMDTZ"}}, {"type": "node", "id": 10826667297, "lat": -3.1130242, "lon": 37.6259075, "tags": {"addr:city": "Kilimanjaro", "addr:district": "Rombo District Council", "addr:subward": "Marangu Village", "addr:ward": "Marangu_Kitowo", "amenity": "school", "isced:level": "1", "name": "Shule ya Msingi Mforo", "name:en": "Mforo Primary School", "name:sw": "Shule ya Msingi Mforo", "operator:type": "government", "source": "WFP Primary Schools Feeding Program Survey, 2023 by OMDTZ"}}, {"type": "node", "id": 10826667298, "lat": -3.1527894, "lon": 37.6076746, "tags": {"addr:city": "Kilimanjaro", "addr:district": "Rombo District Council", "addr:subward": "Keni Village", "addr:ward": "Kirwa_Keni", "amenity": "school", "isced:level": "1", "name": "Shule ya Msingi Kenimrere", "name:en": "Kenimrere Primary School", "name:sw": "Shule ya Msingi Kenimrere", "operator:type": "government", "source": "WFP Primary Schools Feeding Program Survey, 2023 by OMDTZ"}}, {"type": "node", "id": 10826667299, "lat": -3.0949082, "lon": 37.5953401, "tags": {"addr:city": "Kilimanjaro", "addr:district": "Rombo District Council", "addr:subward": "Kirongo Juu Village", "addr:ward": "Kirongo_Samanga", "amenity": "school", "isced:level": "1", "name": "Shule ya Msingi Kirongo juu", "name:en": "Kirongo juu Primary School", "name:sw": "Shule ya Msingi Kirongo juu", "operator:type": "government", "source": "WFP Primary Schools Feeding Program Survey, 2023 by OMDTZ"}}, {"type": "node", "id": 10826667300, "lat": -3.0662684, "lon": 37.5778517, "tags": {"addr:city": "Kilimanjaro", "addr:district": "Rombo District Council", "addr:subward": "Ubetu Village", "addr:ward": "Ubetu_Kahe", "amenity": "school", "isced:level": "1", "name": "Shule ya Msingi Kilawoi", "name:en": "Kilawoi Primary School", "name:sw": "Shule ya Msingi Kilawoi", "operator:type": "government", "source": "WFP Primary Schools Feeding Program Survey, 2023 by OMDTZ"}}, {"type": "node", "id": 10826667301, "lat": -3.1219626, "lon": 37.6028869, "tags": {"addr:city": "Kilimanjaro", "addr:district": "Rombo District Council", "addr:subward": "Kilema Village", "addr:ward": "Olele", "amenity": "school", "isced:level": "1", "name": "Shule ya Msingi Kwanakuya", "name:en": "Kwanakuya Primary School", "name:sw": "Shule ya Msingi Kwanakuya", "operator:type": "government", "source": "WFP Primary Schools Feeding Program Survey, 2023 by OMDTZ"}}, {"type": "node", "id": 10826667302, "lat": -3.1363874, "lon": 37.6124115, "tags": {"addr:city": "Kilimanjaro", "addr:district": "Rombo District Council", "addr:subward": "Kisale Village", "addr:ward": "Kisale_Msaranga", "amenity": "school", "isced:level": "1", "name": "Shule ya Msingi Mkokyama", "name:en": "Mkokyama Primary School", "name:sw": "Shule ya Msingi Mkokyama", "operator:type": "government", "source": "WFP Primary Schools Feeding Program Survey, 2023 by OMDTZ"}}, {"type": "node", "id": 10826667304, "lat": -3.0396447, "lon": 37.5766719, "tags": {"addr:city": "Kilimanjaro", "addr:district": "Rombo District Council", "addr:subward": "Msangai", "addr:ward": "Nanjara", "amenity": "school", "isced:level": "1", "name": "Shule ya Msingi Msangai", "name:en": "Msangai Primary School", "name:sw": "Shule ya Msingi Msangai", "operator:type": "government", "source": "WFP Primary Schools Feeding Program Survey, 2023 by OMDTZ"}}, {"type": "node", "id": 10826667305, "lat": -3.0214798, "lon": 37.5666301, "tags": {"addr:city": "Kilimanjaro", "addr:district": "Rombo District Council", "addr:subward": "Kibaoni", "addr:ward": "Nanjara", "amenity": "school", "isced:level": "1", "name": "Shule ya Msingi Kibaoni", "name:en": "Kibaoni Primary School", "name:sw": "Shule ya Msingi Kibaoni", "operator:type": "government", "source": "WFP Primary Schools Feeding Program Survey, 2023 by OMDTZ"}}, {"type": "node", "id": 10826667306, "lat": -3.0518377, "lon": 37.5607509, "tags": {"addr:city": "Kilimanjaro", "addr:district": "Rombo District Council", "addr:subward": "Wama Village", "addr:ward": "Ubetu_Kahe", "amenity": "school", "isced:level": "1", "name": "Shule ya Msingi Wama", "name:en": "Wama Primary School", "name:sw": "Shule ya Msingi Wama", "operator:type": "government", "source": "WFP Primary Schools Feeding Program Survey, 2023 by OMDTZ"}}, {"type": "node", "id": 10826667309, "lat": -3.1246451, "lon": 37.6468428, "tags": {"addr:city": "Kilimanjaro", "addr:district": "Rombo District Council", "addr:subward": "Kitowo Village", "addr:ward": "Marangu_Kitowo", "amenity": "school", "isced:level": "1", "name": "Shule ya Msingi Kitongoria", "name:en": "Kitongoria Primary School", "name:sw": "Shule ya Msingi Kitongoria", "operator:type": "government", "source": "WFP Primary Schools Feeding Program Survey, 2023 by OMDTZ"}}, {"type": "node", "id": 10826667310, "lat": -3.0103202, "lon": 37.5528998, "tags": {"addr:city": "Kilimanjaro", "addr:district": "Rombo District Council", "addr:subward": "Mbomai", "addr:ward": "Tarakea_Motamburu", "amenity": "school", "isced:level": "1", "name": "Shule ya Msingi Nduweni", "name:en": "Nduweni Primary School", "name:sw": "Shule ya Msingi Nduweni", "operator:type": "government", "source": "WFP Primary Schools Feeding Program Survey, 2023 by OMDTZ"}}, {"type": "node", "id": 10826667311, "lat": -3.15304, "lon": 37.5840105, "tags": {"addr:city": "Kilimanjaro", "addr:district": "Rombo District Council", "addr:subward": "Kirwa Village", "addr:ward": "Kirwa_Keni", "amenity": "school", "isced:level": "1", "name": "Shule ya Msingi Amrushu", "name:en": "Amrushu Primary School", "name:sw": "Shule ya Msingi Amrushu", "operator:type": "government", "source": "WFP Primary Schools Feeding Program Survey, 2023 by OMDTZ"}}, {"type": "node", "id": 10826667312, "lat": -2.9703226, "lon": 37.5333872, "tags": {"addr:city": "Kilimanjaro", "addr:district": "Rombo District Council", "addr:subward": "Kikelelwa", "addr:ward": "Tarakea_Motamburu", "amenity": "school", "isced:level": "1", "name": "Shule ya Msingi Kikelelwa", "name:en": "Kikelelwa Primary School", "name:sw": "Shule ya Msingi Kikelelwa", "operator:type": "government", "source": "WFP Primary Schools Feeding Program Survey, 2023 by OMDTZ"}}, {"type": "node", "id": 10826667313, "lat": -3.1221093, "lon": 37.5825232, "tags": {"addr:city": "Kilimanjaro", "addr:district": "Rombo District Council", "addr:subward": "Kilema Village", "addr:ward": "Olele", "amenity": "school", "isced:level": "1", "name": "Shule ya Msingi Kiishi", "name:en": "Kiishi Primary School", "name:sw": "Shule ya Msingi Kiishi", "operator:type": "government", "source": "WFP Primary Schools Feeding Program Survey, 2023 by OMDTZ"}}, {"type": "node", "id": 10826667314, "lat": -3.1126122, "lon": 37.6257428, "tags": {"addr:city": "Kilimanjaro", "addr:district": "Rombo District Council", "addr:subward": "Marangu Executive Village", "addr:ward": "Marangu_Kitowo", "amenity": "school", "isced:level": "1", "name": "Shule ya Msingi Kwalamtongi", "name:en": "Kwalamtongi Primary School", "name:sw": "Shule ya Msingi Kwalamtongi", "operator:type": "government", "source": "WFP Primary Schools Feeding Program Survey, 2023 by OMDTZ"}}, {"type": "node", "id": 10826667318, "lat": -3.1450217, "lon": 37.6511201, "tags": {"addr:city": "Kilimanjaro", "addr:district": "Rombo District Council", "addr:subward": "Msaranga Village", "addr:ward": "Kisale_Msaranga", "amenity": "school", "isced:level": "1", "name": "Shule ya Msingi Mtimhoo", "name:en": "Mtimhoo Primary School", "name:sw": "Shule ya Msingi Mtimhoo", "operator:type": "government", "source": "WFP Primary Schools Feeding Program Survey, 2023 by OMDTZ"}}, {"type": "node", "id": 10826667319, "lat": -3.1661397, "lon": 37.6346617, "tags": {"addr:city": "Kilimanjaro", "addr:district": "Rombo District Council", "addr:subward": "Mmomwe Village", "addr:ward": "Mrao_Keryo", "amenity": "school", "isced:level": "1", "name": "Shule ya Msingi Mmomwe", "name:en": "Mmomwe Primary School", "name:sw": "Shule ya Msingi Mmomwe", "operator:type": "government", "source": "WFP Primary Schools Feeding Program Survey, 2023 by OMDTZ"}}, {"type": "node", "id": 10826667320, "lat": -2.9901843, "lon": 37.5576956, "tags": {"addr:city": "Kilimanjaro", "addr:district": "Rombo District Council", "addr:subward": "Mbomai", "addr:ward": "Tarakea_Motamburu", "amenity": "school", "isced:level": "1", "name": "Shule ya Msingi Tarakea", "name:en": "Tarakea Primary School", "name:sw": "Shule ya Msingi Tarakea", "operator:type": "government", "source": "WFP Primary Schools Feeding Program Survey, 2023 by OMDTZ"}}, {"type": "node", "id": 10826667323, "lat": -3.0749423, "lon": 37.6371919, "tags": {"addr:city": "Kilimanjaro", "addr:district": "Rombo District Council", "addr:subward": "Leto", "addr:ward": "Kingachi", "amenity": "school", "isced:level": "1", "name": "Shule ya Msingi Kingachi", "name:en": "Kingachi Primary School", "name:sw": "Shule ya Msingi Kingachi", "operator:type": "government", "source": "WFP Primary Schools Feeding Program Survey, 2023 by OMDTZ"}}, {"type": "node", "id": 10826667324, "lat": -3.0631673, "lon": 37.6429377, "tags": {"addr:city": "Kilimanjaro", "addr:district": "Rombo District Council", "addr:subward": "Usongo", "addr:ward": "Kingachi", "amenity": "school", "isced:level": "1", "name": "Shule ya Msingi Usongo", "name:en": "Usongo Primary School", "name:sw": "Shule ya Msingi Usongo", "operator:type": "government", "source": "WFP Primary Schools Feeding Program Survey, 2023 by OMDTZ"}}, {"type": "node", "id": 10826667325, "lat": -2.9349145, "lon": 37.4664976, "tags": {"addr:city": "Kilimanjaro", "addr:district": "Rombo District Council", "addr:subward": "Tfs Rongai", "addr:ward": "Motamburu Kitendeni", "amenity": "school", "isced:level": "1", "name": "Shule ya Msingi Rongai", "name:en": "Rongai Primary School", "name:sw": "Shule ya Msingi Rongai", "operator:type": "government", "source": "WFP Primary Schools Feeding Program Survey, 2023 by OMDTZ"}}, {"type": "node", "id": 10826667326, "lat": -3.0529438, "lon": 37.5991677, "tags": {"addr:city": "Kilimanjaro", "addr:district": "Rombo District Council", "addr:subward": "Ngaseni Village", "addr:ward": "Ubetu_Kahe", "amenity": "school", "isced:level": "1", "name": "Shule ya Msingi Mashima", "name:en": "Mashima Primary School", "name:sw": "Shule ya Msingi Mashima", "operator:type": "government", "source": "WFP Primary Schools Feeding Program Survey, 2023 by OMDTZ"}}, {"type": "node", "id": 10826667327, "lat": -3.1398158, "lon": 37.5866814, "tags": {"addr:city": "Kilimanjaro", "addr:district": "Rombo District Council", "addr:subward": "Mrere Village", "addr:ward": "Katangara/Mrere", "amenity": "school", "isced:level": "1", "name": "Shule ya Msingi Hiti", "name:en": "Hiti Primary School", "name:sw": "Shule ya Msingi Hiti", "operator:type": "government", "source": "WFP Primary Schools Feeding Program Survey, 2023 by OMDTZ"}}, {"type": "node", "id": 10826667334, "lat": -3.0298605, "lon": 37.5800791, "tags": {"addr:city": "Kilimanjaro", "addr:district": "Rombo District Council", "addr:subward": "Kibaoni", "addr:ward": "Nanjara", "amenity": "school", "isced:level": "1", "name": "Shule ya Msingi Urauri", "name:en": "Urauri Primary School", "name:sw": "Shule ya Msingi Urauri", "operator:type": "government", "source": "WFP Primary Schools Feeding Program Survey, 2023 by OMDTZ"}}, {"type": "node", "id": 10826667335, "lat": -3.0128918, "lon": 37.5945824, "tags": {"addr:city": "Kilimanjaro", "addr:district": "Rombo District Council", "addr:subward": "Nayeme", "addr:ward": "Nanjara", "amenity": "school", "isced:level": "1", "name": "Shule ya Msingi Kafumbu", "name:en": "Kafumbu Primary School", "name:sw": "Shule ya Msingi Kafumbu", "operator:type": "government", "source": "WFP Primary Schools Feeding Program Survey, 2023 by OMDTZ"}}, {"type": "node", "id": 10826667336, "lat": -3.0355864, "lon": 37.6055619, "tags": {"addr:city": "Kilimanjaro", "addr:district": "Rombo District Council", "addr:subward": "Urauri", "addr:ward": "Reha", "amenity": "school", "isced:level": "1", "name": "Shule ya Msingi Mhaka", "name:en": "Mhaka Primary School", "name:sw": "Shule ya Msingi Mhaka", "operator:type": "government", "source": "WFP Primary Schools Feeding Program Survey, 2023 by OMDTZ"}}, {"type": "node", "id": 10826667337, "lat": -3.1026793, "lon": 37.5849974, "tags": {"addr:city": "Kilimanjaro", "addr:district": "Rombo District Council", "addr:subward": "Sangasa Village", "addr:ward": "Kirongo_Samanga", "amenity": "school", "isced:level": "1", "name": "Shule ya Msingi Mamba", "name:en": "Mamba Primary School", "name:sw": "Shule ya Msingi Mamba", "operator:type": "government", "source": "WFP Primary Schools Feeding Program Survey, 2023 by OMDTZ"}}, {"type": "node", "id": 10826667338, "lat": -3.1561519, "lon": 37.6318679, "tags": {"addr:city": "Kilimanjaro", "addr:district": "Rombo District Council", "addr:subward": "Kiareni Village", "addr:ward": "Kirwa_Keni", "amenity": "school", "isced:level": "1", "name": "Shule ya Msingi Makaeni", "name:en": "Makaeni Primary School", "name:sw": "Shule ya Msingi Makaeni", "operator:type": "government", "source": "WFP Primary Schools Feeding Program Survey, 2023 by OMDTZ"}}, {"type": "node", "id": 10826667343, "lat": -3.1118727, "lon": 37.592347, "tags": {"addr:city": "Kilimanjaro", "addr:district": "Rombo District Council", "addr:subward": "Kooti Village", "addr:ward": "Olele", "amenity": "school", "isced:level": "1", "name": "Shule ya Msingi Kiruweni", "name:en": "Kiruweni Primary School", "name:sw": "Shule ya Msingi Kiruweni", "operator:type": "government", "source": "WFP Primary Schools Feeding Program Survey, 2023 by OMDTZ"}}, {"type": "node", "id": 10826667344, "lat": -3.0353904, "lon": 37.6052259, "tags": {"addr:city": "Kilimanjaro", "addr:district": "Rombo District Council", "addr:subward": "Urauri", "addr:ward": "Reha", "amenity": "school", "isced:level": "1", "name": "Shule ya Msingi Reha", "name:en": "Reha Primary School", "name:sw": "Shule ya Msingi Reha", "operator:type": "government", "source": "WFP Primary Schools Feeding Program Survey, 2023 by OMDTZ"}}, {"type": "node", "id": 10826667345, "lat": -3.1362252, "lon": 37.5920668, "tags": {"addr:city": "Kilimanjaro", "addr:district": "Rombo District Council", "addr:subward": "Katangara Village", "addr:ward": "Katangara/Mrere", "amenity": "school", "isced:level": "1", "name": "Shule ya Msingi Katangara", "name:en": "Katangara Primary School", "name:sw": "Shule ya Msingi Katangara", "operator:type": "government", "source": "WFP Primary Schools Feeding Program Survey, 2023 by OMDTZ"}}, {"type": "node", "id": 10826667346, "lat": -3.0391703, "lon": 37.6193413, "tags": {"addr:city": "Kilimanjaro", "addr:district": "Rombo District Council", "addr:subward": "Nesae", "addr:ward": "Reha", "amenity": "school", "isced:level": "1", "name": "Shule ya Msingi Nessae", "name:en": "Nessae Primary School", "name:sw": "Shule ya Msingi Nessae", "operator:type": "government", "source": "WFP Primary Schools Feeding Program Survey, 2023 by OMDTZ"}}, {"type": "node", "id": 10826667347, "lat": -3.1645128, "lon": 37.6011939, "tags": {"addr:city": "Kilimanjaro", "addr:district": "Rombo District Council", "addr:subward": "Mrao Village", "addr:ward": "Mrao_Keryo", "amenity": "school", "isced:level": "1", "name": "Shule ya Msingi Mkovanda", "name:en": "Mkovanda Primary School", "name:sw": "Shule ya Msingi Mkovanda", "operator:type": "government", "source": "WFP Primary Schools Feeding Program Survey, 2023 by OMDTZ"}}, {"type": "node", "id": 10826667348, "lat": -3.1006047, "lon": 37.6110898, "tags": {"addr:city": "Kilimanjaro", "addr:district": "Rombo District Council", "addr:subward": "Kirongo Juu Village", "addr:ward": "Kirongo_Samanga", "amenity": "school", "isced:level": "1", "name": "Shule ya Msingi Kwamboko", "name:en": "Kwamboko Primary School", "name:sw": "Shule ya Msingi Kwamboko", "operator:type": "government", "source": "WFP Primary Schools Feeding Program Survey, 2023 by OMDTZ"}}, {"type": "node", "id": 10826667351, "lat": -3.1625392, "lon": 37.5908043, "tags": {"addr:city": "Kilimanjaro", "addr:district": "Rombo District Council", "addr:subward": "Keryo Village", "addr:ward": "Mrao_Keryo", "amenity": "school", "isced:level": "1", "name": "Shule ya Msingi Keryo", "name:en": "Keryo Primary School", "name:sw": "Shule ya Msingi Keryo", "operator:type": "government", "source": "WFP Primary Schools Feeding Program Survey, 2023 by OMDTZ"}}, {"type": "node", "id": 10826667352, "lat": -2.9790092, "lon": 37.5425818, "tags": {"addr:city": "Kilimanjaro", "addr:district": "Rombo District Council", "addr:subward": "Kikelelwa", "addr:ward": "Tarakea_Motamburu", "amenity": "school", "isced:level": "1", "name": "Shule ya Msingi Motamburu Chini", "name:en": "Motamburu Chini Primary School", "name:sw": "Shule ya Msingi Motamburu Chini", "operator:type": "government", "source": "WFP Primary Schools Feeding Program Survey, 2023 by OMDTZ"}}, {"type": "node", "id": 10826667353, "lat": -3.1592647, "lon": 37.6473879, "tags": {"addr:city": "Kilimanjaro", "addr:district": "Rombo District Council", "addr:subward": "Kiraeni Village", "addr:ward": "Kirwa_Keni", "amenity": "school", "isced:level": "1", "name": "Shule ya Msingi Kiraeni", "name:en": "Kiraeni Primary School", "name:sw": "Shule ya Msingi Kiraeni", "operator:type": "government", "source": "WFP Primary Schools Feeding Program Survey, 2023 by OMDTZ"}}, {"type": "node", "id": 10826667354, "lat": -3.0948463, "lon": 37.6581719, "tags": {"addr:city": "Kilimanjaro", "addr:district": "Rombo District Council", "addr:subward": "Kirongo Chini", "addr:ward": "Kirongo_Samanga", "amenity": "school", "isced:level": "1", "name": "Shule ya Msingi Maweteta", "name:en": "Maweteta Primary School", "name:sw": "Shule ya Msingi Maweteta", "operator:type": "government", "source": "WFP Primary Schools Feeding Program Survey, 2023 by OMDTZ"}}, {"type": "node", "id": 10826667355, "lat": -3.0829831, "lon": 37.5777092, "tags": {"addr:city": "Kilimanjaro", "addr:district": "Rombo District Council", "addr:subward": "Msinga Village", "addr:ward": "Kitirima", "amenity": "school", "isced:level": "1", "name": "Shule ya Msingi Msinga", "name:en": "Msinga Primary School", "name:sw": "Shule ya Msingi Msinga", "operator:type": "government", "source": "WFP Primary Schools Feeding Program Survey, 2023 by OMDTZ"}}, {"type": "node", "id": 10826667359, "lat": -3.0712962, "lon": 37.589243, "tags": {"addr:city": "Kilimanjaro", "addr:district": "Rombo District Council", "addr:subward": "Lesoroma Village", "addr:ward": "Kitirima", "amenity": "school", "isced:level": "1", "name": "Shule ya Msingi Lesoroma", "name:en": "Lesoroma Primary School", "name:sw": "Shule ya Msingi Lesoroma", "operator:type": "government", "source": "WFP Primary Schools Feeding Program Survey, 2023 by OMDTZ"}}, {"type": "node", "id": 10826667361, "lat": -3.0034037, "lon": 37.5482533, "tags": {"addr:city": "Kilimanjaro", "addr:district": "Rombo District Council", "addr:subward": "Mbomai", "addr:ward": "Tarakea_Motamburu", "amenity": "school", "isced:level": "1", "name": "Shule ya Msingi Mbomai Juu", "name:en": "Mbomai Juu Primary School", "name:sw": "Shule ya Msingi Mbomai Juu", "operator:type": "government", "source": "WFP Primary Schools Feeding Program Survey, 2023 by OMDTZ"}}, {"type": "node", "id": 10826667363, "lat": -2.9875672, "lon": 37.5529476, "tags": {"addr:city": "Kilimanjaro", "addr:district": "Rombo District Council", "addr:subward": "Kikelelwa", "addr:ward": "Tarakea_Motamburu", "amenity": "school", "isced:level": "1", "name": "Shule ya Msingi Mokombero", "name:en": "Mokombero Primary School", "name:sw": "Shule ya Msingi Mokombero", "operator:type": "government", "source": "WFP Primary Schools Feeding Program Survey, 2023 by OMDTZ"}}, {"type": "way", "id": 207565821, "nodes": [2178267955, 2185379632, 2178267958, 2185379634, 2185379628, 2185379631, 2178267961, 2178267964, 2178267967, 2178267955], "tags": {"amenity": "school", "name": "Kings' Academy", "source": "Bing", "website": "https://www.the-kings-academy.com/"}}, {"type": "way", "id": 284671402, "nodes": [2883945395, 2883945396, 2883945397, 2883945398, 2883945399, 2883945400, 2883946201, 2883946202, 2883946203, 2883946204, 2883946205, 2883946206, 2883946207, 2883946208, 2883946209, 2883946210, 2883946211, 2883946212, 2883946213, 2883946214, 2883945395], "tags": {"amenity": "school", "name": "Oloitokitok Boys Secondary School"}}, {"type": "way", "id": 406118937, "nodes": [4082282438, 4082282440, 4082282443, 4082282444, 4082282445, 4082282448, 4082282449, 4082282450, 4082282438], "tags": {"amenity": "school", "name": "Mashati Primary School"}}, {"type": "way", "id": 406179772, "nodes": [4082842636, 4082842637, 4082842638, 4082842639, 4082842636], "tags": {"amenity": "school", "name": "Kirongo-Chini Primary School"}}, {"type": "way", "id": 410206944, "nodes": [4120567689, 4120567690, 4120567691, 4120567692, 4120567689], "tags": {"amenity": "school", "name": "NAMFUA SECONDARY SCHOOL"}}, {"type": "way", "id": 410213309, "nodes": [4120617508, 4120617509, 4120617510, 4120617511, 4120617512, 4120617513, 4120617508], "tags": {"amenity": "school", "name": "UMARINI SECONDARY SCHOOL"}}, {"type": "way", "id": 410218263, "nodes": [4120652189, 4120652190, 4120652191, 4120652192, 4120652189], "tags": {"amenity": "school", "name": "KIRONGOCHINI SECONDARY SCHOOL"}}, {"type": "way", "id": 411885047, "nodes": [4134720888, 4134721989, 4134721990, 4134721991, 4134720888], "tags": {"amenity": "school", "name": "KIRAENI GIRLS SECONDARY SCHOOL"}}, {"type": "way", "id": 412362261, "nodes": [4138130332, 4138130333, 4138130334, 4138130335, 4138130332], "tags": {"amenity": "school", "name": "USSERI SECONDARY SCHOOL"}}, {"type": "way", "id": 412368968, "nodes": [6668920143, 6668920144, 6668920145, 6668920146, 6668920147, 6668920148, 6779905304, 6668920149, 4138180803, 4138180804, 6668920135, 6668920136, 6668920137, 6668920138, 6668920139, 6668920140, 6668920141, 6668920142, 4138180805, 4138180806, 6668920143], "tags": {"amenity": "school", "name": "KISALE SECONDARY SCHOOL"}}, {"type": "way", "id": 412496443, "nodes": [4139101270, 6705391057, 4139101271, 6705391003, 4139101272, 6705391042, 4139101273, 4139101274, 4139101275, 6705390549, 4139101270], "tags": {"amenity": "school", "name": "MOTAMBURU SECONDARY SCHOOL"}}, {"type": "way", "id": 613834535, "nodes": [5807151896, 5807151897, 6242370041, 5807151898, 5807151896], "tags": {"amenity": "school", "name": "Belgrove Primary School Lemongo", "source": "Rombo Wildlife Conservancy Trust"}}, {"type": "way", "id": 613843507, "nodes": [5807216040, 5807216041, 6049997532, 5807216042, 5807216043, 5807216040], "tags": {"amenity": "school", "name": "Nasipa School"}}, {"type": "way", "id": 613845050, "nodes": [5807234391, 5807234392, 5807234393, 5807234394, 5807234395, 5807234396, 5807234397, 5807234398, 5807234391], "tags": {"amenity": "school", "name": "Esosian primary school", "source": "Rombo Wildlife Conservancy Trust"}}, {"type": "way", "id": 613845055, "nodes": [5807234399, 5807234400, 5807234401, 6249073525, 5807236227, 5807234402, 5807234399], "tags": {"amenity": "school", "name": "Colin Davies School"}}, {"type": "way", "id": 613848079, "nodes": [5807247808, 5807247809, 5807247810, 5807247811, 5807247812, 5807247813, 5807247814, 5807247815, 5807247816, 5807247808], "tags": {"amenity": "school", "name": "Matepas Primary School", "source": "Rombo Wildlife Conservancy Trust"}}, {"type": "way", "id": 627836161, "nodes": [5927094552, 5927094557, 5927094553, 5927094554, 5927094555, 5927094556, 5927094552], "tags": {"amenity": "school", "name": "Olgirra Primary School", "source": "Rombo Wildlife Conservancy Trust"}}, {"type": "way", "id": 894687488, "nodes": [8316334771, 8316334770, 8316334769, 8316334768, 8316334767, 8316334771], "tags": {"amenity": "school", "name": "Oloirien High School", "source": "Rombo Wildlife Conservancy Trust"}}, {"type": "way", "id": 894688653, "nodes": [8316346729, 8316346728, 8316346727, 8316346726, 8316346725, 8316346729], "tags": {"amenity": "school", "name": "Ol Mapinu Primary School", "source": "Rombo Wildlife Conservancy Trust"}}]}