{"version": 0.6, "generator": "Overpass API 0.7.61.5 4133829e", "osm3s": {"timestamp_osm_base": "2024-03-06T10:48:03Z", "copyright": "The data included in this document is from www.openstreetmap.org. The data is made available under ODbL."}, "elements": [{"type": "node", "id": 4452889983, "lat": 36.1658021, "lon": 45.4709658}, {"type": "node", "id": 4452889984, "lat": 36.165696, "lon": 45.470896}, {"type": "node", "id": 4452889985, "lat": 36.1655011, "lon": 45.4712501}, {"type": "node", "id": 4452889986, "lat": 36.1657804, "lon": 45.4710596}, {"type": "node", "id": 4452889987, "lat": 36.1657631, "lon": 45.4710382}, {"type": "node", "id": 4589142154, "lat": 36.1656419, "lon": 45.4709943, "tags": {"barrier": "entrance"}}, {"type": "node", "id": 5773050153, "lat": 36.1816071, "lon": 45.1294996, "tags": {"amenity": "college", "name": "\u0633\u0646\u062a\u0631 \u062a\u0639\u0644\u0645 \u0627\u064a\u0646\u062f\u0647", "name:en": "aynda tutorial center", "name:ku": "\u0633\u06d5\u0646\u062a\u06d5\u0631\u06cc \u0641\u06ce\u0631\u06a9\u0627\u0631\u06cc \u0626\u0627\u06cc\u0646\u062f\u06d5", "opening_hours": "Sa-Th 07:00-19:00", "operator": "\u0633\u06d5\u0646\u062a\u06d5\u0631\u06cc \u0641\u06ce\u0631\u06a9\u0627\u0631\u06cc \u0626\u0627\u06cc\u0646\u062f\u06d5 \u0628\u06c6 \u067e\u06c6\u0644\u06cc 12", "phone": "9647501079364", "website": "https://m.facebook.com/profile.php?id=1690909224509066&ref=content_filter"}}, {"type": "node", "id": 6684875585, "lat": 36.1825081, "lon": 45.1294813, "tags": {"addr:street": "\u0641\u0648\u0644\u06a9\u0647 \u06cc \u0645\u0631\u0648\u0631\u0627\u0646w", "amenity": "college", "name": "\u062e\u0627\u0646\u06d5\u06cc \u0641\u06ce\u0631\u06a9\u0627\u0631\u06cc \u0647\u06c6\u0631\u0627\u06cc\u0632\u0646", "name:en": "Horizon education center", "opening_hours": "Mo-Su 08:00-18:00", "operator": "Mohammed Rauf Najm", "phone": "07500660528"}}, {"type": "node", "id": 7994604371, "lat": 36.2030092, "lon": 45.0882952, "tags": {"amenity": "university", "name": "University of Raparin Dormitory"}}, {"type": "way", "id": 448261377, "nodes": [4452889983, 4452889984, 4589142154, 4452889985, 4452889986, 4452889987, 4452889983], "tags": {"amenity": "university", "building:levels": "2", "height": "7 m", "name": "\u062f\u0627\u0646\u0634\u06af\u0627\u0647 \u0622\u0632\u0627\u062f \u0627\u0633\u0644\u0627\u0645\u06cc \u0633\u0631\u062f\u0634\u062a", "website": "https://sardasht.iau.ir/"}}]}