{"version": 0.6, "generator": "Overpass API 0.7.61.5 4133829e", "osm3s": {"timestamp_osm_base": "2024-03-06T11:18:45Z", "copyright": "The data included in this document is from www.openstreetmap.org. The data is made available under ODbL."}, "elements": [{"type": "node", "id": 567214900, "lat": 36.9952778, "lon": 42.2111111, "tags": {"alt_name": "\u062a\u0644 \u062e\u0646\u0632\u064a\u0631 \u0641\u0648\u0642\u0627\u0646\u064a", "int_name": "Tall Khinzir al Kabir, Tall Khinz\u012br al Kab\u012br, Tell Khannzir Kebir, Tell Khannz\u00eer K\u00e9b\u00eer, Tall Khinz\u012br Fawq\u0101n\u012b", "is_in": "Syria - \u0627\u0644\u062c\u0645\u0647\u0648\u0631\u064a\u0629 \u0627\u0644\u0633\u0648\u0631\u064a\u0629", "name": "\u062a\u0644 \u062e\u0646\u0632\u064a\u0631 \u0641\u0648\u0642\u0627\u0646\u064a", "name:ar": "\u062a\u0644 \u062e\u0646\u0632\u064a\u0631 \u0641\u0648\u0642\u0627\u0646\u064a", "name:ar1": "\u062a\u0644 \u062e\u0646\u0632\u064a\u0631 \u0641\u0648\u0642\u0627\u0646\u064a", "name:de": "Tall Khinzir Fawqani", "name:en": "Tall Khinzir Fawqani", "name:fr": "Tall Khinzir Fawqani", "place": "village"}}, {"type": "node", "id": 567214909, "lat": 36.9563889, "lon": 42.1566667, "tags": {"name": "\u0627\u0644\u0633\u0648\u064a\u062f\u064a\u0629", "name:ar": "\u0627\u0644\u0633\u0648\u064a\u062f\u064a\u0629", "name:de": "As Suwayd\u012byah", "name:en": "As Suwaydiyah", "name:fr": "As Suwaydiyah", "name:ku": "Su\u00eadiy\u00ea", "place": "village"}}, {"type": "node", "id": 567214924, "lat": 36.9628857, "lon": 42.1858123, "tags": {"name": "\u0642\u0644\u062f\u0645\u0627\u0646", "name:alt": "Qulduman", "name:ar": "\u0642\u0644\u062f\u0645\u0627\u0646", "name:de": "Quldman", "name:en": "Quldman", "name:fr": "Quldman", "name:ku": "Qulduman", "place": "village"}}, {"type": "node", "id": 571230679, "lat": 36.9788889, "lon": 42.2477778, "tags": {"alt_name": "\u0642\u0644\u0639\u0629 \u0627\u0644\u062d\u0635\u0646", "alt_name:ar": "\u0642\u0644\u0639\u0629 \u0627\u0644\u062d\u0635\u0646", "alt_name:en": "Qal`at al Hisn", "name": "\u0643\u0644\u0647\u064a", "name:ar": "\u0643\u0644\u0647\u064a", "name:de": "Kalhe", "name:en": "Kalhe", "name:fr": "Kalhe", "name:ku": "Kelh\u00ea", "official_name": "\u0642\u0644\u0639\u0629 \u0627\u0644\u062d\u0635\u0646", "official_name:ar": "\u0642\u0644\u0639\u0629 \u0627\u0644\u062d\u0635\u0646", "place": "village"}}, {"type": "node", "id": 571230708, "lat": 37.0338889, "lon": 42.2252778, "tags": {"alt_name": "\u0623\u0645 \u0627\u0644\u062a\u0644\u0648\u0644", "alt_name:ar": "\u0623\u0645 \u0627\u0644\u062a\u0644\u0648\u0644", "alt_name:de": "Umm at Tul\u016bl", "alt_name:en": "Umm at Tulul", "name": "\u0643\u0631 \u0643\u0646\u062f\u0627\u0644", "name:ar": "\u0643\u0631 \u0643\u0646\u062f\u0627\u0644", "name:de": "Gir Kendal", "name:en": "Gir Kendal", "name:fr": "Gir Kendal", "name:ku": "Gir Kendal", "official_name": "\u0623\u0645 \u0627\u0644\u062a\u0644\u0648\u0644", "official_name:ar": "\u0623\u0645 \u0627\u0644\u062a\u0644\u0648\u0644", "place": "village"}}, {"type": "node", "id": 571230717, "lat": 37.0, "lon": 42.2166667, "tags": {"alt_name": "\u062d\u0645\u0627\u0645\u0643", "int_name": "Hammamok, Hamm\u00e2mok, \u1e28amm\u0101muk", "is_in": "Syria - \u0627\u0644\u062c\u0645\u0647\u0648\u0631\u064a\u0629 \u0627\u0644\u0633\u0648\u0631\u064a\u0629", "name": "\u062d\u0645\u0627\u0645\u0643", "name:ar": "\u062d\u0645\u0627\u0645\u0643", "name:ar1": "\u062d\u0645\u0627\u0645\u0643", "name:de": "Hammamuk", "name:en": "Hammamuk", "name:fr": "Hammamuk", "place": "village"}}, {"type": "node", "id": 571230736, "lat": 37.0216667, "lon": 42.305, "tags": {"alt_name": "\u0639\u064a\u0646 \u0639\u0643\u0641\u0629 \u0627\u0644\u0645\u0639\u0644\u062c\u064a", "is_in": "Syria - \u0627\u0644\u062c\u0645\u0647\u0648\u0631\u064a\u0629 \u0627\u0644\u0633\u0648\u0631\u064a\u0629", "name": "\u0639\u064a\u0646 \u0639\u0643\u0641\u0629 \u0627\u0644\u0645\u0639\u0644\u062c\u064a", "name:alt": "`Ayn `Akfat al Ma`laj\u012b", "name:ar": "\u0639\u064a\u0646 \u0639\u0643\u0641\u0629 \u0627\u0644\u0645\u0639\u0644\u062c\u064a", "name:ar1": "\u0639\u064a\u0646 \u0639\u0643\u0641\u0629 \u0627\u0644\u0645\u0639\u0644\u062c\u064a", "name:de": "`Ayn `Akfat al Ma`laji", "name:en": "`Ayn `Akfat al Ma`laji", "name:fr": "`Ayn `Akfat al Ma`laji", "place": "village"}}, {"type": "node", "id": 571230744, "lat": 37.0602778, "lon": 42.3094444, "tags": {"alt_name": "Guir Balate, Guir Bal\u00e2te, K\u012br Bal\u0101\u0163", "name": "\u0643\u064a\u0631 \u0628\u0644\u0627\u0637", "name:ar": "\u0643\u064a\u0631 \u0628\u0644\u0627\u0637", "name:de": "Kir Balat", "name:en": "Kir Balat", "name:fr": "Kir Balat", "place": "village"}}, {"type": "node", "id": 571230749, "lat": 37.0, "lon": 42.3, "tags": {"alt_name": "\u0639\u064a\u0646 \u0639\u0631\u0646\u0629", "int_name": "Ain Aarne, A\u00efn Aarne, `Ayn `Arnah", "is_in": "Syria - \u0627\u0644\u062c\u0645\u0647\u0648\u0631\u064a\u0629 \u0627\u0644\u0633\u0648\u0631\u064a\u0629", "name": "\u0639\u064a\u0646 \u0639\u0631\u0646\u0629", "name:ar": "\u0639\u064a\u0646 \u0639\u0631\u0646\u0629", "name:ar1": "\u0639\u064a\u0646 \u0639\u0631\u0646\u0629", "name:de": "`Ayn `Arnah", "name:en": "`Ayn `Arnah", "name:fr": "`Ayn `Arnah", "place": "village"}}, {"type": "node", "id": 571230753, "lat": 37.0711111, "lon": 42.3297222, "tags": {"alt_name": "Topamich, Toramich, \u0162ur\u0101mish", "name": "\u0637\u0631\u0627\u0645\u0634", "name:ar": "\u0637\u0631\u0627\u0645\u0634", "name:de": "Turamish", "name:en": "Turamish", "name:fr": "Turamish", "place": "village"}}, {"type": "node", "id": 571230770, "lat": 37.0808333, "lon": 42.31, "tags": {"name": "\u0627\u0644\u0645\u0631\u062c \u0627\u0644\u0623\u062e\u0636\u0631", "name:alt": "Al Marj al Akh\u1e11ar", "name:ar": "\u0627\u0644\u0645\u0631\u062c \u0627\u0644\u0623\u062e\u0636\u0631", "name:de": "Al Marj al Akhdar", "name:en": "Al Marj al Akhdar", "name:fr": "Al Marj al Akhdar", "place": "village"}}, {"type": "node", "id": 571230799, "lat": 36.9922222, "lon": 42.2247222, "tags": {"alt_name": "\u062a\u0644 \u062e\u0646\u0632\u064a\u0631 \u062a\u062d\u062a\u0627\u0646\u064a", "int_name": "Tall Khinzir as Saghir, Tall Khinz\u012br a\u015f \u015eagh\u012br, Tell Khannzir Serhir, Tell Khannz\u00eer S\u00e9rh\u00eer, Tall Khinz\u012br Ta\u1e29t\u0101n\u012b", "is_in": "Syria - \u0627\u0644\u062c\u0645\u0647\u0648\u0631\u064a\u0629 \u0627\u0644\u0633\u0648\u0631\u064a\u0629", "name": "\u062a\u0644 \u062e\u0646\u0632\u064a\u0631 \u062a\u062d\u062a\u0627\u0646\u064a", "name:ar": "\u062a\u0644 \u062e\u0646\u0632\u064a\u0631 \u062a\u062d\u062a\u0627\u0646\u064a", "name:ar1": "\u062a\u0644 \u062e\u0646\u0632\u064a\u0631 \u062a\u062d\u062a\u0627\u0646\u064a", "name:de": "Tall Khinzir Tahtani", "name:en": "Tall Khinzir Tahtani", "name:fr": "Tall Khinzir Tahtani", "place": "village"}}, {"type": "node", "id": 571230815, "lat": 37.1, "lon": 42.3333333, "tags": {"alt_name": "\u062e\u0631\u0627\u0628 \u0631\u0648\u0646", "int_name": "Kharab Roun, Khar\u00e2b Ro\u00fbn, Khar\u0101b R\u016bn", "name": "\u062e\u0631\u0627\u0628 \u0631\u0648\u0646", "name:ar": "\u062e\u0631\u0627\u0628 \u0631\u0648\u0646", "name:ar1": "\u062e\u0631\u0627\u0628 \u0631\u0648\u0646", "name:de": "Kharab Run", "name:en": "Kharab Run", "name:fr": "Kharab Run", "place": "village"}}, {"type": "node", "id": 571230826, "lat": 37.03, "lon": 42.2838889, "tags": {"alt_name": "\u0643\u0641 \u0627\u0644\u0623\u0633\u0648\u062f", "is_in": "Syria - \u0627\u0644\u062c\u0645\u0647\u0648\u0631\u064a\u0629 \u0627\u0644\u0633\u0648\u0631\u064a\u0629", "name": "\u0643\u0641 \u0627\u0644\u0623\u0633\u0648\u062f", "name:alt": "Kaff al Aswad", "name:ar": "\u0643\u0641 \u0627\u0644\u0623\u0633\u0648\u062f", "name:ar1": "\u0643\u0641 \u0627\u0644\u0623\u0633\u0648\u062f", "name:de": "Kaff al Aswad", "name:en": "Kaff al Aswad", "name:fr": "Kaff al Aswad", "place": "village"}}, {"type": "node", "id": 2461440799, "lat": 36.9563265, "lon": 42.2706718, "tags": {"place": "hamlet"}}, {"type": "node", "id": 2461440822, "lat": 36.9794992, "lon": 42.3037769, "tags": {"place": "hamlet"}}, {"type": "node", "id": 2461440943, "lat": 36.9918722, "lon": 42.32201, "tags": {"place": "hamlet"}}, {"type": "node", "id": 2461441148, "lat": 37.012888, "lon": 42.3416274, "tags": {"place": "hamlet"}}, {"type": "node", "id": 4557094221, "lat": 37.0051381, "lon": 42.2368848, "tags": {"fixme": "name", "place": "village"}}, {"type": "node", "id": 4590701138, "lat": 36.9329794, "lon": 42.1758501, "tags": {"fixme": "name", "place": "village"}}]}