{"version": 0.6, "generator": "Overpass API 0.7.61.5 4133829e", "osm3s": {"timestamp_osm_base": "2024-03-05T14:54:41Z", "copyright": "The data included in this document is from www.openstreetmap.org. The data is made available under ODbL."}, "elements": [{"type": "node", "id": 514797336, "lat": 58.3089382, "lon": 14.2998331, "tags": {"addr:city": "Hjo", "addr:country": "SE", "addr:housenumber": "4A", "addr:postcode": "544 33", "addr:street": "Karlsborgsv\u00e4gen", "amenity": "clinic", "contact:phone": "+46 503 227 00", "healthcare": "clinic", "name": "N\u00e4rh\u00e4lsan Hjo v\u00e5rdcentral", "network": "V\u00e4stra G\u00f6talandsregionen", "operator": "V\u00e4stra G\u00f6talandsregionen", "website": "https://www.narhalsan.se/hitta-mottagning/hjo/narhalsan-hjo-vardcentral/"}}, {"type": "node", "id": 636865758, "lat": 58.530651, "lon": 14.5118215, "tags": {"amenity": "pharmacy", "brand": "Kronans Apotek", "brand:wikidata": "Q10549422", "brand:wikipedia": "sv:Kronans Droghandel", "dispensing": "yes", "drive_through": "no", "healthcare": "pharmacy", "name": "Kronans Apotek", "opening_hours": "Mo-Fr 09:00-18:00; Sa 10:00-13:00"}}, {"type": "node", "id": 6442472757, "lat": 58.5745887, "lon": 14.0056365, "tags": {"addr:city": "Tidan", "addr:country": "SE", "addr:housenumber": "5", "addr:postcode": "549 31", "addr:street": "Tidanv\u00e4gen", "amenity": "clinic", "contact:phone": "+46 500 49 51 00", "healthcare": "clinic", "name": "N\u00e4rh\u00e4lsan Tidan v\u00e5rdcentral", "network": "V\u00e4stra G\u00f6talandsregionen", "operator": "V\u00e4stra G\u00f6talandsregionen"}}, {"type": "node", "id": 9008145606, "lat": 58.530458, "lon": 14.5153917, "tags": {"addr:city": "Karlsborg", "addr:country": "SE", "addr:housenumber": "4B", "addr:postcode": "546 30", "addr:street": "K\u00e4rleksstigen", "amenity": "clinic", "name": "N\u00e4rh\u00e4lsan Karlsborg v\u00e5rdcentral", "operator": "V\u00e4stra G\u00f6talandsregionen", "phone": "+46 505 183 00", "website": "https://www.narhalsan.se/hitta-mottagning/karlsborg/narhalsan-karlsborg-vardcentral/"}}, {"type": "node", "id": 9010978159, "lat": 58.4252578, "lon": 14.1648772, "tags": {"addr:city": "Tibro", "addr:country": "SE", "addr:housenumber": "17", "addr:postcode": "543 30", "addr:street": "Centrumgatan", "amenity": "clinic", "name": "N\u00e4rh\u00e4lsan Tibro v\u00e5rdcentral", "operator": "V\u00e4stra G\u00f6talandsregionen", "phone": "+46 504 40 300", "website": "https://www.narhalsan.se/hitta-mottagning/tibro/narhalsan-tibro-vardcentral/"}}, {"type": "node", "id": 9025967831, "lat": 58.4257276, "lon": 14.1644374, "tags": {"addr:city": "Tibro", "addr:country": "SE", "addr:housenumber": "11", "addr:postcode": "543 30", "addr:street": "Centrumgatan", "amenity": "clinic", "name": "N\u00e4rh\u00e4lsan Tibro rehabmottagning", "operator": "V\u00e4stra G\u00f6talandsregionen", "phone": "+46 504 40 364", "website": "https://www.narhalsan.se/hitta-mottagning/tibro/narhalsan-tibro-rehabmottagning/"}}, {"type": "node", "id": 9025967832, "lat": 58.4252325, "lon": 14.1648746, "tags": {"addr:city": "Tibro", "addr:country": "SE", "addr:housenumber": "17", "addr:postcode": "543 30", "addr:street": "Centrumgatan", "amenity": "clinic", "name": "N\u00e4rh\u00e4lsan Tibro barnav\u00e5rdscentral", "operator": "V\u00e4stra G\u00f6talandsregionen", "phone": "+46 504 40 300", "website": "https://www.narhalsan.se/hitta-mottagning/tibro/narhalsan-tibro-barnavardscentral/"}}, {"type": "node", "id": 9025989685, "lat": 58.5745668, "lon": 14.0056466, "tags": {"addr:city": "Tidan", "addr:country": "SE", "addr:housenumber": "5A", "addr:postcode": "549 31", "addr:street": "Tidanv\u00e4gen", "amenity": "clinic", "name": "N\u00e4rh\u00e4lsan Tidan barnav\u00e5rdscentral", "operator": "V\u00e4stra G\u00f6talandsregionen", "phone": "+46 500 49 51 00", "website": "https://www.narhalsan.se/hitta-mottagning/skovde/narhalsan-tidan-barnavardscentral/"}}, {"type": "node", "id": 9029777347, "lat": 58.530311, "lon": 14.5153588, "tags": {"addr:city": "Karlsborg", "addr:country": "SE", "addr:housenumber": "4B", "addr:postcode": "546 30", "addr:street": "K\u00e4rleksstigen", "amenity": "clinic", "name": "N\u00e4rh\u00e4lsan Karlsborg rehabmottagning", "operator": "V\u00e4stra G\u00f6talandsregionen", "phone": "+46 505 183 38", "website": "https://www.narhalsan.se/hitta-mottagning/karlsborg/narhalsan-karlsborg-rehabmottagning/"}}, {"type": "node", "id": 9029795184, "lat": 58.530381, "lon": 14.5153508, "tags": {"addr:city": "Karlsborg", "addr:country": "SE", "addr:housenumber": "4B", "addr:postcode": "546 30", "addr:street": "K\u00e4rleksstigen", "amenity": "clinic", "name": "N\u00e4rh\u00e4lsan Karlsborg barnav\u00e5rdscentral", "operator": "V\u00e4stra G\u00f6talandsregionen", "phone": "+46 505 183 00", "website": "https://www.narhalsan.se/hitta-mottagning/karlsborg/narhalsan-karlsborg-barnavardscentral/"}}, {"type": "node", "id": 9029809712, "lat": 58.3088431, "lon": 14.2998366, "tags": {"addr:city": "Hjo", "addr:country": "SE", "addr:housenumber": "4A", "addr:postcode": "544 33", "addr:street": "Karlsborgsv\u00e4gen", "amenity": "clinic", "name": "N\u00e4rh\u00e4lsan Hjo rehabmottagning", "operator": "V\u00e4stra G\u00f6talandsregionen", "phone": "+46 503 227 43", "website": "https://www.narhalsan.se/hitta-mottagning/hjo/narhalsan-hjo-rehabmottagning/"}}, {"type": "node", "id": 9029833910, "lat": 58.3088851, "lon": 14.2998312, "tags": {"addr:city": "Hjo", "addr:country": "SE", "addr:housenumber": "4A", "addr:postcode": "544 33", "addr:street": "Karlsborgsv\u00e4gen", "amenity": "clinic", "name": "N\u00e4rh\u00e4lsan Hjo barnav\u00e5rdscentral", "operator": "V\u00e4stra G\u00f6talandsregionen", "phone": "+46 503 227 00", "website": "https://www.narhalsan.se/hitta-mottagning/hjo/narhalsan-hjo-barnavardscentral/"}}, {"type": "node", "id": 11505837898, "lat": 58.3079007, "lon": 14.2858427, "tags": {"amenity": "clinic", "healthcare": "clinic", "name": "H\u00e4lsocentralen"}}, {"type": "node", "id": 11505842845, "lat": 58.4229966, "lon": 14.1665417, "tags": {"amenity": "clinic", "healthcare": "clinic", "name": "H\u00e4lsocentralen i Tibro"}}]}