{"version": 0.6, "generator": "Overpass API 0.7.61.5 4133829e", "osm3s": {"timestamp_osm_base": "2024-03-05T13:45:00Z", "copyright": "The data included in this document is from www.openstreetmap.org. The data is made available under ODbL."}, "elements": [{"type": "node", "id": 1137396210, "lat": 37.141538, "lon": 69.7990764, "tags": {"alt_name": "Rostaq;Rustak", "name": "\u0631\u0633\u062a\u0627\u0642", "name:en": "Rustaq", "name:ps": "\u0631\u0633\u062a\u0627\u0642", "name:ru": "\u0420\u0443\u0441\u0442\u0430\u043a", "place": "town", "source:name": "GNS"}}, {"type": "node", "id": 4388685275, "lat": 37.1456901, "lon": 69.449124, "tags": {"alt_name": "Shahr-e Dasht-e Qal`eh;Daste Qal`a;Dasht-e Qal`eh;Dashti-Kala;Dasht Qala;Dasht-e Qal`ah", "name": "\u062f\u0634\u062a \u0642\u0644\u0639\u0647", "name:en": "Dast-i-Qal'a", "name:ps": "\u062f\u0634\u062a \u0642\u0644\u0639\u0647", "place": "town", "source:name": "GNS"}}, {"type": "node", "id": 4388946275, "lat": 37.159471, "lon": 69.768225, "tags": {"name": "\u0622\u06af\u06a9\u0648\u0631\u0648", "name:en": "Agakuru", "name:ps": "\u0622\u06af\u06a9\u0648\u0631\u0648", "place": "village", "source:name": "GNS"}}, {"type": "node", "id": 4388946276, "lat": 37.128499, "lon": 69.84058, "tags": {"name": "\u0628\u06cc\u0646\u06cc \u0645\u0644\u062e", "name:en": "Bini Malakh", "name:ps": "\u0628\u06cc\u0646\u06cc \u0645\u0644\u062e", "place": "village", "source:name": "GNS"}}, {"type": "node", "id": 4388946277, "lat": 37.130662, "lon": 69.87805, "tags": {"alt_name": "Caghyan", "name": "\u0686\u063a\u06cc\u0627\u0646", "name:en": "Chaghian", "name:ps": "\u0686\u063a\u06cc\u0627\u0646", "place": "village", "source:name": "GNS"}}, {"type": "node", "id": 4388946278, "lat": 37.137843, "lon": 69.830397, "tags": {"alt_name": "Dast-i-Qos Khana;Dasht-e Qosh Khaneh", "name": "\u062f\u0634\u062a \u0642\u0648\u0634 \u062e\u0627\u0646\u0647", "name:en": "Dasht-e Qosh Khanah", "name:ps": "\u062f\u0634\u062a \u0642\u0648\u0634 \u062e\u0627\u0646\u0647", "place": "village", "source:name": "GNS"}}, {"type": "node", "id": 4388946279, "lat": 37.16906, "lon": 69.810834, "tags": {"alt_name": "Ganda;Gandeh", "name": "\u06af\u0646\u062f\u0647", "name:en": "Gandah", "name:ps": "\u06af\u0646\u062f\u0647", "place": "village", "source:name": "GNS"}}, {"type": "node", "id": 4388946280, "lat": 37.147022, "lon": 69.821452, "tags": {"name": "\u06af\u0648\u06af\u0631\u06cc", "name:en": "Gugari", "name:ps": "\u06af\u0648\u06af\u0631\u06cc", "place": "village", "source:name": "GNS"}}, {"type": "node", "id": 4388946281, "lat": 37.119876, "lon": 69.852145, "tags": {"alt_name": "Khanaqa", "name": "\u062e\u0627\u0646\u0642\u0627", "name:en": "Khaneqah", "name:ps": "\u062e\u0627\u0646\u0642\u0627", "place": "village", "source:name": "GNS"}}, {"type": "node", "id": 4388946283, "lat": 37.124626, "lon": 69.795711, "tags": {"name": "\u0633\u0647 \u0622\u0628", "name:en": "Seh Ab", "name:ps": "\u0633\u0647 \u0622\u0628", "place": "village", "source:name": "GNS"}}, {"type": "node", "id": 4388946284, "lat": 37.168458, "lon": 69.794652, "tags": {"alt_name": "Sakari;Shekari", "name": "\u0634\u06a9\u0631\u06cc", "name:en": "Shakari", "name:ps": "\u0634\u06a9\u0631\u06cc", "place": "village", "source:name": "GNS"}}, {"type": "node", "id": 4388946285, "lat": 37.165345, "lon": 69.783575, "tags": {"alt_name": "Tonowk;Tonuk", "name": "\u062a\u0646\u0648\u06a9", "name:en": "Tunuk", "name:ps": "\u062a\u0646\u0648\u06a9", "place": "village", "source:name": "GNS"}}, {"type": "node", "id": 8101186877, "lat": 37.0842595, "lon": 69.4818266, "tags": {"name": "\u0622\u0631\u062a \u062e\u0648\u0627\u062c\u0647", "name:en": "Art Khwajah", "place": "village", "wikidata": "Q21765117"}}]}