{"version": 0.6, "generator": "Overpass API 0.7.61.5 4133829e", "osm3s": {"timestamp_osm_base": "2024-02-29T13:48:25Z", "copyright": "The data included in this document is from www.openstreetmap.org. The data is made available under ODbL."}, "elements": [{"type": "node", "id": 916923268, "lat": 10.6821351, "lon": 0.1387547, "tags": {"amenity": "school"}}, {"type": "node", "id": 6484418786, "lat": 10.6848221, "lon": 0.1545573, "tags": {"amenity": "school", "name": "EPP Goundoga"}}, {"type": "node", "id": 8130693555, "lat": 10.657776, "lon": 0.1963841, "tags": {"amenity": "school", "name": "Lyc\u00e9e de Tandjouar\u00e9"}}, {"type": "node", "id": 8130700225, "lat": 10.6654781, "lon": 0.2005951, "tags": {"amenity": "school", "name": "Ecole primaire de Tandjouar\u00e9"}}, {"type": "node", "id": 8130743594, "lat": 10.6211558, "lon": 0.2236558, "tags": {"amenity": "school", "name": "CEG Nandoga"}}, {"type": "node", "id": 8130751600, "lat": 10.6216251, "lon": 0.222422, "tags": {"amenity": "school", "name": "Ecole primaire de Natigou"}}, {"type": "node", "id": 9005237604, "lat": 10.6151433, "lon": 0.1124033, "tags": {"amenity": "school", "name": "EPP Lokpano"}}, {"type": "node", "id": 9005243752, "lat": 10.6105637, "lon": 0.1502868, "tags": {"amenity": "school", "name": "EPP Noak-Louambene"}}, {"type": "node", "id": 9045594978, "lat": 10.659758, "lon": 0.171625, "tags": {"amenity": "school", "name": "EPP Bogou"}}, {"type": "node", "id": 9064115570, "lat": 10.5749117, "lon": 0.1315267, "tags": {"amenity": "school", "name": "EPP Brouk"}}, {"type": "node", "id": 9065304209, "lat": 10.596095, "lon": 0.1043783, "tags": {"amenity": "school", "name": "Dotik"}}, {"type": "node", "id": 9099534820, "lat": 10.7204878, "lon": 0.1855699, "tags": {"amenity": "school", "name": "EPP Nassiete"}}, {"type": "node", "id": 9102652116, "lat": 10.63547, "lon": 0.0922117, "tags": {"amenity": "school", "name": "EPP Siguibagou"}}, {"type": "node", "id": 9119659490, "lat": 10.7260053, "lon": 0.1782064, "tags": {"amenity": "school", "name": "CEG Nassiete"}}, {"type": "node", "id": 9120518545, "lat": 10.6994168, "lon": 0.0954082, "tags": {"amenity": "school", "name": "\u00c9cole primaire publique Kpamboulk"}}, {"type": "node", "id": 9149881362, "lat": 10.4347598, "lon": 0.3136499, "tags": {"amenity": "school", "name": "EPP Nambouessou"}}, {"type": "node", "id": 9170588985, "lat": 10.343935, "lon": 0.3420728, "tags": {"amenity": "school"}}, {"type": "node", "id": 9181355747, "lat": 10.6332347, "lon": 0.1405829, "tags": {"amenity": "school", "name": "EPP Lokpergou"}}, {"type": "node", "id": 9201735029, "lat": 10.3436479, "lon": 0.3420244, "tags": {"amenity": "school", "name": "EPP Mantche"}}, {"type": "node", "id": 9201765430, "lat": 10.3658903, "lon": 0.314569, "tags": {"amenity": "school", "name": "EPP Tanad\u00e9k\u00e9bou"}}, {"type": "node", "id": 9256648433, "lat": 10.4306226, "lon": 0.2607677, "tags": {"amenity": "school", "name": "Epp Tambinamone"}}, {"type": "node", "id": 9256670642, "lat": 10.4352074, "lon": 0.3137749, "tags": {"amenity": "school", "name": "EPP Nambouessou"}}, {"type": "node", "id": 9278345567, "lat": 10.5798089, "lon": 0.2507324, "tags": {"amenity": "school", "name": "EPP Nassongue"}}, {"type": "node", "id": 9278468931, "lat": 10.5868725, "lon": 0.259499, "tags": {"amenity": "school", "name": "CEG Loko"}}, {"type": "node", "id": 9321607739, "lat": 10.524227, "lon": 0.0844467}, {"type": "node", "id": 9321607740, "lat": 10.5243061, "lon": 0.0850314}, {"type": "node", "id": 9321607741, "lat": 10.5244485, "lon": 0.085777}, {"type": "node", "id": 9321607742, "lat": 10.5244432, "lon": 0.0865978}, {"type": "node", "id": 9321607743, "lat": 10.52419, "lon": 0.0871128}, {"type": "node", "id": 9321607744, "lat": 10.5242902, "lon": 0.0886577}, {"type": "node", "id": 9321607745, "lat": 10.5224495, "lon": 0.0894678}, {"type": "node", "id": 9321607746, "lat": 10.5213103, "lon": 0.0901088}, {"type": "node", "id": 9321607747, "lat": 10.5208541, "lon": 0.0884914}, {"type": "node", "id": 9321607748, "lat": 10.5202396, "lon": 0.0866944}, {"type": "node", "id": 9321607749, "lat": 10.5199707, "lon": 0.0846183}, {"type": "node", "id": 9920189331, "lat": 10.7230417, "lon": 0.0968133, "tags": {"amenity": "school", "name": "EPP Dore"}}, {"type": "node", "id": 9932681339, "lat": 10.5015283, "lon": 0.1537567, "tags": {"amenity": "school", "name": "EPP Gbampak"}}, {"type": "way", "id": 1010281107, "nodes": [9321607749, 9321607748, 9321607747, 9321607746, 9321607745, 9321607744, 9321607743, 9321607742, 9321607741, 9321607740, 9321607739, 9321607749], "tags": {"addr:country": "GH", "addr:district": "Bunkpurugu-Yunyoo", "addr:place": "Bunkpurugu", "addr:region": "North East", "amenity": "school", "description": "The school was established in 1991. The school started from the old building of the then Bunkpurugu Middle Day School which metamorphosed from the Local Authority Primary School.", "email": "bunkpurugushst@ges.gov.gh", "isced:level": "3", "name": "Bunkpurugu Senior High/Technical School", "operator": "Ghana Education Service", "operator:short": "GES", "operator:type": "public", "operator:wikidata": "Q30263788", "phone": "+233 24 929 5022", "start_date": "1991"}}]}