{"version": 0.6, "generator": "Overpass API 0.7.61.5 4133829e", "osm3s": {"timestamp_osm_base": "2024-03-06T11:29:56Z", "copyright": "The data included in this document is from www.openstreetmap.org. The data is made available under ODbL."}, "elements": [{"type": "node", "id": 5622802416, "lat": -0.7169561, "lon": 36.4320597, "tags": {"amenity": "bank", "atm": "yes", "brand": "Stanbic Bank", "brand:wikidata": "Q7597999", "name": "Stanbic Bank"}}, {"type": "node", "id": 5622806159, "lat": -0.7173527, "lon": 36.4322667, "tags": {"addr:city": "Naivasha", "addr:street": "Moi Avenue", "amenity": "bank", "name": "KCB Bank"}}, {"type": "node", "id": 5622806160, "lat": -0.7177391, "lon": 36.4324625, "tags": {"addr:city": "Naivasha", "addr:street": "Moi Avenue", "amenity": "bank", "atm": "yes", "brand": "Barclays", "brand:wikidata": "Q245343", "brand:wikipedia": "en:Barclays", "name": "Barclays"}}, {"type": "node", "id": 6057983756, "lat": -0.7035035, "lon": 36.4292384, "tags": {"addr:city": "Naivasha", "addr:street": "Moi South Lake Road", "amenity": "bank", "name": "HFC"}}, {"type": "node", "id": 6057983907, "lat": -0.7134389, "lon": 36.4304347}, {"type": "node", "id": 6057983908, "lat": -0.7127701, "lon": 36.4303579}, {"type": "node", "id": 6057983910, "lat": -0.7137076, "lon": 36.429977, "tags": {"addr:city": "Naivasha", "addr:street": "Moi Avenue", "amenity": "bank", "atm": "yes", "name": "Family Bank-Naivasha"}}, {"type": "node", "id": 9692022988, "lat": -0.7128262, "lon": 36.4302262}, {"type": "node", "id": 9692023019, "lat": -0.7129131, "lon": 36.4301354}, {"type": "node", "id": 9692023122, "lat": -0.712736, "lon": 36.4300601}, {"type": "node", "id": 9692023243, "lat": -0.7132678, "lon": 36.430363}, {"type": "node", "id": 9692023305, "lat": -0.7128042, "lon": 36.4303724}, {"type": "node", "id": 9692023406, "lat": -0.7126078, "lon": 36.4303612}, {"type": "node", "id": 9692023416, "lat": -0.7132936, "lon": 36.4307815}, {"type": "node", "id": 9692024177, "lat": -0.7128671, "lon": 36.4302436}, {"type": "node", "id": 9692024241, "lat": -0.7131225, "lon": 36.4307098}, {"type": "node", "id": 9692024324, "lat": -0.7127781, "lon": 36.4304337}, {"type": "way", "id": 1054700395, "nodes": [9692023243, 6057983907, 9692023416, 9692024241, 9692023243], "tags": {"addr:city": "Naivasha", "addr:street": "Moi Avenue", "amenity": "bank", "atm": "yes", "building": "yes", "name": "Cooperative Bank", "source": "microsoft/BuildingFootprints"}}, {"type": "way", "id": 1054700425, "nodes": [9692023122, 9692023019, 9692024177, 9692022988, 6057983908, 9692023305, 9692024324, 9692023406, 9692023122], "tags": {"addr:city": "Naivasha", "addr:street": "Moi Avenue", "amenity": "bank", "atm": "yes", "building": "yes", "name": "KWFT, Naivasha", "source": "microsoft/BuildingFootprints"}}]}