{"version": 0.6, "generator": "Overpass API 0.7.61.5 4133829e", "osm3s": {"timestamp_osm_base": "2024-03-06T11:07:30Z", "copyright": "The data included in this document is from www.openstreetmap.org. The data is made available under ODbL."}, "elements": [{"type": "node", "id": 4504552248, "lat": -1.8544999, "lon": 36.7815367, "tags": {"addr:city": "Kajiado", "addr:street": "Nairobi-Namanga Road", "amenity": "college", "name": "Masai Technical Training Institute"}}, {"type": "node", "id": 5328970048, "lat": -1.5597378, "lon": 36.9374402}, {"type": "node", "id": 5328970049, "lat": -1.5628802, "lon": 36.9368287}, {"type": "node", "id": 5328970050, "lat": -1.5635559, "lon": 36.9406267}, {"type": "node", "id": 5328970051, "lat": -1.5614431, "lon": 36.9412812}, {"type": "node", "id": 5328970052, "lat": -1.649691, "lon": 36.8704199}, {"type": "node", "id": 5328970053, "lat": -1.6481253, "lon": 36.8714821}, {"type": "node", "id": 5328970054, "lat": -1.6487795, "lon": 36.8761169}, {"type": "node", "id": 5328970055, "lat": -1.6508385, "lon": 36.8761169}, {"type": "node", "id": 5328970071, "lat": -1.7790098, "lon": 36.819072}, {"type": "node", "id": 5328970072, "lat": -1.7747418, "lon": 36.8204882}, {"type": "node", "id": 5328970073, "lat": -1.7748062, "lon": 36.8208101}, {"type": "node", "id": 5328970074, "lat": -1.7731333, "lon": 36.8222263}, {"type": "node", "id": 5328970075, "lat": -1.77427, "lon": 36.8246939}, {"type": "node", "id": 5328970076, "lat": -1.7806398, "lon": 36.8225696}, {"type": "node", "id": 6235660133, "lat": -1.8505639, "lon": 36.7890121, "tags": {"addr:city": "Kajiado", "addr:street": "Nairobi-Namanga Road", "amenity": "college", "name": "Maasai Technical Training Institute"}}, {"type": "way", "id": 551846603, "nodes": [5328970048, 5328970049, 5328970050, 5328970051, 5328970048], "tags": {"amenity": "university", "name": "East African University"}}, {"type": "way", "id": 551846604, "nodes": [5328970052, 5328970053, 5328970054, 5328970055, 5328970052], "tags": {"addr:city": "Kisaju", "addr:street": "Nairobi-Namanga Road", "amenity": "university", "name": "RAF International University", "wikidata": "Q101110434"}}, {"type": "way", "id": 551846608, "nodes": [5328970071, 5328970072, 5328970073, 5328970074, 5328970075, 5328970076, 5328970071], "tags": {"addr:city": "Oloyangalani", "addr:street": "Nairobi-Namanga Road", "amenity": "university", "name": "Umma University", "wikidata": "Q29467429"}}]}