{"version": 0.6, "generator": "Overpass API 0.7.61.5 4133829e", "osm3s": {"timestamp_osm_base": "2024-03-05T15:07:00Z", "copyright": "The data included in this document is from www.openstreetmap.org. The data is made available under ODbL."}, "elements": [{"type": "node", "id": 317197478, "lat": 65.3271471, "lon": 16.6282412, "tags": {"name": "Str\u00f6msund", "name:sju": "Stuoraluoktta", "name:sv": "Str\u00f6msund", "place": "hamlet"}}, {"type": "node", "id": 317946815, "lat": 65.3549319, "lon": 16.5015145, "tags": {"name": "Ankarsund", "place": "village"}}, {"type": "node", "id": 317954405, "lat": 65.4310696, "lon": 16.23967, "tags": {"name": "Slussfors", "place": "village", "ref:se:pts:postort": "SLUSSFORS"}}, {"type": "node", "id": 317959578, "lat": 65.4338841, "lon": 16.0893199, "tags": {"name": "Umn\u00e4s", "name:sma": "Graatja", "name:sv": "Umn\u00e4s", "place": "hamlet"}}, {"type": "node", "id": 317976474, "lat": 65.4811208, "lon": 15.8913587, "tags": {"name": "Forsmark", "place": "village"}}, {"type": "node", "id": 1810076324, "lat": 65.4637546, "lon": 16.0791863, "tags": {"name": "Nordan\u00e5s", "place": "hamlet"}}, {"type": "node", "id": 1827426765, "lat": 65.2347067, "lon": 15.9952411, "tags": {"name": "Dikan\u00e4s", "name:sma": "G\u00e4jka", "name:sv": "Dikan\u00e4s", "place": "village", "ref:se:pts:postort": "DIKAN\u00c4S"}}, {"type": "node", "id": 1827426800, "lat": 65.2436354, "lon": 15.7580987, "tags": {"name": "Stenn\u00e4s", "place": "hamlet"}}, {"type": "node", "id": 2392915644, "lat": 65.3472755, "lon": 15.8629983, "tags": {"name": "Matsdal", "name:sma": "Gajhrege", "name:sv": "Matsdal", "place": "hamlet"}}, {"type": "node", "id": 2777273092, "lat": 65.2202711, "lon": 16.7770617, "tags": {"name": "Kaskeluokt", "name:sma": "Gaskeloekte", "name:sv": "Kaskeluokt", "place": "hamlet"}}, {"type": "node", "id": 2777273104, "lat": 65.2264436, "lon": 16.7075288, "tags": {"name": "Kaskeluoktn\u00e4set", "name:sma": "Jillieloekte", "name:sv": "Kaskeluoktn\u00e4set", "place": "hamlet"}}, {"type": "node", "id": 3732817733, "lat": 65.4440457, "lon": 16.436007, "tags": {"name": "Gardsj\u00f6n\u00e4s", "name:sju": "G\u00e1rddiej\u00e1vrrie", "name:sv": "Gardsj\u00f6n\u00e4s", "place": "hamlet"}}, {"type": "node", "id": 3732835216, "lat": 65.4414749, "lon": 16.5357562, "tags": {"name": "Akkan", "place": "hamlet"}}, {"type": "node", "id": 3732835218, "lat": 65.5358059, "lon": 16.5342932, "tags": {"name": "Danasj\u00f6", "name:sju": "D\u00e1n\u00e1", "name:sv": "Danasj\u00f6", "place": "hamlet"}}, {"type": "node", "id": 3732839960, "lat": 65.4732647, "lon": 16.5646329, "tags": {"name": "Kroksj\u00f6strand", "place": "hamlet"}}, {"type": "node", "id": 3732839975, "lat": 65.4800596, "lon": 16.6032585, "tags": {"name": "Abborrberg", "name:sju": "Vuoskuon\u00e5jvvie", "name:sv": "Abborrberg", "place": "hamlet"}}, {"type": "node", "id": 3733200242, "lat": 65.6227314, "lon": 16.6087166, "tags": {"name": "Fj\u00e4llsjon\u00e4s", "name:sju": "\u00c1tjieke", "name:sv": "Fj\u00e4llsj\u00f6n\u00e4s", "place": "hamlet"}}, {"type": "node", "id": 3735685163, "lat": 65.4365101, "lon": 16.7249966, "tags": {"name": "Flakatr\u00e4sk", "place": "hamlet"}}, {"type": "node", "id": 5697444688, "lat": 65.3079871, "lon": 16.3693464, "tags": {"name": "Grann\u00e4s", "place": "village"}}, {"type": "node", "id": 5697444689, "lat": 65.2967377, "lon": 16.3676162, "tags": {"name": "S\u00f6dra Grann\u00e4s", "place": "village"}}, {"type": "node", "id": 5798569885, "lat": 65.3111275, "lon": 16.2082173, "tags": {"name": "Storberg", "place": "hamlet"}}, {"type": "node", "id": 5799785654, "lat": 65.6076807, "lon": 16.0484523, "tags": {"name": "Br\u00e5naberg", "name:sju": "Guorb\u00e5jvvie", "name:sv": "Br\u00e5naberg", "place": "hamlet"}}, {"type": "node", "id": 5799848375, "lat": 65.6339936, "lon": 15.9695677, "tags": {"name": "Storskog", "name:sju": "Muorr\u00e1ds\u00e1sieh", "name:sv": "Storskog", "place": "hamlet"}}, {"type": "node", "id": 5806362625, "lat": 65.3308756, "lon": 15.8442149, "tags": {"name": "S\u00f6dra Matsdal", "place": "hamlet"}}, {"type": "node", "id": 5806389076, "lat": 65.3370256, "lon": 16.0613264, "tags": {"name": "Sj\u00f6berg", "place": "hamlet"}}, {"type": "node", "id": 5806389092, "lat": 65.321289, "lon": 16.0306204, "tags": {"name": "Skansn\u00e4s", "place": "hamlet"}}, {"type": "node", "id": 5806389102, "lat": 65.3499429, "lon": 15.9613122, "tags": {"name": "Ripfj\u00e4ll", "name:sma": "Rieksvaartoe", "name:sv": "Ripfj\u00e4ll", "place": "hamlet"}}, {"type": "node", "id": 5806389125, "lat": 65.3675489, "lon": 15.9747637, "tags": {"name": "St\u00e5lklippen", "place": "hamlet"}}, {"type": "node", "id": 5806389126, "lat": 65.3472863, "lon": 16.1005553, "tags": {"name": "Silverberg", "name:sma": "S\u00eflpeb\u00eferje", "name:sv": "Silverberg", "place": "hamlet"}}, {"type": "node", "id": 5806389144, "lat": 65.3787725, "lon": 16.2178674, "tags": {"name": "Bastansj\u00f6", "place": "hamlet"}}, {"type": "node", "id": 5806390284, "lat": 65.3092315, "lon": 16.1823246, "tags": {"name": "Harrsj\u00f6", "place": "hamlet"}}, {"type": "node", "id": 5811009836, "lat": 65.2494095, "lon": 16.404111, "tags": {"name": "Ullisjaur", "name:sma": "Ulliesjaevrie", "name:sv": "Ullisjaur", "place": "hamlet"}}, {"type": "node", "id": 7096711004, "lat": 65.3350198, "lon": 16.7633968, "tags": {"name": "B\u00e4ckmark", "place": "hamlet"}}, {"type": "node", "id": 7096711005, "lat": 65.3441966, "lon": 16.7511445, "tags": {"name": "Olofsberg", "place": "hamlet"}}, {"type": "node", "id": 7212051450, "lat": 65.2665929, "lon": 16.7767881, "tags": {"name": "Kyrkberg", "place": "hamlet"}}, {"type": "node", "id": 8566460953, "lat": 65.5777011, "lon": 16.7426061, "tags": {"name": "Berglunda", "place": "hamlet"}}, {"type": "node", "id": 11163691314, "lat": 65.4585997, "lon": 16.013174, "tags": {"name": "H\u00e4lln\u00e4s", "place": "hamlet"}}, {"type": "node", "id": 11171348858, "lat": 65.2512035, "lon": 16.2602343, "tags": {"name": "Daikanberg", "name:sma": "Daajkanvaerie", "place": "hamlet"}}, {"type": "node", "id": 11203455006, "lat": 65.4292345, "lon": 16.1980855, "tags": {"name": "Forsnacken", "place": "hamlet"}}]}