{"version": 0.6, "generator": "Overpass API 0.7.61.5 4133829e", "osm3s": {"timestamp_osm_base": "2024-02-29T13:48:25Z", "copyright": "The data included in this document is from www.openstreetmap.org. The data is made available under ODbL."}, "elements": [{"type": "node", "id": 4215557249, "lat": 6.2828331, "lon": -2.4648656}, {"type": "node", "id": 4215557250, "lat": 6.2829358, "lon": -2.4646799}, {"type": "node", "id": 4215557251, "lat": 6.2828565, "lon": -2.4646355}, {"type": "node", "id": 4215557252, "lat": 6.2828262, "lon": -2.4646904}, {"type": "node", "id": 4215557253, "lat": 6.2828538, "lon": -2.4647059}, {"type": "node", "id": 4215557254, "lat": 6.2828123, "lon": -2.4647809}, {"type": "node", "id": 4215557255, "lat": 6.2827635, "lon": -2.4647536}, {"type": "node", "id": 4215557256, "lat": 6.2827367, "lon": -2.4647987}, {"type": "node", "id": 8358966249, "lat": 5.8832081, "lon": -2.7337153, "tags": {"amenity": "school"}}, {"type": "node", "id": 8358984632, "lat": 5.8832466, "lon": -2.6634662, "tags": {"amenity": "school", "name": "Acquai Allah D/A Basic school"}}, {"type": "node", "id": 8358989522, "lat": 5.8832596, "lon": -2.6629349, "tags": {"amenity": "school", "name": "Acquai Allah D/A JHS"}}, {"type": "node", "id": 8358989524, "lat": 5.8830737, "lon": -2.6607956, "tags": {"amenity": "school", "name": "Jehovah Nissi Basic School"}}, {"type": "node", "id": 9244820407, "lat": 6.2087303, "lon": -2.5141552}, {"type": "node", "id": 9337290817, "lat": 6.2096543, "lon": -2.5114059}, {"type": "node", "id": 9337290818, "lat": 6.2107382, "lon": -2.5126693}, {"type": "node", "id": 9337290820, "lat": 6.2087143, "lon": -2.5116447}, {"type": "node", "id": 9337290821, "lat": 6.2081864, "lon": -2.5120094}, {"type": "node", "id": 9337290822, "lat": 6.2073411, "lon": -2.5127538}, {"type": "node", "id": 9337290823, "lat": 6.2075304, "lon": -2.5130703}, {"type": "node", "id": 9337290824, "lat": 6.2095303, "lon": -2.5151637}, {"type": "node", "id": 9337290825, "lat": 6.2101542, "lon": -2.5161025}, {"type": "node", "id": 9392727066, "lat": 6.2128964, "lon": -2.5157375}, {"type": "node", "id": 9392727067, "lat": 6.2118608, "lon": -2.5138226}, {"type": "node", "id": 9392727068, "lat": 6.2104259, "lon": -2.5169657}, {"type": "node", "id": 9501813209, "lat": 5.9545888, "lon": -2.4391887, "tags": {"amenity": "school"}}, {"type": "node", "id": 9838893314, "lat": 6.2136686, "lon": -2.7656364}, {"type": "node", "id": 9838893315, "lat": 6.2133913, "lon": -2.766586}, {"type": "node", "id": 9838893316, "lat": 6.2124954, "lon": -2.7675623}, {"type": "node", "id": 9838919817, "lat": 6.2113995, "lon": -2.7663875}, {"type": "node", "id": 9838919818, "lat": 6.2124474, "lon": -2.765395}, {"type": "node", "id": 9838919819, "lat": 6.2129407, "lon": -2.7646682}, {"type": "node", "id": 9846000401, "lat": 6.1433727, "lon": -2.605309}, {"type": "node", "id": 9846000402, "lat": 6.1402523, "lon": -2.6074983}, {"type": "node", "id": 9846000403, "lat": 6.1390023, "lon": -2.6056961}, {"type": "node", "id": 9846000404, "lat": 6.1421227, "lon": -2.6035067}, {"type": "node", "id": 9847837666, "lat": 6.1974414, "lon": -2.488512}, {"type": "node", "id": 9847837667, "lat": 6.1959586, "lon": -2.4881885}, {"type": "node", "id": 9847837668, "lat": 6.1959804, "lon": -2.4856002}, {"type": "node", "id": 9847837669, "lat": 6.1980302, "lon": -2.4851232}, {"type": "node", "id": 9847837670, "lat": 6.2001453, "lon": -2.4854686}, {"type": "node", "id": 9847837671, "lat": 6.2004942, "lon": -2.4871795}, {"type": "node", "id": 9847837672, "lat": 6.2000199, "lon": -2.4889616}, {"type": "node", "id": 11262193618, "lat": 6.293867, "lon": -2.7154056, "tags": {"amenity": "school", "name": "Kama DA JHS"}}, {"type": "node", "id": 11262444357, "lat": 6.2906517, "lon": -2.715557, "tags": {"amenity": "school", "name": "Kama DA primary"}}, {"type": "way", "id": 421823421, "nodes": [4215557249, 4215557250, 4215557251, 4215557252, 4215557253, 4215557254, 4215557255, 4215557256, 4215557249], "tags": {"amenity": "school", "building": "school", "name": "Bonwire D/A Junior High School"}}, {"type": "way", "id": 1012081952, "nodes": [9392727068, 9337290825, 9337290824, 9244820407, 9337290823, 9337290822, 9337290821, 9337290820, 9337290817, 9337290818, 9392727067, 9392727066, 9392727068], "tags": {"addr:country": "GH", "addr:district": "Sefwi Wiawso", "addr:place": "Sefwi Wiawso", "addr:region": "Western North", "amenity": "school", "description": "The premier school in the Sefwi Wiawso Municipal, was established in 1961, as a Ghana Education Trust (GET) School.", "email": "sefwiwiawsoshs@ges.gov.gh", "isced:level": "3", "name": "Sefwi Wiawso Senior High School", "operator": "Ghana Education Service", "operator:short": "GES", "operator:type": "public", "operator:wikidata": "Q30263788", "phone": "+233 20 820 2801", "start_date": "1961"}}, {"type": "way", "id": 1072323374, "nodes": [9838919819, 9838919818, 9838919817, 9838893316, 9838893315, 9838893314, 9838919819], "tags": {"addr:country": "GH", "addr:district": "Bodi", "addr:place": "Bodi", "addr:region": "Western North", "amenity": "school", "description": "The school was established as a private school in October 2010 by the Member of Parliament for Bodi Constituency, Hon Sampson Ahi. The school was officially commissioned by His Excellency the late President John Evans Atta Mills, on 9th May 2011.", "email": "bodishs@ges.gov.gh", "isced:level": "3", "name": "Bodi Senior High School", "operator": "Ghana Education Service", "operator:short": "GES", "operator:type": "public", "operator:wikidata": "Q30263788", "phone": "+233 24 237 5196", "start_date": "2010-10"}}, {"type": "way", "id": 1073283191, "nodes": [9846000404, 9846000403, 9846000402, 9846000401, 9846000404], "tags": {"addr:country": "GH", "addr:district": "Sefwi Akontombra", "addr:place": "Nsawora Edumafua", "addr:region": "Western North", "amenity": "school", "description": "Nsawora Edumafua Community Senior High School was established in 2017 with the first batch of students reporting on 23rd October 2017. The school is located at Sefwi Nsawora", "email": "nsaworaedumafacommshs@ges.gov.gh", "isced:level": "3", "name": "Nsawora Edumafua Community Senior High School", "note": "This is a new school and cannot be seen on available imagery as at the time of mapping (25 June, 2022)", "operator": "Ghana Education Service", "operator:short": "GES", "operator:type": "public", "operator:wikidata": "Q30263788", "phone": "+233 24 485 4845", "start_date": "2017-10-23"}}, {"type": "way", "id": 1073533512, "nodes": [9847837672, 9847837671, 9847837670, 9847837669, 9847837668, 9847837667, 9847837666, 9847837672], "tags": {"addr:country": "GH", "addr:district": "Sefwi Wiawso", "addr:place": "Sefwi Wiawso", "addr:region": "Western North", "amenity": "school", "description": "The school was established on 28th January 1991. It is a Community school managed by the Ghana Education Service. It is located in Sefwi Wiawso.", "email": "sefwiwiawsoshst@ges.gov.gh", "isced:level": "3", "name": "Sefwi Wiawso Senior High/Technical School", "operator": "Ghana Education Service", "operator:short": "GES", "operator:type": "public", "operator:wikidata": "Q30263788", "phone": "+233 24 631 2393;+233 57 450 3155", "start_date": "1991-01-28"}}]}