{"version": 0.6, "generator": "Overpass API 0.7.61.5 4133829e", "osm3s": {"timestamp_osm_base": "2024-03-06T11:17:45Z", "copyright": "The data included in this document is from www.openstreetmap.org. The data is made available under ODbL."}, "elements": [{"type": "node", "id": 2480102946, "lat": 33.549232, "lon": 43.956807, "tags": {"alt_name": "\u0645\u062d\u0645\u062f \u0627\u0644\u0641\u0631\u062d\u0627\u0646", "int_name": "Mu\u1e29ammad al Far\u1e29\u0101n, \u0645\u062d\u0645\u062f \u0627\u0644\u0641\u0631\u062d\u0627\u0646, Muhammad al Farhan, \u0645\u062d\u0645\u062f \u0627\u0644\u0641\u0631\u062d\u0627\u0646", "name": "\u0645\u062d\u0645\u062f \u0627\u0644\u0641\u0631\u062d\u0627\u0646", "name:ar": "\u0645\u062d\u0645\u062f \u0627\u0644\u0641\u0631\u062d\u0627\u0646", "name:ar1": "\u0645\u062d\u0645\u062f \u0627\u0644\u0641\u0631\u062d\u0627\u0646", "name:de": "Muhammad al Farhan", "name:en": "Muhammad al Farhan", "name:fr": "Muhammad al Farhan", "place": "village"}}, {"type": "node", "id": 2480102952, "lat": 33.5427877, "lon": 43.9671035, "tags": {"alt_name": "\u0645\u062a\u0639\u0628 \u0645\u062d\u0645\u062f \u0627\u0644\u0632\u0643\u0644\u0627\u0628\u064a", "int_name": "Mutab Mu\u1e29ammad az Zakl\u0101b\u012b, \u0645\u062a\u0639\u0628 \u0645\u062d\u0645\u062f \u0627\u0644\u0632\u0643\u0644\u0627\u0628\u064a, Mutab Muhammad az Zaklabi, \u0645\u062a\u0639\u0628 \u0645\u062d\u0645\u062f \u0627\u0644\u0632\u0643\u0644\u0627\u0628\u064a", "name": "\u0645\u062a\u0639\u0628 \u0645\u062d\u0645\u062f \u0627\u0644\u0632\u0643\u0644\u0627\u0628\u064a", "name:ar": "\u0645\u062a\u0639\u0628 \u0645\u062d\u0645\u062f \u0627\u0644\u0632\u0643\u0644\u0627\u0628\u064a", "name:ar1": "\u0645\u062a\u0639\u0628 \u0645\u062d\u0645\u062f \u0627\u0644\u0632\u0643\u0644\u0627\u0628\u064a", "name:de": "Mutab Muhammad az Zaklabi", "name:en": "Mutab Muhammad az Zaklabi", "name:fr": "Mutab Muhammad az Zaklabi", "place": "village"}}, {"type": "node", "id": 2486308396, "lat": 33.4619449, "lon": 43.9747405, "tags": {"alt_name": "\u0642\u0631\u064a\u0629 \u0627\u0644\u0633\u0631\u0627\u0628\u0644\u0629", "int_name": "Qaryat as Sar\u0101bilah, \u0642\u0631\u064a\u0629 \u0627\u0644\u0633\u0631\u0627\u0628\u0644\u0629, Qaryat as Sarabilah, \u0642\u0631\u064a\u0629 \u0627\u0644\u0633\u0631\u0627\u0628\u0644\u0629", "name": "\u0642\u0631\u064a\u0629 \u0627\u0644\u0633\u0631\u0627\u0628\u0644\u0629", "name:ar": "\u0642\u0631\u064a\u0629 \u0627\u0644\u0633\u0631\u0627\u0628\u0644\u0629", "name:ar1": "\u0642\u0631\u064a\u0629 \u0627\u0644\u0633\u0631\u0627\u0628\u0644\u0629", "name:de": "Qaryat as Sarabilah", "name:en": "Qaryat as Sarabilah", "name:fr": "Qaryat as Sarabilah", "place": "village"}}, {"type": "node", "id": 2486313928, "lat": 33.453446, "lon": 43.858241, "tags": {"alt_name": "\u0642\u0631\u064a\u0629 \u0622\u0644 \u0628\u0648 \u062e\u0646\u0641\u0631 \u0627\u0644\u0634\u0631\u0642\u064a\u0629", "int_name": "Qaryat \u0100lb\u016b Khanfar ash Sharq\u012byah, \u0642\u0631\u064a\u0629 \u0627\u0644\u0628\u0648 \u062e\u0646\u0641\u0631 \u0627\u0644\u0634\u0631\u0642\u064a\u0629, Qaryat Albu Khanfar ash Sharqiyah, \u0642\u0631\u064a\u0629 \u0627\u0644\u0628\u0648 \u062e\u0646\u0641\u0631 \u0627\u0644\u0634\u0631\u0642\u064a\u0629", "name": "\u0642\u0631\u064a\u0629 \u0622\u0644 \u0628\u0648 \u062e\u0646\u0641\u0631 \u0627\u0644\u0634\u0631\u0642\u064a\u0629", "name:ar": "\u0645\u0646\u0637\u0642\u0629 \u0622\u0644 \u0628\u0648 \u062e\u0646\u0641\u0631 \u0627\u0644\u0634\u0631\u0642\u064a\u0629", "name:ar1": "\u0642\u0631\u064a\u0629 \u0622\u0644 \u0628\u0648 \u062e\u0646\u0641\u0631 \u0627\u0644\u0634\u0631\u0642\u064a\u0629", "name:de": "Qaryat Albu Khanfar ash Sharqiyah", "name:en": "Qaryat Albu Khanfar ash Sharqiyah", "name:fr": "Qaryat Albu Khanfar ash Sharqiyah", "place": "village"}}, {"type": "node", "id": 2488384726, "lat": 33.756866, "lon": 43.87923, "tags": {"alt_name": "\u062a\u0644 \u0623\u0628\u0648 \u062d\u0645\u064a\u0631", "int_name": "Tall Ab\u016b \u1e28am\u012br, \u062a\u0644 \u0623\u0628\u0648 \u062d\u0645\u064a\u0631, Tall Abu Hamir, \u062a\u0644 \u0623\u0628\u0648 \u062d\u0645\u064a\u0631", "name": "\u062a\u0644 \u0623\u0628\u0648 \u062d\u0645\u064a\u0631", "name:ar": "\u062a\u0644 \u0623\u0628\u0648 \u062d\u0645\u064a\u0631", "name:ar1": "\u062a\u0644 \u0623\u0628\u0648 \u062d\u0645\u064a\u0631", "name:de": "Tall Abu Hamir", "name:en": "Tall Abu Hamir", "name:fr": "Tall Abu Hamir", "place": "village"}}, {"type": "node", "id": 2488384728, "lat": 33.757042, "lon": 43.846434, "tags": {"alt_name": "\u062a\u0644 \u0627\u0644\u0633\u0628\u0639", "int_name": "Tall as Sab, \u062a\u0644 \u0627\u0644\u0633\u0628\u0639, Tall as Sab, \u062a\u0644 \u0627\u0644\u0633\u0628\u0639", "name": "\u062a\u0644 \u0627\u0644\u0633\u0628\u0639", "name:ar": "\u062a\u0644 \u0627\u0644\u0633\u0628\u0639", "name:ar1": "\u062a\u0644 \u0627\u0644\u0633\u0628\u0639", "name:de": "Tall as Sab", "name:en": "Tall as Sab", "name:fr": "Tall as Sab", "place": "village"}}, {"type": "node", "id": 2488390797, "lat": 33.614101, "lon": 44.011456, "tags": {"alt_name": "\u0639\u0628\u0627\u0633 \u062c\u0633\u0627\u0645", "int_name": "Abb\u0101s Jass\u0101m, \u0639\u0628\u0627\u0633 \u062c\u0633\u0627\u0645, Abbas Jassam, \u0639\u0628\u0627\u0633 \u062c\u0633\u0627\u0645", "name": "\u0639\u0628\u0627\u0633 \u062c\u0633\u0627\u0645", "name:ar": "\u0639\u0628\u0627\u0633 \u062c\u0633\u0627\u0645", "name:ar1": "\u0639\u0628\u0627\u0633 \u062c\u0633\u0627\u0645", "name:de": "Abbas Jassam", "name:en": "Abbas Jassam", "name:fr": "Abbas Jassam", "place": "village"}}, {"type": "node", "id": 2488390798, "lat": 33.7308525, "lon": 43.9874298, "tags": {"alt_name": "\u0639\u0628\u062f \u0627\u0644\u0644\u0647 \u062d\u0645\u062f \u0627\u0644\u062c\u062f\u0629", "int_name": "Abd All\u0101h \u1e28amad al Jaddah, \u0639\u0628\u062f \u0627\u0644\u0644\u0647 \u062d\u0645\u062f \u0627\u0644\u062c\u062f\u0647, \u0639\u0628\u062f \u0627\u0644\u0644\u0647 \u062d\u0645\u062f \u0627\u0644\u062c\u062f\u0651\u0647, Abd Allah Hamad al Jaddah, \u0639\u0628\u062f \u0627\u0644\u0644\u0647 \u062d\u0645\u062f \u0627\u0644\u062c\u062f\u0647, \u0639\u0628\u062f \u0627\u0644\u0644\u0647 \u062d\u0645\u062f \u0627\u0644\u062c\u062f\u0647", "name": "\u0639\u0628\u062f \u0627\u0644\u0644\u0647 \u062d\u0645\u062f \u0627\u0644\u062c\u062f\u0629", "name:ar": "\u0639\u0628\u062f \u0627\u0644\u0644\u0647 \u062d\u0645\u062f \u0627\u0644\u062c\u062f\u0629", "name:ar1": "\u0639\u0628\u062f \u0627\u0644\u0644\u0647 \u062d\u0645\u062f \u0627\u0644\u062c\u062f\u0629", "name:de": "Abd Allah Hamad al Jaddah", "name:en": "Abd Allah Hamad al Jaddah", "name:fr": "Abd Allah Hamad al Jaddah", "place": "village"}}, {"type": "node", "id": 2488390802, "lat": 33.71997, "lon": 43.974262, "tags": {"alt_name": "\u0639\u0628\u062f \u0627\u0644\u0644\u0647 \u0627\u0644\u062d\u0645\u0648\u062f", "int_name": "Abd All\u0101h al \u1e28am\u016bd, \u0639\u0628\u062f \u0627\u0644\u0644\u0647 \u0627\u0644\u062d\u0645\u0648\u062f, Abd Allah al Hamud, \u0639\u0628\u062f \u0627\u0644\u0644\u0647 \u0627\u0644\u062d\u0645\u0648\u062f", "name": "\u0639\u0628\u062f \u0627\u0644\u0644\u0647 \u0627\u0644\u062d\u0645\u0648\u062f", "name:ar": "\u0639\u0628\u062f \u0627\u0644\u0644\u0647 \u0627\u0644\u062d\u0645\u0648\u062f", "name:ar1": "\u0639\u0628\u062f \u0627\u0644\u0644\u0647 \u0627\u0644\u062d\u0645\u0648\u062f", "name:de": "Abd Allah al Hamud", "name:en": "Abd Allah al Hamud", "name:fr": "Abd Allah al Hamud", "place": "village"}}, {"type": "node", "id": 2488390810, "lat": 33.7307905, "lon": 43.9867659, "tags": {"alt_name": "\u0639\u0628\u062f \u0627\u0644\u062d\u0645\u064a\u062f \u0627\u0644\u062c\u062f\u0629", "int_name": "Abd al \u1e28am\u012bd al Jaddah, \u0639\u0628\u062f \u0627\u0644\u062d\u0645\u064a\u062f \u0627\u0644\u062c\u062f\u0629, Abd al Hamid al Jaddah, \u0639\u0628\u062f \u0627\u0644\u062d\u0645\u064a\u062f \u0627\u0644\u062c\u062f\u0629", "name": "\u0639\u0628\u062f \u0627\u0644\u062d\u0645\u064a\u062f \u0627\u0644\u062c\u062f\u0629", "name:ar": "\u0639\u0628\u062f \u0627\u0644\u062d\u0645\u064a\u062f \u0627\u0644\u062c\u062f\u0629", "name:ar1": "\u0639\u0628\u062f \u0627\u0644\u062d\u0645\u064a\u062f \u0627\u0644\u062c\u062f\u0629", "name:de": "Abd al Hamid al Jaddah", "name:en": "Abd al Hamid al Jaddah", "name:fr": "Abd al Hamid al Jaddah", "place": "village"}}, {"type": "node", "id": 2488390812, "lat": 33.636817, "lon": 44.011425, "tags": {"alt_name": "\u0623\u062d\u0645\u062f \u0645\u0637\u0644\u0643", "int_name": "A\u1e29mad Mu\u0163lak, \u0627\u062d\u0645\u062f \u0645\u0637\u0644\u0643, Ahmad Mutlak, \u0627\u062d\u0645\u062f \u0645\u0637\u0644\u0643", "name": "\u0623\u062d\u0645\u062f \u0645\u0637\u0644\u0643", "name:ar": "\u0623\u062d\u0645\u062f \u0645\u0637\u0644\u0643", "name:ar1": "\u0623\u062d\u0645\u062f \u0645\u0637\u0644\u0643", "name:de": "Ahmad Mutlak", "name:en": "Ahmad Mutlak", "name:fr": "Ahmad Mutlak", "place": "village"}}, {"type": "node", "id": 2488390814, "lat": 33.753686, "lon": 43.961417, "tags": {"alt_name": "\u0623\u062d\u0645\u062f \u0627\u0644\u062f\u0648\u064a\u062c", "int_name": "A\u1e29mad ad Duw\u012bj, \u0623\u062d\u0645\u062f \u0627\u0644\u062f\u0648\u064a\u062c, Ahmad ad Duwij, \u0623\u062d\u0645\u062f \u0627\u0644\u062f\u0648\u064a\u062c", "name": "\u0623\u062d\u0645\u062f \u0627\u0644\u062f\u0648\u064a\u062c", "name:ar": "\u0623\u062d\u0645\u062f \u0627\u0644\u062f\u0648\u064a\u062c", "name:ar1": "\u0623\u062d\u0645\u062f \u0627\u0644\u062f\u0648\u064a\u062c", "name:de": "Ahmad ad Duwij", "name:en": "Ahmad ad Duwij", "name:fr": "Ahmad ad Duwij", "place": "village"}}, {"type": "node", "id": 2488390817, "lat": 33.5831323, "lon": 43.9333483, "tags": {"alt_name": "\u0627\u0644\u0643\u0631\u0645\u0629", "int_name": "Al Karmah, Al Karmah", "name": "\u0627\u0644\u0643\u0631\u0645\u0629", "name:ar": "\u0627\u0644\u0643\u0631\u0645\u0629", "name:ar1": "\u0627\u0644\u0643\u0631\u0645\u0629", "name:de": "Al Karmah", "name:en": "Al Karmah", "name:fr": "Al Karmah", "place": "village"}}, {"type": "node", "id": 2488390818, "lat": 33.737469, "lon": 43.981372, "tags": {"alt_name": "\u0639\u0644\u064a\u0648\u064a \u062d\u0644\u0628\u0648\u0635", "int_name": "Alayw\u012b \u1e28ulb\u016b\u015f, \u0639\u0644\u064a\u0648\u064a \u062d\u0644\u0628\u0648\u0635, Alaywi Hulbus, \u0639\u0644\u064a\u0648\u064a \u062d\u0644\u0628\u0648\u0635", "name": "\u0639\u0644\u064a\u0648\u064a \u062d\u0644\u0628\u0648\u0635", "name:ar": "\u0639\u0644\u064a\u0648\u064a \u062d\u0644\u0628\u0648\u0635", "name:ar1": "\u0639\u0644\u064a\u0648\u064a \u062d\u0644\u0628\u0648\u0635", "name:de": "Alaywi Hulbus", "name:en": "Alaywi Hulbus", "name:fr": "Alaywi Hulbus", "place": "village"}}, {"type": "node", "id": 2488390822, "lat": 33.66027, "lon": 44.000725, "tags": {"alt_name": "\u0639\u0644\u064a \u0644\u0637\u064a\u0641", "int_name": "Al\u012b La\u0163\u012bf, \u0639\u0644\u064a \u0644\u0637\u064a\u0641, Ali Latif, \u0639\u0644\u064a \u0644\u0637\u064a\u0641", "name": "\u0639\u0644\u064a \u0644\u0637\u064a\u0641", "name:ar": "\u0639\u0644\u064a \u0644\u0637\u064a\u0641", "name:ar1": "\u0639\u0644\u064a \u0644\u0637\u064a\u0641", "name:de": "Ali Latif", "name:en": "Ali Latif", "name:fr": "Ali Latif", "place": "village"}}, {"type": "node", "id": 2488390823, "lat": 33.648431, "lon": 43.998042, "tags": {"alt_name": "\u0639\u0644\u064a \u0639\u0646\u064a\u0632\u064a", "int_name": "Al\u012b Unayz\u012b, \u0639\u0644\u064a \u0639\u0646\u064a\u0632\u064a, Ali Unayzi, \u0639\u0644\u064a \u0639\u0646\u064a\u0632\u064a", "name": "\u0639\u0644\u064a \u0639\u0646\u064a\u0632\u064a", "name:ar": "\u0639\u0644\u064a \u0639\u0646\u064a\u0632\u064a", "name:ar1": "\u0639\u0644\u064a \u0639\u0646\u064a\u0632\u064a", "name:de": "Ali Unayzi", "name:en": "Ali Unayzi", "name:fr": "Ali Unayzi", "place": "village"}}, {"type": "node", "id": 2488390824, "lat": 33.653393, "lon": 43.999698, "tags": {"alt_name": "\u0639\u0644\u0627\u0648\u064a \u0644\u0637\u064a\u0641", "int_name": "All\u0101w\u012b La\u0163\u012bf, \u0639\u0644\u0627\u0648\u064a \u0644\u0637\u064a\u0641, Allawi Latif, \u0639\u0644\u0627\u0648\u064a \u0644\u0637\u064a\u0641", "name": "\u0639\u0644\u0627\u0648\u064a \u0644\u0637\u064a\u0641", "name:ar": "\u0639\u0644\u0627\u0648\u064a \u0644\u0637\u064a\u0641", "name:ar1": "\u0639\u0644\u0627\u0648\u064a \u0644\u0637\u064a\u0641", "name:de": "Allawi Latif", "name:en": "Allawi Latif", "name:fr": "Allawi Latif", "place": "village"}}, {"type": "node", "id": 2488390829, "lat": 33.75397, "lon": 43.995168, "tags": {"alt_name": "\u0639\u0633\u0627\u0641 \u0639\u0648\u0627\u062f", "int_name": "As\u0101f Aw\u0101d, \u0639\u0633\u0627\u0641 \u0639\u0648\u0627\u062f, Asaf Awad, \u0639\u0633\u0627\u0641 \u0639\u0648\u0627\u062f", "name": "\u0639\u0633\u0627\u0641 \u0639\u0648\u0627\u062f", "name:ar": "\u0639\u0633\u0627\u0641 \u0639\u0648\u0627\u062f", "name:ar1": "\u0639\u0633\u0627\u0641 \u0639\u0648\u0627\u062f", "name:de": "Asaf Awad", "name:en": "Asaf Awad", "name:fr": "Asaf Awad", "place": "village"}}, {"type": "node", "id": 2488390833, "lat": 33.673855, "lon": 44.015986, "tags": {"alt_name": "\u0639\u0632\u0627\u0632 \u0641\u0627\u0636\u0644", "int_name": "Azz\u0101z F\u0101\u1e11il, \u0639\u0632\u0627\u0632 \u0641\u0627\u0636\u0644, Azzaz Fadil, \u0639\u0632\u0627\u0632 \u0641\u0627\u0636\u0644", "name": "\u0639\u0632\u0627\u0632 \u0641\u0627\u0636\u0644", "name:ar": "\u0639\u0632\u0627\u0632 \u0641\u0627\u0636\u0644", "name:ar1": "\u0639\u0632\u0627\u0632 \u0641\u0627\u0636\u0644", "name:de": "Azzaz Fadil", "name:en": "Azzaz Fadil", "name:fr": "Azzaz Fadil", "place": "village"}}, {"type": "node", "id": 2488390834, "lat": 33.5786336, "lon": 43.9304661, "tags": {"alt_name": "\u0628\u062f\u0648\u064a \u0627\u0644\u0637\u0644\u0628", "int_name": "Badaw\u012b a\u0163 \u0162alab, \u0628\u062f\u0648\u064a \u0627\u0644\u0637\u0644\u0628, Badawi at Talab, \u0628\u062f\u0648\u064a \u0627\u0644\u0637\u0644\u0628", "name": "\u0628\u062f\u0648\u064a \u0627\u0644\u0637\u0644\u0628", "name:ar": "\u0628\u062f\u0648\u064a \u0627\u0644\u0637\u0644\u0628", "name:ar1": "\u0628\u062f\u0648\u064a \u0627\u0644\u0637\u0644\u0628", "name:de": "Badawi at Talab", "name:en": "Badawi at Talab", "name:fr": "Badawi at Talab", "place": "village"}}, {"type": "node", "id": 2488390835, "lat": 33.662519, "lon": 43.982209, "tags": {"alt_name": "\u0636\u0631\u064a\u062d", "int_name": "\u1e10ar\u012b\u1e29, \u0636\u0631\u064a\u062d, Darih, \u0636\u0631\u064a\u062d", "name": "\u0636\u0631\u064a\u062d", "name:ar": "\u0636\u0631\u064a\u062d", "name:ar1": "\u0636\u0631\u064a\u062d", "name:de": "Darih", "name:en": "Darih", "name:fr": "Darih", "place": "village"}}, {"type": "node", "id": 2488390837, "lat": 33.699213, "lon": 44.008925, "tags": {"alt_name": "\u0641\u0631\u062d\u0627\u0646 \u062d\u0627\u064a\u0641 \u0631\u0641\u0627\u0633", "int_name": "Far\u1e29\u0101n \u1e28\u0101yif Raff\u0101s, \u0641\u0631\u062d\u0627\u0646 \u062d\u0627\u064a\u0641 \u0631\u0641\u0627\u0633, Farhan Hayif Raffas, \u0641\u0631\u062d\u0627\u0646 \u062d\u0627\u064a\u0641 \u0631\u0641\u0627\u0633", "name": "\u0641\u0631\u062d\u0627\u0646 \u062d\u0627\u064a\u0641 \u0631\u0641\u0627\u0633", "name:ar": "\u0641\u0631\u062d\u0627\u0646 \u062d\u0627\u064a\u0641 \u0631\u0641\u0627\u0633", "name:ar1": "\u0641\u0631\u062d\u0627\u0646 \u062d\u0627\u064a\u0641 \u0631\u0641\u0627\u0633", "name:de": "Farhan Hayif Raffas", "name:en": "Farhan Hayif Raffas", "name:fr": "Farhan Hayif Raffas", "place": "village"}}, {"type": "node", "id": 2488390838, "lat": 33.720257, "lon": 44.008666, "tags": {"alt_name": "\u0641\u0627\u0631\u0633 \u0639\u0637\u064a\u0634", "int_name": "F\u0101ris U\u0163aysh, \u0641\u0627\u0631\u0633 \u0639\u0637\u064a\u0634, Faris Utaysh, \u0641\u0627\u0631\u0633 \u0639\u0637\u064a\u0634", "name": "\u0641\u0627\u0631\u0633 \u0639\u0637\u064a\u0634", "name:ar": "\u0641\u0627\u0631\u0633 \u0639\u0637\u064a\u0634", "name:ar1": "\u0641\u0627\u0631\u0633 \u0639\u0637\u064a\u0634", "name:de": "Faris Utaysh", "name:en": "Faris Utaysh", "name:fr": "Faris Utaysh", "place": "village"}}, {"type": "node", "id": 2488390841, "lat": 33.707284, "lon": 44.017999, "tags": {"alt_name": "\u062d\u0627\u0641\u0638 \u062e\u0644\u0641", "int_name": "\u1e28\u0101fiz\u0327 Khalaf, \u062d\u0627\u0641\u0638 \u062e\u0644\u0641, Hafiz Khalaf, \u062d\u0627\u0641\u0638 \u062e\u0644\u0641", "name": "\u062d\u0627\u0641\u0638 \u062e\u0644\u0641", "name:ar": "\u062d\u0627\u0641\u0638 \u062e\u0644\u0641", "name:ar1": "\u062d\u0627\u0641\u0638 \u062e\u0644\u0641", "name:de": "Hafiz Khalaf", "name:en": "Hafiz Khalaf", "name:fr": "Hafiz Khalaf", "place": "village"}}, {"type": "node", "id": 2488390846, "lat": 33.733723, "lon": 43.942464, "tags": {"alt_name": "\u062d\u0645\u064a\u062f \u0627\u0644\u0646\u0627\u064a\u0641", "int_name": "\u1e28am\u012bd an N\u0101yif, \u062d\u0645\u064a\u062f \u0627\u0644\u0646\u0627\u064a\u0641, Hamid an Nayif, \u062d\u0645\u064a\u062f \u0627\u0644\u0646\u0627\u064a\u0641", "name": "\u062d\u0645\u064a\u062f \u0627\u0644\u0646\u0627\u064a\u0641", "name:ar": "\u062d\u0645\u064a\u062f \u0627\u0644\u0646\u0627\u064a\u0641", "name:ar1": "\u062d\u0645\u064a\u062f \u0627\u0644\u0646\u0627\u064a\u0641", "name:de": "Hamid an Nayif", "name:en": "Hamid an Nayif", "name:fr": "Hamid an Nayif", "place": "village"}}, {"type": "node", "id": 2488390850, "lat": 33.63382, "lon": 44.014707, "tags": {"alt_name": "\u062d\u0645\u0632\u0629 \u0645\u062d\u0644", "int_name": "\u1e28amzat Ma\u1e29al, Hamzat Mahal", "name": "\u062d\u0645\u0632\u0629 \u0645\u062d\u0644", "name:ar": "\u062d\u0645\u0632\u0629 \u0645\u062d\u0644", "name:ar1": "\u062d\u0645\u0632\u0629 \u0645\u062d\u0644", "name:de": "Hamzat Mahal", "name:en": "Hamzat Mahal", "name:fr": "Hamzat Mahal", "place": "village"}}, {"type": "node", "id": 2488390852, "lat": 33.597467, "lon": 43.952235, "tags": {"alt_name": "\u062d\u0633\u0646 \u0627\u0644\u0633\u0627\u0644\u0645", "int_name": "\u1e28asan as S\u0101lim, \u062d\u0633\u0646 \u0627\u0644\u0633\u0627\u0644\u0645, Hasan as Salim, \u062d\u0633\u0646 \u0627\u0644\u0633\u0627\u0644\u0645", "name": "\u062d\u0633\u0646 \u0627\u0644\u0633\u0627\u0644\u0645", "name:ar": "\u062d\u0633\u0646 \u0627\u0644\u0633\u0627\u0644\u0645", "name:ar1": "\u062d\u0633\u0646 \u0627\u0644\u0633\u0627\u0644\u0645", "name:de": "Hasan as Salim", "name:en": "Hasan as Salim", "name:fr": "Hasan as Salim", "place": "village"}}, {"type": "node", "id": 2488390864, "lat": 33.702594, "lon": 44.012488, "tags": {"alt_name": "\u062d\u0627\u064a\u0641 \u0631\u0641\u0627\u0633", "int_name": "\u1e28\u0101yif Raff\u0101s, \u062d\u0627\u064a\u0641 \u0631\u0641\u0627\u0633, Hayif Raffas, \u062d\u0627\u064a\u0641 \u0631\u0641\u0627\u0633", "name": "\u062d\u0627\u064a\u0641 \u0631\u0641\u0627\u0633", "name:ar": "\u062d\u0627\u064a\u0641 \u0631\u0641\u0627\u0633", "name:ar1": "\u062d\u0627\u064a\u0641 \u0631\u0641\u0627\u0633", "name:de": "Hayif Raffas", "name:en": "Hayif Raffas", "name:fr": "Hayif Raffas", "place": "village"}}, {"type": "node", "id": 2488390870, "lat": 33.659627, "lon": 44.025131, "tags": {"alt_name": "\u0625\u0628\u0631\u0627\u0647\u064a\u0645 \u062d\u0645\u062f", "int_name": "Ibr\u0101h\u012bm \u1e28amad, \u0627\u0628\u0631\u0627\u0647\u064a\u0645 \u062d\u0645\u062f, Ibrahim Hamad, \u0627\u0628\u0631\u0627\u0647\u064a\u0645 \u062d\u0645\u062f", "name": "\u0625\u0628\u0631\u0627\u0647\u064a\u0645 \u062d\u0645\u062f", "name:ar": "\u0625\u0628\u0631\u0627\u0647\u064a\u0645 \u062d\u0645\u062f", "name:ar1": "\u0625\u0628\u0631\u0627\u0647\u064a\u0645 \u062d\u0645\u062f", "name:de": "Ibrahim Hamad", "name:en": "Ibrahim Hamad", "name:fr": "Ibrahim Hamad", "place": "village"}}, {"type": "node", "id": 2488390879, "lat": 33.634184, "lon": 44.005527, "tags": {"alt_name": "\u0625\u0633\u0645\u0627\u0639\u064a\u0644 \u062c\u0627\u0633\u0645", "int_name": "Ism\u0101\u012bl J\u0101sim, \u0627\u0633\u0645\u0627\u0639\u064a\u0644 \u062c\u0627\u0633\u0645, Ismail Jasim, \u0627\u0633\u0645\u0627\u0639\u064a\u0644 \u062c\u0627\u0633\u0645", "name": "\u0625\u0633\u0645\u0627\u0639\u064a\u0644 \u062c\u0627\u0633\u0645", "name:ar": "\u0625\u0633\u0645\u0627\u0639\u064a\u0644 \u062c\u0627\u0633\u0645", "name:ar1": "\u0625\u0633\u0645\u0627\u0639\u064a\u0644 \u062c\u0627\u0633\u0645", "name:de": "Ismail Jasim", "name:en": "Ismail Jasim", "name:fr": "Ismail Jasim", "place": "village"}}, {"type": "node", "id": 2488390883, "lat": 33.5834023, "lon": 43.9333505, "tags": {"alt_name": "\u0643\u0631\u0645\u0629", "int_name": "Karma, Karma", "name": "\u0643\u0631\u0645\u0629", "name:ar": "\u0643\u0631\u0645\u0629", "name:ar1": "\u0643\u0631\u0645\u0629", "name:de": "Karma", "name:en": "Karma", "name:fr": "Karma", "place": "village"}}, {"type": "node", "id": 2488390890, "lat": 33.668329, "lon": 44.011687, "tags": {"alt_name": "\u0645\u062c\u064a\u062f \u0641\u064a\u062d\u0627\u0646", "int_name": "Maj\u012bd Fay\u1e29\u0101n, \u0645\u062c\u064a\u062f \u0641\u064a\u062d\u0627\u0646, Majid Fayhan, \u0645\u062c\u064a\u062f \u0641\u064a\u062d\u0627\u0646", "name": "\u0645\u062c\u064a\u062f \u0641\u064a\u062d\u0627\u0646", "name:ar": "\u0645\u062c\u064a\u062f \u0641\u064a\u062d\u0627\u0646", "name:ar1": "\u0645\u062c\u064a\u062f \u0641\u064a\u062d\u0627\u0646", "name:de": "Majid Fayhan", "name:en": "Majid Fayhan", "name:fr": "Majid Fayhan", "place": "village"}}, {"type": "node", "id": 2488390891, "lat": 33.716116, "lon": 44.015972, "tags": {"alt_name": "\u0645\u0639\u0644\u0629 \u0639\u0637\u064a\u0629", "int_name": "Malat A\u0163\u0163\u012byah, \u0645\u0639\u0644\u0629 \u0639\u0637\u064a\u0629, Malat Attiyah, \u0645\u0639\u0644\u0629 \u0639\u0637\u064a\u0629", "name": "\u0645\u0639\u0644\u0629 \u0639\u0637\u064a\u0629", "name:ar": "\u0645\u0639\u0644\u0629 \u0639\u0637\u064a\u0629", "name:ar1": "\u0645\u0639\u0644\u0629 \u0639\u0637\u064a\u0629", "name:de": "Malat Attiyah", "name:en": "Malat Attiyah", "name:fr": "Malat Attiyah", "place": "village"}}, {"type": "node", "id": 2488390893, "lat": 33.710333, "lon": 44.00908, "tags": {"alt_name": "\u0645\u0631\u0641\u0648\u0639 \u062d\u0632\u0627\u0645", "int_name": "Marf\u016b \u1e28azz\u0101m, \u0645\u0631\u0641\u0648\u0639 \u062d\u0632\u0627\u0645, Marfu Hazzam, \u0645\u0631\u0641\u0648\u0639 \u062d\u0632\u0627\u0645", "name": "\u0645\u0631\u0641\u0648\u0639 \u062d\u0632\u0627\u0645", "name:ar": "\u0645\u0631\u0641\u0648\u0639 \u062d\u0632\u0627\u0645", "name:ar1": "\u0645\u0631\u0641\u0648\u0639 \u062d\u0632\u0627\u0645", "name:de": "Marfu Hazzam", "name:en": "Marfu Hazzam", "name:fr": "Marfu Hazzam", "place": "village"}}, {"type": "node", "id": 2488390898, "lat": 33.653889, "lon": 43.990363, "tags": {"alt_name": "\u0645\u062d\u0645\u062f \u0623\u062d\u0645\u062f \u0627\u0644\u0637\u0631\u0627\u0628\u0644\u0629", "int_name": "Mu\u1e29ammad A\u1e29mad a\u0163 \u0162ar\u0101blah, Mu\u1e29ammad a\u0163 \u0162ar\u0101blah, \u0645\u062d\u0645\u062f \u0627\u062d\u0645\u062f \u0627\u0644\u0637\u0631\u0627\u0628\u0644\u0629, \u0645\u062d\u0645\u062f \u0627\u0644\u0637\u0631\u0627\u0628\u0644\u0629, Muhammad Ahmad at Tarablah, Muhammad at Tarablah, \u0645\u062d\u0645\u062f \u0627\u062d\u0645\u062f \u0627\u0644\u0637\u0631\u0627\u0628\u0644\u0629, \u0645\u062d\u0645\u062f \u0627\u0644\u0637\u0631\u0627\u0628\u0644\u0629", "name": "\u0645\u062d\u0645\u062f \u0623\u062d\u0645\u062f \u0627\u0644\u0637\u0631\u0627\u0628\u0644\u0629", "name:ar": "\u0645\u062d\u0645\u062f \u0623\u062d\u0645\u062f \u0627\u0644\u0637\u0631\u0627\u0628\u0644\u0629", "name:ar1": "\u0645\u062d\u0645\u062f \u0623\u062d\u0645\u062f \u0627\u0644\u0637\u0631\u0627\u0628\u0644\u0629", "name:de": "Muhammad Ahmad at Tarablah", "name:en": "Muhammad Ahmad at Tarablah", "name:fr": "Muhammad Ahmad at Tarablah", "place": "village"}}, {"type": "node", "id": 2488390899, "lat": 33.709954, "lon": 44.019904, "tags": {"alt_name": "\u0645\u062d\u0645\u062f \u0641\u0644\u0627\u062d", "int_name": "Mu\u1e29ammad Fal\u0101\u1e29, \u0645\u062d\u0645\u062f \u0641\u0644\u0627\u062d, Muhammad Falah, \u0645\u062d\u0645\u062f \u0641\u0644\u0627\u062d", "name": "\u0645\u062d\u0645\u062f \u0641\u0644\u0627\u062d", "name:ar": "\u0645\u062d\u0645\u062f \u0641\u0644\u0627\u062d", "name:ar1": "\u0645\u062d\u0645\u062f \u0641\u0644\u0627\u062d", "name:de": "Muhammad Falah", "name:en": "Muhammad Falah", "name:fr": "Muhammad Falah", "place": "village"}}, {"type": "node", "id": 2488390900, "lat": 33.626173, "lon": 44.022072, "tags": {"alt_name": "\u0645\u062d\u0645\u062f \u062c\u0627\u0633\u0645", "int_name": "Mu\u1e29ammad J\u0101sim, \u0645\u062d\u0645\u062f \u062c\u0627\u0633\u0645, Muhammad Jasim, \u0645\u062d\u0645\u062f \u062c\u0627\u0633\u0645", "name": "\u0645\u062d\u0645\u062f \u062c\u0627\u0633\u0645", "name:ar": "\u0645\u062d\u0645\u062f \u062c\u0627\u0633\u0645", "name:ar1": "\u0645\u062d\u0645\u062f \u062c\u0627\u0633\u0645", "name:de": "Muhammad Jasim", "name:en": "Muhammad Jasim", "name:fr": "Muhammad Jasim", "place": "village"}}, {"type": "node", "id": 2488390901, "lat": 33.698421, "lon": 43.993906, "tags": {"alt_name": "\u0645\u062d\u0645\u062f \u062e\u0644\u0641", "int_name": "Mu\u1e29ammad Khalaf, \u0645\u062d\u0645\u062f \u062e\u0644\u0641, Muhammad Khalaf, \u0645\u062d\u0645\u062f \u062e\u0644\u0641", "name": "\u0645\u062d\u0645\u062f \u062e\u0644\u0641", "name:ar": "\u0645\u062d\u0645\u062f \u062e\u0644\u0641", "name:ar1": "\u0645\u062d\u0645\u062f \u062e\u0644\u0641", "name:de": "Muhammad Khalaf", "name:en": "Muhammad Khalaf", "name:fr": "Muhammad Khalaf", "place": "village"}}, {"type": "node", "id": 2488390903, "lat": 33.66013, "lon": 44.00649, "tags": {"alt_name": "\u0645\u062d\u0645\u062f \u0634\u0627\u0645\u064a", "int_name": "Mu\u1e29ammad Sh\u0101m\u012b, \u0645\u062d\u0645\u062f \u0634\u0627\u0645\u064a, Muhammad Shami, \u0645\u062d\u0645\u062f \u0634\u0627\u0645\u064a", "name": "\u0645\u062d\u0645\u062f \u0634\u0627\u0645\u064a", "name:ar": "\u0645\u062d\u0645\u062f \u0634\u0627\u0645\u064a", "name:ar1": "\u0645\u062d\u0645\u062f \u0634\u0627\u0645\u064a", "name:de": "Muhammad Shami", "name:en": "Muhammad Shami", "name:fr": "Muhammad Shami", "place": "village"}}, {"type": "node", "id": 2488390904, "lat": 33.687937, "lon": 44.017586, "tags": {"alt_name": "\u0645\u0639\u062c\u0628 \u0645\u062c\u0628\u0644", "int_name": "Mujab Mujbil, \u0645\u0639\u062c\u0628 \u0645\u062c\u0628\u0644, Mujab Mujbil, \u0645\u0639\u062c\u0628 \u0645\u062c\u0628\u0644", "name": "\u0645\u0639\u062c\u0628 \u0645\u062c\u0628\u0644", "name:ar": "\u0645\u0639\u062c\u0628 \u0645\u062c\u0628\u0644", "name:ar1": "\u0645\u0639\u062c\u0628 \u0645\u062c\u0628\u0644", "name:de": "Mujab Mujbil", "name:en": "Mujab Mujbil", "name:fr": "Mujab Mujbil", "place": "village"}}, {"type": "node", "id": 2488390907, "lat": 33.579214, "lon": 43.896292, "tags": {"alt_name": "\u0645\u0637\u0644\u0643 \u0627\u0644\u0646\u0627\u064a\u0641", "int_name": "Mu\u0163lak an N\u0101yif, \u0645\u0637\u0644\u0643 \u0627\u0644\u0646\u0627\u064a\u0641, Mutlak an Nayif, \u0645\u0637\u0644\u0643 \u0627\u0644\u0646\u0627\u064a\u0641", "name": "\u0645\u0637\u0644\u0643 \u0627\u0644\u0646\u0627\u064a\u0641", "name:ar": "\u0645\u0637\u0644\u0643 \u0627\u0644\u0646\u0627\u064a\u0641", "name:ar1": "\u0645\u0637\u0644\u0643 \u0627\u0644\u0646\u0627\u064a\u0641", "name:de": "Mutlak an Nayif", "name:en": "Mutlak an Nayif", "name:fr": "Mutlak an Nayif", "place": "village"}}, {"type": "node", "id": 2488390910, "lat": 33.614944, "lon": 44.004543, "tags": {"alt_name": "\u0642\u0631\u064a\u0629 \u0627\u0644\u062d\u0645\u0631\u0629", "int_name": "Qaryat al \u1e28amrah, \u0642\u0631\u064a\u0629 \u0627\u0644\u062d\u0645\u0631\u0629, Qaryat al Hamrah, \u0642\u0631\u064a\u0629 \u0627\u0644\u062d\u0645\u0631\u0629", "name": "\u0642\u0631\u064a\u0629 \u0627\u0644\u062d\u0645\u0631\u0629", "name:ar": "\u0642\u0631\u064a\u0629 \u0627\u0644\u062d\u0645\u0631\u0629", "name:ar1": "\u0642\u0631\u064a\u0629 \u0627\u0644\u062d\u0645\u0631\u0629", "name:de": "Qaryat al Hamrah", "name:en": "Qaryat al Hamrah", "name:fr": "Qaryat al Hamrah", "place": "village"}}, {"type": "node", "id": 2488390914, "lat": 33.687413, "lon": 44.00431, "tags": {"alt_name": "\u0633\u0645\u064a\u0631 \u0637\u0627\u064a\u0633", "int_name": "Sam\u012br \u0162\u0101yis, \u0633\u0645\u064a\u0631 \u0637\u0627\u064a\u0633, Samir Tayis, \u0633\u0645\u064a\u0631 \u0637\u0627\u064a\u0633", "name": "\u0633\u0645\u064a\u0631 \u0637\u0627\u064a\u0633", "name:ar": "\u0633\u0645\u064a\u0631 \u0637\u0627\u064a\u0633", "name:ar1": "\u0633\u0645\u064a\u0631 \u0637\u0627\u064a\u0633", "name:de": "Samir Tayis", "name:en": "Samir Tayis", "name:fr": "Samir Tayis", "place": "village"}}, {"type": "node", "id": 2488390916, "lat": 33.677381, "lon": 44.019725, "tags": {"alt_name": "\u0634\u0644\u0627\u0644 \u0639\u0641\u0646", "int_name": "Shil\u0101l Afin, \u0634\u0644\u0627\u0644 \u0639\u0641\u0646, Shilal Afin, \u0634\u0644\u0627\u0644 \u0639\u0641\u0646", "name": "\u0634\u0644\u0627\u0644 \u0639\u0641\u0646", "name:ar": "\u0634\u0644\u0627\u0644 \u0639\u0641\u0646", "name:ar1": "\u0634\u0644\u0627\u0644 \u0639\u0641\u0646", "name:de": "Shilal Afin", "name:en": "Shilal Afin", "name:fr": "Shilal Afin", "place": "village"}}, {"type": "node", "id": 2488390917, "lat": 33.591911, "lon": 43.905129, "tags": {"alt_name": "\u0633\u0644\u064a\u0645\u0627\u0646 \u0627\u0644\u0633\u0647\u064a\u0644", "int_name": "Sulaym\u0101n as Suhayl, \u0633\u0644\u064a\u0645\u0627\u0646 \u0627\u0644\u0633\u0647\u064a\u0644, Sulayman as Suhayl, \u0633\u0644\u064a\u0645\u0627\u0646 \u0627\u0644\u0633\u0647\u064a\u0644", "name": "\u0633\u0644\u064a\u0645\u0627\u0646 \u0627\u0644\u0633\u0647\u064a\u0644", "name:ar": "\u0633\u0644\u064a\u0645\u0627\u0646 \u0627\u0644\u0633\u0647\u064a\u0644", "name:ar1": "\u0633\u0644\u064a\u0645\u0627\u0646 \u0627\u0644\u0633\u0647\u064a\u0644", "name:de": "Sulayman as Suhayl", "name:en": "Sulayman as Suhayl", "name:fr": "Sulayman as Suhayl", "place": "village"}}, {"type": "node", "id": 2488390918, "lat": 33.72128, "lon": 43.95936, "tags": {"alt_name": "\u062a\u0628\u0627\u0639\u064a", "int_name": "Tab\u0101\u012b, \u062a\u0628\u0627\u0639\u064a, Tabai, \u062a\u0628\u0627\u0639\u064a", "name": "\u062a\u0628\u0627\u0639\u064a", "name:ar": "\u062a\u0628\u0627\u0639\u064a", "name:ar1": "\u062a\u0628\u0627\u0639\u064a", "name:de": "Tabai", "name:en": "Tabai", "name:fr": "Tabai", "place": "village"}}, {"type": "node", "id": 2488390922, "lat": 33.591155, "lon": 43.927715, "tags": {"alt_name": "\u0639\u0628\u064a\u062f \u0637\u0631\u0627\u0632", "int_name": "Ubayd \u0162ar\u0101z, \u0639\u0628\u064a\u062f \u0637\u0631\u0627\u0632, Ubayd Taraz, \u0639\u0628\u064a\u062f \u0637\u0631\u0627\u0632", "name": "\u0639\u0628\u064a\u062f \u0637\u0631\u0627\u0632", "name:ar": "\u0639\u0628\u064a\u062f \u0637\u0631\u0627\u0632", "name:ar1": "\u0639\u0628\u064a\u062f \u0637\u0631\u0627\u0632", "name:de": "Ubayd Taraz", "name:en": "Ubayd Taraz", "name:fr": "Ubayd Taraz", "place": "village"}}, {"type": "node", "id": 2488390926, "lat": 33.624609, "lon": 44.010097, "tags": {"alt_name": "\u0632\u064a\u062f\u0627\u0646 \u062e\u0644\u0641", "int_name": "Zayd\u0101n Khalaf, \u0632\u064a\u062f\u0627\u0646 \u062e\u0644\u0641, Zaydan Khalaf, \u0632\u064a\u062f\u0627\u0646 \u062e\u0644\u0641", "name": "\u0632\u064a\u062f\u0627\u0646 \u062e\u0644\u0641", "name:ar": "\u0632\u064a\u062f\u0627\u0646 \u062e\u0644\u0641", "name:ar1": "\u0632\u064a\u062f\u0627\u0646 \u062e\u0644\u0641", "name:de": "Zaydan Khalaf", "name:en": "Zaydan Khalaf", "name:fr": "Zaydan Khalaf", "place": "village"}}, {"type": "node", "id": 2488390986, "lat": 33.798988, "lon": 43.977189, "tags": {"alt_name": "\u0639\u0628\u062f \u0627\u0644\u0644\u0647 \u0627\u0644\u062d\u0645\u062f", "int_name": "Abd All\u0101h al \u1e28amad, \u0639\u0628\u062f \ufdf2 \u0627\u0644\u062d\u0645\u062f, Abd Allah al Hamad, \u0639\u0628\u062f \ufdf2 \u0627\u0644\u062d\u0645\u062f", "name": "\u0639\u0628\u062f \u0627\u0644\u0644\u0647 \u0627\u0644\u062d\u0645\u062f", "name:ar": "\u0639\u0628\u062f \u0627\u0644\u0644\u0647 \u0627\u0644\u062d\u0645\u062f", "name:ar1": "\u0639\u0628\u062f \u0627\u0644\u0644\u0647 \u0627\u0644\u062d\u0645\u062f", "name:de": "Abd Allah al Hamad", "name:en": "Abd Allah al Hamad", "name:fr": "Abd Allah al Hamad", "place": "village"}}, {"type": "node", "id": 2488391008, "lat": 33.774021, "lon": 43.9678, "tags": {"alt_name": "\u062d\u0633\u0646 \u0627\u0644\u0639\u0628\u062f \u0627\u0644\u0644\u0647", "int_name": "\u1e28asan al Abd All\u0101h, \u062d\u0633\u0646 \u0627\u0644\u0639\u0628\u062f \u0627\u0644\u0644\u0647, Hasan al Abd Allah, \u062d\u0633\u0646 \u0627\u0644\u0639\u0628\u062f \u0627\u0644\u0644\u0647", "name": "\u062d\u0633\u0646 \u0627\u0644\u0639\u0628\u062f \u0627\u0644\u0644\u0647", "name:ar": "\u062d\u0633\u0646 \u0627\u0644\u0639\u0628\u062f \u0627\u0644\u0644\u0647", "name:ar1": "\u062d\u0633\u0646 \u0627\u0644\u0639\u0628\u062f \u0627\u0644\u0644\u0647", "name:de": "Hasan al Abd Allah", "name:en": "Hasan al Abd Allah", "name:fr": "Hasan al Abd Allah", "place": "village"}}, {"type": "node", "id": 2488391050, "lat": 33.789563, "lon": 43.960614, "tags": {"alt_name": "\u0635\u0644\u0628\u0648\u062d \u0627\u0644\u062d\u0645\u062f", "int_name": "\u015ealb\u016b\u1e29 al \u1e28amad, \u0635\u0644\u0628\u0648\u062d \u0627\u0644\u062d\u0645\u062f, Salbuh al Hamad, \u0635\u0644\u0628\u0648\u062d \u0627\u0644\u062d\u0645\u062f", "name": "\u0635\u0644\u0628\u0648\u062d \u0627\u0644\u062d\u0645\u062f", "name:ar": "\u0635\u0644\u0628\u0648\u062d \u0627\u0644\u062d\u0645\u062f", "name:ar1": "\u0635\u0644\u0628\u0648\u062d \u0627\u0644\u062d\u0645\u062f", "name:de": "Salbuh al Hamad", "name:en": "Salbuh al Hamad", "name:fr": "Salbuh al Hamad", "place": "village"}}, {"type": "node", "id": 2488488383, "lat": 33.877614, "lon": 44.004352, "tags": {"alt_name": "\u0639\u0644\u064a \u062c\u0641\u0627\u0644", "int_name": "Al\u012b Jaf\u0101l, \u0639\u0644\u064a \u062c\u0641\u0627\u0644, Ali Jafal, \u0639\u0644\u064a \u062c\u0641\u0627\u0644", "name": "\u0639\u0644\u064a \u062c\u0641\u0627\u0644", "name:ar": "\u0639\u0644\u064a \u062c\u0641\u0627\u0644", "name:ar1": "\u0639\u0644\u064a \u062c\u0641\u0627\u0644", "name:de": "Ali Jafal", "name:en": "Ali Jafal", "name:fr": "Ali Jafal", "place": "village"}}, {"type": "node", "id": 2488488389, "lat": 33.878081, "lon": 44.001341, "tags": {"alt_name": "\u0639\u0644\u064a \u0627\u0644\u062c\u0641\u0627\u0644", "int_name": "Al\u012b al Jaf\u0101l, \u0639\u0644\u064a \u0627\u0644\u062c\u0641\u0627\u0644, Ali al Jafal, \u0639\u0644\u064a \u0627\u0644\u062c\u0641\u0627\u0644", "name": "\u0639\u0644\u064a \u0627\u0644\u062c\u0641\u0627\u0644", "name:ar": "\u0639\u0644\u064a \u0627\u0644\u062c\u0641\u0627\u0644", "name:ar1": "\u0639\u0644\u064a \u0627\u0644\u062c\u0641\u0627\u0644", "name:de": "Ali al Jafal", "name:en": "Ali al Jafal", "name:fr": "Ali al Jafal", "place": "village"}}, {"type": "node", "id": 2488488433, "lat": 33.876573, "lon": 44.00118, "tags": {"alt_name": "\u0639\u0631\u0628 \u0645\u0648\u0633\u0649 \u0633\u0639\u064a\u062f", "int_name": "Arab M\u016bs\u00e1 Sa\u012bd, \u0639\u0631\u0628 \u0645\u0648\u0633\u0649 \u0633\u0639\u064a\u062f, Arab Musa Said, \u0639\u0631\u0628 \u0645\u0648\u0633\u0649 \u0633\u0639\u064a\u062f", "name": "\u0639\u0631\u0628 \u0645\u0648\u0633\u0649 \u0633\u0639\u064a\u062f", "name:ar": "\u0639\u0631\u0628 \u0645\u0648\u0633\u0649 \u0633\u0639\u064a\u062f", "name:ar1": "\u0639\u0631\u0628 \u0645\u0648\u0633\u0649 \u0633\u0639\u064a\u062f", "name:de": "Arab Musa Said", "name:en": "Arab Musa Said", "name:fr": "Arab Musa Said", "place": "village"}}, {"type": "node", "id": 2488488475, "lat": 33.847008, "lon": 44.013297, "tags": {"alt_name": "\u062d\u0645\u0627\u062f\u064a \u0627\u0644\u062c\u0631\u0627\u0646", "int_name": "\u1e28am\u0101d\u012b al Jar\u0101n, \u062d\u0645\u0627\u062f\u064a \u0627\u0644\u062c\u0631\u0627\u0646, Hamadi al Jaran, \u062d\u0645\u0627\u062f\u064a \u0627\u0644\u062c\u0631\u0627\u0646", "name": "\u062d\u0645\u0627\u062f\u064a \u0627\u0644\u062c\u0631\u0627\u0646", "name:ar": "\u062d\u0645\u0627\u062f\u064a \u0627\u0644\u062c\u0631\u0627\u0646", "name:ar1": "\u062d\u0645\u0627\u062f\u064a \u0627\u0644\u062c\u0631\u0627\u0646", "name:de": "Hamadi al Jaran", "name:en": "Hamadi al Jaran", "name:fr": "Hamadi al Jaran", "place": "village"}}, {"type": "node", "id": 2488488499, "lat": 33.856067, "lon": 44.009607, "tags": {"alt_name": "\u0625\u0628\u0631\u0627\u0647\u064a\u0645 \u0627\u0644\u062e\u0627\u0637\u0631", "int_name": "Ibr\u0101h\u012bm al Kh\u0101\u0163ir, \u0627\u0628\u0631\u0627\u0647\u064a\u0645 \u0627\u0644\u062e\u0627\u0637\u0631, Ibrahim al Khatir, \u0627\u0628\u0631\u0627\u0647\u064a\u0645 \u0627\u0644\u062e\u0627\u0637\u0631", "name": "\u0625\u0628\u0631\u0627\u0647\u064a\u0645 \u0627\u0644\u062e\u0627\u0637\u0631", "name:ar": "\u0625\u0628\u0631\u0627\u0647\u064a\u0645 \u0627\u0644\u062e\u0627\u0637\u0631", "name:ar1": "\u0625\u0628\u0631\u0627\u0647\u064a\u0645 \u0627\u0644\u062e\u0627\u0637\u0631", "name:de": "Ibrahim al Khatir", "name:en": "Ibrahim al Khatir", "name:fr": "Ibrahim al Khatir", "place": "village"}}, {"type": "node", "id": 2488488542, "lat": 33.868971, "lon": 44.020994, "tags": {"alt_name": "\u0645\u062c\u064a\u062f \u0645\u062e\u0644\u0641", "int_name": "Maj\u012bd Mukhlif, \u0645\u062c\u064a\u062f \u0645\u062e\u0644\u0641, Majid Mukhlif, \u0645\u062c\u064a\u062f \u0645\u062e\u0644\u0641", "name": "\u0645\u062c\u064a\u062f \u0645\u062e\u0644\u0641", "name:ar": "\u0645\u062c\u064a\u062f \u0645\u062e\u0644\u0641", "name:ar1": "\u0645\u062c\u064a\u062f \u0645\u062e\u0644\u0641", "name:de": "Majid Mukhlif", "name:en": "Majid Mukhlif", "name:fr": "Majid Mukhlif", "place": "village"}}, {"type": "node", "id": 2488488548, "lat": 33.833049, "lon": 43.994929, "tags": {"alt_name": "\u0631\u0637\u0628\u0631\u0643", "int_name": "Ru\u0163barak, \u0631\u0637\u0628\u0631\u0643, Rutbarak, \u0631\u0637\u0628\u0631\u0643", "name": "\u0631\u0637\u0628\u0631\u0643", "name:ar": "\u0631\u0637\u0628\u0631\u0643", "name:ar1": "\u0631\u0637\u0628\u0631\u0643", "name:de": "Rutbarak", "name:en": "Rutbarak", "name:fr": "Rutbarak", "place": "village"}}, {"type": "node", "id": 2488488554, "lat": 33.805297, "lon": 43.995561, "tags": {"alt_name": "\u0633\u0644\u0641 \u0645\u062d\u0645\u062f \u0627\u0644\u062e\u0627\u0644\u062f\u064a", "int_name": "Salaf Mu\u1e29ammad al Kh\u0101lid\u012b, \u0633\u0644\u0641 \u0645\u062d\u0645\u062f \u0627\u0644\u062e\u0627\u0644\u062f\u064a, Salaf Muhammad al Khalidi, \u0633\u0644\u0641 \u0645\u062d\u0645\u062f \u0627\u0644\u062e\u0627\u0644\u062f\u064a", "name": "\u0633\u0644\u0641 \u0645\u062d\u0645\u062f \u0627\u0644\u062e\u0627\u0644\u062f\u064a", "name:ar": "\u0633\u0644\u0641 \u0645\u062d\u0645\u062f \u0627\u0644\u062e\u0627\u0644\u062f\u064a", "name:ar1": "\u0633\u0644\u0641 \u0645\u062d\u0645\u062f \u0627\u0644\u062e\u0627\u0644\u062f\u064a", "name:de": "Salaf Muhammad al Khalidi", "name:en": "Salaf Muhammad al Khalidi", "name:fr": "Salaf Muhammad al Khalidi", "place": "village"}}, {"type": "node", "id": 2488489424, "lat": 33.793358, "lon": 44.004206, "tags": {"alt_name": "\u0639\u0644\u064a \u062d\u0631\u064a\u0634", "int_name": "Al\u012b \u1e28ar\u012bsh, \u0639\u0644\u064a \u062d\u0631\u064a\u0634, Ali Harish, \u0639\u0644\u064a \u062d\u0631\u064a\u0634", "name": "\u0639\u0644\u064a \u062d\u0631\u064a\u0634", "name:ar": "\u0639\u0644\u064a \u062d\u0631\u064a\u0634", "name:ar1": "\u0639\u0644\u064a \u062d\u0631\u064a\u0634", "name:de": "Ali Harish", "name:en": "Ali Harish", "name:fr": "Ali Harish", "place": "village"}}, {"type": "node", "id": 2488489437, "lat": 33.780192, "lon": 44.0107, "tags": {"alt_name": "\u0639\u0631\u0628 \u0643\u0627\u0638\u0645 \u0639\u064a\u0637\u0627\u0646", "int_name": "Arab K\u0101z\u0327im Ay\u0163\u0101n, \u0639\u0631\u0628 \u0643\u0627\u0638\u0645 \u0639\u064a\u0637\u0627\u0646, Arab Kazim Aytan, \u0639\u0631\u0628 \u0643\u0627\u0638\u0645 \u0639\u064a\u0637\u0627\u0646", "name": "\u0639\u0631\u0628 \u0643\u0627\u0638\u0645 \u0639\u064a\u0637\u0627\u0646", "name:ar": "\u0639\u0631\u0628 \u0643\u0627\u0638\u0645 \u0639\u064a\u0637\u0627\u0646", "name:ar1": "\u0639\u0631\u0628 \u0643\u0627\u0638\u0645 \u0639\u064a\u0637\u0627\u0646", "name:de": "Arab Kazim Aytan", "name:en": "Arab Kazim Aytan", "name:fr": "Arab Kazim Aytan", "place": "village"}}, {"type": "node", "id": 2488489450, "lat": 33.780663, "lon": 43.995507, "tags": {"alt_name": "\u062f\u063a\u064a\u0645 \u0627\u0644\u062e\u0627\u0644\u062f\u064a", "int_name": "Daghayyam al Kh\u0101ld\u012b, \u062f\u063a\u064a\u0645 \u0627\u0644\u062e\u0627\u0644\u062f\u064a, Daghayyam al Khaldi, \u062f\u063a\u064a\u0645 \u0627\u0644\u062e\u0627\u0644\u062f\u064a", "name": "\u062f\u063a\u064a\u0645 \u0627\u0644\u062e\u0627\u0644\u062f\u064a", "name:ar": "\u062f\u063a\u064a\u0645 \u0627\u0644\u062e\u0627\u0644\u062f\u064a", "name:ar1": "\u062f\u063a\u064a\u0645 \u0627\u0644\u062e\u0627\u0644\u062f\u064a", "name:de": "Daghayyam al Khaldi", "name:en": "Daghayyam al Khaldi", "name:fr": "Daghayyam al Khaldi", "place": "village"}}, {"type": "node", "id": 2488489462, "lat": 33.816824, "lon": 43.958745, "tags": {"alt_name": "\u062d\u0633\u0646 \u0639\u0641\u0627\u0646", "int_name": "\u1e28asan Af\u0101n, \u062d\u0633\u0646 \u0639\u0641\u0627\u0646, Hasan Afan, \u062d\u0633\u0646 \u0639\u0641\u0627\u0646", "name": "\u062d\u0633\u0646 \u0639\u0641\u0627\u0646", "name:ar": "\u062d\u0633\u0646 \u0639\u0641\u0627\u0646", "name:ar1": "\u062d\u0633\u0646 \u0639\u0641\u0627\u0646", "name:de": "Hasan Afan", "name:en": "Hasan Afan", "name:fr": "Hasan Afan", "place": "village"}}, {"type": "node", "id": 2488489475, "lat": 33.776329, "lon": 43.982315, "tags": {"alt_name": "\u0642\u0628\u0631 \u0648\u0636\u0627\u062d", "int_name": "Qabr Wa\u1e11\u0101\u1e29, \u0642\u0628\u0631 \u0648\u0636\u0627\u062d, Qabr Wadah, \u0642\u0628\u0631 \u0648\u0636\u0627\u062d", "name": "\u0642\u0628\u0631 \u0648\u0636\u0627\u062d", "name:ar": "\u0642\u0628\u0631 \u0648\u0636\u0627\u062d", "name:ar1": "\u0642\u0628\u0631 \u0648\u0636\u0627\u062d", "name:de": "Qabr Wadah", "name:en": "Qabr Wadah", "name:fr": "Qabr Wadah", "place": "village"}}, {"type": "node", "id": 2488489499, "lat": 33.790579, "lon": 44.0240636, "tags": {"alt_name": "\u0639\u0628\u064a\u062f \u064a\u0648\u0633\u0641", "int_name": "Ubayd Y\u016bsif, \u0639\u0628\u064a\u062f \u064a\u0648\u0633\u0641, Ubayd Yusif, \u0639\u0628\u064a\u062f \u064a\u0648\u0633\u0641", "name": "\u0639\u0628\u064a\u062f \u064a\u0648\u0633\u0641", "name:ar": "\u0639\u0628\u064a\u062f \u064a\u0648\u0633\u0641", "name:ar1": "\u0639\u0628\u064a\u062f \u064a\u0648\u0633\u0641", "name:de": "Ubayd Yusif", "name:en": "Ubayd Yusif", "name:fr": "Ubayd Yusif", "place": "village"}}, {"type": "node", "id": 2488490469, "lat": 33.845588, "lon": 43.959935, "tags": {"alt_name": "\u0639\u0628\u062f \u0627\u0644\u0644\u0647 \u0643\u0631\u0643\u0627\u0633", "int_name": "Abd All\u0101h Kark\u0101s, \u0639\u0628\u062f \u0627\u0644\u0644\u0647 \u0643\u0631\u0643\u0627\u0633, Abd Allah Karkas, \u0639\u0628\u062f \u0627\u0644\u0644\u0647 \u0643\u0631\u0643\u0627\u0633", "name": "\u0639\u0628\u062f \u0627\u0644\u0644\u0647 \u0643\u0631\u0643\u0627\u0633", "name:ar": "\u0639\u0628\u062f \u0627\u0644\u0644\u0647 \u0643\u0631\u0643\u0627\u0633", "name:ar1": "\u0639\u0628\u062f \u0627\u0644\u0644\u0647 \u0643\u0631\u0643\u0627\u0633", "name:de": "Abd Allah Karkas", "name:en": "Abd Allah Karkas", "name:fr": "Abd Allah Karkas", "place": "village"}}, {"type": "node", "id": 2488490506, "lat": 33.855495, "lon": 43.953373, "tags": {"alt_name": "\u0645\u0627\u0644\u062d \u0627\u0644\u062d\u0644\u0627\u0648\u064a", "int_name": "M\u0101li\u1e29 al \u1e28al\u0101w\u012b, \u0645\u0627\u0644\u062d \u0627\u0644\u062d\u0644\u0627\u0648\u064a, Malih al Halawi, \u0645\u0627\u0644\u062d \u0627\u0644\u062d\u0644\u0627\u0648\u064a", "name": "\u0645\u0627\u0644\u062d \u0627\u0644\u062d\u0644\u0627\u0648\u064a", "name:ar": "\u0645\u0627\u0644\u062d \u0627\u0644\u062d\u0644\u0627\u0648\u064a", "name:ar1": "\u0645\u0627\u0644\u062d \u0627\u0644\u062d\u0644\u0627\u0648\u064a", "name:de": "Malih al Halawi", "name:en": "Malih al Halawi", "name:fr": "Malih al Halawi", "place": "village"}}, {"type": "node", "id": 2489273433, "lat": 33.874552, "lon": 43.841227, "tags": {"alt_name": "\u062e\u064a\u0627\u0645", "int_name": "Khay\u0101m, \u062e\u064a\u0627\u0645, Khayam, \u062e\u064a\u0627\u0645", "name": "\u062e\u064a\u0627\u0645", "name:ar": "\u062e\u064a\u0627\u0645", "name:ar1": "\u062e\u064a\u0627\u0645", "name:de": "Khayam", "name:en": "Khayam", "name:fr": "Khayam", "place": "village"}}, {"type": "node", "id": 2489319930, "lat": 33.887258, "lon": 43.976017, "tags": {"alt_name": "\u0645\u062d\u0645\u062f", "int_name": "Mu\u1e29ammad, \u0645\u062d\u0645\u062f, Muhammad, \u0645\u062d\u0645\u062f", "name": "\u0645\u062d\u0645\u062f", "name:ar": "\u0645\u062d\u0645\u062f", "name:ar1": "\u0645\u062d\u0645\u062f", "name:de": "Muhammad", "name:en": "Muhammad", "name:fr": "Muhammad", "place": "village"}}]}