{"version": 0.6, "generator": "Overpass API 0.7.61.5 4133829e", "osm3s": {"timestamp_osm_base": "2024-03-05T14:58:45Z", "copyright": "The data included in this document is from www.openstreetmap.org. The data is made available under ODbL."}, "elements": [{"type": "node", "id": 293946297, "lat": 58.0667147, "lon": 11.8180024, "tags": {"addr:city": "Stenungsund", "addr:country": "SE", "addr:housenumber": "3", "addr:postcode": "444 30", "addr:street": "Jullen", "amenity": "clinic", "contact:phone": "+46 10 473 32 20", "healthcare": "clinic", "name": "N\u00e4rh\u00e4lsan Stenungsund v\u00e5rdcentral", "network": "V\u00e4stra G\u00f6talandsregionen", "operator": "V\u00e4stra G\u00f6talandsregionen", "website": "https://www.narhalsan.se/hitta-mottagning/stenungsund/narhalsan-stenungsund-vardcentral/"}}, {"type": "node", "id": 293946500, "lat": 58.0675105, "lon": 11.8166049, "tags": {"amenity": "pharmacy"}}, {"type": "node", "id": 440012420, "lat": 57.7686356, "lon": 12.2664438, "tags": {"amenity": "pharmacy", "brand": "Apoteket", "contact:phone": "+46771450450", "dispensing": "yes", "healthcare": "pharmacy", "name": "Apoteket Eken", "operator": "Apoteket AB (publ)"}}, {"type": "node", "id": 452403594, "lat": 57.7942322, "lon": 11.9884369, "tags": {"amenity": "pharmacy", "brand": "Kronans Apotek", "brand:wikidata": "Q10549422", "contact:phone": "+46771450450", "dispensing": "yes", "drive_through": "no", "healthcare": "pharmacy", "name": "Kronans Apotek", "opening_hours": "Mo-Fr 09:00-18:00; Sa 10:00-14:00"}}, {"type": "node", "id": 495985842, "lat": 57.75556, "lon": 11.9271593, "tags": {"addr:city": "G\u00f6teborg", "addr:country": "SE", "addr:housenumber": "9", "addr:postcode": "41745", "addr:street": "Tuve Torg", "amenity": "pharmacy", "branch": "Tuve Torg", "brand": "Kronans Apotek", "brand:wikidata": "Q10549422", "dispensing": "yes", "drive_through": "no", "healthcare": "pharmacy", "name": "Kronans Apotek", "operator": "Kronans Apotek"}}, {"type": "node", "id": 497077473, "lat": 57.8936364, "lon": 12.0464392, "tags": {"addr:city": "N\u00f6dinge", "addr:country": "SE", "addr:housenumber": "7", "addr:postcode": "44931", "addr:street": "Ale Torg", "amenity": "pharmacy", "brand": "Kronans Apotek", "contact:website": "https://www.kronansapotek.se", "dispensing": "yes", "name": "Kronans Apotek", "operator": "Kronans Droghandel Apotek AB", "phone": "+46771612612"}}, {"type": "node", "id": 664040903, "lat": 57.7973362, "lon": 12.0518395, "tags": {"amenity": "pharmacy", "name": "Apotek Kronan", "opening_hours": "Mo-Fr 09:00-19:00; Sa 10:00-14:00"}}, {"type": "node", "id": 745599535, "lat": 57.7954176, "lon": 12.0495983, "tags": {"amenity": "pharmacy", "brand": "Apotek Hj\u00e4rtat", "brand:wikidata": "Q10416114", "brand:wikipedia": "sv:Apotek Hj\u00e4rtat", "fixme": "vilken kedja tillh\u00f6r detta apotek?", "healthcare": "pharmacy", "name": "Apotek Hj\u00e4rtat", "opening_hours": "Mo-Fr 08:30-20:00; Sa 10:00-16:00; Su 10:00-15:00", "operator": "Apotek Hj\u00e4rtat AB"}}, {"type": "node", "id": 799454672, "lat": 57.7515758, "lon": 12.0315753, "tags": {"amenity": "pharmacy", "branch": "G\u00f6teborg Kortedala", "brand": "Apoteket", "contact:phone": "+46771450450", "healthcare": "pharmacy", "name": "Apoteket Ekorren", "operator": "Apoteket AB"}}, {"type": "node", "id": 1487416168, "lat": 57.7685199, "lon": 12.2662294, "tags": {"addr:city": "Lerum", "addr:country": "SE", "addr:housenumber": "9", "addr:postcode": "443 30", "addr:street": "G\u00f6teborgsv\u00e4gen", "amenity": "clinic", "contact:phone": "+46 302 551 20", "emergency": "no", "healthcare": "clinic", "name": "N\u00e4rh\u00e4lsan Lerum v\u00e5rdcentral", "network": "V\u00e4stra G\u00f6talandsregionen", "operator": "V\u00e4stra G\u00f6talandsregionen", "website": "https://www.narhalsan.se/hitta-mottagning/lerum/narhalsan-lerum-vardcentral/"}}, {"type": "node", "id": 1564361566, "lat": 57.7697898, "lon": 12.2714945, "tags": {"amenity": "pharmacy", "brand": "Apoteket", "dispensing": "yes", "healthcare": "pharmacy", "name": "Apoteket Lerum", "operator": "Apoteket AB (publ)", "phone": "+46771450450"}}, {"type": "node", "id": 2700145726, "lat": 57.762042, "lon": 12.0410065, "tags": {"addr:city": "G\u00f6teborg", "addr:country": "SE", "addr:housenumber": "48", "addr:postcode": "415 13", "addr:street": "\u00c5rstidsgatan", "amenity": "clinic", "contact:phone": "+46 31 750 31 00", "contact:website": "http://www.kortedalavardcentral.se/", "healthcare": "clinic", "name": "N\u00f6tk\u00e4rnan Kortedala V\u00e5rdcentral och BVC", "network": "V\u00e4stra G\u00f6talandsregionen", "operator": "N\u00f6tk\u00e4rnan Kortedala V\u00e5rdcentral AB", "ownership": "private", "payment:cryptocurrencies": "no"}}, {"type": "node", "id": 2719351467, "lat": 57.7624328, "lon": 12.0409415, "tags": {"addr:country": "SE", "addr:housenumber": "14", "addr:street": "Januarigatan", "amenity": "doctors", "name": "Dr. Radomska L\u00e4karmottagning"}}, {"type": "node", "id": 2813306408, "lat": 57.8876797, "lon": 11.5878445, "tags": {"amenity": "pharmacy"}}, {"type": "node", "id": 2980876640, "lat": 58.1345164, "lon": 12.125158, "tags": {"addr:city": "Lilla Edet", "addr:country": "SE", "addr:housenumber": "10", "addr:postcode": "46330", "addr:street": "J\u00e4rnv\u00e4gsgatan", "amenity": "pharmacy", "contact:website": "http://www.apoteket.se", "name": "Apotheket Hjorten", "wheelchair": "yes"}}, {"type": "node", "id": 3037281574, "lat": 58.0167108, "lon": 11.8315111, "tags": {"addr:city": "Stora H\u00f6ga", "addr:country": "SE", "addr:housenumber": "2", "addr:postcode": "444 60", "addr:street": "Stora v\u00e4gen", "amenity": "clinic", "contact:phone": "+46 10-473 35 00", "contact:website": "https://www.narhalsan.se/hitta-mottagning/stenungsund/narhalsan-stora-hoga-vardcentral/", "healthcare": "centre", "name": "N\u00e4rh\u00e4lsan Stora H\u00f6ga v\u00e5rdcentral", "network": "V\u00e4stra G\u00f6talandsregionen", "operator": "V\u00e4stra G\u00f6talandsregionen"}}, {"type": "node", "id": 3037281575, "lat": 58.0166792, "lon": 11.8318149, "tags": {"amenity": "pharmacy", "brand": "Apoteksgruppen", "name": "Apoteksgruppen"}}, {"type": "node", "id": 3057327480, "lat": 57.7684395, "lon": 12.273437}, {"type": "node", "id": 3057327481, "lat": 57.7682819, "lon": 12.2729753}, {"type": "node", "id": 3057327482, "lat": 57.7683923, "lon": 12.2728427}, {"type": "node", "id": 3057327483, "lat": 57.76855, "lon": 12.2733045}, {"type": "node", "id": 3170121656, "lat": 57.9169646, "lon": 12.0656067}, {"type": "node", "id": 3170121657, "lat": 57.9169542, "lon": 12.0659394}, {"type": "node", "id": 3170121658, "lat": 57.9165953, "lon": 12.0658998}, {"type": "node", "id": 3170121659, "lat": 57.9166056, "lon": 12.0655671}, {"type": "node", "id": 4057930777, "lat": 57.8350529, "lon": 12.2969428, "tags": {"addr:city": "Gr\u00e5bo", "addr:country": "SE", "addr:housenumber": "35-37", "addr:postcode": "443 42", "addr:street": "Lundbyv\u00e4gen", "amenity": "clinic", "healthcare": "clinic", "name": "N\u00e4rh\u00e4lsan Gr\u00e5bo v\u00e5rdcentral", "operator": "V\u00e4stra G\u00f6talandsregionen", "phone": "+46 10 435 87 00", "website": "https://www.narhalsan.se/hitta-mottagning/lerum/narhalsan-grabo-vardcentral/"}}, {"type": "node", "id": 4357165895, "lat": 57.8748072, "lon": 11.9732016, "tags": {"amenity": "pharmacy", "brand": "Apotek Hj\u00e4rtat", "check_date": "2022-12-21", "contact:phone": "+46771405405", "contact:website": "https://www.apotekhjartat.se/", "dispensing": "yes", "name": "Apotek Hj\u00e4rtat", "opening_hours": "07:00-22:00", "operator": "Apotek Hj\u00e4rtat Retail AB", "owner": "ICA Gruppen AB", "wheelchair": "yes"}}, {"type": "node", "id": 4646803274, "lat": 57.8689925, "lon": 11.956288, "tags": {"addr:city": "Kung\u00e4lv", "addr:country": "SE", "addr:housenumber": "1", "addr:postcode": "442 37", "addr:street": "Nordmannagatan", "amenity": "clinic", "name": "\u00c4lvpraktiken", "opening_hours": "Mo-Fr 08:00-17:00"}}, {"type": "node", "id": 4665046494, "lat": 57.7552214, "lon": 11.9267982, "tags": {"addr:city": "G\u00f6teborg", "addr:country": "SE", "addr:housenumber": "4", "addr:postcode": "417 45", "addr:street": "Tuve Torg", "amenity": "clinic", "contact:phone": "+46 31 747 85 00", "contact:website": "https://www.narhalsan.se/", "healthcare": "clinic", "name": "N\u00e4rh\u00e4lsan Tuve v\u00e5rdcentral", "network": "V\u00e4stra G\u00f6talandsregionen", "operator": "V\u00e4stra G\u00f6talandsregionen", "payment:cryptocurrencies": "no"}}, {"type": "node", "id": 4793903213, "lat": 57.7961064, "lon": 12.0476436, "tags": {"access": "permissive", "entrance": "emergency"}}, {"type": "node", "id": 4946917088, "lat": 57.7962621, "lon": 12.047681}, {"type": "node", "id": 4946917089, "lat": 57.7962127, "lon": 12.0479452}, {"type": "node", "id": 4946917090, "lat": 57.7962888, "lon": 12.0479953}, {"type": "node", "id": 4946917091, "lat": 57.7963382, "lon": 12.0477311}, {"type": "node", "id": 4946917092, "lat": 57.7965689, "lon": 12.047453}, {"type": "node", "id": 4946917093, "lat": 57.7965342, "lon": 12.0476595}, {"type": "node", "id": 4946917094, "lat": 57.7966037, "lon": 12.0477007}, {"type": "node", "id": 4946917095, "lat": 57.7966384, "lon": 12.0474941}, {"type": "node", "id": 4946917096, "lat": 57.7968114, "lon": 12.0473583}, {"type": "node", "id": 4946917097, "lat": 57.7962057, "lon": 12.0470193}, {"type": "node", "id": 4946917098, "lat": 57.7960311, "lon": 12.0481171}, {"type": "node", "id": 4946917099, "lat": 57.7966368, "lon": 12.0484561}, {"type": "node", "id": 5056792698, "lat": 57.861194, "lon": 11.9180002, "tags": {"amenity": "pharmacy"}}, {"type": "node", "id": 5258694195, "lat": 57.88877, "lon": 11.9505179, "tags": {"addr:city": "Kung\u00e4lv", "addr:country": "SE", "addr:housenumber": "58", "addr:postcode": "442 40", "addr:street": "Rollsbov\u00e4gen", "alt_name": "N\u00e4rh\u00e4lsan Solg\u00e4rde barnav\u00e5rdscental", "amenity": "clinic", "contact:phone": "+46 10 473 38 30", "contact:website": "https://www.narhalsan.se/hitta-mottagning/kungalv/narhalsan-solgarde-vardcentral/", "emergency": "no", "healthcare": "centre", "name": "N\u00e4rh\u00e4lsan Solg\u00e4rde v\u00e5rdcentral", "network": "V\u00e4stra G\u00f6talandsregionen", "operator": "V\u00e4stra G\u00f6talandsregionen", "website": "https://www.narhalsan.se/hitta-mottagning/kungalv/narhalsan-solgarde-vardcentral/"}}, {"type": "node", "id": 5368788790, "lat": 57.8461314, "lon": 11.7957062, "tags": {"addr:city": "K\u00e4rna", "addr:country": "SE", "addr:housenumber": "1C", "addr:postcode": "442 70", "addr:street": "Kaprifolv\u00e4gen", "amenity": "clinic", "branch": "K\u00e4rna", "contact:phone": "+46 303 379 700", "healthcare": "clinic", "name": "K\u00e4rna v\u00e5rdcentral", "network": "V\u00e4stra G\u00f6talandsregionen", "operator": "V\u00e5rdcentralen Kusten", "owner": "Praktikertj\u00e4nst AB", "ownership": "private"}}, {"type": "node", "id": 5516389747, "lat": 57.8768742, "lon": 11.9681346}, {"type": "node", "id": 5516389748, "lat": 57.8772593, "lon": 11.967283}, {"type": "node", "id": 5516389749, "lat": 57.8792555, "lon": 11.9678836}, {"type": "node", "id": 5516389751, "lat": 57.8795184, "lon": 11.9683465}, {"type": "node", "id": 5516389752, "lat": 57.8793957, "lon": 11.9691727}, {"type": "node", "id": 5516389753, "lat": 57.879193, "lon": 11.9701662}, {"type": "node", "id": 5516524100, "lat": 57.8779083, "lon": 11.9656375}, {"type": "node", "id": 5516524101, "lat": 57.8775553, "lon": 11.9660385}, {"type": "node", "id": 5596918621, "lat": 57.8787857, "lon": 11.968774, "tags": {"amenity": "doctors", "blood:plasma": "yes", "blood:platelets": "yes", "blood:stemcells": "yes", "blood:whole": "yes", "healthcare": "blood_donation", "name": "GeBlod Kung\u00e4lv", "operator": "GeBlod"}}, {"type": "node", "id": 5599719747, "lat": 57.8793027, "lon": 11.9698224}, {"type": "node", "id": 5599719748, "lat": 57.8792825, "lon": 11.9699889}, {"type": "node", "id": 5599719749, "lat": 57.8793287, "lon": 11.9696662}, {"type": "node", "id": 5599719750, "lat": 57.8794942, "lon": 11.9689044}, {"type": "node", "id": 5599719751, "lat": 57.8787911, "lon": 11.9709483}, {"type": "node", "id": 5599719753, "lat": 57.8773164, "lon": 11.9713077}, {"type": "node", "id": 5599719754, "lat": 57.8773064, "lon": 11.968714}, {"type": "node", "id": 5599719755, "lat": 57.8768828, "lon": 11.9687663}, {"type": "node", "id": 5612191395, "lat": 57.8738102, "lon": 11.9741101, "tags": {"amenity": "pharmacy", "branch": "Kung\u00e4lv", "brand": "Apoteket", "check_date": "2022-12-22", "dispensing": "yes", "healthcare": "pharmacy", "name": "Apoteket Kongah\u00e4lla Kung\u00e4lv", "operator": "Apoteket AB (publ)", "phone": "+46771450450"}}, {"type": "node", "id": 5713386989, "lat": 58.062086, "lon": 11.7522202, "tags": {"amenity": "pharmacy", "brand": "Apotek Hj\u00e4rtat", "contact:phone": "+46771405405", "contact:website": "http://apotekhjartat.se", "dispensing": "yes", "name": "Apotek Hj\u00e4rtat", "opening_hours": "Mo-Fr 09:00-18:00; Sa 10:00-13:00", "operator": "Apotek Hj\u00e4rtat Retail AB", "wheelchair": "limited"}}, {"type": "node", "id": 5713386991, "lat": 58.0613528, "lon": 11.7520818, "tags": {"amenity": "doctors", "name": "M\u00e5sen Familjecenter"}}, {"type": "node", "id": 5713386993, "lat": 58.0613667, "lon": 11.7522047, "tags": {"addr:city": "Myggen\u00e4s", "addr:country": "SE", "addr:housenumber": "4A-D", "addr:postcode": "471 60", "addr:street": "Myggen\u00e4sv\u00e4gen", "amenity": "clinic", "contact:phone": "+46 304 25 92 00", "healthcare": "clinic", "name": "Capio V\u00e5rdcentral Alm\u00f6", "network": "V\u00e4stra G\u00f6talandsregionen", "opening_hours": "Mo-Fr 08:00-17:00", "operator": "Capio L\u00e4karhus AB", "ownership": "private"}}, {"type": "node", "id": 5771687329, "lat": 57.960976, "lon": 12.1257558, "tags": {"amenity": "pharmacy", "branch": "\u00c4lv\u00e4ngen", "brand": "Apoteket", "dispensing": "yes", "healthcare": "pharmacy", "name": "Apoteket Hjorten", "operator": "Apoteket AB (publ)", "phone": "+46771450450"}}, {"type": "node", "id": 5771740178, "lat": 57.9629227, "lon": 12.1320104, "tags": {"addr:city": "\u00c4lv\u00e4ngen", "addr:country": "SE", "addr:housenumber": "15", "addr:postcode": "446 37", "addr:street": "Svenstorpv\u00e4gen", "amenity": "clinic", "contact:phone": "+46 303 44 11 00", "healthcare": "clinic", "name": "\u00c4lv\u00e4ngens L\u00e4karhus", "network": "V\u00e4stra G\u00f6talandsregionen", "operator": "\u00c4lv\u00e4ngens L\u00e4karhus AB", "ownership": "private"}}, {"type": "node", "id": 5950175032, "lat": 58.0250524, "lon": 11.6580659, "tags": {"amenity": "clinic", "healthcare": "clinic", "name": "Tj\u00f6rn barn- och ungdomsmedicinsk mottagning", "network": "V\u00e4stra G\u00f6talandsregionen", "operator": "V\u00e4stra G\u00f6talandsregionen", "phone": "+46 10 473 45 00", "website": "https://www.1177.se/Vastra-Gotaland/hitta-vard/kontaktkort/Tjorn-barn-och-ungdomsmedicinsk-mottagning-Tjorn/"}}, {"type": "node", "id": 5950175033, "lat": 58.0253151, "lon": 11.658023, "tags": {"addr:city": "K\u00e5llek\u00e4rr", "addr:country": "SE", "addr:housenumber": "1", "addr:postcode": "471 94", "addr:street": "Syster Ebbas v\u00e4g", "amenity": "clinic", "healthcare": "clinic", "name": "N\u00e4rh\u00e4lsan Tj\u00f6rn barnav\u00e5rdscentral", "network": "V\u00e4stra G\u00f6talandsregionen", "operator": "V\u00e4stra G\u00f6talandsregionen", "phone": "+46 10 473 46 60;+46 10 473 46 61", "website": "https://www.narhalsan.se/hitta-mottagning/tjorn/narhalsan-tjorn-barnavardscentral/"}}, {"type": "node", "id": 5950175034, "lat": 58.0252072, "lon": 11.6582698, "tags": {"addr:city": "K\u00e5llek\u00e4rr", "addr:country": "SE", "addr:housenumber": "1", "addr:postcode": "471 94", "addr:street": "Syster Ebbas v\u00e4g", "amenity": "clinic", "healthcare": "clinic", "name": "N\u00e4rh\u00e4lsan Tj\u00f6rn rehabmottagning", "network": "V\u00e4stra G\u00f6talandsregionen", "operator": "V\u00e4stra G\u00f6talandsregionen", "phone": "+46 10 473 46 70", "website": "https://www.narhalsan.se/hitta-mottagning/tjorn/narhalsan-tjorn-rehabmottagning/"}}, {"type": "node", "id": 5950175035, "lat": 58.0251788, "lon": 11.6578433, "tags": {"addr:city": "K\u00e5llek\u00e4rr", "addr:country": "SE", "addr:housenumber": "1", "addr:postcode": "471 94", "addr:street": "Syster Ebbas v\u00e4g", "amenity": "clinic", "contact:phone": "+46 10 473 46 00", "contact:website": "https://www.narhalsan.se/hitta-mottagning/tjorn/narhalsan-tjorn-vardcentral/", "healthcare": "clinic", "name": "N\u00e4rh\u00e4lsan Tj\u00f6rn v\u00e5rdcentral", "network": "V\u00e4stra G\u00f6talandsregionen", "operator": "V\u00e4stra G\u00f6talandsregionen"}}, {"type": "node", "id": 5950175037, "lat": 57.9910925, "lon": 11.5466094, "tags": {"addr:city": "Sk\u00e4rhamn", "addr:country": "SE", "addr:housenumber": "16", "addr:postcode": "471 32", "addr:street": "Hamngatan", "amenity": "clinic", "contact:phone": "+46 10 473 46 00", "contact:website": "https://www.narhalsan.se/hitta-mottagning/tjorn/narhalsan-tjorn-vardcentral---skarhamn/", "healthcare": "clinic", "name": "N\u00e4rh\u00e4lsan Tj\u00f6rn v\u00e5rdcentral - Sk\u00e4rhamn", "network": "V\u00e4stra G\u00f6talandsregionen", "operator": "V\u00e4stra G\u00f6talandsregionen"}}, {"type": "node", "id": 6189902535, "lat": 57.7560992, "lon": 12.0718557}, {"type": "node", "id": 6189902536, "lat": 57.7557737, "lon": 12.0718651}, {"type": "node", "id": 6189902537, "lat": 57.7557844, "lon": 12.072486}, {"type": "node", "id": 6189902538, "lat": 57.7561135, "lon": 12.0724645}, {"type": "node", "id": 6203202273, "lat": 58.0723937, "lon": 11.8150393, "tags": {"addr:city": "Stenungsund", "addr:country": "SE", "addr:housenumber": "23D", "addr:postcode": "444 31", "addr:street": "Strandv\u00e4gen", "amenity": "clinic", "emergency": "yes", "healthcare": "hospital", "healthcare:speciality": "general;community", "name": "Capio V\u00e5rdcentral Stenungsund", "operator": "Capio"}}, {"type": "node", "id": 6302316126, "lat": 57.7564403, "lon": 12.0719218, "tags": {"amenity": "pharmacy", "dispensing": "yes", "healthcare": "pharmacy"}}, {"type": "node", "id": 6431538407, "lat": 57.887521, "lon": 11.5880361, "tags": {"amenity": "clinic", "contact:phone": "+46 303 60142", "healthcare": "clinic", "name": "Marstrand v\u00e5rdcentral", "network": "V\u00e4stra G\u00f6talandsregionen", "operator": "Praktikertj\u00e4nst AB", "owner": "Praktikertj\u00e4nst AB", "ownership": "private"}}, {"type": "node", "id": 6431538408, "lat": 57.8616103, "lon": 11.9185674, "tags": {"amenity": "clinic", "contact:phone": "+46 303 379 700", "healthcare": "clinic", "name": "V\u00e5rdcentralen Kusten", "network": "V\u00e4stra G\u00f6talandsregionen", "operator": "Praktikertj\u00e4nst AB", "owner": "Praktikertj\u00e4nst AB", "ownership": "private"}}, {"type": "node", "id": 6431561943, "lat": 57.8621303, "lon": 11.918719, "tags": {"addr:city": "Ytterby", "addr:country": "SE", "addr:housenumber": "5", "addr:postcode": "442 50", "addr:street": "Ytterby Torg", "amenity": "clinic", "contact:phone": "+46 10 473 45 25", "healthcare": "midwife", "name": "N\u00e4rh\u00e4lsan Ytterby barnmorskemottagning", "network": "V\u00e4stra G\u00f6talandsregionen", "operator": "V\u00e4stra G\u00f6talandsregionen"}}, {"type": "node", "id": 6442375474, "lat": 57.9610293, "lon": 12.1263716, "tags": {"addr:city": "\u00c4lv\u00e4ngen", "addr:country": "SE", "addr:housenumber": "1", "addr:postcode": "446 37", "addr:street": "Svenstorpv\u00e4gen", "alt_name": "N\u00e4rh\u00e4lsan \u00c4lv\u00e4ngen barnav\u00e5rdscentral", "amenity": "clinic", "contact:phone": "+46 10 473 35 50", "emergency": "no", "healthcare": "clinic", "name": "N\u00e4rh\u00e4lsan \u00c4lv\u00e4ngen v\u00e5rdcentral", "network": "V\u00e4stra G\u00f6talandsregionen", "operator": "V\u00e4stra G\u00f6talandsregionen"}}, {"type": "node", "id": 8267083754, "lat": 57.7494601, "lon": 11.9811628, "tags": {"amenity": "doctors", "brand": "V\u00e4stra G\u00f6talandsregionen", "contact:website": "https://capio.se/narsjukvard/vastra-gotaland/hisings-backa-selma-vardcentral/", "healthcare": "doctor", "name": "Capio L\u00e4karhus Selma"}}, {"type": "node", "id": 8309077547, "lat": 57.7899292, "lon": 12.1114317}, {"type": "node", "id": 8309077552, "lat": 57.7908561, "lon": 12.1136857}, {"type": "node", "id": 8309077557, "lat": 57.7906806, "lon": 12.1163712}, {"type": "node", "id": 8309077562, "lat": 57.7906941, "lon": 12.1185575}, {"type": "node", "id": 8309077567, "lat": 57.7905867, "lon": 12.1187883}, {"type": "node", "id": 8309077571, "lat": 57.790263, "lon": 12.1191834}, {"type": "node", "id": 8309077576, "lat": 57.7886366, "lon": 12.1213424}, {"type": "node", "id": 8309077581, "lat": 57.7899093, "lon": 12.1137237}, {"type": "node", "id": 8309077602, "lat": 57.7909406, "lon": 12.1137242}, {"type": "node", "id": 8309077607, "lat": 57.7907396, "lon": 12.1183612}, {"type": "node", "id": 8309077612, "lat": 57.7906605, "lon": 12.118634}, {"type": "node", "id": 8309078317, "lat": 57.7905426, "lon": 12.1188431}, {"type": "node", "id": 8309078321, "lat": 57.7891769, "lon": 12.1203849, "tags": {"barrier": "gate"}}, {"type": "node", "id": 8309078326, "lat": 57.7884883, "lon": 12.1217574}, {"type": "node", "id": 8309078331, "lat": 57.7909488, "lon": 12.1126031}, {"type": "node", "id": 8309078348, "lat": 57.7910348, "lon": 12.1112288}, {"type": "node", "id": 8309078353, "lat": 57.7907227, "lon": 12.1155786}, {"type": "node", "id": 8309078358, "lat": 57.7907202, "lon": 12.1184748}, {"type": "node", "id": 8309078363, "lat": 57.7906321, "lon": 12.118716}, {"type": "node", "id": 8309078368, "lat": 57.7905115, "lon": 12.1188734}, {"type": "node", "id": 8309078372, "lat": 57.7889059, "lon": 12.1207887}, {"type": "node", "id": 8309078377, "lat": 57.7878849, "lon": 12.1219615}, {"type": "node", "id": 8718567092, "lat": 57.8784287, "lon": 11.9665123}, {"type": "node", "id": 8718567093, "lat": 57.8786843, "lon": 11.9670813}, {"type": "node", "id": 8718567094, "lat": 57.8776658, "lon": 11.9660076}, {"type": "node", "id": 8746180032, "lat": 57.8787185, "lon": 11.969796, "tags": {"amenity": "doctors", "emergency": "emergency_ward_entrance", "emergency_ward_entrance": "all", "entrance": "yes", "healthcare:speciality": "emergency", "name": "Akutmottagning"}}, {"type": "node", "id": 8746180033, "lat": 57.8791025, "lon": 11.969506, "tags": {"amenity": "doctors", "emergency": "emergency_ward_entrance", "emergency_ward_entrance": "rescue_service", "entrance": "yes", "healthcare:speciality": "emergency", "name": "Ambulansmottagning"}}, {"type": "node", "id": 8897980052, "lat": 57.7904421, "lon": 12.1189083}, {"type": "node", "id": 8906854617, "lat": 57.8513805, "lon": 12.0168596, "tags": {"addr:city": "Bohus", "addr:country": "SE", "addr:housenumber": "219", "addr:postcode": "44537", "addr:street": "G\u00f6teborgsv\u00e4gen", "amenity": "pharmacy", "dispensing": "yes", "healthcare": "pharmacy", "name": "Lloyds Apotek Bohus", "operator": "Lloyds Apotek", "phone": "+46 303-40 45 00"}}, {"type": "node", "id": 8906932804, "lat": 57.8516224, "lon": 12.0163259, "tags": {"addr:city": "Bohus", "addr:country": "SE", "addr:housenumber": "219", "addr:postcode": "44537", "addr:street": "G\u00f6teborgsv\u00e4gen", "amenity": "clinic", "healthcare": "clinic", "name": "Medical V\u00e5rdcentral och BVC Bohus", "phone": "+46 31-42 40 50", "website": "https://www.bohusvardcentral.se/"}}, {"type": "node", "id": 8906932806, "lat": 57.8902214, "lon": 12.0493036, "tags": {"addr:city": "N\u00f6dinge", "addr:country": "SE", "addr:housenumber": "14", "addr:postcode": "44930", "addr:street": "Klockarev\u00e4gen", "amenity": "clinic", "healthcare": "clinic", "name": "Alepraktiken V\u00e5rdcentral", "operator": "Praktikertj\u00e4nst", "phone": "+46 303-977-70", "website": "https://www.ptj.se/alepraktiken/"}}, {"type": "node", "id": 9006984462, "lat": 57.7966955, "lon": 12.0478888, "tags": {"addr:city": "Angered", "addr:country": "SE", "addr:housenumber": "1", "addr:postcode": "424 65", "addr:street": "Halmtorget", "amenity": "clinic", "name": "N\u00e4rh\u00e4lsan Angered v\u00e5rdcentral", "operator": "V\u00e4stra G\u00f6talandsregionen"}}, {"type": "node", "id": 9006984463, "lat": 57.7967253, "lon": 12.0478996, "tags": {"addr:city": "Angered", "addr:country": "SE", "addr:housenumber": "1", "addr:postcode": "424 65", "addr:street": "Halmtorget", "entrance": "main", "ref": "A", "wheelchair": "yes"}}, {"type": "node", "id": 9007000416, "lat": 57.7472317, "lon": 11.9873917, "tags": {"addr:city": "Hisings Backa", "addr:country": "SE", "addr:housenumber": "2", "addr:postcode": "422 55", "addr:street": "Rimmaregatan", "amenity": "clinic", "name": "N\u00e4rh\u00e4lsan Backa v\u00e5rdcentral", "operator": "V\u00e4stra G\u00f6talandsregionen", "phone": "+46 31 742 73 00", "website": "https://www.narhalsan.se/hitta-mottagning/goteborg/goteborg-hisingen/narhalsan-backa-vardcentral/"}}, {"type": "node", "id": 9008100988, "lat": 57.7690892, "lon": 12.0188311, "tags": {"addr:city": "Angered", "addr:country": "SE", "addr:housenumber": "89B", "addr:postcode": "424 32", "addr:street": "Bergsg\u00e5rdsg\u00e4rdet", "air_conditioning": "yes", "amenity": "clinic", "check_date": "2023-07-13", "internet_access": "wlan", "internet_access:fee": "no", "name": "N\u00e4rh\u00e4lsan Hj\u00e4llbo v\u00e5rdcentral", "operator": "V\u00e4stra G\u00f6talandsregionen", "operator:type": "public", "payment:mastercard": "yes", "payment:visa": "yes", "phone": "+46 31 747 83 00", "website": "https://www.narhalsan.se/hitta-mottagning/goteborg/goteborg-ostra/narhalsan-hjallbo-vardcentral/"}}, {"type": "node", "id": 9008174342, "lat": 57.874073, "lon": 11.9674775, "tags": {"addr:city": "Kung\u00e4lv", "addr:country": "SE", "addr:housenumber": "1", "addr:postcode": "442 48", "addr:street": "\u00c4lvebacken", "amenity": "clinic", "name": "N\u00e4rh\u00e4lsan Kongah\u00e4lla v\u00e5rdcentral", "opening_hours": "Mo-Fr 08:00-17:00", "operator": "V\u00e4stra G\u00f6talandsregionen", "phone": "+46 10 473 38 00", "website": "https://www.narhalsan.se/hitta-mottagning/kungalv/narhalsan-nordmanna-vardcentral/"}}, {"type": "node", "id": 9008185923, "lat": 57.7938128, "lon": 11.9961262, "tags": {"addr:city": "Hisings K\u00e4rra", "addr:country": "SE", "addr:housenumber": "51", "addr:postcode": "425 31", "addr:street": "Lillek\u00e4rr S\u00f6dra", "amenity": "clinic", "name": "N\u00e4rh\u00e4lsan K\u00e4rra v\u00e5rdcentral", "operator": "V\u00e4stra G\u00f6talandsregionen", "phone": "+46 31 747 84 50", "website": "https://www.narhalsan.se/hitta-mottagning/goteborg/goteborg-ostra/narhalsan-karra-vardcentral/"}}, {"type": "node", "id": 9008241103, "lat": 57.8159337, "lon": 12.0416902, "tags": {"addr:city": "Angered", "addr:country": "SE", "addr:housenumber": "28", "addr:postcode": "424 45", "addr:street": "Vaniljgatan", "amenity": "clinic", "name": "N\u00e4rh\u00e4lsan L\u00f6vg\u00e4rdet v\u00e5rdcentral", "operator": "V\u00e4stra G\u00f6talandsregionen", "phone": "+46 31 747 85 50", "website": "https://www.narhalsan.se/hitta-mottagning/goteborg/goteborg-ostra/narhalsan-lovgardet-vardcentral/"}}, {"type": "node", "id": 9025207039, "lat": 57.7547998, "lon": 11.9267005, "tags": {"addr:city": "G\u00f6teborg", "addr:country": "SE", "addr:housenumber": "2", "addr:postcode": "417 45", "addr:street": "Tuve Torg", "amenity": "clinic", "contact:phone": "+46 31 747 85 00", "contact:website": "https://www.narhalsan.se/", "healthcare": "clinic", "name": "N\u00e4rh\u00e4lsan Tuve barnav\u00e5rdscentral", "network": "V\u00e4stra G\u00f6talandsregionen", "operator": "V\u00e4stra G\u00f6talandsregionen", "payment:cryptocurrencies": "no"}}, {"type": "node", "id": 9025227810, "lat": 57.9910779, "lon": 11.5466114, "tags": {"addr:city": "Sk\u00e4rhamn", "addr:country": "SE", "addr:housenumber": "16", "addr:postcode": "471 32", "addr:street": "Hamngatan", "amenity": "clinic", "healthcare": "clinic", "name": "N\u00e4rh\u00e4lsan Tj\u00f6rn barnav\u00e5rdscentral - Sk\u00e4rhamn", "operator": "V\u00e4stra G\u00f6talandsregionen", "phone": "+46 10 473 46 62"}}, {"type": "node", "id": 9026135942, "lat": 58.0166919, "lon": 11.8314761, "tags": {"addr:city": "Stora H\u00f6ga", "addr:country": "SE", "addr:housenumber": "2", "addr:postcode": "444 60", "addr:street": "Stora v\u00e4gen", "alt_name": "N\u00e4rh\u00e4lsan Stora H\u00f6ga barnav\u00e5rdscentral", "amenity": "clinic", "contact:phone": "+46 10-473 35 00", "contact:website": "https://www.narhalsan.se/hitta-mottagning/stenungsund/narhalsan-stora-hoga-vardcentral/", "healthcare": "centre", "name": "N\u00e4rh\u00e4lsan Stora H\u00f6ga barnav\u00e5rdscentral", "network": "V\u00e4stra G\u00f6talandsregionen", "operator": "V\u00e4stra G\u00f6talandsregionen", "phone": "+46 10 473 35 00", "website": "https://www.narhalsan.se/hitta-mottagning/stenungsund/narhalsan-stora-hoga-barnavardscentral/"}}, {"type": "node", "id": 9026591313, "lat": 58.0665078, "lon": 11.8180194, "tags": {"addr:city": "Stenungsund", "addr:country": "SE", "addr:housenumber": "3", "addr:postcode": "444 30", "addr:street": "Jullen", "amenity": "clinic", "name": "Stenungsund jourcentral", "operator": "V\u00e4stra G\u00f6talandsregionen", "phone": "+46 10 473 32 78", "website": "https://www.narhalsan.se/hitta-mottagning/stenungsund/stenungsund-jourcentral/"}}, {"type": "node", "id": 9026627647, "lat": 58.0562732, "lon": 11.8262954, "tags": {"addr:city": "Stenungsund", "addr:country": "SE", "addr:housenumber": "2", "addr:postcode": "444 47", "addr:street": "N\u00f6sn\u00e4sv\u00e4gen", "amenity": "clinic", "name": "N\u00e4rh\u00e4lsan Stenungsund rehabmottagning - N\u00f6sn\u00e4s", "operator": "V\u00e4stra G\u00f6talandsregionen", "phone": "+46 10 473 32 70", "website": "https://www.narhalsan.se/hitta-mottagning/stenungsund/narhalsan-stenungsund-rehabmottagning/"}}, {"type": "node", "id": 9026634992, "lat": 58.0665429, "lon": 11.8175965, "tags": {"addr:city": "Stenungsund", "addr:country": "SE", "addr:housenumber": "4", "addr:postcode": "444 30", "addr:street": "Jullen", "amenity": "clinic", "name": "N\u00e4rh\u00e4lsan Stenungsund rehabmottagning", "operator": "V\u00e4stra G\u00f6talandsregionen", "phone": "+46 10 473 32 70", "website": "https://www.narhalsan.se/hitta-mottagning/stenungsund/narhalsan-stenungsund-rehabmottagning/"}}, {"type": "node", "id": 9026653091, "lat": 58.0617981, "lon": 11.843015, "tags": {"addr:city": "Stenungsund", "addr:country": "SE", "addr:housenumber": "17C", "addr:postcode": "444 44", "addr:street": "Hasselbackev\u00e4gen", "amenity": "clinic", "name": "N\u00e4rh\u00e4lsan Stenungsund barnav\u00e5rdscentral", "operator": "V\u00e4stra G\u00f6talandsregionen", "phone": "+46 10 473 32 41;+46 10 473 32 42;+46 10 473 32 43", "website": "https://www.narhalsan.se/hitta-mottagning/stenungsund/narhalsan-stenungsund-barnavardscentral/"}}, {"type": "node", "id": 9026682259, "lat": 57.8885839, "lon": 11.9503154, "tags": {"addr:city": "Kung\u00e4lv", "addr:country": "SE", "addr:housenumber": "58", "addr:postcode": "442 40", "addr:street": "Rollsbov\u00e4gen", "amenity": "clinic", "name": "N\u00e4rh\u00e4lsan Solg\u00e4rde rehabmottagning", "operator": "V\u00e4stra G\u00f6talandsregionen", "phone": "+46 10 473 45 40", "website": "https://www.narhalsan.se/hitta-mottagning/kungalv/narhalsan-kungalv-rehabmottagning/"}}, {"type": "node", "id": 9026692939, "lat": 57.8886081, "lon": 11.9503127, "tags": {"addr:city": "Kung\u00e4lv", "addr:country": "SE", "addr:housenumber": "58", "addr:postcode": "442 40", "addr:street": "Rollsbov\u00e4gen", "amenity": "clinic", "name": "N\u00e4rh\u00e4lsan Solg\u00e4rde barnav\u00e5rdscentral", "operator": "V\u00e4stra G\u00f6talandsregionen", "phone": "+46 10 473 38 30", "website": "https://www.narhalsan.se/hitta-mottagning/kungalv/narhalsan-solgarde-barnavardscentral/"}}, {"type": "node", "id": 9027014809, "lat": 57.8158637, "lon": 12.0416822, "tags": {"addr:city": "Angered", "addr:country": "SE", "addr:housenumber": "28", "addr:postcode": "424 45", "addr:street": "Vaniljgatan", "amenity": "clinic", "name": "N\u00e4rh\u00e4lsan L\u00f6vg\u00e4rdet barnav\u00e5rdscentral", "operator": "V\u00e4stra G\u00f6talandsregionen", "phone": "+46 31 747 85 50", "website": "https://www.narhalsan.se/hitta-mottagning/goteborg/goteborg-ostra/narhalsan-lovgardet-barnavardscentral/"}}, {"type": "node", "id": 9027709575, "lat": 57.7684211, "lon": 12.2662152, "tags": {"addr:city": "Lerum", "addr:country": "SE", "addr:housenumber": "9", "addr:postcode": "443 30", "addr:street": "G\u00f6teborgsv\u00e4gen", "amenity": "clinic", "healthcare": "clinic", "name": "N\u00e4rh\u00e4lsan Lerum rehabmottagning", "operator": "V\u00e4stra G\u00f6talandsregionen", "phone": "+46 10 435 90 10", "website": "https://www.narhalsan.se/hitta-mottagning/lerum/narhalsan-lerum-rehabmottagning/"}}, {"type": "node", "id": 9027734339, "lat": 57.768464, "lon": 12.2662152, "tags": {"addr:city": "Lerum", "addr:country": "SE", "addr:housenumber": "9", "addr:postcode": "443 30", "addr:street": "G\u00f6teborgsv\u00e4gen", "amenity": "clinic", "healthcare": "clinic", "name": "N\u00e4rh\u00e4lsan Lerum barnav\u00e5rdscentral", "operator": "V\u00e4stra G\u00f6talandsregionen", "phone": "+46 302 55120", "website": "https://www.narhalsan.se/hitta-mottagning/lerum/narhalsan-lerum-barnavardscentral/"}}, {"type": "node", "id": 9028510134, "lat": 57.7937406, "lon": 11.9961208, "tags": {"addr:city": "Hisings K\u00e4rra", "addr:country": "SE", "addr:housenumber": "51", "addr:postcode": "425 31", "addr:street": "Lillek\u00e4rr S\u00f6dra", "amenity": "clinic", "name": "N\u00e4rh\u00e4lsan K\u00e4rra barnav\u00e5rdscentral", "operator": "V\u00e4stra G\u00f6talandsregionen", "phone": "+46 31 747 84 50", "website": "https://www.narhalsan.se/hitta-mottagning/goteborg/goteborg-ostra/narhalsan-karra-barnavardscentral/"}}, {"type": "node", "id": 9029777345, "lat": 57.8738494, "lon": 11.9674862, "tags": {"addr:city": "Kung\u00e4lv", "addr:country": "SE", "addr:housenumber": "1", "addr:postcode": "442 48", "addr:street": "\u00c4lvebacken", "amenity": "clinic", "name": "N\u00e4rh\u00e4lsan Kongah\u00e4lla rehabmottagning", "opening_hours": "Mo 07:30-18:00; Tu-Th 07:30-17:00; Fr 07:30-14:00", "operator": "V\u00e4stra G\u00f6talandsregionen", "phone": "+46 10 473 38 00", "website": "https://www.narhalsan.se/hitta-mottagning/kungalv/narhalsan-kongahalla-rehabmottagning/"}}, {"type": "node", "id": 9029795118, "lat": 57.873961, "lon": 11.9674728, "tags": {"addr:city": "Kung\u00e4lv", "addr:country": "SE", "addr:housenumber": "1", "addr:postcode": "442 48", "addr:street": "\u00c4lvebacken", "amenity": "clinic", "name": "N\u00e4rh\u00e4lsan Kongah\u00e4lla barnav\u00e5rdscentral", "opening_hours": "Mo-Fr 08:00-17:00", "operator": "V\u00e4stra G\u00f6talandsregionen", "phone": "+46 10 473 38 00", "website": "https://www.narhalsan.se/hitta-mottagning/kungalv/narhalsan-nordmanna-barnavardscentral/"}}, {"type": "node", "id": 9029814754, "lat": 57.7690319, "lon": 12.0188284, "tags": {"addr:city": "Angered", "addr:country": "SE", "addr:housenumber": "89B", "addr:postcode": "424 32", "addr:street": "Bergsg\u00e5rdsg\u00e4rdet", "air_conditioning": "yes", "amenity": "clinic", "check_date": "2023-07-13", "internet_access": "wlan", "internet_access:fee": "no", "name": "N\u00e4rh\u00e4lsan Hj\u00e4llbo barnav\u00e5rdscentral", "operator": "V\u00e4stra G\u00f6talandsregionen", "operator:type": "public", "payment:mastercard": "yes", "payment:visa": "yes", "phone": "+46 31 747 83 64", "website": "https://www.narhalsan.se/hitta-mottagning/goteborg/goteborg-ostra/narhalsan-hjallbo-barnavardscentral/"}}, {"type": "node", "id": 9030310050, "lat": 57.8349876, "lon": 12.296728, "tags": {"addr:city": "Gr\u00e5bo", "addr:country": "SE", "addr:housenumber": "35-37", "addr:postcode": "443 42", "addr:street": "Lundbyv\u00e4gen", "amenity": "clinic", "healthcare": "clinic", "name": "N\u00e4rh\u00e4lsan Gr\u00e5bo barnav\u00e5rdscentral", "operator": "V\u00e4stra G\u00f6talandsregionen", "phone": "+46 10 435 87 00", "website": "https://www.narhalsan.se/hitta-mottagning/lerum/narhalsan-grabo-barnavardscentral/"}}, {"type": "node", "id": 9038905527, "lat": 57.7471868, "lon": 11.9873989, "tags": {"addr:city": "Hisings Backa", "addr:country": "SE", "addr:housenumber": "2", "addr:postcode": "422 55", "addr:street": "Rimmaregatan", "amenity": "clinic", "name": "N\u00e4rh\u00e4lsan Backa barnav\u00e5rdscentral", "operator": "V\u00e4stra G\u00f6talandsregionen", "phone": "+46 31 742 73 70", "website": "https://www.narhalsan.se/hitta-mottagning/goteborg/goteborg-hisingen/narhalsan-backa-barnavardscentral/"}}, {"type": "node", "id": 9038910249, "lat": 57.7476495, "lon": 11.9846926, "tags": {"addr:city": "Hisings Backa", "addr:country": "SE", "addr:housenumber": "1C", "addr:postcode": "422 55", "addr:street": "Rimmaregatan", "amenity": "clinic", "healthcare": "clinic", "name": "N\u00e4rh\u00e4lsan Backa rehabmottagning", "operator": "V\u00e4stra G\u00f6talandsregionen", "phone": "+46 31 747 99 40", "website": "https://www.narhalsan.se/hitta-mottagning/goteborg/goteborg-hisingen/narhalsan-backa-rehabmottagning/"}}, {"type": "node", "id": 9038910272, "lat": 57.8783732, "lon": 11.9686899, "tags": {"addr:city": "Kung\u00e4lv", "addr:country": "SE", "addr:housenumber": "1", "addr:postcode": "442 83", "addr:street": "Lasarettsgatan", "amenity": "clinic", "name": "Kung\u00e4lv jourcentral", "operator": "V\u00e4stra G\u00f6talandsregionen", "phone": "+46 303 980 24", "website": "https://www.narhalsan.se/hitta-mottagning/kungalv/kungalv-jourcentral/"}}, {"type": "node", "id": 9038910345, "lat": 57.7977795, "lon": 12.0488705, "tags": {"addr:city": "Angered", "addr:country": "SE", "addr:housenumber": "5", "addr:postcode": "424 65", "addr:street": "Kultivatorgatan", "amenity": "clinic", "name": "N\u00e4rh\u00e4lsan Angered barnav\u00e5rdscentral", "operator": "V\u00e4stra G\u00f6talandsregionen", "phone": "+46 31 747 96 40", "website": "https://www.narhalsan.se/hitta-mottagning/goteborg/goteborg-ostra/narhalsan-angered-barnavardscentral/"}}, {"type": "node", "id": 9038949689, "lat": 57.7983898, "lon": 12.0513106, "tags": {"addr:city": "Angered", "addr:country": "SE", "addr:housenumber": "2", "addr:postcode": "424 65", "addr:street": "Tri\u00f6rgatan", "amenity": "clinic", "name": "N\u00e4rh\u00e4lsan Angered rehabmottagning", "operator": "V\u00e4stra G\u00f6talandsregionen", "phone": "+46 31 747 86 00", "website": "https://www.narhalsan.se/hitta-mottagning/goteborg/goteborg-ostra/narhalsan-angered-rehabmottagning/"}}, {"type": "node", "id": 9039040064, "lat": 58.1345992, "lon": 12.1250097, "tags": {"addr:city": "Lilla Edet", "addr:country": "SE", "addr:housenumber": "8", "addr:postcode": "463 30", "addr:street": "J\u00e4rnv\u00e4gsgatan", "amenity": "clinic", "name": "N\u00e4rh\u00e4lsan Lilla Edet rehabmottagning", "operator": "V\u00e4stra G\u00f6talandsregionen", "phone": "+46 520 48 88 70", "website": "https://www.narhalsan.se/hitta-mottagning/lilla-edet/narhalsan-lilla-edet-rehabmottagning/"}}, {"type": "node", "id": 10117917364, "lat": 57.8737514, "lon": 11.9738521, "tags": {"amenity": "clinic", "check_date": "2022-10-20", "email": "info@kungalvsspecialistklinik.se", "healthcare": "clinic", "name": "Kung\u00e4lvs Specialistklinik", "phone": "+46 303 12 55 2", "website": "https://kungalvsspecialistklinik.se"}}, {"type": "node", "id": 10820409068, "lat": 57.7906874, "lon": 12.1166}, {"type": "node", "id": 10820409138, "lat": 57.7900373, "lon": 12.1114119}, {"type": "node", "id": 10824044470, "lat": 57.751748, "lon": 12.0323292, "tags": {"addr:city": "G\u00f6teborg", "addr:country": "SE", "addr:housenumber": "3", "addr:postcode": "41535", "addr:street": "Tusen\u00e5rsgatan", "amenity": "clinic", "healthcare": "clinic", "name": "Medical V\u00e5rdcentral och BVC Kortedala", "payment:cryptocurrencies": "no"}}, {"type": "node", "id": 10824065479, "lat": 57.8038966, "lon": 12.0314149, "tags": {"addr:city": "Angered", "addr:country": "SE", "addr:housenumber": "10", "addr:postcode": "42441", "addr:street": "Muskotgatan", "amenity": "clinic", "healthcare": "clinic", "name": "G\u00e5rdsten V\u00e5rdcentral och BVC, Angered"}}, {"type": "node", "id": 10824079469, "lat": 57.762851, "lon": 12.0710209, "tags": {"addr:city": "G\u00f6teborg", "addr:country": "SE", "addr:housenumber": "100", "addr:postcode": "41568", "addr:street": "ljus\u00e5rsv\u00e4gen", "amenity": "clinic", "healthcare": "clinic", "name": "Medical V\u00e5rdcentral Bergsj\u00f6n", "payment:cryptocurrencies": "no"}}, {"type": "node", "id": 10837861170, "lat": 57.8731163, "lon": 11.9683615, "tags": {"amenity": "pharmacy", "brand": "Kronans Apotek", "brand:wikidata": "Q10549422", "healthcare": "pharmacy", "level": "2", "name": "Kronans Apotek"}}, {"type": "node", "id": 10837906005, "lat": 57.8728345, "lon": 11.9685187, "tags": {"amenity": "pharmacy", "brand": "Apoteket", "brand:wikidata": "Q1785637", "healthcare": "pharmacy", "level": "1", "name": "Apoteket"}}, {"type": "node", "id": 10839186506, "lat": 57.8757739, "lon": 11.9753312, "tags": {"amenity": "clinic", "healthcare": "clinic", "name": "Centrumpraktiken"}}, {"type": "node", "id": 10931561876, "lat": 57.8720301, "lon": 11.9516389, "tags": {"amenity": "doctors", "healthcare": "doctor", "healthcare:speciality": "orthopaedics", "name": "Imeo", "shop": "shoes"}}, {"type": "node", "id": 10957591211, "lat": 57.8736675, "lon": 11.9768868, "tags": {"amenity": "clinic", "check_date": "2023-06-05", "healthcare": "clinic", "name": "Kongah\u00e4lla kliniken"}}, {"type": "node", "id": 11245263532, "lat": 57.7701195, "lon": 12.0006764, "tags": {"amenity": "pharmacy", "brand": "Apotek Hj\u00e4rtat", "brand:wikidata": "Q10416114", "healthcare": "pharmacy", "name": "Apotek Hj\u00e4rtat"}}, {"type": "node", "id": 11245263534, "lat": 57.769387, "lon": 12.00023, "tags": {"amenity": "pharmacy", "brand": "Kronans Apotek", "brand:wikidata": "Q10549422", "healthcare": "pharmacy", "name": "Kronans Apotek"}}, {"type": "node", "id": 11303327088, "lat": 57.7866134, "lon": 12.1210941}, {"type": "node", "id": 11303327089, "lat": 57.7871195, "lon": 12.118267}, {"type": "node", "id": 11303327090, "lat": 57.788372, "lon": 12.1153005}, {"type": "node", "id": 11303327091, "lat": 57.7895501, "lon": 12.1138628}, {"type": "node", "id": 11303384076, "lat": 57.7899121, "lon": 12.1134021}, {"type": "node", "id": 11303384077, "lat": 57.7877102, "lon": 12.1218423}, {"type": "node", "id": 11365677219, "lat": 57.7494404, "lon": 11.9827464, "tags": {"addr:city": "Hisings Backa", "addr:housenumber": "11", "addr:postcode": "42248", "addr:street": "Selma Lagerl\u00f6fs Torg", "amenity": "pharmacy", "brand": "Kronans Apotek", "brand:wikidata": "Q10549422", "healthcare": "pharmacy", "name": "Kronans Apotek"}}, {"type": "node", "id": 11505864150, "lat": 58.0340262, "lon": 12.153752, "tags": {"amenity": "clinic", "healthcare": "clinic", "name": "Capio V\u00e5rdcentral L\u00f6d\u00f6se"}}, {"type": "node", "id": 11505894647, "lat": 58.1345641, "lon": 12.1250791, "tags": {"amenity": "clinic", "healthcare": "clinic", "name": "Medpro Clinic Lilla Edet V\u00e5rdcentral"}}, {"type": "node", "id": 11505924547, "lat": 58.0162599, "lon": 11.8332942, "tags": {"amenity": "clinic", "healthcare": "clinic", "name": "Stora H\u00f6ga L\u00e4karhus"}}, {"type": "node", "id": 11505929731, "lat": 57.9823977, "lon": 12.2119163, "tags": {"amenity": "clinic", "healthcare": "clinic", "name": "Skepplanda L\u00e4karhus"}}, {"type": "node", "id": 11506020823, "lat": 57.7647777, "lon": 12.2638447, "tags": {"amenity": "clinic", "healthcare": "clinic", "name": "Praktikertj\u00e4nst Lerums V\u00e5rdcentral"}}, {"type": "node", "id": 11518530988, "lat": 57.7975833, "lon": 12.0490988, "tags": {"amenity": "clinic", "healthcare": "clinic", "name": "Capio V\u00e5rdcentral Angered"}}, {"type": "node", "id": 11656197075, "lat": 57.8790563, "lon": 11.9702053}, {"type": "node", "id": 11656197076, "lat": 57.8790463, "lon": 11.9708866}, {"type": "node", "id": 11656197077, "lat": 57.8786, "lon": 11.9710314}, {"type": "node", "id": 11656197078, "lat": 57.8782819, "lon": 11.9711843}, {"type": "node", "id": 11656197079, "lat": 57.8794271, "lon": 11.9681078}, {"type": "node", "id": 11656197080, "lat": 57.8795455, "lon": 11.9685638}, {"type": "node", "id": 11656197081, "lat": 57.8780965, "lon": 11.9658253}, {"type": "node", "id": 11656197082, "lat": 57.8774861, "lon": 11.966123}, {"type": "node", "id": 11656197083, "lat": 57.8774326, "lon": 11.9662759}, {"type": "node", "id": 11656197084, "lat": 57.8773991, "lon": 11.9664945}, {"type": "node", "id": 11656197085, "lat": 57.8773827, "lon": 11.9667962}, {"type": "node", "id": 11656197086, "lat": 57.8772957, "lon": 11.9670537}, {"type": "node", "id": 11656197087, "lat": 57.8772686, "lon": 11.9676545}, {"type": "node", "id": 11656197088, "lat": 57.8770704, "lon": 11.9678275}, {"type": "way", "id": 301651396, "nodes": [3057327480, 3057327481, 3057327482, 3057327483, 3057327480], "tags": {"addr:city": "Lerum", "addr:country": "SE", "addr:housenumber": "1", "addr:postcode": "44338", "addr:street": "Hedlunds backe", "amenity": "clinic", "building": "yes", "healthcare": "clinic", "name": "Psykiatrisk \u00d6ppenv\u00e5rdsmottagning", "website": "https://www.vgregion.se/"}}, {"type": "way", "id": 311375597, "nodes": [3170121656, 3170121657, 3170121658, 3170121659, 3170121656], "tags": {"addr:city": "Nol", "addr:country": "SE", "addr:housenumber": "12", "addr:postcode": "44942", "addr:street": "Noltorget", "amenity": "clinic", "building": "yes", "email": "info@adinahalsan.se", "healthcare": "clinic", "name": "Adina H\u00e4lsan V\u00e5rdcentral", "operator": "Doktor.se", "phone": "+46 31-383 04 20", "website": "https://doktor.se/mottagningar/adina-halsan/"}}, {"type": "way", "id": 504543275, "nodes": [4946917091, 4946917090, 4946917089, 4946917088, 4946917091]}, {"type": "way", "id": 504543276, "nodes": [4946917095, 4946917094, 4946917093, 4946917092, 4946917095]}, {"type": "way", "id": 504543277, "nodes": [4946917099, 4946917098, 4793903213, 4946917097, 4946917096, 9006984463, 4946917099]}, {"type": "way", "id": 585734883, "nodes": [5516389753, 5599719748, 5599719747, 5599719749, 5516389752, 5599719750, 11656197080, 5516389751, 11656197079, 5516389749, 8718567093, 8718567092, 11656197081, 5516524100, 8718567094, 5516524101, 11656197082, 11656197083, 11656197084, 11656197085, 11656197086, 5516389748, 11656197087, 11656197088, 5516389747, 5599719755, 5599719754, 5599719753, 11656197078, 11656197077, 5599719751, 11656197076, 11656197075, 5516389753], "tags": {"amenity": "hospital", "emergency": "yes", "health_specialty:emergency_medicine": "yes", "health_specialty:family_medicine": "yes", "health_specialty:intensive_care_medicine": "yes", "health_specialty:orthopaedics": "yes", "health_specialty:surgery": "yes", "healthcare": "hospital", "name": "Kung\u00e4lvs sjukhus", "opening_hours": "24/7", "operator": "V\u00e4stra G\u00f6talandsregionen", "website": "https://www.vgregion.se/sv/Kungalvs-sjukhus/Kungalvs-sjukhus1/", "wheelchair": "yes", "wikidata": "Q30263857"}}, {"type": "way", "id": 661160667, "nodes": [6189902535, 6189902536, 6189902537, 6189902538, 6189902535], "tags": {"addr:city": "G\u00f6teborg", "addr:country": "SE", "addr:housenumber": "8D", "addr:postcode": "415 19", "addr:street": "Rymdtorget", "amenity": "clinic", "building": "yes", "building:colour": "#A5222B", "building:levels": "4", "healthcare": "clinic", "level": "2", "name": "Bergsj\u00f6n V\u00e5rdcentral och BVC", "network": "V\u00e4stra G\u00f6talandsregionen", "operator": "N\u00f6tk\u00e4rnan Bergsj\u00f6n V\u00e5rdcentral och BVC AB", "operator:type": "private", "owner": "N\u00f6tk\u00e4rnan V\u00e5rd & Omsorg AB", "payment:cryptocurrencies": "no", "website": "https://www.bergsjonvardcentral.se/"}}, {"type": "way", "id": 893988308, "nodes": [10820409138, 8309078348, 8309078331, 8309077552, 8309077602, 8309078353, 8309077557, 10820409068], "tags": {"barrier": "fence"}}, {"type": "way", "id": 961910611, "nodes": [8309078363, 8309077567, 8309078317, 8309078368, 8897980052, 8309077571, 8309078321, 8309078372, 8309077576, 8309078326, 8309078377], "tags": {"barrier": "fence"}}, {"type": "way", "id": 1163482351, "nodes": [11303384076, 8309077547, 10820409138], "tags": {"barrier": "fence"}}, {"type": "way", "id": 1163482353, "nodes": [10820409068, 8309077607, 8309078358, 8309077562, 8309077612], "tags": {"barrier": "fence"}}, {"type": "way", "id": 1219881515, "nodes": [11303384077, 11303327088, 11303327089, 11303327090, 11303327091, 8309077581]}, {"type": "way", "id": 1219881516, "nodes": [8309077612, 8309078363]}, {"type": "way", "id": 1219884575, "nodes": [8309077581, 11303384076], "tags": {"barrier": "fence"}}, {"type": "way", "id": 1219884577, "nodes": [8309078377, 11303384077]}, {"type": "relation", "id": 7370484, "members": [{"type": "way", "ref": 504543277, "role": "outer"}, {"type": "way", "ref": 504543275, "role": "inner"}, {"type": "way", "ref": 504543276, "role": "inner"}], "tags": {"addr:country": "SE", "addr:housenumber": "1", "addr:street": "Halmtorget", "amenity": "hospital", "building": "hospital", "building:levels": "3", "name": "Angereds N\u00e4rsjukhus", "roof:shape": "flat", "type": "multipolygon", "wikidata": "Q10411783"}}, {"type": "relation", "id": 16628183, "members": [{"type": "way", "ref": 961910611, "role": "outer"}, {"type": "way", "ref": 1219884577, "role": "outer"}, {"type": "way", "ref": 1219881515, "role": "outer"}, {"type": "way", "ref": 1219884575, "role": "outer"}, {"type": "way", "ref": 1163482351, "role": "outer"}, {"type": "way", "ref": 893988308, "role": "outer"}, {"type": "way", "ref": 1163482353, "role": "outer"}, {"type": "way", "ref": 1219881516, "role": "outer"}], "tags": {"amenity": "hospital", "healthcare": "hospital", "healthcare:speciality": "forensic_psychiatry", "name": "R\u00e5g\u00e5rden", "note": "approximate boundary", "operator": "Sahlgrenska Universitetssjukhuset", "operator:type": "public", "type": "multipolygon", "wikidata": "Q2129336"}}]}