{"version": 0.6, "generator": "Overpass API 0.7.61.5 4133829e", "osm3s": {"timestamp_osm_base": "2024-03-06T11:16:45Z", "copyright": "The data included in this document is from www.openstreetmap.org. The data is made available under ODbL."}, "elements": [{"type": "node", "id": 2479333785, "lat": 32.276998, "lon": 44.777655, "tags": {"alt_name": "\u0647\u0627\u062f\u064a \u062c\u062f\u0631\u0639", "int_name": "H\u0101d\u012b Jadra, \u0647\u0627\u062f\u064a \u062c\u062f\u0631\u0639, Hadi Jadra, \u0647\u0627\u062f\u064a \u062c\u062f\u0631\u0639", "is_in": "Iraq , \u062c\u0645\u0647\u0648\u0631\u064a\u0629 \u0627\u0644\u0639\u0631\u0627\u0642", "name": "\u0647\u0627\u062f\u064a \u062c\u062f\u0631\u0639", "name:ar": "\u0647\u0627\u062a\u0641 \u062c\u062f\u0648\u0639", "name:ar1": "\u0647\u0627\u062f\u064a \u062c\u062f\u0631\u0639", "name:de": "Hadi Jadra", "name:en": "Hataf jadeo", "name:fr": "Hadi Jadra", "place": "village"}}, {"type": "node", "id": 2479333841, "lat": 32.277816, "lon": 44.775941, "tags": {"alt_name": "\u0643\u0627\u0638\u0645 \u0631\u0627\u0636\u064a", "int_name": "K\u0101z\u0327im R\u0101\u1e11\u012b, \u0643\u0627\u0638\u0645 \u0631\u0627\u0636\u064a, Kazim Radi, \u0643\u0627\u0638\u0645 \u0631\u0627\u0636\u064a", "is_in": "Iraq , \u062c\u0645\u0647\u0648\u0631\u064a\u0629 \u0627\u0644\u0639\u0631\u0627\u0642", "name": "\u0643\u0627\u0638\u0645 \u0631\u0627\u0636\u064a", "name:ar": "\u0642\u0631\u064a\u0629 \u0627\u0644\u0628\u0648\u0631\u0627\u0636\u064a", "name:ar1": "\u0643\u0627\u0638\u0645 \u0631\u0627\u0636\u064a", "name:de": "Kazim Radi", "name:en": "AlBoradi", "name:fr": "Kazim Radi", "place": "village"}}, {"type": "node", "id": 2479333890, "lat": 32.280201, "lon": 44.7806908, "tags": {"alt_name": "\u0627\u0644\u0647\u0627\u062f\u064a \u0645\u0637\u0634\u0631 \u062d\u0633\u064a\u0646", "int_name": "\u0627\u0644\u0647\u0627\u062f\u064a \u0645\u0637\u0634\u0631 \u062d\u0633\u064a\u0646, \u0627\u0644\u0647\u0627\u062f\u064a \u0645\u0637\u0634\u0631 \u062d\u0633\u064a\u0646", "is_in": "Iraq , \u062c\u0645\u0647\u0648\u0631\u064a\u0629 \u0627\u0644\u0639\u0631\u0627\u0642", "name": "\u0627\u0644\u0647\u0627\u062f\u064a \u0645\u0637\u0634\u0631 \u062d\u0633\u064a\u0646", "name:ar": "\u0645\u0637\u0634\u0631 \u062d\u0633\u0646", "name:ar1": "\u0627\u0644\u0647\u0627\u062f\u064a \u0645\u0637\u0634\u0631 \u062d\u0633\u064a\u0646", "name:de": "\u0627\u0644\u0647\u0627\u062f\u064a \u0645\u0637\u0634\u0631 \u062d\u0633\u064a\u0646", "name:fr": "\u0627\u0644\u0647\u0627\u062f\u064a \u0645\u0637\u0634\u0631 \u062d\u0633\u064a\u0646", "place": "village"}}, {"type": "node", "id": 2479335932, "lat": 32.3132178, "lon": 44.7606536, "tags": {"alt_name": "\u0639\u0644\u0648\u0627\u0646 \u0627\u0644 \u0635\u0641\u0648\u0643", "int_name": "\u0639\u0644\u0648\u0627\u0646 \u0627\u0644 \u0635\u0641\u0648\u0643, \u0639\u0644\u0648\u0627\u0646 \u0627\u0644 \u0635\u0641\u0648\u0643", "is_in": "Iraq , \u062c\u0645\u0647\u0648\u0631\u064a\u0629 \u0627\u0644\u0639\u0631\u0627\u0642", "name": "\u0639\u0644\u0648\u0627\u0646 \u0627\u0644 \u0635\u0641\u0648\u0643", "name:ar": "\u0639\u0644\u0648\u0627\u0646 \u0627\u0644 \u0635\u0641\u0648\u0643", "name:ar1": "\u0639\u0644\u0648\u0627\u0646 \u0627\u0644 \u0635\u0641\u0648\u0643", "name:de": "\u0639\u0644\u0648\u0627\u0646 \u0627\u0644 \u0635\u0641\u0648\u0643", "name:fr": "\u0639\u0644\u0648\u0627\u0646 \u0627\u0644 \u0635\u0641\u0648\u0643", "place": "village"}}, {"type": "node", "id": 2479337385, "lat": 32.3459224, "lon": 44.7413277, "tags": {"alt_name": "\u0642\u0631\u064a\u0629\u062d\u064a\u0643\u0627\u0646", "int_name": "\u0642\u0631\u064a\u0629\u062d\u064a\u0643\u0627\u0646, \u0642\u0631\u064a\u0629\u062d\u064a\u0643\u0627\u0646", "name": "\u0642\u0631\u064a\u0629\u062d\u064a\u0643\u0627\u0646", "name:ar": "\u0642\u0631\u064a\u0629\u062d\u064a\u0643\u0627\u0646", "name:ar1": "\u0642\u0631\u064a\u0629\u062d\u064a\u0643\u0627\u0646", "name:de": "\u0642\u0631\u064a\u0629\u062d\u064a\u0643\u0627\u0646", "name:fr": "\u0642\u0631\u064a\u0629\u062d\u064a\u0643\u0627\u0646", "place": "village"}}, {"type": "node", "id": 2479342811, "lat": 32.3347505, "lon": 44.6092056, "tags": {"alt_name": "\u0639\u0632\u064a\u0632 \u0622\u0644 \u0641\u0631\u062d\u0627\u0646", "int_name": "Az\u012bz \u0100l Far\u1e29\u0101n, \u0639\u0632\u064a\u0632 \u0622\u0644 \u0641\u0631\u062d\u0627\u0646, Aziz Al Farhan, \u0639\u0632\u064a\u0632 \u0622\u0644 \u0641\u0631\u062d\u0627\u0646", "is_in": "Iraq , \u062c\u0645\u0647\u0648\u0631\u064a\u0629 \u0627\u0644\u0639\u0631\u0627\u0642", "name": "\u0639\u0632\u064a\u0632 \u0622\u0644 \u0641\u0631\u062d\u0627\u0646", "name:ar": "\u0639\u0632\u064a\u0632 \u0622\u0644 \u0641\u0631\u062d\u0627\u0646", "name:ar1": "\u0639\u0632\u064a\u0632 \u0622\u0644 \u0641\u0631\u062d\u0627\u0646", "name:de": "Aziz Al Farhan", "name:en": "Aziz Al Farhan", "name:fr": "Aziz Al Farhan", "place": "village"}}, {"type": "node", "id": 2479342825, "lat": 32.3455646, "lon": 44.611578, "tags": {"alt_name": "\u0628\u064a\u062a \u0633\u0639\u0648\u062f", "int_name": "Bayt Su\u016bd, \u0628\u064a\u062a \u0633\u0639\u0648\u062f, Bayt Suud, \u0628\u064a\u062a \u0633\u0639\u0648\u062f", "name": "\u0628\u064a\u062a \u0633\u0639\u0648\u062f", "name:ar": "\u0628\u064a\u062a \u0633\u0639\u0648\u062f", "name:ar1": "\u0628\u064a\u062a \u0633\u0639\u0648\u062f", "name:de": "Bayt Suud", "name:en": "Bayt Suud", "name:fr": "Bayt Suud", "place": "village"}}, {"type": "node", "id": 2479342909, "lat": 32.33801, "lon": 44.611539, "tags": {"alt_name": "\u0641\u0631\u062d\u0627\u0646 \u0627\u0644\u062f\u0628\u064a", "int_name": "Far\u1e29\u0101n ad Daby, \u0641\u0631\u062d\u0627\u0646 \u0627\u0644\u062f\u0628\u064a, Farhan ad Dalli, \u0641\u0631\u062d\u0627\u0646 \u0627\u0644\u062f\u0644\u064a", "is_in": "Iraq , \u062c\u0645\u0647\u0648\u0631\u064a\u0629 \u0627\u0644\u0639\u0631\u0627\u0642", "name": "\u0641\u0631\u062d\u0627\u0646 \u0627\u0644\u062f\u0628\u064a", "name:ar": "\u0641\u0631\u062d\u0627\u0646 \u0627\u0644\u062f\u0628\u064a", "name:ar1": "\u0641\u0631\u062d\u0627\u0646 \u0627\u0644\u062f\u0628\u064a", "name:de": "Farhan ad Daby", "name:en": "Farhan ad Daby", "name:fr": "Farhan ad Daby", "place": "village"}}, {"type": "node", "id": 2479342938, "lat": 32.3402551, "lon": 44.6099325, "tags": {"alt_name": "\u062d\u0627\u0645\u062f \u0622\u0644 \u0639\u0628\u062f", "int_name": "\u1e28\u0101mid \u0100l Abd, \u062d\u0627\u0645\u062f \u0622\u0644 \u0639\u0628\u062f, Hamid Al Abd, \u062d\u0627\u0645\u062f \u0622\u0644 \u0639\u0628\u062f", "is_in": "Iraq , \u062c\u0645\u0647\u0648\u0631\u064a\u0629 \u0627\u0644\u0639\u0631\u0627\u0642", "name": "\u062d\u0627\u0645\u062f \u0622\u0644 \u0639\u0628\u062f", "name:ar": "\u062d\u0627\u0645\u062f \u0622\u0644 \u0639\u0628\u062f", "name:ar1": "\u062d\u0627\u0645\u062f \u0622\u0644 \u0639\u0628\u062f", "name:de": "Hamid Al Abd", "name:en": "Hamid Al Abd", "name:fr": "Hamid Al Abd", "place": "village"}}, {"type": "node", "id": 2479342963, "lat": 32.3451975, "lon": 44.6102785, "tags": {"alt_name": "\u0643\u0627\u0638\u0645 \u0622\u0644 \u0639\u0637\u064a\u0629", "int_name": "K\u0101z\u0327im \u0100l A\u0163\u012byah, \u0643\u0627\u0638\u0645 \u0622\u0644 \u0639\u0637\u064a\u0629, Kazim Al Atiyah, \u0643\u0627\u0638\u0645 \u0622\u0644 \u0639\u0637\u064a\u0629", "is_in": "Iraq , \u062c\u0645\u0647\u0648\u0631\u064a\u0629 \u0627\u0644\u0639\u0631\u0627\u0642", "name": "\u0643\u0627\u0638\u0645 \u0622\u0644 \u0639\u0637\u064a\u0629", "name:ar": "\u0643\u0627\u0638\u0645 \u0622\u0644 \u0639\u0637\u064a\u0629", "name:ar1": "\u0643\u0627\u0638\u0645 \u0622\u0644 \u0639\u0637\u064a\u0629", "name:de": "Kazim Al Atiyah", "name:en": "Kazim Al Atiyah", "name:fr": "Kazim Al Atiyah", "place": "village"}}, {"type": "node", "id": 2479350603, "lat": 32.4006548, "lon": 44.6646848, "tags": {"alt_name": "Al Mad\u1e29at\u012bya", "capital": "7", "name": "\u0627\u0644\u0645\u062f\u062d\u062a\u064a\u0629", "name:ar": "\u0627\u0644\u0645\u062f\u062d\u062a\u064a\u0629", "name:de": "Al Midhatiya", "name:en": "Al Midhatiya", "name:fa": "\u0627\u0644\u0645\u062f\u062d\u062a\u06cc\u0647", "name:fr": "Al Midhatiya", "place": "city", "wikidata": "Q29512591", "wikipedia": "ar:\u0627\u0644\u0645\u062f\u062d\u062a\u064a\u0629"}}, {"type": "node", "id": 2479350615, "lat": 32.401896, "lon": 44.6676171, "tags": {"alt_name": "\u0625\u0645\u0627\u0645 \u062d\u0645\u0632\u0629", "int_name": "Im\u0101m \u1e28amzah, Imam Hamzah", "is_in": "Iraq , \u062c\u0645\u0647\u0648\u0631\u064a\u0629 \u0627\u0644\u0639\u0631\u0627\u0642", "name": "\u0625\u0645\u0627\u0645 \u062d\u0645\u0632\u0629", "name:ar": "\u0625\u0645\u0627\u0645 \u062d\u0645\u0632\u0629", "name:ar1": "\u0625\u0645\u0627\u0645 \u062d\u0645\u0632\u0629", "name:de": "Imam Hamzah", "name:en": "Imam Hamzah", "name:fr": "Imam Hamzah", "place": "village"}}, {"type": "node", "id": 2479357001, "lat": 32.2977637, "lon": 44.5604671, "tags": {"alt_name": "\u0639\u0628\u062f \u0627\u0644\u0644\u0647 \u0627\u0644\u0645\u062d\u0633\u0646", "int_name": "Abd All\u0101h al Mu\u1e29sin, \u0639\u0628\u062f \u0627\u0644\u0644\u0647 \u0627\u0644\u0645\u062d\u0633\u0646, Abd Allah al Muhsin, \u0639\u0628\u062f \u0627\u0644\u0644\u0647 \u0627\u0644\u0645\u062d\u0633\u0646", "is_in": "Iraq , \u062c\u0645\u0647\u0648\u0631\u064a\u0629 \u0627\u0644\u0639\u0631\u0627\u0642", "name": "\u0639\u0628\u062f \u0627\u0644\u0644\u0647 \u0627\u0644\u0645\u062d\u0633\u0646", "name:ar": "\u0639\u0628\u062f \u0627\u0644\u0644\u0647 \u0627\u0644\u0645\u062d\u0633\u0646", "name:ar1": "\u0639\u0628\u062f \u0627\u0644\u0644\u0647 \u0627\u0644\u0645\u062d\u0633\u0646", "name:de": "Abd Allah al Muhsin", "name:en": "Abd Allah al Muhsin", "name:fr": "Abd Allah al Muhsin", "place": "hamlet"}}, {"type": "node", "id": 2479357007, "lat": 32.2981146, "lon": 44.5603572, "tags": {"alt_name": "\u0639\u0628\u062f \u0627\u0644\u062d\u0633\u064a\u0646", "int_name": "Abd al \u1e28usayn, Abd al Husayn", "is_in": "Iraq , \u062c\u0645\u0647\u0648\u0631\u064a\u0629 \u0627\u0644\u0639\u0631\u0627\u0642", "name": "\u0639\u0628\u062f \u0627\u0644\u062d\u0633\u064a\u0646", "name:ar": "\u0639\u0628\u062f \u0627\u0644\u062d\u0633\u064a\u0646", "name:ar1": "\u0639\u0628\u062f \u0627\u0644\u062d\u0633\u064a\u0646", "name:de": "Abd al Husayn", "name:en": "Abd al Husayn", "name:fr": "Abd al Husayn", "place": "hamlet"}}, {"type": "node", "id": 2479357023, "lat": 32.301027, "lon": 44.560081, "tags": {"alt_name": "\u0627\u0644\u0633\u064a\u062f \u0639\u0645\u0634", "int_name": "As Sayyid Amash, \u0627\u0644\u0633\u064a\u062f \u0639\u0645\u0634, As Sayyid Amash, \u0627\u0644\u0633\u064a\u062f \u0639\u0645\u0634", "is_in": "Iraq , \u062c\u0645\u0647\u0648\u0631\u064a\u0629 \u0627\u0644\u0639\u0631\u0627\u0642", "name": "\u0627\u0644\u0633\u064a\u062f \u0639\u0645\u0634", "name:ar": "\u0627\u0644\u0633\u064a\u062f \u0639\u0645\u0634", "name:ar1": "\u0627\u0644\u0633\u064a\u062f \u0639\u0645\u0634", "name:de": "As Sayyid Amash", "name:en": "As Sayyid Amash", "name:fr": "As Sayyid Amash", "place": "hamlet"}}, {"type": "node", "id": 2480229506, "lat": 32.143002, "lon": 44.667694, "tags": {"alt_name": "\u0639\u0631\u0628 \u0622\u0644 \u062e\u0644\u064a\u0644", "int_name": "Arab \u0100l Khal\u012bl, \u0639\u0631\u0628 \u0622\u0644 \u062e\u0644\u064a\u0644, Arab Al Khalil, \u0639\u0631\u0628 \u0622\u0644 \u062e\u0644\u064a\u0644", "is_in": "Iraq , \u062c\u0645\u0647\u0648\u0631\u064a\u0629 \u0627\u0644\u0639\u0631\u0627\u0642", "name": "\u0639\u0631\u0628 \u0622\u0644 \u062e\u0644\u064a\u0644", "name:ar": "\u0639\u0631\u0628 \u0622\u0644 \u062e\u0644\u064a\u0644", "name:ar1": "\u0639\u0631\u0628 \u0622\u0644 \u062e\u0644\u064a\u0644", "name:de": "Arab Al Khalil", "name:en": "Arab Al Khalil", "name:fr": "Arab Al Khalil", "place": "hamlet"}}, {"type": "node", "id": 2480229507, "lat": 32.157215, "lon": 44.657099, "tags": {"alt_name": "\u062d\u0627\u062c \u062c\u0627\u0633\u0645 \u0635\u0641\u0648\u0643", "int_name": "\u1e28\u0101jj J\u0101sim \u015euf\u016bk, \u062d\u0627\u062c \u062c\u0627\u0633\u0645 \u0635\u0641\u0648\u0643, Hajj Jasim Sufuk, \u062d\u0627\u062c \u062c\u0627\u0633\u0645 \u0635\u0641\u0648\u0643", "is_in": "Iraq , \u062c\u0645\u0647\u0648\u0631\u064a\u0629 \u0627\u0644\u0639\u0631\u0627\u0642", "name": "\u062d\u0627\u062c \u062c\u0627\u0633\u0645 \u0635\u0641\u0648\u0643", "name:ar": "\u062d\u0627\u062c \u062c\u0627\u0633\u0645 \u0635\u0641\u0648\u0643 \u0622\u0644 \u0628\u0634\u0627\u0631\u0647", "name:ar1": "\u062d\u0627\u062c \u062c\u0627\u0633\u0645 \u0635\u0641\u0648\u0643", "name:de": "Hajj Jasim Sufuk", "name:en": "Hajj Jasim Sufuk", "name:fr": "Hajj Jasim Sufuk", "place": "hamlet"}}, {"type": "node", "id": 2480229509, "lat": 32.143273, "lon": 44.665663, "tags": {"alt_name": "\u062c\u0648\u0627\u062f \u0643\u0627\u0638\u0645 \u0633\u0645\u064a\u0631", "int_name": "Jaw\u0101d K\u0101z\u0327im Sam\u012br, \u062c\u0648\u0627\u062f \u0643\u0627\u0638\u0645 \u0633\u0645\u064a\u0631, Jawad Kazim Samir, \u062c\u0648\u0627\u062f \u0643\u0627\u0638\u0645 \u0633\u0645\u064a\u0631", "is_in": "Iraq , \u062c\u0645\u0647\u0648\u0631\u064a\u0629 \u0627\u0644\u0639\u0631\u0627\u0642", "name": "\u062c\u0648\u0627\u062f \u0643\u0627\u0638\u0645 \u0633\u0645\u064a\u0631", "name:ar": "\u062c\u0648\u0627\u062f \u0643\u0627\u0638\u0645 \u0633\u0645\u064a\u0631 \u0627\u0644\u0645\u063a\u064a\u0637\u0627\u0648\u064a", "name:ar1": "\u062c\u0648\u0627\u062f \u0643\u0627\u0638\u0645 \u0633\u0645\u064a\u0631", "name:de": "Jawad Kazim Samir", "name:en": "Jawad Kazim Samir", "name:fr": "Jawad Kazim Samir", "place": "hamlet"}}, {"type": "node", "id": 2480229511, "lat": 32.150255, "lon": 44.669044, "tags": {"alt_name": "\u0645\u062a\u0639\u0628 \u0645\u0639\u062c\u0648\u0646", "int_name": "Mutib Maj\u016bn, \u0645\u062a\u0639\u0628 \u0645\u0639\u062c\u0648\u0646, Mutib Majun, \u0645\u062a\u0639\u0628 \u0645\u0639\u062c\u0648\u0646", "is_in": "Iraq , \u062c\u0645\u0647\u0648\u0631\u064a\u0629 \u0627\u0644\u0639\u0631\u0627\u0642", "name": "\u0645\u062a\u0639\u0628 \u0645\u0639\u062c\u0648\u0646", "name:ar": "\u0645\u062a\u0639\u0628 \u0645\u0639\u062c\u0648\u0646 \u0627\u0644\u0645\u063a\u064a\u0637\u0627\u0648\u064a", "name:ar1": "\u0645\u062a\u0639\u0628 \u0645\u0639\u062c\u0648\u0646", "name:de": "Mutib Majun", "name:en": "Mutib Majun", "name:fr": "Mutib Majun", "place": "hamlet"}}, {"type": "node", "id": 2480229512, "lat": 32.160164, "lon": 44.659247, "tags": {"alt_name": "\u0642\u0644\u0639\u0629 \u0627\u0644\u0634\u064a\u062e \u0643\u062a\u0627\u0628", "int_name": "Qalat ash Shaykh Kit\u0101b, \u0642\u0644\u0639\u0629 \u0627\u0644\u0634\u064a\u062e \u0643\u062a\u0627\u0628, Qalat ash Shaykh Kitab, \u0642\u0644\u0639\u0629 \u0627\u0644\u0634\u064a\u062e \u0643\u062a\u0627\u0628", "is_in": "Iraq , \u062c\u0645\u0647\u0648\u0631\u064a\u0629 \u0627\u0644\u0639\u0631\u0627\u0642", "name": "\u0642\u0644\u0639\u0629 \u0627\u0644\u0634\u064a\u062e \u0643\u062a\u0627\u0628", "name:ar": "\u0642\u0644\u0639\u0629 \u0627\u0644\u0634\u064a\u062e \u0643\u062a\u0627\u0628 \u0622\u0644 \u062e\u0644\u064a\u0644", "name:ar1": "\u0642\u0644\u0639\u0629 \u0627\u0644\u0634\u064a\u062e \u0643\u062a\u0627\u0628", "name:de": "Qalat ash Shaykh Kitab", "name:en": "Qalat ash Shaykh Kitab", "name:fr": "Qalat ash Shaykh Kitab", "place": "hamlet"}}, {"type": "node", "id": 2480229513, "lat": 32.146104, "lon": 44.665818, "tags": {"alt_name": "\u0642\u0631\u064a\u0629 \u0622\u0644 \u0641\u0642\u064a\u0637\u0631", "int_name": "Qaryat \u0100l Fuqay\u0163ir, \u0642\u0631\u064a\u0629 \u0622\u0644 \u0641\u0642\u064a\u0637\u0631, Qaryat Al Fuqaytir, \u0642\u0631\u064a\u0629 \u0622\u0644 \u0641\u0642\u064a\u0637\u0631", "name": "\u0642\u0631\u064a\u0629 \u0622\u0644 \u0641\u0640\u0642\u0640\u064a\u0640\u0637\u0631", "name:ar": "\u0642\u0631\u064a\u0629 \u0622\u0644 \u0645\u063a\u064a\u0637\u064a \u0634\u0645\u0631", "name:ar1": "\u0642\u0631\u064a\u0629 \u0622\u0644 \u0641\u0642\u064a\u0637\u0631", "name:de": "Qaryat Al Fuqaytir", "name:en": "Qaryat Al Fuqaytir", "name:fr": "Qaryat Al Fuqaytir", "place": "village"}}, {"type": "node", "id": 2480229514, "lat": 32.155292, "lon": 44.660287, "tags": {"alt_name": "\u0642\u0631\u064a\u0629 \u0622\u0644 \u0645\u0634\u0627\u0631\u0629", "int_name": "Qaryat \u0100l Mush\u0101rah, \u0642\u0631\u064a\u0629 \u0622\u0644 \u0645\u0634\u0627\u0631\u0629, Qaryat Al Musharah, \u0642\u0631\u064a\u0629 \u0622\u0644 \u0645\u0634\u0627\u0631\u0629", "name": "\u0642\u0631\u064a\u0629 \u0622\u0644 \u0645\u0634\u0627\u0631\u0629", "name:ar": "\u0642\u0631\u064a\u0629 \u0622\u0644 \u0628\u0634\u0627\u0631\u0629", "name:ar1": "\u0642\u0631\u064a\u0629 \u0622\u0644 \u0645\u0634\u0627\u0631\u0629", "name:de": "Qaryat Al Musharah", "name:en": "Qaryat Al Musharah", "name:fr": "Qaryat Al Musharah", "place": "village"}}, {"type": "node", "id": 2480229737, "lat": 32.155128, "lon": 44.690086, "tags": {"alt_name": "\u0639\u0628\u062f \u0627\u0644\u0648\u0627\u062d\u062f \u062d\u0633\u064a\u0646", "int_name": "Abd al W\u0101\u1e29id \u1e28usayn, \u0639\u0628\u062f \u0627\u0644\u0648\u0627\u062d\u062f \u062d\u0633\u064a\u0646, Abd al Wahid Husayn, \u0639\u0628\u062f \u0627\u0644\u0648\u0627\u062d\u062f \u062d\u0633\u064a\u0646", "is_in": "Iraq , \u062c\u0645\u0647\u0648\u0631\u064a\u0629 \u0627\u0644\u0639\u0631\u0627\u0642", "name": "\u0639\u0628\u062f \u0627\u0644\u0648\u0627\u062d\u062f \u062d\u0633\u064a\u0646", "name:ar": "\u0646\u0627\u0639\u0648\u0631 / \u0646\u0627\u0647\u064a \u0622\u0644 \u062d\u0645\u0632\u0647 \u0622\u0644 \u0643\u0631\u064a\u062f\u064a \u0627\u0644\u062c\u0627\u0633\u0645\u064a", "name:ar1": "\u0639\u0628\u062f \u0627\u0644\u0648\u0627\u062d\u062f \u062d\u0633\u064a\u0646", "name:de": "Abd al Wahid Husayn", "name:en": "Naour Nahy Hamzah Krydy Al gasmay", "name:fr": "Abd al Wahid Husayn", "place": "village"}}, {"type": "node", "id": 2480229738, "lat": 32.146458, "lon": 44.695543, "tags": {"alt_name": "\u0627\u0644\u0645\u0633\u0639\u062f\u0629", "int_name": "Al Masadah, \u0627\u0644\u0645\u0633\u0639\u062f\u0629, Al Masadah, \u0627\u0644\u0645\u0633\u0639\u062f\u0629", "is_in": "Iraq , \u062c\u0645\u0647\u0648\u0631\u064a\u0629 \u0627\u0644\u0639\u0631\u0627\u0642", "name": "\u0627\u0644\u0645\u0633\u0639\u062f\u0629", "name:ar": "\u0627\u0644\u0645\u0633\u0639\u062f\u0629 \u0643\u0627\u0639 \u0647\u062f\u0647\u0648\u062f \u0622\u0644 \u0633\u0644\u0637\u0627\u0646 \u0627\u0644\u0645\u062d\u0627\u0645\u062f\u0647", "name:ar1": "\u0627\u0644\u0645\u0633\u0639\u062f\u0629", "name:de": "Al Masadah", "name:en": "Al Masadah", "name:fr": "Al Masadah", "place": "village"}}, {"type": "node", "id": 2480229748, "lat": 32.158789, "lon": 44.689426, "tags": {"alt_name": "\u0642\u0631\u064a\u0629 \u062d\u0627\u062c \u062d\u0633\u0646 \u0645\u0631\u0627\u062f", "int_name": "Qaryat \u1e28\u0101jj \u1e28asan Mur\u0101d, \u0642\u0631\u064a\u0629 \u062d\u0627\u062c \u062d\u0633\u0646 \u0645\u0631\u0627\u062f, Qaryat Hajj Hasan Murad, \u0642\u0631\u064a\u0629 \u062d\u0627\u062c \u062d\u0633\u0646 \u0645\u0631\u0627\u062f", "name": "\u0642\u0631\u064a\u0629 \u062d\u0627\u062c \u062d\u0633\u0646 \u0645\u0631\u0627\u062f", "name:ar": "\u0646\u0627\u0639\u0648\u0631 \u0646\u0627\u0647\u064a \u062d\u0645\u0632\u0647 \u0643\u0631\u064a\u062f\u064a \u0627\u0644\u062c\u0627\u0633\u0645\u064a", "name:ar1": "\u0642\u0631\u064a\u0629 \u062d\u0627\u062c \u062d\u0633\u0646 \u0645\u0631\u0627\u062f", "name:de": "Qaryat Hajj Hasan Murad", "name:en": "Naour Nahye Hamza kraydey Al gasmay", "name:fr": "Qaryat Hajj Hasan Murad", "name:ku": "\u0646\u0627\u0647\u064a \u062d\u0645\u0632\u0647 \u0643\u0631\u064a\u062f\u064a \u0627\u0644\u062c\u0627\u0633\u0645\u064a", "place": "village"}}, {"type": "node", "id": 2480230747, "lat": 32.34471, "lon": 44.965763, "tags": {"alt_name": "\u0633\u064a\u062f \u062c\u0648\u0627\u062f \u0639\u0643\u064a\u0634", "int_name": "Sayyid Jaw\u0101d Ukaysh, \u0633\u064a\u062f \u062c\u0648\u0627\u062f \u0639\u0643\u064a\u0634, Sayyid Jawad Ukaysh, \u0633\u064a\u062f \u062c\u0648\u0627\u062f \u0639\u0643\u064a\u0634", "is_in": "Iraq , \u062c\u0645\u0647\u0648\u0631\u064a\u0629 \u0627\u0644\u0639\u0631\u0627\u0642", "name": "\u0633\u064a\u062f \u062c\u0648\u0627\u062f \u0639\u0643\u064a\u0634", "name:ar": "\u0633\u064a\u062f \u062c\u0648\u0627\u062f \u0639\u0643\u064a\u0634", "name:ar1": "\u0633\u064a\u062f \u062c\u0648\u0627\u062f \u0639\u0643\u064a\u0634", "name:de": "Sayyid Jawad Ukaysh", "name:en": "Sayyid Jawad Ukaysh", "name:fr": "Sayyid Jawad Ukaysh", "place": "village"}}, {"type": "node", "id": 2480232386, "lat": 32.4220875, "lon": 45.0004143, "tags": {"alt_name": "\u0642\u0631\u064a\u0629 \u0627\u0644 \u063a\u0627\u0641\u0644", "int_name": "\u0642\u0631\u064a\u0629 \u0627\u0644 \u063a\u0627\u0641\u0644, \u0642\u0631\u064a\u0629 \u0627\u0644 \u063a\u0627\u0641\u0644", "name": "\u0642\u0631\u064a\u0629 \u0627\u0644 \u063a\u0627\u0641\u0644", "name:ar": "\u0642\u0631\u064a\u0629 \u0627\u0644 \u063a\u0627\u0641\u0644", "name:ar1": "\u0642\u0631\u064a\u0629 \u0627\u0644 \u063a\u0627\u0641\u0644", "name:de": "\u0642\u0631\u064a\u0629 \u0627\u0644 \u063a\u0627\u0641\u0644", "name:fr": "\u0642\u0631\u064a\u0629 \u0627\u0644 \u063a\u0627\u0641\u0644", "place": "village"}}, {"type": "node", "id": 2482328206, "lat": 32.1428618, "lon": 44.9311577, "tags": {"alt_name": "\u0627\u0644\u062f\u063a\u0627\u0631\u0629;Ad Daghgh\u0101rah, Dagh\u0101rah, Daghghara, N\u0101\u1e29iyat ad Daghgh\u0101rah, \u0646\u0627\u062d\u064a\u0629 \u0627\u0644\u062f\u063a\u0627\u0631\u0629, Ad Daghgharah, Dagharah, Daghghara, Nahiyat ad Daghgharah, \u0646\u0627\u062d\u064a\u0629 \u0627\u0644\u062f\u063a\u0627\u0631\u0629", "capital": "7", "int_name": "Ad Daghgharah - \u0627\u0644\u062f\u063a\u0627\u0631\u0629", "is_in": "Iraq , \u062c\u0645\u0647\u0648\u0631\u064a\u0629 \u0627\u0644\u0639\u0631\u0627\u0642", "is_in:country": "Iraq", "is_in:country_code": "IQ", "name": "\u0627\u0644\u062f\u063a\u0627\u0631\u0629", "name:ar": "\u0627\u0644\u062f\u063a\u0627\u0631\u0629", "name:ar1": "\u0627\u0644\u062f\u063a\u0627\u0631\u0629", "name:de": "Ad Daghgharah", "name:en": "Ad Daghgharah", "name:fr": "Ad Daghgharah", "place": "town", "population": "67000", "population:date": "2014", "source:population": "https://ar.wikipedia.org/wiki/%D8%A7%D9%84%D8%AF%D8%BA%D8%A7%D8%B1%D8%A9", "wikidata": "Q4529794"}}, {"type": "node", "id": 2485206102, "lat": 32.300284, "lon": 44.770263, "tags": {"alt_name": "\u0645\u062d\u0645\u062f \u0627\u0644\u062d\u0633\u0646", "int_name": "\u062e\u064a\u0643\u0627\u0646 \u0627\u0644\u0634\u0631\u0642\u064a", "is_in": "Iraq , \u062c\u0645\u0647\u0648\u0631\u064a\u0629 \u0627\u0644\u0639\u0631\u0627\u0642", "name": "\u0645\u062d\u0645\u062f \u0627\u0644\u062d\u0633\u0646", "name:ar": "\u062e\u064a\u0643\u0627\u0646 \u0627\u0644\u0634\u0631\u0642\u064a", "name:ar1": "\u0645\u062d\u0645\u062f \u0627\u0644\u062d\u0633\u0646", "name:de": "east Khegan", "name:en": "east khegan", "name:fr": "Muhammad al Hasan", "place": "village"}}, {"type": "node", "id": 2485208347, "lat": 32.272852, "lon": 44.8293675, "tags": {"alt_name": "\u0639\u0631\u0643\u0648\u0628 \u0627\u0644\u062d\u0648\u0631\u064a\u0629", "int_name": "\u0639\u0631\u0643\u0648\u0628 \u0627\u0644\u062d\u0648\u0631\u064a\u0629, \u0639\u0631\u0643\u0648\u0628 \u0627\u0644\u062d\u0648\u0631\u064a\u0629", "is_in": "Iraq , \u062c\u0645\u0647\u0648\u0631\u064a\u0629 \u0627\u0644\u0639\u0631\u0627\u0642", "name": "\u0639\u0631\u0643\u0648\u0628 \u0627\u0644\u062d\u0648\u0631\u064a\u0629", "name:ar": "\u0639\u0631\u0643\u0648\u0628 \u0627\u0644\u062d\u0648\u0631\u064a\u0629", "name:ar1": "\u0639\u0631\u0643\u0648\u0628 \u0627\u0644\u062d\u0648\u0631\u064a\u0629", "name:de": "\u0639\u0631\u0643\u0648\u0628 \u0627\u0644\u062d\u0648\u0631\u064a\u0629", "name:fr": "\u0639\u0631\u0643\u0648\u0628 \u0627\u0644\u062d\u0648\u0631\u064a\u0629", "place": "village"}}, {"type": "node", "id": 2485209608, "lat": 32.252193, "lon": 44.840805, "tags": {"alt_name": "\u0627\u0648\u0644\u0627\u062f \u0639\u0644\u064a\u0648\u064a \u0641\u0647\u062f", "int_name": "\u0627\u0648\u0644\u0627\u062f \u0639\u0644\u064a\u0648\u064a \u0641\u0647\u062f, \u0627\u0648\u0644\u0627\u062f \u0639\u0644\u064a\u0648\u064a \u0641\u0647\u062f", "is_in": "Iraq , \u062c\u0645\u0647\u0648\u0631\u064a\u0629 \u0627\u0644\u0639\u0631\u0627\u0642", "name": "\u0627\u0648\u0644\u0627\u062f \u0639\u0644\u064a\u0648\u064a \u0641\u0647\u062f", "name:ar": "\u0627\u0648\u0644\u0627\u062f \u0639\u0644\u064a\u0648\u064a \u0641\u0647\u062f", "name:ar1": "\u0627\u0648\u0644\u0627\u062f \u0639\u0644\u064a\u0648\u064a \u0641\u0647\u062f", "name:de": "\u0627\u0648\u0644\u0627\u062f \u0639\u0644\u064a\u0648\u064a \u0641\u0647\u062f", "name:en": "The sons of Aliwi Fahd", "name:fr": "\u0627\u0648\u0644\u0627\u062f \u0639\u0644\u064a\u0648\u064a \u0641\u0647\u062f", "place": "village"}}, {"type": "node", "id": 2485211945, "lat": 32.281233, "lon": 44.918086, "tags": {"alt_name": "\u0642\u0631\u064a\u0629 \u0632\u0627\u0645\u0644 \u0641\u064a\u0635\u0644", "int_name": "Qaryat Z\u0101mil Fay\u015fal, \u0642\u0631\u064a\u0629 \u0632\u0627\u0645\u0644 \u0641\u064a\u0635\u0644, Qaryat Zamil Faysal, \u0642\u0631\u064a\u0629 \u0632\u0627\u0645\u0644 \u0641\u064a\u0635\u0644", "name": "\u0642\u0631\u064a\u0629 \u0632\u0627\u0645\u0644 \u0641\u064a\u0635\u0644", "name:ar": "\u062a\u0642\u0627\u0637\u0639 \u0627\u0644\u0634\u0648\u0645\u0644\u064a", "name:ar1": "\u0642\u0631\u064a\u0629 \u0632\u0627\u0645\u0644 \u0641\u064a\u0635\u0644", "name:de": "Qaryat Zamil Faysal", "name:en": "Qaryat Zamil Faysal", "name:fr": "Qaryat Zamil Faysal", "place": "village"}}, {"type": "node", "id": 2485213565, "lat": 32.275209, "lon": 44.951058, "tags": {"alt_name": "\u0627\u0644\u062d\u0627\u062c \u0645\u062f\u0644\u0648\u0644 \u062d\u0645\u062f\u0627\u0646", "int_name": "Al \u1e28\u0101jj Madl\u016bl \u1e28amd\u0101n, \u0627\u0644\u062d\u0627\u062c \u0645\u062f\u0644\u0648\u0644 \u062d\u0645\u062f\u0627\u0646, Al Hajj Madlul Hamdan, \u0627\u0644\u062d\u0627\u062c \u0645\u062f\u0644\u0648\u0644 \u062d\u0645\u062f\u0627\u0646", "is_in": "Iraq , \u062c\u0645\u0647\u0648\u0631\u064a\u0629 \u0627\u0644\u0639\u0631\u0627\u0642", "name": "\u0627\u0644\u062d\u0627\u062c \u0645\u062f\u0644\u0648\u0644 \u062d\u0645\u062f\u0627\u0646", "name:ar": "\u0627\u0644\u062d\u0627\u062c \u0645\u062f\u0644\u0648\u0644 \u062d\u0645\u062f\u0627\u0646", "name:ar1": "\u0627\u0644\u062d\u0627\u062c \u0645\u062f\u0644\u0648\u0644 \u062d\u0645\u062f\u0627\u0646", "name:de": "Al Hajj Madlul Hamdan", "name:en": "Al Hajj Madlul Hamdan", "name:fr": "Al Hajj Madlul Hamdan", "place": "village"}}, {"type": "node", "id": 2485213584, "lat": 32.273619, "lon": 44.958493, "tags": {"alt_name": "\u0639\u0631\u0628 \u062f\u0627\u063a\u0631", "int_name": "Arab D\u0101ghir, \u0639\u0631\u0628 \u062f\u0627\u063a\u0631, Arab Daghir, \u0639\u0631\u0628 \u062f\u0627\u063a\u0631", "is_in": "Iraq , \u062c\u0645\u0647\u0648\u0631\u064a\u0629 \u0627\u0644\u0639\u0631\u0627\u0642", "name": "\u0639\u0631\u0628 \u062f\u0627\u063a\u0631", "name:ar": "\u0639\u0631\u0628 \u062f\u0627\u063a\u0631", "name:ar1": "\u0639\u0631\u0628 \u062f\u0627\u063a\u0631", "name:de": "Arab Daghir", "name:en": "Arab Daghir", "name:fr": "Arab Daghir", "place": "hamlet"}}, {"type": "node", "id": 2485213633, "lat": 32.28075, "lon": 44.953828, "tags": {"alt_name": "\u062c\u0645\u064a\u0644 \u0648\u0627\u062f\u064a", "int_name": "Jam\u012bl W\u0101d\u012b, \u062c\u0645\u064a\u0644 \u0648\u0627\u062f\u064a, Jamil Wadi, \u062c\u0645\u064a\u0644 \u0648\u0627\u062f\u064a", "is_in": "Iraq , \u062c\u0645\u0647\u0648\u0631\u064a\u0629 \u0627\u0644\u0639\u0631\u0627\u0642", "name": "\u062c\u0645\u064a\u0644 \u0648\u0627\u062f\u064a", "name:ar": "\u062c\u0645\u064a\u0644 \u0648\u0627\u062f\u064a", "name:ar1": "\u062c\u0645\u064a\u0644 \u0648\u0627\u062f\u064a", "name:de": "Jamil Wadi", "name:en": "Jamil Wadi", "name:fr": "Jamil Wadi", "place": "village"}}, {"type": "node", "id": 2485213669, "lat": 32.278692, "lon": 44.941875, "tags": {"alt_name": "\u0642\u0631\u064a\u0629 \u0627\u0644\u062c\u0633\u0627\u0628\u064a\u0629", "int_name": "Qaryat al Jas\u0101b\u012byah, \u0642\u0631\u064a\u0629 \u0627\u0644\u062c\u0633\u0627\u0628\u064a\u0629, Qaryat al Jasabiyah, \u0642\u0631\u064a\u0629 \u0627\u0644\u062c\u0633\u0627\u0628\u064a\u0629", "name": "\u0642\u0631\u064a\u0629 \u0627\u0644\u062c\u0633\u0627\u0628\u064a\u0629", "name:ar": "\u0642\u0631\u064a\u0629 \u0627\u0644\u062c\u0633\u0627\u0628\u064a\u0629", "name:ar1": "\u0642\u0631\u064a\u0629 \u0627\u0644\u062c\u0633\u0627\u0628\u064a\u0629", "name:de": "Qaryat al Jasabiyah", "name:en": "Qaryat al Jasabiyah", "name:fr": "Qaryat al Jasabiyah", "place": "village"}}, {"type": "node", "id": 2485213681, "lat": 32.287652, "lon": 44.944171, "tags": {"alt_name": "\u0633\u064a\u062f \u062c\u0648\u0627\u062f \u0631\u0632\u0627\u0645", "int_name": "Sayyid Jaw\u0101d Raz\u0101m, \u0633\u064a\u062f \u062c\u0648\u0627\u062f \u0631\u0632\u0627\u0645, Sayyid Jawad Razam, \u0633\u064a\u062f \u062c\u0648\u0627\u062f \u0631\u0632\u0627\u0645", "is_in": "Iraq , \u062c\u0645\u0647\u0648\u0631\u064a\u0629 \u0627\u0644\u0639\u0631\u0627\u0642", "name": "\u0633\u064a\u062f \u062c\u0648\u0627\u062f \u0631\u0632\u0627\u0645", "name:ar": "\u0633\u064a\u062f \u062c\u0648\u0627\u062f \u0631\u0632\u0627\u0645", "name:ar1": "\u0633\u064a\u062f \u062c\u0648\u0627\u062f \u0631\u0632\u0627\u0645", "name:de": "Sayyid Jawad Razam", "name:en": "Sayyid Jawad Razam", "name:fr": "Sayyid Jawad Razam", "place": "village"}}, {"type": "node", "id": 2485213708, "lat": 32.2758958, "lon": 44.9478362, "tags": {"alt_name": "\u0646\u0627\u0638\u0645 \u0634\u0643\u0648\u0631 \u0627\u0644\u062d\u0633\u0648\u0646", "int_name": "\u0646\u0627\u0638\u0645 \u0634\u0643\u0648\u0631 \u0627\u0644\u062d\u0633\u0648\u0646, \u0646\u0627\u0638\u0645 \u0634\u0643\u0648\u0631 \u0627\u0644\u062d\u0633\u0648\u0646", "is_in": "Iraq , \u062c\u0645\u0647\u0648\u0631\u064a\u0629 \u0627\u0644\u0639\u0631\u0627\u0642", "name": "\u0646\u0627\u0638\u0645 \u0634\u0643\u0648\u0631 \u0627\u0644\u062d\u0633\u0648\u0646", "name:ar": "\u0646\u0627\u0638\u0645 \u0634\u0643\u0648\u0631 \u0627\u0644\u062d\u0633\u0648\u0646", "name:ar1": "\u0646\u0627\u0638\u0645 \u0634\u0643\u0648\u0631 \u0627\u0644\u062d\u0633\u0648\u0646", "name:de": "\u0646\u0627\u0638\u0645 \u0634\u0643\u0648\u0631 \u0627\u0644\u062d\u0633\u0648\u0646", "name:fr": "\u0646\u0627\u0638\u0645 \u0634\u0643\u0648\u0631 \u0627\u0644\u062d\u0633\u0648\u0646", "place": "village"}}, {"type": "node", "id": 2485214108, "lat": 32.279993, "lon": 44.960837, "tags": {"alt_name": "\u062d\u0627\u0645\u062f \u0627\u0644\u0641\u0627\u0631\u0633", "int_name": "\u1e28\u0101mid al F\u0101ris, \u062d\u0627\u0645\u062f \u0627\u0644\u0641\u0627\u0631\u0633, Hamid al Faris, \u062d\u0627\u0645\u062f \u0627\u0644\u0641\u0627\u0631\u0633", "is_in": "Iraq , \u062c\u0645\u0647\u0648\u0631\u064a\u0629 \u0627\u0644\u0639\u0631\u0627\u0642", "name": "\u062d\u0627\u0645\u062f \u0627\u0644\u0641\u0627\u0631\u0633", "name:ar": "\u0633\u064a\u062f \u0633\u0627\u0644\u0645 \u0633\u062f\u062e\u0627\u0646 \u0627\u0644\u0627\u0639\u0631\u062c\u064a", "name:ar1": "\u062d\u0627\u0645\u062f \u0627\u0644\u0641\u0627\u0631\u0633", "name:de": "Hamid al Faris", "name:en": "Hamid al Faris", "name:fr": "Hamid al Faris", "place": "village"}}, {"type": "node", "id": 2485214132, "lat": 32.280875, "lon": 44.969285, "tags": {"alt_name": "\u0643\u0632\u0627\u0631 \u062c\u0628\u0631 \u0643\u0627\u0641\u064a", "int_name": "Kaz\u0101r Jabr K\u0101f\u012b, \u0643\u0632\u0627\u0631 \u062c\u0628\u0631 \u0643\u0627\u0641\u064a, Kazar Jabr Kafi, \u0643\u0632\u0627\u0631 \u062c\u0628\u0631 \u0643\u0627\u0641\u064a", "is_in": "Iraq , \u062c\u0645\u0647\u0648\u0631\u064a\u0629 \u0627\u0644\u0639\u0631\u0627\u0642", "name": "\u0643\u0632\u0627\u0631 \u062c\u0628\u0631 \u0643\u0627\u0641\u064a", "name:ar": "\u0643\u0632\u0627\u0631 \u062c\u0628\u0631 \u0643\u0627\u0641\u064a", "name:ar1": "\u0643\u0632\u0627\u0631 \u062c\u0628\u0631 \u0643\u0627\u0641\u064a", "name:de": "Kazar Jabr Kafi", "name:en": "Kazar Jabr Kafi", "name:fr": "Kazar Jabr Kafi", "place": "village"}}, {"type": "node", "id": 2485214178, "lat": 32.277632, "lon": 44.968326, "tags": {"alt_name": "\u0642\u0631\u064a\u0629 \u0635\u0644\u064a\u0648\u0627\u0646 \u0631\u0627\u0647\u064a", "int_name": "Qaryat \u015eulayw\u0101n R\u0101h\u012b, \u0642\u0631\u064a\u0629 \u0635\u0644\u064a\u0648\u0627\u0646 \u0631\u0627\u0647\u064a, Qaryat Sulaywan Rahi, \u0642\u0631\u064a\u0629 \u0635\u0644\u064a\u0648\u0627\u0646 \u0631\u0627\u0647\u064a", "name": "\u0642\u0631\u064a\u0629 \u0635\u0644\u064a\u0648\u0627\u0646 \u0631\u0627\u0647\u064a", "name:ar": "\u0627\u0644\u0633\u0627\u062f\u0629 \u0627\u0644\u0645\u0646\u0627\u0635\u064a\u0631 \u0627\u0644\u0627\u0639\u0631\u062c\u064a\u0629", "name:ar1": "\u0642\u0631\u064a\u0629 \u0635\u0644\u064a\u0648\u0627\u0646 \u0631\u0627\u0647\u064a", "name:de": "Qaryat Sulaywan Rahi", "name:en": "Qaryat Sulaywan Rahi", "name:fr": "Qaryat Sulaywan Rahi", "place": "village"}}, {"type": "node", "id": 2485216401, "lat": 32.283388, "lon": 44.981057, "tags": {"alt_name": "\u062c\u0627\u0633\u0645 \u0643\u0627\u0638\u0645", "int_name": "J\u0101sim K\u0101z\u0327im, \u062c\u0627\u0633\u0645 \u0643\u0627\u0638\u0645, Jasim Kazim, \u062c\u0627\u0633\u0645 \u0643\u0627\u0638\u0645", "is_in": "Iraq , \u062c\u0645\u0647\u0648\u0631\u064a\u0629 \u0627\u0644\u0639\u0631\u0627\u0642", "name": "\u062c\u0627\u0633\u0645 \u0643\u0627\u0638\u0645", "name:ar": "\u062c\u0627\u0633\u0645 \u0643\u0627\u0638\u0645", "name:ar1": "\u062c\u0627\u0633\u0645 \u0643\u0627\u0638\u0645", "name:de": "Jasim Kazim", "name:en": "Jasim Kazim", "name:fr": "Jasim Kazim", "place": "village"}}, {"type": "node", "id": 2485216455, "lat": 32.283876, "lon": 44.986832, "tags": {"alt_name": "\u0642\u0644\u0639\u0629 \u062d\u0645\u062f \u0627\u0644\u0641\u0627\u0631\u0633", "int_name": "Qalat \u1e28amad al F\u0101ris, \u0642\u0644\u0639\u0629 \u062d\u0645\u062f \u0627\u0644\u0641\u0627\u0631\u0633, Qalat Hamad al Faris, \u0642\u0644\u0639\u0629 \u062d\u0645\u062f \u0627\u0644\u0641\u0627\u0631\u0633", "is_in": "Iraq , \u062c\u0645\u0647\u0648\u0631\u064a\u0629 \u0627\u0644\u0639\u0631\u0627\u0642", "name": "\u0642\u0644\u0639\u0629 \u062d\u0645\u062f \u0627\u0644\u0641\u0627\u0631\u0633", "name:ar": "\u0642\u0644\u0639\u0629 \u062d\u0645\u062f \u0627\u0644\u0641\u0627\u0631\u0633", "name:ar1": "\u0642\u0644\u0639\u0629 \u062d\u0645\u062f \u0627\u0644\u0641\u0627\u0631\u0633", "name:de": "Qalat Hamad al Faris", "name:en": "Qalat Hamad al Faris", "name:fr": "Qalat Hamad al Faris", "place": "village"}}, {"type": "node", "id": 2485216514, "lat": 32.292815, "lon": 44.976104, "tags": {"alt_name": "\u0639\u0628\u064a\u062f \u0627\u0644\u062d\u064a", "int_name": "Ubayd al \u1e28ayy, \u0639\u0628\u064a\u062f \u0627\u0644\u062d\u064a, Ubayd al Hayy, \u0639\u0628\u064a\u062f \u0627\u0644\u062d\u064a", "is_in": "Iraq , \u062c\u0645\u0647\u0648\u0631\u064a\u0629 \u0627\u0644\u0639\u0631\u0627\u0642", "name": "\u0639\u0628\u064a\u062f \u0627\u0644\u062d\u064a", "name:ar": "\u0639\u0628\u064a\u062f \u0627\u0644\u062d\u064a", "name:ar1": "\u0639\u0628\u064a\u062f \u0627\u0644\u062d\u064a", "name:de": "Ubayd al Hayy", "name:en": "Ubayd al Hayy", "name:fr": "Ubayd al Hayy", "place": "village"}}, {"type": "node", "id": 2485224852, "lat": 32.387935, "lon": 45.017553, "tags": {"alt_name": "\u0627\u0644\u062c\u0647\u0627\u0631\u064a\u0633", "int_name": "Al Jah\u0101r\u012bs, \u0627\u0644\u062c\u0647\u0627\u0631\u064a\u0633, Al Jaharis, \u0627\u0644\u062c\u0647\u0627\u0631\u064a\u0633", "is_in": "Iraq , \u062c\u0645\u0647\u0648\u0631\u064a\u0629 \u0627\u0644\u0639\u0631\u0627\u0642", "name": "\u0627\u0644\u062c\u0647\u0627\u0631\u064a\u0633", "name:ar": "\u0627\u0644\u062c\u0647\u0627\u0631\u064a\u0633", "name:ar1": "\u0627\u0644\u062c\u0647\u0627\u0631\u064a\u0633", "name:de": "Al Jaharis", "name:en": "Al Jaharis", "name:fr": "Al Jaharis", "place": "village"}}, {"type": "node", "id": 2485224859, "lat": 32.327116, "lon": 44.9164965, "tags": {"alt_name": "Al Showmaly, Ash Shawmal\u012b, Ash Sh\u016bmal\u012b, Shomeli, \u0627\u0644\u0634\u0648\u0645\u0644\u064a, Al Showmaly, Ash Shawmali, Ash Shumali, Shomeli, \u0627\u0644\u0634\u0648\u0645\u0644\u064a", "capital": "7", "name": "\u0627\u0644\u0634\u0648\u0645\u0644\u064a", "name:ar": "\u0627\u0644\u0634\u0648\u0645\u0644\u064a", "name:de": "Shomeli", "name:en": "Ash Shawmal\u012b", "name:fr": "Shomeli", "name:ml": "\u0d05\u0d7d-\u0d37\u0d57\u0d2e\u0d32\u0d3f", "place": "city", "wikidata": "Q12189155", "wikipedia": "ar:\u0627\u0644\u0634\u0648\u0645\u0644\u064a"}}, {"type": "node", "id": 2485224869, "lat": 32.301907, "lon": 44.835453, "tags": {"alt_name": "\u0622\u0644 \u0628\u0648 \u0633\u0647\u064a\u0644", "int_name": "\u0100lb\u016b Suhayl, \u0627\u0644\u0628\u0648 \u0633\u0647\u064a\u0644, Albu Suhayl, \u0627\u0644\u0628\u0648 \u0633\u0647\u064a\u0644", "is_in": "Iraq , \u062c\u0645\u0647\u0648\u0631\u064a\u0629 \u0627\u0644\u0639\u0631\u0627\u0642", "name": "\u0622\u0644 \u0628\u0648 \u0633\u0647\u064a\u0644 .... \u062d\u0633\u064a\u0646 \u0639\u0628\u062f \u0627\u0644\u0627\u0645\u064a\u0631 \u0627\u0644\u062e\u0634\u0641", "name:ab": "\u062d\u0633\u064a\u0646 \u0639\u0628\u062f \u0627\u0644\u0627\u0645\u064a\u0631 \u0627\u0644\u062e\u0634\u0641", "name:ar": "Albu Suhayl", "name:ar1": "\u0622\u0644 \u0628\u0648 \u0633\u0647\u064a\u0644", "name:en": "Albu Suhayl", "name:fr": "Albu Suhayl", "place": "village"}}, {"type": "node", "id": 2485225243, "lat": 32.270697, "lon": 44.980387, "tags": {"alt_name": "\u062d\u0627\u062a\u0645 \u062d\u0635\u064a\u0646\u064a", "int_name": "\u1e28\u0101tim \u1e28u\u015fayn\u012b, \u062d\u0627\u062a\u0645 \u062d\u0635\u064a\u0646\u064a, Hatim Husayni, \u062d\u0627\u062a\u0645 \u062d\u0635\u064a\u0646\u064a", "is_in": "Iraq , \u062c\u0645\u0647\u0648\u0631\u064a\u0629 \u0627\u0644\u0639\u0631\u0627\u0642", "name": "\u062d\u0627\u062a\u0645 \u062d\u0635\u064a\u0646\u064a", "name:ar": "\u062d\u0627\u062a\u0645 \u062d\u0635\u064a\u0646\u064a", "name:ar1": "\u062d\u0627\u062a\u0645 \u062d\u0635\u064a\u0646\u064a", "name:de": "Hatim Husayni", "name:en": "Hatim Husayni", "name:fr": "Hatim Husayni", "place": "village"}}, {"type": "node", "id": 2485225847, "lat": 32.344303, "lon": 44.84517, "tags": {"alt_name": "\u0642\u0631\u064a\u0629 \u0627\u0644\u0628\u0631\u0627\u0643\u0633\u0629", "int_name": "Qaryat al Bar\u0101kisah, \u0642\u0631\u064a\u0629 \u0627\u0644\u0628\u0631\u0627\u0643\u0633\u0629, Qaryat al Barakisah, \u0642\u0631\u064a\u0629 \u0627\u0644\u0628\u0631\u0627\u0643\u0633\u0629", "name": "\u0642\u0631\u064a\u0629 \u0627\u0644\u0628\u0631\u0627\u0643\u0633\u0629", "name:ar": "\u0642\u0631\u064a\u0629 \u0627\u0644\u0628\u0631\u0627\u0643\u064a\u0629", "name:ar1": "\u0642\u0631\u064a\u0629 \u0627\u0644\u0628\u0631\u0627\u0643\u0633\u0629", "name:de": "Qaryat al Barakisah", "name:en": "Qaryat al Barakisah", "name:fr": "Qaryat al Barakisah", "place": "village"}}, {"type": "node", "id": 2485225900, "lat": 32.318649, "lon": 44.845718, "tags": {"alt_name": "\u0631\u0633\u0646 \u0627\u0644\u0646\u0627\u0638\u0645", "int_name": "Rasan an N\u0101z\u0327im, \u0631\u0633\u0646 \u0627\u0644\u0646\u0627\u0638\u0645, Rasan an Nazim, \u0631\u0633\u0646 \u0627\u0644\u0646\u0627\u0638\u0645", "is_in": "Iraq , \u062c\u0645\u0647\u0648\u0631\u064a\u0629 \u0627\u0644\u0639\u0631\u0627\u0642", "name": "\u0631\u0633\u0646 \u0627\u0644\u0646\u0627\u0638\u0645", "name:ar": "\u0631\u0633\u0646 \u0627\u0644\u0646\u0627\u0638\u0645", "name:ar1": "\u0631\u0633\u0646 \u0627\u0644\u0646\u0627\u0638\u0645", "name:de": "Rasan an Nazim", "name:en": "Rasan an Nazim", "name:fr": "Rasan an Nazim", "place": "village"}}, {"type": "node", "id": 2485226003, "lat": 32.3931468, "lon": 44.8984093, "tags": {"alt_name": "\u0639\u0628\u062f \u0627\u0644\u0645\u062d\u0633\u0646 \u0627\u0645\u064a\u0631", "int_name": "\u0639\u0628\u062f \u0627\u0644\u0645\u062d\u0633\u0646 \u0627\u0645\u064a\u0631, \u0639\u0628\u062f \u0627\u0644\u0645\u062d\u0633\u0646 \u0627\u0645\u064a\u0631", "is_in": "Iraq , \u062c\u0645\u0647\u0648\u0631\u064a\u0629 \u0627\u0644\u0639\u0631\u0627\u0642", "name": "\u0639\u0628\u062f \u0627\u0644\u0645\u062d\u0633\u0646 \u0627\u0645\u064a\u0631", "name:ar": "\u0639\u0628\u062f \u0627\u0644\u0645\u062d\u0633\u0646 \u0627\u0645\u064a\u0631", "name:ar1": "\u0639\u0628\u062f \u0627\u0644\u0645\u062d\u0633\u0646 \u0627\u0645\u064a\u0631", "name:de": "\u0639\u0628\u062f \u0627\u0644\u0645\u062d\u0633\u0646 \u0627\u0645\u064a\u0631", "name:en": "Abdul Mohsen Amir", "name:fr": "\u0639\u0628\u062f \u0627\u0644\u0645\u062d\u0633\u0646 \u0627\u0645\u064a\u0631", "place": "village"}}, {"type": "node", "id": 2485226004, "lat": 32.3525563, "lon": 44.8543156, "tags": {"alt_name": "\u0639\u0631\u0643\u0648\u0628 \u0627\u0644\u0633\u064a\u0628", "int_name": "\u0639\u0631\u0643\u0648\u0628 \u0627\u0644\u0633\u064a\u0628, \u0639\u0631\u0643\u0648\u0628 \u0627\u0644\u0633\u064a\u0628", "is_in": "Iraq , \u062c\u0645\u0647\u0648\u0631\u064a\u0629 \u0627\u0644\u0639\u0631\u0627\u0642", "name": "\u0639\u0631\u0643\u0648\u0628 \u0627\u0644\u0633\u064a\u0628", "name:ar": "\u0639\u0631\u0643\u0648\u0628 \u0627\u0644\u0633\u064a\u0628", "name:ar1": "\u0639\u0631\u0643\u0648\u0628 \u0627\u0644\u0633\u064a\u0628", "place": "village"}}, {"type": "node", "id": 2485226006, "lat": 32.2694826, "lon": 45.0277167, "tags": {"alt_name": "\u0641\u0646\u062a\u0627\u0634 \u0648 \u0643\u0627\u0637\u0639 \u0627\u0644 \u0639\u0628\u064a\u062f", "int_name": "\u0641\u0646\u062a\u0627\u0634 \u0648 \u0643\u0627\u0637\u0639 \u0627\u0644 \u0639\u0628\u064a\u062f, \u0641\u0646\u062a\u0627\u0634 \u0648 \u0643\u0627\u0637\u0639 \u0627\u0644 \u0639\u0628\u064a\u062f", "is_in": "Iraq , \u062c\u0645\u0647\u0648\u0631\u064a\u0629 \u0627\u0644\u0639\u0631\u0627\u0642", "name": "\u0641\u0646\u062a\u0627\u0634 \u0648 \u0643\u0627\u0637\u0639 \u0627\u0644 \u0639\u0628\u064a\u062f", "name:ar": "\u0641\u0646\u062a\u0627\u0634 \u0648 \u0643\u0627\u0637\u0639 \u0627\u0644 \u0639\u0628\u064a\u062f", "name:ar1": "\u0641\u0646\u062a\u0627\u0634 \u0648 \u0643\u0627\u0637\u0639 \u0627\u0644 \u0639\u0628\u064a\u062f", "name:de": "\u0641\u0646\u062a\u0627\u0634 \u0648 \u0643\u0627\u0637\u0639 \u0627\u0644 \u0639\u0628\u064a\u062f", "name:fr": "\u0641\u0646\u062a\u0627\u0634 \u0648 \u0643\u0627\u0637\u0639 \u0627\u0644 \u0639\u0628\u064a\u062f", "place": "village"}}, {"type": "node", "id": 2485226011, "lat": 32.299454, "lon": 44.833902, "tags": {"alt_name": "\u064a\u062d\u0649 \u0627\u0644\u0648\u0631\u062f", "int_name": "\u064a\u062d\u0649 \u0627\u0644\u0648\u0631\u062f, \u064a\u062d\u0649 \u0627\u0644\u0648\u0631\u062f", "is_in": "Iraq , \u062c\u0645\u0647\u0648\u0631\u064a\u0629 \u0627\u0644\u0639\u0631\u0627\u0642", "name": "\u064a\u062d\u0649 \u0627\u0644\u0648\u0631\u062f", "name:ar": "\u064a\u062d\u0649 \u0627\u0644\u0648\u0631\u062f", "name:ar1": "\u064a\u062d\u0649 \u0627\u0644\u0648\u0631\u062f", "name:de": "\u064a\u062d\u0649 \u0627\u0644\u0648\u0631\u062f", "name:fr": "\u064a\u062d\u0649 \u0627\u0644\u0648\u0631\u062f", "place": "village"}}, {"type": "node", "id": 2485227669, "lat": 32.281071, "lon": 44.810545, "tags": {"alt_name": "\u0627\u0644\u0639\u0645\u064a\u0629", "int_name": "Al Am\u012byah, \u0627\u0644\u0639\u0645\u064a\u0629, Al Amiyah, \u0627\u0644\u0639\u0645\u064a\u0629", "is_in": "Iraq , \u062c\u0645\u0647\u0648\u0631\u064a\u0629 \u0627\u0644\u0639\u0631\u0627\u0642", "name": "\u0627\u0644\u0639\u0645\u064a\u0629", "name:ar": "\u0627\u0644\u0628\u063a\u0636\u064a\u0628", "name:ar1": "\u0627\u0644\u0639\u0645\u064a\u0629", "name:de": "Al Amiyah", "name:en": "Al Amiyah", "name:fr": "Al Amiyah", "place": "village"}}, {"type": "node", "id": 2485227684, "lat": 32.354909, "lon": 44.777591, "tags": {"alt_name": "\u0622\u0644 \u0628\u0648 \u0635\u0639\u0628\u0631", "int_name": "\u0100lb\u016b \u015eabar, \u0627\u0644\u0628\u0648 \u0635\u0639\u0628\u0631, Albu Sabar, \u0627\u0644\u0628\u0648 \u0635\u0639\u0628\u0631", "is_in": "Iraq , \u062c\u0645\u0647\u0648\u0631\u064a\u0629 \u0627\u0644\u0639\u0631\u0627\u0642", "name": "\u0622\u0644 \u0628\u0648 \u0635\u0639\u0628\u0631", "name:ar": "\u0627\u0644\u0633\u0627\u062f\u0647 \u0622\u0644\u0628\u0648\u0633\u0639\u0628\u0631", "name:ar1": "\u0622\u0644 \u0628\u0648 \u0635\u0639\u0628\u0631", "name:de": "Albu Sabar", "name:en": "Albu Sabar", "name:fr": "Albu Sabar", "place": "village"}}, {"type": "node", "id": 2485228104, "lat": 32.3357373, "lon": 44.7549564, "tags": {"alt_name": "\u0642\u0631\u064a\u0629 \u0635\u0627\u0644\u062d \u0627\u0644\u0645\u062d\u062f\u064a", "int_name": "\u0642\u0631\u064a\u0629 \u0635\u0627\u0644\u062d \u0627\u0644\u0645\u0647\u062f\u064a, \u0642\u0631\u064a\u0629 \u0635\u0627\u0644\u062d \u0627\u0644\u0645\u0647\u062f\u064a;Qaryat \u015e\u0101li\u1e29 al Ma\u1e29d\u012b, Qaryat Salih al Mahdi", "name": "\u0642\u0631\u064a\u0629 \u0635\u0627\u0644\u062d \u0627\u0644\u0645\u062d\u062f\u064a", "name:ar": "\u0642\u0631\u064a\u0629 \u0635\u0627\u0644\u062d \u0627\u0644\u0645\u062d\u062f\u064a", "name:ar1": "\u0642\u0631\u064a\u0629 \u0635\u0627\u0644\u062d \u0627\u0644\u0645\u0647\u062f\u064a", "name:de": "Qaryat Salih al Mahdi", "name:en": "Qaryat Salih al Mahdi", "name:fr": "Qaryat Salih al Mahdi", "place": "village"}}, {"type": "node", "id": 2485228111, "lat": 32.375953, "lon": 44.719821, "tags": {"alt_name": "\u0642\u0631\u064a\u0629 \u0627\u0644\u0642\u064a\u0627\u0633", "int_name": "Qaryat al Qiy\u0101s, \u0642\u0631\u064a\u0629 \u0627\u0644\u0642\u064a\u0627\u0633, Qaryat al Qiyas, \u0642\u0631\u064a\u0629 \u0627\u0644\u0642\u064a\u0627\u0633", "name": "\u0642\u0631\u064a\u0629 \u0627\u0644\u0642\u064a\u0627\u0633", "name:ar": "\u0642\u0631\u064a\u0629 \u0627\u0644\u062a\u064a\u0627\u0633", "name:ar1": "\u0642\u0631\u064a\u0629 \u0627\u0644\u0642\u064a\u0627\u0633", "name:de": "Qaryat al Qiyas", "name:en": "Qaryat al Tiyas", "name:fr": "Qaryat al Qiyas", "place": "village"}}, {"type": "node", "id": 2485228113, "lat": 32.359154, "lon": 44.785818, "tags": {"alt_name": "\u0642\u0631\u064a\u0629 \u0627\u0644\u0632\u0628\u0627\u0631", "int_name": "Qaryat az Zib\u0101r, \u0642\u0631\u064a\u0629 \u0627\u0644\u0632\u0628\u0627\u0631, Qaryat az Zibar, \u0642\u0631\u064a\u0629 \u0627\u0644\u0632\u0628\u0627\u0631", "name": "\u0642\u0631\u064a\u0629 \u0627\u0644\u0632\u0628\u0627\u0631", "name:ar": "\u0642\u0631\u064a\u0629 \u0627\u0644\u0632\u0628\u0627\u06311653", "name:ar1": "\u0642\u0631\u064a\u0629 \u0627\u0644\u0632\u0628\u0627\u0631", "name:de": "Qaryat az Zibar", "name:en": "Qaryat az Zibar", "name:fr": "Qaryat az Zibar", "place": "village"}}, {"type": "node", "id": 2485228280, "lat": 32.3930165, "lon": 44.7516214, "tags": {"alt_name": "\u0627\u0644 \u0641\u064a\u0627\u062d", "int_name": "\u0627\u0644 \u0641\u064a\u0627\u062d, \u0627\u0644 \u0641\u064a\u0627\u062d", "is_in": "Iraq , \u062c\u0645\u0647\u0648\u0631\u064a\u0629 \u0627\u0644\u0639\u0631\u0627\u0642", "name": "\u0627\u0644 \u0641\u064a\u0627\u062d", "name:ar": "\u0627\u0644 \u0641\u064a\u0627\u062d", "name:ar1": "\u0627\u0644 \u0641\u064a\u0627\u062d", "place": "village"}}, {"type": "node", "id": 2485228282, "lat": 32.3985545, "lon": 44.7807234, "tags": {"alt_name": "\u0627\u0648\u0644\u0627\u062f \u062d\u0633\u064a\u0646 \u0627\u0644\u0639\u0628\u062f", "is_in": "Iraq , \u062c\u0645\u0647\u0648\u0631\u064a\u0629 \u0627\u0644\u0639\u0631\u0627\u0642", "name": "\u0627\u0648\u0644\u0627\u062f \u062d\u0633\u064a\u0646 \u0627\u0644\u0639\u0628\u062f", "name:ar": "\u0627\u0648\u0644\u0627\u062f \u062d\u0633\u064a\u0646 \u0627\u0644\u0639\u0628\u062f", "name:ar1": "\u0627\u0648\u0644\u0627\u062f \u062d\u0633\u064a\u0646 \u0627\u0644\u0639\u0628\u062f", "place": "hamlet"}}, {"type": "node", "id": 2485228286, "lat": 32.2524948, "lon": 44.7671638, "tags": {"alt_name": "\u0642\u0631\u064a\u0629 \u0627\u0644 \u0634\u0643\u0631\u064a", "int_name": "\u0642\u0631\u064a\u0629 \u0627\u0644 \u0634\u0643\u0631\u064a, \u0642\u0631\u064a\u0629 \u0627\u0644 \u0634\u0643\u0631\u064a", "name": "\u0642\u0631\u064a\u0629 \u0627\u0644 \u0634\u0643\u0631\u064a", "name:ar": "\u0642\u0631\u064a\u0629 \u0627\u0644 \u0634\u0643\u0631\u064a", "name:ar1": "\u0642\u0631\u064a\u0629 \u0627\u0644 \u0634\u0643\u0631\u064a", "place": "village"}}, {"type": "node", "id": 2485228287, "lat": 32.3892751, "lon": 44.7620447, "tags": {"alt_name": "\u0642\u0631\u064a\u0629 \u0627\u0644 \u0641\u0631\u062c", "int_name": "\u0642\u0631\u064a\u0629 \u0627\u0644 \u0641\u0631\u062c, \u0642\u0631\u064a\u0629 \u0627\u0644 \u0641\u0631\u062c", "name": "\u0642\u0631\u064a\u0629 \u0627\u0644 \u0641\u0631\u062c", "name:ar": "\u0642\u0631\u064a\u0629 \u0627\u0644 \u0641\u0631\u062c", "name:ar1": "\u0642\u0631\u064a\u0629 \u0627\u0644 \u0641\u0631\u062c", "name:de": "\u0642\u0631\u064a\u0629 \u0627\u0644 \u0641\u0631\u062c", "name:fr": "\u0642\u0631\u064a\u0629 \u0627\u0644 \u0641\u0631\u062c", "place": "village"}}, {"type": "node", "id": 2485228288, "lat": 32.2653074, "lon": 44.8086875, "tags": {"alt_name": "\u0642\u0631\u064a\u0629 \u0627\u0648\u0644\u0627\u062f \u0643\u0627\u0638\u0645 \u0630\u064a\u0627\u0628", "int_name": "\u0642\u0631\u064a\u0629 \u0627\u0648\u0644\u0627\u062f \u0643\u0627\u0638\u0645 \u0630\u064a\u0627\u0628, \u0642\u0631\u064a\u0629 \u0627\u0648\u0644\u0627\u062f \u0643\u0627\u0638\u0645 \u0630\u064a\u0627\u0628", "name": "\u0642\u0631\u064a\u0629 \u0627\u0648\u0644\u0627\u062f \u0643\u0627\u0638\u0645 \u0630\u064a\u0627\u0628", "name:ar": "\u0642\u0631\u064a\u0629 \u0627\u0648\u0644\u0627\u062f \u0643\u0627\u0638\u0645 \u0630\u064a\u0627\u0628", "name:ar1": "\u0642\u0631\u064a\u0629 \u0627\u0648\u0644\u0627\u062f \u0643\u0627\u0638\u0645 \u0630\u064a\u0627\u0628", "name:de": "\u0642\u0631\u064a\u0629 \u0627\u0648\u0644\u0627\u062f \u0643\u0627\u0638\u0645 \u0630\u064a\u0627\u0628", "name:fr": "\u0642\u0631\u064a\u0629 \u0627\u0648\u0644\u0627\u062f \u0643\u0627\u0638\u0645 \u0630\u064a\u0627\u0628", "place": "village"}}, {"type": "node", "id": 2485242294, "lat": 32.1512878, "lon": 44.9991846, "tags": {"alt_name": "S\u016bmar, \u0646\u0627\u062d\u064a\u0629 \u0633\u0648\u0645\u0631, Nahiyat Sumar, \u0646\u0627\u062d\u064a\u0629 \u0633\u0648\u0645\u0631", "capital": "7", "is_in": "Iraq , \u062c\u0645\u0647\u0648\u0631\u064a\u0629 \u0627\u0644\u0639\u0631\u0627\u0642", "is_in:country": "Iraq", "is_in:country_code": "IQ", "name": "\u0633\u0648\u0645\u0631", "name:ar": "\u0633\u0648\u0645\u0631", "name:de": "Sumar", "name:en": "Sumar", "name:fr": "Sumar", "place": "city"}}, {"type": "node", "id": 2485243014, "lat": 32.1445607, "lon": 45.0082409, "tags": {"alt_name": "\u0642\u0644\u0639\u0629 \u0622\u0644 \u0634\u062c\u064a\u0631", "int_name": "Qala Shakh\u012br, Qalat \u0100l Shaj\u012br, Qalat Shakh\u012br, Qala Shakhir, Qalat Al Shajir, Qalat Shakhir", "is_in": "Iraq , \u062c\u0645\u0647\u0648\u0631\u064a\u0629 \u0627\u0644\u0639\u0631\u0627\u0642", "name": "\u0646\u0627\u062d\u064a\u0629 \u0633\u0648\u0645\u0631", "name:ar": "\u0646\u0627\u062d\u064a\u0629 \u0633\u0648\u0645\u0631", "name:ar1": "\u0642\u0644\u0639\u0629 \u0622\u0644 \u0634\u062c\u064a\u0631", "name:de": "Sumer Town", "name:en": "Sumer Town", "name:fr": "Sumer Town", "place": "town"}}, {"type": "node", "id": 2485243070, "lat": 32.403157, "lon": 45.040292, "tags": {"alt_name": "\u0642\u0631\u064a\u0629 \u0623\u0628\u0648 \u0628\u0648\u0631\u064a\u0629", "int_name": "Qaryat Ab\u016b B\u016br\u012byah, \u0642\u0631\u064a\u0629 \u0627\u0628\u0648 \u0628\u0648\u0631\u064a\u0629, Qaryat Abu Buriyah, \u0642\u0631\u064a\u0629 \u0627\u0628\u0648 \u0628\u0648\u0631\u064a\u0629", "name": "\u0642\u0631\u064a\u0629 \u0623\u0628\u0648 \u0628\u0648\u0631\u064a\u0629", "name:ar": "\u0642\u0631\u064a\u0629 \u0623\u0628\u0648 \u0628\u0648\u0631\u064a\u0629", "name:ar1": "\u0642\u0631\u064a\u0629 \u0623\u0628\u0648 \u0628\u0648\u0631\u064a\u0629", "name:de": "Qaryat Abu Buriyah", "name:en": "Qaryat Abu Buriyah", "name:fr": "Qaryat Abu Buriyah", "place": "village"}}, {"type": "node", "id": 2486182852, "lat": 32.279802, "lon": 44.572645, "tags": {"alt_name": "\u0639\u0628\u062f \u0627\u0644\u0644\u0647 \u062f\u0647\u0634", "int_name": "Abd All\u0101h Dahsh, \u0639\u0628\u062f \u0627\u0644\u0644\u0647 \u062f\u0647\u0634, Abd Allah Dahsh, \u0639\u0628\u062f \u0627\u0644\u0644\u0647 \u062f\u0647\u0634", "is_in": "Iraq , \u062c\u0645\u0647\u0648\u0631\u064a\u0629 \u0627\u0644\u0639\u0631\u0627\u0642", "name": "\u0639\u0628\u062f \u0627\u0644\u0644\u0647 \u062f\u0647\u0634", "name:ar": "\u0639\u0628\u062f \u0627\u0644\u0644\u0647 \u062f\u0647\u0634", "name:ar1": "\u0639\u0628\u062f \u0627\u0644\u0644\u0647 \u062f\u0647\u0634", "name:de": "Abd Allah Dahsh", "name:en": "Abd Allah Dahsh", "name:fr": "Abd Allah Dahsh", "place": "hamlet"}}, {"type": "node", "id": 2486183269, "lat": 32.3684518, "lon": 44.656349, "tags": {"alt_name": "Al Hashimiya, Al H\u0101shim\u012byah, Hashimiyah, \u0627\u0644\u0647\u0627\u0634\u0645\u064a\u0629, Al Hashimiya, Al Hashimiyah, Hashimiyah, \u0627\u0644\u0647\u0627\u0634\u0645\u064a\u0629", "capital": "6", "int_name": "Al Hashimiya - \u0627\u0644\u0647\u0627\u0634\u0645\u064a\u0629", "is_in": "Iraq , \u062c\u0645\u0647\u0648\u0631\u064a\u0629 \u0627\u0644\u0639\u0631\u0627\u0642", "name": "\u0627\u0644\u0647\u0627\u0634\u0645\u064a\u0629", "name:ar": "\u0627\u0644\u0647\u0627\u0634\u0645\u064a\u0629", "name:de": "Al Hashimiya", "name:en": "Al Hashimiya", "name:fr": "Al Hashimiya", "name:ru": "\u042d\u043b\u044c-\u0425\u0430\u0448\u0438\u043c\u0438\u044f", "place": "town", "wikidata": "Q4531414", "wikipedia": "en:Al Hashimiyah"}}, {"type": "node", "id": 2486183282, "lat": 32.295032, "lon": 44.663275, "tags": {"alt_name": "\u0627\u0644\u062c\u0646\u0627\u064a\u0627\u062a", "int_name": "Al Jin\u0101y\u0101t, \u0627\u0644\u062c\u0646\u0627\u064a\u0627\u062a, Al Jinayat, \u0627\u0644\u062c\u0646\u0627\u064a\u0627\u062a", "is_in": "Iraq , \u062c\u0645\u0647\u0648\u0631\u064a\u0629 \u0627\u0644\u0639\u0631\u0627\u0642", "name": "\u0627\u0644\u062c\u0646\u0627\u0628\u0627\u062a", "name:ar": "\u0627\u0644\u062c\u0646\u0627\u064a\u0627\u062a", "name:ar1": "\u0627\u0644\u062c\u0646\u0627\u064a\u0627\u062a", "name:de": "Al Jinayat", "name:en": "Al Jinayat", "name:fr": "Al Jinayat", "place": "village"}}, {"type": "node", "id": 2486183301, "lat": 32.297993, "lon": 44.682816, "tags": {"alt_name": "Al Q\u0101sim, Imam Qasim, N\u0101\u1e29iyat al Q\u0101sim, Q\u0101sim, \u0627\u0644\u0642\u0627\u0633\u0645, \u0646\u0627\u062d\u064a\u0629 \u0627\u0644\u0642\u0627\u0633\u0645, Al Qasim, Imam Qasim, Nahiyat al Qasim, Qasim, \u0627\u0644\u0642\u0627\u0633\u0645, \u0646\u0627\u062d\u064a\u0629 \u0627\u0644\u0642\u0627\u0633\u0645", "capital": "7", "long_name": "\u0642\u0636\u0627\u0621 \u0627\u0644\u0642\u0627\u0633\u0645", "long_name:ar": "\u0642\u0636\u0627\u0621 \u0627\u0644\u0642\u0627\u0633\u0645", "name": "\u0627\u0644\u0642\u0627\u0633\u0645", "name:ar": "\u0627\u0644\u0642\u0627\u0633\u0645", "name:az-Arab": "\u0627\u0644\u0642\u0627\u0633\u0645", "name:azb": "\u0627\u0644\u0642\u0627\u0633\u0645", "name:de": "Al-Qassim", "name:en": "Al Qasim", "name:es": "Alk\u00e1sim", "name:et": "Al-Q\u0101sim", "name:fa": "\u0627\u0644\u0642\u0627\u0633\u0645", "name:fr": "Al-Qassim", "name:hr": "Al-Kasim", "name:ur": "\u0627\u0644\u0642\u0627\u0633\u0645", "place": "city", "population": "157763", "population:date": "2014", "wikidata": "Q4120086", "wikipedia": "ar:\u0627\u0644\u0642\u0627\u0633\u0645 (\u0645\u062f\u064a\u0646\u0629)", "wikipedia:ar": "\u0627\u0644\u0642\u0627\u0633\u0645 (\u0645\u062f\u064a\u0646\u0629)"}}, {"type": "node", "id": 2486183305, "lat": 32.377464, "lon": 44.646826, "tags": {"alt_name": "\u0622\u0644 \u0628\u0648 \u0639\u0646\u0628\u0631", "int_name": "\u0100lb\u016b Anbar, \u0627\u0644\u0628\u0648 \u0639\u0646\u0628\u0631, Albu Anbar, \u0627\u0644\u0628\u0648 \u0639\u0646\u0628\u0631", "is_in": "Iraq , \u062c\u0645\u0647\u0648\u0631\u064a\u0629 \u0627\u0644\u0639\u0631\u0627\u0642", "name": "\u0642\u0631\u064a\u0629 \u0627\u0644\u0633\u0627\u062f\u0647 \u0622\u0644 \u0633\u0639\u0628\u0631", "name:ar": "\u0627\u0644\u0633\u0627\u062f\u0647 \u0627\u0653\u0644\u0640 \u0633\u0639\u0628\u0631", "name:ar1": "\u0622\u0644 \u0628\u0648 \u0639\u0646\u0628\u0631", "name:de": "Albu Anbar", "name:en": "Alsaabari", "name:fr": "Albu Anbar", "place": "village"}}, {"type": "node", "id": 2486183579, "lat": 32.297881, "lon": 44.562043, "tags": {"alt_name": "\u062d\u0633\u064a\u0646 \u062c\u0648\u0627\u062f", "int_name": "\u1e28usayn Jaw\u0101d, \u062d\u0633\u064a\u0646 \u062c\u0648\u0627\u062f, Husayn Jawad, \u062d\u0633\u064a\u0646 \u062c\u0648\u0627\u062f", "is_in": "Iraq , \u062c\u0645\u0647\u0648\u0631\u064a\u0629 \u0627\u0644\u0639\u0631\u0627\u0642", "name": "\u062d\u0633\u064a\u0646 \u062c\u0648\u0627\u062f", "name:ar": "\u062d\u0633\u064a\u0646 \u062c\u0648\u0627\u062f", "name:ar1": "\u062d\u0633\u064a\u0646 \u062c\u0648\u0627\u062f", "name:de": "Husayn Jawad", "name:en": "Husayn Jawad", "name:fr": "Husayn Jawad", "place": "hamlet"}}, {"type": "node", "id": 2486183599, "lat": 32.279601, "lon": 44.578238, "tags": {"alt_name": "\u0639\u064a\u062f \u0645\u062d\u0645\u062f \u0627\u0644\u0631\u0627\u0636\u064a", "int_name": "\u012ad Mu\u1e29ammad ar R\u0101\u1e11\u012b, \u0639\u064a\u062f \u0645\u062d\u0645\u062f \u0627\u0644\u0631\u0627\u0636\u064a, Id Muhammad ar Radi, \u0639\u064a\u062f \u0645\u062d\u0645\u062f \u0627\u0644\u0631\u0627\u0636\u064a", "is_in": "Iraq , \u062c\u0645\u0647\u0648\u0631\u064a\u0629 \u0627\u0644\u0639\u0631\u0627\u0642", "name": "\u0639\u064a\u062f \u0645\u062d\u0645\u062f \u0627\u0644\u0631\u0627\u0636\u064a", "name:ar": "\u0639\u064a\u062f \u0645\u062d\u0645\u062f \u0627\u0644\u0631\u0627\u0636\u064a", "name:ar1": "\u0639\u064a\u062f \u0645\u062d\u0645\u062f \u0627\u0644\u0631\u0627\u0636\u064a", "name:de": "Id Muhammad ar Radi", "name:en": "Id Muhammad ar Radi", "name:fr": "Id Muhammad ar Radi", "place": "hamlet"}}, {"type": "node", "id": 2486183647, "lat": 32.270656, "lon": 44.587146, "tags": {"alt_name": "\u062c\u0627\u0633\u0645", "int_name": "\u0642\u0631\u064a\u0629 \u062e\u0636\u064a\u0631 \u0627\u0644\u0639\u06af\u0627\u0648\u064a", "is_in": "Iraq , \u062c\u0645\u0647\u0648\u0631\u064a\u0629 \u0627\u0644\u0639\u0631\u0627\u0642", "name": "\u062c\u0627\u0633\u0645", "name:ar": "\u0642\u0631\u064a\u0629 \u062e\u0636\u064a\u0631 \u0627\u0644\u0639\u06af\u0627\u0648\u064a", "name:ar1": "\u062c\u0627\u0633\u0645", "name:de": "\u0642\u0631\u064a\u0629 \u062e\u0636\u064a\u0631 \u0627\u0644\u0639\u06af\u0627\u0648\u064a", "name:fr": "\u0642\u0631\u064a\u0629 \u062e\u0636\u064a\u0631 \u0627\u0644\u0639\u06af\u0627\u0648\u064a", "name:ku": "\u0642\u0631\u064a\u0629 \u062e\u0636\u064a\u0631 \u0627\u0644\u0639\u06af\u0627\u0648\u064a", "place": "village"}}, {"type": "node", "id": 2486184035, "lat": 32.279994, "lon": 44.595822, "tags": {"alt_name": "\u0645\u062c\u0631 \u0633\u0631\u062d\u0627\u0646", "int_name": "\u0645\u062f\u0631\u0633\u0629 \u0627\u0644\u0631\u0642\u064a\u0628", "is_in": "Iraq , \u062c\u0645\u0647\u0648\u0631\u064a\u0629 \u0627\u0644\u0639\u0631\u0627\u0642", "name": "\u0645\u062c\u0631 \u0633\u0631\u062d\u0627\u0646", "name:ar": "\u0645\u062f\u0631\u0633\u0629 \u0627\u0644\u0631\u0642\u064a\u0628", "name:ar1": "\u0645\u062c\u0631 \u0633\u0631\u062d\u0627\u0646", "name:ku": "\u0645\u062f\u0631\u0633\u0629 \u0627\u0644\u0631\u0642\u064a\u0628", "place": "village"}}, {"type": "node", "id": 2486184047, "lat": 32.277182, "lon": 44.576682, "tags": {"alt_name": "\u0645\u0646\u064a\u0641 \u0645\u062e\u064a\u0641", "int_name": "Mun\u012bf Mukh\u012bf, \u0645\u0646\u064a\u0641 \u0645\u062e\u064a\u0641, Munif Mukhif, \u0645\u0646\u064a\u0641 \u0645\u062e\u064a\u0641", "is_in": "Iraq , \u062c\u0645\u0647\u0648\u0631\u064a\u0629 \u0627\u0644\u0639\u0631\u0627\u0642", "name": "\u0645\u0646\u064a\u0641 \u0645\u062e\u064a\u0641", "name:ar": "\u0645\u0646\u064a\u0641 \u0645\u062e\u064a\u0641", "name:ar1": "\u0645\u0646\u064a\u0641 \u0645\u062e\u064a\u0641", "name:de": "Munif Mukhif", "name:en": "Munif Mukhif", "name:fr": "Munif Mukhif", "place": "hamlet"}}, {"type": "node", "id": 2486184256, "lat": 32.276425, "lon": 44.564415, "tags": {"alt_name": "\u0642\u0631\u064a\u0629 \u062c\u0628\u0648\u0631", "int_name": "Qaryat Jub\u016br, \u0642\u0631\u064a\u0629 \u062c\u0628\u0648\u0631, Qaryat Jubur, \u0642\u0631\u064a\u0629 \u062c\u0628\u0648\u0631", "name": "\u0642\u0631\u064a\u0629 \u062c\u0628\u0648\u0631", "name:ar": "\u0642\u0631\u064a\u0629 \u062c\u0628\u0648\u0631 \u0627\u0644 \u0647\u062c\u0648\u0644", "name:ar1": "\u0642\u0631\u064a\u0629 \u062c\u0628\u0648\u0631", "name:de": "Qaryat Jubur", "name:en": "Qaryat Jubur", "name:fr": "Qaryat Jubur", "name:ku": "\u0642\u0631\u064a\u0629 \u062c\u0628\u0648\u0631 \u0627\u0644 \u0647\u062c\u0648\u0644", "place": "hamlet"}}, {"type": "node", "id": 2486184280, "lat": 32.383053, "lon": 44.614666, "tags": {"alt_name": "\u0642\u0631\u064a\u0629 \u0627\u0644\u064a\u0627\u0633\u0631\u064a\u0629", "int_name": "Qaryat al Y\u0101sir\u012byah, \u0642\u0631\u064a\u0629 \u0627\u0644\u064a\u0627\u0633\u0631\u064a\u0629, Qaryat al Yasiriyah, \u0642\u0631\u064a\u0629 \u0627\u0644\u064a\u0627\u0633\u0631\u064a\u0629", "name": "\u0642\u0631\u064a\u0629 \u0627\u0644\u064a\u0627\u0633\u0631\u064a\u0629", "name:ar": "\u0642\u0631\u064a\u0629 \u0627\u0644\u064a\u0627\u0633\u064a\u0629", "name:ar1": "\u0642\u0631\u064a\u0629 \u0627\u0644\u064a\u0627\u0633\u0631\u064a\u0629", "name:de": "Qaryat al Yasiriyah", "name:en": "Qaryat al Yasiriyah", "name:fr": "Qaryat al Yasiriyah", "place": "village"}}, {"type": "node", "id": 2486184281, "lat": 32.366386, "lon": 44.595183, "tags": {"alt_name": "\u0642\u0631\u064a\u0629 \u0627\u0644\u0646\u0647\u0636\u0629 \u0627\u0644\u0639\u0635\u0631\u064a\u0629", "int_name": "Qaryat an Nah\u1e11at al A\u015fr\u012byah, \u0642\u0631\u064a\u0629 \u0627\u0644\u0646\u0647\u0636\u0629 \u0627\u0644\u0639\u0635\u0631\u064a\u0629, Qaryat an Nahdat al Asriyah, \u0642\u0631\u064a\u0629 \u0627\u0644\u0646\u0647\u0636\u0629 \u0627\u0644\u0639\u0635\u0631\u064a\u0629", "name": "\u0642\u0631\u064a\u0629 \u0627\u0644\u0646\u0647\u0636\u0629 \u0627\u0644\u0639\u0635\u0631\u064a\u0629", "name:ar": "\u0642\u0631\u064a\u0629 \u0627\u0644\u0646\u0647\u0636\u0629 \u0627\u0644\u0639\u0635\u0631\u064a\u0629", "name:ar1": "\u0642\u0631\u064a\u0629 \u0627\u0644\u0646\u0647\u0636\u0629 \u0627\u0644\u0639\u0635\u0631\u064a\u0629", "name:de": "Qaryat an Nahdat al Asriyah", "name:en": "Qaryat an Nahdat al Asriyah", "name:fr": "Qaryat an Nahdat al Asriyah", "name:ku": "\u0628\u064a\u062a \u0627\u0628\u0648 \u0639\u0642\u064a\u0644", "place": "village"}}, {"type": "node", "id": 2486184284, "lat": 32.374918, "lon": 44.647226, "tags": {"alt_name": "\u0642\u0631\u064a\u0629 \u0627\u0644\u0633\u0639\u0627\u062f\u0629", "int_name": "\u0642\u0631\u064a\u0629 \u0627\u0644\u0633\u0627\u062f\u0629 \u0627\u0644 \u0633\u0639\u0628\u0631", "name": "\u0642\u0631\u064a\u0629 \u0627\u0644\u0633\u0639\u0627\u062f\u0629", "name:ar": "\u0642\u0631\u064a\u0629 \u0627\u0644\u0633\u0627\u062f\u0629 \u0627\u0644 \u0633\u0639\u0628\u0631", "name:ar1": "\u0642\u0631\u064a\u0629 \u0627\u0644\u0633\u0639\u0627\u062f\u0629", "name:de": "Qaryat as Saadah", "name:en": "AL SAABAR VILLAGE", "name:fr": "Qaryat as Saadah", "place": "village"}}, {"type": "node", "id": 2486184432, "lat": 32.4274142, "lon": 44.665521, "tags": {"alt_name": "\u0628\u062f\u064a\u0648\u064a \u0645\u0644\u0629 \u0639\u0628\u064a\u062f", "int_name": "\u0628\u062f\u064a\u0648\u064a \u0645\u0644\u0629 \u0639\u0628\u064a\u062f, \u0628\u062f\u064a\u0648\u064a \u0645\u0644\u0629 \u0639\u0628\u064a\u062f", "is_in": "Iraq , \u062c\u0645\u0647\u0648\u0631\u064a\u0629 \u0627\u0644\u0639\u0631\u0627\u0642", "name": "\u0628\u062f\u064a\u0648\u064a \u0645\u0644\u0629 \u0639\u0628\u064a\u062f", "name:ar": "\u0628\u062f\u064a\u0648\u064a \u0645\u0644\u0629 \u0639\u0628\u064a\u062f", "name:ar1": "\u0628\u062f\u064a\u0648\u064a \u0645\u0644\u0629 \u0639\u0628\u064a\u062f", "name:de": "\u0628\u062f\u064a\u0648\u064a \u0645\u0644\u0629 \u0639\u0628\u064a\u062f", "name:en": "Badiwi Mulla Obaid", "name:fr": "\u0628\u062f\u064a\u0648\u064a \u0645\u0644\u0629 \u0639\u0628\u064a\u062f", "place": "village"}}, {"type": "node", "id": 2486184442, "lat": 32.4477928, "lon": 44.7303077, "tags": {"alt_name": "\u0639\u0631\u0643\u0648\u0628 \u0627\u0644\u0628\u0627\u0634\u064a\u0629", "int_name": "\u0639\u0631\u0643\u0648\u0628 \u0627\u0644\u0628\u0627\u0634\u064a\u0629, \u0639\u0631\u0643\u0648\u0628 \u0627\u0644\u0628\u0627\u0634\u064a\u0629", "is_in": "Iraq , \u062c\u0645\u0647\u0648\u0631\u064a\u0629 \u0627\u0644\u0639\u0631\u0627\u0642", "name": "\u0639\u0631\u0643\u0648\u0628 \u0627\u0644\u0628\u0627\u0634\u064a\u0629", "name:ar": "\u0639\u0631\u0643\u0648\u0628 \u0627\u0644\u0628\u0627\u0634\u064a\u0629", "name:ar1": "\u0639\u0631\u0643\u0648\u0628 \u0627\u0644\u0628\u0627\u0634\u064a\u0629", "name:de": "\u0639\u0631\u0643\u0648\u0628 \u0627\u0644\u0628\u0627\u0634\u064a\u0629", "name:fr": "\u0639\u0631\u0643\u0648\u0628 \u0627\u0644\u0628\u0627\u0634\u064a\u0629", "place": "village"}}, {"type": "node", "id": 2486184449, "lat": 32.2834183, "lon": 44.6050843, "tags": {"alt_name": "\u0643\u0627\u0638\u0645 \u0627\u0644 \u0639\u0628\u062f \u0627\u0644\u0633\u0627\u062f\u0629", "int_name": "\u0643\u0627\u0638\u0645 \u0627\u0644 \u0639\u0628\u062f \u0627\u0644\u0633\u0627\u062f\u0629, \u0643\u0627\u0638\u0645 \u0627\u0644 \u0639\u0628\u062f \u0627\u0644\u0633\u0627\u062f\u0629", "is_in": "Iraq , \u062c\u0645\u0647\u0648\u0631\u064a\u0629 \u0627\u0644\u0639\u0631\u0627\u0642", "name": "\u0643\u0627\u0638\u0645 \u0627\u0644 \u0639\u0628\u062f \u0627\u0644\u0633\u0627\u062f\u0629", "name:ar": "\u0643\u0627\u0638\u0645 \u0627\u0644 \u0639\u0628\u062f \u0627\u0644\u0633\u0627\u062f\u0629", "name:ar1": "\u0643\u0627\u0638\u0645 \u0627\u0644 \u0639\u0628\u062f \u0627\u0644\u0633\u0627\u062f\u0629", "name:de": "\u0643\u0627\u0638\u0645 \u0627\u0644 \u0639\u0628\u062f \u0627\u0644\u0633\u0627\u062f\u0629", "name:fr": "\u0643\u0627\u0638\u0645 \u0627\u0644 \u0639\u0628\u062f \u0627\u0644\u0633\u0627\u062f\u0629", "place": "village"}}, {"type": "node", "id": 2486189755, "lat": 32.2135335, "lon": 44.6551298, "tags": {"alt_name": "\u0642\u0631\u064a\u0629 \u0645\u0634\u064a\u0631 \u0639\u0645\u0631", "int_name": "\u0642\u0631\u064a\u0629 \u0645\u0634\u064a\u0631 \u0639\u0645\u0631, \u0642\u0631\u064a\u0629 \u0645\u0634\u064a\u0631 \u0639\u0645\u0631", "name": "\u0642\u0631\u064a\u0629 \u0645\u0634\u064a\u0631 \u0639\u0645\u0631", "name:ar": "\u0642\u0631\u064a\u0629 \u0645\u0634\u064a\u0631 \u0639\u0645\u0631", "name:ar1": "\u0642\u0631\u064a\u0629 \u0645\u0634\u064a\u0631 \u0639\u0645\u0631", "name:de": "\u0642\u0631\u064a\u0629 \u0645\u0634\u064a\u0631 \u0639\u0645\u0631", "name:fr": "\u0642\u0631\u064a\u0629 \u0645\u0634\u064a\u0631 \u0639\u0645\u0631", "place": "village"}}, {"type": "node", "id": 2486191961, "lat": 32.2304956, "lon": 44.7094758, "tags": {"alt_name": "\u0627\u0644\u0628\u062f\u0648\u064a", "int_name": "Al Badaw\u012b, \u0627\u0644\u0628\u062f\u0648\u064a, Al Badawi, \u0627\u0644\u0628\u062f\u0648\u064a", "is_in": "Iraq , \u062c\u0645\u0647\u0648\u0631\u064a\u0629 \u0627\u0644\u0639\u0631\u0627\u0642", "name": "\u0627\u0644\u0628\u062f\u0648\u064a", "name:ar": "\u0622\u0644 \u0628\u0686\u0627\u064a", "name:ar1": "\u0627\u0644\u0628\u062f\u0648\u064a", "name:de": "Al Badawi", "name:en": "Al-Bachai", "name:fr": "Al Badawi", "place": "village"}}, {"type": "node", "id": 2486192062, "lat": 32.2552214, "lon": 44.5939443, "tags": {"alt_name": "\u0622\u0644 \u0633\u0643\u064a\u0637\u0631\u064a", "int_name": "\u0100l Sukay\u0163ir\u012b, Al Sukaytiri", "is_in": "Iraq , \u062c\u0645\u0647\u0648\u0631\u064a\u0629 \u0627\u0644\u0639\u0631\u0627\u0642", "name": "\u0622\u0644 \u0633\u0643\u064a\u0637\u0631\u064a", "name:ar": "\u062b\u0627\u0628\u062a \u062c\u0628\u0627\u0631", "name:ar1": "\u0622\u0644 \u0633\u0643\u064a\u0637\u0631\u064a", "name:de": "Al Sukaytiri", "name:en": "\u062b\u0627\u0628\u062a \u062c\u0628\u0627\u0631", "name:fr": "Al Sukaytiri", "name:ku": "\u062b\u0627\u0628\u062a \u062c\u0628\u0627\u0631", "place": "village"}}, {"type": "node", "id": 2486192069, "lat": 32.1920193, "lon": 44.7126883, "tags": {"alt_name": "Al Taleaah, A\u0163 \u0162ulayah, \u0627\u0644\u0637\u0644\u064a\u0639\u0629, Al Taleaah, At Tulayah, \u0627\u0644\u0637\u0644\u064a\u0639\u0629", "capital": "7", "int_name": "Al Taleaah - \u0627\u0644\u0637\u0644\u064a\u0639\u0629", "is_in": "Iraq , \u062c\u0645\u0647\u0648\u0631\u064a\u0629 \u0627\u0644\u0639\u0631\u0627\u0642", "name": "\u0627\u0644\u0637\u0644\u064a\u0639\u0629", "name:ar": "\u0627\u0644\u0637\u0644\u064a\u0639\u0629", "name:ar1": "\u0627\u0644\u0637\u0644\u064a\u0639\u0629", "name:de": "Al Taleaah", "name:en": "Al Taleaah", "name:fr": "Al Taleaah", "place": "town"}}, {"type": "node", "id": 2486192177, "lat": 32.174289, "lon": 44.626444, "tags": {"alt_name": "\u0639\u0631\u0628 \u0643\u0627\u0638\u0645 \u0634\u064a\u0644\u0645", "int_name": "Arab K\u0101z\u0327im Shaylam, \u0639\u0631\u0628 \u0643\u0627\u0638\u0645 \u0634\u064a\u0644\u0645, Arab Kazim Shaylam, \u0639\u0631\u0628 \u0643\u0627\u0638\u0645 \u0634\u064a\u0644\u0645", "is_in": "Iraq , \u062c\u0645\u0647\u0648\u0631\u064a\u0629 \u0627\u0644\u0639\u0631\u0627\u0642", "name": "\u0639\u0631\u0628 \u0643\u0627\u0638\u0645 \u0634\u064a\u0644\u0645", "name:ar": "\u0639\u0631\u0628 \u0643\u0627\u0638\u0645 \u0634\u064a\u0644\u0645", "name:ar1": "\u0639\u0631\u0628 \u0643\u0627\u0638\u0645 \u0634\u064a\u0644\u0645", "name:de": "Arab Kazim Shaylam", "name:en": "Arab Kazim Shaylam", "name:fr": "Arab Kazim Shaylam", "place": "hamlet"}}, {"type": "node", "id": 2486192209, "lat": 32.243553, "lon": 44.597297, "tags": {"alt_name": "\u0627\u0644\u0633\u0643\u062a\u0631\u064a", "int_name": "qaryat mulazim ealaa aljuburii", "is_in": "Iraq , \u062c\u0645\u0647\u0648\u0631\u064a\u0629 \u0627\u0644\u0639\u0631\u0627\u0642", "name": "\u0627\u0644\u0633\u0643\u062a\u0631\u064a", "name:ar": "\u062c\u0628\u0627\u0631 \u0645\u062d\u0633\u0646 \u0627\u0644\u0639\u06af\u0627\u0648\u064a", "name:ar1": "\u0627\u0644\u0633\u0643\u062a\u0631\u064a", "name:de": "qaryat mulazim ealaa aljuburii", "name:en": "qaryat mulazim ealaa aljuburii", "name:fr": "qaryat mulazim ealaa aljuburii", "name:ku": "qaryat mulazim ealaa aljuburii", "place": "village"}}, {"type": "node", "id": 2486192217, "lat": 32.197304, "lon": 44.614164, "tags": {"alt_name": "\u0628\u064a\u062a \u0643\u0637\u0631\u0627\u0646 \u062d\u0633\u064a\u0646", "int_name": "Bayt Ka\u0163r\u0101n \u1e28usayn, \u0628\u064a\u062a \u0643\u0637\u0631\u0627\u0646 \u062d\u0633\u064a\u0646, Bayt Katran Husayn, \u0628\u064a\u062a \u0643\u0637\u0631\u0627\u0646 \u062d\u0633\u064a\u0646", "name": "\u0628\u064a\u062a \u0643\u0637\u0631\u0627\u0646 \u062d\u0633\u064a\u0646", "name:ar": "\u0628\u064a\u062a \u0643\u0637\u0631\u0627\u0646 \u062d\u0633\u064a\u0646", "name:ar1": "\u0628\u064a\u062a \u0643\u0637\u0631\u0627\u0646 \u062d\u0633\u064a\u0646", "name:de": "Bayt Katran Husayn", "name:en": "Bayt Katran Husayn", "name:fr": "Bayt Katran Husayn", "place": "hamlet"}}, {"type": "node", "id": 2486192245, "lat": 32.188473, "lon": 44.627099, "tags": {"alt_name": "\u062c\u0644\u0648\u0628 \u0627\u0644\u0645\u0639\u062a\u0629", "int_name": "Chul\u016bb al Mitah, \u0686\u0644\u0648\u0628 \u0627\u0644\u0645\u0639\u062a\u0629, Chulub al Mitah, \u0686\u0644\u0648\u0628 \u0627\u0644\u0645\u0639\u062a\u0629", "is_in": "Iraq , \u062c\u0645\u0647\u0648\u0631\u064a\u0629 \u0627\u0644\u0639\u0631\u0627\u0642", "name": "\u062c\u0644\u0648\u0628 \u0627\u0644\u0645\u0639\u062a\u0629", "name:ar": "\u062c\u0644\u0648\u0628 \u0627\u0644\u0645\u0639\u062a\u0629", "name:ar1": "\u062c\u0644\u0648\u0628 \u0627\u0644\u0645\u0639\u062a\u0629", "name:de": "Chulub al Mitah", "name:en": "Chulub al Mitah", "name:fr": "Chulub al Mitah", "place": "hamlet"}}, {"type": "node", "id": 2486192249, "lat": 32.243747, "lon": 44.587618, "tags": {"alt_name": "\u062f\u064a\u0644\u064a \u0639\u0628\u064a\u0633", "int_name": "Dayl\u012b Ubays, \u062f\u064a\u0644\u064a \u0639\u0628\u064a\u0633, Dayli Ubays, \u062f\u064a\u0644\u064a \u0639\u0628\u064a\u0633", "is_in": "Iraq , \u062c\u0645\u0647\u0648\u0631\u064a\u0629 \u0627\u0644\u0639\u0631\u0627\u0642", "name": "\u062f\u064a\u0644\u064a \u0639\u0628\u064a\u0633", "name:ar": "\u062f\u0627\u064a\u062e \u0627\u0644\u0639\u06af\u0627\u0648\u064a", "name:ar1": "\u062f\u064a\u0644\u064a \u0639\u0628\u064a\u0633", "name:de": "Dayli Ubays", "name:en": "Dayli Ubays", "name:fr": "Dayli Ubays", "name:ku": "\u062f\u0627\u064a\u062e \u0627\u0644\u0639\u06af\u0627\u0648\u064a", "place": "village"}}, {"type": "node", "id": 2486192264, "lat": 32.194117, "lon": 44.731186, "tags": {"alt_name": "\u062d\u0645\u064a\u062f \u0639\u0628\u062f", "int_name": "\u1e28am\u012bd Abd, \u062d\u0645\u064a\u062f \u0639\u0628\u062f, Hamid Abd, \u062d\u0645\u064a\u062f \u0639\u0628\u062f", "is_in": "Iraq , \u062c\u0645\u0647\u0648\u0631\u064a\u0629 \u0627\u0644\u0639\u0631\u0627\u0642", "name": "\u062d\u0645\u064a\u062f \u0639\u0628\u062f", "name:ar": "\u062e\u0631\u0627\u064a\u0628 \u0639\u062f\u0627\u064a \u0622\u0644 \u062d\u0645\u0632\u0647 \u0622\u0644 \u0643\u0631\u064a\u062f\u064a \u0627\u0644\u062c\u0627\u0633\u0645\u064a", "name:ar1": "\u062d\u0645\u064a\u062f \u0639\u0628\u062f", "name:de": "Hamid Abd", "name:en": "Harayab Adaay Hamzah Krydy Al gasmay", "name:fr": "Hamid Abd", "place": "village"}}, {"type": "node", "id": 2486192287, "lat": 32.173509, "lon": 44.721674, "tags": {"alt_name": "\u062d\u0633\u064a\u0646 \u062d\u0645\u0627\u062f\u064a", "int_name": "\u1e28usayn \u1e28am\u0101d\u012b, \u062d\u0633\u064a\u0646 \u062d\u0645\u0627\u062f\u064a, Husayn Hamadi, \u062d\u0633\u064a\u0646 \u062d\u0645\u0627\u062f\u064a", "is_in": "Iraq , \u062c\u0645\u0647\u0648\u0631\u064a\u0629 \u0627\u0644\u0639\u0631\u0627\u0642", "name": "\u062d\u0633\u064a\u0646 \u062d\u0645\u0627\u062f\u064a", "name:ar": "\u062f\u0627\u0631 / \u0645\u062f\u064a\u0644\u064a \u0622\u0644 \u062d\u0645\u0632\u0647 \u0622\u0644 \u0643\u0631\u064a\u062f\u064a \u0627\u0644\u062c\u0627\u0633\u0645\u064a", "name:ar1": "\u062d\u0633\u064a\u0646 \u062d\u0645\u0627\u062f\u064a", "name:de": "Husayn Hamadi", "name:en": "Madayly Hamzah Krydy Al gasmay", "name:fr": "Husayn Hamadi", "place": "village"}}, {"type": "node", "id": 2486192313, "lat": 32.192485, "lon": 44.612287, "tags": {"alt_name": "\u062c\u0648\u0627\u062f \u0647\u062f\u0647\u0648\u062f", "int_name": "Jaw\u0101d Hadh\u016bd, \u062c\u0648\u0627\u062f \u0647\u062f\u0647\u0648\u062f, Jawad Hadhud, \u062c\u0648\u0627\u062f \u0647\u062f\u0647\u0648\u062f", "is_in": "Iraq , \u062c\u0645\u0647\u0648\u0631\u064a\u0629 \u0627\u0644\u0639\u0631\u0627\u0642", "name": "\u062c\u0648\u0627\u062f \u0647\u062f\u0647\u0648\u062f", "name:ar": "\u062c\u0648\u0627\u062f \u0647\u062f\u0647\u0648\u062f", "name:ar1": "\u062c\u0648\u0627\u062f \u0647\u062f\u0647\u0648\u062f", "name:de": "Jawad Hadhud", "name:en": "Jawad Hadhud", "name:fr": "Jawad Hadhud", "place": "hamlet"}}, {"type": "node", "id": 2486192315, "lat": 32.188074, "lon": 44.626446, "tags": {"alt_name": "\u062c\u0648\u0627\u062f \u0631\u0627\u0636\u064a", "int_name": "Jaw\u0101d R\u0101\u1e11\u012b, \u062c\u0648\u0627\u062f \u0631\u0627\u0636\u064a, Jawad Radi, \u062c\u0648\u0627\u062f \u0631\u0627\u0636\u064a", "is_in": "Iraq , \u062c\u0645\u0647\u0648\u0631\u064a\u0629 \u0627\u0644\u0639\u0631\u0627\u0642", "name": "\u062c\u0648\u0627\u062f \u0631\u0627\u0636\u064a", "name:ar": "\u062c\u0648\u0627\u062f \u0631\u0627\u0636\u064a", "name:ar1": "\u062c\u0648\u0627\u062f \u0631\u0627\u0636\u064a", "name:de": "Jawad Radi", "name:en": "Jawad Radi", "name:fr": "Jawad Radi", "place": "hamlet"}}, {"type": "node", "id": 2486192319, "lat": 32.175876, "lon": 44.725252, "tags": {"alt_name": "\u0643\u0632\u0627\u0631 \u0634\u0648\u062c\u0629", "int_name": "Kaz\u0101r Sh\u016bjah, \u0643\u0632\u0627\u0631 \u0634\u0648\u062c\u0629, Kazar Shujah, \u0643\u0632\u0627\u0631 \u0634\u0648\u062c\u0629", "is_in": "Iraq , \u062c\u0645\u0647\u0648\u0631\u064a\u0629 \u0627\u0644\u0639\u0631\u0627\u0642", "name": "\u0643\u0632\u0627\u0631 \u0634\u0648\u062c\u0629", "name:ar": "\u0623\u0628\u0648 \u0642\u0627\u0633\u0645 \u0631\u0627\u0647\u064a \u0639\u062f\u0627\u064a \u0627\u0644\u062c\u0627\u0633\u0645\u064a", "name:ar1": "\u0643\u0632\u0627\u0631 \u0634\u0648\u062c\u0629", "name:de": "Kazar Shujah", "name:en": "Rahay Adaay Al gasmay", "name:fr": "Kazar Shujah", "name:ku": "\u0623\u0628\u0648 \u0642\u0627\u0633\u0645 \u0631\u0627\u0647\u064a \u0639\u062f\u0627\u064a \u0627\u0644\u062c\u0627\u0633\u0645\u064a", "place": "village"}}, {"type": "node", "id": 2486192326, "lat": 32.184508, "lon": 44.701414, "tags": {"alt_name": "\u062e\u0644\u062e\u0627\u0644\u064a", "int_name": "Khalkh\u0101l\u012b, Khalkhali", "is_in": "Iraq , \u062c\u0645\u0647\u0648\u0631\u064a\u0629 \u0627\u0644\u0639\u0631\u0627\u0642", "name": "\u062e\u0644\u062e\u0627\u0644\u064a", "name:ar": "\u0627\u0644\u0645\u062d\u0645\u0648\u062f\u064a", "name:ar1": "\u062e\u0644\u062e\u0627\u0644\u064a", "name:de": "Khalkhali", "name:en": "Khalkhali", "name:fr": "Khalkhali", "place": "village"}}, {"type": "node", "id": 2486192330, "lat": 32.192123, "lon": 44.611839, "tags": {"alt_name": "\u0643\u064a\u0637\u0627\u0646 \u0647\u062f\u0647\u0648\u062f", "int_name": "K\u012b\u0163\u0101n Hadh\u016bd, \u0643\u064a\u0637\u0627\u0646 \u0647\u062f\u0647\u0648\u062f, Kitan Hadhud, \u0643\u064a\u0637\u0627\u0646 \u0647\u062f\u0647\u0648\u062f", "is_in": "Iraq , \u062c\u0645\u0647\u0648\u0631\u064a\u0629 \u0627\u0644\u0639\u0631\u0627\u0642", "name": "\u0643\u064a\u0637\u0627\u0646 \u0647\u062f\u0647\u0648\u062f", "name:ar": "\u0643\u064a\u0637\u0627\u0646 \u0647\u062f\u0647\u0648\u062f", "name:ar1": "\u0643\u064a\u0637\u0627\u0646 \u0647\u062f\u0647\u0648\u062f", "name:de": "Kitan Hadhud", "name:en": "Kitan Hadhud", "name:fr": "Kitan Hadhud", "place": "hamlet"}}, {"type": "node", "id": 2486192361, "lat": 32.2309481, "lon": 44.7103989, "tags": {"alt_name": "\u0645\u062d\u0633\u0646 \u0628\u062c\u0627\u064a", "int_name": "Mu\u1e29sin Bijj\u0101y, \u0645\u062d\u0633\u0646 \u0628\u062c\u0627\u064a, Muhsin Bijjay, \u0645\u062d\u0633\u0646 \u0628\u062c\u0627\u064a", "is_in": "Iraq , \u062c\u0645\u0647\u0648\u0631\u064a\u0629 \u0627\u0644\u0639\u0631\u0627\u0642", "name": "\u0645\u062d\u0633\u0646 \u0628\u062c\u0627\u064a", "name:ar": "\u0645\u062d\u0633\u0646 \u0628\u062c\u0627\u064a \u0622\u0644 \u062c\u0631\u0641", "name:ar1": "\u0645\u062d\u0633\u0646 \u0628\u062c\u0627\u064a", "name:de": "Muhsin Bijjay", "name:en": "Muhsin Bijjay", "name:fr": "Muhsin Bijjay", "place": "village"}}, {"type": "node", "id": 2486192393, "lat": 32.1830518, "lon": 44.6332903, "tags": {"alt_name": "\u0646\u0642\u064a\u0628\u0629 \u0627\u0644\u0634\u0643\u0631", "int_name": "Naq\u012bbat ash Shukr, Naqibat ash Shukr", "is_in": "Iraq , \u062c\u0645\u0647\u0648\u0631\u064a\u0629 \u0627\u0644\u0639\u0631\u0627\u0642", "name": "\u0646\u0642\u064a\u0628\u0629 \u0627\u0644\u0634\u0643\u0631", "name:ar": "\u0646\u0642\u064a\u0628\u0629 \u0627\u0644\u0634\u0643\u0631", "name:ar1": "\u0646\u0642\u064a\u0628\u0629 \u0627\u0644\u0634\u0643\u0631", "name:de": "Naqibat ash Shukr", "name:en": "Naqibat ash Shukr", "name:fr": "Naqibat ash Shukr", "place": "hamlet"}}, {"type": "node", "id": 2486192432, "lat": 32.19756, "lon": 44.611155, "tags": {"alt_name": "\u0642\u0631\u064a\u0629 \u0623\u0628\u0648 \u0633\u0645\u0633", "int_name": "Qaryat Ab\u016b Samas, \u0642\u0631\u064a\u0629 \u0623\u0628\u0648 \u0633\u0645\u0633, Qaryat Abu Samas, \u0642\u0631\u064a\u0629 \u0623\u0628\u0648 \u0633\u0645\u0633", "name": "\u0642\u0631\u064a\u0629 \u0623\u0628\u0648 \u0633\u0645\u0633", "name:ar": "\u0642\u0631\u064a\u0629 \u0623\u0628\u0648 \u0633\u0645\u0633", "name:ar1": "\u0642\u0631\u064a\u0629 \u0623\u0628\u0648 \u0633\u0645\u0633", "name:de": "Qaryat Abu Samas", "name:en": "Qaryat Abu Samas", "name:fr": "Qaryat Abu Samas", "place": "hamlet"}}, {"type": "node", "id": 2486192470, "lat": 32.175632, "lon": 44.690362, "tags": {"alt_name": "\u0642\u0631\u064a\u0629 \u062d\u0627\u062c \u062d\u0633\u064a\u0646 \u0645\u0631\u0627\u062f", "int_name": "Qaryat \u1e28\u0101jj \u1e28usayn Mur\u0101d, \u0642\u0631\u064a\u0629 \u062d\u0627\u062c \u062d\u0633\u064a\u0646 \u0645\u0631\u0627\u062f, Qaryat Hajj Husayn Murad, \u0642\u0631\u064a\u0629 \u062d\u0627\u062c \u062d\u0633\u064a\u0646 \u0645\u0631\u0627\u062f", "name": "\u0642\u0631\u064a\u0629 \u062d\u0627\u062c \u062d\u0633\u064a\u0646 \u0645\u0631\u0627\u062f", "name:ar": "\u062f\u0627\u0631 / \u0633\u0627\u062c\u062a \u0627\u0644\u062d\u0627\u064a\u062c", "name:ar1": "\u0642\u0631\u064a\u0629 \u062d\u0627\u062c \u062d\u0633\u064a\u0646 \u0645\u0631\u0627\u062f", "name:de": "Qaryat Hajj Husayn Murad", "name:en": "Dar Saget Al haach", "name:fr": "Qaryat Hajj Husayn Murad", "name:ku": "\u062f\u0627\u0631 / \u0633\u0627\u062c\u062a \u0627\u0644\u062d\u0627\u064a\u062c", "place": "village"}}, {"type": "node", "id": 2486192481, "lat": 32.187424, "lon": 44.613743, "tags": {"alt_name": "\u0642\u0631\u064a\u0629 \u062e\u0627\u064a\u0631 \u0647\u062f\u064a\u062f", "int_name": "Qaryat Kh\u0101yir Hudayd, \u0642\u0631\u064a\u0629 \u062e\u0627\u064a\u0631 \u0647\u062f\u064a\u062f, Qaryat Khayir Hudayd, \u0642\u0631\u064a\u0629 \u062e\u0627\u064a\u0631 \u0647\u062f\u064a\u062f", "name": "\u0642\u0631\u064a\u0629 \u062e\u0627\u064a\u0631 \u0647\u062f\u064a\u062f", "name:ar": "\u0642\u0631\u064a\u0629 \u062e\u0627\u064a\u0631 \u0647\u062f\u064a\u062f", "name:ar1": "\u0642\u0631\u064a\u0629 \u062e\u0627\u064a\u0631 \u0647\u062f\u064a\u062f", "name:de": "Qaryat Khayir Hudayd", "name:en": "Qaryat Khayir Hudayd", "name:fr": "Qaryat Khayir Hudayd", "place": "hamlet"}}, {"type": "node", "id": 2486192486, "lat": 32.175029, "lon": 44.635696, "tags": {"alt_name": "\u0642\u0631\u064a\u0629 \u0645\u062d\u0645\u062f \u063a\u0631\u064a\u0628", "int_name": "Qaryat Mu\u1e29ammad Ghar\u012bb, \u0642\u0631\u064a\u0629 \u0645\u062d\u0645\u062f \u063a\u0631\u064a\u0628, Qaryat Muhammad Gharib, \u0642\u0631\u064a\u0629 \u0645\u062d\u0645\u062f \u063a\u0631\u064a\u0628", "name": "\u0642\u0631\u064a\u0629 \u0645\u062d\u0645\u062f \u063a\u0631\u064a\u0628", "name:ar": "\u0642\u0631\u064a\u0629 \u0645\u062d\u0645\u062f \u063a\u0631\u064a\u0628", "name:ar1": "\u0642\u0631\u064a\u0629 \u0645\u062d\u0645\u062f \u063a\u0631\u064a\u0628", "name:de": "Qaryat Muhammad Gharib", "name:en": "Qaryat Muhammad Gharib", "name:fr": "Qaryat Muhammad Gharib", "place": "hamlet"}}, {"type": "node", "id": 2486192610, "lat": 32.157084, "lon": 44.612538, "tags": {"alt_name": "\u0642\u0631\u064a\u0629 \u0627\u0644\u0637\u0643\u0637\u0627\u0643\u0629", "int_name": "Qaryat a\u0163 \u0162ak\u0163\u0101kah, \u0642\u0631\u064a\u0629 \u0627\u0644\u0637\u0643\u0637\u0627\u0643\u0629, Qaryat at Taktakah, \u0642\u0631\u064a\u0629 \u0627\u0644\u0637\u0643\u0637\u0627\u0643\u0629", "name": "\u0642\u0631\u064a\u0629 \u0627\u0644\u0637\u0643\u0637\u0627\u0643\u0629", "name:ar": "\u0642\u0631\u064a\u0629 \u0627\u0644\u0637\u0643\u0637\u0627\u0643\u0629", "name:ar1": "\u0642\u0631\u064a\u0629 \u0627\u0644\u0637\u0643\u0637\u0627\u0643\u0629", "name:de": "Qaryat at Taktakah", "name:en": "Qaryat at Taktakah", "name:fr": "Qaryat at Taktakah", "place": "hamlet"}}, {"type": "node", "id": 2486192826, "lat": 32.1792564, "lon": 44.7217925, "tags": {"alt_name": "\u0633\u0631\u062d\u0627\u0646 \u0639\u0628\u062f \u0627\u0644\u0644\u0647", "int_name": "Sir\u1e29\u0101n Abd All\u0101h, Sirhan Abd Allah", "is_in": "Iraq , \u062c\u0645\u0647\u0648\u0631\u064a\u0629 \u0627\u0644\u0639\u0631\u0627\u0642", "name": "\u0633\u0631\u062d\u0627\u0646 \u0639\u0628\u062f \u0627\u0644\u0644\u0647", "name:ar": "\u0639\u062f\u0627\u064a \u062d\u0645\u0632\u0647 \u0643\u0631\u064a\u062f\u064a \u0627\u0644\u062c\u0627\u0633\u0645\u064a", "name:ar1": "\u0633\u0631\u062d\u0627\u0646 \u0639\u0628\u062f \u0627\u0644\u0644\u0647", "name:de": "Sirhan Abd Allah", "name:en": "Adjaye Hamza karyedye Al gasmay", "name:fr": "Sirhan Abd Allah", "name:ku": "\u0639\u062f\u0627\u064a \u062d\u0645\u0632\u0647 \u0643\u0631\u064a\u062f\u064a \u0627\u0644\u062c\u0627\u0633\u0645\u064a", "place": "village"}}, {"type": "node", "id": 2486192966, "lat": 32.2547957, "lon": 44.5939382, "tags": {"alt_name": "\u0627\u0644 \u0633\u0643\u064a\u0637\u0631\u064a", "int_name": "\u0627\u0644 \u0633\u0643\u064a\u0637\u0631\u064a, \u0627\u0644 \u0633\u0643\u064a\u0637\u0631\u064a", "is_in": "Iraq , \u062c\u0645\u0647\u0648\u0631\u064a\u0629 \u0627\u0644\u0639\u0631\u0627\u0642", "name": "\u0627\u0644 \u0633\u0643\u064a\u0637\u0631\u064a", "name:ar": "\u062b\u0627\u0628\u062a \u0627\u0644\u0639\u06af\u0627\u0648\u064a", "name:ar1": "\u0627\u0644 \u0633\u0643\u064a\u0637\u0631\u064a", "name:de": "\u0627\u0644 \u0633\u0643\u064a\u0637\u0631\u064a", "name:en": "\u062b\u0627\u0628\u062a \u0627\u0644\u0639\u06af\u0627\u0648\u064a", "name:fr": "\u0627\u0644 \u0633\u0643\u064a\u0637\u0631\u064a", "name:ku": "\u062b\u0627\u0628\u062a \u0627\u0644\u0639\u06af\u0627\u0648\u064a", "place": "village"}}, {"type": "node", "id": 2486192974, "lat": 32.25593, "lon": 44.619886, "tags": {"alt_name": "\u0627\u0644 \u0635\u0627\u064a\u062d", "int_name": "\u0627\u0644 \u0635\u0627\u064a\u062d, \u0627\u0644 \u0635\u0627\u064a\u062d", "is_in": "Iraq , \u062c\u0645\u0647\u0648\u0631\u064a\u0629 \u0627\u0644\u0639\u0631\u0627\u0642", "name": "\u0627\u0644 \u0635\u0627\u064a\u062d", "name:ar": "\u0627\u0644 \u0635\u0627\u064a\u062d", "name:ar1": "\u0627\u0644 \u0635\u0627\u064a\u062d", "name:de": "\u0627\u0644 \u0635\u0627\u064a\u062d", "name:fr": "\u0627\u0644 \u0635\u0627\u064a\u062d", "place": "village"}}, {"type": "node", "id": 2486193052, "lat": 32.1793377, "lon": 44.716461, "tags": {"alt_name": "\u0639\u062f\u0627\u064a \u062e\u0645\u064a\u0633", "int_name": "\u0639\u062f\u0627\u064a \u062e\u0645\u064a\u0633, \u0639\u062f\u0627\u064a \u062e\u0645\u064a\u0633", "is_in": "Iraq , \u062c\u0645\u0647\u0648\u0631\u064a\u0629 \u0627\u0644\u0639\u0631\u0627\u0642", "name": "\u0639\u062f\u0627\u064a \u062e\u0645\u064a\u0633", "name:ar": "\u062f\u0627\u0631 / \u0639\u062f\u0627\u064a \u062d\u0645\u0632\u0647 \u0643\u0631\u064a\u062f\u064a \u0627\u0644\u062c\u0627\u0633\u0645\u064a", "name:ar1": "\u0639\u062f\u0627\u064a \u062e\u0645\u064a\u0633", "name:de": "\u0639\u062f\u0627\u064a \u062e\u0645\u064a\u0633", "name:en": "Adaay Hamzah Krayday Al gasmay", "name:fr": "\u0639\u062f\u0627\u064a \u062e\u0645\u064a\u0633", "name:ku": "\u0628\u064a\u062a/ \u0639\u062f\u0627\u064a \u062d\u0645\u0632\u0647 \u0643\u0631\u064a\u062f\u064a \u0627\u0644\u062c\u0627\u0633\u0645\u064a", "place": "village"}}, {"type": "node", "id": 2486193069, "lat": 32.2151406, "lon": 44.6339115, "tags": {"alt_name": "\u0642\u0631\u064a\u0629 \u0627\u0644\u0627\u0635\u0644\u0627\u062d \u0627\u0644\u062c\u062f\u064a\u062f\u0629", "int_name": "\u0642\u0631\u064a\u0629 \u0627\u0644\u0627\u0635\u0644\u0627\u062d \u0627\u0644\u062c\u062f\u064a\u062f\u0629, \u0642\u0631\u064a\u0629 \u0627\u0644\u0627\u0635\u0644\u0627\u062d \u0627\u0644\u062c\u062f\u064a\u062f\u0629", "name": "\u0642\u0631\u064a\u0629 \u0627\u0644\u0627\u0635\u0644\u0627\u062d \u0627\u0644\u062c\u062f\u064a\u062f\u0629", "name:ar": "\u0642\u0631\u064a\u0629 \u0627\u0644\u0627\u0635\u0644\u0627\u062d \u0627\u0644\u062c\u062f\u064a\u062f\u0629", "name:ar1": "\u0642\u0631\u064a\u0629 \u0627\u0644\u0627\u0635\u0644\u0627\u062d \u0627\u0644\u062c\u062f\u064a\u062f\u0629", "name:de": "\u0642\u0631\u064a\u0629 \u0627\u0644\u0627\u0635\u0644\u0627\u062d \u0627\u0644\u062c\u062f\u064a\u062f\u0629", "name:fr": "\u0642\u0631\u064a\u0629 \u0627\u0644\u0627\u0635\u0644\u0627\u062d \u0627\u0644\u062c\u062f\u064a\u062f\u0629", "place": "village"}}, {"type": "node", "id": 2486229919, "lat": 32.5604231, "lon": 44.7050448, "tags": {"alt_name": "\u0642\u0631\u064a\u0629 \u0627\u0644\u0623\u062e\u0627\u0621", "int_name": "\u0642\u0631\u064a\u0629 \u0627\u0644\u0627\u062e\u0627\u0621, \u0642\u0631\u064a\u0629 \u0627\u0644\u0627\u062e\u0627\u0621", "name": "\u0642\u0631\u064a\u0629 \u0627\u0644\u0623\u062e\u0627\u0621", "name:ar": "\u0642\u0631\u064a\u0629 \u0627\u0644\u0623\u062e\u0627\u0621", "name:ar1": "\u0642\u0631\u064a\u0629 \u0627\u0644\u0623\u062e\u0627\u0621", "name:de": "\u0642\u0631\u064a\u0629 \u0627\u0644\u0627\u062e\u0627\u0621", "name:fr": "\u0642\u0631\u064a\u0629 \u0627\u0644\u0627\u062e\u0627\u0621", "place": "village"}}, {"type": "node", "id": 2488026601, "lat": 32.555929, "lon": 44.560511, "tags": {"int_name": "Qaryat al Amm\u0101r, \u0642\u0631\u064a\u0629 \u0627\u0644\u0639\u0645\u0627\u0631, Qaryat al Ammar, \u0642\u0631\u064a\u0629 \u0627\u0644\u0639\u0645\u0627\u0631", "name": "\u0642\u0631\u064a\u0629 \u0627\u0644\u0639\u0645\u0627\u0631", "name:ar": "\u0642\u0631\u064a\u0629 \u0627\u0644\u0639\u0645\u0627\u0631", "name:de": "Qaryat al Ammar", "name:en": "Qaryat al Ammar", "name:fr": "Qaryat al Ammar", "place": "village"}}, {"type": "node", "id": 11191954965, "lat": 32.4521461, "lon": 44.8645592, "tags": {"name": "\u0642\u0631\u064a\u0629 \u0627\u0644\u0634\u0631\u064a\u0641\u0627\u062a", "place": "village"}}]}