{"version": 0.6, "generator": "Overpass API 0.7.61.5 4133829e", "osm3s": {"timestamp_osm_base": "2024-03-06T11:16:45Z", "copyright": "The data included in this document is from www.openstreetmap.org. The data is made available under ODbL."}, "elements": [{"type": "node", "id": 598102341, "lat": 36.1553184, "lon": 45.4799637, "tags": {"int_name": "Sardasht", "is_in": "West Azarbaijan Province, Iran", "is_in:country": "Iran", "is_in:state": "West Azarbaijan", "name": "\u0633\u0631\u062f\u0634\u062a", "name:ckb": "\u0633\u06d5\u0631\u062f\u06d5\u0634\u062a", "name:en": "Sardasht", "name:fa": "\u0633\u0631\u062f\u0634\u062a", "name:fr": "Sardasht", "name:ja": "\u30b5\u30eb\u30c0\u30b7\u30e5\u30c8", "name:ku": "Serde\u015ft", "place": "town", "population": "50234", "wikidata": "Q862516", "wikipedia": "en:Sardasht, West Azerbaijan"}}, {"type": "node", "id": 879415696, "lat": 36.4055055, "lon": 45.3719463, "tags": {"alt_name:ku": "M\u00eerawe", "name": "\u0645\u06cc\u0631\u0622\u0628\u0627\u062f", "name:ckb": "\u0645\u06cc\u0631\u0627\u0648\u0627", "name:en": "Mirabad", "name:fa": "\u0645\u06cc\u0631\u0622\u0628\u0627\u062f", "name:fr": "Mirabad", "name:ja": "\u30df\u30fc\u30e9\u30fc\u30d0\u30fc\u30c9", "name:ku": "M\u00eerava", "place": "town", "population": "10410", "wikidata": "Q4810120"}}, {"type": "node", "id": 879415793, "lat": 36.2092112, "lon": 45.5542469, "tags": {"int_name": "Rabat", "is_in": "West Azarbaijan Province, Iran", "is_in:country": "Iran", "is_in:state": "West Azarbaijan", "name": "\u0631\u0628\u0637", "name:ckb": "\u0695\u06d5\u0628\u06d5\u062a", "name:en": "Rabat", "name:fa": "\u0631\u0628\u0637", "name:fr": "Rabat", "name:ja": "\u30e9\u30d0\u30c8", "name:ku": "Rebet", "place": "town", "population": "15750", "population:date": "2016", "source:population": "amar.org.ir", "wikidata": "Q4121918", "wikipedia": "en:Rabat, Iran"}}, {"type": "node", "id": 2133450076, "lat": 36.0982493, "lon": 45.5809437, "tags": {"is_in:country": "Iran", "name": "\u06a9\u0648\u0644\u0647 \u0633\u0647 \u0633\u0641\u0644\u06cc", "name:en": "Kulseh-ye Sofla", "place": "village", "wikidata": "Q5708224"}}, {"type": "node", "id": 2133450170, "lat": 36.095926, "lon": 45.5515929, "tags": {"is_in:country": "Iran", "name": "\u06a9\u0648\u0644\u0647 \u0633\u0647 \u0639\u0644\u06cc\u0627", "name:en": "Kulseh-ye Olya", "place": "village", "wikidata": "Q5815852"}}, {"type": "node", "id": 2134246703, "lat": 36.151129, "lon": 45.5421946, "tags": {"is_in:country": "Iran", "name": "\u0628\u0631\u06cc\u0633\u0648", "name:en": "Brisu", "place": "village"}}, {"type": "node", "id": 2488309525, "lat": 36.089061, "lon": 45.3135133, "tags": {"name": "\u0628\u0627\u0648\u0632\u06ce", "name:ar": "\u0628\u0627\u0648\u0632\u064a", "name:ckb": "\u0628\u0627\u0648\u0632\u06ce", "name:de": "Bawze", "name:en": "Bawze", "name:fr": "Bawze", "name:ku": "Bawiz\u00ea", "place": "village", "wikidata": "Q61389681", "wikipedia": "ckb:\u0628\u0627\u0648\u0632\u06ce"}}, {"type": "node", "id": 2488309526, "lat": 36.085833, "lon": 45.279528, "tags": {"name": "\u0628\u06ce\u0646\u0627\u0633\u06d5", "name:ar": "\u0628\u064a\u0646\u0627\u0633\u0629", "name:de": "Benasa", "name:en": "Benasa", "name:fr": "Benasa", "name:ku": "\u0628\u06ce\u0646\u0627\u0633\u06d5", "place": "village"}}, {"type": "node", "id": 2488309531, "lat": 36.1265788, "lon": 45.2383744, "tags": {"name": "\u062f\u06d5\u0631\u0648\u06ce\u0646\u06d5", "name:ar": "\u062f\u0631\u0648\u06cc\u0646\u0629", "name:de": "Daruna", "name:en": "Daruna", "name:fr": "Daruna", "place": "village"}}, {"type": "node", "id": 2488309532, "lat": 36.0929864, "lon": 45.2148332, "tags": {"name": "\u062f\u06d5\u0634\u062a\u06ce\u0648\u06cc \u062e\u0648\u0627\u0631\u0648\u0648", "name:ar": "\u062f\u0634\u062a\u064a\u0648 \u0627\u0644\u0633\u0641\u0644\u06cc", "name:ckb": "\u062f\u06d5\u0634\u062a\u06ce\u0648\u06cc \u062e\u0648\u0627\u0631\u0648\u0648", "name:de": "Dashtew Lower", "name:en": "Dashtew Lower", "name:fr": "Dashtew Lower", "name:ku": "De\u015ft\u00eawa J\u00ear\u00een", "place": "village", "wikidata": "Q61389704", "wikipedia": "ckb:\u062f\u06d5\u0634\u062a\u06ce\u0648\u06cc \u062e\u0648\u0627\u0631\u0648\u0648"}}, {"type": "node", "id": 2488309534, "lat": 36.1012515, "lon": 45.2166414, "tags": {"name": "\u062f\u06d5\u0634\u062a\u06ce\u0648\u06cc \u0646\u0627\u0648\u06d5\u0695\u0627\u0633\u062a", "name:ar": "\u062f\u0634\u062a\u064a\u0648 \u0627\u0644\u0648\u0633\u0637\u06cc", "name:ar1": "\u062f\u06d5\u0634\u062a\u06ce\u0648\u06cc \u0646\u0627\u0648\u06d5\u0695\u0627\u0633\u062a", "name:de": "Dashtew Middle", "name:en": "Dashtew Middle", "name:fr": "Dashtew Middle", "name:ku": "De\u015ft\u00eawa Nav\u00een", "place": "village", "wikidata": "Q61389623", "wikipedia": "ckb:\u062f\u06d5\u0634\u062a\u06ce\u0648\u06cc \u0646\u0627\u0648\u06d5\u0695\u0627\u0633\u062a"}}, {"type": "node", "id": 2488309538, "lat": 36.1065359, "lon": 45.2123423, "tags": {"name": "\u062f\u06d5\u0634\u062a\u06ce\u0648\u06cc \u0633\u06d5\u0631\u0648\u0648", "name:ar": "\u062f\u0634\u062a\u064a\u0648 \u0627\u0644\u0639\u0644\u064a\u0627", "name:ckb": "\u062f\u06d5\u0634\u062a\u06ce\u0648\u06cc \u0633\u06d5\u0631\u0648\u0648", "name:de": "Dashtew Upper", "name:en": "Dashtew Upper", "name:fr": "Dashtew Upper", "name:ku": "De\u015ft\u00eawa Jor\u00een", "place": "village", "wikidata": "Q61389708", "wikipedia": "ckb:\u062f\u06d5\u0634\u062a\u06ce\u0648\u06cc \u0633\u06d5\u0631\u0648\u0648"}}, {"type": "node", "id": 2488309543, "lat": 36.1243588, "lon": 45.2825054, "tags": {"alt_name": "\u0647\u064a\u0631\u0648", "capital": "7", "int_name": "Hayraw, Hero, Herow, \u0647\u064a\u0631\u0648, Hayraw, Hero, Herow, \u0647\u064a\u0631\u0648", "name": "\u06be\u06ce\u0631\u06c6", "name:ar": "\u06be\u06cc\u0631\u0648", "name:ckb": "\u06be\u06ce\u0631\u06c6", "name:ckb-Latn": "H\u00earo", "name:de": "Hero", "name:en": "Hero", "name:fr": "Hero", "name:ku": "H\u00earo", "place": "town", "wikidata": "Q61389717", "wikipedia": "ckb:\u06be\u06ce\u0631\u06c6\u060c \u0634\u0627\u0631\u06d5\u062f\u06ce"}}, {"type": "node", "id": 2488309546, "lat": 36.1068749, "lon": 45.2793865, "tags": {"alt_name": "\u0643\u0648\u062e\u0648\u0632", "int_name": "Kawkhawaz, Kokhales, Kokhalisa, \u0643\u0648\u062e\u0648\u0632, Kawkhawaz, Kokhales, Kokhalisa, \u0643\u0648\u062e\u0648\u0632", "name": "\u06a9\u0627\u0646\u06cc \u0628\u06d5\u0631\u062f", "name:ar": "\u06a9\u0627\u0646\u064a \u0628\u0629\u0631\u062f", "name:de": "Kani Bard", "name:en": "Kani Bard", "name:fr": "Kani Bard", "place": "village"}}, {"type": "node", "id": 2488309557, "lat": 36.1018295, "lon": 45.2453757, "tags": {"name": "\u0632\u06ce\u0648\u06d5\u06b5\u06d5", "name:ar": "\u0632\u064a\u0648\u0644\u0629", "name:ckb": "\u0632\u06ce\u0648\u06d5\u06b5\u06d5", "name:de": "Zewala", "name:en": "Zewala", "name:fr": "Zewala", "name:ku": "Z\u00eawelle", "place": "village", "wikidata": "Q61389636", "wikipedia": "ckb:\u0632\u06ce\u0648\u06d5\u06b5\u06d5"}}, {"type": "node", "id": 2488312682, "lat": 36.2268423, "lon": 45.1506394, "tags": {"name": "\u0633\u06d5\u06cc\u062f \u0626\u06d5\u062d\u0645\u06d5\u062f\u0627\u0646", "name:de": "Sayd Ahmadan", "name:en": "Sayd Ahmadan", "name:fr": "Sayd Ahmadan", "place": "village", "wikidata": "Q61389530", "wikipedia": "ckb:\u0633\u06d5\u06cc\u062f\u0626\u06d5\u062d\u0645\u06d5\u062f\u0627\u0646"}}, {"type": "node", "id": 2488312683, "lat": 36.2176446, "lon": 45.1686934, "tags": {"alt_name": "\u0622\u0644\u0627\u0646 \u0643\u0648\u0631\u0633\u062a\u0627\u0646 \u062f\u0648\u062f\u064a", "int_name": "\u0100l\u0101n G\u014drist\u0101n i Da\u016bd\u012b, Dawdya, G\u014drist\u0101n i Da\u016bd\u012b, Alan Goristan i Daudi, Dawdya, Goristan i Daudi", "name": "\u062f\u0627\u0648\u062f\u06ce", "name:de": "Dawde", "name:en": "Dawde", "name:fr": "Dawde", "place": "village", "wikidata": "Q61389402", "wikipedia": "ckb:\u062f\u0627\u0648\u062f\u06ce"}}, {"type": "node", "id": 2488312685, "lat": 36.2270889, "lon": 45.1709078, "tags": {"name": "\u0626\u0627\u06b5\u0627\u0646", "name:ar": "\u0622\u0644\u0627\u0646", "name:de": "Alan", "name:en": "Alan", "name:fr": "Alan", "place": "village", "wikidata": "Q61389398", "wikipedia": "ckb:\u0626\u0627\u06b5\u0627\u0646"}}, {"type": "node", "id": 2488312691, "lat": 36.199444, "lon": 45.214556, "tags": {"name": "\u0626\u0627\u06b5\u0627\u0648\u06d5", "name:de": "Alawa", "name:en": "Alawa", "name:fr": "Alawa", "place": "village"}}, {"type": "node", "id": 2488312698, "lat": 36.2095269, "lon": 45.2434549, "tags": {"alt_name": "\u0622\u0634\u064a \u0632\u0627\u062f\u0629", "int_name": "Ashi Zada, \u0100sh\u012b Z\u0101dah, \u0100shiz\u0101ra, \u0622\u0634\u064a \u0632\u0627\u062f\u0629, Ashi Zada, Ashi Zadah, Ashizara, \u0622\u0634\u064a \u0632\u0627\u062f\u0629", "name": "\u0644\u0627\u0633", "name:ar": "\u0644\u0627\u0633", "name:de": "Las", "name:en": "Las", "name:fr": "Las", "place": "village"}}, {"type": "node", "id": 2488312710, "lat": 36.1651724, "lon": 45.1707032, "tags": {"name": "\u0628\u0627\u062f\u06d5\u06b5\u06cc\u0627\u0646", "name:de": "Badalyan", "name:en": "Badalyan", "name:fr": "Badalyan", "place": "village"}}, {"type": "node", "id": 2488312717, "lat": 36.1358993, "lon": 45.2046097, "tags": {"alt_name": "\u0628\u0627\u062f\u064a\u0646", "int_name": "B\u0101dayn, \u0628\u0627\u062f\u064a\u0646, Badayn, \u0628\u0627\u062f\u064a\u0646", "name": "\u0628\u0627\u062f\u064a\u0646", "name:de": "Badayn", "name:en": "Badayn", "name:fr": "Badayn", "place": "village", "wikidata": "Q61389480", "wikipedia": "ckb:\u0628\u0627\u062f\u06cc\u0646"}}, {"type": "node", "id": 2488312730, "lat": 36.1647783, "lon": 45.1705088, "tags": {"alt_name": "\u0628\u0627\u062f\u0644\u064a\u0627\u0646", "int_name": "B\u0101diliy\u0101n, \u0628\u0627\u062f\u0644\u064a\u0627\u0646, Badiliyan, \u0628\u0627\u062f\u0644\u064a\u0627\u0646", "name": "\u0628\u0627\u062f\u0644\u064a\u0627\u0646", "name:de": "Badiliyan", "name:en": "Badiliyan", "name:fr": "Badiliyan", "place": "village"}}, {"type": "node", "id": 2488312736, "lat": 36.1960822, "lon": 45.2351584, "tags": {"alt_name": "\u0628\u0627\u062f\u064a\u0646 \u0628\u0627\u0644", "int_name": "B\u0101d\u012bn B\u0101l, \u0628\u0627\u062f\u064a\u0646 \u0628\u0627\u0644, Badin Bal, \u0628\u0627\u062f\u064a\u0646 \u0628\u0627\u0644", "name": "\u0628\u0627\u062f\u06cc\u0646\u0628\u0627\u06b5\u06cc \u062e\u0648\u0627\u0631\u0648\u0648", "name:ar": "\u0628\u0627\u062f\u06cc\u0646\u0628\u0627\u0644 \u0627\u0644\u0633\u0641\u0644\u06cc", "name:de": "Badinbal Lower", "name:en": "Badinbal Lower", "name:fr": "Badinbal Lower", "place": "village"}}, {"type": "node", "id": 2488312743, "lat": 36.142367, "lon": 45.1887448, "tags": {"name": "\u067e\u0627\u0686\u06a9\u0627\u0631", "name:de": "Baikar", "name:en": "Baikar", "name:fr": "Baikar", "place": "village", "wikidata": "Q61389493", "wikipedia": "ckb:\u067e\u0627\u0686\u06a9\u0627\u0631"}}, {"type": "node", "id": 2488312746, "lat": 36.1341057, "lon": 45.1702033, "tags": {"name": "\u0628\u06d5\u0631\u0633\u0648\u0644", "name:ar": "\u0628\u0631\u0633\u0648\u0644", "name:de": "Barsul", "name:en": "Barsul", "name:fr": "Barsul", "place": "village", "wikidata": "Q61389456", "wikipedia": "ckb:\u0628\u06d5\u0631\u0633\u0648\u0644"}}, {"type": "node", "id": 2488312747, "lat": 36.2344827, "lon": 45.2453282, "tags": {"is_in": "Iraq , \u062c\u0645\u0647\u0648\u0631\u064a\u0629 \u0627\u0644\u0639\u0631\u0627\u0642", "name": "\u0628\u06ce\u06af\u06d5\u06b5\u0627\u0633", "name:ar": "\u0628\u06ce\u06af\u06d5\u06b5\u0627\u0633", "name:ar1": "\u0628\u064a \u0643\u0644\u0633", "name:de": "Begalas", "name:en": "Begalas", "name:fr": "Begalas", "place": "village"}}, {"type": "node", "id": 2488312748, "lat": 36.1409523, "lon": 45.2255942, "tags": {"name": "\u0628\u06ce\u0634\u06cc\u0631", "name:ar": "\u0628\u06cc\u0634\u06cc\u0631", "name:de": "Beshir", "name:en": "Beshir", "name:fr": "Beshir", "place": "village"}}, {"type": "node", "id": 2488312749, "lat": 36.15791, "lon": 45.2642105, "tags": {"is_in": "Iraq , \u062c\u0645\u0647\u0648\u0631\u064a\u0629 \u0627\u0644\u0639\u0631\u0627\u0642", "name": "\u0628\u06ce\u06a9\u0644\u06c6\u06cc \u062e\u0648\u0627\u0631\u0648\u0648", "name:ar": "\u0628\u06cc\u06a9\u0644\u0648 \u0627\u0644\u0633\u0641\u0644\u06cc", "name:ar1": "\u0628\u064a\u0643 \u0644\u0648", "name:de": "Beklo Lower", "name:en": "Beklo Lower", "name:fr": "Beklo Lower", "place": "village", "wikidata": "Q61389767", "wikipedia": "ckb:\u0628\u06ce\u06a9\u0644\u06c6\u06cc \u062e\u0648\u0627\u0631\u0648\u0648"}}, {"type": "node", "id": 2488312750, "lat": 36.1796684, "lon": 45.2854662, "tags": {"alt_name": "\u0628\u064a\u0643 \u0644\u0648", "int_name": "Bayk Law, Be Clo, Beklo Upper, \u0628\u064a\u0643 \u0644\u0648, Bayk Law, Be Clo, Beklo Upper, \u0628\u064a\u0643 \u0644\u0648", "name": "\u0628\u06ce\u06a9\u0644\u06c6\u06cc \u0633\u06d5\u0631\u0648\u0648", "name:ar": "\u0628\u06cc\u06a9\u0644\u0648 \u0627\u0644\u0639\u0644\u06cc\u0627", "name:ckb": "\u0628\u06ce\u06a9\u0644\u06c6\u06cc \u0633\u06d5\u0631\u0648\u0648", "name:de": "Beklo Upper", "name:en": "Beklo Upper", "name:fr": "Beklo Upper", "place": "village", "wikidata": "Q61389778", "wikipedia": "ckb:\u0628\u06ce\u06a9\u0644\u06c6\u06cc \u0633\u06d5\u0631\u0648\u0648"}}, {"type": "node", "id": 2488312751, "lat": 36.1705411, "lon": 45.1444192, "tags": {"name": "\u067e\u06ce\u0645\u0627\u06b5\u06a9", "name:de": "Baymalik", "name:en": "Baymalik", "name:fr": "Baymalik", "place": "village", "wikidata": "Q61389494", "wikipedia": "ckb:\u067e\u06ce\u0645\u0627\u06b5\u06a9"}}, {"type": "node", "id": 2488312752, "lat": 36.1061557, "lon": 45.1615381, "tags": {"is_in": "Iraq , \u062c\u0645\u0647\u0648\u0631\u064a\u0629 \u0627\u0644\u0639\u0631\u0627\u0642", "name": "\u0628\u06ce\u062e\u0695\u06ce", "name:ar1": "\u0646\u062c\u0631\u0629", "name:de": "Bekhra", "name:en": "Bekhra", "name:fr": "Bekhra", "place": "village"}}, {"type": "node", "id": 2488312753, "lat": 36.1560126, "lon": 45.1863825, "tags": {"alt_name": "\u0628\u06ce\u0645\u0648\u0648\u0634", "int_name": "Bemush, B\u0113m\u016bsh, Bimosh, Bim\u016bsh, \u0628\u0645\u0648\u0634, Bemush, Bemush, Bimosh, Bimush, \u0628\u0645\u0648\u0634", "name": "\u0628\u06ce\u0645\u0648\u0648\u0634", "name:de": "Bemush", "name:en": "Bemush", "name:fr": "Bemush", "place": "village", "wikidata": "Q61389517", "wikipedia": "ckb:\u062f\u06d5\u06b5\u06af\u06d5"}}, {"type": "node", "id": 2488312758, "lat": 36.2032206, "lon": 45.1422612, "tags": {"name": "\u0686\u06c6\u0645 \u062e\u0695\u06a9\u06d5", "name:de": "Chom Khrka", "name:en": "Chom Khrka", "name:fr": "Chom Khrka", "place": "village", "wikidata": "Q61389435", "wikipedia": "ckb:\u0686\u06c6\u0645 \u062e\u0695\u06a9\u06d5"}}, {"type": "node", "id": 2488312759, "lat": 36.1117714, "lon": 45.1829861, "tags": {"is_in": "Iraq , \u062c\u0645\u0647\u0648\u0631\u064a\u0629 \u0627\u0644\u0639\u0631\u0627\u0642", "name": "\u062f\u06d5\u06b5\u06af\u06d5", "name:ar": "\u062f\u0644\u0643\u0629", "name:ar1": "\u062f\u0631\u0643\u0629", "name:de": "Dalga", "name:en": "Dalga", "name:fr": "Dalga", "place": "village", "wikidata": "Q61389517", "wikipedia": "ckb:\u062f\u06d5\u06b5\u06af\u06d5"}}, {"type": "node", "id": 2488312760, "lat": 36.179861, "lon": 45.246528, "tags": {"name": "\u062f\u0627\u0631\u06d5\u0634\u0645\u0627\u0646\u06d5", "name:ar": "\u062f\u0627\u0631\u0629\u0634\u0645\u0627\u0646\u0629", "name:de": "Darahshmanah", "name:en": "Darahshmanah", "name:fr": "Darahshmanah", "place": "village"}}, {"type": "node", "id": 2488312761, "lat": 36.1884764, "lon": 45.2031491, "tags": {"name": "\u062f\u06c6\u06b5\u06d5\u062f\u0632\u06d5", "name:de": "Dawlah Dizah", "name:en": "Dawlah Dizah", "name:fr": "Dawlah Dizah", "place": "village", "wikidata": "Q61390408", "wikipedia": "ckb:\u062f\u06c6\u06b5\u06d5\u062f\u0632\u06d5"}}, {"type": "node", "id": 2488312762, "lat": 36.1665956, "lon": 45.202046, "tags": {"name": "\u062f\u06ce\u06af\u06d5", "name:de": "Dega", "name:en": "Dega", "name:fr": "Dega", "place": "village", "wikidata": "Q61389416", "wikipedia": "ckb:\u062f\u06ce\u06af\u06d5\u060c \u0642\u06d5\u06b5\u0627\u062f\u0632\u06ce"}}, {"type": "node", "id": 2488312763, "lat": 36.194472, "lon": 45.165528, "tags": {"name": "\u062f\u06ce\u0631\u06ce", "name:ar": "\u062f\u064a\u0631\u064a", "name:ar1": "\u062f\u064a\u0631\u064a", "name:de": "Dere", "name:en": "Dere", "name:fr": "Dere", "place": "village", "wikidata": "Q61389525", "wikipedia": "ckb:\u062f\u06ce\u0631\u06ce"}}, {"type": "node", "id": 2488312764, "lat": 36.167417, "lon": 45.160639, "tags": {"name": "\u062f\u0648\u0648\u0631\u06ce", "name:de": "Dure", "name:en": "Dure", "name:fr": "Dure", "place": "village", "wikidata": "Q61389474", "wikipedia": "ckb:\u062f\u0648\u0631\u06ce"}}, {"type": "node", "id": 2488312768, "lat": 36.1614806, "lon": 45.2398388, "tags": {"name": "\u06af\u06cc\u0631\u06d5", "name:ar": "\u06a9\u06cc\u0631\u0629", "name:de": "Gira", "name:en": "Gira", "name:fr": "Gira", "place": "village"}}, {"type": "node", "id": 2488312769, "lat": 36.1761899, "lon": 45.1695835, "tags": {"name": "\u06af\u0631\u062f\u06d5\u0633\u067e\u06cc\u0627\u0646", "name:de": "Girdaspiyan", "name:en": "Girdaspiyan", "name:fr": "Girdaspiyan", "place": "village", "wikidata": "Q61389442", "wikipedia": "ckb:\u06af\u0631\u062f\u06d5\u0633\u067e\u06cc\u0627\u0646"}}, {"type": "node", "id": 2488312770, "lat": 36.18475, "lon": 45.1615, "tags": {"alt_name": "\u0643\u0631\u0645\u064a\u0646\u0629", "int_name": "Girdmaetar, Girm\u0113sa, Grdmaitar, Kirmaynah, \u0643\u0631\u0645\u064a\u0646\u0629, Girdmaetar, Girmesa, Grdmaitar, Kirmaynah, \u0643\u0631\u0645\u064a\u0646\u0629", "name": "\u06af\u0631\u062f\u0645\u06d5\u06cc\u062a\u06d5\u0631", "name:ar": "\u06a9\u0631\u062f\u0645\u06cc\u062a\u0631", "name:ar1": "\u0643\u0631\u0645\u064a\u0646\u0629", "name:de": "Girdmaetar", "name:en": "Girdmaetar", "name:fr": "Girdmaetar", "place": "village", "wikidata": "Q61389549", "wikipedia": "ckb:\u06af\u0631\u062f\u0645\u06d5\u06cc\u062a\u06d5\u0631"}}, {"type": "node", "id": 2488312771, "lat": 36.1225847, "lon": 45.1408512, "tags": {"name": "\u0647\u06d5\u06b5\u0627\u0648\u06ce\u0698\u06d5", "name:ar": "\u0647\u0644\u0627\u0648\u06cc\u0632\u0629", "name:de": "Halawezha", "name:en": "Halawezha", "name:fr": "Halawezha", "place": "village", "wikidata": "Q61389563", "wikipedia": "ckb:\u06be\u06d5\u06b5\u0627\u0648\u06ce\u0698\u06d5"}}, {"type": "node", "id": 2488312772, "lat": 36.2090201, "lon": 45.2588094, "tags": {"capital": "7", "name": "\u06be\u06d5\u06b5\u0634\u06c6", "name:ar": "\u06be\u0644\u0634\u0648", "name:ckb": "\u06be\u06d5\u06b5\u0634\u06c6", "name:de": "Halsho", "name:en": "Halsho", "name:fr": "Halsho", "name:ku": "Hell\u015fo", "place": "town", "wikidata": "Q61390206", "wikipedia": "ckb:\u06be\u06d5\u06b5\u0634\u06c6"}}, {"type": "node", "id": 2488312773, "lat": 36.2077564, "lon": 45.2732927, "tags": {"name": "\u0633\u0627\u0644\u06a9", "name:ar": "\u0633\u0627\u0644\u06a9", "name:de": "Salk", "name:en": "Salk", "name:fr": "Salk", "place": "village"}}, {"type": "node", "id": 2488312774, "lat": 36.1819717, "lon": 45.14464, "tags": {"name": "\u062d\u06d5\u0633\u0627\u0631", "name:de": "Hasar", "name:en": "Hasar", "name:fr": "Hasar", "place": "village", "wikidata": "Q61389438", "wikipedia": "ckb:\u062d\u06d5\u0633\u0627\u0631"}}, {"type": "node", "id": 2488312775, "lat": 36.1853721, "lon": 45.2278613, "tags": {"name": "\u0647\u0648\u0631\u06ce\u0648\u06d5", "name:ar": "\u06be\u0648\u0631\u06cc\u0648\u0629", "name:de": "Hurewa", "name:en": "Hurewa", "name:fr": "Hurewa", "place": "village"}}, {"type": "node", "id": 2488312776, "lat": 36.164333, "lon": 45.220139, "tags": {"name": "\u06a9\u0627\u0646\u06cc\u0644\u0627\u0646", "name:de": "Kani Lan", "name:en": "Kani Lan", "name:fr": "Kani Lan", "place": "village"}}, {"type": "node", "id": 2488312778, "lat": 36.192499, "lon": 45.1955569, "tags": {"alt_name": "\u0643\u0633\u062a\u0627\u0646", "int_name": "Kast\u0101n, Kastana, Kast\u0101na, Kshan, \u0643\u0633\u062a\u0627\u0646, Kastan, Kastana, Kastana, Kshan, \u0643\u0633\u062a\u0627\u0646", "name": "\u06a9\u06d5\u0633\u062a\u0627\u0646\u06d5", "name:de": "Kastan", "name:en": "Kastan", "name:fr": "Kastan", "place": "village"}}, {"type": "node", "id": 2488312779, "lat": 36.1277853, "lon": 45.1702495, "tags": {"name": "\u06a9\u06d5\u0648\u06cc\u06d5\u06cc \u0633\u06d5\u0631\u0648\u0648", "name:de": "Kawya Upper", "name:en": "Kawya Upper", "name:fr": "Kawya Upper", "place": "village", "wikidata": "Q61389470", "wikipedia": "ckb:\u06a9\u06d5\u0648\u06cc\u06d5\u06cc \u0633\u06d5\u0631\u0648\u0648"}}, {"type": "node", "id": 2488312781, "lat": 36.1629134, "lon": 45.1889094, "tags": {"name": "\u06a9\u06c6\u0644\u0627\u0631\u06d5", "name:de": "Kawlar", "name:en": "Kawlar", "name:fr": "Kawlar", "place": "village", "wikidata": "Q61389544", "wikipedia": "ckb:\u06a9\u06c6\u0644\u0627\u0631\u06d5\u060c \u0642\u06d5\u06b5\u0627\u062f\u0632\u06ce"}}, {"type": "node", "id": 2488312783, "lat": 36.124056, "lon": 45.171472, "tags": {"int_name": "Kawya New, Kawya New", "name": "\u06a9\u06d5\u0648\u06cc\u06d5\u06cc \u062e\u0648\u0627\u0631\u0648\u0648", "name:ar": "\u0643\u0648\u064a\u0629 \u0633\u0641\u0644\u06cc", "name:ckb": "\u06a9\u06d5\u0648\u06cc\u06d5\u06cc \u0646\u0648\u06ce", "name:de": "Kawya Lower", "name:en": "Kawya Lower", "name:fr": "Kawya Lower", "place": "village", "wikidata": "Q61389469", "wikipedia": "ckb:\u06a9\u06d5\u0648\u06cc\u06d5\u06cc \u062e\u0648\u0627\u0631\u0648\u0648"}}, {"type": "node", "id": 2488312784, "lat": 36.1851008, "lon": 45.1837799, "tags": {"name": "\u062e\u0695\u06d5\u0628\u06d5\u0631\u062f\u0627\u0646", "name:de": "Khira Bardan", "name:en": "Khira Bardan", "name:fr": "Khira Bardan", "place": "village", "wikidata": "Q61389511", "wikipedia": "ckb:\u062e\u0695\u06d5\u0628\u06d5\u0631\u062f\u0627\u0646"}}, {"type": "node", "id": 2488312785, "lat": 36.203169, "lon": 45.181518, "tags": {"name": "\u06a9\u0648\u0646\u06d5\u0695\u06ce\u0648\u06cc", "name:de": "Kudarawi", "name:en": "Kudarawi", "name:fr": "Kudarawi", "place": "village"}}, {"type": "node", "id": 2488312787, "lat": 36.1976073, "lon": 45.268184, "tags": {"name": "\u0646\u06c6\u0695\u0633\u062a\u06d5", "name:ar": "\u0646\u0648\u0631\u0633\u062a\u0629", "name:de": "Norsta", "name:en": "Norsta", "name:fr": "Norsta", "place": "village"}}, {"type": "node", "id": 2488312788, "lat": 36.1307163, "lon": 45.1554051, "tags": {"name": "\u0646\u0648\u0648\u0631\u06d5\u062f\u06cc\u0646", "name:ar": "\u0646\u0648\u0631\u0627\u0644\u062f\u06cc\u0646", "name:de": "Nuraddin", "name:en": "Nuraddin", "name:fr": "Nuraddin", "place": "village", "wikidata": "Q61389423", "wikipedia": "ckb:\u0646\u0648\u0631\u06d5\u062f\u06cc\u0646"}}, {"type": "node", "id": 2488312789, "lat": 36.1827177, "lon": 45.2371593, "tags": {"alt_name": "\u0642\u0644\u0629 \u0645\u0627\u0631\u0641\u0629", "int_name": "Qula M\u0101rfa, Qula Marfa", "name": "\u0642\u0648\u06b5\u0645\u0627\u0631\u0641", "name:ar": "\u0642\u0648\u0644\u0645\u0627\u0631\u0641", "name:de": "Qulmarf", "name:en": "Qulmarf", "name:fr": "Qulmarf", "place": "village"}}, {"type": "node", "id": 2488312790, "lat": 36.1521073, "lon": 45.2243611, "tags": {"is_in": "Iraq , \u062c\u0645\u0647\u0648\u0631\u064a\u0629 \u0627\u0644\u0639\u0631\u0627\u0642", "name": "\u0634\u06b5\u06d5\u0645\u0695\u06d5", "name:ar": "\u0634\u0644\u0645\u0631\u0629", "name:ar1": "\u0634\u0644\u0645\u0631\u0629", "name:de": "Shalmara", "name:en": "Shalmara", "name:fr": "Shalmara", "place": "village"}}, {"type": "node", "id": 2488312791, "lat": 36.230009, "lon": 45.1998013, "tags": {"is_in": "Iraq , \u062c\u0645\u0647\u0648\u0631\u064a\u0629 \u0627\u0644\u0639\u0631\u0627\u0642", "name": "\u0634\u06c6\u0631\u0627\u0646", "name:ar": "\u0634\u0648\u062f\u0627\u0646", "name:ar1": "\u0634\u0648\u062f\u0627\u0646", "name:de": "Shodan", "name:en": "Shodan", "name:fr": "Shodan", "place": "village"}}, {"type": "node", "id": 2488312792, "lat": 36.205833, "lon": 45.183889, "tags": {"alt_name": "\u0647\u0644\u0634\u0648", "int_name": "Tangzha, Tangzha", "name": "\u062a\u06d5\u0646\u06af\u0698\u06d5", "name:de": "Tangzha", "name:en": "Tangzha", "name:fr": "Tangzha", "place": "village"}}, {"type": "node", "id": 2488312793, "lat": 36.1886616, "lon": 45.1790759, "tags": {"alt_name": "\u062a\u0648\u0631\u0634\u0629", "int_name": "Tuwarasha, Tuwarashah, \u062a\u0648\u0631\u0634\u0629, Tuwarasha, Tuwarashah, \u062a\u0648\u0631\u0634\u0629", "name": "\u062a\u0648\u0648\u06d5\u0695\u06d5\u0634\u0627\u0646", "name:de": "Tuwarasha", "name:en": "Tuwarasha", "name:fr": "Tuwarasha", "place": "village", "wikidata": "Q61389497", "wikipedia": "ckb:\u062a\u0648\u0648\u06d5\u0695\u06d5\u0634\u0627\u0646"}}, {"type": "node", "id": 2488312796, "lat": 36.142222, "lon": 45.264278, "tags": {"is_in": "Iraq , \u062c\u0645\u0647\u0648\u0631\u064a\u0629 \u0627\u0644\u0639\u0631\u0627\u0642", "name": "\u0648\u06d5\u0633\u0648\u06ce\u0646\u06d5", "name:ar": "\u0648\u0633\u0648\u06cc\u0646\u0629", "name:ar1": "\u0648\u0633\u0648\u0646\u064a\u0627", "name:de": "Waswena", "name:en": "Waswena", "name:fr": "Waswena", "place": "village"}}, {"type": "node", "id": 2488312797, "lat": 36.1771689, "lon": 45.1546255, "tags": {"alt_name": "\u0648\u0633\u062a\u0629 \u0633\u0646\u0645\u0644", "int_name": "Wast\u0101 S\u0113man, Wastah Sanmal, \u0648\u0633\u062a\u0629 \u0633\u0646\u0645\u0644, Wasta Seman, Wastah Sanmal, \u0648\u0633\u062a\u0629 \u0633\u0646\u0645\u0644", "name": "\u0648\u06d5\u0633\u062a\u0627 \u0633\u06cc\u0645\u0627\u0646", "name:de": "Wasta Seman", "name:en": "Wasta Seman", "name:fr": "Wasta Seman", "place": "village", "wikidata": "Q61389564", "wikipedia": "ckb:\u0648\u06d5\u0633\u062a\u0627\u0633\u06cc\u0645\u0627\u0646"}}, {"type": "node", "id": 2488312885, "lat": 36.1609139, "lon": 45.1020636, "tags": {"name": "\u0628\u0646\u06d5\u0648\u0634\u0627\u0646", "name:ar": "\u0628\u0646\u0648\u0634\u0627\u0646", "name:ar1": "\u0628\u0646\u0648\u0634\u0627\u0646", "name:de": "Binawshan", "name:en": "Binawshan", "name:fr": "Binawshan", "place": "village", "wikidata": "Q61389403", "wikipedia": "ckb:\u0628\u0646\u06d5\u0648\u0634\u0627\u0646"}}, {"type": "node", "id": 2488312886, "lat": 36.1129516, "lon": 45.1242131, "tags": {"alt_name": "\u0632\u0648\u0643\u0629", "int_name": "Biz\u014dka, Bizuko, Z\u016bkah, \u0632\u0648\u0643\u0647, Bizoka, Bizuko, Zukah, \u0632\u0648\u0643\u0647", "name": "\u0646\u06ce\u0632\u06c6\u06a9\u06d5", "name:de": "Nezoka", "name:en": "Nezoka", "name:fr": "Nezoka", "place": "village"}}, {"type": "node", "id": 2488312896, "lat": 36.1720143, "lon": 45.0825672, "tags": {"name": "\u062f\u06d5\u0642\u0646\u0627\u0648\u06d5", "name:ar": "\u062f\u0642\u0646\u0627\u0648\u0629", "name:ar1": "\u062f\u0642\u0646\u0627\u0648\u0629", "name:de": "Daqnawa", "name:en": "Daqnawa", "name:fr": "Daqnawa", "place": "village", "wikidata": "Q61389405", "wikipedia": "ckb:\u062f\u06d5\u0642\u0646\u0627\u0648\u06d5"}}, {"type": "node", "id": 2488312897, "lat": 36.180876, "lon": 45.124141, "tags": {"alt_name": "\u0642\u0644\u0639\u0629 \u062f\u0632\u0629", "capital": "7", "int_name": "Qaladiza", "is_in:country": "Iraq", "is_in:country_code": "IQ", "name": "\u0642\u06d5\u06b5\u0627\u062f\u0632\u06ce", "name:ar": "\u0642\u0644\u0639\u0629 \u062f\u0632\u0629", "name:ckb": "\u0642\u06d5\u06b5\u0627\u062f\u0632\u06ce", "name:en": "Qaladiza", "name:fr": "Qaladze", "name:ja": "\u30ab\u30e9\u30c3\u30c8\u30fb\u30c7\u30a3\u30a2\u30fc", "name:ku": "Qeladiz\u00ea", "name:ml": "\u0d16\u0d32\u0d3e\u0d26\u0d4d\u0d38\u0d46", "name:ru": "\u041a\u0430\u043b\u044a\u0430\u0442-\u0414\u0438\u0437\u0430", "place": "town", "population": "140836", "source:population": "https://ku.wikipedia.org/wiki/Qeladiz%C3%AA", "wikidata": "Q2625858", "wikipedia": "ckb:\u0642\u06d5\u06b5\u0627\u062f\u0632\u06ce"}}, {"type": "node", "id": 2488312901, "lat": 36.1271327, "lon": 45.1167845, "tags": {"name": "\u06af\u06d5\u0631\u0645\u06a9\u0627\u0646", "name:de": "Garmakan", "name:en": "Garmakan", "name:fr": "Garmakan", "place": "village"}}, {"type": "node", "id": 2488312904, "lat": 36.1695901, "lon": 45.0849479, "tags": {"name": "\u06af\u0648\u06ce\u0632\u06cc\u0644\u06d5", "name:ar": "\u0643\u0648\u064a\u0632\u064a\u0629", "name:ar1": "\u0643\u0648\u064a\u0632\u064a\u0629", "name:de": "Gozila", "name:en": "Gozila", "name:fr": "Gozila", "place": "village", "wikidata": "Q61389451", "wikipedia": "ckb:\u06af\u0648\u06ce\u0632\u06cc\u0644\u06d5\u060c \u0642\u06d5\u06b5\u0627\u062f\u0632\u06ce"}}, {"type": "node", "id": 2488312907, "lat": 36.120444, "lon": 45.095, "tags": {"alt_name": "\u0643\u0627\u0646\u064a \u0647\u0646\u062c\u064a\u0631", "int_name": "Kani Hanjer, Kani Hanjir, K\u0101n\u012b Hanj\u012br, Kani Hanjer, Kani Hanjir, Kani Hanjir", "name": "\u06a9\u0627\u0646\u06cc \u0647\u06d5\u0646\u062c\u06cc\u0631", "name:ar": "\u0643\u0627\u0646\u064a \u0647\u0646\u062c\u064a\u0631", "name:ckb": "\u06a9\u0627\u0646\u06cc \u0647\u06d5\u0646\u062c\u06cc\u0631", "name:de": "Kani Hanjer", "name:en": "Kani Hanjer", "name:fr": "Kani Hanjer", "place": "village"}}, {"type": "node", "id": 2488312908, "lat": 36.227667, "lon": 45.090583, "tags": {"name": "\u06a9\u06d5\u0648\u06cc \u0628\u0627\u0628\u06d5\u0633\u06d5\u0646", "name:ar": "\u06a9\u0648\u06cc \u0628\u0627\u0628\u0629\u0633\u0646", "name:en": "Kawi Babasan", "place": "village", "wikidata": "Q61389535", "wikipedia": "ckb:\u06a9\u06d5\u0648\u06cc \u0628\u0627\u0628\u06d5\u0633\u0627\u0646"}}, {"type": "node", "id": 2488312910, "lat": 36.097022, "lon": 45.125671, "tags": {"is_in": "Iraq , \u062c\u0645\u0647\u0648\u0631\u064a\u0629 \u0627\u0644\u0639\u0631\u0627\u0642", "name": "\u062e\u0627\u0646\u06d5\u06b5\u06ce", "name:ar": "\u062e\u0627\u0646\u0644\u0629", "name:ar1": "\u062e\u0627\u0646\u0644\u0629", "name:de": "Khanala", "name:en": "Khanala", "name:fr": "Khanala", "place": "village"}}, {"type": "node", "id": 2488312911, "lat": 36.1584746, "lon": 45.1148302, "tags": {"name": "\u062e\u0627\u0633", "name:ar": "\u062e\u0627\u0635", "name:ar1": "\u062e\u0627\u0635", "name:de": "Khas", "name:en": "Khas", "name:fr": "Khas", "place": "village", "wikidata": "Q61389505", "wikipedia": "ckb:\u062e\u0627\u0633"}}, {"type": "node", "id": 2488312915, "lat": 36.141603, "lon": 45.0922813, "tags": {"is_in": "Iraq , \u062c\u0645\u0647\u0648\u0631\u064a\u0629 \u0627\u0644\u0639\u0631\u0627\u0642", "name": "\u0646\u0627\u0648\u062f\u06d5\u0634\u062a", "name:ar": "\u0646\u0627\u0648 \u062f\u0634\u062a", "name:ar1": "\u0646\u0627\u0648 \u062f\u0634\u062a", "name:de": "Naw Dasht", "name:en": "Naw Dasht", "name:fr": "Naw Dasht", "place": "village"}}, {"type": "node", "id": 2488312919, "lat": 36.0925, "lon": 45.096556, "tags": {"name": "\u0633\u06d5\u0631\u0686\u06cc\u0627", "name:ar": "\u0633\u0631\u062c\u064a\u0627", "name:ckb": "\u0633\u06d5\u0631\u0686\u06cc\u0627", "name:en": "Sarchya", "name:ku": "Ser\u00e7iya", "place": "village", "wikidata": "Q61388617", "wikipedia": "ckb:\u0633\u06d5\u0631\u0686\u06cc\u0627"}}, {"type": "node", "id": 2488312938, "lat": 36.243528, "lon": 45.193389, "tags": {"is_in": "Iraq , \u062c\u0645\u0647\u0648\u0631\u064a\u0629 \u0627\u0644\u0639\u0631\u0627\u0642", "name": "\u0626\u06c6\u0645\u06d5\u0631 \u06a9\u0627\u06a9\u06c6\u06b5", "name:ar": "\u0645\u064a\u0631\u0643\u0647\u0643\u062f", "name:ar1": "\u0645\u064a\u0631\u0643\u0647\u0643\u062f", "name:de": "Amar Kakol", "name:en": "Amar Kakol", "name:fr": "Amar Kakol", "place": "village"}}, {"type": "node", "id": 2488312939, "lat": 36.252333, "lon": 45.166889, "tags": {"name": "\u0628\u0627\u062f\u0627\u0648\u06d5", "name:ar": "\u0628\u0627\u062f\u0627\u0648\u0629", "name:ar1": "\u0628\u0627\u062f\u0627\u0648\u0629", "name:de": "Badawa", "name:en": "Badawa", "name:fr": "Badawa", "place": "village"}}, {"type": "node", "id": 2488312941, "lat": 36.2736243, "lon": 45.149222, "tags": {"alt_name": "\u0628\u0627\u0644\u0643\u064a", "int_name": "B\u0101lk\u012b, \u0628\u0627\u0644\u0643\u064a, Balki, \u0628\u0627\u0644\u0643\u064a", "is_in": "Iraq , \u062c\u0645\u0647\u0648\u0631\u064a\u0629 \u0627\u0644\u0639\u0631\u0627\u0642", "name": "\u0628\u06d5\u0644\u06a9", "name:ar": "\u0628\u0629\u0644\u06a9", "name:ar1": "\u0628\u0627\u0644\u0643\u064a;\u0628\u0644\u0643", "name:de": "Balk", "name:en": "Balk", "name:fr": "Balk", "place": "village"}}, {"type": "node", "id": 2488312943, "lat": 36.2525204, "lon": 45.1433183, "tags": {"alt_name": "\u0628\u0631\u0627\u0632\u0629 \u0642\u0646\u0627", "int_name": "Baraza Qana, Bar\u0101za Qan\u0101, Baraza Qana, Baraza Qana", "name": "\u0645\u06cc\u0631\u062a\u06a9\u06d5", "name:ar": "\u0645\u06cc\u0631\u062a\u06a9\u0629", "name:ar1": "\u0628\u0631\u0627\u0632\u0629 \u0642\u0646\u0627;\u0645\u064a\u0631\u062a\u0643\u0629", "name:de": "Mirtka", "name:en": "Mirtka", "name:fr": "Mirtka", "place": "village"}}, {"type": "node", "id": 2488312944, "lat": 36.334583, "lon": 45.195361, "tags": {"is_in": "Iraq , \u062c\u0645\u0647\u0648\u0631\u064a\u0629 \u0627\u0644\u0639\u0631\u0627\u0642", "name": "\u0628\u06d5\u0633\u062a\u06ce", "name:ar": "\u0628\u0629\u0633\u062a\u064a", "name:ar1": "\u0628\u0633\u062a\u0629", "name:de": "Baste", "name:en": "Baste", "name:fr": "Baste", "name:ru": "\u0411\u0430\u0441\u0442\u0430", "place": "village"}}, {"type": "node", "id": 2488312956, "lat": 36.2531987, "lon": 45.1574538, "tags": {"alt_name": "\u062f\u064a\u0644\u0648\u0643;\u062e\u0648\u0631\u0627\u0646", "int_name": "D\u0101l\u016bk, Daylawk, Delow, D\u0113l\u016bk, \u062f\u064a\u0644\u0648\u0643, Daluk, Daylawk, Delow, Deluk, \u062f\u064a\u0644\u0648\u0643;Khwaran, Khwaran", "is_in": "Iraq , \u062c\u0645\u0647\u0648\u0631\u064a\u0629 \u0627\u0644\u0639\u0631\u0627\u0642", "name": "\u062e\u0648\u0627\u0631\u0627\u0646", "name:ar": "\u062e\u0648\u0627\u0631\u0627\u0646", "name:ar1": "\u062f\u064a\u0644\u0648\u0643;\u062e\u0648\u0631\u0627\u0646", "name:de": "Khwaran", "name:en": "Khwaran", "name:fr": "Khwaran", "place": "village"}}, {"type": "node", "id": 2488312957, "lat": 36.276806, "lon": 45.093472, "tags": {"alt_name": "\u062f\u0631\u0643\u0644\u0629", "int_name": "Dargala, Dargalah, Darkalah, \u062f\u0631\u0643\u0644\u0629, \u062f\u0631\u06af\u0644\u0629, Dargala, Dargalah, Darkalah, \u062f\u0631\u0643\u0644\u0629, \u062f\u0631\u06af\u0644\u0629", "is_in": "Iraq , \u062c\u0645\u0647\u0648\u0631\u064a\u0629 \u0627\u0644\u0639\u0631\u0627\u0642", "name": "\u0632\u0648\u062f\u0627\u0646\u06cc \u062a\u0627\u0632\u06d5", "name:ar": "\u0632\u0648\u062f\u0627\u0646\u06cc \u062a\u0627\u0632\u0629", "name:ar1": "\u062f\u0631\u0643\u0644\u0629", "name:de": "Zudani Taza", "name:en": "Zudani Taza", "name:fr": "Zudani Taza", "place": "village"}}, {"type": "node", "id": 2488312960, "lat": 36.2636817, "lon": 45.1174991, "tags": {"alt_name": "\u062f\u0648 \u062c\u0648\u0645\u0627\u0646", "int_name": "Do Djoman, D\u016b Chawm\u0101n, Duchoman, D\u016bch\u014dm\u0101n, D\u016bj\u016bman, \u062f\u0648 \u0686\u0648\u0645\u0627\u0646, Do Djoman, Du Chawman, Duchoman, Duchoman, Dujuman, \u062f\u0648 \u0686\u0648\u0645\u0627\u0646", "is_in": "Iraq , \u062c\u0645\u0647\u0648\u0631\u064a\u0629 \u0627\u0644\u0639\u0631\u0627\u0642", "name": "\u062f\u0648\u0648\u0686\u06c6\u0645\u0627\u0646", "name:ar": "\u062f\u0648\u062c\u0648\u0645\u0627\u0646", "name:ar1": "\u062f\u0648 \u062c\u0648\u0645\u0627\u0646;\u062f\u0648\u062c\u0648\u0645\u0646", "name:de": "Duchoman", "name:en": "Duchoman", "name:fr": "Duchoman", "place": "village"}}, {"type": "node", "id": 2488312962, "lat": 36.2722037, "lon": 45.1233988, "tags": {"is_in": "Iraq , \u062c\u0645\u0647\u0648\u0631\u064a\u0629 \u0627\u0644\u0639\u0631\u0627\u0642", "name": "\u06af\u0631\u062f\u0626\u06ce\u0633\u062a\u0631", "name:ar": "\u0643\u0631\u062f \u0626\u06cc\u0633\u062a\u0631", "name:ar1": "\u0643\u0631\u062f \u0647\u0633\u062a\u0631", "name:de": "Grd Estr", "name:en": "Grd Estr", "name:fr": "Grd Estr", "place": "village"}}, {"type": "node", "id": 2488312964, "lat": 36.311861, "lon": 45.140417, "tags": {"is_in": "Iraq , \u062c\u0645\u0647\u0648\u0631\u064a\u0629 \u0627\u0644\u0639\u0631\u0627\u0642", "name": "\u06a9\u06c6\u0632\u06cc\u0646\u06d5", "name:ar": "\u0643\u0648\u0632\u064a\u0646\u0629", "name:ar1": "\u0643\u0648\u0632\u064a\u0646\u0629", "name:de": "Gozena", "name:en": "Gozena", "name:fr": "Gozena", "place": "village"}}, {"type": "node", "id": 2488312968, "lat": 36.300722, "lon": 45.147833, "tags": {"is_in": "Iraq , \u062c\u0645\u0647\u0648\u0631\u064a\u0629 \u0627\u0644\u0639\u0631\u0627\u0642", "name": "\u06a9\u0648\u06b5\u06a9\u0648\u06b5\u06d5", "name:ar": "\u06a9\u0648\u0644\u06a9\u0648\u0644\u0629", "name:ar1": "\u0643\u0644\u0643\u0627\u0644\u0629", "name:de": "Kulkalah", "name:en": "Kulkalah", "name:fr": "Kulkalah", "place": "village"}}, {"type": "node", "id": 2488312971, "lat": 36.2450146, "lon": 45.119551, "tags": {"name": "\u0695\u06cc\u0634\u0648\u0627\u0646", "name:ar": "\u0631\u0634\u0648\u0627\u0646", "name:ar1": "\u0631\u0634\u0648\u0627\u0646", "name:de": "Rishwan", "name:en": "Rishwan", "name:fr": "Rishwan", "place": "village", "wikidata": "Q61389418", "wikipedia": "ckb:\u0695\u06cc\u0634\u0648\u0627\u0646"}}, {"type": "node", "id": 2488312973, "lat": 36.2282447, "lon": 45.1137684, "tags": {"name": "\u0633\u0631\u06cc\u062c\u06d5", "name:ar": "\u0633\u0631\u064a\u062d\u0629", "name:ar1": "\u0633\u0631\u064a\u062d\u0629", "name:de": "Sarijah", "name:en": "Sarijah", "name:fr": "Sarijah", "place": "village", "wikidata": "Q61389527", "wikipedia": "ckb:\u0633\u0631\u06cc\u062c\u06d5"}}, {"type": "node", "id": 2488312974, "lat": 36.3061179, "lon": 45.2187936, "tags": {"is_in": "Iraq , \u062c\u0645\u0647\u0648\u0631\u064a\u0629 \u0627\u0644\u0639\u0631\u0627\u0642", "name": "\u0633\u06d5\u0631\u062e\u0627\u0646", "name:ar": "\u0633\u0631\u062e\u0627\u0646", "name:ar1": "\u0633\u0631\u062e\u0646", "name:de": "Sarkban", "name:en": "Sarkhan", "name:fr": "Sarkban", "place": "village"}}, {"type": "node", "id": 2488312975, "lat": 36.2746095, "lon": 45.0836008, "tags": {"is_in": "Iraq , \u062c\u0645\u0647\u0648\u0631\u064a\u0629 \u0627\u0644\u0639\u0631\u0627\u0642", "name": "\u0633\u06ce\u062f\u06d5\u06b5\u0627\u0646", "name:ar": "\u0633\u06cc\u062f\u0644\u0627\u0646", "name:ar1": "\u0633\u064a\u062f\u0627\u0646", "name:de": "Sedalan", "name:en": "Sedalan", "name:fr": "Sedalan", "place": "village"}}, {"type": "node", "id": 2488312976, "lat": 36.2829111, "lon": 45.0882123, "tags": {"alt_name": "\u0634\u0631\u0648\u064a\u062a", "int_name": "Sharw\u0113t, Sharw\u012bt, \u0634\u0631\u0648\u064a\u062a, Sharwet, Sharwit, \u0634\u0631\u0648\u064a\u062a", "is_in": "Iraq , \u062c\u0645\u0647\u0648\u0631\u064a\u0629 \u0627\u0644\u0639\u0631\u0627\u0642", "name": "\u0634\u0631\u0648\u06ce\u062a", "name:ar": "\u0634\u0631\u0648\u064a\u062a", "name:ar1": "\u0634\u0631\u0648\u064a\u062a", "name:de": "Shrwet", "name:en": "Shrwet", "name:fr": "Shrwet", "place": "village"}}, {"type": "node", "id": 2488312977, "lat": 36.2608368, "lon": 45.2057647, "tags": {"is_in": "Iraq , \u062c\u0645\u0647\u0648\u0631\u064a\u0629 \u0627\u0644\u0639\u0631\u0627\u0642", "name": "\u0634\u06cc\u0648\u06d5\u0695\u06d5\u0632\u06cc \u0633\u06d5\u0631\u0648\u0648", "name:ar": "\u0634\u064a\u0648\u0631\u0632\u064a \u0627\u0644\u0639\u0644\u06cc\u0627", "name:ar1": "\u0634\u064a\u0648\u0631\u0632", "name:de": "Shiwaraz Upper", "name:en": "Shiwaraz Upper", "name:fr": "Shiwaraz Upper", "place": "village"}}, {"type": "node", "id": 2488312978, "lat": 36.2854142, "lon": 45.1236884, "tags": {"is_in": "Iraq , \u062c\u0645\u0647\u0648\u0631\u064a\u0629 \u0627\u0644\u0639\u0631\u0627\u0642", "name": "\u0633\u067e\u06cc\u0631\u06c6", "name:ar": "\u0633\u0628\u0631\u0648", "name:ar1": "\u0633\u0628\u0631\u0648", "name:de": "Spero", "name:en": "Spero", "name:fr": "Spero", "place": "village"}}, {"type": "node", "id": 2488312979, "lat": 36.291975, "lon": 45.2350027, "tags": {"alt_name": "\u0633\u0648\u0646\u0629", "int_name": "S\u016bna, S\u016bnah, S\u016bne, \u0633\u0648\u0646\u0629, Suna, Sunah, Sune, \u0633\u0648\u0646\u0629", "is_in": "Iraq , \u062c\u0645\u0647\u0648\u0631\u064a\u0629 \u0627\u0644\u0639\u0631\u0627\u0642", "name": "\u0633\u0648\u0646\u06ce", "name:ar": "\u0633\u0648\u0646\u064a", "name:ar1": "\u0633\u0648\u0646\u0629", "name:de": "Sune", "name:en": "Sune", "name:fr": "Sune", "place": "village"}}, {"type": "node", "id": 2488312996, "lat": 36.3077668, "lon": 45.0861392, "tags": {"alt_name": "\u0632\u0648\u062f\u0646", "int_name": "Zodan, Zodan, Z\u016bdan, \u0632\u0648\u062f\u0646, Zodan, Zodan, Zudan, \u0632\u0648\u062f\u0646", "is_in": "Iraq , \u062c\u0645\u0647\u0648\u0631\u064a\u0629 \u0627\u0644\u0639\u0631\u0627\u0642", "name": "\u0632\u0648\u062f\u0627\u0646\u06cc \u06a9\u06c6\u0646", "name:ar": "\u0632\u0648\u062f\u0627\u0646 \u06a9\u0648\u0646", "name:ar1": "\u0632\u0648\u062f\u0646", "name:de": "Zudani Kon", "name:en": "Zudani Kon", "name:fr": "Zudani Kon", "place": "village"}}, {"type": "node", "id": 2488317364, "lat": 36.3856345, "lon": 45.0843962, "tags": {"alt_name": "\u0623\u0628\u0648 \u0628\u0643\u0631", "int_name": "Ab\u016b Bakir, Abu Bakra, Abu Bakre Lower, Am\u014d Bakir, Amobakr, Am\u016b Bakr, \u0627\u0628\u0648 \u0628\u0643\u0631, \u0627\u0645\u0648 \u0628\u0643\u0631, Abu Bakir, Abu Bakra, Abu Bakre Lower, Amo Bakir, Amobakr, Amu Bakr, \u0627\u0628\u0648 \u0628\u0643\u0631, \u0627\u0645\u0648 \u0628\u0643\u0631", "is_in": "Iraq , \u062c\u0645\u0647\u0648\u0631\u064a\u0629 \u0627\u0644\u0639\u0631\u0627\u0642", "name": "\u0626\u06d5\u0628\u0648\u0628\u06d5\u06a9\u0631\u06d5", "name:ar": "\u0623\u0628\u0648 \u0628\u0643\u0631\u0629", "name:ar1": "\u0623\u0628\u0648 \u0628\u0643\u0631", "name:de": "Abubakra", "name:en": "Abubakra", "name:fr": "Abubakra", "place": "village"}}, {"type": "node", "id": 2488317369, "lat": 36.3607592, "lon": 45.1831213, "tags": {"alt_name": "\u0648\u0631\u0643\u0644\u0629", "int_name": "Arka Upper, Warkala, Arka Upper, Warkala", "is_in": "Iraq , \u062c\u0645\u0647\u0648\u0631\u064a\u0629 \u0627\u0644\u0639\u0631\u0627\u0642", "name": "\u0626\u06d5\u0631\u06a9\u06ce\u06cc \u0633\u06d5\u0631\u0648\u0648", "name:ar": "\u0622\u0631\u06a9\u064a \u0627\u0644\u0639\u0644\u06cc\u0627", "name:ar1": "\u0648\u0631\u0643\u0644\u0629", "name:de": "Arke Upper", "name:en": "Arke Upper", "name:fr": "Arke Upper", "place": "village"}}, {"type": "node", "id": 2488317370, "lat": 36.3533951, "lon": 45.1817258, "tags": {"alt_name": "\u0622\u0631\u0643\u0629", "int_name": "Arka, Arka Lower, \u0100rkah, \u0622\u0631\u0643\u0629, Arka, Arka Lower, Arkah, \u0622\u0631\u0643\u0629", "is_in": "Iraq , \u062c\u0645\u0647\u0648\u0631\u064a\u0629 \u0627\u0644\u0639\u0631\u0627\u0642", "name": "\u0626\u06d5\u0631\u06a9\u06ce\u06cc \u062e\u0648\u0627\u0631\u0648\u0648", "name:ar": "\u0622\u0631\u06a9\u064a \u0627\u0644\u0633\u0641\u0644\u06cc", "name:ar1": "\u0622\u0631\u0643\u0629", "name:de": "Arke Lower", "name:en": "Arke Lower", "name:fr": "Arke Lower", "place": "village"}}, {"type": "node", "id": 2488317371, "lat": 36.364917, "lon": 45.167056, "tags": {"is_in": "Iraq , \u062c\u0645\u0647\u0648\u0631\u064a\u0629 \u0627\u0644\u0639\u0631\u0627\u0642", "name": "\u0633\u067e\u06cc\u06af\u06b5\u06d5", "name:ar": "\u0633\u0628\u06cc\u06a9\u0644\u0629", "name:ar1": "\u0623\u0633\u0628\u0644\u0643\u0629", "name:de": "Spigla", "name:en": "Spigla", "name:fr": "Spigla", "place": "village"}}, {"type": "node", "id": 2488317382, "lat": 36.401916, "lon": 45.1680946, "tags": {"is_in": "Iraq , \u062c\u0645\u0647\u0648\u0631\u064a\u0629 \u0627\u0644\u0639\u0631\u0627\u0642", "name": "\u0628\u0627\u0646\u06d5\u0633\u0648\u0648\u0631", "name:ar": "\u0628\u0627\u0646\u0629 \u0633\u0648\u0631", "name:ar1": "\u0628\u0627\u0646\u0629 \u0633\u0648\u0631", "name:de": "Banah Sur", "name:en": "Banah Sur", "name:fr": "Banah Sur", "place": "village"}}, {"type": "node", "id": 2488317383, "lat": 36.4014717, "lon": 45.1678659, "tags": {"alt_name": "\u0628\u0646\u0633", "int_name": "Banas, Banas", "is_in": "Iraq , \u062c\u0645\u0647\u0648\u0631\u064a\u0629 \u0627\u0644\u0639\u0631\u0627\u0642", "name": "\u0628\u0646\u0633", "name:ar": "\u0628\u0646\u0633", "name:ar1": "\u0628\u0646\u0633", "name:de": "Banas", "name:en": "Banas", "name:fr": "Banas", "place": "village"}}, {"type": "node", "id": 2488317388, "lat": 36.3630446, "lon": 45.0921193, "tags": {"alt_name": "\u0628\u0627\u0631\u064a\u0643\u0627\u0646", "int_name": "Barikan, B\u0101r\u012bk\u0101n, \u0628\u0627\u0631\u064a\u0643\u0627\u0646, Barikan, Barikan, \u0628\u0627\u0631\u064a\u0643\u0627\u0646", "is_in": "Iraq , \u062c\u0645\u0647\u0648\u0631\u064a\u0629 \u0627\u0644\u0639\u0631\u0627\u0642", "name": "\u0628\u0627\u0631\u064a\u0643\u0627\u0646", "name:ar": "\u0628\u0627\u0631\u064a\u0643\u0627\u0646", "name:ar1": "\u0628\u0627\u0631\u064a\u0643\u0627\u0646", "name:de": "Barikan", "name:en": "Barikan", "name:fr": "Barikan", "place": "village"}}, {"type": "node", "id": 2488317507, "lat": 36.3649997, "lon": 45.0877956, "tags": {"alt_name": "\u062f\u0634\u062a\u0648\u0627\u0646", "int_name": "Dashtewan, Dashtiwan, Dashtuw\u0101n, Dashtuwon, Dashuw\u0101n, \u062f\u0634\u062a\u0648\u0627\u0646, Dashtewan, Dashtiwan, Dashtuwan, Dashtuwon, Dashuwan, \u062f\u0634\u062a\u0648\u0627\u0646", "is_in": "Iraq , \u062c\u0645\u0647\u0648\u0631\u064a\u0629 \u0627\u0644\u0639\u0631\u0627\u0642", "name": "\u062f\u06d5\u0634\u062a\u06ce\u0648\u0627\u0646", "name:ar": "\u062f\u0634\u062a\u06cc\u0648\u0627\u0646", "name:ar1": "\u062f\u0634\u062a\u0648\u0627\u0646", "name:de": "Dashtewan", "name:en": "Dashtewan", "name:fr": "Dashtewan", "place": "village"}}, {"type": "node", "id": 2488317826, "lat": 36.3550126, "lon": 45.1899731, "tags": {"is_in": "Iraq , \u062c\u0645\u0647\u0648\u0631\u064a\u0629 \u0627\u0644\u0639\u0631\u0627\u0642", "name": "\u0645\u0627\u0631\u06d5\u062f\u0648\u0648", "name:ar": "\u0645\u0627\u0631\u0629\u062f\u0648", "name:ar1": "\u0645\u0631\u0647\u062f\u0648", "name:de": "Mara Du", "name:en": "Mara Du", "name:fr": "Mara Du", "place": "village"}}, {"type": "node", "id": 2488317914, "lat": 36.3837154, "lon": 45.1031539, "tags": {"alt_name": "\u0642\u0644\u0627 \u062a\u0648\u0643\u0646\u0629", "int_name": "Qal\u0101 T\u016bk\u0101n, Qal\u0101 T\u016bkinah, Tokhan Kala, \u0642\u0644\u0627 \u062a\u0648\u0643\u0646\u0629, Qala Tukan, Qala Tukinah, Tokhan Kala, \u0642\u0644\u0627 \u062a\u0648\u0643\u0646\u0629", "is_in": "Iraq , \u062c\u0645\u0647\u0648\u0631\u064a\u0629 \u0627\u0644\u0639\u0631\u0627\u0642", "name": "\u0642\u06d5\u06b5\u0627\u062a\u0648\u06a9\u0627\u0646", "name:ar": "\u0642\u0644\u0627\u062a\u0648\u06a9\u0627\u0646", "name:ar1": "\u0642\u0644\u0627 \u062a\u0648\u0643\u0646\u0629", "name:de": "Qala Tukan", "name:en": "Qala Tukan", "name:fr": "Qala Tukan", "place": "village"}}, {"type": "node", "id": 2488318062, "lat": 36.3642715, "lon": 45.1584075, "tags": {"is_in": "Iraq , \u062c\u0645\u0647\u0648\u0631\u064a\u0629 \u0627\u0644\u0639\u0631\u0627\u0642", "name": "\u0695\u06d5\u0632\u06af\u06d5\u06cc \u062e\u0648\u0627\u0631\u0648\u0648", "name:ar": "\u0631\u0632\u0643\u0629 \u0627\u0644\u0633\u0641\u0644\u06cc", "name:ar1": "\u0631\u0632\u0643\u0629", "name:de": "Razga Lower", "name:en": "Razga Lower", "name:fr": "Razga Lower", "place": "village"}}, {"type": "node", "id": 2488318069, "lat": 36.3717883, "lon": 45.1481694, "tags": {"alt_name": "\u0632\u0631\u0643\u0629", "int_name": "Razga, Zirkah, \u0632\u0631\u0643\u0629, Razga, Zirkah, \u0632\u0631\u0643\u0629", "is_in": "Iraq , \u062c\u0645\u0647\u0648\u0631\u064a\u0629 \u0627\u0644\u0639\u0631\u0627\u0642", "name": "\u0695\u06d5\u0632\u06af\u06d5\u06cc \u0633\u06d5\u0631\u0648\u0648", "name:ar": "\u0632\u0631\u0643\u0629 \u0627\u0644\u0639\u0644\u06cc\u0627", "name:ar1": "\u0632\u0631\u0643\u0629", "name:de": "Razga Upper", "name:en": "Razga Upper", "name:fr": "Razga Upper", "place": "village"}}, {"type": "node", "id": 2488318232, "lat": 36.2831445, "lon": 45.2734415, "tags": {"is_in": "Iraq , \u062c\u0645\u0647\u0648\u0631\u064a\u0629 \u0627\u0644\u0639\u0631\u0627\u0642", "name": "\u0634\u06ce\u0646\u06ce", "name:ar": "\u0634\u0646\u064a", "name:ar1": "\u0634\u0646\u0629", "name:de": "Shene", "name:en": "Shene", "name:fr": "Shene", "place": "village"}}, {"type": "node", "id": 2488318257, "lat": 36.3679363, "lon": 45.1757046, "tags": {"alt_name": "\u0634\u064a\u0646\u0627\u0648\u0629", "int_name": "Sh\u012bn\u0101wa, Sh\u012bn\u0101wah, \u0634\u064a\u0646\u0627\u0648\u0647, Shinawa, Shinawah, \u0634\u064a\u0646\u0627\u0648\u0647", "is_in": "Iraq , \u062c\u0645\u0647\u0648\u0631\u064a\u0629 \u0627\u0644\u0639\u0631\u0627\u0642", "name": "\u0634\u0646\u0627\u0648\u06d5", "name:ar": "\u0634\u0646\u0627\u0648\u0629", "name:ar1": "\u0634\u064a\u0646\u0627\u0648\u0629", "name:de": "Shnawa", "name:en": "Shnawa", "name:fr": "Shnawa", "place": "village"}}, {"type": "node", "id": 2488318407, "lat": 36.3235862, "lon": 45.2247439, "tags": {"alt_name": "\u0633\u0648\u0634\u0629", "int_name": "Sosha, S\u014dsna, S\u016bshah, \u0633\u0648\u0634\u0629, Sosha, Sosna, Sushah, \u0633\u0648\u0634\u0629", "is_in": "Iraq , \u062c\u0645\u0647\u0648\u0631\u064a\u0629 \u0627\u0644\u0639\u0631\u0627\u0642", "name": "\u0626\u0627\u0644\u06cc\u06d5\u0695\u06d5\u0634", "name:ar": "\u0622\u0644\u06cc\u0629\u0631\u0634", "name:ar1": "\u0633\u0648\u0634\u0629", "name:de": "Alia Rash", "name:en": "Alia Rash", "name:fr": "Alia Rash", "place": "village"}}, {"type": "node", "id": 2488318425, "lat": 36.3448788, "lon": 45.1792706, "tags": {"alt_name": "\u0633\u0648\u0631\u0629 \u0643\u0648\u0646\u0629;\u0633\u0648\u0631\u0629 \u0643\u0648\u0644\u0629", "int_name": "S\u016brah K\u016bnah, Surah Kunah;S\u016bragila, Suragla, Suragla Lower, S\u016brah K\u016blah, \u0633\u0648\u0631\u0647 \u0643\u0648\u0644\u0647, Suragila, Suragla, Suragla Lower, Surah Kulah, \u0633\u0648\u0631\u0647 \u0643\u0648\u0644\u0647", "is_in": "Iraq , \u062c\u0645\u0647\u0648\u0631\u064a\u0629 \u0627\u0644\u0639\u0631\u0627\u0642", "name": "\u0633\u0648\u0631\u06d5\u06af\u06b5\u06d5\u06cc \u062e\u0648\u0627\u0631\u0648\u0648", "name:ar": "\u0633\u0648\u0631\u0629\u06a9\u0644\u0629 \u0627\u0644\u0633\u0641\u0644\u06cc", "name:ar1": "\u0633\u0648\u0631\u0629 \u0643\u0648\u0646\u0629;\u0633\u0648\u0631\u0629 \u0643\u0648\u0644\u0629;\u0633\u0648\u0631\u0647 \u0643\u0648\u0646\u0629", "name:de": "Suragla Lower", "name:en": "Suragla Lower", "name:fr": "Suragla Lower", "place": "village"}}, {"type": "node", "id": 2488318516, "lat": 36.3422217, "lon": 45.1243823, "tags": {"is_in": "Iraq , \u062c\u0645\u0647\u0648\u0631\u064a\u0629 \u0627\u0644\u0639\u0631\u0627\u0642", "name": "\u062a\u0648\u062a\u0645\u06d5", "name:ar": "\u062a\u0648\u062a\u0645\u0629", "name:ar1": "\u062a\u0648\u062a\u0645\u0629", "name:de": "Tutama", "name:en": "Tutama", "name:fr": "Tutama", "place": "village"}}, {"type": "node", "id": 2488318772, "lat": 36.3071241, "lon": 45.255861, "tags": {"is_in": "Iraq , \u062c\u0645\u0647\u0648\u0631\u064a\u0629 \u0627\u0644\u0639\u0631\u0627\u0642", "name": "\u0632\u06ce\u0648\u06a9\u06d5", "name:ar": "\u0632\u06cc\u0648\u06a9\u0629", "name:ar1": "\u0632\u0643\u0648\u0643\u0629", "name:de": "Zewka", "name:en": "Zewka", "name:fr": "Zewka", "place": "village"}}, {"type": "node", "id": 2937432131, "lat": 36.3976066, "lon": 45.3349322, "tags": {"is_in:country": "Iran", "name": "\u0622\u0644\u0648\u0627\u062a\u0627\u0646", "place": "village", "wikidata": "Q5708835", "wikimedia_commons": "Category:Alvatan, West Azerbaijan", "wikipedia": "en:Alvatan"}}, {"type": "node", "id": 3045972707, "lat": 36.5223895, "lon": 45.331335, "tags": {"is_in:country": "Iran", "name": "\u0634\u062e\u062a\u0627\u0646", "name:en": "Shakhtan", "place": "village", "population": "259", "wikidata": "Q5714358", "wikipedia": "fa:\u0634\u062e\u062a\u0627\u0646"}}, {"type": "node", "id": 3045978602, "lat": 36.4972245, "lon": 45.3866142, "tags": {"is_in:country": "Iran", "name": "\u0628\u0627\u0632\u0631\u06af\u0627\u0646", "place": "village", "wikidata": "Q5714813"}}, {"type": "node", "id": 3046187135, "lat": 36.2892815, "lon": 45.4286699, "tags": {"is_in:country": "Iran", "name": "\u0622\u063a\u0644\u0627\u0646", "name:ku": "A\u1e8dellan", "place": "village", "wikidata": "Q5706217"}}, {"type": "node", "id": 3046209117, "lat": 36.2656222, "lon": 45.4191292, "tags": {"is_in:country": "Iran", "name": "\u062f\u06cc\u0648\u0627\u0644\u0627\u0646", "name:ku": "D\u00eewalan", "place": "village", "wikidata": "Q5706642"}}, {"type": "node", "id": 3668268080, "lat": 36.5148345, "lon": 45.3001491, "tags": {"is_in:country": "Iran", "name": "\u0628\u0627\u0648\u0644\u0647 \u067e\u0627\u06cc\u06cc\u0646", "place": "village", "population": "45"}}, {"type": "node", "id": 3668272693, "lat": 36.5064955, "lon": 45.3390507, "tags": {"is_in:country": "Iran", "name": "\u0628\u0631\u062f\u0647 \u06a9\u0648\u0631\u0647", "place": "village"}}, {"type": "node", "id": 3668273231, "lat": 36.5192541, "lon": 45.3034224, "tags": {"is_in:country": "Iran", "name": "\u0628\u0627\u0648\u0644\u0647 \u0633\u06cc\u062f\u0627\u0646", "place": "village", "wikidata": "Q5715487"}}, {"type": "node", "id": 3668275347, "lat": 36.5146596, "lon": 45.369493, "tags": {"is_in:country": "Iran", "name": "\u0628\u0633\u0637\u0627\u0645 \u0628\u06cc\u06a9", "place": "village"}}, {"type": "node", "id": 4121742827, "lat": 36.1673092, "lon": 45.5127125, "tags": {"is_in:country": "Iran", "name": "\u0628\u0627\u063a\u06cc", "place": "village"}}, {"type": "node", "id": 4381328913, "lat": 36.1804954, "lon": 45.4003484, "tags": {"is_in:country": "Iran", "name": "\u0632\u0648\u0631\u0627\u0646", "place": "village", "wikidata": "Q5851802"}}, {"type": "node", "id": 4429058927, "lat": 36.194945, "lon": 45.3824945, "tags": {"is_in:country": "Iran", "name": "\u06a9\u0647\u0646\u0647 \u0645\u0634\u06a9\u0647", "place": "village"}}, {"type": "node", "id": 4429061138, "lat": 36.1909201, "lon": 45.3843579, "tags": {"is_in:country": "Iran", "name": "\u06a9\u0647\u0646\u0647 \u0632\u0648\u0631\u0627\u0646", "place": "village", "wikidata": "Q5707110"}}, {"type": "node", "id": 4429064018, "lat": 36.1625008, "lon": 45.4083277, "tags": {"is_in:country": "Iran", "name": "\u0628\u06cc\u0648\u0631\u0627\u0646 \u067e\u0627\u06cc\u06cc\u0646", "place": "village", "population": "1500"}}, {"type": "node", "id": 4436140296, "lat": 36.3628461, "lon": 45.6148788, "tags": {"is_in:country": "Iran", "name": "\u06a9\u0627\u0646\u06cc \u0633\u0641\u06cc\u062f", "name:ku": "Kan\u00ee S\u00eaw", "place": "village", "source": "en:wikipedia", "wikidata": "Q3666485"}}, {"type": "node", "id": 4437410133, "lat": 36.4144178, "lon": 45.5619477, "tags": {"is_in:country": "Iran", "name": "\u0686\u0648\u0645\u0644", "name:ku": "\u00c7omell", "place": "village", "source": "ku:wikipedia", "wikidata": "Q3677876"}}, {"type": "node", "id": 4437410138, "lat": 36.4777328, "lon": 45.4987642, "tags": {"is_in:country": "Iran", "name": "\u06af\u0627\u06af\u0634 \u0639\u0644\u06cc\u0627", "name:ku": "Gage\u015f\u00ee Ser\u00ea", "place": "village", "wikidata": "Q3667293"}}, {"type": "node", "id": 4437410139, "lat": 36.4654313, "lon": 45.5115193, "tags": {"is_in:country": "Iran", "name": "\u06af\u0627\u06af\u0634 \u0633\u0641\u0644\u06cc", "name:ku": "Gage\u015f\u00ee Xwar\u00ea", "place": "village", "wikidata": "Q3667017"}}, {"type": "node", "id": 4437410144, "lat": 36.5098462, "lon": 45.5271325, "tags": {"is_in:country": "Iran", "name": "\u0647\u0631\u0645\u0647", "name:ku": "Herm\u00ea", "place": "village", "wikidata": "Q3666574"}}, {"type": "node", "id": 4437410148, "lat": 36.5040518, "lon": 45.5048117, "tags": {"is_in:country": "Iran", "name": "\u06a9\u0627\u0631\u06af", "name:ku": "Karg", "place": "village"}}, {"type": "node", "id": 4437483695, "lat": 36.4667452, "lon": 45.561494, "tags": {"is_in:country": "Iran", "name": "\u06a9\u06cc \u0633\u0644\u0627\u0646", "name:ku": "K\u00eesellan", "place": "village", "wikidata": "Q3666870"}}, {"type": "node", "id": 4437533800, "lat": 36.4715227, "lon": 45.5314032, "tags": {"is_in:country": "Iran", "name": "\u0634\u06a9\u0631\u0628\u06af", "name:ku": "\u015eekir Beg", "place": "village", "wikidata": "Q3666788"}}, {"type": "node", "id": 4437533805, "lat": 36.441588, "lon": 45.5654678, "tags": {"is_in:country": "Iran", "name": "\u0633\u0631\u062e\u0627\u0628", "name:ku": "S\u00fbrxaw", "place": "village", "wikidata": "Q3666523"}}, {"type": "node", "id": 4437614451, "lat": 36.406026, "lon": 45.2993786, "tags": {"is_in:country": "Iran", "name": "\u06a9\u0627\u0648\u0644\u0627\u0646\u0647", "name:ku": "Kawlan\u00ea", "place": "village", "wikidata": "Q5707541"}}, {"type": "node", "id": 4437614452, "lat": 36.4617701, "lon": 45.314017, "tags": {"is_in:country": "Iran", "name": "\u0633\u06cc\u067e\u06a9\u0627\u0646", "name:ku": "Sep\u00eakan", "place": "village", "wikidata": "Q5707313"}}, {"type": "node", "id": 4439704109, "lat": 36.249328, "lon": 45.3423263, "tags": {"is_in:country": "Iran", "name": "\u06a9\u0627\u0646\u06cc \u0632\u0631\u062f", "name:en": "Kani Zard", "place": "village", "wikidata": "Q6518688"}}, {"type": "node", "id": 4439713673, "lat": 36.2512135, "lon": 45.3482014, "tags": {"is_in:country": "Iran", "name": "\u062f\u0648\u0644\u0647", "place": "village"}}, {"type": "node", "id": 4439716286, "lat": 36.2526367, "lon": 45.3442853, "tags": {"is_in:country": "Iran", "name": "\u06af\u0644 \u06a9\u0646\u06a9", "place": "village", "wikidata": "Q5706551"}}, {"type": "node", "id": 4440709750, "lat": 36.1978447, "lon": 45.4599706, "tags": {"is_in:country": "Iran", "name": "\u0645\u0644\u0627\u0634\u06cc\u062e", "name:en": "Molasheykh village", "place": "village", "wikidata": "Q5706429"}}, {"type": "node", "id": 4440726029, "lat": 36.2116178, "lon": 45.4346195, "tags": {"is_in:country": "Iran", "name": "\u0633\u0647 \u0644\u0647 \u06a9\u062a\u0627\u0646", "place": "village"}}, {"type": "node", "id": 4440726564, "lat": 36.1698652, "lon": 45.441958, "tags": {"is_in:country": "Iran", "name": "\u0645\u06cc\u0631\u0634\u06cc\u062e \u062d\u06cc\u062f\u0631", "place": "village", "wikidata": "Q6520171"}}, {"type": "node", "id": 4440726738, "lat": 36.1742736, "lon": 45.4221955, "tags": {"is_in:country": "Iran", "name": "\u06a9\u0648\u0631\u0628\u0646\u0627\u0648", "place": "village", "wikidata": "Q5706628"}}, {"type": "node", "id": 4440727178, "lat": 36.204675, "lon": 45.3991393, "tags": {"is_in:country": "Iran", "name": "\u0648\u0627\u0634\u0647 \u0645\u0647 \u0632\u06cc\u0646", "place": "village"}}, {"type": "node", "id": 4440729653, "lat": 36.2129422, "lon": 45.3884533, "tags": {"is_in:country": "Iran", "name": "\u062a\u0648\u0648\u0647", "place": "village"}}, {"type": "node", "id": 4440742334, "lat": 36.2323408, "lon": 45.3573424, "tags": {"is_in:country": "Iran", "name": "\u0648\u0631\u062f\u0647", "place": "village"}}, {"type": "node", "id": 4440745077, "lat": 36.2225234, "lon": 45.374103, "tags": {"is_in:country": "Iran", "name": "\u0628\u0646\u06cc\u0648 \u062e\u0644\u0641", "name:ku": "Binoxell\u00eaf", "place": "village", "wikidata": "Q5706423"}}, {"type": "node", "id": 4440755943, "lat": 36.1965866, "lon": 45.4212219, "tags": {"is_in:country": "Iran", "name": "\u0628\u0627\u0633\u0627\u0648\u0647", "place": "village"}}, {"type": "node", "id": 4441602023, "lat": 36.2423566, "lon": 45.3961951, "tags": {"is_in:country": "Iran", "name": "\u0646\u0627\u0631\u0633\u062a", "place": "village", "wikidata": "Q5706215"}}, {"type": "node", "id": 4441602024, "lat": 36.2512774, "lon": 45.3897095, "tags": {"is_in:country": "Iran", "name": "\u0628\u0648\u0628\u0627\u0646\u0647", "name:ku": "B\u00fbbane", "place": "village", "wikidata": "Q5708474"}}, {"type": "node", "id": 4441642451, "lat": 36.2754716, "lon": 45.340223, "tags": {"is_in:country": "Iran", "name": "\u0645\u0632\u0631\u0627", "place": "village"}}, {"type": "node", "id": 4446819119, "lat": 36.2637916, "lon": 45.4941488, "tags": {"is_in:country": "Iran", "name": "\u0646\u0644\u0627\u0633", "name:ckb": "\u0646\u06d5\u06b5\u0627\u0633", "name:en": "Nalas", "name:ku": "Nellas", "place": "town", "wikidata": "Q5708625"}}, {"type": "node", "id": 4447987581, "lat": 36.2880549, "lon": 45.333047, "tags": {"is_in:country": "Iran", "name": "\u0645\u0627\u0645 \u06a9\u0627\u0648\u0647", "name:en": "Mamkava", "place": "village", "wikidata": "Q5707551"}}, {"type": "node", "id": 4447991335, "lat": 36.3193155, "lon": 45.2981837, "tags": {"is_in:country": "Iran", "name": "\u062f\u0648\u0644\u0647 \u062a\u0648\u0647", "name:ku": "Dollet\u00fb", "place": "village", "wikidata": "Q5707124"}}, {"type": "node", "id": 4447991401, "lat": 36.2923918, "lon": 45.3279026, "tags": {"is_in:country": "Iran", "name": "\u062f\u0627\u0648\u062f\u0627\u0648\u0647", "name:ku": "Dawidawe", "place": "village", "wikidata": "Q5707898"}}, {"type": "node", "id": 4448010699, "lat": 36.2995689, "lon": 45.3336747, "tags": {"is_in:country": "Iran", "name": "\u0633\u0627\u0648\u0627\u0646", "place": "village", "wikidata": "Q5814804"}}, {"type": "node", "id": 4448069097, "lat": 36.1082598, "lon": 45.5136616, "tags": {"is_in:country": "Iran", "name": "\u062e\u0627\u0646\u0647 \u062e\u0644 \u0639\u0644\u06cc\u0627", "name:en": "Khaneh Khal", "place": "village"}}, {"type": "node", "id": 4448086015, "lat": 36.140071, "lon": 45.4368298, "tags": {"is_in:country": "Iran", "name": "\u06a9\u0627\u0646\u06cc \u0631\u0634", "name:en": "Kanirash Village", "place": "village", "wikidata": "Q6521408"}}, {"type": "node", "id": 4449251004, "lat": 36.2997482, "lon": 45.3590339, "tags": {"is_in:country": "Iran", "name": "\u0633\u0627\u0648\u0627\u0646 \u0642\u062f\u06cc\u0645", "place": "village"}}, {"type": "node", "id": 4451435532, "lat": 36.167951, "lon": 45.4740815, "tags": {"is_in:country": "Iran", "name": "\u06a9\u0686\u0644 \u0622\u0648\u0627", "place": "village"}}, {"type": "node", "id": 4451491698, "lat": 36.4426001, "lon": 45.3941659, "tags": {"is_in:country": "Iran", "name": "\u0639\u0644\u0627\u0648\u0627\u0646", "name:ku": "Allawan", "place": "village", "wikidata": "Q5705582"}}, {"type": "node", "id": 4451491700, "lat": 36.1702086, "lon": 45.3952171, "tags": {"is_in:country": "Iran", "name": "\u0628\u0627\u0648\u0647", "name:ku": "Bawe", "place": "village", "wikidata": "Q5705971"}}, {"type": "node", "id": 4451491701, "lat": 36.1303728, "lon": 45.4433574, "tags": {"is_in:country": "Iran", "name": "\u0628\u0631\u062f\u0647 \u0633\u067e\u06cc\u0627\u0646", "name:ku": "Berdespiyan", "place": "village", "source": "en:wikipedia", "wikidata": "Q5707295"}}, {"type": "node", "id": 4451491702, "lat": 36.283236, "lon": 45.4000879, "tags": {"is_in:country": "Iran", "name": "\u0628\u0631\u062f\u0647 \u0633\u0648\u0631", "name:ku": "Berdes\u00fbr", "place": "village", "wikidata": "Q5707601"}}, {"type": "node", "id": 4451491704, "lat": 36.2246974, "lon": 45.5021849, "tags": {"is_in:country": "Iran", "name": "\u0628\u0646\u0627\u0648", "name:en": "Benav", "name:ku": "Binaw\u00ea", "place": "village", "wikidata": "Q5708566"}}, {"type": "node", "id": 4451491705, "lat": 36.1208206, "lon": 45.6183822, "tags": {"is_in:country": "Iran", "name": "\u0628\u0646\u0627\u0648\u06cc\u0644\u0647 \u06a9\u0648\u0686\u06a9", "name:ku": "Binaw\u00eeley Bi\u00e7\u00fbk", "place": "village", "wikidata": "Q6522101"}}, {"type": "node", "id": 4451491706, "lat": 36.1506403, "lon": 45.5956715, "tags": {"is_in:country": "Iran", "name": "\u0628\u0646\u0627\u0648\u06cc\u0644\u0647 \u0628\u0632\u0631\u06af", "name:ku": "Binaw\u00eeley Gewre", "place": "village", "wikidata": "Q6522127"}}, {"type": "node", "id": 4451491707, "lat": 36.2735125, "lon": 45.5446038, "tags": {"is_in:country": "Iran", "name": "\u0628\u0646\u0627\u0648\u06cc\u0644\u0647 \u062d\u0627\u062c\u06cc \u0645\u06cc\u0646\u0647", "name:ku": "Binaw\u00eeley \u1e26ac\u00ee M\u00eeney", "place": "village", "wikidata": "Q6524699"}}, {"type": "node", "id": 4451547847, "lat": 36.3592297, "lon": 45.4086341, "tags": {"is_in:country": "Iran", "name": "\u0628\u0631\u06cc\u062a\u0647", "name:ku": "Br\u00eete", "place": "village", "wikidata": "Q5707010"}}, {"type": "node", "id": 4451547848, "lat": 36.4255864, "lon": 45.3565711, "tags": {"is_in:country": "Iran", "name": "\u0628\u06cc\u0644\u0648\u06a9\u0647", "name:ku": "B\u00ealoke", "place": "village", "wikidata": "Q5707310"}}, {"type": "node", "id": 4451547850, "lat": 36.1792574, "lon": 45.3831368, "tags": {"is_in:country": "Iran", "name": "\u0628\u06cc\u0648\u0631\u0627\u0646 \u0639\u0644\u06cc\u0627", "name:ku": "B\u00eawran\u00ee Ser\u00ea", "place": "village", "wikidata": "Q5707639"}}, {"type": "node", "id": 4451547851, "lat": 36.1588064, "lon": 45.4119055, "tags": {"is_in:country": "Iran", "name": "\u0628\u06cc\u0648\u0631\u0627\u0646 \u0633\u0641\u0644\u06cc", "name:ku": "B\u00eawran\u00ee Xwar\u00ea", "place": "village", "source": "en:wikipedia", "wikidata": "Q5714293"}}, {"type": "node", "id": 4451547852, "lat": 36.1792989, "lon": 45.5023011, "tags": {"is_in:country": "Iran", "name": "\u0628\u0632\u06cc\u0644\u0647", "name:ku": "B\u00eaz\u00eele", "place": "village", "wikidata": "Q5706275"}}, {"type": "node", "id": 4451547853, "lat": 36.2387562, "lon": 45.4900652, "tags": {"is_in:country": "Iran", "name": "\u0628\u06cc\u0634\u0627\u0633\u0628", "name:ku": "B\u00ea\u015fasp", "place": "village", "wikidata": "Q5706451", "wikipedia": "fa:\u0628\u06cc\u0634\u0627\u0633\u0628"}}, {"type": "node", "id": 4451547854, "lat": 36.3337025, "lon": 45.4637733, "tags": {"is_in:country": "Iran", "name": "\u062c\u0645\u06af\u0647", "name:ku": "Cimge", "place": "village", "wikidata": "Q5705658"}}, {"type": "node", "id": 4451929889, "lat": 36.2852912, "lon": 45.3517689, "tags": {"is_in:country": "Iran", "name": "\u062f\u0627\u0631\u0645\u06a9\u0648\u0646", "name:ku": "Darmekewn", "place": "village", "wikidata": "Q5707547"}}, {"type": "node", "id": 4451970734, "lat": 36.3148141, "lon": 45.5079624, "tags": {"is_in:country": "Iran", "name": "\u062f\u0634\u062a\u06cc", "name:ku": "De\u015ft\u00ea", "place": "village", "wikidata": "Q5708041"}}, {"type": "node", "id": 4451970735, "lat": 36.0902325, "lon": 45.4089523, "tags": {"is_in:country": "Iran", "name": "\u062f\u0648\u0644\u0647 \u0628\u06cc", "name:ku": "Dolleb\u00ee", "place": "village", "wikidata": "Q5706317"}}, {"type": "node", "id": 4451970736, "lat": 36.3650444, "lon": 45.4901056, "tags": {"is_in:country": "Iran", "name": "\u062f\u0648\u0644\u0647 \u062a\u0648", "name:ku": "Dollewt\u00fb", "place": "village", "wikidata": "Q5706222"}}, {"type": "node", "id": 4451970739, "lat": 36.3159552, "lon": 45.4063907, "tags": {"is_in:country": "Iran", "name": "\u0627\u062d\u0645\u062f\u0628\u0631\u06cc\u0648", "name:ku": "E\u1e27med Br\u00eew\u00ea", "place": "village", "wikidata": "Q5706886"}}, {"type": "node", "id": 4451970740, "lat": 36.3932679, "lon": 45.4421098, "tags": {"is_in:country": "Iran", "name": "\u0627\u0634\u062e\u0644", "name:ku": "E\u015fxell", "place": "village", "wikidata": "Q5711681"}}, {"type": "node", "id": 4451970741, "lat": 36.1276301, "lon": 45.4951892, "tags": {"is_in:country": "Iran", "name": "\u0641\u0642\u0631\u062e\u062f\u0631\u06cc\u0627\u0646", "name:ku": "Feq\u00ea Xidran", "place": "village", "wikidata": "Q5706779"}}, {"type": "node", "id": 4451970747, "lat": 36.3250122, "lon": 45.451669, "tags": {"is_in:country": "Iran", "name": "\u06af\u0627\u06a9\u0648\u0698\u0647 \u0639\u0644\u06cc\u0627", "name:ku": "Gak\u00fbjey Ser\u00ea", "place": "village", "wikidata": "Q5707126"}}, {"type": "node", "id": 4451970748, "lat": 36.3239729, "lon": 45.4615753, "tags": {"is_in:country": "Iran", "name": "\u06af\u0627\u06a9\u0648\u0698\u0647 \u0633\u0641\u0644\u06cc", "name:ku": "Gak\u00fbjey Xwar\u00ea", "place": "village", "wikidata": "Q5708676"}}, {"type": "node", "id": 4483945629, "lat": 36.2926708, "lon": 45.4752776, "tags": {"is_in:country": "Iran", "name": "\u0648\u0627\u0648\u0627\u0646", "place": "village", "wikidata": "Q5714183"}}, {"type": "node", "id": 4485401770, "lat": 36.28895, "lon": 45.5210994, "tags": {"is_in:country": "Iran", "name": "\u0648\u0644\u06cc\u0648", "place": "village", "wikidata": "Q5705995"}}, {"type": "node", "id": 4497368246, "lat": 36.2996828, "lon": 45.4185748, "tags": {"is_in:country": "Iran", "is_in:state": "West Azerbaijan", "name": "\u0632\u0644\u0647", "name:en": "Zalle", "place": "village", "wikidata": "Q5705765"}}, {"type": "node", "id": 4497368247, "lat": 36.4869852, "lon": 45.440082, "tags": {"is_in:country": "Iran", "is_in:state": "West Azerbaijan", "name": "\u0634\u0647\u0631\u0633\u062a\u0646", "place": "village", "wikidata": "Q5714559"}}, {"type": "node", "id": 4497368277, "lat": 36.5234177, "lon": 45.2660794, "tags": {"is_in:country": "Iran", "is_in:state": "West Azerbaijan", "name": "\u062a\u0631\u06a9\u0634 \u0639\u0644\u06cc\u0627", "place": "village", "wikidata": "Q5715240"}}, {"type": "node", "id": 4497368278, "lat": 36.5186519, "lon": 45.2565257, "tags": {"is_in:country": "Iran", "is_in:state": "West Azerbaijan", "name": "\u062a\u0631\u06a9\u0634 \u0633\u0641\u0644\u06cc", "place": "village", "wikidata": "Q5714820"}}, {"type": "node", "id": 4497368279, "lat": 36.5194699, "lon": 45.2840696, "tags": {"alt_name": "\u0642\u0628\u0627\u062f\u0628\u06af\u06cc\u0627\u0646", "is_in:country": "Iran", "is_in:state": "West Azerbaijan", "name": "\u0642\u0628\u0627\u062f\u0628\u06cc\u06af\u06cc", "place": "village", "wikidata": "Q5715107"}}, {"type": "node", "id": 4497368280, "lat": 36.51192, "lon": 45.2899559, "tags": {"is_in:country": "Iran", "is_in:state": "West Azerbaijan", "name": "\u062f\u0648\u0686\u0648\u0645\u0627\u0646", "place": "hamlet"}}, {"type": "node", "id": 4497368281, "lat": 36.5113522, "lon": 45.3574363, "tags": {"is_in:country": "Iran", "is_in:state": "West Azerbaijan", "name": "\u0634\u06a9\u0631\u0622\u0628\u0627\u062f", "place": "hamlet"}}, {"type": "node", "id": 4497368284, "lat": 36.5220742, "lon": 45.37027, "tags": {"is_in:country": "Iran", "is_in:state": "West Azerbaijan", "name": "\u06af\u0631\u062f\u0646\u0639\u0644\u06cc\u0646", "place": "village", "wikidata": "Q5717062"}}, {"type": "node", "id": 4497368285, "lat": 36.5044143, "lon": 45.4036859, "tags": {"is_in:country": "Iran", "is_in:state": "West Azerbaijan", "name": "\u0642\u0644\u0627\u062a", "place": "village", "wikidata": "Q5714125"}}, {"type": "node", "id": 4497368286, "lat": 36.521514, "lon": 45.40278, "tags": {"is_in:country": "Iran", "is_in:state": "West Azerbaijan", "name": "\u06a9\u0646\u0647 \u06a9\u0686", "place": "village", "wikidata": "Q5714452"}}, {"type": "node", "id": 4497368426, "lat": 36.2279252, "lon": 45.4708525, "tags": {"is_in:country": "Iran", "is_in:state": "West Azerbaijan", "name": "\u062a\u0648\u0698\u0644", "place": "village", "wikidata": "Q5705984"}}, {"type": "node", "id": 4497368427, "lat": 36.2225198, "lon": 45.4554563, "tags": {"is_in:country": "Iran", "is_in:state": "West Azerbaijan", "name": "\u06af\u0644\u0648", "place": "village", "wikidata": "Q6464034"}}, {"type": "node", "id": 4497368428, "lat": 36.2077051, "lon": 45.4845506, "tags": {"is_in:country": "Iran", "is_in:state": "West Azerbaijan", "name": "\u06af\u0648\u0631\u0627\u0646\u06af\u0627\u0646", "place": "village", "wikidata": "Q5706884"}}, {"type": "node", "id": 4497368430, "lat": 36.162327, "lon": 45.4198529, "tags": {"is_in:country": "Iran", "is_in:state": "West Azerbaijan", "name": "\u0646\u0634\u06a9\u0648\u0644\u0627\u0646", "place": "village"}}, {"type": "node", "id": 4497368431, "lat": 36.1473365, "lon": 45.4546145, "tags": {"is_in:country": "Iran", "is_in:state": "West Azerbaijan", "name": "\u0698\u0627\u0698\u0648\u06a9\u0647", "place": "village", "wikidata": "Q5709589"}}, {"type": "node", "id": 4497368432, "lat": 36.1343355, "lon": 45.436353, "tags": {"is_in:country": "Iran", "is_in:state": "West Azerbaijan", "name": "\u06af\u0647 \u0648\u0647 \u0644\u0627\u0646", "place": "village"}}, {"type": "node", "id": 4497368433, "lat": 36.122182, "lon": 45.4344707, "tags": {"is_in:country": "Iran", "is_in:state": "West Azerbaijan", "name": "\u0628\u0631\u0627\u0646", "place": "village", "wikidata": "Q5705975"}}, {"type": "node", "id": 4497368434, "lat": 36.1218279, "lon": 45.4432004, "tags": {"is_in:country": "Iran", "is_in:state": "West Azerbaijan", "name": "\u0631\u0634\u0647 \u0647\u0631\u0645\u0647", "place": "village", "wikidata": "Q5706992"}}, {"type": "node", "id": 4497368435, "lat": 36.1201082, "lon": 45.4383022, "tags": {"is_in:country": "Iran", "is_in:state": "West Azerbaijan", "name": "\u0633\u0631\u0686\u0627\u0648\u0647", "place": "village"}}, {"type": "node", "id": 4497368436, "lat": 36.1279336, "lon": 45.468524, "tags": {"is_in:country": "Iran", "is_in:state": "West Azerbaijan", "name": "\u0645\u0627\u0631\u063a\u0627\u0646", "place": "village", "wikidata": "Q5720225"}}, {"type": "node", "id": 4497368437, "lat": 36.1176757, "lon": 45.4733765, "tags": {"is_in:country": "Iran", "is_in:state": "West Azerbaijan", "name": "\u06a9\u0627\u0646\u06cc \u0633\u06cc\u0648", "place": "village", "wikidata": "Q6518112"}}, {"type": "node", "id": 4497368438, "lat": 36.116731, "lon": 45.494884, "tags": {"is_in:country": "Iran", "is_in:state": "West Azerbaijan", "name": "\u0646\u0648\u06a9\u0631\u062f\u0627\u0631", "place": "village", "wikidata": "Q5707292"}}, {"type": "node", "id": 4497368439, "lat": 36.1119474, "lon": 45.4472296, "tags": {"is_in:country": "Iran", "is_in:state": "West Azerbaijan", "name": "\u0628\u0627\u0646\u0648\u06cc", "place": "village", "wikidata": "Q5706204"}}, {"type": "node", "id": 4497368440, "lat": 36.1090018, "lon": 45.4703245, "tags": {"is_in:country": "Iran", "is_in:state": "West Azerbaijan", "name": "\u06af\u0644\u06cc\u0646\u0647 \u0628\u0632\u0631\u06af", "place": "village", "wikidata": "Q5706994"}}, {"type": "node", "id": 4497368441, "lat": 36.0933087, "lon": 45.4443071, "tags": {"is_in:country": "Iran", "is_in:state": "West Azerbaijan", "name": "\u062f\u0648\u0644\u0647 \u06af\u0631\u0645", "place": "village", "wikidata": "Q5706781"}}, {"type": "node", "id": 4497368442, "lat": 36.0876455, "lon": 45.4534359, "tags": {"is_in:country": "Iran", "is_in:state": "West Azerbaijan", "name": "\u0627\u0633\u0628 \u0645\u06cc\u0631\u0632\u0627", "place": "village", "wikidata": "Q6519091"}}, {"type": "node", "id": 4497368443, "lat": 36.1251897, "lon": 45.412794, "tags": {"is_in:country": "Iran", "is_in:state": "West Azerbaijan", "name": "\u0642\u0644\u0639\u0647 \u0631\u0634", "place": "village", "wikidata": "Q5707113"}}, {"type": "node", "id": 4497368444, "lat": 36.1121712, "lon": 45.417641, "tags": {"is_in:country": "Iran", "is_in:state": "West Azerbaijan", "name": "\u0633\u0648\u0631\u0647 \u0686\u0648\u0645", "place": "village", "wikidata": "Q5707001"}}, {"type": "node", "id": 4497368445, "lat": 36.0950016, "lon": 45.4214643, "tags": {"is_in:country": "Iran", "is_in:state": "West Azerbaijan", "name": "\u0633\u0647 \u0648\u062a\u0627\u0644", "place": "village", "wikidata": "Q5706783"}}, {"type": "node", "id": 4497368446, "lat": 36.0898866, "lon": 45.4254678, "tags": {"is_in:country": "Iran", "is_in:state": "West Azerbaijan", "name": "\u0686\u067e\u0631", "place": "village", "wikidata": "Q5705578"}}, {"type": "node", "id": 4497368451, "lat": 36.4967447, "lon": 45.2809242, "tags": {"is_in:country": "Iran", "is_in:state": "West Azerbaijan", "name": "\u06af\u0632\u06af\u0633\u06a9", "place": "village", "wikidata": "Q5575264"}}, {"type": "node", "id": 4497368452, "lat": 36.5000346, "lon": 45.287565, "tags": {"is_in:country": "Iran", "is_in:state": "West Azerbaijan", "name": "\u06a9\u0627\u0646\u06cc \u0634\u06cc\u0646\u06a9\u0627", "place": "village", "wikidata": "Q5715489"}}, {"type": "node", "id": 4497368453, "lat": 36.485622, "lon": 45.2960714, "tags": {"is_in:country": "Iran", "is_in:state": "West Azerbaijan", "name": "\u067e\u0631\u062f\u0627\u0646\u0627\u0646", "place": "village"}}, {"type": "node", "id": 4497368454, "lat": 36.468298, "lon": 45.3335051, "tags": {"is_in:country": "Iran", "is_in:state": "West Azerbaijan", "name": "\u0634\u06cc\u0648\u0647 \u0645\u0631\u062f\u0627\u0646", "place": "village", "wikidata": "Q5707436"}}, {"type": "node", "id": 4497368455, "lat": 36.4473045, "lon": 45.3477163, "tags": {"is_in:country": "Iran", "is_in:state": "West Azerbaijan", "name": "\u0686\u06a9\u0648", "place": "village", "wikidata": "Q5706561"}}, {"type": "node", "id": 4497368456, "lat": 36.4898641, "lon": 45.3935432, "tags": {"is_in:country": "Iran", "is_in:state": "West Azerbaijan", "name": "\u0634\u0627\u0644\u06cc \u0622\u0628\u0627\u062f", "place": "hamlet"}}, {"type": "node", "id": 4497368457, "lat": 36.46506, "lon": 45.3676644, "tags": {"is_in:country": "Iran", "is_in:state": "West Azerbaijan", "name": "\u06af\u0648\u0644\u06a9", "place": "hamlet"}}, {"type": "node", "id": 4497368458, "lat": 36.4566107, "lon": 45.3985655, "tags": {"is_in:country": "Iran", "is_in:state": "West Azerbaijan", "name": "\u0632\u06cc\u0648\u0647 \u0642\u0648\u0631\u0647", "place": "village"}}, {"type": "node", "id": 4497368459, "lat": 36.4478116, "lon": 45.3796173, "tags": {"is_in:country": "Iran", "is_in:state": "West Azerbaijan", "name": "\u0633\u0648\u0633\u062a\u0627\u0646 \u0633\u0641\u0644\u06cc", "place": "village", "wikidata": "Q5708349"}}, {"type": "node", "id": 4497368460, "lat": 36.4731299, "lon": 45.4278721, "tags": {"is_in:country": "Iran", "is_in:state": "West Azerbaijan", "name": "\u062d\u062c\u0631\u0627\u0646", "place": "village", "wikidata": "Q5714355"}}, {"type": "node", "id": 4497368461, "lat": 36.4258189, "lon": 45.3995554, "tags": {"is_in:country": "Iran", "is_in:state": "West Azerbaijan", "name": "\u0646\u06cc\u0648\u0627\u0634", "place": "village", "wikidata": "Q5707009"}}, {"type": "node", "id": 4497368462, "lat": 36.3962881, "lon": 45.3682651, "tags": {"name": "\u06af\u0648\u0632\u06cc\u0644\u0647", "place": "village"}}, {"type": "node", "id": 4497368463, "lat": 36.4116004, "lon": 45.4219559, "tags": {"is_in:country": "Iran", "is_in:state": "West Azerbaijan", "name": "\u0646\u06cc\u0632\u0647 \u0639\u0644\u06cc\u0627", "place": "village", "wikidata": "Q5707891"}}, {"type": "node", "id": 4497368464, "lat": 36.4101293, "lon": 45.437561, "tags": {"is_in:country": "Iran", "is_in:state": "West Azerbaijan", "name": "\u06af\u0631\u0648\u0631", "place": "village", "wikidata": "Q5706804"}}, {"type": "node", "id": 4497368465, "lat": 36.3862203, "lon": 45.4122315, "tags": {"is_in:country": "Iran", "is_in:state": "West Azerbaijan", "name": "\u0642\u0644\u0639\u0647 \u062a\u0627\u0633\u06cc\u0627\u0646", "name:ku": "\u0642\u06d5\u06b5\u0627\u062a\u0627\u0633\u06cc\u0627\u0646", "place": "village", "wikidata": "Q6504479"}}, {"type": "node", "id": 4497368466, "lat": 36.3778332, "lon": 45.4020982, "tags": {"is_in:country": "Iran", "is_in:state": "West Azerbaijan", "name": "\u0645\u0648\u0633\u0627\u0644\u0627\u0646", "place": "village", "wikidata": "Q5707544"}}, {"type": "node", "id": 4497368467, "lat": 36.3702012, "lon": 45.4086224, "tags": {"is_in:country": "Iran", "is_in:state": "West Azerbaijan", "name": "\u0646\u0628\u06cc \u0622\u0628\u0627\u062f", "place": "village", "wikidata": "Q5707894"}}, {"type": "node", "id": 4497368469, "lat": 36.3437316, "lon": 45.4216888, "tags": {"is_in:country": "Iran", "is_in:state": "West Azerbaijan", "name": "\u06a9\u0686\u0644 \u0622\u0628\u0627\u062f", "place": "village"}}, {"type": "node", "id": 4497368470, "lat": 36.3462937, "lon": 45.4177872, "tags": {"is_in:country": "Iran", "is_in:state": "West Azerbaijan", "name": "\u0634\u06cc\u0648\u0627\u0648\u06a9\u0627\u0646", "place": "village", "wikidata": "Q5707762"}}, {"type": "node", "id": 4497368471, "lat": 36.3654768, "lon": 45.4352776, "tags": {"is_in:country": "Iran", "is_in:state": "West Azerbaijan", "name": "\u0633\u0648\u0646\u0647", "place": "village", "wikidata": "Q5706808"}}, {"type": "node", "id": 4497368472, "lat": 36.3578445, "lon": 45.4299246, "tags": {"is_in:country": "Iran", "is_in:state": "West Azerbaijan", "name": "\u06af\u0648\u0645\u0627\u0646", "name:en": "Goman", "place": "village", "wikidata": "Q5812459"}}, {"type": "node", "id": 4497368473, "lat": 36.3553224, "lon": 45.4478329, "tags": {"is_in:country": "Iran", "is_in:state": "West Azerbaijan", "name": "\u0634\u0644\u0645\u0646", "place": "village", "wikidata": "Q6464429"}}, {"type": "node", "id": 4497368474, "lat": 36.3509577, "lon": 45.4855983, "tags": {"is_in:country": "Iran", "is_in:state": "West Azerbaijan", "name": "\u0634\u06cc\u0648\u0647 \u062c\u0648", "place": "village", "wikidata": "Q5706816"}}, {"type": "node", "id": 4497368475, "lat": 36.2720297, "lon": 45.3529823, "tags": {"is_in:country": "Iran", "is_in:state": "West Azerbaijan", "name": "\u0633\u067e\u06cc\u062f\u0627\u0631\u0647 \u062f\u0627\u0631\u0645\u0647", "place": "village", "wikidata": "Q6506477"}}, {"type": "node", "id": 4497368476, "lat": 36.3011463, "lon": 45.4094357, "tags": {"is_in:country": "Iran", "is_in:state": "West Azerbaijan", "name": "\u0646\u06cc\u0648\u0686\u0648\u0627\u0646", "place": "village"}}, {"type": "node", "id": 4497368477, "lat": 36.3368405, "lon": 45.4925775, "tags": {"is_in:country": "Iran", "is_in:state": "West Azerbaijan", "name": "\u0646\u0648\u0627\u0648\u0647", "place": "village", "wikidata": "Q5706228"}}, {"type": "node", "id": 4497368478, "lat": 36.3163507, "lon": 45.4421497, "tags": {"is_in:country": "Iran", "is_in:state": "West Azerbaijan", "name": "\u06af\u0631\u0698\u0627\u0644 \u0639\u0644\u06cc\u0627", "place": "hamlet"}}, {"type": "node", "id": 4497368479, "lat": 36.2963201, "lon": 45.4903959, "tags": {"is_in:country": "Iran", "is_in:state": "West Azerbaijan", "name": "\u062e\u0644\u06cc\u0633\u0627\u0646", "place": "village", "wikidata": "Q5706456"}}, {"type": "node", "id": 4497368480, "lat": 36.2774496, "lon": 45.4980673, "tags": {"is_in:country": "Iran", "is_in:state": "West Azerbaijan", "name": "\u0645\u0627\u0645\u0632\u06cc\u0646\u0647", "place": "village", "wikidata": "Q5706646"}}, {"type": "node", "id": 4497368481, "lat": 36.2709963, "lon": 45.4451283, "tags": {"is_in:country": "Iran", "is_in:state": "West Azerbaijan", "name": "\u0633\u0631\u0634\u06cc\u0648", "place": "village", "wikidata": "Q5706213"}}, {"type": "node", "id": 4497368482, "lat": 36.2624585, "lon": 45.4640176, "tags": {"is_in:country": "Iran", "is_in:state": "West Azerbaijan", "name": "\u06a9\u0627\u0698\u0647", "place": "village", "wikidata": "Q5705987"}}, {"type": "node", "id": 4497368483, "lat": 36.2512603, "lon": 45.4868477, "tags": {"is_in:country": "Iran", "is_in:state": "West Azerbaijan", "name": "\u0634\u06cc\u0648\u0647 \u0635\u0644", "place": "village", "wikidata": "Q5706811"}}, {"type": "node", "id": 4497368484, "lat": 36.2512955, "lon": 45.4703866, "tags": {"is_in:country": "Iran", "is_in:state": "West Azerbaijan", "name": "\u062d\u0644\u0648\u0647", "place": "village", "wikidata": "Q5804483"}}, {"type": "node", "id": 4497368485, "lat": 36.1230029, "lon": 45.5250599, "tags": {"is_in:country": "Iran", "is_in:state": "West Azerbaijan", "name": "\u06a9\u0627\u0646\u06cc \u0628\u06cc", "place": "village", "wikidata": "Q6519591"}}, {"type": "node", "id": 4497368486, "lat": 36.2457937, "lon": 45.6164214, "tags": {"is_in:country": "Iran", "is_in:state": "West Azerbaijan", "name": "\u0633\u06cc \u0633\u0631", "place": "village", "wikidata": "Q5707308"}}, {"type": "node", "id": 4497368590, "lat": 36.1712502, "lon": 45.5851596, "tags": {"is_in:country": "Iran", "is_in:state": "West Azerbaijan", "name": "\u0645\u0631\u0627\u0646\u0647", "place": "village", "wikidata": "Q5854346"}}, {"type": "node", "id": 4497368591, "lat": 36.242837, "lon": 45.5554467, "tags": {"is_in:country": "Iran", "is_in:state": "West Azerbaijan", "name": "\u0647\u0645\u0631\u0627\u0646", "place": "village", "wikidata": "Q5707007"}}, {"type": "node", "id": 4497368592, "lat": 36.2310772, "lon": 45.5538739, "tags": {"is_in:country": "Iran", "is_in:state": "West Azerbaijan", "name": "\u0647\u0631\u0645\u0632\u0622\u0628\u0627\u062f", "place": "village", "wikidata": "Q5857716"}}, {"type": "node", "id": 4497368593, "lat": 36.2259327, "lon": 45.5718169, "tags": {"is_in:country": "Iran", "is_in:state": "West Azerbaijan", "name": "\u0645\u0627\u0648\u0644\u0648", "place": "village", "wikidata": "Q5706802"}}, {"type": "node", "id": 4497368594, "lat": 36.2170577, "lon": 45.5376202, "tags": {"is_in:country": "Iran", "is_in:state": "West Azerbaijan", "name": "\u06a9\u0627\u0646\u06cc \u06af\u0648\u0632", "place": "village", "wikidata": "Q6519906"}}, {"type": "node", "id": 4497368595, "lat": 36.2020708, "lon": 45.5791592, "tags": {"is_in:country": "Iran", "is_in:state": "West Azerbaijan", "name": "\u0644\u06cc\u0644\u0627\u0646\u0647", "place": "village", "wikidata": "Q5707301"}}, {"type": "node", "id": 4497368596, "lat": 36.1825766, "lon": 45.5785537, "tags": {"is_in:country": "Iran", "is_in:state": "West Azerbaijan", "name": "\u0647\u0646\u062f\u0622\u0628\u0627\u062f", "place": "village", "wikidata": "Q5707532"}}, {"type": "node", "id": 4497368597, "lat": 36.1893108, "lon": 45.5024277, "tags": {"is_in:country": "Iran", "is_in:state": "West Azerbaijan", "name": "\u0634\u06cc\u0646\u0648", "place": "village", "wikidata": "Q5705981"}}, {"type": "node", "id": 4497368598, "lat": 36.1603228, "lon": 45.5707741, "tags": {"is_in:country": "Iran", "is_in:state": "West Azerbaijan", "name": "\u0645\u06cc\u06a9\u0644 \u0622\u0628\u0627\u062f", "place": "village"}}, {"type": "node", "id": 4497368599, "lat": 36.1170827, "lon": 45.5897603, "tags": {"is_in:country": "Iran", "is_in:state": "West Azerbaijan", "name": "\u06cc\u0648\u0633\u0641 \u06af\u0644", "place": "village", "wikidata": "Q6519619"}}, {"type": "node", "id": 4497368601, "lat": 36.1442896, "lon": 45.5737945, "tags": {"is_in:country": "Iran", "is_in:state": "West Azerbaijan", "name": "\u0628\u0635\u0631\u0647", "place": "village", "wikidata": "Q5706774"}}, {"type": "node", "id": 4497368603, "lat": 36.1180421, "lon": 45.5497116, "tags": {"is_in:country": "Iran", "is_in:state": "West Azerbaijan", "name": "\u06cc\u0627\u0633\u06cc\u0646 \u0622\u0628\u0627\u062f", "place": "village"}}, {"type": "node", "id": 4497368604, "lat": 36.1051496, "lon": 45.5319931, "tags": {"alt_name": "\u0632\u06cc\u0631 \u0645\u0631\u06af", "is_in:country": "Iran", "is_in:state": "West Azerbaijan", "name": "\u0632\u0631\u0647 \u0645\u0631\u06af", "name:en": "Zireh Merg", "place": "village", "wikidata": "Q5707425"}}, {"type": "node", "id": 4497368607, "lat": 36.3173137, "lon": 45.5202892, "tags": {"is_in:country": "Iran", "is_in:state": "West Azerbaijan", "name": "\u067e\u0627\u0631\u0627\u0633\u062a\u0627\u0646", "place": "village", "wikidata": "Q5706888"}}, {"type": "node", "id": 4497368608, "lat": 36.3287192, "lon": 45.570592, "tags": {"is_in:country": "Iran", "is_in:state": "West Azerbaijan", "name": "\u0632\u0645\u0632\u06cc\u0631\u0627\u0646", "place": "village", "wikidata": "Q5706647"}}, {"type": "node", "id": 4497368609, "lat": 36.2952323, "lon": 45.5367027, "tags": {"is_in:country": "Iran", "is_in:state": "West Azerbaijan", "name": "\u062c\u0628\u0631\u0646\u062f", "place": "village", "wikidata": "Q5706219"}}, {"type": "node", "id": 4497368610, "lat": 36.2695512, "lon": 45.5123847, "tags": {"is_in:country": "Iran", "is_in:state": "West Azerbaijan", "name": "\u0648\u0631\u06af\u0644", "place": "village", "wikidata": "Q5804485"}}, {"type": "node", "id": 4497368611, "lat": 36.2529231, "lon": 45.5224091, "tags": {"is_in:country": "Iran", "is_in:state": "West Azerbaijan", "name": "\u0628\u0644\u0627\u0648", "place": "village", "wikidata": "Q5706803"}}, {"type": "node", "id": 4497368612, "lat": 36.2961468, "lon": 45.5732485, "tags": {"is_in:country": "Iran", "is_in:state": "West Azerbaijan", "name": "\u0633\u0627\u0631\u062a\u06a9\u0647", "place": "village", "wikidata": "Q5707305"}}, {"type": "node", "id": 4497368613, "lat": 36.2739178, "lon": 45.5602147, "tags": {"is_in:country": "Iran", "is_in:state": "West Azerbaijan", "name": "\u0645\u06cc\u0648\u0646\u0647", "place": "village", "wikidata": "Q5706800"}}, {"type": "node", "id": 4497368614, "lat": 36.2574997, "lon": 45.5916459, "tags": {"is_in:country": "Iran", "is_in:state": "West Azerbaijan", "name": "\u0633\u0631\u0648\u0647", "place": "village"}}, {"type": "node", "id": 4497368616, "lat": 36.3354417, "lon": 45.5248797, "tags": {"is_in:country": "Iran", "is_in:state": "West Azerbaijan", "name": "\u0646\u0644\u0648\u0633\u0647", "place": "village", "wikidata": "Q5706225"}}, {"type": "node", "id": 4497368617, "lat": 36.364517, "lon": 45.508123, "tags": {"is_in:country": "Iran", "is_in:state": "West Azerbaijan", "name": "\u0686\u0648\u0627\u0644\u0627\u0646", "place": "village", "wikidata": "Q5706458"}}, {"type": "node", "id": 4497368618, "lat": 36.368439, "lon": 45.5798568, "tags": {"is_in:country": "Iran", "is_in:state": "West Azerbaijan", "name": "\u06a9\u0644\u0647 \u06a9\u0627\u0648\u06cc", "place": "village", "wikidata": "Q5814101"}}, {"type": "node", "id": 4605333759, "lat": 36.2364628, "lon": 45.4409458, "tags": {"name": "\u0632\u06cc\u0648\u0647", "place": "village", "wikidata": "Q5706644"}}, {"type": "node", "id": 4715086790, "lat": 36.2215855, "lon": 45.0861376, "tags": {"name": "\u0642\u0627\u062f\u0631\u0627\u0648\u06d5", "name:ar": "\u06a9\u06d5\u0648\u06cc \u0628\u0627\u0628\u06d5 \u0633\u06d5\u0646", "name:en": "kawe baba san village", "name:ku": "\u06af\u0648\u0646\u062f\u0649 \u06a9\u06d5\u0648\u06cc \u0628\u0627\u0628\u06d5 \u0633\u06d5\u0646", "place": "village"}}, {"type": "node", "id": 4725833021, "lat": 36.1883652, "lon": 45.5967044, "tags": {"name": "\u0634\u0627\u0644\u06af\u0647", "place": "village", "wikidata": "Q5706788"}}, {"type": "node", "id": 4725834921, "lat": 36.1911006, "lon": 45.6174375, "tags": {"is_in:state": "West Azerbaijan", "name": "\u0642\u0627\u0645\u06cc\u0634\u0647", "place": "village"}}, {"type": "node", "id": 4788425114, "lat": 36.2754467, "lon": 45.3482072, "tags": {"name": "\u062f\u0627\u0631\u0645\u0647 \u06a9\u0648\u0646", "place": "hamlet"}}, {"type": "node", "id": 4788425115, "lat": 36.2754229, "lon": 45.3644397, "tags": {"name": "\u0633\u06cc\u0631\u0647 \u0645\u0631\u06af", "place": "hamlet"}}, {"type": "node", "id": 5106857761, "lat": 36.4843339, "lon": 45.3023415, "tags": {"name": "\u0642\u0628\u0631\u062d\u0633\u06cc\u0646", "place": "village"}}, {"type": "node", "id": 5137879966, "lat": 36.2197015, "lon": 45.4249028, "tags": {"name": "\u0634\u0647 \u0645\u0647 \u0634\u06cc\u062e\u0647", "place": "village"}}, {"type": "node", "id": 5208544374, "lat": 36.1596372, "lon": 45.5189603, "tags": {"name": "\u0634\u06cc\u0648\u0627\u0634\u0627\u0646", "place": "village", "wikidata": "Q5575565"}}, {"type": "node", "id": 5255558077, "lat": 36.1634319, "lon": 45.5230294, "tags": {"name": "\u0642\u0648\u0644\u062a\u0647", "place": "village", "wikidata": "Q5706989"}}, {"type": "node", "id": 5321689921, "lat": 36.1396835, "lon": 45.2361667, "tags": {"alt_name": "\u0628\u0631\u0628\u0627\u0646\u0629", "int_name": "Barbana, Barb\u0101na, B\u0101rbinah, Barbna, \u0628\u0627\u0631\u0628\u0646\u0629, Barbana, Barbana, Barbinah, Barbna, \u0628\u0627\u0631\u0628\u0646\u0629", "name": "\u06af\u06c6\u0645\u0627\u0646", "name:ar": "\u06a9\u0648\u0645\u0627\u0646", "name:de": "Goman", "name:en": "Goman", "name:fr": "Goman", "place": "village"}}, {"type": "node", "id": 5821992579, "lat": 36.3073046, "lon": 45.4119016, "tags": {"name": "\u0633\u0648\u0631\u0647 \u0628\u0627\u0646", "place": "village", "population": "30", "wikidata": "Q5814472"}}, {"type": "node", "id": 5821992584, "lat": 36.3010869, "lon": 45.3903796, "tags": {"name": "\u06a9\u0648\u062f\u0647 \u0644\u06cc", "place": "village"}}, {"type": "node", "id": 7283303076, "lat": 36.4669303, "lon": 45.5895581, "tags": {"place": "village"}}, {"type": "node", "id": 7321820575, "lat": 36.2787661, "lon": 45.2945213, "tags": {"name": "\u0632\u06d5\u06b5\u06ce", "name:ar": "\u0632\u0644\u064a", "name:en": "Zale", "place": "village"}}, {"type": "node", "id": 7321842641, "lat": 36.284591, "lon": 45.2871779, "tags": {"name": "\u0645\u06ce\u0634\u0627\u0648\u06d5", "name:ar": "\u0645\u06cc\u0634\u0627\u0648\u0629", "name:en": "Meshawa", "place": "village"}}, {"type": "node", "id": 7321860617, "lat": 36.2720835, "lon": 45.2999659, "tags": {"name": "\u0646\u0627\u0648\u0632\u06d5\u0646\u06af", "name:ar": "\u0646\u0627\u0648\u0632\u0646\u06a9", "name:en": "Nawzang", "place": "village"}}, {"type": "node", "id": 7321885737, "lat": 36.2892895, "lon": 45.2751132, "tags": {"name": "\u0642\u0648\u06b5\u06d5\u06be\u06d5\u0631\u0645\u06ce", "name:ar": "\u0642\u0648\u0644\u0629\u06be\u0629\u0631\u0645\u064a", "name:en": "Qulaharme", "place": "village"}}, {"type": "node", "id": 7321889036, "lat": 36.2875043, "lon": 45.2532152, "tags": {"name": "\u06a9\u0627\u0646\u06cc \u0633\u0646\u06d5", "name:ar": "\u06a9\u0627\u0646\u064a \u0633\u0646\u0629", "name:en": "Kani Sna", "place": "village"}}, {"type": "node", "id": 7321889537, "lat": 36.2846493, "lon": 45.2643585, "tags": {"name": "\u0633\u06d5\u0631\u06a9\u06d5\u0646\u062f", "name:ar": "\u0633\u0631\u06a9\u0646\u062f", "name:en": "Sarkand", "place": "village"}}, {"type": "node", "id": 7321924449, "lat": 36.2927624, "lon": 45.2298987, "tags": {"name": "\u06af\u06c6\u0645\u06ce", "name:ar": "\u06a9\u0648\u0645\u064a", "name:en": "Gome", "place": "village"}}, {"type": "node", "id": 7321925674, "lat": 36.2907258, "lon": 45.2417888, "tags": {"name": "\u06a9\u0627\u0645\u06d5\u0633\u062a\u0627", "name:ar": "\u06a9\u0627\u0645\u0633\u062a\u0627", "name:en": "Kamasta", "place": "village"}}, {"type": "node", "id": 7321932021, "lat": 36.2874036, "lon": 45.2402155, "tags": {"name": "\u06a9\u06d5\u0644\u0648\u06d5\u0695\u06d5\u0632", "name:ar": "\u06a9\u0629\u0644\u0648\u0631\u0632", "name:en": "Kalwaraz", "place": "village"}}, {"type": "node", "id": 7321963699, "lat": 36.2864475, "lon": 45.2248704, "tags": {"name": "\u06a9\u0627\u0646\u06cc \u0695\u06d5\u0634", "name:ar": "\u06a9\u0627\u0646\u064a \u0631\u0629\u0634", "name:en": "Kani Rash", "place": "village"}}, {"type": "node", "id": 7321965648, "lat": 36.2987072, "lon": 45.2372821, "tags": {"name": "\u067e\u0631\u062f\u06d5\u0628\u06d5\u0631\u062f\u06cc\u0646\u06d5", "name:ar": "\u0628\u0631\u062f\u0629\u0628\u0631\u062f\u06cc\u0646\u0629", "name:en": "Prda Bardina", "place": "village"}}, {"type": "node", "id": 7321994851, "lat": 36.2979929, "lon": 45.2442759, "tags": {"name": "\u0628\u06d5\u0631\u062f\u06d5\u0642\u0633\u06b5", "name:ar": "\u0628\u0631\u062f\u0629\u0642\u0633\u0644", "name:en": "Bardaqsl", "place": "village"}}, {"type": "node", "id": 7321995732, "lat": 36.3039454, "lon": 45.2572181, "tags": {"name": "\u06a9\u0648\u0646\u06d5\u0645\u0627\u0631\u06d5", "name:ar": "\u06a9\u0648\u0646\u0629\u0645\u0627\u0631\u0629", "name:en": "Kunamara", "place": "village"}}, {"type": "node", "id": 7322057696, "lat": 36.3130419, "lon": 45.2314041, "tags": {"name": "\u06a9\u0627\u0646\u06cc\u06a9\u0627\u0631\u0627\u0646", "name:ar": "\u06a9\u0627\u0646\u06cc\u06a9\u0627\u0631\u0627\u0646", "name:en": "Kanikaran", "place": "village"}}, {"type": "node", "id": 7322111567, "lat": 36.3430092, "lon": 45.1724907, "tags": {"name": "\u0633\u0648\u0631\u06d5\u06af\u06b5\u06d5\u06cc \u0633\u06d5\u0631\u0648\u0648", "name:ar": "\u0633\u0648\u0631\u0629\u06a9\u0644\u0629 \u0627\u0644\u0639\u0644\u06cc\u0627", "name:en": "Suragla Upper", "place": "village"}}, {"type": "node", "id": 7322121597, "lat": 36.3500187, "lon": 45.1867835, "tags": {"name": "\u0628\u0627\u0642\u06cc\u0627\u0648\u0627", "name:ar": "\u0628\u0627\u0642\u06cc\u0627\u0648\u0627", "name:en": "Baqiawa", "place": "village"}}, {"type": "node", "id": 7322207230, "lat": 36.3400497, "lon": 45.1226028}, {"type": "node", "id": 7322207232, "lat": 36.3406623, "lon": 45.1239471}, {"type": "node", "id": 7322207233, "lat": 36.3409709, "lon": 45.1234854}, {"type": "node", "id": 7322207234, "lat": 36.3413437, "lon": 45.1235368}, {"type": "node", "id": 7322207235, "lat": 36.3414265, "lon": 45.1242653}, {"type": "node", "id": 7322207236, "lat": 36.3412836, "lon": 45.1245735}, {"type": "node", "id": 7322207237, "lat": 36.3408547, "lon": 45.1246202}, {"type": "node", "id": 7322207238, "lat": 36.3406967, "lon": 45.1251619}, {"type": "node", "id": 7322207239, "lat": 36.3399895, "lon": 45.1254235}, {"type": "node", "id": 7322207240, "lat": 36.3399895, "lon": 45.1258624}, {"type": "node", "id": 7322207241, "lat": 36.3390717, "lon": 45.1264415}, {"type": "node", "id": 7322207242, "lat": 36.3385901, "lon": 45.126647}, {"type": "node", "id": 7322207243, "lat": 36.3384021, "lon": 45.1270019}, {"type": "node", "id": 7322207244, "lat": 36.3388159, "lon": 45.127058}, {"type": "node", "id": 7322207245, "lat": 36.3392071, "lon": 45.126647}, {"type": "node", "id": 7322207246, "lat": 36.3395908, "lon": 45.1265816}, {"type": "node", "id": 7322207247, "lat": 36.3399519, "lon": 45.1263761}, {"type": "node", "id": 7322207248, "lat": 36.3405087, "lon": 45.1260025}, {"type": "node", "id": 7322207249, "lat": 36.3406817, "lon": 45.1262547}, {"type": "node", "id": 7322207250, "lat": 36.3412459, "lon": 45.1255169}, {"type": "node", "id": 7322207251, "lat": 36.341592, "lon": 45.1252273}, {"type": "node", "id": 7322207252, "lat": 36.3417425, "lon": 45.1254328}, {"type": "node", "id": 7322207253, "lat": 36.3421036, "lon": 45.1252086}, {"type": "node", "id": 7322207254, "lat": 36.3424798, "lon": 45.1255449}, {"type": "node", "id": 7322207255, "lat": 36.3428033, "lon": 45.125769}, {"type": "node", "id": 7322207256, "lat": 36.3429086, "lon": 45.1254982}, {"type": "node", "id": 7322207257, "lat": 36.3425475, "lon": 45.1249378}, {"type": "node", "id": 7322207258, "lat": 36.3428183, "lon": 45.1248817}, {"type": "node", "id": 7322207259, "lat": 36.3431268, "lon": 45.1250405}, {"type": "node", "id": 7322207260, "lat": 36.3435255, "lon": 45.1250499}, {"type": "node", "id": 7322207261, "lat": 36.3436158, "lon": 45.1245735}, {"type": "node", "id": 7322207262, "lat": 36.3441499, "lon": 45.1236675}, {"type": "node", "id": 7322207263, "lat": 36.3446841, "lon": 45.1240878}, {"type": "node", "id": 7322207264, "lat": 36.3447442, "lon": 45.1238543}, {"type": "node", "id": 7322207265, "lat": 36.3442026, "lon": 45.12335}, {"type": "node", "id": 7322207266, "lat": 36.3446163, "lon": 45.1225374}, {"type": "node", "id": 7322207267, "lat": 36.3443831, "lon": 45.1225094}, {"type": "node", "id": 7322207268, "lat": 36.344165, "lon": 45.1220237}, {"type": "node", "id": 7322207269, "lat": 36.3439468, "lon": 45.1221825}, {"type": "node", "id": 7322207270, "lat": 36.3439167, "lon": 45.1224627}, {"type": "node", "id": 7322207271, "lat": 36.3436383, "lon": 45.122967}, {"type": "node", "id": 7322207272, "lat": 36.3430139, "lon": 45.1226495}, {"type": "node", "id": 7322207273, "lat": 36.3426904, "lon": 45.1227522}, {"type": "node", "id": 7322207274, "lat": 36.3423143, "lon": 45.1231071}, {"type": "node", "id": 7322207275, "lat": 36.3415619, "lon": 45.1228643}, {"type": "node", "id": 7322207276, "lat": 36.341434, "lon": 45.1222665}, {"type": "node", "id": 7322207277, "lat": 36.3411858, "lon": 45.1222479}, {"type": "node", "id": 7322207278, "lat": 36.3408472, "lon": 45.1227242}, {"type": "node", "id": 7322224843, "lat": 36.2773815, "lon": 45.2213447, "tags": {"name": "\u0642\u06c6\u062c\u0627\u06b5", "name:ar": "\u0642\u0648\u062c\u0627\u0644", "name:en": "Qojal", "place": "village"}}, {"type": "node", "id": 7322230547, "lat": 36.2840255, "lon": 45.205634, "tags": {"name": "\u062f\u0648\u0628\u06ce", "name:ar": "\u062f\u0648\u0628\u064a", "name:en": "Dube", "place": "village"}}, {"type": "node", "id": 7322297363, "lat": 36.2784381, "lon": 45.1983888, "tags": {"name": "\u06a9\u0627\u0648\u0644\u0627\u0646\u06d5", "name:ar": "\u06a9\u0627\u0648\u0644\u0627\u0646\u0629", "name:en": "Kawlana", "place": "village"}}, {"type": "node", "id": 7333017939, "lat": 36.2710647, "lon": 45.3117576, "tags": {"name": "\u0646\u06c6\u06a9\u0627\u0646", "name:en": "Nokan", "name:fa": "\u0646\u0648\u06a9\u0627\u0646", "place": "village"}}, {"type": "node", "id": 7333023113, "lat": 36.2935856, "lon": 45.2860088, "tags": {"name": "\u06af\u06c6\u0695\u06d5\u0634\u06ce\u0631", "name:en": "Gorasher", "name:fa": "\u06af\u0648\u0631\u06d5\u0634\u06cc\u0631", "place": "village"}}, {"type": "node", "id": 7333029697, "lat": 36.3055997, "lon": 45.1026739, "tags": {"name": "\u062f\u06d5\u0631\u06af\u06d5\u06b5\u06d5\u06cc \u0645\u06d5\u0646\u06af\u0648\u0695", "name:ar": "\u062f\u0631\u06a9\u0644\u0629 \u0645\u0646\u06a9\u0648\u0631", "name:en": "Dargla Mangur", "place": "village"}}, {"type": "node", "id": 7333048792, "lat": 36.2850884, "lon": 45.1070406, "tags": {"name": "\u0645\u0627\u0645 \u0698\u06cc\u0644\u06d5", "name:ar": "\u0645\u0627\u0645 \u0632\u06cc\u0644\u0629", "name:en": "Mam Zhila", "place": "village"}}, {"type": "node", "id": 7333069235, "lat": 36.2890502, "lon": 45.0894368}, {"type": "node", "id": 7333069236, "lat": 36.2891415, "lon": 45.0897057}, {"type": "node", "id": 7333069237, "lat": 36.2872244, "lon": 45.0904277}, {"type": "node", "id": 7333069238, "lat": 36.2873043, "lon": 45.0914612}, {"type": "node", "id": 7333069239, "lat": 36.2865968, "lon": 45.0915603}, {"type": "node", "id": 7333069240, "lat": 36.2861289, "lon": 45.0914895}, {"type": "node", "id": 7333069241, "lat": 36.2855697, "lon": 45.0914187}, {"type": "node", "id": 7333069242, "lat": 36.2848622, "lon": 45.0911922}, {"type": "node", "id": 7333069243, "lat": 36.2840064, "lon": 45.0905268}, {"type": "node", "id": 7333069244, "lat": 36.2838808, "lon": 45.0903853}, {"type": "node", "id": 7333069245, "lat": 36.2836412, "lon": 45.0908383}, {"type": "node", "id": 7333069246, "lat": 36.2833901, "lon": 45.090725}, {"type": "node", "id": 7333069247, "lat": 36.2832304, "lon": 45.0904419}, {"type": "node", "id": 7333069248, "lat": 36.2829793, "lon": 45.0903145}, {"type": "node", "id": 7333069249, "lat": 36.2827739, "lon": 45.0903286}, {"type": "node", "id": 7333069250, "lat": 36.2825114, "lon": 45.0900738}, {"type": "node", "id": 7333069251, "lat": 36.2822718, "lon": 45.0900172}, {"type": "node", "id": 7333069252, "lat": 36.2823516, "lon": 45.0893943}, {"type": "node", "id": 7333069253, "lat": 36.281918, "lon": 45.0893801}, {"type": "node", "id": 7333069254, "lat": 36.281918, "lon": 45.0897482}, {"type": "node", "id": 7333069255, "lat": 36.2814843, "lon": 45.0895359}, {"type": "node", "id": 7333069256, "lat": 36.2813816, "lon": 45.0891819}, {"type": "node", "id": 7333069257, "lat": 36.2818495, "lon": 45.0887148}, {"type": "node", "id": 7333069258, "lat": 36.2820321, "lon": 45.0885024}, {"type": "node", "id": 7333069259, "lat": 36.2815186, "lon": 45.0879078}, {"type": "node", "id": 7333069260, "lat": 36.281336, "lon": 45.0879645}, {"type": "node", "id": 7333069261, "lat": 36.2807768, "lon": 45.087469}, {"type": "node", "id": 7333069262, "lat": 36.2809137, "lon": 45.0871575}, {"type": "node", "id": 7333069263, "lat": 36.2804687, "lon": 45.0867328}, {"type": "node", "id": 7333069264, "lat": 36.2801263, "lon": 45.0865205}, {"type": "node", "id": 7333069265, "lat": 36.279841, "lon": 45.0862656}, {"type": "node", "id": 7333069266, "lat": 36.2798524, "lon": 45.0858409}, {"type": "node", "id": 7333069267, "lat": 36.2800921, "lon": 45.0856994}, {"type": "node", "id": 7333069268, "lat": 36.281005, "lon": 45.0863223}, {"type": "node", "id": 7333069269, "lat": 36.2810849, "lon": 45.0857277}, {"type": "node", "id": 7333069270, "lat": 36.2810849, "lon": 45.0853879}, {"type": "node", "id": 7333069271, "lat": 36.2818609, "lon": 45.0855153}, {"type": "node", "id": 7333069272, "lat": 36.2819522, "lon": 45.0858834}, {"type": "node", "id": 7333069273, "lat": 36.2821462, "lon": 45.0852322}, {"type": "node", "id": 7333069274, "lat": 36.2824658, "lon": 45.0852322}, {"type": "node", "id": 7333069275, "lat": 36.2827282, "lon": 45.0854162}, {"type": "node", "id": 7333069276, "lat": 36.2831277, "lon": 45.0856286}, {"type": "node", "id": 7333069277, "lat": 36.2834928, "lon": 45.0856852}, {"type": "node", "id": 7333069278, "lat": 36.2837439, "lon": 45.0852039}, {"type": "node", "id": 7333069279, "lat": 36.2841091, "lon": 45.0849915}, {"type": "node", "id": 7333069280, "lat": 36.2845769, "lon": 45.0848783}, {"type": "node", "id": 7333069281, "lat": 36.2846568, "lon": 45.085218}, {"type": "node", "id": 7333069282, "lat": 36.28444, "lon": 45.0858126}, {"type": "node", "id": 7333069283, "lat": 36.2846226, "lon": 45.0866762}, {"type": "node", "id": 7333069284, "lat": 36.2848052, "lon": 45.0866762}, {"type": "node", "id": 7333076685, "lat": 36.2848166, "lon": 45.0861524}, {"type": "node", "id": 7333076686, "lat": 36.2853986, "lon": 45.0860958}, {"type": "node", "id": 7333076687, "lat": 36.2855697, "lon": 45.0867328}, {"type": "node", "id": 7333076688, "lat": 36.2855697, "lon": 45.0870584}, {"type": "node", "id": 7333076689, "lat": 36.2852959, "lon": 45.0874831}, {"type": "node", "id": 7333076690, "lat": 36.2851818, "lon": 45.0878937}, {"type": "node", "id": 7333076691, "lat": 36.2846682, "lon": 45.0882759}, {"type": "node", "id": 7333076692, "lat": 36.2847025, "lon": 45.0887289}, {"type": "node", "id": 7333076693, "lat": 36.2846796, "lon": 45.0890404}, {"type": "node", "id": 7333076694, "lat": 36.2849878, "lon": 45.0892669}, {"type": "node", "id": 7333076695, "lat": 36.2853758, "lon": 45.0894085}, {"type": "node", "id": 7333076696, "lat": 36.285798, "lon": 45.0894934}, {"type": "node", "id": 7333076697, "lat": 36.2866766, "lon": 45.0895642}, {"type": "node", "id": 7333076698, "lat": 36.2867908, "lon": 45.0898332}, {"type": "node", "id": 7333076699, "lat": 36.2879775, "lon": 45.0898048}, {"type": "node", "id": 7333076700, "lat": 36.2885481, "lon": 45.0895642}, {"type": "node", "id": 7333095381, "lat": 36.2729973, "lon": 45.1923383, "tags": {"name": "\u062c\u06c6\u0644\u0627\u0646\u0627\u0646", "name:ar": "\u062c\u0648\u0644\u0627\u0646\u0627\u0646", "name:en": "Jolanan", "place": "village"}}, {"type": "node", "id": 7333134933, "lat": 36.245873, "lon": 45.0971928, "tags": {"name": "\u0642\u0631\u0698\u0627\u06b5\u06d5\u0628\u0695\u06d5", "name:ar": "\u0642\u0631\u0632\u0627\u0644\u0629\u0628\u0631\u0629", "name:en": "Qrzhalabra", "place": "village"}}, {"type": "node", "id": 7333165510, "lat": 36.2620652, "lon": 45.1618709, "tags": {"name": "\u0645\u0627\u0645\u06d5\u0646\u062f\u06d5", "name:ar": "\u0645\u0627\u0645\u0646\u062f\u0629", "name:en": "Mamanda", "place": "village"}}, {"type": "node", "id": 7333178886, "lat": 36.2605456, "lon": 45.1882931, "tags": {"name": "\u0634\u06cc\u0648\u06d5\u0695\u06d5\u0632\u06cc \u062e\u0648\u0627\u0631\u0648\u0648", "name:ar": "\u0634\u06cc\u0648\u0629\u0631\u0632\u064a \u0627\u0644\u0633\u0641\u0644\u06cc", "name:en": "Shiwaraz Lower", "place": "village"}}, {"type": "node", "id": 7333279439, "lat": 36.2508338, "lon": 45.1499206, "tags": {"name": "\u062f\u06ce\u0644\u06c6", "name:ar": "\u062f\u06cc\u0644\u0648", "name:en": "Delo", "place": "village"}}, {"type": "node", "id": 7333279495, "lat": 36.2533464, "lon": 45.1531067, "tags": {"name": "\u0632\u06cc\u0646\u06cc \u0628\u0627\u062f\u06cc\u0646", "name:ar": "\u0632\u06cc\u0646\u064a \u0628\u0627\u062f\u06cc\u0646", "name:en": "Zini Badin", "place": "village"}}, {"type": "node", "id": 7333315928, "lat": 36.2454995, "lon": 45.1480929, "tags": {"name": "\u0633\u06d5\u0631\u062f\u06ce\u0644\u06c6", "name:ar": "\u0633\u0631\u062f\u06cc\u0644\u0648", "name:en": "Sardelo", "place": "village"}}, {"type": "node", "id": 7335662617, "lat": 36.1765325, "lon": 45.2813615, "tags": {"name": "\u06a9\u0648\u062e\u0627\u0646", "name:ar": "\u06a9\u0648\u062e\u0627\u0646", "name:en": "Kokhan", "place": "village", "wikidata": "Q61389755", "wikipedia": "ckb:\u06a9\u0648\u062e\u0627\u0646"}}, {"type": "node", "id": 7335666347, "lat": 36.1606733, "lon": 45.2794053, "tags": {"name": "\u0642\u06c6\u0631\u06cc\u0627\u0646", "name:ar": "\u0642\u0648\u0631\u06cc\u0627\u0646", "name:en": "Qoryan", "place": "village", "wikidata": "Q61389745", "wikipedia": "ckb:\u0642\u06c6\u0631\u06cc\u0627\u0646"}}, {"type": "node", "id": 7335704419, "lat": 36.107046, "lon": 45.2662406, "tags": {"name": "\u0626\u0627\u0648\u06d5\u06a9\u06d5", "name:ar": "\u0626\u0627\u0648\u0629\u06a9\u0629", "name:en": "Awaka", "place": "village"}}, {"type": "node", "id": 7335705724, "lat": 36.1253005, "lon": 45.2535559, "tags": {"name": "\u0645\u0695\u06d5", "name:ar": "\u0645\u0631\u0629", "name:en": "Mra", "place": "village"}}, {"type": "node", "id": 7335718585, "lat": 36.1338624, "lon": 45.2253832, "tags": {"name": "\u0642\u0648\u06b5\u06d5\u0634\u0627\u0631", "name:ar": "\u0642\u0648\u0644\u0629\u0634\u0627\u0631", "name:en": "Qulashar", "place": "village"}}, {"type": "node", "id": 7335719418, "lat": 36.1040614, "lon": 45.2760992, "tags": {"name": "\u0626\u06d5\u062d\u0645\u06d5\u0646\u062f\u06d5", "name:ar": "\u0627\u062d\u0645\u0646\u062f\u0629", "name:en": "Ahmanda", "place": "village"}}, {"type": "node", "id": 7335724412, "lat": 36.1095371, "lon": 45.3073053, "tags": {"name": "\u0628\u0646\u0627\u0648\u06ce\u0646", "name:ar": "\u0628\u0646\u0627\u0648\u06cc\u0646", "name:en": "Bnawen", "place": "village"}}, {"type": "node", "id": 7335739110, "lat": 36.1041104, "lon": 45.2925724, "tags": {"name": "\u0633\u06ce\u0648\u06d5\u06b5\u06d5", "name:ar": "\u0633\u06cc\u0648\u0629\u0644\u0629", "name:en": "Sewala", "place": "village"}}, {"type": "node", "id": 7335749569, "lat": 36.1088506, "lon": 45.3012216, "tags": {"name": "\u06af\u0631\u062f\u06d5\u0634\u06ce\u062e\u0627\u06b5", "name:ar": "\u06a9\u0631\u062f\u0629\u0634\u06cc\u062e\u0627\u0644", "name:en": "Grdashekhal", "place": "village"}}, {"type": "node", "id": 7336502078, "lat": 36.0919973, "lon": 45.3550234, "tags": {"name": "\u0633\u06ce\u0648\u0634\u06a9\u0627\u0646", "name:ar": "\u0633\u064a\u0648\u0634\u0643\u0627\u0646", "name:ckb": "\u0633\u06ce\u0648\u0634\u06a9\u0627\u0646", "name:en": "Sewshkan", "name:ku": "S\u00eawi\u015fkan", "place": "village", "wikidata": "Q61389645", "wikipedia": "ckb:\u0633\u06ce\u0648\u0634\u06a9\u0627\u0646"}}, {"type": "node", "id": 7336927658, "lat": 36.1302319, "lon": 45.3300416, "tags": {"name": "\u0642\u0648\u06b5\u06d5\u06be\u06d5\u0631\u0645\u06ce", "name:ar": "\u0642\u0648\u0644\u0629\u06be\u0631\u0645\u064a", "name:en": "Qula Harme", "place": "village"}}, {"type": "node", "id": 7356800674, "lat": 36.1888279, "lon": 45.2917126, "tags": {"name": "\u0644\u0627\u0633\u06c6\u06a9\u06ce", "name:ar": "\u0644\u0627\u0633\u0648\u06a9\u064a", "name:en": "Lasoke", "place": "village"}}, {"type": "node", "id": 7356815351, "lat": 36.208725, "lon": 45.3136133, "tags": {"name": "\u06af\u06d5\u0632\u06ce", "name:ar": "\u06a9\u0629\u0632\u064a", "name:en": "Gaze", "place": "village"}}, {"type": "node", "id": 7356864539, "lat": 36.1927399, "lon": 45.3152591, "tags": {"name": "\u0632\u06ce\u0648\u06d5\u0646\u0627\u0631\u06d5", "name:ar": "\u0632\u06cc\u0648\u0629\u0646\u0627\u0631\u0629", "name:en": "Zewanara", "place": "village"}}, {"type": "node", "id": 7356954740, "lat": 36.2073402, "lon": 45.2819032, "tags": {"name": "\u06be\u06d5\u0648\u0631\u06d5\u0628\u0627\u0646\u06d5", "name:ar": "\u06be\u0648\u0631\u0628\u0627\u0646\u0629", "name:en": "Hawrabana", "place": "village"}}, {"type": "node", "id": 7356961598, "lat": 36.2019649, "lon": 45.2748776, "tags": {"name": "\u0633\u067e\u06cc \u06be\u06d5\u0631\u0645\u06ce", "name:ar": "\u0633\u0628\u064a \u06be\u0631\u0645\u064a", "name:en": "Spi Harme", "place": "village"}}, {"type": "node", "id": 7356986016, "lat": 36.217576, "lon": 45.2352838, "tags": {"name": "\u062f\u06d5\u0631\u0627\u0648", "name:ar": "\u062f\u0629\u0631\u0627\u0648", "name:en": "Daraw", "place": "village"}}, {"type": "node", "id": 7356990309, "lat": 36.2056012, "lon": 45.2270479, "tags": {"name": "\u0626\u0627\u06b5\u0627\u0648\u06d5\u06cc \u0628\u06d5\u0695\u06c6\u0698", "name:ar": "\u0622\u0644\u0627\u0648\u0629", "name:en": "Alawa", "place": "village"}}, {"type": "node", "id": 7356993085, "lat": 36.222522, "lon": 45.259334, "tags": {"name": "\u0626\u06d5\u0633\u067e\u06cc \u062c\u0627\u0695", "name:ar": "\u0627\u0633\u0628\u064a \u062c\u0627\u0631", "name:en": "Aspi Jar", "place": "village"}}, {"type": "node", "id": 7357004958, "lat": 36.1980931, "lon": 45.2407491, "tags": {"name": "\u0628\u0627\u062f\u06cc\u0646\u0628\u0627\u06b5\u06cc \u0633\u06d5\u0631\u0648\u0648", "name:ar": "\u0628\u0627\u062f\u06cc\u0646\u0628\u0627\u0644 \u0627\u0644\u0639\u0644\u06cc\u0627", "name:en": "Badinbal Upper", "place": "village"}}, {"type": "node", "id": 7357026543, "lat": 36.2217525, "lon": 45.2268339, "tags": {"name": "\u06af\u0648\u06b5\u0627\u0646", "name:ar": "\u06a9\u0648\u0644\u0627\u0646", "name:en": "Gulan", "place": "village"}}, {"type": "node", "id": 7357035755, "lat": 36.1903536, "lon": 45.2484886, "tags": {"name": "\u0634\u06ce\u062e \u062c\u0648\u0646\u06d5\u062a", "name:ar": "\u0634\u06cc\u062e \u062c\u0648\u0646\u0629\u062a", "name:en": "Shekh Junat", "place": "village"}}, {"type": "node", "id": 7357035936, "lat": 36.2186526, "lon": 45.2200154, "tags": {"name": "\u0626\u06d5\u0633\u062a\u06ce\u0631\u06c6\u06a9\u0627\u0646", "name:ar": "\u0627\u0633\u062a\u06cc\u0631\u0648\u06a9\u0627\u0646", "name:en": "Asterokan", "place": "village"}}, {"type": "node", "id": 7357074729, "lat": 36.2324942, "lon": 45.2238873, "tags": {"name": "\u06a9\u0648\u06cc\u0632\u06d5\u06b5\u06d5", "name:ar": "\u06a9\u0648\u06cc\u0632\u0644\u0629", "name:en": "Kwizala", "place": "village"}}, {"type": "node", "id": 7357089118, "lat": 36.231174, "lon": 45.2199068, "tags": {"name": "\u06a9\u0627\u0646\u06cc \u0642\u0648\u06b5\u06a9\u06d5", "name:ar": "\u06a9\u0627\u0646\u064a \u0642\u0648\u0644\u06a9\u0629", "name:en": "Kani Qulka", "place": "village"}}, {"type": "node", "id": 7357097420, "lat": 36.2365358, "lon": 45.2183502, "tags": {"name": "\u0634\u06ce\u062e \u0626\u0627\u0648\u062f\u06d5\u06b5\u0627\u0646", "name:ar": "\u0634\u06cc\u062e \u0622\u0648\u062f\u0644\u0627\u0646", "name:en": "Shekh Awdalan", "place": "village"}}, {"type": "node", "id": 7622346061, "lat": 36.105042, "lon": 45.5182779, "tags": {"name": "\u062e\u0627\u0646\u0647 \u062e\u0644 \u0633\u0641\u0644\u06cc", "place": "village"}}, {"type": "node", "id": 7622376632, "lat": 36.1071873, "lon": 45.5310988, "tags": {"name": "\u0632\u06cc\u0631 \u0645\u0631\u06af \u062c\u062f\u06cc\u062f", "place": "village"}}, {"type": "node", "id": 7622377504, "lat": 36.1108105, "lon": 45.5347896, "tags": {"name": "\u062f\u0634\u062a\u0647", "place": "village"}}, {"type": "node", "id": 8159749076, "lat": 36.3398612, "lon": 45.1239496}, {"type": "node", "id": 8159749077, "lat": 36.3384101, "lon": 45.1241771}, {"type": "node", "id": 8159749078, "lat": 36.3383652, "lon": 45.1230598}, {"type": "node", "id": 8159749079, "lat": 36.3390557, "lon": 45.1229536}, {"type": "node", "id": 8159749080, "lat": 36.3391195, "lon": 45.1224747}, {"type": "node", "id": 8993387360, "lat": 36.1914858, "lon": 45.6166975}, {"type": "node", "id": 8993387361, "lat": 36.1915045, "lon": 45.6169325}, {"type": "node", "id": 8993387362, "lat": 36.1914591, "lon": 45.6172966}, {"type": "node", "id": 8993387363, "lat": 36.191809, "lon": 45.6174389}, {"type": "node", "id": 8993387364, "lat": 36.1919372, "lon": 45.6175548}, {"type": "node", "id": 8993387365, "lat": 36.1916167, "lon": 45.6179685}, {"type": "node", "id": 8993387366, "lat": 36.1913709, "lon": 45.6180115}, {"type": "node", "id": 8993387367, "lat": 36.1911439, "lon": 45.6179156}, {"type": "node", "id": 8993387368, "lat": 36.1909729, "lon": 45.6176375}, {"type": "node", "id": 8993387369, "lat": 36.190818, "lon": 45.6174058}, {"type": "node", "id": 8993387370, "lat": 36.1905883, "lon": 45.6172437}, {"type": "node", "id": 8993387371, "lat": 36.1905295, "lon": 45.6170881}, {"type": "node", "id": 8993387372, "lat": 36.1905616, "lon": 45.6169292}, {"type": "node", "id": 8993387373, "lat": 36.1905669, "lon": 45.6167571}, {"type": "node", "id": 8993387374, "lat": 36.1908875, "lon": 45.6164096}, {"type": "node", "id": 9523979394, "lat": 36.1694254, "lon": 45.2162234, "tags": {"name": "\u0634\u06d5\u0645\u06d5\u062a\u06cc\u0648", "place": "village"}}, {"type": "node", "id": 10788604857, "lat": 36.1373678, "lon": 45.5438769, "tags": {"is_in:country": "Iran", "is_in:state": "west Azerbaijan-Sardasht", "name": "\u0646\u06cc\u0633\u06a9\u0627\u0648\u06ce", "place": "village"}}, {"type": "node", "id": 10804444054, "lat": 36.1384243, "lon": 45.5441793}, {"type": "node", "id": 10804444055, "lat": 36.1382311, "lon": 45.544586}, {"type": "node", "id": 10804444056, "lat": 36.1376386, "lon": 45.5446977}, {"type": "node", "id": 10804444057, "lat": 36.1366661, "lon": 45.5444425}, {"type": "node", "id": 10804444058, "lat": 36.1365437, "lon": 45.5440198}, {"type": "node", "id": 10804444059, "lat": 36.1368657, "lon": 45.5431027}, {"type": "node", "id": 10804444060, "lat": 36.1371684, "lon": 45.5429353}, {"type": "node", "id": 10804444061, "lat": 36.1377481, "lon": 45.5436849}, {"type": "node", "id": 10804444062, "lat": 36.1382633, "lon": 45.5436051}, {"type": "node", "id": 11184996390, "lat": 36.1752162, "lon": 45.1618352, "tags": {"name": "\u0628\u06d5\u0631\u062f\u0628\u06d5\u0631\u062f", "name:ar": "\u0628\u0631\u062f\u0628\u0631\u062f", "name:en": "Bardbard", "place": "village", "wikidata": "Q61389488", "wikipedia": "ckb:\u0628\u06d5\u0631\u062f\u0628\u06d5\u0631\u062f\u060c \u0642\u06d5\u06b5\u0627\u062f\u0632\u06ce"}}, {"type": "node", "id": 11185055485, "lat": 36.1925676, "lon": 45.1754817, "tags": {"name": "\u06af\u0648\u0634 \u06af\u0648\u0634", "name:ar": "\u06a9\u0648\u0634 \u06a9\u0648\u0634", "name:en": "Gush Gush", "place": "village", "wikidata": "Q61389552", "wikipedia": "ckb:\u06af\u0648\u0634 \u06af\u0648\u0634"}}, {"type": "node", "id": 11185091440, "lat": 36.216157, "lon": 45.1260559, "tags": {"name": "\u06a9\u0648\u0634\u06a9\u06d5\u06b5\u06d5", "name:ar": "\u06a9\u0648\u0634\u06a9\u0644\u0629", "name:en": "Kushkala", "place": "village", "wikidata": "Q61389422", "wikipedia": "ckb:\u06a9\u0648\u0634\u06a9\u06d5\u06b5\u06d5"}}, {"type": "node", "id": 11185129522, "lat": 36.2321812, "lon": 45.1490345, "tags": {"name": "\u06af\u0631\u062f\u0642\u06d5\u0632\u0648\u0627\u0646", "name:ar": "\u06a9\u0631\u062f\u0642\u0632\u0648\u0627\u0646", "name:en": "Grdqazwan", "place": "village", "wikidata": "Q61389545", "wikipedia": "ckb:\u06af\u0631\u062f\u0642\u06d5\u0632\u0648\u0627\u0646"}}, {"type": "node", "id": 11185180544, "lat": 36.1829211, "lon": 45.169384, "tags": {"name": "\u062f\u0645\u0634\u06d5\u062a", "name:ar": "\u062f\u0645\u0634\u062a", "name:en": "Dmshat", "place": "village", "wikidata": "Q61389515", "wikipedia": "ckb:\u062f\u0645\u0634\u06d5\u062a"}}, {"type": "node", "id": 11185226172, "lat": 36.1643106, "lon": 45.0897244, "tags": {"name": "\u067e\u06cc\u0631\u0627\u0646", "name:ar": "\u0628\u06cc\u0631\u0627\u0646", "name:en": "Piran", "place": "village", "wikidata": "Q61389461", "wikipedia": "ckb:\u067e\u06cc\u0631\u0627\u0646\u060c \u0642\u06d5\u06b5\u0627\u062f\u0632\u06ce"}}, {"type": "way", "id": 783907205, "nodes": [7322207230, 8159749080, 8159749079, 8159749078, 8159749077, 8159749076, 7322207232, 7322207233, 7322207234, 7322207235, 7322207236, 7322207237, 7322207238, 7322207239, 7322207240, 7322207241, 7322207242, 7322207243, 7322207244, 7322207245, 7322207246, 7322207247, 7322207248, 7322207249, 7322207250, 7322207251, 7322207252, 7322207253, 7322207254, 7322207255, 7322207256, 7322207257, 7322207258, 7322207259, 7322207260, 7322207261, 7322207262, 7322207263, 7322207264, 7322207265, 7322207266, 7322207267, 7322207268, 7322207269, 7322207270, 7322207271, 7322207272, 7322207273, 7322207274, 7322207275, 7322207276, 7322207277, 7322207278, 7322207230], "tags": {"name": "\u062a\u0648\u062a\u0645\u06d5", "place": "village", "residential": "rural"}}, {"type": "way", "id": 784901715, "nodes": [7333069235, 7333069236, 7333069237, 7333069238, 7333069239, 7333069240, 7333069241, 7333069242, 7333069243, 7333069244, 7333069245, 7333069246, 7333069247, 7333069248, 7333069249, 7333069250, 7333069251, 7333069252, 7333069253, 7333069254, 7333069255, 7333069256, 7333069257, 7333069258, 7333069259, 7333069260, 7333069261, 7333069262, 7333069263, 7333069264, 7333069265, 7333069266, 7333069267, 7333069268, 7333069269, 7333069270, 7333069271, 7333069272, 7333069273, 7333069274, 7333069275, 7333069276, 7333069277, 7333069278, 7333069279, 7333069280, 7333069281, 7333069282, 7333069283, 7333069284, 7333076685, 7333076686, 7333076687, 7333076688, 7333076689, 7333076690, 7333076691, 7333076692, 7333076693, 7333076694, 7333076695, 7333076696, 7333076697, 7333076698, 7333076699, 7333076700, 7333069235], "tags": {"name": "\u0634\u0631\u0648\u06ce\u062a", "place": "village", "residential": "rural"}}, {"type": "way", "id": 971672150, "nodes": [8993387360, 8993387361, 8993387362, 8993387363, 8993387364, 8993387365, 8993387366, 8993387367, 8993387368, 8993387369, 8993387370, 8993387371, 8993387372, 8993387373, 8993387374, 8993387360], "tags": {"name": "\u0642\u0627\u0645\u06cc\u0634\u0647", "place": "village"}}, {"type": "way", "id": 1161680552, "nodes": [10804444054, 10804444055, 10804444056, 10804444057, 10804444058, 10804444059, 10804444060, 10804444061, 10804444062, 10804444054], "tags": {"name": "\u0646\u06cc\u0633\u06a9 \u0622\u0628\u0627\u062f", "place": "village"}}]}