{"version": 0.6, "generator": "Overpass API 0.7.61.5 4133829e", "osm3s": {"timestamp_osm_base": "2024-03-05T15:10:00Z", "copyright": "The data included in this document is from www.openstreetmap.org. The data is made available under ODbL."}, "elements": [{"type": "node", "id": 614543677, "lat": 66.7621259, "lon": 21.8876635, "tags": {"name": "Skr\u00f6ven", "name:fit": "R\u00f6yti\u00f6", "name:sv": "Skr\u00f6ven", "place": "hamlet"}}, {"type": "node", "id": 713516648, "lat": 66.4164731, "lon": 21.7564912, "tags": {"name": "Vuottas", "place": "hamlet"}}, {"type": "node", "id": 2226880728, "lat": 66.655189, "lon": 22.1960545, "tags": {"name": "Lansj\u00e4rv", "place": "hamlet", "ref:se:pts:postort": "LANSJ\u00c4RV"}}, {"type": "node", "id": 4115181383, "lat": 66.7548343, "lon": 21.4534289, "tags": {"name": "Sarvisvaara", "name:smj": "Sarvesv\u00e1rre", "place": "hamlet"}}, {"type": "node", "id": 4115181384, "lat": 66.7048187, "lon": 21.8709844, "tags": {"name": "Torrivaara", "place": "hamlet"}}, {"type": "node", "id": 4810353865, "lat": 66.7730662, "lon": 22.3424215, "tags": {"name": "Dirivaara", "name:fit": "Tiirivaara", "name:sv": "Dirivaara", "place": "hamlet"}}, {"type": "node", "id": 4810359034, "lat": 66.752709, "lon": 22.2973027, "tags": {"name": "\u00c4nges\u00e5n", "place": "village"}}, {"type": "node", "id": 4810374184, "lat": 66.7842752, "lon": 21.9887709, "tags": {"name": "Torasj\u00e4rvi", "name:smj": "Doares", "place": "hamlet"}}, {"type": "node", "id": 5165211209, "lat": 66.5190443, "lon": 21.9072337, "tags": {"name": "Flakaberg", "name:smj": "S\u00e1dek", "name:sv": "Flakaberg", "place": "village"}}, {"type": "node", "id": 5238050473, "lat": 66.5670692, "lon": 22.1761286, "tags": {"name": "Ertsj\u00e4rv", "place": "hamlet"}}, {"type": "node", "id": 5238445606, "lat": 66.713898, "lon": 21.9938066, "tags": {"name": "Katt\u00e5n", "name:fit": "Kautujoki", "name:sv": "Katt\u00e5n", "place": "hamlet"}}, {"type": "node", "id": 5238462110, "lat": 66.7682798, "lon": 21.7658071, "tags": {"name": "Storberget", "place": "hamlet"}}, {"type": "node", "id": 5238469352, "lat": 66.7912757, "lon": 21.8918493, "tags": {"name": "S\u00e4rkivaara", "place": "hamlet"}}, {"type": "node", "id": 5380646464, "lat": 66.4580468, "lon": 21.8422444, "tags": {"name": "Suobbat", "name:smj": "Suobbat", "place": "hamlet"}}, {"type": "node", "id": 5380646469, "lat": 66.4470765, "lon": 21.8914662, "tags": {"name": "Storsaivis", "name:smj": "Stuor S\u00e1jvva", "name:sv": "Storsaivis", "place": "hamlet"}}, {"type": "node", "id": 5380646510, "lat": 66.4745939, "lon": 21.9013597, "tags": {"name": "Lillsaivis", "name:smj": "Unna S\u00e1jvva", "name:sv": "Lillsaivis", "place": "hamlet"}}, {"type": "node", "id": 5380647475, "lat": 66.5426992, "lon": 21.9187367, "tags": {"name": "Ristr\u00e4sk", "name:smj": "Rieks\u00e1", "name:sv": "Ristr\u00e4sk", "place": "hamlet"}}, {"type": "node", "id": 6707424074, "lat": 66.3864165, "lon": 21.61061, "tags": {"name": "P\u00e5lkem", "place": "village"}}, {"type": "node", "id": 6708336826, "lat": 66.4507362, "lon": 22.2577195, "tags": {"name": "Marsj\u00e4rv", "place": "hamlet"}}]}