{"version": 0.6, "generator": "Overpass API 0.7.61.5 4133829e", "osm3s": {"timestamp_osm_base": "2024-03-06T11:29:56Z", "copyright": "The data included in this document is from www.openstreetmap.org. The data is made available under ODbL."}, "elements": [{"type": "node", "id": 4379088090, "lat": 0.9338083, "lon": 35.0026117, "tags": {"addr:street": "Tulwet road", "amenity": "bank", "email": "joseph.mwirigi@gmail.com", "name": "Joseph Muiyuro", "operator": "JM", "phone": "0726892455", "website": "http://www.farm.org"}}, {"type": "node", "id": 6106058204, "lat": 1.0165664, "lon": 35.0005529, "tags": {"addr:city": "Kitale", "addr:street": "Moi Avenue", "amenity": "bank", "atm": "yes", "name": "National Bank-Kitale"}}, {"type": "node", "id": 6106202683, "lat": 1.0158966, "lon": 35.0024187, "tags": {"addr:city": "Kitale", "addr:street": "Kenyatta Street", "amenity": "bank", "atm": "yes", "brand": "Equity Bank", "brand:wikidata": "Q5384664", "brand:wikipedia": "en:Equity Bank Kenya Limited", "name": "Equity Bank"}}, {"type": "node", "id": 6106202684, "lat": 1.0156763, "lon": 35.0025112, "tags": {"addr:city": "Kitale", "addr:street": "Kenyatta Street", "amenity": "bank", "atm": "yes", "brand": "Barclays", "brand:wikidata": "Q245343", "brand:wikipedia": "en:Barclays", "name": "Barclays"}}, {"type": "node", "id": 6106202787, "lat": 1.0144201, "lon": 35.0035777, "tags": {"addr:city": "Kitale", "addr:street": "Kenyatta Street", "amenity": "bank", "atm": "yes", "brand": "Ecobank", "brand:wikidata": "Q930225", "brand:wikipedia": "en:Ecobank", "name": "Ecobank"}}, {"type": "node", "id": 6106202807, "lat": 1.0160933, "lon": 35.0029807, "tags": {"addr:city": "Kitale", "addr:street": "Robert Ouko Street", "amenity": "bank", "atm": "yes", "name": "KCB Kitale"}}, {"type": "node", "id": 6106202809, "lat": 1.015637, "lon": 35.0039197, "tags": {"addr:city": "Kitale", "addr:street": "Posta Road", "amenity": "bank", "atm": "yes", "name": "Faulu Kenya-Kitale"}}, {"type": "node", "id": 6106202811, "lat": 1.0149843, "lon": 35.0034989, "tags": {"addr:city": "Kitale", "addr:street": "Kenyatta Street", "amenity": "bank", "atm": "yes", "name": "Diamond Trust Bank"}}, {"type": "node", "id": 6106202812, "lat": 1.0149469, "lon": 35.0013063, "tags": {"addr:city": "Kitale", "addr:street": "Kenyatta Street", "amenity": "bank", "atm": "yes", "name": "Co-operative Bank of Kenya Ltd"}}, {"type": "node", "id": 6106202813, "lat": 1.014687, "lon": 35.0036766, "tags": {"addr:city": "Kitale", "addr:street": "Kenyatta Street", "amenity": "bank", "atm": "yes", "name": "Sidian Bank"}}, {"type": "node", "id": 6106202818, "lat": 1.0136621, "lon": 35.0038393, "tags": {"addr:city": "Kitale", "addr:street": "Mak Asembo Street", "amenity": "bank", "atm": "yes", "name": "Smep Microfinance Bank"}}, {"type": "node", "id": 6217991735, "lat": 1.0158737, "lon": 35.0014074, "tags": {"addr:street": "Moi Avenue", "amenity": "bank", "brand": "Postbank", "brand:wikidata": "Q708835", "brand:wikipedia": "en:Deutsche Postbank", "name": "Postbank"}}, {"type": "node", "id": 6218003638, "lat": 1.017969, "lon": 35.0009217, "tags": {"amenity": "bank", "name": "Family bank"}}, {"type": "node", "id": 7938265731, "lat": 1.0152562, "lon": 35.0029148, "tags": {"addr:city": "Kitale", "addr:street": "Kenyatta Street", "amenity": "bank", "brand": "Standard Chartered", "brand:wikidata": "Q548278", "brand:wikipedia": "en:Standard Chartered", "name": "Standard Chartered"}}]}