{"version": 0.6, "generator": "Overpass API 0.7.61.5 4133829e", "osm3s": {"timestamp_osm_base": "2024-03-06T11:19:43Z", "copyright": "The data included in this document is from www.openstreetmap.org. The data is made available under ODbL."}, "elements": [{"type": "node", "id": 5485864623, "lat": -0.4545431, "lon": 39.6432559, "tags": {"addr:city": "Garissa", "amenity": "bank", "name": "National Bank"}}, {"type": "node", "id": 5486142721, "lat": -0.4544359, "lon": 39.6423332, "tags": {"addr:city": "Garissa", "amenity": "bank", "name": "Barclays Bank"}}, {"type": "node", "id": 5486142921, "lat": -0.4554356, "lon": 39.6412902, "tags": {"addr:city": "Garissa", "addr:street": "Harambee Road", "amenity": "bank", "name": "Kenya Commercial Bank Garissa"}}, {"type": "node", "id": 6249718385, "lat": -0.454969, "lon": 39.6407297, "tags": {"addr:city": "Garissa", "addr:street": "Harambee Road", "amenity": "bank", "name": "Equity Bank Garissa"}}, {"type": "node", "id": 6249718402, "lat": -0.4573328, "lon": 39.6384327, "tags": {"addr:city": "Garissa", "amenity": "bank", "name": "Kenya Women Microfinance Bank"}}]}