{"version": 0.6, "generator": "Overpass API 0.7.61.5 4133829e", "osm3s": {"timestamp_osm_base": "2024-03-05T15:08:00Z", "copyright": "The data included in this document is from www.openstreetmap.org. The data is made available under ODbL."}, "elements": [{"type": "node", "id": 344444258, "lat": 67.8513592, "lon": 19.0154235, "tags": {"name": "Nikkaluokta", "name:se": "Nihkk\u00e1luokta", "name:sv": "Nikkaluokta", "place": "village", "wikidata": "Q1572801", "wikipedia": "sv:Nikkaluokta"}}, {"type": "node", "id": 2970758095, "lat": 67.8724157, "lon": 19.2199266, "tags": {"name": "Pirttivuopio", "name:fit": "Pirttivuopio", "name:se": "Veigi", "place": "hamlet"}}, {"type": "node", "id": 5938141116, "lat": 68.1431474, "lon": 18.442401, "tags": {"description": "several huts.", "name": "Alisj\u00e1vri", "name:se": "Alisj\u00e1vri", "place": "hamlet"}}, {"type": "node", "id": 6467372942, "lat": 67.868946, "lon": 18.6202705, "tags": {"name": "Kebnekaise Fj\u00e4llstation", "place": "hamlet"}}]}