{"version": 0.6, "generator": "Overpass API 0.7.61.5 4133829e", "osm3s": {"timestamp_osm_base": "2024-03-06T11:38:08Z", "copyright": "The data included in this document is from www.openstreetmap.org. The data is made available under ODbL."}, "elements": [{"type": "node", "id": 1811653491, "lat": 3.6607729, "lon": 34.190523}, {"type": "node", "id": 1811653493, "lat": 3.6457778, "lon": 34.0785861, "tags": {"amenity": "hospital", "name": "Kathile Health Center 3"}}, {"type": "node", "id": 1811653494, "lat": 3.3538173, "lon": 34.1206919}, {"type": "node", "id": 1812149525, "lat": 3.4187552, "lon": 34.1457784, "tags": {"amenity": "hospital", "name": "Lochom Health Center 2"}}, {"type": "node", "id": 7491982544, "lat": 3.660402, "lon": 34.1905968}, {"type": "node", "id": 7491982545, "lat": 3.6604346, "lon": 34.1911232}, {"type": "node", "id": 7491982546, "lat": 3.6605323, "lon": 34.1911029}, {"type": "node", "id": 7491982547, "lat": 3.6607157, "lon": 34.1907699}, {"type": "node", "id": 7491993586, "lat": 3.3541825, "lon": 34.1207488}, {"type": "node", "id": 7491993587, "lat": 3.3542371, "lon": 34.1202568}, {"type": "node", "id": 7491993588, "lat": 3.3539309, "lon": 34.1201657}, {"type": "node", "id": 7491993589, "lat": 3.3538612, "lon": 34.1203236}, {"type": "node", "id": 11080417479, "lat": 3.4201417, "lon": 34.1447053, "tags": {"amenity": "hospital", "name": "LOCHOM HEALTH CENTRE II"}}, {"type": "node", "id": 11080417493, "lat": 3.6176356, "lon": 34.098889, "tags": {"amenity": "hospital", "name": "KAMACARIKOL HEALTH CTR II"}}, {"type": "node", "id": 11080417499, "lat": 3.512067, "lon": 34.1319923, "tags": {"amenity": "hospital", "name": "KAABONG HOSPITAL"}}, {"type": "node", "id": 11080417502, "lat": 3.6591249, "lon": 34.0112748, "tags": {"amenity": "hospital", "name": "NARENGEPAK HEALTH CENTRE II"}}, {"type": "node", "id": 11080473405, "lat": 3.5653072, "lon": 34.0306412, "tags": {"amenity": "hospital", "name": "LOMODOCH HEALTH CENTRE II"}}, {"type": "node", "id": 11080473410, "lat": 3.6828589, "lon": 34.0139636, "tags": {"amenity": "hospital", "grade": "HC II", "name": "KATHILE HC II"}}, {"type": "node", "id": 11080473416, "lat": 3.5908302, "lon": 34.141514, "tags": {"amenity": "hospital", "name": "LOKOLIA HEALTH CENTRE II"}}, {"type": "node", "id": 11080473427, "lat": 3.6542891, "lon": 34.2754522, "tags": {"amenity": "hospital", "description": "NOT FUNCTIONING", "name": "TIMU HEALTH CENTRE II"}}, {"type": "node", "id": 11080473431, "lat": 3.4923727, "lon": 34.1141812, "tags": {"amenity": "hospital", "name": "KAKAMAR HEALTH CENTRE II"}}, {"type": "node", "id": 11080473433, "lat": 3.3483917, "lon": 34.2581791, "tags": {"amenity": "hospital", "grade": "HC III", "name": "LOYORO HC III"}}, {"type": "node", "id": 11080473443, "lat": 3.6164812, "lon": 34.0483471, "tags": {"amenity": "hospital", "name": "NARYAMOI HEALTH CENTRE II"}}, {"type": "node", "id": 11080473450, "lat": 3.7342955, "lon": 34.2543969, "tags": {"amenity": "hospital", "grade": "HC II", "name": "KAMION HC II"}}, {"type": "node", "id": 11080473452, "lat": 3.6062651, "lon": 34.1809199, "tags": {"amenity": "hospital", "name": "MORULEM HEALTH CENTRE II"}}, {"type": "node", "id": 11080473455, "lat": 3.5247048, "lon": 34.0937364, "tags": {"amenity": "hospital", "name": "LOMERIS HEALTH CENTRE II"}}, {"type": "node", "id": 11080473458, "lat": 3.3626797, "lon": 34.1281078, "tags": {"amenity": "hospital", "grade": "HC III", "name": "KOPOTH HEALTH CENTRE III"}}, {"type": "node", "id": 11080473459, "lat": 3.5519726, "lon": 34.0838574, "tags": {"amenity": "hospital", "name": "LOKERUI HEALTH CENTRE II"}}, {"type": "node", "id": 11080473462, "lat": 3.6426447, "lon": 34.0790347, "tags": {"amenity": "hospital", "name": "KATHILE HEALTH CENTRE II"}}, {"type": "node", "id": 11080473463, "lat": 3.5119735, "lon": 34.1434586, "tags": {"amenity": "hospital", "grade": "Hospital", "name": "KABONG HOSPITAL"}}, {"type": "node", "id": 11080473472, "lat": 3.7313551, "lon": 34.2501278, "tags": {"amenity": "hospital", "name": "KAMION HEALTH CENTRE II"}}, {"type": "node", "id": 11080473476, "lat": 3.5300596, "lon": 34.0465581, "tags": {"amenity": "hospital", "name": "KAIMESE HEALTH CENTRE III"}}, {"type": "node", "id": 11080473479, "lat": 3.3761874, "lon": 34.2365603, "tags": {"amenity": "hospital", "name": "NARIWOSE HEALTH CENTRE II"}}, {"type": "node", "id": 11080473481, "lat": 3.6586878, "lon": 34.1176104, "tags": {"amenity": "hospital", "name": "LOTIM HEALTH CENTRE II"}}, {"type": "node", "id": 11080473488, "lat": 3.3263162, "lon": 34.2381372, "tags": {"amenity": "hospital", "name": "TOROI HEALTH CENTRE II"}}, {"type": "node", "id": 11080473496, "lat": 3.3645089, "lon": 34.1223724, "tags": {"amenity": "hospital", "name": "KOPOTH HEALTH CENTRE III"}}, {"type": "node", "id": 11080473503, "lat": 3.6818208, "lon": 34.1996374, "tags": {"amenity": "hospital", "grade": "HC II", "name": "KALAPATA HEALTH CENTRE II"}}, {"type": "node", "id": 11080473507, "lat": 3.6216228, "lon": 34.1536253, "tags": {"amenity": "hospital", "name": "MORUKORI HEALTH CENTRE II"}}, {"type": "node", "id": 11080473509, "lat": 3.7179273, "lon": 34.1256126, "tags": {"amenity": "hospital", "name": "LOKWAKARAMOE HEALTH CENTRE II"}}, {"type": "node", "id": 11080473512, "lat": 3.6613096, "lon": 34.190688, "tags": {"amenity": "hospital", "name": "KALAPATA HEALTH CENTRE III"}}, {"type": "way", "id": 800988662, "nodes": [1811653491, 7491982544, 7491982545, 7491982546, 7491982547, 1811653491], "tags": {"amenity": "hospital", "healthcare": "hospital", "name": "Kalapata Health Center 3"}}, {"type": "way", "id": 800989225, "nodes": [1811653494, 7491993586, 7491993587, 7491993588, 7491993589, 1811653494], "tags": {"amenity": "hospital", "healthcare": "hospital", "name": "Kopoth Health Center 2"}}]}