{"version": 0.6, "generator": "Overpass API 0.7.61.5 4133829e", "osm3s": {"timestamp_osm_base": "2024-03-05T14:54:41Z", "copyright": "The data included in this document is from www.openstreetmap.org. The data is made available under ODbL."}, "elements": [{"type": "node", "id": 2759542537, "lat": 57.35561, "lon": 13.7401374, "tags": {"addr:city": "Gnosj\u00f6", "addr:country": "SE", "addr:housenumber": "49", "addr:postcode": "33532", "addr:street": "J\u00e4rnv\u00e4gsgatan", "amenity": "pharmacy", "brand": "Apoteket", "contact:phone": "+46771450450", "name": "Apoteket Tranan", "operator": "Apoteket AB (publ)"}}, {"type": "node", "id": 3806930799, "lat": 57.4809251, "lon": 13.3472505, "tags": {"addr:city": "Tranemo", "addr:country": "SE", "addr:housenumber": "42", "addr:postcode": "514 34", "addr:street": "Storgatan", "amenity": "clinic", "contact:phone": "+46 325 472 10", "healthcare": "clinic", "name": "N\u00e4rh\u00e4lsan Tranemo v\u00e5rdcentral", "network": "V\u00e4stra G\u00f6talandsregionen", "operator": "V\u00e4stra G\u00f6talandsregionen", "website": "https://www.narhalsan.se/hitta-mottagning/tranemo/narhalsan-tranemo-vardcentral/"}}, {"type": "node", "id": 3964364782, "lat": 57.4807769, "lon": 13.3472766, "tags": {"amenity": "pharmacy", "healthcare": "pharmacy"}}, {"type": "node", "id": 9011773757, "lat": 57.531617, "lon": 13.3594233, "tags": {"addr:city": "Limmared", "addr:country": "SE", "addr:housenumber": "20A", "addr:postcode": "514 41", "addr:street": "S\u00f6dra v\u00e4gen", "amenity": "clinic", "name": "N\u00e4rh\u00e4lsan Tranemo v\u00e5rdcentral - Limmared", "operator": "V\u00e4stra G\u00f6talandsregionen", "phone": "+46 325 71100"}}, {"type": "node", "id": 9011778275, "lat": 57.604156, "lon": 13.5106891, "tags": {"addr:city": "Dalstorp", "addr:country": "SE", "addr:housenumber": "8", "addr:postcode": "514 60", "addr:street": "Nittorpsv\u00e4gen", "amenity": "clinic", "name": "N\u00e4rh\u00e4lsan Tranemo v\u00e5rdcentral - Dalstorp", "operator": "V\u00e4stra G\u00f6talandsregionen", "phone": "+46 321 60159"}}, {"type": "node", "id": 9011980897, "lat": 57.6030287, "lon": 13.2502761, "tags": {"addr:city": "L\u00e4nghem", "addr:country": "SE", "addr:housenumber": "4A", "addr:postcode": "514 43", "addr:street": "Radhusv\u00e4gen", "amenity": "clinic", "name": "N\u00e4rh\u00e4lsan Tranemo v\u00e5rdcentral - L\u00e4nghem", "operator": "V\u00e4stra G\u00f6talandsregionen", "phone": "+46 325 40 168"}}, {"type": "node", "id": 9025251783, "lat": 57.4808359, "lon": 13.3471951, "tags": {"addr:city": "Tranemo", "addr:country": "SE", "addr:housenumber": "42", "addr:postcode": "514 34", "addr:street": "Storgatan", "amenity": "clinic", "name": "N\u00e4rh\u00e4lsan Tranemo barnav\u00e5rdscentral", "operator": "V\u00e4stra G\u00f6talandsregionen", "phone": "+46 325 47 225;+46 325 47 230", "website": "https://www.narhalsan.se/hitta-mottagning/tranemo/narhalsan-tranemo-barnavardscentral/"}}, {"type": "node", "id": 9039099285, "lat": 57.4807999, "lon": 13.3471756, "tags": {"addr:city": "Tranemo", "addr:country": "SE", "addr:housenumber": "42", "addr:postcode": "514 34", "addr:street": "Storgatan", "amenity": "clinic", "contact:phone": "+46 325 47 225;+46 325 47 230", "healthcare": "clinic", "name": "N\u00e4rh\u00e4lsan Tranemo rehabmottagning", "network": "V\u00e4stra G\u00f6talandsregionen", "operator": "V\u00e4stra G\u00f6talandsregionen", "phone": "+46 10 435 84 00", "website": "https://www.narhalsan.se/hitta-mottagning/tranemo/narhalsan-tranemo-rehabmottagning/"}}, {"type": "node", "id": 10262367883, "lat": 57.6047492, "lon": 13.5110464, "tags": {"amenity": "clinic", "healthcare": "clinic", "name": "Traneh\u00e4lsan"}}, {"type": "node", "id": 11505958836, "lat": 57.4866102, "lon": 13.3552782, "tags": {"amenity": "clinic", "healthcare": "clinic", "name": "Traneh\u00e4lsan"}}]}