{"version": 0.6, "generator": "Overpass API 0.7.61.5 4133829e", "osm3s": {"timestamp_osm_base": "2024-03-05T13:45:59Z", "copyright": "The data included in this document is from www.openstreetmap.org. The data is made available under ODbL."}, "elements": [{"type": "node", "id": 1956220689, "lat": 32.9472762, "lon": 70.2780465, "tags": {"name": "\u0645\u0644\u0627\u06af\u0627\u0646", "name:en": "Mullagan", "name:ps": "\u0645\u0644\u0627\u06ab\u0627\u0646", "name:ur": "\u0645\u0644\u0627\u06af\u0627\u0646", "place": "village"}}, {"type": "node", "id": 1956220730, "lat": 32.9693856, "lon": 70.2771024, "tags": {"name": "\u0645\u06cc\u0631 \u0639\u0644\u06cc", "name:en": "Mir Ali", "name:ps": "\u0645\u064a\u0631 \u0639\u0644\u064a", "name:ur": "\u0645\u06cc\u0631 \u0639\u0644\u06cc", "place": "village"}}, {"type": "node", "id": 1956220750, "lat": 32.9756952, "lon": 70.2513533, "tags": {"name": "\u0639\u06cc\u0633\u0648\u0691\u06cc", "name:en": "Issori", "name:ps": "\u0639\u06cc\u0633\u0648\u0693\u064a", "name:ur": "\u0639\u06cc\u0633\u0648\u0691\u06cc", "place": "village"}}, {"type": "node", "id": 1956220910, "lat": 32.9746646, "lon": 70.2366172, "tags": {"place": "hamlet"}}, {"type": "node", "id": 1956220927, "lat": 32.9699977, "lon": 70.2292948, "tags": {"name": "\u0632\u06cc\u0631\u06a9\u06cc", "name:en": "Zerakki", "name:ur": "\u0632\u06cc\u0631\u06a9\u06cc", "place": "village"}}, {"type": "node", "id": 1956220970, "lat": 32.9878449, "lon": 70.1977091, "tags": {"place": "village"}}, {"type": "node", "id": 1956220989, "lat": 32.9539204, "lon": 70.2663307, "tags": {"name": "\u062d\u0633\u0648\u062e\u06cc\u0644", "name:en": "Hassu Khel", "name:ps": "\u062d\u0633\u0648\u062e\u06d0\u0644", "name:ur": "\u062d\u0633\u0648\u062e\u06cc\u0644", "place": "village"}}, {"type": "node", "id": 1956221212, "lat": 32.9741561, "lon": 70.1979236, "tags": {"name": "\u0639\u06cc\u062f\u06a9", "name:en": "Idak", "name:ur": "\u0639\u06cc\u062f\u06a9", "place": "village"}}, {"type": "node", "id": 1956225210, "lat": 32.9474743, "lon": 70.1473694, "tags": {"name": "\u062a\u067e\u06cc", "name:en": "Tappi", "name:ps": "\u062a\u067e\u06cd", "name:ur": "\u062a\u067e\u06cc", "place": "village"}}, {"type": "node", "id": 1956225213, "lat": 32.9541725, "lon": 70.1563816, "tags": {"name": "\u067e\u0644\u0648\u0644\u06cc", "name:en": "Palolai", "name:ps": "\u067e\u0644\u0648\u0644\u064a", "name:ur": "\u067e\u0644\u0648\u0644\u06cc", "place": "village"}}, {"type": "node", "id": 2052597083, "lat": 33.0018133, "lon": 70.0670776, "tags": {"name": "\u0645\u06cc\u0631\u0627\u0646 \u0634\u0627\u06c1", "name:ar": "\u0645\u064a\u0631\u0627\u0646 \u0634\u0627\u0647", "name:azb": "\u0645\u064a\u0631\u0627\u0646\u200c\u0634\u0627\u0647", "name:bn": "\u09ae\u09bf\u09b0\u09be\u09ae\u09b6\u09be\u09b9", "name:de": "Miranshah", "name:en": "Miran Shah", "name:fa": "\u0645\u06cc\u0631\u0627\u0646 \u0634\u0627\u0647", "name:fr": "Miranshah", "name:ps": "\u0645\u06cc\u0631\u0627\u0646 \u0634\u0627\u0647", "name:ru": "\u041c\u0438\u0440\u0430\u043d\u0448\u0430\u0445", "name:ur": "\u0645\u06cc\u0631\u0627\u0646 \u0634\u0627\u06c1", "place": "town", "population": "4361", "wikidata": "Q124385", "wikipedia": "ur:\u0645\u06cc\u0631\u0627\u0646 \u0634\u0627\u06c1"}}, {"type": "node", "id": 3041624457, "lat": 32.9626738, "lon": 70.2699167, "tags": {"name": "\u0645\u0648\u0633\u06a9\u06cc", "name:en": "Musakki", "place": "village"}}, {"type": "node", "id": 6242072314, "lat": 33.2657528, "lon": 70.1591912}, {"type": "node", "id": 6242072315, "lat": 33.2650982, "lon": 70.1595547}, {"type": "node", "id": 6242072316, "lat": 33.2644904, "lon": 70.1574579}, {"type": "node", "id": 6242072317, "lat": 33.2637307, "lon": 70.1562836}, {"type": "node", "id": 6242072318, "lat": 33.2629709, "lon": 70.154718}, {"type": "node", "id": 6242072319, "lat": 33.2635086, "lon": 70.1541588}, {"type": "node", "id": 6242072320, "lat": 33.2639411, "lon": 70.1540889}, {"type": "node", "id": 6242072321, "lat": 33.2641047, "lon": 70.155375}, {"type": "node", "id": 6242072322, "lat": 33.2644203, "lon": 70.1559202}, {"type": "node", "id": 6242072323, "lat": 33.2650281, "lon": 70.1564653}, {"type": "node", "id": 6242072324, "lat": 33.2653554, "lon": 70.1571363}, {"type": "node", "id": 6242072325, "lat": 33.2654372, "lon": 70.158017}, {"type": "node", "id": 6242072326, "lat": 33.2657995, "lon": 70.1584783}, {"type": "node", "id": 6242072681, "lat": 33.2614132, "lon": 70.1375249}, {"type": "node", "id": 6242072682, "lat": 33.2610918, "lon": 70.1367012}, {"type": "node", "id": 6242072683, "lat": 33.259699, "lon": 70.135969}, {"type": "node", "id": 6242072684, "lat": 33.2593317, "lon": 70.1367561}, {"type": "node", "id": 6242072685, "lat": 33.2605255, "lon": 70.1383851}, {"type": "node", "id": 6242072686, "lat": 33.2396007, "lon": 70.1488365}, {"type": "node", "id": 6242072687, "lat": 33.239861, "lon": 70.1474638}, {"type": "node", "id": 6242072688, "lat": 33.2393864, "lon": 70.146933}, {"type": "node", "id": 6242072689, "lat": 33.2384832, "lon": 70.147537}, {"type": "node", "id": 6242072690, "lat": 33.2382535, "lon": 70.1485254}, {"type": "node", "id": 6242072691, "lat": 33.23882, "lon": 70.1492575}, {"type": "node", "id": 7995727034, "lat": 33.1873958, "lon": 70.3853086}, {"type": "node", "id": 7995727035, "lat": 33.1885374, "lon": 70.3865043}, {"type": "node", "id": 7995727036, "lat": 33.1888898, "lon": 70.3886263}, {"type": "node", "id": 7995727037, "lat": 33.1871844, "lon": 70.3923314}, {"type": "node", "id": 7995727038, "lat": 33.1844078, "lon": 70.3946386}, {"type": "node", "id": 7995727039, "lat": 33.1815325, "lon": 70.3996572}, {"type": "node", "id": 7995727040, "lat": 33.1762608, "lon": 70.4082968}, {"type": "node", "id": 7995727041, "lat": 33.1702275, "lon": 70.4014256}, {"type": "node", "id": 7995727042, "lat": 33.17175, "lon": 70.3997415}, {"type": "node", "id": 7995727043, "lat": 33.1734133, "lon": 70.3961206}, {"type": "node", "id": 7995727044, "lat": 33.1739913, "lon": 70.3932576}, {"type": "node", "id": 7995727045, "lat": 33.174682, "lon": 70.3913882}, {"type": "node", "id": 7995727046, "lat": 33.176444, "lon": 70.3881884}, {"type": "node", "id": 7995727047, "lat": 33.176881, "lon": 70.3846518}, {"type": "node", "id": 7995727048, "lat": 33.1791786, "lon": 70.3782353}, {"type": "node", "id": 7995727049, "lat": 33.1837454, "lon": 70.3708421}, {"type": "node", "id": 7995727050, "lat": 33.1867546, "lon": 70.3668261}, {"type": "node", "id": 7995727051, "lat": 33.1903837, "lon": 70.3654529}, {"type": "node", "id": 7995727052, "lat": 33.1950574, "lon": 70.3695804}, {"type": "node", "id": 7995727053, "lat": 33.1929026, "lon": 70.3798996}, {"type": "node", "id": 9554627623, "lat": 33.1606092, "lon": 70.418765, "tags": {"name": "Datta Khel", "place": "village", "population": "500"}}, {"type": "node", "id": 9879139773, "lat": 33.1503119, "lon": 69.9985903, "tags": {"fixme": "name", "place": "village"}}, {"type": "node", "id": 9879139775, "lat": 33.1355567, "lon": 69.9374467, "tags": {"fixme": "name", "place": "village"}}, {"type": "node", "id": 11253962812, "lat": 33.1331043, "lon": 70.0346171, "tags": {"name": "\u063a\u0644\u0627\u0645 \u062e\u0627\u0646", "name:en": "Ghulam Khan", "name:ps": "\u063a\u0644\u0627\u0645 \u062e\u0627\u0646", "name:ur": "\u063a\u0644\u0627\u0645 \u062e\u0627\u0646", "place": "village"}}, {"type": "node", "id": 11253962813, "lat": 33.1444598, "lon": 70.0301969, "tags": {"name": "\u0644\u0627\u0646\u0688\u06d2", "name:en": "Lande", "name:ps": "\u0644\u0646\u0689\u06cd", "name:ur": "\u0644\u0627\u0646\u0688\u06d2", "place": "village"}}, {"type": "node", "id": 11254699394, "lat": 32.9651671, "lon": 70.2539105, "tags": {"name": "\u06c1\u0631\u0645\u0632", "name:en": "Hurmaz", "name:ps": "\u0647\u0631\u0645\u0632", "place": "village"}}, {"type": "node", "id": 11254699395, "lat": 32.9842292, "lon": 70.002218, "tags": {"name": "\u0639\u0644\u06cc \u062e\u06cc\u0644", "name:en": "Ali Khel", "name:ps": "\u0639\u0644\u064a \u062e\u06d0\u0644", "name:ur": "\u0639\u0644\u06cc \u062e\u06cc\u0644", "place": "village"}}, {"type": "node", "id": 11254699396, "lat": 32.9782173, "lon": 69.9559552, "tags": {"name": "\u0627\u0631\u0645\u0691", "name:en": "Urmar", "name:ps": "\u0627\u0631\u0645\u0693", "name:ur": "\u0627\u0631\u0645\u0691", "place": "village"}}, {"type": "node", "id": 11254699397, "lat": 32.9778393, "lon": 69.9504835, "tags": {"name": "\u06a9\u0691\u0648\u06cc \u06a9\u0644\u06d2", "name:en": "Kurvi Kalay", "name:ps": "\u06a9\u0693\u0648\u064a \u06a9\u0644\u06cd", "name:ur": "\u06a9\u0691\u0648\u06cc \u06a9\u0644\u06d2", "place": "village"}}, {"type": "node", "id": 11254699398, "lat": 32.9786133, "lon": 69.9460418, "tags": {"name": "\u0646\u0648\u06d2\u06a9\u0644\u06d2", "name:en": "Nawe Kalay", "name:ps": "\u0646\u0648\u06d0 \u06a9\u06cc\u0644\u064a", "name:ur": "\u0646\u0648\u06d2\u06a9\u0644\u06d2", "place": "village"}}, {"type": "node", "id": 11254699399, "lat": 32.9751752, "lon": 69.9475653, "tags": {"name": "\u0631\u0627\u063a\u0632\u0627\u0626\u06cc \u06a9\u0644\u06d2", "name:en": "Raghzai Kalay", "name:ps": "\u0631\u0627\u063a\u0632\u064a \u06a9\u06cc\u0644\u064a", "name:ur": "\u0631\u0627\u063a\u0632\u0627\u0626\u06cc \u06a9\u0644\u06d2", "place": "village"}}, {"type": "node", "id": 11254699400, "lat": 32.9594949, "lon": 69.9295194, "tags": {"name": "\u0628\u0648\u06cc\u0627\u06a9\u0644\u06d2", "name:en": "Boya Kalay", "name:ps": "\u0628\u0648\u06cc\u0627\u06a9\u06cc\u0644\u064a", "name:ur": "\u0628\u0648\u06cc\u0627\u06a9\u0644\u06d2", "place": "village"}}, {"type": "node", "id": 11254699403, "lat": 32.9767458, "lon": 70.039963, "tags": {"name": "\u067e\u0627\u0646\u06a9 \u0632\u0626\u06cc", "name:en": "Panakzai", "name:ps": "\u067e\u0646\u06a9\u0632\u064a", "name:ur": "\u067e\u0627\u0646\u06a9 \u0632\u0626\u06cc", "place": "village"}}, {"type": "node", "id": 11254699404, "lat": 32.9879055, "lon": 70.0504558, "tags": {"name": "\u062f\u0627\u0646\u062f\u06d2 \u062f\u0631\u067e\u06c1 \u062e\u06cc\u0644", "name:en": "Dande Darpa Khel", "name:ps": "\u062f\u0646\u062f\u064a \u062f\u0631\u067e\u06d0 \u062e\u06d0\u0644", "name:ur": "\u062f\u0627\u0646\u062f\u06d2 \u062f\u0631\u067e\u06c1 \u062e\u06cc\u0644", "place": "village"}}, {"type": "node", "id": 11254699405, "lat": 32.9852237, "lon": 70.0636522, "tags": {"name": "\u0645\u06cc\u0631\u0627\u0646\u0634\u0627\u06c1 \u06a9\u0644\u06d2", "name:en": "Miran Shah Kali", "name:ps": "\u0645\u06cc\u0631\u0627\u0646\u0634\u0627\u0647 \u06a9\u064a\u0644\u064a", "name:ur": "\u0645\u06cc\u0631\u0627\u0646\u0634\u0627\u06c1 \u06a9\u0644\u06d2", "place": "village"}}, {"type": "node", "id": 11254699406, "lat": 33.0366932, "lon": 70.0820202, "tags": {"name": "\u0679\u0648\u0644 \u062e\u06cc\u0644", "name:en": "Tol Khel", "name:ps": "\u067c\u0648\u0644 \u062e\u06d0\u0644", "name:ur": "\u0679\u0648\u0644 \u062e\u06cc\u0644", "place": "village"}}, {"type": "node", "id": 11254699407, "lat": 32.9702002, "lon": 70.0669538, "tags": {"name": "\u0642\u0637\u0628 \u062e\u06cc\u0644", "name:en": "Qutub Khel", "name:ps": "\u0642\u0637\u0628 \u062e\u06d0\u0644", "name:ur": "\u0642\u0637\u0628 \u062e\u06cc\u0644", "place": "village"}}, {"type": "node", "id": 11254699408, "lat": 32.9577419, "lon": 70.0697218, "tags": {"name": "\u0646\u063a\u0631", "name:en": "Naghar", "name:ps": "\u0646\u063a\u0631", "name:ur": "\u0646\u063a\u0631", "place": "village"}}, {"type": "node", "id": 11254699409, "lat": 32.9701158, "lon": 70.0830416, "tags": {"name": "\u0686\u0634\u0645\u06d2\u06a9\u0633\u06a9\u0627\u0626\u06cc", "name:en": "Chashmai Kaskai", "name:ps": "\u0686\u0634\u0645\u064a \u06a9\u0633\u06a9\u064a", "name:ur": "\u0686\u0634\u0645\u06d2\u06a9\u0633\u06a9\u0627\u0626\u06cc", "place": "village"}}, {"type": "node", "id": 11254699410, "lat": 32.9637789, "lon": 70.0832347, "tags": {"name": "\u0628\u06cc\u0631\u0627\u0626\u06cc \u06a9\u0648\u0679", "name:en": "Berai Kot", "name:ps": "\u0628\u0631\u064a \u06a9\u0648\u067c", "name:ur": "\u0628\u06cc\u0631\u0627\u0626\u06cc \u06a9\u0648\u0679", "place": "village"}}, {"type": "node", "id": 11254699411, "lat": 32.9482406, "lon": 70.0892428, "tags": {"name": "\u0679\u063a\u0691\u06cc", "name:en": "Tughri", "name:ps": "\u067c\u063a\u0631\u0693\u064a", "name:ur": "\u0679\u063a\u0691\u06cc", "place": "village"}}, {"type": "node", "id": 11254699412, "lat": 32.931289, "lon": 70.1329313, "tags": {"name": "\u0633\u067e\u0644\u06af\u0627", "name:en": "Spalga", "name:ps": "\u0633\u067e\u0644\u06ab\u0627", "name:ur": "\u0633\u067e\u0644\u06af\u0627", "place": "village"}}, {"type": "node", "id": 11254699413, "lat": 32.9408157, "lon": 70.1293693, "tags": {"name": "\u0631\u0627\u062c\u06cc \u062e\u06cc\u0644", "name:en": "Raji Khel", "name:ps": "\u0631\u0627\u062c\u06cc\u062e\u06d0\u0644", "name:ur": "\u0631\u0627\u062c\u06cc \u062e\u06cc\u0644", "place": "village"}}, {"type": "node", "id": 11254699414, "lat": 32.959793, "lon": 70.1553566, "tags": {"name": "\u063a\u0646\u0688\u06cc \u06a9\u0644\u06c1", "name:en": "Ghundi Kala", "name:ps": "\u063a\u0646\u0689\u064a \u06a9\u0644\u0627", "name:ur": "\u063a\u0646\u0688\u06cc \u06a9\u0644\u06c1", "place": "village"}}, {"type": "node", "id": 11254699415, "lat": 32.9574709, "lon": 70.171134, "tags": {"name": "\u0645\u0628\u0627\u0631\u06a9 \u0634\u0627\u06c1\u06cc", "name:en": "Mubarak Shahi", "name:ps": "\u0645\u0628\u0627\u0631\u06a9 \u0634\u0627\u0647\u064a", "name:ur": "\u0645\u0628\u0627\u0631\u06a9 \u0634\u0627\u06c1\u06cc", "place": "village"}}, {"type": "node", "id": 11254699416, "lat": 32.9620079, "lon": 70.1719494, "tags": {"name": "\u067e\u06cc\u0631\u0627\u0646\u0648\u06a9\u0644\u06d2", "name:en": "Pirano Kili", "name:ps": "\u067e\u06cc\u0631\u0627\u0646\u0648\u06a9\u06cc\u0644\u064a", "name:ur": "\u067e\u06cc\u0631\u0627\u0646\u0648\u06a9\u0644\u06d2", "place": "village"}}, {"type": "node", "id": 11254699417, "lat": 32.9654285, "lon": 70.182292, "tags": {"name": "\u062d\u06a9\u06cc\u0645 \u062e\u06cc\u0644", "name:en": "Hakim Khel", "name:ps": "\u062d\u06a9\u064a\u0645 \u062e\u06d0\u0644", "name:ur": "\u062d\u06a9\u06cc\u0645 \u062e\u06cc\u0644", "place": "village"}}, {"type": "node", "id": 11254699418, "lat": 32.9889733, "lon": 70.1675077, "tags": {"name": "\u0645\u0631\u0633\u06cc \u062e\u06cc\u0644", "name:en": "Marsi Khel", "name:ps": "\u0645\u0631\u0633\u064a \u062e\u06d0\u0644", "name:ur": "\u0645\u0631\u0633\u06cc \u062e\u06cc\u0644", "place": "village"}}, {"type": "node", "id": 11254699419, "lat": 32.9481912, "lon": 70.1728691, "tags": {"name": "\u0628\u0627\u0631\u0646\u0627\u0648\u0646\u06c1", "name:en": "Bar Navana", "name:ps": "\u0628\u0631\u0646\u0627\u0648\u0646\u0627", "name:ur": "\u0628\u0627\u0631\u0646\u0627\u0648\u0646\u06c1", "place": "village"}}, {"type": "node", "id": 11254699420, "lat": 32.9562038, "lon": 70.1864518, "tags": {"name": "\u0633\u06cc\u0645\u0627\u0646", "name:en": "Siman", "name:ps": "\u0633\u06cc\u0645\u0627\u0646", "name:ur": "\u0633\u06cc\u0645\u0627\u0646", "place": "village"}}, {"type": "node", "id": 11254699421, "lat": 32.9579502, "lon": 70.1926531, "tags": {"name": "\u062e\u062f\u0631\u06cc", "name:en": "Khadri", "name:ur": "\u062e\u062f\u0631\u06cc", "place": "village"}}, {"type": "node", "id": 11254699422, "lat": 32.959601, "lon": 70.2141821, "tags": {"name": "\u0644\u0627\u0631\u0646\u0627\u0648\u0646\u06c1", "name:en": "Lar Nawana", "name:ps": "\u0644\u0631\u0646\u0627\u0648\u0646\u0627", "name:ur": "\u0644\u0627\u0631\u0646\u0627\u0648\u0646\u06c1", "place": "village"}}, {"type": "node", "id": 11254699423, "lat": 32.9609153, "lon": 70.2330649, "tags": {"name": "\u0648\u0648\u0632\u06cc", "name:en": "Wuzi", "name:ps": "\u0648\u0648\u0632\u064a", "name:ur": "\u0648\u0648\u0632\u06cc", "place": "village"}}, {"type": "node", "id": 11254699424, "lat": 32.9575485, "lon": 70.2402747, "tags": {"name": "\u0645\u062d\u0645\u062f\u06cc", "name:en": "Muhammadi", "name:ur": "\u0645\u062d\u0645\u062f\u06cc", "place": "village"}}, {"type": "node", "id": 11254699425, "lat": 32.9543796, "lon": 70.2475703, "tags": {"name": "\u062f\u0648\u0644\u062a \u062e\u06cc\u0644", "name:en": "Daulat Khel", "name:ps": "\u062f\u0648\u0644\u062a \u062e\u06d0\u0644", "name:ur": "\u062f\u0648\u0644\u062a \u062e\u06cc\u0644", "place": "village"}}, {"type": "node", "id": 11254699426, "lat": 32.9413069, "lon": 70.2464974, "tags": {"name": "\u062d\u0648\u0634\u062d\u0627\u0644\u06cc \u0648\u0632\u06cc\u0631", "name:en": "Khushali Wazir", "name:ur": "\u062d\u0648\u0634\u062d\u0627\u0644\u06cc \u0648\u0632\u06cc\u0631", "place": "village"}}, {"type": "node", "id": 11254699427, "lat": 32.9379574, "lon": 70.2678907, "tags": {"name": "\u0639\u0645\u0631\u06a9\u06cc \u06a9\u0644\u06c1", "name:en": "Umarki Kala", "name:ps": "\u0639\u0645\u0631\u06a9\u064a \u06a9\u064a\u0644\u064a", "name:ur": "\u0639\u0645\u0631\u06a9\u06cc \u06a9\u0644\u06c1", "place": "village"}}, {"type": "node", "id": 11254699428, "lat": 32.9343916, "lon": 70.2767742, "tags": {"name": "\u0628\u0691\u0648\u062e\u06cc\u0644", "name:en": "Baro Khel", "name:ps": "\u0628\u0627\u0693\u0648\u062e\u06d0\u0644", "name:ur": "\u0628\u0691\u0648\u062e\u06cc\u0644", "place": "village"}}, {"type": "node", "id": 11254699429, "lat": 32.9284483, "lon": 70.2686632, "tags": {"name": "\u0646\u062a\u0627\u0633\u06cc", "name:en": "Nitasi", "name:ur": "\u0646\u062a\u0627\u0633\u06cc", "place": "village"}}, {"type": "node", "id": 11254699430, "lat": 32.9318219, "lon": 70.2932284, "tags": {"name": "\u06a9\u0637\u06cc\u0631\u06c1", "name:en": "Katira", "name:ur": "\u06a9\u0637\u06cc\u0631\u06c1", "place": "village"}}, {"type": "node", "id": 11254699431, "lat": 32.9442561, "lon": 70.29554, "tags": {"name": "\u0639\u0644\u06cc \u062e\u06cc\u0644", "name:en": "Ali Khel", "name:ps": "\u0639\u0644\u064a \u062e\u06d0\u0644", "name:ur": "\u0639\u0644\u06cc \u062e\u06cc\u0644", "place": "village"}}, {"type": "node", "id": 11254699432, "lat": 32.9547199, "lon": 70.2994158, "tags": {"name": "\u0627\u06cc\u067e\u06cc", "name:en": "Ipi", "name:ur": "\u0627\u06cc\u067e\u06cc", "place": "village"}}, {"type": "node", "id": 11254699433, "lat": 32.9777016, "lon": 70.2281141, "tags": {"name": "\u062c\u0646\u06af\u0644 \u062e\u06cc\u0644", "name:en": "Zangal Khel", "name:ps": "\u062c\u0646\u06ab\u0644 \u062e\u06d0\u0644", "name:ur": "\u062c\u0646\u06af\u0644 \u062e\u06cc\u0644", "place": "village"}}, {"type": "node", "id": 11254699434, "lat": 32.9716532, "lon": 70.2135228, "tags": {"name": "\u062e\u062f\u06cc", "name:en": "Khaddi", "name:ur": "\u062e\u062f\u06cc", "place": "village"}}, {"type": "node", "id": 11254699435, "lat": 32.969871, "lon": 70.1944684, "tags": {"name": "\u0628\u0631\u0648\u0645\u06cc \u062e\u06cc\u0644", "name:en": "Bromi Khel", "name:ps": "\u0628\u0631\u0648\u0645\u064a\u062e\u06d0\u0644", "name:ur": "\u0628\u0631\u0648\u0645\u06cc \u062e\u06cc\u0644", "place": "village"}}, {"type": "node", "id": 11254699436, "lat": 33.0281243, "lon": 70.2444709, "tags": {"name": "\u0645\u0686\u06cc \u062e\u06cc\u0644", "name:en": "Machi Khel", "name:ps": "\u0645\u0686\u064a \u062e\u06d0\u0644", "name:ur": "\u0645\u0686\u06cc \u062e\u06cc\u0644", "place": "village"}}, {"type": "node", "id": 11254699437, "lat": 33.0524881, "lon": 70.321064, "tags": {"name": "\u0645\u06cc\u0631\u062e\u0627\u0646 \u062e\u06cc\u0644", "name:en": "Mir Khan Khel", "name:ps": "\u0645\u06cc\u0631\u062e\u0627\u0646 \u062e\u06d0\u0644", "name:ur": "\u0645\u06cc\u0631\u062e\u0627\u0646 \u062e\u06cc\u0644", "place": "village"}}, {"type": "node", "id": 11254699438, "lat": 33.0667132, "lon": 70.3357839, "tags": {"name": "\u0628\u0648\u0628\u0644\u06cc", "name:en": "Bobali", "name:ps": "\u0628\u0648\u0628\u0644\u064a", "name:ur": "\u0628\u0648\u0628\u0644\u06cc", "place": "village"}}, {"type": "node", "id": 11254699559, "lat": 33.1794341, "lon": 70.3912867, "tags": {"name": "\u0633\u067e\u06cc\u0646 \u0648\u0627\u0645", "name:en": "Spinwam", "name:ps": "\u0633\u067e\u06cc\u0646 \u0648\u0627\u0645", "name:ur": "\u0633\u067e\u06cc\u0646 \u0648\u0627\u0645", "place": "village"}}, {"type": "way", "id": 666688316, "nodes": [6242072314, 6242072315, 6242072316, 6242072317, 6242072318, 6242072319, 6242072320, 6242072321, 6242072322, 6242072323, 6242072324, 6242072325, 6242072326, 6242072314], "tags": {"place": "hamlet"}}, {"type": "way", "id": 666688329, "nodes": [6242072681, 6242072682, 6242072683, 6242072684, 6242072685, 6242072681], "tags": {"place": "hamlet"}}, {"type": "way", "id": 666688330, "nodes": [6242072686, 6242072687, 6242072688, 6242072689, 6242072690, 6242072691, 6242072686], "tags": {"place": "hamlet"}}, {"type": "way", "id": 857615160, "nodes": [7995727034, 7995727035, 7995727036, 7995727037, 7995727038, 7995727039, 7995727040, 7995727041, 7995727042, 7995727043, 7995727044, 7995727045, 7995727046, 7995727047, 7995727048, 7995727049, 7995727050, 7995727051, 7995727052, 7995727053, 7995727034], "tags": {"place": "town"}}]}