{"version": 0.6, "generator": "Overpass API 0.7.61.5 4133829e", "osm3s": {"timestamp_osm_base": "2024-03-06T10:46:01Z", "copyright": "The data included in this document is from www.openstreetmap.org. The data is made available under ODbL."}, "elements": [{"type": "node", "id": 4314486963, "lat": 32.6510726, "lon": 43.975491}, {"type": "node", "id": 4314486964, "lat": 32.6516974, "lon": 43.9761586}, {"type": "node", "id": 4314486965, "lat": 32.6513374, "lon": 43.9766343}, {"type": "node", "id": 4314486966, "lat": 32.6507118, "lon": 43.9759662}, {"type": "node", "id": 4374625291, "lat": 32.6021278, "lon": 44.0261144, "tags": {"addr:street": "\u0634\u0627\u0631\u0639 \u063a\u0631\u0641\u0629 \u0627\u0644\u062a\u062c\u0627\u0631\u0629", "amenity": "school", "name": "\u0645\u062f\u0627\u0631\u0633 \u0627\u0644\u062a\u0645\u064a\u0632 \u0627\u0644\u062f\u0627\u0626\u0645 \u0627\u0644\u0623\u0647\u0644\u064a\u0647", "name:ar": "\u0645\u062f\u0627\u0631\u0633 \u0627\u0644\u062a\u0645\u064a\u0632 \u0627\u0644\u062f\u0627\u0626\u0645 \u0627\u0644\u0623\u0647\u0644\u064a\u0647", "name:en": "Altamauz Aldaeem", "office": "government", "phone": "0770930866"}}, {"type": "node", "id": 4374662009, "lat": 32.5927891, "lon": 44.0181329, "tags": {"addr:street": "\u0634\u0627\u0631\u0639 \u062d\u064a \u0627\u0644\u062d\u0633\u064a\u0646", "amenity": "school", "name": "\u0645\u062f\u0631\u0633\u0629 \u0627\u0644\u062d\u064a\u062f\u0631\u064a\u0627\u062a \u0644\u0644\u0628\u0646\u0627\u062a", "name:ar": "\u0645\u062f\u0631\u0633\u0629 \u0627\u0644\u062d\u064a\u062f\u0631\u064a\u0627\u062a \u0644\u0644\u0628\u0646\u0627\u062a"}}, {"type": "node", "id": 4485215192, "lat": 32.5998512, "lon": 44.0195926, "tags": {"amenity": "school", "name": "\u0645\u062f\u0631\u0633\u0647 \u0627\u0644\u0627\u0639\u062a\u0645\u0627\u062f", "name:ar": "\u0645\u062f\u0631\u0633\u0647 \u0627\u0644\u0627\u0639\u062a\u0645\u0627\u062f"}}, {"type": "node", "id": 4487183591, "lat": 32.616568, "lon": 44.01404, "tags": {"amenity": "school", "name": "\u062b\u0627\u0646\u0648\u064a\u0647 \u0627\u0644\u0630\u0631\u0649 \u0644\u0644\u0645\u062a\u0645\u064a\u0632\u064a\u0646", "name:ar": "\u062b\u0627\u0646\u0648\u064a\u0647 \u0627\u0644\u0630\u0631\u0649 \u0644\u0644\u0645\u062a\u0645\u064a\u0632\u064a\u0646"}}, {"type": "node", "id": 4487192489, "lat": 32.6044733, "lon": 44.0326531, "tags": {"addr:street": "\u0634\u0627\u0631\u0639 \u0627\u0644\u0642\u0628\u0644\u0647 (\u0627\u0644\u0627\u0645\u0627\u0645 \u0639\u0628\u0627\u0633)", "amenity": "school", "name": "\u062b\u0627\u0646\u0648\u064a\u0647 \u0627\u0644\u0639\u0631\u0627\u0642", "name:ar": "\u062b\u0627\u0646\u0648\u064a\u0647 \u0627\u0644\u0639\u0631\u0627\u0642"}}, {"type": "node", "id": 4500044889, "lat": 32.621583, "lon": 44.032778, "tags": {"amenity": "school", "name": "\u0627\u0639\u062f\u0627\u062f\u064a\u0629 \u0627\u0644\u0633\u0645\u0627", "name:ar": "\u0627\u0639\u062f\u0627\u062f\u064a\u0629 \u0627\u0644\u0633\u0645\u0627", "name:en": "Al-sama"}}, {"type": "node", "id": 4501896492, "lat": 32.6195704, "lon": 44.0371306, "tags": {"amenity": "school", "name": "\u062c\u0646\u0629 \u0627\u0644\u0632\u0647\u0631\u0627\u0621", "name:ar": "\u062c\u0646\u0629 \u0627\u0644\u0632\u0647\u0631\u0627\u0621", "name:en": "janat al zahraa", "office": "government"}}, {"type": "node", "id": 4501896493, "lat": 32.621692, "lon": 44.033016, "tags": {"amenity": "school", "name": "\u0645\u0639\u0647\u062f \u062a\u0639\u0644\u064a\u0645 \u0627\u0644\u0642\u0631\u0622\u0646 \u0644\u0644\u0646\u0633\u0627\u0621", "name:ar": "\u0645\u0639\u0647\u062f \u062a\u0639\u0644\u064a\u0645 \u0627\u0644\u0642\u0631\u0622\u0646 \u0644\u0644\u0646\u0633\u0627\u0621", "name:en": "Quran institute for women"}}, {"type": "node", "id": 4501983891, "lat": 32.620881, "lon": 44.033032, "tags": {"amenity": "school", "name": "\u0627\u0644\u0642\u0635\u0631 \u0627\u0644\u0627\u062e\u0636\u0631", "name:ar": "\u0627\u0644\u0642\u0635\u0631 \u0627\u0644\u0627\u062e\u0636\u0631", "name:en": "Alqasr Alakhdhar"}}, {"type": "node", "id": 4502049491, "lat": 32.614722, "lon": 43.959083, "tags": {"amenity": "school", "name": "\u0627\u0628\u062a\u062f\u0627\u0626\u064a\u0629 \u0627\u0644\u0634\u0627\u0643\u0631\u064a\u0646", "name:ar": "\u0627\u0628\u062a\u062f\u0627\u0626\u064a\u0629 \u0627\u0644\u0634\u0627\u0643\u0631\u064a\u0646", "name:en": "Al-shakreen"}}, {"type": "node", "id": 4502131590, "lat": 32.6071172, "lon": 43.9955812, "tags": {"amenity": "school", "name": "\u0627\u0628\u062a\u062f\u0627\u0626\u064a\u0629 \u0627\u0644\u0628\u0637\u062d\u0627\u0621", "name:ar": "\u0627\u0628\u062a\u062f\u0627\u0626\u064a\u0629 \u0627\u0644\u0628\u0637\u062d\u0627\u0621", "name:en": "Al-batthaa"}}, {"type": "node", "id": 4502140389, "lat": 32.62275, "lon": 43.964194, "tags": {"amenity": "school", "name": "\u0627\u0628\u062a\u062f\u0627\u0626\u064a\u0629 \u0627\u0644\u0635\u062f\u0641", "name:ar": "\u0627\u0628\u062a\u062f\u0627\u0626\u064a\u0629 \u0627\u0644\u0635\u062f\u0641", "name:en": "Al-sadaf"}}, {"type": "node", "id": 4502140989, "lat": 32.62325, "lon": 43.964861, "tags": {"amenity": "school", "name": "\u0627\u0644\u0633\u0644\u0627\u0645\u0647", "name:ar": "\u0627\u0644\u0633\u0644\u0627\u0645\u0647", "name:en": "al salaama"}}, {"type": "node", "id": 4502163791, "lat": 32.634972, "lon": 43.975861, "tags": {"amenity": "school", "name": "\u0646\u0633\u064a\u0628\u0629 \u0627\u0644\u0645\u0627\u0632\u0646\u064a\u0629", "name:ar": "\u0646\u0633\u064a\u0628\u0629 \u0627\u0644\u0645\u0627\u0632\u0646\u064a\u0629", "name:en": "Naseeba Al-mazinia"}}, {"type": "node", "id": 4502208590, "lat": 32.5995128, "lon": 44.0121643, "tags": {"amenity": "school", "name": "\u0627\u0628\u062a\u062f\u0627\u0626\u064a\u0629 \u062e\u064a\u0631 \u0627\u0644\u0628\u0631\u064a\u0629", "name:ar": "\u0627\u0628\u062a\u062f\u0627\u0626\u064a\u0629 \u062e\u064a\u0631 \u0627\u0644\u0628\u0631\u064a\u0629", "name:en": "Khair Al-bareea"}}, {"type": "node", "id": 4502218890, "lat": 32.602028, "lon": 43.996361, "tags": {"amenity": "school", "name": "\u0627\u0628\u062a\u062f\u0627\u0626\u064a\u0629 \u0627\u0644\u0639\u0642\u064a\u0642", "name:ar": "\u0627\u0628\u062a\u062f\u0627\u0626\u064a\u0629 \u0627\u0644\u0639\u0642\u064a\u0642", "name:en": "Al-aqeeq"}}, {"type": "node", "id": 4502225090, "lat": 32.6003647, "lon": 44.0109163, "tags": {"amenity": "school", "name": "\u0627\u0628\u062a\u062f\u0627\u0626\u064a\u0629 \u0627\u0644\u0648\u062f\u0627\u062f", "name:ar": "\u0627\u0628\u062a\u062f\u0627\u0626\u064a\u0629 \u0627\u0644\u0648\u062f\u0627\u062f", "name:en": "Al-wedad"}}, {"type": "node", "id": 4502225091, "lat": 32.5929627, "lon": 43.9974112, "tags": {"amenity": "school", "name": "\u0627\u0628\u062a\u062f\u0627\u0626\u064a\u0629 \u0627\u0644\u0645\u064a\u0627\u0631", "name:ar": "\u0627\u0628\u062a\u062f\u0627\u0626\u064a\u0629 \u0627\u0644\u0645\u064a\u0627\u0631", "name:en": "Al-mayyar"}}, {"type": "node", "id": 4502225489, "lat": 32.590278, "lon": 44.032583, "tags": {"amenity": "school", "name": "\u0645\u062a\u0648\u0633\u0637\u0629 \u0627\u0644\u0648\u0635\u0627\u0644", "name:ar": "\u0645\u062a\u0648\u0633\u0637\u0629 \u0627\u0644\u0648\u0635\u0627\u0644", "name:en": "Al-wesaal"}}, {"type": "node", "id": 4502247591, "lat": 32.582361, "lon": 44.015028, "tags": {"amenity": "school", "name": "\u0627\u0628\u062a\u062f\u0627\u0626\u064a\u0629 \u0642\u0631\u0637\u0628\u0629", "name:ar": "\u0627\u0628\u062a\u062f\u0627\u0626\u064a\u0629 \u0642\u0631\u0637\u0628\u0629", "name:en": "Qurtouba"}}, {"type": "node", "id": 4502267891, "lat": 32.615417, "lon": 43.977, "tags": {"amenity": "school", "name": "\u0627\u0628\u062a\u062f\u0627\u0626\u064a\u0629 \u0627\u0644\u062a\u064a\u062c\u0627\u0646", "name:ar": "\u0627\u0628\u062a\u062f\u0627\u0626\u064a\u0629 \u0627\u0644\u062a\u064a\u062c\u0627\u0646", "name:en": "Al-teejan"}}, {"type": "node", "id": 4502281589, "lat": 32.614389, "lon": 44.016528, "tags": {"amenity": "school", "name": "\u0627\u0628\u062a\u062f\u0627\u0626\u064a\u0629 \u0627\u0644\u0628\u0634\u0627\u0626\u0631", "name:ar": "\u0627\u0628\u062a\u062f\u0627\u0626\u064a\u0629 \u0627\u0644\u0628\u0634\u0627\u0626\u0631", "name:en": "Al-bashaa'er"}}, {"type": "node", "id": 4502281590, "lat": 32.621944, "lon": 44.034306, "tags": {"amenity": "school", "name": "\u0627\u0628\u062a\u062f\u0627\u0626\u064a\u0629 \u0627\u0644\u0644\u0627\u0630\u0642\u064a\u0629", "name:ar": "\u0627\u0628\u062a\u062f\u0627\u0626\u064a\u0629 \u0627\u0644\u0644\u0627\u0630\u0642\u064a\u0629", "name:en": "Al-latheeqiya"}}, {"type": "node", "id": 4502281592, "lat": 32.6289064, "lon": 43.9694569, "tags": {"amenity": "school", "name": "\u0627\u0628\u062a\u062f\u0627\u0626\u064a\u0629 \u0627\u0644\u0646\u062c\u0627\u0629", "name:ar": "\u0627\u0628\u062a\u062f\u0627\u0626\u064a\u0629 \u0627\u0644\u0646\u062c\u0627\u0629", "name:en": "Al-najat"}}, {"type": "node", "id": 4502281593, "lat": 32.6154214, "lon": 43.9594855, "tags": {"amenity": "school", "name": "\u0627\u0628\u062a\u062f\u0627\u0626\u064a\u0629 \u0627\u0644\u0628\u062d\u0631\u064a\u0646", "name:ar": "\u0627\u0628\u062a\u062f\u0627\u0626\u064a\u0629 \u0627\u0644\u0628\u062d\u0631\u064a\u0646", "name:en": "Al-bahreen"}}, {"type": "node", "id": 4502281889, "lat": 32.607944, "lon": 43.994083, "tags": {"amenity": "school", "name": "\u0627\u0628\u062a\u062f\u0627\u0626\u064a\u0629 \u0627\u0644\u062e\u0644\u0641\u0627\u0621", "name:ar": "\u0627\u0628\u062a\u062f\u0627\u0626\u064a\u0629 \u0627\u0644\u062e\u0644\u0641\u0627\u0621", "name:en": "Al-khoulafaa"}}, {"type": "node", "id": 4502281989, "lat": 32.623556, "lon": 43.992, "tags": {"amenity": "school", "name": "\u0627\u0644\u0627\u0645\u0627\u0645\u0629", "name:ar": "\u0627\u0644\u0627\u0645\u0627\u0645\u0629", "name:en": "Al-imama"}}, {"type": "node", "id": 4502281991, "lat": 32.630861, "lon": 43.987528, "tags": {"amenity": "school", "name": "\u0645\u062a\u0648\u0633\u0637\u0629 \u0627\u0644\u0623\u0633\u0628\u0627\u0637", "name:ar": "\u0645\u062a\u0648\u0633\u0637\u0629 \u0627\u0644\u0623\u0633\u0628\u0627\u0637", "name:en": "Al-asbaat"}}, {"type": "node", "id": 4502281992, "lat": 32.616333, "lon": 44.00375, "tags": {"amenity": "school", "name": "\u0645\u062a\u0648\u0633\u0637\u0629 \u0627\u0644\u0627\u0642\u062f\u0627\u0645", "name:ar": "\u0645\u062a\u0648\u0633\u0637\u0629 \u0627\u0644\u0627\u0642\u062f\u0627\u0645", "name:en": "Al-aeqdam"}}, {"type": "node", "id": 4502289490, "lat": 32.607194, "lon": 44.011667, "tags": {"amenity": "school", "name": "\u0627\u0644\u0642\u0628\u0633 \u0645\u0633\u0631\u0639", "name:ar": "\u0627\u0644\u0642\u0628\u0633 \u0645\u0633\u0631\u0639", "name:en": "Al-qabas"}}, {"type": "node", "id": 4502293990, "lat": 32.586417, "lon": 43.994611, "tags": {"amenity": "school", "name": "\u0645\u062a\u0648\u0633\u0637\u0629 \u0628\u064a\u062a \u0627\u0644\u062c\u0648\u062f", "name:ar": "\u0645\u062a\u0648\u0633\u0637\u0629 \u0628\u064a\u062a \u0627\u0644\u062c\u0648\u062f", "name:en": "Bait Al-jood"}}, {"type": "node", "id": 4502293992, "lat": 32.5859718, "lon": 43.9945119, "tags": {"amenity": "school", "name": "\u0627\u0628\u062a\u062f\u0627\u0626\u064a\u0629 \u0625\u0642\u0631\u0623", "name:ar": "\u0627\u0628\u062a\u062f\u0627\u0626\u064a\u0629 \u0625\u0642\u0631\u0623", "name:en": "Eaqra"}}, {"type": "node", "id": 4502294090, "lat": 32.6150732, "lon": 44.0168839, "tags": {"amenity": "school", "name": "\u062b\u0627\u0646\u0648\u064a\u0629 \u0627\u0644\u064a\u0631\u0645\u0648\u0643 \u0644\u0644\u0628\u0646\u0627\u062a", "name:ar": "\u062b\u0627\u0646\u0648\u064a\u0629 \u0627\u0644\u064a\u0631\u0645\u0648\u0643 \u0644\u0644\u0628\u0646\u0627\u062a", "name:en": "Al-Yarmouk Secondary School for Girls"}}, {"type": "node", "id": 4502294091, "lat": 32.607639, "lon": 43.994722, "tags": {"amenity": "school", "name": "\u0627\u0628\u062a\u062f\u0627\u0626\u064a\u0629 \u0627\u0633\u0644\u0645 \u0627\u0644\u0645\u0648\u0644\u0649", "name:ar": "\u0627\u0628\u062a\u062f\u0627\u0626\u064a\u0629 \u0627\u0633\u0644\u0645 \u0627\u0644\u0645\u0648\u0644\u0649", "name:en": "Aslam Al-moulaa"}}, {"type": "node", "id": 4502306189, "lat": 32.588778, "lon": 44.031611, "tags": {"amenity": "school", "name": "\u0627\u0628\u062a\u062f\u0627\u0626\u064a\u0629 \u0627\u0644\u0645\u062b\u0646\u0649", "name:ar": "\u0627\u0628\u062a\u062f\u0627\u0626\u064a\u0629 \u0627\u0644\u0645\u062b\u0646\u0649", "name:en": "Al-mouthana"}}, {"type": "node", "id": 4502306190, "lat": 32.616861, "lon": 43.986083, "tags": {"amenity": "school", "name": "\u0627\u0644\u0641\u0627\u0631\u0648\u0642", "name:ar": "\u0627\u0644\u0641\u0627\u0631\u0648\u0642", "name:en": "Alfarook"}}, {"type": "node", "id": 4502306191, "lat": 32.626167, "lon": 43.995306, "tags": {"amenity": "school", "name": "\u0623\u0645\u0627\u0645 \u0627\u0644\u0645\u062a\u0642\u064a\u0646", "name:ar": "\u0623\u0645\u0627\u0645 \u0627\u0644\u0645\u062a\u0642\u064a\u0646", "name:en": "Imam Al-motaqeen"}}, {"type": "node", "id": 4502306389, "lat": 32.648669, "lon": 43.9828662, "tags": {"amenity": "school", "check_date": "2023-11-24", "grades": "1-3", "name": "\u0645\u062a\u0648\u0633\u0637\u0629 \u0639\u0644\u064a \u0627\u0644\u0648\u0631\u062f\u064a", "name:ar": "\u0645\u062a\u0648\u0633\u0637\u0629 \u0639\u0644\u064a \u0627\u0644\u0648\u0631\u062f\u064a", "name:en": "Ali Al-wardee"}}, {"type": "node", "id": 4502306391, "lat": 32.636306, "lon": 43.974889, "tags": {"amenity": "school", "name": "\u0627\u0628\u062a\u062f\u0627\u0626\u064a\u0629 \u0627\u0644\u0645\u0624\u0645\u0644", "name:ar": "\u0627\u0628\u062a\u062f\u0627\u0626\u064a\u0629 \u0627\u0644\u0645\u0624\u0645\u0644", "name:en": "Al-moamal"}}, {"type": "node", "id": 4502306392, "lat": 32.621806, "lon": 43.9735, "tags": {"amenity": "school", "name": "\u0645\u062a\u0648\u0633\u0637\u0629 \u0627\u0644\u0645\u0631\u062c\u0627\u0646", "name:ar": "\u0645\u062a\u0648\u0633\u0637\u0629 \u0627\u0644\u0645\u0631\u062c\u0627\u0646", "name:en": "Al-merjan"}}, {"type": "node", "id": 4502313089, "lat": 32.580444, "lon": 43.998778, "tags": {"amenity": "school", "name": "\u0627\u0628\u062a\u062f\u0627\u0626\u064a\u0629 \u0627\u0644\u062a\u0633\u0627\u0645\u064a", "name:ar": "\u0627\u0628\u062a\u062f\u0627\u0626\u064a\u0629 \u0627\u0644\u062a\u0633\u0627\u0645\u064a", "name:en": "Al-tasamee"}}, {"type": "node", "id": 4502313090, "lat": 32.584361, "lon": 44.025083, "tags": {"amenity": "school", "name": "\u0645\u062a\u0648\u0633\u0637\u0629 \u0627\u0644\u0646\u0639\u064a\u0645 \u0627\u0644\u0645\u0633\u0627\u0626\u064a\u0629", "name:ar": "\u0645\u062a\u0648\u0633\u0637\u0629 \u0627\u0644\u0646\u0639\u064a\u0645 \u0627\u0644\u0645\u0633\u0627\u0626\u064a\u0629", "name:en": "Al-naeem"}}, {"type": "node", "id": 4502313091, "lat": 32.596806, "lon": 44.003694, "tags": {"amenity": "school", "name": "\u0627\u0628\u062a\u062f\u0627\u0626\u064a\u0629 \u0627\u0644\u062a\u0648\u0641\u064a\u0642", "name:ar": "\u0627\u0628\u062a\u062f\u0627\u0626\u064a\u0629 \u0627\u0644\u062a\u0648\u0641\u064a\u0642", "name:en": "Al-tawfeeq"}}, {"type": "node", "id": 4502313289, "lat": 32.585917, "lon": 43.995222, "tags": {"amenity": "school", "name": "\u0627\u0644\u0639\u0627\u062f\u064a\u0627\u062a", "name:ar": "\u0627\u0644\u0639\u0627\u062f\u064a\u0627\u062a", "name:en": "Aladiat"}}, {"type": "node", "id": 4502313992, "lat": 32.642944, "lon": 43.984667, "tags": {"amenity": "school", "name": "\u062b\u0627\u0646\u0648\u064a\u0629 \u0632\u0647\u0631\u0629 \u0627\u0644\u0645\u062f\u0627\u0626\u0646", "name:ar": "\u062b\u0627\u0646\u0648\u064a\u0629 \u0632\u0647\u0631\u0629 \u0627\u0644\u0645\u062f\u0627\u0626\u0646", "name:en": "Zahrat Al-madaen"}}, {"type": "node", "id": 4502315490, "lat": 32.636167, "lon": 43.975, "tags": {"amenity": "school", "name": "\u0627\u0628\u062a\u062f\u0627\u0626\u064a\u0629 \u0627\u0644\u0642\u0637\u064a\u0641", "name:ar": "\u0627\u0628\u062a\u062f\u0627\u0626\u064a\u0629 \u0627\u0644\u0642\u0637\u064a\u0641", "name:en": "Al-gatheef"}}, {"type": "node", "id": 4502488297, "lat": 32.578472, "lon": 44.010556, "tags": {"amenity": "school", "name": "\u0631\u0648\u0636\u0629 \u0637\u064a\u0648\u0631 \u0627\u0644\u0645\u062d\u0628\u0629", "name:ar": "\u0631\u0648\u0636\u0629 \u0637\u064a\u0648\u0631 \u0627\u0644\u0645\u062d\u0628\u0629", "name:en": "Toyor al-mahaba"}}, {"type": "node", "id": 4502511094, "lat": 32.5843325, "lon": 43.9966153, "tags": {"amenity": "school", "name": "\u0631\u0648\u0636\u0629 \u0627\u0644\u0647\u062f\u0647\u062f", "name:ar": "\u0631\u0648\u0636\u0629 \u0627\u0644\u0647\u062f\u0647\u062f", "name:en": "Al-hodhod"}}, {"type": "node", "id": 4502530589, "lat": 32.602667, "lon": 43.978111, "tags": {"amenity": "school", "name": "\u0631\u0648\u0636\u0629 \u0627\u0644\u0642\u062f\u0627\u062d", "name:ar": "\u0631\u0648\u0636\u0629 \u0627\u0644\u0642\u062f\u0627\u062d", "name:en": "Al-qidah"}}, {"type": "node", "id": 4502539489, "lat": 32.591917, "lon": 44.001528, "tags": {"amenity": "school", "name": "\u0627\u0639\u062f\u0627\u062f\u064a\u0629 \u0627\u0644\u0639\u0628\u0627\u0633 \u0627\u0644\u0635\u0646\u0627\u0639\u064a\u0629", "name:ar": "\u0627\u0639\u062f\u0627\u062f\u064a\u0629 \u0627\u0644\u0639\u0628\u0627\u0633 \u0627\u0644\u0635\u0646\u0627\u0639\u064a\u0629", "name:en": "Al-abbas technical school"}}, {"type": "node", "id": 4502540589, "lat": 32.590528, "lon": 44.026278, "tags": {"amenity": "school", "name": "\u0645\u0639\u0647\u062f \u0627\u0639\u062f\u0627\u062f \u0627\u0644\u0645\u0639\u0644\u0648\u0645\u0627\u062a", "name:ar": "\u0645\u0639\u0647\u062f \u0627\u0639\u062f\u0627\u062f \u0627\u0644\u0645\u0639\u0644\u0648\u0645\u0627\u062a", "name:en": "Teacher institute"}}, {"type": "node", "id": 4502612595, "lat": 32.5815714, "lon": 43.9948717, "tags": {"amenity": "school", "name": "\u062b\u0627\u0646\u0648\u064a\u0629 \u0627\u0644\u0634\u0647\u064a\u062f \u062c\u0648\u0646", "name:ar": "\u062b\u0627\u0646\u0648\u064a\u0629 \u0627\u0644\u0634\u0647\u064a\u062f \u062c\u0648\u0646", "name:en": "Al-shaheed John"}}, {"type": "node", "id": 4502645390, "lat": 32.615, "lon": 44.023111, "tags": {"amenity": "school", "name": "\u0645\u062a\u0648\u0633\u0637\u0629 \u0627\u0644\u0646\u0641\u062d\u0627\u062a", "name:ar": "\u0645\u062a\u0648\u0633\u0637\u0629 \u0627\u0644\u0646\u0641\u062d\u0627\u062a", "name:en": "Al-nafahat"}}, {"type": "node", "id": 4502649389, "lat": 32.643306, "lon": 43.986333, "tags": {"amenity": "school", "name": "\u0627\u0644\u0639\u0642\u064a\u0644\u0629", "name:ar": "\u0627\u0644\u0639\u0642\u064a\u0644\u0629", "name:en": "Al-aqeela"}}, {"type": "node", "id": 4502649689, "lat": 32.616333, "lon": 43.977389, "tags": {"amenity": "school", "name": "\u0645\u062a\u0648\u0633\u0637\u0629 \u0627\u0644\u062d\u064a\u0631\u0629", "name:ar": "\u0645\u062a\u0648\u0633\u0637\u0629 \u0627\u0644\u062d\u064a\u0631\u0629", "name:en": "Al-heera"}}, {"type": "node", "id": 4502649789, "lat": 32.6314232, "lon": 43.9910632, "tags": {"amenity": "school", "name": "\u0627\u0633\u0627\u0645\u0629 \u0628\u0646 \u0632\u064a\u062f", "name:ar": "\u0627\u0633\u0627\u0645\u0629 \u0628\u0646 \u0632\u064a\u062f", "name:en": "Osama bin Zaid"}}, {"type": "node", "id": 4502725093, "lat": 32.6206077, "lon": 43.9731041, "tags": {"amenity": "school", "name": "\u0627\u0628\u062a\u062f\u0627\u0626\u064a\u0629 \u0627\u0644\u0633\u0645\u0648", "name:ar": "\u0627\u0628\u062a\u062f\u0627\u0626\u064a\u0629 \u0627\u0644\u0633\u0645\u0648", "name:en": "Al-soumou"}}, {"type": "node", "id": 4502725096, "lat": 32.5810016, "lon": 43.9987928, "tags": {"amenity": "school", "name": "\u0645\u062a\u0648\u0633\u0637\u0629 \u0627\u0644\u0645\u0644\u0627\u0643", "name:ar": "\u0645\u062a\u0648\u0633\u0637\u0629 \u0627\u0644\u0645\u0644\u0627\u0643", "name:en": "Al-malaak"}}, {"type": "node", "id": 4502725097, "lat": 32.6082905, "lon": 43.9947679, "tags": {"amenity": "school", "name": "\u0627\u0628\u062a\u062f\u0627\u0626\u064a\u0629 \u0632\u062d\u0644", "name:ar": "\u0627\u0628\u062a\u062f\u0627\u0626\u064a\u0629 \u0632\u062d\u0644", "name:en": "Zouhal"}}, {"type": "node", "id": 4502725099, "lat": 32.582722, "lon": 44.013056, "tags": {"amenity": "school", "name": "\u0627\u0628\u062a\u062f\u0627\u0626\u064a\u0629 \u0627\u0644\u0639\u0641\u0627\u0641", "name:ar": "\u0627\u0628\u062a\u062f\u0627\u0626\u064a\u0629 \u0627\u0644\u0639\u0641\u0627\u0641", "name:en": "Al-afaaf"}}, {"type": "node", "id": 4502725100, "lat": 32.606111, "lon": 44.016333, "tags": {"amenity": "school", "name": "\u0627\u0628\u062a\u062f\u0627\u0626\u064a\u0629 \u0627\u0644\u0622\u062f\u0627\u0628", "name:ar": "\u0627\u0628\u062a\u062f\u0627\u0626\u064a\u0629 \u0627\u0644\u0622\u062f\u0627\u0628", "name:en": "Al-aadaab"}}, {"type": "node", "id": 4502725101, "lat": 32.608333, "lon": 43.982417, "tags": {"amenity": "school", "name": "\u0627\u0628\u062a\u062f\u0627\u0626\u064a\u0629 \u0627\u0644\u0623\u0635\u0641\u064a\u0627\u0621", "name:ar": "\u0627\u0628\u062a\u062f\u0627\u0626\u064a\u0629 \u0627\u0644\u0623\u0635\u0641\u064a\u0627\u0621", "name:en": "Al-asfeyaa"}}, {"type": "node", "id": 4502725102, "lat": 32.5891978, "lon": 44.0016564, "tags": {"amenity": "school", "name": "\u0645\u062a\u0648\u0633\u0637\u0629 \u0627\u0644\u0633\u064a\u0627\u062f\u0629", "name:ar": "\u0645\u062a\u0648\u0633\u0637\u0629 \u0627\u0644\u0633\u064a\u0627\u062f\u0629", "name:en": "Al-seeyadah"}}, {"type": "node", "id": 4502728992, "lat": 32.639972, "lon": 43.980722, "tags": {"amenity": "school", "name": "\u0627\u0628\u062a\u062f\u0627\u0626\u064a\u0629 \u0627\u0644\u0627\u0637\u064a\u0627\u0641", "name:ar": "\u0627\u0628\u062a\u062f\u0627\u0626\u064a\u0629 \u0627\u0644\u0627\u0637\u064a\u0627\u0641", "name:en": "Al-atyaaf"}}, {"type": "node", "id": 4502728994, "lat": 32.6398497, "lon": 43.980553, "tags": {"amenity": "school", "name": "\u0627\u0628\u062a\u062f\u0627\u0626\u064a\u0629 \u0627\u0644\u0645\u0646\u0627\u0626\u0631", "name:ar": "\u0627\u0628\u062a\u062f\u0627\u0626\u064a\u0629 \u0627\u0644\u0645\u0646\u0627\u0626\u0631", "name:en": "Al-manaaer"}}, {"type": "node", "id": 4502728995, "lat": 32.636306, "lon": 43.973694, "tags": {"amenity": "school", "name": "\u0627\u0644\u0635\u062f\u064a\u0642", "name:ar": "\u0627\u0644\u0635\u062f\u064a\u0642", "name:en": "Al-sadieq"}}, {"type": "node", "id": 4502728996, "lat": 32.6274727, "lon": 43.9673007, "tags": {"amenity": "school", "name": "\u0627\u0628\u062a\u062f\u0627\u0626\u064a\u0629 \u0627\u0644\u0638\u0641\u0631", "name:ar": "\u0627\u0628\u062a\u062f\u0627\u0626\u064a\u0629 \u0627\u0644\u0638\u0641\u0631", "name:en": "Al-dhafer"}}, {"type": "node", "id": 4502728997, "lat": 32.6241458, "lon": 43.9840356, "tags": {"amenity": "school", "name": "\u0627\u0628\u062a\u062f\u0627\u0626\u064a\u0629 \u0627\u0644\u0635\u0641\u0648\u0629", "name:ar": "\u0627\u0628\u062a\u062f\u0627\u0626\u064a\u0629 \u0627\u0644\u0635\u0641\u0648\u0629", "name:en": "Al-saffwa"}}, {"type": "node", "id": 4502728999, "lat": 32.615611, "lon": 43.996278, "tags": {"amenity": "school", "name": "\u0645\u062a\u0648\u0633\u0637\u0629 \u0627\u0644\u0648\u0626\u0627\u0645", "name:ar": "\u0645\u062a\u0648\u0633\u0637\u0629 \u0627\u0644\u0648\u0626\u0627\u0645", "name:en": "Al-weeaam"}}, {"type": "node", "id": 4502729000, "lat": 32.577944, "lon": 44.005333, "tags": {"amenity": "school", "name": "\u0628\u0636\u0639\u0629 \u0627\u0644\u0631\u0633\u0648\u0644", "name:ar": "\u0628\u0636\u0639\u0629 \u0627\u0644\u0631\u0633\u0648\u0644", "name:en": "Bedhat al-rasool"}}, {"type": "node", "id": 4502738191, "lat": 32.6160335, "lon": 44.0038832, "tags": {"amenity": "school", "name": "\u0627\u0639\u062f\u0627\u062f\u064a\u0629 \u062d\u0633\u064a\u0646 \u0645\u062d\u0641\u0648\u0638", "name:ar": "\u0627\u0639\u062f\u0627\u062f\u064a\u0629 \u062d\u0633\u064a\u0646 \u0645\u062d\u0641\u0648\u0638", "name:en": "Hussein Mahfood"}}, {"type": "node", "id": 4502738192, "lat": 32.5894731, "lon": 44.0018167, "tags": {"amenity": "school", "name": "\u0627\u0639\u062f\u0627\u062f\u064a\u0629 \u0627\u0644\u063a\u062f \u0627\u0644\u0623\u0641\u0636\u0644", "name:ar": "\u0627\u0639\u062f\u0627\u062f\u064a\u0629 \u0627\u0644\u063a\u062f \u0627\u0644\u0623\u0641\u0636\u0644", "name:en": "Al-ghad Al-afdhal"}}, {"type": "node", "id": 4502738290, "lat": 32.6216433, "lon": 43.9736026, "tags": {"amenity": "school", "name": "\u0627\u0628\u062a\u062f\u0627\u0626\u064a\u0629 \u0627\u0644\u062a\u0648\u062d\u064a\u062f", "name:ar": "\u0627\u0628\u062a\u062f\u0627\u0626\u064a\u0629 \u0627\u0644\u062a\u0648\u062d\u064a\u062f", "name:en": "Al-taouheed"}}, {"type": "node", "id": 4502738291, "lat": 32.585, "lon": 43.997361, "tags": {"amenity": "school", "name": "\u0627\u0628\u062a\u062f\u0627\u0626\u064a\u0629 \u0627\u0644\u0635\u0627\u0641\u0627\u062a", "name:ar": "\u0627\u0628\u062a\u062f\u0627\u0626\u064a\u0629 \u0627\u0644\u0635\u0627\u0641\u0627\u062a", "name:en": "Al-saaffat Primary School"}}, {"type": "node", "id": 4502738292, "lat": 32.632083, "lon": 43.967167, "tags": {"amenity": "school", "name": "\u0645\u062a\u0648\u0633\u0637\u0629 \u0627\u0644\u0627\u0645\u0627\u0646\u064a", "name:ar": "\u0645\u062a\u0648\u0633\u0637\u0629 \u0627\u0644\u0627\u0645\u0627\u0646\u064a", "name:en": "Al-amaanee"}}, {"type": "node", "id": 4502738293, "lat": 32.6217015, "lon": 44.0327676, "tags": {"amenity": "school", "name": "\u0645\u062a\u0648\u0633\u0637\u0629 \u0627\u0644\u0633\u062f\u0631\u0629", "name:ar": "\u0645\u062a\u0648\u0633\u0637\u0629 \u0627\u0644\u0633\u062f\u0631\u0629"}}, {"type": "node", "id": 4502753391, "lat": 32.599191, "lon": 44.0226685, "tags": {"amenity": "school", "name": "\u0627\u0639\u062f\u0627\u062f\u064a\u0629 \u0627\u0644\u0622\u0641\u0627\u0642 \u0627\u0644\u0645\u0633\u0627\u0626\u064a\u0629", "name:ar": "\u0627\u0639\u062f\u0627\u062f\u064a\u0629 \u0627\u0644\u0622\u0641\u0627\u0642 \u0627\u0644\u0645\u0633\u0627\u0626\u064a\u0629", "name:en": "Afaq High School for Boys"}}, {"type": "node", "id": 4502753392, "lat": 32.618306, "lon": 43.980083, "tags": {"amenity": "school", "name": "\u0627\u0628\u062a\u062f\u0627\u0626\u064a\u0629 \u0627\u0644\u0623\u0637\u0647\u0627\u0631", "name:ar": "\u0627\u0628\u062a\u062f\u0627\u0626\u064a\u0629 \u0627\u0644\u0623\u0637\u0647\u0627\u0631", "name:en": "Al-athaar"}}, {"type": "node", "id": 4502753689, "lat": 32.618278, "lon": 43.980694, "tags": {"amenity": "school", "name": "\u0627\u0644\u0633\u064a\u062f\u0629 \u0631\u0642\u064a\u0629", "name:ar": "\u0627\u0644\u0633\u064a\u062f\u0629 \u0631\u0642\u064a\u0629", "name:en": "Alsaida Ruqaia"}}, {"type": "node", "id": 4502753889, "lat": 32.62425, "lon": 43.983972, "tags": {"amenity": "school", "name": "\u0627\u0628\u062a\u062f\u0627\u0626\u064a\u0629 \u0627\u0644\u062a\u0647\u062c\u062f", "name:ar": "\u0627\u0628\u062a\u062f\u0627\u0626\u064a\u0629 \u0627\u0644\u062a\u0647\u062c\u062f", "name:en": "Al-tahajud"}}, {"type": "node", "id": 4502753890, "lat": 32.614694, "lon": 44.02925, "tags": {"amenity": "school", "name": "\u0627\u0644\u0645\u062e\u064a\u0645", "name:ar": "\u0625\u0639\u062f\u0627\u062f\u064a\u0629 \u0627\u0644\u0628\u0646\u0627\u0621 \u0644\u0644\u0628\u0646\u064a\u0646", "name:en": "Sl-Mukhaim"}}, {"type": "node", "id": 4502753891, "lat": 32.608361, "lon": 43.994889, "tags": {"amenity": "school", "name": "\u0627\u0644\u0627\u0643\u0631\u0645", "name:ar": "\u0627\u0644\u0627\u0643\u0631\u0645", "name:en": "al akraam"}}, {"type": "node", "id": 4502753892, "lat": 32.618833, "lon": 43.984167, "tags": {"amenity": "school", "name": "\u0627\u0628\u062a\u062f\u0627\u0626\u064a\u0629 \u0627\u0644\u062a\u0631\u0627\u062b", "name:ar": "\u0627\u0628\u062a\u062f\u0627\u0626\u064a\u0629 \u0627\u0644\u062a\u0631\u0627\u062b", "name:en": "Al-touraath"}}, {"type": "node", "id": 4502753893, "lat": 32.57425, "lon": 44.012222, "tags": {"amenity": "school", "name": "\u0627\u0644\u0645\u064a\u0632\u0627\u0646", "name:ar": "\u0627\u0644\u0645\u064a\u0632\u0627\u0646", "name:en": "Almizan"}}, {"type": "node", "id": 4502753894, "lat": 32.6159473, "lon": 44.0134358, "tags": {"amenity": "school", "name": "\u0627\u0644\u0625\u0645\u0627\u0645 \u0627\u0644\u0635\u0627\u062f\u0642 \u0627\u0644\u0645\u0633\u0627\u0626\u064a\u0629", "name:ar": "\u0627\u0644\u0625\u0645\u0627\u0645 \u0627\u0644\u0635\u0627\u062f\u0642 \u0627\u0644\u0645\u0633\u0627\u0626\u064a\u0629", "name:en": "Imam Sadiq (evening)"}}, {"type": "node", "id": 4502754089, "lat": 32.62075, "lon": 43.973028, "tags": {"amenity": "school", "name": "\u0627\u0628\u062a\u062f\u0627\u0626\u064a\u0629 \u0627\u0644\u0634\u0631\u0627\u0639", "name:ar": "\u0627\u0628\u062a\u062f\u0627\u0626\u064a\u0629 \u0627\u0644\u0634\u0631\u0627\u0639", "name:en": "Al-sheeraa"}}, {"type": "node", "id": 4502754090, "lat": 32.631972, "lon": 43.96725, "tags": {"amenity": "school", "name": "\u0627\u0628\u062a\u062f\u0627\u0626\u064a\u0629 \u0627\u0644\u063a\u0631\u064a", "name:ar": "\u0627\u0628\u062a\u062f\u0627\u0626\u064a\u0629 \u0627\u0644\u063a\u0631\u064a", "name:en": "Al-gharee"}}, {"type": "node", "id": 4502754689, "lat": 32.5750943, "lon": 43.9928601, "tags": {"amenity": "school", "name": "\u0627\u0628\u062a\u062f\u0627\u0626\u064a\u0629 \u0627\u0644\u0648\u062f\u0642", "name:ar": "\u0645\u062f\u0631\u0633\u0629 \u0627\u0644\u0648\u062f\u0642 \u0627\u0644\u0623\u0628\u062a\u062f\u0627\u0626\u064a\u0629", "name:en": "Al-wadaq"}}, {"type": "node", "id": 4502754789, "lat": 32.5748879, "lon": 43.9926751, "tags": {"amenity": "school", "name": "\u0627\u0628\u062a\u062f\u0627\u0626\u064a\u0629 \u0627\u0644\u0631\u0648\u0627\u0633\u064a", "name:ar": "\u0645\u062f\u0631\u0633\u0629 \u0627\u0644\u0631\u0648\u0627\u0633\u064a \u0627\u0644\u0623\u0628\u062a\u062f\u0627\u0626\u064a\u0629", "name:en": "Al-rawasee"}}, {"type": "node", "id": 4502755289, "lat": 32.5841553, "lon": 44.0312297, "tags": {"amenity": "school", "name": "\u0627\u0639\u062f\u0627\u062f\u064a\u0629 \u0627\u0644\u062e\u0627\u0644\u062f\u0627\u062a", "name:ar": "\u0627\u0639\u062f\u0627\u062f\u064a\u0629 \u0627\u0644\u062e\u0627\u0644\u062f\u0627\u062a", "name:en": "Al-khaaledaat"}}, {"type": "node", "id": 4502755389, "lat": 32.603417, "lon": 43.977194, "tags": {"amenity": "school", "name": "\u0632\u0647\u0631\u0629 \u0627\u0644\u0641\u0631\u0627\u062a", "name:ar": "\u0632\u0647\u0631\u0629 \u0627\u0644\u0641\u0631\u0627\u062a", "name:en": "zahrat al forat"}}, {"type": "node", "id": 4502898990, "lat": 32.6101557, "lon": 44.0056051, "tags": {"amenity": "school", "name": "\u0635\u0646\u0627\u0639\u0629 \u0627\u0644\u062a\u062d\u0631\u064a\u0631", "name:ar": "\u0635\u0646\u0627\u0639\u0629 \u0627\u0644\u062a\u062d\u0631\u064a\u0631", "name:en": "Al-tahreer technical school"}}, {"type": "node", "id": 4502898991, "lat": 32.608389, "lon": 44.0325, "tags": {"amenity": "school", "name": "\u0627\u0639\u062f\u0627\u062f\u064a\u0629 \u0643\u0631\u0628\u0644\u0627\u0621 \u0627\u0644\u0645\u0647\u0646\u064a\u0629 \u0644\u0644\u0628\u0646\u0627\u062a", "name:ar": "\u0627\u0639\u062f\u0627\u062f\u064a\u0629 \u0643\u0631\u0628\u0644\u0627\u0621 \u0627\u0644\u0645\u0647\u0646\u064a\u0629 \u0644\u0644\u0628\u0646\u0627\u062a", "name:en": "Kerbala technical school for girls"}}, {"type": "node", "id": 4502900189, "lat": 32.6102943, "lon": 44.0058342, "tags": {"amenity": "school", "name": "\u0627\u0639\u062f\u0627\u062f\u064a\u0629 \u0627\u0644\u0627\u0628\u062f\u0627\u0639 \u0627\u0644\u0635\u0646\u0627\u0639\u064a\u0629 \u0627\u0644\u0645\u0633\u0627\u0626\u064a\u0629", "name:ar": "\u0627\u0639\u062f\u0627\u062f\u064a\u0629 \u0627\u0644\u0627\u0628\u062f\u0627\u0639 \u0627\u0644\u0635\u0646\u0627\u0639\u064a\u0629 \u0627\u0644\u0645\u0633\u0627\u0626\u064a\u0629", "name:en": "Al-ibdaa technical school"}}, {"type": "node", "id": 4502900689, "lat": 32.6106081, "lon": 44.0023271, "tags": {"amenity": "school", "name": "\u0627\u0639\u062f\u0627\u062f\u064a\u0629 \u0627\u0644\u062d\u0633\u0646 \u0627\u0644\u062a\u062c\u0627\u0631\u064a\u0629", "name:ar": "\u0627\u0639\u062f\u0627\u062f\u064a\u0629 \u0627\u0644\u062d\u0633\u0646 \u0627\u0644\u062a\u062c\u0627\u0631\u064a\u0629", "name:en": "Tijara al-hassan"}}, {"type": "node", "id": 4503766191, "lat": 32.584739, "lon": 43.9971637, "tags": {"amenity": "school", "name": "\u062b\u0627\u0646\u0648\u064a\u0629 \u0627\u0644\u0645\u0646\u0627\u0633\u0643", "name:ar": "\u062b\u0627\u0646\u0648\u064a\u0629 \u0627\u0644\u0645\u0646\u0627\u0633\u0643", "name:en": "Al-Manasik Secondary School"}}, {"type": "node", "id": 4503852996, "lat": 32.629216, "lon": 43.9700131, "tags": {"amenity": "school", "name": "\u0627\u0628\u062a\u062f\u0627\u0626\u064a\u0629 \u0627\u0644\u0639\u0644\u064a\u0627\u0621", "name:ar": "\u0627\u0628\u062a\u062f\u0627\u0626\u064a\u0629 \u0627\u0644\u0639\u0644\u064a\u0627\u0621", "name:en": "Al-alyaa'"}}, {"type": "node", "id": 4503855496, "lat": 32.597353, "lon": 44.0136186, "tags": {"amenity": "school", "name": "\u0627\u0628\u062a\u062f\u0627\u0626\u064a\u0629 \u0634\u062c\u0631\u0629 \u0637\u0648\u0628\u0649", "name:ar": "\u0627\u0628\u062a\u062f\u0627\u0626\u064a\u0629 \u0634\u062c\u0631\u0629 \u0637\u0648\u0628\u0649", "name:en": "Shajarat Toubaa"}}, {"type": "node", "id": 4503888091, "lat": 32.636528, "lon": 43.963361, "tags": {"amenity": "school", "name": "\u0627\u0644\u0634\u0647\u062f", "name:ar": "\u0627\u0644\u0634\u0647\u062f", "name:en": "al shahed"}}, {"type": "node", "id": 4503897592, "lat": 32.583056, "lon": 44.013056, "tags": {"amenity": "school", "name": "\u0646\u0647\u062c \u0627\u0644\u0628\u0644\u0627\u063a\u0629 \u0627\u0644\u0623\u0633\u0627\u0633\u064a\u0629 2", "name:ar": "\u0646\u0647\u062c \u0627\u0644\u0628\u0644\u0627\u063a\u0629 \u0627\u0644\u0623\u0633\u0627\u0633\u064a\u0629 2", "name:en": "Nahaj albalagha alassasia2"}}, {"type": "node", "id": 4503897593, "lat": 32.6066101, "lon": 44.0082995, "tags": {"amenity": "school", "name": "\u0625\u0639\u062f\u0627\u062f\u064a\u0629 \u062c\u0627\u0628\u0631 \u0627\u0644\u0623\u0646\u0635\u0627\u0631\u064a"}}, {"type": "node", "id": 4503897594, "lat": 32.6073597, "lon": 44.0095134, "tags": {"amenity": "school", "grades": "7-12", "name": "\u062b\u0627\u0646\u0648\u064a\u0629 \u0646\u0627\u0632\u0643 \u0627\u0644\u0645\u0644\u0627\u0626\u0643\u0629 \u0644\u0644\u0645\u062a\u0645\u064a\u0632\u0627\u062a"}}, {"type": "node", "id": 4503897595, "lat": 32.616889, "lon": 44.016111, "tags": {"amenity": "school", "name": "\u0627\u0628\u062a\u062f\u0627\u0626\u064a\u0629 \u0627\u0644\u0645\u0641\u064a\u062f", "name:ar": "\u0627\u0628\u062a\u062f\u0627\u0626\u064a\u0629 \u0627\u0644\u0645\u0641\u064a\u062f", "name:en": "Al-Moofeed"}}, {"type": "node", "id": 4503897689, "lat": 32.6239023, "lon": 43.9917517, "tags": {"amenity": "school", "name": "\u0645\u062a\u0648\u0633\u0637\u0629 \u0639\u064a\u0646 \u0627\u0644\u0648\u0631\u062f\u0629", "name:ar": "\u0645\u062a\u0648\u0633\u0637\u0629 \u0639\u064a\u0646 \u0627\u0644\u0648\u0631\u062f\u0629", "name:en": "Ayn Al-warda"}}, {"type": "node", "id": 4503922290, "lat": 32.620917, "lon": 44.033194, "tags": {"amenity": "school", "name": "\u0627\u0628\u062a\u062f\u0627\u0626\u064a\u0629 \u0627\u0644\u0645\u0647\u062f\u064a \u0639\u062c", "name:ar": "\u0627\u0628\u062a\u062f\u0627\u0626\u064a\u0629 \u0627\u0644\u0645\u0647\u062f\u064a \u0639\u062c", "name:en": "Al-Mahdee"}}, {"type": "node", "id": 4503922291, "lat": 32.60625, "lon": 44.036139, "tags": {"amenity": "school", "name": "\u0627\u0628\u062a\u062f\u0627\u0626\u064a\u0629 \u0627\u0644\u0647\u0645\u0627\u0645", "name:ar": "\u0627\u0628\u062a\u062f\u0627\u0626\u064a\u0629 \u0627\u0644\u0647\u0645\u0627\u0645", "name:en": "Al-humaam"}}, {"type": "node", "id": 4503922292, "lat": 32.6022461, "lon": 44.0173662, "tags": {"amenity": "school", "name": "\u0627\u0639\u062f\u0627\u062f\u064a\u0629 \u0643\u0631\u0628\u0644\u0627\u0621 \u0644\u0644\u0628\u0646\u0627\u062a", "name:ar": "\u0627\u0639\u062f\u0627\u062f\u064a\u0629 \u0643\u0631\u0628\u0644\u0627\u0621 \u0644\u0644\u0628\u0646\u0627\u062a", "name:en": "Karbala secondary for girls"}}, {"type": "node", "id": 4503922390, "lat": 32.586806, "lon": 44.0325, "tags": {"amenity": "school", "name": "\u0639\u0628\u062f \u0627\u0644\u0644\u0647 \u0628\u0646 \u0639\u0628\u0627\u0633", "name:ar": "\u0639\u0628\u062f \u0627\u0644\u0644\u0647 \u0628\u0646 \u0639\u0628\u0627\u0633", "name:en": "Abdullah bin Abbas"}}, {"type": "node", "id": 4503957191, "lat": 32.643, "lon": 43.98475, "tags": {"amenity": "school", "name": "\u0627\u0644\u0631\u0633\u0644", "name:ar": "\u0627\u0644\u0631\u0633\u0644", "name:en": "al rosol"}}, {"type": "node", "id": 4504149190, "lat": 32.624972, "lon": 43.993083, "tags": {"amenity": "school", "name": "\u0627\u0644\u0646\u064a\u0627\u0632\u0643", "name:ar": "\u0627\u0644\u0646\u064a\u0627\u0632\u0643", "name:en": "al nayazeek"}}, {"type": "node", "id": 4504149191, "lat": 32.609306, "lon": 43.983778, "tags": {"amenity": "school", "name": "\u0645\u062a\u0648\u0633\u0637\u0629 \u0627\u0644\u062d\u0645\u0632\u0629", "name:ar": "\u0645\u062a\u0648\u0633\u0637\u0629 \u0627\u0644\u062d\u0645\u0632\u0629", "name:en": "Al-hammza"}}, {"type": "node", "id": 4504149789, "lat": 32.617917, "lon": 44.003222, "tags": {"amenity": "school", "name": "\u0627\u0644\u062b\u0642\u0627\u0641\u0629", "name:ar": "\u0627\u0644\u062b\u0642\u0627\u0641\u0629", "name:en": "Altheqafa"}}, {"type": "node", "id": 4504150089, "lat": 32.6124171, "lon": 43.9978926, "tags": {"amenity": "school", "name": "\u0645\u062a\u0648\u0633\u0637\u0629 \u0627\u0644\u0634\u0647\u064a\u062f \u0645\u062d\u0645\u062f \u0628\u0627\u0642\u0631 \u0627\u0644\u062d\u0643\u064a\u0645", "name:ar": "\u0645\u062a\u0648\u0633\u0637\u0629 \u0627\u0644\u0634\u0647\u064a\u062f \u0645\u062d\u0645\u062f \u0628\u0627\u0642\u0631 \u0627\u0644\u062d\u0643\u064a\u0645", "name:en": "Al-shaheed Mohamed Baker Al-Hakeem"}}, {"type": "node", "id": 4504150090, "lat": 32.6122161, "lon": 44.0113444, "tags": {"amenity": "school", "name": "\u0644\u0642\u0645\u0627\u0646 \u0627\u0644\u062d\u0643\u064a\u0645", "name:ar": "\u0644\u0642\u0645\u0627\u0646 \u0627\u0644\u062d\u0643\u064a\u0645", "name:en": "lokman al hakeem"}}, {"type": "node", "id": 4504172789, "lat": 32.612015, "lon": 44.0114746, "tags": {"amenity": "school", "name": "\u0627\u0639\u062f\u0627\u062f\u064a\u0629 \u0627\u0644\u0645\u0643\u0627\u0633\u0628", "name:ar": "\u0627\u0639\u062f\u0627\u062f\u064a\u0629 \u0627\u0644\u0645\u0643\u0627\u0633\u0628", "name:en": "Al-makaseb"}}, {"type": "node", "id": 4504175290, "lat": 32.605972, "lon": 44.034361, "tags": {"amenity": "school", "name": "\u0645\u062a\u0648\u0633\u0637\u0629 \u0632\u064a\u062f \u0628\u0646 \u062d\u0627\u0631\u062b\u0629 \u0627\u0644\u0645\u0633\u0627\u0626\u064a\u0629", "name:ar": "\u0645\u062a\u0648\u0633\u0637\u0629 \u0632\u064a\u062f \u0628\u0646 \u062d\u0627\u0631\u062b\u0629 \u0627\u0644\u0645\u0633\u0627\u0626\u064a\u0629", "name:en": "Zaid Bin Haretha"}}, {"type": "node", "id": 4504214589, "lat": 32.613694, "lon": 44.030806, "tags": {"amenity": "school", "name": "\u062b\u0627\u0646\u0648\u064a\u0629 \u0639\u0645\u0648\u0631\u064a\u0629", "name:ar": "\u062b\u0627\u0646\u0648\u064a\u0629 \u0639\u0645\u0648\u0631\u064a\u0629", "name:en": "Ammoureeya"}}, {"type": "node", "id": 4504214590, "lat": 32.612194, "lon": 44.036556, "tags": {"amenity": "school", "name": "\u062b\u0627\u0646\u0648\u064a\u0629 \u0627\u0644\u0645\u0646\u0627\u0631", "name:ar": "\u062b\u0627\u0646\u0648\u064a\u0629 \u0627\u0644\u0645\u0646\u0627\u0631", "name:en": "Al-manaar"}}, {"type": "node", "id": 4504245789, "lat": 32.619639, "lon": 43.985528, "tags": {"amenity": "school", "name": "\u0627\u0628\u062a\u062f\u0627\u0626\u064a\u0629 \u062d\u0633\u0627\u0646 \u0628\u0646 \u062b\u0627\u0628\u062a", "name:ar": "\u0627\u0628\u062a\u062f\u0627\u0626\u064a\u0629 \u062d\u0633\u0627\u0646 \u0628\u0646 \u062b\u0627\u0628\u062a", "name:en": "Hassan Bin Thabit"}}, {"type": "node", "id": 4504263989, "lat": 32.627222, "lon": 43.991472, "tags": {"amenity": "school", "name": "\u0627\u0628\u0648 \u0627\u0644\u0627\u0633\u0648\u062f \u0627\u0644\u062f\u0624\u0644\u064a \u0627\u0644\u0645\u0633\u0627\u0626\u064a\u0647", "name:ar": "\u0627\u0628\u0648 \u0627\u0644\u0627\u0633\u0648\u062f \u0627\u0644\u062f\u0624\u0644\u064a \u0627\u0644\u0645\u0633\u0627\u0626\u064a\u0647", "name:en": "abo alasswad aldoaley al massaeh"}}, {"type": "node", "id": 4504275590, "lat": 32.6045206, "lon": 44.0322113, "tags": {"amenity": "school", "name": "\u0627\u0639\u062f\u0627\u062f\u064a\u0629 \u0643\u0631\u0628\u0644\u0627\u0621 \u0644\u0644\u0628\u0646\u064a\u0646", "name:ar": "\u0627\u0639\u062f\u0627\u062f\u064a\u0629 \u0643\u0631\u0628\u0644\u0627\u0621 \u0644\u0644\u0628\u0646\u064a\u0646", "name:en": "Karbala high school for boys"}}, {"type": "node", "id": 4504291989, "lat": 32.6490718, "lon": 43.9822922, "tags": {"amenity": "school", "name": "\u0645\u062a\u0648\u0633\u0637\u0629 \u0627\u0644\u062c\u0632\u064a\u0631\u0629 \u0627\u0644\u0639\u0631\u0628\u064a\u0629", "name:ar": "\u0645\u062a\u0648\u0633\u0637\u0629 \u0627\u0644\u062c\u0632\u064a\u0631\u0629 \u0627\u0644\u0639\u0631\u0628\u064a\u0629", "name:en": "Al-jazeera Al-arabbeya"}}, {"type": "node", "id": 4504321794, "lat": 32.6058548, "lon": 44.0293117, "tags": {"amenity": "school", "name": "\u0627\u0644\u0646\u0647\u0648\u0636 \u0627\u0644\u0645\u0633\u0627\u0626\u064a\u0629", "name:ar": "\u0627\u0644\u0646\u0647\u0648\u0636 \u0627\u0644\u0645\u0633\u0627\u0626\u064a\u0629", "name:en": "Al-nehodh (evening)"}}, {"type": "node", "id": 4504321795, "lat": 32.578611, "lon": 44.022694, "tags": {"amenity": "school", "name": "\u0645\u062d\u0645\u062f \u0628\u0646 \u0627\u0628\u064a \u0628\u0643\u0631", "name:ar": "\u0645\u062d\u0645\u062f \u0628\u0646 \u0627\u0628\u064a \u0628\u0643\u0631", "name:en": "mohammad ben abie baker"}}, {"type": "node", "id": 4504374091, "lat": 32.576639, "lon": 44.029389, "tags": {"amenity": "school", "name": "\u0634\u0647\u062f\u0627\u0621 \u0645\u0624\u062a\u0647", "name:ar": "\u0634\u0647\u062f\u0627\u0621 \u0645\u0624\u062a\u0647", "name:en": "shohadaa moeatah"}}, {"type": "node", "id": 4504374092, "lat": 32.5836146, "lon": 44.0306621, "tags": {"amenity": "school", "name": "\u0627\u0644\u0627\u0633\u0631\u0629", "name:ar": "\u0627\u0644\u0627\u0633\u0631\u0629", "name:en": "Al-osraa"}}, {"type": "node", "id": 4504390594, "lat": 32.604472, "lon": 44.032694, "tags": {"amenity": "school", "name": "\u0639\u062b\u0645\u0627\u0646 \u0628\u0646 \u0633\u0639\u064a\u062f", "name:ar": "\u0639\u062b\u0645\u0627\u0646 \u0628\u0646 \u0633\u0639\u064a\u062f", "name:en": "Othman bin Saeed"}}, {"type": "node", "id": 4504411189, "lat": 32.6040351, "lon": 44.0063596, "tags": {"amenity": "school", "name": "\u063a\u0627\u062f\u0629 \u0643\u0631\u0628\u0644\u0627\u0621", "name:ar": "\u063a\u0627\u062f\u0629 \u0643\u0631\u0628\u0644\u0627\u0621", "name:en": "gaadat karbala"}}, {"type": "node", "id": 4504443193, "lat": 32.6060332, "lon": 44.0297666, "tags": {"amenity": "school", "name": "\u062b\u0627\u0646\u0648\u064a\u0629 \u0627\u0644\u0632\u0647\u0631\u0627\u0621 \u0644\u0644\u0628\u0646\u0627\u062a", "name:ar": "\u062b\u0627\u0646\u0648\u064a\u0629 \u0627\u0644\u0632\u0647\u0631\u0627\u0621 \u0644\u0644\u0628\u0646\u0627\u062a", "name:en": "Al-Zahraa Secondary School for Girls"}}, {"type": "node", "id": 4504481990, "lat": 32.619917, "lon": 43.983167, "tags": {"amenity": "school", "name": "\u0627\u0628\u0646 \u0627\u0644\u0646\u062f\u064a\u0645", "name:ar": "\u0627\u0628\u0646 \u0627\u0644\u0646\u062f\u064a\u0645", "name:en": "ebn al nadeem"}}, {"type": "node", "id": 4504515092, "lat": 32.6182181, "lon": 43.9985433, "tags": {"amenity": "school", "name": "\u0627\u0628\u0646 \u062d\u064a\u0627\u0646 \u0627\u0644\u0627\u0633\u0627\u0633\u064a\u0629 2", "name:ar": "\u0627\u0628\u0646 \u062d\u064a\u0627\u0646 \u0627\u0644\u0627\u0633\u0627\u0633\u064a\u0629 2", "name:en": "Ibn Haian alassasia2"}}, {"type": "node", "id": 4504515093, "lat": 32.593368, "lon": 44.027222, "tags": {"amenity": "school", "name": "\u0627\u0628\u062a\u062f\u0627\u0626\u064a\u0629 \u0627\u0633\u0645\u0627\u0621 \u0627\u0644\u0627\u0633\u0627\u0633\u064a\u0629 /\u0661", "name:ar": "\u0627\u0628\u062a\u062f\u0627\u0626\u064a\u0629 \u0627\u0633\u0645\u0627\u0621 \u0627\u0644\u0627\u0633\u0627\u0633\u064a\u0629 /\u0661", "name:en": "Assmaa' Primary \\1"}}, {"type": "node", "id": 4504541189, "lat": 32.5888446, "lon": 44.0261787, "tags": {"amenity": "school", "contact:facebook": "https://www.facebook.com/\u0627\u0639\u062f\u0627\u062f\u064a\u0629-\u0627\u0644\u0646\u062c\u0627\u062d-392836974845737/", "name": "\u0625\u0639\u062f\u0627\u062f\u064a\u0629 \u0627\u0644\u0646\u062c\u0627\u062d \u0644\u0644\u0628\u0646\u0627\u062a", "name:ar": "\u0625\u0639\u062f\u0627\u062f\u064a\u0629 \u0627\u0644\u0646\u062c\u0627\u062d \u0644\u0644\u0628\u0646\u0627\u062a", "name:en": "Al-Najah Preparatory For Girls"}}, {"type": "node", "id": 4504541191, "lat": 32.597083, "lon": 44.01125, "tags": {"amenity": "school", "name": "\u0627\u0644\u0634\u0647\u064a\u062f \u0627\u0628\u0648 \u0627\u0644\u0645\u0639\u0627\u0644\u064a \u0627\u0644\u0627\u0633\u0627\u0633\u064a\u0629 2", "name:ar": "\u0627\u0644\u0634\u0647\u064a\u062f \u0627\u0628\u0648 \u0627\u0644\u0645\u0639\u0627\u0644\u064a \u0627\u0644\u0627\u0633\u0627\u0633\u064a\u0629 2", "name:en": "Alshaheed Abu Al-Maaly alassasia2"}}, {"type": "node", "id": 4504541192, "lat": 32.591861, "lon": 44.0245, "tags": {"amenity": "school", "name": "\u0627\u0628\u062a\u062f\u0627\u0626\u064a\u0629 \u0627\u0644\u062e\u0632\u0631\u062c\u064a\u0629", "name:ar": "\u0627\u0628\u062a\u062f\u0627\u0626\u064a\u0629 \u0627\u0644\u062e\u0632\u0631\u062c\u064a\u0629", "name:en": "Al-Khazrajeeya"}}, {"type": "node", "id": 4504541193, "lat": 32.58175, "lon": 44.016361, "tags": {"amenity": "school", "name": "\u062b\u0648\u0631\u0629 \u0627\u0644\u062d\u0633\u064a\u0646", "name:ar": "\u062b\u0648\u0631\u0629 \u0627\u0644\u062d\u0633\u064a\u0646", "name:en": "Thwart al-Hussain"}}, {"type": "node", "id": 4504555490, "lat": 32.61825, "lon": 43.998472, "tags": {"amenity": "school", "name": "\u0627\u0644\u0627\u0646\u062a\u0641\u0627\u0636\u0629 \u0627\u0644\u0634\u0639\u0628\u0627\u0646\u064a\u0629 \u0627\u0644\u0645\u0633\u0627\u0626\u064a\u0629", "name:ar": "\u0627\u0644\u0627\u0646\u062a\u0641\u0627\u0636\u0629 \u0627\u0644\u0634\u0639\u0628\u0627\u0646\u064a\u0629 \u0627\u0644\u0645\u0633\u0627\u0626\u064a\u0629", "name:en": "Al-intifadha alshabania (evening)"}}, {"type": "node", "id": 4504593891, "lat": 32.637028, "lon": 43.987611, "tags": {"amenity": "school", "name": "\u0627\u0628\u062a\u062f\u0627\u0626\u064a\u0629 \u0627\u0644\u0633\u064a\u062f\u0629 \u0646\u0631\u062c\u0633", "name:ar": "\u0627\u0628\u062a\u062f\u0627\u0626\u064a\u0629 \u0627\u0644\u0633\u064a\u062f\u0629 \u0646\u0631\u062c\u0633", "name:en": "Al-sayeda Narjes"}}, {"type": "node", "id": 4504593892, "lat": 32.6360862, "lon": 43.9750683, "tags": {"amenity": "school", "name": "\u0627\u0628\u062a\u062f\u0627\u0626\u064a\u0629 \u062c\u0639\u0641\u0631 \u0627\u0644\u0637\u064a\u0627\u0631", "name:ar": "\u0627\u0628\u062a\u062f\u0627\u0626\u064a\u0629 \u062c\u0639\u0641\u0631 \u0627\u0644\u0637\u064a\u0627\u0631", "name:en": "Jafer Al-taiyar"}}, {"type": "node", "id": 4504593893, "lat": 32.6369026, "lon": 43.9875088, "tags": {"amenity": "school", "name": "\u0627\u0628\u062a\u062f\u0627\u0626\u064a\u0629 \u0633\u0639\u064a\u062f \u0628\u0646 \u062c\u0628\u064a\u0631", "name:ar": "\u0627\u0628\u062a\u062f\u0627\u0626\u064a\u0629 \u0633\u0639\u064a\u062f \u0628\u0646 \u062c\u0628\u064a\u0631", "name:en": "Saeed Bin Joubair"}}, {"type": "node", "id": 4504630993, "lat": 32.6489035, "lon": 43.982073, "tags": {"amenity": "school", "name": "\u0627\u0628\u062a\u062f\u0627\u0626\u064a\u0629 \u0627\u0644\u0628\u062a\u0648\u0644", "name:ar": "\u0627\u0628\u062a\u062f\u0627\u0626\u064a\u0629 \u0627\u0644\u0628\u062a\u0648\u0644", "name:en": "Al-batoul"}}, {"type": "node", "id": 4504630995, "lat": 32.6155127, "lon": 43.9769527, "tags": {"amenity": "school", "name": "\u0627\u0628\u062a\u062f\u0627\u0626\u064a\u0629 \u0633\u0628\u0623", "name:ar": "\u0627\u0628\u062a\u062f\u0627\u0626\u064a\u0629 \u0633\u0628\u0623", "name:en": "Saba'"}}, {"type": "node", "id": 4504631191, "lat": 32.6483974, "lon": 43.9825053, "tags": {"amenity": "school", "name": "\u0627\u0628\u062a\u062f\u0627\u0626\u064a\u0629 \u0646\u0633\u064a\u0628\u0629 \u0627\u0644\u0627\u0646\u0635\u0627\u0631\u064a\u0629", "name:ar": "\u0627\u0628\u062a\u062f\u0627\u0626\u064a\u0629 \u0646\u0633\u064a\u0628\u0629 \u0627\u0644\u0627\u0646\u0635\u0627\u0631\u064a\u0629", "name:en": "Naseeba Al-ansaareya"}}, {"type": "node", "id": 4504631193, "lat": 32.6153269, "lon": 43.9770552, "tags": {"amenity": "school", "name": "\u0627\u0628\u062a\u062f\u0627\u0626\u064a\u0629 \u0627\u0644\u062e\u0648\u0627\u0631\u0632\u0645\u064a", "name:ar": "\u0627\u0628\u062a\u062f\u0627\u0626\u064a\u0629 \u0627\u0644\u062e\u0648\u0627\u0631\u0632\u0645\u064a", "name:en": "Al-khawarezme"}}, {"type": "node", "id": 4504631692, "lat": 32.621139, "lon": 43.972639, "tags": {"amenity": "school", "name": "\u0627\u0628\u062a\u062f\u0627\u0626\u064a\u0629 \u0627\u0644\u0627\u0642\u0635\u0649", "name:ar": "\u0627\u0628\u062a\u062f\u0627\u0626\u064a\u0629 \u0627\u0644\u0627\u0642\u0635\u0649", "name:en": "Al-aqqsaa"}}, {"type": "node", "id": 4504641394, "lat": 32.6364177, "lon": 43.9748214, "tags": {"amenity": "school", "name": "\u0627\u0628\u062a\u062f\u0627\u0626\u064a\u0629 \u0645\u0633\u0644\u0645 \u0628\u0646 \u0639\u0642\u064a\u0644", "name:ar": "\u0627\u0628\u062a\u062f\u0627\u0626\u064a\u0629 \u0645\u0633\u0644\u0645 \u0628\u0646 \u0639\u0642\u064a\u0644", "name:en": "Muslim Bin Aqeel"}}, {"type": "node", "id": 4504656989, "lat": 32.6162551, "lon": 43.9774368, "tags": {"amenity": "school", "name": "\u0627\u0628\u062a\u062f\u0627\u0626\u064a\u0629 \u0627\u0644\u0627\u0633\u0627\u0648\u0631", "name:ar": "\u0627\u0628\u062a\u062f\u0627\u0626\u064a\u0629 \u0627\u0644\u0627\u0633\u0627\u0648\u0631", "name:en": "Al-asaawer"}}, {"type": "node", "id": 4504657189, "lat": 32.6182342, "lon": 43.9799899, "tags": {"amenity": "school", "name": "\u0627\u0628\u062a\u062f\u0627\u0626\u064a\u0629 \u0627\u0644\u0627\u0639\u0631\u0627\u0641", "name:ar": "\u0627\u0628\u062a\u062f\u0627\u0626\u064a\u0629 \u0627\u0644\u0627\u0639\u0631\u0627\u0641", "name:en": "Al-a'raaf"}}, {"type": "node", "id": 4504657689, "lat": 32.6473002, "lon": 43.9889532, "tags": {"amenity": "school", "name": "\u0627\u0628\u062a\u062f\u0627\u0626\u064a\u0629 \u0627\u0644\u0647\u0646\u0627\u0621", "name:ar": "\u0627\u0628\u062a\u062f\u0627\u0626\u064a\u0629 \u0627\u0644\u0647\u0646\u0627\u0621", "name:en": "Al-hanaa"}}, {"type": "node", "id": 4504657989, "lat": 32.6335696, "lon": 43.9778954, "tags": {"amenity": "school", "name": "\u0627\u0628\u062a\u062f\u0627\u0626\u064a\u0629 \u0641\u0627\u0637\u0645\u0629 \u0628\u0646\u062a \u062d\u0632\u0627\u0645", "name:ar": "\u0627\u0628\u062a\u062f\u0627\u0626\u064a\u0629 \u0641\u0627\u0637\u0645\u0629 \u0628\u0646\u062a \u062d\u0632\u0627\u0645", "name:en": "Fatima Bint Huzaam"}}, {"type": "node", "id": 4504658089, "lat": 32.621556, "lon": 43.973306, "tags": {"amenity": "school", "name": "\u0627\u0628\u062a\u062f\u0627\u0626\u064a\u0629 \u0627\u0644\u062c\u0644\u064a\u0644", "name:ar": "\u0627\u0628\u062a\u062f\u0627\u0626\u064a\u0629 \u0627\u0644\u062c\u0644\u064a\u0644", "name:en": "Al-jaleel"}}, {"type": "node", "id": 4504673889, "lat": 32.6210689, "lon": 43.9727004, "tags": {"amenity": "school", "name": "\u0627\u0628\u062a\u062f\u0627\u0626\u064a\u0629 \u0627\u0644\u0627\u0645\u0629 \u0627\u0644\u0639\u0631\u0628\u064a\u0629", "name:ar": "\u0627\u0628\u062a\u062f\u0627\u0626\u064a\u0629 \u0627\u0644\u0627\u0645\u0629 \u0627\u0644\u0639\u0631\u0628\u064a\u0629", "name:en": "Al-oumma Al-arabeeya"}}, {"type": "node", "id": 4504713792, "lat": 32.614778, "lon": 44.0145, "tags": {"amenity": "school", "name": "\u0627\u0628\u062a\u062f\u0627\u0626\u064a\u0629 \u0632\u0647\u064a\u0631 \u0628\u0646 \u0627\u0644\u0642\u064a\u0646", "name:ar": "\u0627\u0628\u062a\u062f\u0627\u0626\u064a\u0629 \u0632\u0647\u064a\u0631 \u0628\u0646 \u0627\u0644\u0642\u064a\u0646", "name:en": "Zuhair Bin Al-Qayen"}}, {"type": "node", "id": 4504713793, "lat": 32.6169576, "lon": 44.00286, "tags": {"amenity": "school", "name": "\u0627\u0628\u062a\u062f\u0627\u0626\u064a\u0629 \u0627\u0644\u0634\u0647\u064a\u062f \u0645\u0633\u0644\u0645 \u0627\u0644\u0637\u0627\u0626\u064a", "name:ar": "\u0627\u0628\u062a\u062f\u0627\u0626\u064a\u0629 \u0627\u0644\u0634\u0647\u064a\u062f \u0645\u0633\u0644\u0645 \u0627\u0644\u0637\u0627\u0626\u064a", "name:en": "Al-shaheed MuslimAl-Taee"}}, {"type": "node", "id": 4504713794, "lat": 32.605722, "lon": 44.002833, "tags": {"amenity": "school", "name": "\u0627\u0628\u062a\u062f\u0627\u0626\u064a\u0629 \u0627\u0644\u0641\u0627\u0637\u0645\u064a\u0627\u062a", "name:ar": "\u0627\u0628\u062a\u062f\u0627\u0626\u064a\u0629 \u0627\u0644\u0641\u0627\u0637\u0645\u064a\u0627\u062a", "name:en": "Al-Fatimeyat"}}, {"type": "node", "id": 4504713795, "lat": 32.595583, "lon": 44.02775, "tags": {"amenity": "school", "name": "\u0627\u0628\u062a\u062f\u0627\u0626\u064a\u0629 \u0627\u0644\u0627\u062a\u062d\u0627\u062f", "name:ar": "\u0627\u0628\u062a\u062f\u0627\u0626\u064a\u0629 \u0627\u0644\u0627\u062a\u062d\u0627\u062f", "name:en": "Al-etehaad"}}, {"type": "node", "id": 4504713796, "lat": 32.6018372, "lon": 43.9971726, "tags": {"amenity": "school", "name": "\u0627\u0628\u062a\u062f\u0627\u0626\u064a\u0629 \u0645\u0635\u0637\u0641\u0649 \u062c\u0645\u0627\u0644 \u0627\u0644\u062f\u064a\u0646", "name:ar": "\u0627\u0628\u062a\u062f\u0627\u0626\u064a\u0629 \u0645\u0635\u0637\u0641\u0649 \u062c\u0645\u0627\u0644 \u0627\u0644\u062f\u064a\u0646", "name:en": "Moustafa Jamal Al-Deen"}}, {"type": "node", "id": 4504713797, "lat": 32.5975266, "lon": 44.013629, "tags": {"amenity": "school", "name": "\u0627\u0628\u062a\u062f\u0627\u0626\u064a\u0629 \u0627\u0644\u0634\u0631\u064a\u0641 \u0627\u0644\u0631\u0636\u064a", "name:ar": "\u0627\u0628\u062a\u062f\u0627\u0626\u064a\u0629 \u0627\u0644\u0634\u0631\u064a\u0641 \u0627\u0644\u0631\u0636\u064a", "name:en": "Al-Shareef Al-Radhee"}}, {"type": "node", "id": 4504718391, "lat": 32.6214399, "lon": 43.9733862, "tags": {"amenity": "school", "name": "\u0627\u0628\u062a\u062f\u0627\u0626\u064a\u0629 \u0627\u0644\u062d\u0633\u0646 \u0627\u0644\u0639\u0633\u0643\u0631\u064a \u0639", "name:ar": "\u0627\u0628\u062a\u062f\u0627\u0626\u064a\u0629 \u0627\u0644\u062d\u0633\u0646 \u0627\u0644\u0639\u0633\u0643\u0631\u064a \u0639", "name:en": "Al-Hassan Al-Askaree"}}, {"type": "node", "id": 4504752693, "lat": 32.623278, "lon": 43.983611, "tags": {"amenity": "school", "name": "\u0627\u0628\u062a\u062f\u0627\u0626\u064a\u0629 \u0631\u0642\u064a\u0629 \u0628\u0646\u062a \u0627\u0644\u062d\u0633\u064a\u0646", "name:ar": "\u0627\u0628\u062a\u062f\u0627\u0626\u064a\u0629 \u0631\u0642\u064a\u0629 \u0628\u0646\u062a \u0627\u0644\u062d\u0633\u064a\u0646", "name:en": "Roukaya Bint Al-Hussain"}}, {"type": "node", "id": 4504753193, "lat": 32.647185, "lon": 43.9886499, "tags": {"amenity": "school", "name": "\u0627\u0628\u062a\u062f\u0627\u0626\u064a\u0629 \u0633\u0648\u0645\u0631", "name:ar": "\u0645\u062f\u0631\u0633\u0629 \u0633\u0648\u0645\u0631 \u0627\u0644\u0627\u0628\u062a\u062f\u0627\u0626\u064a\u0629", "name:en": "Sumar"}}, {"type": "node", "id": 4504753194, "lat": 32.649013, "lon": 43.9861217, "tags": {"amenity": "school", "name": "\u0627\u0628\u062a\u062f\u0627\u0626\u064a\u0629 \u0627\u0644\u062d\u0631", "name:ar": "\u0627\u0628\u062a\u062f\u0627\u0626\u064a\u0629 \u0627\u0644\u062d\u0631"}}, {"type": "node", "id": 4504753196, "lat": 32.5804113, "lon": 43.9988853, "tags": {"amenity": "school", "name": "\u0627\u0628\u062a\u062f\u0627\u0626\u064a\u0629 \u0627\u0644\u0645\u062c\u0627\u0647\u062f\u064a\u0646", "name:ar": "\u0627\u0628\u062a\u062f\u0627\u0626\u064a\u0629 \u0627\u0644\u0645\u062c\u0627\u0647\u062f\u064a\u0646", "name:en": "Al-moujahedeen"}}, {"type": "node", "id": 4504753197, "lat": 32.601889, "lon": 43.997278, "tags": {"amenity": "school", "name": "\u0645\u0635\u0639\u0628 \u0628\u0646 \u0639\u0645\u064a\u0631", "name:ar": "\u0645\u0635\u0639\u0628 \u0628\u0646 \u0639\u0645\u064a\u0631", "name:en": "mossaab ben ommaer"}}, {"type": "node", "id": 4504753198, "lat": 32.593028, "lon": 44.018, "tags": {"addr:street": "\u0634\u0627\u0631\u0639 \u062d\u064a \u0627\u0644\u062d\u0633\u064a\u0646", "amenity": "school", "name": "\u0627\u0628\u062a\u062f\u0627\u0626\u064a\u0629 \u0633\u0641\u064a\u0646\u0629 \u0627\u0644\u0646\u062c\u0627\u0629", "name:ar": "\u0627\u0628\u062a\u062f\u0627\u0626\u064a\u0629 \u0633\u0641\u064a\u0646\u0629 \u0627\u0644\u0646\u062c\u0627\u0629", "name:en": "Safeenat Al-najaat"}}, {"type": "node", "id": 4504760891, "lat": 32.581333, "lon": 44.019556, "tags": {"amenity": "school", "name": "\u0627\u0628\u062a\u062f\u0627\u0626\u064a\u0629 \u0641\u0627\u0637\u0645\u0629 \u0627\u0644\u0632\u0647\u0631\u0627\u0621", "name:ar": "\u0627\u0628\u062a\u062f\u0627\u0626\u064a\u0629 \u0641\u0627\u0637\u0645\u0629 \u0627\u0644\u0632\u0647\u0631\u0627\u0621", "name:en": "Fatima Al-Zahraa"}}, {"type": "node", "id": 4504760892, "lat": 32.5811552, "lon": 44.0197845, "tags": {"amenity": "school", "name": "\u0627\u0628\u062a\u062f\u0627\u0626\u064a\u0629 \u0627\u0644\u062d\u0633\u0646\u064a\u0646", "name:ar": "\u0627\u0628\u062a\u062f\u0627\u0626\u064a\u0629 \u0627\u0644\u062d\u0633\u0646\u064a\u0646", "name:en": "Al-Hassanain"}}, {"type": "node", "id": 4504770391, "lat": 32.6318767, "lon": 43.9673274, "tags": {"amenity": "school", "name": "\u0627\u0628\u062a\u062f\u0627\u0626\u064a\u0629 \u0627\u0644\u0646\u0627\u0635\u0631\u0629", "name:ar": "\u0627\u0628\u062a\u062f\u0627\u0626\u064a\u0629 \u0627\u0644\u0646\u0627\u0635\u0631\u0629", "name:en": "Al-naasera"}}, {"type": "node", "id": 4504770990, "lat": 32.6128354, "lon": 44.0099977, "tags": {"amenity": "school", "name": "\u0627\u0628\u062a\u062f\u0627\u0626\u064a\u0629 \u0642\u0645\u0631 \u0628\u0646\u064a \u0647\u0627\u0634\u0645", "name:ar": "\u0627\u0628\u062a\u062f\u0627\u0626\u064a\u0629 \u0642\u0645\u0631 \u0628\u0646\u064a \u0647\u0627\u0634\u0645", "name:en": "Qamar Bani Hashem"}}, {"type": "node", "id": 4504771189, "lat": 32.601377, "lon": 44.0190076, "tags": {"amenity": "school", "name": "\u0627\u0628\u062a\u062f\u0627\u0626\u064a\u0629 \u0627\u0631\u0636 \u0627\u0644\u062d\u0633\u064a\u0646", "name:ar": "\u0627\u0628\u062a\u062f\u0627\u0626\u064a\u0629 \u0627\u0631\u0636 \u0627\u0644\u062d\u0633\u064a\u0646", "name:en": "Ard Al-Hussain Primary school"}}, {"type": "node", "id": 4504773091, "lat": 32.5826479, "lon": 44.0129772, "tags": {"amenity": "school", "name": "\u0627\u0628\u062a\u062f\u0627\u0626\u064a\u0629 \u0646\u0647\u062c \u0627\u0644\u0628\u0644\u0627\u063a\u0629 \u0627\u0644\u0627\u0633\u0627\u0633\u064a\u0629 /\u0661", "name:ar": "\u0627\u0628\u062a\u062f\u0627\u0626\u064a\u0629 \u0646\u0647\u062c \u0627\u0644\u0628\u0644\u0627\u063a\u0629 \u0627\u0644\u0627\u0633\u0627\u0633\u064a\u0629 /\u0661", "name:en": "Nahj Al-Balagha Primary \\1"}}, {"type": "node", "id": 4504781790, "lat": 32.5810054, "lon": 43.9992826, "tags": {"amenity": "school", "name": "\u0627\u0628\u062a\u062f\u0627\u0626\u064a\u0629 \u0627\u0644\u0627\u0626\u0645\u0629", "name:ar": "\u0627\u0628\u062a\u062f\u0627\u0626\u064a\u0629 \u0627\u0644\u0627\u0626\u0645\u0629", "name:en": "Al-A'amma"}}, {"type": "node", "id": 4504781891, "lat": 32.614639, "lon": 44.001278, "tags": {"amenity": "school", "name": "\u0627\u0628\u062a\u062f\u0627\u0626\u064a\u0629 \u0627\u0628\u0646 \u062d\u064a\u0627\u0646 \u0627\u0644\u0627\u0633\u0627\u0633\u064a\u0629 /\u0661", "name:ar": "\u0627\u0628\u062a\u062f\u0627\u0626\u064a\u0629 \u0627\u0628\u0646 \u062d\u064a\u0627\u0646 \u0627\u0644\u0627\u0633\u0627\u0633\u064a\u0629 /\u0661", "name:en": "Ibn Haiyan Primary \\1"}}, {"type": "node", "id": 4504781991, "lat": 32.5996687, "lon": 44.0118291, "tags": {"amenity": "school", "name": "\u0627\u0628\u062a\u062f\u0627\u0626\u064a\u0629 \u0627\u0644\u0634\u0647\u064a\u062f \u0627\u0628\u0648 \u0627\u0644\u0645\u0639\u0627\u0644\u064a \u0627\u0644\u0627\u0633\u0627\u0633\u064a\u0629 /\u0661", "name:ar": "\u0627\u0628\u062a\u062f\u0627\u0626\u064a\u0629 \u0627\u0644\u0634\u0647\u064a\u062f \u0627\u0628\u0648 \u0627\u0644\u0645\u0639\u0627\u0644\u064a \u0627\u0644\u0627\u0633\u0627\u0633\u064a\u0629 /\u0661", "name:en": "Al-shaheed Abo Al-Ma'aali Primary \\1"}}, {"type": "node", "id": 4504790793, "lat": 32.6094179, "lon": 43.9944438, "tags": {"amenity": "school", "name": "\u0627\u0628\u062a\u062f\u0627\u0626\u064a\u0629 \u0627\u0644\u0645\u0635\u0637\u0641\u0649", "name:ar": "\u0627\u0628\u062a\u062f\u0627\u0626\u064a\u0629 \u0627\u0644\u0645\u0635\u0637\u0641\u0649", "name:en": "Al-moustafa"}}, {"type": "node", "id": 4504790794, "lat": 32.631611, "lon": 43.992056, "tags": {"amenity": "school", "name": "\u0627\u0628\u062a\u062f\u0627\u0626\u064a\u0629 \u0627\u0628\u0648 \u0627\u0644\u0634\u0647\u062f\u0627\u0621", "name:ar": "\u0627\u0628\u062a\u062f\u0627\u0626\u064a\u0629 \u0627\u0628\u0648 \u0627\u0644\u0634\u0647\u062f\u0627\u0621", "name:en": "Abo Al-shouhadaa"}}, {"type": "node", "id": 4504835789, "lat": 32.6046189, "lon": 44.0082455, "tags": {"amenity": "school", "name": "\u0627\u0628\u062a\u062f\u0627\u0626\u064a\u0629 \u0639\u0644\u064a \u0627\u0644\u0627\u0643\u0628\u0631", "name:ar": "\u0627\u0628\u062a\u062f\u0627\u0626\u064a\u0629 \u0639\u0644\u064a \u0627\u0644\u0627\u0643\u0628\u0631", "name:en": "Ali Al-Akbar"}}, {"type": "node", "id": 4504835790, "lat": 32.5770868, "lon": 44.007624, "tags": {"amenity": "school", "name": "\u0627\u0628\u062a\u062f\u0627\u0626\u064a\u0629 \u0627\u0644\u0628\u0631\u0627\u0621\u0629", "name:ar": "\u0627\u0628\u062a\u062f\u0627\u0626\u064a\u0629 \u0627\u0644\u0628\u0631\u0627\u0621\u0629", "name:en": "Al-Baraa'a school"}}, {"type": "node", "id": 4504835889, "lat": 32.620583, "lon": 44.008806, "tags": {"amenity": "school", "name": "\u0627\u0628\u062a\u062f\u0627\u0626\u064a\u0629 \u0645\u0635\u0637\u0641\u0649 \u062c\u0648\u0627\u062f", "name:ar": "\u0627\u0628\u062a\u062f\u0627\u0626\u064a\u0629 \u0645\u0635\u0637\u0641\u0649 \u062c\u0648\u0627\u062f", "name:en": "Mostafa Jawaad"}}, {"type": "node", "id": 4504835894, "lat": 32.577, "lon": 44.007778, "tags": {"amenity": "school", "name": "\u0627\u0628\u062a\u062f\u0627\u0626\u064a\u0629 \u0645\u062d\u0645\u062f \u0628\u0646 \u0627\u0644\u062d\u0646\u0641\u064a\u0629", "name:ar": "\u0627\u0628\u062a\u062f\u0627\u0626\u064a\u0629 \u0645\u062d\u0645\u062f \u0628\u0646 \u0627\u0644\u062d\u0646\u0641\u064a\u0629", "name:en": "Mohamed Ibn Al-Hanafeiya"}}, {"type": "node", "id": 4504836089, "lat": 32.6063691, "lon": 44.0361715, "tags": {"amenity": "school", "name": "\u0627\u0628\u062a\u062f\u0627\u0626\u064a\u0629 \u0627\u0644\u062e\u0646\u062f\u0642", "name:ar": "\u0627\u0628\u062a\u062f\u0627\u0626\u064a\u0629 \u0627\u0644\u062e\u0646\u062f\u0642", "name:en": "Al-Khandak"}}, {"type": "node", "id": 4504891889, "lat": 32.6193394, "lon": 44.0368433, "tags": {"amenity": "school", "name": "\u0627\u0628\u062a\u062f\u0627\u0626\u064a\u0629 \u0641\u0627\u0637\u0645\u0629 \u0627\u0644\u0635\u063a\u0631\u0649", "name:ar": "\u0627\u0628\u062a\u062f\u0627\u0626\u064a\u0629 \u0641\u0627\u0637\u0645\u0629 \u0627\u0644\u0635\u063a\u0631\u0649", "name:en": "Fatima Al-Sughraa"}}, {"type": "node", "id": 4505586191, "lat": 32.587, "lon": 44.03725, "tags": {"amenity": "school", "name": "\u0627\u0628\u062a\u062f\u0627\u0626\u064a\u0629 \u0627\u062d\u062f", "name:ar": "\u0627\u0628\u062a\u062f\u0627\u0626\u064a\u0629 \u0627\u062d\u062f", "name:en": "Ouhud"}}, {"type": "node", "id": 4505610698, "lat": 32.5901501, "lon": 44.0325023, "tags": {"amenity": "school", "name": "\u0627\u0628\u062a\u062f\u0627\u0626\u064a\u0629 \u0627\u0644\u0639\u062a\u0631\u0629 \u0627\u0644\u0637\u0627\u0647\u0631\u0629", "name:ar": "\u0627\u0628\u062a\u062f\u0627\u0626\u064a\u0629 \u0627\u0644\u0639\u062a\u0631\u0629 \u0627\u0644\u0637\u0627\u0647\u0631\u0629", "name:en": "Al-ettra Al-tahera"}}, {"type": "node", "id": 4505611491, "lat": 32.6187576, "lon": 43.9840484, "tags": {"amenity": "school", "name": "\u0627\u0628\u062a\u062f\u0627\u0626\u064a\u0629 \u0627\u0644\u062d\u062f\u0628\u0627\u0621", "name:ar": "\u0627\u0628\u062a\u062f\u0627\u0626\u064a\u0629 \u0627\u0644\u062d\u062f\u0628\u0627\u0621", "name:en": "Al-Hadbaa'"}}, {"type": "node", "id": 4505611495, "lat": 32.6309325, "lon": 43.9919303, "tags": {"amenity": "school", "name": "\u0627\u0628\u062a\u062f\u0627\u0626\u064a\u0629 \u0627\u0644\u0633\u064a\u062f\u0629 \u0647\u0627\u062c\u0631", "name:ar": "\u0627\u0628\u062a\u062f\u0627\u0626\u064a\u0629 \u0627\u0644\u0633\u064a\u062f\u0629 \u0647\u0627\u062c\u0631", "name:en": "Al-sayeida Hajer"}}, {"type": "node", "id": 4505616492, "lat": 32.6225, "lon": 44.000917, "tags": {"amenity": "school", "name": "\u0627\u0628\u062a\u062f\u0627\u0626\u064a\u0629 \u0627\u0644\u062a\u0648\u062c\u064a\u0647", "name:ar": "\u0627\u0628\u062a\u062f\u0627\u0626\u064a\u0629 \u0627\u0644\u062a\u0648\u062c\u064a\u0647", "name:en": "Al-taojeeh"}}, {"type": "node", "id": 4505616794, "lat": 32.6127322, "lon": 44.009834, "tags": {"amenity": "school", "name": "\u0627\u0628\u062a\u062f\u0627\u0626\u064a\u0629 \u0627\u0644\u0633\u064a\u0641 \u0627\u0644\u0627\u0633\u0644\u0627\u0645\u064a", "name:ar": "\u0627\u0628\u062a\u062f\u0627\u0626\u064a\u0629 \u0627\u0644\u0633\u064a\u0641 \u0627\u0644\u0627\u0633\u0644\u0627\u0645\u064a", "name:en": "Al-saif Al-islamee"}}, {"type": "node", "id": 4505622994, "lat": 32.62175, "lon": 43.9915, "tags": {"amenity": "school", "name": "\u0627\u0628\u062a\u062f\u0627\u0626\u064a\u0629 \u0628\u0644\u0642\u064a\u0633", "name:ar": "\u0627\u0628\u062a\u062f\u0627\u0626\u064a\u0629 \u0628\u0644\u0642\u064a\u0633", "name:en": "Balqees"}}, {"type": "node", "id": 4505622995, "lat": 32.602, "lon": 43.997472, "tags": {"amenity": "school", "name": "\u0627\u0644\u0645\u0646\u0647\u0644", "name:ar": "\u0627\u0644\u0645\u0646\u0647\u0644", "name:en": "al manhal"}}, {"type": "node", "id": 4505622997, "lat": 32.578833, "lon": 44.023389, "tags": {"amenity": "school", "name": "\u0627\u0628\u062a\u062f\u0627\u0626\u064a\u0629 \u0628\u0646\u0648 \u0647\u0627\u0634\u0645", "name:ar": "\u0627\u0628\u062a\u062f\u0627\u0626\u064a\u0629 \u0628\u0646\u0648 \u0647\u0627\u0634\u0645", "name:en": "Banou Hashem"}}, {"type": "node", "id": 4505623097, "lat": 32.6020693, "lon": 43.997565, "tags": {"amenity": "school", "name": "\u0627\u0628\u062a\u062f\u0627\u0626\u064a\u0629 \u0627\u0644\u0627\u0643\u0631\u0645\u064a\u0646", "name:ar": "\u0627\u0628\u062a\u062f\u0627\u0626\u064a\u0629 \u0627\u0644\u0627\u0643\u0631\u0645\u064a\u0646", "name:en": "Al-akrameen"}}, {"type": "node", "id": 4505627190, "lat": 32.6084594, "lon": 43.994829, "tags": {"amenity": "school", "name": "\u0627\u0628\u062a\u062f\u0627\u0626\u064a\u0629 \u0627\u0644\u0635\u062d\u0627\u0628\u0629", "name:ar": "\u0627\u0628\u062a\u062f\u0627\u0626\u064a\u0629 \u0627\u0644\u0635\u062d\u0627\u0628\u0629", "name:en": "Al-Sahaba"}}, {"type": "node", "id": 4505628690, "lat": 32.6075879, "lon": 43.9946253, "tags": {"amenity": "school", "name": "\u0627\u0628\u062a\u062f\u0627\u0626\u064a\u0629 \u0648\u0647\u0631\u0627\u0646", "name:ar": "\u0627\u0628\u062a\u062f\u0627\u0626\u064a\u0629 \u0648\u0647\u0631\u0627\u0646", "name:en": "Wahran"}}, {"type": "node", "id": 4505628691, "lat": 32.60771, "lon": 43.9948185, "tags": {"amenity": "school", "name": "\u0627\u0628\u062a\u062f\u0627\u0626\u064a\u0629 \u0628\u0648\u0631 \u0633\u0639\u064a\u062f", "name:ar": "\u0627\u0628\u062a\u062f\u0627\u0626\u064a\u0629 \u0628\u0648\u0631 \u0633\u0639\u064a\u062f", "name:en": "Bour Saeed"}}, {"type": "node", "id": 4505636194, "lat": 32.587722, "lon": 44.035611, "tags": {"amenity": "school", "name": "\u0627\u0628\u062a\u062f\u0627\u0626\u064a\u0629 \u064a\u0627\u0641\u0627", "name:ar": "\u0627\u0628\u062a\u062f\u0627\u0626\u064a\u0629 \u064a\u0627\u0641\u0627", "name:en": "Yafa"}}, {"type": "node", "id": 4505636195, "lat": 32.6082682, "lon": 43.982326, "tags": {"amenity": "school", "name": "\u0627\u0628\u062a\u062f\u0627\u0626\u064a\u0629 \u0627\u0644\u0627\u0633\u0631\u0627\u0621", "name:ar": "\u0627\u0628\u062a\u062f\u0627\u0626\u064a\u0629 \u0627\u0644\u0627\u0633\u0631\u0627\u0621", "name:en": "Al-essraa"}}, {"type": "node", "id": 4505636789, "lat": 32.620028, "lon": 43.995833, "tags": {"amenity": "school", "name": "\u0627\u0628\u062a\u062f\u0627\u0626\u064a\u0629 \u0627\u0644\u0627\u062e\u0644\u0627\u0635", "name:ar": "\u0627\u0628\u062a\u062f\u0627\u0626\u064a\u0629 \u0627\u0644\u0627\u062e\u0644\u0627\u0635", "name:en": "Al-ekhlaas"}}, {"type": "node", "id": 4505636790, "lat": 32.6263219, "lon": 43.9884392, "tags": {"amenity": "school", "name": "\u0627\u0628\u062a\u062f\u0627\u0626\u064a\u0629 \u062a\u0648\u0646\u0633", "name:ar": "\u0627\u0628\u062a\u062f\u0627\u0626\u064a\u0629 \u062a\u0648\u0646\u0633", "name:en": "Tunis"}}, {"type": "node", "id": 4505636889, "lat": 32.6253047, "lon": 43.9959431, "tags": {"amenity": "school", "name": "\u0627\u0628\u062a\u062f\u0627\u0626\u064a\u0629 \u0627\u0644\u0627\u0633\u062a\u0642\u0644\u0627\u0644", "name:ar": "\u0627\u0628\u062a\u062f\u0627\u0626\u064a\u0629 \u0627\u0644\u0627\u0633\u062a\u0642\u0644\u0627\u0644", "name:en": "Al-estiklal"}}, {"type": "node", "id": 4505649990, "lat": 32.5870952, "lon": 44.012745, "tags": {"amenity": "school", "name": "\u0627\u0628\u062a\u062f\u0627\u0626\u064a\u0629 \u0627\u0644\u0645\u062d\u0628\u0629", "name:ar": "\u0627\u0628\u062a\u062f\u0627\u0626\u064a\u0629 \u0627\u0644\u0645\u062d\u0628\u0629", "name:en": "Al-mahabba"}}, {"type": "node", "id": 4505657890, "lat": 32.6147576, "lon": 44.0012039, "tags": {"amenity": "school", "name": "\u0627\u0628\u062a\u062f\u0627\u0626\u064a\u0629 \u0639\u0628\u062f\u0627\u0644\u0644\u0647 \u0627\u0644\u0645\u062d\u0636", "name:ar": "\u0627\u0628\u062a\u062f\u0627\u0626\u064a\u0629 \u0639\u0628\u062f\u0627\u0644\u0644\u0647 \u0627\u0644\u0645\u062d\u0636", "name:en": "Abdullah Al-Mahadh"}}, {"type": "node", "id": 4505660489, "lat": 32.577861, "lon": 44.028389, "tags": {"amenity": "school", "name": "\u0627\u0628\u062a\u062f\u0627\u0626\u064a\u0629 \u0631\u0627\u0645 \u0627\u0644\u0644\u0647", "name:ar": "\u0627\u0628\u062a\u062f\u0627\u0626\u064a\u0629 \u0631\u0627\u0645 \u0627\u0644\u0644\u0647", "name:en": "Ram Allah"}}, {"type": "node", "id": 4505699399, "lat": 32.625606, "lon": 43.9956875, "tags": {"amenity": "school", "name": "\u0627\u0628\u062a\u062f\u0627\u0626\u064a\u0629 \u0627\u0644\u0645\u062f\u064a\u0646\u0629 \u0627\u0644\u0645\u0646\u0648\u0631\u0629", "name:ar": "\u0627\u0628\u062a\u062f\u0627\u0626\u064a\u0629 \u0627\u0644\u0645\u062f\u064a\u0646\u0629 \u0627\u0644\u0645\u0646\u0648\u0631\u0629", "name:en": "Al-madeena Al -mounawera"}}, {"type": "node", "id": 4505704893, "lat": 32.5872631, "lon": 44.0125099, "tags": {"amenity": "school", "name": "\u0627\u0628\u062a\u062f\u0627\u0626\u064a\u0629 \u0627\u0645 \u0627\u0644\u0645\u0624\u0645\u0646\u064a\u0646", "name:ar": "\u0627\u0628\u062a\u062f\u0627\u0626\u064a\u0629 \u0627\u0645 \u0627\u0644\u0645\u0624\u0645\u0646\u064a\u0646", "name:en": "Um Al-mo'meneen"}}, {"type": "node", "id": 4505704894, "lat": 32.5789633, "lon": 44.0231786, "tags": {"amenity": "school", "name": "\u0627\u0628\u062a\u062f\u0627\u0626\u064a\u0629 \u0627\u0644\u062a\u062d\u062f\u064a", "name:ar": "\u0627\u0628\u062a\u062f\u0627\u0626\u064a\u0629 \u0627\u0644\u062a\u062d\u062f\u064a", "name:en": "Al-tahadee"}}, {"type": "node", "id": 4505704895, "lat": 32.5877773, "lon": 44.0355361, "tags": {"amenity": "school", "name": "\u0627\u0628\u062a\u062f\u0627\u0626\u064a\u0629 \u0628\u064a\u0631\u0648\u062a", "name:ar": "\u0627\u0628\u062a\u062f\u0627\u0626\u064a\u0629 \u0628\u064a\u0631\u0648\u062a", "name:en": "Bairut"}}, {"type": "node", "id": 4505704993, "lat": 32.614861, "lon": 44.021944, "tags": {"amenity": "school", "name": "\u0627\u0628\u062a\u062f\u0627\u0626\u064a\u0629 \u0627\u0644\u0641\u0636\u064a\u0644\u0629", "name:ar": "\u0627\u0628\u062a\u062f\u0627\u0626\u064a\u0629 \u0627\u0644\u0641\u0636\u064a\u0644\u0629", "name:en": "Al-fadheela"}}, {"type": "node", "id": 4505704994, "lat": 32.6205121, "lon": 44.0088763, "tags": {"amenity": "school", "name": "\u0627\u0628\u062a\u062f\u0627\u0626\u064a\u0629 \u0642\u0631\u064a\u0634", "name:ar": "\u0627\u0628\u062a\u062f\u0627\u0626\u064a\u0629 \u0642\u0631\u064a\u0634", "name:en": "Qouraish"}}, {"type": "node", "id": 4505705093, "lat": 32.593009, "lon": 44.0178856, "tags": {"amenity": "school", "name": "\u0627\u0628\u062a\u062f\u0627\u0626\u064a\u0629 \u0627\u0644\u062d\u064a\u062f\u0631\u064a\u0629", "name:ar": "\u0627\u0628\u062a\u062f\u0627\u0626\u064a\u0629 \u0627\u0644\u062d\u064a\u062f\u0631\u064a\u0629", "name:en": "Al-haidareya"}}, {"type": "node", "id": 4505705094, "lat": 32.6199423, "lon": 43.9958865, "tags": {"amenity": "school", "name": "\u0627\u0628\u062a\u062f\u0627\u0626\u064a\u0629 \u0627\u0628\u0648 \u0637\u0627\u0644\u0628", "name:ar": "\u0627\u0628\u062a\u062f\u0627\u0626\u064a\u0629 \u0627\u0628\u0648 \u0637\u0627\u0644\u0628", "name:en": "Abo Talib"}}, {"type": "node", "id": 4505773691, "lat": 32.6233791, "lon": 43.9835507, "tags": {"amenity": "school", "name": "\u0627\u0628\u062a\u062f\u0627\u0626\u064a\u0629 \u0645\u0633\u0644\u0645 \u0628\u0646 \u0639\u0648\u0633\u062c\u0629", "name:ar": "\u0627\u0628\u062a\u062f\u0627\u0626\u064a\u0629 \u0645\u0633\u0644\u0645 \u0628\u0646 \u0639\u0648\u0633\u062c\u0629", "name:en": "Muslim Bin Ousaja"}}, {"type": "node", "id": 4505773693, "lat": 32.6306811, "lon": 43.9920722, "tags": {"amenity": "school", "name": "\u0627\u0628\u062a\u062f\u0627\u0626\u064a\u0629 \u0627\u0644\u0645\u0646\u062a\u0638\u0631", "name:ar": "\u0627\u0628\u062a\u062f\u0627\u0626\u064a\u0629 \u0627\u0644\u0645\u0646\u062a\u0638\u0631", "name:en": "Al-mountather"}}, {"type": "node", "id": 4505783789, "lat": 32.6218153, "lon": 43.9914719, "tags": {"amenity": "school", "name": "\u0627\u0628\u062a\u062f\u0627\u0626\u064a\u0629 \u0627\u0644\u062e\u0627\u0644\u062f\u064a\u0646", "name:ar": "\u0627\u0628\u062a\u062f\u0627\u0626\u064a\u0629 \u0627\u0644\u062e\u0627\u0644\u062f\u064a\u0646", "name:en": "Al-khaledeen"}}, {"type": "node", "id": 4505830590, "lat": 32.577916, "lon": 44.0282951, "tags": {"amenity": "school", "name": "\u0627\u0628\u062a\u062f\u0627\u0626\u064a\u0629 \u0627\u0644\u0627\u0645\u0627\u0645 \u0627\u0644\u0631\u0636\u0627 \u0639", "name:ar": "\u0627\u0628\u062a\u062f\u0627\u0626\u064a\u0629 \u0627\u0644\u0627\u0645\u0627\u0645 \u0627\u0644\u0631\u0636\u0627 \u0639", "name:en": "Al-Imam Al-Reda"}}, {"type": "node", "id": 4505830591, "lat": 32.6157034, "lon": 43.9962182, "tags": {"amenity": "school", "name": "\u0627\u0628\u062a\u062f\u0627\u0626\u064a\u0629 \u0627\u0644\u0633\u064a\u062f\u0629 \u0631\u0645\u0644\u0629", "name:ar": "\u0627\u0628\u062a\u062f\u0627\u0626\u064a\u0629 \u0627\u0644\u0633\u064a\u062f\u0629 \u0631\u0645\u0644\u0629", "name:en": "Al-saiyda Ramla"}}, {"type": "node", "id": 4505830594, "lat": 32.5839484, "lon": 44.0316769, "tags": {"amenity": "school", "name": "\u0627\u0628\u062a\u062f\u0627\u0626\u064a\u0629 \u0627\u0644\u0634\u0645\u0648\u062e", "name:ar": "\u0627\u0628\u062a\u062f\u0627\u0626\u064a\u0629 \u0627\u0644\u0634\u0645\u0648\u062e", "name:en": "Al-shoumoukh"}}, {"type": "node", "id": 4505840492, "lat": 32.60575, "lon": 44.018889, "tags": {"amenity": "school", "name": "\u0627\u0644\u0639\u0641\u0647", "name:ar": "\u0627\u0644\u0639\u0641\u0647", "name:en": "al eefaa"}}, {"type": "node", "id": 4505840493, "lat": 32.5868917, "lon": 44.0371902, "tags": {"amenity": "school", "name": "\u0627\u0628\u062a\u062f\u0627\u0626\u064a\u0629 \u062d\u064a\u0641\u0627", "name:ar": "\u0627\u0628\u062a\u062f\u0627\u0626\u064a\u0629 \u062d\u064a\u0641\u0627", "name:en": "Hayfaa"}}, {"type": "node", "id": 4505840494, "lat": 32.5838133, "lon": 44.0318907, "tags": {"amenity": "school", "name": "\u0627\u0628\u062a\u062f\u0627\u0626\u064a\u0629 \u0627\u0644\u062e\u0627\u0644\u0635\u0629", "name:ar": "\u0627\u0628\u062a\u062f\u0627\u0626\u064a\u0629 \u0627\u0644\u062e\u0627\u0644\u0635\u0629", "name:en": "Al-khalesa"}}, {"type": "node", "id": 4505841389, "lat": 32.6049396, "lon": 44.0080637, "tags": {"amenity": "school", "name": "\u0627\u0628\u062a\u062f\u0627\u0626\u064a\u0629 \u0627\u0635\u062d\u0627\u0628 \u0627\u0644\u0643\u0633\u0627\u0621", "name:ar": "\u0627\u0628\u062a\u062f\u0627\u0626\u064a\u0629 \u0627\u0635\u062d\u0627\u0628 \u0627\u0644\u0643\u0633\u0627\u0621", "name:en": "Ashab Al-keesaa'"}}, {"type": "node", "id": 4505841390, "lat": 32.600136, "lon": 44.0107958, "tags": {"amenity": "school", "name": "\u0627\u0628\u062a\u062f\u0627\u0626\u064a\u0629 \u0627\u0644\u0628\u0644\u0627\u062f", "name:ar": "\u0627\u0628\u062a\u062f\u0627\u0626\u064a\u0629 \u0627\u0644\u0628\u0644\u0627\u062f", "name:en": "Al-beelad"}}, {"type": "node", "id": 4505841391, "lat": 32.6060507, "lon": 44.0162462, "tags": {"amenity": "school", "name": "\u0627\u0628\u062a\u062f\u0627\u0626\u064a\u0629 \u0627\u0644\u0643\u0631\u0627\u0631", "name:ar": "\u0627\u0628\u062a\u062f\u0627\u0626\u064a\u0629 \u0627\u0644\u0643\u0631\u0627\u0631", "name:en": "Al-karrar"}}, {"type": "node", "id": 4505841392, "lat": 32.6317322, "lon": 43.9919864, "tags": {"amenity": "school", "name": "\u0627\u0628\u062a\u062f\u0627\u0626\u064a\u0629 \u0627\u0644\u0633\u064a\u062f\u0629 \u0633\u0627\u0631\u0629", "name:ar": "\u0627\u0628\u062a\u062f\u0627\u0626\u064a\u0629 \u0627\u0644\u0633\u064a\u062f\u0629 \u0633\u0627\u0631\u0629", "name:en": "Al-saiyda Saara"}}, {"type": "node", "id": 4505868493, "lat": 32.6171223, "lon": 44.0027617, "tags": {"amenity": "school", "name": "\u0627\u0628\u062a\u062f\u0627\u0626\u064a\u0629 \u0627\u0644\u0627\u0648\u0633", "name:ar": "\u0627\u0628\u062a\u062f\u0627\u0626\u064a\u0629 \u0627\u0644\u0627\u0648\u0633", "name:en": "Al-aws"}}, {"type": "node", "id": 4505868494, "lat": 32.6048528, "lon": 44.0112612, "tags": {"amenity": "school", "name": "\u0627\u0628\u062a\u062f\u0627\u0626\u064a\u0629 \u0627\u0644\u0639\u0627\u0645\u0644", "name:ar": "\u0627\u0628\u062a\u062f\u0627\u0626\u064a\u0629 \u0627\u0644\u0639\u0627\u0645\u0644", "name:en": "Al-aamel"}}, {"type": "node", "id": 4505868496, "lat": 32.6021115, "lon": 43.9963089, "tags": {"amenity": "school", "name": "\u0627\u0628\u062a\u062f\u0627\u0626\u064a\u0629 \u0627\u0644\u0634\u0639\u0628", "name:ar": "\u0627\u0628\u062a\u062f\u0627\u0626\u064a\u0629 \u0627\u0644\u0634\u0639\u0628", "name:en": "Al-sha'ab"}}, {"type": "node", "id": 4505882593, "lat": 32.6192516, "lon": 44.0367024, "tags": {"alt_name": "\u0627\u0628\u062a\u062f\u0627\u0626\u064a\u0629 \u0627\u0644\u0647\u0627\u0634\u0645\u064a\u0629", "amenity": "school", "name": "\u0645\u062f\u0631\u0633\u0629 \u0627\u0644\u0647\u0627\u0634\u0645\u064a\u0629 \u0627\u0644\u0627\u0628\u062a\u062f\u0627\u0626\u064a\u0629", "name:en": "Al-Hashemeya"}}, {"type": "node", "id": 4505930690, "lat": 32.595625, "lon": 44.0276503, "tags": {"amenity": "school", "name": "\u0627\u0628\u062a\u062f\u0627\u0626\u064a\u0629 \u0627\u0644\u0633\u064a\u062f\u0629 \u0646\u0641\u064a\u0633\u0629", "name:ar": "\u0627\u0628\u062a\u062f\u0627\u0626\u064a\u0629 \u0627\u0644\u0633\u064a\u062f\u0629 \u0646\u0641\u064a\u0633\u0629", "name:en": "Al-saiyda Nafeesa"}}, {"type": "node", "id": 4505930692, "lat": 32.61475, "lon": 44.022861, "tags": {"amenity": "school", "name": "\u0627\u0628\u062a\u062f\u0627\u0626\u064a\u0629 \u0627\u0644\u0632\u0631\u0642\u0627\u0621", "name:ar": "\u0627\u0628\u062a\u062f\u0627\u0626\u064a\u0629 \u0627\u0644\u0632\u0631\u0642\u0627\u0621", "name:en": "Al-zarkaa"}}, {"type": "node", "id": 4505930890, "lat": 32.6128785, "lon": 43.9975558, "tags": {"amenity": "school", "name": "\u0627\u0628\u062a\u062f\u0627\u0626\u064a\u0629 \u0627\u0635\u062d\u0627\u0628 \u0627\u0644\u062d\u0633\u064a\u0646", "name:ar": "\u0627\u0628\u062a\u062f\u0627\u0626\u064a\u0629 \u0627\u0635\u062d\u0627\u0628 \u0627\u0644\u062d\u0633\u064a\u0646", "name:en": "Asshab Al-Hussain"}}, {"type": "node", "id": 4505930891, "lat": 32.6056712, "lon": 44.0027396, "tags": {"amenity": "school", "name": "\u0627\u0628\u062a\u062f\u0627\u0626\u064a\u0629 \u0627\u0628\u0648 \u062a\u0645\u0627\u0645", "name:ar": "\u0627\u0628\u062a\u062f\u0627\u0626\u064a\u0629 \u0627\u0628\u0648 \u062a\u0645\u0627\u0645", "name:en": "Abo Tammam"}}, {"type": "node", "id": 4505930892, "lat": 32.6106311, "lon": 44.0296427, "tags": {"amenity": "school", "name": "\u0627\u0628\u062a\u062f\u0627\u0626\u064a\u0629 \u062e\u062f\u064a\u062c\u0629 \u0627\u0644\u0643\u0628\u0631\u0649", "name:ar": "\u0627\u0628\u062a\u062f\u0627\u0626\u064a\u0629 \u062e\u062f\u064a\u062c\u0629 \u0627\u0644\u0643\u0628\u0631\u0649", "name:en": "Khadeeja Al-Koubraa"}}, {"type": "node", "id": 4505936989, "lat": 32.6272804, "lon": 43.9878286, "tags": {"amenity": "school", "name": "\u0627\u0628\u062a\u062f\u0627\u0626\u064a\u0629 \u0627\u0644\u0627\u0631\u0627\u062f\u0629 \u0627\u0644\u0634\u0639\u0628\u064a\u0629", "name:ar": "\u0627\u0628\u062a\u062f\u0627\u0626\u064a\u0629 \u0627\u0644\u0627\u0631\u0627\u062f\u0629 \u0627\u0644\u0634\u0639\u0628\u064a\u0629", "name:en": "Al-eradha Al-sha'beeya"}}, {"type": "node", "id": 4505936990, "lat": 32.6135691, "lon": 44.0307766, "tags": {"amenity": "school", "name": "\u0627\u0628\u062a\u062f\u0627\u0626\u064a\u0629 \u0627\u0644\u0633\u0628\u0637", "name:ar": "\u0627\u0628\u062a\u062f\u0627\u0626\u064a\u0629 \u0627\u0644\u0633\u0628\u0637", "name:en": "Al-Sebt"}}, {"type": "node", "id": 4505937289, "lat": 32.6224295, "lon": 44.0008145, "tags": {"amenity": "school", "name": "\u0627\u0628\u062a\u062f\u0627\u0626\u064a\u0629 \u0627\u0644\u0639\u0631\u0628\u064a\u0629", "name:ar": "\u0627\u0628\u062a\u062f\u0627\u0626\u064a\u0629 \u0627\u0644\u0639\u0631\u0628\u064a\u0629", "name:en": "Al-Arabeeya"}}, {"type": "node", "id": 4505937389, "lat": 32.6146928, "lon": 44.0144156, "tags": {"amenity": "school", "name": "\u0627\u0628\u062a\u062f\u0627\u0626\u064a\u0629 \u0627\u0644\u062c\u0632\u0627\u0626\u0631", "name:ar": "\u0627\u0628\u062a\u062f\u0627\u0626\u064a\u0629 \u0627\u0644\u062c\u0632\u0627\u0626\u0631", "name:en": "Al-Jaza'er"}}, {"type": "node", "id": 4505937489, "lat": 32.6046287, "lon": 44.0114503, "tags": {"amenity": "school", "name": "\u0627\u0628\u062a\u062f\u0627\u0626\u064a\u0629 \u0627\u0644\u0627\u0633\u0643\u0646\u062f\u0631\u0648\u0646\u0629", "name:ar": "\u0627\u0628\u062a\u062f\u0627\u0626\u064a\u0629 \u0627\u0644\u0627\u0633\u0643\u0646\u062f\u0631\u0648\u0646\u0629", "name:en": "Al-askandarouna"}}, {"type": "node", "id": 4505937490, "lat": 32.6011423, "lon": 44.0191816, "tags": {"amenity": "school", "name": "\u0627\u0628\u062a\u062f\u0627\u0626\u064a\u0629 \u0627\u0644\u0627\u0639\u062a\u0645\u0627\u062f", "name:ar": "\u0627\u0628\u062a\u062f\u0627\u0626\u064a\u0629 \u0627\u0644\u0627\u0639\u062a\u0645\u0627\u062f", "name:en": "Al-e'temad Primary School"}}, {"type": "node", "id": 4505937789, "lat": 32.6121452, "lon": 44.036652, "tags": {"amenity": "school", "name": "\u0627\u0628\u062a\u062f\u0627\u0626\u064a\u0629 \u0627\u0644\u062d\u0648\u0631\u0627\u0621 \u0632\u064a\u0646\u0628 \u0639", "name:ar": "\u0627\u0628\u062a\u062f\u0627\u0626\u064a\u0629 \u0627\u0644\u062d\u0648\u0631\u0627\u0621 \u0632\u064a\u0646\u0628 \u0639", "name:en": "Al-Haouraa Zainab"}}, {"type": "node", "id": 4505937989, "lat": 32.6069195, "lon": 43.9957125, "tags": {"amenity": "school", "name": "\u0627\u0628\u062a\u062f\u0627\u0626\u064a\u0629 \u0628\u062f\u0631 \u0627\u0644\u0643\u0628\u0631\u0649", "name:ar": "\u0627\u0628\u062a\u062f\u0627\u0626\u064a\u0629 \u0628\u062f\u0631 \u0627\u0644\u0643\u0628\u0631\u0649", "name:en": "Badr Al-Kubraa"}}, {"type": "node", "id": 4505937990, "lat": 32.6067904, "lon": 44.0380724, "tags": {"amenity": "school", "name": "\u0645\u062f\u0631\u0633\u0629 \u0627\u0644\u0634\u0631\u0642\u064a\u0629 \u0627\u0644\u0627\u0628\u062a\u062f\u0627\u0626\u064a\u0629", "name:ar": "\u0627\u0628\u062a\u062f\u0627\u0626\u064a\u0629 \u0627\u0644\u0634\u0631\u0642\u064a\u0629", "name:en": "Al-sharqeeya"}}, {"type": "node", "id": 4505938189, "lat": 32.61075, "lon": 44.029722, "tags": {"amenity": "school", "name": "\u0627\u0628\u062a\u062f\u0627\u0626\u064a\u0629 \u0627\u0644\u0633\u062c\u0627\u062f \u0639", "name:ar": "\u0627\u0628\u062a\u062f\u0627\u0626\u064a\u0629 \u0627\u0644\u0633\u062c\u0627\u062f \u0639", "name:en": "Al-Sajjad"}}, {"type": "node", "id": 4505938389, "lat": 32.6056714, "lon": 44.0323925, "tags": {"amenity": "school", "name": "\u0627\u0628\u062a\u062f\u0627\u0626\u064a\u0629 \u0627\u0645 \u0633\u0644\u0645\u0629", "name:ar": "\u0627\u0628\u062a\u062f\u0627\u0626\u064a\u0629 \u0627\u0645 \u0633\u0644\u0645\u0629", "name:en": "Um Salama Primary School"}}, {"type": "node", "id": 4517227491, "lat": 32.6044072, "lon": 44.0326055, "tags": {"addr:street": "Maithem Al-Tamar Road", "amenity": "school", "name": "\u0627\u0639\u062f\u0627\u062f\u064a\u0629 \u0639\u062b\u0645\u0627\u0646 \u0628\u0646 \u0633\u0639\u064a\u062f", "name:ar": "\u0627\u0639\u062f\u0627\u062f\u064a\u0629 \u0639\u062b\u0645\u0627\u0646 \u0628\u0646 \u0633\u0639\u064a\u062f"}}, {"type": "node", "id": 4541375115, "lat": 32.6028259, "lon": 44.0239174, "tags": {"amenity": "school", "name": "\u0645\u062f\u0631\u0633\u0629 \u0627\u0644\u0639\u0645\u064a\u062f \u0627\u0644\u0627\u0628\u062a\u062f\u0627\u0626\u064a\u0629 \u0644\u0644\u0628\u0646\u0627\u062a", "name:ar": "\u0645\u062f\u0631\u0633\u0629 \u0627\u0644\u0639\u0645\u064a\u062f \u0627\u0644\u0627\u0628\u062a\u062f\u0627\u0626\u064a\u0629 \u0644\u0644\u0628\u0646\u0627\u062a", "opening_hours": "Su-Th 08:00-14:00"}}, {"type": "node", "id": 4541420315, "lat": 32.6029101, "lon": 44.0239097, "tags": {"amenity": "school", "name": "\u0645\u062f\u0631\u0633\u0629 \u0627\u0644\u0633\u0627\u0642\u064a \u0644\u0644\u0628\u0646\u064a\u0646", "name:ar": "\u0645\u062f\u0631\u0633\u0629 \u0627\u0644\u0633\u0627\u0642\u064a \u0644\u0644\u0628\u0646\u064a\u0646"}}, {"type": "node", "id": 4657248135, "lat": 32.6528113, "lon": 43.974828}, {"type": "node", "id": 4657248136, "lat": 32.6521327, "lon": 43.9741038}, {"type": "node", "id": 4657248137, "lat": 32.6519017, "lon": 43.9744076}, {"type": "node", "id": 4657248138, "lat": 32.652581, "lon": 43.9751322}, {"type": "node", "id": 4657248140, "lat": 32.6525886, "lon": 43.9745916}, {"type": "node", "id": 4657248141, "lat": 32.6527218, "lon": 43.9747329}, {"type": "node", "id": 4657248144, "lat": 32.6523908, "lon": 43.97438}, {"type": "node", "id": 4657248145, "lat": 32.6525516, "lon": 43.9745529}, {"type": "node", "id": 4657248155, "lat": 32.6520688, "lon": 43.974586}, {"type": "node", "id": 4657248156, "lat": 32.6521279, "lon": 43.9746489}, {"type": "node", "id": 4657248164, "lat": 32.6519848, "lon": 43.9742987}, {"type": "node", "id": 4657248165, "lat": 32.6519536, "lon": 43.9743391}, {"type": "node", "id": 4657248168, "lat": 32.6518818, "lon": 43.9744353}, {"type": "node", "id": 4657248169, "lat": 32.6525574, "lon": 43.9751524}, {"type": "node", "id": 4657248170, "lat": 32.6521957, "lon": 43.9756286}, {"type": "node", "id": 4657248171, "lat": 32.6515227, "lon": 43.9749144}, {"type": "node", "id": 4657248172, "lat": 32.6517264, "lon": 43.9746396}, {"type": "node", "id": 4657248173, "lat": 32.6520667, "lon": 43.9746337}, {"type": "node", "id": 4657248184, "lat": 32.6521655, "lon": 43.9747378}, {"type": "node", "id": 4657248185, "lat": 32.6523265, "lon": 43.9749086}, {"type": "node", "id": 4657248191, "lat": 32.6520053, "lon": 43.9754196}, {"type": "node", "id": 4657248192, "lat": 32.6517031, "lon": 43.9746713}, {"type": "node", "id": 4657290385, "lat": 32.6520474, "lon": 43.9756992}, {"type": "node", "id": 4657290386, "lat": 32.6514191, "lon": 43.9750296}, {"type": "node", "id": 4657292001, "lat": 32.6512671, "lon": 43.9752321}, {"type": "node", "id": 4657292002, "lat": 32.6515519, "lon": 43.9751702}, {"type": "node", "id": 4657314352, "lat": 32.652185, "lon": 43.9749117, "tags": {"amenity": "school", "name": "\u0645\u062f\u0631\u0633\u0629 \u0627\u0644\u062a\u0648\u0628\u0629 \u0627\u0644\u0627\u0628\u062a\u062f\u0627\u0626\u064a\u0629 \u0644\u0644\u0628\u0646\u0627\u062a"}}, {"type": "node", "id": 4657314353, "lat": 32.6519997, "lon": 43.9751387, "tags": {"amenity": "school", "name": "\u0645\u062f\u0631\u0633\u0629 \u0627\u0644\u0645\u0641\u0627\u062e\u0631 \u0627\u0644\u0627\u0628\u062a\u062f\u0627\u0626\u064a\u0629 \u0644\u0644\u0628\u0646\u0627\u062a"}}, {"type": "node", "id": 4663579076, "lat": 32.6515834, "lon": 43.9766547}, {"type": "node", "id": 4663579077, "lat": 32.6519874, "lon": 43.9761413}, {"type": "node", "id": 4663579078, "lat": 32.6526515, "lon": 43.9768741}, {"type": "node", "id": 4663579079, "lat": 32.6522475, "lon": 43.9773911}, {"type": "node", "id": 4663579212, "lat": 32.6524454, "lon": 43.977139}, {"type": "node", "id": 4663579213, "lat": 32.6524969, "lon": 43.9767045}, {"type": "node", "id": 4663579216, "lat": 32.6521164, "lon": 43.9772473}, {"type": "node", "id": 4663579217, "lat": 32.6524196, "lon": 43.9771699}, {"type": "node", "id": 4663579218, "lat": 32.651665, "lon": 43.9765525}, {"type": "node", "id": 4663579220, "lat": 32.6522225, "lon": 43.9764013}, {"type": "node", "id": 4663579221, "lat": 32.6522852, "lon": 43.9767607, "tags": {"amenity": "school", "name": "\u0645\u062f\u0631\u0633\u0629 \u0627\u0644\u063a\u0641\u0631\u0627\u0646 \u0627\u0644\u0627\u0628\u062a\u062f\u0627\u0626\u064a\u0629"}}, {"type": "node", "id": 4663625478, "lat": 32.6524313, "lon": 43.9753238}, {"type": "node", "id": 4663625479, "lat": 32.652019, "lon": 43.9754358}, {"type": "node", "id": 4663625482, "lat": 32.6523798, "lon": 43.9749646}, {"type": "node", "id": 4663625483, "lat": 32.6525279, "lon": 43.9751233}, {"type": "node", "id": 4663626710, "lat": 32.6509616, "lon": 43.9760626, "tags": {"amenity": "school", "name": "\u0627\u0639\u062f\u0627\u062f\u064a\u0629 \u0627\u0644\u0631\u064a\u0627\u062d\u064a \u0644\u0644\u0628\u0646\u064a\u0646"}}, {"type": "node", "id": 4663626718, "lat": 32.6515015, "lon": 43.9759456}, {"type": "node", "id": 4663626719, "lat": 32.6519033, "lon": 43.9758914}, {"type": "node", "id": 4663656915, "lat": 32.651406, "lon": 43.9758475}, {"type": "node", "id": 4663656922, "lat": 32.6511327, "lon": 43.9764144}, {"type": "node", "id": 4663656923, "lat": 32.6515931, "lon": 43.9762987}, {"type": "node", "id": 4663656924, "lat": 32.6508817, "lon": 43.9757406}, {"type": "node", "id": 4663656925, "lat": 32.6508532, "lon": 43.9761163}, {"type": "node", "id": 4663656927, "lat": 32.6509183, "lon": 43.9756934}, {"type": "node", "id": 4663656929, "lat": 32.6512137, "lon": 43.9756429}, {"type": "node", "id": 4678629619, "lat": 32.6522301, "lon": 43.9763057}, {"type": "node", "id": 4678629620, "lat": 32.6520227, "lon": 43.9760652}, {"type": "node", "id": 4678629621, "lat": 32.6521734, "lon": 43.9758776}, {"type": "node", "id": 4678629622, "lat": 32.6523807, "lon": 43.9761142}, {"type": "node", "id": 4787630521, "lat": 32.5970648, "lon": 44.0187887, "tags": {"amenity": "school", "name": "\u0645\u062f\u0631\u0633\u0629 \u0627\u0644\u0642\u0645\u0631 \u0627\u0644\u0627\u0628\u062a\u062f\u0627\u0626\u064a\u0629 \u0644\u0644\u0628\u0646\u0627\u062a", "name:ar": "\u0645\u062f\u0631\u0633\u0629 \u0627\u0644\u0642\u0645\u0631 \u0627\u0644\u0627\u0628\u062a\u062f\u0627\u0626\u064a\u0629 \u0644\u0644\u0628\u0646\u0627\u062a"}}, {"type": "node", "id": 4953750321, "lat": 32.6032095, "lon": 44.0041884, "tags": {"addr:street": "\u0634\u0627\u0631\u0639 \u062d\u064a \u0627\u0644\u0645\u0648\u0638\u0641\u064a\u0646", "amenity": "school", "name": "\u0645\u062f\u0627\u0631\u0633 \u0627\u0644\u0627\u0645\u0627\u0645 \u0623\u0645\u064a\u0631 \u0627\u0644\u0645\u0624\u0645\u0646\u064a\u0646", "name:ar": "\u0645\u062f\u0627\u0631\u0633 \u0627\u0644\u0627\u0645\u0627\u0645 \u0623\u0645\u064a\u0631 \u0627\u0644\u0645\u0624\u0645\u0646\u064a\u0646"}}, {"type": "node", "id": 5007758067, "lat": 32.5800737, "lon": 44.0178211, "tags": {"addr:city": "Kabala", "addr:country": "IQ", "amenity": "school", "name": "\u0645\u062f\u0631\u0633\u0629 \u0627\u0644\u0646\u062c\u0627\u062d"}}, {"type": "node", "id": 5016280022, "lat": 32.5866614, "lon": 44.0309977, "tags": {"amenity": "school", "name": "\u0645\u062f\u0627\u0631\u0633 \u0627\u0644\u062a\u0645\u064a\u0632 \u0627\u0644\u0623\u0647\u0644\u064a\u0647 \u0627\u0644\u0646\u0645\u0648\u0630\u062c\u064a\u0629", "name:ar": "\u0645\u062f\u0627\u0631\u0633 \u0627\u0644\u062a\u0645\u064a\u0632 \u0627\u0644\u0623\u0647\u0644\u064a\u0647 \u0627\u0644\u0646\u0645\u0648\u0630\u062c\u064a\u0629", "name:en": "Altamauz school", "opening_hours": "24/7", "phone": "07707930866"}}, {"type": "node", "id": 5194628940, "lat": 32.5999386, "lon": 44.012574}, {"type": "node", "id": 5194657811, "lat": 32.6124561, "lon": 44.0098046}, {"type": "node", "id": 5194657812, "lat": 32.6128319, "lon": 44.0095299}, {"type": "node", "id": 5194657813, "lat": 32.6135463, "lon": 44.0103607}, {"type": "node", "id": 5194657814, "lat": 32.6130412, "lon": 44.0107945}, {"type": "node", "id": 5229081722, "lat": 32.5977831, "lon": 44.0021252, "tags": {"amenity": "school", "name": "\u0645\u062f\u0631\u0633\u0629 \u0627\u0644\u0628\u0634\u0631\u0649 \u0627\u0644\u0627\u0628\u062a\u062f\u0627\u0626\u064a\u0629", "name:ar": "\u0645\u062f\u0631\u0633\u0629 \u0627\u0644\u0628\u0634\u0631\u0649 \u0627\u0644\u0627\u0628\u062a\u062f\u0627\u0626\u064a\u0629"}}, {"type": "node", "id": 5455623023, "lat": 32.6114313, "lon": 43.990716, "tags": {"amenity": "school", "name": "\u0645\u062f\u0631\u0633\u0629 \u0641\u064a \u062d\u064a \u0627\u0644\u063a\u062f\u064a\u0631"}}, {"type": "node", "id": 5497615121, "lat": 32.6271564, "lon": 44.0022464, "tags": {"amenity": "school", "name": "\u062b\u0627\u0646\u0648\u064a\u0629 \u0627\u0633\u0628\u0627\u0637 \u0627\u0644\u0648\u0627\u0631\u062b \u0644\u0644\u0628\u0646\u064a\u0646"}}, {"type": "node", "id": 5498533626, "lat": 32.609282, "lon": 43.9936681}, {"type": "node", "id": 5498533627, "lat": 32.6088437, "lon": 43.9940007}, {"type": "node", "id": 5498533628, "lat": 32.6093092, "lon": 43.9946283}, {"type": "node", "id": 5498533629, "lat": 32.6096548, "lon": 43.9943869}, {"type": "node", "id": 5498655587, "lat": 32.6279361, "lon": 43.9868859}, {"type": "node", "id": 5498655588, "lat": 32.6283195, "lon": 43.9876142}, {"type": "node", "id": 5498655589, "lat": 32.6274633, "lon": 43.9882515}, {"type": "node", "id": 5498655590, "lat": 32.6270672, "lon": 43.9875118}, {"type": "node", "id": 5498660921, "lat": 32.6263095, "lon": 43.9880725}, {"type": "node", "id": 5498660922, "lat": 32.6266928, "lon": 43.988797}, {"type": "node", "id": 5498660923, "lat": 32.6259676, "lon": 43.9893356}, {"type": "node", "id": 5498660924, "lat": 32.6255779, "lon": 43.9885883}, {"type": "node", "id": 5498663529, "lat": 32.6298588, "lon": 43.9851636}, {"type": "node", "id": 5498663530, "lat": 32.6303497, "lon": 43.9861112}, {"type": "node", "id": 5498663531, "lat": 32.629822, "lon": 43.9864966}, {"type": "node", "id": 5498663532, "lat": 32.6293311, "lon": 43.985549}, {"type": "node", "id": 5498819628, "lat": 32.6340471, "lon": 43.9768358}, {"type": "node", "id": 5498819629, "lat": 32.6346055, "lon": 43.9776706}, {"type": "node", "id": 5498819630, "lat": 32.6340243, "lon": 43.9781931}, {"type": "node", "id": 5498819631, "lat": 32.6334779, "lon": 43.977347}, {"type": "node", "id": 5498820932, "lat": 32.6334152, "lon": 43.9774007}, {"type": "node", "id": 5498820933, "lat": 32.6339739, "lon": 43.9782556}, {"type": "node", "id": 5498820934, "lat": 32.6335172, "lon": 43.9786575}, {"type": "node", "id": 5498820935, "lat": 32.6329854, "lon": 43.9778027}, {"type": "node", "id": 6042219039, "lat": 32.6397502, "lon": 43.9808352}, {"type": "node", "id": 6042219040, "lat": 32.6403897, "lon": 43.9815818}, {"type": "node", "id": 6042219041, "lat": 32.6406858, "lon": 43.9812241}, {"type": "node", "id": 6042219042, "lat": 32.6400463, "lon": 43.9804775}, {"type": "node", "id": 6042254450, "lat": 32.6432148, "lon": 43.9848719}, {"type": "node", "id": 6042254451, "lat": 32.6428289, "lon": 43.9844233}, {"type": "node", "id": 6042254452, "lat": 32.642214, "lon": 43.9851693}, {"type": "node", "id": 6042254453, "lat": 32.6426, "lon": 43.985618}, {"type": "node", "id": 6042254466, "lat": 32.6426142, "lon": 43.9851466}, {"type": "node", "id": 6042254467, "lat": 32.642473, "lon": 43.9849827}, {"type": "node", "id": 6042254468, "lat": 32.6426156, "lon": 43.9848095}, {"type": "node", "id": 6042254469, "lat": 32.6427574, "lon": 43.984974}, {"type": "node", "id": 6042254470, "lat": 32.642688, "lon": 43.9850583}, {"type": "node", "id": 6042254471, "lat": 32.6426362, "lon": 43.9849982}, {"type": "node", "id": 6042254472, "lat": 32.6426489, "lon": 43.9849828}, {"type": "node", "id": 6042254473, "lat": 32.6425851, "lon": 43.9849087}, {"type": "node", "id": 6042254474, "lat": 32.6425538, "lon": 43.9849466}, {"type": "node", "id": 6042254475, "lat": 32.6426178, "lon": 43.9850208}, {"type": "node", "id": 6042254476, "lat": 32.642635, "lon": 43.9849999}, {"type": "node", "id": 6042254477, "lat": 32.6426861, "lon": 43.9850592}, {"type": "node", "id": 6060101585, "lat": 32.6236126, "lon": 43.9920952, "tags": {"amenity": "school", "name": "\u0627\u0639\u062f\u0627\u062f\u064a\u0629 \u0627\u0644\u0627\u0645\u0627\u0645\u0647"}}, {"type": "node", "id": 6301970719, "lat": 32.5982864, "lon": 44.0097268, "tags": {"amenity": "school", "contact:facebook": "https://www.facebook.com/alsafwa.sch/", "name": "\u0645\u062c\u0645\u0648\u0639\u0629 \u0645\u062f\u0627\u0631\u0633 \u0627\u0644\u0635\u0641\u0648\u0629 \u0627\u0644\u0627\u0647\u0644\u064a\u0629", "name:en": "Al - Safwa National Schools Group"}}, {"type": "node", "id": 6377630985, "lat": 32.6081306, "lon": 44.0233912, "tags": {"amenity": "school", "name": "\u0645\u062f\u0627\u0631\u0633 \u0627\u0644\u0648\u0627\u0631\u062b \u0627\u0644\u0646\u0645\u0648\u0630\u062c\u064a\u0629", "name:en": "Al-warith school"}}, {"type": "node", "id": 6448290785, "lat": 32.5766474, "lon": 44.0293833, "tags": {"amenity": "school", "name": "\u0645\u062f\u0631\u0633\u0629 \u0631\u0627\u0628\u0639\u0629 \u0627\u0644\u0639\u062f\u0648\u064a\u0629 \u0644\u0644\u0628\u0646\u0627\u062a"}}, {"type": "node", "id": 6634704153, "lat": 32.574325, "lon": 43.9922137}, {"type": "node", "id": 6634704163, "lat": 32.5746933, "lon": 43.9916114}, {"type": "node", "id": 6634704179, "lat": 32.5755076, "lon": 43.9931952}, {"type": "node", "id": 6634704184, "lat": 32.5758548, "lon": 43.9924453}, {"type": "node", "id": 6635065347, "lat": 32.6024049, "lon": 44.0184223}, {"type": "node", "id": 6635065359, "lat": 32.6029193, "lon": 44.0173611}, {"type": "node", "id": 6635080587, "lat": 32.6018329, "lon": 44.0170338}, {"type": "node", "id": 6635080597, "lat": 32.6025862, "lon": 44.0169092}, {"type": "node", "id": 6635083717, "lat": 32.6111815, "lon": 44.0058437}, {"type": "node", "id": 6635083720, "lat": 32.6106964, "lon": 44.0048997}, {"type": "node", "id": 6810506385, "lat": 32.6426445, "lon": 44.0005855, "tags": {"amenity": "school", "name": "\u0645\u062f\u0631\u0633\u0629 \u0627\u0644\u0643\u0646\u0648\u0632 / \u0627\u0644\u0628\u0648\u0628\u064a\u0627\u062a"}}, {"type": "node", "id": 7129293685, "lat": 32.6309301, "lon": 44.0008639, "tags": {"amenity": "school", "name": "\u0645\u0648\u0642\u0639 \u0627 \u0636\u0627\u0641\u0631", "name:ar": "\u0638\u0627\u0641\u0631"}}, {"type": "node", "id": 7682610686, "lat": 32.6098844, "lon": 44.0099898, "tags": {"addr:street": "\u0634\u0627\u0631\u0639 \u062d\u064a \u0627\u0644\u0645\u0648\u0638\u0641\u064a\u0646", "amenity": "school", "name": "\u0645\u0639\u0647\u062f \u0623\u0646\u0648\u0627\u0631 \u0627\u0644\u0645\u0647\u062f\u064a(\u0639)", "opening_hours": "Sa-Th 00:00-24:00", "phone": "07733951712"}}, {"type": "node", "id": 7934836951, "lat": 32.610339, "lon": 44.003136}, {"type": "node", "id": 7934836957, "lat": 32.6107509, "lon": 44.0015157}, {"type": "node", "id": 7934836958, "lat": 32.609905, "lon": 44.0054729}, {"type": "node", "id": 8331032318, "lat": 32.6146913, "lon": 44.029032, "tags": {"amenity": "school", "name": "\u0645\u062f\u0631\u0633\u0629 \u0627\u0644\u0645\u062e\u064a\u0645"}}, {"type": "node", "id": 8331032319, "lat": 32.5783568, "lon": 44.0072147, "tags": {"amenity": "school", "name": "\u0645\u062f\u0631\u0633\u0629 \u0627\u0644\u062d\u064a\u0627\u0629"}}, {"type": "node", "id": 8331032722, "lat": 32.5861588, "lon": 43.9953537, "tags": {"amenity": "school", "name": "\u0645\u062f\u0631\u0633\u0629 \u0627\u0644\u0641\u062a\u0627\u0629"}}, {"type": "node", "id": 8331033024, "lat": 32.6232104, "lon": 43.9651046, "tags": {"amenity": "school", "name": "\u0645\u062f\u0631\u0633\u0629 \u0627\u0644\u062a\u0631\u0627\u0646\u064a\u0645"}}, {"type": "node", "id": 8331034521, "lat": 32.6233316, "lon": 43.9649868, "tags": {"amenity": "school", "name": "\u0645\u062f\u0631\u0633\u0629 \u0627\u0644\u0636\u062d\u0649"}}, {"type": "node", "id": 8943696117, "lat": 32.5826268, "lon": 44.0152789, "tags": {"amenity": "school", "name": "\u0645\u062a\u0648\u0633\u0637\u0629 \u062b\u0648\u0631\u0629 \u0627\u0644\u062d\u0633\u064a\u0646 (\u0639)", "name:ar": "\u0645\u062a\u0648\u0633\u0637\u0629 \u062b\u0648\u0631\u0629 \u0627\u0644\u062d\u0633\u064a\u0646 )\u0639("}}, {"type": "node", "id": 8986058018, "lat": 32.603821, "lon": 44.0064774, "tags": {"amenity": "school", "name": "\u0627\u0639\u062f\u0627\u062f\u064a\u0629 \u062c\u0645\u0627\u0646\u0629 \u0644\u0644\u0628\u0646\u0627\u062a"}}, {"type": "node", "id": 9067007365, "lat": 32.6443239, "lon": 43.9784471}, {"type": "node", "id": 9067055308, "lat": 32.645174, "lon": 43.9781279, "tags": {"amenity": "school", "name": "\u0645\u062f\u0627\u0631\u0633 \u0627\u0644\u0639\u062a\u0628\u0629 \u0627\u0644\u0639\u0628\u0627\u0633\u064a\u0629"}}, {"type": "node", "id": 9113313608, "lat": 32.6128937, "lon": 44.0105491}, {"type": "node", "id": 9113316644, "lat": 32.6139084, "lon": 44.0107581}, {"type": "node", "id": 9113316645, "lat": 32.61333, "lon": 44.0112812}, {"type": "node", "id": 9119786245, "lat": 32.6453852, "lon": 43.9771258}, {"type": "node", "id": 9119825853, "lat": 32.6479677, "lon": 43.9826758}, {"type": "node", "id": 9119825854, "lat": 32.6485232, "lon": 43.9832796}, {"type": "node", "id": 9119825855, "lat": 32.6486909, "lon": 43.9830684}, {"type": "node", "id": 9119825856, "lat": 32.6481475, "lon": 43.9824534}, {"type": "node", "id": 9126717863, "lat": 32.6497088, "lon": 43.9841036}, {"type": "node", "id": 9126717864, "lat": 32.6496042, "lon": 43.9842335}, {"type": "node", "id": 9126717865, "lat": 32.6494567, "lon": 43.984066}, {"type": "node", "id": 9126717866, "lat": 32.6495613, "lon": 43.9839361}, {"type": "node", "id": 9126717867, "lat": 32.6495309, "lon": 43.9839733}, {"type": "node", "id": 9126717868, "lat": 32.6494905, "lon": 43.9840238}, {"type": "node", "id": 9126864517, "lat": 32.6495974, "lon": 43.9841438, "tags": {"amenity": "school", "name": "\u0645\u0639\u0647\u062f \u0627\u0644\u062e\u064a\u0631\u0627\u062a \u0627\u0644\u062a\u0639\u0644\u064a\u0645\u064a"}}, {"type": "node", "id": 9451227235, "lat": 32.6025377, "lon": 44.0182911}, {"type": "node", "id": 9451227236, "lat": 32.6022227, "lon": 44.0182622}, {"type": "node", "id": 9451227237, "lat": 32.602291, "lon": 44.0183597}, {"type": "node", "id": 9451227238, "lat": 32.602322, "lon": 44.0183866}, {"type": "node", "id": 9451227239, "lat": 32.6023663, "lon": 44.0184148}, {"type": "node", "id": 9451227240, "lat": 32.6025103, "lon": 44.0183456}, {"type": "node", "id": 9451227241, "lat": 32.6024785, "lon": 44.018393}, {"type": "node", "id": 9451227242, "lat": 32.6024423, "lon": 44.0184153}, {"type": "node", "id": 9455017912, "lat": 32.6019092, "lon": 44.0176164, "tags": {"barrier": "gate"}}, {"type": "node", "id": 9455046659, "lat": 32.601725, "lon": 44.0171945}, {"type": "node", "id": 9455046660, "lat": 32.6017259, "lon": 44.0171689}, {"type": "node", "id": 9455046661, "lat": 32.601729, "lon": 44.0171437}, {"type": "node", "id": 9455046662, "lat": 32.6017353, "lon": 44.0171166}, {"type": "node", "id": 9455046663, "lat": 32.6017437, "lon": 44.0170982}, {"type": "node", "id": 9455046664, "lat": 32.6017584, "lon": 44.0170762}, {"type": "node", "id": 9455046665, "lat": 32.6017767, "lon": 44.0170606}, {"type": "node", "id": 9455046666, "lat": 32.6018006, "lon": 44.0170463}, {"type": "node", "id": 9455046667, "lat": 32.6017309, "lon": 44.0172289}, {"type": "node", "id": 9455127296, "lat": 32.6017442, "lon": 44.0172651}, {"type": "node", "id": 9455127297, "lat": 32.6022563, "lon": 44.0183157}, {"type": "node", "id": 9455127298, "lat": 32.6024587, "lon": 44.0184082}, {"type": "node", "id": 9455127299, "lat": 32.6024225, "lon": 44.0184201}, {"type": "node", "id": 9455127300, "lat": 32.6023856, "lon": 44.0184199}, {"type": "node", "id": 9455127301, "lat": 32.6023447, "lon": 44.0184027}, {"type": "node", "id": 9455127302, "lat": 32.6024955, "lon": 44.0183693}, {"type": "node", "id": 9455151746, "lat": 32.6019258, "lon": 44.0176505}, {"type": "node", "id": 9455151756, "lat": 32.6028302, "lon": 44.0176061}, {"type": "node", "id": 9455368464, "lat": 32.6025709, "lon": 44.0182134}, {"type": "node", "id": 9455368465, "lat": 32.6026559, "lon": 44.0180144}, {"type": "node", "id": 9455727247, "lat": 32.611081, "lon": 44.005648}, {"type": "node", "id": 9455744996, "lat": 32.602119, "lon": 44.0180486}, {"type": "node", "id": 9455756241, "lat": 32.6023376, "lon": 44.0169517}, {"type": "node", "id": 9455756250, "lat": 32.6024647, "lon": 44.0169315}, {"type": "node", "id": 9532282092, "lat": 32.5981979, "lon": 44.0190562}, {"type": "node", "id": 9532282093, "lat": 32.5983879, "lon": 44.0190194}, {"type": "node", "id": 9532306781, "lat": 32.5981399, "lon": 44.0185316}, {"type": "node", "id": 9605178753, "lat": 32.6159846, "lon": 44.0131118}, {"type": "node", "id": 9605178754, "lat": 32.615396, "lon": 44.0138387}, {"type": "node", "id": 9605178755, "lat": 32.6159394, "lon": 44.0143148}, {"type": "node", "id": 9605178756, "lat": 32.6164963, "lon": 44.0136791}, {"type": "node", "id": 9643021951, "lat": 32.6463525, "lon": 43.970319}, {"type": "node", "id": 9643021952, "lat": 32.6462958, "lon": 43.9703913}, {"type": "node", "id": 9643021956, "lat": 32.6465071, "lon": 43.9708977}, {"type": "node", "id": 9643021957, "lat": 32.6465557, "lon": 43.9709515}, {"type": "node", "id": 9643063448, "lat": 32.6461873, "lon": 43.9705337}, {"type": "node", "id": 9643063449, "lat": 32.6464978, "lon": 43.9701112}, {"type": "node", "id": 9643063450, "lat": 32.646578, "lon": 43.9701957}, {"type": "node", "id": 9643063451, "lat": 32.6465351, "lon": 43.9702521}, {"type": "node", "id": 9643063452, "lat": 32.6465712, "lon": 43.9702842}, {"type": "node", "id": 9643063453, "lat": 32.6465464, "lon": 43.9703178}, {"type": "node", "id": 9643063454, "lat": 32.6468343, "lon": 43.9706316}, {"type": "node", "id": 9643063455, "lat": 32.6465723, "lon": 43.9709682}, {"type": "node", "id": 9662749031, "lat": 32.61039, "lon": 44.0064168}, {"type": "node", "id": 9663310992, "lat": 32.5937664, "lon": 44.0009773}, {"type": "node", "id": 9663310993, "lat": 32.5937611, "lon": 44.0013222}, {"type": "node", "id": 9663310994, "lat": 32.5931939, "lon": 44.0024567}, {"type": "node", "id": 9663310995, "lat": 32.5940752, "lon": 44.0030683}, {"type": "node", "id": 9663310996, "lat": 32.5946311, "lon": 44.0019284}, {"type": "node", "id": 9663337917, "lat": 32.593599, "lon": 44.0004454}, {"type": "node", "id": 9663337918, "lat": 32.5939139, "lon": 44.0006617}, {"type": "node", "id": 9663337919, "lat": 32.5936857, "lon": 44.0011498}, {"type": "node", "id": 9663337920, "lat": 32.5933603, "lon": 44.0009353}, {"type": "node", "id": 9666708194, "lat": 32.5847877, "lon": 44.00278}, {"type": "node", "id": 9666708195, "lat": 32.5846506, "lon": 44.0030584}, {"type": "node", "id": 9666708196, "lat": 32.5851664, "lon": 44.003416}, {"type": "node", "id": 9666708197, "lat": 32.5853034, "lon": 44.0031377}, {"type": "node", "id": 9666837072, "lat": 32.5822501, "lon": 44.0164541}, {"type": "node", "id": 9666837073, "lat": 32.5816444, "lon": 44.0160678}, {"type": "node", "id": 9666837074, "lat": 32.5811585, "lon": 44.016843}, {"type": "node", "id": 9666837075, "lat": 32.5817235, "lon": 44.0173043}, {"type": "node", "id": 9666840757, "lat": 32.6072307, "lon": 44.0080453}, {"type": "node", "id": 9666840758, "lat": 32.606537, "lon": 44.0079434}, {"type": "node", "id": 9666840759, "lat": 32.6064715, "lon": 44.0088553}, {"type": "node", "id": 9666840760, "lat": 32.6071968, "lon": 44.0088822}, {"type": "node", "id": 9666840761, "lat": 32.6071988, "lon": 44.0088311}, {"type": "node", "id": 9666840762, "lat": 32.6071313, "lon": 44.0088797}, {"type": "node", "id": 9666840763, "lat": 32.607086, "lon": 44.009719}, {"type": "node", "id": 9666840764, "lat": 32.6075673, "lon": 44.0097432}, {"type": "node", "id": 9666840765, "lat": 32.607608, "lon": 44.0088553}, {"type": "node", "id": 9666840766, "lat": 32.6072242, "lon": 44.0082056}, {"type": "node", "id": 9666840767, "lat": 32.6075131, "lon": 44.0082277}, {"type": "node", "id": 9666840768, "lat": 32.6074837, "lon": 44.008848}, {"type": "node", "id": 9670066521, "lat": 32.6036785, "lon": 44.0071118}, {"type": "node", "id": 9670066522, "lat": 32.6038579, "lon": 44.0074516}, {"type": "node", "id": 9670066523, "lat": 32.604468, "lon": 44.0069849}, {"type": "node", "id": 9670066524, "lat": 32.6043, "lon": 44.0066714}, {"type": "node", "id": 9670072763, "lat": 32.6044064, "lon": 44.0114642}, {"type": "node", "id": 9670072764, "lat": 32.6049667, "lon": 44.0109787}, {"type": "node", "id": 9670072765, "lat": 32.6049803, "lon": 44.011153}, {"type": "node", "id": 9670072766, "lat": 32.6049758, "lon": 44.0114856}, {"type": "node", "id": 9670072767, "lat": 32.6049441, "lon": 44.0118075}, {"type": "node", "id": 9670072768, "lat": 32.6048944, "lon": 44.0121267}, {"type": "node", "id": 9670072769, "lat": 32.6048198, "lon": 44.012411}, {"type": "node", "id": 9670072770, "lat": 32.6047362, "lon": 44.0126229}, {"type": "node", "id": 9670099618, "lat": 32.6041742, "lon": 44.0080739}, {"type": "node", "id": 9670099619, "lat": 32.6049696, "lon": 44.007398}, {"type": "node", "id": 9670099620, "lat": 32.6053492, "lon": 44.0081302}, {"type": "node", "id": 9670099621, "lat": 32.6045222, "lon": 44.0087417}, {"type": "node", "id": 9670112123, "lat": 32.6041787, "lon": 44.0058584}, {"type": "node", "id": 9670112124, "lat": 32.6032975, "lon": 44.0064914}, {"type": "node", "id": 9670112125, "lat": 32.6036116, "lon": 44.0071592}, {"type": "node", "id": 9670112126, "lat": 32.604486, "lon": 44.0065396}, {"type": "node", "id": 9670112127, "lat": 32.6042669, "lon": 44.0061266}, {"type": "node", "id": 9670112128, "lat": 32.604294, "lon": 44.006081}, {"type": "node", "id": 9675845989, "lat": 32.6098675, "lon": 44.002256}, {"type": "node", "id": 9675845990, "lat": 32.6112277, "lon": 44.0024196}, {"type": "node", "id": 9675853533, "lat": 32.5995801, "lon": 44.0123192}, {"type": "node", "id": 9675856371, "lat": 32.6000749, "lon": 44.0105151}, {"type": "node", "id": 9675856372, "lat": 32.6005856, "lon": 44.0108477}, {"type": "node", "id": 9675856373, "lat": 32.600537, "lon": 44.0110435}, {"type": "node", "id": 9675856374, "lat": 32.6005658, "lon": 44.0109698}, {"type": "node", "id": 9675856375, "lat": 32.6005994, "lon": 44.0108792}, {"type": "node", "id": 9675856376, "lat": 32.5975514, "lon": 44.0119635}, {"type": "node", "id": 9675856377, "lat": 32.5975017, "lon": 44.0119313}, {"type": "node", "id": 9675856378, "lat": 32.597104, "lon": 44.011985}, {"type": "node", "id": 9675856379, "lat": 32.5970611, "lon": 44.0119984}, {"type": "node", "id": 9675856380, "lat": 32.5970227, "lon": 44.0120279}, {"type": "node", "id": 9675856381, "lat": 32.5970091, "lon": 44.0120708}, {"type": "node", "id": 9675856382, "lat": 32.5972125, "lon": 44.0137472}, {"type": "node", "id": 9675856383, "lat": 32.5972328, "lon": 44.0137659}, {"type": "node", "id": 9675856384, "lat": 32.5972599, "lon": 44.0137713}, {"type": "node", "id": 9675856385, "lat": 32.5976848, "lon": 44.0137016}, {"type": "node", "id": 9675856386, "lat": 32.5977119, "lon": 44.0136828}, {"type": "node", "id": 9675856387, "lat": 32.59773, "lon": 44.0136533}, {"type": "node", "id": 9675856388, "lat": 32.5977322, "lon": 44.0136131}, {"type": "node", "id": 9675867420, "lat": 32.6002851, "lon": 44.0116819}, {"type": "node", "id": 9675867421, "lat": 32.5997337, "lon": 44.0113466}, {"type": "node", "id": 9675867422, "lat": 32.599388, "lon": 44.0121834}, {"type": "node", "id": 9676572616, "lat": 32.5965869, "lon": 44.0035794}, {"type": "node", "id": 9676579880, "lat": 32.5969219, "lon": 44.002953}, {"type": "node", "id": 9676579881, "lat": 32.5965604, "lon": 44.0036289}, {"type": "node", "id": 9676579882, "lat": 32.5971072, "lon": 44.0039896}, {"type": "node", "id": 9676579883, "lat": 32.597271, "lon": 44.003657}, {"type": "node", "id": 9676583729, "lat": 32.5971397, "lon": 44.0039236}, {"type": "node", "id": 9676593109, "lat": 32.5968156, "lon": 44.0038007}, {"type": "node", "id": 9676593110, "lat": 32.5967619, "lon": 44.0037638}, {"type": "node", "id": 9678442081, "lat": 32.611418, "lon": 44.0110852}, {"type": "node", "id": 9678442082, "lat": 32.6118721, "lon": 44.011906}, {"type": "node", "id": 9678442083, "lat": 32.6125273, "lon": 44.0113977}, {"type": "node", "id": 9678442084, "lat": 32.6120472, "lon": 44.0105984}, {"type": "node", "id": 9678460108, "lat": 32.6009449, "lon": 44.0190708}, {"type": "node", "id": 9678467433, "lat": 32.601871, "lon": 44.0194655}, {"type": "node", "id": 9678467434, "lat": 32.6014803, "lon": 44.0187908}, {"type": "node", "id": 9678467435, "lat": 32.6009898, "lon": 44.0188509}, {"type": "node", "id": 9678467436, "lat": 32.6009755, "lon": 44.0188555}, {"type": "node", "id": 9678467437, "lat": 32.6009664, "lon": 44.0188678}, {"type": "node", "id": 9678467438, "lat": 32.6009586, "lon": 44.0188801}, {"type": "node", "id": 9678467439, "lat": 32.6009547, "lon": 44.0189033}, {"type": "node", "id": 9678467440, "lat": 32.6009158, "lon": 44.0195703}, {"type": "node", "id": 9678467441, "lat": 32.6009249, "lon": 44.0195903}, {"type": "node", "id": 9678467442, "lat": 32.6009327, "lon": 44.0196027}, {"type": "node", "id": 9678467443, "lat": 32.6009443, "lon": 44.0196119}, {"type": "node", "id": 9678467444, "lat": 32.6009742, "lon": 44.0196119}, {"type": "node", "id": 9678472634, "lat": 32.6010964, "lon": 44.0188378}, {"type": "node", "id": 9682852444, "lat": 32.6499297, "lon": 43.9829266}, {"type": "node", "id": 9682852445, "lat": 32.6494114, "lon": 43.9823325}, {"type": "node", "id": 9682852446, "lat": 32.6490512, "lon": 43.9827657}, {"type": "node", "id": 9682852447, "lat": 32.6495729, "lon": 43.9833705}, {"type": "node", "id": 9682860766, "lat": 32.6485108, "lon": 43.9820106}, {"type": "node", "id": 9682860767, "lat": 32.64901, "lon": 43.9826624}, {"type": "node", "id": 9682868450, "lat": 32.6488125, "lon": 43.9816457}, {"type": "node", "id": 9682868451, "lat": 32.6493353, "lon": 43.9822451}, {"type": "node", "id": 9695890480, "lat": 32.5743377, "lon": 43.9923504}, {"type": "node", "id": 9695890481, "lat": 32.5747915, "lon": 43.9915952}, {"type": "node", "id": 9695890482, "lat": 32.5754018, "lon": 43.9931886}, {"type": "node", "id": 9695890483, "lat": 32.5758586, "lon": 43.9925909}, {"type": "node", "id": 9695890484, "lat": 32.5758793, "lon": 43.992553}, {"type": "node", "id": 9695890485, "lat": 32.5758891, "lon": 43.9925293}, {"type": "node", "id": 9695890486, "lat": 32.5758917, "lon": 43.9925068}, {"type": "node", "id": 9695890487, "lat": 32.5758879, "lon": 43.9924834}, {"type": "node", "id": 9695890488, "lat": 32.5758753, "lon": 43.9924637}, {"type": "node", "id": 9695890489, "lat": 32.5754259, "lon": 43.9932046}, {"type": "node", "id": 9695890490, "lat": 32.5754526, "lon": 43.9932153}, {"type": "node", "id": 9695890491, "lat": 32.575475, "lon": 43.993216}, {"type": "node", "id": 9695890492, "lat": 32.5754924, "lon": 43.9932096}, {"type": "node", "id": 9696001790, "lat": 32.5743215, "lon": 43.9923347}, {"type": "node", "id": 9696001791, "lat": 32.5743074, "lon": 43.9923138}, {"type": "node", "id": 9696001792, "lat": 32.5743001, "lon": 43.9922879}, {"type": "node", "id": 9696001793, "lat": 32.5743012, "lon": 43.9922592}, {"type": "node", "id": 9696001794, "lat": 32.5743117, "lon": 43.9922351}, {"type": "node", "id": 9696001795, "lat": 32.5747065, "lon": 43.9915922}, {"type": "node", "id": 9696001796, "lat": 32.5747193, "lon": 43.9915776}, {"type": "node", "id": 9696001797, "lat": 32.5747373, "lon": 43.9915703}, {"type": "node", "id": 9696001798, "lat": 32.5747576, "lon": 43.9915727}, {"type": "node", "id": 9696001799, "lat": 32.574774, "lon": 43.9915833}, {"type": "node", "id": 9717989607, "lat": 32.5770294, "lon": 44.0053366}, {"type": "node", "id": 9717989608, "lat": 32.5774272, "lon": 44.0044864}, {"type": "node", "id": 9717989609, "lat": 32.5782453, "lon": 44.0049987}, {"type": "node", "id": 9717989610, "lat": 32.577938, "lon": 44.0059375}, {"type": "node", "id": 9836210717, "lat": 32.6331466, "lon": 43.9965827, "tags": {"addr:housenumber": "07801005593", "addr:street": "\u0637\u0631\u06cc\u0642 \u0627\u0644\u062d\u0631", "amenity": "school", "name": "\u0645\u062f\u0627\u0631\u0633 \u0627\u0644\u0627\u0648\u0627\u0626\u0644 \u0627\u0644\u0627\u0647\u0644\u064a\u0629", "name:ar": "\u0645\u062f\u0627\u0631\u0633 \u0627\u0644\u0627\u0648\u0627\u0626\u0644 \u0627\u0644\u0627\u0647\u0644\u064a\u0629 \u0627\u0644\u0646\u0645\u0648\u0630\u062c\u064a\u0629", "name:en": "AL-AWOAEL SHOOLS", "name:ku": "\u0642\u0648\u062a\u0627\u0628\u062e\u0627\u0646\u0647 \u0649 \u0627\u0648\u0627\u064a\u0644", "phone": "07724733868"}}, {"type": "node", "id": 10131224452, "lat": 32.6446506, "lon": 43.9784939, "tags": {"amenity": "school", "check_date": "2023-08-02", "grades": "1-6", "name": "\u0645\u062f\u0631\u0633\u0629 \u0627\u0644\u0639\u0645\u064a\u062f \u0627\u0644\u0627\u0628\u062a\u062f\u0627\u0626\u064a\u0629 \u0644\u0644\u0628\u0646\u064a\u0646", "name:ar": "\u0645\u062f\u0631\u0633\u0629 \u0627\u0644\u0639\u0645\u064a\u062f \u0627\u0644\u0627\u0628\u062a\u062f\u0627\u0626\u064a\u0629 \u0644\u0644\u0628\u0646\u064a\u0646", "operator": "\u0627\u0644\u0639\u062a\u0628\u0629 \u0627\u0644\u0639\u0628\u0627\u0633\u064a\u0629 \u0627\u0644\u0645\u0642\u062f\u0633\u0629", "operator:type": "private"}}, {"type": "node", "id": 10131231215, "lat": 32.6454592, "lon": 43.977464, "tags": {"amenity": "school", "check_date": "2023-07-25", "grades": "4-6", "name": "\u062b\u0627\u0646\u0648\u064a\u0629 \u0633\u064a\u062f \u0627\u0644\u0645\u0627\u0621 \u0644\u0644\u0628\u0646\u064a\u0646 - \u0628\u0646\u0627\u064a\u0629 \u0627\u0644\u0623\u0639\u062f\u0627\u062f\u064a\u0629", "name:ar": "\u062b\u0627\u0646\u0648\u064a\u0629 \u0633\u064a\u062f \u0627\u0644\u0645\u0627\u0621 \u0644\u0644\u0628\u0646\u064a\u0646 - \u0628\u0646\u0627\u064a\u0629 \u0627\u0644\u0623\u0639\u062f\u0627\u062f\u064a\u0629", "operator": "\u0627\u0644\u0639\u062a\u0628\u0629 \u0627\u0644\u0639\u0628\u0627\u0633\u064a\u0629 \u0627\u0644\u0645\u0642\u062f\u0633\u0629", "operator:type": "private"}}, {"type": "node", "id": 10131239437, "lat": 32.6451792, "lon": 43.9778301, "tags": {"amenity": "school", "check_date": "2023-07-25", "grades": "1-3", "name": "\u062b\u0627\u0646\u0648\u064a\u0629 \u0633\u064a\u062f \u0627\u0644\u0645\u0627\u0621 \u0644\u0644\u0628\u0646\u064a\u0646 - \u0628\u0646\u0627\u064a\u0629 \u0627\u0644\u0645\u062a\u0648\u0633\u0637\u0629", "name:ar": "\u062b\u0627\u0646\u0648\u064a\u0629 \u0633\u064a\u062f \u0627\u0644\u0645\u0627\u0621 \u0644\u0644\u0628\u0646\u064a\u0646 - \u0628\u0646\u0627\u064a\u0629 \u0627\u0644\u0645\u062a\u0648\u0633\u0637\u0629", "operator": "\u0627\u0644\u0639\u062a\u0628\u0629 \u0627\u0644\u0639\u0628\u0627\u0633\u064a\u0629 \u0627\u0644\u0645\u0642\u062f\u0633\u0629", "operator:type": "private"}}, {"type": "node", "id": 10139147417, "lat": 32.5991575, "lon": 44.0222156, "tags": {"amenity": "school", "name": "\u0645\u062a\u0648\u0633\u0637\u0629 \u0639\u0645\u0627\u0631 \u0628\u0646 \u064a\u0627\u0633\u0631 \u0644\u0644\u0628\u0646\u064a\u0646", "name:ar": "\u0645\u062a\u0648\u0633\u0637\u0629 \u0639\u0645\u0627\u0631 \u0628\u0646 \u064a\u0627\u0633\u0631 \u0644\u0644\u0628\u0646\u064a\u0646"}}, {"type": "node", "id": 10542917294, "lat": 32.6028229, "lon": 44.0169908}, {"type": "node", "id": 10542917295, "lat": 32.6029276, "lon": 44.0172399}, {"type": "node", "id": 10542917296, "lat": 32.6029005, "lon": 44.0170978}, {"type": "node", "id": 10930038901, "lat": 32.6027441, "lon": 44.0169356}, {"type": "node", "id": 10930038902, "lat": 32.6028621, "lon": 44.0170379}, {"type": "node", "id": 10930038903, "lat": 32.6029191, "lon": 44.0171669}, {"type": "node", "id": 10930038904, "lat": 32.6028936, "lon": 44.0174564}, {"type": "node", "id": 10989204605, "lat": 32.6142583, "lon": 43.9946062, "tags": {"amenity": "school", "name": "\u062b\u0627\u0646\u0648\u064a\u0629 \u0627\u0644\u062a\u0623\u0644\u0642"}}, {"type": "node", "id": 10989204705, "lat": 32.6113751, "lon": 43.9905137, "tags": {"amenity": "school", "name": "\u062b\u0627\u0646\u0648\u064a\u0629 \u0627\u0644\u062a\u0623\u0644\u0642"}}, {"type": "node", "id": 10990256205, "lat": 32.5971161, "lon": 44.0115851, "tags": {"addr:street": "\u062d\u064a \u0627\u0644\u062d\u0633\u064a\u0646", "amenity": "school", "name": "\u062b\u0627\u0646\u0648\u064a\u0629 \u0627\u0644\u0646\u062e\u0628\u0629", "name:en": "Elite High School"}}, {"type": "node", "id": 10994220829, "lat": 32.6029285, "lon": 44.0173}, {"type": "node", "id": 10994220830, "lat": 32.6026715, "lon": 44.0169104}, {"type": "node", "id": 10994220831, "lat": 32.6027749, "lon": 44.0169559}, {"type": "node", "id": 11004332120, "lat": 32.5983338, "lon": 44.0185026}, {"type": "node", "id": 11004332121, "lat": 32.5824968, "lon": 43.9828354}, {"type": "node", "id": 11004332122, "lat": 32.5824452, "lon": 43.9818887}, {"type": "node", "id": 11004332123, "lat": 32.5822646, "lon": 43.9818989}, {"type": "node", "id": 11004332124, "lat": 32.5821936, "lon": 43.9820111}, {"type": "node", "id": 11004332125, "lat": 32.581555, "lon": 43.9820647}, {"type": "node", "id": 11004332126, "lat": 32.5816023, "lon": 43.9829094}, {"type": "node", "id": 11029929205, "lat": 32.617211, "lon": 44.0341692, "tags": {"amenity": "school", "name": "\u062c\u0627\u0645\u0639 \u0627\u0644\u0639\u0637\u0627\u0631\u064a\u0646 \u0648\u0645\u062f\u0631\u0633\u0647 \u0627\u0644\u0625\u0645\u0627\u0645 \u062c\u0639\u0641\u0631 \u0627\u0644\u0635\u0627\u062f\u0642 (\u0639)"}}, {"type": "node", "id": 11033269579, "lat": 32.577906, "lon": 44.0059164}, {"type": "node", "id": 11033269595, "lat": 32.578192, "lon": 44.0051617}, {"type": "node", "id": 11033287612, "lat": 32.5773942, "lon": 44.0045569}, {"type": "node", "id": 11033287620, "lat": 32.5771044, "lon": 44.0053862}, {"type": "node", "id": 11033287624, "lat": 32.5772868, "lon": 44.0055069}, {"type": "node", "id": 11033287627, "lat": 32.5773284, "lon": 44.0055343}, {"type": "node", "id": 11033287632, "lat": 32.5774867, "lon": 44.005639}, {"type": "node", "id": 11033287633, "lat": 32.5775402, "lon": 44.0056744}, {"type": "node", "id": 11033287634, "lat": 32.5775958, "lon": 44.0057112}, {"type": "node", "id": 11033287636, "lat": 32.5776576, "lon": 44.0057521}, {"type": "node", "id": 11033370430, "lat": 32.5828968, "lon": 44.0252117}, {"type": "node", "id": 11033370431, "lat": 32.5840191, "lon": 44.0261127}, {"type": "node", "id": 11033370432, "lat": 32.584649, "lon": 44.0250136}, {"type": "node", "id": 11033370433, "lat": 32.5835181, "lon": 44.0241013}, {"type": "node", "id": 11042526416, "lat": 32.5920853, "lon": 44.0238567}, {"type": "node", "id": 11042526417, "lat": 32.5920355, "lon": 44.0239638}, {"type": "node", "id": 11042526419, "lat": 32.5921939, "lon": 44.0239278}, {"type": "node", "id": 11042530688, "lat": 32.592253, "lon": 44.0249403}, {"type": "node", "id": 11042530689, "lat": 32.5917382, "lon": 44.0246029}, {"type": "node", "id": 11042530690, "lat": 32.5926001, "lon": 44.024194}, {"type": "node", "id": 11042530692, "lat": 32.5918206, "lon": 44.0244258}, {"type": "node", "id": 11046254845, "lat": 32.6458004, "lon": 43.9775902}, {"type": "node", "id": 11046254846, "lat": 32.6447451, "lon": 43.978914}, {"type": "node", "id": 11056644005, "lat": 32.6544159, "lon": 43.9646385, "tags": {"amenity": "school", "name": "\u0645\u062f\u0631\u0633\u0629 \u0627\u0644\u0635\u0627\u0644\u062d\u064a\u0646"}}, {"type": "node", "id": 11057892252, "lat": 32.6540604, "lon": 43.9648734}, {"type": "node", "id": 11057892253, "lat": 32.6545334, "lon": 43.9642897}, {"type": "node", "id": 11057892254, "lat": 32.6543802, "lon": 43.9652503}, {"type": "node", "id": 11057892255, "lat": 32.6548569, "lon": 43.964658}, {"type": "node", "id": 11069979453, "lat": 32.6156493, "lon": 44.0161181}, {"type": "node", "id": 11069979454, "lat": 32.6151599, "lon": 44.0159317}, {"type": "node", "id": 11069979455, "lat": 32.6156765, "lon": 44.0161329}, {"type": "node", "id": 11069979456, "lat": 32.6156931, "lon": 44.0161497}, {"type": "node", "id": 11069979457, "lat": 32.6157001, "lon": 44.0161712}, {"type": "node", "id": 11069979458, "lat": 32.6156978, "lon": 44.0161936}, {"type": "node", "id": 11069979459, "lat": 32.6156828, "lon": 44.0162338}, {"type": "node", "id": 11069979460, "lat": 32.6156018, "lon": 44.016401}, {"type": "node", "id": 11069979461, "lat": 32.6149457, "lon": 44.0173275}, {"type": "node", "id": 11069979462, "lat": 32.6145967, "lon": 44.0170906}, {"type": "node", "id": 11070002687, "lat": 32.6147098, "lon": 44.0171636}, {"type": "node", "id": 11070022206, "lat": 32.6142287, "lon": 44.0168797}, {"type": "node", "id": 11070022207, "lat": 32.6146379, "lon": 44.0157231}, {"type": "node", "id": 11074458718, "lat": 32.614367, "lon": 44.0164889}, {"type": "node", "id": 11074458719, "lat": 32.6143442, "lon": 44.0165532}, {"type": "node", "id": 11074473932, "lat": 32.6151626, "lon": 44.0170213}, {"type": "node", "id": 11074473933, "lat": 32.6152097, "lon": 44.0169547}, {"type": "node", "id": 11172556737, "lat": 32.6248212, "lon": 44.0042243, "tags": {"amenity": "school", "name": "\u0627\u0639\u062f\u0627\u062f\u064a\u0629 \u0627\u0644\u062d\u0633\u064a\u0646 \u0627\u0644\u0635\u0646\u0627\u0639\u064a\u0629", "name:ar": "\u0627\u0639\u062f\u0627\u062f\u064a\u0629 \u0627\u0644\u062d\u0633\u064a\u0646 \u0627\u0644\u0635\u0646\u0627\u0639\u064a\u0629", "name:en": "Al-hussain technical school"}}, {"type": "node", "id": 11196049983, "lat": 32.606171, "lon": 44.0297075}, {"type": "node", "id": 11196049989, "lat": 32.605997, "lon": 44.0290307}, {"type": "node", "id": 11196050003, "lat": 32.6061419, "lon": 44.0298718}, {"type": "node", "id": 11196050004, "lat": 32.6058255, "lon": 44.0298034}, {"type": "node", "id": 11196050005, "lat": 32.6057916, "lon": 44.029794}, {"type": "node", "id": 11196050006, "lat": 32.605769, "lon": 44.0297806}, {"type": "node", "id": 11196050007, "lat": 32.605751, "lon": 44.0297645}, {"type": "node", "id": 11196050008, "lat": 32.6057374, "lon": 44.0297431}, {"type": "node", "id": 11196050009, "lat": 32.6057261, "lon": 44.0297216}, {"type": "node", "id": 11196050010, "lat": 32.6057205, "lon": 44.0296948}, {"type": "node", "id": 11196050011, "lat": 32.6057193, "lon": 44.029668}, {"type": "node", "id": 11196050012, "lat": 32.6058267, "lon": 44.0290645}, {"type": "node", "id": 11196050013, "lat": 32.6058323, "lon": 44.0290309}, {"type": "node", "id": 11196050014, "lat": 32.605838, "lon": 44.0290122}, {"type": "node", "id": 11196050015, "lat": 32.6058504, "lon": 44.0290041}, {"type": "node", "id": 11196050016, "lat": 32.6058662, "lon": 44.0290014}, {"type": "node", "id": 11196050017, "lat": 32.605882, "lon": 44.0290028}, {"type": "node", "id": 11196050018, "lat": 32.6062788, "lon": 44.0290984}, {"type": "node", "id": 11196272397, "lat": 32.6048596, "lon": 44.0317413}, {"type": "node", "id": 11196272398, "lat": 32.6046088, "lon": 44.0329564}, {"type": "node", "id": 11196272399, "lat": 32.604602, "lon": 44.0329751}, {"type": "node", "id": 11196272400, "lat": 32.6045873, "lon": 44.0329899}, {"type": "node", "id": 11196272401, "lat": 32.6045715, "lon": 44.0329979}, {"type": "node", "id": 11196272402, "lat": 32.6036587, "lon": 44.0327539}, {"type": "node", "id": 11196272403, "lat": 32.6036327, "lon": 44.0327445}, {"type": "node", "id": 11196272404, "lat": 32.6036135, "lon": 44.0327257}, {"type": "node", "id": 11196272405, "lat": 32.6035954, "lon": 44.0326962}, {"type": "node", "id": 11196272406, "lat": 32.6035852, "lon": 44.03266}, {"type": "node", "id": 11196272407, "lat": 32.6035863, "lon": 44.0326264}, {"type": "node", "id": 11196272408, "lat": 32.6038055, "lon": 44.0313846}, {"type": "node", "id": 11196287112, "lat": 32.6047304, "lon": 44.0323772}, {"type": "node", "id": 11196287113, "lat": 32.604666, "lon": 44.0326688}, {"type": "node", "id": 11196287118, "lat": 32.6047972, "lon": 44.0317202}, {"type": "node", "id": 11196287119, "lat": 32.6048429, "lon": 44.0318221}, {"type": "node", "id": 11196287121, "lat": 32.6048064, "lon": 44.0319991}, {"type": "node", "id": 11196287126, "lat": 32.6047751, "lon": 44.0321504}, {"type": "node", "id": 11196287127, "lat": 32.6047472, "lon": 44.0322857}, {"type": "node", "id": 11196292038, "lat": 32.604409, "lon": 44.0315888}, {"type": "node", "id": 11196292039, "lat": 32.6042023, "lon": 44.0315189}, {"type": "node", "id": 11196292070, "lat": 32.6042065, "lon": 44.0329003}, {"type": "node", "id": 11201911337, "lat": 32.6162, "lon": 44.0137328, "tags": {"addr:street": "\u0637\u0631\u06cc\u0642 \u0627\u0644\u062d\u0631", "amenity": "school", "name": "\u0627\u0628\u0648 \u0627\u0644\u0627\u0633\u0648\u062f \u0627\u0644\u062f\u0624\u0644\u064a"}}, {"type": "node", "id": 11202391632, "lat": 32.615752, "lon": 44.013399}, {"type": "node", "id": 11202391633, "lat": 32.6157179, "lon": 44.0134411}, {"type": "node", "id": 11202445320, "lat": 32.6162234, "lon": 44.0133765}, {"type": "node", "id": 11202445323, "lat": 32.6162906, "lon": 44.013451}, {"type": "node", "id": 11202445324, "lat": 32.6163562, "lon": 44.0135237}, {"type": "node", "id": 11202445328, "lat": 32.6164829, "lon": 44.0136642}, {"type": "node", "id": 11202465340, "lat": 32.615894, "lon": 44.0132236}, {"type": "node", "id": 11202465341, "lat": 32.6160621, "lon": 44.0131978}, {"type": "node", "id": 11202465342, "lat": 32.6160743, "lon": 44.0132113}, {"type": "node", "id": 11209686898, "lat": 32.6059814, "lon": 44.0323421}, {"type": "node", "id": 11209686899, "lat": 32.6059837, "lon": 44.0323167}, {"type": "node", "id": 11209686900, "lat": 32.6059814, "lon": 44.0322952}, {"type": "node", "id": 11209686901, "lat": 32.6059769, "lon": 44.0322818}, {"type": "node", "id": 11209686902, "lat": 32.6059667, "lon": 44.032267}, {"type": "node", "id": 11209686903, "lat": 32.6059464, "lon": 44.0322496}, {"type": "node", "id": 11209686904, "lat": 32.6059216, "lon": 44.0322241}, {"type": "node", "id": 11209686905, "lat": 32.6059012, "lon": 44.0321919}, {"type": "node", "id": 11209686906, "lat": 32.6058798, "lon": 44.0321517}, {"type": "node", "id": 11209686907, "lat": 32.6058628, "lon": 44.0321128}, {"type": "node", "id": 11209686908, "lat": 32.6058538, "lon": 44.0320766}, {"type": "node", "id": 11209686909, "lat": 32.605847, "lon": 44.0320484}, {"type": "node", "id": 11209686910, "lat": 32.6058413, "lon": 44.032035}, {"type": "node", "id": 11209686911, "lat": 32.6058255, "lon": 44.032027}, {"type": "node", "id": 11209686912, "lat": 32.6053669, "lon": 44.0318795}, {"type": "node", "id": 11209686913, "lat": 32.6053386, "lon": 44.0318714}, {"type": "node", "id": 11209686914, "lat": 32.6053228, "lon": 44.0318741}, {"type": "node", "id": 11209686915, "lat": 32.6053104, "lon": 44.0318835}, {"type": "node", "id": 11209686916, "lat": 32.6053002, "lon": 44.0319036}, {"type": "node", "id": 11209686917, "lat": 32.6051635, "lon": 44.0326184}, {"type": "node", "id": 11209686918, "lat": 32.6058689, "lon": 44.0328016}, {"type": "node", "id": 11266328469, "lat": 32.6468399, "lon": 44.0032975, "tags": {"addr:street": "\u0634\u0627\u0631\u0639 \u0627\u0644\u0645\u062f\u0631\u0633\u0629", "amenity": "school", "name": "\u062b\u0627\u0646\u0648\u064a\u0629 \u0627\u0645 \u062d\u0628\u064a\u0628\u0629 \u0644\u0644\u0628\u0646\u0627\u062a"}}, {"type": "node", "id": 11272235474, "lat": 32.6341056, "lon": 43.9944634}, {"type": "node", "id": 11272235483, "lat": 32.6339673, "lon": 43.9945724}, {"type": "node", "id": 11272235484, "lat": 32.6340303, "lon": 43.9943286}, {"type": "node", "id": 11272235489, "lat": 32.6338919, "lon": 43.9944375}, {"type": "node", "id": 11272235490, "lat": 32.634015, "lon": 43.9943013}, {"type": "node", "id": 11272235495, "lat": 32.6338767, "lon": 43.9944103}, {"type": "node", "id": 11272235496, "lat": 32.6344503, "lon": 43.9950805}, {"type": "node", "id": 11272235497, "lat": 32.6340031, "lon": 43.9942799}, {"type": "node", "id": 11272235502, "lat": 32.6338648, "lon": 43.9943889}, {"type": "node", "id": 11272235503, "lat": 32.634312, "lon": 43.9951895}, {"type": "node", "id": 11272236029, "lat": 32.6339233, "lon": 43.994137}, {"type": "node", "id": 11272236030, "lat": 32.6337849, "lon": 43.994246}, {"type": "node", "id": 11675870628, "lat": 32.6459058, "lon": 43.9717814, "tags": {"amenity": "school", "name": "\u062b\u0627\u0646\u0648\u064a\u0629 \u0627\u0644\u0631\u0633\u0648\u0644 \u0627\u0644\u0627\u0639\u0636\u0645 \u0643\u0631\u0628\u0644\u0627\u0621"}}, {"type": "node", "id": 11675870634, "lat": 32.6060015, "lon": 44.0187247, "tags": {"amenity": "school", "name": "\u0645\u062f\u0631\u0633\u0629 \u062a\u062f\u0645\u0631"}}, {"type": "node", "id": 11675870643, "lat": 32.6097894, "lon": 44.0187755, "tags": {"amenity": "school", "name": "\u0645\u062f\u0631\u0633\u0629 \u062f\u0627\u0631 \u0627\u0644\u0639\u0644\u0645 \u0627\u0644\u0627\u0647\u0644\u064a\u0629"}}, {"type": "node", "id": 11693978741, "lat": 32.5856052, "lon": 44.0353363, "tags": {"amenity": "school", "name": "\u0645\u062f\u0627\u0631\u0633 \u0627\u0644\u0643\u0641\u064a\u0644 \u0627\u0644\u062f\u064a\u0646\u064a\u0629 \u0627\u0644\u0646\u0633\u0648\u064a\u0629"}}, {"type": "way", "id": 432380567, "nodes": [4314486963, 4663656929, 4663656915, 4663626718, 4314486964, 4663656923, 4314486965, 4663656922, 4663656925, 4314486966, 4663656924, 4663656927, 4314486963], "tags": {"amenity": "school", "building:levels": "2"}}, {"type": "way", "id": 471564943, "nodes": [4657248135, 4657248141, 4657248140, 4657248145, 4657248144, 4657248136, 4657248164, 4657248165, 4657248137, 4657248155, 4657248156, 4657248138, 4657248135], "tags": {"amenity": "school"}}, {"type": "way", "id": 471564954, "nodes": [4657248168, 4657248173, 4657248184, 4657248185, 4663625482, 4663625483, 4657248169, 4663625478, 4657248170, 4663625479, 4657248191, 4657248171, 4657248192, 4657248172, 4657248168], "tags": {"amenity": "school"}}, {"type": "way", "id": 471569150, "nodes": [4314486963, 4663656929, 4663656915, 4663626718, 4314486964, 4663626719, 4657290385, 4657292002, 4657290386, 4657292001, 4314486963], "tags": {"amenity": "school"}}, {"type": "way", "id": 472131961, "nodes": [4663579076, 4663579218, 4663579077, 4663579220, 4663579213, 4663579078, 4663579212, 4663579217, 4663579079, 4663579216, 4663579076], "tags": {"amenity": "school"}}, {"type": "way", "id": 473823851, "nodes": [4678629619, 4678629620, 4678629621, 4678629622, 4678629619], "tags": {"amenity": "school"}}, {"type": "way", "id": 536159685, "nodes": [5194657811, 5194657812, 5194657813, 5194657814, 9113313608, 5194657811], "tags": {"amenity": "school", "name": "\u0645\u062f\u0631\u0633\u0629 \u0642\u0645\u0631 \u0628\u0646\u064a \u0647\u0627\u0634\u0645"}}, {"type": "way", "id": 572328187, "nodes": [5498533626, 5498533627, 5498533628, 5498533629, 5498533626], "tags": {"amenity": "school", "name": "\u0645\u062f\u0631\u0633\u0629 \u0630\u0627\u062a \u0627\u0644\u0633\u0644\u0627\u0633\u0644"}}, {"type": "way", "id": 572345656, "nodes": [5498655587, 5498655588, 5498655589, 5498655590, 5498655587], "tags": {"amenity": "school", "name": "\u0645\u062f\u0631\u0633\u0629 \u0627\u0644\u0627\u0646\u062f\u0644\u0633 \u0627\u0644\u0627\u0628\u062a\u062f\u0627\u0626\u064a\u0629"}}, {"type": "way", "id": 572346178, "nodes": [5498660921, 5498660922, 5498660923, 5498660924, 5498660921], "tags": {"amenity": "school", "name": "\u0645\u062f\u0631\u0633\u0629 \u063a\u0631\u0627\u0646\u0627\u0637\u0629 \u0627\u0644\u0627\u0628\u062a\u062f\u0627\u0626\u064a\u0629"}}, {"type": "way", "id": 572346668, "nodes": [5498663529, 5498663530, 5498663531, 5498663532, 5498663529], "tags": {"amenity": "school", "name": "\u0645\u062f\u0631\u0633\u0629 \u0627\u0644\u0639\u062f\u0627\u0644\u0629 \u0627\u0644\u0627\u062a\u062f\u0627\u0626\u064a\u0629"}}, {"type": "way", "id": 572363889, "nodes": [5498819628, 5498819629, 5498819630, 5498819631, 5498819628], "tags": {"amenity": "school", "name": "\u0645\u062f\u0631\u0633\u0629 \u062b\u0648\u0631\u0629 \u0627\u0644\u0639\u0634\u0631\u064a\u0646"}}, {"type": "way", "id": 572364248, "nodes": [5498820932, 5498820933, 5498820934, 5498820935, 5498820932], "tags": {"amenity": "school", "name": "\u0645\u062f\u0631\u0633\u0629 \u0627\u0644\u0633\u064a\u062f\u0629 \u0637\u0648\u0639\u0629 \u0627\u0644\u0627\u0628\u062a\u062f\u0627\u0626\u064a\u0629"}}, {"type": "way", "id": 641645058, "nodes": [6042219039, 6042219040, 6042219041, 6042219042, 6042219039], "tags": {"amenity": "school", "name": "\u0645\u062f\u0631\u0633\u0629 \u0627\u0644\u0627\u0637\u064a\u0627\u0641 \u0627\u0644\u0627\u0628\u062a\u062f\u0627\u0626\u064a\u0629"}}, {"type": "way", "id": 641647979, "nodes": [6042254450, 6042254451, 6042254452, 6042254453, 6042254450], "tags": {"amenity": "school", "name": "\u062b\u0627\u0646\u0648\u064a\u0629 \u0632\u0647\u0631\u0629 \u0627\u0644\u0645\u062f\u0627\u0626\u0646"}}, {"type": "way", "id": 641647984, "nodes": [6042254466, 6042254467, 6042254468, 6042254469, 6042254470, 6042254471, 6042254472, 6042254473, 6042254474, 6042254475, 6042254476, 6042254477, 6042254466], "tags": {"amenity": "school"}}, {"type": "way", "id": 706109916, "nodes": [6634704153, 6634704163, 9696001795, 9696001796, 9696001797, 9696001798, 9696001799, 9695890481, 6634704184, 9695890488, 9695890487, 9695890486, 9695890485, 9695890484, 9695890483, 6634704179, 9695890492, 9695890491, 9695890490, 9695890489, 9695890482, 9695890480, 9696001790, 9696001791, 9696001792, 9696001793, 9696001794, 6634704153], "tags": {"amenity": "school"}}, {"type": "way", "id": 706145355, "nodes": [6635080587, 9455756241, 9455756250, 6635080597, 10994220830, 10930038901, 10994220831, 10542917294, 10930038902, 10542917296, 10930038903, 10542917295, 10994220829, 6635065359, 10930038904, 9455151756, 9455368465, 9455368464, 9451227235, 9451227240, 9455127302, 9451227241, 9455127298, 9451227242, 9455127299, 6635065347, 9455127300, 9451227239, 9455127301, 9451227238, 9451227237, 9455127297, 9451227236, 9455744996, 9455151746, 9455017912, 9455127296, 9455046667, 9455046659, 9455046660, 9455046661, 9455046662, 9455046663, 9455046664, 9455046665, 9455046666, 6635080587], "tags": {"amenity": "school"}}, {"type": "way", "id": 985798271, "nodes": [9113316644, 5194657813, 5194657814, 9113316645, 9113316644], "tags": {"amenity": "school", "name": "\u0631\u0648\u0636\u0629 \u0627\u0644\u0632\u0647\u0648\u0631"}}, {"type": "way", "id": 986620967, "nodes": [11046254846, 11046254845, 9119786245, 9067007365, 11046254846], "tags": {"amenity": "school", "check_date": "2023-07-26", "grades": "1-6", "name": "\u0645\u062f\u0627\u0631\u0633 \u0627\u0644\u0639\u062a\u0628\u0629 \u0627\u0644\u0639\u0628\u0627\u0633\u064a\u0629", "name:ar": "\u0645\u062f\u0627\u0631\u0633 \u0627\u0644\u0639\u062a\u0628\u0629 \u0627\u0644\u0639\u0628\u0627\u0633\u064a\u0629", "operator": "\u0627\u0644\u0639\u062a\u0628\u0629 \u0627\u0644\u0639\u0628\u0627\u0633\u064a\u0629 \u0627\u0644\u0645\u0642\u062f\u0633\u0629", "operator:type": "private"}}, {"type": "way", "id": 987411079, "nodes": [9126717863, 9126717864, 9126717865, 9126717868, 9126717867, 9126717866, 9126717863], "tags": {"amenity": "school", "building:levels": "2", "height": "6"}}, {"type": "way", "id": 1043685648, "nodes": [9605178753, 11202465340, 11202391632, 11202391633, 9605178754, 9605178755, 9605178756, 11202445328, 11202445324, 11202445323, 11202445320, 11202465342, 11202465341, 9605178753], "tags": {"amenity": "school"}}, {"type": "way", "id": 1049296458, "nodes": [9643063448, 9643021952, 9643021951, 9643063449, 9643063450, 9643063451, 9643063452, 9643063453, 9643063454, 9643063455, 9643021957, 9643021956, 9643063448], "tags": {"amenity": "school"}}, {"type": "way", "id": 1051482655, "nodes": [7934836958, 6635083720, 9455727247, 6635083717, 9662749031, 7934836958], "tags": {"amenity": "school"}}, {"type": "way", "id": 1051535777, "nodes": [9663337917, 9663337918, 9663310992, 9663337919, 9663337920, 9663337917], "tags": {"amenity": "school"}}, {"type": "way", "id": 1051535937, "nodes": [9663310993, 9663310994, 9663310995, 9663310996, 9663310993], "tags": {"amenity": "school"}}, {"type": "way", "id": 1051911458, "nodes": [9666708194, 9666708195, 9666708196, 9666708197, 9666708194], "tags": {"amenity": "school"}}, {"type": "way", "id": 1051929692, "nodes": [9666840757, 9666840758, 9666840759, 9666840762, 9666840760, 9666840761, 9666840766, 9666840757], "tags": {"amenity": "school"}}, {"type": "way", "id": 1051929693, "nodes": [9666840761, 9666840760, 9666840762, 9666840763, 9666840764, 9666840765, 9666840768, 9666840761], "tags": {"amenity": "school"}}, {"type": "way", "id": 1051929694, "nodes": [9666840766, 9666840767, 9666840768, 9666840761, 9666840766], "tags": {"amenity": "school"}}, {"type": "way", "id": 1051930382, "nodes": [9666837072, 9666837073, 9666837074, 9666837075, 9666837072], "tags": {"amenity": "school"}}, {"type": "way", "id": 1052238399, "nodes": [9670072763, 9670072764, 9670072765, 9670072766, 9670072767, 9670072768, 9670072769, 9670072770, 9670072763], "tags": {"amenity": "school"}}, {"type": "way", "id": 1052239000, "nodes": [9670099618, 9670099619, 9670099620, 9670099621, 9670099618], "tags": {"amenity": "school"}}, {"type": "way", "id": 1052239089, "nodes": [9670112123, 9670112124, 9670112125, 9670066521, 9670066524, 9670112126, 9670112127, 9670112128, 9670112123], "tags": {"amenity": "school"}}, {"type": "way", "id": 1052239307, "nodes": [9670066521, 9670066522, 9670066523, 9670066524, 9670066521], "tags": {"amenity": "school"}}, {"type": "way", "id": 1052853866, "nodes": [9675845989, 7934836951, 9675845990, 7934836957, 9675845989], "tags": {"amenity": "school"}}, {"type": "way", "id": 1052858239, "nodes": [9675867420, 9675867421, 9675867422, 9675853533, 5194628940, 9675867420], "tags": {"amenity": "school"}}, {"type": "way", "id": 1052858532, "nodes": [9675867420, 9675867421, 9675856371, 9675856372, 9675856375, 9675856374, 9675856373, 9675867420], "tags": {"amenity": "school"}}, {"type": "way", "id": 1052859591, "nodes": [9675856376, 9675856377, 9675856378, 9675856379, 9675856380, 9675856381, 9675856382, 9675856383, 9675856384, 9675856385, 9675856386, 9675856387, 9675856388, 9675856376], "tags": {"amenity": "school"}}, {"type": "way", "id": 1052949658, "nodes": [9676579880, 9676572616, 9676579881, 9676593110, 9676593109, 9676579882, 9676583729, 9676579883, 9676579880], "tags": {"amenity": "school"}}, {"type": "way", "id": 1053153757, "nodes": [9678442081, 9678442082, 9678442083, 9678442084, 9678442081], "tags": {"amenity": "school"}}, {"type": "way", "id": 1053155465, "nodes": [9678467433, 9678467434, 9678472634, 9678467435, 9678467436, 9678467437, 9678467438, 9678467439, 9678460108, 9678467440, 9678467441, 9678467442, 9678467443, 9678467444, 9678467433], "tags": {"amenity": "school"}}, {"type": "way", "id": 1053634193, "nodes": [9682852444, 9682852445, 9682852446, 9682852447, 9682852444], "tags": {"amenity": "school"}}, {"type": "way", "id": 1053634617, "nodes": [9119825853, 9119825856, 9682860766, 9682860767, 9119825855, 9119825854, 9119825853], "tags": {"amenity": "school"}}, {"type": "way", "id": 1053634893, "nodes": [9682860766, 9682868450, 9682868451, 9682860767, 9682860766], "tags": {"amenity": "school"}}, {"type": "way", "id": 1057613567, "nodes": [9717989607, 11033287612, 9717989608, 9717989609, 11033269595, 9717989610, 11033269579, 11033287636, 11033287634, 11033287633, 11033287632, 11033287627, 11033287624, 11033287620, 9717989607], "tags": {"amenity": "school"}}, {"type": "way", "id": 1184731477, "nodes": [9532282093, 9532282092, 9532306781, 11004332120, 9532282093], "tags": {"amenity": "school", "name": "\u0645\u062f\u0631\u0633\u0629 \u0627\u0644\u0634\u0647\u062f \u0627\u0644\u0627\u0628\u062a\u062f\u0627\u0626\u064a\u0629"}}, {"type": "way", "id": 1184731478, "nodes": [11004332121, 11004332122, 11004332123, 11004332124, 11004332125, 11004332126, 11004332121], "tags": {"amenity": "school"}}, {"type": "way", "id": 1188180946, "nodes": [11033370430, 11033370431, 11033370432, 11033370433, 11033370430], "tags": {"amenity": "school", "building": "yes"}}, {"type": "way", "id": 1189179745, "nodes": [11042530689, 11042530688, 11042530690, 11042526419, 11042526416, 11042526417, 11042530692, 11042530689], "tags": {"amenity": "school"}}, {"type": "way", "id": 1190950598, "nodes": [11057892253, 11057892252, 11057892254, 11057892255, 11057892253], "tags": {"amenity": "school"}}, {"type": "way", "id": 1192500675, "nodes": [11069979454, 11069979453, 11069979455, 11069979456, 11069979457, 11069979458, 11069979459, 11069979460, 11074473933, 11074473932, 11069979461, 11070002687, 11069979462, 11069979454], "tags": {"amenity": "school"}}, {"type": "way", "id": 1192502647, "nodes": [11069979454, 11069979462, 11070022206, 11074458719, 11074458718, 11070022207, 11069979454], "tags": {"amenity": "school"}}, {"type": "way", "id": 1208304502, "nodes": [11196050018, 11196049989, 11196050017, 11196050016, 11196050015, 11196050014, 11196050013, 11196050012, 11196050011, 11196050010, 11196050009, 11196050008, 11196050007, 11196050006, 11196050005, 11196050004, 11196050003, 11196049983, 11196050018], "tags": {"amenity": "school"}}, {"type": "way", "id": 1208332641, "nodes": [11196272408, 11196272407, 11196272406, 11196272405, 11196272404, 11196272403, 11196272402, 11196292070, 11196272401, 11196272400, 11196272399, 11196272398, 11196287113, 11196287112, 11196287127, 11196287126, 11196287121, 11196287119, 11196272397, 11196287118, 11196292038, 11196292039, 11196272408], "tags": {"amenity": "school"}}, {"type": "way", "id": 1209974537, "nodes": [11209686918, 11209686917, 11209686916, 11209686915, 11209686914, 11209686913, 11209686912, 11209686911, 11209686910, 11209686909, 11209686908, 11209686907, 11209686906, 11209686905, 11209686904, 11209686903, 11209686902, 11209686901, 11209686900, 11209686899, 11209686898, 11209686918], "tags": {"amenity": "school"}}, {"type": "way", "id": 1216582526, "nodes": [11272235497, 11272235490, 11272235484, 11272235474, 11272235496, 11272235503, 11272235483, 11272235489, 11272235495, 11272235502, 11272236030, 11272236029, 11272235497], "tags": {"amenity": "school"}}]}