{"version": 0.6, "generator": "Overpass API 0.7.61.5 4133829e", "osm3s": {"timestamp_osm_base": "2024-03-05T11:04:15Z", "copyright": "The data included in this document is from www.openstreetmap.org. The data is made available under ODbL."}, "elements": [{"type": "node", "id": 5138762112, "lat": 4.9032928, "lon": -1.7682607, "tags": {"amenity": "atm", "brand": "Access Bank", "brand:wikidata": "Q4672418", "brand:wikipedia": "en:Access Bank plc", "name": "Access Bank", "operator": "Access Bank", "operator:wikidata": "Q4672418", "operator:wikipedia": "en:Access Bank plc"}}, {"type": "node", "id": 5138762487, "lat": 4.9032379, "lon": -1.7682305, "tags": {"amenity": "atm", "name": "Stanbic"}}, {"type": "node", "id": 5138762488, "lat": 4.9032723, "lon": -1.7682487, "tags": {"amenity": "atm", "name": "National Investment Bank"}}, {"type": "node", "id": 5138762718, "lat": 4.9033121, "lon": -1.7682701, "tags": {"addr:city": "Sekondi-Takoradi", "addr:country": "GH", "addr:region": "Western", "addr:street": "Independence Avenue", "addr:suburb": "Windy Ridge", "alt_name": "Standard Chartered Jubilee Park ATM", "amenity": "atm", "brand": "Standard Chartered", "brand:wikidata": "Q548278", "brand:wikipedia": "en:Standard Chartered", "cash_in": "no", "contact:instagram": "stanchartgh", "contact:linkedin": "standardchartered", "contact:twitter": "StanChartGH", "description": "Jubilee park, Takoradi", "email": "feedback.ghana@sc.com", "facebook": "StandardCharteredGH", "name": "Standard Chartered ATM", "opening_hours": "24/7", "operator": "Standard Chartered Ghana", "operator:type": "public", "operator:wikidata": "Q7598195", "operator:wikipedia": "en:Standard Chartered Ghana", "phone": "+233 30 263 3428; +233 30 274 0100", "website": "https://www.sc.com/gh"}}, {"type": "node", "id": 6203070691, "lat": 4.9422247, "lon": -1.75312, "tags": {"amenity": "atm", "name": "CAL Bank"}}, {"type": "node", "id": 6386033155, "lat": 4.92717, "lon": -1.7453452, "tags": {"addr:city": "Sekondi-Takoradi", "addr:country": "GH", "addr:region": "Western", "addr:street": "STMA Road", "addr:town": "Sekondi", "amenity": "atm", "brand": "Absa", "brand:wikidata": "Q58641733", "brand:wikipedia": "en:Absa Group Limited", "cash_in": "no", "check_date": "2023-03-12", "contact:instagram": "absaghana", "contact:linkedin": "absa-ghana", "contact:twitter": "AbsaGhana", "contact:whatsapp": "+233 50 164 4644", "contact:youtube": "https://www.youtube.com/channel/UCKpKPyfJ69tf7lnxudpzKJQ", "email": "service.excellence.GH@absa.africa", "facebook": "AbsaGhana", "name": "Absa ATM", "old_name": "Barclays", "opening_hours": "24/7", "operator": "Absa Bank Ghana Limited", "operator:type": "public", "operator:wikidata": "Q96371413", "operator:wikipedia": "en:Absa Bank Ghana", "phone": "+233 30 242 9150", "website": "https://www.absa.com.gh"}}, {"type": "node", "id": 7929306001, "lat": 4.9279954, "lon": -1.7788772, "tags": {"addr:city": "Sekondi-Takoradi", "addr:country": "GH", "addr:region": "Western", "addr:street": "St. Francis Street", "addr:suburb": "Kwesimintsim", "addr:town": "Takoradi", "amenity": "atm", "brand": "Absa", "brand:wikidata": "Q58641733", "brand:wikipedia": "en:Absa Group Limited", "contact:instagram": "absaghana", "contact:linkedin": "absa-ghana", "contact:twitter": "AbsaGhana", "contact:whatsapp": "+233 50 164 4644", "contact:youtube": "https://www.youtube.com/channel/UCKpKPyfJ69tf7lnxudpzKJQ", "description": "Visa, MasterCard, UnionPay,gh-link", "email": "service.excellence.GH@absa.africa", "facebook": "AbsaGhana", "name": "Absa ATM", "opening_hours": "24/7", "operator": "Absa Bank Ghana Limited", "operator:type": "public", "operator:wikidata": "Q96371413", "operator:wikipedia": "en:Absa Bank Ghana", "phone": "+233 30 242 9150", "website": "https://www.absa.com.gh"}}, {"type": "node", "id": 9645441250, "lat": 4.9320614, "lon": -1.7790319, "tags": {"amenity": "atm", "name": "CalBank"}}, {"type": "node", "id": 9645480717, "lat": 4.9146799, "lon": -1.7934017, "tags": {"amenity": "atm", "name": "CalBank"}}, {"type": "node", "id": 11377332953, "lat": 4.8995808, "lon": -1.7629603, "tags": {"addr:city": "Sekondi-Takoradi", "addr:country": "GH", "addr:region": "Western", "addr:street": "Liberation Road", "addr:suburb": "Market Circle", "alt_name": "Standard Chartered Liberation Road ATM", "amenity": "atm", "brand": "Standard Chartered", "brand:wikidata": "Q548278", "brand:wikipedia": "en:Standard Chartered", "cash_in": "no", "contact:instagram": "stanchartgh", "contact:linkedin": "standardchartered", "contact:twitter": "StanChartGH", "description": "Adjacent All Needs Supermarket, near Market Circle Takoradi", "email": "feedback.ghana@sc.com", "facebook": "StandardCharteredGH", "name": "Standard Chartered ATM", "opening_hours": "24/7", "operator": "Standard Chartered Ghana", "operator:type": "public", "operator:wikidata": "Q7598195", "operator:wikipedia": "en:Standard Chartered Ghana", "phone": "+233 30 263 3428; +233 30 274 0100", "website": "https://www.sc.com/gh"}}]}