{"version": 0.6, "generator": "Overpass API 0.7.61.5 4133829e", "osm3s": {"timestamp_osm_base": "2024-03-05T14:35:12Z", "copyright": "The data included in this document is from www.openstreetmap.org. The data is made available under ODbL."}, "elements": [{"type": "node", "id": 22908779, "lat": 57.625899, "lon": 11.8286973, "tags": {"amenity": "ferry_terminal", "name": "Knarrholmen", "network": "V\u00e4sttrafik", "operator": "V\u00e4sttrafik"}}, {"type": "node", "id": 26038561, "lat": 57.7130441, "lon": 11.6893525, "tags": {"amenity": "ferry_terminal", "cargo": "passengers;vehicle", "ferry": "yes", "name": "Gr\u00f6neviks f\u00e4rjel\u00e4ge", "operator": "Trafikverket", "public_transport": "stop_position"}}, {"type": "node", "id": 171316376, "lat": 57.6985656, "lon": 11.6668973, "tags": {"amenity": "ferry_terminal", "cargo": "passengers;vehicle", "ferry": "yes", "name": "H\u00f6n\u00f6 Pinans f\u00e4rjel\u00e4ge", "public_transport": "stop_position", "ref": "E"}}, {"type": "node", "id": 173159163, "lat": 57.7085407, "lon": 11.7029384, "tags": {"amenity": "ferry_terminal", "barrier": "lift_gate", "cargo": "passengers;vehicle", "ferry": "yes", "name": "Lilla Varholmen", "public_transport": "stop_position"}}, {"type": "node", "id": 248022336, "lat": 57.5912916, "lon": 11.7818485, "tags": {"amenity": "ferry_terminal", "cargo": "passengers", "ferry": "yes", "name": "K\u00e5rholmen", "network": "V\u00e4sttrafik", "public_transport": "stop_position", "ref": "A"}}, {"type": "node", "id": 263022003, "lat": 57.6949465, "lon": 11.6864833, "tags": {"amenity": "ferry_terminal", "ferry": "yes", "name": "Gr\u00f6t\u00f6 f\u00e4rjel\u00e4ge", "network": "V\u00e4sttrafik", "public_transport": "stop_position", "ref": "A"}}, {"type": "node", "id": 263891649, "lat": 57.7107946, "lon": 11.6832549, "tags": {"amenity": "ferry_terminal", "ferry": "footway", "name": "Kalvsund", "network": "V\u00e4sttrafik", "public_transport": "stop_position", "ref": "A"}}, {"type": "node", "id": 264139668, "lat": 57.603875, "lon": 11.7908614, "tags": {"amenity": "ferry_terminal", "ferry": "yes", "name": "Styrs\u00f6 Sk\u00e4ret", "network": "V\u00e4sttrafik", "operator": "V\u00e4sttrafik", "public_transport": "stop_position", "ref": "A", "wheelchair": "yes"}}, {"type": "node", "id": 265377538, "lat": 57.6492512, "lon": 11.8072954, "tags": {"amenity": "ferry_terminal", "cargo": "passengers", "ferry": "yes", "name": "Asper\u00f6 \u00d6stra", "network": "V\u00e4sttrafik", "public_transport": "stop_position", "ref": "A"}}, {"type": "node", "id": 288583407, "lat": 57.6958324, "lon": 11.9143932, "tags": {"amenity": "ferry_terminal", "brand": "Stena Line", "cargo": "passengers;vehicle", "ferry": "yes", "name": "Stena Line Tysklandsterminalen", "operator": "Stena Line", "operator:official_name": "Stena Line Scandinavia AB", "operator:wikidata": "Q833903", "public_transport": "stop_position"}}, {"type": "node", "id": 313760549, "lat": 57.6615258, "lon": 11.8423831, "tags": {"amenity": "ferry_terminal", "ferry": "yes", "name": "Saltholmens Brygga", "network": "V\u00e4sttrafik", "network:wikidata": "Q928178", "operator": "V\u00e4sttrafik", "public_transport": "stop_position", "ref": "C4", "wheelchair": "yes"}}, {"type": "node", "id": 313760602, "lat": 57.6232857, "lon": 11.7571872, "tags": {"amenity": "ferry_terminal", "ferry": "yes", "name": "Varg\u00f6 Stj\u00e4rnvik", "network": "V\u00e4sttrafik", "public_transport": "stop_position", "ref": "A"}}, {"type": "node", "id": 313760631, "lat": 57.621494, "lon": 11.7698926, "tags": {"amenity": "ferry_terminal", "ferry": "yes", "name": "Styrs\u00f6 T\u00e5ngen", "network": "V\u00e4sttrafik", "operator": "V\u00e4sttrafik", "public_transport": "stop_position", "ref": "A"}}, {"type": "node", "id": 313760636, "lat": 57.6160926, "lon": 11.7942038, "tags": {"amenity": "ferry_terminal", "ferry": "yes", "name": "Styrs\u00f6 Bratten", "network": "V\u00e4sttrafik", "operator": "V\u00e4sttrafik", "public_transport": "stop_position", "ref": "A", "wheelchair": "yes"}}, {"type": "node", "id": 313760696, "lat": 57.6251893, "lon": 11.8095461, "tags": {"amenity": "ferry_terminal", "ferry": "yes", "name": "K\u00f6pstads\u00f6", "network": "V\u00e4sttrafik", "public_transport": "stop_position", "ref": "A", "wheelchair": "yes"}}, {"type": "node", "id": 315979596, "lat": 57.7055056, "lon": 11.9398246, "tags": {"amenity": "ferry_terminal", "cargo": "passengers", "ferry": "yes", "name": "Lindholmspiren", "network": "V\u00e4sttrafik", "network:wikidata": "Q928178", "network:wikipedia": "sv:V\u00e4sttrafik", "public_transport": "stop_position", "ref": "A", "wheelchair": "yes"}}, {"type": "node", "id": 334098750, "lat": 57.7004859, "lon": 11.9151478, "tags": {"amenity": "ferry_terminal", "cargo": "passengers", "ferry": "yes", "name": "Eriksbergs f\u00e4rjel\u00e4ge", "network": "V\u00e4sttrafik", "network:wikidata": "Q928178", "network:wikipedia": "sv:V\u00e4sttrafik", "public_transport": "stop_position", "ref": "A", "wheelchair": "yes"}}, {"type": "node", "id": 334098759, "lat": 57.6926929, "lon": 11.9117182, "tags": {"amenity": "ferry_terminal", "cargo": "passengers", "ferry": "yes", "name": "Klippans f\u00e4rjel\u00e4ge", "network": "V\u00e4sttrafik", "public_transport": "stop_position", "ref": "A"}}, {"type": "node", "id": 343826072, "lat": 57.7031386, "lon": 11.9274756, "tags": {"amenity": "ferry_terminal", "cargo": "passengers", "ferry": "yes", "name": "Slottsberget", "network": "V\u00e4sttrafik", "network:wikidata": "Q928178", "network:wikipedia": "sv:V\u00e4sttrafik", "public_transport": "stop_position", "ref": "A"}}, {"type": "node", "id": 443450733, "lat": 57.711644, "lon": 11.6846158, "tags": {"amenity": "ferry_terminal", "ferry": "yes", "name": "Framn\u00e4s", "network": "V\u00e4sttrafik", "public_transport": "stop_position"}}, {"type": "node", "id": 451025021, "lat": 57.703154, "lon": 11.9694418, "tags": {"amenity": "ferry_terminal", "description": "avstigning/offboarding", "ferry": "yes", "name": "Paddan", "operator": "Str\u00f6mma Sk\u00e4rg\u00e5rdsb\u00e5tar", "tourism": "yes"}}, {"type": "node", "id": 495744568, "lat": 57.6353009, "lon": 11.7667895, "tags": {"amenity": "ferry_terminal", "ferry": "yes", "loc_name": "Br\u00e4nn\u00f6 brygga", "name": "Br\u00e4nn\u00f6 Husvik", "network": "V\u00e4sttrafik", "public_transport": "stop_position", "ref": "A"}}, {"type": "node", "id": 564639482, "lat": 57.71089, "lon": 11.6584304, "tags": {"amenity": "ferry_terminal", "ferry": "yes", "name": "\u00d6cker\u00f6 f\u00e4rjel\u00e4ge", "network": "V\u00e4sttrafik", "public_transport": "stop_position"}}, {"type": "node", "id": 639186627, "lat": 57.5999879, "lon": 11.7941732, "tags": {"amenity": "ferry_terminal", "ferry": "yes", "name": "Dons\u00f6", "network": "V\u00e4sttrafik", "public_transport": "stop_position", "ref": "A"}}, {"type": "node", "id": 666119541, "lat": 57.711799, "lon": 11.9658339, "tags": {"amenity": "ferry_terminal", "ferry": "yes", "name": "Lilla Bommens Hamn", "network": "V\u00e4sttrafik", "public_transport": "stop_position", "ref": "A"}}, {"type": "node", "id": 829768652, "lat": 57.6485494, "lon": 11.7854499, "tags": {"amenity": "ferry_terminal", "ferry": "yes", "name": "Br\u00e4nn\u00f6 R\u00f6dsten", "network": "V\u00e4sttrafik", "network:wikidata": "Q928178", "public_transport": "stop_position", "ref": "A"}}, {"type": "node", "id": 829771154, "lat": 57.6507276, "lon": 11.7926099, "tags": {"amenity": "ferry_terminal", "cargo": "passengers", "ferry": "yes", "name": "Asper\u00f6 Norra", "network": "V\u00e4sttrafik", "public_transport": "stop_position", "ref": "A"}}, {"type": "node", "id": 910461993, "lat": 57.6297859, "lon": 11.8541327, "tags": {"amenity": "ferry_terminal", "name": "Stora F\u00f6r\u00f6", "network": "V\u00e4sttrafik", "operator": "V\u00e4sttrafik"}}, {"type": "node", "id": 940099690, "lat": 57.5703254, "lon": 11.7919135, "tags": {"amenity": "ferry_terminal", "ferry": "yes", "name": "Vr\u00e5ng\u00f6", "network": "V\u00e4sttrafik", "network:wikidata": "Q928178", "network:wikipedia": "sv:V\u00e4sttrafik", "operator": "V\u00e4sttrafik", "public_transport": "stop_position", "ref": "A", "wheelchair": "yes"}}, {"type": "node", "id": 1477718832, "lat": 57.7046805, "lon": 11.7103563, "tags": {"amenity": "ferry_terminal"}}, {"type": "node", "id": 1477718839, "lat": 57.7088228, "lon": 11.7027863, "tags": {"amenity": "ferry_terminal", "cargo": "passengers;vehicle", "ferry": "yes", "name": "Lilla Varholmen", "public_transport": "stop_position"}}, {"type": "node", "id": 1550184693, "lat": 57.6231293, "lon": 11.7806416, "tags": {"amenity": "ferry_terminal", "ferry": "yes", "name": "K\u00e4ll\u00f6", "network": "V\u00e4sttrafik", "operator": "V\u00e4sttrafik", "public_transport": "stop_position", "ref": "A"}}, {"type": "node", "id": 1809871154, "lat": 57.7017156, "lon": 11.9451395, "tags": {"amenity": "ferry_terminal", "cargo": "passengers;vehicle", "ferry": "yes", "public_transport": "stop_position"}}, {"type": "node", "id": 1969860866, "lat": 57.5939053, "lon": 11.7688321, "tags": {"amenity": "ferry_terminal", "cargo": "passengers", "ferry": "yes", "name": "Sjumansholmen", "network": "V\u00e4sttrafik", "public_transport": "stop_position", "ref": "A"}}, {"type": "node", "id": 3707818839, "lat": 57.7059048, "lon": 11.9565657, "tags": {"amenity": "ferry_terminal", "cargo": "passengers", "check_date": "2023-06-03", "ferry": "yes", "name": "Stenpiren", "network": "V\u00e4sttrafik", "network:wikidata": "Q928178", "network:wikipedia": "sv:V\u00e4sttrafik", "public_transport": "stop_position", "ref": "E", "wheelchair": "yes"}}, {"type": "node", "id": 4779682525, "lat": 57.7060874, "lon": 11.9565197, "tags": {"amenity": "ferry_terminal", "cargo": "passengers", "check_date": "2023-06-03", "ferry": "yes", "name": "Stenpiren", "network": "V\u00e4sttrafik", "network:wikidata": "Q928178", "network:wikipedia": "sv:V\u00e4sttrafik", "public_transport": "stop_position", "ref": "E", "wheelchair": "yes"}}, {"type": "node", "id": 9946596272, "lat": 57.7084403, "lon": 11.703114, "tags": {"access": "yes", "amenity": "ferry_terminal", "barrier": "lift_gate", "cargo": "passengers;vehicle", "ferry": "yes", "name": "Lilla Varholmen"}}, {"type": "node", "id": 9947787410, "lat": 57.710803, "lon": 11.6586335, "tags": {"amenity": "ferry_terminal", "ferry": "footway", "name": "\u00d6cker\u00f6 f\u00e4rjel\u00e4ge", "network": "V\u00e4sttrafik", "public_transport": "stop_position", "ref": "D"}}, {"type": "node", "id": 9960955521, "lat": 57.6987534, "lon": 11.6669032, "tags": {"amenity": "ferry_terminal", "cargo": "passengers;vehicle", "ferry": "yes", "name": "H\u00f6n\u00f6 Pinans f\u00e4rjel\u00e4ge"}}, {"type": "node", "id": 9991840922, "lat": 57.7019069, "lon": 11.9469362, "tags": {"amenity": "ferry_terminal", "cargo": "vehicle"}}, {"type": "node", "id": 9991840926, "lat": 57.7017664, "lon": 11.9469855, "tags": {"amenity": "ferry_terminal", "cargo": "passengers"}}, {"type": "node", "id": 11094197032, "lat": 57.7035878, "lon": 11.9700026, "tags": {"amenity": "ferry_terminal", "description": "p\u00e5stigning/onboarding", "ferry": "yes", "name": "Paddan", "operator": "Str\u00f6mma Sk\u00e4rg\u00e5rdsb\u00e5tar", "tourism": "yes"}}, {"type": "node", "id": 11530492565, "lat": 57.7055473, "lon": 11.9397276, "tags": {"amenity": "ferry_terminal", "cargo": "passengers", "ferry": "yes", "name": "Lindholmspiren", "network": "V\u00e4sttrafik", "network:wikidata": "Q928178", "network:wikipedia": "sv:V\u00e4sttrafik", "public_transport": "stop_position", "ref": "A", "wheelchair": "yes"}}]}