{"version": 0.6, "generator": "Overpass API 0.7.61.5 4133829e", "osm3s": {"timestamp_osm_base": "2024-03-06T11:18:45Z", "copyright": "The data included in this document is from www.openstreetmap.org. The data is made available under ODbL."}, "elements": [{"type": "node", "id": 1037964689, "lat": 34.4833081, "lon": 41.9236789, "tags": {"alt_name": "\u0631\u0627\u0648\u0647", "capital": "6", "int_name": "Rawa - \u0631\u0627\u0648\u0629", "is_in": "Iraq , \u062c\u0645\u0647\u0648\u0631\u064a\u0629 \u0627\u0644\u0639\u0631\u0627\u0642", "is_in:country": "Iraq", "is_in:country_code": "IQ", "name": "\u0631\u0627\u0648\u0629", "name:ar": "\u0631\u0627\u0648\u0629", "name:ceb": "R\u0101wah", "name:de": "awa", "name:en": "Rawa", "name:es": "Rawa", "name:fr": "Rawa", "name:he": "\u05e8\u05d0\u05d5\u05d5\u05d4", "name:hy": "\u054c\u0561\u057e\u0561", "name:ja": "\u30e9\u30fc\u30ef", "name:ko": "\ub77c\uc640", "name:ru": "\u0420\u0430\u0432\u0430", "name:sv": "R\u0101wah", "name:uk": "\u0420\u0430\u0432\u0430", "place": "town", "population": "19629", "population:date": "2012", "wikidata": "Q2354244", "wikipedia": "ar:\u0631\u0627\u0648\u0629"}}, {"type": "node", "id": 1438669009, "lat": 34.4720721, "lon": 41.9195978, "tags": {"int_name": "Rawa", "name": "\u0631\u0627\u0648\u0647", "name:en": "Rawa", "place": "village"}}, {"type": "node", "id": 2488326929, "lat": 34.4831398, "lon": 41.8945391, "tags": {"alt_name": "\u0627\u0644\u0639\u0645\u0631\u064a\u0629", "int_name": "Al Amr\u012byah, Al Amriyah", "is_in": "Iraq , \u062c\u0645\u0647\u0648\u0631\u064a\u0629 \u0627\u0644\u0639\u0631\u0627\u0642", "name": "\u0627\u0644\u0639\u0645\u0631\u064a\u0629", "name:ar": "\u0627\u0644\u0639\u0645\u0631\u064a\u0629", "name:ar1": "\u0627\u0644\u0639\u0645\u0631\u064a\u0629", "name:de": "Al Amriyah", "name:en": "Al Amriyah", "name:fr": "Al Amriyah", "place": "village"}}, {"type": "node", "id": 2488431589, "lat": 34.325, "lon": 42.272222, "tags": {"alt_name": "\u0627\u0644\u0633\u0648\u0627\u0631\u064a", "int_name": "As Suw\u0101r\u012b, Saw\u0101r\u012b, S\u016bw\u0101ri, As Suwari, Sawari, Suwari", "is_in": "Iraq , \u062c\u0645\u0647\u0648\u0631\u064a\u0629 \u0627\u0644\u0639\u0631\u0627\u0642", "name": "\u0627\u0644\u0633\u0648\u0627\u0631\u064a", "name:ar": "\u0627\u0644\u0633\u0648\u0627\u0631\u064a", "name:ar1": "\u0627\u0644\u0633\u0648\u0627\u0631\u064a", "name:de": "As Suwari", "name:en": "As Suwari", "name:fr": "As Suwari", "place": "village"}}, {"type": "node", "id": 2488431600, "lat": 34.3365176, "lon": 42.2987563, "tags": {"alt_name": "\u0627\u0644\u0634\u0627\u0645\u0629", "int_name": "Ash Sh\u0101mah, Ash Shamah", "is_in": "Iraq , \u062c\u0645\u0647\u0648\u0631\u064a\u0629 \u0627\u0644\u0639\u0631\u0627\u0642", "name": "\u0627\u0644\u0634\u0627\u0645\u0629", "name:ar": "\u0627\u0644\u0634\u0627\u0645\u0629", "name:ar1": "\u0627\u0644\u0634\u0627\u0645\u0629", "name:de": "Ash Shamah", "name:en": "Ash Shamah", "name:fr": "Ash Shamah", "place": "village"}}, {"type": "node", "id": 2488431621, "lat": 34.3397727, "lon": 42.3485003, "tags": {"alt_name": "\u062f\u064a\u0631 \u062d\u0645\u064a\u062f\u0629", "int_name": "Dayr \u1e28am\u012bdah, Dayr Hamidah", "name": "\u062f\u064a\u0631 \u062d\u0645\u064a\u062f\u0629", "name:ar": "\u062f\u064a\u0631 \u062d\u0645\u064a\u062f\u0629", "name:ar1": "\u062f\u064a\u0631 \u062d\u0645\u064a\u062f\u0629", "name:de": "Dayr Hamidah", "name:en": "Dayr Hamidah", "name:fr": "Dayr Hamidah", "place": "village"}}, {"type": "node", "id": 2488431632, "lat": 34.3299478, "lon": 42.3612981, "tags": {"alt_name": "\u062f\u064a\u0631 \u0627\u0644\u062d\u0645\u064a\u062f\u0629", "int_name": "Dayr al \u1e28am\u012bdah, Deir Ham\u012bda, Dayr al Hamidah, Deir Hamida", "name": "\u062f\u064a\u0631 \u0627\u0644\u062d\u0645\u064a\u062f\u0629", "name:ar": "\u062f\u064a\u0631 \u0627\u0644\u062d\u0645\u064a\u062f\u0629", "name:ar1": "\u062f\u064a\u0631 \u0627\u0644\u062d\u0645\u064a\u062f\u0629", "name:de": "Dayr al Hamidah", "name:en": "Dayr al Hamidah", "name:fr": "Dayr al Hamidah", "place": "village"}}, {"type": "node", "id": 2488431690, "lat": 34.315833, "lon": 42.286389, "tags": {"alt_name": "\u062c\u0631\u0646\u0629", "int_name": "Jarna, Jarnah, Jarna, Jarnah", "is_in": "Iraq , \u062c\u0645\u0647\u0648\u0631\u064a\u0629 \u0627\u0644\u0639\u0631\u0627\u0642", "name": "\u062c\u0631\u0646\u0629", "name:ar": "\u062c\u0631\u0646\u0629", "name:ar1": "\u062c\u0631\u0646\u0629", "name:de": "Jarna", "name:en": "Jarna", "name:fr": "Jarna", "place": "village"}}, {"type": "node", "id": 2488431742, "lat": 34.333056, "lon": 42.3325, "tags": {"alt_name": "\u0633\u0631\u064a\u0627\u0641\u0629", "int_name": "Sary\u0101fa, Sary\u0101fah, Siry\u0101fah, Saryafa, Saryafah, Siryafah", "name": "\u0633\u0631\u064a\u0627\u0641\u0629", "name:ar": "\u0633\u0631\u064a\u0627\u0641\u0629", "name:ar1": "\u0633\u0631\u064a\u0627\u0641\u0629", "name:de": "Saryafa", "name:en": "Saryafa", "name:fr": "Saryafa", "place": "village"}}, {"type": "node", "id": 2488431757, "lat": 34.3379213, "lon": 42.3102555, "tags": {"alt_name": "\u0634\u0627\u0647\u0645\u0629", "int_name": "Sh\u0101himah, Sh\u0101hma, Shahimah, Shahma", "is_in": "Iraq , \u062c\u0645\u0647\u0648\u0631\u064a\u0629 \u0627\u0644\u0639\u0631\u0627\u0642", "name": "\u0634\u0627\u0647\u0645\u0629", "name:ar": "\u0634\u0627\u0647\u0645\u0629", "name:ar1": "\u0634\u0627\u0647\u0645\u0629", "name:de": "Shahimah", "name:en": "Shahimah", "name:fr": "Shahimah", "place": "village"}}, {"type": "node", "id": 2488431770, "lat": 34.3463426, "lon": 42.3005562, "tags": {"alt_name": "\u0634\u062d\u0645\u0629", "int_name": "Sha\u1e29mah, Shahmah", "is_in": "Iraq , \u062c\u0645\u0647\u0648\u0631\u064a\u0629 \u0627\u0644\u0639\u0631\u0627\u0642", "name": "\u0634\u062d\u0645\u0629", "name:ar": "\u0634\u062d\u0645\u0629", "name:ar1": "\u0634\u062d\u0645\u0629", "name:de": "Shahmah", "name:en": "Shahmah", "name:fr": "Shahmah", "place": "village"}}, {"type": "node", "id": 2488431819, "lat": 34.3175, "lon": 42.3775, "tags": {"alt_name": "\u062a\u0631\u062a\u0627\u0633\u0629", "int_name": "Tartasa, Tart\u0101sah, Tartasa, Tartasah", "name": "\u062a\u0631\u062a\u0627\u0633\u0629", "name:ar": "\u062a\u0631\u062a\u0627\u0633\u0629", "name:ar1": "\u062a\u0631\u062a\u0627\u0633\u0629", "name:de": "Tartasa", "name:en": "Tartasa", "name:fr": "Tartasa", "place": "village"}}, {"type": "node", "id": 2488432719, "lat": 34.506229, "lon": 42.394904, "tags": {"alt_name": "\u0628\u0626\u0631 \u0627\u0644\u063a\u0628\u064a\u0646\u064a", "int_name": "B\u012br al Ghab\u012bn\u012b, \u0628\u064a\u0631 \u0627\u0644\u063a\u0628\u064a\u0646\u064a, Bir al Ghabini, \u0628\u064a\u0631 \u0627\u0644\u063a\u0628\u064a\u0646\u064a", "name": "\u0628\u0626\u0631 \u0627\u0644\u063a\u0628\u064a\u0646\u064a", "name:ar": "\u0628\u0626\u0631 \u0627\u0644\u063a\u0628\u064a\u0646\u064a", "name:ar1": "\u0628\u0626\u0631 \u0627\u0644\u063a\u0628\u064a\u0646\u064a", "name:de": "Bir al Ghabini", "name:en": "Bir al Ghabini", "name:fr": "Bir al Ghabini", "place": "village"}}, {"type": "node", "id": 2489267810, "lat": 34.433333, "lon": 41.983333, "tags": {"alt_name": "\u0627\u0644\u062f\u0648\u0627\u0644\u064a", "int_name": "Ad Daw\u0101l\u012b, Ad Dawali", "is_in": "Iraq , \u062c\u0645\u0647\u0648\u0631\u064a\u0629 \u0627\u0644\u0639\u0631\u0627\u0642", "name": "\u0627\u0644\u062f\u0648\u0627\u0644\u064a", "name:ar": "\u0627\u0644\u062f\u0648\u0627\u0644\u064a", "name:ar1": "\u0627\u0644\u062f\u0648\u0627\u0644\u064a", "name:de": "Ad Dawali", "name:en": "Ad Dawali", "name:fr": "Ad Dawali", "place": "village"}}, {"type": "node", "id": 2489267811, "lat": 34.466667, "lon": 41.966667, "tags": {"alt_name": "\u0627\u0644\u062d\u0636\u0631", "int_name": "Al \u1e28a\u1e11ar, Al Hadar", "is_in": "Iraq , \u062c\u0645\u0647\u0648\u0631\u064a\u0629 \u0627\u0644\u0639\u0631\u0627\u0642", "name": "\u0627\u0644\u062d\u0636\u0631", "name:ar": "\u0627\u0644\u062d\u0636\u0631", "name:ar1": "\u0627\u0644\u062d\u0636\u0631", "name:de": "Al Hadar", "name:en": "Al Hadar", "name:fr": "Al Hadar", "place": "village"}}, {"type": "node", "id": 2489267826, "lat": 34.427139, "lon": 42.010798, "tags": {"alt_name": "\u0642\u0631\u064a\u0629 \u0627\u0644\u062e\u0644\u064a\u0644\u064a\u0629", "int_name": "Qaryat al Khal\u012bl\u012byah, \u0642\u0631\u064a\u0629 \u0627\u0644\u062e\u0644\u064a\u0644\u064a\u0629, Qaryat al Khaliliyah, \u0642\u0631\u064a\u0629 \u0627\u0644\u062e\u0644\u064a\u0644\u064a\u0629", "is_in": "Iraq , \u062c\u0645\u0647\u0648\u0631\u064a\u0629 \u0627\u0644\u0639\u0631\u0627\u0642", "name": "\u0642\u0631\u064a\u0629 \u0627\u0644\u062e\u0644\u064a\u0644\u064a\u0629", "name:ar": "\u0642\u0631\u064a\u0629 \u0627\u0644\u062e\u0644\u064a\u0644\u064a\u0629", "name:ar1": "\u0642\u0631\u064a\u0629 \u0627\u0644\u062e\u0644\u064a\u0644\u064a\u0629", "name:de": "Qaryat al Khaliliyah", "name:en": "Qaryat al Khaliliyah", "name:fr": "Qaryat al Khaliliyah", "place": "village"}}, {"type": "node", "id": 2489267859, "lat": 34.3725143, "lon": 41.9858716, "tags": {"alt_name": "\u0639\u0646\u0647 \u0627\u0644\u062c\u062f\u064a\u062f\u0629", "capital": "6", "int_name": "Ana - \u0639\u0646\u0647 \u0627\u0644\u062c\u062f\u064a\u062f\u0629", "is_in": "Iraq , \u062c\u0645\u0647\u0648\u0631\u064a\u0629 \u0627\u0644\u0639\u0631\u0627\u0642", "is_in:country": "Iraq", "is_in:country_code": "IQ", "name": "\u0639\u0627\u0646\u0629", "name:ar": "\u0639\u0627\u0646\u0629", "name:de": "Ana", "name:en": "Anah", "name:es": "Anah", "name:fr": "Anah", "name:ko": "\uc544\ub098", "name:ml": "\u0d06\u0d28\u0d3e", "name:ru": "\u0410\u043d\u0430", "place": "town", "population": "27211", "population:date": "2013", "wikidata": "Q2627750", "wikipedia": "en:Anah"}}, {"type": "node", "id": 2489267984, "lat": 34.349444, "lon": 42.077222, "tags": {"alt_name": "\u0642\u0631\u064a\u0629 \u062d\u0628\u064a\u0646 \u0627\u0644\u063a\u0631\u0628\u064a\u0629", "int_name": "Hubain, \u1e28ubayn, Qaryat \u1e28ubayn al Gharb\u012byah, Hubain, Hubayn, Qaryat Hubayn al Gharbiyah", "is_in": "Iraq , \u062c\u0645\u0647\u0648\u0631\u064a\u0629 \u0627\u0644\u0639\u0631\u0627\u0642", "name": "\u0642\u0631\u064a\u0629 \u062d\u0628\u064a\u0646 \u0627\u0644\u063a\u0631\u0628\u064a\u0629", "name:ar": "\u0642\u0631\u064a\u0629 \u062d\u0628\u064a\u0646 \u0627\u0644\u063a\u0631\u0628\u064a\u0629", "name:ar1": "\u0642\u0631\u064a\u0629 \u062d\u0628\u064a\u0646 \u0627\u0644\u063a\u0631\u0628\u064a\u0629", "name:de": "Hubain", "name:en": "Hubain", "name:fr": "Hubain", "place": "village"}}, {"type": "node", "id": 2489267991, "lat": 34.302222, "lon": 42.1275, "tags": {"alt_name": "\u0645\u0632\u064a\u062f", "int_name": "Maz\u012bd, Mazid", "is_in": "Iraq , \u062c\u0645\u0647\u0648\u0631\u064a\u0629 \u0627\u0644\u0639\u0631\u0627\u0642", "name": "\u0645\u0632\u064a\u062f", "name:ar": "\u0645\u0632\u064a\u062f", "name:ar1": "\u0645\u0632\u064a\u062f", "name:de": "Mazid", "name:en": "Mazid", "name:fr": "Mazid", "place": "village"}}, {"type": "node", "id": 2489267992, "lat": 34.316667, "lon": 42.2, "tags": {"alt_name": "\u0642\u0628\u0631 \u0635\u0628\u063a\u0629", "int_name": "Qabr \u015eabghah, Qabr Sabghah", "is_in": "Iraq , \u062c\u0645\u0647\u0648\u0631\u064a\u0629 \u0627\u0644\u0639\u0631\u0627\u0642", "name": "\u0642\u0628\u0631 \u0635\u0628\u063a\u0629", "name:ar": "\u0642\u0628\u0631 \u0635\u0628\u063a\u0629", "name:ar1": "\u0642\u0628\u0631 \u0635\u0628\u063a\u0629", "name:de": "Qabr Sabghah", "name:en": "Qabr Sabghah", "name:fr": "Qabr Sabghah", "place": "village"}}, {"type": "node", "id": 4633729619, "lat": 34.3411531, "lon": 42.0278289, "tags": {"name": "\u0627\u0644\u0631\u064a\u062d\u0627\u0646\u0647", "name:en": "Rihaneh", "place": "village"}}]}