{"version": 0.6, "generator": "Overpass API 0.7.61.5 4133829e", "osm3s": {"timestamp_osm_base": "2024-03-06T11:04:23Z", "copyright": "The data included in this document is from www.openstreetmap.org. The data is made available under ODbL."}, "elements": [{"type": "node", "id": 4374215799, "lat": 32.5065071, "lon": 45.8145512, "tags": {"amenity": "bank", "name": "Baghdad Bank", "name:ar": "\u0645\u0635\u0631\u0641 \u0627\u0644\u0631\u0634\u064a\u062f", "name:ku": "Al-rasheed Bank", "opening_hours": "24/7"}}, {"type": "node", "id": 5127136826, "lat": 32.1689437, "lon": 46.0401481, "tags": {"amenity": "bank", "name": "\u0645\u0635\u0631\u0641 \u0627\u0644\u0631\u0627\u0641\u062f\u064a\u0646 \u0641\u0631\u0639 \u0627\u0644\u062d\u064a"}}, {"type": "node", "id": 5237605823, "lat": 32.5025202, "lon": 45.8289747, "tags": {"amenity": "bank", "name": "\u0627\u0644\u0645\u0635\u0631\u0641 \u0627\u0644\u0639\u0642\u0627\u0631\u064a \u0641\u064a \u0648\u0627\u0633\u0637"}}, {"type": "node", "id": 5619145321, "lat": 32.4949726, "lon": 45.8249978, "tags": {"amenity": "bank"}}, {"type": "node", "id": 6387228086, "lat": 32.50116, "lon": 45.8243374, "tags": {"amenity": "bank", "name": "\u0645\u0635\u0631\u0641 \u0627\u0644\u0639\u0631\u0627\u0642 \u0644\u0644\u062a\u062c\u0627\u0631\u0629 \u0627\u0644\u0643\u0648\u062a", "name:en": "Tread bank of iraq , Alkut"}}, {"type": "node", "id": 7191672585, "lat": 32.4948482, "lon": 45.8248537, "tags": {"amenity": "bank", "name": "\u0645\u0635\u0631\u0641 \u0627\u0644\u0631\u0627\u0641\u062f\u064a\u0646 \u0627\u0644\u062d\u0643\u0648\u0645\u064a"}}, {"type": "node", "id": 7198598189, "lat": 32.4994974, "lon": 45.8259775, "tags": {"amenity": "bank", "name": "\u0645\u0635\u0631\u0641 \u0627\u0644\u062a\u0646\u0645\u064a\u0629 \u0627\u0644\u062f\u0648\u0644\u064a", "name:ku": "\u0634\u0627\u0631\u0639 \u0627\u0644\u0647\u0648\u0631\u0647"}}, {"type": "node", "id": 8402704617, "lat": 32.5139735, "lon": 45.8060837, "tags": {"amenity": "bank"}}, {"type": "node", "id": 9384316677, "lat": 32.5028862, "lon": 45.8387215, "tags": {"addr:full": "ATM - KUT - UNIVERSITY OF WASSIT", "amenity": "atm", "atm": "yes", "cash_out": "yes", "currency:IQD": "yes", "language:ar": "yes", "language:en": "yes", "name": "\u0635\u0631\u0627\u0641 \u0622\u0644\u064a - \u0627\u0644\u0645\u0635\u0631\u0641 \u0627\u0644\u0639\u0631\u0627\u0642\u064a \u0644\u0644\u062a\u062c\u0627\u0631\u0629", "name:en": "TBI ATM", "operator": "Trade Bank of Iraq", "website": "https://tbi.com.iq/"}}, {"type": "node", "id": 9384316782, "lat": 32.5009925, "lon": 45.8240577, "tags": {"addr:full": "Branch - Kut 1", "amenity": "bank", "name": "\u0627\u0644\u0645\u0635\u0631\u0641 \u0627\u0644\u0639\u0631\u0627\u0642\u064a \u0644\u0644\u062a\u062c\u0627\u0631\u0629", "name:en": "Trade Bank of Iraq Branch", "operator": "Trade Bank of Iraq", "website": "https://tbi.com.iq/"}}, {"type": "node", "id": 10579828442, "lat": 32.4995327, "lon": 45.8260029, "tags": {"amenity": "bank", "name": "\u0645\u0635\u0631\u0641 \u0627\u0644\u062a\u0646\u0645\u064a\u0629 \u0641\u0631\u0639 \u0627\u0644\u0643\u0648\u062a"}}, {"type": "node", "id": 10742841905, "lat": 32.5198429, "lon": 45.7976138, "tags": {"amenity": "bank"}}, {"type": "node", "id": 10980525667, "lat": 32.1690161, "lon": 46.0402689, "tags": {"amenity": "bank", "name": "\u0645\u0635\u0631\u0641 \u0627\u0644\u0631\u0627\u0641\u062f\u064a\u0646 \u0627\u0644\u062d\u064a"}}, {"type": "node", "id": 10980553706, "lat": 32.5012875, "lon": 45.8276788, "tags": {"amenity": "bank", "name": "\u0645\u0635\u0631\u0641 \u0627\u0644\u062f\u0645"}}, {"type": "node", "id": 10980553707, "lat": 32.5021694, "lon": 45.82855, "tags": {"amenity": "bank", "name": "\u0627\u0644\u0645\u0635\u0631\u0641 \u0627\u0644\u0639\u0642\u0627\u0631\u064a"}}, {"type": "node", "id": 10980553709, "lat": 32.5015244, "lon": 45.8286324, "tags": {"amenity": "bank", "name": "\u0627\u0644\u0645\u0635\u0631\u0641 \u0627\u0644\u0632\u0631\u0627\u0639\u064a \u0643\u0648\u062a"}}, {"type": "node", "id": 10980553722, "lat": 32.4948992, "lon": 45.8250143, "tags": {"amenity": "bank", "name": "\u0645\u0635\u0631\u0641 \u0627\u0644\u0631\u0627\u0641\u062f\u064a\u0646 \u0627\u0644\u0643\u0648\u062a"}}, {"type": "node", "id": 10980553724, "lat": 32.4974032, "lon": 45.827839, "tags": {"amenity": "bank", "name": "\u0645\u0635\u0631\u0641 \u0642\u0631\u0637\u0628\u0629"}}, {"type": "node", "id": 10980553727, "lat": 32.5010696, "lon": 45.8231819, "tags": {"amenity": "bank", "name": "\u0645\u0635\u0631\u0641 \u0627\u0644\u0631\u0627\u0641\u062f\u064a\u0646 \u0627\u0644\u0645\u0634\u0631\u0648\u0639"}}, {"type": "node", "id": 10980553744, "lat": 32.5051037, "lon": 45.8161999, "tags": {"amenity": "bank", "name": "\u0645\u0635\u0631\u0641 \u0627\u0644\u0631\u0634\u064a\u062f \u0627\u0644\u0643\u0648\u062a"}}, {"type": "node", "id": 10980553766, "lat": 32.5126633, "lon": 45.8202218, "tags": {"amenity": "bank", "name": "\u0645\u0635\u0631\u0641 \u0627\u0644\u0639\u0631\u0627\u0642"}}, {"type": "node", "id": 11338517770, "lat": 32.5062929, "lon": 45.8147054, "tags": {"amenity": "bank", "name": "\u0645\u0635\u0631\u0641 \u0628\u063a\u062f\u0627\u062f \u0627\u0644\u0627\u0647\u0644\u064a", "name:en": "Baghdad Bank"}}]}