{"version": 0.6, "generator": "Overpass API 0.7.61.5 4133829e", "osm3s": {"timestamp_osm_base": "2024-03-06T10:58:15Z", "copyright": "The data included in this document is from www.openstreetmap.org. The data is made available under ODbL."}, "elements": [{"type": "node", "id": 5902608788, "lat": 32.9923849, "lon": 47.4192669, "tags": {"amenity": "bank", "atm": "yes", "name": "\u0628\u0627\u0646\u06a9 \u06a9\u0634\u0627\u0648\u0631\u0632\u06cc"}}, {"type": "node", "id": 5902608798, "lat": 32.9925276, "lon": 47.4200028, "tags": {"amenity": "bank", "atm": "yes", "brand": "\u0628\u0627\u0646\u06a9 \u0635\u0627\u062f\u0631\u0627\u062a", "brand:en": "Bank Saderat Iran", "brand:fa": "\u0628\u0627\u0646\u06a9 \u0635\u0627\u062f\u0631\u0627\u062a", "brand:wikidata": "Q2882608", "name": "\u0628\u0627\u0646\u06a9 \u0635\u0627\u062f\u0631\u0627\u062a", "name:en": "Bank Saderat Iran", "name:fa": "\u0628\u0627\u0646\u06a9 \u0635\u0627\u062f\u0631\u0627\u062a"}}, {"type": "node", "id": 5902608803, "lat": 32.9921855, "lon": 47.4219033, "tags": {"addr:city": "\u0622\u0628\u062f\u0627\u0646\u0627\u0646", "addr:street": "\u062e\u06cc\u0627\u0628\u0627\u0646 \u0648\u0644\u06cc\u0639\u0635\u0631 \u0634\u0631\u0642\u06cc", "amenity": "bank", "atm": "yes", "name": "\u0628\u0627\u0646\u06a9 \u0645\u0644\u062a", "not:brand:wikidata": "Q4855944"}}, {"type": "node", "id": 5902608805, "lat": 32.9924183, "lon": 47.4204411, "tags": {"amenity": "bank", "atm": "yes", "brand": "\u0628\u0627\u0646\u06a9 \u0645\u0633\u06a9\u0646", "brand:en": "Bank Maskan", "brand:wikidata": "Q4855942", "name": "\u0628\u0627\u0646\u06a9 \u0645\u0633\u06a9\u0646", "name:en": "Bank Maskan"}}, {"type": "node", "id": 5902608812, "lat": 32.9940126, "lon": 47.4218216, "tags": {"addr:city": "\u0622\u0628\u062f\u0627\u0646\u0627\u0646", "addr:street": "\u062e\u06cc\u0627\u0628\u0627\u0646 \u0627\u0645\u0627\u0645 \u062e\u0645\u06cc\u0646\u06cc", "amenity": "bank", "atm": "yes", "brand": "\u0628\u0627\u0646\u06a9 \u0627\u0646\u0635\u0627\u0631", "brand:en": "Ansar Bank", "brand:fa": "\u0628\u0627\u0646\u06a9 \u0627\u0646\u0635\u0627\u0631", "brand:wikidata": "Q5862675", "drive_through": "yes", "name": "\u0628\u0627\u0646\u06a9 \u0627\u0646\u0635\u0627\u0631", "name:en": "Ansar Bank", "name:fa": "\u0628\u0627\u0646\u06a9 \u0627\u0646\u0635\u0627\u0631"}}, {"type": "node", "id": 5902608819, "lat": 32.992498, "lon": 47.4209814, "tags": {"addr:city": "\u0622\u0628\u062f\u0627\u0646\u0627\u0646", "addr:street": "\u0645\u0637\u0647\u0631\u06cc \u0634\u0645\u0627\u0644\u06cc", "amenity": "bank", "atm": "yes", "brand": "\u0628\u0627\u0646\u06a9 \u06a9\u0634\u0627\u0648\u0631\u0632\u06cc", "brand:en": "Bank Keshavarzi Iran", "brand:wikidata": "Q6395007", "name": "\u0628\u0627\u0646\u06a9 \u06a9\u0634\u0627\u0648\u0631\u0632\u06cc", "name:en": "Bank Keshavarzi Iran"}}, {"type": "node", "id": 6012459587, "lat": 33.1385649, "lon": 47.3750654, "tags": {"amenity": "bank", "atm": "yes", "brand": "\u0628\u0627\u0646\u06a9 \u0635\u0627\u062f\u0631\u0627\u062a", "brand:en": "Bank Saderat Iran", "brand:wikidata": "Q2882608", "brand:wikipedia": "en:Bank Saderat Iran", "name": "\u0628\u0627\u0646\u06a9 \u0635\u0627\u062f\u0631\u0627\u062a", "name:en": "Bank Saderat Iran"}}, {"type": "node", "id": 6012459588, "lat": 33.1501311, "lon": 47.3882472, "tags": {"amenity": "bank", "atm": "yes", "brand": "\u0628\u0627\u0646\u06a9 \u0645\u0644\u06cc", "brand:en": "Bank Melli Iran", "brand:wikidata": "Q806640", "brand:wikipedia": "en:Bank Melli Iran", "name": "\u0628\u0627\u0646\u06a9 \u0645\u0644\u06cc", "name:en": "Bank Melli Iran"}}, {"type": "node", "id": 6012459589, "lat": 33.137118, "lon": 47.3758559}, {"type": "node", "id": 6012459590, "lat": 33.1382427, "lon": 47.3766235, "tags": {"amenity": "bank", "atm": "yes", "brand": "\u0628\u0627\u0646\u06a9 \u0633\u067e\u0647", "brand:en": "Bank Sepah", "brand:wikidata": "Q2882624", "brand:wikipedia": "en:Bank Sepah", "name": "\u0628\u0627\u0646\u06a9 \u0633\u067e\u0647", "name:en": "Bank Sepah"}}, {"type": "node", "id": 6012459591, "lat": 33.1427521, "lon": 47.37722, "tags": {"amenity": "bank", "atm": "yes", "brand": "\u0628\u0627\u0646\u06a9 \u0645\u0644\u062a", "brand:en": "Bank Mellat", "brand:wikidata": "Q4855944", "brand:wikipedia": "en:Bank Mellat", "name": "\u0628\u0627\u0646\u06a9 \u0645\u0644\u062a", "name:en": "Bank Mellat"}}, {"type": "node", "id": 6012459592, "lat": 33.1378772, "lon": 47.377229}, {"type": "node", "id": 6012459593, "lat": 33.1386396, "lon": 47.3755034, "tags": {"amenity": "bank", "atm": "yes", "brand": "\u0628\u0627\u0646\u06a9 \u062a\u062c\u0627\u0631\u062a", "brand:wikidata": "Q7695198", "brand:wikipedia": "en:Tejarat Bank", "name": "\u0628\u0627\u0646\u06a9 \u062a\u062c\u0627\u0631\u062a", "name:en": "Bank Tejarat"}}, {"type": "node", "id": 6012459594, "lat": 33.1382538, "lon": 47.3764955}, {"type": "node", "id": 6356934558, "lat": 33.13686, "lon": 47.3756094}, {"type": "node", "id": 6356934559, "lat": 33.1366183, "lon": 47.3758142}, {"type": "node", "id": 6356934560, "lat": 33.1369142, "lon": 47.3761271}, {"type": "node", "id": 6356934582, "lat": 33.1379046, "lon": 47.3770724}, {"type": "node", "id": 6356934583, "lat": 33.1376052, "lon": 47.3769975}, {"type": "node", "id": 6356934584, "lat": 33.1375777, "lon": 47.377154}, {"type": "node", "id": 6356934585, "lat": 33.1382693, "lon": 47.3763723}, {"type": "node", "id": 6356934586, "lat": 33.1384086, "lon": 47.3764031}, {"type": "node", "id": 6356934587, "lat": 33.1383931, "lon": 47.3765263}, {"type": "node", "id": 6426073832, "lat": 33.4029285, "lon": 47.3224108, "tags": {"amenity": "bank", "atm": "yes", "name": "\u0628\u0627\u0646\u06a9 \u0645\u0644\u06cc"}}, {"type": "node", "id": 6426608593, "lat": 33.279883, "lon": 47.5119869, "tags": {"amenity": "bank", "atm": "yes", "name": "\u0628\u0627\u0646\u06a9 \u0633\u067e\u0647"}}, {"type": "node", "id": 6426608594, "lat": 33.2807974, "lon": 47.5106633, "tags": {"amenity": "bank", "atm": "yes", "name": "\u0628\u0627\u0646\u06a9 \u0645\u0644\u06cc"}}, {"type": "node", "id": 6685470927, "lat": 33.1359865, "lon": 47.3747668, "tags": {"amenity": "bank", "atm": "yes", "brand": "\u0628\u0627\u0646\u06a9 \u062a\u0648\u0633\u0639\u0647 \u062a\u0639\u0627\u0648\u0646", "brand:wikidata": "Q5684450", "brand:wikipedia": "fa:\u0628\u0627\u0646\u06a9 \u062a\u0648\u0633\u0639\u0647 \u062a\u0639\u0627\u0648\u0646", "name": "\u0628\u0627\u0646\u06a9 \u062a\u0648\u0633\u0639\u0647 \u062a\u0639\u0627\u0648\u0646"}}, {"type": "node", "id": 6685470928, "lat": 33.1372919, "lon": 47.3749701, "tags": {"amenity": "bank", "brand": "\u0628\u0627\u0646\u06a9 \u0631\u0641\u0627\u0647", "brand:en": "Refah Bank", "brand:wikidata": "Q7307083", "brand:wikipedia": "en:Refah Bank", "name": "\u0628\u0627\u0646\u06a9 \u0631\u0641\u0627\u0647", "name:en": "Refah Bank"}}, {"type": "way", "id": 678910981, "nodes": [6012459589, 6356934558, 6356934559, 6356934560, 6012459589], "tags": {"amenity": "bank", "atm": "yes", "brand": "\u0628\u0627\u0646\u06a9 \u06a9\u0634\u0627\u0648\u0631\u0632\u06cc", "brand:en": "Bank Keshavarzi Iran", "brand:wikidata": "Q6395007", "brand:wikipedia": "en:Bank Keshavarzi Iran", "building": "yes", "name": "\u0628\u0627\u0646\u06a9 \u06a9\u0634\u0627\u0648\u0631\u0632\u06cc", "name:en": "Bank Keshavarzi Iran"}}, {"type": "way", "id": 678910991, "nodes": [6012459592, 6356934582, 6356934583, 6356934584, 6012459592], "tags": {"amenity": "bank", "atm": "yes", "brand": "\u0628\u0627\u0646\u06a9 \u0645\u0644\u06cc", "brand:en": "Bank Melli Iran", "brand:wikidata": "Q806640", "brand:wikipedia": "en:Bank Melli Iran", "building": "yes", "name": "\u0628\u0627\u0646\u06a9 \u0645\u0644\u06cc", "name:en": "Bank Melli Iran"}}, {"type": "way", "id": 678910993, "nodes": [6012459594, 6356934585, 6356934586, 6356934587, 6012459594], "tags": {"amenity": "bank", "atm": "yes", "brand": "\u0628\u0627\u0646\u06a9 \u0645\u0633\u06a9\u0646", "brand:en": "Bank Maskan", "brand:wikidata": "Q4855942", "brand:wikipedia": "en:Bank Maskan", "building": "yes", "name": "\u0628\u0627\u0646\u06a9 \u0645\u0633\u06a9\u0646", "name:en": "Bank Maskan"}}]}