{"version": 0.6, "generator": "Overpass API 0.7.61.5 4133829e", "osm3s": {"timestamp_osm_base": "2024-03-05T15:10:59Z", "copyright": "The data included in this document is from www.openstreetmap.org. The data is made available under ODbL."}, "elements": [{"type": "node", "id": 30969517, "lat": 63.6744703, "lon": 22.7055385, "tags": {"gns:ufi": "-1367104", "loc_name": "Jeppis", "name": "Jakobstad", "name:fi": "Pietarsaari", "name:ru": "\u042f\u043a\u043e\u0431\u0441\u0442\u0430\u0434", "name:sv": "Jakobstad", "place": "town", "population": "19077", "population:date": "2021-01", "source": "http://fi.wikipedia.org/wiki/Pietarsaari", "source:population": "Tilastokeskus", "website": "https://www.pietarsaari.fi/", "wikidata": "Q1679567", "wikipedia": "sv:Jakobstad"}}, {"type": "node", "id": 30969734, "lat": 63.5222473, "lon": 22.5284347, "tags": {"gns:ufi": "-1379270", "name": "Nykarleby", "name:fi": "Uusikaarlepyy", "name:ru": "\u041d\u044e\u043a\u0430\u0440\u043b\u0435\u0431\u044e", "name:sv": "Nykarleby", "place": "town", "population": "7445", "source": "gns"}}, {"type": "node", "id": 304245116, "lat": 63.5276497, "lon": 22.6018939, "tags": {"name": "Lippj\u00e4rv", "place": "hamlet"}}, {"type": "node", "id": 385732547, "lat": 63.6820113, "lon": 22.7123784, "tags": {"name": "London", "name:fi": "Lontoo", "name:sv": "London", "place": "village"}}, {"type": "node", "id": 385732550, "lat": 63.6756349, "lon": 22.7253964, "tags": {"name": "Permo", "name:fi": "Permo", "name:ru": "\u041f\u0435\u0440\u043c\u043e", "name:sv": "Permo", "place": "village"}}, {"type": "node", "id": 385732553, "lat": 63.6698614, "lon": 22.7218048, "tags": {"name": "Svedjenabba", "name:fi": "Kaskiniemi", "name:sv": "Svedjenabba", "place": "village"}}, {"type": "node", "id": 385732559, "lat": 63.683938, "lon": 22.7345508, "tags": {"name": "Sveden", "name:fi": "Kyt\u00f6m\u00e4ki", "name:sv": "Sveden", "place": "village"}}, {"type": "node", "id": 385732561, "lat": 63.6852156, "lon": 22.7606451, "tags": {"name": "Rosasholmen", "name:fi": "Ruusasholma", "name:sv": "Rosasholmen", "place": "village"}}, {"type": "node", "id": 385732564, "lat": 63.6553466, "lon": 22.699435, "tags": {"name": "Lann\u00e4slund", "name:fi": "Lann\u00e4slund", "name:sv": "Lann\u00e4slund", "place": "hamlet"}}, {"type": "node", "id": 385732568, "lat": 63.651119, "lon": 22.691544, "tags": {"name": "Staffansn\u00e4s", "name:fi": "Staffansn\u00e4s", "name:sv": "Staffansn\u00e4s", "place": "hamlet"}}, {"type": "node", "id": 386908661, "lat": 63.6854894, "lon": 22.7487739, "tags": {"name": "Bj\u00f6rnholmen", "name:fi": "Karhusaari", "name:ru": "\u0411\u044c\u0451\u0440\u043d\u0445\u043e\u043b\u043c\u0435\u043d", "name:sv": "Bj\u00f6rnholmen", "place": "village", "wikidata": "Q97341365", "wikipedia": "fi:Karhusaari (Pietarsaari)"}}, {"type": "node", "id": 387180681, "lat": 63.6535478, "lon": 22.7267758, "tags": {"name": "Sandsund", "name:fi": "Hietasalmi", "name:ru": "\u0421\u0430\u043d\u0434\u0441\u0443\u043d\u0434", "name:sv": "Sandsund", "place": "village"}}, {"type": "node", "id": 387199652, "lat": 63.6940535, "lon": 22.7372308, "tags": {"name": "\u00d6stanp\u00e5", "name:fi": "Pohjois-It\u00e4l\u00e4", "name:ru": "\u0401\u0441\u0442\u0430\u043d\u043f\u043e", "name:sv": "\u00d6stanp\u00e5", "place": "village"}}, {"type": "node", "id": 387524734, "lat": 63.6618172, "lon": 22.7665901, "tags": {"name": "Granholmen", "name:fi": "Kuusisaari", "name:sv": "Granholmen", "place": "hamlet"}}, {"type": "node", "id": 387545497, "lat": 63.6803573, "lon": 22.705582, "tags": {"name": "Skata", "place": "village"}}, {"type": "node", "id": 388438345, "lat": 63.6862827, "lon": 22.7163611, "tags": {"name": "Kr\u00e5kholmen", "name:fi": "Kr\u00e5kholma", "name:sv": "Kr\u00e5kholmen", "place": "village"}}, {"type": "node", "id": 389974242, "lat": 63.6595305, "lon": 22.7023601, "tags": {"name": "Kyrkostrand", "name:fi": "Kirkkoranta", "name:sv": "Kyrkostrand", "place": "village"}}, {"type": "node", "id": 389982943, "lat": 63.6610642, "lon": 22.7128616, "tags": {"name": "Kivil\u00f6s", "name:fi": "Kivil\u00f6s", "name:sv": "Kivil\u00f6s", "place": "village"}}, {"type": "node", "id": 391049212, "lat": 63.668649, "lon": 22.686305, "tags": {"name": "Bon\u00e4s", "name:fi": "Majaniemi", "name:ru": "\u0411\u043e\u043d\u044f\u0441", "name:sv": "Bon\u00e4s", "place": "village"}}, {"type": "node", "id": 392949697, "lat": 63.6730055, "lon": 22.7629875, "tags": {"name": "Killingholmen", "name:fi": "Kilisaari", "name:ru": "\u041a\u0438\u043b\u043b\u0438\u043d\u0433\u0445\u043e\u043b\u043c\u0435\u043d", "name:sv": "Killingholmen", "place": "village"}}, {"type": "node", "id": 409455969, "lat": 63.6892785, "lon": 22.7521817, "tags": {"name": "F\u00e5rholmen", "name:fi": "Lammassaari", "name:sv": "F\u00e5rholmen", "place": "hamlet"}}, {"type": "node", "id": 443222787, "lat": 63.658866, "lon": 22.6599907, "tags": {"name": "Bj\u00f6rnviken", "name:fi": "Otsolahti", "name:ru": "\u0411\u044c\u0451\u0440\u043d\u0432\u0438\u043a\u0435\u043d", "name:sv": "Bj\u00f6rnviken", "place": "village"}}, {"type": "node", "id": 443222791, "lat": 63.6595449, "lon": 22.6807502, "tags": {"name": "Baggholmen", "name:fi": "Oinaansaari", "name:ru": "\u0411\u0430\u0433\u0433\u0445\u043e\u043b\u043c\u0435\u043d", "name:sv": "Baggholmen", "place": "village"}}, {"type": "node", "id": 1186388194, "lat": 63.6769523, "lon": 22.6808309, "tags": {"name": "V\u00e4stersundsby", "name:fi": "Vestersundinkyl\u00e4", "name:sv": "V\u00e4stersundsby", "place": "village"}}, {"type": "node", "id": 1186388195, "lat": 63.6972052, "lon": 22.6563368, "tags": {"name": "H\u00e4llan", "place": "hamlet"}}, {"type": "node", "id": 1186388196, "lat": 63.674759, "lon": 22.7195837, "tags": {"name": "Sik\u00f6ren", "name:fi": "Siikaluoto", "name:sv": "Sikoren", "place": "hamlet"}}, {"type": "node", "id": 1186388199, "lat": 63.6862618, "lon": 22.64153, "tags": {"name": "Kisor", "place": "hamlet"}}, {"type": "node", "id": 1186388201, "lat": 63.674096, "lon": 22.7931068, "tags": {"name": "Piril\u00f6", "place": "hamlet"}}, {"type": "node", "id": 1186388202, "lat": 63.6597614, "lon": 22.6925773, "tags": {"name": "Lappfj\u00e4rden", "name:fi": "Lapinneva", "name:sv": "Lappfj\u00e4rden", "place": "village"}}, {"type": "node", "id": 1186388204, "lat": 63.665969, "lon": 22.7294739, "tags": {"name": "Peders", "place": "hamlet"}}, {"type": "node", "id": 1186388206, "lat": 63.6850022, "lon": 22.7202772, "tags": {"name": "\u00d6stermalm", "name:da": "\u00d6stermalm", "name:fi": "It\u00e4nummi", "name:is": "\u00d6stermalm", "name:nn": "\u00d6stermalm", "name:no": "\u00d6stermalm", "name:ru": "\u0401\u0441\u0442\u0435\u0440\u043c\u0430\u043b\u043c", "name:sv": "\u00d6stermalm", "place": "village"}}, {"type": "node", "id": 1186388207, "lat": 63.6788151, "lon": 22.6862677, "tags": {"name": "Skutn\u00e4s", "place": "village"}}, {"type": "node", "id": 1309678841, "lat": 63.4067576, "lon": 22.6454863, "tags": {"name": "Jeppo", "name:fi": "Jepua", "name:sv": "Jeppo", "note": "duplicate info from relation", "place": "town", "population": "1100"}}, {"type": "node", "id": 1316689298, "lat": 63.3422582, "lon": 22.6695392}, {"type": "node", "id": 1316689299, "lat": 63.4484594, "lon": 22.585816}, {"type": "node", "id": 1316689300, "lat": 63.4516619, "lon": 22.7067506}, {"type": "node", "id": 1316689301, "lat": 63.395957, "lon": 22.5777656}, {"type": "node", "id": 1316689302, "lat": 63.3503997, "lon": 22.743972}, {"type": "node", "id": 1316689303, "lat": 63.3392787, "lon": 22.6556455}, {"type": "node", "id": 1316689304, "lat": 63.4254511, "lon": 22.7588192}, {"type": "node", "id": 1316689305, "lat": 63.4052112, "lon": 22.5799143}, {"type": "node", "id": 1316689306, "lat": 63.4330896, "lon": 22.5820188}, {"type": "node", "id": 1316689307, "lat": 63.3471608, "lon": 22.7408129}, {"type": "node", "id": 1316689308, "lat": 63.4514564, "lon": 22.5985169}, {"type": "node", "id": 1316689309, "lat": 63.3524817, "lon": 22.6378836}, {"type": "node", "id": 1316689310, "lat": 63.4223809, "lon": 22.7616524}, {"type": "node", "id": 1316689311, "lat": 63.4122479, "lon": 22.5714311}, {"type": "node", "id": 1316689312, "lat": 63.4359008, "lon": 22.5839207}, {"type": "node", "id": 1316689313, "lat": 63.343502, "lon": 22.7152175}, {"type": "node", "id": 1316689314, "lat": 63.450829, "lon": 22.6393699}, {"type": "node", "id": 1316689315, "lat": 63.3655197, "lon": 22.6169947}, {"type": "node", "id": 1316689316, "lat": 63.416352, "lon": 22.7627227}, {"type": "node", "id": 1316689318, "lat": 63.4382937, "lon": 22.5817609}, {"type": "node", "id": 1316689319, "lat": 63.3443119, "lon": 22.7109624}, {"type": "node", "id": 1316689320, "lat": 63.4566311, "lon": 22.6808989}, {"type": "node", "id": 1316689321, "lat": 63.3680052, "lon": 22.6007155}, {"type": "node", "id": 1316689322, "lat": 63.4055871, "lon": 22.7692077}, {"type": "node", "id": 1316689323, "lat": 63.4211707, "lon": 22.553841}, {"type": "node", "id": 1316689324, "lat": 63.4449381, "lon": 22.5687864}, {"type": "node", "id": 1316689325, "lat": 63.4575089, "lon": 22.6847773}, {"type": "node", "id": 1316689326, "lat": 63.3719643, "lon": 22.5936881}, {"type": "node", "id": 1316689327, "lat": 63.3900243, "lon": 22.788033}, {"type": "node", "id": 1316689328, "lat": 63.3432417, "lon": 22.6773726}, {"type": "node", "id": 1316689329, "lat": 63.4487043, "lon": 22.578853}, {"type": "node", "id": 1316689330, "lat": 63.4564736, "lon": 22.6998375}, {"type": "node", "id": 1316689331, "lat": 63.3902722, "lon": 22.5734842}, {"type": "node", "id": 1316689332, "lat": 63.3712644, "lon": 22.7476121}, {"type": "node", "id": 1321792399, "lat": 63.4061977, "lon": 22.6496542, "tags": {"name": "Silvast", "name:fi": "Silvast", "name:sv": "Silvast", "place": "hamlet"}}, {"type": "node", "id": 1323620122, "lat": 63.3450835, "lon": 22.5540231, "tags": {"name": "Pensala", "name:sv": "Pensala", "place": "village"}}, {"type": "node", "id": 1356998873, "lat": 63.4372091, "lon": 22.5964488, "tags": {"name": "B\u00e4rs", "name:fi": "B\u00e4rs", "name:sv": "B\u00e4rs", "place": "hamlet"}}, {"type": "node", "id": 1356998879, "lat": 63.3957876, "lon": 22.6385277, "tags": {"name": "Finskas", "name:fi": "Finskas", "name:sv": "Finskas", "place": "hamlet"}}, {"type": "node", "id": 1356998881, "lat": 63.412428, "lon": 22.654002, "tags": {"name": "Furubacken", "name:fi": "Furubacken", "name:sv": "Furubacken", "place": "hamlet"}}, {"type": "node", "id": 1356998882, "lat": 63.4299515, "lon": 22.5981453, "tags": {"name": "Gr\u00e4nden", "name:fi": "Kujala", "name:sv": "Gr\u00e4nden", "place": "hamlet"}}, {"type": "node", "id": 1356998892, "lat": 63.4331422, "lon": 22.6089918, "tags": {"name": "Heikfolk", "name:fi": "Heikfolk", "name:sv": "Heikfolk", "place": "hamlet"}}, {"type": "node", "id": 1356998896, "lat": 63.39908, "lon": 22.6455975, "tags": {"name": "Holm", "name:fi": "Holm", "name:sv": "Holm", "place": "hamlet"}}, {"type": "node", "id": 1356998910, "lat": 63.4027914, "lon": 22.6333689, "tags": {"name": "Kaup", "name:fi": "Kaup", "name:sv": "Kaup", "place": "hamlet"}}, {"type": "node", "id": 1356998917, "lat": 63.4251809, "lon": 22.6069573, "tags": {"name": "Lassila", "name:fi": "Lassila", "name:sv": "Lassila", "place": "hamlet"}}, {"type": "node", "id": 1356998919, "lat": 63.4420561, "lon": 22.5847285, "tags": {"name": "Lussi", "name:fi": "Lussi", "name:sv": "Lussi", "place": "hamlet"}}, {"type": "node", "id": 1356998929, "lat": 63.4273853, "lon": 22.6171964, "tags": {"name": "Nybyggar", "name:fi": "Nybyggar", "name:sv": "Nybyggar", "place": "hamlet"}}, {"type": "node", "id": 1356998935, "lat": 63.4157697, "lon": 22.635753, "tags": {"name": "Romar", "name:fi": "Romar", "name:sv": "Romar", "place": "hamlet"}}, {"type": "node", "id": 1356998937, "lat": 63.445272, "lon": 22.5792166, "tags": {"name": "Rundt", "name:fi": "Rundt", "name:sv": "Rundt", "place": "hamlet"}}, {"type": "node", "id": 1356998947, "lat": 63.3944496, "lon": 22.6442002, "tags": {"name": "Sandberg", "name:fi": "Sandberg", "name:sv": "Sandberg", "place": "hamlet"}}, {"type": "node", "id": 1356998951, "lat": 63.4201801, "lon": 22.6402132, "tags": {"name": "Skog", "name:fi": "Skog", "name:sv": "Skog", "place": "hamlet"}}, {"type": "node", "id": 1356998955, "lat": 63.4139218, "lon": 22.6240106, "tags": {"name": "Slangar", "name:fi": "Slangar", "name:sv": "Slangar", "place": "hamlet"}}, {"type": "node", "id": 1356998961, "lat": 63.4094739, "lon": 22.6301388, "tags": {"name": "Stenbacka", "name:fi": "Stenbacka", "name:sv": "Stenbacka", "place": "hamlet"}}, {"type": "node", "id": 1356998973, "lat": 63.4001548, "lon": 22.6310534, "tags": {"name": "T\u00e5nabackan", "name:fi": "Tuonabackan", "name:sv": "T\u00e5nabackan", "place": "hamlet"}}, {"type": "node", "id": 1375263625, "lat": 63.5931749, "lon": 22.6382016, "tags": {"name": "Sundby", "name:sv": "Sundby", "place": "village"}}, {"type": "node", "id": 1375263848, "lat": 63.5701775, "lon": 22.552403, "tags": {"name": "Socklot", "name:sv": "Socklot", "place": "village", "population": "497"}}, {"type": "node", "id": 1563564732, "lat": 63.6041857, "lon": 22.7626146, "tags": {"name": "L\u00f6v\u00f6", "name:fi": "Lehtisalo", "name:sv": "L\u00f6v\u00f6", "place": "village"}}, {"type": "node", "id": 1563564736, "lat": 63.5874906, "lon": 22.6080035, "tags": {"name": "Karby", "place": "village"}}, {"type": "node", "id": 1572646814, "lat": 63.6322308, "lon": 22.7968533, "tags": {"name": "L\u00e5ngstranden", "place": "hamlet"}}, {"type": "node", "id": 1572646834, "lat": 63.6289523, "lon": 22.7831633, "tags": {"name": "Sand\u00f6", "place": "hamlet"}}, {"type": "node", "id": 1576993061, "lat": 63.6626524, "lon": 22.5942337, "tags": {"name": "F\u00e4boda", "name:ru": "\u0424\u044f\u0431\u043e\u0434\u0430", "place": "village"}}, {"type": "node", "id": 1589404242, "lat": 63.6442616, "lon": 22.7027045, "tags": {"name": "Staraby", "place": "hamlet"}}, {"type": "node", "id": 1589404258, "lat": 63.6085739, "lon": 22.7305136, "tags": {"name": "Kittholmen", "place": "hamlet"}}, {"type": "node", "id": 1589404287, "lat": 63.6109583, "lon": 22.7542458, "tags": {"name": "\u00d6je", "place": "hamlet"}}, {"type": "node", "id": 1589404340, "lat": 63.6502052, "lon": 22.7518855, "tags": {"name": "Storsandsund", "name:fi": "Isohietasalmi", "name:sv": "Storsandsund", "place": "hamlet"}}, {"type": "node", "id": 1589404357, "lat": 63.6220002, "lon": 22.7547179, "tags": {"name": "Remsan", "place": "hamlet"}}, {"type": "node", "id": 1589404374, "lat": 63.6009807, "lon": 22.756928, "tags": {"name": "Grefv", "place": "hamlet"}}, {"type": "node", "id": 1589404375, "lat": 63.6410512, "lon": 22.6798607, "tags": {"name": "Skutnabba", "place": "hamlet"}}, {"type": "node", "id": 1589439571, "lat": 63.6230679, "lon": 22.6020251, "tags": {"name": "Degern\u00e4s", "place": "hamlet"}}, {"type": "node", "id": 1589439587, "lat": 63.5896443, "lon": 22.6557122, "tags": {"name": "N\u00e4sebacka", "place": "hamlet"}}, {"type": "node", "id": 1589439626, "lat": 63.5902551, "lon": 22.682663, "tags": {"name": "Kassn\u00e4s", "place": "hamlet"}}, {"type": "node", "id": 1589439628, "lat": 63.5949314, "lon": 22.6582657, "tags": {"name": "Gr\u00e4gg", "place": "hamlet"}}, {"type": "node", "id": 1589439655, "lat": 63.5990916, "lon": 22.6597033, "tags": {"name": "G\u00e4stgivars", "place": "hamlet"}}, {"type": "node", "id": 1589466934, "lat": 63.5808049, "lon": 22.6423655, "tags": {"name": "K\u00e5ll", "place": "hamlet"}}, {"type": "node", "id": 1589466987, "lat": 63.5936336, "lon": 22.5943862, "tags": {"name": "Knuts", "place": "hamlet"}}, {"type": "node", "id": 1589467163, "lat": 63.5874452, "lon": 22.7683135, "tags": {"name": "L\u00f6v\u00f6", "place": "hamlet"}}, {"type": "node", "id": 1589467217, "lat": 63.5844708, "lon": 22.6410781, "tags": {"name": "Vann\u00e4s", "place": "hamlet"}}, {"type": "node", "id": 1590340780, "lat": 63.6717697, "lon": 22.6887528, "tags": {"name": "V\u00e4stermalm", "name:fi": "L\u00e4nsinummi", "name:sv": "V\u00e4stermalm", "place": "village"}}, {"type": "node", "id": 1767725453, "lat": 63.4932685, "lon": 22.6514914, "tags": {"name": "Sorvist", "place": "hamlet"}}, {"type": "node", "id": 6943825316, "lat": 63.447695, "lon": 22.5603678, "tags": {"name": "Ytterjeppo", "name:fi": "Alajepua", "name:sv": "Ytterjeppo", "place": "village", "wikidata": "Q3573055", "wikipedia": "fi:Alajepua"}}, {"type": "node", "id": 6943847600, "lat": 63.5415639, "lon": 22.6966479, "tags": {"name": "Kovjoki", "name:fi": "Kovjoki", "name:sv": "Kovjoki", "place": "village", "wikidata": "Q10548420", "wikipedia": "sv:Kovjoki"}}, {"type": "node", "id": 7776402201, "lat": 63.3927274, "lon": 22.5032208, "tags": {"name": "Jussila", "name:sv": "Jussila", "place": "hamlet"}}, {"type": "node", "id": 7776402202, "lat": 63.3415339, "lon": 22.5933628, "tags": {"name": "Aspn\u00e4s", "name:sv": "Aspn\u00e4s", "place": "hamlet"}}, {"type": "node", "id": 7776402203, "lat": 63.3597481, "lon": 22.58331, "tags": {"name": "Kengo", "name:sv": "Kengo", "place": "hamlet"}}, {"type": "way", "id": 116893779, "nodes": [1316689323, 1316689306, 1316689312, 1316689318, 1316689324, 1316689329, 1316689299, 1316689308, 1316689314, 1316689320, 1316689325, 1316689330, 1316689300, 1316689304, 1316689310, 1316689316, 1316689322, 1316689327, 1316689332, 1316689302, 1316689307, 1316689313, 1316689319, 1316689328, 1316689298, 1316689303, 1316689309, 1316689315, 1316689321, 1316689326, 1316689331, 1316689301, 1316689305, 1316689311, 1316689323]}, {"type": "relation", "id": 1617588, "members": [{"type": "node", "ref": 1309678841, "role": "admin_centre"}, {"type": "way", "ref": 116893779, "role": "outer"}], "tags": {"addr:postcode": "66850", "admin_level": "9", "boundary": "administrative", "name": "Jeppo", "name:fi": "Jepua", "name:sv": "Jeppo", "place": "village", "population": "1100", "type": "boundary", "wikidata": "Q3366120", "wikipedia": "en:Jeppo (village)"}}]}