{"version": 0.6, "generator": "Overpass API 0.7.61.5 4133829e", "osm3s": {"timestamp_osm_base": "2024-03-05T14:58:45Z", "copyright": "The data included in this document is from www.openstreetmap.org. The data is made available under ODbL."}, "elements": [{"type": "node", "id": 615734806, "lat": 57.9186062, "lon": 12.5633539, "tags": {"addr:city": "Alings\u00e5s", "addr:country": "SE", "addr:housenumber": "7", "addr:postcode": "441 50", "addr:street": "Sundsbergsv\u00e4gen", "amenity": "clinic", "healthcare": "clinic", "name": "N\u00e4rh\u00e4lsan \u00c4ngabo v\u00e5rdcentral", "network": "V\u00e4stra G\u00f6talandsregionen", "operator": "V\u00e4stra G\u00f6talandsregionen", "phone": "+46 10 435 92 10", "website": "https://www.narhalsan.se/hitta-mottagning/alingsas/narhalsan-angabo-vardcentral/"}}, {"type": "node", "id": 939988845, "lat": 57.9300285, "lon": 12.5356346, "tags": {"amenity": "pharmacy", "brand": "Apoteket", "contact:phone": "+46771450450", "dispensing": "yes", "name": "Apoteket Hjorten", "operator": "Apoteket AB (publ)", "wheelchair": "yes"}}, {"type": "node", "id": 1740773589, "lat": 57.8265772, "lon": 13.0117801, "tags": {"addr:city": "Fristad", "addr:country": "SE", "addr:housenumber": "6", "addr:postcode": "513 33", "addr:street": "T\u00e4rnav\u00e4gen", "amenity": "clinic", "contact:phone": "+46 10 435 96 00", "emergency": "no", "healthcare": "clinic", "name": "N\u00e4rh\u00e4lsan Fristad v\u00e5rdcentral", "network": "V\u00e4stra G\u00f6talandsregionen", "operator": "V\u00e4stra G\u00f6talandsregionen", "website": "https://www.narhalsan.se/hitta-mottagning/boras/narhalsan-fristad-vardcentral/"}}, {"type": "node", "id": 2167051673, "lat": 57.9281109, "lon": 12.5193569}, {"type": "node", "id": 2167051675, "lat": 57.9281542, "lon": 12.5208406}, {"type": "node", "id": 2167051678, "lat": 57.928182, "lon": 12.5214757}, {"type": "node", "id": 2167051693, "lat": 57.9282817, "lon": 12.5227072}, {"type": "node", "id": 2167051927, "lat": 57.9290921, "lon": 12.5194149}, {"type": "node", "id": 2167051976, "lat": 57.9292691, "lon": 12.5236832}, {"type": "node", "id": 2168689764, "lat": 57.9284509, "lon": 12.523318}, {"type": "node", "id": 2168689889, "lat": 57.9290861, "lon": 12.5198729}, {"type": "node", "id": 2168689936, "lat": 57.9294262, "lon": 12.5198695}, {"type": "node", "id": 2168689937, "lat": 57.9294189, "lon": 12.5223124}, {"type": "node", "id": 2756575534, "lat": 58.0323102, "lon": 12.8102602, "tags": {"addr:city": "V\u00e5rg\u00e5rda", "addr:country": "SE", "addr:housenumber": "2", "addr:postcode": "44731", "addr:street": "Centrumgatan", "amenity": "pharmacy", "brand": "Apoteket", "name": "Apoteket Axet", "operator": "Apoteket AB (publ)", "phone": "+46771450450"}}, {"type": "node", "id": 3661238435, "lat": 58.0758938, "lon": 13.0146138, "tags": {"addr:city": "Herrljunga", "addr:country": "SE", "addr:housenumber": "16A", "addr:postcode": "524 32", "addr:street": "Horsbyv\u00e4gen", "amenity": "clinic", "name": "N\u00e4rh\u00e4lsan Herrljunga v\u00e5rdcentral", "operator": "V\u00e4stra G\u00f6talandsregionen", "phone": "+46 513 177 20", "wheelchair": "yes"}}, {"type": "node", "id": 6433332191, "lat": 57.8267813, "lon": 13.0117956, "tags": {"addr:city": "Fristad", "addr:country": "SE", "addr:housenumber": "6", "addr:postcode": "513 33", "addr:street": "T\u00e4rnav\u00e4gen", "amenity": "clinic", "emergency": "no", "healthcare": "rehabilitation", "name": "N\u00e4rh\u00e4lsan Fristad rehabmottagning", "network": "V\u00e4stra G\u00f6talandsregionen", "operator": "V\u00e4stra G\u00f6talandsregionen", "phone": "+46 10 435 84 00", "website": "https://www.narhalsan.se/hitta-mottagning/boras/narhalsan-fristad-rehabmottagning/"}}, {"type": "node", "id": 6447162585, "lat": 57.9290582, "lon": 12.5189445, "tags": {"addr:city": "Alings\u00e5s", "addr:country": "SE", "addr:housenumber": "34B", "addr:postcode": "441 83", "addr:street": "S\u00f6dra Ringgatan", "amenity": "clinic", "contact:phone": "+46 322 22 65 50", "healthcare": "clinic", "name": "N\u00e4rh\u00e4lsan S\u00f6rhaga v\u00e5rdcentral", "network": "V\u00e4stra G\u00f6talandsregionen", "operator": "V\u00e4stra G\u00f6talandsregionen", "website": "https://www.narhalsan.se/hitta-mottagning/alingsas/narhalsan-sorhaga-vardcentral/"}}, {"type": "node", "id": 6448590000, "lat": 58.0322046, "lon": 12.8106862, "tags": {"addr:city": "V\u00e5rg\u00e5rda", "addr:country": "SE", "addr:housenumber": "2", "addr:postcode": "447 31", "addr:street": "Centrumgatan", "amenity": "clinic", "contact:phone": "+46 10 435 85 00", "healthcare": "clinic", "name": "N\u00e4rh\u00e4lsan V\u00e5rg\u00e5rda v\u00e5rdcentral", "network": "V\u00e4stra G\u00f6talandsregionen", "operator": "V\u00e4stra G\u00f6talandsregionen"}}, {"type": "node", "id": 9007579109, "lat": 57.8082596, "lon": 12.3614404, "tags": {"addr:city": "Floda", "addr:country": "SE", "addr:housenumber": "10A", "addr:postcode": "448 30", "addr:street": "Rurik Holms v\u00e4g", "amenity": "clinic", "healthcare": "clinic", "name": "N\u00e4rh\u00e4lsan Floda v\u00e5rdcentral", "operator": "V\u00e4stra G\u00f6talandsregionen", "phone": "+46 10 435 93 00", "website": "https://www.narhalsan.se/hitta-mottagning/lerum/narhalsan-floda-vardcentral/"}}, {"type": "node", "id": 9010755555, "lat": 58.1196005, "lon": 12.5303002, "tags": {"addr:city": "Sollebrunn", "addr:country": "SE", "addr:housenumber": "6", "addr:postcode": "441 70", "addr:street": "Centrumgatan", "amenity": "clinic", "name": "N\u00e4rh\u00e4lsan Sollebrunn v\u00e5rdcentral", "operator": "V\u00e4stra G\u00f6talandsregionen", "phone": "+46 322 837 71", "website": "https://www.narhalsan.se/hitta-mottagning/alingsas/narhalsan-sollebrunn-vardcentral/"}}, {"type": "node", "id": 9012102549, "lat": 57.918574, "lon": 12.5636588, "tags": {"addr:city": "Alings\u00e5s", "addr:country": "SE", "addr:housenumber": "7", "addr:postcode": "441 50", "addr:street": "Sundsbergsv\u00e4gen", "amenity": "clinic", "healthcare": "clinic", "name": "N\u00e4rh\u00e4lsan \u00c4ngabo barnav\u00e5rdscentral", "network": "V\u00e4stra G\u00f6talandsregionen", "operator": "V\u00e4stra G\u00f6talandsregionen", "phone": "+46 10 435 92 26", "website": "https://www.narhalsan.se/hitta-mottagning/alingsas/narhalsan-angabo-barnavardscentral/"}}, {"type": "node", "id": 9025185010, "lat": 58.0323342, "lon": 12.8105213, "tags": {"addr:city": "V\u00e5rg\u00e5rda", "addr:country": "SE", "addr:housenumber": "2", "addr:postcode": "447 31", "addr:street": "Centrumgatan", "amenity": "clinic", "contact:phone": "+46 10 435 85 10", "healthcare": "clinic", "name": "N\u00e4rh\u00e4lsan V\u00e5rg\u00e5rda barnav\u00e5rdscentral", "network": "V\u00e4stra G\u00f6talandsregionen", "operator": "V\u00e4stra G\u00f6talandsregionen"}}, {"type": "node", "id": 9026057554, "lat": 57.9290228, "lon": 12.518947, "tags": {"addr:city": "Alings\u00e5s", "addr:country": "SE", "addr:housenumber": "34B", "addr:postcode": "441 83", "addr:street": "S\u00f6dra Ringgatan", "amenity": "clinic", "healthcare": "clinic", "name": "N\u00e4rh\u00e4lsan S\u00f6rhaga rehabmottagning", "operator": "V\u00e4stra G\u00f6talandsregionen", "phone": "+46 322 22 62 85", "website": "https://www.narhalsan.se/hitta-mottagning/alingsas/alingsas-jourcentral/"}}, {"type": "node", "id": 9026073802, "lat": 57.9290426, "lon": 12.5189444, "tags": {"addr:city": "Alings\u00e5s", "addr:country": "SE", "addr:housenumber": "34B", "addr:postcode": "441 83", "addr:street": "S\u00f6dra Ringgatan", "amenity": "clinic", "healthcare": "clinic", "name": "Alings\u00e5s jourcentral", "operator": "V\u00e4stra G\u00f6talandsregionen", "phone": "+46 10 435 80 00", "website": "https://www.narhalsan.se/hitta-mottagning/alingsas/alingsas-jourcentral/"}}, {"type": "node", "id": 9026075394, "lat": 57.9290698, "lon": 12.5246519, "tags": {"addr:city": "Alings\u00e5s", "addr:country": "SE", "addr:housenumber": "28A", "addr:postcode": "441 33", "addr:street": "S\u00f6dra Ringgatan", "amenity": "clinic", "name": "N\u00e4rh\u00e4lsan S\u00f6rhaga barnav\u00e5rdscentral", "operator": "V\u00e4stra G\u00f6talandsregionen", "phone": "+46 322 22 65 77;+46 322 22 66 16;+46 322 22 66 22", "website": "https://www.narhalsan.se/hitta-mottagning/alingsas/narhalsan-sorhaga-barnavardscentral/"}}, {"type": "node", "id": 9026668627, "lat": 58.1195743, "lon": 12.5302854, "tags": {"addr:city": "Sollebrunn", "addr:country": "SE", "addr:housenumber": "6", "addr:postcode": "441 70", "addr:street": "Centrumgatan", "amenity": "clinic", "name": "N\u00e4rh\u00e4lsan Sollebrunn barnav\u00e5rdscentral", "operator": "V\u00e4stra G\u00f6talandsregionen", "phone": "+46 322 837 71", "website": "https://www.narhalsan.se/hitta-mottagning/alingsas/narhalsan-sollebrunn-barnavardscentral/"}}, {"type": "node", "id": 9026965622, "lat": 58.1916299, "lon": 12.725789, "tags": {"addr:city": "Nossebro", "addr:country": "SE", "addr:housenumber": "2", "addr:postcode": "465 31", "addr:street": "\u00c4ngsgatan", "amenity": "clinic", "name": "N\u00e4rh\u00e4lsan Nossebro rehabmottagning", "operator": "V\u00e4stra G\u00f6talandsregionen", "phone": "+46 512 79 84 58", "website": "https://www.narhalsan.se/hitta-mottagning/essunga/narhalsan-nossebro-rehabmottagning/"}}, {"type": "node", "id": 9026965623, "lat": 58.1916443, "lon": 12.7257903, "tags": {"addr:city": "Nossebro", "addr:country": "SE", "addr:housenumber": "2", "addr:postcode": "465 31", "addr:street": "\u00c4ngsgatan", "amenity": "clinic", "name": "N\u00e4rh\u00e4lsan Nossebro barnav\u00e5rdscentral", "operator": "V\u00e4stra G\u00f6talandsregionen", "phone": "+46 512 79 84 00", "website": "https://www.narhalsan.se/hitta-mottagning/essunga/narhalsan-nossebro-barnavardscentral/"}}, {"type": "node", "id": 9026965624, "lat": 58.1916606, "lon": 12.7257896, "tags": {"addr:city": "Nossebro", "addr:country": "SE", "addr:housenumber": "2", "addr:postcode": "465 31", "addr:street": "\u00c4ngsgatan", "amenity": "clinic", "name": "N\u00e4rh\u00e4lsan Nossebro v\u00e5rdcentral", "operator": "V\u00e4stra G\u00f6talandsregionen", "phone": "+46 512 79 84 00", "website": "https://www.narhalsan.se/hitta-mottagning/essunga/narhalsan-nossebro-vardcentral/"}}, {"type": "node", "id": 9030248850, "lat": 58.0760381, "lon": 13.0145282, "tags": {"addr:city": "Herrljunga", "addr:country": "SE", "addr:housenumber": "16B", "addr:postcode": "524 32", "addr:street": "Horsbyv\u00e4gen", "amenity": "clinic", "name": "N\u00e4rh\u00e4lsan Herrljunga rehabmottagning", "operator": "V\u00e4stra G\u00f6talandsregionen", "phone": "+46 513 177 53", "website": "https://www.narhalsan.se/hitta-mottagning/herrljunga/narhalsan-herrljunga-rehabmottagning/"}}, {"type": "node", "id": 9030251311, "lat": 58.0758474, "lon": 13.0146092, "tags": {"addr:city": "Herrljunga", "addr:country": "SE", "addr:housenumber": "16A", "addr:postcode": "524 32", "addr:street": "Horsbyv\u00e4gen", "amenity": "clinic", "name": "N\u00e4rh\u00e4lsan Herrljunga barnav\u00e5rdscentral", "operator": "V\u00e4stra G\u00f6talandsregionen", "phone": "+46 513 177 43;+46 513 177 44", "website": "https://www.narhalsan.se/hitta-mottagning/herrljunga/narhalsan-herrljunga-barnavardscentral/"}}, {"type": "node", "id": 9033313669, "lat": 57.8264978, "lon": 13.0117849, "tags": {"addr:city": "Fristad", "addr:country": "SE", "addr:housenumber": "6", "addr:postcode": "513 33", "addr:street": "T\u00e4rnav\u00e4gen", "amenity": "clinic", "name": "N\u00e4rh\u00e4lsan Fristad barnav\u00e5rdscentral", "operator": "V\u00e4stra G\u00f6talandsregionen", "phone": "+46 10 435 96 16;+46 10 435 96 17;+46 10 435 96 18", "website": "https://www.narhalsan.se/hitta-mottagning/boras/narhalsan-fristad-barnavardscentral/"}}, {"type": "node", "id": 9033351822, "lat": 57.8081967, "lon": 12.3614404, "tags": {"addr:city": "Floda", "addr:country": "SE", "addr:housenumber": "10A", "addr:postcode": "448 30", "addr:street": "Rurik Holms v\u00e4g", "amenity": "clinic", "name": "N\u00e4rh\u00e4lsan Floda barnav\u00e5rdscentral", "operator": "V\u00e4stra G\u00f6talandsregionen", "phone": "+46 10 435 93 00", "website": "https://www.narhalsan.se/hitta-mottagning/lerum/narhalsan-floda-barnavardscentral/"}}, {"type": "node", "id": 9039085554, "lat": 58.1195219, "lon": 12.5302747, "tags": {"addr:city": "Sollebrunn", "addr:country": "SE", "addr:housenumber": "6", "addr:postcode": "441 70", "addr:street": "Centrumgatan", "amenity": "clinic", "name": "N\u00e4rh\u00e4lsan Sollebrunn rehabmottagning", "operator": "V\u00e4stra G\u00f6talandsregionen", "phone": "+46 322 837 73", "website": "https://www.narhalsan.se/hitta-mottagning/alingsas/narhalsan-shttps://www.narhalsan.se/hitta-mottagning/alingsas/narhalsan-sollebrunn-rehabmottagning/ollebrunn-barnavardscentral/"}}, {"type": "node", "id": 9039124194, "lat": 57.9185248, "lon": 12.5636709, "tags": {"addr:city": "Alings\u00e5s", "addr:country": "SE", "addr:housenumber": "7", "addr:postcode": "441 50", "addr:street": "Sundsbergsv\u00e4gen", "amenity": "clinic", "healthcare": "clinic", "name": "N\u00e4rh\u00e4lsan \u00c4ngabo rehabmottagning", "network": "V\u00e4stra G\u00f6talandsregionen", "operator": "V\u00e4stra G\u00f6talandsregionen", "phone": "+46 10 435 92 35", "website": "https://www.narhalsan.se/hitta-mottagning/alingsas/narhalsan-angabo-rehabmottagning/"}}, {"type": "node", "id": 11505941278, "lat": 57.9197434, "lon": 12.511515, "tags": {"amenity": "clinic", "healthcare": "clinic", "name": "N\u00f6tk\u00e4rnan S\u00e4vel\u00e5ngen Familjel\u00e4kare och BVC"}}, {"type": "node", "id": 11505950078, "lat": 57.9387044, "lon": 12.5193672, "tags": {"amenity": "clinic", "healthcare": "clinic", "name": "Medpro Clinic Noltorp V\u00e5rdcentral"}}, {"type": "node", "id": 11505958276, "lat": 57.8253858, "lon": 13.00886, "tags": {"amenity": "clinic", "healthcare": "clinic", "name": "Vega V\u00e5rdcentral och BVC i Fristad"}}, {"type": "node", "id": 11505962392, "lat": 57.9305739, "lon": 12.5299726, "tags": {"amenity": "clinic", "healthcare": "clinic", "name": "Br\u00e4cke Diakoni V\u00e5rdcentralen Centrum"}}, {"type": "way", "id": 206662524, "nodes": [2167051673, 2167051675, 2167051678, 2167051693, 2168689764, 2167051976, 2168689937, 2168689936, 2168689889, 2167051927, 2167051673], "tags": {"amenity": "hospital", "emergency": "yes", "health_specialty:emergency_medicine": "yes", "health_specialty:family_medicine": "yes", "health_specialty:intensive_care_medicine": "yes", "health_specialty:orthopaedics": "yes", "health_specialty:paediatrics": "yes", "health_specialty:surgery": "yes", "healthcare": "hospital", "name": "Alings\u00e5s lasarett", "opening_hours": "Mo-Fr 07:15-16:00", "opening_hours:emergency": "Mo-Su 08:00-22:00", "website": "https://www.vgregion.se/sv/Alingsas-lasarett/", "wheelchair": "yes", "wikidata": "Q10405293", "wikipedia": "sv:Alings\u00e5s lasarett"}}]}