{"version": 0.6, "generator": "Overpass API 0.7.61.5 4133829e", "osm3s": {"timestamp_osm_base": "2024-03-06T11:18:45Z", "copyright": "The data included in this document is from www.openstreetmap.org. The data is made available under ODbL."}, "elements": [{"type": "node", "id": 573457436, "lat": 34.6886111, "lon": 40.8072222, "tags": {"alt_name": "\u0639\u0628\u0627\u0633", "is_in": "Syria, \u0627\u0644\u062c\u0645\u0647\u0648\u0631\u064a\u0629 \u0627\u0644\u0639\u0631\u0628\u064a\u0629 \u0627\u0644\u0633\u0648\u0631\u064a\u0629 \u060c \u0633\u0648\u0631\u064a\u0627", "name": "\u0639\u0628\u0627\u0633", "name:alt": "`Abb\u0101s", "name:ar": "\u0639\u0628\u0627\u0633", "name:ar1": "\u0639\u0628\u0627\u0633", "name:de": "`Abbas", "name:en": "`Abbas", "name:fr": "`Abbas", "name:ru": "\u0410\u0431\u0431\u0430\u0441", "place": "village"}}, {"type": "node", "id": 573457446, "lat": 34.6666667, "lon": 40.8, "tags": {"alt_name": "\u0627\u0644\u0642\u0637\u0639\u0627", "int_name": "El Qataa, El Qata\u00e2, Al Qa\u0163`\u0101", "is_in": "Syria, \u0627\u0644\u062c\u0645\u0647\u0648\u0631\u064a\u0629 \u0627\u0644\u0639\u0631\u0628\u064a\u0629 \u0627\u0644\u0633\u0648\u0631\u064a\u0629 \u060c \u0633\u0648\u0631\u064a\u0627", "name": "\u0627\u0644\u0642\u0637\u0639\u0627", "name:ar": "\u0627\u0644\u0642\u0637\u0639\u0627", "name:ar1": "\u0627\u0644\u0642\u0637\u0639\u0627", "name:de": "Al Qat`a", "name:en": "Al Qat`a", "name:fr": "Al Qat`a", "name:ru": "\u042d\u043b\u044c-\u041a\u0430\u0442\u044c\u0430", "place": "village"}}, {"type": "node", "id": 573457472, "lat": 34.6566667, "lon": 40.7938889, "tags": {"alt_name": "\u0627\u0644\u0642\u0637\u0639\u0629", "int_name": "Al Qat`a, Al Qa\u0163`\u0101, El Gata, El Qata, El Qataa, El Qata\u00e2, Al Qu\u0163`ah", "is_in": "Syria, \u0627\u0644\u062c\u0645\u0647\u0648\u0631\u064a\u0629 \u0627\u0644\u0639\u0631\u0628\u064a\u0629 \u0627\u0644\u0633\u0648\u0631\u064a\u0629 \u060c \u0633\u0648\u0631\u064a\u0627", "name": "\u0627\u0644\u0642\u0637\u0639\u0629", "name:ar": "\u0627\u0644\u0642\u0637\u0639\u0629", "name:ar1": "\u0627\u0644\u0642\u0637\u0639\u0629", "name:de": "Al Qut`ah", "name:en": "Al Qut`ah", "name:fr": "Al Qut`ah", "name:ru": "\u042d\u043b\u044c-\u041a\u0430\u0442\u044c\u044f", "place": "village"}}, {"type": "node", "id": 573457535, "lat": 34.6825, "lon": 40.7769444, "tags": {"alt_name": "\u0645\u0632\u0631\u0639\u0629 \u0634\u0645\u0648", "is_in": "Syria, \u0627\u0644\u062c\u0645\u0647\u0648\u0631\u064a\u0629 \u0627\u0644\u0639\u0631\u0628\u064a\u0629 \u0627\u0644\u0633\u0648\u0631\u064a\u0629 \u060c \u0633\u0648\u0631\u064a\u0627", "name": "\u0645\u0632\u0631\u0639\u0629 \u0634\u0645\u0631", "name:alt": "Mazra`at Shamm\u016b", "name:ar": "\u0645\u0632\u0631\u0639\u0629 \u0634\u0645\u0648", "name:ar1": "\u0645\u0632\u0631\u0639\u0629 \u0634\u0645\u0648", "name:de": "Mazra`at Shammu", "name:en": "Mazra`at Shammr", "name:fr": "Mazra`at Shammu", "place": "village"}}]}