{"version": 0.6, "generator": "Overpass API 0.7.61.5 4133829e", "osm3s": {"timestamp_osm_base": "2024-02-29T13:55:30Z", "copyright": "The data included in this document is from www.openstreetmap.org. The data is made available under ODbL."}, "elements": [{"type": "node", "id": 6707506394, "lat": 63.4436127, "lon": 18.1165965}, {"type": "node", "id": 6707506395, "lat": 63.4443226, "lon": 18.1177445}, {"type": "node", "id": 6707506396, "lat": 63.4452003, "lon": 18.1166287}, {"type": "node", "id": 6707506397, "lat": 63.4455792, "lon": 18.1154593}, {"type": "node", "id": 6707506398, "lat": 63.4453778, "lon": 18.1148477}, {"type": "node", "id": 6707506399, "lat": 63.4446679, "lon": 18.1132062}, {"type": "node", "id": 6707506400, "lat": 63.4444329, "lon": 18.113925}, {"type": "node", "id": 6707506401, "lat": 63.4442506, "lon": 18.1136676}, {"type": "node", "id": 6707506402, "lat": 63.443488, "lon": 18.1162639}, {"type": "node", "id": 6731833463, "lat": 63.5125194, "lon": 18.0613357}, {"type": "node", "id": 6731833464, "lat": 63.5118255, "lon": 18.0628538}, {"type": "node", "id": 6731833465, "lat": 63.5122347, "lon": 18.0640554}, {"type": "node", "id": 6731833466, "lat": 63.5133879, "lon": 18.0634707}, {"type": "node", "id": 6731833467, "lat": 63.5133113, "lon": 18.0629933}, {"type": "node", "id": 6731833468, "lat": 63.5131151, "lon": 18.0624461}, {"type": "node", "id": 6731833469, "lat": 63.5126103, "lon": 18.0614912}, {"type": "node", "id": 6916893467, "lat": 63.4256963, "lon": 18.3130717}, {"type": "node", "id": 6916893468, "lat": 63.4263394, "lon": 18.3130127}, {"type": "node", "id": 6916893469, "lat": 63.4263298, "lon": 18.3143002}, {"type": "node", "id": 6916893470, "lat": 63.4266202, "lon": 18.3143109}, {"type": "node", "id": 6916893471, "lat": 63.4268338, "lon": 18.3119398}, {"type": "node", "id": 6916893472, "lat": 63.4258907, "lon": 18.3113444}, {"type": "node", "id": 6948894833, "lat": 63.4286767, "lon": 18.4218085}, {"type": "node", "id": 6948894834, "lat": 63.4284823, "lon": 18.4220713}, {"type": "node", "id": 6948894835, "lat": 63.4287223, "lon": 18.4232622}, {"type": "node", "id": 6948894836, "lat": 63.4292454, "lon": 18.4226453}, {"type": "node", "id": 6948894837, "lat": 63.4290294, "lon": 18.4215188}, {"type": "node", "id": 6964198300, "lat": 63.5464565, "lon": 18.6028254}, {"type": "node", "id": 6964198301, "lat": 63.547097, "lon": 18.6045205}, {"type": "node", "id": 6964198302, "lat": 63.5477183, "lon": 18.6032009}, {"type": "node", "id": 6964198303, "lat": 63.5485184, "lon": 18.6015987}, {"type": "node", "id": 6964198304, "lat": 63.5478629, "lon": 18.5999125}, {"type": "node", "id": 6964886185, "lat": 63.6548902, "lon": 18.542642}, {"type": "node", "id": 6964886186, "lat": 63.655621, "lon": 18.5444605}, {"type": "node", "id": 6964886187, "lat": 63.6561971, "lon": 18.5437632}, {"type": "node", "id": 6964886188, "lat": 63.6560329, "lon": 18.5431409}, {"type": "node", "id": 6964886189, "lat": 63.6561305, "lon": 18.5429478}, {"type": "node", "id": 6964886190, "lat": 63.6557686, "lon": 18.5417783}, {"type": "node", "id": 11408592535, "lat": 63.4440947, "lon": 18.1141984}, {"type": "way", "id": 713385207, "nodes": [6707506395, 6707506396, 6707506397, 6707506398, 6707506399, 6707506400, 6707506401, 11408592535]}, {"type": "way", "id": 716687364, "nodes": [6731833469, 6731833468, 6731833467, 6731833466, 6731833465, 6731833464, 6731833463, 6731833469], "tags": {"addr:country": "SE", "addr:housenumber": "2174", "addr:street": "Norrfl\u00e4rke", "amenity": "school", "name": "Norrfl\u00e4rkeskolan", "phone": "+46 660-26 52 11", "website": "https://www.ornskoldsvik.se/utbildningochbarnomsorg/grundskola/grundskolor/norrflarkeskolanf6.html"}}, {"type": "way", "id": 738664481, "nodes": [6916893469, 6916893468, 6916893467, 6916893472, 6916893471, 6916893470]}, {"type": "way", "id": 742240362, "nodes": [6948894837, 6948894836, 6948894835, 6948894834, 6948894833, 6948894837], "tags": {"addr:country": "SE", "addr:housenumber": "33", "addr:street": "Utter\u00e5v\u00e4gen", "amenity": "school", "name": "Gottne Byskola", "phone": "+46 660-920 06", "website": "https://www.gottnebyskola.se/", "wikidata": "Q89192220"}}, {"type": "way", "id": 744099831, "nodes": [6964198304, 6964198303, 6964198302, 6964198301, 6964198300, 6964198304], "tags": {"addr:country": "SE", "addr:housenumber": "12", "addr:street": "Centralgatan", "amenity": "school", "name": "Bj\u00f6rnaskolan", "phone": "+46 660-26 54 20", "website": "https://www.ornskoldsvik.se/utbildningochbarnomsorg/grundskola/grundskolor/bjornaskolanf9.html", "wikidata": "Q89193993"}}, {"type": "way", "id": 744183825, "nodes": [6964886190, 6964886189, 6964886188, 6964886187, 6964886186, 6964886185, 6964886190], "tags": {"addr:country": "SE", "addr:housenumber": "263", "addr:street": "Hemling", "amenity": "school", "name": "Hemlingskolan", "phone": "+46 662-310 63", "website": "https://www.ornskoldsvik.se/utbildningochbarnomsorg/grundskola/grundskolor/hemlingskolanf6.html", "wikidata": "Q89192182"}}, {"type": "way", "id": 1230057706, "nodes": [6916893470, 6916893469]}, {"type": "way", "id": 1230209228, "nodes": [11408592535, 6707506402]}, {"type": "way", "id": 1230209231, "nodes": [6707506402, 6707506394, 6707506395]}, {"type": "relation", "id": 16806147, "members": [{"type": "way", "ref": 738664481, "role": "outer"}, {"type": "way", "ref": 1230057706, "role": "outer"}], "tags": {"addr:country": "SE", "addr:housenumber": "21", "addr:street": "Skolgatan", "amenity": "school", "name": "Mellanselsskolan", "phone": "+46 661-401 16", "type": "multipolygon", "website": "https://www.ornskoldsvik.se/utbildningochbarnomsorg/grundskola/grundskolor/mellanselskolanf6", "wikidata": "Q89195207"}}, {"type": "relation", "id": 16808665, "members": [{"type": "way", "ref": 1230209231, "role": "outer"}, {"type": "way", "ref": 713385207, "role": "outer"}, {"type": "way", "ref": 1230209228, "role": "outer"}], "tags": {"addr:country": "SE", "addr:housenumber": "68", "addr:street": "K\u00f6pmangatan", "amenity": "school", "name": "Anundsj\u00f6skolan", "phone": "+46 660-26 52 11", "type": "multipolygon", "website": "https://www.ornskoldsvik.se/utbildningochbarnomsorg/grundskola/grundskolor/anundsjoskolanf9", "wikidata": "Q89198330"}}]}