{"version": 0.6, "generator": "Overpass API 0.7.61.5 4133829e", "osm3s": {"timestamp_osm_base": "2024-03-06T11:18:45Z", "copyright": "The data included in this document is from www.openstreetmap.org. The data is made available under ODbL."}, "elements": [{"type": "node", "id": 213402531, "lat": 37.1433762, "lon": 42.6822907, "tags": {"capital": "6", "ele": "440", "int_name": "Zakho", "is_in:region": "\u0627\u0642\u0644\u064a\u0645 \u0643\u0631\u062f\u0633\u062a\u0627\u0646 \u0627\u0644\u0639\u0631\u0627\u0642", "name": "\u0632\u0627\u062e\u06c6", "name:ar": "\u0632\u0627\u062e\u0648", "name:arc": "\u0719\u0735\u071f\u0323\u0718\u0307", "name:ckb": "\u0632\u0627\u062e\u06c6", "name:en": "Zakho", "name:he": "\u05d6\u05d0\u05db\u05d5", "name:ja": "\u30b6\u30fc\u30db\u30fc", "name:ku": "Zaxo", "name:ml": "\u0d38\u0d3e\u0d15\u0d4d\u0d15\u0d42", "name:ru": "\u0417\u0430\u0445\u0443", "name:tr": "Zaho", "name:zh": "\u624e\u80e1", "place": "town", "population": "197163", "postal_code": "42002", "wikidata": "Q167800", "wikipedia": "ckb:\u0632\u0627\u062e\u06c6"}}, {"type": "node", "id": 571230677, "lat": 37.0737877, "lon": 42.3707913, "tags": {"alt_name": "Kh\u0101n\u012bk - \u062e\u0627\u0646\u064a\u0643 - Xan\u00eek", "name": "\u0627\u0644\u062e\u0627\u0644\u062f\u064a\u0629 / \u071a\u0722\u071d\u071f", "name:ar": "\u0627\u0644\u062e\u0627\u0644\u062f\u064a\u0629", "name:arc": "\u071a\u0722\u071d\u071f", "name:de": "Khanik", "name:en": "Khanik", "name:fr": "Khanik", "name:ku": "Xan\u00eek", "name:ru": "\u0427\u0430\u043c-\u0425\u0430\u043d\u0438\u043a", "place": "village", "wikidata": "Q6400328", "wikipedia": "ar:\u0627\u0644\u062e\u0627\u0644\u062f\u064a\u0629 (\u0627\u0644\u062d\u0633\u0643\u0629)"}}, {"type": "node", "id": 1102498149, "lat": 37.1617072, "lon": 42.5291909, "tags": {"alt_name": "Gir Gewr\u00ea", "name": "Aktepe", "name:ku": "Gir\u00ea Gewre", "place": "village", "wikidata": "Q6943566", "wikipedia": "tr:Aktepe, Silopi"}}, {"type": "node", "id": 1102500489, "lat": 37.1642561, "lon": 42.5793462, "tags": {"name": "Kap\u0131l\u0131", "old_name": "K\u00fckit;Kurkit", "place": "village", "wikidata": "Q6978755", "wikipedia": "tr:Kap\u0131l\u0131, Silopi"}}, {"type": "node", "id": 1103022229, "lat": 37.126892, "lon": 42.4242995, "tags": {"alt_name": "Kurava (?)", "alt_name:ar": "\u0627\u0648\u0641\u0627\u0643\u0648\u0649;\u0627\u0648\u06a4\u0627\u06af\u0648\u0649;\u0627\u0648\u06a4\u0627\u06af\u0648\u0649", "name": "Ovak\u00f6y", "name:ar": "\u0623\u0648\u0641\u0627\u0643\u0648\u064a", "old_name": "K\u00fcrava;K\u00f6rava", "place": "village", "wikidata": "Q6581814", "wikipedia": "tr:Ovak\u00f6y, Silopi"}}, {"type": "node", "id": 1103168235, "lat": 37.1434204, "lon": 42.4399667, "tags": {"name": "Il\u0131calar", "place": "hamlet"}}, {"type": "node", "id": 1103168762, "lat": 37.2033532, "lon": 42.5376012, "tags": {"name": "Ba\u015fverimli", "name:ku": "Wehsid", "old_name": "Verimli;Vehs\u0131t;Vahs\u0131d", "place": "village", "turkey_class": "belde", "wikidata": "Q10738572", "wikipedia": "tr:Ba\u015fverimli"}}, {"type": "node", "id": 1103171317, "lat": 37.23116, "lon": 42.5840961, "tags": {"alt_name": "Kolya", "name": "\u00c7ardakl\u0131", "name:hy": "\u053f\u0578\u0582\u056c\u056b\u0575\u0561", "name:ku": "Kulya", "old_name": "K\u00f6lyan", "place": "village", "wikidata": "Q6488082", "wikipedia": "tr:\u00c7ardakl\u0131, Silopi"}}, {"type": "node", "id": 2461440788, "lat": 36.9512162, "lon": 42.747355, "tags": {"place": "hamlet"}}, {"type": "node", "id": 2461440804, "lat": 36.9635458, "lon": 42.6451843, "tags": {"place": "hamlet"}}, {"type": "node", "id": 2461440809, "lat": 36.9689544, "lon": 42.7176096, "tags": {"fixme": "name", "place": "hamlet", "source": "bing"}}, {"type": "node", "id": 2461440820, "lat": 36.9766807, "lon": 42.3455419, "tags": {"place": "hamlet"}}, {"type": "node", "id": 2461440836, "lat": 36.9832172, "lon": 42.6163753, "tags": {"place": "hamlet"}}, {"type": "node", "id": 2461440934, "lat": 36.9915771, "lon": 42.6007864, "tags": {"place": "hamlet"}}, {"type": "node", "id": 2461441108, "lat": 37.0066793, "lon": 42.7165229, "tags": {"place": "hamlet"}}, {"type": "node", "id": 2461441180, "lat": 37.0155632, "lon": 42.7044847, "tags": {"place": "hamlet"}}, {"type": "node", "id": 2461441260, "lat": 37.0211476, "lon": 42.4025884, "tags": {"place": "hamlet"}}, {"type": "node", "id": 2461441417, "lat": 37.0256813, "lon": 42.3546654, "tags": {"place": "hamlet"}}, {"type": "node", "id": 2461441475, "lat": 37.047279, "lon": 42.423641, "tags": {"place": "hamlet"}}, {"type": "node", "id": 2461441550, "lat": 37.0602946, "lon": 42.73356, "tags": {"place": "hamlet"}}, {"type": "node", "id": 2461441994, "lat": 37.1241585, "lon": 42.4360126, "tags": {"name": "hamlet", "name:en": "hamlet", "place": "village"}}, {"type": "node", "id": 2480156827, "lat": 37.2095833, "lon": 42.6862759, "tags": {"alt_name": "\u0628\u0631\u0632\u064a\u0631", "int_name": "Barz\u012br, Barzir", "is_in": "Iraq , \u062c\u0645\u0647\u0648\u0631\u064a\u0629 \u0627\u0644\u0639\u0631\u0627\u0642", "name": "\u0628\u06d5\u0631\u0632\u06cc\u0631", "name:ar": "\u0628\u0631\u0632\u064a\u0631", "name:ar1": "\u0628\u0631\u0632\u064a\u0631", "name:de": "Barzir", "name:en": "Barzir", "name:fr": "Barzir", "place": "village"}}, {"type": "node", "id": 2480156831, "lat": 37.215506, "lon": 42.715914, "tags": {"alt_name": "\u0645\u0646\u062a\u0648\u0641\u0629", "alt_name:ku": "Ma\u1e27tufe", "int_name": "Mantufa, Mant\u016bfah, \u0645\u0646\u062a\u0648\u0641\u0647, Mantufa, Mantufah, \u0645\u0646\u062a\u0648\u0641\u0647", "is_in": "Iraq , \u062c\u0645\u0647\u0648\u0631\u064a\u0629 \u0627\u0644\u0639\u0631\u0627\u0642", "name": "\u0645\u062a\u06cc\u0641\u0627", "name:ar": "\u0645\u062a\u064a\u0641\u0627", "name:ar1": "\u0645\u0646\u062a\u0648\u0641\u0629", "name:de": "Mantufa", "name:en": "Mantufa", "name:fr": "Mantufa", "name:ku": "Mahtufe", "place": "village"}}, {"type": "node", "id": 2480157973, "lat": 37.1986523, "lon": 42.8225436, "tags": {"alt_name": "\u062f\u0631\u0643\u0627\u0631", "capital": "7", "int_name": "Dark\u0101r, Darkar", "is_in": "Iraq , \u062c\u0645\u0647\u0648\u0631\u064a\u0629 \u0627\u0644\u0639\u0631\u0627\u0642", "name": "\u062f\u06d5\u0631\u06a9\u0627\u0631", "name:ar": "\u062f\u0631\u0643\u0627\u0631", "name:ckb": "\u062f\u06d5\u0631\u06a9\u0627\u0631", "name:de": "Darkar", "name:en": "Darkar", "name:fr": "Darkar", "name:ku": "Derkar", "place": "town", "wikidata": "Q6768701", "wikipedia": "ckb:\u062f\u06d5\u0631\u06a9\u0627\u0631"}}, {"type": "node", "id": 2480157978, "lat": 37.207778, "lon": 42.837778, "tags": {"alt_name": "\u0645\u0627\u0645\u064a\u0633", "int_name": "M\u0101m\u012bs, Marn\u012bs\u0113, \u0645\u0627\u0645\u064a\u0633, Mamis, Marnise, \u0645\u0627\u0645\u064a\u0633", "name": "\u0645\u0627\u0645\u06cc\u0633\u0627", "name:ar": "\u0645\u0627\u0645\u064a\u0633\u0627", "name:de": "Mamis", "name:en": "Mamisa", "name:fr": "Mamis", "name:ku": "Mamisa", "place": "village"}}, {"type": "node", "id": 2480158673, "lat": 37.2429219, "lon": 42.8662772, "tags": {"alt_name": "\u0634\u0631\u0627\u0646\u0634 \u0646\u0635\u0627\u0631\u0649", "int_name": "Shar\u0101nish Na\u015f\u0101r\u00e1, Shar\u0101nish Na\u015f\u0101r\u0101, Sharansh, \u0634\u0631\u0627\u0646\u0634 \u0646\u0635\u0627\u0631\u0649, Sharanish Nasara, Sharanish Nasara, Sharansh, \u0634\u0631\u0627\u0646\u0634 \u0646\u0635\u0627\u0631\u0649", "is_in": "Iraq , \u062c\u0645\u0647\u0648\u0631\u064a\u0629 \u0627\u0644\u0639\u0631\u0627\u0642", "name": "\u0634\u06d5\u0631\u0627\u0646\u0634 \u0646\u0633\u0627\u0631\u06cc", "name:ar": "\u0634\u0631\u0627\u0646\u0634 \u0646\u0635\u0627\u0631\u0649", "name:ar1": "\u0634\u0631\u0627\u0646\u0634 \u0646\u0635\u0627\u0631\u0649", "name:de": "Sharanish Nasara", "name:en": "Sharanish Nasara", "name:fr": "Sharanish Nasara", "name:ku": "\u015eerani\u015f Nisar\u00ee", "place": "village"}}, {"type": "node", "id": 2480160442, "lat": 37.3260488, "lon": 42.7984382, "tags": {"alt_name": "\u062f\u064a\u0631\u0647 \u0634\u064a\u0634", "int_name": "Dera Shish, D\u0113r\u0113sh\u012bsh, D\u012brah Sh\u012bsh, Shish, \u062f\u064a\u0631\u0647 \u0634\u064a\u0634, Dera Shish, Dereshish, Dirah Shish, Shish, \u062f\u064a\u0631\u0647 \u0634\u064a\u0634", "is_in": "Iraq , \u062c\u0645\u0647\u0648\u0631\u064a\u0629 \u0627\u0644\u0639\u0631\u0627\u0642", "name": "\u062f\u06ce\u0631\u0634\u06cc\u0634", "name:ar": "\u062f\u064a\u0631\u0647 \u0634\u064a\u0634", "name:ar1": "\u062f\u064a\u0631\u0647 \u0634\u064a\u0634", "name:de": "Dera Shish", "name:en": "Dera Shish", "name:fr": "Dera Shish", "name:ku": "D\u00eare\u015f\u00ee\u015f", "place": "village"}}, {"type": "node", "id": 2480161252, "lat": 37.230841, "lon": 42.80429, "tags": {"alt_name": "\u0646\u0648\u0631\u0647\u062f\u064a\u0646\u0629", "int_name": "N\u0101rd\u012bn\u0101, N\u016brahd\u012bnah, Nurdina, N\u016brd\u012bna, \u0646\u0648\u0631\u0647 \u062f\u064a\u0646\u0647, Nardina, Nurahdinah, Nurdina, Nurdina, \u0646\u0648\u0631\u0647 \u062f\u064a\u0646\u0647", "is_in": "Iraq , \u062c\u0645\u0647\u0648\u0631\u064a\u0629 \u0627\u0644\u0639\u0631\u0627\u0642", "name": "\u0646\u0648\u0631\u062f\u06cc\u0646\u0627", "name:ar": "\u0646\u0648\u0631\u062f\u064a\u0646\u0627", "name:ar1": "\u0646\u0648\u0631\u0647\u062f\u064a\u0646\u0629", "name:de": "Nardina", "name:en": "Nardina", "name:fr": "Nardina", "name:ku": "Nordina", "place": "village"}}, {"type": "node", "id": 2480161728, "lat": 37.2104835, "lon": 42.7928972, "tags": {"alt_name": "\u0645\u064a\u0631\u0643\u064a", "int_name": "Barki, Mergy, M\u012brk\u012b, \u0645\u064a\u0631\u0643\u064a, Barki, Mergy, Mirki, \u0645\u064a\u0631\u0643\u064a", "is_in": "Iraq , \u062c\u0645\u0647\u0648\u0631\u064a\u0629 \u0627\u0644\u0639\u0631\u0627\u0642", "name": "\u0645\u06ce\u0631\u06af\u06ce", "name:ar": "\u0645\u064a\u0631\u0643\u064a", "name:ar1": "\u0645\u064a\u0631\u0643\u064a", "name:de": "Barki", "name:en": "Barki", "name:fr": "Barki", "place": "village"}}, {"type": "node", "id": 2480161735, "lat": 37.1907488, "lon": 42.8554722, "tags": {"int_name": "Bersivi, Bersivy, B\u012brs\u012bf\u012b, B\u012brsiv\u012b, \u0628\u064a\u0631\u0633\u064a\u0641\u064a, Bersivi, Bersivy, Birsifi, Birsivi, \u0628\u064a\u0631\u0633\u064a\u0641\u064a", "name": "\u0628\u06ce\u0631\u0633\u06a4\u06ce", "name:ar": "\u0628\u064a\u0631\u0633\u0641\u064a", "name:ckb": "\u0628\u06ce\u0631\u0633\u06a4\u06ce", "name:de": "Bersive", "name:en": "Bersive", "name:fr": "Bersive", "name:ku": "B\u00earsiv\u00ea", "place": "village"}}, {"type": "node", "id": 2480161782, "lat": 37.2084908, "lon": 42.7824306, "tags": {"alt_name": "\u062f\u0631\u0643\u0627\u0631 \u0645\u064a\u0631\u064a", "int_name": "Dark\u0101r, D\u0101rk\u0101r N\u012br\u012b, Derka M\u012br\u012b, Dirka Miry, Dirk\u0101r M\u012br\u012b, \u062f\u0631\u0643\u0627\u0631 \u0645\u064a\u0631\u064a, Darkar, Darkar Niri, Derka Miri, Dirka Miry, Dirkar Miri, \u062f\u0631\u0643\u0627\u0631 \u0645\u064a\u0631\u064a", "is_in": "Iraq , \u062c\u0645\u0647\u0648\u0631\u064a\u0629 \u0627\u0644\u0639\u0631\u0627\u0642", "name": "\u062f\u0631\u0643\u0627\u0631 \u0645\u064a\u0631\u064a", "name:ar": "\u062f\u0631\u0643\u0627\u0631 \u0646\u064a\u0631\u064a", "name:ar1": "\u062f\u0631\u0643\u0627\u0631 \u0645\u064a\u0631\u064a", "name:de": "Darkar", "name:en": "Darkar Nero", "name:fr": "Darkar", "place": "village"}}, {"type": "node", "id": 2480161793, "lat": 37.2012, "lon": 42.869341, "tags": {"alt_name": "\u0643\u0648\u0646\u062f\u0643", "int_name": "G\u016bndik, \u06af\u0648\u0646\u062f\u0643, Gundik, \u06af\u0648\u0646\u062f\u0643", "name": "\u06af\u0648\u0646\u062f\u06a9 \u0626\u06d5\u06cc\u0648\u0628", "name:ar": "\u0643\u0648\u0646\u062f\u0643 \u0627\u064a\u0648\u0628", "name:de": "Gundik", "name:en": "Gundik", "name:fr": "Gundik", "place": "village"}}, {"type": "node", "id": 2480161806, "lat": 37.2516543, "lon": 42.674056, "tags": {"alt_name": "\u0647\u0648\u0631\u064a\u0632", "int_name": "Hawr\u012bz, Hozik, \u0647\u0648\u0631\u064a\u0632, Hawriz, Hozik, \u0647\u0648\u0631\u064a\u0632", "is_in": "Iraq , \u062c\u0645\u0647\u0648\u0631\u064a\u0629 \u0627\u0644\u0639\u0631\u0627\u0642", "name": "\u0647\u06d5\u0648\u0631\u06ce\u0632", "name:ar": "\u0647\u0648\u0631\u064a\u0632", "name:ar1": "\u0647\u0648\u0631\u064a\u0632", "name:de": "Hawriz", "name:en": "Hawriz", "name:fr": "Hawriz", "name:ku": "Hewz\u00eark\u00ea (?)", "name:ru": "\u0425\u0430\u0440\u0432\u0438\u0437", "place": "village"}}, {"type": "node", "id": 2480161852, "lat": 37.206621, "lon": 42.854598, "tags": {"alt_name": "\u064a\u0648\u0633\u0641 \u0622\u063a\u0627", "int_name": "Usaf Awa, Y\u016bsuf \u0100gh\u0101, \u064a\u0648\u0633\u0641 \u0622\u063a\u0627, Usaf Awa, Yusuf Agha, \u064a\u0648\u0633\u0641 \u0622\u063a\u0627", "name": "\u06cc\u0648\u0633\u0641 \u0626\u0627\u06a4\u0627", "name:ar": "\u064a\u0648\u0633\u0641 \u0622\u0641\u0627", "name:de": "Usaf Awa", "name:en": "Usaf Awa", "name:fr": "Usaf Awa", "place": "village"}}, {"type": "node", "id": 2480165913, "lat": 37.132868, "lon": 42.658328, "tags": {"alt_name": "\u0639\u0641\u0627\u0631\u0645\u0629", "alt_name:ku": "Afirma", "int_name": "Af\u0101rmah, \u0100farma, \u0639\u0641\u0627\u0631\u0645\u0647, Afarmah, Afarma, \u0639\u0641\u0627\u0631\u0645\u0647", "is_in": "Iraq , \u062c\u0645\u0647\u0648\u0631\u064a\u0629 \u0627\u0644\u0639\u0631\u0627\u0642", "name": "\u0626\u0627\u0641\u0631\u0645\u06d5", "name:ar": "\u0626\u0627\u0641\u0631\u0645\u0627 \u0633\u0644\u064a\u0641\u0627\u0646\u064a", "name:ar1": "\u0639\u0641\u0627\u0631\u0645\u0629", "name:ckb": "\u0626\u0627\u0641\u0631\u0645\u06d5", "name:de": "Afarmah", "name:en": "Afarmah", "name:fr": "Afarmah", "name:ku": "Afirme", "place": "village"}}, {"type": "node", "id": 2480165932, "lat": 37.16364, "lon": 42.621624, "tags": {"alt_name": "\u0634\u0645 \u0645\u0634\u0643\u0648", "int_name": "Cham Mishko, Cham Mishk\u016b, Chamm\u012bshko, \u0686\u0645 \u0645\u0634\u0643\u0648, Cham Mishko, Cham Mishku, Chammishko, \u0686\u0645 \u0645\u0634\u0643\u0648", "is_in": "Iraq , \u062c\u0645\u0647\u0648\u0631\u064a\u0629 \u0627\u0644\u0639\u0631\u0627\u0642", "name": "\u0686\u06d5\u0645 \u0645\u0634\u06a9\u06c6", "name:ar": "\u062c\u0645 \u0645\u0634\u0643\u0648", "name:ar1": "\u0634\u0645 \u0645\u0634\u0643\u0648", "name:ckb": "\u0686\u06d5\u0645 \u0645\u0634\u06a9\u06c6", "name:de": "Cham Mishko", "name:en": "Cham Mishko", "name:fr": "Cham Mishko", "name:ku": "\u00c7em Mi\u015fko", "place": "village"}}, {"type": "node", "id": 2480165943, "lat": 37.171075, "lon": 42.7517263, "tags": {"alt_name": "\u062f\u0627\u0631 \u0647\u0648\u0632\u0627\u0646", "int_name": "D\u0101r H\u016bz\u0101n, Darhawzan, D\u0101rh\u014dz\u0101n, \u062f\u0627\u0631 \u0647\u0648\u0632\u0627\u0646, Dar Huzan, Darhawzan, Darhozan, \u062f\u0627\u0631 \u0647\u0648\u0632\u0627\u0646", "is_in": "Iraq , \u062c\u0645\u0647\u0648\u0631\u064a\u0629 \u0627\u0644\u0639\u0631\u0627\u0642", "name": "\u062f\u0627\u0631 \u0647\u0648\u0632\u0627\u0646", "name:ar": "\u062f\u0627\u0631 \u0647\u0648\u0632\u0627\u0646", "name:ar1": "\u062f\u0627\u0631 \u0647\u0648\u0632\u0627\u0646", "name:de": "Dar Huzan", "name:en": "Dar Huzan", "name:fr": "Dar Huzan", "name:ku": "Darhuzan\u00ea", "place": "village"}}, {"type": "node", "id": 2480165948, "lat": 37.1127168, "lon": 42.6973519, "tags": {"alt_name": "\u062f\u0634\u062a \u0645\u064a\u0631 \u0627\u0644\u0635\u063a\u064a\u0631\u0629", "int_name": "Dasht Mir, Dasht M\u012br a\u015f \u015eagh\u012brah, Dashtm\u012br \u0101 Pich\u016bk, \u062f\u0634\u062a \u0645\u064a\u0631\u0627\u0644\u0635\u063a\u064a\u0631\u0647, Dasht Mir, Dasht Mir as Saghirah, Dashtmir a Pichuk, \u062f\u0634\u062a \u0645\u064a\u0631\u0627\u0644\u0635\u063a\u064a\u0631\u0647", "name": "\u062f\u06d5\u0634\u062a \u0645\u06cc\u0631\u06d5", "name:ckb": "\u062f\u06d5\u0634\u062a \u0645\u06cc\u0631\u06d5", "name:de": "Dasht Mir", "name:en": "Dasht Mir", "name:fr": "Dasht Mir", "name:ku": "De\u015ft M\u00eere", "place": "village"}}, {"type": "node", "id": 2480165952, "lat": 37.116934, "lon": 42.679967, "tags": {"int_name": "Dasht Mir, Dasht M\u012br al Kab\u012brah, Dashtm\u0101r \u0101 Mazin, \u062f\u0634\u062a \u0645\u064a\u0631 \u0627\u0644\u0643\u0628\u064a\u0631\u0629, Dasht Mir, Dasht Mir al Kabirah, Dashtmar a Mazin, \u062f\u0634\u062a \u0645\u064a\u0631 \u0627\u0644\u0643\u0628\u064a\u0631\u0629", "name": "\u062f\u0634\u062a \u0645\u064a\u0631", "name:de": "Dasht Mir", "name:en": "Dasht Mir", "name:fr": "Dasht Mir", "place": "village"}}, {"type": "node", "id": 2480165956, "lat": 37.1110373, "lon": 42.73213, "tags": {"alt_name": "\u062e\u0648\u0644\u064a\u0634", "int_name": "Khalish, Khaw\u0101lish, Kh\u016bl\u012bsh, \u062e\u0648\u0644\u064a\u0634, Khalish, Khawalish, Khulish, \u062e\u0648\u0644\u064a\u0634", "is_in": "Iraq , \u062c\u0645\u0647\u0648\u0631\u064a\u0629 \u0627\u0644\u0639\u0631\u0627\u0642", "name": "\u062e\u0648\u0627\u0644\u06ce\u0634", "name:ar": "\u062e\u0627\u0644\u0634", "name:ckb": "\u062e\u0648\u0627\u0644\u06ce\u0634", "name:de": "Khalish", "name:en": "Khalish", "name:fr": "Khalish", "name:ku": "Xwal\u00ea\u015f", "place": "village"}}, {"type": "node", "id": 2480165961, "lat": 37.123628, "lon": 42.624839, "tags": {"alt_name": "\u062e\u0631\u0627\u0628\u062f\u0627\u0631", "alt_name:ku": "Xirabdar", "int_name": "Kharab Dar, Khar\u0101bd\u0101r, Khar\u0101boar, \u062e\u0631\u0627\u0628\u062f\u0627\u0631, Kharab Dar, Kharabdar, Kharaboar, \u062e\u0631\u0627\u0628\u062f\u0627\u0631", "is_in": "Iraq , \u062c\u0645\u0647\u0648\u0631\u064a\u0629 \u0627\u0644\u0639\u0631\u0627\u0642", "name": "\u062e\u0631\u0627\u0628 \u062f\u0627\u0631\u06a9\u06ce", "name:ar": "\u062e\u0631\u0627\u0628\u062f\u0627\u0631", "name:ar1": "\u062e\u0631\u0627\u0628\u062f\u0627\u0631", "name:ckb": "\u062e\u0631\u0627\u067e \u062f\u0627\u0631\u06a9\u06ce", "name:de": "Kharab Dar", "name:en": "Kharab Dar", "name:fr": "Kharab Dar", "name:ku": "Xirab Dark\u00ea", "place": "village"}}, {"type": "node", "id": 2480165970, "lat": 37.148505, "lon": 42.7466361, "tags": {"alt_name": "\u062e\u0631\u0627\u0626\u0628 \u0628\u0627\u0628\u0643", "int_name": "Khar\u0101ib B\u0101bik, Kharab Babik, Khar\u0101b B\u0101bik, Khar\u0101bah B\u0101b\u012b, \u062e\u0631\u0627\u0626\u0628 \u0628\u0627\u0628\u0643, Kharaib Babik, Kharab Babik, Kharab Babik, Kharabah Babi, \u062e\u0631\u0627\u0626\u0628 \u0628\u0627\u0628\u0643", "is_in": "Iraq , \u062c\u0645\u0647\u0648\u0631\u064a\u0629 \u0627\u0644\u0639\u0631\u0627\u0642", "name": "\u062e\u0631\u0627\u0628 \u0628\u0627\u0628\u06a9", "name:ar": "\u062e\u0631\u0627\u0628\u0627\u0628\u0643", "name:ar1": "\u062e\u0631\u0627\u0626\u0628 \u0628\u0627\u0628\u0643", "name:ckb": "\u062e\u0631\u0627\u0628 \u0628\u0627\u0628\u06a9", "name:de": "Kharaib Babik", "name:en": "Khrab Babik", "name:fr": "Kharaib Babik", "name:ku": "Xirab Babik", "place": "village"}}, {"type": "node", "id": 2480165975, "lat": 37.128678, "lon": 42.613526, "tags": {"alt_name": "\u062e\u064a\u0644\u062e", "int_name": "Khaylikh, Kh\u0113l\u0101kh, Salikh, \u062e\u064a\u0644\u062e, Khaylikh, Khelakh, Salikh, \u062e\u064a\u0644\u062e", "is_in": "Iraq , \u062c\u0645\u0647\u0648\u0631\u064a\u0629 \u0627\u0644\u0639\u0631\u0627\u0642", "name": "\u062e\u06ce\u0644\u06d5\u062e", "name:ar": "\u062e\u064a\u0644\u062e \u0633\u0644\u064a\u0641\u0627\u0646\u064a", "name:ar1": "\u062e\u064a\u0644\u062e", "name:ckb": "\u062e\u06ce\u0644\u06d5\u062e", "name:de": "Khaylikh", "name:en": "Khaylikh", "name:fr": "Khaylikh", "name:ku": "X\u00ealex", "place": "village"}}, {"type": "node", "id": 2480165986, "lat": 37.2070296, "lon": 42.6204723, "tags": {"alt_name": "\u0631\u0627\u0628\u0646\u0643\u0627", "int_name": "Rabanka, Rab\u0101nkah, R\u0101bink\u0101, Rahanka, Rbinka, Robanko, \u0631\u0627\u0628\u0646\u0643\u0627, Rabanka, Rabankah, Rabinka, Rahanka, Rbinka, Robanko, \u0631\u0627\u0628\u0646\u0643\u0627", "is_in": "Iraq , \u062c\u0645\u0647\u0648\u0631\u064a\u0629 \u0627\u0644\u0639\u0631\u0627\u0642", "name": "\u0631\u06d5\u0628\u06d5\u0646\u06a9\u0627", "name:ar": "\u0631\u0627\u0628\u0646\u0643\u0627", "name:ar1": "\u0631\u0627\u0628\u0646\u0643\u0627", "name:de": "Rabanka", "name:en": "Rabanka", "name:fr": "Rabanka", "place": "village"}}, {"type": "node", "id": 2480165990, "lat": 37.1429919, "lon": 42.7738139, "tags": {"int_name": "Sh\u012bv \u0101 Al\u016bl\u0101, Shiv a Alula", "name": "\u0648\u0627\u062f\u064a \u0623\u0644\u0648\u0644\u0627", "name:ar": "\u0648\u0627\u062f\u064a \u0623\u0644\u0648\u0644\u0627", "name:de": "Shiv a Alula", "name:en": "Shiv a Alula", "name:fr": "Shiv a Alula", "place": "village"}}, {"type": "node", "id": 2480165991, "lat": 37.1340407, "lon": 42.7637691, "tags": {"int_name": "T\u0101w\u0101q, T\u0101wuk, \u0162\u0101w\u016bq, \u062a\u0627\u0648\u0643, Tawaq, Tawuk, Tawuq, \u062a\u0627\u0648\u0643", "name": "\u062a\u0627\u0648\u06a9", "name:ar": "\u062a\u0627\u0648\u0643", "name:ckb": "\u062a\u0627\u0648\u06a9", "name:de": "Tawaq", "name:en": "Tawaq", "name:fr": "Tawaq", "place": "village"}}, {"type": "node", "id": 2480166984, "lat": 37.1596642, "lon": 42.8761477, "tags": {"alt_name": "\u0633\u0631\u0633\u0648\u0644\u0627\u0641", "int_name": "Sarsolav, Sars\u016bl\u0101f, Sars\u016bl\u0101v, \u0633\u0631\u0633\u0648\u0644\u0627\u0641, Sarsolav, Sarsulaf, Sarsulav, \u0633\u0631\u0633\u0648\u0644\u0627\u0641", "is_in": "Iraq , \u062c\u0645\u0647\u0648\u0631\u064a\u0629 \u0627\u0644\u0639\u0631\u0627\u0642", "name": "\u0633\u06d5\u0631\u0633\u06c6\u0644\u0627\u06a4", "name:ar": "\u0633\u0631\u0633\u0648\u0644\u0627\u0641", "name:ar1": "\u0633\u0631\u0633\u0648\u0644\u0627\u0641", "name:ckb": "\u0633\u06d5\u0631\u0633\u06c6\u0644\u0627\u06a4", "name:de": "Sarsolav", "name:en": "Sarsolav", "name:fr": "Sarsolav", "name:ku": "Sersolav", "place": "village"}}, {"type": "node", "id": 2482488305, "lat": 37.0176141, "lon": 42.7040949, "tags": {"alt_name": "\u0627\u0644\u0639\u0627\u0635\u064a", "int_name": "As\u012b, Al \u0100\u015f\u012b, Asy, \u0627\u0644\u0639\u0627\u0635\u064a, Asi, Al Asi, Asy, \u0627\u0644\u0639\u0627\u0635\u064a", "is_in": "Iraq , \u062c\u0645\u0647\u0648\u0631\u064a\u0629 \u0627\u0644\u0639\u0631\u0627\u0642", "name": "\u0626\u0627\u0633\u06cc\u0647\u06ce", "name:ar": "\u0627\u0633\u064a\u0647\u064a", "name:ar1": "\u0627\u0644\u0639\u0627\u0635\u064a", "name:de": "Asi", "name:en": "Asi", "name:fr": "Asi", "place": "village"}}, {"type": "node", "id": 2482488307, "lat": 37.130471, "lon": 42.593679, "tags": {"alt_name": "\u0628\u0627\u0643\u0631\u0645\u0629", "int_name": "Bagirma, Bagirmah, B\u0101kirma, B\u0101kirmah, \u0628\u0627\u0643\u0631\u0645\u0629, Bagirma, Bagirmah, Bakirma, Bakirmah, \u0628\u0627\u0643\u0631\u0645\u0629", "is_in": "Iraq , \u062c\u0645\u0647\u0648\u0631\u064a\u0629 \u0627\u0644\u0639\u0631\u0627\u0642", "name": "\u0628\u0627\u06a9\u0631\u0645\u06d5", "name:ar": "\u0628\u0627\u0643\u0631\u0645\u0629 \u0633\u0644\u064a\u0641\u0627\u0646\u064a", "name:ar1": "\u0628\u0627\u0643\u0631\u0645\u0629", "name:ckb": "\u0628\u0627\u06a9\u0631\u0645\u06d5", "name:de": "Bagirma", "name:en": "Bagirma", "name:fr": "Bagirma", "name:ku": "Bakirme", "place": "village"}}, {"type": "node", "id": 2482488314, "lat": 37.007031, "lon": 42.7222056, "tags": {"alt_name": "\u0628\u0627\u0644\u0642\u0648\u0632", "int_name": "B\u0101lq\u014dz, B\u0101lq\u016bz, Barquaz, \u0628\u0627\u0644\u0642\u0648\u0632, Balqoz, Balquz, Barquaz, \u0628\u0627\u0644\u0642\u0648\u0632", "name": "\u0628\u0627\u0644\u0642\u0648\u0632", "name:ar": "\u0628\u0627\u0644\u0642\u0648\u0633", "name:ar1": "\u0628\u0627\u0644\u0642\u0648\u0632", "name:de": "Balqoz", "name:en": "Balqos", "name:fr": "Balqoz", "name:ku": "\u0628\u0627\u0644\u0642\u0648\u0633", "place": "village"}}, {"type": "node", "id": 2482488327, "lat": 37.14602, "lon": 42.608018, "tags": {"alt_name": "\u062c\u0645 \u0643\u0648\u0631\u0643", "int_name": "Cham K\u016brak, Chami Korak, \u0686\u0645 \u0643\u0648\u0631\u0643, Cham Kurak, Chami Korak, \u0686\u0645 \u0643\u0648\u0631\u0643", "is_in": "Iraq , \u062c\u0645\u0647\u0648\u0631\u064a\u0629 \u0627\u0644\u0639\u0631\u0627\u0642", "name": "\u0686\u06d5\u0645 \u06a9\u0648\u0631\u06a9\u06ce", "name:ar": "\u062c\u0645 \u0643\u0648\u0631\u0643", "name:ar1": "\u062c\u0645 \u0643\u0648\u0631\u0643", "name:ckb": "\u0686\u06d5\u0645 \u06a9\u0648\u0631\u06a9\u06ce", "name:de": "Cham Kurak", "name:en": "Cham Kurak", "name:fr": "Cham Kurak", "name:ku": "\u00c7em Kurk\u00ea", "place": "village"}}, {"type": "node", "id": 2482488337, "lat": 37.061256, "lon": 42.612915, "tags": {"int_name": "G\u014dl\u012b, G\u016bll\u012b, Kuli, K\u016bl\u012b, \u0643\u0648\u0644\u064a, Goli, Gulli, Kuli, Kuli, \u0643\u0648\u0644\u064a", "is_in": "Iraq , \u062c\u0645\u0647\u0648\u0631\u064a\u0629 \u0627\u0644\u0639\u0631\u0627\u0642", "name": "\u06a9\u0648\u0644\u06ce", "name:ar": "\u0643\u0648\u0644\u064a", "name:de": "Goli", "name:en": "Koli", "name:fr": "Goli", "place": "village"}}, {"type": "node", "id": 2482488338, "lat": 37.0258578, "lon": 42.6803931, "tags": {"alt_name": "\u062d\u0627\u062c\u064a\u0629", "int_name": "Hajia, H\u0101jiy\u0101, \u1e28\u0101j\u012byah, \u062d\u0627\u062c\u064a\u0629, Hajia, Hajiya, Hajiyah, \u062d\u0627\u062c\u064a\u0629", "is_in": "Iraq , \u062c\u0645\u0647\u0648\u0631\u064a\u0629 \u0627\u0644\u0639\u0631\u0627\u0642", "name": "\u0647\u0627\u062c\u06cc\u0627", "name:ar": "\u0647\u0627\u062c\u064a\u0627", "name:ar1": "\u062d\u0627\u062c\u064a\u0629", "name:de": "Hajia", "name:en": "Hajia", "name:fr": "Hajia", "name:ku": "Hajya (?)", "place": "village"}}, {"type": "node", "id": 2482488339, "lat": 37.0852172, "lon": 42.6598468, "tags": {"int_name": "Hasan Awa, \u1e28asan \u0100wah, Hasan\u0101w\u0101, \u062d\u0633\u0646 \u0622\u0648\u0647, Hasan Awa, Hasan Awah, Hasanawa, \u062d\u0633\u0646 \u0622\u0648\u0647", "is_in": "Iraq , \u062c\u0645\u0647\u0648\u0631\u064a\u0629 \u0627\u0644\u0639\u0631\u0627\u0642", "name": "\u062d\u06d5\u0633\u06d5\u0646\u0627\u06a4\u0627", "name:ar": "\u062d\u0633\u0646 \u0626\u0627\u0641\u0627", "name:ckb": "\u062d\u06d5\u0633\u06d5\u0646\u0627\u06a4\u0627", "name:de": "Hasan Awa", "name:en": "Hasan Awa", "name:fr": "Hasan Awa", "name:ku": "Hesenava", "place": "village"}}, {"type": "node", "id": 2482488340, "lat": 37.0172791, "lon": 42.6013335, "tags": {"int_name": "Kani Kark, K\u0101n\u012b Kark, \u0643\u0627\u0646\u064a \u0643\u0631\u0643, Kani Kark, Kani Kark, \u0643\u0627\u0646\u064a \u0643\u0631\u0643", "is_in": "Iraq , \u062c\u0645\u0647\u0648\u0631\u064a\u0629 \u0627\u0644\u0639\u0631\u0627\u0642", "name": "\u06a9\u0627\u0646\u06cc \u06a9\u06d5\u0631\u06a9", "name:ar": "\u0643\u0627\u0646\u064a \u0643\u0631\u0643", "name:de": "Kani Kark", "name:en": "Kani Kark", "name:fr": "Kani Kark", "place": "village"}}, {"type": "node", "id": 2482488341, "lat": 37.094673, "lon": 42.651937, "tags": {"int_name": "K\u0101n\u012b Rah\u0101l, Kani Rahl, K\u0101n\u012b Ra\u1e29l, \u0643\u0627\u0646\u064a \u0631\u062d\u0644, Kani Rahal, Kani Rahl, Kani Rahl, \u0643\u0627\u0646\u064a \u0631\u062d\u0644", "is_in": "Iraq , \u062c\u0645\u0647\u0648\u0631\u064a\u0629 \u0627\u0644\u0639\u0631\u0627\u0642", "name": "\u06a9\u0627\u0646\u06cc \u0695\u0648\u0647\u0627\u0644", "name:ar": "\u0643\u0627\u0646\u064a \u0631\u062d\u0644", "name:ckb": "\u06a9\u0627\u0646\u06cc \u0695\u0648\u0647\u0627\u0644", "name:de": "Kani Rahal", "name:en": "Kani Rahal", "name:fr": "Kani Rahal", "name:ku": "Kan\u00ee Ruhal", "place": "village"}}, {"type": "node", "id": 2482491590, "lat": 36.948579, "lon": 42.843055, "tags": {"alt_name": "\u0647\u0627\u062c\u0633\u0646\u0629", "int_name": "H\u0101jisna, H\u0101jisnah, Hajista, Hajsta, \u0647\u0627\u062c\u0633\u0646\u0647, Hajisna, Hajisnah, Hajista, Hajsta, \u0647\u0627\u062c\u0633\u0646\u0647", "is_in": "Iraq , \u062c\u0645\u0647\u0648\u0631\u064a\u0629 \u0627\u0644\u0639\u0631\u0627\u0642", "name": "\u0647\u0627\u062c\u0633\u0646\u0629", "name:ar": "\u0647\u0627\u062c\u0633\u0646\u0649", "name:ar1": "\u0647\u0627\u062c\u0633\u0646\u0629", "name:de": "Hajisna", "name:en": "Hajisna", "name:fr": "Hajisna", "name:ku": "Hajesne (?)", "place": "village"}}, {"type": "node", "id": 2482492842, "lat": 37.009941, "lon": 42.85691, "tags": {"alt_name": "\u0628\u0631\u062c\u0648\u0646\u064a", "int_name": "Barj\u012bn\u012b, Barjun, Barj\u016bn\u012b, Brjini, \u0628\u0631\u062c\u0648\u0646\u064a, Barjini, Barjun, Barjuni, Brjini, \u0628\u0631\u062c\u0648\u0646\u064a", "is_in": "Iraq , \u062c\u0645\u0647\u0648\u0631\u064a\u0629 \u0627\u0644\u0639\u0631\u0627\u0642", "name": "\u0628\u0631\u062c\u0648\u0646\u064a", "name:ar": "\u0628\u0631\u062c\u064a\u0646\u064a", "name:ar1": "\u0628\u0631\u062c\u0648\u0646\u064a", "name:de": "Barjini", "name:en": "Birjini", "name:fr": "Barjini", "place": "village"}}, {"type": "node", "id": 2482492844, "lat": 37.0639583, "lon": 42.8120573, "tags": {"alt_name": "\u0628\u0627\u0633\u0627\u063a\u0629", "int_name": "B\u0101s\u0101gh\u0101, B\u0101s\u0101ghah, \u0628\u0627\u0633\u0627\u063a\u0647, Basagha, Basaghah, \u0628\u0627\u0633\u0627\u063a\u0647", "is_in": "Iraq , \u062c\u0645\u0647\u0648\u0631\u064a\u0629 \u0627\u0644\u0639\u0631\u0627\u0642", "name": "\u0628\u0627\u0633\u0627\u063a\u0629", "name:ar": "\u0628\u0627\u0633\u0627\u063a\u0629", "name:ar1": "\u0628\u0627\u0633\u0627\u063a\u0629", "name:de": "Basagha", "name:en": "Basagha", "name:fr": "Basagha", "place": "village"}}, {"type": "node", "id": 2482492848, "lat": 37.014573, "lon": 42.879249, "tags": {"alt_name": "\u062f\u0631\u0643\u0627\u0644 \u0634\u064a\u062e", "int_name": "Darg\u0101l, Dargal Sheikh, Dargalah, Dirg\u0101l Shaykh, Drgal Sheikh, \u062f\u0631\u06af\u0627\u0644 \u0634\u064a\u062e, Dargal, Dargal Sheikh, Dargalah, Dirgal Shaykh, Drgal Sheikh, \u062f\u0631\u06af\u0627\u0644 \u0634\u064a\u062e", "is_in": "Iraq , \u062c\u0645\u0647\u0648\u0631\u064a\u0629 \u0627\u0644\u0639\u0631\u0627\u0642", "name": "\u062f\u0631\u0643\u0627\u0644 \u0634\u064a\u062e", "name:ar": "\u062f\u0631\u06af\u0644 \u0634\u064a\u062e\u0627", "name:ar1": "\u062f\u0631\u0643\u0627\u0644 \u0634\u064a\u062e", "name:de": "Dargal", "name:en": "Dargal", "name:fr": "Dargal", "place": "village"}}, {"type": "node", "id": 2482492852, "lat": 37.0410571, "lon": 42.8324484, "tags": {"alt_name": "\u062f\u0648\u0628\u0627\u0646\u064a\u0643", "int_name": "D\u016bb\u0101n\u012bk, \u062f\u0648\u0628\u0627\u0646\u064a\u0643, Dubanik, \u062f\u0648\u0628\u0627\u0646\u064a\u0643", "is_in": "Iraq , \u062c\u0645\u0647\u0648\u0631\u064a\u0629 \u0627\u0644\u0639\u0631\u0627\u0642", "name": "\u062f\u0648\u0628\u0627\u0646\u064a\u0643", "name:ar": "\u062f\u0648\u0628\u0627\u0646\u064a\u0643", "name:ar1": "\u062f\u0648\u0628\u0627\u0646\u064a\u0643", "name:de": "Dubanik", "name:en": "Dubanik", "name:fr": "Dubanik", "place": "village"}}, {"type": "node", "id": 2482492853, "lat": 37.044217, "lon": 42.834907, "tags": {"alt_name": "\u0647\u0627\u0631\u0648\u0646\u0629", "int_name": "Harona, H\u0101r\u016bn\u0101, H\u0101r\u016bnah, \u0647\u0627\u0631\u0648\u0646\u0647, Harona, Haruna, Harunah, \u0647\u0627\u0631\u0648\u0646\u0647", "is_in": "Iraq , \u062c\u0645\u0647\u0648\u0631\u064a\u0629 \u0627\u0644\u0639\u0631\u0627\u0642", "name": "\u0647\u0627\u0631\u0648\u0646\u0629", "name:ar": "\u0647\u0627\u0631\u064a\u0646\u0627", "name:ar1": "\u0647\u0627\u0631\u0648\u0646\u0629", "name:de": "Harona", "name:en": "harina", "name:fr": "Harona", "name:ku": "harina", "place": "village"}}, {"type": "node", "id": 2482492864, "lat": 37.065745, "lon": 42.86007, "tags": {"alt_name": "\u062a\u064a\u0644\u0629 \u0643\u0648\u0631\u0629", "int_name": "Tila Kura, T\u012blah K\u016brah, Til\u0101kir\u014d, Til\u0101kir\u014d, Tilak\u016br\u016b, Tiylah K\u016brah, \u062a\u064a\u0644\u0647 \u0643\u0648\u0631\u0647, Tila Kura, Tilah Kurah, Tilakiro, Tilakiro, Tilakuru, Tiylah Kurah, \u062a\u064a\u0644\u0647 \u0643\u0648\u0631\u0647", "is_in": "Iraq , \u062c\u0645\u0647\u0648\u0631\u064a\u0629 \u0627\u0644\u0639\u0631\u0627\u0642", "name": "\u062a\u064a\u0644\u0629 \u0643\u0648\u0631\u0629", "name:ar": "\u062a\u0644\u0627 \u0643\u0648\u0631\u0648", "name:ar1": "\u062a\u064a\u0644\u0629 \u0643\u0648\u0631\u0629", "name:de": "Tila Kura", "name:en": "Tila Kuro", "name:fr": "Tila Kura", "name:ku": "tila kuro", "place": "village"}}, {"type": "node", "id": 2482492866, "lat": 37.037774, "lon": 42.867277, "tags": {"alt_name": "\u0632\u064a\u0646\u0627\u0648\u0629", "int_name": "Zayyn\u0101wah, Zinawa, Zin\u0101wa, Zinawah, Z\u012bn\u0101wah, \u0632\u064a\u0646\u0627\u0648\u0647, Zayynawah, Zinawa, Zinawa, Zinawah, Zinawah, \u0632\u064a\u0646\u0627\u0648\u0647", "is_in": "Iraq , \u062c\u0645\u0647\u0648\u0631\u064a\u0629 \u0627\u0644\u0639\u0631\u0627\u0642", "name": "\u0632\u064a\u0646\u0627\u0648\u0629", "name:ar": "\u0632\u064a\u0646\u0627\u0641\u0627", "name:ar1": "\u0632\u064a\u0646\u0627\u0648\u0629", "name:de": "Zayynawah", "name:en": "Zinava", "name:fr": "Zayynawah", "name:ku": "zinava", "place": "village"}}, {"type": "node", "id": 2482493325, "lat": 37.162134, "lon": 42.825163, "tags": {"alt_name": "\u0628\u06d5\u06be\u0631 \u0626\u0627\u06a4\u0627", "alt_name:ku": "Behr Ava", "int_name": "Bahrawa, Bahraw\u0101, Bahr\u0101wah, \u0628\u0647\u0631\u0627\u0648\u0647, Bahrawa, Bahrawa, Bahrawah, \u0628\u0647\u0631\u0627\u0648\u0647", "name": "\u0628\u06d5\u06be\u0631\u0627\u06a4\u0627", "name:ar": "\u0628\u0647\u0631\u0627\u0641\u0627", "name:ckb": "\u0628\u06d5\u06be\u0631\u0627\u06a4\u0627", "name:de": "Bahrawa", "name:en": "Bahrava", "name:fr": "Bahrava", "name:ku": "Behrava", "place": "village"}}, {"type": "node", "id": 2482493331, "lat": 37.1776728, "lon": 42.8102463, "tags": {"alt_name": "\u06be\u06cc\u0632 \u0626\u0627\u06a4\u0627", "alt_name:ku": "H\u00eez Ava", "int_name": "H\u0113r\u0101wa, Hirawa, H\u012bz\u0101wah, \u0647\u064a\u0632\u0627\u0648\u0647, Herawa, Hirawa, Hizawah, \u0647\u064a\u0632\u0627\u0648\u0647", "name": "\u06be\u06cc\u0632\u0627\u06a4\u0627", "name:ar": "\u0647\u064a\u0632\u0627\u0641\u0627", "name:ckb": "\u06be\u06cc\u0632\u0627\u06a4\u0627", "name:de": "Hizava", "name:en": "Hizava", "name:fr": "Hizava", "name:ku": "H\u00eezava", "place": "village"}}, {"type": "node", "id": 2482493333, "lat": 37.086979, "lon": 42.852011, "tags": {"alt_name": "\u062c\u0645\u0644\u064a \u062c\u0644\u0627\u0644", "int_name": "Jaml\u012b Jal\u0101l, Jiml\u012bdal\u0101l, \u062c\u0645\u0644\u064a \u062c\u0644\u0627\u0644, Jamli Jalal, Jimlidalal, \u062c\u0645\u0644\u064a \u062c\u0644\u0627\u0644", "is_in": "Iraq , \u062c\u0645\u0647\u0648\u0631\u064a\u0629 \u0627\u0644\u0639\u0631\u0627\u0642", "name": "\u062c\u0645\u0644\u064a \u062c\u0644\u0627\u0644", "name:ar": "\u062c\u0645\u0643\u064a \u062f\u0644\u0627\u0644", "name:ar1": "\u062c\u0645\u0644\u064a \u062c\u0644\u0627\u0644", "name:de": "Jamli Jalal", "name:en": "chamke dalal", "name:fr": "Jamli Jalal", "name:ku": "\u00e7amk\u00ea delal", "place": "village"}}, {"type": "node", "id": 2482493334, "lat": 37.1396855, "lon": 42.8137938, "tags": {"alt_name": "\u0643\u0628\u0631\u0648\u0643", "int_name": "Kab\u0101r\u014dk, Kaprok, Kapr\u016bk, \u0643\u067e\u0631\u0648\u0643, Kabarok, Kaprok, Kapruk, \u0643\u067e\u0631\u0648\u0643", "is_in": "Iraq , \u062c\u0645\u0647\u0648\u0631\u064a\u0629 \u0627\u0644\u0639\u0631\u0627\u0642", "name": "\u06a9\u06d5\u0628\u06d5\u0631\u0648\u06a9", "name:ar": "\u0643\u0628\u0631\u0648\u0643", "name:ar1": "\u0643\u0628\u0631\u0648\u0643", "name:de": "Kabarok", "name:en": "Kabarok", "name:fr": "Kabarok", "place": "village"}}, {"type": "node", "id": 2482493342, "lat": 37.118027, "lon": 42.829922, "tags": {"alt_name": "\u0633\u0631\u0643\u0648", "int_name": "Sarko, Sark\u014d, Sark\u016b, \u0633\u0631\u0643\u0648, Sarko, Sarko, Sarku, \u0633\u0631\u0643\u0648", "is_in": "Iraq , \u062c\u0645\u0647\u0648\u0631\u064a\u0629 \u0627\u0644\u0639\u0631\u0627\u0642", "name": "\u0633\u06d5\u0631\u06a9\u06c6", "name:ar": "\u0633\u0631\u0643\u0648", "name:ar1": "\u0633\u0631\u0643\u0648", "name:ckb": "\u0633\u06d5\u0631\u06a9\u06c6", "name:de": "Sarko", "name:en": "Sarko", "name:fr": "Sarko", "name:ku": "Serko", "place": "village"}}, {"type": "node", "id": 2482493345, "lat": 37.134523, "lon": 42.8367606, "tags": {"alt_name": "\u062a\u064a\u0631\u0643 \u0645\u0627\u0645\u0632\u062f\u064a\u0646", "int_name": "T\u0113rik Zh\u0113r\u012b, Terik Zheri", "is_in": "Iraq , \u062c\u0645\u0647\u0648\u0631\u064a\u0629 \u0627\u0644\u0639\u0631\u0627\u0642", "name": "\u062a\u064a\u0631\u0643 \u0645\u0627\u0645\u0632\u062f\u064a\u0646", "name:ar": "\u062a\u064a\u0631\u0643 \u0645\u0627\u0645\u0632\u062f\u064a\u0646", "name:ar1": "\u062a\u064a\u0631\u0643 \u0645\u0627\u0645\u0632\u062f\u064a\u0646", "name:de": "Terik Zheri", "name:en": "Terik Zheri", "name:fr": "Terik Zheri", "name:ku": "Terik mamezdene", "place": "village"}}, {"type": "node", "id": 2484311057, "lat": 36.966999, "lon": 42.7962692, "tags": {"alt_name": "\u0643\u0648\u0627\u0634\u0629", "int_name": "Gaw\u0101sha, Kaw\u0101shah, Kuasha, Kuw\u0101shah, \u0643\u0648\u0627\u0634\u0629, Gawasha, Kawashah, Kuasha, Kuwashah, \u0643\u0648\u0627\u0634\u0629", "is_in": "Iraq , \u062c\u0645\u0647\u0648\u0631\u064a\u0629 \u0627\u0644\u0639\u0631\u0627\u0642", "name": "\u06a9\u0648\u0627\u0634\u06ce", "name:ar": "\u0643\u0648\u0627\u0634\u0629", "name:ar1": "\u0643\u0648\u0627\u0634\u0629", "name:de": "Gawasha", "name:en": "Gawasha", "name:fr": "Gawasha", "place": "village"}}, {"type": "node", "id": 2484311349, "lat": 37.010895, "lon": 42.769493, "tags": {"alt_name": "\u0628\u0627\u0641\u064a\u0627", "int_name": "Bat\u012byah, Bavia, B\u0101v\u012by\u0101, \u0628\u0627\ufb6c\u064a\u0627, Batiyah, Bavia, Baviya, \u0628\u0627\ufb6c\u064a\u0627", "is_in": "Iraq , \u062c\u0645\u0647\u0648\u0631\u064a\u0629 \u0627\u0644\u0639\u0631\u0627\u0642", "name": "\u0628\u0627\u0641\u064a\u0627", "name:ar": "\u0628\u0627\u0641\u064a\u0627", "name:ar1": "\u0628\u0627\u0641\u064a\u0627", "name:de": "Batiyah", "name:en": "Baviya", "name:fr": "Batiyah", "name:ku": "\u0628\u0627\u06a4\u06cc\u0627", "place": "village"}}, {"type": "node", "id": 2484311362, "lat": 37.0068261, "lon": 42.7161257, "tags": {"alt_name": "\u0642\u0631\u0642\u0648\u0631", "int_name": "Qaraq\u016br, Qarqor, Qarq\u014dr, Qarq\u016br, \u0642\u0631\u0642\u0648\u0631, Qaraqur, Qarqor, Qarqor, Qarqur, \u0642\u0631\u0642\u0648\u0631", "is_in": "Iraq , \u062c\u0645\u0647\u0648\u0631\u064a\u0629 \u0627\u0644\u0639\u0631\u0627\u0642", "name": "\u0642\u0631\u0642\u0648\u0631", "name:ar": "\u0642\u0631\u0642\u0648\u0631", "name:ar1": "\u0642\u0631\u0642\u0648\u0631", "name:de": "Qaraqur", "name:en": "Qaraqur", "name:fr": "Qaraqur", "place": "village"}}, {"type": "node", "id": 2484311363, "lat": 37.1279987, "lon": 42.8007496, "tags": {"alt_name": "\u062a\u064a\u0631\u0643 \u062d\u0633\u0646", "int_name": "T\u0113rik \u1e28asan, Terik Hasan", "is_in": "Iraq , \u062c\u0645\u0647\u0648\u0631\u064a\u0629 \u0627\u0644\u0639\u0631\u0627\u0642", "name": "\u062a\u06cc\u0631\u06a9 \u0639\u06d5\u0631\u06d5\u0628", "name:ar": "\u062a\u064a\u0631\u0643 \u062d\u0633\u0646", "name:ar1": "\u062a\u064a\u0631\u0643 \u062d\u0633\u0646", "name:ckb": "\u062a\u06ce\u0631\u06a9 \u062d\u06d5\u0633\u06d5\u0646", "name:de": "Terik Hasan", "name:en": "Terik Hasan", "name:fr": "Terik Hasan", "name:ku": "T\u00earik Hesen", "place": "village"}}, {"type": "node", "id": 2484311365, "lat": 37.15098, "lon": 42.785977, "tags": {"int_name": "Umar \u0100gh\u0101, Amer Agha, \u014cmar \u0100gh\u0101, \u0639\u0645\u0631 \u0622\u063a\u0627, Umar Agha, Amer Agha, Omar Agha, \u0639\u0645\u0631 \u0622\u063a\u0627", "name": "\u0639\u0648\u0645\u06d5\u0631 \u0626\u0627\u063a\u0627", "name:ar": "\u0639\u0645\u0631 \u0622\u063a\u0627", "name:ckb": "\u0639\u0648\u0645\u06d5\u0631 \u0626\u0627\u063a\u0627", "name:de": "Umar Agha", "name:en": "Umar Agha", "name:fr": "Umar Agha", "name:ku": "Umer A\u1e8da", "place": "village"}}, {"type": "node", "id": 2488213547, "lat": 37.0203206, "lon": 42.5122383, "tags": {"int_name": "\u0100fzarok, Av Zarok, \u0100vzarok, Avzar\u016bk Al\u012b, \u0627\ufb6c\u0632\u0631\u0648\u0643 \u0639\u0644\u064a, Afzarok, Av Zarok, Avzarok, Avzaruk Ali, \u0627\ufb6c\u0632\u0631\u0648\u0643 \u0639\u0644\u064a", "is_in": "Iraq , \u062c\u0645\u0647\u0648\u0631\u064a\u0629 \u0627\u0644\u0639\u0631\u0627\u0642", "name": "\u0626\u0627\u06a4\u0632\u0631\u06ce\u06a9 \u0639\u06d5\u0644\u06cc", "name:ar": "\u0622\u0641\u0632\u0631\u0648\u0643 \u0639\u0644\u064a", "name:de": "Afzarok", "name:en": "Afzarok", "name:fr": "Afzarok", "place": "village"}}, {"type": "node", "id": 2488213548, "lat": 37.0155162, "lon": 42.5879196, "tags": {"int_name": "Aymalk, Aynmalk, \u012am\u0101lik, \u0627\u064a\u0645\u0627\u0644\u0643, Aymalk, Aynmalk, Imalik, \u0627\u064a\u0645\u0627\u0644\u0643", "is_in": "Iraq , \u062c\u0645\u0647\u0648\u0631\u064a\u0629 \u0627\u0644\u0639\u0631\u0627\u0642", "name": "\u0626\u06ce\u0645\u06d5\u0644\u06a9", "name:ar": "\u0627\u064a\u0645\u0627\u0644\u0643", "name:de": "Aymalk", "name:en": "Aymalk", "name:fr": "Aymalk", "place": "village"}}, {"type": "node", "id": 2488213550, "lat": 37.0456737, "lon": 42.4496266, "tags": {"int_name": "B\u0101j\u012bd K\u0101nd\u0101l, Bajr Kandal, \u0628\u0627\u062c\u064a\u062f \u0643\u0627\u0646\u062f\u0627\u0644, Bajid Kandal, Bajr Kandal, \u0628\u0627\u062c\u064a\u062f \u0643\u0627\u0646\u062f\u0627\u0644", "is_in": "Iraq , \u062c\u0645\u0647\u0648\u0631\u064a\u0629 \u0627\u0644\u0639\u0631\u0627\u0642", "name": "\u0628\u0627\u062c\u062f \u06a9\u06d5\u0646\u062f\u0627\u06b5", "name:ar": "\u0628\u0627\u062c\u062f \u0643\u0646\u062f\u0627\u0644", "name:de": "Bajid Kandal", "name:en": "Bajid Kandal", "name:fr": "Bajid Kandal", "name:ku": "Bajed Kandal", "place": "village"}}, {"type": "node", "id": 2488213553, "lat": 37.044411, "lon": 42.548199, "tags": {"alt_name": "\u062e\u0631\u0628\u0629 \u0628\u0631\u0627\u0641\u0648\u0643", "int_name": "Baravok, Khirbat Bar\u0101f\u016bk, Khirbat Brafok, \u062e\u0631\u0628\u0629 \u0628\u0631\u0627\u0641\u0648\u0643, Baravok, Khirbat Barafuk, Khirbat Brafok, \u062e\u0631\u0628\u0629 \u0628\u0631\u0627\u0641\u0648\u0643", "is_in": "Iraq , \u062c\u0645\u0647\u0648\u0631\u064a\u0629 \u0627\u0644\u0639\u0631\u0627\u0642", "name": "\u062e\u06d5\u0631\u0627\u067e \u0628\u06d5\u0631\u0627\u06a4\u06c6\u06a9", "name:ar": "beravok", "name:ar1": "\u062e\u0631\u0628\u0629 \u0628\u0631\u0627\u0641\u0648\u0643", "name:de": "Baravok", "name:en": "Baravok", "name:fr": "Baravok", "place": "village"}}, {"type": "node", "id": 2488213555, "lat": 37.0153576, "lon": 42.5564491, "tags": {"alt_name:ku": "Kelek", "int_name": "Kalik, Kelik, K\u012blk, Kl\u00eak, \u0643\u064a\u0644\u0643, Kalik, Kelik, Kilk, Klek, \u0643\u064a\u0644\u0643", "is_in": "Iraq , \u062c\u0645\u0647\u0648\u0631\u064a\u0629 \u0627\u0644\u0639\u0631\u0627\u0642", "name": "\u06a9\u06ce\u0644\u06a9", "name:ar": "\u0643\u064a\u0644\u0643", "name:de": "Kalik", "name:en": "Kalik", "name:fr": "Kalik", "name:ku": "K\u00eelk", "place": "village"}}, {"type": "node", "id": 2488213556, "lat": 37.0273342, "lon": 42.464614, "tags": {"int_name": "K\u0101n\u012b Arab, Kani Arab, \u0643\u0627\u0646\u064a \u0639\u0631\u0628 \u062e\u0631\u0627\u0626\u0628, Kani Arab, Kani Arab, \u0643\u0627\u0646\u064a \u0639\u0631\u0628 \u062e\u0631\u0627\u0626\u0628", "is_in": "Iraq , \u062c\u0645\u0647\u0648\u0631\u064a\u0629 \u0627\u0644\u0639\u0631\u0627\u0642", "name": "\u062e\u06d5\u0631\u0627\u067e \u06a9\u0627\u0646\u06cc \u0639\u06d5\u0631\u06d5\u0628", "name:ar": "\u062e\u0631\u0627\u0626\u0628 \u0643\u0627\u0646\u064a \u0639\u0631\u0628", "name:de": "Kani Arab", "name:en": "Kani Arab", "name:fr": "Kani Arab", "place": "village"}}, {"type": "node", "id": 2488213558, "lat": 37.045737, "lon": 42.507771, "tags": {"alt_name": "\u0643\u0627\u0631\u0643\u0644", "int_name": "K\u0101rkal, \u0643\u0627\u0631\u0643\u0644, Karkal, \u0643\u0627\u0631\u0643\u0644", "is_in": "Iraq , \u062c\u0645\u0647\u0648\u0631\u064a\u0629 \u0627\u0644\u0639\u0631\u0627\u0642", "name": "\u06af\u0631\u06a9\u0644", "name:ar": "\u06af\u0631\u06af\u0644", "name:ar1": "\u0643\u0627\u0631\u0643\u0644", "name:de": "Karkal", "name:en": "gergel", "name:fr": "Karkal", "place": "village"}}, {"type": "node", "id": 2488213559, "lat": 37.0187068, "lon": 42.580407, "tags": {"int_name": "Kashkan, K\u0101shk\u0101n, \u0643\u0627\u0634\u0643\u0627\u0646, Kashkan, Kashkan, \u0643\u0627\u0634\u0643\u0627\u0646", "is_in": "Iraq , \u062c\u0645\u0647\u0648\u0631\u064a\u0629 \u0627\u0644\u0639\u0631\u0627\u0642", "name": "\u06a9\u06d5\u0634\u06a9\u0627\u0646", "name:ar": "\u0643\u0627\u0634\u0643\u0627\u0646", "name:de": "Kashkan", "name:en": "Kashkan", "name:fr": "Kashkan", "place": "village"}}, {"type": "node", "id": 2488213564, "lat": 37.083333, "lon": 42.483333, "tags": {"alt_name": "\u0645\u064a\u0631\u0643\u0629", "int_name": "Margas\u016br, Merga Sur, Mergas\u016br, M\u012brgah, \u0645\u064a\u0631\u06af\u0647, Margasur, Merga Sur, Mergasur, Mirgah, \u0645\u064a\u0631\u06af\u0647", "is_in": "Iraq , \u062c\u0645\u0647\u0648\u0631\u064a\u0629 \u0627\u0644\u0639\u0631\u0627\u0642", "name": "\u0645\u06ce\u0631\u06af\u06d5", "name:ar": "\u0645\u064a\u0631\u0643\u0629", "name:ar1": "\u0645\u064a\u0631\u0643\u0629", "name:de": "Margasur", "name:en": "Mergasur", "name:fr": "Margasur", "name:ku": "\u0645\u06ce\u0631\u06af\u06d5\u0633\u0648\u0648\u0631", "place": "village"}}, {"type": "node", "id": 2488213567, "lat": 37.040668, "lon": 42.489952, "tags": {"alt_name": "\u0628\u064a\u0632\u0627\u0646", "int_name": "Payb\u012bz\u0101n, Pizan, P\u012bz\u0101n, \u067e\u064a\u0632\u0627\u0646, Paybizan, Pizan, Pizan, \u067e\u064a\u0632\u0627\u0646", "is_in": "Iraq , \u062c\u0645\u0647\u0648\u0631\u064a\u0629 \u0627\u0644\u0639\u0631\u0627\u0642", "name": "\u067e\u06ce \u0628\u0632\u0646\u06ce", "name:ar": "\u0628\u064a\u0628\u0632\u0646\u0649", "name:ar1": "\u0628\u064a\u0632\u0627\u0646", "name:de": "Paybizan", "name:en": "pebzne", "name:fr": "Paybizan", "place": "village"}}, {"type": "node", "id": 2488238136, "lat": 36.957466, "lon": 42.608634, "tags": {"alt_name": "\u0622\u0641\u064a \u0632\u0648\u0631\u0643 \u0645\u064a\u0631\u064a", "int_name": "Af\u012b Z\u016brik M\u012br\u012b, \u0100f\u012b Z\u016brik M\u012br\u012b, Avy Zork, \u0622\u0641\u064a \u0632\u0648\u0631\u0643 \u0645\u064a\u0631\u064a, \u0627\u0641\u064a \u0632\u0648\u0631\u0643 \u0645\u064a\u0631\u064a, Afi Zurik Miri, Afi Zurik Miri, Avy Zork, \u0622\u0641\u064a \u0632\u0648\u0631\u0643 \u0645\u064a\u0631\u064a, \u0627\u0641\u064a \u0632\u0648\u0631\u0643 \u0645\u064a\u0631\u064a", "is_in": "Iraq , \u062c\u0645\u0647\u0648\u0631\u064a\u0629 \u0627\u0644\u0639\u0631\u0627\u0642", "name": "\u0626\u0627\u06a4\u0632\u0631\u06ce\u06a9 \u0645\u06cc\u0631\u06cc", "name:ar": "\u0626\u0627\u06a4 \u0632\u0631\u0648\u0643", "name:ar1": "\u0622\u0641\u064a \u0632\u0648\u0631\u0643 \u0645\u064a\u0631\u064a", "name:de": "Afi Zurik Miri", "name:en": "Afi Zurik Miri", "name:fr": "Afi Zurik Miri", "name:ku": "Av Zrok", "place": "village"}}, {"type": "node", "id": 2488238137, "lat": 36.9421689, "lon": 42.6296861, "tags": {"alt_name": "\u0622\u0641\u064a \u0632\u0648\u0631\u0643", "int_name": "Af\u012b Z\u016brk, \u0100f\u012b Z\u016brk, Avi Zurk, Avy Zork, \u0622\u0641\u064a \u0632\u0648\u0631\u0643, \u0627\u0641\u064a \u0632\u0648\u0631\u0643, Afi Zurk, Afi Zurk, Avi Zurk, Avy Zork, \u0622\u0641\u064a \u0632\u0648\u0631\u0643, \u0627\u0641\u064a \u0632\u0648\u0631\u0643", "is_in": "Iraq , \u062c\u0645\u0647\u0648\u0631\u064a\u0629 \u0627\u0644\u0639\u0631\u0627\u0642", "name": "\u0626\u0627\u06a4\u0632\u0631\u06ce\u06a9", "name:ar": "\u0626\u0627\u0641 \u0632\u0631\u0648\u0643", "name:ar1": "\u0622\u0641\u064a \u0632\u0648\u0631\u0643", "name:de": "Afi Zurk", "name:en": "Afi Zurk", "name:fr": "Afi Zurk", "name:ku": "Avzrok", "place": "village", "wikipedia": "en:Avzrog"}}, {"type": "node", "id": 2488238139, "lat": 37.133391, "lon": 42.54534, "tags": {"alt_name": "\u0628\u0627\u062c\u0648\u0643\u0629", "int_name": "Bachuk, B\u0101ch\u016bkah, P\u0101ch\u016bka, \u0628\u0627\u0686\u0648\u0643\u0647, Bachuk, Bachukah, Pachuka, \u0628\u0627\u0686\u0648\u0643\u0647", "is_in": "Iraq , \u062c\u0645\u0647\u0648\u0631\u064a\u0629 \u0627\u0644\u0639\u0631\u0627\u0642", "name": "\u0628\u0627\u062c\u0648\u06a9\u06ce", "name:ar": "\u0628\u0627\u062c\u064a\u0643\u0627 \u0633\u0644\u064a\u0641\u0627\u0646\u064a", "name:ar1": "\u0628\u0627\u062c\u0648\u0643\u0629", "name:ckb": "\u0628\u0627\u062c\u0648\u06a9\u06ce", "name:de": "Bachuk", "name:en": "Bachuk", "name:fr": "Bachuk", "name:ku": "Bacuk\u00ea", "place": "village"}}, {"type": "node", "id": 2488238141, "lat": 36.944757, "lon": 42.70832, "tags": {"alt_name": "\u0628\u0627\u0633\u062a\u0643\u0629 \u0627\u0644\u0633\u0641\u0644\u0649", "int_name": "Bait\u012bkah Sufl\u00e1, Basitkah Zer, B\u0101s\u012btkah Zir, B\u0101sitkat as Sufl\u00e1, B\u0101st\u012bkah Zir, B\u0101st\u012bkah Zirr, Bastka, \u0628\u0627\u0633\u062a\u0643\u0629 \u0627\u0644\u0633\u0641\u0644\u0649, Baitikah Sufla, Basitkah Zer, Basitkah Zir, Basitkat as Sufla, Bastikah Zir, Bastikah Zirr, Bastka, \u0628\u0627\u0633\u062a\u0643\u0629 \u0627\u0644\u0633\u0641\u0644\u0649", "is_in": "Iraq , \u062c\u0645\u0647\u0648\u0631\u064a\u0629 \u0627\u0644\u0639\u0631\u0627\u0642", "name": "\u0628\u0627\u0633\u062a\u06a9\u06ce \u0698\u06ce\u0631\u06cc", "name:ar": "\u0628\u0627\u0633\u062a\u0643\u064a \u0627\u0644\u0633\u0641\u0644\u0649", "name:ar1": "\u0628\u0627\u0633\u062a\u0643\u0629 \u0627\u0644\u0633\u0641\u0644\u0649", "name:de": "Baitikah Sufla", "name:en": "Baitikah Sufla", "name:fr": "Baitikah Sufla", "place": "village"}}, {"type": "node", "id": 2488238143, "lat": 36.9608059, "lon": 42.6810078, "tags": {"alt_name": "\u0628\u0627\u062a\u0644", "capital": "7", "int_name": "Batil, B\u0101til, \u0628\u0627\u062a\u0644, Batil, Batil, \u0628\u0627\u062a\u0644", "is_in": "Iraq , \u062c\u0645\u0647\u0648\u0631\u064a\u0629 \u0627\u0644\u0639\u0631\u0627\u0642", "name": "\u0628\u0627\u062a\u06cc\u0644", "name:ar": "\u0628\u0627\u062a\u06cc\u0644", "name:ckb": "\u0628\u0627\u062a\u06ce\u0644", "name:de": "Batel", "name:en": "Batel", "name:fr": "Batel", "name:ku": "Bat\u00eal", "name:ml": "\u0d2c\u0d3e\u0d24\u0d4d\u0d24\u0d3f\u0d7d", "place": "town", "wikidata": "Q12195617", "wikipedia": "ku:Bat\u00eal,_S\u00eam\u00eal"}}, {"type": "node", "id": 2488238144, "lat": 36.984806, "lon": 42.616169, "tags": {"alt_name": "\u0628\u0627\u0648\u0631\u062a", "int_name": "Bawarde, B\u0101wart, \u0628\u0627\u0648\u0631\u062a, Bawarde, Bawart, \u0628\u0627\u0648\u0631\u062a", "is_in": "Iraq , \u062c\u0645\u0647\u0648\u0631\u064a\u0629 \u0627\u0644\u0639\u0631\u0627\u0642", "name": "\u0628\u0627\u0648\u06d5\u0631\u062f\u06ce", "name:ar": "\u0628\u0627\u0648\u0631\u062f", "name:de": "Bawarde", "name:en": "Bawarde", "name:fr": "Bawarde", "name:ku": "bawerd\u00ea", "place": "village"}}, {"type": "node", "id": 2488238150, "lat": 36.9524093, "lon": 42.7478982, "tags": {"int_name": "Ger Rash, Gir Rash, Kirrash, \u06af\u0631 \u0631\u0634, Ger Rash, Gir Rash, Kirrash, \u06af\u0631 \u0631\u0634", "is_in": "Iraq , \u062c\u0645\u0647\u0648\u0631\u064a\u0629 \u0627\u0644\u0639\u0631\u0627\u0642", "name": "\u06af\u0631\u0695\u06d5\u0634", "name:ar": "\u0643\u0631 \u0631\u0634", "name:de": "Ger Rash", "name:en": "Ger Rash", "name:fr": "Ger Rash", "name:ku": "\u06af\u0631 \u0631\u06d5\u0634", "place": "village"}}, {"type": "node", "id": 2488238151, "lat": 37.006364, "lon": 42.635115, "tags": {"alt_name:ku": "Ger\u015fen (?)", "int_name": "Girsh\u012bn, Grshin, \u06af\u0631\u0634\u064a\u0646, Girshin, Grshin, \u06af\u0631\u0634\u064a\u0646", "is_in": "Iraq , \u062c\u0645\u0647\u0648\u0631\u064a\u0629 \u0627\u0644\u0639\u0631\u0627\u0642", "name": "\u06af\u0631\u0634\u06cc\u0646", "name:ar": "\u06af\u0631\u0634\u064a\u0646", "name:de": "Girshin", "name:en": "Girshin", "name:fr": "Girshin", "name:ku": "Gir\u015fin (?)", "place": "village"}}, {"type": "node", "id": 2488238152, "lat": 36.969664, "lon": 42.564598, "tags": {"alt_name": "\u062d\u0641\u0634\u064a \u0631\u0634", "int_name": "Hafshi, \u1e28afshi Rash, \u062d\u0641\u0634\u064a \u0631\u0634, Hafshi, Hafshi Rash, \u062d\u0641\u0634\u064a \u0631\u0634", "is_in": "Iraq , \u062c\u0645\u0647\u0648\u0631\u064a\u0629 \u0627\u0644\u0639\u0631\u0627\u0642", "name": "\u0647\u06d5\u0641\u0634\u06ce \u0631\u06d5\u0634", "name:ar": "\u0647\u0641\u0634\u064a \u0631\u0634", "name:ar1": "\u062d\u0641\u0634\u064a \u0631\u0634", "name:de": "Hafshi", "name:en": "Hafshi", "name:fr": "Hafshi", "place": "village"}}, {"type": "node", "id": 2488238154, "lat": 37.138585, "lon": 42.5660021, "tags": {"alt_name": "\u0646\u0627\u062d\u064a\u0629 \u0625\u0628\u0631\u0627\u0647\u064a\u0645 \u0627\u0644\u062e\u0644\u064a\u0644", "int_name": "Ibrahim Khalil, Ibr\u0101h\u012bm al Khal\u012bl, \u0627\u0628\u0631\u0627\u0647\u064a\u0645 \u0627\u0644\u062e\u0644\u06cc\u0644 ,\u0626\u06cc\u0628\u0631\u0627\u0647\u06cc\u0645 \u062e\u06d5\u0644\u06cc\u0644, \u00cebrah\u00eem Xel\u00eel", "is_in": "Iraq , \u062c\u0645\u0647\u0648\u0631\u064a\u0629 \u0627\u0644\u0639\u0631\u0627\u0642", "name": "\u0626\u06cc\u0628\u0631\u0627\u06be\u06cc\u0645 \u062e\u06d5\u0644\u06cc\u0644", "name:ar": "\u0625\u0628\u0631\u0627\u0647\u064a\u0645 \u0627\u0644\u062e\u0644\u064a\u0644", "name:ckb": "\u0626\u06cc\u0628\u0631\u0627\u06be\u06cc\u0645 \u062e\u06d5\u0644\u06cc\u0644", "name:de": "Ibrahim Khalil", "name:en": "Ibrahim Khalil", "name:fr": "Ibrahim Khalil", "name:ku": "\u00cebrah\u00eem Xel\u00eel", "name:ml": "\u0d07\u0d2c\u0d4d\u0d30\u0d3e\u0d39\u0d40\u0d02 \u0d16\u0d32\u0d40\u0d7d", "place": "town"}}, {"type": "node", "id": 2488238158, "lat": 36.9831191, "lon": 42.659019, "tags": {"alt_name": "\u0643\u0631 \u0639\u062b\u0645\u0627\u0646", "int_name": "Ker Osm\u0101n, Kurr Uthm\u0101n, Osman, \u0643\u0631 \u0639\u062b\u0645\u0627\u0646, Ker Osman, Kurr Uthman, Osman, \u0643\u0631 \u0639\u062b\u0645\u0627\u0646", "is_in": "Iraq , \u062c\u0645\u0647\u0648\u0631\u064a\u0629 \u0627\u0644\u0639\u0631\u0627\u0642", "name": "\u06af\u0631 \u0626\u06c6\u0633\u0645\u0627\u0646", "name:ar": "\u0643\u0631 \u0639\u062b\u0645\u0627\u0646", "name:ar1": "\u0643\u0631 \u0639\u062b\u0645\u0627\u0646", "name:de": "Ker Osman", "name:en": "Ker Osman", "name:fr": "Ker Osman", "place": "village"}}, {"type": "node", "id": 2488238162, "lat": 36.970089, "lon": 42.592755, "tags": {"alt_name": "\u0633\u0631 \u062f\u0646\u062f\u062c\u0646", "int_name": "Sar Dandajin, Sardka, Sirdenjen, \u0633\u0631 \u062f\u0646\u062f\u062c\u0646, Sar Dandajin, Sardka, Sirdenjen, \u0633\u0631 \u062f\u0646\u062f\u062c\u0646", "is_in": "Iraq , \u062c\u0645\u0647\u0648\u0631\u064a\u0629 \u0627\u0644\u0639\u0631\u0627\u0642", "name": "\u0633\u0631 \u062f\u0646\u062f\u062c\u0646", "name:ar": "\u0633\u064a\u0641\u062f\u064a\u0646", "name:ar1": "\u0633\u0631 \u062f\u0646\u062f\u062c\u0646", "name:de": "Sar Dandajin", "name:en": "SevDandajin", "name:fr": "Sar Dandajin", "place": "village"}}, {"type": "node", "id": 2488238163, "lat": 37.117864, "lon": 42.514699, "tags": {"alt_name": "\u0634\u064a\u0646\u0627\u0648\u0629", "int_name": "Sheen Awa, Sh\u012bn\u0101wa, Sh\u012bn\u0101wah, Sh\u012br\u012bn \u0100w\u0101, Sh\u012br\u012bn \u0100wah, \u0634\u064a\u0631\u064a\u0646 \u0622\u0648\u0647, \u0634\u064a\u0646\u0627\u0648\u0647, Sheen Awa, Shinawa, Shinawah, Shirin Awa, Shirin Awah, \u0634\u064a\u0631\u064a\u0646 \u0622\u0648\u0647, \u0634\u064a\u0646\u0627\u0648\u0647", "is_in": "Iraq , \u062c\u0645\u0647\u0648\u0631\u064a\u0629 \u0627\u0644\u0639\u0631\u0627\u0642", "name": "\u0634\u06cc\u0646\u0627\u06a4\u06d5", "name:ar": "\u0634\u064a\u0646\u0627\u0641\u0627 \u0633\u0644\u064a\u0641\u0627\u0646\u064a", "name:ar1": "\u0634\u064a\u0646\u0627\u0648\u0629", "name:de": "Sheen Awa", "name:en": "Sheen Ava", "name:fr": "Sheen Awa", "name:ku": "\u0634\u064a\u0646\u0627\u06a4\u0627", "place": "village"}}, {"type": "node", "id": 2488238165, "lat": 36.9428909, "lon": 42.6764413, "tags": {"alt_name": "\u0633\u0644\u0627\u0641", "int_name": "Sul\u0101f, Sulav, \u0633\u0644\u0627\u0641, Sulaf, Sulav, \u0633\u0644\u0627\u0641", "is_in": "Iraq , \u062c\u0645\u0647\u0648\u0631\u064a\u0629 \u0627\u0644\u0639\u0631\u0627\u0642", "name": "\u0633\u0648\u0644\u0627\u06a4", "name:ar": "\u0633\u0648\u0644\u0627\u0641", "name:ar1": "\u0633\u0644\u0627\u0641", "name:de": "Sulaf", "name:en": "Sulav", "name:fr": "Sulaf", "name:ku": "Sulav", "place": "village"}}, {"type": "node", "id": 2488238181, "lat": 36.9503805, "lon": 42.7472658, "tags": {"int_name": "\u0643\u0631\u0631\u0634, \u0643\u0631\u0631\u0634", "is_in": "Iraq , \u062c\u0645\u0647\u0648\u0631\u064a\u0629 \u0627\u0644\u0639\u0631\u0627\u0642", "name": "\u062a\u0644 \u0632\u064a\u0631", "name:ar": "\u062a\u0644 \u0632\u064a\u062f", "name:de": "\u0643\u0631\u0631\u0634", "name:en": "\u0643\u0631\u0631\u0634", "name:fr": "\u0643\u0631\u0631\u0634", "name:ku": "Tall Zed (?)", "place": "village"}}, {"type": "node", "id": 2488238235, "lat": 37.023305, "lon": 42.40131, "tags": {"alt_name": "\u0628\u0627\u062c\u064a\u062f \u0628\u0631\u0627\u062f", "int_name": "B\u0101jad, B\u0101j\u012bd Yar\u0101d, Bajr Brav, \u0628\u0627\u062c\u064a\u062f \u0628\u0631\u0627\u062f, Bajad, Bajid Yarad, Bajr Brav, \u0628\u0627\u062c\u064a\u062f \u0628\u0631\u0627\u062f", "is_in": "Iraq , \u062c\u0645\u0647\u0648\u0631\u064a\u0629 \u0627\u0644\u0639\u0631\u0627\u0642", "name": "\u0628\u0627\u062c\u062f \u0628\u06d5\u0631\u0627\u06a4", "name:ar": "\u0628\u0627\u062c\u062f \u0628\u0631 \u0626\u0627\u06a4 \u0633\u0644\u064a\u0641\u0627\u0646\u064a", "name:ar1": "\u0628\u0627\u062c\u064a\u062f \u0628\u0631\u0627\u062f", "name:de": "Bajad", "name:en": "Bajad", "name:fr": "Bajad", "place": "village"}}, {"type": "node", "id": 2488238242, "lat": 37.0852605, "lon": 42.4257702, "tags": {"alt_name": "\u062f\u0627\u064a\u0631\u0627\u064a\u0648\u0646", "alt_name:ar": "\u062f\u064a\u0631\u0628\u0648\u0646 \u0633\u0644\u064a\u0641\u0627\u0646\u064a", "int_name": "Dayrab\u016bn, D\u0101yr\u0101y\u016bn, Derabon, \u062f\u0627\u064a\u0631\u0627\u064a\u0648\u0646, Dayrabun, Dayrayun, Derabon, \u062f\u0627\u064a\u0631\u0627\u064a\u0648\u0646", "landuse": "residential", "name": "\u062f\u06ce\u0631\u06d5\u0628\u0648\u0648\u0646", "name:ar": "\u062f\u064a\u0631\u0628\u0648\u0646", "name:ckb": "\u062f\u06ce\u0631\u06d5\u0628\u0648\u0648\u0646", "name:de": "Dayrabun", "name:en": "Dayrabun", "name:fr": "Dayrabun", "name:ku": "D\u00eareb\u00fbn", "place": "village", "wikipedia": "en:Dayrabun"}}, {"type": "node", "id": 2488238244, "lat": 37.0786146, "lon": 42.392337, "tags": {"alt_name": "\u0641\u064a\u0634 \u062e\u0627\u0628\u0648\u0631", "alt_name:ar": "\u0628\u064a\u0634 \u062e\u0627\u0628\u0648\u0631 (\u0641\u064a\u0634\u062e\u0627\u0628\u0648\u0631)", "int_name": "Faish Kh\u0101b\u016br, Faysh Kh\u0101b\u016br, Fish Khabur, F\u012bsh Kh\u0101b\u016br, Pesh Kh\u0101b\u016br, \u0641\u064a\u0634 \u062e\u0627\u0628\u0648\u0631, Faish Khabur, Faysh Khabur, Fish Khabur, Fish Khabur, Pesh Khabur, \u0641\u064a\u0634 \u062e\u0627\u0628\u0648\u0631", "name": "\u067e\u06ce\u0634 \u062e\u0627\u0628\u0648\u0648\u0631", "name:ar": "\u0641\u064a\u0634 \u062e\u0627\u0628\u0648\u0631", "name:de": "Faish Khabur", "name:en": "pish Khabur", "name:fr": "Faish Khabur", "name:ku": "Pe\u015f Xab\u00fbr (\u0628\u064a\u0634\u0627\u0628\u064a\u0631)", "place": "hamlet"}}, {"type": "node", "id": 2488238276, "lat": 36.975917, "lon": 42.34828, "tags": {"alt_name": "\u062e\u062c\u0631\u064a", "int_name": "Khachr\u012b, Khichr\u012b, Michri, \u062e\u0686\u0631\u064a, Khachri, Khichri, Michri, \u062e\u0686\u0631\u064a", "is_in": "Iraq , \u062c\u0645\u0647\u0648\u0631\u064a\u0629 \u0627\u0644\u0639\u0631\u0627\u0642", "name": "\u062e\u062c\u0631\u064a", "name:ar": "\u062c\u062e\u0631\u0649", "name:ar1": "\u062e\u062c\u0631\u064a", "name:de": "Khachri", "name:en": "Khachri", "name:fr": "Khachri", "name:ku": "Chuxre", "place": "village"}}, {"type": "node", "id": 2488238293, "lat": 36.988577, "lon": 42.448658, "tags": {"alt_name": "\u0645\u0634\u0627\u0631\u0629", "int_name": "Mish\u0101rah, Mshara, \u0645\u0634\u0627\u0631\u0647, Misharah, Mshara, \u0645\u0634\u0627\u0631\u0647", "is_in": "Iraq , \u062c\u0645\u0647\u0648\u0631\u064a\u0629 \u0627\u0644\u0639\u0631\u0627\u0642", "name": "\u0645\u0634\u0627\u0631\u0627", "name:ar": "\u0645\u0634\u0627\u0631\u0629", "name:ar1": "\u0645\u0634\u0627\u0631\u0629", "name:de": "Misharah", "name:en": "Misharah", "name:fr": "Misharah", "place": "village"}}, {"type": "node", "id": 2488238313, "lat": 37.019295, "lon": 42.342071, "tags": {"alt_name": "\u0633\u062d\u064a\u0644\u0629", "int_name": "Shaila, Su\u1e29aylah, \u0633\u062d\u064a\u0644\u0629, Shaila, Suhaylah, \u0633\u062d\u064a\u0644\u0629", "is_in": "Iraq , \u062c\u0645\u0647\u0648\u0631\u064a\u0629 \u0627\u0644\u0639\u0631\u0627\u0642", "name": "\u0633\u062d\u064a\u0644\u0629", "name:ar": "\u0633\u062d\u064a\u0644\u0629", "name:ar1": "\u0633\u062d\u064a\u0644\u0629", "name:de": "Sihaila", "name:en": "Shaila", "name:fr": "Shaila", "place": "village"}}, {"type": "node", "id": 2488238323, "lat": 37.008646, "lon": 42.418772, "tags": {"alt_name": "\u062a\u0648\u0633\u0627\u0646\u0629", "int_name": "Tos\u0101n, \u0162us\u0101n, T\u016bs\u0101nah, \u062a\u0648\u0633\u0627\u0646\u0647, Tosan, Tusan, Tusanah, \u062a\u0648\u0633\u0627\u0646\u0647", "is_in": "Iraq , \u062c\u0645\u0647\u0648\u0631\u064a\u0629 \u0627\u0644\u0639\u0631\u0627\u0642", "name": "\u062a\u0648\u0633\u0627\u0646\u0627", "name:ar": "\u062a\u0648\u0633\u0627\u0646\u0629 \u0633\u0644\u064a\u0641\u0627\u0646\u064a", "name:ar1": "\u062a\u0648\u0633\u0627\u0646\u0629", "name:de": "Tosan", "name:en": "Tosan", "name:fr": "Tosan", "place": "village"}}, {"type": "node", "id": 2488238367, "lat": 37.1210584, "lon": 42.4257806, "tags": {"alt_name": "\u0627\u0648\u0641\u0627\u0643\u0648\u0649", "alt_name:ar": "\u0627\u0648\u0641\u0627\u0643\u0648\u0649", "name": "\u0626\u06c6\u06a4\u0627\u06a9\u0648\u06ce\u06cc", "name:ar": "\u0623\u0648\u0641\u0627\u0643\u0648\u064a", "name:ckb": "\u0626\u06c6\u06a4\u0627\u06a9\u0648\u06ce\u06cc", "name:de": "Ofakeu", "name:en": "Ofakoei", "name:fr": "Ofakeui", "place": "village"}}, {"type": "node", "id": 4190668151, "lat": 37.2327578, "lon": 42.8471454}, {"type": "node", "id": 4190668152, "lat": 37.2328598, "lon": 42.8470151}, {"type": "node", "id": 4190668153, "lat": 37.2329847, "lon": 42.846887}, {"type": "node", "id": 4190668154, "lat": 37.2330929, "lon": 42.8468016}, {"type": "node", "id": 4190668155, "lat": 37.2331997, "lon": 42.8467472}, {"type": "node", "id": 4190668156, "lat": 37.2333498, "lon": 42.8466605}, {"type": "node", "id": 4190668157, "lat": 37.233524, "lon": 42.8466104}, {"type": "node", "id": 4190668158, "lat": 37.233686, "lon": 42.8465885}, {"type": "node", "id": 4190668159, "lat": 37.2339226, "lon": 42.8465878}, {"type": "node", "id": 4190668160, "lat": 37.2340544, "lon": 42.8466059}, {"type": "node", "id": 4190668161, "lat": 37.2341677, "lon": 42.8466503}, {"type": "node", "id": 4190668162, "lat": 37.2343598, "lon": 42.846708}, {"type": "node", "id": 4190668163, "lat": 37.2345251, "lon": 42.8468424}, {"type": "node", "id": 4190668164, "lat": 37.2346995, "lon": 42.8470571}, {"type": "node", "id": 4190668166, "lat": 37.2350407, "lon": 42.8473708}, {"type": "node", "id": 4190668167, "lat": 37.235169, "lon": 42.8475475}, {"type": "node", "id": 4190668168, "lat": 37.2353115, "lon": 42.8477772}, {"type": "node", "id": 4190668169, "lat": 37.2354434, "lon": 42.8479606}, {"type": "node", "id": 4190668170, "lat": 37.2355824, "lon": 42.8481329}, {"type": "node", "id": 4190681358, "lat": 37.2101613, "lon": 42.8240664}, {"type": "node", "id": 4190681359, "lat": 37.2099835, "lon": 42.8244487}, {"type": "node", "id": 4190681360, "lat": 37.20975, "lon": 42.8243093}, {"type": "node", "id": 4190681361, "lat": 37.2096259, "lon": 42.8244831}, {"type": "node", "id": 4190681362, "lat": 37.2094492, "lon": 42.8242554}, {"type": "node", "id": 4190681363, "lat": 37.2094683, "lon": 42.8241175}, {"type": "node", "id": 4190681364, "lat": 37.2092917, "lon": 42.8239437}, {"type": "node", "id": 4190681365, "lat": 37.2089003, "lon": 42.8244651}, {"type": "node", "id": 4190681366, "lat": 37.2093585, "lon": 42.8249866}, {"type": "node", "id": 4190681367, "lat": 37.209244, "lon": 42.8251604}, {"type": "node", "id": 4190681368, "lat": 37.2093394, "lon": 42.8253042}, {"type": "node", "id": 4190681369, "lat": 37.2090053, "lon": 42.8256818}, {"type": "node", "id": 4190681370, "lat": 37.2086454, "lon": 42.8251718}, {"type": "node", "id": 4190681371, "lat": 37.2087874, "lon": 42.8248661}, {"type": "node", "id": 4190681372, "lat": 37.2084599, "lon": 42.8245932}, {"type": "node", "id": 4190681373, "lat": 37.2083672, "lon": 42.8244295}, {"type": "node", "id": 4190681374, "lat": 37.2082136, "lon": 42.8246005}, {"type": "node", "id": 4190681375, "lat": 37.2079219, "lon": 42.8243894}, {"type": "node", "id": 4190681376, "lat": 37.2079538, "lon": 42.8241529}, {"type": "node", "id": 4190681377, "lat": 37.2076698, "lon": 42.8240256}, {"type": "node", "id": 4190681378, "lat": 37.2074119, "lon": 42.8239128}, {"type": "node", "id": 4190681379, "lat": 37.2073568, "lon": 42.8238946}, {"type": "node", "id": 4190681380, "lat": 37.2073249, "lon": 42.8239346}, {"type": "node", "id": 4190681381, "lat": 37.207238, "lon": 42.8238837}, {"type": "node", "id": 4190681382, "lat": 37.2072438, "lon": 42.8238}, {"type": "node", "id": 4190681383, "lat": 37.2071424, "lon": 42.8236835}, {"type": "node", "id": 4190681384, "lat": 37.2070844, "lon": 42.8237236}, {"type": "node", "id": 4190681385, "lat": 37.206788, "lon": 42.8233735}, {"type": "node", "id": 4190681386, "lat": 37.2067627, "lon": 42.8232796}, {"type": "node", "id": 4190681387, "lat": 37.2066526, "lon": 42.8232687}, {"type": "node", "id": 4190681388, "lat": 37.2066265, "lon": 42.8233852}, {"type": "node", "id": 4190683989, "lat": 37.2063135, "lon": 42.8235416}, {"type": "node", "id": 4190683990, "lat": 37.2062266, "lon": 42.8234143}, {"type": "node", "id": 4190683991, "lat": 37.205701, "lon": 42.823766}, {"type": "node", "id": 4190683992, "lat": 37.2055059, "lon": 42.8238896}, {"type": "node", "id": 4190683993, "lat": 37.2053747, "lon": 42.8239453}, {"type": "node", "id": 4190683994, "lat": 37.2052856, "lon": 42.8239398}, {"type": "node", "id": 4190683995, "lat": 37.2051934, "lon": 42.8241219}, {"type": "node", "id": 4190683996, "lat": 37.2052615, "lon": 42.8241748}, {"type": "node", "id": 4190683997, "lat": 37.2050499, "lon": 42.8244477}, {"type": "node", "id": 4190683998, "lat": 37.205134, "lon": 42.8245495}, {"type": "node", "id": 4190683999, "lat": 37.2047775, "lon": 42.8249716}, {"type": "node", "id": 4190684000, "lat": 37.2044095, "lon": 42.8250007}, {"type": "node", "id": 4190684001, "lat": 37.2043167, "lon": 42.8248297}, {"type": "node", "id": 4190684002, "lat": 37.2041544, "lon": 42.8249025}, {"type": "node", "id": 4190684003, "lat": 37.2042529, "lon": 42.825059}, {"type": "node", "id": 4190684004, "lat": 37.204137, "lon": 42.8252118}, {"type": "node", "id": 4190684005, "lat": 37.2038881, "lon": 42.8249748}, {"type": "node", "id": 4190684006, "lat": 37.2033595, "lon": 42.8253699}, {"type": "node", "id": 4190684007, "lat": 37.2034645, "lon": 42.8255078}, {"type": "node", "id": 4190684008, "lat": 37.203286, "lon": 42.8259825}, {"type": "node", "id": 4190684092, "lat": 37.1949689, "lon": 42.8177778}, {"type": "node", "id": 4190684093, "lat": 37.1952195, "lon": 42.8179715}, {"type": "node", "id": 4190684094, "lat": 37.1952618, "lon": 42.8178495}, {"type": "node", "id": 4190684095, "lat": 37.1957774, "lon": 42.8182211}, {"type": "node", "id": 4190684096, "lat": 37.1958633, "lon": 42.8180533}, {"type": "node", "id": 4190684097, "lat": 37.1962453, "lon": 42.8184129}, {"type": "node", "id": 4190684098, "lat": 37.1961737, "lon": 42.8186047}, {"type": "node", "id": 4190684099, "lat": 37.196694, "lon": 42.8189835}, {"type": "node", "id": 4190684100, "lat": 37.1968144, "lon": 42.8187199}, {"type": "node", "id": 4190684101, "lat": 37.1979306, "lon": 42.8194798}, {"type": "node", "id": 4190684102, "lat": 37.1978351, "lon": 42.8197555}, {"type": "node", "id": 4190684103, "lat": 37.1982266, "lon": 42.8200132}, {"type": "node", "id": 4190684104, "lat": 37.1985848, "lon": 42.8201703}, {"type": "node", "id": 4190684105, "lat": 37.1986834, "lon": 42.8199375}, {"type": "node", "id": 4190684106, "lat": 37.1987347, "lon": 42.8199422}, {"type": "node", "id": 4190684107, "lat": 37.1988341, "lon": 42.8203086}, {"type": "node", "id": 4190684108, "lat": 37.1989587, "lon": 42.8204432}, {"type": "node", "id": 4190684109, "lat": 37.1992167, "lon": 42.8205197}, {"type": "node", "id": 4190684110, "lat": 37.1994717, "lon": 42.8205451}, {"type": "node", "id": 4190684111, "lat": 37.1997558, "lon": 42.820607}, {"type": "node", "id": 4190684112, "lat": 37.1998688, "lon": 42.820687}, {"type": "node", "id": 4190684113, "lat": 37.1999094, "lon": 42.8209636}, {"type": "node", "id": 4190684114, "lat": 37.1999818, "lon": 42.8212256}, {"type": "node", "id": 4190684115, "lat": 37.2002398, "lon": 42.8213857}, {"type": "node", "id": 4190684116, "lat": 37.2002688, "lon": 42.8213274}, {"type": "node", "id": 4190684117, "lat": 37.2006919, "lon": 42.8215749}, {"type": "node", "id": 4190684118, "lat": 37.2009383, "lon": 42.8216549}, {"type": "node", "id": 4190684119, "lat": 37.20106, "lon": 42.8217241}, {"type": "node", "id": 4190684120, "lat": 37.201089, "lon": 42.8216549}, {"type": "node", "id": 4190684121, "lat": 37.2013382, "lon": 42.8218114}, {"type": "node", "id": 4190684122, "lat": 37.2012368, "lon": 42.8220734}, {"type": "node", "id": 4190684123, "lat": 37.2014513, "lon": 42.8225974}, {"type": "node", "id": 4190684124, "lat": 37.2014107, "lon": 42.8226337}, {"type": "node", "id": 4190684125, "lat": 37.201544, "lon": 42.8228411}, {"type": "node", "id": 4190684126, "lat": 37.2018425, "lon": 42.8231104}, {"type": "node", "id": 4190684127, "lat": 37.201744, "lon": 42.8233105}, {"type": "node", "id": 4190684128, "lat": 37.2019092, "lon": 42.8234343}, {"type": "node", "id": 4190684129, "lat": 37.2020541, "lon": 42.823165}, {"type": "node", "id": 4190684130, "lat": 37.2028337, "lon": 42.82382}, {"type": "node", "id": 4190684131, "lat": 37.2031236, "lon": 42.8233833}, {"type": "node", "id": 4190684132, "lat": 37.203338, "lon": 42.8235289}, {"type": "node", "id": 4190684133, "lat": 37.203454, "lon": 42.8235034}, {"type": "node", "id": 4190684134, "lat": 37.2036163, "lon": 42.8234161}, {"type": "node", "id": 4190684135, "lat": 37.2038423, "lon": 42.8234343}, {"type": "node", "id": 4190684136, "lat": 37.2041553, "lon": 42.8236053}, {"type": "node", "id": 4190684137, "lat": 37.2044249, "lon": 42.8236016}, {"type": "node", "id": 4190684138, "lat": 37.2048567, "lon": 42.8234561}, {"type": "node", "id": 4190684139, "lat": 37.2049123, "lon": 42.823719}, {"type": "node", "id": 4190684140, "lat": 37.2051298, "lon": 42.8238177}, {"type": "node", "id": 4190684141, "lat": 37.205318, "lon": 42.8238579}, {"type": "node", "id": 4190684142, "lat": 37.2054847, "lon": 42.8237851}, {"type": "node", "id": 4190684143, "lat": 37.2055958, "lon": 42.8237213}, {"type": "node", "id": 4190684144, "lat": 37.205558, "lon": 42.8234161}, {"type": "node", "id": 4190684145, "lat": 37.2056768, "lon": 42.823336}, {"type": "node", "id": 4190684146, "lat": 37.2056276, "lon": 42.8230995}, {"type": "node", "id": 4190684147, "lat": 37.2057348, "lon": 42.8230231}, {"type": "node", "id": 4190684148, "lat": 37.2059696, "lon": 42.8228157}, {"type": "node", "id": 4190684149, "lat": 37.2063376, "lon": 42.8226337}, {"type": "node", "id": 4190684150, "lat": 37.2064333, "lon": 42.8226119}, {"type": "node", "id": 4190684151, "lat": 37.206326, "lon": 42.8225173}, {"type": "node", "id": 4190684152, "lat": 37.206413, "lon": 42.8223572}, {"type": "node", "id": 4190684153, "lat": 37.2065115, "lon": 42.8224154}, {"type": "node", "id": 4190684154, "lat": 37.2069114, "lon": 42.8220807}, {"type": "node", "id": 4190684155, "lat": 37.2071027, "lon": 42.8219533}, {"type": "node", "id": 4190684156, "lat": 37.2073432, "lon": 42.821775}, {"type": "node", "id": 4190684157, "lat": 37.2075026, "lon": 42.8215494}, {"type": "node", "id": 4190684158, "lat": 37.2077432, "lon": 42.821342}, {"type": "node", "id": 4190684159, "lat": 37.2078185, "lon": 42.8211128}, {"type": "node", "id": 4190684160, "lat": 37.2081673, "lon": 42.8211534}, {"type": "node", "id": 4190684161, "lat": 37.2081151, "lon": 42.8210079}, {"type": "node", "id": 4190684162, "lat": 37.2081963, "lon": 42.8209096}, {"type": "node", "id": 4190684163, "lat": 37.2083035, "lon": 42.8209933}, {"type": "node", "id": 4190684164, "lat": 37.2085498, "lon": 42.8210843}, {"type": "node", "id": 4190684165, "lat": 37.2095265, "lon": 42.8203274}, {"type": "node", "id": 4190684166, "lat": 37.2097119, "lon": 42.8207313}, {"type": "node", "id": 4190684167, "lat": 37.209141, "lon": 42.8212444}, {"type": "node", "id": 4190684168, "lat": 37.2089787, "lon": 42.8211061}, {"type": "node", "id": 4190684169, "lat": 37.2088483, "lon": 42.8211352}, {"type": "node", "id": 4190684170, "lat": 37.2086773, "lon": 42.8211825}, {"type": "node", "id": 4190684171, "lat": 37.2088136, "lon": 42.821419}, {"type": "node", "id": 4190684172, "lat": 37.208631, "lon": 42.8215646}, {"type": "node", "id": 4190684173, "lat": 37.2085933, "lon": 42.8214845}, {"type": "node", "id": 4190684174, "lat": 37.2084977, "lon": 42.8215864}, {"type": "node", "id": 4190684175, "lat": 37.2084513, "lon": 42.8217611}, {"type": "node", "id": 4190684176, "lat": 37.2080108, "lon": 42.8222596}, {"type": "node", "id": 4190684177, "lat": 37.2080543, "lon": 42.8223287}, {"type": "node", "id": 4190684178, "lat": 37.2079731, "lon": 42.8224015}, {"type": "node", "id": 4190684179, "lat": 37.2079934, "lon": 42.8224561}, {"type": "node", "id": 4190684180, "lat": 37.2078456, "lon": 42.8225907}, {"type": "node", "id": 4190684181, "lat": 37.2077326, "lon": 42.8226962}, {"type": "node", "id": 4190684182, "lat": 37.2077935, "lon": 42.8228636}, {"type": "node", "id": 4190684183, "lat": 37.207834, "lon": 42.8228309}, {"type": "node", "id": 4190684184, "lat": 37.2079528, "lon": 42.8230419}, {"type": "node", "id": 4190684185, "lat": 37.2078022, "lon": 42.8231253}, {"type": "node", "id": 4190684186, "lat": 37.2075893, "lon": 42.8232579}, {"type": "node", "id": 4190684187, "lat": 37.207628, "lon": 42.8234103}, {"type": "node", "id": 4190684188, "lat": 37.207464, "lon": 42.8234488}, {"type": "node", "id": 4190684190, "lat": 37.2072289, "lon": 42.8234977}, {"type": "node", "id": 4190684191, "lat": 37.2074171, "lon": 42.8237143}, {"type": "node", "id": 4190684192, "lat": 37.2075942, "lon": 42.8237967}, {"type": "node", "id": 4190684193, "lat": 37.2076025, "lon": 42.8236507}, {"type": "node", "id": 4190684194, "lat": 37.2079755, "lon": 42.8235646}, {"type": "node", "id": 4190684195, "lat": 37.2082095, "lon": 42.8236286}, {"type": "node", "id": 4190684196, "lat": 37.2084312, "lon": 42.8237082}, {"type": "node", "id": 4190684197, "lat": 37.2084365, "lon": 42.8237987}, {"type": "node", "id": 4190684198, "lat": 37.2086089, "lon": 42.8237899}, {"type": "node", "id": 4190684199, "lat": 37.2088993, "lon": 42.8236588}, {"type": "node", "id": 4190684200, "lat": 37.2092355, "lon": 42.8233095}, {"type": "node", "id": 4190684201, "lat": 37.2093369, "lon": 42.823364}, {"type": "node", "id": 4190684202, "lat": 37.2093543, "lon": 42.8233313}, {"type": "node", "id": 4190684203, "lat": 37.2095253, "lon": 42.823455}, {"type": "node", "id": 4190684204, "lat": 37.2094673, "lon": 42.8236042}, {"type": "node", "id": 4190684205, "lat": 37.2095658, "lon": 42.8236952}, {"type": "node", "id": 4190684206, "lat": 37.2096151, "lon": 42.823848}, {"type": "node", "id": 4190684207, "lat": 37.2097861, "lon": 42.8239462}, {"type": "node", "id": 4190684208, "lat": 37.2099107, "lon": 42.824059}, {"type": "node", "id": 4190684209, "lat": 37.2099628, "lon": 42.823939}, {"type": "node", "id": 4423936357, "lat": 37.2410967, "lon": 42.8573544}, {"type": "node", "id": 4423936891, "lat": 37.2414731, "lon": 42.857766}, {"type": "node", "id": 4423936893, "lat": 37.2417687, "lon": 42.8577513}, {"type": "node", "id": 4423936894, "lat": 37.2418175, "lon": 42.8594141}, {"type": "node", "id": 4423936895, "lat": 37.2418913, "lon": 42.8594495}, {"type": "node", "id": 4423936896, "lat": 37.2418104, "lon": 42.8602359}, {"type": "node", "id": 4423936897, "lat": 37.2416732, "lon": 42.8606556}, {"type": "node", "id": 4423936898, "lat": 37.2414045, "lon": 42.8606662}, {"type": "node", "id": 4423936899, "lat": 37.2414735, "lon": 42.8611919}, {"type": "node", "id": 4423936900, "lat": 37.2411984, "lon": 42.8612151}, {"type": "node", "id": 4423936901, "lat": 37.2410824, "lon": 42.8601608}, {"type": "node", "id": 4423936905, "lat": 37.2407908, "lon": 42.8572807}, {"type": "node", "id": 4423936906, "lat": 37.2410749, "lon": 42.8572729}, {"type": "node", "id": 4423936907, "lat": 37.2411173, "lon": 42.8574437}, {"type": "node", "id": 4423936908, "lat": 37.2414706, "lon": 42.857416}, {"type": "node", "id": 4423936976, "lat": 37.2348575, "lon": 42.8471889}, {"type": "node", "id": 5275953200, "lat": 37.232638, "lon": 42.8469473}, {"type": "node", "id": 5275953202, "lat": 37.2325859, "lon": 42.8459186}, {"type": "node", "id": 5275954230, "lat": 37.2326991, "lon": 42.8465948}, {"type": "node", "id": 5304811488, "lat": 37.2122625, "lon": 42.6577367}, {"type": "node", "id": 5304811489, "lat": 37.212315, "lon": 42.6582495}, {"type": "node", "id": 5304811490, "lat": 37.2127858, "lon": 42.6584631}, {"type": "node", "id": 5304811491, "lat": 37.2138877, "lon": 42.6592108}, {"type": "node", "id": 5304811492, "lat": 37.2138016, "lon": 42.6611272}, {"type": "node", "id": 5304811493, "lat": 37.2135142, "lon": 42.6629768}, {"type": "node", "id": 5304811494, "lat": 37.2113358, "lon": 42.6615098}, {"type": "node", "id": 5304811495, "lat": 37.2105385, "lon": 42.6614838}, {"type": "node", "id": 5304811496, "lat": 37.2104068, "lon": 42.6610383}, {"type": "node", "id": 5304811498, "lat": 37.2097482, "lon": 42.6611265}, {"type": "node", "id": 5304811499, "lat": 37.2098805, "lon": 42.6594356}, {"type": "node", "id": 5304811500, "lat": 37.2096759, "lon": 42.6594055}, {"type": "node", "id": 5304811501, "lat": 37.2098299, "lon": 42.6580174}, {"type": "node", "id": 5304811502, "lat": 37.2101326, "lon": 42.6580376}, {"type": "node", "id": 5304811503, "lat": 37.2102171, "lon": 42.6570223}, {"type": "node", "id": 5304811504, "lat": 37.2105342, "lon": 42.6568834}, {"type": "node", "id": 5304811505, "lat": 37.2105886, "lon": 42.656469}, {"type": "node", "id": 5304811506, "lat": 37.211453, "lon": 42.6567783}, {"type": "node", "id": 5304811507, "lat": 37.2112874, "lon": 42.6576173}, {"type": "node", "id": 5797630153, "lat": 36.9415552, "lon": 42.7069975, "tags": {"name": "\u0628\u0627\u0632\u06d5\u0644\u0627\u0646\u0627 \u0646\u0648\u06cc", "name:ar": "\u0628\u0627\u0632\u0644\u0627\u0646 \u0627\u0644\u062c\u062f\u064a\u062f\u0629", "name:ckb": "\u0628\u0627\u0632\u06d5\u0644\u0627\u0646\u06cc \u0646\u0648\u06ce", "name:en": "new Bazalan", "name:ku": "Bazelana N\u00fb", "place": "town"}}, {"type": "node", "id": 5893516064, "lat": 37.1809098, "lon": 42.7837951, "tags": {"name": "\u06af\u0631\u06a9\u06ce", "name:ar": "\u06af\u0631\u06a9\u06cc", "name:ckb": "\u06af\u0631\u06a9\u06ce", "name:en": "Girke", "name:ku": "Girk\u00ea", "place": "village"}}, {"type": "node", "id": 6345712557, "lat": 37.3166701, "lon": 42.7066981, "tags": {"name": "Damlaca", "old_name": "Be\u015fikta\u015f;Silib", "place": "village", "wikidata": "Q6808992", "wikipedia": "tr:Damlaca, Silopi"}}, {"type": "node", "id": 7675718344, "lat": 37.2356413, "lon": 42.846434}, {"type": "node", "id": 7675718345, "lat": 37.2360325, "lon": 42.8475143}, {"type": "node", "id": 7675718350, "lat": 37.2328753, "lon": 42.8458765}, {"type": "node", "id": 7675718351, "lat": 37.233253, "lon": 42.8446633}, {"type": "node", "id": 7675718352, "lat": 37.2343947, "lon": 42.8453415}, {"type": "node", "id": 7675718353, "lat": 37.2347254, "lon": 42.8461578}, {"type": "node", "id": 7675718354, "lat": 37.2353907, "lon": 42.8467132}, {"type": "node", "id": 7805801985, "lat": 37.1936108, "lon": 42.610871, "tags": {"name": "\u0648\u0627\u0631\u06ce \u0633\u06c6\u0631\u0627", "place": "village"}}, {"type": "node", "id": 7814353983, "lat": 37.2348429, "lon": 42.84717}, {"type": "node", "id": 7867449864, "lat": 37.2360212, "lon": 42.8469155}, {"type": "node", "id": 7867449865, "lat": 37.2358002, "lon": 42.8472222}, {"type": "node", "id": 7997455452, "lat": 37.1916129, "lon": 42.8205037}, {"type": "node", "id": 7997455453, "lat": 37.192006, "lon": 42.8207987}, {"type": "node", "id": 7997455454, "lat": 37.1922496, "lon": 42.8207719}, {"type": "node", "id": 7997455457, "lat": 37.1934291, "lon": 42.8213781}, {"type": "node", "id": 7997455458, "lat": 37.1940102, "lon": 42.8218287}, {"type": "node", "id": 7997455459, "lat": 37.1938777, "lon": 42.8222203}, {"type": "node", "id": 7997472211, "lat": 37.2032668, "lon": 42.826071}, {"type": "node", "id": 7997472212, "lat": 37.2030147, "lon": 42.8259691}, {"type": "node", "id": 7997472213, "lat": 37.202972, "lon": 42.8261863}, {"type": "node", "id": 7997472214, "lat": 37.2032284, "lon": 42.8262293}, {"type": "node", "id": 7997472215, "lat": 37.2031621, "lon": 42.8268703}, {"type": "node", "id": 7997472216, "lat": 37.2029528, "lon": 42.8268891}, {"type": "node", "id": 7997472217, "lat": 37.2028673, "lon": 42.8266128}, {"type": "node", "id": 7997472218, "lat": 37.2028395, "lon": 42.8262963}, {"type": "node", "id": 7997472219, "lat": 37.2029143, "lon": 42.8257786}, {"type": "node", "id": 7997472220, "lat": 37.2026302, "lon": 42.8256821}, {"type": "node", "id": 7997472221, "lat": 37.2025362, "lon": 42.825894}, {"type": "node", "id": 7997472222, "lat": 37.2023695, "lon": 42.8258672}, {"type": "node", "id": 7997472223, "lat": 37.2022456, "lon": 42.8261032}, {"type": "node", "id": 7997472224, "lat": 37.2025639, "lon": 42.8263634}, {"type": "node", "id": 7997472225, "lat": 37.2027284, "lon": 42.8267067}, {"type": "node", "id": 7997472226, "lat": 37.2025511, "lon": 42.8269052}, {"type": "node", "id": 7997472227, "lat": 37.202126, "lon": 42.8264385}, {"type": "node", "id": 7997472228, "lat": 37.2021922, "lon": 42.8271895}, {"type": "node", "id": 7997472229, "lat": 37.2015021, "lon": 42.8272968}, {"type": "node", "id": 7997472230, "lat": 37.2012885, "lon": 42.8264063}, {"type": "node", "id": 7997472231, "lat": 37.2011176, "lon": 42.8264224}, {"type": "node", "id": 7997472232, "lat": 37.2011133, "lon": 42.8267845}, {"type": "node", "id": 7997472233, "lat": 37.2007288, "lon": 42.8272217}, {"type": "node", "id": 7997472234, "lat": 37.2004703, "lon": 42.8274979}, {"type": "node", "id": 7997472235, "lat": 37.2002737, "lon": 42.827219}, {"type": "node", "id": 7997472236, "lat": 37.2004745, "lon": 42.8266316}, {"type": "node", "id": 7997472237, "lat": 37.2001391, "lon": 42.8264412}, {"type": "node", "id": 7997472238, "lat": 37.2001028, "lon": 42.8267389}, {"type": "node", "id": 7997472239, "lat": 37.1997011, "lon": 42.8266155}, {"type": "node", "id": 7997472240, "lat": 37.1997289, "lon": 42.8260388}, {"type": "node", "id": 7997472241, "lat": 37.1992418, "lon": 42.8259503}, {"type": "node", "id": 7997472242, "lat": 37.1992183, "lon": 42.8264277}, {"type": "node", "id": 7997472243, "lat": 37.1989662, "lon": 42.8264063}, {"type": "node", "id": 7997472244, "lat": 37.1987889, "lon": 42.826299}, {"type": "node", "id": 7997472245, "lat": 37.1984919, "lon": 42.8261676}, {"type": "node", "id": 7997472246, "lat": 37.1982825, "lon": 42.8259959}, {"type": "node", "id": 7997472247, "lat": 37.1981522, "lon": 42.8263607}, {"type": "node", "id": 7997472248, "lat": 37.1983231, "lon": 42.8265243}, {"type": "node", "id": 7997472249, "lat": 37.1981543, "lon": 42.8268971}, {"type": "node", "id": 7997472250, "lat": 37.1977569, "lon": 42.826645}, {"type": "node", "id": 7997472251, "lat": 37.1979428, "lon": 42.8263392}, {"type": "node", "id": 7997472252, "lat": 37.1973317, "lon": 42.8258564}, {"type": "node", "id": 7997472253, "lat": 37.197445, "lon": 42.8256016}, {"type": "node", "id": 7997472254, "lat": 37.1972441, "lon": 42.8254353}, {"type": "node", "id": 7997472255, "lat": 37.1972912, "lon": 42.8251832}, {"type": "node", "id": 7997472256, "lat": 37.1967891, "lon": 42.8247567}, {"type": "node", "id": 7997472257, "lat": 37.1970155, "lon": 42.8241479}, {"type": "node", "id": 7997472258, "lat": 37.1962677, "lon": 42.8236034}, {"type": "node", "id": 7997472259, "lat": 37.1956182, "lon": 42.8231018}, {"type": "node", "id": 7997472260, "lat": 37.1950969, "lon": 42.8226217}, {"type": "node", "id": 7997472261, "lat": 37.1953319, "lon": 42.8221684}, {"type": "node", "id": 7997472262, "lat": 37.1949196, "lon": 42.8218975}, {"type": "node", "id": 7997472263, "lat": 37.1948277, "lon": 42.822104}, {"type": "node", "id": 7997472264, "lat": 37.1945286, "lon": 42.8219082}, {"type": "node", "id": 7997472265, "lat": 37.1942706, "lon": 42.8224859}, {"type": "node", "id": 7997472266, "lat": 37.1934517, "lon": 42.8212645}, {"type": "node", "id": 7997472267, "lat": 37.1936568, "lon": 42.8208461}, {"type": "node", "id": 7997472268, "lat": 37.1930521, "lon": 42.820484}, {"type": "node", "id": 7997472269, "lat": 37.1924923, "lon": 42.8201514}, {"type": "node", "id": 7997472270, "lat": 37.1915265, "lon": 42.8205157}, {"type": "node", "id": 7997472271, "lat": 37.191565, "lon": 42.8203418}, {"type": "node", "id": 7997472272, "lat": 37.1922381, "lon": 42.8190409}, {"type": "node", "id": 7997472273, "lat": 37.1918107, "lon": 42.8187486}, {"type": "node", "id": 7997472274, "lat": 37.1913022, "lon": 42.8183167}, {"type": "node", "id": 7997472275, "lat": 37.1911569, "lon": 42.8185903}, {"type": "node", "id": 7997472276, "lat": 37.1908407, "lon": 42.8182738}, {"type": "node", "id": 7997472277, "lat": 37.1910458, "lon": 42.8177857}, {"type": "node", "id": 7997472278, "lat": 37.1909646, "lon": 42.817732}, {"type": "node", "id": 7997472279, "lat": 37.1911184, "lon": 42.8172707}, {"type": "node", "id": 7997472280, "lat": 37.1909518, "lon": 42.8171473}, {"type": "node", "id": 7997472281, "lat": 37.1911996, "lon": 42.8165948}, {"type": "node", "id": 7997472282, "lat": 37.1917552, "lon": 42.8170186}, {"type": "node", "id": 7997472283, "lat": 37.1920163, "lon": 42.8165189}, {"type": "node", "id": 7997472284, "lat": 37.1913582, "lon": 42.8159664}, {"type": "node", "id": 7997472285, "lat": 37.1911573, "lon": 42.8162507}, {"type": "node", "id": 7997472286, "lat": 37.1902642, "lon": 42.8154621}, {"type": "node", "id": 7997472287, "lat": 37.1904949, "lon": 42.8149579}, {"type": "node", "id": 7997472288, "lat": 37.1903924, "lon": 42.8148506}, {"type": "node", "id": 7997472289, "lat": 37.1906189, "lon": 42.8144644}, {"type": "node", "id": 7997472290, "lat": 37.1903795, "lon": 42.8141479}, {"type": "node", "id": 7997472291, "lat": 37.1905163, "lon": 42.8137938}, {"type": "node", "id": 7997472292, "lat": 37.1901573, "lon": 42.8134398}, {"type": "node", "id": 7997472293, "lat": 37.1904137, "lon": 42.8131447}, {"type": "node", "id": 7997472294, "lat": 37.1912086, "lon": 42.813826}, {"type": "node", "id": 7997472295, "lat": 37.1914351, "lon": 42.8140406}, {"type": "node", "id": 7997472296, "lat": 37.1912727, "lon": 42.8143946}, {"type": "node", "id": 7997472297, "lat": 37.1917812, "lon": 42.8148399}, {"type": "node", "id": 7997472298, "lat": 37.1918593, "lon": 42.8151149}, {"type": "node", "id": 7997472299, "lat": 37.1917909, "lon": 42.8153724}, {"type": "node", "id": 7997472300, "lat": 37.1921969, "lon": 42.8156245}, {"type": "node", "id": 7997472301, "lat": 37.1921328, "lon": 42.8157855}, {"type": "node", "id": 7997472302, "lat": 37.1929148, "lon": 42.816397}, {"type": "node", "id": 7997472303, "lat": 37.1929917, "lon": 42.8163112}, {"type": "node", "id": 7997472304, "lat": 37.193402, "lon": 42.816617}, {"type": "node", "id": 7997472305, "lat": 37.1942994, "lon": 42.8173036}, {"type": "node", "id": 7997472306, "lat": 37.1945985, "lon": 42.8168905}, {"type": "node", "id": 7997472307, "lat": 37.1948207, "lon": 42.81703}, {"type": "node", "id": 7997472308, "lat": 37.194919, "lon": 42.8174967}, {"type": "node", "id": 7997528709, "lat": 37.1904592, "lon": 42.8156343}, {"type": "node", "id": 7997554119, "lat": 37.1962008, "lon": 42.8235518}, {"type": "node", "id": 8004354663, "lat": 37.1987769, "lon": 42.8202394}, {"type": "node", "id": 8004387161, "lat": 37.2055669, "lon": 42.8236279}, {"type": "node", "id": 8004387162, "lat": 37.2056682, "lon": 42.8235354}, {"type": "node", "id": 8004387412, "lat": 37.2073166, "lon": 42.8236435}, {"type": "node", "id": 8739913235, "lat": 36.986917, "lon": 42.7972663, "tags": {"name": "\u06a9\u0648\u0627\u0634\u06ce", "name:ar": "\u0643\u0648\u0627\u0634\u0626", "name:ckb": "\u06a9\u0648\u0627\u0634\u06ce", "name:ku": "Kwashe", "place": "village"}}, {"type": "node", "id": 9232503111, "lat": 37.068637, "lon": 42.377032, "tags": {"alt_name": "\u0628\u064a\u0634\u0627\u0628\u064a\u0631", "alt_name:ar": "\u0628\u064a\u0634\u0627\u0628\u064a\u0631", "name": "\u067e\u06ce\u0634\u0627\u0628\u0648\u0648\u0631\u200e", "name:ar": "\u0641\u064a\u0634\u062e\u0627\u0628\u0648\u0631", "name:arc": "\u0726\u071d\u072b \u071a\u0712\u0718\u072a", "name:ckb": "\u067e\u06ce\u0634\u0627\u0628\u0648\u0648\u0631\u200e", "name:en": "Faysh Khabur", "name:kmr": "\u067e\u06ce\u0634\u0627\u0628\u06cc\u0631", "name:ku": "P\u00ea\u015fab\u00eer", "name:syc": "\u0726\u071d\u072b \u071a\u0712\u0718\u072a", "name:syr": "\u0726\u071d\u072b \u071a\u0712\u0718\u072a", "place": "village", "source": "Bing", "wikidata": "Q5439109", "wikipedia": "ar:\u0641\u064a\u0634\u062e\u0627\u0628\u0648\u0631"}}, {"type": "node", "id": 9520472744, "lat": 37.0911212, "lon": 42.778886, "tags": {"name": "\u0628\u06d5\u0631\u06a9\u06d5\u06a4\u0631", "place": "village"}}, {"type": "node", "id": 9545954560, "lat": 37.0530027, "lon": 42.6257212, "tags": {"name": "\u0642\u0627\u062f\u06cc\u0627", "place": "village"}}, {"type": "node", "id": 9547499964, "lat": 37.0528621, "lon": 42.6262187, "tags": {"name": "\u0642\u0627\u062f\u06cc\u0627", "place": "village"}}, {"type": "node", "id": 9548732081, "lat": 36.9635338, "lon": 42.6451444, "tags": {"name": "\u0626\u06cc\u0633\u0645\u0627\u0639\u06cc\u0644 \u0626\u0627\u06a4\u0627", "place": "village"}}, {"type": "node", "id": 9757589472, "lat": 37.1561353, "lon": 42.4841738, "tags": {"name": "Dolan", "name:ku": "B\u00eamr\u00een", "old_name": "B\u00eemer\u00een;Bemrin", "place": "hamlet", "source:name": "nisanyanmap", "turkey_class": "mezra", "wikidata": "Q6926995", "wikipedia": "ku:B\u00eamr\u00een"}}, {"type": "node", "id": 9757589475, "lat": 37.2338649, "lon": 42.5566685, "tags": {"name": "\u00c7i\u00e7ekli", "place": "hamlet", "source:name": "nisanyanmap", "turkey_class": "mezra"}}, {"type": "node", "id": 9901376808, "lat": 37.2777781, "lon": 42.7840581, "tags": {"name": "\u067e\u06d5\u0631\u06d5\u062e", "name:ar": "\u0628\u0631\u062e", "name:ckb": "\u067e\u06d5\u0631\u06d5\u062e", "name:ku": "Perex", "place": "village"}}, {"type": "node", "id": 9955142443, "lat": 37.211326, "lon": 42.6624216}, {"type": "node", "id": 9955142444, "lat": 37.2140001, "lon": 42.661451}, {"type": "node", "id": 9955142445, "lat": 37.2139093, "lon": 42.6604725}, {"type": "node", "id": 9955337585, "lat": 37.2079388, "lon": 42.6187695}, {"type": "node", "id": 9955337586, "lat": 37.20593, "lon": 42.6193254}, {"type": "node", "id": 9955337587, "lat": 37.2043065, "lon": 42.6190165}, {"type": "node", "id": 9955337588, "lat": 37.2041917, "lon": 42.6198401}, {"type": "node", "id": 9955337589, "lat": 37.205725, "lon": 42.620746}, {"type": "node", "id": 9955337590, "lat": 37.2054216, "lon": 42.6222799}, {"type": "node", "id": 9955337591, "lat": 37.2067417, "lon": 42.6228462}, {"type": "node", "id": 9955337592, "lat": 37.2070123, "lon": 42.6218785}, {"type": "node", "id": 9955337593, "lat": 37.209267, "lon": 42.6241433}, {"type": "node", "id": 9955337594, "lat": 37.2087669, "lon": 42.6256051}, {"type": "node", "id": 9955337595, "lat": 37.209308, "lon": 42.6259654}, {"type": "node", "id": 9955337596, "lat": 37.2096852, "lon": 42.6245036}, {"type": "node", "id": 9955337597, "lat": 37.2094392, "lon": 42.6243286}, {"type": "node", "id": 9955337598, "lat": 37.2097426, "lon": 42.6227535}, {"type": "node", "id": 9955337599, "lat": 37.2082422, "lon": 42.6218888}, {"type": "node", "id": 9955337600, "lat": 37.2083651, "lon": 42.6205504}, {"type": "node", "id": 9955337601, "lat": 37.2089801, "lon": 42.6207872}, {"type": "node", "id": 9955337602, "lat": 37.2090703, "lon": 42.6188004}, {"type": "node", "id": 10294621994, "lat": 37.0610459, "lon": 42.7349784, "tags": {"name": "\u0628\u06ce\u062a\u0627\u0633", "place": "village"}}, {"type": "node", "id": 10579876431, "lat": 37.2410614, "lon": 42.8599337}, {"type": "node", "id": 10580850445, "lat": 37.2328179, "lon": 42.8470686}, {"type": "node", "id": 10580850452, "lat": 37.2326489, "lon": 42.8467273}, {"type": "node", "id": 10580850453, "lat": 37.2326336, "lon": 42.8462519}, {"type": "node", "id": 10580850476, "lat": 37.2338043, "lon": 42.8465699}, {"type": "node", "id": 10742124069, "lat": 36.9695816, "lon": 42.7186775, "tags": {"name": "Bastke", "place": "village"}}, {"type": "way", "id": 444934395, "nodes": [4423936891, 4423936893, 4423936894, 4423936895, 4423936896, 4423936897, 4423936898, 4423936899, 4423936900, 4423936901, 10579876431, 4423936905, 4423936906, 4423936357, 4423936907, 4423936908, 4423936891], "tags": {"landuse": "residential", "place": "village"}}, {"type": "way", "id": 549157027, "nodes": [5304811488, 5304811489, 5304811490, 5304811491, 9955142445, 5304811492, 9955142444, 5304811493, 9955142443, 5304811494, 5304811495, 5304811496, 5304811498, 5304811499, 5304811500, 5304811501, 5304811502, 5304811503, 5304811504, 5304811505, 5304811506, 5304811507, 5304811488], "tags": {"int_name": "Karin, Karn\u0113, Karn\u012b, Karny, \u0643\u0631\u0646\u064a, Karin, Karne, Karni, Karny,", "landuse": "residential", "name": "\u06a9\u06d5\u0631\u0646\u06ce", "name:ar": "\u0643\u0631\u0646\u064a", "name:ckb": "\u06a9\u06d5\u0631\u0646\u06ce", "name:de": "Karin", "name:en": "Karin", "name:fr": "Karin", "name:ku": "Kern\u00ea", "place": "village"}}, {"type": "way", "id": 822073096, "nodes": [7675718344, 7867449864, 7867449865, 7675718345, 4190668170, 4190668169, 4190668168, 4190668167, 4190668166, 4423936976, 7814353983, 4190668164, 4190668163, 4190668162, 4190668161, 4190668160, 4190668159, 10580850476, 4190668158, 4190668157, 4190668156, 4190668155, 4190668154, 4190668153, 4190668152, 10580850445, 4190668151, 5275953200, 10580850452, 5275954230, 10580850453, 5275953202, 7675718350, 7675718351, 7675718352, 7675718353, 7675718354, 7675718344], "tags": {"landuse": "residential", "name": "\u0634\u0631\u0627\u0646\u0634 / \u072b\u072a\u0722\u0718\u072b", "name:ar": "\u0634\u0631\u0627\u0646\u0634", "name:arc": "\u072b\u072a\u0722\u0718\u072b", "name:ckb": "\u0634\u06d5\u0631\u0627\u0646\u0634\u06ce", "place": "village", "wikidata": "Q7489412", "wikipedia": "ar:\u0634\u0631\u0627\u0646\u0634"}}, {"type": "way", "id": 857836772, "nodes": [4190684092, 4190684093, 4190684094, 4190684095, 4190684096, 4190684097, 4190684098, 4190684099, 4190684100, 4190684101, 4190684102, 4190684103, 4190684104, 4190684105, 4190684106, 8004354663, 4190684107, 4190684108, 4190684109, 4190684110, 4190684111, 4190684112, 4190684113, 4190684114, 4190684115, 4190684116, 4190684117, 4190684118, 4190684119, 4190684120, 4190684121, 4190684122, 4190684123, 4190684124, 4190684125, 4190684126, 4190684127, 4190684128, 4190684129, 4190684130, 4190684131, 4190684132, 4190684133, 4190684134, 4190684135, 4190684136, 4190684137, 4190684138, 4190684139, 4190684140, 4190684141, 4190684142, 4190684143, 8004387161, 8004387162, 4190684144, 4190684145, 4190684146, 4190684147, 4190684148, 4190684149, 4190684150, 4190684151, 4190684152, 4190684153, 4190684154, 4190684155, 4190684156, 4190684157, 4190684158, 4190684159, 4190684160, 4190684161, 4190684162, 4190684163, 4190684164, 4190684165, 4190684166, 4190684167, 4190684168, 4190684169, 4190684170, 4190684171, 4190684172, 4190684173, 4190684174, 4190684175, 4190684176, 4190684177, 4190684178, 4190684179, 4190684180, 4190684181, 4190684182, 4190684183, 4190684184, 4190684185, 4190684186, 4190684187, 4190684188, 4190684190, 8004387412, 4190684191, 4190684192, 4190684193, 4190684194, 4190684195, 4190684196, 4190684197, 4190684198, 4190684199, 4190684200, 4190684201, 4190684202, 4190684203, 4190684204, 4190684205, 4190684206, 4190684207, 4190684208, 4190684209, 4190681358, 4190681359, 4190681360, 4190681361, 4190681362, 4190681363, 4190681364, 4190681365, 4190681366, 4190681367, 4190681368, 4190681369, 4190681370, 4190681371, 4190681372, 4190681373, 4190681374, 4190681375, 4190681376, 4190681377, 4190681378, 4190681379, 4190681380, 4190681381, 4190681382, 4190681383, 4190681384, 4190681385, 4190681386, 4190681387, 4190681388, 4190683989, 4190683990, 4190683991, 4190683992, 4190683993, 4190683994, 4190683995, 4190683996, 4190683997, 4190683998, 4190683999, 4190684000, 4190684001, 4190684002, 4190684003, 4190684004, 4190684005, 4190684006, 4190684007, 4190684008]}, {"type": "way", "id": 857836780, "nodes": [4190684008, 7997472211, 7997472212, 7997472213, 7997472214, 7997472215, 7997472216, 7997472217, 7997472218, 7997472219, 7997472220, 7997472221, 7997472222, 7997472223, 7997472224, 7997472225, 7997472226, 7997472227, 7997472228, 7997472229, 7997472230, 7997472231, 7997472232, 7997472233, 7997472234, 7997472235, 7997472236, 7997472237, 7997472238, 7997472239, 7997472240, 7997472241, 7997472242, 7997472243, 7997472244, 7997472245, 7997472246, 7997472247, 7997472248, 7997472249, 7997472250, 7997472251, 7997472252, 7997472253, 7997472254, 7997472255, 7997472256, 7997472257, 7997472258, 7997554119, 7997472259, 7997472260, 7997472261, 7997472262, 7997472263, 7997472264, 7997472265, 7997455459, 7997455458, 7997455457, 7997472266, 7997472267, 7997472268, 7997472269, 7997455454, 7997455453, 7997455452, 7997472270, 7997472271, 7997472272, 7997472273, 7997472274, 7997472275, 7997472276, 7997472277, 7997472278, 7997472279, 7997472280, 7997472281, 7997472282, 7997472283, 7997472284, 7997472285, 7997528709, 7997472286, 7997472287, 7997472288, 7997472289, 7997472290, 7997472291, 7997472292, 7997472293, 7997472294, 7997472295, 7997472296, 7997472297, 7997472298, 7997472299, 7997472300, 7997472301, 7997472302, 7997472303, 7997472304, 7997472305, 7997472306, 7997472307, 7997472308, 4190684092]}, {"type": "way", "id": 1086494983, "nodes": [9955337585, 9955337586, 9955337587, 9955337588, 9955337589, 9955337590, 9955337591, 9955337592, 9955337593, 9955337594, 9955337595, 9955337596, 9955337597, 9955337598, 9955337599, 9955337600, 9955337601, 9955337602, 9955337585], "tags": {"area": "yes", "int_name": "Rabanka, Rab\u0101nkah, R\u0101bink\u0101, Rahanka, Rbinka, Robanko, \u0631\u0627\u0628\u0646\u0643\u0627, Rabanka, Rabankah, Rabinka, Rahanka, Rbinka, Robanko, \u0631\u0627\u0628\u0646\u0643\u0627", "is_in": "Iraq , \u062c\u0645\u0647\u0648\u0631\u064a\u0629 \u0627\u0644\u0639\u0631\u0627\u0642", "landuse": "residential", "name": "\u0631\u06d5\u0628\u06d5\u0646\u06a9\u0627", "name:ar": "\u0631\u0627\u0628\u0646\u0643\u0627", "name:de": "Rabanka", "name:en": "Rabanka", "name:fr": "Rabanka", "place": "village"}}, {"type": "relation", "id": 11743871, "members": [{"type": "way", "ref": 857836772, "role": "outer"}, {"type": "way", "ref": 857836780, "role": "outer"}], "tags": {"landuse": "residential", "name": "Derkar", "name:ar": "\u062f\u0631\u0643\u0627\u0631", "name:ckb": "\u062f\u0631\u0643\u0627\u0631", "name:ku": "Derkar", "place": "village", "type": "multipolygon"}}]}