{"version": 0.6, "generator": "Overpass API 0.7.61.5 4133829e", "osm3s": {"timestamp_osm_base": "2024-03-05T11:07:26Z", "copyright": "The data included in this document is from www.openstreetmap.org. The data is made available under ODbL."}, "elements": [{"type": "node", "id": 6042184089, "lat": 6.2249582, "lon": -0.3625793, "tags": {"amenity": "atm", "opening_hours": "24/7", "operator": "GCB"}}, {"type": "node", "id": 6362050874, "lat": 6.0948214, "lon": -0.2599069, "tags": {"amenity": "atm", "name": "UMB Bank"}}, {"type": "node", "id": 6362051427, "lat": 6.0968071, "lon": -0.2554579, "tags": {"amenity": "atm", "brand": "Access Bank", "brand:wikidata": "Q4672418", "brand:wikipedia": "en:Access Bank plc", "name": "Access Bank", "operator": "Access Bank", "operator:wikidata": "Q4672418", "operator:wikipedia": "en:Access Bank plc"}}, {"type": "node", "id": 11241902164, "lat": 6.1075892, "lon": -0.0118876, "tags": {"addr:country": "GH", "addr:region": "Eastern", "addr:street": "R40", "addr:town": "Somanya", "amenity": "atm", "brand": "Absa", "brand:wikidata": "Q58641733", "brand:wikipedia": "en:Absa Group Limited", "contact:instagram": "absaghana", "contact:linkedin": "absa-ghana", "contact:twitter": "AbsaGhana", "contact:whatsapp": "+233 50 164 4644", "contact:youtube": "https://www.youtube.com/channel/UCKpKPyfJ69tf7lnxudpzKJQ", "email": "service.excellence.GH@absa.africa", "facebook": "AbsaGhana", "name": "Absa ATM", "opening_hours": "24/7", "operator": "Absa Bank Ghana Limited", "operator:type": "public", "operator:wikidata": "Q96371413", "operator:wikipedia": "en:Absa Bank Ghana", "phone": "+233 30 242 9150", "website": "https://www.absa.com.gh"}}, {"type": "node", "id": 11241975184, "lat": 6.0620158, "lon": -0.2571373, "tags": {"addr:city": "Koforidua", "addr:country": "GH", "addr:region": "Eastern", "addr:street": "N4", "amenity": "atm", "brand": "Absa", "brand:wikidata": "Q58641733", "brand:wikipedia": "en:Absa Group Limited", "contact:instagram": "absaghana", "contact:linkedin": "absa-ghana", "contact:twitter": "AbsaGhana", "contact:whatsapp": "+233 50 164 4644", "contact:youtube": "https://www.youtube.com/channel/UCKpKPyfJ69tf7lnxudpzKJQ", "email": "service.excellence.GH@absa.africa", "facebook": "AbsaGhana", "name": "Absa ATM", "opening_hours": "24/7", "operator": "Absa Bank Ghana Limited", "operator:type": "public", "operator:wikidata": "Q96371413", "operator:wikipedia": "en:Absa Bank Ghana", "phone": "+233 30 242 9150", "website": "https://www.absa.com.gh"}}, {"type": "node", "id": 11262038451, "lat": 5.8871194, "lon": -0.0916055, "tags": {"addr:country": "GH", "addr:region": "Greater Accra", "addr:street": "R40", "addr:town": "Dodowa", "amenity": "atm", "brand": "Absa", "brand:wikidata": "Q58641733", "brand:wikipedia": "en:Absa Group Limited", "contact:instagram": "absaghana", "contact:linkedin": "absa-ghana", "contact:twitter": "AbsaGhana", "contact:whatsapp": "+233 50 164 4644", "contact:youtube": "https://www.youtube.com/channel/UCKpKPyfJ69tf7lnxudpzKJQ", "email": "service.excellence.GH@absa.africa", "facebook": "AbsaGhana", "name": "Absa ATM", "opening_hours": "24/7", "operator": "Absa Bank Ghana Limited", "operator:type": "public", "operator:wikidata": "Q96371413", "operator:wikipedia": "en:Absa Bank Ghana", "phone": "+233 30 242 9150", "website": "https://www.absa.com.gh"}}]}