{"version": 0.6, "generator": "Overpass API 0.7.61.5 4133829e", "osm3s": {"timestamp_osm_base": "2024-03-05T13:43:59Z", "copyright": "The data included in this document is from www.openstreetmap.org. The data is made available under ODbL."}, "elements": [{"type": "node", "id": 4194758347, "lat": 34.0382417, "lon": 68.7473114, "tags": {"name": "Tangi Dara", "name:ru": "\u0422\u0430\u043d\u0433\u0438 \u0414\u0430\u0440\u0430", "place": "village"}}, {"type": "node", "id": 4194758350, "lat": 34.0406848, "lon": 68.7652731, "tags": {"long_name:ar": "\u062a\u0646\u0643\u064a \u062f\u0648 \u0622\u0628", "name": "\u062f\u0648\u0622\u0628", "name:ar": "\u062f\u0648\u0622\u0628", "name:en": "Tangi Do Ab", "name:fa": "\u062f\u0648 \u0622\u0628", "name:ru": "\u0422\u0430\u043d\u0433\u0438 \u0414\u043e \u0410\u0431", "place": "village"}}, {"type": "node", "id": 4194786296, "lat": 34.0466509, "lon": 68.7668379, "tags": {"name": "\u06ab\u0644\u064a \u062e\u06cc\u0644", "name:ar": "\u0643\u0644\u064a \u062e\u064a\u0644", "name:en": "Guli Khel", "name:fa": "\u06ab\u0644\u064a \u062e\u06cc\u0644", "name:ru": "\u0413\u0443\u043b\u0438 \u0425\u0435\u043b", "place": "village"}}, {"type": "node", "id": 4415041158, "lat": 34.000481, "lon": 68.708391, "tags": {"alt_name": "Amam Kheyl;Aman Khel;Amankhel", "name": "\u0627\u0645\u0627\u0646 \u062e\u06d0\u0644", "name:en": "Amamkhel", "name:ps": "\u0627\u0645\u0627\u0646 \u062e\u06d0\u0644", "name:ru": "Amankheyl'", "place": "village", "source:name": "GNS"}}, {"type": "node", "id": 4415041159, "lat": 33.998064, "lon": 68.708083, "tags": {"alt_name": "Khwajahgan;Khwajgan;Khvajgan", "name": "\u062e\u0648\u0627\u062c\u06af\u0627\u0646", "name:en": "Khwajagan", "name:ps": "\u062e\u0648\u0627\u062c\u06af\u0627\u0646", "name:ru": "Khadzhgan", "place": "village", "source:name": "GNS"}}, {"type": "node", "id": 4415041160, "lat": 34.01877, "lon": 68.717723, "tags": {"alt_name": "Kudai;Koday", "name": "\u06a9\u0689\u06cc", "name:en": "Kuday", "name:ps": "\u06a9\u0689\u06cc", "name:ru": "\u041a\u0443\u0434\u0430\u0439", "place": "village", "source:name": "GNS"}}, {"type": "node", "id": 4415041162, "lat": 34.005557, "lon": 68.71582, "tags": {"name": "\u0644\u0648\u0693", "name:en": "Lwar", "name:ps": "\u0644\u0648\u0693", "name:ru": "\u042d\u043b\u044c\u0432\u0430\u0440", "place": "village", "source:name": "GNS"}}, {"type": "node", "id": 4415041163, "lat": 33.993413, "lon": 68.714621, "tags": {"alt_name": "Payandeh Kheyl;Payindah Khel;Payendakhel", "name": "\u067e\u0627\u06cc\u0646\u062f\u0647 \u062e\u06d0\u0644", "name:en": "Payandah Khel", "name:ps": "\u067e\u0627\u06cc\u0646\u062f\u0647 \u062e\u06d0\u0644", "name:ru": "Payindakheyl'", "place": "village", "source:name": "GNS"}}, {"type": "node", "id": 4415041167, "lat": 34.000367, "lon": 68.713458, "tags": {"alt_name": "\u0633\u064a\u062f \u0622\u0628\u0627\u062f;Markaz-e Sayyidabad;Markaz-e Seyydabad;Seyyedabad;Saydabad;Markaze Saydabad;Markaz-e Seyyedabad", "name": "\u0645\u0631\u06a9\u0632 \u0633\u064a\u062f \u0622\u0628\u0627\u062f", "name:en": "Sayyidabad", "name:ps": "\u0645\u0631\u06a9\u0632 \u0633\u064a\u062f \u0622\u0628\u0627\u062f", "name:ru": "\u0421\u0435\u0439\u0434\u0430\u0431\u0430\u0434", "place": "town", "source:name": "GNS"}}, {"type": "node", "id": 4415041168, "lat": 34.01145, "lon": 68.727361, "tags": {"alt_name": "Sater;Shatir", "name": "\u0634\u0627\u0637\u0631", "name:en": "Shater", "name:ps": "\u0634\u0627\u0637\u0631", "name:ru": "\u0428\u0430\u0442\u0438\u0440", "place": "village", "source:name": "GNS"}}, {"type": "node", "id": 4415041169, "lat": 34.010238, "lon": 68.719542, "tags": {"alt_name": "Srah Kala;Sehrah Kala;Sre Kala", "name": "\u0633\u0631\u06d0 \u06a9\u0644\u0627", "name:en": "Sra Kala;Srah Kala;Sehrah Kala;Sre Kala", "name:ps": "\u0633\u0631\u06d0 \u06a9\u0644\u0627", "name:ru": "Srakala", "place": "village", "source:name": "GNS"}}, {"type": "node", "id": 4415166979, "lat": 34.107686, "lon": 68.578664, "tags": {"alt_name": "Chak-e Vardak;Cake Wardak", "name": "\u0686\u06a9 \u0648\u0631\u062f\u06ab", "name:ar": "\u062a\u0634\u0643 \u0648\u0631\u062f\u0643", "name:en": "Chak-e Wardak", "name:ps": "Chak-e Wardak;Chak-e Vardak;Cake Wardak", "place": "town", "source:name": "GNS"}}, {"type": "node", "id": 4415166982, "lat": 34.105658, "lon": 68.572619, "tags": {"alt_name": "Davran Kheyl;Dowran Khel;Dowrankheyl", "name": "\u062f\u0648\u0631\u0627\u0646 \u062e\u06d0\u0644", "name:ar": "\u062f\u0648\u0631\u0627\u0646 \u062e\u0628\u0644", "name:en": "Dawrankhel", "name:ps": "\u062f\u0648\u0631\u0627\u0646 \u062e\u06d0\u0644", "name:ru": "Daurankheyl'", "place": "village", "source:name": "GNS"}}, {"type": "node", "id": 4415166986, "lat": 34.104009, "lon": 68.578529, "tags": {"alt_name": "Sani Khel;Sinehkheyl;Seni Khel", "name": "\u0633\u0646\u06cc \u062e\u06d0\u0644", "name:en": "Senikhel", "name:ps": "\u0633\u0646\u06cc \u062e\u06d0\u0644", "name:ru": "Senikheyl'", "place": "village", "source:name": "GNS"}}, {"type": "node", "id": 5878076821, "lat": 33.9804728, "lon": 68.5594822, "tags": {"name": "\u0628\u0627\u062f\u0627\u0645", "place": "village"}}, {"type": "node", "id": 5878076822, "lat": 33.9843347, "lon": 68.5909104, "tags": {"name": "\u06af\u062f\u0627\u06cc\u06cc", "place": "village"}}, {"type": "node", "id": 8419000852, "lat": 34.1326392, "lon": 68.6615586, "tags": {"place": "village"}}, {"type": "node", "id": 11056132205, "lat": 33.9215632, "lon": 68.6741878, "tags": {"name": "\u0645\u0644\u06cc \u062e\u06cc\u0644", "name:en": "mili khil", "place": "village"}}]}