{"version": 0.6, "generator": "Overpass API 0.7.61.5 4133829e", "osm3s": {"timestamp_osm_base": "2024-03-06T10:45:02Z", "copyright": "The data included in this document is from www.openstreetmap.org. The data is made available under ODbL."}, "elements": [{"type": "node", "id": 3988214879, "lat": 36.0892485, "lon": 44.6142944}, {"type": "node", "id": 3988214880, "lat": 36.0888757, "lon": 44.6139725}, {"type": "node", "id": 3988214881, "lat": 36.0885289, "lon": 44.6145733}, {"type": "node", "id": 3988214882, "lat": 36.0889364, "lon": 44.6149167}, {"type": "node", "id": 4024111020, "lat": 36.0915974, "lon": 44.6504659}, {"type": "node", "id": 4024111021, "lat": 36.0919095, "lon": 44.650895}, {"type": "node", "id": 4024111022, "lat": 36.091554, "lon": 44.6512705}, {"type": "node", "id": 4024111023, "lat": 36.0912592, "lon": 44.6508306}, {"type": "node", "id": 4585683192, "lat": 36.5075806, "lon": 44.7598511, "tags": {"amenity": "school", "name": "\u0626\u0627\u0645\u0627\u062f\u06d5\u06cc\u06cc \u0648\u06d5\u0631\u062a\u06ce\u06cc \u062a\u06ce\u06a9\u06d5\u06b5\u0627\u0648", "name:en": "Warte High School"}}, {"type": "node", "id": 4585716596, "lat": 36.5018255, "lon": 44.7545617, "tags": {"amenity": "school", "name": "\u0642\u0648\u062a\u0627\u0628\u062e\u0627\u0646\u06d5\u06cc \u0633\u0648\u0644\u06ce \u06cc \u0628\u0646\u06d5\u0631\u06d5\u062a\u06cc \u062a\u06ce\u06a9\u06d5\u06b5\u0627\u0648", "name:ar": "\u0627\u0644\u0645\u062f\u0631\u0633\u0629 \u0633\u0648\u0644\u064a \u0627\u0644\u0627\u0628\u062a\u062f\u0627\u0626\u064a", "name:en": "sule primary school", "name:ku": "\u0642\u0648\u062a\u0627\u0628\u062e\u0627\u0646\u06d5\u06cc \u0633\u0648\u0644\u06ce \u06cc \u0628\u0646\u06d5\u0631\u06d5\u062a\u06cc \u062a\u06ce\u06a9\u06d5\u06b5\u0627\u0648"}}, {"type": "node", "id": 4585723393, "lat": 36.5067881, "lon": 44.7583238, "tags": {"amenity": "school", "name": "\u0642\u0648\u062a\u0627\u0628\u062e\u0627\u0646\u06d5\u06cc \u0634\u06d5\u0647\u06cc\u062f\u0627\u0646\u06cc \u0628\u0646\u06d5\u0695\u06d5\u062a\u06cc \u062a\u06ce\u06a9\u06d5\u06b5\u0627\u0648", "name:ku": "\u0642\u0648\u062a\u0627\u0628\u062e\u0627\u0646\u06d5\u06cc \u0634\u06d5\u0647\u06cc\u062f\u0627\u0646\u06cc \u0628\u0646\u06d5\u0695\u06d5\u062a\u06cc \u062a\u06ce\u06a9\u06d5\u06b5\u0627\u0648"}}, {"type": "node", "id": 4585767290, "lat": 36.5098276, "lon": 44.7616419, "tags": {"amenity": "school", "name": "\u0642\u0648\u062a\u0627\u0628\u062e\u0627\u0646\u06d5\u06cc \u0632\u06ce\u0648\u06d5\u06cc \u0628\u0646\u06d5\u0695\u06d5\u062a\u06cc \u062a\u06ce\u06a9\u06d5\u06b5\u0627\u0648", "name:en": "Zewa Elementrary School"}}, {"type": "node", "id": 4608325992, "lat": 36.0895452, "lon": 44.6610098, "tags": {"addr:city": "\u0643\u0648\u064a \u0633\u0646\u062c\u0642", "addr:country": "IQ", "addr:state": "\u0645\u062d\u0627\u0641\u0638\u0629 \u0623\u0631\u0628\u064a\u0644", "amenity": "school", "name": "\u06af\u06d5\u0634\u062a\u06cc\u0627\u0631\u06cc \u0628\u0646\u06d5\u0695\u06d5\u062a\u06cc \u062a\u06ce\u06a9\u06d5\u06b5\u0627\u0648", "name:ar": "\u0645\u062f\u0631\u0633\u0629 \u0643\u0634\u062a\u064a\u0627\u0631\u064a \u0627\u0644\u0627\u0628\u062a\u062f\u0627\u0626\u064a\u0647", "name:ckb": "\u06af\u06d5\u0634\u062a\u06cc\u0627\u0631\u06cc \u0628\u0646\u06d5\u0695\u06d5\u062a\u06cc \u062a\u06ce\u06a9\u06d5\u06b5\u0627\u0648"}}, {"type": "node", "id": 4784401822, "lat": 36.0980455, "lon": 44.6579635, "tags": {"addr:street": "Residency Road", "amenity": "school", "email": "halgurd.maghdid@koyauniversity.org", "name:en": "Department of Software Engineering", "operator": "halgurd maghdid", "phone": "009647701393453", "website": "https://feng.koyauniversity.org/"}}, {"type": "node", "id": 4795817526, "lat": 36.2526708, "lon": 44.8722492, "tags": {"addr:city": "Ranya", "amenity": "school", "name": "\u0642\u0648\u062a\u0627\u0628\u062e\u0627\u0646\u06d5\u06cc \u0628\u0646\u06d5\u0695\u06d5\u062a\u06cc \u0695\u06d5\u0646\u062c\u062f\u06d5\u0631\u0627\u0646", "name:en": "Ranjdaran Basic School", "religion": "muslim"}}, {"type": "node", "id": 4795866421, "lat": 36.2558825, "lon": 44.8693376, "tags": {"amenity": "school", "name": "\u062e\u0648\u06ce\u0646\u062f\u0646\u06af\u06d5\u06cc \u0626\u0627\u0645\u0627\u062f\u06d5\u06cc\u06cc \u0695\u0627\u067e\u06d5\u0695\u06cc\u0646", "name:ckb": "\u062e\u0648\u06ce\u0646\u062f\u0646\u06af\u06d5\u06cc \u0626\u0627\u0645\u0627\u062f\u06d5\u06cc\u06cc \u0695\u0627\u067e\u06d5\u0695\u06cc\u0646"}}, {"type": "node", "id": 4796295325, "lat": 36.2356914, "lon": 44.8633597, "tags": {"addr:city": "Ranya", "addr:street": "\u0634\u06d5\u0642\u0627\u0645\u06cc \u0633\u06d5\u0631\u06d5\u06a9\u06cc \u0640 Main Street", "amenity": "school", "name": "\u06a9\u06c6\u0644\u06ce\u0698\u06cc \u067e\u06d5\u0631\u0648\u06d5\u0631\u062f\u06d5\u06cc \u0628\u0646\u06d5\u0695\u06d5\u062a", "name:en": "College Basic Education", "name:ku": "\u0632\u0627\u0646\u06a9\u06c6\u06cc \u0695\u0627\u067e\u06d5\u0695\u06cc\u0646", "religion": "muslim", "website": "https://www.uor.edu.krd/"}}, {"type": "node", "id": 5091739629, "lat": 36.2573454, "lon": 44.8910393, "tags": {"amenity": "school", "name": "\u0642\u0648\u062a\u0627\u0628\u062e\u0627\u0646\u06d5\u06cc \u0633\u06d5\u0631\u06d5\u062a\u0627\u06cc\u06cc \u0633\u06d5\u06cc\u062f\u0627\u0648\u06d5", "name:en": "Saidawa Primary School", "name:ku": "\u0642\u0648\u062a\u0627\u0628\u062e\u0627\u0646\u06d5\u06cc \u0633\u06d5\u0631\u06d5\u062a\u0627\u06cc\u06cc \u0633\u06d5\u06cc\u062f\u0627\u0648\u06d5"}}, {"type": "node", "id": 5129895122, "lat": 36.2380592, "lon": 44.8758538, "tags": {"amenity": "school", "name": "\u0642\u0648\u062a\u0627\u0628\u062e\u0627\u0646\u06d5\u06cc \u0628\u0646\u06d5\u0695\u06d5\u062a\u06cc \u0645\u0627\u0645"}}, {"type": "node", "id": 5233502412, "lat": 36.266843, "lon": 44.8767644, "tags": {"addr:street": "Kewa rash", "amenity": "school", "name": "\u0642\u0648\u062a\u0627\u0628\u062e\u0627\u0646\u06d5\u06cc \u0626\u0627\u0645\u0627\u062f\u06d5\u06cc\u06cc 5 \u0626\u0627\u0632\u0627\u0631", "name:en": "5 Azar High School"}}, {"type": "node", "id": 5255183719, "lat": 36.2189774, "lon": 45.0681034}, {"type": "node", "id": 5255183720, "lat": 36.2183953, "lon": 45.0687144}, {"type": "node", "id": 5255183729, "lat": 36.2187448, "lon": 45.0692111}, {"type": "node", "id": 5255183730, "lat": 36.2193216, "lon": 45.0685941}, {"type": "node", "id": 5414404921, "lat": 36.2466825, "lon": 44.8769407, "tags": {"addr:street": "Nawroz", "amenity": "school", "email": "info@maplekurdistan.com", "name": "\u0645\u06d5\u06cc\u067e\u06b5", "name:en": "Maple", "operator": "Shwana Akoi", "phone": "07509346666", "website": "http://www.maplekurdistan.com"}}, {"type": "node", "id": 5770748453, "lat": 36.5149186, "lon": 44.7600303, "tags": {"amenity": "school", "name:en": "Zeway Warty School"}}, {"type": "node", "id": 5783703153, "lat": 36.3934406, "lon": 44.6384373, "tags": {"amenity": "school", "name": "\u0642\u0648\u062a\u0627\u0628\u062e\u0627\u0646\u06d5\u06cc \u0628\u0646\u06d5\u0695\u06d5\u062a\u06cc \u0632\u06ce\u0648\u06d5", "name:en": "Zewa Elementary School"}}, {"type": "node", "id": 6128738285, "lat": 36.2297477, "lon": 44.7981178, "tags": {"amenity": "school", "name": "\u062e\u0648\u06ce\u0646\u062f\u0646\u06af\u06d5\u06cc \u0626\u0627\u0645\u0627\u062f\u06d5\u06cc\u06cc \u0647\u06d5\u0631\u06ce\u0645", "name:en": "Harem High School", "name:ku": "\u0626\u0627\u0645\u0627\u062f\u06d5\u06cc\u06cc \u0647\u06d5\u0631\u06ce\u0645 \u0644\u06d5 \u062d\u0627\u062c\u06cc\u0627\u0648\u0627"}}, {"type": "node", "id": 6131048486, "lat": 36.0869679, "lon": 44.6302146, "tags": {"addr:housenumber": "111", "addr:postcode": "111", "addr:street": "\u0633\u06d5\u0631\u0695\u06d5\u0632\u0627\u0646", "amenity": "school", "name": "\u0645\u0646\u0638\u0645\u0629 \u0637\u0644\u0628\u0629 \u0643\u0648\u0631\u062f\u0633\u062a\u0627\u0646", "name:en": "KURDISTAN STUDENT ORGANIZATION", "name:ku": "\u0695\u06ce\u06a9\u062e\u0631\u0627\u0648\u06cc \u0642\u0648\u062a\u0627\u0628\u06cc\u0627\u0646\u06cc \u06a9\u0648\u0631\u062f\u0633\u062a\u0627\u0646", "opening_hours": "Mo-Su 08:00-18:00"}}, {"type": "node", "id": 6370121785, "lat": 36.2618203, "lon": 44.865492, "tags": {"amenity": "school", "name": "\u0642\u0648\u062a\u0627\u0628\u062e\u0627\u0646\u0647 \u0649 \u0626\u0627\u0644\u0627\u0646", "name:ar": "\u0627\u0644\u0645\u062f\u0631\u0633\u0629 \u0627\u0644\u062b\u0627\u0646\u0648\u064a\u0629 \u0627\u0644\u0627\u0646", "name:en": "Alan High School", "name:ku": "\u0642\u0648\u062a\u0627\u0628\u062e\u0627\u0646\u06d5\u06cc \u0626\u0627\u0645\u0627\u062f\u06d5\u06cc\u06cc \u0626\u0627\u0644\u0627\u0646"}}, {"type": "node", "id": 6371806785, "lat": 36.2662898, "lon": 44.8743166, "tags": {"amenity": "school", "name": "Peshkawtin Basic School", "name:en": "Peshkawtin Basic School", "name:ku": "\u0642\u0648\u062a\u0627\u0628\u062e\u0627\u0646\u06d5\u06cc \u0628\u0646\u06d5\u0695\u06d5\u062a\u06cc \u067e\u06ce\u0634\u06a9\u06d5\u0648\u062a\u0646"}}, {"type": "node", "id": 6590212886, "lat": 36.0931748, "lon": 44.660234, "tags": {"amenity": "school", "name": "Koya university"}}, {"type": "node", "id": 6988180023, "lat": 36.2476923, "lon": 44.8581382}, {"type": "node", "id": 6997772185, "lat": 36.0985753, "lon": 44.6576835, "tags": {"amenity": "school", "name": "\u0626\u06d5\u0646\u062f\u0627\u0632\u06cc\u0627\u0631\u06cc \u062f\u0631\u0648\u0633\u062a\u06a9\u0631\u062f\u0646 \u0648 \u067e\u06cc\u0634\u06d5\u0633\u0627\u0632\u06cc", "name:en": "Manufacturing and industrial Engineering"}}, {"type": "node", "id": 7095822590, "lat": 36.2368418, "lon": 44.7850306, "tags": {"amenity": "school", "name": "\u0642\u0648\u062a\u0627\u0628\u062e\u0627\u0646\u06d5\u06cc \u0628\u0646\u06d5\u0695\u06d5\u062a\u06cc \u062f\u06d5\u0631\u0648\u0627\u0632\u06d5", "name:en": "Darwaza Basic School"}}, {"type": "node", "id": 7234092289, "lat": 36.24653, "lon": 44.8750715}, {"type": "node", "id": 7234092290, "lat": 36.2465203, "lon": 44.8750395}, {"type": "node", "id": 7234092291, "lat": 36.2464719, "lon": 44.8750075}, {"type": "node", "id": 7234092292, "lat": 36.246409, "lon": 44.8749675}, {"type": "node", "id": 7234092293, "lat": 36.2463187, "lon": 44.8749075}, {"type": "node", "id": 7234092294, "lat": 36.2462106, "lon": 44.8748395}, {"type": "node", "id": 7234092295, "lat": 36.2460557, "lon": 44.8747355}, {"type": "node", "id": 7234092296, "lat": 36.245917, "lon": 44.8746455}, {"type": "node", "id": 7234092297, "lat": 36.2458735, "lon": 44.8746295}, {"type": "node", "id": 7234092298, "lat": 36.2458444, "lon": 44.8746295}, {"type": "node", "id": 7234092299, "lat": 36.245817, "lon": 44.8746555}, {"type": "node", "id": 7234092300, "lat": 36.2457912, "lon": 44.8747115}, {"type": "node", "id": 7234092301, "lat": 36.2457396, "lon": 44.8748295}, {"type": "node", "id": 7234092302, "lat": 36.245667, "lon": 44.8750075}, {"type": "node", "id": 7234092303, "lat": 36.2456181, "lon": 44.8751338}, {"type": "node", "id": 7234092304, "lat": 36.2455623, "lon": 44.8752583}, {"type": "node", "id": 7234092305, "lat": 36.245514, "lon": 44.8753781}, {"type": "node", "id": 7234092306, "lat": 36.2454935, "lon": 44.8754358}, {"type": "node", "id": 7234092307, "lat": 36.245501, "lon": 44.8754819}, {"type": "node", "id": 7234092308, "lat": 36.2455233, "lon": 44.8755188}, {"type": "node", "id": 7234092309, "lat": 36.2455921, "lon": 44.8755695}, {"type": "node", "id": 7234092310, "lat": 36.2457018, "lon": 44.875641}, {"type": "node", "id": 7234092311, "lat": 36.2458654, "lon": 44.8757447}, {"type": "node", "id": 7234092312, "lat": 36.2460588, "lon": 44.8758623}, {"type": "node", "id": 7234092313, "lat": 36.2461332, "lon": 44.8759061}, {"type": "node", "id": 7234092314, "lat": 36.2461908, "lon": 44.8759084}, {"type": "node", "id": 7234092315, "lat": 36.2462243, "lon": 44.8758761}, {"type": "node", "id": 7234092316, "lat": 36.2462763, "lon": 44.8757493}, {"type": "node", "id": 7234092317, "lat": 36.2463135, "lon": 44.875664}, {"type": "node", "id": 7234092318, "lat": 36.2463805, "lon": 44.8755003}, {"type": "node", "id": 7234092319, "lat": 36.2464418, "lon": 44.8753643}, {"type": "node", "id": 7234092320, "lat": 36.2465032, "lon": 44.8752145}, {"type": "node", "id": 7234092321, "lat": 36.2465422, "lon": 44.8751038}, {"type": "node", "id": 7234092399, "lat": 36.2586395, "lon": 44.8877246}, {"type": "node", "id": 7234092400, "lat": 36.2585532, "lon": 44.8876919}, {"type": "node", "id": 7234092401, "lat": 36.2584349, "lon": 44.8876468}, {"type": "node", "id": 7234092402, "lat": 36.258314, "lon": 44.8875972}, {"type": "node", "id": 7234092403, "lat": 36.2581874, "lon": 44.8875487}, {"type": "node", "id": 7234092404, "lat": 36.2581841, "lon": 44.8875489}, {"type": "node", "id": 7234092405, "lat": 36.2581818, "lon": 44.8875515}, {"type": "node", "id": 7234092406, "lat": 36.2581808, "lon": 44.8875544}, {"type": "node", "id": 7234092407, "lat": 36.2581802, "lon": 44.8875571}, {"type": "node", "id": 7234092408, "lat": 36.2581355, "lon": 44.8877338}, {"type": "node", "id": 7234092409, "lat": 36.2579549, "lon": 44.8884707}, {"type": "node", "id": 7234092410, "lat": 36.2579554, "lon": 44.8884798}, {"type": "node", "id": 7234092411, "lat": 36.257957, "lon": 44.8884841}, {"type": "node", "id": 7234092412, "lat": 36.2579595, "lon": 44.8884908}, {"type": "node", "id": 7234092413, "lat": 36.2579614, "lon": 44.8884962}, {"type": "node", "id": 7234092414, "lat": 36.2579643, "lon": 44.8885006}, {"type": "node", "id": 7234092415, "lat": 36.2579676, "lon": 44.8885046}, {"type": "node", "id": 7234092416, "lat": 36.2579705, "lon": 44.8885086}, {"type": "node", "id": 7234092417, "lat": 36.2579751, "lon": 44.8885099}, {"type": "node", "id": 7234092418, "lat": 36.2579808, "lon": 44.8885116}, {"type": "node", "id": 7234092419, "lat": 36.2584059, "lon": 44.8886614}, {"type": "node", "id": 7234092420, "lat": 36.2584087, "lon": 44.8886611}, {"type": "node", "id": 7234092421, "lat": 36.2584109, "lon": 44.8886608}, {"type": "node", "id": 7234092422, "lat": 36.258413, "lon": 44.8886597}, {"type": "node", "id": 7234104371, "lat": 36.2447652, "lon": 44.8735253}, {"type": "node", "id": 7234104372, "lat": 36.2448424, "lon": 44.8733925}, {"type": "node", "id": 7234104373, "lat": 36.2451514, "lon": 44.8728945}, {"type": "node", "id": 7234104374, "lat": 36.2447996, "lon": 44.8725872}, {"type": "node", "id": 7234104375, "lat": 36.2441264, "lon": 44.8719928}, {"type": "node", "id": 7234104376, "lat": 36.2436314, "lon": 44.8727865}, {"type": "node", "id": 7236793391, "lat": 36.2529287, "lon": 44.8718434}, {"type": "node", "id": 7236793392, "lat": 36.2527541, "lon": 44.8726937}, {"type": "node", "id": 7236793393, "lat": 36.2527031, "lon": 44.8729239}, {"type": "node", "id": 7236793394, "lat": 36.2520911, "lon": 44.8727663}, {"type": "node", "id": 7236793395, "lat": 36.2523257, "lon": 44.8716699}, {"type": "node", "id": 7236793396, "lat": 36.2521792, "lon": 44.8722973}, {"type": "node", "id": 7236797182, "lat": 36.2563134, "lon": 44.8782889}, {"type": "node", "id": 7236797183, "lat": 36.2561024, "lon": 44.8791253}, {"type": "node", "id": 7236797184, "lat": 36.2556466, "lon": 44.8790058}, {"type": "node", "id": 7236821085, "lat": 36.255847, "lon": 44.8781637}, {"type": "node", "id": 7236821086, "lat": 36.2658604, "lon": 44.8839415}, {"type": "node", "id": 7236821087, "lat": 36.2652079, "lon": 44.8837345}, {"type": "node", "id": 7236821088, "lat": 36.2650152, "lon": 44.8845728}, {"type": "node", "id": 7236821089, "lat": 36.2656667, "lon": 44.8847938}, {"type": "node", "id": 7236983494, "lat": 36.2539005, "lon": 44.8822719}, {"type": "node", "id": 7236983495, "lat": 36.2534461, "lon": 44.8822047}, {"type": "node", "id": 7236983496, "lat": 36.2533492, "lon": 44.8829901}, {"type": "node", "id": 7236983497, "lat": 36.2538462, "lon": 44.8830478}, {"type": "node", "id": 7239631467, "lat": 36.266904, "lon": 44.8762109, "tags": {"amenity": "school", "name": "baxchay razawa"}}, {"type": "node", "id": 7239682627, "lat": 36.2639739, "lon": 44.8855607, "tags": {"amenity": "school", "name": "Brusk Elementary School"}}, {"type": "node", "id": 7240017850, "lat": 36.2296049, "lon": 44.8020063, "tags": {"addr:city": "hajiawa", "amenity": "school", "name": "\u0642\u0648\u062a\u0627\u0628\u062e\u0627\u0646\u06d5\u06cc \u0628\u0646\u06d5\u0695\u06d5\u062a\u06cc \u062a\u06ce\u06a9\u06c6\u0634\u06d5\u0631", "name:en": "Tekoshar Basic School"}}, {"type": "node", "id": 7240884253, "lat": 36.2598157, "lon": 44.8863598, "tags": {"amenity": "school", "name": "Bitwen Elementary School", "name:ckb": "\u0642\u0648\u062a\u0627\u0628\u062e\u0627\u0646\u06d5\u06cc \u0628\u0646\u06d5\u0695\u06d5\u062a\u06cc \u0628\u06cc\u062a\u0648\u06ce\u0646", "name:en": "Bitwen Basic School"}}, {"type": "node", "id": 7553542485, "lat": 36.2621208, "lon": 44.8802673, "tags": {"amenity": "school", "name": "\u0642\u0648\u062a\u0627\u0628\u062e\u0627\u0646\u06d5\u06cc \u0628\u0646\u06d5\u0695\u06d5\u062a\u06cc \u06cc\u06d5\u06a9\u06ce\u062a\u06cc", "name:en": "Yakety Basic School", "name:ku": "\u0642\u0648\u062a\u0627\u0628\u062e\u0627\u0646\u06d5\u06cc \u0628\u0646\u06d5\u0695\u06d5\u062a\u06cc \u06cc\u06d5\u06a9\u06ce\u062a\u06cc"}}, {"type": "node", "id": 7592293354, "lat": 36.2391338, "lon": 44.7922057, "tags": {"addr:city": "Hajiawa", "amenity": "school", "name": "\u0642\u0648\u062a\u0627\u0628\u062e\u0627\u0646\u06d5\u06cc \u0628\u0646\u06d5\u0695\u06d5\u062a\u06cc \u0642\u06d5\u0646\u062f\u06cc\u0644", "name:en": "Qandil Basic School", "religion": "muslim"}}, {"type": "node", "id": 7592295215, "lat": 36.2392388, "lon": 44.7926285, "tags": {"amenity": "school", "name": "\u062e\u0648\u06ce\u0646\u062f\u0646\u06af\u06d5\u06cc \u0626\u0627\u0645\u0627\u062f\u06d5\u06cc\u06cc \u0626\u0627\u06cc\u0646\u062f\u06d5", "name:ckb": "\u062e\u0648\u06ce\u0646\u062f\u0646\u06af\u06d5\u06cc \u0626\u0627\u0645\u0627\u062f\u06d5\u06cc\u06cc \u0626\u0627\u06cc\u0646\u062f\u06d5", "name:en": "Aynda High School", "religion": "muslim"}}, {"type": "node", "id": 7592356627, "lat": 36.2371409, "lon": 44.7990097, "tags": {"addr:city": "hajiawa", "amenity": "school", "name": "\u0642\u0648\u062a\u0627\u0628\u062e\u0627\u0646\u06d5\u06cc \u0628\u0646\u06d5\u0695\u06d5\u062a\u06cc \u062d\u0627\u062c\u06cc\u0627\u0648\u0627", "name:en": "Hajiawa Basic School", "religion": "muslim"}}, {"type": "node", "id": 7592362859, "lat": 36.229042, "lon": 44.8026169, "tags": {"addr:city": "hajiawa", "amenity": "school", "name": "\u0628\u0627\u062e\u0686\u06d5\u06cc \u0645\u0646\u062f\u06b5\u0627\u0646\u06cc \u0647\u06d5\u0633\u06ce\u0631", "name:en": "Haser Kindergarten", "religion": "muslim"}}, {"type": "node", "id": 7592381672, "lat": 36.2422179, "lon": 44.7952311, "tags": {"addr:city": "Hajiawa", "amenity": "school", "name": "\u0642\u0648\u062a\u0627\u0628\u062e\u0627\u0646\u06d5\u06cc \u0628\u0646\u06d5\u0695\u06d5\u062a\u06cc \u0695\u06c6\u0698\u0647\u06d5\u06b5\u0627\u062a", "name:en": "Rozhallat Basic School", "religion": "muslim"}}, {"type": "node", "id": 7592390999, "lat": 36.2420523, "lon": 44.7947568, "tags": {"addr:city": "Hajiawa", "amenity": "school", "name": "\u0642\u0648\u062a\u0627\u0628\u062e\u0627\u0646\u06d5\u06cc \u0628\u0646\u06d5\u0695\u06d5\u062a\u06cc \u067e\u06ce\u0634\u0645\u06d5\u0631\u06af\u06d5", "name:en": "Peshmarga Basic School"}}, {"type": "node", "id": 7592399822, "lat": 36.2368847, "lon": 44.7991498, "tags": {"amenity": "school", "name": "\u0642\u0648\u062a\u0627\u0628\u062e\u0627\u0646\u06d5\u06cc \u0628\u0646\u06d5\u0695\u06d5\u062a\u06cc \u0628\u06d5\u06cc\u0627\u062f", "name:en": "Bayad basic School"}}, {"type": "node", "id": 7592446160, "lat": 36.2437552, "lon": 44.7815594, "tags": {"addr:city": "Hajiawa", "amenity": "school", "name": "\u0642\u0648\u062a\u0627\u0628\u062e\u0627\u0646\u06d5\u06cc \u0628\u0646\u06d5\u0695\u06d5\u062a\u06cc \u0626\u06cc\u0646\u06af\u0644\u06cc\u0632\u06cc \u06af\u0632\u0646\u06af", "religion": "muslim"}}, {"type": "node", "id": 7592490463, "lat": 36.2264577, "lon": 44.7944792, "tags": {"addr:city": "Hajiawa", "amenity": "school", "name": "\u0642\u0648\u062a\u0627\u0628\u062e\u0627\u0646\u06d5\u06cc \u0628\u0646\u06d5\u0695\u06d5\u062a\u06cc \u06a9\u06c6\u0645\u0627\u0631", "name:en": "Komar Basic School", "religion": "muslim"}}, {"type": "node", "id": 7592506531, "lat": 36.2267409, "lon": 44.7941123, "tags": {"addr:city": "Hajiawa", "amenity": "school", "name": "\u0642\u0648\u062a\u0627\u0628\u062e\u0627\u0646\u06d5\u06cc \u0628\u0646\u06d5\u0695\u06d5\u062a\u06cc \u0647\u06cc\u0631\u0627\u0646", "name:en": "Hiran Basic School", "religion": "muslim"}}, {"type": "node", "id": 7601731046, "lat": 36.2521611, "lon": 44.8723909}, {"type": "node", "id": 7605839692, "lat": 36.2378227, "lon": 44.8763223, "tags": {"amenity": "school", "name": "\u0642\u0648\u062a\u0627\u0628\u062e\u0627\u0646\u06d5\u06cc \u0628\u0646\u06d5\u0695\u06d5\u062a\u06cc \u062a\u0648\u0627\u0646\u0633\u062a", "name:en": "Twanst Basic School"}}, {"type": "node", "id": 7607679410, "lat": 36.2572133, "lon": 44.9017524, "tags": {"amenity": "school", "name": "Mashkhal High School"}}, {"type": "node", "id": 7617668033, "lat": 36.2447225, "lon": 44.8730509, "tags": {"addr:city": "Ranya", "amenity": "school", "name": "\u062e\u0648\u06ce\u0646\u062f\u0646\u06af\u06d5\u06cc \u0626\u0627\u0645\u0627\u062f\u06d5\u06cc\u06cc \u067e\u06d5\u06cc\u0627\u0645", "name:ckb": "\u062e\u0648\u06ce\u0646\u062f\u0646\u06af\u06d5\u06cc \u0626\u0627\u0645\u0627\u062f\u06d5\u06cc\u06cc \u067e\u06d5\u06cc\u0627\u0645", "name:en": "Payam High School"}}, {"type": "node", "id": 7617708286, "lat": 36.2441163, "lon": 44.8726073, "tags": {"addr:city": "Ranya", "amenity": "school", "name": "\u062e\u0648\u06ce\u0646\u062f\u0646\u06af\u06d5\u06cc \u0626\u0627\u0645\u0627\u062f\u06d5\u06cc\u06cc \u0628\u0646\u0627\u0631", "name:en": "Bnar High School", "religion": "muslim"}}, {"type": "node", "id": 7630481687, "lat": 36.2307084, "lon": 44.7763415, "tags": {"addr:city": "Hajiawa", "amenity": "school", "name": "\u062e\u0648\u06ce\u0646\u062f\u0646\u06af\u06d5\u06cc \u0626\u0627\u0645\u0627\u062f\u06d5\u06cc\u06cc \u0645\u0648\u06a9\u0631\u06cc\u0627\u0646", "name:en": "Mukryan High School"}}, {"type": "node", "id": 7630490806, "lat": 36.2346327, "lon": 44.7807396, "tags": {"addr:city": "Hajiawa", "amenity": "school", "name": "\u0628\u0627\u062e\u0686\u06d5\u06cc \u0645\u0646\u062f\u06b5\u0627\u0646\u06cc \u0686\u0631\u0627", "name:ckb": "\u0628\u0627\u062e\u0686\u06d5\u06cc \u0645\u0646\u062f\u06b5\u0627\u0646\u06cc \u0686\u0631\u0627", "name:en": "Chra Kindergarten"}}, {"type": "node", "id": 7630492460, "lat": 36.2453025, "lon": 44.7712912, "tags": {"amenity": "school", "name:ckb": "\u0642\u0648\u062a\u0627\u0628\u062e\u0627\u0646\u06d5\u06cc \u0628\u0646\u06d5\u0695\u06d5\u062a\u06cc \u06a9\u0641\u0631\u06d5\u062f\u06c6\u06b5", "name:en": "Kfradol Basic School"}}, {"type": "node", "id": 7630514240, "lat": 36.2343518, "lon": 44.7798037, "tags": {"amenity": "school", "name:ckb": "\u0642\u0648\u062a\u0627\u0628\u062e\u0627\u0646\u06d5\u06cc \u0628\u0646\u06d5\u0695\u06d5\u062a\u06cc \u0633\u06d5\u0631\u0686\u06cc\u0627", "name:en": "Sarchia Basic School"}}, {"type": "node", "id": 7630523464, "lat": 36.2271986, "lon": 44.7829612, "tags": {"amenity": "school", "name:en": "Sarsian Basic School"}}, {"type": "node", "id": 7635220945, "lat": 36.2272717, "lon": 44.7985938, "tags": {"amenity": "school", "name": "\u062e\u0648\u06ce\u0646\u062f\u0646\u06af\u06d5\u06cc \u0626\u0627\u0645\u0627\u062f\u06d5\u06cc\u06cc \u06af\u06d5\u0644\u0627\u0648\u06ce\u0698", "name:en": "Galawezh High School"}}, {"type": "node", "id": 7750192372, "lat": 36.2558768, "lon": 44.869678, "tags": {"amenity": "school", "name": "\u062e\u0648\u06ce\u0646\u062f\u0646\u06af\u06d5\u06cc \u0626\u0627\u0645\u0627\u062f\u06d5\u06cc\u06cc \u0633\u06d5\u0641\u06cc\u0646", "name:ckb": "\u062e\u0648\u06ce\u0646\u062f\u0646\u06af\u06d5\u06cc \u0626\u0627\u0645\u0627\u062f\u06d5\u06cc\u06cc \u0633\u06d5\u0641\u06cc\u0646", "name:en": "Safin High School"}}, {"type": "node", "id": 7942972685, "lat": 36.2598483, "lon": 44.8895825, "tags": {"amenity": "school", "name": "\u0626\u0627\u0645\u0627\u062f\u06d5\u06cc\u06cc \u067e\u06cc\u0634\u06d5\u06cc\u06cc \u0695\u0627\u0646\u06cc\u06d5"}}, {"type": "node", "id": 8108964591, "lat": 36.2476935, "lon": 44.8581509}, {"type": "node", "id": 8108964592, "lat": 36.2475851, "lon": 44.8570193}, {"type": "node", "id": 8108964593, "lat": 36.246799, "lon": 44.8571314}, {"type": "node", "id": 8108964594, "lat": 36.2468984, "lon": 44.8584086}, {"type": "node", "id": 8142040518, "lat": 36.261611, "lon": 44.8967337, "tags": {"addr:postcode": "46012", "addr:street": "Bnar", "amenity": "school", "name": "\u0642\u0648\u062a\u0627\u0628\u062e\u0627\u0646\u06d5\u06cc \u0645\u06d5\u0647\u0627\u0628\u0627\u062f\u06cc \u0628\u0646\u06d5\u0695\u06d5\u062a\u06cc", "name:en": "Mahabad Elementary School"}}, {"type": "node", "id": 8142070917, "lat": 36.2617408, "lon": 44.8967712, "tags": {"addr:postcode": "46012", "addr:street": "Bnar", "amenity": "school", "name": "\u062e\u0648\u06ce\u0646\u062f\u0646\u06af\u06d5\u06cc \u0626\u0627\u0645\u0627\u062f\u06d5\u06cc \u06a9\u06c6\u0628\u0627\u0646\u06ce", "name:en": "Kobane High School", "name:ku": "\u062e\u0648\u06ce\u0646\u062f\u0646\u06af\u06d5\u06cc \u0626\u0627\u0645\u0627\u062f\u06d5\u06cc\u06cc \u06a9\u06c6\u0628\u0627\u0646\u06ce"}}, {"type": "node", "id": 8355222720, "lat": 36.3983286, "lon": 44.5514206, "tags": {"amenity": "school", "name": "\u0626\u0627\u0645\u0627\u062f\u06d5\u06cc\u0649 \u0628\u0627\u0644\u06cc\u0633\u0627\u0646\u0649 \u062a\u06ce\u06a9\u06d5\u06b5\u0627\u0648"}}, {"type": "node", "id": 8355222721, "lat": 36.3982901, "lon": 44.5520255, "tags": {"amenity": "school", "name": "\u0642\u0648\u062a\u0627\u0628\u062e\u0627\u0646\u06d5\u06cc ( \u0634\u06d5\u0647\u06cc\u062f \u0639\u0628\u062f\u0627\u0644\u062e\u0627\u0644\u0642 ) \u0628\u0646\u06d5\u0695\u06d5\u062a\u06cc \u062a\u06ce\u0643\u06d5\u06b5\u0627\u0648+ \u0642\u0648\u062a\u0627\u0628\u062e\u0627\u0646\u06d5\u06cc ( \u0632\u06ce\u0644\u0627\u0646 ) \u06cc \u0628\u0646\u06d5\u0695\u06d5\u062a\u06cc \u062a\u06ce\u0643\u06d5\u06b5\u0627\u0648"}}, {"type": "node", "id": 8355222727, "lat": 36.4077282, "lon": 44.551008, "tags": {"amenity": "school", "name": "\u0642\u0648\u062a\u0627\u0628\u062e\u0627\u0646\u06d5\u0649 \u0628\u0627\u0644\u06cc\u0633\u0627\u0646\u0649 \u0628\u0646\u06d5\u0695\u06d5\u062a\u0649 \u062a\u06ce\u06a9\u06d5\u06b5\u0627\u0648"}}, {"type": "node", "id": 8446805832, "lat": 36.2616105, "lon": 44.8840429}, {"type": "node", "id": 8446805833, "lat": 36.2617056, "lon": 44.8831202}, {"type": "node", "id": 8446805834, "lat": 36.261325, "lon": 44.8829968}, {"type": "node", "id": 8446805835, "lat": 36.261126, "lon": 44.883941}, {"type": "node", "id": 8446827184, "lat": 36.2597159, "lon": 44.890169}, {"type": "node", "id": 8446827185, "lat": 36.2602779, "lon": 44.8893886}, {"type": "node", "id": 8446827186, "lat": 36.2593035, "lon": 44.8890297}, {"type": "node", "id": 8446827187, "lat": 36.2590671, "lon": 44.8899169}, {"type": "node", "id": 9327151317, "lat": 36.4596494, "lon": 44.5918283, "tags": {"amenity": "school", "name": "\u0642\u0648\u062a\u0627\u0628\u062e\u0627\u0646\u06d5\u06cc \u0645\u06d5\u0644\u06d5\u06a9\u0627\u0646\u06cc \u0628\u0646\u06d5\u0695\u06d5\u062a\u06cc"}}, {"type": "node", "id": 9386726059, "lat": 36.2239025, "lon": 45.0688795}, {"type": "node", "id": 9386726060, "lat": 36.2241932, "lon": 45.0692836}, {"type": "node", "id": 9386726061, "lat": 36.2239824, "lon": 45.0695191}, {"type": "node", "id": 9386726062, "lat": 36.2236839, "lon": 45.0691102}, {"type": "node", "id": 9386757420, "lat": 36.2206619, "lon": 45.0681238}, {"type": "node", "id": 9386757421, "lat": 36.2202446, "lon": 45.0675201}, {"type": "node", "id": 9386757422, "lat": 36.2206382, "lon": 45.067103}, {"type": "node", "id": 9386757425, "lat": 36.2215778, "lon": 45.0627815}, {"type": "node", "id": 9386757426, "lat": 36.2220386, "lon": 45.0634413}, {"type": "node", "id": 9386757427, "lat": 36.2213691, "lon": 45.0641693}, {"type": "node", "id": 9386757428, "lat": 36.2208992, "lon": 45.0635158}, {"type": "node", "id": 9386760456, "lat": 36.2267575, "lon": 45.0734513}, {"type": "node", "id": 9386760457, "lat": 36.2261283, "lon": 45.0742089}, {"type": "node", "id": 9386760458, "lat": 36.2255627, "lon": 45.0736852}, {"type": "node", "id": 9386760459, "lat": 36.2261776, "lon": 45.072931}, {"type": "node", "id": 9573607011, "lat": 36.2210613, "lon": 45.0677213}, {"type": "node", "id": 10659053105, "lat": 36.234753, "lon": 44.6126441, "tags": {"addr:street": "Sktan Road", "amenity": "school", "name": "\u0642\u0648\u062a\u0627\u0628\u062e\u0627\u0646\u06d5\u06cc \u06a9\u0646\u06ce\u0631\u0627\u0646", "name:en": "kneran School"}}, {"type": "node", "id": 10664560057, "lat": 36.2012692, "lon": 44.8234542}, {"type": "node", "id": 10664560058, "lat": 36.2007946, "lon": 44.8235859}, {"type": "node", "id": 10664560059, "lat": 36.2006868, "lon": 44.8229309}, {"type": "node", "id": 10664560060, "lat": 36.2011702, "lon": 44.8228064}, {"type": "node", "id": 10664560083, "lat": 36.2058623, "lon": 44.8354144}, {"type": "node", "id": 10664560084, "lat": 36.2051022, "lon": 44.8355775}, {"type": "node", "id": 10664560085, "lat": 36.204936, "lon": 44.834363}, {"type": "node", "id": 10664560086, "lat": 36.2057204, "lon": 44.8342042}, {"type": "node", "id": 10664982823, "lat": 36.2160824, "lon": 44.838143}, {"type": "node", "id": 10664982824, "lat": 36.2157206, "lon": 44.8374092}, {"type": "node", "id": 10664982825, "lat": 36.2164806, "lon": 44.8368319}, {"type": "node", "id": 10664982826, "lat": 36.2168493, "lon": 44.8375679}, {"type": "node", "id": 10665116206, "lat": 36.2162821, "lon": 44.8270913}, {"type": "node", "id": 10665116207, "lat": 36.2167011, "lon": 44.8264111}, {"type": "node", "id": 10665116208, "lat": 36.2159653, "lon": 44.8257437}, {"type": "node", "id": 10665116209, "lat": 36.2156485, "lon": 44.8262802}, {"type": "node", "id": 10665154722, "lat": 36.2156522, "lon": 44.8195222}, {"type": "node", "id": 10665154723, "lat": 36.2151129, "lon": 44.8189289}, {"type": "node", "id": 10665154724, "lat": 36.2154617, "lon": 44.8184354}, {"type": "node", "id": 10665154725, "lat": 36.2160071, "lon": 44.8190126}, {"type": "node", "id": 10665155536, "lat": 36.2105284, "lon": 44.8308515}, {"type": "node", "id": 10665155537, "lat": 36.2104152, "lon": 44.8303102}, {"type": "node", "id": 10665155538, "lat": 36.2108466, "lon": 44.8301716}, {"type": "node", "id": 10665155539, "lat": 36.2109598, "lon": 44.8307129}, {"type": "node", "id": 10670796541, "lat": 36.2118214, "lon": 44.8276102}, {"type": "node", "id": 10670796542, "lat": 36.2118881, "lon": 44.8282009}, {"type": "node", "id": 10670796543, "lat": 36.2124873, "lon": 44.8274778}, {"type": "node", "id": 10670796544, "lat": 36.2125603, "lon": 44.8280778}, {"type": "node", "id": 10670919243, "lat": 36.2079529, "lon": 44.8289152}, {"type": "node", "id": 10670919244, "lat": 36.2078321, "lon": 44.8283703}, {"type": "node", "id": 10670919245, "lat": 36.2082761, "lon": 44.8282106}, {"type": "node", "id": 10670919246, "lat": 36.2083911, "lon": 44.8287718}, {"type": "node", "id": 10671068647, "lat": 36.2064748, "lon": 44.8291473}, {"type": "node", "id": 10671068648, "lat": 36.2070907, "lon": 44.8289593}, {"type": "node", "id": 10671068649, "lat": 36.2072981, "lon": 44.829999}, {"type": "node", "id": 10671068650, "lat": 36.2066929, "lon": 44.8302021}, {"type": "node", "id": 10671068673, "lat": 36.2070622, "lon": 44.8288438}, {"type": "node", "id": 10671068674, "lat": 36.2069756, "lon": 44.8284457}, {"type": "node", "id": 10671068675, "lat": 36.2063731, "lon": 44.8286067}, {"type": "node", "id": 10671068676, "lat": 36.2064553, "lon": 44.8290326}, {"type": "node", "id": 10673870857, "lat": 36.2079604, "lon": 44.8229603}, {"type": "node", "id": 10673870858, "lat": 36.2083581, "lon": 44.8229691}, {"type": "node", "id": 10673870859, "lat": 36.2083411, "lon": 44.8234822}, {"type": "node", "id": 10673870860, "lat": 36.207942, "lon": 44.8234699}, {"type": "node", "id": 10673932860, "lat": 36.2148363, "lon": 44.8328745}, {"type": "node", "id": 10673932861, "lat": 36.2144027, "lon": 44.8332696}, {"type": "node", "id": 10673932862, "lat": 36.2143621, "lon": 44.8332338}, {"type": "node", "id": 10673932863, "lat": 36.2141459, "lon": 44.8323412}, {"type": "node", "id": 10673932864, "lat": 36.2146672, "lon": 44.8321474}, {"type": "node", "id": 10674429106, "lat": 36.4812721, "lon": 44.5485038, "tags": {"amenity": "school", "name": "\u0642\u0648\u062a\u0627\u0628\u062e\u0627\u0646\u06d5\u06cc \u0626\u0627\u0645\u0627\u062f\u06d5\u06cc\u06cc \u062a\u0627\u0631\u06cc\u0646\u0627\u0646\u06cc \u062e\u0648\u0627\u0631\u0648\u0648\u06cc"}}, {"type": "node", "id": 10674438605, "lat": 36.4812253, "lon": 44.5485871, "tags": {"amenity": "school", "name": "\u0642\u0648\u062a\u0627\u0628\u062e\u0627\u0646\u06d5\u06cc \u062a\u0627\u0631\u06cc\u0646\u0627\u0646\u06cc \u062e\u0648\u0627\u0631\u0648\u0648\u06cc \u0628\u0646\u06d5\u0695\u06d5\u062a\u06cc"}}, {"type": "node", "id": 10681236391, "lat": 36.2305138, "lon": 44.7967641}, {"type": "node", "id": 10681236392, "lat": 36.2299128, "lon": 44.7971783}, {"type": "node", "id": 10681236393, "lat": 36.2296411, "lon": 44.7967975}, {"type": "node", "id": 10681236394, "lat": 36.2303436, "lon": 44.796315}, {"type": "node", "id": 10681256559, "lat": 36.2293925, "lon": 44.7938196}, {"type": "node", "id": 10681256560, "lat": 36.2299478, "lon": 44.7934623}, {"type": "node", "id": 10681256561, "lat": 36.2301945, "lon": 44.794351}, {"type": "node", "id": 10681256562, "lat": 36.2296268, "lon": 44.7947019}, {"type": "node", "id": 10681303772, "lat": 36.2367688, "lon": 44.7908598}, {"type": "node", "id": 10681303773, "lat": 36.2363592, "lon": 44.7911274}, {"type": "node", "id": 10681303774, "lat": 36.2359606, "lon": 44.7901999}, {"type": "node", "id": 10681303775, "lat": 36.2363813, "lon": 44.7899186}, {"type": "node", "id": 10681303787, "lat": 36.2400587, "lon": 44.7881124}, {"type": "node", "id": 10681303788, "lat": 36.2396373, "lon": 44.7884017}, {"type": "node", "id": 10681303789, "lat": 36.2399829, "lon": 44.7892335}, {"type": "node", "id": 10681303790, "lat": 36.2404277, "lon": 44.7889406}, {"type": "node", "id": 11046682005, "lat": 36.3242231, "lon": 44.7072334, "tags": {"amenity": "school", "name:en": "Dawawa school"}}, {"type": "way", "id": 396024543, "nodes": [3988214879, 3988214880, 3988214881, 3988214882, 3988214879], "tags": {"amenity": "school", "ele": "8", "name": "\u062e\u0648\u06ce\u0646\u062f\u0646\u06af\u06d5\u06cc \u0647\u0627\u0648\u06cc\u0627\u0631"}}, {"type": "way", "id": 399713449, "nodes": [4024111020, 4024111021, 4024111022, 4024111023, 4024111020], "tags": {"addr:city": "Koya", "addr:street": "Zanko", "amenity": "school", "building": "school", "building:levels": "2", "name": "Chra Primary School"}}, {"type": "way", "id": 543622668, "nodes": [5255183719, 5255183720, 5255183729, 5255183730, 5255183719], "tags": {"amenity": "school", "name": "\u0642\u0648\u062a\u0627\u0628\u062e\u0627\u0646\u06d5\u06cc \u0628\u0646\u06d5\u0631\u06d5\u062a\u06cc \u0642\u06d5\u0646\u062f\u06cc\u0644", "name:ckb": "\u0642\u0648\u062a\u0627\u0628\u062e\u0627\u0646\u06d5\u06cc \u0628\u0646\u06d5\u0631\u06d5\u062a\u06cc \u0642\u06d5\u0646\u062f\u06cc\u0644"}}, {"type": "way", "id": 775403476, "nodes": [7234092289, 7234092290, 7234092291, 7234092292, 7234092293, 7234092294, 7234092295, 7234092296, 7234092297, 7234092298, 7234092299, 7234092300, 7234092301, 7234092302, 7234092303, 7234092304, 7234092305, 7234092306, 7234092307, 7234092308, 7234092309, 7234092310, 7234092311, 7234092312, 7234092313, 7234092314, 7234092315, 7234092316, 7234092317, 7234092318, 7234092319, 7234092320, 7234092321, 7234092289], "tags": {"addr:city": "Ranya", "amenity": "school", "name": "\u0642\u0648\u062a\u0627\u0628\u062e\u0627\u0646\u06d5\u06cc \u0628\u0646\u06d5\u0695\u06d5\u062a\u06cc \u0628\u0627\u0628\u06d5\u06af\u0648\u0695\u06af\u0648\u0695", "name:en": "Baba Gwr Gwr Basic School", "religion": "muslim"}}, {"type": "way", "id": 775403484, "nodes": [7234092399, 7234092400, 7234092401, 7234092402, 7234092403, 7234092404, 7234092405, 7234092406, 7234092407, 7234092408, 7234092409, 7234092410, 7234092411, 7234092412, 7234092413, 7234092414, 7234092415, 7234092416, 7234092417, 7234092418, 7234092419, 7234092420, 7234092421, 7234092422, 7234092399], "tags": {"amenity": "school", "name": "\u067e\u06d5\u06cc\u0645\u0627\u0646\u06af\u0627\u06cc \u0647\u0648\u0646\u06d5\u0631\u06d5 \u062c\u0648\u0627\u0646\u06a9\u0627\u0646"}}, {"type": "way", "id": 775410027, "nodes": [7234104371, 7234104372, 7234104373, 7234104374, 7234104375, 7234104376, 7234104371], "tags": {"amenity": "school", "name": "\u0626\u0627\u0645\u0627\u062f\u06d5\u06cc\u06cc \u067e\u06d5\u06cc\u0627\u0645\u06cc \u062a\u06ce\u06a9\u06d5\u06b5", "name:en": "Payam Highschool"}}, {"type": "way", "id": 775720967, "nodes": [7236793391, 7236793392, 7236793393, 7236793394, 7601731046, 7236793396, 7236793395, 7236793391], "tags": {"amenity": "school", "name": "\u0642\u0648\u062a\u0627\u0628\u062e\u0627\u0646\u06d5\u06cc \u0695\u06d5\u0646\u062c\u062f\u06d5\u0631\u0627\u0646\u06cc \u0628\u0646\u06d5\u0695\u06d5\u062a\u06cc", "name:ar": "\u0645\u062f\u0631\u0633\u0629 \u0631\u0629\u0646\u062c\u062f\u0629\u0631\u0627\u0646 \u0627\u0644\u0673\u0628\u062a\u062f\u0627\u0626\u064a\u0629", "name:en": "Ranjdaran Elementary  School"}}, {"type": "way", "id": 775722903, "nodes": [7236797182, 7236797183, 7236797184, 7236821085, 7236797182], "tags": {"amenity": "school", "name": "Shawre Basic School", "name:ku": "\u0634\u0627\u0648\u0631\u06ce \u0642\u0648\u062a\u0627\u0628\u062e\u0627\u0646\u06cc \u0628\u0646\u06d5\u0695\u06d5\u062a\u06cc"}}, {"type": "way", "id": 775722904, "nodes": [7236821086, 7236821087, 7236821088, 7236821089, 7236821086], "tags": {"amenity": "school", "name": "\u0626\u0627\u0645\u0627\u062f\u06d5\u06cc\u06cc \u0665\u06cc \u0626\u0627\u0632\u0627\u0631\u06cc \u06a9\u0648\u0695\u0627\u0646", "name:en": "5 Azari  High School (boys)"}}, {"type": "way", "id": 775736716, "nodes": [7236983494, 7236983495, 7236983496, 7236983497, 7236983494], "tags": {"amenity": "school", "name": "\u0642\u0648\u062a\u0627\u0628\u062e\u0627\u0646\u06d5\u06cc \u0631\u0627\u0646\u06cc\u06d5", "name:en": "Ranya Basic School"}}, {"type": "way", "id": 870465678, "nodes": [8108964591, 6988180023, 8108964592, 8108964593, 8108964594, 8108964591], "tags": {"amenity": "school", "name": "\u062e\u0648\u06ce\u0646\u062f\u0646\u06af\u06d5\u06cc \u0626\u0627\u0645\u0627\u062f\u06d5\u06cc\u06cc \u0633\u06d5\u0641\u06cc\u0646", "name:en": "Safin High School"}}, {"type": "way", "id": 909737069, "nodes": [8446805832, 8446805833, 8446805834, 8446805835, 8446805832], "tags": {"amenity": "school", "name": "\u0642\u0648\u062a\u0627\u0628\u062e\u0627\u0646\u0647\u200c\u06cc \u0628\u06b5\u06ce\u0633\u0647\u200c\u06cc \u0628\u0646\u0647\u200c\u0695\u0647\u200c\u062a\u06cc"}}, {"type": "way", "id": 909738697, "nodes": [8446827184, 8446827185, 8446827186, 8446827187, 8446827184], "tags": {"amenity": "school", "name": "\u0642\u0648\u062a\u0627\u0628\u062e\u0627\u0646\u0647\u200c\u06cc \u06af\u0648\u06b5\u0633\u062a\u0627\u0646\u06cc \u0628\u0646\u0647\u200c\u0695\u0647\u200c\u062a\u06cc"}}, {"type": "way", "id": 1017674179, "nodes": [9573607011, 9386757420, 9386757421, 9386757422, 9573607011], "tags": {"alt_name:ckb": "\u062e\u0648\u06ce\u0646\u062f\u0646\u06af\u06d5\u06cc \u0626\u0627\u0645\u0627\u062f\u06d5\u06cc\u06cc \u0626\u0627\u0631\u0627\u0645", "amenity": "school", "name": "\u062e\u0648\u06ce\u0646\u062f\u0646\u06af\u06d5\u06cc \u0628\u0646\u06d5\u0695\u06d5\u062a\u06cc \u0648\u06b5\u0627\u062a", "name:ckb": "\u062e\u0648\u06ce\u0646\u062f\u0646\u06af\u06d5\u06cc \u0628\u0646\u06d5\u0695\u06d5\u062a\u06cc \u0648\u06b5\u0627\u062a"}}, {"type": "way", "id": 1017674181, "nodes": [9386757425, 9386757426, 9386757427, 9386757428, 9386757425], "tags": {"amenity": "school", "name": "\u062e\u0648\u06ce\u0646\u062f\u0646\u06af\u06d5\u06cc \u0628\u0646\u06d5\u0695\u06d5\u062a\u06cc \u0626\u0627\u0633\u0648\u0648\u062f\u06d5", "name:ckb": "\u062e\u0648\u06ce\u0646\u062f\u0646\u06af\u06d5\u06cc \u0628\u0646\u06d5\u0695\u06d5\u062a\u06cc \u0626\u0627\u0633\u0648\u0648\u062f\u06d5"}}, {"type": "way", "id": 1017675379, "nodes": [9386726059, 9386726060, 9386726061, 9386726062, 9386726059], "tags": {"amenity": "school", "name": "\u062e\u0648\u06ce\u0646\u062f\u0646\u06af\u06d5\u06cc \u0628\u0646\u06d5\u0695\u06d5\u062a\u06cc \u0698\u0627\u0631\u0627\u0648\u06d5", "name:ckb": "\u062e\u0648\u06ce\u0646\u062f\u0646\u06af\u06d5\u06cc \u0628\u0646\u06d5\u0695\u06d5\u062a\u06cc \u0698\u0627\u0631\u0627\u0648\u06d5"}}, {"type": "way", "id": 1017678363, "nodes": [9386760456, 9386760457, 9386760458, 9386760459, 9386760456], "tags": {"alt_name:ckb": "\u062e\u0648\u06ce\u0646\u062f\u0646\u06af\u06d5\u06cc \u0626\u0627\u0645\u0627\u062f\u06d5\u06cc\u06cc \u062f\u06d5\u0631\u0633\u06cc\u0645 - \u062e\u0648\u06ce\u0646\u062f\u0646\u06af\u06d5\u06cc \u0628\u0646\u06d5\u0695\u06d5\u062a\u06cc \u0695\u06d5\u0646\u062c", "amenity": "school", "name": "\u062e\u0648\u06ce\u0646\u062f\u0646\u06af\u06d5\u06cc \u0626\u0627\u0645\u0627\u062f\u06d5\u06cc\u06cc \u0698\u0627\u0631\u0627\u0648\u06d5", "name:ckb": "\u062e\u0648\u06ce\u0646\u062f\u0646\u06af\u06d5\u06cc \u0626\u0627\u0645\u0627\u062f\u06d5\u06cc\u06cc \u0698\u0627\u0631\u0627\u0648\u06d5"}}, {"type": "way", "id": 1146008763, "nodes": [10664560057, 10664560058, 10664560059, 10664560060, 10664560057], "tags": {"alt_name:ckb": "\u062e\u0648\u06ce\u0646\u062f\u0646\u06af\u06d5\u06cc \u0628\u0646\u06d5\u0695\u06d5\u062a\u06cc \u062e\u06d5\u0632\u0627\u0646", "amenity": "school", "name": "\u062e\u0648\u06ce\u0646\u062f\u0646\u06af\u06d5\u06cc \u0628\u0646\u06d5\u0695\u06d5\u062a\u06cc \u0695\u06c6\u0646\u06cc\u0627", "name:ckb": "\u062e\u0648\u06ce\u0646\u062f\u0646\u06af\u06d5\u06cc \u0628\u0646\u06d5\u0695\u06d5\u062a\u06cc \u0695\u06c6\u0646\u06cc\u0627", "name:en": "Ronya Elementary school"}}, {"type": "way", "id": 1146008765, "nodes": [10664560083, 10664560084, 10664560085, 10664560086, 10664560083], "tags": {"alt_name:ckb": "\u062e\u0648\u06ce\u0646\u062f\u0646\u06af\u06d5\u06cc \u0628\u0646\u06d5\u0695\u06d5\u062a\u06cc \u0626\u0627\u06b5\u0627", "amenity": "school", "name": "\u062e\u0648\u06ce\u0646\u062f\u0646\u06af\u06d5\u06cc \u0626\u0627\u0645\u0627\u062f\u06d5\u06cc\u06cc \u0695\u0648\u0648\u0646\u0627\u06a9\u06cc", "name:ckb": "\u062e\u0648\u06ce\u0646\u062f\u0646\u06af\u06d5\u06cc \u0626\u0627\u0645\u0627\u062f\u06d5\u06cc\u06cc \u0695\u0648\u0648\u0646\u0627\u06a9\u06cc"}}, {"type": "way", "id": 1146008773, "nodes": [10664982823, 10664982824, 10664982825, 10664982826, 10664982823], "tags": {"alt_name:ckb": "\u062e\u0648\u06ce\u0646\u062f\u0646\u06af\u06d5\u06cc \u0628\u0646\u06d5\u0695\u06d5\u062a\u06cc \u0647\u06ce\u0645\u0646", "amenity": "school", "name": "\u062e\u0648\u06ce\u0646\u062f\u0646\u06af\u06d5\u06cc \u0626\u0627\u0645\u0627\u062f\u06d5\u06cc\u06cc \u06a9\u06c6\u0633\u0627\u0631", "name:ckb": "\u062e\u0648\u06ce\u0646\u062f\u0646\u06af\u06d5\u06cc \u0626\u0627\u0645\u0627\u062f\u06d5\u06cc\u06cc \u06a9\u06c6\u0633\u0627\u0631"}}, {"type": "way", "id": 1146023169, "nodes": [10665116206, 10665116207, 10665116208, 10665116209, 10665116206], "tags": {"amenity": "school", "name": "\u062e\u0648\u06ce\u0646\u062f\u0646\u06af\u06d5\u06cc \u0626\u0627\u0645\u0627\u062f\u06d5\u06cc\u06cc \u0686\u0648\u0627\u0631\u0642\u0648\u0695\u0646\u06d5", "name:ckb": "\u062e\u0648\u06ce\u0646\u062f\u0646\u06af\u06d5\u06cc \u0626\u0627\u0645\u0627\u062f\u06d5\u06cc\u06cc \u0686\u0648\u0627\u0631\u0642\u0648\u0695\u0646\u06d5"}}, {"type": "way", "id": 1146028311, "nodes": [10665155536, 10665155537, 10665155538, 10665155539, 10665155536], "tags": {"amenity": "school", "name": "\u062e\u0648\u06ce\u0646\u062f\u0646\u06af\u06d5\u06cc \u0628\u0646\u06d5\u0695\u06d5\u062a\u06cc \u0626\u0627\u0644\u0627\u0646", "name:ckb": "\u062e\u0648\u06ce\u0646\u062f\u0646\u06af\u06d5\u06cc \u0628\u0646\u06d5\u0695\u06d5\u062a\u06cc \u0626\u0627\u0644\u0627\u0646"}}, {"type": "way", "id": 1146029902, "nodes": [10665154722, 10665154723, 10665154724, 10665154725, 10665154722], "tags": {"amenity": "school", "name": "\u062e\u0648\u06ce\u0646\u062f\u0646\u06af\u06d5\u06cc \u0628\u0646\u06d5\u0695\u06d5\u062a\u06cc \u0645\u06d5\u06b5\u0628\u06d5\u0646\u062f", "name:ckb": "\u062e\u0648\u06ce\u0646\u062f\u0646\u06af\u06d5\u06cc \u0628\u0646\u06d5\u0695\u06d5\u062a\u06cc \u0645\u06d5\u06b5\u0628\u06d5\u0646\u062f", "name:en": "Malband Basic School"}}, {"type": "way", "id": 1146674638, "nodes": [10670796541, 10670796542, 10670796544, 10670796543, 10670796541], "tags": {"amenity": "school", "name": "\u062e\u0648\u06ce\u0646\u062f\u0646\u06af\u06d5\u06cc \u0626\u0627\u0645\u0627\u062f\u06d5\u06cc\u06cc \u0628\u062a\u0648\u06ce\u0646", "name:ckb": "\u062e\u0648\u06ce\u0646\u062f\u0646\u06af\u06d5\u06cc \u0626\u0627\u0645\u0627\u062f\u06d5\u06cc\u06cc \u0628\u062a\u0648\u06ce\u0646", "name:en": "Bitwen High School"}}, {"type": "way", "id": 1146694588, "nodes": [10670919243, 10670919244, 10670919245, 10670919246, 10670919243], "tags": {"amenity": "school", "name": "\u062e\u0648\u06ce\u0646\u062f\u0646\u06af\u06d5\u06cc \u0628\u0646\u06d5\u0695\u06d5\u062a\u06cc \u06a9\u0627\u0631\u06c6\u062e", "name:ckb": "\u062e\u0648\u06ce\u0646\u062f\u0646\u06af\u06d5\u06cc \u0628\u0646\u06d5\u0695\u06d5\u062a\u06cc \u06a9\u0627\u0631\u06c6\u062e"}}, {"type": "way", "id": 1146719649, "nodes": [10671068647, 10671068648, 10671068649, 10671068650, 10671068647], "tags": {"amenity": "school", "name": "\u062e\u0648\u06ce\u0646\u062f\u0646\u06af\u06d5\u06cc \u0628\u0646\u06d5\u0695\u06d5\u062a\u06cc \u06a9\u0627\u0648\u06d5", "name:ckb": "\u062e\u0648\u06ce\u0646\u062f\u0646\u06af\u06d5\u06cc \u0628\u0646\u06d5\u0695\u06d5\u062a\u06cc \u06a9\u0627\u0648\u06d5"}}, {"type": "way", "id": 1146719651, "nodes": [10671068673, 10671068674, 10671068675, 10671068676, 10671068673], "tags": {"alt_name:ckb": "\u062e\u0648\u06ce\u0646\u062f\u0646\u06af\u06d5\u06cc \u0628\u0646\u06d5\u0695\u06d5\u062a\u06cc \u0628\u06d5\u0631\u0647\u06d5\u0645", "amenity": "school", "name": "\u062e\u0648\u06ce\u0646\u062f\u0646\u06af\u06d5\u06cc \u0626\u0627\u0645\u0627\u062f\u06d5\u06cc\u06cc \u0626\u0627\u0634\u062a\u06cc", "name:ckb": "\u062e\u0648\u06ce\u0646\u062f\u0646\u06af\u06d5\u06cc \u0626\u0627\u0645\u0627\u062f\u06d5\u06cc\u06cc \u0626\u0627\u0634\u062a\u06cc"}}, {"type": "way", "id": 1147062630, "nodes": [10673870857, 10673870858, 10673870859, 10673870860, 10673870857], "tags": {"amenity": "school", "name": "\u062e\u0648\u06ce\u0646\u062f\u0646\u06af\u06d5\u06cc \u0628\u0646\u06d5\u0695\u06d5\u062a\u06cc \u0686\u0648\u0627\u0631\u0642\u0648\u0695\u0646\u06d5", "name:ckb": "\u062e\u0648\u06ce\u0646\u062f\u0646\u06af\u06d5\u06cc \u0628\u0646\u06d5\u0695\u06d5\u062a\u06cc \u0686\u0648\u0627\u0631\u0642\u0648\u0695\u0646\u06d5"}}, {"type": "way", "id": 1147071289, "nodes": [10673932860, 10673932861, 10673932862, 10673932863, 10673932864, 10673932860], "tags": {"alt_name:ckb": "\u062e\u0648\u06ce\u0646\u062f\u0646\u06af\u06d5\u06cc \u0628\u0646\u06d5\u0695\u06d5\u062a\u06cc \u062f\u0627\u0631\u06cc\u0627", "amenity": "school", "name": "\u062e\u0648\u06ce\u0646\u062f\u0646\u06af\u06d5\u06cc \u0628\u0646\u06d5\u0695\u06d5\u062a\u06cc \u0626\u0627\u0631\u0627\u0645", "name:ckb": "\u062e\u0648\u06ce\u0646\u062f\u0646\u06af\u06d5\u06cc \u0628\u0646\u06d5\u0695\u06d5\u062a\u06cc \u0626\u0627\u0631\u0627\u0645"}}, {"type": "way", "id": 1147988327, "nodes": [10681236391, 10681236392, 10681236393, 10681236394, 10681236391], "tags": {"amenity": "school", "name": "\u0642\u0648\u062a\u0627\u0628\u062e\u0627\u0646\u06d5\u06cc \u0628\u0646\u06d5\u0695\u06d5\u062a\u06cc \u062f\u06b5\u0632\u0627\u0631", "name:ckb": "\u0642\u0648\u062a\u0627\u0628\u062e\u0627\u0646\u06d5\u06cc \u0628\u0646\u06d5\u0695\u06d5\u062a\u06cc \u062f\u06b5\u0632\u0627\u0631", "name:en": "Dlzar Basic School"}}, {"type": "way", "id": 1147991326, "nodes": [10681256559, 10681256560, 10681256561, 10681256562, 10681256559], "tags": {"amenity": "school", "name": "\u062e\u0648\u06ce\u0646\u062f\u0646\u06af\u06d5\u06cc \u0626\u0627\u0645\u0627\u062f\u06d5\u06cc\u06cc \u062d\u0627\u062c\u06cc\u0627\u0648\u0627", "name:ckb": "\u062e\u0648\u06ce\u0646\u062f\u0646\u06af\u06d5\u06cc \u0626\u0627\u0645\u0627\u062f\u06d5\u06cc\u06cc \u062d\u0627\u062c\u06cc\u0627\u0648\u0627", "name:en": "Hajiawa High School"}}, {"type": "way", "id": 1147997060, "nodes": [10681303772, 10681303773, 10681303774, 10681303775, 10681303772], "tags": {"alt_name:ckb": "\u0642\u0648\u062a\u0627\u0628\u062e\u0627\u0646\u06d5\u06cc \u0628\u0646\u06d5\u0695\u06d5\u062a\u06cc \u0634\u06cc\u0634\u0627\u0631", "alt_name:en": "Shishar Basic School", "amenity": "school", "name": "\u0642\u0648\u062a\u0627\u0628\u062e\u0627\u0646\u06d5\u06cc \u0628\u0646\u06d5\u0695\u06d5\u062a\u06cc \u062e\u06d5\u0631\u0645\u0627\u0646", "name:ckb": "\u0642\u0648\u062a\u0627\u0628\u062e\u0627\u0646\u06d5\u06cc \u0628\u0646\u06d5\u0695\u06d5\u062a\u06cc \u062e\u06d5\u0631\u0645\u0627\u0646", "name:en": "Xarman Basic School"}}, {"type": "way", "id": 1147997061, "nodes": [10681303787, 10681303788, 10681303789, 10681303790, 10681303787], "tags": {"amenity": "school", "name": "\u062e\u0648\u06ce\u0646\u062f\u0646\u06af\u06d5\u06cc \u0626\u0627\u0645\u0627\u062f\u06d5\u06cc\u06cc \u0633\u06d5\u0631\u062f\u06d5\u0645", "name:ckb": "\u062e\u0648\u06ce\u0646\u062f\u0646\u06af\u06d5\u06cc \u0626\u0627\u0645\u0627\u062f\u06d5\u06cc\u06cc \u0633\u06d5\u0631\u062f\u06d5\u0645", "name:en": "Sardam High School"}}]}