{"version": 0.6, "generator": "Overpass API 0.7.61.5 4133829e", "osm3s": {"timestamp_osm_base": "2024-03-06T11:17:45Z", "copyright": "The data included in this document is from www.openstreetmap.org. The data is made available under ODbL."}, "elements": [{"type": "node", "id": 2482622954, "lat": 35.5023122, "lon": 43.4852615, "tags": {"alt_name": "\u0642\u0631\u064a\u0629 \u0645\u0646\u062f\u064a\u0627\u0646\u0629 \u063a\u0631\u0628\u064a", "int_name": "Qaryat Mindiy\u0101nah Gharb\u012b, \u0642\u0631\u064a\u0629 \u0645\u0646\u062f\u064a\u0627\u0646\u0629 \u063a\u0631\u0628\u064a, Qaryat Mindiyanah Gharbi, \u0642\u0631\u064a\u0629 \u0645\u0646\u062f\u064a\u0627\u0646\u0629 \u063a\u0631\u0628\u064a", "name": "\u0642\u0631\u064a\u0629 \u0645\u0646\u062f\u064a\u0627\u0646\u0629 \u063a\u0631\u0628\u064a", "name:ar": "\u0642\u0631\u064a\u0629 \u0645\u0646\u062f\u064a\u0627\u0646\u0629 \u063a\u0631\u0628\u064a", "name:ar1": "\u0642\u0631\u064a\u0629 \u0645\u0646\u062f\u064a\u0627\u0646\u0629 \u063a\u0631\u0628\u064a", "name:de": "Qaryat Mindiyanah Gharbi", "name:en": "Qaryat Mindiyanah Gharbi", "name:fr": "Qaryat Mindiyanah Gharbi", "place": "village"}}, {"type": "node", "id": 2482622955, "lat": 35.5005362, "lon": 43.4709265, "tags": {"alt_name": "\u0642\u0631\u064a\u0629 \u0645\u0646\u062f\u064a\u0627\u0646\u0629 \u0634\u0631\u0642\u064a", "int_name": "Qaryat Mindiy\u0101nah Sharq\u012b, \u0642\u0631\u064a\u0629 \u0645\u0646\u062f\u064a\u0627\u0646\u0629 \u0634\u0631\u0642\u064a, Qaryat Mindiyanah Sharqi, \u0642\u0631\u064a\u0629 \u0645\u0646\u062f\u064a\u0627\u0646\u0629 \u0634\u0631\u0642\u064a", "name": "\u0642\u0631\u064a\u0629 \u0645\u0646\u062f\u064a\u0627\u0646\u0629 \u0634\u0631\u0642\u064a", "name:ar": "\u0642\u0631\u064a\u0629 \u0645\u0646\u062f\u064a\u0627\u0646\u0629 \u0634\u0631\u0642\u064a", "name:ar1": "\u0642\u0631\u064a\u0629 \u0645\u0646\u062f\u064a\u0627\u0646\u0629 \u0634\u0631\u0642\u064a", "name:de": "Qaryat Mindiyanah Sharqi", "name:en": "Qaryat Mindiyanah Sharqi", "name:fr": "Qaryat Mindiyanah Sharqi", "place": "village"}}, {"type": "node", "id": 2482622956, "lat": 35.482012, "lon": 43.508942, "tags": {"admin_level": "9", "alt_name": "\u0634\u0646\u0627\u0648\u06d5", "name": "\u0634\u0646\u0627\u0648\u06d5", "name:ckb": "\u0634\u0646\u0627\u0648\u06d5", "name:de": "Shinawa", "name:en": "Shinawa", "name:fr": "Shinawa", "place": "village"}}, {"type": "node", "id": 2482622957, "lat": 35.522014, "lon": 43.472514, "tags": {"alt_name": "\u0627\u0644\u062d\u062f\u064a\u0642\u0629", "int_name": "\u1e28ad\u012bqah, \u0627\u0644\u062d\u062f\u064a\u0642\u0629, Hadiqah", "name": "\u0627\u0644\u062d\u062f\u064a\u0642\u0629", "name:ar": "\u0627\u0644\u062d\u062f\u064a\u0642\u0629", "name:de": "Hadiqah", "name:en": "Hadiqah", "name:fr": "Hadiqah", "place": "village"}}, {"type": "node", "id": 2482622984, "lat": 35.5124043, "lon": 43.545182, "tags": {"admin_level": "9", "alt_name": "\u06af\u0648\u0646\u062f\u06cc \u0639\u06d5\u0631\u06d5\u0628\u06c6\u06a9", "name": "\u0639\u06d5\u0631\u06d5\u0628\u06c6\u06a9", "name:ckb": "\u0639\u06d5\u0631\u06d5\u0628\u06c6\u06a9", "name:de": "Arabok", "name:en": "Arabok", "name:fr": "Arabok", "place": "village"}}, {"type": "node", "id": 2482623695, "lat": 35.6150079, "lon": 43.6335722, "tags": {"admin_level": "9", "alt_name": "\u06af\u0648\u0646\u062f\u06cc \u0642\u0648\u0686 \u0633\u067e\u06cc\u0644\u06a9\u06d5", "name": "\u0642\u0648\u0686 \u0633\u067e\u06cc\u0644\u06a9\u06d5", "name:ar": "\u0642\u0648\u0686 \u0633\u067e\u06cc\u0644\u06a9\u06d5", "name:ckb": "\u0642\u0648\u0686 \u0633\u067e\u06cc\u0644\u06a9\u06d5", "name:de": "Quch Spilka", "name:en": "Quch Spilka", "name:fr": "Quch Spilka", "place": "village"}}, {"type": "node", "id": 2482623701, "lat": 35.589722, "lon": 43.601944, "tags": {"name": "\u0627\u0644\u0645\u0627\u062c\u064a\u0631", "name:ar": "\u0627\u0644\u0645\u0627\u062c\u064a\u0631", "name:de": "Majir", "name:en": "Majir", "name:fr": "Majir", "place": "village"}}, {"type": "node", "id": 2482623703, "lat": 35.589306, "lon": 43.6018273, "tags": {"name": "\u0627\u0644\u0645\u0627\u062c\u064a\u0631\u0629", "name:ar": "\u0627\u0644\u0645\u0627\u062c\u064a\u0631\u0629", "name:de": "Majira", "name:en": "Majira", "name:fr": "Majira", "place": "village"}}, {"type": "node", "id": 2482623706, "lat": 35.588497, "lon": 43.598385, "tags": {"alt_name": "\u0644\u0643\u062c\u0629", "int_name": "L\u0101kchah, Lakjah, Likcha, \u0644\u0643\u062c\u0629, Lakchah, Lakjah, Likcha, \u0644\u0643\u062c\u0629", "name": "\u0644\u0643\u062c\u0629", "name:ar": "\u0644\u0643\u062c\u0629", "name:de": "Lakchah", "name:en": "Lakchah", "name:fr": "Lakchah", "place": "village"}}, {"type": "node", "id": 2482623707, "lat": 35.5901963, "lon": 43.602469, "tags": {"name": "\u0645\u0644\u0645\u0627\u062c\u064a\u0631", "name:ar": "\u0645\u0644\u0645\u0627\u062c\u064a\u0631", "name:de": "Malmajir", "name:en": "Malmajir", "name:fr": "Malmajir", "place": "village"}}, {"type": "node", "id": 2482624304, "lat": 35.575429, "lon": 43.550997, "tags": {"alt_name": "\u06af\u0631\u062f\u06d5 \u06be\u0627\u0631\u06d5", "name": "\u06af\u0631\u062f\u06d5 \u06be\u0627\u0631\u06d5", "name:ckb": "\u06af\u0631\u062f\u06d5 \u06be\u0627\u0631\u06d5", "name:de": "Girda Har", "name:en": "Girda Har", "name:fr": "Girda Har", "place": "village"}}, {"type": "node", "id": 2482624305, "lat": 35.5745095, "lon": 43.552123, "tags": {"alt_name": "\u06af\u0631\u062f\u06d5\u0631\u06d5", "name": "\u06af\u0631\u062f\u06d5\u0631\u06d5", "name:ckb": "\u06af\u0631\u062f\u06d5\u0631\u06d5", "name:de": "Kirdarah", "name:en": "Kirdarah", "name:fr": "Kirdarah", "place": "village"}}, {"type": "node", "id": 2482624446, "lat": 35.5421413, "lon": 43.595713, "tags": {"int_name": "Kird Kal\u012b Kh\u0101n, Kird Kali Khan", "name": "\u06af\u0631\u062f\u06cc \u06a9\u06d5\u0644\u06cc \u062e\u0627\u0646", "name:ar": "\u0643\u0631\u062f \u0643\u0644\u064a \u062e\u0627\u0646", "name:ckb": "\u06af\u0631\u062f\u06cc \u06a9\u06d5\u0644\u06cc \u062e\u0627\u0646", "name:de": "Kird Kali Khan", "name:en": "Kird Kali Khan", "name:fr": "Kird Kali Khan", "place": "village"}}, {"type": "node", "id": 2482624447, "lat": 35.541667, "lon": 43.595, "tags": {"name": "\u0643\u0631\u062f \u0643\u0627\u0646", "name:ar": "\u0643\u0631\u062f \u0643\u0627\u0646", "name:de": "Kird Kan", "name:en": "Kird Kan", "name:fr": "Kird Kan", "place": "village"}}, {"type": "node", "id": 2482624768, "lat": 35.5614738, "lon": 43.6005278, "tags": {"admin_level": "9", "name": "\u0628\u0627\u0634\u0628\u06d5\u0646\u062f", "name:ar": "\u0628\u0627\u0634 \u0628\u0646\u062f", "name:ckb": "\u0628\u0627\u0634\u0628\u06d5\u0646\u062f", "name:de": "Bashband", "name:en": "Bashband", "place": "village"}}, {"type": "node", "id": 2482624773, "lat": 35.5405239, "lon": 43.6543292, "tags": {"alt_name": "\u062f\u06cc\u0646\u06a9\u0627\u0648\u06d5", "name": "\u062f\u06cc\u0646\u06a9\u0627\u0648\u06d5", "name:ckb": "\u062f\u06cc\u0646\u06a9\u0627\u0648\u06d5", "name:de": "Dinkawa", "name:en": "Dinkawa", "name:fr": "Dinkawa", "place": "village"}}, {"type": "node", "id": 2482624778, "lat": 35.5957361, "lon": 43.6496689, "tags": {"admin_level": "9", "alt_name": "\u06af\u0648\u0646\u062f\u06cc \u06af\u0631\u062f\u06d5\u0628\u06c6\u0631", "name": "\u06af\u0631\u062f\u06d5\u0628\u06c6\u0631", "name:ar": "\u0643\u0631\u062f\u0629 \u0628\u0648\u0631", "name:ckb": "\u06af\u0631\u062f\u06d5\u0628\u06c6\u0631", "name:de": "Girda Bor", "name:en": "Girda Bor", "name:fr": "Girda Bor", "place": "village"}}, {"type": "node", "id": 2482624783, "lat": 35.5948914, "lon": 43.6168973, "tags": {"admin_level": "9", "alt_name": "\u06af\u0648\u0646\u062f\u06cc \u06af\u0631\u062f\u06d5\u0686\u0627\u06b5", "name": "\u06af\u0631\u062f\u06d5\u0686\u0627\u06b5", "name:ckb": "\u06af\u0631\u062f\u06d5\u0686\u0627\u06b5", "name:de": "Girda Chal", "name:en": "Girda Chal", "name:fr": "Girda Chal", "place": "village"}}, {"type": "node", "id": 2482624786, "lat": 35.540448, "lon": 43.591444, "tags": {"name": "\u062e\u0646\u062f\u0642 \u064a\u0627\u0633\u064a\u0646", "name:ar": "\u062e\u0646\u062f\u0642 \u064a\u0627\u0633\u064a\u0646", "name:de": "Khandaq", "name:en": "Khandaq", "name:fr": "Khandaq", "place": "village"}}, {"type": "node", "id": 2482624787, "lat": 35.60557, "lon": 43.531373, "tags": {"alt_name": "\u062e\u0631\u0628\u0627\u0646\u064a", "int_name": "Kharb\u0101n\u012b, Kharp\u0101n\u012b, Kharpany, \u062e\u0631\u0628\u0627\u0646\u064a, Kharbani, Kharpani, Kharpany, \u062e\u0631\u0628\u0627\u0646\u064a", "name": "\u062e\u0631\u0628\u0627\u0646\u06cc", "name:de": "Kharbani", "name:en": "Kharbani", "name:fr": "Kharbani", "place": "village"}}, {"type": "node", "id": 2482624791, "lat": 35.5436649, "lon": 43.6270231, "tags": {"admin_level": "9", "alt_name": "\u06af\u0631\u062f \u06af\u0644\u06cc\u062e\u06d5", "name": "\u06af\u0631\u062f \u06af\u0644\u06cc\u062e\u06d5", "name:ckb": "\u06af\u0631\u062f \u06af\u0644\u06cc\u062e\u06d5", "name:de": "Grd Glixa", "name:en": "Grd Glixa", "place": "village"}}, {"type": "node", "id": 2482624792, "lat": 35.586944, "lon": 43.546944, "tags": {"alt_name": "\u0645\u062d\u0645\u0648\u062f", "int_name": "Mahmud, Ma\u1e29m\u016bd, Mahmud, Mahmud", "name": "\u0645\u062d\u0645\u0648\u062f", "name:de": "Mahmud", "name:en": "Mahmud", "name:fr": "Mahmud", "place": "village"}}, {"type": "node", "id": 2482624800, "lat": 35.5643612, "lon": 43.6088007, "tags": {"admin_level": "9", "name": "\u0628\u0627\u0634 \u062a\u0628\u0629", "place": "village"}}, {"type": "node", "id": 2482625007, "lat": 35.620248, "lon": 43.583011, "tags": {"admin_level": "9", "name": "\u06af\u0648\u0644\u06af\u0627\u0645\u0634", "name:ar": "\u0643\u0648\u0644 \u0643\u0627\u0645\u064a\u0634\u0629", "name:ckb": "\u06af\u0648\u0644\u06af\u0627\u0645\u0634", "name:de": "Gulgamsh", "name:en": "Gulgamsh", "name:fr": "Gulgamsh", "place": "village"}}, {"type": "node", "id": 2482625014, "lat": 35.624208, "lon": 43.543002, "tags": {"name": "\u0695\u0648\u0627\u06b5\u06d5", "name:de": "Ruala", "name:en": "Ruala", "name:fr": "Ruala", "place": "village"}}, {"type": "node", "id": 2482625739, "lat": 35.630863, "lon": 43.784173, "tags": {"alt_name": "\u0628\u0626\u0631 \u0645\u0647\u064a\u062f\u064a", "int_name": "Bir Muhayd\u012b, Saidy, \u0628\u0626\u0631 \u0645\u0647\u064a\u062f\u064a, Bir Muhaydi, Saidy, \u0628\u0626\u0631 \u0645\u0647\u064a\u062f\u064a", "name": "\u0633\u06d5\u06cc\u062f\u06cc", "name:ar": "\u0633\u06cc\u062f\u064a", "name:ar1": "\u0628\u0626\u0631 \u0645\u0647\u064a\u062f\u064a", "name:de": "Saydi", "name:en": "Saydi", "name:fr": "Saydi", "place": "village"}}, {"type": "node", "id": 2482625743, "lat": 35.625, "lon": 43.661111, "tags": {"alt_name": "\u062c\u0627\u0628\u0644\u064a", "int_name": "Ch\u0101pl\u012b, J\u0101bl\u012b, J\u0101pl\u012b, Chapli, Jabli, Japli", "name": "\u062c\u0627\u0628\u0644\u064a", "name:de": "Chapli", "name:en": "Chapli", "name:fr": "Chapli", "place": "hamlet"}}, {"type": "node", "id": 2482625745, "lat": 35.568813, "lon": 43.7302901, "tags": {"alt_name": "\u062f\u0648\u0648\u0633\u06d5\u0631\u06d5\u06cc \u062e\u0648\u0627\u0631\u0648\u0648", "int_name": "D\u016bsrat as Sufl\u00e1, Dwsara, \u062f\u0648\u0633\u0631\u0629 \u0627\u0644\u0633\u0641\u0644\u0649, Dusrat as Sufla, Dwsara, \u062f\u0648\u0633\u0631\u0629 \u0627\u0644\u0633\u0641\u0644\u0649", "name": "\u062f\u0648\u0648\u0633\u06d5\u0631\u06d5\u06cc \u062e\u0648\u0627\u0631\u06cc\u0646", "name:ar": "\u062f\u0648\u0633\u0631\u0629 \u0627\u0644\u0633\u0641\u0644\u0649", "name:ckb": "\u062f\u0648\u0648\u0633\u06d5\u0631\u06d5\u06cc \u062e\u0648\u0627\u0631\u06cc\u0646", "name:en": "Lower Dusara", "name:ku": "D\u00fbsereya J\u00ear\u00een", "place": "village"}}, {"type": "node", "id": 2482625749, "lat": 35.6373605, "lon": 43.7787063, "tags": {"name": "\u06a9\u06b5\u0627\u0634\u062e\u0627\u0646\u06d5", "name:ar": "\u0643\u0644\u0627\u0634 \u062e\u0627\u0646\u0629", "name:de": "Kalash Khanah", "name:en": "Kalash Khanah", "name:fr": "Kalash Khanah", "place": "village"}}, {"type": "node", "id": 2482625754, "lat": 35.5850077, "lon": 43.7919563, "tags": {"alt_name": "\u0642\u0644\u0627\u062a\u0629 \u0633\u0648\u0631\u0627\u0646 \u0628\u0627\u0645\u0646\u062f", "int_name": "Qalata, Qal\u0101tah S\u016br\u0101n B\u0101mand, \u0642\u0644\u0627\u062a\u0629 \u0633\u0648\u0631\u0627\u0646 \u0628\u0627\u0645\u0646\u062f, Qalata, Qalatah Suran Bamand, \u0642\u0644\u0627\u062a\u0629 \u0633\u0648\u0631\u0627\u0646 \u0628\u0627\u0645\u0646\u062f", "name": "\u0642\u0644\u0627\u062a\u0629 \u0633\u0648\u0631\u0627\u0646 \u0628\u0627\u0645\u0646\u062f", "name:ar": "\u0642\u0644\u0627\u062a\u0629 \u0633\u0648\u0631\u0627\u0646 \u0628\u0627\u0645\u0646\u062f", "name:ar1": "\u0642\u0644\u0627\u062a\u0629 \u0633\u0648\u0631\u0627\u0646 \u0628\u0627\u0645\u0646\u062f", "name:de": "Qalata", "name:en": "Qalata", "name:fr": "Qalata", "place": "village"}}, {"type": "node", "id": 2482625763, "lat": 35.6164758, "lon": 43.6901693, "tags": {"admin_level": "9", "alt_name": "\u067e\u0648\u0648\u0646\u06af\u06cc\u0646\u06d5", "int_name": "\u067e\u0648\u0648\u0646\u06af\u06cc\u0646\u06d5", "name": "\u067e\u0648\u0646\u062c\u06cc\u0646\u06d5", "name:ckb": "\u067e\u0648\u0648\u0646\u062c\u06cc\u0646\u06d5", "place": "village"}}, {"type": "node", "id": 2482626194, "lat": 35.5619611, "lon": 43.8075035, "tags": {"alt_name": "\u062d\u0645\u0632\u0629 \u0622\u063a\u0627", "int_name": "Hamza Agha, \u1e28amzat \u0100gh\u0101, \u062d\u0645\u0632\u0629 \u0622\u063a\u0627, Hamza Agha, Hamzat Agha, \u062d\u0645\u0632\u0629 \u0622\u063a\u0627", "name": "\u06be\u06d5\u0645\u0632\u06d5 \u0626\u0627\u063a\u0627", "name:ckb": "\u06be\u06d5\u0645\u0632\u06d5 \u0626\u0627\u063a\u0627", "name:en": "Hamza Agha", "name:ku": "Hemze Axa", "place": "village"}}, {"type": "node", "id": 2482637165, "lat": 35.5098037, "lon": 43.8116405, "tags": {"int_name": "Utehra, \u0639\u0637\u064a\u0631\u0629", "name": "\u0639\u0637\u064a\u0631\u0629", "name:ckb": "\u0639\u062a\u06ce\u0631\u06d5", "name:en": "Utehra", "place": "village"}}, {"type": "node", "id": 2482637168, "lat": 35.5198427, "lon": 43.8734869, "tags": {"int_name": "Batma, \u0628\u0637\u0645\u0629", "name": "\u0628\u0637\u0645\u0629", "name:en": "Batma", "place": "village"}}, {"type": "node", "id": 2482637170, "lat": 35.5006452, "lon": 43.9106258, "tags": {"alt_name": "\u062f\u062d\u0627\u0645", "int_name": "Daham, Da\u1e29\u0101m, \u062f\u062d\u0627\u0645, Daham, Daham, \u062f\u062d\u0627\u0645", "name": "\u062f\u062d\u0627\u0645", "name:ar": "\u062f\u062d\u0627\u0645", "name:ar1": "\u062f\u062d\u0627\u0645", "name:de": "Daham", "name:en": "Daham", "name:fr": "Daham", "place": "village"}}, {"type": "node", "id": 2482637191, "lat": 35.5683044, "lon": 43.9028515, "tags": {"int_name": "Garraw, \u06af\u06d5\u0695\u0627\u0648, kraw", "name": "\u06af\u0695\u0627\u0648", "name:ar": "\u06a9\u064e\u0631\u0627\u0648", "name:ckb": "\u06af\u06d5\u0695\u0627\u0648", "name:en": "Graw", "name:ku": "Grraw", "place": "village"}}, {"type": "node", "id": 2482637192, "lat": 35.6073726, "lon": 43.9180068, "tags": {"alt_name": "\u0643\u0632\u0648\u0634\u0627\u0646", "int_name": "Gazwashan, J\u012bzw\u0101sh\u0101n, Kazwash\u0101n, Qazwashan, \u0643\u0632\u0648\u0634\u0627\u0646, Gazwashan, Jizwashan, Kazwashan, Qazwashan, \u0643\u0632\u0648\u0634\u0627\u0646", "name": "\u06af\u06d5\u0632\u0648\u06d5\u0634\u0627\u0646", "name:ar": "\u0643\u0632\u0648\u0634\u0627\u0646", "name:ar1": "\u0643\u0632\u0648\u0634\u0627\u0646", "name:de": "Gazwashan", "name:en": "Gazwashan", "name:fr": "Gazwashan", "place": "village"}}, {"type": "node", "id": 2482637193, "lat": 35.6230244, "lon": 43.9404929, "tags": {"int_name": "Ges\u016bma, \u06af\u06ce\u0633\u0648\u0645\u06d5\u060c \u0643\u064a\u0635\u0648\u0645\u0629", "name": "\u06af\u06ce\u0633\u0645\u06d5", "name:ar": "\u0643\u064a\u0635\u0648\u0645\u0647", "name:ckb": "\u06af\u06ce\u0633\u0648\u0645\u06d5", "name:de": "Gesuma", "name:en": "Gesuma", "name:fr": "Gesuma", "name:ku": "G\u00easume", "place": "village"}}, {"type": "node", "id": 2482637194, "lat": 35.5400909, "lon": 43.8523365, "tags": {"name": "\u062d\u06d5\u0633\u0627\u0631\u06c6\u06a9", "name:ar": "\u062d\u0633\u0627\u0631\u0648\u0643", "name:ckb": "\u062d\u06d5\u0633\u0627\u0631\u06c6\u06a9", "name:de": "Hasarok", "name:en": "Hasarok", "name:fr": "Hasarok", "name:ku": "Hesarok", "place": "village"}}, {"type": "node", "id": 2482637196, "lat": 35.6143427, "lon": 43.9273677, "tags": {"int_name": "Helala, \u0647\u06d5\u06b5\u0627\u06b5\u06d5", "name": "\u06be\u06d5\u06b5\u0627\u06b5\u06d5", "name:ar": "\u0647\u0644\u0627\u0644\u0629", "name:ckb": "\u06be\u06d5\u06b5\u0627\u06b5\u06d5", "name:en": "Halala", "name:ku": "Hellalle", "place": "village"}}, {"type": "node", "id": 2482637201, "lat": 35.5098239, "lon": 43.8603845, "tags": {"name": "\u0633\u0646 \u0627\u0644\u0630\u0628\u0627\u0646", "name:ckb": "\u0633\u0648\u0646 \u0632\u0648\u0628\u0646", "name:en": "Sun Al-Zubn", "place": "village"}}, {"type": "node", "id": 2482637217, "lat": 35.4924781, "lon": 43.7807188, "tags": {"int_name": "Hilwa Al-Ulya, \u062d\u0644\u0648\u0629 \u0627\u0644\u0639\u0644\u064a\u0627", "name": "\u062d\u0644\u0648\u0629 \u0627\u0644\u0639\u0644\u064a\u0627", "name:ckb": "\u062d\u0644\u0648\u06d5\u06cc \u0633\u06d5\u0631\u0648\u0648", "name:en": "Hilwa Al-Ulya", "place": "village"}}, {"type": "node", "id": 2482637222, "lat": 35.5787673, "lon": 43.9269194, "tags": {"int_name": "Twelha, \u0637\u0648\u064a\u0644\u0639\u0629", "name": "\u0637\u0648\u064a\u0644\u0639\u0629", "name:en": "Twelha", "place": "village"}}, {"type": "node", "id": 2482639663, "lat": 35.3695562, "lon": 43.7641091, "tags": {"alt_name": "\u0642\u0631\u064a\u0629 \u0639\u0644\u064a\u0627\u0648\u0629", "int_name": "Qaryat Aly\u0101wah, \u0642\u0631\u064a\u0629 \u0639\u0644\u064a\u0627\u0648\u0629, Qaryat Alyawah, \u0642\u0631\u064a\u0629 \u0639\u0644\u064a\u0627\u0648\u0629", "name": "\u0639\u0644\u064a\u0627\u0648\u0629", "name:ckb": "\u0639\u06d5\u0644\u06cc\u0627\u0648\u06d5", "name:en": "Aliawa", "place": "village"}}, {"type": "node", "id": 2482639697, "lat": 35.4533781, "lon": 43.7329102, "tags": {"int_name": "Hilwa AL-Sufla, \u062d\u0644\u0648\u0629 \u0627\u0644\u0633\u0641\u0644\u0649", "name": "\u062d\u0644\u0648\u0629 \u0627\u0644\u0633\u0641\u0644\u0649", "name:ckb": "\u062d\u0644\u0648\u06d5\u06cc \u062e\u0648\u0627\u0631\u0648\u0648", "name:en": "Hilwa AL-Sufla", "place": "village"}}, {"type": "node", "id": 2482639744, "lat": 35.3738514, "lon": 43.7342614, "tags": {"alt_name": "\u0642\u0631\u064a\u0629 \u0627\u0644\u0623\u0645\u064a\u0646\u0629", "int_name": "Qaryat al Am\u012bnah, \u0642\u0631\u064a\u0629 \u0627\u0644\u0627\u0645\u064a\u0646\u0629, Qaryat al Aminah, \u0642\u0631\u064a\u0629 \u0627\u0644\u0627\u0645\u064a\u0646\u0629", "name": "\u0622\u0645\u06cc\u0646\u0629", "name:ar1": "\u0642\u0631\u064a\u0629 \u0627\u0644\u0623\u0645\u064a\u0646\u0629", "name:ckb": "\u0626\u0627\u0645\u06cc\u0646\u06d5", "name:de": "Aminah", "name:en": "Aminah", "name:fr": "Aminah", "place": "village"}}, {"type": "node", "id": 2482639808, "lat": 35.3703477, "lon": 43.7773377, "tags": {"alt_name": "\u0642\u0631\u064a\u0629 \u0627\u0644\u0645\u0635\u0641\u0629 \u0627\u0644\u0648\u0633\u0637\u0649", "int_name": "Qaryat al Ma\u015ffat al Wus\u0163\u00e1, \u0642\u0631\u064a\u0629 \u0627\u0644\u0645\u0635\u0641\u0629 \u0627\u0644\u0648\u0633\u0637\u0649, Qaryat al Masfat al Wusta, \u0642\u0631\u064a\u0629 \u0627\u0644\u0645\u0635\u0641\u0629 \u0627\u0644\u0648\u0633\u0637\u0649", "name": "\u0645\u0635\u0646\u0639\u0629", "name:ar1": "\u0642\u0631\u064a\u0629 \u0627\u0644\u0645\u0635\u0641\u0629 \u0627\u0644\u0648\u0633\u0637\u0649", "name:ckb": "\u0645\u06d5\u0633\u0646\u06d5\u0639\u06d5", "name:de": "Masn\u00e0a", "name:en": "Masn\u00e0a", "name:fr": "Masn\u00e0a", "place": "village"}}, {"type": "node", "id": 2482641169, "lat": 35.5379706, "lon": 43.7533148, "tags": {"alt_name": "\u0643\u0631\u0631\u0647 \u0631\u0648\u062f", "int_name": "Girdarwa, Kud\u012b R\u016bn, Kurarah R\u016bd, Kurd\u012b R\u016b\u012b, \u0643\u0631\u0631\u0647 \u0631\u0648\u062f, Girdarwa, Kudi Run, Kurarah Rud, Kurdi Rui, \u0643\u0631\u0631\u0647 \u0631\u0648\u062f", "name": "\u06af\u0631\u062f\u06d5\u0695\u06d5\u0648\u06d5", "name:ar": "\u0643\u0631\u062f\u064e\u0631\u064e\u0648\u0629", "name:ckb": "\u06af\u0631\u062f\u06d5\u0695\u06d5\u0648\u06d5", "name:de": "Grdarawa", "name:en": "Grdarawa", "name:fr": "Grdarawa", "name:ku": "Girderrewe", "place": "village"}}, {"type": "node", "id": 2482641172, "lat": 35.4719692, "lon": 43.7531378, "tags": {"int_name": "Hilwa AL-Wusta, \u062d\u0644\u0648\u0629 \u0627\u0644\u0648\u0633\u0637\u0649", "name": "\u062d\u0644\u0648\u0629 \u0627\u0644\u0648\u0633\u0637\u0649", "name:ckb": "\u062d\u0644\u0648\u06d5\u06cc \u0646\u0627\u0648\u06d5\u0695\u0627\u0633\u062a", "name:en": "Hilwa AL-Wusta", "place": "village"}}, {"type": "node", "id": 2482641177, "lat": 35.4158167, "lon": 43.7177801, "tags": {"alt_name": "\u0647\u0631\u0645\u0632", "int_name": "Hirmiz, Hurmuz, Hirmiz, Hurmuz", "name": "\u0635\u062f\u0631 \u0627\u0644\u0646\u0647\u0631", "name:ar1": "\u0647\u0631\u0645\u0632", "name:ckb": "\u0633\u06d5\u062f\u0631\u0644\u0646\u06d5\u0647\u0631", "name:en": "Sadr Al-nahr", "place": "village"}}, {"type": "node", "id": 2482641181, "lat": 35.5119613, "lon": 43.7223108, "tags": {"alt_name": "\u062c\u062f\u064a\u062f\u0629", "int_name": "Jad\u012bdah, Taza, \u062c\u062f\u064a\u062f\u0629, Jadidah, Taza, \u062c\u062f\u064a\u062f\u0629", "name": "\u062c\u06d5\u062f\u06cc\u062f\u06d5", "name:ar": "\u062c\u062f\u064a\u062f\u0629", "name:ar1": "\u062c\u062f\u064a\u062f\u0629", "name:de": "Jadidah", "name:en": "Jadidah", "name:fr": "Jadidah", "place": "village"}}, {"type": "node", "id": 2482641186, "lat": 35.3841148, "lon": 44.0058808, "tags": {"alt_name": "\u062e\u0632\u064a\u0641\u064a", "int_name": "Kharify, Khuzayf\u012b, Kharify, Khuzayfi", "name": "\u062e\u0632\u064a\u0641\u064a", "name:ar1": "\u062e\u0632\u064a\u0641\u064a", "name:ckb": "\u062e\u0632\u064a\u0641\u064a", "name:de": "Khazefi", "name:en": "Khazefi", "name:fr": "Kharify", "place": "village"}}, {"type": "node", "id": 2482641189, "lat": 35.4947503, "lon": 43.8401977, "tags": {"int_name": "M\u0101\u1e29\u016bz, Qaryat M\u0101\u1e29\u016bz, \u0642\u0631\u064a\u0629 \u0645\u0627\u062d\u0648\u0632, Mahuz, Qaryat Mahuz, \u0642\u0631\u064a\u0629 \u0645\u0627\u062d\u0648\u0632", "name": "\u0645\u0627\u062d\u0648\u0632", "name:ckb": "\u0645\u0627\u062d\u0648\u0632", "name:en": "Mahuz", "place": "village"}}, {"type": "node", "id": 2482641200, "lat": 35.387793, "lon": 43.691874, "tags": {"alt_name": "\u0642\u0631\u064a\u0629 \u0644\u0632\u0627\u0643\u0629", "int_name": "Qaryat Laz\u0101kah, \u0642\u0631\u064a\u0629 \u0644\u0632\u0627\u0643\u0629, Qaryat Lazakah, \u0642\u0631\u064a\u0629 \u0644\u0632\u0627\u0643\u0629", "name": "\u0644\u0632\u0627\u0643\u0629", "name:ar1": "\u0642\u0631\u064a\u0629 \u0644\u0632\u0627\u0643\u0629", "name:ckb": "\u0644\u06d5\u0632\u0627\u06a9\u06d5", "name:de": "Lazakah", "name:en": "Lazakah", "name:fr": "Lazakah", "place": "village"}}, {"type": "node", "id": 2482641201, "lat": 35.4889344, "lon": 43.9145785, "tags": {"alt_name": "\u0642\u0631\u064a\u0629 \u0646\u0643\u0627\u0631", "int_name": "Qaryat Nak\u0101r, \u0642\u0631\u064a\u0629 \u0646\u0643\u0627\u0631, Qaryat Nakar, \u0642\u0631\u064a\u0629 \u0646\u0643\u0627\u0631", "name": "\u0646\u0643\u0627\u0631", "name:ar": "\u0646\u0643\u0627\u0631", "name:ar1": "\u0642\u0631\u064a\u0629 \u0646\u0643\u0627\u0631", "name:ckb": "\u0646\u06d5\u06a9\u0627\u0631", "name:de": "Nakar", "name:en": "Nakar", "name:fr": "Nakar", "place": "village"}}, {"type": "node", "id": 2482641202, "lat": 35.363741, "lon": 43.711695, "tags": {"name": "\u0642\u0628\u0632\u0648\u0639\u0629", "name:ckb": "\u0642\u06d5\u0628\u0632\u0648\u0639\u06d5", "name:en": "Qabzua", "place": "village"}}, {"type": "node", "id": 2482641207, "lat": 35.4744386, "lon": 43.8127662, "tags": {"alt_name": "\u0642\u0631\u064a\u0629 \u0627\u0644\u062f\u0627\u063a\u064a\u0629", "int_name": "Qaryat ad D\u0101gh\u012byah, \u0642\u0631\u064a\u0629 \u0627\u0644\u062f\u0627\u063a\u064a\u0629, Qaryat ad Daghiyah, \u0642\u0631\u064a\u0629 \u0627\u0644\u062f\u0627\u063a\u064a\u0629", "name": "\u062f\u0627\u063a\u06cc\u0629", "name:ar1": "\u0642\u0631\u064a\u0629 \u0627\u0644\u062f\u0627\u063a\u064a\u0629", "name:ckb": "\u062f\u0627\u063a\u06cc\u06d5", "name:de": "Daghiyah", "name:en": "Daghiyah", "name:fr": "Daghiyah", "place": "village"}}, {"type": "node", "id": 2482641210, "lat": 35.467078, "lon": 43.823785, "tags": {"alt_name": "\u0642\u0631\u064a\u0629 \u0627\u0644\u0639\u0631\u064a\u0634\u0629 \u0627\u0644\u0639\u0644\u064a\u0627", "int_name": "Qaryat al Ar\u012bshat al Uly\u0101, \u0642\u0631\u064a\u0629 \u0627\u0644\u0639\u0631\u064a\u0634\u0629 \u0627\u0644\u0639\u0644\u064a\u0627, Qaryat al Arishat al Ulya, \u0642\u0631\u064a\u0629 \u0627\u0644\u0639\u0631\u064a\u0634\u0629 \u0627\u0644\u0639\u0644\u064a\u0627", "name:ar": "\u0642\u0631\u064a\u0629 \u0627\u0644\u0639\u0631\u064a\u0634\u0629 \u0627\u0644\u0639\u0644\u064a\u0627", "name:ar1": "\u0642\u0631\u064a\u0629 \u0627\u0644\u0639\u0631\u064a\u0634\u0629 \u0627\u0644\u0639\u0644\u064a\u0627", "name:de": "Qaryat al Arishat al Ulya", "name:en": "Qaryat al Arishat al Ulya", "name:fr": "Qaryat al Arishat al Ulya", "place": "village"}}, {"type": "node", "id": 2482641212, "lat": 35.497382, "lon": 43.938216, "tags": {"name": "\u0627\u0644\u062d\u0645\u062f\u0627\u0646\u064a\u0629", "name:de": "al Hmdaniya", "name:en": "al Hmdaniya", "name:fr": "al Hmdaniya", "place": "village"}}, {"type": "node", "id": 2482641216, "lat": 35.4669401, "lon": 43.8939183, "tags": {"capital": "7", "name": "\u0642\u062f\u0633", "name:ckb": "\u0642\u0648\u062f\u0633", "name:en": "Quds", "place": "village"}}, {"type": "node", "id": 2482641257, "lat": 35.5196898, "lon": 43.7015741, "tags": {"alt_name": "\u0648\u06d5\u0631\u062f\u06d5\u06a9", "name": "\u0648\u06d5\u0631\u062f\u06d5\u06a9", "name:ar": "\u0648\u0631\u062f\u06a9", "name:de": "Wardak", "name:en": "Wardak", "name:fr": "Wardak", "place": "village"}}, {"type": "node", "id": 2482641426, "lat": 35.5734271, "lon": 43.9724043, "tags": {"int_name": "Al\u012b Ghayr, Al\u012b Ghayr Sayyid A\u1e29mad, Al\u0101 Ghair Saiyid Ahmad, Saiyid Ahmad, Sayyid A\u1e29mad, \u0633\u064a\u062f \u0627\u062d\u0645\u062f, \u0639\u0644\u064a \u063a\u064a\u0631, \u0639\u0644\u064a \u063a\u064a\u0631 \u0633\u064a\u062f \u0627\u062d\u0645\u062f, Ali Ghayr, Ali Ghayr Sayyid Ahmad, Ala Ghair Saiyid Ahmad, Saiyid Ahmad, Sayyid Ahmad, \u0633\u064a\u062f \u0627\u062d\u0645\u062f, \u0639\u0644\u064a \u063a\u064a\u0631, \u0639\u0644\u064a \u063a\u064a\u0631 \u0633\u064a\u062f \u0627\u062d\u0645\u062f", "name": "\u0639\u0644\u064a \u063a\u064a\u0631 \u0633\u064a\u062f \u0623\u062d\u0645\u062f", "name:ar": "\u0639\u0644\u064a \u063a\u064a\u0631 \u0633\u064a\u062f \u0623\u062d\u0645\u062f", "name:ckb": "\u0639\u06d5\u0644\u06d5 \u063a\u06ce\u0631 \u0633\u06d5\u06cc\u062f \u0626\u06d5\u062d\u0645\u06d5\u062f", "name:en": "Ala Gher Sayd Ahmad", "name:ku": "'Ele X\u00ear Seyid Ehmed", "place": "village"}}, {"type": "node", "id": 2482641441, "lat": 35.5432686, "lon": 43.675179, "tags": {"alt_name": "\u062e\u0631\u0627\u0628\u0629 \u0623\u0633\u064a\u0627\u0648", "int_name": "Khar\u0101bat Asy\u0101w, Siaw, \u062e\u0631\u0627\u0628\u0629 \u0627\u0633\u064a\u0627\u0648, Kharabat Asyaw, Siaw, \u062e\u0631\u0627\u0628\u0629 \u0627\u0633\u064a\u0627\u0648", "name": "\u0633\u06cc\u0627\u0648", "name:ar": "\u0633\u06cc\u0627\u0648", "name:ar1": "\u062e\u0631\u0627\u0628\u0629 \u0623\u0633\u064a\u0627\u0648", "name:de": "Syaw", "name:en": "Syaw", "name:fr": "Syaw", "place": "village"}}, {"type": "node", "id": 2482641452, "lat": 35.4109733, "lon": 43.6785531, "tags": {"int_name": "Ranj\u012b, Ranji\u060c \u0631\u0646\u062c\u064a", "name": "\u0631\u0646\u062c\u064a", "name:ckb": "\u0695\u06d5\u0646\u062c\u06cc", "name:en": "Ranji", "place": "village", "population": "7093"}}, {"type": "node", "id": 2484093495, "lat": 35.2621591, "lon": 43.6778511, "tags": {"int_name": "AL-Sada, Shah Kaldi, \u0627\u0644\u0633\u0627\u062f\u0629 - \u0634\u0627\u0647 \u0643\u0627\u0644\u062f\u0649", "name": "\u0634\u0627\u0647 \u0643\u0627\u0644\u062f\u064a", "name:ckb": "\u0634\u0627\u06a9\u06d5\u0644\u062f\u06cc", "name:en": "Sh\u0101h Kald\u012b", "place": "village"}}, {"type": "node", "id": 2484093556, "lat": 35.302849, "lon": 43.70111, "tags": {"alt_name": "\u0642\u0631\u064a\u0629 \u062f\u0648\u0643\u0627\u0646", "int_name": "Qaryat D\u016bk\u0101n, \u0642\u0631\u064a\u0629 \u062f\u0648\u0643\u0627\u0646, Qaryat Dukan, \u0642\u0631\u064a\u0629 \u062f\u0648\u0643\u0627\u0646", "name": "\u062c\u0628\u0648\u0631\u06cc\u0629", "name:ar1": "\u0642\u0631\u064a\u0629 \u062f\u0648\u0643\u0627\u0646", "name:ckb": "\u062c\u0628\u0648\u0631\u06cc\u06d5", "name:de": "Jburiah", "name:en": "Jburiah", "name:fr": "Jburiah", "place": "village"}}, {"type": "node", "id": 2484093558, "lat": 35.2798415, "lon": 43.6773061, "tags": {"name": "\u062d\u0648\u0636 \u0667", "name:ckb": "\u062d\u06d5\u0648\u0632\u06cc \u0667", "name:en": "Hawz 7", "place": "village"}}, {"type": "node", "id": 2484093559, "lat": 35.3218656, "lon": 43.6351764, "tags": {"alt_name": "\u0642\u0631\u064a\u0629 \u062d\u0648\u0636 \u0633\u062a\u0629", "int_name": "Qaryat \u1e28aw\u1e11 Sittah, \u0642\u0631\u064a\u0629 \u062d\u0648\u0636 \u0633\u062a, Qaryat Hawd Sittah, \u0642\u0631\u064a\u0629 \u062d\u0648\u0636 \u0633\u062a", "name": "\u062d\u0648\u0636 \u0633\u062a\u0629", "name:ar1": "\u0642\u0631\u064a\u0629 \u062d\u0648\u0636 \u0633\u062a\u0629", "name:ckb": "\u062d\u06d5\u0648\u0632 \u0633\u062a\u06d5", "name:de": "Hawz Stan", "name:en": "Hawz Stan", "name:fr": "Hawz Stan", "place": "village"}}, {"type": "node", "id": 2484093570, "lat": 35.3295696, "lon": 43.7018444, "tags": {"name": "\u062a\u0644 \u0627\u0644\u062d\u0648\u0644", "name:ckb": "\u062a\u06d5\u0644 \u062d\u06d5\u0648\u0644", "name:en": "Tall al Hawal", "place": "village"}}, {"type": "node", "id": 2484093577, "lat": 35.2765495, "lon": 43.6194606, "tags": {"name": "\u0627\u0644\u0645\u062a\u0648\u0643\u0644\u0629", "name:ckb": "\u0645\u0648\u062a\u06d5\u0648\u06d5\u06a9\u06cc\u0644\u06d5", "name:en": "Mutawakila", "place": "village"}}, {"type": "node", "id": 2484093578, "lat": 35.309783, "lon": 43.66519, "tags": {"alt_name": "\u0642\u0631\u064a\u0629 \u0627\u0644\u0633\u0628\u0644", "int_name": "Qaryat as Sabal, \u0642\u0631\u064a\u0629 \u0627\u0644\u0633\u0628\u0644, Qaryat as Sabal, \u0642\u0631\u064a\u0629 \u0627\u0644\u0633\u0628\u0644", "name": "\u0627\u0644\u0628\u0633\u0644", "name:ar1": "\u0642\u0631\u064a\u0629 \u0627\u0644\u0633\u0628\u0644", "name:ckb": "\u0628\u06d5\u0633\u06d5\u0644", "name:de": "Basal", "name:en": "Basal", "name:fr": "Basal", "place": "village"}}, {"type": "node", "id": 2484132243, "lat": 35.3923496, "lon": 43.5213344, "tags": {"name": "\u0627\u0644\u0639\u0643\u0644\u0629", "name:ckb": "\u0639\u06d5\u06a9\u0644\u06d5", "name:en": "Al-Akla", "place": "village"}}, {"type": "node", "id": 2484132255, "lat": 35.414856, "lon": 43.4778982, "tags": {"alt_name": "\u0642\u0631\u064a\u0629 \u0627\u0644\u0627\u063a\u0631", "int_name": "\u0642\u0631\u064a\u0629 \u0627\u0644\u0627\u063a\u0631, \u0642\u0631\u064a\u0629 \u0627\u0644\u0627\u063a\u0631", "name": "\u0627\u0644\u0627\u063a\u0631", "name:ar1": "\u0642\u0631\u064a\u0629 \u0627\u0644\u0627\u063a\u0631", "name:ckb": "\u0626\u06d5\u063a\u0631", "name:de": "Al-Aghar", "name:en": "Al-Aghar", "name:fr": "Al-Aghar", "place": "village"}}, {"type": "node", "id": 2486472588, "lat": 35.632088, "lon": 43.9624388, "tags": {"int_name": "Chard, Ch\u0101rid, Jard, J\u0101rd, J\u0101rid, \u062c\u0631\u062f, Chard, Charid, Jard, Jard, Jarid, \u062c\u0631\u062f", "name": "\u0686\u06d5\u0631\u062a", "name:ar": "\u062c\u0631\u062f", "name:ckb": "\u0686\u06d5\u0631\u062f", "name:de": "Chart", "name:en": "Chart", "name:fr": "Chart", "name:ku": "\u00c7erd", "place": "village"}}, {"type": "node", "id": 2488229018, "lat": 35.4451311, "lon": 43.5831196, "tags": {"alt_name": "\u0642\u0631\u064a\u0629 \u062a\u0644 \u0627\u0644\u0627\u0633\u0648\u062f", "int_name": "\u0642\u0631\u064a\u0629 \u062a\u0644 \u0627\u0644\u0627\u0633\u0648\u062f, \u0642\u0631\u064a\u0629 \u062a\u0644 \u0627\u0644\u0627\u0633\u0648\u062f", "name": "\u062a\u0644 \u0627\u0644\u0627\u0633\u0648\u062f", "name:ar1": "\u0642\u0631\u064a\u0629 \u062a\u0644 \u0627\u0644\u0627\u0633\u0648\u062f", "name:ckb": "\u062a\u06d5\u0644 \u0626\u06d5\u0633\u0648\u06d5\u062f", "name:en": "Tel Aswad", "place": "village"}}, {"type": "node", "id": 2488246943, "lat": 35.3711329, "lon": 43.5258176, "tags": {"name": "\u0647\u0646\u062c\u064a\u0631\u0629", "name:ckb": "\u0647\u06d5\u0646\u062c\u06cc\u0631\u06d5", "name:en": "Hinjirah", "place": "village"}}, {"type": "node", "id": 2488247071, "lat": 35.61061, "lon": 43.492111, "tags": {"alt_name": "\u0642\u0631\u064a\u0629 \u0641\u0627\u0637\u0645\u0629", "int_name": "Qaryat F\u0101\u0163imah, \u0642\u0631\u064a\u0629 \u0641\u0627\u0637\u0645\u0647, Qaryat Fatimah, \u0642\u0631\u064a\u0629 \u0641\u0627\u0637\u0645\u0647", "name": "\u0642\u0631\u064a\u0629 \u0641\u0627\u0637\u0645\u0629", "name:de": "Qaryat Fatimah", "name:en": "Qaryat Fatimah", "name:fr": "Qaryat Fatimah", "place": "village"}}, {"type": "node", "id": 2488247205, "lat": 35.617433, "lon": 43.470186, "tags": {"alt_name": "\u0642\u0631\u064a\u0629 \u0633\u0631\u0646\u0627\u062d \u0643\u0628\u0631\u0649", "int_name": "Qaryat Sarn\u0101\u1e29 Kubr\u00e1, Sarn\u0101j Kab\u012br, Sarnaj Kab\u016br, Sharnaj Kabir, \u0642\u0631\u064a\u0629 \u0633\u0631\u0646\u0627\u062d \u0643\u0628\u0631\u0649, Qaryat Sarnah Kubra, Sarnaj Kabir, Sarnaj Kabur, Sharnaj Kabir, \u0642\u0631\u064a\u0629 \u0633\u0631\u0646\u0627\u062d \u0643\u0628\u0631\u0649", "name": "\u0642\u0631\u064a\u0629 \u0633\u0631\u0646\u0627\u062d \u0643\u0628\u0631\u0649", "name:de": "Qaryat Sarnah Kubra", "name:en": "Qaryat Sarnah Kubra", "name:fr": "Qaryat Sarnah Kubra", "place": "village"}}, {"type": "node", "id": 2489252821, "lat": 35.2462747, "lon": 43.4820939, "tags": {"alt_name": "\u0627\u0644\u0639\u0627\u0645\u0648\u062f\u064a\u0629", "int_name": "Al \u0100m\u016bd\u012byah, \u0627\u0644\u0639\u0627\u0645\u0648\u062f\u064a\u0629, Al Amudiyah, \u0627\u0644\u0639\u0627\u0645\u0648\u062f\u064a\u0629", "name": "\u0627\u0644\u0639\u0627\u0645\u0648\u062f\u064a\u0629", "name:ar1": "\u0627\u0644\u0639\u0627\u0645\u0648\u062f\u064a\u0629", "name:ckb": "\u0639\u0627\u0645\u0648\u062f\u06cc\u06d5", "name:de": "Al Amudiyah", "name:en": "Al Amudiyah", "name:fr": "Al Amudiyah", "place": "village"}}, {"type": "node", "id": 2489252897, "lat": 35.273703, "lon": 43.479544, "tags": {"alt_name": "\u0642\u0631\u064a\u0629 \u0627\u0644\u0635\u0628\u0627\u063a\u064a\u0629", "int_name": "As Sab\u0101gh\u012byah, A\u015f \u015eabb\u0101gh\u012byah, Qaryat a\u015f \u015eab\u0101gh\u012byah, Sabb\u0101gh\u012bya, \u0627\u0644\u0635\u0628\u0627\u063a\u064a\u0629, \u0642\u0631\u064a\u0629 \u0627\u0644\u0635\u0628\u0627\u063a\u064a\u0629, As Sabaghiyah, As Sabbaghiyah, Qaryat as Sabaghiyah, Sabbaghiya, \u0627\u0644\u0635\u0628\u0627\u063a\u064a\u0629, \u0642\u0631\u064a\u0629 \u0627\u0644\u0635\u0628\u0627\u063a\u064a\u0629", "name": "\u0627\u0644\u0635\u0628\u0627\u063a\u064a\u0629", "name:ar1": "\u0642\u0631\u064a\u0629 \u0627\u0644\u0635\u0628\u0627\u063a\u064a\u0629", "name:ckb": "\u0633\u06d5\u0628\u0627\u063a\u06cc\u06d5", "name:de": "As Sabaghiyah", "name:en": "As Sabaghiyah", "name:fr": "As Sabaghiyah", "place": "village"}}, {"type": "node", "id": 2489253377, "lat": 35.3002894, "lon": 43.5226247, "tags": {"alt_name": "\u0642\u0631\u064a\u0629 \u0634\u0645\u064a\u0637", "int_name": "Qaryat Shumay\u0163, Shumaita, Sh\u016bmay\u0163, Shumaytah, \u0642\u0631\u064a\u0629 \u0634\u0645\u064a\u0637, Qaryat Shumayt, Shumaita, Shumayt, Shumaytah, \u0642\u0631\u064a\u0629 \u0634\u0645\u064a\u0637", "name": "\u0634\u0645\u064a\u0637", "name:ar1": "\u0642\u0631\u064a\u0629 \u0634\u0645\u064a\u0637", "name:ckb": "\u0634\u06d5\u0645\u06cc\u062a", "name:de": "Shumayt", "name:en": "Shumayt", "name:fr": "Shumayt", "place": "village"}}, {"type": "node", "id": 2489253393, "lat": 35.2606109, "lon": 43.5038821, "tags": {"alt_name": "\u0642\u0631\u064a\u0629 \u062a\u0644 \u0627\u0644\u0647\u0648\u0649", "int_name": "Qaryat Tall al Haw\u00e1, \u0642\u0631\u064a\u0629 \u062a\u0644 \u0627\u0644\u0647\u0648\u0649, Qaryat Tall al Hawa, \u0642\u0631\u064a\u0629 \u062a\u0644 \u0627\u0644\u0647\u0648\u0649", "name": "\u062a\u0644 \u0627\u0644\u0647\u0648\u0649", "name:ar1": "\u0642\u0631\u064a\u0629 \u062a\u0644 \u0627\u0644\u0647\u0648\u0649", "name:ckb": "\u062a\u06d5\u0644 \u0647\u06d5\u0648\u0627", "name:de": "Tall al Hawa", "name:en": "Tall al Hawa", "name:fr": "Tall al Hawa", "place": "village"}}, {"type": "node", "id": 2489272581, "lat": 35.2747947, "lon": 43.5948786, "tags": {"alt_name": "Al Abb\u0101s\u012b, \u0627\u0644\u0639\u0628\u0627\u0633\u064a, Al Abbasi, \u0627\u0644\u0639\u0628\u0627\u0633\u064a", "capital": "7", "int_name": "Al Abbasi, \u0627\u0644\u0639\u0628\u0627\u0633\u064a", "name": "\u0627\u0644\u0639\u0628\u0627\u0633\u064a", "name:ar": "\u0627\u0644\u0639\u0628\u0627\u0633\u064a", "name:de": "Al Abbasi", "name:en": "Al Abbasi", "name:fr": "Al Abbasi", "place": "town"}}, {"type": "node", "id": 2489272595, "lat": 35.25304, "lon": 43.582704, "tags": {"name": "\u062c\u0627\u0631\u0634\u0644\u0648", "name:ckb": "\u0686\u0627\u0631\u0634\u0644\u0648\u0648", "name:en": "Char Shloo", "place": "village"}}, {"type": "node", "id": 2489273039, "lat": 35.2440642, "lon": 43.8104147, "tags": {"alt_name": "\u0642\u0631\u064a\u0629 \u0627\u0644\u062f\u063a\u064a\u0644\u0629", "int_name": "Digail, Dijayl, Dujayl, Duqayl, Qaryat ad Dagh\u012blah, \u0642\u0631\u064a\u0629 \u0627\u0644\u062f\u063a\u064a\u0644\u0629, Digail, Dijayl, Dujayl, Duqayl, Qaryat ad Daghilah, \u0642\u0631\u064a\u0629 \u0627\u0644\u062f\u063a\u064a\u0644\u0629", "name": "\u062f\u063a\u064a\u0644\u0629", "name:ar1": "\u0642\u0631\u064a\u0629 \u0627\u0644\u062f\u063a\u064a\u0644\u0629", "name:ckb": "\u062f\u0648\u063a\u06d5\u06cc\u0644\u06d5", "name:de": "Dughaylah", "name:en": "Dughaylah", "name:fr": "Dughaylah", "place": "village"}}, {"type": "node", "id": 2489273181, "lat": 35.350669, "lon": 43.793231, "tags": {"alt_name": "\u062d\u0633\u0646 \u0627\u0644\u0633\u0644\u0637\u0627\u0646", "int_name": "\u1e28asan as Sul\u0163\u0101n, \u062d\u0633\u0646 \u0627\u0644\u0633\u0644\u0637\u0627\u0646, Hasan as Sultan, \u062d\u0633\u0646 \u0627\u0644\u0633\u0644\u0637\u0627\u0646", "name": "\u062d\u0633\u0646 \u0627\u0644\u0633\u0644\u0637\u0627\u0646", "name:ar": "\u062d\u0633\u0646 \u0627\u0644\u0633\u0644\u0637\u0627\u0646", "name:ar1": "\u062d\u0633\u0646 \u0627\u0644\u0633\u0644\u0637\u0627\u0646", "name:de": "Hasan as Sultan", "name:en": "Hasan as Sultan", "name:fr": "Hasan as Sultan", "place": "village"}}, {"type": "node", "id": 2489273249, "lat": 35.2166629, "lon": 43.8497528, "tags": {"alt_name": "\u0625\u0628\u0631\u0627\u0647\u064a\u0645 \u062d\u0645\u0627\u062f\u064a", "int_name": "Ibr\u0101h\u012bm \u1e28am\u0101d\u012b, \u0627\u0628\u0631\u0627\u0647\u064a\u0645 \u062d\u0645\u0627\u062f\u064a, Ibrahim Hamadi, \u0627\u0628\u0631\u0627\u0647\u064a\u0645 \u062d\u0645\u0627\u062f\u064a", "name": "\u0625\u0628\u0631\u0627\u0647\u064a\u0645 \u062d\u0645\u0627\u062f\u064a", "name:ar": "\u0625\u0628\u0631\u0627\u0647\u064a\u0645 \u062d\u0645\u0627\u062f\u064a", "name:ar1": "\u0625\u0628\u0631\u0627\u0647\u064a\u0645 \u062d\u0645\u0627\u062f\u064a", "name:de": "Ibrahim Hamadi", "name:en": "Ibrahim Hamadi", "name:fr": "Ibrahim Hamadi", "place": "village"}}, {"type": "node", "id": 2489273381, "lat": 35.274722, "lon": 43.590556, "tags": {"alt_name": "\u062c\u0627\u0631 \u0633\u064a\u0644\u0629", "int_name": "J\u0101r S\u012blah, Jar Silah", "name": "\u062c\u0627\u0631 \u0633\u064a\u0644\u0629", "name:ar": "\u062c\u0627\u0631 \u0633\u064a\u0644\u0629", "name:ar1": "\u062c\u0627\u0631 \u0633\u064a\u0644\u0629", "name:de": "Jar Silah", "name:en": "Jar Silah", "name:fr": "Jar Silah", "place": "village"}}, {"type": "node", "id": 2489273638, "lat": 35.3176408, "lon": 43.5971039, "tags": {"alt_name": "\u0645\u062d\u0645\u062f \u0639\u0644\u064a \u0633\u0631\u062d\u0627\u0646", "int_name": "Mu\u1e29ammad Al\u012b Sir\u1e29\u0101n, \u0645\u062d\u0645\u062f \u0639\u0644\u064a \u0633\u0631\u062d\u0627\u0646, Muhammad Ali Sirhan, \u0645\u062d\u0645\u062f \u0639\u0644\u064a \u0633\u0631\u062d\u0627\u0646", "name": "\u0645\u062d\u0645\u062f \u0639\u0644\u064a \u0633\u0631\u062d\u0627\u0646", "name:ar1": "\u0645\u062d\u0645\u062f \u0639\u0644\u064a \u0633\u0631\u062d\u0627\u0646", "name:ckb": "\u0645\u062d\u06d5\u0645\u0645\u06d5\u062f \u0639\u06d5\u0644\u06cc \u0633\u06d5\u0631\u062d\u0627\u0646", "name:de": "Muhammad Ali Sirhan", "name:en": "Muhammad Ali Sirhan", "name:fr": "Muhammad Ali Sirhan", "place": "village"}}, {"type": "node", "id": 2489273733, "lat": 35.349054, "lon": 43.788078, "tags": {"alt_name": "\u0645\u062d\u0645\u062f \u0627\u0644\u0646\u0628\u062d", "int_name": "Mu\u1e29ammad an Naba\u1e29, \u0645\u062d\u0645\u062f \u0627\u0644\u0646\u0628\u062d, Muhammad an Nabah, \u0645\u062d\u0645\u062f \u0627\u0644\u0646\u0628\u062d", "name": "\u0645\u062d\u0645\u062f \u0627\u0644\u0646\u0628\u062d", "name:ar": "\u0645\u062d\u0645\u062f \u0627\u0644\u0646\u0628\u062d", "name:ar1": "\u0645\u062d\u0645\u062f \u0627\u0644\u0646\u0628\u062d", "name:de": "Muhammad an Nabah", "name:en": "Muhammad an Nabah", "name:fr": "Muhammad an Nabah", "place": "village"}}, {"type": "node", "id": 2489273779, "lat": 35.2754242, "lon": 43.5914509, "tags": {"alt_name": "\u0646\u0627\u062d\u064a\u0629 \u0627\u0644\u0639\u0628\u0627\u0633\u064a", "int_name": "N\u0101\u1e29iyat al Abb\u0101s\u012b, \u0646\u0627\u062d\u064a\u0629 \u0627\u0644\u0639\u0628\u0627\u0633\u064a, Nahiyat al Abbasi, \u0646\u0627\u062d\u064a\u0629 \u0627\u0644\u0639\u0628\u0627\u0633\u064a", "name": "\u0646\u0627\u062d\u064a\u0629 \u0627\u0644\u0639\u0628\u0627\u0633\u064a", "name:ar": "\u0646\u0627\u062d\u064a\u0629 \u0627\u0644\u0639\u0628\u0627\u0633\u064a", "name:ar1": "\u0646\u0627\u062d\u064a\u0629 \u0627\u0644\u0639\u0628\u0627\u0633\u064a", "name:de": "Nahiyat al Abbasi", "name:en": "Nahiyat al Abbasi", "name:fr": "Nahiyat al Abbasi", "place": "village"}}, {"type": "node", "id": 2489273790, "lat": 35.3090913, "lon": 43.5477569, "tags": {"alt_name": "\u0642\u0631\u064a\u0629 \u0646\u0645\u064a\u0635\u0629", "int_name": "Namisa, Nam\u012bsah, Qaryat Nam\u012b\u015fah, \u0642\u0631\u064a\u0629 \u0646\u0645\u064a\u0635\u0629, Namisa, Namisah, Qaryat Namisah, \u0642\u0631\u064a\u0629 \u0646\u0645\u064a\u0635\u0629", "name": "\u0646\u0645\u064a\u0635\u0629", "name:ar1": "\u0642\u0631\u064a\u0629 \u0646\u0645\u064a\u0635\u0629", "name:ckb": "\u0646\u06d5\u0645\u06cc\u0633\u06d5", "name:de": "Namisa", "name:en": "Namisa", "name:fr": "Namisa", "place": "village"}}, {"type": "node", "id": 2489273835, "lat": 35.298322, "lon": 43.844383, "tags": {"alt_name": "\u0642\u0631\u064a\u0629 \u0623\u0628\u0648 \u0627\u0644\u062c\u064a\u0633", "int_name": "Qaryat Ab\u016b al Jays, \u0642\u0631\u064a\u0629 \u0627\u0628\u0648 \u0627\u0644\u062c\u064a\u0633, Qaryat Abu al Jays, \u0642\u0631\u064a\u0629 \u0627\u0628\u0648 \u0627\u0644\u062c\u064a\u0633", "name": "\u0623\u0628\u0648 \u0627\u0644\u062c\u064a\u0633", "name:ar1": "\u0642\u0631\u064a\u0629 \u0623\u0628\u0648 \u0627\u0644\u062c\u064a\u0633", "name:ckb": "\u0626\u06d5\u0628\u0648\u062c\u06cc\u0633", "name:de": "Abu al Jays", "name:en": "Abu al Jays", "name:fr": "Abu al Jays", "place": "village"}}, {"type": "node", "id": 2489273837, "lat": 35.285661, "lon": 43.825628, "tags": {"alt_name": "\u0642\u0631\u064a\u0629 \u0639\u0628\u0648\u0634", "int_name": "Qaryat Ab\u016bsh, \u0642\u0631\u064a\u0629 \u0639\u0628\u0648\u0634, Qaryat Abush, \u0642\u0631\u064a\u0629 \u0639\u0628\u0648\u0634", "name": "\u0639\u0628\u0648\u0634", "name:ar1": "\u0642\u0631\u064a\u0629 \u0639\u0628\u0648\u0634", "name:ckb": "\u0639\u06d5\u0628\u0648\u0634", "name:de": "Abush", "name:en": "Abush", "name:fr": "Abush", "place": "village"}}, {"type": "node", "id": 2489273962, "lat": 35.2335267, "lon": 43.840898, "tags": {"alt_name": "\u0642\u0631\u064a\u0629 \u0639\u0627\u0631\u0641 \u0627\u0644\u0646\u0627\u064a\u0641", "int_name": "Qaryat \u0100raf an N\u0101yyf, \u0642\u0631\u064a\u0629 \u0639\u0627\u0631\u0641 \u0627\u0644\u0646\u0627\u064a\u0641, Qaryat Araf an Nayyf, \u0642\u0631\u064a\u0629 \u0639\u0627\u0631\u0641 \u0627\u0644\u0646\u0627\u064a\u0641", "name": "\u0639\u0627\u0631\u0641 \u0627\u0644\u0646\u0627\u064a\u0641", "name:ar": "\u0639\u0627\u0631\u0641 \u0627\u0644\u0646\u0627\u064a\u0641", "name:ar1": "\u0642\u0631\u064a\u0629 \u0639\u0627\u0631\u0641 \u0627\u0644\u0646\u0627\u064a\u0641", "name:ckb": "\u0639\u0627\u0631\u0641 \u0646\u0627\u06cc\u0641", "name:de": "Araf an Nayyf", "name:en": "Araf an Nayyf", "name:fr": "Araf an Nayyf", "place": "village"}}, {"type": "node", "id": 2489274063, "lat": 35.3361931, "lon": 43.8420109, "tags": {"alt_name": "\u0642\u0631\u064a\u0629 \u062c\u062f\u064a\u062f\u0629", "int_name": "Qaryat Jad\u012bdah, \u0642\u0631\u064a\u0629 \u062c\u062f\u064a\u062f\u0629, Qaryat Jadidah, \u0642\u0631\u064a\u0629 \u062c\u062f\u064a\u062f\u0629", "name": "\u062c\u062f\u064a\u062f\u0629", "name:ar1": "\u0642\u0631\u064a\u0629 \u062c\u062f\u064a\u062f\u0629", "name:ckb": "\u062c\u06d5\u062f\u06cc\u062f\u06d5", "name:de": "Jadidah", "name:en": "Jadidah", "name:fr": "Jadidah", "place": "village"}}, {"type": "node", "id": 2489274097, "lat": 35.231457, "lon": 43.816689, "tags": {"alt_name": "\u0642\u0631\u064a\u0629 \u0633\u064a\u062f \u062d\u0645\u064a\u062f", "int_name": "Qaryat Sayyid \u1e28am\u012bd, \u0642\u0631\u064a\u0629 \u0633\u064a\u062f \u062d\u0645\u064a\u062f, Qaryat Sayyid Hamid, \u0642\u0631\u064a\u0629 \u0633\u064a\u062f \u062d\u0645\u064a\u062f", "name": "\u0633\u064a\u062f \u062d\u0645\u064a\u062f", "name:ar1": "\u0642\u0631\u064a\u0629 \u0633\u064a\u062f \u062d\u0645\u064a\u062f", "name:ckb": "\u0633\u06d5\u06cc\u062f \u062d\u06d5\u0645\u06cc\u062f", "name:de": "Sayyid Hamid", "name:en": "Sayyid Hamid", "name:fr": "Sayyid Hamid", "place": "village"}}, {"type": "node", "id": 2489274098, "lat": 35.250579, "lon": 43.797922, "tags": {"alt_name": "\u0642\u0631\u064a\u0629 \u0633\u064a\u062f \u062e\u0644\u0641 \u062d\u0633\u064a\u0646", "int_name": "Qaryat Sayyid Khalaf \u1e28usayn, \u0642\u0631\u064a\u0629 \u0633\u064a\u062f \u062e\u0644\u0641 \u062d\u0633\u064a\u0646, Qaryat Sayyid Khalaf Husayn, \u0642\u0631\u064a\u0629 \u0633\u064a\u062f \u062e\u0644\u0641 \u062d\u0633\u064a\u0646", "name": "\u0633\u064a\u062f \u062e\u0644\u0641 \u062d\u0633\u064a\u0646", "name:ar1": "\u0642\u0631\u064a\u0629 \u0633\u064a\u062f \u062e\u0644\u0641 \u062d\u0633\u064a\u0646", "name:ckb": "\u0633\u06d5\u06cc\u062f \u062e\u06d5\u06b5\u06d5\u0641 \u062d\u0648\u0633\u06ce\u0646", "name:de": "Sayyid Khalaf Husayn", "name:en": "Sayyid Khalaf Husayn", "name:fr": "Sayyid Khalaf Husayn", "place": "village"}}, {"type": "node", "id": 2489274107, "lat": 35.2673189, "lon": 43.8668351, "tags": {"alt_name": "\u0642\u0631\u064a\u0629 \u062a\u0644 \u0627\u0644\u0639\u0638\u0627\u0645", "int_name": "Qaryat Tall al Az\u0327\u0101m, \u0642\u0631\u064a\u0629 \u062a\u0644 \u0627\u0644\u0639\u0638\u0627\u0645, Qaryat Tall al Azam, \u0642\u0631\u064a\u0629 \u062a\u0644 \u0627\u0644\u0639\u0638\u0627\u0645", "name": "\u062a\u0644 \u0627\u0644\u0639\u0638\u0627\u0645", "name:ar": "\u062a\u0644 \u0627\u0644\u0639\u0638\u0627\u0645", "name:ar1": "\u0642\u0631\u064a\u0629 \u062a\u0644 \u0627\u0644\u0639\u0638\u0627\u0645", "name:ckb": "\u062a\u06d5\u0644 \u0639\u06cc\u0632\u0627\u0645", "name:de": "Tall al Azam", "name:en": "Tall al Azam", "name:fr": "Tall al Azam", "place": "village"}}, {"type": "node", "id": 2489274109, "lat": 35.3306156, "lon": 43.7141927, "tags": {"alt_name": "\u0642\u0631\u064a\u0629 \u0627\u0644\u0639\u0628\u0627\u0633\u064a\u0629", "int_name": "Qaryat al Ab\u0101s\u012byah, \u0642\u0631\u064a\u0629 \u0627\u0644\u0639\u0628\u0627\u0633\u064a\u0629, Qaryat al Abasiyah, \u0642\u0631\u064a\u0629 \u0627\u0644\u0639\u0628\u0627\u0633\u064a\u0629", "name": "\u0639\u0628\u0627\u0633\u06cc\u0629", "name:ar1": "\u0642\u0631\u064a\u0629 \u0627\u0644\u0639\u0628\u0627\u0633\u064a\u0629", "name:ckb": "\u0639\u06d5\u0628\u0627\u0633\u06cc\u06d5", "name:de": "Abasiyah", "name:en": "Abasiyah", "name:fr": "Abasiyah", "place": "village"}}, {"type": "node", "id": 2489274118, "lat": 35.2574858, "lon": 43.7563735, "tags": {"alt_name": "\u0642\u0631\u064a\u0629 \u0627\u0644\u0639\u064a\u062a\u0627\u062a", "int_name": "Qaryat al Ayt\u0101t, \u0642\u0631\u064a\u0629 \u0627\u0644\u0639\u064a\u062a\u0627\u062a, Qaryat al Aytat, \u0642\u0631\u064a\u0629 \u0627\u0644\u0639\u064a\u062a\u0627\u062a", "name": "\u0639\u064a\u062b\u0627\u062a", "name:ar1": "\u0642\u0631\u064a\u0629 \u0627\u0644\u0639\u064a\u062a\u0627\u062a", "name:ckb": "\u0639\u06cc\u0633\u0627\u062a", "name:de": "Aythat", "name:en": "Aythat", "name:fr": "Aythat", "place": "village"}}, {"type": "node", "id": 2489274119, "lat": 35.2463551, "lon": 43.8664155, "tags": {"alt_name": "\u0642\u0631\u064a\u0629 \u0627\u0644\u0639\u0638\u064a\u0628\u064a\u0629", "int_name": "Qaryat al Az\u0327\u012bb\u012byah, \u0642\u0631\u064a\u0629 \u0627\u0644\u0639\u0638\u064a\u0628\u064a\u0629, Qaryat al Azibiyah, \u0642\u0631\u064a\u0629 \u0627\u0644\u0639\u0638\u064a\u0628\u064a\u0629", "name": "\u0639\u0638\u064a\u0628\u064a\u0629", "name:ar": "\u0639\u0638\u064a\u0628\u064a\u0629", "name:ar1": "\u0642\u0631\u064a\u0629 \u0627\u0644\u0639\u0638\u064a\u0628\u064a\u0629", "name:ckb": "\u0639\u06d5\u0632\u06cc\u0628\u06cc\u06d5", "name:de": "Azibiyah", "name:en": "Azibiyah", "name:fr": "Azibiyah", "place": "village"}}, {"type": "node", "id": 2489274120, "lat": 35.343053, "lon": 43.760637, "tags": {"alt_name": "\u0642\u0631\u064a\u0629 \u0627\u0644\u0639\u0632\u064a\u0632\u064a\u0629", "int_name": "Qaryat al Az\u012bz\u012byah, \u0642\u0631\u064a\u0629 \u0627\u0644\u0639\u0632\u064a\u0632\u064a\u0629, Qaryat al Aziziyah, \u0642\u0631\u064a\u0629 \u0627\u0644\u0639\u0632\u064a\u0632\u064a\u0629", "name": "\u0639\u0632\u06cc\u0632\u06cc\u0629", "name:ar1": "\u0642\u0631\u064a\u0629 \u0627\u0644\u0639\u0632\u064a\u0632\u064a\u0629", "name:ckb": "\u0639\u06d5\u0632\u06cc\u0632\u06cc\u06d5", "name:de": "Aziziyah", "name:en": "Aziziyah", "name:fr": "Aziziyah", "place": "village"}}, {"type": "node", "id": 2489274123, "lat": 35.2898683, "lon": 43.7323766, "tags": {"alt_name": "\u0642\u0631\u064a\u0629 \u0627\u0644\u063a\u0627\u0632\u064a\u0629", "int_name": "Qaryat al Gh\u0101z\u012byah, \u0642\u0631\u064a\u0629 \u0627\u0644\u063a\u0627\u0632\u064a\u0629, Qaryat al Ghaziyah, \u0642\u0631\u064a\u0629 \u0627\u0644\u063a\u0627\u0632\u064a\u0629", "name": "\u063a\u0627\u0632\u064a\u0629", "name:ar1": "\u0642\u0631\u064a\u0629 \u0627\u0644\u063a\u0627\u0632\u064a\u0629", "name:ckb": "\u063a\u0627\u0632\u06cc\u06d5", "name:de": "Ghaziyah", "name:en": "Ghaziyah", "name:fr": "Ghaziyah", "place": "village"}}, {"type": "node", "id": 2489274131, "lat": 35.2375047, "lon": 43.7781116, "tags": {"alt_name": "\u0642\u0631\u064a\u0629 \u0627\u0644\u062d\u0633\u064a\u0646\u064a\u0629", "int_name": "Qaryat al \u1e28usayn\u012byah, \u0642\u0631\u064a\u0629 \u0627\u0644\u062d\u0633\u064a\u0646\u064a\u0629, Qaryat al Husayniyah, \u0642\u0631\u064a\u0629 \u0627\u0644\u062d\u0633\u064a\u0646\u064a\u0629", "name": "\u062d\u0633\u064a\u0646\u064a\u0629", "name:ar1": "\u0642\u0631\u064a\u0629 \u0627\u0644\u062d\u0633\u064a\u0646\u064a\u0629", "name:ckb": "\u062d\u0648\u0633\u06ce\u0646\u06cc\u06d5", "name:de": "Husayniyah", "name:en": "Husayniyah", "name:fr": "Husayniyah", "place": "village"}}, {"type": "node", "id": 2489274133, "lat": 35.2778633, "lon": 43.54961, "tags": {"alt_name": "\u0642\u0631\u064a\u0629 \u0627\u0644\u0639\u064a\u0648\u0646", "int_name": "Qaryat al Iy\u016bn, \u0642\u0631\u064a\u0629 \u0627\u0644\u0639\u064a\u0648\u0646, Qaryat al Iyun, \u0642\u0631\u064a\u0629 \u0627\u0644\u0639\u064a\u0648\u0646", "name": "\u0639\u06cc\u0648\u0646", "name:ar1": "\u0642\u0631\u064a\u0629 \u0627\u0644\u0639\u064a\u0648\u0646", "name:ckb": "\u0639\u06cc\u0648\u0646", "name:de": "Iyun", "name:en": "Iyun", "name:fr": "Iyun", "place": "village"}}, {"type": "node", "id": 2489274136, "lat": 35.3430825, "lon": 43.7243302, "tags": {"alt_name": "\u0642\u0631\u064a\u0629 \u0627\u0644\u062e\u0627\u0644\u062f\u064a\u0629", "int_name": "Qaryat al Kh\u0101lid\u012byah, \u0642\u0631\u064a\u0629 \u0627\u0644\u062e\u0627\u0644\u062f\u064a\u0629, Qaryat al Khalidiyah, \u0642\u0631\u064a\u0629 \u0627\u0644\u062e\u0627\u0644\u062f\u064a\u0629", "name": "\u062e\u0627\u0644\u062f\u064a\u0629", "name:ar1": "\u0642\u0631\u064a\u0629 \u0627\u0644\u062e\u0627\u0644\u062f\u064a\u0629", "name:ckb": "\u062e\u0627\u0644\u06cc\u062f\u06cc\u06d5", "name:de": "Khalidiyah", "name:en": "Khalidiyah", "name:fr": "Khalidiyah", "place": "village"}}, {"type": "node", "id": 2489274138, "lat": 35.2475445, "lon": 43.8477802, "tags": {"alt_name": "\u0642\u0631\u064a\u0629 \u0627\u0644\u062e\u0632\u064a\u0641\u064a", "int_name": "Qaryat al Khaz\u012bf\u012b, \u0642\u0631\u064a\u0629 \u0627\u0644\u062e\u0632\u064a\u0641\u064a, Qaryat al Khazifi, \u0642\u0631\u064a\u0629 \u0627\u0644\u062e\u0632\u064a\u0641\u064a", "name": "\u062e\u0632\u064a\u0641\u064a", "name:ar": "\u062e\u0632\u064a\u0641\u064a", "name:ar1": "\u0642\u0631\u064a\u0629 \u0627\u0644\u062e\u0632\u064a\u0641\u064a", "name:ckb": "\u062e\u0648\u0632\u06d5\u06cc\u0641\u06cc", "name:de": "Khazifi", "name:en": "Khazifi", "name:fr": "Khazifi", "place": "village"}}, {"type": "node", "id": 2489274139, "lat": 35.210606, "lon": 43.824449, "tags": {"alt_name": "\u0642\u0631\u064a\u0629 \u0627\u0644\u0643\u0641\u0627\u062d", "int_name": "Qaryat al Kif\u0101\u1e29, \u0642\u0631\u064a\u0629 \u0627\u0644\u0643\u0641\u0627\u062d, Qaryat al Kifah, \u0642\u0631\u064a\u0629 \u0627\u0644\u0643\u0641\u0627\u062d", "name": "\u0643\u0641\u0627\u062d", "name:ar": "\u0643\u0641\u0627\u062d", "name:ar1": "\u0642\u0631\u064a\u0629 \u0627\u0644\u0643\u0641\u0627\u062d", "name:ckb": "\u06a9\u06cc\u0641\u0627\u062d", "name:de": "Kifah", "name:en": "Kifah", "name:fr": "Kifah", "place": "village"}}, {"type": "node", "id": 2489274158, "lat": 35.344047, "lon": 43.73575, "tags": {"alt_name": "\u0642\u0631\u064a\u0629 \u0627\u0644\u0645\u0646\u0635\u0648\u0631\u064a\u0629", "int_name": "Qaryat al Man\u015f\u016br\u012byah, \u0642\u0631\u064a\u0629 \u0627\u0644\u0645\u0646\u0635\u0648\u0631\u064a\u0629, Qaryat al Mansuriyah, \u0642\u0631\u064a\u0629 \u0627\u0644\u0645\u0646\u0635\u0648\u0631\u064a\u0629", "name": "\u0645\u0646\u0635\u0648\u0631\u06cc\u0629", "name:ar1": "\u0642\u0631\u064a\u0629 \u0627\u0644\u0645\u0646\u0635\u0648\u0631\u064a\u0629", "name:ckb": "\u0645\u06d5\u0646\u0633\u0648\u0631\u06cc\u06d5", "name:de": "Mansuriyah", "name:en": "Mansuriyah", "name:fr": "Mansuriyah", "place": "village"}}, {"type": "node", "id": 2489274175, "lat": 35.28904, "lon": 43.55857, "tags": {"alt_name": "\u0642\u0631\u064a\u0629 \u0627\u0644\u0645\u0635\u0637\u0627\u062d", "int_name": "Qaryat al Ma\u015f\u0163\u0101\u1e29, \u0642\u0631\u064a\u0629 \u0627\u0644\u0645\u0635\u0637\u0627\u062d, Qaryat al Mastah, \u0642\u0631\u064a\u0629 \u0627\u0644\u0645\u0635\u0637\u0627\u062d", "name": "\u0627\u0644\u0645\u0635\u0637\u0627\u062d", "name:ar": "\u0645\u06d5\u0633\u062a\u0627\u062d", "name:ar1": "\u0642\u0631\u064a\u0629 \u0627\u0644\u0645\u0635\u0637\u0627\u062d", "name:de": "Mastah", "name:en": "Mastah", "name:fr": "Mastah", "place": "village"}}, {"type": "node", "id": 2489274181, "lat": 35.3415289, "lon": 43.819261, "tags": {"alt_name": "\u0642\u0631\u064a\u0629 \u0627\u0644\u0645\u0638\u0647\u0648\u0631\u064a\u0629", "int_name": "Qaryat al Maz\u0327h\u016br\u012byah, \u0642\u0631\u064a\u0629 \u0627\u0644\u0645\u0638\u0647\u0648\u0631\u064a\u0629, Qaryat al Mazhuriyah, \u0642\u0631\u064a\u0629 \u0627\u0644\u0645\u0638\u0647\u0648\u0631\u064a\u0629", "name": "\u0627\u0644\u0645\u0638\u0647\u0648\u0631\u064a\u0629", "name:ar1": "\u0642\u0631\u064a\u0629 \u0627\u0644\u0645\u0638\u0647\u0648\u0631\u064a\u0629", "name:ckb": "\u0645\u06d5\u0632\u0647\u0648\u0631\u06cc\u06d5", "name:de": "Mazhuriyah", "name:en": "Mazhuriyah", "name:fr": "Mazhuriyah", "place": "village"}}, {"type": "node", "id": 2489274202, "lat": 35.2682499, "lon": 43.8057736, "tags": {"alt_name": "\u0642\u0631\u064a\u0629 \u0627\u0644\u0645\u0635\u0637\u0627\u0641\u064a\u0629", "int_name": "Qaryat al Mu\u015f\u0163\u0101f\u012byah, \u0642\u0631\u064a\u0629 \u0627\u0644\u0645\u0635\u0637\u0627\u0641\u064a\u0629, Qaryat al Mustafiyah, \u0642\u0631\u064a\u0629 \u0627\u0644\u0645\u0635\u0637\u0627\u0641\u064a\u0629", "name": "\u0645\u0635\u0637\u0627\u0641\u064a\u0629", "name:ar1": "\u0642\u0631\u064a\u0629 \u0627\u0644\u0645\u0635\u0637\u0627\u0641\u064a\u0629", "name:ckb": "\u0645\u0648\u0633\u062a\u0627\u0641\u06cc\u06d5", "name:de": "Mustafiyah", "name:en": "Mustafiyah", "name:fr": "Mustafiyah", "place": "village"}}, {"type": "node", "id": 2489274209, "lat": 35.3078938, "lon": 43.5923153, "tags": {"alt_name": "\u0642\u0631\u064a\u0629 \u0627\u0644\u0646\u0645\u0644\u0629", "int_name": "Qaryat al Namalah, \u0642\u0631\u064a\u0629 \u0627\u0644\u0646\u0645\u0644\u0629, Qaryat al Namalah, \u0642\u0631\u064a\u0629 \u0627\u0644\u0646\u0645\u0644\u0629", "name": "\u0646\u0645\u0644\u0629", "name:ar1": "\u0642\u0631\u064a\u0629 \u0627\u0644\u0646\u0645\u0644\u0629", "name:ckb": "\u0646\u06d5\u0645\u0644\u06d5", "name:de": "Namalah", "name:en": "Namalah", "name:fr": "Namalah", "place": "village"}}, {"type": "node", "id": 2489274221, "lat": 35.2826609, "lon": 43.8538683, "tags": {"alt_name": "\u0642\u0631\u064a\u0629 \u0627\u0644\u0642\u0631\u064a\u0634\u064a\u0629", "int_name": "Qaryat al Quraysh\u012byah, \u0642\u0631\u064a\u0629 \u0627\u0644\u0642\u0631\u064a\u0634\u064a\u0629, Qaryat al Qurayshiyah, \u0642\u0631\u064a\u0629 \u0627\u0644\u0642\u0631\u064a\u0634\u064a\u0629", "name": "\u0642\u0631\u064a\u0634\u064a\u0629", "name:ar": "\u0642\u0631\u064a\u0634\u064a\u0629", "name:ar1": "\u0642\u0631\u064a\u0629 \u0627\u0644\u0642\u0631\u064a\u0634\u064a\u0629", "name:ckb": "\u0642\u0648\u0695\u06d5\u06cc\u0634\u06cc\u06d5", "name:de": "Qurayshiyah", "name:en": "Qurayshiyah", "name:fr": "Qurayshiyah", "place": "village"}}, {"type": "node", "id": 2489274296, "lat": 35.2460544, "lon": 43.5679133, "tags": {"alt_name": "\u0642\u0631\u064a\u0629 \u0627\u0644\u0637\u0627\u0631\u0642\u064a\u0629", "int_name": "Qaryat a\u0163 \u0162\u0101rq\u012byah, \u0642\u0631\u064a\u0629 \u0627\u0644\u0637\u0627\u0631\u0642\u064a\u0629, Qaryat at Tarqiyah, \u0642\u0631\u064a\u0629 \u0627\u0644\u0637\u0627\u0631\u0642\u064a\u0629", "name": "\u0637\u0627\u0631\u0642\u064a\u0629", "name:ar1": "\u0642\u0631\u064a\u0629 \u0627\u0644\u0637\u0627\u0631\u0642\u064a\u0629", "name:ckb": "\u062a\u0627\u0631\u0642\u06cc\u06d5", "name:de": "Tarqiyah", "name:en": "Tarqiyah", "name:fr": "Tarqiyah", "place": "village"}}, {"type": "node", "id": 2489274297, "lat": 35.3384551, "lon": 43.56859, "tags": {"alt_name": "\u0642\u0631\u064a\u0629 \u0627\u0644\u0632\u0631\u0627\u0631\u064a\u0629", "int_name": "Qaryat az Zar\u0101r\u012byah, Zar\u0101r\u012b, Zarariya, Zar\u0101r\u012byah, \u0642\u0631\u064a\u0629 \u0627\u0644\u0632\u0631\u0627\u0631\u064a\u0629, Qaryat az Zarariyah, Zarari, Zarariya, Zarariyah, \u0642\u0631\u064a\u0629 \u0627\u0644\u0632\u0631\u0627\u0631\u064a\u0629", "name": "\u0627\u0644\u0632\u0631\u0627\u0631\u064a\u0629", "name:ar1": "\u0642\u0631\u064a\u0629 \u0627\u0644\u0632\u0631\u0627\u0631\u064a\u0629", "name:ckb": "\u0632\u0631\u0627\u0631\u06cc\u06d5", "name:de": "Zarariyah", "name:en": "Zarariyah", "name:fr": "Zarariyah", "place": "village"}}, {"type": "node", "id": 2489274315, "lat": 35.2710686, "lon": 43.8465493, "tags": {"alt_name": "\u0633\u064a\u062f \u062e\u0644\u0627\u0641", "int_name": "Saiyid Khal\u0101f, Sayyid Khal\u0101f, Saiyid Khalaf, Sayyid Khalaf", "name": "\u0633\u064a\u062f \u062e\u0644\u0627\u0641", "name:ar": "\u0633\u064a\u062f \u062e\u0644\u0627\u0641", "name:ar1": "\u0633\u064a\u062f \u062e\u0644\u0627\u0641", "name:ckb": "\u0633\u06d5\u06cc\u062f \u062e\u06d5\u0644\u0627\u0641", "name:de": "Saiyid Khalaf", "name:en": "Saiyid Khalaf", "name:fr": "Saiyid Khalaf", "place": "village"}}, {"type": "node", "id": 2489274329, "lat": 35.226416, "lon": 43.749245, "tags": {"alt_name": "\u0634\u062d\u0627\u062f\u0629 \u062d\u0633\u064a\u0646", "int_name": "Sha\u1e29\u0101dat \u1e28usayn, \u0634\u062d\u0627\u062f\u0629 \u062d\u0633\u064a\u0646, Shahadat Husayn, \u0634\u062d\u0627\u062f\u0629 \u062d\u0633\u064a\u0646", "name": "\u0634\u062d\u0627\u062f\u0629 \u062d\u0633\u064a\u0646", "name:ar": "\u0634\u062d\u0627\u062f\u0629 \u062d\u0633\u064a\u0646", "name:ar1": "\u0634\u062d\u0627\u062f\u0629 \u062d\u0633\u064a\u0646", "name:de": "Shahadat Husayn", "name:en": "Shahadat Husayn", "name:fr": "Shahadat Husayn", "place": "village"}}, {"type": "node", "id": 2489274361, "lat": 35.223889, "lon": 43.760833, "tags": {"alt_name": "\u0633\u062c\u0646", "int_name": "Sijin, Sijn, Sijin, Sijn", "name": "\u0633\u062c\u0646", "name:ar": "\u0633\u062c\u0646", "name:ar1": "\u0633\u062c\u0646", "name:de": "Sijin", "name:en": "Sijin", "name:fr": "Sijin", "place": "village"}}, {"type": "node", "id": 2489274589, "lat": 35.2317201, "lon": 43.7134766, "tags": {"alt_name": "\u0642\u0631\u064a\u0629 \u062d\u0648\u0636 \u0661\u0663", "int_name": "\u0642\u0631\u064a\u0629 \u062d\u0648\u0636 \u0661\u0663, \u0642\u0631\u064a\u0629 \u062d\u0648\u0636 \u0661\u0663", "name": "\u062d\u0648\u0636 \u0661\u0663", "name:ar1": "\u0642\u0631\u064a\u0629 \u062d\u0648\u0636 \u0661\u0663", "name:ckb": "\u062d\u06d5\u0648\u0632\u06cc \u0661\u0663", "name:de": "Hawz 13", "name:fr": "Hawz 13", "name:ku": "Hawz 13", "place": "village"}}, {"type": "node", "id": 2489277847, "lat": 35.3202264, "lon": 43.8995626, "tags": {"alt_name": "\u0639\u0644\u064a \u062d\u0645\u062f \u0633\u0644\u0637\u0627\u0646", "int_name": "Al\u012b \u1e28amad Sul\u0163\u0101n, \u0639\u0644\u064a \u062d\u0645\u062f \u0633\u0644\u0637\u0627\u0646, Ali Hamad Sultan, \u0639\u0644\u064a \u062d\u0645\u062f \u0633\u0644\u0637\u0627\u0646", "name": "\u0639\u0644\u064a \u062d\u0645\u062f \u0633\u0644\u0637\u0627\u0646", "name:ar": "\u0639\u0644\u064a \u062d\u0645\u062f \u0633\u0644\u0637\u0627\u0646", "name:ar1": "\u0639\u0644\u064a \u062d\u0645\u062f \u0633\u0644\u0637\u0627\u0646", "name:de": "Ali Hamad Sultan", "name:en": "Ali Hamad Sultan", "name:fr": "Ali Hamad Sultan", "place": "village"}}, {"type": "node", "id": 2489277852, "lat": 35.263487, "lon": 43.918976, "tags": {"alt_name": "\u0639\u0644\u064a \u0627\u0644\u0647\u0632\u0627\u0639", "int_name": "Al\u012b al Haz\u0101, \u0639\u0644\u064a \u0627\u0644\u0647\u0632\u0627\u0639, Ali al Haza, \u0639\u0644\u064a \u0627\u0644\u0647\u0632\u0627\u0639", "name": "\u0639\u0644\u064a \u0627\u0644\u0647\u0632\u0627\u0639", "name:ar": "\u0639\u0644\u064a \u0627\u0644\u0647\u0632\u0627\u0639", "name:ar1": "\u0639\u0644\u064a \u0627\u0644\u0647\u0632\u0627\u0639", "name:de": "Ali al Haza", "name:en": "Ali al Haza", "name:fr": "Ali al Haza", "place": "village"}}, {"type": "node", "id": 2489277861, "lat": 35.2694402, "lon": 43.9107131, "tags": {"capital": "7", "name": "\u0627\u0644\u0631\u064a\u0627\u0636", "name:de": "Ar Riyad", "name:en": "Ar Riyad", "name:fr": "Ar Riyad", "place": "town"}}, {"type": "node", "id": 2489277871, "lat": 35.3095953, "lon": 43.9156988, "tags": {"alt_name": "\u0639\u0631\u0628 \u0623\u062d\u0645\u062f \u062e\u0644\u0641 \u0627\u0644\u062c\u0627\u0645", "int_name": "Arab A\u1e29mad Khalaf al J\u0101m, Arab Ahmad Khalaf al Jam", "name": "\u0639\u0631\u0628 \u0623\u062d\u0645\u062f \u062e\u0644\u0641 \u0627\u0644\u062c\u0627\u0645", "name:ar": "\u0639\u0631\u0628 \u0623\u062d\u0645\u062f \u062e\u0644\u0641 \u0627\u0644\u062c\u0627\u0645", "name:ar1": "\u0639\u0631\u0628 \u0623\u062d\u0645\u062f \u062e\u0644\u0641 \u0627\u0644\u062c\u0627\u0645", "name:de": "Arab Ahmad Khalaf al Jam", "name:en": "Arab Ahmad Khalaf al Jam", "name:fr": "Arab Ahmad Khalaf al Jam", "place": "hamlet"}}, {"type": "node", "id": 2489277920, "lat": 35.2062195, "lon": 43.8665928, "tags": {"alt_name": "\u0642\u0631\u064a\u0629 \u0627\u0644\u062d\u062c\u0644", "int_name": "Hajail, Hajayl, \u1e28ujayl, Qaryat al \u1e28ajal, \u0642\u0631\u064a\u0629 \u0627\u0644\u062d\u062c\u0644, Hajail, Hajayl, Hujayl, Qaryat al Hajal, \u0642\u0631\u064a\u0629 \u0627\u0644\u062d\u062c\u0644", "name": "\u062d\u062c\u0644", "name:ar": "\u062d\u062c\u0644", "name:ar1": "\u0642\u0631\u064a\u0629 \u0627\u0644\u062d\u062c\u0644", "name:ckb": "\u062d\u06d5\u062c\u06d5\u06cc\u0644", "name:de": "Hajail", "name:en": "Hajail", "name:fr": "Hajail", "place": "village"}}, {"type": "node", "id": 2489277986, "lat": 35.3095594, "lon": 43.8869743, "tags": {"alt_name": "\u062e\u0644\u0641 \u0639\u0628\u062f \u0627\u0644\u0644\u0647 \u0645\u0631\u0632\u0648\u0643", "int_name": "Khalaf Abd All\u0101h Marz\u016bk, \u062e\u0644\u0641 \u0639\u0628\u062f \ufdf2 \u0645\u0631\u0632\u0648\u0643, Khalaf Abd Allah Marzuk, \u062e\u0644\u0641 \u0639\u0628\u062f \ufdf2 \u0645\u0631\u0632\u0648\u0643", "name": "\u062e\u0644\u0641 \u0639\u0628\u062f \u0627\u0644\u0644\u0647 \u0645\u0631\u0632\u0648\u0643", "name:ar1": "\u062e\u0644\u0641 \u0639\u0628\u062f \u0627\u0644\u0644\u0647 \u0645\u0631\u0632\u0648\u0643", "name:ckb": "\u062e\u06d5\u06b5\u06d5\u0641 \u0639\u06d5\u0628\u062f\u0648\u06b5\u06b5\u0627 \u0645\u06d5\u0632\u0631\u0648\u06a9", "name:de": "Khalaf Abd Allah Marzuk", "name:en": "Khalaf Abd Allah Marzuk", "name:fr": "Khalaf Abd Allah Marzuk", "place": "village"}}, {"type": "node", "id": 2489278102, "lat": 35.253726, "lon": 43.91153, "tags": {"alt_name": "\u0642\u0631\u064a\u0629 \u0642\u0635\u0628\u0629 \u0627\u0644\u0631\u064a\u0627\u0636", "int_name": "Qaryat Qa\u015fbat ar Riy\u0101\u1e11, \u0642\u0631\u064a\u0629 \u0642\u0635\u0628\u0629 \u0627\u0644\u0631\u064a\u0627\u0636, Qaryat Qasbat ar Riyad, \u0642\u0631\u064a\u0629 \u0642\u0635\u0628\u0629 \u0627\u0644\u0631\u064a\u0627\u0636", "name": "\u0642\u0635\u0628\u0629 \u0627\u0644\u0631\u064a\u0627\u0636", "name:ar": "\u0642\u0631\u064a\u0629 \u0642\u0635\u0628\u0629 \u0627\u0644\u0631\u064a\u0627\u0636", "name:ar1": "\u0642\u0631\u064a\u0629 \u0642\u0635\u0628\u0629 \u0627\u0644\u0631\u064a\u0627\u0636", "name:de": "Qaryat Qasbat ar Riyad", "name:en": "Qaryat Qasbat ar Riyad", "name:fr": "Qaryat Qasbat ar Riyad", "place": "village"}}, {"type": "node", "id": 2489278107, "lat": 35.3156695, "lon": 43.8942489, "tags": {"alt_name": "\u0642\u0631\u064a\u0629 \u0642\u0635\u0631 \u0627\u0644\u0623\u0648\u0644", "int_name": "Qaryat Qa\u015fr al Awal, \u0642\u0631\u064a\u0629 \u0642\u0635\u0631 \u0627\u0644\u0627\u0648\u0644, Qaryat Qasr al Awal, \u0642\u0631\u064a\u0629 \u0642\u0635\u0631 \u0627\u0644\u0627\u0648\u0644", "name": "\u0642\u0635\u0631 \u0627\u0644\u0623\u0648\u0644", "name:ar1": "\u0642\u0631\u064a\u0629 \u0642\u0635\u0631 \u0627\u0644\u0623\u0648\u0644", "name:ckb": "\u0642\u06d5\u0633\u0631\u06cc \u06cc\u06d5\u06a9\u06d5\u0645", "name:de": "Qasr al Awal", "name:en": "Qasr al Awal", "name:fr": "Qasr al Awal", "place": "village"}}, {"type": "node", "id": 2489278112, "lat": 35.301186, "lon": 43.8998064, "tags": {"alt_name": "\u0642\u0631\u064a\u0629 \u0642\u0635\u0631 \u0627\u0644\u062b\u0627\u0646\u064a", "int_name": "Qaryat Qa\u015fr ath Th\u0101n\u012b, \u0642\u0631\u064a\u0629 \u0642\u0635\u0631 \u0627\u0644\u062b\u0627\u0646\u064a, Qaryat Qasr ath Thani, \u0642\u0631\u064a\u0629 \u0642\u0635\u0631 \u0627\u0644\u062b\u0627\u0646\u064a", "name": "\u0642\u0635\u0631 \u0627\u0644\u062b\u0627\u0646\u064a", "name:ar": "\u0642\u06d5\u0633\u0631\u06cc \u062f\u0648\u0648\u06d5\u0645", "name:ar1": "\u0642\u0631\u064a\u0629 \u0642\u0635\u0631 \u0627\u0644\u062b\u0627\u0646\u064a", "name:de": "Qasr ath Thani", "name:en": "Qasr ath Thani", "name:fr": "Qasr ath Thani", "place": "village"}}, {"type": "node", "id": 2489278117, "lat": 35.2893635, "lon": 43.8855999, "tags": {"alt_name": "\u0642\u0631\u064a\u0629 \u0631\u0628\u0632\u0629", "int_name": "Qaryat Rabzah, Rabazah, Rabzah, \u0642\u0631\u064a\u0629 \u0631\u0628\u0632\u0629, Qaryat Rabzah, Rabazah, Rabzah, \u0642\u0631\u064a\u0629 \u0631\u0628\u0632\u0629", "name": "\u0631\u0628\u0632\u0629", "name:ar": "\u0631\u0628\u0632\u0629", "name:ar1": "\u0642\u0631\u064a\u0629 \u0631\u0628\u0632\u0629", "name:ckb": "\u0695\u06d5\u0628\u0632\u06d5", "name:de": "Rabzah", "name:en": "Rabzah", "name:fr": "Rabzah", "place": "village"}}, {"type": "node", "id": 2489278122, "lat": 35.3204519, "lon": 43.9163919, "tags": {"alt_name": "\u0642\u0631\u064a\u0629 \u0634\u0644\u0627\u0643\u0629", "int_name": "Qaryat Shal\u0101kah, \u0642\u0631\u064a\u0629 \u0634\u0644\u0627\u0643\u0629, Qaryat Shalakah, \u0642\u0631\u064a\u0629 \u0634\u0644\u0627\u0643\u0629", "name": "\u0634\u0644\u0627\u0643\u0629", "name:ar1": "\u0642\u0631\u064a\u0629 \u0634\u0644\u0627\u0643\u0629", "name:ckb": "\u0634\u06d5\u0644\u0627\u06af\u06d5", "name:de": "Shalakah", "name:en": "Shalakah", "name:fr": "Shalakah", "place": "village"}}, {"type": "node", "id": 2489278131, "lat": 35.2403628, "lon": 43.873504, "tags": {"alt_name": "\u0642\u0631\u064a\u0629 \u0637\u0627\u0631 \u0627\u0644\u0628\u063a\u0644", "int_name": "Qaryat \u0162\u0101r al Baghal, \u0642\u0631\u064a\u0629 \u0637\u0627\u0631 \u0627\u0644\u0628\u063a\u0644, Qaryat Tar al Baghal, \u0642\u0631\u064a\u0629 \u0637\u0627\u0631 \u0627\u0644\u0628\u063a\u0644", "name": "\u0637\u0627\u0631 \u0627\u0644\u0628\u063a\u0644", "name:ar": "\u0637\u0627\u0631 \u0627\u0644\u0628\u063a\u0644", "name:ar1": "\u0642\u0631\u064a\u0629 \u0637\u0627\u0631 \u0627\u0644\u0628\u063a\u0644", "name:ckb": "\u062a\u0627\u0631\u0628\u06d5\u063a\u06d5\u0644", "name:de": "Tar al Baghal", "name:en": "Tar al Baghal", "name:fr": "Tar al Baghal", "place": "village"}}, {"type": "node", "id": 2489278139, "lat": 35.31031, "lon": 43.920569, "tags": {"alt_name": "\u0642\u0631\u064a\u0629 \u0627\u0644\u0639\u0645\u0627\u0631", "int_name": "Qaryat al Am\u0101r, \u0642\u0631\u064a\u0629 \u0627\u0644\u0639\u0645\u0627\u0631, Qaryat al Amar, \u0642\u0631\u064a\u0629 \u0627\u0644\u0639\u0645\u0627\u0631", "name": "\u0642\u0631\u064a\u0629 \u0627\u0644\u0639\u0645\u0627\u0631", "name:ar": "\u0642\u0631\u064a\u0629 \u0627\u0644\u0639\u0645\u0627\u0631", "name:ar1": "\u0642\u0631\u064a\u0629 \u0627\u0644\u0639\u0645\u0627\u0631", "name:de": "Qaryat al Amar", "name:en": "Qaryat al Amar", "name:fr": "Qaryat al Amar", "place": "village"}}, {"type": "node", "id": 2489278169, "lat": 35.241188, "lon": 43.887319, "tags": {"alt_name": "\u0642\u0631\u064a\u0629 \u0627\u0644\u0645\u0634\u0627\u0647\u0631\u064a\u0629", "int_name": "Qaryat al Mush\u0101hir\u012byah, \u0642\u0631\u064a\u0629 \u0627\u0644\u0645\u0634\u0627\u0647\u0631\u064a\u0629, Qaryat al Mushahiriyah, \u0642\u0631\u064a\u0629 \u0627\u0644\u0645\u0634\u0627\u0647\u0631\u064a\u0629", "name": "\u0645\u0634\u0627\u0647\u0631\u064a\u0629", "name:ar": "\u0645\u0634\u0627\u0647\u0631\u064a\u0629", "name:ar1": "\u0642\u0631\u064a\u0629 \u0627\u0644\u0645\u0634\u0627\u0647\u0631\u064a\u0629", "name:ckb": "\u0645\u0648\u0634\u0627\u0647\u06cc\u0631\u06cc\u06d5", "name:de": "Mushahiriyah", "name:en": "Mushahiriyah", "name:fr": "Mushahiriyah", "place": "village"}}, {"type": "node", "id": 2489278174, "lat": 35.225817, "lon": 43.872524, "tags": {"alt_name": "\u0642\u0631\u064a\u0629 \u0627\u0644\u0645\u062a\u0641\u0631\u0642\u0629", "int_name": "Qaryat al Mutafariqah, \u0642\u0631\u064a\u0629 \u0627\u0644\u0645\u062a\u0641\u0631\u0642\u0629, Qaryat al Mutafariqah, \u0642\u0631\u064a\u0629 \u0627\u0644\u0645\u062a\u0641\u0631\u0642\u0629", "name": "\u0642\u0631\u064a\u0629 \u0627\u0644\u0645\u062a\u0641\u0631\u0642\u0629", "name:ar": "\u0642\u0631\u064a\u0629 \u0627\u0644\u0645\u062a\u0641\u0631\u0642\u0629", "name:ar1": "\u0642\u0631\u064a\u0629 \u0627\u0644\u0645\u062a\u0641\u0631\u0642\u0629", "name:de": "Qaryat al Mutafariqah", "name:en": "Qaryat al Mutafariqah", "name:fr": "Qaryat al Mutafariqah", "place": "village"}}, {"type": "node", "id": 2489278184, "lat": 35.2731453, "lon": 43.8833565, "tags": {"alt_name": "\u0642\u0631\u064a\u0629 \u0627\u0644\u0646\u0635\u0631 \u0627\u0644\u0623\u0648\u0644\u0649", "int_name": "Qaryat an Na\u015fr al \u016al\u00e1, \u0642\u0631\u064a\u0629 \u0627\u0644\u0646\u0635\u0631 \u0627\u0644\u0627\u0648\u0644\u0649, Qaryat an Nasr al Ula, \u0642\u0631\u064a\u0629 \u0627\u0644\u0646\u0635\u0631 \u0627\u0644\u0627\u0648\u0644\u0649", "name": "\u0646\u0635\u0631 \u0627\u0644\u0623\u0648\u0644\u0649", "name:ar": "\u0646\u0635\u0631 \u0627\u0644\u0623\u0648\u0644\u0649", "name:ar1": "\u0642\u0631\u064a\u0629 \u0627\u0644\u0646\u0635\u0631 \u0627\u0644\u0623\u0648\u0644\u0649", "name:ckb": "\u0646\u06d5\u0633\u0631\u06cc \u06cc\u06d5\u06a9\u06d5\u0645", "name:de": "Nasr al Ula", "name:en": "Nasr al Ula", "name:fr": "Qaryat an Nasr al Ula", "place": "village"}}, {"type": "node", "id": 2489278188, "lat": 35.2685203, "lon": 43.8759488, "tags": {"alt_name": "\u0642\u0631\u064a\u0629 \u0627\u0644\u0646\u0635\u0631 \u0627\u0644\u062b\u0627\u0646\u064a\u0629", "int_name": "Qaryat an Na\u015fr ath Th\u0101n\u012byah, \u0642\u0631\u064a\u0629 \u0627\u0644\u0646\u0635\u0631 \u0627\u0644\u062b\u0627\u0646\u064a\u0629, Qaryat an Nasr ath Thaniyah, \u0642\u0631\u064a\u0629 \u0627\u0644\u0646\u0635\u0631 \u0627\u0644\u062b\u0627\u0646\u064a\u0629", "name": "\u0646\u0635\u0631 \u0627\u0644\u062b\u0627\u0646\u064a\u0629", "name:ar": "\u0646\u0635\u0631 \u0627\u0644\u062b\u0627\u0646\u064a\u0629", "name:ar1": "\u0642\u0631\u064a\u0629 \u0627\u0644\u0646\u0635\u0631 \u0627\u0644\u062b\u0627\u0646\u064a\u0629", "name:ckb": "\u0646\u06d5\u0633\u0631\u06cc \u062f\u0648\u0648\u06d5\u0645", "name:de": "Nasr ath Thaniyah", "name:en": "Nasr ath Thaniyah", "name:fr": "Nasr ath Thaniyah", "place": "village"}}, {"type": "node", "id": 2489278198, "lat": 35.2082771, "lon": 43.8948328, "tags": {"alt_name": "\u0642\u0631\u064a\u0629 \u0627\u0644\u0633\u0639\u062f\u0648\u0646\u064a\u0629", "int_name": "Qaryat as Sad\u016bn\u012byah, \u0642\u0631\u064a\u0629 \u0627\u0644\u0633\u0639\u062f\u0648\u0646\u064a\u0629, Qaryat as Saduniyah, \u0642\u0631\u064a\u0629 \u0627\u0644\u0633\u0639\u062f\u0648\u0646\u064a\u0629", "name": "\u0633\u0639\u062f\u0648\u0646\u064a\u0629", "name:ar": "\u0633\u0639\u062f\u0648\u0646\u064a\u0629", "name:ar1": "\u0642\u0631\u064a\u0629 \u0627\u0644\u0633\u0639\u062f\u0648\u0646\u064a\u0629", "name:ckb": "\u0633\u06d5\u0639\u062f\u0648\u0646\u06cc\u06d5", "name:de": "Saduniyah", "name:en": "Saduniyah", "name:fr": "Saduniyah", "place": "village"}}, {"type": "node", "id": 2489278202, "lat": 35.260468, "lon": 43.8836095, "tags": {"alt_name": "\u0642\u0631\u064a\u0629 \u0627\u0644\u0634\u0631\u064a\u0641\u064a\u0629", "int_name": "Qaryat ash Shar\u012bf\u012byah, \u0642\u0631\u064a\u0629 \u0627\u0644\u0634\u0631\u064a\u0641\u064a\u0629, Qaryat ash Sharifiyah, \u0642\u0631\u064a\u0629 \u0627\u0644\u0634\u0631\u064a\u0641\u064a\u0629", "name": "\u0634\u0631\u064a\u0641\u064a\u0629", "name:ar": "\u0634\u0631\u064a\u0641\u064a\u0629", "name:ar1": "\u0642\u0631\u064a\u0629 \u0627\u0644\u0634\u0631\u064a\u0641\u064a\u0629", "name:ckb": "\u0634\u06d5\u0631\u06cc\u0641\u06cc\u06d5", "name:de": "Sharifiyah", "name:en": "Sharifiyah", "name:fr": "Sharifiyah", "place": "village"}}, {"type": "node", "id": 2489278207, "lat": 35.2305878, "lon": 43.90353, "tags": {"alt_name": "\u0642\u0631\u064a\u0629 \u0627\u0644\u0637\u0627\u0647\u0631\u064a\u0629", "int_name": "Qaryat a\u0163 \u0162\u0101hir\u012byah, \u0642\u0631\u064a\u0629 \u0627\u0644\u0637\u0627\u0647\u0631\u064a\u0629, Qaryat at Tahiriyah, \u0642\u0631\u064a\u0629 \u0627\u0644\u0637\u0627\u0647\u0631\u064a\u0629", "name": "\u0637\u0627\u0647\u0631\u064a\u0629", "name:ar": "\u0637\u0627\u0647\u0631\u064a\u0629", "name:ar1": "\u0642\u0631\u064a\u0629 \u0627\u0644\u0637\u0627\u0647\u0631\u064a\u0629", "name:ckb": "\u062a\u0627\u0647\u06cc\u0631\u06cc\u06d5", "name:de": "Tahiriyah", "name:en": "Tahiriyah", "name:fr": "Tahiriyah", "place": "village"}}, {"type": "node", "id": 2489278279, "lat": 35.3099875, "lon": 43.9156609, "tags": {"alt_name": "\u0639\u0631\u0628 \u0623\u062d\u0645\u062f \u062e\u0644\u0641 \u0627\u0644\u062d\u0627\u0645", "name": "\u0639\u0631\u0628 \u0623\u062d\u0645\u062f \u062e\u0644\u0641 \u0627\u0644\u062d\u0627\u0645", "name:ar": "\u0639\u0631\u0628 \u0623\u062d\u0645\u062f \u062e\u0644\u0641 \u0627\u0644\u062d\u0627\u0645", "name:ar1": "\u0639\u0631\u0628 \u0623\u062d\u0645\u062f \u062e\u0644\u0641 \u0627\u0644\u062d\u0627\u0645", "place": "hamlet"}}, {"type": "node", "id": 2489321701, "lat": 35.3414829, "lon": 44.0057968, "tags": {"alt_name": "\u062e\u0627\u062a\u0648\u0646\u064a\u0629", "int_name": "Khatunia, Kh\u0101t\u016bn\u012byah, \u062e\u0627\u062a\u0648\u0646\u064a\u0629, Khatunia, Khatuniyah, \u062e\u0627\u062a\u0648\u0646\u064a\u0629", "name": "\u062e\u0627\u062a\u0648\u0646\u064a\u0629 \u0627\u0644\u0639\u0644\u06cc\u0627", "name:ar1": "\u062e\u0627\u062a\u0648\u0646\u064a\u0629", "name:ckb": "\u062e\u0627\u062a\u0648\u0646\u06cc\u06d5\u06cc \u0633\u06d5\u0631\u0648\u0648", "name:de": "Upper Khatunia", "name:en": "Upper Khatunia", "name:fr": "Khatunia", "place": "village"}}, {"type": "node", "id": 2489321741, "lat": 35.3122601, "lon": 43.9675203, "tags": {"alt_name": "\u0645\u0641\u062a\u0648\u0644", "int_name": "Maft\u016bl, Maftul", "name": "\u0645\u0641\u062a\u0648\u0644", "name:ar": "\u0645\u0641\u062a\u0648\u0644", "name:ar1": "\u0645\u0641\u062a\u0648\u0644", "name:ckb": "\u0645\u06d5\u0641\u062a\u0648\u0644", "name:de": "Maftul", "name:en": "Maftul", "name:fr": "Maftul", "place": "village"}}, {"type": "node", "id": 2489321814, "lat": 35.3042814, "lon": 43.9456813, "tags": {"alt_name": "\u0642\u0631\u064a\u0629 \u062f\u0631 \u0628\u062d\u064a\u0631\u0629", "int_name": "Qaryat Darr Ba\u1e29ayrah, \u0642\u0631\u064a\u0629 \u062f\u0631 \u0628\u062d\u064a\u0631\u0629, Qaryat Darr Bahayrah, \u0642\u0631\u064a\u0629 \u062f\u0631 \u0628\u062d\u064a\u0631\u0629", "name": "\u062f\u0631 \u0628\u062d\u064a\u0631\u0629", "name:ar": "\u062f\u0631 \u0628\u062d\u064a\u0631\u0629", "name:ar1": "\u0642\u0631\u064a\u0629 \u062f\u0631 \u0628\u062d\u064a\u0631\u0629", "name:ckb": "\u062f\u06d5\u0631 \u0628\u0648\u062d\u06d5\u06cc\u0631\u06d5", "name:de": "Darr Bahayrah", "name:en": "Darr Bahayrah", "name:fr": "Darr Bahayrah", "place": "village"}}, {"type": "node", "id": 2489321849, "lat": 35.3324357, "lon": 43.9942187, "tags": {"alt_name": "\u0642\u0631\u064a\u0629 \u062e\u0627\u062a\u0648\u0646\u064a\u0629 \u0627\u0644\u0633\u0641\u0644\u0649", "int_name": "Qaryat Kh\u0101t\u016bn\u012byat as Sufl\u00e1, \u0642\u0631\u064a\u0629 \u062e\u0627\u062a\u0648\u0646\u064a\u0629 \u0627\u0644\u0633\u0641\u0644\u0649, Qaryat Khatuniyat as Sufla, \u0642\u0631\u064a\u0629 \u062e\u0627\u062a\u0648\u0646\u064a\u0629 \u0627\u0644\u0633\u0641\u0644\u0649", "name": "\u062e\u0627\u062a\u0648\u0646\u064a\u0629 \u0627\u0644\u0633\u0641\u0644\u0649", "name:ar": "\u062e\u0627\u062a\u0648\u0646\u064a\u0629 \u0627\u0644\u0633\u0641\u0644\u0649", "name:ar1": "\u0642\u0631\u064a\u0629 \u062e\u0627\u062a\u0648\u0646\u064a\u0629 \u0627\u0644\u0633\u0641\u0644\u0649", "name:ckb": "\u062e\u0627\u062a\u0648\u0646\u06cc\u06d5\u06cc \u062e\u0648\u0627\u0631\u0648\u0648", "name:de": "Lower Khatuniyat", "name:en": "Lower Khatuniyat", "name:fr": "Lower Khatuniyat", "place": "village"}}, {"type": "node", "id": 2489321857, "lat": 35.303513, "lon": 43.9417626, "tags": {"alt_name": "\u0642\u0631\u064a\u0629 \u0633\u0628\u0639 \u062a\u0644\u0648\u0644", "int_name": "Qaryat Saba Tul\u016bl, \u0642\u0631\u064a\u0629 \u0633\u0628\u0639 \u062a\u0644\u0648\u0644, Qaryat Saba Tulul, \u0642\u0631\u064a\u0629 \u0633\u0628\u0639 \u062a\u0644\u0648\u0644", "name": "\u0633\u0628\u0639 \u062a\u0644\u0648\u0644", "name:ar": "\u0633\u0628\u0639 \u062a\u0644\u0648\u0644", "name:ar1": "\u0642\u0631\u064a\u0629 \u0633\u0628\u0639 \u062a\u0644\u0648\u0644", "name:ckb": "\u0633\u06d5\u0628\u0639 \u062a\u06d5\u0644\u0648\u0644", "name:de": "Saba Tulul", "name:en": "Saba Tulul", "name:fr": "Saba Tulul", "place": "village"}}, {"type": "node", "id": 2489321861, "lat": 35.2275766, "lon": 43.968138, "tags": {"alt_name": "\u0642\u0631\u064a\u0629 \u0634\u0627\u0644\u062e \u0639\u064a\u062f", "int_name": "Qaryat Sh\u0101likh \u012ad, \u0642\u0631\u064a\u0629 \u0634\u0627\u0644\u062e \u0639\u064a\u062f, Qaryat Shalikh Id, \u0642\u0631\u064a\u0629 \u0634\u0627\u0644\u062e \u0639\u064a\u062f", "name": "\u0642\u0631\u064a\u0629 \u0634\u0627\u0644\u062e \u0639\u064a\u062f", "name:ar": "\u0634\u0627\u0644\u062e \u0639\u064a\u062f", "name:ar1": "\u0642\u0631\u064a\u0629 \u0634\u0627\u0644\u062e \u0639\u064a\u062f", "name:ckb": "\u0634\u0627\u0644\u06cc\u062e \u0639\u06cc\u062f", "name:de": "Shalikh Id", "name:en": "Shalikh Id", "name:fr": "Shalikh Id", "place": "village"}}, {"type": "node", "id": 2489321862, "lat": 35.2089485, "lon": 43.9491104, "tags": {"alt_name": "\u0642\u0631\u064a\u0629 \u062a\u0644 \u0627\u0644\u0639\u0628\u062f", "int_name": "Qaryat Tall al Abd, \u0642\u0631\u064a\u0629 \u062a\u0644 \u0627\u0644\u0639\u0628\u062f, Qaryat Tall al Abd, \u0642\u0631\u064a\u0629 \u062a\u0644 \u0627\u0644\u0639\u0628\u062f", "name": "\u062a\u0644 \u0627\u0644\u0639\u0628\u062f", "name:ar": "\u062a\u0644 \u0627\u0644\u0639\u0628\u062f", "name:ar1": "\u0642\u0631\u064a\u0629 \u062a\u0644 \u0627\u0644\u0639\u0628\u062f", "name:ckb": "\u062a\u06d5\u0644 \u0639\u06d5\u0628\u062f", "name:de": "Tall al Abd", "name:en": "Tall al Abd", "name:fr": "Tall al Abd", "place": "village"}}, {"type": "node", "id": 2489321864, "lat": 35.2277415, "lon": 43.9460703, "tags": {"alt_name": "\u0642\u0631\u064a\u0629 \u0637\u0648\u064a\u0644\u0639\u0629", "int_name": "Qaryat \u0162aw\u012blah, \u0642\u0631\u064a\u0629 \u0637\u0648\u064a\u0644\u0639\u0629, Qaryat Tawilah, \u0642\u0631\u064a\u0629 \u0637\u0648\u064a\u0644\u0639\u0629", "name": "\u0637\u0648\u06cc\u0644\u0639\u0629 \u0627\u0644\u0633\u0641\u0644\u06cc", "name:ar": "\u0637\u0648\u06cc\u0644\u0639\u0629 \u0627\u0644\u0633\u0641\u0644\u06cc", "name:ar1": "\u0642\u0631\u064a\u0629 \u0637\u0648\u064a\u0644\u0639\u0629", "name:ckb": "\u062a\u06d5\u0648\u06cc\u0644\u0639\u06d5\u06cc \u062e\u0648\u0627\u0631\u0648\u0648", "name:de": "Tawilah Sufla", "name:en": "Tawilah Sufla", "name:fr": "Tawilah Sufla", "place": "village"}}, {"type": "node", "id": 2489321866, "lat": 35.2403028, "lon": 43.9431069, "tags": {"alt_name": "\u0642\u0631\u064a\u0629 \u0637\u0648\u064a\u0644\u0639\u0629 \u0627\u0644\u0639\u0644\u064a\u0627", "int_name": "Qaryat \u0162aw\u012blat al Uly\u00e1, \u0642\u0631\u064a\u0629 \u0637\u0648\u064a\u0644\u0639\u0629 \u0627\u0644\u0639\u0644\u064a\u0627, Qaryat Tawilat al Ulya, \u0642\u0631\u064a\u0629 \u0637\u0648\u064a\u0644\u0639\u0629 \u0627\u0644\u0639\u0644\u064a\u0627", "name": "\u0637\u0648\u064a\u0644\u0639\u0629 \u0627\u0644\u0639\u0644\u064a\u0627", "name:ar": "\u0637\u0648\u064a\u0644\u0639\u0629 \u0627\u0644\u0639\u0644\u064a\u0627", "name:ar1": "\u0642\u0631\u064a\u0629 \u0637\u0648\u064a\u0644\u0639\u0629 \u0627\u0644\u0639\u0644\u064a\u0627", "name:ckb": "\u062a\u06d5\u0648\u06cc\u0644\u0639\u06d5\u06cc \u0633\u06d5\u0631\u0648\u0648", "name:de": "Tawilat al Ulya", "name:en": "Tawilat al Ulya", "name:fr": "Tawilat al Ulya", "place": "village"}}, {"type": "node", "id": 2489321868, "lat": 35.2333425, "lon": 43.929901, "tags": {"alt_name": "\u0642\u0631\u064a\u0629 \u062b\u0648\u064a\u0645 \u0633\u0628\u0644\u0627\u0646", "int_name": "Qaryat Tuwa\u012bm Sabl\u0101n, \u0642\u0631\u064a\u0629 \u062a\u0648\u064a\u0645 \u0633\u0628\u0644\u0627\u0646, Qaryat Tuwaim Sablan, \u0642\u0631\u064a\u0629 \u062b\u0648\u064a\u0645 \u0633\u0628\u0644\u0627\u0646", "name": "\u062b\u0648\u064a\u0645 \u0633\u0628\u0644\u0627\u0646", "name:ar": "\u062b\u0648\u064a\u0645 \u0633\u0628\u0644\u0627\u0646", "name:ar1": "\u0642\u0631\u064a\u0629 \u062b\u0648\u064a\u0645 \u0633\u0628\u0644\u0627\u0646", "name:ckb": "\u0633\u0648\u06cc\u0645 \u0633\u06d5\u0628\u0644\u0627\u0646", "name:de": "Tuwaim Sablan", "name:en": "Tuwaim Sablan", "name:fr": "Tuwaim Sablan", "place": "village"}}, {"type": "node", "id": 2489321869, "lat": 35.3037714, "lon": 43.9587056, "tags": {"alt_name": "\u0642\u0631\u064a\u0629 \u0627\u0644\u062f\u0645\u0627\u0643\u0629", "int_name": "Qaryat ad Dam\u0101kah, \u0642\u0631\u064a\u0629 \u0627\u0644\u062f\u0645\u0627\u0643\u0629, Qaryat ad Damakah, \u0642\u0631\u064a\u0629 \u0627\u0644\u062f\u0645\u0627\u0643\u0629", "name": "\u062f\u0645\u0627\u0643\u0629", "name:ar": "\u062f\u0645\u0627\u0643\u0629", "name:ar1": "\u0642\u0631\u064a\u0629 \u0627\u0644\u062f\u0645\u0627\u0643\u0629", "name:ckb": "\u062f\u06d5\u0645\u0627\u06a9\u06d5", "name:de": "Damakah", "name:en": "Damakah", "name:fr": "Damakah", "place": "village"}}, {"type": "node", "id": 2489321871, "lat": 35.3266415, "lon": 43.9511283, "tags": {"alt_name": "\u0642\u0631\u064a\u0629 \u0627\u0644\u062f\u0628 \u0627\u0644\u0643\u0628\u064a\u0631", "int_name": "Qaryat ad Dubb al Kab\u012br, \u0642\u0631\u064a\u0629 \u0627\u0644\u062f\u0628 \u0627\u0644\u0643\u0628\u064a\u0631, Qaryat ad Dubb al Kabir, \u0642\u0631\u064a\u0629 \u0627\u0644\u062f\u0628 \u0627\u0644\u0643\u0628\u064a\u0631", "name": "\u062f\u0628", "name:ar1": "\u0642\u0631\u064a\u0629 \u0627\u0644\u062f\u0628 \u0627\u0644\u0643\u0628\u064a\u0631", "name:ckb": "\u062f\u0648\u0628", "name:de": "Dubb", "name:en": "Dubb", "name:fr": "Dubb", "place": "village"}}, {"type": "node", "id": 2489321878, "lat": 35.291972, "lon": 43.948188, "tags": {"alt_name": "\u0642\u0631\u064a\u0629 \u0627\u0644\u0641\u062e\u0627\u0631", "int_name": "Qaryat al Fakh\u0101r, \u0642\u0631\u064a\u0629 \u0627\u0644\u0641\u062e\u0627\u0631, Qaryat al Fakhar, \u0642\u0631\u064a\u0629 \u0627\u0644\u0641\u062e\u0627\u0631", "name": "\u0641\u062e\u0627\u0631", "name:ar": "\u0641\u062e\u0627\u0631", "name:ar1": "\u0642\u0631\u064a\u0629 \u0627\u0644\u0641\u062e\u0627\u0631", "name:ckb": "\u0641\u06d5\u062e\u0627\u0631", "name:de": "Fakhar", "name:en": "Fakhar", "name:fr": "Fakhar", "place": "village"}}, {"type": "node", "id": 2489321879, "lat": 35.2213639, "lon": 43.9916915, "tags": {"alt_name": "\u0642\u0631\u064a\u0629 \u0627\u0644\u0641\u0631\u063a\u0648\u0644", "int_name": "Qaryat al Fargh\u016bl, \u0642\u0631\u064a\u0629 \u0627\u0644\u0641\u0631\u063a\u0648\u0644, Qaryat al Farghul, \u0642\u0631\u064a\u0629 \u0627\u0644\u0641\u0631\u063a\u0648\u0644", "name": "\u0642\u0631\u063a\u0648\u0644", "name:ar": "\u0642\u0631\u063a\u0648\u0644", "name:ar1": "\u0642\u0631\u064a\u0629 \u0627\u0644\u0641\u0631\u063a\u0648\u0644", "name:ckb": "\u0642\u06d5\u0631\u06d5\u063a\u0648\u0644", "name:de": "Qaraghul", "name:en": "Qaraghul", "name:fr": "Qaraghul", "place": "village"}}, {"type": "node", "id": 2489321919, "lat": 35.2477595, "lon": 43.9802977, "tags": {"alt_name": "\u0642\u0631\u064a\u0629 \u0627\u0644\u0634\u064a\u062e \u0623\u062d\u0645\u062f", "int_name": "Qaryat ash Shaykh A\u1e29mad, \u0642\u0631\u064a\u0629 \u0627\u0644\u0634\u064a\u062e \u0627\u062d\u0645\u062f, Qaryat ash Shaykh Ahmad, \u0642\u0631\u064a\u0629 \u0627\u0644\u0634\u064a\u062e \u0627\u062d\u0645\u062f", "name": "\u0634\u064a\u062e \u0623\u062d\u0645\u062f", "name:ar": "\u0634\u064a\u062e \u0623\u062d\u0645\u062f", "name:ar1": "\u0642\u0631\u064a\u0629 \u0627\u0644\u0634\u064a\u062e \u0623\u062d\u0645\u062f", "name:ckb": "\u0634\u06ce\u062e \u0626\u06d5\u062d\u0645\u06d5\u062f", "name:de": "Shaykh Ahmad", "name:en": "Shaykh Ahmad", "name:fr": "Shaykh Ahmad", "place": "village"}}, {"type": "node", "id": 4558357718, "lat": 35.6156261, "lon": 43.6326099}, {"type": "node", "id": 4558357719, "lat": 35.6143178, "lon": 43.6331248}, {"type": "node", "id": 4558357720, "lat": 35.6143004, "lon": 43.6351419}, {"type": "node", "id": 4558357721, "lat": 35.6159227, "lon": 43.6348415}, {"type": "node", "id": 4930971032, "lat": 35.3222792, "lon": 43.7950456, "tags": {"name": "\u0642\u0631\u064a\u0629 \u0627\u0644\u0628\u06af\u0627\u0631\u0629", "name:ar": "\u0642\u0631\u064a\u0629 \u0627\u0644\u0628\u06af\u0627\u0631\u0629", "place": "village"}}, {"type": "node", "id": 5058779131, "lat": 35.3155646, "lon": 43.7734351, "tags": {"name": "\u0642\u0631\u064a\u0629 \u0627\u0644\u0639\u064a\u062b\u0627\u062a", "name:ar": "\u062d\u064a \u0627\u0644\u0633\u0644\u0627\u0645", "name:en": "Salam District", "place": "village"}}, {"type": "node", "id": 7517140507, "lat": 35.5762469, "lon": 43.9233246}, {"type": "node", "id": 7517140508, "lat": 35.5751875, "lon": 43.9230698}, {"type": "node", "id": 7517140509, "lat": 35.5736907, "lon": 43.9232255}, {"type": "node", "id": 7517140510, "lat": 35.572804, "lon": 43.9246129}, {"type": "node", "id": 7517140511, "lat": 35.5725507, "lon": 43.9265382}, {"type": "node", "id": 7517140512, "lat": 35.5727925, "lon": 43.9278689}, {"type": "node", "id": 7517140513, "lat": 35.573967, "lon": 43.929497}, {"type": "node", "id": 7517140514, "lat": 35.5749918, "lon": 43.9302756}, {"type": "node", "id": 7517140515, "lat": 35.5750954, "lon": 43.9314081}, {"type": "node", "id": 7517140516, "lat": 35.5766384, "lon": 43.9320452}, {"type": "node", "id": 7517140517, "lat": 35.5780316, "lon": 43.9310967}, {"type": "node", "id": 7517140518, "lat": 35.5802768, "lon": 43.9316771}, {"type": "node", "id": 7517140519, "lat": 35.5808985, "lon": 43.9333051}, {"type": "node", "id": 7517140520, "lat": 35.5820959, "lon": 43.9320877}, {"type": "node", "id": 7517140521, "lat": 35.5805876, "lon": 43.929412}, {"type": "node", "id": 7517140522, "lat": 35.5809561, "lon": 43.9271753}, {"type": "node", "id": 7517140523, "lat": 35.5803459, "lon": 43.9255897}, {"type": "node", "id": 7517140524, "lat": 35.5789181, "lon": 43.9241882}, {"type": "node", "id": 7517140525, "lat": 35.577974, "lon": 43.9236785}, {"type": "node", "id": 7610023185, "lat": 35.3495177, "lon": 43.7025083, "tags": {"name": "\u0632\u0647\u062f\u06cc\u0629", "name:ckb": "\u0632\u0648\u0647\u062f\u06cc\u06d5", "name:en": "Zuhdia", "place": "village"}}, {"type": "node", "id": 8632120419, "lat": 35.3193573, "lon": 43.7503514, "tags": {"name": "\u0642\u0631\u064a\u0647 \u0627\u0644\u062f\u0628\u0633", "place": "village"}}, {"type": "node", "id": 9520492042, "lat": 35.5447744, "lon": 43.7687167, "tags": {"name": "\u0686\u0627\u0631\u0628\u06d5\u0631\u062f\u0627\u0646", "name:ckb": "\u0686\u0627\u0631\u0628\u06d5\u0631\u062f\u0627\u0646", "name:en": "Charbardan", "name:ku": "\u00c7arberdan", "place": "village"}}, {"type": "node", "id": 9520499254, "lat": 35.5933997, "lon": 43.7024493, "tags": {"name": "\u0644\u0627\u0633\u0648\u0631", "place": "village"}}, {"type": "node", "id": 9602553267, "lat": 35.3233218, "lon": 43.7824093, "tags": {"name": "\u0627\u0644\u062d\u0648\u064a\u062c\u0629", "name:ar": "\u0627\u0644\u062d\u0648\u064a\u062c\u0629", "name:ckb": "\u062d\u06d5\u0648\u06cc\u062c\u06d5", "name:en": "hawija", "name:ku": "hew\u00eece", "place": "town"}}, {"type": "node", "id": 9603699906, "lat": 35.2801382, "lon": 43.9965375, "tags": {"name": "\u062e\u0631\u0628\u0629 \u0639\u0632\u064a\u0632", "name:ar": "\u062e\u0631\u0628\u0629 \u0639\u0632\u064a\u0632", "name:ckb": "\u062e\u06cc\u0631\u0628\u06d5 \u0639\u06d5\u0632\u06cc\u0632", "name:en": "Khirba Aziz", "place": "village"}}, {"type": "node", "id": 10755855088, "lat": 35.2723231, "lon": 43.6235091, "tags": {"name": "\u0639\u0631\u0635\u0629", "name:ckb": "\u0639\u06d5\u0631\u06d5\u0633\u06d5", "name:en": "Arasa", "place": "village"}}, {"type": "node", "id": 10755906207, "lat": 35.2590705, "lon": 43.637463, "tags": {"name": "\u062d\u0645\u062f\u0627\u0646\u064a\u0629", "name:ckb": "\u062d\u06d5\u0645\u062f\u0627\u0646\u06cc\u06d5", "name:en": "Hamdania", "place": "village"}}, {"type": "node", "id": 10755932230, "lat": 35.2590679, "lon": 43.6936056, "tags": {"name": "\u0633\u0639\u06cc\u062f\u06cc\u0629", "name:ckb": "\u0633\u06d5\u0639\u06cc\u062f\u06cc\u06d5", "name:en": "Saeediyah", "place": "village"}}, {"type": "node", "id": 10755932231, "lat": 35.2429833, "lon": 43.6985606, "tags": {"name": "\u06a9\u0631\u0627\u0645\u0629", "name:ckb": "\u06a9\u06d5\u0695\u0627\u0645\u06d5", "name:en": "Karama", "place": "village"}}, {"type": "node", "id": 10951888805, "lat": 35.452495, "lon": 43.965544, "tags": {"name": "\u0633\u0642\u0641", "name:ar": "\u0633\u0642\u0641", "name:ckb": "\u0633\u06d5\u0642\u0641", "name:en": "Saqf", "place": "village"}}, {"type": "node", "id": 11169542906, "lat": 35.6047774, "lon": 43.9753817, "tags": {"name": "\u0627\u0644\u0645\u0644\u062d\u0629", "name:ar": "\u0627\u0644\u0645\u0644\u062d\u0629", "name:ckb": "\u0645\u06d5\u0644\u062d\u06d5", "name:en": "Malha", "place": "village"}}, {"type": "node", "id": 11169600320, "lat": 35.5926086, "lon": 43.9911039, "tags": {"name": "\u062c\u062f\u06cc\u062f\u0629 \u0627\u0644\u0645\u0644\u062d\u0629", "name:ar": "\u062c\u062f\u06cc\u062f\u0629 \u0627\u0644\u0645\u0644\u062d\u0629", "name:ckb": "\u0645\u06d5\u0644\u062d\u06d5\u06cc \u062a\u0627\u0632\u06d5", "name:en": "New Malha", "place": "village"}}, {"type": "node", "id": 11190467235, "lat": 35.3872743, "lon": 43.9210095, "tags": {"name": "\u0639\u06cc\u0635\u0644\u0627\u0646\u06cc\u0629", "name:ckb": "\u0639\u06cc\u0635\u0644\u0627\u0646\u06cc\u06d5", "name:en": "A\u015fl\u0101n\u012byah", "place": "village"}}, {"type": "node", "id": 11190473581, "lat": 35.375019, "lon": 43.9052246, "tags": {"name": "\u062d\u0648\u0627\u0633", "name:ckb": "\u062d\u06d5\u0648\u0627\u0633", "name:en": "Hawas", "place": "village"}}, {"type": "node", "id": 11190513232, "lat": 35.3531599, "lon": 43.9605077, "tags": {"name": "\u0627\u0644\u0647\u064a\u0627\u0632\u0639\u064a\u0629", "name:ckb": "\u0647\u06d5\u06cc\u0627\u0632\u0639\u06cc\u06d5", "name:en": "Hay\u0101zi\u2018", "place": "village"}}, {"type": "node", "id": 11190519476, "lat": 35.429372, "lon": 43.988084, "tags": {"name": "\u0627\u0628\u0648 \u0635\u062e\u0631\u0629", "name:ckb": "\u0626\u06d5\u0628\u0648 \u0633\u06d5\u062e\u0631\u06d5", "name:en": "Ab\u016b \u015eakhrah", "place": "village"}}, {"type": "node", "id": 11190523019, "lat": 35.3684887, "lon": 43.8890699, "tags": {"name": "\u0635\u0627\u0644\u062d\u06cc\u0629", "name:ckb": "\u0633\u0627\u06b5\u06d5\u062d\u06cc\u06d5", "name:en": "Salahiah", "place": "village"}}, {"type": "node", "id": 11335688056, "lat": 35.5164055, "lon": 43.7516343, "tags": {"name": "\u06a9\u06d5\u0646\u062f\u06d5\u0628\u06d5\u06a9\u0631\u06d5", "name:ar": "\u06a9\u0646\u062f\u0628\u06a9\u0631\u0629", "name:en": "Kandabakra", "place": "village"}}, {"type": "node", "id": 11335699520, "lat": 35.5422837, "lon": 43.7911134, "tags": {"name": "\u062f\u0648\u0627\u0646\u0632\u06d5 \u0647\u06d5\u0648\u0627\u0631", "name:ar": "\u062f\u0648\u0627\u0646\u0632\u0629 \u0647\u0648\u0627\u0631", "name:en": "Dwanza Hawar", "place": "village"}}, {"type": "node", "id": 11335708464, "lat": 35.4691757, "lon": 43.6236269, "tags": {"name": "\u062d\u0627\u062c\u06cc \u0639\u06d5\u0644\u06cc \u06a9\u0627\u06a9\u06c6\u0644", "name:ar": "\u062d\u0627\u062c \u0639\u0644\u064a \u06a9\u0627\u06a9\u0648\u0644", "name:en": "Haji Ali Kakol", "place": "village"}}, {"type": "node", "id": 11335719630, "lat": 35.5524198, "lon": 43.6983501, "tags": {"name": "\u062c\u06d5\u0631\u06a9\u06cc\u0633", "name:ar": "\u062c\u0631\u06a9\u06cc\u0633", "name:en": "Jarkis", "place": "village"}}, {"type": "node", "id": 11335719871, "lat": 35.5302016, "lon": 43.8029514, "tags": {"name": "\u0639\u0648\u0645\u06d5\u0631 \u0626\u06d5\u0641\u06d5\u0646\u062f\u06cc", "name:ar": "\u0639\u0645\u0631 \u0623\u0641\u0646\u062f\u064a", "name:en": "Omar Afandy", "place": "village"}}, {"type": "node", "id": 11335732190, "lat": 35.5299538, "lon": 43.667935, "tags": {"name": "\u0645\u06d5\u062a\u0627\u0631", "name:ar": "\u0645\u062a\u0627\u0631", "name:en": "Matar", "place": "village"}}, {"type": "node", "id": 11335823554, "lat": 35.5293805, "lon": 43.8393775, "tags": {"name": "\u062e\u0627\u0632\u0631", "name:ar": "\u062e\u0627\u0632\u0631", "name:en": "Khazr", "place": "village"}}, {"type": "node", "id": 11335848774, "lat": 35.5434224, "lon": 43.8716711, "tags": {"name": "\u0633\u0627\u0631\u062a\u06a9", "name:ar": "\u0633\u0627\u0631\u062a\u06a9", "name:en": "Sartk", "place": "village"}}, {"type": "node", "id": 11335855219, "lat": 35.5592476, "lon": 43.8378631, "tags": {"name": "\u0647\u06d5\u0645\u06cc\u0646", "name:ar": "\u0647\u0645\u06cc\u0646", "name:en": "Hamin", "place": "village"}}, {"type": "node", "id": 11335866438, "lat": 35.5829832, "lon": 43.7727853, "tags": {"name": "\u062e\u0631\u067e\u06d5", "name:ar": "\u062e\u0631\u0628\u0629", "name:en": "Khrpa", "place": "village"}}, {"type": "node", "id": 11335874336, "lat": 35.5693754, "lon": 43.8235245, "tags": {"name": "\u0633\u06d5\u0628\u0627\u062d \u062e\u062f\u0631", "name:ar": "\u0635\u0628\u0627\u062d \u062e\u062f\u0631", "name:en": "Sabah Khdr", "place": "village"}}, {"type": "node", "id": 11347199205, "lat": 35.6111637, "lon": 43.7824745, "tags": {"name": "\u067e\u06cc\u0631 \u0645\u06d5\u0647\u062f\u06cc", "name:ar": "\u0628\u06cc\u0631 \u0645\u0647\u062f\u064a", "name:en": "Pir Mahdi", "place": "village"}}, {"type": "node", "id": 11347294673, "lat": 35.6323837, "lon": 43.848934, "tags": {"name": "\u0626\u06c6\u06b5\u0633", "name:ar": "\u0627\u0648\u0644\u0633", "name:en": "Ols", "place": "village"}}, {"type": "node", "id": 11364217461, "lat": 35.4749193, "lon": 43.5308073, "tags": {"name": "\u062f\u06c6\u0645\u06d5 \u0626\u06cc\u062f\u0631\u06cc\u0633", "name:ar": "\u062f\u0648\u0645\u0629 \u0625\u062f\u0631\u06cc\u0633", "name:en": "Doma Idris", "place": "village"}}, {"type": "node", "id": 11364221506, "lat": 35.4471113, "lon": 43.5109633, "tags": {"name": "\u0623\u0645 \u0627\u0644\u0639\u0638\u0627\u0645", "name:ckb": "\u0626\u0648\u0645 \u0639\u06d5\u0632\u0627\u0645", "name:en": "Um Aazam", "place": "village"}}, {"type": "node", "id": 11364244605, "lat": 35.466522, "lon": 43.5883191, "tags": {"name": "\u062a\u0644 \u0627\u0644\u0623\u062c\u0648\u062f", "name:ckb": "\u062a\u06d5\u0644 \u0626\u06d5\u0644\u0626\u06d5\u062c\u0648\u062f", "name:en": "Tal Al-Ajwad", "place": "village"}}, {"type": "node", "id": 11364272595, "lat": 35.4464105, "lon": 43.4698577, "tags": {"name": "\u062a\u0644 \u0627\u0644\u063a\u0627\u0631\u0629", "name:ckb": "\u062a\u06d5\u0644 \u063a\u0627\u0631\u06d5", "name:en": "Tal Al-Ghara", "place": "village"}}, {"type": "node", "id": 11364427322, "lat": 35.4287672, "lon": 43.5520668, "tags": {"name": "\u062d\u0645\u062f \u0645\u062d\u0645\u062f \u0639\u0644\u064a", "name:ckb": "\u062d\u06d5\u0645\u06d5\u062f \u0645\u0648\u062d\u06d5\u0645\u0645\u06d5\u062f \u0639\u06d5\u0644\u06cc", "name:en": "Hamad Muhammad Ali", "place": "village"}}, {"type": "node", "id": 11364468237, "lat": 35.4342047, "lon": 43.5487194, "tags": {"name": "\u062a\u0644 \u0627\u0644\u0648\u0631\u062f", "name:ckb": "\u062a\u06d5\u0644 \u0648\u06d5\u0631\u062f", "name:en": "Tal Al-Ward", "place": "village"}}, {"type": "node", "id": 11364480428, "lat": 35.3962375, "lon": 43.5390241, "tags": {"name": "\u064a\u0648\u0646\u0633 \u062d\u0645\u0627\u062f\u064a", "name:ckb": "\u06cc\u0648\u0646\u0633 \u062d\u06d5\u0645\u0627\u062f\u06cc", "name:en": "Younis Hammadi", "place": "village"}}, {"type": "node", "id": 11364490262, "lat": 35.4054116, "lon": 43.5172807, "tags": {"name": "\u0630\u0648\u064a\u0628", "name:ckb": "\u0632\u0648\u06cc\u0628", "name:en": "Zuib", "place": "village"}}, {"type": "node", "id": 11365737735, "lat": 35.3835292, "lon": 43.6322743, "tags": {"name": "\u0627\u0644\u0634\u0631\u064a\u0639\u0629", "name:ckb": "\u0634\u06d5\u0631\u06cc\u0639\u06d5", "name:en": "Shariah", "place": "village"}}, {"type": "node", "id": 11365788995, "lat": 35.4988671, "lon": 43.70965, "tags": {"name": "\u0633\u06cc\u0648\u06d5", "name:ar": "\u0633\u06cc\u0648\u0629", "name:en": "Siwa", "place": "village"}}, {"type": "node", "id": 11365849370, "lat": 35.5371916, "lon": 43.8801572, "tags": {"name": "\u0645\u06d5\u062d\u06a9\u06c6\u0695", "name:ar": "\u0645\u062d\u06a9\u0648\u0631", "name:en": "Mahkor", "place": "village"}}, {"type": "node", "id": 11365866854, "lat": 35.5095973, "lon": 43.9551423, "tags": {"name": "\u0695\u06d5\u0628\u06cc\u0632\u06d5", "name:ar": "\u0631\u0628\u06cc\u0636\u0629", "name:en": "Rabyza", "place": "village"}}, {"type": "node", "id": 11365868267, "lat": 35.5236608, "lon": 43.9281752, "tags": {"name": "\u062f\u06c6\u0646\u0633\u06cc\u06d5", "name:en": "Donsya", "place": "village"}}, {"type": "node", "id": 11369344847, "lat": 35.4884811, "lon": 43.9800188, "tags": {"name": "\u0626\u06d5\u0645\u0632\u06cc\u0631\u06cc\u06d5\u0631", "name:ar": "\u0627\u0645\u0632\u06cc\u0631\u06cc\u0631", "name:en": "Amzirir", "place": "village"}}, {"type": "node", "id": 11369372730, "lat": 35.485134, "lon": 43.9553588, "tags": {"name": "\u0639\u0635\u0631\u06cc\u0629", "name:ckb": "\u0639\u06d5\u0633\u0631\u06cc\u06d5", "name:en": "Asriah", "place": "village"}}, {"type": "node", "id": 11390328197, "lat": 35.4556006, "lon": 43.9535089, "tags": {"name": "\u0639\u0632\u06cc\u0632\u064a", "name:ckb": "\u0639\u06d5\u0632\u06cc\u0632\u06cc", "name:en": "Azizi", "place": "village"}}, {"type": "node", "id": 11390331466, "lat": 35.446918, "lon": 43.926979, "tags": {"name": "\u0646\u062d\u0627\u062a\u06cc\u0629", "name:ckb": "\u0646\u06d5\u062d\u0627\u062a\u06cc\u06d5", "name:en": "Nahatia", "place": "village"}}, {"type": "node", "id": 11390351157, "lat": 35.4349277, "lon": 43.7968156, "tags": {"name": "\u0647\u0648\u0631 \u0627\u0644\u0633\u0641\u0646", "name:ckb": "\u0647\u0648\u0631\u0633\u0641\u0648\u0646", "name:en": "Hur Al-Sfun", "place": "village"}}, {"type": "node", "id": 11390353703, "lat": 35.4366959, "lon": 43.9363611, "tags": {"name": "\u0628\u0627\u0628\u0648\u062c\u0627\u0646", "name:ckb": "\u0628\u0627\u0628\u0648\u062c\u0627\u0646", "name:en": "Babujan", "place": "village"}}, {"type": "node", "id": 11390358947, "lat": 35.4176577, "lon": 43.9182024, "tags": {"name": "\u0633\u0644\u0627\u0645\u06cc\u0629", "name:ckb": "\u0633\u06d5\u0644\u0627\u0645\u06cc\u06d5", "name:en": "Salamia", "place": "village"}}, {"type": "node", "id": 11390364372, "lat": 35.4264423, "lon": 43.897286, "tags": {"name": "\u0639\u0627\u06a9\u0648\u0644\u0629", "name:ckb": "\u0639\u0627\u06a9\u0648\u0644\u06d5", "name:en": "Akula", "place": "village"}}, {"type": "node", "id": 11390383230, "lat": 35.4317835, "lon": 43.7775497, "tags": {"name": "\u0631\u0645\u0627\u0646\u0629", "name:ckb": "\u0695\u0648\u0645\u0627\u0646\u06d5", "name:en": "Rumana", "place": "village"}}, {"type": "node", "id": 11390396048, "lat": 35.431224, "lon": 43.7693099, "tags": {"name": "\u0634\u0627\u063a\u0631\u0627\u062a", "name:ckb": "\u0634\u0627\u063a\u06cc\u0631\u0627\u062a", "name:en": "Sh\u0101ghir\u0101t", "place": "village"}}, {"type": "node", "id": 11390399510, "lat": 35.4188827, "lon": 43.7678415, "tags": {"name": "\u0639\u0644\u0648\u0634\u0629", "name:ckb": "\u0639\u06d5\u0644\u0648\u0634\u06d5", "name:en": "Il\u016bshah", "place": "village"}}, {"type": "node", "id": 11390399531, "lat": 35.4157915, "lon": 43.7463432, "tags": {"name": "\u062e\u0627\u0646", "name:ckb": "\u062e\u0627\u0646", "name:en": "Khan", "place": "village"}}, {"type": "node", "id": 11390407638, "lat": 35.3536065, "lon": 43.6336229, "tags": {"name": "\u0634\u0627\u0648\u0648\u06a9", "name:ckb": "\u0634\u0627\u0648\u06a9", "name:en": "Shawok", "place": "village"}}, {"type": "node", "id": 11390415106, "lat": 35.3582091, "lon": 43.6645649, "tags": {"name": "\u062a\u0644 \u0639\u0644\u064a", "name:ckb": "\u062a\u06d5\u0644 \u0639\u06d5\u0644\u06cc", "name:en": "Tal Ali", "place": "village"}}, {"type": "node", "id": 11410247214, "lat": 35.5037611, "lon": 43.8918032, "tags": {"name": "\u0646\u06a9\u0627\u0631 \u0627\u0644\u062c\u062f\u06cc\u062f\u0629", "name:ckb": "\u0646\u06d5\u06a9\u0627\u0631\u06cc \u062a\u0627\u0632\u06d5", "name:en": "New Nakar", "place": "village"}}, {"type": "node", "id": 11410287564, "lat": 35.4213314, "lon": 43.7975833, "tags": {"name": "\u0635\u063a\u06cc\u0631\u0629 \u0627\u0644\u0639\u0644\u06cc\u0627", "name:ckb": "\u0633\u06d5\u063a\u06cc\u0631\u06d5\u06cc \u0633\u06d5\u0631\u0648\u0648", "name:en": "Upper Saghira", "place": "village"}}, {"type": "node", "id": 11410369762, "lat": 35.415013, "lon": 43.7864255, "tags": {"name": "\u0635\u063a\u06cc\u0631\u06d5 \u0627\u0644\u0633\u0641\u0644\u06cc", "name:ckb": "\u0633\u06d5\u063a\u06cc\u0631\u06d5\u06cc \u062e\u0648\u0627\u0631\u0648\u0648", "name:en": "Lower Saghira", "place": "village"}}, {"type": "node", "id": 11410369763, "lat": 35.4012186, "lon": 43.8507392, "tags": {"name": "\u062e\u0627\u0646", "name:ckb": "\u062e\u0627\u0646", "name:en": "Khan", "place": "village"}}, {"type": "node", "id": 11410374015, "lat": 35.385719, "lon": 43.7216184, "tags": {"name": "\u0634\u0644\u0627\u0644\u0629", "name:ckb": "Shalala", "place": "village"}}, {"type": "node", "id": 11410388626, "lat": 35.397124, "lon": 43.8276234, "tags": {"name": "\u062d\u0644\u0627\u0648\u0629", "name:ckb": "\u062d\u06d5\u0644\u0627\u0648\u06d5", "name:en": "Halawa", "place": "village"}}, {"type": "node", "id": 11410398592, "lat": 35.39085, "lon": 43.8056324, "tags": {"name": "\u0634\u0645\u0644\u0627\u0646", "name:ckb": "\u0634\u06d5\u0645\u0644\u0627\u0646", "name:en": "Shamlan", "place": "village"}}, {"type": "node", "id": 11410399670, "lat": 35.3855485, "lon": 43.7469539, "tags": {"name": "\u06a9\u0627\u0638\u0645\u06cc\u0629", "name:ckb": "\u06a9\u0627\u0632\u0645\u06cc\u06d5", "name:en": "Kazmia", "place": "village"}}, {"type": "node", "id": 11411593551, "lat": 35.362879, "lon": 43.750914, "tags": {"name": "\u0633\u0644\u06cc\u0645\u0627\u0646 \u0627\u0644\u063a\u0631\u0628", "name:ckb": "\u0633\u0644\u06ce\u0645\u0627\u0646 \u063a\u06d5\u0631\u0628", "name:en": "Sulaiman Al-Gharb", "place": "village"}}, {"type": "node", "id": 11411700965, "lat": 35.411144, "lon": 43.8774679, "tags": {"name": "\u0631\u0633\u0648\u0644\u06cc\u0629", "name:ckb": "\u0695\u06d5\u0633\u0648\u0644\u06cc\u06d5", "name:en": "Rasuliah", "place": "village"}}, {"type": "node", "id": 11411720102, "lat": 35.3807964, "lon": 43.8723255, "tags": {"name": "\u0645\u0646\u0632\u0644\u0629", "name:ckb": "\u0645\u06d5\u0646\u0632\u06cc\u0644\u06d5", "name:en": "Manzila", "place": "village"}}, {"type": "node", "id": 11411739644, "lat": 35.3904386, "lon": 43.8900553, "tags": {"name": "\u0623\u0645 \u0627\u0644\u062f\u0646\u06cc\u0627", "name:ckb": "\u0626\u0648\u0645 \u062f\u0648\u0646\u06cc\u0627", "name:en": "Um Al-Dunia", "place": "village"}}, {"type": "node", "id": 11411745312, "lat": 35.3690475, "lon": 43.8299528, "tags": {"name": "\u0639\u0632\u06cc\u0632\u064a \u0627\u0644\u063a\u0631\u0628\u06cc\u0629", "name:ckb": "\u0639\u06d5\u0632\u06cc\u0632\u06cc \u063a\u06d5\u0631\u0628\u06cc", "name:en": "Azizi Al-Gharbiah", "place": "village"}}, {"type": "node", "id": 11411748463, "lat": 35.4020436, "lon": 43.8833911, "tags": {"name": "\u0645\u0646\u0635\u0648\u0631\u06cc\u0629", "name:ckb": "\u0645\u06d5\u0646\u0633\u0648\u0631\u06cc\u06d5", "name:en": "Mansuriah", "place": "village"}}, {"type": "node", "id": 11411749674, "lat": 35.3646587, "lon": 43.8627187, "tags": {"name": "\u0639\u0632\u06cc\u0632\u064a \u0627\u0644\u0633\u0641\u0644\u06cc", "name:ckb": "\u0639\u06d5\u0632\u06cc\u0632\u06cc \u062e\u0648\u0627\u0631\u0648\u0648", "name:en": "Lower Azizi", "place": "village"}}, {"type": "node", "id": 11411760485, "lat": 35.3924377, "lon": 43.9424919, "tags": {"name": "\u0639\u0645\u0627\u0631\u0629", "name:ckb": "\u0639\u06d5\u0645\u0627\u0631\u06d5", "name:en": "Amarah", "place": "village"}}, {"type": "node", "id": 11411764192, "lat": 35.4037753, "lon": 43.8953521, "tags": {"name": "\u0645\u0639\u0637\u0627\u0633", "name:ckb": "\u0645\u06d5\u0639\u062a\u0627\u0633", "name:en": "Ma\u00e0tas", "place": "village"}}, {"type": "node", "id": 11411781247, "lat": 35.3726027, "lon": 43.9386572, "tags": {"name": "\u062e\u0631\u0628\u0629 \u062d\u0633\u0646", "name:ckb": "\u062e\u06cc\u0631\u0628\u06d5 \u062d\u06d5\u0633\u06d5\u0646", "place": "village"}}, {"type": "node", "id": 11411784397, "lat": 35.3554446, "lon": 43.9310498, "tags": {"name": "\u0633\u06cc\u062f \u062d\u0628\u0634", "name:ckb": "\u0633\u06d5\u06cc\u062f \u062d\u06d5\u0628\u06d5\u0634", "name:en": "Sayyid \u1e28abash", "place": "village"}}, {"type": "node", "id": 11411787676, "lat": 35.393518, "lon": 43.9685822, "tags": {"name": "\u0645\u062d\u0645\u0648\u062f\u06cc\u0629", "name:ckb": "\u0645\u06d5\u062d\u0645\u0648\u0648\u062f\u06cc\u06d5", "name:en": "Ma\u1e29m\u016bd\u012byah", "place": "village"}}, {"type": "node", "id": 11412460295, "lat": 35.3487775, "lon": 43.6168213, "tags": {"name": "\u0641\u0627\u062e\u0631\u0629", "name:ckb": "\u0641\u0627\u062e\u06cc\u0631\u06d5", "name:en": "Fakhirah", "place": "village"}}, {"type": "node", "id": 11412468042, "lat": 35.3570073, "lon": 43.7269739, "tags": {"name": "\u0642\u0627\u0633\u0645\u06cc\u0629", "name:ckb": "\u0642\u0627\u0633\u0645\u06cc\u06d5", "name:en": "Qasmiah", "place": "village"}}, {"type": "node", "id": 11412481993, "lat": 35.3435692, "lon": 43.6889456, "tags": {"name": "\u0646\u0627\u0641\u0644\u0629", "name:ckb": "\u0646\u0627\u0641\u06cc\u0644\u06d5", "name:en": "Nafilah", "place": "village"}}, {"type": "node", "id": 11412483031, "lat": 35.342039, "lon": 43.6134954, "tags": {"name": "\u0625\u0633\u0645\u0627\u0639\u06cc\u0644\u064a\u0629", "name:ckb": "\u0626\u06cc\u0633\u0645\u0627\u0639\u06cc\u0644\u06cc\u06d5", "name:en": "Isma\u00e0ilyah", "place": "village"}}, {"type": "node", "id": 11412484837, "lat": 35.3323044, "lon": 43.6502576, "tags": {"name": "\u0623\u0645\u0627\u0645 \u0627\u0633\u0645\u0627\u0639\u064a\u0644", "name:ckb": "\u0626\u06cc\u0645\u0627\u0645 \u0626\u06cc\u0633\u0645\u0627\u0639\u06cc\u0644", "name:en": "Imam Ismail", "place": "village"}}, {"type": "node", "id": 11413363967, "lat": 35.2290783, "lon": 43.6315678, "tags": {"name": "\u0633\u0639\u062f\u06cc\u0629", "name:ckb": "\u0633\u06d5\u0639\u062f\u06cc\u06d5", "name:en": "Sa\u2018d\u012byah", "place": "village"}}, {"type": "node", "id": 11413374750, "lat": 35.2374092, "lon": 43.6395818, "tags": {"name": "\u062c\u0639\u0641\u0631\u06cc\u0629", "name:ckb": "\u062c\u06d5\u0639\u0641\u06d5\u0631\u06cc\u06d5", "name:en": "Ja\u2018far\u012byah", "place": "village"}}, {"type": "node", "id": 11413376015, "lat": 35.2400546, "lon": 43.6064299, "tags": {"name": "\u062d\u0646\u0641", "name:ckb": "\u062d\u06d5\u0646\u06d5\u0641", "name:en": "Hanaf", "place": "village"}}, {"type": "node", "id": 11414429264, "lat": 35.2945078, "lon": 43.9268176, "tags": {"name": "\u0637\u0642\u0637\u0642\u0629", "name:ar": "\u0637\u0642\u0637\u0642\u0629", "name:ckb": "\u062a\u06d5\u0642\u062a\u06d5\u0642\u06d5", "name:en": "Taqtaqa", "place": "village"}}, {"type": "node", "id": 11416395826, "lat": 35.2239929, "lon": 43.9278718, "tags": {"name": "\u0639\u0644\u0648\u06cc\u0629", "name:ar": "\u0639\u0644\u0648\u06cc\u0629", "name:ckb": "\u0639\u06d5\u0644\u06d5\u0648\u06cc\u06d5", "name:en": "Alawya", "place": "village"}}, {"type": "node", "id": 11476482749, "lat": 35.4320501, "lon": 43.8559225, "tags": {"name": "\u0628\u0631\u063a\u0644\u06cc\u0629", "name:ar": "\u0628\u0631\u063a\u0644\u06cc\u0629", "name:ckb": "\u0628\u06d5\u0631\u063a\u06d5\u0644\u06cc\u06d5", "name:en": "Barghalia", "place": "village"}}, {"type": "node", "id": 11482243551, "lat": 35.3712835, "lon": 43.8558834, "tags": {"name": "\u0639\u0632\u06cc\u0632\u064a \u0627\u0644\u0639\u0644\u06cc\u0627", "name:ar": "\u0639\u0632\u06cc\u0632\u064a \u0627\u0644\u0639\u0644\u06cc\u0627", "name:ckb": "\u0639\u06d5\u0632\u06cc\u0632\u06cc \u0633\u06d5\u0631\u0648\u0648", "name:en": "Upper Azizi", "place": "village"}}, {"type": "way", "id": 460158474, "nodes": [4558357718, 4558357719, 4558357720, 4558357721, 4558357718], "tags": {"place": "hamlet"}}, {"type": "way", "id": 803611309, "nodes": [7517140507, 7517140508, 7517140509, 7517140510, 7517140511, 7517140512, 7517140513, 7517140514, 7517140515, 7517140516, 7517140517, 7517140518, 7517140519, 7517140520, 7517140521, 7517140522, 7517140523, 7517140524, 7517140525, 7517140507], "tags": {"place": "village"}}]}