{"version": 0.6, "generator": "Overpass API 0.7.61.5 4133829e", "osm3s": {"timestamp_osm_base": "2024-02-29T14:13:00Z", "copyright": "The data included in this document is from www.openstreetmap.org. The data is made available under ODbL."}, "elements": [{"type": "node", "id": 444619943, "lat": 63.6775, "lon": 22.7083527, "tags": {"addr:city": "Jakobstad", "addr:housenumber": "20", "addr:postcode": "68600", "addr:street": "Skolgatan", "amenity": "college", "name": "Pietarsaaren Lukio", "phone": "(06) 786 3294"}}, {"type": "node", "id": 570589540, "lat": 63.6559452, "lon": 22.6960289, "tags": {"addr:city": "Jakobstad", "addr:housenumber": "72", "addr:postcode": "68600", "addr:street": "Vasav\u00e4gen", "amenity": "college", "name": "Lann\u00e4slundskolan Optima"}}, {"type": "node", "id": 570589542, "lat": 63.6707326, "lon": 22.7003786, "tags": {"addr:city": "Jakobstad", "addr:housenumber": "30", "addr:postcode": "68600", "addr:street": "Tr\u00e4dg\u00e5rdsgatan", "amenity": "college", "fax": "(06) 785 5299", "name": "Yrkesskolan Optima", "phone": "(06) 785 5222"}}, {"type": "node", "id": 571778472, "lat": 63.677462, "lon": 22.7076642, "tags": {"addr:city": "Jakobstad", "addr:housenumber": "20", "addr:postcode": "68600", "addr:street": "Skolgatan", "amenity": "college", "fax": "(06) 785 1347", "name": "Jakobstads gymnasium", "phone": "(06) 785 1470", "website": "https://www.jakobstadsgymnasium.fi/"}}, {"type": "node", "id": 618555993, "lat": 63.6867148, "lon": 22.705825, "tags": {"addr:city": "Jakobstad", "addr:housenumber": "24", "addr:postcode": "68600", "addr:street": "J\u00e4rnv\u00e4gsgatan", "amenity": "college", "name": "Yrkesakademin i \u00d6sterbotten", "website": "https://www.yrkesakademin.fi/"}}, {"type": "node", "id": 1490960328, "lat": 63.5311147, "lon": 22.5383728}, {"type": "node", "id": 1490960335, "lat": 63.5312018, "lon": 22.5380604}, {"type": "node", "id": 1490960346, "lat": 63.5313134, "lon": 22.5386518}, {"type": "node", "id": 1490960349, "lat": 63.5313312, "lon": 22.5385879}, {"type": "node", "id": 1490960352, "lat": 63.5313893, "lon": 22.5383236}, {"type": "node", "id": 1490960358, "lat": 63.5314267, "lon": 22.5381894}, {"type": "node", "id": 1490960362, "lat": 63.5314699, "lon": 22.5387827}, {"type": "node", "id": 1490960366, "lat": 63.5314801, "lon": 22.5387462}, {"type": "node", "id": 1490960373, "lat": 63.5315141, "lon": 22.5387939}, {"type": "node", "id": 1490960377, "lat": 63.5315734, "lon": 22.5383953}, {"type": "node", "id": 1490960379, "lat": 63.5315776, "lon": 22.538587}, {"type": "node", "id": 1490960381, "lat": 63.5316148, "lon": 22.5384535}, {"type": "node", "id": 1490960386, "lat": 63.5316513, "lon": 22.5389865}, {"type": "node", "id": 1490960394, "lat": 63.5317091, "lon": 22.5388106}, {"type": "node", "id": 1490960397, "lat": 63.5317169, "lon": 22.5387826}, {"type": "node", "id": 1490960406, "lat": 63.5317887, "lon": 22.5391794}, {"type": "node", "id": 1490960410, "lat": 63.5318402, "lon": 22.5389947}, {"type": "node", "id": 1490960415, "lat": 63.5319319, "lon": 22.5391982}, {"type": "node", "id": 1490960417, "lat": 63.5319792, "lon": 22.5388695}, {"type": "node", "id": 1490960421, "lat": 63.5321988, "lon": 22.5390284}, {"type": "node", "id": 1490960424, "lat": 63.5322678, "lon": 22.538326}, {"type": "node", "id": 1490960427, "lat": 63.5323149, "lon": 22.5394752}, {"type": "node", "id": 1490960430, "lat": 63.5323453, "lon": 22.5391344}, {"type": "node", "id": 1490960431, "lat": 63.5323621, "lon": 22.5391465}, {"type": "node", "id": 1490960439, "lat": 63.5324174, "lon": 22.5384}, {"type": "node", "id": 5713839001, "lat": 63.6739703, "lon": 22.7047813, "tags": {"amenity": "university", "name": "Yrkesh\u00f6gskolan Novia", "name:en": "Novia University of Applied Sciences", "name:fi": "Yrkesh\u00f6gskolan Novia", "short_name": "Novia UAS"}}, {"type": "node", "id": 5713839002, "lat": 63.6739655, "lon": 22.7045238, "tags": {"amenity": "university", "name": "Jakobstadsnejdens Musikinstitut", "name:en": "The Music Institute of the Jakobstad Region", "name:fi": "Pietarsaaren seudun musiikkiopisto"}}, {"type": "node", "id": 5713839005, "lat": 63.673151, "lon": 22.7039067}, {"type": "node", "id": 5713839006, "lat": 63.673193, "lon": 22.7058107}, {"type": "node", "id": 5713839007, "lat": 63.6740722, "lon": 22.7057122}, {"type": "node", "id": 5713839008, "lat": 63.6740303, "lon": 22.7038082}, {"type": "way", "id": 135830909, "nodes": [1490960394, 1490960410, 1490960406, 1490960386, 1490960373, 1490960366, 1490960362, 1490960349, 1490960346, 1490960328, 1490960335, 1490960352, 1490960358, 1490960377, 1490960381, 1490960379, 1490960397, 1490960394], "tags": {"amenity": "university", "building": "school", "int_name": "Novia UAS", "name": "Yrkeshogskolan Novia"}}, {"type": "way", "id": 135830982, "nodes": [1490960430, 1490960431, 1490960427, 1490960415, 1490960417, 1490960421, 1490960424, 1490960439, 1490960430], "tags": {"amenity": "university", "building": "school", "int_name": "Novia UAS", "name": "Yrkeshogskolan Novia"}}, {"type": "way", "id": 601100515, "nodes": [5713839008, 5713839007, 5713839006, 5713839005, 5713839008], "tags": {"amenity": "university", "name": "Campus Allegro", "website": "https://campusallegro.fi/"}}]}