{"version": 0.6, "generator": "Overpass API 0.7.61.5 4133829e", "osm3s": {"timestamp_osm_base": "2024-03-06T11:03:20Z", "copyright": "The data included in this document is from www.openstreetmap.org. The data is made available under ODbL."}, "elements": [{"type": "node", "id": 2982238059, "lat": -1.0712463, "lon": 35.8625717, "tags": {"addr:city": "Narok", "addr:street": "C57", "amenity": "school", "name": "Maasai Girls Secondary"}}, {"type": "node", "id": 2982238060, "lat": -1.0722975, "lon": 35.8644386, "tags": {"amenity": "school", "name": "Narok High School"}}, {"type": "node", "id": 3646034802, "lat": -1.0842984, "lon": 35.8727364, "tags": {"amenity": "school", "name": "Masikonde Primary School"}}, {"type": "node", "id": 3647217010, "lat": -1.0734147, "lon": 35.86275, "tags": {"amenity": "school", "name": "Olesankare Primary School"}}, {"type": "node", "id": 3647217012, "lat": -1.0761045, "lon": 35.8608966, "tags": {"amenity": "school", "name": "Narok Polytechnic"}}, {"type": "node", "id": 3914022975, "lat": -1.0870535, "lon": 35.8765622, "tags": {"amenity": "school"}}, {"type": "node", "id": 4380058289, "lat": -1.1028624, "lon": 35.7056205, "tags": {"addr:street": "olkiriane", "amenity": "school", "email": "jeffkirui1964@yahoo.com", "name": "olkiriane", "phone": "0724388873"}}, {"type": "node", "id": 4809160715, "lat": -1.3201179, "lon": 35.7040582}, {"type": "node", "id": 4809160716, "lat": -1.3247919, "lon": 35.703039}, {"type": "node", "id": 4809160717, "lat": -1.325102, "lon": 35.706887}, {"type": "node", "id": 4809160718, "lat": -1.3210852, "lon": 35.7075}, {"type": "node", "id": 5468852145, "lat": -1.3341844, "lon": 35.7087019}, {"type": "node", "id": 5468852146, "lat": -1.3341292, "lon": 35.7069608}, {"type": "node", "id": 5468852147, "lat": -1.3321638, "lon": 35.7075559}, {"type": "node", "id": 5468852148, "lat": -1.3327504, "lon": 35.7091921}, {"type": "node", "id": 6075249210, "lat": -1.092847, "lon": 35.8912571}, {"type": "node", "id": 6075249211, "lat": -1.0935438, "lon": 35.894656}, {"type": "node", "id": 6075249212, "lat": -1.0975781, "lon": 35.8949704}, {"type": "node", "id": 6075249213, "lat": -1.0968312, "lon": 35.8905602}, {"type": "node", "id": 6075273670, "lat": -1.0962821, "lon": 35.86309}, {"type": "node", "id": 6075273671, "lat": -1.0951147, "lon": 35.8649643}, {"type": "node", "id": 6075273672, "lat": -1.0970194, "lon": 35.8661473}, {"type": "node", "id": 6075273673, "lat": -1.0978643, "lon": 35.8654252}, {"type": "node", "id": 6075273674, "lat": -1.09811, "lon": 35.8654866}, {"type": "node", "id": 6075273675, "lat": -1.0982483, "lon": 35.8652255}, {"type": "node", "id": 6075273676, "lat": -1.0979931, "lon": 35.865095}, {"type": "node", "id": 6075273677, "lat": -1.0981408, "lon": 35.864826}, {"type": "node", "id": 6077258807, "lat": -1.0924961, "lon": 35.8842846, "tags": {"addr:city": "Narok", "addr:street": "Kaplong-Narok-Maai Road", "amenity": "school", "name": "Ole Tipis Girls Secondary School"}}, {"type": "node", "id": 6115629923, "lat": -1.1180884, "lon": 36.0008922, "tags": {"addr:city": "Narok", "addr:street": "Kaplong-Narok-Maai Road", "amenity": "school", "name": "Eor Ekule Primary School"}}, {"type": "node", "id": 11037030532, "lat": -1.0983243, "lon": 35.8315561, "tags": {"amenity": "school", "name": "Ongata Schools Primary & Preparatory"}}, {"type": "node", "id": 11358511965, "lat": -1.3328449, "lon": 35.7094641}, {"type": "node", "id": 11358511966, "lat": -1.3329882, "lon": 35.7098597}, {"type": "node", "id": 11358511967, "lat": -1.3332404, "lon": 35.7098192}, {"type": "node", "id": 11358511968, "lat": -1.3336547, "lon": 35.7097258}, {"type": "node", "id": 11358552669, "lat": -1.3338353, "lon": 35.7096791}, {"type": "node", "id": 11627464179, "lat": -1.3337962, "lon": 35.7091229}, {"type": "node", "id": 11627464180, "lat": -1.3342319, "lon": 35.7090188}, {"type": "node", "id": 11627464181, "lat": -1.3330672, "lon": 35.7072824}, {"type": "way", "id": 488620111, "nodes": [4809160715, 4809160716, 4809160717, 4809160718, 4809160715], "tags": {"amenity": "school"}}, {"type": "way", "id": 646696993, "nodes": [6075249210, 6075249211, 6075249212, 6075249213, 6075249210], "tags": {"addr:city": "Narok", "addr:street": "Kaplong-Narok-Maai Road", "amenity": "school", "office": "educational_institution"}}, {"type": "way", "id": 646700905, "nodes": [6075273670, 6075273671, 6075273672, 6075273673, 6075273674, 6075273675, 6075273676, 6075273677, 6075273670], "tags": {"amenity": "school"}}, {"type": "way", "id": 1250866667, "nodes": [5468852147, 5468852148, 11358511965, 11358511966, 11358511967, 11358511968, 11358552669, 11627464179, 11627464180, 5468852145, 5468852146, 11627464181, 5468852147], "tags": {"amenity": "school"}}]}