{"version": 0.6, "generator": "Overpass API 0.7.61.5 4133829e", "osm3s": {"timestamp_osm_base": "2024-03-06T10:45:02Z", "copyright": "The data included in this document is from www.openstreetmap.org. The data is made available under ODbL."}, "elements": [{"type": "node", "id": 1821570513, "lat": 32.4698591, "lon": 44.4103789, "tags": {"amenity": "school", "name": "\u0625\u0639\u062f\u0627\u062f\u064a\u0629 \u0628\u0627\u0628\u0644 \u0627\u0644\u0645\u0647\u0646\u064a\u0629"}}, {"type": "node", "id": 2486183702, "lat": 32.391181, "lon": 44.51737, "tags": {"alt_name": "\u0645\u062f\u0631\u0633\u0629 \u0623\u062d\u062f\u0627\u062b \u0622\u0644 \u0628\u0648 \u0634\u0646\u0627\u0648\u0629", "amenity": "school", "int_name": "Madrasat A\u1e29d\u0101th \u0100lb\u016b Shan\u0101wah, \u0645\u062f\u0631\u0633\u0629 \u0627\u062d\u062f\u0627\u062b \u0627\u0644\u0628\u0648 \u0634\u0646\u0627\u0648\u0629, Madrasat Ahdath Albu Shanawah, \u0645\u062f\u0631\u0633\u0629 \u0627\u062d\u062f\u0627\u062b \u0627\u0644\u0628\u0648 \u0634\u0646\u0627\u0648\u0629", "name": "\u0645\u062f\u0631\u0633\u0629 \u0623\u062d\u062f\u0627\u062b \u0622\u0644 \u0628\u0648 \u0634\u0646\u0627\u0648\u0629", "name:ar": "\u0645\u062f\u0631\u0633\u0629 \u0623\u062d\u062f\u0627\u062b \u0622\u0644 \u0628\u0648 \u0634\u0646\u0627\u0648\u0629", "name:ar1": "\u0645\u062f\u0631\u0633\u0629 \u0623\u062d\u062f\u0627\u062b \u0622\u0644 \u0628\u0648 \u0634\u0646\u0627\u0648\u0629", "name:de": "Madrasat Ahdath Albu Shanawah", "name:en": "Madrasat Ahdath Albu Shanawah", "name:fr": "Madrasat Ahdath Albu Shanawah"}}, {"type": "node", "id": 2486183706, "lat": 32.424935, "lon": 44.516118, "tags": {"alt_name": "\u0645\u062f\u0631\u0633\u0629 \u062d\u0633\u0627\u0646 \u0628\u0646 \u062b\u0627\u0628\u062a", "amenity": "school", "int_name": "Madrasat \u1e28ass\u0101n Bin Th\u0101bit, \u0645\u062f\u0631\u0633\u0629 \u062d\u0633\u0627\u0646 \u0628\u0646 \u062b\u0627\u0628\u062a, Madrasat Hassan Bin Thabit, \u0645\u062f\u0631\u0633\u0629 \u062d\u0633\u0627\u0646 \u0628\u0646 \u062b\u0627\u0628\u062a", "name": "\u0645\u062f\u0631\u0633\u0629 \u062d\u0633\u0627\u0646 \u0628\u0646 \u062b\u0627\u0628\u062a", "name:ar": "\u0645\u062f\u0631\u0633\u0629 \u062d\u0633\u0627\u0646 \u0628\u0646 \u062b\u0627\u0628\u062a", "name:ar1": "\u0645\u062f\u0631\u0633\u0629 \u062d\u0633\u0627\u0646 \u0628\u0646 \u062b\u0627\u0628\u062a", "name:de": "Madrasat Hassan Bin Thabit", "name:en": "Madrasat Hassan Bin Thabit", "name:fr": "Madrasat Hassan Bin Thabit"}}, {"type": "node", "id": 2486183713, "lat": 32.400262, "lon": 44.521249, "tags": {"alt_name": "\u0645\u062f\u0631\u0633\u0629 \u0627\u0644\u0623\u0645\u0627\u0646 \u0627\u0644\u0625\u0628\u062a\u062f\u0627\u0626\u064a\u0629", "amenity": "school", "int_name": "Madrasat al Am\u0101n al Ibtid\u0101\u012byah, \u0645\u062f\u0631\u0633\u0629 \u0627\u0644\u0627\u0645\u0627\u0646 \u0627\u0644\u0627\u0628\u062a\u062f\u0627\u0626\u064a\u0629, Madrasat al Aman al Ibtidaiyah, \u0645\u062f\u0631\u0633\u0629 \u0627\u0644\u0627\u0645\u0627\u0646 \u0627\u0644\u0627\u0628\u062a\u062f\u0627\u0626\u064a\u0629", "name": "\u0645\u062f\u0631\u0633\u0629 \u0627\u0644\u0623\u0645\u0627\u0646 \u0627\u0644\u0625\u0628\u062a\u062f\u0627\u0626\u064a\u0629", "name:ar": "\u0645\u062f\u0631\u0633\u0629 \u0627\u0644\u0623\u0645\u0627\u0646 \u0627\u0644\u0625\u0628\u062a\u062f\u0627\u0626\u064a\u0629", "name:ar1": "\u0645\u062f\u0631\u0633\u0629 \u0627\u0644\u0623\u0645\u0627\u0646 \u0627\u0644\u0625\u0628\u062a\u062f\u0627\u0626\u064a\u0629", "name:de": "Madrasat al Aman al Ibtidaiyah", "name:en": "Madrasat al Aman al Ibtidaiyah", "name:fr": "Madrasat al Aman al Ibtidaiyah"}}, {"type": "node", "id": 2486192332, "lat": 32.254887, "lon": 44.529578, "tags": {"alt_name": "\u0645\u062f\u0631\u0633\u0629 \u0627\u0644\u062c\u0627\u0632\u0631\u064a\u0629 \u0627\u0644\u062b\u0627\u0646\u064a\u0629 \u0627\u0644\u0625\u0628\u062a\u062f\u0627\u0626\u064a\u0629", "amenity": "school", "int_name": "Madrasat al J\u0101zir\u012byah ath Th\u0101niyah al Ibtid\u0101\u012byah, \u0645\u062f\u0631\u0633\u0629 \u0627\u0644\u062c\u0627\u0632\u0631\u064a\u0629 \u0627\u0644\u062b\u0627\u0646\u064a\u0629 \u0627\u0644\u0627\u0628\u062a\u062f\u0627\u0626\u064a\u0629, Madrasat al Jaziriyah ath Thaniyah al Ibtidaiyah, \u0645\u062f\u0631\u0633\u0629 \u0627\u0644\u062c\u0627\u0632\u0631\u064a\u0629 \u0627\u0644\u062b\u0627\u0646\u064a\u0629 \u0627\u0644\u0627\u0628\u062a\u062f\u0627\u0626\u064a\u0629", "name": "\u0645\u062f\u0631\u0633\u0629 \u0627\u0644\u062c\u0627\u0632\u0631\u064a\u0629 \u0627\u0644\u062b\u0627\u0646\u064a\u0629 \u0627\u0644\u0625\u0628\u062a\u062f\u0627\u0626\u064a\u0629", "name:ar": "\u0645\u062f\u0631\u0633\u0629 \u0627\u0644\u062c\u0627\u0632\u0631\u064a\u0629 \u0627\u0644\u062b\u0627\u0646\u064a\u0629 \u0627\u0644\u0625\u0628\u062a\u062f\u0627\u0626\u064a\u0629", "name:ar1": "\u0645\u062f\u0631\u0633\u0629 \u0627\u0644\u062c\u0627\u0632\u0631\u064a\u0629 \u0627\u0644\u062b\u0627\u0646\u064a\u0629 \u0627\u0644\u0625\u0628\u062a\u062f\u0627\u0626\u064a\u0629", "name:de": "Madrasat al Jaziriyah ath Thaniyah al Ibtidaiyah", "name:en": "Madrasat al Jaziriyah ath Thaniyah al Ibtidaiyah", "name:fr": "Madrasat al Jaziriyah ath Thaniyah al Ibtidaiyah"}}, {"type": "node", "id": 2486192333, "lat": 32.265056, "lon": 44.549203, "tags": {"alt_name": "\u0645\u062f\u0631\u0633\u0629 \u0627\u0644\u0645\u0642\u062f\u0627\u062f", "amenity": "school", "int_name": "Madrasat al Miqd\u0101d, \u0645\u062f\u0631\u0633\u0629 \u0627\u0644\u0645\u0642\u062f\u0627\u062f, Madrasat al Miqdad, \u0645\u062f\u0631\u0633\u0629 \u0627\u0644\u0645\u0642\u062f\u0627\u062f", "name": "\u0645\u062f\u0631\u0633\u0629 \u0627\u0644\u0645\u0642\u062f\u0627\u062f", "name:ar": "\u0645\u062f\u0631\u0633\u0629 \u0627\u0644\u0645\u0642\u062f\u0627\u062f", "name:ar1": "\u0645\u062f\u0631\u0633\u0629 \u0627\u0644\u0645\u0642\u062f\u0627\u062f", "name:de": "Madrasat al Miqdad", "name:en": "Madrasat al Miqdad", "name:fr": "Madrasat al Miqdad"}}, {"type": "node", "id": 4058732049, "lat": 32.4982051, "lon": 44.4098233}, {"type": "node", "id": 4058732050, "lat": 32.4974331, "lon": 44.4092909}, {"type": "node", "id": 4058732051, "lat": 32.4971436, "lon": 44.4098817}, {"type": "node", "id": 4058732052, "lat": 32.4979176, "lon": 44.4104094}, {"type": "node", "id": 4058735059, "lat": 32.4980407, "lon": 44.4168701}, {"type": "node", "id": 4058735060, "lat": 32.4977321, "lon": 44.4174738}, {"type": "node", "id": 4058735061, "lat": 32.4971818, "lon": 44.4171181}, {"type": "node", "id": 4058735062, "lat": 32.4974698, "lon": 44.4164778}, {"type": "node", "id": 4250865790, "lat": 32.4976847, "lon": 44.4169786, "tags": {"amenity": "school", "name": "\u0627\u0644\u0632\u0647\u0627\u0648\u064a \u0627\u0644\u0627\u0628\u062a\u062f\u0627\u0626\u064a\u0629"}}, {"type": "node", "id": 4397495393, "lat": 32.4188028, "lon": 44.4048594, "tags": {"amenity": "school", "name": "\u062b\u0627\u0646\u0648\u064a\u0647 \u0632\u0647\u0631\u0647 \u0627\u0644\u0641\u0631\u0627\u062a \u0644\u0644\u0628\u0646\u0627\u062a", "name:ar": "\u062b\u0627\u0646\u0648\u064a\u0647 \u0632\u0647\u0631\u0647 \u0627\u0644\u0641\u0631\u0627\u062a \u0644\u0644\u0628\u0646\u0627\u062a"}}, {"type": "node", "id": 4397529391, "lat": 32.4205762, "lon": 44.4045358, "tags": {"amenity": "school", "name": "\u0645\u062f\u0631\u0633\u0647 \u0628\u0631\u0627\u0639\u0645 \u0644\u0644\u0628\u0646\u064a\u0646", "name:ar": "\u0645\u062f\u0631\u0633\u0647 \u0628\u0631\u0627\u0639\u0645 \u0644\u0644\u0628\u0646\u064a\u0646"}}, {"type": "node", "id": 4397629293, "lat": 32.4194382, "lon": 44.4039348, "tags": {"amenity": "school", "name": "\u0645\u062f\u0631\u0633\u0647 \u0627\u0644\u0633\u064a\u062f\u0647 \u0633\u0627\u0631\u0647 \u0644\u0644\u0628\u0646\u0627\u062a", "name:ar": "\u0645\u062f\u0631\u0633\u0647 \u0627\u0644\u0633\u064a\u062f\u0647 \u0633\u0627\u0631\u0647 \u0644\u0644\u0628\u0646\u0627\u062a"}}, {"type": "node", "id": 4397629294, "lat": 32.4140178, "lon": 44.4036465, "tags": {"amenity": "school", "name": "\u062b\u0627\u0646\u0648\u064a\u0647 \u0627\u0644\u0627\u0639\u0644\u0627\u0645 \u0644\u0644\u0628\u0646\u064a\u0646", "name:ar": "\u062b\u0627\u0646\u0648\u064a\u0647 \u0627\u0644\u0627\u0639\u0644\u0627\u0645 \u0644\u0644\u0628\u0646\u064a\u0646"}}, {"type": "node", "id": 4460520194, "lat": 32.4702908, "lon": 44.4133311, "tags": {"amenity": "school", "name": "\u0627\u0639\u062f\u0627\u062f\u064a\u0647 \u0627\u0644\u062c\u0647\u0627\u062f /\u0645\u062a\u0648\u0633\u0637\u0647 14\u062a\u0645\u0648\u0632", "name:ar": "\u0645\u062a\u0648\u0633\u0637\u0647 14\u062a\u0645\u0648\u0632/\u0627\u0639\u062f\u0627\u062f\u064a\u0647 \u0627\u0644\u062c\u0647\u0627\u062f", "tourism": "information"}}, {"type": "node", "id": 4467464989, "lat": 32.4840415, "lon": 44.424673, "tags": {"addr:street": "\u0634\u0627\u0631\u0639 \u0627\u0644\u0627\u0648\u0642\u0627\u0641", "amenity": "school", "name": "\u062b\u0627\u0646\u0648\u064a\u0629 \u0627\u0644\u062d\u0644\u0629 \u0644\u0644\u0645\u062a\u0645\u064a\u0632\u0627\u062a", "name:ar": "\u062b\u0627\u0646\u0648\u064a\u0629 \u0627\u0644\u062d\u0644\u0629 \u0644\u0644\u0645\u062a\u0645\u064a\u0632\u0627\u062a", "name:en": "Al-Hillah high shcool for specials' girls"}}, {"type": "node", "id": 4472415491, "lat": 32.5032605, "lon": 44.4119312, "tags": {"amenity": "school", "name": "\u0645\u062f\u0631\u0633\u0629 \u0627\u0644\u0634\u0645\u0648\u0633", "name:ar": "\u0645\u062f\u0631\u0633\u0629 \u0627\u0644\u0634\u0645\u0648\u0633"}}, {"type": "node", "id": 4475203889, "lat": 32.5306146, "lon": 44.3520015, "tags": {"amenity": "school", "name": "\u0645\u062f\u0631\u0633\u0629 \u0627\u0644\u0646\u0635\u0631 \u0627\u0644\u0627\u0628\u062a\u062f\u0627\u0626\u064a\u0629 \u0644\u0644\u0628\u0646\u064a\u0646", "name:ar": "\u0645\u062f\u0631\u0633\u0629 \u0627\u0644\u0646\u0635\u0631 \u0627\u0644\u0627\u0628\u062a\u062f\u0627\u0626\u064a\u0629 \u0644\u0644\u0628\u0646\u064a\u0646"}}, {"type": "node", "id": 4501983892, "lat": 32.556271, "lon": 44.074574, "tags": {"amenity": "school", "name": "\u0627\u0628\u062a\u062f\u0627\u0626\u064a\u0629 \u0627\u0645\u0631\u0644\u064a \u0644\u0644\u0646\u0627\u0632\u062d\u064a\u0646", "name:ar": "\u0627\u0628\u062a\u062f\u0627\u0626\u064a\u0629 \u0627\u0645\u0631\u0644\u064a \u0644\u0644\u0646\u0627\u0632\u062d\u064a\u0646", "name:en": "Amrley"}}, {"type": "node", "id": 4502725095, "lat": 32.557083, "lon": 44.055889, "tags": {"amenity": "school", "name": "\u0627\u0644\u0627\u063a\u0631\u0627\u0633", "name:ar": "\u0627\u0644\u0627\u063a\u0631\u0627\u0633", "name:en": "al agraas"}}, {"type": "node", "id": 4504604993, "lat": 32.5566438, "lon": 44.0742476, "tags": {"amenity": "school", "name": "\u0627\u0628\u062a\u062f\u0627\u0626\u064a\u0629 \u0647\u0627\u0646\u064a \u0628\u0646 \u0639\u0631\u0648\u0629", "name:ar": "\u0627\u0628\u062a\u062f\u0627\u0626\u064a\u0629 \u0647\u0627\u0646\u064a \u0628\u0646 \u0639\u0631\u0648\u0629", "name:en": "Hani Bin Ourwa"}}, {"type": "node", "id": 4504614991, "lat": 32.556722, "lon": 44.074333, "tags": {"amenity": "school", "name": "\u0627\u0628\u062a\u062f\u0627\u0626\u064a\u0629 \u062a\u0628\u0627\u0631\u0643", "name:ar": "\u0627\u0628\u062a\u062f\u0627\u0626\u064a\u0629 \u062a\u0628\u0627\u0631\u0643", "name:en": "Tabarak"}}, {"type": "node", "id": 4514095889, "lat": 32.4844508, "lon": 44.4302219, "tags": {"amenity": "school", "name": "\u0627\u0639\u062f\u0627\u062f\u064a\u0629 \u0627\u0644\u062d\u0644\u0629 \u0644\u0644\u0628\u0646\u064a\u0646", "name:ar": "\u0627\u0639\u062f\u0627\u062f\u064a\u0629 \u0627\u0644\u062d\u0644\u0629 \u0644\u0644\u0628\u0646\u064a\u0646"}}, {"type": "node", "id": 4516712490, "lat": 32.4860018, "lon": 44.4390206, "tags": {"amenity": "school", "name": "\u0627\u0639\u062f\u0627\u062f\u064a\u0629 \u0627\u0644\u062d\u0644\u0629 \u0627\u0644\u0645\u0633\u0627\u0626\u064a\u0629", "name:ar": "\u0627\u0639\u062f\u0627\u062f\u064a\u0629 \u0627\u0644\u062d\u0644\u0629 \u0627\u0644\u0645\u0633\u0627\u0626\u064a\u0629", "opening_hours": "Su-Th 10:00-22:00"}}, {"type": "node", "id": 4524423911, "lat": 32.3640292, "lon": 44.5478431}, {"type": "node", "id": 4524423912, "lat": 32.3637763, "lon": 44.5472921}, {"type": "node", "id": 4524423913, "lat": 32.3639213, "lon": 44.5472163}, {"type": "node", "id": 4524423914, "lat": 32.3640292, "lon": 44.5472322}, {"type": "node", "id": 4524423915, "lat": 32.3641742, "lon": 44.5471524}, {"type": "node", "id": 4524423916, "lat": 32.3644069, "lon": 44.5475876}, {"type": "node", "id": 4529538392, "lat": 32.3994411, "lon": 44.4033041, "tags": {"amenity": "school", "name": "\u062c\u0627\u0645\u0639\u0629 \u0628\u0627\u0628\u0644", "name:ar": "\u062c\u0627\u0645\u0639\u0629 \u0628\u0627\u0628\u0644"}}, {"type": "node", "id": 4530572326, "lat": 32.54716, "lon": 44.24524, "tags": {"amenity": "school", "name": "\u0627\u0639\u062f\u0627\u062f\u064a\u0629 \u0627\u0644\u0647\u0646\u062f\u064a\u0629 \u0627\u0644\u0645\u0647\u0646\u064a\u0647"}}, {"type": "node", "id": 4530608634, "lat": 32.55685, "lon": 44.22184, "tags": {"amenity": "school", "name": "\u0645\u062f\u0631\u0633\u0629 \u0644\u0628\u0646\u0627\u0646 \u0644\u0644\u0628\u0646\u064a\u0646"}}, {"type": "node", "id": 4543557496, "lat": 32.485601, "lon": 44.4289918, "tags": {"amenity": "school", "name": "\u0645\u062a\u0648\u0633\u0637\u0629 \u062d\u0645\u0648\u0631\u0627\u0628\u064a", "name:ar": "\u0645\u062a\u0648\u0633\u0637\u0629 \u062d\u0645\u0648\u0631\u0627\u0628\u064a"}}, {"type": "node", "id": 4567504489, "lat": 32.4744633, "lon": 44.425608, "tags": {"addr:street": "\u0634\u0627\u0631\u0639 \u0664\u0660", "amenity": "school", "name": "\u0631\u0648\u0636\u0629 \u0627\u0644\u0646\u0633\u0648\u0631 \u0627\u0644\u0627\u0647\u0644\u064a\u0629", "name:ar": "\u0631\u0648\u0636\u0629 \u0627\u0644\u0646\u0633\u0648\u0631 \u0627\u0644\u0627\u0647\u0644\u064a\u0629"}}, {"type": "node", "id": 4570164592, "lat": 32.4894211, "lon": 44.2317942, "tags": {"amenity": "school", "name": "\u0645\u062f\u0631\u0633\u0629 \u0627\u0644\u0635\u0645\u0648\u062f", "name:ar": "\u0645\u062f\u0631\u0633\u0629 \u0627\u0644\u0635\u0645\u0648\u062f"}}, {"type": "node", "id": 4598759773, "lat": 32.5171608, "lon": 44.5367203, "tags": {"addr:country": "IQ", "amenity": "school"}}, {"type": "node", "id": 4601505097, "lat": 32.4919265, "lon": 44.4385459, "tags": {"addr:street": "\u0634\u0627\u0631\u0639 \u0627\u0644\u0627\u0643\u0631\u0645\u064a\u0646", "amenity": "school", "name": "\u062b\u0627\u0646\u0648\u064a\u0629 \u0627\u0644\u062d\u0644\u0629 \u0644\u0644\u0645\u062a\u0645\u064a\u0632\u0627\u062a", "name:ar": "\u062b\u0627\u0646\u0648\u064a\u0629 \u0627\u0644\u062d\u0644\u0629 \u0644\u0644\u0645\u062a\u0645\u064a\u0632\u0627\u062a", "name:en": "hilla secondary for girls"}}, {"type": "node", "id": 4601521489, "lat": 32.5412165, "lon": 44.3303318, "tags": {"addr:street": "\u0628\u0646\u0627\u062a \u0627\u0644\u062d\u0633\u0646", "amenity": "school", "name": "\u0627\u0644\u0645\u0639\u0647\u062f \u0627\u0644\u062a\u0642\u0646\u064a - \u0628\u0627\u0628\u0644", "name:ar": "\u0627\u0644\u0645\u0639\u0647\u062f \u0627\u0644\u062a\u0642\u0646\u064a - \u0628\u0627\u0628\u0644", "name:en": "Technical Institute - Babylon"}}, {"type": "node", "id": 4640503304, "lat": 32.537065, "lon": 44.3338782, "tags": {"addr:street": "\u0634\u0627\u0631\u0639 \u062d\u0644\u0629 - \u0643\u0631\u0628\u0644\u0627\u0621", "amenity": "school", "name": "\u0625\u0639\u062f\u0627\u062f\u064a\u0629 \u0627\u0644\u062d\u0644\u0629 \u0627\u0644\u0645\u0647\u0646\u064a\u0629", "name:ar": "\u0625\u0639\u062f\u0627\u062f\u064a\u0629 \u0627\u0644\u062d\u0644\u0629 \u0627\u0644\u0645\u0647\u0646\u064a\u0629"}}, {"type": "node", "id": 4642170590, "lat": 32.4859549, "lon": 44.4389596, "tags": {"addr:street": "\u0634\u0627\u0631\u0639 \u0627\u0644\u0645\u062a\u0646\u0632\u0647\u0627\u062a", "amenity": "school", "name": "\u0627\u0639\u062f\u0627\u062f\u064a\u0629 \u0627\u0644\u062d\u0644\u0629 \u0627\u0644\u0645\u0633\u0627\u0626\u064a\u0629", "name:ar": "\u0627\u0639\u062f\u0627\u062f\u064a\u0629 \u0627\u0644\u062d\u0644\u0629 \u0627\u0644\u0645\u0633\u0627\u0626\u064a\u0629", "opening_hours": "Su-Th 14:00-18:00"}}, {"type": "node", "id": 4642192190, "lat": 32.4841519, "lon": 44.4301277, "tags": {"addr:street": "\u0634\u0627\u0631\u0639 \u0627\u0644\u062a\u0631\u0628\u064a\u0629", "amenity": "school", "name": "\u0627\u0639\u062f\u0627\u062f\u064a\u0629 \u0627\u0644\u062d\u0644\u0629 \u0644\u0644\u0628\u0646\u064a\u0646", "name:ar": "\u0627\u0639\u062f\u0627\u062f\u064a\u0629 \u0627\u0644\u062d\u0644\u0629 \u0644\u0644\u0628\u0646\u064a\u0646", "opening_hours": "Su-Th 07:30-13:30"}}, {"type": "node", "id": 4658967991, "lat": 32.4804058, "lon": 44.4231827, "tags": {"amenity": "school", "name": "\u062b\u0627\u0646\u0648\u064a\u0629 \u0627\u0644\u0645\u0633\u062a\u0646\u0635\u0631\u064a\u0629 \u0644\u0644\u0628\u0646\u0627\u062a", "name:ar": "\u062b\u0627\u0646\u0648\u064a\u0629 \u0627\u0644\u0645\u0633\u062a\u0646\u0635\u0631\u064a\u0629 \u0644\u0644\u0628\u0646\u0627\u062a"}}, {"type": "node", "id": 4674240091, "lat": 32.4545107, "lon": 44.2631121, "tags": {"addr:street": "\u0637\u0631\u064a\u0642 \u0637\u0648\u064a\u0631\u064a\u062c-\u0643\u0641\u0644", "amenity": "school", "name": "\u0645\u062a\u0648\u0633\u0637\u0629 \u0627\u0644\u0646\u0628\u0648\u063a", "name:ar": "\u0645\u062a\u0648\u0633\u0637\u0629 \u0627\u0644\u0646\u0628\u0648\u063a"}}, {"type": "node", "id": 4714010690, "lat": 32.4787468, "lon": 44.4424788, "tags": {"amenity": "school", "name": "\u0645\u062f\u0631\u0633\u0629 \u0627\u0644\u0645\u0647\u062c", "name:ar": "\u0645\u062f\u0631\u0633\u0629 \u0627\u0644\u0645\u0647\u062c"}}, {"type": "node", "id": 4724179790, "lat": 32.3966271, "lon": 44.4050483, "tags": {"amenity": "school", "name": "\u0643\u0644\u064a\u0629 \u0627\u0644\u0645\u0633\u062a\u0642\u0628\u0644 \u0627\u0644\u062c\u0627\u0645\u0639\u0629", "name:ar": "\u0643\u0644\u064a\u0629 \u0627\u0644\u0645\u0633\u062a\u0642\u0628\u0644 \u0627\u0644\u062c\u0627\u0645\u0639\u0629", "opening_hours": "Sa-We"}}, {"type": "node", "id": 4728730492, "lat": 32.5385979, "lon": 44.222901, "tags": {"amenity": "school", "name": "\u0645\u062f\u0631\u0633\u0629 \u062f\u062c\u0644\u0629 \u0644\u0644\u0628\u0646\u064a\u0646", "name:ar": "\u0645\u062f\u0631\u0633\u0629 \u062f\u062c\u0644\u0629 \u0644\u0644\u0628\u0646\u064a\u0646"}}, {"type": "node", "id": 4735159937, "lat": 32.4546347, "lon": 44.447669, "tags": {"addr:street": "\u0634\u0627\u0631\u0639 \u0627\u0644\u0645\u062f\u0633\u0647", "amenity": "school", "name": "\u0645\u062f\u0631\u0633\u0629 \u063a\u0631\u0646\u0627\u0637\u0647 \u0627\u0644\u0627\u0628\u062a\u062f\u0627\u0626\u064a\u0647", "name:ar": "\u0645\u062f\u0631\u0633\u0629 \u063a\u0631\u0646\u0627\u0637\u0647 \u0627\u0644\u0627\u0628\u062a\u062f\u0627\u0626\u064a\u0647"}}, {"type": "node", "id": 4746972421, "lat": 32.3118394, "lon": 44.2748821, "tags": {"amenity": "school", "name": "\u0645\u062f\u0631\u0633\u0629 \u0627\u064a\u0648\u0628 \u0627\u0644\u0627\u0628\u062a\u062f\u0627\u0626\u064a\u0629", "name:ar": "\u0645\u062f\u0631\u0633\u0629 \u0627\u064a\u0648\u0628 \u0627\u0644\u0627\u0628\u062a\u062f\u0627\u0626\u064a\u0629"}}, {"type": "node", "id": 4752156525, "lat": 32.4780199, "lon": 44.4187239, "tags": {"amenity": "school", "name": "\u0645\u062f\u0631\u0633\u0629 \u0627\u0644\u062d\u062f\u064a\u0628\u064a\u0629", "name:ar": "\u0645\u062f\u0631\u0633\u0629 \u0627\u0644\u062d\u062f\u064a\u0628\u064a\u0629"}}, {"type": "node", "id": 4755918334, "lat": 32.5034241, "lon": 44.4147632, "tags": {"amenity": "school", "name": "\u0627\u0639\u062f\u0627\u062f\u064a\u0629 \u0627\u0644\u062b\u0648\u0631\u0629 \u0627\u0644\u0646\u0645\u0648\u0630\u062c\u064a\u0629 \u0644\u0644\u0628\u0646\u064a\u0646", "name:ar": "\u0627\u0639\u062f\u0627\u062f\u064a\u0629 \u0627\u0644\u062b\u0648\u0631\u0629 \u0627\u0644\u0646\u0645\u0648\u0630\u062c\u064a\u0629 \u0644\u0644\u0628\u0646\u064a\u0646"}}, {"type": "node", "id": 4755924826, "lat": 32.5027291, "lon": 44.4158283, "tags": {"amenity": "school", "name": "\u0645\u0635\u0637\u0641\u0649 \u062c\u0648\u0627\u062f \u0627\u0644\u0627\u0628\u062a\u062f\u0627\u0626\u064a\u0629", "name:ar": "\u0645\u0635\u0637\u0641\u0649 \u062c\u0648\u0627\u062f \u0627\u0644\u0627\u0628\u062a\u062f\u0627\u0626\u064a\u0629"}}, {"type": "node", "id": 4755924827, "lat": 32.5004161, "lon": 44.4191676, "tags": {"amenity": "school", "name": "\u0627\u0639\u062f\u0627\u062f\u064a\u0629 \u0627\u0644\u062b\u0648\u0631\u0629 \u0644\u0644\u0628\u0646\u0627\u062a", "name:ar": "\u0627\u0639\u062f\u0627\u062f\u064a\u0629 \u0627\u0644\u062b\u0648\u0631\u0629 \u0644\u0644\u0628\u0646\u0627\u062a", "name:en": "Al-Thawra high school for girls", "opening_hours": "Su-Th 08:00-13:00"}}, {"type": "node", "id": 4755937021, "lat": 32.5034033, "lon": 44.4162238, "tags": {"amenity": "school", "name": "\u0627\u0644\u0639\u0642\u064a\u0644\u0629 \u0627\u0644\u0627\u0628\u062a\u062f\u0627\u0626\u064a\u0629 \u0644\u0644\u0628\u0646\u0627\u062a", "name:ar": "\u0627\u0644\u0639\u0642\u064a\u0644\u0629 \u0627\u0644\u0627\u0628\u062a\u062f\u0627\u0626\u064a\u0629 \u0644\u0644\u0628\u0646\u0627\u062a"}}, {"type": "node", "id": 4758313939, "lat": 32.3996418, "lon": 44.4033546, "tags": {"amenity": "school", "name": "\u0643\u0644\u064a\u0629 \u0627\u0644\u0632\u0631\u0627\u0639\u0629 \u062c\u0627\u0645\u0639\u0629 \u0627\u0644\u0642\u0627\u0633\u0645 \u0627\u0644\u062e\u0636\u0631\u0627\u0621", "name:ar": "\u0643\u0644\u064a\u0629 \u0627\u0644\u0632\u0631\u0627\u0639\u0629 \u062c\u0627\u0645\u0639\u0629 \u0627\u0644\u0642\u0627\u0633\u0645 \u0627\u0644\u062e\u0636\u0631\u0627\u0621"}}, {"type": "node", "id": 4764128330, "lat": 32.3986253, "lon": 44.4019281, "tags": {"amenity": "school", "name": "\u0642\u0633\u0645 \u0627\u0644\u0628\u0633\u062a\u0646\u0647 -\u0643\u0644\u064a\u0629 \u0627\u0644\u0632\u0631\u0627\u0639\u0629-\u062c\u0627\u0645\u0639\u0629 \u0627\u0644\u0642\u0627\u0633\u0645", "name:ar": "\u0642\u0633\u0645 \u0627\u0644\u0628\u0633\u062a\u0646\u0647 -\u0643\u0644\u064a\u0629 \u0627\u0644\u0632\u0631\u0627\u0639\u0629-\u062c\u0627\u0645\u0639\u0629 \u0627\u0644\u0642\u0627\u0633\u0645"}}, {"type": "node", "id": 4794784122, "lat": 32.5066176, "lon": 44.1326769, "tags": {"addr:street": "\u0634\u0644\u0648\u0646 \u0646\u062c\u0641 \u0643\u0631\u0628\u0644\u0627\u0621", "amenity": "school", "name": "\u0643\u0644\u064a\u0629 \u0627\u0644\u062d\u0633\u064a\u0646 \u0627\u0644\u0647\u0646\u062f\u0633\u064a\u0629 \u0627\u0644\u062c\u0627\u0645\u0639\u0629", "name:ar": "\u0643\u0644\u064a\u0629 \u0627\u0644\u062d\u0633\u064a\u0646 \u0627\u0644\u0647\u0646\u062f\u0633\u064a\u0629 \u0627\u0644\u062c\u0627\u0645\u0639\u0629", "name:en": "Al Hussein Eng college"}}, {"type": "node", "id": 4799114222, "lat": 32.4790388, "lon": 44.4255544, "tags": {"amenity": "school", "name": "\u0625\u0639\u062f\u0627\u062f\u064a\u0629 \u0627\u0644\u062e\u0646\u0633\u0627\u0621", "name:ar": "\u0625\u0639\u062f\u0627\u062f\u064a\u0629 \u0627\u0644\u062e\u0646\u0633\u0627\u0621", "name:en": "El-Khansaa High school for girls"}}, {"type": "node", "id": 4911369621, "lat": 32.4781937, "lon": 44.4266582, "tags": {"amenity": "school", "name": "\u0645\u062f\u0631\u0633\u0629 \u0627\u0644\u0645\u0644\u0627\u0643 \u0627\u0644\u0627\u0647\u0644\u064a\u0629", "name:ar": "\u0645\u062f\u0631\u0633\u0629 \u0627\u0644\u0645\u0644\u0627\u0643 \u0627\u0644\u0627\u0647\u0644\u064a\u0629"}}, {"type": "node", "id": 4944270321, "lat": 32.4994738, "lon": 44.4256119, "tags": {"amenity": "school", "name": "\u0645\u062f\u0631\u0633\u0629 \u0627\u0644\u0646\u0633\u0648\u0631", "name:ar": "\u0645\u062f\u0631\u0633\u0629 \u0627\u0644\u0646\u0633\u0648\u0631"}}, {"type": "node", "id": 4979776722, "lat": 32.4728099, "lon": 44.4280284, "tags": {"amenity": "school", "name": "\u0645\u0639\u0647\u062f \u0627\u0644\u0635\u062d\u0629 \u0627\u0644\u0639\u0627\u0644\u064a/\u0628\u0627\u0628\u0644", "name:ar": "\u0645\u0639\u0647\u062f \u0627\u0644\u0635\u062d\u0629 \u0627\u0644\u0639\u0627\u0644\u064a/\u0628\u0627\u0628\u0644"}}, {"type": "node", "id": 5022145226, "lat": 32.4661654, "lon": 44.4088192, "tags": {"amenity": "school", "name": "\u0645\u0631\u0643\u0632 \u062a\u062f\u0631\u064a\u0628 \u0643\u0647\u0631\u0628\u0627\u0621 \u0627\u0644\u062d\u0644\u0629", "name:ar": "\u0645\u0631\u0643\u0632 \u062a\u062f\u0631\u064a\u0628 \u0643\u0647\u0631\u0628\u0627\u0621 \u0627\u0644\u062d\u0644\u0629"}}, {"type": "node", "id": 5049266822, "lat": 32.4757069, "lon": 44.428757, "tags": {"amenity": "school", "name:ar": "\u0627\u0639\u062f\u0627\u062f\u064a\u0629 \u0627\u0644\u062d\u0644\u0629 \u0644\u0644\u0628\u0646\u064a\u0646", "name:en": "Al-Hilla high school", "opening_hours": "Su-Th 07:00-13:00", "tourism": "information"}}, {"type": "node", "id": 5049266823, "lat": 32.4748001, "lon": 44.4275728, "tags": {"amenity": "school", "name:ar": "\u0645\u062f\u064a\u0631\u064a\u0629 \u062a\u0631\u0628\u064a\u0629 \u0628\u0627\u0628\u0644/\u0648\u0632\u0627\u0631\u0629 \u0627\u0644\u062a\u0631\u0628\u064a\u0629 \u0627\u0644\u0639\u0631\u0627\u0642\u064a\u0629", "tourism": "information"}}, {"type": "node", "id": 5049268121, "lat": 32.4689907, "lon": 44.4263104, "tags": {"amenity": "school", "name": "\u0645\u0639\u0647\u062f \u0627\u0644\u062a\u0645\u064a\u0632 \u0644\u062f\u0648\u0631\u0627\u062a \u0627\u0644\u062a\u0642\u0648\u064a\u0629", "name:ar": "\u0645\u0639\u0647\u062f \u0627\u0644\u062a\u0645\u064a\u0632 \u0644\u062f\u0648\u0631\u0627\u062a \u0627\u0644\u062a\u0642\u0648\u064a\u0629", "name:en": "Al-Tamais for classes"}}, {"type": "node", "id": 5050708523, "lat": 32.4841248, "lon": 44.4227596, "tags": {"addr:street": "\u062d\u064a \u0627\u0644\u0643\u0631\u0627\u0645\u0629", "amenity": "school", "name": "\u0645\u0639\u0647\u062f \u0627\u0644\u062d\u0644\u0629 \u0627\u0644\u0646\u0645\u0648\u0630\u062c\u064a \u0644\u062f\u0648\u0631\u0627\u062a \u0627\u0644\u062a\u0642\u0648\u064a\u0629", "name:ar": "\u0645\u0639\u0647\u062f \u0627\u0644\u062d\u0644\u0629 \u0627\u0644\u0646\u0645\u0648\u0630\u062c\u064a \u0644\u062f\u0648\u0631\u0627\u062a \u0627\u0644\u062a\u0642\u0648\u064a\u0629", "opening_hours": "Mo-Su 07:00-18:00"}}, {"type": "node", "id": 5076915922, "lat": 32.4539796, "lon": 44.4290147, "tags": {"amenity": "school", "name": "\u0627\u0639\u062f\u0627\u062f\u064a\u0629 \u0637\u0644\u064a\u0644\u0637\u0629", "name:ar": "\u0627\u0639\u062f\u0627\u062f\u064a\u0629 \u0637\u0644\u064a\u0644\u0637\u0629"}}, {"type": "node", "id": 5119650922, "lat": 32.5031309, "lon": 44.4152051, "tags": {"addr:street": "hilla-karbala st.", "amenity": "school", "name": "\u0645\u062a\u0648\u0633\u0637\u0629 \u0627\u0644\u0638\u0641\u0631 \u0644\u0644\u0628\u0646\u0628\u0646", "name:ar": "\u0645\u062a\u0648\u0633\u0637\u0629 \u0627\u0644\u0638\u0641\u0631 \u0644\u0644\u0628\u0646\u0628\u0646", "name:en": "Al-thafar intermediate school for boys"}}, {"type": "node", "id": 5232784921, "lat": 32.4605035, "lon": 44.4189459, "tags": {"amenity": "school", "name": "\u0643\u0644\u064a\u0629 \u0627\u0644\u062a\u0645\u0631\u064a\u0636"}}, {"type": "node", "id": 5239617621, "lat": 32.4272645, "lon": 44.4824487, "tags": {"amenity": "school", "name": "\u062b\u0627\u0646\u0648\u064a\u0629 \u0627\u0644\u0628\u0627\u0642\u0631 \u0644\u0644\u0628\u0646\u064a\u0646."}}, {"type": "node", "id": 5297016621, "lat": 32.5611657, "lon": 44.0915895, "tags": {"amenity": "school", "name": "\u0645\u062f\u0627\u0631\u0633 \u0627\u0644\u0639\u0645\u064a\u062f"}}, {"type": "node", "id": 5309728722, "lat": 32.1485511, "lon": 44.3790607, "tags": {"addr:street": "70", "amenity": "school", "name": "\u0627\u0639\u062f\u0627\u062f\u064a\u0647 \u0632\u064a\u062f \u0628\u0646 \u0639\u0644\u064a"}}, {"type": "node", "id": 5361092622, "lat": 32.5312061, "lon": 44.4495991, "tags": {"amenity": "school", "name": "\u0645\u062f\u0631\u0633\u0629 \u0631\u0645\u0636\u0627\u0646 \u0627\u0644\u062e\u064a\u0631 \u0627\u0644\u0627\u0628\u062a\u062f\u0627\u0626\u064a\u0629"}}, {"type": "node", "id": 5502004222, "lat": 32.4880578, "lon": 44.4243285, "tags": {"amenity": "school", "name": "\u0623\u0639\u062f\u0627\u062f\u064a\u0629 \u0627\u0644\u0643\u0646\u062f\u064a \u0644\u0644\u0628\u0646\u064a\u0646"}}, {"type": "node", "id": 5502216037, "lat": 32.4653845, "lon": 44.3986757, "tags": {"amenity": "school", "name": "\u0645\u062f\u0631\u0633\u0629 \u0639\u0644\u064a \u062c\u0648\u0627\u062f \u0627\u0644\u0637\u0627\u0647\u0631"}}, {"type": "node", "id": 5502221824, "lat": 32.472422, "lon": 44.4202205, "tags": {"amenity": "school", "name": "\u0623\u0639\u062f\u0627\u062f\u064a\u0629 \u0627\u0644\u062c\u0647\u0627\u062f"}}, {"type": "node", "id": 5504592723, "lat": 32.4726266, "lon": 44.4195083, "tags": {"amenity": "school", "name": "\u0645\u062f\u0631\u0633\u0629 \u0627\u0644\u0631\u0633\u0648\u0644"}}, {"type": "node", "id": 5509932323, "lat": 32.4727224, "lon": 44.4044226, "tags": {"amenity": "school", "name": "\u0627\u0628\u062a\u062f\u0627\u0626\u064a\u0629 \u062b\u063a\u0631 \u0627\u0644\u0639\u0631\u0627\u0642"}}, {"type": "node", "id": 5516859634, "lat": 32.4891715, "lon": 44.4317263, "tags": {"addr:street": "\u0634\u0627\u0631\u0639 \u0664\u0660", "amenity": "school", "name": "\u0645\u0639\u0647\u062f \u0627\u0644\u0635\u0627\u062f\u0642 \u0627\u0644\u0627\u0647\u0644\u064a \u0644\u062f\u0648\u0631\u0627\u062a \u0627\u0644\u062a\u0642\u0648\u064a\u0647", "phone": "07802871853"}}, {"type": "node", "id": 5535554257, "lat": 32.4732375, "lon": 44.4060563}, {"type": "node", "id": 5535554258, "lat": 32.4733959, "lon": 44.4071239}, {"type": "node", "id": 5535554259, "lat": 32.4728619, "lon": 44.4072311}, {"type": "node", "id": 5535554260, "lat": 32.472699, "lon": 44.4061904}, {"type": "node", "id": 5535640992, "lat": 32.4799667, "lon": 44.4041171}, {"type": "node", "id": 5535640993, "lat": 32.4806286, "lon": 44.4041331}, {"type": "node", "id": 5535640994, "lat": 32.4806071, "lon": 44.4048667}, {"type": "node", "id": 5535640995, "lat": 32.4799398, "lon": 44.4048507}, {"type": "node", "id": 5535643070, "lat": 32.4823452, "lon": 44.4080936}, {"type": "node", "id": 5535643071, "lat": 32.4822909, "lon": 44.4093006}, {"type": "node", "id": 5535643072, "lat": 32.4816256, "lon": 44.4089895}, {"type": "node", "id": 5535643073, "lat": 32.4816618, "lon": 44.4080561}, {"type": "node", "id": 5535656310, "lat": 32.4829947, "lon": 44.4035864}, {"type": "node", "id": 5535656311, "lat": 32.4829499, "lon": 44.4046257}, {"type": "node", "id": 5535656312, "lat": 32.4821116, "lon": 44.4045954}, {"type": "node", "id": 5535656313, "lat": 32.4821628, "lon": 44.4035181}, {"type": "node", "id": 5535725132, "lat": 32.4892279, "lon": 44.4130166}, {"type": "node", "id": 5535725133, "lat": 32.4888885, "lon": 44.4137032}, {"type": "node", "id": 5535725134, "lat": 32.4884134, "lon": 44.4134296}, {"type": "node", "id": 5535725135, "lat": 32.4887392, "lon": 44.4126893}, {"type": "node", "id": 5542632821, "lat": 32.5504157, "lon": 44.4118243, "tags": {"addr:street": "\u0634\u0627\u0631\u0639 \u0645\u0646\u062a\u062c\u0639 \u0628\u0627\u0628\u0644", "amenity": "school", "name": "\u062b\u0627\u0646\u0648\u064a\u0647 \u0641\u0644\u0633\u0637\u064a\u0646 \u0644\u0644\u0628\u0646\u0627\u062a", "name:en": "palastin high school for girl"}}, {"type": "node", "id": 5567641021, "lat": 32.460845, "lon": 44.399755, "tags": {"amenity": "school", "name": "\u0645\u062f\u0631\u0633\u0629 \u0627\u0644\u0627\u0643\u0631\u0645\u064a\u0646"}}, {"type": "node", "id": 5602526314, "lat": 32.4748371, "lon": 44.4235212, "tags": {"addr:city": "\u0627\u0644\u062d\u0644\u0629", "addr:country": "IQ", "amenity": "school", "name": "\u0645\u062f\u0631\u0633\u0629 \u0627\u0644\u0633\u064a\u0627\u062f\u0629"}}, {"type": "node", "id": 5652458034, "lat": 32.4834543, "lon": 44.424966, "tags": {"amenity": "school", "name": "\u0645\u062a\u0648\u0633\u0637\u0629 \u0627\u0628\u0646 \u062d\u064a\u0627\u0646 \u0644\u0644\u0628\u0646\u0627\u062a"}}, {"type": "node", "id": 5675854822, "lat": 32.5339712, "lon": 44.344336, "tags": {"amenity": "school", "name": "\u0645\u062a\u0648\u0633\u0637\u0629 \u0627\u0644\u0628\u0647\u0627\u0621", "name:ar": "\u0645\u062f\u0631\u0633\u0629 \u0627\u0644\u0628\u0647\u0627\u0621 \u0627\u0644\u0645\u062a\u0648\u0633\u0637\u0629 \u0644\u0644\u0628\u0646\u064a\u0646", "name:en": "Al - Baha Intermediate School"}}, {"type": "node", "id": 5675860622, "lat": 32.5274455, "lon": 44.3444394, "tags": {"amenity": "school", "name": "\u0645\u062f\u0631\u0633\u0629 \u0627\u0644\u0631\u0628\u064a\u0639 \u0627\u0644\u0625\u0639\u062f\u0627\u062f\u064a\u0629 \u0627\u0644\u0628\u0646\u0627\u062a", "name:ar": "\u0645\u062f\u0631\u0633\u0629 \u0627\u0644\u0631\u0628\u064a\u0639 \u0627\u0644\u0625\u0639\u062f\u0627\u062f\u064a\u0629 \u0644\u0644\u0628\u0646\u0627\u062a", "name:en": "Al Rabie Preparatory School for Girls"}}, {"type": "node", "id": 5675868122, "lat": 32.5335613, "lon": 44.3438488, "tags": {"amenity": "school", "name": "\u0645\u062f\u0631\u0633\u0629 \u0627\u0644\u0627\u0628\u062a\u0647\u0627\u062c \u0627\u0644\u0627\u0628\u062a\u062f\u0627\u0626\u064a\u0629 \u0644\u0644\u0628\u0646\u0627\u062a", "name:en": "Al - Ibtahaj Primary School for Girls"}}, {"type": "node", "id": 5675878521, "lat": 32.5330053, "lon": 44.3436404, "tags": {"amenity": "school", "name": "\u0645\u062f\u0631\u0633\u0629 \u0627\u0644\u0628\u064a\u0627\u0646 \u0627\u0644\u0627\u0628\u062a\u062f\u0627\u0626\u064a\u0629", "name:ar": "\u0645\u062f\u0631\u0633\u0629 \u0627\u0644\u0628\u064a\u0627\u0646 \u0627\u0644\u0627\u0628\u062a\u062f\u0627\u0626\u064a\u0629 \u0644\u0644\u0628\u0646\u064a\u0646", "name:en": "Al Bayan Primary School"}}, {"type": "node", "id": 5677896022, "lat": 32.4900996, "lon": 44.4408143, "tags": {"amenity": "school", "name": "\u062b\u0627\u0646\u0648\u064a\u0629 \u0628\u0627\u0628\u0644 \u0644\u0644\u0628\u0646\u064a\u0646", "name:en": "Babylon Secondary School"}}, {"type": "node", "id": 5700163335, "lat": 32.4580635, "lon": 44.3998131, "tags": {"addr:street": "\u0634\u0627\u0631\u0639 \u0627\u0644\u0645\u0647\u0646\u062f\u0633\u064a\u0646", "amenity": "school", "name": "\u062e\u062f\u064a\u062c\u0647 \u0627\u0644\u0643\u0628\u0631\u0649"}}, {"type": "node", "id": 5728015123, "lat": 32.4555407, "lon": 44.4285522, "tags": {"amenity": "school", "name": "\u0627\u0628\u062a\u062f\u0627\u0626\u064a\u0629 \u0627\u0644\u0646\u0638\u0627\u0645\u064a\u0629 \u0644\u0644\u0628\u0646\u0627\u062a", "opening_hours": "Su-Th 08:00-13:00"}}, {"type": "node", "id": 5728015124, "lat": 32.4550799, "lon": 44.4294921, "tags": {"amenity": "school", "name": "\u0645\u062a\u0648\u0633\u0637\u0629 \u0641\u0636\u0629 \u0644\u0644\u0628\u0646\u0627\u062a \u0627\u0628\u062a\u062f\u0627\u0626\u064a\u0629 \u0627\u0644\u062c\u0627\u062d\u0638 \u0644\u0644\u0628\u0646\u0627\u062a", "opening_hours": "Su-Th 08:00-17:00"}}, {"type": "node", "id": 5728015125, "lat": 32.4660957, "lon": 44.4224258, "tags": {"amenity": "school", "name": "\u0627\u0628\u062a\u062f\u0627\u0626\u064a\u0629 14 \u062a\u0645\u0648\u0632", "opening_hours": "Su-Th 08:00-17:00"}}, {"type": "node", "id": 5728026622, "lat": 32.468524, "lon": 44.4244637, "tags": {"addr:street": "\u062d\u064a \u0627\u0644\u0645\u0631\u062a\u0636\u0649", "amenity": "school", "name": "\u0627\u0639\u062f\u0627\u062f\u064a\u0629 \u0627\u0644\u0637\u0644\u064a\u0639\u0629 \u0644\u0644\u0628\u0646\u0627\u062a", "opening_hours": "Su-Th 08:00-13:00"}}, {"type": "node", "id": 5732774226, "lat": 32.5171576, "lon": 44.5367039, "tags": {"amenity": "school", "name": "\u0645\u062f\u0631\u0633\u0647 \u0639\u0644\u064a \u0627\u0644\u0627\u0643\u0628\u0631  @\u0648\u0645\u062a\u0648\u0633\u0637\u0647 \u0627\u0644\u0645\u0632\u062f\u0644\u0641 \u0627\u0644\u0645\u062e\u062a\u0644\u0637\u0647"}}, {"type": "node", "id": 5777283353, "lat": 32.4864239, "lon": 44.4256084, "tags": {"amenity": "school", "name": "\u0627\u0644\u0645\u0633\u0631\u0647"}}, {"type": "node", "id": 5795372653, "lat": 32.5645922, "lon": 44.0692443, "tags": {"amenity": "school", "name": "\u0643\u0644\u064a\u0629 \u0627\u0628\u0646 \u062d\u064a\u0627\u0646 \u0627\u0644\u062c\u0627\u0645\u0639\u0629", "name:en": "Ibn hayyan university college"}}, {"type": "node", "id": 5882983185, "lat": 32.5276174, "lon": 44.3438952, "tags": {"amenity": "school", "name": "\u0645\u062f\u0631\u0633\u0629 \u0627\u0645 \u0627\u0644\u0628\u0646\u064a\u0646 \u0644\u0644\u0628\u0646\u0627\u062a", "name:ar": "\u0645\u062f\u0631\u0633\u0629 \u0627\u0644\u0631\u0628\u064a\u0639 \u0644\u0644\u0628\u0646\u0627\u062a"}}, {"type": "node", "id": 5923824685, "lat": 32.5308796, "lon": 44.3510375, "tags": {"amenity": "school", "name": "\u0645\u062f\u0631\u0633\u0629 \u0627\u0644\u0646\u0635\u0631 \u0627\u0644\u0627\u0628\u062a\u062f\u0627\u0626\u064a\u0629"}}, {"type": "node", "id": 5936005085, "lat": 32.5478836, "lon": 44.2367508, "tags": {"amenity": "school", "name": "\u0645\u062f\u0631\u0633\u0629 \u0627\u0644\u0643\u0631\u0627\u0645\u0629 \u0627\u0644\u0627\u0628\u062a\u062f\u0627\u0626\u064a\u0629"}}, {"type": "node", "id": 6006883885, "lat": 32.5344356, "lon": 44.3441442, "tags": {"amenity": "school", "name": "\u0627\u0639\u062f\u0627\u062f\u064a\u0629 \u0627\u0644\u0628\u064a\u0627\u0646 \u0644\u0644\u0628\u0646\u064a\u0646"}}, {"type": "node", "id": 6041438785, "lat": 32.4574436, "lon": 44.3986032, "tags": {"amenity": "school", "name": "\u0627\u0639\u062f\u0627\u062f\u064a\u0629 \u062e\u062f\u064a\u062c\u0647 \u0627\u0644\u0643\u0628\u0631\u0649 \u0644\u0644\u0628\u0646\u0627\u062a"}}, {"type": "node", "id": 6068508785, "lat": 32.4744631, "lon": 44.4426316, "tags": {"amenity": "school", "name": "\u0645\u062f\u0631\u0633\u0629 \u0627\u0644\u0627\u0633\u062a\u0642\u0644\u0627\u0644 \u0627\u0644\u0627\u0628\u062a\u062f\u0627\u0626\u064a\u0629 \u0644\u0644\u0628\u0646\u064a\u0646"}}, {"type": "node", "id": 6068627285, "lat": 32.4745642, "lon": 44.4426272, "tags": {"amenity": "school", "name": "\u0645\u062f\u0631\u0633\u0629 \u0627\u0644\u0627\u0633\u062a\u0642\u0644\u0627\u0644 \u0627\u0644\u0627\u0628\u062a\u062f\u0627\u0626\u064a\u0629 \u0644\u0644\u0628\u0646\u064a\u0646"}}, {"type": "node", "id": 6074260085, "lat": 32.4745061, "lon": 44.4425526, "tags": {"amenity": "school", "name": "\u0645\u062f\u0631\u0633\u0629 \u0627\u0644\u0627\u0633\u062a\u0642\u0644\u0627\u0644 \u0627\u0644\u0627\u0628\u062a\u062f\u0627\u0626\u064a\u0629 \u0644\u0644\u0628\u0646\u064a\u0646"}}, {"type": "node", "id": 6085440887, "lat": 32.4886649, "lon": 44.4422279, "tags": {"amenity": "school", "name": "\u0645\u062f\u0631\u0633\u0629 \u062e\u0648\u0644\u0629 \u0628\u0646\u062a \u0627\u0644\u0627\u0632\u0648\u0631 \u0627\u0644\u0627\u0628\u062a\u062f\u0627\u0626\u064a\u0629 \u0644\u0644\u0628\u0646\u0627\u062a"}}, {"type": "node", "id": 6166485285, "lat": 32.500554, "lon": 44.4203312, "tags": {"amenity": "school", "name": "\u0645\u062f\u0627\u0631\u0633 \u0639\u0637\u0627\u0621 \u0627\u0644\u0648\u0627\u0631\u062b \u0627\u0644\u0623\u0633\u0627\u0633\u064a\u0629", "phone": "07831809664"}}, {"type": "node", "id": 6290816086, "lat": 32.2768189, "lon": 44.2429251, "tags": {"amenity": "school", "name": "\u0645\u062f\u0631\u0633\u0629 \u0633\u064a\u062f \u0627\u0644\u0634\u0647\u062f\u0627\u0621 \u0627\u0644\u0625\u0628\u062a\u062f\u0627\u0626\u064a\u0629 \u0627\u0644\u0645\u062e\u062a\u0644\u0637\u0629"}}, {"type": "node", "id": 6383114286, "lat": 32.4675276, "lon": 44.4251521, "tags": {"amenity": "school", "name": "\u0645\u062a\u0648\u0633\u0637\u0629 \u0627\u0644\u0645\u0645\u0647\u062f\u064a\u0646"}}, {"type": "node", "id": 6383114287, "lat": 32.4819361, "lon": 44.4278215, "tags": {"amenity": "school", "name": "\u0645\u062f\u0631\u0633\u0629 \u0627\u0644\u0645\u0644\u0627\u0643 \u0627\u0644\u0627\u0647\u0644\u064a\u0629"}}, {"type": "node", "id": 6383120585, "lat": 32.4920367, "lon": 44.4237888, "tags": {"amenity": "school", "name": "\u0645\u062f\u0631\u0633\u0629 \u0627\u0644\u0645\u0644\u0627\u0643 \u0627\u0644\u0627\u0647\u0644\u064a\u0629"}}, {"type": "node", "id": 6471130185, "lat": 32.4275426, "lon": 44.4823617, "tags": {"amenity": "school", "name": "\u062b\u0627\u0646\u0648\u064a\u0629 \u0627\u0644\u0628\u0627\u0642\u0631"}}, {"type": "node", "id": 6485029988, "lat": 32.4927337, "lon": 44.4249694, "tags": {"amenity": "school", "name": "\u062b\u0627\u0646\u0648\u064a\u0629 \u0627\u0644\u0648\u0627\u0626\u0644\u064a \u0644\u0644\u0645\u062a\u0645\u064a\u0632\u064a\u0646", "name:ar": "\u062b\u0627\u0646\u0648\u064a\u0629 \u0627\u0644\u0648\u0627\u0626\u0644\u064a \u0644\u0644\u0645\u062a\u0645\u064a\u0632\u064a\u0646 \u0627\u0644\u062d\u0644\u0629", "name:en": "Alwalli"}}, {"type": "node", "id": 6498236785, "lat": 32.4910984, "lon": 44.4385467, "tags": {"addr:street": "\u0634\u0627\u0631\u0639 \u0627\u0644\u0627\u0643\u0631\u0645\u064a\u0646", "amenity": "school", "name": "\u0627\u0639\u062f\u0627\u062f\u064a\u0629 \u0627\u0644\u062f\u0643\u062a\u0648\u0631\u0629 \u0645\u062f\u064a\u062d\u0629 \u0639\u0628\u0648\u062f \u0627\u0644\u0628\u064a\u0631\u0645\u0627\u0646\u064a", "name:en": "Madiha Aboud Al - Birmani", "opening_hours": "Su-Th 08:00-13:00"}}, {"type": "node", "id": 6530261785, "lat": 32.5697492, "lon": 44.4086825, "tags": {"amenity": "school", "name": "\u062b\u0627\u0646\u0648\u064a\u0629 \u0627\u0644\u0628\u0634\u0627\u0626\u0631 \u0644\u0644\u0628\u0646\u064a\u0646"}}, {"type": "node", "id": 6530695485, "lat": 32.4541603, "lon": 44.2624999, "tags": {"amenity": "school", "name": "\u0627\u0639\u062f\u0627\u062f\u064a\u0629 \u0627\u0644\u0645\u0624\u0627\u062e\u0627\u0629 \u0644\u0644\u0628\u0646\u064a\u0646"}}, {"type": "node", "id": 6539485685, "lat": 32.4226402, "lon": 44.2986675, "tags": {"amenity": "school", "name": "\u0645\u062a\u0648\u0633\u0637\u0629 \u0631\u0645\u0636\u0627\u0646 \u0627\u0644\u062e\u064a\u0631"}}, {"type": "node", "id": 6544338986, "lat": 32.5431998, "lon": 44.2601548, "tags": {"amenity": "school", "name": "\u0645\u062a\u0648\u0633\u0637\u0629 \u0631\u0645\u0636\u0627\u0646 \u0627\u0644\u062e\u064a\u0631 \u0627\u0644\u0623\u0633\u0627\u0633\u064a\u0629/\u0662"}}, {"type": "node", "id": 6792003087, "lat": 32.4828115, "lon": 44.4435904, "tags": {"addr:street": "\u0627\u0644\u062c\u0633\u0631 \u0627\u0644\u0642\u062f\u064a\u0645", "amenity": "school", "name": "\u062b\u0627\u0646\u0648\u064a\u0629 \u0627\u0644\u062a\u062d\u0631\u064a\u0631 \u0644\u0644\u0628\u0646\u0627\u062a"}}, {"type": "node", "id": 6798274286, "lat": 32.5513673, "lon": 44.2282653, "tags": {"addr:street": "Hindiah Street", "amenity": "school", "name": "\u0627\u0644\u0641\u0636\u0644 \u0627\u0644\u0627\u0628\u062a\u062f\u0627\u0649\u064a\u0629 \u0627\u0644\u0622\u0647\u0644\u064a\u0647 \u0627\u0644\u0645\u062e\u062a\u0644\u0637\u0647"}}, {"type": "node", "id": 6873721586, "lat": 32.4545163, "lon": 44.4080145, "tags": {"amenity": "school", "name": "\u062b\u0627\u0646\u0648\u064a\u0629 \u0627\u0644\u0646\u062c\u0648\u0645 \u0644\u0644\u0628\u0646\u0627\u062a"}}, {"type": "node", "id": 6878571586, "lat": 32.4545105, "lon": 44.4084671, "tags": {"amenity": "school", "name": "\u062b\u0627\u0646\u0648\u064a\u0629 \u0627\u0644\u0646\u062c\u0648\u0645 \u0644\u0644\u0628\u0646\u0627\u062a"}}, {"type": "node", "id": 6968567787, "lat": 32.5009884, "lon": 44.4182699, "tags": {"amenity": "school", "name": "\u0627\u0644\u0645\u0639\u0631\u0641\u0647 \u0627\u0644\u0627\u0628\u062a\u062f\u0627\u0626\u064a\u0647"}}, {"type": "node", "id": 6975980285, "lat": 32.5448782, "lon": 44.5423902, "tags": {"amenity": "school", "name": "\u062b\u0627\u0646\u0648\u064a\u0629 \u0627\u0644\u0646\u064a\u0644"}}, {"type": "node", "id": 6975980385, "lat": 32.5433842, "lon": 44.5450958, "tags": {"amenity": "school", "name": "\u0645\u062f\u0631\u0633\u0629 \u0627\u0644\u0627\u0642\u0645\u0627\u0631 \u0627\u0644\u0645\u062e\u062a\u0644\u0637\u0629"}}, {"type": "node", "id": 7077806785, "lat": 32.4879072, "lon": 44.4206068, "tags": {"amenity": "school", "name": "\u0645\u062f\u0631\u0633\u0629 \u0627\u0644\u0639\u062f\u0646\u0627\u0646\u064a\u0629", "name:en": "School"}}, {"type": "node", "id": 7098094686, "lat": 32.503399, "lon": 44.4116941, "tags": {"amenity": "school", "name": "\u0645\u062f\u0631\u0633\u0629 \u0627\u0644\u0634\u0645\u0648\u0633", "name:ar": "\u062b\u0627\u0646\u0648\u064a\u0629 \u0627\u0644\u0634\u0645\u0648\u0633 \u0644\u0644\u064a\u0646\u0627\u062a", "name:en": "Alshmos intermediate school"}}, {"type": "node", "id": 7195507085, "lat": 32.4352374, "lon": 44.3256595, "tags": {"addr:street": "\u0637\u0631\u064a\u0642 \u0639\u0648\u0641\u064a", "amenity": "school", "name": "\u0639\u062f\u0646 \u0627\u0644\u0627\u0628\u062a\u062f\u0627\u0626\u064a\u0629"}}, {"type": "node", "id": 7244772885, "lat": 32.5147439, "lon": 44.443796, "tags": {"addr:street": "\u0634\u0627\u0631\u0639 \u062d\u064a \u0627\u0644\u062c\u0632\u0627\u0626\u0631", "amenity": "school", "name": "\u0645\u062f\u0631\u0633\u0629 \u0627\u0644\u0637\u0631\u064a\u0642 \u0625\u0644\u0649 \u0627\u0644\u0645\u0626\u0629 \u0627\u0644\u0628\u062a\u062f\u0627\u0626\u064a\u0629 \u0627\u0644\u0623\u0647\u0644\u064a\u0629", "opening_hours": "Su-Th 13:00-08:00"}}, {"type": "node", "id": 7984239689, "lat": 32.4958209, "lon": 44.4484678, "tags": {"amenity": "school", "name": "\u0645\u062f\u0631\u0633\u0629 \u0627\u0644\u0628\u062d\u062a\u0631\u064a"}}, {"type": "node", "id": 8005873992, "lat": 32.4344194, "lon": 44.3224728, "tags": {"addr:street": "\u0637\u0631\u064a\u0642 \u0639\u0648\u0641\u064a", "amenity": "school", "name": "\u0645\u062f\u0631\u0633\u0629 \u0639\u062f\u0646 \u0627\u0644\u0627\u0628\u062a\u062f\u0627\u0626\u064a\u0629", "opening_hours": "Su-Th 08:00-16:00"}}, {"type": "node", "id": 8120912717, "lat": 32.483649, "lon": 44.4210117, "tags": {"addr:street": "\u0634\u0627\u0631\u0639 \u0666\u0660", "amenity": "school", "name": "\u0645\u062f\u0631\u0633\u0647 \u0627\u0644\u0631\u062d\u0627\u0628 \u0627\u0644\u0645\u0633\u0627\u0626\u064a\u0647 \u0644\u0644\u0628\u0646\u0627\u062a", "name:en": "Al rehab night school"}}, {"type": "node", "id": 8298355417, "lat": 32.4719929, "lon": 44.431061, "tags": {"addr:street": "\u0634\u0627\u0631\u0639 \u0627\u0644\u0625\u0645\u0627\u0645 \u0639\u0644\u064a", "amenity": "school", "name": "\u0645\u062f\u0631\u0633\u0629 \u0635\u0641\u064a \u0627\u0644\u062f\u064a\u0646 \u0627\u0644\u062d\u0644\u064a \u0627\u0644\u0625\u0628\u062a\u062f\u0627\u0626\u064a\u0629", "name:en": "Safy Eldeen School", "opening_hours": "Su-Th 08:00-16:00"}}, {"type": "node", "id": 8454007517, "lat": 32.4628025, "lon": 44.3068462, "tags": {"addr:street": "\u0634\u0627\u0631\u0639 \u0633\u0627\u062f\u0629 \u0627\u0644 \u0632\u0631\u0643\u0627\u0646", "amenity": "school", "name": "\u0645\u0639\u0647\u062f  \u0627\u0633\u062a\u0627\u0630 \u0639\u0632\u0627\u0645 \u0627\u0644\u062d\u0633\u064a\u0646\u064a", "phone": "07721901305"}}, {"type": "node", "id": 8458189117, "lat": 32.5208267, "lon": 44.3076315, "tags": {"amenity": "school", "name": "\u0645\u062f\u0631\u0633\u0629 \u0645\u0633\u0644\u0645 \u0628\u0646 \u0639\u0642\u064a\u0644 \u0627\u0644\u0625\u0628\u062a\u062f\u0627\u0626\u064a\u0629"}}, {"type": "node", "id": 8624772617, "lat": 32.4522801, "lon": 44.4191151, "tags": {"amenity": "school", "name": "\u0627\u0639\u062f\u0627\u062f\u064a\u0629 \u0627\u0644\u062d\u0644\u0629 \u0627\u0644\u0645\u0647\u0646\u064a\u0629", "name:ar": "\u0642\u0633\u0645 \u0627\u0644\u062a\u0639\u0644\u064a\u0645 \u0627\u0644\u0645\u0647\u0646\u064a/\u0627\u0639\u062f\u0627\u062f\u064a\u0629 \u0627\u0644\u062d\u0644\u0629 \u0627\u0644\u0645\u0647\u0646\u064a\u0629", "opening_hours": "Su-Th 08:00-14:00"}}, {"type": "node", "id": 8677823318, "lat": 32.452486, "lon": 44.4192594, "tags": {"addr:street": "\u0634\u0627\u0631\u0639 60", "amenity": "school", "name": "\u0627\u0639\u062f\u0627\u064a\u0629 \u0627\u0644\u062d\u0644\u0647 \u0627\u0644\u0635\u0646\u0627\u0639\u064a\u0647", "name:ar": "\u0627\u0639\u062f\u0627\u064a\u0629 \u0627\u0644\u0635\u0646\u0627\u0639\u064a\u0647 \u0627\u0644\u062d\u0644\u0647"}}, {"type": "node", "id": 8693412217, "lat": 32.4642475, "lon": 44.4197766, "tags": {"amenity": "school", "name": "\u0627\u0644\u064a\u0642\u064a\u0646 \u0627\u0644\u0645\u0633\u0627\u0626\u064a\u0647"}}, {"type": "node", "id": 9018019619, "lat": 32.4867742, "lon": 44.4420578, "tags": {"amenity": "school", "name": "\u0625\u0639\u062f\u0627\u062f\u064a\u0629 \u0627\u0644\u0641\u0631\u0627\u062a \u0627\u0644\u0645\u0647\u0646\u064a\u0629 \u0644\u0644\u0628\u0646\u0627\u062a"}}, {"type": "node", "id": 9332388117, "lat": 32.4788518, "lon": 44.4281437, "tags": {"amenity": "school", "name": "\u0645\u062f\u064a\u0631\u064a\u0629 \u062a\u0631\u0628\u064a\u0629 \u0628\u0627\u0628\u0644"}}, {"type": "node", "id": 9947134217, "lat": 32.4974391, "lon": 44.4160763, "tags": {"amenity": "school", "name": "\u0645\u062f\u0627\u0631\u0633 \u0627\u0644\u0635\u0627\u062f\u0642( \u0639) \u0627\u0644\u0623\u0647\u0644\u064a\u0629"}}, {"type": "node", "id": 10101062017, "lat": 32.5547176, "lon": 44.0396475, "tags": {"addr:street": "\u0645\u0642\u0627\u0628\u0644 \u0628\u0627\u0628 \u0627\u0644\u062f\u0631\u0629 \u0627\u0644\u062b\u0627\u0646\u064a", "amenity": "school", "name": "\u0627\u0644\u0645\u062f\u0631\u0633\u0629 \u0627\u0644\u0635\u064a\u0646\u064a\u0629 \u0641\u064a \u062d\u064a \u0627\u0644\u0645\u064a\u0644\u0627\u062f"}}, {"type": "node", "id": 10101131317, "lat": 32.2249698, "lon": 44.3676136, "tags": {"amenity": "school", "name": "\u0645\u062f\u0631\u0633\u0629 \u0627\u0644\u0643\u0641\u0644 \u0627\u0644\u0627\u0628\u062a\u062f\u0627\u0626\u064a\u0629"}}, {"type": "node", "id": 10125003917, "lat": 32.4847746, "lon": 44.4147055, "tags": {"amenity": "school", "name": "\u0645\u062f\u0631\u0633\u0629 \u0631\u0627\u064a\u0629 \u0627\u0644\u0625\u0633\u0644\u0627\u0645"}}, {"type": "node", "id": 10181167817, "lat": 32.2431257, "lon": 44.4819891, "tags": {"addr:street": "\u0637\u0631\u064a\u0642 \u0627\u0644\u0642\u0627\u0633\u0645 - \u0643\u0641\u0644", "amenity": "school", "name": "\u0645\u062f\u0631\u0633\u0629 \u0641\u062f\u0643 \u0627\u0644\u0627\u0628\u062a\u062f\u0627\u0626\u064a\u0629 \u0627\u0644\u0645\u062e\u062a\u0644\u0637\u0629", "phone": "07807993032"}}, {"type": "node", "id": 10292884409, "lat": 32.5234487, "lon": 44.1098483, "tags": {"amenity": "school", "name": "\u062b. \u0627\u0644\u0644\u0624\u0644\u0624"}}, {"type": "node", "id": 10589853856, "lat": 32.2284449, "lon": 44.3708371}, {"type": "node", "id": 10589853857, "lat": 32.2285577, "lon": 44.3709842}, {"type": "node", "id": 10589853858, "lat": 32.2282715, "lon": 44.371368}, {"type": "node", "id": 10589853859, "lat": 32.2281168, "lon": 44.3711658}, {"type": "node", "id": 10688836605, "lat": 32.4593892, "lon": 44.4078275, "tags": {"amenity": "school", "name": "\u062b\u0627\u0646\u0648\u064a\u0629 \u0627\u0644\u0645\u062a\u0641\u0648\u0642\u064a\u0646 \u0644\u0644\u0628\u0646\u064a\u0646/ \u0628\u0627\u0628\u0644"}}, {"type": "node", "id": 11042466405, "lat": 32.4728964, "lon": 44.4247839, "tags": {"amenity": "school", "name": "\u0645\u0639\u0647\u062f \u0627\u0628\u0646 \u0627\u0644\u0647\u064a\u062b\u0645"}}, {"type": "node", "id": 11235609637, "lat": 32.2508865, "lon": 44.4275833, "tags": {"amenity": "school", "name": "\u0645\u062f\u0631\u0633\u0629 \u0637\u0631\u0627\u0628\u0644\u0633 \u0627\u0644\u0627\u0628\u062a\u062f\u0627\u0626\u064a\u0629 \u0627\u0644\u0645\u062e\u062a\u0644\u0637\u0629"}}, {"type": "node", "id": 11283209369, "lat": 32.4980156, "lon": 44.4074098, "tags": {"amenity": "school", "name": "\u0645\u062f\u0631\u0633\u0629 \u0627\u0644\u0627\u0642\u062f\u0627\u0645"}}, {"type": "node", "id": 11309679469, "lat": 32.4980962, "lon": 44.4075938, "tags": {"amenity": "school", "name": "\u0627\u0644\u0627\u0642\u062f\u0627\u0645"}}, {"type": "node", "id": 11332574469, "lat": 32.4750924, "lon": 44.4243525, "tags": {"amenity": "school", "name": "\u0645\u062f\u0631\u0633\u0629 \u0627\u0644\u0627\u0639\u062a\u0645\u0627\u062f"}}, {"type": "node", "id": 11347933369, "lat": 32.5324089, "lon": 44.3410469, "tags": {"amenity": "school", "name": "\u0645\u062f\u0631\u0633\u0629 \u0628\u0637\u0644\u0629 \u0643\u0631\u0628\u0644\u0627\u0621 \u0627\u0644\u0627\u0628\u062a\u062f\u0627\u0626\u064a\u0629"}}, {"type": "node", "id": 11383892170, "lat": 32.5308629, "lon": 44.34026, "tags": {"amenity": "school", "name": "\u0645\u062f\u0631\u0633\u0629 \u0628\u0637\u0644\u0629 \u0643\u0631\u0628\u0644\u0627\u0621"}}, {"type": "node", "id": 11384994869, "lat": 32.5324271, "lon": 44.340889, "tags": {"amenity": "school", "name": "\u0645\u062f\u0631\u0633\u0629 \u0628\u0637\u0644\u0629 \u0643\u0631\u0628\u0644\u0627\u0621 \u0627\u0644\u0627\u0628\u062a\u062f\u0627\u0626\u064a\u0629 \u0644\u0644\u0628\u0646\u0627\u062a"}}, {"type": "node", "id": 11397707269, "lat": 32.1989622, "lon": 44.2231184, "tags": {"amenity": "school", "name": "\u0645\u062d\u0645\u062f \u062c\u0648\u0627\u062f \u0645\u063a\u0646\u064a\u0647"}}, {"type": "node", "id": 11499617769, "lat": 32.4662274, "lon": 44.4234669, "tags": {"amenity": "school", "name": "\u0645\u062f\u0631\u0633\u0629 \u0661\u0664 \u062a\u0645\u0648\u0632 \u0627\u0644\u0627\u0628\u062a\u062f\u0627\u0626\u064a\u0629"}}, {"type": "node", "id": 11640439769, "lat": 32.3744171, "lon": 44.507463, "tags": {"amenity": "school", "name": "\u0645\u062f\u0631\u0633\u0629 \u0631\u0633\u0627\u0644\u0629 \u0627\u0644\u0645\u0635\u0637\u0641\u0649"}}, {"type": "node", "id": 11640439969, "lat": 32.3831408, "lon": 44.5010455, "tags": {"amenity": "school", "email": "resaltalmustafa@gmail.com", "name": "\u0645\u062f\u0631\u0633\u0629 \u0631\u0633\u0627\u0644\u0629 \u0627\u0644\u0645\u0635\u0637\u0641\u0649 \u0627\u0644\u0627\u0628\u062a\u062f\u0627\u0626\u064a\u0629 \u0627\u0644\u0645\u062e\u062a\u0644\u0637\u0629", "name:en": "Resalt Al-mustafa primary school", "phone": "+964 782 470 4602"}}, {"type": "node", "id": 11668456669, "lat": 32.5107906, "lon": 44.5215008, "tags": {"amenity": "school", "name": "\u0645\u062f\u0631\u0633\u0629\u0627\u0644\u0645\u064a\u0645\u0648\u0646\u0629 \u0627\u0644\u0627\u0628\u062a\u062f\u0627\u0626\u064a\u0629"}}, {"type": "way", "id": 403525158, "nodes": [4058732049, 4058732050, 4058732051, 4058732052, 4058732049], "tags": {"amenity": "school", "name": "\u0645\u062f\u0631\u0633\u0629 \u0627\u0644\u0631\u064a\u0627\u0636", "phone": "07810086412"}}, {"type": "way", "id": 403525364, "nodes": [4058735059, 4058735060, 4058735061, 4058735062, 4058735059], "tags": {"amenity": "school", "name": "\u0645\u062f\u0631\u0633\u0629 \u0627\u0644\u0632\u0647\u0627\u0648\u064a", "phone": "07810086412"}}, {"type": "way", "id": 456166717, "nodes": [4524423911, 4524423912, 4524423913, 4524423914, 4524423915, 4524423916, 4524423911], "tags": {"amenity": "school", "name": "\u0645\u062f\u0631\u0633\u0647 \u0627\u0644\u0628\u0635\u06cc\u0631\u0647"}}, {"type": "way", "id": 577426644, "nodes": [5535554257, 5535554258, 5535554259, 5535554260, 5535554257], "tags": {"amenity": "school", "name": "\u0627\u0639\u062f\u0627\u062f\u064a\u0629 \u0627\u0644\u0641\u0631\u0627\u062a \u0644\u0644\u0628\u0646\u0627\u062a"}}, {"type": "way", "id": 577438812, "nodes": [5535640992, 5535640993, 5535640994, 5535640995, 5535640992], "tags": {"amenity": "school", "name": "\u0645\u062f\u0631\u0633\u0629 \u0637\u0647 \u0628\u0627\u0642\u0631"}}, {"type": "way", "id": 577439196, "nodes": [5535643070, 5535643071, 5535643072, 5535643073, 5535643070], "tags": {"amenity": "school", "name": "\u062b\u0627\u0646\u0648\u064a\u0629 \u0627\u0644\u062d\u0648\u0631\u0627\u0621 \u0644\u0644\u0628\u0646\u0627\u062a"}}, {"type": "way", "id": 577441393, "nodes": [5535656310, 5535656311, 5535656312, 5535656313, 5535656310], "tags": {"amenity": "school", "name": "\u0627\u0639\u062f\u0627\u062f\u064a\u0647 \u0627\u0628\u0646 \u0627\u0644\u0633\u0643\u064a\u062a \u0644\u0644\u0628\u0646\u064a\u0646"}}, {"type": "way", "id": 577449981, "nodes": [5535725132, 5535725133, 5535725134, 5535725135, 5535725132], "tags": {"amenity": "school", "name": "\u0645\u062f\u0631\u0633\u0629 \u0627\u0644\u062c\u0648\u0627\u0647\u0631\u064a \u0627\u0644\u0627\u0628\u062a\u062f\u0627\u0626\u064a\u0629"}}, {"type": "way", "id": 1136029404, "nodes": [10589853856, 10589853857, 10589853858, 10589853859, 10589853856], "tags": {"amenity": "school", "name": "Al Kafel primary school"}}]}