{"version": 0.6, "generator": "Overpass API 0.7.61.5 4133829e", "osm3s": {"timestamp_osm_base": "2024-02-29T13:48:25Z", "copyright": "The data included in this document is from www.openstreetmap.org. The data is made available under ODbL."}, "elements": [{"type": "node", "id": 4215466583, "lat": 7.0528246, "lon": 0.029078, "tags": {"amenity": "school", "name": "Amankwah R/C Primary School"}}, {"type": "node", "id": 4215466585, "lat": 7.052585, "lon": 0.0301885, "tags": {"amenity": "school", "name": "Amankwah R/C JHS"}}, {"type": "node", "id": 5526564046, "lat": 6.9012989, "lon": -0.2744249, "tags": {"amenity": "school", "fixme": "ground knowlegde required"}}, {"type": "node", "id": 8500061474, "lat": 7.0447561, "lon": -0.0996303}, {"type": "node", "id": 8500247841, "lat": 7.0388473, "lon": -0.0833374, "tags": {"amenity": "school", "name": "Kofi Yeboah Memorial D/A School"}}, {"type": "node", "id": 8504127191, "lat": 6.9799801, "lon": -0.0432733, "tags": {"amenity": "school", "name": "Kayera E/P Primary School"}}, {"type": "node", "id": 8506828538, "lat": 7.1678167, "lon": 0.0348374, "tags": {"amenity": "school", "name": "MafiKope D/A Primary and JHS"}}, {"type": "node", "id": 8506860026, "lat": 7.1213095, "lon": -0.0112629, "tags": {"amenity": "school", "name": "Abomasarefo Basic School"}}, {"type": "node", "id": 8507537785, "lat": 7.0360404, "lon": -0.0910584, "tags": {"amenity": "school", "name": "Holy Rosary R/C School"}}, {"type": "node", "id": 8507644365, "lat": 7.0582148, "lon": -0.1123817, "tags": {"amenity": "school", "name": "Kwaekesse R/C Primary School"}}, {"type": "node", "id": 8509920839, "lat": 7.094029, "lon": -0.1919478, "tags": {"amenity": "school", "name": "Kubesu D/A Primary School"}}, {"type": "node", "id": 8509960765, "lat": 7.0576169, "lon": -0.1676305, "tags": {"amenity": "school", "name": "Koranteng D/A School"}}, {"type": "node", "id": 8515455227, "lat": 7.0202311, "lon": -0.2167752, "tags": {"amenity": "school", "name": "Mmradan Primary"}}, {"type": "node", "id": 8515506720, "lat": 6.9974406, "lon": -0.1672761, "tags": {"amenity": "school", "name": "Presbyterian Primary School, Somanyia"}}, {"type": "node", "id": 8515506736, "lat": 7.0193188, "lon": -0.2158462, "tags": {"amenity": "school", "name": "Mmradan JHS"}}, {"type": "node", "id": 8520745425, "lat": 6.7596153, "lon": -0.2307753, "tags": {"amenity": "school"}}, {"type": "node", "id": 8521346786, "lat": 6.7595834, "lon": -0.2315271, "tags": {"amenity": "school"}}, {"type": "node", "id": 8521361519, "lat": 6.757258, "lon": -0.2199032, "tags": {"amenity": "school"}}, {"type": "node", "id": 8521365672, "lat": 6.7573612, "lon": -0.1975979, "tags": {"amenity": "school"}}, {"type": "node", "id": 8521365674, "lat": 6.7516239, "lon": -0.182484, "tags": {"amenity": "school"}}, {"type": "node", "id": 8521414653, "lat": 6.9290024, "lon": -0.2568839, "tags": {"amenity": "school", "name": "Bright School of Diploma and Computer School"}}, {"type": "node", "id": 8521552600, "lat": 6.9331173, "lon": -0.2549323, "tags": {"amenity": "school", "name": "St Fidelis Senior High Technical School"}}, {"type": "node", "id": 8536017546, "lat": 6.9657054, "lon": 0.0276696, "tags": {"amenity": "school", "name": "Atiwulame D/A Primary School"}}, {"type": "node", "id": 8840240018, "lat": 7.052491, "lon": 0.044074}, {"type": "node", "id": 8840240019, "lat": 7.0523312, "lon": 0.0339997}, {"type": "node", "id": 8840240020, "lat": 7.0458468, "lon": 0.03371}, {"type": "node", "id": 8840240021, "lat": 7.0480402, "lon": 0.0461125}, {"type": "node", "id": 8840240022, "lat": 7.0462514, "lon": 0.0457907}, {"type": "node", "id": 8840240023, "lat": 7.0509577, "lon": 0.0458765}, {"type": "node", "id": 8840240080, "lat": 7.0440866, "lon": -0.0934139}, {"type": "node", "id": 8935846005, "lat": 7.0400552, "lon": -0.1000894}, {"type": "node", "id": 8935846006, "lat": 7.0400016, "lon": -0.0985394}, {"type": "node", "id": 8935846007, "lat": 7.040409, "lon": -0.0946777}, {"type": "node", "id": 8935846008, "lat": 7.0405422, "lon": -0.0929217}, {"type": "node", "id": 8935846009, "lat": 7.0413733, "lon": -0.0929746}, {"type": "node", "id": 8935846010, "lat": 7.0420412, "lon": -0.0930801}, {"type": "node", "id": 8935846011, "lat": 7.0429392, "lon": -0.0932615}, {"type": "node", "id": 8935846012, "lat": 7.0449703, "lon": -0.0935313}, {"type": "node", "id": 8935846013, "lat": 7.0446515, "lon": -0.1002487}, {"type": "node", "id": 8988144475, "lat": 6.9396919, "lon": -0.027675}, {"type": "node", "id": 8988144476, "lat": 6.9384378, "lon": -0.0275651}, {"type": "node", "id": 8988144477, "lat": 6.9385497, "lon": -0.0258538}, {"type": "node", "id": 8988144478, "lat": 6.9398144, "lon": -0.0260657}, {"type": "node", "id": 9248641615, "lat": 7.1794149, "lon": 0.0036585}, {"type": "node", "id": 9248641616, "lat": 7.1801959, "lon": 0.0037336}, {"type": "node", "id": 9248676117, "lat": 7.1804434, "lon": 0.0040381}, {"type": "node", "id": 9248676118, "lat": 7.1795333, "lon": 0.0049487}, {"type": "node", "id": 9248676119, "lat": 7.178204, "lon": 0.0042513}, {"type": "node", "id": 9248676120, "lat": 7.1785553, "lon": 0.0033635}, {"type": "node", "id": 9250979727, "lat": 6.9362678, "lon": -0.2576476}, {"type": "node", "id": 9250979728, "lat": 6.9364063, "lon": -0.2586347}, {"type": "node", "id": 9250979729, "lat": 6.9341644, "lon": -0.2596539}, {"type": "node", "id": 9250979730, "lat": 6.9333124, "lon": -0.2579373}, {"type": "node", "id": 9250979731, "lat": 6.9334562, "lon": -0.2573955}, {"type": "node", "id": 9250979732, "lat": 6.9338928, "lon": -0.2571595}, {"type": "node", "id": 9250979733, "lat": 6.9343455, "lon": -0.2572024}, {"type": "node", "id": 9250979734, "lat": 6.9350005, "lon": -0.2569878}, {"type": "node", "id": 9250979735, "lat": 6.9358951, "lon": -0.2567196}, {"type": "node", "id": 9254050693, "lat": 7.0594465, "lon": -0.0613073}, {"type": "node", "id": 9254050694, "lat": 7.0590232, "lon": -0.0612482}, {"type": "node", "id": 9254050695, "lat": 7.0588928, "lon": -0.0628603}, {"type": "node", "id": 9254050696, "lat": 7.0596381, "lon": -0.0630212}, {"type": "node", "id": 9254050697, "lat": 7.059899, "lon": -0.0617203}, {"type": "node", "id": 11263721260, "lat": 7.0455878, "lon": -0.093619}, {"type": "way", "id": 955122585, "nodes": [8840240019, 8840240020, 8840240022, 8840240021, 8840240023, 8840240018, 8840240019], "tags": {"addr:country": "GH", "addr:district": "Kwahu Afram Plains North", "addr:place": "Amankwakrom", "addr:region": "Eastern", "amenity": "school", "description": "Amankwakrom Fisheries and Agricultural Technical Institute (AFATI) is situated in the Kwahu Afram Plains North District in the Eastern Region of Ghana.", "email": "amankwakromfisheriesagrictechinst@ges.gov.gh", "isced:level": "3", "name": "Amankwakrom Fisheries and Agric Technical Institute", "operator": "Ghana Education Service", "operator:short": "GES", "operator:type": "public", "operator:wikidata": "Q30263788", "phone": "+233 24 410 7866", "start_date": "1995"}}, {"type": "way", "id": 965924472, "nodes": [8935846013, 8500061474, 11263721260, 8935846012, 8840240080, 8935846011, 8935846010, 8935846009, 8935846008, 8935846007, 8935846006, 8935846005, 8935846013], "tags": {"addr:country": "GH", "addr:district": "Afram Plains (Kwahu North)", "addr:place": "Donkorkrom", "addr:region": "Eastern", "amenity": "school", "description": "The School is located in the Kwahu Afram Plains North district of the Eastern region. It is situated at rge very entrance (outskirts) of Donkorkrom township.", "email": "donkorkromagricshs@ges.gov.gh", "isced:level": "3", "name": "Donkorkrom Agricultural Senior High School", "operator": "Ghana Education Service", "operator:short": "GES", "operator:type": "public", "operator:wikidata": "Q30263788", "phone": "+233 24 352 2733", "start_date": "1974"}}, {"type": "way", "id": 971168727, "nodes": [8988144478, 8988144477, 8988144476, 8988144475, 8988144478], "tags": {"addr:country": "GH", "addr:district": "Kwahu Afram Plains North", "addr:place": "Mem-Chemfre", "addr:region": "Eastern", "amenity": "school", "description": "The School was established under the Kwahu Afram Plains North District in the Eastern Region on 24th November 2016.", "email": "memchemfrecommshs@ges.gov.gh", "isced:level": "3", "name": "Mem-Chemfre Community Senior High/Technical School", "operator": "Ghana Education Service", "operator:short": "GES", "operator:type": "public", "operator:wikidata": "Q30263788", "phone": "+233 24 362 2617", "start_date": "2016-11-24"}}, {"type": "way", "id": 1002083146, "nodes": [9248676120, 9248676119, 9248676118, 9248676117, 9248641616, 9248641615, 9248676120], "tags": {"amenity": "school", "name": "Supom Basic Schools"}}, {"type": "way", "id": 1002361712, "nodes": [9250979735, 9250979734, 9250979733, 9250979732, 9250979731, 9250979730, 9250979729, 9250979728, 9250979727, 9250979735], "tags": {"addr:country": "GH", "addr:district": "Afram Plains (Kwahu South)", "addr:place": "Tease", "addr:region": "Eastern", "amenity": "school", "denomination": "catholic", "description": "It is a fast-improving Catholic School in the Afram Plains South District.", "email": "stfidelisshst@ges.gov.gh", "isced:level": "3", "name": "St. Fidelis Senior High/Technical School", "operator": "Ghana Education Service", "operator:short": "GES", "operator:type": "public", "operator:wikidata": "Q30263788", "phone": "+233 24 444 9749", "religion": "christian", "start_date": "1992"}}, {"type": "way", "id": 1002724094, "nodes": [9254050697, 9254050696, 9254050695, 9254050694, 9254050693, 9254050697], "tags": {"addr:country": "GH", "addr:district": "Kwahu Afram Plains North", "addr:place": "Adiembra", "addr:region": "Eastern", "amenity": "school", "denomination": "catholic", "description": "The school began as a private Vocational school in the 1999 and was later adopted as an Assisted Government school. It was absorbed into the Public system in 2001.", "email": "stmarytechvocinst@ges.gov.gh", "isced:level": "3", "name": "St. Mary's Vocational/Technical Institute", "operator": "Ghana Education Service", "operator:short": "GES", "operator:type": "public", "operator:wikidata": "Q30263788", "phone": "+233 20 274 4032", "religion": "christian", "start_date": "1999"}}]}