{"version": 0.6, "generator": "Overpass API 0.7.61.5 4133829e", "osm3s": {"timestamp_osm_base": "2024-03-06T11:18:45Z", "copyright": "The data included in this document is from www.openstreetmap.org. The data is made available under ODbL."}, "elements": [{"type": "node", "id": 567214908, "lat": 36.9296362, "lon": 42.2195932, "tags": {"alt_name": "\u0627\u0644\u0648\u0644\u064a\u062f", "is_in": "Syria - \u0627\u0644\u062c\u0645\u0647\u0648\u0631\u064a\u0629 \u0627\u0644\u0633\u0648\u0631\u064a\u0629", "name": "\u0627\u0644\u0648\u0644\u064a\u062f", "name:alt": "Al Wal\u012bd", "name:ar": "\u0627\u0644\u0648\u0644\u064a\u062f", "name:ar1": "\u0627\u0644\u0648\u0644\u064a\u062f", "name:de": "Al Walid", "name:en": "Al Walid", "name:fr": "Al Walid", "place": "village"}}, {"type": "node", "id": 567214982, "lat": 36.925, "lon": 42.0633333, "tags": {"alt_name": "\u0627\u0644\u0635\u0647\u0631\u064a\u062c \u0627\u0644\u063a\u0631\u0628\u064a", "is_in": "Syria - \u0627\u0644\u062c\u0645\u0647\u0648\u0631\u064a\u0629 \u0627\u0644\u0633\u0648\u0631\u064a\u0629", "name": "\u0627\u0644\u0635\u0647\u0631\u064a\u062c \u0627\u0644\u063a\u0631\u0628\u064a", "name:alt": "A\u015f \u015eihr\u012bj al Gharb\u012b", "name:ar": "\u0627\u0644\u0635\u0647\u0631\u064a\u062c \u0627\u0644\u063a\u0631\u0628\u064a", "name:ar1": "\u0627\u0644\u0635\u0647\u0631\u064a\u062c \u0627\u0644\u063a\u0631\u0628\u064a", "name:de": "As Sihrij al Gharbi", "name:en": "As Sihrij al Gharbi", "name:fr": "As Sihrij al Gharbi", "place": "village"}}, {"type": "node", "id": 567215026, "lat": 36.8997222, "lon": 42.1005556, "tags": {"alt_name": "\u0627\u0644\u0635\u0647\u0631\u064a\u062c", "is_in": "Syria - \u0627\u0644\u062c\u0645\u0647\u0648\u0631\u064a\u0629 \u0627\u0644\u0633\u0648\u0631\u064a\u0629", "name": "\u0627\u0644\u0635\u0647\u0631\u064a\u062c", "name:alt": "A\u015f \u015eihr\u012bj", "name:ar": "\u0627\u0644\u0635\u0647\u0631\u064a\u062c", "name:ar1": "\u0627\u0644\u0635\u0647\u0631\u064a\u062c", "name:de": "As Sihrij", "name:en": "As Sihrij", "name:fr": "As Sihrij", "place": "village"}}, {"type": "node", "id": 571230747, "lat": 36.9077778, "lon": 42.1441667, "tags": {"alt_name": "\u0627\u0644\u062e\u0648\u064a\u062a\u0644\u0629", "is_in": "Syria - \u0627\u0644\u062c\u0645\u0647\u0648\u0631\u064a\u0629 \u0627\u0644\u0633\u0648\u0631\u064a\u0629", "name": "\u0627\u0644\u062e\u0648\u064a\u062a\u0644\u0629", "name:alt": "Al Khuwaytilah", "name:ar": "\u0627\u0644\u062e\u0648\u064a\u062a\u0644\u0629", "name:ar1": "\u0627\u0644\u062e\u0648\u064a\u062a\u0644\u0629", "name:de": "Al Khuwaytilah", "name:en": "Al Khuwaytilah", "name:fr": "Al Khuwaytilah", "place": "village"}}, {"type": "node", "id": 571230789, "lat": 36.8833762, "lon": 42.1542057, "tags": {"alt_name": "\u062e\u0631\u0628\u0629 \u0627\u0644\u0628\u0626\u0631", "is_in": "Syria - \u0627\u0644\u062c\u0645\u0647\u0648\u0631\u064a\u0629 \u0627\u0644\u0633\u0648\u0631\u064a\u0629", "name": "\u062e\u0631\u0628\u0629 \u0627\u0644\u0628\u0626\u0631", "name:alt": "Khirbat al Bi'r", "name:ar": "\u062e\u0631\u0628\u0629 \u0627\u0644\u0628\u0626\u0631", "name:ar1": "\u062e\u0631\u0628\u0629 \u0627\u0644\u0628\u0626\u0631", "name:de": "Khirbat al Bi'r", "name:en": "Khirbat al Bi'r", "name:fr": "Khirbat al Bi'r", "place": "village"}}, {"type": "node", "id": 571230796, "lat": 36.8883018, "lon": 42.1270371, "tags": {"alt_name": "\u0627\u0644\u0645\u0634\u064a\u0631\u0641\u0629", "is_in": "Syria - \u0627\u0644\u062c\u0645\u0647\u0648\u0631\u064a\u0629 \u0627\u0644\u0633\u0648\u0631\u064a\u0629", "name": "\u0627\u0644\u0645\u0634\u064a\u0631\u0641\u0629", "name:alt": "Al Mushayrifah", "name:ar": "\u0627\u0644\u0645\u0634\u064a\u0631\u0641\u0629", "name:ar1": "\u0627\u0644\u0645\u0634\u064a\u0631\u0641\u0629", "name:de": "Al Mushayrifah", "name:en": "Al Mushayrifah", "name:fr": "Al Mushayrifah", "place": "village"}}, {"type": "node", "id": 2150033662, "lat": 36.7218768, "lon": 41.8810185, "tags": {"fixme": "name", "place": "hamlet"}}, {"type": "node", "id": 2150033719, "lat": 36.7002795, "lon": 41.8300163, "tags": {"place": "village"}}, {"type": "node", "id": 2150033825, "lat": 36.7170557, "lon": 41.8351988, "tags": {"place": "village"}}, {"type": "node", "id": 2150033898, "lat": 36.7120037, "lon": 41.905051, "tags": {"place": "hamlet"}}, {"type": "node", "id": 2150033954, "lat": 36.7154612, "lon": 41.9362505, "tags": {"fixme": "name", "place": "hamlet"}}, {"type": "node", "id": 2150034008, "lat": 36.7342885, "lon": 41.8372802, "tags": {"place": "village"}}, {"type": "node", "id": 2150147562, "lat": 36.6729975, "lon": 41.8132897, "tags": {"place": "hamlet"}}, {"type": "node", "id": 2358786180, "lat": 36.81229, "lon": 42.0624032, "tags": {"alt_name": "Al Ya\u2018r\u016bb\u012byah, Tall K\u016bchak", "alt_name:ckb": "\u06a9\u06c6\u0686\u06d5\u0631", "name": "\u0627\u0644\u064a\u0639\u0631\u0628\u064a\u0629", "name:ar": "\u0627\u0644\u064a\u0639\u0631\u0628\u064a\u0629", "name:ckb": "\u062a\u0644 \u06a9\u06c6\u0686\u06d5\u0631", "name:en": "Yaaroubia", "name:ku": "Til Ko\u00e7er", "name:ml": "\u0d2f\u0d3e\u0d31\u0d41\u0d2c\u0d3f\u0d2f", "name:ru": "\u0422\u0435\u043b\u043b\u044c-\u041a\u043e\u0447\u0435\u043a", "place": "town", "wikidata": "Q10971503", "wikipedia": "ar:\u0627\u0644\u064a\u0639\u0631\u0628\u064a\u0629", "wikipedia:ar": "\u0627\u0644\u064a\u0639\u0631\u0628\u064a\u0629"}}, {"type": "node", "id": 2378814262, "lat": 36.7890472, "lon": 42.1770644}, {"type": "node", "id": 2378814272, "lat": 36.7904128, "lon": 42.1801228}, {"type": "node", "id": 2378814278, "lat": 36.7914172, "lon": 42.1717317}, {"type": "node", "id": 2378814287, "lat": 36.7955937, "lon": 42.1728158}, {"type": "node", "id": 2378814291, "lat": 36.7971054, "lon": 42.1802785}, {"type": "node", "id": 2378814293, "lat": 36.7976584, "lon": 42.1732554}, {"type": "node", "id": 2461440510, "lat": 36.716041, "lon": 42.0762302, "tags": {"place": "hamlet"}}, {"type": "node", "id": 2461440512, "lat": 36.7427493, "lon": 42.1249288, "tags": {"place": "hamlet"}}, {"type": "node", "id": 2461440513, "lat": 36.7451119, "lon": 42.2011124, "tags": {"place": "hamlet"}}, {"type": "node", "id": 2461440514, "lat": 36.7472662, "lon": 42.3061433, "tags": {"place": "hamlet"}}, {"type": "node", "id": 2461440515, "lat": 36.7505949, "lon": 42.1672843, "tags": {"place": "hamlet"}}, {"type": "node", "id": 2461440517, "lat": 36.7650523, "lon": 42.2111008, "tags": {"place": "hamlet"}}, {"type": "node", "id": 2461440518, "lat": 36.7676496, "lon": 42.344072, "tags": {"place": "hamlet"}}, {"type": "node", "id": 2461440519, "lat": 36.7956524, "lon": 42.2149895, "tags": {"place": "hamlet"}}, {"type": "node", "id": 2461440532, "lat": 36.8141486, "lon": 42.2644686, "tags": {"place": "hamlet"}}, {"type": "node", "id": 2461440566, "lat": 36.8589679, "lon": 42.228554, "tags": {"fixme": "name", "place": "village"}}, {"type": "node", "id": 2461440572, "lat": 36.8638383, "lon": 42.2882567, "tags": {"place": "hamlet"}}, {"type": "node", "id": 2461440592, "lat": 36.8966838, "lon": 42.2880753, "tags": {"place": "hamlet"}}, {"type": "node", "id": 2461440598, "lat": 36.9060894, "lon": 42.1270554, "tags": {"place": "hamlet"}}, {"type": "node", "id": 2461440600, "lat": 36.9084061, "lon": 42.2089118, "tags": {"place": "hamlet"}}, {"type": "node", "id": 2461440661, "lat": 36.921395, "lon": 42.245542, "tags": {"place": "hamlet"}}, {"type": "node", "id": 2461440689, "lat": 36.9290339, "lon": 42.3321378, "tags": {"place": "hamlet"}}, {"type": "node", "id": 2461441996, "lat": 36.8969004, "lon": 42.0345029, "tags": {"alt_name": "\u0627\u0644\u0639\u0644\u064a\u0627\u0646\u064a\u0629", "is_in": "Syria, \u0627\u0644\u062c\u0645\u0647\u0648\u0631\u064a\u0629 \u0627\u0644\u0639\u0631\u0628\u064a\u0629 \u0627\u0644\u0633\u0648\u0631\u064a\u0629 \u060c \u0633\u0648\u0631\u064a\u0627", "name": "\u0627\u0644\u0639\u0644\u064a\u0627\u0646\u064a\u0629", "name:alt": "Al `Uly\u0101n\u012byah", "name:ar": "\u0627\u0644\u0639\u0644\u064a\u0627\u0646\u064a\u0629", "name:ar1": "\u0627\u0644\u0639\u0644\u064a\u0627\u0646\u064a\u0629", "name:de": "Al `Ulyaniyah", "name:en": "Al `Ulyaniyah", "name:fr": "Al `Ulyaniyah", "place": "village"}}, {"type": "node", "id": 2486486749, "lat": 36.734294, "lon": 42.265417, "tags": {"alt_name": "\u0628\u064a\u062f\u0631 \u0641\u0648\u0642\u0627\u0646\u064a", "int_name": "Baidar, Bay\u0101dir Fawq\u0101n\u012b, Baydar Fawq\u0101n\u012b, \u0628\u064a\u062f\u0631 \u0641\u0648\u0642\u0627\u0646\u064a, Baidar, Bayadir Fawqani, Baydar Fawqani, \u0628\u064a\u062f\u0631 \u0641\u0648\u0642\u0627\u0646\u064a", "name": "\u0628\u064a\u062f\u0631 \u0641\u0648\u0642\u0627\u0646\u064a", "name:ar": "\u0628\u064a\u062f\u0631 \u0641\u0648\u0642\u0627\u0646\u064a", "name:ar1": "\u0628\u064a\u062f\u0631 \u0641\u0648\u0642\u0627\u0646\u064a", "name:de": "Baidar", "name:en": "Baidar", "name:fr": "Baidar", "place": "village"}}, {"type": "node", "id": 2486486752, "lat": 36.798576, "lon": 42.215418, "tags": {"alt_name": "\u0628\u0626\u0631 \u0639\u0643\u0644\u0629 \u0627\u0644\u062a\u062d\u062a\u0627\u0646\u064a", "int_name": "Bir Uklah, Bir Uqlah, Bir Ugla, B\u012br Uglah at Ta\u1e29t\u0101n\u012b, \u0628\u064a\u0631 \u0639\u06af\u0644\u0647 \u0627\u0644\u062a\u062d\u062a\u0627\u0646\u064a, Bir Uklah, Bir Uqlah, Bir Ugla, Bir Uglah at Tahtani, \u0628\u064a\u0631 \u0639\u06af\u0644\u0647 \u0627\u0644\u062a\u062d\u062a\u0627\u0646\u064a", "is_in": "Iraq , \u062c\u0645\u0647\u0648\u0631\u064a\u0629 \u0627\u0644\u0639\u0631\u0627\u0642", "name": "\u0628\u0626\u0631 \u0639\u0643\u0644\u0629 \u0627\u0644\u062a\u062d\u062a\u0627\u0646\u064a", "name:ar": "\u0628\u0626\u0631 \u0639\u0643\u0644\u0629 \u0627\u0644\u062a\u062d\u062a\u0627\u0646\u064a", "name:ar1": "\u0628\u0626\u0631 \u0639\u0643\u0644\u0629 \u0627\u0644\u062a\u062d\u062a\u0627\u0646\u064a", "name:de": "Bir Uklah", "name:en": "Bir Uklah", "name:fr": "Bir Uklah", "name:ru": "\u0411\u0438\u0440-\u0423\u043a\u043b\u0430", "place": "village"}}, {"type": "node", "id": 2486486772, "lat": 36.727166, "lon": 42.258491, "tags": {"alt_name": "\u0642\u0631\u064a\u0629 \u0628\u0648\u062b\u0629", "int_name": "Qaryat B\u016bthah, \u0642\u0631\u064a\u0629 \u0628\u0648\u062b\u0629, Qaryat Buthah, \u0642\u0631\u064a\u0629 \u0628\u0648\u062b\u0629", "name": "\u0642\u0631\u064a\u0629 \u0628\u0648\u062b\u0629", "name:ar": "\u0642\u0631\u064a\u0629 \u0628\u0648\u062b\u0629", "name:ar1": "\u0642\u0631\u064a\u0629 \u0628\u0648\u062b\u0629", "name:de": "Qaryat Buthah", "name:en": "Qaryat Buthah", "name:fr": "Qaryat Buthah", "place": "village"}}, {"type": "node", "id": 2486486784, "lat": 36.862684, "lon": 42.286589, "tags": {"alt_name": "\u0633\u0641\u0627\u064a\u0629", "int_name": "Sufaia, Suf\u0101yah, \u0633\u064f\u0641\u0627\u064a\u0647, Sufaia, Sufayah, \u0633\u0641\u0627\u064a\u0647", "is_in": "Iraq , \u062c\u0645\u0647\u0648\u0631\u064a\u0629 \u0627\u0644\u0639\u0631\u0627\u0642", "name": "\u0633\u0641\u0627\u064a\u0629", "name:ar": "\u0635\u0641\u064a\u0629", "name:ar1": "\u0633\u0641\u0627\u064a\u0629", "name:de": "Sufaia", "name:en": "Sufaia", "name:fr": "Sufaia", "name:ku": "Sufaya", "place": "village"}}, {"type": "node", "id": 2486486814, "lat": 36.793628, "lon": 42.175499, "tags": {"alt_name": "\u062a\u0644 \u062d\u064a\u0644", "int_name": "Tall \u1e28iyal, \u062a\u0644 \u062d\u064a\u0644, Tall Hiyal, \u062a\u0644 \u062d\u064a\u0644", "is_in": "Iraq , \u062c\u0645\u0647\u0648\u0631\u064a\u0629 \u0627\u0644\u0639\u0631\u0627\u0642", "name": "\u062a\u0644 \u062d\u064a\u0644", "name:ar": "\u062a\u0644 \u062d\u064a\u0627\u0644", "name:ar1": "\u062a\u0644 \u062d\u064a\u0644", "name:de": "Tall Hiyal", "name:en": "Tall Hiyal", "name:fr": "Tall Hiyal", "place": "village"}}, {"type": "node", "id": 2488240188, "lat": 36.8258403, "lon": 42.1378423, "tags": {"alt_name": "\u062c\u0644\u0628\u0627\u0631\u0627\u062a", "int_name": "Chilp\u0101r\u0101t, Jilbarat, \u0686\u0644\u067e\u0627\u0631\u0627\u062a, Chilparat, Jilbarat, \u0686\u0644\u067e\u0627\u0631\u0627\u062a", "is_in": "Iraq , \u062c\u0645\u0647\u0648\u0631\u064a\u0629 \u0627\u0644\u0639\u0631\u0627\u0642", "name": "\u062c\u0644\u0628\u0627\u0631\u0627\u062a", "name:ar": "\u062c\u0644\u0628\u0627\u0631\u0627\u062a", "name:ar1": "\u062c\u0644\u0628\u0627\u0631\u0627\u062a", "name:de": "Chilparat", "name:en": "Chilparat", "name:fr": "Chilparat", "place": "village"}}, {"type": "node", "id": 2488240252, "lat": 36.8077149, "lon": 42.084696, "tags": {"alt_name": "\u0627\u0644\u0633\u062f\u0647 \u0627\u0644\u0642\u062f\u064a\u0645\u0629", "int_name": "\u0627\u0644\u0633\u062f\u0647 \u0627\u0644\u0642\u062f\u064a\u0645\u0629, \u0627\u0644\u0633\u062f\u0647 \u0627\u0644\u0642\u062f\u064a\u0645\u0629", "is_in": "Iraq , \u062c\u0645\u0647\u0648\u0631\u064a\u0629 \u0627\u0644\u0639\u0631\u0627\u0642", "name": "\u0627\u0644\u0633\u062f\u0647 \u0627\u0644\u0642\u062f\u064a\u0645\u0629", "name:ar": "\u0627\u0644\u0633\u062f\u0647 \u0627\u0644\u0642\u062f\u064a\u0645\u0629", "name:ar1": "\u0627\u0644\u0633\u062f\u0647 \u0627\u0644\u0642\u062f\u064a\u0645\u0629", "name:de": "\u0627\u0644\u0633\u062f\u0647 \u0627\u0644\u0642\u062f\u064a\u0645\u0629", "name:fr": "\u0627\u0644\u0633\u062f\u0647 \u0627\u0644\u0642\u062f\u064a\u0645\u0629", "place": "village"}}, {"type": "node", "id": 2488240886, "lat": 36.6763698, "lon": 42.3346147, "tags": {"alt_name": "\u0623\u0628\u0648 \u0643\u0648\u0644\u0631", "int_name": "Abu Golar, Ab\u016b Gular, Ab\u016b Gullar, Ab\u016b K\u016blar, \u0623\u0628\u0648 \u06af\u0648\u0644\u0631, \u0627\u0628\u0648 \u0643\u0648\u0644\u0631, Abu Golar, Abu Gular, Abu Gullar, Abu Kular, \u0623\u0628\u0648 \u06af\u0648\u0644\u0631, \u0627\u0628\u0648 \u0643\u0648\u0644\u0631", "is_in": "Iraq , \u062c\u0645\u0647\u0648\u0631\u064a\u0629 \u0627\u0644\u0639\u0631\u0627\u0642", "name": "\u0623\u0628\u0648 \u0643\u0648\u0644\u0631", "name:ar": "\u0623\u0628\u0648 \u0643\u0644\u0647(\u0627\u0644\u062d\u0627\u0644\u062d\u0647)", "name:ar1": "\u0623\u0628\u0648 \u0643\u0648\u0644\u0631", "name:de": "Abu Golar", "name:en": "Abu Golar (ruined)", "name:fr": "Abu Golar", "place": "village"}}, {"type": "node", "id": 2488240918, "lat": 36.5569834, "lon": 42.3470792, "tags": {"alt_name": "\u0642\u0631\u064a\u0629 \u0643\u0627\u062e\u0631\u062a\u0629/\u0627\u0644\u0628\u0648\u0639\u0644\u0648", "int_name": "Al Kakhrah, Kakhra, \u0627\u0644\u0643\u062e\u0631\u0647, Al Kakhrah, Kakhra, \u0627\u0644\u0643\u062e\u0631\u0647;Khaw\u012bl, \u062e\u0648\u064a\u0644, Khawil, \u062e\u0648\u064a\u0644", "is_in": "Iraq , \u062c\u0645\u0647\u0648\u0631\u064a\u0629 \u0627\u0644\u0639\u0631\u0627\u0642", "name": "\u0642\u0631\u064a\u0629 \u0643\u0627\u062e\u0631\u062a\u0629/\u0627\u0644\u0628\u0648\u0639\u0644\u0648", "name:ar": "\u0642\u0631\u064a\u0629 \u0643\u0627\u062e\u0631\u062a\u0629/\u0627\u0644\u0628\u0648\u0639\u0644\u0648", "name:de": "Al Kakhrah;Khawil", "name:en": "Al Kakhrah;Khawil", "name:fr": "Al Kakhrah;Khawil", "place": "village", "population": "\u0642\u0631\u064a\u0629 \u0643\u0627\u062e\u0631\u062a\u0629\\\u0627\u0644\u0628\u0648\u0639\u0644\u0648"}}, {"type": "node", "id": 2488240956, "lat": 36.676512, "lon": 42.127065, "tags": {"alt_name": "\u0639\u0644\u0643\u0627\u0646\u0629", "int_name": "Alg\u0101nah, Al Qan\u0101t, Algana, \u0639\u0644\u06af\u0627\u0646\u0629, Alganah, Al Qanat, Algana, \u0639\u0644\u06af\u0627\u0646\u0629", "is_in": "Iraq , \u062c\u0645\u0647\u0648\u0631\u064a\u0629 \u0627\u0644\u0639\u0631\u0627\u0642", "name": "\u0639\u0644\u0643\u0627\u0646\u0629", "name:ar": "\u0639\u0644\u0643\u0627\u0646\u0629", "name:ar1": "\u0639\u0644\u0643\u0627\u0646\u0629", "name:de": "Alganah", "name:en": "Alganah", "name:fr": "Alganah", "place": "village"}}, {"type": "node", "id": 2488241104, "lat": 36.49434, "lon": 41.867015, "tags": {"alt_name": "\u062d\u0637\u064a\u0646", "int_name": "Borek, \u0628\u0648\u0631\u0643,Borek,\u0628\u0648\u0631\u0643", "is_in": "Iraq , \u062c\u0645\u0647\u0648\u0631\u064a\u0629 \u0627\u0644\u0639\u0631\u0627\u0642", "name": "\u0628\u0648\u0631\u0643", "name:ar": "\u0628\u0648\u0631\u0643", "name:de": "Borek", "name:en": "Borek", "name:fr": "Borek", "name:ku-Arab": "\u0628\u0648\u0631\u0650\u0643", "place": "village"}}, {"type": "node", "id": 2488241136, "lat": 36.5775075, "lon": 41.9152875, "tags": {"alt_name": "\u062e\u0644\u0641 \u0627\u0644\u0635\u0627\u0628\u0631;\u062e\u0644\u0641 \u0627\u0644\u0635\u0627\u064a\u0631", "int_name": "Khalaf a\u015f \u015e\u0101yir, Khalaf as Sayir;Khalaf a\u015f \u015e\u0101bir, Khalaf Sabur, \u062e\u0644\u0641 \u0627\u0644\u0635\u0627\u0628\u0631, Khalaf as Sabir, Khalaf Sabur, \u062e\u0644\u0641 \u0627\u0644\u0635\u0627\u0628\u0631", "is_in": "Iraq , \u062c\u0645\u0647\u0648\u0631\u064a\u0629 \u0627\u0644\u0639\u0631\u0627\u0642", "name": "\u062e\u0644\u0641 \u0627\u0644\u0635\u0627\u0628\u0631", "name:ar": "\u062e\u0644\u0641 \u0627\u0644\u0635\u0627\u0628\u0631", "name:de": "Khalaf as Sabir", "name:en": "Khalaf as Sabir", "name:fr": "Khalaf as Sabir", "place": "village"}}, {"type": "node", "id": 2488241294, "lat": 36.686291, "lon": 41.994791, "tags": {"alt_name": "\u0645\u0646\u064a\u0641 \u0641\u064a\u0635\u0644", "int_name": "Masif, Mu\u012bf, Mun\u012bf Fay\u015fal, \u0645\u0646\u064a\u0641 \u0641\u064a\u0635\u0644, Masif, Muif, Munif Faysal, \u0645\u0646\u064a\u0641 \u0641\u064a\u0635\u0644", "is_in": "Iraq , \u062c\u0645\u0647\u0648\u0631\u064a\u0629 \u0627\u0644\u0639\u0631\u0627\u0642", "name": "\u0645\u0646\u064a\u0641 \u0641\u064a\u0635\u0644", "name:ar": "kurdish", "name:ar1": "\u0645\u0646\u064a\u0641 \u0641\u064a\u0635\u0644", "name:de": "Masif", "name:en": "Masif", "name:fr": "Masif", "name:ku": "iraq", "place": "village"}}, {"type": "node", "id": 2488241323, "lat": 36.6334081, "lon": 41.9129152, "tags": {"alt_name": "\u0646\u0639\u064a\u0645 \u062d\u0633\u0648\u0646", "int_name": "Naeim Hasun, Naeim Hasun", "is_in": "Iraq , \u062c\u0645\u0647\u0648\u0631\u064a\u0629 \u0627\u0644\u0639\u0631\u0627\u0642", "name": "\u0646\u0639\u064a\u0645 \u062d\u0633\u0648\u0646", "name:ar": "\u0646\u0639\u064a\u0645 \u062d\u0633\u0648\u0646", "name:ar1": "\u0646\u0639\u064a\u0645 \u062d\u0633\u0648\u0646", "name:de": "Naeim Hasun", "name:en": "Naeim Hasun", "name:fr": "Naeim Hasun", "place": "village"}}, {"type": "node", "id": 2488241401, "lat": 36.5184681, "lon": 42.3539683, "tags": {"int_name": "Sahl al Mil\u1e29ah, Sahl Milha, \u0633\u0647\u0644 \u0627\u0644\u0645\u0644\u062d\u0629, Sahl al Milhah, Sahl Milha, \u0633\u0647\u0644 \u0627\u0644\u0645\u0644\u062d\u0629", "name": "\u0633\u0647\u0644 \u0627\u0644\u0645\u0644\u062d\u0629", "name:ar": "\u0633\u0647\u0644 \u0627\u0644\u0645\u0644\u062d\u0629", "name:en": "Sahl al Milhah", "place": "village"}}, {"type": "node", "id": 2488241412, "lat": 36.5211291, "lon": 42.0828023, "tags": {"name": "\u062a\u0644 \u0623\u0628\u0637\u0629", "name:en": "Tull Abta", "place": "village"}}, {"type": "node", "id": 2488241461, "lat": 36.619154, "lon": 42.2753268, "tags": {"alt_name": "\u062a\u0644 \u062e\u0631\u0628\u0629 \u064a\u0635\u0629 \u0627\u0644\u0623\u062b\u0631\u064a", "int_name": "\u062a\u0644 \u062e\u0631\u0628\u0629 \u064a\u0635\u0629 \u0627\u0644\u0627\u062b\u0631\u064a, \u062a\u0644 \u062e\u0631\u0628\u0629 \u064a\u0635\u0629 \u0627\u0644\u0627\u062b\u0631\u064a", "is_in": "Iraq , \u062c\u0645\u0647\u0648\u0631\u064a\u0629 \u0627\u0644\u0639\u0631\u0627\u0642", "name": "\u062a\u0644 \u062e\u0631\u0628\u0629 \u064a\u0635\u0629 \u0627\u0644\u0623\u062b\u0631\u064a", "name:ar": "\u062a\u0644 \u062e\u0631\u0628\u0629 \u064a\u0635\u0629 \u0627\u0644\u0623\u062b\u0631\u064a", "place": "village"}}, {"type": "node", "id": 2501207227, "lat": 36.8090951, "lon": 42.0611183}, {"type": "node", "id": 2501207228, "lat": 36.8073174, "lon": 42.0673767}, {"type": "node", "id": 2501207229, "lat": 36.8072229, "lon": 42.0704344}, {"type": "node", "id": 2501207230, "lat": 36.8075064, "lon": 42.0704988}, {"type": "node", "id": 2501207231, "lat": 36.8079015, "lon": 42.0700052}, {"type": "node", "id": 2501207232, "lat": 36.8083139, "lon": 42.0701018}, {"type": "node", "id": 2501207233, "lat": 36.8085801, "lon": 42.0693079}, {"type": "node", "id": 2501207234, "lat": 36.8094048, "lon": 42.069619}, {"type": "node", "id": 2501207235, "lat": 36.8103239, "lon": 42.0664218}, {"type": "node", "id": 2501207236, "lat": 36.8102981, "lon": 42.0659819}, {"type": "node", "id": 2501207237, "lat": 36.810049, "lon": 42.0658425}, {"type": "node", "id": 2501207238, "lat": 36.8103239, "lon": 42.0647481}, {"type": "node", "id": 2501207239, "lat": 36.8099459, "lon": 42.0645765}, {"type": "node", "id": 2501207240, "lat": 36.8101739, "lon": 42.0639401}, {"type": "node", "id": 2501207241, "lat": 36.811098, "lon": 42.0643249}, {"type": "node", "id": 2501207242, "lat": 36.8108259, "lon": 42.0649921}, {"type": "node", "id": 2501207243, "lat": 36.8125744, "lon": 42.0659497}, {"type": "node", "id": 2501207244, "lat": 36.8131584, "lon": 42.0661858}, {"type": "node", "id": 2501207245, "lat": 36.8134625, "lon": 42.0651158}, {"type": "node", "id": 2501207246, "lat": 36.8161046, "lon": 42.0659283}, {"type": "node", "id": 2501207247, "lat": 36.8166629, "lon": 42.0655957}, {"type": "node", "id": 2501207248, "lat": 36.8168776, "lon": 42.0646623}, {"type": "node", "id": 2501207249, "lat": 36.8157524, "lon": 42.0641044}, {"type": "node", "id": 2501207250, "lat": 36.8164395, "lon": 42.0615295}, {"type": "node", "id": 2501207251, "lat": 36.816388, "lon": 42.0611003}, {"type": "node", "id": 2501207252, "lat": 36.8161389, "lon": 42.0609072}, {"type": "node", "id": 2501207253, "lat": 36.8164138, "lon": 42.0600918}, {"type": "node", "id": 2501207254, "lat": 36.8169635, "lon": 42.0603278}, {"type": "node", "id": 2501207255, "lat": 36.8167917, "lon": 42.0610038}, {"type": "node", "id": 2501207256, "lat": 36.8173328, "lon": 42.0612934}, {"type": "node", "id": 2501207257, "lat": 36.8166027, "lon": 42.0638576}, {"type": "node", "id": 2501207258, "lat": 36.8167917, "lon": 42.0639649}, {"type": "node", "id": 2501207259, "lat": 36.817161, "lon": 42.0636538}, {"type": "node", "id": 2501207260, "lat": 36.8179426, "lon": 42.0608214}, {"type": "node", "id": 2501207261, "lat": 36.8178052, "lon": 42.0597914}, {"type": "node", "id": 2501207262, "lat": 36.8169807, "lon": 42.0593837}, {"type": "node", "id": 2501207263, "lat": 36.817307, "lon": 42.0577744}, {"type": "node", "id": 2501207265, "lat": 36.8167745, "lon": 42.0575491}, {"type": "node", "id": 2501207267, "lat": 36.8169463, "lon": 42.0566908}, {"type": "node", "id": 2501207269, "lat": 36.8152972, "lon": 42.0575813}, {"type": "node", "id": 2501207271, "lat": 36.8137597, "lon": 42.0584825}, {"type": "node", "id": 2501207272, "lat": 36.8135278, "lon": 42.059212}, {"type": "node", "id": 2501207273, "lat": 36.8129523, "lon": 42.058976}, {"type": "node", "id": 2501207274, "lat": 36.8113117, "lon": 42.0598665}, {"type": "node", "id": 2966122691, "lat": 36.4838396, "lon": 41.8158629}, {"type": "node", "id": 2966122692, "lat": 36.4838746, "lon": 41.8174808}, {"type": "node", "id": 2966122693, "lat": 36.4840321, "lon": 41.8182644}, {"type": "node", "id": 2966122694, "lat": 36.484937, "lon": 41.8024815}, {"type": "node", "id": 2966122695, "lat": 36.4849784, "lon": 41.7968752}, {"type": "node", "id": 2966122696, "lat": 36.4849887, "lon": 41.8121193}, {"type": "node", "id": 2966122697, "lat": 36.4851521, "lon": 41.8088834}, {"type": "node", "id": 2966122698, "lat": 36.4857079, "lon": 41.8696802}, {"type": "node", "id": 2966122699, "lat": 36.4868263, "lon": 41.7953362}, {"type": "node", "id": 2966122700, "lat": 36.4871268, "lon": 41.8766162}, {"type": "node", "id": 2966122701, "lat": 36.4877208, "lon": 41.8620054}, {"type": "node", "id": 2966122702, "lat": 36.4879488, "lon": 41.8191466}, {"type": "node", "id": 2966122703, "lat": 36.4903605, "lon": 41.8778474}, {"type": "node", "id": 2966122704, "lat": 36.4908224, "lon": 41.8590914}, {"type": "node", "id": 2966122705, "lat": 36.4911323, "lon": 41.7967111}, {"type": "node", "id": 2966122706, "lat": 36.4942338, "lon": 41.805063}, {"type": "node", "id": 2966122707, "lat": 36.4961639, "lon": 41.8087568}, {"type": "node", "id": 2966122708, "lat": 36.4973186, "lon": 41.81046}, {"type": "node", "id": 2966122709, "lat": 36.4974212, "lon": 41.8595018}, {"type": "node", "id": 2966122710, "lat": 36.498213, "lon": 41.8645089}, {"type": "node", "id": 2966122711, "lat": 36.4983249, "lon": 41.8125121}, {"type": "node", "id": 2966122712, "lat": 36.4983579, "lon": 41.8174576}, {"type": "node", "id": 2966122713, "lat": 36.4997637, "lon": 41.8760826}, {"type": "node", "id": 2966122715, "lat": 36.502337, "lon": 41.8693518}, {"type": "node", "id": 2966122716, "lat": 36.502337, "lon": 41.8743589}, {"type": "node", "id": 2966122722, "lat": 36.5061968, "lon": 41.8599533}, {"type": "node", "id": 2966122723, "lat": 36.5063947, "lon": 41.8669304}, {"type": "node", "id": 2973207078, "lat": 36.8065002, "lon": 42.1025501}, {"type": "node", "id": 2973207079, "lat": 36.8089454, "lon": 42.0789311}, {"type": "node", "id": 2973207080, "lat": 36.8096652, "lon": 42.086527}, {"type": "node", "id": 2973207081, "lat": 36.8125377, "lon": 42.0890155}, {"type": "node", "id": 2973207246, "lat": 36.7948925, "lon": 42.1064823}, {"type": "node", "id": 2973207250, "lat": 36.7981342, "lon": 42.0947415}, {"type": "node", "id": 2973207259, "lat": 36.8069471, "lon": 42.0782698}, {"type": "node", "id": 2983234967, "lat": 36.8122485, "lon": 42.092554}, {"type": "node", "id": 3008411938, "lat": 36.7899737, "lon": 42.1790019}, {"type": "node", "id": 3008412075, "lat": 36.7872934, "lon": 42.1781248}, {"type": "node", "id": 3008412076, "lat": 36.7888974, "lon": 42.1793826}, {"type": "node", "id": 3120749541, "lat": 36.8004714, "lon": 42.0873526}, {"type": "node", "id": 3120749542, "lat": 36.8007503, "lon": 42.0867638}, {"type": "node", "id": 3120749543, "lat": 36.8012934, "lon": 42.0869918}, {"type": "node", "id": 3120749544, "lat": 36.8025819, "lon": 42.0843299}, {"type": "node", "id": 3120749545, "lat": 36.8036037, "lon": 42.0831677}, {"type": "node", "id": 3120749546, "lat": 36.8042297, "lon": 42.083353}, {"type": "node", "id": 3120749547, "lat": 36.8047073, "lon": 42.0821762}, {"type": "node", "id": 3120749548, "lat": 36.8047719, "lon": 42.0815233}, {"type": "node", "id": 3120749549, "lat": 36.8055205, "lon": 42.0815878}, {"type": "node", "id": 3120767795, "lat": 36.8096956, "lon": 42.1014154}, {"type": "node", "id": 3120767796, "lat": 36.8104162, "lon": 42.0987262}, {"type": "node", "id": 3120767797, "lat": 36.8110228, "lon": 42.0955745}, {"type": "node", "id": 3120767798, "lat": 36.8114294, "lon": 42.0940189}, {"type": "node", "id": 3939706216, "lat": 36.8114542, "lon": 42.0597891}, {"type": "node", "id": 3969110750, "lat": 36.7995922, "lon": 42.1085756}, {"type": "node", "id": 3969110751, "lat": 36.8033831, "lon": 42.1043108}, {"type": "node", "id": 4590700958, "lat": 36.898598, "lon": 42.1632021, "tags": {"fixme": "name", "place": "village"}}, {"type": "node", "id": 4597901191, "lat": 36.8615148, "lon": 42.0013868, "tags": {"fixme": "name", "place": "village"}}, {"type": "node", "id": 4646085483, "lat": 36.7218491, "lon": 41.9785663, "tags": {"fixme": "name", "place": "village"}}, {"type": "node", "id": 4716336682, "lat": 36.8333996, "lon": 41.9939712, "tags": {"fixme": "name", "place": "village"}}, {"type": "node", "id": 4746838330, "lat": 36.7225986, "lon": 41.917442, "tags": {"fixme": "name", "place": "hamlet"}}, {"type": "node", "id": 5042775356, "lat": 36.6742921, "lon": 41.8833697, "tags": {"fixme": "name", "place": "village"}}, {"type": "node", "id": 5042775357, "lat": 36.6666978, "lon": 41.9062328, "tags": {"fixme": "name", "place": "hamlet"}}, {"type": "node", "id": 5042775413, "lat": 36.6703939, "lon": 41.901378, "tags": {"fixme": "name", "place": "hamlet"}}, {"type": "node", "id": 5042776084, "lat": 36.6601226, "lon": 41.8898231, "tags": {"fixme": "name", "place": "village"}}, {"type": "node", "id": 5141928260, "lat": 36.761218, "lon": 41.8586957, "tags": {"fixme": "name", "place": "hamlet"}}, {"type": "node", "id": 5141931348, "lat": 36.7685588, "lon": 41.8526674, "tags": {"fixme": "name", "place": "village"}}, {"type": "node", "id": 5141942443, "lat": 36.7989729, "lon": 41.8614317, "tags": {"FIXME": "name", "place": "village"}}, {"type": "node", "id": 5141943047, "lat": 36.7858528, "lon": 41.8639456, "tags": {"FIXME": "name", "place": "hamlet"}}, {"type": "node", "id": 5143066693, "lat": 36.7662202, "lon": 41.8589401, "tags": {"fixme": "name", "place": "hamlet"}}, {"type": "node", "id": 5143066694, "lat": 36.7799017, "lon": 41.8658709, "tags": {"fixme": "name", "place": "village"}}, {"type": "node", "id": 5143066695, "lat": 36.7713768, "lon": 41.860764, "tags": {"fixme": "name", "place": "village"}}, {"type": "node", "id": 5144359433, "lat": 36.6737326, "lon": 41.9180689, "tags": {"fixme": "name", "place": "village"}}, {"type": "node", "id": 5144359672, "lat": 36.6936891, "lon": 41.8569174, "tags": {"fixme": "name", "place": "village"}}, {"type": "node", "id": 5144359683, "lat": 36.6739513, "lon": 41.8681408, "tags": {"fixme": "name", "place": "hamlet"}}, {"type": "node", "id": 5144420419, "lat": 36.7370413, "lon": 41.8966074, "tags": {"fixme": "name", "place": "village"}}, {"type": "node", "id": 5147407234, "lat": 36.7224607, "lon": 41.967988, "tags": {"fixme": "name", "place": "hamlet"}}, {"type": "node", "id": 5147407271, "lat": 36.6985328, "lon": 41.893959, "tags": {"fixme": "name", "place": "hamlet"}}, {"type": "node", "id": 5479414380, "lat": 36.7528857, "lon": 41.8567844, "tags": {"fixme": "name", "place": "hamlet"}}, {"type": "node", "id": 5480292775, "lat": 36.6339714, "lon": 41.8231165, "tags": {"fixme": "name", "place": "village"}}, {"type": "node", "id": 5480293173, "lat": 36.694038, "lon": 41.8151611, "tags": {"place": "hamlet"}}, {"type": "node", "id": 5552468216, "lat": 36.6532887, "lon": 41.8401754, "tags": {"fixme": "name", "place": "village"}}, {"type": "node", "id": 5552505194, "lat": 36.6470094, "lon": 41.8501317, "tags": {"fixme": "name", "place": "village"}}, {"type": "node", "id": 5718834433, "lat": 36.5373295, "lon": 42.0406436, "tags": {"fixme": "name", "place": "village"}}, {"type": "node", "id": 9935403393, "lat": 36.8084212, "lon": 42.0993907, "tags": {"name": "\u0631\u0628\u064a\u0639\u0629", "place": "town"}}, {"type": "node", "id": 10996115047, "lat": 36.7985937, "lon": 42.0932888}, {"type": "node", "id": 10996115055, "lat": 36.7959694, "lon": 42.1025819}, {"type": "way", "id": 229260517, "nodes": [3008412075, 3008412076, 3008411938, 2378814272, 2378814291, 2378814293, 2378814287, 2378814278, 2378814262, 3008412075], "tags": {"landuse": "residential", "place": "village"}}, {"type": "way", "id": 242661792, "nodes": [2501207227, 2501207228, 2501207229, 2501207230, 2501207231, 2501207232, 2501207233, 2501207234, 2501207235, 2501207236, 2501207237, 2501207238, 2501207239, 2501207240, 2501207241, 2501207242, 2501207243, 2501207244, 2501207245, 2501207246, 2501207247, 2501207248, 2501207249, 2501207250, 2501207251, 2501207252, 2501207253, 2501207254, 2501207255, 2501207256, 2501207257, 2501207258, 2501207259, 2501207260, 2501207261, 2501207262, 2501207263, 2501207265, 2501207267, 2501207269, 2501207271, 2501207272, 2501207273, 3939706216, 2501207274, 2501207227], "tags": {"landuse": "residential", "place": "town"}}, {"type": "way", "id": 293058065, "nodes": [2966122700, 2966122698, 2966122701, 2966122704, 2966122709, 2966122710, 2966122722, 2966122723, 2966122715, 2966122716, 2966122713, 2966122703, 2966122700], "tags": {"place": "town"}}, {"type": "way", "id": 293058067, "nodes": [2966122693, 2966122692, 2966122691, 2966122696, 2966122697, 2966122694, 2966122695, 2966122699, 2966122705, 2966122706, 2966122707, 2966122708, 2966122711, 2966122712, 2966122702, 2966122693], "tags": {"landuse": "residential", "name": "\u0627\u0644\u0642\u0627\u062f\u0633\u064a\u0629", "name:ar": "\u0627\u0644\u0642\u0627\u062f\u0633\u064a\u0629", "place": "town"}}, {"type": "way", "id": 293730008, "nodes": [2973207081, 2983234967, 3120767798, 3120767797, 3120767796, 3120767795, 2973207078, 3969110751, 3969110750, 2973207246, 10996115055, 2973207250, 10996115047, 3120749541, 3120749542, 3120749543, 3120749544, 3120749545, 3120749546, 3120749547, 3120749548, 3120749549, 2973207259, 2973207079, 2973207080, 2973207081], "tags": {"capital": "7", "int_name": "Rabia, \u0631\u0628\u064a\u0639\u0629", "name": "\u0631\u0628\u064a\u0639\u0629", "name:ar": "\u0631\u0628\u064a\u0639\u0629", "name:en": "Rabia", "place": "town"}}]}