{"version": 0.6, "generator": "Overpass API 0.7.61.5 4133829e", "osm3s": {"timestamp_osm_base": "2024-03-05T14:34:07Z", "copyright": "The data included in this document is from www.openstreetmap.org. The data is made available under ODbL."}, "elements": [{"type": "node", "id": 1973511931, "lat": 55.8151085, "lon": 12.4330573, "tags": {"amenity": "ferry_terminal", "cargo": "passengers", "ferry": "yes", "name": "Birker\u00f8d", "operator": "B\u00e5dfarten", "public_transport": "station", "source": "survey"}}, {"type": "node", "id": 2195594641, "lat": 55.7719519, "lon": 12.4505435, "tags": {"amenity": "ferry_terminal", "cargo": "passengers", "name": "Aldershvile Slotspavilion", "operator": "B\u00e5dfarten"}}, {"type": "node", "id": 2278925187, "lat": 55.8089216, "lon": 12.4415498, "tags": {"amenity": "ferry_terminal", "cargo": "passengers", "ferry": "yes", "name": "J\u00e6gerhuset", "operator": "B\u00e5dfarten", "public_transport": "station", "source": "survey"}}, {"type": "node", "id": 2300044860, "lat": 55.7665781, "lon": 12.459389, "tags": {"amenity": "ferry_terminal", "cargo": "passengers", "ferry": "yes", "name": "Bagsv\u00e6rdvej", "public_transport": "station"}}, {"type": "node", "id": 2339130449, "lat": 55.8100405, "lon": 12.4682462, "tags": {"amenity": "ferry_terminal", "cargo": "passengers", "ferry": "yes", "name": "Holte Havn", "operator": "B\u00e5dfarten", "public_transport": "station", "source": "Survey"}}, {"type": "node", "id": 2339162150, "lat": 55.7731599, "lon": 12.4424155, "tags": {"amenity": "ferry_terminal", "cargo": "passengers", "name": "Riggata", "operator": "B\u00e5dfarten"}}, {"type": "node", "id": 2378986485, "lat": 55.7746133, "lon": 12.4566575, "tags": {"amenity": "ferry_terminal", "cargo": "passengers", "name": "Sophienholm", "operator": "B\u00e5dfarten"}}, {"type": "node", "id": 2890575596, "lat": 55.7806038, "lon": 12.4469807, "tags": {"amenity": "ferry_terminal", "cargo": "passengers", "name": "Frederiksdal Lyngbysiden", "operator": "B\u00e5dfarten."}}, {"type": "node", "id": 2890576017, "lat": 55.7814714, "lon": 12.4457931, "tags": {"amenity": "ferry_terminal", "cargo": "passengers", "name": "Frederiksdal Fures\u00f8siden", "operator": "B\u00e5dfarten"}}, {"type": "node", "id": 2890576043, "lat": 55.8081675, "lon": 12.4676394, "tags": {"amenity": "ferry_terminal", "cargo": "passengers", "ferry": "yes", "name": "Holte Station", "operator": "B\u00e5dfarten", "public_transport": "station", "source": "survey"}}, {"type": "node", "id": 2972389530, "lat": 55.7751189, "lon": 12.4700294, "tags": {"amenity": "ferry_terminal", "cargo": "passengers", "name": "Nybro", "operator": "B\u00e5dfarten"}}, {"type": "node", "id": 4271077698, "lat": 55.9301511, "lon": 12.3025326, "tags": {"amenity": "ferry_terminal", "check_date": "2022-09-10", "name": "Den lille f\u00e6rge", "operator": "Pavillonforeningen"}}, {"type": "node", "id": 4669914725, "lat": 55.784795, "lon": 12.4090266, "tags": {"amenity": "ferry_terminal", "cargo": "passengers", "ferry": "yes", "name": "Kolle Kolle", "operator": "B\u00e5dfarten", "public_transport": "station", "source": "survey"}}, {"type": "node", "id": 5163379132, "lat": 55.8033845, "lon": 12.387554, "tags": {"amenity": "ferry_terminal", "cargo": "passengers", "ferry": "yes", "name": "Fures\u00f8bad", "operator": "B\u00e5dfarten", "public_transport": "station", "source": "survey"}}, {"type": "node", "id": 8505569906, "lat": 55.9367821, "lon": 12.3021022, "tags": {"amenity": "ferry_terminal", "name": "Den lille f\u00e6rge"}}, {"type": "node", "id": 8509464987, "lat": 55.9327515, "lon": 12.2995896, "tags": {"amenity": "ferry_terminal"}}]}