{"version": 0.6, "generator": "Overpass API 0.7.61.5 4133829e", "osm3s": {"timestamp_osm_base": "2024-03-06T11:15:40Z", "copyright": "The data included in this document is from www.openstreetmap.org. The data is made available under ODbL."}, "elements": [{"type": "node", "id": 1196304483, "lat": 31.2793335, "lon": 46.5423151}, {"type": "node", "id": 1196304487, "lat": 31.2812867, "lon": 46.5355279}, {"type": "node", "id": 1196304495, "lat": 31.2813701, "lon": 46.53381}, {"type": "node", "id": 1196304575, "lat": 31.278998, "lon": 46.5478864}, {"type": "node", "id": 1196304965, "lat": 31.2717989, "lon": 46.5710378}, {"type": "node", "id": 2318746281, "lat": 31.1866786, "lon": 46.6036273}, {"type": "node", "id": 2318746283, "lat": 31.1887609, "lon": 46.6050624}, {"type": "node", "id": 2318746287, "lat": 31.191274, "lon": 46.6072721}, {"type": "node", "id": 2318746289, "lat": 31.1927732, "lon": 46.6088468}, {"type": "node", "id": 2318746291, "lat": 31.1937509, "lon": 46.6100236}, {"type": "node", "id": 2318746298, "lat": 31.1946562, "lon": 46.6112512}, {"type": "node", "id": 2318746304, "lat": 31.1954999, "lon": 46.612483}, {"type": "node", "id": 2318746308, "lat": 31.1961987, "lon": 46.6136641}, {"type": "node", "id": 2318746309, "lat": 31.1971655, "lon": 46.6153954}, {"type": "node", "id": 2318746311, "lat": 31.1981504, "lon": 46.6173681}, {"type": "node", "id": 2318746313, "lat": 31.19953, "lon": 46.6200561}, {"type": "node", "id": 2318746315, "lat": 31.2010761, "lon": 46.6230362}, {"type": "node", "id": 2318746317, "lat": 31.2025932, "lon": 46.6259952}, {"type": "node", "id": 2318746319, "lat": 31.2034296, "lon": 46.6274683}, {"type": "node", "id": 2318746321, "lat": 31.2042913, "lon": 46.6288229}, {"type": "node", "id": 2318746323, "lat": 31.2056455, "lon": 46.6307998}, {"type": "node", "id": 2318746327, "lat": 31.207742, "lon": 46.6334055}, {"type": "node", "id": 2318746329, "lat": 31.2096237, "lon": 46.6354531}, {"type": "node", "id": 2482450163, "lat": 31.2854833, "lon": 46.1761957, "tags": {"int_name": "Khayr All\u0101h Sul\u0163\u0101n, Khayr Allah Sultan", "is_in": "Iraq , \u062c\u0645\u0647\u0648\u0631\u064a\u0629 \u0627\u0644\u0639\u0631\u0627\u0642", "name": "\u062e\u064a\u0631 \u0627\u0644\u0644\u0647 \u0633\u0644\u0637\u0627\u0646", "name:ar": "\u062e\u064a\u0631 \u0627\u0644\u0644\u0647 \u0633\u0644\u0637\u0627\u0646", "name:de": "Khayr Allah Sultan", "name:en": "Khayr Allah Sultan", "name:fr": "Khayr Allah Sultan", "place": "village"}}, {"type": "node", "id": 2482647313, "lat": 31.591678, "lon": 46.116586, "tags": {"alt_name": "\u0622\u0644 \u0633\u0647\u064a\u0644", "int_name": "\u0100l Suhayl, \u0622\u0644 \u0633\u0647\u064a\u0644, Al Suhayl, \u0622\u0644 \u0633\u0647\u064a\u0644", "is_in": "Iraq , \u062c\u0645\u0647\u0648\u0631\u064a\u0629 \u0627\u0644\u0639\u0631\u0627\u0642", "name": "\u0622\u0644 \u0633\u0647\u064a\u0644", "name:ar": "\u0622\u0644 \u0633\u0647\u064a\u0644 \u0643\u0631\u0627\u063a\u0648\u0644", "name:ar1": "\u0622\u0644 \u0633\u0647\u064a\u0644", "name:de": "Al Suhayl", "name:en": "Al Suhayl qarikol", "name:fr": "Al Suhayl", "place": "village"}}, {"type": "node", "id": 2482664111, "lat": 31.4885813, "lon": 46.1544496, "tags": {"alt_name": "\u0642\u0631\u064a\u0629 \u0622\u0644 \u0628\u0648 \u0647\u0644\u0627\u0644\u0647", "int_name": "\u0642\u0631\u064a\u0629 \u0627\u0644\u0628\u0648 \u0647\u0644\u0627\u0644\u0647, \u0642\u0631\u064a\u0629 \u0627\u0644\u0628\u0648 \u0647\u0644\u0627\u0644\u0647", "name": "\u0642\u0631\u064a\u0629 \u0622\u0644 \u0628\u0648 \u0647\u0644\u0627\u0644\u0647", "name:ar": "\u0642\u0631\u064a\u0629 \u0622\u0644 \u0628\u0648 \u0647\u0644\u0627\u0644\u0647", "name:ar1": "\u0642\u0631\u064a\u0629 \u0622\u0644 \u0628\u0648 \u0647\u0644\u0627\u0644\u0647", "name:de": "\u0642\u0631\u064a\u0629 \u0627\u0644\u0628\u0648 \u0647\u0644\u0627\u0644\u0647", "name:fr": "\u0642\u0631\u064a\u0629 \u0627\u0644\u0628\u0648 \u0647\u0644\u0627\u0644\u0647", "place": "village"}}, {"type": "node", "id": 2482664178, "lat": 31.492985, "lon": 46.134105, "tags": {"alt_name": "\u0639\u0628\u062f \u0627\u0644\u0648\u0627\u062d\u062f \u0623\u062d\u0633\u064a\u0646", "int_name": "Abd al W\u0101\u1e29id A\u1e29sayn, \u0639\u0628\u062f \u0627\u0644\u0648\u0627\u062d\u062f \u0627\u062d\u0633\u064a\u0646, Abd al Wahid Ahsayn, \u0639\u0628\u062f \u0627\u0644\u0648\u0627\u062d\u062f \u0627\u062d\u0633\u064a\u0646", "is_in": "Iraq , \u062c\u0645\u0647\u0648\u0631\u064a\u0629 \u0627\u0644\u0639\u0631\u0627\u0642", "name": "\u0639\u0628\u062f \u0627\u0644\u0648\u0627\u062d\u062f \u0623\u062d\u0633\u064a\u0646", "name:ar": "\u0633\u064a\u062f \u0639\u0628\u062f \u0627\u0644\u0648\u0627\u062d\u062f", "name:ar1": "\u0639\u0628\u062f \u0627\u0644\u0648\u0627\u062d\u062f \u0623\u062d\u0633\u064a\u0646", "name:de": "Abd al Wahid Ahsayn", "name:en": "Mr. Abdel Wahed", "name:fr": "Abd al Wahid Ahsayn", "name:ku": "Mr. Abdel Wahed", "place": "village"}}, {"type": "node", "id": 2482664182, "lat": 31.508183, "lon": 46.151808, "tags": {"alt_name": "\u0628\u0627\u062d\u062b \u0627\u0644\u062d\u0633\u0646", "int_name": "B\u0101\u1e29ith al \u1e28asan, \u0628\u0627\u062d\u062b \u0627\u0644\u062d\u0633\u0646, Bahith al Hasan, \u0628\u0627\u062d\u062b \u0627\u0644\u062d\u0633\u0646", "is_in": "Iraq , \u062c\u0645\u0647\u0648\u0631\u064a\u0629 \u0627\u0644\u0639\u0631\u0627\u0642", "name": "\u0628\u0627\u062d\u062b \u0627\u0644\u062d\u0633\u0646", "name:ar": "\u0642\u0631\u064a\u0629 \u0633\u0627\u062c\u062a \u0627\u0644\u062d\u0633\u0646", "name:ar1": "\u0628\u0627\u062d\u062b \u0627\u0644\u062d\u0633\u0646", "name:de": "Bahith al Hasan", "name:en": "Bahith al Hasan", "name:fr": "Bahith al Hasan", "place": "village"}}, {"type": "node", "id": 2482665099, "lat": 31.5391134, "lon": 46.1209618, "tags": {"alt_name": "An Na\u015fr, Nasr, \u0627\u0644\u0646\u0635\u0631, An Nasr, Nasr, \u0627\u0644\u0646\u0635\u0631", "capital": "7", "int_name": "An Nasr - \u0627\u0644\u0646\u0635\u0631", "is_in": "Iraq , \u062c\u0645\u0647\u0648\u0631\u064a\u0629 \u0627\u0644\u0639\u0631\u0627\u0642", "name": "\u0627\u0644\u0646\u0635\u0631", "name:ar": "\u0627\u0644\u0646\u0635\u0631", "name:de": "An Nasr", "name:en": "An Nasr", "name:fr": "An Nasr", "name:ru": "\u042d\u043d-\u041d\u0430\u0441\u0440", "place": "town"}}, {"type": "node", "id": 2482665106, "lat": 31.545292, "lon": 46.113244, "tags": {"alt_name": "\u0633\u0648\u064a\u062c \u063a\u0627\u0632\u064a", "int_name": "Suwayj Gh\u0101z\u012b, \u0633\u0648\u064a\u062c \u063a\u0627\u0632\u064a, Suwayj Ghazi, \u0633\u0648\u064a\u062c \u063a\u0627\u0632\u064a", "is_in": "Iraq , \u062c\u0645\u0647\u0648\u0631\u064a\u0629 \u0627\u0644\u0639\u0631\u0627\u0642", "name": "\u0633\u0648\u064a\u062c \u063a\u0627\u0632\u064a", "name:ar": "\u0633\u0648\u064a\u062c \u063a\u0627\u0632\u064a", "name:ar1": "\u0633\u0648\u064a\u062c \u063a\u0627\u0632\u064a", "name:de": "Suwayj Ghazi", "name:en": "Suwayj Ghazi", "name:fr": "Suwayj Ghazi", "name:ru": "\u0421\u0443\u0432\u0430\u0439\u0434\u0436-\u0413\u0430\u0437\u0438", "place": "village"}}, {"type": "node", "id": 2486588303, "lat": 31.492233, "lon": 46.376898, "tags": {"alt_name": "Ad Daww\u0101yah, Al Dawaya, Al Diwaya, Dawaya, Dawwaya, Duwaya, \u0627\u0644\u062f\u0648\u0651\u0627\u064a\u0629, Ad Dawwayah, Al Dawaya, Al Diwaya, Dawaya, Dawwaya, Duwaya, \u0627\u0644\u062f\u0648\u0627\u064a\u0629", "capital": "6", "int_name": "Ad Dawwayah - \u0627\u0644\u062f\u0648\u0651\u0627\u064a\u0629", "is_in": "Iraq , \u062c\u0645\u0647\u0648\u0631\u064a\u0629 \u0627\u0644\u0639\u0631\u0627\u0642", "name": "\u0627\u0644\u062f\u0648\u0651\u0627\u064a\u0629", "name:ar": "\u0627\u0644\u062f\u0648\u0651\u0627\u064a\u0629", "name:de": "Ad Dawwayah", "name:en": "Ad Dawwayah", "name:fr": "Ad Dawwayah", "place": "town", "wikidata": "Q23048682"}}, {"type": "node", "id": 2486588304, "lat": 31.483333, "lon": 46.383333, "tags": {"alt_name": "\u0627\u0644\u0645\u0639\u064a\u0648\u0641 \u062c\u0645\u0627\u0639\u0629", "int_name": "Al Mayuf Jam\u0101a, Al May\u016bf Jam\u0101ah, Jam\u0101at al May\u016bf, Al Mayuf Jamaa, Al Mayuf Jamaah, Jamaat al Mayuf", "is_in": "Iraq , \u062c\u0645\u0647\u0648\u0631\u064a\u0629 \u0627\u0644\u0639\u0631\u0627\u0642", "name": "\u0627\u0644\u0645\u0639\u064a\u0648\u0641 \u062c\u0645\u0627\u0639\u0629", "name:ar": "\u0639\u0634\u064a\u0631\u0629 \u0627\u0644 \u0645\u0639\u064a\u0648\u0641", "name:ar1": "\u0627\u0644\u0645\u0639\u064a\u0648\u0641 \u062c\u0645\u0627\u0639\u0629", "name:de": "Al Mayuf Jamaa", "name:en": "Al Mayuf Jamaa", "name:fr": "Al Mayuf Jamaa", "place": "village"}}, {"type": "node", "id": 2486602562, "lat": 31.304355, "lon": 46.30847, "tags": {"alt_name": "\u0639\u064a\u0633\u0649 \u0627\u0644\u062d\u0648\u0627\u0633", "int_name": "\u012as\u00e1 al \u1e28aww\u0101s, Isa al Hawwas", "is_in": "Iraq , \u062c\u0645\u0647\u0648\u0631\u064a\u0629 \u0627\u0644\u0639\u0631\u0627\u0642", "name": "\u0639\u064a\u0633\u0649 \u0627\u0644\u062d\u0648\u0627\u0633", "name:ar": "\u0627\u0644\u0634\u064a\u062e \u062b\u0627\u0645\u0631 \u0627\u0644\u062d\u0648\u0627\u0633", "name:ar1": "\u0639\u064a\u0633\u0649 \u0627\u0644\u062d\u0648\u0627\u0633", "name:de": "Isa al Hawwas", "name:en": "Isa al Hawwas", "name:fr": "Isa al Hawwas", "place": "village"}}, {"type": "node", "id": 2486609197, "lat": 31.357534, "lon": 46.243213, "tags": {"alt_name": "\u0642\u0631\u064a\u0629 \u0622\u0644 \u0628\u0648 \u0633\u0639\u062f", "int_name": "Qaryat \u0100lb\u016b Sad, \u0642\u0631\u064a\u0629 \u0627\u0644\u0628\u0648 \u0633\u0639\u062f, Qaryat Albu Sad, \u0642\u0631\u064a\u0629 \u0627\u0644\u0628\u0648 \u0633\u0639\u062f", "name": "\u0642\u0631\u064a\u0629 \u0622\u0644 \u0628\u0648 \u0633\u0639\u062f", "name:ar": "308", "name:ar1": "\u0642\u0631\u064a\u0629 \u0622\u0644 \u0628\u0648 \u0633\u0639\u062f", "name:de": "Qaryat Albu Sad", "name:en": "308", "name:fr": "Qaryat Albu Sad", "name:ku": "308", "place": "village"}}, {"type": "node", "id": 2486611381, "lat": 31.2991032, "lon": 46.2418388, "tags": {"alt_name": "Al Gharr\u0101f, Gharraf, \u0627\u0644\u063a\u0631\u0627\u0641, Al Gharraf, Gharraf, \u0627\u0644\u063a\u0631\u0627\u0641", "capital": "7", "int_name": "Al Gharraf - \u0627\u0644\u063a\u0631\u0627\u0641", "is_in": "Iraq , \u062c\u0645\u0647\u0648\u0631\u064a\u0629 \u0627\u0644\u0639\u0631\u0627\u0642", "name": "\u0627\u0644\u063a\u0631\u0627\u0641", "name:ar": "\u0627\u0644\u063a\u0631\u0627\u0641", "name:de": "Al Gharraf", "name:en": "Al Gharraf", "name:fr": "Al Gharraf", "place": "town", "wikidata": "Q4445103"}}, {"type": "node", "id": 2486611910, "lat": 31.277629, "lon": 46.21469, "tags": {"alt_name": "\u0639\u0643\u0627\u0644 \u0627\u0644\u062b\u0644\u0648\u0643", "int_name": "Ag\u0101l ath Thalwuk, \u0639\u06af\u0627\u0644 \u0627\u0644\u062b\u0644\u0648\u0643, Agal ath Thalwuk, \u0639\u06af\u0627\u0644 \u0627\u0644\u062b\u0644\u0648\u0643", "is_in": "Iraq , \u062c\u0645\u0647\u0648\u0631\u064a\u0629 \u0627\u0644\u0639\u0631\u0627\u0642", "name": "\u0639\u0643\u0627\u0644 \u0627\u0644\u062b\u0644\u0648\u0643", "name:ar": "\u0627\u0644\u0634\u064a\u062e \u0639\u0643\u0627\u0644 \u0627\u0644\u0634\u0644\u0648\u0643", "name:ar1": "\u0639\u0643\u0627\u0644 \u0627\u0644\u062b\u0644\u0648\u0643", "name:de": "Agal ashalwuk", "name:en": "Agal alshalok", "name:fr": "Agal ashalwuk", "name:ku": "Agal alshalok", "place": "village"}}, {"type": "node", "id": 2486613115, "lat": 31.312877, "lon": 46.181893, "tags": {"alt_name": "\u0637\u0639\u0645\u0629 \u0622\u0644 \u0646\u0648\u0645\u0627\u0646", "int_name": "\u0162umah \u0100l N\u016bm\u0101n, \u0637\u0639\u0645\u0629 \u0622\u0644 \u0646\u0648\u0645\u0627\u0646, Tumah Al Numan, \u0637\u0639\u0645\u0629 \u0622\u0644 \u0646\u0648\u0645\u0627\u0646", "is_in": "Iraq , \u062c\u0645\u0647\u0648\u0631\u064a\u0629 \u0627\u0644\u0639\u0631\u0627\u0642", "name": "\u0637\u0639\u0645\u0629 \u0622\u0644 \u0646\u0648\u0645\u0627\u0646", "name:ar": "\u0642\u0631\u064a\u0629 \u0622\u0644 \u0646\u0648\u0645\u0627\u0646", "name:ar1": "\u0637\u0639\u0645\u0629 \u0622\u0644 \u0646\u0648\u0645\u0627\u0646", "name:de": "Tumah Al Numan", "name:en": "Al Numan", "name:fr": "Tumah Al Numan", "place": "village"}}, {"type": "node", "id": 2486615790, "lat": 31.3517638, "lon": 46.1504327, "tags": {"alt_name": "\u0623\u0644 \u0635\u064a\u0627\u062d", "int_name": "\u0623\u0644 \u0635\u064a\u0627\u062d, \u0623\u0644 \u0635\u064a\u0627\u062d", "is_in": "Iraq , \u062c\u0645\u0647\u0648\u0631\u064a\u0629 \u0627\u0644\u0639\u0631\u0627\u0642", "name": "\u0623\u0644 \u0635\u064a\u0627\u062d", "name:ar": "\u0623\u0644 \u0635\u064a\u0627\u062d", "name:ar1": "\u0623\u0644 \u0635\u064a\u0627\u062d", "place": "village"}}, {"type": "node", "id": 2486616784, "lat": 31.3169766, "lon": 46.1498852, "tags": {"int_name": "Saiyid Jabb\u0101r, Sayyid Jabb\u0101r, Saiyid Jabbar, Sayyid Jabbar", "is_in": "Iraq , \u062c\u0645\u0647\u0648\u0631\u064a\u0629 \u0627\u0644\u0639\u0631\u0627\u0642", "name": "\u0633\u064a\u062f \u062c\u0627\u0628\u0631", "name:ar": "\u0633\u064a\u062f \u062c\u0627\u0628\u0631", "name:de": "Saiyid Jabbar", "name:en": "Sayyid Jabir", "name:fr": "Saiyid Jabbar", "place": "village"}}, {"type": "node", "id": 2486616819, "lat": 31.3196582, "lon": 46.1448496, "tags": {"is_in": "Iraq , \u062c\u0645\u0647\u0648\u0631\u064a\u0629 \u0627\u0644\u0639\u0631\u0627\u0642", "name": "\u0639\u0643\u0644\u0629", "name:ar": "\u0639\u0643\u0644\u0629", "name:de": "Uklah", "name:en": "Uklah", "name:fr": "Uklah", "place": "village"}}, {"type": "node", "id": 2486620881, "lat": 31.357899, "lon": 46.339869, "tags": {"alt_name": "\u0642\u0631\u064a\u0629 \u0627\u0644\u0633\u0644\u062a\u0627\u0646", "int_name": "Qaryat as Sult\u0101n, \u0642\u0631\u064a\u0629 \u0627\u0644\u0633\u0644\u062a\u0627\u0646, Qaryat as Sultan, \u0642\u0631\u064a\u0629 \u0627\u0644\u0633\u0644\u062a\u0627\u0646", "is_in": "Iraq , \u062c\u0645\u0647\u0648\u0631\u064a\u0629 \u0627\u0644\u0639\u0631\u0627\u0642", "name": "\u0642\u0631\u064a\u0629 \u0627\u0644\u0633\u0644\u062a\u0627\u0646", "name:ar": "\u0642\u0631\u064a\u0629 \u0627\u0644\u0633\u0644\u062a\u0627\u0646", "name:ar1": "\u0642\u0631\u064a\u0629 \u0627\u0644\u0633\u0644\u062a\u0627\u0646", "name:de": "Qaryat as Sultan", "name:en": "Qaryat as Sultan", "name:fr": "Qaryat as Sultan", "place": "village"}}, {"type": "node", "id": 2486640962, "lat": 31.472504, "lon": 46.106551, "tags": {"alt_name": "\u0639\u0628\u062f \u0627\u0644\u0635\u0627\u062d\u0628 \u0647\u0644\u064a\u0644", "int_name": "Abd a\u015f \u015e\u0101\u1e29ib Hulayl, Abd a\u015f \u015e\u0101\u1e29ib Hulayyil, Saiyid Hulail, Saiyid Hulaiyil, Sayyid \u1e28ulayl, Sayyid Hulayyil, \u0639\u0628\u062f \u0627\u0644\u0635\u0627\u062d\u0628 \u0647\u0644\u064a\u0644, Abd as Sahib Hulayl, Abd as Sahib Hulayyil, Saiyid Hulail, Saiyid Hulaiyil, Sayyid Hulayl, Sayyid Hulayyil, \u0639\u0628\u062f \u0627\u0644\u0635\u0627\u062d\u0628 \u0647\u0644\u064a\u0644", "is_in": "Iraq , \u062c\u0645\u0647\u0648\u0631\u064a\u0629 \u0627\u0644\u0639\u0631\u0627\u0642", "name": "\u0639\u0628\u062f \u0627\u0644\u0635\u0627\u062d\u0628 \u0647\u0644\u064a\u0644", "name:ar": "\u0642\u0631\u064a\u0629 \u0633\u064a\u062f \u0647\u0644\u064a\u0644", "name:ar1": "\u0639\u0628\u062f \u0627\u0644\u0635\u0627\u062d\u0628 \u0647\u0644\u064a\u0644", "name:de": "Abd as Sahib Hulayl", "name:en": "Sayed Hillel Village", "name:fr": "Abd as Sahib Hulayl", "name:ku": "Sayed Hillel Village", "place": "village"}}, {"type": "node", "id": 2486641007, "lat": 31.42977, "lon": 46.263554, "tags": {"alt_name": "\u0639\u0631\u0628 \u0643\u0644\u0627\u062e\u064a", "int_name": "Arab Kil\u0101kh\u012b, \u0639\u0631\u0628 \u0643\u0644\u0627\u062e\u064a, Arab Kilakhi, \u0639\u0631\u0628 \u0643\u0644\u0627\u062e\u064a", "is_in": "Iraq , \u062c\u0645\u0647\u0648\u0631\u064a\u0629 \u0627\u0644\u0639\u0631\u0627\u0642", "name": "\u0639\u0631\u0628 \u0643\u0644\u0627\u062e\u064a", "name:ar": "\u0639\u0631\u0628 \u0643\u0644\u0627\u062e\u064a", "name:ar1": "\u0639\u0631\u0628 \u0643\u0644\u0627\u062e\u064a", "name:de": "Arab Kilakhi", "name:en": "Arab Kilakhi", "name:fr": "Arab Kilakhi", "place": "village"}}, {"type": "node", "id": 2486642187, "lat": 31.398873, "lon": 46.24448, "tags": {"alt_name": "\u0627\u0644\u0639\u0634\u062f\u0627\u0631\u064a\u0629", "int_name": "Al Ushd\u0101r\u012byah, \u0627\u0644\u0639\u0634\u062f\u0627\u0631\u064a\u0629, Al Ushdariyah, \u0627\u0644\u0639\u0634\u062f\u0627\u0631\u064a\u0629", "name": "\u0627\u0644\u0639\u0634\u062f\u0627\u0631\u064a\u0629", "name:ar": "\u0627\u0644\u0639\u0634\u062f\u0627\u0631\u064a\u0629", "name:ar1": "\u0627\u0644\u0639\u0634\u062f\u0627\u0631\u064a\u0629", "name:de": "Al Ushdariyah", "name:en": "Al Ushdariyah", "name:fr": "Al Ushdariyah", "place": "village"}}, {"type": "node", "id": 2486642203, "lat": 31.4098904, "lon": 46.1755843, "tags": {"alt_name": "Ash Sha\u0163rah, Shatra, Shatrat al Muntafiq, Shatreh, Shatret el Muntefiq, Shattra, Shattrah el Muntifik, \u0627\u0644\u0634\u0637\u0631\u0629, Ash Shatrah, Shatra, Shatrat al Muntafiq, Shatreh, Shatret el Muntefiq, Shattra, Shattrah el Muntifik, \u0627\u0644\u0634\u0637\u0631\u0629", "capital": "6", "int_name": "Ash Shatrah - \u0627\u0644\u0634\u0637\u0631\u0629", "name": "\u0627\u0644\u0634\u0637\u0631\u0629", "name:ar": "\u0627\u0644\u0634\u0637\u0631\u0629", "name:de": "Asch-Schatra", "name:en": "Al-Shatrah", "name:et": "Ash-Sha\u0163rah", "name:eu": "Al-Shatrah", "name:fr": "Al-Shatrah", "name:hr": "A\u0161-\u0160atra", "name:ru": "\u042d\u0448-\u0428\u0430\u0442\u0440\u0430", "name:tt": "\u04d8\u0448-\u0428\u04d9\u0442\u0440\u04d9", "place": "city", "population": "254000", "population:date": "2014", "source:population": "https://en.wikipedia.org/wiki/Al-Shatrah", "wikidata": "Q2669841", "wikipedia": "en:Ash Shatrah"}}, {"type": "node", "id": 2486645799, "lat": 31.300454, "lon": 46.5940166, "tags": {"alt_name": "\u0627\u0644\u0643\u0631\u062f\u064a;\u0622\u0644 \u0643\u0631\u062f\u064a", "int_name": "\u0100l Kurd\u012b, Al Kurdi;Al Kard\u012b, Al Kirdi, Al Kardi, Al Kirdi", "is_in": "Iraq , \u062c\u0645\u0647\u0648\u0631\u064a\u0629 \u0627\u0644\u0639\u0631\u0627\u0642", "name": "\u0622\u0644 \u0643\u0631\u062f\u064a", "name:de": "Al Kardi", "name:en": "Al Kardi", "name:fr": "Al Kardi", "place": "village"}}, {"type": "node", "id": 2486648257, "lat": 31.2961897, "lon": 46.5617057}, {"type": "node", "id": 2486648263, "lat": 31.2747587, "lon": 46.5525128, "tags": {"alt_name": "\u0627\u0644\u0646\u0647\u0627\u0631", "int_name": "Al Nah\u0101r, An Nah\u0101r, An Nahr, Al Nahar, An Nahar, An Nahr", "is_in": "Iraq , \u062c\u0645\u0647\u0648\u0631\u064a\u0629 \u0627\u0644\u0639\u0631\u0627\u0642", "name": "\u0627\u0644\u0646\u0647\u0627\u0631", "name:ar": "\u0627\u0644\u0646\u0647\u0627\u0631", "name:ar1": "\u0627\u0644\u0646\u0647\u0627\u0631", "name:de": "Al Nahar", "name:en": "Al Nahar", "name:fr": "Al Nahar", "place": "village"}}, {"type": "node", "id": 2486648286, "lat": 31.2695049, "lon": 46.4205934, "tags": {"alt_name": "\u0633\u064a\u062f \u062d\u0645\u0648\u062f \u0627\u0644\u062d\u0633\u0646;\u0627\u0644\u0633\u064a\u062f \u062d\u0645\u0648\u062f \u0627\u0644\u062d\u0633\u0646;\u0633\u064a\u062f \u062d\u0645\u062f \u0627\u0644\u062d\u0633\u0646", "int_name": "As Saiyid Ham\u016bd al Hasan, As Sayyid \u1e28amm\u016bd al \u1e28asan, As Sayyid \u1e28am\u016bd al \u1e28asan, As Saiyid Hamud al Hasan, As Sayyid Hammud al Hasan, As Sayyid Hamud al Hasan", "is_in": "Iraq , \u062c\u0645\u0647\u0648\u0631\u064a\u0629 \u0627\u0644\u0639\u0631\u0627\u0642", "name": "\u0627\u0644\u0633\u064a\u062f \u062d\u0645\u0648\u062f \u0627\u0644\u062d\u0633\u0646", "name:ar": "\u0627\u0644\u0633\u064a\u062f \u062d\u0645\u0648\u062f \u0627\u0644\u062d\u0633\u0646", "name:de": "As Saiyid Hamud al Hasan", "name:en": "As Saiyid Hamud al Hasan", "name:fr": "As Saiyid Hamud al Hasan", "place": "village"}}, {"type": "node", "id": 2486648292, "lat": 31.2678037, "lon": 46.5601938, "tags": {"alt_name": "\u0627\u0644\u0633\u0631\u0643\u0627\u0644 \u062f\u062e\u064a\u0644", "int_name": "As Sark\u0101l Dakh\u012bl, \u0627\u0644\u0633\u0631\u0643\u0627\u0644 \u062f\u062e\u064a\u0644, As Sarkal Dakhil, \u0627\u0644\u0633\u0631\u0643\u0627\u0644 \u062f\u062e\u064a\u0644", "is_in": "Iraq , \u062c\u0645\u0647\u0648\u0631\u064a\u0629 \u0627\u0644\u0639\u0631\u0627\u0642", "name": "\u0646\u0647\u0627\u0631 \u0633\u064a\u062f \u0637\u0627\u0644\u0628", "name:ar": "\u0646\u0647\u0627\u0631 \u0633\u064a\u062f \u0637\u0627\u0644\u0628", "name:ar1": "\u0627\u0644\u0633\u0631\u0643\u0627\u0644 \u062f\u062e\u064a\u0644", "name:de": "Nahar Syd Talab", "name:en": "Nahar Syd Talab", "name:fr": "Nahar Syd Talab", "place": "village"}}, {"type": "node", "id": 2486651914, "lat": 31.408576, "lon": 46.313391, "tags": {"alt_name": "\u0625\u064a\u0634\u0627\u0646 \u0627\u0644\u0635\u0628\u0648\u062f", "int_name": "\u012ash\u0101n a\u015f \u015eub\u016bd, \u0627\u064a\u0634\u0627\u0646 \u0627\u0644\u0635\u0628\u0648\u062f, Ishan as Subud, \u0627\u064a\u0634\u0627\u0646 \u0627\u0644\u0635\u0628\u0648\u062f", "is_in": "Iraq , \u062c\u0645\u0647\u0648\u0631\u064a\u0629 \u0627\u0644\u0639\u0631\u0627\u0642", "name": "\u0625\u064a\u0634\u0627\u0646 \u0627\u0644\u0635\u0628\u0648\u062f", "name:ar": "\u0625\u064a\u0634\u0627\u0646 \u0627\u0644\u0635\u0628\u0648\u062f", "name:ar1": "\u0625\u064a\u0634\u0627\u0646 \u0627\u0644\u0635\u0628\u0648\u062f", "name:de": "Ishan as Subud", "name:en": "Ishan as Subud", "name:fr": "Ishan as Subud", "place": "village"}}, {"type": "node", "id": 4379031853, "lat": 31.1684305, "lon": 46.5905346}, {"type": "node", "id": 5039755057, "lat": 31.5775254, "lon": 46.4396864, "tags": {"place": "hamlet"}}, {"type": "node", "id": 5039755111, "lat": 31.5832105, "lon": 46.4552861, "tags": {"place": "hamlet"}}, {"type": "node", "id": 5039755165, "lat": 31.6202143, "lon": 46.3937187, "tags": {"place": "hamlet"}}, {"type": "node", "id": 5094244228, "lat": 31.4710781, "lon": 46.1474285, "tags": {"name": "\u0642\u0631\u064a\u0629 \u0627\u0644\u0628\u0648\u0643\u0645\u0627\u0644", "name:ar": "\u0642\u0631\u064a\u0629 \u0627\u0644\u0628\u0648\u0643\u0645\u0627\u0644", "place": "village"}}, {"type": "node", "id": 7695469563, "lat": 31.6148513, "lon": 46.1768889, "tags": {"place": "hamlet"}}, {"type": "node", "id": 7695476706, "lat": 31.6374113, "lon": 46.1605865, "tags": {"place": "village"}}, {"type": "node", "id": 7695476729, "lat": 31.5686818, "lon": 46.1980569, "tags": {"place": "village"}}, {"type": "node", "id": 7875991363, "lat": 31.1755587, "lon": 46.5972876}, {"type": "node", "id": 7875991515, "lat": 31.162982, "lon": 46.5887368}, {"type": "node", "id": 7903465416, "lat": 31.1427736, "lon": 46.5138568}, {"type": "node", "id": 7903465431, "lat": 31.1602728, "lon": 46.5903109}, {"type": "node", "id": 7903465432, "lat": 31.1575761, "lon": 46.5916614}, {"type": "node", "id": 7903465433, "lat": 31.1560735, "lon": 46.5920163}, {"type": "node", "id": 7903465434, "lat": 31.1550984, "lon": 46.5923899}, {"type": "node", "id": 7903465435, "lat": 31.1541802, "lon": 46.5927547}, {"type": "node", "id": 7903465436, "lat": 31.1537395, "lon": 46.5931624}, {"type": "node", "id": 7903465438, "lat": 31.1472755, "lon": 46.5954154}, {"type": "node", "id": 7903465439, "lat": 31.1453656, "lon": 46.5961235}, {"type": "node", "id": 7903465440, "lat": 31.1445024, "lon": 46.5957587}, {"type": "node", "id": 7903465441, "lat": 31.1429414, "lon": 46.5948575}, {"type": "node", "id": 7903465450, "lat": 31.1627625, "lon": 46.5886713}, {"type": "node", "id": 7903465451, "lat": 31.162882, "lon": 46.5886179}, {"type": "node", "id": 7903465453, "lat": 31.1416575, "lon": 46.5944389}, {"type": "node", "id": 7903465454, "lat": 31.1440415, "lon": 46.5954927}, {"type": "node", "id": 7903465665, "lat": 31.2237358, "lon": 46.5025462}, {"type": "node", "id": 7903465699, "lat": 31.2812208, "lon": 46.5310637}, {"type": "node", "id": 7903465700, "lat": 31.2797622, "lon": 46.5304542}, {"type": "node", "id": 7903465701, "lat": 31.2750744, "lon": 46.5277205}, {"type": "node", "id": 7903465706, "lat": 31.2524149, "lon": 46.5195239}, {"type": "node", "id": 7903465707, "lat": 31.2503144, "lon": 46.5185475}, {"type": "node", "id": 7903465708, "lat": 31.2491954, "lon": 46.5179574}, {"type": "node", "id": 7903465709, "lat": 31.2486818, "lon": 46.5177536}, {"type": "node", "id": 7903465710, "lat": 31.2462878, "lon": 46.5160799}, {"type": "node", "id": 7903465711, "lat": 31.2452958, "lon": 46.5155756}, {"type": "node", "id": 7903465712, "lat": 31.2388099, "lon": 46.5107297}, {"type": "node", "id": 7903465713, "lat": 31.2369019, "lon": 46.5094852}, {"type": "node", "id": 7903465714, "lat": 31.2281316, "lon": 46.5049576}, {"type": "node", "id": 7903465715, "lat": 31.2205439, "lon": 46.5012777}, {"type": "node", "id": 7903465716, "lat": 31.2163904, "lon": 46.499858}, {"type": "node", "id": 7903465717, "lat": 31.2133071, "lon": 46.4986811}, {"type": "node", "id": 7903465718, "lat": 31.2118054, "lon": 46.4981581}, {"type": "node", "id": 7903465719, "lat": 31.2110225, "lon": 46.4977471}, {"type": "node", "id": 7903465721, "lat": 31.2087059, "lon": 46.4977658}, {"type": "node", "id": 7903465722, "lat": 31.2072041, "lon": 46.4973549}, {"type": "node", "id": 7903465723, "lat": 31.202369, "lon": 46.495848}, {"type": "node", "id": 7903465724, "lat": 31.2018918, "lon": 46.4959553}, {"type": "node", "id": 7903465726, "lat": 31.2011393, "lon": 46.4967493}, {"type": "node", "id": 7903465727, "lat": 31.1990484, "lon": 46.500751}, {"type": "node", "id": 7903465728, "lat": 31.1986997, "lon": 46.5010729}, {"type": "node", "id": 7903465729, "lat": 31.1981307, "lon": 46.5010729}, {"type": "node", "id": 7903465730, "lat": 31.1877966, "lon": 46.499249}, {"type": "node", "id": 7903465731, "lat": 31.1875396, "lon": 46.4992704}, {"type": "node", "id": 7903465732, "lat": 31.1812431, "lon": 46.5049782}, {"type": "node", "id": 7903465734, "lat": 31.1797561, "lon": 46.5058579}, {"type": "node", "id": 7903465735, "lat": 31.1786179, "lon": 46.5063944}, {"type": "node", "id": 7903465736, "lat": 31.1764699, "lon": 46.5070381}, {"type": "node", "id": 7903465737, "lat": 31.1707235, "lon": 46.5077033}, {"type": "node", "id": 7903465739, "lat": 31.1668862, "lon": 46.5087547}, {"type": "node", "id": 7903465740, "lat": 31.1659315, "lon": 46.508862}, {"type": "node", "id": 7903465741, "lat": 31.1617084, "lon": 46.5056648}, {"type": "node", "id": 7903465742, "lat": 31.1600558, "lon": 46.5046992}, {"type": "node", "id": 7903465743, "lat": 31.1586971, "lon": 46.5045061}, {"type": "node", "id": 7903465744, "lat": 31.1566588, "lon": 46.5049138}, {"type": "node", "id": 7903465745, "lat": 31.1558325, "lon": 46.5051069}, {"type": "node", "id": 7903465746, "lat": 31.1477526, "lon": 46.5103426}, {"type": "node", "id": 7903465747, "lat": 31.1453101, "lon": 46.51266}, {"type": "node", "id": 7903465768, "lat": 31.1671819, "lon": 46.5086739}, {"type": "node", "id": 7903465769, "lat": 31.1672783, "lon": 46.5086475}, {"type": "node", "id": 7903465770, "lat": 31.1443163, "lon": 46.5131289}, {"type": "node", "id": 7903465771, "lat": 31.144426, "lon": 46.5130772}, {"type": "node", "id": 7913795307, "lat": 31.1706324, "lon": 46.5980652}, {"type": "node", "id": 7913795308, "lat": 31.1709542, "lon": 46.5980144}, {"type": "node", "id": 7913795309, "lat": 31.1715371, "lon": 46.5978419}, {"type": "node", "id": 7913795310, "lat": 31.1722084, "lon": 46.5978164}, {"type": "node", "id": 7913795311, "lat": 31.172881, "lon": 46.5977103}, {"type": "node", "id": 7913795312, "lat": 31.1736641, "lon": 46.5975866}, {"type": "node", "id": 7913795313, "lat": 31.1744511, "lon": 46.5974624}, {"type": "node", "id": 7913795315, "lat": 31.1763838, "lon": 46.5971905}, {"type": "node", "id": 7913795317, "lat": 31.177787, "lon": 46.5969663}, {"type": "node", "id": 7913795318, "lat": 31.1795131, "lon": 46.5968729}, {"type": "node", "id": 7913795319, "lat": 31.18044, "lon": 46.5968076}, {"type": "node", "id": 7913795320, "lat": 31.1808156, "lon": 46.5967515}, {"type": "node", "id": 7913795503, "lat": 31.1828583, "lon": 46.5951392}, {"type": "node", "id": 7913795504, "lat": 31.1825049, "lon": 46.5954342}, {"type": "node", "id": 7913795505, "lat": 31.1822757, "lon": 46.5957084}, {"type": "node", "id": 7920364946, "lat": 31.170329, "lon": 46.5914263}, {"type": "node", "id": 7920364947, "lat": 31.1701637, "lon": 46.59207}, {"type": "node", "id": 7920364948, "lat": 31.1700903, "lon": 46.5929283}, {"type": "node", "id": 7920364949, "lat": 31.1699985, "lon": 46.593851}, {"type": "node", "id": 7920364950, "lat": 31.169668, "lon": 46.594366}, {"type": "node", "id": 7920364951, "lat": 31.1692824, "lon": 46.5949453}, {"type": "node", "id": 7920364952, "lat": 31.1691172, "lon": 46.5956749}, {"type": "node", "id": 7920364953, "lat": 31.1688969, "lon": 46.5962757}, {"type": "node", "id": 7920364954, "lat": 31.1690988, "lon": 46.5969623}, {"type": "node", "id": 7920364955, "lat": 31.1697414, "lon": 46.5979709}, {"type": "node", "id": 7920364956, "lat": 31.1700352, "lon": 46.5982069}, {"type": "node", "id": 7920364957, "lat": 31.175207, "lon": 46.5973432}, {"type": "node", "id": 7920364958, "lat": 31.1841162, "lon": 46.5954389}, {"type": "node", "id": 7920364959, "lat": 31.1851075, "lon": 46.5954389}, {"type": "node", "id": 7920364960, "lat": 31.1856582, "lon": 46.595868}, {"type": "node", "id": 7920364961, "lat": 31.1862089, "lon": 46.5971769}, {"type": "node", "id": 7920364962, "lat": 31.1870166, "lon": 46.5992583}, {"type": "node", "id": 7920364963, "lat": 31.187604, "lon": 46.6003097}, {"type": "node", "id": 7920364964, "lat": 31.1879895, "lon": 46.6007174}, {"type": "node", "id": 7920364965, "lat": 31.1876958, "lon": 46.6016187}, {"type": "node", "id": 7920364966, "lat": 31.1874755, "lon": 46.6020049}, {"type": "node", "id": 7920364967, "lat": 31.1873103, "lon": 46.6028632}, {"type": "node", "id": 7920364968, "lat": 31.1901556, "lon": 46.6061677}, {"type": "node", "id": 7920364969, "lat": 31.2100147, "lon": 46.635827}, {"type": "node", "id": 7920364970, "lat": 31.2104001, "lon": 46.6348351}, {"type": "node", "id": 7920364971, "lat": 31.2106203, "lon": 46.6332473}, {"type": "node", "id": 7920364972, "lat": 31.2109874, "lon": 46.6318525}, {"type": "node", "id": 7920364973, "lat": 31.2113544, "lon": 46.629342}, {"type": "node", "id": 7920364974, "lat": 31.2121619, "lon": 46.6262521}, {"type": "node", "id": 7920364975, "lat": 31.2130061, "lon": 46.6224326}, {"type": "node", "id": 7920364976, "lat": 31.2133364, "lon": 46.6202225}, {"type": "node", "id": 7920364977, "lat": 31.2136851, "lon": 46.6191281}, {"type": "node", "id": 7920364978, "lat": 31.2139236, "lon": 46.6178836}, {"type": "node", "id": 7920364979, "lat": 31.2148228, "lon": 46.6170896}, {"type": "node", "id": 7920364980, "lat": 31.216401, "lon": 46.6153516}, {"type": "node", "id": 7920364981, "lat": 31.2175938, "lon": 46.6132487}, {"type": "node", "id": 7920364982, "lat": 31.2183279, "lon": 46.6125406}, {"type": "node", "id": 7920364983, "lat": 31.2203648, "lon": 46.610588}, {"type": "node", "id": 7920364984, "lat": 31.2225301, "lon": 46.6082491}, {"type": "node", "id": 7920364985, "lat": 31.2244751, "lon": 46.6063394}, {"type": "node", "id": 7920364986, "lat": 31.2267871, "lon": 46.6040863}, {"type": "node", "id": 7920364987, "lat": 31.2279981, "lon": 46.602713}, {"type": "node", "id": 7920364988, "lat": 31.2288789, "lon": 46.6027774}, {"type": "node", "id": 7920364989, "lat": 31.233576, "lon": 46.5986575}, {"type": "node", "id": 7920364990, "lat": 31.2346401, "lon": 46.5971769}, {"type": "node", "id": 7920364991, "lat": 31.2350805, "lon": 46.5958251}, {"type": "node", "id": 7920364992, "lat": 31.2389517, "lon": 46.5949453}, {"type": "node", "id": 7920364993, "lat": 31.2410615, "lon": 46.5931643}, {"type": "node", "id": 7920364994, "lat": 31.2428044, "lon": 46.5921558}, {"type": "node", "id": 7920364995, "lat": 31.2440335, "lon": 46.5921344}, {"type": "node", "id": 7920364996, "lat": 31.2451709, "lon": 46.5907611}, {"type": "node", "id": 7920364997, "lat": 31.2477254, "lon": 46.5896323}, {"type": "node", "id": 7920364998, "lat": 31.2487179, "lon": 46.5893147}, {"type": "node", "id": 7920364999, "lat": 31.2502031, "lon": 46.5878577}, {"type": "node", "id": 7920365000, "lat": 31.2517042, "lon": 46.586849}, {"type": "node", "id": 7920365001, "lat": 31.2515286, "lon": 46.5863446}, {"type": "node", "id": 7920365002, "lat": 31.2524707, "lon": 46.5847755}, {"type": "node", "id": 7920365003, "lat": 31.2522152, "lon": 46.5837668}, {"type": "node", "id": 7920365004, "lat": 31.2529019, "lon": 46.5823658}, {"type": "node", "id": 7920365005, "lat": 31.2538601, "lon": 46.5810395}, {"type": "node", "id": 7920365006, "lat": 31.2542753, "lon": 46.5790594}, {"type": "node", "id": 7920365007, "lat": 31.2545946, "lon": 46.5776211}, {"type": "node", "id": 7920365008, "lat": 31.2541635, "lon": 46.5764816}, {"type": "node", "id": 7920365009, "lat": 31.2521833, "lon": 46.5767618}, {"type": "node", "id": 7920365010, "lat": 31.2511293, "lon": 46.5762948}, {"type": "node", "id": 7920365011, "lat": 31.2506981, "lon": 46.5745762}, {"type": "node", "id": 7920365012, "lat": 31.2495962, "lon": 46.5744268}, {"type": "node", "id": 7920365013, "lat": 31.2484783, "lon": 46.5731752}, {"type": "node", "id": 7920365014, "lat": 31.2468653, "lon": 46.5721852}, {"type": "node", "id": 7920365015, "lat": 31.2472486, "lon": 46.5715501}, {"type": "node", "id": 7920365016, "lat": 31.2463543, "lon": 46.570448}, {"type": "node", "id": 7920365017, "lat": 31.2448531, "lon": 46.5699062}, {"type": "node", "id": 7920365018, "lat": 31.2441184, "lon": 46.5697942}, {"type": "node", "id": 7920365019, "lat": 31.244342, "lon": 46.5690096}, {"type": "node", "id": 7920365020, "lat": 31.2445816, "lon": 46.5682811}, {"type": "node", "id": 7920365021, "lat": 31.2430324, "lon": 46.5668054}, {"type": "node", "id": 7920365022, "lat": 31.241595, "lon": 46.56589}, {"type": "node", "id": 7920365023, "lat": 31.2403493, "lon": 46.5653296}, {"type": "node", "id": 7920365024, "lat": 31.2408444, "lon": 46.5647692}, {"type": "node", "id": 7920365025, "lat": 31.2413874, "lon": 46.563443}, {"type": "node", "id": 7920365026, "lat": 31.2420262, "lon": 46.5624156}, {"type": "node", "id": 7920365027, "lat": 31.2421859, "lon": 46.5613321}, {"type": "node", "id": 7920365028, "lat": 31.2421221, "lon": 46.5603047}, {"type": "node", "id": 7920365029, "lat": 31.242138, "lon": 46.5593707}, {"type": "node", "id": 7920365030, "lat": 31.2408444, "lon": 46.557372}, {"type": "node", "id": 7920365031, "lat": 31.2401097, "lon": 46.5564006}, {"type": "node", "id": 7920365032, "lat": 31.2397423, "lon": 46.5558402}, {"type": "node", "id": 7920365033, "lat": 31.2400139, "lon": 46.5549622}, {"type": "node", "id": 7920365034, "lat": 31.2401097, "lon": 46.5541216}, {"type": "node", "id": 7920365035, "lat": 31.2408284, "lon": 46.5530942}, {"type": "node", "id": 7920365036, "lat": 31.2414672, "lon": 46.5529635}, {"type": "node", "id": 7920365037, "lat": 31.2467695, "lon": 46.5461079}, {"type": "node", "id": 7920365038, "lat": 31.2484943, "lon": 46.544819}, {"type": "node", "id": 7920365039, "lat": 31.2497719, "lon": 46.5438663}, {"type": "node", "id": 7920365040, "lat": 31.2506343, "lon": 46.5422598}, {"type": "node", "id": 7920365041, "lat": 31.251305, "lon": 46.5399248}, {"type": "node", "id": 7920365042, "lat": 31.251832, "lon": 46.5368053}, {"type": "node", "id": 7920365043, "lat": 31.2520396, "lon": 46.5340033}, {"type": "node", "id": 7920365044, "lat": 31.2517362, "lon": 46.5319485}, {"type": "node", "id": 7920365045, "lat": 31.251832, "lon": 46.5289037}, {"type": "node", "id": 7920365046, "lat": 31.2519118, "lon": 46.5264192}, {"type": "node", "id": 7920365047, "lat": 31.2519597, "lon": 46.525149}, {"type": "node", "id": 7920365048, "lat": 31.2505704, "lon": 46.5227953}, {"type": "node", "id": 7920365049, "lat": 31.2517253, "lon": 46.5192033}, {"type": "node", "id": 7920365050, "lat": 31.1807924, "lon": 46.5052448}, {"type": "node", "id": 7920365051, "lat": 31.1305301, "lon": 46.5191986}, {"type": "node", "id": 7920365052, "lat": 31.1273971, "lon": 46.520534}, {"type": "node", "id": 7920365053, "lat": 31.1290491, "lon": 46.5237705}, {"type": "node", "id": 7920365054, "lat": 31.1299675, "lon": 46.5258519}, {"type": "node", "id": 7920365055, "lat": 31.13039, "lon": 46.5279118}, {"type": "node", "id": 7920365056, "lat": 31.1306839, "lon": 46.5300361}, {"type": "node", "id": 7920365057, "lat": 31.130739, "lon": 46.5335337}, {"type": "node", "id": 7920365058, "lat": 31.1311982, "lon": 46.5358082}, {"type": "node", "id": 7920365059, "lat": 31.1325941, "lon": 46.5360657}, {"type": "node", "id": 7920365060, "lat": 31.1329247, "lon": 46.536688}, {"type": "node", "id": 7920365061, "lat": 31.1336961, "lon": 46.537203}, {"type": "node", "id": 7920365062, "lat": 31.134394, "lon": 46.5384475}, {"type": "node", "id": 7920365063, "lat": 31.1343022, "lon": 46.539499}, {"type": "node", "id": 7920365064, "lat": 31.1337879, "lon": 46.5405075}, {"type": "node", "id": 7920365065, "lat": 31.1329063, "lon": 46.5423528}, {"type": "node", "id": 7920365066, "lat": 31.1330165, "lon": 46.5432541}, {"type": "node", "id": 7920365067, "lat": 31.1335675, "lon": 46.5443913}, {"type": "node", "id": 7920365068, "lat": 31.1338063, "lon": 46.5457646}, {"type": "node", "id": 7920365069, "lat": 31.1346328, "lon": 46.5471594}, {"type": "node", "id": 7920365070, "lat": 31.1353675, "lon": 46.5484254}, {"type": "node", "id": 7920365071, "lat": 31.1359185, "lon": 46.5493266}, {"type": "node", "id": 7920365072, "lat": 31.1374613, "lon": 46.5512792}, {"type": "node", "id": 7920365073, "lat": 31.1377367, "lon": 46.5525452}, {"type": "node", "id": 7920365074, "lat": 31.1389489, "lon": 46.5547768}, {"type": "node", "id": 7920365075, "lat": 31.1390407, "lon": 46.5563862}, {"type": "node", "id": 7920365076, "lat": 31.1393162, "lon": 46.5603558}, {"type": "node", "id": 7920365077, "lat": 31.1389489, "lon": 46.5632955}, {"type": "node", "id": 7920365078, "lat": 31.1410967, "lon": 46.563657}, {"type": "node", "id": 7920365079, "lat": 31.1419048, "lon": 46.5657169}, {"type": "node", "id": 7920365080, "lat": 31.1437413, "lon": 46.5660173}, {"type": "node", "id": 7920365081, "lat": 31.1445494, "lon": 46.5678198}, {"type": "node", "id": 7920365082, "lat": 31.1423272, "lon": 46.5728409}, {"type": "node", "id": 7920365083, "lat": 31.1426084, "lon": 46.5741696}, {"type": "node", "id": 7920365084, "lat": 31.1410356, "lon": 46.5766739}, {"type": "node", "id": 7920365085, "lat": 31.1402701, "lon": 46.5768853}, {"type": "node", "id": 7920365086, "lat": 31.1391427, "lon": 46.5793897}, {"type": "node", "id": 7920365087, "lat": 31.1385442, "lon": 46.5827559}, {"type": "node", "id": 7920365088, "lat": 31.1385024, "lon": 46.5858944}, {"type": "node", "id": 7920365089, "lat": 31.1389478, "lon": 46.5881548}, {"type": "node", "id": 7920365090, "lat": 31.13995, "lon": 46.5907405}, {"type": "node", "id": 7920365091, "lat": 31.1404928, "lon": 46.5920414}, {"type": "node", "id": 7920365092, "lat": 31.1567426, "lon": 46.5918583}, {"type": "node", "id": 7920417235, "lat": 31.2480828, "lon": 46.5451265}, {"type": "node", "id": 7923889938, "lat": 31.2395141, "lon": 46.5944706}, {"type": "node", "id": 7923889939, "lat": 31.2315392, "lon": 46.6004441}, {"type": "node", "id": 7923890092, "lat": 31.2198454, "lon": 46.6110859}, {"type": "node", "id": 7923890216, "lat": 31.2443191, "lon": 46.5690901}, {"type": "node", "id": 7924499519, "lat": 31.2416949, "lon": 46.5629484}, {"type": "node", "id": 7924499535, "lat": 31.2420889, "lon": 46.5619904}, {"type": "node", "id": 7924499548, "lat": 31.2420816, "lon": 46.5592836}, {"type": "node", "id": 7924499549, "lat": 31.2407874, "lon": 46.5572966}, {"type": "node", "id": 7924499552, "lat": 31.2400203, "lon": 46.5562642}, {"type": "node", "id": 7924499596, "lat": 31.2400776, "lon": 46.5544029}, {"type": "node", "id": 7924499597, "lat": 31.2402211, "lon": 46.5539623}, {"type": "node", "id": 7924499598, "lat": 31.2405489, "lon": 46.5534937}, {"type": "node", "id": 7924499599, "lat": 31.2409674, "lon": 46.5530658}, {"type": "node", "id": 7924499600, "lat": 31.299615, "lon": 46.5619253}, {"type": "node", "id": 7924499601, "lat": 31.2999084, "lon": 46.5619682}, {"type": "node", "id": 7924499602, "lat": 31.3, "lon": 46.5622472}, {"type": "node", "id": 7924499603, "lat": 31.3002567, "lon": 46.5623545}, {"type": "node", "id": 7924499604, "lat": 31.3013385, "lon": 46.5625905}, {"type": "node", "id": 7924499605, "lat": 31.3023927, "lon": 46.5637071}, {"type": "node", "id": 7924499606, "lat": 31.3052528, "lon": 46.5643937}, {"type": "node", "id": 7924499607, "lat": 31.3058394, "lon": 46.5655095}, {"type": "node", "id": 7924499608, "lat": 31.3058578, "lon": 46.5661318}, {"type": "node", "id": 7924499609, "lat": 31.3047944, "lon": 46.5677197}, {"type": "node", "id": 7924499610, "lat": 31.3047027, "lon": 46.5683848}, {"type": "node", "id": 7924499611, "lat": 31.3044094, "lon": 46.5686638}, {"type": "node", "id": 7924499612, "lat": 31.3041161, "lon": 46.5694577}, {"type": "node", "id": 7924499613, "lat": 31.3038594, "lon": 46.5697152}, {"type": "node", "id": 7924499614, "lat": 31.3038777, "lon": 46.5700371}, {"type": "node", "id": 7924499615, "lat": 31.3035477, "lon": 46.5705092}, {"type": "node", "id": 7924499616, "lat": 31.3013293, "lon": 46.5694792}, {"type": "node", "id": 7924499617, "lat": 31.3006692, "lon": 46.5694148}, {"type": "node", "id": 7924499618, "lat": 31.2999175, "lon": 46.569565}, {"type": "node", "id": 7924499619, "lat": 31.2994225, "lon": 46.5698869}, {"type": "node", "id": 7924499620, "lat": 31.2990924, "lon": 46.5705306}, {"type": "node", "id": 7924499621, "lat": 31.2993491, "lon": 46.5710456}, {"type": "node", "id": 7924499622, "lat": 31.2994408, "lon": 46.5712387}, {"type": "node", "id": 7924499623, "lat": 31.2999358, "lon": 46.5718395}, {"type": "node", "id": 7924499624, "lat": 31.2980657, "lon": 46.5721614}, {"type": "node", "id": 7924499625, "lat": 31.2974606, "lon": 46.5723545}, {"type": "node", "id": 7924499626, "lat": 31.2982587, "lon": 46.5739852}, {"type": "node", "id": 7924499627, "lat": 31.2987056, "lon": 46.5751621}, {"type": "node", "id": 7924499628, "lat": 31.2934701, "lon": 46.5751994}, {"type": "node", "id": 7924499629, "lat": 31.2919537, "lon": 46.5754236}, {"type": "node", "id": 7924499630, "lat": 31.291395, "lon": 46.5747137}, {"type": "node", "id": 7924499631, "lat": 31.290948, "lon": 46.5735929}, {"type": "node", "id": 7924499632, "lat": 31.2905649, "lon": 46.5733875}, {"type": "node", "id": 7924499633, "lat": 31.2907724, "lon": 46.572659}, {"type": "node", "id": 7924499634, "lat": 31.2904372, "lon": 46.5715755}, {"type": "node", "id": 7924499635, "lat": 31.2923368, "lon": 46.5717063}, {"type": "node", "id": 7924499636, "lat": 31.2925922, "lon": 46.5712766}, {"type": "node", "id": 7924499637, "lat": 31.2928955, "lon": 46.5706789}, {"type": "node", "id": 7924499638, "lat": 31.2928795, "lon": 46.5701745}, {"type": "node", "id": 7924499639, "lat": 31.2930232, "lon": 46.5693526}, {"type": "node", "id": 7924499640, "lat": 31.2932786, "lon": 46.5687175}, {"type": "node", "id": 7924499641, "lat": 31.293534, "lon": 46.5679516}, {"type": "node", "id": 7924499642, "lat": 31.2936776, "lon": 46.5674472}, {"type": "node", "id": 7924499643, "lat": 31.2933903, "lon": 46.5672978}, {"type": "node", "id": 7924499644, "lat": 31.2935908, "lon": 46.5666505}, {"type": "node", "id": 7924499645, "lat": 31.2937894, "lon": 46.566177}, {"type": "node", "id": 7924499646, "lat": 31.2941217, "lon": 46.5659283}, {"type": "node", "id": 7924499647, "lat": 31.2943923, "lon": 46.5659926}, {"type": "node", "id": 7924499648, "lat": 31.2946992, "lon": 46.5657287}, {"type": "node", "id": 7924499649, "lat": 31.2947471, "lon": 46.5654485}, {"type": "node", "id": 7924499650, "lat": 31.2945169, "lon": 46.5654191}, {"type": "node", "id": 7924499651, "lat": 31.2949715, "lon": 46.5653584}, {"type": "node", "id": 7924499652, "lat": 31.2950025, "lon": 46.565243}, {"type": "node", "id": 7924499653, "lat": 31.2950823, "lon": 46.5645145}, {"type": "node", "id": 7924499654, "lat": 31.2950983, "lon": 46.5641596}, {"type": "node", "id": 7924499655, "lat": 31.2953696, "lon": 46.5637486}, {"type": "node", "id": 7924499656, "lat": 31.2956263, "lon": 46.5631838}, {"type": "node", "id": 7924499657, "lat": 31.2960432, "lon": 46.5623765}, {"type": "node", "id": 7924499658, "lat": 31.2961761, "lon": 46.5620166}, {"type": "node", "id": 7924500153, "lat": 31.3009534, "lon": 46.5625065}, {"type": "node", "id": 7924500155, "lat": 31.3027389, "lon": 46.5637902}, {"type": "node", "id": 7924500552, "lat": 31.2947098, "lon": 46.5656664}, {"type": "node", "id": 7924500553, "lat": 31.2935501, "lon": 46.5678948}, {"type": "node", "id": 7924500554, "lat": 31.2922441, "lon": 46.5716999}, {"type": "node", "id": 7941877077, "lat": 31.1641024, "lon": 46.5889469}, {"type": "node", "id": 7941877079, "lat": 31.1646748, "lon": 46.5892756, "tags": {"ford": "yes"}}, {"type": "node", "id": 7941877080, "lat": 31.163762, "lon": 46.5888402}, {"type": "node", "id": 7941877081, "lat": 31.1637066, "lon": 46.5890578}, {"type": "node", "id": 7988656732, "lat": 31.2947085, "lon": 46.5650587}, {"type": "node", "id": 7988656733, "lat": 31.29468, "lon": 46.5650943}, {"type": "node", "id": 7988656734, "lat": 31.2946064, "lon": 46.5652114}, {"type": "node", "id": 8724377884, "lat": 31.269862, "lon": 46.5714507}, {"type": "node", "id": 8896180407, "lat": 31.2683071, "lon": 46.5746098}, {"type": "node", "id": 8896180411, "lat": 31.2690349, "lon": 46.5728017}, {"type": "node", "id": 8896180413, "lat": 31.2691791, "lon": 46.5722299}, {"type": "node", "id": 8896192817, "lat": 31.272479, "lon": 46.5689881}, {"type": "node", "id": 8896193010, "lat": 31.2783107, "lon": 46.5517017}, {"type": "node", "id": 8896193016, "lat": 31.2805363, "lon": 46.5396519}, {"type": "node", "id": 8896193017, "lat": 31.2811378, "lon": 46.5375164}, {"type": "node", "id": 8896193019, "lat": 31.2808173, "lon": 46.5350562}, {"type": "node", "id": 8896193020, "lat": 31.280725, "lon": 46.5345851}, {"type": "node", "id": 8896193021, "lat": 31.2809554, "lon": 46.534575}, {"type": "node", "id": 8896193025, "lat": 31.2811293, "lon": 46.5342072}, {"type": "node", "id": 8897893594, "lat": 31.1823214, "lon": 46.5956207}, {"type": "node", "id": 8897893595, "lat": 31.1823902, "lon": 46.5955375}, {"type": "node", "id": 8973868318, "lat": 31.1701168, "lon": 46.5911186}, {"type": "node", "id": 9365268118, "lat": 31.5024589, "lon": 46.3354149, "tags": {"name": "\u0642\u0631\u064a\u0629 \u0627\u0644\u0631\u062d\u064a\u0645\u0629", "place": "village"}}, {"type": "node", "id": 10781744295, "lat": 31.2789551, "lon": 46.5481245}, {"type": "node", "id": 10781744296, "lat": 31.278904, "lon": 46.5484084}, {"type": "node", "id": 10781805178, "lat": 31.2789229, "lon": 46.5523276}, {"type": "node", "id": 10781805179, "lat": 31.2798541, "lon": 46.5538074}, {"type": "node", "id": 10781805180, "lat": 31.2800556, "lon": 46.5546286}, {"type": "node", "id": 10781805181, "lat": 31.2797429, "lon": 46.5560109}, {"type": "node", "id": 10781805182, "lat": 31.2803614, "lon": 46.5573687}, {"type": "node", "id": 10781805183, "lat": 31.2820837, "lon": 46.5578516}, {"type": "node", "id": 10781805184, "lat": 31.2832115, "lon": 46.5580876}, {"type": "node", "id": 10781805185, "lat": 31.2830831, "lon": 46.5608878}, {"type": "node", "id": 10781805186, "lat": 31.2851278, "lon": 46.5642567}, {"type": "node", "id": 10781805187, "lat": 31.281451, "lon": 46.5654154}, {"type": "node", "id": 10781805188, "lat": 31.2800389, "lon": 46.5662737}, {"type": "node", "id": 10781805189, "lat": 31.2777466, "lon": 46.5676041}, {"type": "node", "id": 10781805190, "lat": 31.2748581, "lon": 46.5675933}, {"type": "node", "id": 10781805191, "lat": 31.2729875, "lon": 46.5688915}, {"type": "node", "id": 10781805192, "lat": 31.2689213, "lon": 46.5735546}, {"type": "node", "id": 10781805193, "lat": 31.2687114, "lon": 46.5740825}, {"type": "node", "id": 10781805194, "lat": 31.2684024, "lon": 46.5757043}, {"type": "node", "id": 10781805195, "lat": 31.2689343, "lon": 46.5771206}, {"type": "node", "id": 10781805196, "lat": 31.2689526, "lon": 46.5777106}, {"type": "node", "id": 10781805197, "lat": 31.2686867, "lon": 46.5790625}, {"type": "node", "id": 10781805198, "lat": 31.2667884, "lon": 46.5798779}, {"type": "node", "id": 10781805199, "lat": 31.2653669, "lon": 46.5840621}, {"type": "node", "id": 10781805200, "lat": 31.2640555, "lon": 46.5857358}, {"type": "node", "id": 10781805201, "lat": 31.2620012, "lon": 46.585135}, {"type": "node", "id": 10781805202, "lat": 31.2610749, "lon": 46.5823562}, {"type": "node", "id": 10781805203, "lat": 31.2603046, "lon": 46.5800173}, {"type": "node", "id": 10781805204, "lat": 31.2549851, "lon": 46.5786011}, {"type": "node", "id": 10781816605, "lat": 31.2528848, "lon": 46.5786011}, {"type": "node", "id": 10781816606, "lat": 31.2543156, "lon": 46.5753825}, {"type": "node", "id": 10781816607, "lat": 31.2543614, "lon": 46.5730543}, {"type": "node", "id": 10781816608, "lat": 31.260809, "lon": 46.5708549}, {"type": "node", "id": 10781816609, "lat": 31.2607631, "lon": 46.5685268}, {"type": "node", "id": 10781816610, "lat": 31.2603779, "lon": 46.5671964}, {"type": "node", "id": 10781816611, "lat": 31.260809, "lon": 46.5647824}, {"type": "node", "id": 10781816612, "lat": 31.2598919, "lon": 46.5632482}, {"type": "node", "id": 10781816613, "lat": 31.2576999, "lon": 46.561553}, {"type": "node", "id": 10781816614, "lat": 31.257012, "lon": 46.5602119}, {"type": "node", "id": 10781816615, "lat": 31.2563884, "lon": 46.5587635}, {"type": "node", "id": 10781816616, "lat": 31.258452, "lon": 46.5577443}, {"type": "node", "id": 10781816617, "lat": 31.2575165, "lon": 46.5558775}, {"type": "node", "id": 10781816618, "lat": 31.2574798, "lon": 46.5528305}, {"type": "node", "id": 10781816619, "lat": 31.2561591, "lon": 46.5498586}, {"type": "node", "id": 10781816620, "lat": 31.2550952, "lon": 46.546994}, {"type": "node", "id": 10781816621, "lat": 31.2561316, "lon": 46.5465863}, {"type": "node", "id": 10781816622, "lat": 31.2578466, "lon": 46.5466399}, {"type": "node", "id": 10781816623, "lat": 31.2591031, "lon": 46.5458996}, {"type": "node", "id": 10781816624, "lat": 31.2605522, "lon": 46.5466936}, {"type": "node", "id": 10781816625, "lat": 31.2624047, "lon": 46.5468652}, {"type": "node", "id": 10781816626, "lat": 31.2632118, "lon": 46.5466507}, {"type": "node", "id": 10781816627, "lat": 31.2632026, "lon": 46.5427561}, {"type": "node", "id": 10781816628, "lat": 31.2631476, "lon": 46.5417583}, {"type": "node", "id": 10781816629, "lat": 31.2613317, "lon": 46.5415974}, {"type": "node", "id": 10781816630, "lat": 31.2615794, "lon": 46.5361471}, {"type": "node", "id": 10781816631, "lat": 31.2631293, "lon": 46.525944}, {"type": "node", "id": 10781816632, "lat": 31.2641289, "lon": 46.5236051}, {"type": "node", "id": 10781816633, "lat": 31.2701074, "lon": 46.5257211}, {"type": "node", "id": 10781816634, "lat": 31.2722764, "lon": 46.5265942}, {"type": "way", "id": 848881974, "nodes": [7875991515, 7941877081, 7941877080, 7941877077, 7941877079, 4379031853, 8973868318, 7920364946, 7920364947, 7920364948, 7920364949, 7920364950, 7920364951, 7920364952, 7920364953, 7920364954, 7920364955, 7920364956, 7913795307, 7913795308, 7913795309, 7913795310, 7913795311, 7913795312, 7913795313, 7920364957, 7875991363, 7913795315, 7913795317, 7913795318, 7913795319, 7913795320, 7913795505, 8897893594, 8897893595, 7913795504, 7913795503, 7920364958, 7920364959, 7920364960, 7920364961, 7920364962, 7920364963, 7920364964, 7920364965, 7920364966, 7920364967, 2318746281, 2318746283, 7920364968, 2318746287, 2318746289, 2318746291, 2318746298, 2318746304, 2318746308, 2318746309, 2318746311, 2318746313, 2318746315, 2318746317, 2318746319, 2318746321, 2318746323, 2318746327, 2318746329, 7920364969, 7920364970, 7920364971, 7920364972, 7920364973, 7920364974, 7920364975, 7920364976, 7920364977, 7920364978, 7920364979, 7920364980, 7920364981, 7920364982, 7923890092, 7920364983, 7920364984, 7920364985, 7920364986, 7920364987, 7920364988, 7923889939, 7920364989, 7920364990, 7920364991, 7920364992, 7923889938, 7920364993, 7920364994, 7920364995, 7920364996, 7920364997, 7920364998, 7920364999, 7920365000, 7920365001, 7920365002, 7920365003, 7920365004, 7920365005, 7920365006, 7920365007, 7920365008, 7920365009, 7920365010, 7920365011, 7920365012, 7920365013, 7920365014, 7920365015, 7920365016, 7920365017, 7920365018, 7923890216, 7920365019, 7920365020, 7920365021, 7920365022, 7920365023, 7920365024, 7920365025, 7924499519, 7920365026, 7924499535, 7920365027, 7920365028, 7920365029, 7924499548, 7920365030, 7924499549, 7920365031, 7924499552, 7920365032, 7920365033, 7924499596, 7920365034, 7924499597, 7924499598, 7920365035, 7924499599, 7920365036, 7920365037, 7920417235, 7920365038, 7920365039, 7920365040, 7920365041, 7920365042, 7920365043, 7920365044, 7920365045, 7920365046, 7920365047, 7920365048, 7903465706, 7920365049, 7903465707, 7903465708, 7903465709, 7903465710, 7903465711, 7903465712, 7903465713, 7903465714, 7903465665, 7903465715, 7903465716, 7903465717, 7903465718, 7903465719, 7903465721, 7903465722, 7903465723, 7903465724, 7903465726, 7903465727, 7903465728, 7903465729, 7903465730, 7903465731, 7903465732, 7920365050, 7903465734, 7903465735, 7903465736, 7903465737, 7903465769, 7903465768, 7903465739, 7903465740, 7903465741, 7903465742, 7903465743, 7903465744, 7903465745, 7903465746, 7903465747, 7903465771, 7903465770, 7903465416, 7920365051, 7920365052, 7920365053, 7920365054, 7920365055, 7920365056, 7920365057, 7920365058, 7920365059, 7920365060, 7920365061, 7920365062, 7920365063, 7920365064, 7920365065, 7920365066, 7920365067, 7920365068, 7920365069, 7920365070, 7920365071, 7920365072, 7920365073, 7920365074, 7920365075, 7920365076, 7920365077, 7920365078, 7920365079, 7920365080, 7920365081, 7920365082, 7920365083, 7920365084, 7920365085, 7920365086, 7920365087, 7920365088, 7920365089, 7920365090, 7920365091, 7903465453, 7903465441, 7903465454, 7903465440, 7903465439, 7903465438, 7903465436, 7903465435, 7903465434, 7903465433, 7920365092, 7903465432, 7903465431, 7903465450, 7903465451, 7875991515], "tags": {"image": "https://upload.wikimedia.org/wikipedia/commons/6/65/%D9%85%D8%B6%D9%8A%D9%81_%D9%82%D8%A8%D9%8A%D9%84%D8%A9_%D8%A2%D9%84_%D9%86%D8%B5%D8%B1%D8%A7%D9%84%D9%84%D9%87.jpg", "name": "\u0642\u0628\u064a\u0644\u0629 \u0622\u0644 \u0646\u0635\u0631\u0627\u0644\u0644\u0647", "name:ar": "\u0642\u0628\u064a\u0644\u0629 \u0622\u0644 \u0646\u0635\u0631\u0627\u0644\u0644\u0647", "name:en": "An Nasrallah tribe", "name:fr": "La tribu Nasrallah", "place": "town", "population": "9500"}}, {"type": "way", "id": 849367262, "nodes": [2486648257, 7924499600, 7924499601, 7924499602, 7924499603, 7924500153, 7924499604, 7924499605, 7924500155, 7924499606, 7924499607, 7924499608, 7924499609, 7924499610, 7924499611, 7924499612, 7924499613, 7924499614, 7924499615, 7924499616, 7924499617, 7924499618, 7924499619, 7924499620, 7924499621, 7924499622, 7924499623, 7924499624, 7924499625, 7924499626, 7924499627, 7924499628, 7924499629, 7924499630, 7924499631, 7924499632, 7924499633, 7924499634, 7924500554, 7924499635, 7924499636, 7924499637, 7924499638, 7924499639, 7924499640, 7924499641, 7924500553, 7924499642, 7924499643, 7924499644, 7924499645, 7924499646, 7924499647, 7924499648, 7924500552, 7924499649, 7924499650, 7988656734, 7924499651, 7988656733, 7988656732, 7924499652, 7924499653, 7924499654, 7924499655, 7924499656, 7924499657, 7924499658, 2486648257], "tags": {"alt_name": "\u0637\u0627\u0647\u0631 \u0627\u0644\u062e\u0644\u064a\u0648\u064a", "int_name": "Al Khulayw\u012b, At\u0101hiral Ikhlayw\u012b, \u0162\u0101hir al Ikhlaiw\u012b, \u0162\u0101hir al Khulayw\u012b, \u0637\u0627\u0647\u0631 \u0627\u0644\u062e\u0644\u064a\u0648\u064a, Al Khulaywi, Atahiral Ikhlaywi, Tahir al Ikhlaiwi, Tahir al Khulaywi, \u0637\u0627\u0647\u0631 \u0627\u0644\u062e\u0644\u064a\u0648\u064a", "is_in": "Iraq , \u062c\u0645\u0647\u0648\u0631\u064a\u0629 \u0627\u0644\u0639\u0631\u0627\u0642", "name": "\u0627\u0644\u062e\u0644\u064a\u0648\u064a", "name:ar": "\u0627\u0644\u062e\u0644\u064a\u0648\u064a", "name:ar1": "\u0637\u0627\u0647\u0631 \u0627\u0644\u062e\u0644\u064a\u0648\u064a", "name:de": "Al Khulaywi", "name:en": "Al Khulaywi", "name:fr": "Al Khulaywi", "place": "village"}}, {"type": "way", "id": 1159397595, "nodes": [7903465699, 1196304495, 8896193025, 8896193021, 8896193020, 8896193019, 1196304487, 8896193017, 8896193016, 1196304483, 1196304575, 10781744295, 10781744296, 8896193010, 10781805178, 10781805179, 10781805180, 10781805181, 10781805182, 10781805183, 10781805184, 10781805185, 10781805186, 10781805187, 10781805188, 10781805189, 10781805190, 10781805191, 8896192817, 1196304965, 8724377884, 8896180413, 8896180411, 10781805192, 10781805193, 8896180407, 10781805194, 10781805195, 10781805196, 10781805197, 10781805198, 10781805199, 10781805200, 10781805201, 10781805202, 10781805203, 10781805204, 10781816605, 10781816606, 10781816607, 10781816608, 10781816609, 10781816610, 10781816611, 10781816612, 10781816613, 10781816614, 10781816615, 10781816616, 10781816617, 10781816618, 10781816619, 10781816620, 10781816621, 10781816622, 10781816623, 10781816624, 10781816625, 10781816626, 10781816627, 10781816628, 10781816629, 10781816630, 10781816631, 10781816632, 10781816633, 10781816634, 7903465701, 7903465700, 7903465699], "tags": {"name": "\u0642\u0631\u064a\u0629 \u0627\u0644\u0646\u0647\u0627\u0631", "place": "village"}}]}