{"version": 0.6, "generator": "Overpass API 0.7.61.5 4133829e", "osm3s": {"timestamp_osm_base": "2024-03-06T11:12:35Z", "copyright": "The data included in this document is from www.openstreetmap.org. The data is made available under ODbL."}, "elements": [{"type": "node", "id": 256791649, "lat": 36.3834541, "lon": 43.1683962, "tags": {"amenity": "hospital", "created_by": "Potlatch 0.8b", "name": "\u0645\u0633\u062a\u0634\u0641\u0649 \u0627\u0644\u062e\u0646\u0633\u0627\u0621", "name:en": "Khansa Hospital"}}, {"type": "node", "id": 2488247029, "lat": 36.3212077, "lon": 43.1892838, "tags": {"alt_name": "\u0645\u0633\u062a\u0634\u0641\u0649 \u0627\u0644\u0645\u0648\u0635\u0644", "amenity": "hospital", "int_name": "Mustashf\u00e1 al M\u016b\u015ful, \u0645\u0633\u062a\u0634\u0641\u0649 \u0627\u0644\u0645\u0648\u0635\u0644, Mustashfa al Musul, \u0645\u0633\u062a\u0634\u0641\u0649 \u0627\u0644\u0645\u0648\u0635\u0644", "internet_access": "wlan", "name": "\u0645\u0633\u062a\u0634\u0641\u0649 \u0627\u0644\u0633\u0644\u0627\u0645", "name:ar": "\u0645\u0633\u062a\u0634\u0641\u0649 \u0627\u0644\u0634\u0641\u0627\u0621 \u0644\u0644\u0627\u0645\u0631\u0627\u0636 \u0627\u0644\u0635\u062f\u0631\u064a\u0629 \u0648\u0627\u0644\u062d\u0645\u064a\u0627\u062a", "name:ar1": "\u0645\u0633\u062a\u0634\u0641\u0649 \u0627\u0644\u0645\u0648\u0635\u0644", "name:de": "Mustashfa al Musul", "name:en": "Mustashfa al Musul", "name:fr": "Mustashfa al Musul"}}, {"type": "node", "id": 2488247030, "lat": 36.3873243, "lon": 43.166785, "tags": {"addr:street": "36\u00b023\u203210.72\u2033N 43\u00b010\u203203.34\u2033E", "alt_name": "\u0645\u0633\u062a\u0634\u0641\u0649 \u0627\u0644\u0648\u0644\u0627\u062f\u0629", "amenity": "hospital", "int_name": "Mustashf\u00e1 al Wil\u0101dah, \u0645\u0633\u062a\u0634\u0641\u0649 \u0627\u0644\u0648\u0644\u0627\u062f\u0629, Mustashfa al Wiladah, \u0645\u0633\u062a\u0634\u0641\u0649 \u0627\u0644\u0648\u0644\u0627\u062f\u0629", "is_in": "Iraq , \u062c\u0645\u0647\u0648\u0631\u064a\u0629 \u0627\u0644\u0639\u0631\u0627\u0642", "name": "\u0645\u0633\u062a\u0634\u0641\u0649 \u0627\u0644\u0648\u0644\u0627\u062f\u0629", "name:ar": "\u0627\u0644\u0645\u0631\u0643\u0632 \u0627\u0644\u0635\u062d\u064a \u0641\u064a \u062d\u064a \u0627\u0644\u0633\u0643\u0631", "name:ar1": "\u0645\u0633\u062a\u0634\u0641\u0649 \u0627\u0644\u0648\u0644\u0627\u062f\u0629", "name:de": "Mustashfa al Wiladah", "name:en": "Suker Health Center", "name:fr": "Mustashfa al Wiladah", "name:ku": "\u0639\u0631\u0628\u064a"}}, {"type": "node", "id": 2488247031, "lat": 36.488222, "lon": 43.113233, "tags": {"addr:city": "\u062a\u0644\u0643\u064a\u0641", "alt_name": "\u0645\u0633\u062a\u0648\u0635\u0641 \u0627\u0644\u0635\u062d\u0629 \u0627\u0644\u062d\u064a\u0648\u0627\u0646\u064a\u0629", "amenity": "hospital", "int_name": "Mustaw\u015faf a\u015f \u015ei\u1e29\u1e29ah al \u1e28ayaw\u0101n\u012byah, \u0645\u0633\u062a\u0648\u0635\u0641 \u0627\u0644\u0635\u062d\u0629 \u0627\u0644\u062d\u064a\u0648\u0627\u0646\u064a\u0629, Mustawsaf as Sihhah al Hayawaniyah, \u0645\u0633\u062a\u0648\u0635\u0641 \u0627\u0644\u0635\u062d\u0629 \u0627\u0644\u062d\u064a\u0648\u0627\u0646\u064a\u0629", "is_in": "Iraq , \u062c\u0645\u0647\u0648\u0631\u064a\u0629 \u0627\u0644\u0639\u0631\u0627\u0642", "name": "\u0645\u0633\u062a\u0648\u0635\u0641 \u0627\u0644\u0635\u062d\u0629 \u0627\u0644\u062d\u064a\u0648\u0627\u0646\u064a\u0629", "name:ar": "\u0645\u0633\u062a\u0648\u0635\u0641 \u0627\u0644\u0635\u062d\u0629 \u0627\u0644\u062d\u064a\u0648\u0627\u0646\u064a\u0629", "name:ar1": "\u0645\u0633\u062a\u0648\u0635\u0641 \u0627\u0644\u0635\u062d\u0629 \u0627\u0644\u062d\u064a\u0648\u0627\u0646\u064a\u0629", "name:de": "Mustawsaf as Sihhah al Hayawaniyah", "name:en": "Mustawsaf as Sihhah al Hayawaniyah", "name:fr": "Mustawsaf as Sihhah al Hayawaniyah"}}, {"type": "node", "id": 3134993274, "lat": 36.3215299, "lon": 43.1897862}, {"type": "node", "id": 3134993275, "lat": 36.3213926, "lon": 43.1895035}, {"type": "node", "id": 3134993276, "lat": 36.3207097, "lon": 43.1888812}, {"type": "node", "id": 3134993279, "lat": 36.3208091, "lon": 43.1890636}, {"type": "node", "id": 3134993280, "lat": 36.3210123, "lon": 43.1890261}, {"type": "node", "id": 3134993281, "lat": 36.3208815, "lon": 43.1890253}, {"type": "node", "id": 3134993282, "lat": 36.321626, "lon": 43.1897181}, {"type": "node", "id": 3134993283, "lat": 36.3208264, "lon": 43.189128}, {"type": "node", "id": 3134993284, "lat": 36.32074, "lon": 43.1897235}, {"type": "node", "id": 3134993285, "lat": 36.3206179, "lon": 43.1894169}, {"type": "node", "id": 3134993287, "lat": 36.3208913, "lon": 43.1890851}, {"type": "node", "id": 3134993288, "lat": 36.3209248, "lon": 43.1891379}, {"type": "node", "id": 3134993289, "lat": 36.3212068, "lon": 43.1888973}, {"type": "node", "id": 3134993290, "lat": 36.321076, "lon": 43.1890575}, {"type": "node", "id": 3134993291, "lat": 36.3207875, "lon": 43.1888169}, {"type": "node", "id": 3134993292, "lat": 36.320861, "lon": 43.1887579}, {"type": "node", "id": 3134993293, "lat": 36.3205628, "lon": 43.189246}, {"type": "node", "id": 3134993294, "lat": 36.3208556, "lon": 43.1899533}, {"type": "node", "id": 3134993295, "lat": 36.3210425, "lon": 43.1893694}, {"type": "node", "id": 3134993296, "lat": 36.3206751, "lon": 43.1891495}, {"type": "node", "id": 3134993297, "lat": 36.3213256, "lon": 43.1899501}, {"type": "node", "id": 3134993298, "lat": 36.3212001, "lon": 43.189264}, {"type": "node", "id": 3134993299, "lat": 36.3205887, "lon": 43.1889617}, {"type": "node", "id": 3134993301, "lat": 36.3213235, "lon": 43.1895464}, {"type": "node", "id": 3134993302, "lat": 36.3208826, "lon": 43.1892568}, {"type": "node", "id": 3134993303, "lat": 36.3210901, "lon": 43.1894338}, {"type": "node", "id": 3134993304, "lat": 36.3214488, "lon": 43.1898576}, {"type": "node", "id": 3134993305, "lat": 36.3211506, "lon": 43.1896591}, {"type": "node", "id": 3219651726, "lat": 36.3243221, "lon": 43.1229308}, {"type": "node", "id": 3219651727, "lat": 36.3245135, "lon": 43.123104}, {"type": "node", "id": 3219651728, "lat": 36.3247568, "lon": 43.1239174}, {"type": "node", "id": 3219651729, "lat": 36.3213411, "lon": 43.1234984}, {"type": "node", "id": 3219651730, "lat": 36.3211127, "lon": 43.1234121}, {"type": "node", "id": 3219651731, "lat": 36.3210779, "lon": 43.1232889}, {"type": "node", "id": 3219651732, "lat": 36.3226667, "lon": 43.1230485}, {"type": "node", "id": 3219651733, "lat": 36.3239864, "lon": 43.1228963}, {"type": "node", "id": 4291639792, "lat": 36.3257633, "lon": 43.1863361, "tags": {"amenity": "hospital", "name": "\u0645\u0633\u062a\u0634\u0641\u0649 \u0627\u0644\u0633\u0644\u0627\u0645", "name:ar": "\u0645\u0633\u062a\u0634\u0641\u0649 \u0627\u0644\u0633\u0644\u0627\u0645 \u0642\u064a \u0627\u0644\u0645\u0648\u0635\u0644", "name:en": "Al-Salam General Hospital"}}, {"type": "node", "id": 4301333190, "lat": 36.3329856, "lon": 43.1265107, "tags": {"addr:street": "\u0628\u0627\u0628 \u0627\u0644\u062c\u062f\u064a\u062f", "amenity": "hospital", "name": "\u0645\u0633\u062a\u0634\u0641\u0649 \u0646\u064a\u0646\u0648\u0649 \u0627\u0644\u0623\u0647\u0644\u064a"}}, {"type": "node", "id": 4301352689, "lat": 36.4052142, "lon": 43.096765, "tags": {"addr:street": "\u0627\u0644\u0631\u0634\u064a\u062f\u064a\u0629", "amenity": "hospital", "name": "\u0645\u0633\u062a\u0634\u0641\u0649 \u0627\u0644\u0623\u0648\u0631\u0627\u0645 \u0648\u0627\u0644\u062d\u0628\u0644 \u0627\u0644\u0634\u0648\u0643\u064a", "name:ar": "\u0645\u0631\u0643\u0632 \u0644\u0644\u0634\u0631\u0637\u0647"}}, {"type": "node", "id": 4301352690, "lat": 36.3065014, "lon": 43.1112683, "tags": {"addr:street": "Mosul-Baghdad road", "amenity": "hospital", "name": "\u0627\u0644\u0645\u0633\u062a\u0634\u0641\u0649 \u0627\u0644\u0623\u0644\u0645\u0627\u0646\u064a"}}, {"type": "node", "id": 4600492890, "lat": 36.3222507, "lon": 43.190396, "tags": {"amenity": "hospital", "government": "Al-Shefaa/Al Salam Hospital"}}, {"type": "node", "id": 4681609694, "lat": 36.2744751, "lon": 43.3838446, "tags": {"amenity": "hospital", "name": "\u0645\u0633\u062a\u0634\u0641\u0649 \u0627\u0644\u062d\u0645\u062f\u0627\u0646\u064a\u0629 \u0627\u0644\u0639\u0627\u0645", "name:ar": "\u0645\u0633\u062a\u0634\u0641\u0649 \u0627\u0644\u062d\u0645\u062f\u0627\u0646\u064a\u0629 \u0627\u0644\u0639\u0627\u0645", "name:en": "Al - Hamdania General Hospital"}}, {"type": "node", "id": 4685515192, "lat": 36.3739722, "lon": 43.1501389, "tags": {"amenity": "hospital", "internet_access": "wlan", "name": "\u0645\u0633\u062a\u0634\u0641\u0649 \u0625\u0628\u0646 \u0627\u0644\u0623\u062b\u064a\u0631", "name:ar": "\u0645\u0633\u062a\u0634\u0641\u0649 \u0625\u0628\u0646 \u0627\u0644\u0623\u062b\u064a\u0631 \u0644\u0644\u0627\u0637\u0641\u0627\u0644", "name:en": "Ibn Atheer Hospital for children"}}, {"type": "node", "id": 4705608789, "lat": 36.3327583, "lon": 43.2044164, "tags": {"amenity": "hospital", "name": "\u0645\u0631\u0643\u0632 \u0635\u062d\u064a \u0627\u0644\u0645\u064a\u062b\u0627\u0642", "name:ar": "\u0645\u0631\u0643\u0632 \u0635\u062d\u064a \u0627\u0644\u0645\u064a\u062b\u0627\u0642", "name:en": "Almithaq health center"}}, {"type": "node", "id": 4721433705, "lat": 36.3811219, "lon": 43.1662365, "tags": {"amenity": "hospital", "name": "\u0645\u0633\u062a\u0634\u0641\u0649 \u0627\u0644\u0631\u0628\u064a\u0639 \u0627\u0644\u0627\u0647\u0644\u064a", "name:ar": "\u0645\u0633\u062a\u0634\u0641\u0649 \u0627\u0644\u0631\u0628\u064a\u0639 \u0627\u0644\u0627\u0647\u0644\u064a"}}, {"type": "node", "id": 4746679624, "lat": 36.3380781, "lon": 43.1515761, "tags": {"amenity": "hospital", "name": "\u0645\u0633\u062a\u0634\u0641\u0649 ( \u0642\u064a\u062f \u0627\u0644\u0627\u0646\u0634\u0627\u0621 )", "name:ar": "\u0645\u0633\u062a\u0634\u0641\u0649 \u0642\u064a\u062f \u0627\u0644\u0627\u0646\u0634\u0627\u0621", "name:en": "Under construction Hospital"}}, {"type": "node", "id": 4747770622, "lat": 36.3304212, "lon": 43.0964094, "tags": {"addr:street": "\u0637\u0631\u064a\u0642 \u0628\u063a\u062f\u0627\u062f \u0642\u0631\u0628 \u062a\u0642\u0627\u0637\u0639 \u0645\u0648\u0635\u0644 \u0627\u0644\u062c\u062f\u064a\u062f\u0629 \u0645\u0639 \u0634\u0627\u0631\u0639 \u0628\u063a\u062f\u0627\u062f", "amenity": "hospital", "name": "\u0645\u0633\u062a\u0634\u0641\u0649 \u0627\u0644\u0631\u062d\u0645\u0629", "name:ar": "\u0645\u0633\u062a\u0634\u0641\u0649 \u0627\u0644\u0631\u062d\u0645\u0629", "name:en": "Al-Rahma hospital"}}, {"type": "node", "id": 4774575830, "lat": 36.357599, "lon": 43.1873643, "tags": {"amenity": "hospital", "name": "\u0645\u0631\u0643\u0632 \u062d\u064a \u0627\u0644\u0646\u0648\u0631 \u0627\u0644\u0635\u062d\u064a", "name:ar": "\u0645\u0631\u0643\u0632 \u062d\u064a \u0627\u0644\u0646\u0648\u0631 \u0627\u0644\u0635\u062d\u064a", "name:en": "Hay Noor Health Center"}}, {"type": "node", "id": 4797310721, "lat": 36.3191038, "lon": 43.1120315, "tags": {"addr:street": "\u062d\u064a \u0627\u0644\u0645\u0646\u0635\u0648\u0631", "amenity": "hospital", "name": "\u0645\u0631\u0643\u0632 \u0635\u062d\u064a \u0627\u0644\u0645\u0646\u0635\u0648\u0631", "name:ar": "\u0645\u0631\u0643\u0632 \u0635\u062d\u064a \u0627\u0644\u0645\u0646\u0635\u0648\u0631", "name:en": "almansour phcc"}}, {"type": "node", "id": 4850679121, "lat": 36.398232, "lon": 43.1493691, "tags": {"addr:street": "\u0634\u0627\u0631\u0639 \u0623\u062d\u0645\u062f \u0627\u0644\u0634\u064a\u062e.. \u0633\u0627\u064a\u062f\u064a\u0646 \u0627\u0644\u0635\u0648\u0631\u0629", "amenity": "hospital", "name": "\u0635\u064a\u062f\u0644\u064a\u0629 \u0627\u0644\u0641\u064a\u0635\u0644", "name:ar": "\u0635\u064a\u062f\u0644\u064a\u0629 \u0627\u0644\u0641\u064a\u0635\u0644"}}, {"type": "node", "id": 4872726124, "lat": 36.3884973, "lon": 43.1459923, "tags": {"amenity": "hospital", "name": "\u0643\u0644\u064a\u0629 \u0637\u0628 \u0646\u064a\u0646\u0648\u0649"}}, {"type": "node", "id": 4872757922, "lat": 36.3409283, "lon": 43.1171031, "tags": {"addr:city": "\u0627\u0644\u0645\u0648\u0635\u0644", "amenity": "hospital", "name": "\u0637\u0628\u0627\u0628\u0629 \u0661 \u062d\u0632\u064a\u0631\u0627\u0646", "name:ar": "\u0637\u0628\u0627\u0628\u0629 \u0661 \u062d\u0632\u064a\u0631\u0627\u0646", "name:en": "MOSUL HOSPITAL AS SILL"}}, {"type": "node", "id": 4872757927, "lat": 36.3294139, "lon": 43.1457674, "tags": {"amenity": "hospital", "name": "\u0627\u0644\u062d\u0643\u0645\u0629", "name:ar": "\u0645\u062e\u062a\u0628\u0631 \u0627\u0644\u0635\u062d\u0629 \u0627\u0644\u0639\u0627\u0645\u0629 /\u0645\u0633\u062a\u0634\u0641\u0649 \u0627\u0644\u062d\u0643\u0645\u0629 \u0633\u0627\u0628\u0642\u0627"}}, {"type": "node", "id": 4872770221, "lat": 36.3566185, "lon": 43.1150613, "tags": {"amenity": "hospital", "name": "\u0627\u0644\u0628\u062a\u0648\u0644 \u0644\u0644\u062a\u0648\u0644\u064a\u062f"}}, {"type": "node", "id": 4872770421, "lat": 36.3251335, "lon": 43.1870275, "tags": {"amenity": "hospital", "name": "\u0627\u0644\u0633\u0644\u0627\u0645", "name:ar": "\u0645\u0633\u062a\u0634\u0641\u0649 \u0627\u0644\u0633\u0644\u0627\u0645 \u0627\u0644\u062a\u0639\u0644\u064a\u0645\u064a", "name:en": "Al Salam Educational Hospital"}}, {"type": "node", "id": 4939000321, "lat": 36.386388, "lon": 43.1485846, "tags": {"addr:street": "\u062c\u0627\u0645\u0639\u0629 \u0627\u0644\u0645\u0648\u0635\u0644", "amenity": "hospital", "name": "\u0645\u0633\u062a\u0634\u0641\u0649 \u0637\u0628 \u0627\u0644\u0627\u0633\u0646\u0627\u0646 \u0627\u0644\u062c\u0627\u0645\u0639\u064a", "name:ar": "\u0645\u0633\u062a\u0634\u0641\u0649 \u0637\u0628 \u0627\u0644\u0627\u0633\u0646\u0627\u0646 \u0627\u0644\u062c\u0627\u0645\u0639\u064a", "name:en": "University Dental Hospital", "opening_hours": "Su-Th 09:00-14:00"}}, {"type": "node", "id": 4944568324, "lat": 36.3931466, "lon": 43.1899927, "tags": {"amenity": "hospital", "name": "\u0637\u0628\u0627\u0628\u0629 \u0627\u0644\u0642\u0627\u0647\u0631\u0629", "name:ar": "\u0637\u0628\u0627\u0628\u0629 \u0627\u0644\u0642\u0627\u0647\u0631\u0629", "name:en": "Qahira Clinics"}}, {"type": "node", "id": 4944592223, "lat": 36.3898159, "lon": 43.2112247, "tags": {"amenity": "hospital", "name": "\u0637\u0628\u0627\u0628\u0629 \u0627\u0644\u0632\u0647\u0631\u0627\u0621", "name:ar": "\u0637\u0628\u0627\u0628\u0629 \u0627\u0644\u0632\u0647\u0631\u0627\u0621"}}, {"type": "node", "id": 4944592421, "lat": 36.3549311, "lon": 43.1178139, "tags": {"amenity": "hospital", "name": "\u0628\u0627\u0628 \u0627\u0644\u0637\u0648\u0627\u0631\u0626", "name:ar": "\u0628\u0627\u0628 \u0627\u0644\u0637\u0648\u0627\u0631\u0626"}}, {"type": "node", "id": 4944592621, "lat": 36.3528043, "lon": 43.1168435, "tags": {"amenity": "hospital", "name": "\u062f\u0627\u0626\u0631\u0629 \u0627\u0644\u0635\u062d\u0629 \u0644\u0644\u0635\u064a\u062f\u0644\u0629", "name:ar": "\u062f\u0627\u0626\u0631\u0629 \u0627\u0644\u0635\u062d\u0629 \u0644\u0644\u0635\u064a\u062f\u0644\u0629"}}, {"type": "node", "id": 4960234424, "lat": 36.3559204, "lon": 43.1159973, "tags": {"amenity": "hospital", "name": "\u0627\u0644\u0637\u0628 \u0627\u0644\u0639\u062f\u0644\u064a", "name:ar": "\u0627\u0644\u0637\u0628 \u0627\u0644\u0639\u062f\u0644\u064a"}}, {"type": "node", "id": 4960234844, "lat": 36.35628, "lon": 43.1143494, "tags": {"amenity": "hospital", "name": "\u0645\u0635\u0631\u0641 \u0627\u0644\u062f\u0645", "name:ar": "\u0645\u0635\u0631\u0641 \u0627\u0644\u062f\u0645"}}, {"type": "node", "id": 4961120425, "lat": 36.3781855, "lon": 43.1796991, "tags": {"amenity": "hospital", "name": "\u0645\u0631\u0643\u0632 \u0635\u062d\u0629 \u0627\u0644\u0632\u0647\u0648\u0631 \u0637\u0628\u0627\u0628\u0629", "name:ar": "\u0645\u0631\u0643\u0632 \u0635\u062d\u0629 \u0627\u0644\u0632\u0647\u0648\u0631 \u0637\u0628\u0627\u0628\u0629"}}, {"type": "node", "id": 5006911138, "lat": 36.372353, "lon": 43.1378812, "tags": {"amenity": "hospital", "name": "\u0637\u0628\u0627\u0628\u0629 \u0627\u0644\u0648\u0644\u0627\u062f\u0627\u062a \u0648\u0635\u062d\u064a", "name:ar": "\u0645\u0631\u0643\u0632 \u0627\u0644\u0642\u062f\u0633 \u0644\u0644\u0631\u0639\u0627\u064a\u0629 \u0627\u0644\u0635\u062d\u064a\u0629 \u0627\u0644\u0627\u0648\u0644\u064a\u0647", "name:en": "Al Qudis primary health center"}}, {"type": "node", "id": 5016648325, "lat": 36.3883518, "lon": 43.1437603, "tags": {"amenity": "hospital", "name": "University Teaching Hospital", "name:ar": "\u0642\u0627\u0639\u0629 \u0627\u0644\u062d\u0643\u0645\u0629", "name:en": "Al hekma hall"}}, {"type": "node", "id": 5034732624, "lat": 36.3983855, "lon": 43.0937488, "tags": {"amenity": "hospital", "name": "\u0645\u0633\u062a\u0634\u0641\u0649 \u0627\u0644\u0623\u0648\u0631\u0627\u0645 \u0648\u0627\u0644\u062d\u0628\u0644 \u0627\u0644\u0634\u0648\u0643\u064a", "name:ar": "\u0645\u0633\u062a\u0634\u0641\u0649 \u0627\u0628\u0646 \u0633\u064a\u0646\u0627"}}, {"type": "node", "id": 5059209124, "lat": 36.3714931, "lon": 43.2945311, "tags": {"amenity": "hospital", "name": "\u0645\u0633\u062a\u0648\u0635\u0641 \u0628\u0627\u0632\u0648\u0627\u064a\u0627", "name:ar": "\u0645\u0633\u062a\u0648\u0635\u0641 \u0628\u0627\u0632\u0648\u0627\u064a\u0627", "name:en": "clinic Bazwaya"}}, {"type": "node", "id": 5149576821, "lat": 36.372629, "lon": 43.1830082, "tags": {"amenity": "hospital", "healthcare": "hospital", "name:en": "Muharabi"}}, {"type": "node", "id": 5247191724, "lat": 36.3723785, "lon": 43.137645}, {"type": "node", "id": 5247191725, "lat": 36.3724632, "lon": 43.1379943}, {"type": "node", "id": 5247191726, "lat": 36.3722977, "lon": 43.1380562}, {"type": "node", "id": 5247191727, "lat": 36.3722866, "lon": 43.1380106}, {"type": "node", "id": 5247191728, "lat": 36.3722562, "lon": 43.1380219}, {"type": "node", "id": 5247191729, "lat": 36.3722337, "lon": 43.1379294}, {"type": "node", "id": 5247191730, "lat": 36.3722135, "lon": 43.137937}, {"type": "node", "id": 5247191731, "lat": 36.372195, "lon": 43.137861}, {"type": "node", "id": 5247191732, "lat": 36.3722153, "lon": 43.1378534}, {"type": "node", "id": 5247191733, "lat": 36.3721826, "lon": 43.1377183}, {"type": "node", "id": 5332968724, "lat": 36.4609174, "lon": 43.3394426, "tags": {"addr:street": "\u0628\u062d\u0632\u0627\u0646\u064a", "amenity": "hospital", "name": "\u0646\u0648\u0627\u0633 \u0633\u0639\u062f\u0648"}}, {"type": "node", "id": 5429865922, "lat": 36.3833909, "lon": 43.1930149, "tags": {"amenity": "hospital", "name": "\u0645\u0631\u0643\u0632 \u0635\u062d\u064a \u0627\u0644\u0645\u062d\u0627\u0631\u0628\u064a\u0646"}}, {"type": "node", "id": 5631117882, "lat": 36.3826486, "lon": 43.1806031, "tags": {"amenity": "hospital", "name": "\u062f\u0643\u062a\u0648\u0631 \u0639\u0628\u062f \u0627\u0644\u0639\u0638\u064a\u0645 \u0627\u0645\u0631\u0627\u0636 \u0627\u0644\u062f\u0645"}}, {"type": "node", "id": 5658736431, "lat": 36.3709718, "lon": 43.2265539, "tags": {"amenity": "hospital", "name": "\u0645\u0631\u0643\u0632 \u0635\u062d\u064a \u0627\u0644\u0627\u0631\u0643\u0627\u0646", "name:en": "alarkan health center"}}, {"type": "node", "id": 5909025486, "lat": 36.3854977, "lon": 43.1808115, "tags": {"amenity": "hospital", "name": "\u062f.\u0635\u0627\u0644\u062d \u0627\u0644\u062e\u0627\u064a\u0631 \u0627\u0644\u062d\u062f\u064a\u062f\u064a"}}, {"type": "node", "id": 5909025487, "lat": 36.3842131, "lon": 43.1806851, "tags": {"amenity": "hospital", "name": "\u062f.\u0628\u0633\u0627\u0645 \u062d\u0633\u064a\u0628"}}, {"type": "node", "id": 5938457385, "lat": 36.3881879, "lon": 43.1875985, "tags": {"amenity": "hospital", "name": "\u0645\u0631\u0643\u0632 \u062f\u0627\u0631 \u0627\u0644\u0637\u0628"}}, {"type": "node", "id": 5981237587, "lat": 36.3572025, "lon": 43.3224635, "tags": {"amenity": "hospital", "name": "\u0639\u064a\u0627\u062f\u0629 \u062c\u0633\u0627\u0645 \u0627\u0644\u0637\u0628\u064a", "name:en": "Jassam Medical Clinic"}}, {"type": "node", "id": 5993919687, "lat": 36.4065716, "lon": 43.0991921, "tags": {"amenity": "hospital", "name": "\u0645\u0631\u0643\u0632 \u0627\u0644\u0631\u0639\u0627\u064a\u0629 \u0627\u0644\u0635\u062d\u064a\u0629 \u0627\u0644\u0627\u0648\u0644\u064a\u0629/\u0627\u0644\u0631\u0634\u064a\u062f\u064a\u0629"}}, {"type": "node", "id": 6264589085, "lat": 36.3811201, "lon": 43.1818121, "tags": {"addr:street": "\u062f\u0648\u0631\u0629 \u0627\u0644\u0639\u0628\u0627\u062f\u064a", "amenity": "hospital", "name": "\u062f\u0643\u062a\u0648\u0631 \u0639\u0645\u0631 \u062d\u0645\u0648\u062f\u0627\u062a"}}, {"type": "node", "id": 6308209187, "lat": 36.3799852, "lon": 43.1670883, "tags": {"amenity": "hospital", "name": "\u0646\u0632\u0627\u0631 \u0627\u0644\u0645\u0636\u0645\u062f", "name:en": "Nazar"}}, {"type": "node", "id": 6589220885, "lat": 36.3850751, "lon": 43.1802822, "tags": {"amenity": "hospital", "name": "\u0639\u0645\u0627\u0631\u0629 \u0627\u0644\u0637\u064a\u0628 \u0627\u0644\u0637\u0628\u064a", "name:en": "Al Tayeb Medical Building"}}, {"type": "node", "id": 6831409085, "lat": 36.4246489, "lon": 42.9855041, "tags": {"amenity": "hospital", "name": "\u0645\u0633\u062a\u0648\u0635\u0641 \u0633\u062f \u0628\u0627\u062f\u0648\u0634", "name:en": "Badoush Dam Polyclinic", "name:ku": "Poliklin\u00eeka Bendava Badoush", "name:tr": "Badoush Baraj\u0131 Poliklini\u011fi"}}, {"type": "node", "id": 7194967785, "lat": 36.3857857, "lon": 43.1688329, "tags": {"addr:street": "\u062d\u064a \u0627\u0644\u0633\u0643\u0631", "amenity": "hospital", "name": "\u0645\u0635\u0631\u0641 \u0627\u0644\u062f\u0645 \u0627\u0644\u0631\u0626\u064a\u0633\u064a", "name:en": "Blood Bank", "opening_hours": "24/7"}}, {"type": "node", "id": 7480630386, "lat": 36.3272118, "lon": 43.0841366, "tags": {"addr:street": "\u0646\u0647\u0627\u064a\u0629 \u062d\u064a \u0646\u0627\u0628\u0644\u0633", "amenity": "hospital", "internet_access": "wlan", "name": "\u0645\u0633\u062a\u0634\u0641\u0649 \u0646\u0627\u0628\u0644\u0633 \u0627\u0644\u0645\u064a\u062f\u0627\u0646\u064a", "name:en": "\u0627\u0637\u0628\u0627\u0621 \u0628\u0644\u0627 \u062d\u062f\u0648\u062f"}}, {"type": "node", "id": 7684794086, "lat": 36.3294561, "lon": 43.1463595, "tags": {"amenity": "hospital", "name": "\u0645\u0633\u062a\u0634\u0641\u0649 \u0627\u0644\u0639\u064a\u0648\u0646 \u0627\u0644\u062a\u062e\u0635\u0635\u064a"}}, {"type": "node", "id": 7874734485, "lat": 36.3754301, "lon": 43.1861704, "tags": {"amenity": "hospital", "name": "\u0645\u0631\u0643\u0632 \u0635\u062d\u064a \u0627\u0644\u0642\u0627\u062f\u0633\u064a\u0629"}}, {"type": "node", "id": 7882960385, "lat": 36.3491912, "lon": 43.1587697, "tags": {"addr:street": "\u062d\u064a \u0627\u0644\u0646\u0628\u064a \u064a\u0648\u0646\u0633", "amenity": "hospital", "email": "www.mahmoud.ghanim22@yahoo.com", "name": "\u0635\u064a\u062f\u0644\u064a\u0629 \u0627\u0644\u0645\u062d\u0645\u0648\u062f", "opening_hours": "Mo-Su 08:00-20:00"}}, {"type": "node", "id": 7973896685, "lat": 36.377012, "lon": 43.1806455, "tags": {"amenity": "hospital", "name": "\u0627\u0644\u0645\u0631\u0643\u0632 \u0627\u0644\u0637\u0628\u064a \u0627\u0644\u0639\u0627\u0644\u0645\u064a", "name:en": "I.M.C."}}, {"type": "node", "id": 8032791699, "lat": 36.383757, "lon": 43.1973426, "tags": {"amenity": "hospital", "name": "\u0645\u0631\u0643\u0632 \u0635\u062d\u064a \u0627\u0644\u0645\u062d\u0627\u0631\u0628\u064a\u0646"}}, {"type": "node", "id": 8077629519, "lat": 36.3976561, "lon": 43.1901143, "tags": {"addr:street": "\u0634\u0627\u0631\u0639 \u0627\u0644\u0642\u0627\u0647\u0631\u0629", "amenity": "hospital", "name": "\u0645\u062e\u062a\u0628\u0631 \u0627\u0644\u062e\u064a\u0627\u0645 \u0644\u0644\u062a\u062d\u0644\u064a\u0644\u0627\u062a \u0627\u0644\u0645\u0631\u0636\u064a\u0629"}}, {"type": "node", "id": 8118973817, "lat": 36.2815501, "lon": 43.2145251, "tags": {"amenity": "hospital", "name": "\u0627\u0644\u062d\u0644\u0628\u0648\u0633\u064a", "name:ar": "\u0645\u0633\u062a\u0634\u0641\u0649 \u0627\u0644\u062d\u0644\u0628\u0648\u0633\u064a", "name:en": "Al-Halbosi Hospital"}}, {"type": "node", "id": 8198579218, "lat": 36.4281397, "lon": 42.9625364, "tags": {"amenity": "hospital", "name": "\u0645\u0631\u0643\u0632 \u0635\u062d\u064a \u0628\u0627\u062f\u0648\u0634"}}, {"type": "node", "id": 8398987817, "lat": 36.3826224, "lon": 43.1802664, "tags": {"amenity": "hospital", "name": "\u0639\u064a\u0627\u062f\u0629 \u0627\u0644\u062f\u0643\u062a\u0648\u0631 \u0648\u0639\u062f \u0627\u062f\u0631\u064a\u0633"}}, {"type": "node", "id": 8528451521, "lat": 36.3236913, "lon": 43.1855839, "tags": {"amenity": "hospital", "name": "\u0641\u062d\u0635 \u0627\u0644\u0646\u0638\u0631 \u0644\u0625\u062c\u0627\u0632\u0629 \u0627\u0644\u0633\u0648\u0642"}}, {"type": "node", "id": 8679491617, "lat": 36.3275791, "lon": 43.0837517, "tags": {"amenity": "hospital", "name": "\u0645\u0631\u0643\u0632 \u062d\u0633\u064a", "name:ar": "\u0645\u0633\u062a\u0634\u0641\u0649 \u0646\u0627\u0628\u0644\u0633 ( \u0623\u0637\u0628\u0627\u0621 \u0628\u0644\u0627 \u062d\u062f\u0648\u062f)", "name:en": "Nablus Hospital (MSF)"}}, {"type": "node", "id": 8900189317, "lat": 36.3846248, "lon": 43.1745866, "tags": {"amenity": "hospital", "name": "\u0645\u0633\u062a\u0634\u0641\u0649 \u0627\u0644\u0632\u0647\u0631\u0627\u0648\u064a", "name:ar": "\u0645\u0633\u062a\u0634\u0641\u0649 \u0627\u0644\u0632\u0647\u0631\u0627\u0648\u064a \u0627\u0644\u0623\u0647\u0644\u064a", "name:en": "Al-Zahrawi Private Hospital"}}, {"type": "node", "id": 8904346013, "lat": 36.3239944, "lon": 43.1229633}, {"type": "node", "id": 8919801304, "lat": 36.3251441, "lon": 43.1863466, "tags": {"amenity": "hospital", "name:en": "MOSUL HOSPITAL AL-RAZI"}}, {"type": "node", "id": 8919801309, "lat": 36.3403191, "lon": 43.1266594, "tags": {"amenity": "hospital", "name:en": "MOSUL HOSPITAL MOSQUE"}}, {"type": "node", "id": 8922032789, "lat": 36.3332516, "lon": 43.1333877, "tags": {"amenity": "hospital", "name:en": "MOSUL HOSPITAL MATERNITY"}}, {"type": "node", "id": 9139329917, "lat": 36.3282254, "lon": 43.0843994, "tags": {"amenity": "hospital", "name": "\u0645\u0633\u0637\u0634\u0641\u0627", "name:ar": "\u0645\u0633\u062a\u0634\u0641\u06cc \u0646\u0627\u0628\u0644\u0633", "name:en": "Nablus hospital", "name:ku": "\u0646\u06d5\u062e\u06c6\u0634\u062e\u0627\u0646\u06d5\u06cc \u0646\u0627\u0628\u0644\u0648\u0633"}}, {"type": "node", "id": 9223844813, "lat": 36.3712245, "lon": 43.2264354}, {"type": "node", "id": 9223844814, "lat": 36.3711224, "lon": 43.2260679}, {"type": "node", "id": 9223844815, "lat": 36.3707062, "lon": 43.2261634}, {"type": "node", "id": 9223844816, "lat": 36.3707135, "lon": 43.2265238}, {"type": "node", "id": 9798058517, "lat": 36.3858384, "lon": 43.1808053, "tags": {"addr:street": "\u062a\u0642\u0627\u0637\u0639 \u0627\u0644\u0645\u0635\u0627\u0631\u0641", "amenity": "hospital", "name": "\u0645\u062e\u062a\u0628\u0631 \u0644\u064a\u0646 \u0627\u0644\u0637\u0628\u064a", "name:ar": "\u0645\u062e\u062a\u0628\u0631 \u0644\u064a\u0646 \u0627\u0644\u0637\u0628\u064a \u0644\u0644\u062a\u062d\u0644\u064a\u0644\u0627\u062a \u0648\u0627\u0644\u0647\u0631\u0645\u0648\u0646\u0627\u062a", "opening_hours": "Sa 09:00-21:00; Th 15:00-21:00; Su 15:00-21:00; Mo 15:00-21:00; Tu 15:00-21:00; We 15:00-21:00", "phone": "07517090105"}}, {"type": "node", "id": 9822377517, "lat": 36.322103, "lon": 43.0941218, "tags": {"amenity": "hospital", "name": "\u0627\u0645 \u0633\u0645\u0631 \u0644\u0644\u0641\u0642\u0631\u0627\u062a"}}, {"type": "node", "id": 9887597520, "lat": 36.3069597, "lon": 43.0994693, "tags": {"amenity": "hospital"}}, {"type": "node", "id": 10240764873, "lat": 36.3197613, "lon": 43.1893673, "tags": {"amenity": "hospital", "name": "\u0645\u0633\u062a\u0634\u0641\u0649 \u0627\u0644\u0627\u0648\u0631\u0627\u0645 \u0648\u0627\u0644\u0637\u0628 \u0627\u0644\u0646\u0648\u0648\u064a \u0627\u0644\u0628\u062f\u064a\u0644"}}, {"type": "node", "id": 11055045907, "lat": 36.3505885, "lon": 43.1692379, "tags": {"addr:street": "\u0637\u0631\u064a\u0642 \u0623\u0631\u0628\u064a\u0644 - \u0627\u0644\u0645\u0648\u0635\u0644", "amenity": "hospital", "name": "\u0639\u064a\u0627\u062f\u0629 \u062f\u0643\u062a\u0648\u0631\u0629 \u0631\u0627\u0628\u062d\u0629 \u0627\u0644\u0642\u0635\u0627\u0628", "name:en": "Dr. Rabha Al-Qassab clinic", "name:ku": "\u06a9\u0644\u06cc\u0646\u06cc\u06a9\u06cc \u062f\u06a9\u062a\u06c6\u0631\u06d5 \u0631\u0627\u0628\u062d\u0629 \u0627\u0644\u0642\u0635\u0627\u0628", "opening_hours": "Fr-We 13:00-19:00"}}, {"type": "node", "id": 11069897305, "lat": 36.3552158, "lon": 43.117294, "tags": {"amenity": "hospital", "name": "\u0627\u0644\u0628\u062a\u0648\u0644 \u0644\u0644\u062a\u0648\u0644\u064a\u062f", "name:en": "Al Batool"}}, {"type": "way", "id": 308211506, "nodes": [3134993276, 3134993299, 3134993296, 3134993293, 3134993285, 3134993302, 3134993283, 3134993287, 3134993288, 3134993290, 3134993298, 3134993295, 3134993303, 3134993284, 3134993294, 3134993305, 3134993297, 3134993304, 3134993301, 3134993275, 3134993274, 3134993282, 3134993289, 3134993280, 3134993292, 3134993291, 3134993281, 3134993279, 3134993276], "tags": {"amenity": "hospital"}}, {"type": "way", "id": 315833990, "nodes": [3219651726, 3219651727, 3219651728, 3219651729, 3219651730, 3219651731, 3219651732, 3219651733, 8904346013, 3219651726], "tags": {"amenity": "hospital", "name": "Mosul General Hospital", "name:ar": "\u0645\u0633\u062a\u0634\u0641\u0649 \u0627\u0644\u0645\u0648\u0635\u0644 \u0627\u0644\u0639\u0627\u0645", "name:en": "Mosul General Hospital", "name:ku": "\u0646\u06d5\u062e\u06c6\u0634\u062e\u0627\u0646\u06d5\u06cc \u06af\u0634\u062a\u06cc \u0645\u0648\u0633\u06b5", "wikidata": "Q12242629"}}, {"type": "way", "id": 542757661, "nodes": [5247191724, 5247191725, 5247191726, 5247191727, 5247191728, 5247191729, 5247191730, 5247191731, 5247191732, 5247191733, 5247191724], "tags": {"amenity": "hospital", "healthcare": "hospital", "name": "\u0637\u0628\u0627\u0628\u0629 \u0627\u0644\u0648\u0644\u0627\u062f\u0627\u062a \u0648\u0635\u062d\u064a", "name:ar": "\u0637\u0628\u0627\u0628\u0629 \u0627\u0644\u0648\u0644\u0627\u062f\u0627\u062a \u0648\u0635\u062d\u064a"}}, {"type": "way", "id": 999063106, "nodes": [9223844813, 9223844814, 9223844815, 9223844816, 9223844813], "tags": {"amenity": "hospital", "healthcare": "hospital"}}]}