{"version": 0.6, "generator": "Overpass API 0.7.61.5 4133829e", "osm3s": {"timestamp_osm_base": "2024-03-05T13:38:43Z", "copyright": "The data included in this document is from www.openstreetmap.org. The data is made available under ODbL."}, "elements": [{"type": "node", "id": 4628631282, "lat": 34.4555866, "lon": 65.9525382, "tags": {"amenity": "hospital", "healthcare": "hospital", "name": "Garam Ab Health Facility"}}, {"type": "node", "id": 8609467928, "lat": 34.1948258, "lon": 65.8170731, "tags": {"amenity": "clinic", "name:en": "Bandar comperhensive Health center", "name:fa": "\u0645\u0631\u06a9\u0632 \u0635\u062d\u06cc \u062c\u0627\u0645\u0639 \u0628\u0646\u062f\u0631 - \u06a9\u0644\u06cc\u0646\u06cc\u06a9 \u0628\u0646\u062f\u0631"}}, {"type": "node", "id": 8609468321, "lat": 34.1801556, "lon": 65.9344826, "tags": {"amenity": "clinic", "name:en": "Mirasi primary Health center", "name:fa": "\u0645\u0631\u06a9\u0632 \u0635\u062d\u06cc \u0641\u0631\u0639\u06cc \u0645\u06cc\u0631\u0627\u062b\u06cc - \u06a9\u0644\u06cc\u0646\u06cc\u06a9 \u0645\u06cc\u0631\u0627\u062b\u06cc"}}, {"type": "node", "id": 8609471417, "lat": 34.2591088, "lon": 66.1293095, "tags": {"amenity": "clinic", "name:en": "Sangtakht comperhensive Health Center", "name:fa": "\u0645\u0631\u06a9\u0632 \u0635\u062d\u06cc \u062c\u0627\u0645\u0639 \u067e\u06cc\u0634\u0631\u0641\u062a\u0647 \u0633\u0646\u06af\u062a\u062e\u062a - \u06a9\u0644\u06cc\u0646\u06cc\u06a9 \u0633\u0646\u06af\u062a\u062e\u062a"}}]}