{"version": 0.6, "generator": "Overpass API 0.7.61.5 4133829e", "osm3s": {"timestamp_osm_base": "2024-03-06T11:04:23Z", "copyright": "The data included in this document is from www.openstreetmap.org. The data is made available under ODbL."}, "elements": [{"type": "node", "id": 3992001157, "lat": 1.845498, "lon": 34.6846253, "tags": {"addr:city": "Lodoket Angitome", "addr:county": "Chekwii", "addr:district": "Nakapiripirit", "addr:parish": "Tokora", "addr:subcounty": "Kakomongole", "amenity": "school", "isced:level": "1", "name": "Lodoketangthome Primary School", "source": "www.ubos.org", "source:date": "2010..2014", "wikidata": "Q22811354"}}, {"type": "node", "id": 3992001158, "lat": 1.8911816, "lon": 34.7589559, "tags": {"addr:city": "Kopeduru", "addr:county": "Chekwii", "addr:district": "Nakapiripirit", "addr:parish": "Mourita", "addr:subcounty": "Mourita", "amenity": "school", "isced:level": "1", "name": "Mourita Primary School", "source": "www.ubos.org", "source:date": "2010..2014", "wikidata": "Q22811353"}}, {"type": "node", "id": 3992001160, "lat": 1.8350644, "lon": 34.713015, "tags": {"addr:city": "Lorengedwat", "addr:county": "Chekwii", "addr:district": "Nakapiripirit", "addr:parish": "Namorotot", "addr:subcounty": "Kakomongole", "amenity": "school", "isced:level": "2;3;4", "name": "Nakapiripirit Seed Secondary School", "source": "www.ubos.org", "source:date": "2010..2014", "wikidata": "Q22811355"}}, {"type": "node", "id": 3992001163, "lat": 1.8542374, "lon": 34.6604868, "tags": {"addr:city": "Lopeduru", "addr:county": "Chekwii", "addr:district": "Nakapiripirit", "addr:parish": "Okwapon", "addr:subcounty": "Kakomongole", "amenity": "school", "isced:level": "1", "name": "Okwapon Primary School", "operator:type": "public", "source": "www.ubos.org", "source:date": "2010..2014", "wikidata": "Q22811356"}}, {"type": "node", "id": 3992001164, "lat": 1.7578241, "lon": 34.7763344, "tags": {"addr:district": "Nakapiripirit", "amenity": "school", "name": "Primary School", "source": "www.ubos.org", "source:date": "2010..2014"}}, {"type": "node", "id": 3992001165, "lat": 1.8255478, "lon": 34.6831014, "tags": {"addr:district": "Nakapiripirit", "amenity": "school", "name": "Primary School", "source": "www.ubos.org", "source:date": "2010..2014"}}, {"type": "node", "id": 3992001166, "lat": 1.8452158, "lon": 34.6614475, "tags": {"addr:city": "Tokora Trc", "addr:county": "Chekwii", "addr:district": "Nakapiripirit", "addr:parish": "Tokora", "addr:subcounty": "Kakomongole", "amenity": "school", "isced:level": "1", "name": "Tokora Primary School", "operator:type": "public", "source": "www.ubos.org", "source:date": "2010..2014", "wikidata": "Q22811357"}}, {"type": "node", "id": 3998809270, "lat": 1.8533357, "lon": 34.7261055, "tags": {"addr:city": "Katanga", "addr:county": "Chekwii", "addr:district": "Nakapiripirit", "addr:parish": "Katanga Ward", "addr:subcounty": "Nakapiripirit Town Council", "amenity": "school", "isced:level": "1", "name": "Nakapiripirit Primary School", "operator:type": "public", "source": "www.ubos.org", "source:date": "2010..2014", "wikidata": "Q22811358"}}, {"type": "node", "id": 3998809272, "lat": 1.8521933, "lon": 34.7308542, "tags": {"addr:city": "Nakoo", "addr:county": "Chekwii", "addr:district": "Nakapiripirit", "addr:parish": "Mourita", "addr:subcounty": "Mourita", "amenity": "school", "name": "Nakapiripirit Vocational School", "source": "www.ubos.org", "source:date": "2010..2014", "wikidata": "Q22811359"}}, {"type": "node", "id": 3998809273, "lat": 1.8303878, "lon": 34.7194672, "tags": {"addr:city": "Lorengedwat", "addr:county": "Chekwii", "addr:district": "Nakapiripirit", "addr:parish": "Namorotot", "addr:subcounty": "Kakomongole", "amenity": "school", "isced:level": "1", "name": "Namorotot Primary School", "source": "www.ubos.org", "source:date": "2010..2014", "wikidata": "Q22811352"}}, {"type": "node", "id": 4010734902, "lat": 1.8858905, "lon": 34.6094918, "tags": {"addr:city": "Looi", "addr:county": "Chekwii", "addr:district": "Nakapiripirit", "addr:parish": "Akuyam", "addr:subcounty": "Kakomongole", "amenity": "school", "isced:level": "1", "name": "Akuyam Primary School", "source": "www.ubos.org", "source:date": "2010..2014", "wikidata": "Q22811823"}}, {"type": "node", "id": 4010734903, "lat": 1.837489, "lon": 34.6168666, "tags": {"addr:city": "Alamacar", "addr:county": "Chekwii", "addr:district": "Nakapiripirit", "addr:parish": "Nakaale", "addr:subcounty": "Loregae", "amenity": "school", "isced:level": "1", "name": "Alamacal Primary School", "operator:type": "public", "source": "www.ubos.org", "source:date": "2010..2014", "wikidata": "Q22811821"}}, {"type": "node", "id": 4010734904, "lat": 1.8416724, "lon": 34.5107411, "tags": {"addr:city": "Kobeyon", "addr:county": "Chekwii", "addr:district": "Nakapiripirit", "addr:parish": "Loreng", "addr:subcounty": "Loregae", "amenity": "school", "isced:level": "1", "name": "Kobeyon Primary School", "operator:type": "public", "source": "www.ubos.org", "source:date": "2010..2014", "wikidata": "Q22811822"}}, {"type": "node", "id": 4010734905, "lat": 1.902915, "lon": 34.5680256, "tags": {"addr:city": "Lokadwaran", "addr:county": "Chekwii", "addr:district": "Nakapiripirit", "addr:parish": "Nabolis", "addr:subcounty": "Kakomongole", "amenity": "school", "isced:level": "1", "name": "Lokadwaran Primary School", "source": "www.ubos.org", "source:date": "2010..2014", "wikidata": "Q22811819"}}, {"type": "node", "id": 4010734906, "lat": 1.8019779, "lon": 34.5818919, "tags": {"addr:city": "Lokiyengunet West", "addr:county": "Chekwii", "addr:district": "Nakapiripirit", "addr:parish": "Lokatapan", "addr:subcounty": "Namalu", "amenity": "school", "fixme": "Please, check the position of the node", "isced:level": "1", "name": "Lokiyengunet Primary School", "source": "www.ubos.org", "source:date": "2010..2014", "wikidata": "Q22811820"}}, {"type": "node", "id": 4010734907, "lat": 1.8328411, "lon": 34.5570479, "tags": {"addr:city": "Nabulengere", "addr:county": "Chekwii", "addr:district": "Nakapiripirit", "addr:parish": "Loasam", "addr:subcounty": "Loregae", "amenity": "school", "isced:level": "1", "name": "Lolele Primary School", "operator:type": "public", "source": "www.ubos.org", "source:date": "2010..2014", "wikidata": "Q22811817"}}, {"type": "node", "id": 4010734908, "lat": 1.7967233, "lon": 34.6266972, "tags": {"addr:city": "Lolelia-arengan", "addr:county": "Chekwii", "addr:district": "Nakapiripirit", "addr:parish": "Kokuwaun", "addr:subcounty": "Namalu", "amenity": "school", "isced:level": "1", "name": "Lolelia-ariengan Primary School", "operator:type": "public", "source": "www.ubos.org", "source:date": "2010..2014", "wikidata": "Q22811818"}}, {"type": "node", "id": 4010734909, "lat": 1.8841751, "lon": 34.4862957, "tags": {"addr:city": "Akwakari", "addr:county": "Chekwii", "addr:district": "Nakapiripirit", "addr:parish": "Loreng", "addr:subcounty": "Loregae", "amenity": "school", "isced:level": "1", "name": "Lomunyan Primary School", "source": "www.ubos.org", "source:date": "2010..2014", "wikidata": "Q22811815"}}, {"type": "node", "id": 4010734910, "lat": 1.7714223, "lon": 34.5283279, "tags": {"addr:city": "Lomorunyange", "addr:county": "Chekwii", "addr:district": "Nakapiripirit", "addr:parish": "Lokatapan", "addr:subcounty": "Namalu", "amenity": "school", "isced:level": "1", "name": "Lomurunyange Primary School", "source": "www.ubos.org", "source:date": "2010..2014", "wikidata": "Q22811816"}}, {"type": "node", "id": 4010734911, "lat": 1.917536, "lon": 34.5027172, "tags": {"addr:city": "Natirae", "addr:county": "Pian", "addr:district": "Nakapiripirit", "addr:parish": "Natirae", "addr:subcounty": "Lolachat", "amenity": "school", "name": "Nakala Learning Centre", "operator:type": "public", "source": "www.ubos.org", "source:date": "2010..2014", "wikidata": "Q22811813"}}, {"type": "node", "id": 4010734912, "lat": 1.7919647, "lon": 34.6009944, "tags": {"addr:city": "Namalu Trc South", "addr:county": "Chekwii", "addr:district": "Nakapiripirit", "addr:parish": "Kokuwaun", "addr:subcounty": "Namalu", "amenity": "school", "isced:level": "1", "name": "Namalu Primary School", "source": "www.ubos.org", "source:date": "2010..2014", "wikidata": "Q22811814"}}, {"type": "node", "id": 4010734913, "lat": 1.838039, "lon": 34.5894935, "tags": {"addr:district": "Nakapiripirit", "amenity": "school", "isced:level": "2;3;4", "name": "Namalu Seed Secondary School", "source": "www.ubos.org", "source:date": "2010..2014", "wikidata": "Q22811811"}}, {"type": "node", "id": 4010734914, "lat": 1.8671567, "lon": 34.6122613, "tags": {"addr:city": "Nakasian", "addr:county": "Chekwii", "addr:district": "Nakapiripirit", "addr:parish": "Nakaale", "addr:subcounty": "Loregae", "amenity": "school", "isced:level": "2;3;4", "name": "Namalu Seed Secondary School", "source": "www.ubos.org", "source:date": "2010..2014", "wikidata": "Q22811812"}}, {"type": "node", "id": 4010734915, "lat": 1.8688, "lon": 34.5848012, "tags": {"addr:city": "Naturum", "addr:county": "Chekwii", "addr:district": "Nakapiripirit", "addr:parish": "Naturum", "addr:subcounty": "Loregae", "amenity": "school", "isced:level": "1", "name": "Napienanya Primary School", "operator:type": "public", "source": "www.ubos.org", "source:date": "2010..2014", "wikidata": "Q22811809"}}, {"type": "node", "id": 4010734916, "lat": 1.9246417, "lon": 34.4983688, "tags": {"addr:city": "Natirae", "addr:county": "Pian", "addr:district": "Nakapiripirit", "addr:parish": "Natirae", "addr:subcounty": "Lolachat", "amenity": "school", "name": "Napuna Learning Centre", "operator:type": "public", "source": "www.ubos.org", "source:date": "2010..2014", "wikidata": "Q22811810"}}, {"type": "node", "id": 4010734917, "lat": 1.9172399, "lon": 34.5160654, "tags": {"addr:city": "Natirae", "addr:county": "Pian", "addr:district": "Nakapiripirit", "addr:parish": "Natirae", "addr:subcounty": "Lolachat", "amenity": "school", "isced:level": "1", "name": "Natirae Primary School", "source": "www.ubos.org", "source:date": "2010..2014", "wikidata": "Q22811807"}}, {"type": "node", "id": 4010734918, "lat": 1.7632784, "lon": 34.5659457, "tags": {"addr:city": "Oayalira", "addr:county": "Chekwii", "addr:district": "Nakapiripirit", "addr:parish": "Loperot", "addr:subcounty": "Namalu", "amenity": "school", "isced:level": "1", "name": "Oayalira Primary School", "source": "www.ubos.org", "source:date": "2010..2014", "wikidata": "Q22811808"}}, {"type": "node", "id": 4010734919, "lat": 1.7795848, "lon": 34.5862554, "tags": {"addr:district": "Nakapiripirit", "amenity": "school", "fixme": "Please, check the position of the node", "name": "Primary School", "source": "www.ubos.org", "source:date": "2010..2014"}}, {"type": "node", "id": 4010734920, "lat": 1.7858935, "lon": 34.5983203, "tags": {"addr:district": "Nakapiripirit", "amenity": "school", "fixme": "Please, check the position of the node", "name": "Primary School", "source": "www.ubos.org", "source:date": "2010..2014"}}, {"type": "node", "id": 4010734921, "lat": 1.8200358, "lon": 34.5903864, "tags": {"addr:district": "Nakapiripirit", "amenity": "school", "fixme": "Please, check the position of the node", "name": "Primary School", "source": "www.ubos.org", "source:date": "2010..2014"}}, {"type": "node", "id": 4010734922, "lat": 1.8694423, "lon": 34.5615508, "tags": {"addr:district": "Nakapiripirit", "amenity": "school", "fixme": "Please, check the position of the node", "name": "Primary School", "source": "www.ubos.org", "source:date": "2010..2014"}}, {"type": "node", "id": 4010734923, "lat": 1.8739325, "lon": 34.5140723, "tags": {"addr:district": "Nakapiripirit", "amenity": "school", "fixme": "Please, check the position of the node", "name": "Primary School", "source": "www.ubos.org", "source:date": "2010..2014"}}, {"type": "node", "id": 4010734924, "lat": 1.900619, "lon": 34.5436847, "tags": {"addr:district": "Nakapiripirit", "amenity": "school", "fixme": "Please, check the position of the node", "name": "Primary School", "source": "www.ubos.org", "source:date": "2010..2014"}}, {"type": "node", "id": 4010734925, "lat": 1.7614852, "lon": 34.6173649, "tags": {"addr:city": "Production", "addr:county": "Chekwii", "addr:district": "Nakapiripirit", "addr:parish": "Kokuwaun", "addr:subcounty": "Namalu", "amenity": "school", "isced:level": "1", "name": "Prison Primary School", "source": "www.ubos.org", "source:date": "2010..2014", "wikidata": "Q22811806"}}, {"type": "node", "id": 4010767473, "lat": 1.7505459, "lon": 34.6369789, "tags": {"addr:city": "Naabore A", "addr:county": "Chekwii", "addr:district": "Nakapiripirit", "addr:parish": "Kaiku", "addr:subcounty": "Namalu", "amenity": "school", "isced:level": "1", "name": "Naabore Primary School", "source": "www.ubos.org", "source:date": "2010..2014", "wikidata": "Q22811498"}}, {"type": "node", "id": 4010792861, "lat": 1.9848248, "lon": 34.5096538, "tags": {"addr:city": "Domoye", "addr:county": "Pian", "addr:district": "Nakapiripirit", "addr:parish": "Lorukumo", "addr:subcounty": "Lolachat", "amenity": "school", "isced:level": "1", "name": "Domoye Primary School", "source": "www.ubos.org", "source:date": "2010..2014", "wikidata": "Q22811654"}}, {"type": "node", "id": 4010792862, "lat": 1.9687796, "lon": 34.4890904, "tags": {"addr:city": "Nathinyonoit", "addr:county": "Pian", "addr:district": "Nakapiripirit", "addr:parish": "Sakale", "addr:subcounty": "Lolachat", "amenity": "school", "name": "Fal Education Centre", "operator:type": "public", "source": "www.ubos.org", "source:date": "2010..2014", "wikidata": "Q22811653"}}, {"type": "node", "id": 4010792864, "lat": 1.9349998, "lon": 34.5587896, "tags": {"addr:district": "Nakapiripirit", "amenity": "school", "isced:level": "1", "name": "Lolachat Primary School", "source": "www.ubos.org", "source:date": "2010..2014", "wikidata": "Q22811651"}}, {"type": "node", "id": 4010792865, "lat": 2.0011323, "lon": 34.5174498, "tags": {"addr:city": "Losimit", "addr:county": "Pian", "addr:district": "Nakapiripirit", "addr:parish": "Kalokwameri", "addr:subcounty": "Nabilatuk", "amenity": "school", "isced:level": "1", "name": "Lorukumo Primary School", "source": "www.ubos.org", "source:date": "2010..2014", "wikidata": "Q22811650"}}, {"type": "node", "id": 4010792866, "lat": 1.9718055, "lon": 34.5308868, "tags": {"addr:city": "Ngurakadong", "addr:county": "Pian", "addr:district": "Nakapiripirit", "addr:parish": "Nakuri", "addr:subcounty": "Lolachat", "amenity": "school", "isced:level": "1", "name": "Nakuri Primary School", "source": "www.ubos.org", "source:date": "2010..2014", "wikidata": "Q22811649"}}, {"type": "node", "id": 4010792867, "lat": 2.0184988, "lon": 34.5404131, "tags": {"addr:city": "Napongae North", "addr:county": "Pian", "addr:district": "Nakapiripirit", "addr:parish": "Kalokwameri", "addr:subcounty": "Nabilatuk", "amenity": "school", "isced:level": "1", "name": "Napongae North Primary School", "source": "www.ubos.org", "source:date": "2010..2014", "wikidata": "Q22811648"}}, {"type": "node", "id": 4010792868, "lat": 1.9939373, "lon": 34.5603199, "tags": {"addr:city": "Natapararengan", "addr:county": "Pian", "addr:district": "Nakapiripirit", "addr:parish": "Nakobekobe", "addr:subcounty": "Nabilatuk", "amenity": "school", "isced:level": "1", "name": "Natapararengan Primary School", "source": "www.ubos.org", "source:date": "2010..2014", "wikidata": "Q22811647"}}, {"type": "node", "id": 4010792870, "lat": 1.9804921, "lon": 34.4885803, "tags": {"addr:city": "Lopeduru", "addr:county": "Pian", "addr:district": "Nakapiripirit", "addr:parish": "Sakale", "addr:subcounty": "Lolachat", "amenity": "school", "isced:level": "1", "name": "Sakale Primary School", "operator:type": "public", "source": "www.ubos.org", "source:date": "2010..2014", "wikidata": "Q22811644"}}, {"type": "node", "id": 10886219133, "lat": 1.8671955, "lon": 34.611873}, {"type": "node", "id": 10886219134, "lat": 1.867349, "lon": 34.6124157}, {"type": "node", "id": 10886219135, "lat": 1.8666121, "lon": 34.6124311}, {"type": "node", "id": 10886219136, "lat": 1.8665149, "lon": 34.6120164}, {"type": "way", "id": 1171545246, "nodes": [10886219133, 10886219134, 10886219135, 10886219136, 10886219133], "tags": {"amenity": "school", "building": "school", "name": "Nakaale Primary School"}}]}