{"version": 0.6, "generator": "Overpass API 0.7.61.5 4133829e", "osm3s": {"timestamp_osm_base": "2024-03-05T13:38:43Z", "copyright": "The data included in this document is from www.openstreetmap.org. The data is made available under ODbL."}, "elements": [{"type": "node", "id": 312595265, "lat": 36.6621313, "lon": 65.761167, "tags": {"alt_name": "Shebergh\u0101n;Shaburgh\u0101n;Shebirghan;Shibarghan", "capital": "4", "ele": "335", "int_name": "Sheberghan", "is_in:country": "Afghanistan", "is_in:country_code": "AF", "is_in:state": "Jowzjan Province", "name": "\u0634\u0628\u0631\u063a\u0627\u0646", "name:ar": "\u0634\u0628\u0631\u063a\u0627\u0646", "name:ast": "Sibarg\u00e1n", "name:cs": "\u0160ebergh\u00e1n", "name:de": "Scheberghan", "name:el": "\u03a3\u03b9\u03bc\u03c0\u03b1\u03c1\u03b3\u03ba\u03ac\u03bd", "name:en": "Sheberghan", "name:es": "Sibarg\u00e1n", "name:et": "Shebergh\u0101n", "name:fa": "\u0634\u0628\u0631\u063a\u0627\u0646", "name:fr": "Ch\u00e9bergh\u00e2n", "name:hi": "\u0936\u092c\u0930\u0917\u093c\u093e\u0928", "name:ja": "\u30b7\u30a7\u30d9\u30eb\u30ac\u30fc\u30f3", "name:ko": "\uc2dc\ubc14\ub974\uac04", "name:ps": "\u0634\u0628\u0631\u063a\u0627\u0646", "name:ru": "\u0428\u0438\u0431\u0438\u0440\u0433\u0430\u043d", "name:tr": "\u015eibirgan", "name:uk": "\u0428\u0435\u0431\u0430\u0440\u0491\u0430\u043d", "name:uz": "Shibirg\u02bbon", "name:zh": "\u5e0c\u6bd4\u5c14\u7518/\u5e0c\u6bd4\u723e\u7518", "name:zh-Hans": "\u5e0c\u6bd4\u5c14\u7518", "name:zh-Hant": "\u5e0c\u6bd4\u723e\u7518", "place": "city", "population": "60000", "source": "wikipedia", "wikidata": "Q838954", "wikipedia": "en:Sheberghan"}}, {"type": "node", "id": 4393739935, "lat": 36.716026, "lon": 65.638412, "tags": {"alt_name": "Lab-i-Jar-i-Taghan", "name": "\u0644\u0628 \u062c\u0631 \u062a\u063a\u0646", "name:en": "Lab-e Jar-e Taghan", "name:ps": "\u0644\u0628 \u062c\u0631 \u062a\u063a\u0646", "place": "village", "source:name": "GNS"}}, {"type": "node", "id": 4393739941, "lat": 36.71162, "lon": 65.697418, "tags": {"name": "\u0634\u0648\u0628\u06cc", "name:en": "Shobai", "name:ps": "\u0634\u0648\u0628\u06cc", "place": "village", "source:name": "GNS"}}, {"type": "node", "id": 4393739942, "lat": 36.72625, "lon": 65.666405, "tags": {"name": "\u062a\u063a\u0646", "name:en": "Taghan", "name:ps": "\u062a\u063a\u0646", "place": "village", "source:name": "GNS"}}, {"type": "node", "id": 8777059720, "lat": 36.6892332, "lon": 65.7699108, "tags": {"place": "village"}}]}