{"version": 0.6, "generator": "Overpass API 0.7.61.5 4133829e", "osm3s": {"timestamp_osm_base": "2024-02-29T13:48:25Z", "copyright": "The data included in this document is from www.openstreetmap.org. The data is made available under ODbL."}, "elements": [{"type": "node", "id": 4728035582, "lat": 5.8278811, "lon": -2.8245225}, {"type": "node", "id": 4728035583, "lat": 5.8279905, "lon": -2.8242703}, {"type": "node", "id": 4728035584, "lat": 5.8278847, "lon": -2.824224}, {"type": "node", "id": 4728035585, "lat": 5.8277753, "lon": -2.8244761}, {"type": "node", "id": 4728036099, "lat": 5.8281535, "lon": -2.8237522}, {"type": "node", "id": 4728036100, "lat": 5.828092, "lon": -2.8237175}, {"type": "node", "id": 4728036600, "lat": 5.8279304, "lon": -2.8240065}, {"type": "node", "id": 4728036601, "lat": 5.8281906, "lon": -2.8236858}, {"type": "node", "id": 4728036602, "lat": 5.8280394, "lon": -2.8236003}, {"type": "node", "id": 4728036603, "lat": 5.8278406, "lon": -2.8239557}, {"type": "node", "id": 5310766883, "lat": 5.8261065, "lon": -2.8256338}, {"type": "node", "id": 5310766884, "lat": 5.8261579, "lon": -2.8252438}, {"type": "node", "id": 5310766886, "lat": 5.8262176, "lon": -2.8256485}, {"type": "node", "id": 5555101138, "lat": 5.6113679, "lon": -2.5697708, "tags": {"amenity": "school", "name": "Samreboi Basic School"}}, {"type": "node", "id": 5602234051, "lat": 5.6107779, "lon": -2.5624591, "tags": {"amenity": "school", "name": "Samartex Prepatory School"}}, {"type": "node", "id": 5875284234, "lat": 5.6156842, "lon": -2.5619334, "tags": {"amenity": "school"}}, {"type": "node", "id": 6528048289, "lat": 5.8159323, "lon": -2.4412528}, {"type": "node", "id": 6528349192, "lat": 5.8072333, "lon": -2.4358696, "tags": {"amenity": "school", "min_age": "4", "name": "Buadum D/C A Pri/Jhs School", "wheelchair": "no"}}, {"type": "node", "id": 6597058401, "lat": 5.8262129, "lon": -2.8248301}, {"type": "node", "id": 6597058402, "lat": 5.8262988, "lon": -2.8248393}, {"type": "node", "id": 6597058404, "lat": 5.8261909, "lon": -2.8250373}, {"type": "node", "id": 8008056926, "lat": 5.8259886, "lon": -2.8225135, "tags": {"amenity": "school", "name": "Presbyterian JHS"}}, {"type": "node", "id": 8008105378, "lat": 5.8261446, "lon": -2.8222152, "tags": {"amenity": "school", "name": "Presbyterian Basic School"}}, {"type": "node", "id": 8008105379, "lat": 5.8267467, "lon": -2.820251, "tags": {"amenity": "school", "name": "Roman Catholic JHS"}}, {"type": "node", "id": 8008112049, "lat": 5.827314, "lon": -2.8199915, "tags": {"amenity": "school", "name": "Roman Catholic Primary School"}}, {"type": "node", "id": 8011439568, "lat": 5.8262689, "lon": -2.8252586}, {"type": "node", "id": 8011463489, "lat": 5.8262768, "lon": -2.8250465}, {"type": "node", "id": 8023649418, "lat": 5.823622, "lon": -2.8259634, "tags": {"addr:street": "Allubulu Street", "amenity": "school", "name": "Prince of Peace International School"}}, {"type": "node", "id": 8034232126, "lat": 5.8140821, "lon": -2.8301061, "tags": {"amenity": "school", "name": "Anna Educational Complex"}}, {"type": "node", "id": 8034241359, "lat": 5.8165453, "lon": -2.8289634, "tags": {"amenity": "school", "name": "S.D.A School"}}, {"type": "node", "id": 8045312335, "lat": 5.8141792, "lon": -2.8225717}, {"type": "node", "id": 8045342014, "lat": 5.835762, "lon": -2.8447372, "tags": {"amenity": "school", "name": "Jensue M/A Primary School"}}, {"type": "node", "id": 8045353695, "lat": 5.8360761, "lon": -2.844777, "tags": {"amenity": "school", "name": "Jensue M/A JHS"}}, {"type": "node", "id": 8075799617, "lat": 5.8262481, "lon": -2.8249384, "tags": {"addr:street": "Ngya Effuen Link", "amenity": "school", "name": "Methodist Junior High School"}}, {"type": "node", "id": 8095191436, "lat": 5.8250767, "lon": -2.8271699, "tags": {"amenity": "school", "name": "Great St. Peter's Academy School"}}, {"type": "node", "id": 8105355500, "lat": 5.8247603, "lon": -2.826476, "tags": {"amenity": "school", "name": "Great Saint Peter's Academy JHS"}}, {"type": "node", "id": 8118525907, "lat": 5.7811985, "lon": -2.659553, "tags": {"amenity": "school", "name": "Yiwabra Nkwanta M/A JHS"}}, {"type": "node", "id": 8118526081, "lat": 5.7827292, "lon": -2.7165684, "tags": {"amenity": "school", "name": "Anglican Basic School"}}, {"type": "node", "id": 8118542340, "lat": 5.7944186, "lon": -2.694956, "tags": {"amenity": "school"}}, {"type": "node", "id": 8118550127, "lat": 5.7603513, "lon": -2.6622459, "tags": {"amenity": "school"}}, {"type": "node", "id": 8118550128, "lat": 5.7808693, "lon": -2.6594701, "tags": {"amenity": "school", "name": "Yiwabra Nkwanta M/A Basic School"}}, {"type": "node", "id": 8118552166, "lat": 5.7582734, "lon": -2.6618798, "tags": {"amenity": "school"}}, {"type": "node", "id": 8121707994, "lat": 5.7745812, "lon": -2.7890199, "tags": {"amenity": "school", "name": "Kramokrom R/C JHS", "operator": "government", "wheelchair": "yes"}}, {"type": "node", "id": 8121708011, "lat": 5.7750002, "lon": -2.7894598, "tags": {"amenity": "school", "isced:level": "0", "name": "Kramokrom R/C Basic School", "operator": "government", "wheelchair": "yes"}}, {"type": "node", "id": 8121723523, "lat": 5.7694121, "lon": -2.7847499, "tags": {"amenity": "school", "name": "Lucky Star School"}}, {"type": "node", "id": 8122586033, "lat": 5.8147983, "lon": -2.8230813}, {"type": "node", "id": 8122586034, "lat": 5.8142005, "lon": -2.8229767}, {"type": "node", "id": 8122586035, "lat": 5.8143099, "lon": -2.8218421}, {"type": "node", "id": 8122586036, "lat": 5.8148916, "lon": -2.821826}, {"type": "node", "id": 8122586037, "lat": 5.8152465, "lon": -2.8220111}, {"type": "node", "id": 8122586038, "lat": 5.8152119, "lon": -2.8227326}, {"type": "node", "id": 8122586039, "lat": 5.8151318, "lon": -2.8230277}, {"type": "node", "id": 8122586100, "lat": 5.8116575, "lon": -2.8242293}, {"type": "node", "id": 8122586101, "lat": 5.8119873, "lon": -2.8241108}, {"type": "node", "id": 8122586102, "lat": 5.8123516, "lon": -2.8240621}, {"type": "node", "id": 8122586103, "lat": 5.8128848, "lon": -2.8241503}, {"type": "node", "id": 8122586104, "lat": 5.8127569, "lon": -2.8256348}, {"type": "node", "id": 8122586105, "lat": 5.8126689, "lon": -2.8259513}, {"type": "node", "id": 8122586106, "lat": 5.8123527, "lon": -2.8260197}, {"type": "node", "id": 8122586107, "lat": 5.8120282, "lon": -2.8261061}, {"type": "node", "id": 8122586108, "lat": 5.8117183, "lon": -2.8262142}, {"type": "node", "id": 8122586109, "lat": 5.8114841, "lon": -2.8265144}, {"type": "node", "id": 8122586110, "lat": 5.8108541, "lon": -2.8272879}, {"type": "node", "id": 8122586111, "lat": 5.810406, "lon": -2.8267881}, {"type": "node", "id": 8122586112, "lat": 5.8100752, "lon": -2.8263053}, {"type": "node", "id": 8122586113, "lat": 5.8096986, "lon": -2.8257849}, {"type": "node", "id": 8122586114, "lat": 5.8104461, "lon": -2.8250823}, {"type": "node", "id": 8122586115, "lat": 5.8111158, "lon": -2.8245083}, {"type": "node", "id": 8172169049, "lat": 5.8238885, "lon": -2.8194168, "tags": {"amenity": "school", "name": "Commey Memorial JHS"}}, {"type": "node", "id": 8172169050, "lat": 5.8239811, "lon": -2.8197846, "tags": {"amenity": "school", "name": "Commey Memorial JHS"}}, {"type": "node", "id": 8172189891, "lat": 5.823882, "lon": -2.8190206, "tags": {"amenity": "school", "name": "Commey Memorial Primary"}}, {"type": "node", "id": 8172249054, "lat": 5.8242251, "lon": -2.81998, "tags": {"amenity": "school", "name": "Commey Memorial Primary"}}, {"type": "node", "id": 8250742777, "lat": 5.7358612, "lon": -2.7726343, "tags": {"amenity": "school", "wheelchair": "yes"}}, {"type": "node", "id": 8358986847, "lat": 5.7912929, "lon": -2.6932353, "tags": {"amenity": "school", "name": "Asafoaky\u025b M/A Basic School"}}, {"type": "node", "id": 8358997616, "lat": 5.7729469, "lon": -2.7559295, "tags": {"amenity": "school"}}, {"type": "node", "id": 8359005003, "lat": 5.7915771, "lon": -2.6928073, "tags": {"amenity": "school", "name": "Asafoaky\u025b M/A JHS"}}, {"type": "node", "id": 8460780856, "lat": 5.817639, "lon": -2.8239308, "tags": {"amenity": "school", "name": "Anglican Basic School"}}, {"type": "node", "id": 8462712475, "lat": 5.8172997, "lon": -2.8239282, "tags": {"amenity": "school", "name": "Anglican JHS"}}, {"type": "node", "id": 9501905650, "lat": 5.8070486, "lon": -2.8356742, "tags": {"amenity": "school", "name": "Bencon Royal International School"}}, {"type": "node", "id": 9544018627, "lat": 5.8271467, "lon": -2.828715, "tags": {"amenity": "school", "name": "VICAF School"}}, {"type": "node", "id": 9856134959, "lat": 5.8161405, "lon": -2.4396032}, {"type": "node", "id": 9856134960, "lat": 5.816007, "lon": -2.4391687}, {"type": "node", "id": 9856134961, "lat": 5.8157509, "lon": -2.4390882}, {"type": "node", "id": 9856134962, "lat": 5.81439, "lon": -2.4391848}, {"type": "node", "id": 9856134963, "lat": 5.8143606, "lon": -2.4401075}, {"type": "node", "id": 9856134964, "lat": 5.8144514, "lon": -2.4411535}, {"type": "node", "id": 9971216798, "lat": 5.8214488, "lon": -2.82974, "tags": {"amenity": "school", "contact:phone": "+233 242879842; +233 502164529", "name": "Church of Christ International School"}}, {"type": "node", "id": 10066996582, "lat": 5.776041, "lon": -2.4732659, "tags": {"amenity": "school"}}, {"type": "node", "id": 10647794389, "lat": 5.7733364, "lon": -2.7451495, "tags": {"amenity": "school", "name": "Abokyea M/A JHS"}}, {"type": "node", "id": 10647806777, "lat": 5.7739708, "lon": -2.7454456, "tags": {"amenity": "school", "name": "Abokyea Methodist Primary"}}, {"type": "node", "id": 10650739171, "lat": 5.7841108, "lon": -2.7333311, "tags": {"amenity": "school", "name": "St. Peter's Academy"}}, {"type": "node", "id": 11350252529, "lat": 5.5135208, "lon": -2.732238, "tags": {"amenity": "school"}}, {"type": "way", "id": 479755273, "nodes": [4728035585, 4728035582, 4728035583, 4728035584, 4728035585], "tags": {"addr:street": "Tanoku Avenue", "amenity": "school", "building": "yes", "name": "Enchico Experimental JHS"}}, {"type": "way", "id": 479755321, "nodes": [4728036603, 4728036600, 4728036100, 4728036099, 4728036601, 4728036602, 4728036603], "tags": {"addr:street": "Tanoku Avenue", "amenity": "school", "building": "yes", "name": "Enchico Demonstration Primary"}}, {"type": "way", "id": 549791186, "nodes": [5310766886, 8011439568, 5310766884, 5310766883, 5310766886], "tags": {"addr:street": "Ngya Effuen Link", "amenity": "school", "building": "yes", "name": "Methodist Basic School"}}, {"type": "way", "id": 702497055, "nodes": [6597058404, 8011463489, 6597058402, 6597058401, 6597058404], "tags": {"amenity": "school", "building": "yes", "name": "Methodist JHS"}}, {"type": "way", "id": 872069310, "nodes": [8122586039, 8122586038, 8122586037, 8122586036, 8122586035, 8045312335, 8122586034, 8122586033, 8122586039], "tags": {"amenity": "school", "name": "Wisdom International School", "operator": "private", "source": "local knowledge"}}, {"type": "way", "id": 872069323, "nodes": [8122586115, 8122586114, 8122586113, 8122586112, 8122586111, 8122586110, 8122586109, 8122586108, 8122586107, 8122586106, 8122586105, 8122586104, 8122586103, 8122586102, 8122586101, 8122586100, 8122586115], "tags": {"addr:country": "GH", "addr:district": "Aowin Suaman", "addr:place": "Enchi", "addr:region": "Western North", "addr:street": "Annor Assemah High Street", "alt_name": "Nana Brentu Senior High/Technical School", "amenity": "school", "description": "The school started in October 1989 as a private school at the Enchi Commey Primary school. In January 1990 the omnibus class was split into two, with Junior High school graduates forming the Secondary class.", "email": "nanabrentushst@ges.gov.gh", "isced:level": "3", "name": "Brentu Senior High/Technical School", "operator": "Ghana Education Service", "operator:short": "GES", "operator:type": "public", "operator:wikidata": "Q30263788", "phone": "+233 24 417 2731", "start_date": "1989-10", "wheelchair": "yes"}}, {"type": "way", "id": 1074567923, "nodes": [6528048289, 9856134964, 9856134963, 9856134962, 9856134961, 9856134960, 9856134959, 6528048289], "tags": {"addr:country": "GH", "addr:district": "Wassa Amenfi West", "addr:place": "Asankrangwa", "addr:region": "Western", "amenity": "school", "description": "The school was founded in 1991 as a result of the 1987 Educational Reforms Programmes which saw some of the Junior High Schools being upgraded. ASECTECH which was then Buadum Middle School was upgraded by the Ministry of Education.", "email": "asankrangwashst@ges.gov.gh", "isced:level": "3", "name": "Asankrangwa Senior High/Technical School", "opening_hours": "24/7", "operator": "Ghana Education Service", "operator:short": "GES", "operator:type": "public", "operator:wikidata": "Q30263788", "phone": "+233 27 770 6137", "start_date": "1991", "wheelchair": "no"}}]}