{"version": 0.6, "generator": "Overpass API 0.7.61.5 4133829e", "osm3s": {"timestamp_osm_base": "2024-03-05T14:46:30Z", "copyright": "The data included in this document is from www.openstreetmap.org. The data is made available under ODbL."}, "elements": [{"type": "node", "id": 124369966, "lat": 55.8127219, "lon": 12.3722273, "tags": {"amenity": "bank", "atm": "yes", "brand": "Nordea", "brand:wikidata": "Q1123823", "name": "Nordea"}}, {"type": "node", "id": 282356521, "lat": 55.6374994, "lon": 12.4793387, "tags": {"amenity": "bank", "brand": "Nordea", "brand:wikidata": "Q1123823", "brand:wikipedia": "en:Nordea", "name": "Nordea"}}, {"type": "node", "id": 282357075, "lat": 55.6376005, "lon": 12.4801637, "tags": {"amenity": "bank", "name": "BankNordik"}}, {"type": "node", "id": 617810039, "lat": 55.7950084, "lon": 12.4721546, "tags": {"amenity": "bank", "brand": "Danske Bank", "brand:wikidata": "Q1636974", "name": "Danske Bank", "operator": "Danske Bank"}}, {"type": "node", "id": 1266157135, "lat": 55.8105835, "lon": 12.470727, "tags": {"amenity": "bank", "atm": "yes", "brand": "Nordea", "brand:wikidata": "Q1123823", "brand:wikipedia": "en:Nordea", "name": "Nordea", "operator": "Nordea", "phone": "+45 70333333", "website": "https://www.nordea.dk/"}}, {"type": "node", "id": 1266157168, "lat": 55.8115783, "lon": 12.470373, "tags": {"amenity": "bank", "atm": "yes", "brand": "Danske Bank", "brand:wikidata": "Q1636974", "name": "Danske Bank", "operator": "Danske Bank"}}, {"type": "node", "id": 1275838167, "lat": 55.8704639, "lon": 12.3553887, "tags": {"amenity": "bank", "atm": "yes", "brand": "Nordea", "brand:wikidata": "Q1123823", "brand:wikipedia": "en:Nordea", "level": "0", "name": "Nordea", "opening_hours": "Tu 10:00-16:00; Th 10:00-17:00"}}, {"type": "node", "id": 1275838170, "lat": 55.8701598, "lon": 12.3544049, "tags": {"amenity": "bank", "atm": "yes", "brand": "Danske Bank", "brand:wikidata": "Q1636974", "brand:wikipedia": "en:Danske Bank", "name": "Danske Bank", "operator": "Danske Bank"}}, {"type": "node", "id": 1306822803, "lat": 55.7612052, "lon": 12.4519285, "tags": {"amenity": "bank", "atm": "yes", "brand": "Danske Bank", "brand:wikidata": "Q1636974", "brand:wikipedia": "en:Danske Bank", "name": "Danske Bank", "opening_hours": "Mo-We,Fr 10:00-16:00; Th 10:00-17:00", "operator": "Danske Bank", "wheelchair": "limited"}}, {"type": "node", "id": 1572998406, "lat": 55.7229277, "lon": 12.4417011, "tags": {"amenity": "bank", "atm": "no", "bic": "JYBADKKK", "branch": "Herlev", "brand": "Jyske Bank", "brand:wikidata": "Q136672", "name": "Jyske Bank", "operator": "Jyske Bank", "website": "https://www.jyskebank.dk/wps/portal/jfo/kontakt/afdelingsinfo?departmentid=3933"}}, {"type": "node", "id": 1584914062, "lat": 55.9330997, "lon": 12.3138713, "tags": {"amenity": "bank", "name": "Spar Nord"}}, {"type": "node", "id": 1587479776, "lat": 55.7243669, "lon": 12.4389171}, {"type": "node", "id": 1587479777, "lat": 55.7243438, "lon": 12.4389195}, {"type": "node", "id": 1587479779, "lat": 55.7245157, "lon": 12.4388547}, {"type": "node", "id": 1587479801, "lat": 55.724365, "lon": 12.438866}, {"type": "node", "id": 1587479857, "lat": 55.7245164, "lon": 12.4390247}, {"type": "node", "id": 1686475422, "lat": 55.6595458, "lon": 12.4735604, "tags": {"amenity": "bank", "atm": "yes", "brand": "Jyske Bank", "brand:wikidata": "Q136672", "name": "Jyske Bank", "opening_hours": "Mo-Fr 09:00-16:00", "operator": "Jyske bank"}}, {"type": "node", "id": 1710534020, "lat": 55.9302139, "lon": 12.2954463, "tags": {"amenity": "bank", "brand": "Danske Bank", "brand:wikidata": "Q1636974", "brand:wikipedia": "en:Danske Bank", "name": "Danske Bank", "operator": "Danske Bank"}}, {"type": "node", "id": 1713280808, "lat": 55.9288838, "lon": 12.3000828, "tags": {"amenity": "bank", "name": "Arbejdernes Landsbank"}}, {"type": "node", "id": 1880187480, "lat": 55.723265, "lon": 12.4389817, "tags": {"amenity": "bank", "atm": "yes", "bic": "ALBADKKK", "name": "Arbejdernes Landsbank", "operator": "Arbejdernes Landsbank", "website": "https://www.al-bank.dk/default.asp?id=201&aid=50"}}, {"type": "node", "id": 1920821297, "lat": 55.931879, "lon": 12.2990999, "tags": {"amenity": "bank", "brand": "Nordea", "brand:wikidata": "Q1123823", "brand:wikipedia": "en:Nordea", "name": "Nordea", "opening_hours": "Mo-We,Fr 10:00-16:00; Th 10:00-17:00"}}, {"type": "node", "id": 1920840957, "lat": 55.9310857, "lon": 12.2993147, "tags": {"amenity": "bank", "brand": "Handelsbanken", "brand:wikidata": "Q1421630", "brand:wikipedia": "en:Handelsbanken", "name": "Handelsbanken"}}, {"type": "node", "id": 1920853666, "lat": 55.9299257, "lon": 12.3000333, "tags": {"amenity": "bank", "brand": "Jyske Bank", "brand:wikidata": "Q136672", "brand:wikipedia": "en:Jyske Bank", "name": "Jyske Bank"}}, {"type": "node", "id": 1937949178, "lat": 55.6598132, "lon": 12.4737096, "tags": {"amenity": "bank", "atm": "yes", "name": "Arbejdernes Landsbank", "opening_hours": "Mo-Fr 13:00-16:00"}}, {"type": "node", "id": 1988468126, "lat": 55.8689371, "lon": 12.351645}, {"type": "node", "id": 1988468127, "lat": 55.8687782, "lon": 12.3516846}, {"type": "node", "id": 1988468128, "lat": 55.8687483, "lon": 12.3517343}, {"type": "node", "id": 1988468129, "lat": 55.8688149, "lon": 12.3518599}, {"type": "node", "id": 1988468135, "lat": 55.8688691, "lon": 12.3515212}, {"type": "node", "id": 1988468141, "lat": 55.8688292, "lon": 12.3515912}, {"type": "node", "id": 1988468142, "lat": 55.8687751, "lon": 12.3515026}, {"type": "node", "id": 1988468145, "lat": 55.8687293, "lon": 12.3515845}, {"type": "node", "id": 2347110444, "lat": 55.725155, "lon": 12.4393784, "tags": {"amenity": "bank", "brand": "Handelsbanken", "brand:wikidata": "Q1421630", "name": "Handelsbanken", "website": "https://www.handelsbanken.dk/herlev"}}, {"type": "node", "id": 2508538612, "lat": 55.810609, "lon": 12.366791, "tags": {"amenity": "bank", "atm": "no", "brand": "Danske Bank", "brand:wikidata": "Q1636974", "name": "Danske Bank", "opening_hours": "Th 10:00-17:00; Mo-We,Fr 10:00-16:00", "operator": "Danske Bank"}}, {"type": "node", "id": 2508538619, "lat": 55.8102147, "lon": 12.3659332, "tags": {"amenity": "bank", "atm": "yes", "brand": "Handelsbanken", "brand:wikidata": "Q1421630", "name": "Handelsbanken"}}, {"type": "node", "id": 3268505549, "lat": 55.6802211, "lon": 12.4556367, "tags": {"amenity": "bank", "brand": "Danske Bank", "brand:wikidata": "Q1636974", "name": "Danske Bank"}}, {"type": "node", "id": 3404321066, "lat": 55.7226, "lon": 12.44045, "tags": {"amenity": "bank", "atm": "yes", "name": "Nykredit", "operator": "Nykredit"}}, {"type": "node", "id": 4074792191, "lat": 55.842297, "lon": 12.4333067, "tags": {"amenity": "bank", "brand": "Danske Bank", "brand:wikidata": "Q1636974", "name": "Danske Bank"}}, {"type": "node", "id": 4408688428, "lat": 55.724347, "lon": 12.4390333}, {"type": "node", "id": 5723229587, "lat": 55.8688462, "lon": 12.3518051}, {"type": "node", "id": 5723229588, "lat": 55.8688966, "lon": 12.3517196}, {"type": "node", "id": 5723229589, "lat": 55.8688565, "lon": 12.3518261}, {"type": "node", "id": 5723229590, "lat": 55.8689072, "lon": 12.3517385}, {"type": "node", "id": 6071678268, "lat": 55.6539174, "lon": 12.474602, "tags": {"amenity": "bank", "atm": "yes", "brand": "Danske Bank", "brand:wikidata": "Q1636974", "brand:wikipedia": "en:Danske Bank", "name": "Danske Bank"}}, {"type": "node", "id": 6198042986, "lat": 55.8686839, "lon": 12.3521256, "tags": {"amenity": "bank", "atm": "yes", "brand": "Handelsbanken", "brand:wikidata": "Q1421630", "brand:wikipedia": "en:Handelsbanken", "email": "alleroed@handelsbanken.dk", "name": "Handelsbanken", "opening_hours": "Mo-Tu 09:30-16:00;We 09:30-18:00;Fr 09:30-16:00", "phone": "+45 4456 3050", "website": "https://www.handelsbanken.dk/da/find-en-filial/alleroed"}}, {"type": "node", "id": 8173856543, "lat": 55.7233191, "lon": 12.4418438, "tags": {"amenity": "bank", "atm": "no", "brand": "Spar Nord", "name": "Spar Nord, Herlev", "opening_hours": "Mo-Fr 08:00-16:00"}}, {"type": "node", "id": 9603103546, "lat": 55.8689163, "lon": 12.3526076, "tags": {"amenity": "bank", "atm": "no", "drive_through": "no", "email": "alleroed@sparnord.dk", "name": "Spar Nord", "opening_hours": "Mo-Fr 10:00-16:00", "operator": "Spar Nord", "phone": "+45 96 16 20 60", "website": "https://www.sparnord.dk/filialer/alleroed/"}}, {"type": "node", "id": 10217222536, "lat": 55.9288824, "lon": 12.3004657, "tags": {"amenity": "bank", "atm": "yes", "name": "Sparekassen Sj\u00e6lland-Fyn", "opening_hours": "Mo-Fr 10:00-13:00"}}, {"type": "way", "id": 131315469, "nodes": [1988468142, 1988468141, 1988468135, 1988468126, 5723229588, 5723229590, 5723229589, 5723229587, 1988468129, 1988468128, 1988468127, 1988468145, 1988468142], "tags": {"amenity": "bank", "atm": "no", "brand": "Jyske Bank", "brand:wikidata": "Q136672", "brand:wikipedia": "en:Jyske Bank", "building": "yes", "name": "Jyske Bank", "operator": "Jyske Bank", "website": "https://www.jyskebank.dk/kontakt/afdelingsinfo?departmentid=12780"}}, {"type": "way", "id": 145329600, "nodes": [1587479801, 1587479776, 1587479777, 4408688428, 1587479857, 1587479779, 1587479801], "tags": {"amenity": "bank", "atm": "yes", "bic": "DABADKKK", "brand": "Danske Bank", "brand:wikidata": "Q1636974", "brand:wikipedia": "en:Danske Bank", "building": "yes", "name": "Danske Bank", "operator": "Danske Bank", "website": "https://www.danskebank.dk/da-dk/Privat/Kundeservice/Find-afdeling/Afdelinger/Pages/4420-herlev.aspx"}}]}