{"version": 0.6, "generator": "Overpass API 0.7.61.5 4133829e", "osm3s": {"timestamp_osm_base": "2024-03-05T14:58:45Z", "copyright": "The data included in this document is from www.openstreetmap.org. The data is made available under ODbL."}, "elements": [{"type": "node", "id": 2985011088, "lat": 59.5105072, "lon": 11.8365226, "tags": {"amenity": "clinic", "name": "T\u00f6cksfors V\u00e5rdcentral"}}, {"type": "node", "id": 5921083996, "lat": 59.7179992, "lon": 11.4503132, "tags": {"amenity": "doctors", "healthcare:service": "fastlege", "healthcare:speciality": "general", "name": "Hemnes legekontor", "ref:nhn": "912183963"}}, {"type": "node", "id": 5921083997, "lat": 59.7962825, "lon": 11.4656794, "tags": {"amenity": "doctors", "healthcare:service": "fastlege", "healthcare:speciality": "general", "name": "L\u00f8ken legekontor", "ref:nhn": "990863148"}}, {"type": "node", "id": 5921084000, "lat": 59.7488612, "lon": 11.8090557, "tags": {"amenity": "doctors", "healthcare:service": "fastlege", "healthcare:speciality": "general", "name": "R\u00f8mskog legekontor", "ref:nhn": "979116853"}}, {"type": "node", "id": 5921084001, "lat": 59.8831147, "lon": 11.5649495, "tags": {"amenity": "doctors", "healthcare:service": "fastlege", "healthcare:speciality": "general", "name": "Helsehuset fastlegekontor", "ref:nhn": "976637186"}}, {"type": "node", "id": 5921084003, "lat": 59.8843993, "lon": 11.562138, "tags": {"amenity": "doctors", "healthcare:service": "fastlege", "healthcare:speciality": "general", "name": "Bj\u00f8rkelangen medisinske senter", "ref:nhn": "987827009"}}, {"type": "node", "id": 6331571449, "lat": 59.883097, "lon": 11.567587, "tags": {"amenity": "pharmacy", "branch": "Bj\u00f8rkelangen", "brand": "Boots", "email": "bjorkelangen.apotek@boots.no", "name": "Boots Bj\u00f8rkelangen", "opening_hours": "Mo-Fr 10:00-18:00, Sa 10:00-15:00", "phone": "+47 63 85 08 22", "ref:boots": "1956528"}}, {"type": "node", "id": 6336087800, "lat": 59.8840622, "lon": 11.5689019, "tags": {"amenity": "pharmacy", "branch": "Bj\u00f8rkelangen", "brand": "Apotek 1", "email": "apotek1.bjorkelangen@apotek1.no", "name": "Apotek 1 Bj\u00f8rkelangen", "opening_hours": "Mo-Fr 10:00-20:00, Sa 10:00-18:00", "phone": "+47 63 85 77 50", "ref:apotek1": "734"}}, {"type": "node", "id": 6820682134, "lat": 59.7952647, "lon": 11.464227, "tags": {"amenity": "pharmacy", "branch": "L\u00f8ken apotek", "brand": "Ditt Apotek", "email": "loken@dittapotek.no", "name": "L\u00f8ken apotek", "opening_hours": "Mo-Fr 09:00-17:00, Sa 10:00-15:00", "phone": "+47 63858000", "ref:nmd": "1715"}}]}