{"version": 0.6, "generator": "Overpass API 0.7.61.5 4133829e", "osm3s": {"timestamp_osm_base": "2024-03-05T13:48:00Z", "copyright": "The data included in this document is from www.openstreetmap.org. The data is made available under ODbL."}, "elements": [{"type": "node", "id": 299020590, "lat": 34.6159603, "lon": 71.9722472, "tags": {"alt_name:de": "Bat Khela", "alt_name:en": "Bat Khela", "alt_name:es": "Bat Khela", "alt_name:fr": "Bat Khela", "name": "\u0628\u0679 \u062e\u06cc\u0644\u06c1", "name:ar": "\u0628\u062a \u062c\u064a\u0644\u0627", "name:azb": "\u0628\u062a \u062e\u06cc\u0644\u0647", "name:de": "Bathkela", "name:en": "Bathkela", "name:es": "Bathkela", "name:fa": "\u0628\u062a \u062e\u06cc\u0644\u0647", "name:fr": "Bathkela", "name:ja": "\u30d0\u30b1\u30e9", "name:ur": "\u0628\u0679 \u062e\u06cc\u0644\u06c1", "place": "town", "population": "50688", "wikidata": "Q2582559", "wikipedia": "ur:\u0628\u0679 \u062e\u06cc\u0644\u06c1"}}, {"type": "node", "id": 847322667, "lat": 34.7266484, "lon": 72.0119141, "tags": {"name": "Ouch", "place": "village", "source": "landsat"}}, {"type": "node", "id": 2934895760, "lat": 34.6557106, "lon": 72.0308093, "tags": {"name": "\u0686\u06a9\u062f\u0631\u0647", "name:en": "Chakdara", "place": "town"}}, {"type": "node", "id": 3068881220, "lat": 34.8290809, "lon": 71.8426867, "tags": {"name": "\u062a\u06cc\u0645\u0631\u06af\u0631\u06c1", "name:ar": "\u062a\u064a\u0645\u0631 \u0643\u0631\u0627", "name:en": "Timergara", "name:ja": "\u30c6\u30a3\u30de\u30fc\u30ac\u30fc\u30e9", "name:ps": "\u062a\u06cc\u0645\u0631\u06ab\u0631\u0647", "name:ur": "\u062a\u06cc\u0645\u0631\u06af\u0631\u06c1", "place": "town", "population": "58050", "wikidata": "Q2583846", "wikipedia": "ur:\u062a\u06cc\u0645\u0631\u06af\u0631\u06c1"}}, {"type": "node", "id": 3069084383, "lat": 34.8247818, "lon": 71.6886679, "tags": {"name": "\u0645\u0646\u0688\u0627 \u0642\u0644\u0639\u0647", "name:en": "Munda Qala", "name:ps": "\u0645\u0648\u0646\u0689\u0627 \u0642\u0644\u0639\u0647", "name:ur": "\u0645\u0646\u0688\u0627 \u0642\u0644\u0639\u0647", "place": "village"}}, {"type": "node", "id": 3069084384, "lat": 34.8904863, "lon": 71.6683017, "tags": {"name": "Mayar Jandool", "place": "village"}}, {"type": "node", "id": 3070549251, "lat": 34.6481188, "lon": 71.9703221, "tags": {"name": "Badwan", "place": "village"}}, {"type": "node", "id": 3659265188, "lat": 34.8328613, "lon": 71.8288144, "tags": {"name": "\u0628\u0644\u0627\u0645\u0628\u0679", "name:en": "Balambat", "name:fa": "\u0628\u0644\u0645\u0628\u062a", "name:ps": "\u0628\u0644\u0645\u0628\u067c", "name:ur": "\u0628\u0644\u0627\u0645\u0628\u0679", "place": "town"}}, {"type": "node", "id": 5480709535, "lat": 34.7150043, "lon": 72.0524225, "tags": {"name": "Shawa", "place": "village"}}, {"type": "node", "id": 6216643789, "lat": 34.6165646, "lon": 71.824469, "tags": {"name": "Totakan", "place": "village"}}, {"type": "node", "id": 6216643794, "lat": 34.6212761, "lon": 71.8160431, "tags": {"name": "Ziarat", "place": "village"}}, {"type": "node", "id": 6216643799, "lat": 34.6288816, "lon": 71.8359858, "tags": {"name": "sugyaar", "place": "village"}}, {"type": "node", "id": 6216643807, "lat": 34.6398601, "lon": 71.8627926, "tags": {"name": "terona", "place": "village"}}, {"type": "node", "id": 6216645292, "lat": 34.6402841, "lon": 71.8887623, "tags": {"name": "khadagzo", "place": "village"}}, {"type": "node", "id": 6216645303, "lat": 34.6154737, "lon": 71.9033063, "tags": {"name": "Jolagram", "place": "village"}}, {"type": "node", "id": 6216645304, "lat": 34.6146799, "lon": 71.9380292, "tags": {"name": "Khar", "place": "village"}}, {"type": "node", "id": 6216645305, "lat": 34.6319847, "lon": 71.7962248, "tags": {"name": "Qalangai", "place": "village"}}, {"type": "node", "id": 6216646586, "lat": 34.6259557, "lon": 71.8581356, "tags": {"name": "Matkani", "place": "village"}}, {"type": "node", "id": 6216647295, "lat": 34.6155861, "lon": 71.9085404, "tags": {"name": "dheri", "place": "village"}}, {"type": "node", "id": 8290492726, "lat": 34.8666332, "lon": 71.9930893}, {"type": "node", "id": 8290492727, "lat": 34.8673355, "lon": 71.991684}, {"type": "node", "id": 8290492728, "lat": 34.8686791, "lon": 71.9878893}, {"type": "node", "id": 8290492729, "lat": 34.8703126, "lon": 71.9856507}, {"type": "node", "id": 8290492730, "lat": 34.8724734, "lon": 71.9855155}, {"type": "node", "id": 8290492731, "lat": 34.874995, "lon": 71.9858188}, {"type": "node", "id": 8290492732, "lat": 34.8746219, "lon": 71.9906637}, {"type": "node", "id": 8290492733, "lat": 34.8731305, "lon": 71.9934997}, {"type": "node", "id": 8290492734, "lat": 34.8713695, "lon": 71.9942277}, {"type": "node", "id": 8290492735, "lat": 34.8698971, "lon": 71.9953333}, {"type": "node", "id": 9582838715, "lat": 34.6134314, "lon": 71.9677447, "tags": {"name": "\u0628\u0679 \u062e\u06cc\u0644\u06c1", "name:en": "Batkhela", "name:fa": "\u0628\u062a \u062e\u06cc\u0644\u0647", "name:pnb": "\u0628\u0679 \u062e\u064a\u0644\u0627", "name:ps": "\u0628\u067c \u062e\u06d0\u0644\u0647", "name:pt": "Bat Khela", "name:ru": "\u0411\u0430\u0442-\u041a\u0445\u0435\u043b\u0430", "name:sd": "\u0628\u067d \u062e\u064a\u0644\u0627", "name:ur": "\u0628\u0679 \u062e\u06cc\u0644\u06c1", "place": "city", "population": "68200", "wikidata": "Q2582559", "wikipedia": "en:Batkhela"}}, {"type": "node", "id": 11244164370, "lat": 34.9896408, "lon": 72.0363891, "tags": {"name": "\u0648\u0627\u0691\u06cc", "name:en": "Wari", "name:ps": "\u0648\u0627\u0693\u064a", "name:ur": "\u0648\u0627\u0691\u06cc", "place": "town"}}, {"type": "node", "id": 11244467319, "lat": 34.954755, "lon": 71.6863793, "tags": {"name": "\u062b\u0645\u0631\u0628\u0627\u063a", "name:en": "Samarbagh", "name:ps": "\u062b\u0645\u0631\u0628\u0627\u063a", "name:ur": "\u062b\u0645\u0631\u0628\u0627\u063a", "place": "town"}}, {"type": "node", "id": 11244467376, "lat": 34.9593018, "lon": 71.8145685, "tags": {"name": "\u06a9\u0645\u0628\u0691 \u0645\u06cc\u062f\u0627\u0646", "name:en": "Kumber Maidan", "name:ur": "\u06a9\u0645\u0628\u0691 \u0645\u06cc\u062f\u0627\u0646", "place": "town"}}, {"type": "node", "id": 11244467605, "lat": 34.8935908, "lon": 71.9823302, "tags": {"name": "\u062e\u0627\u0644", "name:en": "Khall", "name:ps": "\u062e\u0627\u0644", "name:ur": "\u062e\u0627\u0644", "place": "town"}}, {"type": "node", "id": 11244467639, "lat": 34.7315348, "lon": 72.0246147, "tags": {"name": "\u0622\u062f\u0646\u0632\u0626\u06cc", "name:en": "Adenzai", "name:ps": "\u0627\u062f\u0646\u0632\u064a\u064a", "name:ur": "\u0622\u062f\u0646\u0632\u0626\u06cc", "place": "town"}}, {"type": "node", "id": 11244926504, "lat": 34.7657802, "lon": 71.5705023, "tags": {"name": "\u0633\u0627\u0644\u0627\u0631\u0632\u0626\u06cc", "name:en": "Salarzai", "name:ps": "\u0633\u0627\u0644\u0627\u0631\u0632\u064a", "name:ur": "\u0633\u0627\u0644\u0627\u0631\u0632\u0626\u06cc", "place": "village"}}, {"type": "way", "id": 892002500, "nodes": [8290492726, 8290492727, 8290492728, 8290492729, 8290492730, 8290492731, 8290492732, 8290492733, 8290492734, 8290492735, 8290492726], "tags": {"name": "Malai", "name:ta": "\u0bae\u0bb2\u0bc8", "place": "village"}}]}