{"version": 0.6, "generator": "Overpass API 0.7.61.5 4133829e", "osm3s": {"timestamp_osm_base": "2024-03-06T10:49:05Z", "copyright": "The data included in this document is from www.openstreetmap.org. The data is made available under ODbL."}, "elements": [{"type": "node", "id": 3589003883, "lat": 34.1988582, "lon": 43.8883961}, {"type": "node", "id": 3589003884, "lat": 34.1988932, "lon": 43.8885818}, {"type": "node", "id": 3589003885, "lat": 34.1988966, "lon": 43.888413}, {"type": "node", "id": 3589003886, "lat": 34.1991655, "lon": 43.8871212}, {"type": "node", "id": 3589003887, "lat": 34.1992528, "lon": 43.8866864}, {"type": "node", "id": 3589003888, "lat": 34.1993017, "lon": 43.8862685}, {"type": "node", "id": 3589003889, "lat": 34.1993104, "lon": 43.8857513}, {"type": "node", "id": 3589003890, "lat": 34.1999895, "lon": 43.8884636}, {"type": "node", "id": 3589003891, "lat": 34.2000035, "lon": 43.8897639}, {"type": "node", "id": 3589003892, "lat": 34.2000209, "lon": 43.8885227}, {"type": "node", "id": 3589003995, "lat": 34.2011192, "lon": 43.8854885}, {"type": "node", "id": 3589003997, "lat": 34.2014874, "lon": 43.8895494}, {"type": "node", "id": 5931008485, "lat": 34.1998147, "lon": 43.8874544, "tags": {"addr:street": "\u0634\u0627\u0631\u0639 \u0627\u0644\u0643\u0644\u064a\u0647", "amenity": "college", "name": "\u062c\u0627\u0645\u0639\u0647 \u0633\u0627\u0645\u0631\u0627\u0621", "name:ar": "\u062c\u0627\u0645\u0639\u0629 \u0633\u0627\u0645\u0631\u0627\u0621", "name:en": "University of Samarra", "opening_hours": "Su-Th 08:00-18:00"}}, {"type": "node", "id": 6778872892, "lat": 34.1986683, "lon": 43.8874187, "tags": {"amenity": "college"}}, {"type": "node", "id": 6804481185, "lat": 34.201057, "lon": 43.8816702, "tags": {"addr:street": "\u0634\u0627\u0631\u0639 \u0627\u0644\u0645\u062a\u0648\u0643\u0644", "amenity": "college", "name": "\u0643\u0644\u064a\u0629 \u0627\u0644\u0627\u0645\u0627\u0645 \u0627\u0644\u0623\u0639\u0638\u0645"}}, {"type": "node", "id": 10170893319, "lat": 34.2010771, "lon": 43.8863954, "tags": {"addr:street": "\u0641\u0644\u0643\u0629 \u0627\u0644\u0645\u0644\u0639\u0628", "amenity": "college", "name": "\u0642\u0633\u0645 \u0639\u0644\u0648\u0645 \u0627\u0644\u0642\u0631\u0627\u0646 \u0627\u0644\u0643\u0631\u064a\u0645", "name:en": "Uloom alquran", "opening_hours": "Su-Th,Sa 08:30-16:00"}}, {"type": "node", "id": 11533444669, "lat": 34.1968663, "lon": 43.8865264, "tags": {"amenity": "college", "name": "\u0643\u0644\u064a\u0629 \u0627\u0644\u062a\u0631\u0628\u064a\u0629 \u0627\u0644\u0628\u062f\u0646\u064a\u0629 \u0648\u0639\u0644\u0648\u0645 \u0627\u0644\u0631\u064a\u0627\u0636\u0629"}}, {"type": "way", "id": 353130018, "nodes": [3589003995, 3589003997, 3589003891, 3589003892, 3589003890, 3589003884, 3589003885, 3589003883, 3589003886, 3589003887, 3589003888, 3589003889, 3589003995], "tags": {"amenity": "university", "name": "\u062c\u0627\u0645\u0639\u0629 \u0633\u0627\u0645\u0631\u0627\u0621", "name:ar": "\u062c\u0627\u0645\u0639\u0629 \u0633\u0627\u0645\u0631\u0627\u0621", "name:en": "University of Samarra"}}]}