{"version": 0.6, "generator": "Overpass API 0.7.61.5 4133829e", "osm3s": {"timestamp_osm_base": "2024-03-06T11:04:23Z", "copyright": "The data included in this document is from www.openstreetmap.org. The data is made available under ODbL."}, "elements": [{"type": "node", "id": 3999155940, "lat": 2.4165166, "lon": 34.840799, "tags": {"addr:city": "Kothiroi", "addr:county": "Matheniko", "addr:district": "Moroto", "addr:parish": "Katikekile", "addr:subcounty": "Tapac", "amenity": "school", "isced:level": "1", "name": "Kothiroi Primary School", "source": "www.ubos.org", "source:date": "2010..2014", "wikidata": "Q22681080"}}, {"type": "node", "id": 3999193810, "lat": 2.1568487, "lon": 34.9289765, "tags": {"addr:city": "Lopedot", "addr:county": "Pokot", "addr:district": "Amudat", "addr:parish": "Abiliep", "addr:subcounty": "Loroo", "amenity": "school", "isced:level": "1", "name": "Lopedot Primary School", "source": "www.ubos.org", "source:date": "2010..2014", "wikidata": "Q22678911"}}, {"type": "node", "id": 3999193811, "lat": 2.2099055, "lon": 34.8982703, "tags": {"addr:city": "Loroo", "addr:county": "Pokot", "addr:district": "Amudat", "addr:parish": "Loroo", "addr:subcounty": "Loroo", "amenity": "school", "isced:level": "1", "name": "Loroo Primary School", "source": "www.ubos.org", "source:date": "2010..2014", "wikidata": "Q22678910"}}, {"type": "node", "id": 4000047678, "lat": 2.0605107, "lon": 34.9302787, "tags": {"addr:district": "Amudat", "amenity": "school", "name": "Primary School", "source": "www.ubos.org", "source:date": "2010..2014"}}, {"type": "node", "id": 4000048957, "lat": 2.0703334, "lon": 34.9304497, "tags": {"addr:city": "Akorikeya", "addr:county": "Pokot", "addr:district": "Amudat", "addr:parish": "Abiliep", "addr:subcounty": "Loroo", "amenity": "school", "fixme": "Please, check the position of the node", "isced:level": "1", "name": "Akorikeya Primary School", "source": "www.ubos.org", "source:date": "2010..2014", "wikidata": "Q22680416"}}]}