{"version": 0.6, "generator": "Overpass API 0.7.61.5 4133829e", "osm3s": {"timestamp_osm_base": "2024-03-06T11:15:40Z", "copyright": "The data included in this document is from www.openstreetmap.org. The data is made available under ODbL."}, "elements": [{"type": "node", "id": 2484008279, "lat": 32.5986703, "lon": 46.9278091, "tags": {"alt_name": "\u062c\u0644\u0627\u062a", "int_name": "Chal\u0101t, \u0686\u0644\u0627\u062a, Chalat, \u0686\u0644\u0627\u062a", "is_in": "Iraq , \u062c\u0645\u0647\u0648\u0631\u064a\u0629 \u0627\u0644\u0639\u0631\u0627\u0642", "name": "\u062c\u0644\u0627\u062a", "name:ar": "\u062c\u0644\u0627\u062a", "name:ar1": "\u062c\u0644\u0627\u062a", "name:de": "Chalat", "name:en": "Chalat", "name:fr": "Chalat", "place": "village"}}, {"type": "node", "id": 2484008329, "lat": 32.5985089, "lon": 46.9280773, "tags": {"alt_name": "\u062c\u0646\u0629", "int_name": "Janna, Jannah, Janna, Jannah", "is_in": "Iraq , \u062c\u0645\u0647\u0648\u0631\u064a\u0629 \u0627\u0644\u0639\u0631\u0627\u0642", "name": "\u062c\u0646\u0629", "name:ar": "\u062c\u0646\u0629", "name:ar1": "\u062c\u0646\u0629", "name:de": "Janna", "name:en": "Janna", "name:fr": "Janna", "place": "village"}}, {"type": "node", "id": 3262185923, "lat": 32.7694598, "lon": 47.1443779, "tags": {"is_in:country": "Iran", "name": "\u062c\u0627\u0628\u0631 \u0627\u0646\u0635\u0627\u0631", "name:en": "Jaber-e Ansar", "place": "village", "wikidata": "Q5849623", "wikipedia": "en:Jaber-e Ansar"}}, {"type": "node", "id": 3292346774, "lat": 32.8247958, "lon": 46.9735935, "tags": {"is_in:country": "Iran", "name": "\u0628\u06cc\u0634\u0647 \u062f\u0631\u0627\u0632", "name:en": "Bisheh Deraz", "place": "village", "wikidata": "Q4917354", "wikipedia": "en:Bisheh Deraz"}}, {"type": "node", "id": 3292346775, "lat": 32.7550098, "lon": 47.101536, "tags": {"is_in:country": "Iran", "name": "\u062f\u0648\u0644 \u0645\u0646\u06cc\u0631\u06cc", "name:en": "Doollmoniri Village", "place": "village"}}, {"type": "node", "id": 3292346776, "lat": 32.7684502, "lon": 47.0675095, "tags": {"is_in:country": "Iran", "name": "\u0645\u0627\u0632\u0639\u0628\u062f\u0644\u06cc \u0628\u0627\u0644\u0627", "name:en": "Maz Abd Ali-ye Bala", "place": "village", "wikidata": "Q5844704", "wikipedia": "en:Maz Abd Ali-ye Bala"}}, {"type": "node", "id": 3292346778, "lat": 32.8633546, "lon": 46.9016329, "tags": {"is_in:country": "Iran", "name": "\u0647\u0627\u0648\u06cc\u0627\u0646", "name:en": "Havian", "place": "village", "wikidata": "Q5829868", "wikipedia": "en:Havian"}}, {"type": "node", "id": 3292346781, "lat": 32.7716942, "lon": 47.0220881, "tags": {"is_in:country": "Iran", "name": "\u0633\u0646\u06af\u0631\u0646\u0627\u062f\u0631", "name:en": "Sangar Nader", "place": "village", "wikidata": "Q5833336", "wikipedia": "en:Sangar Nader"}}, {"type": "node", "id": 3292346782, "lat": 32.7838299, "lon": 47.0425757, "tags": {"is_in:country": "Iran", "name": "\u0642\u06cc\u0631\u0627\u0628", "name:en": "Ghirab Village", "place": "village"}}, {"type": "node", "id": 3292362278, "lat": 32.9851381, "lon": 46.9737631, "tags": {"is_in:country": "Iran", "name": "\u0633\u0631 \u06a9\u0645\u0631", "name:en": "Sar Kamar", "place": "village", "wikidata": "Q5815418", "wikipedia": "en:Sar Kamar, Dehloran"}}, {"type": "node", "id": 4464924101, "lat": 32.7531763, "lon": 47.0776676, "tags": {"is_in:country": "Iran", "name": "\u0645\u0627\u0632\u0639\u0628\u062f\u0644\u06cc \u067e\u0627\u06cc\u06cc\u0646", "name:en": "Mazabdali-e Paein Village", "place": "village"}}, {"type": "node", "id": 4476784356, "lat": 32.8801792, "lon": 46.8147553, "tags": {"is_in:country": "Iran", "is_in:state": "Ilam", "name": "\u06a9\u0627\u0648\u0631", "name:en": "Kavar", "place": "village", "population": "271"}}]}