{"version": 0.6, "generator": "Overpass API 0.7.61.5 4133829e", "osm3s": {"timestamp_osm_base": "2024-03-05T14:58:45Z", "copyright": "The data included in this document is from www.openstreetmap.org. The data is made available under ODbL."}, "elements": [{"type": "node", "id": 321866130, "lat": 58.4664794, "lon": 11.6737847, "tags": {"amenity": "pharmacy", "branch": "Munkedal", "brand": "Apoteket", "contact:phone": "+46771450450", "dispensing": "yes", "name": "Apoteket Laxen", "operator": "Apoteket AB (publ)"}}, {"type": "node", "id": 601145844, "lat": 58.5680772, "lon": 11.9976426, "tags": {"amenity": "pharmacy", "brand": "Apoteket", "contact:phone": "+46771450450", "name": "Apoteket B\u00e4vern", "operator": "Apoteket AB (publ)"}}, {"type": "node", "id": 1952413162, "lat": 58.2738873, "lon": 12.2905384}, {"type": "node", "id": 1952413166, "lat": 58.2738554, "lon": 12.2906452}, {"type": "node", "id": 1952413167, "lat": 58.2736941, "lon": 12.2902273}, {"type": "node", "id": 1952413172, "lat": 58.2738868, "lon": 12.2905733}, {"type": "node", "id": 1952413178, "lat": 58.2738077, "lon": 12.2899212}, {"type": "node", "id": 1952413179, "lat": 58.2738537, "lon": 12.2899307}, {"type": "node", "id": 1952413181, "lat": 58.2737543, "lon": 12.2905661}, {"type": "node", "id": 1952413188, "lat": 58.2739325, "lon": 12.2899345}, {"type": "node", "id": 1952413189, "lat": 58.273721, "lon": 12.289917}, {"type": "node", "id": 1952413197, "lat": 58.2739244, "lon": 12.2905402}, {"type": "node", "id": 1952413198, "lat": 58.2738564, "lon": 12.2905719}, {"type": "node", "id": 1952413201, "lat": 58.2737192, "lon": 12.2903108}, {"type": "node", "id": 1952413202, "lat": 58.273693, "lon": 12.2903096}, {"type": "node", "id": 1952413204, "lat": 58.2737168, "lon": 12.2902284}, {"type": "node", "id": 1952413214, "lat": 58.273808, "lon": 12.2898977}, {"type": "node", "id": 1952413216, "lat": 58.2738541, "lon": 12.2898999}, {"type": "node", "id": 1952413230, "lat": 58.2737533, "lon": 12.2906402}, {"type": "node", "id": 1952413235, "lat": 58.2737158, "lon": 12.2905642}, {"type": "node", "id": 1952898035, "lat": 58.3158558, "lon": 12.2686359}, {"type": "node", "id": 1952898127, "lat": 58.3158628, "lon": 12.2662568}, {"type": "node", "id": 1952898200, "lat": 58.3159558, "lon": 12.2661173}, {"type": "node", "id": 1952898227, "lat": 58.3158473, "lon": 12.2683838}, {"type": "node", "id": 1968497885, "lat": 58.2831609, "lon": 12.291594}, {"type": "node", "id": 1968497910, "lat": 58.2832216, "lon": 12.2914561}, {"type": "node", "id": 1968497919, "lat": 58.2834035, "lon": 12.292006}, {"type": "node", "id": 1968497921, "lat": 58.2830848, "lon": 12.2922956}, {"type": "node", "id": 1968497923, "lat": 58.2832977, "lon": 12.2918032}, {"type": "node", "id": 1968497925, "lat": 58.283278, "lon": 12.29143}, {"type": "node", "id": 1968497927, "lat": 58.2832512, "lon": 12.2914947}, {"type": "node", "id": 1968497934, "lat": 58.2833908, "lon": 12.2919802}, {"type": "node", "id": 1968497937, "lat": 58.2831891, "lon": 12.2924566}, {"type": "node", "id": 1968497945, "lat": 58.2835036, "lon": 12.291778}, {"type": "node", "id": 1969730869, "lat": 58.2848899, "lon": 12.2907583, "tags": {"amenity": "pharmacy", "branch": "Trollh\u00e4ttan", "brand": "Apoteket", "brand:wikidata": "Q1785637", "check_date": "2022-10-25", "contact:phone": "+46771450450", "healthcare": "pharmacy", "name": "Apoteket", "operator": "Apoteket AB (publ)", "wheelchair": "yes"}}, {"type": "node", "id": 2778077384, "lat": 58.5608553, "lon": 11.9907864, "tags": {"addr:city": "F\u00e4rgelanda", "addr:country": "SE", "addr:housenumber": "5A", "addr:postcode": "458 32", "addr:street": "H\u00e5vestensv\u00e4gen", "amenity": "clinic", "contact:phone": "+46 10 441 50 10", "healthcare": "clinic", "name": "N\u00e4rh\u00e4lsan F\u00e4rgelanda v\u00e5rdcentral", "network": "V\u00e4stra G\u00f6talandsregionen", "operator": "V\u00e4stra G\u00f6talandsregionen", "website": "https://www.narhalsan.se/hitta-mottagning/fargelanda/narhalsan-fargelanda-vardcentral/"}}, {"type": "node", "id": 2963992842, "lat": 58.3818229, "lon": 11.4864037, "tags": {"amenity": "pharmacy"}}, {"type": "node", "id": 3296478661, "lat": 58.354522, "lon": 11.8127791, "tags": {"amenity": "pharmacy", "branch": "Uddevalla Torp", "brand": "Apoteket", "contact:phone": "+46771450450", "dispensing": "yes", "name": "Apoteket", "opening_hours": "Mo-Fr 08:00-21:00; Sa-Su 09:00-18:00", "operator": "Apoteket AB (publ)"}}, {"type": "node", "id": 3748222771, "lat": 58.5296415, "lon": 11.5778147, "tags": {"addr:city": "Dingle", "addr:country": "SE", "addr:housenumber": "9", "addr:postcode": "455 61", "addr:street": "Tr\u00e4dg\u00e5rdsgatan", "amenity": "clinic", "name": "N\u00e4rh\u00e4lsan Munkedal v\u00e5rdcentral - Dingle", "phone": "+46 10 441 51 40"}}, {"type": "node", "id": 3976215948, "lat": 58.3170371, "lon": 12.2704946}, {"type": "node", "id": 3976215951, "lat": 58.3164742, "lon": 12.2614798}, {"type": "node", "id": 3976215952, "lat": 58.316601, "lon": 12.2640789}, {"type": "node", "id": 3976215953, "lat": 58.3168898, "lon": 12.2660798}, {"type": "node", "id": 3976215954, "lat": 58.3169363, "lon": 12.2648674}, {"type": "node", "id": 3976215955, "lat": 58.3170791, "lon": 12.2632158}, {"type": "node", "id": 3976215956, "lat": 58.3170645, "lon": 12.2593501}, {"type": "node", "id": 3976218757, "lat": 58.3173998, "lon": 12.262153}, {"type": "node", "id": 3976218758, "lat": 58.317535, "lon": 12.2706101}, {"type": "node", "id": 3976218759, "lat": 58.318338, "lon": 12.261069}, {"type": "node", "id": 3976218760, "lat": 58.3185894, "lon": 12.2610747}, {"type": "node", "id": 3976218761, "lat": 58.3195128, "lon": 12.2710784}, {"type": "node", "id": 3976218762, "lat": 58.3195555, "lon": 12.2632095}, {"type": "node", "id": 3976218763, "lat": 58.3195558, "lon": 12.2610983}, {"type": "node", "id": 3976218764, "lat": 58.3195899, "lon": 12.2691821}, {"type": "node", "id": 3976218765, "lat": 58.3208694, "lon": 12.2699897}, {"type": "node", "id": 3976218766, "lat": 58.3201065, "lon": 12.2667006}, {"type": "node", "id": 3976218767, "lat": 58.3204738, "lon": 12.266788}, {"type": "node", "id": 3976218768, "lat": 58.3207657, "lon": 12.2670815}, {"type": "node", "id": 3976218769, "lat": 58.3213725, "lon": 12.2670316}, {"type": "node", "id": 3976218770, "lat": 58.3215332, "lon": 12.2631658}, {"type": "node", "id": 3976218771, "lat": 58.3217988, "lon": 12.2648645}, {"type": "node", "id": 3976218772, "lat": 58.3219792, "lon": 12.2660698}, {"type": "node", "id": 4298792008, "lat": 58.224349, "lon": 11.9204794, "tags": {"amenity": "pharmacy", "brand": "Apotek Hj\u00e4rtat", "contact:phone": "+46771405405", "drive_through": "no", "name": "Apotek Hj\u00e4rtat", "operator": "Apotek Hj\u00e4rtat Retail AB", "owner": "ICA Gruppen AB"}}, {"type": "node", "id": 4300599868, "lat": 58.2266936, "lon": 11.9183326, "tags": {"addr:city": "Ljungskile", "addr:country": "SE", "addr:housenumber": "28", "addr:postcode": "459 30", "addr:street": "V\u00e4llebergsv\u00e4gen", "amenity": "clinic", "contact:phone": "+46 10 441 53 00", "healthcare": "centre", "name": "N\u00e4rh\u00e4lsan Ljungskile v\u00e5rdcentral", "network": "V\u00e4stra G\u00f6talandsregionen", "operator": "V\u00e4stra G\u00f6talandsregionen", "website": "https://www.narhalsan.se/hitta-mottagning/uddevalla/narhalsan-ljungskile-vardcentral/"}}, {"type": "node", "id": 4345212969, "lat": 58.3492852, "lon": 11.9323156, "tags": {"amenity": "pharmacy", "dispensing": "yes", "drive_through": "no", "healthcare": "pharmacy", "level": "0", "name": "Kronans Apotek", "wheelchair": "yes"}}, {"type": "node", "id": 4345213036, "lat": 58.3561254, "lon": 11.9297074, "tags": {"amenity": "pharmacy", "check_date": "2023-11-23", "name": "Apoteket"}}, {"type": "node", "id": 4642583026, "lat": 58.3481087, "lon": 11.9333068, "tags": {"addr:city": "Uddevalla", "addr:country": "SE", "addr:housenumber": "11", "addr:postcode": "451 40", "addr:street": "S\u00f6dergatan", "amenity": "clinic", "contact:phone": "+46 10 441 64 00", "contact:website": "https://www.narhalsan.se/hitta-mottagning/uddevalla/narhalsan-dagson-vardcentral/", "healthcare": "clinic", "name": "N\u00e4rh\u00e4lsan Dagson v\u00e5rdcentral", "network": "V\u00e4stra G\u00f6talandsregionen", "operator": "V\u00e4stra G\u00f6talandsregionen"}}, {"type": "node", "id": 4649170934, "lat": 58.350519, "lon": 11.9566455, "tags": {"addr:city": "Uddevalla", "addr:country": "SE", "addr:housenumber": "30", "addr:postcode": "451 34", "addr:street": "V\u00e4stg\u00f6tav\u00e4gen", "amenity": "clinic", "contact:phone": "+46 522 933 20", "healthcare": "clinic", "name": "Achima Care Uddevalla v\u00e5rdcentral", "network": "V\u00e4stra G\u00f6talandsregionen", "official_name": "Achima Care Uddevalla v\u00e5rdcentral", "operator": "Achima Care AB", "ownership": "private", "source": "survey"}}, {"type": "node", "id": 4657305488, "lat": 58.3605458, "lon": 11.9152128, "tags": {"addr:city": "Uddevalla", "addr:country": "SE", "addr:housenumber": "8", "addr:postcode": "451 60", "addr:street": "Sunnanvindsv\u00e4gen", "amenity": "clinic", "contact:phone": "+46 10 441 65 00", "healthcare": "centre", "name": "N\u00e4rh\u00e4lsan Skogslyckan v\u00e5rdcentral", "network": "V\u00e4stra G\u00f6talandsregionen", "operator": "V\u00e4stra G\u00f6talandsregionen"}}, {"type": "node", "id": 4657306789, "lat": 58.3506299, "lon": 11.8445698, "tags": {"addr:city": "Uddevalla", "addr:country": "SE", "addr:housenumber": "12", "addr:postcode": "451 75", "addr:street": "Lingatan", "amenity": "clinic", "contact:phone": "+46 10 441 64 40", "healthcare": "centre", "name": "N\u00e4rh\u00e4lsan Herrestad v\u00e5rdcentral", "network": "V\u00e4stra G\u00f6talandsregionen", "operator": "V\u00e4stra G\u00f6talandsregionen", "website": "https://www.narhalsan.se/hitta-mottagning/uddevalla/narhalsan-herrestad-vardcentral/"}}, {"type": "node", "id": 4993092246, "lat": 58.3180479, "lon": 12.2607377}, {"type": "node", "id": 4993092250, "lat": 58.3193235, "lon": 12.2610929}, {"type": "node", "id": 5688702790, "lat": 58.357765, "lon": 11.9291715}, {"type": "node", "id": 5688702791, "lat": 58.3578459, "lon": 11.9295658}, {"type": "node", "id": 5688702792, "lat": 58.3562777, "lon": 11.9268541}, {"type": "node", "id": 5688702793, "lat": 58.3560793, "lon": 11.9271733}, {"type": "node", "id": 5688702794, "lat": 58.3569299, "lon": 11.9258268}, {"type": "node", "id": 5688702795, "lat": 58.3567118, "lon": 11.9259649}, {"type": "node", "id": 5688702796, "lat": 58.3543027, "lon": 11.9292721}, {"type": "node", "id": 5688702797, "lat": 58.3547593, "lon": 11.9287625}, {"type": "node", "id": 5688702798, "lat": 58.3554967, "lon": 11.9279149}, {"type": "node", "id": 5688702799, "lat": 58.3564508, "lon": 11.9264746}, {"type": "node", "id": 5688702800, "lat": 58.3570488, "lon": 11.9259335}, {"type": "node", "id": 5688702801, "lat": 58.3568947, "lon": 11.9308855}, {"type": "node", "id": 5688702802, "lat": 58.357619, "lon": 11.9285345}, {"type": "node", "id": 5688702803, "lat": 58.3552771, "lon": 11.9318068}, {"type": "node", "id": 5688702804, "lat": 58.3544877, "lon": 11.9320629}, {"type": "node", "id": 5688702805, "lat": 58.3578519, "lon": 11.9297784}, {"type": "node", "id": 5688702806, "lat": 58.3573225, "lon": 11.9305053}, {"type": "node", "id": 5688702807, "lat": 58.3571821, "lon": 11.9306514}, {"type": "node", "id": 5688702808, "lat": 58.3546443, "lon": 11.9320958}, {"type": "node", "id": 5688702809, "lat": 58.3562376, "lon": 11.9312476}, {"type": "node", "id": 5688702810, "lat": 58.3570474, "lon": 11.9307849}, {"type": "node", "id": 5688702811, "lat": 58.3567512, "lon": 11.9309492}, {"type": "node", "id": 5688702812, "lat": 58.3542491, "lon": 11.9299065}, {"type": "node", "id": 5688702813, "lat": 58.3578614, "lon": 11.9297013}, {"type": "node", "id": 5688702814, "lat": 58.3575015, "lon": 11.9302786}, {"type": "node", "id": 5688702815, "lat": 58.3558752, "lon": 11.9314527}, {"type": "node", "id": 5688702816, "lat": 58.3568405, "lon": 11.9309431}, {"type": "node", "id": 5688702817, "lat": 58.3544018, "lon": 11.9316901}, {"type": "node", "id": 5688702818, "lat": 58.3543202, "lon": 11.9312073}, {"type": "node", "id": 5688702820, "lat": 58.3542913, "lon": 11.9310209}, {"type": "node", "id": 5688703321, "lat": 58.3576697, "lon": 11.9300567}, {"type": "node", "id": 5688703322, "lat": 58.3547629, "lon": 11.9320462}, {"type": "node", "id": 5688703323, "lat": 58.3542527, "lon": 11.9304041}, {"type": "node", "id": 5979955882, "lat": 58.3559716, "lon": 11.9273852}, {"type": "node", "id": 5979957651, "lat": 58.3569619, "lon": 11.9258282}, {"type": "node", "id": 5979957658, "lat": 58.3576032, "lon": 11.928448}, {"type": "node", "id": 5979957684, "lat": 58.3568458, "lon": 11.9258496}, {"type": "node", "id": 5979957688, "lat": 58.3570393, "lon": 11.9258966}, {"type": "node", "id": 5979957689, "lat": 58.3570562, "lon": 11.925967}, {"type": "node", "id": 5979957690, "lat": 58.357008, "lon": 11.9258456}, {"type": "node", "id": 5979957694, "lat": 58.3574878, "lon": 11.9280209}, {"type": "node", "id": 5979957695, "lat": 58.357383, "lon": 11.9275917}, {"type": "node", "id": 5979957696, "lat": 58.3572711, "lon": 11.9271411}, {"type": "node", "id": 5979957697, "lat": 58.3571607, "lon": 11.9266932}, {"type": "node", "id": 5979957698, "lat": 58.3571234, "lon": 11.9265054}, {"type": "node", "id": 5979957699, "lat": 58.3570924, "lon": 11.926315}, {"type": "node", "id": 5979957700, "lat": 58.3570249, "lon": 11.9258691}, {"type": "node", "id": 5979957701, "lat": 58.3568736, "lon": 11.9258402}, {"type": "node", "id": 5979957702, "lat": 58.3567646, "lon": 11.9258992}, {"type": "node", "id": 5979957715, "lat": 58.3558133, "lon": 11.9275635}, {"type": "node", "id": 5979957716, "lat": 58.356819, "lon": 11.9258624}, {"type": "node", "id": 5979957717, "lat": 58.3569867, "lon": 11.9258329}, {"type": "node", "id": 5980062598, "lat": 58.3545102, "lon": 11.9320992}, {"type": "node", "id": 5980062599, "lat": 58.354544, "lon": 11.9321085}, {"type": "node", "id": 5980062600, "lat": 58.3556008, "lon": 11.9316472}, {"type": "node", "id": 5981783487, "lat": 58.3567378, "lon": 11.9259294}, {"type": "node", "id": 5981783488, "lat": 58.3567923, "lon": 11.9258784}, {"type": "node", "id": 5981783493, "lat": 58.3566975, "lon": 11.9259886}, {"type": "node", "id": 6328839566, "lat": 58.2831314, "lon": 12.2923675}, {"type": "node", "id": 6328839571, "lat": 58.2832052, "lon": 12.2916617}, {"type": "node", "id": 6381665249, "lat": 58.3566344, "lon": 11.9310182}, {"type": "node", "id": 6448584629, "lat": 58.2546175, "lon": 12.278595, "tags": {"addr:city": "Trollh\u00e4ttan", "addr:country": "SE", "addr:housenumber": "19", "addr:postcode": "461 67", "addr:street": "Myrtuvev\u00e4gen", "amenity": "clinic", "contact:phone": "+46 10 441 50 50", "healthcare": "clinic", "name": "N\u00e4rh\u00e4lsan Sylte v\u00e5rdcentral", "network": "V\u00e4stra G\u00f6talandsregionen", "operator": "V\u00e4stra G\u00f6talandsregionen", "website": "https://www.narhalsan.se/hitta-mottagning/trollhattan/narhalsan-sylte-vardcentral/"}}, {"type": "node", "id": 6815587334, "lat": 58.3166691, "lon": 12.269164}, {"type": "node", "id": 6815587335, "lat": 58.3171969, "lon": 12.2704677}, {"type": "node", "id": 6815587336, "lat": 58.3172828, "lon": 12.2699288}, {"type": "node", "id": 6815587337, "lat": 58.3169546, "lon": 12.269903}, {"type": "node", "id": 6815587338, "lat": 58.3167358, "lon": 12.2695603}, {"type": "node", "id": 6815587339, "lat": 58.3158364, "lon": 12.2690238}, {"type": "node", "id": 6815604411, "lat": 58.3169081, "lon": 12.2657579}, {"type": "node", "id": 7806726119, "lat": 58.316601, "lon": 12.2643202}, {"type": "node", "id": 7806726120, "lat": 58.3167813, "lon": 12.2634405}, {"type": "node", "id": 7806726121, "lat": 58.3169222, "lon": 12.2632796}, {"type": "node", "id": 7806726122, "lat": 58.3173312, "lon": 12.2618902}, {"type": "node", "id": 7806726123, "lat": 58.3171152, "lon": 12.2617695}, {"type": "node", "id": 7806726124, "lat": 58.3168827, "lon": 12.2616944}, {"type": "node", "id": 7806726125, "lat": 58.3164982, "lon": 12.2612062}, {"type": "node", "id": 7806726126, "lat": 58.3165334, "lon": 12.2609997}, {"type": "node", "id": 7806726127, "lat": 58.3165869, "lon": 12.260702}, {"type": "node", "id": 7806726128, "lat": 58.3166602, "lon": 12.260592}, {"type": "node", "id": 7806726129, "lat": 58.3167799, "lon": 12.2604847}, {"type": "node", "id": 7806726130, "lat": 58.3168475, "lon": 12.2604686}, {"type": "node", "id": 7806726131, "lat": 58.3177097, "lon": 12.2605008}, {"type": "node", "id": 7806726132, "lat": 58.3175575, "lon": 12.2602943}, {"type": "node", "id": 7806726133, "lat": 58.3174336, "lon": 12.2601226}, {"type": "node", "id": 7806726134, "lat": 58.3174307, "lon": 12.2598651}, {"type": "node", "id": 7806726135, "lat": 58.3173941, "lon": 12.2596318}, {"type": "node", "id": 7806726136, "lat": 58.3172068, "lon": 12.2596049}, {"type": "node", "id": 7806726137, "lat": 58.3168954, "lon": 12.2603479}, {"type": "node", "id": 7806726138, "lat": 58.3169194, "lon": 12.2601575}, {"type": "node", "id": 7806726139, "lat": 58.3169011, "lon": 12.2599965}, {"type": "node", "id": 7806726140, "lat": 58.3167264, "lon": 12.2597444}, {"type": "node", "id": 7806726141, "lat": 58.3165996, "lon": 12.2592401}, {"type": "node", "id": 7806726142, "lat": 58.3166123, "lon": 12.2594815}, {"type": "node", "id": 7806726143, "lat": 58.3165925, "lon": 12.2594333}, {"type": "node", "id": 7806726144, "lat": 58.3166503, "lon": 12.2590765}, {"type": "node", "id": 7806726145, "lat": 58.316863, "lon": 12.259047}, {"type": "node", "id": 8623570431, "lat": 58.316481, "lon": 12.2614022}, {"type": "node", "id": 8623570435, "lat": 58.3166545, "lon": 12.2595787}, {"type": "node", "id": 8623570439, "lat": 58.3171786, "lon": 12.2595544}, {"type": "node", "id": 8623570442, "lat": 58.3174026, "lon": 12.2597364}, {"type": "node", "id": 9007233484, "lat": 58.371656, "lon": 11.9350706, "tags": {"addr:city": "Uddevalla", "addr:country": "SE", "addr:housenumber": "8", "addr:postcode": "451 72", "addr:street": "L\u00f6vskogsgatan", "amenity": "clinic", "name": "N\u00e4rh\u00e4lsan Dalaberg v\u00e5rdcentral", "operator": "V\u00e4stra G\u00f6talandsregionen", "operator:wikidata": "Q103093", "phone": "+46 10 441 68 00", "website": "https://www.narhalsan.se/hitta-mottagning/uddevalla/narhalsan-dalaberg-vardcentral/"}}, {"type": "node", "id": 9008175386, "lat": 58.2937928, "lon": 12.2834149, "tags": {"addr:city": "Trollh\u00e4ttan", "addr:country": "SE", "addr:housenumber": "16", "addr:postcode": "461 59", "addr:street": "Str\u00f6msviksv\u00e4gen", "amenity": "clinic", "name": "N\u00e4rh\u00e4lsan K\u00e4llstorp v\u00e5rdcentral", "operator": "V\u00e4stra G\u00f6talandsregionen", "phone": "+46 520 49 45 00", "website": "https://www.narhalsan.se/hitta-mottagning/trollhattan/narhalsan-kallstorp-vardcentral/"}}, {"type": "node", "id": 9026097560, "lat": 58.2546775, "lon": 12.2782939, "tags": {"addr:city": "Trollh\u00e4ttan", "addr:country": "SE", "addr:housenumber": "19", "addr:postcode": "461 67", "addr:street": "Myrtuvev\u00e4gen", "amenity": "clinic", "name": "N\u00e4rh\u00e4lsan Sylte barnav\u00e5rdscentral", "operator": "V\u00e4stra G\u00f6talandsregionen", "phone": "+46 10 441 50 45;+46 10 441 50 62", "website": "https://www.narhalsan.se/hitta-mottagning/trollhattan/narhalsan-sylte-barnavardscentral/"}}, {"type": "node", "id": 9026696457, "lat": 58.3485331, "lon": 11.9334725, "tags": {"addr:city": "Uddevalla", "addr:country": "SE", "addr:housenumber": "12", "addr:postcode": "451 40", "addr:street": "S\u00f6dra Hamngatan", "amenity": "clinic", "name": "N\u00e4rh\u00e4lsan Dagson barnav\u00e5rdscentral", "operator": "V\u00e4stra G\u00f6talandsregionen", "phone": "+46 10 441 64 00", "website": "https://www.narhalsan.se/hitta-mottagning/uddevalla/narhalsan-dagson-barnavardscentral/"}}, {"type": "node", "id": 9026699667, "lat": 58.3605331, "lon": 11.91521, "tags": {"addr:city": "Uddevalla", "addr:country": "SE", "addr:housenumber": "8", "addr:postcode": "451 60", "addr:street": "Sunnanvindsv\u00e4gen", "amenity": "clinic", "name": "N\u00e4rh\u00e4lsan Skogslyckan barnav\u00e5rdscentral", "operator": "V\u00e4stra G\u00f6talandsregionen", "phone": "+46 10 441 65 00", "website": "https://www.narhalsan.se/hitta-mottagning/uddevalla/narhalsan-skogslyckan-barnavardscentral2/"}}, {"type": "node", "id": 9026705098, "lat": 58.3481471, "lon": 11.9333031, "tags": {"addr:city": "Uddevalla", "addr:country": "SE", "addr:housenumber": "11", "addr:postcode": "451 40", "addr:street": "S\u00f6dergatan", "amenity": "clinic", "name": "N\u00e4rh\u00e4lsan Uddevalla jourcentral", "operator": "V\u00e4stra G\u00f6talandsregionen", "phone": "+46 70 082 37 25", "website": "https://www.narhalsan.se/hitta-mottagning/uddevalla/narhalsan-uddevalla-jourcentral/"}}, {"type": "node", "id": 9026720356, "lat": 58.3519398, "lon": 11.9288886, "tags": {"addr:city": "Uddevalla", "addr:country": "SE", "addr:housenumber": "5", "addr:postcode": "451 50", "addr:street": "B\u00e4vebacksgatan", "amenity": "clinic", "name": "Uddevalla rehabmottagning", "official_name": "N\u00e4rh\u00e4lsan Uddevalla rehabmottagning", "opening_hours": "Mo 07:30-16:30; Tu 07:30-17:30; We 07:30-16:30; Th 07:30-17:30; Fr 07:30-15:00", "operator": "V\u00e4stra G\u00f6talandsregionen", "phone": "+46 10 441 65 30", "website": "https://www.narhalsan.se/hitta-mottagning/uddevalla/narhalsan-uddevalla-rehabmottagning/", "wheelchair": "yes"}}, {"type": "node", "id": 9026984273, "lat": 58.4704894, "lon": 11.6710652, "tags": {"addr:city": "Munkedal", "addr:country": "SE", "addr:housenumber": "4", "addr:postcode": "455 33", "addr:street": "Bruksv\u00e4gen", "amenity": "clinic", "name": "N\u00e4rh\u00e4lsan Munkedal barnav\u00e5rdscentral", "operator": "V\u00e4stra G\u00f6talandsregionen", "phone": "+46 10 441 51 75;+46 10 441 51 76", "website": "https://www.narhalsan.se/hitta-mottagning/munkedal/narhalsan-munkedal-barnavardscentral/"}}, {"type": "node", "id": 9027061003, "lat": 58.4678355, "lon": 11.6681108, "tags": {"addr:city": "Munkedal", "addr:country": "SE", "addr:housenumber": "34", "addr:postcode": "455 30", "addr:street": "Centrumv\u00e4gen", "amenity": "clinic", "name": "N\u00e4rh\u00e4lsan Munkedal rehabmottagning", "operator": "V\u00e4stra G\u00f6talandsregionen", "phone": "+46 10 441 51 81", "website": "https://www.narhalsan.se/hitta-mottagning/munkedal/narhalsan-munkedal-rehabmottagning/"}}, {"type": "node", "id": 9027061004, "lat": 58.4678825, "lon": 11.6681229, "tags": {"addr:city": "Munkedal", "addr:country": "SE", "addr:housenumber": "34", "addr:postcode": "455 30", "addr:street": "Centrumv\u00e4gen", "amenity": "clinic", "name": "N\u00e4rh\u00e4lsan Munkedal v\u00e5rdcentral", "operator": "V\u00e4stra G\u00f6talandsregionen", "phone": "+46 10 441 51 40", "website": "https://www.narhalsan.se/hitta-mottagning/munkedal/narhalsan-munkedal-vardcentral/"}}, {"type": "node", "id": 9027111657, "lat": 58.2266669, "lon": 11.9183944, "tags": {"addr:city": "Ljungskile", "addr:country": "SE", "addr:housenumber": "28", "addr:postcode": "459 30", "addr:street": "V\u00e4llebergsv\u00e4gen", "amenity": "clinic", "name": "N\u00e4rh\u00e4lsan Ljungskile barnav\u00e5rdscentral", "operator": "V\u00e4stra G\u00f6talandsregionen", "phone": "+46 10 441 53 00", "website": "https://www.narhalsan.se/hitta-mottagning/uddevalla/narhalsan-ljungskile-barnavardscentral/"}}, {"type": "node", "id": 9028514974, "lat": 58.2937484, "lon": 12.2834095, "tags": {"addr:city": "Trollh\u00e4ttan", "addr:country": "SE", "addr:housenumber": "16", "addr:postcode": "461 59", "addr:street": "Str\u00f6msviksv\u00e4gen", "amenity": "clinic", "name": "N\u00e4rh\u00e4lsan K\u00e4llstorp barnav\u00e5rdscentral", "operator": "V\u00e4stra G\u00f6talandsregionen", "phone": "+46 520 49 45 00", "website": "https://www.narhalsan.se/hitta-mottagning/trollhattan/narhalsan-kallstorp-barnavardscentral/"}}, {"type": "node", "id": 9030226407, "lat": 58.3505341, "lon": 11.844576, "tags": {"addr:city": "Uddevalla", "addr:country": "SE", "addr:housenumber": "12", "addr:postcode": "451 75", "addr:street": "Lingatan", "amenity": "clinic", "name": "N\u00e4rh\u00e4lsan Herrestad rehabmottagning", "operator": "V\u00e4stra G\u00f6talandsregionen", "phone": "+46 10 441 65 30", "website": "https://www.narhalsan.se/hitta-mottagning/uddevalla/narhalsan-herrestad-rehabmottagning/"}}, {"type": "node", "id": 9030249968, "lat": 58.3505757, "lon": 11.8445733, "tags": {"addr:city": "Uddevalla", "addr:country": "SE", "addr:housenumber": "12", "addr:postcode": "451 75", "addr:street": "Lingatan", "amenity": "clinic", "name": "N\u00e4rh\u00e4lsan Herrestad barnav\u00e5rdscentral", "operator": "V\u00e4stra G\u00f6talandsregionen", "phone": "+46 10 441 64 40", "website": "https://www.narhalsan.se/hitta-mottagning/uddevalla/narhalsan-herrestad-barnavardscentral/"}}, {"type": "node", "id": 9030968939, "lat": 58.5607999, "lon": 11.9907926, "tags": {"addr:city": "F\u00e4rgelanda", "addr:country": "SE", "addr:housenumber": "5A", "addr:postcode": "458 32", "addr:street": "H\u00e5vestensv\u00e4gen", "amenity": "clinic", "name": "N\u00e4rh\u00e4lsan F\u00e4rgelanda barnav\u00e5rdscentral", "operator": "V\u00e4stra G\u00f6talandsregionen", "phone": "+46 10 441 50 10", "website": "https://www.narhalsan.se/hitta-mottagning/fargelanda/narhalsan-fargelanda-barnavardscentral/"}}, {"type": "node", "id": 9030977675, "lat": 58.5607551, "lon": 11.9907859, "tags": {"addr:city": "F\u00e4rgelanda", "addr:country": "SE", "addr:housenumber": "5A", "addr:postcode": "458 32", "addr:street": "H\u00e5vestensv\u00e4gen", "amenity": "clinic", "name": "N\u00e4rh\u00e4lsan F\u00e4rgelanda rehabmottagning", "operator": "V\u00e4stra G\u00f6talandsregionen", "phone": "+46 10 441 60 10", "website": "https://www.narhalsan.se/hitta-mottagning/fargelanda/narhalsan-fargelanda-rehabmottagning/"}}, {"type": "node", "id": 9038816791, "lat": 58.3715804, "lon": 11.9350728, "tags": {"addr:city": "Uddevalla", "addr:country": "SE", "addr:housenumber": "8", "addr:postcode": "451 72", "addr:street": "L\u00f6vskogsgatan", "amenity": "clinic", "name": "N\u00e4rh\u00e4lsan Dalaberg barnav\u00e5rdscentral", "operator": "V\u00e4stra G\u00f6talandsregionen", "operator:wikidata": "Q103093", "phone": "+46 10 441 68 00", "website": "https://www.narhalsan.se/hitta-mottagning/uddevalla/narhalsan-dalaberg-barnavardscentral/"}}, {"type": "node", "id": 9038960580, "lat": 58.2936948, "lon": 12.2831815, "tags": {"addr:city": "Trollh\u00e4ttan", "addr:country": "SE", "addr:housenumber": "16", "addr:postcode": "461 59", "addr:street": "Str\u00f6msviksv\u00e4gen", "amenity": "clinic", "name": "Trollh\u00e4ttan jourcentral", "operator": "V\u00e4stra G\u00f6talandsregionen", "phone": "+46 520 49 45 43", "website": "https://www.narhalsan.se/hitta-mottagning/trollhattan/trollhattan-jourcentral/"}}, {"type": "node", "id": 9039109236, "lat": 58.282281, "lon": 12.2895793, "tags": {"addr:city": "Trollh\u00e4ttan", "addr:country": "SE", "addr:housenumber": "1", "addr:postcode": "461 33", "addr:street": "G\u00e4rdhemsv\u00e4gen", "amenity": "clinic", "name": "N\u00e4rh\u00e4lsan Trollh\u00e4ttan rehabmottagning", "operator": "V\u00e4stra G\u00f6talandsregionen", "phone": "+46 010 441 69 50", "website": "https://www.narhalsan.se/hitta-mottagning/trollhattan/narhalsan-trollhattan-rehabmottagning/"}}, {"type": "node", "id": 10169364540, "lat": 58.3718104, "lon": 11.9352391, "tags": {"amenity": "pharmacy", "brand": "Kronans Apotek", "brand:wikidata": "Q10549422", "check_date": "2023-11-22", "dispensing": "yes", "healthcare": "pharmacy", "name": "Kronans Apotek", "opening_hours": "Mo-Fr 09:00-17:00"}}, {"type": "node", "id": 10217135310, "lat": 58.3434523, "lon": 11.9231458, "tags": {"amenity": "pharmacy", "brand": "Apotek Hj\u00e4rtat", "healthcare": "pharmacy", "name": "Apotek Hj\u00e4rtat", "opening_hours": "Mo-Fr 08:00-20:00; Sa 09:00-16:00; PH closed; Su 10:00-15:00"}}, {"type": "node", "id": 11505673576, "lat": 58.2334646, "lon": 11.6777312, "tags": {"amenity": "clinic", "healthcare": "clinic", "name": "Capio V\u00e5rdcentral Orust"}}, {"type": "node", "id": 11505700711, "lat": 58.3531404, "lon": 11.9282626, "tags": {"amenity": "clinic", "healthcare": "clinic", "name": "Centralh\u00e4lsan Silentzv\u00e4gen"}}, {"type": "node", "id": 11505736068, "lat": 58.2737564, "lon": 12.2902474, "tags": {"amenity": "clinic", "healthcare": "clinic", "name": "Capio V\u00e5rdcentral Hjortmossen"}}, {"type": "node", "id": 11505844194, "lat": 58.2701366, "lon": 12.2764933, "tags": {"amenity": "clinic", "healthcare": "clinic", "name": "Primapraktiken"}}, {"type": "node", "id": 11505846478, "lat": 58.2624901, "lon": 12.2977844, "tags": {"amenity": "clinic", "healthcare": "clinic", "name": "Lextorp V\u00e5rdcentral"}}, {"type": "node", "id": 11659617500, "lat": 58.3198214, "lon": 12.2695294}, {"type": "node", "id": 11659617501, "lat": 58.3198656, "lon": 12.2696552}, {"type": "node", "id": 11659617502, "lat": 58.3199732, "lon": 12.2698724}, {"type": "node", "id": 11659617503, "lat": 58.3201347, "lon": 12.2674822}, {"type": "node", "id": 11659617504, "lat": 58.3203511, "lon": 12.267356}, {"type": "node", "id": 11659617505, "lat": 58.3205981, "lon": 12.2672435}, {"type": "node", "id": 11659617506, "lat": 58.3208231, "lon": 12.267305}, {"type": "node", "id": 11659617507, "lat": 58.3208928, "lon": 12.2675471}, {"type": "node", "id": 11659617508, "lat": 58.3209101, "lon": 12.2678829}, {"type": "node", "id": 11659617509, "lat": 58.3210438, "lon": 12.2681843}, {"type": "node", "id": 11659617510, "lat": 58.3209923, "lon": 12.2687825}, {"type": "node", "id": 11659617511, "lat": 58.3202651, "lon": 12.2700348}, {"type": "node", "id": 11659617512, "lat": 58.320519, "lon": 12.2702043}, {"type": "node", "id": 11659617513, "lat": 58.3206686, "lon": 12.2704066}, {"type": "node", "id": 11659617514, "lat": 58.3207464, "lon": 12.270115}, {"type": "way", "id": 184729156, "nodes": [1952413188, 1952413179, 1952413216, 1952413214, 1952413178, 1952413189, 1952413204, 1952413167, 1952413202, 1952413201, 1952413235, 1952413181, 1952413230, 1952413166, 1952413198, 1952413172, 1952413162, 1952413197, 1952413188], "tags": {"addr:country": "SE", "addr:housenumber": "2", "addr:postcode": "46152", "addr:street": "Lasarettsv\u00e4gen", "amenity": "clinic", "building": "yes"}}, {"type": "way", "id": 186155058, "nodes": [1968497945, 1968497919, 1968497934, 1968497937, 6328839566, 1968497921, 1968497923, 6328839571, 1968497885, 1968497910, 1968497927, 1968497925, 1968497945], "tags": {"addr:country": "SE", "addr:housenumber": "21C", "addr:postcode": "46132", "addr:street": "Djupeb\u00e4cksgatan", "amenity": "clinic", "building": "yes", "healthcare": "clinic", "name": "Maria Alberts V\u00e5rdcentral"}}, {"type": "way", "id": 394646100, "nodes": [3976215956, 7806726145, 7806726144, 7806726141, 7806726143, 7806726142, 8623570435, 7806726140, 7806726139, 7806726138, 7806726137, 7806726130, 7806726129, 7806726128, 7806726127, 7806726126, 7806726125, 8623570431, 3976215951, 7806726124, 7806726123, 7806726122, 3976218757, 3976215955, 7806726121, 7806726120, 3976215952, 7806726119, 3976215954, 6815604411, 3976215953, 1952898200, 1952898127, 1952898227, 1952898035, 6815587339, 6815587334, 6815587338, 6815587337, 6815587336, 6815587335, 3976215948, 3976218758, 3976218761, 3976218764, 11659617500, 11659617501, 11659617502, 11659617511, 11659617512, 11659617513, 11659617514, 3976218765, 11659617510, 11659617509, 11659617508, 11659617507, 11659617506, 11659617505, 11659617504, 11659617503, 3976218766, 3976218767, 3976218768, 3976218769, 3976218772, 3976218771, 3976218770, 3976218762, 3976218763, 4993092250, 3976218760, 3976218759, 4993092246, 7806726131, 7806726132, 7806726133, 7806726134, 8623570442, 7806726135, 7806726136, 8623570439, 3976215956], "tags": {"amenity": "hospital", "emergency": "yes", "health_specialty:emergency_medicine": "yes", "health_specialty:family_medicine": "yes", "health_specialty:intensive_care_medicine": "yes", "health_specialty:paediatrics": "yes", "health_specialty:surgery": "yes", "health_specialty:vascular_surgery": "yes", "healthcare": "hospital", "name": "Norra \u00c4lvsborgs L\u00e4nssjukhus", "opening_hours": "24/7", "short_name": "N\u00c4L", "toilets:wheelchair": "yes", "website": "https://www.nusjukvarden.se/sv/NU-sjukvarden/Hitta-varden/Nal/", "wheelchair": "yes", "wikidata": "Q7053233"}}, {"type": "way", "id": 469525457, "nodes": [5688702799, 5688702792, 5688702793, 5979955882, 5979957715, 5688702798, 5688702797, 5688702796, 5688702812, 5688703323, 5688702820, 5688702818, 5688702817, 5688702804, 5980062598, 5980062599, 5688702808, 5688703322, 5688702803, 5980062600, 5688702815, 5688702809, 6381665249, 5688702811, 5688702816, 5688702801, 5688702810, 5688702807, 5688702806, 5688702814, 5688703321, 5688702805, 5688702813, 5688702791, 5688702790, 5688702802, 5979957658, 5979957694, 5979957695, 5979957696, 5979957697, 5979957698, 5979957699, 5979957689, 5688702800, 5979957688, 5979957700, 5979957690, 5979957717, 5979957651, 5688702794, 5979957701, 5979957684, 5979957716, 5981783488, 5979957702, 5981783487, 5688702795, 5981783493, 5688702799], "tags": {"amenity": "hospital", "check_date": "2023-11-23", "name": "Uddevalla sjukhus", "operator:type": "public"}}]}