{"version": 0.6, "generator": "Overpass API 0.7.61.5 4133829e", "osm3s": {"timestamp_osm_base": "2024-03-05T13:45:59Z", "copyright": "The data included in this document is from www.openstreetmap.org. The data is made available under ODbL."}, "elements": [{"type": "node", "id": 3442157091, "lat": 33.7062424, "lon": 70.3267526, "tags": {"name": "\u0635\u062f\u06c1", "name:en": "Sadda", "place": "city", "population": "34495"}}, {"type": "node", "id": 3902716792, "lat": 33.4583691, "lon": 69.9460132, "tags": {"name": "Bakhtana", "place": "village"}}, {"type": "node", "id": 3902716793, "lat": 33.6227644, "lon": 70.1751373, "tags": {"name": "Jaji Maydan", "place": "village"}}, {"type": "node", "id": 3902716795, "lat": 33.458221, "lon": 69.995041, "tags": {"alt_name": "Ya`qub;Ya`qubi;\u064a\u0639\u0642\u0648\u0628\u06cc", "name": "\u06cc\u0639\u0642\u0648\u0628\u06cc", "name:en": "Yakubi", "name:ps": "\u06cc\u0639\u0642\u0648\u0628\u06cc", "name:ru": "Yakubi", "place": "town", "source:name": "GNS", "wikidata": "Q8047217", "wikipedia": "en:Yakubi"}}, {"type": "node", "id": 4160068057, "lat": 33.7287651, "lon": 70.3808383, "tags": {"place": "village"}}, {"type": "node", "id": 4160068875, "lat": 33.70093, "lon": 70.3688005, "tags": {"place": "village"}}, {"type": "node", "id": 4411883141, "lat": 33.340843, "lon": 70.214946, "tags": {"alt_name": "\u0644\u0646\u062f\u0631", "name": "\u0644\u0646\u0689\u0631", "name:en": "Landar", "name:ps": "\u0644\u0646\u0689\u0631", "name:ru": "Pandar", "place": "village", "source:name": "GNS"}}, {"type": "node", "id": 4412905936, "lat": 33.36821, "lon": 70.014028, "tags": {"alt_name": "\u0645\u0647\u062f\u06cc \u062e\u064a\u0644;Mehdi Kheyl;Mahdi Khel;Madi Khel;Mahdikhel", "name": "\u0645\u0647\u062f\u06cc \u062e\u06d0\u0644", "name:en": "Mahdi Kheyl", "name:ps": "\u0645\u0647\u062f\u06cc \u062e\u06d0\u0644", "name:ru": "Makhdikheyl'", "place": "village", "source:name": "GNS"}}, {"type": "node", "id": 4412940432, "lat": 33.436204, "lon": 70.067109, "tags": {"alt_name": "\u0639\u0644\u06cc \u0634\u064a\u0631 \u0639\u0644\u0627\u0642\u0647\u062f\u0627\u0631\u06cc;\u0639\u0644\u06cc \u0634\u06d0\u0631;Aliser 'Alaqadari;`Ali Shir `Alaqehdari;`Ali Sher;`Ali Sher `Alaqahdari", "name": "\u0639\u0644\u06cc \u0634\u06d0\u0631 \u0639\u0644\u0627\u0642\u0647 \u062f\u0627\u0631\u06cc", "name:en": "Alishahr", "name:ps": "\u0639\u0644\u06cc \u0634\u06d0\u0631 \u0639\u0644\u0627\u0642\u0647 \u062f\u0627\u0631\u06cc", "name:ru": "Alisheralakadari", "place": "town", "source:name": "GNS"}}, {"type": "node", "id": 4412947870, "lat": 33.505597, "lon": 70.031311, "tags": {"name": "\u0628\u0689\u06cc", "name:en": "Baday", "name:ps": "\u0628\u0689\u06cc", "place": "village", "source:name": "GNS"}}, {"type": "node", "id": 4412947872, "lat": 33.532325, "lon": 70.0241221, "tags": {"name": "Bak", "name:en": "Bak", "name:fa": "\u0628\u0627\u0643", "name:ps": "Bak", "name:ru": "\u0411\u0430\u043a", "place": "town", "source:name": "GNS"}}, {"type": "node", "id": 4412947873, "lat": 33.500427, "lon": 70.046447, "tags": {"alt_name": "\u0642\u0644\u0639\u0647 \u0643\u0648\u062a\u0648\u0644\u06cc;Kowtulay Kala", "name": "\u06a9\u0648\u062a\u0648\u0644\u06cc \u06a9\u0644\u0627", "name:en": "Kotolay Kala", "name:ps": "\u06a9\u0648\u062a\u0648\u0644\u06cc \u06a9\u0644\u0627", "name:ru": "Kotalaykala", "place": "village", "source:name": "GNS"}}, {"type": "node", "id": 4412947874, "lat": 33.516223, "lon": 70.049251, "tags": {"alt_name": "Sal Kalay", "name": "\u0633\u0644 \u06a9\u0644\u06cc", "name:en": "Sal Kelay", "name:ps": "\u0633\u0644 \u06a9\u0644\u06cc", "name:ru": "Sal'kalay", "place": "village", "source:name": "GNS"}}, {"type": "node", "id": 4412980086, "lat": 33.63013, "lon": 70.124395, "tags": {"alt_name": "`Ata Khel;Alokhel", "name": "\u0639\u0637\u0627 \u062e\u06cc\u0644", "name:en": "Atakhel", "name:ps": "\u0639\u0637\u0627 \u062e\u06cc\u0644", "name:ru": "Atakhel", "place": "village", "source:name": "GNS"}}, {"type": "node", "id": 4412980087, "lat": 33.6265126, "lon": 70.1343624, "tags": {"alt_name": "Jajimaydan;Meydan Dzadzi;Jaji Meydan;Jaji Maydan", "gns:dsg": "LCTY: locality", "name": "\u062c\u0627\u062c\u06cc \u0645\u06cc\u062f\u0627\u0646", "name:en": "Jaji Maidan", "name:ps": "\u062c\u0627\u062c\u06cc \u0645\u06cc\u062f\u0627\u0646", "name:ru": "\u0414\u0437\u0430\u0434\u0437\u0438\u043c\u0430\u0439\u0434\u0430\u043d", "place": "town", "source:name": "GNS"}}, {"type": "node", "id": 4412980289, "lat": 33.628939, "lon": 70.116667, "tags": {"alt_name": "Kocakan;Kotsakon;Kocakon", "name": "\u06a9\u0648\u0686\u06a9\u0627\u0646", "name:en": "Kochakan", "name:ps": "\u06a9\u0648\u0686\u06a9\u0627\u0646", "name:ru": "Kochakan", "place": "village", "source:name": "GNS"}}, {"type": "node", "id": 4412980290, "lat": 33.635842, "lon": 70.122509, "tags": {"alt_name": "Mochay Kelay;Mochay Kalay;Muchay Kelay;Mocay Kalay", "name": "\u0645\u0686\u06cc \u06a9\u0644\u06cc", "name:en": "Maidan Qala", "name:ps": "\u0645\u0686\u06cc \u06a9\u0644\u06cc", "name:ru": "Mochakalay", "place": "village", "source:name": "GNS"}}, {"type": "node", "id": 4412980291, "lat": 33.622941, "lon": 70.121292, "tags": {"alt_name": "Moghul Khel;Moghol Kheyl", "name": "\u0645\u063a\u0644 \u062e\u06d0\u0644", "name:en": "Moghulkhel", "name:ps": "\u0645\u063a\u0644 \u062e\u06d0\u0644", "name:ru": "Magul'kheyl'", "place": "village", "source:name": "GNS"}}, {"type": "node", "id": 4953229207, "lat": 33.5367802, "lon": 70.3444684, "tags": {"name": "Alizai", "place": "village"}}, {"type": "node", "id": 5345373052, "lat": 33.4903233, "lon": 70.0010902, "tags": {"name": "Khalbisat", "place": "village"}}, {"type": "node", "id": 6242866462, "lat": 33.5440018, "lon": 70.1313622}, {"type": "node", "id": 6242866463, "lat": 33.5441625, "lon": 70.1318087}, {"type": "node", "id": 6242866464, "lat": 33.5440441, "lon": 70.1322654}, {"type": "node", "id": 6242866465, "lat": 33.5427585, "lon": 70.1319609}, {"type": "node", "id": 6242866466, "lat": 33.5430207, "lon": 70.1314942}, {"type": "node", "id": 6242866467, "lat": 33.5436381, "lon": 70.1311593}, {"type": "way", "id": 666774396, "nodes": [6242866462, 6242866463, 6242866464, 6242866465, 6242866466, 6242866467, 6242866462], "tags": {"place": "hamlet"}}]}