{"version": 0.6, "generator": "Overpass API 0.7.61.5 4133829e", "osm3s": {"timestamp_osm_base": "2024-03-06T11:30:59Z", "copyright": "The data included in this document is from www.openstreetmap.org. The data is made available under ODbL."}, "elements": [{"type": "node", "id": 6863016288, "lat": -2.5083514, "lon": 40.2862874}, {"type": "node", "id": 7467282762, "lat": -2.5089167, "lon": 40.2862917}, {"type": "node", "id": 7467282763, "lat": -2.508921, "lon": 40.2853567}, {"type": "node", "id": 7467282764, "lat": -2.5083556, "lon": 40.285354}, {"type": "node", "id": 11122056129, "lat": -2.5087015, "lon": 40.2863003}, {"type": "node", "id": 11219799830, "lat": -2.3359875, "lon": 40.2127436, "tags": {"amenity": "clinic", "healthcare": "clinic", "is_in:county": "Tana River", "name": "Galili Dispensary"}}, {"type": "node", "id": 11645444595, "lat": -2.5031254, "lon": 40.2561548, "tags": {"amenity": "pharmacy", "ele": "-20.6", "evacuation_centre": "yes", "flood_prone": "no", "name": "Mandingo pharmacy", "opening_hours": "12hrs", "operational_status": "operational", "operator": "Ministry of Health", "operator:type": "public", "precision": "4.65", "source": "KRCS2023", "staff_count": "4", "storage_area": "yes"}}, {"type": "node", "id": 11645444599, "lat": -2.4411406, "lon": 40.1691924, "tags": {"amenity": "pharmacy", "ele": "22.8", "evacuation_centre": "yes", "flood_prone": "no", "name": "Tarasaa Catholic pharmacy", "opening_hours": "8-10hours", "operational_status": "operational", "operator": "Nurse", "operator:type": "religious", "precision": "4.34", "source": "KRCS2023", "staff_count": "5", "storage_area": "yes"}}, {"type": "node", "id": 11645444600, "lat": -2.4353704, "lon": 40.2117108, "tags": {"amenity": "pharmacy", "ele": "-27.2", "evacuation_centre": "yes", "flood_prone": "yes", "name": "Kipao pharmacy", "opening_hours": "24hrs", "operational_status": "operational", "operator": "Ministry of Health", "operator:type": "public", "precision": "4.8", "source": "KRCS2023", "staff_count": "3", "storage_area": "yes"}}, {"type": "node", "id": 11645444602, "lat": -2.520322, "lon": 40.3247025, "tags": {"amenity": "clinic", "ele": "-25.343", "evacuation_centre": "no", "flood_prone": "no", "name": "Blue heal medical clinic", "opening_hours": "12hrs", "operational_status": "operational", "operator": "Private", "operator:type": "private", "precision": "2.383", "source": "KRCS2023", "staff_count": "1", "storage_area": "yes"}}, {"type": "node", "id": 11645444603, "lat": -2.4121473, "lon": 40.2016374, "tags": {"amenity": "hospital", "ele": "1.7", "evacuation_centre": "no", "flood_prone": "no", "name": "Ngao Sub County Hospital", "opening_hours": "24hrs", "operational_status": "operational", "operator": "MED SUPER", "operator:type": "public", "precision": "4.95", "source": "KRCS2023", "staff_count": "57", "storage_area": "yes"}}, {"type": "node", "id": 11645444606, "lat": -2.3566443, "lon": 40.1339137, "tags": {"amenity": "pharmacy", "ele": "20.4", "evacuation_centre": "no", "flood_prone": "no", "name": "Shirikisho Methodist Women pharmacy", "opening_hours": "8hrs", "operational_status": "operational", "operator": "CEO", "operator:type": "religious", "precision": "3.9", "source": "KRCS2023", "staff_count": "5", "storage_area": "yes"}}, {"type": "node", "id": 11645444609, "lat": -2.508708, "lon": 40.2855745, "tags": {"amenity": "pharmacy", "ele": "-21.139", "evacuation_centre": "yes", "flood_prone": "no", "name": "Semikaro pharmacy", "opening_hours": "12hrs", "operational_status": "operational", "operator": "Ministry of Health", "operator:type": "public", "precision": "3.9", "source": "KRCS2023", "staff_count": "6", "storage_area": "yes"}}, {"type": "node", "id": 11645444611, "lat": -2.3360113, "lon": 40.2125742, "tags": {"amenity": "pharmacy", "ele": "-23.2", "evacuation_centre": "no", "flood_prone": "yes", "name": "Galili pharmacy", "opening_hours": "12hrs", "operational_status": "operational", "operator": "Ministry of Health", "operator:type": "public", "precision": "4.42", "source": "KRCS2023", "staff_count": "4", "storage_area": "yes"}}, {"type": "node", "id": 11645444613, "lat": -2.4690255, "lon": 40.1936653, "tags": {"amenity": "pharmacy", "ele": "16.0", "evacuation_centre": "no", "flood_prone": "yes", "name": "Oda pharmacy", "opening_hours": "24hrs", "operational_status": "operational", "operator": "Ministry of Health", "operator:type": "public", "precision": "4.54", "source": "KRCS2023", "staff_count": "12", "storage_area": "yes"}}, {"type": "way", "id": 798377820, "nodes": [6863016288, 11122056129, 7467282762, 7467282763, 7467282764, 6863016288], "tags": {"amenity": "hospital", "healthcare": "hospital", "name": "Semikaro dispensary"}}]}