{"version": 0.6, "generator": "Overpass API 0.7.61.5 4133829e", "osm3s": {"timestamp_osm_base": "2024-02-29T13:48:25Z", "copyright": "The data included in this document is from www.openstreetmap.org. The data is made available under ODbL."}, "elements": [{"type": "node", "id": 2515035701, "lat": 8.476426, "lon": 0.3212401}, {"type": "node", "id": 3869452723, "lat": 8.4473295, "lon": 0.0748004}, {"type": "node", "id": 3869452724, "lat": 8.4473295, "lon": 0.0764344}, {"type": "node", "id": 3869452726, "lat": 8.4473495, "lon": 0.077052}, {"type": "node", "id": 3869452728, "lat": 8.4484363, "lon": 0.0731132}, {"type": "node", "id": 3869452729, "lat": 8.4474596, "lon": 0.0731161}, {"type": "node", "id": 3869452731, "lat": 8.449503, "lon": 0.0731947}, {"type": "node", "id": 3869452732, "lat": 8.4493498, "lon": 0.0771626}, {"type": "node", "id": 3869452733, "lat": 8.4505358, "lon": 0.0733483}, {"type": "node", "id": 3869452734, "lat": 8.4513479, "lon": 0.0770763}, {"type": "node", "id": 3869452736, "lat": 8.4515777, "lon": 0.0735057}, {"type": "node", "id": 3869452737, "lat": 8.4515106, "lon": 0.0757595}, {"type": "node", "id": 6547609016, "lat": 8.4975855, "lon": 0.3004172}, {"type": "node", "id": 6548912666, "lat": 8.4333349, "lon": 0.3702767, "tags": {"amenity": "school"}}, {"type": "node", "id": 6548961833, "lat": 8.3974548, "lon": 0.4093312, "tags": {"amenity": "school"}}, {"type": "node", "id": 6548968477, "lat": 8.354115, "lon": 0.4491536, "tags": {"amenity": "school"}}, {"type": "node", "id": 6548971676, "lat": 8.3931203, "lon": 0.4139328, "tags": {"amenity": "school"}}, {"type": "node", "id": 6548974059, "lat": 8.4304341, "lon": 0.3791291, "tags": {"amenity": "school"}}, {"type": "node", "id": 6548974114, "lat": 8.4702843, "lon": 0.3305905, "tags": {"amenity": "school", "name": "Jumbo No. 1 Basic school"}}, {"type": "node", "id": 6548974705, "lat": 8.3773081, "lon": 0.4244612, "tags": {"amenity": "school"}}, {"type": "node", "id": 6548984432, "lat": 8.412894, "lon": 0.3918213, "tags": {"amenity": "school"}}, {"type": "node", "id": 6548992095, "lat": 8.4398665, "lon": 0.358373, "tags": {"amenity": "school"}}, {"type": "node", "id": 6548998266, "lat": 8.4522732, "lon": 0.3465398, "tags": {"amenity": "school"}}, {"type": "node", "id": 7487596500, "lat": 8.4958785, "lon": 0.2958283}, {"type": "node", "id": 7487596501, "lat": 8.5008899, "lon": 0.2969037}, {"type": "node", "id": 7487596502, "lat": 8.4944887, "lon": 0.2981512}, {"type": "node", "id": 7487596503, "lat": 8.4987984, "lon": 0.2948926}, {"type": "node", "id": 8489218631, "lat": 8.4765639, "lon": 0.3219858}, {"type": "node", "id": 8489218632, "lat": 8.4756911, "lon": 0.3214064}, {"type": "node", "id": 8489218633, "lat": 8.4761209, "lon": 0.3207546}, {"type": "node", "id": 8645196980, "lat": 8.5072041, "lon": 0.29208, "tags": {"amenity": "school", "name": "St Francis Academy"}}, {"type": "node", "id": 8645212239, "lat": 8.3370008, "lon": 0.4634168, "tags": {"amenity": "school"}}, {"type": "node", "id": 8645212391, "lat": 8.5094706, "lon": 0.4342924, "tags": {"amenity": "school", "fixme": "check node location", "name": "Jumbo no 2 D/A Primary School"}}, {"type": "node", "id": 8653341649, "lat": 8.1539772, "lon": 0.1126903, "tags": {"amenity": "school"}}, {"type": "way", "id": 383634837, "nodes": [3869452723, 3869452724, 3869452726, 3869452732, 3869452734, 3869452737, 3869452736, 3869452733, 3869452731, 3869452728, 3869452729, 3869452723], "tags": {"amenity": "school"}}, {"type": "way", "id": 800558196, "nodes": [7487596503, 7487596500, 7487596502, 6547609016, 7487596501, 7487596503], "tags": {"addr:country": "GH", "addr:district": "Nkwanta North", "addr:place": "Kpassa", "addr:region": "Oti", "amenity": "school", "description": "Kpassa Senior High Technical School was established on the 15th of February, 1993 with the prime aim of promoting Agriculture in the area. In view of this, the Agricultural Science Programme was the focus.", "email": "kpassashst@ges.gov.gh", "isced:level": "3", "name": "Kpassa Senior High/Technical School", "operator": "Ghana Education Service", "operator:short": "GES", "operator:type": "public", "operator:wikidata": "Q30263788", "phone": "+233 24 478 8554", "start_date": "1993-02-15"}}, {"type": "way", "id": 913871977, "nodes": [8489218633, 8489218632, 8489218631, 2515035701, 8489218633], "tags": {"amenity": "school", "name": "New Agou Basic Schools"}}]}